<?xml version='1.0' encoding='UTF-8'?>
<osm version="0.6" generator="libosmium/2.20.0">
  <node id="365080560" version="2" timestamp="2009-04-26T21:23:42Z" uid="34428" user="usm78-gis" changeset="981766" lat="60.0060629" lon="30.3544112">
    <tag k="barrier" v="gate"/>
  </node>
  <node id="365080560" version="3" timestamp="2011-10-30T18:02:52Z" uid="395588" user="Danidin9" changeset="9696469" lat="60.0060748" lon="30.3541565">
    <tag k="barrier" v="gate"/>
  </node>
  <node id="365082702" version="1" timestamp="2009-03-23T17:16:47Z" uid="12188" user="Babis" changeset="848067" lat="37.93676" lon="23.7189094"/>
  <node id="365082919" version="1" timestamp="2009-03-23T17:17:19Z" uid="12188" user="Babis" changeset="848067" lat="37.9378295" lon="23.7206088"/>
  <node id="365082919" version="2" timestamp="2009-03-23T17:17:23Z" uid="12188" user="Babis" changeset="848067" lat="37.9378295" lon="23.7206088"/>
  <node id="365082922" version="1" timestamp="2009-03-23T17:17:19Z" uid="12188" user="Babis" changeset="848067" lat="37.9380896" lon="23.7204164"/>
  <node id="365082922" version="2" timestamp="2009-03-23T17:17:24Z" uid="12188" user="Babis" changeset="848067" lat="37.9380896" lon="23.7204164"/>
  <node id="365082922" version="3" timestamp="2009-03-23T17:17:24Z" uid="12188" user="Babis" changeset="848067" lat="37.9380896" lon="23.7204164"/>
  <node id="365082922" version="4" timestamp="2009-03-23T17:17:47Z" uid="12188" user="Babis" changeset="848067" lat="37.9380896" lon="23.7204164"/>
  <node id="365082922" version="5" timestamp="2009-03-23T17:17:50Z" uid="12188" user="Babis" changeset="848067" lat="37.9380896" lon="23.7204164"/>
  <node id="365082922" version="6" timestamp="2009-03-23T17:18:09Z" uid="12188" user="Babis" changeset="848067" lat="37.9380896" lon="23.7204164"/>
  <node id="365082922" version="7" timestamp="2009-03-24T16:49:05Z" uid="12188" user="Babis" changeset="852625" lat="37.9380896" lon="23.7204164"/>
  <node id="365082922" version="8" timestamp="2009-03-29T09:32:57Z" uid="12188" user="Babis" changeset="867754" lat="37.9380896" lon="23.7204164"/>
  <node id="365082922" version="9" timestamp="2009-03-29T09:33:04Z" uid="12188" user="Babis" changeset="867754" lat="37.9380896" lon="23.7204164"/>
  <node id="365082922" version="10" timestamp="2009-03-29T09:33:50Z" uid="12188" user="Babis" changeset="867754" lat="37.9380896" lon="23.7204164"/>
  <node id="365082922" version="11" timestamp="2009-03-29T09:33:59Z" uid="12188" user="Babis" changeset="867754" lat="37.9380896" lon="23.7204164"/>
  <node id="365083853" version="2" timestamp="2010-07-01T20:39:33Z" uid="49111" user="Markus B" changeset="5123579" lat="49.4523948" lon="11.0753778"/>
  <node id="365083853" version="3" timestamp="2011-11-12T22:52:04Z" uid="497849" user="pyram" changeset="9809532" lat="49.4523948" lon="11.0753778"/>
  <node id="365083855" version="2" timestamp="2010-07-01T20:39:33Z" uid="49111" user="Markus B" changeset="5123579" lat="49.452429" lon="11.0753814"/>
  <node id="365083855" version="3" timestamp="2011-11-12T22:52:02Z" uid="497849" user="pyram" changeset="9809532" lat="49.4525024" lon="11.0754098"/>
  <node id="365083855" version="4" timestamp="2011-11-13T18:47:01Z" uid="346758" user="kukuk" changeset="9817596" lat="49.4525024" lon="11.0754098"/>
  <node id="365083857" version="2" timestamp="2010-07-01T20:39:33Z" uid="49111" user="Markus B" changeset="5123579" lat="49.4524417" lon="11.0754751"/>
  <node id="365083857" version="3" timestamp="2011-11-12T22:52:02Z" uid="497849" user="pyram" changeset="9809532" lat="49.4525062" lon="11.0755428"/>
  <node id="365083857" version="4" timestamp="2011-11-13T18:47:01Z" uid="346758" user="kukuk" changeset="9817596" lat="49.4525062" lon="11.0755428"/>
  <node id="365083860" version="2" timestamp="2010-07-01T20:39:33Z" uid="49111" user="Markus B" changeset="5123579" lat="49.4523026" lon="11.0754751"/>
  <node id="365083860" version="3" timestamp="2011-11-12T22:52:02Z" uid="497849" user="pyram" changeset="9809532" lat="49.4523177" lon="11.0755267"/>
  <node id="365083860" version="4" timestamp="2011-11-13T18:47:01Z" uid="346758" user="kukuk" changeset="9817596" lat="49.4523177" lon="11.0755267"/>
  <node id="365083982" version="2" timestamp="2010-07-01T20:39:32Z" uid="49111" user="Markus B" changeset="5123579" lat="49.4525137" lon="11.0743779"/>
  <node id="365083982" version="3" timestamp="2011-11-13T19:22:25Z" uid="346758" user="kukuk" changeset="9817977" lat="49.4525137" lon="11.0743779"/>
  <node id="365084058" version="3" timestamp="2010-07-03T19:01:35Z" uid="49111" user="Markus B" changeset="5127130" lat="49.4523779" lon="11.0727775"/>
  <node id="365084058" version="4" timestamp="2011-11-14T23:09:57Z" uid="346758" user="kukuk" changeset="9830162" lat="49.4523978" lon="11.0727867"/>
  <node id="365084058" version="5" timestamp="2011-11-18T17:56:12Z" uid="346758" user="kukuk" changeset="9866227" lat="49.4523978" lon="11.0727867"/>
  <node id="365086969" version="2" timestamp="2009-04-06T23:29:16Z" uid="6975" user="ulfl" changeset="293615" lat="51.4112865" lon="7.325699">
    <tag k="highway" v="bus_stop"/>
    <tag k="name" v="In den Espeln"/>
    <tag k="operator" v="BOGESTRA"/>
  </node>
  <node id="365086969" version="3" timestamp="2010-10-24T14:22:27Z" uid="351645" user="akbo" changeset="6157219" lat="51.4112865" lon="7.325699">
    <tag k="highway" v="bus_stop"/>
    <tag k="name" v="In den Espeln"/>
    <tag k="operator" v="BOGESTRA"/>
  </node>
  <node id="365086971" version="2" timestamp="2009-04-06T23:29:16Z" uid="6975" user="ulfl" changeset="293615" lat="51.4133912" lon="7.3278996">
    <tag k="highway" v="bus_stop"/>
    <tag k="name" v="Bommeregge"/>
    <tag k="operator" v="BOGESTRA"/>
  </node>
  <node id="365086971" version="3" timestamp="2010-10-24T14:22:27Z" uid="351645" user="akbo" changeset="6157219" lat="51.4133912" lon="7.3278996">
    <tag k="highway" v="bus_stop"/>
    <tag k="name" v="Bommeregge"/>
    <tag k="operator" v="BOGESTRA"/>
  </node>
  <node id="365086973" version="2" timestamp="2009-04-06T23:29:18Z" uid="6975" user="ulfl" changeset="293615" lat="51.4049807" lon="7.3198918">
    <tag k="highway" v="bus_stop"/>
    <tag k="name" v="Bommern Wasserturm"/>
    <tag k="operator" v="BOGESTRA"/>
  </node>
  <node id="365086973" version="3" timestamp="2009-07-28T15:41:28Z" uid="53007" user="musekusz" changeset="1966558" lat="51.4049935" lon="7.3199103">
    <tag k="highway" v="bus_stop"/>
    <tag k="name" v="Bommern Wasserturm"/>
    <tag k="operator" v="BOGESTRA"/>
  </node>
  <node id="365086973" version="4" timestamp="2010-10-24T14:14:32Z" uid="351645" user="akbo" changeset="6157138" lat="51.4050086" lon="7.3198901">
    <tag k="bus" v="yes"/>
    <tag k="highway" v="bus_stop"/>
    <tag k="name" v="Bommern Wasserturm"/>
    <tag k="operator" v="BOGESTRA"/>
    <tag k="public_transport" v="platform"/>
  </node>
  <node id="365086973" version="5" timestamp="2011-01-09T19:34:56Z" uid="351645" user="akbo" changeset="6919495" lat="51.4050086" lon="7.3198901">
    <tag k="bus" v="yes"/>
    <tag k="name" v="Bommern Wasserturm"/>
    <tag k="operator" v="BOGESTRA"/>
    <tag k="public_transport" v="platform"/>
  </node>
  <node id="365086973" version="6" timestamp="2011-06-14T09:49:43Z" uid="399089" user="AlexBochum" changeset="8435457" lat="51.4050086" lon="7.3198901">
    <tag k="bus" v="yes"/>
    <tag k="highway" v="bus_stop"/>
    <tag k="name" v="Bommern Wasserturm"/>
    <tag k="operator" v="BOGESTRA"/>
    <tag k="public_transport" v="platform"/>
  </node>
  <node id="365086973" version="7" timestamp="2011-06-17T14:06:29Z" uid="351645" user="akbo" changeset="8465266" lat="51.4050265" lon="7.3198841">
    <tag k="bus" v="yes"/>
    <tag k="highway" v="bus_stop"/>
    <tag k="name" v="Bommern Wasserturm"/>
    <tag k="operator" v="BOGESTRA"/>
    <tag k="public_transport" v="platform"/>
  </node>
  <node id="365086973" version="8" timestamp="2011-07-16T20:37:47Z" uid="351645" user="akbo" changeset="8742824" lat="51.4050265" lon="7.3198841"/>
  <node id="365086975" version="2" timestamp="2009-04-06T23:29:17Z" uid="6975" user="ulfl" changeset="293615" lat="51.4048039" lon="7.3197966">
    <tag k="highway" v="bus_stop"/>
    <tag k="name" v="Bommern Wasserturm"/>
    <tag k="operator" v="BOGESTRA"/>
  </node>
  <node id="365086975" version="3" timestamp="2009-07-28T15:41:28Z" uid="53007" user="musekusz" changeset="1966558" lat="51.4048641" lon="7.3196796">
    <tag k="highway" v="bus_stop"/>
    <tag k="name" v="Bommern Wasserturm"/>
    <tag k="operator" v="BOGESTRA"/>
  </node>
  <node id="365086975" version="4" timestamp="2010-10-24T10:22:39Z" uid="351645" user="akbo" changeset="6155028" lat="51.4048641" lon="7.3196796">
    <tag k="bus" v="yes"/>
    <tag k="highway" v="bus_stop"/>
    <tag k="name" v="Bommern Wasserturm"/>
    <tag k="operator" v="BOGESTRA"/>
    <tag k="public_transport" v="platform"/>
  </node>
  <node id="365086975" version="5" timestamp="2011-01-09T19:37:17Z" uid="351645" user="akbo" changeset="6919495" lat="51.4048641" lon="7.3196796">
    <tag k="bus" v="yes"/>
    <tag k="name" v="Bommern Wasserturm"/>
    <tag k="operator" v="BOGESTRA"/>
    <tag k="public_transport" v="platform"/>
  </node>
  <node id="365086975" version="6" timestamp="2011-06-14T09:49:45Z" uid="399089" user="AlexBochum" changeset="8435457" lat="51.4048641" lon="7.3196796">
    <tag k="bus" v="yes"/>
    <tag k="highway" v="bus_stop"/>
    <tag k="name" v="Bommern Wasserturm"/>
    <tag k="operator" v="BOGESTRA"/>
    <tag k="public_transport" v="platform"/>
  </node>
  <node id="365086975" version="7" timestamp="2011-06-17T14:06:28Z" uid="351645" user="akbo" changeset="8465266" lat="51.404866" lon="7.319595">
    <tag k="bus" v="yes"/>
    <tag k="highway" v="bus_stop"/>
    <tag k="name" v="Bommern Wasserturm"/>
    <tag k="operator" v="BOGESTRA"/>
    <tag k="public_transport" v="platform"/>
  </node>
  <node id="365086975" version="8" timestamp="2011-07-16T18:36:16Z" uid="351645" user="akbo" changeset="8741901" lat="51.404866" lon="7.319595">
    <tag k="bus" v="yes"/>
    <tag k="name" v="Bommern Wasserturm"/>
    <tag k="operator" v="BOGESTRA"/>
    <tag k="public_transport" v="platform"/>
  </node>
  <node id="365086977" version="2" timestamp="2009-04-06T23:29:18Z" uid="6975" user="ulfl" changeset="293615" lat="51.4047609" lon="7.3198655">
    <tag k="highway" v="bus_stop"/>
    <tag k="name" v="Bommern Wasserturm"/>
    <tag k="operator" v="BOGESTRA"/>
  </node>
  <node id="365086977" version="3" timestamp="2009-07-28T15:41:28Z" uid="53007" user="musekusz" changeset="1966558" lat="51.4047903" lon="7.3197957">
    <tag k="highway" v="bus_stop"/>
    <tag k="name" v="Bommern Wasserturm"/>
    <tag k="operator" v="BOGESTRA"/>
  </node>
  <node id="365086977" version="4" timestamp="2010-10-24T10:22:40Z" uid="351645" user="akbo" changeset="6155028" lat="51.4047903" lon="7.3197957">
    <tag k="bus" v="yes"/>
    <tag k="highway" v="bus_stop"/>
    <tag k="name" v="Bommern Wasserturm"/>
    <tag k="operator" v="BOGESTRA"/>
    <tag k="public_transport" v="platform"/>
  </node>
  <node id="365086977" version="5" timestamp="2011-01-09T19:39:33Z" uid="351645" user="akbo" changeset="6919495" lat="51.4047903" lon="7.3197957">
    <tag k="bus" v="yes"/>
    <tag k="name" v="Bommern Wasserturm"/>
    <tag k="operator" v="BOGESTRA"/>
    <tag k="public_transport" v="platform"/>
  </node>
  <node id="365086977" version="6" timestamp="2011-06-14T09:49:42Z" uid="399089" user="AlexBochum" changeset="8435457" lat="51.4047903" lon="7.3197957">
    <tag k="bus" v="yes"/>
    <tag k="highway" v="bus_stop"/>
    <tag k="name" v="Bommern Wasserturm"/>
    <tag k="operator" v="BOGESTRA"/>
    <tag k="public_transport" v="platform"/>
  </node>
  <node id="365086977" version="7" timestamp="2011-07-16T18:36:16Z" uid="351645" user="akbo" changeset="8741901" lat="51.4047903" lon="7.3197957">
    <tag k="bus" v="yes"/>
    <tag k="name" v="Bommern Wasserturm"/>
    <tag k="operator" v="BOGESTRA"/>
    <tag k="public_transport" v="platform"/>
  </node>
</osm>
