<?xml version='1.0' encoding='UTF-8'?>
<osm version="0.6" generator="libosmium/2.20.0">
  <node id="365476115" version="2" timestamp="2011-03-13T01:53:04Z" uid="4467" user="Rosscoe" changeset="7540264" lat="-37.8565565" lon="145.2959959"/>
  <node id="365476115" version="3" timestamp="2011-10-06T08:42:29Z" uid="11111" user="melb_guy" changeset="9483824" lat="-37.8565627" lon="145.2959915"/>
  <node id="365476588" version="3" timestamp="2011-03-13T01:53:30Z" uid="4467" user="Rosscoe" changeset="7540264" lat="-37.8544443" lon="145.2975168"/>
  <node id="365476972" version="3" timestamp="2009-09-30T15:27:42Z" uid="36809" user="pfoten_weg_!_" changeset="2689684" lat="47.2946468" lon="11.6000508">
    <tag k="aeroway" v="helipad"/>
  </node>
  <node id="365476972" version="4" timestamp="2010-09-26T17:38:17Z" uid="81244" user="rurseekatze" changeset="5883622" lat="47.2946468" lon="11.6000508">
    <tag k="aeroway" v="helipad"/>
  </node>
  <node id="365477949" version="1" timestamp="2009-03-25T02:17:58Z" uid="110593" user="esetzer" changeset="855467" lat="40.7635043" lon="-111.891007">
    <tag k="created_by" v="Merkaartor 0.11"/>
    <tag k="name" v="Gallivan Plaza UTA TRAX Station"/>
    <tag k="railway" v="tram_stop"/>
  </node>
  <node id="365477949" version="2" timestamp="2009-03-28T02:15:50Z" uid="110593" user="esetzer" changeset="866414" lat="40.7635043" lon="-111.891007">
    <tag k="created_by" v="Merkaartor 0.11"/>
    <tag k="name" v="Gallivan Plaza"/>
    <tag k="railway" v="tram_stop"/>
  </node>
  <node id="365477949" version="3" timestamp="2009-04-25T19:49:06Z" uid="104930" user="butlerm" changeset="957287" lat="40.7635044" lon="-111.8910928">
    <tag k="name" v="Gallivan Plaza"/>
    <tag k="railway" v="tram_stop"/>
  </node>
  <node id="365477949" version="4" timestamp="2009-08-31T19:08:27Z" uid="154407" user="nemmer" changeset="2330248" lat="40.7635044" lon="-111.8910928">
    <tag k="name" v="Gallivan Plaza"/>
    <tag k="railway" v="light_rail"/>
  </node>
  <node id="365477949" version="5" timestamp="2009-08-31T19:17:42Z" uid="154407" user="nemmer" changeset="2330248" lat="40.7635044" lon="-111.8910928">
    <tag k="name" v="Gallivan Plaza"/>
    <tag k="railway" v="light_rail"/>
  </node>
  <node id="365477949" version="6" timestamp="2009-09-06T21:21:56Z" uid="110593" user="esetzer" changeset="2397253" lat="40.7635044" lon="-111.8910928">
    <tag k="name" v="Gallivan Plaza"/>
    <tag k="railway" v="tram_stop"/>
  </node>
  <node id="365477949" version="7" timestamp="2009-09-17T19:41:32Z" uid="110593" user="esetzer" changeset="2516324" lat="40.7635044" lon="-111.8910928">
    <tag k="name" v="Gallivan Plaza"/>
    <tag k="railway" v="tram_stop"/>
    <tag k="wheelchair" v="yes"/>
  </node>
  <node id="365477949" version="8" timestamp="2011-03-31T11:27:24Z" uid="207745" user="NE2" changeset="7725188" lat="40.7635044" lon="-111.8910928">
    <tag k="name" v="Gallivan Plaza"/>
    <tag k="railway" v="tram_stop"/>
    <tag k="wheelchair" v="yes"/>
  </node>
  <node id="365478084" version="1" timestamp="2009-03-25T02:19:26Z" uid="110593" user="esetzer" changeset="855467" lat="40.7590923" lon="-111.8910407">
    <tag k="created_by" v="Merkaartor 0.11"/>
    <tag k="name" v="Courthouse UTA TRAX Station"/>
    <tag k="railway" v="tram_stop"/>
  </node>
  <node id="365478084" version="2" timestamp="2009-03-28T02:15:49Z" uid="110593" user="esetzer" changeset="866414" lat="40.7590923" lon="-111.8910407">
    <tag k="created_by" v="Merkaartor 0.11"/>
    <tag k="name" v="Courthouse"/>
    <tag k="railway" v="tram_stop"/>
  </node>
  <node id="365478084" version="3" timestamp="2009-04-25T19:49:06Z" uid="104930" user="butlerm" changeset="957287" lat="40.7590966" lon="-111.8910756">
    <tag k="name" v="Courthouse"/>
    <tag k="railway" v="tram_stop"/>
  </node>
  <node id="365478084" version="4" timestamp="2009-08-31T19:17:38Z" uid="154407" user="nemmer" changeset="2330248" lat="40.7590966" lon="-111.8910756">
    <tag k="name" v="Courthouse"/>
    <tag k="railway" v="light_rail"/>
  </node>
  <node id="365478084" version="5" timestamp="2009-08-31T19:34:14Z" uid="154407" user="nemmer" changeset="2330248" lat="40.7590966" lon="-111.8910756">
    <tag k="name" v="Courthouse"/>
    <tag k="railway" v="halt"/>
  </node>
  <node id="365478084" version="6" timestamp="2009-09-06T21:21:56Z" uid="110593" user="esetzer" changeset="2397253" lat="40.7590966" lon="-111.8910756">
    <tag k="name" v="Courthouse"/>
    <tag k="railway" v="tram_stop"/>
  </node>
  <node id="365478084" version="7" timestamp="2009-09-17T19:41:30Z" uid="110593" user="esetzer" changeset="2516324" lat="40.7590966" lon="-111.8910756">
    <tag k="name" v="Courthouse"/>
    <tag k="railway" v="tram_stop"/>
    <tag k="wheelchair" v="yes"/>
  </node>
  <node id="365478084" version="8" timestamp="2010-04-19T08:05:44Z" uid="110593" user="esetzer" changeset="4465649" lat="40.7590966" lon="-111.891076">
    <tag k="name" v="Courthouse"/>
    <tag k="railway" v="tram_stop"/>
    <tag k="tactile_paving" v="yes"/>
    <tag k="wheelchair" v="yes"/>
  </node>
  <node id="365478432" version="2" timestamp="2009-04-15T05:16:13Z" uid="6975" user="ulfl" changeset="553994" lat="-32.9294604" lon="151.6820204">
    <tag k="highway" v="bus_stop"/>
  </node>
  <node id="365478433" version="2" timestamp="2009-04-15T05:16:14Z" uid="6975" user="ulfl" changeset="553994" lat="-32.929573" lon="151.6819963">
    <tag k="highway" v="bus_stop"/>
  </node>
  <node id="365479056" version="2" timestamp="2009-04-15T05:16:52Z" uid="6975" user="ulfl" changeset="553994" lat="-32.9281615" lon="151.6829377">
    <tag k="highway" v="bus_stop"/>
  </node>
  <node id="365479058" version="2" timestamp="2009-04-15T05:16:51Z" uid="6975" user="ulfl" changeset="553994" lat="-32.9281344" lon="151.6830558">
    <tag k="highway" v="bus_stop"/>
  </node>
  <node id="365479686" version="2" timestamp="2009-04-15T05:15:32Z" uid="6975" user="ulfl" changeset="553994" lat="-32.9239063" lon="151.6795474">
    <tag k="highway" v="bus_stop"/>
  </node>
  <node id="365479687" version="2" timestamp="2009-04-15T05:15:33Z" uid="6975" user="ulfl" changeset="553994" lat="-32.9238343" lon="151.6797352">
    <tag k="highway" v="bus_stop"/>
  </node>
</osm>
