<?xml version='1.0' encoding='UTF-8'?>
<osm version="0.6" generator="libosmium/2.20.0">
  <node id="366651832" version="5" timestamp="2009-04-15T05:16:53Z" uid="6975" user="ulfl" changeset="553994" lat="52.0604105" lon="5.1382064">
    <tag k="highway" v="bus_stop"/>
    <tag k="name" v="Sleeswijk"/>
    <tag k="route_ref" v="8\s10"/>
    <tag k="shelter" v="yes"/>
  </node>
  <node id="366651832" version="6" timestamp="2009-05-23T11:03:02Z" uid="70696" user="xybot" changeset="1293006" lat="52.0604105" lon="5.1382064">
    <tag k="highway" v="bus_stop"/>
    <tag k="name" v="Sleeswijk"/>
    <tag k="route_ref" v="8;10"/>
    <tag k="shelter" v="yes"/>
  </node>
  <node id="366651832" version="7" timestamp="2009-08-18T14:32:44Z" uid="2758" user="Stefan de Konink" changeset="2190060" lat="52.0604105" lon="5.1382064">
    <tag k="highway" v="bus_stop"/>
    <tag k="name" v="Sleeswijk"/>
    <tag k="route_ref" v="8;10"/>
    <tag k="shelter" v="yes"/>
    <tag k="zone" v="5000"/>
  </node>
  <node id="366651832" version="8" timestamp="2010-02-17T08:27:29Z" uid="26230" user="BugBlue" changeset="3898894" lat="52.0604074" lon="5.1381504">
    <tag k="highway" v="bus_stop"/>
    <tag k="name" v="Sleeswijk"/>
    <tag k="route_ref" v="8;10"/>
    <tag k="shelter" v="yes"/>
    <tag k="zone" v="5000"/>
  </node>
  <node id="366651832" version="9" timestamp="2010-12-03T12:25:18Z" uid="26230" user="BugBlue" changeset="6525354" lat="52.0603375" lon="5.1381486">
    <tag k="cxx:code" v="50003160"/>
    <tag k="cxx:id" v="45467"/>
    <tag k="highway" v="bus_stop"/>
    <tag k="name" v="Sleeswijk"/>
    <tag k="route_ref" v="8;10"/>
    <tag k="shelter" v="yes"/>
    <tag k="source" v="CXX"/>
    <tag k="zone" v="5000"/>
  </node>
  <node id="366652383" version="2" timestamp="2009-04-15T05:16:41Z" uid="6975" user="ulfl" changeset="553994" lat="52.0632483" lon="5.1383664">
    <tag k="highway" v="bus_stop"/>
    <tag k="name" v="Betuwe"/>
    <tag k="route_ref" v="8\s10"/>
    <tag k="shelter" v="no"/>
  </node>
  <node id="366652383" version="3" timestamp="2009-05-23T11:03:02Z" uid="70696" user="xybot" changeset="1293006" lat="52.0632483" lon="5.1383664">
    <tag k="highway" v="bus_stop"/>
    <tag k="name" v="Betuwe"/>
    <tag k="route_ref" v="8;10"/>
    <tag k="shelter" v="no"/>
  </node>
  <node id="366652383" version="4" timestamp="2009-08-18T14:32:47Z" uid="2758" user="Stefan de Konink" changeset="2190060" lat="52.0632483" lon="5.1383664">
    <tag k="highway" v="bus_stop"/>
    <tag k="name" v="Betuwe"/>
    <tag k="route_ref" v="8;10"/>
    <tag k="shelter" v="no"/>
    <tag k="zone" v="5000"/>
  </node>
  <node id="366652383" version="5" timestamp="2010-12-03T12:26:18Z" uid="26230" user="BugBlue" changeset="6525354" lat="52.0633132" lon="5.1384383">
    <tag k="cxx:code" v="50003170"/>
    <tag k="cxx:id" v="45468"/>
    <tag k="highway" v="bus_stop"/>
    <tag k="name" v="Betuwe"/>
    <tag k="route_ref" v="8;10"/>
    <tag k="shelter" v="no"/>
    <tag k="source" v="CXX"/>
    <tag k="zone" v="5000"/>
  </node>
  <node id="366652510" version="2" timestamp="2009-04-15T05:15:29Z" uid="6975" user="ulfl" changeset="553994" lat="52.0639396" lon="5.1388127">
    <tag k="highway" v="bus_stop"/>
    <tag k="name" v="Betuwe"/>
    <tag k="route_ref" v="8\s10"/>
    <tag k="shelter" v="yes"/>
  </node>
  <node id="366652510" version="3" timestamp="2009-05-23T11:03:03Z" uid="70696" user="xybot" changeset="1293006" lat="52.0639396" lon="5.1388127">
    <tag k="highway" v="bus_stop"/>
    <tag k="name" v="Betuwe"/>
    <tag k="route_ref" v="8;10"/>
    <tag k="shelter" v="yes"/>
  </node>
  <node id="366652510" version="4" timestamp="2009-08-18T14:32:48Z" uid="2758" user="Stefan de Konink" changeset="2190060" lat="52.0639396" lon="5.1388127">
    <tag k="highway" v="bus_stop"/>
    <tag k="name" v="Betuwe"/>
    <tag k="route_ref" v="8;10"/>
    <tag k="shelter" v="yes"/>
    <tag k="zone" v="5000"/>
  </node>
  <node id="366652510" version="5" timestamp="2010-12-03T12:27:05Z" uid="26230" user="BugBlue" changeset="6525354" lat="52.063952" lon="5.1387556">
    <tag k="cxx:code" v="50003180"/>
    <tag k="cxx:id" v="45469"/>
    <tag k="highway" v="bus_stop"/>
    <tag k="name" v="Betuwe"/>
    <tag k="route_ref" v="8;10"/>
    <tag k="shelter" v="yes"/>
    <tag k="source" v="CXX"/>
    <tag k="zone" v="5000"/>
  </node>
  <node id="366653656" version="4" timestamp="2011-05-08T08:06:05Z" uid="9581" user="Lobelt" changeset="8079820" lat="49.8402564" lon="8.1269554">
    <tag k="amenity" v="post_box"/>
    <tag k="operator" v="Deutsche Post"/>
  </node>
  <node id="366653656" version="5" timestamp="2011-08-17T10:57:02Z" uid="29717" user="eumiro" changeset="9044790" lat="49.8402564" lon="8.1269554">
    <tag k="amenity" v="post_box"/>
    <tag k="operator" v="Deutsche Post AG"/>
  </node>
  <node id="366653656" version="6" timestamp="2011-10-30T21:54:51Z" uid="56410" user="andis_project" changeset="9698784" lat="49.8402564" lon="8.1269554">
    <tag k="amenity" v="post_box"/>
    <tag k="collection_times" v="Mo-Fr 15:00; Sa 11:00"/>
    <tag k="operator" v="Deutsche Post AG"/>
  </node>
  <node id="366653716" version="4" timestamp="2009-04-15T05:16:04Z" uid="6975" user="ulfl" changeset="553994" lat="52.0668968" lon="5.1402708">
    <tag k="highway" v="bus_stop"/>
    <tag k="name" v="Texel"/>
    <tag k="route_ref" v="1\s31"/>
    <tag k="shelter" v="yes"/>
  </node>
  <node id="366653716" version="5" timestamp="2009-05-23T11:03:03Z" uid="70696" user="xybot" changeset="1293006" lat="52.0668968" lon="5.1402708">
    <tag k="highway" v="bus_stop"/>
    <tag k="name" v="Texel"/>
    <tag k="route_ref" v="1;31"/>
    <tag k="shelter" v="yes"/>
  </node>
  <node id="366653716" version="6" timestamp="2009-08-18T14:32:50Z" uid="2758" user="Stefan de Konink" changeset="2190060" lat="52.0668968" lon="5.1402708">
    <tag k="highway" v="bus_stop"/>
    <tag k="name" v="Texel"/>
    <tag k="route_ref" v="1;31"/>
    <tag k="shelter" v="yes"/>
    <tag k="zone" v="5000"/>
  </node>
  <node id="366653716" version="7" timestamp="2010-12-03T12:25:59Z" uid="26230" user="BugBlue" changeset="6525354" lat="52.0669753" lon="5.1403284">
    <tag k="cxx:code" v="50006522"/>
    <tag k="cxx:id" v="45720"/>
    <tag k="highway" v="bus_stop"/>
    <tag k="name" v="Texel"/>
    <tag k="route_ref" v="1;31"/>
    <tag k="shelter" v="yes"/>
    <tag k="source" v="CXX"/>
    <tag k="zone" v="5000"/>
  </node>
  <node id="366657715" version="2" timestamp="2009-11-05T03:14:18Z" uid="36809" user="pfoten_weg_!_" changeset="3037787" lat="53.3097137" lon="13.8508171"/>
  <node id="366657724" version="3" timestamp="2009-11-05T03:14:35Z" uid="36809" user="pfoten_weg_!_" changeset="3037787" lat="53.3181445" lon="13.8531939"/>
  <node id="366657829" version="3" timestamp="2010-07-29T09:26:36Z" uid="74617" user="JohnSmith" changeset="5344848" lat="53.3064259" lon="13.8610911">
    <tag k="amenity" v="emergency_phone"/>
    <tag k="emergency" v="phone"/>
  </node>
  <node id="366659918" version="2" timestamp="2009-10-28T03:07:15Z" uid="23543" user="jkjk" changeset="2970551" lat="50.0510717" lon="14.4464774">
    <tag k="amenity" v="fuel"/>
    <tag k="name" v="Na Pankráci"/>
    <tag k="operator" v="OMW"/>
  </node>
  <node id="366659920" version="2" timestamp="2009-10-28T03:07:11Z" uid="23543" user="jkjk" changeset="2970551" lat="50.051232" lon="14.4461449"/>
  <node id="366659921" version="2" timestamp="2009-10-28T03:07:15Z" uid="23543" user="jkjk" changeset="2970551" lat="50.0509944" lon="14.446662"/>
  <node id="366659921" version="3" timestamp="2011-05-02T06:22:41Z" uid="17615" user="Petr Dlouhý" changeset="8027942" lat="50.0509944" lon="14.4466483"/>
  <node id="366659922" version="2" timestamp="2009-10-28T03:07:15Z" uid="23543" user="jkjk" changeset="2970551" lat="50.0508447" lon="14.4467044"/>
  <node id="366659923" version="2" timestamp="2009-10-28T03:07:15Z" uid="23543" user="jkjk" changeset="2970551" lat="50.0507258" lon="14.446935"/>
  <node id="366659924" version="2" timestamp="2009-10-28T03:07:14Z" uid="23543" user="jkjk" changeset="2970551" lat="50.050526" lon="14.4473226"/>
  <node id="366659925" version="2" timestamp="2009-10-28T03:07:15Z" uid="23543" user="jkjk" changeset="2970551" lat="50.050295" lon="14.4476288"/>
</osm>
