<?xml version='1.0' encoding='UTF-8'?>
<osm version="0.6" generator="libosmium/2.20.0">
  <node id="366861148" version="3" timestamp="2009-04-07T18:30:13Z" uid="6975" user="ulfl" changeset="298062" lat="56.1802428" lon="10.1675791">
    <tag k="amenity" v="place_of_worship"/>
    <tag k="denomination" v="protestant"/>
    <tag k="name" v="Helligåndskirken"/>
    <tag k="religion" v="christian"/>
  </node>
  <node id="366861148" version="4" timestamp="2009-07-11T20:40:21Z" uid="48588" user="rasmusv" changeset="1801500" lat="56.1802534" lon="10.1678328">
    <tag k="amenity" v="place_of_worship"/>
    <tag k="denomination" v="protestant"/>
    <tag k="name" v="Helligåndskirken"/>
    <tag k="religion" v="christian"/>
  </node>
  <node id="366861148" version="5" timestamp="2010-02-07T14:52:20Z" uid="48588" user="rasmusv" changeset="3814939" lat="56.1802357" lon="10.1676529">
    <tag k="amenity" v="place_of_worship"/>
    <tag k="denomination" v="protestant"/>
    <tag k="name" v="Helligåndskirken"/>
    <tag k="religion" v="christian"/>
  </node>
  <node id="366861148" version="6" timestamp="2010-12-04T11:02:47Z" uid="48588" user="rasmusv" changeset="6536124" lat="56.1801894" lon="10.1675478">
    <tag k="amenity" v="place_of_worship"/>
    <tag k="denomination" v="protestant"/>
    <tag k="name" v="Helligåndskirken"/>
    <tag k="religion" v="christian"/>
  </node>
  <node id="366861148" version="7" timestamp="2011-08-01T14:43:19Z" uid="21323" user="AE35" changeset="8891475" lat="56.1801894" lon="10.1675478">
    <tag k="amenity" v="place_of_worship"/>
    <tag k="denomination" v="lutheran"/>
    <tag k="name" v="Helligåndskirken"/>
    <tag k="religion" v="christian"/>
  </node>
  <node id="366863190" version="1" timestamp="2009-03-29T11:57:54Z" uid="6975" user="ulfl" changeset="867035" lat="49.4364655" lon="11.0843488"/>
  <node id="366863190" version="2" timestamp="2011-12-11T01:53:28Z" uid="71557" user="Taroc" changeset="10086348" lat="49.4364655" lon="11.0843488"/>
  <node id="366863191" version="1" timestamp="2009-03-29T11:57:54Z" uid="6975" user="ulfl" changeset="867035" lat="49.4367007" lon="11.0844125"/>
  <node id="366863191" version="2" timestamp="2011-12-11T01:53:28Z" uid="71557" user="Taroc" changeset="10086348" lat="49.4367007" lon="11.0844125"/>
  <node id="366863193" version="1" timestamp="2009-03-29T11:57:55Z" uid="6975" user="ulfl" changeset="867035" lat="49.436994" lon="11.0845453"/>
  <node id="366863193" version="2" timestamp="2011-12-11T01:53:28Z" uid="71557" user="Taroc" changeset="10086348" lat="49.436994" lon="11.0845453"/>
  <node id="366863195" version="1" timestamp="2009-03-29T11:57:55Z" uid="6975" user="ulfl" changeset="867035" lat="49.4371794" lon="11.0847306"/>
  <node id="366863195" version="2" timestamp="2011-12-11T01:53:28Z" uid="71557" user="Taroc" changeset="10086348" lat="49.4371794" lon="11.0847306"/>
  <node id="366863196" version="1" timestamp="2009-03-29T11:57:55Z" uid="6975" user="ulfl" changeset="867035" lat="49.4372735" lon="11.0848773"/>
  <node id="366863196" version="2" timestamp="2011-12-11T01:53:28Z" uid="71557" user="Taroc" changeset="10086348" lat="49.4372735" lon="11.0848773"/>
  <node id="366864565" version="1" timestamp="2009-03-29T12:01:27Z" uid="6975" user="ulfl" changeset="867035" lat="49.4373924" lon="11.0906019">
    <tag k="amenity" v="bicycle_parking"/>
  </node>
  <node id="366864565" version="2" timestamp="2011-12-11T10:15:35Z" uid="71557" user="Taroc" changeset="10087937" lat="49.4373924" lon="11.0906019"/>
  <node id="366864629" version="2" timestamp="2009-04-15T07:16:35Z" uid="6975" user="ulfl" changeset="553994" lat="47.174523" lon="7.5407105">
    <tag k="cars" v="Kia\s Lotus"/>
    <tag k="ele" v="486.000000"/>
    <tag k="shop" v="car"/>
  </node>
  <node id="366864629" version="3" timestamp="2009-05-20T15:56:55Z" uid="70696" user="xybot" changeset="1266021" lat="47.174523" lon="7.5407105">
    <tag k="cars" v="Kia; Lotus"/>
    <tag k="ele" v="486.000000"/>
    <tag k="shop" v="car"/>
  </node>
  <node id="366864769" version="2" timestamp="2009-04-15T07:16:35Z" uid="6975" user="ulfl" changeset="553994" lat="47.1654496" lon="7.5270119">
    <tag k="cars" v="Peugeot"/>
    <tag k="ele" v="471"/>
    <tag k="shop" v="car"/>
  </node>
  <node id="366864769" version="3" timestamp="2011-07-28T08:42:34Z" uid="481380" user="Nzara" changeset="8852260" lat="47.1654058" lon="7.5268081">
    <tag k="cars" v="Peugeot"/>
    <tag k="ele" v="471"/>
    <tag k="shop" v="car"/>
  </node>
  <node id="366864969" version="1" timestamp="2009-03-29T12:02:44Z" uid="6975" user="ulfl" changeset="867035" lat="49.4361557" lon="11.091147">
    <tag k="amenity" v="atm"/>
    <tag k="operator" v="Postbank"/>
  </node>
  <node id="366864969" version="2" timestamp="2011-12-18T17:52:46Z" uid="479256" user="geodreieck4711" changeset="10149000" lat="49.4361557" lon="11.091147"/>
  <node id="366865914" version="2" timestamp="2009-04-15T07:16:33Z" uid="6975" user="ulfl" changeset="553994" lat="47.1880223" lon="7.5564175">
    <tag k="cars" v="Toyota"/>
    <tag k="ele" v="469"/>
    <tag k="shop" v="car"/>
  </node>
  <node id="366866362" version="2" timestamp="2009-04-15T07:16:33Z" uid="6975" user="ulfl" changeset="553994" lat="47.1907579" lon="7.553731">
    <tag k="cars" v="Volvo"/>
    <tag k="ele" v="468"/>
    <tag k="shop" v="car"/>
  </node>
  <node id="366866362" version="3" timestamp="2010-10-07T07:06:13Z" uid="332909" user="GPS-Mic" changeset="5975600" lat="47.1906895" lon="7.5536025">
    <tag k="name" v="Volvo"/>
    <tag k="operator" v="Viatte-Straub AG"/>
    <tag k="shop" v="car"/>
  </node>
  <node id="366866362" version="4" timestamp="2010-10-29T22:19:17Z" uid="332909" user="GPS-Mic" changeset="6223039" lat="47.1908755" lon="7.5534743">
    <tag k="name" v="Volvo"/>
    <tag k="operator" v="Viatte-Straub AG"/>
    <tag k="shop" v="car"/>
  </node>
  <node id="366866362" version="5" timestamp="2010-10-29T22:19:31Z" uid="332909" user="GPS-Mic" changeset="6223039" lat="47.1907516" lon="7.5534743">
    <tag k="name" v="Volvo"/>
    <tag k="operator" v="Viatte-Straub AG"/>
    <tag k="shop" v="car"/>
  </node>
  <node id="366866362" version="6" timestamp="2011-02-28T08:12:07Z" uid="332909" user="GPS-Mic" changeset="7418184" lat="47.1907517" lon="7.5534742">
    <tag k="name" v="Volvo Viatte-Straub"/>
    <tag k="operator" v="Viatte-Straub AG"/>
    <tag k="shop" v="car"/>
    <tag k="website" v="www.volvosolothurn.ch"/>
  </node>
  <node id="366869508" version="2" timestamp="2010-03-07T19:54:22Z" uid="9581" user="Lobelt" changeset="4065569" lat="49.5110538" lon="8.5493936"/>
  <node id="366869508" version="3" timestamp="2011-01-03T07:26:26Z" uid="6326" user="mike_hd" changeset="6846715" lat="49.5110456" lon="8.5493601"/>
  <node id="366869528" version="2" timestamp="2010-03-07T19:54:22Z" uid="9581" user="Lobelt" changeset="4065569" lat="49.5102719" lon="8.5506893"/>
  <node id="366869528" version="3" timestamp="2011-01-03T07:26:27Z" uid="6326" user="mike_hd" changeset="6846715" lat="49.5102617" lon="8.5506643"/>
  <node id="366869528" version="4" timestamp="2011-06-19T16:48:52Z" uid="110838" user="Bernhard W" changeset="8486205" lat="49.5102688" lon="8.5506668"/>
</osm>
