<?xml version='1.0' encoding='UTF-8'?>
<osm version="0.6" generator="libosmium/2.20.0">
  <node id="367644327" version="1" timestamp="2009-03-30T18:53:13Z" uid="36809" user="pfoten_weg_!_" changeset="871597" lat="48.0746113" lon="11.5265608">
    <tag k="amenity" v="post_box"/>
    <tag k="created_by" v="RambaZamba"/>
    <tag k="name" v="Deutsche Post Briefkasten"/>
    <tag k="operator" v="Deutsche Post"/>
    <tag k="source" v="survey"/>
  </node>
  <node id="367644327" version="2" timestamp="2009-05-03T00:38:40Z" uid="36809" user="pfoten_weg_!_" changeset="1055292" lat="48.0744448" lon="11.5265988">
    <tag k="amenity" v="post_box"/>
    <tag k="created_by" v="RambaZamba"/>
    <tag k="name" v="Deutsche Post Briefkasten"/>
    <tag k="operator" v="Deutsche Post"/>
    <tag k="source" v="survey"/>
  </node>
  <node id="367644327" version="3" timestamp="2009-06-08T23:14:47Z" uid="36809" user="pfoten_weg_!_" changeset="1464108" lat="48.0744448" lon="11.5265988">
    <tag k="amenity" v="post_box"/>
    <tag k="created_by" v="RambaZamba"/>
    <tag k="name" v="Deutsche Post Briefkasten"/>
    <tag k="operator" v="Deutsche Post"/>
    <tag k="source" v="survey"/>
  </node>
  <node id="367644335" version="1" timestamp="2009-03-30T18:53:14Z" uid="36809" user="pfoten_weg_!_" changeset="871597" lat="48.0734735" lon="11.5213418">
    <tag k="amenity" v="post_box"/>
    <tag k="created_by" v="RambaZamba"/>
    <tag k="name" v="Deutsche Post Briefkasten"/>
    <tag k="operator" v="Deutsche Post"/>
    <tag k="source" v="survey"/>
  </node>
  <node id="367644335" version="2" timestamp="2009-03-30T19:34:57Z" uid="36809" user="pfoten_weg_!_" changeset="871597" lat="48.0734859" lon="11.5212373">
    <tag k="amenity" v="post_box"/>
    <tag k="created_by" v="RambaZamba"/>
    <tag k="name" v="Deutsche Post Briefkasten"/>
    <tag k="operator" v="Deutsche Post"/>
    <tag k="source" v="survey"/>
  </node>
  <node id="367644335" version="3" timestamp="2009-05-16T23:58:39Z" uid="36809" user="pfoten_weg_!_" changeset="1216754" lat="48.0732066" lon="11.5218361">
    <tag k="amenity" v="post_box"/>
    <tag k="created_by" v="RambaZamba"/>
    <tag k="name" v="Deutsche Post Briefkasten"/>
    <tag k="operator" v="Deutsche Post"/>
    <tag k="source" v="survey"/>
  </node>
  <node id="367644335" version="4" timestamp="2009-08-12T13:42:12Z" uid="156995" user="HampelZamba" changeset="2118817" lat="48.0732066" lon="11.5218361">
    <tag k="amenity" v="post_box"/>
    <tag k="name" v="Deutsche Post Briefkasten"/>
    <tag k="operator" v="Deutsche Post"/>
    <tag k="source" v="survey"/>
  </node>
  <node id="367644335" version="5" timestamp="2009-08-19T01:40:50Z" uid="36809" user="pfoten_weg_!_" changeset="2196399" lat="48.0732066" lon="11.5218361">
    <tag k="amenity" v="post_box"/>
    <tag k="name" v="Deutsche Post Briefkasten"/>
    <tag k="operator" v="Deutsche Post"/>
    <tag k="source" v="survey"/>
    <tag k="warnung" v="rumpelzumpel-verbrecher"/>
  </node>
  <node id="367644335" version="6" timestamp="2009-08-19T02:07:32Z" uid="36809" user="pfoten_weg_!_" changeset="2196453" lat="48.0732066" lon="11.5218361">
    <tag k="amenity" v="post_box"/>
    <tag k="name" v="Deutsche Post Briefkasten"/>
    <tag k="operator" v="Deutsche Post"/>
    <tag k="source" v="survey"/>
  </node>
  <node id="367644335" version="7" timestamp="2009-08-25T18:57:05Z" uid="36809" user="pfoten_weg_!_" changeset="2260316" lat="48.0732066" lon="11.5218361">
    <tag k="amenity" v="post_box"/>
    <tag k="name" v="Deutsche Post Briefkasten"/>
    <tag k="operator" v="Deutsche Post"/>
    <tag k="source" v="survey"/>
  </node>
  <node id="367644342" version="1" timestamp="2009-03-30T18:53:14Z" uid="36809" user="pfoten_weg_!_" changeset="871597" lat="48.0709293" lon="11.5316799">
    <tag k="amenity" v="post_box"/>
    <tag k="created_by" v="RambaZamba"/>
    <tag k="name" v="Deutsche Post Briefkasten"/>
    <tag k="operator" v="Deutsche Post"/>
    <tag k="source" v="survey"/>
  </node>
  <node id="367644342" version="2" timestamp="2009-04-21T15:56:29Z" uid="118159" user="jamako" changeset="882062" lat="48.0711636" lon="11.532141">
    <tag k="amenity" v="post_box"/>
    <tag k="created_by" v="RambaZamba"/>
    <tag k="name" v="Deutsche Post Briefkasten"/>
    <tag k="operator" v="Deutsche Post"/>
    <tag k="source" v="survey"/>
  </node>
  <node id="367644342" version="3" timestamp="2009-04-29T20:48:48Z" uid="36809" user="pfoten_weg_!_" changeset="1021114" lat="48.0711636" lon="11.532141">
    <tag k="amenity" v="post_box"/>
    <tag k="created_by" v="RambaZamba"/>
    <tag k="name" v="Deutsche Post Briefkasten"/>
    <tag k="operator" v="Deutsche Post"/>
    <tag k="source" v="survey"/>
  </node>
  <node id="367644348" version="1" timestamp="2009-03-30T18:53:15Z" uid="36809" user="pfoten_weg_!_" changeset="871597" lat="48.0787947" lon="11.5296442">
    <tag k="amenity" v="post_box"/>
    <tag k="created_by" v="RambaZamba"/>
    <tag k="name" v="Deutsche Post Briefkasten"/>
    <tag k="operator" v="Deutsche Post"/>
    <tag k="source" v="survey"/>
  </node>
  <node id="367644348" version="2" timestamp="2009-06-08T11:57:00Z" uid="132988" user="ich-liebe-euch" changeset="1457959" lat="48.0787947" lon="11.5296442">
    <tag k="amenity" v="post_box"/>
    <tag k="name" v="Deutsche Post Briefkasten"/>
    <tag k="operator" v="Deutsche Post"/>
    <tag k="source" v="survey"/>
  </node>
  <node id="367644348" version="3" timestamp="2009-06-08T13:18:26Z" uid="36809" user="pfoten_weg_!_" changeset="1458721" lat="48.0787947" lon="11.5296442">
    <tag k="amenity" v="post_box"/>
    <tag k="created_by" v="RambaZamba"/>
    <tag k="name" v="Deutsche Post Briefkasten"/>
    <tag k="operator" v="Deutsche Post"/>
    <tag k="source" v="survey"/>
  </node>
  <node id="367644348" version="4" timestamp="2009-06-09T08:30:52Z" uid="36809" user="pfoten_weg_!_" changeset="1466149" lat="48.0787947" lon="11.5296442">
    <tag k="amenity" v="post_box"/>
    <tag k="created_by" v="RambaZamba"/>
    <tag k="name" v="Deutsche Post Briefkasten"/>
    <tag k="operator" v="Deutsche Post"/>
    <tag k="source" v="survey"/>
  </node>
  <node id="367644358" version="1" timestamp="2009-03-30T18:53:17Z" uid="36809" user="pfoten_weg_!_" changeset="871597" lat="48.0762436" lon="11.5136989">
    <tag k="amenity" v="post_box"/>
    <tag k="created_by" v="RambaZamba"/>
    <tag k="name" v="Deutsche Post Briefkasten"/>
    <tag k="operator" v="Deutsche Post"/>
    <tag k="source" v="survey"/>
  </node>
  <node id="367644358" version="2" timestamp="2009-08-12T13:42:12Z" uid="156995" user="HampelZamba" changeset="2118817" lat="48.0762436" lon="11.5136989">
    <tag k="amenity" v="post_box"/>
    <tag k="name" v="Deutsche Post Briefkasten"/>
    <tag k="operator" v="Deutsche Post"/>
    <tag k="source" v="survey"/>
  </node>
  <node id="367644358" version="3" timestamp="2009-08-19T01:12:30Z" uid="36809" user="pfoten_weg_!_" changeset="2196333" lat="48.0762436" lon="11.5136989">
    <tag k="amenity" v="post_box"/>
    <tag k="name" v="Deutsche Post Briefkasten"/>
    <tag k="operator" v="Deutsche Post"/>
    <tag k="source" v="survey"/>
  </node>
  <node id="367644362" version="1" timestamp="2009-03-30T18:53:18Z" uid="36809" user="pfoten_weg_!_" changeset="871597" lat="48.0784136" lon="11.5067149">
    <tag k="amenity" v="post_box"/>
    <tag k="created_by" v="RambaZamba"/>
    <tag k="name" v="Deutsche Post Briefkasten"/>
    <tag k="operator" v="Deutsche Post"/>
    <tag k="source" v="survey"/>
  </node>
  <node id="367644362" version="2" timestamp="2009-08-12T13:42:12Z" uid="156995" user="HampelZamba" changeset="2118817" lat="48.0784136" lon="11.5067149">
    <tag k="amenity" v="post_box"/>
    <tag k="name" v="Deutsche Post Briefkasten"/>
    <tag k="operator" v="Deutsche Post"/>
    <tag k="source" v="survey"/>
  </node>
  <node id="367644362" version="3" timestamp="2009-08-19T00:59:41Z" uid="36809" user="pfoten_weg_!_" changeset="2196309" lat="48.0784136" lon="11.5067149">
    <tag k="amenity" v="post_box"/>
    <tag k="name" v="Deutsche Post Briefkasten"/>
    <tag k="operator" v="Deutsche Post"/>
    <tag k="source" v="survey"/>
  </node>
  <node id="367644366" version="1" timestamp="2009-03-30T18:53:18Z" uid="36809" user="pfoten_weg_!_" changeset="871597" lat="48.0770217" lon="11.5181888">
    <tag k="amenity" v="post_box"/>
    <tag k="created_by" v="RambaZamba"/>
    <tag k="name" v="Deutsche Post Briefkasten"/>
    <tag k="operator" v="Deutsche Post"/>
    <tag k="source" v="survey"/>
  </node>
  <node id="367644366" version="2" timestamp="2009-05-28T20:10:57Z" uid="78613" user="heilbron" changeset="1346386" lat="48.0770258" lon="11.5185491">
    <tag k="amenity" v="post_box"/>
    <tag k="name" v="Deutsche Post Briefkasten"/>
    <tag k="operator" v="Deutsche Post"/>
    <tag k="source" v="survey"/>
  </node>
  <node id="367644366" version="3" timestamp="2009-05-30T23:49:44Z" uid="36809" user="pfoten_weg_!_" changeset="1364455" lat="48.0770258" lon="11.5185491">
    <tag k="amenity" v="post_box"/>
    <tag k="name" v="Deutsche Post Briefkasten"/>
    <tag k="operator" v="Deutsche Post"/>
    <tag k="source" v="survey"/>
  </node>
  <node id="367644369" version="1" timestamp="2009-03-30T18:53:18Z" uid="36809" user="pfoten_weg_!_" changeset="871597" lat="48.0824615" lon="11.5039573">
    <tag k="amenity" v="post_box"/>
    <tag k="created_by" v="RambaZamba"/>
    <tag k="name" v="Deutsche Post Briefkasten"/>
    <tag k="operator" v="Deutsche Post"/>
    <tag k="source" v="survey"/>
  </node>
  <node id="367644369" version="2" timestamp="2009-07-26T03:16:29Z" uid="36809" user="pfoten_weg_!_" changeset="1940209" lat="48.0824615" lon="11.5039573">
    <tag k="amenity" v="post_box"/>
    <tag k="discovered_by" v="RambaZamba"/>
    <tag k="name" v="Deutsche Post Briefkasten"/>
    <tag k="operator" v="Deutsche Post"/>
    <tag k="source" v="survey"/>
  </node>
  <node id="367644369" version="3" timestamp="2009-08-12T13:42:12Z" uid="156995" user="HampelZamba" changeset="2118817" lat="48.0824615" lon="11.5039573">
    <tag k="amenity" v="post_box"/>
    <tag k="name" v="Deutsche Post Briefkasten"/>
    <tag k="operator" v="Deutsche Post"/>
    <tag k="source" v="survey"/>
  </node>
  <node id="367644369" version="4" timestamp="2009-08-19T00:59:42Z" uid="36809" user="pfoten_weg_!_" changeset="2196309" lat="48.0824615" lon="11.5039573">
    <tag k="amenity" v="post_box"/>
    <tag k="name" v="Deutsche Post Briefkasten"/>
    <tag k="operator" v="Deutsche Post"/>
    <tag k="source" v="survey"/>
  </node>
  <node id="367644378" version="1" timestamp="2009-03-30T18:53:19Z" uid="36809" user="pfoten_weg_!_" changeset="871597" lat="48.0799711" lon="11.5118088">
    <tag k="amenity" v="post_box"/>
    <tag k="created_by" v="RambaZamba"/>
    <tag k="name" v="Deutsche Post Briefkasten"/>
    <tag k="operator" v="Deutsche Post"/>
    <tag k="source" v="survey"/>
  </node>
  <node id="367644378" version="2" timestamp="2009-08-10T17:41:47Z" uid="155922" user="Zeitlupe" changeset="2100569" lat="48.0801062" lon="11.5120176">
    <tag k="amenity" v="post_box"/>
    <tag k="created_by" v="RambaZamba"/>
    <tag k="name" v="Deutsche Post Briefkasten"/>
    <tag k="operator" v="Deutsche Post"/>
    <tag k="source" v="survey"/>
  </node>
  <node id="367644378" version="3" timestamp="2009-08-12T13:42:13Z" uid="156995" user="HampelZamba" changeset="2118817" lat="48.0801062" lon="11.5120176">
    <tag k="amenity" v="post_box"/>
    <tag k="name" v="Deutsche Post Briefkasten"/>
    <tag k="operator" v="Deutsche Post"/>
    <tag k="source" v="survey"/>
  </node>
  <node id="367644378" version="4" timestamp="2009-08-15T07:59:35Z" uid="155922" user="Zeitlupe" changeset="2150564" lat="48.0801114" lon="11.5120092">
    <tag k="amenity" v="post_box"/>
    <tag k="operator" v="Deutsche Post AG"/>
    <tag k="source" v="survey"/>
  </node>
  <node id="367644378" version="5" timestamp="2009-08-16T10:45:29Z" uid="155922" user="Zeitlupe" changeset="2163636" lat="48.0801505" lon="11.5119753">
    <tag k="amenity" v="post_box"/>
    <tag k="operator" v="Deutsche Post AG"/>
    <tag k="source" v="survey"/>
  </node>
  <node id="367644378" version="6" timestamp="2009-08-19T17:37:51Z" uid="155922" user="Zeitlupe" changeset="2203724" lat="48.0801505" lon="11.5119753">
    <tag k="amenity" v="post_box"/>
    <tag k="source" v="survey"/>
  </node>
  <node id="367644378" version="7" timestamp="2009-08-25T18:57:06Z" uid="36809" user="pfoten_weg_!_" changeset="2260316" lat="48.0801505" lon="11.5119753">
    <tag k="amenity" v="post_box"/>
    <tag k="source" v="survey"/>
  </node>
  <node id="367644384" version="1" timestamp="2009-03-30T18:53:19Z" uid="36809" user="pfoten_weg_!_" changeset="871597" lat="48.0858032" lon="11.5115636">
    <tag k="amenity" v="post_box"/>
    <tag k="created_by" v="RambaZamba"/>
    <tag k="name" v="Deutsche Post Briefkasten"/>
    <tag k="operator" v="Deutsche Post"/>
    <tag k="source" v="survey"/>
  </node>
  <node id="367644384" version="2" timestamp="2009-06-09T09:16:21Z" uid="36809" user="pfoten_weg_!_" changeset="1466502" lat="48.0858032" lon="11.5115636">
    <tag k="amenity" v="post_box"/>
    <tag k="created_by" v="RambaZamba"/>
    <tag k="name" v="Deutsche Post Briefkasten"/>
    <tag k="operator" v="Deutsche Post"/>
    <tag k="source" v="survey"/>
  </node>
  <node id="367644390" version="1" timestamp="2009-03-30T18:53:20Z" uid="36809" user="pfoten_weg_!_" changeset="871597" lat="48.0818607" lon="11.5055296">
    <tag k="created_by" v="RambaZamba"/>
    <tag k="is_in" v="Solln,Thalkirchen-Obersendling-Forstenried-Fürstenried-Solln,München,Bayern,Bundesrepublik Deutschland,Europe"/>
    <tag k="name" v="Parkstadt Solln"/>
    <tag k="place" v="hamlet"/>
    <tag k="source" v="survey"/>
  </node>
  <node id="367644390" version="2" timestamp="2009-04-01T22:41:15Z" uid="36809" user="pfoten_weg_!_" changeset="41839" lat="48.0817377" lon="11.505524">
    <tag k="created_by" v="RambaZamba"/>
    <tag k="is_in" v="Solln,Thalkirchen-Obersendling-Forstenried-Fürstenried-Solln,München,Bayern,Bundesrepublik Deutschland,Europe"/>
    <tag k="name" v="Parkstadt Solln"/>
    <tag k="place" v="hamlet"/>
    <tag k="source" v="survey"/>
  </node>
  <node id="367644390" version="3" timestamp="2009-05-06T02:15:56Z" uid="36809" user="pfoten_weg_!_" changeset="1092545" lat="48.0817377" lon="11.505524">
    <tag k="created_by" v="RambaZamba"/>
    <tag k="is_in" v="Solln,Thalkirchen-Obersendling-Forstenried-Fürstenried-Solln,München,Bayern,Bundesrepublik Deutschland,Europe"/>
    <tag k="name" v="Parkstadt Solln"/>
    <tag k="place" v="hamlet"/>
    <tag k="source" v="survey"/>
  </node>
  <node id="367646708" version="2" timestamp="2010-01-23T19:36:09Z" uid="9581" user="Lobelt" changeset="3694936" lat="49.5120724" lon="8.5762325"/>
  <node id="367646708" version="3" timestamp="2011-06-19T17:33:01Z" uid="110838" user="Bernhard W" changeset="8486724" lat="49.5120764" lon="8.5762182"/>
  <node id="367646708" version="4" timestamp="2011-06-30T05:54:04Z" uid="110838" user="Bernhard W" changeset="8587143" lat="49.5121641" lon="8.5762108"/>
  <node id="367646708" version="5" timestamp="2012-03-04T17:53:13Z" uid="110838" user="Bernhard W" changeset="10871595" lat="49.5121641" lon="8.5762108"/>
  <node id="367646724" version="2" timestamp="2010-11-28T10:24:54Z" uid="9581" user="Lobelt" changeset="6476638" lat="49.5242111" lon="8.5796413"/>
  <node id="367646927" version="2" timestamp="2010-05-18T03:20:02Z" uid="4467" user="Rosscoe" changeset="4735055" lat="-37.7645451" lon="144.9501221"/>
  <node id="367646943" version="2" timestamp="2010-05-18T03:19:56Z" uid="4467" user="Rosscoe" changeset="4735055" lat="-37.7645621" lon="144.9501183"/>
  <node id="367646943" version="3" timestamp="2010-08-03T21:48:49Z" uid="84937" user="Neil Penman" changeset="5394383" lat="-37.7645621" lon="144.9501183"/>
  <node id="367646949" version="2" timestamp="2010-05-18T03:20:02Z" uid="4467" user="Rosscoe" changeset="4735055" lat="-37.764674" lon="144.9501635"/>
  <node id="367647656" version="1" timestamp="2009-03-30T19:05:23Z" uid="36809" user="pfoten_weg_!_" changeset="871597" lat="48.0952195" lon="11.4964246">
    <tag k="amenity" v="recycling"/>
    <tag k="created_by" v="Potlatch 0.10f"/>
    <tag k="recycling:glass" v="yes"/>
    <tag k="recycling:plastic" v="yes"/>
    <tag k="recycling:scrap_metal" v="yes"/>
    <tag k="source" v="survey"/>
  </node>
  <node id="367647656" version="2" timestamp="2009-04-22T03:31:12Z" uid="106615" user="matafumar" changeset="891321" lat="48.0952195" lon="11.4964246">
    <tag k="amenity" v="recycling"/>
    <tag k="created_by" v="Potlatch 0.10f"/>
    <tag k="recycling:glass" v="yes"/>
    <tag k="recycling:plastic" v="yes"/>
    <tag k="recycling:scrap_metal" v="yes"/>
    <tag k="source" v="survey"/>
  </node>
  <node id="367647664" version="1" timestamp="2009-03-30T19:05:23Z" uid="36809" user="pfoten_weg_!_" changeset="871597" lat="48.0952369" lon="11.4955389">
    <tag k="amenity" v="bank"/>
    <tag k="atm" v="yes"/>
    <tag k="bic" v="SSKMDEMMXXX"/>
    <tag k="created_by" v="xybot"/>
    <tag k="name" v="Stadtsparkasse München"/>
  </node>
  <node id="367647664" version="2" timestamp="2009-05-06T12:23:37Z" uid="106615" user="matafumar" changeset="1096632" lat="48.0952369" lon="11.4955389">
    <tag k="amenity" v="bank"/>
    <tag k="atm" v="yes"/>
    <tag k="bic" v="SSKMDEMMXXX"/>
    <tag k="created_by" v="xybot"/>
    <tag k="name" v="Stadtsparkasse München"/>
  </node>
  <node id="367647670" version="1" timestamp="2009-03-30T19:05:24Z" uid="36809" user="pfoten_weg_!_" changeset="871597" lat="48.092109" lon="11.4975019">
    <tag k="barrier" v="gate"/>
    <tag k="created_by" v="RambaZamba"/>
    <tag k="source" v="survey"/>
  </node>
  <node id="367647670" version="2" timestamp="2009-08-12T13:42:13Z" uid="156995" user="HampelZamba" changeset="2118817" lat="48.092109" lon="11.4975019">
    <tag k="barrier" v="gate"/>
    <tag k="source" v="survey"/>
  </node>
  <node id="367647670" version="3" timestamp="2009-08-26T09:20:54Z" uid="36809" user="pfoten_weg_!_" changeset="2265170" lat="48.092109" lon="11.4975019">
    <tag k="barrier" v="gate"/>
    <tag k="source" v="survey"/>
  </node>
  <node id="367647670" version="4" timestamp="2009-10-13T22:56:58Z" uid="36809" user="pfoten_weg_!_" changeset="2841175" lat="48.092109" lon="11.4975019">
    <tag k="barrier" v="gate"/>
  </node>
  <node id="367647677" version="1" timestamp="2009-03-30T19:05:24Z" uid="36809" user="pfoten_weg_!_" changeset="871597" lat="48.0873726" lon="11.496136">
    <tag k="amenity" v="atm"/>
    <tag k="bic" v="SSKMDEMMXXX"/>
    <tag k="created_by" v="xybot"/>
    <tag k="name" v="Stadtsparkasse München"/>
  </node>
  <node id="367647677" version="2" timestamp="2009-04-13T09:12:45Z" uid="7596" user="ck3d" changeset="467821" lat="48.0873726" lon="11.496136">
    <tag k="amenity" v="atm"/>
    <tag k="bic" v="SSKMDEMMXXX"/>
    <tag k="created_by" v="xybot"/>
    <tag k="name" v="Stadtsparkasse München"/>
  </node>
  <node id="367647685" version="1" timestamp="2009-03-30T19:05:25Z" uid="36809" user="pfoten_weg_!_" changeset="871597" lat="48.0876691" lon="11.4991392">
    <tag k="barrier" v="gate"/>
    <tag k="created_by" v="RambaZamba"/>
    <tag k="source" v="survey"/>
  </node>
  <node id="367647685" version="2" timestamp="2009-04-13T09:12:45Z" uid="7596" user="ck3d" changeset="467821" lat="48.0876691" lon="11.4991392">
    <tag k="barrier" v="gate"/>
    <tag k="created_by" v="RambaZamba"/>
    <tag k="source" v="survey"/>
  </node>
  <node id="367647693" version="1" timestamp="2009-03-30T19:05:25Z" uid="36809" user="pfoten_weg_!_" changeset="871597" lat="48.0872832" lon="11.500728">
    <tag k="barrier" v="gate"/>
    <tag k="created_by" v="RambaZamba"/>
    <tag k="source" v="survey"/>
  </node>
  <node id="367647693" version="2" timestamp="2009-04-13T09:12:45Z" uid="7596" user="ck3d" changeset="467821" lat="48.0872832" lon="11.500728">
    <tag k="barrier" v="gate"/>
    <tag k="created_by" v="RambaZamba"/>
    <tag k="source" v="survey"/>
  </node>
  <node id="367647701" version="1" timestamp="2009-03-30T19:05:26Z" uid="36809" user="pfoten_weg_!_" changeset="871597" lat="48.0872832" lon="11.5007284"/>
  <node id="367647701" version="2" timestamp="2009-04-22T18:14:43Z" uid="36809" user="pfoten_weg_!_" changeset="903669" lat="48.0872832" lon="11.5007284">
    <tag k="created_by" v="RambaZamba"/>
    <tag k="source" v="survey"/>
  </node>
  <node id="367647701" version="3" timestamp="2009-05-23T23:43:40Z" uid="36809" user="pfoten_weg_!_" changeset="1300736" lat="48.0872832" lon="11.5007284">
    <tag k="barrier" v="gate"/>
    <tag k="created_by" v="RambaZamba"/>
    <tag k="source" v="survey"/>
  </node>
  <node id="367647701" version="4" timestamp="2009-08-12T13:42:13Z" uid="156995" user="HampelZamba" changeset="2118817" lat="48.0872832" lon="11.5007284">
    <tag k="barrier" v="gate"/>
    <tag k="source" v="survey"/>
  </node>
  <node id="367647701" version="5" timestamp="2009-08-19T01:59:00Z" uid="36809" user="pfoten_weg_!_" changeset="2196399" lat="48.0872832" lon="11.5007284">
    <tag k="barrier" v="gate"/>
    <tag k="source" v="survey"/>
    <tag k="warnung" v="rumpelzumpel-verbrecher"/>
  </node>
  <node id="367647701" version="6" timestamp="2009-08-19T02:23:08Z" uid="36809" user="pfoten_weg_!_" changeset="2196453" lat="48.0872832" lon="11.5007284">
    <tag k="barrier" v="gate"/>
    <tag k="source" v="survey"/>
  </node>
  <node id="367647701" version="7" timestamp="2009-10-13T22:56:31Z" uid="36809" user="pfoten_weg_!_" changeset="2841175" lat="48.0872832" lon="11.5007284">
    <tag k="barrier" v="gate"/>
  </node>
  <node id="367647701" version="8" timestamp="2012-02-29T02:24:00Z" uid="342705" user="KLMB" changeset="10824449" lat="48.0872832" lon="11.5006998">
    <tag k="barrier" v="gate"/>
  </node>
  <node id="367647701" version="9" timestamp="2012-03-11T13:10:59Z" uid="342705" user="KLMB" changeset="10942604" lat="48.0873066" lon="11.5006609">
    <tag k="barrier" v="gate"/>
  </node>
  <node id="367648247" version="6" timestamp="2009-05-01T20:01:42Z" uid="20587" user="balrog-kun" changeset="1041684" lat="49.7826446" lon="18.8058441">
    <tag k="addr:postcode" v="43-430"/>
    <tag k="is_in" v="powiat cieszyński, województwo śląskie, Poland"/>
    <tag k="is_in:country" v="Poland"/>
    <tag k="is_in:county" v="powiat cieszyński"/>
    <tag k="is_in:municipality" v="gmina Skoczów"/>
    <tag k="is_in:province" v="województwo śląskie"/>
    <tag k="name" v="Skoczów"/>
    <tag k="place" v="city"/>
    <tag k="population" v="14619"/>
    <tag k="source:population" v="wikipedia"/>
    <tag k="teryt:rm" v="96"/>
    <tag k="teryt:simc" v="0925198"/>
    <tag k="teryt:stan_na" v="2009-01-01"/>
    <tag k="teryt:terc" v="2403104"/>
    <tag k="teryt:updated_by" v="teryt2osm combine.py v. 36M"/>
    <tag k="wikipedia" v="Skoczów"/>
  </node>
  <node id="367648247" version="7" timestamp="2009-05-07T18:45:35Z" uid="115021" user="Jajcuś" changeset="1110433" lat="49.7826446" lon="18.8058441">
    <tag k="addr:postcode" v="43-430"/>
    <tag k="is_in" v="powiat cieszyński, województwo śląskie, Poland"/>
    <tag k="is_in:country" v="Poland"/>
    <tag k="is_in:county" v="powiat cieszyński"/>
    <tag k="is_in:province" v="województwo śląskie"/>
    <tag k="name" v="Skoczów"/>
    <tag k="place" v="city"/>
    <tag k="population" v="14619"/>
    <tag k="source:population" v="wikipedia"/>
    <tag k="teryt:rm" v="96"/>
    <tag k="teryt:simc" v="0925198"/>
    <tag k="teryt:stan_na" v="2009-01-01"/>
    <tag k="teryt:terc" v="2403104"/>
    <tag k="teryt:updated_by" v="teryt2osm combine.py v. 47M"/>
    <tag k="wikipedia" v="Skoczów"/>
  </node>
  <node id="367648247" version="8" timestamp="2009-05-08T18:42:09Z" uid="115021" user="Jajcuś" changeset="1120509" lat="49.7826446" lon="18.8058441">
    <tag k="addr:postcode" v="43-430"/>
    <tag k="is_in" v="powiat cieszyński, województwo śląskie, Poland"/>
    <tag k="is_in:country" v="Poland"/>
    <tag k="is_in:county" v="powiat cieszyński"/>
    <tag k="is_in:municipality" v="gmina Skoczów"/>
    <tag k="is_in:province" v="województwo śląskie"/>
    <tag k="name" v="Skoczów"/>
    <tag k="place" v="city"/>
    <tag k="population" v="14619"/>
    <tag k="source:population" v="wikipedia"/>
    <tag k="teryt:rm" v="96"/>
    <tag k="teryt:simc" v="0925198"/>
    <tag k="teryt:stan_na" v="2009-01-01"/>
    <tag k="teryt:terc" v="2403104"/>
    <tag k="teryt:updated_by" v="teryt2osm combine.py v. 49"/>
    <tag k="wikipedia" v="Skoczów"/>
  </node>
  <node id="367648247" version="9" timestamp="2009-08-17T09:58:23Z" uid="9475" user="Slawek Maderak" changeset="2175743" lat="49.7826" lon="18.8086365">
    <tag k="addr:postcode" v="43-430"/>
    <tag k="is_in" v="powiat cieszyński, województwo śląskie, Poland"/>
    <tag k="is_in:country" v="Poland"/>
    <tag k="is_in:county" v="powiat cieszyński"/>
    <tag k="is_in:municipality" v="gmina Skoczów"/>
    <tag k="is_in:province" v="województwo śląskie"/>
    <tag k="name" v="Skoczów"/>
    <tag k="place" v="town"/>
    <tag k="population" v="14619"/>
    <tag k="source:population" v="wikipedia"/>
    <tag k="teryt:rm" v="96"/>
    <tag k="teryt:simc" v="0925198"/>
    <tag k="teryt:stan_na" v="2009-01-01"/>
    <tag k="teryt:terc" v="2403104"/>
    <tag k="teryt:updated_by" v="teryt2osm combine.py v. 49"/>
    <tag k="wikipedia" v="Skoczów"/>
  </node>
  <node id="367648247" version="10" timestamp="2010-02-27T20:39:27Z" uid="91056" user="Yarl" changeset="3992328" lat="49.8004541" lon="18.7877447">
    <tag k="addr:postcode" v="43-430"/>
    <tag k="is_in" v="powiat cieszyński, województwo śląskie, Poland"/>
    <tag k="is_in:country" v="Poland"/>
    <tag k="is_in:county" v="powiat cieszyński"/>
    <tag k="is_in:municipality" v="gmina Skoczów"/>
    <tag k="is_in:province" v="województwo śląskie"/>
    <tag k="name" v="Skoczów"/>
    <tag k="place" v="town"/>
    <tag k="population" v="14619"/>
    <tag k="source:population" v="wikipedia"/>
    <tag k="teryt:rm" v="96"/>
    <tag k="teryt:simc" v="0925198"/>
    <tag k="teryt:stan_na" v="2009-01-01"/>
    <tag k="teryt:terc" v="2403104"/>
    <tag k="teryt:updated_by" v="teryt2osm combine.py v. 49"/>
    <tag k="wikipedia" v="Skoczów"/>
  </node>
  <node id="367648247" version="11" timestamp="2010-04-11T04:43:23Z" uid="20587" user="balrog-kun" changeset="4389130" lat="49.7999039" lon="18.7877583">
    <tag k="addr:postcode" v="43-430"/>
    <tag k="is_in" v="powiat cieszyński, województwo śląskie, Poland"/>
    <tag k="is_in:country" v="Poland"/>
    <tag k="is_in:county" v="powiat cieszyński"/>
    <tag k="is_in:municipality" v="gmina Skoczów"/>
    <tag k="is_in:province" v="województwo śląskie"/>
    <tag k="name" v="Skoczów"/>
    <tag k="place" v="town"/>
    <tag k="population" v="14619"/>
    <tag k="source:population" v="wikipedia"/>
    <tag k="teryt:rm" v="96"/>
    <tag k="teryt:simc" v="0925198"/>
    <tag k="teryt:stan_na" v="2009-01-01"/>
    <tag k="teryt:terc" v="2403104"/>
    <tag k="teryt:updated_by" v="teryt2osm combine.py v. 49"/>
    <tag k="wikipedia" v="Skoczów"/>
  </node>
  <node id="367648247" version="12" timestamp="2010-10-24T00:46:07Z" uid="152074" user="beweta" changeset="6152826" lat="49.7999039" lon="18.7877583">
    <tag k="addr:postcode" v="43-430"/>
    <tag k="is_in" v="powiat cieszyński, województwo śląskie, Poland"/>
    <tag k="is_in:country" v="Poland"/>
    <tag k="is_in:county" v="powiat cieszyński"/>
    <tag k="is_in:municipality" v="gmina Skoczów"/>
    <tag k="is_in:province" v="województwo śląskie"/>
    <tag k="name" v="Skoczów"/>
    <tag k="name:cs" v="Skočov"/>
    <tag k="name:de" v="Skotschau"/>
    <tag k="name:lv" v="Skočuva"/>
    <tag k="place" v="town"/>
    <tag k="population" v="14619"/>
    <tag k="source:population" v="wikipedia"/>
    <tag k="teryt:rm" v="96"/>
    <tag k="teryt:simc" v="0925198"/>
    <tag k="teryt:stan_na" v="2009-01-01"/>
    <tag k="teryt:terc" v="2403104"/>
    <tag k="teryt:updated_by" v="teryt2osm combine.py v. 49"/>
    <tag k="wikipedia" v="Skoczów"/>
  </node>
</osm>
