<?xml version='1.0' encoding='UTF-8'?>
<osm version="0.6" generator="libosmium/2.20.0">
  <node id="367980201" version="2" timestamp="2009-04-07T19:18:31Z" uid="6975" user="ulfl" changeset="298062" lat="38.0327778" lon="-78.5136111">
    <tag k="addr:state" v="VA"/>
    <tag k="ele" v="172"/>
    <tag k="gnis:county_name" v="Charlottesville (city)"/>
    <tag k="gnis:feature_id" v="2073529"/>
    <tag k="gnis:import_uuid" v="57871b70-0100-4405-bb30-88b2e001a944"/>
    <tag k="gnis:reviewed" v="no"/>
    <tag k="name" v="Aquatic and Fitiness Center"/>
    <tag k="source" v="USGS Geonames"/>
    <tag k="sport" v="swimming"/>
  </node>
  <node id="367984273" version="5" timestamp="2009-05-01T19:48:36Z" uid="20587" user="balrog-kun" changeset="1041500" lat="53.4637335" lon="23.3034249">
    <tag k="is_in" v="gmina Janów, powiat sokólski, województwo podlaskie, Poland"/>
    <tag k="is_in:country" v="Poland"/>
    <tag k="is_in:county" v="powiat sokólski"/>
    <tag k="is_in:municipality" v="gmina Janów"/>
    <tag k="is_in:province" v="województwo podlaskie"/>
    <tag k="name" v="Studzieńczyna"/>
    <tag k="place" v="village"/>
    <tag k="teryt:rm" v="01"/>
    <tag k="teryt:simc" v="0030656"/>
    <tag k="teryt:stan_na" v="2009-01-01"/>
    <tag k="teryt:terc" v="2011022"/>
    <tag k="teryt:updated_by" v="teryt2osm combine.py v. 43"/>
    <tag k="wikipedia" v="Studzieńczyna"/>
  </node>
  <node id="367984273" version="6" timestamp="2009-11-11T23:53:55Z" uid="36809" user="pfoten_weg_!_" changeset="3094650" lat="53.4637335" lon="23.3034249">
    <tag k="is_in" v="gmina Janów, powiat sokólski, województwo podlaskie, Poland"/>
    <tag k="is_in:country" v="Poland"/>
    <tag k="is_in:county" v="powiat sokólski"/>
    <tag k="is_in:municipality" v="gmina Janów"/>
    <tag k="is_in:province" v="województwo podlaskie"/>
    <tag k="name" v="Studzieńczyna"/>
    <tag k="place" v="village"/>
    <tag k="teryt:rm" v="01"/>
    <tag k="teryt:simc" v="0030656"/>
    <tag k="teryt:stan_na" v="2009-01-01"/>
    <tag k="teryt:terc" v="2011022"/>
    <tag k="wikipedia" v="Studzieńczyna"/>
  </node>
  <node id="367984273" version="7" timestamp="2009-11-12T00:56:00Z" uid="36809" user="pfoten_weg_!_" changeset="3094955" lat="53.4637335" lon="23.3034249">
    <tag k="is_in" v="gmina Janów, powiat sokólski, województwo podlaskie, Poland"/>
    <tag k="is_in:country" v="Poland"/>
    <tag k="is_in:county" v="powiat sokólski"/>
    <tag k="is_in:municipality" v="gmina Janów"/>
    <tag k="is_in:province" v="województwo podlaskie"/>
    <tag k="name" v="Studzieńczyna"/>
    <tag k="place" v="village"/>
    <tag k="teryt:rm" v="01"/>
    <tag k="teryt:simc" v="0030656"/>
    <tag k="teryt:stan_na" v="2009-01-01"/>
    <tag k="teryt:terc" v="2011022"/>
    <tag k="wikipedia" v="Studzieńczyna"/>
  </node>
  <node id="367984273" version="8" timestamp="2009-11-12T02:09:00Z" uid="36809" user="pfoten_weg_!_" changeset="3095133" lat="53.4637335" lon="23.3034249">
    <tag k="is_in" v="gmina Janów, powiat sokólski, województwo podlaskie, Poland"/>
    <tag k="is_in:country" v="Poland"/>
    <tag k="is_in:county" v="powiat sokólski"/>
    <tag k="is_in:municipality" v="gmina Janów"/>
    <tag k="is_in:province" v="województwo podlaskie"/>
    <tag k="name" v="Studzieńczyna"/>
    <tag k="place" v="village"/>
    <tag k="teryt:rm" v="01"/>
    <tag k="teryt:simc" v="0030656"/>
    <tag k="teryt:stan_na" v="2009-01-01"/>
    <tag k="teryt:terc" v="2011022"/>
    <tag k="wikipedia" v="Studzieńczyna"/>
  </node>
  <node id="367985954" version="4" timestamp="2009-09-30T13:33:22Z" uid="36809" user="pfoten_weg_!_" changeset="2688655" lat="48.2261789" lon="11.224602">
    <tag k="historic" v="wayside_cross"/>
  </node>
</osm>
