<?xml version='1.0' encoding='UTF-8'?>
<osm version="0.6" generator="libosmium/2.20.0">
  <node id="368950653" version="2" timestamp="2009-04-16T22:24:40Z" uid="6975" user="ulfl" changeset="598814" lat="38.068896" lon="127.133054">
    <tag k="name" v="재인폭포 (Jaein Waterfall)"/>
    <tag k="name:en" v="Jaein Waterfall"/>
    <tag k="name:ko_rm" v="Jaeinpokpo"/>
    <tag k="ncat" v="폭포"/>
    <tag k="source" v="http://kr.open.gugi.yahoo.com"/>
    <tag k="waterway" v="waterfall"/>
  </node>
  <node id="368950659" version="2" timestamp="2009-04-16T22:24:45Z" uid="6975" user="ulfl" changeset="598814" lat="33.256124" lon="126.426095">
    <tag k="name" v="천제연폭포 (Cheonjeyeon Waterfall)"/>
    <tag k="name:en" v="Cheonjeyeon Waterfall"/>
    <tag k="name:ko_rm" v="Cheonjeyeonpokpo"/>
    <tag k="ncat" v="폭포"/>
    <tag k="source" v="http://kr.open.gugi.yahoo.com"/>
    <tag k="waterway" v="waterfall"/>
  </node>
  <node id="368950660" version="2" timestamp="2009-04-16T22:24:46Z" uid="6975" user="ulfl" changeset="598814" lat="33.244515" lon="126.573145">
    <tag k="name" v="정방폭포 (Jeongbang Waterfall)"/>
    <tag k="name:en" v="Jeongbang Waterfall"/>
    <tag k="name:ko_rm" v="Jeongbangpokpo"/>
    <tag k="ncat" v="폭포"/>
    <tag k="source" v="http://kr.open.gugi.yahoo.com"/>
    <tag k="waterway" v="waterfall"/>
  </node>
  <node id="368950660" version="3" timestamp="2010-09-02T00:48:21Z" uid="15686" user="Dimitri_Junker" changeset="5658547" lat="33.2449966" lon="126.571691">
    <tag k="name" v="정방폭포 (Jeongbang Waterfall)"/>
    <tag k="name:en" v="Jeongbang Waterfall"/>
    <tag k="name:ko_rm" v="Jeongbangpokpo"/>
    <tag k="ncat" v="폭포"/>
    <tag k="source" v="http://kr.open.gugi.yahoo.com"/>
    <tag k="waterway" v="waterfall"/>
  </node>
  <node id="368950660" version="4" timestamp="2011-03-09T13:36:47Z" uid="7213" user="alimamo" changeset="7504076" lat="33.2448452" lon="126.5715686">
    <tag k="name" v="정방폭포 (Jeongbang Waterfall)"/>
    <tag k="name:en" v="Jeongbang Waterfall"/>
    <tag k="name:ko_rm" v="Jeongbangpokpo"/>
    <tag k="ncat" v="폭포"/>
    <tag k="source" v="http://kr.open.gugi.yahoo.com"/>
    <tag k="waterway" v="waterfall"/>
  </node>
  <node id="368950663" version="2" timestamp="2009-04-16T22:24:45Z" uid="6975" user="ulfl" changeset="598814" lat="35.39688" lon="129.086332">
    <tag k="name" v="홍룡폭포 (Hongnyong Waterfall)"/>
    <tag k="name:en" v="Hongnyong Waterfall"/>
    <tag k="name:ko_rm" v="Hongnyongpokpo"/>
    <tag k="ncat" v="폭포"/>
    <tag k="source" v="http://kr.open.gugi.yahoo.com"/>
    <tag k="waterway" v="waterfall"/>
  </node>
  <node id="368950670" version="2" timestamp="2009-04-16T22:24:47Z" uid="6975" user="ulfl" changeset="598814" lat="35.347798" lon="127.45873">
    <tag k="name" v="수락폭포 (Surak Waterfall)"/>
    <tag k="name:en" v="Surak Waterfall"/>
    <tag k="name:ko_rm" v="Surakpokpo"/>
    <tag k="ncat" v="폭포"/>
    <tag k="source" v="http://kr.open.gugi.yahoo.com"/>
    <tag k="waterway" v="waterfall"/>
  </node>
  <node id="368950671" version="2" timestamp="2009-04-16T22:24:47Z" uid="6975" user="ulfl" changeset="598814" lat="37.797072" lon="127.615804">
    <tag k="name" v="구곡폭포 (Gugok Waterfall)"/>
    <tag k="name:en" v="Gugok Waterfall"/>
    <tag k="name:ko_rm" v="Gugokpokpo"/>
    <tag k="ncat" v="폭포"/>
    <tag k="source" v="http://kr.open.gugi.yahoo.com"/>
    <tag k="waterway" v="waterfall"/>
  </node>
  <node id="368950678" version="2" timestamp="2009-04-16T22:24:44Z" uid="6975" user="ulfl" changeset="598814" lat="37.644271" lon="126.939776">
    <tag k="name" v="구파발 인공폭포 (Gupabal  Ingong Waterfall)"/>
    <tag k="name:en" v="Gupabal  Ingong Waterfall"/>
    <tag k="name:ko_rm" v="Gupabal  Ingongpokpo"/>
    <tag k="ncat" v="폭포"/>
    <tag k="source" v="http://kr.open.gugi.yahoo.com"/>
    <tag k="waterway" v="waterfall"/>
  </node>
  <node id="368950680" version="2" timestamp="2009-04-16T22:24:44Z" uid="6975" user="ulfl" changeset="598814" lat="36.413782" lon="129.191008">
    <tag k="name" v="주왕산 1. 2. 3 폭포 (Juwangsan 1. 2. 3 Waterfall)"/>
    <tag k="name:en" v="Juwangsan 1. 2. 3 Waterfall"/>
    <tag k="name:ko_rm" v="Juwangsan 1. 2. 3 Pokpo"/>
    <tag k="ncat" v="폭포"/>
    <tag k="source" v="http://kr.open.gugi.yahoo.com"/>
    <tag k="waterway" v="waterfall"/>
  </node>
  <node id="368950689" version="2" timestamp="2009-04-16T22:24:42Z" uid="6975" user="ulfl" changeset="598814" lat="36.591435" lon="127.855936">
    <tag k="name" v="장각폭포 (Janggak Waterfall)"/>
    <tag k="name:en" v="Janggak Waterfall"/>
    <tag k="name:ko_rm" v="Janggakpokpo"/>
    <tag k="ncat" v="폭포"/>
    <tag k="source" v="http://kr.open.gugi.yahoo.com"/>
    <tag k="waterway" v="waterfall"/>
  </node>
  <node id="368950695" version="2" timestamp="2009-04-16T22:24:43Z" uid="6975" user="ulfl" changeset="598814" lat="37.548403" lon="126.882292">
    <tag k="name" v="양화교 인공폭포 (Yanghwagyo  Ingong Waterfall)"/>
    <tag k="name:en" v="Yanghwagyo  Ingong Waterfall"/>
    <tag k="name:ko_rm" v="Yanghwagyo  Ingongpokpo"/>
    <tag k="ncat" v="폭포"/>
    <tag k="source" v="http://kr.open.gugi.yahoo.com"/>
    <tag k="waterway" v="waterfall"/>
  </node>
  <node id="368950703" version="2" timestamp="2009-04-16T22:24:43Z" uid="6975" user="ulfl" changeset="598814" lat="37.883821" lon="127.361554">
    <tag k="name" v="감춰진폭포 (Gamchwojin Waterfall)"/>
    <tag k="name:en" v="Gamchwojin Waterfall"/>
    <tag k="name:ko_rm" v="Gamchwojinpokpo"/>
    <tag k="ncat" v="폭포"/>
    <tag k="source" v="http://kr.open.gugi.yahoo.com"/>
    <tag k="waterway" v="waterfall"/>
  </node>
  <node id="368950706" version="2" timestamp="2009-04-16T22:24:41Z" uid="6975" user="ulfl" changeset="598814" lat="36.565199" lon="128.721679">
    <tag k="name" v="소리폭포 (Sori Waterfall)"/>
    <tag k="name:en" v="Sori Waterfall"/>
    <tag k="name:ko_rm" v="Soripokpo"/>
    <tag k="ncat" v="폭포"/>
    <tag k="source" v="http://kr.open.gugi.yahoo.com"/>
    <tag k="waterway" v="waterfall"/>
  </node>
  <node id="368950706" version="3" timestamp="2009-05-16T02:10:08Z" uid="7213" user="alimamo" changeset="1205661" lat="36.565199" lon="128.721679">
    <tag k="name" v="소리폭포 (Sori Waterfall)"/>
    <tag k="name:en" v="Sori Waterfall"/>
    <tag k="name:ko_rm" v="Soripokpo"/>
    <tag k="ncat" v="폭포"/>
    <tag k="source" v="http://kr.open.gugi.yahoo.com"/>
    <tag k="waterway" v="waterfall"/>
  </node>
  <node id="368950711" version="2" timestamp="2009-04-16T22:24:41Z" uid="6975" user="ulfl" changeset="598814" lat="37.586773" lon="127.044702">
    <tag k="name" v="미인폭포 (Miin Waterfall)"/>
    <tag k="name:en" v="Miin Waterfall"/>
    <tag k="name:ko_rm" v="Miinpokpo"/>
    <tag k="ncat" v="폭포"/>
    <tag k="source" v="http://kr.open.gugi.yahoo.com"/>
    <tag k="waterway" v="waterfall"/>
  </node>
  <node id="368950714" version="2" timestamp="2009-04-16T22:24:41Z" uid="6975" user="ulfl" changeset="598814" lat="37.285161" lon="126.990844">
    <tag k="name" v="자연폭포 (Jayeon Waterfall)"/>
    <tag k="name:en" v="Jayeon Waterfall"/>
    <tag k="name:ko_rm" v="Jayeonpokpo"/>
    <tag k="ncat" v="폭포"/>
    <tag k="source" v="http://kr.open.gugi.yahoo.com"/>
    <tag k="waterway" v="waterfall"/>
  </node>
  <node id="368950714" version="3" timestamp="2009-09-14T04:33:58Z" uid="74529" user="cyana" changeset="2477466" lat="37.285161" lon="126.990844">
    <tag k="name" v="자연폭포 (Jayeon Waterfall)"/>
    <tag k="name:en" v="Jayeon Waterfall"/>
    <tag k="name:ko_rm" v="Jayeonpokpo"/>
    <tag k="ncat" v="폭포"/>
    <tag k="source" v="http://kr.open.gugi.yahoo.com"/>
    <tag k="waterway" v="waterfall"/>
  </node>
  <node id="368950718" version="2" timestamp="2009-04-16T22:24:42Z" uid="6975" user="ulfl" changeset="598814" lat="35.075399" lon="127.058641">
    <tag k="name" v="청궁폭포 (Cheonggung Waterfall)"/>
    <tag k="name:en" v="Cheonggung Waterfall"/>
    <tag k="name:ko_rm" v="Cheonggungpokpo"/>
    <tag k="ncat" v="폭포"/>
    <tag k="source" v="http://kr.open.gugi.yahoo.com"/>
    <tag k="waterway" v="waterfall"/>
  </node>
  <node id="368950720" version="2" timestamp="2009-04-16T22:24:46Z" uid="6975" user="ulfl" changeset="598814" lat="37.59254" lon="126.950067">
    <tag k="name" v="제연폭포 (Jeyeon Waterfall)"/>
    <tag k="name:en" v="Jeyeon Waterfall"/>
    <tag k="name:ko_rm" v="Jeyeonpokpo"/>
    <tag k="ncat" v="폭포"/>
    <tag k="source" v="http://kr.open.gugi.yahoo.com"/>
    <tag k="waterway" v="waterfall"/>
  </node>
  <node id="368950728" version="2" timestamp="2009-04-16T22:24:48Z" uid="6975" user="ulfl" changeset="598814" lat="35.030112" lon="127.070942">
    <tag k="name" v="구암용궁폭포 (Guamyonggung Waterfall)"/>
    <tag k="name:en" v="Guamyonggung Waterfall"/>
    <tag k="name:ko_rm" v="Guamyonggungpokpo"/>
    <tag k="ncat" v="폭포"/>
    <tag k="source" v="http://kr.open.gugi.yahoo.com"/>
    <tag k="waterway" v="waterfall"/>
  </node>
  <node id="368950729" version="2" timestamp="2009-04-16T22:24:48Z" uid="6975" user="ulfl" changeset="598814" lat="37.222008" lon="126.994288">
    <tag k="name" v="대아소형인공폭포 (Daeasohyeongingong Waterfall)"/>
    <tag k="name:en" v="Daeasohyeongingong Waterfall"/>
    <tag k="name:ko_rm" v="Daeasohyeongingongpokpo"/>
    <tag k="ncat" v="폭포"/>
    <tag k="source" v="http://kr.open.gugi.yahoo.com"/>
    <tag k="waterway" v="waterfall"/>
  </node>
  <node id="368950734" version="2" timestamp="2009-04-16T22:24:46Z" uid="6975" user="ulfl" changeset="598814" lat="37.49391" lon="129.11127">
    <tag k="name" v="폭포 (Waterfall)"/>
    <tag k="name:en" v="Waterfall"/>
    <tag k="name:ko_rm" v="Pokpo"/>
    <tag k="ncat" v="폭포"/>
    <tag k="source" v="http://kr.open.gugi.yahoo.com"/>
    <tag k="waterway" v="waterfall"/>
  </node>
  <node id="368950736" version="2" timestamp="2009-04-16T22:24:44Z" uid="6975" user="ulfl" changeset="598814" lat="35.536028" lon="129.332964">
    <tag k="name" v="천지폭포 (Cheonji Waterfall)"/>
    <tag k="name:en" v="Cheonji Waterfall"/>
    <tag k="name:ko_rm" v="Cheonjipokpo"/>
    <tag k="ncat" v="폭포"/>
    <tag k="source" v="http://kr.open.gugi.yahoo.com"/>
    <tag k="waterway" v="waterfall"/>
  </node>
  <node id="368950743" version="2" timestamp="2009-04-16T22:24:43Z" uid="6975" user="ulfl" changeset="598814" lat="35.131537" lon="126.964744">
    <tag k="name" v="초가폭포 (Choga Waterfall)"/>
    <tag k="name:en" v="Choga Waterfall"/>
    <tag k="name:ko_rm" v="Chogapokpo"/>
    <tag k="ncat" v="폭포"/>
    <tag k="source" v="http://kr.open.gugi.yahoo.com"/>
    <tag k="waterway" v="waterfall"/>
  </node>
  <node id="368953757" version="2" timestamp="2010-09-02T12:18:02Z" uid="49111" user="Markus B" changeset="5661808" lat="33.5185194" lon="126.5181704">
    <tag k="name" v="라마다프라자 제주호텔 (Ramada Plaza Jeju Hotel)"/>
    <tag k="name:en" v="Ramada Plaza Jeju Hotel"/>
    <tag k="name:ko_rm" v="Ramadapeuraja  Jejuhotel"/>
    <tag k="ncat" v="호텔"/>
    <tag k="source" v="http://kr.open.gugi.yahoo.com"/>
    <tag k="tourism" v="hotel"/>
  </node>
  <node id="368953757" version="3" timestamp="2011-01-18T04:50:36Z" uid="7213" user="alimamo" changeset="7006877" lat="33.5186248" lon="126.5177734">
    <tag k="name" v="라마다프라자 제주호텔 (Ramada Plaza Jeju Hotel)"/>
    <tag k="name:en" v="Ramada Plaza Jeju Hotel"/>
    <tag k="name:ko_rm" v="Ramadapeuraja  Jejuhotel"/>
    <tag k="ncat" v="호텔"/>
    <tag k="source" v="http://kr.open.gugi.yahoo.com"/>
    <tag k="tourism" v="hotel"/>
  </node>
  <node id="368954200" version="2" timestamp="2011-06-01T02:32:02Z" uid="23543" user="jkjk" changeset="8306968" lat="37.8160167" lon="127.5108719">
    <tag k="name" v="가평관광호텔 (Gapyeong Tourist Hotel)"/>
    <tag k="name:en" v="Gapyeong Tourist Hotel"/>
    <tag k="name:ko_rm" v="Gapyeonggwangwanghotel"/>
    <tag k="ncat" v="호텔"/>
    <tag k="source" v="http://kr.open.gugi.yahoo.com"/>
    <tag k="tourism" v="hotel"/>
  </node>
  <node id="368958859" version="3" timestamp="2009-08-31T20:57:28Z" uid="36809" user="pfoten_weg_!_" changeset="2331411" lat="48.1234622" lon="11.5132015">
    <tag k="name" v="Nepal-Pagode"/>
    <tag k="tourism" v="museum"/>
  </node>
  <node id="368958859" version="4" timestamp="2011-03-20T17:25:58Z" uid="290680" user="wheelmap_visitor" changeset="7618501" lat="48.1234622" lon="11.5132015">
    <tag k="name" v="Nepal-Pagode"/>
    <tag k="tourism" v="museum"/>
    <tag k="wheelchair" v="no"/>
  </node>
  <node id="368958859" version="5" timestamp="2011-03-22T17:54:11Z" uid="67862" user="HolgerJeromin" changeset="7639117" lat="48.1234622" lon="11.5132015">
    <tag k="name" v="Nepal-Pagode"/>
    <tag k="tourism" v="museum"/>
    <tag k="wheelchair" v="no"/>
  </node>
</osm>
