<?xml version='1.0' encoding='UTF-8'?>
<osm version="0.6" generator="libosmium/2.20.0">
  <node id="370540589" version="2" timestamp="2010-07-22T09:00:35Z" uid="74617" user="JohnSmith" changeset="5285233" lat="-35.1544117" lon="147.3689068"/>
  <node id="370540666" version="2" timestamp="2011-01-04T05:23:47Z" uid="30201" user="rrankin" changeset="6857408" lat="-35.1513915" lon="147.3571547"/>
  <node id="370540678" version="2" timestamp="2011-01-04T05:24:02Z" uid="30201" user="rrankin" changeset="6857408" lat="-35.1514471" lon="147.3573089"/>
  <node id="370540691" version="2" timestamp="2011-01-04T05:24:00Z" uid="30201" user="rrankin" changeset="6857408" lat="-35.1515439" lon="147.357616"/>
  <node id="370540702" version="2" timestamp="2011-01-04T05:23:49Z" uid="30201" user="rrankin" changeset="6857408" lat="-35.1516022" lon="147.3578577"/>
  <node id="370540715" version="2" timestamp="2011-01-04T05:23:49Z" uid="30201" user="rrankin" changeset="6857408" lat="-35.1516714" lon="147.3581456"/>
  <node id="370540727" version="2" timestamp="2011-01-04T05:24:03Z" uid="30201" user="rrankin" changeset="6857408" lat="-35.1519332" lon="147.3590095"/>
  <node id="370544287" version="2" timestamp="2009-04-21T22:57:22Z" uid="34428" user="usm78-gis" changeset="890249" lat="59.9131075" lon="30.3593091"/>
  <node id="370544692" version="4" timestamp="2009-10-07T16:16:45Z" uid="86259" user="hasse_osm_korinthenkacker" changeset="2773292" lat="48.0944308" lon="11.4817395">
    <tag k="amenity" v="youth_centre"/>
    <tag k="name" v="Intermezzo, Kreisjugendring München-Stadt"/>
  </node>
  <node id="370544692" version="5" timestamp="2010-01-20T18:04:21Z" uid="112959" user="yordin" changeset="3668818" lat="48.0944307" lon="11.4817394">
    <tag k="amenity" v="youth_centre"/>
    <tag k="name" v="Intermezzo, Kreisjugendring München-Stadt"/>
  </node>
  <node id="370544692" version="6" timestamp="2010-01-20T18:12:28Z" uid="112959" user="yordin" changeset="3668919" lat="48.0944307" lon="11.4817393">
    <tag k="addr:city" v="München"/>
    <tag k="addr:housenumber" v="100"/>
    <tag k="addr:postcode" v="81475"/>
    <tag k="addr:street" v="Graubündener Straße"/>
    <tag k="amenity" v="youth_club"/>
    <tag k="name" v="Intermezzo, Kreisjugendring München-Stadt"/>
  </node>
  <node id="370544692" version="7" timestamp="2010-01-20T19:26:05Z" uid="112959" user="yordin" changeset="3669558" lat="48.0943667" lon="11.4819604">
    <tag k="addr:city" v="München"/>
    <tag k="addr:housenumber" v="100"/>
    <tag k="addr:postcode" v="81475"/>
    <tag k="addr:street" v="Graubündener Straße"/>
    <tag k="amenity" v="youth_club"/>
    <tag k="name" v="Intermezzo, Kreisjugendring München-Stadt"/>
  </node>
  <node id="370544692" version="8" timestamp="2010-01-22T14:49:54Z" uid="112959" user="yordin" changeset="3683807" lat="48.0943667" lon="11.4819603">
    <tag k="addr:city" v="München"/>
    <tag k="addr:housenumber" v="100"/>
    <tag k="addr:postcode" v="81475"/>
    <tag k="addr:street" v="Graubündener Straße"/>
    <tag k="amenity" v="public_building"/>
    <tag k="description" v="Jugendfreizeitstätte"/>
    <tag k="name" v="Intermezzo, Kreisjugendring München-Stadt"/>
  </node>
  <node id="370544692" version="9" timestamp="2010-01-22T14:53:00Z" uid="112959" user="yordin" changeset="3683837" lat="48.0943667" lon="11.4819603">
    <tag k="addr:city" v="München"/>
    <tag k="addr:housenumber" v="100"/>
    <tag k="addr:postcode" v="81475"/>
    <tag k="addr:street" v="Graubündener Straße"/>
    <tag k="amenity" v="public_building"/>
    <tag k="builing" v="yes"/>
    <tag k="description" v="Jugendfreizeitstätte"/>
    <tag k="name" v="Intermezzo, Kreisjugendring München-Stadt"/>
  </node>
  <node id="370544692" version="10" timestamp="2010-01-22T15:08:24Z" uid="112959" user="yordin" changeset="3683989" lat="48.0943667" lon="11.4819603">
    <tag k="addr:city" v="München"/>
    <tag k="addr:housenumber" v="100"/>
    <tag k="addr:postcode" v="81475"/>
    <tag k="addr:street" v="Graubündener Straße"/>
    <tag k="amenity" v="public_building"/>
    <tag k="builing" v="yes"/>
    <tag k="description" v="Jugendfreizeitstätte"/>
    <tag k="name" v="Intermezzo, Kreisjugendring München-Stadt"/>
  </node>
  <node id="370546205" version="3" timestamp="2010-08-18T02:42:26Z" uid="4467" user="Rosscoe" changeset="5523083" lat="-38.1981716" lon="144.3200376">
    <tag k="highway" v="traffic_signals"/>
  </node>
  <node id="370546205" version="4" timestamp="2011-12-03T10:37:31Z" uid="78837" user="modellerau" changeset="10023565" lat="-38.1981341" lon="144.3200166">
    <tag k="highway" v="traffic_signals"/>
  </node>
  <node id="370546206" version="3" timestamp="2010-04-26T02:25:51Z" uid="4467" user="Rosscoe" changeset="4527995" lat="-38.1998439" lon="144.3219013">
    <tag k="highway" v="traffic_signals"/>
  </node>
  <node id="370548204" version="2" timestamp="2011-03-23T09:47:07Z" uid="4467" user="Rosscoe" changeset="7644795" lat="-12.4335628" lon="130.923396"/>
  <node id="370548204" version="3" timestamp="2012-03-09T18:51:58Z" uid="437598" user="dmgroom_ct" changeset="10923899" lat="-12.4335628" lon="130.923396"/>
  <node id="370548214" version="2" timestamp="2011-03-23T09:45:20Z" uid="4467" user="Rosscoe" changeset="7644795" lat="-12.4336202" lon="130.9235578"/>
  <node id="370548214" version="3" timestamp="2012-03-09T18:51:58Z" uid="437598" user="dmgroom_ct" changeset="10923899" lat="-12.4336202" lon="130.9235578"/>
</osm>
