<?xml version='1.0' encoding='UTF-8'?>
<osm version="0.6" generator="libosmium/2.20.0">
  <node id="371356271" version="2" timestamp="2009-04-15T05:24:15Z" uid="6975" user="ulfl" changeset="553994" lat="51.8902261" lon="0.8969243">
    <tag k="amenity" v="grave_yard"/>
  </node>
  <node id="371356271" version="3" timestamp="2009-10-25T20:00:06Z" uid="42123" user="Ropino" changeset="2950407" lat="51.8902261" lon="0.8969243">
    <tag k="amenity" v="grave_yard"/>
  </node>
  <node id="371357666" version="2" timestamp="2009-08-25T22:48:18Z" uid="36809" user="pfoten_weg_!_" changeset="2262479" lat="46.5119919" lon="11.4440874">
    <tag k="amenity" v="place_of_worship"/>
    <tag k="name" v="St. CÃ¤cilia"/>
    <tag k="religion" v="christian"/>
  </node>
  <node id="371358215" version="3" timestamp="2009-08-25T22:48:18Z" uid="36809" user="pfoten_weg_!_" changeset="2262479" lat="46.5119329" lon="11.4428515">
    <tag k="is_in" v="Renon-Ritten"/>
    <tag k="name" v="Unterinn - Auna di Sotto"/>
    <tag k="name:de" v="Unterinn"/>
    <tag k="name:it" v="Auna di Sotto"/>
    <tag k="place" v="village"/>
  </node>
  <node id="371359286" version="2" timestamp="2009-08-25T22:48:18Z" uid="36809" user="pfoten_weg_!_" changeset="2262479" lat="46.507089" lon="11.4321226">
    <tag k="amenity" v="place_of_worship"/>
    <tag k="name" v="Hl. Sebastian"/>
    <tag k="religion" v="christian"/>
  </node>
  <node id="371359286" version="3" timestamp="2011-08-15T15:10:04Z" uid="200369" user="popeye" changeset="9027967" lat="46.5071798" lon="11.4320634">
    <tag k="amenity" v="place_of_worship"/>
    <tag k="name" v="Hl. Sebastian"/>
    <tag k="religion" v="christian"/>
  </node>
</osm>
