<?xml version='1.0' encoding='UTF-8'?>
<osm version="0.6" generator="libosmium/2.20.0">
  <node id="372501139" version="1" timestamp="2009-04-11T10:46:24Z" uid="58091" user="Andreas M" changeset="404006" lat="48.2149318" lon="16.3656016">
    <tag k="addr:city" v="Wien"/>
    <tag k="addr:country" v="AT"/>
    <tag k="addr:housenumber" v="14a"/>
    <tag k="addr:postcode" v="1010"/>
    <tag k="addr:street" v="Schottenring"/>
    <tag k="amenity" v="cafe"/>
    <tag k="cuisine" v="ice_cream"/>
    <tag k="name" v="Eissalon Hof"/>
  </node>
  <node id="372509873" version="1" timestamp="2009-04-11T11:01:43Z" uid="1679" user="andrewpmk" changeset="411868" lat="43.6968506" lon="-79.3288469">
    <tag k="addr:housenumber" v="1009"/>
    <tag k="addr:street" v="Coxwell Avenue"/>
    <tag k="name" v="LCBO"/>
    <tag k="shop" v="liquor"/>
  </node>
  <node id="372509873" version="2" timestamp="2009-04-16T22:31:19Z" uid="6975" user="ulfl" changeset="598814" lat="43.6968506" lon="-79.3288469">
    <tag k="addr:housenumber" v="1009"/>
    <tag k="addr:street" v="Coxwell Avenue"/>
    <tag k="name" v="LCBO"/>
    <tag k="shop" v="alcohol"/>
  </node>
</osm>
