<?xml version='1.0' encoding='UTF-8'?>
<osm version="0.6" generator="libosmium/2.20.0">
  <node id="372657264" version="1" timestamp="2009-04-11T14:55:27Z" uid="1066" user="pavel" changeset="413133" lat="50.042336" lon="14.389588">
    <tag k="amenity" v="fast_food"/>
    <tag k="created_by" v="andnav.org"/>
    <tag k="name" v="stanek s obcerstvenim"/>
  </node>
  <node id="372657264" version="2" timestamp="2009-04-14T14:56:24Z" uid="1066" user="pavel" changeset="517211" lat="50.0419846" lon="14.389814">
    <tag k="amenity" v="fast_food"/>
    <tag k="created_by" v="andnav.org"/>
    <tag k="name" v="stanek s obcerstvenim"/>
  </node>
  <node id="372657264" version="3" timestamp="2010-05-29T19:00:11Z" uid="3516" user="BiIbo" changeset="4844169" lat="50.0419846" lon="14.389814">
    <tag k="name" v="stánek s občerstvením"/>
    <tag k="shop" v="kiosk"/>
  </node>
  <node id="372657264" version="4" timestamp="2010-05-29T19:00:20Z" uid="3516" user="BiIbo" changeset="4844169" lat="50.0419846" lon="14.389814">
    <tag k="note" v="stánek s občerstvením"/>
    <tag k="shop" v="kiosk"/>
  </node>
</osm>
