<?xml version='1.0' encoding='UTF-8'?>
<osm version="0.6" generator="libosmium/2.20.0">
  <node id="372634307" version="1" timestamp="2009-04-11T14:28:48Z" uid="20587" user="balrog-kun" changeset="407074" lat="50.6162803" lon="21.9770151">
    <tag k="name" v="Turbia"/>
    <tag k="note" v="TODO: location"/>
    <tag k="railway" v="halt"/>
    <tag k="wikipedia" v="pl:Turbia (przystanek kolejowy)"/>
  </node>
  <node id="372634311" version="1" timestamp="2009-04-11T14:28:49Z" uid="20587" user="balrog-kun" changeset="407074" lat="50.6251356" lon="21.949556">
    <tag k="name" v="Zbydniów"/>
    <tag k="note" v="TODO: location"/>
    <tag k="railway" v="station"/>
    <tag k="wikipedia" v="pl:Zbydniów (stacja kolejowa)"/>
  </node>
  <node id="372634311" version="2" timestamp="2011-12-12T11:12:39Z" uid="563230" user="Szwagier77" changeset="10097940" lat="50.634803" lon="21.9206863">
    <tag k="name" v="Stacja PKP Zbydniów"/>
    <tag k="note" v="TODO: location"/>
    <tag k="railway" v="station"/>
    <tag k="wikipedia" v="pl:Zbydniów (stacja kolejowa)"/>
  </node>
  <node id="372634321" version="1" timestamp="2009-04-11T14:28:49Z" uid="20587" user="balrog-kun" changeset="407074" lat="50.5957639" lon="21.8274057">
    <tag k="name" v="Grębów"/>
    <tag k="note" v="TODO: location"/>
    <tag k="railway" v="station"/>
    <tag k="wikipedia" v="pl:Grębów (stacja kolejowa)"/>
  </node>
  <node id="372634324" version="1" timestamp="2009-04-11T14:28:49Z" uid="20587" user="balrog-kun" changeset="407074" lat="50.6168961" lon="21.7677521"/>
  <node id="372634330" version="1" timestamp="2009-04-11T14:28:50Z" uid="20587" user="balrog-kun" changeset="407074" lat="50.5690171" lon="21.6970537">
    <tag k="name" v="Tarnobrzeg"/>
    <tag k="railway" v="station"/>
    <tag k="wikipedia" v="pl:Tarnobrzeg (stacja kolejowa)"/>
  </node>
  <node id="372634330" version="2" timestamp="2011-06-28T17:31:34Z" uid="182924" user="gertrudon" changeset="8573502" lat="50.5676261" lon="21.6959496">
    <tag k="name" v="Tarnobrzeg"/>
    <tag k="railway" v="halt"/>
  </node>
  <node id="372634335" version="1" timestamp="2009-04-11T14:28:50Z" uid="20587" user="balrog-kun" changeset="407074" lat="50.630661" lon="21.748954">
    <tag k="is_in" v="Tarnobrzeg,Poland"/>
    <tag k="name" v="Wielowieś"/>
    <tag k="place" v="suburb"/>
  </node>
  <node id="372634335" version="2" timestamp="2011-06-19T02:53:26Z" uid="163896" user="Zbigniew Czernik" changeset="8479448" lat="50.6337726" lon="21.7535901">
    <tag k="is_in" v="Tarnobrzeg,Poland"/>
    <tag k="name" v="Wielowieś"/>
    <tag k="place" v="hamlet"/>
  </node>
  <node id="372634339" version="1" timestamp="2009-04-11T14:28:50Z" uid="20587" user="balrog-kun" changeset="407074" lat="50.6267208" lon="21.7586625">
    <tag k="name" v="Wielowieś"/>
    <tag k="railway" v="halt"/>
    <tag k="wikipedia" v="pl:Wielowieś (przystanek kolejowy)"/>
  </node>
</osm>
