<?xml version='1.0' encoding='UTF-8'?>
<osm version="0.6" generator="libosmium/2.20.0">
  <node id="372720901" version="5" timestamp="2009-11-26T18:18:20Z" uid="20587" user="balrog-kun" changeset="3222155" lat="52.4037496" lon="16.9561376"/>
  <node id="372725208" version="2" timestamp="2009-07-07T14:16:18Z" uid="43863" user="Rundling" changeset="1762862" lat="52.9884888" lon="9.8104031"/>
  <node id="372725208" version="3" timestamp="2011-01-03T15:41:50Z" uid="347762" user="Heideammer" changeset="6851036" lat="52.9884277" lon="9.8103017"/>
  <node id="372725208" version="4" timestamp="2012-01-28T04:01:33Z" uid="45882" user="smarties" changeset="10518198" lat="52.9884277" lon="9.8103017"/>
  <node id="372725209" version="2" timestamp="2009-07-07T14:16:18Z" uid="43863" user="Rundling" changeset="1762862" lat="52.9885093" lon="9.8102488"/>
  <node id="372728158" version="1" timestamp="2009-04-11T16:43:02Z" uid="308" user="MichaelCollinson" changeset="413014" lat="59.3482768" lon="18.0629115">
    <tag k="addr:city" v="Stockholm"/>
    <tag k="addr:country" v="SE"/>
    <tag k="addr:housenumber" v="22"/>
    <tag k="addr:street" v="Valhallavägen"/>
    <tag k="created_by" v="Potlatch 0.10f"/>
    <tag k="name" v="Hair &amp; Nails"/>
    <tag k="shop" v="hair_dresser"/>
  </node>
  <node id="372728158" version="2" timestamp="2009-04-15T07:22:31Z" uid="6975" user="ulfl" changeset="553994" lat="59.3482768" lon="18.0629115">
    <tag k="addr:city" v="Stockholm"/>
    <tag k="addr:country" v="SE"/>
    <tag k="addr:housenumber" v="22"/>
    <tag k="addr:street" v="Valhallavägen"/>
    <tag k="name" v="Hair &amp; Nails"/>
    <tag k="shop" v="hairdresser"/>
  </node>
  <node id="372728158" version="3" timestamp="2012-01-29T21:52:51Z" uid="76269" user="Snusmumriken" changeset="10535093" lat="59.3482363" lon="18.0630704">
    <tag k="addr:city" v="Stockholm"/>
    <tag k="addr:country" v="SE"/>
    <tag k="addr:housenumber" v="22"/>
    <tag k="addr:street" v="Valhallavägen"/>
    <tag k="name" v="Hair &amp; Nails"/>
    <tag k="shop" v="hairdresser"/>
  </node>
</osm>
