<?xml version='1.0' encoding='UTF-8'?>
<osm version="0.6" generator="libosmium/2.20.0">
  <node id="372964511" version="1" timestamp="2009-04-11T22:49:01Z" uid="109763" user="stwebster" changeset="434356" lat="51.5166258" lon="13.8924741">
    <tag k="created_by" v="Potlatch 0.10f"/>
    <tag k="shop" v="supermarket"/>
  </node>
  <node id="372964511" version="2" timestamp="2009-04-11T22:50:34Z" uid="109763" user="stwebster" changeset="434356" lat="51.5166258" lon="13.8924741">
    <tag k="created_by" v="Potlatch 0.10f"/>
    <tag k="name" v="Pennymarkt"/>
    <tag k="shop" v="supermarket"/>
  </node>
  <node id="372964511" version="3" timestamp="2009-04-11T23:27:52Z" uid="109763" user="stwebster" changeset="434356" lat="51.5166257" lon="13.892474">
    <tag k="created_by" v="Merkaartor 0.13"/>
    <tag k="name" v="Pennymarkt"/>
    <tag k="shop" v="supermarket"/>
  </node>
  <node id="372964511" version="5" timestamp="2009-04-15T05:41:10Z" uid="6975" user="ulfl" changeset="553994" lat="51.5166256" lon="13.8924739">
    <tag k="name" v="Pennymarkt"/>
    <tag k="shop" v="supermarket"/>
  </node>
  <node id="372964511" version="6" timestamp="2009-10-30T20:32:52Z" uid="109763" user="stwebster" changeset="2992439" lat="51.5165395" lon="13.8927955">
    <tag k="name" v="Pennymarkt"/>
    <tag k="shop" v="supermarket"/>
  </node>
  <node id="372965884" version="1" timestamp="2009-04-11T22:51:20Z" uid="109763" user="stwebster" changeset="434356" lat="51.5185379" lon="13.8974351">
    <tag k="created_by" v="Potlatch 0.10f"/>
    <tag k="name" v="Edeka"/>
    <tag k="shop" v="supermarket"/>
  </node>
  <node id="372965884" version="3" timestamp="2009-04-15T05:41:13Z" uid="6975" user="ulfl" changeset="553994" lat="51.5185375" lon="13.8974228">
    <tag k="name" v="Edeka"/>
    <tag k="shop" v="supermarket"/>
  </node>
  <node id="372965884" version="4" timestamp="2009-10-31T14:54:57Z" uid="109763" user="stwebster" changeset="2998074" lat="51.5185703" lon="13.8975101">
    <tag k="name" v="Edeka"/>
    <tag k="shop" v="supermarket"/>
  </node>
  <node id="372965884" version="5" timestamp="2011-06-18T15:56:27Z" uid="16019" user="Thommse" changeset="8474792" lat="51.5185002" lon="13.8975079">
    <tag k="name" v="Edeka"/>
    <tag k="shop" v="supermarket"/>
  </node>
  <node id="372965884" version="6" timestamp="2011-06-18T15:57:58Z" uid="16019" user="Thommse" changeset="8474807" lat="51.5186025" lon="13.8974637">
    <tag k="name" v="Edeka"/>
    <tag k="shop" v="supermarket"/>
  </node>
  <node id="372965951" version="2" timestamp="2010-11-20T19:46:02Z" uid="9581" user="Lobelt" changeset="6417384" lat="49.6786029" lon="8.6002411"/>
  <node id="372965951" version="3" timestamp="2012-02-25T12:01:54Z" uid="55687" user="dschuwa" changeset="10786915" lat="49.6786029" lon="8.6002411"/>
  <node id="372966686" version="1" timestamp="2009-04-11T22:53:11Z" uid="74746" user="vogelfreier" changeset="436543" lat="51.3696777" lon="7.2492149">
    <tag k="created_by" v="Potlatch 0.10f"/>
    <tag k="highway" v="bus_stop"/>
  </node>
  <node id="372966686" version="2" timestamp="2009-04-11T22:54:08Z" uid="74746" user="vogelfreier" changeset="436543" lat="51.3696777" lon="7.2492149">
    <tag k="created_by" v="Potlatch 0.10f"/>
    <tag k="highway" v="bus_station"/>
  </node>
  <node id="372966686" version="3" timestamp="2009-04-15T05:44:54Z" uid="6975" user="ulfl" changeset="553994" lat="51.3696777" lon="7.2492149">
    <tag k="amenity" v="bus_station"/>
  </node>
  <node id="372966686" version="4" timestamp="2011-06-19T08:13:20Z" uid="351645" user="akbo" changeset="8480964" lat="51.3696777" lon="7.2492149"/>
  <node id="372968807" version="3" timestamp="2010-09-01T07:12:16Z" uid="6975" user="ulfl" changeset="5651688" lat="49.053194" lon="7.7932998">
    <tag k="ele" v="334"/>
    <tag k="mountain_pass" v="yes"/>
    <tag k="name" v="Col du Litschhof"/>
  </node>
  <node id="372968807" version="4" timestamp="2011-10-31T20:47:16Z" uid="52778" user="rudolf" changeset="9707790" lat="49.0532022" lon="7.7933558">
    <tag k="ele" v="334"/>
    <tag k="mountain_pass" v="yes"/>
    <tag k="name" v="Col du Litschhof"/>
  </node>
</osm>
