<?xml version='1.0' encoding='UTF-8'?>
<osm version="0.6" generator="libosmium/2.20.0">
  <node id="373200772" version="5" timestamp="2009-05-01T19:14:56Z" uid="20587" user="balrog-kun" changeset="1041038" lat="50.9555543" lon="16.7815417">
    <tag k="is_in" v="gmina Sobótka, powiat wrocławski, województwo dolnośląskie, Poland"/>
    <tag k="is_in:country" v="Poland"/>
    <tag k="is_in:county" v="powiat wrocławski"/>
    <tag k="is_in:municipality" v="gmina Sobótka"/>
    <tag k="is_in:province" v="województwo dolnośląskie"/>
    <tag k="name" v="Mirosławice"/>
    <tag k="place" v="village"/>
    <tag k="population" v="404"/>
    <tag k="source:population" v="wikipedia"/>
    <tag k="teryt:rm" v="01"/>
    <tag k="teryt:simc" v="0880107"/>
    <tag k="teryt:stan_na" v="2009-01-01"/>
    <tag k="teryt:terc" v="0223075"/>
    <tag k="teryt:updated_by" v="teryt2osm combine.py v. 43"/>
    <tag k="wikipedia" v="Mirosławice, Lower Silesian Voivodeship"/>
  </node>
  <node id="373200772" version="6" timestamp="2010-04-11T04:46:44Z" uid="20587" user="balrog-kun" changeset="4389130" lat="50.9549401" lon="16.7819501">
    <tag k="is_in" v="gmina Sobótka, powiat wrocławski, województwo dolnośląskie, Poland"/>
    <tag k="is_in:country" v="Poland"/>
    <tag k="is_in:county" v="powiat wrocławski"/>
    <tag k="is_in:municipality" v="gmina Sobótka"/>
    <tag k="is_in:province" v="województwo dolnośląskie"/>
    <tag k="name" v="Mirosławice"/>
    <tag k="place" v="village"/>
    <tag k="population" v="404"/>
    <tag k="source:population" v="wikipedia"/>
    <tag k="teryt:rm" v="01"/>
    <tag k="teryt:simc" v="0880107"/>
    <tag k="teryt:stan_na" v="2009-01-01"/>
    <tag k="teryt:terc" v="0223075"/>
    <tag k="teryt:updated_by" v="teryt2osm combine.py v. 43"/>
    <tag k="wikipedia" v="Mirosławice, Lower Silesian Voivodeship"/>
  </node>
  <node id="373205260" version="6" timestamp="2010-12-31T20:36:58Z" uid="20587" user="balrog-kun" changeset="6823385" lat="52.2998455" lon="21.0413084"/>
  <node id="373205920" version="4" timestamp="2010-12-31T20:37:12Z" uid="20587" user="balrog-kun" changeset="6823385" lat="52.3001823" lon="21.0420203">
    <tag k="amenity" v="bus_station"/>
    <tag k="name" v="Brodno-Podgrodzie petla autobusowa"/>
  </node>
  <node id="373205920" version="5" timestamp="2011-07-14T12:45:02Z" uid="487944" user="Voitcus" changeset="8721579" lat="52.3001823" lon="21.0420203">
    <tag k="amenity" v="bus_station"/>
    <tag k="name" v="Brodno-Podgrodzie pętla autobusowa"/>
  </node>
</osm>
