<?xml version='1.0' encoding='UTF-8'?>
<osm version="0.6" generator="libosmium/2.20.0">
  <node id="373684206" version="4" timestamp="2009-10-12T21:41:12Z" uid="36809" user="pfoten_weg_!_" changeset="2831200" lat="47.9473847" lon="11.3495562">
    <tag k="highway" v="bus_stop"/>
    <tag k="name" v="Assenhausen"/>
    <tag k="route_ref" v="961"/>
    <tag k="shelter" v="yes"/>
  </node>
  <node id="373684405" version="3" timestamp="2009-10-12T21:41:09Z" uid="36809" user="pfoten_weg_!_" changeset="2831200" lat="47.9466547" lon="11.3491234">
    <tag k="highway" v="bus_stop"/>
    <tag k="name" v="Assenhausen"/>
    <tag k="route_ref" v="961"/>
  </node>
  <node id="373686606" version="4" timestamp="2009-09-01T10:12:58Z" uid="36809" user="pfoten_weg_!_" changeset="2335647" lat="47.9658613" lon="11.3559399">
    <tag k="highway" v="bus_stop"/>
    <tag k="name" v="Berg"/>
    <tag k="route_ref" v="961"/>
    <tag k="shelter" v="yes"/>
    <tag k="source" v="survey"/>
  </node>
  <node id="373686606" version="5" timestamp="2009-10-12T21:41:15Z" uid="36809" user="pfoten_weg_!_" changeset="2831200" lat="47.9658613" lon="11.3559399">
    <tag k="highway" v="bus_stop"/>
    <tag k="name" v="Berg"/>
    <tag k="route_ref" v="961"/>
    <tag k="shelter" v="yes"/>
  </node>
  <node id="373689596" version="11" timestamp="2011-06-04T13:36:16Z" uid="7617" user="Franc" changeset="8339200" lat="-33.9233972" lon="151.1132402"/>
</osm>
