<?xml version='1.0' encoding='UTF-8'?>
<osm version="0.6" generator="libosmium/2.20.0">
  <node id="375573155" version="1" timestamp="2009-04-14T08:39:13Z" uid="94149" user="markusri" changeset="515349" lat="49.1267104" lon="10.7383662">
    <tag k="created_by" v="Potlatch 0.10f"/>
    <tag k="leisure" v="minigolf"/>
  </node>
  <node id="375573155" version="2" timestamp="2009-04-15T06:49:56Z" uid="6975" user="ulfl" changeset="553994" lat="49.1267104" lon="10.7383662">
    <tag k="leisure" v="miniature_golf"/>
  </node>
  <node id="375573155" version="3" timestamp="2011-07-12T14:52:15Z" uid="140613" user="Pfiff72" changeset="8703978" lat="49.1267104" lon="10.7383662"/>
  <node id="375573376" version="1" timestamp="2009-04-14T08:39:30Z" uid="6975" user="ulfl" changeset="520101" lat="48.4249454" lon="13.8713341">
    <tag k="name" v="Donauschlinge"/>
    <tag k="stars" v="4"/>
    <tag k="tourism" v="hotel"/>
  </node>
  <node id="375573376" version="2" timestamp="2011-11-13T07:44:31Z" uid="547001" user="[NzN]suriv" changeset="9810995" lat="48.4249454" lon="13.8713341"/>
  <node id="375575785" version="1" timestamp="2009-04-14T08:43:36Z" uid="6975" user="ulfl" changeset="520101" lat="48.4880134" lon="14.1291718"/>
  <node id="375575785" version="2" timestamp="2010-03-03T00:07:44Z" uid="211966" user="Hetzi" changeset="4021614" lat="48.4880134" lon="14.1291718"/>
  <node id="375575788" version="1" timestamp="2009-04-14T08:43:37Z" uid="6975" user="ulfl" changeset="520101" lat="48.4873606" lon="14.1277721"/>
  <node id="375575788" version="2" timestamp="2010-03-03T00:07:44Z" uid="211966" user="Hetzi" changeset="4021614" lat="48.4873606" lon="14.1277721"/>
  <node id="375575792" version="1" timestamp="2009-04-14T08:43:37Z" uid="6975" user="ulfl" changeset="520101" lat="48.4868624" lon="14.1269081"/>
  <node id="375575792" version="2" timestamp="2010-03-03T00:07:44Z" uid="211966" user="Hetzi" changeset="4021614" lat="48.4868624" lon="14.1269081"/>
  <node id="375575795" version="1" timestamp="2009-04-14T08:43:37Z" uid="6975" user="ulfl" changeset="520101" lat="48.48645" lon="14.1258712"/>
  <node id="375575795" version="2" timestamp="2010-03-03T00:07:44Z" uid="211966" user="Hetzi" changeset="4021614" lat="48.48645" lon="14.1258712"/>
  <node id="375577435" version="1" timestamp="2009-04-14T08:46:16Z" uid="6975" user="ulfl" changeset="520101" lat="48.6375733" lon="14.2311716">
    <tag k="amenity" v="fuel"/>
  </node>
  <node id="375578260" version="5" timestamp="2009-05-01T19:18:54Z" uid="20587" user="balrog-kun" changeset="1041038" lat="50.9490108" lon="16.6523551">
    <tag k="created_by" v="Merkaartor 0.13"/>
    <tag k="is_in" v="gmina Mietków, powiat wrocławski, województwo dolnośląskie, Poland"/>
    <tag k="is_in:country" v="Poland"/>
    <tag k="is_in:county" v="powiat wrocławski"/>
    <tag k="is_in:municipality" v="gmina Mietków"/>
    <tag k="is_in:province" v="województwo dolnośląskie"/>
    <tag k="name" v="Maniów Mały"/>
    <tag k="place" v="village"/>
    <tag k="teryt:rm" v="01"/>
    <tag k="teryt:simc" v="0877068"/>
    <tag k="teryt:stan_na" v="2009-01-01"/>
    <tag k="teryt:terc" v="0223062"/>
    <tag k="teryt:updated_by" v="teryt2osm combine.py v. 43"/>
    <tag k="wikipedia" v="Maniów Mały"/>
  </node>
  <node id="375578260" version="6" timestamp="2010-04-11T04:46:46Z" uid="20587" user="balrog-kun" changeset="4389130" lat="50.9496568" lon="16.6515172">
    <tag k="is_in" v="gmina Mietków, powiat wrocławski, województwo dolnośląskie, Poland"/>
    <tag k="is_in:country" v="Poland"/>
    <tag k="is_in:county" v="powiat wrocławski"/>
    <tag k="is_in:municipality" v="gmina Mietków"/>
    <tag k="is_in:province" v="województwo dolnośląskie"/>
    <tag k="name" v="Maniów Mały"/>
    <tag k="place" v="village"/>
    <tag k="teryt:rm" v="01"/>
    <tag k="teryt:simc" v="0877068"/>
    <tag k="teryt:stan_na" v="2009-01-01"/>
    <tag k="teryt:terc" v="0223062"/>
    <tag k="teryt:updated_by" v="teryt2osm combine.py v. 43"/>
    <tag k="wikipedia" v="Maniów Mały"/>
  </node>
  <node id="375578260" version="7" timestamp="2010-11-01T06:32:42Z" uid="94114" user="Jaszczur" changeset="6251738" lat="50.9488134" lon="16.6512">
    <tag k="is_in" v="gmina Mietków, powiat wrocławski, województwo dolnośląskie, Poland"/>
    <tag k="is_in:country" v="Poland"/>
    <tag k="is_in:county" v="powiat wrocławski"/>
    <tag k="is_in:municipality" v="gmina Mietków"/>
    <tag k="is_in:province" v="województwo dolnośląskie"/>
    <tag k="name" v="Maniów Mały"/>
    <tag k="place" v="village"/>
    <tag k="teryt:rm" v="01"/>
    <tag k="teryt:simc" v="0877068"/>
    <tag k="teryt:stan_na" v="2009-01-01"/>
    <tag k="teryt:terc" v="0223062"/>
    <tag k="teryt:updated_by" v="teryt2osm combine.py v. 43"/>
    <tag k="wikipedia" v="Maniów Mały"/>
  </node>
  <node id="375578265" version="5" timestamp="2009-05-01T19:19:08Z" uid="20587" user="balrog-kun" changeset="1041038" lat="50.9521007" lon="16.6647147">
    <tag k="created_by" v="Merkaartor 0.13"/>
    <tag k="is_in" v="gmina Mietków, powiat wrocławski, województwo dolnośląskie, Poland"/>
    <tag k="is_in:country" v="Poland"/>
    <tag k="is_in:county" v="powiat wrocławski"/>
    <tag k="is_in:municipality" v="gmina Mietków"/>
    <tag k="is_in:province" v="województwo dolnośląskie"/>
    <tag k="name" v="Maniów"/>
    <tag k="place" v="village"/>
    <tag k="teryt:rm" v="01"/>
    <tag k="teryt:simc" v="0877051"/>
    <tag k="teryt:stan_na" v="2009-01-01"/>
    <tag k="teryt:terc" v="0223062"/>
    <tag k="teryt:updated_by" v="teryt2osm combine.py v. 43"/>
    <tag k="wikipedia" v="Maniów, Wrocław County"/>
  </node>
  <node id="375578265" version="6" timestamp="2010-04-11T04:46:46Z" uid="20587" user="balrog-kun" changeset="4389130" lat="50.95233" lon="16.6636486">
    <tag k="is_in" v="gmina Mietków, powiat wrocławski, województwo dolnośląskie, Poland"/>
    <tag k="is_in:country" v="Poland"/>
    <tag k="is_in:county" v="powiat wrocławski"/>
    <tag k="is_in:municipality" v="gmina Mietków"/>
    <tag k="is_in:province" v="województwo dolnośląskie"/>
    <tag k="name" v="Maniów"/>
    <tag k="place" v="village"/>
    <tag k="teryt:rm" v="01"/>
    <tag k="teryt:simc" v="0877051"/>
    <tag k="teryt:stan_na" v="2009-01-01"/>
    <tag k="teryt:terc" v="0223062"/>
    <tag k="teryt:updated_by" v="teryt2osm combine.py v. 43"/>
    <tag k="wikipedia" v="Maniów, Wrocław County"/>
  </node>
  <node id="375578273" version="5" timestamp="2009-05-01T19:19:25Z" uid="20587" user="balrog-kun" changeset="1041038" lat="50.9719276" lon="16.6338157">
    <tag k="addr:postcode" v="55-081"/>
    <tag k="created_by" v="Merkaartor 0.13"/>
    <tag k="is_in" v="gmina Mietków, powiat wrocławski, województwo dolnośląskie, Poland"/>
    <tag k="is_in:country" v="Poland"/>
    <tag k="is_in:county" v="powiat wrocławski"/>
    <tag k="is_in:municipality" v="gmina Mietków"/>
    <tag k="is_in:province" v="województwo dolnośląskie"/>
    <tag k="name" v="Borzygniew"/>
    <tag k="place" v="village"/>
    <tag k="teryt:rm" v="01"/>
    <tag k="teryt:simc" v="0877016"/>
    <tag k="teryt:stan_na" v="2009-01-01"/>
    <tag k="teryt:terc" v="0223062"/>
    <tag k="teryt:updated_by" v="teryt2osm combine.py v. 43"/>
    <tag k="wikipedia" v="Borzygniew, Lower Silesian Voivodeship"/>
  </node>
  <node id="375578273" version="6" timestamp="2010-04-11T04:46:46Z" uid="20587" user="balrog-kun" changeset="4389130" lat="50.971646" lon="16.6306016">
    <tag k="addr:postcode" v="55-081"/>
    <tag k="is_in" v="gmina Mietków, powiat wrocławski, województwo dolnośląskie, Poland"/>
    <tag k="is_in:country" v="Poland"/>
    <tag k="is_in:county" v="powiat wrocławski"/>
    <tag k="is_in:municipality" v="gmina Mietków"/>
    <tag k="is_in:province" v="województwo dolnośląskie"/>
    <tag k="name" v="Borzygniew"/>
    <tag k="place" v="village"/>
    <tag k="teryt:rm" v="01"/>
    <tag k="teryt:simc" v="0877016"/>
    <tag k="teryt:stan_na" v="2009-01-01"/>
    <tag k="teryt:terc" v="0223062"/>
    <tag k="teryt:updated_by" v="teryt2osm combine.py v. 43"/>
    <tag k="wikipedia" v="Borzygniew, Lower Silesian Voivodeship"/>
  </node>
</osm>
