<?xml version='1.0' encoding='UTF-8'?>
<osm version="0.6" generator="libosmium/2.20.0">
  <node id="37552361" version="4" timestamp="2008-09-14T20:03:27Z" uid="6975" user="ulfl" changeset="640534" lat="51.3580841" lon="-0.2163781">
    <tag k="amenity" v="bank"/>
    <tag k="atm" v="yes"/>
    <tag k="name" v="Abbey"/>
  </node>
  <node id="37552361" version="5" timestamp="2010-07-27T20:53:15Z" uid="9525" user="Philip Young" changeset="5333050" lat="51.3580842" lon="-0.2163781">
    <tag k="amenity" v="bank"/>
    <tag k="atm" v="yes"/>
    <tag k="name" v="Santander"/>
  </node>
  <node id="37552361" version="6" timestamp="2010-07-27T22:06:30Z" uid="9525" user="Philip Young" changeset="5333050" lat="51.3580194" lon="-0.2162829">
    <tag k="amenity" v="bank"/>
    <tag k="atm" v="yes"/>
    <tag k="name" v="Santander"/>
  </node>
  <node id="37552361" version="7" timestamp="2010-07-27T22:35:22Z" uid="9525" user="Philip Young" changeset="5333050" lat="51.3580931" lon="-0.2162936">
    <tag k="amenity" v="bank"/>
    <tag k="atm" v="yes"/>
    <tag k="name" v="Santander"/>
  </node>
  <node id="37552361" version="8" timestamp="2010-07-27T22:35:22Z" uid="9525" user="Philip Young" changeset="5333050" lat="51.3580931" lon="-0.2162936">
    <tag k="amenity" v="bank"/>
    <tag k="atm" v="yes"/>
    <tag k="name" v="Santander"/>
  </node>
  <node id="37552361" version="9" timestamp="2010-07-27T22:36:27Z" uid="9525" user="Philip Young" changeset="5333050" lat="51.3580227" lon="-0.2162534">
    <tag k="amenity" v="bank"/>
    <tag k="atm" v="yes"/>
    <tag k="name" v="Santander"/>
  </node>
  <node id="37552361" version="10" timestamp="2010-07-27T22:36:27Z" uid="9525" user="Philip Young" changeset="5333050" lat="51.3580227" lon="-0.2162534">
    <tag k="amenity" v="bank"/>
    <tag k="atm" v="yes"/>
    <tag k="name" v="Santander"/>
  </node>
  <node id="37552364" version="3" timestamp="2008-09-14T20:03:22Z" uid="6975" user="ulfl" changeset="640534" lat="51.3577357" lon="-0.2164897">
    <tag k="amenity" v="bank"/>
    <tag k="atm" v="yes"/>
    <tag k="name" v="Lloyds TSB"/>
  </node>
  <node id="37552364" version="4" timestamp="2010-07-27T20:53:15Z" uid="9525" user="Philip Young" changeset="5333050" lat="51.3578184" lon="-0.2166799">
    <tag k="amenity" v="bank"/>
    <tag k="atm" v="yes"/>
    <tag k="name" v="Lloyds TSB"/>
  </node>
  <node id="37552364" version="5" timestamp="2010-07-27T22:06:31Z" uid="9525" user="Philip Young" changeset="5333050" lat="51.3578485" lon="-0.2166584">
    <tag k="amenity" v="bank"/>
    <tag k="atm" v="yes"/>
    <tag k="name" v="Lloyds TSB"/>
  </node>
  <node id="37555963" version="5" timestamp="2009-05-01T14:22:19Z" uid="20587" user="balrog-kun" changeset="1037166" lat="49.6765357" lon="21.8585541">
    <tag k="created_by" v="JOSM"/>
    <tag k="is_in" v="gmina Korczyna, powiat krośnieński, województwo podkarpackie, Poland"/>
    <tag k="is_in:country" v="Poland"/>
    <tag k="is_in:county" v="powiat krośnieński"/>
    <tag k="is_in:municipality" v="gmina Korczyna"/>
    <tag k="is_in:province" v="województwo podkarpackie"/>
    <tag k="name" v="Iskrzynia"/>
    <tag k="place" v="village"/>
    <tag k="population" v="1200"/>
    <tag k="source:population" v="wikipedia"/>
    <tag k="teryt:rm" v="01"/>
    <tag k="teryt:simc" v="0354608"/>
    <tag k="teryt:stan_na" v="2009-01-01"/>
    <tag k="teryt:terc" v="1807052"/>
    <tag k="teryt:updated_by" v="teryt2osm combine.py v. 43"/>
    <tag k="wikipedia" v="Iskrzynia"/>
  </node>
  <node id="37555963" version="6" timestamp="2009-11-13T14:06:45Z" uid="163896" user="Zbigniew Czernik" changeset="3105899" lat="49.6828637" lon="21.8650252">
    <tag k="is_in" v="gmina Korczyna, powiat krośnieński, województwo podkarpackie, Poland"/>
    <tag k="is_in:country" v="Poland"/>
    <tag k="is_in:county" v="powiat krośnieński"/>
    <tag k="is_in:municipality" v="gmina Korczyna"/>
    <tag k="is_in:province" v="województwo podkarpackie"/>
    <tag k="name" v="Iskrzynia"/>
    <tag k="place" v="village"/>
    <tag k="population" v="1200"/>
    <tag k="source:population" v="wikipedia"/>
    <tag k="teryt:rm" v="01"/>
    <tag k="teryt:simc" v="0354608"/>
    <tag k="teryt:stan_na" v="2009-01-01"/>
    <tag k="teryt:terc" v="1807052"/>
    <tag k="teryt:updated_by" v="teryt2osm combine.py v. 43"/>
    <tag k="wikipedia" v="Iskrzynia"/>
  </node>
  <node id="37556062" version="5" timestamp="2009-05-01T14:21:30Z" uid="20587" user="balrog-kun" changeset="1037166" lat="49.6507534" lon="21.9761024">
    <tag k="addr:postcode" v="36-211"/>
    <tag k="created_by" v="JOSM"/>
    <tag k="is_in" v="gmina Haczów, powiat brzozowski, województwo podkarpackie, Poland"/>
    <tag k="is_in:country" v="Poland"/>
    <tag k="is_in:county" v="powiat brzozowski"/>
    <tag k="is_in:municipality" v="gmina Haczów"/>
    <tag k="is_in:province" v="województwo podkarpackie"/>
    <tag k="name" v="Jasionów"/>
    <tag k="place" v="village"/>
    <tag k="population" v="1300"/>
    <tag k="source:population" v="wikipedia"/>
    <tag k="teryt:rm" v="01"/>
    <tag k="teryt:simc" v="0351389"/>
    <tag k="teryt:stan_na" v="2009-01-01"/>
    <tag k="teryt:terc" v="1802042"/>
    <tag k="teryt:updated_by" v="teryt2osm combine.py v. 43"/>
    <tag k="wikipedia" v="Jasionów, Subcarpathian Voivodeship"/>
  </node>
  <node id="37556062" version="6" timestamp="2009-11-13T14:06:50Z" uid="163896" user="Zbigniew Czernik" changeset="3105899" lat="49.657335" lon="21.9782204">
    <tag k="addr:postcode" v="36-211"/>
    <tag k="is_in" v="gmina Haczów, powiat brzozowski, województwo podkarpackie, Poland"/>
    <tag k="is_in:country" v="Poland"/>
    <tag k="is_in:county" v="powiat brzozowski"/>
    <tag k="is_in:municipality" v="gmina Haczów"/>
    <tag k="is_in:province" v="województwo podkarpackie"/>
    <tag k="name" v="Jasionów"/>
    <tag k="place" v="village"/>
    <tag k="population" v="1300"/>
    <tag k="source:population" v="wikipedia"/>
    <tag k="teryt:rm" v="01"/>
    <tag k="teryt:simc" v="0351389"/>
    <tag k="teryt:stan_na" v="2009-01-01"/>
    <tag k="teryt:terc" v="1802042"/>
    <tag k="teryt:updated_by" v="teryt2osm combine.py v. 43"/>
    <tag k="wikipedia" v="Jasionów, Subcarpathian Voivodeship"/>
  </node>
  <node id="37556062" version="7" timestamp="2010-04-11T04:37:29Z" uid="20587" user="balrog-kun" changeset="4389130" lat="49.6573305" lon="21.9779293">
    <tag k="addr:postcode" v="36-211"/>
    <tag k="is_in" v="gmina Haczów, powiat brzozowski, województwo podkarpackie, Poland"/>
    <tag k="is_in:country" v="Poland"/>
    <tag k="is_in:county" v="powiat brzozowski"/>
    <tag k="is_in:municipality" v="gmina Haczów"/>
    <tag k="is_in:province" v="województwo podkarpackie"/>
    <tag k="name" v="Jasionów"/>
    <tag k="place" v="village"/>
    <tag k="population" v="1300"/>
    <tag k="source:population" v="wikipedia"/>
    <tag k="teryt:rm" v="01"/>
    <tag k="teryt:simc" v="0351389"/>
    <tag k="teryt:stan_na" v="2009-01-01"/>
    <tag k="teryt:terc" v="1802042"/>
    <tag k="teryt:updated_by" v="teryt2osm combine.py v. 43"/>
    <tag k="wikipedia" v="Jasionów, Subcarpathian Voivodeship"/>
  </node>
  <node id="37556062" version="8" timestamp="2010-04-11T13:14:43Z" uid="20587" user="balrog-kun" changeset="4392352" lat="49.657335" lon="21.9782204">
    <tag k="addr:postcode" v="36-211"/>
    <tag k="is_in" v="gmina Haczów, powiat brzozowski, województwo podkarpackie, Poland"/>
    <tag k="is_in:country" v="Poland"/>
    <tag k="is_in:county" v="powiat brzozowski"/>
    <tag k="is_in:municipality" v="gmina Haczów"/>
    <tag k="is_in:province" v="województwo podkarpackie"/>
    <tag k="name" v="Jasionów"/>
    <tag k="place" v="village"/>
    <tag k="population" v="1300"/>
    <tag k="source:population" v="wikipedia"/>
    <tag k="teryt:rm" v="01"/>
    <tag k="teryt:simc" v="0351389"/>
    <tag k="teryt:stan_na" v="2009-01-01"/>
    <tag k="teryt:terc" v="1802042"/>
    <tag k="teryt:updated_by" v="teryt2osm combine.py v. 43"/>
    <tag k="wikipedia" v="Jasionów, Subcarpathian Voivodeship"/>
  </node>
  <node id="37556259" version="5" timestamp="2009-05-01T14:21:59Z" uid="20587" user="balrog-kun" changeset="1037166" lat="49.6624085" lon="22.0019356">
    <tag k="addr:postcode" v="36-200"/>
    <tag k="created_by" v="JOSM"/>
    <tag k="is_in" v="gmina Brzozów, powiat brzozowski, województwo podkarpackie, Poland"/>
    <tag k="is_in:country" v="Poland"/>
    <tag k="is_in:county" v="powiat brzozowski"/>
    <tag k="is_in:municipality" v="gmina Brzozów"/>
    <tag k="is_in:province" v="województwo podkarpackie"/>
    <tag k="name" v="Turze Pole"/>
    <tag k="place" v="village"/>
    <tag k="population" v="1040"/>
    <tag k="source:population" v="wikipedia"/>
    <tag k="teryt:rm" v="01"/>
    <tag k="teryt:simc" v="0346135"/>
    <tag k="teryt:stan_na" v="2009-01-01"/>
    <tag k="teryt:terc" v="1802015"/>
    <tag k="teryt:updated_by" v="teryt2osm combine.py v. 43"/>
    <tag k="wikipedia" v="Turze Pole"/>
  </node>
  <node id="37556259" version="6" timestamp="2009-11-13T14:06:50Z" uid="163896" user="Zbigniew Czernik" changeset="3105899" lat="49.6666549" lon="22.0030923">
    <tag k="addr:postcode" v="36-200"/>
    <tag k="is_in" v="gmina Brzozów, powiat brzozowski, województwo podkarpackie, Poland"/>
    <tag k="is_in:country" v="Poland"/>
    <tag k="is_in:county" v="powiat brzozowski"/>
    <tag k="is_in:municipality" v="gmina Brzozów"/>
    <tag k="is_in:province" v="województwo podkarpackie"/>
    <tag k="name" v="Turze Pole"/>
    <tag k="place" v="village"/>
    <tag k="population" v="1040"/>
    <tag k="source:population" v="wikipedia"/>
    <tag k="teryt:rm" v="01"/>
    <tag k="teryt:simc" v="0346135"/>
    <tag k="teryt:stan_na" v="2009-01-01"/>
    <tag k="teryt:terc" v="1802015"/>
    <tag k="teryt:updated_by" v="teryt2osm combine.py v. 43"/>
    <tag k="wikipedia" v="Turze Pole"/>
  </node>
  <node id="37556259" version="7" timestamp="2010-04-11T04:37:29Z" uid="20587" user="balrog-kun" changeset="4389130" lat="49.6653904" lon="22.0031726">
    <tag k="addr:postcode" v="36-200"/>
    <tag k="is_in" v="gmina Brzozów, powiat brzozowski, województwo podkarpackie, Poland"/>
    <tag k="is_in:country" v="Poland"/>
    <tag k="is_in:county" v="powiat brzozowski"/>
    <tag k="is_in:municipality" v="gmina Brzozów"/>
    <tag k="is_in:province" v="województwo podkarpackie"/>
    <tag k="name" v="Turze Pole"/>
    <tag k="place" v="village"/>
    <tag k="population" v="1040"/>
    <tag k="source:population" v="wikipedia"/>
    <tag k="teryt:rm" v="01"/>
    <tag k="teryt:simc" v="0346135"/>
    <tag k="teryt:stan_na" v="2009-01-01"/>
    <tag k="teryt:terc" v="1802015"/>
    <tag k="teryt:updated_by" v="teryt2osm combine.py v. 43"/>
    <tag k="wikipedia" v="Turze Pole"/>
  </node>
  <node id="37556259" version="8" timestamp="2010-04-11T13:14:44Z" uid="20587" user="balrog-kun" changeset="4392352" lat="49.6666549" lon="22.0030923">
    <tag k="addr:postcode" v="36-200"/>
    <tag k="is_in" v="gmina Brzozów, powiat brzozowski, województwo podkarpackie, Poland"/>
    <tag k="is_in:country" v="Poland"/>
    <tag k="is_in:county" v="powiat brzozowski"/>
    <tag k="is_in:municipality" v="gmina Brzozów"/>
    <tag k="is_in:province" v="województwo podkarpackie"/>
    <tag k="name" v="Turze Pole"/>
    <tag k="place" v="village"/>
    <tag k="population" v="1040"/>
    <tag k="source:population" v="wikipedia"/>
    <tag k="teryt:rm" v="01"/>
    <tag k="teryt:simc" v="0346135"/>
    <tag k="teryt:stan_na" v="2009-01-01"/>
    <tag k="teryt:terc" v="1802015"/>
    <tag k="teryt:updated_by" v="teryt2osm combine.py v. 43"/>
    <tag k="wikipedia" v="Turze Pole"/>
  </node>
  <node id="37556360" version="5" timestamp="2009-05-01T14:22:23Z" uid="20587" user="balrog-kun" changeset="1037166" lat="49.6676078" lon="21.8896084">
    <tag k="addr:postcode" v="36-213"/>
    <tag k="created_by" v="JOSM"/>
    <tag k="is_in" v="gmina Haczów, powiat brzozowski, województwo podkarpackie, Poland"/>
    <tag k="is_in:country" v="Poland"/>
    <tag k="is_in:county" v="powiat brzozowski"/>
    <tag k="is_in:municipality" v="gmina Haczów"/>
    <tag k="is_in:province" v="województwo podkarpackie"/>
    <tag k="name" v="Haczów"/>
    <tag k="place" v="village"/>
    <tag k="population" v="3370"/>
    <tag k="source:population" v="wikipedia"/>
    <tag k="teryt:rm" v="01"/>
    <tag k="teryt:simc" v="0351248"/>
    <tag k="teryt:stan_na" v="2009-01-01"/>
    <tag k="teryt:terc" v="1802042"/>
    <tag k="teryt:updated_by" v="teryt2osm combine.py v. 43"/>
    <tag k="wikipedia" v="Haczów"/>
  </node>
  <node id="37556360" version="6" timestamp="2009-11-13T14:06:47Z" uid="163896" user="Zbigniew Czernik" changeset="3105899" lat="49.6716474" lon="21.8893623">
    <tag k="addr:postcode" v="36-213"/>
    <tag k="is_in" v="gmina Haczów, powiat brzozowski, województwo podkarpackie, Poland"/>
    <tag k="is_in:country" v="Poland"/>
    <tag k="is_in:county" v="powiat brzozowski"/>
    <tag k="is_in:municipality" v="gmina Haczów"/>
    <tag k="is_in:province" v="województwo podkarpackie"/>
    <tag k="name" v="Haczów"/>
    <tag k="place" v="village"/>
    <tag k="population" v="3370"/>
    <tag k="source:population" v="wikipedia"/>
    <tag k="teryt:rm" v="01"/>
    <tag k="teryt:simc" v="0351248"/>
    <tag k="teryt:stan_na" v="2009-01-01"/>
    <tag k="teryt:terc" v="1802042"/>
    <tag k="teryt:updated_by" v="teryt2osm combine.py v. 43"/>
    <tag k="wikipedia" v="Haczów"/>
  </node>
  <node id="37556360" version="7" timestamp="2010-04-11T04:37:30Z" uid="20587" user="balrog-kun" changeset="4389130" lat="49.6705892" lon="21.8903576">
    <tag k="addr:postcode" v="36-213"/>
    <tag k="is_in" v="gmina Haczów, powiat brzozowski, województwo podkarpackie, Poland"/>
    <tag k="is_in:country" v="Poland"/>
    <tag k="is_in:county" v="powiat brzozowski"/>
    <tag k="is_in:municipality" v="gmina Haczów"/>
    <tag k="is_in:province" v="województwo podkarpackie"/>
    <tag k="name" v="Haczów"/>
    <tag k="place" v="village"/>
    <tag k="population" v="3370"/>
    <tag k="source:population" v="wikipedia"/>
    <tag k="teryt:rm" v="01"/>
    <tag k="teryt:simc" v="0351248"/>
    <tag k="teryt:stan_na" v="2009-01-01"/>
    <tag k="teryt:terc" v="1802042"/>
    <tag k="teryt:updated_by" v="teryt2osm combine.py v. 43"/>
    <tag k="wikipedia" v="Haczów"/>
  </node>
  <node id="37556360" version="8" timestamp="2010-04-11T13:14:44Z" uid="20587" user="balrog-kun" changeset="4392352" lat="49.6716474" lon="21.8893623">
    <tag k="addr:postcode" v="36-213"/>
    <tag k="is_in" v="gmina Haczów, powiat brzozowski, województwo podkarpackie, Poland"/>
    <tag k="is_in:country" v="Poland"/>
    <tag k="is_in:county" v="powiat brzozowski"/>
    <tag k="is_in:municipality" v="gmina Haczów"/>
    <tag k="is_in:province" v="województwo podkarpackie"/>
    <tag k="name" v="Haczów"/>
    <tag k="place" v="village"/>
    <tag k="population" v="3370"/>
    <tag k="source:population" v="wikipedia"/>
    <tag k="teryt:rm" v="01"/>
    <tag k="teryt:simc" v="0351248"/>
    <tag k="teryt:stan_na" v="2009-01-01"/>
    <tag k="teryt:terc" v="1802042"/>
    <tag k="teryt:updated_by" v="teryt2osm combine.py v. 43"/>
    <tag k="wikipedia" v="Haczów"/>
  </node>
</osm>
