<?xml version='1.0' encoding='UTF-8'?>
<osm version="0.6" generator="libosmium/2.20.0">
  <node id="375731065" version="1" timestamp="2009-04-14T12:53:00Z" uid="116867" user="mwue" changeset="519440" lat="52.973352" lon="10.5832595">
    <tag k="amenity" v="school"/>
    <tag k="created_by" v="Potlatch 0.10f"/>
    <tag k="name" v="Sportplatz Schule Oldensadt"/>
  </node>
  <node id="375731065" version="2" timestamp="2009-04-14T12:54:58Z" uid="116867" user="mwue" changeset="519440" lat="52.973352" lon="10.5832595">
    <tag k="amenity" v="school"/>
    <tag k="created_by" v="Potlatch 0.10f"/>
    <tag k="name" v="Sportplatz Grundschule Oldenstadt"/>
    <tag k="sport" v="football"/>
  </node>
  <node id="375731065" version="3" timestamp="2009-04-16T10:16:10Z" uid="43863" user="Rundling" changeset="575479" lat="52.973352" lon="10.5832595">
    <tag k="leisure" v="pitch"/>
    <tag k="name" v="Sportplatz"/>
    <tag k="sport" v="soccer"/>
  </node>
  <node id="375731065" version="4" timestamp="2009-04-21T10:17:02Z" uid="43863" user="Rundling" changeset="877541" lat="52.9735113" lon="10.5833317">
    <tag k="leisure" v="pitch"/>
    <tag k="name" v="Sportplatz"/>
    <tag k="sport" v="soccer"/>
  </node>
  <node id="375734707" version="1" timestamp="2009-04-14T12:59:57Z" uid="15535" user="Blazejos" changeset="526439" lat="53.1317231" lon="16.7550082">
    <tag k="created_by" v="Merkaartor 0.12"/>
  </node>
  <node id="375734707" version="2" timestamp="2009-04-16T16:59:31Z" uid="30632" user="antblant" changeset="598077" lat="53.1317231" lon="16.7550082"/>
  <node id="375734707" version="3" timestamp="2009-09-30T19:06:47Z" uid="15535" user="Blazejos" changeset="2692414" lat="53.1317231" lon="16.7555765">
    <tag k="crossing" v="uncontrolled"/>
    <tag k="railway" v="crossing"/>
  </node>
  <node id="375734707" version="4" timestamp="2010-05-21T17:21:13Z" uid="15535" user="Blazejos" changeset="4767853" lat="53.1317231" lon="16.7558029">
    <tag k="crossing" v="uncontrolled"/>
    <tag k="railway" v="crossing"/>
  </node>
  <node id="375734707" version="5" timestamp="2011-05-06T21:56:06Z" uid="44414" user="marimil" changeset="8069038" lat="53.131707" lon="16.7557815">
    <tag k="crossing" v="uncontrolled"/>
    <tag k="railway" v="crossing"/>
  </node>
  <node id="375734707" version="6" timestamp="2011-12-31T02:42:34Z" uid="15535" user="Blazejos" changeset="10251613" lat="53.1317105" lon="16.7557462">
    <tag k="crossing" v="uncontrolled"/>
    <tag k="railway" v="crossing"/>
  </node>
  <node id="375734830" version="2" timestamp="2010-01-16T22:51:15Z" uid="8619" user="cetest" changeset="3636525" lat="18.5228069" lon="-72.2818545"/>
  <node id="375734866" version="1" timestamp="2009-04-14T13:00:14Z" uid="116867" user="mwue" changeset="519440" lat="52.9720978" lon="10.5820465"/>
  <node id="375734866" version="2" timestamp="2009-04-14T18:38:31Z" uid="116867" user="mwue" changeset="543464" lat="52.9720978" lon="10.5820465"/>
  <node id="375734866" version="3" timestamp="2009-04-16T07:34:02Z" uid="43863" user="Rundling" changeset="573864" lat="52.9720978" lon="10.5820465"/>
  <node id="375734867" version="1" timestamp="2009-04-14T13:00:15Z" uid="116867" user="mwue" changeset="519440" lat="52.975385" lon="10.5795832"/>
  <node id="375734867" version="2" timestamp="2009-04-14T18:38:32Z" uid="116867" user="mwue" changeset="543464" lat="52.975385" lon="10.5795832"/>
  <node id="375734867" version="3" timestamp="2009-04-16T07:33:03Z" uid="43863" user="Rundling" changeset="573864" lat="52.975385" lon="10.5795832"/>
  <node id="375736942" version="1" timestamp="2009-04-14T13:03:53Z" uid="77771" user="knex" changeset="536198" lat="51.2146821" lon="7.3100581">
    <tag k="created_by" v="Potlatch 0.10f"/>
  </node>
  <node id="375736942" version="2" timestamp="2009-04-14T13:05:00Z" uid="77771" user="knex" changeset="536198" lat="51.2146821" lon="7.3100581">
    <tag k="created_by" v="Potlatch 0.10f"/>
    <tag k="shop" v="Kiosk"/>
  </node>
  <node id="375736942" version="3" timestamp="2009-04-15T07:24:08Z" uid="6975" user="ulfl" changeset="553994" lat="51.2146821" lon="7.3100581">
    <tag k="shop" v="kiosk"/>
  </node>
  <node id="375736942" version="4" timestamp="2010-10-18T19:52:06Z" uid="45366" user="gammlaa" changeset="6086190" lat="51.2147404" lon="7.3101069">
    <tag k="shop" v="kiosk"/>
  </node>
  <node id="375736942" version="5" timestamp="2010-10-25T18:43:01Z" uid="45366" user="gammlaa" changeset="6176213" lat="51.214747" lon="7.3101279">
    <tag k="shop" v="kiosk"/>
  </node>
  <node id="375739957" version="2" timestamp="2009-10-07T16:16:17Z" uid="86259" user="hasse_osm_korinthenkacker" changeset="2773292" lat="54.7920953" lon="9.4312121">
    <tag k="amenity" v="library"/>
    <tag k="name" v="Dansk Centralbibliotek"/>
  </node>
  <node id="375739957" version="3" timestamp="2009-10-11T09:49:04Z" uid="65128" user="alfa91" changeset="2812190" lat="54.7921" lon="9.4312083">
    <tag k="addr:housenumber" v="59"/>
    <tag k="addr:postcode" v="24939"/>
    <tag k="addr:street" v="Norderstraße"/>
    <tag k="amenity" v="library"/>
    <tag k="name" v="Dansk Centralbibliotek"/>
  </node>
  <node id="375739957" version="4" timestamp="2009-11-28T13:16:07Z" uid="65128" user="alfa91" changeset="3235586" lat="54.7920133" lon="9.4312051">
    <tag k="addr:housenumber" v="59"/>
    <tag k="addr:postcode" v="24939"/>
    <tag k="addr:street" v="Norderstraße"/>
    <tag k="amenity" v="library"/>
    <tag k="name" v="Dansk Centralbibliotek"/>
  </node>
  <node id="375739957" version="5" timestamp="2009-12-11T18:59:09Z" uid="40397" user="Zartbitter" changeset="3351253" lat="54.7920133" lon="9.4312051">
    <tag k="addr:city" v="Flensburg"/>
    <tag k="addr:country" v="DE"/>
    <tag k="addr:housenumber" v="59"/>
    <tag k="addr:postcode" v="24939"/>
    <tag k="addr:street" v="Norderstraße"/>
    <tag k="amenity" v="library"/>
    <tag k="name" v="Dansk Centralbibliotek"/>
    <tag k="phone" v="+49-461-8697-0"/>
    <tag k="ref:isil" v="DK-700400"/>
    <tag k="website" v="http://www.dcbib.dk/"/>
  </node>
  <node id="375739957" version="6" timestamp="2011-09-23T12:40:30Z" uid="290680" user="wheelmap_visitor" changeset="9373820" lat="54.7920133" lon="9.4312051">
    <tag k="addr:city" v="Flensburg"/>
    <tag k="addr:country" v="DE"/>
    <tag k="addr:housenumber" v="59"/>
    <tag k="addr:postcode" v="24939"/>
    <tag k="addr:street" v="Norderstraße"/>
    <tag k="amenity" v="library"/>
    <tag k="name" v="Dansk Centralbibliotek"/>
    <tag k="phone" v="+49-461-8697-0"/>
    <tag k="ref:isil" v="DK-700400"/>
    <tag k="website" v="http://www.dcbib.dk/"/>
    <tag k="wheelchair" v="yes"/>
  </node>
</osm>
