<?xml version='1.0' encoding='UTF-8'?>
<osm version="0.6" generator="libosmium/2.20.0">
  <node id="376362522" version="5" timestamp="2009-05-01T19:17:42Z" uid="20587" user="balrog-kun" changeset="1041038" lat="50.8439164" lon="16.4157252">
    <tag k="addr:postcode" v="58-100"/>
    <tag k="is_in" v="gmina Świdnica, powiat świdnicki, województwo dolnośląskie, Poland"/>
    <tag k="is_in:country" v="Poland"/>
    <tag k="is_in:county" v="powiat świdnicki"/>
    <tag k="is_in:municipality" v="gmina Świdnica"/>
    <tag k="is_in:province" v="województwo dolnośląskie"/>
    <tag k="name" v="Komorów"/>
    <tag k="place" v="village"/>
    <tag k="teryt:rm" v="01"/>
    <tag k="teryt:simc" v="0856072"/>
    <tag k="teryt:stan_na" v="2009-01-01"/>
    <tag k="teryt:terc" v="0219072"/>
    <tag k="teryt:updated_by" v="teryt2osm combine.py v. 43"/>
    <tag k="wikipedia" v="Komorów, Świdnica County"/>
  </node>
  <node id="376362522" version="6" timestamp="2010-04-11T04:46:47Z" uid="20587" user="balrog-kun" changeset="4389130" lat="50.8450782" lon="16.4156777">
    <tag k="addr:postcode" v="58-100"/>
    <tag k="is_in" v="gmina Świdnica, powiat świdnicki, województwo dolnośląskie, Poland"/>
    <tag k="is_in:country" v="Poland"/>
    <tag k="is_in:county" v="powiat świdnicki"/>
    <tag k="is_in:municipality" v="gmina Świdnica"/>
    <tag k="is_in:province" v="województwo dolnośląskie"/>
    <tag k="name" v="Komorów"/>
    <tag k="place" v="village"/>
    <tag k="teryt:rm" v="01"/>
    <tag k="teryt:simc" v="0856072"/>
    <tag k="teryt:stan_na" v="2009-01-01"/>
    <tag k="teryt:terc" v="0219072"/>
    <tag k="teryt:updated_by" v="teryt2osm combine.py v. 43"/>
    <tag k="wikipedia" v="Komorów, Świdnica County"/>
  </node>
  <node id="376362524" version="5" timestamp="2009-05-01T19:18:37Z" uid="20587" user="balrog-kun" changeset="1041038" lat="50.8517445" lon="16.3703841">
    <tag k="addr:postcode" v="58-160"/>
    <tag k="is_in" v="gmina Świdnica, powiat świdnicki, województwo dolnośląskie, Poland"/>
    <tag k="is_in:country" v="Poland"/>
    <tag k="is_in:county" v="powiat świdnicki"/>
    <tag k="is_in:municipality" v="gmina Świdnica"/>
    <tag k="is_in:province" v="województwo dolnośląskie"/>
    <tag k="name" v="Mokrzeszów"/>
    <tag k="place" v="village"/>
    <tag k="population" v="1100"/>
    <tag k="source:population" v="wikipedia"/>
    <tag k="teryt:rm" v="01"/>
    <tag k="teryt:simc" v="0856190"/>
    <tag k="teryt:stan_na" v="2009-01-01"/>
    <tag k="teryt:terc" v="0219072"/>
    <tag k="teryt:updated_by" v="teryt2osm combine.py v. 43"/>
    <tag k="wikipedia" v="Mokrzeszów"/>
  </node>
  <node id="376362524" version="6" timestamp="2010-04-11T04:46:47Z" uid="20587" user="balrog-kun" changeset="4389130" lat="50.8520984" lon="16.369905">
    <tag k="addr:postcode" v="58-160"/>
    <tag k="is_in" v="gmina Świdnica, powiat świdnicki, województwo dolnośląskie, Poland"/>
    <tag k="is_in:country" v="Poland"/>
    <tag k="is_in:county" v="powiat świdnicki"/>
    <tag k="is_in:municipality" v="gmina Świdnica"/>
    <tag k="is_in:province" v="województwo dolnośląskie"/>
    <tag k="name" v="Mokrzeszów"/>
    <tag k="place" v="village"/>
    <tag k="population" v="1100"/>
    <tag k="source:population" v="wikipedia"/>
    <tag k="teryt:rm" v="01"/>
    <tag k="teryt:simc" v="0856190"/>
    <tag k="teryt:stan_na" v="2009-01-01"/>
    <tag k="teryt:terc" v="0219072"/>
    <tag k="teryt:updated_by" v="teryt2osm combine.py v. 43"/>
    <tag k="wikipedia" v="Mokrzeszów"/>
  </node>
  <node id="376362526" version="3" timestamp="2010-04-27T04:15:38Z" uid="30632" user="antblant" changeset="4537896" lat="50.8888629" lon="16.4262848">
    <tag k="is_in" v="Poland"/>
    <tag k="name" v="Stary Jaworów"/>
    <tag k="place" v="village"/>
    <tag k="teryt:simc" v="0852571"/>
  </node>
  <node id="376367165" version="1" timestamp="2009-04-15T11:09:20Z" uid="116867" user="mwue" changeset="570148" lat="52.9730139" lon="10.5840278">
    <tag k="created_by" v="Potlatch 0.10f"/>
    <tag k="leisure" v="playground"/>
    <tag k="sport" v="Tischtennis und Spielplatz"/>
  </node>
  <node id="376367165" version="2" timestamp="2009-04-16T09:37:51Z" uid="43863" user="Rundling" changeset="575479" lat="52.9730139" lon="10.5840278">
    <tag k="created_by" v="Potlatch 0.10f"/>
    <tag k="leisure" v="playground"/>
    <tag k="name" v="Spielplatz"/>
    <tag k="sport" v="table_tennis"/>
  </node>
  <node id="376367165" version="3" timestamp="2009-04-17T07:48:22Z" uid="43863" user="Rundling" changeset="601041" lat="52.9729522" lon="10.5841104">
    <tag k="created_by" v="Potlatch 0.10f"/>
    <tag k="leisure" v="playground"/>
    <tag k="name" v="Spielplatz"/>
    <tag k="sport" v="table_tennis"/>
  </node>
  <node id="376367165" version="4" timestamp="2009-04-21T10:17:02Z" uid="43863" user="Rundling" changeset="877541" lat="52.9728929" lon="10.5841038">
    <tag k="created_by" v="Potlatch 0.10f"/>
    <tag k="leisure" v="playground"/>
    <tag k="name" v="Spielplatz"/>
    <tag k="sport" v="table_tennis"/>
  </node>
  <node id="376367165" version="5" timestamp="2009-04-21T10:50:26Z" uid="43863" user="Rundling" changeset="878136" lat="52.9729423" lon="10.5842152">
    <tag k="created_by" v="Potlatch 0.10f"/>
    <tag k="leisure" v="playground"/>
    <tag k="name" v="Spielplatz"/>
    <tag k="sport" v="table_tennis"/>
  </node>
  <node id="376367165" version="6" timestamp="2009-04-22T16:15:15Z" uid="43863" user="Rundling" changeset="901488" lat="52.9729423" lon="10.5842152">
    <tag k="created_by" v="Potlatch 0.10f"/>
    <tag k="leisure" v="playground"/>
    <tag k="name" v="Spielplatz"/>
    <tag k="sport" v="table_tennis"/>
  </node>
  <node id="376368850" version="1" timestamp="2009-04-15T11:13:51Z" uid="49111" user="Markus B" changeset="557683" lat="53.6866405" lon="10.2642043"/>
  <node id="376368851" version="1" timestamp="2009-04-15T11:13:51Z" uid="49111" user="Markus B" changeset="557683" lat="53.6866151" lon="10.2640326"/>
  <node id="376368851" version="2" timestamp="2010-07-25T20:48:20Z" uid="134506" user="kele7" changeset="5316533" lat="53.6865915" lon="10.2640446"/>
  <node id="376368852" version="1" timestamp="2009-04-15T11:13:51Z" uid="49111" user="Markus B" changeset="557683" lat="53.6863254" lon="10.26423"/>
  <node id="376368854" version="1" timestamp="2009-04-15T11:13:51Z" uid="49111" user="Markus B" changeset="557683" lat="53.6861068" lon="10.2641613"/>
  <node id="376368855" version="1" timestamp="2009-04-15T11:13:51Z" uid="49111" user="Markus B" changeset="557683" lat="53.6859391" lon="10.2647192"/>
  <node id="376368856" version="1" timestamp="2009-04-15T11:13:51Z" uid="49111" user="Markus B" changeset="557683" lat="53.6860407" lon="10.2648909"/>
  <node id="376368857" version="1" timestamp="2009-04-15T11:13:51Z" uid="49111" user="Markus B" changeset="557683" lat="53.6863355" lon="10.2646935"/>
  <node id="376368857" version="2" timestamp="2010-07-25T20:48:21Z" uid="134506" user="kele7" changeset="5316533" lat="53.6863237" lon="10.2646975"/>
  <node id="376368858" version="1" timestamp="2009-04-15T11:13:51Z" uid="49111" user="Markus B" changeset="557683" lat="53.6863254" lon="10.264436"/>
  <node id="376369084" version="1" timestamp="2009-04-15T11:14:24Z" uid="49111" user="Markus B" changeset="557683" lat="53.6886838" lon="10.2575524"/>
  <node id="376369085" version="1" timestamp="2009-04-15T11:14:24Z" uid="49111" user="Markus B" changeset="557683" lat="53.6884093" lon="10.257621"/>
  <node id="376369086" version="1" timestamp="2009-04-15T11:14:24Z" uid="49111" user="Markus B" changeset="557683" lat="53.6882924" lon="10.2568486"/>
  <node id="376369087" version="1" timestamp="2009-04-15T11:14:24Z" uid="49111" user="Markus B" changeset="557683" lat="53.6883788" lon="10.2565653"/>
  <node id="376369089" version="1" timestamp="2009-04-15T11:14:24Z" uid="49111" user="Markus B" changeset="557683" lat="53.6885465" lon="10.2566941"/>
</osm>
