<?xml version='1.0' encoding='UTF-8'?>
<osm version="0.6" generator="libosmium/2.20.0">
  <node id="376562761" version="2" timestamp="2010-10-28T04:38:24Z" uid="23543" user="jkjk" changeset="6204489" lat="49.0423377" lon="15.8016252"/>
  <node id="376562819" version="2" timestamp="2010-10-28T04:37:43Z" uid="23543" user="jkjk" changeset="6204489" lat="49.0454976" lon="15.7943436"/>
  <node id="376562857" version="2" timestamp="2010-10-28T04:38:22Z" uid="23543" user="jkjk" changeset="6204489" lat="49.0491931" lon="15.79072"/>
  <node id="376562857" version="3" timestamp="2011-09-15T07:40:12Z" uid="25867" user="adamos" changeset="9305591" lat="49.0492275" lon="15.7908256"/>
  <node id="376564698" version="1" timestamp="2009-04-15T14:17:12Z" uid="29995" user="mathse" changeset="558183" lat="52.625714" lon="13.49554">
    <tag k="amenity" v="bus_stop"/>
    <tag k="created_by" v="Merkaartor 0.13"/>
  </node>
  <node id="376564698" version="2" timestamp="2009-04-16T21:53:41Z" uid="6975" user="ulfl" changeset="598814" lat="52.625714" lon="13.49554">
    <tag k="highway" v="bus_stop"/>
  </node>
  <node id="376564698" version="3" timestamp="2010-03-10T23:14:03Z" uid="244073" user="MSF" changeset="4094276" lat="52.625714" lon="13.4955399">
    <tag k="bus_lines" v="150;158;N58"/>
    <tag k="highway" v="bus_stop"/>
    <tag k="name" v="Karower Chaussee"/>
    <tag k="operator" v="BVG"/>
  </node>
  <node id="376564698" version="4" timestamp="2010-05-21T18:08:45Z" uid="43566" user="anbr" changeset="4768183" lat="52.625714" lon="13.4955399">
    <tag k="highway" v="bus_stop"/>
    <tag k="name" v="Karower Chaussee"/>
  </node>
  <node id="376564707" version="1" timestamp="2009-04-15T14:17:12Z" uid="29995" user="mathse" changeset="558183" lat="52.6217704" lon="13.4909641">
    <tag k="amenity" v="bus_stop"/>
    <tag k="created_by" v="Merkaartor 0.13"/>
  </node>
  <node id="376564707" version="2" timestamp="2009-04-16T21:53:40Z" uid="6975" user="ulfl" changeset="598814" lat="52.6217704" lon="13.4909641">
    <tag k="highway" v="bus_stop"/>
  </node>
  <node id="376564707" version="3" timestamp="2010-03-10T23:14:04Z" uid="244073" user="MSF" changeset="4094276" lat="52.6217703" lon="13.490964">
    <tag k="bus_lines" v="150;158;N58"/>
    <tag k="highway" v="bus_stop"/>
    <tag k="name" v="Nerthusweg"/>
    <tag k="operator" v="BVG"/>
  </node>
  <node id="376564707" version="4" timestamp="2010-05-21T18:08:59Z" uid="43566" user="anbr" changeset="4768183" lat="52.6217703" lon="13.490964">
    <tag k="highway" v="bus_stop"/>
    <tag k="name" v="Nerthusweg"/>
  </node>
  <node id="376564720" version="1" timestamp="2009-04-15T14:17:12Z" uid="29995" user="mathse" changeset="558183" lat="52.6185397" lon="13.4882175">
    <tag k="amenity" v="bus_stop"/>
    <tag k="created_by" v="Merkaartor 0.13"/>
  </node>
  <node id="376564720" version="2" timestamp="2009-04-16T21:53:37Z" uid="6975" user="ulfl" changeset="598814" lat="52.6185397" lon="13.4882175">
    <tag k="highway" v="bus_stop"/>
  </node>
  <node id="376564720" version="3" timestamp="2010-03-10T10:52:24Z" uid="244073" user="MSF" changeset="4088124" lat="52.6185397" lon="13.4882175">
    <tag k="highway" v="bus_stop"/>
    <tag k="name" v="Bucher Chaussee/Achillesstraße"/>
    <tag k="operator" v="BVG"/>
  </node>
  <node id="376564720" version="4" timestamp="2010-11-26T14:13:40Z" uid="357111" user="enedaniel" changeset="6462324" lat="52.618465" lon="13.4881341">
    <tag k="highway" v="bus_stop"/>
    <tag k="name" v="Bucher Chaussee/Achillesstraße"/>
    <tag k="operator" v="BVG"/>
  </node>
  <node id="376564720" version="5" timestamp="2011-10-07T10:26:11Z" uid="290680" user="wheelmap_visitor" changeset="9490517" lat="52.618465" lon="13.4881341">
    <tag k="highway" v="bus_stop"/>
    <tag k="name" v="Bucher Chaussee/Achillesstraße"/>
    <tag k="operator" v="BVG"/>
    <tag k="wheelchair" v="yes"/>
  </node>
  <node id="376564720" version="6" timestamp="2012-02-26T16:20:41Z" uid="357111" user="enedaniel" changeset="10800100" lat="52.6185977" lon="13.4882623">
    <tag k="highway" v="bus_stop"/>
    <tag k="name" v="Bucher Chaussee/Achillesstraße"/>
    <tag k="operator" v="BVG"/>
    <tag k="wheelchair" v="yes"/>
  </node>
  <node id="376564729" version="1" timestamp="2009-04-15T14:17:13Z" uid="29995" user="mathse" changeset="558183" lat="52.6205753" lon="13.4858035">
    <tag k="amenity" v="bus_stop"/>
    <tag k="created_by" v="Merkaartor 0.13"/>
  </node>
  <node id="376564729" version="2" timestamp="2009-04-16T21:53:36Z" uid="6975" user="ulfl" changeset="598814" lat="52.6205753" lon="13.4858035">
    <tag k="highway" v="bus_stop"/>
  </node>
  <node id="376564729" version="3" timestamp="2009-06-30T13:28:29Z" uid="29995" user="mathse" changeset="1691787" lat="52.6205753" lon="13.4858034">
    <tag k="bus_lines" v="350"/>
    <tag k="highway" v="bus_stop"/>
  </node>
  <node id="376564729" version="4" timestamp="2010-03-10T10:40:39Z" uid="244073" user="MSF" changeset="4088124" lat="52.6205752" lon="13.4858034">
    <tag k="bus_lines" v="350"/>
    <tag k="highway" v="bus_stop"/>
    <tag k="name" v="Chronisteneck"/>
    <tag k="operator" v="BVG"/>
  </node>
  <node id="376564729" version="5" timestamp="2010-05-21T18:09:05Z" uid="43566" user="anbr" changeset="4768183" lat="52.6205752" lon="13.4858034">
    <tag k="highway" v="bus_stop"/>
    <tag k="name" v="Chronisteneck"/>
  </node>
  <node id="376564729" version="6" timestamp="2011-03-06T16:35:52Z" uid="244073" user="MSF" changeset="7475157" lat="52.6205753" lon="13.4858033">
    <tag k="highway" v="bus_stop"/>
    <tag k="name" v="Chronisteneck"/>
    <tag k="ref" v="350"/>
  </node>
  <node id="376564729" version="7" timestamp="2011-10-07T10:27:12Z" uid="290680" user="wheelmap_visitor" changeset="9490517" lat="52.6205753" lon="13.4858033">
    <tag k="highway" v="bus_stop"/>
    <tag k="name" v="Chronisteneck"/>
    <tag k="ref" v="350"/>
    <tag k="wheelchair" v="yes"/>
  </node>
  <node id="376564738" version="1" timestamp="2009-04-15T14:17:13Z" uid="29995" user="mathse" changeset="558183" lat="52.6218942" lon="13.4842157">
    <tag k="amenity" v="bus_stop"/>
    <tag k="created_by" v="Merkaartor 0.13"/>
  </node>
  <node id="376564738" version="2" timestamp="2009-04-16T21:53:37Z" uid="6975" user="ulfl" changeset="598814" lat="52.6218942" lon="13.4842157">
    <tag k="highway" v="bus_stop"/>
  </node>
  <node id="376564738" version="3" timestamp="2009-06-30T13:28:30Z" uid="29995" user="mathse" changeset="1691787" lat="52.6218942" lon="13.4842157">
    <tag k="bus_lines" v="350"/>
    <tag k="highway" v="bus_stop"/>
  </node>
  <node id="376564738" version="4" timestamp="2010-03-10T10:40:33Z" uid="244073" user="MSF" changeset="4088124" lat="52.6218942" lon="13.4842156">
    <tag k="bus_lines" v="350"/>
    <tag k="highway" v="bus_stop"/>
    <tag k="name" v="Ballonplatz"/>
    <tag k="operator" v="BVG"/>
  </node>
  <node id="376564738" version="5" timestamp="2010-05-21T18:09:06Z" uid="43566" user="anbr" changeset="4768183" lat="52.6218942" lon="13.4842156">
    <tag k="highway" v="bus_stop"/>
    <tag k="name" v="Ballonplatz"/>
  </node>
  <node id="376564738" version="6" timestamp="2011-03-06T16:36:02Z" uid="244073" user="MSF" changeset="7475157" lat="52.6218942" lon="13.4842156">
    <tag k="highway" v="bus_stop"/>
    <tag k="name" v="Ballonplatz"/>
    <tag k="ref" v="350"/>
  </node>
  <node id="376564738" version="7" timestamp="2011-10-07T10:27:13Z" uid="290680" user="wheelmap_visitor" changeset="9490517" lat="52.6218942" lon="13.4842156">
    <tag k="highway" v="bus_stop"/>
    <tag k="name" v="Ballonplatz"/>
    <tag k="ref" v="350"/>
    <tag k="wheelchair" v="yes"/>
  </node>
  <node id="376564746" version="1" timestamp="2009-04-15T14:17:13Z" uid="29995" user="mathse" changeset="558183" lat="52.6213764" lon="13.4797793">
    <tag k="amenity" v="bus_stop"/>
    <tag k="created_by" v="Merkaartor 0.13"/>
  </node>
  <node id="376564746" version="2" timestamp="2009-04-16T21:53:34Z" uid="6975" user="ulfl" changeset="598814" lat="52.6213764" lon="13.4797793">
    <tag k="highway" v="bus_stop"/>
  </node>
  <node id="376564746" version="3" timestamp="2009-06-30T13:28:30Z" uid="29995" user="mathse" changeset="1691787" lat="52.6213763" lon="13.4797793">
    <tag k="bus_lines" v="350"/>
    <tag k="highway" v="bus_stop"/>
  </node>
  <node id="376564746" version="4" timestamp="2010-03-10T10:40:33Z" uid="244073" user="MSF" changeset="4088124" lat="52.6213763" lon="13.4797792">
    <tag k="bus_lines" v="350"/>
    <tag k="highway" v="bus_stop"/>
    <tag k="name" v="Röländer Straße"/>
    <tag k="operator" v="BVG"/>
  </node>
  <node id="376564746" version="5" timestamp="2011-03-06T16:38:38Z" uid="244073" user="MSF" changeset="7475157" lat="52.6213762" lon="13.4797792">
    <tag k="highway" v="bus_stop"/>
    <tag k="name" v="Röländer Straße"/>
    <tag k="operator" v="BVG"/>
    <tag k="ref" v="350"/>
  </node>
  <node id="376564756" version="1" timestamp="2009-04-15T14:17:14Z" uid="29995" user="mathse" changeset="558183" lat="52.6197122" lon="13.4760993">
    <tag k="amenity" v="bus_stop"/>
    <tag k="created_by" v="Merkaartor 0.13"/>
  </node>
  <node id="376564756" version="2" timestamp="2009-04-16T21:53:40Z" uid="6975" user="ulfl" changeset="598814" lat="52.6197122" lon="13.4760993">
    <tag k="highway" v="bus_stop"/>
  </node>
  <node id="376564756" version="3" timestamp="2009-06-30T13:28:30Z" uid="29995" user="mathse" changeset="1691787" lat="52.6197122" lon="13.4760993">
    <tag k="bus_lines" v="350"/>
    <tag k="highway" v="bus_stop"/>
  </node>
  <node id="376564756" version="4" timestamp="2010-03-10T10:40:39Z" uid="244073" user="MSF" changeset="4088124" lat="52.6197122" lon="13.4760993">
    <tag k="bus_lines" v="350"/>
    <tag k="highway" v="bus_stop"/>
    <tag k="name" v="Möserstraße"/>
    <tag k="operator" v="BVG"/>
  </node>
  <node id="376564756" version="5" timestamp="2010-12-22T06:44:07Z" uid="290680" user="wheelmap_visitor" changeset="6732574" lat="52.6197122" lon="13.4760993">
    <tag k="bus_lines" v="350"/>
    <tag k="highway" v="bus_stop"/>
    <tag k="name" v="Möserstraße"/>
    <tag k="operator" v="BVG"/>
    <tag k="wheelchair" v="yes"/>
  </node>
  <node id="376564766" version="1" timestamp="2009-04-15T14:17:14Z" uid="29995" user="mathse" changeset="558183" lat="52.6146183" lon="13.4703325">
    <tag k="amenity" v="bus_stop"/>
    <tag k="created_by" v="Merkaartor 0.13"/>
  </node>
  <node id="376564766" version="2" timestamp="2009-04-16T21:53:38Z" uid="6975" user="ulfl" changeset="598814" lat="52.6146183" lon="13.4703325">
    <tag k="highway" v="bus_stop"/>
  </node>
  <node id="376564766" version="3" timestamp="2009-06-30T13:28:31Z" uid="29995" user="mathse" changeset="1691787" lat="52.6146183" lon="13.4703325">
    <tag k="bus_lines" v="350"/>
    <tag k="highway" v="bus_stop"/>
  </node>
  <node id="376564766" version="4" timestamp="2010-03-10T10:40:38Z" uid="244073" user="MSF" changeset="4088124" lat="52.6146183" lon="13.4703324">
    <tag k="highway" v="bus_stop"/>
    <tag k="name" v="S Karow"/>
    <tag k="operator" v="BVG"/>
  </node>
  <node id="376564766" version="5" timestamp="2010-03-30T22:10:05Z" uid="244073" user="MSF" changeset="4281369" lat="52.6146219" lon="13.4702804">
    <tag k="bus_lines" v="350"/>
    <tag k="highway" v="bus_stop"/>
    <tag k="name" v="S Karow"/>
    <tag k="operator" v="BVG"/>
  </node>
  <node id="376564766" version="6" timestamp="2010-11-26T10:35:13Z" uid="357111" user="enedaniel" changeset="6460923" lat="52.6155474" lon="13.4708455">
    <tag k="bus_lines" v="350"/>
    <tag k="highway" v="bus_stop"/>
    <tag k="name" v="S Karow"/>
    <tag k="operator" v="BVG"/>
  </node>
  <node id="376564766" version="7" timestamp="2010-11-26T11:23:50Z" uid="357111" user="enedaniel" changeset="6461212" lat="52.6155428" lon="13.4707954">
    <tag k="bus_lines" v="350"/>
    <tag k="highway" v="bus_stop"/>
    <tag k="name" v="S Karow"/>
    <tag k="operator" v="BVG"/>
  </node>
  <node id="376564766" version="8" timestamp="2011-01-27T10:51:50Z" uid="290680" user="wheelmap_visitor" changeset="7102221" lat="52.6155428" lon="13.4707954">
    <tag k="bus_lines" v="350"/>
    <tag k="highway" v="bus_stop"/>
    <tag k="name" v="S Karow"/>
    <tag k="operator" v="BVG"/>
    <tag k="wheelchair" v="yes"/>
  </node>
  <node id="376564775" version="1" timestamp="2009-04-15T14:17:14Z" uid="29995" user="mathse" changeset="558183" lat="52.5617623" lon="13.4279644">
    <tag k="amenity" v="bus_stop"/>
    <tag k="created_by" v="Merkaartor 0.13"/>
  </node>
  <node id="376564775" version="2" timestamp="2009-04-16T21:53:49Z" uid="6975" user="ulfl" changeset="598814" lat="52.5617623" lon="13.4279644">
    <tag k="highway" v="bus_stop"/>
  </node>
  <node id="376564775" version="3" timestamp="2011-06-26T18:37:12Z" uid="304565" user="stefan-s" changeset="8554791" lat="52.5617623" lon="13.4279644">
    <tag k="highway" v="bus_stop"/>
    <tag k="name" v="Treskowstraße"/>
  </node>
  <node id="376564775" version="4" timestamp="2012-01-07T12:23:34Z" uid="90528" user="Peter Maiwald" changeset="10320242" lat="52.5617623" lon="13.4279644"/>
  <node id="376564786" version="1" timestamp="2009-04-15T14:17:14Z" uid="29995" user="mathse" changeset="558183" lat="52.5642015" lon="13.4273957">
    <tag k="amenity" v="bus_stop"/>
    <tag k="created_by" v="Merkaartor 0.13"/>
  </node>
  <node id="376564786" version="2" timestamp="2009-04-16T21:53:55Z" uid="6975" user="ulfl" changeset="598814" lat="52.5642015" lon="13.4273957">
    <tag k="highway" v="bus_stop"/>
  </node>
  <node id="376564786" version="3" timestamp="2011-06-26T18:37:12Z" uid="304565" user="stefan-s" changeset="8554791" lat="52.5642015" lon="13.4273957">
    <tag k="highway" v="bus_stop"/>
    <tag k="name" v="Binzstraße"/>
  </node>
  <node id="376564786" version="4" timestamp="2012-01-07T12:29:59Z" uid="90528" user="Peter Maiwald" changeset="10320242" lat="52.5642015" lon="13.4273957"/>
  <node id="376564795" version="1" timestamp="2009-04-15T14:17:15Z" uid="29995" user="mathse" changeset="558183" lat="52.5506538" lon="13.4302094">
    <tag k="amenity" v="bus_stop"/>
    <tag k="created_by" v="Merkaartor 0.13"/>
  </node>
  <node id="376564795" version="2" timestamp="2009-04-16T21:53:49Z" uid="6975" user="ulfl" changeset="598814" lat="52.5506538" lon="13.4302094">
    <tag k="highway" v="bus_stop"/>
  </node>
  <node id="376564795" version="3" timestamp="2012-03-14T18:03:38Z" uid="594500" user="derhuski" changeset="10980427" lat="52.5506486" lon="13.4301827">
    <tag k="highway" v="bus_stop"/>
    <tag k="name" v="Prenzlauer Allee/ Ostseestraße"/>
  </node>
  <node id="376564802" version="1" timestamp="2009-04-15T14:17:15Z" uid="29995" user="mathse" changeset="558183" lat="52.6252418" lon="13.5020899">
    <tag k="amenity" v="bus_stop"/>
    <tag k="created_by" v="Merkaartor 0.13"/>
  </node>
  <node id="376564802" version="2" timestamp="2009-04-16T21:53:11Z" uid="6975" user="ulfl" changeset="598814" lat="52.6252418" lon="13.5020899">
    <tag k="highway" v="bus_stop"/>
  </node>
  <node id="376564802" version="3" timestamp="2009-06-25T20:59:22Z" uid="29995" user="mathse" changeset="1626521" lat="52.625242" lon="13.5020899">
    <tag k="bus_lines" v="351;900"/>
    <tag k="highway" v="bus_stop"/>
    <tag k="name" v="Campus Berlin Buch"/>
    <tag k="operator" v="BVG"/>
  </node>
  <node id="376564802" version="4" timestamp="2009-06-26T07:25:39Z" uid="29995" user="mathse" changeset="1636232" lat="52.625242" lon="13.5020899">
    <tag k="bus_lines" v="351"/>
    <tag k="highway" v="bus_stop"/>
    <tag k="name" v="Campus Buch"/>
    <tag k="operator" v="BVG"/>
  </node>
  <node id="376564802" version="5" timestamp="2010-01-09T19:32:25Z" uid="29995" user="mathse" changeset="3580998" lat="52.625242" lon="13.5020899">
    <tag k="bus_lines" v="351"/>
    <tag k="highway" v="bus_stop"/>
    <tag k="name" v="Campus Buch"/>
    <tag k="network" v="VBB"/>
    <tag k="operator" v="BVG"/>
  </node>
  <node id="376564802" version="6" timestamp="2010-08-10T19:06:10Z" uid="43566" user="anbr" changeset="5456734" lat="52.625242" lon="13.5020899">
    <tag k="highway" v="bus_stop"/>
    <tag k="name" v="Campus Buch"/>
    <tag k="network" v="VBB"/>
    <tag k="operator" v="BVG"/>
  </node>
</osm>
