<?xml version='1.0' encoding='UTF-8'?>
<osm version="0.6" generator="libosmium/2.20.0">
  <node id="376720368" version="1" timestamp="2009-04-15T15:59:18Z" uid="20587" user="balrog-kun" changeset="561631" lat="52.1990329" lon="20.9631296">
    <tag k="addr:city" v="Warszawa@Warszawa Ochota"/>
    <tag k="addr:housenumber" v="11"/>
    <tag k="addr:street" v="Lirowa"/>
    <tag k="source" v="http://ump.waw.pl/ retrieved 11:07:14 02/24/09 (UMP-Warszawa/src/WARSZAWA_OCHOTA.ulice.txt)"/>
  </node>
  <node id="376720381" version="1" timestamp="2009-04-15T15:59:18Z" uid="20587" user="balrog-kun" changeset="561631" lat="52.2023937" lon="20.9513582">
    <tag k="addr:city" v="Warszawa@Warszawa Ochota"/>
    <tag k="addr:housenumber" v="18"/>
    <tag k="addr:street" v="Maszynowa"/>
    <tag k="source" v="http://ump.waw.pl/ retrieved 11:07:14 02/24/09 (UMP-Warszawa/src/WARSZAWA_OCHOTA.ulice.txt)"/>
  </node>
  <node id="376720381" version="2" timestamp="2011-09-24T10:41:34Z" uid="477744" user="hormel" changeset="9383078" lat="52.2023201" lon="20.9511958">
    <tag k="addr:city" v="Warszawa@Warszawa Ochota"/>
    <tag k="addr:housenumber" v="18"/>
    <tag k="addr:street" v="Maszynowa"/>
    <tag k="source" v="http://ump.waw.pl/ retrieved 11:07:14 02/24/09 (UMP-Warszawa/src/WARSZAWA_OCHOTA.ulice.txt)"/>
  </node>
  <node id="376720393" version="1" timestamp="2009-04-15T15:59:18Z" uid="20587" user="balrog-kun" changeset="561631" lat="52.2000656" lon="20.9708515">
    <tag k="addr:city" v="Warszawa@Warszawa Ochota"/>
    <tag k="addr:housenumber" v="6"/>
    <tag k="addr:street" v="Grzeszczyka"/>
    <tag k="source" v="http://ump.waw.pl/ retrieved 11:07:14 02/24/09 (UMP-Warszawa/src/WARSZAWA_OCHOTA.ulice.txt)"/>
  </node>
  <node id="376720393" version="2" timestamp="2011-12-03T09:15:36Z" uid="441027" user="muzzy" changeset="10022896" lat="52.2000656" lon="20.9708515">
    <tag k="addr:city" v="Warszawa@Warszawa Ochota"/>
    <tag k="addr:housenumber" v="6"/>
    <tag k="addr:street" v="Szczepana Grzeszczyka"/>
    <tag k="source" v="http://ump.waw.pl/ retrieved 11:07:14 02/24/09 (UMP-Warszawa/src/WARSZAWA_OCHOTA.ulice.txt)"/>
  </node>
  <node id="376720393" version="3" timestamp="2012-01-25T15:25:39Z" uid="99386" user="masti" changeset="10494606" lat="52.2000656" lon="20.9708515"/>
  <node id="376720404" version="1" timestamp="2009-04-15T15:59:19Z" uid="20587" user="balrog-kun" changeset="561631" lat="52.2012979" lon="20.9638812">
    <tag k="addr:city" v="Warszawa@Warszawa Ochota"/>
    <tag k="addr:housenumber" v="25"/>
    <tag k="addr:street" v="Włodarzewska"/>
    <tag k="source" v="http://ump.waw.pl/ retrieved 11:07:14 02/24/09 (UMP-Warszawa/src/WARSZAWA_OCHOTA.ulice.txt)"/>
  </node>
  <node id="376720420" version="1" timestamp="2009-04-15T15:59:19Z" uid="20587" user="balrog-kun" changeset="561631" lat="52.2020106" lon="20.9550859">
    <tag k="addr:city" v="Warszawa@Warszawa Ochota"/>
    <tag k="addr:housenumber" v="59"/>
    <tag k="addr:street" v="Włodarzewska"/>
    <tag k="source" v="http://ump.waw.pl/ retrieved 11:07:14 02/24/09 (UMP-Warszawa/src/WARSZAWA_OCHOTA.ulice.txt)"/>
  </node>
  <node id="376720420" version="2" timestamp="2011-09-24T10:41:35Z" uid="477744" user="hormel" changeset="9383078" lat="52.2019622" lon="20.9549825">
    <tag k="addr:city" v="Warszawa@Warszawa Ochota"/>
    <tag k="addr:housenumber" v="59"/>
    <tag k="addr:street" v="Włodarzewska"/>
    <tag k="source" v="http://ump.waw.pl/ retrieved 11:07:14 02/24/09 (UMP-Warszawa/src/WARSZAWA_OCHOTA.ulice.txt)"/>
  </node>
  <node id="376720444" version="1" timestamp="2009-04-15T15:59:20Z" uid="20587" user="balrog-kun" changeset="561631" lat="52.2025391" lon="20.9498454">
    <tag k="addr:city" v="Warszawa@Warszawa Ochota"/>
    <tag k="addr:housenumber" v="79"/>
    <tag k="addr:street" v="Włodarzewska"/>
    <tag k="source" v="http://ump.waw.pl/ retrieved 11:07:14 02/24/09 (UMP-Warszawa/src/WARSZAWA_OCHOTA.ulice.txt)"/>
  </node>
  <node id="376720444" version="2" timestamp="2011-09-24T10:41:34Z" uid="477744" user="hormel" changeset="9383078" lat="52.2025829" lon="20.9501406">
    <tag k="addr:city" v="Warszawa@Warszawa Ochota"/>
    <tag k="addr:housenumber" v="79"/>
    <tag k="addr:street" v="Włodarzewska"/>
    <tag k="source" v="http://ump.waw.pl/ retrieved 11:07:14 02/24/09 (UMP-Warszawa/src/WARSZAWA_OCHOTA.ulice.txt)"/>
  </node>
  <node id="376720457" version="1" timestamp="2009-04-15T15:59:20Z" uid="20587" user="balrog-kun" changeset="561631" lat="52.2035307" lon="20.96808">
    <tag k="addr:city" v="Warszawa@Warszawa Ochota"/>
    <tag k="addr:housenumber" v="2"/>
    <tag k="addr:street" v="Geodetów"/>
    <tag k="source" v="http://ump.waw.pl/ retrieved 11:07:14 02/24/09 (UMP-Warszawa/src/WARSZAWA_OCHOTA.ulice.txt)"/>
  </node>
  <node id="376720457" version="2" timestamp="2010-12-04T04:20:11Z" uid="20587" user="balrog-kun" changeset="6534205" lat="52.2035307" lon="20.96808">
    <tag k="addr:city" v="Warszawa@Warszawa Ochota"/>
    <tag k="addr:housenumber" v="2"/>
    <tag k="addr:street" v="Geodetów"/>
    <tag k="source" v="http://ump.waw.pl/ retrieved 11:07:14 02/24/09 (UMP-Warszawa/src/WARSZAWA_OCHOTA.ulice.txt)"/>
  </node>
  <node id="376720470" version="1" timestamp="2009-04-15T15:59:21Z" uid="20587" user="balrog-kun" changeset="561631" lat="52.2000177" lon="20.9642271">
    <tag k="addr:city" v="Warszawa@Warszawa Ochota"/>
    <tag k="addr:housenumber" v="22"/>
    <tag k="addr:street" v="Lutniowa"/>
    <tag k="source" v="http://ump.waw.pl/ retrieved 11:07:14 02/24/09 (UMP-Warszawa/src/WARSZAWA_OCHOTA.ulice.txt)"/>
  </node>
  <node id="376720481" version="1" timestamp="2009-04-15T15:59:21Z" uid="20587" user="balrog-kun" changeset="561631" lat="52.1970206" lon="20.9740204">
    <tag k="addr:city" v="Warszawa@Warszawa Ochota"/>
    <tag k="addr:housenumber" v="5"/>
    <tag k="addr:street" v="Okińskiego"/>
    <tag k="source" v="http://ump.waw.pl/ retrieved 11:07:14 02/24/09 (UMP-Warszawa/src/WARSZAWA_OCHOTA.ulice.txt)"/>
  </node>
  <node id="376720481" version="2" timestamp="2011-12-03T09:15:30Z" uid="441027" user="muzzy" changeset="10022896" lat="52.1970206" lon="20.9740204">
    <tag k="addr:city" v="Warszawa@Warszawa Ochota"/>
    <tag k="addr:housenumber" v="5"/>
    <tag k="addr:street" v="Władysława Okińskiego"/>
    <tag k="source" v="http://ump.waw.pl/ retrieved 11:07:14 02/24/09 (UMP-Warszawa/src/WARSZAWA_OCHOTA.ulice.txt)"/>
  </node>
  <node id="376720481" version="3" timestamp="2012-01-25T12:10:35Z" uid="99386" user="masti" changeset="10493030" lat="52.1970206" lon="20.9740204"/>
  <node id="376720492" version="1" timestamp="2009-04-15T15:59:22Z" uid="20587" user="balrog-kun" changeset="561631" lat="52.2020704" lon="20.970027">
    <tag k="addr:city" v="Warszawa@Warszawa Ochota"/>
    <tag k="addr:housenumber" v="5"/>
    <tag k="addr:street" v="Korotyńskiego"/>
    <tag k="source" v="http://ump.waw.pl/ retrieved 11:07:14 02/24/09 (UMP-Warszawa/src/WARSZAWA_OCHOTA.ulice.txt)"/>
  </node>
  <node id="376720492" version="2" timestamp="2011-12-03T09:15:30Z" uid="441027" user="muzzy" changeset="10022896" lat="52.2020704" lon="20.970027">
    <tag k="addr:city" v="Warszawa@Warszawa Ochota"/>
    <tag k="addr:housenumber" v="5"/>
    <tag k="addr:street" v="Władysława Korotyńskiego"/>
    <tag k="source" v="http://ump.waw.pl/ retrieved 11:07:14 02/24/09 (UMP-Warszawa/src/WARSZAWA_OCHOTA.ulice.txt)"/>
  </node>
  <node id="376720515" version="1" timestamp="2009-04-15T15:59:23Z" uid="20587" user="balrog-kun" changeset="561631" lat="52.1943794" lon="20.9817932">
    <tag k="addr:city" v="Warszawa@Warszawa Ochota"/>
    <tag k="addr:housenumber" v="29"/>
    <tag k="addr:street" v="Żwirki i Wigury"/>
    <tag k="source" v="http://ump.waw.pl/ retrieved 11:07:14 02/24/09 (UMP-Warszawa/src/WARSZAWA_OCHOTA.ulice.txt)"/>
  </node>
  <node id="376720515" version="2" timestamp="2011-10-07T15:06:25Z" uid="99386" user="masti" changeset="9494763" lat="52.1943794" lon="20.9817932"/>
  <node id="376720536" version="1" timestamp="2009-04-15T15:59:24Z" uid="20587" user="balrog-kun" changeset="561631" lat="52.202206" lon="20.9660716">
    <tag k="addr:city" v="Warszawa@Warszawa Ochota"/>
    <tag k="addr:housenumber" v="8"/>
    <tag k="addr:street" v="Włodarzewska"/>
    <tag k="source" v="http://ump.waw.pl/ retrieved 11:07:14 02/24/09 (UMP-Warszawa/src/WARSZAWA_OCHOTA.ulice.txt)"/>
  </node>
  <node id="376720551" version="1" timestamp="2009-04-15T15:59:25Z" uid="20587" user="balrog-kun" changeset="561631" lat="52.2013238" lon="20.9602553">
    <tag k="addr:city" v="Warszawa@Warszawa Ochota"/>
    <tag k="addr:housenumber" v="39"/>
    <tag k="addr:street" v="Włodarzewska"/>
    <tag k="source" v="http://ump.waw.pl/ retrieved 11:07:14 02/24/09 (UMP-Warszawa/src/WARSZAWA_OCHOTA.ulice.txt)"/>
  </node>
  <node id="376720569" version="1" timestamp="2009-04-15T15:59:26Z" uid="20587" user="balrog-kun" changeset="561631" lat="52.1969697" lon="20.973006">
    <tag k="addr:city" v="Warszawa@Warszawa Ochota"/>
    <tag k="addr:housenumber" v="1"/>
    <tag k="addr:street" v="Sąchocka"/>
    <tag k="source" v="http://ump.waw.pl/ retrieved 11:07:14 02/24/09 (UMP-Warszawa/src/WARSZAWA_OCHOTA.ulice.txt)"/>
  </node>
  <node id="376720569" version="2" timestamp="2012-01-25T12:26:09Z" uid="99386" user="masti" changeset="10493143" lat="52.1969697" lon="20.973006"/>
  <node id="376720592" version="1" timestamp="2009-04-15T15:59:28Z" uid="20587" user="balrog-kun" changeset="561631" lat="52.2016497" lon="20.9610923">
    <tag k="addr:city" v="Warszawa@Warszawa Ochota"/>
    <tag k="addr:housenumber" v="32"/>
    <tag k="addr:street" v="Bielska"/>
    <tag k="source" v="http://ump.waw.pl/ retrieved 11:07:14 02/24/09 (UMP-Warszawa/src/WARSZAWA_OCHOTA.ulice.txt)"/>
  </node>
  <node id="376720602" version="1" timestamp="2009-04-15T15:59:28Z" uid="20587" user="balrog-kun" changeset="561631" lat="52.198742" lon="20.9754425">
    <tag k="addr:city" v="Warszawa@Warszawa Ochota"/>
    <tag k="addr:housenumber" v="19"/>
    <tag k="addr:street" v="Bohdanowicza"/>
    <tag k="source" v="http://ump.waw.pl/ retrieved 11:07:14 02/24/09 (UMP-Warszawa/src/WARSZAWA_OCHOTA.ulice.txt)"/>
  </node>
  <node id="376720602" version="2" timestamp="2011-12-03T09:14:51Z" uid="441027" user="muzzy" changeset="10022896" lat="52.198742" lon="20.9754425">
    <tag k="addr:city" v="Warszawa@Warszawa Ochota"/>
    <tag k="addr:housenumber" v="19"/>
    <tag k="addr:street" v="Karola Bohdanowicza"/>
    <tag k="source" v="http://ump.waw.pl/ retrieved 11:07:14 02/24/09 (UMP-Warszawa/src/WARSZAWA_OCHOTA.ulice.txt)"/>
  </node>
  <node id="376720609" version="1" timestamp="2009-04-15T15:59:29Z" uid="20587" user="balrog-kun" changeset="561631" lat="52.2026477" lon="20.9488477">
    <tag k="addr:city" v="Warszawa@Warszawa Ochota"/>
    <tag k="addr:housenumber" v="85"/>
    <tag k="addr:street" v="Włodarzewska"/>
    <tag k="source" v="http://ump.waw.pl/ retrieved 11:07:14 02/24/09 (UMP-Warszawa/src/WARSZAWA_OCHOTA.ulice.txt)"/>
  </node>
  <node id="376720609" version="2" timestamp="2011-09-24T10:41:33Z" uid="477744" user="hormel" changeset="9383078" lat="52.2027565" lon="20.9482713">
    <tag k="addr:city" v="Warszawa@Warszawa Ochota"/>
    <tag k="addr:housenumber" v="85"/>
    <tag k="addr:street" v="Włodarzewska"/>
    <tag k="source" v="http://ump.waw.pl/ retrieved 11:07:14 02/24/09 (UMP-Warszawa/src/WARSZAWA_OCHOTA.ulice.txt)"/>
  </node>
  <node id="376720620" version="1" timestamp="2009-04-15T15:59:29Z" uid="20587" user="balrog-kun" changeset="561631" lat="52.2053386" lon="20.946195">
    <tag k="addr:city" v="Warszawa@Warszawa Ochota"/>
    <tag k="addr:housenumber" v="2"/>
    <tag k="addr:street" v="Zadumana"/>
    <tag k="source" v="http://ump.waw.pl/ retrieved 11:07:14 02/24/09 (UMP-Warszawa/src/WARSZAWA_OCHOTA.ulice.txt)"/>
  </node>
  <node id="376720627" version="1" timestamp="2009-04-15T15:59:30Z" uid="20587" user="balrog-kun" changeset="561631" lat="52.2012297" lon="20.9799439">
    <tag k="addr:city" v="Warszawa@Warszawa Ochota"/>
    <tag k="addr:housenumber" v="15"/>
    <tag k="addr:street" v="Mołdawska"/>
    <tag k="source" v="http://ump.waw.pl/ retrieved 11:07:14 02/24/09 (UMP-Warszawa/src/WARSZAWA_OCHOTA.ulice.txt)"/>
  </node>
  <node id="376720632" version="1" timestamp="2009-04-15T15:59:30Z" uid="20587" user="balrog-kun" changeset="561631" lat="52.2010603" lon="20.9608846">
    <tag k="addr:city" v="Warszawa@Warszawa Ochota"/>
    <tag k="addr:housenumber" v="33"/>
    <tag k="addr:street" v="Bielska"/>
    <tag k="source" v="http://ump.waw.pl/ retrieved 11:07:14 02/24/09 (UMP-Warszawa/src/WARSZAWA_OCHOTA.ulice.txt)"/>
  </node>
  <node id="376720639" version="1" timestamp="2009-04-15T15:59:30Z" uid="20587" user="balrog-kun" changeset="561631" lat="52.1946931" lon="20.9765347">
    <tag k="addr:city" v="Warszawa@Warszawa Ochota"/>
    <tag k="addr:housenumber" v="49"/>
    <tag k="addr:street" v="Mołdawska"/>
    <tag k="source" v="http://ump.waw.pl/ retrieved 11:07:14 02/24/09 (UMP-Warszawa/src/WARSZAWA_OCHOTA.ulice.txt)"/>
  </node>
  <node id="376720649" version="1" timestamp="2009-04-15T15:59:30Z" uid="20587" user="balrog-kun" changeset="561631" lat="52.2015613" lon="20.9619897">
    <tag k="addr:city" v="Warszawa@Warszawa Ochota"/>
    <tag k="addr:housenumber" v="2"/>
    <tag k="addr:street" v="Usypiskowa"/>
    <tag k="source" v="http://ump.waw.pl/ retrieved 11:07:14 02/24/09 (UMP-Warszawa/src/WARSZAWA_OCHOTA.ulice.txt)"/>
  </node>
  <node id="376720662" version="1" timestamp="2009-04-15T15:59:31Z" uid="20587" user="balrog-kun" changeset="561631" lat="52.1988938" lon="20.9723787">
    <tag k="addr:city" v="Warszawa@Warszawa Ochota"/>
    <tag k="addr:housenumber" v="152"/>
    <tag k="addr:street" v="Racławicka"/>
    <tag k="source" v="http://ump.waw.pl/ retrieved 11:07:14 02/24/09 (UMP-Warszawa/src/WARSZAWA_OCHOTA.ulice.txt)"/>
  </node>
  <node id="376720662" version="2" timestamp="2012-01-25T15:25:38Z" uid="99386" user="masti" changeset="10494606" lat="52.1988938" lon="20.9723787"/>
  <node id="376720671" version="1" timestamp="2009-04-15T15:59:31Z" uid="20587" user="balrog-kun" changeset="561631" lat="52.2047835" lon="20.9547946">
    <tag k="addr:city" v="Warszawa@Warszawa Ochota"/>
    <tag k="addr:housenumber" v="8"/>
    <tag k="addr:street" v="Przy Parku"/>
    <tag k="source" v="http://ump.waw.pl/ retrieved 11:07:14 02/24/09 (UMP-Warszawa/src/WARSZAWA_OCHOTA.ulice.txt)"/>
  </node>
  <node id="376720689" version="1" timestamp="2009-04-15T15:59:32Z" uid="20587" user="balrog-kun" changeset="561631" lat="52.2002867" lon="20.9523671">
    <tag k="addr:city" v="Warszawa@Warszawa Ochota"/>
    <tag k="addr:housenumber" v="9"/>
    <tag k="addr:street" v="Drygały"/>
    <tag k="source" v="http://ump.waw.pl/ retrieved 11:07:14 02/24/09 (UMP-Warszawa/src/WARSZAWA_OCHOTA.ulice.txt)"/>
  </node>
  <node id="376720702" version="1" timestamp="2009-04-15T15:59:33Z" uid="20587" user="balrog-kun" changeset="561631" lat="52.201633" lon="20.9658772">
    <tag k="addr:city" v="Warszawa@Warszawa Ochota"/>
    <tag k="addr:housenumber" v="13"/>
    <tag k="addr:street" v="Włodarzewska"/>
    <tag k="source" v="http://ump.waw.pl/ retrieved 11:07:14 02/24/09 (UMP-Warszawa/src/WARSZAWA_OCHOTA.ulice.txt)"/>
  </node>
  <node id="376720714" version="1" timestamp="2009-04-15T15:59:33Z" uid="20587" user="balrog-kun" changeset="561631" lat="52.1977685" lon="20.977082">
    <tag k="addr:city" v="Warszawa@Warszawa Ochota"/>
    <tag k="addr:housenumber" v="139"/>
    <tag k="addr:street" v="Racławicka"/>
    <tag k="source" v="http://ump.waw.pl/ retrieved 11:07:14 02/24/09 (UMP-Warszawa/src/WARSZAWA_OCHOTA.ulice.txt)"/>
  </node>
  <node id="376720714" version="2" timestamp="2012-01-25T12:41:10Z" uid="99386" user="masti" changeset="10493259" lat="52.1977685" lon="20.977082"/>
  <node id="376720724" version="1" timestamp="2009-04-15T15:59:33Z" uid="20587" user="balrog-kun" changeset="561631" lat="52.201125" lon="20.9623347">
    <tag k="addr:city" v="Warszawa@Warszawa Ochota"/>
    <tag k="addr:housenumber" v="33"/>
    <tag k="addr:street" v="Włodarzewska"/>
    <tag k="source" v="http://ump.waw.pl/ retrieved 11:07:14 02/24/09 (UMP-Warszawa/src/WARSZAWA_OCHOTA.ulice.txt)"/>
  </node>
  <node id="376720735" version="1" timestamp="2009-04-15T15:59:34Z" uid="20587" user="balrog-kun" changeset="561631" lat="52.2010097" lon="20.9614906">
    <tag k="addr:city" v="Warszawa@Warszawa Ochota"/>
    <tag k="addr:housenumber" v="30"/>
    <tag k="addr:street" v="Bielska"/>
    <tag k="source" v="http://ump.waw.pl/ retrieved 11:07:14 02/24/09 (UMP-Warszawa/src/WARSZAWA_OCHOTA.ulice.txt)"/>
  </node>
  <node id="376720747" version="1" timestamp="2009-04-15T15:59:34Z" uid="20587" user="balrog-kun" changeset="561631" lat="52.2017388" lon="20.9837651">
    <tag k="addr:city" v="Warszawa@Warszawa Ochota"/>
    <tag k="addr:housenumber" v="2"/>
    <tag k="addr:street" v="Pruszkowska"/>
    <tag k="source" v="http://ump.waw.pl/ retrieved 11:07:14 02/24/09 (UMP-Warszawa/src/WARSZAWA_OCHOTA.ulice.txt)"/>
  </node>
  <node id="376720760" version="1" timestamp="2009-04-15T15:59:34Z" uid="20587" user="balrog-kun" changeset="561631" lat="52.2019252" lon="20.9633028">
    <tag k="addr:city" v="Warszawa@Warszawa Ochota"/>
    <tag k="addr:housenumber" v="3"/>
    <tag k="addr:street" v="Nowosolipsowska"/>
    <tag k="source" v="http://ump.waw.pl/ retrieved 11:07:14 02/24/09 (UMP-Warszawa/src/WARSZAWA_OCHOTA.ulice.txt)"/>
  </node>
  <node id="376720773" version="1" timestamp="2009-04-15T15:59:35Z" uid="20587" user="balrog-kun" changeset="561631" lat="52.1973257" lon="20.9744923">
    <tag k="addr:city" v="Warszawa@Warszawa Ochota"/>
    <tag k="addr:housenumber" v="10"/>
    <tag k="addr:street" v="Okińskiego"/>
    <tag k="source" v="http://ump.waw.pl/ retrieved 11:07:14 02/24/09 (UMP-Warszawa/src/WARSZAWA_OCHOTA.ulice.txt)"/>
  </node>
  <node id="376720773" version="2" timestamp="2011-12-03T09:14:32Z" uid="441027" user="muzzy" changeset="10022896" lat="52.1973257" lon="20.9744923">
    <tag k="addr:city" v="Warszawa@Warszawa Ochota"/>
    <tag k="addr:housenumber" v="10"/>
    <tag k="addr:street" v="Władysława Okińskiego"/>
    <tag k="source" v="http://ump.waw.pl/ retrieved 11:07:14 02/24/09 (UMP-Warszawa/src/WARSZAWA_OCHOTA.ulice.txt)"/>
  </node>
  <node id="376720773" version="3" timestamp="2012-01-25T12:37:05Z" uid="99386" user="masti" changeset="10493238" lat="52.1973257" lon="20.9744923"/>
  <node id="376720787" version="1" timestamp="2009-04-15T15:59:35Z" uid="20587" user="balrog-kun" changeset="561631" lat="52.2003644" lon="20.9696405">
    <tag k="addr:city" v="Warszawa@Warszawa Ochota"/>
    <tag k="addr:housenumber" v="3"/>
    <tag k="addr:street" v="Sierpińskiego"/>
    <tag k="source" v="http://ump.waw.pl/ retrieved 11:07:14 02/24/09 (UMP-Warszawa/src/WARSZAWA_OCHOTA.ulice.txt)"/>
  </node>
  <node id="376720787" version="2" timestamp="2011-12-03T09:15:12Z" uid="441027" user="muzzy" changeset="10022896" lat="52.2003644" lon="20.9696405">
    <tag k="addr:city" v="Warszawa@Warszawa Ochota"/>
    <tag k="addr:housenumber" v="3"/>
    <tag k="addr:street" v="Wacława Sierpińskiego"/>
    <tag k="source" v="http://ump.waw.pl/ retrieved 11:07:14 02/24/09 (UMP-Warszawa/src/WARSZAWA_OCHOTA.ulice.txt)"/>
  </node>
  <node id="376720787" version="3" timestamp="2012-01-25T15:25:39Z" uid="99386" user="masti" changeset="10494606" lat="52.2003644" lon="20.9696405"/>
  <node id="376720793" version="1" timestamp="2009-04-15T15:59:35Z" uid="20587" user="balrog-kun" changeset="561631" lat="52.2014557" lon="20.9621852">
    <tag k="addr:city" v="Warszawa@Warszawa Ochota"/>
    <tag k="addr:housenumber" v="38"/>
    <tag k="addr:street" v="Włodarzewska"/>
    <tag k="source" v="http://ump.waw.pl/ retrieved 11:07:14 02/24/09 (UMP-Warszawa/src/WARSZAWA_OCHOTA.ulice.txt)"/>
  </node>
  <node id="376720804" version="1" timestamp="2009-04-15T15:59:35Z" uid="20587" user="balrog-kun" changeset="561631" lat="52.1952932" lon="20.978464">
    <tag k="addr:city" v="Warszawa@Warszawa Ochota"/>
    <tag k="addr:housenumber" v="5"/>
    <tag k="addr:street" v="Gorlicka"/>
    <tag k="source" v="http://ump.waw.pl/ retrieved 11:07:14 02/24/09 (UMP-Warszawa/src/WARSZAWA_OCHOTA.ulice.txt)"/>
  </node>
  <node id="376720804" version="2" timestamp="2010-07-06T09:55:10Z" uid="91056" user="Yarl" changeset="5148943" lat="52.1952805" lon="20.9782981">
    <tag k="addr:city" v="Warszawa@Warszawa Ochota"/>
    <tag k="addr:housenumber" v="5"/>
    <tag k="addr:street" v="Gorlicka"/>
    <tag k="source" v="http://ump.waw.pl/ retrieved 11:07:14 02/24/09 (UMP-Warszawa/src/WARSZAWA_OCHOTA.ulice.txt)"/>
  </node>
  <node id="376720804" version="3" timestamp="2012-01-25T12:04:22Z" uid="99386" user="masti" changeset="10492976" lat="52.1952805" lon="20.9782981"/>
  <node id="376720814" version="1" timestamp="2009-04-15T15:59:36Z" uid="20587" user="balrog-kun" changeset="561631" lat="52.2007864" lon="20.9796333">
    <tag k="addr:city" v="Warszawa@Warszawa Ochota"/>
    <tag k="addr:housenumber" v="13"/>
    <tag k="addr:street" v="Mołdawska"/>
    <tag k="source" v="http://ump.waw.pl/ retrieved 11:07:14 02/24/09 (UMP-Warszawa/src/WARSZAWA_OCHOTA.ulice.txt)"/>
  </node>
  <node id="376720823" version="1" timestamp="2009-04-15T15:59:36Z" uid="20587" user="balrog-kun" changeset="561631" lat="52.1966904" lon="20.9821003">
    <tag k="addr:city" v="Warszawa@Warszawa Ochota"/>
    <tag k="addr:housenumber" v="1"/>
    <tag k="addr:street" v="Baleya"/>
    <tag k="source" v="http://ump.waw.pl/ retrieved 11:07:14 02/24/09 (UMP-Warszawa/src/WARSZAWA_OCHOTA.ulice.txt)"/>
  </node>
  <node id="376720823" version="2" timestamp="2011-08-13T23:16:28Z" uid="100448" user="kietlak" changeset="9010744" lat="52.1966904" lon="20.9821003"/>
  <node id="376720832" version="1" timestamp="2009-04-15T15:59:36Z" uid="20587" user="balrog-kun" changeset="561631" lat="52.1967976" lon="20.9798305">
    <tag k="addr:city" v="Warszawa@Warszawa Ochota"/>
    <tag k="addr:housenumber" v="7"/>
    <tag k="addr:street" v="Baleya"/>
    <tag k="source" v="http://ump.waw.pl/ retrieved 11:07:14 02/24/09 (UMP-Warszawa/src/WARSZAWA_OCHOTA.ulice.txt)"/>
  </node>
  <node id="376720832" version="2" timestamp="2011-08-13T23:16:29Z" uid="100448" user="kietlak" changeset="9010744" lat="52.1967976" lon="20.9798305"/>
  <node id="376720842" version="1" timestamp="2009-04-15T15:59:36Z" uid="20587" user="balrog-kun" changeset="561631" lat="52.2015937" lon="20.9785321">
    <tag k="addr:city" v="Warszawa@Warszawa Ochota"/>
    <tag k="addr:housenumber" v="17"/>
    <tag k="addr:street" v="Pruszkowska"/>
    <tag k="source" v="http://ump.waw.pl/ retrieved 11:07:14 02/24/09 (UMP-Warszawa/src/WARSZAWA_OCHOTA.ulice.txt)"/>
  </node>
  <node id="376720853" version="1" timestamp="2009-04-15T15:59:36Z" uid="20587" user="balrog-kun" changeset="561631" lat="52.1946531" lon="20.9804599">
    <tag k="addr:city" v="Warszawa@Warszawa Ochota"/>
    <tag k="addr:housenumber" v="10"/>
    <tag k="addr:street" v="Jankowska"/>
    <tag k="source" v="http://ump.waw.pl/ retrieved 11:07:14 02/24/09 (UMP-Warszawa/src/WARSZAWA_OCHOTA.ulice.txt)"/>
  </node>
  <node id="376720867" version="1" timestamp="2009-04-15T15:59:37Z" uid="20587" user="balrog-kun" changeset="561631" lat="52.2028182" lon="20.9679551">
    <tag k="addr:city" v="Warszawa@Warszawa Ochota"/>
    <tag k="addr:housenumber" v="17"/>
    <tag k="addr:street" v="Korotyńskiego"/>
    <tag k="source" v="http://ump.waw.pl/ retrieved 11:07:14 02/24/09 (UMP-Warszawa/src/WARSZAWA_OCHOTA.ulice.txt)"/>
  </node>
  <node id="376720867" version="2" timestamp="2011-12-03T09:14:47Z" uid="441027" user="muzzy" changeset="10022896" lat="52.2028182" lon="20.9679551">
    <tag k="addr:city" v="Warszawa@Warszawa Ochota"/>
    <tag k="addr:housenumber" v="17"/>
    <tag k="addr:street" v="Władysława Korotyńskiego"/>
    <tag k="source" v="http://ump.waw.pl/ retrieved 11:07:14 02/24/09 (UMP-Warszawa/src/WARSZAWA_OCHOTA.ulice.txt)"/>
  </node>
  <node id="376720876" version="1" timestamp="2009-04-15T15:59:37Z" uid="20587" user="balrog-kun" changeset="561631" lat="52.2002735" lon="20.9641522">
    <tag k="addr:city" v="Warszawa@Warszawa Ochota"/>
    <tag k="addr:housenumber" v="18"/>
    <tag k="addr:street" v="Lutniowa"/>
    <tag k="source" v="http://ump.waw.pl/ retrieved 11:07:14 02/24/09 (UMP-Warszawa/src/WARSZAWA_OCHOTA.ulice.txt)"/>
  </node>
  <node id="376720893" version="1" timestamp="2009-04-15T15:59:37Z" uid="20587" user="balrog-kun" changeset="561631" lat="52.1982247" lon="20.9805509">
    <tag k="addr:city" v="Warszawa@Warszawa Ochota"/>
    <tag k="addr:housenumber" v="131"/>
    <tag k="addr:street" v="Racławicka"/>
    <tag k="source" v="http://ump.waw.pl/ retrieved 11:07:14 02/24/09 (UMP-Warszawa/src/WARSZAWA_OCHOTA.ulice.txt)"/>
  </node>
  <node id="376720893" version="2" timestamp="2011-08-13T23:16:28Z" uid="100448" user="kietlak" changeset="9010744" lat="52.1982247" lon="20.9805509"/>
  <node id="376720905" version="1" timestamp="2009-04-15T15:59:38Z" uid="20587" user="balrog-kun" changeset="561631" lat="52.1997476" lon="20.9690646">
    <tag k="addr:city" v="Warszawa@Warszawa Ochota"/>
    <tag k="addr:housenumber" v="2"/>
    <tag k="addr:street" v="Sierpińskiego"/>
    <tag k="source" v="http://ump.waw.pl/ retrieved 11:07:14 02/24/09 (UMP-Warszawa/src/WARSZAWA_OCHOTA.ulice.txt)"/>
  </node>
  <node id="376720905" version="2" timestamp="2011-12-03T09:14:57Z" uid="441027" user="muzzy" changeset="10022896" lat="52.1997476" lon="20.9690646">
    <tag k="addr:city" v="Warszawa@Warszawa Ochota"/>
    <tag k="addr:housenumber" v="2"/>
    <tag k="addr:street" v="Wacława Sierpińskiego"/>
    <tag k="source" v="http://ump.waw.pl/ retrieved 11:07:14 02/24/09 (UMP-Warszawa/src/WARSZAWA_OCHOTA.ulice.txt)"/>
  </node>
  <node id="376720905" version="3" timestamp="2012-01-25T15:25:39Z" uid="99386" user="masti" changeset="10494606" lat="52.1997476" lon="20.9690646"/>
  <node id="376720912" version="1" timestamp="2009-04-15T15:59:38Z" uid="20587" user="balrog-kun" changeset="561631" lat="52.1980589" lon="20.962415">
    <tag k="addr:city" v="Warszawa@Warszawa Ochota"/>
    <tag k="addr:housenumber" v="2"/>
    <tag k="addr:street" v="Bielska"/>
    <tag k="source" v="http://ump.waw.pl/ retrieved 11:07:14 02/24/09 (UMP-Warszawa/src/WARSZAWA_OCHOTA.ulice.txt)"/>
  </node>
  <node id="376720924" version="1" timestamp="2009-04-15T15:59:38Z" uid="20587" user="balrog-kun" changeset="561631" lat="52.1979733" lon="20.962687">
    <tag k="addr:city" v="Warszawa@Warszawa Ochota"/>
    <tag k="addr:housenumber" v="25"/>
    <tag k="addr:street" v="Altowa"/>
    <tag k="source" v="http://ump.waw.pl/ retrieved 11:07:14 02/24/09 (UMP-Warszawa/src/WARSZAWA_OCHOTA.ulice.txt)"/>
  </node>
  <node id="376720936" version="1" timestamp="2009-04-15T15:59:38Z" uid="20587" user="balrog-kun" changeset="561631" lat="52.2011697" lon="20.9632094">
    <tag k="addr:city" v="Warszawa@Warszawa Ochota"/>
    <tag k="addr:housenumber" v="31"/>
    <tag k="addr:street" v="Włodarzewska"/>
    <tag k="source" v="http://ump.waw.pl/ retrieved 11:07:14 02/24/09 (UMP-Warszawa/src/WARSZAWA_OCHOTA.ulice.txt)"/>
  </node>
  <node id="376720948" version="1" timestamp="2009-04-15T15:59:38Z" uid="20587" user="balrog-kun" changeset="561631" lat="52.2011927" lon="20.9704319">
    <tag k="addr:city" v="Warszawa@Warszawa Ochota"/>
    <tag k="addr:housenumber" v="5"/>
    <tag k="addr:street" v="Sierpińskiego"/>
    <tag k="source" v="http://ump.waw.pl/ retrieved 11:07:14 02/24/09 (UMP-Warszawa/src/WARSZAWA_OCHOTA.ulice.txt)"/>
  </node>
  <node id="376720948" version="2" timestamp="2011-12-03T09:15:30Z" uid="441027" user="muzzy" changeset="10022896" lat="52.2011927" lon="20.9704319">
    <tag k="addr:city" v="Warszawa@Warszawa Ochota"/>
    <tag k="addr:housenumber" v="5"/>
    <tag k="addr:street" v="Wacława Sierpińskiego"/>
    <tag k="source" v="http://ump.waw.pl/ retrieved 11:07:14 02/24/09 (UMP-Warszawa/src/WARSZAWA_OCHOTA.ulice.txt)"/>
  </node>
  <node id="376720957" version="1" timestamp="2009-04-15T15:59:39Z" uid="20587" user="balrog-kun" changeset="561631" lat="52.2016837" lon="20.9573746">
    <tag k="addr:city" v="Warszawa@Warszawa Ochota"/>
    <tag k="addr:housenumber" v="53"/>
    <tag k="addr:street" v="Włodarzewska"/>
    <tag k="source" v="http://ump.waw.pl/ retrieved 11:07:14 02/24/09 (UMP-Warszawa/src/WARSZAWA_OCHOTA.ulice.txt)"/>
  </node>
  <node id="376720967" version="1" timestamp="2009-04-15T15:59:39Z" uid="20587" user="balrog-kun" changeset="561631" lat="52.2011555" lon="20.9835761">
    <tag k="addr:city" v="Warszawa@Warszawa Ochota"/>
    <tag k="addr:housenumber" v="3"/>
    <tag k="addr:street" v="Pruszkowska"/>
    <tag k="source" v="http://ump.waw.pl/ retrieved 11:07:14 02/24/09 (UMP-Warszawa/src/WARSZAWA_OCHOTA.ulice.txt)"/>
  </node>
  <node id="376720967" version="2" timestamp="2012-01-25T14:49:42Z" uid="99386" user="masti" changeset="10494306" lat="52.2011555" lon="20.9835761"/>
  <node id="376720978" version="1" timestamp="2009-04-15T15:59:39Z" uid="20587" user="balrog-kun" changeset="561631" lat="52.2023552" lon="20.9556358">
    <tag k="addr:city" v="Warszawa@Warszawa Ochota"/>
    <tag k="addr:housenumber" v="58"/>
    <tag k="addr:street" v="Włodarzewska"/>
    <tag k="source" v="http://ump.waw.pl/ retrieved 11:07:14 02/24/09 (UMP-Warszawa/src/WARSZAWA_OCHOTA.ulice.txt)"/>
  </node>
  <node id="376720978" version="2" timestamp="2009-04-15T16:03:55Z" uid="20587" user="balrog-kun" changeset="561631" lat="52.2023816" lon="20.9553885">
    <tag k="addr:city" v="Warszawa@Warszawa Ochota"/>
    <tag k="addr:housenumber" v="58"/>
    <tag k="addr:street" v="Włodarzewska"/>
    <tag k="source" v="http://ump.waw.pl/ retrieved 11:07:14 02/24/09 (UMP-Warszawa/src/WARSZAWA_OCHOTA.ulice.txt)"/>
  </node>
  <node id="376720978" version="3" timestamp="2011-09-24T10:41:34Z" uid="477744" user="hormel" changeset="9383078" lat="52.2024222" lon="20.9556323">
    <tag k="addr:city" v="Warszawa@Warszawa Ochota"/>
    <tag k="addr:housenumber" v="58"/>
    <tag k="addr:street" v="Włodarzewska"/>
    <tag k="source" v="http://ump.waw.pl/ retrieved 11:07:14 02/24/09 (UMP-Warszawa/src/WARSZAWA_OCHOTA.ulice.txt)"/>
  </node>
  <node id="376720989" version="1" timestamp="2009-04-15T15:59:39Z" uid="20587" user="balrog-kun" changeset="561631" lat="52.2000706" lon="20.9807086">
    <tag k="addr:city" v="Warszawa@Warszawa Ochota"/>
    <tag k="addr:housenumber" v="10"/>
    <tag k="addr:street" v="Korotyńskiego"/>
    <tag k="source" v="http://ump.waw.pl/ retrieved 11:07:14 02/24/09 (UMP-Warszawa/src/WARSZAWA_OCHOTA.ulice.txt)"/>
  </node>
  <node id="376720989" version="2" timestamp="2011-12-03T09:14:32Z" uid="441027" user="muzzy" changeset="10022896" lat="52.2000706" lon="20.9807086">
    <tag k="addr:city" v="Warszawa@Warszawa Ochota"/>
    <tag k="addr:housenumber" v="10"/>
    <tag k="addr:street" v="Władysława Korotyńskiego"/>
    <tag k="source" v="http://ump.waw.pl/ retrieved 11:07:14 02/24/09 (UMP-Warszawa/src/WARSZAWA_OCHOTA.ulice.txt)"/>
  </node>
  <node id="376720989" version="3" timestamp="2012-01-25T14:38:54Z" uid="99386" user="masti" changeset="10494210" lat="52.2000706" lon="20.9807086"/>
  <node id="376720999" version="1" timestamp="2009-04-15T15:59:40Z" uid="20587" user="balrog-kun" changeset="561631" lat="52.1993876" lon="20.9818493">
    <tag k="addr:city" v="Warszawa@Warszawa Ochota"/>
    <tag k="addr:housenumber" v="5"/>
    <tag k="addr:street" v="Korotyńskiego"/>
    <tag k="source" v="http://ump.waw.pl/ retrieved 11:07:14 02/24/09 (UMP-Warszawa/src/WARSZAWA_OCHOTA.ulice.txt)"/>
  </node>
  <node id="376720999" version="2" timestamp="2011-08-13T23:16:28Z" uid="100448" user="kietlak" changeset="9010744" lat="52.1993876" lon="20.9818493"/>
  <node id="376721010" version="1" timestamp="2009-04-15T15:59:40Z" uid="20587" user="balrog-kun" changeset="561631" lat="52.2019491" lon="20.98217">
    <tag k="addr:city" v="Warszawa@Warszawa Ochota"/>
    <tag k="addr:housenumber" v="4"/>
    <tag k="addr:street" v="Pruszkowska"/>
    <tag k="source" v="http://ump.waw.pl/ retrieved 11:07:14 02/24/09 (UMP-Warszawa/src/WARSZAWA_OCHOTA.ulice.txt)"/>
  </node>
  <node id="376721021" version="1" timestamp="2009-04-15T15:59:40Z" uid="20587" user="balrog-kun" changeset="561631" lat="52.1990039" lon="20.9791098">
    <tag k="addr:city" v="Warszawa@Warszawa Ochota"/>
    <tag k="addr:housenumber" v="10"/>
    <tag k="addr:street" v="Mołdawska"/>
    <tag k="source" v="http://ump.waw.pl/ retrieved 11:07:14 02/24/09 (UMP-Warszawa/src/WARSZAWA_OCHOTA.ulice.txt)"/>
  </node>
  <node id="376721021" version="2" timestamp="2012-01-25T12:51:48Z" uid="99386" user="masti" changeset="10493341" lat="52.1990039" lon="20.9791098"/>
  <node id="376721039" version="1" timestamp="2009-04-15T15:59:41Z" uid="20587" user="balrog-kun" changeset="561631" lat="52.2010651" lon="20.9765157">
    <tag k="addr:city" v="Warszawa@Warszawa Ochota"/>
    <tag k="addr:housenumber" v="22"/>
    <tag k="addr:street" v="Korotyńskiego"/>
    <tag k="source" v="http://ump.waw.pl/ retrieved 11:07:14 02/24/09 (UMP-Warszawa/src/WARSZAWA_OCHOTA.ulice.txt)"/>
  </node>
  <node id="376721039" version="2" timestamp="2011-12-03T09:15:01Z" uid="441027" user="muzzy" changeset="10022896" lat="52.2010651" lon="20.9765157">
    <tag k="addr:city" v="Warszawa@Warszawa Ochota"/>
    <tag k="addr:housenumber" v="22"/>
    <tag k="addr:street" v="Władysława Korotyńskiego"/>
    <tag k="source" v="http://ump.waw.pl/ retrieved 11:07:14 02/24/09 (UMP-Warszawa/src/WARSZAWA_OCHOTA.ulice.txt)"/>
  </node>
  <node id="376721057" version="1" timestamp="2009-04-15T15:59:42Z" uid="20587" user="balrog-kun" changeset="561631" lat="52.1957667" lon="20.9756625">
    <tag k="addr:city" v="Warszawa@Warszawa Ochota"/>
    <tag k="addr:housenumber" v="9"/>
    <tag k="addr:street" v="Gorlicka"/>
    <tag k="source" v="http://ump.waw.pl/ retrieved 11:07:14 02/24/09 (UMP-Warszawa/src/WARSZAWA_OCHOTA.ulice.txt)"/>
  </node>
  <node id="376721057" version="2" timestamp="2012-01-25T12:08:18Z" uid="99386" user="masti" changeset="10493014" lat="52.1957667" lon="20.9756625"/>
  <node id="376721068" version="1" timestamp="2009-04-15T15:59:43Z" uid="20587" user="balrog-kun" changeset="561631" lat="52.1989254" lon="20.9736068">
    <tag k="addr:city" v="Warszawa@Warszawa Ochota"/>
    <tag k="addr:housenumber" v="150"/>
    <tag k="addr:street" v="Racławicka"/>
    <tag k="source" v="http://ump.waw.pl/ retrieved 11:07:14 02/24/09 (UMP-Warszawa/src/WARSZAWA_OCHOTA.ulice.txt)"/>
  </node>
  <node id="376721068" version="2" timestamp="2012-01-25T15:25:38Z" uid="99386" user="masti" changeset="10494606" lat="52.1989254" lon="20.9736068"/>
  <node id="376721098" version="1" timestamp="2009-04-15T15:59:44Z" uid="20587" user="balrog-kun" changeset="561631" lat="52.2038498" lon="20.9523142">
    <tag k="addr:city" v="Warszawa@Warszawa Ochota"/>
    <tag k="addr:housenumber" v="10"/>
    <tag k="addr:street" v="Drawska"/>
    <tag k="source" v="http://ump.waw.pl/ retrieved 11:07:14 02/24/09 (UMP-Warszawa/src/WARSZAWA_OCHOTA.ulice.txt)"/>
  </node>
  <node id="376721098" version="2" timestamp="2012-01-07T09:37:28Z" uid="568665" user="gtworek" changeset="10319339" lat="52.2038498" lon="20.9523142"/>
  <node id="376721112" version="1" timestamp="2009-04-15T15:59:45Z" uid="20587" user="balrog-kun" changeset="561631" lat="52.1980331" lon="20.9618714">
    <tag k="addr:city" v="Warszawa@Warszawa Ochota"/>
    <tag k="addr:housenumber" v="3"/>
    <tag k="addr:street" v="Bielska"/>
    <tag k="source" v="http://ump.waw.pl/ retrieved 11:07:14 02/24/09 (UMP-Warszawa/src/WARSZAWA_OCHOTA.ulice.txt)"/>
  </node>
  <node id="376721119" version="1" timestamp="2009-04-15T15:59:45Z" uid="20587" user="balrog-kun" changeset="561631" lat="52.1974352" lon="20.9780474">
    <tag k="addr:city" v="Warszawa@Warszawa Ochota"/>
    <tag k="addr:housenumber" v="14"/>
    <tag k="addr:street" v="Baleya"/>
    <tag k="source" v="http://ump.waw.pl/ retrieved 11:07:14 02/24/09 (UMP-Warszawa/src/WARSZAWA_OCHOTA.ulice.txt)"/>
  </node>
  <node id="376721119" version="2" timestamp="2011-08-13T23:16:28Z" uid="100448" user="kietlak" changeset="9010744" lat="52.1974352" lon="20.9780474"/>
  <node id="376721131" version="1" timestamp="2009-04-15T15:59:45Z" uid="20587" user="balrog-kun" changeset="561631" lat="52.1969105" lon="20.9750858">
    <tag k="addr:city" v="Warszawa@Warszawa Ochota"/>
    <tag k="addr:housenumber" v="3"/>
    <tag k="addr:street" v="Okińskiego"/>
    <tag k="source" v="http://ump.waw.pl/ retrieved 11:07:14 02/24/09 (UMP-Warszawa/src/WARSZAWA_OCHOTA.ulice.txt)"/>
  </node>
  <node id="376721131" version="2" timestamp="2011-12-03T09:15:12Z" uid="441027" user="muzzy" changeset="10022896" lat="52.1969105" lon="20.9750858">
    <tag k="addr:city" v="Warszawa@Warszawa Ochota"/>
    <tag k="addr:housenumber" v="3"/>
    <tag k="addr:street" v="Władysława Okińskiego"/>
    <tag k="source" v="http://ump.waw.pl/ retrieved 11:07:14 02/24/09 (UMP-Warszawa/src/WARSZAWA_OCHOTA.ulice.txt)"/>
  </node>
  <node id="376721131" version="3" timestamp="2012-01-25T12:10:35Z" uid="99386" user="masti" changeset="10493030" lat="52.1969105" lon="20.9750858"/>
  <node id="376721145" version="1" timestamp="2009-04-15T15:59:46Z" uid="20587" user="balrog-kun" changeset="561631" lat="52.1994099" lon="20.965304">
    <tag k="addr:city" v="Warszawa@Warszawa Ochota"/>
    <tag k="addr:housenumber" v="210"/>
    <tag k="addr:street" v="Grójecka"/>
    <tag k="source" v="http://ump.waw.pl/ retrieved 11:07:14 02/24/09 (UMP-Warszawa/src/WARSZAWA_OCHOTA.ulice.txt)"/>
  </node>
  <node id="376721158" version="1" timestamp="2009-04-15T15:59:46Z" uid="20587" user="balrog-kun" changeset="561631" lat="52.2030067" lon="20.9668632">
    <tag k="addr:city" v="Warszawa@Warszawa Ochota"/>
    <tag k="addr:housenumber" v="19"/>
    <tag k="addr:street" v="Korotyńskiego"/>
    <tag k="source" v="http://ump.waw.pl/ retrieved 11:07:14 02/24/09 (UMP-Warszawa/src/WARSZAWA_OCHOTA.ulice.txt)"/>
  </node>
  <node id="376721158" version="2" timestamp="2011-12-03T09:14:52Z" uid="441027" user="muzzy" changeset="10022896" lat="52.2030067" lon="20.9668632">
    <tag k="addr:city" v="Warszawa@Warszawa Ochota"/>
    <tag k="addr:housenumber" v="19"/>
    <tag k="addr:street" v="Władysława Korotyńskiego"/>
    <tag k="source" v="http://ump.waw.pl/ retrieved 11:07:14 02/24/09 (UMP-Warszawa/src/WARSZAWA_OCHOTA.ulice.txt)"/>
  </node>
  <node id="376721173" version="1" timestamp="2009-04-15T15:59:46Z" uid="20587" user="balrog-kun" changeset="561631" lat="52.2001336" lon="20.9659041">
    <tag k="addr:city" v="Warszawa@Warszawa Ochota"/>
    <tag k="addr:housenumber" v="206"/>
    <tag k="addr:street" v="Grójecka"/>
    <tag k="source" v="http://ump.waw.pl/ retrieved 11:07:14 02/24/09 (UMP-Warszawa/src/WARSZAWA_OCHOTA.ulice.txt)"/>
  </node>
  <node id="376721184" version="1" timestamp="2009-04-15T15:59:47Z" uid="20587" user="balrog-kun" changeset="561631" lat="52.2033953" lon="20.9657569">
    <tag k="addr:city" v="Warszawa@Warszawa Ochota"/>
    <tag k="addr:housenumber" v="21"/>
    <tag k="addr:street" v="Korotyńskiego"/>
    <tag k="source" v="http://ump.waw.pl/ retrieved 11:07:14 02/24/09 (UMP-Warszawa/src/WARSZAWA_OCHOTA.ulice.txt)"/>
  </node>
  <node id="376721184" version="2" timestamp="2011-12-03T09:14:59Z" uid="441027" user="muzzy" changeset="10022896" lat="52.2033953" lon="20.9657569">
    <tag k="addr:city" v="Warszawa@Warszawa Ochota"/>
    <tag k="addr:housenumber" v="21"/>
    <tag k="addr:street" v="Władysława Korotyńskiego"/>
    <tag k="source" v="http://ump.waw.pl/ retrieved 11:07:14 02/24/09 (UMP-Warszawa/src/WARSZAWA_OCHOTA.ulice.txt)"/>
  </node>
  <node id="376721202" version="1" timestamp="2009-04-15T15:59:47Z" uid="20587" user="balrog-kun" changeset="561631" lat="52.2020255" lon="20.9609677">
    <tag k="addr:city" v="Warszawa@Warszawa Ochota"/>
    <tag k="addr:housenumber" v="36"/>
    <tag k="addr:street" v="Bielska"/>
    <tag k="source" v="http://ump.waw.pl/ retrieved 11:07:14 02/24/09 (UMP-Warszawa/src/WARSZAWA_OCHOTA.ulice.txt)"/>
  </node>
  <node id="376721213" version="1" timestamp="2009-04-15T15:59:48Z" uid="20587" user="balrog-kun" changeset="561631" lat="52.2046145" lon="20.9693525">
    <tag k="addr:city" v="Warszawa@Warszawa Ochota"/>
    <tag k="addr:housenumber" v="6"/>
    <tag k="addr:street" v="Geodetów"/>
    <tag k="source" v="http://ump.waw.pl/ retrieved 11:07:14 02/24/09 (UMP-Warszawa/src/WARSZAWA_OCHOTA.ulice.txt)"/>
  </node>
  <node id="376721213" version="2" timestamp="2010-09-03T10:53:28Z" uid="341573" user="ppanek" changeset="5669612" lat="52.2046145" lon="20.9693525">
    <tag k="addr:city" v="Warszawa@Warszawa Ochota"/>
    <tag k="addr:housenumber" v="6"/>
    <tag k="addr:street" v="Geodetów"/>
    <tag k="source" v="http://ump.waw.pl/ retrieved 11:07:14 02/24/09 (UMP-Warszawa/src/WARSZAWA_OCHOTA.ulice.txt)"/>
  </node>
  <node id="376721213" version="3" timestamp="2010-12-04T04:20:11Z" uid="20587" user="balrog-kun" changeset="6534205" lat="52.2046145" lon="20.9693525">
    <tag k="addr:city" v="Warszawa@Warszawa Ochota"/>
    <tag k="addr:housenumber" v="6"/>
    <tag k="addr:street" v="Geodetów"/>
    <tag k="source" v="http://ump.waw.pl/ retrieved 11:07:14 02/24/09 (UMP-Warszawa/src/WARSZAWA_OCHOTA.ulice.txt)"/>
  </node>
  <node id="376721227" version="1" timestamp="2009-04-15T15:59:48Z" uid="20587" user="balrog-kun" changeset="561631" lat="52.1962576" lon="20.9733832">
    <tag k="addr:city" v="Warszawa@Warszawa Ochota"/>
    <tag k="addr:housenumber" v="15"/>
    <tag k="addr:street" v="Gorlicka"/>
    <tag k="source" v="http://ump.waw.pl/ retrieved 11:07:14 02/24/09 (UMP-Warszawa/src/WARSZAWA_OCHOTA.ulice.txt)"/>
  </node>
  <node id="376721227" version="2" timestamp="2012-01-25T12:08:18Z" uid="99386" user="masti" changeset="10493014" lat="52.1962576" lon="20.9733832"/>
  <node id="376721237" version="1" timestamp="2009-04-15T15:59:48Z" uid="20587" user="balrog-kun" changeset="561631" lat="52.2052093" lon="20.9699449">
    <tag k="addr:city" v="Warszawa@Warszawa Ochota"/>
    <tag k="addr:housenumber" v="10"/>
    <tag k="addr:street" v="Geodetów"/>
    <tag k="source" v="http://ump.waw.pl/ retrieved 11:07:14 02/24/09 (UMP-Warszawa/src/WARSZAWA_OCHOTA.ulice.txt)"/>
  </node>
  <node id="376721237" version="2" timestamp="2010-09-03T10:53:27Z" uid="341573" user="ppanek" changeset="5669612" lat="52.2052093" lon="20.9699449">
    <tag k="addr:city" v="Warszawa@Warszawa Ochota"/>
    <tag k="addr:housenumber" v="10"/>
    <tag k="addr:street" v="Geodetów"/>
    <tag k="source" v="http://ump.waw.pl/ retrieved 11:07:14 02/24/09 (UMP-Warszawa/src/WARSZAWA_OCHOTA.ulice.txt)"/>
  </node>
  <node id="376721248" version="1" timestamp="2009-04-15T15:59:49Z" uid="20587" user="balrog-kun" changeset="561631" lat="52.2024676" lon="20.9504233">
    <tag k="addr:city" v="Warszawa@Warszawa Ochota"/>
    <tag k="addr:housenumber" v="77"/>
    <tag k="addr:street" v="Włodarzewska"/>
    <tag k="source" v="http://ump.waw.pl/ retrieved 11:07:14 02/24/09 (UMP-Warszawa/src/WARSZAWA_OCHOTA.ulice.txt)"/>
  </node>
  <node id="376721248" version="2" timestamp="2011-09-24T10:41:34Z" uid="477744" user="hormel" changeset="9383078" lat="52.2025349" lon="20.9505585">
    <tag k="addr:city" v="Warszawa@Warszawa Ochota"/>
    <tag k="addr:housenumber" v="77"/>
    <tag k="addr:street" v="Włodarzewska"/>
    <tag k="source" v="http://ump.waw.pl/ retrieved 11:07:14 02/24/09 (UMP-Warszawa/src/WARSZAWA_OCHOTA.ulice.txt)"/>
  </node>
  <node id="376721259" version="1" timestamp="2009-04-15T15:59:49Z" uid="20587" user="balrog-kun" changeset="561631" lat="52.1977923" lon="20.974014">
    <tag k="addr:city" v="Warszawa@Warszawa Ochota"/>
    <tag k="addr:housenumber" v="2"/>
    <tag k="addr:street" v="Sąchocka"/>
    <tag k="source" v="http://ump.waw.pl/ retrieved 11:07:14 02/24/09 (UMP-Warszawa/src/WARSZAWA_OCHOTA.ulice.txt)"/>
  </node>
  <node id="376721259" version="2" timestamp="2012-01-25T12:37:06Z" uid="99386" user="masti" changeset="10493238" lat="52.1977923" lon="20.974014"/>
  <node id="376721273" version="1" timestamp="2009-04-15T15:59:49Z" uid="20587" user="balrog-kun" changeset="561631" lat="52.1948946" lon="20.9773709">
    <tag k="addr:city" v="Warszawa@Warszawa Ochota"/>
    <tag k="addr:housenumber" v="45"/>
    <tag k="addr:street" v="Mołdawska"/>
    <tag k="source" v="http://ump.waw.pl/ retrieved 11:07:14 02/24/09 (UMP-Warszawa/src/WARSZAWA_OCHOTA.ulice.txt)"/>
  </node>
  <node id="376721273" version="2" timestamp="2010-07-06T09:55:21Z" uid="91056" user="Yarl" changeset="5148943" lat="52.1949412" lon="20.9776612">
    <tag k="addr:city" v="Warszawa@Warszawa Ochota"/>
    <tag k="addr:housenumber" v="45"/>
    <tag k="addr:street" v="Mołdawska"/>
    <tag k="source" v="http://ump.waw.pl/ retrieved 11:07:14 02/24/09 (UMP-Warszawa/src/WARSZAWA_OCHOTA.ulice.txt)"/>
  </node>
  <node id="376721273" version="3" timestamp="2012-01-25T12:04:22Z" uid="99386" user="masti" changeset="10492976" lat="52.1949412" lon="20.9776612"/>
  <node id="376721286" version="1" timestamp="2009-04-15T15:59:50Z" uid="20587" user="balrog-kun" changeset="561631" lat="52.1990295" lon="20.9759267">
    <tag k="addr:city" v="Warszawa@Warszawa Ochota"/>
    <tag k="addr:housenumber" v="17"/>
    <tag k="addr:street" v="Bohdanowicza"/>
    <tag k="source" v="http://ump.waw.pl/ retrieved 11:07:14 02/24/09 (UMP-Warszawa/src/WARSZAWA_OCHOTA.ulice.txt)"/>
  </node>
  <node id="376721286" version="2" timestamp="2011-12-03T09:14:47Z" uid="441027" user="muzzy" changeset="10022896" lat="52.1990295" lon="20.9759267">
    <tag k="addr:city" v="Warszawa@Warszawa Ochota"/>
    <tag k="addr:housenumber" v="17"/>
    <tag k="addr:street" v="Karola Bohdanowicza"/>
    <tag k="source" v="http://ump.waw.pl/ retrieved 11:07:14 02/24/09 (UMP-Warszawa/src/WARSZAWA_OCHOTA.ulice.txt)"/>
  </node>
  <node id="376721299" version="1" timestamp="2009-04-15T15:59:50Z" uid="20587" user="balrog-kun" changeset="561631" lat="52.2012247" lon="20.9615621">
    <tag k="addr:city" v="Warszawa@Warszawa Ochota"/>
    <tag k="addr:housenumber" v="37"/>
    <tag k="addr:street" v="Włodarzewska"/>
    <tag k="source" v="http://ump.waw.pl/ retrieved 11:07:14 02/24/09 (UMP-Warszawa/src/WARSZAWA_OCHOTA.ulice.txt)"/>
  </node>
  <node id="376721325" version="1" timestamp="2009-04-15T15:59:51Z" uid="20587" user="balrog-kun" changeset="561631" lat="52.2041821" lon="20.9657772">
    <tag k="addr:city" v="Warszawa@Warszawa Ochota"/>
    <tag k="addr:housenumber" v="2"/>
    <tag k="addr:street" v="Urbanistów"/>
    <tag k="source" v="http://ump.waw.pl/ retrieved 11:07:14 02/24/09 (UMP-Warszawa/src/WARSZAWA_OCHOTA.ulice.txt)"/>
  </node>
  <node id="376721325" version="2" timestamp="2010-12-04T04:20:09Z" uid="20587" user="balrog-kun" changeset="6534205" lat="52.2045079" lon="20.9660523">
    <tag k="addr:city" v="Warszawa@Warszawa Ochota"/>
    <tag k="addr:housenumber" v="2"/>
    <tag k="addr:street" v="Urbanistów"/>
    <tag k="source" v="http://ump.waw.pl/ retrieved 11:07:14 02/24/09 (UMP-Warszawa/src/WARSZAWA_OCHOTA.ulice.txt)"/>
  </node>
  <node id="376721340" version="1" timestamp="2009-04-15T15:59:52Z" uid="20587" user="balrog-kun" changeset="561631" lat="52.1967804" lon="20.9811345">
    <tag k="addr:city" v="Warszawa@Warszawa Ochota"/>
    <tag k="addr:housenumber" v="5"/>
    <tag k="addr:street" v="Baleya"/>
    <tag k="source" v="http://ump.waw.pl/ retrieved 11:07:14 02/24/09 (UMP-Warszawa/src/WARSZAWA_OCHOTA.ulice.txt)"/>
  </node>
  <node id="376721340" version="2" timestamp="2011-08-13T23:16:28Z" uid="100448" user="kietlak" changeset="9010744" lat="52.1967804" lon="20.9811345"/>
  <node id="376721349" version="1" timestamp="2009-04-15T15:59:52Z" uid="20587" user="balrog-kun" changeset="561631" lat="52.2018409" lon="20.9508712">
    <tag k="addr:city" v="Warszawa@Warszawa Ochota"/>
    <tag k="addr:housenumber" v="9"/>
    <tag k="addr:street" v="Maszynowa"/>
    <tag k="source" v="http://ump.waw.pl/ retrieved 11:07:14 02/24/09 (UMP-Warszawa/src/WARSZAWA_OCHOTA.ulice.txt)"/>
  </node>
  <node id="376721366" version="1" timestamp="2009-04-15T15:59:53Z" uid="20587" user="balrog-kun" changeset="561631" lat="52.1939382" lon="20.9798271">
    <tag k="addr:city" v="Warszawa@Warszawa Ochota"/>
    <tag k="addr:housenumber" v="47"/>
    <tag k="addr:street" v="Mołdawska"/>
    <tag k="source" v="http://ump.waw.pl/ retrieved 11:07:14 02/24/09 (UMP-Warszawa/src/WARSZAWA_OCHOTA.ulice.txt)"/>
  </node>
  <node id="376721378" version="1" timestamp="2009-04-15T15:59:53Z" uid="20587" user="balrog-kun" changeset="561631" lat="52.1993515" lon="20.9762184">
    <tag k="addr:city" v="Warszawa@Warszawa Ochota"/>
    <tag k="addr:housenumber" v="15"/>
    <tag k="addr:street" v="Bohdanowicza"/>
    <tag k="source" v="http://ump.waw.pl/ retrieved 11:07:14 02/24/09 (UMP-Warszawa/src/WARSZAWA_OCHOTA.ulice.txt)"/>
  </node>
  <node id="376721378" version="2" timestamp="2011-12-03T09:14:42Z" uid="441027" user="muzzy" changeset="10022896" lat="52.1993515" lon="20.9762184">
    <tag k="addr:city" v="Warszawa@Warszawa Ochota"/>
    <tag k="addr:housenumber" v="15"/>
    <tag k="addr:street" v="Karola Bohdanowicza"/>
    <tag k="source" v="http://ump.waw.pl/ retrieved 11:07:14 02/24/09 (UMP-Warszawa/src/WARSZAWA_OCHOTA.ulice.txt)"/>
  </node>
  <node id="376721389" version="1" timestamp="2009-04-15T15:59:53Z" uid="20587" user="balrog-kun" changeset="561631" lat="52.2039242" lon="20.9675974">
    <tag k="addr:city" v="Warszawa@Warszawa Ochota"/>
    <tag k="addr:housenumber" v="1"/>
    <tag k="addr:street" v="Powstańców Wielkopolskich"/>
    <tag k="source" v="http://ump.waw.pl/ retrieved 11:07:14 02/24/09 (UMP-Warszawa/src/WARSZAWA_OCHOTA.ulice.txt)"/>
  </node>
  <node id="376721389" version="2" timestamp="2010-12-04T04:20:06Z" uid="20587" user="balrog-kun" changeset="6534205" lat="52.2039242" lon="20.9675974">
    <tag k="addr:housenumber" v="1"/>
    <tag k="addr:street" v="Powstańców Wielkopolskich"/>
  </node>
  <node id="376721401" version="1" timestamp="2009-04-15T15:59:54Z" uid="20587" user="balrog-kun" changeset="561631" lat="52.1972823" lon="20.9750965">
    <tag k="addr:city" v="Warszawa@Warszawa Ochota"/>
    <tag k="addr:housenumber" v="8"/>
    <tag k="addr:street" v="Okińskiego"/>
    <tag k="source" v="http://ump.waw.pl/ retrieved 11:07:14 02/24/09 (UMP-Warszawa/src/WARSZAWA_OCHOTA.ulice.txt)"/>
  </node>
  <node id="376721401" version="2" timestamp="2011-12-03T09:15:47Z" uid="441027" user="muzzy" changeset="10022896" lat="52.1972823" lon="20.9750965">
    <tag k="addr:city" v="Warszawa@Warszawa Ochota"/>
    <tag k="addr:housenumber" v="8"/>
    <tag k="addr:street" v="Władysława Okińskiego"/>
    <tag k="source" v="http://ump.waw.pl/ retrieved 11:07:14 02/24/09 (UMP-Warszawa/src/WARSZAWA_OCHOTA.ulice.txt)"/>
  </node>
  <node id="376721401" version="3" timestamp="2012-01-25T12:37:06Z" uid="99386" user="masti" changeset="10493238" lat="52.1972823" lon="20.9750965"/>
  <node id="376721411" version="1" timestamp="2009-04-15T15:59:54Z" uid="20587" user="balrog-kun" changeset="561631" lat="52.2018113" lon="20.9563556">
    <tag k="addr:city" v="Warszawa@Warszawa Ochota"/>
    <tag k="addr:housenumber" v="55"/>
    <tag k="addr:street" v="Włodarzewska"/>
    <tag k="source" v="http://ump.waw.pl/ retrieved 11:07:14 02/24/09 (UMP-Warszawa/src/WARSZAWA_OCHOTA.ulice.txt)"/>
  </node>
  <node id="376721423" version="1" timestamp="2009-04-15T15:59:55Z" uid="20587" user="balrog-kun" changeset="561631" lat="52.2010706" lon="20.9667402">
    <tag k="addr:city" v="Warszawa@Warszawa Ochota"/>
    <tag k="addr:housenumber" v="184"/>
    <tag k="addr:street" v="Grójecka"/>
    <tag k="source" v="http://ump.waw.pl/ retrieved 11:07:14 02/24/09 (UMP-Warszawa/src/WARSZAWA_OCHOTA.ulice.txt)"/>
  </node>
  <node id="376721432" version="1" timestamp="2009-04-15T15:59:55Z" uid="20587" user="balrog-kun" changeset="561631" lat="52.2039189" lon="20.9646218">
    <tag k="addr:city" v="Warszawa@Warszawa Ochota"/>
    <tag k="addr:housenumber" v="23"/>
    <tag k="addr:street" v="Korotyńskiego"/>
    <tag k="source" v="http://ump.waw.pl/ retrieved 11:07:14 02/24/09 (UMP-Warszawa/src/WARSZAWA_OCHOTA.ulice.txt)"/>
  </node>
  <node id="376721432" version="2" timestamp="2011-12-03T09:15:02Z" uid="441027" user="muzzy" changeset="10022896" lat="52.2039189" lon="20.9646218">
    <tag k="addr:city" v="Warszawa@Warszawa Ochota"/>
    <tag k="addr:housenumber" v="23"/>
    <tag k="addr:street" v="Władysława Korotyńskiego"/>
    <tag k="source" v="http://ump.waw.pl/ retrieved 11:07:14 02/24/09 (UMP-Warszawa/src/WARSZAWA_OCHOTA.ulice.txt)"/>
  </node>
  <node id="376721447" version="1" timestamp="2009-04-15T15:59:56Z" uid="20587" user="balrog-kun" changeset="561631" lat="52.2059254" lon="20.9672421">
    <tag k="addr:city" v="Warszawa@Warszawa Ochota"/>
    <tag k="addr:housenumber" v="8"/>
    <tag k="addr:street" v="Urbanistów"/>
    <tag k="source" v="http://ump.waw.pl/ retrieved 11:07:14 02/24/09 (UMP-Warszawa/src/WARSZAWA_OCHOTA.ulice.txt)"/>
  </node>
  <node id="376721447" version="2" timestamp="2010-12-04T04:20:11Z" uid="20587" user="balrog-kun" changeset="6534205" lat="52.2059254" lon="20.9672421">
    <tag k="addr:city" v="Warszawa@Warszawa Ochota"/>
    <tag k="addr:housenumber" v="8"/>
    <tag k="addr:street" v="Urbanistów"/>
    <tag k="source" v="http://ump.waw.pl/ retrieved 11:07:14 02/24/09 (UMP-Warszawa/src/WARSZAWA_OCHOTA.ulice.txt)"/>
  </node>
  <node id="376721462" version="1" timestamp="2009-04-15T15:59:56Z" uid="20587" user="balrog-kun" changeset="561631" lat="52.198227" lon="20.9786442">
    <tag k="addr:city" v="Warszawa@Warszawa Ochota"/>
    <tag k="addr:housenumber" v="133"/>
    <tag k="addr:street" v="Racławicka"/>
    <tag k="source" v="http://ump.waw.pl/ retrieved 11:07:14 02/24/09 (UMP-Warszawa/src/WARSZAWA_OCHOTA.ulice.txt)"/>
  </node>
  <node id="376721462" version="2" timestamp="2011-08-13T23:16:28Z" uid="100448" user="kietlak" changeset="9010744" lat="52.198227" lon="20.9786442"/>
  <node id="376721478" version="1" timestamp="2009-04-15T15:59:57Z" uid="20587" user="balrog-kun" changeset="561631" lat="52.1964798" lon="20.975298">
    <tag k="addr:city" v="Warszawa@Warszawa Ochota"/>
    <tag k="addr:housenumber" v="10"/>
    <tag k="addr:street" v="Gorlicka"/>
    <tag k="source" v="http://ump.waw.pl/ retrieved 11:07:14 02/24/09 (UMP-Warszawa/src/WARSZAWA_OCHOTA.ulice.txt)"/>
  </node>
  <node id="376721478" version="2" timestamp="2012-01-25T12:10:35Z" uid="99386" user="masti" changeset="10493030" lat="52.1964798" lon="20.975298"/>
  <node id="376721493" version="1" timestamp="2009-04-15T15:59:57Z" uid="20587" user="balrog-kun" changeset="561631" lat="52.1994937" lon="20.9637482">
    <tag k="addr:city" v="Warszawa@Warszawa Ochota"/>
    <tag k="addr:housenumber" v="28"/>
    <tag k="addr:street" v="Lutniowa"/>
    <tag k="source" v="http://ump.waw.pl/ retrieved 11:07:14 02/24/09 (UMP-Warszawa/src/WARSZAWA_OCHOTA.ulice.txt)"/>
  </node>
  <node id="376721504" version="1" timestamp="2009-04-15T15:59:58Z" uid="20587" user="balrog-kun" changeset="561631" lat="52.1995804" lon="20.9808876">
    <tag k="addr:city" v="Warszawa@Warszawa Ochota"/>
    <tag k="addr:housenumber" v="7"/>
    <tag k="addr:street" v="Korotyńskiego"/>
    <tag k="source" v="http://ump.waw.pl/ retrieved 11:07:14 02/24/09 (UMP-Warszawa/src/WARSZAWA_OCHOTA.ulice.txt)"/>
  </node>
  <node id="376721504" version="2" timestamp="2011-12-03T09:15:42Z" uid="441027" user="muzzy" changeset="10022896" lat="52.1995804" lon="20.9808876">
    <tag k="addr:city" v="Warszawa@Warszawa Ochota"/>
    <tag k="addr:housenumber" v="7"/>
    <tag k="addr:street" v="Władysława Korotyńskiego"/>
    <tag k="source" v="http://ump.waw.pl/ retrieved 11:07:14 02/24/09 (UMP-Warszawa/src/WARSZAWA_OCHOTA.ulice.txt)"/>
  </node>
  <node id="376721504" version="3" timestamp="2012-01-25T12:51:48Z" uid="99386" user="masti" changeset="10493341" lat="52.1995804" lon="20.9808876"/>
  <node id="376721514" version="1" timestamp="2009-04-15T15:59:59Z" uid="20587" user="balrog-kun" changeset="561631" lat="52.1979168" lon="20.9631872">
    <tag k="addr:city" v="Warszawa@Warszawa Ochota"/>
    <tag k="addr:housenumber" v="34"/>
    <tag k="addr:street" v="Altowa"/>
    <tag k="source" v="http://ump.waw.pl/ retrieved 11:07:14 02/24/09 (UMP-Warszawa/src/WARSZAWA_OCHOTA.ulice.txt)"/>
  </node>
  <node id="376721527" version="1" timestamp="2009-04-15T15:59:59Z" uid="20587" user="balrog-kun" changeset="561631" lat="52.2008328" lon="20.9647259">
    <tag k="addr:city" v="Warszawa@Warszawa Ochota"/>
    <tag k="addr:housenumber" v="4"/>
    <tag k="addr:street" v="Harfowa"/>
    <tag k="source" v="http://ump.waw.pl/ retrieved 11:07:14 02/24/09 (UMP-Warszawa/src/WARSZAWA_OCHOTA.ulice.txt)"/>
  </node>
  <node id="376721539" version="1" timestamp="2009-04-15T16:00:00Z" uid="20587" user="balrog-kun" changeset="561631" lat="52.1994587" lon="20.9795197">
    <tag k="addr:city" v="Warszawa@Warszawa Ochota"/>
    <tag k="addr:housenumber" v="12"/>
    <tag k="addr:street" v="Mołdawska"/>
    <tag k="source" v="http://ump.waw.pl/ retrieved 11:07:14 02/24/09 (UMP-Warszawa/src/WARSZAWA_OCHOTA.ulice.txt)"/>
  </node>
  <node id="376721550" version="1" timestamp="2009-04-15T16:00:00Z" uid="20587" user="balrog-kun" changeset="561631" lat="52.201767" lon="20.9708258">
    <tag k="addr:city" v="Warszawa@Warszawa Ochota"/>
    <tag k="addr:housenumber" v="15"/>
    <tag k="addr:street" v="Korotyńskiego"/>
    <tag k="source" v="http://ump.waw.pl/ retrieved 11:07:14 02/24/09 (UMP-Warszawa/src/WARSZAWA_OCHOTA.ulice.txt)"/>
  </node>
  <node id="376721550" version="2" timestamp="2011-12-03T09:14:43Z" uid="441027" user="muzzy" changeset="10022896" lat="52.201767" lon="20.9708258">
    <tag k="addr:city" v="Warszawa@Warszawa Ochota"/>
    <tag k="addr:housenumber" v="15"/>
    <tag k="addr:street" v="Władysława Korotyńskiego"/>
    <tag k="source" v="http://ump.waw.pl/ retrieved 11:07:14 02/24/09 (UMP-Warszawa/src/WARSZAWA_OCHOTA.ulice.txt)"/>
  </node>
  <node id="376721560" version="1" timestamp="2009-04-15T16:00:01Z" uid="20587" user="balrog-kun" changeset="561631" lat="52.2033346" lon="20.9467817">
    <tag k="addr:city" v="Warszawa@Warszawa Ochota"/>
    <tag k="addr:housenumber" v="82"/>
    <tag k="addr:street" v="Włodarzewska"/>
    <tag k="source" v="http://ump.waw.pl/ retrieved 11:07:14 02/24/09 (UMP-Warszawa/src/WARSZAWA_OCHOTA.ulice.txt)"/>
  </node>
  <node id="376721560" version="2" timestamp="2011-09-24T10:41:34Z" uid="477744" user="hormel" changeset="9383078" lat="52.2034712" lon="20.9456991">
    <tag k="addr:city" v="Warszawa@Warszawa Ochota"/>
    <tag k="addr:housenumber" v="82"/>
    <tag k="addr:street" v="Włodarzewska"/>
    <tag k="source" v="http://ump.waw.pl/ retrieved 11:07:14 02/24/09 (UMP-Warszawa/src/WARSZAWA_OCHOTA.ulice.txt)"/>
  </node>
  <node id="376721566" version="1" timestamp="2009-04-15T16:00:01Z" uid="20587" user="balrog-kun" changeset="561631" lat="52.1966406" lon="20.9772239">
    <tag k="addr:city" v="Warszawa@Warszawa Ochota"/>
    <tag k="addr:housenumber" v="6"/>
    <tag k="addr:street" v="Mołdawska"/>
    <tag k="source" v="http://ump.waw.pl/ retrieved 11:07:14 02/24/09 (UMP-Warszawa/src/WARSZAWA_OCHOTA.ulice.txt)"/>
  </node>
  <node id="376721566" version="2" timestamp="2012-01-25T11:55:08Z" uid="99386" user="masti" changeset="10492881" lat="52.1966406" lon="20.9772239"/>
  <node id="376721573" version="1" timestamp="2009-04-15T16:00:01Z" uid="20587" user="balrog-kun" changeset="561631" lat="52.1959247" lon="20.9799725">
    <tag k="addr:city" v="Warszawa@Warszawa Ochota"/>
    <tag k="addr:housenumber" v="3"/>
    <tag k="addr:street" v="Jankowska"/>
    <tag k="source" v="http://ump.waw.pl/ retrieved 11:07:14 02/24/09 (UMP-Warszawa/src/WARSZAWA_OCHOTA.ulice.txt)"/>
  </node>
  <node id="376721573" version="2" timestamp="2012-01-25T11:55:08Z" uid="99386" user="masti" changeset="10492881" lat="52.1959247" lon="20.9799725"/>
  <node id="376721580" version="1" timestamp="2009-04-15T16:00:01Z" uid="20587" user="balrog-kun" changeset="561631" lat="52.2028212" lon="20.9514832">
    <tag k="addr:city" v="Warszawa@Warszawa Ochota"/>
    <tag k="addr:housenumber" v="68"/>
    <tag k="addr:street" v="Włodarzewska"/>
    <tag k="source" v="http://ump.waw.pl/ retrieved 11:07:14 02/24/09 (UMP-Warszawa/src/WARSZAWA_OCHOTA.ulice.txt)"/>
  </node>
  <node id="376721580" version="2" timestamp="2011-09-24T10:41:34Z" uid="477744" user="hormel" changeset="9383078" lat="52.202851" lon="20.9508436">
    <tag k="addr:city" v="Warszawa@Warszawa Ochota"/>
    <tag k="addr:housenumber" v="68"/>
    <tag k="addr:street" v="Włodarzewska"/>
    <tag k="source" v="http://ump.waw.pl/ retrieved 11:07:14 02/24/09 (UMP-Warszawa/src/WARSZAWA_OCHOTA.ulice.txt)"/>
  </node>
  <node id="376721591" version="1" timestamp="2009-04-15T16:00:02Z" uid="20587" user="balrog-kun" changeset="561631" lat="52.2039109" lon="20.9658874">
    <tag k="addr:city" v="Warszawa@Warszawa Ochota"/>
    <tag k="addr:housenumber" v="46"/>
    <tag k="addr:street" v="Korotyńskiego"/>
    <tag k="source" v="http://ump.waw.pl/ retrieved 11:07:14 02/24/09 (UMP-Warszawa/src/WARSZAWA_OCHOTA.ulice.txt)"/>
  </node>
  <node id="376721591" version="2" timestamp="2010-12-04T04:20:12Z" uid="20587" user="balrog-kun" changeset="6534205" lat="52.2039109" lon="20.9658874">
    <tag k="addr:city" v="Warszawa@Warszawa Ochota"/>
    <tag k="addr:housenumber" v="46"/>
    <tag k="addr:street" v="Korotyńskiego"/>
    <tag k="source" v="http://ump.waw.pl/ retrieved 11:07:14 02/24/09 (UMP-Warszawa/src/WARSZAWA_OCHOTA.ulice.txt)"/>
  </node>
  <node id="376721601" version="1" timestamp="2009-04-15T16:00:02Z" uid="20587" user="balrog-kun" changeset="561631" lat="52.2043252" lon="20.9648893">
    <tag k="addr:city" v="Warszawa@Warszawa Ochota"/>
    <tag k="addr:housenumber" v="48"/>
    <tag k="addr:street" v="Korotyńskiego"/>
    <tag k="source" v="http://ump.waw.pl/ retrieved 11:07:14 02/24/09 (UMP-Warszawa/src/WARSZAWA_OCHOTA.ulice.txt)"/>
  </node>
  <node id="376721601" version="2" timestamp="2010-12-04T04:20:12Z" uid="20587" user="balrog-kun" changeset="6534205" lat="52.2043252" lon="20.9648893">
    <tag k="addr:city" v="Warszawa@Warszawa Ochota"/>
    <tag k="addr:housenumber" v="48"/>
    <tag k="addr:street" v="Korotyńskiego"/>
    <tag k="source" v="http://ump.waw.pl/ retrieved 11:07:14 02/24/09 (UMP-Warszawa/src/WARSZAWA_OCHOTA.ulice.txt)"/>
  </node>
  <node id="376721616" version="1" timestamp="2009-04-15T16:00:02Z" uid="20587" user="balrog-kun" changeset="561631" lat="52.1993491" lon="20.963543">
    <tag k="addr:city" v="Warszawa@Warszawa Ochota"/>
    <tag k="addr:housenumber" v="14"/>
    <tag k="addr:street" v="Lirowa"/>
    <tag k="source" v="http://ump.waw.pl/ retrieved 11:07:14 02/24/09 (UMP-Warszawa/src/WARSZAWA_OCHOTA.ulice.txt)"/>
  </node>
  <node id="376721626" version="1" timestamp="2009-04-15T16:00:03Z" uid="20587" user="balrog-kun" changeset="561631" lat="52.2009334" lon="20.9622183">
    <tag k="addr:city" v="Warszawa@Warszawa Ochota"/>
    <tag k="addr:housenumber" v="2"/>
    <tag k="addr:street" v="Altowa"/>
    <tag k="source" v="http://ump.waw.pl/ retrieved 11:07:14 02/24/09 (UMP-Warszawa/src/WARSZAWA_OCHOTA.ulice.txt)"/>
  </node>
  <node id="376721640" version="1" timestamp="2009-04-15T16:00:03Z" uid="20587" user="balrog-kun" changeset="561631" lat="52.1973435" lon="20.9768825">
    <tag k="addr:city" v="Warszawa@Warszawa Ochota"/>
    <tag k="addr:housenumber" v="5"/>
    <tag k="addr:street" v="Mołdawska"/>
    <tag k="source" v="http://ump.waw.pl/ retrieved 11:07:14 02/24/09 (UMP-Warszawa/src/WARSZAWA_OCHOTA.ulice.txt)"/>
  </node>
  <node id="376721640" version="2" timestamp="2012-01-25T12:41:10Z" uid="99386" user="masti" changeset="10493259" lat="52.1973435" lon="20.9768825"/>
  <node id="376721657" version="1" timestamp="2009-04-15T16:00:04Z" uid="20587" user="balrog-kun" changeset="561631" lat="52.2048869" lon="20.9447137">
    <tag k="addr:city" v="Warszawa@Warszawa Ochota"/>
    <tag k="addr:housenumber" v="18"/>
    <tag k="addr:street" v="Zadumana"/>
    <tag k="source" v="http://ump.waw.pl/ retrieved 11:07:14 02/24/09 (UMP-Warszawa/src/WARSZAWA_OCHOTA.ulice.txt)"/>
  </node>
  <node id="376721670" version="1" timestamp="2009-04-15T16:00:04Z" uid="20587" user="balrog-kun" changeset="561631" lat="52.2002446" lon="20.9685605">
    <tag k="addr:city" v="Warszawa@Warszawa Ochota"/>
    <tag k="addr:housenumber" v="1"/>
    <tag k="addr:street" v="Sierpińskiego"/>
    <tag k="source" v="http://ump.waw.pl/ retrieved 11:07:14 02/24/09 (UMP-Warszawa/src/WARSZAWA_OCHOTA.ulice.txt)"/>
  </node>
  <node id="376721670" version="2" timestamp="2009-05-13T18:31:59Z" uid="20587" user="balrog-kun" changeset="1178274" lat="52.2005416" lon="20.9690651">
    <tag k="addr:city" v="Warszawa@Warszawa Ochota"/>
    <tag k="addr:housenumber" v="1"/>
    <tag k="addr:street" v="Sierpińskiego"/>
    <tag k="source" v="http://ump.waw.pl/ retrieved 11:07:14 02/24/09 (UMP-Warszawa/src/WARSZAWA_OCHOTA.ulice.txt)"/>
  </node>
  <node id="376721670" version="3" timestamp="2011-12-03T09:14:29Z" uid="441027" user="muzzy" changeset="10022896" lat="52.2005416" lon="20.9690651">
    <tag k="addr:city" v="Warszawa@Warszawa Ochota"/>
    <tag k="addr:housenumber" v="1"/>
    <tag k="addr:street" v="Wacława Sierpińskiego"/>
    <tag k="source" v="http://ump.waw.pl/ retrieved 11:07:14 02/24/09 (UMP-Warszawa/src/WARSZAWA_OCHOTA.ulice.txt)"/>
  </node>
  <node id="376721670" version="4" timestamp="2012-01-25T15:25:38Z" uid="99386" user="masti" changeset="10494606" lat="52.2005416" lon="20.9690651"/>
  <node id="376721681" version="1" timestamp="2009-04-15T16:00:05Z" uid="20587" user="balrog-kun" changeset="561631" lat="52.2022412" lon="20.9530212">
    <tag k="addr:city" v="Warszawa@Warszawa Ochota"/>
    <tag k="addr:housenumber" v="75"/>
    <tag k="addr:street" v="Włodarzewska"/>
    <tag k="source" v="http://ump.waw.pl/ retrieved 11:07:14 02/24/09 (UMP-Warszawa/src/WARSZAWA_OCHOTA.ulice.txt)"/>
  </node>
  <node id="376721681" version="2" timestamp="2011-09-24T10:41:34Z" uid="477744" user="hormel" changeset="9383078" lat="52.2023733" lon="20.9513124">
    <tag k="addr:city" v="Warszawa@Warszawa Ochota"/>
    <tag k="addr:housenumber" v="75"/>
    <tag k="addr:street" v="Włodarzewska"/>
    <tag k="source" v="http://ump.waw.pl/ retrieved 11:07:14 02/24/09 (UMP-Warszawa/src/WARSZAWA_OCHOTA.ulice.txt)"/>
  </node>
  <node id="376721708" version="1" timestamp="2009-04-15T16:00:06Z" uid="20587" user="balrog-kun" changeset="561631" lat="52.1972229" lon="20.9813074">
    <tag k="addr:city" v="Warszawa@Warszawa Ochota"/>
    <tag k="addr:housenumber" v="4"/>
    <tag k="addr:street" v="Baleya"/>
    <tag k="source" v="http://ump.waw.pl/ retrieved 11:07:14 02/24/09 (UMP-Warszawa/src/WARSZAWA_OCHOTA.ulice.txt)"/>
  </node>
  <node id="376721708" version="2" timestamp="2011-08-13T23:16:28Z" uid="100448" user="kietlak" changeset="9010744" lat="52.1972229" lon="20.9813074"/>
  <node id="376721715" version="1" timestamp="2009-04-15T16:00:07Z" uid="20587" user="balrog-kun" changeset="561631" lat="52.201622" lon="20.9634123">
    <tag k="addr:city" v="Warszawa@Warszawa Ochota"/>
    <tag k="addr:housenumber" v="1"/>
    <tag k="addr:street" v="Nowosolipsowska"/>
    <tag k="source" v="http://ump.waw.pl/ retrieved 11:07:14 02/24/09 (UMP-Warszawa/src/WARSZAWA_OCHOTA.ulice.txt)"/>
  </node>
  <node id="376721725" version="1" timestamp="2009-04-15T16:00:07Z" uid="20587" user="balrog-kun" changeset="561631" lat="52.2005683" lon="20.9518165">
    <tag k="addr:city" v="Warszawa@Warszawa Ochota"/>
    <tag k="addr:housenumber" v="2"/>
    <tag k="addr:street" v="Maszynowa"/>
    <tag k="source" v="http://ump.waw.pl/ retrieved 11:07:14 02/24/09 (UMP-Warszawa/src/WARSZAWA_OCHOTA.ulice.txt)"/>
  </node>
  <node id="376721725" version="2" timestamp="2011-09-24T10:41:33Z" uid="477744" user="hormel" changeset="9383078" lat="52.200566" lon="20.9517129">
    <tag k="addr:city" v="Warszawa@Warszawa Ochota"/>
    <tag k="addr:housenumber" v="2/4"/>
    <tag k="addr:street" v="Maszynowa"/>
    <tag k="source" v="http://ump.waw.pl/ retrieved 11:07:14 02/24/09 (UMP-Warszawa/src/WARSZAWA_OCHOTA.ulice.txt)"/>
  </node>
  <node id="376721736" version="1" timestamp="2009-04-15T16:00:08Z" uid="20587" user="balrog-kun" changeset="561631" lat="52.1997289" lon="20.9769589">
    <tag k="addr:city" v="Warszawa@Warszawa Ochota"/>
    <tag k="addr:housenumber" v="11"/>
    <tag k="addr:street" v="Bohdanowicza"/>
    <tag k="source" v="http://ump.waw.pl/ retrieved 11:07:14 02/24/09 (UMP-Warszawa/src/WARSZAWA_OCHOTA.ulice.txt)"/>
  </node>
  <node id="376721736" version="2" timestamp="2011-12-03T09:14:35Z" uid="441027" user="muzzy" changeset="10022896" lat="52.1997289" lon="20.9769589">
    <tag k="addr:city" v="Warszawa@Warszawa Ochota"/>
    <tag k="addr:housenumber" v="11"/>
    <tag k="addr:street" v="Karola Bohdanowicza"/>
    <tag k="source" v="http://ump.waw.pl/ retrieved 11:07:14 02/24/09 (UMP-Warszawa/src/WARSZAWA_OCHOTA.ulice.txt)"/>
  </node>
  <node id="376721757" version="1" timestamp="2009-04-15T16:00:09Z" uid="20587" user="balrog-kun" changeset="561631" lat="52.1996974" lon="20.9722652">
    <tag k="addr:city" v="Warszawa@Warszawa Ochota"/>
    <tag k="addr:housenumber" v="2"/>
    <tag k="addr:street" v="Grzeszczyka"/>
    <tag k="source" v="http://ump.waw.pl/ retrieved 11:07:14 02/24/09 (UMP-Warszawa/src/WARSZAWA_OCHOTA.ulice.txt)"/>
  </node>
  <node id="376721757" version="2" timestamp="2011-12-03T09:14:56Z" uid="441027" user="muzzy" changeset="10022896" lat="52.1996974" lon="20.9722652">
    <tag k="addr:city" v="Warszawa@Warszawa Ochota"/>
    <tag k="addr:housenumber" v="2"/>
    <tag k="addr:street" v="Szczepana Grzeszczyka"/>
    <tag k="source" v="http://ump.waw.pl/ retrieved 11:07:14 02/24/09 (UMP-Warszawa/src/WARSZAWA_OCHOTA.ulice.txt)"/>
  </node>
  <node id="376721757" version="3" timestamp="2012-01-25T15:25:39Z" uid="99386" user="masti" changeset="10494606" lat="52.1996974" lon="20.9722652"/>
  <node id="376721775" version="1" timestamp="2009-04-15T16:00:09Z" uid="20587" user="balrog-kun" changeset="561631" lat="52.195603" lon="20.9796528">
    <tag k="addr:city" v="Warszawa@Warszawa Ochota"/>
    <tag k="addr:housenumber" v="2"/>
    <tag k="addr:street" v="Gorlicka"/>
    <tag k="source" v="http://ump.waw.pl/ retrieved 11:07:14 02/24/09 (UMP-Warszawa/src/WARSZAWA_OCHOTA.ulice.txt)"/>
  </node>
  <node id="376721775" version="2" timestamp="2012-01-25T11:55:08Z" uid="99386" user="masti" changeset="10492881" lat="52.195603" lon="20.9796528"/>
  <node id="376721785" version="1" timestamp="2009-04-15T16:00:10Z" uid="20587" user="balrog-kun" changeset="561631" lat="52.2024402" lon="20.9675378">
    <tag k="addr:city" v="Warszawa@Warszawa Ochota"/>
    <tag k="addr:housenumber" v="4"/>
    <tag k="addr:street" v="Włodarzewska"/>
    <tag k="source" v="http://ump.waw.pl/ retrieved 11:07:14 02/24/09 (UMP-Warszawa/src/WARSZAWA_OCHOTA.ulice.txt)"/>
  </node>
  <node id="376721794" version="1" timestamp="2009-04-15T16:00:10Z" uid="20587" user="balrog-kun" changeset="561631" lat="52.1997684" lon="20.979934">
    <tag k="addr:city" v="Warszawa@Warszawa Ochota"/>
    <tag k="addr:housenumber" v="9"/>
    <tag k="addr:street" v="Korotyńskiego"/>
    <tag k="source" v="http://ump.waw.pl/ retrieved 11:07:14 02/24/09 (UMP-Warszawa/src/WARSZAWA_OCHOTA.ulice.txt)"/>
  </node>
  <node id="376721794" version="2" timestamp="2011-12-03T09:15:51Z" uid="441027" user="muzzy" changeset="10022896" lat="52.1997684" lon="20.979934">
    <tag k="addr:city" v="Warszawa@Warszawa Ochota"/>
    <tag k="addr:housenumber" v="9"/>
    <tag k="addr:street" v="Władysława Korotyńskiego"/>
    <tag k="source" v="http://ump.waw.pl/ retrieved 11:07:14 02/24/09 (UMP-Warszawa/src/WARSZAWA_OCHOTA.ulice.txt)"/>
  </node>
  <node id="376721794" version="3" timestamp="2012-01-25T12:51:48Z" uid="99386" user="masti" changeset="10493341" lat="52.1997684" lon="20.979934"/>
  <node id="376721810" version="1" timestamp="2009-04-15T16:00:10Z" uid="20587" user="balrog-kun" changeset="561631" lat="52.200543" lon="20.9662739">
    <tag k="addr:city" v="Warszawa@Warszawa Ochota"/>
    <tag k="addr:housenumber" v="194"/>
    <tag k="addr:street" v="Grójecka"/>
    <tag k="source" v="http://ump.waw.pl/ retrieved 11:07:14 02/24/09 (UMP-Warszawa/src/WARSZAWA_OCHOTA.ulice.txt)"/>
  </node>
  <node id="376721820" version="1" timestamp="2009-04-15T16:00:11Z" uid="20587" user="balrog-kun" changeset="561631" lat="52.2026295" lon="20.9611475">
    <tag k="addr:city" v="Warszawa@Warszawa Ochota"/>
    <tag k="addr:housenumber" v="17"/>
    <tag k="addr:street" v="Usypiskowa"/>
    <tag k="source" v="http://ump.waw.pl/ retrieved 11:07:14 02/24/09 (UMP-Warszawa/src/WARSZAWA_OCHOTA.ulice.txt)"/>
  </node>
  <node id="376721820" version="2" timestamp="2009-04-15T16:03:56Z" uid="20587" user="balrog-kun" changeset="561631" lat="52.2025245" lon="20.9611856">
    <tag k="addr:city" v="Warszawa@Warszawa Ochota"/>
    <tag k="addr:housenumber" v="17"/>
    <tag k="addr:street" v="Usypiskowa"/>
    <tag k="source" v="http://ump.waw.pl/ retrieved 11:07:14 02/24/09 (UMP-Warszawa/src/WARSZAWA_OCHOTA.ulice.txt)"/>
  </node>
  <node id="376721834" version="1" timestamp="2009-04-15T16:00:11Z" uid="20587" user="balrog-kun" changeset="561631" lat="52.1988677" lon="20.978135">
    <tag k="addr:city" v="Warszawa@Warszawa Ochota"/>
    <tag k="addr:housenumber" v="9"/>
    <tag k="addr:street" v="Mołdawska"/>
    <tag k="source" v="http://ump.waw.pl/ retrieved 11:07:14 02/24/09 (UMP-Warszawa/src/WARSZAWA_OCHOTA.ulice.txt)"/>
  </node>
  <node id="376721846" version="1" timestamp="2009-04-15T16:00:12Z" uid="20587" user="balrog-kun" changeset="561631" lat="52.1999026" lon="20.9820312">
    <tag k="addr:city" v="Warszawa@Warszawa Ochota"/>
    <tag k="addr:housenumber" v="8"/>
    <tag k="addr:street" v="Korotyńskiego"/>
    <tag k="source" v="http://ump.waw.pl/ retrieved 11:07:14 02/24/09 (UMP-Warszawa/src/WARSZAWA_OCHOTA.ulice.txt)"/>
  </node>
  <node id="376721846" version="2" timestamp="2011-12-03T09:15:46Z" uid="441027" user="muzzy" changeset="10022896" lat="52.1999026" lon="20.9820312">
    <tag k="addr:city" v="Warszawa@Warszawa Ochota"/>
    <tag k="addr:housenumber" v="8"/>
    <tag k="addr:street" v="Władysława Korotyńskiego"/>
    <tag k="source" v="http://ump.waw.pl/ retrieved 11:07:14 02/24/09 (UMP-Warszawa/src/WARSZAWA_OCHOTA.ulice.txt)"/>
  </node>
  <node id="376721861" version="1" timestamp="2009-04-15T16:00:12Z" uid="20587" user="balrog-kun" changeset="561631" lat="52.2011455" lon="20.9654186">
    <tag k="addr:city" v="Warszawa@Warszawa Ochota"/>
    <tag k="addr:housenumber" v="12"/>
    <tag k="addr:street" v="Lutniowa"/>
    <tag k="source" v="http://ump.waw.pl/ retrieved 11:07:14 02/24/09 (UMP-Warszawa/src/WARSZAWA_OCHOTA.ulice.txt)"/>
  </node>
  <node id="376721879" version="1" timestamp="2009-04-15T16:00:13Z" uid="20587" user="balrog-kun" changeset="561631" lat="52.198563" lon="20.9750181">
    <tag k="addr:city" v="Warszawa@Warszawa Ochota"/>
    <tag k="addr:housenumber" v="148"/>
    <tag k="addr:street" v="Racławicka"/>
    <tag k="source" v="http://ump.waw.pl/ retrieved 11:07:14 02/24/09 (UMP-Warszawa/src/WARSZAWA_OCHOTA.ulice.txt)"/>
  </node>
  <node id="376721890" version="1" timestamp="2009-04-15T16:00:13Z" uid="20587" user="balrog-kun" changeset="561631" lat="52.2034895" lon="20.9547879">
    <tag k="addr:city" v="Warszawa@Warszawa Ochota"/>
    <tag k="addr:housenumber" v="14"/>
    <tag k="addr:street" v="Przy Parku"/>
    <tag k="source" v="http://ump.waw.pl/ retrieved 11:07:14 02/24/09 (UMP-Warszawa/src/WARSZAWA_OCHOTA.ulice.txt)"/>
  </node>
  <node id="376721911" version="1" timestamp="2009-04-15T16:00:14Z" uid="20587" user="balrog-kun" changeset="561631" lat="52.1992219" lon="20.9748915">
    <tag k="addr:city" v="Warszawa@Warszawa Ochota"/>
    <tag k="addr:housenumber" v="4"/>
    <tag k="addr:street" v="Bohdanowicza"/>
    <tag k="source" v="http://ump.waw.pl/ retrieved 11:07:14 02/24/09 (UMP-Warszawa/src/WARSZAWA_OCHOTA.ulice.txt)"/>
  </node>
  <node id="376721911" version="2" timestamp="2011-12-03T09:15:21Z" uid="441027" user="muzzy" changeset="10022896" lat="52.1992219" lon="20.9748915">
    <tag k="addr:city" v="Warszawa@Warszawa Ochota"/>
    <tag k="addr:housenumber" v="4"/>
    <tag k="addr:street" v="Karola Bohdanowicza"/>
    <tag k="source" v="http://ump.waw.pl/ retrieved 11:07:14 02/24/09 (UMP-Warszawa/src/WARSZAWA_OCHOTA.ulice.txt)"/>
  </node>
  <node id="376721911" version="3" timestamp="2012-01-25T15:25:39Z" uid="99386" user="masti" changeset="10494606" lat="52.1992219" lon="20.9748915"/>
  <node id="376721933" version="1" timestamp="2009-04-15T16:00:15Z" uid="20587" user="balrog-kun" changeset="561631" lat="52.203123" lon="20.9619043">
    <tag k="addr:city" v="Warszawa@Warszawa Ochota"/>
    <tag k="addr:housenumber" v="43"/>
    <tag k="addr:street" v="Lirowa"/>
    <tag k="source" v="http://ump.waw.pl/ retrieved 11:07:14 02/24/09 (UMP-Warszawa/src/WARSZAWA_OCHOTA.ulice.txt)"/>
  </node>
  <node id="376721945" version="1" timestamp="2009-04-15T16:00:15Z" uid="20587" user="balrog-kun" changeset="561631" lat="52.2015973" lon="20.9689161">
    <tag k="addr:city" v="Warszawa@Warszawa Ochota"/>
    <tag k="addr:housenumber" v="125"/>
    <tag k="addr:street" v="Grójecka"/>
    <tag k="source" v="http://ump.waw.pl/ retrieved 11:07:14 02/24/09 (UMP-Warszawa/src/WARSZAWA_OCHOTA.ulice.txt)"/>
  </node>
  <node id="376721972" version="1" timestamp="2009-04-15T16:00:16Z" uid="20587" user="balrog-kun" changeset="561631" lat="52.1964069" lon="20.9808564">
    <tag k="addr:city" v="Warszawa@Warszawa Ochota"/>
    <tag k="addr:housenumber" v="2"/>
    <tag k="addr:street" v="Jankowska"/>
    <tag k="source" v="http://ump.waw.pl/ retrieved 11:07:14 02/24/09 (UMP-Warszawa/src/WARSZAWA_OCHOTA.ulice.txt)"/>
  </node>
  <node id="376721972" version="2" timestamp="2012-01-25T11:59:13Z" uid="99386" user="masti" changeset="10492918" lat="52.1964069" lon="20.9808564"/>
  <node id="376721991" version="1" timestamp="2009-04-15T16:00:17Z" uid="20587" user="balrog-kun" changeset="561631" lat="52.2020008" lon="20.981252">
    <tag k="addr:city" v="Warszawa@Warszawa Ochota"/>
    <tag k="addr:housenumber" v="4"/>
    <tag k="addr:street" v="Pruszkowska"/>
    <tag k="source" v="http://ump.waw.pl/ retrieved 11:07:14 02/24/09 (UMP-Warszawa/src/WARSZAWA_OCHOTA.ulice.txt)"/>
  </node>
  <node id="376722013" version="1" timestamp="2009-04-15T16:00:18Z" uid="20587" user="balrog-kun" changeset="561631" lat="52.2057451" lon="20.9677075">
    <tag k="addr:city" v="Warszawa@Warszawa Ochota"/>
    <tag k="addr:housenumber" v="17"/>
    <tag k="addr:street" v="Powstańców Wielkopolskich"/>
    <tag k="source" v="http://ump.waw.pl/ retrieved 11:07:14 02/24/09 (UMP-Warszawa/src/WARSZAWA_OCHOTA.ulice.txt)"/>
  </node>
  <node id="376722013" version="2" timestamp="2010-12-04T04:20:12Z" uid="20587" user="balrog-kun" changeset="6534205" lat="52.2057451" lon="20.9677075">
    <tag k="addr:city" v="Warszawa@Warszawa Ochota"/>
    <tag k="addr:housenumber" v="17"/>
    <tag k="addr:street" v="Powstańców Wielkopolskich"/>
    <tag k="source" v="http://ump.waw.pl/ retrieved 11:07:14 02/24/09 (UMP-Warszawa/src/WARSZAWA_OCHOTA.ulice.txt)"/>
  </node>
  <node id="376722028" version="1" timestamp="2009-04-15T16:00:19Z" uid="20587" user="balrog-kun" changeset="561631" lat="52.2015359" lon="20.9587264">
    <tag k="addr:city" v="Warszawa@Warszawa Ochota"/>
    <tag k="addr:housenumber" v="41"/>
    <tag k="addr:street" v="Włodarzewska"/>
    <tag k="note" v="TODO"/>
    <tag k="source" v="http://ump.waw.pl/ retrieved 11:07:14 02/24/09 (UMP-Warszawa/src/WARSZAWA_OCHOTA.ulice.txt)"/>
  </node>
  <node id="376722043" version="1" timestamp="2009-04-15T16:00:20Z" uid="20587" user="balrog-kun" changeset="561631" lat="52.2035089" lon="20.9452037">
    <tag k="addr:city" v="Warszawa@Warszawa Ochota"/>
    <tag k="addr:housenumber" v="84"/>
    <tag k="addr:street" v="Włodarzewska"/>
    <tag k="source" v="http://ump.waw.pl/ retrieved 11:07:14 02/24/09 (UMP-Warszawa/src/WARSZAWA_OCHOTA.ulice.txt)"/>
  </node>
  <node id="376722043" version="2" timestamp="2011-09-24T10:41:34Z" uid="477744" user="hormel" changeset="9383078" lat="52.2035521" lon="20.9451061">
    <tag k="addr:city" v="Warszawa@Warszawa Ochota"/>
    <tag k="addr:housenumber" v="84"/>
    <tag k="addr:street" v="Włodarzewska"/>
    <tag k="source" v="http://ump.waw.pl/ retrieved 11:07:14 02/24/09 (UMP-Warszawa/src/WARSZAWA_OCHOTA.ulice.txt)"/>
  </node>
  <node id="376722054" version="1" timestamp="2009-04-15T16:00:20Z" uid="20587" user="balrog-kun" changeset="561631" lat="52.2020497" lon="20.9799791">
    <tag k="addr:city" v="Warszawa@Warszawa Ochota"/>
    <tag k="addr:housenumber" v="6"/>
    <tag k="addr:street" v="Pruszkowska"/>
    <tag k="source" v="http://ump.waw.pl/ retrieved 11:07:14 02/24/09 (UMP-Warszawa/src/WARSZAWA_OCHOTA.ulice.txt)"/>
  </node>
  <node id="376722054" version="2" timestamp="2010-06-23T02:27:10Z" uid="20587" user="balrog-kun" changeset="5056010" lat="52.2020497" lon="20.9799791">
    <tag k="addr:housenumber" v="6"/>
    <tag k="addr:street" v="Pruszkowska"/>
  </node>
  <node id="376722073" version="1" timestamp="2009-04-15T16:00:21Z" uid="20587" user="balrog-kun" changeset="561631" lat="52.2007274" lon="20.9639594">
    <tag k="addr:city" v="Warszawa@Warszawa Ochota"/>
    <tag k="addr:housenumber" v="1"/>
    <tag k="addr:street" v="Harfowa"/>
    <tag k="source" v="http://ump.waw.pl/ retrieved 11:07:14 02/24/09 (UMP-Warszawa/src/WARSZAWA_OCHOTA.ulice.txt)"/>
  </node>
  <node id="376722083" version="1" timestamp="2009-04-15T16:00:22Z" uid="20587" user="balrog-kun" changeset="561631" lat="52.1983232" lon="20.964389">
    <tag k="addr:city" v="Warszawa@Warszawa Ochota"/>
    <tag k="addr:housenumber" v="212"/>
    <tag k="addr:street" v="Grójecka"/>
    <tag k="source" v="http://ump.waw.pl/ retrieved 11:07:14 02/24/09 (UMP-Warszawa/src/WARSZAWA_OCHOTA.ulice.txt)"/>
  </node>
  <node id="376722083" version="2" timestamp="2009-05-13T18:32:01Z" uid="20587" user="balrog-kun" changeset="1178274" lat="52.1987703" lon="20.9647637">
    <tag k="addr:city" v="Warszawa@Warszawa Ochota"/>
    <tag k="addr:housenumber" v="212"/>
    <tag k="addr:street" v="Grójecka"/>
    <tag k="source" v="http://ump.waw.pl/ retrieved 11:07:14 02/24/09 (UMP-Warszawa/src/WARSZAWA_OCHOTA.ulice.txt)"/>
  </node>
  <node id="376722094" version="1" timestamp="2009-04-15T16:00:23Z" uid="20587" user="balrog-kun" changeset="561631" lat="52.2032303" lon="20.9624499">
    <tag k="addr:city" v="Warszawa@Warszawa Ochota"/>
    <tag k="addr:housenumber" v="46"/>
    <tag k="addr:street" v="Lirowa"/>
    <tag k="source" v="http://ump.waw.pl/ retrieved 11:07:14 02/24/09 (UMP-Warszawa/src/WARSZAWA_OCHOTA.ulice.txt)"/>
  </node>
  <node id="376722126" version="1" timestamp="2009-04-15T16:00:25Z" uid="20587" user="balrog-kun" changeset="561631" lat="52.2014182" lon="20.9718618">
    <tag k="addr:city" v="Warszawa@Warszawa Ochota"/>
    <tag k="addr:housenumber" v="13"/>
    <tag k="addr:street" v="Korotyńskiego"/>
    <tag k="source" v="http://ump.waw.pl/ retrieved 11:07:14 02/24/09 (UMP-Warszawa/src/WARSZAWA_OCHOTA.ulice.txt)"/>
  </node>
  <node id="376722126" version="2" timestamp="2011-12-03T09:14:39Z" uid="441027" user="muzzy" changeset="10022896" lat="52.2014182" lon="20.9718618">
    <tag k="addr:city" v="Warszawa@Warszawa Ochota"/>
    <tag k="addr:housenumber" v="13"/>
    <tag k="addr:street" v="Władysława Korotyńskiego"/>
    <tag k="source" v="http://ump.waw.pl/ retrieved 11:07:14 02/24/09 (UMP-Warszawa/src/WARSZAWA_OCHOTA.ulice.txt)"/>
  </node>
  <node id="376722126" version="3" timestamp="2012-01-25T15:44:28Z" uid="99386" user="masti" changeset="10494792" lat="52.2014182" lon="20.9718618"/>
  <node id="376722143" version="1" timestamp="2009-04-15T16:00:26Z" uid="20587" user="balrog-kun" changeset="561631" lat="52.2061478" lon="20.9543985">
    <tag k="addr:city" v="Warszawa@Warszawa Ochota"/>
    <tag k="addr:housenumber" v="2"/>
    <tag k="addr:street" v="Przy Parku"/>
    <tag k="source" v="http://ump.waw.pl/ retrieved 11:07:14 02/24/09 (UMP-Warszawa/src/WARSZAWA_OCHOTA.ulice.txt)"/>
  </node>
  <node id="376722153" version="1" timestamp="2009-04-15T16:00:26Z" uid="20587" user="balrog-kun" changeset="561631" lat="52.2030254" lon="20.9497198">
    <tag k="addr:city" v="Warszawa@Warszawa Ochota"/>
    <tag k="addr:housenumber" v="70"/>
    <tag k="addr:street" v="Włodarzewska"/>
    <tag k="source" v="http://ump.waw.pl/ retrieved 11:07:14 02/24/09 (UMP-Warszawa/src/WARSZAWA_OCHOTA.ulice.txt)"/>
  </node>
  <node id="376722153" version="2" timestamp="2011-09-24T10:41:35Z" uid="477744" user="hormel" changeset="9383078" lat="52.2030542" lon="20.9493263">
    <tag k="addr:city" v="Warszawa@Warszawa Ochota"/>
    <tag k="addr:housenumber" v="70"/>
    <tag k="addr:street" v="Włodarzewska"/>
    <tag k="source" v="http://ump.waw.pl/ retrieved 11:07:14 02/24/09 (UMP-Warszawa/src/WARSZAWA_OCHOTA.ulice.txt)"/>
  </node>
  <node id="376722167" version="1" timestamp="2009-04-15T16:00:27Z" uid="20587" user="balrog-kun" changeset="561631" lat="52.2048901" lon="20.969657">
    <tag k="addr:city" v="Warszawa@Warszawa Ochota"/>
    <tag k="addr:housenumber" v="8"/>
    <tag k="addr:street" v="Geodetów"/>
    <tag k="source" v="http://ump.waw.pl/ retrieved 11:07:14 02/24/09 (UMP-Warszawa/src/WARSZAWA_OCHOTA.ulice.txt)"/>
  </node>
  <node id="376722167" version="2" timestamp="2010-09-03T10:53:27Z" uid="341573" user="ppanek" changeset="5669612" lat="52.2048901" lon="20.969657">
    <tag k="addr:city" v="Warszawa@Warszawa Ochota"/>
    <tag k="addr:housenumber" v="8"/>
    <tag k="addr:street" v="Geodetów"/>
    <tag k="source" v="http://ump.waw.pl/ retrieved 11:07:14 02/24/09 (UMP-Warszawa/src/WARSZAWA_OCHOTA.ulice.txt)"/>
  </node>
  <node id="376722167" version="3" timestamp="2010-12-04T04:20:13Z" uid="20587" user="balrog-kun" changeset="6534205" lat="52.2048901" lon="20.969657">
    <tag k="addr:city" v="Warszawa@Warszawa Ochota"/>
    <tag k="addr:housenumber" v="8"/>
    <tag k="addr:street" v="Geodetów"/>
    <tag k="source" v="http://ump.waw.pl/ retrieved 11:07:14 02/24/09 (UMP-Warszawa/src/WARSZAWA_OCHOTA.ulice.txt)"/>
  </node>
  <node id="376722178" version="1" timestamp="2009-04-15T16:00:28Z" uid="20587" user="balrog-kun" changeset="561631" lat="52.2014043" lon="20.9646755">
    <tag k="addr:city" v="Warszawa@Warszawa Ochota"/>
    <tag k="addr:housenumber" v="21"/>
    <tag k="addr:street" v="Włodarzewska"/>
    <tag k="source" v="http://ump.waw.pl/ retrieved 11:07:14 02/24/09 (UMP-Warszawa/src/WARSZAWA_OCHOTA.ulice.txt)"/>
  </node>
  <node id="376722192" version="1" timestamp="2009-04-15T16:00:28Z" uid="20587" user="balrog-kun" changeset="561631" lat="52.2014415" lon="20.9816241">
    <tag k="addr:city" v="Warszawa@Warszawa Ochota"/>
    <tag k="addr:housenumber" v="5"/>
    <tag k="addr:street" v="Pruszkowska"/>
    <tag k="source" v="http://ump.waw.pl/ retrieved 11:07:14 02/24/09 (UMP-Warszawa/src/WARSZAWA_OCHOTA.ulice.txt)"/>
  </node>
  <node id="376722192" version="2" timestamp="2009-05-21T13:16:12Z" uid="20587" user="balrog-kun" changeset="1276326" lat="52.2013391" lon="20.9823809">
    <tag k="addr:city" v="Warszawa@Warszawa Ochota"/>
    <tag k="addr:housenumber" v="5"/>
    <tag k="addr:street" v="Pruszkowska"/>
    <tag k="source" v="http://ump.waw.pl/ retrieved 11:07:14 02/24/09 (UMP-Warszawa/src/WARSZAWA_OCHOTA.ulice.txt)"/>
  </node>
  <node id="376722192" version="3" timestamp="2012-01-25T14:49:42Z" uid="99386" user="masti" changeset="10494306" lat="52.2013391" lon="20.9823809"/>
  <node id="376722210" version="1" timestamp="2009-04-15T16:00:29Z" uid="20587" user="balrog-kun" changeset="561631" lat="52.2051212" lon="20.9677475">
    <tag k="addr:city" v="Warszawa@Warszawa Ochota"/>
    <tag k="addr:housenumber" v="4"/>
    <tag k="addr:street" v="Powstańców Wielkopolskich"/>
    <tag k="source" v="http://ump.waw.pl/ retrieved 11:07:14 02/24/09 (UMP-Warszawa/src/WARSZAWA_OCHOTA.ulice.txt)"/>
  </node>
  <node id="376722210" version="2" timestamp="2010-12-04T04:20:12Z" uid="20587" user="balrog-kun" changeset="6534205" lat="52.2051212" lon="20.9677475">
    <tag k="addr:city" v="Warszawa@Warszawa Ochota"/>
    <tag k="addr:housenumber" v="4"/>
    <tag k="addr:street" v="Powstańców Wielkopolskich"/>
    <tag k="source" v="http://ump.waw.pl/ retrieved 11:07:14 02/24/09 (UMP-Warszawa/src/WARSZAWA_OCHOTA.ulice.txt)"/>
  </node>
  <node id="376722224" version="1" timestamp="2009-04-15T16:00:30Z" uid="20587" user="balrog-kun" changeset="561631" lat="52.2056661" lon="20.968441">
    <tag k="addr:city" v="Warszawa@Warszawa Ochota"/>
    <tag k="addr:housenumber" v="1"/>
    <tag k="addr:street" v="Architektów"/>
    <tag k="source" v="http://ump.waw.pl/ retrieved 11:07:14 02/24/09 (UMP-Warszawa/src/WARSZAWA_OCHOTA.ulice.txt)"/>
  </node>
  <node id="376722236" version="1" timestamp="2009-04-15T16:00:31Z" uid="20587" user="balrog-kun" changeset="561631" lat="52.200399" lon="20.9792639">
    <tag k="addr:city" v="Warszawa@Warszawa Ochota"/>
    <tag k="addr:housenumber" v="12"/>
    <tag k="addr:street" v="Korotyńskiego"/>
    <tag k="source" v="http://ump.waw.pl/ retrieved 11:07:14 02/24/09 (UMP-Warszawa/src/WARSZAWA_OCHOTA.ulice.txt)"/>
  </node>
  <node id="376722236" version="2" timestamp="2011-12-03T09:14:37Z" uid="441027" user="muzzy" changeset="10022896" lat="52.200399" lon="20.9792639">
    <tag k="addr:city" v="Warszawa@Warszawa Ochota"/>
    <tag k="addr:housenumber" v="12"/>
    <tag k="addr:street" v="Władysława Korotyńskiego"/>
    <tag k="source" v="http://ump.waw.pl/ retrieved 11:07:14 02/24/09 (UMP-Warszawa/src/WARSZAWA_OCHOTA.ulice.txt)"/>
  </node>
  <node id="376722247" version="1" timestamp="2009-04-15T16:00:31Z" uid="20587" user="balrog-kun" changeset="561631" lat="52.2043619" lon="20.9667019">
    <tag k="addr:city" v="Warszawa@Warszawa Ochota"/>
    <tag k="addr:housenumber" v="5"/>
    <tag k="addr:street" v="Powstańców Wielkopolskich"/>
    <tag k="source" v="http://ump.waw.pl/ retrieved 11:07:14 02/24/09 (UMP-Warszawa/src/WARSZAWA_OCHOTA.ulice.txt)"/>
  </node>
  <node id="376722261" version="1" timestamp="2009-04-15T16:00:32Z" uid="20587" user="balrog-kun" changeset="561631" lat="52.1985565" lon="20.9632731">
    <tag k="addr:city" v="Warszawa@Warszawa Ochota"/>
    <tag k="addr:housenumber" v="9"/>
    <tag k="addr:street" v="Lirowa"/>
    <tag k="source" v="http://ump.waw.pl/ retrieved 11:07:14 02/24/09 (UMP-Warszawa/src/WARSZAWA_OCHOTA.ulice.txt)"/>
  </node>
  <node id="376722270" version="1" timestamp="2009-04-15T16:00:33Z" uid="20587" user="balrog-kun" changeset="561631" lat="52.1997835" lon="20.9830531">
    <tag k="addr:city" v="Warszawa@Warszawa Ochota"/>
    <tag k="addr:housenumber" v="4"/>
    <tag k="addr:street" v="Korotyńskiego"/>
    <tag k="source" v="http://ump.waw.pl/ retrieved 11:07:14 02/24/09 (UMP-Warszawa/src/WARSZAWA_OCHOTA.ulice.txt)"/>
  </node>
  <node id="376722270" version="2" timestamp="2011-12-03T09:15:23Z" uid="441027" user="muzzy" changeset="10022896" lat="52.1997835" lon="20.9830531">
    <tag k="addr:city" v="Warszawa@Warszawa Ochota"/>
    <tag k="addr:housenumber" v="4"/>
    <tag k="addr:street" v="Władysława Korotyńskiego"/>
    <tag k="source" v="http://ump.waw.pl/ retrieved 11:07:14 02/24/09 (UMP-Warszawa/src/WARSZAWA_OCHOTA.ulice.txt)"/>
  </node>
  <node id="376722270" version="3" timestamp="2012-01-25T14:49:42Z" uid="99386" user="masti" changeset="10494306" lat="52.1997835" lon="20.9830531"/>
  <node id="376722279" version="1" timestamp="2009-04-15T16:00:34Z" uid="20587" user="balrog-kun" changeset="561631" lat="52.2031837" lon="20.9480949">
    <tag k="addr:city" v="Warszawa@Warszawa Ochota"/>
    <tag k="addr:housenumber" v="78"/>
    <tag k="addr:street" v="Włodarzewska"/>
    <tag k="source" v="http://ump.waw.pl/ retrieved 11:07:14 02/24/09 (UMP-Warszawa/src/WARSZAWA_OCHOTA.ulice.txt)"/>
  </node>
  <node id="376722279" version="2" timestamp="2011-09-24T10:41:34Z" uid="477744" user="hormel" changeset="9383078" lat="52.2033331" lon="20.9468152">
    <tag k="addr:city" v="Warszawa@Warszawa Ochota"/>
    <tag k="addr:housenumber" v="78"/>
    <tag k="addr:street" v="Włodarzewska"/>
    <tag k="source" v="http://ump.waw.pl/ retrieved 11:07:14 02/24/09 (UMP-Warszawa/src/WARSZAWA_OCHOTA.ulice.txt)"/>
  </node>
  <node id="376722285" version="1" timestamp="2009-04-15T16:00:35Z" uid="20587" user="balrog-kun" changeset="561631" lat="52.1998331" lon="20.9640584">
    <tag k="addr:city" v="Warszawa@Warszawa Ochota"/>
    <tag k="addr:housenumber" v="24"/>
    <tag k="addr:street" v="Lutniowa"/>
    <tag k="source" v="http://ump.waw.pl/ retrieved 11:07:14 02/24/09 (UMP-Warszawa/src/WARSZAWA_OCHOTA.ulice.txt)"/>
  </node>
  <node id="376722291" version="1" timestamp="2009-04-15T16:00:35Z" uid="20587" user="balrog-kun" changeset="561631" lat="52.2052399" lon="20.9659626">
    <tag k="addr:city" v="Warszawa@Warszawa Ochota"/>
    <tag k="addr:housenumber" v="3"/>
    <tag k="addr:street" v="Urbanistów"/>
    <tag k="source" v="http://ump.waw.pl/ retrieved 11:07:14 02/24/09 (UMP-Warszawa/src/WARSZAWA_OCHOTA.ulice.txt)"/>
  </node>
  <node id="376722291" version="2" timestamp="2010-12-04T04:20:13Z" uid="20587" user="balrog-kun" changeset="6534205" lat="52.2052399" lon="20.9659626">
    <tag k="addr:city" v="Warszawa@Warszawa Ochota"/>
    <tag k="addr:housenumber" v="3"/>
    <tag k="addr:street" v="Urbanistów"/>
    <tag k="source" v="http://ump.waw.pl/ retrieved 11:07:14 02/24/09 (UMP-Warszawa/src/WARSZAWA_OCHOTA.ulice.txt)"/>
  </node>
  <node id="376722297" version="1" timestamp="2009-04-15T16:00:35Z" uid="20587" user="balrog-kun" changeset="561631" lat="52.1998093" lon="20.964732">
    <tag k="addr:city" v="Warszawa@Warszawa Ochota"/>
    <tag k="addr:housenumber" v="21"/>
    <tag k="addr:street" v="Lutniowa"/>
    <tag k="source" v="http://ump.waw.pl/ retrieved 11:07:14 02/24/09 (UMP-Warszawa/src/WARSZAWA_OCHOTA.ulice.txt)"/>
  </node>
  <node id="376722297" version="2" timestamp="2009-05-13T18:31:59Z" uid="20587" user="balrog-kun" changeset="1178274" lat="52.1999012" lon="20.964777">
    <tag k="addr:city" v="Warszawa@Warszawa Ochota"/>
    <tag k="addr:housenumber" v="21"/>
    <tag k="addr:street" v="Lutniowa"/>
    <tag k="source" v="http://ump.waw.pl/ retrieved 11:07:14 02/24/09 (UMP-Warszawa/src/WARSZAWA_OCHOTA.ulice.txt)"/>
  </node>
  <node id="376722309" version="1" timestamp="2009-04-15T16:00:36Z" uid="20587" user="balrog-kun" changeset="561631" lat="52.2001549" lon="20.9529556">
    <tag k="addr:city" v="Warszawa@Warszawa Ochota"/>
    <tag k="addr:housenumber" v="5"/>
    <tag k="addr:street" v="Drygały"/>
    <tag k="source" v="http://ump.waw.pl/ retrieved 11:07:14 02/24/09 (UMP-Warszawa/src/WARSZAWA_OCHOTA.ulice.txt)"/>
  </node>
  <node id="376722326" version="1" timestamp="2009-04-15T16:00:37Z" uid="20587" user="balrog-kun" changeset="561631" lat="52.2045191" lon="20.9452418">
    <tag k="addr:city" v="Warszawa@Warszawa Ochota"/>
    <tag k="addr:housenumber" v="11"/>
    <tag k="addr:street" v="Zadumana"/>
    <tag k="note" v="TODO"/>
    <tag k="source" v="http://ump.waw.pl/ retrieved 11:07:14 02/24/09 (UMP-Warszawa/src/WARSZAWA_OCHOTA.ulice.txt)"/>
  </node>
  <node id="376722343" version="1" timestamp="2009-04-15T16:00:38Z" uid="20587" user="balrog-kun" changeset="561631" lat="52.1989388" lon="20.9639597">
    <tag k="addr:city" v="Warszawa@Warszawa Ochota"/>
    <tag k="addr:housenumber" v="23"/>
    <tag k="addr:street" v="Lutniowa"/>
    <tag k="source" v="http://ump.waw.pl/ retrieved 11:07:14 02/24/09 (UMP-Warszawa/src/WARSZAWA_OCHOTA.ulice.txt)"/>
  </node>
  <node id="376722343" version="2" timestamp="2009-05-13T18:32:01Z" uid="20587" user="balrog-kun" changeset="1178274" lat="52.199588" lon="20.9645043">
    <tag k="addr:city" v="Warszawa@Warszawa Ochota"/>
    <tag k="addr:housenumber" v="23"/>
    <tag k="addr:street" v="Lutniowa"/>
    <tag k="source" v="http://ump.waw.pl/ retrieved 11:07:14 02/24/09 (UMP-Warszawa/src/WARSZAWA_OCHOTA.ulice.txt)"/>
  </node>
  <node id="376722361" version="1" timestamp="2009-04-15T16:00:39Z" uid="20587" user="balrog-kun" changeset="561631" lat="52.2034096" lon="20.9673614">
    <tag k="addr:city" v="Warszawa@Warszawa Ochota"/>
    <tag k="addr:housenumber" v="40"/>
    <tag k="addr:street" v="Korotyńskiego"/>
    <tag k="source" v="http://ump.waw.pl/ retrieved 11:07:14 02/24/09 (UMP-Warszawa/src/WARSZAWA_OCHOTA.ulice.txt)"/>
  </node>
  <node id="376722361" version="2" timestamp="2010-12-04T04:20:11Z" uid="20587" user="balrog-kun" changeset="6534205" lat="52.2034096" lon="20.9673614">
    <tag k="addr:city" v="Warszawa@Warszawa Ochota"/>
    <tag k="addr:housenumber" v="40"/>
    <tag k="addr:street" v="Korotyńskiego"/>
    <tag k="source" v="http://ump.waw.pl/ retrieved 11:07:14 02/24/09 (UMP-Warszawa/src/WARSZAWA_OCHOTA.ulice.txt)"/>
  </node>
  <node id="376722377" version="1" timestamp="2009-04-15T16:00:40Z" uid="20587" user="balrog-kun" changeset="561631" lat="52.2015797" lon="20.9623712">
    <tag k="addr:city" v="Warszawa@Warszawa Ochota"/>
    <tag k="addr:housenumber" v="33"/>
    <tag k="addr:street" v="Lirowa"/>
    <tag k="source" v="http://ump.waw.pl/ retrieved 11:07:14 02/24/09 (UMP-Warszawa/src/WARSZAWA_OCHOTA.ulice.txt)"/>
  </node>
  <node id="376722388" version="1" timestamp="2009-04-15T16:00:41Z" uid="20587" user="balrog-kun" changeset="561631" lat="52.1986419" lon="20.9820053">
    <tag k="addr:city" v="Warszawa@Warszawa Ochota"/>
    <tag k="addr:housenumber" v="142"/>
    <tag k="addr:street" v="Racławicka"/>
    <tag k="source" v="http://ump.waw.pl/ retrieved 11:07:14 02/24/09 (UMP-Warszawa/src/WARSZAWA_OCHOTA.ulice.txt)"/>
  </node>
  <node id="376722388" version="2" timestamp="2011-08-13T23:16:28Z" uid="100448" user="kietlak" changeset="9010744" lat="52.1986419" lon="20.9820053"/>
  <node id="376722403" version="1" timestamp="2009-04-15T16:00:42Z" uid="20587" user="balrog-kun" changeset="561631" lat="52.2035499" lon="20.9552792">
    <tag k="addr:city" v="Warszawa@Warszawa Ochota"/>
    <tag k="addr:housenumber" v="16"/>
    <tag k="addr:street" v="Przy Parku"/>
    <tag k="source" v="http://ump.waw.pl/ retrieved 11:07:14 02/24/09 (UMP-Warszawa/src/WARSZAWA_OCHOTA.ulice.txt)"/>
  </node>
  <node id="376722414" version="1" timestamp="2009-04-15T16:00:42Z" uid="20587" user="balrog-kun" changeset="561631" lat="52.2024968" lon="20.9545138">
    <tag k="addr:city" v="Warszawa@Warszawa Ochota"/>
    <tag k="addr:housenumber" v="60"/>
    <tag k="addr:street" v="Włodarzewska"/>
    <tag k="source" v="http://ump.waw.pl/ retrieved 11:07:14 02/24/09 (UMP-Warszawa/src/WARSZAWA_OCHOTA.ulice.txt)"/>
  </node>
  <node id="376722414" version="2" timestamp="2011-09-24T10:41:35Z" uid="477744" user="hormel" changeset="9383078" lat="52.2024516" lon="20.9544839">
    <tag k="addr:city" v="Warszawa@Warszawa Ochota"/>
    <tag k="addr:housenumber" v="60"/>
    <tag k="addr:street" v="Włodarzewska"/>
    <tag k="source" v="http://ump.waw.pl/ retrieved 11:07:14 02/24/09 (UMP-Warszawa/src/WARSZAWA_OCHOTA.ulice.txt)"/>
  </node>
  <node id="376722424" version="1" timestamp="2009-04-15T16:00:43Z" uid="20587" user="balrog-kun" changeset="561631" lat="52.1971933" lon="20.9804136">
    <tag k="addr:city" v="Warszawa@Warszawa Ochota"/>
    <tag k="addr:housenumber" v="6"/>
    <tag k="addr:street" v="Baleya"/>
    <tag k="source" v="http://ump.waw.pl/ retrieved 11:07:14 02/24/09 (UMP-Warszawa/src/WARSZAWA_OCHOTA.ulice.txt)"/>
  </node>
  <node id="376722424" version="2" timestamp="2011-08-13T23:16:29Z" uid="100448" user="kietlak" changeset="9010744" lat="52.1971933" lon="20.9804136"/>
  <node id="376722437" version="1" timestamp="2009-04-15T16:00:44Z" uid="20587" user="balrog-kun" changeset="561631" lat="52.1982238" lon="20.9811954">
    <tag k="addr:city" v="Warszawa@Warszawa Ochota"/>
    <tag k="addr:housenumber" v="129"/>
    <tag k="addr:street" v="Racławicka"/>
    <tag k="source" v="http://ump.waw.pl/ retrieved 11:07:14 02/24/09 (UMP-Warszawa/src/WARSZAWA_OCHOTA.ulice.txt)"/>
  </node>
  <node id="376722437" version="2" timestamp="2011-08-13T23:16:28Z" uid="100448" user="kietlak" changeset="9010744" lat="52.1982238" lon="20.9811954"/>
  <node id="376722447" version="1" timestamp="2009-04-15T16:00:44Z" uid="20587" user="balrog-kun" changeset="561631" lat="52.197515" lon="20.9731042">
    <tag k="addr:city" v="Warszawa@Warszawa Ochota"/>
    <tag k="addr:housenumber" v="3"/>
    <tag k="addr:street" v="Sąchocka"/>
    <tag k="source" v="http://ump.waw.pl/ retrieved 11:07:14 02/24/09 (UMP-Warszawa/src/WARSZAWA_OCHOTA.ulice.txt)"/>
  </node>
  <node id="376722447" version="2" timestamp="2012-01-25T12:26:09Z" uid="99386" user="masti" changeset="10493143" lat="52.197515" lon="20.9731042"/>
  <node id="376722462" version="1" timestamp="2009-04-15T16:00:45Z" uid="20587" user="balrog-kun" changeset="561631" lat="52.2012658" lon="20.9750339">
    <tag k="addr:city" v="Warszawa@Warszawa Ochota"/>
    <tag k="addr:housenumber" v="24"/>
    <tag k="addr:street" v="Korotyńskiego"/>
    <tag k="source" v="http://ump.waw.pl/ retrieved 11:07:14 02/24/09 (UMP-Warszawa/src/WARSZAWA_OCHOTA.ulice.txt)"/>
  </node>
  <node id="376722462" version="2" timestamp="2011-12-03T09:15:03Z" uid="441027" user="muzzy" changeset="10022896" lat="52.2012658" lon="20.9750339">
    <tag k="addr:city" v="Warszawa@Warszawa Ochota"/>
    <tag k="addr:housenumber" v="24"/>
    <tag k="addr:street" v="Władysława Korotyńskiego"/>
    <tag k="source" v="http://ump.waw.pl/ retrieved 11:07:14 02/24/09 (UMP-Warszawa/src/WARSZAWA_OCHOTA.ulice.txt)"/>
  </node>
  <node id="376722478" version="1" timestamp="2009-04-15T16:00:46Z" uid="20587" user="balrog-kun" changeset="561631" lat="52.20096" lon="20.9625778">
    <tag k="addr:city" v="Warszawa@Warszawa Ochota"/>
    <tag k="addr:housenumber" v="27"/>
    <tag k="addr:street" v="Lirowa"/>
    <tag k="source" v="http://ump.waw.pl/ retrieved 11:07:14 02/24/09 (UMP-Warszawa/src/WARSZAWA_OCHOTA.ulice.txt)"/>
  </node>
  <node id="376722492" version="1" timestamp="2009-04-15T16:00:46Z" uid="20587" user="balrog-kun" changeset="561631" lat="52.1980159" lon="20.9731945">
    <tag k="addr:city" v="Warszawa@Warszawa Ochota"/>
    <tag k="addr:housenumber" v="5"/>
    <tag k="addr:street" v="Sąchocka"/>
    <tag k="source" v="http://ump.waw.pl/ retrieved 11:07:14 02/24/09 (UMP-Warszawa/src/WARSZAWA_OCHOTA.ulice.txt)"/>
  </node>
  <node id="376722492" version="2" timestamp="2012-01-25T12:32:55Z" uid="99386" user="masti" changeset="10493191" lat="52.1980159" lon="20.9731945"/>
  <node id="376722506" version="1" timestamp="2009-04-15T16:00:47Z" uid="20587" user="balrog-kun" changeset="561631" lat="52.19967" lon="20.9754702">
    <tag k="addr:city" v="Warszawa@Warszawa Ochota"/>
    <tag k="addr:housenumber" v="2"/>
    <tag k="addr:street" v="Bohdanowicza"/>
    <tag k="source" v="http://ump.waw.pl/ retrieved 11:07:14 02/24/09 (UMP-Warszawa/src/WARSZAWA_OCHOTA.ulice.txt)"/>
  </node>
  <node id="376722506" version="2" timestamp="2011-12-03T09:14:55Z" uid="441027" user="muzzy" changeset="10022896" lat="52.19967" lon="20.9754702">
    <tag k="addr:city" v="Warszawa@Warszawa Ochota"/>
    <tag k="addr:housenumber" v="2"/>
    <tag k="addr:street" v="Karola Bohdanowicza"/>
    <tag k="source" v="http://ump.waw.pl/ retrieved 11:07:14 02/24/09 (UMP-Warszawa/src/WARSZAWA_OCHOTA.ulice.txt)"/>
  </node>
  <node id="376722506" version="3" timestamp="2012-01-25T15:25:39Z" uid="99386" user="masti" changeset="10494606" lat="52.19967" lon="20.9754702"/>
  <node id="376722527" version="1" timestamp="2009-04-15T16:00:47Z" uid="20587" user="balrog-kun" changeset="561631" lat="52.1986379" lon="20.9814653">
    <tag k="addr:city" v="Warszawa@Warszawa Ochota"/>
    <tag k="addr:housenumber" v="144"/>
    <tag k="addr:street" v="Racławicka"/>
    <tag k="source" v="http://ump.waw.pl/ retrieved 11:07:14 02/24/09 (UMP-Warszawa/src/WARSZAWA_OCHOTA.ulice.txt)"/>
  </node>
  <node id="376722527" version="2" timestamp="2011-08-13T23:16:28Z" uid="100448" user="kietlak" changeset="9010744" lat="52.1986379" lon="20.9814653"/>
  <node id="376722561" version="1" timestamp="2009-04-15T16:00:49Z" uid="20587" user="balrog-kun" changeset="561631" lat="52.1958541" lon="20.9779325">
    <tag k="addr:city" v="Warszawa@Warszawa Ochota"/>
    <tag k="addr:housenumber" v="6"/>
    <tag k="addr:street" v="Gorlicka"/>
    <tag k="source" v="http://ump.waw.pl/ retrieved 11:07:14 02/24/09 (UMP-Warszawa/src/WARSZAWA_OCHOTA.ulice.txt)"/>
  </node>
  <node id="376722561" version="2" timestamp="2012-01-25T11:55:08Z" uid="99386" user="masti" changeset="10492881" lat="52.1958541" lon="20.9779325"/>
  <node id="376722583" version="1" timestamp="2009-04-15T16:00:50Z" uid="20587" user="balrog-kun" changeset="561631" lat="52.1992664" lon="20.9828612">
    <tag k="addr:city" v="Warszawa@Warszawa Ochota"/>
    <tag k="addr:housenumber" v="3"/>
    <tag k="addr:street" v="Korotyńskiego"/>
    <tag k="source" v="http://ump.waw.pl/ retrieved 11:07:14 02/24/09 (UMP-Warszawa/src/WARSZAWA_OCHOTA.ulice.txt)"/>
  </node>
  <node id="376722583" version="2" timestamp="2011-08-13T23:16:28Z" uid="100448" user="kietlak" changeset="9010744" lat="52.1992664" lon="20.9828612"/>
  <node id="376722599" version="1" timestamp="2009-04-15T16:00:50Z" uid="20587" user="balrog-kun" changeset="561631" lat="52.2030521" lon="20.9453452">
    <tag k="addr:city" v="Warszawa@Warszawa Ochota"/>
    <tag k="addr:housenumber" v="95"/>
    <tag k="addr:street" v="Włodarzewska"/>
    <tag k="source" v="http://ump.waw.pl/ retrieved 11:07:14 02/24/09 (UMP-Warszawa/src/WARSZAWA_OCHOTA.ulice.txt)"/>
  </node>
  <node id="376722599" version="2" timestamp="2011-09-24T10:41:35Z" uid="477744" user="hormel" changeset="9383078" lat="52.2030567" lon="20.9451127">
    <tag k="addr:city" v="Warszawa@Warszawa Ochota"/>
    <tag k="addr:housenumber" v="95"/>
    <tag k="addr:street" v="Włodarzewska"/>
    <tag k="source" v="http://ump.waw.pl/ retrieved 11:07:14 02/24/09 (UMP-Warszawa/src/WARSZAWA_OCHOTA.ulice.txt)"/>
  </node>
  <node id="376722618" version="1" timestamp="2009-04-15T16:00:51Z" uid="20587" user="balrog-kun" changeset="561631" lat="52.1990791" lon="20.9695641">
    <tag k="addr:city" v="Warszawa@Warszawa Ochota"/>
    <tag k="addr:housenumber" v="156"/>
    <tag k="addr:street" v="Racławicka"/>
    <tag k="source" v="http://ump.waw.pl/ retrieved 11:07:14 02/24/09 (UMP-Warszawa/src/WARSZAWA_OCHOTA.ulice.txt)"/>
  </node>
  <node id="376722618" version="2" timestamp="2012-01-25T15:25:38Z" uid="99386" user="masti" changeset="10494606" lat="52.1990791" lon="20.9695641"/>
  <node id="376722631" version="1" timestamp="2009-04-15T16:00:51Z" uid="20587" user="balrog-kun" changeset="561631" lat="52.1988989" lon="20.9705905">
    <tag k="addr:city" v="Warszawa@Warszawa Ochota"/>
    <tag k="addr:housenumber" v="154"/>
    <tag k="addr:street" v="Racławicka"/>
    <tag k="source" v="http://ump.waw.pl/ retrieved 11:07:14 02/24/09 (UMP-Warszawa/src/WARSZAWA_OCHOTA.ulice.txt)"/>
  </node>
  <node id="376722631" version="2" timestamp="2012-01-25T15:25:38Z" uid="99386" user="masti" changeset="10494606" lat="52.1988989" lon="20.9705905"/>
  <node id="376722644" version="1" timestamp="2009-04-15T16:00:52Z" uid="20587" user="balrog-kun" changeset="561631" lat="52.2040296" lon="20.9686365">
    <tag k="addr:city" v="Warszawa@Warszawa Ochota"/>
    <tag k="addr:housenumber" v="4"/>
    <tag k="addr:street" v="Geodetów"/>
    <tag k="source" v="http://ump.waw.pl/ retrieved 11:07:14 02/24/09 (UMP-Warszawa/src/WARSZAWA_OCHOTA.ulice.txt)"/>
  </node>
  <node id="376722644" version="2" timestamp="2010-09-03T10:53:28Z" uid="341573" user="ppanek" changeset="5669612" lat="52.2040296" lon="20.9686365">
    <tag k="addr:city" v="Warszawa@Warszawa Ochota"/>
    <tag k="addr:housenumber" v="4"/>
    <tag k="addr:street" v="Geodetów"/>
    <tag k="source" v="http://ump.waw.pl/ retrieved 11:07:14 02/24/09 (UMP-Warszawa/src/WARSZAWA_OCHOTA.ulice.txt)"/>
  </node>
  <node id="376722644" version="3" timestamp="2010-12-04T04:20:13Z" uid="20587" user="balrog-kun" changeset="6534205" lat="52.2040296" lon="20.9686365">
    <tag k="addr:city" v="Warszawa@Warszawa Ochota"/>
    <tag k="addr:housenumber" v="4"/>
    <tag k="addr:street" v="Geodetów"/>
    <tag k="source" v="http://ump.waw.pl/ retrieved 11:07:14 02/24/09 (UMP-Warszawa/src/WARSZAWA_OCHOTA.ulice.txt)"/>
  </node>
  <node id="376722659" version="1" timestamp="2009-04-15T16:00:52Z" uid="20587" user="balrog-kun" changeset="561631" lat="52.2010312" lon="20.9617628">
    <tag k="addr:city" v="Warszawa@Warszawa Ochota"/>
    <tag k="addr:housenumber" v="5"/>
    <tag k="addr:street" v="Altowa"/>
    <tag k="source" v="http://ump.waw.pl/ retrieved 11:07:14 02/24/09 (UMP-Warszawa/src/WARSZAWA_OCHOTA.ulice.txt)"/>
  </node>
  <node id="376722669" version="1" timestamp="2009-04-15T16:00:52Z" uid="20587" user="balrog-kun" changeset="561631" lat="52.2019967" lon="20.9647343">
    <tag k="addr:city" v="Warszawa@Warszawa Ochota"/>
    <tag k="addr:housenumber" v="12"/>
    <tag k="addr:street" v="Włodarzewska"/>
    <tag k="source" v="http://ump.waw.pl/ retrieved 11:07:14 02/24/09 (UMP-Warszawa/src/WARSZAWA_OCHOTA.ulice.txt)"/>
  </node>
  <node id="376722681" version="1" timestamp="2009-04-15T16:00:52Z" uid="20587" user="balrog-kun" changeset="561631" lat="52.2031113" lon="20.9488863">
    <tag k="addr:city" v="Warszawa@Warszawa Ochota"/>
    <tag k="addr:housenumber" v="76"/>
    <tag k="addr:street" v="Włodarzewska"/>
    <tag k="source" v="http://ump.waw.pl/ retrieved 11:07:14 02/24/09 (UMP-Warszawa/src/WARSZAWA_OCHOTA.ulice.txt)"/>
  </node>
  <node id="376722681" version="2" timestamp="2011-09-24T10:41:34Z" uid="477744" user="hormel" changeset="9383078" lat="52.2032118" lon="20.9478146">
    <tag k="addr:city" v="Warszawa@Warszawa Ochota"/>
    <tag k="addr:housenumber" v="76"/>
    <tag k="addr:street" v="Włodarzewska"/>
    <tag k="source" v="http://ump.waw.pl/ retrieved 11:07:14 02/24/09 (UMP-Warszawa/src/WARSZAWA_OCHOTA.ulice.txt)"/>
  </node>
  <node id="376722693" version="1" timestamp="2009-04-15T16:00:53Z" uid="20587" user="balrog-kun" changeset="561631" lat="52.1971897" lon="20.9818997">
    <tag k="addr:city" v="Warszawa@Warszawa Ochota"/>
    <tag k="addr:housenumber" v="2"/>
    <tag k="addr:street" v="Baleya"/>
    <tag k="source" v="http://ump.waw.pl/ retrieved 11:07:14 02/24/09 (UMP-Warszawa/src/WARSZAWA_OCHOTA.ulice.txt)"/>
  </node>
  <node id="376722693" version="2" timestamp="2011-08-13T23:16:28Z" uid="100448" user="kietlak" changeset="9010744" lat="52.1971897" lon="20.9818997"/>
  <node id="376722705" version="1" timestamp="2009-04-15T16:00:53Z" uid="20587" user="balrog-kun" changeset="561631" lat="52.2026954" lon="20.9556779">
    <tag k="addr:city" v="Warszawa@Warszawa Ochota"/>
    <tag k="addr:housenumber" v="36"/>
    <tag k="addr:street" v="Przy Parku"/>
    <tag k="source" v="http://ump.waw.pl/ retrieved 11:07:14 02/24/09 (UMP-Warszawa/src/WARSZAWA_OCHOTA.ulice.txt)"/>
  </node>
  <node id="376722705" version="2" timestamp="2009-04-15T16:03:57Z" uid="20587" user="balrog-kun" changeset="561631" lat="52.2028396" lon="20.9552746">
    <tag k="addr:city" v="Warszawa@Warszawa Ochota"/>
    <tag k="addr:housenumber" v="36"/>
    <tag k="addr:street" v="Przy Parku"/>
    <tag k="source" v="http://ump.waw.pl/ retrieved 11:07:14 02/24/09 (UMP-Warszawa/src/WARSZAWA_OCHOTA.ulice.txt)"/>
  </node>
  <node id="376722717" version="1" timestamp="2009-04-15T16:00:53Z" uid="20587" user="balrog-kun" changeset="561631" lat="52.1965869" lon="20.9802223">
    <tag k="addr:city" v="Warszawa@Warszawa Ochota"/>
    <tag k="addr:housenumber" v="7"/>
    <tag k="addr:street" v="Jankowska"/>
    <tag k="source" v="http://ump.waw.pl/ retrieved 11:07:14 02/24/09 (UMP-Warszawa/src/WARSZAWA_OCHOTA.ulice.txt)"/>
  </node>
  <node id="376722717" version="2" timestamp="2012-01-25T11:55:08Z" uid="99386" user="masti" changeset="10492881" lat="52.1965869" lon="20.9802223"/>
  <node id="376722730" version="1" timestamp="2009-04-15T16:00:54Z" uid="20587" user="balrog-kun" changeset="561631" lat="52.204835" lon="20.9464578">
    <tag k="addr:city" v="Warszawa@Warszawa Ochota"/>
    <tag k="addr:housenumber" v="3"/>
    <tag k="addr:street" v="Zadumana"/>
    <tag k="source" v="http://ump.waw.pl/ retrieved 11:07:14 02/24/09 (UMP-Warszawa/src/WARSZAWA_OCHOTA.ulice.txt)"/>
  </node>
  <node id="376722740" version="1" timestamp="2009-04-15T16:00:54Z" uid="20587" user="balrog-kun" changeset="561631" lat="52.200122" lon="20.9676183">
    <tag k="addr:city" v="Warszawa@Warszawa Ochota"/>
    <tag k="addr:housenumber" v="127"/>
    <tag k="addr:street" v="Grójecka"/>
    <tag k="source" v="http://ump.waw.pl/ retrieved 11:07:14 02/24/09 (UMP-Warszawa/src/WARSZAWA_OCHOTA.ulice.txt)"/>
  </node>
  <node id="376722740" version="2" timestamp="2009-05-13T18:32:05Z" uid="20587" user="balrog-kun" changeset="1178274" lat="52.200122" lon="20.9676183">
    <tag k="addr:city" v="Warszawa@Warszawa Ochota"/>
    <tag k="addr:housenumber" v="127"/>
    <tag k="addr:street" v="Grójecka"/>
    <tag k="source" v="http://ump.waw.pl/ retrieved 11:07:14 02/24/09 (UMP-Warszawa/src/WARSZAWA_OCHOTA.ulice.txt)"/>
  </node>
  <node id="376722751" version="1" timestamp="2009-04-15T16:00:54Z" uid="20587" user="balrog-kun" changeset="561631" lat="52.2031489" lon="20.9615293">
    <tag k="addr:city" v="Warszawa@Warszawa Ochota"/>
    <tag k="addr:housenumber" v="14"/>
    <tag k="addr:street" v="Usypiskowa"/>
    <tag k="source" v="http://ump.waw.pl/ retrieved 11:07:14 02/24/09 (UMP-Warszawa/src/WARSZAWA_OCHOTA.ulice.txt)"/>
  </node>
  <node id="376722751" version="2" timestamp="2009-04-15T16:03:58Z" uid="20587" user="balrog-kun" changeset="561631" lat="52.2030556" lon="20.9615579">
    <tag k="addr:city" v="Warszawa@Warszawa Ochota"/>
    <tag k="addr:housenumber" v="14"/>
    <tag k="addr:street" v="Usypiskowa"/>
    <tag k="source" v="http://ump.waw.pl/ retrieved 11:07:14 02/24/09 (UMP-Warszawa/src/WARSZAWA_OCHOTA.ulice.txt)"/>
  </node>
  <node id="376722764" version="1" timestamp="2009-04-15T16:00:55Z" uid="20587" user="balrog-kun" changeset="561631" lat="52.2015432" lon="20.9613686">
    <tag k="addr:city" v="Warszawa@Warszawa Ochota"/>
    <tag k="addr:housenumber" v="44"/>
    <tag k="addr:street" v="Włodarzewska"/>
    <tag k="source" v="http://ump.waw.pl/ retrieved 11:07:14 02/24/09 (UMP-Warszawa/src/WARSZAWA_OCHOTA.ulice.txt)"/>
  </node>
  <node id="376722772" version="1" timestamp="2009-04-15T16:00:55Z" uid="20587" user="balrog-kun" changeset="561631" lat="52.1967403" lon="20.98159">
    <tag k="addr:city" v="Warszawa@Warszawa Ochota"/>
    <tag k="addr:housenumber" v="3"/>
    <tag k="addr:street" v="Baleya"/>
    <tag k="source" v="http://ump.waw.pl/ retrieved 11:07:14 02/24/09 (UMP-Warszawa/src/WARSZAWA_OCHOTA.ulice.txt)"/>
  </node>
  <node id="376722772" version="2" timestamp="2011-08-13T23:16:28Z" uid="100448" user="kietlak" changeset="9010744" lat="52.1967403" lon="20.98159"/>
  <node id="376722783" version="1" timestamp="2009-04-15T16:00:55Z" uid="20587" user="balrog-kun" changeset="561631" lat="52.199344" lon="20.9785394">
    <tag k="addr:city" v="Warszawa@Warszawa Ochota"/>
    <tag k="addr:housenumber" v="3"/>
    <tag k="addr:street" v="Bohdanowicza"/>
    <tag k="source" v="http://ump.waw.pl/ retrieved 11:07:14 02/24/09 (UMP-Warszawa/src/WARSZAWA_OCHOTA.ulice.txt)"/>
  </node>
  <node id="376722783" version="2" timestamp="2011-12-03T09:15:10Z" uid="441027" user="muzzy" changeset="10022896" lat="52.199344" lon="20.9785394">
    <tag k="addr:city" v="Warszawa@Warszawa Ochota"/>
    <tag k="addr:housenumber" v="3"/>
    <tag k="addr:street" v="Karola Bohdanowicza"/>
    <tag k="source" v="http://ump.waw.pl/ retrieved 11:07:14 02/24/09 (UMP-Warszawa/src/WARSZAWA_OCHOTA.ulice.txt)"/>
  </node>
  <node id="376722794" version="1" timestamp="2009-04-15T16:00:55Z" uid="20587" user="balrog-kun" changeset="561631" lat="52.1955883" lon="20.9770383">
    <tag k="addr:city" v="Warszawa@Warszawa Ochota"/>
    <tag k="addr:housenumber" v="7"/>
    <tag k="addr:street" v="Gorlicka"/>
    <tag k="source" v="http://ump.waw.pl/ retrieved 11:07:14 02/24/09 (UMP-Warszawa/src/WARSZAWA_OCHOTA.ulice.txt)"/>
  </node>
  <node id="376722794" version="2" timestamp="2012-01-25T12:16:52Z" uid="99386" user="masti" changeset="10493077" lat="52.1955883" lon="20.9770383"/>
  <node id="376722804" version="1" timestamp="2009-04-15T16:00:56Z" uid="20587" user="balrog-kun" changeset="561631" lat="52.204108" lon="20.9670723">
    <tag k="addr:city" v="Warszawa@Warszawa Ochota"/>
    <tag k="addr:housenumber" v="3"/>
    <tag k="addr:street" v="Powstańców Wielkopolskich"/>
    <tag k="source" v="http://ump.waw.pl/ retrieved 11:07:14 02/24/09 (UMP-Warszawa/src/WARSZAWA_OCHOTA.ulice.txt)"/>
  </node>
  <node id="376722804" version="2" timestamp="2010-12-04T04:20:12Z" uid="20587" user="balrog-kun" changeset="6534205" lat="52.204108" lon="20.9670723">
    <tag k="addr:city" v="Warszawa@Warszawa Ochota"/>
    <tag k="addr:housenumber" v="3"/>
    <tag k="addr:street" v="Powstańców Wielkopolskich"/>
    <tag k="source" v="http://ump.waw.pl/ retrieved 11:07:14 02/24/09 (UMP-Warszawa/src/WARSZAWA_OCHOTA.ulice.txt)"/>
  </node>
  <node id="376722817" version="1" timestamp="2009-04-15T16:00:56Z" uid="20587" user="balrog-kun" changeset="561631" lat="52.1951125" lon="20.9797869">
    <tag k="addr:city" v="Warszawa@Warszawa Ochota"/>
    <tag k="addr:housenumber" v="1"/>
    <tag k="addr:street" v="Gorlicka"/>
    <tag k="source" v="http://ump.waw.pl/ retrieved 11:07:14 02/24/09 (UMP-Warszawa/src/WARSZAWA_OCHOTA.ulice.txt)"/>
  </node>
  <node id="376722817" version="2" timestamp="2012-01-25T11:55:08Z" uid="99386" user="masti" changeset="10492881" lat="52.1951125" lon="20.9797869"/>
  <node id="376722828" version="1" timestamp="2009-04-15T16:00:56Z" uid="20587" user="balrog-kun" changeset="561631" lat="52.1960174" lon="20.9767637">
    <tag k="addr:city" v="Warszawa@Warszawa Ochota"/>
    <tag k="addr:housenumber" v="4"/>
    <tag k="addr:street" v="Mołdawska"/>
    <tag k="source" v="http://ump.waw.pl/ retrieved 11:07:14 02/24/09 (UMP-Warszawa/src/WARSZAWA_OCHOTA.ulice.txt)"/>
  </node>
  <node id="376722828" version="2" timestamp="2012-01-25T11:55:08Z" uid="99386" user="masti" changeset="10492881" lat="52.1960174" lon="20.9767637"/>
  <node id="376722839" version="1" timestamp="2009-04-15T16:00:57Z" uid="20587" user="balrog-kun" changeset="561631" lat="52.1970353" lon="20.9780619">
    <tag k="addr:city" v="Warszawa@Warszawa Ochota"/>
    <tag k="addr:housenumber" v="9"/>
    <tag k="addr:street" v="Baleya"/>
    <tag k="source" v="http://ump.waw.pl/ retrieved 11:07:14 02/24/09 (UMP-Warszawa/src/WARSZAWA_OCHOTA.ulice.txt)"/>
  </node>
  <node id="376722839" version="2" timestamp="2011-08-13T23:16:29Z" uid="100448" user="kietlak" changeset="9010744" lat="52.1970353" lon="20.9780619"/>
  <node id="376722855" version="1" timestamp="2009-04-15T16:00:57Z" uid="20587" user="balrog-kun" changeset="561631" lat="52.2048063" lon="20.9668783">
    <tag k="addr:city" v="Warszawa@Warszawa Ochota"/>
    <tag k="addr:housenumber" v="7"/>
    <tag k="addr:street" v="Powstańców Wielkopolskich"/>
    <tag k="source" v="http://ump.waw.pl/ retrieved 11:07:14 02/24/09 (UMP-Warszawa/src/WARSZAWA_OCHOTA.ulice.txt)"/>
  </node>
  <node id="376722855" version="2" timestamp="2010-12-04T04:20:11Z" uid="20587" user="balrog-kun" changeset="6534205" lat="52.2048063" lon="20.9668783">
    <tag k="addr:city" v="Warszawa@Warszawa Ochota"/>
    <tag k="addr:housenumber" v="7"/>
    <tag k="addr:street" v="Powstańców Wielkopolskich"/>
    <tag k="source" v="http://ump.waw.pl/ retrieved 11:07:14 02/24/09 (UMP-Warszawa/src/WARSZAWA_OCHOTA.ulice.txt)"/>
  </node>
  <node id="376722867" version="1" timestamp="2009-04-15T16:00:57Z" uid="20587" user="balrog-kun" changeset="561631" lat="52.2024907" lon="20.9682867">
    <tag k="addr:city" v="Warszawa@Warszawa Ochota"/>
    <tag k="addr:housenumber" v="132"/>
    <tag k="addr:street" v="Grójecka"/>
    <tag k="source" v="http://ump.waw.pl/ retrieved 11:07:14 02/24/09 (UMP-Warszawa/src/WARSZAWA_OCHOTA.ulice.txt)"/>
  </node>
  <node id="376722883" version="1" timestamp="2009-04-15T16:00:58Z" uid="20587" user="balrog-kun" changeset="561631" lat="52.1936911" lon="20.9815257">
    <tag k="addr:city" v="Warszawa@Warszawa Ochota"/>
    <tag k="addr:housenumber" v="25"/>
    <tag k="addr:street" v="Żwirki i Wigury"/>
    <tag k="source" v="http://ump.waw.pl/ retrieved 11:07:14 02/24/09 (UMP-Warszawa/src/WARSZAWA_OCHOTA.ulice.txt)"/>
  </node>
  <node id="376722892" version="1" timestamp="2009-04-15T16:00:58Z" uid="20587" user="balrog-kun" changeset="561631" lat="52.2015217" lon="20.9800276">
    <tag k="addr:city" v="Warszawa@Warszawa Ochota"/>
    <tag k="addr:housenumber" v="13"/>
    <tag k="addr:street" v="Pruszkowska"/>
    <tag k="source" v="http://ump.waw.pl/ retrieved 11:07:14 02/24/09 (UMP-Warszawa/src/WARSZAWA_OCHOTA.ulice.txt)"/>
  </node>
  <node id="376722903" version="1" timestamp="2009-04-15T16:00:58Z" uid="20587" user="balrog-kun" changeset="561631" lat="52.2016997" lon="20.9614492">
    <tag k="addr:city" v="Warszawa@Warszawa Ochota"/>
    <tag k="addr:housenumber" v="1"/>
    <tag k="addr:street" v="Usypiskowa"/>
    <tag k="source" v="http://ump.waw.pl/ retrieved 11:07:14 02/24/09 (UMP-Warszawa/src/WARSZAWA_OCHOTA.ulice.txt)"/>
  </node>
  <node id="376722912" version="1" timestamp="2009-04-15T16:00:58Z" uid="20587" user="balrog-kun" changeset="561631" lat="52.2013694" lon="20.9738119">
    <tag k="addr:city" v="Warszawa@Warszawa Ochota"/>
    <tag k="addr:housenumber" v="26"/>
    <tag k="addr:street" v="Korotyńskiego"/>
    <tag k="source" v="http://ump.waw.pl/ retrieved 11:07:14 02/24/09 (UMP-Warszawa/src/WARSZAWA_OCHOTA.ulice.txt)"/>
  </node>
  <node id="376722912" version="2" timestamp="2011-12-03T09:15:05Z" uid="441027" user="muzzy" changeset="10022896" lat="52.2013694" lon="20.9738119">
    <tag k="addr:city" v="Warszawa@Warszawa Ochota"/>
    <tag k="addr:housenumber" v="26"/>
    <tag k="addr:street" v="Władysława Korotyńskiego"/>
    <tag k="source" v="http://ump.waw.pl/ retrieved 11:07:14 02/24/09 (UMP-Warszawa/src/WARSZAWA_OCHOTA.ulice.txt)"/>
  </node>
  <node id="376722925" version="1" timestamp="2009-04-15T16:00:58Z" uid="20587" user="balrog-kun" changeset="561631" lat="52.2012277" lon="20.9635132">
    <tag k="addr:city" v="Warszawa@Warszawa Ochota"/>
    <tag k="addr:housenumber" v="29"/>
    <tag k="addr:street" v="Włodarzewska"/>
    <tag k="source" v="http://ump.waw.pl/ retrieved 11:07:14 02/24/09 (UMP-Warszawa/src/WARSZAWA_OCHOTA.ulice.txt)"/>
  </node>
  <node id="376722934" version="1" timestamp="2009-04-15T16:00:58Z" uid="20587" user="balrog-kun" changeset="561631" lat="52.2009131" lon="20.9631078">
    <tag k="addr:city" v="Warszawa@Warszawa Ochota"/>
    <tag k="addr:housenumber" v="22"/>
    <tag k="addr:street" v="Lirowa"/>
    <tag k="source" v="http://ump.waw.pl/ retrieved 11:07:14 02/24/09 (UMP-Warszawa/src/WARSZAWA_OCHOTA.ulice.txt)"/>
  </node>
  <node id="376722947" version="1" timestamp="2009-04-15T16:00:59Z" uid="20587" user="balrog-kun" changeset="561631" lat="52.2005382" lon="20.9512681">
    <tag k="addr:city" v="Warszawa@Warszawa Ochota"/>
    <tag k="addr:housenumber" v="1"/>
    <tag k="addr:street" v="Maszynowa"/>
    <tag k="source" v="http://ump.waw.pl/ retrieved 11:07:14 02/24/09 (UMP-Warszawa/src/WARSZAWA_OCHOTA.ulice.txt)"/>
  </node>
  <node id="376722959" version="1" timestamp="2009-04-15T16:00:59Z" uid="20587" user="balrog-kun" changeset="561631" lat="52.1972314" lon="20.9758053">
    <tag k="addr:city" v="Warszawa@Warszawa Ochota"/>
    <tag k="addr:housenumber" v="6"/>
    <tag k="addr:street" v="Okińskiego"/>
    <tag k="source" v="http://ump.waw.pl/ retrieved 11:07:14 02/24/09 (UMP-Warszawa/src/WARSZAWA_OCHOTA.ulice.txt)"/>
  </node>
  <node id="376722959" version="2" timestamp="2011-12-03T09:15:36Z" uid="441027" user="muzzy" changeset="10022896" lat="52.1972314" lon="20.9758053">
    <tag k="addr:city" v="Warszawa@Warszawa Ochota"/>
    <tag k="addr:housenumber" v="6"/>
    <tag k="addr:street" v="Władysława Okińskiego"/>
    <tag k="source" v="http://ump.waw.pl/ retrieved 11:07:14 02/24/09 (UMP-Warszawa/src/WARSZAWA_OCHOTA.ulice.txt)"/>
  </node>
  <node id="376722959" version="3" timestamp="2012-01-25T12:37:06Z" uid="99386" user="masti" changeset="10493238" lat="52.1972314" lon="20.9758053"/>
  <node id="376722971" version="1" timestamp="2009-04-15T16:00:59Z" uid="20587" user="balrog-kun" changeset="561631" lat="52.2015527" lon="20.962947">
    <tag k="addr:city" v="Warszawa@Warszawa Ochota"/>
    <tag k="addr:housenumber" v="32"/>
    <tag k="addr:street" v="Lirowa"/>
    <tag k="source" v="http://ump.waw.pl/ retrieved 11:07:14 02/24/09 (UMP-Warszawa/src/WARSZAWA_OCHOTA.ulice.txt)"/>
  </node>
  <node id="376722985" version="1" timestamp="2009-04-15T16:01:00Z" uid="20587" user="balrog-kun" changeset="561631" lat="52.1967648" lon="20.976459">
    <tag k="addr:city" v="Warszawa@Warszawa Ochota"/>
    <tag k="addr:housenumber" v="1"/>
    <tag k="addr:street" v="Okińskiego"/>
    <tag k="source" v="http://ump.waw.pl/ retrieved 11:07:14 02/24/09 (UMP-Warszawa/src/WARSZAWA_OCHOTA.ulice.txt)"/>
  </node>
  <node id="376722985" version="2" timestamp="2011-12-03T09:14:29Z" uid="441027" user="muzzy" changeset="10022896" lat="52.1967648" lon="20.976459">
    <tag k="addr:city" v="Warszawa@Warszawa Ochota"/>
    <tag k="addr:housenumber" v="1"/>
    <tag k="addr:street" v="Władysława Okińskiego"/>
    <tag k="source" v="http://ump.waw.pl/ retrieved 11:07:14 02/24/09 (UMP-Warszawa/src/WARSZAWA_OCHOTA.ulice.txt)"/>
  </node>
  <node id="376722985" version="3" timestamp="2012-01-25T12:10:35Z" uid="99386" user="masti" changeset="10493030" lat="52.1967648" lon="20.976459"/>
  <node id="376722993" version="1" timestamp="2009-04-15T16:01:00Z" uid="20587" user="balrog-kun" changeset="561631" lat="52.1979216" lon="20.96349">
    <tag k="addr:city" v="Warszawa@Warszawa Ochota"/>
    <tag k="addr:housenumber" v="7"/>
    <tag k="addr:street" v="Lirowa"/>
    <tag k="source" v="http://ump.waw.pl/ retrieved 11:07:14 02/24/09 (UMP-Warszawa/src/WARSZAWA_OCHOTA.ulice.txt)"/>
  </node>
  <node id="376723007" version="1" timestamp="2009-04-15T16:01:01Z" uid="20587" user="balrog-kun" changeset="561631" lat="52.1998035" lon="20.9763951">
    <tag k="addr:city" v="Warszawa@Warszawa Ochota"/>
    <tag k="addr:housenumber" v="13"/>
    <tag k="addr:street" v="Bohdanowicza"/>
    <tag k="source" v="http://ump.waw.pl/ retrieved 11:07:14 02/24/09 (UMP-Warszawa/src/WARSZAWA_OCHOTA.ulice.txt)"/>
  </node>
  <node id="376723007" version="2" timestamp="2011-12-03T09:14:39Z" uid="441027" user="muzzy" changeset="10022896" lat="52.1998035" lon="20.9763951">
    <tag k="addr:city" v="Warszawa@Warszawa Ochota"/>
    <tag k="addr:housenumber" v="13"/>
    <tag k="addr:street" v="Karola Bohdanowicza"/>
    <tag k="source" v="http://ump.waw.pl/ retrieved 11:07:14 02/24/09 (UMP-Warszawa/src/WARSZAWA_OCHOTA.ulice.txt)"/>
  </node>
  <node id="376723020" version="1" timestamp="2009-04-15T16:01:01Z" uid="20587" user="balrog-kun" changeset="561631" lat="52.1982279" lon="20.9820691">
    <tag k="addr:city" v="Warszawa@Warszawa Ochota"/>
    <tag k="addr:housenumber" v="127"/>
    <tag k="addr:street" v="Racławicka"/>
    <tag k="source" v="http://ump.waw.pl/ retrieved 11:07:14 02/24/09 (UMP-Warszawa/src/WARSZAWA_OCHOTA.ulice.txt)"/>
  </node>
  <node id="376723020" version="2" timestamp="2011-08-13T23:16:28Z" uid="100448" user="kietlak" changeset="9010744" lat="52.1982279" lon="20.9820691"/>
  <node id="376723036" version="1" timestamp="2009-04-15T16:01:02Z" uid="20587" user="balrog-kun" changeset="561631" lat="52.20221" lon="20.9565906">
    <tag k="addr:city" v="Warszawa@Warszawa Ochota"/>
    <tag k="addr:housenumber" v="54"/>
    <tag k="addr:street" v="Włodarzewska"/>
    <tag k="source" v="http://ump.waw.pl/ retrieved 11:07:14 02/24/09 (UMP-Warszawa/src/WARSZAWA_OCHOTA.ulice.txt)"/>
  </node>
  <node id="376723036" version="2" timestamp="2009-04-15T16:03:59Z" uid="20587" user="balrog-kun" changeset="561631" lat="52.2022232" lon="20.9567627">
    <tag k="addr:city" v="Warszawa@Warszawa Ochota"/>
    <tag k="addr:housenumber" v="54"/>
    <tag k="addr:street" v="Włodarzewska"/>
    <tag k="source" v="http://ump.waw.pl/ retrieved 11:07:14 02/24/09 (UMP-Warszawa/src/WARSZAWA_OCHOTA.ulice.txt)"/>
  </node>
  <node id="376723036" version="3" timestamp="2011-06-30T20:32:23Z" uid="98542" user="wajak" changeset="8594126" lat="52.2022232" lon="20.9567627"/>
  <node id="376723050" version="1" timestamp="2009-04-15T16:01:02Z" uid="20587" user="balrog-kun" changeset="561631" lat="52.1971862" lon="20.9764345">
    <tag k="addr:city" v="Warszawa@Warszawa Ochota"/>
    <tag k="addr:housenumber" v="4"/>
    <tag k="addr:street" v="Okińskiego"/>
    <tag k="source" v="http://ump.waw.pl/ retrieved 11:07:14 02/24/09 (UMP-Warszawa/src/WARSZAWA_OCHOTA.ulice.txt)"/>
  </node>
  <node id="376723050" version="2" timestamp="2011-12-03T09:15:23Z" uid="441027" user="muzzy" changeset="10022896" lat="52.1971862" lon="20.9764345">
    <tag k="addr:city" v="Warszawa@Warszawa Ochota"/>
    <tag k="addr:housenumber" v="4"/>
    <tag k="addr:street" v="Władysława Okińskiego"/>
    <tag k="source" v="http://ump.waw.pl/ retrieved 11:07:14 02/24/09 (UMP-Warszawa/src/WARSZAWA_OCHOTA.ulice.txt)"/>
  </node>
  <node id="376723050" version="3" timestamp="2012-01-25T12:37:06Z" uid="99386" user="masti" changeset="10493238" lat="52.1971862" lon="20.9764345"/>
  <node id="376723069" version="1" timestamp="2009-04-15T16:01:03Z" uid="20587" user="balrog-kun" changeset="561631" lat="52.1972231" lon="20.9797826">
    <tag k="addr:city" v="Warszawa@Warszawa Ochota"/>
    <tag k="addr:housenumber" v="8"/>
    <tag k="addr:street" v="Baleya"/>
    <tag k="source" v="http://ump.waw.pl/ retrieved 11:07:14 02/24/09 (UMP-Warszawa/src/WARSZAWA_OCHOTA.ulice.txt)"/>
  </node>
  <node id="376723069" version="2" timestamp="2011-08-13T23:16:29Z" uid="100448" user="kietlak" changeset="9010744" lat="52.1972231" lon="20.9797826"/>
</osm>
