<?xml version='1.0' encoding='UTF-8'?>
<osm version="0.6" generator="libosmium/2.20.0">
  <node id="381982122" version="3" timestamp="2011-02-21T18:54:13Z" uid="49111" user="Markus B" changeset="7356787" lat="28.9170656" lon="-13.7050329"/>
  <node id="381982122" version="4" timestamp="2012-02-24T10:51:06Z" uid="496827" user="Cesarbcg" changeset="10776754" lat="28.9170656" lon="-13.7050329"/>
  <node id="381988469" version="2" timestamp="2009-06-05T09:01:45Z" uid="74617" user="JohnSmith" changeset="1427621" lat="-33.4356599" lon="149.3648371">
    <tag k="barrier" v="cattle_grid"/>
  </node>
  <node id="381988528" version="3" timestamp="2009-07-23T01:40:58Z" uid="20587" user="balrog-kun" changeset="1910614" lat="4.9372048" lon="-52.3258337">
    <tag k="admin_level" v="2"/>
    <tag k="capital" v="yes"/>
    <tag k="is_in" v="French Guiana"/>
    <tag k="is_in:continent" v="South America"/>
    <tag k="name" v="Cayenne"/>
    <tag k="name:es" v="Cayena"/>
    <tag k="name:it" v="Caienna"/>
    <tag k="name:lt" v="Kajenas"/>
    <tag k="name:pl" v="Kajenna"/>
    <tag k="name:ru" v="Кайенна"/>
    <tag k="place" v="city"/>
    <tag k="wikipedia" v="Cayenne"/>
  </node>
  <node id="381988528" version="4" timestamp="2009-10-02T18:07:54Z" uid="136810" user="Awalé" changeset="2715784" lat="4.9372048" lon="-52.3258337">
    <tag k="admin_level" v="4"/>
    <tag k="capital" v="yes"/>
    <tag k="code_INSEE" v="97302"/>
    <tag k="is_in" v="French Guiana"/>
    <tag k="is_in:continent" v="South America"/>
    <tag k="name" v="Cayenne"/>
    <tag k="name:es" v="Cayena"/>
    <tag k="name:it" v="Caienna"/>
    <tag k="name:lt" v="Kajenas"/>
    <tag k="name:pl" v="Kajenna"/>
    <tag k="name:ru" v="Кайенна"/>
    <tag k="place" v="town"/>
    <tag k="population" v="58004"/>
    <tag k="postal_code" v="97300"/>
    <tag k="wikipedia" v="Cayenne"/>
    <tag k="wikipedia:fr" v="http://fr.wikipedia.org/wiki/Cayenne"/>
  </node>
  <node id="381988528" version="5" timestamp="2010-01-16T20:49:22Z" uid="107257" user="FrViPofm" changeset="3635465" lat="4.9372048" lon="-52.3258337">
    <tag k="addr:postcode" v="97300"/>
    <tag k="admin_level" v="4"/>
    <tag k="capital" v="yes"/>
    <tag k="is_in" v="French Guiana"/>
    <tag k="is_in:continent" v="South America"/>
    <tag k="name" v="Cayenne"/>
    <tag k="name:es" v="Cayena"/>
    <tag k="name:it" v="Caienna"/>
    <tag k="name:lt" v="Kajenas"/>
    <tag k="name:pl" v="Kajenna"/>
    <tag k="name:ru" v="Кайенна"/>
    <tag k="place" v="town"/>
    <tag k="population" v="58004"/>
    <tag k="ref:INSEE" v="97302"/>
    <tag k="wikipedia" v="Cayenne"/>
    <tag k="wikipedia:fr" v="http://fr.wikipedia.org/wiki/Cayenne"/>
  </node>
  <node id="381988528" version="6" timestamp="2010-06-30T00:16:33Z" uid="111676" user="christophegrall" changeset="5110251" lat="4.9371143" lon="-52.3258307">
    <tag k="addr:postcode" v="97300"/>
    <tag k="admin_level" v="4"/>
    <tag k="capital" v="yes"/>
    <tag k="is_in" v="French Guiana"/>
    <tag k="is_in:continent" v="South America"/>
    <tag k="name" v="Cayenne"/>
    <tag k="name:es" v="Cayena"/>
    <tag k="name:it" v="Caienna"/>
    <tag k="name:lt" v="Kajenas"/>
    <tag k="name:pl" v="Kajenna"/>
    <tag k="name:ru" v="Кайенна"/>
    <tag k="place" v="town"/>
    <tag k="population" v="58004"/>
    <tag k="ref:INSEE" v="97302"/>
    <tag k="wikipedia" v="Cayenne"/>
    <tag k="wikipedia:fr" v="http://fr.wikipedia.org/wiki/Cayenne"/>
  </node>
  <node id="381988528" version="7" timestamp="2010-11-14T09:27:33Z" uid="76269" user="Snusmumriken" changeset="6364710" lat="4.9371143" lon="-52.3258307">
    <tag k="addr:postcode" v="97300"/>
    <tag k="admin_level" v="4"/>
    <tag k="capital" v="yes"/>
    <tag k="is_in" v="French Guiana"/>
    <tag k="is_in:continent" v="South America"/>
    <tag k="name" v="Cayenne"/>
    <tag k="name:es" v="Cayena"/>
    <tag k="name:it" v="Caienna"/>
    <tag k="name:lt" v="Kajenas"/>
    <tag k="name:pl" v="Kajenna"/>
    <tag k="name:ru" v="Кайенна"/>
    <tag k="name:sv" v="Cayenne"/>
    <tag k="place" v="town"/>
    <tag k="population" v="58004"/>
    <tag k="ref:INSEE" v="97302"/>
    <tag k="wikipedia" v="Cayenne"/>
    <tag k="wikipedia:fr" v="http://fr.wikipedia.org/wiki/Cayenne"/>
  </node>
  <node id="381989644" version="2" timestamp="2009-06-05T09:01:45Z" uid="74617" user="JohnSmith" changeset="1427621" lat="-33.437823" lon="149.3640646">
    <tag k="barrier" v="cattle_grid"/>
  </node>
</osm>
