<?xml version='1.0' encoding='UTF-8'?>
<osm version="0.6" generator="libosmium/2.20.0">
  <node id="38224299" version="7" timestamp="2009-05-01T13:14:58Z" uid="20587" user="balrog-kun" changeset="1036297" lat="52.1818002" lon="20.8425235">
    <tag k="addr:postcode" v="05-820"/>
    <tag k="created_by" v="Merkaartor 0.13"/>
    <tag k="is_in" v="powiat pruszkowski, województwo mazowieckie, Poland"/>
    <tag k="is_in:country" v="Poland"/>
    <tag k="is_in:county" v="powiat pruszkowski"/>
    <tag k="is_in:municipality" v="gmina Piastów"/>
    <tag k="is_in:province" v="województwo mazowieckie"/>
    <tag k="name" v="Piastów"/>
    <tag k="place" v="town"/>
    <tag k="population" v="23"/>
    <tag k="source:population" v="wikipedia"/>
    <tag k="teryt:rm" v="96"/>
    <tag k="teryt:simc" v="0921496"/>
    <tag k="teryt:stan_na" v="2009-01-01"/>
    <tag k="teryt:terc" v="1421011"/>
    <tag k="teryt:updated_by" v="teryt2osm combine.py v. 36M"/>
    <tag k="wikipedia" v="Piastów"/>
  </node>
  <node id="38224299" version="8" timestamp="2009-05-07T18:42:23Z" uid="115021" user="Jajcuś" changeset="1110383" lat="52.1818002" lon="20.8425235">
    <tag k="addr:postcode" v="05-820"/>
    <tag k="created_by" v="Merkaartor 0.13"/>
    <tag k="is_in" v="powiat pruszkowski, województwo mazowieckie, Poland"/>
    <tag k="is_in:country" v="Poland"/>
    <tag k="is_in:county" v="powiat pruszkowski"/>
    <tag k="is_in:province" v="województwo mazowieckie"/>
    <tag k="name" v="Piastów"/>
    <tag k="place" v="town"/>
    <tag k="population" v="23"/>
    <tag k="source:population" v="wikipedia"/>
    <tag k="teryt:rm" v="96"/>
    <tag k="teryt:simc" v="0921496"/>
    <tag k="teryt:stan_na" v="2009-01-01"/>
    <tag k="teryt:terc" v="1421011"/>
    <tag k="teryt:updated_by" v="teryt2osm combine.py v. 47M"/>
    <tag k="wikipedia" v="Piastów"/>
  </node>
  <node id="38224299" version="9" timestamp="2009-05-08T18:39:52Z" uid="115021" user="Jajcuś" changeset="1120477" lat="52.1818002" lon="20.8425235">
    <tag k="addr:postcode" v="05-820"/>
    <tag k="created_by" v="Merkaartor 0.13"/>
    <tag k="is_in" v="powiat pruszkowski, województwo mazowieckie, Poland"/>
    <tag k="is_in:country" v="Poland"/>
    <tag k="is_in:county" v="powiat pruszkowski"/>
    <tag k="is_in:municipality" v="gmina Piastów"/>
    <tag k="is_in:province" v="województwo mazowieckie"/>
    <tag k="name" v="Piastów"/>
    <tag k="place" v="town"/>
    <tag k="population" v="23"/>
    <tag k="source:population" v="wikipedia"/>
    <tag k="teryt:rm" v="96"/>
    <tag k="teryt:simc" v="0921496"/>
    <tag k="teryt:stan_na" v="2009-01-01"/>
    <tag k="teryt:terc" v="1421011"/>
    <tag k="teryt:updated_by" v="teryt2osm combine.py v. 49"/>
    <tag k="wikipedia" v="Piastów"/>
  </node>
  <node id="38224299" version="10" timestamp="2010-04-11T04:37:30Z" uid="20587" user="balrog-kun" changeset="4389130" lat="52.1826101" lon="20.8413735">
    <tag k="addr:postcode" v="05-820"/>
    <tag k="is_in" v="powiat pruszkowski, województwo mazowieckie, Poland"/>
    <tag k="is_in:country" v="Poland"/>
    <tag k="is_in:county" v="powiat pruszkowski"/>
    <tag k="is_in:municipality" v="gmina Piastów"/>
    <tag k="is_in:province" v="województwo mazowieckie"/>
    <tag k="name" v="Piastów"/>
    <tag k="place" v="town"/>
    <tag k="population" v="23"/>
    <tag k="source:population" v="wikipedia"/>
    <tag k="teryt:rm" v="96"/>
    <tag k="teryt:simc" v="0921496"/>
    <tag k="teryt:stan_na" v="2009-01-01"/>
    <tag k="teryt:terc" v="1421011"/>
    <tag k="teryt:updated_by" v="teryt2osm combine.py v. 49"/>
    <tag k="wikipedia" v="Piastów"/>
  </node>
  <node id="38224299" version="11" timestamp="2011-05-23T19:09:04Z" uid="98542" user="wajak" changeset="8229297" lat="52.1826101" lon="20.8413735">
    <tag k="addr:postcode" v="05-820"/>
    <tag k="is_in" v="powiat pruszkowski, województwo mazowieckie, Poland"/>
    <tag k="is_in:country" v="Poland"/>
    <tag k="is_in:county" v="powiat pruszkowski"/>
    <tag k="is_in:municipality" v="gmina Piastów"/>
    <tag k="is_in:province" v="województwo mazowieckie"/>
    <tag k="name" v="Piastów"/>
    <tag k="place" v="town"/>
    <tag k="population" v="23000"/>
    <tag k="source:population" v="wikipedia"/>
    <tag k="teryt:rm" v="96"/>
    <tag k="teryt:simc" v="0921496"/>
    <tag k="teryt:stan_na" v="2009-01-01"/>
    <tag k="teryt:terc" v="1421011"/>
    <tag k="teryt:updated_by" v="teryt2osm combine.py v. 49"/>
    <tag k="wikipedia" v="Piastów"/>
  </node>
  <node id="38224299" version="12" timestamp="2011-11-11T12:05:20Z" uid="98542" user="wajak" changeset="9795855" lat="52.1826101" lon="20.8413735">
    <tag k="is_in" v="powiat pruszkowski, województwo mazowieckie, Poland"/>
    <tag k="is_in:country" v="Poland"/>
    <tag k="is_in:county" v="powiat pruszkowski"/>
    <tag k="is_in:municipality" v="gmina Piastów"/>
    <tag k="is_in:province" v="województwo mazowieckie"/>
    <tag k="name" v="Piastów"/>
    <tag k="place" v="town"/>
    <tag k="population" v="23000"/>
    <tag k="source:population" v="wikipedia"/>
    <tag k="teryt:rm" v="96"/>
    <tag k="teryt:simc" v="0921496"/>
    <tag k="teryt:stan_na" v="2009-01-01"/>
    <tag k="teryt:terc" v="1421011"/>
    <tag k="teryt:updated_by" v="teryt2osm combine.py v. 49"/>
    <tag k="wikipedia" v="Piastów"/>
  </node>
  <node id="38226817" version="1" timestamp="2007-08-31T20:33:05Z" uid="8931" user="bluepup" changeset="282151" lat="51.7124484" lon="8.7434781">
    <tag k="created_by" v="JOSM"/>
  </node>
  <node id="38226826" version="1" timestamp="2007-08-31T20:33:06Z" uid="8931" user="bluepup" changeset="282151" lat="51.7098108" lon="8.7452996">
    <tag k="created_by" v="JOSM"/>
  </node>
  <node id="38226832" version="1" timestamp="2007-08-31T20:33:06Z" uid="8931" user="bluepup" changeset="282151" lat="51.709053" lon="8.7457952">
    <tag k="created_by" v="JOSM"/>
  </node>
  <node id="38226832" version="2" timestamp="2008-01-29T21:04:38Z" uid="21756" user="Torfnase" changeset="708937" lat="51.7093486" lon="8.745578">
    <tag k="created_by" v="JOSM"/>
  </node>
  <node id="38226832" version="3" timestamp="2011-12-16T21:01:55Z" uid="64411" user="jongleur1983" changeset="10134192" lat="51.7093486" lon="8.745578"/>
  <node id="38226842" version="1" timestamp="2007-08-31T20:33:06Z" uid="8931" user="bluepup" changeset="282151" lat="51.7077767" lon="8.7450993">
    <tag k="created_by" v="JOSM"/>
  </node>
  <node id="38226842" version="2" timestamp="2007-11-10T17:28:49Z" uid="8931" user="bluepup" changeset="461136" lat="51.7077552" lon="8.7450855">
    <tag k="created_by" v="JOSM"/>
  </node>
  <node id="38226842" version="3" timestamp="2008-01-29T21:04:38Z" uid="21756" user="Torfnase" changeset="708937" lat="51.7078276" lon="8.7449588">
    <tag k="created_by" v="JOSM"/>
  </node>
  <node id="38229048" version="1" timestamp="2007-09-28T21:35:17Z" uid="13367" user="nubok" changeset="531605" lat="52.3220929" lon="11.6167442">
    <tag k="created_by" v="JOSM"/>
  </node>
  <node id="38229048" version="2" timestamp="2008-11-19T14:30:13Z" uid="69735" user="dirk86" changeset="767759" lat="52.3220929" lon="11.6167442"/>
  <node id="38229048" version="3" timestamp="2008-12-14T19:31:27Z" uid="69735" user="dirk86" changeset="383428" lat="52.3220929" lon="11.6167442"/>
  <node id="38229048" version="4" timestamp="2009-03-30T08:31:58Z" uid="110468" user="Balusan" changeset="869193" lat="52.3220929" lon="11.6167442"/>
  <node id="38229057" version="1" timestamp="2007-09-28T21:35:17Z" uid="13367" user="nubok" changeset="531605" lat="52.3226377" lon="11.6112472">
    <tag k="created_by" v="JOSM"/>
  </node>
  <node id="38229057" version="2" timestamp="2008-11-19T14:30:15Z" uid="69735" user="dirk86" changeset="767759" lat="52.3226377" lon="11.6112472"/>
  <node id="38229057" version="3" timestamp="2008-11-30T14:44:58Z" uid="69735" user="dirk86" changeset="816220" lat="52.3226377" lon="11.6112472"/>
  <node id="38229068" version="1" timestamp="2007-09-28T21:35:17Z" uid="13367" user="nubok" changeset="531605" lat="52.3223499" lon="11.6138143">
    <tag k="created_by" v="JOSM"/>
  </node>
  <node id="38229068" version="2" timestamp="2008-11-19T14:30:16Z" uid="69735" user="dirk86" changeset="767759" lat="52.3223499" lon="11.6138143"/>
  <node id="38229068" version="3" timestamp="2008-11-30T14:44:57Z" uid="69735" user="dirk86" changeset="816220" lat="52.3223499" lon="11.6138143"/>
</osm>
