<?xml version='1.0' encoding='UTF-8'?>
<osm version="0.6" generator="libosmium/2.20.0">
  <node id="385591315" version="1" timestamp="2009-04-26T21:39:15Z" uid="34428" user="usm78-gis" changeset="981915" lat="61.8227789" lon="29.7296816"/>
  <node id="385591315" version="2" timestamp="2010-08-02T16:01:09Z" uid="21602" user="Obsi" changeset="5382091" lat="61.8227639" lon="29.7297635"/>
  <node id="385591315" version="3" timestamp="2012-03-30T09:54:24Z" uid="137246" user="Pikari" changeset="11149036" lat="61.8227043" lon="29.7297214"/>
  <node id="385591507" version="1" timestamp="2009-04-26T21:41:53Z" uid="26515" user="Simon Ward" changeset="981940" lat="53.4454468" lon="-2.1610782">
    <tag k="highway" v="bus_stop"/>
    <tag k="name" v="Longford Road West / Harrogate Road"/>
    <tag k="services" v="178,317,374"/>
    <tag k="source" v="survey"/>
    <tag k="towards" v="Stockport"/>
  </node>
  <node id="385591507" version="2" timestamp="2009-10-09T13:27:25Z" uid="57932" user="Strange but untrue" changeset="2793909" lat="53.4454479" lon="-2.1610798">
    <tag k="highway" v="bus_stop"/>
    <tag k="name" v="Longford Road West / Harrogate Road"/>
    <tag k="route_ref" v="178;317;374"/>
    <tag k="source" v="survey"/>
    <tag k="towards" v="Stockport"/>
  </node>
  <node id="385591507" version="3" timestamp="2010-08-22T03:16:41Z" uid="26515" user="Simon Ward" changeset="5557447" lat="53.445409" lon="-2.1610058">
    <tag k="highway" v="bus_stop"/>
    <tag k="name" v="Longford Road West / Harrogate Road"/>
    <tag k="naptan:AtcoCode" v="1800SG10231"/>
    <tag k="naptan:Bearing" v="E"/>
    <tag k="naptan:CommonName" v="Longford Road West/Harrogate Road"/>
    <tag k="naptan:Indicator" v="O/s House 48"/>
    <tag k="naptan:Landmark" v="O/S HOUSE 48"/>
    <tag k="naptan:NaptanCode" v="manjdjad"/>
    <tag k="naptan:PlusbusZoneRef" v="MNCRPIC"/>
    <tag k="naptan:ShortCommonName" v="Harrogate Road"/>
    <tag k="naptan:Street" v="LONGFORD RD W"/>
    <tag k="route_ref" v="178;317;374"/>
    <tag k="source" v="naptan_import;survey"/>
    <tag k="towards" v="Stockport"/>
  </node>
  <node id="385591508" version="1" timestamp="2009-04-26T21:41:53Z" uid="26515" user="Simon Ward" changeset="981940" lat="53.4457942" lon="-2.1588291"/>
  <node id="385591508" version="2" timestamp="2009-07-01T21:00:28Z" uid="105998" user="krispyduck" changeset="1705041" lat="53.4459837" lon="-2.1586928"/>
  <node id="385591509" version="1" timestamp="2009-04-26T21:41:53Z" uid="26515" user="Simon Ward" changeset="981940" lat="53.4463374" lon="-2.1584696">
    <tag k="leisure" v="park"/>
    <tag k="name" v="North Reddish Park"/>
  </node>
  <node id="385591632" version="1" timestamp="2009-04-26T21:44:43Z" uid="26515" user="Simon Ward" changeset="981967" lat="53.445431" lon="-2.1581795">
    <tag k="amenity" v="doctors"/>
    <tag k="name" v="North Reddish Clinic"/>
    <tag k="source" v="survey"/>
  </node>
  <node id="385591633" version="1" timestamp="2009-04-26T21:44:43Z" uid="26515" user="Simon Ward" changeset="981967" lat="53.4453237" lon="-2.1579025">
    <tag k="highway" v="bus_stop"/>
    <tag k="name" v="Longford Road West / North Reddish Clinic"/>
    <tag k="ref" v="SG1021"/>
    <tag k="services" v="178,317,374"/>
    <tag k="sms_ref" v="manjdgwp"/>
    <tag k="source" v="survey"/>
    <tag k="towards" v="Stockport"/>
  </node>
  <node id="385591633" version="2" timestamp="2009-10-09T13:27:34Z" uid="57932" user="Strange but untrue" changeset="2793909" lat="53.4453252" lon="-2.1579041">
    <tag k="highway" v="bus_stop"/>
    <tag k="name" v="Longford Road West / North Reddish Clinic"/>
    <tag k="ref" v="SG1021"/>
    <tag k="route_ref" v="178;317;374"/>
    <tag k="sms_ref" v="manjdgwp"/>
    <tag k="source" v="survey"/>
    <tag k="towards" v="Stockport"/>
  </node>
  <node id="385591633" version="3" timestamp="2010-08-22T03:16:42Z" uid="26515" user="Simon Ward" changeset="5557447" lat="53.4452471" lon="-2.1578143">
    <tag k="highway" v="bus_stop"/>
    <tag k="name" v="Longford Road West / North Reddish Clinic"/>
    <tag k="naptan:AtcoCode" v="1800SG10211"/>
    <tag k="naptan:Bearing" v="E"/>
    <tag k="naptan:CommonName" v="Longford Road West/North Reddish Clinic"/>
    <tag k="naptan:Indicator" v="Fir Tree"/>
    <tag k="naptan:Landmark" v="FIR TREE"/>
    <tag k="naptan:NaptanCode" v="manjdgwp"/>
    <tag k="naptan:PlusbusZoneRef" v="MNCRPIC"/>
    <tag k="naptan:ShortCommonName" v="Clinic"/>
    <tag k="naptan:Street" v="LONGFORD RD W"/>
    <tag k="ref" v="SG1021"/>
    <tag k="route_ref" v="178;317;374"/>
    <tag k="sms_ref" v="manjdgwp"/>
    <tag k="source" v="naptan_import;survey"/>
    <tag k="towards" v="Stockport"/>
  </node>
  <node id="385591655" version="1" timestamp="2009-04-26T21:45:16Z" uid="26515" user="Simon Ward" changeset="981975" lat="53.4453936" lon="-2.1575335">
    <tag k="amenity" v="pub"/>
    <tag k="name" v="The Fir Tree"/>
    <tag k="source" v="survey"/>
  </node>
  <node id="385591655" version="2" timestamp="2009-04-26T21:55:54Z" uid="26515" user="Simon Ward" changeset="982058" lat="53.4455767" lon="-2.157596">
    <tag k="amenity" v="pub"/>
    <tag k="name" v="The Fir Tree"/>
    <tag k="source" v="survey"/>
  </node>
  <node id="385592201" version="1" timestamp="2009-04-26T21:46:46Z" uid="26515" user="Simon Ward" changeset="981988" lat="53.4451214" lon="-2.1574794">
    <tag k="crossing" v="pelican"/>
    <tag k="highway" v="crossing"/>
    <tag k="source" v="survey"/>
  </node>
  <node id="385592201" version="2" timestamp="2012-03-23T08:10:30Z" uid="165" user="Richard" changeset="11071229" lat="53.4451214" lon="-2.1574794"/>
  <node id="385592202" version="1" timestamp="2009-04-26T21:46:46Z" uid="26515" user="Simon Ward" changeset="981988" lat="53.4449948" lon="-2.1572794">
    <tag k="crossing" v="pelican"/>
    <tag k="highway" v="crossing"/>
    <tag k="source" v="extrapolation"/>
  </node>
  <node id="385592202" version="2" timestamp="2012-03-23T08:10:31Z" uid="165" user="Richard" changeset="11071229" lat="53.4449948" lon="-2.1572794"/>
  <node id="385592203" version="1" timestamp="2009-04-26T21:46:46Z" uid="26515" user="Simon Ward" changeset="981988" lat="53.4450941" lon="-2.157071">
    <tag k="crossing" v="pelican"/>
    <tag k="highway" v="crossing"/>
    <tag k="source" v="extrapolation"/>
  </node>
  <node id="385592203" version="2" timestamp="2012-03-23T08:10:30Z" uid="165" user="Richard" changeset="11071229" lat="53.4450941" lon="-2.157071"/>
  <node id="385592204" version="1" timestamp="2009-04-26T21:46:46Z" uid="26515" user="Simon Ward" changeset="981988" lat="53.4452629" lon="-2.157271">
    <tag k="crossing" v="pelican"/>
    <tag k="highway" v="crossing"/>
    <tag k="source" v="survey"/>
  </node>
  <node id="385592204" version="2" timestamp="2012-03-23T08:10:30Z" uid="165" user="Richard" changeset="11071229" lat="53.4452629" lon="-2.157271"/>
  <node id="385593369" version="1" timestamp="2009-04-26T21:55:54Z" uid="26515" user="Simon Ward" changeset="982058" lat="53.4458879" lon="-2.1574466">
    <tag k="highway" v="bus_stop"/>
    <tag k="name" v="Gorton Road / The Fir Tree"/>
    <tag k="ref" v="SG1030"/>
    <tag k="services" v="7,203,42A,night bus 203"/>
    <tag k="sms_ref" v="manjdjda"/>
    <tag k="source" v="survey"/>
    <tag k="towards" v="Manchester"/>
  </node>
  <node id="385593369" version="2" timestamp="2009-10-09T13:27:48Z" uid="57932" user="Strange but untrue" changeset="2793909" lat="53.4458927" lon="-2.1574492">
    <tag k="highway" v="bus_stop"/>
    <tag k="name" v="Gorton Road / The Fir Tree"/>
    <tag k="ref" v="SG1030"/>
    <tag k="route_ref" v="7;203;42A;night bus 203"/>
    <tag k="sms_ref" v="manjdjda"/>
    <tag k="source" v="survey"/>
    <tag k="towards" v="Manchester"/>
  </node>
  <node id="385593369" version="3" timestamp="2010-08-22T03:16:41Z" uid="26515" user="Simon Ward" changeset="5557447" lat="53.4458678" lon="-2.1574061">
    <tag k="highway" v="bus_stop"/>
    <tag k="name" v="Gorton Road / The Fir Tree"/>
    <tag k="naptan:AtcoCode" v="1800SG10301"/>
    <tag k="naptan:Bearing" v="N"/>
    <tag k="naptan:CommonName" v="Gorton Road/The Fir Tree"/>
    <tag k="naptan:Indicator" v="Fir Tree"/>
    <tag k="naptan:Landmark" v="FIR TREE"/>
    <tag k="naptan:NaptanCode" v="manjdjda"/>
    <tag k="naptan:PlusbusZoneRef" v="MNCRPIC"/>
    <tag k="naptan:ShortCommonName" v="The Fir Tree"/>
    <tag k="naptan:Street" v="GORTON ROAD"/>
    <tag k="ref" v="SG1030"/>
    <tag k="route_ref" v="7;203;42A;night bus 203"/>
    <tag k="sms_ref" v="manjdjda"/>
    <tag k="source" v="naptan_import;survey"/>
    <tag k="towards" v="Manchester"/>
  </node>
  <node id="385593370" version="1" timestamp="2009-04-26T21:55:54Z" uid="26515" user="Simon Ward" changeset="982058" lat="53.446059" lon="-2.1572741">
    <tag k="crossing" v="island;uncontrolled"/>
    <tag k="highway" v="crossing"/>
    <tag k="source" v="survey"/>
  </node>
  <node id="385593371" version="1" timestamp="2009-04-26T21:55:54Z" uid="26515" user="Simon Ward" changeset="982058" lat="53.4464473" lon="-2.1572739"/>
  <node id="385593372" version="1" timestamp="2009-04-26T21:55:54Z" uid="26515" user="Simon Ward" changeset="982058" lat="53.4464473" lon="-2.1579776"/>
  <node id="385594484" version="2" timestamp="2011-02-08T00:07:00Z" uid="6269" user="Mueck" changeset="7222281" lat="48.9790965" lon="8.4588531">
    <tag k="information" v="guidepost"/>
    <tag k="tourism" v="information"/>
  </node>
  <node id="385594484" version="3" timestamp="2012-03-04T11:44:46Z" uid="35468" user="Blunauer" changeset="10867314" lat="48.9790965" lon="8.4588531"/>
  <node id="385594867" version="1" timestamp="2009-04-26T21:58:36Z" uid="26515" user="Simon Ward" changeset="982087" lat="53.4465478" lon="-2.1572744">
    <tag k="crossing" v="island;uncontrolled"/>
    <tag k="highway" v="crossing"/>
    <tag k="source" v="survey"/>
  </node>
  <node id="385594868" version="1" timestamp="2009-04-26T21:58:36Z" uid="26515" user="Simon Ward" changeset="982087" lat="53.4476561" lon="-2.1575081">
    <tag k="highway" v="bus_stop"/>
    <tag k="name" v="Gorton Road / Spey House"/>
    <tag k="ref" v="SG1032"/>
    <tag k="services" v="7,203,42A,night bus 203"/>
    <tag k="source" v="survey"/>
    <tag k="towards" v="Manchester"/>
  </node>
  <node id="385594868" version="2" timestamp="2009-10-09T13:28:00Z" uid="57932" user="Strange but untrue" changeset="2793909" lat="53.4476562" lon="-2.1575093">
    <tag k="highway" v="bus_stop"/>
    <tag k="name" v="Gorton Road / Spey House"/>
    <tag k="ref" v="SG1032"/>
    <tag k="route_ref" v="7;203;42A;night bus 203"/>
    <tag k="source" v="survey"/>
    <tag k="towards" v="Manchester"/>
  </node>
  <node id="385594868" version="3" timestamp="2010-08-22T03:16:41Z" uid="26515" user="Simon Ward" changeset="5557447" lat="53.4476995" lon="-2.1574842">
    <tag k="highway" v="bus_stop"/>
    <tag k="name" v="Gorton Road / Spey House"/>
    <tag k="naptan:AtcoCode" v="1800SG10321"/>
    <tag k="naptan:Bearing" v="N"/>
    <tag k="naptan:CommonName" v="Gorton Road/Spey House"/>
    <tag k="naptan:Indicator" v="Os Flats 29-32"/>
    <tag k="naptan:Landmark" v="OS FLATS 29-32"/>
    <tag k="naptan:NaptanCode" v="manjdjdj"/>
    <tag k="naptan:PlusbusZoneRef" v="MNCRPIC"/>
    <tag k="naptan:ShortCommonName" v="Spey House"/>
    <tag k="naptan:Street" v="GORTON ROAD"/>
    <tag k="ref" v="SG1032"/>
    <tag k="route_ref" v="7;203;42A;night bus 203"/>
    <tag k="source" v="naptan_import;survey"/>
    <tag k="towards" v="Manchester"/>
  </node>
  <node id="385594869" version="1" timestamp="2009-04-26T21:58:36Z" uid="26515" user="Simon Ward" changeset="982087" lat="53.4478934" lon="-2.1575767">
    <tag k="addr:street" v="Gorton Road"/>
    <tag k="amenity" v="telephone"/>
    <tag k="phone" v="0161 442 9987"/>
    <tag k="postal_code" v="SK5 6LQ"/>
    <tag k="source" v="survey"/>
  </node>
  <node id="385595313" version="1" timestamp="2009-04-26T21:59:53Z" uid="26515" user="Simon Ward" changeset="982104" lat="53.4479261" lon="-2.1573672">
    <tag k="crossing" v="island;uncontrolled"/>
    <tag k="highway" v="crossing"/>
    <tag k="source" v="survey"/>
  </node>
  <node id="385596745" version="1" timestamp="2009-04-26T22:02:05Z" uid="26515" user="Simon Ward" changeset="982123" lat="53.4480785" lon="-2.1594852"/>
  <node id="385596748" version="1" timestamp="2009-04-26T22:02:06Z" uid="26515" user="Simon Ward" changeset="982123" lat="53.4481363" lon="-2.1598197"/>
  <node id="385596750" version="1" timestamp="2009-04-26T22:02:06Z" uid="26515" user="Simon Ward" changeset="982123" lat="53.4481077" lon="-2.1576207"/>
  <node id="385596804" version="2" timestamp="2009-07-11T11:53:44Z" uid="123517" user="Qichina" changeset="1796373" lat="51.91098" lon="0.6444407"/>
  <node id="385598671" version="1" timestamp="2009-04-26T22:03:46Z" uid="26515" user="Simon Ward" changeset="982137" lat="53.4489377" lon="-2.1579925"/>
  <node id="385598671" version="2" timestamp="2009-04-26T22:09:28Z" uid="26515" user="Simon Ward" changeset="982183" lat="53.4489378" lon="-2.1579828"/>
  <node id="385598672" version="1" timestamp="2009-04-26T22:03:46Z" uid="26515" user="Simon Ward" changeset="982137" lat="53.448141" lon="-2.1578262"/>
</osm>
