<?xml version='1.0' encoding='UTF-8'?>
<osm version="0.6" generator="libosmium/2.20.0">
  <node id="385535467" version="1" timestamp="2009-04-26T19:39:37Z" uid="38524" user="Kuddy" changeset="980237" lat="50.1547822" lon="6.8948787">
    <tag k="historic" v="archaeological_site"/>
    <tag k="name" v="Grabhügelgruppe"/>
  </node>
  <node id="385535468" version="1" timestamp="2009-04-26T19:39:37Z" uid="38524" user="Kuddy" changeset="980237" lat="50.1544764" lon="6.8918206">
    <tag k="name" v="Flachmoor"/>
    <tag k="tourism" v="attraction"/>
  </node>
  <node id="385535468" version="2" timestamp="2011-11-13T17:09:59Z" uid="44217" user="kjon" changeset="9816410" lat="50.1544764" lon="6.8918206"/>
  <node id="385535469" version="1" timestamp="2009-04-26T19:39:37Z" uid="38524" user="Kuddy" changeset="980237" lat="50.1458264" lon="6.8807242">
    <tag k="historic" v="archaeological_site"/>
    <tag k="name" v="Siedlungsstelle(Wüstung)"/>
  </node>
  <node id="385535470" version="1" timestamp="2009-04-26T19:39:37Z" uid="38524" user="Kuddy" changeset="980237" lat="50.1432489" lon="6.8759623">
    <tag k="historic" v="archaeological_site"/>
    <tag k="name" v="Wüstung Brückerhof"/>
  </node>
  <node id="385535471" version="1" timestamp="2009-04-26T19:39:37Z" uid="38524" user="Kuddy" changeset="980237" lat="50.1284775" lon="6.8930855">
    <tag k="historic" v="archaeological_site"/>
    <tag k="name" v="Wüstung"/>
  </node>
  <node id="385535471" version="2" timestamp="2011-06-29T12:16:35Z" uid="43745" user="vpaul" changeset="8580424" lat="50.1275931" lon="6.8930512">
    <tag k="historic" v="archaeological_site"/>
    <tag k="name" v="Wüstung"/>
  </node>
  <node id="385535472" version="1" timestamp="2009-04-26T19:39:37Z" uid="38524" user="Kuddy" changeset="980237" lat="50.1277617" lon="6.8944052">
    <tag k="historic" v="archaeological_site"/>
    <tag k="name" v="Frührömisches Brandgräberfeld"/>
  </node>
  <node id="385535473" version="1" timestamp="2009-04-26T19:39:37Z" uid="38524" user="Kuddy" changeset="980237" lat="50.1279406" lon="6.8664903">
    <tag k="historic" v="archaeological_site"/>
    <tag k="name" v="Römische Siedlungsstelle"/>
  </node>
  <node id="385535474" version="1" timestamp="2009-04-26T19:39:38Z" uid="38524" user="Kuddy" changeset="980237" lat="50.1302892" lon="6.8594445">
    <tag k="historic" v="archaeological_site"/>
    <tag k="name" v="Hügelgrab"/>
  </node>
  <node id="385538058" version="1" timestamp="2009-04-26T19:46:47Z" uid="38524" user="Kuddy" changeset="980353" lat="50.1280748" lon="6.8524881">
    <tag k="historic" v="archaeological_site"/>
    <tag k="name" v="Ausgedehnte Grabhügelnekropole"/>
  </node>
  <node id="385538059" version="1" timestamp="2009-04-26T19:46:47Z" uid="38524" user="Kuddy" changeset="980353" lat="50.1333313" lon="6.8477193">
    <tag k="name" v="Glockengießerei"/>
    <tag k="tourism" v="attraction"/>
  </node>
  <node id="385538059" version="2" timestamp="2011-09-16T16:11:42Z" uid="63998" user="TommyNF" changeset="9317178" lat="50.1327492" lon="6.847233">
    <tag k="name" v="Glockengießerei"/>
    <tag k="tourism" v="attraction"/>
  </node>
  <node id="385538060" version="1" timestamp="2009-04-26T19:46:47Z" uid="38524" user="Kuddy" changeset="980353" lat="50.1281641" lon="6.8385028">
    <tag k="historic" v="archaeological_site"/>
    <tag k="name" v="Brandgräber"/>
  </node>
  <node id="385538061" version="1" timestamp="2009-04-26T19:46:47Z" uid="38524" user="Kuddy" changeset="980353" lat="50.127896" lon="6.8140176">
    <tag k="historic" v="castle"/>
    <tag k="name" v="Geienburg"/>
  </node>
  <node id="385538061" version="2" timestamp="2010-02-14T17:33:21Z" uid="195557" user="markusbee" changeset="3876292" lat="50.127896" lon="6.8140176">
    <tag k="historic" v="castle"/>
    <tag k="name" v="Geienburg"/>
  </node>
  <node id="385538062" version="1" timestamp="2009-04-26T19:46:47Z" uid="38524" user="Kuddy" changeset="980353" lat="50.1275238" lon="6.8156782">
    <tag k="name" v="Aussichtspunkt Ruine Geißenburg"/>
    <tag k="tourism" v="viewpoint"/>
  </node>
  <node id="385538062" version="2" timestamp="2011-09-16T16:33:13Z" uid="63998" user="TommyNF" changeset="9317178" lat="50.1275238" lon="6.8156782">
    <tag k="name" v="Aussichtspunkt Ruine Geisenburg"/>
    <tag k="tourism" v="viewpoint"/>
  </node>
  <node id="385538063" version="1" timestamp="2009-04-26T19:46:47Z" uid="38524" user="Kuddy" changeset="980353" lat="50.1341553" lon="6.8267976">
    <tag k="name" v="Schöne Aussicht"/>
    <tag k="tourism" v="viewpoint"/>
  </node>
  <node id="385538064" version="1" timestamp="2009-04-26T19:46:47Z" uid="38524" user="Kuddy" changeset="980353" lat="50.1371763" lon="6.8386511">
    <tag k="historic" v="archaeological_site"/>
    <tag k="name" v="Römisches Brandgräberfeld"/>
  </node>
  <node id="385538065" version="1" timestamp="2009-04-26T19:46:47Z" uid="38524" user="Kuddy" changeset="980353" lat="50.1461627" lon="6.8388196">
    <tag k="historic" v="archaeological_site"/>
    <tag k="name" v="Grabhügelgruppe"/>
  </node>
  <node id="385538065" version="2" timestamp="2011-05-15T16:34:53Z" uid="45152" user="fusion-freak" changeset="8153916" lat="50.1456636" lon="6.8379032">
    <tag k="historic" v="archaeological_site"/>
    <tag k="name" v="Grabhügelgruppe"/>
  </node>
  <node id="385538198" version="1" timestamp="2009-04-26T19:47:58Z" uid="20587" user="balrog-kun" changeset="980363" lat="51.0149529" lon="19.7108557">
    <tag k="is_in:country" v="Poland"/>
    <tag k="is_in:county" v="powiat radomszczański"/>
    <tag k="name" v="Odrowąż"/>
    <tag k="place" v="village"/>
    <tag k="source" v="wikipedia"/>
  </node>
  <node id="385538198" version="2" timestamp="2009-05-07T18:44:37Z" uid="115021" user="Jajcuś" changeset="1110424" lat="51.0149529" lon="19.7108557">
    <tag k="is_in" v="gmina Wielgomłyny, powiat radomszczański, województwo łódzkie, Poland"/>
    <tag k="is_in:country" v="Poland"/>
    <tag k="is_in:county" v="powiat radomszczański"/>
    <tag k="is_in:municipality" v="gmina Wielgomłyny"/>
    <tag k="is_in:province" v="województwo łódzkie"/>
    <tag k="name" v="Odrowąż"/>
    <tag k="place" v="village"/>
    <tag k="source" v="wikipedia"/>
    <tag k="teryt:rm" v="01"/>
    <tag k="teryt:simc" v="0555152"/>
    <tag k="teryt:stan_na" v="2009-01-01"/>
    <tag k="teryt:terc" v="1012132"/>
    <tag k="teryt:updated_by" v="teryt2osm combine.py v. 47M"/>
  </node>
  <node id="385538198" version="3" timestamp="2009-06-16T14:31:30Z" uid="20587" user="balrog-kun" changeset="1535654" lat="51.0149529" lon="19.7108557">
    <tag k="is_in" v="gmina Wielgomłyny, powiat radomszczański, województwo łódzkie, Poland"/>
    <tag k="is_in:country" v="Poland"/>
    <tag k="is_in:county" v="powiat radomszczański"/>
    <tag k="is_in:municipality" v="gmina Wielgomłyny"/>
    <tag k="is_in:province" v="województwo łódzkie"/>
    <tag k="name" v="Odrowąż"/>
    <tag k="place" v="village"/>
    <tag k="population" v="110"/>
    <tag k="source" v="wikipedia"/>
    <tag k="source:population" v="wikipedia"/>
    <tag k="teryt:rm" v="01"/>
    <tag k="teryt:simc" v="0555152"/>
    <tag k="teryt:stan_na" v="2009-01-01"/>
    <tag k="teryt:terc" v="1012132"/>
    <tag k="teryt:updated_by" v="teryt2osm combine.py v. 47M"/>
    <tag k="wikipedia" v="Odrowąż, Radomsko County"/>
  </node>
  <node id="385538198" version="4" timestamp="2010-02-19T22:51:06Z" uid="91056" user="Yarl" changeset="3919505" lat="51.0103627" lon="19.7045547">
    <tag k="is_in" v="gmina Wielgomłyny, powiat radomszczański, województwo łódzkie, Poland"/>
    <tag k="is_in:country" v="Poland"/>
    <tag k="is_in:county" v="powiat radomszczański"/>
    <tag k="is_in:municipality" v="gmina Wielgomłyny"/>
    <tag k="is_in:province" v="województwo łódzkie"/>
    <tag k="name" v="Odrowąż"/>
    <tag k="place" v="village"/>
    <tag k="population" v="110"/>
    <tag k="source" v="wikipedia"/>
    <tag k="source:population" v="wikipedia"/>
    <tag k="teryt:rm" v="01"/>
    <tag k="teryt:simc" v="0555152"/>
    <tag k="teryt:stan_na" v="2009-01-01"/>
    <tag k="teryt:terc" v="1012132"/>
    <tag k="teryt:updated_by" v="teryt2osm combine.py v. 47M"/>
    <tag k="wikipedia" v="Odrowąż, Radomsko County"/>
  </node>
</osm>
