<?xml version='1.0' encoding='UTF-8'?>
<osm version="0.6" generator="libosmium/2.20.0">
  <node id="385550225" version="1" timestamp="2009-04-26T20:12:22Z" uid="38524" user="Kuddy" changeset="980765" lat="50.1998021" lon="6.8816715">
    <tag k="historic" v="archaeological_site"/>
    <tag k="name" v="Grabhügelfeld"/>
  </node>
  <node id="385550232" version="1" timestamp="2009-04-26T20:12:22Z" uid="38524" user="Kuddy" changeset="980765" lat="50.2086516" lon="6.8958405">
    <tag k="historic" v="archaeological_site"/>
    <tag k="name" v="Römische Stollen-Wasserleitung"/>
  </node>
  <node id="385550236" version="1" timestamp="2009-04-26T20:12:22Z" uid="38524" user="Kuddy" changeset="980765" lat="50.2176999" lon="6.8960891">
    <tag k="historic" v="archaeological_site"/>
    <tag k="name" v="Gebäude einer Villenanlage"/>
  </node>
  <node id="385550239" version="1" timestamp="2009-04-26T20:12:22Z" uid="38524" user="Kuddy" changeset="980765" lat="50.2141203" lon="6.9122965">
    <tag k="name" v="Aussichtspunkt Thommem"/>
    <tag k="tourism" v="viewpoint"/>
  </node>
  <node id="385550244" version="1" timestamp="2009-04-26T20:12:23Z" uid="38524" user="Kuddy" changeset="980765" lat="50.2086019" lon="6.9099598">
    <tag k="historic" v="archaeological_site"/>
    <tag k="name" v="Grabhügelgruppe"/>
  </node>
  <node id="385550247" version="1" timestamp="2009-04-26T20:12:23Z" uid="38524" user="Kuddy" changeset="980765" lat="50.1995536" lon="6.9097609">
    <tag k="historic" v="archaeological_site"/>
    <tag k="name" v="Römische Siedlungsstelle"/>
  </node>
  <node id="385550250" version="1" timestamp="2009-04-26T20:12:23Z" uid="38524" user="Kuddy" changeset="980765" lat="50.1904754" lon="6.923582">
    <tag k="historic" v="archaeological_site"/>
    <tag k="name" v="Grabhügelgruppe"/>
  </node>
  <node id="385550255" version="1" timestamp="2009-04-26T20:12:23Z" uid="38524" user="Kuddy" changeset="980765" lat="50.181447" lon="6.9234229">
    <tag k="historic" v="archaeological_site"/>
    <tag k="name" v="Grabhügel"/>
  </node>
  <node id="385550258" version="1" timestamp="2009-04-26T20:12:23Z" uid="38524" user="Kuddy" changeset="980765" lat="50.1857027" lon="6.931974">
    <tag k="name" v="Aussichtspunkt beim Hirtzbaum"/>
    <tag k="tourism" v="viewpoint"/>
  </node>
  <node id="385550262" version="1" timestamp="2009-04-26T20:12:23Z" uid="38524" user="Kuddy" changeset="980765" lat="50.1816857" lon="6.9093831">
    <tag k="historic" v="archaeological_site"/>
    <tag k="name" v="Grabhügel"/>
  </node>
  <node id="385550266" version="1" timestamp="2009-04-26T20:12:23Z" uid="38524" user="Kuddy" changeset="980765" lat="50.177157" lon="6.91927">
    <tag k="name" v="Vulcano Infoplattform"/>
    <tag k="tourism" v="attraction"/>
  </node>
  <node id="385550266" version="2" timestamp="2009-05-17T21:23:41Z" uid="95223" user="emmbaer" changeset="1229591" lat="50.1782816" lon="6.9185446">
    <tag k="name" v="Vulcano Infoplattform"/>
    <tag k="tourism" v="attraction"/>
  </node>
  <node id="385550266" version="3" timestamp="2011-10-03T14:21:08Z" uid="68997" user="StefanT" changeset="9460488" lat="50.1782816" lon="6.9185446">
    <tag k="height" v="28"/>
    <tag k="man_made" v="tower"/>
    <tag k="name" v="Vulcano Infoplattform"/>
    <tag k="tourism" v="attraction"/>
  </node>
  <node id="385550271" version="1" timestamp="2009-04-26T20:12:23Z" uid="38524" user="Kuddy" changeset="980765" lat="50.1744893" lon="6.9199827">
    <tag k="historic" v="archaeological_site"/>
    <tag k="name" v="Opferstein"/>
  </node>
  <node id="385550274" version="1" timestamp="2009-04-26T20:12:23Z" uid="38524" user="Kuddy" changeset="980765" lat="50.172756" lon="6.9188831">
    <tag k="historic" v="archaeological_site"/>
    <tag k="name" v="Hügelgräberfeld auf der Steineberger Ley"/>
  </node>
  <node id="385550279" version="1" timestamp="2009-04-26T20:12:23Z" uid="38524" user="Kuddy" changeset="980765" lat="50.1670165" lon="6.9332481">
    <tag k="name" v="Mineralbrunnen"/>
    <tag k="natural" v="spring"/>
  </node>
  <node id="385550283" version="1" timestamp="2009-04-26T20:12:23Z" uid="38524" user="Kuddy" changeset="980765" lat="50.1635165" lon="6.9230981">
    <tag k="historic" v="archaeological_site"/>
    <tag k="name" v="Grabhügelnekropole"/>
  </node>
  <node id="385551618" version="1" timestamp="2009-04-26T20:14:52Z" uid="38524" user="Kuddy" changeset="980814" lat="50.2149629" lon="6.9093521">
    <tag k="name" v="Richtstätte auf Thommem"/>
    <tag k="tourism" v="attraction"/>
  </node>
  <node id="385551619" version="1" timestamp="2009-04-26T20:14:52Z" uid="38524" user="Kuddy" changeset="980814" lat="50.1817527" lon="6.8953819">
    <tag k="historic" v="archaeological_site"/>
    <tag k="name" v="Grabhügelgruppe"/>
  </node>
  <node id="385551663" version="1" timestamp="2009-04-26T20:15:06Z" uid="30632" user="antblant" changeset="980818" lat="53.3717634" lon="14.6535488">
    <tag k="addr:housenumber" v="48"/>
    <tag k="addr:postcode" v="70-780"/>
    <tag k="addr:street" v="Pszenna"/>
  </node>
  <node id="385551663" version="2" timestamp="2010-06-09T18:27:20Z" uid="30632" user="antblant" changeset="4947611" lat="53.3717634" lon="14.6535488">
    <tag k="addr:housenumber" v="48"/>
    <tag k="addr:postcode" v="70-780"/>
    <tag k="addr:street" v="Pszenna"/>
  </node>
  <node id="385551664" version="1" timestamp="2009-04-26T20:15:06Z" uid="30632" user="antblant" changeset="980818" lat="53.3716838" lon="14.6537791">
    <tag k="addr:housenumber" v="49"/>
    <tag k="addr:postcode" v="70-780"/>
    <tag k="addr:street" v="Pszenna"/>
  </node>
  <node id="385551664" version="2" timestamp="2010-06-09T18:27:22Z" uid="30632" user="antblant" changeset="4947611" lat="53.3716838" lon="14.6537791">
    <tag k="addr:housenumber" v="49"/>
    <tag k="addr:postcode" v="70-780"/>
    <tag k="addr:street" v="Pszenna"/>
  </node>
  <node id="385551665" version="1" timestamp="2009-04-26T20:15:07Z" uid="30632" user="antblant" changeset="980818" lat="53.3715898" lon="14.6540507">
    <tag k="addr:housenumber" v="50"/>
    <tag k="addr:postcode" v="70-780"/>
    <tag k="addr:street" v="Pszenna"/>
  </node>
  <node id="385551665" version="2" timestamp="2010-06-09T18:27:24Z" uid="30632" user="antblant" changeset="4947611" lat="53.3715898" lon="14.6540507">
    <tag k="addr:housenumber" v="50"/>
    <tag k="addr:postcode" v="70-780"/>
    <tag k="addr:street" v="Pszenna"/>
  </node>
  <node id="385551666" version="1" timestamp="2009-04-26T20:15:07Z" uid="30632" user="antblant" changeset="980818" lat="53.3715035" lon="14.6543002">
    <tag k="addr:housenumber" v="51"/>
    <tag k="addr:postcode" v="70-780"/>
    <tag k="addr:street" v="Pszenna"/>
  </node>
  <node id="385551666" version="2" timestamp="2010-06-09T18:27:20Z" uid="30632" user="antblant" changeset="4947611" lat="53.3715035" lon="14.6543002">
    <tag k="addr:housenumber" v="51"/>
    <tag k="addr:postcode" v="70-780"/>
    <tag k="addr:street" v="Pszenna"/>
  </node>
  <node id="385551667" version="1" timestamp="2009-04-26T20:15:07Z" uid="30632" user="antblant" changeset="980818" lat="53.3720242" lon="14.652795">
    <tag k="addr:housenumber" v="47"/>
    <tag k="addr:postcode" v="70-780"/>
    <tag k="addr:street" v="Pszenna"/>
  </node>
  <node id="385551667" version="2" timestamp="2010-06-09T18:27:21Z" uid="30632" user="antblant" changeset="4947611" lat="53.3720242" lon="14.652795">
    <tag k="addr:housenumber" v="47"/>
    <tag k="addr:postcode" v="70-780"/>
    <tag k="addr:street" v="Pszenna"/>
  </node>
  <node id="385551668" version="1" timestamp="2009-04-26T20:15:07Z" uid="30632" user="antblant" changeset="980818" lat="53.3721318" lon="14.6524839">
    <tag k="addr:housenumber" v="46"/>
    <tag k="addr:postcode" v="70-780"/>
    <tag k="addr:street" v="Pszenna"/>
  </node>
  <node id="385551668" version="2" timestamp="2010-06-09T18:27:28Z" uid="30632" user="antblant" changeset="4947611" lat="53.3721318" lon="14.6524839">
    <tag k="addr:housenumber" v="46"/>
    <tag k="addr:postcode" v="70-780"/>
    <tag k="addr:street" v="Pszenna"/>
  </node>
  <node id="385551670" version="1" timestamp="2009-04-26T20:15:07Z" uid="30632" user="antblant" changeset="980818" lat="53.3723643" lon="14.6518116">
    <tag k="addr:housenumber" v="44"/>
    <tag k="addr:postcode" v="70-780"/>
    <tag k="addr:street" v="Pszenna"/>
  </node>
  <node id="385551670" version="2" timestamp="2010-06-09T18:27:25Z" uid="30632" user="antblant" changeset="4947611" lat="53.3723643" lon="14.6518116">
    <tag k="addr:housenumber" v="44"/>
    <tag k="addr:postcode" v="70-780"/>
    <tag k="addr:street" v="Pszenna"/>
  </node>
  <node id="385551671" version="1" timestamp="2009-04-26T20:15:07Z" uid="30632" user="antblant" changeset="980818" lat="53.3775929" lon="14.639008">
    <tag k="addr:housenumber" v="22"/>
    <tag k="addr:street" v="Walecznych"/>
  </node>
  <node id="385551672" version="1" timestamp="2009-04-26T20:15:07Z" uid="30632" user="antblant" changeset="980818" lat="53.3782663" lon="14.6379193">
    <tag k="addr:housenumber" v="18"/>
    <tag k="addr:street" v="Walecznych"/>
  </node>
  <node id="385552244" version="1" timestamp="2009-04-26T20:16:53Z" uid="36809" user="pfoten_weg_!_" changeset="980851" lat="48.0798316" lon="11.5110626"/>
  <node id="385552244" version="2" timestamp="2009-06-09T08:57:24Z" uid="36809" user="pfoten_weg_!_" changeset="1466365" lat="48.0798316" lon="11.5110626">
    <tag k="created_by" v="RambaZamba"/>
  </node>
  <node id="385552244" version="3" timestamp="2009-08-12T13:46:28Z" uid="156995" user="HampelZamba" changeset="2118817" lat="48.0798316" lon="11.5110626"/>
  <node id="385552244" version="4" timestamp="2009-08-19T01:49:23Z" uid="36809" user="pfoten_weg_!_" changeset="2196399" lat="48.0798316" lon="11.5110626">
    <tag k="warnung" v="rumpelzumpel-verbrecher"/>
  </node>
  <node id="385552244" version="5" timestamp="2009-08-19T02:14:18Z" uid="36809" user="pfoten_weg_!_" changeset="2196453" lat="48.0798316" lon="11.5110626"/>
  <node id="385552244" version="6" timestamp="2009-10-13T22:40:51Z" uid="36809" user="pfoten_weg_!_" changeset="2841133" lat="48.0798316" lon="11.5110626"/>
  <node id="385552245" version="1" timestamp="2009-04-26T20:16:53Z" uid="36809" user="pfoten_weg_!_" changeset="980851" lat="48.0797752" lon="11.5111387"/>
  <node id="385552245" version="2" timestamp="2009-06-09T08:57:24Z" uid="36809" user="pfoten_weg_!_" changeset="1466365" lat="48.0797752" lon="11.5111387">
    <tag k="created_by" v="RambaZamba"/>
  </node>
  <node id="385552245" version="3" timestamp="2009-08-12T13:46:28Z" uid="156995" user="HampelZamba" changeset="2118817" lat="48.0797752" lon="11.5111387"/>
  <node id="385552245" version="4" timestamp="2009-08-19T01:49:24Z" uid="36809" user="pfoten_weg_!_" changeset="2196399" lat="48.0797752" lon="11.5111387">
    <tag k="warnung" v="rumpelzumpel-verbrecher"/>
  </node>
  <node id="385552245" version="5" timestamp="2009-08-19T02:14:18Z" uid="36809" user="pfoten_weg_!_" changeset="2196453" lat="48.0797752" lon="11.5111387"/>
  <node id="385552245" version="6" timestamp="2009-10-13T22:40:52Z" uid="36809" user="pfoten_weg_!_" changeset="2841133" lat="48.0797752" lon="11.5111387"/>
  <node id="385552246" version="1" timestamp="2009-04-26T20:16:53Z" uid="36809" user="pfoten_weg_!_" changeset="980851" lat="48.0800149" lon="11.5102647">
    <tag k="created_by" v="RambaZamba"/>
    <tag k="leisure" v="playground"/>
    <tag k="name" v="Kinderspielplatz"/>
    <tag k="source" v="survey"/>
  </node>
  <node id="385552246" version="2" timestamp="2009-08-12T13:46:28Z" uid="156995" user="HampelZamba" changeset="2118817" lat="48.0800149" lon="11.5102647">
    <tag k="leisure" v="playground"/>
    <tag k="name" v="Kinderspielplatz"/>
    <tag k="source" v="survey"/>
  </node>
  <node id="385552246" version="3" timestamp="2009-08-19T01:49:22Z" uid="36809" user="pfoten_weg_!_" changeset="2196399" lat="48.0800149" lon="11.5102647">
    <tag k="leisure" v="playground"/>
    <tag k="name" v="Kinderspielplatz"/>
    <tag k="source" v="survey"/>
    <tag k="warnung" v="rumpelzumpel-verbrecher"/>
  </node>
  <node id="385552246" version="4" timestamp="2009-08-19T02:14:17Z" uid="36809" user="pfoten_weg_!_" changeset="2196453" lat="48.0800149" lon="11.5102647">
    <tag k="leisure" v="playground"/>
    <tag k="name" v="Kinderspielplatz"/>
    <tag k="source" v="survey"/>
  </node>
  <node id="385552246" version="5" timestamp="2009-08-19T16:45:40Z" uid="155922" user="Zeitlupe" changeset="2203248" lat="48.0800149" lon="11.5102647">
    <tag k="leisure" v="playground"/>
    <tag k="source" v="survey"/>
  </node>
  <node id="385552246" version="6" timestamp="2009-10-03T17:38:32Z" uid="179968" user="Ich_hasse_doitsche_OSM-Korinthenkacker" changeset="2727120" lat="48.0800149" lon="11.5102647">
    <tag k="leisure" v="playground"/>
  </node>
  <node id="385552246" version="7" timestamp="2009-10-03T20:58:55Z" uid="179968" user="Ich_hasse_doitsche_OSM-Korinthenkacker" changeset="2729559" lat="48.0800149" lon="11.5102647">
    <tag k="leisure" v="playground"/>
  </node>
  <node id="385552248" version="1" timestamp="2009-04-26T20:16:53Z" uid="36809" user="pfoten_weg_!_" changeset="980851" lat="48.0805755" lon="11.5103917"/>
  <node id="385552248" version="2" timestamp="2009-06-09T08:57:24Z" uid="36809" user="pfoten_weg_!_" changeset="1466365" lat="48.0805755" lon="11.5103917">
    <tag k="created_by" v="RambaZamba"/>
  </node>
  <node id="385552248" version="3" timestamp="2009-08-12T13:46:29Z" uid="156995" user="HampelZamba" changeset="2118817" lat="48.0805755" lon="11.5103917"/>
  <node id="385552248" version="4" timestamp="2009-08-19T01:49:25Z" uid="36809" user="pfoten_weg_!_" changeset="2196399" lat="48.0805755" lon="11.5103917">
    <tag k="warnung" v="rumpelzumpel-verbrecher"/>
  </node>
  <node id="385552248" version="5" timestamp="2009-08-19T02:14:20Z" uid="36809" user="pfoten_weg_!_" changeset="2196453" lat="48.0805755" lon="11.5103917"/>
  <node id="385552249" version="1" timestamp="2009-04-26T20:16:53Z" uid="36809" user="pfoten_weg_!_" changeset="980851" lat="48.0805599" lon="11.5104138"/>
  <node id="385552249" version="2" timestamp="2009-06-09T08:57:24Z" uid="36809" user="pfoten_weg_!_" changeset="1466365" lat="48.0805599" lon="11.5104138">
    <tag k="created_by" v="RambaZamba"/>
  </node>
  <node id="385552249" version="3" timestamp="2009-08-12T13:46:29Z" uid="156995" user="HampelZamba" changeset="2118817" lat="48.0805599" lon="11.5104138"/>
  <node id="385552249" version="4" timestamp="2009-08-19T01:49:26Z" uid="36809" user="pfoten_weg_!_" changeset="2196399" lat="48.0805599" lon="11.5104138">
    <tag k="warnung" v="rumpelzumpel-verbrecher"/>
  </node>
  <node id="385552249" version="5" timestamp="2009-08-19T02:14:20Z" uid="36809" user="pfoten_weg_!_" changeset="2196453" lat="48.0805599" lon="11.5104138"/>
  <node id="385552249" version="6" timestamp="2009-10-13T22:40:56Z" uid="36809" user="pfoten_weg_!_" changeset="2841133" lat="48.0805599" lon="11.5104138"/>
  <node id="385552250" version="1" timestamp="2009-04-26T20:16:53Z" uid="36809" user="pfoten_weg_!_" changeset="980851" lat="48.0803428" lon="11.5101528"/>
  <node id="385552250" version="2" timestamp="2009-06-09T08:57:24Z" uid="36809" user="pfoten_weg_!_" changeset="1466365" lat="48.0803428" lon="11.5101528">
    <tag k="created_by" v="RambaZamba"/>
  </node>
  <node id="385552250" version="3" timestamp="2009-08-12T13:46:29Z" uid="156995" user="HampelZamba" changeset="2118817" lat="48.0803428" lon="11.5101528"/>
  <node id="385552250" version="4" timestamp="2009-08-19T01:49:25Z" uid="36809" user="pfoten_weg_!_" changeset="2196399" lat="48.0803428" lon="11.5101528">
    <tag k="warnung" v="rumpelzumpel-verbrecher"/>
  </node>
  <node id="385552250" version="5" timestamp="2009-08-19T02:14:19Z" uid="36809" user="pfoten_weg_!_" changeset="2196453" lat="48.0803428" lon="11.5101528"/>
  <node id="385552251" version="1" timestamp="2009-04-26T20:16:53Z" uid="36809" user="pfoten_weg_!_" changeset="980851" lat="48.0803283" lon="11.5101791"/>
  <node id="385552251" version="2" timestamp="2009-06-09T08:57:24Z" uid="36809" user="pfoten_weg_!_" changeset="1466365" lat="48.0803283" lon="11.5101791">
    <tag k="created_by" v="RambaZamba"/>
  </node>
  <node id="385552251" version="3" timestamp="2009-08-12T13:46:29Z" uid="156995" user="HampelZamba" changeset="2118817" lat="48.0803283" lon="11.5101791"/>
  <node id="385552251" version="4" timestamp="2009-08-19T01:49:25Z" uid="36809" user="pfoten_weg_!_" changeset="2196399" lat="48.0803283" lon="11.5101791">
    <tag k="warnung" v="rumpelzumpel-verbrecher"/>
  </node>
  <node id="385552251" version="5" timestamp="2009-08-19T02:14:19Z" uid="36809" user="pfoten_weg_!_" changeset="2196453" lat="48.0803283" lon="11.5101791"/>
  <node id="385552251" version="6" timestamp="2009-10-13T22:40:57Z" uid="36809" user="pfoten_weg_!_" changeset="2841133" lat="48.0803283" lon="11.5101791"/>
  <node id="385557758" version="1" timestamp="2009-04-26T20:28:38Z" uid="38524" user="Kuddy" changeset="981071" lat="50.2201494" lon="6.7628567">
    <tag k="name" v="Vulkan Ringseiter"/>
    <tag k="natural" v="volcano"/>
  </node>
  <node id="385557761" version="1" timestamp="2009-04-26T20:28:38Z" uid="38524" user="Kuddy" changeset="981071" lat="50.2221147" lon="6.7678877">
    <tag k="name" v="Aussichtspunkt Ringseiter"/>
    <tag k="tourism" v="viewpoint"/>
  </node>
  <node id="385557762" version="1" timestamp="2009-04-26T20:28:38Z" uid="38524" user="Kuddy" changeset="981071" lat="50.2096586" lon="6.7665907">
    <tag k="name" v="Vulkan Goosberg"/>
    <tag k="natural" v="volcano"/>
  </node>
  <node id="385557763" version="1" timestamp="2009-04-26T20:28:38Z" uid="38524" user="Kuddy" changeset="981071" lat="50.2100885" lon="6.7593745">
    <tag k="name" v="Kleine Kyllquelle"/>
    <tag k="natural" v="spring"/>
  </node>
  <node id="385557765" version="1" timestamp="2009-04-26T20:28:38Z" uid="38524" user="Kuddy" changeset="981071" lat="50.2007765" lon="6.7276412">
    <tag k="historic" v="archaeological_site"/>
    <tag k="name" v="Wüstung Hengsweiler"/>
  </node>
  <node id="385557768" version="1" timestamp="2009-04-26T20:28:38Z" uid="38524" user="Kuddy" changeset="981071" lat="50.199465" lon="6.7329519">
    <tag k="name" v="Aussichtspunkt"/>
    <tag k="tourism" v="viewpoint"/>
  </node>
  <node id="385557771" version="1" timestamp="2009-04-26T20:28:38Z" uid="38524" user="Kuddy" changeset="981071" lat="50.1963635" lon="6.746673">
    <tag k="name" v="Mausefallen-Museum"/>
    <tag k="tourism" v="museum"/>
  </node>
  <node id="385557771" version="2" timestamp="2011-06-15T20:33:00Z" uid="85218" user="Aleks-Berlin" changeset="8450842" lat="50.1963635" lon="6.746673">
    <tag k="addr:housenumber" v="1"/>
    <tag k="addr:street" v="Mühlenweg"/>
    <tag k="name" v="Mausefallen-Museum"/>
    <tag k="tourism" v="museum"/>
    <tag k="website" v="http://www.mausefallendorf.de/museum/"/>
  </node>
  <node id="385557771" version="3" timestamp="2011-12-28T05:47:57Z" uid="290680" user="wheelmap_visitor" changeset="10222046" lat="50.1963635" lon="6.746673">
    <tag k="addr:housenumber" v="1"/>
    <tag k="addr:street" v="Mühlenweg"/>
    <tag k="name" v="Mausefallen-Museum"/>
    <tag k="tourism" v="museum"/>
    <tag k="website" v="http://www.mausefallendorf.de/museum/"/>
    <tag k="wheelchair" v="no"/>
  </node>
  <node id="385557773" version="1" timestamp="2009-04-26T20:28:38Z" uid="38524" user="Kuddy" changeset="981071" lat="50.2037497" lon="6.7923709">
    <tag k="historic" v="wayside_cross"/>
    <tag k="name" v="Pestkreuz"/>
  </node>
  <node id="385557773" version="2" timestamp="2010-02-24T00:52:30Z" uid="31310" user="ComPerkins" changeset="3959598" lat="50.2037569" lon="6.7924107">
    <tag k="historic" v="wayside_cross"/>
    <tag k="name" v="Pestkreuz"/>
  </node>
  <node id="385557776" version="1" timestamp="2009-04-26T20:28:39Z" uid="38524" user="Kuddy" changeset="981071" lat="50.2005869" lon="6.7696783">
    <tag k="historic" v="archaeological_site"/>
    <tag k="name" v="Römische Siedlungsstelle"/>
  </node>
  <node id="385557779" version="1" timestamp="2009-04-26T20:28:39Z" uid="38524" user="Kuddy" changeset="981071" lat="50.2142786" lon="6.7405895">
    <tag k="historic" v="wayside_cross"/>
    <tag k="name" v="Schwarzes Kreuz"/>
  </node>
  <node id="385557782" version="1" timestamp="2009-04-26T20:28:39Z" uid="38524" user="Kuddy" changeset="981071" lat="50.2142226" lon="6.7481805">
    <tag k="historic" v="archaeological_site"/>
    <tag k="name" v="Wüstung Oberroth"/>
  </node>
  <node id="385557784" version="1" timestamp="2009-04-26T20:28:39Z" uid="38524" user="Kuddy" changeset="981071" lat="50.2147446" lon="6.7524181">
    <tag k="historic" v="archaeological_site"/>
    <tag k="name" v="Flurwüstung Schnellersroth"/>
  </node>
  <node id="385557785" version="1" timestamp="2009-04-26T20:28:39Z" uid="38524" user="Kuddy" changeset="981071" lat="50.2159729" lon="6.7502993">
    <tag k="landuse" v="quarry"/>
    <tag k="name" v="Mühlsteinbrüche"/>
  </node>
</osm>
