<?xml version='1.0' encoding='UTF-8'?>
<osm version="0.6" generator="libosmium/2.20.0">
  <node id="386142759" version="2" timestamp="2009-11-01T01:29:50Z" uid="9581" user="Lobelt" changeset="3003143" lat="50.5328779" lon="11.6374151"/>
  <node id="386148231" version="1" timestamp="2009-04-27T17:54:59Z" uid="38524" user="Kuddy" changeset="994437" lat="50.1259246" lon="6.8111827">
    <tag k="historic" v="archaeological_site"/>
    <tag k="name" v="Wüstung Mühlen"/>
  </node>
  <node id="386148232" version="1" timestamp="2009-04-27T17:55:00Z" uid="38524" user="Kuddy" changeset="994437" lat="50.1194962" lon="6.7963536">
    <tag k="historic" v="archaeological_site"/>
    <tag k="name" v="Römische Siedlungsstelle"/>
  </node>
  <node id="386148233" version="1" timestamp="2009-04-27T17:55:00Z" uid="38524" user="Kuddy" changeset="994437" lat="50.1299434" lon="6.780475">
    <tag k="name" v="3 Eichen"/>
    <tag k="natural" v="tree"/>
    <tag k="type" v="Eiche"/>
  </node>
  <node id="386148234" version="1" timestamp="2009-04-27T17:55:00Z" uid="38524" user="Kuddy" changeset="994437" lat="50.1433851" lon="6.7699793">
    <tag k="leisure" v="garden"/>
    <tag k="name" v="Napoleonsgarten"/>
  </node>
  <node id="386148235" version="1" timestamp="2009-04-27T17:55:00Z" uid="38524" user="Kuddy" changeset="994437" lat="50.1584739" lon="6.7938339">
    <tag k="name" v="Aussichtspunkt Aarley"/>
    <tag k="tourism" v="viewpoint"/>
  </node>
  <node id="386148236" version="1" timestamp="2009-04-27T17:55:00Z" uid="38524" user="Kuddy" changeset="994437" lat="50.1554329" lon="6.7969835">
    <tag k="historic" v="archaeological_site"/>
    <tag k="name" v="Römisches Brandgrab"/>
  </node>
  <node id="386148237" version="1" timestamp="2009-04-27T17:55:00Z" uid="38524" user="Kuddy" changeset="994437" lat="50.110661" lon="6.807859">
    <tag k="name" v="Aussichtspunkt Kiesberghütte"/>
    <tag k="tourism" v="viewpoint"/>
  </node>
</osm>
