<?xml version='1.0' encoding='UTF-8'?>
<osm version="0.6" generator="libosmium/2.20.0">
  <node id="386200302" version="3" timestamp="2009-06-16T14:28:25Z" uid="20587" user="balrog-kun" changeset="1535626" lat="50.9722516" lon="15.6805211">
    <tag k="is_in" v="gmina Wleń, powiat lwówecki, województwo dolnośląskie, Poland"/>
    <tag k="is_in:country" v="Poland"/>
    <tag k="is_in:county" v="powiat lwówecki"/>
    <tag k="is_in:municipality" v="gmina Wleń"/>
    <tag k="is_in:province" v="województwo dolnośląskie"/>
    <tag k="name" v="Strzyżowiec"/>
    <tag k="place" v="village"/>
    <tag k="teryt:rm" v="01"/>
    <tag k="teryt:simc" v="0193186"/>
    <tag k="teryt:stan_na" v="2009-01-01"/>
    <tag k="teryt:terc" v="0212055"/>
    <tag k="teryt:updated_by" v="teryt2osm combine.py v. 47M"/>
    <tag k="wikipedia" v="Strzyżowiec, Lower Silesian Voivodeship"/>
  </node>
  <node id="386200311" version="3" timestamp="2009-06-16T14:28:30Z" uid="20587" user="balrog-kun" changeset="1535626" lat="50.9791142" lon="15.6413489">
    <tag k="is_in" v="gmina Wleń, powiat lwówecki, województwo dolnośląskie, Poland"/>
    <tag k="is_in:country" v="Poland"/>
    <tag k="is_in:county" v="powiat lwówecki"/>
    <tag k="is_in:municipality" v="gmina Wleń"/>
    <tag k="is_in:province" v="województwo dolnośląskie"/>
    <tag k="name" v="Pilchowice"/>
    <tag k="place" v="village"/>
    <tag k="teryt:rm" v="01"/>
    <tag k="teryt:simc" v="0193157"/>
    <tag k="teryt:stan_na" v="2009-01-01"/>
    <tag k="teryt:terc" v="0212055"/>
    <tag k="teryt:updated_by" v="teryt2osm combine.py v. 47M"/>
    <tag k="wikipedia" v="Pilchowice, Lower Silesian Voivodeship"/>
  </node>
  <node id="386200311" version="4" timestamp="2012-01-15T21:29:32Z" uid="372780" user="albert_lacki" changeset="10403671" lat="50.9791142" lon="15.6413489"/>
  <node id="386200314" version="3" timestamp="2009-06-16T14:28:27Z" uid="20587" user="balrog-kun" changeset="1535626" lat="51.002" lon="15.674">
    <tag k="is_in" v="gmina Wleń, powiat lwówecki, województwo dolnośląskie, Poland"/>
    <tag k="is_in:country" v="Poland"/>
    <tag k="is_in:county" v="powiat lwówecki"/>
    <tag k="is_in:municipality" v="gmina Wleń"/>
    <tag k="is_in:province" v="województwo dolnośląskie"/>
    <tag k="name" v="Nielestno"/>
    <tag k="place" v="village"/>
    <tag k="teryt:rm" v="01"/>
    <tag k="teryt:simc" v="0193140"/>
    <tag k="teryt:stan_na" v="2009-01-01"/>
    <tag k="teryt:terc" v="0212055"/>
    <tag k="teryt:updated_by" v="teryt2osm combine.py v. 47M"/>
    <tag k="wikipedia" v="Nielestno"/>
  </node>
  <node id="386200314" version="4" timestamp="2010-04-11T04:46:50Z" uid="20587" user="balrog-kun" changeset="4389130" lat="51.000704" lon="15.674621">
    <tag k="is_in" v="gmina Wleń, powiat lwówecki, województwo dolnośląskie, Poland"/>
    <tag k="is_in:country" v="Poland"/>
    <tag k="is_in:county" v="powiat lwówecki"/>
    <tag k="is_in:municipality" v="gmina Wleń"/>
    <tag k="is_in:province" v="województwo dolnośląskie"/>
    <tag k="name" v="Nielestno"/>
    <tag k="place" v="village"/>
    <tag k="teryt:rm" v="01"/>
    <tag k="teryt:simc" v="0193140"/>
    <tag k="teryt:stan_na" v="2009-01-01"/>
    <tag k="teryt:terc" v="0212055"/>
    <tag k="teryt:updated_by" v="teryt2osm combine.py v. 47M"/>
    <tag k="wikipedia" v="Nielestno"/>
  </node>
  <node id="386200325" version="3" timestamp="2009-06-16T14:28:27Z" uid="20587" user="balrog-kun" changeset="1535626" lat="51.0219" lon="15.6472">
    <tag k="is_in" v="gmina Wleń, powiat lwówecki, województwo dolnośląskie, Poland"/>
    <tag k="is_in:country" v="Poland"/>
    <tag k="is_in:county" v="powiat lwówecki"/>
    <tag k="is_in:municipality" v="gmina Wleń"/>
    <tag k="is_in:province" v="województwo dolnośląskie"/>
    <tag k="name" v="Łupki"/>
    <tag k="place" v="village"/>
    <tag k="population" v="200"/>
    <tag k="source:population" v="wikipedia"/>
    <tag k="teryt:rm" v="01"/>
    <tag k="teryt:simc" v="0193105"/>
    <tag k="teryt:stan_na" v="2009-01-01"/>
    <tag k="teryt:terc" v="0212055"/>
    <tag k="teryt:updated_by" v="teryt2osm combine.py v. 47M"/>
    <tag k="wikipedia" v="Łupki, Lower Silesian Voivodeship"/>
  </node>
  <node id="386201244" version="1" timestamp="2009-04-27T19:38:28Z" uid="1066" user="pavel" changeset="996276" lat="50.1277387" lon="14.5667778"/>
  <node id="386201244" version="2" timestamp="2009-04-28T06:24:54Z" uid="1066" user="pavel" changeset="999940" lat="50.1276954" lon="14.5670142"/>
  <node id="386201244" version="3" timestamp="2009-09-15T14:22:47Z" uid="3516" user="BiIbo" changeset="2491593" lat="50.1276899" lon="14.566543"/>
  <node id="386201244" version="4" timestamp="2011-09-07T20:52:01Z" uid="17615" user="Petr Dlouhý" changeset="9240747" lat="50.1277232" lon="14.5663119"/>
  <node id="386201245" version="1" timestamp="2009-04-27T19:38:28Z" uid="1066" user="pavel" changeset="996276" lat="50.1414388" lon="14.5853061"/>
  <node id="386201245" version="2" timestamp="2011-05-09T14:44:46Z" uid="3516" user="BiIbo" changeset="8093286" lat="50.1414388" lon="14.5853061"/>
  <node id="386201246" version="1" timestamp="2009-04-27T19:38:29Z" uid="1066" user="pavel" changeset="996276" lat="50.1422695" lon="14.5849251"/>
  <node id="386201246" version="2" timestamp="2011-05-09T14:44:49Z" uid="3516" user="BiIbo" changeset="8093286" lat="50.1422695" lon="14.5849251"/>
  <node id="386201247" version="1" timestamp="2009-04-27T19:38:29Z" uid="1066" user="pavel" changeset="996276" lat="50.1424761" lon="14.5847134"/>
  <node id="386201247" version="2" timestamp="2011-05-09T14:44:45Z" uid="3516" user="BiIbo" changeset="8093286" lat="50.1424761" lon="14.5847134"/>
  <node id="386201248" version="1" timestamp="2009-04-27T19:38:29Z" uid="1066" user="pavel" changeset="996276" lat="50.1429749" lon="14.5838863"/>
  <node id="386201248" version="2" timestamp="2011-05-09T14:44:43Z" uid="3516" user="BiIbo" changeset="8093286" lat="50.1429749" lon="14.5838863"/>
  <node id="386201249" version="1" timestamp="2009-04-27T19:38:29Z" uid="1066" user="pavel" changeset="996276" lat="50.1430876" lon="14.5834434"/>
  <node id="386201249" version="2" timestamp="2011-05-09T14:44:49Z" uid="3516" user="BiIbo" changeset="8093286" lat="50.1430876" lon="14.5834434"/>
  <node id="386201250" version="1" timestamp="2009-04-27T19:38:29Z" uid="1066" user="pavel" changeset="996276" lat="50.1428831" lon="14.5837886"/>
  <node id="386201251" version="1" timestamp="2009-04-27T19:38:29Z" uid="1066" user="pavel" changeset="996276" lat="50.142787" lon="14.583717"/>
  <node id="386201252" version="1" timestamp="2009-04-27T19:38:29Z" uid="1066" user="pavel" changeset="996276" lat="50.1426973" lon="14.5837104"/>
  <node id="386201253" version="1" timestamp="2009-04-27T19:38:29Z" uid="1066" user="pavel" changeset="996276" lat="50.1424051" lon="14.5842412"/>
  <node id="386201254" version="1" timestamp="2009-04-27T19:38:29Z" uid="1066" user="pavel" changeset="996276" lat="50.1422695" lon="14.5845376"/>
  <node id="386201255" version="1" timestamp="2009-04-27T19:38:29Z" uid="1066" user="pavel" changeset="996276" lat="50.1424197" lon="14.5846288"/>
  <node id="386201255" version="2" timestamp="2009-04-28T20:10:09Z" uid="1066" user="pavel" changeset="1008998" lat="50.1423921" lon="14.5846192"/>
  <node id="386201256" version="1" timestamp="2009-04-27T19:38:29Z" uid="1066" user="pavel" changeset="996276" lat="50.1426159" lon="14.5842966"/>
  <node id="386201257" version="1" timestamp="2009-04-27T19:38:29Z" uid="1066" user="pavel" changeset="996276" lat="50.142833" lon="14.5838993"/>
  <node id="386201258" version="1" timestamp="2009-04-27T19:38:29Z" uid="1066" user="pavel" changeset="996276" lat="50.1493942" lon="14.5771605"/>
  <node id="386201259" version="1" timestamp="2009-04-27T19:38:29Z" uid="1066" user="pavel" changeset="996276" lat="50.1494961" lon="14.5771418"/>
  <node id="386201259" version="2" timestamp="2009-04-28T20:10:09Z" uid="1066" user="pavel" changeset="1008998" lat="50.1495644" lon="14.5772661"/>
  <node id="386201260" version="1" timestamp="2009-04-27T19:38:29Z" uid="1066" user="pavel" changeset="996276" lat="50.1495681" lon="14.5770389"/>
  <node id="386201260" version="2" timestamp="2009-04-28T20:10:08Z" uid="1066" user="pavel" changeset="1008998" lat="50.1496649" lon="14.5770211"/>
  <node id="386201261" version="1" timestamp="2009-04-27T19:38:29Z" uid="1066" user="pavel" changeset="996276" lat="50.1497239" lon="14.576646"/>
  <node id="386201261" version="2" timestamp="2009-04-28T20:10:08Z" uid="1066" user="pavel" changeset="1008998" lat="50.1498093" lon="14.5766282"/>
  <node id="386201262" version="1" timestamp="2009-04-27T19:38:29Z" uid="1066" user="pavel" changeset="996276" lat="50.1498558" lon="14.5762438"/>
  <node id="386201263" version="1" timestamp="2009-04-27T19:38:29Z" uid="1066" user="pavel" changeset="996276" lat="50.1499637" lon="14.5754674"/>
  <node id="386201264" version="1" timestamp="2009-04-27T19:38:29Z" uid="1066" user="pavel" changeset="996276" lat="50.1499157" lon="14.5751213"/>
  <node id="386201265" version="1" timestamp="2009-04-27T19:38:29Z" uid="1066" user="pavel" changeset="996276" lat="50.1499996" lon="14.5743916"/>
  <node id="386201266" version="1" timestamp="2009-04-27T19:38:29Z" uid="1066" user="pavel" changeset="996276" lat="50.1500596" lon="14.5728108"/>
  <node id="386201266" version="2" timestamp="2011-02-26T22:05:32Z" uid="412792" user="Buft" changeset="7405031" lat="50.1500301" lon="14.5727913"/>
  <node id="386201267" version="1" timestamp="2009-04-27T19:38:29Z" uid="1066" user="pavel" changeset="996276" lat="50.1500596" lon="14.5716041"/>
  <node id="386201268" version="1" timestamp="2009-04-27T19:38:29Z" uid="1066" user="pavel" changeset="996276" lat="50.1500896" lon="14.5710896"/>
  <node id="386201269" version="1" timestamp="2009-04-27T19:38:29Z" uid="1066" user="pavel" changeset="996276" lat="50.1500416" lon="14.570837"/>
  <node id="386201270" version="1" timestamp="2009-04-27T19:38:29Z" uid="1066" user="pavel" changeset="996276" lat="50.1476627" lon="14.5607002">
    <tag k="highway" v="bus_stop"/>
    <tag k="name" v="Ctěnice"/>
  </node>
  <node id="386201270" version="2" timestamp="2011-02-26T22:05:47Z" uid="412792" user="Buft" changeset="7405031" lat="50.1476131" lon="14.5605168">
    <tag k="highway" v="bus_stop"/>
    <tag k="name" v="Ctěnice"/>
  </node>
  <node id="386202747" version="1" timestamp="2009-04-27T19:41:05Z" uid="38524" user="Kuddy" changeset="996329" lat="50.2463603" lon="6.62006">
    <tag k="name" v="Vulkan Rother Kopf"/>
    <tag k="natural" v="volcano"/>
  </node>
  <node id="386202747" version="2" timestamp="2009-06-18T18:49:42Z" uid="125113" user="myro" changeset="1557217" lat="50.2463645" lon="6.6200683">
    <tag k="name" v="Vulkan Rother Kopf"/>
    <tag k="natural" v="volcano"/>
  </node>
  <node id="386202747" version="3" timestamp="2009-08-09T11:13:10Z" uid="137943" user="SL-JOSM" changeset="2084176" lat="50.246382" lon="6.6201243">
    <tag k="name" v="Vulkan Rother Kopf"/>
    <tag k="natural" v="volcano"/>
  </node>
  <node id="386202747" version="4" timestamp="2010-09-11T21:16:51Z" uid="85214" user="Alpinfuchs" changeset="5753592" lat="50.2463806" lon="6.6200955">
    <tag k="name" v="Vulkan Rother Kopf"/>
    <tag k="natural" v="volcano"/>
  </node>
  <node id="386202751" version="1" timestamp="2009-04-27T19:41:05Z" uid="38524" user="Kuddy" changeset="996329" lat="50.2477041" lon="6.6205697">
    <tag k="name" v="Mühlsteinhöhlen"/>
    <tag k="natural" v="cave_entrance"/>
    <tag k="tourism" v="attraction"/>
  </node>
  <node id="386202751" version="2" timestamp="2009-10-21T17:41:56Z" uid="95223" user="emmbaer" changeset="2914577" lat="50.2476626" lon="6.6204976">
    <tag k="name" v="Mühlsteinhöhlen"/>
    <tag k="natural" v="cave_entrance"/>
    <tag k="tourism" v="attraction"/>
  </node>
  <node id="386202751" version="3" timestamp="2009-10-21T17:42:51Z" uid="95223" user="emmbaer" changeset="2914577" lat="50.2476572" lon="6.6203516">
    <tag k="name" v="Mühlsteinhöhlen"/>
    <tag k="natural" v="cave_entrance"/>
    <tag k="tourism" v="attraction"/>
  </node>
  <node id="386202754" version="1" timestamp="2009-04-27T19:41:05Z" uid="38524" user="Kuddy" changeset="996329" lat="50.25535" lon="6.6304167">
    <tag k="historic" v="archaeological_site"/>
    <tag k="name" v="Römische Siedlungsstelle"/>
  </node>
  <node id="386202758" version="1" timestamp="2009-04-27T19:41:05Z" uid="38524" user="Kuddy" changeset="996329" lat="50.2573113" lon="6.6424314">
    <tag k="name" v="Vulkan Wolfsbeuel"/>
    <tag k="natural" v="volcano"/>
  </node>
  <node id="386202758" version="2" timestamp="2010-10-15T11:57:21Z" uid="95223" user="emmbaer" changeset="6048347" lat="50.2573112" lon="6.6424315">
    <tag k="name" v="Wolfsbeuel"/>
    <tag k="natural" v="peak"/>
  </node>
  <node id="386202759" version="1" timestamp="2009-04-27T19:41:05Z" uid="38524" user="Kuddy" changeset="996329" lat="50.260423" lon="6.6370495">
    <tag k="name" v="Aussichtspunkt Heimatblick"/>
    <tag k="tourism" v="viewpoint"/>
  </node>
  <node id="386202760" version="1" timestamp="2009-04-27T19:41:05Z" uid="38524" user="Kuddy" changeset="996329" lat="50.2927149" lon="6.6235687">
    <tag k="name" v="Vulkan Ruderbüsch"/>
    <tag k="natural" v="volcano"/>
  </node>
  <node id="386202760" version="2" timestamp="2011-07-12T23:09:07Z" uid="78730" user="tippeltappel" changeset="8707890" lat="50.29256" lon="6.623499">
    <tag k="name" v="Vulkan Ruderbüsch"/>
    <tag k="natural" v="volcano"/>
  </node>
  <node id="386202760" version="3" timestamp="2011-07-12T23:12:18Z" uid="78730" user="tippeltappel" changeset="8707890" lat="50.29256" lon="6.623499"/>
  <node id="386202762" version="1" timestamp="2009-04-27T19:41:05Z" uid="38524" user="Kuddy" changeset="996329" lat="50.2913152" lon="6.6308791">
    <tag k="landuse" v="quarry"/>
    <tag k="name" v="Eisenzeitlicher Basaltlava-Steinbruch"/>
  </node>
  <node id="386202762" version="2" timestamp="2011-07-12T23:09:06Z" uid="78730" user="tippeltappel" changeset="8707890" lat="50.2912309" lon="6.6307847">
    <tag k="landuse" v="quarry"/>
    <tag k="name" v="Eisenzeitlicher Basaltlava-Steinbruch"/>
  </node>
  <node id="386202762" version="3" timestamp="2011-07-12T23:12:18Z" uid="78730" user="tippeltappel" changeset="8707890" lat="50.2912309" lon="6.6307847"/>
  <node id="386202764" version="1" timestamp="2009-04-27T19:41:05Z" uid="38524" user="Kuddy" changeset="996329" lat="50.2863832" lon="6.609832">
    <tag k="name" v="Vulkan Wetschberg"/>
    <tag k="natural" v="volcano"/>
  </node>
  <node id="386202764" version="2" timestamp="2011-07-12T23:12:18Z" uid="78730" user="tippeltappel" changeset="8707890" lat="50.2863832" lon="6.609832"/>
  <node id="386202766" version="1" timestamp="2009-04-27T19:41:06Z" uid="38524" user="Kuddy" changeset="996329" lat="50.2884917" lon="6.6057078">
    <tag k="name" v="Vulkan Mühlenberg"/>
    <tag k="natural" v="volcano"/>
  </node>
  <node id="386202766" version="2" timestamp="2011-07-12T23:12:18Z" uid="78730" user="tippeltappel" changeset="8707890" lat="50.2884917" lon="6.6057078"/>
  <node id="386202767" version="1" timestamp="2009-04-27T19:41:06Z" uid="38524" user="Kuddy" changeset="996329" lat="50.2820465" lon="6.6176854">
    <tag k="name" v="Vulkan Lühwald"/>
    <tag k="natural" v="volcano"/>
  </node>
  <node id="386202767" version="2" timestamp="2011-07-12T23:12:18Z" uid="78730" user="tippeltappel" changeset="8707890" lat="50.2820465" lon="6.6176854"/>
  <node id="386202769" version="1" timestamp="2009-04-27T19:41:06Z" uid="38524" user="Kuddy" changeset="996329" lat="50.2705971" lon="6.6217764">
    <tag k="name" v="Vulkan Roßbüsch"/>
    <tag k="natural" v="volcano"/>
  </node>
  <node id="386202771" version="1" timestamp="2009-04-27T19:41:06Z" uid="38524" user="Kuddy" changeset="996329" lat="50.2727095" lon="6.6296884">
    <tag k="name" v="Basaltlavastrom am Roßbüsch"/>
    <tag k="tourism" v="attraction"/>
  </node>
  <node id="386202773" version="1" timestamp="2009-04-27T19:41:06Z" uid="38524" user="Kuddy" changeset="996329" lat="50.2264636" lon="6.5891077">
    <tag k="historic" v="archaeological_site"/>
    <tag k="name" v="Spuren einer Römerstraße"/>
  </node>
  <node id="386202776" version="1" timestamp="2009-04-27T19:41:06Z" uid="38524" user="Kuddy" changeset="996329" lat="50.2347756" lon="6.5827695">
    <tag k="historic" v="archaeological_site"/>
    <tag k="name" v="Keltengrab"/>
  </node>
  <node id="386202829" version="2" timestamp="2011-05-11T05:26:54Z" uid="151465" user="harter_hund" changeset="8108612" lat="50.2416784" lon="9.1817074"/>
  <node id="386202829" version="3" timestamp="2012-01-14T19:46:18Z" uid="302852" user="be-ju" changeset="10391587" lat="50.2416784" lon="9.1817074"/>
  <node id="386202829" version="4" timestamp="2012-01-14T21:06:03Z" uid="302852" user="be-ju" changeset="10392426" lat="50.2416784" lon="9.1817074"/>
  <node id="386202831" version="2" timestamp="2011-05-11T05:26:55Z" uid="151465" user="harter_hund" changeset="8108612" lat="50.2416497" lon="9.1819267"/>
  <node id="386202831" version="3" timestamp="2012-01-14T19:47:26Z" uid="302852" user="be-ju" changeset="10391587" lat="50.2416497" lon="9.1819267"/>
  <node id="386202832" version="2" timestamp="2011-05-11T05:26:54Z" uid="151465" user="harter_hund" changeset="8108612" lat="50.2416784" lon="9.1822861"/>
  <node id="386202832" version="3" timestamp="2012-01-14T19:47:26Z" uid="302852" user="be-ju" changeset="10391587" lat="50.2416784" lon="9.1822861"/>
  <node id="386202834" version="2" timestamp="2011-05-11T05:26:54Z" uid="151465" user="harter_hund" changeset="8108612" lat="50.2417144" lon="9.1824802"/>
  <node id="386202834" version="3" timestamp="2012-01-14T19:47:26Z" uid="302852" user="be-ju" changeset="10391587" lat="50.2417144" lon="9.1824802"/>
  <node id="386204580" version="1" timestamp="2009-04-27T19:45:36Z" uid="20587" user="balrog-kun" changeset="996396" lat="52.2522572" lon="21.0306369">
    <tag k="amenity" v="fast_food"/>
    <tag k="cuisine" v="local"/>
    <tag k="name" v="Bar Mleczny Rusałka"/>
  </node>
  <node id="386204580" version="2" timestamp="2009-08-12T20:29:05Z" uid="31231" user="Andre68" changeset="2123801" lat="52.2522572" lon="21.0306369">
    <tag k="amenity" v="fast_food"/>
    <tag k="cuisine" v="regional"/>
    <tag k="name" v="Bar Mleczny Rusałka"/>
  </node>
  <node id="386204580" version="3" timestamp="2011-08-12T15:45:05Z" uid="373244" user="Tomaszg" changeset="8996594" lat="52.2523726" lon="21.0306282">
    <tag k="amenity" v="fast_food"/>
    <tag k="cuisine" v="regional"/>
    <tag k="name" v="Bar Mleczny Rusałka"/>
  </node>
  <node id="386204582" version="1" timestamp="2009-04-27T19:45:36Z" uid="20587" user="balrog-kun" changeset="996396" lat="52.2527374" lon="21.0312261">
    <tag k="amenity" v="fast_food"/>
    <tag k="cuisine" v="kebab"/>
    <tag k="name" v="Los Cedros"/>
  </node>
  <node id="386204582" version="2" timestamp="2011-08-12T15:45:05Z" uid="373244" user="Tomaszg" changeset="8996594" lat="52.2528487" lon="21.0311432">
    <tag k="amenity" v="fast_food"/>
    <tag k="cuisine" v="kebab"/>
    <tag k="name" v="Los Cedros"/>
  </node>
  <node id="386204582" version="3" timestamp="2011-10-03T20:27:36Z" uid="373244" user="Tomekg" changeset="9463377" lat="52.2527678" lon="21.0309157">
    <tag k="amenity" v="fast_food"/>
    <tag k="cuisine" v="kebab"/>
    <tag k="name" v="Los Cedros"/>
  </node>
  <node id="386204585" version="1" timestamp="2009-04-27T19:45:36Z" uid="20587" user="balrog-kun" changeset="996396" lat="52.2536601" lon="21.0350588">
    <tag k="name" v="Hetman"/>
    <tag k="tourism" v="hotel"/>
  </node>
  <node id="386204585" version="2" timestamp="2009-11-27T13:44:27Z" uid="20587" user="balrog-kun" changeset="3228126" lat="52.2536414" lon="21.0349631">
    <tag k="name" v="Hetman"/>
    <tag k="tourism" v="hotel"/>
  </node>
  <node id="386204585" version="3" timestamp="2011-09-02T20:00:34Z" uid="373244" user="Tomaszg" changeset="9195552" lat="52.2536414" lon="21.0349631"/>
  <node id="386204588" version="1" timestamp="2009-04-27T19:45:36Z" uid="20587" user="balrog-kun" changeset="996396" lat="52.2545468" lon="21.0356815">
    <tag k="amenity" v="bicycle_parking"/>
  </node>
  <node id="386204588" version="2" timestamp="2011-09-20T22:00:06Z" uid="373244" user="Tomekg" changeset="9355880" lat="52.2545468" lon="21.0356815">
    <tag k="amenity" v="bicycle_parking"/>
    <tag k="note" v="wyrwikółka"/>
  </node>
  <node id="386206829" version="1" timestamp="2009-04-27T19:50:40Z" uid="38524" user="Kuddy" changeset="996485" lat="50.247211" lon="6.5951144">
    <tag k="historic" v="archaeological_site"/>
    <tag k="name" v="Keltengrab auf Lenzerath"/>
  </node>
  <node id="386206830" version="1" timestamp="2009-04-27T19:50:40Z" uid="38524" user="Kuddy" changeset="996485" lat="50.2434586" lon="6.6023023">
    <tag k="name" v="Aussichtspunkt"/>
    <tag k="tourism" v="viewpoint"/>
  </node>
  <node id="386206831" version="1" timestamp="2009-04-27T19:50:41Z" uid="38524" user="Kuddy" changeset="996485" lat="50.2795471" lon="6.6005573">
    <tag k="name" v="Vulkan Geisberg"/>
    <tag k="natural" v="volcano"/>
  </node>
  <node id="386206832" version="1" timestamp="2009-04-27T19:50:41Z" uid="38524" user="Kuddy" changeset="996485" lat="50.2888511" lon="6.7051382">
    <tag k="historic" v="archaeological_site"/>
    <tag k="name" v="Hügelgräber"/>
  </node>
  <node id="386206833" version="1" timestamp="2009-04-27T19:50:41Z" uid="38524" user="Kuddy" changeset="996485" lat="50.2894257" lon="6.7067508">
    <tag k="historic" v="archaeological_site"/>
    <tag k="name" v="Hügelgräber"/>
  </node>
  <node id="386206834" version="1" timestamp="2009-04-27T19:50:41Z" uid="38524" user="Kuddy" changeset="996485" lat="50.2914721" lon="6.7088935">
    <tag k="historic" v="archaeological_site"/>
    <tag k="name" v="Hügelgräber"/>
  </node>
  <node id="386206835" version="1" timestamp="2009-04-27T19:50:41Z" uid="38524" user="Kuddy" changeset="996485" lat="50.2908967" lon="6.7010274">
    <tag k="historic" v="archaeological_site"/>
    <tag k="name" v="Grabhügel"/>
  </node>
  <node id="386206836" version="1" timestamp="2009-04-27T19:50:41Z" uid="38524" user="Kuddy" changeset="996485" lat="50.2819204" lon="6.7008886">
    <tag k="historic" v="archaeological_site"/>
    <tag k="name" v="Römische Mauerzüge"/>
  </node>
  <node id="386206837" version="1" timestamp="2009-04-27T19:50:41Z" uid="38524" user="Kuddy" changeset="996485" lat="50.290727" lon="6.7290691">
    <tag k="historic" v="archaeological_site"/>
    <tag k="name" v="Römische Siedlungsstelle"/>
  </node>
  <node id="386208196" version="6" timestamp="2010-05-01T23:17:01Z" uid="151899" user="Bikeman2000" changeset="4580378" lat="51.2115268" lon="6.7936771"/>
  <node id="386208196" version="7" timestamp="2011-07-21T08:12:42Z" uid="12614" user="rabenkind" changeset="8785971" lat="51.2115262" lon="6.793619"/>
  <node id="386208196" version="8" timestamp="2011-12-13T16:49:57Z" uid="12614" user="rabenkind" changeset="10109020" lat="51.2115262" lon="6.793619"/>
</osm>
