<?xml version='1.0' encoding='UTF-8'?>
<osm version="0.6" generator="libosmium/2.20.0">
  <node id="386880007" version="2" timestamp="2011-01-22T20:35:37Z" uid="9581" user="Lobelt" changeset="7054972" lat="49.6335905" lon="8.623132"/>
  <node id="386880007" version="3" timestamp="2012-02-25T15:34:45Z" uid="55687" user="dschuwa" changeset="10788762" lat="49.6335905" lon="8.623132"/>
  <node id="386880066" version="2" timestamp="2011-01-22T20:35:33Z" uid="9581" user="Lobelt" changeset="7054972" lat="49.6335926" lon="8.6235806"/>
  <node id="386880066" version="3" timestamp="2012-02-25T15:34:45Z" uid="55687" user="dschuwa" changeset="10788762" lat="49.6335926" lon="8.6235806"/>
  <node id="386881267" version="1" timestamp="2009-04-28T18:09:05Z" uid="38524" user="Kuddy" changeset="1007267" lat="50.2719122" lon="6.6755729">
    <tag k="name" v="Basaltfelsen mit Blockfeld"/>
    <tag k="tourism" v="attraction"/>
  </node>
  <node id="386881268" version="1" timestamp="2009-04-28T18:09:05Z" uid="38524" user="Kuddy" changeset="1007267" lat="50.2794861" lon="6.683176">
    <tag k="name" v="Aussichtspunkt Kyller Höhe"/>
    <tag k="tourism" v="viewpoint"/>
  </node>
  <node id="386881269" version="1" timestamp="2009-04-28T18:09:05Z" uid="38524" user="Kuddy" changeset="1007267" lat="50.280003" lon="6.6839146">
    <tag k="name" v="Vulkan Kyller Höhe"/>
    <tag k="natural" v="volcano"/>
  </node>
  <node id="386881270" version="1" timestamp="2009-04-28T18:09:05Z" uid="38524" user="Kuddy" changeset="1007267" lat="50.2780067" lon="6.6883344">
    <tag k="historic" v="archaeological_site"/>
    <tag k="name" v="Weinstraße"/>
  </node>
  <node id="386881271" version="1" timestamp="2009-04-28T18:09:05Z" uid="38524" user="Kuddy" changeset="1007267" lat="50.3181061" lon="6.6592719">
    <tag k="historic" v="archaeological_site"/>
    <tag k="name" v="Römische Siedlungsstelle"/>
  </node>
  <node id="386881272" version="1" timestamp="2009-04-28T18:09:05Z" uid="38524" user="Kuddy" changeset="1007267" lat="50.3271804" lon="6.6453535">
    <tag k="historic" v="archaeological_site"/>
    <tag k="name" v="Grabhügelgruppe"/>
  </node>
  <node id="386881272" version="2" timestamp="2009-06-05T10:26:20Z" uid="65051" user="Dresen_Ahrbrueck" changeset="1428101" lat="50.3271807" lon="6.6453563">
    <tag k="historic" v="archaeological_site"/>
    <tag k="name" v="Grabhügelgruppe"/>
  </node>
  <node id="386881273" version="1" timestamp="2009-04-28T18:09:05Z" uid="38524" user="Kuddy" changeset="1007267" lat="50.3140833" lon="6.7145625">
    <tag k="historic" v="archaeological_site"/>
    <tag k="name" v="Keltische Fliehburg"/>
  </node>
  <node id="386881274" version="1" timestamp="2009-04-28T18:09:05Z" uid="38524" user="Kuddy" changeset="1007267" lat="50.3055233" lon="6.7161049">
    <tag k="name" v="Kerpener Galgen auf dem Koberg"/>
    <tag k="tourism" v="attraction"/>
  </node>
  <node id="386881275" version="1" timestamp="2009-04-28T18:09:05Z" uid="38524" user="Kuddy" changeset="1007267" lat="50.2998237" lon="6.7151888">
    <tag k="historic" v="archaeological_site"/>
    <tag k="name" v="Römische Siedlungsstelle"/>
  </node>
  <node id="386881276" version="1" timestamp="2009-04-28T18:09:05Z" uid="38524" user="Kuddy" changeset="1007267" lat="50.3020905" lon="6.733754">
    <tag k="historic" v="wayside_cross"/>
    <tag k="name" v="Grafen- oder Schwedenkreuz"/>
  </node>
  <node id="386881277" version="1" timestamp="2009-04-28T18:09:05Z" uid="38524" user="Kuddy" changeset="1007267" lat="50.3176766" lon="6.7294927">
    <tag k="historic" v="archaeological_site"/>
    <tag k="name" v="Römische Fundstelle"/>
  </node>
  <node id="386881279" version="1" timestamp="2009-04-28T18:09:06Z" uid="38524" user="Kuddy" changeset="1007267" lat="50.3175812" lon="6.7435192">
    <tag k="historic" v="archaeological_site"/>
    <tag k="name" v="Römische Villenanlage"/>
  </node>
  <node id="386881280" version="1" timestamp="2009-04-28T18:09:06Z" uid="38524" user="Kuddy" changeset="1007267" lat="50.3289761" lon="6.7448628">
    <tag k="historic" v="archaeological_site"/>
    <tag k="name" v="Römische Siedlung"/>
  </node>
  <node id="386881280" version="2" timestamp="2011-06-10T19:59:54Z" uid="290680" user="wheelmap_visitor" changeset="8400374" lat="50.3289761" lon="6.7448628">
    <tag k="historic" v="archaeological_site"/>
    <tag k="name" v="Römische Siedlung"/>
    <tag k="wheelchair" v="no"/>
  </node>
  <node id="386881281" version="1" timestamp="2009-04-28T18:09:06Z" uid="38524" user="Kuddy" changeset="1007267" lat="50.3248299" lon="6.7688273">
    <tag k="name" v="Dreimühlen-Wasserfall"/>
    <tag k="waterway" v="waterfall"/>
  </node>
  <node id="386881281" version="2" timestamp="2010-03-08T12:46:08Z" uid="243131" user="eifelmapp1e" changeset="4071412" lat="50.32483" lon="6.7688274">
    <tag k="name" v="Naturdenkmal Wasserfall Dreimühlen"/>
    <tag k="waterway" v="waterfall"/>
  </node>
  <node id="386881282" version="1" timestamp="2009-04-28T18:09:06Z" uid="38524" user="Kuddy" changeset="1007267" lat="50.3084298" lon="6.7714841">
    <tag k="historic" v="archaeological_site"/>
    <tag k="name" v="Mauer eines römischen Grabhügels"/>
  </node>
  <node id="386882198" version="2" timestamp="2011-01-22T20:37:29Z" uid="9581" user="Lobelt" changeset="7054972" lat="49.6339669" lon="8.6240807"/>
  <node id="386882198" version="3" timestamp="2012-02-25T15:34:45Z" uid="55687" user="dschuwa" changeset="10788762" lat="49.6339669" lon="8.6240807"/>
  <node id="386882216" version="2" timestamp="2009-06-11T16:01:45Z" uid="43863" user="Rundling" changeset="1488704" lat="53.2607988" lon="10.4574779">
    <tag k="railway" v="level_crossing"/>
  </node>
  <node id="386882216" version="3" timestamp="2009-06-11T16:02:11Z" uid="43863" user="Rundling" changeset="1488706" lat="53.2607988" lon="10.4574779">
    <tag k="crossing" v="uncontrolled"/>
    <tag k="railway" v="crossing"/>
  </node>
  <node id="386882571" version="2" timestamp="2011-01-22T20:35:39Z" uid="9581" user="Lobelt" changeset="7054972" lat="49.6337269" lon="8.6241388"/>
  <node id="386882571" version="3" timestamp="2012-02-25T15:34:46Z" uid="55687" user="dschuwa" changeset="10788762" lat="49.6337269" lon="8.6241388"/>
  <node id="386882792" version="2" timestamp="2011-01-22T20:35:39Z" uid="9581" user="Lobelt" changeset="7054972" lat="49.6331017" lon="8.6243045"/>
  <node id="386882792" version="3" timestamp="2012-02-25T15:34:46Z" uid="55687" user="dschuwa" changeset="10788762" lat="49.6331017" lon="8.6243045"/>
  <node id="386885293" version="2" timestamp="2010-07-29T09:19:44Z" uid="74617" user="JohnSmith" changeset="5344848" lat="49.890926" lon="8.1833591">
    <tag k="amenity" v="emergency_phone"/>
    <tag k="emergency" v="phone"/>
  </node>
  <node id="386885295" version="3" timestamp="2010-07-29T09:04:50Z" uid="74617" user="JohnSmith" changeset="5344848" lat="49.9003099" lon="8.1892577">
    <tag k="amenity" v="emergency_phone"/>
    <tag k="emergency" v="phone"/>
  </node>
  <node id="386885296" version="3" timestamp="2010-07-29T09:40:00Z" uid="74617" user="JohnSmith" changeset="5344848" lat="49.9259971" lon="8.1973605">
    <tag k="amenity" v="emergency_phone"/>
    <tag k="emergency" v="phone"/>
  </node>
  <node id="386885298" version="3" timestamp="2010-07-29T09:26:13Z" uid="74617" user="JohnSmith" changeset="5344848" lat="49.9684793" lon="8.2569454">
    <tag k="amenity" v="emergency_phone"/>
    <tag k="emergency" v="phone"/>
  </node>
  <node id="386885304" version="3" timestamp="2010-07-29T09:04:02Z" uid="74617" user="JohnSmith" changeset="5344848" lat="50.0035323" lon="8.4821892">
    <tag k="amenity" v="emergency_phone"/>
    <tag k="emergency" v="phone"/>
  </node>
  <node id="386885305" version="2" timestamp="2010-07-29T09:13:39Z" uid="74617" user="JohnSmith" changeset="5344848" lat="50.0416365" lon="8.5307291">
    <tag k="amenity" v="emergency_phone"/>
    <tag k="emergency" v="phone"/>
  </node>
  <node id="386885308" version="4" timestamp="2010-07-29T09:31:15Z" uid="74617" user="JohnSmith" changeset="5344848" lat="50.052923" lon="8.6067391">
    <tag k="amenity" v="emergency_phone"/>
    <tag k="emergency" v="phone"/>
    <tag k="operator" v="Autobahnmeisterei"/>
  </node>
  <node id="386885308" version="5" timestamp="2012-03-21T23:37:12Z" uid="165061" user="mapper999" changeset="11058322" lat="50.0529287" lon="8.6074835">
    <tag k="amenity" v="emergency_phone"/>
    <tag k="emergency" v="phone"/>
    <tag k="operator" v="Autobahnmeisterei"/>
  </node>
  <node id="386885311" version="3" timestamp="2010-07-29T09:25:56Z" uid="74617" user="JohnSmith" changeset="5344848" lat="50.0581448" lon="8.6453459">
    <tag k="amenity" v="emergency_phone"/>
    <tag k="emergency" v="phone"/>
    <tag k="operator" v="Autobahnmeisterei"/>
  </node>
  <node id="386885313" version="2" timestamp="2010-07-29T09:14:41Z" uid="74617" user="JohnSmith" changeset="5344848" lat="50.0613852" lon="8.6768017">
    <tag k="amenity" v="emergency_phone"/>
    <tag k="emergency" v="phone"/>
  </node>
  <node id="386885315" version="3" timestamp="2010-07-29T08:58:13Z" uid="74617" user="JohnSmith" changeset="5344848" lat="50.062996" lon="8.7088131">
    <tag k="amenity" v="emergency_phone"/>
    <tag k="emergency" v="phone"/>
  </node>
  <node id="386885904" version="2" timestamp="2009-08-26T09:56:30Z" uid="36809" user="pfoten_weg_!_" changeset="2265457" lat="48.111518" lon="11.473626"/>
  <node id="386886064" version="1" timestamp="2009-04-28T18:19:20Z" uid="38524" user="Kuddy" changeset="1007450" lat="50.1333827" lon="6.7517409">
    <tag k="name" v="Burgberg"/>
    <tag k="natural" v="peak"/>
  </node>
  <node id="386886065" version="1" timestamp="2009-04-28T18:19:20Z" uid="38524" user="Kuddy" changeset="1007450" lat="50.133463" lon="6.7514749">
    <tag k="name" v="Aussichtspunkt Burgberg"/>
    <tag k="tourism" v="viewpoint"/>
  </node>
  <node id="386886066" version="1" timestamp="2009-04-28T18:19:20Z" uid="38524" user="Kuddy" changeset="1007450" lat="50.1287239" lon="6.7546054">
    <tag k="historic" v="archaeological_site"/>
    <tag k="name" v="Grabhügel"/>
  </node>
  <node id="386886067" version="1" timestamp="2009-04-28T18:19:20Z" uid="38524" user="Kuddy" changeset="1007450" lat="50.1541693" lon="6.6247475">
    <tag k="name" v="Aussichtspunkt"/>
    <tag k="tourism" v="viewpoint"/>
  </node>
  <node id="386886068" version="1" timestamp="2009-04-28T18:19:21Z" uid="38524" user="Kuddy" changeset="1007450" lat="50.1744404" lon="6.6293538">
    <tag k="historic" v="archaeological_site"/>
    <tag k="name" v="Römische Siedlungsstelle"/>
  </node>
  <node id="386886069" version="1" timestamp="2009-04-28T18:19:21Z" uid="38524" user="Kuddy" changeset="1007450" lat="50.2282268" lon="6.6580573">
    <tag k="historic" v="archaeological_site"/>
    <tag k="name" v="Grundriß römische Villa Rustica"/>
  </node>
  <node id="386886074" version="2" timestamp="2009-07-30T09:09:14Z" uid="142575" user="dalailama" changeset="1983071" lat="54.6750644" lon="8.330595">
    <tag k="highway" v="bus_stop"/>
    <tag k="name" v="Norddorf, Aussichtsdüne"/>
  </node>
  <node id="386886074" version="3" timestamp="2010-12-19T16:31:06Z" uid="8748" user="ToniE" changeset="6707701" lat="54.675062" lon="8.3306275">
    <tag k="highway" v="bus_stop"/>
    <tag k="name" v="Norddorf, Aussichtsdüne"/>
  </node>
  <node id="386886074" version="4" timestamp="2010-12-22T11:36:34Z" uid="8748" user="ToniE" changeset="6734545" lat="54.675062" lon="8.3306275">
    <tag k="bench" v="fixme"/>
    <tag k="bin" v="fixme"/>
    <tag k="bus" v="yes"/>
    <tag k="bus_lines" v="Amrumer Inselbus"/>
    <tag k="bus_routes" v="Amrumer Inselbus"/>
    <tag k="highway" v="bus_stop"/>
    <tag k="name" v="Norddorf, Aussichtsdüne"/>
    <tag k="operator" v="Wyker Dampfschiffs-Reederei Föhr-Amrum GmbH"/>
    <tag k="public_transport" v="platform"/>
    <tag k="ref" v="Amrumer Inselbus"/>
    <tag k="shelter" v="yes"/>
    <tag k="tactile_paving" v="fixme"/>
    <tag k="wheelchair" v="fixme"/>
  </node>
  <node id="386886074" version="5" timestamp="2011-07-25T18:43:18Z" uid="8748" user="ToniE" changeset="8829025" lat="54.675062" lon="8.3306275">
    <tag k="bench" v="fixme"/>
    <tag k="bin" v="fixme"/>
    <tag k="bus" v="yes"/>
    <tag k="highway" v="platform"/>
    <tag k="name" v="Norddorf, Aussichtsdüne"/>
    <tag k="operator" v="Wyker Dampfschiffs-Reederei Föhr-Amrum GmbH"/>
    <tag k="public_transport" v="platform"/>
    <tag k="ref_name" v="Aussichtsdüne, Norddorf"/>
    <tag k="shelter" v="yes"/>
    <tag k="tactile_paving" v="fixme"/>
    <tag k="wheelchair" v="fixme"/>
  </node>
  <node id="386886074" version="6" timestamp="2011-09-03T11:39:21Z" uid="8748" user="ToniE" changeset="9200018" lat="54.675062" lon="8.3306275">
    <tag k="bench" v="yes"/>
    <tag k="bin" v="yes"/>
    <tag k="bus" v="yes"/>
    <tag k="highway" v="platform"/>
    <tag k="name" v="Norddorf, Aussichtsdüne"/>
    <tag k="operator" v="Wyker Dampfschiffs-Reederei Föhr-Amrum GmbH"/>
    <tag k="public_transport" v="platform"/>
    <tag k="ref_name" v="Aussichtsdüne, Norddorf"/>
    <tag k="shelter" v="yes"/>
    <tag k="tactile_paving" v="no"/>
    <tag k="wheelchair" v="yes"/>
  </node>
  <node id="386886074" version="7" timestamp="2012-01-17T21:06:03Z" uid="8748" user="ToniE" changeset="10422167" lat="54.675062" lon="8.3306275"/>
  <node id="386886075" version="3" timestamp="2009-07-30T09:09:14Z" uid="142575" user="dalailama" changeset="1983071" lat="54.6802601" lon="8.3334532">
    <tag k="amenity" v="bank"/>
    <tag k="atm" v="yes"/>
    <tag k="name" v="Nord-Ostsee Sparkasse Schleswig"/>
    <tag k="operator" v="Nord-Ostsee Sparkasse Schleswig"/>
  </node>
  <node id="386886075" version="4" timestamp="2011-06-24T08:58:13Z" uid="179581" user="Geofreund1" changeset="8530200" lat="54.6802601" lon="8.3334532">
    <tag k="addr:city" v="Norddorf auf Amrum"/>
    <tag k="addr:country" v="DE"/>
    <tag k="addr:postcode" v="25946"/>
    <tag k="addr:street" v="Triihuk"/>
    <tag k="amenity" v="bank"/>
    <tag k="atm" v="yes"/>
    <tag k="name" v="Nord-Ostsee Sparkasse Schleswig"/>
    <tag k="operator" v="Nord-Ostsee Sparkasse Schleswig"/>
  </node>
  <node id="386886075" version="5" timestamp="2012-01-17T21:06:03Z" uid="8748" user="ToniE" changeset="10422167" lat="54.6802601" lon="8.3334532"/>
  <node id="386886245" version="2" timestamp="2010-04-15T17:57:21Z" uid="74027" user="katzlbt" changeset="4432864" lat="46.9669731" lon="11.4978613"/>
  <node id="386886245" version="3" timestamp="2011-07-10T18:16:51Z" uid="25342" user="Philipp Spitzer" changeset="8686659" lat="46.9671392" lon="11.4978871"/>
  <node id="386886246" version="2" timestamp="2010-04-15T17:57:21Z" uid="74027" user="katzlbt" changeset="4432864" lat="46.9666509" lon="11.4980652"/>
  <node id="386886297" version="2" timestamp="2009-06-10T15:43:29Z" uid="43863" user="Rundling" changeset="1479042" lat="52.5867542" lon="11.114954">
    <tag k="railway" v="level_crossing"/>
  </node>
  <node id="386886297" version="3" timestamp="2012-02-11T02:18:40Z" uid="55878" user="LST" changeset="10649101" lat="52.5865482" lon="11.113394">
    <tag k="railway" v="level_crossing"/>
  </node>
  <node id="386887131" version="2" timestamp="2009-12-09T16:33:54Z" uid="74027" user="katzlbt" changeset="3334793" lat="46.9669357" lon="11.4914678"/>
  <node id="386887131" version="3" timestamp="2011-07-10T18:16:52Z" uid="25342" user="Philipp Spitzer" changeset="8686659" lat="46.966908" lon="11.4914453"/>
  <node id="386887131" version="4" timestamp="2012-02-17T04:41:08Z" uid="606250" user="katzlmacher" changeset="10707808" lat="46.966908" lon="11.4914453"/>
  <node id="386887132" version="2" timestamp="2009-12-09T16:33:53Z" uid="74027" user="katzlbt" changeset="3334793" lat="46.966976" lon="11.4918969"/>
  <node id="386887132" version="3" timestamp="2011-07-10T18:16:52Z" uid="25342" user="Philipp Spitzer" changeset="8686659" lat="46.9669453" lon="11.4919104"/>
  <node id="386887132" version="4" timestamp="2012-02-17T04:41:13Z" uid="606250" user="katzlmacher" changeset="10707808" lat="46.9669453" lon="11.4919104"/>
  <node id="386887134" version="3" timestamp="2009-12-09T16:33:53Z" uid="74027" user="katzlbt" changeset="3334793" lat="46.966943" lon="11.4920364"/>
  <node id="386887134" version="4" timestamp="2012-02-17T04:41:09Z" uid="606250" user="katzlmacher" changeset="10707808" lat="46.966943" lon="11.4920364"/>
  <node id="386887135" version="2" timestamp="2009-12-09T16:33:53Z" uid="74027" user="katzlbt" changeset="3334793" lat="46.9668845" lon="11.4920364"/>
  <node id="386887135" version="3" timestamp="2011-07-10T18:16:52Z" uid="25342" user="Philipp Spitzer" changeset="8686659" lat="46.9668691" lon="11.4920679"/>
  <node id="386887135" version="4" timestamp="2012-02-17T04:41:11Z" uid="606250" user="katzlmacher" changeset="10707808" lat="46.9668691" lon="11.4920679"/>
  <node id="386887136" version="2" timestamp="2009-12-09T16:33:53Z" uid="74027" user="katzlbt" changeset="3334793" lat="46.9668442" lon="11.4919452"/>
  <node id="386887136" version="3" timestamp="2011-07-10T18:16:52Z" uid="25342" user="Philipp Spitzer" changeset="8686659" lat="46.9668104" lon="11.4919542"/>
  <node id="386887136" version="4" timestamp="2012-02-17T04:41:10Z" uid="606250" user="katzlmacher" changeset="10707808" lat="46.9668104" lon="11.4919542"/>
  <node id="386887137" version="2" timestamp="2009-12-09T16:33:53Z" uid="74027" user="katzlbt" changeset="3334793" lat="46.9666319" lon="11.4915858"/>
  <node id="386887137" version="3" timestamp="2011-07-10T18:16:52Z" uid="25342" user="Philipp Spitzer" changeset="8686659" lat="46.9666288" lon="11.4916128"/>
  <node id="386887137" version="4" timestamp="2012-02-17T04:41:12Z" uid="606250" user="katzlmacher" changeset="10707808" lat="46.9666288" lon="11.4916128"/>
  <node id="386887138" version="3" timestamp="2009-12-09T16:33:53Z" uid="74027" user="katzlbt" changeset="3334793" lat="46.9663829" lon="11.4916824"/>
  <node id="386887138" version="4" timestamp="2011-07-10T18:16:52Z" uid="25342" user="Philipp Spitzer" changeset="8686659" lat="46.9664321" lon="11.4916194"/>
  <node id="386887138" version="5" timestamp="2012-02-17T04:41:12Z" uid="606250" user="katzlmacher" changeset="10707808" lat="46.9664321" lon="11.4916194"/>
  <node id="386887882" version="1" timestamp="2009-04-28T18:24:46Z" uid="38524" user="Kuddy" changeset="1007536" lat="50.1605206" lon="6.6910034">
    <tag k="name" v="Aussichtspunkt"/>
    <tag k="tourism" v="viewpoint"/>
  </node>
</osm>
