<?xml version='1.0' encoding='UTF-8'?>
<osm version="0.6" generator="libosmium/2.20.0">
  <node id="388580706" version="3" timestamp="2010-01-18T16:42:35Z" uid="216873" user="Goonie" changeset="3651328" lat="52.5254697" lon="13.3412924">
    <tag k="highway" v="bus_stop"/>
    <tag k="name" v="U Turmstraße"/>
    <tag k="ref" v="102820"/>
    <tag k="route_ref" v="TXL;245;N40"/>
  </node>
  <node id="388580706" version="4" timestamp="2011-10-29T11:06:01Z" uid="290680" user="wheelmap_visitor" changeset="9681686" lat="52.5254697" lon="13.3412924">
    <tag k="highway" v="bus_stop"/>
    <tag k="name" v="U Turmstraße"/>
    <tag k="ref" v="102820"/>
    <tag k="route_ref" v="TXL;245;N40"/>
    <tag k="wheelchair" v="no"/>
  </node>
  <node id="388581513" version="4" timestamp="2009-10-20T00:25:52Z" uid="36809" user="pfoten_weg_!_" changeset="2899059" lat="47.7452116" lon="11.7237364"/>
  <node id="388581513" version="5" timestamp="2009-11-24T17:04:36Z" uid="42393" user="mawi42" changeset="3205880" lat="47.7452216" lon="11.7237175"/>
  <node id="388581513" version="6" timestamp="2011-04-02T23:32:06Z" uid="418282" user="Norbert18" changeset="7749337" lat="47.7452216" lon="11.7237175"/>
  <node id="388583373" version="2" timestamp="2009-12-14T19:49:51Z" uid="74617" user="JohnSmith" changeset="3374521" lat="-35.5509883" lon="138.6232725">
    <tag k="amenity" v="fuel"/>
    <tag k="operator" v="Shell"/>
    <tag k="source" v="survey"/>
  </node>
  <node id="388583373" version="3" timestamp="2010-02-10T07:53:35Z" uid="142828" user="Apty" changeset="3838089" lat="-35.5509883" lon="138.6232725">
    <tag k="amenity" v="fuel"/>
    <tag k="operator" v="Shell"/>
    <tag k="source" v="survey"/>
  </node>
  <node id="388586011" version="1" timestamp="2009-05-02T12:16:05Z" uid="64977" user="CLoeser" changeset="1047732" lat="54.064974" lon="13.4297888"/>
  <node id="388586012" version="1" timestamp="2009-05-02T12:16:05Z" uid="64977" user="CLoeser" changeset="1047732" lat="54.0653265" lon="13.4323208"/>
  <node id="388586013" version="1" timestamp="2009-05-02T12:16:06Z" uid="64977" user="CLoeser" changeset="1047732" lat="54.0659562" lon="13.4342949"/>
  <node id="388586014" version="1" timestamp="2009-05-02T12:16:06Z" uid="64977" user="CLoeser" changeset="1047732" lat="54.0674924" lon="13.435239"/>
  <node id="388586014" version="2" timestamp="2009-05-02T12:20:53Z" uid="64977" user="CLoeser" changeset="1047732" lat="54.0674068" lon="13.4356682"/>
  <node id="388586014" version="3" timestamp="2009-05-02T12:21:16Z" uid="64977" user="CLoeser" changeset="1047732" lat="54.0674421" lon="13.4357111"/>
  <node id="388586015" version="1" timestamp="2009-05-02T12:16:06Z" uid="64977" user="CLoeser" changeset="1047732" lat="54.067845" lon="13.4342262"/>
  <node id="388586015" version="2" timestamp="2009-05-02T12:20:22Z" uid="64977" user="CLoeser" changeset="1047732" lat="54.0676939" lon="13.4341404"/>
  <node id="388586016" version="1" timestamp="2009-05-02T12:16:06Z" uid="64977" user="CLoeser" changeset="1047732" lat="54.0685149" lon="13.4330074"/>
  <node id="388586016" version="2" timestamp="2009-05-02T12:20:22Z" uid="64977" user="CLoeser" changeset="1047732" lat="54.0684343" lon="13.4328358"/>
  <node id="388586017" version="1" timestamp="2009-05-02T12:16:06Z" uid="64977" user="CLoeser" changeset="1047732" lat="54.0679105" lon="13.431205"/>
  <node id="388586017" version="2" timestamp="2009-05-02T12:20:05Z" uid="64977" user="CLoeser" changeset="1047732" lat="54.0674924" lon="13.4303896"/>
  <node id="388586018" version="1" timestamp="2009-05-02T12:16:06Z" uid="64977" user="CLoeser" changeset="1047732" lat="54.066888" lon="13.4282009"/>
  <node id="388586019" version="1" timestamp="2009-05-02T12:16:06Z" uid="64977" user="CLoeser" changeset="1047732" lat="54.0657446" lon="13.4287159"/>
  <node id="388586251" version="2" timestamp="2009-06-16T14:28:08Z" uid="20587" user="balrog-kun" changeset="1535626" lat="50.8643555" lon="16.8662333">
    <tag k="is_in" v="gmina Jordanów Śląski, powiat wrocławski, województwo dolnośląskie, Poland"/>
    <tag k="is_in:county" v="powiat wrocławski"/>
    <tag k="is_in:municipality" v="gmina Jordanów Śląski"/>
    <tag k="is_in:province" v="województwo dolnośląskie"/>
    <tag k="name" v="Jordanów Śląski"/>
    <tag k="place" v="town"/>
    <tag k="population" v="1000"/>
    <tag k="source:population" v="wikipedia"/>
    <tag k="wikipedia" v="Jordanów Śląski"/>
  </node>
  <node id="388586251" version="3" timestamp="2010-04-11T04:46:55Z" uid="20587" user="balrog-kun" changeset="4389130" lat="50.8642072" lon="16.8674179">
    <tag k="is_in" v="gmina Jordanów Śląski, powiat wrocławski, województwo dolnośląskie, Poland"/>
    <tag k="is_in:county" v="powiat wrocławski"/>
    <tag k="is_in:municipality" v="gmina Jordanów Śląski"/>
    <tag k="is_in:province" v="województwo dolnośląskie"/>
    <tag k="name" v="Jordanów Śląski"/>
    <tag k="place" v="town"/>
    <tag k="population" v="1000"/>
    <tag k="source:population" v="wikipedia"/>
    <tag k="wikipedia" v="Jordanów Śląski"/>
  </node>
  <node id="388586251" version="4" timestamp="2010-04-27T04:09:35Z" uid="30632" user="antblant" changeset="4537879" lat="50.8642072" lon="16.8674179">
    <tag k="is_in" v="gmina Jordanów Śląski, powiat wrocławski, województwo dolnośląskie, Poland"/>
    <tag k="is_in:county" v="powiat wrocławski"/>
    <tag k="is_in:municipality" v="gmina Jordanów Śląski"/>
    <tag k="is_in:province" v="województwo dolnośląskie"/>
    <tag k="name" v="Jordanów Śląski"/>
    <tag k="place" v="town"/>
    <tag k="population" v="1000"/>
    <tag k="source:population" v="wikipedia"/>
    <tag k="teryt:simc" v="0874779"/>
    <tag k="wikipedia" v="Jordanów Śląski"/>
  </node>
  <node id="388586251" version="5" timestamp="2010-06-08T17:03:41Z" uid="155761" user="Dusche" changeset="4938714" lat="50.8642071" lon="16.8674178">
    <tag k="is_in" v="gmina Jordanów Śląski, powiat wrocławski, województwo dolnośląskie, Poland"/>
    <tag k="is_in:county" v="powiat wrocławski"/>
    <tag k="is_in:municipality" v="gmina Jordanów Śląski"/>
    <tag k="is_in:province" v="województwo dolnośląskie"/>
    <tag k="name:de" v="Jordansmühl"/>
    <tag k="place" v="town"/>
    <tag k="population" v="1000"/>
    <tag k="source:population" v="wikipedia"/>
    <tag k="teryt:simc" v="0874779"/>
    <tag k="wikipedia" v="Jordanów Śląski"/>
  </node>
  <node id="388586251" version="6" timestamp="2010-07-09T15:10:25Z" uid="94114" user="Jaszczur" changeset="5174319" lat="50.8642072" lon="16.8674177">
    <tag k="is_in" v="gmina Jordanów Śląski, powiat wrocławski, województwo dolnośląskie, Poland"/>
    <tag k="is_in:county" v="powiat wrocławski"/>
    <tag k="is_in:municipality" v="gmina Jordanów Śląski"/>
    <tag k="is_in:province" v="województwo dolnośląskie"/>
    <tag k="name" v="Jordanów Śląski"/>
    <tag k="name:de" v="Jordansmühl"/>
    <tag k="place" v="town"/>
    <tag k="population" v="1000"/>
    <tag k="source:population" v="wikipedia"/>
    <tag k="teryt:simc" v="0874779"/>
    <tag k="wikipedia" v="Jordanów Śląski"/>
  </node>
  <node id="388587138" version="1" timestamp="2009-05-02T12:21:10Z" uid="64977" user="CLoeser" changeset="1047732" lat="54.0677191" lon="13.4350674"/>
  <node id="388587139" version="1" timestamp="2009-05-02T12:21:10Z" uid="64977" user="CLoeser" changeset="1047732" lat="54.0675428" lon="13.4348785"/>
</osm>
