<?xml version='1.0' encoding='UTF-8'?>
<osm version="0.6" generator="libosmium/2.20.0">
  <node id="388795824" version="1" timestamp="2009-05-02T15:24:31Z" uid="36809" user="pfoten_weg_!_" changeset="1049875" lat="48.0936801" lon="11.51632">
    <tag k="amenity" v="wifi"/>
    <tag k="class" v="free"/>
    <tag k="created_by" v="RambaZamba"/>
    <tag k="man_made" v="beacon"/>
    <tag k="name" v="FON_YOUR_PLACE"/>
    <tag k="ref" v="Münsinger Str.20,81477 Muc,UT90,K1,Friedrich"/>
    <tag k="source" v="survey"/>
  </node>
  <node id="388795824" version="2" timestamp="2009-06-09T09:23:09Z" uid="36809" user="pfoten_weg_!_" changeset="1466544" lat="48.0936801" lon="11.51632">
    <tag k="amenity" v="wifi"/>
    <tag k="class" v="free"/>
    <tag k="created_by" v="RambaZamba"/>
    <tag k="man_made" v="beacon"/>
    <tag k="name" v="FON_YOUR_PLACE"/>
    <tag k="ref" v="Münsinger Str.20,81477 Muc,UT90,K1,Friedrich"/>
    <tag k="source" v="survey"/>
  </node>
  <node id="388795831" version="1" timestamp="2009-05-02T15:24:31Z" uid="36809" user="pfoten_weg_!_" changeset="1049875" lat="48.0927141" lon="11.5158614">
    <tag k="amenity" v="wifi"/>
    <tag k="class" v="free"/>
    <tag k="created_by" v="RambaZamba"/>
    <tag k="man_made" v="beacon"/>
    <tag k="name" v="FON_FREE_INTERNET"/>
    <tag k="ref" v="Leutstettener Str.45, 81477 Muc,UT90,K1,runtime007"/>
    <tag k="source" v="survey"/>
  </node>
  <node id="388795831" version="2" timestamp="2009-06-09T09:23:09Z" uid="36809" user="pfoten_weg_!_" changeset="1466544" lat="48.0927141" lon="11.5158614">
    <tag k="amenity" v="wifi"/>
    <tag k="class" v="free"/>
    <tag k="created_by" v="RambaZamba"/>
    <tag k="man_made" v="beacon"/>
    <tag k="name" v="FON_FREE_INTERNET"/>
    <tag k="ref" v="Leutstettener Str.45, 81477 Muc,UT90,K1,runtime007"/>
    <tag k="source" v="survey"/>
  </node>
</osm>
