<?xml version='1.0' encoding='UTF-8'?>
<osm version="0.6" generator="libosmium/2.20.0">
  <node id="391506240" version="3" timestamp="2009-08-31T21:11:14Z" uid="36809" user="pfoten_weg_!_" changeset="2331411" lat="48.0281305" lon="11.5276291">
    <tag k="leisure" v="sports_centre"/>
    <tag k="name" v="Kletterwald München/Grünwald"/>
    <tag k="sport" v="climbing"/>
  </node>
  <node id="391506240" version="4" timestamp="2010-10-13T20:49:55Z" uid="327545" user="pedXing" changeset="6033524" lat="48.0281305" lon="11.527629">
    <tag k="leisure" v="sports_centre"/>
    <tag k="name" v="Kletterwald München/Grünwald"/>
    <tag k="operator" v="Secorda GmbH "/>
    <tag k="sport" v="climbing"/>
    <tag k="website" v="http://www.kletterwald-muenchen.de/"/>
  </node>
  <node id="391506240" version="5" timestamp="2010-10-14T20:01:37Z" uid="70696" user="xybot" changeset="6042692" lat="48.0281305" lon="11.527629">
    <tag k="leisure" v="sports_centre"/>
    <tag k="name" v="Kletterwald München/Grünwald"/>
    <tag k="operator" v="Secorda GmbH"/>
    <tag k="sport" v="climbing"/>
    <tag k="website" v="http://www.kletterwald-muenchen.de/"/>
  </node>
  <node id="391506240" version="6" timestamp="2011-10-02T18:41:04Z" uid="290680" user="wheelmap_visitor" changeset="9447804" lat="48.0281305" lon="11.527629">
    <tag k="leisure" v="sports_centre"/>
    <tag k="name" v="Kletterwald München/Grünwald"/>
    <tag k="operator" v="Secorda GmbH"/>
    <tag k="sport" v="climbing"/>
    <tag k="website" v="http://www.kletterwald-muenchen.de/"/>
    <tag k="wheelchair" v="no"/>
  </node>
  <node id="391506240" version="7" timestamp="2011-11-23T18:14:24Z" uid="397369" user="tkroko" changeset="9924229" lat="48.0284" lon="11.5280629">
    <tag k="leisure" v="sports_centre"/>
    <tag k="name" v="Kletterwald München/Grünwald"/>
    <tag k="operator" v="Secorda GmbH"/>
    <tag k="sport" v="climbing"/>
    <tag k="website" v="http://www.kletterwald-muenchen.de/"/>
    <tag k="wheelchair" v="no"/>
  </node>
  <node id="391506246" version="2" timestamp="2009-08-31T21:11:13Z" uid="36809" user="pfoten_weg_!_" changeset="2331411" lat="48.0255624" lon="11.5260036">
    <tag k="name" v="Walderlebniszentrum Grünwalder Sauschütt"/>
    <tag k="tourism" v="attraction"/>
  </node>
  <node id="391506246" version="3" timestamp="2010-10-13T20:47:10Z" uid="327545" user="pedXing" changeset="6033524" lat="48.0255624" lon="11.5260036">
    <tag k="addr:city" v="Grünwald"/>
    <tag k="addr:country" v="DE"/>
    <tag k="addr:postcode" v="82031"/>
    <tag k="addr:street" v="Sauschütt"/>
    <tag k="name" v="Walderlebniszentrum Grünwalder Sauschütt"/>
    <tag k="tourism" v="attraction"/>
    <tag k="website" v="http://www.sauschuett.de/"/>
  </node>
  <node id="391506246" version="4" timestamp="2011-10-02T18:41:06Z" uid="290680" user="wheelmap_visitor" changeset="9447804" lat="48.0255624" lon="11.5260036">
    <tag k="addr:city" v="Grünwald"/>
    <tag k="addr:country" v="DE"/>
    <tag k="addr:postcode" v="82031"/>
    <tag k="addr:street" v="Sauschütt"/>
    <tag k="name" v="Walderlebniszentrum Grünwalder Sauschütt"/>
    <tag k="tourism" v="attraction"/>
    <tag k="website" v="http://www.sauschuett.de/"/>
    <tag k="wheelchair" v="limited"/>
  </node>
  <node id="391506250" version="3" timestamp="2009-08-31T21:11:15Z" uid="36809" user="pfoten_weg_!_" changeset="2331411" lat="48.0253809" lon="11.5273802"/>
  <node id="391506251" version="3" timestamp="2009-08-31T21:11:15Z" uid="36809" user="pfoten_weg_!_" changeset="2331411" lat="48.0253867" lon="11.5275261"/>
  <node id="391506253" version="3" timestamp="2009-08-31T21:11:14Z" uid="36809" user="pfoten_weg_!_" changeset="2331411" lat="48.0255531" lon="11.5275003"/>
  <node id="391506254" version="3" timestamp="2009-08-31T21:11:14Z" uid="36809" user="pfoten_weg_!_" changeset="2331411" lat="48.0255474" lon="11.5273544"/>
  <node id="391506256" version="3" timestamp="2009-08-31T21:11:17Z" uid="36809" user="pfoten_weg_!_" changeset="2331411" lat="48.0253522" lon="11.525715"/>
  <node id="391506257" version="3" timestamp="2009-08-31T21:11:17Z" uid="36809" user="pfoten_weg_!_" changeset="2331411" lat="48.0253867" lon="11.5258095"/>
  <node id="391506259" version="3" timestamp="2009-08-31T21:11:16Z" uid="36809" user="pfoten_weg_!_" changeset="2331411" lat="48.0252317" lon="11.5259725"/>
  <node id="391506260" version="3" timestamp="2009-08-31T21:11:16Z" uid="36809" user="pfoten_weg_!_" changeset="2331411" lat="48.0251972" lon="11.5258695"/>
  <node id="391506262" version="3" timestamp="2009-08-31T21:11:15Z" uid="36809" user="pfoten_weg_!_" changeset="2331411" lat="48.0253165" lon="11.5261266"/>
  <node id="391506262" version="4" timestamp="2011-11-23T18:21:13Z" uid="397369" user="tkroko" changeset="9924327" lat="48.0253092" lon="11.5261047"/>
  <node id="391506263" version="3" timestamp="2009-08-31T21:11:16Z" uid="36809" user="pfoten_weg_!_" changeset="2331411" lat="48.0252489" lon="11.5261184"/>
  <node id="391506263" version="4" timestamp="2011-11-23T18:21:13Z" uid="397369" user="tkroko" changeset="9924327" lat="48.0252462" lon="11.5261074"/>
  <node id="391506265" version="3" timestamp="2009-08-31T21:11:18Z" uid="36809" user="pfoten_weg_!_" changeset="2331411" lat="48.0252489" lon="11.5262129"/>
  <node id="391506266" version="3" timestamp="2009-08-31T21:11:17Z" uid="36809" user="pfoten_weg_!_" changeset="2331411" lat="48.0253178" lon="11.5262129"/>
  <node id="391506266" version="4" timestamp="2011-11-23T18:21:13Z" uid="397369" user="tkroko" changeset="9924327" lat="48.0253132" lon="11.5262088"/>
  <node id="391506268" version="2" timestamp="2009-08-31T21:11:17Z" uid="36809" user="pfoten_weg_!_" changeset="2331411" lat="48.0238068" lon="11.5187634">
    <tag k="amenity" v="parking"/>
  </node>
  <node id="391506268" version="3" timestamp="2011-10-02T18:41:02Z" uid="290680" user="wheelmap_visitor" changeset="9447804" lat="48.0238068" lon="11.5187634">
    <tag k="amenity" v="parking"/>
    <tag k="wheelchair" v="limited"/>
  </node>
</osm>
