<?xml version='1.0' encoding='UTF-8'?>
<osm version="0.6" generator="libosmium/2.20.0">
  <node id="391627098" version="3" timestamp="2009-06-16T14:36:13Z" uid="20587" user="balrog-kun" changeset="1535698" lat="50.9286483" lon="19.27184">
    <tag k="is_in" v="gmina Mykanów, powiat częstochowski, województwo śląskie, Poland"/>
    <tag k="is_in:country" v="Poland"/>
    <tag k="is_in:county" v="powiat częstochowski"/>
    <tag k="is_in:municipality" v="gmina Mykanów"/>
    <tag k="is_in:province" v="województwo śląskie"/>
    <tag k="name" v="Borowno"/>
    <tag k="place" v="village"/>
    <tag k="population" v="1364"/>
    <tag k="source:population" v="wikipedia"/>
    <tag k="teryt:rm" v="01"/>
    <tag k="teryt:simc" v="0138715"/>
    <tag k="teryt:stan_na" v="2009-01-01"/>
    <tag k="teryt:terc" v="2404112"/>
    <tag k="teryt:updated_by" v="teryt2osm combine.py v. 49"/>
    <tag k="wikipedia" v="pl:Borowno"/>
  </node>
  <node id="391627098" version="4" timestamp="2010-02-19T22:50:57Z" uid="91056" user="Yarl" changeset="3919505" lat="50.9308778" lon="19.2727244">
    <tag k="is_in" v="gmina Mykanów, powiat częstochowski, województwo śląskie, Poland"/>
    <tag k="is_in:country" v="Poland"/>
    <tag k="is_in:county" v="powiat częstochowski"/>
    <tag k="is_in:municipality" v="gmina Mykanów"/>
    <tag k="is_in:province" v="województwo śląskie"/>
    <tag k="name" v="Borowno"/>
    <tag k="place" v="village"/>
    <tag k="population" v="1364"/>
    <tag k="source:population" v="wikipedia"/>
    <tag k="teryt:rm" v="01"/>
    <tag k="teryt:simc" v="0138715"/>
    <tag k="teryt:stan_na" v="2009-01-01"/>
    <tag k="teryt:terc" v="2404112"/>
    <tag k="teryt:updated_by" v="teryt2osm combine.py v. 49"/>
    <tag k="wikipedia" v="pl:Borowno"/>
  </node>
  <node id="391627098" version="5" timestamp="2010-04-11T04:46:58Z" uid="20587" user="balrog-kun" changeset="4389130" lat="50.9311965" lon="19.2730171">
    <tag k="is_in" v="gmina Mykanów, powiat częstochowski, województwo śląskie, Poland"/>
    <tag k="is_in:country" v="Poland"/>
    <tag k="is_in:county" v="powiat częstochowski"/>
    <tag k="is_in:municipality" v="gmina Mykanów"/>
    <tag k="is_in:province" v="województwo śląskie"/>
    <tag k="name" v="Borowno"/>
    <tag k="place" v="village"/>
    <tag k="population" v="1364"/>
    <tag k="source:population" v="wikipedia"/>
    <tag k="teryt:rm" v="01"/>
    <tag k="teryt:simc" v="0138715"/>
    <tag k="teryt:stan_na" v="2009-01-01"/>
    <tag k="teryt:terc" v="2404112"/>
    <tag k="teryt:updated_by" v="teryt2osm combine.py v. 49"/>
    <tag k="wikipedia" v="pl:Borowno"/>
  </node>
  <node id="391627099" version="3" timestamp="2009-06-16T14:36:18Z" uid="20587" user="balrog-kun" changeset="1535698" lat="50.994245" lon="19.2944521">
    <tag k="is_in" v="gmina Kruszyna, powiat częstochowski, województwo śląskie, Poland"/>
    <tag k="is_in:country" v="Poland"/>
    <tag k="is_in:county" v="powiat częstochowski"/>
    <tag k="is_in:municipality" v="gmina Kruszyna"/>
    <tag k="is_in:province" v="województwo śląskie"/>
    <tag k="name" v="Wikłów"/>
    <tag k="place" v="village"/>
    <tag k="population" v="174"/>
    <tag k="source:population" v="wikipedia"/>
    <tag k="teryt:rm" v="01"/>
    <tag k="teryt:simc" v="0137006"/>
    <tag k="teryt:stan_na" v="2009-01-01"/>
    <tag k="teryt:terc" v="2404082"/>
    <tag k="teryt:updated_by" v="teryt2osm combine.py v. 49"/>
    <tag k="wikipedia" v="Wikłów"/>
  </node>
  <node id="391627099" version="4" timestamp="2010-04-11T04:46:58Z" uid="20587" user="balrog-kun" changeset="4389130" lat="50.9945105" lon="19.2959275">
    <tag k="is_in" v="gmina Kruszyna, powiat częstochowski, województwo śląskie, Poland"/>
    <tag k="is_in:country" v="Poland"/>
    <tag k="is_in:county" v="powiat częstochowski"/>
    <tag k="is_in:municipality" v="gmina Kruszyna"/>
    <tag k="is_in:province" v="województwo śląskie"/>
    <tag k="name" v="Wikłów"/>
    <tag k="place" v="village"/>
    <tag k="population" v="174"/>
    <tag k="source:population" v="wikipedia"/>
    <tag k="teryt:rm" v="01"/>
    <tag k="teryt:simc" v="0137006"/>
    <tag k="teryt:stan_na" v="2009-01-01"/>
    <tag k="teryt:terc" v="2404082"/>
    <tag k="teryt:updated_by" v="teryt2osm combine.py v. 49"/>
    <tag k="wikipedia" v="Wikłów"/>
  </node>
  <node id="391627100" version="3" timestamp="2009-06-16T14:36:21Z" uid="20587" user="balrog-kun" changeset="1535698" lat="51.0303665" lon="19.2976308">
    <tag k="addr:postcode" v="42-282"/>
    <tag k="is_in" v="gmina Kruszyna, powiat częstochowski, województwo śląskie, Poland"/>
    <tag k="is_in:country" v="Poland"/>
    <tag k="is_in:county" v="powiat częstochowski"/>
    <tag k="is_in:municipality" v="gmina Kruszyna"/>
    <tag k="is_in:province" v="województwo śląskie"/>
    <tag k="name" v="Łęg"/>
    <tag k="place" v="village"/>
    <tag k="population" v="94"/>
    <tag k="source:population" v="wikipedia"/>
    <tag k="teryt:rm" v="01"/>
    <tag k="teryt:simc" v="0136886"/>
    <tag k="teryt:stan_na" v="2009-01-01"/>
    <tag k="teryt:terc" v="2404082"/>
    <tag k="teryt:updated_by" v="teryt2osm combine.py v. 49"/>
    <tag k="wikipedia" v="Łęg, Częstochowa County"/>
  </node>
  <node id="391627553" version="1" timestamp="2009-05-06T21:09:21Z" uid="107674" user="GeoCounter" changeset="1101960" lat="50.0499786" lon="8.7878092"/>
  <node id="391627553" version="2" timestamp="2009-08-13T03:46:36Z" uid="65364" user="Harry99" changeset="2126318" lat="50.0499746" lon="8.7877905"/>
  <node id="391627553" version="3" timestamp="2010-01-14T16:00:54Z" uid="42260" user="BjH" changeset="3617894" lat="50.0499784" lon="8.7877165"/>
  <node id="391627553" version="4" timestamp="2012-01-08T22:16:19Z" uid="65364" user="Harry99" changeset="10337323" lat="50.0499255" lon="8.7876459">
    <tag k="crossing" v="traffic_signals"/>
    <tag k="highway" v="traffic_signals"/>
  </node>
</osm>
