<?xml version='1.0' encoding='UTF-8'?>
<osm version="0.6" generator="libosmium/2.20.0">
  <node id="391880658" version="1" timestamp="2009-05-07T11:12:30Z" uid="53938" user="ctheile" changeset="1105954" lat="14.1472084" lon="-16.0792684">
    <tag k="amenity" v="office"/>
    <tag k="name" v="buero gtz proddel"/>
  </node>
  <node id="391880658" version="2" timestamp="2009-07-16T17:19:00Z" uid="53938" user="ctheile" changeset="1846635" lat="14.1480054" lon="-16.0784469">
    <tag k="amenity" v="office"/>
    <tag k="name" v="buero gtz proddel"/>
  </node>
  <node id="391880658" version="3" timestamp="2010-01-14T19:23:28Z" uid="53938" user="ctheile" changeset="3619237" lat="14.1480054" lon="-16.0784469">
    <tag k="amenity" v="office"/>
    <tag k="name" v="buero gtz proddel"/>
  </node>
  <node id="391882304" version="1" timestamp="2009-05-07T11:17:24Z" uid="53938" user="ctheile" changeset="1105954" lat="14.1377202" lon="-16.0732602">
    <tag k="amenity" v="restaurant"/>
    <tag k="cuisine" v="European/African"/>
    <tag k="name" v="Brasero"/>
  </node>
  <node id="391882304" version="2" timestamp="2009-05-18T13:43:59Z" uid="53938" user="ctheile" changeset="1237263" lat="14.1382361" lon="-16.0728434">
    <tag k="amenity" v="restaurant"/>
    <tag k="cuisine" v="European/African"/>
    <tag k="name" v="Brasero"/>
  </node>
  <node id="391882304" version="3" timestamp="2009-06-16T16:27:37Z" uid="53938" user="ctheile" changeset="1536538" lat="14.1386985" lon="-16.0726724">
    <tag k="amenity" v="restaurant"/>
    <tag k="cuisine" v="European/African"/>
    <tag k="name" v="Brasero"/>
  </node>
  <node id="391882304" version="4" timestamp="2009-07-09T09:56:08Z" uid="53938" user="ctheile" changeset="1779524" lat="14.1386366" lon="-16.0732917">
    <tag k="amenity" v="restaurant"/>
    <tag k="cuisine" v="European/African"/>
    <tag k="name" v="Brasero"/>
  </node>
</osm>
