<?xml version='1.0' encoding='UTF-8'?>
<osm version="0.6" generator="libosmium/2.20.0">
  <node id="392321741" version="2" timestamp="2010-07-28T21:03:04Z" uid="74617" user="JohnSmith" changeset="5342181" lat="51.327945" lon="7.8664712">
    <tag k="addr:city" v="Balve"/>
    <tag k="addr:housenumber" v="10"/>
    <tag k="addr:postcode" v="58802"/>
    <tag k="addr:street" v="Sauerlandstraße"/>
    <tag k="emergency" v="ambulance_station"/>
    <tag k="name" v="Rettungswache Balve"/>
  </node>
  <node id="392321741" version="3" timestamp="2010-11-02T12:00:25Z" uid="63969" user="olvagor" changeset="6267118" lat="51.327945" lon="7.8664712">
    <tag k="addr:city" v="Balve"/>
    <tag k="addr:country" v="DE"/>
    <tag k="addr:housenumber" v="10"/>
    <tag k="addr:postcode" v="58802"/>
    <tag k="addr:street" v="Sauerlandstraße"/>
    <tag k="emergency" v="ambulance_station"/>
    <tag k="name" v="Rettungswache Balve"/>
  </node>
  <node id="392321741" version="4" timestamp="2011-01-27T23:21:55Z" uid="63969" user="olvagor" changeset="7108782" lat="51.3279152" lon="7.8664384">
    <tag k="addr:city" v="Balve"/>
    <tag k="addr:country" v="DE"/>
    <tag k="addr:housenumber" v="10"/>
    <tag k="addr:postcode" v="58802"/>
    <tag k="addr:street" v="Sauerlandstraße"/>
    <tag k="emergency" v="ambulance_station"/>
    <tag k="name" v="Rettungswache Balve"/>
  </node>
  <node id="392323153" version="1" timestamp="2009-05-08T15:18:04Z" uid="64977" user="CLoeser" changeset="1118516" lat="53.9281783" lon="9.5476031"/>
  <node id="392323153" version="2" timestamp="2009-05-08T15:18:26Z" uid="64977" user="CLoeser" changeset="1118516" lat="53.9281783" lon="9.5476031"/>
  <node id="392323154" version="1" timestamp="2009-05-08T15:18:04Z" uid="64977" user="CLoeser" changeset="1118516" lat="53.927491" lon="9.5478177"/>
  <node id="392323154" version="2" timestamp="2009-05-08T15:18:26Z" uid="64977" user="CLoeser" changeset="1118516" lat="53.927491" lon="9.5478177"/>
  <node id="392323225" version="1" timestamp="2009-05-08T15:18:24Z" uid="64977" user="CLoeser" changeset="1118516" lat="53.927591" lon="9.5478005"/>
  <node id="392323225" version="2" timestamp="2011-10-30T16:45:18Z" uid="66904" user="OSchlüter" changeset="9695565" lat="53.927591" lon="9.5478005"/>
  <node id="392323226" version="1" timestamp="2009-05-08T15:18:24Z" uid="64977" user="CLoeser" changeset="1118516" lat="53.9280647" lon="9.5476472"/>
  <node id="392323226" version="2" timestamp="2011-10-30T16:45:18Z" uid="66904" user="OSchlüter" changeset="9695565" lat="53.9280647" lon="9.5476472"/>
  <node id="392326324" version="7" timestamp="2010-09-28T07:43:31Z" uid="49111" user="Markus B" changeset="5901313" lat="49.5094268" lon="11.4288798">
    <tag k="addr:city" v="Hersbruck"/>
    <tag k="addr:country" v="DE"/>
    <tag k="addr:housenumber" v="10"/>
    <tag k="addr:postcode" v="91217"/>
    <tag k="addr:street" v="Oberer Markt"/>
    <tag k="amenity" v="cafe"/>
    <tag k="name" v="Incontro"/>
    <tag k="phone" v="+49 9151 - 2137"/>
    <tag k="smoking" v="no"/>
    <tag k="smoking:outside" v="yes"/>
  </node>
  <node id="392326324" version="8" timestamp="2012-01-11T13:54:33Z" uid="121036" user="TheFish" changeset="10360733" lat="49.5094268" lon="11.4288798">
    <tag k="addr:city" v="Hersbruck"/>
    <tag k="addr:country" v="DE"/>
    <tag k="addr:housenumber" v="10"/>
    <tag k="addr:postcode" v="91217"/>
    <tag k="addr:street" v="Oberer Markt"/>
    <tag k="amenity" v="cafe"/>
    <tag k="name" v="Tiziano Gelato &amp; Cafe"/>
    <tag k="phone" v="+49 9151 - 2137"/>
    <tag k="smoking" v="no"/>
    <tag k="smoking:outside" v="yes"/>
  </node>
  <node id="392326324" version="9" timestamp="2012-02-01T09:38:46Z" uid="290680" user="wheelmap_visitor" changeset="10556593" lat="49.5094268" lon="11.4288798">
    <tag k="addr:city" v="Hersbruck"/>
    <tag k="addr:country" v="DE"/>
    <tag k="addr:housenumber" v="10"/>
    <tag k="addr:postcode" v="91217"/>
    <tag k="addr:street" v="Oberer Markt"/>
    <tag k="amenity" v="cafe"/>
    <tag k="name" v="Tiziano Gelato &amp; Cafe"/>
    <tag k="phone" v="+49 9151 - 2137"/>
    <tag k="smoking" v="no"/>
    <tag k="smoking:outside" v="yes"/>
    <tag k="wheelchair" v="no"/>
  </node>
  <node id="392326324" version="10" timestamp="2012-02-03T20:15:38Z" uid="121036" user="TheFish" changeset="10578730" lat="49.5094921" lon="11.4288389">
    <tag k="addr:city" v="Hersbruck"/>
    <tag k="addr:country" v="DE"/>
    <tag k="addr:housenumber" v="10"/>
    <tag k="addr:postcode" v="91217"/>
    <tag k="addr:street" v="Oberer Markt"/>
    <tag k="amenity" v="cafe"/>
    <tag k="name" v="Tiziano Gelato &amp; Cafe"/>
    <tag k="phone" v="+49 9151 - 2137"/>
    <tag k="smoking" v="no"/>
    <tag k="smoking:outside" v="yes"/>
    <tag k="wheelchair" v="no"/>
  </node>
  <node id="392326324" version="11" timestamp="2012-02-03T20:22:28Z" uid="121036" user="TheFish" changeset="10578777" lat="49.5094664" lon="11.428831">
    <tag k="addr:city" v="Hersbruck"/>
    <tag k="addr:country" v="DE"/>
    <tag k="addr:housenumber" v="10"/>
    <tag k="addr:postcode" v="91217"/>
    <tag k="addr:street" v="Oberer Markt"/>
    <tag k="amenity" v="cafe"/>
    <tag k="name" v="Tiziano Gelato &amp; Cafe"/>
    <tag k="phone" v="+49 9151 - 2137"/>
    <tag k="smoking" v="no"/>
    <tag k="smoking:outside" v="yes"/>
    <tag k="wheelchair" v="no"/>
  </node>
</osm>
