<?xml version='1.0' encoding='UTF-8'?>
<osm version="0.6" generator="libosmium/2.20.0">
  <node id="393236939" version="1" timestamp="2009-05-10T15:00:32Z" uid="26515" user="Simon Ward" changeset="1140544" lat="54.9254596" lon="-1.3732656">
    <tag k="amenity" v="pub"/>
    <tag k="name" v="The Cliff"/>
    <tag k="source" v="survey"/>
  </node>
  <node id="393236941" version="1" timestamp="2009-05-10T15:00:32Z" uid="26515" user="Simon Ward" changeset="1140544" lat="54.9256337" lon="-1.3732599">
    <tag k="name" v="The Salon"/>
    <tag k="shop" v="beauty_salon"/>
    <tag k="source" v="survey"/>
  </node>
  <node id="393236941" version="2" timestamp="2009-05-10T20:23:48Z" uid="26515" user="Simon Ward" changeset="1145261" lat="54.9257119" lon="-1.3732599">
    <tag k="name" v="The Salon"/>
    <tag k="shop" v="beauty_salon"/>
    <tag k="source" v="survey"/>
  </node>
  <node id="393239038" version="1" timestamp="2009-05-10T15:01:56Z" uid="26515" user="Simon Ward" changeset="1140562" lat="54.9259682" lon="-1.3732557">
    <tag k="name" v="P &amp; J Mitchell &amp; Son"/>
    <tag k="shop" v="convenience"/>
    <tag k="source" v="survey"/>
  </node>
  <node id="393239041" version="1" timestamp="2009-05-10T15:01:57Z" uid="26515" user="Simon Ward" changeset="1140562" lat="54.9259328" lon="-1.3731417">
    <tag k="amenity" v="post_box"/>
    <tag k="postal_code" v="SR6"/>
    <tag k="ref" v="SR6 175"/>
    <tag k="source" v="survey"/>
  </node>
</osm>
