<?xml version='1.0' encoding='UTF-8'?>
<osm version="0.6" generator="libosmium/2.20.0">
  <node id="396942204" version="1" timestamp="2009-05-14T01:58:12Z" uid="74617" user="JohnSmith" changeset="1182295" lat="-29.6526731" lon="150.8275611">
    <tag k="shop" v="convenience"/>
  </node>
  <node id="396942204" version="2" timestamp="2009-05-14T01:59:09Z" uid="74617" user="JohnSmith" changeset="1182295" lat="-29.6526731" lon="150.8275611">
    <tag k="name" v="Delungra Truck Stop"/>
    <tag k="operator" v="Privately Owned"/>
    <tag k="shop" v="convenience"/>
  </node>
  <node id="396942204" version="3" timestamp="2009-05-15T07:55:55Z" uid="74617" user="JohnSmith" changeset="1196218" lat="-29.6525981" lon="150.8275848">
    <tag k="name" v="Delungra Truck Stop"/>
    <tag k="operator" v="Privately Owned"/>
    <tag k="shop" v="convenience"/>
  </node>
  <node id="396942204" version="4" timestamp="2009-05-23T03:33:10Z" uid="74617" user="JohnSmith" changeset="1291477" lat="-29.6527117" lon="150.827507">
    <tag k="name" v="Delungra Truck Stop"/>
    <tag k="operator" v="Privately Owned"/>
    <tag k="shop" v="convenience"/>
  </node>
</osm>
