<?xml version='1.0' encoding='UTF-8'?>
<osm version="0.6" generator="libosmium/2.20.0">
  <node id="398410851" version="1" timestamp="2009-05-14T10:03:23Z" uid="20587" user="balrog-kun" changeset="1186090" lat="52.2365342" lon="21.0183412">
    <tag k="amenity" v="restaurant"/>
    <tag k="cuisine" v="spanish"/>
    <tag k="name" v="Conquistador"/>
  </node>
  <node id="398410851" version="2" timestamp="2010-01-06T12:58:09Z" uid="20587" user="balrog-kun" changeset="3553254" lat="52.2366757" lon="21.0183019">
    <tag k="amenity" v="restaurant"/>
    <tag k="cuisine" v="spanish"/>
    <tag k="name" v="Conquistador"/>
  </node>
  <node id="398410851" version="3" timestamp="2010-04-26T04:43:27Z" uid="20587" user="balrog-kun" changeset="4528260" lat="52.2367153" lon="21.018294">
    <tag k="amenity" v="restaurant"/>
    <tag k="cuisine" v="spanish"/>
    <tag k="name" v="Conquistador"/>
  </node>
  <node id="398410858" version="1" timestamp="2009-05-14T10:03:23Z" uid="20587" user="balrog-kun" changeset="1186090" lat="52.2362283" lon="21.0184441">
    <tag k="amenity" v="pub"/>
    <tag k="name" v="Bierhalle"/>
  </node>
  <node id="398410858" version="2" timestamp="2010-01-06T12:58:08Z" uid="20587" user="balrog-kun" changeset="3553254" lat="52.2364646" lon="21.018363">
    <tag k="amenity" v="pub"/>
    <tag k="name" v="Bierhalle"/>
  </node>
  <node id="398410858" version="3" timestamp="2010-01-10T10:26:10Z" uid="20587" user="balrog-kun" changeset="3585409" lat="52.2363689" lon="21.0183732">
    <tag k="amenity" v="pub"/>
    <tag k="name" v="Bierhalle"/>
  </node>
  <node id="398410862" version="1" timestamp="2009-05-14T10:03:23Z" uid="20587" user="balrog-kun" changeset="1186090" lat="52.2364287" lon="21.0183683">
    <tag k="amenity" v="restaurant"/>
    <tag k="cuisine" v="mediterranean"/>
    <tag k="name" v="La Cantina del Nuovo Mondo"/>
  </node>
  <node id="398410862" version="2" timestamp="2010-01-06T12:58:08Z" uid="20587" user="balrog-kun" changeset="3553254" lat="52.2365461" lon="21.0183339">
    <tag k="amenity" v="restaurant"/>
    <tag k="cuisine" v="mediterranean"/>
    <tag k="name" v="La Cantina del Nuovo Mondo"/>
  </node>
  <node id="398410862" version="3" timestamp="2010-01-10T10:26:10Z" uid="20587" user="balrog-kun" changeset="3585409" lat="52.2364754" lon="21.0183288">
    <tag k="amenity" v="restaurant"/>
    <tag k="cuisine" v="mediterranean"/>
    <tag k="name" v="La Cantina del Nuovo Mondo"/>
  </node>
  <node id="398410862" version="4" timestamp="2010-04-26T04:43:28Z" uid="20587" user="balrog-kun" changeset="4528260" lat="52.2364499" lon="21.0183427">
    <tag k="amenity" v="restaurant"/>
    <tag k="cuisine" v="mediterranean"/>
    <tag k="name" v="La Cantina del Nuovo Mondo"/>
  </node>
  <node id="398410866" version="1" timestamp="2009-05-14T10:03:23Z" uid="20587" user="balrog-kun" changeset="1186090" lat="52.2358897" lon="21.019469">
    <tag k="amenity" v="restaurant"/>
    <tag k="cuisine" v="pizza"/>
    <tag k="name" v="Sorrento"/>
  </node>
  <node id="398410866" version="2" timestamp="2010-05-23T15:04:22Z" uid="20587" user="balrog-kun" changeset="4784060" lat="52.2359816" lon="21.0199114">
    <tag k="amenity" v="restaurant"/>
    <tag k="cuisine" v="pizza"/>
    <tag k="name" v="Sorrento"/>
  </node>
  <node id="398410866" version="3" timestamp="2010-10-01T19:39:40Z" uid="20587" user="balrog-kun" changeset="5930868" lat="52.2359816" lon="21.0199114">
    <tag k="amenity" v="restaurant"/>
    <tag k="cuisine" v="asian"/>
    <tag k="name" v="LiDo"/>
    <tag k="old_cuisine" v="pizza"/>
    <tag k="old_name" v="Sorrento"/>
  </node>
</osm>
