<?xml version='1.0' encoding='UTF-8'?>
<osm version="0.6" generator="libosmium/2.20.0">
  <node id="400804207" version="4" timestamp="2009-07-22T18:59:55Z" uid="123700" user="Mala" changeset="1908128" lat="13.2902342" lon="108.425224">
    <tag k="country_code_fips" v="VM"/>
    <tag k="country_code_iso3166_1_alpha_2" v="VN"/>
    <tag k="int_name" v="Viet Nam"/>
    <tag k="is_in:continent" v="Asia"/>
    <tag k="name" v="Viet Nam"/>
    <tag k="name:da" v="Vietnam"/>
    <tag k="name:de" v="Vietnam"/>
    <tag k="name:en" v="Vietnam"/>
    <tag k="name:eo" v="Vjetnamio"/>
    <tag k="name:fi" v="Vietnam"/>
    <tag k="name:he" v="ויאטנם"/>
    <tag k="name:hu" v="Vietnam"/>
    <tag k="name:it" v="Vietnam"/>
    <tag k="name:pl" v="Wietnam"/>
    <tag k="name:zh" v="越南"/>
    <tag k="name:zh_py" v="Yuenan"/>
    <tag k="name:zh_pyt" v="Yuènán"/>
    <tag k="official_name:it" v="Repubblica Socialista del Vietnam"/>
    <tag k="official_name:pl" v="Socjalistyczna Republika Wietnamu"/>
    <tag k="place" v="country"/>
  </node>
  <node id="400804207" version="5" timestamp="2009-07-22T20:51:47Z" uid="123700" user="Mala" changeset="1909234" lat="13.2902342" lon="108.425224">
    <tag k="country_code_fips" v="VM"/>
    <tag k="country_code_iso3166_1_alpha_2" v="VN"/>
    <tag k="int_name" v="Viet Nam"/>
    <tag k="is_in:continent" v="Asia"/>
    <tag k="name" v="Viet Nam"/>
    <tag k="name:da" v="Vietnam"/>
    <tag k="name:de" v="Vietnam"/>
    <tag k="name:en" v="Vietnam"/>
    <tag k="name:eo" v="Vjetnamio"/>
    <tag k="name:fi" v="Vietnam"/>
    <tag k="name:he" v="ויאטנם"/>
    <tag k="name:hu" v="Vietnam"/>
    <tag k="name:it" v="Vietnam"/>
    <tag k="name:pl" v="Wietnam"/>
    <tag k="name:zh" v="越南"/>
    <tag k="name:zh_py" v="Yuenan"/>
    <tag k="name:zh_pyt" v="Yuènán"/>
    <tag k="official_name:it" v="Repubblica Socialista del Vietnam"/>
    <tag k="official_name:pl" v="Socjalistyczna Republika Wietnamu"/>
    <tag k="place" v="country"/>
  </node>
</osm>
