<?xml version='1.0' encoding='UTF-8'?>
<osm version="0.6" generator="libosmium/2.20.0">
  <node id="406022187" version="1" timestamp="2009-05-19T15:04:59Z" uid="55964" user="Evan Sebire" changeset="1250536" lat="46.587093" lon="7.643636"/>
  <node id="406022187" version="2" timestamp="2012-01-17T09:42:21Z" uid="125339" user="efred" changeset="10415857" lat="46.587093" lon="7.643636"/>
  <node id="406022201" version="1" timestamp="2009-05-19T15:04:59Z" uid="55964" user="Evan Sebire" changeset="1250536" lat="46.5871" lon="7.643893"/>
  <node id="406022201" version="2" timestamp="2012-01-17T09:42:21Z" uid="125339" user="efred" changeset="10415857" lat="46.5871" lon="7.643893"/>
  <node id="406022212" version="1" timestamp="2009-05-19T15:05:00Z" uid="55964" user="Evan Sebire" changeset="1250536" lat="46.5870312" lon="7.6440957"/>
  <node id="406022212" version="2" timestamp="2012-01-17T09:42:21Z" uid="125339" user="efred" changeset="10415857" lat="46.5870312" lon="7.6440957"/>
  <node id="406022259" version="1" timestamp="2009-05-19T15:05:00Z" uid="55964" user="Evan Sebire" changeset="1250536" lat="46.5871387" lon="7.6441541">
    <tag k="highway" v="bus_stop"/>
  </node>
  <node id="406022259" version="2" timestamp="2010-05-16T10:54:30Z" uid="55964" user="Evan Sebire" changeset="4715520" lat="46.5871387" lon="7.6441541">
    <tag k="highway" v="bus_stop"/>
    <tag k="name" v="Marktplatz"/>
    <tag k="operator" v="afa"/>
    <tag k="phone" v="+41 33 673 7474"/>
    <tag k="route_ref" v="230"/>
    <tag k="shelter" v="yes"/>
    <tag k="source" v="survey"/>
    <tag k="url" v="http://www.afa-busbetrieb.ch"/>
  </node>
  <node id="406022259" version="3" timestamp="2010-05-18T20:40:51Z" uid="55964" user="Evan Sebire" changeset="4742788" lat="46.5871387" lon="7.6441541">
    <tag k="highway" v="bus_stop"/>
    <tag k="name" v="Marktplatz"/>
    <tag k="operator" v="afa"/>
    <tag k="phone" v="+41 33 673 7474"/>
    <tag k="route_ref" v="230"/>
    <tag k="shelter" v="yes"/>
    <tag k="source" v="survey"/>
    <tag k="towards" v="Adelboden"/>
    <tag k="url" v="http://www.afa-busbetrieb.ch"/>
  </node>
  <node id="406022259" version="4" timestamp="2010-11-10T07:41:08Z" uid="368211" user="DidokImportCH" changeset="6333705" lat="46.587139" lon="7.644154">
    <tag k="ele" v="812"/>
    <tag k="highway" v="bus_stop"/>
    <tag k="name" v="Marktplatz"/>
    <tag k="operator" v="afa"/>
    <tag k="phone" v="+41 33 673 7474"/>
    <tag k="route_ref" v="230"/>
    <tag k="shelter" v="yes"/>
    <tag k="towards" v="Adelboden"/>
    <tag k="uic_name" v="Frutigen, Marktplatz"/>
    <tag k="uic_ref" v="8576316"/>
    <tag k="url" v="http://www.afa-busbetrieb.ch"/>
  </node>
  <node id="406022259" version="5" timestamp="2012-02-28T09:22:22Z" uid="74900" user="FischersFritz" changeset="10816897" lat="46.587139" lon="7.644154"/>
  <node id="406022272" version="1" timestamp="2009-05-19T15:05:00Z" uid="55964" user="Evan Sebire" changeset="1250536" lat="46.585576" lon="7.6482668">
    <tag k="highway" v="bus_stop"/>
  </node>
  <node id="406022272" version="2" timestamp="2010-05-16T10:54:27Z" uid="55964" user="Evan Sebire" changeset="4715520" lat="46.5855641" lon="7.6482298">
    <tag k="highway" v="bus_stop"/>
    <tag k="name" v="Widi"/>
    <tag k="operator" v="afa"/>
    <tag k="phone" v="+41 33 673 7474"/>
    <tag k="route_ref" v="230"/>
    <tag k="source" v="survey"/>
    <tag k="url" v="http://www.afa-busbetrieb.ch"/>
  </node>
  <node id="406022272" version="3" timestamp="2010-11-10T07:41:00Z" uid="368211" user="DidokImportCH" changeset="6333705" lat="46.585564" lon="7.64823">
    <tag k="ele" v="786"/>
    <tag k="highway" v="bus_stop"/>
    <tag k="name" v="Widi"/>
    <tag k="operator" v="afa"/>
    <tag k="phone" v="+41 33 673 7474"/>
    <tag k="route_ref" v="230"/>
    <tag k="uic_name" v="Frutigen, Widi"/>
    <tag k="uic_ref" v="8507587"/>
    <tag k="url" v="http://www.afa-busbetrieb.ch"/>
  </node>
  <node id="406022272" version="4" timestamp="2012-02-28T09:22:26Z" uid="74900" user="FischersFritz" changeset="10816897" lat="46.585564" lon="7.64823"/>
  <node id="406022281" version="1" timestamp="2009-05-19T15:05:01Z" uid="55964" user="Evan Sebire" changeset="1250536" lat="46.5858694" lon="7.6483258">
    <tag k="highway" v="bus_stop"/>
  </node>
  <node id="406022281" version="2" timestamp="2010-05-16T10:54:27Z" uid="55964" user="Evan Sebire" changeset="4715520" lat="46.5858281" lon="7.648277">
    <tag k="highway" v="bus_stop"/>
    <tag k="name" v="Widi"/>
    <tag k="operator" v="post;afa"/>
    <tag k="phone" v="+41 33 673 7474"/>
    <tag k="route_ref" v="210;230"/>
    <tag k="source" v="survey"/>
    <tag k="url" v="http://www.afa-busbetrieb.ch"/>
  </node>
  <node id="406022281" version="3" timestamp="2010-11-10T07:41:01Z" uid="368211" user="DidokImportCH" changeset="6333705" lat="46.585828" lon="7.648277">
    <tag k="ele" v="786"/>
    <tag k="highway" v="bus_stop"/>
    <tag k="name" v="Widi"/>
    <tag k="operator" v="post;afa"/>
    <tag k="phone" v="+41 33 673 7474"/>
    <tag k="route_ref" v="210;230"/>
    <tag k="uic_name" v="Frutigen, Widi"/>
    <tag k="uic_ref" v="8507587"/>
    <tag k="url" v="http://www.afa-busbetrieb.ch"/>
  </node>
  <node id="406022281" version="4" timestamp="2012-02-28T09:22:26Z" uid="74900" user="FischersFritz" changeset="10816897" lat="46.585828" lon="7.648277"/>
  <node id="406022290" version="1" timestamp="2009-05-19T15:05:01Z" uid="55964" user="Evan Sebire" changeset="1250536" lat="46.5859318" lon="7.647619">
    <tag k="highway" v="bus_stop"/>
  </node>
  <node id="406022290" version="2" timestamp="2009-06-18T19:28:52Z" uid="55964" user="Evan Sebire" changeset="1557819" lat="46.5859632" lon="7.6475484">
    <tag k="highway" v="bus_stop"/>
  </node>
  <node id="406022290" version="3" timestamp="2010-05-16T10:54:26Z" uid="55964" user="Evan Sebire" changeset="4715520" lat="46.5859632" lon="7.6475484">
    <tag k="highway" v="bus_stop"/>
    <tag k="name" v="Widi"/>
    <tag k="operator" v="post;afa"/>
    <tag k="phone" v="+41 33 673 7474"/>
    <tag k="route_ref" v="210;230"/>
    <tag k="source" v="survey"/>
    <tag k="url" v="http://www.afa-busbetrieb.ch"/>
  </node>
  <node id="406022290" version="4" timestamp="2010-11-10T07:41:02Z" uid="368211" user="DidokImportCH" changeset="6333705" lat="46.585963" lon="7.647548">
    <tag k="ele" v="786"/>
    <tag k="highway" v="bus_stop"/>
    <tag k="name" v="Widi"/>
    <tag k="operator" v="post;afa"/>
    <tag k="phone" v="+41 33 673 7474"/>
    <tag k="route_ref" v="210;230"/>
    <tag k="uic_name" v="Frutigen, Widi"/>
    <tag k="uic_ref" v="8507587"/>
    <tag k="url" v="http://www.afa-busbetrieb.ch"/>
  </node>
  <node id="406022290" version="5" timestamp="2012-02-28T09:22:26Z" uid="74900" user="FischersFritz" changeset="10816897" lat="46.585963" lon="7.647548"/>
  <node id="406022335" version="1" timestamp="2009-05-19T15:05:02Z" uid="55964" user="Evan Sebire" changeset="1250536" lat="46.5886972" lon="7.6457529">
    <tag k="highway" v="bus_stop"/>
  </node>
  <node id="406022335" version="2" timestamp="2010-05-16T10:54:31Z" uid="55964" user="Evan Sebire" changeset="4715520" lat="46.5886897" lon="7.645776">
    <tag k="highway" v="bus_stop"/>
    <tag k="name" v="Verkehrsbüro"/>
    <tag k="operator" v="post"/>
    <tag k="phone" v="0848 888 888"/>
    <tag k="route_ref" v="210"/>
    <tag k="source" v="survey"/>
    <tag k="url" v="http://www.postauto.ch"/>
  </node>
  <node id="406022335" version="3" timestamp="2010-11-10T07:41:04Z" uid="368211" user="DidokImportCH" changeset="6333705" lat="46.58869" lon="7.645776">
    <tag k="ele" v="804"/>
    <tag k="highway" v="bus_stop"/>
    <tag k="name" v="Verkehrsbüro"/>
    <tag k="operator" v="post"/>
    <tag k="phone" v="0848 888 888"/>
    <tag k="route_ref" v="210"/>
    <tag k="uic_name" v="Frutigen, Verkehrsbüro"/>
    <tag k="uic_ref" v="8507502"/>
    <tag k="url" v="http://www.postauto.ch"/>
  </node>
  <node id="406022335" version="4" timestamp="2011-06-10T08:28:42Z" uid="2680" user="xylome" changeset="8395099" lat="46.58869" lon="7.645776">
    <tag k="ele" v="804"/>
    <tag k="highway" v="bus_stop"/>
    <tag k="name" v="Verkehrsbüro"/>
    <tag k="operator" v="PostAuto Schweiz AG"/>
    <tag k="operator:de" v="PostAuto Schweiz AG"/>
    <tag k="operator:fr" v="CarPostal Suisse SA"/>
    <tag k="operator:it" v="AutoPostale Svizzera SA"/>
    <tag k="phone" v="0848 888 888"/>
    <tag k="route_ref" v="210"/>
    <tag k="uic_name" v="Frutigen, Verkehrsbüro"/>
    <tag k="uic_ref" v="8507502"/>
    <tag k="url" v="http://www.postauto.ch"/>
  </node>
  <node id="406022335" version="5" timestamp="2012-02-28T09:22:25Z" uid="74900" user="FischersFritz" changeset="10816897" lat="46.58869" lon="7.645776"/>
  <node id="406022346" version="1" timestamp="2009-05-19T15:05:02Z" uid="55964" user="Evan Sebire" changeset="1250536" lat="46.5885635" lon="7.6458252">
    <tag k="highway" v="bus_stop"/>
  </node>
  <node id="406022346" version="2" timestamp="2009-07-04T07:21:49Z" uid="55964" user="Evan Sebire" changeset="1727259" lat="46.5885741" lon="7.6457966">
    <tag k="highway" v="bus_stop"/>
  </node>
  <node id="406022346" version="3" timestamp="2010-05-16T10:54:31Z" uid="55964" user="Evan Sebire" changeset="4715520" lat="46.5885741" lon="7.6457966">
    <tag k="highway" v="bus_stop"/>
    <tag k="name" v="Verkehrsbüro"/>
    <tag k="operator" v="post"/>
    <tag k="phone" v="0848 888 888"/>
    <tag k="route_ref" v="210"/>
    <tag k="source" v="survey"/>
    <tag k="url" v="http://www.postauto.ch"/>
  </node>
  <node id="406022346" version="4" timestamp="2010-11-10T07:40:58Z" uid="368211" user="DidokImportCH" changeset="6333705" lat="46.588574" lon="7.645797">
    <tag k="ele" v="804"/>
    <tag k="highway" v="bus_stop"/>
    <tag k="name" v="Verkehrsbüro"/>
    <tag k="operator" v="post"/>
    <tag k="phone" v="0848 888 888"/>
    <tag k="route_ref" v="210"/>
    <tag k="uic_name" v="Frutigen, Verkehrsbüro"/>
    <tag k="uic_ref" v="8507502"/>
    <tag k="url" v="http://www.postauto.ch"/>
  </node>
  <node id="406022346" version="5" timestamp="2011-06-10T08:28:40Z" uid="2680" user="xylome" changeset="8395099" lat="46.588574" lon="7.645797">
    <tag k="ele" v="804"/>
    <tag k="highway" v="bus_stop"/>
    <tag k="name" v="Verkehrsbüro"/>
    <tag k="operator" v="PostAuto Schweiz AG"/>
    <tag k="operator:de" v="PostAuto Schweiz AG"/>
    <tag k="operator:fr" v="CarPostal Suisse SA"/>
    <tag k="operator:it" v="AutoPostale Svizzera SA"/>
    <tag k="phone" v="0848 888 888"/>
    <tag k="route_ref" v="210"/>
    <tag k="uic_name" v="Frutigen, Verkehrsbüro"/>
    <tag k="uic_ref" v="8507502"/>
    <tag k="url" v="http://www.postauto.ch"/>
  </node>
  <node id="406022346" version="6" timestamp="2012-02-28T09:22:25Z" uid="74900" user="FischersFritz" changeset="10816897" lat="46.588574" lon="7.645797"/>
  <node id="406022357" version="1" timestamp="2009-05-19T15:05:02Z" uid="55964" user="Evan Sebire" changeset="1250536" lat="46.5884698" lon="7.6510523">
    <tag k="amenity" v="toilets"/>
  </node>
  <node id="406022357" version="2" timestamp="2011-01-31T20:55:58Z" uid="103812" user="gartenzwerg" changeset="7149078" lat="46.5884698" lon="7.6510522">
    <tag k="amenity" v="toilets"/>
    <tag k="wheelchair" v="yes"/>
  </node>
  <node id="406022357" version="3" timestamp="2012-03-12T11:43:25Z" uid="125339" user="efred" changeset="10953787" lat="46.5884698" lon="7.6510522"/>
</osm>
