<?xml version='1.0' encoding='UTF-8'?>
<osm version="0.6" generator="libosmium/2.20.0">
  <node id="406747508" version="2" timestamp="2009-07-22T18:42:31Z" uid="20587" user="balrog-kun" changeset="1907934" lat="45.4078159" lon="11.8733629">
    <tag k="gfoss_id" v="3575"/>
    <tag k="is_in" v="Padova, Veneto, Italy"/>
    <tag k="is_in:continent" v="Europe"/>
    <tag k="name" v="Padova"/>
    <tag k="name:ar" v="بادوفا"/>
    <tag k="name:en" v="Padua"/>
    <tag k="name:es" v="Padua"/>
    <tag k="name:pl" v="Padwa"/>
    <tag k="name:ru" v="Падуя"/>
    <tag k="place" v="city"/>
    <tag k="population" v="204870"/>
    <tag k="source" v="geodati.gfoss.it"/>
    <tag k="wikipedia" v="Padua"/>
  </node>
  <node id="406747508" version="3" timestamp="2009-07-25T15:08:21Z" uid="123700" user="Mala" changeset="1935220" lat="45.4078159" lon="11.8733629">
    <tag k="gfoss_id" v="3575"/>
    <tag k="is_in" v="Padova, Veneto, Italy"/>
    <tag k="is_in:continent" v="Europe"/>
    <tag k="name" v="Padova"/>
    <tag k="name:ar" v="بادوفا"/>
    <tag k="name:en" v="Padua"/>
    <tag k="name:es" v="Padua"/>
    <tag k="name:fi" v="Padova"/>
    <tag k="name:fr" v="Padoue"/>
    <tag k="name:pl" v="Padwa"/>
    <tag k="name:pt" v="Pádua"/>
    <tag k="name:ru" v="Падуя"/>
    <tag k="place" v="city"/>
    <tag k="population" v="204870"/>
    <tag k="source" v="geodati.gfoss.it"/>
    <tag k="wikipedia" v="Padua"/>
  </node>
  <node id="406747508" version="4" timestamp="2009-08-29T14:46:15Z" uid="90188" user="hypersciocco" changeset="2302451" lat="45.407059" lon="11.8767269">
    <tag k="gfoss_id" v="3575"/>
    <tag k="is_in" v="Padova, Veneto, Italy"/>
    <tag k="is_in:continent" v="Europe"/>
    <tag k="name" v="Padova"/>
    <tag k="name:ar" v="بادوفا"/>
    <tag k="name:en" v="Padua"/>
    <tag k="name:es" v="Padua"/>
    <tag k="name:fi" v="Padova"/>
    <tag k="name:fr" v="Padoue"/>
    <tag k="name:pl" v="Padwa"/>
    <tag k="name:pt" v="Pádua"/>
    <tag k="name:ru" v="Падуя"/>
    <tag k="place" v="city"/>
    <tag k="population" v="204870"/>
    <tag k="source" v="geodati.gfoss.it"/>
    <tag k="wikipedia" v="Padua"/>
  </node>
  <node id="406747508" version="5" timestamp="2009-11-17T16:45:22Z" uid="29717" user="eumiro" changeset="3142565" lat="45.407059" lon="11.8767269">
    <tag k="gfoss_id" v="3575"/>
    <tag k="is_in" v="Padova, Veneto, Italy"/>
    <tag k="is_in:continent" v="Europe"/>
    <tag k="name" v="Padova"/>
    <tag k="name:ar" v="بادوفا"/>
    <tag k="name:en" v="Padua"/>
    <tag k="name:es" v="Padua"/>
    <tag k="name:fi" v="Padova"/>
    <tag k="name:fr" v="Padoue"/>
    <tag k="name:pl" v="Padwa"/>
    <tag k="name:pt" v="Pádua"/>
    <tag k="name:ru" v="Падуя"/>
    <tag k="name:sk" v="Padova"/>
    <tag k="place" v="city"/>
    <tag k="population" v="204870"/>
    <tag k="source" v="geodati.gfoss.it"/>
    <tag k="wikipedia" v="Padua"/>
  </node>
  <node id="406747508" version="6" timestamp="2010-10-23T17:28:24Z" uid="16922" user="amai" changeset="6148920" lat="45.407059" lon="11.8767269">
    <tag k="gfoss_id" v="3575"/>
    <tag k="is_in" v="Padova, Veneto, Italy"/>
    <tag k="is_in:continent" v="Europe"/>
    <tag k="name" v="Padova"/>
    <tag k="name:ar" v="بادوفا"/>
    <tag k="name:de" v="Padua"/>
    <tag k="name:en" v="Padua"/>
    <tag k="name:es" v="Padua"/>
    <tag k="name:fi" v="Padova"/>
    <tag k="name:fr" v="Padoue"/>
    <tag k="name:pl" v="Padwa"/>
    <tag k="name:pt" v="Pádua"/>
    <tag k="name:ru" v="Падуя"/>
    <tag k="name:sk" v="Padova"/>
    <tag k="place" v="city"/>
    <tag k="population" v="204870"/>
    <tag k="source" v="geodati.gfoss.it"/>
    <tag k="wikipedia" v="Padua"/>
  </node>
  <node id="406747508" version="7" timestamp="2011-01-24T11:55:58Z" uid="393666" user="etrumap" changeset="7072196" lat="45.407059" lon="11.8767269">
    <tag k="capital" v="6"/>
    <tag k="gfoss_id" v="3575"/>
    <tag k="is_in" v="Padova, Veneto, Italy"/>
    <tag k="is_in:continent" v="Europe"/>
    <tag k="name" v="Padova"/>
    <tag k="name:ar" v="بادوفا"/>
    <tag k="name:de" v="Padua"/>
    <tag k="name:en" v="Padua"/>
    <tag k="name:es" v="Padua"/>
    <tag k="name:fi" v="Padova"/>
    <tag k="name:fr" v="Padoue"/>
    <tag k="name:pl" v="Padwa"/>
    <tag k="name:pt" v="Pádua"/>
    <tag k="name:ru" v="Падуя"/>
    <tag k="name:sk" v="Padova"/>
    <tag k="place" v="city"/>
    <tag k="population" v="204870"/>
    <tag k="source" v="geodati.gfoss.it"/>
    <tag k="wikipedia" v="Padua"/>
  </node>
  <node id="406747508" version="8" timestamp="2011-09-02T17:25:44Z" uid="504502" user="peppe10" changeset="9194766" lat="45.4106865" lon="11.8822877">
    <tag k="capital" v="6"/>
    <tag k="gfoss_id" v="3575"/>
    <tag k="is_in" v="Padova, Veneto, Italy"/>
    <tag k="is_in:continent" v="Europe"/>
    <tag k="name" v="Padova"/>
    <tag k="name:ar" v="بادوفا"/>
    <tag k="name:de" v="Padua"/>
    <tag k="name:en" v="Padua"/>
    <tag k="name:es" v="Padua"/>
    <tag k="name:fi" v="Padova"/>
    <tag k="name:fr" v="Padoue"/>
    <tag k="name:pl" v="Padwa"/>
    <tag k="name:pt" v="Pádua"/>
    <tag k="name:ru" v="Падуя"/>
    <tag k="name:sk" v="Padova"/>
    <tag k="place" v="city"/>
    <tag k="population" v="204870"/>
    <tag k="source" v="geodati.gfoss.it"/>
    <tag k="wikipedia" v="Padua"/>
  </node>
  <node id="406747508" version="9" timestamp="2011-09-02T17:26:12Z" uid="504502" user="peppe10" changeset="9194766" lat="45.4098919" lon="11.8829915">
    <tag k="capital" v="6"/>
    <tag k="gfoss_id" v="3575"/>
    <tag k="is_in" v="Padova, Veneto, Italy"/>
    <tag k="is_in:continent" v="Europe"/>
    <tag k="name" v="Padova"/>
    <tag k="name:ar" v="بادوفا"/>
    <tag k="name:de" v="Padua"/>
    <tag k="name:en" v="Padua"/>
    <tag k="name:es" v="Padua"/>
    <tag k="name:fi" v="Padova"/>
    <tag k="name:fr" v="Padoue"/>
    <tag k="name:pl" v="Padwa"/>
    <tag k="name:pt" v="Pádua"/>
    <tag k="name:ru" v="Падуя"/>
    <tag k="name:sk" v="Padova"/>
    <tag k="place" v="city"/>
    <tag k="population" v="204870"/>
    <tag k="source" v="geodati.gfoss.it"/>
    <tag k="wikipedia" v="Padua"/>
  </node>
</osm>
