<?xml version='1.0' encoding='UTF-8'?>
<osm version="0.6" generator="libosmium/2.20.0">
  <node id="409227791" version="3" timestamp="2009-10-18T00:03:57Z" uid="36809" user="pfoten_weg_!_" changeset="2879001" lat="47.7245896" lon="11.4310702">
    <tag k="operator" v="DB Energie"/>
    <tag k="power" v="tower"/>
    <tag k="ref" v="2063"/>
  </node>
  <node id="409227791" version="4" timestamp="2009-11-02T20:53:35Z" uid="72235" user="Basstoelpel" changeset="3019868" lat="47.7245831" lon="11.4310754">
    <tag k="operator" v="DB Energie"/>
    <tag k="power" v="tower"/>
    <tag k="ref" v="2063"/>
  </node>
  <node id="409227791" version="5" timestamp="2010-07-10T13:34:09Z" uid="92274" user="adjuva" changeset="5182573" lat="47.7245831" lon="11.4310754">
    <tag k="operator" v="DB_Energie"/>
    <tag k="power" v="tower"/>
    <tag k="ref" v="2063"/>
  </node>
  <node id="409227791" version="6" timestamp="2011-08-12T12:02:36Z" uid="384060" user="aliponte" changeset="8995330" lat="47.7245831" lon="11.4310754">
    <tag k="power" v="tower"/>
    <tag k="ref" v="2063"/>
  </node>
  <node id="409227820" version="3" timestamp="2009-10-18T00:03:51Z" uid="36809" user="pfoten_weg_!_" changeset="2879001" lat="47.7127234" lon="11.4271033">
    <tag k="operator" v="E.ON Netz"/>
    <tag k="power" v="tower"/>
    <tag k="ref" v="52"/>
  </node>
  <node id="409227820" version="4" timestamp="2011-08-12T11:54:32Z" uid="384060" user="aliponte" changeset="8995261" lat="47.7127234" lon="11.4271033">
    <tag k="power" v="tower"/>
    <tag k="ref" v="52"/>
  </node>
</osm>
