<?xml version='1.0' encoding='UTF-8'?>
<osm version="0.6" generator="libosmium/2.20.0">
  <node id="411821670" version="2" timestamp="2009-06-08T07:31:41Z" uid="27600" user="Islanit" changeset="1455989" lat="54.5130276" lon="13.1652149">
    <tag k="addr:city" v="Schaprode"/>
    <tag k="addr:country" v="DE"/>
    <tag k="addr:postcode" v="18569"/>
    <tag k="addr:street" v="Hafen"/>
    <tag k="amenity" v="post_box"/>
    <tag k="collection_times" v="Mo-Fr 14:30; Sa 10:45"/>
    <tag k="operator" v="Deutsche Post"/>
  </node>
  <node id="411821670" version="3" timestamp="2009-10-26T01:41:55Z" uid="60345" user="Mirko KÃ¼ster" changeset="2952910" lat="54.5130276" lon="13.1652149">
    <tag k="addr:city" v="Schaprode"/>
    <tag k="addr:country" v="DE"/>
    <tag k="addr:postcode" v="18569"/>
    <tag k="addr:street" v="Hafen"/>
    <tag k="amenity" v="post_box"/>
    <tag k="collection_times" v="Mo-Fr 14:30; Sa 10:45"/>
    <tag k="operator" v="Deutsche Post AG"/>
  </node>
  <node id="411821670" version="4" timestamp="2010-05-04T17:10:27Z" uid="70400" user="Schwedenhagen" changeset="4605940" lat="54.5130019" lon="13.1652305">
    <tag k="addr:city" v="Schaprode"/>
    <tag k="addr:country" v="DE"/>
    <tag k="addr:postcode" v="18569"/>
    <tag k="addr:street" v="Hafen"/>
    <tag k="amenity" v="post_box"/>
    <tag k="collection_times" v="Mo-Fr 14:30; Sa 10:45"/>
    <tag k="operator" v="Deutsche Post AG"/>
  </node>
  <node id="411827315" version="2" timestamp="2009-08-13T14:54:30Z" uid="4667" user="MapZ" changeset="2132574" lat="47.6512872" lon="10.5790607"/>
</osm>
