<?xml version='1.0' encoding='UTF-8'?>
<osm version="0.6" generator="libosmium/2.20.0">
  <node id="412120833" version="2" timestamp="2009-09-26T18:00:34Z" uid="9581" user="Lobelt" changeset="2644385" lat="50.6886842" lon="12.0271242"/>
  <node id="412120833" version="3" timestamp="2012-03-29T18:18:07Z" uid="192395" user="BBO" changeset="11141851" lat="50.6886842" lon="12.0271242"/>
  <node id="412122037" version="2" timestamp="2010-06-22T19:09:33Z" uid="33382" user="de_muur" changeset="5053782" lat="52.9235098" lon="9.2283047">
    <tag k="addr:city" v="Verden"/>
    <tag k="addr:country" v="DE"/>
    <tag k="addr:housenumber" v="5"/>
    <tag k="addr:postcode" v="27283"/>
    <tag k="addr:street" v="Große Straße"/>
    <tag k="amenity" v="pharmacy"/>
    <tag k="dispensing" v="yes"/>
    <tag k="name" v="Apotheke am Rathaus"/>
    <tag k="phone" v="04231920516"/>
  </node>
  <node id="412122037" version="3" timestamp="2011-11-13T17:16:39Z" uid="290680" user="wheelmap_visitor" changeset="9811368" lat="52.9235098" lon="9.2283047">
    <tag k="addr:city" v="Verden"/>
    <tag k="addr:country" v="DE"/>
    <tag k="addr:housenumber" v="5"/>
    <tag k="addr:postcode" v="27283"/>
    <tag k="addr:street" v="Große Straße"/>
    <tag k="amenity" v="pharmacy"/>
    <tag k="dispensing" v="yes"/>
    <tag k="name" v="Apotheke am Rathaus"/>
    <tag k="phone" v="04231920516"/>
    <tag k="wheelchair" v="yes"/>
  </node>
  <node id="412123150" version="2" timestamp="2010-01-29T20:19:11Z" uid="151899" user="Bikeman2000" changeset="3746067" lat="51.2849134" lon="6.7279894"/>
  <node id="412123169" version="2" timestamp="2010-01-29T20:19:10Z" uid="151899" user="Bikeman2000" changeset="3746067" lat="51.284986" lon="6.7269643"/>
  <node id="412123169" version="3" timestamp="2011-01-01T10:26:52Z" uid="60744" user="motlib" changeset="6826387" lat="51.2849399" lon="6.7269473"/>
  <node id="412123169" version="4" timestamp="2011-12-26T04:44:49Z" uid="173844" user="Antikalk" changeset="10204522" lat="51.2849399" lon="6.7269473"/>
  <node id="412124221" version="2" timestamp="2010-03-07T18:54:46Z" uid="9581" user="Lobelt" changeset="4064880" lat="49.6130395" lon="8.6076518"/>
  <node id="412124221" version="3" timestamp="2012-02-25T16:22:21Z" uid="55687" user="dschuwa" changeset="10789271" lat="49.6130395" lon="8.6076518"/>
  <node id="412124222" version="2" timestamp="2010-03-07T18:54:46Z" uid="9581" user="Lobelt" changeset="4064880" lat="49.6097611" lon="8.6128272"/>
  <node id="412124222" version="3" timestamp="2012-02-25T16:22:22Z" uid="55687" user="dschuwa" changeset="10789271" lat="49.6097611" lon="8.6128272"/>
  <node id="412124458" version="1" timestamp="2009-05-28T11:09:51Z" uid="20587" user="balrog-kun" changeset="1341741" lat="52.2273608" lon="20.9065487">
    <tag k="addr:city" v="Warszawa@Warszawa Bemowo"/>
    <tag k="addr:housenumber" v="99"/>
    <tag k="addr:street" v="Drzeworytników"/>
    <tag k="source" v="http://ump.waw.pl/ retrieved 11:07:14 02/24/09 (UMP-Warszawa/src/WARSZAWA_BEMOWO.ulice.txt)"/>
  </node>
  <node id="412124461" version="1" timestamp="2009-05-28T11:09:51Z" uid="20587" user="balrog-kun" changeset="1341741" lat="52.2249188" lon="20.907099">
    <tag k="addr:city" v="Warszawa@Warszawa Bemowo"/>
    <tag k="addr:housenumber" v="33"/>
    <tag k="addr:street" v="Cokołowa"/>
    <tag k="source" v="http://ump.waw.pl/ retrieved 11:07:14 02/24/09 (UMP-Warszawa/src/WARSZAWA_BEMOWO.ulice.txt)"/>
  </node>
  <node id="412124463" version="1" timestamp="2009-05-28T11:09:52Z" uid="20587" user="balrog-kun" changeset="1341741" lat="52.2212883" lon="20.9011471">
    <tag k="addr:city" v="Warszawa@Warszawa Bemowo"/>
    <tag k="addr:housenumber" v="2"/>
    <tag k="addr:street" v="Rozłogi"/>
    <tag k="source" v="http://ump.waw.pl/ retrieved 11:07:14 02/24/09 (UMP-Warszawa/src/WARSZAWA_BEMOWO.ulice.txt)"/>
  </node>
  <node id="412124463" version="2" timestamp="2009-05-31T14:33:26Z" uid="20587" user="balrog-kun" changeset="1369651" lat="52.2218378" lon="20.9005811">
    <tag k="addr:city" v="Warszawa@Warszawa Bemowo"/>
    <tag k="addr:housenumber" v="2"/>
    <tag k="addr:street" v="Rozłogi"/>
    <tag k="source" v="http://ump.waw.pl/ retrieved 11:07:14 02/24/09 (UMP-Warszawa/src/WARSZAWA_BEMOWO.ulice.txt)"/>
  </node>
  <node id="412124466" version="1" timestamp="2009-05-28T11:09:52Z" uid="20587" user="balrog-kun" changeset="1341741" lat="52.2252086" lon="20.904846">
    <tag k="addr:city" v="Warszawa@Warszawa Bemowo"/>
    <tag k="addr:housenumber" v="41"/>
    <tag k="addr:street" v="Cokołowa"/>
    <tag k="source" v="http://ump.waw.pl/ retrieved 11:07:14 02/24/09 (UMP-Warszawa/src/WARSZAWA_BEMOWO.ulice.txt)"/>
  </node>
  <node id="412124468" version="1" timestamp="2009-05-28T11:09:52Z" uid="20587" user="balrog-kun" changeset="1341741" lat="52.2211375" lon="20.9021454">
    <tag k="addr:city" v="Warszawa@Warszawa Bemowo"/>
    <tag k="addr:housenumber" v="26"/>
    <tag k="addr:street" v="Okrętowa"/>
    <tag k="source" v="http://ump.waw.pl/ retrieved 11:07:14 02/24/09 (UMP-Warszawa/src/WARSZAWA_BEMOWO.ulice.txt)"/>
  </node>
  <node id="412124472" version="1" timestamp="2009-05-28T11:09:52Z" uid="20587" user="balrog-kun" changeset="1341741" lat="52.2388674" lon="20.8990547">
    <tag k="addr:city" v="Warszawa@Warszawa Bemowo"/>
    <tag k="addr:housenumber" v="249"/>
    <tag k="addr:street" v="Górczewska"/>
    <tag k="source" v="http://ump.waw.pl/ retrieved 11:07:14 02/24/09 (UMP-Warszawa/src/WARSZAWA_BEMOWO.ulice.txt)"/>
  </node>
  <node id="412124472" version="2" timestamp="2010-01-11T21:12:23Z" uid="20587" user="balrog-kun" changeset="3599213" lat="52.2390992" lon="20.8990012">
    <tag k="addr:city" v="Warszawa@Warszawa Bemowo"/>
    <tag k="addr:housenumber" v="249"/>
    <tag k="addr:street" v="Górczewska"/>
    <tag k="source" v="http://ump.waw.pl/ retrieved 11:07:14 02/24/09 (UMP-Warszawa/src/WARSZAWA_BEMOWO.ulice.txt)"/>
  </node>
  <node id="412124475" version="1" timestamp="2009-05-28T11:09:52Z" uid="20587" user="balrog-kun" changeset="1341741" lat="52.2228254" lon="20.9292892">
    <tag k="addr:city" v="Warszawa@Warszawa Wola"/>
    <tag k="addr:housenumber" v="225"/>
    <tag k="addr:street" v="Wolska"/>
    <tag k="source" v="http://ump.waw.pl/ retrieved 11:07:14 02/24/09 (UMP-Warszawa/src/WARSZAWA_WOLA.ulice.txt)"/>
  </node>
  <node id="412124478" version="1" timestamp="2009-05-28T11:09:52Z" uid="20587" user="balrog-kun" changeset="1341741" lat="52.224959" lon="20.9062122">
    <tag k="addr:city" v="Warszawa@Warszawa Bemowo"/>
    <tag k="addr:housenumber" v="37"/>
    <tag k="addr:street" v="Cokołowa"/>
    <tag k="source" v="http://ump.waw.pl/ retrieved 11:07:14 02/24/09 (UMP-Warszawa/src/WARSZAWA_BEMOWO.ulice.txt)"/>
  </node>
  <node id="412124481" version="1" timestamp="2009-05-28T11:09:52Z" uid="20587" user="balrog-kun" changeset="1341741" lat="52.2259047" lon="20.9107763">
    <tag k="addr:city" v="Warszawa@Warszawa Bemowo"/>
    <tag k="addr:housenumber" v="2"/>
    <tag k="addr:street" v="Cokołowa"/>
    <tag k="source" v="http://ump.waw.pl/ retrieved 11:07:14 02/24/09 (UMP-Warszawa/src/WARSZAWA_BEMOWO.ulice.txt)"/>
  </node>
  <node id="412124485" version="1" timestamp="2009-05-28T11:09:52Z" uid="20587" user="balrog-kun" changeset="1341741" lat="52.2267163" lon="20.908988">
    <tag k="addr:city" v="Warszawa@Warszawa Bemowo"/>
    <tag k="addr:housenumber" v="3"/>
    <tag k="addr:street" v="Puszczy Solskiej"/>
    <tag k="source" v="http://ump.waw.pl/ retrieved 11:07:14 02/24/09 (UMP-Warszawa/src/WARSZAWA_BEMOWO.ulice.txt)"/>
  </node>
  <node id="412124488" version="1" timestamp="2009-05-28T11:09:52Z" uid="20587" user="balrog-kun" changeset="1341741" lat="52.2399904" lon="20.8960548">
    <tag k="addr:city" v="Warszawa@Warszawa Bemowo"/>
    <tag k="addr:housenumber" v="230"/>
    <tag k="addr:street" v="Górczewska"/>
    <tag k="source" v="http://ump.waw.pl/ retrieved 11:07:14 02/24/09 (UMP-Warszawa/src/WARSZAWA_BEMOWO.ulice.txt)"/>
  </node>
  <node id="412124488" version="2" timestamp="2011-03-08T19:17:32Z" uid="419198" user="szaq" changeset="7497255" lat="52.2400284" lon="20.8955456">
    <tag k="addr:city" v="Warszawa@Warszawa Bemowo"/>
    <tag k="addr:housenumber" v="230"/>
    <tag k="addr:street" v="Górczewska"/>
    <tag k="source" v="http://ump.waw.pl/ retrieved 11:07:14 02/24/09 (UMP-Warszawa/src/WARSZAWA_BEMOWO.ulice.txt)"/>
  </node>
  <node id="412124492" version="1" timestamp="2009-05-28T11:09:52Z" uid="20587" user="balrog-kun" changeset="1341741" lat="52.228635" lon="20.9068755">
    <tag k="addr:city" v="Warszawa@Warszawa Bemowo"/>
    <tag k="addr:housenumber" v="88"/>
    <tag k="addr:street" v="Człuchowska"/>
    <tag k="source" v="http://ump.waw.pl/ retrieved 11:07:14 02/24/09 (UMP-Warszawa/src/WARSZAWA_BEMOWO.ulice.txt)"/>
  </node>
  <node id="412124493" version="1" timestamp="2009-05-28T11:09:52Z" uid="20587" user="balrog-kun" changeset="1341741" lat="52.2232268" lon="20.9307744">
    <tag k="addr:city" v="Warszawa@Warszawa Wola"/>
    <tag k="addr:housenumber" v="195"/>
    <tag k="addr:street" v="Wolska"/>
    <tag k="source" v="http://ump.waw.pl/ retrieved 11:07:14 02/24/09 (UMP-Warszawa/src/WARSZAWA_WOLA.ulice.txt)"/>
  </node>
  <node id="412124494" version="1" timestamp="2009-05-28T11:09:53Z" uid="20587" user="balrog-kun" changeset="1341741" lat="52.2397359" lon="20.9320176">
    <tag k="addr:city" v="Warszawa@Warszawa Wola"/>
    <tag k="addr:housenumber" v="171"/>
    <tag k="addr:street" v="Górczewska"/>
    <tag k="source" v="http://ump.waw.pl/ retrieved 11:07:14 02/24/09 (UMP-Warszawa/src/WARSZAWA_WOLA.ulice.txt)"/>
  </node>
  <node id="412124498" version="1" timestamp="2009-05-28T11:09:53Z" uid="20587" user="balrog-kun" changeset="1341741" lat="52.2393306" lon="20.8940257">
    <tag k="addr:city" v="Warszawa@Warszawa Bemowo"/>
    <tag k="addr:housenumber" v="259"/>
    <tag k="addr:street" v="Górczewska"/>
    <tag k="source" v="http://ump.waw.pl/ retrieved 11:07:14 02/24/09 (UMP-Warszawa/src/WARSZAWA_BEMOWO.ulice.txt)"/>
  </node>
  <node id="412124498" version="2" timestamp="2009-12-01T19:08:16Z" uid="203836" user="pcserwis" changeset="3266545" lat="52.2393306" lon="20.8940257">
    <tag k="addr:city" v="Warszawa@Warszawa Bemowo"/>
    <tag k="addr:housenumber" v="259"/>
    <tag k="addr:street" v="Górczewska"/>
    <tag k="source" v="http://ump.waw.pl/ retrieved 11:07:14 02/24/09 (UMP-Warszawa/src/WARSZAWA_BEMOWO.ulice.txt)"/>
  </node>
  <node id="412124500" version="1" timestamp="2009-05-28T11:09:53Z" uid="20587" user="balrog-kun" changeset="1341741" lat="52.239586" lon="20.9123734">
    <tag k="addr:city" v="Warszawa@Warszawa Bemowo"/>
    <tag k="addr:housenumber" v="194"/>
    <tag k="addr:street" v="Górczewska"/>
    <tag k="source" v="http://ump.waw.pl/ retrieved 11:07:14 02/24/09 (UMP-Warszawa/src/WARSZAWA_BEMOWO.ulice.txt)"/>
  </node>
  <node id="412124503" version="1" timestamp="2009-05-28T11:09:53Z" uid="20587" user="balrog-kun" changeset="1341741" lat="52.2238143" lon="20.9327711">
    <tag k="addr:city" v="Warszawa@Warszawa Wola"/>
    <tag k="addr:housenumber" v="191"/>
    <tag k="addr:street" v="Wolska"/>
    <tag k="source" v="http://ump.waw.pl/ retrieved 11:07:14 02/24/09 (UMP-Warszawa/src/WARSZAWA_WOLA.ulice.txt)"/>
  </node>
  <node id="412124506" version="1" timestamp="2009-05-28T11:09:53Z" uid="20587" user="balrog-kun" changeset="1341741" lat="52.2236234" lon="20.9003918">
    <tag k="addr:city" v="Warszawa@Warszawa Bemowo"/>
    <tag k="addr:housenumber" v="7"/>
    <tag k="addr:street" v="Rozłogi"/>
    <tag k="source" v="http://ump.waw.pl/ retrieved 11:07:14 02/24/09 (UMP-Warszawa/src/WARSZAWA_BEMOWO.ulice.txt)"/>
  </node>
  <node id="412124506" version="2" timestamp="2009-05-31T14:33:26Z" uid="20587" user="balrog-kun" changeset="1369651" lat="52.2233321" lon="20.8994182">
    <tag k="addr:city" v="Warszawa@Warszawa Bemowo"/>
    <tag k="addr:housenumber" v="7"/>
    <tag k="addr:street" v="Rozłogi"/>
    <tag k="source" v="http://ump.waw.pl/ retrieved 11:07:14 02/24/09 (UMP-Warszawa/src/WARSZAWA_BEMOWO.ulice.txt)"/>
  </node>
  <node id="412124508" version="1" timestamp="2009-05-28T11:09:53Z" uid="20587" user="balrog-kun" changeset="1341741" lat="52.2385309" lon="20.9067419">
    <tag k="addr:city" v="Warszawa@Warszawa Bemowo"/>
    <tag k="addr:housenumber" v="225"/>
    <tag k="addr:street" v="Górczewska"/>
    <tag k="source" v="http://ump.waw.pl/ retrieved 11:07:14 02/24/09 (UMP-Warszawa/src/WARSZAWA_BEMOWO.ulice.txt)"/>
  </node>
  <node id="412124508" version="2" timestamp="2009-12-01T19:08:15Z" uid="203836" user="pcserwis" changeset="3266545" lat="52.2385309" lon="20.9067419">
    <tag k="addr:city" v="Warszawa@Warszawa Bemowo"/>
    <tag k="addr:housenumber" v="225"/>
    <tag k="addr:street" v="Górczewska"/>
    <tag k="source" v="http://ump.waw.pl/ retrieved 11:07:14 02/24/09 (UMP-Warszawa/src/WARSZAWA_BEMOWO.ulice.txt)"/>
  </node>
  <node id="412124510" version="1" timestamp="2009-05-28T11:09:53Z" uid="20587" user="balrog-kun" changeset="1341741" lat="52.2212535" lon="20.9003918">
    <tag k="addr:city" v="Warszawa@Warszawa Bemowo"/>
    <tag k="addr:housenumber" v="3"/>
    <tag k="addr:street" v="Rozłogi"/>
    <tag k="source" v="http://ump.waw.pl/ retrieved 11:07:14 02/24/09 (UMP-Warszawa/src/WARSZAWA_BEMOWO.ulice.txt)"/>
  </node>
  <node id="412124510" version="2" timestamp="2009-05-31T14:33:26Z" uid="20587" user="balrog-kun" changeset="1369651" lat="52.2217049" lon="20.8994327">
    <tag k="addr:city" v="Warszawa@Warszawa Bemowo"/>
    <tag k="addr:housenumber" v="3"/>
    <tag k="addr:street" v="Rozłogi"/>
    <tag k="source" v="http://ump.waw.pl/ retrieved 11:07:14 02/24/09 (UMP-Warszawa/src/WARSZAWA_BEMOWO.ulice.txt)"/>
  </node>
  <node id="412124512" version="1" timestamp="2009-05-28T11:09:53Z" uid="20587" user="balrog-kun" changeset="1341741" lat="52.2237125" lon="20.9042244">
    <tag k="addr:city" v="Warszawa@Warszawa Bemowo"/>
    <tag k="addr:housenumber" v="63"/>
    <tag k="addr:street" v="Okrętowa"/>
    <tag k="source" v="http://ump.waw.pl/ retrieved 11:07:14 02/24/09 (UMP-Warszawa/src/WARSZAWA_BEMOWO.ulice.txt)"/>
  </node>
  <node id="412124514" version="1" timestamp="2009-05-28T11:09:53Z" uid="20587" user="balrog-kun" changeset="1341741" lat="52.2263265" lon="20.9062152">
    <tag k="addr:city" v="Warszawa@Warszawa Bemowo"/>
    <tag k="addr:housenumber" v="91"/>
    <tag k="addr:street" v="Drzeworytników"/>
    <tag k="source" v="http://ump.waw.pl/ retrieved 11:07:14 02/24/09 (UMP-Warszawa/src/WARSZAWA_BEMOWO.ulice.txt)"/>
  </node>
  <node id="412124515" version="1" timestamp="2009-05-28T11:09:53Z" uid="20587" user="balrog-kun" changeset="1341741" lat="52.2245103" lon="20.9324382">
    <tag k="addr:city" v="Warszawa@Warszawa Wola"/>
    <tag k="addr:housenumber" v="186"/>
    <tag k="addr:street" v="Wolska"/>
    <tag k="source" v="http://ump.waw.pl/ retrieved 11:07:14 02/24/09 (UMP-Warszawa/src/WARSZAWA_WOLA.ulice.txt)"/>
  </node>
  <node id="412124518" version="1" timestamp="2009-05-28T11:09:53Z" uid="20587" user="balrog-kun" changeset="1341741" lat="52.2318849" lon="20.9365392">
    <tag k="addr:city" v="Warszawa@Warszawa Wola"/>
    <tag k="addr:housenumber" v="3"/>
    <tag k="addr:street" v="Norwida"/>
    <tag k="source" v="http://ump.waw.pl/ retrieved 11:07:14 02/24/09 (UMP-Warszawa/src/WARSZAWA_WOLA.ulice.txt)"/>
  </node>
  <node id="412124518" version="2" timestamp="2011-12-02T16:27:05Z" uid="441027" user="muzzy" changeset="10017958" lat="52.2318849" lon="20.9365392">
    <tag k="addr:city" v="Warszawa@Warszawa Wola"/>
    <tag k="addr:housenumber" v="3"/>
    <tag k="addr:street" v="Cypriana Kamila Norwida"/>
    <tag k="source" v="http://ump.waw.pl/ retrieved 11:07:14 02/24/09 (UMP-Warszawa/src/WARSZAWA_WOLA.ulice.txt)"/>
  </node>
  <node id="412124531" version="1" timestamp="2009-05-28T11:09:54Z" uid="20587" user="balrog-kun" changeset="1341741" lat="52.2396176" lon="20.9350359">
    <tag k="addr:city" v="Warszawa@Warszawa Wola"/>
    <tag k="addr:housenumber" v="159"/>
    <tag k="addr:street" v="Górczewska"/>
    <tag k="source" v="http://ump.waw.pl/ retrieved 11:07:14 02/24/09 (UMP-Warszawa/src/WARSZAWA_WOLA.ulice.txt)"/>
  </node>
  <node id="412124534" version="1" timestamp="2009-05-28T11:09:54Z" uid="20587" user="balrog-kun" changeset="1341741" lat="52.2270454" lon="20.9040884">
    <tag k="addr:city" v="Warszawa@Warszawa Bemowo"/>
    <tag k="addr:housenumber" v="11"/>
    <tag k="addr:street" v="Siemiatycka"/>
    <tag k="source" v="http://ump.waw.pl/ retrieved 11:07:14 02/24/09 (UMP-Warszawa/src/WARSZAWA_BEMOWO.ulice.txt)"/>
  </node>
  <node id="412124534" version="2" timestamp="2009-05-31T14:33:26Z" uid="20587" user="balrog-kun" changeset="1369651" lat="52.2270247" lon="20.9037889">
    <tag k="addr:city" v="Warszawa@Warszawa Bemowo"/>
    <tag k="addr:housenumber" v="11"/>
    <tag k="addr:street" v="Siemiatycka"/>
    <tag k="source" v="http://ump.waw.pl/ retrieved 11:07:14 02/24/09 (UMP-Warszawa/src/WARSZAWA_BEMOWO.ulice.txt)"/>
  </node>
  <node id="412124536" version="1" timestamp="2009-05-28T11:09:54Z" uid="20587" user="balrog-kun" changeset="1341741" lat="52.2269241" lon="20.908321">
    <tag k="addr:city" v="Warszawa@Warszawa Bemowo"/>
    <tag k="addr:housenumber" v="7"/>
    <tag k="addr:street" v="Puszczy Solskiej"/>
    <tag k="source" v="http://ump.waw.pl/ retrieved 11:07:14 02/24/09 (UMP-Warszawa/src/WARSZAWA_BEMOWO.ulice.txt)"/>
  </node>
  <node id="412124538" version="1" timestamp="2009-05-28T11:09:54Z" uid="20587" user="balrog-kun" changeset="1341741" lat="52.227869" lon="20.9050389">
    <tag k="addr:city" v="Warszawa@Warszawa Bemowo"/>
    <tag k="addr:housenumber" v="33"/>
    <tag k="addr:street" v="Człuchowska"/>
    <tag k="source" v="http://ump.waw.pl/ retrieved 11:07:14 02/24/09 (UMP-Warszawa/src/WARSZAWA_BEMOWO.ulice.txt)"/>
  </node>
  <node id="412124540" version="1" timestamp="2009-05-28T11:09:54Z" uid="20587" user="balrog-kun" changeset="1341741" lat="52.2322509" lon="20.9365131">
    <tag k="addr:city" v="Warszawa@Warszawa Wola"/>
    <tag k="addr:housenumber" v="9"/>
    <tag k="addr:street" v="Norwida"/>
    <tag k="source" v="http://ump.waw.pl/ retrieved 11:07:14 02/24/09 (UMP-Warszawa/src/WARSZAWA_WOLA.ulice.txt)"/>
  </node>
  <node id="412124540" version="2" timestamp="2011-12-02T16:27:09Z" uid="441027" user="muzzy" changeset="10017958" lat="52.2322509" lon="20.9365131">
    <tag k="addr:city" v="Warszawa@Warszawa Wola"/>
    <tag k="addr:housenumber" v="9"/>
    <tag k="addr:street" v="Cypriana Kamila Norwida"/>
    <tag k="source" v="http://ump.waw.pl/ retrieved 11:07:14 02/24/09 (UMP-Warszawa/src/WARSZAWA_WOLA.ulice.txt)"/>
  </node>
  <node id="412124542" version="1" timestamp="2009-05-28T11:09:54Z" uid="20587" user="balrog-kun" changeset="1341741" lat="52.2385473" lon="20.9101135">
    <tag k="addr:city" v="Warszawa@Warszawa Bemowo"/>
    <tag k="addr:housenumber" v="223"/>
    <tag k="addr:street" v="Górczewska"/>
    <tag k="source" v="http://ump.waw.pl/ retrieved 11:07:14 02/24/09 (UMP-Warszawa/src/WARSZAWA_BEMOWO.ulice.txt)"/>
  </node>
  <node id="412124544" version="1" timestamp="2009-05-28T11:09:54Z" uid="20587" user="balrog-kun" changeset="1341741" lat="52.2418586" lon="20.9241691">
    <tag k="addr:city" v="Warszawa@Warszawa Bemowo"/>
    <tag k="addr:housenumber" v="134"/>
    <tag k="addr:street" v="Górczewska"/>
    <tag k="source" v="http://ump.waw.pl/ retrieved 11:07:14 02/24/09 (UMP-Warszawa/src/WARSZAWA_BEMOWO.ulice.txt)"/>
  </node>
  <node id="412124544" version="2" timestamp="2011-06-13T19:41:19Z" uid="98542" user="wajak" changeset="8430715" lat="52.2418586" lon="20.9241691"/>
  <node id="412124546" version="1" timestamp="2009-05-28T11:09:54Z" uid="20587" user="balrog-kun" changeset="1341741" lat="52.227073" lon="20.9072591">
    <tag k="addr:city" v="Warszawa@Warszawa Bemowo"/>
    <tag k="addr:housenumber" v="17"/>
    <tag k="addr:street" v="Reżyserska"/>
    <tag k="source" v="http://ump.waw.pl/ retrieved 11:07:14 02/24/09 (UMP-Warszawa/src/WARSZAWA_BEMOWO.ulice.txt)"/>
  </node>
  <node id="412124547" version="1" timestamp="2009-05-28T11:09:54Z" uid="20587" user="balrog-kun" changeset="1341741" lat="52.2268155" lon="20.9410286">
    <tag k="addr:city" v="Warszawa@Warszawa Wola"/>
    <tag k="addr:housenumber" v="142"/>
    <tag k="addr:street" v="Wolska"/>
    <tag k="source" v="http://ump.waw.pl/ retrieved 11:07:14 02/24/09 (UMP-Warszawa/src/WARSZAWA_WOLA.ulice.txt)"/>
  </node>
  <node id="412124549" version="1" timestamp="2009-05-28T11:09:54Z" uid="20587" user="balrog-kun" changeset="1341741" lat="52.2405934" lon="20.8980284">
    <tag k="addr:city" v="Warszawa@Warszawa Bemowo"/>
    <tag k="addr:housenumber" v="228"/>
    <tag k="addr:street" v="Górczewska"/>
    <tag k="source" v="http://ump.waw.pl/ retrieved 11:07:14 02/24/09 (UMP-Warszawa/src/WARSZAWA_BEMOWO.ulice.txt)"/>
  </node>
  <node id="412124551" version="1" timestamp="2009-05-28T11:09:55Z" uid="20587" user="balrog-kun" changeset="1341741" lat="52.2394485" lon="20.9102451">
    <tag k="addr:city" v="Warszawa@Warszawa Bemowo"/>
    <tag k="addr:housenumber" v="208"/>
    <tag k="addr:street" v="Górczewska"/>
    <tag k="source" v="http://ump.waw.pl/ retrieved 11:07:14 02/24/09 (UMP-Warszawa/src/WARSZAWA_BEMOWO.ulice.txt)"/>
  </node>
  <node id="412124551" version="2" timestamp="2011-03-11T11:40:29Z" uid="420357" user="slx555" changeset="7522464" lat="52.2394485" lon="20.9102451">
    <tag k="addr:city" v="Warszawa@Warszawa Bemowo"/>
    <tag k="addr:housenumber" v="208"/>
    <tag k="addr:street" v="Górczewska"/>
    <tag k="source" v="http://ump.waw.pl/ retrieved 11:07:14 02/24/09 (UMP-Warszawa/src/WARSZAWA_BEMOWO.ulice.txt)"/>
  </node>
  <node id="412124554" version="1" timestamp="2009-05-28T11:09:55Z" uid="20587" user="balrog-kun" changeset="1341741" lat="52.2239972" lon="20.9035108">
    <tag k="addr:city" v="Warszawa@Warszawa Bemowo"/>
    <tag k="addr:housenumber" v="52"/>
    <tag k="addr:street" v="Okrętowa"/>
    <tag k="source" v="http://ump.waw.pl/ retrieved 11:07:14 02/24/09 (UMP-Warszawa/src/WARSZAWA_BEMOWO.ulice.txt)"/>
  </node>
  <node id="412124558" version="1" timestamp="2009-05-28T11:09:55Z" uid="20587" user="balrog-kun" changeset="1341741" lat="52.2274439" lon="20.9073344">
    <tag k="addr:city" v="Warszawa@Warszawa Bemowo"/>
    <tag k="addr:housenumber" v="9"/>
    <tag k="addr:street" v="Reżyserska"/>
    <tag k="source" v="http://ump.waw.pl/ retrieved 11:07:14 02/24/09 (UMP-Warszawa/src/WARSZAWA_BEMOWO.ulice.txt)"/>
  </node>
  <node id="412124560" version="1" timestamp="2009-05-28T11:09:55Z" uid="20587" user="balrog-kun" changeset="1341741" lat="52.2249472" lon="20.9080597">
    <tag k="addr:city" v="Warszawa@Warszawa Bemowo"/>
    <tag k="addr:housenumber" v="31"/>
    <tag k="addr:street" v="Cokołowa"/>
    <tag k="source" v="http://ump.waw.pl/ retrieved 11:07:14 02/24/09 (UMP-Warszawa/src/WARSZAWA_BEMOWO.ulice.txt)"/>
  </node>
  <node id="412124562" version="1" timestamp="2009-05-28T11:09:55Z" uid="20587" user="balrog-kun" changeset="1341741" lat="52.2398896" lon="20.9171452">
    <tag k="addr:city" v="Warszawa@Warszawa Bemowo"/>
    <tag k="addr:housenumber" v="176"/>
    <tag k="addr:street" v="Górczewska"/>
    <tag k="source" v="http://ump.waw.pl/ retrieved 11:07:14 02/24/09 (UMP-Warszawa/src/WARSZAWA_BEMOWO.ulice.txt)"/>
  </node>
  <node id="412124564" version="1" timestamp="2009-05-28T11:09:55Z" uid="20587" user="balrog-kun" changeset="1341741" lat="52.2322271" lon="20.9378212">
    <tag k="addr:city" v="Warszawa@Warszawa Wola"/>
    <tag k="addr:housenumber" v="4"/>
    <tag k="addr:street" v="Norwida"/>
    <tag k="source" v="http://ump.waw.pl/ retrieved 11:07:14 02/24/09 (UMP-Warszawa/src/WARSZAWA_WOLA.ulice.txt)"/>
  </node>
  <node id="412124564" version="2" timestamp="2011-12-02T16:27:07Z" uid="441027" user="muzzy" changeset="10017958" lat="52.2322271" lon="20.9378212">
    <tag k="addr:city" v="Warszawa@Warszawa Wola"/>
    <tag k="addr:housenumber" v="4"/>
    <tag k="addr:street" v="Cypriana Kamila Norwida"/>
    <tag k="source" v="http://ump.waw.pl/ retrieved 11:07:14 02/24/09 (UMP-Warszawa/src/WARSZAWA_WOLA.ulice.txt)"/>
  </node>
  <node id="412124565" version="1" timestamp="2009-05-28T11:09:55Z" uid="20587" user="balrog-kun" changeset="1341741" lat="52.2258069" lon="20.9437551">
    <tag k="addr:city" v="Warszawa@Warszawa Wola"/>
    <tag k="addr:housenumber" v="153"/>
    <tag k="addr:street" v="Wolska"/>
    <tag k="source" v="http://ump.waw.pl/ retrieved 11:07:14 02/24/09 (UMP-Warszawa/src/WARSZAWA_WOLA.ulice.txt)"/>
  </node>
  <node id="412124566" version="1" timestamp="2009-05-28T11:09:55Z" uid="20587" user="balrog-kun" changeset="1341741" lat="52.2257529" lon="20.9051589">
    <tag k="addr:city" v="Warszawa@Warszawa Bemowo"/>
    <tag k="addr:housenumber" v="83"/>
    <tag k="addr:street" v="Okrętowa"/>
    <tag k="source" v="http://ump.waw.pl/ retrieved 11:07:14 02/24/09 (UMP-Warszawa/src/WARSZAWA_BEMOWO.ulice.txt)"/>
  </node>
  <node id="412124567" version="1" timestamp="2009-05-28T11:09:55Z" uid="20587" user="balrog-kun" changeset="1341741" lat="52.2280817" lon="20.9075223">
    <tag k="addr:city" v="Warszawa@Warszawa Bemowo"/>
    <tag k="addr:housenumber" v="5"/>
    <tag k="addr:street" v="Reżyserska"/>
    <tag k="source" v="http://ump.waw.pl/ retrieved 11:07:14 02/24/09 (UMP-Warszawa/src/WARSZAWA_BEMOWO.ulice.txt)"/>
  </node>
  <node id="412124568" version="1" timestamp="2009-05-28T11:09:55Z" uid="20587" user="balrog-kun" changeset="1341741" lat="52.2405036" lon="20.9328816">
    <tag k="addr:city" v="Warszawa@Warszawa Wola"/>
    <tag k="addr:housenumber" v="124"/>
    <tag k="addr:street" v="Górczewska"/>
    <tag k="source" v="http://ump.waw.pl/ retrieved 11:07:14 02/24/09 (UMP-Warszawa/src/WARSZAWA_WOLA.ulice.txt)"/>
  </node>
  <node id="412124569" version="1" timestamp="2009-05-28T11:09:55Z" uid="20587" user="balrog-kun" changeset="1341741" lat="52.2278648" lon="20.9053987">
    <tag k="addr:city" v="Warszawa@Warszawa Bemowo"/>
    <tag k="addr:housenumber" v="84"/>
    <tag k="addr:street" v="Okrętowa"/>
    <tag k="source" v="http://ump.waw.pl/ retrieved 11:07:14 02/24/09 (UMP-Warszawa/src/WARSZAWA_BEMOWO.ulice.txt)"/>
  </node>
  <node id="412124570" version="1" timestamp="2009-05-28T11:09:55Z" uid="20587" user="balrog-kun" changeset="1341741" lat="52.2250993" lon="20.9054455">
    <tag k="addr:city" v="Warszawa@Warszawa Bemowo"/>
    <tag k="addr:housenumber" v="39"/>
    <tag k="addr:street" v="Cokołowa"/>
    <tag k="source" v="http://ump.waw.pl/ retrieved 11:07:14 02/24/09 (UMP-Warszawa/src/WARSZAWA_BEMOWO.ulice.txt)"/>
  </node>
  <node id="412124571" version="1" timestamp="2009-05-28T11:09:56Z" uid="20587" user="balrog-kun" changeset="1341741" lat="52.2249023" lon="20.9066553">
    <tag k="addr:city" v="Warszawa@Warszawa Bemowo"/>
    <tag k="addr:housenumber" v="35"/>
    <tag k="addr:street" v="Cokołowa"/>
    <tag k="source" v="http://ump.waw.pl/ retrieved 11:07:14 02/24/09 (UMP-Warszawa/src/WARSZAWA_BEMOWO.ulice.txt)"/>
  </node>
  <node id="412124572" version="1" timestamp="2009-05-28T11:09:56Z" uid="20587" user="balrog-kun" changeset="1341741" lat="52.2315636" lon="20.9369258">
    <tag k="addr:city" v="Warszawa@Warszawa Wola"/>
    <tag k="addr:housenumber" v="1"/>
    <tag k="addr:street" v="Norwida"/>
    <tag k="source" v="http://ump.waw.pl/ retrieved 11:07:14 02/24/09 (UMP-Warszawa/src/WARSZAWA_WOLA.ulice.txt)"/>
  </node>
  <node id="412124572" version="2" timestamp="2011-12-02T16:26:56Z" uid="441027" user="muzzy" changeset="10017958" lat="52.2315636" lon="20.9369258">
    <tag k="addr:city" v="Warszawa@Warszawa Wola"/>
    <tag k="addr:housenumber" v="1"/>
    <tag k="addr:street" v="Cypriana Kamila Norwida"/>
    <tag k="source" v="http://ump.waw.pl/ retrieved 11:07:14 02/24/09 (UMP-Warszawa/src/WARSZAWA_WOLA.ulice.txt)"/>
  </node>
  <node id="412124573" version="1" timestamp="2009-05-28T11:09:56Z" uid="20587" user="balrog-kun" changeset="1341741" lat="52.225912" lon="20.9068681">
    <tag k="addr:city" v="Warszawa@Warszawa Bemowo"/>
    <tag k="addr:housenumber" v="19"/>
    <tag k="addr:street" v="Reżyserska"/>
    <tag k="source" v="http://ump.waw.pl/ retrieved 11:07:14 02/24/09 (UMP-Warszawa/src/WARSZAWA_BEMOWO.ulice.txt)"/>
  </node>
  <node id="412124574" version="1" timestamp="2009-05-28T11:09:56Z" uid="20587" user="balrog-kun" changeset="1341741" lat="52.2393519" lon="20.9092801">
    <tag k="addr:city" v="Warszawa@Warszawa Bemowo"/>
    <tag k="addr:housenumber" v="212"/>
    <tag k="addr:street" v="Górczewska"/>
    <tag k="source" v="http://ump.waw.pl/ retrieved 11:07:14 02/24/09 (UMP-Warszawa/src/WARSZAWA_BEMOWO.ulice.txt)"/>
  </node>
  <node id="412124575" version="1" timestamp="2009-05-28T11:09:56Z" uid="20587" user="balrog-kun" changeset="1341741" lat="52.2392039" lon="20.8959424">
    <tag k="addr:city" v="Warszawa@Warszawa Bemowo"/>
    <tag k="addr:housenumber" v="251"/>
    <tag k="addr:street" v="Górczewska"/>
    <tag k="source" v="http://ump.waw.pl/ retrieved 11:07:14 02/24/09 (UMP-Warszawa/src/WARSZAWA_BEMOWO.ulice.txt)"/>
  </node>
  <node id="412124575" version="2" timestamp="2009-12-01T19:08:16Z" uid="203836" user="pcserwis" changeset="3266545" lat="52.2392039" lon="20.8959424">
    <tag k="addr:city" v="Warszawa@Warszawa Bemowo"/>
    <tag k="addr:housenumber" v="251"/>
    <tag k="addr:street" v="Górczewska"/>
    <tag k="source" v="http://ump.waw.pl/ retrieved 11:07:14 02/24/09 (UMP-Warszawa/src/WARSZAWA_BEMOWO.ulice.txt)"/>
  </node>
  <node id="412124576" version="1" timestamp="2009-05-28T11:09:56Z" uid="20587" user="balrog-kun" changeset="1341741" lat="52.2255259" lon="20.9418423">
    <tag k="addr:city" v="Warszawa@Warszawa Wola"/>
    <tag k="addr:housenumber" v="167"/>
    <tag k="addr:street" v="Wolska"/>
    <tag k="source" v="http://ump.waw.pl/ retrieved 11:07:14 02/24/09 (UMP-Warszawa/src/WARSZAWA_WOLA.ulice.txt)"/>
  </node>
  <node id="412124577" version="1" timestamp="2009-05-28T11:09:56Z" uid="20587" user="balrog-kun" changeset="1341741" lat="52.2270659" lon="20.9064536">
    <tag k="addr:city" v="Warszawa@Warszawa Bemowo"/>
    <tag k="addr:housenumber" v="97"/>
    <tag k="addr:street" v="Drzeworytników"/>
    <tag k="source" v="http://ump.waw.pl/ retrieved 11:07:14 02/24/09 (UMP-Warszawa/src/WARSZAWA_BEMOWO.ulice.txt)"/>
  </node>
  <node id="412124578" version="1" timestamp="2009-05-28T11:09:56Z" uid="20587" user="balrog-kun" changeset="1341741" lat="52.225799" lon="20.9095128"/>
  <node id="412124578" version="2" timestamp="2012-03-04T21:28:17Z" uid="393644" user="shympek" changeset="10874267" lat="52.225799" lon="20.9095128"/>
  <node id="412124579" version="1" timestamp="2009-05-28T11:09:56Z" uid="20587" user="balrog-kun" changeset="1341741" lat="52.2250502" lon="20.9040709">
    <tag k="addr:city" v="Warszawa@Warszawa Bemowo"/>
    <tag k="addr:housenumber" v="68"/>
    <tag k="addr:street" v="Okrętowa"/>
    <tag k="source" v="http://ump.waw.pl/ retrieved 11:07:14 02/24/09 (UMP-Warszawa/src/WARSZAWA_BEMOWO.ulice.txt)"/>
  </node>
  <node id="412124580" version="1" timestamp="2009-05-28T11:09:56Z" uid="20587" user="balrog-kun" changeset="1341741" lat="52.2394652" lon="20.9274122">
    <tag k="addr:city" v="Warszawa@Warszawa Wola"/>
    <tag k="addr:housenumber" v="181"/>
    <tag k="addr:street" v="Górczewska"/>
    <tag k="source" v="http://ump.waw.pl/ retrieved 11:07:14 02/24/09 (UMP-Warszawa/src/WARSZAWA_WOLA.ulice.txt)"/>
  </node>
  <node id="412124581" version="1" timestamp="2009-05-28T11:09:56Z" uid="20587" user="balrog-kun" changeset="1341741" lat="52.2396194" lon="20.9150341">
    <tag k="addr:city" v="Warszawa@Warszawa Bemowo"/>
    <tag k="addr:housenumber" v="184"/>
    <tag k="addr:street" v="Górczewska"/>
    <tag k="source" v="http://ump.waw.pl/ retrieved 11:07:14 02/24/09 (UMP-Warszawa/src/WARSZAWA_BEMOWO.ulice.txt)"/>
  </node>
  <node id="412124582" version="1" timestamp="2009-05-28T11:09:56Z" uid="20587" user="balrog-kun" changeset="1341741" lat="52.2267089" lon="20.9063385">
    <tag k="addr:city" v="Warszawa@Warszawa Bemowo"/>
    <tag k="addr:housenumber" v="93"/>
    <tag k="addr:street" v="Drzeworytników"/>
    <tag k="source" v="http://ump.waw.pl/ retrieved 11:07:14 02/24/09 (UMP-Warszawa/src/WARSZAWA_BEMOWO.ulice.txt)"/>
  </node>
  <node id="412124583" version="1" timestamp="2009-05-28T11:09:56Z" uid="20587" user="balrog-kun" changeset="1341741" lat="52.2396478" lon="20.9330065">
    <tag k="addr:city" v="Warszawa@Warszawa Wola"/>
    <tag k="addr:housenumber" v="167"/>
    <tag k="addr:street" v="Górczewska"/>
    <tag k="source" v="http://ump.waw.pl/ retrieved 11:07:14 02/24/09 (UMP-Warszawa/src/WARSZAWA_WOLA.ulice.txt)"/>
  </node>
  <node id="412124584" version="1" timestamp="2009-05-28T11:09:56Z" uid="20587" user="balrog-kun" changeset="1341741" lat="52.2417266" lon="20.9232728">
    <tag k="addr:city" v="Warszawa@Warszawa Bemowo"/>
    <tag k="addr:housenumber" v="191"/>
    <tag k="addr:street" v="Górczewska"/>
    <tag k="source" v="http://ump.waw.pl/ retrieved 11:07:14 02/24/09 (UMP-Warszawa/src/WARSZAWA_BEMOWO.ulice.txt)"/>
  </node>
  <node id="412124585" version="1" timestamp="2009-05-28T11:09:56Z" uid="20587" user="balrog-kun" changeset="1341741" lat="52.2395331" lon="20.9343726">
    <tag k="addr:city" v="Warszawa@Warszawa Wola"/>
    <tag k="addr:housenumber" v="163"/>
    <tag k="addr:street" v="Górczewska"/>
    <tag k="source" v="http://ump.waw.pl/ retrieved 11:07:14 02/24/09 (UMP-Warszawa/src/WARSZAWA_WOLA.ulice.txt)"/>
  </node>
  <node id="412124586" version="1" timestamp="2009-05-28T11:09:56Z" uid="20587" user="balrog-kun" changeset="1341741" lat="52.2238969" lon="20.9023161">
    <tag k="addr:city" v="Warszawa@Warszawa Bemowo"/>
    <tag k="addr:housenumber" v="2"/>
    <tag k="addr:street" v="Siemiatycka"/>
    <tag k="source" v="http://ump.waw.pl/ retrieved 11:07:14 02/24/09 (UMP-Warszawa/src/WARSZAWA_BEMOWO.ulice.txt)"/>
  </node>
  <node id="412124586" version="2" timestamp="2009-05-31T14:33:26Z" uid="20587" user="balrog-kun" changeset="1369651" lat="52.223924" lon="20.9030973">
    <tag k="addr:city" v="Warszawa@Warszawa Bemowo"/>
    <tag k="addr:housenumber" v="2"/>
    <tag k="addr:street" v="Siemiatycka"/>
    <tag k="source" v="http://ump.waw.pl/ retrieved 11:07:14 02/24/09 (UMP-Warszawa/src/WARSZAWA_BEMOWO.ulice.txt)"/>
  </node>
  <node id="412124586" version="3" timestamp="2009-05-31T14:39:01Z" uid="20587" user="balrog-kun" changeset="1369724" lat="52.223924" lon="20.9030973">
    <tag k="addr:city" v="Warszawa@Warszawa Bemowo"/>
    <tag k="addr:housenumber" v="2"/>
    <tag k="addr:street" v="Siemiatycka"/>
    <tag k="source" v="http://ump.waw.pl/ retrieved 11:07:14 02/24/09 (UMP-Warszawa/src/WARSZAWA_BEMOWO.ulice.txt)"/>
  </node>
  <node id="412124587" version="1" timestamp="2009-05-28T11:09:56Z" uid="20587" user="balrog-kun" changeset="1341741" lat="52.2386234" lon="20.9047691">
    <tag k="addr:city" v="Warszawa@Warszawa Bemowo"/>
    <tag k="addr:housenumber" v="229"/>
    <tag k="addr:street" v="Górczewska"/>
    <tag k="source" v="http://ump.waw.pl/ retrieved 11:07:14 02/24/09 (UMP-Warszawa/src/WARSZAWA_BEMOWO.ulice.txt)"/>
  </node>
  <node id="412124587" version="2" timestamp="2009-12-01T19:08:16Z" uid="203836" user="pcserwis" changeset="3266545" lat="52.2386234" lon="20.9047691">
    <tag k="addr:city" v="Warszawa@Warszawa Bemowo"/>
    <tag k="addr:housenumber" v="229"/>
    <tag k="addr:street" v="Górczewska"/>
    <tag k="source" v="http://ump.waw.pl/ retrieved 11:07:14 02/24/09 (UMP-Warszawa/src/WARSZAWA_BEMOWO.ulice.txt)"/>
  </node>
  <node id="412124588" version="1" timestamp="2009-05-28T11:09:57Z" uid="20587" user="balrog-kun" changeset="1341741" lat="52.2279977" lon="20.906754">
    <tag k="addr:city" v="Warszawa@Warszawa Bemowo"/>
    <tag k="addr:housenumber" v="105"/>
    <tag k="addr:street" v="Drzeworytników"/>
    <tag k="source" v="http://ump.waw.pl/ retrieved 11:07:14 02/24/09 (UMP-Warszawa/src/WARSZAWA_BEMOWO.ulice.txt)"/>
  </node>
  <node id="412124589" version="1" timestamp="2009-05-28T11:09:57Z" uid="20587" user="balrog-kun" changeset="1341741" lat="52.242214" lon="20.9232775">
    <tag k="addr:city" v="Warszawa@Warszawa Bemowo"/>
    <tag k="addr:housenumber" v="138"/>
    <tag k="addr:street" v="Górczewska"/>
    <tag k="source" v="http://ump.waw.pl/ retrieved 11:07:14 02/24/09 (UMP-Warszawa/src/WARSZAWA_BEMOWO.ulice.txt)"/>
  </node>
  <node id="412124589" version="2" timestamp="2011-06-13T19:41:19Z" uid="98542" user="wajak" changeset="8430715" lat="52.242214" lon="20.9232775"/>
  <node id="412124590" version="1" timestamp="2009-05-28T11:09:57Z" uid="20587" user="balrog-kun" changeset="1341741" lat="52.2236582" lon="20.9011471">
    <tag k="addr:city" v="Warszawa@Warszawa Bemowo"/>
    <tag k="addr:housenumber" v="10"/>
    <tag k="addr:street" v="Rozłogi"/>
    <tag k="source" v="http://ump.waw.pl/ retrieved 11:07:14 02/24/09 (UMP-Warszawa/src/WARSZAWA_BEMOWO.ulice.txt)"/>
  </node>
  <node id="412124590" version="2" timestamp="2009-05-31T14:33:26Z" uid="20587" user="balrog-kun" changeset="1369651" lat="52.2234317" lon="20.9005116">
    <tag k="addr:city" v="Warszawa@Warszawa Bemowo"/>
    <tag k="addr:housenumber" v="6"/>
    <tag k="addr:street" v="Rozłogi"/>
    <tag k="source" v="http://ump.waw.pl/ retrieved 11:07:14 02/24/09 (UMP-Warszawa/src/WARSZAWA_BEMOWO.ulice.txt)"/>
  </node>
  <node id="412124591" version="1" timestamp="2009-05-28T11:09:57Z" uid="20587" user="balrog-kun" changeset="1341741" lat="52.2315876" lon="20.9379638">
    <tag k="addr:city" v="Warszawa@Warszawa Wola"/>
    <tag k="addr:housenumber" v="2"/>
    <tag k="addr:street" v="Norwida"/>
    <tag k="source" v="http://ump.waw.pl/ retrieved 11:07:14 02/24/09 (UMP-Warszawa/src/WARSZAWA_WOLA.ulice.txt)"/>
  </node>
  <node id="412124591" version="2" timestamp="2011-12-02T16:27:00Z" uid="441027" user="muzzy" changeset="10017958" lat="52.2315876" lon="20.9379638">
    <tag k="addr:city" v="Warszawa@Warszawa Wola"/>
    <tag k="addr:housenumber" v="2"/>
    <tag k="addr:street" v="Cypriana Kamila Norwida"/>
    <tag k="source" v="http://ump.waw.pl/ retrieved 11:07:14 02/24/09 (UMP-Warszawa/src/WARSZAWA_WOLA.ulice.txt)"/>
  </node>
  <node id="412124592" version="1" timestamp="2009-05-28T11:09:57Z" uid="20587" user="balrog-kun" changeset="1341741" lat="52.2279895" lon="20.9061457">
    <tag k="addr:city" v="Warszawa@Warszawa Bemowo"/>
    <tag k="addr:housenumber" v="105"/>
    <tag k="addr:street" v="Okrętowa"/>
    <tag k="source" v="http://ump.waw.pl/ retrieved 11:07:14 02/24/09 (UMP-Warszawa/src/WARSZAWA_BEMOWO.ulice.txt)"/>
  </node>
  <node id="412124593" version="1" timestamp="2009-05-28T11:09:57Z" uid="20587" user="balrog-kun" changeset="1341741" lat="52.2252197" lon="20.9105886">
    <tag k="addr:city" v="Warszawa@Warszawa Bemowo"/>
    <tag k="addr:housenumber" v="1"/>
    <tag k="addr:street" v="Cokołowa"/>
    <tag k="source" v="http://ump.waw.pl/ retrieved 11:07:14 02/24/09 (UMP-Warszawa/src/WARSZAWA_BEMOWO.ulice.txt)"/>
  </node>
  <node id="412124595" version="1" timestamp="2009-05-28T11:09:57Z" uid="20587" user="balrog-kun" changeset="1341741" lat="52.2313809" lon="20.9360248">
    <tag k="addr:city" v="Warszawa@Warszawa Wola"/>
    <tag k="addr:housenumber" v="6"/>
    <tag k="addr:street" v="Szulborska"/>
    <tag k="source" v="http://ump.waw.pl/ retrieved 11:07:14 02/24/09 (UMP-Warszawa/src/WARSZAWA_WOLA.ulice.txt)"/>
  </node>
  <node id="412124597" version="1" timestamp="2009-05-28T11:09:57Z" uid="20587" user="balrog-kun" changeset="1341741" lat="52.2401228" lon="20.8941004">
    <tag k="addr:city" v="Warszawa@Warszawa Bemowo"/>
    <tag k="addr:housenumber" v="250"/>
    <tag k="addr:street" v="Górczewska"/>
    <tag k="source" v="http://ump.waw.pl/ retrieved 11:07:14 02/24/09 (UMP-Warszawa/src/WARSZAWA_BEMOWO.ulice.txt)"/>
  </node>
  <node id="412124599" version="1" timestamp="2009-05-28T11:09:57Z" uid="20587" user="balrog-kun" changeset="1341741" lat="52.2211314" lon="20.9030182">
    <tag k="addr:city" v="Warszawa@Warszawa Bemowo"/>
    <tag k="addr:housenumber" v="31"/>
    <tag k="addr:street" v="Okrętowa"/>
    <tag k="source" v="http://ump.waw.pl/ retrieved 11:07:14 02/24/09 (UMP-Warszawa/src/WARSZAWA_BEMOWO.ulice.txt)"/>
  </node>
  <node id="412124601" version="1" timestamp="2009-05-28T11:09:57Z" uid="20587" user="balrog-kun" changeset="1341741" lat="52.2255348" lon="20.9075425">
    <tag k="addr:city" v="Warszawa@Warszawa Bemowo"/>
    <tag k="addr:housenumber" v="4"/>
    <tag k="addr:street" v="Cokołowa"/>
    <tag k="source" v="http://ump.waw.pl/ retrieved 11:07:14 02/24/09 (UMP-Warszawa/src/WARSZAWA_BEMOWO.ulice.txt)"/>
  </node>
  <node id="412124603" version="1" timestamp="2009-05-28T11:09:57Z" uid="20587" user="balrog-kun" changeset="1341741" lat="52.2253186" lon="20.9393246">
    <tag k="addr:city" v="Warszawa@Warszawa Wola"/>
    <tag k="addr:housenumber" v="171"/>
    <tag k="addr:street" v="Wolska"/>
    <tag k="source" v="http://ump.waw.pl/ retrieved 11:07:14 02/24/09 (UMP-Warszawa/src/WARSZAWA_WOLA.ulice.txt)"/>
  </node>
  <node id="412124606" version="1" timestamp="2009-05-28T11:09:57Z" uid="20587" user="balrog-kun" changeset="1341741" lat="52.2268721" lon="20.901803">
    <tag k="addr:city" v="Warszawa@Warszawa Bemowo"/>
    <tag k="addr:housenumber" v="15"/>
    <tag k="addr:street" v="Siemiatycka"/>
    <tag k="source" v="http://ump.waw.pl/ retrieved 11:07:14 02/24/09 (UMP-Warszawa/src/WARSZAWA_BEMOWO.ulice.txt)"/>
  </node>
  <node id="412124606" version="2" timestamp="2009-05-31T14:33:27Z" uid="20587" user="balrog-kun" changeset="1369651" lat="52.2269194" lon="20.9023247">
    <tag k="addr:city" v="Warszawa@Warszawa Bemowo"/>
    <tag k="addr:housenumber" v="15"/>
    <tag k="addr:street" v="Siemiatycka"/>
    <tag k="source" v="http://ump.waw.pl/ retrieved 11:07:14 02/24/09 (UMP-Warszawa/src/WARSZAWA_BEMOWO.ulice.txt)"/>
  </node>
  <node id="412124611" version="1" timestamp="2009-05-28T11:09:58Z" uid="20587" user="balrog-kun" changeset="1341741" lat="52.2283998" lon="20.9034571">
    <tag k="addr:city" v="Warszawa@Warszawa Bemowo"/>
    <tag k="addr:housenumber" v="90"/>
    <tag k="addr:street" v="Człuchowska"/>
    <tag k="source" v="http://ump.waw.pl/ retrieved 11:07:14 02/24/09 (UMP-Warszawa/src/WARSZAWA_BEMOWO.ulice.txt)"/>
  </node>
  <node id="412124614" version="1" timestamp="2009-05-28T11:09:58Z" uid="20587" user="balrog-kun" changeset="1341741" lat="52.239819" lon="20.9312991">
    <tag k="addr:city" v="Warszawa@Warszawa Wola"/>
    <tag k="addr:housenumber" v="179"/>
    <tag k="addr:street" v="Górczewska"/>
    <tag k="source" v="http://ump.waw.pl/ retrieved 11:07:14 02/24/09 (UMP-Warszawa/src/WARSZAWA_WOLA.ulice.txt)"/>
  </node>
  <node id="412124615" version="1" timestamp="2009-05-28T11:09:58Z" uid="20587" user="balrog-kun" changeset="1341741" lat="52.2253997" lon="20.9353919">
    <tag k="addr:city" v="Warszawa@Warszawa Wola"/>
    <tag k="addr:housenumber" v="172"/>
    <tag k="addr:street" v="Wolska"/>
    <tag k="source" v="http://ump.waw.pl/ retrieved 11:07:14 02/24/09 (UMP-Warszawa/src/WARSZAWA_WOLA.ulice.txt)"/>
  </node>
  <node id="412124616" version="1" timestamp="2009-05-28T11:09:58Z" uid="20587" user="balrog-kun" changeset="1341741" lat="52.2418557" lon="20.9228714">
    <tag k="addr:city" v="Warszawa@Warszawa Bemowo"/>
    <tag k="addr:housenumber" v="193"/>
    <tag k="addr:street" v="Górczewska"/>
    <tag k="source" v="http://ump.waw.pl/ retrieved 11:07:14 02/24/09 (UMP-Warszawa/src/WARSZAWA_BEMOWO.ulice.txt)"/>
  </node>
  <node id="412124617" version="1" timestamp="2009-05-28T11:09:58Z" uid="20587" user="balrog-kun" changeset="1341741" lat="52.2254686" lon="20.9059386">
    <tag k="addr:city" v="Warszawa@Warszawa Bemowo"/>
    <tag k="addr:housenumber" v="81"/>
    <tag k="addr:street" v="Drzeworytników"/>
    <tag k="source" v="http://ump.waw.pl/ retrieved 11:07:14 02/24/09 (UMP-Warszawa/src/WARSZAWA_BEMOWO.ulice.txt)"/>
  </node>
  <node id="412124618" version="1" timestamp="2009-05-28T11:09:58Z" uid="20587" user="balrog-kun" changeset="1341741" lat="52.2311781" lon="20.9347441">
    <tag k="addr:city" v="Warszawa@Warszawa Wola"/>
    <tag k="addr:housenumber" v="8"/>
    <tag k="addr:street" v="Szulborska"/>
    <tag k="source" v="http://ump.waw.pl/ retrieved 11:07:14 02/24/09 (UMP-Warszawa/src/WARSZAWA_WOLA.ulice.txt)"/>
  </node>
  <node id="412124619" version="1" timestamp="2009-05-28T11:09:58Z" uid="20587" user="balrog-kun" changeset="1341741" lat="52.239573" lon="20.9355627">
    <tag k="addr:city" v="Warszawa@Warszawa Wola"/>
    <tag k="addr:housenumber" v="155"/>
    <tag k="addr:street" v="Górczewska"/>
    <tag k="source" v="http://ump.waw.pl/ retrieved 11:07:14 02/24/09 (UMP-Warszawa/src/WARSZAWA_WOLA.ulice.txt)"/>
  </node>
  <node id="412125035" version="1" timestamp="2009-05-28T11:13:33Z" uid="30632" user="antblant" changeset="1341767" lat="53.4670491" lon="14.4635287"/>
  <node id="412125036" version="1" timestamp="2009-05-28T11:13:46Z" uid="30632" user="antblant" changeset="1341767" lat="53.4638726" lon="14.4529791"/>
  <node id="412125037" version="1" timestamp="2009-05-28T11:13:46Z" uid="30632" user="antblant" changeset="1341767" lat="53.4634128" lon="14.4528075"/>
  <node id="412125145" version="1" timestamp="2009-05-28T11:15:06Z" uid="30632" user="antblant" changeset="1341767" lat="53.4628251" lon="14.4514342"/>
  <node id="412125147" version="1" timestamp="2009-05-28T11:15:07Z" uid="30632" user="antblant" changeset="1341767" lat="53.4620075" lon="14.4483872"/>
  <node id="412125148" version="1" timestamp="2009-05-28T11:15:07Z" uid="30632" user="antblant" changeset="1341767" lat="53.4585837" lon="14.4446106"/>
  <node id="412127088" version="2" timestamp="2011-01-11T04:33:12Z" uid="4467" user="Rosscoe" changeset="6933404" lat="-34.0572433" lon="138.8868678">
    <tag k="highway" v="ford"/>
    <tag k="source" v="survey"/>
    <tag k="source_ref" v="http://osm.beldin.org/2009/05/DSCF0391.JPG"/>
  </node>
  <node id="412127088" version="3" timestamp="2012-03-11T08:17:39Z" uid="110263" user="werner2101" changeset="10939877" lat="-34.0572433" lon="138.8868678">
    <tag k="ford" v="yes"/>
    <tag k="source" v="survey"/>
    <tag k="source_ref" v="http://osm.beldin.org/2009/05/DSCF0391.JPG"/>
  </node>
  <node id="412127109" version="2" timestamp="2011-01-11T04:33:12Z" uid="4467" user="Rosscoe" changeset="6933404" lat="-34.0993549" lon="138.8836919"/>
  <node id="412127358" version="2" timestamp="2011-01-11T04:33:13Z" uid="4467" user="Rosscoe" changeset="6933404" lat="-34.0991922" lon="138.9004818"/>
  <node id="412127361" version="3" timestamp="2011-01-11T04:33:12Z" uid="4467" user="Rosscoe" changeset="6933404" lat="-34.0990431" lon="138.8655284"/>
  <node id="412127363" version="3" timestamp="2011-01-11T04:33:12Z" uid="4467" user="Rosscoe" changeset="6933404" lat="-34.0990328" lon="138.8605327"/>
  <node id="412127365" version="2" timestamp="2011-01-11T04:33:13Z" uid="4467" user="Rosscoe" changeset="6933404" lat="-34.0991946" lon="138.8832654">
    <tag k="highway" v="footway"/>
    <tag k="source" v="extrapolation"/>
  </node>
  <node id="412127365" version="3" timestamp="2011-01-11T05:10:16Z" uid="4467" user="Rosscoe" changeset="6933455" lat="-34.0991946" lon="138.8832654">
    <tag k="highway" v="ford"/>
  </node>
  <node id="412127365" version="4" timestamp="2012-03-11T08:17:40Z" uid="110263" user="werner2101" changeset="10939877" lat="-34.0991946" lon="138.8832654">
    <tag k="ford" v="yes"/>
  </node>
  <node id="412127367" version="3" timestamp="2011-01-11T04:33:12Z" uid="4467" user="Rosscoe" changeset="6933404" lat="-34.0991677" lon="138.8907009"/>
  <node id="412128501" version="2" timestamp="2010-07-19T16:41:16Z" uid="171838" user="argrath" changeset="5262794" lat="34.7439127" lon="135.4642936"/>
  <node id="412128846" version="2" timestamp="2010-07-29T14:42:46Z" uid="171838" user="argrath" changeset="5347323" lat="34.7979049" lon="135.441011"/>
  <node id="412128847" version="2" timestamp="2010-07-29T14:42:47Z" uid="171838" user="argrath" changeset="5347323" lat="34.7986508" lon="135.4403246"/>
  <node id="412129180" version="7" timestamp="2010-03-06T21:35:56Z" uid="6975" user="ulfl" changeset="4055105" lat="44.6839238" lon="6.979588">
    <tag k="ele" v="2744"/>
    <tag k="mountain_pass" v="yes"/>
    <tag k="name" v="Col Agnel"/>
    <tag k="name:it" v="Colle dell&apos;Agnello"/>
    <tag k="wikipedia" v="http://de.wikipedia.org/wiki/Col_Agnel"/>
  </node>
  <node id="412129180" version="8" timestamp="2011-12-26T19:52:39Z" uid="411998" user="sergio7826" changeset="10210487" lat="44.6839238" lon="6.979588">
    <tag k="ele" v="2744"/>
    <tag k="mountain_pass" v="yes"/>
    <tag k="name" v="Col Agnel"/>
    <tag k="name:it" v="Colle dell&apos;Agnello"/>
    <tag k="wikipedia" v="fr:Col Agnel"/>
  </node>
  <node id="412129368" version="1" timestamp="2009-05-28T11:34:44Z" uid="20587" user="balrog-kun" changeset="1341971" lat="52.1873346" lon="20.9072799">
    <tag k="addr:city" v="Warszawa@Warszawa Ursus"/>
    <tag k="addr:housenumber" v="234"/>
    <tag k="addr:street" v="Aleje Jerozolimskie"/>
    <tag k="source" v="http://ump.waw.pl/ retrieved 11:07:14 02/24/09 (UMP-Warszawa/src/WARSZAWA_URSUS.ulice.txt)"/>
  </node>
  <node id="412129368" version="2" timestamp="2011-06-30T11:48:45Z" uid="477744" user="hormel" changeset="8589704" lat="52.1867821" lon="20.9070944">
    <tag k="addr:city" v="Warszawa@Warszawa Ursus"/>
    <tag k="addr:housenumber" v="234"/>
    <tag k="addr:street" v="Aleje Jerozolimskie"/>
    <tag k="source" v="http://ump.waw.pl/ retrieved 11:07:14 02/24/09 (UMP-Warszawa/src/WARSZAWA_URSUS.ulice.txt)"/>
  </node>
  <node id="412129369" version="1" timestamp="2009-05-28T11:34:44Z" uid="20587" user="balrog-kun" changeset="1341971" lat="52.1935224" lon="20.8923555">
    <tag k="addr:city" v="Warszawa@Warszawa Ursus"/>
    <tag k="addr:housenumber" v="8"/>
    <tag k="addr:street" v="Bohaterów Warszawy"/>
    <tag k="source" v="http://ump.waw.pl/ retrieved 11:07:14 02/24/09 (UMP-Warszawa/src/WARSZAWA_URSUS.ulice.txt)"/>
  </node>
  <node id="412129369" version="2" timestamp="2011-06-11T18:27:28Z" uid="435038" user="4ajs" changeset="8408422" lat="52.1935224" lon="20.8923555"/>
  <node id="412129370" version="1" timestamp="2009-05-28T11:34:44Z" uid="20587" user="balrog-kun" changeset="1341971" lat="52.1950388" lon="20.925603">
    <tag k="addr:city" v="Warszawa@Warszawa Ursus"/>
    <tag k="addr:housenumber" v="200"/>
    <tag k="addr:street" v="Aleje Jerozolimskie"/>
    <tag k="source" v="http://ump.waw.pl/ retrieved 11:07:14 02/24/09 (UMP-Warszawa/src/WARSZAWA_URSUS.ulice.txt)"/>
  </node>
  <node id="412129370" version="2" timestamp="2011-05-04T23:01:42Z" uid="100448" user="kietlak" changeset="8053499" lat="52.1950388" lon="20.925603">
    <tag k="addr:city" v="Warszawa@Warszawa Ursus"/>
    <tag k="addr:housenumber" v="200"/>
    <tag k="addr:street" v="Aleje Jerozolimskie"/>
    <tag k="source" v="http://ump.waw.pl/ retrieved 11:07:14 02/24/09 (UMP-Warszawa/src/WARSZAWA_URSUS.ulice.txt)"/>
  </node>
  <node id="412129371" version="1" timestamp="2009-05-28T11:34:44Z" uid="20587" user="balrog-kun" changeset="1341971" lat="52.1937753" lon="20.8901915">
    <tag k="addr:city" v="Warszawa@Warszawa Ursus"/>
    <tag k="addr:housenumber" v="15"/>
    <tag k="addr:street" v="Bohaterów Warszawy"/>
    <tag k="source" v="http://ump.waw.pl/ retrieved 11:07:14 02/24/09 (UMP-Warszawa/src/WARSZAWA_URSUS.ulice.txt)"/>
  </node>
  <node id="412129372" version="1" timestamp="2009-05-28T11:34:44Z" uid="20587" user="balrog-kun" changeset="1341971" lat="52.2031156" lon="20.9177932">
    <tag k="addr:city" v="Warszawa@Warszawa Włochy"/>
    <tag k="addr:housenumber" v="12"/>
    <tag k="addr:street" v="Wilczycka"/>
    <tag k="source" v="http://ump.waw.pl/ retrieved 11:07:14 02/24/09 (UMP-Warszawa/src/WARSZAWA_WLOCHY.ulice.txt)"/>
  </node>
  <node id="412129373" version="1" timestamp="2009-05-28T11:34:44Z" uid="20587" user="balrog-kun" changeset="1341971" lat="52.2033626" lon="20.9404379">
    <tag k="addr:city" v="Warszawa@Warszawa Włochy"/>
    <tag k="addr:housenumber" v="193"/>
    <tag k="addr:street" v="Aleje Jerozolimskie"/>
    <tag k="source" v="http://ump.waw.pl/ retrieved 11:07:14 02/24/09 (UMP-Warszawa/src/WARSZAWA_WLOCHY.ulice.txt)"/>
  </node>
  <node id="412129374" version="1" timestamp="2009-05-28T11:34:44Z" uid="20587" user="balrog-kun" changeset="1341971" lat="52.1915119" lon="20.8975902">
    <tag k="addr:city" v="Warszawa@Warszawa Ursus"/>
    <tag k="addr:housenumber" v="2"/>
    <tag k="addr:street" v="Bohaterów Warszawy"/>
    <tag k="source" v="http://ump.waw.pl/ retrieved 11:07:14 02/24/09 (UMP-Warszawa/src/WARSZAWA_URSUS.ulice.txt)"/>
  </node>
  <node id="412129375" version="1" timestamp="2009-05-28T11:34:45Z" uid="20587" user="balrog-kun" changeset="1341971" lat="52.1913827" lon="20.9201229">
    <tag k="addr:city" v="Warszawa@Warszawa Ursus"/>
    <tag k="addr:housenumber" v="212"/>
    <tag k="addr:street" v="Aleje Jerozolimskie"/>
    <tag k="source" v="http://ump.waw.pl/ retrieved 11:07:14 02/24/09 (UMP-Warszawa/src/WARSZAWA_URSUS.ulice.txt)"/>
  </node>
  <node id="412129375" version="2" timestamp="2011-05-04T23:01:37Z" uid="100448" user="kietlak" changeset="8053499" lat="52.1911772" lon="20.9201899">
    <tag k="addr:city" v="Warszawa@Warszawa Ursus"/>
    <tag k="addr:housenumber" v="212"/>
    <tag k="addr:street" v="Aleje Jerozolimskie"/>
    <tag k="source" v="http://ump.waw.pl/ retrieved 11:07:14 02/24/09 (UMP-Warszawa/src/WARSZAWA_URSUS.ulice.txt)"/>
  </node>
  <node id="412129376" version="1" timestamp="2009-05-28T11:34:45Z" uid="20587" user="balrog-kun" changeset="1341971" lat="52.203723" lon="20.921765">
    <tag k="addr:city" v="Warszawa@Warszawa Włochy"/>
    <tag k="addr:housenumber" v="5"/>
    <tag k="addr:street" v="Konewki"/>
    <tag k="source" v="http://ump.waw.pl/ retrieved 11:07:14 02/24/09 (UMP-Warszawa/src/WARSZAWA_WLOCHY.ulice.txt)"/>
  </node>
  <node id="412129376" version="2" timestamp="2012-03-21T12:18:18Z" uid="277387" user="rogal" changeset="11051533" lat="52.2036717" lon="20.9215579">
    <tag k="addr:housenumber" v="5"/>
    <tag k="addr:street" v="Konewki"/>
  </node>
  <node id="412129377" version="1" timestamp="2009-05-28T11:34:45Z" uid="20587" user="balrog-kun" changeset="1341971" lat="52.1991273" lon="20.9009102">
    <tag k="addr:city" v="Warszawa@Warszawa Ursus"/>
    <tag k="addr:housenumber" v="55"/>
    <tag k="addr:street" v="Zapustna"/>
    <tag k="source" v="http://ump.waw.pl/ retrieved 11:07:14 02/24/09 (UMP-Warszawa/src/WARSZAWA_URSUS.ulice.txt)"/>
  </node>
  <node id="412129377" version="2" timestamp="2011-09-05T15:00:42Z" uid="477744" user="hormel" changeset="9218536" lat="52.1991273" lon="20.9009102"/>
  <node id="412129378" version="1" timestamp="2009-05-28T11:34:45Z" uid="20587" user="balrog-kun" changeset="1341971" lat="52.1923767" lon="20.8934856">
    <tag k="addr:city" v="Warszawa@Warszawa Ursus"/>
    <tag k="addr:housenumber" v="7"/>
    <tag k="addr:street" v="Bohaterów Warszawy"/>
    <tag k="source" v="http://ump.waw.pl/ retrieved 11:07:14 02/24/09 (UMP-Warszawa/src/WARSZAWA_URSUS.ulice.txt)"/>
  </node>
  <node id="412129378" version="2" timestamp="2011-06-24T13:00:40Z" uid="435038" user="4ajs" changeset="8532636" lat="52.1923767" lon="20.8934856"/>
  <node id="412129379" version="1" timestamp="2009-05-28T11:34:45Z" uid="20587" user="balrog-kun" changeset="1341971" lat="52.1954338" lon="20.8836883">
    <tag k="addr:city" v="Warszawa@Warszawa Ursus"/>
    <tag k="addr:housenumber" v="19"/>
    <tag k="addr:street" v="Cierlicka"/>
    <tag k="source" v="http://ump.waw.pl/ retrieved 11:07:14 02/24/09 (UMP-Warszawa/src/WARSZAWA_URSUS.ulice.txt)"/>
  </node>
  <node id="412129380" version="1" timestamp="2009-05-28T11:34:45Z" uid="20587" user="balrog-kun" changeset="1341971" lat="52.2007756" lon="20.9171838">
    <tag k="addr:city" v="Warszawa@Warszawa Włochy"/>
    <tag k="addr:housenumber" v="24"/>
    <tag k="addr:street" v="Wilczycka"/>
    <tag k="source" v="http://ump.waw.pl/ retrieved 11:07:14 02/24/09 (UMP-Warszawa/src/WARSZAWA_WLOCHY.ulice.txt)"/>
  </node>
  <node id="412129381" version="1" timestamp="2009-05-28T11:34:45Z" uid="20587" user="balrog-kun" changeset="1341971" lat="52.1943039" lon="20.8896945">
    <tag k="addr:city" v="Warszawa@Warszawa Ursus"/>
    <tag k="addr:housenumber" v="14"/>
    <tag k="addr:street" v="Bohaterów Warszawy"/>
    <tag k="source" v="http://ump.waw.pl/ retrieved 11:07:14 02/24/09 (UMP-Warszawa/src/WARSZAWA_URSUS.ulice.txt)"/>
  </node>
  <node id="412129382" version="1" timestamp="2009-05-28T11:34:45Z" uid="20587" user="balrog-kun" changeset="1341971" lat="52.2021336" lon="20.9387115">
    <tag k="addr:city" v="Warszawa@Warszawa Włochy"/>
    <tag k="addr:housenumber" v="195"/>
    <tag k="addr:street" v="Aleje Jerozolimskie"/>
    <tag k="source" v="http://ump.waw.pl/ retrieved 11:07:14 02/24/09 (UMP-Warszawa/src/WARSZAWA_WLOCHY.ulice.txt)"/>
  </node>
  <node id="412129383" version="1" timestamp="2009-05-28T11:34:45Z" uid="20587" user="balrog-kun" changeset="1341971" lat="52.1981173" lon="20.9143415">
    <tag k="addr:city" v="Warszawa@Warszawa Włochy"/>
    <tag k="addr:housenumber" v="3"/>
    <tag k="addr:street" v="Ryżowa"/>
    <tag k="source" v="http://ump.waw.pl/ retrieved 11:07:14 02/24/09 (UMP-Warszawa/src/WARSZAWA_WLOCHY.ulice.txt)"/>
  </node>
  <node id="412129383" version="2" timestamp="2011-09-08T09:18:12Z" uid="477744" user="hormel" changeset="9243807" lat="52.1981173" lon="20.9143415"/>
  <node id="412129384" version="1" timestamp="2009-05-28T11:34:45Z" uid="20587" user="balrog-kun" changeset="1341971" lat="52.1986868" lon="20.9015753">
    <tag k="addr:city" v="Warszawa@Warszawa Ursus"/>
    <tag k="addr:housenumber" v="43"/>
    <tag k="addr:street" v="Zapustna"/>
    <tag k="source" v="http://ump.waw.pl/ retrieved 11:07:14 02/24/09 (UMP-Warszawa/src/WARSZAWA_URSUS.ulice.txt)"/>
  </node>
  <node id="412129384" version="2" timestamp="2011-09-05T15:00:42Z" uid="477744" user="hormel" changeset="9218536" lat="52.1986868" lon="20.9015753"/>
  <node id="412129385" version="1" timestamp="2009-05-28T11:34:45Z" uid="20587" user="balrog-kun" changeset="1341971" lat="52.1992727" lon="20.9078628">
    <tag k="addr:city" v="Warszawa@Warszawa Włochy"/>
    <tag k="addr:housenumber" v="11"/>
    <tag k="addr:street" v="Batalionu Włochy"/>
    <tag k="source" v="http://ump.waw.pl/ retrieved 11:07:14 02/24/09 (UMP-Warszawa/src/WARSZAWA_WLOCHY.ulice.txt)"/>
  </node>
  <node id="412129385" version="2" timestamp="2011-12-09T09:52:39Z" uid="441027" user="muzzy" changeset="10071664" lat="52.1992727" lon="20.9078628">
    <tag k="addr:city" v="Warszawa@Warszawa Włochy"/>
    <tag k="addr:housenumber" v="11"/>
    <tag k="addr:street" v="Batalionu &quot;Włochy&quot;"/>
    <tag k="source" v="http://ump.waw.pl/ retrieved 11:07:14 02/24/09 (UMP-Warszawa/src/WARSZAWA_WLOCHY.ulice.txt)"/>
  </node>
  <node id="412129386" version="1" timestamp="2009-05-28T11:34:45Z" uid="20587" user="balrog-kun" changeset="1341971" lat="52.1939094" lon="20.8898585">
    <tag k="addr:city" v="Warszawa@Warszawa Ursus"/>
    <tag k="addr:housenumber" v="17"/>
    <tag k="addr:street" v="Bohaterów Warszawy"/>
    <tag k="source" v="http://ump.waw.pl/ retrieved 11:07:14 02/24/09 (UMP-Warszawa/src/WARSZAWA_URSUS.ulice.txt)"/>
  </node>
  <node id="412129387" version="1" timestamp="2009-05-28T11:34:45Z" uid="20587" user="balrog-kun" changeset="1341971" lat="52.19142" lon="20.8958252">
    <tag k="addr:city" v="Warszawa@Warszawa Ursus"/>
    <tag k="addr:housenumber" v="3"/>
    <tag k="addr:street" v="Bohaterów Warszawy"/>
    <tag k="source" v="http://ump.waw.pl/ retrieved 11:07:14 02/24/09 (UMP-Warszawa/src/WARSZAWA_URSUS.ulice.txt)"/>
  </node>
  <node id="412129388" version="1" timestamp="2009-05-28T11:34:45Z" uid="20587" user="balrog-kun" changeset="1341971" lat="52.1948579" lon="20.8849193">
    <tag k="addr:city" v="Warszawa@Warszawa Ursus"/>
    <tag k="addr:housenumber" v="36"/>
    <tag k="addr:street" v="Kościuszki"/>
    <tag k="source" v="http://ump.waw.pl/ retrieved 11:07:14 02/24/09 (UMP-Warszawa/src/WARSZAWA_URSUS.ulice.txt)"/>
  </node>
  <node id="412129388" version="2" timestamp="2009-10-31T22:51:16Z" uid="20587" user="balrog-kun" changeset="3002253" lat="52.1949204" lon="20.8849149">
    <tag k="addr:city" v="Warszawa@Warszawa Ursus"/>
    <tag k="addr:housenumber" v="36"/>
    <tag k="addr:street" v="Kościuszki"/>
    <tag k="source" v="http://ump.waw.pl/ retrieved 11:07:14 02/24/09 (UMP-Warszawa/src/WARSZAWA_URSUS.ulice.txt)"/>
  </node>
  <node id="412129388" version="3" timestamp="2011-12-09T09:53:04Z" uid="441027" user="muzzy" changeset="10071664" lat="52.1949204" lon="20.8849149">
    <tag k="addr:city" v="Warszawa@Warszawa Ursus"/>
    <tag k="addr:housenumber" v="36"/>
    <tag k="addr:street" v="Tadeusza Kościuszki"/>
    <tag k="source" v="http://ump.waw.pl/ retrieved 11:07:14 02/24/09 (UMP-Warszawa/src/WARSZAWA_URSUS.ulice.txt)"/>
  </node>
  <node id="412129389" version="1" timestamp="2009-05-28T11:34:45Z" uid="20587" user="balrog-kun" changeset="1341971" lat="52.1956518" lon="20.884208">
    <tag k="addr:city" v="Warszawa@Warszawa Ursus"/>
    <tag k="addr:housenumber" v="10"/>
    <tag k="addr:street" v="Cierlicka"/>
    <tag k="source" v="http://ump.waw.pl/ retrieved 11:07:14 02/24/09 (UMP-Warszawa/src/WARSZAWA_URSUS.ulice.txt)"/>
  </node>
  <node id="412129390" version="1" timestamp="2009-05-28T11:34:45Z" uid="20587" user="balrog-kun" changeset="1341971" lat="52.1920469" lon="20.9212568">
    <tag k="addr:city" v="Warszawa@Warszawa Ursus"/>
    <tag k="addr:housenumber" v="204"/>
    <tag k="addr:street" v="Aleje Jerozolimskie"/>
    <tag k="source" v="http://ump.waw.pl/ retrieved 11:07:14 02/24/09 (UMP-Warszawa/src/WARSZAWA_URSUS.ulice.txt)"/>
  </node>
  <node id="412129391" version="1" timestamp="2009-05-28T11:34:46Z" uid="20587" user="balrog-kun" changeset="1341971" lat="52.1945872" lon="20.8889629">
    <tag k="addr:city" v="Warszawa@Warszawa Ursus"/>
    <tag k="addr:housenumber" v="18"/>
    <tag k="addr:street" v="Bohaterów Warszawy"/>
    <tag k="source" v="http://ump.waw.pl/ retrieved 11:07:14 02/24/09 (UMP-Warszawa/src/WARSZAWA_URSUS.ulice.txt)"/>
  </node>
  <node id="412129392" version="1" timestamp="2009-05-28T11:34:46Z" uid="20587" user="balrog-kun" changeset="1341971" lat="52.2035609" lon="20.9179034">
    <tag k="addr:city" v="Warszawa@Warszawa Włochy"/>
    <tag k="addr:housenumber" v="10"/>
    <tag k="addr:street" v="Wilczycka"/>
    <tag k="source" v="http://ump.waw.pl/ retrieved 11:07:14 02/24/09 (UMP-Warszawa/src/WARSZAWA_WLOCHY.ulice.txt)"/>
  </node>
  <node id="412129393" version="1" timestamp="2009-05-28T11:34:46Z" uid="20587" user="balrog-kun" changeset="1341971" lat="52.1951894" lon="20.8853835">
    <tag k="addr:city" v="Warszawa@Warszawa Ursus"/>
    <tag k="addr:housenumber" v="32"/>
    <tag k="addr:street" v="Kościuszki"/>
    <tag k="source" v="http://ump.waw.pl/ retrieved 11:07:14 02/24/09 (UMP-Warszawa/src/WARSZAWA_URSUS.ulice.txt)"/>
  </node>
  <node id="412129393" version="2" timestamp="2009-10-31T22:51:16Z" uid="20587" user="balrog-kun" changeset="3002253" lat="52.1952519" lon="20.8853791">
    <tag k="addr:city" v="Warszawa@Warszawa Ursus"/>
    <tag k="addr:housenumber" v="32"/>
    <tag k="addr:street" v="Kościuszki"/>
    <tag k="source" v="http://ump.waw.pl/ retrieved 11:07:14 02/24/09 (UMP-Warszawa/src/WARSZAWA_URSUS.ulice.txt)"/>
  </node>
  <node id="412129393" version="3" timestamp="2011-12-09T09:53:02Z" uid="441027" user="muzzy" changeset="10071664" lat="52.1952519" lon="20.8853791">
    <tag k="addr:city" v="Warszawa@Warszawa Ursus"/>
    <tag k="addr:housenumber" v="32"/>
    <tag k="addr:street" v="Tadeusza Kościuszki"/>
    <tag k="source" v="http://ump.waw.pl/ retrieved 11:07:14 02/24/09 (UMP-Warszawa/src/WARSZAWA_URSUS.ulice.txt)"/>
  </node>
  <node id="412129394" version="1" timestamp="2009-05-28T11:34:46Z" uid="20587" user="balrog-kun" changeset="1341971" lat="52.2042316" lon="20.9214419">
    <tag k="addr:city" v="Warszawa@Warszawa Włochy"/>
    <tag k="addr:housenumber" v="4"/>
    <tag k="addr:street" v="Konewki"/>
    <tag k="source" v="http://ump.waw.pl/ retrieved 11:07:14 02/24/09 (UMP-Warszawa/src/WARSZAWA_WLOCHY.ulice.txt)"/>
  </node>
  <node id="412129395" version="1" timestamp="2009-05-28T11:34:46Z" uid="20587" user="balrog-kun" changeset="1341971" lat="52.2037196" lon="20.9185959">
    <tag k="addr:city" v="Warszawa@Warszawa Włochy"/>
    <tag k="addr:housenumber" v="7"/>
    <tag k="addr:street" v="Wilczycka"/>
    <tag k="source" v="http://ump.waw.pl/ retrieved 11:07:14 02/24/09 (UMP-Warszawa/src/WARSZAWA_WLOCHY.ulice.txt)"/>
  </node>
  <node id="412129396" version="1" timestamp="2009-05-28T11:34:46Z" uid="20587" user="balrog-kun" changeset="1341971" lat="52.1954519" lon="20.8856406">
    <tag k="addr:city" v="Warszawa@Warszawa Ursus"/>
    <tag k="addr:housenumber" v="43"/>
    <tag k="addr:street" v="Bohaterów Warszawy"/>
    <tag k="source" v="http://ump.waw.pl/ retrieved 11:07:14 02/24/09 (UMP-Warszawa/src/WARSZAWA_URSUS.ulice.txt)"/>
  </node>
  <node id="412129397" version="1" timestamp="2009-05-28T11:34:46Z" uid="20587" user="balrog-kun" changeset="1341971" lat="52.1994953" lon="20.9075908">
    <tag k="addr:city" v="Warszawa@Warszawa Włochy"/>
    <tag k="addr:housenumber" v="20"/>
    <tag k="addr:street" v="Batalionu Włochy"/>
    <tag k="source" v="http://ump.waw.pl/ retrieved 11:07:14 02/24/09 (UMP-Warszawa/src/WARSZAWA_WLOCHY.ulice.txt)"/>
  </node>
  <node id="412129397" version="2" timestamp="2011-12-09T09:52:52Z" uid="441027" user="muzzy" changeset="10071664" lat="52.1994953" lon="20.9075908">
    <tag k="addr:city" v="Warszawa@Warszawa Włochy"/>
    <tag k="addr:housenumber" v="20"/>
    <tag k="addr:street" v="Batalionu &quot;Włochy&quot;"/>
    <tag k="source" v="http://ump.waw.pl/ retrieved 11:07:14 02/24/09 (UMP-Warszawa/src/WARSZAWA_WLOCHY.ulice.txt)"/>
  </node>
  <node id="412129399" version="1" timestamp="2009-05-28T11:34:46Z" uid="20587" user="balrog-kun" changeset="1341971" lat="52.1946821" lon="20.8864996">
    <tag k="addr:city" v="Warszawa@Warszawa Ursus"/>
    <tag k="addr:housenumber" v="6"/>
    <tag k="addr:street" v="Rynkowa"/>
    <tag k="source" v="http://ump.waw.pl/ retrieved 11:07:14 02/24/09 (UMP-Warszawa/src/WARSZAWA_URSUS.ulice.txt)"/>
  </node>
  <node id="412129401" version="1" timestamp="2009-05-28T11:34:46Z" uid="20587" user="balrog-kun" changeset="1341971" lat="52.1945867" lon="20.8870186">
    <tag k="addr:city" v="Warszawa@Warszawa Ursus"/>
    <tag k="addr:housenumber" v="5"/>
    <tag k="addr:street" v="Rynkowa"/>
    <tag k="source" v="http://ump.waw.pl/ retrieved 11:07:14 02/24/09 (UMP-Warszawa/src/WARSZAWA_URSUS.ulice.txt)"/>
  </node>
  <node id="412129401" version="2" timestamp="2009-10-31T22:51:17Z" uid="20587" user="balrog-kun" changeset="3002253" lat="52.1945568" lon="20.8870452">
    <tag k="addr:city" v="Warszawa@Warszawa Ursus"/>
    <tag k="addr:housenumber" v="5"/>
    <tag k="addr:street" v="Rynkowa"/>
    <tag k="source" v="http://ump.waw.pl/ retrieved 11:07:14 02/24/09 (UMP-Warszawa/src/WARSZAWA_URSUS.ulice.txt)"/>
  </node>
  <node id="412129404" version="1" timestamp="2009-05-28T11:34:46Z" uid="20587" user="balrog-kun" changeset="1341971" lat="52.1984445" lon="20.8983207">
    <tag k="addr:city" v="Warszawa@Warszawa Ursus"/>
    <tag k="addr:housenumber" v="15"/>
    <tag k="addr:street" v="Poczty Gdańskiej"/>
    <tag k="source" v="http://ump.waw.pl/ retrieved 11:07:14 02/24/09 (UMP-Warszawa/src/WARSZAWA_URSUS.ulice.txt)"/>
  </node>
  <node id="412129404" version="2" timestamp="2012-01-01T19:37:21Z" uid="435038" user="4ajs" changeset="10264921" lat="52.19664" lon="20.8968219">
    <tag k="addr:city" v="Warszawa@Warszawa Ursus"/>
    <tag k="addr:housenumber" v="38"/>
    <tag k="addr:street" v="Poczty Gdańskiej"/>
  </node>
  <node id="412129406" version="1" timestamp="2009-05-28T11:34:46Z" uid="20587" user="balrog-kun" changeset="1341971" lat="52.2076607" lon="20.9439174">
    <tag k="addr:city" v="Warszawa@Warszawa Włochy"/>
    <tag k="addr:housenumber" v="162"/>
    <tag k="addr:street" v="Aleje Jerozolimskie"/>
    <tag k="source" v="http://ump.waw.pl/ retrieved 11:07:14 02/24/09 (UMP-Warszawa/src/WARSZAWA_WLOCHY.ulice.txt)"/>
  </node>
  <node id="412129408" version="1" timestamp="2009-05-28T11:34:46Z" uid="20587" user="balrog-kun" changeset="1341971" lat="52.1948035" lon="20.8872349">
    <tag k="addr:city" v="Warszawa@Warszawa Ursus"/>
    <tag k="addr:housenumber" v="1"/>
    <tag k="addr:street" v="Rynkowa"/>
    <tag k="source" v="http://ump.waw.pl/ retrieved 11:07:14 02/24/09 (UMP-Warszawa/src/WARSZAWA_URSUS.ulice.txt)"/>
  </node>
  <node id="412129408" version="2" timestamp="2009-10-31T22:51:17Z" uid="20587" user="balrog-kun" changeset="3002253" lat="52.1947736" lon="20.8872615">
    <tag k="addr:city" v="Warszawa@Warszawa Ursus"/>
    <tag k="addr:housenumber" v="1"/>
    <tag k="addr:street" v="Rynkowa"/>
    <tag k="source" v="http://ump.waw.pl/ retrieved 11:07:14 02/24/09 (UMP-Warszawa/src/WARSZAWA_URSUS.ulice.txt)"/>
  </node>
  <node id="412129411" version="1" timestamp="2009-05-28T11:34:46Z" uid="20587" user="balrog-kun" changeset="1341971" lat="52.185049" lon="20.931685">
    <tag k="addr:city" v="Warszawa@Warszawa Włochy"/>
    <tag k="addr:housenumber" v="1"/>
    <tag k="addr:street" v="Serwituty"/>
    <tag k="source" v="http://ump.waw.pl/ retrieved 11:07:14 02/24/09 (UMP-Warszawa/src/WARSZAWA_WLOCHY.ulice.txt)"/>
  </node>
  <node id="412129414" version="1" timestamp="2009-05-28T11:34:46Z" uid="20587" user="balrog-kun" changeset="1341971" lat="52.1954957" lon="20.8927387">
    <tag k="addr:city" v="Warszawa@Warszawa Ursus"/>
    <tag k="addr:housenumber" v="6"/>
    <tag k="addr:street" v="1 Maja"/>
    <tag k="source" v="http://ump.waw.pl/ retrieved 11:07:14 02/24/09 (UMP-Warszawa/src/WARSZAWA_URSUS.ulice.txt)"/>
  </node>
  <node id="412129414" version="2" timestamp="2011-05-15T13:56:32Z" uid="435038" user="4ajs" changeset="8152037" lat="52.1954258" lon="20.8928341">
    <tag k="addr:city" v="Warszawa@Warszawa Ursus"/>
    <tag k="addr:housenumber" v="6"/>
    <tag k="addr:street" v="1 Maja"/>
    <tag k="source" v="http://ump.waw.pl/ retrieved 11:07:14 02/24/09 (UMP-Warszawa/src/WARSZAWA_URSUS.ulice.txt)"/>
  </node>
  <node id="412129414" version="3" timestamp="2011-05-21T19:50:04Z" uid="435038" user="4ajs" changeset="8210126" lat="52.1953991" lon="20.8928951">
    <tag k="addr:city" v="Warszawa@Warszawa Ursus"/>
    <tag k="addr:housenumber" v="6"/>
    <tag k="addr:street" v="1 Maja"/>
    <tag k="source" v="http://ump.waw.pl/ retrieved 11:07:14 02/24/09 (UMP-Warszawa/src/WARSZAWA_URSUS.ulice.txt)"/>
  </node>
  <node id="412129416" version="1" timestamp="2009-05-28T11:34:46Z" uid="20587" user="balrog-kun" changeset="1341971" lat="52.1855936" lon="20.9061976">
    <tag k="addr:city" v="Warszawa@Warszawa Ursus"/>
    <tag k="addr:housenumber" v="235"/>
    <tag k="addr:street" v="Aleje Jerozolimskie"/>
    <tag k="source" v="http://ump.waw.pl/ retrieved 11:07:14 02/24/09 (UMP-Warszawa/src/WARSZAWA_URSUS.ulice.txt)"/>
  </node>
  <node id="412129416" version="2" timestamp="2011-09-15T13:33:25Z" uid="477744" user="hormel" changeset="9308231" lat="52.18558" lon="20.906242">
    <tag k="addr:city" v="Warszawa@Warszawa Ursus"/>
    <tag k="addr:housenumber" v="235"/>
    <tag k="addr:street" v="Aleje Jerozolimskie"/>
    <tag k="source" v="http://ump.waw.pl/ retrieved 11:07:14 02/24/09 (UMP-Warszawa/src/WARSZAWA_URSUS.ulice.txt)"/>
  </node>
  <node id="412129417" version="1" timestamp="2009-05-28T11:34:46Z" uid="20587" user="balrog-kun" changeset="1341971" lat="52.2038404" lon="20.9212463">
    <tag k="addr:city" v="Warszawa@Warszawa Włochy"/>
    <tag k="addr:housenumber" v="6"/>
    <tag k="addr:street" v="Konewki"/>
    <tag k="source" v="http://ump.waw.pl/ retrieved 11:07:14 02/24/09 (UMP-Warszawa/src/WARSZAWA_WLOCHY.ulice.txt)"/>
  </node>
  <node id="412129418" version="1" timestamp="2009-05-28T11:34:46Z" uid="20587" user="balrog-kun" changeset="1341971" lat="52.1979634" lon="20.9062002">
    <tag k="addr:city" v="Warszawa@Warszawa Ursus"/>
    <tag k="addr:housenumber" v="26"/>
    <tag k="addr:street" v="Zapustna"/>
    <tag k="source" v="http://ump.waw.pl/ retrieved 11:07:14 02/24/09 (UMP-Warszawa/src/WARSZAWA_URSUS.ulice.txt)"/>
  </node>
  <node id="412129418" version="2" timestamp="2011-12-18T16:57:03Z" uid="477744" user="hormel" changeset="10148468" lat="52.1979634" lon="20.9062002"/>
  <node id="412129419" version="1" timestamp="2009-05-28T11:34:46Z" uid="20587" user="balrog-kun" changeset="1341971" lat="52.1978653" lon="20.9301188">
    <tag k="addr:city" v="Warszawa@Warszawa Włochy"/>
    <tag k="addr:housenumber" v="194"/>
    <tag k="addr:street" v="Aleje Jerozolimskie"/>
    <tag k="source" v="http://ump.waw.pl/ retrieved 11:07:14 02/24/09 (UMP-Warszawa/src/WARSZAWA_WLOCHY.ulice.txt)"/>
  </node>
  <node id="412129420" version="1" timestamp="2009-05-28T11:34:47Z" uid="20587" user="balrog-kun" changeset="1341971" lat="52.1943345" lon="20.8887396">
    <tag k="addr:city" v="Warszawa@Warszawa Ursus"/>
    <tag k="addr:housenumber" v="25"/>
    <tag k="addr:street" v="Bohaterów Warszawy"/>
    <tag k="source" v="http://ump.waw.pl/ retrieved 11:07:14 02/24/09 (UMP-Warszawa/src/WARSZAWA_URSUS.ulice.txt)"/>
  </node>
  <node id="412129421" version="1" timestamp="2009-05-28T11:34:47Z" uid="20587" user="balrog-kun" changeset="1341971" lat="52.1973998" lon="20.9293487">
    <tag k="addr:city" v="Warszawa@Warszawa Włochy"/>
    <tag k="addr:housenumber" v="196"/>
    <tag k="addr:street" v="Aleje Jerozolimskie"/>
    <tag k="source" v="http://ump.waw.pl/ retrieved 11:07:14 02/24/09 (UMP-Warszawa/src/WARSZAWA_WLOCHY.ulice.txt)"/>
  </node>
  <node id="412129422" version="1" timestamp="2009-05-28T11:34:47Z" uid="20587" user="balrog-kun" changeset="1341971" lat="52.1999201" lon="20.9176198">
    <tag k="addr:city" v="Warszawa@Warszawa Włochy"/>
    <tag k="addr:housenumber" v="25"/>
    <tag k="addr:street" v="Wilczycka"/>
    <tag k="source" v="http://ump.waw.pl/ retrieved 11:07:14 02/24/09 (UMP-Warszawa/src/WARSZAWA_WLOCHY.ulice.txt)"/>
  </node>
  <node id="412129423" version="1" timestamp="2009-05-28T11:34:47Z" uid="20587" user="balrog-kun" changeset="1341971" lat="52.1967398" lon="20.9110507">
    <tag k="addr:city" v="Warszawa@Warszawa Włochy"/>
    <tag k="addr:housenumber" v="28"/>
    <tag k="addr:street" v="Ryżowa"/>
    <tag k="source" v="http://ump.waw.pl/ retrieved 11:07:14 02/24/09 (UMP-Warszawa/src/WARSZAWA_WLOCHY.ulice.txt)"/>
  </node>
  <node id="412129423" version="2" timestamp="2011-06-30T11:48:45Z" uid="477744" user="hormel" changeset="8589704" lat="52.1966728" lon="20.9110529">
    <tag k="addr:city" v="Warszawa@Warszawa Włochy"/>
    <tag k="addr:housenumber" v="28"/>
    <tag k="addr:street" v="Ryżowa"/>
    <tag k="source" v="http://ump.waw.pl/ retrieved 11:07:14 02/24/09 (UMP-Warszawa/src/WARSZAWA_WLOCHY.ulice.txt)"/>
  </node>
  <node id="412129424" version="1" timestamp="2009-05-28T11:34:47Z" uid="20587" user="balrog-kun" changeset="1341971" lat="52.2033599" lon="20.9209937">
    <tag k="addr:city" v="Warszawa@Warszawa Włochy"/>
    <tag k="addr:housenumber" v="14"/>
    <tag k="addr:street" v="Konewki"/>
    <tag k="source" v="http://ump.waw.pl/ retrieved 11:07:14 02/24/09 (UMP-Warszawa/src/WARSZAWA_WLOCHY.ulice.txt)"/>
  </node>
  <node id="412129425" version="1" timestamp="2009-05-28T11:34:47Z" uid="20587" user="balrog-kun" changeset="1341971" lat="52.1948855" lon="20.8920931">
    <tag k="addr:city" v="Warszawa@Warszawa Ursus"/>
    <tag k="addr:housenumber" v="8"/>
    <tag k="addr:street" v="1 Maja"/>
    <tag k="source" v="http://ump.waw.pl/ retrieved 11:07:14 02/24/09 (UMP-Warszawa/src/WARSZAWA_URSUS.ulice.txt)"/>
  </node>
  <node id="412129425" version="2" timestamp="2011-06-11T18:19:17Z" uid="435038" user="4ajs" changeset="8408365" lat="52.1948855" lon="20.8920931"/>
  <node id="412129426" version="1" timestamp="2009-05-28T11:34:47Z" uid="20587" user="balrog-kun" changeset="1341971" lat="52.1946953" lon="20.8926753">
    <tag k="addr:city" v="Warszawa@Warszawa Ursus"/>
    <tag k="addr:housenumber" v="5"/>
    <tag k="addr:street" v="1 Maja"/>
    <tag k="source" v="http://ump.waw.pl/ retrieved 11:07:14 02/24/09 (UMP-Warszawa/src/WARSZAWA_URSUS.ulice.txt)"/>
  </node>
  <node id="412129426" version="2" timestamp="2011-06-11T18:27:28Z" uid="435038" user="4ajs" changeset="8408422" lat="52.1946953" lon="20.8926753"/>
  <node id="412129427" version="1" timestamp="2009-05-28T11:34:47Z" uid="20587" user="balrog-kun" changeset="1341971" lat="52.1966924" lon="20.9091971">
    <tag k="addr:city" v="Warszawa@Warszawa Ursus"/>
    <tag k="addr:housenumber" v="10"/>
    <tag k="addr:street" v="Zapustna"/>
    <tag k="source" v="http://ump.waw.pl/ retrieved 11:07:14 02/24/09 (UMP-Warszawa/src/WARSZAWA_URSUS.ulice.txt)"/>
  </node>
  <node id="412129427" version="2" timestamp="2011-09-05T15:00:37Z" uid="477744" user="hormel" changeset="9218536" lat="52.1968411" lon="20.90922">
    <tag k="addr:city" v="Warszawa@Warszawa Ursus"/>
    <tag k="addr:housenumber" v="10"/>
    <tag k="addr:street" v="Zapustna"/>
    <tag k="source" v="http://ump.waw.pl/ retrieved 11:07:14 02/24/09 (UMP-Warszawa/src/WARSZAWA_URSUS.ulice.txt)"/>
  </node>
  <node id="412129427" version="3" timestamp="2011-12-18T16:57:03Z" uid="477744" user="hormel" changeset="10148468" lat="52.1968411" lon="20.90922"/>
  <node id="412129428" version="1" timestamp="2009-05-28T11:34:47Z" uid="20587" user="balrog-kun" changeset="1341971" lat="52.1997886" lon="20.9137739">
    <tag k="addr:city" v="Warszawa@Warszawa Włochy"/>
    <tag k="addr:housenumber" v="2"/>
    <tag k="addr:street" v="Ryżowa"/>
    <tag k="source" v="http://ump.waw.pl/ retrieved 11:07:14 02/24/09 (UMP-Warszawa/src/WARSZAWA_WLOCHY.ulice.txt)"/>
  </node>
  <node id="412129428" version="2" timestamp="2011-06-30T11:48:45Z" uid="477744" user="hormel" changeset="8589704" lat="52.1998366" lon="20.9138205">
    <tag k="addr:city" v="Warszawa@Warszawa Włochy"/>
    <tag k="addr:housenumber" v="2"/>
    <tag k="addr:street" v="Ryżowa"/>
    <tag k="source" v="http://ump.waw.pl/ retrieved 11:07:14 02/24/09 (UMP-Warszawa/src/WARSZAWA_WLOCHY.ulice.txt)"/>
  </node>
  <node id="412129429" version="1" timestamp="2009-05-28T11:34:47Z" uid="20587" user="balrog-kun" changeset="1341971" lat="52.1906017" lon="20.9185858">
    <tag k="addr:city" v="Warszawa@Warszawa Ursus"/>
    <tag k="addr:housenumber" v="214"/>
    <tag k="addr:street" v="Aleje Jerozolimskie"/>
    <tag k="source" v="http://ump.waw.pl/ retrieved 11:07:14 02/24/09 (UMP-Warszawa/src/WARSZAWA_URSUS.ulice.txt)"/>
  </node>
  <node id="412129429" version="2" timestamp="2011-05-04T23:01:43Z" uid="100448" user="kietlak" changeset="8053499" lat="52.1906017" lon="20.9185858">
    <tag k="addr:city" v="Warszawa@Warszawa Ursus"/>
    <tag k="addr:housenumber" v="214"/>
    <tag k="addr:street" v="Aleje Jerozolimskie"/>
    <tag k="source" v="http://ump.waw.pl/ retrieved 11:07:14 02/24/09 (UMP-Warszawa/src/WARSZAWA_URSUS.ulice.txt)"/>
  </node>
  <node id="412129430" version="1" timestamp="2009-05-28T11:34:47Z" uid="20587" user="balrog-kun" changeset="1341971" lat="52.2043735" lon="20.9181242">
    <tag k="addr:city" v="Warszawa@Warszawa Włochy"/>
    <tag k="addr:housenumber" v="6"/>
    <tag k="addr:street" v="Wilczycka"/>
    <tag k="source" v="http://ump.waw.pl/ retrieved 11:07:14 02/24/09 (UMP-Warszawa/src/WARSZAWA_WLOCHY.ulice.txt)"/>
  </node>
  <node id="412129432" version="1" timestamp="2009-05-28T11:34:47Z" uid="20587" user="balrog-kun" changeset="1341971" lat="52.2016874" lon="20.9075298">
    <tag k="addr:city" v="Warszawa@Warszawa Włochy"/>
    <tag k="addr:housenumber" v="27"/>
    <tag k="addr:street" v="Solipska"/>
    <tag k="source" v="http://ump.waw.pl/ retrieved 11:07:14 02/24/09 (UMP-Warszawa/src/WARSZAWA_WLOCHY.ulice.txt)"/>
  </node>
  <node id="412129432" version="2" timestamp="2011-09-20T16:23:13Z" uid="477744" user="hormel" changeset="9352860" lat="52.2016332" lon="20.9075748">
    <tag k="addr:city" v="Warszawa@Warszawa Włochy"/>
    <tag k="addr:housenumber" v="29"/>
    <tag k="addr:street" v="Solipska"/>
    <tag k="source" v="http://ump.waw.pl/ retrieved 11:07:14 02/24/09 (UMP-Warszawa/src/WARSZAWA_WLOCHY.ulice.txt)"/>
  </node>
  <node id="412129433" version="1" timestamp="2009-05-28T11:34:47Z" uid="20587" user="balrog-kun" changeset="1341971" lat="52.1950663" lon="20.8867971">
    <tag k="addr:city" v="Warszawa@Warszawa Ursus"/>
    <tag k="addr:housenumber" v="35"/>
    <tag k="addr:street" v="Bohaterów Warszawy"/>
    <tag k="source" v="http://ump.waw.pl/ retrieved 11:07:14 02/24/09 (UMP-Warszawa/src/WARSZAWA_URSUS.ulice.txt)"/>
  </node>
  <node id="412129434" version="1" timestamp="2009-05-28T11:34:48Z" uid="20587" user="balrog-kun" changeset="1341971" lat="52.2024364" lon="20.936968">
    <tag k="addr:city" v="Warszawa@Warszawa Włochy"/>
    <tag k="addr:housenumber" v="180"/>
    <tag k="addr:street" v="Aleje Jerozolimskie"/>
    <tag k="source" v="http://ump.waw.pl/ retrieved 11:07:14 02/24/09 (UMP-Warszawa/src/WARSZAWA_WLOCHY.ulice.txt)"/>
  </node>
  <node id="412129434" version="2" timestamp="2011-09-15T12:11:19Z" uid="477744" user="hormel" changeset="9307614" lat="52.2026454" lon="20.937092">
    <tag k="addr:city" v="Warszawa@Warszawa Włochy"/>
    <tag k="addr:housenumber" v="180"/>
    <tag k="addr:street" v="Aleje Jerozolimskie"/>
    <tag k="source" v="http://ump.waw.pl/ retrieved 11:07:14 02/24/09 (UMP-Warszawa/src/WARSZAWA_WLOCHY.ulice.txt)"/>
  </node>
  <node id="412129434" version="3" timestamp="2011-09-22T07:53:34Z" uid="477744" user="hormel" changeset="9366294" lat="52.2026281" lon="20.9371779">
    <tag k="addr:city" v="Warszawa@Warszawa Włochy"/>
    <tag k="addr:housenumber" v="180"/>
    <tag k="addr:street" v="Aleje Jerozolimskie"/>
    <tag k="source" v="http://ump.waw.pl/ retrieved 11:07:14 02/24/09 (UMP-Warszawa/src/WARSZAWA_WLOCHY.ulice.txt)"/>
  </node>
  <node id="412129435" version="1" timestamp="2009-05-28T11:34:48Z" uid="20587" user="balrog-kun" changeset="1341971" lat="52.194622" lon="20.8936931">
    <tag k="addr:city" v="Warszawa@Warszawa Ursus"/>
    <tag k="addr:housenumber" v="13"/>
    <tag k="addr:street" v="Konińska"/>
    <tag k="source" v="http://ump.waw.pl/ retrieved 11:07:14 02/24/09 (UMP-Warszawa/src/WARSZAWA_URSUS.ulice.txt)"/>
  </node>
  <node id="412129436" version="1" timestamp="2009-05-28T11:34:48Z" uid="20587" user="balrog-kun" changeset="1341971" lat="52.2040973" lon="20.9180492">
    <tag k="addr:city" v="Warszawa@Warszawa Włochy"/>
    <tag k="addr:housenumber" v="8"/>
    <tag k="addr:street" v="Wilczycka"/>
    <tag k="source" v="http://ump.waw.pl/ retrieved 11:07:14 02/24/09 (UMP-Warszawa/src/WARSZAWA_WLOCHY.ulice.txt)"/>
  </node>
  <node id="412129437" version="1" timestamp="2009-05-28T11:34:48Z" uid="20587" user="balrog-kun" changeset="1341971" lat="52.1964669" lon="20.9279169">
    <tag k="addr:city" v="Warszawa@Warszawa Włochy"/>
    <tag k="addr:housenumber" v="198"/>
    <tag k="addr:street" v="Aleje Jerozolimskie"/>
    <tag k="source" v="http://ump.waw.pl/ retrieved 11:07:14 02/24/09 (UMP-Warszawa/src/WARSZAWA_WLOCHY.ulice.txt)"/>
  </node>
  <node id="412129438" version="1" timestamp="2009-05-28T11:34:48Z" uid="20587" user="balrog-kun" changeset="1341971" lat="52.2048957" lon="20.9182661">
    <tag k="addr:city" v="Warszawa@Warszawa Włochy"/>
    <tag k="addr:housenumber" v="4"/>
    <tag k="addr:street" v="Wilczycka"/>
    <tag k="source" v="http://ump.waw.pl/ retrieved 11:07:14 02/24/09 (UMP-Warszawa/src/WARSZAWA_WLOCHY.ulice.txt)"/>
  </node>
  <node id="412129439" version="1" timestamp="2009-05-28T11:34:48Z" uid="20587" user="balrog-kun" changeset="1341971" lat="52.2032495" lon="20.9379601">
    <tag k="addr:city" v="Warszawa@Warszawa Włochy"/>
    <tag k="addr:housenumber" v="176"/>
    <tag k="addr:street" v="Aleje Jerozolimskie"/>
    <tag k="source" v="http://ump.waw.pl/ retrieved 11:07:14 02/24/09 (UMP-Warszawa/src/WARSZAWA_WLOCHY.ulice.txt)"/>
  </node>
  <node id="412129439" version="2" timestamp="2011-09-15T12:11:19Z" uid="477744" user="hormel" changeset="9307614" lat="52.2039519" lon="20.9381833">
    <tag k="addr:city" v="Warszawa@Warszawa Włochy"/>
    <tag k="addr:housenumber" v="172"/>
    <tag k="addr:street" v="Aleje Jerozolimskie"/>
    <tag k="source" v="http://ump.waw.pl/ retrieved 11:07:14 02/24/09 (UMP-Warszawa/src/WARSZAWA_WLOCHY.ulice.txt)"/>
  </node>
  <node id="412129439" version="3" timestamp="2011-09-22T07:53:34Z" uid="477744" user="hormel" changeset="9366294" lat="52.2038908" lon="20.9385325">
    <tag k="addr:city" v="Warszawa@Warszawa Włochy"/>
    <tag k="addr:housenumber" v="172"/>
    <tag k="addr:street" v="Aleje Jerozolimskie"/>
    <tag k="source" v="http://ump.waw.pl/ retrieved 11:07:14 02/24/09 (UMP-Warszawa/src/WARSZAWA_WLOCHY.ulice.txt)"/>
  </node>
  <node id="412129440" version="1" timestamp="2009-05-28T11:34:48Z" uid="20587" user="balrog-kun" changeset="1341971" lat="52.1950803" lon="20.8933972">
    <tag k="addr:city" v="Warszawa@Warszawa Ursus"/>
    <tag k="addr:housenumber" v="4"/>
    <tag k="addr:street" v="Konińska"/>
    <tag k="source" v="http://ump.waw.pl/ retrieved 11:07:14 02/24/09 (UMP-Warszawa/src/WARSZAWA_URSUS.ulice.txt)"/>
  </node>
  <node id="412129440" version="2" timestamp="2011-05-20T15:43:07Z" uid="435038" user="4ajs" changeset="8199774" lat="52.1950588" lon="20.8938122">
    <tag k="addr:city" v="Warszawa@Warszawa Ursus"/>
    <tag k="addr:housenumber" v="4"/>
    <tag k="addr:street" v="Konińska"/>
    <tag k="source" v="http://ump.waw.pl/ retrieved 11:07:14 02/24/09 (UMP-Warszawa/src/WARSZAWA_URSUS.ulice.txt)"/>
  </node>
  <node id="412129441" version="1" timestamp="2009-05-28T11:34:48Z" uid="20587" user="balrog-kun" changeset="1341971" lat="52.1950028" lon="20.8857569">
    <tag k="addr:city" v="Warszawa@Warszawa Ursus"/>
    <tag k="addr:housenumber" v="6"/>
    <tag k="addr:street" v="Zakątek"/>
    <tag k="source" v="http://ump.waw.pl/ retrieved 11:07:14 02/24/09 (UMP-Warszawa/src/WARSZAWA_URSUS.ulice.txt)"/>
  </node>
  <node id="412129441" version="2" timestamp="2011-07-08T13:54:52Z" uid="435038" user="4ajs" changeset="8666521" lat="52.1949583" lon="20.8857647">
    <tag k="addr:city" v="Warszawa@Warszawa Ursus"/>
    <tag k="addr:housenumber" v="6"/>
    <tag k="addr:street" v="Zakątek"/>
    <tag k="source" v="http://ump.waw.pl/ retrieved 11:07:14 02/24/09 (UMP-Warszawa/src/WARSZAWA_URSUS.ulice.txt)"/>
  </node>
  <node id="412129442" version="1" timestamp="2009-05-28T11:34:48Z" uid="20587" user="balrog-kun" changeset="1341971" lat="52.1863435" lon="20.9089876">
    <tag k="addr:city" v="Warszawa@Warszawa Ursus"/>
    <tag k="addr:housenumber" v="231"/>
    <tag k="addr:street" v="Aleje Jerozolimskie"/>
    <tag k="source" v="http://ump.waw.pl/ retrieved 11:07:14 02/24/09 (UMP-Warszawa/src/WARSZAWA_URSUS.ulice.txt)"/>
  </node>
  <node id="412129442" version="2" timestamp="2011-09-15T13:33:25Z" uid="477744" user="hormel" changeset="9308231" lat="52.186681" lon="20.9088588">
    <tag k="addr:city" v="Warszawa@Warszawa Ursus"/>
    <tag k="addr:housenumber" v="231"/>
    <tag k="addr:street" v="Aleje Jerozolimskie"/>
    <tag k="source" v="http://ump.waw.pl/ retrieved 11:07:14 02/24/09 (UMP-Warszawa/src/WARSZAWA_URSUS.ulice.txt)"/>
  </node>
  <node id="412129443" version="1" timestamp="2009-05-28T11:34:48Z" uid="20587" user="balrog-kun" changeset="1341971" lat="52.1949424" lon="20.8867752">
    <tag k="addr:city" v="Warszawa@Warszawa Ursus"/>
    <tag k="addr:housenumber" v="4"/>
    <tag k="addr:street" v="Rynkowa"/>
    <tag k="source" v="http://ump.waw.pl/ retrieved 11:07:14 02/24/09 (UMP-Warszawa/src/WARSZAWA_URSUS.ulice.txt)"/>
  </node>
  <node id="412129444" version="1" timestamp="2009-05-28T11:34:48Z" uid="20587" user="balrog-kun" changeset="1341971" lat="52.2007486" lon="20.9085562">
    <tag k="addr:city" v="Warszawa@Warszawa Włochy"/>
    <tag k="addr:housenumber" v="16"/>
    <tag k="addr:street" v="Batalionu Włochy"/>
    <tag k="source" v="http://ump.waw.pl/ retrieved 11:07:14 02/24/09 (UMP-Warszawa/src/WARSZAWA_WLOCHY.ulice.txt)"/>
  </node>
  <node id="412129444" version="2" timestamp="2011-12-09T09:52:45Z" uid="441027" user="muzzy" changeset="10071664" lat="52.2007486" lon="20.9085562">
    <tag k="addr:city" v="Warszawa@Warszawa Włochy"/>
    <tag k="addr:housenumber" v="16"/>
    <tag k="addr:street" v="Batalionu &quot;Włochy&quot;"/>
    <tag k="source" v="http://ump.waw.pl/ retrieved 11:07:14 02/24/09 (UMP-Warszawa/src/WARSZAWA_WLOCHY.ulice.txt)"/>
  </node>
  <node id="412129445" version="1" timestamp="2009-05-28T11:34:48Z" uid="20587" user="balrog-kun" changeset="1341971" lat="52.195771" lon="20.8968795">
    <tag k="addr:city" v="Warszawa@Warszawa Ursus"/>
    <tag k="addr:housenumber" v="1"/>
    <tag k="addr:street" v="Sławka"/>
    <tag k="source" v="http://ump.waw.pl/ retrieved 11:07:14 02/24/09 (UMP-Warszawa/src/WARSZAWA_URSUS.ulice.txt)"/>
  </node>
  <node id="412129445" version="2" timestamp="2011-12-09T09:52:37Z" uid="441027" user="muzzy" changeset="10071664" lat="52.195771" lon="20.8968795">
    <tag k="addr:city" v="Warszawa@Warszawa Ursus"/>
    <tag k="addr:housenumber" v="1"/>
    <tag k="addr:street" v="Walerego Sławka"/>
    <tag k="source" v="http://ump.waw.pl/ retrieved 11:07:14 02/24/09 (UMP-Warszawa/src/WARSZAWA_URSUS.ulice.txt)"/>
  </node>
  <node id="412129446" version="1" timestamp="2009-05-28T11:34:48Z" uid="20587" user="balrog-kun" changeset="1341971" lat="52.1991338" lon="20.903318">
    <tag k="addr:city" v="Warszawa@Warszawa Włochy"/>
    <tag k="addr:housenumber" v="40"/>
    <tag k="addr:street" v="Zapustna"/>
    <tag k="source" v="http://ump.waw.pl/ retrieved 11:07:14 02/24/09 (UMP-Warszawa/src/WARSZAWA_WLOCHY.ulice.txt)"/>
  </node>
  <node id="412129446" version="2" timestamp="2011-12-18T17:38:44Z" uid="477744" user="hormel" changeset="10148884" lat="52.198999" lon="20.9034451">
    <tag k="addr:city" v="Warszawa@Warszawa Włochy"/>
    <tag k="addr:housenumber" v="40"/>
    <tag k="addr:street" v="Zapustna"/>
    <tag k="source" v="http://ump.waw.pl/ retrieved 11:07:14 02/24/09 (UMP-Warszawa/src/WARSZAWA_WLOCHY.ulice.txt)"/>
  </node>
  <node id="412129447" version="1" timestamp="2009-05-28T11:34:48Z" uid="20587" user="balrog-kun" changeset="1341971" lat="52.1959417" lon="20.8886192">
    <tag k="addr:city" v="Warszawa@Warszawa Ursus"/>
    <tag k="addr:housenumber" v="2"/>
    <tag k="addr:street" v="Braterstwa Broni"/>
    <tag k="source" v="http://ump.waw.pl/ retrieved 11:07:14 02/24/09 (UMP-Warszawa/src/WARSZAWA_URSUS.ulice.txt)"/>
  </node>
  <node id="412129448" version="1" timestamp="2009-05-28T11:34:48Z" uid="20587" user="balrog-kun" changeset="1341971" lat="52.1946076" lon="20.8843556">
    <tag k="addr:city" v="Warszawa@Warszawa Ursus"/>
    <tag k="addr:housenumber" v="15"/>
    <tag k="addr:street" v="Cierlicka"/>
    <tag k="source" v="http://ump.waw.pl/ retrieved 11:07:14 02/24/09 (UMP-Warszawa/src/WARSZAWA_URSUS.ulice.txt)"/>
  </node>
  <node id="412129449" version="1" timestamp="2009-05-28T11:34:48Z" uid="20587" user="balrog-kun" changeset="1341971" lat="52.197605" lon="20.9072927">
    <tag k="addr:city" v="Warszawa@Warszawa Ursus"/>
    <tag k="addr:housenumber" v="24"/>
    <tag k="addr:street" v="Zapustna"/>
    <tag k="source" v="http://ump.waw.pl/ retrieved 11:07:14 02/24/09 (UMP-Warszawa/src/WARSZAWA_URSUS.ulice.txt)"/>
  </node>
  <node id="412129449" version="2" timestamp="2011-12-18T16:57:04Z" uid="477744" user="hormel" changeset="10148468" lat="52.197605" lon="20.9072927"/>
  <node id="412129450" version="1" timestamp="2009-05-28T11:34:48Z" uid="20587" user="balrog-kun" changeset="1341971" lat="52.1957151" lon="20.8849421">
    <tag k="addr:city" v="Warszawa@Warszawa Ursus"/>
    <tag k="addr:housenumber" v="47"/>
    <tag k="addr:street" v="Bohaterów Warszawy"/>
    <tag k="source" v="http://ump.waw.pl/ retrieved 11:07:14 02/24/09 (UMP-Warszawa/src/WARSZAWA_URSUS.ulice.txt)"/>
  </node>
  <node id="412129451" version="1" timestamp="2009-05-28T11:34:48Z" uid="20587" user="balrog-kun" changeset="1341971" lat="52.1955545" lon="20.8879301">
    <tag k="addr:city" v="Warszawa@Warszawa Ursus"/>
    <tag k="addr:housenumber" v="6"/>
    <tag k="addr:street" v="Braterstwa Broni"/>
    <tag k="source" v="http://ump.waw.pl/ retrieved 11:07:14 02/24/09 (UMP-Warszawa/src/WARSZAWA_URSUS.ulice.txt)"/>
  </node>
  <node id="412129453" version="1" timestamp="2009-05-28T11:34:48Z" uid="20587" user="balrog-kun" changeset="1341971" lat="52.2030531" lon="20.9183507">
    <tag k="addr:city" v="Warszawa@Warszawa Włochy"/>
    <tag k="addr:housenumber" v="9"/>
    <tag k="addr:street" v="Wilczycka"/>
    <tag k="source" v="http://ump.waw.pl/ retrieved 11:07:14 02/24/09 (UMP-Warszawa/src/WARSZAWA_WLOCHY.ulice.txt)"/>
  </node>
  <node id="412129455" version="1" timestamp="2009-05-28T11:34:48Z" uid="20587" user="balrog-kun" changeset="1341971" lat="52.1984468" lon="20.9125534">
    <tag k="addr:city" v="Warszawa@Warszawa Włochy"/>
    <tag k="addr:housenumber" v="14"/>
    <tag k="addr:street" v="Ryżowa"/>
    <tag k="source" v="http://ump.waw.pl/ retrieved 11:07:14 02/24/09 (UMP-Warszawa/src/WARSZAWA_WLOCHY.ulice.txt)"/>
  </node>
  <node id="412129455" version="2" timestamp="2011-06-30T11:48:46Z" uid="477744" user="hormel" changeset="8589704" lat="52.1984555" lon="20.9126458">
    <tag k="addr:city" v="Warszawa@Warszawa Włochy"/>
    <tag k="addr:housenumber" v="14"/>
    <tag k="addr:street" v="Ryżowa"/>
    <tag k="source" v="http://ump.waw.pl/ retrieved 11:07:14 02/24/09 (UMP-Warszawa/src/WARSZAWA_WLOCHY.ulice.txt)"/>
  </node>
  <node id="412129456" version="1" timestamp="2009-05-28T11:34:48Z" uid="20587" user="balrog-kun" changeset="1341971" lat="52.1958476" lon="20.8930907">
    <tag k="addr:city" v="Warszawa@Warszawa Ursus"/>
    <tag k="addr:housenumber" v="2"/>
    <tag k="addr:street" v="1 Maja"/>
    <tag k="source" v="http://ump.waw.pl/ retrieved 11:07:14 02/24/09 (UMP-Warszawa/src/WARSZAWA_URSUS.ulice.txt)"/>
  </node>
  <node id="412129456" version="2" timestamp="2011-05-15T13:56:32Z" uid="435038" user="4ajs" changeset="8152037" lat="52.1957273" lon="20.8931758">
    <tag k="addr:city" v="Warszawa@Warszawa Ursus"/>
    <tag k="addr:housenumber" v="2"/>
    <tag k="addr:street" v="1 Maja"/>
    <tag k="source" v="http://ump.waw.pl/ retrieved 11:07:14 02/24/09 (UMP-Warszawa/src/WARSZAWA_URSUS.ulice.txt)"/>
  </node>
  <node id="412129458" version="1" timestamp="2009-05-28T11:34:49Z" uid="20587" user="balrog-kun" changeset="1341971" lat="52.1945025" lon="20.8948301">
    <tag k="addr:city" v="Warszawa@Warszawa Ursus"/>
    <tag k="addr:housenumber" v="2"/>
    <tag k="addr:street" v="Konińska"/>
    <tag k="source" v="http://ump.waw.pl/ retrieved 11:07:14 02/24/09 (UMP-Warszawa/src/WARSZAWA_URSUS.ulice.txt)"/>
  </node>
  <node id="412129460" version="1" timestamp="2009-05-28T11:34:49Z" uid="20587" user="balrog-kun" changeset="1341971" lat="52.1884364" lon="20.9167651">
    <tag k="addr:city" v="Warszawa@Warszawa Ursus"/>
    <tag k="addr:housenumber" v="225"/>
    <tag k="addr:street" v="Aleje Jerozolimskie"/>
    <tag k="source" v="http://ump.waw.pl/ retrieved 11:07:14 02/24/09 (UMP-Warszawa/src/WARSZAWA_URSUS.ulice.txt)"/>
  </node>
  <node id="412129460" version="2" timestamp="2011-09-15T13:33:25Z" uid="477744" user="hormel" changeset="9308231" lat="52.1872288" lon="20.911017">
    <tag k="addr:city" v="Warszawa@Warszawa Ursus"/>
    <tag k="addr:housenumber" v="225"/>
    <tag k="addr:street" v="Aleje Jerozolimskie"/>
    <tag k="source" v="http://ump.waw.pl/ retrieved 11:07:14 02/24/09 (UMP-Warszawa/src/WARSZAWA_URSUS.ulice.txt)"/>
  </node>
  <node id="412129461" version="1" timestamp="2009-05-28T11:34:49Z" uid="20587" user="balrog-kun" changeset="1341971" lat="52.1960564" lon="20.9113377">
    <tag k="addr:city" v="Warszawa@Warszawa Włochy"/>
    <tag k="addr:housenumber" v="34"/>
    <tag k="addr:street" v="Ryżowa"/>
    <tag k="source" v="http://ump.waw.pl/ retrieved 11:07:14 02/24/09 (UMP-Warszawa/src/WARSZAWA_WLOCHY.ulice.txt)"/>
  </node>
  <node id="412129461" version="2" timestamp="2011-06-30T11:48:44Z" uid="477744" user="hormel" changeset="8589704" lat="52.1941129" lon="20.9102375">
    <tag k="addr:city" v="Warszawa@Warszawa Włochy"/>
    <tag k="addr:housenumber" v="31"/>
    <tag k="addr:street" v="Ryżowa"/>
    <tag k="source" v="http://ump.waw.pl/ retrieved 11:07:14 02/24/09 (UMP-Warszawa/src/WARSZAWA_WLOCHY.ulice.txt)"/>
  </node>
  <node id="412129465" version="1" timestamp="2009-05-28T11:34:49Z" uid="20587" user="balrog-kun" changeset="1341971" lat="52.1937563" lon="20.9238724">
    <tag k="addr:city" v="Warszawa@Warszawa Ursus"/>
    <tag k="addr:housenumber" v="202"/>
    <tag k="addr:street" v="Aleje Jerozolimskie"/>
    <tag k="source" v="http://ump.waw.pl/ retrieved 11:07:14 02/24/09 (UMP-Warszawa/src/WARSZAWA_URSUS.ulice.txt)"/>
  </node>
  <node id="412129465" version="2" timestamp="2011-06-28T23:41:17Z" uid="477744" user="hormel" changeset="8576700" lat="52.1936674" lon="20.9237157">
    <tag k="addr:city" v="Warszawa@Warszawa Ursus"/>
    <tag k="addr:housenumber" v="202"/>
    <tag k="addr:street" v="Aleje Jerozolimskie"/>
    <tag k="source" v="http://ump.waw.pl/ retrieved 11:07:14 02/24/09 (UMP-Warszawa/src/WARSZAWA_URSUS.ulice.txt)"/>
  </node>
  <node id="412129467" version="1" timestamp="2009-05-28T11:34:49Z" uid="20587" user="balrog-kun" changeset="1341971" lat="52.187597" lon="20.9080866">
    <tag k="addr:city" v="Warszawa@Warszawa Ursus"/>
    <tag k="addr:housenumber" v="232"/>
    <tag k="addr:street" v="Aleje Jerozolimskie"/>
    <tag k="source" v="http://ump.waw.pl/ retrieved 11:07:14 02/24/09 (UMP-Warszawa/src/WARSZAWA_URSUS.ulice.txt)"/>
  </node>
  <node id="412129467" version="2" timestamp="2011-06-30T11:48:46Z" uid="477744" user="hormel" changeset="8589704" lat="52.1869624" lon="20.9076494">
    <tag k="addr:city" v="Warszawa@Warszawa Ursus"/>
    <tag k="addr:housenumber" v="232"/>
    <tag k="addr:street" v="Aleje Jerozolimskie"/>
    <tag k="source" v="http://ump.waw.pl/ retrieved 11:07:14 02/24/09 (UMP-Warszawa/src/WARSZAWA_URSUS.ulice.txt)"/>
  </node>
  <node id="412129467" version="3" timestamp="2011-08-02T22:29:18Z" uid="100448" user="kietlak" changeset="8905799" lat="52.1870046" lon="20.9077488">
    <tag k="addr:city" v="Warszawa@Warszawa Ursus"/>
    <tag k="addr:housenumber" v="232"/>
    <tag k="addr:street" v="Aleje Jerozolimskie"/>
    <tag k="source" v="http://ump.waw.pl/ retrieved 11:07:14 02/24/09 (UMP-Warszawa/src/WARSZAWA_URSUS.ulice.txt)"/>
  </node>
  <node id="412129469" version="1" timestamp="2009-05-28T11:34:49Z" uid="20587" user="balrog-kun" changeset="1341971" lat="52.2047974" lon="20.9188647">
    <tag k="addr:city" v="Warszawa@Warszawa Włochy"/>
    <tag k="addr:housenumber" v="1"/>
    <tag k="addr:street" v="Wilczycka"/>
    <tag k="source" v="http://ump.waw.pl/ retrieved 11:07:14 02/24/09 (UMP-Warszawa/src/WARSZAWA_WLOCHY.ulice.txt)"/>
  </node>
  <node id="412129470" version="1" timestamp="2009-05-28T11:34:49Z" uid="20587" user="balrog-kun" changeset="1341971" lat="52.1950447" lon="20.8851766">
    <tag k="addr:city" v="Warszawa@Warszawa Ursus"/>
    <tag k="addr:housenumber" v="34"/>
    <tag k="addr:street" v="Kościuszki"/>
    <tag k="source" v="http://ump.waw.pl/ retrieved 11:07:14 02/24/09 (UMP-Warszawa/src/WARSZAWA_URSUS.ulice.txt)"/>
  </node>
  <node id="412129470" version="2" timestamp="2009-10-31T22:51:16Z" uid="20587" user="balrog-kun" changeset="3002253" lat="52.1951072" lon="20.8851722">
    <tag k="addr:city" v="Warszawa@Warszawa Ursus"/>
    <tag k="addr:housenumber" v="34"/>
    <tag k="addr:street" v="Kościuszki"/>
    <tag k="source" v="http://ump.waw.pl/ retrieved 11:07:14 02/24/09 (UMP-Warszawa/src/WARSZAWA_URSUS.ulice.txt)"/>
  </node>
  <node id="412129470" version="3" timestamp="2011-12-09T09:53:04Z" uid="441027" user="muzzy" changeset="10071664" lat="52.1951072" lon="20.8851722">
    <tag k="addr:city" v="Warszawa@Warszawa Ursus"/>
    <tag k="addr:housenumber" v="34"/>
    <tag k="addr:street" v="Tadeusza Kościuszki"/>
    <tag k="source" v="http://ump.waw.pl/ retrieved 11:07:14 02/24/09 (UMP-Warszawa/src/WARSZAWA_URSUS.ulice.txt)"/>
  </node>
  <node id="412129471" version="1" timestamp="2009-05-28T11:34:49Z" uid="20587" user="balrog-kun" changeset="1341971" lat="52.1977838" lon="20.9140748">
    <tag k="addr:city" v="Warszawa@Warszawa Włochy"/>
    <tag k="addr:housenumber" v="13"/>
    <tag k="addr:street" v="Ryżowa"/>
    <tag k="source" v="http://ump.waw.pl/ retrieved 11:07:14 02/24/09 (UMP-Warszawa/src/WARSZAWA_WLOCHY.ulice.txt)"/>
  </node>
  <node id="412129471" version="2" timestamp="2011-09-08T09:18:12Z" uid="477744" user="hormel" changeset="9243807" lat="52.1977838" lon="20.9140748"/>
  <node id="412129473" version="1" timestamp="2009-05-28T11:34:49Z" uid="20587" user="balrog-kun" changeset="1341971" lat="52.2068356" lon="20.9427767">
    <tag k="addr:city" v="Warszawa@Warszawa Włochy"/>
    <tag k="addr:housenumber" v="168"/>
    <tag k="addr:street" v="Aleje Jerozolimskie"/>
    <tag k="source" v="http://ump.waw.pl/ retrieved 11:07:14 02/24/09 (UMP-Warszawa/src/WARSZAWA_WLOCHY.ulice.txt)"/>
  </node>
  <node id="412129475" version="1" timestamp="2009-05-28T11:34:49Z" uid="20587" user="balrog-kun" changeset="1341971" lat="52.1943601" lon="20.8966139">
    <tag k="addr:city" v="Warszawa@Warszawa Ursus"/>
    <tag k="addr:housenumber" v="5"/>
    <tag k="addr:street" v="Sławka"/>
    <tag k="source" v="http://ump.waw.pl/ retrieved 11:07:14 02/24/09 (UMP-Warszawa/src/WARSZAWA_URSUS.ulice.txt)"/>
  </node>
  <node id="412129475" version="2" timestamp="2010-08-25T10:59:47Z" uid="338101" user="wojarosz" changeset="5588446" lat="52.1943601" lon="20.8966139">
    <tag k="addr:housenumber" v="5"/>
    <tag k="addr:street" v="Sławka"/>
    <tag k="source" v="http://ump.waw.pl/ retrieved 11:07:14 02/24/09 (UMP-Warszawa/src/WARSZAWA_URSUS.ulice.txt)"/>
  </node>
  <node id="412129475" version="3" timestamp="2011-12-09T09:53:11Z" uid="441027" user="muzzy" changeset="10071664" lat="52.1943601" lon="20.8966139">
    <tag k="addr:housenumber" v="5"/>
    <tag k="addr:street" v="Walerego Sławka"/>
    <tag k="source" v="http://ump.waw.pl/ retrieved 11:07:14 02/24/09 (UMP-Warszawa/src/WARSZAWA_URSUS.ulice.txt)"/>
  </node>
  <node id="412129476" version="1" timestamp="2009-05-28T11:34:49Z" uid="20587" user="balrog-kun" changeset="1341971" lat="52.2001475" lon="20.9169914">
    <tag k="addr:city" v="Warszawa@Warszawa Włochy"/>
    <tag k="addr:housenumber" v="28"/>
    <tag k="addr:street" v="Wilczycka"/>
    <tag k="source" v="http://ump.waw.pl/ retrieved 11:07:14 02/24/09 (UMP-Warszawa/src/WARSZAWA_WLOCHY.ulice.txt)"/>
  </node>
  <node id="412129478" version="1" timestamp="2009-05-28T11:34:49Z" uid="20587" user="balrog-kun" changeset="1341971" lat="52.1980057" lon="20.9121334">
    <tag k="addr:city" v="Warszawa@Warszawa Włochy"/>
    <tag k="addr:housenumber" v="18"/>
    <tag k="addr:street" v="Ryżowa"/>
    <tag k="source" v="http://ump.waw.pl/ retrieved 11:07:14 02/24/09 (UMP-Warszawa/src/WARSZAWA_WLOCHY.ulice.txt)"/>
  </node>
  <node id="412129478" version="2" timestamp="2011-06-30T11:48:44Z" uid="477744" user="hormel" changeset="8589704" lat="52.1980444" lon="20.9122365">
    <tag k="addr:city" v="Warszawa@Warszawa Włochy"/>
    <tag k="addr:housenumber" v="16"/>
    <tag k="addr:street" v="Ryżowa"/>
    <tag k="source" v="http://ump.waw.pl/ retrieved 11:07:14 02/24/09 (UMP-Warszawa/src/WARSZAWA_WLOCHY.ulice.txt)"/>
  </node>
  <node id="412129479" version="1" timestamp="2009-05-28T11:34:49Z" uid="20587" user="balrog-kun" changeset="1341971" lat="52.2010851" lon="20.9088151">
    <tag k="addr:city" v="Warszawa@Warszawa Włochy"/>
    <tag k="addr:housenumber" v="2"/>
    <tag k="addr:street" v="Batalionu Włochy"/>
    <tag k="source" v="http://ump.waw.pl/ retrieved 11:07:14 02/24/09 (UMP-Warszawa/src/WARSZAWA_WLOCHY.ulice.txt)"/>
  </node>
  <node id="412129479" version="2" timestamp="2011-12-09T09:52:50Z" uid="441027" user="muzzy" changeset="10071664" lat="52.2010851" lon="20.9088151">
    <tag k="addr:city" v="Warszawa@Warszawa Włochy"/>
    <tag k="addr:housenumber" v="2"/>
    <tag k="addr:street" v="Batalionu &quot;Włochy&quot;"/>
    <tag k="source" v="http://ump.waw.pl/ retrieved 11:07:14 02/24/09 (UMP-Warszawa/src/WARSZAWA_WLOCHY.ulice.txt)"/>
  </node>
  <node id="412129481" version="1" timestamp="2009-05-28T11:34:49Z" uid="20587" user="balrog-kun" changeset="1341971" lat="52.1935889" lon="20.8906581">
    <tag k="addr:city" v="Warszawa@Warszawa Ursus"/>
    <tag k="addr:housenumber" v="13"/>
    <tag k="addr:street" v="Bohaterów Warszawy"/>
    <tag k="source" v="http://ump.waw.pl/ retrieved 11:07:14 02/24/09 (UMP-Warszawa/src/WARSZAWA_URSUS.ulice.txt)"/>
  </node>
  <node id="412129482" version="1" timestamp="2009-05-28T11:34:49Z" uid="20587" user="balrog-kun" changeset="1341971" lat="52.1949207" lon="20.8873403">
    <tag k="addr:city" v="Warszawa@Warszawa Ursus"/>
    <tag k="addr:housenumber" v="33"/>
    <tag k="addr:street" v="Bohaterów Warszawy"/>
    <tag k="source" v="http://ump.waw.pl/ retrieved 11:07:14 02/24/09 (UMP-Warszawa/src/WARSZAWA_URSUS.ulice.txt)"/>
  </node>
  <node id="412129482" version="2" timestamp="2009-10-31T22:49:01Z" uid="20587" user="balrog-kun" changeset="3002253" lat="52.1947657" lon="20.8874512">
    <tag k="addr:city" v="Warszawa@Warszawa Ursus"/>
    <tag k="addr:housenumber" v="33"/>
    <tag k="addr:street" v="Bohaterów Warszawy"/>
    <tag k="source" v="http://ump.waw.pl/ retrieved 11:07:14 02/24/09 (UMP-Warszawa/src/WARSZAWA_URSUS.ulice.txt)"/>
  </node>
  <node id="412129483" version="1" timestamp="2009-05-28T11:34:49Z" uid="20587" user="balrog-kun" changeset="1341971" lat="52.2019078" lon="20.9068878">
    <tag k="addr:city" v="Warszawa@Warszawa Włochy"/>
    <tag k="addr:housenumber" v="37"/>
    <tag k="addr:street" v="Solipska"/>
    <tag k="source" v="http://ump.waw.pl/ retrieved 11:07:14 02/24/09 (UMP-Warszawa/src/WARSZAWA_WLOCHY.ulice.txt)"/>
  </node>
  <node id="412129483" version="2" timestamp="2011-09-20T16:23:13Z" uid="477744" user="hormel" changeset="9352860" lat="52.2019123" lon="20.9066051">
    <tag k="addr:city" v="Warszawa@Warszawa Włochy"/>
    <tag k="addr:housenumber" v="37B"/>
    <tag k="addr:street" v="Solipska"/>
    <tag k="source" v="http://ump.waw.pl/ retrieved 11:07:14 02/24/09 (UMP-Warszawa/src/WARSZAWA_WLOCHY.ulice.txt)"/>
  </node>
  <node id="412129484" version="1" timestamp="2009-05-28T11:34:50Z" uid="20587" user="balrog-kun" changeset="1341971" lat="52.1943738" lon="20.8868062">
    <tag k="addr:city" v="Warszawa@Warszawa Ursus"/>
    <tag k="addr:housenumber" v="7"/>
    <tag k="addr:street" v="Rynkowa"/>
    <tag k="source" v="http://ump.waw.pl/ retrieved 11:07:14 02/24/09 (UMP-Warszawa/src/WARSZAWA_URSUS.ulice.txt)"/>
  </node>
  <node id="412129484" version="2" timestamp="2009-10-31T22:51:17Z" uid="20587" user="balrog-kun" changeset="3002253" lat="52.1943439" lon="20.8868328">
    <tag k="addr:city" v="Warszawa@Warszawa Ursus"/>
    <tag k="addr:housenumber" v="7"/>
    <tag k="addr:street" v="Rynkowa"/>
    <tag k="source" v="http://ump.waw.pl/ retrieved 11:07:14 02/24/09 (UMP-Warszawa/src/WARSZAWA_URSUS.ulice.txt)"/>
  </node>
  <node id="412129485" version="1" timestamp="2009-05-28T11:34:50Z" uid="20587" user="balrog-kun" changeset="1341971" lat="52.1938801" lon="20.8859416">
    <tag k="addr:city" v="Warszawa@Warszawa Ursus"/>
    <tag k="addr:housenumber" v="9"/>
    <tag k="addr:street" v="Cierlicka"/>
    <tag k="source" v="http://ump.waw.pl/ retrieved 11:07:14 02/24/09 (UMP-Warszawa/src/WARSZAWA_URSUS.ulice.txt)"/>
  </node>
  <node id="412129486" version="1" timestamp="2009-05-28T11:34:50Z" uid="20587" user="balrog-kun" changeset="1341971" lat="52.1985853" lon="20.9415267">
    <tag k="addr:city" v="Warszawa@Warszawa Włochy"/>
    <tag k="addr:housenumber" v="8"/>
    <tag k="addr:street" v="Równoległa"/>
    <tag k="source" v="http://ump.waw.pl/ retrieved 11:07:14 02/24/09 (UMP-Warszawa/src/WARSZAWA_WLOCHY.ulice.txt)"/>
  </node>
  <node id="412129487" version="1" timestamp="2009-05-28T11:34:50Z" uid="20587" user="balrog-kun" changeset="1341971" lat="52.1952448" lon="20.8860691">
    <tag k="addr:city" v="Warszawa@Warszawa Ursus"/>
    <tag k="addr:housenumber" v="21"/>
    <tag k="addr:street" v="Kościuszki"/>
    <tag k="source" v="http://ump.waw.pl/ retrieved 11:07:14 02/24/09 (UMP-Warszawa/src/WARSZAWA_URSUS.ulice.txt)"/>
  </node>
  <node id="412129487" version="2" timestamp="2011-12-09T09:52:54Z" uid="441027" user="muzzy" changeset="10071664" lat="52.1952448" lon="20.8860691">
    <tag k="addr:city" v="Warszawa@Warszawa Ursus"/>
    <tag k="addr:housenumber" v="21"/>
    <tag k="addr:street" v="Tadeusza Kościuszki"/>
    <tag k="source" v="http://ump.waw.pl/ retrieved 11:07:14 02/24/09 (UMP-Warszawa/src/WARSZAWA_URSUS.ulice.txt)"/>
  </node>
  <node id="412129488" version="1" timestamp="2009-05-28T11:34:50Z" uid="20587" user="balrog-kun" changeset="1341971" lat="52.1940818" lon="20.8865148">
    <tag k="addr:city" v="Warszawa@Warszawa Ursus"/>
    <tag k="addr:housenumber" v="13"/>
    <tag k="addr:street" v="Rynkowa"/>
    <tag k="source" v="http://ump.waw.pl/ retrieved 11:07:14 02/24/09 (UMP-Warszawa/src/WARSZAWA_URSUS.ulice.txt)"/>
  </node>
  <node id="412129488" version="2" timestamp="2009-10-31T22:51:17Z" uid="20587" user="balrog-kun" changeset="3002253" lat="52.1940519" lon="20.8865414">
    <tag k="addr:city" v="Warszawa@Warszawa Ursus"/>
    <tag k="addr:housenumber" v="13"/>
    <tag k="addr:street" v="Rynkowa"/>
    <tag k="source" v="http://ump.waw.pl/ retrieved 11:07:14 02/24/09 (UMP-Warszawa/src/WARSZAWA_URSUS.ulice.txt)"/>
  </node>
  <node id="412129489" version="1" timestamp="2009-05-28T11:34:50Z" uid="20587" user="balrog-kun" changeset="1341971" lat="52.1960113" lon="20.885294">
    <tag k="addr:city" v="Warszawa@Warszawa Ursus"/>
    <tag k="addr:housenumber" v="34"/>
    <tag k="addr:street" v="Bohaterów Warszawy"/>
    <tag k="source" v="http://ump.waw.pl/ retrieved 11:07:14 02/24/09 (UMP-Warszawa/src/WARSZAWA_URSUS.ulice.txt)"/>
  </node>
  <node id="412129490" version="1" timestamp="2009-05-28T11:34:50Z" uid="20587" user="balrog-kun" changeset="1341971" lat="52.1964987" lon="20.9101112">
    <tag k="addr:city" v="Warszawa@Warszawa Ursus"/>
    <tag k="addr:housenumber" v="8"/>
    <tag k="addr:street" v="Zapustna"/>
    <tag k="source" v="http://ump.waw.pl/ retrieved 11:07:14 02/24/09 (UMP-Warszawa/src/WARSZAWA_URSUS.ulice.txt)"/>
  </node>
  <node id="412129490" version="2" timestamp="2011-12-18T16:56:58Z" uid="477744" user="hormel" changeset="10148468" lat="52.1963696" lon="20.9099461">
    <tag k="addr:city" v="Warszawa@Warszawa Ursus"/>
    <tag k="addr:housenumber" v="5"/>
    <tag k="addr:street" v="Zapustna"/>
    <tag k="source" v="http://ump.waw.pl/ retrieved 11:07:14 02/24/09 (UMP-Warszawa/src/WARSZAWA_URSUS.ulice.txt)"/>
  </node>
  <node id="412129491" version="1" timestamp="2009-05-28T11:34:50Z" uid="20587" user="balrog-kun" changeset="1341971" lat="52.2002035" lon="20.902459">
    <tag k="addr:city" v="Warszawa@Warszawa Włochy"/>
    <tag k="addr:housenumber" v="42"/>
    <tag k="addr:street" v="Zapustna"/>
    <tag k="source" v="http://ump.waw.pl/ retrieved 11:07:14 02/24/09 (UMP-Warszawa/src/WARSZAWA_WLOCHY.ulice.txt)"/>
  </node>
  <node id="412129491" version="2" timestamp="2011-06-27T10:59:49Z" uid="477744" user="hormel" changeset="8560844" lat="52.2002035" lon="20.902459"/>
  <node id="412129492" version="1" timestamp="2009-05-28T11:34:50Z" uid="20587" user="balrog-kun" changeset="1341971" lat="52.1996393" lon="20.9312463">
    <tag k="addr:city" v="Warszawa@Warszawa Włochy"/>
    <tag k="addr:housenumber" v="184"/>
    <tag k="addr:street" v="Aleje Jerozolimskie"/>
    <tag k="source" v="http://ump.waw.pl/ retrieved 11:07:14 02/24/09 (UMP-Warszawa/src/WARSZAWA_WLOCHY.ulice.txt)"/>
  </node>
  <node id="412129493" version="1" timestamp="2009-05-28T11:34:50Z" uid="20587" user="balrog-kun" changeset="1341971" lat="52.1949509" lon="20.8847824">
    <tag k="addr:city" v="Warszawa@Warszawa Ursus"/>
    <tag k="addr:housenumber" v="6"/>
    <tag k="addr:street" v="Cierlicka"/>
    <tag k="source" v="http://ump.waw.pl/ retrieved 11:07:14 02/24/09 (UMP-Warszawa/src/WARSZAWA_URSUS.ulice.txt)"/>
  </node>
  <node id="412129494" version="1" timestamp="2009-05-28T11:34:50Z" uid="20587" user="balrog-kun" changeset="1341971" lat="52.2005482" lon="20.9178122">
    <tag k="addr:city" v="Warszawa@Warszawa Włochy"/>
    <tag k="addr:housenumber" v="23"/>
    <tag k="addr:street" v="Wilczycka"/>
    <tag k="source" v="http://ump.waw.pl/ retrieved 11:07:14 02/24/09 (UMP-Warszawa/src/WARSZAWA_WLOCHY.ulice.txt)"/>
  </node>
  <node id="412129495" version="1" timestamp="2009-05-28T11:34:50Z" uid="20587" user="balrog-kun" changeset="1341971" lat="52.1998144" lon="20.8996229">
    <tag k="addr:city" v="Warszawa@Warszawa Ursus"/>
    <tag k="addr:housenumber" v="17"/>
    <tag k="addr:street" v="Poczty Gdańskiej"/>
    <tag k="source" v="http://ump.waw.pl/ retrieved 11:07:14 02/24/09 (UMP-Warszawa/src/WARSZAWA_URSUS.ulice.txt)"/>
  </node>
  <node id="412129495" version="2" timestamp="2012-01-01T19:37:21Z" uid="435038" user="4ajs" changeset="10264921" lat="52.1998472" lon="20.89973">
    <tag k="addr:city" v="Warszawa@Warszawa Ursus"/>
    <tag k="addr:housenumber" v="2"/>
    <tag k="addr:street" v="Poczty Gdańskiej"/>
  </node>
  <node id="412129496" version="1" timestamp="2009-05-28T11:34:50Z" uid="20587" user="balrog-kun" changeset="1341971" lat="52.1994002" lon="20.9173886">
    <tag k="addr:city" v="Warszawa@Warszawa Włochy"/>
    <tag k="addr:housenumber" v="31"/>
    <tag k="addr:street" v="Wilczycka"/>
    <tag k="source" v="http://ump.waw.pl/ retrieved 11:07:14 02/24/09 (UMP-Warszawa/src/WARSZAWA_WLOCHY.ulice.txt)"/>
  </node>
  <node id="412129497" version="1" timestamp="2009-05-28T11:34:50Z" uid="20587" user="balrog-kun" changeset="1341971" lat="52.2043506" lon="20.9187398">
    <tag k="addr:city" v="Warszawa@Warszawa Włochy"/>
    <tag k="addr:housenumber" v="3"/>
    <tag k="addr:street" v="Wilczycka"/>
    <tag k="source" v="http://ump.waw.pl/ retrieved 11:07:14 02/24/09 (UMP-Warszawa/src/WARSZAWA_WLOCHY.ulice.txt)"/>
  </node>
  <node id="412129498" version="1" timestamp="2009-05-28T11:34:50Z" uid="20587" user="balrog-kun" changeset="1341971" lat="52.2011672" lon="20.9178574">
    <tag k="addr:city" v="Warszawa@Warszawa Włochy"/>
    <tag k="addr:housenumber" v="21"/>
    <tag k="addr:street" v="Wilczycka"/>
    <tag k="source" v="http://ump.waw.pl/ retrieved 11:07:14 02/24/09 (UMP-Warszawa/src/WARSZAWA_WLOCHY.ulice.txt)"/>
  </node>
  <node id="412129499" version="1" timestamp="2009-05-28T11:34:50Z" uid="20587" user="balrog-kun" changeset="1341971" lat="52.2032535" lon="20.9215226">
    <tag k="addr:city" v="Warszawa@Warszawa Włochy"/>
    <tag k="addr:housenumber" v="9"/>
    <tag k="addr:street" v="Konewki"/>
    <tag k="source" v="http://ump.waw.pl/ retrieved 11:07:14 02/24/09 (UMP-Warszawa/src/WARSZAWA_WLOCHY.ulice.txt)"/>
  </node>
  <node id="412129500" version="1" timestamp="2009-05-28T11:34:50Z" uid="20587" user="balrog-kun" changeset="1341971" lat="52.1997089" lon="20.9167463">
    <tag k="addr:city" v="Warszawa@Warszawa Włochy"/>
    <tag k="addr:housenumber" v="30"/>
    <tag k="addr:street" v="Wilczycka"/>
    <tag k="source" v="http://ump.waw.pl/ retrieved 11:07:14 02/24/09 (UMP-Warszawa/src/WARSZAWA_WLOCHY.ulice.txt)"/>
  </node>
  <node id="412129501" version="1" timestamp="2009-05-28T11:34:50Z" uid="20587" user="balrog-kun" changeset="1341971" lat="52.1954235" lon="20.8867825">
    <tag k="addr:city" v="Warszawa@Warszawa Ursus"/>
    <tag k="addr:housenumber" v="26"/>
    <tag k="addr:street" v="Bohaterów Warszawy"/>
    <tag k="source" v="http://ump.waw.pl/ retrieved 11:07:14 02/24/09 (UMP-Warszawa/src/WARSZAWA_URSUS.ulice.txt)"/>
  </node>
  <node id="412129501" version="2" timestamp="2009-10-31T22:51:17Z" uid="20587" user="balrog-kun" changeset="3002253" lat="52.1954045" lon="20.8869289">
    <tag k="addr:city" v="Warszawa@Warszawa Ursus"/>
    <tag k="addr:housenumber" v="26"/>
    <tag k="addr:street" v="Bohaterów Warszawy"/>
    <tag k="source" v="http://ump.waw.pl/ retrieved 11:07:14 02/24/09 (UMP-Warszawa/src/WARSZAWA_URSUS.ulice.txt)"/>
  </node>
  <node id="412129502" version="1" timestamp="2009-05-28T11:34:50Z" uid="20587" user="balrog-kun" changeset="1341971" lat="52.1931054" lon="20.8911789">
    <tag k="addr:city" v="Warszawa@Warszawa Ursus"/>
    <tag k="addr:housenumber" v="11"/>
    <tag k="addr:street" v="Bohaterów Warszawy"/>
    <tag k="source" v="http://ump.waw.pl/ retrieved 11:07:14 02/24/09 (UMP-Warszawa/src/WARSZAWA_URSUS.ulice.txt)"/>
  </node>
  <node id="412129502" version="2" timestamp="2011-06-23T06:03:34Z" uid="435038" user="4ajs" changeset="8521309" lat="52.1931513" lon="20.8911969">
    <tag k="addr:city" v="Warszawa@Warszawa Ursus"/>
    <tag k="addr:housenumber" v="11"/>
    <tag k="addr:street" v="Bohaterów Warszawy"/>
    <tag k="source" v="http://ump.waw.pl/ retrieved 11:07:14 02/24/09 (UMP-Warszawa/src/WARSZAWA_URSUS.ulice.txt)"/>
  </node>
  <node id="412129503" version="1" timestamp="2009-05-28T11:34:50Z" uid="20587" user="balrog-kun" changeset="1341971" lat="52.2010438" lon="20.9094524">
    <tag k="addr:city" v="Warszawa@Warszawa Włochy"/>
    <tag k="addr:housenumber" v="17"/>
    <tag k="addr:street" v="Solipska"/>
    <tag k="source" v="http://ump.waw.pl/ retrieved 11:07:14 02/24/09 (UMP-Warszawa/src/WARSZAWA_WLOCHY.ulice.txt)"/>
  </node>
  <node id="412129503" version="2" timestamp="2011-09-03T13:07:45Z" uid="477744" user="hormel" changeset="9200560" lat="52.2010438" lon="20.9094524"/>
  <node id="412129504" version="1" timestamp="2009-05-28T11:34:51Z" uid="20587" user="balrog-kun" changeset="1341971" lat="52.1982089" lon="20.9131505">
    <tag k="addr:city" v="Warszawa@Warszawa Włochy"/>
    <tag k="addr:housenumber" v="11"/>
    <tag k="addr:street" v="Ryżowa"/>
    <tag k="source" v="http://ump.waw.pl/ retrieved 11:07:14 02/24/09 (UMP-Warszawa/src/WARSZAWA_WLOCHY.ulice.txt)"/>
  </node>
  <node id="412129504" version="2" timestamp="2011-06-30T11:48:46Z" uid="477744" user="hormel" changeset="8589704" lat="52.1983415" lon="20.9131549">
    <tag k="addr:city" v="Warszawa@Warszawa Włochy"/>
    <tag k="addr:housenumber" v="11"/>
    <tag k="addr:street" v="Ryżowa"/>
    <tag k="source" v="http://ump.waw.pl/ retrieved 11:07:14 02/24/09 (UMP-Warszawa/src/WARSZAWA_WLOCHY.ulice.txt)"/>
  </node>
  <node id="412129505" version="1" timestamp="2009-05-28T11:34:51Z" uid="20587" user="balrog-kun" changeset="1341971" lat="52.2029496" lon="20.9213608">
    <tag k="addr:city" v="Warszawa@Warszawa Włochy"/>
    <tag k="addr:housenumber" v="11"/>
    <tag k="addr:street" v="Konewki"/>
    <tag k="source" v="http://ump.waw.pl/ retrieved 11:07:14 02/24/09 (UMP-Warszawa/src/WARSZAWA_WLOCHY.ulice.txt)"/>
  </node>
  <node id="412129506" version="1" timestamp="2009-05-28T11:34:51Z" uid="20587" user="balrog-kun" changeset="1341971" lat="52.208951" lon="20.9449585">
    <tag k="addr:city" v="Warszawa@Warszawa Ochota"/>
    <tag k="addr:housenumber" v="158"/>
    <tag k="addr:street" v="(wiadukt)"/>
    <tag k="source" v="http://ump.waw.pl/ retrieved 11:07:14 02/24/09 (UMP-Warszawa/src/WARSZAWA_OCHOTA.ulice.txt)"/>
  </node>
  <node id="412129507" version="1" timestamp="2009-05-28T11:34:51Z" uid="20587" user="balrog-kun" changeset="1341971" lat="52.1919104" lon="20.8946366">
    <tag k="addr:city" v="Warszawa@Warszawa Ursus"/>
    <tag k="addr:housenumber" v="5"/>
    <tag k="addr:street" v="Bohaterów Warszawy"/>
    <tag k="source" v="http://ump.waw.pl/ retrieved 11:07:14 02/24/09 (UMP-Warszawa/src/WARSZAWA_URSUS.ulice.txt)"/>
  </node>
  <node id="412129508" version="1" timestamp="2009-05-28T11:34:51Z" uid="20587" user="balrog-kun" changeset="1341971" lat="52.1974628" lon="20.9125088">
    <tag k="addr:city" v="Warszawa@Warszawa Włochy"/>
    <tag k="addr:housenumber" v="15"/>
    <tag k="addr:street" v="Ryżowa"/>
    <tag k="source" v="http://ump.waw.pl/ retrieved 11:07:14 02/24/09 (UMP-Warszawa/src/WARSZAWA_WLOCHY.ulice.txt)"/>
  </node>
  <node id="412129508" version="2" timestamp="2011-06-30T11:48:46Z" uid="477744" user="hormel" changeset="8589704" lat="52.1978305" lon="20.9126917">
    <tag k="addr:city" v="Warszawa@Warszawa Włochy"/>
    <tag k="addr:housenumber" v="15"/>
    <tag k="addr:street" v="Ryżowa"/>
    <tag k="source" v="http://ump.waw.pl/ retrieved 11:07:14 02/24/09 (UMP-Warszawa/src/WARSZAWA_WLOCHY.ulice.txt)"/>
  </node>
  <node id="412129509" version="1" timestamp="2009-05-28T11:34:51Z" uid="20587" user="balrog-kun" changeset="1341971" lat="52.1944692" lon="20.8862446">
    <tag k="addr:city" v="Warszawa@Warszawa Ursus"/>
    <tag k="addr:housenumber" v="8"/>
    <tag k="addr:street" v="Rynkowa"/>
    <tag k="source" v="http://ump.waw.pl/ retrieved 11:07:14 02/24/09 (UMP-Warszawa/src/WARSZAWA_URSUS.ulice.txt)"/>
  </node>
  <node id="412129509" version="2" timestamp="2009-10-31T22:49:02Z" uid="20587" user="balrog-kun" changeset="3002253" lat="52.1944474" lon="20.8862668">
    <tag k="addr:city" v="Warszawa@Warszawa Ursus"/>
    <tag k="addr:housenumber" v="8"/>
    <tag k="addr:street" v="Rynkowa"/>
    <tag k="source" v="http://ump.waw.pl/ retrieved 11:07:14 02/24/09 (UMP-Warszawa/src/WARSZAWA_URSUS.ulice.txt)"/>
  </node>
  <node id="412129510" version="1" timestamp="2009-05-28T11:34:51Z" uid="20587" user="balrog-kun" changeset="1341971" lat="52.1951306" lon="20.885913">
    <tag k="addr:city" v="Warszawa@Warszawa Ursus"/>
    <tag k="addr:housenumber" v="23"/>
    <tag k="addr:street" v="Kościuszki"/>
    <tag k="source" v="http://ump.waw.pl/ retrieved 11:07:14 02/24/09 (UMP-Warszawa/src/WARSZAWA_URSUS.ulice.txt)"/>
  </node>
  <node id="412129510" version="2" timestamp="2011-12-09T09:52:55Z" uid="441027" user="muzzy" changeset="10071664" lat="52.1951306" lon="20.885913">
    <tag k="addr:city" v="Warszawa@Warszawa Ursus"/>
    <tag k="addr:housenumber" v="23"/>
    <tag k="addr:street" v="Tadeusza Kościuszki"/>
    <tag k="source" v="http://ump.waw.pl/ retrieved 11:07:14 02/24/09 (UMP-Warszawa/src/WARSZAWA_URSUS.ulice.txt)"/>
  </node>
  <node id="412129511" version="1" timestamp="2009-05-28T11:34:51Z" uid="20587" user="balrog-kun" changeset="1341971" lat="52.1941139" lon="20.8902831">
    <tag k="addr:city" v="Warszawa@Warszawa Ursus"/>
    <tag k="addr:housenumber" v="12"/>
    <tag k="addr:street" v="Bohaterów Warszawy"/>
    <tag k="source" v="http://ump.waw.pl/ retrieved 11:07:14 02/24/09 (UMP-Warszawa/src/WARSZAWA_URSUS.ulice.txt)"/>
  </node>
  <node id="412129512" version="1" timestamp="2009-05-28T11:34:51Z" uid="20587" user="balrog-kun" changeset="1341971" lat="52.1952036" lon="20.8931986">
    <tag k="addr:city" v="Warszawa@Warszawa Ursus"/>
    <tag k="addr:housenumber" v="3"/>
    <tag k="addr:street" v="1 Maja"/>
    <tag k="source" v="http://ump.waw.pl/ retrieved 11:07:14 02/24/09 (UMP-Warszawa/src/WARSZAWA_URSUS.ulice.txt)"/>
  </node>
  <node id="412129512" version="2" timestamp="2011-05-28T07:49:46Z" uid="435038" user="4ajs" changeset="8269062" lat="52.195163" lon="20.8929269">
    <tag k="addr:city" v="Warszawa@Warszawa Ursus"/>
    <tag k="addr:housenumber" v="3"/>
    <tag k="addr:street" v="1 Maja"/>
    <tag k="source" v="http://ump.waw.pl/ retrieved 11:07:14 02/24/09 (UMP-Warszawa/src/WARSZAWA_URSUS.ulice.txt)"/>
  </node>
  <node id="412129513" version="1" timestamp="2009-05-28T11:34:51Z" uid="20587" user="balrog-kun" changeset="1341971" lat="52.1947528" lon="20.8885417">
    <tag k="addr:city" v="Warszawa@Warszawa Ursus"/>
    <tag k="addr:housenumber" v="20"/>
    <tag k="addr:street" v="Bohaterów Warszawy"/>
    <tag k="source" v="http://ump.waw.pl/ retrieved 11:07:14 02/24/09 (UMP-Warszawa/src/WARSZAWA_URSUS.ulice.txt)"/>
  </node>
  <node id="412129514" version="1" timestamp="2009-05-28T11:34:51Z" uid="20587" user="balrog-kun" changeset="1341971" lat="52.1957608" lon="20.8889562">
    <tag k="addr:city" v="Warszawa@Warszawa Ursus"/>
    <tag k="addr:housenumber" v="1"/>
    <tag k="addr:street" v="Braterstwa Broni"/>
    <tag k="source" v="http://ump.waw.pl/ retrieved 11:07:14 02/24/09 (UMP-Warszawa/src/WARSZAWA_URSUS.ulice.txt)"/>
  </node>
  <node id="412129515" version="1" timestamp="2009-05-28T11:34:51Z" uid="20587" user="balrog-kun" changeset="1341971" lat="52.1970999" lon="20.9082437">
    <tag k="addr:city" v="Warszawa@Warszawa Ursus"/>
    <tag k="addr:housenumber" v="12"/>
    <tag k="addr:street" v="Zapustna"/>
    <tag k="source" v="http://ump.waw.pl/ retrieved 11:07:14 02/24/09 (UMP-Warszawa/src/WARSZAWA_URSUS.ulice.txt)"/>
  </node>
  <node id="412129515" version="2" timestamp="2011-09-05T15:00:39Z" uid="477744" user="hormel" changeset="9218536" lat="52.1971066" lon="20.908351">
    <tag k="addr:city" v="Warszawa@Warszawa Ursus"/>
    <tag k="addr:housenumber" v="12"/>
    <tag k="addr:street" v="Zapustna"/>
    <tag k="source" v="http://ump.waw.pl/ retrieved 11:07:14 02/24/09 (UMP-Warszawa/src/WARSZAWA_URSUS.ulice.txt)"/>
  </node>
  <node id="412129515" version="3" timestamp="2011-12-18T16:57:04Z" uid="477744" user="hormel" changeset="10148468" lat="52.1971066" lon="20.908351"/>
  <node id="412129516" version="1" timestamp="2009-05-28T11:34:51Z" uid="20587" user="balrog-kun" changeset="1341971" lat="52.1957481" lon="20.8859925">
    <tag k="addr:city" v="Warszawa@Warszawa Ursus"/>
    <tag k="addr:housenumber" v="28"/>
    <tag k="addr:street" v="Bohaterów Warszawy"/>
    <tag k="source" v="http://ump.waw.pl/ retrieved 11:07:14 02/24/09 (UMP-Warszawa/src/WARSZAWA_URSUS.ulice.txt)"/>
  </node>
  <node id="412129517" version="1" timestamp="2009-05-28T11:34:51Z" uid="20587" user="balrog-kun" changeset="1341971" lat="52.1896056" lon="20.9156203">
    <tag k="addr:city" v="Warszawa@Warszawa Ursus"/>
    <tag k="addr:housenumber" v="224"/>
    <tag k="addr:street" v="Aleje Jerozolimskie"/>
    <tag k="source" v="http://ump.waw.pl/ retrieved 11:07:14 02/24/09 (UMP-Warszawa/src/WARSZAWA_URSUS.ulice.txt)"/>
  </node>
  <node id="412129517" version="2" timestamp="2011-06-30T11:48:46Z" uid="477744" user="hormel" changeset="8589704" lat="52.1886809" lon="20.9139689">
    <tag k="addr:city" v="Warszawa@Warszawa Ursus"/>
    <tag k="addr:housenumber" v="224"/>
    <tag k="addr:street" v="Aleje Jerozolimskie"/>
    <tag k="source" v="http://ump.waw.pl/ retrieved 11:07:14 02/24/09 (UMP-Warszawa/src/WARSZAWA_URSUS.ulice.txt)"/>
  </node>
  <node id="412129517" version="3" timestamp="2011-08-02T22:29:18Z" uid="100448" user="kietlak" changeset="8905799" lat="52.1875275" lon="20.9095159">
    <tag k="addr:city" v="Warszawa@Warszawa Ursus"/>
    <tag k="addr:housenumber" v="230"/>
    <tag k="addr:street" v="Aleje Jerozolimskie"/>
    <tag k="source" v="http://ump.waw.pl/ retrieved 11:07:14 02/24/09 (UMP-Warszawa/src/WARSZAWA_URSUS.ulice.txt)"/>
  </node>
  <node id="412129518" version="1" timestamp="2009-05-28T11:34:51Z" uid="20587" user="balrog-kun" changeset="1341971" lat="52.1947946" lon="20.8931451">
    <tag k="addr:city" v="Warszawa@Warszawa Ursus"/>
    <tag k="addr:housenumber" v="15"/>
    <tag k="addr:street" v="Konińska"/>
    <tag k="source" v="http://ump.waw.pl/ retrieved 11:07:14 02/24/09 (UMP-Warszawa/src/WARSZAWA_URSUS.ulice.txt)"/>
  </node>
  <node id="412129519" version="1" timestamp="2009-05-28T11:34:51Z" uid="20587" user="balrog-kun" changeset="1341971" lat="52.2041143" lon="20.9219606">
    <tag k="addr:city" v="Warszawa@Warszawa Włochy"/>
    <tag k="addr:housenumber" v="1"/>
    <tag k="addr:street" v="Konewki"/>
    <tag k="source" v="http://ump.waw.pl/ retrieved 11:07:14 02/24/09 (UMP-Warszawa/src/WARSZAWA_WLOCHY.ulice.txt)"/>
  </node>
  <node id="412129519" version="2" timestamp="2012-03-21T12:18:17Z" uid="277387" user="rogal" changeset="11051533" lat="52.2041604" lon="20.9218435">
    <tag k="addr:housenumber" v="1"/>
    <tag k="addr:street" v="Konewki"/>
  </node>
  <node id="412129520" version="1" timestamp="2009-05-28T11:34:52Z" uid="20587" user="balrog-kun" changeset="1341971" lat="52.1944648" lon="20.8882907">
    <tag k="addr:city" v="Warszawa@Warszawa Ursus"/>
    <tag k="addr:housenumber" v="27"/>
    <tag k="addr:street" v="Bohaterów Warszawy"/>
    <tag k="source" v="http://ump.waw.pl/ retrieved 11:07:14 02/24/09 (UMP-Warszawa/src/WARSZAWA_URSUS.ulice.txt)"/>
  </node>
  <node id="412129521" version="1" timestamp="2009-05-28T11:34:52Z" uid="20587" user="balrog-kun" changeset="1341971" lat="52.1864782" lon="20.8981487">
    <tag k="addr:city" v="Warszawa@Warszawa Ursus"/>
    <tag k="addr:housenumber" v="244"/>
    <tag k="addr:street" v="Aleje Jerozolimskie"/>
    <tag k="source" v="http://ump.waw.pl/ retrieved 11:07:14 02/24/09 (UMP-Warszawa/src/WARSZAWA_URSUS.ulice.txt)"/>
  </node>
  <node id="412129521" version="2" timestamp="2012-03-29T20:28:25Z" uid="502275" user="aamroz" changeset="11143692" lat="52.1864782" lon="20.8981487"/>
  <node id="412129522" version="1" timestamp="2009-05-28T11:34:52Z" uid="20587" user="balrog-kun" changeset="1341971" lat="52.1987498" lon="20.9039758">
    <tag k="addr:city" v="Warszawa@Warszawa Włochy"/>
    <tag k="addr:housenumber" v="36"/>
    <tag k="addr:street" v="Zapustna"/>
    <tag k="source" v="http://ump.waw.pl/ retrieved 11:07:14 02/24/09 (UMP-Warszawa/src/WARSZAWA_WLOCHY.ulice.txt)"/>
  </node>
  <node id="412129522" version="2" timestamp="2011-12-18T17:38:44Z" uid="477744" user="hormel" changeset="10148884" lat="52.1987163" lon="20.90396">
    <tag k="addr:city" v="Warszawa@Warszawa Włochy"/>
    <tag k="addr:housenumber" v="36"/>
    <tag k="addr:street" v="Zapustna"/>
    <tag k="source" v="http://ump.waw.pl/ retrieved 11:07:14 02/24/09 (UMP-Warszawa/src/WARSZAWA_WLOCHY.ulice.txt)"/>
  </node>
  <node id="412129523" version="1" timestamp="2009-05-28T11:34:52Z" uid="20587" user="balrog-kun" changeset="1341971" lat="52.203056" lon="20.9208319">
    <tag k="addr:city" v="Warszawa@Warszawa Włochy"/>
    <tag k="addr:housenumber" v="16"/>
    <tag k="addr:street" v="Konewki"/>
    <tag k="source" v="http://ump.waw.pl/ retrieved 11:07:14 02/24/09 (UMP-Warszawa/src/WARSZAWA_WLOCHY.ulice.txt)"/>
  </node>
  <node id="412129524" version="1" timestamp="2009-05-28T11:34:52Z" uid="20587" user="balrog-kun" changeset="1341971" lat="52.1984029" lon="20.9045572">
    <tag k="addr:city" v="Warszawa@Warszawa Ursus"/>
    <tag k="addr:housenumber" v="34"/>
    <tag k="addr:street" v="Zapustna"/>
    <tag k="source" v="http://ump.waw.pl/ retrieved 11:07:14 02/24/09 (UMP-Warszawa/src/WARSZAWA_URSUS.ulice.txt)"/>
  </node>
  <node id="412129524" version="2" timestamp="2011-12-18T16:57:03Z" uid="477744" user="hormel" changeset="10148468" lat="52.1984029" lon="20.9045572"/>
  <node id="412129525" version="1" timestamp="2009-05-28T11:34:52Z" uid="20587" user="balrog-kun" changeset="1341971" lat="52.1938407" lon="20.8908944">
    <tag k="addr:city" v="Warszawa@Warszawa Ursus"/>
    <tag k="addr:housenumber" v="10"/>
    <tag k="addr:street" v="Bohaterów Warszawy"/>
    <tag k="source" v="http://ump.waw.pl/ retrieved 11:07:14 02/24/09 (UMP-Warszawa/src/WARSZAWA_URSUS.ulice.txt)"/>
  </node>
  <node id="412129525" version="2" timestamp="2011-06-11T18:27:28Z" uid="435038" user="4ajs" changeset="8408422" lat="52.1938407" lon="20.8908944"/>
  <node id="412129526" version="1" timestamp="2009-05-28T11:34:52Z" uid="20587" user="balrog-kun" changeset="1341971" lat="52.2007108" lon="20.9106899">
    <tag k="addr:city" v="Warszawa@Warszawa Włochy"/>
    <tag k="addr:housenumber" v="21"/>
    <tag k="addr:street" v="Solipska"/>
    <tag k="source" v="http://ump.waw.pl/ retrieved 11:07:14 02/24/09 (UMP-Warszawa/src/WARSZAWA_WLOCHY.ulice.txt)"/>
  </node>
  <node id="412129527" version="1" timestamp="2009-05-28T11:34:52Z" uid="20587" user="balrog-kun" changeset="1341971" lat="52.1939446" lon="20.895502">
    <tag k="addr:city" v="Warszawa@Warszawa Ursus"/>
    <tag k="addr:housenumber" v="1"/>
    <tag k="addr:street" v="Konińska"/>
    <tag k="source" v="http://ump.waw.pl/ retrieved 11:07:14 02/24/09 (UMP-Warszawa/src/WARSZAWA_URSUS.ulice.txt)"/>
  </node>
  <node id="412129528" version="1" timestamp="2009-05-28T11:34:52Z" uid="20587" user="balrog-kun" changeset="1341971" lat="52.1949452" lon="20.8880212">
    <tag k="addr:city" v="Warszawa@Warszawa Ursus"/>
    <tag k="addr:housenumber" v="24"/>
    <tag k="addr:street" v="Bohaterów Warszawy"/>
    <tag k="source" v="http://ump.waw.pl/ retrieved 11:07:14 02/24/09 (UMP-Warszawa/src/WARSZAWA_URSUS.ulice.txt)"/>
  </node>
  <node id="412129529" version="1" timestamp="2009-05-28T11:34:52Z" uid="20587" user="balrog-kun" changeset="1341971" lat="52.1953036" lon="20.8855397">
    <tag k="addr:city" v="Warszawa@Warszawa Ursus"/>
    <tag k="addr:housenumber" v="30"/>
    <tag k="addr:street" v="Kościuszki"/>
    <tag k="source" v="http://ump.waw.pl/ retrieved 11:07:14 02/24/09 (UMP-Warszawa/src/WARSZAWA_URSUS.ulice.txt)"/>
  </node>
  <node id="412129529" version="2" timestamp="2009-10-31T22:51:16Z" uid="20587" user="balrog-kun" changeset="3002253" lat="52.1953661" lon="20.8855353">
    <tag k="addr:city" v="Warszawa@Warszawa Ursus"/>
    <tag k="addr:housenumber" v="30"/>
    <tag k="addr:street" v="Kościuszki"/>
    <tag k="source" v="http://ump.waw.pl/ retrieved 11:07:14 02/24/09 (UMP-Warszawa/src/WARSZAWA_URSUS.ulice.txt)"/>
  </node>
  <node id="412129529" version="3" timestamp="2011-12-09T09:53:00Z" uid="441027" user="muzzy" changeset="10071664" lat="52.1953661" lon="20.8855353">
    <tag k="addr:city" v="Warszawa@Warszawa Ursus"/>
    <tag k="addr:housenumber" v="30"/>
    <tag k="addr:street" v="Tadeusza Kościuszki"/>
    <tag k="source" v="http://ump.waw.pl/ retrieved 11:07:14 02/24/09 (UMP-Warszawa/src/WARSZAWA_URSUS.ulice.txt)"/>
  </node>
  <node id="412129530" version="1" timestamp="2009-05-28T11:34:52Z" uid="20587" user="balrog-kun" changeset="1341971" lat="52.1948241" lon="20.8862693">
    <tag k="addr:city" v="Warszawa@Warszawa Ursus"/>
    <tag k="addr:housenumber" v="4"/>
    <tag k="addr:street" v="Zakątek"/>
    <tag k="source" v="http://ump.waw.pl/ retrieved 11:07:14 02/24/09 (UMP-Warszawa/src/WARSZAWA_URSUS.ulice.txt)"/>
  </node>
  <node id="412129530" version="2" timestamp="2011-07-08T13:54:51Z" uid="435038" user="4ajs" changeset="8666521" lat="52.1947494" lon="20.8862849">
    <tag k="addr:city" v="Warszawa@Warszawa Ursus"/>
    <tag k="addr:housenumber" v="4"/>
    <tag k="addr:street" v="Zakątek"/>
    <tag k="source" v="http://ump.waw.pl/ retrieved 11:07:14 02/24/09 (UMP-Warszawa/src/WARSZAWA_URSUS.ulice.txt)"/>
  </node>
  <node id="412129531" version="1" timestamp="2009-05-28T11:34:52Z" uid="20587" user="balrog-kun" changeset="1341971" lat="52.196591" lon="20.9117897">
    <tag k="addr:city" v="Warszawa@Warszawa Włochy"/>
    <tag k="addr:housenumber" v="27"/>
    <tag k="addr:street" v="Ryżowa"/>
    <tag k="source" v="http://ump.waw.pl/ retrieved 11:07:14 02/24/09 (UMP-Warszawa/src/WARSZAWA_WLOCHY.ulice.txt)"/>
  </node>
  <node id="412129531" version="2" timestamp="2011-06-30T11:48:44Z" uid="477744" user="hormel" changeset="8589704" lat="52.1973679" lon="20.9122682">
    <tag k="addr:city" v="Warszawa@Warszawa Włochy"/>
    <tag k="addr:housenumber" v="27"/>
    <tag k="addr:street" v="Ryżowa"/>
    <tag k="source" v="http://ump.waw.pl/ retrieved 11:07:14 02/24/09 (UMP-Warszawa/src/WARSZAWA_WLOCHY.ulice.txt)"/>
  </node>
  <node id="412129532" version="1" timestamp="2009-05-28T11:34:52Z" uid="20587" user="balrog-kun" changeset="1341971" lat="52.1994147" lon="20.9165927">
    <tag k="addr:city" v="Warszawa@Warszawa Włochy"/>
    <tag k="addr:housenumber" v="32"/>
    <tag k="addr:street" v="Wilczycka"/>
    <tag k="source" v="http://ump.waw.pl/ retrieved 11:07:14 02/24/09 (UMP-Warszawa/src/WARSZAWA_WLOCHY.ulice.txt)"/>
  </node>
  <node id="412129533" version="1" timestamp="2009-05-28T11:34:52Z" uid="20587" user="balrog-kun" changeset="1341971" lat="52.1927967" lon="20.8939983">
    <tag k="addr:city" v="Warszawa@Warszawa Ursus"/>
    <tag k="addr:housenumber" v="6"/>
    <tag k="addr:street" v="Bohaterów Warszawy"/>
    <tag k="source" v="http://ump.waw.pl/ retrieved 11:07:14 02/24/09 (UMP-Warszawa/src/WARSZAWA_URSUS.ulice.txt)"/>
  </node>
  <node id="412129534" version="1" timestamp="2009-05-28T11:34:52Z" uid="20587" user="balrog-kun" changeset="1341971" lat="52.1900097" lon="20.9208225">
    <tag k="addr:city" v="Warszawa@Warszawa Ursus"/>
    <tag k="addr:housenumber" v="217"/>
    <tag k="addr:street" v="Aleje Jerozolimskie"/>
    <tag k="source" v="http://ump.waw.pl/ retrieved 11:07:14 02/24/09 (UMP-Warszawa/src/WARSZAWA_URSUS.ulice.txt)"/>
  </node>
  <node id="412129534" version="2" timestamp="2011-08-05T23:08:46Z" uid="100448" user="kietlak" changeset="8933655" lat="52.1900097" lon="20.9208225"/>
  <node id="412129535" version="1" timestamp="2009-05-28T11:34:52Z" uid="20587" user="balrog-kun" changeset="1341971" lat="52.1952278" lon="20.8958907">
    <tag k="addr:city" v="Warszawa@Warszawa Ursus"/>
    <tag k="addr:housenumber" v="2"/>
    <tag k="addr:street" v="Sławka"/>
    <tag k="source" v="http://ump.waw.pl/ retrieved 11:07:14 02/24/09 (UMP-Warszawa/src/WARSZAWA_URSUS.ulice.txt)"/>
  </node>
  <node id="412129535" version="2" timestamp="2011-12-09T09:52:51Z" uid="441027" user="muzzy" changeset="10071664" lat="52.1952278" lon="20.8958907">
    <tag k="addr:city" v="Warszawa@Warszawa Ursus"/>
    <tag k="addr:housenumber" v="2"/>
    <tag k="addr:street" v="Walerego Sławka"/>
    <tag k="source" v="http://ump.waw.pl/ retrieved 11:07:14 02/24/09 (UMP-Warszawa/src/WARSZAWA_URSUS.ulice.txt)"/>
  </node>
  <node id="412129537" version="1" timestamp="2009-05-28T11:34:52Z" uid="20587" user="balrog-kun" changeset="1341971" lat="52.2012297" lon="20.9172999">
    <tag k="addr:city" v="Warszawa@Warszawa Włochy"/>
    <tag k="addr:housenumber" v="22"/>
    <tag k="addr:street" v="Wilczycka"/>
    <tag k="source" v="http://ump.waw.pl/ retrieved 11:07:14 02/24/09 (UMP-Warszawa/src/WARSZAWA_WLOCHY.ulice.txt)"/>
  </node>
  <node id="412129539" version="1" timestamp="2009-05-28T11:34:52Z" uid="20587" user="balrog-kun" changeset="1341971" lat="52.1954283" lon="20.8884356">
    <tag k="addr:city" v="Warszawa@Warszawa Ursus"/>
    <tag k="addr:housenumber" v="5"/>
    <tag k="addr:street" v="Braterstwa Broni"/>
    <tag k="source" v="http://ump.waw.pl/ retrieved 11:07:14 02/24/09 (UMP-Warszawa/src/WARSZAWA_URSUS.ulice.txt)"/>
  </node>
  <node id="412129541" version="1" timestamp="2009-05-28T11:34:52Z" uid="20587" user="balrog-kun" changeset="1341971" lat="52.2104346" lon="20.9470457">
    <tag k="addr:city" v="Warszawa@Warszawa Ochota"/>
    <tag k="addr:housenumber" v="156"/>
    <tag k="addr:street" v="(wiadukt)"/>
    <tag k="source" v="http://ump.waw.pl/ retrieved 11:07:14 02/24/09 (UMP-Warszawa/src/WARSZAWA_OCHOTA.ulice.txt)"/>
  </node>
  <node id="412129543" version="1" timestamp="2009-05-28T11:34:52Z" uid="20587" user="balrog-kun" changeset="1341971" lat="52.1952244" lon="20.8863442">
    <tag k="addr:city" v="Warszawa@Warszawa Ursus"/>
    <tag k="addr:housenumber" v="41"/>
    <tag k="addr:street" v="Bohaterów Warszawy"/>
    <tag k="source" v="http://ump.waw.pl/ retrieved 11:07:14 02/24/09 (UMP-Warszawa/src/WARSZAWA_URSUS.ulice.txt)"/>
  </node>
  <node id="412129546" version="1" timestamp="2009-05-28T11:34:53Z" uid="20587" user="balrog-kun" changeset="1341971" lat="52.1962052" lon="20.9105987">
    <tag k="addr:city" v="Warszawa@Warszawa Włochy"/>
    <tag k="addr:housenumber" v="27"/>
    <tag k="addr:street" v="Ryżowa"/>
    <tag k="source" v="http://ump.waw.pl/ retrieved 11:07:14 02/24/09 (UMP-Warszawa/src/WARSZAWA_WLOCHY.ulice.txt)"/>
  </node>
  <node id="412129546" version="2" timestamp="2011-06-30T11:48:44Z" uid="477744" user="hormel" changeset="8589704" lat="52.1961635" lon="20.9106135">
    <tag k="addr:city" v="Warszawa@Warszawa Włochy"/>
    <tag k="addr:housenumber" v="34"/>
    <tag k="addr:street" v="Ryżowa"/>
    <tag k="source" v="http://ump.waw.pl/ retrieved 11:07:14 02/24/09 (UMP-Warszawa/src/WARSZAWA_WLOCHY.ulice.txt)"/>
  </node>
  <node id="412129548" version="1" timestamp="2009-05-28T11:34:53Z" uid="20587" user="balrog-kun" changeset="1341971" lat="52.1942468" lon="20.8850247">
    <tag k="addr:city" v="Warszawa@Warszawa Ursus"/>
    <tag k="addr:housenumber" v="13"/>
    <tag k="addr:street" v="Cierlicka"/>
    <tag k="source" v="http://ump.waw.pl/ retrieved 11:07:14 02/24/09 (UMP-Warszawa/src/WARSZAWA_URSUS.ulice.txt)"/>
  </node>
  <node id="412129550" version="1" timestamp="2009-05-28T11:34:53Z" uid="20587" user="balrog-kun" changeset="1341971" lat="52.194055" lon="20.8894649">
    <tag k="addr:city" v="Warszawa@Warszawa Ursus"/>
    <tag k="addr:housenumber" v="19"/>
    <tag k="addr:street" v="Bohaterów Warszawy"/>
    <tag k="source" v="http://ump.waw.pl/ retrieved 11:07:14 02/24/09 (UMP-Warszawa/src/WARSZAWA_URSUS.ulice.txt)"/>
  </node>
  <node id="412129552" version="1" timestamp="2009-05-28T11:34:53Z" uid="20587" user="balrog-kun" changeset="1341971" lat="52.1868812" lon="20.9056996">
    <tag k="addr:city" v="Warszawa@Warszawa Ursus"/>
    <tag k="addr:housenumber" v="236"/>
    <tag k="addr:street" v="Aleje Jerozolimskie"/>
    <tag k="source" v="http://ump.waw.pl/ retrieved 11:07:14 02/24/09 (UMP-Warszawa/src/WARSZAWA_URSUS.ulice.txt)"/>
  </node>
  <node id="412129552" version="2" timestamp="2011-06-30T11:48:45Z" uid="477744" user="hormel" changeset="8589704" lat="52.186335" lon="20.9054312">
    <tag k="addr:city" v="Warszawa@Warszawa Ursus"/>
    <tag k="addr:housenumber" v="236"/>
    <tag k="addr:street" v="Aleje Jerozolimskie"/>
    <tag k="source" v="http://ump.waw.pl/ retrieved 11:07:14 02/24/09 (UMP-Warszawa/src/WARSZAWA_URSUS.ulice.txt)"/>
  </node>
  <node id="412129560" version="1" timestamp="2009-05-28T11:34:53Z" uid="20587" user="balrog-kun" changeset="1341971" lat="52.1971714" lon="20.9114305">
    <tag k="addr:city" v="Warszawa@Warszawa Włochy"/>
    <tag k="addr:housenumber" v="26"/>
    <tag k="addr:street" v="Ryżowa"/>
    <tag k="source" v="http://ump.waw.pl/ retrieved 11:07:14 02/24/09 (UMP-Warszawa/src/WARSZAWA_WLOCHY.ulice.txt)"/>
  </node>
  <node id="412129560" version="2" timestamp="2011-06-30T11:48:46Z" uid="477744" user="hormel" changeset="8589704" lat="52.1967868" lon="20.9111513">
    <tag k="addr:city" v="Warszawa@Warszawa Włochy"/>
    <tag k="addr:housenumber" v="26"/>
    <tag k="addr:street" v="Ryżowa"/>
    <tag k="source" v="http://ump.waw.pl/ retrieved 11:07:14 02/24/09 (UMP-Warszawa/src/WARSZAWA_WLOCHY.ulice.txt)"/>
  </node>
  <node id="412129563" version="1" timestamp="2009-05-28T11:34:53Z" uid="20587" user="balrog-kun" changeset="1341971" lat="52.1828496" lon="20.8967376">
    <tag k="addr:city" v="Warszawa@Warszawa Ursus"/>
    <tag k="addr:housenumber" v="245"/>
    <tag k="addr:street" v="Aleje Jerozolimskie"/>
    <tag k="source" v="http://ump.waw.pl/ retrieved 11:07:14 02/24/09 (UMP-Warszawa/src/WARSZAWA_URSUS.ulice.txt)"/>
  </node>
  <node id="412129565" version="1" timestamp="2009-05-28T11:34:53Z" uid="20587" user="balrog-kun" changeset="1341971" lat="52.1956466" lon="20.8936496">
    <tag k="addr:city" v="Warszawa@Warszawa Ursus"/>
    <tag k="addr:housenumber" v="1"/>
    <tag k="addr:street" v="1 Maja"/>
    <tag k="source" v="http://ump.waw.pl/ retrieved 11:07:14 02/24/09 (UMP-Warszawa/src/WARSZAWA_URSUS.ulice.txt)"/>
  </node>
  <node id="412129565" version="2" timestamp="2011-05-28T07:49:46Z" uid="435038" user="4ajs" changeset="8269062" lat="52.1956298" lon="20.8932249">
    <tag k="addr:city" v="Warszawa@Warszawa Ursus"/>
    <tag k="addr:housenumber" v="1"/>
    <tag k="addr:street" v="1 Maja"/>
    <tag k="source" v="http://ump.waw.pl/ retrieved 11:07:14 02/24/09 (UMP-Warszawa/src/WARSZAWA_URSUS.ulice.txt)"/>
  </node>
  <node id="412129567" version="1" timestamp="2009-05-28T11:34:53Z" uid="20587" user="balrog-kun" changeset="1341971" lat="52.1995506" lon="20.9143709">
    <tag k="addr:city" v="Warszawa@Warszawa Włochy"/>
    <tag k="addr:housenumber" v="1"/>
    <tag k="addr:street" v="Ryżowa"/>
    <tag k="source" v="http://ump.waw.pl/ retrieved 11:07:14 02/24/09 (UMP-Warszawa/src/WARSZAWA_WLOCHY.ulice.txt)"/>
  </node>
  <node id="412129567" version="2" timestamp="2011-06-28T23:13:05Z" uid="477744" user="hormel" changeset="8576649" lat="52.1995745" lon="20.9142478">
    <tag k="addr:city" v="Warszawa@Warszawa Włochy"/>
    <tag k="addr:housenumber" v="1"/>
    <tag k="addr:street" v="Ryżowa"/>
    <tag k="source" v="http://ump.waw.pl/ retrieved 11:07:14 02/24/09 (UMP-Warszawa/src/WARSZAWA_WLOCHY.ulice.txt)"/>
  </node>
  <node id="412129567" version="3" timestamp="2011-06-30T11:48:45Z" uid="477744" user="hormel" changeset="8589704" lat="52.1993106" lon="20.9140277">
    <tag k="addr:city" v="Warszawa@Warszawa Włochy"/>
    <tag k="addr:housenumber" v="1A"/>
    <tag k="addr:street" v="Ryżowa"/>
    <tag k="source" v="http://ump.waw.pl/ retrieved 11:07:14 02/24/09 (UMP-Warszawa/src/WARSZAWA_WLOCHY.ulice.txt)"/>
  </node>
  <node id="412129569" version="1" timestamp="2009-05-28T11:34:53Z" uid="20587" user="balrog-kun" changeset="1341971" lat="52.1992575" lon="20.9074098">
    <tag k="addr:city" v="Warszawa@Warszawa Włochy"/>
    <tag k="addr:housenumber" v="22"/>
    <tag k="addr:street" v="Batalionu Włochy"/>
    <tag k="source" v="http://ump.waw.pl/ retrieved 11:07:14 02/24/09 (UMP-Warszawa/src/WARSZAWA_WLOCHY.ulice.txt)"/>
  </node>
  <node id="412129569" version="2" timestamp="2011-12-09T09:52:54Z" uid="441027" user="muzzy" changeset="10071664" lat="52.1992575" lon="20.9074098">
    <tag k="addr:city" v="Warszawa@Warszawa Włochy"/>
    <tag k="addr:housenumber" v="22"/>
    <tag k="addr:street" v="Batalionu &quot;Włochy&quot;"/>
    <tag k="source" v="http://ump.waw.pl/ retrieved 11:07:14 02/24/09 (UMP-Warszawa/src/WARSZAWA_WLOCHY.ulice.txt)"/>
  </node>
  <node id="412129571" version="1" timestamp="2009-05-28T11:34:53Z" uid="20587" user="balrog-kun" changeset="1341971" lat="52.186094" lon="20.9257308">
    <tag k="addr:city" v="Warszawa@Warszawa Włochy"/>
    <tag k="addr:housenumber" v="35"/>
    <tag k="addr:street" v="Serwituty"/>
    <tag k="source" v="http://ump.waw.pl/ retrieved 11:07:14 02/24/09 (UMP-Warszawa/src/WARSZAWA_WLOCHY.ulice.txt)"/>
  </node>
  <node id="412129574" version="1" timestamp="2009-05-28T11:34:53Z" uid="20587" user="balrog-kun" changeset="1341971" lat="52.1946806" lon="20.8877227">
    <tag k="addr:city" v="Warszawa@Warszawa Ursus"/>
    <tag k="addr:housenumber" v="31"/>
    <tag k="addr:street" v="Bohaterów Warszawy"/>
    <tag k="source" v="http://ump.waw.pl/ retrieved 11:07:14 02/24/09 (UMP-Warszawa/src/WARSZAWA_URSUS.ulice.txt)"/>
  </node>
  <node id="412129575" version="1" timestamp="2009-05-28T11:34:53Z" uid="20587" user="balrog-kun" changeset="1341971" lat="52.1923612" lon="20.8951174">
    <tag k="addr:city" v="Warszawa@Warszawa Ursus"/>
    <tag k="addr:housenumber" v="4"/>
    <tag k="addr:street" v="Bohaterów Warszawy"/>
    <tag k="source" v="http://ump.waw.pl/ retrieved 11:07:14 02/24/09 (UMP-Warszawa/src/WARSZAWA_URSUS.ulice.txt)"/>
  </node>
  <node id="412129577" version="1" timestamp="2009-05-28T11:34:53Z" uid="20587" user="balrog-kun" changeset="1341971" lat="52.198939" lon="20.9011946">
    <tag k="addr:city" v="Warszawa@Warszawa Ursus"/>
    <tag k="addr:housenumber" v="51"/>
    <tag k="addr:street" v="Zapustna"/>
    <tag k="source" v="http://ump.waw.pl/ retrieved 11:07:14 02/24/09 (UMP-Warszawa/src/WARSZAWA_URSUS.ulice.txt)"/>
  </node>
  <node id="412129577" version="2" timestamp="2011-09-05T15:00:42Z" uid="477744" user="hormel" changeset="9218536" lat="52.198939" lon="20.9011946"/>
  <node id="412129580" version="1" timestamp="2009-05-28T11:34:53Z" uid="20587" user="balrog-kun" changeset="1341971" lat="52.1926387" lon="20.8924045">
    <tag k="addr:city" v="Warszawa@Warszawa Ursus"/>
    <tag k="addr:housenumber" v="9"/>
    <tag k="addr:street" v="Bohaterów Warszawy"/>
    <tag k="source" v="http://ump.waw.pl/ retrieved 11:07:14 02/24/09 (UMP-Warszawa/src/WARSZAWA_URSUS.ulice.txt)"/>
  </node>
  <node id="412129580" version="2" timestamp="2011-06-23T06:03:34Z" uid="435038" user="4ajs" changeset="8521309" lat="52.1926993" lon="20.8924524">
    <tag k="addr:city" v="Warszawa@Warszawa Ursus"/>
    <tag k="addr:housenumber" v="9"/>
    <tag k="addr:street" v="Bohaterów Warszawy"/>
    <tag k="source" v="http://ump.waw.pl/ retrieved 11:07:14 02/24/09 (UMP-Warszawa/src/WARSZAWA_URSUS.ulice.txt)"/>
  </node>
</osm>
