<?xml version='1.0' encoding='UTF-8'?>
<osm version="0.6" generator="libosmium/2.20.0">
  <node id="412561198" version="3" timestamp="2011-02-01T18:36:33Z" uid="38524" user="Kuddy" changeset="7157586" lat="28.0561382" lon="34.4391838"/>
  <node id="412561199" version="3" timestamp="2011-02-01T18:36:33Z" uid="38524" user="Kuddy" changeset="7157586" lat="28.0535716" lon="34.4390238"/>
  <node id="412564274" version="3" timestamp="2010-06-13T14:38:24Z" uid="6269" user="Mueck" changeset="4978915" lat="48.9575769" lon="8.3508678"/>
  <node id="412568367" version="1" timestamp="2009-05-29T20:46:30Z" uid="36809" user="pfoten_weg_!_" changeset="1354282" lat="48.0732931" lon="11.5184036">
    <tag k="addr:city" v="München"/>
    <tag k="addr:country" v="DE"/>
    <tag k="addr:housename" v="Wohnhaus"/>
    <tag k="addr:housenumber" v="23"/>
    <tag k="addr:postcode" v="81479"/>
    <tag k="addr:street" v="Stridbeckstraße"/>
    <tag k="created_by" v="RambaZamba"/>
    <tag k="name" v="23"/>
  </node>
  <node id="412568367" version="2" timestamp="2009-05-29T23:07:54Z" uid="36809" user="pfoten_weg_!_" changeset="1355149" lat="48.0732753" lon="11.518457">
    <tag k="addr:city" v="München"/>
    <tag k="addr:country" v="DE"/>
    <tag k="addr:housename" v="Wohnhaus"/>
    <tag k="addr:housenumber" v="23"/>
    <tag k="addr:postcode" v="81479"/>
    <tag k="addr:street" v="Stridbeckstraße"/>
    <tag k="created_by" v="RambaZamba"/>
    <tag k="name" v="23"/>
  </node>
  <node id="412568367" version="3" timestamp="2009-06-07T21:17:43Z" uid="36809" user="pfoten_weg_!_" changeset="1453903" lat="48.0732753" lon="11.518457">
    <tag k="addr:city" v="München"/>
    <tag k="addr:country" v="DE"/>
    <tag k="addr:housename" v="Wohngebäude"/>
    <tag k="addr:housenumber" v="23"/>
    <tag k="addr:postcode" v="81479"/>
    <tag k="addr:street" v="Stridbeckstraße"/>
    <tag k="created_by" v="RambaZamba"/>
    <tag k="name" v="23"/>
  </node>
  <node id="412568367" version="4" timestamp="2009-06-08T18:15:47Z" uid="36809" user="pfoten_weg_!_" changeset="1461570" lat="48.0732753" lon="11.518457">
    <tag k="addr:city" v="München"/>
    <tag k="addr:country" v="DE"/>
    <tag k="addr:housename" v="Wohngebäude"/>
    <tag k="addr:housenumber" v="23"/>
    <tag k="addr:postcode" v="81479"/>
    <tag k="addr:street" v="Stridbeckstraße"/>
    <tag k="created_by" v="RambaZamba"/>
    <tag k="name" v="23"/>
  </node>
  <node id="412568368" version="1" timestamp="2009-05-29T20:46:30Z" uid="36809" user="pfoten_weg_!_" changeset="1354282" lat="48.073508" lon="11.518685">
    <tag k="addr:city" v="München"/>
    <tag k="addr:country" v="DE"/>
    <tag k="addr:housename" v="Wohnhaus"/>
    <tag k="addr:housenumber" v="21"/>
    <tag k="addr:postcode" v="81479"/>
    <tag k="addr:street" v="Stridbeckstraße"/>
    <tag k="created_by" v="RambaZamba"/>
    <tag k="name" v="21"/>
  </node>
  <node id="412568368" version="2" timestamp="2009-06-07T21:17:45Z" uid="36809" user="pfoten_weg_!_" changeset="1453903" lat="48.073508" lon="11.518685">
    <tag k="addr:city" v="München"/>
    <tag k="addr:country" v="DE"/>
    <tag k="addr:housename" v="Wohngebäude"/>
    <tag k="addr:housenumber" v="21"/>
    <tag k="addr:postcode" v="81479"/>
    <tag k="addr:street" v="Stridbeckstraße"/>
    <tag k="created_by" v="RambaZamba"/>
    <tag k="name" v="21"/>
  </node>
  <node id="412568368" version="3" timestamp="2009-06-08T18:15:47Z" uid="36809" user="pfoten_weg_!_" changeset="1461570" lat="48.073508" lon="11.518685">
    <tag k="addr:city" v="München"/>
    <tag k="addr:country" v="DE"/>
    <tag k="addr:housename" v="Wohngebäude"/>
    <tag k="addr:housenumber" v="21"/>
    <tag k="addr:postcode" v="81479"/>
    <tag k="addr:street" v="Stridbeckstraße"/>
    <tag k="created_by" v="RambaZamba"/>
    <tag k="name" v="21"/>
  </node>
  <node id="412568369" version="1" timestamp="2009-05-29T20:46:30Z" uid="36809" user="pfoten_weg_!_" changeset="1354282" lat="48.073477" lon="11.518842">
    <tag k="addr:city" v="München"/>
    <tag k="addr:country" v="DE"/>
    <tag k="addr:housename" v="Wohnhaus"/>
    <tag k="addr:housenumber" v="21B"/>
    <tag k="addr:postcode" v="81479"/>
    <tag k="addr:street" v="Stridbeckstraße"/>
    <tag k="created_by" v="RambaZamba"/>
    <tag k="name" v="21B"/>
  </node>
  <node id="412568369" version="2" timestamp="2009-06-07T21:17:45Z" uid="36809" user="pfoten_weg_!_" changeset="1453903" lat="48.073477" lon="11.518842">
    <tag k="addr:city" v="München"/>
    <tag k="addr:country" v="DE"/>
    <tag k="addr:housename" v="Wohngebäude"/>
    <tag k="addr:housenumber" v="21B"/>
    <tag k="addr:postcode" v="81479"/>
    <tag k="addr:street" v="Stridbeckstraße"/>
    <tag k="created_by" v="RambaZamba"/>
    <tag k="name" v="21B"/>
  </node>
  <node id="412568369" version="3" timestamp="2009-06-08T18:15:47Z" uid="36809" user="pfoten_weg_!_" changeset="1461570" lat="48.073477" lon="11.518842">
    <tag k="addr:city" v="München"/>
    <tag k="addr:country" v="DE"/>
    <tag k="addr:housename" v="Wohngebäude"/>
    <tag k="addr:housenumber" v="21B"/>
    <tag k="addr:postcode" v="81479"/>
    <tag k="addr:street" v="Stridbeckstraße"/>
    <tag k="created_by" v="RambaZamba"/>
    <tag k="name" v="21B"/>
  </node>
  <node id="412568370" version="1" timestamp="2009-05-29T20:46:30Z" uid="36809" user="pfoten_weg_!_" changeset="1354282" lat="48.073776" lon="11.5188">
    <tag k="addr:city" v="München"/>
    <tag k="addr:country" v="DE"/>
    <tag k="addr:housename" v="Wohnhaus"/>
    <tag k="addr:housenumber" v="19"/>
    <tag k="addr:postcode" v="81479"/>
    <tag k="addr:street" v="Stridbeckstraße"/>
    <tag k="created_by" v="RambaZamba"/>
    <tag k="name" v="19"/>
  </node>
  <node id="412568370" version="2" timestamp="2009-06-07T21:17:44Z" uid="36809" user="pfoten_weg_!_" changeset="1453903" lat="48.073776" lon="11.5188">
    <tag k="addr:city" v="München"/>
    <tag k="addr:country" v="DE"/>
    <tag k="addr:housename" v="Wohngebäude"/>
    <tag k="addr:housenumber" v="19"/>
    <tag k="addr:postcode" v="81479"/>
    <tag k="addr:street" v="Stridbeckstraße"/>
    <tag k="created_by" v="RambaZamba"/>
    <tag k="name" v="19"/>
  </node>
  <node id="412568370" version="3" timestamp="2009-06-08T18:15:47Z" uid="36809" user="pfoten_weg_!_" changeset="1461570" lat="48.073776" lon="11.5188">
    <tag k="addr:city" v="München"/>
    <tag k="addr:country" v="DE"/>
    <tag k="addr:housename" v="Wohngebäude"/>
    <tag k="addr:housenumber" v="19"/>
    <tag k="addr:postcode" v="81479"/>
    <tag k="addr:street" v="Stridbeckstraße"/>
    <tag k="created_by" v="RambaZamba"/>
    <tag k="name" v="19"/>
  </node>
  <node id="412568371" version="1" timestamp="2009-05-29T20:46:30Z" uid="36809" user="pfoten_weg_!_" changeset="1354282" lat="48.074079" lon="11.518979">
    <tag k="addr:city" v="München"/>
    <tag k="addr:country" v="DE"/>
    <tag k="addr:housename" v="Wohnhaus"/>
    <tag k="addr:housenumber" v="30"/>
    <tag k="addr:postcode" v="81479"/>
    <tag k="created_by" v="RambaZamba"/>
    <tag k="name" v="30"/>
  </node>
  <node id="412568371" version="2" timestamp="2009-06-07T21:17:45Z" uid="36809" user="pfoten_weg_!_" changeset="1453903" lat="48.074079" lon="11.518979">
    <tag k="addr:city" v="München"/>
    <tag k="addr:country" v="DE"/>
    <tag k="addr:housename" v="Wohngebäude"/>
    <tag k="addr:housenumber" v="30"/>
    <tag k="addr:postcode" v="81479"/>
    <tag k="created_by" v="RambaZamba"/>
    <tag k="name" v="30"/>
  </node>
  <node id="412568371" version="3" timestamp="2009-06-08T18:15:47Z" uid="36809" user="pfoten_weg_!_" changeset="1461570" lat="48.074079" lon="11.518979">
    <tag k="addr:city" v="München"/>
    <tag k="addr:country" v="DE"/>
    <tag k="addr:housename" v="Wohngebäude"/>
    <tag k="addr:housenumber" v="30"/>
    <tag k="addr:postcode" v="81479"/>
    <tag k="created_by" v="RambaZamba"/>
    <tag k="name" v="30"/>
  </node>
  <node id="412568372" version="1" timestamp="2009-05-29T20:46:30Z" uid="36809" user="pfoten_weg_!_" changeset="1354282" lat="48.073928" lon="11.519421">
    <tag k="addr:city" v="München"/>
    <tag k="addr:country" v="DE"/>
    <tag k="addr:housename" v="Wohnhaus"/>
    <tag k="addr:housenumber" v="32"/>
    <tag k="addr:postcode" v="81479"/>
    <tag k="addr:street" v="Bertelestraße"/>
    <tag k="created_by" v="RambaZamba"/>
    <tag k="name" v="32"/>
  </node>
  <node id="412568372" version="2" timestamp="2009-06-07T21:17:44Z" uid="36809" user="pfoten_weg_!_" changeset="1453903" lat="48.073928" lon="11.519421">
    <tag k="addr:city" v="München"/>
    <tag k="addr:country" v="DE"/>
    <tag k="addr:housename" v="Wohngebäude"/>
    <tag k="addr:housenumber" v="32"/>
    <tag k="addr:postcode" v="81479"/>
    <tag k="addr:street" v="Bertelestraße"/>
    <tag k="created_by" v="RambaZamba"/>
    <tag k="name" v="32"/>
  </node>
  <node id="412568372" version="3" timestamp="2009-06-08T18:15:47Z" uid="36809" user="pfoten_weg_!_" changeset="1461570" lat="48.073928" lon="11.519421">
    <tag k="addr:city" v="München"/>
    <tag k="addr:country" v="DE"/>
    <tag k="addr:housename" v="Wohngebäude"/>
    <tag k="addr:housenumber" v="32"/>
    <tag k="addr:postcode" v="81479"/>
    <tag k="addr:street" v="Bertelestraße"/>
    <tag k="created_by" v="RambaZamba"/>
    <tag k="name" v="32"/>
  </node>
  <node id="412568373" version="1" timestamp="2009-05-29T20:46:30Z" uid="36809" user="pfoten_weg_!_" changeset="1354282" lat="48.072073" lon="11.519346">
    <tag k="addr:city" v="München"/>
    <tag k="addr:country" v="DE"/>
    <tag k="addr:housename" v="Wohnhaus"/>
    <tag k="addr:housenumber" v="264"/>
    <tag k="addr:postcode" v="81479"/>
    <tag k="addr:street" v="Wolfratshauser Straße"/>
    <tag k="created_by" v="RambaZamba"/>
    <tag k="name" v="264"/>
  </node>
  <node id="412568373" version="2" timestamp="2009-06-07T21:17:44Z" uid="36809" user="pfoten_weg_!_" changeset="1453903" lat="48.072073" lon="11.519346">
    <tag k="addr:city" v="München"/>
    <tag k="addr:country" v="DE"/>
    <tag k="addr:housename" v="Wohngebäude"/>
    <tag k="addr:housenumber" v="264"/>
    <tag k="addr:postcode" v="81479"/>
    <tag k="addr:street" v="Wolfratshauser Straße"/>
    <tag k="created_by" v="RambaZamba"/>
    <tag k="name" v="264"/>
  </node>
  <node id="412568373" version="3" timestamp="2009-06-08T18:15:47Z" uid="36809" user="pfoten_weg_!_" changeset="1461570" lat="48.072073" lon="11.519346">
    <tag k="addr:city" v="München"/>
    <tag k="addr:country" v="DE"/>
    <tag k="addr:housename" v="Wohngebäude"/>
    <tag k="addr:housenumber" v="264"/>
    <tag k="addr:postcode" v="81479"/>
    <tag k="addr:street" v="Wolfratshauser Straße"/>
    <tag k="created_by" v="RambaZamba"/>
    <tag k="name" v="264"/>
  </node>
  <node id="412568374" version="1" timestamp="2009-05-29T20:46:31Z" uid="36809" user="pfoten_weg_!_" changeset="1354282" lat="48.072214" lon="11.519447">
    <tag k="addr:city" v="München"/>
    <tag k="addr:country" v="DE"/>
    <tag k="addr:housename" v="Wohnhaus"/>
    <tag k="addr:housenumber" v="262"/>
    <tag k="addr:postcode" v="81479"/>
    <tag k="addr:street" v="Wolfratshauser Straße"/>
    <tag k="created_by" v="RambaZamba"/>
    <tag k="name" v="262"/>
  </node>
  <node id="412568374" version="2" timestamp="2009-06-07T21:17:44Z" uid="36809" user="pfoten_weg_!_" changeset="1453903" lat="48.072214" lon="11.519447">
    <tag k="addr:city" v="München"/>
    <tag k="addr:country" v="DE"/>
    <tag k="addr:housename" v="Wohngebäude"/>
    <tag k="addr:housenumber" v="262"/>
    <tag k="addr:postcode" v="81479"/>
    <tag k="addr:street" v="Wolfratshauser Straße"/>
    <tag k="created_by" v="RambaZamba"/>
    <tag k="name" v="262"/>
  </node>
  <node id="412568374" version="3" timestamp="2009-06-08T18:15:47Z" uid="36809" user="pfoten_weg_!_" changeset="1461570" lat="48.072214" lon="11.519447">
    <tag k="addr:city" v="München"/>
    <tag k="addr:country" v="DE"/>
    <tag k="addr:housename" v="Wohngebäude"/>
    <tag k="addr:housenumber" v="262"/>
    <tag k="addr:postcode" v="81479"/>
    <tag k="addr:street" v="Wolfratshauser Straße"/>
    <tag k="created_by" v="RambaZamba"/>
    <tag k="name" v="262"/>
  </node>
  <node id="412568375" version="1" timestamp="2009-05-29T20:46:31Z" uid="36809" user="pfoten_weg_!_" changeset="1354282" lat="48.071801" lon="11.519048">
    <tag k="addr:city" v="München"/>
    <tag k="addr:country" v="DE"/>
    <tag k="addr:housename" v="Wohnhaus"/>
    <tag k="addr:housenumber" v="268"/>
    <tag k="addr:postcode" v="81479"/>
    <tag k="addr:street" v="Wolfratshauser Straße"/>
    <tag k="created_by" v="RambaZamba"/>
    <tag k="name" v="268"/>
  </node>
  <node id="412568375" version="2" timestamp="2009-06-07T21:17:44Z" uid="36809" user="pfoten_weg_!_" changeset="1453903" lat="48.071801" lon="11.519048">
    <tag k="addr:city" v="München"/>
    <tag k="addr:country" v="DE"/>
    <tag k="addr:housename" v="Wohngebäude"/>
    <tag k="addr:housenumber" v="268"/>
    <tag k="addr:postcode" v="81479"/>
    <tag k="addr:street" v="Wolfratshauser Straße"/>
    <tag k="created_by" v="RambaZamba"/>
    <tag k="name" v="268"/>
  </node>
  <node id="412568375" version="3" timestamp="2009-06-08T18:15:47Z" uid="36809" user="pfoten_weg_!_" changeset="1461570" lat="48.071801" lon="11.519048">
    <tag k="addr:city" v="München"/>
    <tag k="addr:country" v="DE"/>
    <tag k="addr:housename" v="Wohngebäude"/>
    <tag k="addr:housenumber" v="268"/>
    <tag k="addr:postcode" v="81479"/>
    <tag k="addr:street" v="Wolfratshauser Straße"/>
    <tag k="created_by" v="RambaZamba"/>
    <tag k="name" v="268"/>
  </node>
  <node id="412568376" version="1" timestamp="2009-05-29T20:46:31Z" uid="36809" user="pfoten_weg_!_" changeset="1354282" lat="48.071952" lon="11.519165">
    <tag k="addr:city" v="München"/>
    <tag k="addr:country" v="DE"/>
    <tag k="addr:housename" v="Wohnhaus"/>
    <tag k="addr:housenumber" v="266"/>
    <tag k="addr:postcode" v="81479"/>
    <tag k="addr:street" v="Wolfratshauser Straße"/>
    <tag k="created_by" v="RambaZamba"/>
    <tag k="name" v="266"/>
  </node>
  <node id="412568376" version="2" timestamp="2009-06-07T21:17:45Z" uid="36809" user="pfoten_weg_!_" changeset="1453903" lat="48.071952" lon="11.519165">
    <tag k="addr:city" v="München"/>
    <tag k="addr:country" v="DE"/>
    <tag k="addr:housename" v="Wohngebäude"/>
    <tag k="addr:housenumber" v="266"/>
    <tag k="addr:postcode" v="81479"/>
    <tag k="addr:street" v="Wolfratshauser Straße"/>
    <tag k="created_by" v="RambaZamba"/>
    <tag k="name" v="266"/>
  </node>
  <node id="412568376" version="3" timestamp="2009-06-08T18:15:46Z" uid="36809" user="pfoten_weg_!_" changeset="1461570" lat="48.071952" lon="11.519165">
    <tag k="addr:city" v="München"/>
    <tag k="addr:country" v="DE"/>
    <tag k="addr:housename" v="Wohngebäude"/>
    <tag k="addr:housenumber" v="266"/>
    <tag k="addr:postcode" v="81479"/>
    <tag k="addr:street" v="Wolfratshauser Straße"/>
    <tag k="created_by" v="RambaZamba"/>
    <tag k="name" v="266"/>
  </node>
  <node id="412568377" version="1" timestamp="2009-05-29T20:46:31Z" uid="36809" user="pfoten_weg_!_" changeset="1354282" lat="48.071446" lon="11.518602">
    <tag k="addr:city" v="München"/>
    <tag k="addr:country" v="DE"/>
    <tag k="addr:housename" v="Wohnhaus"/>
    <tag k="addr:housenumber" v="274"/>
    <tag k="addr:postcode" v="81479"/>
    <tag k="addr:street" v="Wolfratshauser Straße"/>
    <tag k="created_by" v="RambaZamba"/>
    <tag k="name" v="274"/>
  </node>
  <node id="412568377" version="2" timestamp="2009-06-07T21:17:45Z" uid="36809" user="pfoten_weg_!_" changeset="1453903" lat="48.071446" lon="11.518602">
    <tag k="addr:city" v="München"/>
    <tag k="addr:country" v="DE"/>
    <tag k="addr:housename" v="Wohngebäude"/>
    <tag k="addr:housenumber" v="274"/>
    <tag k="addr:postcode" v="81479"/>
    <tag k="addr:street" v="Wolfratshauser Straße"/>
    <tag k="created_by" v="RambaZamba"/>
    <tag k="name" v="274"/>
  </node>
  <node id="412568377" version="3" timestamp="2009-06-08T18:15:46Z" uid="36809" user="pfoten_weg_!_" changeset="1461570" lat="48.071446" lon="11.518602">
    <tag k="addr:city" v="München"/>
    <tag k="addr:country" v="DE"/>
    <tag k="addr:housename" v="Wohngebäude"/>
    <tag k="addr:housenumber" v="274"/>
    <tag k="addr:postcode" v="81479"/>
    <tag k="addr:street" v="Wolfratshauser Straße"/>
    <tag k="created_by" v="RambaZamba"/>
    <tag k="name" v="274"/>
  </node>
  <node id="412568378" version="1" timestamp="2009-05-29T20:46:31Z" uid="36809" user="pfoten_weg_!_" changeset="1354282" lat="48.071636" lon="11.518961">
    <tag k="addr:city" v="München"/>
    <tag k="addr:country" v="DE"/>
    <tag k="addr:housename" v="Wohnhaus"/>
    <tag k="addr:housenumber" v="270"/>
    <tag k="addr:postcode" v="81479"/>
    <tag k="addr:street" v="Wolfratshauser Straße"/>
    <tag k="created_by" v="RambaZamba"/>
    <tag k="name" v="270"/>
  </node>
  <node id="412568378" version="2" timestamp="2009-06-07T21:17:45Z" uid="36809" user="pfoten_weg_!_" changeset="1453903" lat="48.071636" lon="11.518961">
    <tag k="addr:city" v="München"/>
    <tag k="addr:country" v="DE"/>
    <tag k="addr:housename" v="Wohngebäude"/>
    <tag k="addr:housenumber" v="270"/>
    <tag k="addr:postcode" v="81479"/>
    <tag k="addr:street" v="Wolfratshauser Straße"/>
    <tag k="created_by" v="RambaZamba"/>
    <tag k="name" v="270"/>
  </node>
  <node id="412568378" version="3" timestamp="2009-06-08T18:15:46Z" uid="36809" user="pfoten_weg_!_" changeset="1461570" lat="48.071636" lon="11.518961">
    <tag k="addr:city" v="München"/>
    <tag k="addr:country" v="DE"/>
    <tag k="addr:housename" v="Wohngebäude"/>
    <tag k="addr:housenumber" v="270"/>
    <tag k="addr:postcode" v="81479"/>
    <tag k="addr:street" v="Wolfratshauser Straße"/>
    <tag k="created_by" v="RambaZamba"/>
    <tag k="name" v="270"/>
  </node>
  <node id="412568379" version="1" timestamp="2009-05-29T20:46:31Z" uid="36809" user="pfoten_weg_!_" changeset="1354282" lat="48.071005" lon="11.518462">
    <tag k="addr:city" v="München"/>
    <tag k="addr:country" v="DE"/>
    <tag k="addr:housename" v="Wohnhaus"/>
    <tag k="addr:housenumber" v="278"/>
    <tag k="addr:postcode" v="81479"/>
    <tag k="addr:street" v="Wolfratshauser Straße"/>
    <tag k="created_by" v="RambaZamba"/>
    <tag k="name" v="278"/>
  </node>
  <node id="412568379" version="2" timestamp="2009-06-07T21:17:45Z" uid="36809" user="pfoten_weg_!_" changeset="1453903" lat="48.071005" lon="11.518462">
    <tag k="addr:city" v="München"/>
    <tag k="addr:country" v="DE"/>
    <tag k="addr:housename" v="Wohngebäude"/>
    <tag k="addr:housenumber" v="278"/>
    <tag k="addr:postcode" v="81479"/>
    <tag k="addr:street" v="Wolfratshauser Straße"/>
    <tag k="created_by" v="RambaZamba"/>
    <tag k="name" v="278"/>
  </node>
  <node id="412568379" version="3" timestamp="2009-06-08T18:15:46Z" uid="36809" user="pfoten_weg_!_" changeset="1461570" lat="48.071005" lon="11.518462">
    <tag k="addr:city" v="München"/>
    <tag k="addr:country" v="DE"/>
    <tag k="addr:housename" v="Wohngebäude"/>
    <tag k="addr:housenumber" v="278"/>
    <tag k="addr:postcode" v="81479"/>
    <tag k="addr:street" v="Wolfratshauser Straße"/>
    <tag k="created_by" v="RambaZamba"/>
    <tag k="name" v="278"/>
  </node>
  <node id="412568380" version="1" timestamp="2009-05-29T20:46:31Z" uid="36809" user="pfoten_weg_!_" changeset="1354282" lat="48.071225" lon="11.518575">
    <tag k="addr:city" v="München"/>
    <tag k="addr:country" v="DE"/>
    <tag k="addr:housename" v="Wohnhaus"/>
    <tag k="addr:housenumber" v="276"/>
    <tag k="addr:postcode" v="81479"/>
    <tag k="addr:street" v="Wolfratshauser Straße"/>
    <tag k="created_by" v="RambaZamba"/>
    <tag k="name" v="276"/>
  </node>
  <node id="412568380" version="2" timestamp="2009-06-07T21:17:45Z" uid="36809" user="pfoten_weg_!_" changeset="1453903" lat="48.071225" lon="11.518575">
    <tag k="addr:city" v="München"/>
    <tag k="addr:country" v="DE"/>
    <tag k="addr:housename" v="Wohngebäude"/>
    <tag k="addr:housenumber" v="276"/>
    <tag k="addr:postcode" v="81479"/>
    <tag k="addr:street" v="Wolfratshauser Straße"/>
    <tag k="created_by" v="RambaZamba"/>
    <tag k="name" v="276"/>
  </node>
  <node id="412568380" version="3" timestamp="2009-06-08T18:15:47Z" uid="36809" user="pfoten_weg_!_" changeset="1461570" lat="48.071225" lon="11.518575">
    <tag k="addr:city" v="München"/>
    <tag k="addr:country" v="DE"/>
    <tag k="addr:housename" v="Wohngebäude"/>
    <tag k="addr:housenumber" v="276"/>
    <tag k="addr:postcode" v="81479"/>
    <tag k="addr:street" v="Wolfratshauser Straße"/>
    <tag k="created_by" v="RambaZamba"/>
    <tag k="name" v="276"/>
  </node>
  <node id="412568381" version="1" timestamp="2009-05-29T20:46:31Z" uid="36809" user="pfoten_weg_!_" changeset="1354282" lat="48.071207" lon="11.517867">
    <tag k="addr:city" v="München"/>
    <tag k="addr:country" v="DE"/>
    <tag k="addr:housename" v="Wohnhaus"/>
    <tag k="addr:housenumber" v="39"/>
    <tag k="addr:postcode" v="81479"/>
    <tag k="addr:street" v="Stridbeckstraße"/>
    <tag k="created_by" v="RambaZamba"/>
    <tag k="name" v="39"/>
  </node>
  <node id="412568381" version="2" timestamp="2009-05-31T22:43:01Z" uid="36809" user="pfoten_weg_!_" changeset="1374416" lat="48.071207" lon="11.517867">
    <tag k="addr:city" v="München"/>
    <tag k="addr:country" v="DE"/>
    <tag k="addr:housename" v="Wohnhaus"/>
    <tag k="addr:housenumber" v="39"/>
    <tag k="addr:postcode" v="81479"/>
    <tag k="addr:street" v="Stridbeckstraße"/>
    <tag k="created_by" v="RambaZamba"/>
    <tag k="name" v="39"/>
  </node>
  <node id="412568382" version="1" timestamp="2009-05-29T20:46:31Z" uid="36809" user="pfoten_weg_!_" changeset="1354282" lat="48.070874" lon="11.518183">
    <tag k="addr:city" v="München"/>
    <tag k="addr:country" v="DE"/>
    <tag k="addr:housename" v="Wohnhaus"/>
    <tag k="addr:housenumber" v="280"/>
    <tag k="addr:postcode" v="81479"/>
    <tag k="addr:street" v="Wolfratshauser Straße"/>
    <tag k="created_by" v="RambaZamba"/>
    <tag k="name" v="280"/>
  </node>
  <node id="412568382" version="2" timestamp="2009-05-30T20:13:23Z" uid="36809" user="pfoten_weg_!_" changeset="1363232" lat="48.070874" lon="11.518183">
    <tag k="addr:city" v="München"/>
    <tag k="addr:country" v="DE"/>
    <tag k="addr:housename" v="Wohnhaus"/>
    <tag k="addr:housenumber" v="280"/>
    <tag k="addr:postcode" v="81479"/>
    <tag k="addr:street" v="Wolfratshauser Straße"/>
    <tag k="created_by" v="RambaZamba"/>
    <tag k="name" v="280"/>
  </node>
  <node id="412568383" version="1" timestamp="2009-05-29T20:46:31Z" uid="36809" user="pfoten_weg_!_" changeset="1354282" lat="48.0730265" lon="11.5194039"/>
  <node id="412568383" version="2" timestamp="2009-06-09T08:56:32Z" uid="36809" user="pfoten_weg_!_" changeset="1466365" lat="48.0730265" lon="11.5194039">
    <tag k="created_by" v="RambaZamba"/>
  </node>
  <node id="412568383" version="3" timestamp="2009-08-12T13:59:35Z" uid="156995" user="HampelZamba" changeset="2119076" lat="48.0730265" lon="11.5194039"/>
  <node id="412568383" version="4" timestamp="2009-08-19T01:36:45Z" uid="36809" user="pfoten_weg_!_" changeset="2196399" lat="48.0730265" lon="11.5194039">
    <tag k="warnung" v="rumpelzumpel-verbrecher"/>
  </node>
  <node id="412568383" version="5" timestamp="2009-08-19T02:03:49Z" uid="36809" user="pfoten_weg_!_" changeset="2196453" lat="48.0730265" lon="11.5194039"/>
  <node id="412568383" version="6" timestamp="2011-06-16T18:09:29Z" uid="11374" user="q_un_go" changeset="8458452" lat="48.0730506" lon="11.5193534"/>
  <node id="412568384" version="1" timestamp="2009-05-29T20:46:31Z" uid="36809" user="pfoten_weg_!_" changeset="1354282" lat="48.073049" lon="11.5193789"/>
  <node id="412568384" version="2" timestamp="2009-06-09T08:56:30Z" uid="36809" user="pfoten_weg_!_" changeset="1466365" lat="48.073049" lon="11.5193789">
    <tag k="created_by" v="RambaZamba"/>
  </node>
  <node id="412568384" version="3" timestamp="2009-08-12T13:59:35Z" uid="156995" user="HampelZamba" changeset="2119076" lat="48.073049" lon="11.5193789"/>
  <node id="412568384" version="4" timestamp="2009-08-19T01:36:31Z" uid="36809" user="pfoten_weg_!_" changeset="2196399" lat="48.073049" lon="11.5193789">
    <tag k="warnung" v="rumpelzumpel-verbrecher"/>
  </node>
  <node id="412568384" version="5" timestamp="2009-08-19T02:03:36Z" uid="36809" user="pfoten_weg_!_" changeset="2196453" lat="48.073049" lon="11.5193789"/>
  <node id="412568384" version="6" timestamp="2011-06-16T18:09:41Z" uid="11374" user="q_un_go" changeset="8458452" lat="48.0730731" lon="11.5193284"/>
</osm>
