<?xml version='1.0' encoding='UTF-8'?>
<osm version="0.6" generator="libosmium/2.20.0">
  <node id="412877037" version="2" timestamp="2009-06-25T15:37:01Z" uid="20587" user="balrog-kun" changeset="1624061" lat="52.2518747" lon="21.0379611">
    <tag k="name" v="Ząbkowska 04"/>
    <tag k="railway" v="tram_stop"/>
  </node>
  <node id="412877037" version="3" timestamp="2009-10-28T13:10:28Z" uid="20587" user="balrog-kun" changeset="2973097" lat="52.2518747" lon="21.0379611">
    <tag k="name" v="Ząbkowska 04"/>
    <tag k="railway" v="tram_stop"/>
    <tag k="tactile_paving" v="yes"/>
  </node>
  <node id="412877037" version="4" timestamp="2010-01-12T13:53:54Z" uid="20587" user="balrog-kun" changeset="3603234" lat="52.2518747" lon="21.0379611">
    <tag k="name" v="Ząbkowska 04"/>
    <tag k="note" v="TODO: tactile_paving"/>
    <tag k="railway" v="tram_stop"/>
    <tag k="tactile_paving" v="no"/>
  </node>
  <node id="412877037" version="5" timestamp="2010-01-13T14:45:18Z" uid="20587" user="balrog-kun" changeset="3610428" lat="52.2518747" lon="21.0379611">
    <tag k="name" v="Ząbkowska 04"/>
    <tag k="note" v="TODO: tactile_paving"/>
    <tag k="railway" v="tram_stop"/>
    <tag k="tactile_paving" v="no"/>
    <tag k="ztm:ciąg_ulicy" v="Targowa"/>
  </node>
  <node id="412877037" version="6" timestamp="2010-01-16T01:09:42Z" uid="20587" user="balrog-kun" changeset="3628764" lat="52.2518777" lon="21.0379709">
    <tag k="name" v="Ząbkowska 04"/>
    <tag k="railway" v="tram_stop"/>
    <tag k="tactile_paving" v="no"/>
    <tag k="ztm:ciąg_ulicy" v="Targowa"/>
  </node>
  <node id="412877037" version="7" timestamp="2011-03-01T23:30:24Z" uid="20587" user="balrog-kun" changeset="7434246" lat="52.2518777" lon="21.0379709">
    <tag k="name" v="Ząbkowska 04"/>
    <tag k="railway" v="tram_stop"/>
    <tag k="shelter" v="yes"/>
    <tag k="tactile_paving" v="no"/>
    <tag k="ztm:ciąg_ulicy" v="Targowa"/>
  </node>
  <node id="412877037" version="8" timestamp="2011-08-16T12:21:09Z" uid="373244" user="Tomaszg" changeset="9035613" lat="52.2518482" lon="21.0380407">
    <tag k="name" v="Ząbkowska 04"/>
    <tag k="railway" v="tram_stop"/>
    <tag k="shelter" v="yes"/>
    <tag k="tactile_paving" v="no"/>
    <tag k="ztm:ciąg_ulicy" v="Targowa"/>
  </node>
  <node id="412877037" version="9" timestamp="2011-09-16T16:46:45Z" uid="373244" user="Tomekg" changeset="9317592" lat="52.251946" lon="21.0378733">
    <tag k="name" v="Ząbkowska 04"/>
    <tag k="railway" v="tram_stop"/>
    <tag k="shelter" v="yes"/>
    <tag k="tactile_paving" v="no"/>
    <tag k="ztm:ciąg_ulicy" v="Targowa"/>
  </node>
  <node id="412877037" version="10" timestamp="2011-10-02T10:40:14Z" uid="477744" user="hormel" changeset="9449555" lat="52.251946" lon="21.0378733"/>
  <node id="412877042" version="1" timestamp="2009-05-30T15:35:30Z" uid="46862" user="Mayer" changeset="1360167" lat="50.8210775" lon="11.4240635">
    <tag k="is in " v="Lotschen"/>
    <tag k="name" v="Pfarrkeßlar"/>
    <tag k="place" v="hamlet"/>
  </node>
  <node id="412877042" version="2" timestamp="2009-06-01T18:15:33Z" uid="9581" user="Lobelt" changeset="1394246" lat="50.8210775" lon="11.4240635">
    <tag k="is in " v="Lotschen"/>
    <tag k="name" v="Pfarrkeßlar"/>
    <tag k="place" v="hamlet"/>
  </node>
  <node id="412877043" version="1" timestamp="2009-05-30T15:35:30Z" uid="46862" user="Mayer" changeset="1360167" lat="50.8210775" lon="11.4240635">
    <tag k="is in " v="Drößnitz"/>
    <tag k="name" v="Pfarrkeßlar"/>
    <tag k="place" v="hamlet"/>
  </node>
  <node id="412877043" version="2" timestamp="2009-06-01T18:15:27Z" uid="9581" user="Lobelt" changeset="1394246" lat="50.8210775" lon="11.4240635">
    <tag k="is in " v="Drößnitz"/>
    <tag k="name" v="Pfarrkeßlar"/>
    <tag k="place" v="hamlet"/>
  </node>
  <node id="412877043" version="3" timestamp="2009-06-03T21:29:21Z" uid="70696" user="xybot" changeset="1416899" lat="50.8210775" lon="11.4240635">
    <tag k="is in" v="Drößnitz"/>
    <tag k="name" v="Pfarrkeßlar"/>
    <tag k="place" v="hamlet"/>
  </node>
  <node id="412877043" version="4" timestamp="2009-12-08T11:06:54Z" uid="28783" user="mey2008" changeset="3323912" lat="50.8210775" lon="11.4240635">
    <tag k="is_in" v="Drößnitz,Blankenhain,Weimarer Land,Thüringen,Bundesrepublik Deutschland,Europe"/>
    <tag k="name" v="Pfarrkeßlar"/>
    <tag k="place" v="hamlet"/>
  </node>
  <node id="412879514" version="2" timestamp="2009-06-25T15:37:01Z" uid="20587" user="balrog-kun" changeset="1624061" lat="52.246812" lon="21.0472625">
    <tag k="name" v="Aleja Zieleniecka 07"/>
    <tag k="railway" v="tram_stop"/>
  </node>
  <node id="412879514" version="3" timestamp="2009-10-28T13:10:26Z" uid="20587" user="balrog-kun" changeset="2973097" lat="52.246812" lon="21.0472625">
    <tag k="name" v="Aleja Zieleniecka 07"/>
    <tag k="railway" v="tram_stop"/>
    <tag k="tactile_paving" v="yes"/>
  </node>
  <node id="412879514" version="4" timestamp="2009-11-27T13:44:26Z" uid="20587" user="balrog-kun" changeset="3228126" lat="52.246851" lon="21.0472135">
    <tag k="name" v="Aleja Zieleniecka 08"/>
    <tag k="note" v="North bound rail"/>
    <tag k="railway" v="tram_stop"/>
    <tag k="tactile_paving" v="yes"/>
  </node>
  <node id="412879514" version="5" timestamp="2010-01-12T13:53:48Z" uid="20587" user="balrog-kun" changeset="3603234" lat="52.246851" lon="21.0472135">
    <tag k="name" v="Aleja Zieleniecka 08"/>
    <tag k="note" v="North bound rail"/>
    <tag k="railway" v="tram_stop"/>
    <tag k="tactile_paving" v="yes"/>
    <tag k="tactile_paving:slab_size" v="40x40"/>
    <tag k="ztm:ciąg_ulicy" v="Al. Zieleniecka"/>
  </node>
  <node id="412879514" version="6" timestamp="2010-01-15T17:57:54Z" uid="20587" user="balrog-kun" changeset="3626110" lat="52.2468585" lon="21.0472623">
    <tag k="name" v="Aleja Zieleniecka 08"/>
    <tag k="railway" v="tram_stop"/>
    <tag k="tactile_paving" v="yes"/>
    <tag k="tactile_paving:slab_size" v="40x40"/>
    <tag k="ztm:ciąg_ulicy" v="Al. Zieleniecka"/>
  </node>
  <node id="412879514" version="7" timestamp="2010-01-24T14:10:43Z" uid="20587" user="balrog-kun" changeset="3701368" lat="52.2469591" lon="21.047261">
    <tag k="name" v="Aleja Zieleniecka 08"/>
    <tag k="railway" v="tram_stop"/>
    <tag k="tactile_paving" v="yes"/>
    <tag k="tactile_paving:slab_size" v="40x40"/>
    <tag k="ztm:ciąg_ulicy" v="Al. Zieleniecka"/>
  </node>
  <node id="412879514" version="8" timestamp="2011-08-28T15:16:03Z" uid="373244" user="Tomaszg" changeset="9148147" lat="52.2469591" lon="21.047261"/>
</osm>
