<?xml version='1.0' encoding='UTF-8'?>
<osm version="0.6" generator="libosmium/2.20.0">
  <node id="413103598" version="2" timestamp="2009-06-21T14:20:20Z" uid="20587" user="balrog-kun" changeset="1583765" lat="52.2144358" lon="21.0209905">
    <tag k="name" v="Pl.Unii Lubelskiej 06"/>
    <tag k="railway" v="tram_stop"/>
  </node>
  <node id="413103598" version="3" timestamp="2009-08-08T15:03:47Z" uid="20587" user="balrog-kun" changeset="2076575" lat="52.2144358" lon="21.0209905">
    <tag k="name" v="Plac Unii Lubelskiej 06"/>
    <tag k="railway" v="tram_stop"/>
  </node>
  <node id="413103598" version="4" timestamp="2009-11-01T03:15:19Z" uid="20587" user="balrog-kun" changeset="3003408" lat="52.2144358" lon="21.0209905">
    <tag k="name" v="Plac Unii Lubelskiej 06"/>
    <tag k="railway" v="tram_stop"/>
    <tag k="tactile_paving" v="yes"/>
  </node>
  <node id="413103598" version="5" timestamp="2010-01-12T13:53:45Z" uid="20587" user="balrog-kun" changeset="3603234" lat="52.2144358" lon="21.0209905">
    <tag k="name" v="Plac Unii Lubelskiej 06"/>
    <tag k="railway" v="tram_stop"/>
    <tag k="tactile_paving" v="yes"/>
    <tag k="tactile_paving:slab_size" v="40x40"/>
    <tag k="ztm:ciąg_ulicy" v="Marszałkowska"/>
  </node>
  <node id="413103598" version="6" timestamp="2011-07-09T06:27:42Z" uid="477744" user="hormel" changeset="8671642" lat="52.2145756" lon="21.0210128">
    <tag k="name" v="Plac Unii Lubelskiej 06"/>
    <tag k="railway" v="tram_stop"/>
    <tag k="tactile_paving" v="yes"/>
    <tag k="tactile_paving:slab_size" v="40x40"/>
    <tag k="ztm:ciąg_ulicy" v="Marszałkowska"/>
  </node>
</osm>
