<?xml version='1.0' encoding='UTF-8'?>
<osm version="0.6" generator="libosmium/2.20.0">
  <node id="413122082" version="2" timestamp="2009-08-08T15:03:45Z" uid="20587" user="balrog-kun" changeset="2076575" lat="52.2023937" lon="21.0233828">
    <tag k="name" v="Morskie Oko 03"/>
    <tag k="railway" v="tram_stop"/>
  </node>
  <node id="413122082" version="3" timestamp="2010-01-12T13:53:12Z" uid="20587" user="balrog-kun" changeset="3603234" lat="52.2023937" lon="21.0233828">
    <tag k="name" v="Morskie Oko 03"/>
    <tag k="railway" v="tram_stop"/>
    <tag k="tactile_paving" v="yes"/>
    <tag k="tactile_paving:slab_size" v="40x40"/>
    <tag k="ztm:ciąg_ulicy" v="Puławska"/>
  </node>
  <node id="413122082" version="4" timestamp="2011-06-13T13:10:02Z" uid="52087" user="kocio" changeset="8425433" lat="52.2024052" lon="21.0233828">
    <tag k="name" v="Morskie Oko 03"/>
    <tag k="railway" v="tram_stop"/>
    <tag k="tactile_paving" v="yes"/>
    <tag k="tactile_paving:slab_size" v="40x40"/>
    <tag k="ztm:ciąg_ulicy" v="Puławska"/>
  </node>
  <node id="413122082" version="5" timestamp="2011-07-09T06:27:41Z" uid="477744" user="hormel" changeset="8671642" lat="52.2021846" lon="21.0233933">
    <tag k="name" v="Morskie Oko 03"/>
    <tag k="railway" v="tram_stop"/>
    <tag k="tactile_paving" v="yes"/>
    <tag k="tactile_paving:slab_size" v="40x40"/>
    <tag k="ztm:ciąg_ulicy" v="Puławska"/>
  </node>
  <node id="413122082" version="6" timestamp="2012-03-26T19:23:40Z" uid="98542" user="wajak" changeset="11109600" lat="52.2024323" lon="21.0233419">
    <tag k="name" v="Morskie Oko 03"/>
    <tag k="railway" v="tram_stop"/>
    <tag k="tactile_paving" v="yes"/>
    <tag k="tactile_paving:slab_size" v="40x40"/>
    <tag k="ztm:ciąg_ulicy" v="Puławska"/>
  </node>
  <node id="413122089" version="2" timestamp="2009-08-08T15:03:45Z" uid="20587" user="balrog-kun" changeset="2076575" lat="52.202646" lon="21.0233421">
    <tag k="name" v="Morskie Oko 04"/>
    <tag k="railway" v="tram_stop"/>
  </node>
  <node id="413122089" version="3" timestamp="2010-01-12T13:53:12Z" uid="20587" user="balrog-kun" changeset="3603234" lat="52.202646" lon="21.0233421">
    <tag k="name" v="Morskie Oko 04"/>
    <tag k="railway" v="tram_stop"/>
    <tag k="tactile_paving" v="yes"/>
    <tag k="tactile_paving:slab_size" v="40x40"/>
    <tag k="ztm:ciąg_ulicy" v="Puławska"/>
  </node>
  <node id="413122089" version="4" timestamp="2011-06-13T13:10:02Z" uid="52087" user="kocio" changeset="8425433" lat="52.2026575" lon="21.0233421">
    <tag k="name" v="Morskie Oko 04"/>
    <tag k="railway" v="tram_stop"/>
    <tag k="tactile_paving" v="yes"/>
    <tag k="tactile_paving:slab_size" v="40x40"/>
    <tag k="ztm:ciąg_ulicy" v="Puławska"/>
  </node>
  <node id="413122089" version="5" timestamp="2011-07-09T06:27:41Z" uid="477744" user="hormel" changeset="8671642" lat="52.202615" lon="21.0233715">
    <tag k="name" v="Morskie Oko 04"/>
    <tag k="railway" v="tram_stop"/>
    <tag k="tactile_paving" v="yes"/>
    <tag k="tactile_paving:slab_size" v="40x40"/>
    <tag k="ztm:ciąg_ulicy" v="Puławska"/>
  </node>
  <node id="413122089" version="6" timestamp="2012-03-26T19:23:40Z" uid="98542" user="wajak" changeset="11109600" lat="52.2024333" lon="21.0234033">
    <tag k="name" v="Morskie Oko 04"/>
    <tag k="railway" v="tram_stop"/>
    <tag k="tactile_paving" v="yes"/>
    <tag k="tactile_paving:slab_size" v="40x40"/>
    <tag k="ztm:ciąg_ulicy" v="Puławska"/>
  </node>
  <node id="413123720" version="2" timestamp="2009-06-16T14:37:37Z" uid="20587" user="balrog-kun" changeset="1535709" lat="52.4013457" lon="17.156666">
    <tag k="addr:postcode" v="62-021"/>
    <tag k="is_in" v="f"/>
    <tag k="is_in:county" v="powiat poznański"/>
    <tag k="is_in:municipality" v="gmina Swarzędz"/>
    <tag k="is_in:province" v="województwo wielkopolskie"/>
    <tag k="name" v="Paczkowo"/>
    <tag k="place" v="village"/>
    <tag k="population" v="1251"/>
    <tag k="source:population" v="wikipedia"/>
    <tag k="wikipedia" v="pl:Paczkowo (województwo wielkopolskie)"/>
  </node>
  <node id="413123720" version="3" timestamp="2010-04-11T04:47:08Z" uid="20587" user="balrog-kun" changeset="4389130" lat="52.400891" lon="17.1573572">
    <tag k="addr:postcode" v="62-021"/>
    <tag k="is_in" v="f"/>
    <tag k="is_in:county" v="powiat poznański"/>
    <tag k="is_in:municipality" v="gmina Swarzędz"/>
    <tag k="is_in:province" v="województwo wielkopolskie"/>
    <tag k="name" v="Paczkowo"/>
    <tag k="place" v="village"/>
    <tag k="population" v="1251"/>
    <tag k="source:population" v="wikipedia"/>
    <tag k="wikipedia" v="pl:Paczkowo (województwo wielkopolskie)"/>
  </node>
  <node id="413126986" version="2" timestamp="2009-08-08T15:03:44Z" uid="20587" user="balrog-kun" changeset="2076575" lat="52.1967412" lon="21.0241082">
    <tag k="name" v="Ursynowska 05"/>
    <tag k="railway" v="tram_stop"/>
  </node>
  <node id="413126986" version="3" timestamp="2010-01-12T13:53:12Z" uid="20587" user="balrog-kun" changeset="3603234" lat="52.1967412" lon="21.0241082">
    <tag k="name" v="Ursynowska 05"/>
    <tag k="railway" v="tram_stop"/>
    <tag k="tactile_paving" v="yes"/>
    <tag k="tactile_paving:slab_size" v="40x40"/>
    <tag k="ztm:ciąg_ulicy" v="Puławska"/>
  </node>
  <node id="413126986" version="4" timestamp="2011-06-13T13:10:02Z" uid="52087" user="kocio" changeset="8425433" lat="52.1967527" lon="21.0241082">
    <tag k="name" v="Ursynowska 05"/>
    <tag k="railway" v="tram_stop"/>
    <tag k="tactile_paving" v="yes"/>
    <tag k="tactile_paving:slab_size" v="40x40"/>
    <tag k="ztm:ciąg_ulicy" v="Puławska"/>
  </node>
  <node id="413126986" version="5" timestamp="2011-07-09T06:54:50Z" uid="477744" user="hormel" changeset="8671642" lat="52.196546" lon="21.024092">
    <tag k="name" v="Ursynowska 05"/>
    <tag k="railway" v="tram_stop"/>
    <tag k="tactile_paving" v="yes"/>
    <tag k="tactile_paving:slab_size" v="40x40"/>
    <tag k="ztm:ciąg_ulicy" v="Puławska"/>
  </node>
  <node id="413129594" version="2" timestamp="2009-08-08T15:03:45Z" uid="20587" user="balrog-kun" changeset="2076575" lat="52.1945412" lon="21.0242362">
    <tag k="name" v="Malczewskiego 06"/>
    <tag k="railway" v="tram_stop"/>
  </node>
  <node id="413129594" version="3" timestamp="2010-01-12T13:53:12Z" uid="20587" user="balrog-kun" changeset="3603234" lat="52.1945412" lon="21.0242362">
    <tag k="name" v="Malczewskiego 06"/>
    <tag k="railway" v="tram_stop"/>
    <tag k="tactile_paving" v="yes"/>
    <tag k="tactile_paving:slab_size" v="40x40"/>
    <tag k="ztm:ciąg_ulicy" v="Puławska"/>
  </node>
  <node id="413129594" version="4" timestamp="2011-06-13T13:10:01Z" uid="52087" user="kocio" changeset="8425433" lat="52.1945527" lon="21.0242362">
    <tag k="name" v="Malczewskiego 06"/>
    <tag k="railway" v="tram_stop"/>
    <tag k="tactile_paving" v="yes"/>
    <tag k="tactile_paving:slab_size" v="40x40"/>
    <tag k="ztm:ciąg_ulicy" v="Puławska"/>
  </node>
  <node id="413129594" version="5" timestamp="2011-07-09T06:54:49Z" uid="477744" user="hormel" changeset="8671642" lat="52.1944317" lon="21.0242742">
    <tag k="name" v="Malczewskiego 06"/>
    <tag k="railway" v="tram_stop"/>
    <tag k="tactile_paving" v="yes"/>
    <tag k="tactile_paving:slab_size" v="40x40"/>
    <tag k="ztm:ciąg_ulicy" v="Puławska"/>
  </node>
  <node id="413129595" version="2" timestamp="2009-08-08T15:03:45Z" uid="20587" user="balrog-kun" changeset="2076575" lat="52.1942936" lon="21.024251">
    <tag k="name" v="Malczewskiego 05"/>
    <tag k="railway" v="tram_stop"/>
  </node>
  <node id="413129595" version="3" timestamp="2010-01-12T13:53:12Z" uid="20587" user="balrog-kun" changeset="3603234" lat="52.1942936" lon="21.024251">
    <tag k="name" v="Malczewskiego 05"/>
    <tag k="railway" v="tram_stop"/>
    <tag k="tactile_paving" v="yes"/>
    <tag k="tactile_paving:slab_size" v="40x40"/>
    <tag k="ztm:ciąg_ulicy" v="Puławska"/>
  </node>
  <node id="413129595" version="4" timestamp="2011-06-13T13:10:02Z" uid="52087" user="kocio" changeset="8425433" lat="52.1943051" lon="21.024251">
    <tag k="name" v="Malczewskiego 05"/>
    <tag k="railway" v="tram_stop"/>
    <tag k="tactile_paving" v="yes"/>
    <tag k="tactile_paving:slab_size" v="40x40"/>
    <tag k="ztm:ciąg_ulicy" v="Puławska"/>
  </node>
  <node id="413129595" version="5" timestamp="2011-07-09T06:54:50Z" uid="477744" user="hormel" changeset="8671642" lat="52.1939445" lon="21.0242579">
    <tag k="name" v="Malczewskiego 05"/>
    <tag k="railway" v="tram_stop"/>
    <tag k="tactile_paving" v="yes"/>
    <tag k="tactile_paving:slab_size" v="40x40"/>
    <tag k="ztm:ciąg_ulicy" v="Puławska"/>
  </node>
</osm>
