<?xml version='1.0' encoding='UTF-8'?>
<osm version="0.6" generator="libosmium/2.20.0">
  <node id="413394188" version="2" timestamp="2010-07-29T09:03:33Z" uid="74617" user="JohnSmith" changeset="5344848" lat="51.9694306" lon="7.5474171">
    <tag k="amenity" v="emergency_phone"/>
    <tag k="emergency" v="phone"/>
  </node>
  <node id="413394192" version="2" timestamp="2010-07-29T09:30:57Z" uid="74617" user="JohnSmith" changeset="5344848" lat="51.9529193" lon="7.5474294">
    <tag k="amenity" v="emergency_phone"/>
    <tag k="emergency" v="phone"/>
  </node>
  <node id="413394198" version="2" timestamp="2010-07-29T08:59:42Z" uid="74617" user="JohnSmith" changeset="5344848" lat="51.9316035" lon="7.5532283">
    <tag k="amenity" v="emergency_phone"/>
    <tag k="emergency" v="phone"/>
    <tag k="operator" v="Autobahnmeisterei"/>
  </node>
  <node id="413394202" version="2" timestamp="2010-07-29T09:28:05Z" uid="74617" user="JohnSmith" changeset="5344848" lat="51.9315881" lon="7.5536754">
    <tag k="amenity" v="emergency_phone"/>
    <tag k="emergency" v="phone"/>
    <tag k="operator" v="Autobahnmeisterei"/>
  </node>
  <node id="413394204" version="2" timestamp="2010-07-29T09:25:33Z" uid="74617" user="JohnSmith" changeset="5344848" lat="51.9210653" lon="7.5580431">
    <tag k="amenity" v="emergency_phone"/>
    <tag k="emergency" v="phone"/>
    <tag k="operator" v="Autobahnmeisterei"/>
  </node>
  <node id="413394210" version="2" timestamp="2010-07-29T09:01:05Z" uid="74617" user="JohnSmith" changeset="5344848" lat="51.9212206" lon="7.5582478">
    <tag k="amenity" v="emergency_phone"/>
    <tag k="emergency" v="phone"/>
    <tag k="operator" v="Autobahnmeisterei"/>
  </node>
  <node id="413394213" version="2" timestamp="2010-07-29T09:05:50Z" uid="74617" user="JohnSmith" changeset="5344848" lat="51.9150217" lon="7.5556742">
    <tag k="amenity" v="emergency_phone"/>
    <tag k="emergency" v="phone"/>
    <tag k="operator" v="Autobahnmeisterei"/>
  </node>
  <node id="413394216" version="2" timestamp="2010-07-29T09:26:33Z" uid="74617" user="JohnSmith" changeset="5344848" lat="51.9124222" lon="7.5357997">
    <tag k="amenity" v="emergency_phone"/>
    <tag k="emergency" v="phone"/>
    <tag k="operator" v="Autobahnmeisterei"/>
  </node>
  <node id="413394220" version="2" timestamp="2010-07-29T09:10:40Z" uid="74617" user="JohnSmith" changeset="5344848" lat="51.9826472" lon="7.5540508">
    <tag k="amenity" v="emergency_phone"/>
    <tag k="emergency" v="phone"/>
    <tag k="operator" v="Autobahnmeisterei"/>
  </node>
  <node id="413394223" version="2" timestamp="2010-07-29T09:00:44Z" uid="74617" user="JohnSmith" changeset="5344848" lat="51.9959168" lon="7.5672554">
    <tag k="amenity" v="emergency_phone"/>
    <tag k="emergency" v="phone"/>
    <tag k="operator" v="Autobahnmeisterei"/>
  </node>
  <node id="413394232" version="2" timestamp="2010-07-29T09:00:21Z" uid="74617" user="JohnSmith" changeset="5344848" lat="52.0090168" lon="7.5787852">
    <tag k="amenity" v="emergency_phone"/>
    <tag k="emergency" v="phone"/>
    <tag k="operator" v="Autobahnmeisterei"/>
  </node>
  <node id="413394234" version="2" timestamp="2010-07-29T09:31:55Z" uid="74617" user="JohnSmith" changeset="5344848" lat="52.0092106" lon="7.5783622">
    <tag k="amenity" v="emergency_phone"/>
    <tag k="emergency" v="phone"/>
    <tag k="operator" v="Autobahnmeisterei"/>
  </node>
  <node id="413394244" version="2" timestamp="2010-07-29T09:29:44Z" uid="74617" user="JohnSmith" changeset="5344848" lat="52.0598259" lon="7.621584">
    <tag k="amenity" v="emergency_phone"/>
    <tag k="emergency" v="phone"/>
  </node>
  <node id="413395251" version="2" timestamp="2010-07-29T09:23:54Z" uid="74617" user="JohnSmith" changeset="5344848" lat="52.1097285" lon="7.6945169">
    <tag k="amenity" v="emergency_phone"/>
    <tag k="emergency" v="phone"/>
  </node>
  <node id="413395251" version="3" timestamp="2010-11-17T19:00:39Z" uid="325801" user="khb6969" changeset="6395083" lat="52.1172593" lon="7.705233">
    <tag k="amenity" v="emergency_phone"/>
    <tag k="emergency" v="phone"/>
  </node>
  <node id="413395252" version="2" timestamp="2010-07-29T09:14:18Z" uid="74617" user="JohnSmith" changeset="5344848" lat="52.1220016" lon="7.7108635">
    <tag k="amenity" v="emergency_phone"/>
    <tag k="emergency" v="phone"/>
  </node>
  <node id="413395254" version="3" timestamp="2010-07-29T08:57:49Z" uid="74617" user="JohnSmith" changeset="5344848" lat="52.169658" lon="7.7611163">
    <tag k="amenity" v="emergency_phone"/>
    <tag k="emergency" v="phone"/>
  </node>
  <node id="413395258" version="2" timestamp="2009-06-16T14:28:17Z" uid="20587" user="balrog-kun" changeset="1535626" lat="50.9086421" lon="17.0032467">
    <tag k="is_in" v="gmina Borów, powiat strzeliński, województwo dolnośląskie, Poland"/>
    <tag k="is_in:county" v="powiat strzeliński"/>
    <tag k="is_in:municipality" v="gmina Borów"/>
    <tag k="is_in:province" v="województwo dolnośląskie"/>
    <tag k="name" v="Brzoza"/>
    <tag k="place" v="village"/>
    <tag k="wikipedia" v="Brzoza, Lower Silesian Voivodeship"/>
  </node>
  <node id="413395258" version="3" timestamp="2010-04-11T04:47:12Z" uid="20587" user="balrog-kun" changeset="4389130" lat="50.9080604" lon="17.0034043">
    <tag k="is_in" v="gmina Borów, powiat strzeliński, województwo dolnośląskie, Poland"/>
    <tag k="is_in:county" v="powiat strzeliński"/>
    <tag k="is_in:municipality" v="gmina Borów"/>
    <tag k="is_in:province" v="województwo dolnośląskie"/>
    <tag k="name" v="Brzoza"/>
    <tag k="place" v="village"/>
    <tag k="wikipedia" v="Brzoza, Lower Silesian Voivodeship"/>
  </node>
  <node id="413395669" version="2" timestamp="2010-09-12T16:46:17Z" uid="9581" user="Lobelt" changeset="5761543" lat="49.4502653" lon="8.2339529"/>
  <node id="413396600" version="2" timestamp="2010-07-29T09:33:40Z" uid="74617" user="JohnSmith" changeset="5344848" lat="52.2217537" lon="7.8709026">
    <tag k="amenity" v="emergency_phone"/>
    <tag k="emergency" v="phone"/>
  </node>
  <node id="413396632" version="2" timestamp="2009-06-16T14:28:25Z" uid="20587" user="balrog-kun" changeset="1535626" lat="50.8946226" lon="17.0029892">
    <tag k="is_in" v="gmina Borów, powiat strzeliński, województwo dolnośląskie, Poland"/>
    <tag k="is_in:county" v="powiat strzeliński"/>
    <tag k="is_in:municipality" v="gmina Borów"/>
    <tag k="is_in:province" v="województwo dolnośląskie"/>
    <tag k="name" v="Brzezica"/>
    <tag k="place" v="village"/>
    <tag k="wikipedia" v="Brzezica"/>
  </node>
  <node id="413396632" version="3" timestamp="2010-04-11T04:47:12Z" uid="20587" user="balrog-kun" changeset="4389130" lat="50.8936897" lon="17.0024572">
    <tag k="is_in" v="gmina Borów, powiat strzeliński, województwo dolnośląskie, Poland"/>
    <tag k="is_in:county" v="powiat strzeliński"/>
    <tag k="is_in:municipality" v="gmina Borów"/>
    <tag k="is_in:province" v="województwo dolnośląskie"/>
    <tag k="name" v="Brzezica"/>
    <tag k="place" v="village"/>
    <tag k="wikipedia" v="Brzezica"/>
  </node>
  <node id="413396632" version="4" timestamp="2010-04-27T04:05:43Z" uid="30632" user="antblant" changeset="4537871" lat="50.8936897" lon="17.0024572">
    <tag k="is_in" v="gmina Borów, powiat strzeliński, województwo dolnośląskie, Poland"/>
    <tag k="is_in:county" v="powiat strzeliński"/>
    <tag k="is_in:municipality" v="gmina Borów"/>
    <tag k="is_in:province" v="województwo dolnośląskie"/>
    <tag k="name" v="Brzezica"/>
    <tag k="place" v="village"/>
    <tag k="teryt:simc" v="0872792"/>
    <tag k="wikipedia" v="Brzezica"/>
  </node>
  <node id="413396633" version="2" timestamp="2009-06-16T14:28:30Z" uid="20587" user="balrog-kun" changeset="1535626" lat="50.8715543" lon="16.971146">
    <tag k="addr:postcode" v="57-160"/>
    <tag k="is_in" v="gmina Borów, powiat strzeliński, województwo dolnośląskie, Poland"/>
    <tag k="is_in:county" v="powiat strzeliński"/>
    <tag k="is_in:municipality" v="gmina Borów"/>
    <tag k="is_in:province" v="województwo dolnośląskie"/>
    <tag k="name" v="Borów"/>
    <tag k="place" v="village"/>
    <tag k="population" v="900"/>
    <tag k="source:population" v="wikipedia"/>
    <tag k="wikipedia" v="Borów, Strzelin County"/>
  </node>
  <node id="413396633" version="3" timestamp="2010-04-11T04:47:12Z" uid="20587" user="balrog-kun" changeset="4389130" lat="50.8745632" lon="16.976636">
    <tag k="addr:postcode" v="57-160"/>
    <tag k="is_in" v="gmina Borów, powiat strzeliński, województwo dolnośląskie, Poland"/>
    <tag k="is_in:county" v="powiat strzeliński"/>
    <tag k="is_in:municipality" v="gmina Borów"/>
    <tag k="is_in:province" v="województwo dolnośląskie"/>
    <tag k="name" v="Borów"/>
    <tag k="place" v="village"/>
    <tag k="population" v="900"/>
    <tag k="source:population" v="wikipedia"/>
    <tag k="wikipedia" v="Borów, Strzelin County"/>
  </node>
  <node id="413396633" version="4" timestamp="2010-06-08T17:03:46Z" uid="155761" user="Dusche" changeset="4938714" lat="50.8745631" lon="16.976636">
    <tag k="addr:postcode" v="57-160"/>
    <tag k="is_in" v="gmina Borów, powiat strzeliński, województwo dolnośląskie, Poland"/>
    <tag k="is_in:county" v="powiat strzeliński"/>
    <tag k="is_in:municipality" v="gmina Borów"/>
    <tag k="is_in:province" v="województwo dolnośląskie"/>
    <tag k="name" v="Borów"/>
    <tag k="name:de" v="Bohrau"/>
    <tag k="place" v="village"/>
    <tag k="population" v="900"/>
    <tag k="source:population" v="wikipedia"/>
    <tag k="wikipedia" v="Borów, Strzelin County"/>
  </node>
  <node id="413396633" version="5" timestamp="2010-09-05T15:10:16Z" uid="55292" user="Wrocławski Qrczak" changeset="5688536" lat="50.8823553" lon="16.9880425">
    <tag k="addr:postcode" v="57-160"/>
    <tag k="is_in" v="gmina Borów, powiat strzeliński, województwo dolnośląskie, Poland"/>
    <tag k="is_in:county" v="powiat strzeliński"/>
    <tag k="is_in:municipality" v="gmina Borów"/>
    <tag k="is_in:province" v="województwo dolnośląskie"/>
    <tag k="name" v="Borów"/>
    <tag k="name:de" v="Bohrau"/>
    <tag k="place" v="village"/>
    <tag k="population" v="900"/>
    <tag k="source:population" v="wikipedia"/>
    <tag k="wikipedia" v="Borów, Strzelin County"/>
  </node>
  <node id="413396634" version="2" timestamp="2009-06-16T14:28:08Z" uid="20587" user="balrog-kun" changeset="1535626" lat="50.8642957" lon="16.971661">
    <tag k="is_in" v="gmina Borów, powiat strzeliński, województwo dolnośląskie, Poland"/>
    <tag k="is_in:county" v="powiat strzeliński"/>
    <tag k="is_in:municipality" v="gmina Borów"/>
    <tag k="is_in:province" v="województwo dolnośląskie"/>
    <tag k="name" v="Piotrków Borowski"/>
    <tag k="place" v="village"/>
    <tag k="wikipedia" v="Piotrków Borowski"/>
  </node>
  <node id="413396634" version="3" timestamp="2010-04-11T04:47:12Z" uid="20587" user="balrog-kun" changeset="4389130" lat="50.8660295" lon="16.9728847">
    <tag k="is_in" v="gmina Borów, powiat strzeliński, województwo dolnośląskie, Poland"/>
    <tag k="is_in:county" v="powiat strzeliński"/>
    <tag k="is_in:municipality" v="gmina Borów"/>
    <tag k="is_in:province" v="województwo dolnośląskie"/>
    <tag k="name" v="Piotrków Borowski"/>
    <tag k="place" v="village"/>
    <tag k="wikipedia" v="Piotrków Borowski"/>
  </node>
  <node id="413396634" version="4" timestamp="2010-04-27T04:05:43Z" uid="30632" user="antblant" changeset="4537871" lat="50.8660295" lon="16.9728847">
    <tag k="is_in" v="gmina Borów, powiat strzeliński, województwo dolnośląskie, Poland"/>
    <tag k="is_in:county" v="powiat strzeliński"/>
    <tag k="is_in:municipality" v="gmina Borów"/>
    <tag k="is_in:province" v="województwo dolnośląskie"/>
    <tag k="name" v="Piotrków Borowski"/>
    <tag k="place" v="village"/>
    <tag k="teryt:simc" v="0872935"/>
    <tag k="wikipedia" v="Piotrków Borowski"/>
  </node>
  <node id="413396634" version="5" timestamp="2010-09-05T15:10:15Z" uid="55292" user="Wrocławski Qrczak" changeset="5688536" lat="50.8711336" lon="16.9733212">
    <tag k="is_in" v="gmina Borów, powiat strzeliński, województwo dolnośląskie, Poland"/>
    <tag k="is_in:county" v="powiat strzeliński"/>
    <tag k="is_in:municipality" v="gmina Borów"/>
    <tag k="is_in:province" v="województwo dolnośląskie"/>
    <tag k="name" v="Piotrków Borowski"/>
    <tag k="place" v="village"/>
    <tag k="teryt:simc" v="0872935"/>
    <tag k="wikipedia" v="Piotrków Borowski"/>
  </node>
  <node id="413396635" version="2" timestamp="2009-06-16T14:28:16Z" uid="20587" user="balrog-kun" changeset="1535626" lat="50.8594741" lon="16.9735493">
    <tag k="is_in" v="gmina Borów, powiat strzeliński, województwo dolnośląskie, Poland"/>
    <tag k="is_in:county" v="powiat strzeliński"/>
    <tag k="is_in:municipality" v="gmina Borów"/>
    <tag k="is_in:province" v="województwo dolnośląskie"/>
    <tag k="name" v="Mańczyce"/>
    <tag k="place" v="village"/>
    <tag k="wikipedia" v="Mańczyce"/>
  </node>
  <node id="413396635" version="3" timestamp="2010-04-11T04:47:12Z" uid="20587" user="balrog-kun" changeset="4389130" lat="50.8596685" lon="16.9729849">
    <tag k="is_in" v="gmina Borów, powiat strzeliński, województwo dolnośląskie, Poland"/>
    <tag k="is_in:county" v="powiat strzeliński"/>
    <tag k="is_in:municipality" v="gmina Borów"/>
    <tag k="is_in:province" v="województwo dolnośląskie"/>
    <tag k="name" v="Mańczyce"/>
    <tag k="place" v="village"/>
    <tag k="wikipedia" v="Mańczyce"/>
  </node>
  <node id="413396635" version="4" timestamp="2010-04-27T04:05:43Z" uid="30632" user="antblant" changeset="4537871" lat="50.8596685" lon="16.9729849">
    <tag k="is_in" v="gmina Borów, powiat strzeliński, województwo dolnośląskie, Poland"/>
    <tag k="is_in:county" v="powiat strzeliński"/>
    <tag k="is_in:municipality" v="gmina Borów"/>
    <tag k="is_in:province" v="województwo dolnośląskie"/>
    <tag k="name" v="Mańczyce"/>
    <tag k="place" v="village"/>
    <tag k="teryt:simc" v="0872906"/>
    <tag k="wikipedia" v="Mańczyce"/>
  </node>
  <node id="413396791" version="2" timestamp="2009-06-16T14:28:23Z" uid="20587" user="balrog-kun" changeset="1535626" lat="50.8128573" lon="17.0204987">
    <tag k="is_in" v="gmina Strzelin, powiat strzeliński, województwo dolnośląskie, Poland"/>
    <tag k="is_in:county" v="powiat strzeliński"/>
    <tag k="is_in:municipality" v="gmina Strzelin"/>
    <tag k="is_in:province" v="województwo dolnośląskie"/>
    <tag k="name" v="Bierzyn"/>
    <tag k="place" v="village"/>
    <tag k="wikipedia" v="Bierzyn, Lower Silesian Voivodeship"/>
  </node>
  <node id="413396791" version="3" timestamp="2010-04-11T04:47:12Z" uid="20587" user="balrog-kun" changeset="4389130" lat="50.8135316" lon="17.0209815">
    <tag k="is_in" v="gmina Strzelin, powiat strzeliński, województwo dolnośląskie, Poland"/>
    <tag k="is_in:county" v="powiat strzeliński"/>
    <tag k="is_in:municipality" v="gmina Strzelin"/>
    <tag k="is_in:province" v="województwo dolnośląskie"/>
    <tag k="name" v="Bierzyn"/>
    <tag k="place" v="village"/>
    <tag k="wikipedia" v="Bierzyn, Lower Silesian Voivodeship"/>
  </node>
  <node id="413396792" version="2" timestamp="2009-06-16T14:28:29Z" uid="20587" user="balrog-kun" changeset="1535626" lat="50.7943604" lon="17.0579209">
    <tag k="is_in" v="gmina Strzelin, powiat strzeliński, województwo dolnośląskie, Poland"/>
    <tag k="is_in:county" v="powiat strzeliński"/>
    <tag k="is_in:municipality" v="gmina Strzelin"/>
    <tag k="is_in:province" v="województwo dolnośląskie"/>
    <tag k="name" v="Szczawin"/>
    <tag k="place" v="village"/>
    <tag k="population" v="410"/>
    <tag k="source:population" v="wikipedia"/>
    <tag k="wikipedia" v="Szczawin, Lower Silesian Voivodeship"/>
  </node>
  <node id="413396792" version="3" timestamp="2010-04-11T04:47:13Z" uid="20587" user="balrog-kun" changeset="4389130" lat="50.7941638" lon="17.0576872">
    <tag k="is_in" v="gmina Strzelin, powiat strzeliński, województwo dolnośląskie, Poland"/>
    <tag k="is_in:county" v="powiat strzeliński"/>
    <tag k="is_in:municipality" v="gmina Strzelin"/>
    <tag k="is_in:province" v="województwo dolnośląskie"/>
    <tag k="name" v="Szczawin"/>
    <tag k="place" v="village"/>
    <tag k="population" v="410"/>
    <tag k="source:population" v="wikipedia"/>
    <tag k="wikipedia" v="Szczawin, Lower Silesian Voivodeship"/>
  </node>
  <node id="413398658" version="2" timestamp="2011-05-09T19:51:34Z" uid="30632" user="antblant" changeset="8096240" lat="50.7831528" lon="17.0599496">
    <tag k="name" v="Strzelin"/>
    <tag k="railway" v="station"/>
    <tag k="wikipedia" v="pl:Strzelin_(stacja_kolejowa)"/>
  </node>
  <node id="413398782" version="2" timestamp="2009-12-24T04:41:00Z" uid="6975" user="ulfl" changeset="3439966" lat="50.8096527" lon="11.3493641">
    <tag k="tourism" v="picnic_site"/>
  </node>
  <node id="413398906" version="2" timestamp="2009-06-16T14:28:14Z" uid="20587" user="balrog-kun" changeset="1535626" lat="50.7264936" lon="17.1575703">
    <tag k="addr:postcode" v="57-130"/>
    <tag k="is_in" v="gmina Przeworno, powiat strzeliński, województwo dolnośląskie, Poland"/>
    <tag k="is_in:county" v="powiat strzeliński"/>
    <tag k="is_in:municipality" v="gmina Przeworno"/>
    <tag k="is_in:province" v="województwo dolnośląskie"/>
    <tag k="name" v="Jegłowa"/>
    <tag k="place" v="village"/>
    <tag k="population" v="730"/>
    <tag k="source:population" v="wikipedia"/>
    <tag k="wikipedia" v="Jegłowa"/>
  </node>
  <node id="413398906" version="3" timestamp="2010-04-27T04:02:24Z" uid="30632" user="antblant" changeset="4537862" lat="50.7264936" lon="17.1575703">
    <tag k="addr:postcode" v="57-130"/>
    <tag k="is_in" v="gmina Przeworno, powiat strzeliński, województwo dolnośląskie, Poland"/>
    <tag k="is_in:county" v="powiat strzeliński"/>
    <tag k="is_in:municipality" v="gmina Przeworno"/>
    <tag k="is_in:province" v="województwo dolnośląskie"/>
    <tag k="name" v="Jegłowa"/>
    <tag k="place" v="village"/>
    <tag k="population" v="730"/>
    <tag k="source:population" v="wikipedia"/>
    <tag k="teryt:simc" v="0854676"/>
    <tag k="wikipedia" v="Jegłowa"/>
  </node>
  <node id="413398907" version="2" timestamp="2009-06-16T14:28:21Z" uid="20587" user="balrog-kun" changeset="1535626" lat="50.7118758" lon="17.1560253">
    <tag k="is_in" v="gmina Przeworno, powiat strzeliński, województwo dolnośląskie, Poland"/>
    <tag k="is_in:county" v="powiat strzeliński"/>
    <tag k="is_in:municipality" v="gmina Przeworno"/>
    <tag k="is_in:province" v="województwo dolnośląskie"/>
    <tag k="name" v="Krzywina"/>
    <tag k="place" v="village"/>
    <tag k="wikipedia" v="Krzywina"/>
  </node>
  <node id="413398907" version="3" timestamp="2009-09-07T09:21:59Z" uid="55292" user="Wrocławski Qrczak" changeset="2400466" lat="50.7080519" lon="17.156498">
    <tag k="is_in" v="gmina Przeworno, powiat strzeliński, województwo dolnośląskie, Poland"/>
    <tag k="is_in:county" v="powiat strzeliński"/>
    <tag k="is_in:municipality" v="gmina Przeworno"/>
    <tag k="is_in:province" v="województwo dolnośląskie"/>
    <tag k="name" v="Krzywina"/>
    <tag k="place" v="village"/>
    <tag k="wikipedia" v="Krzywina"/>
  </node>
  <node id="413398907" version="4" timestamp="2010-04-27T04:02:24Z" uid="30632" user="antblant" changeset="4537862" lat="50.7080519" lon="17.156498">
    <tag k="is_in" v="gmina Przeworno, powiat strzeliński, województwo dolnośląskie, Poland"/>
    <tag k="is_in:county" v="powiat strzeliński"/>
    <tag k="is_in:municipality" v="gmina Przeworno"/>
    <tag k="is_in:province" v="województwo dolnośląskie"/>
    <tag k="name" v="Krzywina"/>
    <tag k="place" v="village"/>
    <tag k="teryt:simc" v="0854736"/>
    <tag k="wikipedia" v="Krzywina"/>
  </node>
  <node id="413398908" version="2" timestamp="2009-06-16T14:28:32Z" uid="20587" user="balrog-kun" changeset="1535626" lat="50.6874664" lon="17.1616043">
    <tag k="addr:postcode" v="57-130"/>
    <tag k="is_in" v="gmina Przeworno, powiat strzeliński, województwo dolnośląskie, Poland"/>
    <tag k="is_in:county" v="powiat strzeliński"/>
    <tag k="is_in:municipality" v="gmina Przeworno"/>
    <tag k="is_in:province" v="województwo dolnośląskie"/>
    <tag k="name" v="Przeworno"/>
    <tag k="place" v="village"/>
    <tag k="population" v="1259"/>
    <tag k="source:population" v="wikipedia"/>
    <tag k="wikipedia" v="Przeworno"/>
  </node>
  <node id="413398908" version="3" timestamp="2010-04-27T04:02:24Z" uid="30632" user="antblant" changeset="4537862" lat="50.6874664" lon="17.1616043">
    <tag k="addr:postcode" v="57-130"/>
    <tag k="is_in" v="gmina Przeworno, powiat strzeliński, województwo dolnośląskie, Poland"/>
    <tag k="is_in:county" v="powiat strzeliński"/>
    <tag k="is_in:municipality" v="gmina Przeworno"/>
    <tag k="is_in:province" v="województwo dolnośląskie"/>
    <tag k="name" v="Przeworno"/>
    <tag k="place" v="village"/>
    <tag k="population" v="1259"/>
    <tag k="source:population" v="wikipedia"/>
    <tag k="teryt:simc" v="0854794"/>
    <tag k="wikipedia" v="Przeworno"/>
  </node>
</osm>
