<?xml version='1.0' encoding='UTF-8'?>
<osm version="0.6" generator="libosmium/2.20.0">
  <node id="414263064" version="1" timestamp="2009-06-01T22:03:55Z" uid="34428" user="usm78-gis" changeset="1399390" lat="60.7335336" lon="28.6981806"/>
  <node id="414263064" version="2" timestamp="2009-07-02T04:51:28Z" uid="69864" user="Ivan Komarov" changeset="1706703" lat="60.7335336" lon="28.6981806"/>
  <node id="414263064" version="3" timestamp="2010-12-18T16:41:42Z" uid="127322" user="Shuric" changeset="6697721" lat="60.7335413" lon="28.6982595"/>
  <node id="414263064" version="4" timestamp="2011-01-18T19:14:45Z" uid="127299" user="Batareikin" changeset="7013622" lat="60.7333146" lon="28.6982519"/>
  <node id="414263064" version="5" timestamp="2011-02-28T21:12:21Z" uid="288925" user="BoomEngine" changeset="7424564" lat="60.7333173" lon="28.6982629"/>
  <node id="414263064" version="6" timestamp="2011-02-28T22:12:25Z" uid="288925" user="BoomEngine" changeset="7425228" lat="60.7333151" lon="28.6982365"/>
  <node id="414263064" version="7" timestamp="2012-03-14T16:53:20Z" uid="612561" user="AlexM999" changeset="10979754" lat="60.7333719" lon="28.698552"/>
  <node id="414263064" version="8" timestamp="2012-03-14T17:05:26Z" uid="612561" user="AlexM999" changeset="10979863" lat="60.7335981" lon="28.6986241"/>
  <node id="414263064" version="9" timestamp="2012-03-15T20:29:09Z" uid="36214" user="Dmitry Terentiev" changeset="10992492" lat="60.7333719" lon="28.698552"/>
  <node id="414263064" version="10" timestamp="2012-03-15T20:43:11Z" uid="36214" user="Dmitry Terentiev" changeset="10992492" lat="60.7333151" lon="28.6982365"/>
  <node id="414263256" version="1" timestamp="2009-06-01T22:05:49Z" uid="36809" user="pfoten_weg_!_" changeset="1399403" lat="48.073854" lon="11.523281">
    <tag k="addr:city" v="München"/>
    <tag k="addr:country" v="DE"/>
    <tag k="addr:housename" v="Wohnhaus"/>
    <tag k="addr:housenumber" v="2"/>
    <tag k="addr:postcode" v="81479"/>
    <tag k="addr:street" v="Stelznerstraße"/>
    <tag k="created_by" v="RambaZamba"/>
    <tag k="name" v="2"/>
    <tag k="source" v="survey"/>
  </node>
  <node id="414263256" version="2" timestamp="2009-06-07T21:17:47Z" uid="36809" user="pfoten_weg_!_" changeset="1453903" lat="48.073854" lon="11.523281">
    <tag k="addr:city" v="München"/>
    <tag k="addr:country" v="DE"/>
    <tag k="addr:housename" v="Wohngebäude"/>
    <tag k="addr:housenumber" v="2"/>
    <tag k="addr:postcode" v="81479"/>
    <tag k="addr:street" v="Stelznerstraße"/>
    <tag k="created_by" v="RambaZamba"/>
    <tag k="name" v="2"/>
    <tag k="source" v="survey"/>
  </node>
  <node id="414263256" version="3" timestamp="2009-06-08T18:15:05Z" uid="36809" user="pfoten_weg_!_" changeset="1461570" lat="48.073854" lon="11.523281">
    <tag k="addr:city" v="München"/>
    <tag k="addr:country" v="DE"/>
    <tag k="addr:housename" v="Wohngebäude"/>
    <tag k="addr:housenumber" v="2"/>
    <tag k="addr:postcode" v="81479"/>
    <tag k="addr:street" v="Stelznerstraße"/>
    <tag k="created_by" v="RambaZamba"/>
    <tag k="name" v="2"/>
    <tag k="source" v="survey"/>
  </node>
  <node id="414263257" version="1" timestamp="2009-06-01T22:05:50Z" uid="36809" user="pfoten_weg_!_" changeset="1399403" lat="48.073864" lon="11.523076">
    <tag k="addr:city" v="München"/>
    <tag k="addr:country" v="DE"/>
    <tag k="addr:housename" v="Wohnhaus"/>
    <tag k="addr:housenumber" v="4"/>
    <tag k="addr:postcode" v="81479"/>
    <tag k="addr:street" v="Stelznerstraße"/>
    <tag k="created_by" v="RambaZamba"/>
    <tag k="name" v="4"/>
    <tag k="source" v="survey"/>
  </node>
  <node id="414263257" version="2" timestamp="2009-06-07T21:17:46Z" uid="36809" user="pfoten_weg_!_" changeset="1453903" lat="48.073864" lon="11.523076">
    <tag k="addr:city" v="München"/>
    <tag k="addr:country" v="DE"/>
    <tag k="addr:housename" v="Wohngebäude"/>
    <tag k="addr:housenumber" v="4"/>
    <tag k="addr:postcode" v="81479"/>
    <tag k="addr:street" v="Stelznerstraße"/>
    <tag k="created_by" v="RambaZamba"/>
    <tag k="name" v="4"/>
    <tag k="source" v="survey"/>
  </node>
  <node id="414263257" version="3" timestamp="2009-06-08T18:15:05Z" uid="36809" user="pfoten_weg_!_" changeset="1461570" lat="48.073864" lon="11.523076">
    <tag k="addr:city" v="München"/>
    <tag k="addr:country" v="DE"/>
    <tag k="addr:housename" v="Wohngebäude"/>
    <tag k="addr:housenumber" v="4"/>
    <tag k="addr:postcode" v="81479"/>
    <tag k="addr:street" v="Stelznerstraße"/>
    <tag k="created_by" v="RambaZamba"/>
    <tag k="name" v="4"/>
    <tag k="source" v="survey"/>
  </node>
  <node id="414263258" version="1" timestamp="2009-06-01T22:05:50Z" uid="36809" user="pfoten_weg_!_" changeset="1399403" lat="48.073847" lon="11.522931">
    <tag k="addr:city" v="München"/>
    <tag k="addr:country" v="DE"/>
    <tag k="addr:housename" v="Wohnhaus"/>
    <tag k="addr:housenumber" v="6"/>
    <tag k="addr:postcode" v="81479"/>
    <tag k="addr:street" v="Stelznerstraße"/>
    <tag k="created_by" v="RambaZamba"/>
    <tag k="name" v="6"/>
    <tag k="source" v="survey"/>
  </node>
  <node id="414263258" version="2" timestamp="2009-06-07T21:17:46Z" uid="36809" user="pfoten_weg_!_" changeset="1453903" lat="48.073847" lon="11.522931">
    <tag k="addr:city" v="München"/>
    <tag k="addr:country" v="DE"/>
    <tag k="addr:housename" v="Wohngebäude"/>
    <tag k="addr:housenumber" v="6"/>
    <tag k="addr:postcode" v="81479"/>
    <tag k="addr:street" v="Stelznerstraße"/>
    <tag k="created_by" v="RambaZamba"/>
    <tag k="name" v="6"/>
    <tag k="source" v="survey"/>
  </node>
  <node id="414263258" version="3" timestamp="2009-06-08T18:15:05Z" uid="36809" user="pfoten_weg_!_" changeset="1461570" lat="48.073847" lon="11.522931">
    <tag k="addr:city" v="München"/>
    <tag k="addr:country" v="DE"/>
    <tag k="addr:housename" v="Wohngebäude"/>
    <tag k="addr:housenumber" v="6"/>
    <tag k="addr:postcode" v="81479"/>
    <tag k="addr:street" v="Stelznerstraße"/>
    <tag k="created_by" v="RambaZamba"/>
    <tag k="name" v="6"/>
    <tag k="source" v="survey"/>
  </node>
  <node id="414263259" version="1" timestamp="2009-06-01T22:05:50Z" uid="36809" user="pfoten_weg_!_" changeset="1399403" lat="48.073859" lon="11.522728">
    <tag k="addr:city" v="München"/>
    <tag k="addr:country" v="DE"/>
    <tag k="addr:housename" v="Wohnhaus"/>
    <tag k="addr:housenumber" v="8"/>
    <tag k="addr:postcode" v="81479"/>
    <tag k="addr:street" v="Stelznerstraße"/>
    <tag k="created_by" v="RambaZamba"/>
    <tag k="name" v="8"/>
    <tag k="source" v="survey"/>
  </node>
  <node id="414263259" version="2" timestamp="2009-06-07T21:17:46Z" uid="36809" user="pfoten_weg_!_" changeset="1453903" lat="48.073859" lon="11.522728">
    <tag k="addr:city" v="München"/>
    <tag k="addr:country" v="DE"/>
    <tag k="addr:housename" v="Wohngebäude"/>
    <tag k="addr:housenumber" v="8"/>
    <tag k="addr:postcode" v="81479"/>
    <tag k="addr:street" v="Stelznerstraße"/>
    <tag k="created_by" v="RambaZamba"/>
    <tag k="name" v="8"/>
    <tag k="source" v="survey"/>
  </node>
  <node id="414263259" version="3" timestamp="2009-06-08T18:15:05Z" uid="36809" user="pfoten_weg_!_" changeset="1461570" lat="48.073859" lon="11.522728">
    <tag k="addr:city" v="München"/>
    <tag k="addr:country" v="DE"/>
    <tag k="addr:housename" v="Wohngebäude"/>
    <tag k="addr:housenumber" v="8"/>
    <tag k="addr:postcode" v="81479"/>
    <tag k="addr:street" v="Stelznerstraße"/>
    <tag k="created_by" v="RambaZamba"/>
    <tag k="name" v="8"/>
    <tag k="source" v="survey"/>
  </node>
  <node id="414263260" version="1" timestamp="2009-06-01T22:05:50Z" uid="36809" user="pfoten_weg_!_" changeset="1399403" lat="48.073898" lon="11.522591">
    <tag k="addr:city" v="München"/>
    <tag k="addr:country" v="DE"/>
    <tag k="addr:housename" v="Wohnhaus"/>
    <tag k="addr:housenumber" v="10"/>
    <tag k="addr:postcode" v="81479"/>
    <tag k="addr:street" v="Stelznerstraße"/>
    <tag k="created_by" v="RambaZamba"/>
    <tag k="name" v="10"/>
    <tag k="source" v="survey"/>
  </node>
  <node id="414263260" version="2" timestamp="2009-06-07T21:17:46Z" uid="36809" user="pfoten_weg_!_" changeset="1453903" lat="48.073898" lon="11.522591">
    <tag k="addr:city" v="München"/>
    <tag k="addr:country" v="DE"/>
    <tag k="addr:housename" v="Wohngebäude"/>
    <tag k="addr:housenumber" v="10"/>
    <tag k="addr:postcode" v="81479"/>
    <tag k="addr:street" v="Stelznerstraße"/>
    <tag k="created_by" v="RambaZamba"/>
    <tag k="name" v="10"/>
    <tag k="source" v="survey"/>
  </node>
  <node id="414263260" version="3" timestamp="2009-06-08T18:15:05Z" uid="36809" user="pfoten_weg_!_" changeset="1461570" lat="48.073898" lon="11.522591">
    <tag k="addr:city" v="München"/>
    <tag k="addr:country" v="DE"/>
    <tag k="addr:housename" v="Wohngebäude"/>
    <tag k="addr:housenumber" v="10"/>
    <tag k="addr:postcode" v="81479"/>
    <tag k="addr:street" v="Stelznerstraße"/>
    <tag k="created_by" v="RambaZamba"/>
    <tag k="name" v="10"/>
    <tag k="source" v="survey"/>
  </node>
  <node id="414263261" version="1" timestamp="2009-06-01T22:05:50Z" uid="36809" user="pfoten_weg_!_" changeset="1399403" lat="48.073907" lon="11.522238">
    <tag k="addr:city" v="München"/>
    <tag k="addr:country" v="DE"/>
    <tag k="addr:housename" v="Wohnhaus"/>
    <tag k="addr:housenumber" v=";12"/>
    <tag k="addr:postcode" v="81479"/>
    <tag k="addr:street" v="Stelznerstraße"/>
    <tag k="created_by" v="RambaZamba"/>
    <tag k="name" v="12"/>
    <tag k="source" v="survey"/>
  </node>
  <node id="414263261" version="2" timestamp="2009-06-07T21:17:46Z" uid="36809" user="pfoten_weg_!_" changeset="1453903" lat="48.073907" lon="11.522238">
    <tag k="addr:city" v="München"/>
    <tag k="addr:country" v="DE"/>
    <tag k="addr:housename" v="Wohngebäude"/>
    <tag k="addr:housenumber" v=";12"/>
    <tag k="addr:postcode" v="81479"/>
    <tag k="addr:street" v="Stelznerstraße"/>
    <tag k="created_by" v="RambaZamba"/>
    <tag k="name" v="12"/>
    <tag k="source" v="survey"/>
  </node>
  <node id="414263261" version="3" timestamp="2009-06-08T18:15:06Z" uid="36809" user="pfoten_weg_!_" changeset="1461570" lat="48.073907" lon="11.522238">
    <tag k="addr:city" v="München"/>
    <tag k="addr:country" v="DE"/>
    <tag k="addr:housename" v="Wohngebäude"/>
    <tag k="addr:housenumber" v=";12"/>
    <tag k="addr:postcode" v="81479"/>
    <tag k="addr:street" v="Stelznerstraße"/>
    <tag k="created_by" v="RambaZamba"/>
    <tag k="name" v="12"/>
    <tag k="source" v="survey"/>
  </node>
  <node id="414263262" version="1" timestamp="2009-06-01T22:05:50Z" uid="36809" user="pfoten_weg_!_" changeset="1399403" lat="48.073932" lon="11.522099">
    <tag k="addr:city" v="München"/>
    <tag k="addr:country" v="DE"/>
    <tag k="addr:housename" v="Wohnhaus"/>
    <tag k="addr:housenumber" v=";14"/>
    <tag k="addr:postcode" v="81479"/>
    <tag k="addr:street" v="Stelznerstraße"/>
    <tag k="created_by" v="RambaZamba"/>
    <tag k="name" v="14"/>
    <tag k="source" v="survey"/>
  </node>
  <node id="414263262" version="2" timestamp="2009-06-07T21:17:46Z" uid="36809" user="pfoten_weg_!_" changeset="1453903" lat="48.073932" lon="11.522099">
    <tag k="addr:city" v="München"/>
    <tag k="addr:country" v="DE"/>
    <tag k="addr:housename" v="Wohngebäude"/>
    <tag k="addr:housenumber" v=";14"/>
    <tag k="addr:postcode" v="81479"/>
    <tag k="addr:street" v="Stelznerstraße"/>
    <tag k="created_by" v="RambaZamba"/>
    <tag k="name" v="14"/>
    <tag k="source" v="survey"/>
  </node>
  <node id="414263262" version="3" timestamp="2009-06-08T18:15:06Z" uid="36809" user="pfoten_weg_!_" changeset="1461570" lat="48.073932" lon="11.522099">
    <tag k="addr:city" v="München"/>
    <tag k="addr:country" v="DE"/>
    <tag k="addr:housename" v="Wohngebäude"/>
    <tag k="addr:housenumber" v=";14"/>
    <tag k="addr:postcode" v="81479"/>
    <tag k="addr:street" v="Stelznerstraße"/>
    <tag k="created_by" v="RambaZamba"/>
    <tag k="name" v="14"/>
    <tag k="source" v="survey"/>
  </node>
  <node id="414263263" version="1" timestamp="2009-06-01T22:05:50Z" uid="36809" user="pfoten_weg_!_" changeset="1399403" lat="48.073953" lon="11.521731">
    <tag k="addr:city" v="München"/>
    <tag k="addr:country" v="DE"/>
    <tag k="addr:housename" v="Wohnhaus"/>
    <tag k="addr:housenumber" v="16"/>
    <tag k="addr:postcode" v="81479"/>
    <tag k="addr:street" v="Stelznerstraße"/>
    <tag k="created_by" v="RambaZamba"/>
    <tag k="name" v="16"/>
    <tag k="source" v="survey"/>
  </node>
  <node id="414263263" version="2" timestamp="2009-06-07T21:17:45Z" uid="36809" user="pfoten_weg_!_" changeset="1453903" lat="48.073953" lon="11.521731">
    <tag k="addr:city" v="München"/>
    <tag k="addr:country" v="DE"/>
    <tag k="addr:housename" v="Wohngebäude"/>
    <tag k="addr:housenumber" v="16"/>
    <tag k="addr:postcode" v="81479"/>
    <tag k="addr:street" v="Stelznerstraße"/>
    <tag k="created_by" v="RambaZamba"/>
    <tag k="name" v="16"/>
    <tag k="source" v="survey"/>
  </node>
  <node id="414263263" version="3" timestamp="2009-06-08T18:15:06Z" uid="36809" user="pfoten_weg_!_" changeset="1461570" lat="48.073953" lon="11.521731">
    <tag k="addr:city" v="München"/>
    <tag k="addr:country" v="DE"/>
    <tag k="addr:housename" v="Wohngebäude"/>
    <tag k="addr:housenumber" v="16"/>
    <tag k="addr:postcode" v="81479"/>
    <tag k="addr:street" v="Stelznerstraße"/>
    <tag k="created_by" v="RambaZamba"/>
    <tag k="name" v="16"/>
    <tag k="source" v="survey"/>
  </node>
  <node id="414263264" version="1" timestamp="2009-06-01T22:05:50Z" uid="36809" user="pfoten_weg_!_" changeset="1399403" lat="48.073671" lon="11.521888">
    <tag k="addr:city" v="München"/>
    <tag k="addr:country" v="DE"/>
    <tag k="addr:housename" v="Wohnhaus"/>
    <tag k="addr:housenumber" v="13"/>
    <tag k="addr:postcode" v="81479"/>
    <tag k="addr:street" v="Stelznerstraße"/>
    <tag k="created_by" v="RambaZamba"/>
    <tag k="name" v="13"/>
    <tag k="source" v="survey"/>
  </node>
  <node id="414263264" version="2" timestamp="2009-06-07T21:17:48Z" uid="36809" user="pfoten_weg_!_" changeset="1453903" lat="48.073671" lon="11.521888">
    <tag k="addr:city" v="München"/>
    <tag k="addr:country" v="DE"/>
    <tag k="addr:housename" v="Wohngebäude"/>
    <tag k="addr:housenumber" v="13"/>
    <tag k="addr:postcode" v="81479"/>
    <tag k="addr:street" v="Stelznerstraße"/>
    <tag k="created_by" v="RambaZamba"/>
    <tag k="name" v="13"/>
    <tag k="source" v="survey"/>
  </node>
  <node id="414263264" version="3" timestamp="2009-06-08T18:15:04Z" uid="36809" user="pfoten_weg_!_" changeset="1461570" lat="48.073671" lon="11.521888">
    <tag k="addr:city" v="München"/>
    <tag k="addr:country" v="DE"/>
    <tag k="addr:housename" v="Wohngebäude"/>
    <tag k="addr:housenumber" v="13"/>
    <tag k="addr:postcode" v="81479"/>
    <tag k="addr:street" v="Stelznerstraße"/>
    <tag k="created_by" v="RambaZamba"/>
    <tag k="name" v="13"/>
    <tag k="source" v="survey"/>
  </node>
  <node id="414263265" version="1" timestamp="2009-06-01T22:05:50Z" uid="36809" user="pfoten_weg_!_" changeset="1399403" lat="48.073678" lon="11.522345">
    <tag k="addr:city" v="München"/>
    <tag k="addr:country" v="DE"/>
    <tag k="addr:housename" v="Wohnhaus"/>
    <tag k="addr:housenumber" v="11"/>
    <tag k="addr:postcode" v="81479"/>
    <tag k="addr:street" v="Stelznerstraße"/>
    <tag k="created_by" v="RambaZamba"/>
    <tag k="name" v="11"/>
    <tag k="source" v="survey"/>
  </node>
  <node id="414263265" version="2" timestamp="2009-06-07T21:17:48Z" uid="36809" user="pfoten_weg_!_" changeset="1453903" lat="48.073678" lon="11.522345">
    <tag k="addr:city" v="München"/>
    <tag k="addr:country" v="DE"/>
    <tag k="addr:housename" v="Wohngebäude"/>
    <tag k="addr:housenumber" v="11"/>
    <tag k="addr:postcode" v="81479"/>
    <tag k="addr:street" v="Stelznerstraße"/>
    <tag k="created_by" v="RambaZamba"/>
    <tag k="name" v="11"/>
    <tag k="source" v="survey"/>
  </node>
  <node id="414263265" version="3" timestamp="2009-06-08T18:15:04Z" uid="36809" user="pfoten_weg_!_" changeset="1461570" lat="48.073678" lon="11.522345">
    <tag k="addr:city" v="München"/>
    <tag k="addr:country" v="DE"/>
    <tag k="addr:housename" v="Wohngebäude"/>
    <tag k="addr:housenumber" v="11"/>
    <tag k="addr:postcode" v="81479"/>
    <tag k="addr:street" v="Stelznerstraße"/>
    <tag k="created_by" v="RambaZamba"/>
    <tag k="name" v="11"/>
    <tag k="source" v="survey"/>
  </node>
  <node id="414263266" version="1" timestamp="2009-06-01T22:05:50Z" uid="36809" user="pfoten_weg_!_" changeset="1399403" lat="48.0736752" lon="11.5223953">
    <tag k="addr:city" v="München"/>
    <tag k="addr:country" v="DE"/>
    <tag k="addr:housename" v="Wohnhaus"/>
    <tag k="addr:housenumber" v="9"/>
    <tag k="addr:postcode" v="81479"/>
    <tag k="addr:street" v="Stelznerstraße"/>
    <tag k="created_by" v="RambaZamba"/>
    <tag k="name" v="9"/>
    <tag k="source" v="survey"/>
  </node>
  <node id="414263266" version="2" timestamp="2009-06-07T21:17:48Z" uid="36809" user="pfoten_weg_!_" changeset="1453903" lat="48.0736752" lon="11.5223953">
    <tag k="addr:city" v="München"/>
    <tag k="addr:country" v="DE"/>
    <tag k="addr:housename" v="Wohngebäude"/>
    <tag k="addr:housenumber" v="9"/>
    <tag k="addr:postcode" v="81479"/>
    <tag k="addr:street" v="Stelznerstraße"/>
    <tag k="created_by" v="RambaZamba"/>
    <tag k="name" v="9"/>
    <tag k="source" v="survey"/>
  </node>
  <node id="414263266" version="3" timestamp="2009-06-08T18:15:04Z" uid="36809" user="pfoten_weg_!_" changeset="1461570" lat="48.0736752" lon="11.5223953">
    <tag k="addr:city" v="München"/>
    <tag k="addr:country" v="DE"/>
    <tag k="addr:housename" v="Wohngebäude"/>
    <tag k="addr:housenumber" v="9"/>
    <tag k="addr:postcode" v="81479"/>
    <tag k="addr:street" v="Stelznerstraße"/>
    <tag k="created_by" v="RambaZamba"/>
    <tag k="name" v="9"/>
    <tag k="source" v="survey"/>
  </node>
  <node id="414263267" version="1" timestamp="2009-06-01T22:05:50Z" uid="36809" user="pfoten_weg_!_" changeset="1399403" lat="48.0736483" lon="11.5228747">
    <tag k="addr:city" v="München"/>
    <tag k="addr:country" v="DE"/>
    <tag k="addr:housename" v="Wohnhaus"/>
    <tag k="addr:housenumber" v="7"/>
    <tag k="addr:postcode" v="81479"/>
    <tag k="addr:street" v="Stelznerstraße"/>
    <tag k="created_by" v="RambaZamba"/>
    <tag k="name" v="7"/>
    <tag k="source" v="survey"/>
  </node>
  <node id="414263267" version="2" timestamp="2009-06-07T21:17:48Z" uid="36809" user="pfoten_weg_!_" changeset="1453903" lat="48.0736483" lon="11.5228747">
    <tag k="addr:city" v="München"/>
    <tag k="addr:country" v="DE"/>
    <tag k="addr:housename" v="Wohngebäude"/>
    <tag k="addr:housenumber" v="7"/>
    <tag k="addr:postcode" v="81479"/>
    <tag k="addr:street" v="Stelznerstraße"/>
    <tag k="created_by" v="RambaZamba"/>
    <tag k="name" v="7"/>
    <tag k="source" v="survey"/>
  </node>
  <node id="414263267" version="3" timestamp="2009-06-08T18:15:04Z" uid="36809" user="pfoten_weg_!_" changeset="1461570" lat="48.0736483" lon="11.5228747">
    <tag k="addr:city" v="München"/>
    <tag k="addr:country" v="DE"/>
    <tag k="addr:housename" v="Wohngebäude"/>
    <tag k="addr:housenumber" v="7"/>
    <tag k="addr:postcode" v="81479"/>
    <tag k="addr:street" v="Stelznerstraße"/>
    <tag k="created_by" v="RambaZamba"/>
    <tag k="name" v="7"/>
    <tag k="source" v="survey"/>
  </node>
  <node id="414263268" version="1" timestamp="2009-06-01T22:05:50Z" uid="36809" user="pfoten_weg_!_" changeset="1399403" lat="48.0736449" lon="11.5229336">
    <tag k="addr:city" v="München"/>
    <tag k="addr:country" v="DE"/>
    <tag k="addr:housename" v="Wohnhaus"/>
    <tag k="addr:housenumber" v="5"/>
    <tag k="addr:postcode" v="81479"/>
    <tag k="addr:street" v="Stelznerstraße"/>
    <tag k="created_by" v="RambaZamba"/>
    <tag k="name" v="5"/>
    <tag k="source" v="survey"/>
  </node>
  <node id="414263268" version="2" timestamp="2009-06-07T21:17:47Z" uid="36809" user="pfoten_weg_!_" changeset="1453903" lat="48.0736449" lon="11.5229336">
    <tag k="addr:city" v="München"/>
    <tag k="addr:country" v="DE"/>
    <tag k="addr:housename" v="Wohngebäude"/>
    <tag k="addr:housenumber" v="5"/>
    <tag k="addr:postcode" v="81479"/>
    <tag k="addr:street" v="Stelznerstraße"/>
    <tag k="created_by" v="RambaZamba"/>
    <tag k="name" v="5"/>
    <tag k="source" v="survey"/>
  </node>
  <node id="414263268" version="3" timestamp="2009-06-08T18:15:05Z" uid="36809" user="pfoten_weg_!_" changeset="1461570" lat="48.0736449" lon="11.5229336">
    <tag k="addr:city" v="München"/>
    <tag k="addr:country" v="DE"/>
    <tag k="addr:housename" v="Wohngebäude"/>
    <tag k="addr:housenumber" v="5"/>
    <tag k="addr:postcode" v="81479"/>
    <tag k="addr:street" v="Stelznerstraße"/>
    <tag k="created_by" v="RambaZamba"/>
    <tag k="name" v="5"/>
    <tag k="source" v="survey"/>
  </node>
  <node id="414263269" version="1" timestamp="2009-06-01T22:05:50Z" uid="36809" user="pfoten_weg_!_" changeset="1399403" lat="48.0736191" lon="11.5233931">
    <tag k="addr:city" v="München"/>
    <tag k="addr:country" v="DE"/>
    <tag k="addr:housename" v="Wohnhaus"/>
    <tag k="addr:housenumber" v="3"/>
    <tag k="addr:postcode" v="81479"/>
    <tag k="addr:street" v="Stelznerstraße"/>
    <tag k="created_by" v="RambaZamba"/>
    <tag k="name" v="3"/>
    <tag k="source" v="survey"/>
  </node>
  <node id="414263269" version="2" timestamp="2009-06-07T21:17:47Z" uid="36809" user="pfoten_weg_!_" changeset="1453903" lat="48.0736191" lon="11.5233931">
    <tag k="addr:city" v="München"/>
    <tag k="addr:country" v="DE"/>
    <tag k="addr:housename" v="Wohngebäude"/>
    <tag k="addr:housenumber" v="3"/>
    <tag k="addr:postcode" v="81479"/>
    <tag k="addr:street" v="Stelznerstraße"/>
    <tag k="created_by" v="RambaZamba"/>
    <tag k="name" v="3"/>
    <tag k="source" v="survey"/>
  </node>
  <node id="414263269" version="3" timestamp="2009-06-08T18:15:05Z" uid="36809" user="pfoten_weg_!_" changeset="1461570" lat="48.0736191" lon="11.5233931">
    <tag k="addr:city" v="München"/>
    <tag k="addr:country" v="DE"/>
    <tag k="addr:housename" v="Wohngebäude"/>
    <tag k="addr:housenumber" v="3"/>
    <tag k="addr:postcode" v="81479"/>
    <tag k="addr:street" v="Stelznerstraße"/>
    <tag k="created_by" v="RambaZamba"/>
    <tag k="name" v="3"/>
    <tag k="source" v="survey"/>
  </node>
  <node id="414263270" version="1" timestamp="2009-06-01T22:05:50Z" uid="36809" user="pfoten_weg_!_" changeset="1399403" lat="48.073615" lon="11.523467">
    <tag k="addr:city" v="München"/>
    <tag k="addr:country" v="DE"/>
    <tag k="addr:housename" v="Wohnhaus"/>
    <tag k="addr:housenumber" v="1"/>
    <tag k="addr:postcode" v="81479"/>
    <tag k="addr:street" v="Stelznerstraße"/>
    <tag k="created_by" v="RambaZamba"/>
    <tag k="name" v="1"/>
    <tag k="source" v="survey"/>
  </node>
  <node id="414263270" version="2" timestamp="2009-06-07T21:17:47Z" uid="36809" user="pfoten_weg_!_" changeset="1453903" lat="48.073615" lon="11.523467">
    <tag k="addr:city" v="München"/>
    <tag k="addr:country" v="DE"/>
    <tag k="addr:housename" v="Wohngebäude"/>
    <tag k="addr:housenumber" v="1"/>
    <tag k="addr:postcode" v="81479"/>
    <tag k="addr:street" v="Stelznerstraße"/>
    <tag k="created_by" v="RambaZamba"/>
    <tag k="name" v="1"/>
    <tag k="source" v="survey"/>
  </node>
  <node id="414263270" version="3" timestamp="2009-06-08T18:15:05Z" uid="36809" user="pfoten_weg_!_" changeset="1461570" lat="48.073615" lon="11.523467">
    <tag k="addr:city" v="München"/>
    <tag k="addr:country" v="DE"/>
    <tag k="addr:housename" v="Wohngebäude"/>
    <tag k="addr:housenumber" v="1"/>
    <tag k="addr:postcode" v="81479"/>
    <tag k="addr:street" v="Stelznerstraße"/>
    <tag k="created_by" v="RambaZamba"/>
    <tag k="name" v="1"/>
    <tag k="source" v="survey"/>
  </node>
  <node id="414263271" version="1" timestamp="2009-06-01T22:05:51Z" uid="36809" user="pfoten_weg_!_" changeset="1399403" lat="48.074651" lon="11.52347">
    <tag k="addr:city" v="München"/>
    <tag k="addr:country" v="DE"/>
    <tag k="addr:housename" v="Wohnhaus"/>
    <tag k="addr:housenumber" v="3"/>
    <tag k="addr:postcode" v="81479"/>
    <tag k="addr:street" v="Ringelnatzweg"/>
    <tag k="created_by" v="RambaZamba"/>
    <tag k="name" v="3"/>
    <tag k="source" v="survey"/>
  </node>
  <node id="414263271" version="2" timestamp="2009-06-07T21:17:47Z" uid="36809" user="pfoten_weg_!_" changeset="1453903" lat="48.074651" lon="11.52347">
    <tag k="addr:city" v="München"/>
    <tag k="addr:country" v="DE"/>
    <tag k="addr:housename" v="Wohngebäude"/>
    <tag k="addr:housenumber" v="3"/>
    <tag k="addr:postcode" v="81479"/>
    <tag k="addr:street" v="Ringelnatzweg"/>
    <tag k="created_by" v="RambaZamba"/>
    <tag k="name" v="3"/>
    <tag k="source" v="survey"/>
  </node>
  <node id="414263271" version="3" timestamp="2009-06-08T18:15:04Z" uid="36809" user="pfoten_weg_!_" changeset="1461570" lat="48.074651" lon="11.52347">
    <tag k="addr:city" v="München"/>
    <tag k="addr:country" v="DE"/>
    <tag k="addr:housename" v="Wohngebäude"/>
    <tag k="addr:housenumber" v="3"/>
    <tag k="addr:postcode" v="81479"/>
    <tag k="addr:street" v="Ringelnatzweg"/>
    <tag k="created_by" v="RambaZamba"/>
    <tag k="name" v="3"/>
    <tag k="source" v="survey"/>
  </node>
  <node id="414263272" version="1" timestamp="2009-06-01T22:05:51Z" uid="36809" user="pfoten_weg_!_" changeset="1399403" lat="48.074531" lon="11.523084">
    <tag k="addr:city" v="München"/>
    <tag k="addr:country" v="DE"/>
    <tag k="addr:housename" v="Wohnhaus"/>
    <tag k="addr:housenumber" v="2"/>
    <tag k="addr:postcode" v="81479"/>
    <tag k="addr:street" v="Ringelnatzweg"/>
    <tag k="created_by" v="RambaZamba"/>
    <tag k="name" v="2"/>
    <tag k="source" v="survey"/>
  </node>
  <node id="414263272" version="2" timestamp="2009-06-07T21:17:48Z" uid="36809" user="pfoten_weg_!_" changeset="1453903" lat="48.074531" lon="11.523084">
    <tag k="addr:city" v="München"/>
    <tag k="addr:country" v="DE"/>
    <tag k="addr:housename" v="Wohngebäude"/>
    <tag k="addr:housenumber" v="2"/>
    <tag k="addr:postcode" v="81479"/>
    <tag k="addr:street" v="Ringelnatzweg"/>
    <tag k="created_by" v="RambaZamba"/>
    <tag k="name" v="2"/>
    <tag k="source" v="survey"/>
  </node>
  <node id="414263272" version="3" timestamp="2009-06-08T18:15:03Z" uid="36809" user="pfoten_weg_!_" changeset="1461570" lat="48.074531" lon="11.523084">
    <tag k="addr:city" v="München"/>
    <tag k="addr:country" v="DE"/>
    <tag k="addr:housename" v="Wohngebäude"/>
    <tag k="addr:housenumber" v="2"/>
    <tag k="addr:postcode" v="81479"/>
    <tag k="addr:street" v="Ringelnatzweg"/>
    <tag k="created_by" v="RambaZamba"/>
    <tag k="name" v="2"/>
    <tag k="source" v="survey"/>
  </node>
  <node id="414263273" version="1" timestamp="2009-06-01T22:05:51Z" uid="36809" user="pfoten_weg_!_" changeset="1399403" lat="48.074434" lon="11.523345">
    <tag k="addr:city" v="München"/>
    <tag k="addr:country" v="DE"/>
    <tag k="addr:housename" v="Wohnhaus"/>
    <tag k="addr:housenumber" v="4"/>
    <tag k="addr:postcode" v="81479"/>
    <tag k="addr:street" v="Ringelnatzweg"/>
    <tag k="created_by" v="RambaZamba"/>
    <tag k="name" v="4"/>
    <tag k="source" v="survey"/>
  </node>
  <node id="414263273" version="2" timestamp="2009-06-07T21:17:49Z" uid="36809" user="pfoten_weg_!_" changeset="1453903" lat="48.074434" lon="11.523345">
    <tag k="addr:city" v="München"/>
    <tag k="addr:country" v="DE"/>
    <tag k="addr:housename" v="Wohngebäude"/>
    <tag k="addr:housenumber" v="4"/>
    <tag k="addr:postcode" v="81479"/>
    <tag k="addr:street" v="Ringelnatzweg"/>
    <tag k="created_by" v="RambaZamba"/>
    <tag k="name" v="4"/>
    <tag k="source" v="survey"/>
  </node>
  <node id="414263273" version="3" timestamp="2009-06-08T18:15:03Z" uid="36809" user="pfoten_weg_!_" changeset="1461570" lat="48.074434" lon="11.523345">
    <tag k="addr:city" v="München"/>
    <tag k="addr:country" v="DE"/>
    <tag k="addr:housename" v="Wohngebäude"/>
    <tag k="addr:housenumber" v="4"/>
    <tag k="addr:postcode" v="81479"/>
    <tag k="addr:street" v="Ringelnatzweg"/>
    <tag k="created_by" v="RambaZamba"/>
    <tag k="name" v="4"/>
    <tag k="source" v="survey"/>
  </node>
  <node id="414263274" version="1" timestamp="2009-06-01T22:05:51Z" uid="36809" user="pfoten_weg_!_" changeset="1399403" lat="48.074395" lon="11.523632">
    <tag k="addr:city" v="München"/>
    <tag k="addr:country" v="DE"/>
    <tag k="addr:housename" v="Wohnhaus"/>
    <tag k="addr:housenumber" v="6"/>
    <tag k="addr:postcode" v="81479"/>
    <tag k="addr:street" v="Ringelnatzweg"/>
    <tag k="created_by" v="RambaZamba"/>
    <tag k="name" v="6"/>
    <tag k="source" v="survey"/>
  </node>
  <node id="414263274" version="2" timestamp="2009-06-07T21:17:49Z" uid="36809" user="pfoten_weg_!_" changeset="1453903" lat="48.074395" lon="11.523632">
    <tag k="addr:city" v="München"/>
    <tag k="addr:country" v="DE"/>
    <tag k="addr:housename" v="Wohngebäude"/>
    <tag k="addr:housenumber" v="6"/>
    <tag k="addr:postcode" v="81479"/>
    <tag k="addr:street" v="Ringelnatzweg"/>
    <tag k="created_by" v="RambaZamba"/>
    <tag k="name" v="6"/>
    <tag k="source" v="survey"/>
  </node>
  <node id="414263274" version="3" timestamp="2009-06-08T18:15:03Z" uid="36809" user="pfoten_weg_!_" changeset="1461570" lat="48.074395" lon="11.523632">
    <tag k="addr:city" v="München"/>
    <tag k="addr:country" v="DE"/>
    <tag k="addr:housename" v="Wohngebäude"/>
    <tag k="addr:housenumber" v="6"/>
    <tag k="addr:postcode" v="81479"/>
    <tag k="addr:street" v="Ringelnatzweg"/>
    <tag k="created_by" v="RambaZamba"/>
    <tag k="name" v="6"/>
    <tag k="source" v="survey"/>
  </node>
  <node id="414263275" version="1" timestamp="2009-06-01T22:05:51Z" uid="36809" user="pfoten_weg_!_" changeset="1399403" lat="48.073772" lon="11.521514">
    <tag k="addr:city" v="München"/>
    <tag k="addr:country" v="DE"/>
    <tag k="addr:housename" v="Wohnhaus"/>
    <tag k="addr:housenumber" v="205"/>
    <tag k="addr:postcode" v="81479"/>
    <tag k="addr:street" v="Stelznerstraße"/>
    <tag k="created_by" v="RambaZamba"/>
    <tag k="name" v="205"/>
    <tag k="source" v="survey"/>
  </node>
  <node id="414263275" version="2" timestamp="2009-06-07T21:17:49Z" uid="36809" user="pfoten_weg_!_" changeset="1453903" lat="48.073772" lon="11.521514">
    <tag k="addr:city" v="München"/>
    <tag k="addr:country" v="DE"/>
    <tag k="addr:housename" v="Wohngebäude"/>
    <tag k="addr:housenumber" v="205"/>
    <tag k="addr:postcode" v="81479"/>
    <tag k="addr:street" v="Stelznerstraße"/>
    <tag k="created_by" v="RambaZamba"/>
    <tag k="name" v="205"/>
    <tag k="source" v="survey"/>
  </node>
  <node id="414263275" version="3" timestamp="2009-06-08T18:15:03Z" uid="36809" user="pfoten_weg_!_" changeset="1461570" lat="48.073772" lon="11.521514">
    <tag k="addr:city" v="München"/>
    <tag k="addr:country" v="DE"/>
    <tag k="addr:housename" v="Wohngebäude"/>
    <tag k="addr:housenumber" v="205"/>
    <tag k="addr:postcode" v="81479"/>
    <tag k="addr:street" v="Stelznerstraße"/>
    <tag k="created_by" v="RambaZamba"/>
    <tag k="name" v="205"/>
    <tag k="source" v="survey"/>
  </node>
  <node id="414263276" version="1" timestamp="2009-06-01T22:05:51Z" uid="36809" user="pfoten_weg_!_" changeset="1399403" lat="48.073208" lon="11.521118">
    <tag k="addr:city" v="München"/>
    <tag k="addr:country" v="DE"/>
    <tag k="addr:housename" v="Wohnhaus"/>
    <tag k="addr:housenumber" v="207"/>
    <tag k="addr:postcode" v="81479"/>
    <tag k="addr:street" v="Wolfratshauser Straße"/>
    <tag k="created_by" v="RambaZamba"/>
    <tag k="name" v="207"/>
    <tag k="source" v="survey"/>
  </node>
  <node id="414263276" version="2" timestamp="2009-06-07T21:17:48Z" uid="36809" user="pfoten_weg_!_" changeset="1453903" lat="48.073208" lon="11.521118">
    <tag k="addr:city" v="München"/>
    <tag k="addr:country" v="DE"/>
    <tag k="addr:housename" v="Wohngebäude"/>
    <tag k="addr:housenumber" v="207"/>
    <tag k="addr:postcode" v="81479"/>
    <tag k="addr:street" v="Wolfratshauser Straße"/>
    <tag k="created_by" v="RambaZamba"/>
    <tag k="name" v="207"/>
    <tag k="source" v="survey"/>
  </node>
  <node id="414263276" version="3" timestamp="2009-06-08T18:15:04Z" uid="36809" user="pfoten_weg_!_" changeset="1461570" lat="48.073208" lon="11.521118">
    <tag k="addr:city" v="München"/>
    <tag k="addr:country" v="DE"/>
    <tag k="addr:housename" v="Wohngebäude"/>
    <tag k="addr:housenumber" v="207"/>
    <tag k="addr:postcode" v="81479"/>
    <tag k="addr:street" v="Wolfratshauser Straße"/>
    <tag k="created_by" v="RambaZamba"/>
    <tag k="name" v="207"/>
    <tag k="source" v="survey"/>
  </node>
  <node id="414263277" version="1" timestamp="2009-06-01T22:05:51Z" uid="36809" user="pfoten_weg_!_" changeset="1399403" lat="48.072927" lon="11.520843">
    <tag k="addr:city" v="München"/>
    <tag k="addr:country" v="DE"/>
    <tag k="addr:housename" v="Wohnhaus"/>
    <tag k="addr:housenumber" v="207A"/>
    <tag k="addr:postcode" v="81479"/>
    <tag k="addr:street" v="Wolfratshauser Straße"/>
    <tag k="created_by" v="RambaZamba"/>
    <tag k="name" v="207A"/>
    <tag k="source" v="survey"/>
  </node>
  <node id="414263277" version="2" timestamp="2009-06-07T21:17:48Z" uid="36809" user="pfoten_weg_!_" changeset="1453903" lat="48.072927" lon="11.520843">
    <tag k="addr:city" v="München"/>
    <tag k="addr:country" v="DE"/>
    <tag k="addr:housename" v="Wohngebäude"/>
    <tag k="addr:housenumber" v="207A"/>
    <tag k="addr:postcode" v="81479"/>
    <tag k="addr:street" v="Wolfratshauser Straße"/>
    <tag k="created_by" v="RambaZamba"/>
    <tag k="name" v="207A"/>
    <tag k="source" v="survey"/>
  </node>
  <node id="414263277" version="3" timestamp="2009-06-08T18:15:04Z" uid="36809" user="pfoten_weg_!_" changeset="1461570" lat="48.072927" lon="11.520843">
    <tag k="addr:city" v="München"/>
    <tag k="addr:country" v="DE"/>
    <tag k="addr:housename" v="Wohngebäude"/>
    <tag k="addr:housenumber" v="207A"/>
    <tag k="addr:postcode" v="81479"/>
    <tag k="addr:street" v="Wolfratshauser Straße"/>
    <tag k="created_by" v="RambaZamba"/>
    <tag k="name" v="207A"/>
    <tag k="source" v="survey"/>
  </node>
  <node id="414263278" version="1" timestamp="2009-06-01T22:05:52Z" uid="36809" user="pfoten_weg_!_" changeset="1399403" lat="48.072837" lon="11.520547">
    <tag k="addr:city" v="München"/>
    <tag k="addr:country" v="DE"/>
    <tag k="addr:housename" v="Wohnhaus"/>
    <tag k="addr:housenumber" v="209"/>
    <tag k="addr:postcode" v="81479"/>
    <tag k="addr:street" v="Wolfratshauser Straße"/>
    <tag k="created_by" v="RambaZamba"/>
    <tag k="name" v="209"/>
    <tag k="source" v="survey"/>
  </node>
  <node id="414263278" version="2" timestamp="2009-06-07T21:17:48Z" uid="36809" user="pfoten_weg_!_" changeset="1453903" lat="48.072837" lon="11.520547">
    <tag k="addr:city" v="München"/>
    <tag k="addr:country" v="DE"/>
    <tag k="addr:housename" v="Wohngebäude"/>
    <tag k="addr:housenumber" v="209"/>
    <tag k="addr:postcode" v="81479"/>
    <tag k="addr:street" v="Wolfratshauser Straße"/>
    <tag k="created_by" v="RambaZamba"/>
    <tag k="name" v="209"/>
    <tag k="source" v="survey"/>
  </node>
  <node id="414263278" version="3" timestamp="2009-06-08T18:15:03Z" uid="36809" user="pfoten_weg_!_" changeset="1461570" lat="48.072837" lon="11.520547">
    <tag k="addr:city" v="München"/>
    <tag k="addr:country" v="DE"/>
    <tag k="addr:housename" v="Wohngebäude"/>
    <tag k="addr:housenumber" v="209"/>
    <tag k="addr:postcode" v="81479"/>
    <tag k="addr:street" v="Wolfratshauser Straße"/>
    <tag k="created_by" v="RambaZamba"/>
    <tag k="name" v="209"/>
    <tag k="source" v="survey"/>
  </node>
  <node id="414263279" version="1" timestamp="2009-06-01T22:05:52Z" uid="36809" user="pfoten_weg_!_" changeset="1399403" lat="48.073943" lon="11.521553">
    <tag k="addr:housenumber" v="Poller"/>
    <tag k="barrier" v="bollard"/>
    <tag k="created_by" v="RambaZamba"/>
    <tag k="foot" v="yes"/>
    <tag k="source" v="survey"/>
  </node>
  <node id="414263279" version="2" timestamp="2009-08-12T14:00:16Z" uid="156995" user="HampelZamba" changeset="2119076" lat="48.073943" lon="11.521553">
    <tag k="addr:housenumber" v="Poller"/>
    <tag k="barrier" v="bollard"/>
    <tag k="foot" v="yes"/>
    <tag k="source" v="survey"/>
  </node>
  <node id="414263279" version="3" timestamp="2009-08-19T01:39:05Z" uid="36809" user="pfoten_weg_!_" changeset="2196399" lat="48.073943" lon="11.521553">
    <tag k="addr:housenumber" v="Poller"/>
    <tag k="barrier" v="bollard"/>
    <tag k="foot" v="yes"/>
    <tag k="source" v="survey"/>
    <tag k="warnung" v="rumpelzumpel-verbrecher"/>
  </node>
  <node id="414263279" version="4" timestamp="2009-08-19T02:06:01Z" uid="36809" user="pfoten_weg_!_" changeset="2196453" lat="48.073943" lon="11.521553">
    <tag k="addr:housenumber" v="Poller"/>
    <tag k="barrier" v="bollard"/>
    <tag k="foot" v="yes"/>
    <tag k="source" v="survey"/>
  </node>
  <node id="414263279" version="5" timestamp="2009-08-25T19:20:16Z" uid="36809" user="pfoten_weg_!_" changeset="2260586" lat="48.073943" lon="11.521553">
    <tag k="addr:housenumber" v="Poller"/>
    <tag k="barrier" v="bollard"/>
    <tag k="foot" v="yes"/>
    <tag k="source" v="survey"/>
  </node>
  <node id="414263280" version="1" timestamp="2009-06-01T22:05:52Z" uid="36809" user="pfoten_weg_!_" changeset="1399403" lat="48.073878" lon="11.5217612">
    <tag k="addr:housenumber" v="Poller"/>
    <tag k="barrier" v="bollard"/>
    <tag k="created_by" v="RambaZamba"/>
    <tag k="foot" v="yes"/>
    <tag k="source" v="survey"/>
  </node>
  <node id="414263280" version="2" timestamp="2009-08-12T14:00:16Z" uid="156995" user="HampelZamba" changeset="2119076" lat="48.073878" lon="11.5217612">
    <tag k="addr:housenumber" v="Poller"/>
    <tag k="barrier" v="bollard"/>
    <tag k="foot" v="yes"/>
    <tag k="source" v="survey"/>
  </node>
  <node id="414263280" version="3" timestamp="2009-08-19T01:38:54Z" uid="36809" user="pfoten_weg_!_" changeset="2196399" lat="48.073878" lon="11.5217612">
    <tag k="addr:housenumber" v="Poller"/>
    <tag k="barrier" v="bollard"/>
    <tag k="foot" v="yes"/>
    <tag k="source" v="survey"/>
    <tag k="warnung" v="rumpelzumpel-verbrecher"/>
  </node>
  <node id="414263280" version="4" timestamp="2009-08-19T02:05:51Z" uid="36809" user="pfoten_weg_!_" changeset="2196453" lat="48.073878" lon="11.5217612">
    <tag k="addr:housenumber" v="Poller"/>
    <tag k="barrier" v="bollard"/>
    <tag k="foot" v="yes"/>
    <tag k="source" v="survey"/>
  </node>
  <node id="414263280" version="5" timestamp="2009-08-25T19:20:16Z" uid="36809" user="pfoten_weg_!_" changeset="2260586" lat="48.073878" lon="11.5217612">
    <tag k="addr:housenumber" v="Poller"/>
    <tag k="barrier" v="bollard"/>
    <tag k="foot" v="yes"/>
    <tag k="source" v="survey"/>
  </node>
  <node id="414264207" version="1" timestamp="2009-06-01T22:07:19Z" uid="34428" user="usm78-gis" changeset="1399405" lat="60.3297363" lon="29.3568758"/>
  <node id="414264207" version="2" timestamp="2010-08-28T22:34:05Z" uid="34428" user="usm78-gis" changeset="5620983" lat="60.3296481" lon="29.3563858"/>
  <node id="414264208" version="1" timestamp="2009-06-01T22:07:19Z" uid="34428" user="usm78-gis" changeset="1399405" lat="60.3317118" lon="29.3618111"/>
  <node id="414264208" version="2" timestamp="2010-08-28T22:34:12Z" uid="34428" user="usm78-gis" changeset="5620983" lat="60.3317118" lon="29.3618111"/>
  <node id="414264209" version="1" timestamp="2009-06-01T22:07:20Z" uid="34428" user="usm78-gis" changeset="1399405" lat="60.3323703" lon="29.3633131"/>
  <node id="414264209" version="2" timestamp="2010-08-28T22:34:06Z" uid="34428" user="usm78-gis" changeset="5620983" lat="60.3323068" lon="29.3633131"/>
  <node id="414264822" version="1" timestamp="2009-06-01T22:11:03Z" uid="34428" user="usm78-gis" changeset="1399427" lat="60.1921954" lon="29.6940344"/>
  <node id="414264822" version="2" timestamp="2010-12-29T19:41:07Z" uid="104972" user="xronos" changeset="6802427" lat="60.1922454" lon="29.6933478"/>
  <node id="414265008" version="2" timestamp="2009-06-07T11:57:12Z" uid="9581" user="Lobelt" changeset="1447099" lat="50.7244631" lon="11.3399949"/>
  <node id="414265008" version="3" timestamp="2009-06-20T20:12:25Z" uid="137250" user="Navikamel" changeset="1578183" lat="50.7244631" lon="11.3399949"/>
  <node id="414265008" version="4" timestamp="2009-07-20T18:15:35Z" uid="9581" user="Lobelt" changeset="1887841" lat="50.7244631" lon="11.3399949"/>
  <node id="414265186" version="2" timestamp="2009-06-07T11:57:12Z" uid="9581" user="Lobelt" changeset="1447099" lat="50.7243776" lon="11.3401751"/>
  <node id="414265186" version="3" timestamp="2009-06-20T20:12:25Z" uid="137250" user="Navikamel" changeset="1578183" lat="50.7243776" lon="11.3401751"/>
  <node id="414265186" version="4" timestamp="2009-06-20T20:18:19Z" uid="137250" user="Navikamel" changeset="1578183" lat="50.7243776" lon="11.3401751"/>
  <node id="414266594" version="1" timestamp="2009-06-01T22:18:21Z" uid="34428" user="usm78-gis" changeset="1399457" lat="60.6095766" lon="28.5788567"/>
  <node id="414266594" version="2" timestamp="2011-07-29T21:48:33Z" uid="288925" user="BoomEngine" changeset="8867568" lat="60.6096081" lon="28.5789263"/>
  <node id="414266600" version="1" timestamp="2009-06-01T22:18:52Z" uid="34428" user="usm78-gis" changeset="1399461" lat="60.622792" lon="28.5696744"/>
  <node id="414266600" version="2" timestamp="2011-07-29T21:48:33Z" uid="288925" user="BoomEngine" changeset="8867568" lat="60.6227961" lon="28.5696326"/>
  <node id="414266600" version="3" timestamp="2011-08-20T20:49:34Z" uid="288925" user="BoomEngine" changeset="9078105" lat="60.6227932" lon="28.5696118"/>
  <node id="414266600" version="4" timestamp="2011-08-24T21:01:24Z" uid="288925" user="BoomEngine" changeset="9116644" lat="60.6227889" lon="28.56958"/>
  <node id="414266817" version="1" timestamp="2009-06-01T22:21:10Z" uid="34428" user="usm78-gis" changeset="1399466" lat="60.5859629" lon="28.6043089"/>
  <node id="414266818" version="1" timestamp="2009-06-01T22:21:10Z" uid="34428" user="usm78-gis" changeset="1399466" lat="60.58614" lon="28.6045234"/>
  <node id="414266819" version="1" timestamp="2009-06-01T22:21:10Z" uid="34428" user="usm78-gis" changeset="1399466" lat="60.5859503" lon="28.6051414"/>
  <node id="414266820" version="1" timestamp="2009-06-01T22:21:10Z" uid="34428" user="usm78-gis" changeset="1399466" lat="60.5859376" lon="28.6053817"/>
  <node id="414266821" version="1" timestamp="2009-06-01T22:21:10Z" uid="34428" user="usm78-gis" changeset="1399466" lat="60.5857606" lon="28.6056564"/>
  <node id="414266822" version="1" timestamp="2009-06-01T22:21:10Z" uid="34428" user="usm78-gis" changeset="1399466" lat="60.5854444" lon="28.6065147"/>
  <node id="414266823" version="1" timestamp="2009-06-01T22:21:10Z" uid="34428" user="usm78-gis" changeset="1399466" lat="60.5850229" lon="28.607785"/>
  <node id="414266824" version="1" timestamp="2009-06-01T22:21:10Z" uid="34428" user="usm78-gis" changeset="1399466" lat="60.5848248" lon="28.6079567"/>
  <node id="414266825" version="1" timestamp="2009-06-01T22:21:10Z" uid="34428" user="usm78-gis" changeset="1399466" lat="60.5845044" lon="28.608197"/>
  <node id="414266826" version="1" timestamp="2009-06-01T22:21:10Z" uid="34428" user="usm78-gis" changeset="1399466" lat="60.5842852" lon="28.6083172"/>
  <node id="414266827" version="1" timestamp="2009-06-01T22:21:10Z" uid="34428" user="usm78-gis" changeset="1399466" lat="60.584066" lon="28.6085146"/>
  <node id="414266828" version="1" timestamp="2009-06-01T22:21:10Z" uid="34428" user="usm78-gis" changeset="1399466" lat="60.5838636" lon="28.608815"/>
  <node id="414266829" version="1" timestamp="2009-06-01T22:21:11Z" uid="34428" user="usm78-gis" changeset="1399466" lat="60.5835264" lon="28.6088836"/>
  <node id="414266830" version="1" timestamp="2009-06-01T22:21:11Z" uid="34428" user="usm78-gis" changeset="1399466" lat="60.5832945" lon="28.6090896"/>
  <node id="414266831" version="1" timestamp="2009-06-01T22:21:11Z" uid="34428" user="usm78-gis" changeset="1399466" lat="60.583147" lon="28.6092613"/>
  <node id="414266832" version="1" timestamp="2009-06-01T22:21:11Z" uid="34428" user="usm78-gis" changeset="1399466" lat="60.5831048" lon="28.6097419"/>
  <node id="414266833" version="1" timestamp="2009-06-01T22:21:11Z" uid="34428" user="usm78-gis" changeset="1399466" lat="60.583029" lon="28.6100595"/>
  <node id="414266834" version="1" timestamp="2009-06-01T22:21:11Z" uid="34428" user="usm78-gis" changeset="1399466" lat="60.5830627" lon="28.610317"/>
  <node id="414266835" version="1" timestamp="2009-06-01T22:21:11Z" uid="34428" user="usm78-gis" changeset="1399466" lat="60.5828308" lon="28.6107032"/>
  <node id="414266920" version="1" timestamp="2009-06-01T22:23:07Z" uid="34428" user="usm78-gis" changeset="1399466" lat="60.6336743" lon="28.5711353"/>
  <node id="414266920" version="2" timestamp="2011-08-20T20:49:35Z" uid="288925" user="BoomEngine" changeset="9078105" lat="60.6336743" lon="28.5711353"/>
  <node id="414266921" version="1" timestamp="2009-06-01T22:23:07Z" uid="34428" user="usm78-gis" changeset="1399466" lat="60.6341794" lon="28.5701912"/>
  <node id="414266922" version="1" timestamp="2009-06-01T22:23:07Z" uid="34428" user="usm78-gis" changeset="1399466" lat="60.6348528" lon="28.5703628"/>
  <node id="414266923" version="1" timestamp="2009-06-01T22:23:08Z" uid="34428" user="usm78-gis" changeset="1399466" lat="60.6350843" lon="28.5711353"/>
  <node id="414266924" version="1" timestamp="2009-06-01T22:23:08Z" uid="34428" user="usm78-gis" changeset="1399466" lat="60.6359681" lon="28.5718219"/>
  <node id="414266924" version="2" timestamp="2011-08-20T20:49:34Z" uid="288925" user="BoomEngine" changeset="9078105" lat="60.6360023" lon="28.5718648"/>
  <node id="414266925" version="1" timestamp="2009-06-01T22:23:08Z" uid="34428" user="usm78-gis" changeset="1399466" lat="60.6360523" lon="28.5734956"/>
  <node id="414266925" version="2" timestamp="2011-08-20T20:49:36Z" uid="288925" user="BoomEngine" changeset="9078105" lat="60.6360523" lon="28.5734956"/>
  <node id="414266926" version="1" timestamp="2009-06-01T22:23:08Z" uid="34428" user="usm78-gis" changeset="1399466" lat="60.6355683" lon="28.5746544"/>
  <node id="414266926" version="2" timestamp="2011-08-20T20:49:36Z" uid="288925" user="BoomEngine" changeset="9078105" lat="60.6355683" lon="28.5746544"/>
  <node id="414267026" version="2" timestamp="2010-01-12T05:05:33Z" uid="30201" user="rrankin" changeset="3600899" lat="-34.0453403" lon="150.8298882"/>
  <node id="414267032" version="1" timestamp="2009-06-01T22:26:29Z" uid="36809" user="pfoten_weg_!_" changeset="1399481" lat="48.0714413" lon="11.5350882"/>
  <node id="414267032" version="2" timestamp="2009-06-01T22:27:06Z" uid="36809" user="pfoten_weg_!_" changeset="1399488" lat="48.0714413" lon="11.5350882"/>
  <node id="414267033" version="1" timestamp="2009-06-01T22:26:29Z" uid="36809" user="pfoten_weg_!_" changeset="1399481" lat="48.0713785" lon="11.5350686"/>
  <node id="414267033" version="2" timestamp="2009-06-01T22:27:06Z" uid="36809" user="pfoten_weg_!_" changeset="1399488" lat="48.0713785" lon="11.5350686"/>
  <node id="414267034" version="1" timestamp="2009-06-01T22:26:29Z" uid="36809" user="pfoten_weg_!_" changeset="1399481" lat="48.0713855" lon="11.5350192"/>
  <node id="414267034" version="2" timestamp="2009-06-01T22:27:06Z" uid="36809" user="pfoten_weg_!_" changeset="1399488" lat="48.0713855" lon="11.5350192"/>
  <node id="414267035" version="1" timestamp="2009-06-01T22:26:29Z" uid="36809" user="pfoten_weg_!_" changeset="1399481" lat="48.071259" lon="11.5349808"/>
  <node id="414267035" version="2" timestamp="2009-06-01T22:26:48Z" uid="36809" user="pfoten_weg_!_" changeset="1399486" lat="48.0712589" lon="11.5349808"/>
  <node id="414267035" version="3" timestamp="2009-06-01T22:27:06Z" uid="36809" user="pfoten_weg_!_" changeset="1399488" lat="48.0712589" lon="11.5349808"/>
  <node id="414267036" version="1" timestamp="2009-06-01T22:26:29Z" uid="36809" user="pfoten_weg_!_" changeset="1399481" lat="48.0712367" lon="11.5350555"/>
  <node id="414267036" version="2" timestamp="2009-06-01T22:27:06Z" uid="36809" user="pfoten_weg_!_" changeset="1399488" lat="48.0712367" lon="11.5350555"/>
  <node id="414267037" version="1" timestamp="2009-06-01T22:26:30Z" uid="36809" user="pfoten_weg_!_" changeset="1399481" lat="48.0711636" lon="11.5350024"/>
  <node id="414267037" version="2" timestamp="2009-06-01T22:27:05Z" uid="36809" user="pfoten_weg_!_" changeset="1399488" lat="48.0711636" lon="11.5350024"/>
  <node id="414267038" version="1" timestamp="2009-06-01T22:26:30Z" uid="36809" user="pfoten_weg_!_" changeset="1399481" lat="48.0712213" lon="11.5348075"/>
  <node id="414267038" version="2" timestamp="2009-06-01T22:27:05Z" uid="36809" user="pfoten_weg_!_" changeset="1399488" lat="48.0712213" lon="11.5348075"/>
  <node id="414267039" version="1" timestamp="2009-06-01T22:26:30Z" uid="36809" user="pfoten_weg_!_" changeset="1399481" lat="48.0712953" lon="11.5348583"/>
  <node id="414267039" version="2" timestamp="2009-06-01T22:27:05Z" uid="36809" user="pfoten_weg_!_" changeset="1399488" lat="48.0712953" lon="11.5348583"/>
  <node id="414267040" version="1" timestamp="2009-06-01T22:26:30Z" uid="36809" user="pfoten_weg_!_" changeset="1399481" lat="48.071286" lon="11.5348876"/>
  <node id="414267040" version="2" timestamp="2009-06-01T22:26:48Z" uid="36809" user="pfoten_weg_!_" changeset="1399486" lat="48.0712865" lon="11.5348879"/>
  <node id="414267040" version="3" timestamp="2009-06-01T22:27:05Z" uid="36809" user="pfoten_weg_!_" changeset="1399488" lat="48.0712865" lon="11.5348879"/>
  <node id="414267041" version="1" timestamp="2009-06-01T22:26:30Z" uid="36809" user="pfoten_weg_!_" changeset="1399481" lat="48.0713658" lon="11.534912"/>
  <node id="414267041" version="2" timestamp="2009-06-01T22:27:05Z" uid="36809" user="pfoten_weg_!_" changeset="1399488" lat="48.0713658" lon="11.534912"/>
  <node id="414267042" version="1" timestamp="2009-06-01T22:26:30Z" uid="36809" user="pfoten_weg_!_" changeset="1399481" lat="48.0713929" lon="11.5347123"/>
  <node id="414267042" version="2" timestamp="2009-06-01T22:27:05Z" uid="36809" user="pfoten_weg_!_" changeset="1399488" lat="48.0713929" lon="11.5347123"/>
  <node id="414267043" version="1" timestamp="2009-06-01T22:26:30Z" uid="36809" user="pfoten_weg_!_" changeset="1399481" lat="48.071427" lon="11.5347219"/>
  <node id="414267043" version="2" timestamp="2009-06-01T22:27:05Z" uid="36809" user="pfoten_weg_!_" changeset="1399488" lat="48.071427" lon="11.5347219"/>
  <node id="414267044" version="1" timestamp="2009-06-01T22:26:30Z" uid="36809" user="pfoten_weg_!_" changeset="1399481" lat="48.0714302" lon="11.5347004"/>
  <node id="414267044" version="2" timestamp="2009-06-01T22:27:05Z" uid="36809" user="pfoten_weg_!_" changeset="1399488" lat="48.0714302" lon="11.5347004"/>
  <node id="414267045" version="1" timestamp="2009-06-01T22:26:30Z" uid="36809" user="pfoten_weg_!_" changeset="1399481" lat="48.0714898" lon="11.5347171"/>
  <node id="414267045" version="2" timestamp="2009-06-01T22:27:05Z" uid="36809" user="pfoten_weg_!_" changeset="1399488" lat="48.0714898" lon="11.5347171"/>
  <node id="414267046" version="1" timestamp="2009-06-01T22:26:30Z" uid="36809" user="pfoten_weg_!_" changeset="1399481" lat="48.0714504" lon="11.5347657">
    <tag k="amenity" v="place_of_worship"/>
    <tag k="created_by" v="RambaZamba"/>
    <tag k="denomination" v="catholic"/>
    <tag k="man_made" v="tower"/>
    <tag k="name" v="Heilig Dreifaltigkeit"/>
    <tag k="religion" v="christian"/>
    <tag k="source" v="survey"/>
  </node>
  <node id="414267046" version="2" timestamp="2009-08-12T14:00:16Z" uid="156995" user="HampelZamba" changeset="2119076" lat="48.0714504" lon="11.5347657">
    <tag k="amenity" v="place_of_worship"/>
    <tag k="denomination" v="catholic"/>
    <tag k="man_made" v="tower"/>
    <tag k="name" v="Heilig Dreifaltigkeit"/>
    <tag k="religion" v="christian"/>
    <tag k="source" v="survey"/>
  </node>
  <node id="414267046" version="3" timestamp="2009-08-25T19:01:24Z" uid="36809" user="pfoten_weg_!_" changeset="2260381" lat="48.0714504" lon="11.5347657">
    <tag k="amenity" v="place_of_worship"/>
    <tag k="denomination" v="catholic"/>
    <tag k="man_made" v="tower"/>
    <tag k="name" v="Heilig Dreifaltigkeit"/>
    <tag k="religion" v="christian"/>
    <tag k="source" v="survey"/>
  </node>
  <node id="414267095" version="1" timestamp="2009-06-01T22:27:05Z" uid="36809" user="pfoten_weg_!_" changeset="1399488" lat="48.0714413" lon="11.5350882"/>
  <node id="414267095" version="2" timestamp="2009-06-09T08:58:07Z" uid="36809" user="pfoten_weg_!_" changeset="1466365" lat="48.0714413" lon="11.5350882">
    <tag k="created_by" v="RambaZamba"/>
  </node>
  <node id="414267095" version="3" timestamp="2009-08-12T14:00:16Z" uid="156995" user="HampelZamba" changeset="2119076" lat="48.0714413" lon="11.5350882"/>
  <node id="414267095" version="4" timestamp="2009-08-25T19:01:22Z" uid="36809" user="pfoten_weg_!_" changeset="2260381" lat="48.0714413" lon="11.5350882"/>
  <node id="414267096" version="1" timestamp="2009-06-01T22:27:05Z" uid="36809" user="pfoten_weg_!_" changeset="1399488" lat="48.071427" lon="11.5347219"/>
  <node id="414267096" version="2" timestamp="2009-06-09T08:58:08Z" uid="36809" user="pfoten_weg_!_" changeset="1466365" lat="48.071427" lon="11.5347219">
    <tag k="created_by" v="RambaZamba"/>
  </node>
  <node id="414267096" version="3" timestamp="2009-08-12T14:00:16Z" uid="156995" user="HampelZamba" changeset="2119076" lat="48.071427" lon="11.5347219"/>
  <node id="414267096" version="4" timestamp="2009-08-25T19:01:21Z" uid="36809" user="pfoten_weg_!_" changeset="2260381" lat="48.071427" lon="11.5347219"/>
  <node id="414267097" version="1" timestamp="2009-06-01T22:27:05Z" uid="36809" user="pfoten_weg_!_" changeset="1399488" lat="48.0713785" lon="11.5350686"/>
  <node id="414267097" version="2" timestamp="2009-06-09T08:58:08Z" uid="36809" user="pfoten_weg_!_" changeset="1466365" lat="48.0713785" lon="11.5350686">
    <tag k="created_by" v="RambaZamba"/>
  </node>
  <node id="414267097" version="3" timestamp="2009-08-12T14:00:16Z" uid="156995" user="HampelZamba" changeset="2119076" lat="48.0713785" lon="11.5350686"/>
  <node id="414267097" version="4" timestamp="2009-08-25T19:01:21Z" uid="36809" user="pfoten_weg_!_" changeset="2260381" lat="48.0713785" lon="11.5350686"/>
  <node id="414267098" version="1" timestamp="2009-06-01T22:27:05Z" uid="36809" user="pfoten_weg_!_" changeset="1399488" lat="48.0713929" lon="11.5347123"/>
  <node id="414267098" version="2" timestamp="2009-06-09T08:58:08Z" uid="36809" user="pfoten_weg_!_" changeset="1466365" lat="48.0713929" lon="11.5347123">
    <tag k="created_by" v="RambaZamba"/>
  </node>
  <node id="414267098" version="3" timestamp="2009-08-12T14:00:17Z" uid="156995" user="HampelZamba" changeset="2119076" lat="48.0713929" lon="11.5347123"/>
  <node id="414267098" version="4" timestamp="2009-08-25T19:01:21Z" uid="36809" user="pfoten_weg_!_" changeset="2260381" lat="48.0713929" lon="11.5347123"/>
  <node id="414267099" version="1" timestamp="2009-06-01T22:27:05Z" uid="36809" user="pfoten_weg_!_" changeset="1399488" lat="48.0713855" lon="11.5350192"/>
  <node id="414267099" version="2" timestamp="2009-06-09T08:58:08Z" uid="36809" user="pfoten_weg_!_" changeset="1466365" lat="48.0713855" lon="11.5350192">
    <tag k="created_by" v="RambaZamba"/>
  </node>
  <node id="414267099" version="3" timestamp="2009-08-12T14:00:17Z" uid="156995" user="HampelZamba" changeset="2119076" lat="48.0713855" lon="11.5350192"/>
  <node id="414267099" version="4" timestamp="2009-08-25T19:01:20Z" uid="36809" user="pfoten_weg_!_" changeset="2260381" lat="48.0713855" lon="11.5350192"/>
  <node id="414267100" version="1" timestamp="2009-06-01T22:27:05Z" uid="36809" user="pfoten_weg_!_" changeset="1399488" lat="48.0713658" lon="11.534912"/>
  <node id="414267100" version="2" timestamp="2009-06-09T08:58:07Z" uid="36809" user="pfoten_weg_!_" changeset="1466365" lat="48.0713658" lon="11.534912">
    <tag k="created_by" v="RambaZamba"/>
  </node>
  <node id="414267100" version="3" timestamp="2009-08-12T14:00:17Z" uid="156995" user="HampelZamba" changeset="2119076" lat="48.0713658" lon="11.534912"/>
  <node id="414267100" version="4" timestamp="2009-08-25T19:01:22Z" uid="36809" user="pfoten_weg_!_" changeset="2260381" lat="48.0713658" lon="11.534912"/>
  <node id="414267101" version="1" timestamp="2009-06-01T22:27:05Z" uid="36809" user="pfoten_weg_!_" changeset="1399488" lat="48.0712589" lon="11.5349808"/>
  <node id="414267101" version="2" timestamp="2009-06-09T08:58:07Z" uid="36809" user="pfoten_weg_!_" changeset="1466365" lat="48.0712589" lon="11.5349808">
    <tag k="created_by" v="RambaZamba"/>
  </node>
  <node id="414267101" version="3" timestamp="2009-08-12T14:00:17Z" uid="156995" user="HampelZamba" changeset="2119076" lat="48.0712589" lon="11.5349808"/>
  <node id="414267101" version="4" timestamp="2009-08-25T19:01:22Z" uid="36809" user="pfoten_weg_!_" changeset="2260381" lat="48.0712589" lon="11.5349808"/>
  <node id="414267102" version="1" timestamp="2009-06-01T22:27:05Z" uid="36809" user="pfoten_weg_!_" changeset="1399488" lat="48.0712865" lon="11.5348879"/>
  <node id="414267102" version="2" timestamp="2009-06-09T08:58:07Z" uid="36809" user="pfoten_weg_!_" changeset="1466365" lat="48.0712865" lon="11.5348879">
    <tag k="created_by" v="RambaZamba"/>
  </node>
  <node id="414267102" version="3" timestamp="2009-08-12T14:00:17Z" uid="156995" user="HampelZamba" changeset="2119076" lat="48.0712865" lon="11.5348879"/>
  <node id="414267102" version="4" timestamp="2009-08-25T19:01:22Z" uid="36809" user="pfoten_weg_!_" changeset="2260381" lat="48.0712865" lon="11.5348879"/>
  <node id="414267103" version="1" timestamp="2009-06-01T22:27:05Z" uid="36809" user="pfoten_weg_!_" changeset="1399488" lat="48.0712367" lon="11.5350555"/>
  <node id="414267103" version="2" timestamp="2009-06-09T08:58:07Z" uid="36809" user="pfoten_weg_!_" changeset="1466365" lat="48.0712367" lon="11.5350555">
    <tag k="created_by" v="RambaZamba"/>
  </node>
  <node id="414267103" version="3" timestamp="2009-08-12T14:00:17Z" uid="156995" user="HampelZamba" changeset="2119076" lat="48.0712367" lon="11.5350555"/>
  <node id="414267103" version="4" timestamp="2009-08-25T19:01:21Z" uid="36809" user="pfoten_weg_!_" changeset="2260381" lat="48.0712367" lon="11.5350555"/>
  <node id="414267104" version="1" timestamp="2009-06-01T22:27:05Z" uid="36809" user="pfoten_weg_!_" changeset="1399488" lat="48.0711636" lon="11.5350024"/>
  <node id="414267104" version="2" timestamp="2009-06-09T08:58:07Z" uid="36809" user="pfoten_weg_!_" changeset="1466365" lat="48.0711636" lon="11.5350024">
    <tag k="created_by" v="RambaZamba"/>
  </node>
  <node id="414267104" version="3" timestamp="2009-08-12T14:00:17Z" uid="156995" user="HampelZamba" changeset="2119076" lat="48.0711636" lon="11.5350024"/>
  <node id="414267104" version="4" timestamp="2009-08-25T19:01:23Z" uid="36809" user="pfoten_weg_!_" changeset="2260381" lat="48.0711636" lon="11.5350024"/>
  <node id="414267105" version="1" timestamp="2009-06-01T22:27:05Z" uid="36809" user="pfoten_weg_!_" changeset="1399488" lat="48.0712214" lon="11.5348075"/>
  <node id="414267105" version="2" timestamp="2009-06-09T08:58:07Z" uid="36809" user="pfoten_weg_!_" changeset="1466365" lat="48.0712214" lon="11.5348075">
    <tag k="created_by" v="RambaZamba"/>
  </node>
  <node id="414267105" version="3" timestamp="2009-08-12T14:00:17Z" uid="156995" user="HampelZamba" changeset="2119076" lat="48.0712214" lon="11.5348075"/>
  <node id="414267105" version="4" timestamp="2009-08-25T19:01:23Z" uid="36809" user="pfoten_weg_!_" changeset="2260381" lat="48.0712214" lon="11.5348075"/>
  <node id="414267106" version="1" timestamp="2009-06-01T22:27:05Z" uid="36809" user="pfoten_weg_!_" changeset="1399488" lat="48.0714898" lon="11.5347171"/>
  <node id="414267106" version="2" timestamp="2009-06-09T08:58:07Z" uid="36809" user="pfoten_weg_!_" changeset="1466365" lat="48.0714898" lon="11.5347171">
    <tag k="created_by" v="RambaZamba"/>
  </node>
  <node id="414267106" version="3" timestamp="2009-08-12T14:00:17Z" uid="156995" user="HampelZamba" changeset="2119076" lat="48.0714898" lon="11.5347171"/>
  <node id="414267106" version="4" timestamp="2009-08-25T19:01:23Z" uid="36809" user="pfoten_weg_!_" changeset="2260381" lat="48.0714898" lon="11.5347171"/>
  <node id="414267107" version="1" timestamp="2009-06-01T22:27:05Z" uid="36809" user="pfoten_weg_!_" changeset="1399488" lat="48.0712953" lon="11.5348583"/>
  <node id="414267107" version="2" timestamp="2009-06-09T08:58:07Z" uid="36809" user="pfoten_weg_!_" changeset="1466365" lat="48.0712953" lon="11.5348583">
    <tag k="created_by" v="RambaZamba"/>
  </node>
  <node id="414267107" version="3" timestamp="2009-08-12T14:00:17Z" uid="156995" user="HampelZamba" changeset="2119076" lat="48.0712953" lon="11.5348583"/>
  <node id="414267107" version="4" timestamp="2009-08-25T19:01:23Z" uid="36809" user="pfoten_weg_!_" changeset="2260381" lat="48.0712953" lon="11.5348583"/>
  <node id="414267108" version="1" timestamp="2009-06-01T22:27:05Z" uid="36809" user="pfoten_weg_!_" changeset="1399488" lat="48.0714303" lon="11.5347004"/>
  <node id="414267108" version="2" timestamp="2009-06-09T08:58:07Z" uid="36809" user="pfoten_weg_!_" changeset="1466365" lat="48.0714303" lon="11.5347004">
    <tag k="created_by" v="RambaZamba"/>
  </node>
  <node id="414267108" version="3" timestamp="2009-08-12T14:00:17Z" uid="156995" user="HampelZamba" changeset="2119076" lat="48.0714303" lon="11.5347004"/>
  <node id="414267108" version="4" timestamp="2009-08-25T19:01:24Z" uid="36809" user="pfoten_weg_!_" changeset="2260381" lat="48.0714303" lon="11.5347004"/>
  <node id="414267308" version="1" timestamp="2009-06-01T22:31:27Z" uid="34428" user="usm78-gis" changeset="1399496" lat="59.9302411" lon="30.454749"/>
  <node id="414267308" version="2" timestamp="2009-06-01T22:31:33Z" uid="34428" user="usm78-gis" changeset="1399496" lat="59.9302134" lon="30.454721"/>
  <node id="414267308" version="3" timestamp="2010-05-19T06:44:14Z" uid="289162" user="SteelRat" changeset="4745361" lat="59.9302134" lon="30.454721"/>
  <node id="414267308" version="4" timestamp="2010-05-19T06:51:59Z" uid="289162" user="SteelRat" changeset="4745361" lat="59.9302134" lon="30.454721"/>
  <node id="414267308" version="5" timestamp="2010-07-15T13:53:35Z" uid="127299" user="Batareikin" changeset="5226987" lat="59.9302419" lon="30.4544793"/>
  <node id="414267308" version="6" timestamp="2010-11-02T09:11:42Z" uid="289162" user="SteelRat" changeset="6266066" lat="59.9301901" lon="30.4546041"/>
  <node id="414267308" version="7" timestamp="2011-05-01T18:47:13Z" uid="447762" user="Alex-" changeset="8024440" lat="59.9301861" lon="30.4546132"/>
  <node id="414267308" version="8" timestamp="2011-05-14T03:25:05Z" uid="447762" user="Alex-" changeset="8137249" lat="59.9301925" lon="30.4545749"/>
  <node id="414267312" version="1" timestamp="2009-06-01T22:31:27Z" uid="34428" user="usm78-gis" changeset="1399496" lat="59.92799" lon="30.4505925"/>
  <node id="414267312" version="2" timestamp="2010-05-18T09:16:40Z" uid="289162" user="SteelRat" changeset="4736793" lat="59.9279906" lon="30.4510947"/>
  <node id="414267312" version="3" timestamp="2010-05-19T06:48:10Z" uid="289162" user="SteelRat" changeset="4745361" lat="59.9279906" lon="30.4510947"/>
  <node id="414267313" version="1" timestamp="2009-06-01T22:31:28Z" uid="34428" user="usm78-gis" changeset="1399496" lat="59.9281018" lon="30.4512448"/>
  <node id="414267313" version="2" timestamp="2010-05-18T09:16:40Z" uid="289162" user="SteelRat" changeset="4736793" lat="59.928039" lon="30.4511698"/>
  <node id="414267313" version="3" timestamp="2010-05-19T06:45:24Z" uid="289162" user="SteelRat" changeset="4745361" lat="59.9279952" lon="30.4510743"/>
  <node id="414267313" version="4" timestamp="2010-05-19T06:48:09Z" uid="289162" user="SteelRat" changeset="4745361" lat="59.9278661" lon="30.4508168"/>
  <node id="414267313" version="5" timestamp="2010-05-19T06:51:59Z" uid="289162" user="SteelRat" changeset="4745361" lat="59.9277747" lon="30.4510592"/>
  <node id="414267313" version="6" timestamp="2010-05-19T06:54:37Z" uid="289162" user="SteelRat" changeset="4745361" lat="59.9279091" lon="30.4511816"/>
  <node id="414267313" version="7" timestamp="2010-06-21T11:53:32Z" uid="289162" user="SteelRat" changeset="5042010" lat="59.9276001" lon="30.4508062"/>
  <node id="414267313" version="8" timestamp="2010-06-21T11:54:40Z" uid="289162" user="SteelRat" changeset="5042010" lat="59.9279119" lon="30.4511603"/>
  <node id="414267313" version="9" timestamp="2010-07-15T13:54:07Z" uid="127299" user="Batareikin" changeset="5226987" lat="59.9278797" lon="30.4502826"/>
  <node id="414267313" version="10" timestamp="2010-07-17T09:32:42Z" uid="127299" user="Batareikin" changeset="5240900" lat="59.9278892" lon="30.4506818"/>
  <node id="414267313" version="11" timestamp="2010-07-20T11:37:36Z" uid="289162" user="SteelRat" changeset="5269827" lat="59.9279264" lon="30.4510924"/>
  <node id="414267314" version="1" timestamp="2009-06-01T22:31:28Z" uid="34428" user="usm78-gis" changeset="1399496" lat="59.9290652" lon="30.4528069"/>
  <node id="414267314" version="2" timestamp="2009-08-07T19:17:24Z" uid="136198" user="tmprec" changeset="2069331" lat="59.9290652" lon="30.4528069"/>
  <node id="414267465" version="2" timestamp="2011-01-29T06:55:56Z" uid="4467" user="Rosscoe" changeset="7119413" lat="-34.0706833" lon="150.8052434"/>
  <node id="414267532" version="2" timestamp="2010-07-24T04:56:48Z" uid="7617" user="Franc" changeset="5300753" lat="-34.0715456" lon="150.8081742"/>
  <node id="414267532" version="3" timestamp="2011-01-29T06:55:56Z" uid="4467" user="Rosscoe" changeset="7119413" lat="-34.0715095" lon="150.8082838"/>
  <node id="414267537" version="2" timestamp="2010-07-24T04:56:48Z" uid="7617" user="Franc" changeset="5300753" lat="-34.0717989" lon="150.8089682"/>
  <node id="414267537" version="3" timestamp="2011-01-29T06:55:48Z" uid="4467" user="Rosscoe" changeset="7119413" lat="-34.0718084" lon="150.8089673"/>
  <node id="414267546" version="1" timestamp="2009-06-01T22:36:33Z" uid="34428" user="usm78-gis" changeset="1399520" lat="59.7055871" lon="30.0100796"/>
  <node id="414267564" version="2" timestamp="2011-01-29T06:55:58Z" uid="4467" user="Rosscoe" changeset="7119413" lat="-34.0721252" lon="150.8103226"/>
  <node id="414267565" version="3" timestamp="2010-03-20T22:23:07Z" uid="7617" user="Franc" changeset="4185573" lat="-34.0722018" lon="150.8103354">
    <tag k="highway" v="traffic_signals"/>
  </node>
  <node id="414267565" version="4" timestamp="2011-01-29T06:55:47Z" uid="4467" user="Rosscoe" changeset="7119413" lat="-34.0721628" lon="150.8103907">
    <tag k="highway" v="traffic_signals"/>
  </node>
  <node id="414267566" version="3" timestamp="2010-03-20T22:23:07Z" uid="7617" user="Franc" changeset="4185573" lat="-34.072075" lon="150.8106614"/>
  <node id="414267566" version="4" timestamp="2011-01-29T06:55:48Z" uid="4467" user="Rosscoe" changeset="7119413" lat="-34.0721101" lon="150.8106402"/>
  <node id="414267607" version="1" timestamp="2009-06-01T22:39:23Z" uid="34428" user="usm78-gis" changeset="1399530" lat="59.614057" lon="30.1665785"/>
  <node id="414267607" version="2" timestamp="2011-01-16T14:27:13Z" uid="395977" user="Fortune-hunter" changeset="6988209" lat="59.6140581" lon="30.1664886"/>
  <node id="414267607" version="3" timestamp="2012-03-14T13:06:24Z" uid="368493" user="fserges" changeset="10977621" lat="59.6140955" lon="30.1665749"/>
  <node id="414267670" version="3" timestamp="2010-03-20T13:13:41Z" uid="7617" user="Franc" changeset="4179590" lat="-34.0674392" lon="150.8141364"/>
  <node id="414267670" version="4" timestamp="2010-04-14T11:03:03Z" uid="203324" user="firefly2560" changeset="4421406" lat="-34.0674291" lon="150.8141424"/>
  <node id="414267688" version="1" timestamp="2009-06-01T22:42:00Z" uid="34428" user="usm78-gis" changeset="1399535" lat="59.3705879" lon="30.0880785"/>
  <node id="414267706" version="1" timestamp="2009-06-01T22:42:31Z" uid="34428" user="usm78-gis" changeset="1399538" lat="59.353186" lon="30.1337445"/>
  <node id="414267771" version="1" timestamp="2009-06-01T22:43:39Z" uid="34428" user="usm78-gis" changeset="1399543" lat="59.2802429" lon="30.1271752"/>
  <node id="414267771" version="2" timestamp="2010-12-17T15:33:07Z" uid="95117" user="one_half_3544" changeset="6687763" lat="59.2801924" lon="30.1272159"/>
  <node id="414267773" version="1" timestamp="2009-06-01T22:44:19Z" uid="34428" user="usm78-gis" changeset="1399546" lat="59.3965106" lon="30.2964764"/>
  <node id="414267773" version="2" timestamp="2010-06-23T07:57:29Z" uid="106824" user="mozhay" changeset="5056973" lat="59.3965106" lon="30.2964764"/>
  <node id="414267773" version="3" timestamp="2010-06-28T15:35:03Z" uid="106824" user="mozhay" changeset="5098601" lat="59.3965781" lon="30.2967257"/>
  <node id="414267773" version="4" timestamp="2010-06-30T20:47:48Z" uid="106824" user="mozhay" changeset="5116629" lat="59.396575" lon="30.2967188"/>
  <node id="414267773" version="5" timestamp="2011-09-25T22:23:58Z" uid="205886" user="Diomas" changeset="9397607" lat="59.3965286" lon="30.2966862"/>
  <node id="414267800" version="1" timestamp="2009-06-01T22:44:55Z" uid="34428" user="usm78-gis" changeset="1399549" lat="59.4137289" lon="30.3445635"/>
  <node id="414267800" version="2" timestamp="2010-06-23T07:57:06Z" uid="106824" user="mozhay" changeset="5056973" lat="59.4137289" lon="30.3445635"/>
  <node id="414267800" version="3" timestamp="2010-06-28T15:52:35Z" uid="106824" user="mozhay" changeset="5098722" lat="59.4136029" lon="30.345077"/>
  <node id="414267800" version="4" timestamp="2010-06-28T18:54:45Z" uid="106824" user="mozhay" changeset="5100179" lat="59.4135755" lon="30.3447534"/>
  <node id="414267800" version="5" timestamp="2011-09-25T22:23:58Z" uid="205886" user="Diomas" changeset="9397607" lat="59.4135863" lon="30.3447473"/>
</osm>
