<?xml version='1.0' encoding='UTF-8'?>
<osm version="0.6" generator="libosmium/2.20.0">
  <node id="414940015" version="5" timestamp="2010-11-01T18:57:52Z" uid="9581" user="Lobelt" changeset="6259686" lat="51.0152301" lon="10.3255387"/>
  <node id="414940054" version="2" timestamp="2009-11-01T01:29:39Z" uid="9581" user="Lobelt" changeset="3003143" lat="50.5242409" lon="11.685647"/>
  <node id="414940058" version="2" timestamp="2009-11-01T01:29:39Z" uid="9581" user="Lobelt" changeset="3003143" lat="50.5245488" lon="11.6865198"/>
  <node id="414943217" version="2" timestamp="2010-03-15T22:57:36Z" uid="23543" user="jkjk" changeset="4139644" lat="37.8687737" lon="126.7729999">
    <tag k="name" v="(딩동1교) (( Dingdong 1 Gyo ))"/>
    <tag k="name:en" v="( Dingdong 1 Gyo )"/>
    <tag k="name:ko_rm" v="( Dingdong 1 Gyo )"/>
    <tag k="ncat" v="교차로및지명"/>
    <tag k="source" v="mp2osm"/>
  </node>
  <node id="414943217" version="3" timestamp="2011-12-27T15:08:01Z" uid="269943" user="kkamise" changeset="10216357" lat="37.8687737" lon="126.7729999"/>
  <node id="414944117" version="2" timestamp="2010-03-15T22:57:58Z" uid="23543" user="jkjk" changeset="4139644" lat="37.88581" lon="126.74708">
    <tag k="bridge" v="yes"/>
    <tag k="name" v="사목2교 (Samok 2 Gyo)"/>
    <tag k="name:en" v="Samok 2 Gyo"/>
    <tag k="name:ko_rm" v="Samok 2 Gyo"/>
    <tag k="ncat" v="교차로및지명"/>
    <tag k="source" v="mp2osm"/>
  </node>
  <node id="414944119" version="2" timestamp="2010-03-15T22:57:36Z" uid="23543" user="jkjk" changeset="4139644" lat="37.8855978" lon="126.7473378">
    <tag k="bridge" v="yes"/>
    <tag k="name" v="사목2교 (Samok 2 Gyo)"/>
    <tag k="name:en" v="Samok 2 Gyo"/>
    <tag k="name:ko_rm" v="Samok 2 Gyo"/>
    <tag k="ncat" v="교차로및지명"/>
    <tag k="source" v="mp2osm"/>
  </node>
  <node id="414944119" version="3" timestamp="2011-12-27T14:49:00Z" uid="269943" user="kkamise" changeset="10216357" lat="37.8855978" lon="126.7473378"/>
  <node id="414944146" version="2" timestamp="2010-03-15T23:28:47Z" uid="23543" user="jkjk" changeset="4139825" lat="37.8138261" lon="126.7924086">
    <tag k="bridge" v="yes"/>
    <tag k="name" v="봉암교 (Bongamgyo)"/>
    <tag k="name:en" v="Bongamgyo"/>
    <tag k="name:ko_rm" v="Bongamgyo"/>
    <tag k="ncat" v="교차로및지명"/>
    <tag k="source" v="mp2osm"/>
  </node>
  <node id="414944973" version="2" timestamp="2010-11-07T16:07:13Z" uid="33382" user="de_muur" changeset="6312856" lat="53.6554062" lon="10.7645799"/>
  <node id="414944973" version="3" timestamp="2012-03-27T10:47:18Z" uid="63107" user="brogo" changeset="11114984" lat="53.6554062" lon="10.7645799"/>
  <node id="414944975" version="2" timestamp="2010-11-07T16:07:14Z" uid="33382" user="de_muur" changeset="6312856" lat="53.6550082" lon="10.7645166"/>
  <node id="414944975" version="3" timestamp="2012-03-27T10:47:18Z" uid="63107" user="brogo" changeset="11114984" lat="53.6550082" lon="10.7645166"/>
  <node id="414944979" version="2" timestamp="2010-11-07T16:07:14Z" uid="33382" user="de_muur" changeset="6312856" lat="53.6541176" lon="10.7664125"/>
  <node id="414944979" version="3" timestamp="2012-03-27T10:47:18Z" uid="63107" user="brogo" changeset="11114984" lat="53.6541176" lon="10.7664125"/>
  <node id="414944981" version="2" timestamp="2010-11-07T16:07:14Z" uid="33382" user="de_muur" changeset="6312856" lat="53.6502862" lon="10.7711004"/>
  <node id="414944981" version="3" timestamp="2012-03-27T10:47:19Z" uid="63107" user="brogo" changeset="11114984" lat="53.6502862" lon="10.7711004"/>
  <node id="414944983" version="2" timestamp="2010-11-07T16:07:14Z" uid="33382" user="de_muur" changeset="6312856" lat="53.6494734" lon="10.7713394"/>
  <node id="414944983" version="3" timestamp="2012-03-27T10:47:19Z" uid="63107" user="brogo" changeset="11114984" lat="53.6494734" lon="10.7713394"/>
  <node id="414946413" version="2" timestamp="2009-06-16T14:37:41Z" uid="20587" user="balrog-kun" changeset="1535709" lat="52.6388679" lon="16.8777334">
    <tag k="addr:postcode" v="64-600"/>
    <tag k="is_in" v="gmina Oborniki, powiat obornicki, województwo wielkopolskie, Poland"/>
    <tag k="is_in:county" v="powiat obornicki"/>
    <tag k="is_in:municipality" v="gmina Oborniki"/>
    <tag k="is_in:province" v="województwo wielkopolskie"/>
    <tag k="name" v="Łukowo"/>
    <tag k="place" v="village"/>
    <tag k="wikipedia" v="pl:Łukowo (powiat obornicki)"/>
  </node>
  <node id="414946413" version="3" timestamp="2010-04-11T04:47:15Z" uid="20587" user="balrog-kun" changeset="4389130" lat="52.6387035" lon="16.8774624">
    <tag k="addr:postcode" v="64-600"/>
    <tag k="is_in" v="gmina Oborniki, powiat obornicki, województwo wielkopolskie, Poland"/>
    <tag k="is_in:county" v="powiat obornicki"/>
    <tag k="is_in:municipality" v="gmina Oborniki"/>
    <tag k="is_in:province" v="województwo wielkopolskie"/>
    <tag k="name" v="Łukowo"/>
    <tag k="place" v="village"/>
    <tag k="wikipedia" v="pl:Łukowo (powiat obornicki)"/>
  </node>
  <node id="414949354" version="2" timestamp="2009-06-16T14:37:57Z" uid="20587" user="balrog-kun" changeset="1535709" lat="52.6519705" lon="16.8482505">
    <tag k="is_in" v="gmina Oborniki, powiat obornicki, województwo wielkopolskie, Poland"/>
    <tag k="is_in:county" v="powiat obornicki"/>
    <tag k="is_in:municipality" v="gmina Oborniki"/>
    <tag k="is_in:province" v="województwo wielkopolskie"/>
    <tag k="name" v="Kowanowo"/>
    <tag k="place" v="village"/>
    <tag k="wikipedia" v="pl:Kowanowo (województwo wielkopolskie)"/>
  </node>
  <node id="414949354" version="3" timestamp="2010-04-11T04:47:15Z" uid="20587" user="balrog-kun" changeset="4389130" lat="52.6522284" lon="16.8487184">
    <tag k="is_in" v="gmina Oborniki, powiat obornicki, województwo wielkopolskie, Poland"/>
    <tag k="is_in:county" v="powiat obornicki"/>
    <tag k="is_in:municipality" v="gmina Oborniki"/>
    <tag k="is_in:province" v="województwo wielkopolskie"/>
    <tag k="name" v="Kowanowo"/>
    <tag k="place" v="village"/>
    <tag k="wikipedia" v="pl:Kowanowo (województwo wielkopolskie)"/>
  </node>
</osm>
