<?xml version='1.0' encoding='UTF-8'?>
<osm version="0.6" generator="libosmium/2.20.0">
  <node id="416061735" version="1" timestamp="2009-06-05T19:23:07Z" uid="132212" user="Migro" changeset="1432201" lat="60.2133609" lon="24.7317192"/>
  <node id="416061735" version="2" timestamp="2011-12-27T03:14:03Z" uid="38239" user="Daeron" changeset="10212630" lat="60.2133609" lon="24.7317192"/>
  <node id="416061743" version="1" timestamp="2009-06-05T19:23:07Z" uid="132212" user="Migro" changeset="1432201" lat="60.2162323" lon="24.7389549"/>
  <node id="416061743" version="2" timestamp="2012-03-21T21:51:26Z" uid="38239" user="Daeron" changeset="11057656" lat="60.2162208" lon="24.738822"/>
  <node id="416062554" version="3" timestamp="2010-01-15T21:07:57Z" uid="9581" user="Lobelt" changeset="3627436" lat="49.5779826" lon="8.1186588">
    <tag k="power" v="tower"/>
  </node>
  <node id="416062554" version="4" timestamp="2012-02-26T20:37:24Z" uid="92274" user="adjuva" changeset="10802954" lat="49.5779826" lon="8.1186588"/>
  <node id="416062555" version="2" timestamp="2010-01-15T21:07:57Z" uid="9581" user="Lobelt" changeset="3627436" lat="49.5765408" lon="8.1355526">
    <tag k="power" v="tower"/>
  </node>
  <node id="416062555" version="3" timestamp="2012-02-26T20:37:24Z" uid="92274" user="adjuva" changeset="10802954" lat="49.5765408" lon="8.1355526"/>
  <node id="416063040" version="3" timestamp="2010-07-29T09:13:45Z" uid="74617" user="JohnSmith" changeset="5344848" lat="49.7767837" lon="8.6151222">
    <tag k="amenity" v="emergency_phone"/>
    <tag k="emergency" v="phone"/>
    <tag k="operator" v="Autobahnmeisterei"/>
    <tag k="source" v="survey"/>
  </node>
  <node id="416063043" version="2" timestamp="2010-07-29T09:04:23Z" uid="74617" user="JohnSmith" changeset="5344848" lat="49.7746996" lon="8.6126097">
    <tag k="amenity" v="emergency_phone"/>
    <tag k="emergency" v="phone"/>
    <tag k="operator" v="Autobahnmeisterei"/>
    <tag k="source" v="survey"/>
  </node>
  <node id="416063046" version="2" timestamp="2010-07-29T09:26:01Z" uid="74617" user="JohnSmith" changeset="5344848" lat="49.7907013" lon="8.6190965">
    <tag k="amenity" v="emergency_phone"/>
    <tag k="emergency" v="phone"/>
    <tag k="operator" v="Autobahnmeisterei"/>
    <tag k="source" v="survey"/>
  </node>
  <node id="416063049" version="2" timestamp="2010-07-29T09:28:17Z" uid="74617" user="JohnSmith" changeset="5344848" lat="49.7906684" lon="8.6186385">
    <tag k="amenity" v="emergency_phone"/>
    <tag k="emergency" v="phone"/>
    <tag k="operator" v="Autobahnmeisterei"/>
    <tag k="source" v="survey"/>
  </node>
  <node id="416063051" version="2" timestamp="2010-07-29T09:16:27Z" uid="74617" user="JohnSmith" changeset="5344848" lat="49.8257038" lon="8.6327809">
    <tag k="amenity" v="emergency_phone"/>
    <tag k="emergency" v="phone"/>
    <tag k="operator" v="Autobahnmeisterei"/>
    <tag k="source" v="survey"/>
  </node>
  <node id="416063053" version="2" timestamp="2010-07-29T09:13:25Z" uid="74617" user="JohnSmith" changeset="5344848" lat="49.8258064" lon="8.6324311">
    <tag k="amenity" v="emergency_phone"/>
    <tag k="emergency" v="phone"/>
    <tag k="operator" v="Autobahnmeisterei"/>
    <tag k="source" v="survey"/>
  </node>
  <node id="416063057" version="2" timestamp="2010-07-29T09:39:29Z" uid="74617" user="JohnSmith" changeset="5344848" lat="49.8400696" lon="8.6294874">
    <tag k="amenity" v="emergency_phone"/>
    <tag k="emergency" v="phone"/>
    <tag k="operator" v="Autobahnmeisterei"/>
    <tag k="source" v="survey"/>
  </node>
  <node id="416063059" version="2" timestamp="2010-07-29T09:25:45Z" uid="74617" user="JohnSmith" changeset="5344848" lat="49.8397315" lon="8.6290992">
    <tag k="amenity" v="emergency_phone"/>
    <tag k="emergency" v="phone"/>
    <tag k="operator" v="Autobahnmeisterei"/>
    <tag k="source" v="survey"/>
  </node>
  <node id="416063059" version="3" timestamp="2012-03-23T04:54:04Z" uid="157286" user="SGiersch" changeset="11070277" lat="49.8397315" lon="8.6291718">
    <tag k="amenity" v="emergency_phone"/>
    <tag k="emergency" v="phone"/>
    <tag k="operator" v="Autobahnmeisterei"/>
    <tag k="source" v="survey"/>
  </node>
  <node id="416063585" version="1" timestamp="2009-06-05T19:33:29Z" uid="33382" user="de_muur" changeset="1432297" lat="53.0357987" lon="8.9706953"/>
  <node id="416063585" version="2" timestamp="2009-06-05T20:21:35Z" uid="33382" user="de_muur" changeset="1432816" lat="53.0357987" lon="8.9706953"/>
  <node id="416063586" version="1" timestamp="2009-06-05T19:33:29Z" uid="33382" user="de_muur" changeset="1432297" lat="53.0332404" lon="8.9659168"/>
  <node id="416063586" version="2" timestamp="2009-06-05T20:21:23Z" uid="33382" user="de_muur" changeset="1432816" lat="53.0332589" lon="8.965854"/>
  <node id="416063586" version="3" timestamp="2010-09-09T20:26:52Z" uid="45445" user="UScha" changeset="5736117" lat="53.0332716" lon="8.9658681"/>
  <node id="416063586" version="4" timestamp="2010-09-16T20:22:25Z" uid="45445" user="UScha" changeset="5798988" lat="53.0332602" lon="8.9659248"/>
  <node id="416063586" version="5" timestamp="2011-01-30T16:38:52Z" uid="33382" user="de_muur" changeset="7136208" lat="53.0332602" lon="8.9659248"/>
  <node id="416063587" version="1" timestamp="2009-06-05T19:33:29Z" uid="33382" user="de_muur" changeset="1432297" lat="53.0334522" lon="8.9663113"/>
  <node id="416063587" version="2" timestamp="2009-06-05T20:21:35Z" uid="33382" user="de_muur" changeset="1432816" lat="53.0334522" lon="8.9663113"/>
  <node id="416063588" version="1" timestamp="2009-06-05T19:33:29Z" uid="33382" user="de_muur" changeset="1432297" lat="53.0357987" lon="8.9706953"/>
  <node id="416063588" version="2" timestamp="2009-06-05T20:21:35Z" uid="33382" user="de_muur" changeset="1432816" lat="53.0357987" lon="8.9706953"/>
  <node id="416063714" version="2" timestamp="2010-07-29T09:14:14Z" uid="74617" user="JohnSmith" changeset="5344848" lat="49.8489173" lon="8.6111103">
    <tag k="amenity" v="emergency_phone"/>
    <tag k="emergency" v="phone"/>
    <tag k="operator" v="Autobahnmeisterei"/>
    <tag k="source" v="survey"/>
  </node>
  <node id="416063715" version="3" timestamp="2010-07-29T09:20:03Z" uid="74617" user="JohnSmith" changeset="5344848" lat="49.8505519" lon="8.6075632">
    <tag k="amenity" v="emergency_phone"/>
    <tag k="emergency" v="phone"/>
    <tag k="operator" v="Autobahnmeisterei"/>
    <tag k="source" v="survey"/>
  </node>
  <node id="416063716" version="2" timestamp="2010-07-29T09:10:23Z" uid="74617" user="JohnSmith" changeset="5344848" lat="49.859214" lon="8.5965906">
    <tag k="amenity" v="emergency_phone"/>
    <tag k="emergency" v="phone"/>
    <tag k="operator" v="Autobahnmeisterei"/>
    <tag k="source" v="survey"/>
  </node>
  <node id="416063717" version="2" timestamp="2010-07-29T09:16:52Z" uid="74617" user="JohnSmith" changeset="5344848" lat="49.8676155" lon="8.5892583">
    <tag k="amenity" v="emergency_phone"/>
    <tag k="emergency" v="phone"/>
    <tag k="operator" v="Autobahnmeisterei"/>
    <tag k="source" v="survey"/>
  </node>
  <node id="416063718" version="2" timestamp="2010-07-29T09:40:12Z" uid="74617" user="JohnSmith" changeset="5344848" lat="49.8684848" lon="8.586752">
    <tag k="amenity" v="emergency_phone"/>
    <tag k="emergency" v="phone"/>
    <tag k="operator" v="Autobahnmeisterei"/>
    <tag k="source" v="survey"/>
  </node>
  <node id="416063719" version="2" timestamp="2010-07-29T09:00:29Z" uid="74617" user="JohnSmith" changeset="5344848" lat="49.883908" lon="8.5591375">
    <tag k="amenity" v="emergency_phone"/>
    <tag k="emergency" v="phone"/>
    <tag k="operator" v="Autobahnmeisterei"/>
    <tag k="source" v="survey"/>
  </node>
  <node id="416063720" version="2" timestamp="2010-07-29T09:36:20Z" uid="74617" user="JohnSmith" changeset="5344848" lat="49.8841693" lon="8.55971">
    <tag k="amenity" v="emergency_phone"/>
    <tag k="emergency" v="phone"/>
    <tag k="operator" v="Autobahnmeisterei"/>
    <tag k="source" v="survey"/>
  </node>
  <node id="416063721" version="2" timestamp="2010-07-29T08:57:19Z" uid="74617" user="JohnSmith" changeset="5344848" lat="49.8416363" lon="8.5943198">
    <tag k="amenity" v="emergency_phone"/>
    <tag k="emergency" v="phone"/>
    <tag k="operator" v="Autobahnmeisterei"/>
    <tag k="source" v="survey"/>
  </node>
  <node id="416063722" version="2" timestamp="2010-07-29T09:23:29Z" uid="74617" user="JohnSmith" changeset="5344848" lat="49.8416122" lon="8.5948664">
    <tag k="amenity" v="emergency_phone"/>
    <tag k="emergency" v="phone"/>
    <tag k="operator" v="Autobahnmeisterei"/>
    <tag k="source" v="survey"/>
  </node>
  <node id="416063723" version="2" timestamp="2010-07-29T09:28:39Z" uid="74617" user="JohnSmith" changeset="5344848" lat="49.8247072" lon="8.5868133">
    <tag k="amenity" v="emergency_phone"/>
    <tag k="emergency" v="phone"/>
    <tag k="operator" v="Autobahnmeisterei"/>
    <tag k="source" v="survey"/>
  </node>
  <node id="416063724" version="2" timestamp="2010-07-29T09:19:37Z" uid="74617" user="JohnSmith" changeset="5344848" lat="49.8248675" lon="8.5862542">
    <tag k="amenity" v="emergency_phone"/>
    <tag k="emergency" v="phone"/>
    <tag k="operator" v="Autobahnmeisterei"/>
    <tag k="source" v="survey"/>
  </node>
  <node id="416063725" version="2" timestamp="2010-07-29T09:26:07Z" uid="74617" user="JohnSmith" changeset="5344848" lat="49.8133648" lon="8.5786626">
    <tag k="amenity" v="emergency_phone"/>
    <tag k="emergency" v="phone"/>
    <tag k="operator" v="Autobahnmeisterei"/>
    <tag k="source" v="survey"/>
  </node>
  <node id="416063726" version="2" timestamp="2010-07-29T09:04:36Z" uid="74617" user="JohnSmith" changeset="5344848" lat="49.8114869" lon="8.5778674">
    <tag k="amenity" v="emergency_phone"/>
    <tag k="emergency" v="phone"/>
    <tag k="operator" v="Autobahnmeisterei"/>
    <tag k="source" v="survey"/>
  </node>
  <node id="416063727" version="2" timestamp="2010-07-29T09:13:49Z" uid="74617" user="JohnSmith" changeset="5344848" lat="49.8018695" lon="8.5708296">
    <tag k="amenity" v="emergency_phone"/>
    <tag k="emergency" v="phone"/>
    <tag k="operator" v="Autobahnmeisterei"/>
    <tag k="source" v="survey"/>
  </node>
  <node id="416063728" version="2" timestamp="2010-07-29T09:00:10Z" uid="74617" user="JohnSmith" changeset="5344848" lat="49.8022595" lon="8.5716406">
    <tag k="amenity" v="emergency_phone"/>
    <tag k="emergency" v="phone"/>
    <tag k="operator" v="Autobahnmeisterei"/>
    <tag k="source" v="survey"/>
  </node>
  <node id="416063729" version="2" timestamp="2010-07-29T09:09:54Z" uid="74617" user="JohnSmith" changeset="5344848" lat="49.7934058" lon="8.56564">
    <tag k="amenity" v="emergency_phone"/>
    <tag k="emergency" v="phone"/>
    <tag k="operator" v="Autobahnmeisterei"/>
    <tag k="source" v="survey"/>
  </node>
  <node id="416063730" version="2" timestamp="2010-07-29T09:31:32Z" uid="74617" user="JohnSmith" changeset="5344848" lat="49.7935726" lon="8.5653021">
    <tag k="amenity" v="emergency_phone"/>
    <tag k="emergency" v="phone"/>
    <tag k="operator" v="Autobahnmeisterei"/>
    <tag k="source" v="survey"/>
  </node>
</osm>
