<?xml version='1.0' encoding='UTF-8'?>
<osm version="0.6" generator="libosmium/2.20.0">
  <node id="418390343" version="2" timestamp="2009-10-17T22:57:06Z" uid="36809" user="pfoten_weg_!_" changeset="2879001" lat="47.4903669" lon="11.1575332"/>
  <node id="418390343" version="3" timestamp="2010-12-10T14:07:31Z" uid="28519" user="Glücki" changeset="6605157" lat="47.4929991" lon="11.1542577"/>
  <node id="418390343" version="4" timestamp="2010-12-18T20:50:03Z" uid="15035" user="grungelborz" changeset="6700336" lat="47.4907756" lon="11.1572413"/>
  <node id="418390356" version="2" timestamp="2009-10-17T22:57:06Z" uid="36809" user="pfoten_weg_!_" changeset="2879001" lat="47.4898952" lon="11.1466129"/>
  <node id="418390356" version="3" timestamp="2010-12-10T14:07:15Z" uid="28519" user="Glücki" changeset="6605157" lat="47.4925274" lon="11.1433374"/>
  <node id="418390356" version="4" timestamp="2010-12-18T20:51:26Z" uid="15035" user="grungelborz" changeset="6700336" lat="47.4903039" lon="11.146321"/>
  <node id="418390357" version="2" timestamp="2009-10-17T22:57:05Z" uid="36809" user="pfoten_weg_!_" changeset="2879001" lat="47.4899017" lon="11.1470891"/>
  <node id="418390357" version="3" timestamp="2010-12-10T14:07:12Z" uid="28519" user="Glücki" changeset="6605157" lat="47.4925339" lon="11.1438136"/>
  <node id="418390357" version="4" timestamp="2010-12-18T20:50:11Z" uid="15035" user="grungelborz" changeset="6700336" lat="47.4903104" lon="11.1467972"/>
  <node id="418390359" version="2" timestamp="2009-10-17T22:57:05Z" uid="36809" user="pfoten_weg_!_" changeset="2879001" lat="47.4897113" lon="11.1479638"/>
  <node id="418390359" version="3" timestamp="2010-12-10T14:07:17Z" uid="28519" user="Glücki" changeset="6605157" lat="47.4923435" lon="11.1446883"/>
  <node id="418390359" version="4" timestamp="2010-12-18T20:50:29Z" uid="15035" user="grungelborz" changeset="6700336" lat="47.49012" lon="11.1476719"/>
  <node id="418390362" version="2" timestamp="2009-10-17T22:57:05Z" uid="36809" user="pfoten_weg_!_" changeset="2879001" lat="47.4896062" lon="11.1484788"/>
  <node id="418390362" version="3" timestamp="2010-12-10T14:07:24Z" uid="28519" user="Glücki" changeset="6605157" lat="47.4922384" lon="11.1452033"/>
  <node id="418390362" version="4" timestamp="2010-12-18T20:49:46Z" uid="15035" user="grungelborz" changeset="6700336" lat="47.4900149" lon="11.1481869"/>
  <node id="418391021" version="2" timestamp="2010-12-07T11:55:21Z" uid="115477" user="wowik" changeset="6573731" lat="55.1568217" lon="26.5879996"/>
  <node id="418391021" version="3" timestamp="2012-02-15T14:35:58Z" uid="60129" user="Tomas Straupis" changeset="10692627" lat="55.1568217" lon="26.5879996"/>
  <node id="418391022" version="2" timestamp="2010-12-07T11:55:17Z" uid="115477" user="wowik" changeset="6573731" lat="55.1562821" lon="26.5879686"/>
  <node id="418391022" version="3" timestamp="2012-02-15T14:35:59Z" uid="60129" user="Tomas Straupis" changeset="10692627" lat="55.1562821" lon="26.5879686"/>
  <node id="418392093" version="2" timestamp="2009-06-16T14:28:21Z" uid="20587" user="balrog-kun" changeset="1535626" lat="51.1129234" lon="17.0358586">
    <tag k="addr:postcode" v="50-001"/>
    <tag k="is_in" v="gmina Wrocław, powiat wrocław, województwo dolnośląskie, Poland"/>
    <tag k="is_in:county" v="powiat wrocław"/>
    <tag k="is_in:municipality" v="gmina Wrocław"/>
    <tag k="is_in:province" v="województwo dolnośląskie"/>
    <tag k="name" v="Wroclaw"/>
    <tag k="place" v="city"/>
    <tag k="population" v="631154"/>
    <tag k="source:population" v="wikipedia"/>
    <tag k="teryt:simc" v="0986283"/>
    <tag k="teryt:terc" v="0264011"/>
    <tag k="wikipedia" v="Wrocław"/>
  </node>
  <node id="418392093" version="3" timestamp="2009-08-25T08:45:59Z" uid="66419" user="Mariusz Adamski" changeset="2253839" lat="51.1129234" lon="17.0358586">
    <tag k="addr:postcode" v="50-001"/>
    <tag k="is_in" v="gmina Wrocław, powiat wrocław, województwo dolnośląskie, Poland"/>
    <tag k="is_in:county" v="powiat wrocław"/>
    <tag k="is_in:municipality" v="gmina Wrocław"/>
    <tag k="is_in:province" v="województwo dolnośląskie"/>
    <tag k="name" v="Wrocław"/>
    <tag k="place" v="city"/>
    <tag k="population" v="631154"/>
    <tag k="source:population" v="wikipedia"/>
    <tag k="teryt:simc" v="0986283"/>
    <tag k="teryt:terc" v="0264011"/>
    <tag k="wikipedia" v="Wrocław"/>
  </node>
  <node id="418392093" version="4" timestamp="2009-11-27T12:45:22Z" uid="166445" user="GranD" changeset="3227711" lat="51.1129235" lon="17.0358585">
    <tag k="addr:postcode" v="50-001"/>
    <tag k="is_in" v="gmina Wrocław, powiat wrocław, województwo dolnośląskie, Poland"/>
    <tag k="is_in:county" v="powiat wrocław"/>
    <tag k="is_in:municipality" v="gmina Wrocław"/>
    <tag k="is_in:province" v="województwo dolnośląskie"/>
    <tag k="name" v="Wrocław"/>
    <tag k="name:ru" v="Вроцлав"/>
    <tag k="place" v="city"/>
    <tag k="population" v="631154"/>
    <tag k="source:population" v="wikipedia"/>
    <tag k="teryt:simc" v="0986283"/>
    <tag k="teryt:terc" v="0264011"/>
    <tag k="wikipedia" v="Wrocław"/>
  </node>
  <node id="418392093" version="5" timestamp="2009-12-15T22:21:58Z" uid="42429" user="FK270673" changeset="3383433" lat="51.1129236" lon="17.0358584">
    <tag k="addr:postcode" v="50-001"/>
    <tag k="is_in" v="gmina Wrocław, powiat wrocław, województwo dolnośląskie, Poland"/>
    <tag k="is_in:county" v="powiat wrocław"/>
    <tag k="is_in:municipality" v="gmina Wrocław"/>
    <tag k="is_in:province" v="województwo dolnośląskie"/>
    <tag k="name" v="Wrocław"/>
    <tag k="name:ar" v="فروتزواف"/>
    <tag k="name:bg" v="Вроцлав"/>
    <tag k="name:cs" v="Vratislav"/>
    <tag k="name:de" v="Breslau"/>
    <tag k="name:eo" v="Vroclavo"/>
    <tag k="name:es" v="Breslavia"/>
    <tag k="name:hu" v="Boroszló"/>
    <tag k="name:it" v="Breslavia"/>
    <tag k="name:la" v="Vratislavia"/>
    <tag k="name:ru" v="Вроцлав"/>
    <tag k="name:sk" v="Vroclav"/>
    <tag k="name:sr" v="Вроцлав"/>
    <tag k="name:yi" v="ברעסלוי"/>
    <tag k="place" v="city"/>
    <tag k="population" v="631154"/>
    <tag k="source:population" v="wikipedia"/>
    <tag k="teryt:simc" v="0986283"/>
    <tag k="teryt:terc" v="0264011"/>
    <tag k="wikipedia" v="Wrocław"/>
  </node>
  <node id="418392093" version="6" timestamp="2010-04-11T04:47:20Z" uid="20587" user="balrog-kun" changeset="4389130" lat="51.1122376" lon="17.0344333">
    <tag k="addr:postcode" v="50-001"/>
    <tag k="is_in" v="gmina Wrocław, powiat wrocław, województwo dolnośląskie, Poland"/>
    <tag k="is_in:county" v="powiat wrocław"/>
    <tag k="is_in:municipality" v="gmina Wrocław"/>
    <tag k="is_in:province" v="województwo dolnośląskie"/>
    <tag k="name" v="Wrocław"/>
    <tag k="name:ar" v="فروتزواف"/>
    <tag k="name:bg" v="Вроцлав"/>
    <tag k="name:cs" v="Vratislav"/>
    <tag k="name:de" v="Breslau"/>
    <tag k="name:eo" v="Vroclavo"/>
    <tag k="name:es" v="Breslavia"/>
    <tag k="name:hu" v="Boroszló"/>
    <tag k="name:it" v="Breslavia"/>
    <tag k="name:la" v="Vratislavia"/>
    <tag k="name:ru" v="Вроцлав"/>
    <tag k="name:sk" v="Vroclav"/>
    <tag k="name:sr" v="Вроцлав"/>
    <tag k="name:yi" v="ברעסלוי"/>
    <tag k="place" v="city"/>
    <tag k="population" v="631154"/>
    <tag k="source:population" v="wikipedia"/>
    <tag k="teryt:simc" v="0986283"/>
    <tag k="teryt:terc" v="0264011"/>
    <tag k="wikipedia" v="Wrocław"/>
  </node>
  <node id="418392093" version="7" timestamp="2012-03-08T14:47:47Z" uid="7045" user="Xuacu" changeset="10909736" lat="51.1122376" lon="17.0344333">
    <tag k="addr:postcode" v="50-001"/>
    <tag k="is_in" v="gmina Wrocław, powiat wrocław, województwo dolnośląskie, Poland"/>
    <tag k="is_in:county" v="powiat wrocław"/>
    <tag k="is_in:municipality" v="gmina Wrocław"/>
    <tag k="is_in:province" v="województwo dolnośląskie"/>
    <tag k="name" v="Wrocław"/>
    <tag k="name:ar" v="فروتزواف"/>
    <tag k="name:ast" v="Wroclaw"/>
    <tag k="name:bg" v="Вроцлав"/>
    <tag k="name:cs" v="Vratislav"/>
    <tag k="name:de" v="Breslau"/>
    <tag k="name:eo" v="Vroclavo"/>
    <tag k="name:es" v="Breslavia"/>
    <tag k="name:hu" v="Boroszló"/>
    <tag k="name:it" v="Breslavia"/>
    <tag k="name:la" v="Vratislavia"/>
    <tag k="name:ru" v="Вроцлав"/>
    <tag k="name:sk" v="Vroclav"/>
    <tag k="name:sr" v="Вроцлав"/>
    <tag k="name:yi" v="ברעסלוי"/>
    <tag k="place" v="city"/>
    <tag k="population" v="631154"/>
    <tag k="source:population" v="wikipedia"/>
    <tag k="teryt:simc" v="0986283"/>
    <tag k="teryt:terc" v="0264011"/>
    <tag k="wikipedia" v="Wrocław"/>
  </node>
  <node id="418395967" version="2" timestamp="2009-12-25T13:31:16Z" uid="58091" user="Andreas M" changeset="3448148" lat="48.2757083" lon="16.4008917"/>
  <node id="418395976" version="2" timestamp="2009-12-25T13:31:16Z" uid="58091" user="Andreas M" changeset="3448148" lat="48.2759939" lon="16.4010033"/>
  <node id="418395986" version="2" timestamp="2009-12-25T13:31:16Z" uid="58091" user="Andreas M" changeset="3448148" lat="48.2759711" lon="16.4011836"/>
  <node id="418395990" version="2" timestamp="2009-12-25T13:31:16Z" uid="58091" user="Andreas M" changeset="3448148" lat="48.2760453" lon="16.4012522"/>
  <node id="418395993" version="2" timestamp="2009-12-25T13:31:16Z" uid="58091" user="Andreas M" changeset="3448148" lat="48.2760339" lon="16.4013724"/>
  <node id="418395997" version="2" timestamp="2009-12-25T13:31:16Z" uid="58091" user="Andreas M" changeset="3448148" lat="48.2761139" lon="16.4015011"/>
  <node id="418396000" version="2" timestamp="2009-12-25T13:31:17Z" uid="58091" user="Andreas M" changeset="3448148" lat="48.2761367" lon="16.4016385"/>
  <node id="418396004" version="2" timestamp="2009-12-25T13:31:17Z" uid="58091" user="Andreas M" changeset="3448148" lat="48.2761196" lon="16.4017672"/>
  <node id="418396008" version="2" timestamp="2009-12-25T13:31:17Z" uid="58091" user="Andreas M" changeset="3448148" lat="48.2762567" lon="16.4018445"/>
  <node id="418396509" version="1" timestamp="2009-06-10T19:26:10Z" uid="9581" user="Lobelt" changeset="1481001" lat="51.4899851" lon="13.9404268"/>
  <node id="418396511" version="1" timestamp="2009-06-10T19:26:10Z" uid="9581" user="Lobelt" changeset="1481001" lat="51.4910635" lon="13.9415889"/>
  <node id="418396513" version="1" timestamp="2009-06-10T19:26:10Z" uid="9581" user="Lobelt" changeset="1481001" lat="51.491211" lon="13.9416481"/>
  <node id="418396513" version="2" timestamp="2012-01-16T14:02:57Z" uid="358948" user="Lutze64" changeset="10408536" lat="51.4912246" lon="13.9416259"/>
  <node id="418396516" version="1" timestamp="2009-06-10T19:26:10Z" uid="9581" user="Lobelt" changeset="1481001" lat="51.4915474" lon="13.941315"/>
  <node id="418396516" version="2" timestamp="2012-01-16T14:02:57Z" uid="358948" user="Lutze64" changeset="10408536" lat="51.4915408" lon="13.9412987"/>
  <node id="418396518" version="1" timestamp="2009-06-10T19:26:10Z" uid="9581" user="Lobelt" changeset="1481001" lat="51.4915474" lon="13.9410041"/>
  <node id="418396520" version="1" timestamp="2009-06-10T19:26:10Z" uid="9581" user="Lobelt" changeset="1481001" lat="51.4913631" lon="13.9407969"/>
  <node id="418396522" version="1" timestamp="2009-06-10T19:26:10Z" uid="9581" user="Lobelt" changeset="1481001" lat="51.4910036" lon="13.9405896"/>
  <node id="418396523" version="1" timestamp="2009-06-10T19:26:10Z" uid="9581" user="Lobelt" changeset="1481001" lat="51.4900588" lon="13.9395978"/>
  <node id="418396525" version="1" timestamp="2009-06-10T19:26:11Z" uid="9581" user="Lobelt" changeset="1481001" lat="51.489432" lon="13.9387318"/>
  <node id="418396527" version="1" timestamp="2009-06-10T19:26:11Z" uid="9581" user="Lobelt" changeset="1481001" lat="51.4887683" lon="13.9374068"/>
  <node id="418396530" version="1" timestamp="2009-06-10T19:26:11Z" uid="9581" user="Lobelt" changeset="1481001" lat="51.4874271" lon="13.9342611"/>
</osm>
