<?xml version='1.0' encoding='UTF-8'?>
<osm version="0.6" generator="libosmium/2.20.0">
  <node id="418537225" version="4" timestamp="2010-05-23T03:05:13Z" uid="4467" user="Rosscoe" changeset="4779732" lat="-37.8206517" lon="144.984819">
    <tag k="man_made" v="tower"/>
    <tag k="ref" v="4"/>
    <tag k="tower:type" v="light"/>
  </node>
  <node id="418537225" version="5" timestamp="2011-12-27T21:53:29Z" uid="18776" user="Max Vasilev" changeset="10220352" lat="-37.8206517" lon="144.984819"/>
  <node id="418537251" version="3" timestamp="2009-07-05T13:42:53Z" uid="74617" user="JohnSmith" changeset="1739461" lat="-37.8186868" lon="144.9835534">
    <tag k="man_made" v="tower"/>
    <tag k="ref" v="2"/>
    <tag k="tower:type" v="light"/>
  </node>
  <node id="418537251" version="4" timestamp="2009-11-30T02:20:41Z" uid="11111" user="lakeyboy" changeset="3252380" lat="-37.8187267" lon="144.9835204">
    <tag k="man_made" v="tower"/>
    <tag k="ref" v="2"/>
    <tag k="tower:type" v="light"/>
  </node>
  <node id="418537251" version="5" timestamp="2011-12-27T22:01:19Z" uid="18776" user="Max Vasilev" changeset="10220426" lat="-37.8187267" lon="144.9835204">
    <tag k="man_made" v="tower"/>
    <tag k="ref" v="2"/>
    <tag k="tower:type" v="lighting"/>
  </node>
  <node id="418537531" version="3" timestamp="2009-07-05T13:42:53Z" uid="74617" user="JohnSmith" changeset="1739461" lat="-37.8192225" lon="144.9821287">
    <tag k="man_made" v="tower"/>
    <tag k="ref" v="1"/>
    <tag k="tower:type" v="light"/>
  </node>
  <node id="418537531" version="4" timestamp="2011-12-27T21:53:29Z" uid="18776" user="Max Vasilev" changeset="10220352" lat="-37.8192225" lon="144.9821287"/>
  <node id="418537740" version="4" timestamp="2010-05-23T03:05:12Z" uid="4467" user="Rosscoe" changeset="4779732" lat="-37.8194238" lon="144.984907">
    <tag k="man_made" v="tower"/>
    <tag k="ref" v="3"/>
    <tag k="tower:type" v="light"/>
  </node>
  <node id="418537740" version="5" timestamp="2011-12-27T21:53:29Z" uid="18776" user="Max Vasilev" changeset="10220352" lat="-37.8194238" lon="144.984907"/>
  <node id="418537978" version="3" timestamp="2009-07-05T13:42:53Z" uid="74617" user="JohnSmith" changeset="1739461" lat="-37.8211819" lon="144.9833818">
    <tag k="man_made" v="tower"/>
    <tag k="ref" v="5"/>
    <tag k="tower:type" v="light"/>
  </node>
  <node id="418537978" version="4" timestamp="2009-11-30T02:22:26Z" uid="11111" user="lakeyboy" changeset="3252380" lat="-37.8211919" lon="144.9833984">
    <tag k="man_made" v="tower"/>
    <tag k="ref" v="5"/>
    <tag k="tower:type" v="light"/>
  </node>
  <node id="418537978" version="5" timestamp="2011-12-27T22:01:19Z" uid="18776" user="Max Vasilev" changeset="10220426" lat="-37.8211919" lon="144.9833984">
    <tag k="man_made" v="tower"/>
    <tag k="ref" v="5"/>
    <tag k="tower:type" v="lighting"/>
  </node>
  <node id="418538160" version="3" timestamp="2009-07-05T13:42:53Z" uid="74617" user="JohnSmith" changeset="1739461" lat="-37.8204768" lon="144.9819742">
    <tag k="man_made" v="tower"/>
    <tag k="ref" v="6"/>
    <tag k="tower:type" v="light"/>
  </node>
  <node id="418538160" version="4" timestamp="2009-11-30T01:49:24Z" uid="11111" user="lakeyboy" changeset="3252380" lat="-37.8204483" lon="144.9820345">
    <tag k="man_made" v="tower"/>
    <tag k="ref" v="6"/>
    <tag k="tower:type" v="light"/>
  </node>
  <node id="418538160" version="5" timestamp="2011-12-27T22:01:19Z" uid="18776" user="Max Vasilev" changeset="10220426" lat="-37.8204483" lon="144.9820345">
    <tag k="man_made" v="tower"/>
    <tag k="ref" v="6"/>
    <tag k="tower:type" v="lighting"/>
  </node>
  <node id="418539889" version="3" timestamp="2010-08-17T03:07:03Z" uid="4467" user="Rosscoe" changeset="5514237" lat="-37.8214212" lon="144.9891997">
    <tag k="highway" v="traffic_signals"/>
  </node>
  <node id="418539889" version="4" timestamp="2011-09-25T14:08:51Z" uid="11111" user="melb_guy" changeset="9392627" lat="-37.8214134" lon="144.989222">
    <tag k="highway" v="traffic_signals"/>
  </node>
  <node id="418539890" version="2" timestamp="2010-08-17T03:07:17Z" uid="4467" user="Rosscoe" changeset="5514237" lat="-37.8214397" lon="144.9893795">
    <tag k="highway" v="traffic_signals"/>
  </node>
  <node id="418539890" version="3" timestamp="2011-09-25T14:08:51Z" uid="11111" user="melb_guy" changeset="9392627" lat="-37.8214326" lon="144.9893944">
    <tag k="highway" v="traffic_signals"/>
  </node>
  <node id="418539962" version="3" timestamp="2010-08-17T03:05:06Z" uid="4467" user="Rosscoe" changeset="5514237" lat="-37.8233898" lon="144.9889272"/>
  <node id="418539963" version="4" timestamp="2010-08-17T03:08:09Z" uid="4467" user="Rosscoe" changeset="5514237" lat="-37.8232204" lon="144.9888452"/>
  <node id="418539965" version="2" timestamp="2010-08-17T03:08:38Z" uid="4467" user="Rosscoe" changeset="5514237" lat="-37.8213785" lon="144.9890809"/>
  <node id="418539966" version="2" timestamp="2010-08-17T03:08:41Z" uid="4467" user="Rosscoe" changeset="5514237" lat="-37.821426" lon="144.9891668"/>
  <node id="418539967" version="2" timestamp="2010-08-17T03:05:21Z" uid="4467" user="Rosscoe" changeset="5514237" lat="-37.8212923" lon="144.9887832"/>
</osm>
