<?xml version='1.0' encoding='UTF-8'?>
<osm version="0.6" generator="libosmium/2.20.0">
  <node id="420070835" version="2" timestamp="2009-08-05T13:06:33Z" uid="4467" user="Rosscoe" changeset="2046108" lat="-32.9090291" lon="151.7054066"/>
  <node id="420070836" version="2" timestamp="2009-08-05T13:06:29Z" uid="4467" user="Rosscoe" changeset="2046108" lat="-32.9093703" lon="151.7078532"/>
  <node id="420070836" version="3" timestamp="2009-08-19T16:36:42Z" uid="83382" user="c-j-b" changeset="2203135" lat="-32.9093717" lon="151.7078606"/>
  <node id="420070837" version="2" timestamp="2009-08-05T12:56:18Z" uid="4467" user="Rosscoe" changeset="2046023" lat="-32.9096084" lon="151.7096353">
    <tag k="highway" v="traffic_signals"/>
  </node>
  <node id="420070837" version="3" timestamp="2009-08-05T13:06:29Z" uid="4467" user="Rosscoe" changeset="2046108" lat="-32.9096117" lon="151.7096529">
    <tag k="highway" v="traffic_signals"/>
  </node>
  <node id="420070837" version="4" timestamp="2009-08-19T16:36:48Z" uid="83382" user="c-j-b" changeset="2203135" lat="-32.9096117" lon="151.7096529">
    <tag k="highway" v="traffic_signals"/>
  </node>
  <node id="420070837" version="5" timestamp="2009-08-20T08:43:04Z" uid="83382" user="c-j-b" changeset="2209532" lat="-32.9096123" lon="151.7096556">
    <tag k="highway" v="traffic_signals"/>
  </node>
  <node id="420070845" version="2" timestamp="2009-08-05T13:06:28Z" uid="4467" user="Rosscoe" changeset="2046108" lat="-32.9124065" lon="151.7137147"/>
  <node id="420070846" version="2" timestamp="2009-08-05T13:06:28Z" uid="4467" user="Rosscoe" changeset="2046108" lat="-32.9125365" lon="151.7144395"/>
  <node id="420070847" version="2" timestamp="2009-08-05T13:06:28Z" uid="4467" user="Rosscoe" changeset="2046108" lat="-32.9127239" lon="151.7138967"/>
  <node id="420070855" version="2" timestamp="2010-06-09T08:30:38Z" uid="4467" user="Rosscoe" changeset="4943269" lat="-32.9178579" lon="151.7247575">
    <tag k="highway" v="bus_stop"/>
  </node>
  <node id="420070856" version="2" timestamp="2010-06-09T08:31:17Z" uid="4467" user="Rosscoe" changeset="4943269" lat="-32.9181024" lon="151.7246735">
    <tag k="amenity" v="telephone"/>
    <tag k="operator" v="Telstra"/>
  </node>
  <node id="420070857" version="2" timestamp="2010-06-09T08:54:55Z" uid="4467" user="Rosscoe" changeset="4943478" lat="-32.9203738" lon="151.723684">
    <tag k="highway" v="bus_stop"/>
  </node>
  <node id="420070858" version="2" timestamp="2010-06-07T14:38:01Z" uid="4467" user="Rosscoe" changeset="4928753" lat="-32.9233709" lon="151.7227898"/>
  <node id="420070859" version="2" timestamp="2010-06-07T14:38:20Z" uid="4467" user="Rosscoe" changeset="4928753" lat="-32.923837" lon="151.7227047"/>
  <node id="420070864" version="2" timestamp="2010-06-07T14:38:26Z" uid="4467" user="Rosscoe" changeset="4928753" lat="-32.923828" lon="151.72263"/>
  <node id="420070969" version="2" timestamp="2010-02-11T17:16:20Z" uid="171838" user="argrath" changeset="3850077" lat="34.8902178" lon="135.6852745"/>
  <node id="420070969" version="3" timestamp="2011-10-24T07:41:15Z" uid="355481" user="chnkshm" changeset="9640882" lat="34.8902178" lon="135.6852745"/>
  <node id="420071784" version="2" timestamp="2010-02-20T02:52:15Z" uid="7617" user="Franc" changeset="3920360" lat="-33.5241883" lon="150.9388674">
    <tag k="power" v="tower"/>
  </node>
  <node id="420073117" version="2" timestamp="2009-11-12T01:48:43Z" uid="36809" user="pfoten_weg_!_" changeset="3095145" lat="48.2514733" lon="11.9954714">
    <tag k="power" v="tower"/>
    <tag k="ref" v="A57"/>
  </node>
  <node id="420073120" version="2" timestamp="2009-11-12T01:48:42Z" uid="36809" user="pfoten_weg_!_" changeset="3095145" lat="48.2510981" lon="11.9881748">
    <tag k="power" v="tower"/>
    <tag k="ref" v="A55"/>
  </node>
  <node id="420073121" version="2" timestamp="2009-11-12T01:48:39Z" uid="36809" user="pfoten_weg_!_" changeset="3095145" lat="48.2473959" lon="11.960943">
    <tag k="power" v="tower"/>
    <tag k="ref" v="A47"/>
  </node>
  <node id="420073122" version="2" timestamp="2009-11-12T01:48:40Z" uid="36809" user="pfoten_weg_!_" changeset="3095145" lat="48.2478775" lon="11.9644349">
    <tag k="power" v="tower"/>
    <tag k="ref" v="A48"/>
  </node>
  <node id="420073123" version="2" timestamp="2009-11-12T01:48:30Z" uid="36809" user="pfoten_weg_!_" changeset="3095145" lat="48.2460669" lon="11.9482308">
    <tag k="power" v="tower"/>
    <tag k="ref" v="A43"/>
  </node>
  <node id="420073124" version="2" timestamp="2009-11-12T01:48:31Z" uid="36809" user="pfoten_weg_!_" changeset="3095145" lat="48.2463507" lon="11.951304">
    <tag k="power" v="tower"/>
    <tag k="ref" v="A44"/>
  </node>
  <node id="420073125" version="2" timestamp="2009-11-12T01:48:38Z" uid="36809" user="pfoten_weg_!_" changeset="3095145" lat="48.2466325" lon="11.9543776">
    <tag k="power" v="tower"/>
    <tag k="ref" v="A45"/>
  </node>
  <node id="420073136" version="2" timestamp="2009-11-12T01:48:27Z" uid="36809" user="pfoten_weg_!_" changeset="3095145" lat="48.2454881" lon="11.9418107">
    <tag k="power" v="tower"/>
    <tag k="ref" v="A41"/>
  </node>
  <node id="420073137" version="2" timestamp="2009-11-12T01:48:30Z" uid="36809" user="pfoten_weg_!_" changeset="3095145" lat="48.2458473" lon="11.945774">
    <tag k="power" v="tower"/>
    <tag k="ref" v="A42"/>
  </node>
  <node id="420073138" version="2" timestamp="2009-11-12T01:48:24Z" uid="36809" user="pfoten_weg_!_" changeset="3095145" lat="48.243437" lon="11.9193993">
    <tag k="power" v="tower"/>
    <tag k="ref" v="A35"/>
  </node>
  <node id="420073139" version="2" timestamp="2009-11-12T01:48:25Z" uid="36809" user="pfoten_weg_!_" changeset="3095145" lat="48.2437789" lon="11.9231345">
    <tag k="power" v="tower"/>
    <tag k="ref" v="A36"/>
  </node>
  <node id="420073140" version="2" timestamp="2009-11-12T01:48:25Z" uid="36809" user="pfoten_weg_!_" changeset="3095145" lat="48.2441207" lon="11.9268698">
    <tag k="power" v="tower"/>
    <tag k="ref" v="A37"/>
  </node>
  <node id="420073141" version="2" timestamp="2009-11-12T01:48:25Z" uid="36809" user="pfoten_weg_!_" changeset="3095145" lat="48.2444626" lon="11.930605">
    <tag k="power" v="tower"/>
    <tag k="ref" v="A38"/>
  </node>
  <node id="420073142" version="2" timestamp="2009-11-12T01:48:27Z" uid="36809" user="pfoten_weg_!_" changeset="3095145" lat="48.2448044" lon="11.9343402">
    <tag k="power" v="tower"/>
    <tag k="ref" v="A39"/>
  </node>
  <node id="420073143" version="2" timestamp="2009-11-12T01:48:28Z" uid="36809" user="pfoten_weg_!_" changeset="3095145" lat="48.2451463" lon="11.9380755">
    <tag k="power" v="tower"/>
    <tag k="ref" v="A40"/>
  </node>
  <node id="420073158" version="2" timestamp="2009-11-12T01:48:24Z" uid="36809" user="pfoten_weg_!_" changeset="3095145" lat="48.2426392" lon="11.9116926">
    <tag k="power" v="tower"/>
    <tag k="ref" v="A33"/>
  </node>
  <node id="420073191" version="2" timestamp="2010-01-31T22:53:35Z" uid="20587" user="balrog-kun" changeset="3764164" lat="40.4124802" lon="-3.6927549">
    <tag k="highway" v="traffic_signals"/>
    <tag k="traffic_signals:sound" v="yes"/>
  </node>
  <node id="420073191" version="3" timestamp="2010-11-16T19:47:10Z" uid="220932" user="mor" changeset="6387758" lat="40.4124773" lon="-3.692802">
    <tag k="highway" v="traffic_signals"/>
    <tag k="traffic_signals:sound" v="yes"/>
  </node>
  <node id="420073191" version="4" timestamp="2011-08-28T15:52:06Z" uid="33103" user="sergionaranja" changeset="9148487" lat="40.4125022" lon="-3.6928699"/>
  <node id="420075796" version="1" timestamp="2009-06-14T08:15:37Z" uid="7617" user="Franc" changeset="1511453" lat="-33.8576482" lon="151.0393431"/>
  <node id="420075797" version="1" timestamp="2009-06-14T08:15:37Z" uid="7617" user="Franc" changeset="1511453" lat="-33.8604897" lon="151.0428668"/>
  <node id="420075798" version="1" timestamp="2009-06-14T08:15:37Z" uid="7617" user="Franc" changeset="1511453" lat="-33.8591424" lon="151.0608331"/>
  <node id="420075799" version="1" timestamp="2009-06-14T08:15:37Z" uid="7617" user="Franc" changeset="1511453" lat="-33.85849" lon="151.0592431"/>
  <node id="420075800" version="1" timestamp="2009-06-14T08:15:37Z" uid="7617" user="Franc" changeset="1511453" lat="-33.8635526" lon="151.0420664">
    <tag k="highway" v="turning_circle"/>
  </node>
  <node id="420075801" version="1" timestamp="2009-06-14T08:15:37Z" uid="7617" user="Franc" changeset="1511453" lat="-33.8648465" lon="151.0421708">
    <tag k="McCafe" v="yes"/>
    <tag k="amenity" v="fast_food"/>
    <tag k="drive_thru" v="yes"/>
    <tag k="name" v="McDonalds"/>
  </node>
  <node id="420075801" version="2" timestamp="2010-06-23T20:03:01Z" uid="5359" user="user_5359" changeset="5061563" lat="-33.8648465" lon="151.0421708">
    <tag k="McCafe" v="yes"/>
    <tag k="amenity" v="fast_food"/>
    <tag k="drive_through" v="yes"/>
    <tag k="name" v="McDonalds"/>
  </node>
  <node id="420075801" version="3" timestamp="2010-08-06T16:50:15Z" uid="207745" user="NE2" changeset="5418228" lat="-33.8648465" lon="151.0421708">
    <tag k="McCafe" v="yes"/>
    <tag k="amenity" v="fast_food"/>
    <tag k="cuisine" v="burger"/>
    <tag k="drive_through" v="yes"/>
    <tag k="name" v="McDonald&apos;s"/>
  </node>
  <node id="420075801" version="4" timestamp="2011-03-04T13:16:33Z" uid="236412" user="dcs" changeset="7454334" lat="-33.8648465" lon="151.0421708">
    <tag k="McCafe" v="yes"/>
    <tag k="amenity" v="fast_food"/>
    <tag k="cuisine" v="burger"/>
    <tag k="drive_thru" v="yes"/>
    <tag k="name" v="McDonald&apos;s"/>
  </node>
  <node id="420075801" version="5" timestamp="2011-03-04T14:43:27Z" uid="236412" user="dcs" changeset="7454914" lat="-33.8648465" lon="151.0421708">
    <tag k="McCafe" v="yes"/>
    <tag k="amenity" v="fast_food"/>
    <tag k="cuisine" v="burger"/>
    <tag k="drive_through" v="yes"/>
    <tag k="name" v="McDonald&apos;s"/>
  </node>
  <node id="420075801" version="6" timestamp="2011-05-12T07:48:10Z" uid="49351" user="Dieter Schmeer" changeset="8119337" lat="-33.8648465" lon="151.0421708">
    <tag k="amenity" v="fast_food"/>
    <tag k="cuisine" v="burger"/>
    <tag k="drive_through" v="yes"/>
    <tag k="name" v="McDonald&apos;s"/>
  </node>
  <node id="420075801" version="7" timestamp="2012-03-13T00:06:01Z" uid="7523" user="inas" changeset="10962064" lat="-33.8648465" lon="151.0421708"/>
  <node id="420076623" version="2" timestamp="2010-05-02T02:09:41Z" uid="4467" user="Rosscoe" changeset="4580853" lat="-38.3285448" lon="143.0773519"/>
  <node id="420076624" version="3" timestamp="2010-05-02T02:09:40Z" uid="4467" user="Rosscoe" changeset="4580853" lat="-38.328539" lon="143.0772975">
    <tag k="direction" v="clockwise"/>
    <tag k="highway" v="mini_roundabout"/>
  </node>
  <node id="420076628" version="4" timestamp="2010-05-02T02:09:40Z" uid="4467" user="Rosscoe" changeset="4580853" lat="-38.3218457" lon="143.0785152">
    <tag k="direction" v="clockwise"/>
    <tag k="highway" v="mini_roundabout"/>
  </node>
  <node id="420078014" version="2" timestamp="2009-12-14T19:43:38Z" uid="74617" user="JohnSmith" changeset="3374481" lat="-34.053467" lon="150.6994567">
    <tag k="amenity" v="fuel"/>
    <tag k="operator" v="Mobil"/>
    <tag k="source" v="survey"/>
  </node>
  <node id="420078047" version="2" timestamp="2009-12-15T10:06:30Z" uid="74617" user="JohnSmith" changeset="3378072" lat="-34.0417898" lon="150.7308935">
    <tag k="amenity" v="fuel"/>
    <tag k="name" v="BP"/>
    <tag k="source" v="survey"/>
  </node>
  <node id="420078051" version="2" timestamp="2009-12-14T17:06:24Z" uid="74617" user="JohnSmith" changeset="3373323" lat="-34.0411164" lon="150.7326933">
    <tag k="amenity" v="fuel"/>
    <tag k="operator" v="Shell"/>
    <tag k="source" v="survey"/>
  </node>
  <node id="420078051" version="3" timestamp="2010-01-06T12:21:59Z" uid="203324" user="firefly2560" changeset="3552997" lat="-34.0413005" lon="150.7326139">
    <tag k="amenity" v="fuel"/>
    <tag k="operator" v="Shell"/>
    <tag k="source" v="survey"/>
  </node>
  <node id="420078051" version="4" timestamp="2010-01-14T11:52:22Z" uid="203324" user="firefly2560" changeset="3616396" lat="-34.0413005" lon="150.7326139">
    <tag k="amenity" v="fuel"/>
    <tag k="name" v="Shell Coles Express Narellan"/>
    <tag k="operator" v="Shell"/>
    <tag k="source" v="survey"/>
  </node>
  <node id="420078051" version="5" timestamp="2010-02-14T05:54:25Z" uid="7617" user="Franc" changeset="3870566" lat="-34.0413005" lon="150.7326139">
    <tag k="amenity" v="fuel"/>
    <tag k="name" v="Shell Coles Express Narellan"/>
    <tag k="operator" v="Shell"/>
    <tag k="source" v="survey"/>
  </node>
  <node id="420078055" version="2" timestamp="2010-02-14T05:54:25Z" uid="7617" user="Franc" changeset="3870566" lat="-34.0406733" lon="150.7365704">
    <tag k="amenity" v="fuel"/>
    <tag k="name" v="Caltex"/>
    <tag k="source" v="survey"/>
  </node>
  <node id="420078438" version="2" timestamp="2010-02-15T05:28:56Z" uid="30201" user="rrankin" changeset="3880285" lat="-33.6089004" lon="150.8497781"/>
  <node id="420078439" version="2" timestamp="2011-06-04T22:35:36Z" uid="7617" user="Franc" changeset="8343911" lat="-33.6125859" lon="150.8063444"/>
  <node id="420078510" version="2" timestamp="2010-05-10T07:20:26Z" uid="4467" user="Rosscoe" changeset="4656484" lat="-37.7896798" lon="145.232278"/>
  <node id="420078510" version="3" timestamp="2010-05-10T07:21:07Z" uid="4467" user="Rosscoe" changeset="4656489" lat="-37.7896798" lon="145.232278"/>
  <node id="420078514" version="2" timestamp="2009-12-14T19:51:59Z" uid="74617" user="JohnSmith" changeset="3374540" lat="-27.6175701" lon="153.0937582">
    <tag k="amenity" v="fuel"/>
    <tag k="name" v="BP Acacia Ridge"/>
    <tag k="operator" v="bp"/>
  </node>
  <node id="420078520" version="2" timestamp="2011-02-13T16:11:55Z" uid="4467" user="Rosscoe" changeset="7277001" lat="-27.6175704" lon="153.0949511"/>
</osm>
