<?xml version='1.0' encoding='UTF-8'?>
<osm version="0.6" generator="libosmium/2.20.0">
  <node id="420084369" version="1" timestamp="2009-06-14T08:51:08Z" uid="120682" user="krzysieq" changeset="1511728" lat="50.90147" lon="18.93581">
    <tag k="name" v="Kłobuck"/>
    <tag k="place" v="village"/>
    <tag k="source" v="http://ump.waw.pl/ retrieved 13:12:27 06/10/09 (UMP-Opole/src/cities-Opole.pnt-converted.txt)"/>
  </node>
  <node id="420084369" version="2" timestamp="2009-06-14T09:07:36Z" uid="120682" user="krzysieq" changeset="1511874" lat="50.90147" lon="18.93581">
    <tag k="addr:postcode" v="42-100"/>
    <tag k="is_in" v="gmina Kłobuck, powiat kłobucki, województwo śląskie, Poland"/>
    <tag k="is_in:country" v="Poland"/>
    <tag k="is_in:county" v="powiat kłobucki"/>
    <tag k="is_in:municipality" v="gmina Kłobuck"/>
    <tag k="is_in:province" v="województwo śląskie"/>
    <tag k="name" v="Kłobuck"/>
    <tag k="place" v="city"/>
    <tag k="population" v="13 200"/>
    <tag k="source:population" v="wikipedia"/>
    <tag k="teryt:rm" v="96"/>
    <tag k="wikipedia" v="Kłobuck"/>
  </node>
  <node id="420084369" version="3" timestamp="2009-06-14T09:48:58Z" uid="120682" user="krzysieq" changeset="1512201" lat="50.90147" lon="18.93581">
    <tag k="addr:postcode" v="42-100"/>
    <tag k="is_in" v="gmina Kłobuck, powiat kłobucki, województwo śląskie, Poland"/>
    <tag k="is_in:country" v="Poland"/>
    <tag k="is_in:county" v="powiat kłobucki"/>
    <tag k="is_in:municipality" v="gmina Kłobuck"/>
    <tag k="is_in:province" v="województwo śląskie"/>
    <tag k="name" v="Kłobuck"/>
    <tag k="place" v="city"/>
    <tag k="population" v="13 200"/>
    <tag k="source:population" v="wikipedia"/>
    <tag k="teryt:rm" v="96"/>
    <tag k="teryt:simc" v="2406014"/>
    <tag k="teryt:stan_na" v="2009-06-13"/>
    <tag k="wikipedia" v="Kłobuck"/>
  </node>
  <node id="420084369" version="4" timestamp="2009-06-16T14:36:14Z" uid="20587" user="balrog-kun" changeset="1535698" lat="50.90147" lon="18.93581">
    <tag k="addr:postcode" v="42-100"/>
    <tag k="is_in" v="gmina Kłobuck, powiat kłobucki, województwo śląskie, Poland"/>
    <tag k="is_in:country" v="Poland"/>
    <tag k="is_in:county" v="powiat kłobucki"/>
    <tag k="is_in:municipality" v="gmina Kłobuck"/>
    <tag k="is_in:province" v="województwo śląskie"/>
    <tag k="name" v="Kłobuck"/>
    <tag k="place" v="city"/>
    <tag k="population" v="13"/>
    <tag k="source:population" v="wikipedia"/>
    <tag k="teryt:rm" v="96"/>
    <tag k="teryt:simc" v="2406014"/>
    <tag k="teryt:stan_na" v="2009-06-13"/>
    <tag k="teryt:terc" v="2406014"/>
    <tag k="wikipedia" v="Kłobuck"/>
  </node>
  <node id="420084369" version="5" timestamp="2009-09-23T18:46:42Z" uid="120682" user="krzysieq" changeset="2598874" lat="50.9014752" lon="18.9358082">
    <tag k="addr:postcode" v="42-100"/>
    <tag k="is_in" v="gmina Kłobuck, powiat kłobucki, województwo śląskie, Poland"/>
    <tag k="is_in:continent" v="Europe"/>
    <tag k="is_in:country" v="Poland"/>
    <tag k="is_in:county" v="powiat kłobucki"/>
    <tag k="is_in:municipality" v="gmina Kłobuck"/>
    <tag k="is_in:province" v="województwo śląskie"/>
    <tag k="name" v="Kłobuck"/>
    <tag k="place" v="city"/>
    <tag k="population" v="13134"/>
    <tag k="source:population" v="wikipedia"/>
    <tag k="teryt:rm" v="96"/>
    <tag k="teryt:simc" v="2406014"/>
    <tag k="teryt:stan_na" v="2009-06-13"/>
    <tag k="teryt:terc" v="2406014"/>
    <tag k="wikipedia" v="Kłobuck"/>
  </node>
  <node id="420084369" version="6" timestamp="2009-09-26T08:21:05Z" uid="9475" user="Slawek Maderak" changeset="2635937" lat="50.9014752" lon="18.9358082">
    <tag k="addr:postcode" v="42-100"/>
    <tag k="is_in" v="gmina Kłobuck, powiat kłobucki, województwo śląskie, Poland"/>
    <tag k="is_in:continent" v="Europe"/>
    <tag k="is_in:country" v="Poland"/>
    <tag k="is_in:county" v="powiat kłobucki"/>
    <tag k="is_in:municipality" v="gmina Kłobuck"/>
    <tag k="is_in:province" v="województwo śląskie"/>
    <tag k="name" v="Kłobuck"/>
    <tag k="place" v="town"/>
    <tag k="population" v="13134"/>
    <tag k="source:population" v="wikipedia"/>
    <tag k="teryt:rm" v="96"/>
    <tag k="teryt:simc" v="2406014"/>
    <tag k="teryt:stan_na" v="2009-06-13"/>
    <tag k="teryt:terc" v="2406014"/>
    <tag k="wikipedia" v="Kłobuck"/>
  </node>
  <node id="420084369" version="7" timestamp="2010-04-11T04:48:01Z" uid="20587" user="balrog-kun" changeset="4389130" lat="50.9014736" lon="18.9358087">
    <tag k="addr:postcode" v="42-100"/>
    <tag k="is_in" v="gmina Kłobuck, powiat kłobucki, województwo śląskie, Poland"/>
    <tag k="is_in:continent" v="Europe"/>
    <tag k="is_in:country" v="Poland"/>
    <tag k="is_in:county" v="powiat kłobucki"/>
    <tag k="is_in:municipality" v="gmina Kłobuck"/>
    <tag k="is_in:province" v="województwo śląskie"/>
    <tag k="name" v="Kłobuck"/>
    <tag k="place" v="town"/>
    <tag k="population" v="13134"/>
    <tag k="source:population" v="wikipedia"/>
    <tag k="teryt:rm" v="96"/>
    <tag k="teryt:simc" v="2406014"/>
    <tag k="teryt:stan_na" v="2009-06-13"/>
    <tag k="teryt:terc" v="2406014"/>
    <tag k="wikipedia" v="Kłobuck"/>
  </node>
</osm>
