<?xml version='1.0' encoding='UTF-8'?>
<osm version="0.6" generator="libosmium/2.20.0">
  <node id="420622210" version="1" timestamp="2009-06-15T13:53:43Z" uid="70460" user="Vasc" changeset="1525255" lat="50.3992696" lon="18.9019839">
    <tag k="name" v="Radzionków"/>
    <tag k="place" v="city"/>
  </node>
  <node id="420622210" version="2" timestamp="2009-06-16T14:36:22Z" uid="20587" user="balrog-kun" changeset="1535698" lat="50.3992696" lon="18.9019839">
    <tag k="addr:postcode" v="41-922"/>
    <tag k="is_in" v="gmina Radzionków, powiat tarnogórski, województwo śląskie, Poland"/>
    <tag k="is_in:county" v="powiat tarnogórski"/>
    <tag k="is_in:municipality" v="gmina Radzionków"/>
    <tag k="is_in:province" v="województwo śląskie"/>
    <tag k="name" v="Radzionków"/>
    <tag k="place" v="city"/>
    <tag k="population" v="16900"/>
    <tag k="source:population" v="wikipedia"/>
    <tag k="teryt:terc" v="2413031"/>
    <tag k="wikipedia" v="Radzionków"/>
  </node>
  <node id="420622210" version="3" timestamp="2009-08-19T19:22:55Z" uid="157467" user="t4fun" changeset="2205004" lat="50.3992696" lon="18.9019839">
    <tag k="addr:postcode" v="41-922"/>
    <tag k="is_in" v="gmina Radzionków, powiat tarnogórski, województwo śląskie, Poland"/>
    <tag k="is_in:county" v="powiat tarnogórski"/>
    <tag k="is_in:municipality" v="gmina Radzionków"/>
    <tag k="is_in:province" v="województwo śląskie"/>
    <tag k="name" v="Radzionków"/>
    <tag k="place" v="town"/>
    <tag k="population" v="16900"/>
    <tag k="source:population" v="wikipedia"/>
    <tag k="teryt:terc" v="2413031"/>
    <tag k="wikipedia" v="Radzionków"/>
  </node>
  <node id="420622210" version="4" timestamp="2010-04-11T04:48:02Z" uid="20587" user="balrog-kun" changeset="4389130" lat="50.4002717" lon="18.9026247">
    <tag k="addr:postcode" v="41-922"/>
    <tag k="is_in" v="gmina Radzionków, powiat tarnogórski, województwo śląskie, Poland"/>
    <tag k="is_in:county" v="powiat tarnogórski"/>
    <tag k="is_in:municipality" v="gmina Radzionków"/>
    <tag k="is_in:province" v="województwo śląskie"/>
    <tag k="name" v="Radzionków"/>
    <tag k="place" v="town"/>
    <tag k="population" v="16900"/>
    <tag k="source:population" v="wikipedia"/>
    <tag k="teryt:terc" v="2413031"/>
    <tag k="wikipedia" v="Radzionków"/>
  </node>
  <node id="420622210" version="5" timestamp="2010-04-27T03:57:35Z" uid="30632" user="antblant" changeset="4537850" lat="50.4002717" lon="18.9026247">
    <tag k="addr:postcode" v="41-922"/>
    <tag k="is_in" v="gmina Radzionków, powiat tarnogórski, województwo śląskie, Poland"/>
    <tag k="is_in:county" v="powiat tarnogórski"/>
    <tag k="is_in:municipality" v="gmina Radzionków"/>
    <tag k="is_in:province" v="województwo śląskie"/>
    <tag k="name" v="Radzionków"/>
    <tag k="place" v="town"/>
    <tag k="population" v="16900"/>
    <tag k="source:population" v="wikipedia"/>
    <tag k="teryt:simc" v="0938806"/>
    <tag k="teryt:terc" v="2413031"/>
    <tag k="wikipedia" v="Radzionków"/>
  </node>
  <node id="420622210" version="6" timestamp="2010-06-25T08:57:47Z" uid="91056" user="Yarl" changeset="5071999" lat="50.4002717" lon="18.9026247">
    <tag k="addr:postcode" v="41-922"/>
    <tag k="is_in" v="gmina Radzionków, powiat tarnogórski, województwo śląskie, Poland"/>
    <tag k="is_in:county" v="powiat tarnogórski"/>
    <tag k="is_in:municipality" v="gmina Radzionków"/>
    <tag k="is_in:province" v="województwo śląskie"/>
    <tag k="name" v="Radzionków"/>
    <tag k="name:de" v="Radzionkau"/>
    <tag k="place" v="town"/>
    <tag k="population" v="16900"/>
    <tag k="source:population" v="wikipedia"/>
    <tag k="teryt:simc" v="0938806"/>
    <tag k="teryt:terc" v="2413031"/>
    <tag k="wikipedia" v="Radzionków"/>
  </node>
</osm>
