<?xml version='1.0' encoding='UTF-8'?>
<osm version="0.6" generator="libosmium/2.20.0">
  <node id="421841608" version="2" timestamp="2010-03-16T14:30:57Z" uid="115477" user="wowik" changeset="4143727" lat="55.8630351" lon="37.4797424">
    <tag k="highway" v="bus_stop"/>
    <tag k="name" v="Смольная улица, дом 45"/>
  </node>
  <node id="421841608" version="3" timestamp="2011-02-18T08:43:48Z" uid="295994" user="natik" changeset="7320307" lat="55.8629687" lon="37.4794959">
    <tag k="highway" v="bus_stop"/>
    <tag k="name" v="Смольная улица, дом 45"/>
  </node>
  <node id="421841608" version="4" timestamp="2011-03-12T19:56:54Z" uid="7547" user="edinorog" changeset="7537551" lat="55.8630548" lon="37.4794922">
    <tag k="highway" v="bus_stop"/>
    <tag k="name" v="Смольная улица, дом 45"/>
  </node>
  <node id="421841608" version="5" timestamp="2011-07-20T18:09:45Z" uid="7547" user="edinorog" changeset="8781001" lat="55.8630548" lon="37.4794922">
    <tag k="highway" v="bus_stop"/>
    <tag k="name" v="Смольная улица, д. 45"/>
    <tag k="public_transport" v="platform"/>
  </node>
  <node id="421841609" version="4" timestamp="2010-03-16T14:32:01Z" uid="115477" user="wowik" changeset="4143727" lat="55.8650701" lon="37.4773713">
    <tag k="highway" v="bus_stop"/>
    <tag k="name" v="Торгово-экономический университет"/>
  </node>
  <node id="421841609" version="5" timestamp="2010-04-19T10:04:10Z" uid="115477" user="wowik" changeset="4466384" lat="55.8651138" lon="37.4774389">
    <tag k="highway" v="bus_stop"/>
    <tag k="name" v="Торгово-экономический университет"/>
  </node>
  <node id="421841609" version="6" timestamp="2011-02-18T08:43:49Z" uid="295994" user="natik" changeset="7320307" lat="55.8651832" lon="37.4771536">
    <tag k="highway" v="bus_stop"/>
    <tag k="name" v="Торгово-экономический университет"/>
  </node>
  <node id="421841609" version="7" timestamp="2011-03-12T19:56:58Z" uid="7547" user="edinorog" changeset="7537551" lat="55.8653534" lon="37.477044">
    <tag k="highway" v="bus_stop"/>
    <tag k="name" v="Торгово-экономический университет"/>
  </node>
  <node id="421841609" version="8" timestamp="2011-07-20T18:09:46Z" uid="7547" user="edinorog" changeset="8781001" lat="55.8653534" lon="37.477044">
    <tag k="highway" v="bus_stop"/>
    <tag k="name" v="Торгово-экономический университет"/>
    <tag k="public_transport" v="platform"/>
  </node>
  <node id="421841624" version="6" timestamp="2011-05-19T16:39:56Z" uid="115477" user="wowik" changeset="8191193" lat="55.870111" lon="37.4723909">
    <tag k="highway" v="bus_stop"/>
    <tag k="name" v="Смольная улица, 61"/>
  </node>
  <node id="421841624" version="7" timestamp="2011-07-20T18:09:45Z" uid="7547" user="edinorog" changeset="8781001" lat="55.870111" lon="37.4723909">
    <tag k="highway" v="bus_stop"/>
    <tag k="name" v="Смольная улица, д. 61"/>
    <tag k="public_transport" v="platform"/>
  </node>
  <node id="421849706" version="2" timestamp="2010-08-29T20:18:54Z" uid="43967" user="railsnail" changeset="5630485" lat="46.7471632" lon="13.1737648"/>
  <node id="421849706" version="3" timestamp="2011-04-02T20:48:29Z" uid="78656" user="Walter Schlögl" changeset="7748217" lat="46.7471632" lon="13.1737648"/>
</osm>
