<?xml version='1.0' encoding='UTF-8'?>
<osm version="0.6" generator="libosmium/2.20.0">
  <node id="421957442" version="2" timestamp="2010-05-17T19:49:31Z" uid="23543" user="jkjk" changeset="4732324" lat="50.1151104" lon="14.9821154">
    <tag k="power" v="tower"/>
  </node>
  <node id="421958644" version="1" timestamp="2009-06-16T19:17:46Z" uid="36809" user="pfoten_weg_!_" changeset="1538527" lat="43.7940992" lon="6.151199">
    <tag k="amenity" v="public_building"/>
    <tag k="created_by" v="RambaZamba"/>
    <tag k="man_made" v="sender"/>
    <tag k="name:de" v="Radio Monte Carlo Info - Sender"/>
    <tag k="ref" v="216 kHz;1467 kHz"/>
    <tag k="source" v="survey"/>
  </node>
  <node id="421958644" version="2" timestamp="2009-06-16T19:20:32Z" uid="36809" user="pfoten_weg_!_" changeset="1538562" lat="43.7940992" lon="6.151199">
    <tag k="amenity" v="public_building"/>
    <tag k="created_by" v="RambaZamba"/>
    <tag k="man_made" v="sender"/>
    <tag k="name:de" v="Radio Monte Carlo Info - Sender"/>
    <tag k="ref" v="216 kHz;1467 kHz"/>
    <tag k="source" v="survey"/>
  </node>
  <node id="421958647" version="1" timestamp="2009-06-16T19:17:47Z" uid="36809" user="pfoten_weg_!_" changeset="1538527" lat="43.7889972" lon="6.157642">
    <tag k="created_by" v="RambaZamba"/>
    <tag k="name:de" v="RMC Info - Stromversorgungstation"/>
    <tag k="power" v="generator"/>
    <tag k="source" v="survey"/>
  </node>
  <node id="421958647" version="2" timestamp="2009-06-16T19:20:32Z" uid="36809" user="pfoten_weg_!_" changeset="1538562" lat="43.7889972" lon="6.157642">
    <tag k="created_by" v="RambaZamba"/>
    <tag k="name:de" v="RMC Info - Stromversorgungstation"/>
    <tag k="power" v="generator"/>
    <tag k="source" v="survey"/>
  </node>
  <node id="421958649" version="1" timestamp="2009-06-16T19:17:47Z" uid="36809" user="pfoten_weg_!_" changeset="1538527" lat="43.7943031" lon="6.1517058">
    <tag k="created_by" v="RambaZamba"/>
    <tag k="name" v="RMC Info"/>
    <tag k="source" v="survey"/>
    <tag k="tourism" v="viewpoint"/>
  </node>
  <node id="421958649" version="2" timestamp="2009-06-16T19:20:31Z" uid="36809" user="pfoten_weg_!_" changeset="1538562" lat="43.7943031" lon="6.1517058">
    <tag k="created_by" v="RambaZamba"/>
    <tag k="name" v="RMC Info"/>
    <tag k="source" v="survey"/>
    <tag k="tourism" v="viewpoint"/>
  </node>
  <node id="421958651" version="1" timestamp="2009-06-16T19:17:47Z" uid="36809" user="pfoten_weg_!_" changeset="1538527" lat="43.7983832" lon="6.162196">
    <tag k="created_by" v="RambaZamba"/>
    <tag k="man_made" v="tower"/>
    <tag k="name:de" v="RMC Info - Mittelwellen Sendemasten - 1467 kHz"/>
    <tag k="source" v="survey"/>
  </node>
  <node id="421958651" version="2" timestamp="2009-06-16T19:20:31Z" uid="36809" user="pfoten_weg_!_" changeset="1538562" lat="43.7983832" lon="6.162196">
    <tag k="created_by" v="RambaZamba"/>
    <tag k="man_made" v="tower"/>
    <tag k="name:de" v="RMC Info - Mittelwellen Sendemasten - 1467 kHz"/>
    <tag k="source" v="survey"/>
  </node>
  <node id="421958654" version="1" timestamp="2009-06-16T19:17:47Z" uid="36809" user="pfoten_weg_!_" changeset="1538527" lat="43.7929802" lon="6.149789">
    <tag k="created_by" v="RambaZamba"/>
    <tag k="man_made" v="tower"/>
    <tag k="name:de" v="RMC Info - Langwellensendemasten - 216 kHz"/>
    <tag k="source" v="survey"/>
  </node>
  <node id="421958654" version="2" timestamp="2009-06-16T19:20:31Z" uid="36809" user="pfoten_weg_!_" changeset="1538562" lat="43.7929802" lon="6.149789">
    <tag k="created_by" v="RambaZamba"/>
    <tag k="man_made" v="tower"/>
    <tag k="name:de" v="RMC Info - Langwellensendemasten - 216 kHz"/>
    <tag k="source" v="survey"/>
  </node>
  <node id="421958656" version="1" timestamp="2009-06-16T19:17:47Z" uid="36809" user="pfoten_weg_!_" changeset="1538527" lat="43.7935217" lon="6.1586258">
    <tag k="created_by" v="RambaZamba"/>
    <tag k="man_made" v="tower"/>
    <tag k="name:de" v="RMC Info - Langwellensendemast - 216 kHz (Reserve)"/>
    <tag k="source" v="survey"/>
  </node>
  <node id="421958656" version="2" timestamp="2009-06-16T19:20:30Z" uid="36809" user="pfoten_weg_!_" changeset="1538562" lat="43.7935217" lon="6.1586258">
    <tag k="created_by" v="RambaZamba"/>
    <tag k="man_made" v="tower"/>
    <tag k="name:de" v="RMC Info - Langwellensendemast - 216 kHz (Reserve)"/>
    <tag k="source" v="survey"/>
  </node>
</osm>
