<?xml version='1.0' encoding='UTF-8'?>
<osm version="0.6" generator="libosmium/2.20.0">
  <node id="421960760" version="1" timestamp="2009-06-16T19:20:28Z" uid="36809" user="pfoten_weg_!_" changeset="1538562" lat="43.7983834" lon="6.162196">
    <tag k="created_by" v="RambaZamba"/>
    <tag k="man_made" v="tower"/>
    <tag k="name:de" v="RMC Info - Mittelwellen Sendemasten - 1467 kHz"/>
    <tag k="source" v="survey"/>
  </node>
  <node id="421960760" version="2" timestamp="2009-06-16T19:29:56Z" uid="36809" user="pfoten_weg_!_" changeset="1538687" lat="43.7983834" lon="6.162196">
    <tag k="created_by" v="RambaZamba"/>
    <tag k="man_made" v="tower"/>
    <tag k="name" v="Les antennes P.O. du 1467 kHz"/>
    <tag k="name:de" v="RMC Info - Mittelwellen Sendemasten - 1467 kHz"/>
    <tag k="source" v="survey"/>
  </node>
  <node id="421960760" version="3" timestamp="2009-06-16T19:51:58Z" uid="36809" user="pfoten_weg_!_" changeset="1538992" lat="43.7984221" lon="6.162093">
    <tag k="created_by" v="RambaZamba"/>
    <tag k="man_made" v="tower"/>
    <tag k="name" v="Les antennes P.O. du 1467 kHz"/>
    <tag k="name:de" v="RMC Info - Mittelwellen Sendemasten - 1467 kHz"/>
    <tag k="source" v="survey"/>
  </node>
  <node id="421960760" version="4" timestamp="2009-06-16T19:52:56Z" uid="36809" user="pfoten_weg_!_" changeset="1539003" lat="43.7984221" lon="6.162093">
    <tag k="created_by" v="RambaZamba"/>
    <tag k="man_made" v="tower"/>
    <tag k="name" v="Les antennes P.O. du 1467 kHz"/>
    <tag k="name:de" v="RMC Info - Mittelwellen Sendemasten - 1467 kHz"/>
    <tag k="source" v="survey"/>
  </node>
  <node id="421960768" version="1" timestamp="2009-06-16T19:20:29Z" uid="36809" user="pfoten_weg_!_" changeset="1538562" lat="43.7889974" lon="6.157642">
    <tag k="created_by" v="RambaZamba"/>
    <tag k="name:de" v="RMC Info - Stromversorgungstation"/>
    <tag k="power" v="generator"/>
    <tag k="ref:de" v="Transformatorenanlage"/>
    <tag k="source" v="survey"/>
  </node>
  <node id="421960768" version="2" timestamp="2009-06-16T19:52:55Z" uid="36809" user="pfoten_weg_!_" changeset="1539003" lat="43.7889974" lon="6.157642">
    <tag k="created_by" v="RambaZamba"/>
    <tag k="name:de" v="RMC Info - Stromversorgungstation"/>
    <tag k="power" v="generator"/>
    <tag k="ref:de" v="Transformatorenanlage"/>
    <tag k="source" v="survey"/>
  </node>
  <node id="421960773" version="1" timestamp="2009-06-16T19:20:29Z" uid="36809" user="pfoten_weg_!_" changeset="1538562" lat="43.7929804" lon="6.149789">
    <tag k="created_by" v="RambaZamba"/>
    <tag k="man_made" v="tower"/>
    <tag k="name:de" v="RMC Info - Langwellensendemasten - 216 kHz"/>
    <tag k="source" v="survey"/>
  </node>
  <node id="421960773" version="2" timestamp="2009-06-16T19:51:58Z" uid="36809" user="pfoten_weg_!_" changeset="1538992" lat="43.7929994" lon="6.1498681">
    <tag k="created_by" v="RambaZamba"/>
    <tag k="man_made" v="tower"/>
    <tag k="name:de" v="RMC Info - Langwellensendemasten - 216 kHz"/>
    <tag k="source" v="survey"/>
  </node>
  <node id="421960773" version="3" timestamp="2009-06-16T19:52:55Z" uid="36809" user="pfoten_weg_!_" changeset="1539003" lat="43.7929994" lon="6.1498681">
    <tag k="created_by" v="RambaZamba"/>
    <tag k="man_made" v="tower"/>
    <tag k="name:de" v="RMC Info - Langwellensendemasten - 216 kHz"/>
    <tag k="source" v="survey"/>
  </node>
  <node id="421960777" version="1" timestamp="2009-06-16T19:20:29Z" uid="36809" user="pfoten_weg_!_" changeset="1538562" lat="43.7943033" lon="6.1517058">
    <tag k="created_by" v="RambaZamba"/>
    <tag k="name" v="RMC Info"/>
    <tag k="source" v="survey"/>
    <tag k="tourism" v="viewpoint"/>
  </node>
  <node id="421960777" version="2" timestamp="2009-06-16T19:51:58Z" uid="36809" user="pfoten_weg_!_" changeset="1538992" lat="43.7943598" lon="6.1516234">
    <tag k="created_by" v="RambaZamba"/>
    <tag k="name" v="RMC Info"/>
    <tag k="source" v="survey"/>
    <tag k="tourism" v="viewpoint"/>
  </node>
  <node id="421960777" version="3" timestamp="2009-06-16T19:52:55Z" uid="36809" user="pfoten_weg_!_" changeset="1539003" lat="43.7943598" lon="6.1516234">
    <tag k="created_by" v="RambaZamba"/>
    <tag k="name" v="RMC Info"/>
    <tag k="source" v="survey"/>
    <tag k="tourism" v="viewpoint"/>
  </node>
  <node id="421960779" version="1" timestamp="2009-06-16T19:20:29Z" uid="36809" user="pfoten_weg_!_" changeset="1538562" lat="43.7935219" lon="6.1586258">
    <tag k="created_by" v="RambaZamba"/>
    <tag k="man_made" v="tower"/>
    <tag k="name:de" v="RMC Info - Langwellensendemast - 216 kHz (Reserve)"/>
    <tag k="source" v="survey"/>
  </node>
  <node id="421960779" version="2" timestamp="2009-06-16T19:51:58Z" uid="36809" user="pfoten_weg_!_" changeset="1538992" lat="43.7934736" lon="6.1585743">
    <tag k="created_by" v="RambaZamba"/>
    <tag k="layer" v="2"/>
    <tag k="man_made" v="tower"/>
    <tag k="name:de" v="RMC Info - Langwellensendemast - 216 kHz (Reserve)"/>
    <tag k="ref" v="Fider"/>
    <tag k="source" v="survey"/>
  </node>
  <node id="421960779" version="3" timestamp="2009-06-16T19:52:55Z" uid="36809" user="pfoten_weg_!_" changeset="1539003" lat="43.7934736" lon="6.1585743">
    <tag k="created_by" v="RambaZamba"/>
    <tag k="layer" v="2"/>
    <tag k="man_made" v="tower"/>
    <tag k="name:de" v="RMC Info - Langwellensendemast - 216 kHz (Reserve)"/>
    <tag k="ref" v="Fider"/>
    <tag k="source" v="survey"/>
  </node>
  <node id="421960785" version="1" timestamp="2009-06-16T19:20:30Z" uid="36809" user="pfoten_weg_!_" changeset="1538562" lat="43.7940994" lon="6.151199">
    <tag k="amenity" v="public_building"/>
    <tag k="created_by" v="RambaZamba"/>
    <tag k="man_made" v="sender"/>
    <tag k="name:de" v="Radio Monte Carlo Info - Sender"/>
    <tag k="ref" v="216 kHz;1467 kHz"/>
    <tag k="source" v="survey"/>
  </node>
  <node id="421960785" version="2" timestamp="2009-06-16T19:29:56Z" uid="36809" user="pfoten_weg_!_" changeset="1538687" lat="43.7940994" lon="6.151199">
    <tag k="amenity" v="public_building"/>
    <tag k="created_by" v="RambaZamba"/>
    <tag k="man_made" v="sender"/>
    <tag k="name:de" v="Radio Monte Carlo Info - Sender"/>
    <tag k="ref" v="Monte Carlo Radiodiffusion;216 kHz;1467 kHz"/>
    <tag k="source" v="survey"/>
  </node>
  <node id="421960785" version="3" timestamp="2009-06-16T19:51:58Z" uid="36809" user="pfoten_weg_!_" changeset="1538992" lat="43.7940637" lon="6.1512402">
    <tag k="amenity" v="public_building"/>
    <tag k="created_by" v="RambaZamba"/>
    <tag k="man_made" v="sender"/>
    <tag k="name:de" v="Radio Monte Carlo Info - Sender"/>
    <tag k="ref" v="Monte Carlo Radiodiffusion;216 kHz;1467 kHz"/>
    <tag k="source" v="survey"/>
  </node>
  <node id="421960785" version="4" timestamp="2009-06-16T19:52:55Z" uid="36809" user="pfoten_weg_!_" changeset="1539003" lat="43.7940637" lon="6.1512402">
    <tag k="amenity" v="public_building"/>
    <tag k="created_by" v="RambaZamba"/>
    <tag k="man_made" v="sender"/>
    <tag k="name:de" v="Radio Monte Carlo Info - Sender"/>
    <tag k="ref" v="Monte Carlo Radiodiffusion;216 kHz;1467 kHz"/>
    <tag k="source" v="survey"/>
  </node>
</osm>
