<?xml version='1.0' encoding='UTF-8'?>
<osm version="0.6" generator="libosmium/2.20.0">
  <node id="42203027" version="1" timestamp="2007-09-05T17:46:04Z" uid="12188" user="Babis" changeset="341528" lat="38.4618366" lon="23.5921698">
    <tag k="created_by" v="Potlatch alpha"/>
    <tag k="is_in" v="Evia Greece Europe"/>
    <tag k="name" v="Halkida"/>
    <tag k="place" v="city"/>
  </node>
  <node id="42203027" version="2" timestamp="2007-11-27T05:32:04Z" uid="14235" user="AiNikolas" changeset="629890" lat="38.461837" lon="23.592167">
    <tag k="created_by" v="Potlatch 0.5d"/>
    <tag k="is_in" v="Evia Greece Europe"/>
    <tag k="name" v="Halkida"/>
    <tag k="place" v="city"/>
  </node>
  <node id="42203027" version="3" timestamp="2007-12-08T02:28:40Z" uid="14235" user="AiNikolas" changeset="176740" lat="38.4631137" lon="23.5956455">
    <tag k="continent" v="Europe"/>
    <tag k="created_by" v="Potlatch 0.5d"/>
    <tag k="is_in" v="Greece"/>
    <tag k="name" v="Halkida"/>
    <tag k="name:el" v="Χαλκίδα"/>
    <tag k="place" v="city"/>
    <tag k="prefecture" v="Evia"/>
    <tag k="region" v="Sterea Ellas"/>
  </node>
  <node id="42203027" version="4" timestamp="2008-09-22T11:26:44Z" uid="35787" user="Randbewohner" changeset="678994" lat="38.4631195" lon="23.5956393">
    <tag k="created_by" v="Potlatch 0.10b"/>
    <tag k="int_name" v="Chalkida"/>
    <tag k="is_in" v="Euboea, Central Greece, Greece, EU"/>
    <tag k="name" v="Χαλκίδα"/>
    <tag k="place" v="town"/>
    <tag k="population" v="53584"/>
  </node>
  <node id="42203027" version="5" timestamp="2008-09-22T11:27:44Z" uid="35787" user="Randbewohner" changeset="678994" lat="38.4631195" lon="23.5956393">
    <tag k="created_by" v="Potlatch 0.10b"/>
    <tag k="int_name" v="Chalkida"/>
    <tag k="is_in" v="Euboea, Central Greece, Greece, EU"/>
    <tag k="name" v="Χαλκίδα"/>
    <tag k="name:en" v="Chalkis"/>
    <tag k="name:fr" v="Chalcis"/>
    <tag k="name:it" v="Calcide"/>
    <tag k="place" v="town"/>
    <tag k="population" v="53584"/>
  </node>
  <node id="42203027" version="6" timestamp="2009-03-15T13:23:47Z" uid="14235" user="AiNikolas" changeset="813614" lat="38.4627483" lon="23.5952169">
    <tag k="created_by" v="Potlatch 0.10f"/>
    <tag k="int_name" v="Chalkida"/>
    <tag k="is_in" v="Chalkida municipality,Evia prefecture,Sterea Ellada,Greece,EU"/>
    <tag k="name" v="Χαλκίδα"/>
    <tag k="name:de" v="Chalkida"/>
    <tag k="name:en" v="Chalkis"/>
    <tag k="name:fr" v="Chalcis"/>
    <tag k="name:it" v="Calcide"/>
    <tag k="place" v="city"/>
    <tag k="population" v="53584"/>
  </node>
  <node id="42203027" version="7" timestamp="2009-11-10T21:42:00Z" uid="148025" user="mvrban" changeset="3085773" lat="38.4627483" lon="23.5952169">
    <tag k="int_name" v="Chalkida"/>
    <tag k="is_in" v="Chalkida municipality,Evia prefecture,Sterea Ellada,Greece,EU"/>
    <tag k="name" v="Χαλκίδα"/>
    <tag k="name:de" v="Chalkida"/>
    <tag k="name:en" v="Chalkis"/>
    <tag k="name:fr" v="Chalcis"/>
    <tag k="name:hr" v="Halkida"/>
    <tag k="name:it" v="Calcide"/>
    <tag k="place" v="city"/>
    <tag k="population" v="53584"/>
  </node>
  <node id="42203027" version="8" timestamp="2010-02-10T15:53:43Z" uid="166445" user="GranD" changeset="3841194" lat="38.4627483" lon="23.5952169">
    <tag k="int_name" v="Chalkida"/>
    <tag k="is_in" v="Chalkida municipality,Evia prefecture,Sterea Ellada,Greece,EU"/>
    <tag k="name" v="Χαλκίδα"/>
    <tag k="name:de" v="Chalkida"/>
    <tag k="name:en" v="Chalkis"/>
    <tag k="name:fr" v="Chalcis"/>
    <tag k="name:hr" v="Halkida"/>
    <tag k="name:it" v="Calcide"/>
    <tag k="name:ru" v="Халкида"/>
    <tag k="place" v="city"/>
    <tag k="population" v="53584"/>
  </node>
  <node id="42207017" version="1" timestamp="2007-09-16T09:23:40Z" uid="12188" user="Babis" changeset="443858" lat="37.9395044" lon="23.7316575">
    <tag k="created_by" v="Potlatch alpha"/>
    <tag k="is_in" v="Athens Greece Europe"/>
    <tag k="name" v="Agios Dimitrios"/>
    <tag k="place" v="town"/>
  </node>
  <node id="42207017" version="2" timestamp="2007-10-23T16:11:21Z" uid="7363" user="user_7363" changeset="296185" lat="37.939504" lon="23.7316556">
    <tag k="created_by" v="Potlatch 0.4a"/>
    <tag k="is_in" v="Athens Greece Europe"/>
    <tag k="name" v="Agios Dimitrios"/>
    <tag k="place" v="suburb"/>
  </node>
  <node id="42207017" version="3" timestamp="2007-12-07T04:56:08Z" uid="14235" user="AiNikolas" changeset="156282" lat="37.9395101" lon="23.7316489">
    <tag k="created_by" v="Potlatch 0.5d"/>
    <tag k="is_in" v="Greece"/>
    <tag k="name" v="Agios Dimitrios"/>
    <tag k="place" v="suburb"/>
  </node>
  <node id="42207017" version="4" timestamp="2008-03-22T06:25:21Z" uid="12188" user="Babis" changeset="372310" lat="37.9395054" lon="23.7316474">
    <tag k="created_by" v="Potlatch 0.7b"/>
    <tag k="is_in" v="Greece"/>
    <tag k="place" v="suburb"/>
  </node>
  <node id="42207017" version="5" timestamp="2008-03-22T06:26:54Z" uid="12188" user="Babis" changeset="372310" lat="37.9395054" lon="23.7316474">
    <tag k="created_by" v="Potlatch 0.7b"/>
    <tag k="is_in" v="Greece"/>
    <tag k="name" v="Agios Dimitrios"/>
    <tag k="name:de" v="Agios Dimitrios"/>
    <tag k="name:en" v="Agios Dimitrios"/>
    <tag k="place" v="suburb"/>
  </node>
  <node id="42207017" version="6" timestamp="2008-03-22T06:28:19Z" uid="12188" user="Babis" changeset="372310" lat="37.9395054" lon="23.7316388">
    <tag k="created_by" v="Potlatch 0.7b"/>
    <tag k="is_in" v="Greece"/>
    <tag k="name" v="Agios Dimitrios"/>
    <tag k="name:de" v="Agios Dimitrios"/>
    <tag k="name:en" v="Agios Dimitrios"/>
    <tag k="place" v="suburb"/>
  </node>
  <node id="42207017" version="7" timestamp="2009-01-09T09:21:13Z" uid="12188" user="Babis" changeset="762274" lat="37.9395074" lon="23.7316353">
    <tag k="created_by" v="Potlatch 0.10f"/>
    <tag k="is_in" v="Athens,Greece"/>
    <tag k="name" v="Agios Dimitrios"/>
    <tag k="name:de" v="Agios Dimitrios"/>
    <tag k="name:en" v="Agios Dimitrios"/>
    <tag k="place" v="town"/>
  </node>
  <node id="42207017" version="8" timestamp="2009-01-09T09:25:55Z" uid="12188" user="Babis" changeset="762274" lat="37.9395102" lon="23.7316346">
    <tag k="created_by" v="Potlatch 0.10f"/>
    <tag k="is_in" v="Athens,Greece"/>
    <tag k="name" v="Agios Dimitrios"/>
    <tag k="name:de" v="Agios Dimitrios"/>
    <tag k="name:en" v="Agios Dimitrios"/>
    <tag k="place" v="town"/>
  </node>
  <node id="42207017" version="9" timestamp="2009-03-14T16:16:27Z" uid="14235" user="AiNikolas" changeset="806839" lat="37.9392781" lon="23.7337398">
    <tag k="created_by" v="Potlatch 0.10f"/>
    <tag k="is_in" v="Agios Dimitrios municipality,Athina prefecture,Attiki,Greece,EU"/>
    <tag k="name" v="Άγιος Δημήτριος"/>
    <tag k="name:de" v="Agios Dimitrios"/>
    <tag k="name:el" v="Άγιος Δημήτριος"/>
    <tag k="name:en" v="Agios Dimitrios"/>
    <tag k="name:fr" v="Agios Dimitrios"/>
    <tag k="place" v="suburb"/>
    <tag k="population" v="65173"/>
  </node>
  <node id="42207017" version="10" timestamp="2009-03-18T18:15:11Z" uid="12188" user="Babis" changeset="827959" lat="37.9393238" lon="23.7337056">
    <tag k="created_by" v="Potlatch 0.10f"/>
    <tag k="is_in" v="Agios Dimitrios municipality,Athina prefecture,Attiki,Greece,EU"/>
    <tag k="name" v="Άγιος Δημήτριος"/>
    <tag k="name:de" v="Agios Dimitrios"/>
    <tag k="name:el" v="Άγιος Δημήτριος"/>
    <tag k="name:en" v="Agios Dimitrios"/>
    <tag k="name:fr" v="Agios Dimitrios"/>
    <tag k="place" v="suburb"/>
    <tag k="population" v="65173"/>
  </node>
  <node id="42207017" version="11" timestamp="2010-10-16T17:29:54Z" uid="23785" user="greecemapper" changeset="6059738" lat="37.9393238" lon="23.7337056">
    <tag k="is_in" v="Agios Dimitrios municipality,Athina prefecture,Attiki,Greece,EU"/>
    <tag k="name" v="Άγιος Δημήτριος"/>
    <tag k="name:de" v="Agios Dimitrios"/>
    <tag k="name:el" v="Άγιος Δημήτριος"/>
    <tag k="name:en" v="Agios Dimitrios"/>
    <tag k="name:fr" v="Agios Dimitrios"/>
    <tag k="place" v="town"/>
    <tag k="population" v="65173"/>
  </node>
  <node id="42208418" version="1" timestamp="2007-09-16T09:23:29Z" uid="12188" user="Babis" changeset="443858" lat="37.9319768" lon="23.7561021">
    <tag k="created_by" v="Potlatch alpha"/>
    <tag k="is_in" v="Athens Greece Europe"/>
    <tag k="name" v="Ilioupoli"/>
    <tag k="place" v="town"/>
  </node>
  <node id="42208418" version="2" timestamp="2007-10-23T16:11:27Z" uid="7363" user="user_7363" changeset="296185" lat="37.9319763" lon="23.7561002">
    <tag k="created_by" v="Potlatch 0.4a"/>
    <tag k="is_in" v="Athens Greece Europe"/>
    <tag k="name" v="Ilioupoli"/>
    <tag k="place" v="suburb"/>
  </node>
  <node id="42208418" version="3" timestamp="2007-11-02T14:13:24Z" uid="17348" user="Godai2" changeset="389068" lat="37.9319807" lon="23.7560935">
    <tag k="created_by" v="Potlatch 0.4c"/>
    <tag k="is_in" v="Athens Greece Europe"/>
    <tag k="name" v="Ilioupoli"/>
    <tag k="place" v="suburb"/>
  </node>
  <node id="42208418" version="4" timestamp="2007-12-07T04:56:27Z" uid="14235" user="AiNikolas" changeset="156282" lat="37.9319825" lon="23.7560849">
    <tag k="created_by" v="Potlatch 0.5d"/>
    <tag k="is_in" v="Greece"/>
    <tag k="name" v="Ilioupoli"/>
    <tag k="place" v="suburb"/>
  </node>
  <node id="42208418" version="5" timestamp="2009-03-14T16:25:46Z" uid="14235" user="AiNikolas" changeset="806839" lat="37.9319874" lon="23.7560816">
    <tag k="created_by" v="Potlatch 0.10f"/>
    <tag k="is_in" v="Ilioupoli municipality,Attika prefecture,Greece"/>
    <tag k="name" v="Ηλιούπολη"/>
    <tag k="name:de" v="Ilioupoli"/>
    <tag k="name:el" v="Ηλιούπολη"/>
    <tag k="name:en" v="Iliopouli"/>
    <tag k="name:fr" v="Ilioupoli"/>
    <tag k="place" v="suburb"/>
    <tag k="population" v="75904"/>
  </node>
  <node id="42208418" version="6" timestamp="2010-05-24T10:01:50Z" uid="291674" user="n0i2" changeset="4791687" lat="37.9319566" lon="23.756147">
    <tag k="is_in" v="Ilioupoli municipality,Attika prefecture,Greece"/>
    <tag k="name" v="Ηλιούπολη"/>
    <tag k="name:de" v="Ilioupoli"/>
    <tag k="name:el" v="Ηλιούπολη"/>
    <tag k="name:en" v="Iliopouli"/>
    <tag k="name:fr" v="Ilioupoli"/>
    <tag k="place" v="suburb"/>
    <tag k="population" v="75904"/>
  </node>
  <node id="42208418" version="7" timestamp="2010-10-16T17:30:02Z" uid="23785" user="greecemapper" changeset="6059738" lat="37.9319566" lon="23.756147">
    <tag k="is_in" v="Ilioupoli municipality,Attika prefecture,Greece"/>
    <tag k="name" v="Ηλιούπολη"/>
    <tag k="name:de" v="Ilioupoli"/>
    <tag k="name:el" v="Ηλιούπολη"/>
    <tag k="name:en" v="Iliopouli"/>
    <tag k="name:fr" v="Ilioupoli"/>
    <tag k="place" v="town"/>
    <tag k="population" v="75904"/>
  </node>
</osm>
