<?xml version='1.0' encoding='UTF-8'?>
<osm version="0.6" generator="libosmium/2.20.0">
  <node id="422804829" version="2" timestamp="2009-08-03T19:57:23Z" uid="4467" user="Rosscoe" changeset="2029701" lat="-31.2727998" lon="149.2769766"/>
  <node id="422804829" version="3" timestamp="2012-03-28T02:08:41Z" uid="5715" user="Hoylen Sue" changeset="11122508" lat="-31.2727998" lon="149.2769766"/>
  <node id="422809223" version="2" timestamp="2010-04-27T04:17:06Z" uid="30632" user="antblant" changeset="4537905" lat="50.7709115" lon="16.292766">
    <tag k="created_by" v="Potlatch 0.10f"/>
    <tag k="is_in" v="Wałbrzych"/>
    <tag k="name" v="Nowe Miasto"/>
    <tag k="place" v="suburb"/>
    <tag k="teryt:simc" v="0120900"/>
  </node>
  <node id="422809232" version="2" timestamp="2010-04-11T04:48:03Z" uid="20587" user="balrog-kun" changeset="4389130" lat="50.7941571" lon="16.3940506">
    <tag k="is_in" v="Poland"/>
    <tag k="name" v="Modliszów"/>
    <tag k="place" v="village"/>
  </node>
  <node id="422809232" version="3" timestamp="2010-04-27T04:04:02Z" uid="30632" user="antblant" changeset="4537867" lat="50.7941571" lon="16.3940506">
    <tag k="is_in" v="Poland"/>
    <tag k="name" v="Modliszów"/>
    <tag k="place" v="village"/>
    <tag k="teryt:simc" v="0856184"/>
  </node>
  <node id="422809233" version="2" timestamp="2010-04-11T04:48:03Z" uid="20587" user="balrog-kun" changeset="4389130" lat="50.7715783" lon="16.3531737">
    <tag k="is_in" v="Poland"/>
    <tag k="name" v="Dziećmorowice"/>
    <tag k="place" v="village"/>
  </node>
  <node id="422809233" version="3" timestamp="2010-04-27T04:04:02Z" uid="30632" user="antblant" changeset="4537867" lat="50.7715783" lon="16.3531737">
    <tag k="is_in" v="Poland"/>
    <tag k="name" v="Dziećmorowice"/>
    <tag k="place" v="village"/>
    <tag k="teryt:simc" v="0856340"/>
  </node>
  <node id="422809234" version="2" timestamp="2010-04-27T04:04:02Z" uid="30632" user="antblant" changeset="4537867" lat="50.7310111" lon="16.4027816">
    <tag k="is_in" v="Poland"/>
    <tag k="name" v="Jugowice"/>
    <tag k="place" v="village"/>
    <tag k="teryt:simc" v="0856400"/>
  </node>
  <node id="422809236" version="2" timestamp="2010-03-29T00:29:29Z" uid="163746" user="anti_bot-nonsense" changeset="4263262" lat="50.8285749" lon="16.4960542">
    <tag k="is_in" v="Świdnica"/>
    <tag k="name" v="Kraszowice"/>
    <tag k="place" v="suburb"/>
  </node>
  <node id="422809236" version="3" timestamp="2010-04-27T04:04:02Z" uid="30632" user="antblant" changeset="4537867" lat="50.8285749" lon="16.4960542">
    <tag k="is_in" v="Świdnica"/>
    <tag k="name" v="Kraszowice"/>
    <tag k="place" v="suburb"/>
    <tag k="teryt:simc" v="0189078"/>
  </node>
</osm>
