<?xml version='1.0' encoding='UTF-8'?>
<osm version="0.6" generator="libosmium/2.20.0">
  <node id="424900387" version="2" timestamp="2010-12-02T17:57:17Z" uid="9581" user="Lobelt" changeset="6517369" lat="49.4883473" lon="8.4047688">
    <tag k="amenity" v="fuel"/>
    <tag k="fuel:diesel" v="yes"/>
    <tag k="fuel:octane_91" v="yes"/>
    <tag k="fuel:octane_95" v="yes"/>
    <tag k="fuel:octane_98" v="yes"/>
    <tag k="name" v="HEM"/>
    <tag k="operator" v="HEM"/>
  </node>
  <node id="424900387" version="3" timestamp="2011-06-09T15:16:38Z" uid="245137" user="maurice2010" changeset="8389350" lat="49.4883647" lon="8.4047849">
    <tag k="amenity" v="fuel"/>
    <tag k="fuel:diesel" v="yes"/>
    <tag k="fuel:octane_91" v="yes"/>
    <tag k="fuel:octane_95" v="yes"/>
    <tag k="fuel:octane_98" v="yes"/>
    <tag k="name" v="HEM"/>
    <tag k="operator" v="HEM"/>
  </node>
  <node id="424900387" version="4" timestamp="2011-12-30T08:45:25Z" uid="290680" user="wheelmap_visitor" changeset="10242031" lat="49.4883647" lon="8.4047849">
    <tag k="amenity" v="fuel"/>
    <tag k="fuel:diesel" v="yes"/>
    <tag k="fuel:octane_91" v="yes"/>
    <tag k="fuel:octane_95" v="yes"/>
    <tag k="fuel:octane_98" v="yes"/>
    <tag k="name" v="HEM"/>
    <tag k="operator" v="HEM"/>
    <tag k="wheelchair" v="limited"/>
  </node>
  <node id="424900387" version="5" timestamp="2012-03-26T16:29:46Z" uid="639464" user="wipnick" changeset="11107711" lat="49.4883647" lon="8.4047849">
    <tag k="amenity" v="fuel"/>
    <tag k="fuel:diesel" v="yes"/>
    <tag k="fuel:lpg" v="yes"/>
    <tag k="fuel:octane_91" v="yes"/>
    <tag k="fuel:octane_95" v="yes"/>
    <tag k="fuel:octane_98" v="yes"/>
    <tag k="name" v="HEM"/>
    <tag k="operator" v="HEM"/>
    <tag k="wheelchair" v="limited"/>
  </node>
</osm>
