<?xml version='1.0' encoding='UTF-8'?>
<osm version="0.6" generator="libosmium/2.20.0">
  <node id="425110897" version="1" timestamp="2009-06-19T07:39:39Z" uid="38528" user="acrosscanadatrails" changeset="1561993" lat="48.4404976" lon="-123.5110997">
    <tag k="amenity" v="restaurant"/>
    <tag k="cuisine" v="regional"/>
    <tag k="name" v="Tim Hortons"/>
  </node>
  <node id="425110897" version="2" timestamp="2010-12-20T00:19:49Z" uid="307202" user="alester" changeset="6712126" lat="48.4404976" lon="-123.5110997">
    <tag k="amenity" v="restaurant"/>
    <tag k="cuisine" v="regional"/>
    <tag k="name" v="Tim Hortons"/>
  </node>
  <node id="425110900" version="1" timestamp="2009-06-19T07:39:39Z" uid="38528" user="acrosscanadatrails" changeset="1561993" lat="48.411402" lon="-123.5167592">
    <tag k="highway" v="bus_stop"/>
    <tag k="name" v="Desmond Trolley Stop"/>
    <tag k="operator" v="City of Langford"/>
  </node>
  <node id="425110900" version="2" timestamp="2012-01-31T11:22:25Z" uid="147510" user="woodpeck_fixbot" changeset="10548167" lat="48.411402" lon="-123.5167592"/>
  <node id="425110904" version="1" timestamp="2009-06-19T07:39:39Z" uid="38528" user="acrosscanadatrails" changeset="1561993" lat="48.4090867" lon="-123.5376712">
    <tag k="highway" v="bus_stop"/>
    <tag k="name" v="Wild Ridge Park Trolley Stop"/>
    <tag k="operator" v="City of Langford"/>
  </node>
  <node id="425110904" version="2" timestamp="2012-01-31T11:22:25Z" uid="147510" user="woodpeck_fixbot" changeset="10548167" lat="48.4090867" lon="-123.5376712"/>
  <node id="425110911" version="1" timestamp="2009-06-19T07:39:39Z" uid="38528" user="acrosscanadatrails" changeset="1561993" lat="48.42286" lon="-123.5329243">
    <tag k="highway" v="bus_stop"/>
    <tag k="name" v="Flatman Trolley Stop"/>
    <tag k="operator" v="City of Langford"/>
  </node>
  <node id="425110911" version="2" timestamp="2012-01-31T11:22:26Z" uid="147510" user="woodpeck_fixbot" changeset="10548167" lat="48.42286" lon="-123.5329243"/>
  <node id="425110912" version="1" timestamp="2009-06-19T07:39:40Z" uid="38528" user="acrosscanadatrails" changeset="1561993" lat="48.4275557" lon="-123.5302618">
    <tag k="highway" v="bus_stop"/>
    <tag k="name" v="Acadian Trolley Stop"/>
    <tag k="operator" v="City of Langford"/>
  </node>
  <node id="425110912" version="2" timestamp="2012-01-31T11:22:26Z" uid="147510" user="woodpeck_fixbot" changeset="10548167" lat="48.4275557" lon="-123.5302618"/>
  <node id="425110917" version="1" timestamp="2009-06-19T07:39:40Z" uid="38528" user="acrosscanadatrails" changeset="1561993" lat="48.4408408" lon="-123.5086534">
    <tag k="highway" v="bus_stop"/>
    <tag k="name" v="West Shore Town Centre Trolley Stop"/>
    <tag k="operator" v="City of Langford"/>
  </node>
  <node id="425110917" version="2" timestamp="2012-01-31T11:22:26Z" uid="147510" user="woodpeck_fixbot" changeset="10548167" lat="48.4408408" lon="-123.5086534"/>
  <node id="425118444" version="1" timestamp="2009-06-19T07:46:15Z" uid="38528" user="acrosscanadatrails" changeset="1562035" lat="48.4410077" lon="-123.4692185">
    <tag k="highway" v="bus_stop"/>
    <tag k="name" v="Colwood Corners Trolley Stop"/>
    <tag k="operator" v="City of Langford"/>
  </node>
  <node id="425118444" version="2" timestamp="2012-01-31T11:22:26Z" uid="147510" user="woodpeck_fixbot" changeset="10548167" lat="48.4410077" lon="-123.4692185"/>
  <node id="425118445" version="1" timestamp="2009-06-19T07:46:15Z" uid="38528" user="acrosscanadatrails" changeset="1562035" lat="48.443624" lon="-123.5060551">
    <tag k="highway" v="bus_stop"/>
    <tag k="name" v="Wall-Mart Trolley Stop"/>
    <tag k="operator" v="City of Langford"/>
  </node>
  <node id="425118445" version="2" timestamp="2009-07-01T04:16:59Z" uid="69593" user="Austin Henry" changeset="1697298" lat="48.443624" lon="-123.5060551">
    <tag k="highway" v="bus_stop"/>
    <tag k="name" v="Walmart Trolley Stop"/>
    <tag k="operator" v="City of Langford"/>
  </node>
  <node id="425118445" version="3" timestamp="2009-07-07T02:58:51Z" uid="69593" user="Austin Henry" changeset="1758680" lat="48.443624" lon="-123.5060551">
    <tag k="highway" v="bus_stop"/>
    <tag k="name" v="Walmart Trolley Stop"/>
    <tag k="operator" v="City of Langford"/>
  </node>
  <node id="425118445" version="4" timestamp="2012-03-14T04:30:57Z" uid="307202" user="alester" changeset="10974301" lat="48.443624" lon="-123.5060551"/>
  <node id="425118446" version="1" timestamp="2009-06-19T07:46:15Z" uid="38528" user="acrosscanadatrails" changeset="1562035" lat="48.4434231" lon="-123.5050287">
    <tag k="highway" v="bus_stop"/>
    <tag k="name" v="Wall-Mart Trolley Stop"/>
    <tag k="operator" v="City of Langford"/>
  </node>
  <node id="425118446" version="2" timestamp="2009-07-01T04:16:59Z" uid="69593" user="Austin Henry" changeset="1697298" lat="48.4434231" lon="-123.5050287">
    <tag k="highway" v="bus_stop"/>
    <tag k="name" v="Walmart Trolley Stop"/>
    <tag k="operator" v="City of Langford"/>
  </node>
  <node id="425118446" version="3" timestamp="2009-07-07T02:58:51Z" uid="69593" user="Austin Henry" changeset="1758680" lat="48.4434231" lon="-123.5050287">
    <tag k="highway" v="bus_stop"/>
    <tag k="name" v="Walmart Trolley Stop"/>
    <tag k="operator" v="City of Langford"/>
  </node>
  <node id="425118446" version="4" timestamp="2012-03-14T04:30:57Z" uid="307202" user="alester" changeset="10974301" lat="48.4434231" lon="-123.5050287"/>
</osm>
