<?xml version='1.0' encoding='UTF-8'?>
<osm version="0.6" generator="libosmium/2.20.0">
  <node id="426709846" version="1" timestamp="2009-06-20T09:33:22Z" uid="20587" user="balrog-kun" changeset="1572700" lat="52.2210293" lon="21.0091581">
    <tag k="historic" v="memorial"/>
  </node>
  <node id="426709847" version="1" timestamp="2009-06-20T09:33:22Z" uid="20587" user="balrog-kun" changeset="1572700" lat="52.2197587" lon="21.0107558">
    <tag k="historic" v="memorial"/>
  </node>
  <node id="426709848" version="1" timestamp="2009-06-20T09:33:22Z" uid="20587" user="balrog-kun" changeset="1572700" lat="52.2208534" lon="21.011156">
    <tag k="amenity" v="fast_food"/>
    <tag k="cuisine" v="hotdog"/>
    <tag k="name" v="QuickPoint"/>
  </node>
  <node id="426709849" version="1" timestamp="2009-06-20T09:33:22Z" uid="20587" user="balrog-kun" changeset="1572700" lat="52.2213936" lon="21.0104113">
    <tag k="amenity" v="fast_food"/>
    <tag k="cuisine" v="kebab"/>
    <tag k="name" v="Qeen Turecki Kebab"/>
  </node>
  <node id="426709850" version="1" timestamp="2009-06-20T09:33:22Z" uid="20587" user="balrog-kun" changeset="1572700" lat="52.2216478" lon="21.0100074">
    <tag k="amenity" v="restaurant"/>
    <tag k="cuisine" v="pizza"/>
    <tag k="name" v="Pizza Przy Politechnice"/>
  </node>
  <node id="426709851" version="1" timestamp="2009-06-20T09:33:22Z" uid="20587" user="balrog-kun" changeset="1572700" lat="52.2219247" lon="21.009611">
    <tag k="amenity" v="cafe"/>
    <tag k="name" v="Café Drukarnia"/>
  </node>
  <node id="426709852" version="1" timestamp="2009-06-20T09:33:22Z" uid="20587" user="balrog-kun" changeset="1572700" lat="52.2205151" lon="21.0117077">
    <tag k="amenity" v="post_box"/>
  </node>
  <node id="426709852" version="2" timestamp="2011-06-18T06:05:24Z" uid="20587" user="balrog-kun" changeset="8470341" lat="52.220519" lon="21.0116221">
    <tag k="amenity" v="post_box"/>
  </node>
  <node id="426709853" version="1" timestamp="2009-06-20T09:33:22Z" uid="20587" user="balrog-kun" changeset="1572700" lat="52.2205207" lon="21.0120226">
    <tag k="amenity" v="fast_food"/>
  </node>
  <node id="426709853" version="2" timestamp="2010-05-31T21:17:05Z" uid="88516" user="mateuszzz88" changeset="4868619" lat="52.220426" lon="21.0120336">
    <tag k="amenity" v="fast_food"/>
    <tag k="cuisine" v="kebab"/>
    <tag k="hours" v="Mo-Fr 09:00-22:00; Sat 11:00-19:00"/>
    <tag k="name" v="Pita"/>
  </node>
  <node id="426709853" version="3" timestamp="2010-06-01T09:21:20Z" uid="88516" user="mateuszzz88" changeset="4872997" lat="52.220426" lon="21.0120336">
    <tag k="amenity" v="fast_food"/>
    <tag k="cuisine" v="kebab"/>
    <tag k="name" v="Pita"/>
    <tag k="opening_hours" v="Mo-Fr 09:00-22:00; Sat 11:00-19:00"/>
  </node>
  <node id="426709854" version="1" timestamp="2009-06-20T09:33:23Z" uid="20587" user="balrog-kun" changeset="1572700" lat="52.220359" lon="21.0119995">
    <tag k="shop" v="grocery"/>
  </node>
  <node id="426709854" version="2" timestamp="2010-05-31T21:17:05Z" uid="88516" user="mateuszzz88" changeset="4868619" lat="52.2204706" lon="21.0118394">
    <tag k="shop" v="grocery"/>
  </node>
  <node id="426709854" version="3" timestamp="2011-06-18T06:05:15Z" uid="20587" user="balrog-kun" changeset="8470341" lat="52.2204554" lon="21.011682">
    <tag k="shop" v="grocery"/>
  </node>
  <node id="426709855" version="1" timestamp="2009-06-20T09:33:23Z" uid="20587" user="balrog-kun" changeset="1572700" lat="52.2204174" lon="21.0133183">
    <tag k="amenity" v="fast_food"/>
    <tag k="cuisine" v="kebab"/>
  </node>
  <node id="426709855" version="2" timestamp="2009-11-28T08:27:31Z" uid="20587" user="balrog-kun" changeset="3234082" lat="52.2204174" lon="21.0133183">
    <tag k="amenity" v="fast_food"/>
    <tag k="cuisine" v="kebab"/>
  </node>
  <node id="426709858" version="1" timestamp="2009-06-20T09:33:23Z" uid="20587" user="balrog-kun" changeset="1572700" lat="52.2220646" lon="21.0094643">
    <tag k="name" v="Copy General"/>
    <tag k="operator" v="Copy General"/>
    <tag k="shop" v="printing"/>
  </node>
  <node id="426709858" version="2" timestamp="2012-02-16T12:10:07Z" uid="441027" user="muzzy" changeset="10701063" lat="52.2220646" lon="21.0094643">
    <tag k="addr:city" v="Warszawa"/>
    <tag k="addr:country" v="PL"/>
    <tag k="addr:housenumber" v="16"/>
    <tag k="addr:postcode" v="00-666"/>
    <tag k="addr:street" v="Stanisława Noakowskiego"/>
    <tag k="contact:email" v="noakowskiego@copygeneral.pl"/>
    <tag k="contact:phone" v="+48 22 6216388"/>
    <tag k="contact:website" v="http://www.copygeneral.pl/"/>
    <tag k="name" v="Copy General"/>
    <tag k="note" v="TODO: fix position"/>
    <tag k="opening_hours" v="Mo-Fr 08:00-16:00"/>
    <tag k="operator" v="Copy General"/>
    <tag k="shop" v="copyshop"/>
  </node>
</osm>
