<?xml version='1.0' encoding='UTF-8'?>
<osm version="0.6" generator="libosmium/2.20.0">
  <node id="427833604" version="2" timestamp="2010-06-12T10:15:17Z" uid="151899" user="Bikeman2000" changeset="4969040" lat="49.7434236" lon="11.3741257"/>
  <node id="427833604" version="3" timestamp="2012-02-22T16:33:59Z" uid="89943" user="Bengatzer" changeset="10760701" lat="49.7436229" lon="11.3738594"/>
  <node id="427834742" version="4" timestamp="2010-04-29T13:01:21Z" uid="4467" user="Rosscoe" changeset="4557761" lat="-38.0643984" lon="145.3143613">
    <tag k="direction" v="clockwise"/>
    <tag k="highway" v="mini_roundabout"/>
  </node>
  <node id="427834758" version="2" timestamp="2010-04-29T13:01:21Z" uid="4467" user="Rosscoe" changeset="4557761" lat="-38.0647957" lon="145.3133515"/>
  <node id="427834759" version="2" timestamp="2010-04-29T13:01:19Z" uid="4467" user="Rosscoe" changeset="4557761" lat="-38.0650034" lon="145.3134946"/>
  <node id="427834831" version="3" timestamp="2010-05-02T02:30:48Z" uid="4467" user="Rosscoe" changeset="4580889" lat="-38.0619282" lon="145.3202936"/>
  <node id="427834833" version="2" timestamp="2010-05-02T02:30:47Z" uid="4467" user="Rosscoe" changeset="4580889" lat="-38.0616724" lon="145.3189146"/>
  <node id="427834869" version="4" timestamp="2010-05-02T02:30:49Z" uid="4467" user="Rosscoe" changeset="4580889" lat="-38.0644956" lon="145.3188384">
    <tag k="direction" v="clockwise"/>
    <tag k="highway" v="mini_roundabout"/>
    <tag k="source" v="nearmap"/>
  </node>
  <node id="427834870" version="2" timestamp="2010-05-02T02:30:49Z" uid="4467" user="Rosscoe" changeset="4580889" lat="-38.0647208" lon="145.3204298"/>
  <node id="427834871" version="2" timestamp="2010-05-02T02:30:48Z" uid="4467" user="Rosscoe" changeset="4580889" lat="-38.0650171" lon="145.321311"/>
  <node id="427834873" version="2" timestamp="2010-05-02T02:30:47Z" uid="4467" user="Rosscoe" changeset="4580889" lat="-38.0634328" lon="145.320271"/>
  <node id="427834874" version="2" timestamp="2010-05-02T02:30:48Z" uid="4467" user="Rosscoe" changeset="4580889" lat="-38.0641033" lon="145.3209796"/>
  <node id="427834875" version="3" timestamp="2010-05-02T02:30:49Z" uid="4467" user="Rosscoe" changeset="4580889" lat="-38.0644673" lon="145.3216016">
    <tag k="highway" v="mini_roundabout"/>
    <tag k="source" v="nearmap"/>
  </node>
  <node id="427834890" version="2" timestamp="2010-05-02T02:30:49Z" uid="4467" user="Rosscoe" changeset="4580889" lat="-38.0646534" lon="145.3214284"/>
  <node id="427834891" version="4" timestamp="2010-05-02T02:30:48Z" uid="4467" user="Rosscoe" changeset="4580889" lat="-38.064224" lon="145.3218334"/>
  <node id="427834904" version="2" timestamp="2010-05-02T02:30:48Z" uid="4467" user="Rosscoe" changeset="4580889" lat="-38.0652521" lon="145.3186281"/>
  <node id="427834905" version="2" timestamp="2010-05-02T02:30:47Z" uid="4467" user="Rosscoe" changeset="4580889" lat="-38.0614785" lon="145.3223925"/>
  <node id="427834911" version="4" timestamp="2010-05-02T02:30:49Z" uid="4467" user="Rosscoe" changeset="4580889" lat="-38.0640741" lon="145.3218097"/>
  <node id="427834912" version="4" timestamp="2010-05-02T02:30:49Z" uid="4467" user="Rosscoe" changeset="4580889" lat="-38.0639564" lon="145.3219264"/>
  <node id="427836735" version="1" timestamp="2009-06-21T23:42:17Z" uid="36809" user="pfoten_weg_!_" changeset="1589464" lat="48.085576" lon="11.505771">
    <tag k="barrier" v="bollard"/>
    <tag k="created_by" v="RambaZamba"/>
    <tag k="foot" v="yes"/>
    <tag k="source" v="survey"/>
  </node>
  <node id="427836735" version="2" timestamp="2009-06-21T23:53:00Z" uid="36809" user="pfoten_weg_!_" changeset="1589495" lat="48.085576" lon="11.505771">
    <tag k="barrier" v="bollard"/>
    <tag k="created_by" v="RambaZamba"/>
    <tag k="foot" v="yes"/>
    <tag k="source" v="survey"/>
  </node>
  <node id="427836736" version="1" timestamp="2009-06-21T23:42:17Z" uid="36809" user="pfoten_weg_!_" changeset="1589464" lat="48.085237" lon="11.505615">
    <tag k="barrier" v="bollard"/>
    <tag k="created_by" v="RambaZamba"/>
    <tag k="foot" v="yes"/>
    <tag k="source" v="survey"/>
  </node>
  <node id="427836736" version="2" timestamp="2009-06-21T23:52:59Z" uid="36809" user="pfoten_weg_!_" changeset="1589495" lat="48.085237" lon="11.505615">
    <tag k="barrier" v="bollard"/>
    <tag k="created_by" v="RambaZamba"/>
    <tag k="foot" v="yes"/>
    <tag k="source" v="survey"/>
  </node>
  <node id="427836737" version="1" timestamp="2009-06-21T23:42:18Z" uid="36809" user="pfoten_weg_!_" changeset="1589464" lat="48.084628" lon="11.504539">
    <tag k="barrier" v="bollard"/>
    <tag k="created_by" v="RambaZamba"/>
    <tag k="foot" v="yes"/>
    <tag k="source" v="survey"/>
  </node>
  <node id="427836737" version="2" timestamp="2009-06-21T23:52:58Z" uid="36809" user="pfoten_weg_!_" changeset="1589495" lat="48.084628" lon="11.504539">
    <tag k="barrier" v="bollard"/>
    <tag k="created_by" v="RambaZamba"/>
    <tag k="foot" v="yes"/>
    <tag k="source" v="survey"/>
  </node>
  <node id="427836738" version="1" timestamp="2009-06-21T23:42:18Z" uid="36809" user="pfoten_weg_!_" changeset="1589464" lat="48.084368" lon="11.505634">
    <tag k="barrier" v="bollard"/>
    <tag k="created_by" v="RambaZamba"/>
    <tag k="foot" v="yes"/>
    <tag k="source" v="survey"/>
  </node>
  <node id="427836738" version="2" timestamp="2009-06-21T23:52:59Z" uid="36809" user="pfoten_weg_!_" changeset="1589495" lat="48.084368" lon="11.505634">
    <tag k="barrier" v="bollard"/>
    <tag k="created_by" v="RambaZamba"/>
    <tag k="foot" v="yes"/>
    <tag k="source" v="survey"/>
  </node>
  <node id="427836739" version="1" timestamp="2009-06-21T23:42:18Z" uid="36809" user="pfoten_weg_!_" changeset="1589464" lat="48.084944" lon="11.50545">
    <tag k="barrier" v="bollard"/>
    <tag k="created_by" v="RambaZamba"/>
    <tag k="foot" v="yes"/>
    <tag k="source" v="survey"/>
  </node>
  <node id="427836739" version="2" timestamp="2009-06-21T23:52:58Z" uid="36809" user="pfoten_weg_!_" changeset="1589495" lat="48.084944" lon="11.50545">
    <tag k="barrier" v="bollard"/>
    <tag k="created_by" v="RambaZamba"/>
    <tag k="foot" v="yes"/>
    <tag k="source" v="survey"/>
  </node>
  <node id="427836740" version="1" timestamp="2009-06-21T23:42:18Z" uid="36809" user="pfoten_weg_!_" changeset="1589464" lat="48.084943" lon="11.50454">
    <tag k="barrier" v="bollard"/>
    <tag k="created_by" v="RambaZamba"/>
    <tag k="foot" v="yes"/>
    <tag k="source" v="survey"/>
  </node>
  <node id="427836740" version="2" timestamp="2009-06-21T23:52:59Z" uid="36809" user="pfoten_weg_!_" changeset="1589495" lat="48.084943" lon="11.50454">
    <tag k="barrier" v="bollard"/>
    <tag k="created_by" v="RambaZamba"/>
    <tag k="foot" v="yes"/>
    <tag k="source" v="survey"/>
  </node>
  <node id="427837207" version="1" timestamp="2009-06-21T23:52:06Z" uid="36809" user="pfoten_weg_!_" changeset="1589495" lat="48.0842331" lon="11.5043">
    <tag k="addr:city" v="München"/>
    <tag k="addr:country" v="DE"/>
    <tag k="addr:housenumber" v="6"/>
    <tag k="addr:postcode" v="81477"/>
    <tag k="addr:street" v="Paul-Klee-Straße"/>
    <tag k="created_by" v="RambaZamba"/>
    <tag k="name" v="6"/>
    <tag k="source" v="survey"/>
  </node>
  <node id="427837207" version="2" timestamp="2009-07-14T16:16:21Z" uid="36809" user="pfoten_weg_!_" changeset="1828190" lat="48.0842331" lon="11.5043">
    <tag k="addr:city" v="München"/>
    <tag k="addr:country" v="DE"/>
    <tag k="addr:housenumber" v="6"/>
    <tag k="addr:postcode" v="81477"/>
    <tag k="addr:street" v="Paul-Klee-Straße"/>
    <tag k="discovered_by" v="RambaZamba"/>
    <tag k="name" v="6"/>
    <tag k="source" v="survey"/>
  </node>
  <node id="427837207" version="3" timestamp="2009-08-12T14:06:22Z" uid="156995" user="HampelZamba" changeset="2119076" lat="48.0842331" lon="11.5043">
    <tag k="addr:city" v="München"/>
    <tag k="addr:country" v="DE"/>
    <tag k="addr:housenumber" v="6"/>
    <tag k="addr:postcode" v="81477"/>
    <tag k="addr:street" v="Paul-Klee-Straße"/>
    <tag k="name" v="6"/>
    <tag k="source" v="survey"/>
  </node>
  <node id="427837207" version="4" timestamp="2009-08-19T00:51:01Z" uid="36809" user="pfoten_weg_!_" changeset="2196288" lat="48.0842331" lon="11.5043">
    <tag k="addr:city" v="München"/>
    <tag k="addr:country" v="DE"/>
    <tag k="addr:housenumber" v="6"/>
    <tag k="addr:postcode" v="81477"/>
    <tag k="addr:street" v="Paul-Klee-Straße"/>
    <tag k="name" v="6"/>
    <tag k="source" v="survey"/>
  </node>
  <node id="427837208" version="1" timestamp="2009-06-21T23:52:07Z" uid="36809" user="pfoten_weg_!_" changeset="1589495" lat="48.0842316" lon="11.5045">
    <tag k="addr:city" v="München"/>
    <tag k="addr:country" v="DE"/>
    <tag k="addr:housenumber" v="8"/>
    <tag k="addr:postcode" v="81477"/>
    <tag k="addr:street" v="Paul-Klee-Straße"/>
    <tag k="created_by" v="RambaZamba"/>
    <tag k="name" v="8"/>
    <tag k="source" v="survey"/>
  </node>
  <node id="427837208" version="2" timestamp="2009-07-14T16:16:19Z" uid="36809" user="pfoten_weg_!_" changeset="1828190" lat="48.0842316" lon="11.5045">
    <tag k="addr:city" v="München"/>
    <tag k="addr:country" v="DE"/>
    <tag k="addr:housenumber" v="8"/>
    <tag k="addr:postcode" v="81477"/>
    <tag k="addr:street" v="Paul-Klee-Straße"/>
    <tag k="discovered_by" v="RambaZamba"/>
    <tag k="name" v="8"/>
    <tag k="source" v="survey"/>
  </node>
  <node id="427837208" version="3" timestamp="2009-08-12T14:06:22Z" uid="156995" user="HampelZamba" changeset="2119076" lat="48.0842316" lon="11.5045">
    <tag k="addr:city" v="München"/>
    <tag k="addr:country" v="DE"/>
    <tag k="addr:housenumber" v="8"/>
    <tag k="addr:postcode" v="81477"/>
    <tag k="addr:street" v="Paul-Klee-Straße"/>
    <tag k="name" v="8"/>
    <tag k="source" v="survey"/>
  </node>
  <node id="427837208" version="4" timestamp="2009-08-19T00:51:03Z" uid="36809" user="pfoten_weg_!_" changeset="2196288" lat="48.0842316" lon="11.5045">
    <tag k="addr:city" v="München"/>
    <tag k="addr:country" v="DE"/>
    <tag k="addr:housenumber" v="8"/>
    <tag k="addr:postcode" v="81477"/>
    <tag k="addr:street" v="Paul-Klee-Straße"/>
    <tag k="name" v="8"/>
    <tag k="source" v="survey"/>
  </node>
  <node id="427837209" version="1" timestamp="2009-06-21T23:52:07Z" uid="36809" user="pfoten_weg_!_" changeset="1589495" lat="48.08423" lon="11.504709">
    <tag k="addr:city" v="München"/>
    <tag k="addr:country" v="DE"/>
    <tag k="addr:housenumber" v="10"/>
    <tag k="addr:postcode" v="81477"/>
    <tag k="addr:street" v="Paul-Klee-Straße"/>
    <tag k="created_by" v="RambaZamba"/>
    <tag k="name" v="10"/>
    <tag k="source" v="survey"/>
  </node>
  <node id="427837209" version="2" timestamp="2009-07-14T16:16:19Z" uid="36809" user="pfoten_weg_!_" changeset="1828190" lat="48.08423" lon="11.504709">
    <tag k="addr:city" v="München"/>
    <tag k="addr:country" v="DE"/>
    <tag k="addr:housenumber" v="10"/>
    <tag k="addr:postcode" v="81477"/>
    <tag k="addr:street" v="Paul-Klee-Straße"/>
    <tag k="discovered_by" v="RambaZamba"/>
    <tag k="name" v="10"/>
    <tag k="source" v="survey"/>
  </node>
  <node id="427837209" version="3" timestamp="2009-08-12T14:06:22Z" uid="156995" user="HampelZamba" changeset="2119076" lat="48.08423" lon="11.504709">
    <tag k="addr:city" v="München"/>
    <tag k="addr:country" v="DE"/>
    <tag k="addr:housenumber" v="10"/>
    <tag k="addr:postcode" v="81477"/>
    <tag k="addr:street" v="Paul-Klee-Straße"/>
    <tag k="name" v="10"/>
    <tag k="source" v="survey"/>
  </node>
  <node id="427837209" version="4" timestamp="2009-08-19T00:51:03Z" uid="36809" user="pfoten_weg_!_" changeset="2196288" lat="48.08423" lon="11.504709">
    <tag k="addr:city" v="München"/>
    <tag k="addr:country" v="DE"/>
    <tag k="addr:housenumber" v="10"/>
    <tag k="addr:postcode" v="81477"/>
    <tag k="addr:street" v="Paul-Klee-Straße"/>
    <tag k="name" v="10"/>
    <tag k="source" v="survey"/>
  </node>
  <node id="427837210" version="1" timestamp="2009-06-21T23:52:08Z" uid="36809" user="pfoten_weg_!_" changeset="1589495" lat="48.0841895" lon="11.5053389">
    <tag k="addr:city" v="München"/>
    <tag k="addr:country" v="DE"/>
    <tag k="addr:housenumber" v="26"/>
    <tag k="addr:postcode" v="81477"/>
    <tag k="addr:street" v="Paul-Klee-Straße"/>
    <tag k="created_by" v="RambaZamba"/>
    <tag k="name" v="26"/>
    <tag k="source" v="survey"/>
  </node>
  <node id="427837210" version="2" timestamp="2009-07-14T16:16:20Z" uid="36809" user="pfoten_weg_!_" changeset="1828190" lat="48.0841895" lon="11.5053389">
    <tag k="addr:city" v="München"/>
    <tag k="addr:country" v="DE"/>
    <tag k="addr:housenumber" v="26"/>
    <tag k="addr:postcode" v="81477"/>
    <tag k="addr:street" v="Paul-Klee-Straße"/>
    <tag k="discovered_by" v="RambaZamba"/>
    <tag k="name" v="26"/>
    <tag k="source" v="survey"/>
  </node>
  <node id="427837210" version="3" timestamp="2009-08-12T14:06:22Z" uid="156995" user="HampelZamba" changeset="2119076" lat="48.0841895" lon="11.5053389">
    <tag k="addr:city" v="München"/>
    <tag k="addr:country" v="DE"/>
    <tag k="addr:housenumber" v="26"/>
    <tag k="addr:postcode" v="81477"/>
    <tag k="addr:street" v="Paul-Klee-Straße"/>
    <tag k="name" v="26"/>
    <tag k="source" v="survey"/>
  </node>
  <node id="427837210" version="4" timestamp="2009-08-19T00:51:02Z" uid="36809" user="pfoten_weg_!_" changeset="2196288" lat="48.0841895" lon="11.5053389">
    <tag k="addr:city" v="München"/>
    <tag k="addr:country" v="DE"/>
    <tag k="addr:housenumber" v="26"/>
    <tag k="addr:postcode" v="81477"/>
    <tag k="addr:street" v="Paul-Klee-Straße"/>
    <tag k="name" v="26"/>
    <tag k="source" v="survey"/>
  </node>
  <node id="427837211" version="1" timestamp="2009-06-21T23:52:08Z" uid="36809" user="pfoten_weg_!_" changeset="1589495" lat="48.0841895" lon="11.5054139">
    <tag k="addr:city" v="München"/>
    <tag k="addr:country" v="DE"/>
    <tag k="addr:housenumber" v="28"/>
    <tag k="addr:postcode" v="81477"/>
    <tag k="addr:street" v="Paul-Klee-Straße"/>
    <tag k="created_by" v="RambaZamba"/>
    <tag k="name" v="28"/>
    <tag k="source" v="survey"/>
  </node>
  <node id="427837211" version="2" timestamp="2009-07-14T16:16:20Z" uid="36809" user="pfoten_weg_!_" changeset="1828190" lat="48.0841895" lon="11.5054139">
    <tag k="addr:city" v="München"/>
    <tag k="addr:country" v="DE"/>
    <tag k="addr:housenumber" v="28"/>
    <tag k="addr:postcode" v="81477"/>
    <tag k="addr:street" v="Paul-Klee-Straße"/>
    <tag k="discovered_by" v="RambaZamba"/>
    <tag k="name" v="28"/>
    <tag k="source" v="survey"/>
  </node>
  <node id="427837211" version="3" timestamp="2009-08-12T14:06:22Z" uid="156995" user="HampelZamba" changeset="2119076" lat="48.0841895" lon="11.5054139">
    <tag k="addr:city" v="München"/>
    <tag k="addr:country" v="DE"/>
    <tag k="addr:housenumber" v="28"/>
    <tag k="addr:postcode" v="81477"/>
    <tag k="addr:street" v="Paul-Klee-Straße"/>
    <tag k="name" v="28"/>
    <tag k="source" v="survey"/>
  </node>
  <node id="427837211" version="4" timestamp="2009-08-19T00:51:03Z" uid="36809" user="pfoten_weg_!_" changeset="2196288" lat="48.0841895" lon="11.5054139">
    <tag k="addr:city" v="München"/>
    <tag k="addr:country" v="DE"/>
    <tag k="addr:housenumber" v="28"/>
    <tag k="addr:postcode" v="81477"/>
    <tag k="addr:street" v="Paul-Klee-Straße"/>
    <tag k="name" v="28"/>
    <tag k="source" v="survey"/>
  </node>
  <node id="427837212" version="1" timestamp="2009-06-21T23:52:08Z" uid="36809" user="pfoten_weg_!_" changeset="1589495" lat="48.0841894" lon="11.5054819">
    <tag k="addr:city" v="München"/>
    <tag k="addr:country" v="DE"/>
    <tag k="addr:housenumber" v="30"/>
    <tag k="addr:postcode" v="81477"/>
    <tag k="addr:street" v="Paul-Klee-Straße"/>
    <tag k="created_by" v="RambaZamba"/>
    <tag k="name" v="30"/>
    <tag k="source" v="survey"/>
  </node>
  <node id="427837212" version="2" timestamp="2009-07-14T16:16:20Z" uid="36809" user="pfoten_weg_!_" changeset="1828190" lat="48.0841894" lon="11.5054819">
    <tag k="addr:city" v="München"/>
    <tag k="addr:country" v="DE"/>
    <tag k="addr:housenumber" v="30"/>
    <tag k="addr:postcode" v="81477"/>
    <tag k="addr:street" v="Paul-Klee-Straße"/>
    <tag k="discovered_by" v="RambaZamba"/>
    <tag k="name" v="30"/>
    <tag k="source" v="survey"/>
  </node>
  <node id="427837212" version="3" timestamp="2009-08-12T14:06:22Z" uid="156995" user="HampelZamba" changeset="2119076" lat="48.0841894" lon="11.5054819">
    <tag k="addr:city" v="München"/>
    <tag k="addr:country" v="DE"/>
    <tag k="addr:housenumber" v="30"/>
    <tag k="addr:postcode" v="81477"/>
    <tag k="addr:street" v="Paul-Klee-Straße"/>
    <tag k="name" v="30"/>
    <tag k="source" v="survey"/>
  </node>
  <node id="427837212" version="4" timestamp="2009-08-19T00:51:02Z" uid="36809" user="pfoten_weg_!_" changeset="2196288" lat="48.0841894" lon="11.5054819">
    <tag k="addr:city" v="München"/>
    <tag k="addr:country" v="DE"/>
    <tag k="addr:housenumber" v="30"/>
    <tag k="addr:postcode" v="81477"/>
    <tag k="addr:street" v="Paul-Klee-Straße"/>
    <tag k="name" v="30"/>
    <tag k="source" v="survey"/>
  </node>
  <node id="427837213" version="1" timestamp="2009-06-21T23:52:09Z" uid="36809" user="pfoten_weg_!_" changeset="1589495" lat="48.0841894" lon="11.505547">
    <tag k="addr:city" v="München"/>
    <tag k="addr:country" v="DE"/>
    <tag k="addr:housenumber" v="32"/>
    <tag k="addr:postcode" v="81477"/>
    <tag k="addr:street" v="Paul-Klee-Straße"/>
    <tag k="created_by" v="RambaZamba"/>
    <tag k="name" v="32"/>
    <tag k="source" v="survey"/>
  </node>
  <node id="427837213" version="2" timestamp="2009-07-14T16:16:20Z" uid="36809" user="pfoten_weg_!_" changeset="1828190" lat="48.0841894" lon="11.505547">
    <tag k="addr:city" v="München"/>
    <tag k="addr:country" v="DE"/>
    <tag k="addr:housenumber" v="32"/>
    <tag k="addr:postcode" v="81477"/>
    <tag k="addr:street" v="Paul-Klee-Straße"/>
    <tag k="discovered_by" v="RambaZamba"/>
    <tag k="name" v="32"/>
    <tag k="source" v="survey"/>
  </node>
  <node id="427837213" version="3" timestamp="2009-08-12T14:06:22Z" uid="156995" user="HampelZamba" changeset="2119076" lat="48.0841894" lon="11.505547">
    <tag k="addr:city" v="München"/>
    <tag k="addr:country" v="DE"/>
    <tag k="addr:housenumber" v="32"/>
    <tag k="addr:postcode" v="81477"/>
    <tag k="addr:street" v="Paul-Klee-Straße"/>
    <tag k="name" v="32"/>
    <tag k="source" v="survey"/>
  </node>
  <node id="427837213" version="4" timestamp="2009-08-19T00:51:02Z" uid="36809" user="pfoten_weg_!_" changeset="2196288" lat="48.0841894" lon="11.505547">
    <tag k="addr:city" v="München"/>
    <tag k="addr:country" v="DE"/>
    <tag k="addr:housenumber" v="32"/>
    <tag k="addr:postcode" v="81477"/>
    <tag k="addr:street" v="Paul-Klee-Straße"/>
    <tag k="name" v="32"/>
    <tag k="source" v="survey"/>
  </node>
  <node id="427837214" version="1" timestamp="2009-06-21T23:52:09Z" uid="36809" user="pfoten_weg_!_" changeset="1589495" lat="48.0841894" lon="11.505627">
    <tag k="addr:city" v="München"/>
    <tag k="addr:country" v="DE"/>
    <tag k="addr:housenumber" v="34"/>
    <tag k="addr:postcode" v="81477"/>
    <tag k="addr:street" v="Paul-Klee-Straße"/>
    <tag k="created_by" v="RambaZamba"/>
    <tag k="name" v="34"/>
    <tag k="source" v="survey"/>
  </node>
  <node id="427837214" version="2" timestamp="2009-07-14T16:16:21Z" uid="36809" user="pfoten_weg_!_" changeset="1828190" lat="48.0841894" lon="11.505627">
    <tag k="addr:city" v="München"/>
    <tag k="addr:country" v="DE"/>
    <tag k="addr:housenumber" v="34"/>
    <tag k="addr:postcode" v="81477"/>
    <tag k="addr:street" v="Paul-Klee-Straße"/>
    <tag k="discovered_by" v="RambaZamba"/>
    <tag k="name" v="34"/>
    <tag k="source" v="survey"/>
  </node>
  <node id="427837214" version="3" timestamp="2009-08-12T14:06:22Z" uid="156995" user="HampelZamba" changeset="2119076" lat="48.0841894" lon="11.505627">
    <tag k="addr:city" v="München"/>
    <tag k="addr:country" v="DE"/>
    <tag k="addr:housenumber" v="34"/>
    <tag k="addr:postcode" v="81477"/>
    <tag k="addr:street" v="Paul-Klee-Straße"/>
    <tag k="name" v="34"/>
    <tag k="source" v="survey"/>
  </node>
  <node id="427837214" version="4" timestamp="2009-08-19T00:51:01Z" uid="36809" user="pfoten_weg_!_" changeset="2196288" lat="48.0841894" lon="11.505627">
    <tag k="addr:city" v="München"/>
    <tag k="addr:country" v="DE"/>
    <tag k="addr:housenumber" v="34"/>
    <tag k="addr:postcode" v="81477"/>
    <tag k="addr:street" v="Paul-Klee-Straße"/>
    <tag k="name" v="34"/>
    <tag k="source" v="survey"/>
  </node>
  <node id="427837215" version="1" timestamp="2009-06-21T23:52:10Z" uid="36809" user="pfoten_weg_!_" changeset="1589495" lat="48.0841893" lon="11.505704">
    <tag k="addr:city" v="München"/>
    <tag k="addr:country" v="DE"/>
    <tag k="addr:housenumber" v="36"/>
    <tag k="addr:postcode" v="81477"/>
    <tag k="addr:street" v="Paul-Klee-Straße"/>
    <tag k="created_by" v="RambaZamba"/>
    <tag k="name" v="36"/>
    <tag k="source" v="survey"/>
  </node>
  <node id="427837215" version="2" timestamp="2009-07-14T16:16:21Z" uid="36809" user="pfoten_weg_!_" changeset="1828190" lat="48.0841893" lon="11.505704">
    <tag k="addr:city" v="München"/>
    <tag k="addr:country" v="DE"/>
    <tag k="addr:housenumber" v="36"/>
    <tag k="addr:postcode" v="81477"/>
    <tag k="addr:street" v="Paul-Klee-Straße"/>
    <tag k="discovered_by" v="RambaZamba"/>
    <tag k="name" v="36"/>
    <tag k="source" v="survey"/>
  </node>
  <node id="427837215" version="3" timestamp="2009-08-12T14:06:22Z" uid="156995" user="HampelZamba" changeset="2119076" lat="48.0841893" lon="11.505704">
    <tag k="addr:city" v="München"/>
    <tag k="addr:country" v="DE"/>
    <tag k="addr:housenumber" v="36"/>
    <tag k="addr:postcode" v="81477"/>
    <tag k="addr:street" v="Paul-Klee-Straße"/>
    <tag k="name" v="36"/>
    <tag k="source" v="survey"/>
  </node>
  <node id="427837215" version="4" timestamp="2009-08-19T00:51:01Z" uid="36809" user="pfoten_weg_!_" changeset="2196288" lat="48.0841893" lon="11.505704">
    <tag k="addr:city" v="München"/>
    <tag k="addr:country" v="DE"/>
    <tag k="addr:housenumber" v="36"/>
    <tag k="addr:postcode" v="81477"/>
    <tag k="addr:street" v="Paul-Klee-Straße"/>
    <tag k="name" v="36"/>
    <tag k="source" v="survey"/>
  </node>
  <node id="427837216" version="1" timestamp="2009-06-21T23:52:10Z" uid="36809" user="pfoten_weg_!_" changeset="1589495" lat="48.0841893" lon="11.5057751">
    <tag k="addr:city" v="München"/>
    <tag k="addr:country" v="DE"/>
    <tag k="addr:housenumber" v="38"/>
    <tag k="addr:postcode" v="81477"/>
    <tag k="addr:street" v="Paul-Klee-Straße"/>
    <tag k="created_by" v="RambaZamba"/>
    <tag k="name" v="38"/>
    <tag k="source" v="survey"/>
  </node>
  <node id="427837216" version="2" timestamp="2009-07-14T16:16:28Z" uid="36809" user="pfoten_weg_!_" changeset="1828190" lat="48.0841893" lon="11.5057751">
    <tag k="addr:city" v="München"/>
    <tag k="addr:country" v="DE"/>
    <tag k="addr:housenumber" v="38"/>
    <tag k="addr:postcode" v="81477"/>
    <tag k="addr:street" v="Paul-Klee-Straße"/>
    <tag k="discovered_by" v="RambaZamba"/>
    <tag k="name" v="38"/>
    <tag k="source" v="survey"/>
  </node>
  <node id="427837216" version="3" timestamp="2009-08-12T14:06:22Z" uid="156995" user="HampelZamba" changeset="2119076" lat="48.0841893" lon="11.5057751">
    <tag k="addr:city" v="München"/>
    <tag k="addr:country" v="DE"/>
    <tag k="addr:housenumber" v="38"/>
    <tag k="addr:postcode" v="81477"/>
    <tag k="addr:street" v="Paul-Klee-Straße"/>
    <tag k="name" v="38"/>
    <tag k="source" v="survey"/>
  </node>
  <node id="427837216" version="4" timestamp="2009-08-19T00:50:57Z" uid="36809" user="pfoten_weg_!_" changeset="2196288" lat="48.0841893" lon="11.5057751">
    <tag k="addr:city" v="München"/>
    <tag k="addr:country" v="DE"/>
    <tag k="addr:housenumber" v="38"/>
    <tag k="addr:postcode" v="81477"/>
    <tag k="addr:street" v="Paul-Klee-Straße"/>
    <tag k="name" v="38"/>
    <tag k="source" v="survey"/>
  </node>
  <node id="427837217" version="1" timestamp="2009-06-21T23:52:10Z" uid="36809" user="pfoten_weg_!_" changeset="1589495" lat="48.0841892" lon="11.5059268">
    <tag k="addr:city" v="München"/>
    <tag k="addr:country" v="DE"/>
    <tag k="addr:housenumber" v="42"/>
    <tag k="addr:postcode" v="81477"/>
    <tag k="addr:street" v="Paul-Klee-Straße"/>
    <tag k="created_by" v="RambaZamba"/>
    <tag k="name" v="42"/>
    <tag k="source" v="survey"/>
  </node>
  <node id="427837217" version="2" timestamp="2009-07-14T16:16:28Z" uid="36809" user="pfoten_weg_!_" changeset="1828190" lat="48.0841892" lon="11.5059268">
    <tag k="addr:city" v="München"/>
    <tag k="addr:country" v="DE"/>
    <tag k="addr:housenumber" v="42"/>
    <tag k="addr:postcode" v="81477"/>
    <tag k="addr:street" v="Paul-Klee-Straße"/>
    <tag k="discovered_by" v="RambaZamba"/>
    <tag k="name" v="42"/>
    <tag k="source" v="survey"/>
  </node>
  <node id="427837217" version="3" timestamp="2009-08-12T14:06:23Z" uid="156995" user="HampelZamba" changeset="2119076" lat="48.0841892" lon="11.5059268">
    <tag k="addr:city" v="München"/>
    <tag k="addr:country" v="DE"/>
    <tag k="addr:housenumber" v="42"/>
    <tag k="addr:postcode" v="81477"/>
    <tag k="addr:street" v="Paul-Klee-Straße"/>
    <tag k="name" v="42"/>
    <tag k="source" v="survey"/>
  </node>
  <node id="427837217" version="4" timestamp="2009-08-19T00:50:56Z" uid="36809" user="pfoten_weg_!_" changeset="2196288" lat="48.0841892" lon="11.5059268">
    <tag k="addr:city" v="München"/>
    <tag k="addr:country" v="DE"/>
    <tag k="addr:housenumber" v="42"/>
    <tag k="addr:postcode" v="81477"/>
    <tag k="addr:street" v="Paul-Klee-Straße"/>
    <tag k="name" v="42"/>
    <tag k="source" v="survey"/>
  </node>
  <node id="427837218" version="1" timestamp="2009-06-21T23:52:11Z" uid="36809" user="pfoten_weg_!_" changeset="1589495" lat="48.0841893" lon="11.5058481">
    <tag k="addr:city" v="München"/>
    <tag k="addr:country" v="DE"/>
    <tag k="addr:housenumber" v="40"/>
    <tag k="addr:postcode" v="81477"/>
    <tag k="addr:street" v="Paul-Klee-Straße"/>
    <tag k="created_by" v="RambaZamba"/>
    <tag k="name" v="40"/>
    <tag k="source" v="survey"/>
  </node>
  <node id="427837218" version="2" timestamp="2009-07-14T16:16:27Z" uid="36809" user="pfoten_weg_!_" changeset="1828190" lat="48.0841893" lon="11.5058481">
    <tag k="addr:city" v="München"/>
    <tag k="addr:country" v="DE"/>
    <tag k="addr:housenumber" v="40"/>
    <tag k="addr:postcode" v="81477"/>
    <tag k="addr:street" v="Paul-Klee-Straße"/>
    <tag k="discovered_by" v="RambaZamba"/>
    <tag k="name" v="40"/>
    <tag k="source" v="survey"/>
  </node>
  <node id="427837218" version="3" timestamp="2009-08-12T14:06:23Z" uid="156995" user="HampelZamba" changeset="2119076" lat="48.0841893" lon="11.5058481">
    <tag k="addr:city" v="München"/>
    <tag k="addr:country" v="DE"/>
    <tag k="addr:housenumber" v="40"/>
    <tag k="addr:postcode" v="81477"/>
    <tag k="addr:street" v="Paul-Klee-Straße"/>
    <tag k="name" v="40"/>
    <tag k="source" v="survey"/>
  </node>
  <node id="427837218" version="4" timestamp="2009-08-19T00:50:57Z" uid="36809" user="pfoten_weg_!_" changeset="2196288" lat="48.0841893" lon="11.5058481">
    <tag k="addr:city" v="München"/>
    <tag k="addr:country" v="DE"/>
    <tag k="addr:housenumber" v="40"/>
    <tag k="addr:postcode" v="81477"/>
    <tag k="addr:street" v="Paul-Klee-Straße"/>
    <tag k="name" v="40"/>
    <tag k="source" v="survey"/>
  </node>
  <node id="427837219" version="1" timestamp="2009-06-21T23:52:11Z" uid="36809" user="pfoten_weg_!_" changeset="1589495" lat="48.0849473" lon="11.5058605">
    <tag k="addr:city" v="München"/>
    <tag k="addr:country" v="DE"/>
    <tag k="addr:housenumber" v="13"/>
    <tag k="addr:postcode" v="81477"/>
    <tag k="addr:street" v="Kandinskystraße"/>
    <tag k="created_by" v="RambaZamba"/>
    <tag k="name" v="13"/>
    <tag k="source" v="survey"/>
  </node>
  <node id="427837219" version="2" timestamp="2009-07-14T16:16:27Z" uid="36809" user="pfoten_weg_!_" changeset="1828190" lat="48.0849473" lon="11.5058605">
    <tag k="addr:city" v="München"/>
    <tag k="addr:country" v="DE"/>
    <tag k="addr:housenumber" v="13"/>
    <tag k="addr:postcode" v="81477"/>
    <tag k="addr:street" v="Kandinskystraße"/>
    <tag k="discovered_by" v="RambaZamba"/>
    <tag k="name" v="13"/>
    <tag k="source" v="survey"/>
  </node>
  <node id="427837219" version="3" timestamp="2009-08-12T14:06:23Z" uid="156995" user="HampelZamba" changeset="2119076" lat="48.0849473" lon="11.5058605">
    <tag k="addr:city" v="München"/>
    <tag k="addr:country" v="DE"/>
    <tag k="addr:housenumber" v="13"/>
    <tag k="addr:postcode" v="81477"/>
    <tag k="addr:street" v="Kandinskystraße"/>
    <tag k="name" v="13"/>
    <tag k="source" v="survey"/>
  </node>
  <node id="427837219" version="4" timestamp="2009-08-19T00:50:57Z" uid="36809" user="pfoten_weg_!_" changeset="2196288" lat="48.0849473" lon="11.5058605">
    <tag k="addr:city" v="München"/>
    <tag k="addr:country" v="DE"/>
    <tag k="addr:housenumber" v="13"/>
    <tag k="addr:postcode" v="81477"/>
    <tag k="addr:street" v="Kandinskystraße"/>
    <tag k="name" v="13"/>
    <tag k="source" v="survey"/>
  </node>
  <node id="427837220" version="1" timestamp="2009-06-21T23:52:12Z" uid="36809" user="pfoten_weg_!_" changeset="1589495" lat="48.084849" lon="11.505859">
    <tag k="addr:city" v="München"/>
    <tag k="addr:country" v="DE"/>
    <tag k="addr:housenumber" v="15"/>
    <tag k="addr:postcode" v="81477"/>
    <tag k="addr:street" v="Kandinskystraße"/>
    <tag k="created_by" v="RambaZamba"/>
    <tag k="name" v="15"/>
    <tag k="source" v="survey"/>
  </node>
  <node id="427837220" version="2" timestamp="2009-07-14T16:16:29Z" uid="36809" user="pfoten_weg_!_" changeset="1828190" lat="48.084849" lon="11.505859">
    <tag k="addr:city" v="München"/>
    <tag k="addr:country" v="DE"/>
    <tag k="addr:housenumber" v="15"/>
    <tag k="addr:postcode" v="81477"/>
    <tag k="addr:street" v="Kandinskystraße"/>
    <tag k="discovered_by" v="RambaZamba"/>
    <tag k="name" v="15"/>
    <tag k="source" v="survey"/>
  </node>
  <node id="427837220" version="3" timestamp="2009-08-12T14:06:23Z" uid="156995" user="HampelZamba" changeset="2119076" lat="48.084849" lon="11.505859">
    <tag k="addr:city" v="München"/>
    <tag k="addr:country" v="DE"/>
    <tag k="addr:housenumber" v="15"/>
    <tag k="addr:postcode" v="81477"/>
    <tag k="addr:street" v="Kandinskystraße"/>
    <tag k="name" v="15"/>
    <tag k="source" v="survey"/>
  </node>
  <node id="427837220" version="4" timestamp="2009-08-19T00:50:56Z" uid="36809" user="pfoten_weg_!_" changeset="2196288" lat="48.084849" lon="11.505859">
    <tag k="addr:city" v="München"/>
    <tag k="addr:country" v="DE"/>
    <tag k="addr:housenumber" v="15"/>
    <tag k="addr:postcode" v="81477"/>
    <tag k="addr:street" v="Kandinskystraße"/>
    <tag k="name" v="15"/>
    <tag k="source" v="survey"/>
  </node>
  <node id="427837221" version="1" timestamp="2009-06-21T23:52:12Z" uid="36809" user="pfoten_weg_!_" changeset="1589495" lat="48.0851241" lon="11.5058631">
    <tag k="addr:city" v="München"/>
    <tag k="addr:country" v="DE"/>
    <tag k="addr:housenumber" v="9"/>
    <tag k="addr:postcode" v="81477"/>
    <tag k="addr:street" v="Kandinskystraße"/>
    <tag k="created_by" v="RambaZamba"/>
    <tag k="name" v="9"/>
    <tag k="source" v="survey"/>
  </node>
  <node id="427837221" version="2" timestamp="2009-07-14T16:16:30Z" uid="36809" user="pfoten_weg_!_" changeset="1828190" lat="48.0851241" lon="11.5058631">
    <tag k="addr:city" v="München"/>
    <tag k="addr:country" v="DE"/>
    <tag k="addr:housenumber" v="9"/>
    <tag k="addr:postcode" v="81477"/>
    <tag k="addr:street" v="Kandinskystraße"/>
    <tag k="discovered_by" v="RambaZamba"/>
    <tag k="name" v="9"/>
    <tag k="source" v="survey"/>
  </node>
  <node id="427837221" version="3" timestamp="2009-08-12T14:06:23Z" uid="156995" user="HampelZamba" changeset="2119076" lat="48.0851241" lon="11.5058631">
    <tag k="addr:city" v="München"/>
    <tag k="addr:country" v="DE"/>
    <tag k="addr:housenumber" v="9"/>
    <tag k="addr:postcode" v="81477"/>
    <tag k="addr:street" v="Kandinskystraße"/>
    <tag k="name" v="9"/>
    <tag k="source" v="survey"/>
  </node>
  <node id="427837221" version="4" timestamp="2009-08-19T00:50:55Z" uid="36809" user="pfoten_weg_!_" changeset="2196288" lat="48.0851241" lon="11.5058631">
    <tag k="addr:city" v="München"/>
    <tag k="addr:country" v="DE"/>
    <tag k="addr:housenumber" v="9"/>
    <tag k="addr:postcode" v="81477"/>
    <tag k="addr:street" v="Kandinskystraße"/>
    <tag k="name" v="9"/>
    <tag k="source" v="survey"/>
  </node>
  <node id="427837222" version="1" timestamp="2009-06-21T23:52:12Z" uid="36809" user="pfoten_weg_!_" changeset="1589495" lat="48.0850321" lon="11.5058618">
    <tag k="addr:city" v="München"/>
    <tag k="addr:country" v="DE"/>
    <tag k="addr:housenumber" v="11"/>
    <tag k="addr:postcode" v="81477"/>
    <tag k="addr:street" v="Kandinskystraße"/>
    <tag k="created_by" v="RambaZamba"/>
    <tag k="name" v="11"/>
    <tag k="source" v="survey"/>
  </node>
  <node id="427837222" version="2" timestamp="2009-07-14T16:16:29Z" uid="36809" user="pfoten_weg_!_" changeset="1828190" lat="48.0850321" lon="11.5058618">
    <tag k="addr:city" v="München"/>
    <tag k="addr:country" v="DE"/>
    <tag k="addr:housenumber" v="11"/>
    <tag k="addr:postcode" v="81477"/>
    <tag k="addr:street" v="Kandinskystraße"/>
    <tag k="discovered_by" v="RambaZamba"/>
    <tag k="name" v="11"/>
    <tag k="source" v="survey"/>
  </node>
  <node id="427837222" version="3" timestamp="2009-08-12T14:06:23Z" uid="156995" user="HampelZamba" changeset="2119076" lat="48.0850321" lon="11.5058618">
    <tag k="addr:city" v="München"/>
    <tag k="addr:country" v="DE"/>
    <tag k="addr:housenumber" v="11"/>
    <tag k="addr:postcode" v="81477"/>
    <tag k="addr:street" v="Kandinskystraße"/>
    <tag k="name" v="11"/>
    <tag k="source" v="survey"/>
  </node>
  <node id="427837222" version="4" timestamp="2009-08-19T00:50:56Z" uid="36809" user="pfoten_weg_!_" changeset="2196288" lat="48.0850321" lon="11.5058618">
    <tag k="addr:city" v="München"/>
    <tag k="addr:country" v="DE"/>
    <tag k="addr:housenumber" v="11"/>
    <tag k="addr:postcode" v="81477"/>
    <tag k="addr:street" v="Kandinskystraße"/>
    <tag k="name" v="11"/>
    <tag k="source" v="survey"/>
  </node>
  <node id="427837223" version="1" timestamp="2009-06-21T23:52:13Z" uid="36809" user="pfoten_weg_!_" changeset="1589495" lat="48.085328" lon="11.5058661">
    <tag k="addr:city" v="München"/>
    <tag k="addr:country" v="DE"/>
    <tag k="addr:housenumber" v="5"/>
    <tag k="addr:postcode" v="81477"/>
    <tag k="addr:street" v="Kandinskystraße"/>
    <tag k="created_by" v="RambaZamba"/>
    <tag k="name" v="5"/>
    <tag k="source" v="survey"/>
  </node>
  <node id="427837223" version="2" timestamp="2009-07-14T16:16:29Z" uid="36809" user="pfoten_weg_!_" changeset="1828190" lat="48.085328" lon="11.5058661">
    <tag k="addr:city" v="München"/>
    <tag k="addr:country" v="DE"/>
    <tag k="addr:housenumber" v="5"/>
    <tag k="addr:postcode" v="81477"/>
    <tag k="addr:street" v="Kandinskystraße"/>
    <tag k="discovered_by" v="RambaZamba"/>
    <tag k="name" v="5"/>
    <tag k="source" v="survey"/>
  </node>
  <node id="427837223" version="3" timestamp="2009-08-12T14:06:23Z" uid="156995" user="HampelZamba" changeset="2119076" lat="48.085328" lon="11.5058661">
    <tag k="addr:city" v="München"/>
    <tag k="addr:country" v="DE"/>
    <tag k="addr:housenumber" v="5"/>
    <tag k="addr:postcode" v="81477"/>
    <tag k="addr:street" v="Kandinskystraße"/>
    <tag k="name" v="5"/>
    <tag k="source" v="survey"/>
  </node>
  <node id="427837223" version="4" timestamp="2009-08-19T00:50:56Z" uid="36809" user="pfoten_weg_!_" changeset="2196288" lat="48.085328" lon="11.5058661">
    <tag k="addr:city" v="München"/>
    <tag k="addr:country" v="DE"/>
    <tag k="addr:housenumber" v="5"/>
    <tag k="addr:postcode" v="81477"/>
    <tag k="addr:street" v="Kandinskystraße"/>
    <tag k="name" v="5"/>
    <tag k="source" v="survey"/>
  </node>
  <node id="427837224" version="1" timestamp="2009-06-21T23:52:13Z" uid="36809" user="pfoten_weg_!_" changeset="1589495" lat="48.0852331" lon="11.5058647">
    <tag k="addr:city" v="München"/>
    <tag k="addr:country" v="DE"/>
    <tag k="addr:housenumber" v="7"/>
    <tag k="addr:postcode" v="81477"/>
    <tag k="addr:street" v="Kandinskystraße"/>
    <tag k="created_by" v="RambaZamba"/>
    <tag k="name" v="7"/>
    <tag k="source" v="survey"/>
  </node>
  <node id="427837224" version="2" timestamp="2009-07-14T16:16:22Z" uid="36809" user="pfoten_weg_!_" changeset="1828190" lat="48.0852331" lon="11.5058647">
    <tag k="addr:city" v="München"/>
    <tag k="addr:country" v="DE"/>
    <tag k="addr:housenumber" v="7"/>
    <tag k="addr:postcode" v="81477"/>
    <tag k="addr:street" v="Kandinskystraße"/>
    <tag k="discovered_by" v="RambaZamba"/>
    <tag k="name" v="7"/>
    <tag k="source" v="survey"/>
  </node>
  <node id="427837224" version="3" timestamp="2009-08-12T14:06:23Z" uid="156995" user="HampelZamba" changeset="2119076" lat="48.0852331" lon="11.5058647">
    <tag k="addr:city" v="München"/>
    <tag k="addr:country" v="DE"/>
    <tag k="addr:housenumber" v="7"/>
    <tag k="addr:postcode" v="81477"/>
    <tag k="addr:street" v="Kandinskystraße"/>
    <tag k="name" v="7"/>
    <tag k="source" v="survey"/>
  </node>
  <node id="427837224" version="4" timestamp="2009-08-19T00:51:00Z" uid="36809" user="pfoten_weg_!_" changeset="2196288" lat="48.0852331" lon="11.5058647">
    <tag k="addr:city" v="München"/>
    <tag k="addr:country" v="DE"/>
    <tag k="addr:housenumber" v="7"/>
    <tag k="addr:postcode" v="81477"/>
    <tag k="addr:street" v="Kandinskystraße"/>
    <tag k="name" v="7"/>
    <tag k="source" v="survey"/>
  </node>
  <node id="427837225" version="1" timestamp="2009-06-21T23:52:13Z" uid="36809" user="pfoten_weg_!_" changeset="1589495" lat="48.085521" lon="11.505869">
    <tag k="addr:city" v="München"/>
    <tag k="addr:country" v="DE"/>
    <tag k="addr:housenumber" v="1"/>
    <tag k="addr:postcode" v="81477"/>
    <tag k="addr:street" v="Kandinskystraße"/>
    <tag k="created_by" v="RambaZamba"/>
    <tag k="name" v="1"/>
    <tag k="source" v="survey"/>
  </node>
  <node id="427837225" version="2" timestamp="2009-07-14T16:16:23Z" uid="36809" user="pfoten_weg_!_" changeset="1828190" lat="48.085521" lon="11.505869">
    <tag k="addr:city" v="München"/>
    <tag k="addr:country" v="DE"/>
    <tag k="addr:housenumber" v="1"/>
    <tag k="addr:postcode" v="81477"/>
    <tag k="addr:street" v="Kandinskystraße"/>
    <tag k="discovered_by" v="RambaZamba"/>
    <tag k="name" v="1"/>
    <tag k="source" v="survey"/>
  </node>
  <node id="427837225" version="3" timestamp="2009-08-12T14:06:23Z" uid="156995" user="HampelZamba" changeset="2119076" lat="48.085521" lon="11.505869">
    <tag k="addr:city" v="München"/>
    <tag k="addr:country" v="DE"/>
    <tag k="addr:housenumber" v="1"/>
    <tag k="addr:postcode" v="81477"/>
    <tag k="addr:street" v="Kandinskystraße"/>
    <tag k="name" v="1"/>
    <tag k="source" v="survey"/>
  </node>
  <node id="427837225" version="4" timestamp="2009-08-19T00:50:59Z" uid="36809" user="pfoten_weg_!_" changeset="2196288" lat="48.085521" lon="11.505869">
    <tag k="addr:city" v="München"/>
    <tag k="addr:country" v="DE"/>
    <tag k="addr:housenumber" v="1"/>
    <tag k="addr:postcode" v="81477"/>
    <tag k="addr:street" v="Kandinskystraße"/>
    <tag k="name" v="1"/>
    <tag k="source" v="survey"/>
  </node>
  <node id="427837226" version="1" timestamp="2009-06-21T23:52:14Z" uid="36809" user="pfoten_weg_!_" changeset="1589495" lat="48.085424" lon="11.5058676">
    <tag k="addr:city" v="München"/>
    <tag k="addr:country" v="DE"/>
    <tag k="addr:housenumber" v="3"/>
    <tag k="addr:postcode" v="81477"/>
    <tag k="addr:street" v="Kandinskystraße"/>
    <tag k="created_by" v="RambaZamba"/>
    <tag k="name" v="3"/>
    <tag k="source" v="survey"/>
  </node>
  <node id="427837226" version="2" timestamp="2009-07-14T16:16:22Z" uid="36809" user="pfoten_weg_!_" changeset="1828190" lat="48.085424" lon="11.5058676">
    <tag k="addr:city" v="München"/>
    <tag k="addr:country" v="DE"/>
    <tag k="addr:housenumber" v="3"/>
    <tag k="addr:postcode" v="81477"/>
    <tag k="addr:street" v="Kandinskystraße"/>
    <tag k="discovered_by" v="RambaZamba"/>
    <tag k="name" v="3"/>
    <tag k="source" v="survey"/>
  </node>
  <node id="427837226" version="3" timestamp="2009-08-12T14:06:23Z" uid="156995" user="HampelZamba" changeset="2119076" lat="48.085424" lon="11.5058676">
    <tag k="addr:city" v="München"/>
    <tag k="addr:country" v="DE"/>
    <tag k="addr:housenumber" v="3"/>
    <tag k="addr:postcode" v="81477"/>
    <tag k="addr:street" v="Kandinskystraße"/>
    <tag k="name" v="3"/>
    <tag k="source" v="survey"/>
  </node>
  <node id="427837226" version="4" timestamp="2009-08-19T00:51:01Z" uid="36809" user="pfoten_weg_!_" changeset="2196288" lat="48.085424" lon="11.5058676">
    <tag k="addr:city" v="München"/>
    <tag k="addr:country" v="DE"/>
    <tag k="addr:housenumber" v="3"/>
    <tag k="addr:postcode" v="81477"/>
    <tag k="addr:street" v="Kandinskystraße"/>
    <tag k="name" v="3"/>
    <tag k="source" v="survey"/>
  </node>
  <node id="427837227" version="1" timestamp="2009-06-21T23:52:14Z" uid="36809" user="pfoten_weg_!_" changeset="1589495" lat="48.085862" lon="11.505981">
    <tag k="addr:city" v="München"/>
    <tag k="addr:country" v="DE"/>
    <tag k="addr:housenumber" v="6"/>
    <tag k="addr:postcode" v="81477"/>
    <tag k="addr:street" v="Kandinskystraße"/>
    <tag k="created_by" v="RambaZamba"/>
    <tag k="name" v="6"/>
    <tag k="source" v="survey"/>
  </node>
  <node id="427837227" version="2" timestamp="2009-07-14T16:16:22Z" uid="36809" user="pfoten_weg_!_" changeset="1828190" lat="48.085862" lon="11.505981">
    <tag k="addr:city" v="München"/>
    <tag k="addr:country" v="DE"/>
    <tag k="addr:housenumber" v="6"/>
    <tag k="addr:postcode" v="81477"/>
    <tag k="addr:street" v="Kandinskystraße"/>
    <tag k="discovered_by" v="RambaZamba"/>
    <tag k="name" v="6"/>
    <tag k="source" v="survey"/>
  </node>
  <node id="427837227" version="3" timestamp="2009-07-23T15:22:24Z" uid="36809" user="pfoten_weg_!_" changeset="1916614" lat="48.0858779" lon="11.5059755">
    <tag k="addr:city" v="München"/>
    <tag k="addr:country" v="DE"/>
    <tag k="addr:housenumber" v="6"/>
    <tag k="addr:postcode" v="81477"/>
    <tag k="addr:street" v="Kandinskystraße"/>
    <tag k="discovered_by" v="RambaZamba"/>
    <tag k="name" v="6"/>
    <tag k="source" v="survey"/>
  </node>
  <node id="427837227" version="4" timestamp="2009-08-12T14:06:24Z" uid="156995" user="HampelZamba" changeset="2119076" lat="48.0858779" lon="11.5059755">
    <tag k="addr:city" v="München"/>
    <tag k="addr:country" v="DE"/>
    <tag k="addr:housenumber" v="6"/>
    <tag k="addr:postcode" v="81477"/>
    <tag k="addr:street" v="Kandinskystraße"/>
    <tag k="name" v="6"/>
    <tag k="source" v="survey"/>
  </node>
  <node id="427837227" version="5" timestamp="2009-08-19T00:51:00Z" uid="36809" user="pfoten_weg_!_" changeset="2196288" lat="48.0858779" lon="11.5059755">
    <tag k="addr:city" v="München"/>
    <tag k="addr:country" v="DE"/>
    <tag k="addr:housenumber" v="6"/>
    <tag k="addr:postcode" v="81477"/>
    <tag k="addr:street" v="Kandinskystraße"/>
    <tag k="name" v="6"/>
    <tag k="source" v="survey"/>
  </node>
  <node id="427837228" version="1" timestamp="2009-06-21T23:52:14Z" uid="36809" user="pfoten_weg_!_" changeset="1589495" lat="48.085765" lon="11.505976">
    <tag k="addr:city" v="München"/>
    <tag k="addr:country" v="DE"/>
    <tag k="addr:housenumber" v="4"/>
    <tag k="addr:postcode" v="81477"/>
    <tag k="addr:street" v="Kandinskystraße"/>
    <tag k="created_by" v="RambaZamba"/>
    <tag k="name" v="4"/>
    <tag k="source" v="survey"/>
  </node>
  <node id="427837228" version="2" timestamp="2009-07-14T16:16:26Z" uid="36809" user="pfoten_weg_!_" changeset="1828190" lat="48.085765" lon="11.505976">
    <tag k="addr:city" v="München"/>
    <tag k="addr:country" v="DE"/>
    <tag k="addr:housenumber" v="4"/>
    <tag k="addr:postcode" v="81477"/>
    <tag k="addr:street" v="Kandinskystraße"/>
    <tag k="discovered_by" v="RambaZamba"/>
    <tag k="name" v="4"/>
    <tag k="source" v="survey"/>
  </node>
  <node id="427837228" version="3" timestamp="2009-08-12T14:06:24Z" uid="156995" user="HampelZamba" changeset="2119076" lat="48.085765" lon="11.505976">
    <tag k="addr:city" v="München"/>
    <tag k="addr:country" v="DE"/>
    <tag k="addr:housenumber" v="4"/>
    <tag k="addr:postcode" v="81477"/>
    <tag k="addr:street" v="Kandinskystraße"/>
    <tag k="name" v="4"/>
    <tag k="source" v="survey"/>
  </node>
  <node id="427837228" version="4" timestamp="2009-08-19T00:50:58Z" uid="36809" user="pfoten_weg_!_" changeset="2196288" lat="48.085765" lon="11.505976">
    <tag k="addr:city" v="München"/>
    <tag k="addr:country" v="DE"/>
    <tag k="addr:housenumber" v="4"/>
    <tag k="addr:postcode" v="81477"/>
    <tag k="addr:street" v="Kandinskystraße"/>
    <tag k="name" v="4"/>
    <tag k="source" v="survey"/>
  </node>
  <node id="427837229" version="1" timestamp="2009-06-21T23:52:15Z" uid="36809" user="pfoten_weg_!_" changeset="1589495" lat="48.085867" lon="11.505691">
    <tag k="addr:city" v="München"/>
    <tag k="addr:country" v="DE"/>
    <tag k="addr:housenumber" v="10"/>
    <tag k="addr:postcode" v="81477"/>
    <tag k="addr:street" v="Kandinskystraße"/>
    <tag k="created_by" v="RambaZamba"/>
    <tag k="name" v="10"/>
    <tag k="source" v="survey"/>
  </node>
  <node id="427837229" version="2" timestamp="2009-07-14T16:16:27Z" uid="36809" user="pfoten_weg_!_" changeset="1828190" lat="48.085867" lon="11.505691">
    <tag k="addr:city" v="München"/>
    <tag k="addr:country" v="DE"/>
    <tag k="addr:housenumber" v="10"/>
    <tag k="addr:postcode" v="81477"/>
    <tag k="addr:street" v="Kandinskystraße"/>
    <tag k="discovered_by" v="RambaZamba"/>
    <tag k="name" v="10"/>
    <tag k="source" v="survey"/>
  </node>
  <node id="427837229" version="3" timestamp="2009-07-23T15:22:25Z" uid="36809" user="pfoten_weg_!_" changeset="1916614" lat="48.0858793" lon="11.505691">
    <tag k="addr:city" v="München"/>
    <tag k="addr:country" v="DE"/>
    <tag k="addr:housenumber" v="10"/>
    <tag k="addr:postcode" v="81477"/>
    <tag k="addr:street" v="Kandinskystraße"/>
    <tag k="discovered_by" v="RambaZamba"/>
    <tag k="name" v="10"/>
    <tag k="source" v="survey"/>
  </node>
  <node id="427837229" version="4" timestamp="2009-08-12T14:06:24Z" uid="156995" user="HampelZamba" changeset="2119076" lat="48.0858793" lon="11.505691">
    <tag k="addr:city" v="München"/>
    <tag k="addr:country" v="DE"/>
    <tag k="addr:housenumber" v="10"/>
    <tag k="addr:postcode" v="81477"/>
    <tag k="addr:street" v="Kandinskystraße"/>
    <tag k="name" v="10"/>
    <tag k="source" v="survey"/>
  </node>
  <node id="427837229" version="5" timestamp="2009-08-19T00:50:58Z" uid="36809" user="pfoten_weg_!_" changeset="2196288" lat="48.0858793" lon="11.505691">
    <tag k="addr:city" v="München"/>
    <tag k="addr:country" v="DE"/>
    <tag k="addr:housenumber" v="10"/>
    <tag k="addr:postcode" v="81477"/>
    <tag k="addr:street" v="Kandinskystraße"/>
    <tag k="name" v="10"/>
    <tag k="source" v="survey"/>
  </node>
  <node id="427837230" version="1" timestamp="2009-06-21T23:52:15Z" uid="36809" user="pfoten_weg_!_" changeset="1589495" lat="48.085766" lon="11.505684">
    <tag k="addr:city" v="München"/>
    <tag k="addr:country" v="DE"/>
    <tag k="addr:housenumber" v="8"/>
    <tag k="addr:postcode" v="81477"/>
    <tag k="addr:street" v="Kandinskystraße"/>
    <tag k="created_by" v="RambaZamba"/>
    <tag k="name" v="8"/>
    <tag k="source" v="survey"/>
  </node>
  <node id="427837230" version="2" timestamp="2009-07-14T16:16:23Z" uid="36809" user="pfoten_weg_!_" changeset="1828190" lat="48.085766" lon="11.505684">
    <tag k="addr:city" v="München"/>
    <tag k="addr:country" v="DE"/>
    <tag k="addr:housenumber" v="8"/>
    <tag k="addr:postcode" v="81477"/>
    <tag k="addr:street" v="Kandinskystraße"/>
    <tag k="discovered_by" v="RambaZamba"/>
    <tag k="name" v="8"/>
    <tag k="source" v="survey"/>
  </node>
  <node id="427837230" version="3" timestamp="2009-07-23T15:22:24Z" uid="36809" user="pfoten_weg_!_" changeset="1916614" lat="48.0857664" lon="11.5056907">
    <tag k="addr:city" v="München"/>
    <tag k="addr:country" v="DE"/>
    <tag k="addr:housenumber" v="8"/>
    <tag k="addr:postcode" v="81477"/>
    <tag k="addr:street" v="Kandinskystraße"/>
    <tag k="discovered_by" v="RambaZamba"/>
    <tag k="name" v="8"/>
    <tag k="source" v="survey"/>
  </node>
  <node id="427837230" version="4" timestamp="2009-08-12T14:06:24Z" uid="156995" user="HampelZamba" changeset="2119076" lat="48.0857664" lon="11.5056907">
    <tag k="addr:city" v="München"/>
    <tag k="addr:country" v="DE"/>
    <tag k="addr:housenumber" v="8"/>
    <tag k="addr:postcode" v="81477"/>
    <tag k="addr:street" v="Kandinskystraße"/>
    <tag k="name" v="8"/>
    <tag k="source" v="survey"/>
  </node>
  <node id="427837230" version="5" timestamp="2009-08-19T00:50:59Z" uid="36809" user="pfoten_weg_!_" changeset="2196288" lat="48.0857664" lon="11.5056907">
    <tag k="addr:city" v="München"/>
    <tag k="addr:country" v="DE"/>
    <tag k="addr:housenumber" v="8"/>
    <tag k="addr:postcode" v="81477"/>
    <tag k="addr:street" v="Kandinskystraße"/>
    <tag k="name" v="8"/>
    <tag k="source" v="survey"/>
  </node>
  <node id="427837231" version="1" timestamp="2009-06-21T23:52:15Z" uid="36809" user="pfoten_weg_!_" changeset="1589495" lat="48.085867" lon="11.5054">
    <tag k="addr:city" v="München"/>
    <tag k="addr:country" v="DE"/>
    <tag k="addr:housenumber" v="14"/>
    <tag k="addr:postcode" v="81477"/>
    <tag k="addr:street" v="Kandinskystraße"/>
    <tag k="created_by" v="RambaZamba"/>
    <tag k="name" v="14"/>
    <tag k="source" v="survey"/>
  </node>
  <node id="427837231" version="2" timestamp="2009-07-14T16:16:23Z" uid="36809" user="pfoten_weg_!_" changeset="1828190" lat="48.085867" lon="11.5054">
    <tag k="addr:city" v="München"/>
    <tag k="addr:country" v="DE"/>
    <tag k="addr:housenumber" v="14"/>
    <tag k="addr:postcode" v="81477"/>
    <tag k="addr:street" v="Kandinskystraße"/>
    <tag k="discovered_by" v="RambaZamba"/>
    <tag k="name" v="14"/>
    <tag k="source" v="survey"/>
  </node>
  <node id="427837231" version="3" timestamp="2009-07-23T15:22:25Z" uid="36809" user="pfoten_weg_!_" changeset="1916614" lat="48.0858806" lon="11.5054065">
    <tag k="addr:city" v="München"/>
    <tag k="addr:country" v="DE"/>
    <tag k="addr:housenumber" v="14"/>
    <tag k="addr:postcode" v="81477"/>
    <tag k="addr:street" v="Kandinskystraße"/>
    <tag k="discovered_by" v="RambaZamba"/>
    <tag k="name" v="14"/>
    <tag k="source" v="survey"/>
  </node>
  <node id="427837231" version="4" timestamp="2009-08-12T14:06:24Z" uid="156995" user="HampelZamba" changeset="2119076" lat="48.0858806" lon="11.5054065">
    <tag k="addr:city" v="München"/>
    <tag k="addr:country" v="DE"/>
    <tag k="addr:housenumber" v="14"/>
    <tag k="addr:postcode" v="81477"/>
    <tag k="addr:street" v="Kandinskystraße"/>
    <tag k="name" v="14"/>
    <tag k="source" v="survey"/>
  </node>
  <node id="427837231" version="5" timestamp="2009-08-19T00:50:58Z" uid="36809" user="pfoten_weg_!_" changeset="2196288" lat="48.0858806" lon="11.5054065">
    <tag k="addr:city" v="München"/>
    <tag k="addr:country" v="DE"/>
    <tag k="addr:housenumber" v="14"/>
    <tag k="addr:postcode" v="81477"/>
    <tag k="addr:street" v="Kandinskystraße"/>
    <tag k="name" v="14"/>
    <tag k="source" v="survey"/>
  </node>
  <node id="427837232" version="1" timestamp="2009-06-21T23:52:16Z" uid="36809" user="pfoten_weg_!_" changeset="1589495" lat="48.0857694" lon="11.5054017">
    <tag k="addr:city" v="München"/>
    <tag k="addr:country" v="DE"/>
    <tag k="addr:housenumber" v="12"/>
    <tag k="addr:postcode" v="81477"/>
    <tag k="addr:street" v="Kandinskystraße"/>
    <tag k="created_by" v="RambaZamba"/>
    <tag k="name" v="12"/>
    <tag k="source" v="survey"/>
  </node>
  <node id="427837232" version="2" timestamp="2009-07-14T16:16:31Z" uid="36809" user="pfoten_weg_!_" changeset="1828190" lat="48.0857694" lon="11.5054017">
    <tag k="addr:city" v="München"/>
    <tag k="addr:country" v="DE"/>
    <tag k="addr:housenumber" v="12"/>
    <tag k="addr:postcode" v="81477"/>
    <tag k="addr:street" v="Kandinskystraße"/>
    <tag k="discovered_by" v="RambaZamba"/>
    <tag k="name" v="12"/>
    <tag k="source" v="survey"/>
  </node>
  <node id="427837232" version="3" timestamp="2009-07-23T15:22:26Z" uid="36809" user="pfoten_weg_!_" changeset="1916614" lat="48.0857677" lon="11.5054055">
    <tag k="addr:city" v="München"/>
    <tag k="addr:country" v="DE"/>
    <tag k="addr:housenumber" v="12"/>
    <tag k="addr:postcode" v="81477"/>
    <tag k="addr:street" v="Kandinskystraße"/>
    <tag k="discovered_by" v="RambaZamba"/>
    <tag k="name" v="12"/>
    <tag k="source" v="survey"/>
  </node>
  <node id="427837232" version="4" timestamp="2009-08-12T14:06:24Z" uid="156995" user="HampelZamba" changeset="2119076" lat="48.0857677" lon="11.5054055">
    <tag k="addr:city" v="München"/>
    <tag k="addr:country" v="DE"/>
    <tag k="addr:housenumber" v="12"/>
    <tag k="addr:postcode" v="81477"/>
    <tag k="addr:street" v="Kandinskystraße"/>
    <tag k="name" v="12"/>
    <tag k="source" v="survey"/>
  </node>
  <node id="427837232" version="5" timestamp="2009-08-19T00:50:52Z" uid="36809" user="pfoten_weg_!_" changeset="2196288" lat="48.0857677" lon="11.5054055">
    <tag k="addr:city" v="München"/>
    <tag k="addr:country" v="DE"/>
    <tag k="addr:housenumber" v="12"/>
    <tag k="addr:postcode" v="81477"/>
    <tag k="addr:street" v="Kandinskystraße"/>
    <tag k="name" v="12"/>
    <tag k="source" v="survey"/>
  </node>
  <node id="427837233" version="1" timestamp="2009-06-21T23:52:16Z" uid="36809" user="pfoten_weg_!_" changeset="1589495" lat="48.0855325" lon="11.505">
    <tag k="addr:city" v="München"/>
    <tag k="addr:country" v="DE"/>
    <tag k="addr:housenumber" v="23"/>
    <tag k="addr:postcode" v="81477"/>
    <tag k="addr:street" v="Kandinskystraße"/>
    <tag k="created_by" v="RambaZamba"/>
    <tag k="name" v="23"/>
    <tag k="source" v="survey"/>
  </node>
  <node id="427837233" version="2" timestamp="2009-08-12T14:06:24Z" uid="156995" user="HampelZamba" changeset="2119076" lat="48.0855325" lon="11.505">
    <tag k="addr:city" v="München"/>
    <tag k="addr:country" v="DE"/>
    <tag k="addr:housenumber" v="23"/>
    <tag k="addr:postcode" v="81477"/>
    <tag k="addr:street" v="Kandinskystraße"/>
    <tag k="name" v="23"/>
    <tag k="source" v="survey"/>
  </node>
  <node id="427837233" version="3" timestamp="2009-08-19T00:50:52Z" uid="36809" user="pfoten_weg_!_" changeset="2196288" lat="48.0855325" lon="11.505">
    <tag k="addr:city" v="München"/>
    <tag k="addr:country" v="DE"/>
    <tag k="addr:housenumber" v="23"/>
    <tag k="addr:postcode" v="81477"/>
    <tag k="addr:street" v="Kandinskystraße"/>
    <tag k="name" v="23"/>
    <tag k="source" v="survey"/>
  </node>
  <node id="427837234" version="1" timestamp="2009-06-21T23:52:17Z" uid="36809" user="pfoten_weg_!_" changeset="1589495" lat="48.085529" lon="11.50521">
    <tag k="addr:city" v="München"/>
    <tag k="addr:country" v="DE"/>
    <tag k="addr:housenumber" v="21"/>
    <tag k="addr:postcode" v="81477"/>
    <tag k="addr:street" v="Kandinskystraße"/>
    <tag k="created_by" v="RambaZamba"/>
    <tag k="name" v="21"/>
    <tag k="source" v="survey"/>
  </node>
  <node id="427837234" version="2" timestamp="2009-08-12T14:06:24Z" uid="156995" user="HampelZamba" changeset="2119076" lat="48.085529" lon="11.50521">
    <tag k="addr:city" v="München"/>
    <tag k="addr:country" v="DE"/>
    <tag k="addr:housenumber" v="21"/>
    <tag k="addr:postcode" v="81477"/>
    <tag k="addr:street" v="Kandinskystraße"/>
    <tag k="name" v="21"/>
    <tag k="source" v="survey"/>
  </node>
  <node id="427837234" version="3" timestamp="2009-08-19T00:50:53Z" uid="36809" user="pfoten_weg_!_" changeset="2196288" lat="48.085529" lon="11.50521">
    <tag k="addr:city" v="München"/>
    <tag k="addr:country" v="DE"/>
    <tag k="addr:housenumber" v="21"/>
    <tag k="addr:postcode" v="81477"/>
    <tag k="addr:street" v="Kandinskystraße"/>
    <tag k="name" v="21"/>
    <tag k="source" v="survey"/>
  </node>
  <node id="427837236" version="1" timestamp="2009-06-21T23:52:17Z" uid="36809" user="pfoten_weg_!_" changeset="1589495" lat="48.085943" lon="11.504956">
    <tag k="addr:city" v="München"/>
    <tag k="addr:country" v="DE"/>
    <tag k="addr:housenumber" v="16"/>
    <tag k="addr:postcode" v="81477"/>
    <tag k="addr:street" v="Kandinskystraße"/>
    <tag k="created_by" v="RambaZamba"/>
    <tag k="name" v="16"/>
    <tag k="source" v="survey"/>
  </node>
  <node id="427837236" version="2" timestamp="2009-08-12T14:06:24Z" uid="156995" user="HampelZamba" changeset="2119076" lat="48.085943" lon="11.504956">
    <tag k="addr:city" v="München"/>
    <tag k="addr:country" v="DE"/>
    <tag k="addr:housenumber" v="16"/>
    <tag k="addr:postcode" v="81477"/>
    <tag k="addr:street" v="Kandinskystraße"/>
    <tag k="name" v="16"/>
    <tag k="source" v="survey"/>
  </node>
  <node id="427837236" version="3" timestamp="2009-08-19T00:50:52Z" uid="36809" user="pfoten_weg_!_" changeset="2196288" lat="48.085943" lon="11.504956">
    <tag k="addr:city" v="München"/>
    <tag k="addr:country" v="DE"/>
    <tag k="addr:housenumber" v="16"/>
    <tag k="addr:postcode" v="81477"/>
    <tag k="addr:street" v="Kandinskystraße"/>
    <tag k="name" v="16"/>
    <tag k="source" v="survey"/>
  </node>
  <node id="427837240" version="1" timestamp="2009-06-21T23:52:18Z" uid="36809" user="pfoten_weg_!_" changeset="1589495" lat="48.085536" lon="11.50479">
    <tag k="addr:city" v="München"/>
    <tag k="addr:country" v="DE"/>
    <tag k="addr:housenumber" v="25"/>
    <tag k="addr:postcode" v="81477"/>
    <tag k="addr:street" v="Kandinskystraße"/>
    <tag k="created_by" v="RambaZamba"/>
    <tag k="name" v="25"/>
    <tag k="source" v="survey"/>
  </node>
  <node id="427837240" version="2" timestamp="2009-08-12T14:06:24Z" uid="156995" user="HampelZamba" changeset="2119076" lat="48.085536" lon="11.50479">
    <tag k="addr:city" v="München"/>
    <tag k="addr:country" v="DE"/>
    <tag k="addr:housenumber" v="25"/>
    <tag k="addr:postcode" v="81477"/>
    <tag k="addr:street" v="Kandinskystraße"/>
    <tag k="name" v="25"/>
    <tag k="source" v="survey"/>
  </node>
  <node id="427837240" version="3" timestamp="2009-08-19T00:50:55Z" uid="36809" user="pfoten_weg_!_" changeset="2196288" lat="48.085536" lon="11.50479">
    <tag k="addr:city" v="München"/>
    <tag k="addr:country" v="DE"/>
    <tag k="addr:housenumber" v="25"/>
    <tag k="addr:postcode" v="81477"/>
    <tag k="addr:street" v="Kandinskystraße"/>
    <tag k="name" v="25"/>
    <tag k="source" v="survey"/>
  </node>
  <node id="427837241" version="1" timestamp="2009-06-21T23:52:18Z" uid="36809" user="pfoten_weg_!_" changeset="1589495" lat="48.085223" lon="11.5052106">
    <tag k="addr:city" v="München"/>
    <tag k="addr:country" v="DE"/>
    <tag k="addr:housenumber" v="7"/>
    <tag k="addr:postcode" v="81477"/>
    <tag k="addr:street" v="Gabriele-Münter-Straße"/>
    <tag k="created_by" v="RambaZamba"/>
    <tag k="name" v="7"/>
    <tag k="source" v="survey"/>
  </node>
  <node id="427837241" version="2" timestamp="2009-08-12T14:06:25Z" uid="156995" user="HampelZamba" changeset="2119076" lat="48.085223" lon="11.5052106">
    <tag k="addr:city" v="München"/>
    <tag k="addr:country" v="DE"/>
    <tag k="addr:housenumber" v="7"/>
    <tag k="addr:postcode" v="81477"/>
    <tag k="addr:street" v="Gabriele-Münter-Straße"/>
    <tag k="name" v="7"/>
    <tag k="source" v="survey"/>
  </node>
  <node id="427837241" version="3" timestamp="2009-08-19T00:50:55Z" uid="36809" user="pfoten_weg_!_" changeset="2196288" lat="48.085223" lon="11.5052106">
    <tag k="addr:city" v="München"/>
    <tag k="addr:country" v="DE"/>
    <tag k="addr:housenumber" v="7"/>
    <tag k="addr:postcode" v="81477"/>
    <tag k="addr:street" v="Gabriele-Münter-Straße"/>
    <tag k="name" v="7"/>
    <tag k="source" v="survey"/>
  </node>
  <node id="427837243" version="1" timestamp="2009-06-21T23:52:18Z" uid="36809" user="pfoten_weg_!_" changeset="1589495" lat="48.0852243" lon="11.5049987">
    <tag k="addr:city" v="München"/>
    <tag k="addr:country" v="DE"/>
    <tag k="addr:housenumber" v="5"/>
    <tag k="addr:postcode" v="81477"/>
    <tag k="addr:street" v="Gabriele-Münter-Straße"/>
    <tag k="created_by" v="RambaZamba"/>
    <tag k="name" v="5"/>
    <tag k="source" v="survey"/>
  </node>
  <node id="427837243" version="2" timestamp="2009-08-12T14:06:25Z" uid="156995" user="HampelZamba" changeset="2119076" lat="48.0852243" lon="11.5049987">
    <tag k="addr:city" v="München"/>
    <tag k="addr:country" v="DE"/>
    <tag k="addr:housenumber" v="5"/>
    <tag k="addr:postcode" v="81477"/>
    <tag k="addr:street" v="Gabriele-Münter-Straße"/>
    <tag k="name" v="5"/>
    <tag k="source" v="survey"/>
  </node>
  <node id="427837243" version="3" timestamp="2009-08-19T00:50:55Z" uid="36809" user="pfoten_weg_!_" changeset="2196288" lat="48.0852243" lon="11.5049987">
    <tag k="addr:city" v="München"/>
    <tag k="addr:country" v="DE"/>
    <tag k="addr:housenumber" v="5"/>
    <tag k="addr:postcode" v="81477"/>
    <tag k="addr:street" v="Gabriele-Münter-Straße"/>
    <tag k="name" v="5"/>
    <tag k="source" v="survey"/>
  </node>
  <node id="427837244" version="1" timestamp="2009-06-21T23:52:19Z" uid="36809" user="pfoten_weg_!_" changeset="1589495" lat="48.085514" lon="11.505486">
    <tag k="addr:city" v="München"/>
    <tag k="addr:country" v="DE"/>
    <tag k="addr:housenumber" v="19"/>
    <tag k="addr:postcode" v="81477"/>
    <tag k="addr:street" v="Kandinskystraße"/>
    <tag k="created_by" v="RambaZamba"/>
    <tag k="name" v="19"/>
    <tag k="source" v="survey"/>
  </node>
  <node id="427837244" version="2" timestamp="2009-08-12T14:06:25Z" uid="156995" user="HampelZamba" changeset="2119076" lat="48.085514" lon="11.505486">
    <tag k="addr:city" v="München"/>
    <tag k="addr:country" v="DE"/>
    <tag k="addr:housenumber" v="19"/>
    <tag k="addr:postcode" v="81477"/>
    <tag k="addr:street" v="Kandinskystraße"/>
    <tag k="name" v="19"/>
    <tag k="source" v="survey"/>
  </node>
  <node id="427837244" version="3" timestamp="2009-08-19T00:50:53Z" uid="36809" user="pfoten_weg_!_" changeset="2196288" lat="48.085514" lon="11.505486">
    <tag k="addr:city" v="München"/>
    <tag k="addr:country" v="DE"/>
    <tag k="addr:housenumber" v="19"/>
    <tag k="addr:postcode" v="81477"/>
    <tag k="addr:street" v="Kandinskystraße"/>
    <tag k="name" v="19"/>
    <tag k="source" v="survey"/>
  </node>
  <node id="427837245" version="1" timestamp="2009-06-21T23:52:19Z" uid="36809" user="pfoten_weg_!_" changeset="1589495" lat="48.085199" lon="11.505485">
    <tag k="addr:city" v="München"/>
    <tag k="addr:country" v="DE"/>
    <tag k="addr:housenumber" v="9"/>
    <tag k="addr:postcode" v="81477"/>
    <tag k="addr:street" v="Gabriele-Münter-Straße"/>
    <tag k="created_by" v="RambaZamba"/>
    <tag k="name" v="9"/>
    <tag k="source" v="survey"/>
  </node>
  <node id="427837245" version="2" timestamp="2009-08-12T14:06:25Z" uid="156995" user="HampelZamba" changeset="2119076" lat="48.085199" lon="11.505485">
    <tag k="addr:city" v="München"/>
    <tag k="addr:country" v="DE"/>
    <tag k="addr:housenumber" v="9"/>
    <tag k="addr:postcode" v="81477"/>
    <tag k="addr:street" v="Gabriele-Münter-Straße"/>
    <tag k="name" v="9"/>
    <tag k="source" v="survey"/>
  </node>
  <node id="427837245" version="3" timestamp="2009-08-19T00:50:53Z" uid="36809" user="pfoten_weg_!_" changeset="2196288" lat="48.085199" lon="11.505485">
    <tag k="addr:city" v="München"/>
    <tag k="addr:country" v="DE"/>
    <tag k="addr:housenumber" v="9"/>
    <tag k="addr:postcode" v="81477"/>
    <tag k="addr:street" v="Gabriele-Münter-Straße"/>
    <tag k="name" v="9"/>
    <tag k="source" v="survey"/>
  </node>
  <node id="427837246" version="1" timestamp="2009-06-21T23:52:20Z" uid="36809" user="pfoten_weg_!_" changeset="1589495" lat="48.0849081" lon="11.5049974">
    <tag k="addr:city" v="München"/>
    <tag k="addr:country" v="DE"/>
    <tag k="addr:housenumber" v="13"/>
    <tag k="addr:postcode" v="81477"/>
    <tag k="addr:street" v="Gabriele-Münter-Straße"/>
    <tag k="created_by" v="RambaZamba"/>
    <tag k="name" v="13"/>
    <tag k="source" v="survey"/>
  </node>
  <node id="427837246" version="2" timestamp="2009-07-14T16:16:30Z" uid="36809" user="pfoten_weg_!_" changeset="1828190" lat="48.0849081" lon="11.5049974">
    <tag k="addr:city" v="München"/>
    <tag k="addr:country" v="DE"/>
    <tag k="addr:housenumber" v="13"/>
    <tag k="addr:postcode" v="81477"/>
    <tag k="addr:street" v="Gabriele-Münter-Straße"/>
    <tag k="discovered_by" v="RambaZamba"/>
    <tag k="name" v="13"/>
    <tag k="source" v="survey"/>
  </node>
  <node id="427837246" version="3" timestamp="2009-08-12T14:06:25Z" uid="156995" user="HampelZamba" changeset="2119076" lat="48.0849081" lon="11.5049974">
    <tag k="addr:city" v="München"/>
    <tag k="addr:country" v="DE"/>
    <tag k="addr:housenumber" v="13"/>
    <tag k="addr:postcode" v="81477"/>
    <tag k="addr:street" v="Gabriele-Münter-Straße"/>
    <tag k="name" v="13"/>
    <tag k="source" v="survey"/>
  </node>
  <node id="427837246" version="4" timestamp="2009-08-19T00:50:54Z" uid="36809" user="pfoten_weg_!_" changeset="2196288" lat="48.0849081" lon="11.5049974">
    <tag k="addr:city" v="München"/>
    <tag k="addr:country" v="DE"/>
    <tag k="addr:housenumber" v="13"/>
    <tag k="addr:postcode" v="81477"/>
    <tag k="addr:street" v="Gabriele-Münter-Straße"/>
    <tag k="name" v="13"/>
    <tag k="source" v="survey"/>
  </node>
  <node id="427837247" version="1" timestamp="2009-06-21T23:52:20Z" uid="36809" user="pfoten_weg_!_" changeset="1589495" lat="48.0849058" lon="11.5052129">
    <tag k="addr:city" v="München"/>
    <tag k="addr:country" v="DE"/>
    <tag k="addr:housenumber" v="15"/>
    <tag k="addr:postcode" v="81477"/>
    <tag k="addr:street" v="Gabriele-Münter-Straße"/>
    <tag k="created_by" v="RambaZamba"/>
    <tag k="name" v="15"/>
    <tag k="source" v="survey"/>
  </node>
  <node id="427837247" version="2" timestamp="2009-07-14T16:16:30Z" uid="36809" user="pfoten_weg_!_" changeset="1828190" lat="48.0849058" lon="11.5052129">
    <tag k="addr:city" v="München"/>
    <tag k="addr:country" v="DE"/>
    <tag k="addr:housenumber" v="15"/>
    <tag k="addr:postcode" v="81477"/>
    <tag k="addr:street" v="Gabriele-Münter-Straße"/>
    <tag k="discovered_by" v="RambaZamba"/>
    <tag k="name" v="15"/>
    <tag k="source" v="survey"/>
  </node>
  <node id="427837247" version="3" timestamp="2009-08-12T14:06:25Z" uid="156995" user="HampelZamba" changeset="2119076" lat="48.0849058" lon="11.5052129">
    <tag k="addr:city" v="München"/>
    <tag k="addr:country" v="DE"/>
    <tag k="addr:housenumber" v="15"/>
    <tag k="addr:postcode" v="81477"/>
    <tag k="addr:street" v="Gabriele-Münter-Straße"/>
    <tag k="name" v="15"/>
    <tag k="source" v="survey"/>
  </node>
  <node id="427837247" version="4" timestamp="2009-08-19T00:50:54Z" uid="36809" user="pfoten_weg_!_" changeset="2196288" lat="48.0849058" lon="11.5052129">
    <tag k="addr:city" v="München"/>
    <tag k="addr:country" v="DE"/>
    <tag k="addr:housenumber" v="15"/>
    <tag k="addr:postcode" v="81477"/>
    <tag k="addr:street" v="Gabriele-Münter-Straße"/>
    <tag k="name" v="15"/>
    <tag k="source" v="survey"/>
  </node>
  <node id="427837248" version="1" timestamp="2009-06-21T23:52:20Z" uid="36809" user="pfoten_weg_!_" changeset="1589495" lat="48.0852256" lon="11.5047913">
    <tag k="addr:city" v="München"/>
    <tag k="addr:country" v="DE"/>
    <tag k="addr:housenumber" v="3"/>
    <tag k="addr:postcode" v="81477"/>
    <tag k="addr:street" v="Gabriele-Münter-Straße"/>
    <tag k="created_by" v="RambaZamba"/>
    <tag k="name" v="3"/>
    <tag k="source" v="survey"/>
  </node>
  <node id="427837248" version="2" timestamp="2009-08-12T14:06:25Z" uid="156995" user="HampelZamba" changeset="2119076" lat="48.0852256" lon="11.5047913">
    <tag k="addr:city" v="München"/>
    <tag k="addr:country" v="DE"/>
    <tag k="addr:housenumber" v="3"/>
    <tag k="addr:postcode" v="81477"/>
    <tag k="addr:street" v="Gabriele-Münter-Straße"/>
    <tag k="name" v="3"/>
    <tag k="source" v="survey"/>
  </node>
  <node id="427837248" version="3" timestamp="2009-08-19T00:51:06Z" uid="36809" user="pfoten_weg_!_" changeset="2196288" lat="48.0852256" lon="11.5047913">
    <tag k="addr:city" v="München"/>
    <tag k="addr:country" v="DE"/>
    <tag k="addr:housenumber" v="3"/>
    <tag k="addr:postcode" v="81477"/>
    <tag k="addr:street" v="Gabriele-Münter-Straße"/>
    <tag k="name" v="3"/>
    <tag k="source" v="survey"/>
  </node>
  <node id="427837249" version="1" timestamp="2009-06-21T23:52:21Z" uid="36809" user="pfoten_weg_!_" changeset="1589495" lat="48.0849104" lon="11.5047833">
    <tag k="addr:city" v="München"/>
    <tag k="addr:country" v="DE"/>
    <tag k="addr:housenumber" v="11"/>
    <tag k="addr:postcode" v="81477"/>
    <tag k="addr:street" v="Gabriele-Münter-Straße"/>
    <tag k="created_by" v="RambaZamba"/>
    <tag k="name" v="11"/>
    <tag k="source" v="survey"/>
  </node>
  <node id="427837249" version="2" timestamp="2009-07-14T16:16:18Z" uid="36809" user="pfoten_weg_!_" changeset="1828190" lat="48.0849104" lon="11.5047833">
    <tag k="addr:city" v="München"/>
    <tag k="addr:country" v="DE"/>
    <tag k="addr:housenumber" v="11"/>
    <tag k="addr:postcode" v="81477"/>
    <tag k="addr:street" v="Gabriele-Münter-Straße"/>
    <tag k="discovered_by" v="RambaZamba"/>
    <tag k="name" v="11"/>
    <tag k="source" v="survey"/>
  </node>
  <node id="427837249" version="3" timestamp="2009-08-12T14:06:25Z" uid="156995" user="HampelZamba" changeset="2119076" lat="48.0849104" lon="11.5047833">
    <tag k="addr:city" v="München"/>
    <tag k="addr:country" v="DE"/>
    <tag k="addr:housenumber" v="11"/>
    <tag k="addr:postcode" v="81477"/>
    <tag k="addr:street" v="Gabriele-Münter-Straße"/>
    <tag k="name" v="11"/>
    <tag k="source" v="survey"/>
  </node>
  <node id="427837249" version="4" timestamp="2009-08-19T00:51:05Z" uid="36809" user="pfoten_weg_!_" changeset="2196288" lat="48.0849104" lon="11.5047833">
    <tag k="addr:city" v="München"/>
    <tag k="addr:country" v="DE"/>
    <tag k="addr:housenumber" v="11"/>
    <tag k="addr:postcode" v="81477"/>
    <tag k="addr:street" v="Gabriele-Münter-Straße"/>
    <tag k="name" v="11"/>
    <tag k="source" v="survey"/>
  </node>
  <node id="427837250" version="1" timestamp="2009-06-21T23:52:21Z" uid="36809" user="pfoten_weg_!_" changeset="1589495" lat="48.0845952" lon="11.505212">
    <tag k="addr:city" v="München"/>
    <tag k="addr:country" v="DE"/>
    <tag k="addr:housenumber" v="23"/>
    <tag k="addr:postcode" v="81477"/>
    <tag k="addr:street" v="Gabriele-Münter-Straße"/>
    <tag k="created_by" v="RambaZamba"/>
    <tag k="name" v="23"/>
    <tag k="source" v="survey"/>
  </node>
  <node id="427837250" version="2" timestamp="2009-07-14T16:16:18Z" uid="36809" user="pfoten_weg_!_" changeset="1828190" lat="48.0845952" lon="11.505212">
    <tag k="addr:city" v="München"/>
    <tag k="addr:country" v="DE"/>
    <tag k="addr:housenumber" v="23"/>
    <tag k="addr:postcode" v="81477"/>
    <tag k="addr:street" v="Gabriele-Münter-Straße"/>
    <tag k="discovered_by" v="RambaZamba"/>
    <tag k="name" v="23"/>
    <tag k="source" v="survey"/>
  </node>
  <node id="427837250" version="3" timestamp="2009-08-12T14:06:25Z" uid="156995" user="HampelZamba" changeset="2119076" lat="48.0845952" lon="11.505212">
    <tag k="addr:city" v="München"/>
    <tag k="addr:country" v="DE"/>
    <tag k="addr:housenumber" v="23"/>
    <tag k="addr:postcode" v="81477"/>
    <tag k="addr:street" v="Gabriele-Münter-Straße"/>
    <tag k="name" v="23"/>
    <tag k="source" v="survey"/>
  </node>
  <node id="427837250" version="4" timestamp="2009-08-19T00:51:04Z" uid="36809" user="pfoten_weg_!_" changeset="2196288" lat="48.0845952" lon="11.505212">
    <tag k="addr:city" v="München"/>
    <tag k="addr:country" v="DE"/>
    <tag k="addr:housenumber" v="23"/>
    <tag k="addr:postcode" v="81477"/>
    <tag k="addr:street" v="Gabriele-Münter-Straße"/>
    <tag k="name" v="23"/>
    <tag k="source" v="survey"/>
  </node>
  <node id="427837251" version="1" timestamp="2009-06-21T23:52:21Z" uid="36809" user="pfoten_weg_!_" changeset="1589495" lat="48.0845956" lon="11.504996">
    <tag k="addr:city" v="München"/>
    <tag k="addr:country" v="DE"/>
    <tag k="addr:housenumber" v="21"/>
    <tag k="addr:postcode" v="81477"/>
    <tag k="addr:street" v="Gabriele-Münter-Straße"/>
    <tag k="created_by" v="RambaZamba"/>
    <tag k="name" v="21"/>
    <tag k="source" v="survey"/>
  </node>
  <node id="427837251" version="2" timestamp="2009-07-14T16:16:18Z" uid="36809" user="pfoten_weg_!_" changeset="1828190" lat="48.0845956" lon="11.504996">
    <tag k="addr:city" v="München"/>
    <tag k="addr:country" v="DE"/>
    <tag k="addr:housenumber" v="21"/>
    <tag k="addr:postcode" v="81477"/>
    <tag k="addr:street" v="Gabriele-Münter-Straße"/>
    <tag k="discovered_by" v="RambaZamba"/>
    <tag k="name" v="21"/>
    <tag k="source" v="survey"/>
  </node>
  <node id="427837251" version="3" timestamp="2009-08-12T14:06:25Z" uid="156995" user="HampelZamba" changeset="2119076" lat="48.0845956" lon="11.504996">
    <tag k="addr:city" v="München"/>
    <tag k="addr:country" v="DE"/>
    <tag k="addr:housenumber" v="21"/>
    <tag k="addr:postcode" v="81477"/>
    <tag k="addr:street" v="Gabriele-Münter-Straße"/>
    <tag k="name" v="21"/>
    <tag k="source" v="survey"/>
  </node>
  <node id="427837251" version="4" timestamp="2009-08-19T00:51:04Z" uid="36809" user="pfoten_weg_!_" changeset="2196288" lat="48.0845956" lon="11.504996">
    <tag k="addr:city" v="München"/>
    <tag k="addr:country" v="DE"/>
    <tag k="addr:housenumber" v="21"/>
    <tag k="addr:postcode" v="81477"/>
    <tag k="addr:street" v="Gabriele-Münter-Straße"/>
    <tag k="name" v="21"/>
    <tag k="source" v="survey"/>
  </node>
  <node id="427837252" version="1" timestamp="2009-06-21T23:52:22Z" uid="36809" user="pfoten_weg_!_" changeset="1589495" lat="48.084877" lon="11.505484">
    <tag k="addr:city" v="München"/>
    <tag k="addr:country" v="DE"/>
    <tag k="addr:housenumber" v="17"/>
    <tag k="addr:postcode" v="81477"/>
    <tag k="addr:street" v="Gabriele-Münter-Straße"/>
    <tag k="created_by" v="RambaZamba"/>
    <tag k="name" v="17"/>
    <tag k="source" v="survey"/>
  </node>
  <node id="427837252" version="2" timestamp="2009-07-14T16:16:17Z" uid="36809" user="pfoten_weg_!_" changeset="1828190" lat="48.084877" lon="11.505484">
    <tag k="addr:city" v="München"/>
    <tag k="addr:country" v="DE"/>
    <tag k="addr:housenumber" v="17"/>
    <tag k="addr:postcode" v="81477"/>
    <tag k="addr:street" v="Gabriele-Münter-Straße"/>
    <tag k="discovered_by" v="RambaZamba"/>
    <tag k="name" v="17"/>
    <tag k="source" v="survey"/>
  </node>
  <node id="427837252" version="3" timestamp="2009-08-12T14:06:26Z" uid="156995" user="HampelZamba" changeset="2119076" lat="48.084877" lon="11.505484">
    <tag k="addr:city" v="München"/>
    <tag k="addr:country" v="DE"/>
    <tag k="addr:housenumber" v="17"/>
    <tag k="addr:postcode" v="81477"/>
    <tag k="addr:street" v="Gabriele-Münter-Straße"/>
    <tag k="name" v="17"/>
    <tag k="source" v="survey"/>
  </node>
  <node id="427837252" version="4" timestamp="2009-08-19T00:51:07Z" uid="36809" user="pfoten_weg_!_" changeset="2196288" lat="48.084877" lon="11.505484">
    <tag k="addr:city" v="München"/>
    <tag k="addr:country" v="DE"/>
    <tag k="addr:housenumber" v="17"/>
    <tag k="addr:postcode" v="81477"/>
    <tag k="addr:street" v="Gabriele-Münter-Straße"/>
    <tag k="name" v="17"/>
    <tag k="source" v="survey"/>
  </node>
  <node id="427837253" version="1" timestamp="2009-06-21T23:52:22Z" uid="36809" user="pfoten_weg_!_" changeset="1589495" lat="48.084565" lon="11.505483">
    <tag k="addr:city" v="München"/>
    <tag k="addr:country" v="DE"/>
    <tag k="addr:housenumber" v="25"/>
    <tag k="addr:postcode" v="81477"/>
    <tag k="addr:street" v="Gabriele-Münter-Straße"/>
    <tag k="created_by" v="RambaZamba"/>
    <tag k="name" v="25"/>
    <tag k="source" v="survey"/>
  </node>
  <node id="427837253" version="2" timestamp="2009-07-14T16:16:17Z" uid="36809" user="pfoten_weg_!_" changeset="1828190" lat="48.084565" lon="11.505483">
    <tag k="addr:city" v="München"/>
    <tag k="addr:country" v="DE"/>
    <tag k="addr:housenumber" v="25"/>
    <tag k="addr:postcode" v="81477"/>
    <tag k="addr:street" v="Gabriele-Münter-Straße"/>
    <tag k="discovered_by" v="RambaZamba"/>
    <tag k="name" v="25"/>
    <tag k="source" v="survey"/>
  </node>
  <node id="427837253" version="3" timestamp="2009-08-12T14:06:26Z" uid="156995" user="HampelZamba" changeset="2119076" lat="48.084565" lon="11.505483">
    <tag k="addr:city" v="München"/>
    <tag k="addr:country" v="DE"/>
    <tag k="addr:housenumber" v="25"/>
    <tag k="addr:postcode" v="81477"/>
    <tag k="addr:street" v="Gabriele-Münter-Straße"/>
    <tag k="name" v="25"/>
    <tag k="source" v="survey"/>
  </node>
  <node id="427837253" version="4" timestamp="2009-08-19T00:51:06Z" uid="36809" user="pfoten_weg_!_" changeset="2196288" lat="48.084565" lon="11.505483">
    <tag k="addr:city" v="München"/>
    <tag k="addr:country" v="DE"/>
    <tag k="addr:housenumber" v="25"/>
    <tag k="addr:postcode" v="81477"/>
    <tag k="addr:street" v="Gabriele-Münter-Straße"/>
    <tag k="name" v="25"/>
    <tag k="source" v="survey"/>
  </node>
  <node id="427837254" version="1" timestamp="2009-06-21T23:52:23Z" uid="36809" user="pfoten_weg_!_" changeset="1589495" lat="48.0840139" lon="11.5052129">
    <tag k="addr:city" v="München"/>
    <tag k="addr:country" v="DE"/>
    <tag k="addr:housenumber" v="22"/>
    <tag k="addr:postcode" v="81477"/>
    <tag k="addr:street" v="Paul-Klee-Straße"/>
    <tag k="created_by" v="RambaZamba"/>
    <tag k="name" v="22"/>
    <tag k="source" v="survey"/>
  </node>
  <node id="427837254" version="2" timestamp="2009-07-14T16:16:17Z" uid="36809" user="pfoten_weg_!_" changeset="1828190" lat="48.0840139" lon="11.5052129">
    <tag k="addr:city" v="München"/>
    <tag k="addr:country" v="DE"/>
    <tag k="addr:housenumber" v="22"/>
    <tag k="addr:postcode" v="81477"/>
    <tag k="addr:street" v="Paul-Klee-Straße"/>
    <tag k="discovered_by" v="RambaZamba"/>
    <tag k="name" v="22"/>
    <tag k="source" v="survey"/>
  </node>
  <node id="427837254" version="3" timestamp="2009-08-12T14:06:26Z" uid="156995" user="HampelZamba" changeset="2119076" lat="48.0840139" lon="11.5052129">
    <tag k="addr:city" v="München"/>
    <tag k="addr:country" v="DE"/>
    <tag k="addr:housenumber" v="22"/>
    <tag k="addr:postcode" v="81477"/>
    <tag k="addr:street" v="Paul-Klee-Straße"/>
    <tag k="name" v="22"/>
    <tag k="source" v="survey"/>
  </node>
  <node id="427837254" version="4" timestamp="2009-08-19T00:51:06Z" uid="36809" user="pfoten_weg_!_" changeset="2196288" lat="48.0840139" lon="11.5052129">
    <tag k="addr:city" v="München"/>
    <tag k="addr:country" v="DE"/>
    <tag k="addr:housenumber" v="22"/>
    <tag k="addr:postcode" v="81477"/>
    <tag k="addr:street" v="Paul-Klee-Straße"/>
    <tag k="name" v="22"/>
    <tag k="source" v="survey"/>
  </node>
  <node id="427837255" version="1" timestamp="2009-06-21T23:52:23Z" uid="36809" user="pfoten_weg_!_" changeset="1589495" lat="48.084106" lon="11.505169">
    <tag k="addr:city" v="München"/>
    <tag k="addr:country" v="DE"/>
    <tag k="addr:housenumber" v="20"/>
    <tag k="addr:postcode" v="81477"/>
    <tag k="addr:street" v="Paul-Klee-Straße"/>
    <tag k="created_by" v="RambaZamba"/>
    <tag k="name" v="20"/>
    <tag k="source" v="survey"/>
  </node>
  <node id="427837255" version="2" timestamp="2009-07-14T16:16:17Z" uid="36809" user="pfoten_weg_!_" changeset="1828190" lat="48.084106" lon="11.505169">
    <tag k="addr:city" v="München"/>
    <tag k="addr:country" v="DE"/>
    <tag k="addr:housenumber" v="20"/>
    <tag k="addr:postcode" v="81477"/>
    <tag k="addr:street" v="Paul-Klee-Straße"/>
    <tag k="discovered_by" v="RambaZamba"/>
    <tag k="name" v="20"/>
    <tag k="source" v="survey"/>
  </node>
  <node id="427837255" version="3" timestamp="2009-08-12T14:06:26Z" uid="156995" user="HampelZamba" changeset="2119076" lat="48.084106" lon="11.505169">
    <tag k="addr:city" v="München"/>
    <tag k="addr:country" v="DE"/>
    <tag k="addr:housenumber" v="20"/>
    <tag k="addr:postcode" v="81477"/>
    <tag k="addr:street" v="Paul-Klee-Straße"/>
    <tag k="name" v="20"/>
    <tag k="source" v="survey"/>
  </node>
  <node id="427837255" version="4" timestamp="2009-08-19T00:51:06Z" uid="36809" user="pfoten_weg_!_" changeset="2196288" lat="48.084106" lon="11.505169">
    <tag k="addr:city" v="München"/>
    <tag k="addr:country" v="DE"/>
    <tag k="addr:housenumber" v="20"/>
    <tag k="addr:postcode" v="81477"/>
    <tag k="addr:street" v="Paul-Klee-Straße"/>
    <tag k="name" v="20"/>
    <tag k="source" v="survey"/>
  </node>
  <node id="427837256" version="1" timestamp="2009-06-21T23:52:23Z" uid="36809" user="pfoten_weg_!_" changeset="1589495" lat="48.084227" lon="11.50513">
    <tag k="addr:city" v="München"/>
    <tag k="addr:country" v="DE"/>
    <tag k="addr:housenumber" v="44"/>
    <tag k="addr:postcode" v="81477"/>
    <tag k="addr:street" v="Paul-Klee-Straße"/>
    <tag k="created_by" v="RambaZamba"/>
    <tag k="name" v="44"/>
    <tag k="source" v="survey"/>
  </node>
  <node id="427837256" version="2" timestamp="2009-07-14T16:16:16Z" uid="36809" user="pfoten_weg_!_" changeset="1828190" lat="48.084227" lon="11.50513">
    <tag k="addr:city" v="München"/>
    <tag k="addr:country" v="DE"/>
    <tag k="addr:housenumber" v="44"/>
    <tag k="addr:postcode" v="81477"/>
    <tag k="addr:street" v="Paul-Klee-Straße"/>
    <tag k="discovered_by" v="RambaZamba"/>
    <tag k="name" v="44"/>
    <tag k="source" v="survey"/>
  </node>
  <node id="427837256" version="3" timestamp="2009-08-12T14:06:26Z" uid="156995" user="HampelZamba" changeset="2119076" lat="48.084227" lon="11.50513">
    <tag k="addr:city" v="München"/>
    <tag k="addr:country" v="DE"/>
    <tag k="addr:housenumber" v="44"/>
    <tag k="addr:postcode" v="81477"/>
    <tag k="addr:street" v="Paul-Klee-Straße"/>
    <tag k="name" v="44"/>
    <tag k="source" v="survey"/>
  </node>
  <node id="427837256" version="4" timestamp="2009-08-19T00:51:07Z" uid="36809" user="pfoten_weg_!_" changeset="2196288" lat="48.084227" lon="11.50513">
    <tag k="addr:city" v="München"/>
    <tag k="addr:country" v="DE"/>
    <tag k="addr:housenumber" v="44"/>
    <tag k="addr:postcode" v="81477"/>
    <tag k="addr:street" v="Paul-Klee-Straße"/>
    <tag k="name" v="44"/>
    <tag k="source" v="survey"/>
  </node>
  <node id="427837257" version="1" timestamp="2009-06-21T23:52:24Z" uid="36809" user="pfoten_weg_!_" changeset="1589495" lat="48.084596" lon="11.50478">
    <tag k="addr:city" v="München"/>
    <tag k="addr:country" v="DE"/>
    <tag k="addr:housenumber" v="19"/>
    <tag k="addr:postcode" v="81477"/>
    <tag k="addr:street" v="Gabriele-Münter-Straße"/>
    <tag k="created_by" v="RambaZamba"/>
    <tag k="name" v="19"/>
    <tag k="source" v="survey"/>
  </node>
  <node id="427837257" version="2" timestamp="2009-07-14T16:16:16Z" uid="36809" user="pfoten_weg_!_" changeset="1828190" lat="48.084596" lon="11.50478">
    <tag k="addr:city" v="München"/>
    <tag k="addr:country" v="DE"/>
    <tag k="addr:housenumber" v="19"/>
    <tag k="addr:postcode" v="81477"/>
    <tag k="addr:street" v="Gabriele-Münter-Straße"/>
    <tag k="discovered_by" v="RambaZamba"/>
    <tag k="name" v="19"/>
    <tag k="source" v="survey"/>
  </node>
  <node id="427837257" version="3" timestamp="2009-08-12T14:06:26Z" uid="156995" user="HampelZamba" changeset="2119076" lat="48.084596" lon="11.50478">
    <tag k="addr:city" v="München"/>
    <tag k="addr:country" v="DE"/>
    <tag k="addr:housenumber" v="19"/>
    <tag k="addr:postcode" v="81477"/>
    <tag k="addr:street" v="Gabriele-Münter-Straße"/>
    <tag k="name" v="19"/>
    <tag k="source" v="survey"/>
  </node>
  <node id="427837257" version="4" timestamp="2009-08-19T00:51:07Z" uid="36809" user="pfoten_weg_!_" changeset="2196288" lat="48.084596" lon="11.50478">
    <tag k="addr:city" v="München"/>
    <tag k="addr:country" v="DE"/>
    <tag k="addr:housenumber" v="19"/>
    <tag k="addr:postcode" v="81477"/>
    <tag k="addr:street" v="Gabriele-Münter-Straße"/>
    <tag k="name" v="19"/>
    <tag k="source" v="survey"/>
  </node>
  <node id="427837258" version="1" timestamp="2009-06-21T23:52:24Z" uid="36809" user="pfoten_weg_!_" changeset="1589495" lat="48.0836255" lon="11.5053977">
    <tag k="addr:city" v="München"/>
    <tag k="addr:country" v="DE"/>
    <tag k="addr:housenumber" v="26"/>
    <tag k="addr:postcode" v="81477"/>
    <tag k="addr:street" v="Stockmannstraße"/>
    <tag k="created_by" v="RambaZamba"/>
    <tag k="name" v="26"/>
    <tag k="source" v="survey"/>
  </node>
  <node id="427837258" version="2" timestamp="2009-07-14T16:16:16Z" uid="36809" user="pfoten_weg_!_" changeset="1828190" lat="48.0836255" lon="11.5053977">
    <tag k="addr:city" v="München"/>
    <tag k="addr:country" v="DE"/>
    <tag k="addr:housenumber" v="26"/>
    <tag k="addr:postcode" v="81477"/>
    <tag k="addr:street" v="Stockmannstraße"/>
    <tag k="discovered_by" v="RambaZamba"/>
    <tag k="name" v="26"/>
    <tag k="source" v="survey"/>
  </node>
  <node id="427837258" version="3" timestamp="2009-08-12T14:06:26Z" uid="156995" user="HampelZamba" changeset="2119076" lat="48.0836255" lon="11.5053977">
    <tag k="addr:city" v="München"/>
    <tag k="addr:country" v="DE"/>
    <tag k="addr:housenumber" v="26"/>
    <tag k="addr:postcode" v="81477"/>
    <tag k="addr:street" v="Stockmannstraße"/>
    <tag k="name" v="26"/>
    <tag k="source" v="survey"/>
  </node>
  <node id="427837258" version="4" timestamp="2009-08-19T01:35:50Z" uid="36809" user="pfoten_weg_!_" changeset="2196399" lat="48.0836255" lon="11.5053977">
    <tag k="addr:city" v="München"/>
    <tag k="addr:country" v="DE"/>
    <tag k="addr:housenumber" v="26"/>
    <tag k="addr:postcode" v="81477"/>
    <tag k="addr:street" v="Stockmannstraße"/>
    <tag k="name" v="26"/>
    <tag k="source" v="survey"/>
    <tag k="warnung" v="rumpelzumpel-verbrecher"/>
  </node>
  <node id="427837258" version="5" timestamp="2009-08-19T02:02:58Z" uid="36809" user="pfoten_weg_!_" changeset="2196453" lat="48.0836255" lon="11.5053977">
    <tag k="addr:city" v="München"/>
    <tag k="addr:country" v="DE"/>
    <tag k="addr:housenumber" v="26"/>
    <tag k="addr:postcode" v="81477"/>
    <tag k="addr:street" v="Stockmannstraße"/>
    <tag k="name" v="26"/>
    <tag k="source" v="survey"/>
  </node>
  <node id="427837258" version="6" timestamp="2009-10-02T20:44:17Z" uid="86259" user="hasse_osm_korinthenkacker" changeset="2717407" lat="48.0836255" lon="11.5053977">
    <tag k="addr:city" v="München"/>
    <tag k="addr:country" v="DE"/>
    <tag k="addr:housenumber" v="26"/>
    <tag k="addr:postcode" v="81477"/>
    <tag k="addr:street" v="Stockmannstraße"/>
    <tag k="name" v="26"/>
    <tag k="source" v="survey"/>
  </node>
  <node id="427837259" version="1" timestamp="2009-06-21T23:52:24Z" uid="36809" user="pfoten_weg_!_" changeset="1589495" lat="48.0837256" lon="11.50535">
    <tag k="addr:city" v="München"/>
    <tag k="addr:country" v="DE"/>
    <tag k="addr:housenumber" v="28"/>
    <tag k="addr:postcode" v="81477"/>
    <tag k="addr:street" v="Stockmannstraße"/>
    <tag k="created_by" v="RambaZamba"/>
    <tag k="name" v="28"/>
    <tag k="source" v="survey"/>
  </node>
  <node id="427837259" version="2" timestamp="2009-07-14T16:16:17Z" uid="36809" user="pfoten_weg_!_" changeset="1828190" lat="48.0837256" lon="11.50535">
    <tag k="addr:city" v="München"/>
    <tag k="addr:country" v="DE"/>
    <tag k="addr:housenumber" v="28"/>
    <tag k="addr:postcode" v="81477"/>
    <tag k="addr:street" v="Stockmannstraße"/>
    <tag k="discovered_by" v="RambaZamba"/>
    <tag k="name" v="28"/>
    <tag k="source" v="survey"/>
  </node>
  <node id="427837259" version="3" timestamp="2009-08-12T14:06:26Z" uid="156995" user="HampelZamba" changeset="2119076" lat="48.0837256" lon="11.50535">
    <tag k="addr:city" v="München"/>
    <tag k="addr:country" v="DE"/>
    <tag k="addr:housenumber" v="28"/>
    <tag k="addr:postcode" v="81477"/>
    <tag k="addr:street" v="Stockmannstraße"/>
    <tag k="name" v="28"/>
    <tag k="source" v="survey"/>
  </node>
  <node id="427837259" version="4" timestamp="2009-08-19T01:35:50Z" uid="36809" user="pfoten_weg_!_" changeset="2196399" lat="48.0837256" lon="11.50535">
    <tag k="addr:city" v="München"/>
    <tag k="addr:country" v="DE"/>
    <tag k="addr:housenumber" v="28"/>
    <tag k="addr:postcode" v="81477"/>
    <tag k="addr:street" v="Stockmannstraße"/>
    <tag k="name" v="28"/>
    <tag k="source" v="survey"/>
    <tag k="warnung" v="rumpelzumpel-verbrecher"/>
  </node>
  <node id="427837259" version="5" timestamp="2009-08-19T02:02:59Z" uid="36809" user="pfoten_weg_!_" changeset="2196453" lat="48.0837256" lon="11.50535">
    <tag k="addr:city" v="München"/>
    <tag k="addr:country" v="DE"/>
    <tag k="addr:housenumber" v="28"/>
    <tag k="addr:postcode" v="81477"/>
    <tag k="addr:street" v="Stockmannstraße"/>
    <tag k="name" v="28"/>
    <tag k="source" v="survey"/>
  </node>
  <node id="427837259" version="6" timestamp="2009-10-02T20:44:16Z" uid="86259" user="hasse_osm_korinthenkacker" changeset="2717407" lat="48.0837256" lon="11.50535">
    <tag k="addr:city" v="München"/>
    <tag k="addr:country" v="DE"/>
    <tag k="addr:housenumber" v="28"/>
    <tag k="addr:postcode" v="81477"/>
    <tag k="addr:street" v="Stockmannstraße"/>
    <tag k="name" v="28"/>
    <tag k="source" v="survey"/>
  </node>
  <node id="427837260" version="1" timestamp="2009-06-21T23:52:25Z" uid="36809" user="pfoten_weg_!_" changeset="1589495" lat="48.0838248" lon="11.5053029">
    <tag k="addr:city" v="München"/>
    <tag k="addr:country" v="DE"/>
    <tag k="addr:housenumber" v="30"/>
    <tag k="addr:postcode" v="81477"/>
    <tag k="addr:street" v="Stockmannstraße"/>
    <tag k="created_by" v="RambaZamba"/>
    <tag k="name" v="30"/>
    <tag k="source" v="survey"/>
  </node>
  <node id="427837260" version="2" timestamp="2009-07-14T16:16:15Z" uid="36809" user="pfoten_weg_!_" changeset="1828190" lat="48.0838248" lon="11.5053029">
    <tag k="addr:city" v="München"/>
    <tag k="addr:country" v="DE"/>
    <tag k="addr:housenumber" v="30"/>
    <tag k="addr:postcode" v="81477"/>
    <tag k="addr:street" v="Stockmannstraße"/>
    <tag k="discovered_by" v="RambaZamba"/>
    <tag k="name" v="30"/>
    <tag k="source" v="survey"/>
  </node>
  <node id="427837260" version="3" timestamp="2009-08-12T14:06:26Z" uid="156995" user="HampelZamba" changeset="2119076" lat="48.0838248" lon="11.5053029">
    <tag k="addr:city" v="München"/>
    <tag k="addr:country" v="DE"/>
    <tag k="addr:housenumber" v="30"/>
    <tag k="addr:postcode" v="81477"/>
    <tag k="addr:street" v="Stockmannstraße"/>
    <tag k="name" v="30"/>
    <tag k="source" v="survey"/>
  </node>
  <node id="427837260" version="4" timestamp="2009-08-19T01:35:49Z" uid="36809" user="pfoten_weg_!_" changeset="2196399" lat="48.0838248" lon="11.5053029">
    <tag k="addr:city" v="München"/>
    <tag k="addr:country" v="DE"/>
    <tag k="addr:housenumber" v="30"/>
    <tag k="addr:postcode" v="81477"/>
    <tag k="addr:street" v="Stockmannstraße"/>
    <tag k="name" v="30"/>
    <tag k="source" v="survey"/>
    <tag k="warnung" v="rumpelzumpel-verbrecher"/>
  </node>
  <node id="427837260" version="5" timestamp="2009-08-19T02:02:57Z" uid="36809" user="pfoten_weg_!_" changeset="2196453" lat="48.0838248" lon="11.5053029">
    <tag k="addr:city" v="München"/>
    <tag k="addr:country" v="DE"/>
    <tag k="addr:housenumber" v="30"/>
    <tag k="addr:postcode" v="81477"/>
    <tag k="addr:street" v="Stockmannstraße"/>
    <tag k="name" v="30"/>
    <tag k="source" v="survey"/>
  </node>
  <node id="427837260" version="6" timestamp="2009-10-02T20:44:16Z" uid="86259" user="hasse_osm_korinthenkacker" changeset="2717407" lat="48.0838248" lon="11.5053029">
    <tag k="addr:city" v="München"/>
    <tag k="addr:country" v="DE"/>
    <tag k="addr:housenumber" v="30"/>
    <tag k="addr:postcode" v="81477"/>
    <tag k="addr:street" v="Stockmannstraße"/>
    <tag k="name" v="30"/>
    <tag k="source" v="survey"/>
  </node>
  <node id="427837261" version="1" timestamp="2009-06-21T23:52:25Z" uid="36809" user="pfoten_weg_!_" changeset="1589495" lat="48.0839236" lon="11.5052558">
    <tag k="addr:city" v="München"/>
    <tag k="addr:country" v="DE"/>
    <tag k="addr:housenumber" v="24"/>
    <tag k="addr:postcode" v="81477"/>
    <tag k="addr:street" v="Paul-Klee-Straße"/>
    <tag k="created_by" v="RambaZamba"/>
    <tag k="name" v="24"/>
    <tag k="source" v="survey"/>
  </node>
  <node id="427837261" version="2" timestamp="2009-07-14T16:16:16Z" uid="36809" user="pfoten_weg_!_" changeset="1828190" lat="48.0839236" lon="11.5052558">
    <tag k="addr:city" v="München"/>
    <tag k="addr:country" v="DE"/>
    <tag k="addr:housenumber" v="24"/>
    <tag k="addr:postcode" v="81477"/>
    <tag k="addr:street" v="Paul-Klee-Straße"/>
    <tag k="discovered_by" v="RambaZamba"/>
    <tag k="name" v="24"/>
    <tag k="source" v="survey"/>
  </node>
  <node id="427837261" version="3" timestamp="2009-08-12T14:06:26Z" uid="156995" user="HampelZamba" changeset="2119076" lat="48.0839236" lon="11.5052558">
    <tag k="addr:city" v="München"/>
    <tag k="addr:country" v="DE"/>
    <tag k="addr:housenumber" v="24"/>
    <tag k="addr:postcode" v="81477"/>
    <tag k="addr:street" v="Paul-Klee-Straße"/>
    <tag k="name" v="24"/>
    <tag k="source" v="survey"/>
  </node>
  <node id="427837261" version="4" timestamp="2009-08-19T01:35:49Z" uid="36809" user="pfoten_weg_!_" changeset="2196399" lat="48.0839236" lon="11.5052558">
    <tag k="addr:city" v="München"/>
    <tag k="addr:country" v="DE"/>
    <tag k="addr:housenumber" v="24"/>
    <tag k="addr:postcode" v="81477"/>
    <tag k="addr:street" v="Paul-Klee-Straße"/>
    <tag k="name" v="24"/>
    <tag k="source" v="survey"/>
    <tag k="warnung" v="rumpelzumpel-verbrecher"/>
  </node>
  <node id="427837261" version="5" timestamp="2009-08-19T02:02:57Z" uid="36809" user="pfoten_weg_!_" changeset="2196453" lat="48.0839236" lon="11.5052558">
    <tag k="addr:city" v="München"/>
    <tag k="addr:country" v="DE"/>
    <tag k="addr:housenumber" v="24"/>
    <tag k="addr:postcode" v="81477"/>
    <tag k="addr:street" v="Paul-Klee-Straße"/>
    <tag k="name" v="24"/>
    <tag k="source" v="survey"/>
  </node>
  <node id="427837261" version="6" timestamp="2009-10-02T20:44:16Z" uid="86259" user="hasse_osm_korinthenkacker" changeset="2717407" lat="48.0839236" lon="11.5052558">
    <tag k="addr:city" v="München"/>
    <tag k="addr:country" v="DE"/>
    <tag k="addr:housenumber" v="24"/>
    <tag k="addr:postcode" v="81477"/>
    <tag k="addr:street" v="Paul-Klee-Straße"/>
    <tag k="name" v="24"/>
    <tag k="source" v="survey"/>
  </node>
  <node id="427837262" version="1" timestamp="2009-06-21T23:52:25Z" uid="36809" user="pfoten_weg_!_" changeset="1589495" lat="48.079285" lon="11.5066846">
    <tag k="addr:city" v="München"/>
    <tag k="addr:country" v="DE"/>
    <tag k="addr:housenumber" v="8"/>
    <tag k="addr:postcode" v="81477"/>
    <tag k="addr:street" v="Alfred-Kubin-Weg"/>
    <tag k="created_by" v="RambaZamba"/>
    <tag k="name" v="8"/>
    <tag k="source" v="survey"/>
  </node>
  <node id="427837262" version="2" timestamp="2009-08-12T14:06:27Z" uid="156995" user="HampelZamba" changeset="2119076" lat="48.079285" lon="11.5066846">
    <tag k="addr:city" v="München"/>
    <tag k="addr:country" v="DE"/>
    <tag k="addr:housenumber" v="8"/>
    <tag k="addr:postcode" v="81477"/>
    <tag k="addr:street" v="Alfred-Kubin-Weg"/>
    <tag k="name" v="8"/>
    <tag k="source" v="survey"/>
  </node>
  <node id="427837262" version="3" timestamp="2009-08-19T01:00:07Z" uid="36809" user="pfoten_weg_!_" changeset="2196309" lat="48.079285" lon="11.5066846">
    <tag k="addr:city" v="München"/>
    <tag k="addr:country" v="DE"/>
    <tag k="addr:housenumber" v="8"/>
    <tag k="addr:postcode" v="81477"/>
    <tag k="addr:street" v="Alfred-Kubin-Weg"/>
    <tag k="name" v="8"/>
    <tag k="source" v="survey"/>
  </node>
  <node id="427837263" version="1" timestamp="2009-06-21T23:52:26Z" uid="36809" user="pfoten_weg_!_" changeset="1589495" lat="48.079372" lon="11.506682">
    <tag k="addr:city" v="München"/>
    <tag k="addr:country" v="DE"/>
    <tag k="addr:housenumber" v="6"/>
    <tag k="addr:postcode" v="81477"/>
    <tag k="addr:street" v="Alfred-Kubin-Weg"/>
    <tag k="created_by" v="RambaZamba"/>
    <tag k="name" v="6"/>
    <tag k="source" v="survey"/>
  </node>
  <node id="427837263" version="2" timestamp="2009-08-12T14:06:27Z" uid="156995" user="HampelZamba" changeset="2119076" lat="48.079372" lon="11.506682">
    <tag k="addr:city" v="München"/>
    <tag k="addr:country" v="DE"/>
    <tag k="addr:housenumber" v="6"/>
    <tag k="addr:postcode" v="81477"/>
    <tag k="addr:street" v="Alfred-Kubin-Weg"/>
    <tag k="name" v="6"/>
    <tag k="source" v="survey"/>
  </node>
  <node id="427837263" version="3" timestamp="2009-08-19T01:00:06Z" uid="36809" user="pfoten_weg_!_" changeset="2196309" lat="48.079372" lon="11.506682">
    <tag k="addr:city" v="München"/>
    <tag k="addr:country" v="DE"/>
    <tag k="addr:housenumber" v="6"/>
    <tag k="addr:postcode" v="81477"/>
    <tag k="addr:street" v="Alfred-Kubin-Weg"/>
    <tag k="name" v="6"/>
    <tag k="source" v="survey"/>
  </node>
  <node id="427837264" version="1" timestamp="2009-06-21T23:52:26Z" uid="36809" user="pfoten_weg_!_" changeset="1589495" lat="48.083419" lon="11.505496">
    <tag k="addr:city" v="München"/>
    <tag k="addr:country" v="DE"/>
    <tag k="addr:housenumber" v="22"/>
    <tag k="addr:postcode" v="81477"/>
    <tag k="addr:street" v="Stockmannstraße"/>
    <tag k="created_by" v="RambaZamba"/>
    <tag k="name" v="22"/>
    <tag k="source" v="survey"/>
  </node>
  <node id="427837264" version="2" timestamp="2009-07-14T16:16:19Z" uid="36809" user="pfoten_weg_!_" changeset="1828190" lat="48.083419" lon="11.505496">
    <tag k="addr:city" v="München"/>
    <tag k="addr:country" v="DE"/>
    <tag k="addr:housenumber" v="22"/>
    <tag k="addr:postcode" v="81477"/>
    <tag k="addr:street" v="Stockmannstraße"/>
    <tag k="discovered_by" v="RambaZamba"/>
    <tag k="name" v="22"/>
    <tag k="source" v="survey"/>
  </node>
  <node id="427837264" version="3" timestamp="2009-08-12T14:06:27Z" uid="156995" user="HampelZamba" changeset="2119076" lat="48.083419" lon="11.505496">
    <tag k="addr:city" v="München"/>
    <tag k="addr:country" v="DE"/>
    <tag k="addr:housenumber" v="22"/>
    <tag k="addr:postcode" v="81477"/>
    <tag k="addr:street" v="Stockmannstraße"/>
    <tag k="name" v="22"/>
    <tag k="source" v="survey"/>
  </node>
  <node id="427837264" version="4" timestamp="2009-08-19T01:35:53Z" uid="36809" user="pfoten_weg_!_" changeset="2196399" lat="48.083419" lon="11.505496">
    <tag k="addr:city" v="München"/>
    <tag k="addr:country" v="DE"/>
    <tag k="addr:housenumber" v="22"/>
    <tag k="addr:postcode" v="81477"/>
    <tag k="addr:street" v="Stockmannstraße"/>
    <tag k="name" v="22"/>
    <tag k="source" v="survey"/>
    <tag k="warnung" v="rumpelzumpel-verbrecher"/>
  </node>
  <node id="427837264" version="5" timestamp="2009-08-19T02:03:01Z" uid="36809" user="pfoten_weg_!_" changeset="2196453" lat="48.083419" lon="11.505496">
    <tag k="addr:city" v="München"/>
    <tag k="addr:country" v="DE"/>
    <tag k="addr:housenumber" v="22"/>
    <tag k="addr:postcode" v="81477"/>
    <tag k="addr:street" v="Stockmannstraße"/>
    <tag k="name" v="22"/>
    <tag k="source" v="survey"/>
  </node>
  <node id="427837264" version="6" timestamp="2009-10-02T20:44:14Z" uid="86259" user="hasse_osm_korinthenkacker" changeset="2717407" lat="48.083419" lon="11.505496">
    <tag k="addr:city" v="München"/>
    <tag k="addr:country" v="DE"/>
    <tag k="addr:housenumber" v="22"/>
    <tag k="addr:postcode" v="81477"/>
    <tag k="addr:street" v="Stockmannstraße"/>
    <tag k="name" v="22"/>
    <tag k="source" v="survey"/>
  </node>
  <node id="427837265" version="1" timestamp="2009-06-21T23:52:26Z" uid="36809" user="pfoten_weg_!_" changeset="1589495" lat="48.0835313" lon="11.5054426">
    <tag k="addr:city" v="München"/>
    <tag k="addr:country" v="DE"/>
    <tag k="addr:housenumber" v="24"/>
    <tag k="addr:postcode" v="81477"/>
    <tag k="addr:street" v="Stockmannstraße"/>
    <tag k="created_by" v="RambaZamba"/>
    <tag k="name" v="24"/>
    <tag k="source" v="survey"/>
  </node>
  <node id="427837265" version="2" timestamp="2009-07-14T16:16:19Z" uid="36809" user="pfoten_weg_!_" changeset="1828190" lat="48.0835313" lon="11.5054426">
    <tag k="addr:city" v="München"/>
    <tag k="addr:country" v="DE"/>
    <tag k="addr:housenumber" v="24"/>
    <tag k="addr:postcode" v="81477"/>
    <tag k="addr:street" v="Stockmannstraße"/>
    <tag k="discovered_by" v="RambaZamba"/>
    <tag k="name" v="24"/>
    <tag k="source" v="survey"/>
  </node>
  <node id="427837265" version="3" timestamp="2009-08-12T14:06:27Z" uid="156995" user="HampelZamba" changeset="2119076" lat="48.0835313" lon="11.5054426">
    <tag k="addr:city" v="München"/>
    <tag k="addr:country" v="DE"/>
    <tag k="addr:housenumber" v="24"/>
    <tag k="addr:postcode" v="81477"/>
    <tag k="addr:street" v="Stockmannstraße"/>
    <tag k="name" v="24"/>
    <tag k="source" v="survey"/>
  </node>
  <node id="427837265" version="4" timestamp="2009-08-19T01:35:53Z" uid="36809" user="pfoten_weg_!_" changeset="2196399" lat="48.0835313" lon="11.5054426">
    <tag k="addr:city" v="München"/>
    <tag k="addr:country" v="DE"/>
    <tag k="addr:housenumber" v="24"/>
    <tag k="addr:postcode" v="81477"/>
    <tag k="addr:street" v="Stockmannstraße"/>
    <tag k="name" v="24"/>
    <tag k="source" v="survey"/>
    <tag k="warnung" v="rumpelzumpel-verbrecher"/>
  </node>
  <node id="427837265" version="5" timestamp="2009-08-19T02:03:00Z" uid="36809" user="pfoten_weg_!_" changeset="2196453" lat="48.0835313" lon="11.5054426">
    <tag k="addr:city" v="München"/>
    <tag k="addr:country" v="DE"/>
    <tag k="addr:housenumber" v="24"/>
    <tag k="addr:postcode" v="81477"/>
    <tag k="addr:street" v="Stockmannstraße"/>
    <tag k="name" v="24"/>
    <tag k="source" v="survey"/>
  </node>
  <node id="427837265" version="6" timestamp="2009-10-02T20:44:14Z" uid="86259" user="hasse_osm_korinthenkacker" changeset="2717407" lat="48.0835313" lon="11.5054426">
    <tag k="addr:city" v="München"/>
    <tag k="addr:country" v="DE"/>
    <tag k="addr:housenumber" v="24"/>
    <tag k="addr:postcode" v="81477"/>
    <tag k="addr:street" v="Stockmannstraße"/>
    <tag k="name" v="24"/>
    <tag k="source" v="survey"/>
  </node>
  <node id="427837266" version="1" timestamp="2009-06-21T23:52:27Z" uid="36809" user="pfoten_weg_!_" changeset="1589495" lat="48.0788972" lon="11.5066963">
    <tag k="addr:city" v="München"/>
    <tag k="addr:country" v="DE"/>
    <tag k="addr:housenumber" v="16"/>
    <tag k="addr:postcode" v="81477"/>
    <tag k="addr:street" v="Alfred-Kubin-Weg"/>
    <tag k="created_by" v="RambaZamba"/>
    <tag k="name" v="16"/>
    <tag k="source" v="survey"/>
  </node>
  <node id="427837266" version="2" timestamp="2009-08-12T14:06:27Z" uid="156995" user="HampelZamba" changeset="2119076" lat="48.0788972" lon="11.5066963">
    <tag k="addr:city" v="München"/>
    <tag k="addr:country" v="DE"/>
    <tag k="addr:housenumber" v="16"/>
    <tag k="addr:postcode" v="81477"/>
    <tag k="addr:street" v="Alfred-Kubin-Weg"/>
    <tag k="name" v="16"/>
    <tag k="source" v="survey"/>
  </node>
  <node id="427837266" version="3" timestamp="2009-08-19T01:00:01Z" uid="36809" user="pfoten_weg_!_" changeset="2196309" lat="48.0788972" lon="11.5066963">
    <tag k="addr:city" v="München"/>
    <tag k="addr:country" v="DE"/>
    <tag k="addr:housenumber" v="16"/>
    <tag k="addr:postcode" v="81477"/>
    <tag k="addr:street" v="Alfred-Kubin-Weg"/>
    <tag k="name" v="16"/>
    <tag k="source" v="survey"/>
  </node>
  <node id="427837267" version="1" timestamp="2009-06-21T23:52:27Z" uid="36809" user="pfoten_weg_!_" changeset="1589495" lat="48.0789981" lon="11.5066933">
    <tag k="addr:city" v="München"/>
    <tag k="addr:country" v="DE"/>
    <tag k="addr:housenumber" v="14"/>
    <tag k="addr:postcode" v="81477"/>
    <tag k="addr:street" v="Alfred-Kubin-Weg"/>
    <tag k="created_by" v="RambaZamba"/>
    <tag k="name" v="14"/>
    <tag k="source" v="survey"/>
  </node>
  <node id="427837267" version="2" timestamp="2009-08-12T14:06:27Z" uid="156995" user="HampelZamba" changeset="2119076" lat="48.0789981" lon="11.5066933">
    <tag k="addr:city" v="München"/>
    <tag k="addr:country" v="DE"/>
    <tag k="addr:housenumber" v="14"/>
    <tag k="addr:postcode" v="81477"/>
    <tag k="addr:street" v="Alfred-Kubin-Weg"/>
    <tag k="name" v="14"/>
    <tag k="source" v="survey"/>
  </node>
  <node id="427837267" version="3" timestamp="2009-08-19T01:00:01Z" uid="36809" user="pfoten_weg_!_" changeset="2196309" lat="48.0789981" lon="11.5066933">
    <tag k="addr:city" v="München"/>
    <tag k="addr:country" v="DE"/>
    <tag k="addr:housenumber" v="14"/>
    <tag k="addr:postcode" v="81477"/>
    <tag k="addr:street" v="Alfred-Kubin-Weg"/>
    <tag k="name" v="14"/>
    <tag k="source" v="survey"/>
  </node>
  <node id="427837268" version="1" timestamp="2009-06-21T23:52:28Z" uid="36809" user="pfoten_weg_!_" changeset="1589495" lat="48.0790962" lon="11.5066903">
    <tag k="addr:city" v="München"/>
    <tag k="addr:country" v="DE"/>
    <tag k="addr:housenumber" v="12"/>
    <tag k="addr:postcode" v="81477"/>
    <tag k="addr:street" v="Alfred-Kubin-Weg"/>
    <tag k="created_by" v="RambaZamba"/>
    <tag k="name" v="12"/>
    <tag k="source" v="survey"/>
  </node>
  <node id="427837268" version="2" timestamp="2009-08-12T14:06:27Z" uid="156995" user="HampelZamba" changeset="2119076" lat="48.0790962" lon="11.5066903">
    <tag k="addr:city" v="München"/>
    <tag k="addr:country" v="DE"/>
    <tag k="addr:housenumber" v="12"/>
    <tag k="addr:postcode" v="81477"/>
    <tag k="addr:street" v="Alfred-Kubin-Weg"/>
    <tag k="name" v="12"/>
    <tag k="source" v="survey"/>
  </node>
  <node id="427837268" version="3" timestamp="2009-08-19T01:00:02Z" uid="36809" user="pfoten_weg_!_" changeset="2196309" lat="48.0790962" lon="11.5066903">
    <tag k="addr:city" v="München"/>
    <tag k="addr:country" v="DE"/>
    <tag k="addr:housenumber" v="12"/>
    <tag k="addr:postcode" v="81477"/>
    <tag k="addr:street" v="Alfred-Kubin-Weg"/>
    <tag k="name" v="12"/>
    <tag k="source" v="survey"/>
  </node>
  <node id="427837269" version="1" timestamp="2009-06-21T23:52:28Z" uid="36809" user="pfoten_weg_!_" changeset="1589495" lat="48.0791851" lon="11.5066876">
    <tag k="addr:city" v="München"/>
    <tag k="addr:country" v="DE"/>
    <tag k="addr:housenumber" v="10"/>
    <tag k="addr:postcode" v="81477"/>
    <tag k="addr:street" v="Alfred-Kubin-Weg"/>
    <tag k="created_by" v="RambaZamba"/>
    <tag k="name" v="10"/>
    <tag k="source" v="survey"/>
  </node>
  <node id="427837269" version="2" timestamp="2009-08-12T14:06:27Z" uid="156995" user="HampelZamba" changeset="2119076" lat="48.0791851" lon="11.5066876">
    <tag k="addr:city" v="München"/>
    <tag k="addr:country" v="DE"/>
    <tag k="addr:housenumber" v="10"/>
    <tag k="addr:postcode" v="81477"/>
    <tag k="addr:street" v="Alfred-Kubin-Weg"/>
    <tag k="name" v="10"/>
    <tag k="source" v="survey"/>
  </node>
  <node id="427837269" version="3" timestamp="2009-08-19T01:00:03Z" uid="36809" user="pfoten_weg_!_" changeset="2196309" lat="48.0791851" lon="11.5066876">
    <tag k="addr:city" v="München"/>
    <tag k="addr:country" v="DE"/>
    <tag k="addr:housenumber" v="10"/>
    <tag k="addr:postcode" v="81477"/>
    <tag k="addr:street" v="Alfred-Kubin-Weg"/>
    <tag k="name" v="10"/>
    <tag k="source" v="survey"/>
  </node>
  <node id="427837270" version="1" timestamp="2009-06-21T23:52:28Z" uid="36809" user="pfoten_weg_!_" changeset="1589495" lat="48.077393" lon="11.508443">
    <tag k="addr:city" v="München"/>
    <tag k="addr:country" v="DE"/>
    <tag k="addr:housenumber" v="7A"/>
    <tag k="addr:postcode" v="81477"/>
    <tag k="addr:street" v="Eberlestraße"/>
    <tag k="created_by" v="RambaZamba"/>
    <tag k="name" v="7A"/>
    <tag k="source" v="survey"/>
  </node>
  <node id="427837270" version="2" timestamp="2009-08-12T14:06:27Z" uid="156995" user="HampelZamba" changeset="2119076" lat="48.077393" lon="11.508443">
    <tag k="addr:city" v="München"/>
    <tag k="addr:country" v="DE"/>
    <tag k="addr:housenumber" v="7A"/>
    <tag k="addr:postcode" v="81477"/>
    <tag k="addr:street" v="Eberlestraße"/>
    <tag k="name" v="7A"/>
    <tag k="source" v="survey"/>
  </node>
  <node id="427837270" version="3" timestamp="2009-08-19T01:00:02Z" uid="36809" user="pfoten_weg_!_" changeset="2196309" lat="48.077393" lon="11.508443">
    <tag k="addr:city" v="München"/>
    <tag k="addr:country" v="DE"/>
    <tag k="addr:housenumber" v="7A"/>
    <tag k="addr:postcode" v="81477"/>
    <tag k="addr:street" v="Eberlestraße"/>
    <tag k="name" v="7A"/>
    <tag k="source" v="survey"/>
  </node>
  <node id="427837271" version="1" timestamp="2009-06-21T23:52:29Z" uid="36809" user="pfoten_weg_!_" changeset="1589495" lat="48.077233" lon="11.508169">
    <tag k="addr:city" v="München"/>
    <tag k="addr:country" v="DE"/>
    <tag k="addr:housenumber" v="9"/>
    <tag k="addr:postcode" v="81477"/>
    <tag k="addr:street" v="Eberlestraße"/>
    <tag k="created_by" v="RambaZamba"/>
    <tag k="name" v="9"/>
    <tag k="source" v="survey"/>
  </node>
  <node id="427837271" version="2" timestamp="2009-08-12T14:06:28Z" uid="156995" user="HampelZamba" changeset="2119076" lat="48.077233" lon="11.508169">
    <tag k="addr:city" v="München"/>
    <tag k="addr:country" v="DE"/>
    <tag k="addr:housenumber" v="9"/>
    <tag k="addr:postcode" v="81477"/>
    <tag k="addr:street" v="Eberlestraße"/>
    <tag k="name" v="9"/>
    <tag k="source" v="survey"/>
  </node>
  <node id="427837271" version="3" timestamp="2009-08-19T01:00:02Z" uid="36809" user="pfoten_weg_!_" changeset="2196309" lat="48.077233" lon="11.508169">
    <tag k="addr:city" v="München"/>
    <tag k="addr:country" v="DE"/>
    <tag k="addr:housenumber" v="9"/>
    <tag k="addr:postcode" v="81477"/>
    <tag k="addr:street" v="Eberlestraße"/>
    <tag k="name" v="9"/>
    <tag k="source" v="survey"/>
  </node>
  <node id="427837272" version="1" timestamp="2009-06-21T23:52:29Z" uid="36809" user="pfoten_weg_!_" changeset="1589495" lat="48.077045" lon="11.508069">
    <tag k="addr:city" v="München"/>
    <tag k="addr:country" v="DE"/>
    <tag k="addr:housenumber" v="11"/>
    <tag k="addr:postcode" v="81477"/>
    <tag k="addr:street" v="Eberlestraße"/>
    <tag k="created_by" v="RambaZamba"/>
    <tag k="name" v="11"/>
    <tag k="source" v="survey"/>
  </node>
  <node id="427837272" version="2" timestamp="2009-08-12T14:06:28Z" uid="156995" user="HampelZamba" changeset="2119076" lat="48.077045" lon="11.508069">
    <tag k="addr:city" v="München"/>
    <tag k="addr:country" v="DE"/>
    <tag k="addr:housenumber" v="11"/>
    <tag k="addr:postcode" v="81477"/>
    <tag k="addr:street" v="Eberlestraße"/>
    <tag k="name" v="11"/>
    <tag k="source" v="survey"/>
  </node>
  <node id="427837272" version="3" timestamp="2009-08-19T01:00:04Z" uid="36809" user="pfoten_weg_!_" changeset="2196309" lat="48.077045" lon="11.508069">
    <tag k="addr:city" v="München"/>
    <tag k="addr:country" v="DE"/>
    <tag k="addr:housenumber" v="11"/>
    <tag k="addr:postcode" v="81477"/>
    <tag k="addr:street" v="Eberlestraße"/>
    <tag k="name" v="11"/>
    <tag k="source" v="survey"/>
  </node>
  <node id="427837273" version="1" timestamp="2009-06-21T23:52:30Z" uid="36809" user="pfoten_weg_!_" changeset="1589495" lat="48.076843" lon="11.507956">
    <tag k="addr:city" v="München"/>
    <tag k="addr:country" v="DE"/>
    <tag k="addr:housenumber" v="13"/>
    <tag k="addr:postcode" v="81477"/>
    <tag k="addr:street" v="Eberlestraße"/>
    <tag k="created_by" v="RambaZamba"/>
    <tag k="name" v="13"/>
    <tag k="source" v="survey"/>
  </node>
  <node id="427837273" version="2" timestamp="2009-08-12T14:06:28Z" uid="156995" user="HampelZamba" changeset="2119076" lat="48.076843" lon="11.507956">
    <tag k="addr:city" v="München"/>
    <tag k="addr:country" v="DE"/>
    <tag k="addr:housenumber" v="13"/>
    <tag k="addr:postcode" v="81477"/>
    <tag k="addr:street" v="Eberlestraße"/>
    <tag k="name" v="13"/>
    <tag k="source" v="survey"/>
  </node>
  <node id="427837273" version="3" timestamp="2009-08-19T01:00:04Z" uid="36809" user="pfoten_weg_!_" changeset="2196309" lat="48.076843" lon="11.507956">
    <tag k="addr:city" v="München"/>
    <tag k="addr:country" v="DE"/>
    <tag k="addr:housenumber" v="13"/>
    <tag k="addr:postcode" v="81477"/>
    <tag k="addr:street" v="Eberlestraße"/>
    <tag k="name" v="13"/>
    <tag k="source" v="survey"/>
  </node>
  <node id="427837274" version="1" timestamp="2009-06-21T23:52:30Z" uid="36809" user="pfoten_weg_!_" changeset="1589495" lat="48.0786924" lon="11.5067025">
    <tag k="addr:city" v="München"/>
    <tag k="addr:country" v="DE"/>
    <tag k="addr:housenumber" v="128"/>
    <tag k="addr:postcode" v="81477"/>
    <tag k="addr:street" v="Herterichstraße"/>
    <tag k="created_by" v="RambaZamba"/>
    <tag k="name" v="128"/>
    <tag k="source" v="survey"/>
  </node>
  <node id="427837274" version="2" timestamp="2009-08-12T14:06:28Z" uid="156995" user="HampelZamba" changeset="2119076" lat="48.0786924" lon="11.5067025">
    <tag k="addr:city" v="München"/>
    <tag k="addr:country" v="DE"/>
    <tag k="addr:housenumber" v="128"/>
    <tag k="addr:postcode" v="81477"/>
    <tag k="addr:street" v="Herterichstraße"/>
    <tag k="name" v="128"/>
    <tag k="source" v="survey"/>
  </node>
  <node id="427837274" version="3" timestamp="2009-08-19T01:00:03Z" uid="36809" user="pfoten_weg_!_" changeset="2196309" lat="48.0786924" lon="11.5067025">
    <tag k="addr:city" v="München"/>
    <tag k="addr:country" v="DE"/>
    <tag k="addr:housenumber" v="128"/>
    <tag k="addr:postcode" v="81477"/>
    <tag k="addr:street" v="Herterichstraße"/>
    <tag k="name" v="128"/>
    <tag k="source" v="survey"/>
  </node>
  <node id="427837275" version="1" timestamp="2009-06-21T23:52:30Z" uid="36809" user="pfoten_weg_!_" changeset="1589495" lat="48.077889" lon="11.508514">
    <tag k="addr:city" v="München"/>
    <tag k="addr:country" v="DE"/>
    <tag k="addr:housenumber" v="3"/>
    <tag k="addr:postcode" v="81477"/>
    <tag k="addr:street" v="Eberlestraße"/>
    <tag k="created_by" v="RambaZamba"/>
    <tag k="name" v="3"/>
    <tag k="source" v="survey"/>
  </node>
  <node id="427837275" version="2" timestamp="2009-08-12T14:06:28Z" uid="156995" user="HampelZamba" changeset="2119076" lat="48.077889" lon="11.508514">
    <tag k="addr:city" v="München"/>
    <tag k="addr:country" v="DE"/>
    <tag k="addr:housenumber" v="3"/>
    <tag k="addr:postcode" v="81477"/>
    <tag k="addr:street" v="Eberlestraße"/>
    <tag k="name" v="3"/>
    <tag k="source" v="survey"/>
  </node>
  <node id="427837275" version="3" timestamp="2009-08-19T01:00:04Z" uid="36809" user="pfoten_weg_!_" changeset="2196309" lat="48.077889" lon="11.508514">
    <tag k="addr:city" v="München"/>
    <tag k="addr:country" v="DE"/>
    <tag k="addr:housenumber" v="3"/>
    <tag k="addr:postcode" v="81477"/>
    <tag k="addr:street" v="Eberlestraße"/>
    <tag k="name" v="3"/>
    <tag k="source" v="survey"/>
  </node>
  <node id="427837276" version="1" timestamp="2009-06-21T23:52:31Z" uid="36809" user="pfoten_weg_!_" changeset="1589495" lat="48.077632" lon="11.508459">
    <tag k="addr:city" v="München"/>
    <tag k="addr:country" v="DE"/>
    <tag k="addr:housenumber" v="5"/>
    <tag k="addr:postcode" v="81477"/>
    <tag k="addr:street" v="Eberlestraße"/>
    <tag k="created_by" v="RambaZamba"/>
    <tag k="name" v="5"/>
    <tag k="source" v="survey"/>
  </node>
  <node id="427837276" version="2" timestamp="2009-08-12T14:06:28Z" uid="156995" user="HampelZamba" changeset="2119076" lat="48.077632" lon="11.508459">
    <tag k="addr:city" v="München"/>
    <tag k="addr:country" v="DE"/>
    <tag k="addr:housenumber" v="5"/>
    <tag k="addr:postcode" v="81477"/>
    <tag k="addr:street" v="Eberlestraße"/>
    <tag k="name" v="5"/>
    <tag k="source" v="survey"/>
  </node>
  <node id="427837276" version="3" timestamp="2009-08-19T01:00:05Z" uid="36809" user="pfoten_weg_!_" changeset="2196309" lat="48.077632" lon="11.508459">
    <tag k="addr:city" v="München"/>
    <tag k="addr:country" v="DE"/>
    <tag k="addr:housenumber" v="5"/>
    <tag k="addr:postcode" v="81477"/>
    <tag k="addr:street" v="Eberlestraße"/>
    <tag k="name" v="5"/>
    <tag k="source" v="survey"/>
  </node>
  <node id="427837277" version="1" timestamp="2009-06-21T23:52:31Z" uid="36809" user="pfoten_weg_!_" changeset="1589495" lat="48.077419" lon="11.508321">
    <tag k="addr:city" v="München"/>
    <tag k="addr:country" v="DE"/>
    <tag k="addr:housenumber" v="7"/>
    <tag k="addr:postcode" v="81477"/>
    <tag k="addr:street" v="Eberlestraße"/>
    <tag k="created_by" v="RambaZamba"/>
    <tag k="name" v="7"/>
    <tag k="source" v="survey"/>
  </node>
  <node id="427837277" version="2" timestamp="2009-08-12T14:06:28Z" uid="156995" user="HampelZamba" changeset="2119076" lat="48.077419" lon="11.508321">
    <tag k="addr:city" v="München"/>
    <tag k="addr:country" v="DE"/>
    <tag k="addr:housenumber" v="7"/>
    <tag k="addr:postcode" v="81477"/>
    <tag k="addr:street" v="Eberlestraße"/>
    <tag k="name" v="7"/>
    <tag k="source" v="survey"/>
  </node>
  <node id="427837277" version="3" timestamp="2009-08-19T01:00:06Z" uid="36809" user="pfoten_weg_!_" changeset="2196309" lat="48.077419" lon="11.508321">
    <tag k="addr:city" v="München"/>
    <tag k="addr:country" v="DE"/>
    <tag k="addr:housenumber" v="7"/>
    <tag k="addr:postcode" v="81477"/>
    <tag k="addr:street" v="Eberlestraße"/>
    <tag k="name" v="7"/>
    <tag k="source" v="survey"/>
  </node>
  <node id="427837278" version="1" timestamp="2009-06-21T23:52:31Z" uid="36809" user="pfoten_weg_!_" changeset="1589495" lat="48.075537" lon="11.507359">
    <tag k="addr:city" v="München"/>
    <tag k="addr:country" v="DE"/>
    <tag k="addr:housenumber" v="23"/>
    <tag k="addr:postcode" v="81477"/>
    <tag k="addr:street" v="Eberlestraße"/>
    <tag k="created_by" v="RambaZamba"/>
    <tag k="name" v="23"/>
    <tag k="source" v="survey"/>
  </node>
  <node id="427837278" version="2" timestamp="2009-08-12T14:06:28Z" uid="156995" user="HampelZamba" changeset="2119076" lat="48.075537" lon="11.507359">
    <tag k="addr:city" v="München"/>
    <tag k="addr:country" v="DE"/>
    <tag k="addr:housenumber" v="23"/>
    <tag k="addr:postcode" v="81477"/>
    <tag k="addr:street" v="Eberlestraße"/>
    <tag k="name" v="23"/>
    <tag k="source" v="survey"/>
  </node>
  <node id="427837278" version="3" timestamp="2009-08-19T01:00:05Z" uid="36809" user="pfoten_weg_!_" changeset="2196309" lat="48.075537" lon="11.507359">
    <tag k="addr:city" v="München"/>
    <tag k="addr:country" v="DE"/>
    <tag k="addr:housenumber" v="23"/>
    <tag k="addr:postcode" v="81477"/>
    <tag k="addr:street" v="Eberlestraße"/>
    <tag k="name" v="23"/>
    <tag k="source" v="survey"/>
  </node>
  <node id="427837279" version="1" timestamp="2009-06-21T23:52:32Z" uid="36809" user="pfoten_weg_!_" changeset="1589495" lat="48.07547" lon="11.507328">
    <tag k="addr:city" v="München"/>
    <tag k="addr:country" v="DE"/>
    <tag k="addr:housenumber" v="23A"/>
    <tag k="addr:postcode" v="81477"/>
    <tag k="addr:street" v="Eberlestraße"/>
    <tag k="created_by" v="RambaZamba"/>
    <tag k="name" v="23A"/>
    <tag k="source" v="survey"/>
  </node>
  <node id="427837279" version="2" timestamp="2009-08-12T14:06:29Z" uid="156995" user="HampelZamba" changeset="2119076" lat="48.07547" lon="11.507328">
    <tag k="addr:city" v="München"/>
    <tag k="addr:country" v="DE"/>
    <tag k="addr:housenumber" v="23A"/>
    <tag k="addr:postcode" v="81477"/>
    <tag k="addr:street" v="Eberlestraße"/>
    <tag k="name" v="23A"/>
    <tag k="source" v="survey"/>
  </node>
  <node id="427837279" version="3" timestamp="2009-08-19T01:00:05Z" uid="36809" user="pfoten_weg_!_" changeset="2196309" lat="48.07547" lon="11.507328">
    <tag k="addr:city" v="München"/>
    <tag k="addr:country" v="DE"/>
    <tag k="addr:housenumber" v="23A"/>
    <tag k="addr:postcode" v="81477"/>
    <tag k="addr:street" v="Eberlestraße"/>
    <tag k="name" v="23A"/>
    <tag k="source" v="survey"/>
  </node>
  <node id="427837293" version="1" timestamp="2009-06-21T23:52:47Z" uid="36809" user="pfoten_weg_!_" changeset="1589495" lat="48.075346" lon="11.507277">
    <tag k="addr:city" v="München"/>
    <tag k="addr:country" v="DE"/>
    <tag k="addr:housenumber" v="25"/>
    <tag k="addr:postcode" v="81477"/>
    <tag k="addr:street" v="Eberlestraße"/>
    <tag k="created_by" v="RambaZamba"/>
    <tag k="name" v="25"/>
    <tag k="source" v="survey"/>
  </node>
  <node id="427837293" version="2" timestamp="2009-08-12T14:06:29Z" uid="156995" user="HampelZamba" changeset="2119076" lat="48.075346" lon="11.507277">
    <tag k="addr:city" v="München"/>
    <tag k="addr:country" v="DE"/>
    <tag k="addr:housenumber" v="25"/>
    <tag k="addr:postcode" v="81477"/>
    <tag k="addr:street" v="Eberlestraße"/>
    <tag k="name" v="25"/>
    <tag k="source" v="survey"/>
  </node>
  <node id="427837293" version="3" timestamp="2009-08-19T01:00:00Z" uid="36809" user="pfoten_weg_!_" changeset="2196309" lat="48.075346" lon="11.507277">
    <tag k="addr:city" v="München"/>
    <tag k="addr:country" v="DE"/>
    <tag k="addr:housenumber" v="25"/>
    <tag k="addr:postcode" v="81477"/>
    <tag k="addr:street" v="Eberlestraße"/>
    <tag k="name" v="25"/>
    <tag k="source" v="survey"/>
  </node>
  <node id="427837294" version="1" timestamp="2009-06-21T23:52:48Z" uid="36809" user="pfoten_weg_!_" changeset="1589495" lat="48.075199" lon="11.507742">
    <tag k="addr:city" v="München"/>
    <tag k="addr:country" v="DE"/>
    <tag k="addr:housenumber" v="36"/>
    <tag k="addr:postcode" v="81477"/>
    <tag k="addr:street" v="Diezweg"/>
    <tag k="created_by" v="RambaZamba"/>
    <tag k="name" v="36"/>
    <tag k="source" v="survey"/>
  </node>
  <node id="427837294" version="2" timestamp="2009-08-12T14:06:29Z" uid="156995" user="HampelZamba" changeset="2119076" lat="48.075199" lon="11.507742">
    <tag k="addr:city" v="München"/>
    <tag k="addr:country" v="DE"/>
    <tag k="addr:housenumber" v="36"/>
    <tag k="addr:postcode" v="81477"/>
    <tag k="addr:street" v="Diezweg"/>
    <tag k="name" v="36"/>
    <tag k="source" v="survey"/>
  </node>
  <node id="427837294" version="3" timestamp="2009-08-19T01:00:01Z" uid="36809" user="pfoten_weg_!_" changeset="2196309" lat="48.075199" lon="11.507742">
    <tag k="addr:city" v="München"/>
    <tag k="addr:country" v="DE"/>
    <tag k="addr:housenumber" v="36"/>
    <tag k="addr:postcode" v="81477"/>
    <tag k="addr:street" v="Diezweg"/>
    <tag k="name" v="36"/>
    <tag k="source" v="survey"/>
  </node>
  <node id="427837295" version="1" timestamp="2009-06-21T23:52:48Z" uid="36809" user="pfoten_weg_!_" changeset="1589495" lat="48.07632" lon="11.507721">
    <tag k="addr:city" v="München"/>
    <tag k="addr:country" v="DE"/>
    <tag k="addr:housenumber" v="15"/>
    <tag k="addr:postcode" v="81477"/>
    <tag k="addr:street" v="Eberlestraße"/>
    <tag k="created_by" v="RambaZamba"/>
    <tag k="name" v="15"/>
    <tag k="source" v="survey"/>
  </node>
  <node id="427837295" version="2" timestamp="2009-08-12T14:06:29Z" uid="156995" user="HampelZamba" changeset="2119076" lat="48.07632" lon="11.507721">
    <tag k="addr:city" v="München"/>
    <tag k="addr:country" v="DE"/>
    <tag k="addr:housenumber" v="15"/>
    <tag k="addr:postcode" v="81477"/>
    <tag k="addr:street" v="Eberlestraße"/>
    <tag k="name" v="15"/>
    <tag k="source" v="survey"/>
  </node>
  <node id="427837295" version="3" timestamp="2009-08-19T01:00:00Z" uid="36809" user="pfoten_weg_!_" changeset="2196309" lat="48.07632" lon="11.507721">
    <tag k="addr:city" v="München"/>
    <tag k="addr:country" v="DE"/>
    <tag k="addr:housenumber" v="15"/>
    <tag k="addr:postcode" v="81477"/>
    <tag k="addr:street" v="Eberlestraße"/>
    <tag k="name" v="15"/>
    <tag k="source" v="survey"/>
  </node>
  <node id="427837296" version="1" timestamp="2009-06-21T23:52:48Z" uid="36809" user="pfoten_weg_!_" changeset="1589495" lat="48.07619" lon="11.507666">
    <tag k="addr:city" v="München"/>
    <tag k="addr:country" v="DE"/>
    <tag k="addr:housenumber" v="17"/>
    <tag k="addr:postcode" v="81477"/>
    <tag k="addr:street" v="Eberlestraße"/>
    <tag k="created_by" v="RambaZamba"/>
    <tag k="name" v="17"/>
    <tag k="source" v="survey"/>
  </node>
  <node id="427837296" version="2" timestamp="2009-08-12T14:06:30Z" uid="156995" user="HampelZamba" changeset="2119076" lat="48.07619" lon="11.507666">
    <tag k="addr:city" v="München"/>
    <tag k="addr:country" v="DE"/>
    <tag k="addr:housenumber" v="17"/>
    <tag k="addr:postcode" v="81477"/>
    <tag k="addr:street" v="Eberlestraße"/>
    <tag k="name" v="17"/>
    <tag k="source" v="survey"/>
  </node>
  <node id="427837296" version="3" timestamp="2009-08-19T00:59:56Z" uid="36809" user="pfoten_weg_!_" changeset="2196309" lat="48.07619" lon="11.507666">
    <tag k="addr:city" v="München"/>
    <tag k="addr:country" v="DE"/>
    <tag k="addr:housenumber" v="17"/>
    <tag k="addr:postcode" v="81477"/>
    <tag k="addr:street" v="Eberlestraße"/>
    <tag k="name" v="17"/>
    <tag k="source" v="survey"/>
  </node>
  <node id="427837297" version="1" timestamp="2009-06-21T23:52:49Z" uid="36809" user="pfoten_weg_!_" changeset="1589495" lat="48.076097" lon="11.507632">
    <tag k="addr:city" v="München"/>
    <tag k="addr:country" v="DE"/>
    <tag k="addr:housenumber" v="19"/>
    <tag k="addr:postcode" v="81477"/>
    <tag k="addr:street" v="Eberlestraße"/>
    <tag k="created_by" v="RambaZamba"/>
    <tag k="name" v="19"/>
    <tag k="source" v="survey"/>
  </node>
  <node id="427837297" version="2" timestamp="2009-08-12T14:06:30Z" uid="156995" user="HampelZamba" changeset="2119076" lat="48.076097" lon="11.507632">
    <tag k="addr:city" v="München"/>
    <tag k="addr:country" v="DE"/>
    <tag k="addr:housenumber" v="19"/>
    <tag k="addr:postcode" v="81477"/>
    <tag k="addr:street" v="Eberlestraße"/>
    <tag k="name" v="19"/>
    <tag k="source" v="survey"/>
  </node>
  <node id="427837297" version="3" timestamp="2009-08-19T00:59:57Z" uid="36809" user="pfoten_weg_!_" changeset="2196309" lat="48.076097" lon="11.507632">
    <tag k="addr:city" v="München"/>
    <tag k="addr:country" v="DE"/>
    <tag k="addr:housenumber" v="19"/>
    <tag k="addr:postcode" v="81477"/>
    <tag k="addr:street" v="Eberlestraße"/>
    <tag k="name" v="19"/>
    <tag k="source" v="survey"/>
  </node>
  <node id="427837298" version="1" timestamp="2009-06-21T23:52:49Z" uid="36809" user="pfoten_weg_!_" changeset="1589495" lat="48.075733" lon="11.507445">
    <tag k="addr:city" v="München"/>
    <tag k="addr:country" v="DE"/>
    <tag k="addr:housenumber" v="21"/>
    <tag k="addr:postcode" v="81477"/>
    <tag k="addr:street" v="Eberlestraße"/>
    <tag k="created_by" v="RambaZamba"/>
    <tag k="name" v="21"/>
    <tag k="source" v="survey"/>
  </node>
  <node id="427837298" version="2" timestamp="2009-08-12T14:06:30Z" uid="156995" user="HampelZamba" changeset="2119076" lat="48.075733" lon="11.507445">
    <tag k="addr:city" v="München"/>
    <tag k="addr:country" v="DE"/>
    <tag k="addr:housenumber" v="21"/>
    <tag k="addr:postcode" v="81477"/>
    <tag k="addr:street" v="Eberlestraße"/>
    <tag k="name" v="21"/>
    <tag k="source" v="survey"/>
  </node>
  <node id="427837298" version="3" timestamp="2009-08-19T00:59:57Z" uid="36809" user="pfoten_weg_!_" changeset="2196309" lat="48.075733" lon="11.507445">
    <tag k="addr:city" v="München"/>
    <tag k="addr:country" v="DE"/>
    <tag k="addr:housenumber" v="21"/>
    <tag k="addr:postcode" v="81477"/>
    <tag k="addr:street" v="Eberlestraße"/>
    <tag k="name" v="21"/>
    <tag k="source" v="survey"/>
  </node>
  <node id="427837299" version="1" timestamp="2009-06-21T23:52:49Z" uid="36809" user="pfoten_weg_!_" changeset="1589495" lat="48.0745914" lon="11.5099139">
    <tag k="addr:city" v="München"/>
    <tag k="addr:country" v="DE"/>
    <tag k="addr:housenumber" v="8"/>
    <tag k="addr:postcode" v="81477"/>
    <tag k="addr:street" v="Diezweg"/>
    <tag k="created_by" v="RambaZamba"/>
    <tag k="name" v="8"/>
    <tag k="source" v="survey"/>
  </node>
  <node id="427837299" version="2" timestamp="2009-08-12T14:06:30Z" uid="156995" user="HampelZamba" changeset="2119076" lat="48.0745914" lon="11.5099139">
    <tag k="addr:city" v="München"/>
    <tag k="addr:country" v="DE"/>
    <tag k="addr:housenumber" v="8"/>
    <tag k="addr:postcode" v="81477"/>
    <tag k="addr:street" v="Diezweg"/>
    <tag k="name" v="8"/>
    <tag k="source" v="survey"/>
  </node>
  <node id="427837299" version="3" timestamp="2009-08-19T00:59:57Z" uid="36809" user="pfoten_weg_!_" changeset="2196309" lat="48.0745914" lon="11.5099139">
    <tag k="addr:city" v="München"/>
    <tag k="addr:country" v="DE"/>
    <tag k="addr:housenumber" v="8"/>
    <tag k="addr:postcode" v="81477"/>
    <tag k="addr:street" v="Diezweg"/>
    <tag k="name" v="8"/>
    <tag k="source" v="survey"/>
  </node>
  <node id="427837300" version="1" timestamp="2009-06-21T23:52:50Z" uid="36809" user="pfoten_weg_!_" changeset="1589495" lat="48.074616" lon="11.509823">
    <tag k="addr:city" v="München"/>
    <tag k="addr:country" v="DE"/>
    <tag k="addr:housenumber" v="10"/>
    <tag k="addr:postcode" v="81477"/>
    <tag k="addr:street" v="Diezweg"/>
    <tag k="created_by" v="RambaZamba"/>
    <tag k="name" v="10"/>
    <tag k="source" v="survey"/>
  </node>
  <node id="427837300" version="2" timestamp="2009-08-12T14:06:30Z" uid="156995" user="HampelZamba" changeset="2119076" lat="48.074616" lon="11.509823">
    <tag k="addr:city" v="München"/>
    <tag k="addr:country" v="DE"/>
    <tag k="addr:housenumber" v="10"/>
    <tag k="addr:postcode" v="81477"/>
    <tag k="addr:street" v="Diezweg"/>
    <tag k="name" v="10"/>
    <tag k="source" v="survey"/>
  </node>
  <node id="427837300" version="3" timestamp="2009-08-19T00:59:58Z" uid="36809" user="pfoten_weg_!_" changeset="2196309" lat="48.074616" lon="11.509823">
    <tag k="addr:city" v="München"/>
    <tag k="addr:country" v="DE"/>
    <tag k="addr:housenumber" v="10"/>
    <tag k="addr:postcode" v="81477"/>
    <tag k="addr:street" v="Diezweg"/>
    <tag k="name" v="10"/>
    <tag k="source" v="survey"/>
  </node>
  <node id="427837301" version="1" timestamp="2009-06-21T23:52:50Z" uid="36809" user="pfoten_weg_!_" changeset="1589495" lat="48.0745366" lon="11.5101166">
    <tag k="addr:city" v="München"/>
    <tag k="addr:country" v="DE"/>
    <tag k="addr:housenumber" v="4"/>
    <tag k="addr:postcode" v="81477"/>
    <tag k="addr:street" v="Diezweg"/>
    <tag k="created_by" v="RambaZamba"/>
    <tag k="name" v="4"/>
    <tag k="source" v="survey"/>
  </node>
  <node id="427837301" version="2" timestamp="2009-08-12T14:06:30Z" uid="156995" user="HampelZamba" changeset="2119076" lat="48.0745366" lon="11.5101166">
    <tag k="addr:city" v="München"/>
    <tag k="addr:country" v="DE"/>
    <tag k="addr:housenumber" v="4"/>
    <tag k="addr:postcode" v="81477"/>
    <tag k="addr:street" v="Diezweg"/>
    <tag k="name" v="4"/>
    <tag k="source" v="survey"/>
  </node>
  <node id="427837301" version="3" timestamp="2009-08-19T00:59:58Z" uid="36809" user="pfoten_weg_!_" changeset="2196309" lat="48.0745366" lon="11.5101166">
    <tag k="addr:city" v="München"/>
    <tag k="addr:country" v="DE"/>
    <tag k="addr:housenumber" v="4"/>
    <tag k="addr:postcode" v="81477"/>
    <tag k="addr:street" v="Diezweg"/>
    <tag k="name" v="4"/>
    <tag k="source" v="survey"/>
  </node>
  <node id="427837302" version="1" timestamp="2009-06-21T23:52:50Z" uid="36809" user="pfoten_weg_!_" changeset="1589495" lat="48.0745644" lon="11.510014">
    <tag k="addr:city" v="München"/>
    <tag k="addr:country" v="DE"/>
    <tag k="addr:housenumber" v="6"/>
    <tag k="addr:postcode" v="81477"/>
    <tag k="addr:street" v="Diezweg"/>
    <tag k="created_by" v="RambaZamba"/>
    <tag k="name" v="6"/>
    <tag k="source" v="survey"/>
  </node>
  <node id="427837302" version="2" timestamp="2009-08-12T14:06:30Z" uid="156995" user="HampelZamba" changeset="2119076" lat="48.0745644" lon="11.510014">
    <tag k="addr:city" v="München"/>
    <tag k="addr:country" v="DE"/>
    <tag k="addr:housenumber" v="6"/>
    <tag k="addr:postcode" v="81477"/>
    <tag k="addr:street" v="Diezweg"/>
    <tag k="name" v="6"/>
    <tag k="source" v="survey"/>
  </node>
  <node id="427837302" version="3" timestamp="2009-08-19T00:59:58Z" uid="36809" user="pfoten_weg_!_" changeset="2196309" lat="48.0745644" lon="11.510014">
    <tag k="addr:city" v="München"/>
    <tag k="addr:country" v="DE"/>
    <tag k="addr:housenumber" v="6"/>
    <tag k="addr:postcode" v="81477"/>
    <tag k="addr:street" v="Diezweg"/>
    <tag k="name" v="6"/>
    <tag k="source" v="survey"/>
  </node>
  <node id="427837303" version="1" timestamp="2009-06-21T23:52:51Z" uid="36809" user="pfoten_weg_!_" changeset="1589495" lat="48.075136" lon="11.508011">
    <tag k="addr:city" v="München"/>
    <tag k="addr:country" v="DE"/>
    <tag k="addr:housenumber" v="26"/>
    <tag k="addr:postcode" v="81477"/>
    <tag k="addr:street" v="Diezweg"/>
    <tag k="created_by" v="RambaZamba"/>
    <tag k="name" v="26"/>
    <tag k="source" v="survey"/>
  </node>
  <node id="427837303" version="2" timestamp="2009-08-12T14:06:31Z" uid="156995" user="HampelZamba" changeset="2119076" lat="48.075136" lon="11.508011">
    <tag k="addr:city" v="München"/>
    <tag k="addr:country" v="DE"/>
    <tag k="addr:housenumber" v="26"/>
    <tag k="addr:postcode" v="81477"/>
    <tag k="addr:street" v="Diezweg"/>
    <tag k="name" v="26"/>
    <tag k="source" v="survey"/>
  </node>
  <node id="427837303" version="3" timestamp="2009-08-19T00:59:58Z" uid="36809" user="pfoten_weg_!_" changeset="2196309" lat="48.075136" lon="11.508011">
    <tag k="addr:city" v="München"/>
    <tag k="addr:country" v="DE"/>
    <tag k="addr:housenumber" v="26"/>
    <tag k="addr:postcode" v="81477"/>
    <tag k="addr:street" v="Diezweg"/>
    <tag k="name" v="26"/>
    <tag k="source" v="survey"/>
  </node>
  <node id="427837304" version="1" timestamp="2009-06-21T23:52:51Z" uid="36809" user="pfoten_weg_!_" changeset="1589495" lat="48.075184" lon="11.50785">
    <tag k="addr:city" v="München"/>
    <tag k="addr:country" v="DE"/>
    <tag k="addr:housenumber" v="34"/>
    <tag k="addr:postcode" v="81477"/>
    <tag k="addr:street" v="Diezweg"/>
    <tag k="created_by" v="RambaZamba"/>
    <tag k="name" v="34"/>
    <tag k="source" v="survey"/>
  </node>
  <node id="427837304" version="2" timestamp="2009-08-12T14:06:31Z" uid="156995" user="HampelZamba" changeset="2119076" lat="48.075184" lon="11.50785">
    <tag k="addr:city" v="München"/>
    <tag k="addr:country" v="DE"/>
    <tag k="addr:housenumber" v="34"/>
    <tag k="addr:postcode" v="81477"/>
    <tag k="addr:street" v="Diezweg"/>
    <tag k="name" v="34"/>
    <tag k="source" v="survey"/>
  </node>
  <node id="427837304" version="3" timestamp="2009-08-19T00:59:59Z" uid="36809" user="pfoten_weg_!_" changeset="2196309" lat="48.075184" lon="11.50785">
    <tag k="addr:city" v="München"/>
    <tag k="addr:country" v="DE"/>
    <tag k="addr:housenumber" v="34"/>
    <tag k="addr:postcode" v="81477"/>
    <tag k="addr:street" v="Diezweg"/>
    <tag k="name" v="34"/>
    <tag k="source" v="survey"/>
  </node>
  <node id="427837305" version="1" timestamp="2009-06-21T23:52:51Z" uid="36809" user="pfoten_weg_!_" changeset="1589495" lat="48.074662" lon="11.509653">
    <tag k="addr:city" v="München"/>
    <tag k="addr:country" v="DE"/>
    <tag k="addr:housenumber" v="12"/>
    <tag k="addr:postcode" v="81477"/>
    <tag k="addr:street" v="Diezweg"/>
    <tag k="created_by" v="RambaZamba"/>
    <tag k="name" v="12"/>
    <tag k="source" v="survey"/>
  </node>
  <node id="427837305" version="2" timestamp="2009-08-12T14:06:31Z" uid="156995" user="HampelZamba" changeset="2119076" lat="48.074662" lon="11.509653">
    <tag k="addr:city" v="München"/>
    <tag k="addr:country" v="DE"/>
    <tag k="addr:housenumber" v="12"/>
    <tag k="addr:postcode" v="81477"/>
    <tag k="addr:street" v="Diezweg"/>
    <tag k="name" v="12"/>
    <tag k="source" v="survey"/>
  </node>
  <node id="427837305" version="3" timestamp="2009-08-19T00:59:59Z" uid="36809" user="pfoten_weg_!_" changeset="2196309" lat="48.074662" lon="11.509653">
    <tag k="addr:city" v="München"/>
    <tag k="addr:country" v="DE"/>
    <tag k="addr:housenumber" v="12"/>
    <tag k="addr:postcode" v="81477"/>
    <tag k="addr:street" v="Diezweg"/>
    <tag k="name" v="12"/>
    <tag k="source" v="survey"/>
  </node>
  <node id="427837306" version="1" timestamp="2009-06-21T23:52:52Z" uid="36809" user="pfoten_weg_!_" changeset="1589495" lat="48.074996" lon="11.509336">
    <tag k="addr:city" v="München"/>
    <tag k="addr:country" v="DE"/>
    <tag k="addr:housenumber" v="16"/>
    <tag k="addr:postcode" v="81477"/>
    <tag k="addr:street" v="Diezweg"/>
    <tag k="created_by" v="RambaZamba"/>
    <tag k="name" v="16"/>
    <tag k="source" v="survey"/>
  </node>
  <node id="427837306" version="2" timestamp="2009-08-12T14:06:31Z" uid="156995" user="HampelZamba" changeset="2119076" lat="48.074996" lon="11.509336">
    <tag k="addr:city" v="München"/>
    <tag k="addr:country" v="DE"/>
    <tag k="addr:housenumber" v="16"/>
    <tag k="addr:postcode" v="81477"/>
    <tag k="addr:street" v="Diezweg"/>
    <tag k="name" v="16"/>
    <tag k="source" v="survey"/>
  </node>
  <node id="427837306" version="3" timestamp="2009-08-19T01:00:00Z" uid="36809" user="pfoten_weg_!_" changeset="2196309" lat="48.074996" lon="11.509336">
    <tag k="addr:city" v="München"/>
    <tag k="addr:country" v="DE"/>
    <tag k="addr:housenumber" v="16"/>
    <tag k="addr:postcode" v="81477"/>
    <tag k="addr:street" v="Diezweg"/>
    <tag k="name" v="16"/>
    <tag k="source" v="survey"/>
  </node>
  <node id="427837307" version="1" timestamp="2009-06-21T23:52:52Z" uid="36809" user="pfoten_weg_!_" changeset="1589495" lat="48.072814" lon="11.513095">
    <tag k="addr:city" v="München"/>
    <tag k="addr:country" v="DE"/>
    <tag k="addr:housenumber" v="66A"/>
    <tag k="addr:postcode" v="81477"/>
    <tag k="created_by" v="RambaZamba"/>
    <tag k="name" v="66A"/>
    <tag k="source" v="survey"/>
  </node>
  <node id="427837307" version="2" timestamp="2009-08-12T14:06:31Z" uid="156995" user="HampelZamba" changeset="2119076" lat="48.072814" lon="11.513095">
    <tag k="addr:city" v="München"/>
    <tag k="addr:country" v="DE"/>
    <tag k="addr:housenumber" v="66A"/>
    <tag k="addr:postcode" v="81477"/>
    <tag k="name" v="66A"/>
    <tag k="source" v="survey"/>
  </node>
  <node id="427837307" version="3" timestamp="2009-08-26T00:06:55Z" uid="36809" user="pfoten_weg_!_" changeset="2262648" lat="48.072814" lon="11.513095">
    <tag k="addr:city" v="München"/>
    <tag k="addr:country" v="DE"/>
    <tag k="addr:housenumber" v="66A"/>
    <tag k="addr:postcode" v="81477"/>
    <tag k="name" v="66A"/>
    <tag k="source" v="survey"/>
  </node>
  <node id="427837307" version="4" timestamp="2009-08-26T01:09:10Z" uid="36809" user="pfoten_weg_!_" changeset="2262879" lat="48.072814" lon="11.513095">
    <tag k="addr:city" v="München"/>
    <tag k="addr:country" v="DE"/>
    <tag k="addr:housenumber" v="66A"/>
    <tag k="addr:postcode" v="81477"/>
    <tag k="name" v="66A"/>
    <tag k="source" v="survey"/>
  </node>
  <node id="427837307" version="5" timestamp="2009-10-02T20:48:03Z" uid="86259" user="hasse_osm_korinthenkacker" changeset="2717407" lat="48.072814" lon="11.513095">
    <tag k="addr:city" v="München"/>
    <tag k="addr:country" v="DE"/>
    <tag k="addr:housenumber" v="66A"/>
    <tag k="addr:postcode" v="81477"/>
    <tag k="name" v="66A"/>
    <tag k="source" v="survey"/>
  </node>
  <node id="427837308" version="1" timestamp="2009-06-21T23:52:52Z" uid="36809" user="pfoten_weg_!_" changeset="1589495" lat="48.072878" lon="11.51283">
    <tag k="addr:city" v="München"/>
    <tag k="addr:country" v="DE"/>
    <tag k="addr:housenumber" v="68"/>
    <tag k="addr:postcode" v="81477"/>
    <tag k="created_by" v="RambaZamba"/>
    <tag k="name" v="68"/>
    <tag k="source" v="survey"/>
  </node>
  <node id="427837308" version="2" timestamp="2009-08-12T14:06:31Z" uid="156995" user="HampelZamba" changeset="2119076" lat="48.072878" lon="11.51283">
    <tag k="addr:city" v="München"/>
    <tag k="addr:country" v="DE"/>
    <tag k="addr:housenumber" v="68"/>
    <tag k="addr:postcode" v="81477"/>
    <tag k="name" v="68"/>
    <tag k="source" v="survey"/>
  </node>
  <node id="427837308" version="3" timestamp="2009-08-26T00:06:54Z" uid="36809" user="pfoten_weg_!_" changeset="2262648" lat="48.072878" lon="11.51283">
    <tag k="addr:city" v="München"/>
    <tag k="addr:country" v="DE"/>
    <tag k="addr:housenumber" v="68"/>
    <tag k="addr:postcode" v="81477"/>
    <tag k="name" v="68"/>
    <tag k="source" v="survey"/>
  </node>
  <node id="427837308" version="4" timestamp="2009-08-26T01:09:09Z" uid="36809" user="pfoten_weg_!_" changeset="2262879" lat="48.072878" lon="11.51283">
    <tag k="addr:city" v="München"/>
    <tag k="addr:country" v="DE"/>
    <tag k="addr:housenumber" v="68"/>
    <tag k="addr:postcode" v="81477"/>
    <tag k="name" v="68"/>
    <tag k="source" v="survey"/>
  </node>
  <node id="427837308" version="5" timestamp="2009-10-02T20:48:04Z" uid="86259" user="hasse_osm_korinthenkacker" changeset="2717407" lat="48.072878" lon="11.51283">
    <tag k="addr:city" v="München"/>
    <tag k="addr:country" v="DE"/>
    <tag k="addr:housenumber" v="68"/>
    <tag k="addr:postcode" v="81477"/>
    <tag k="name" v="68"/>
    <tag k="source" v="survey"/>
  </node>
  <node id="427837309" version="1" timestamp="2009-06-21T23:52:53Z" uid="36809" user="pfoten_weg_!_" changeset="1589495" lat="48.072842" lon="11.513414">
    <tag k="addr:city" v="München"/>
    <tag k="addr:country" v="DE"/>
    <tag k="addr:housenumber" v="64"/>
    <tag k="addr:postcode" v="81477"/>
    <tag k="created_by" v="RambaZamba"/>
    <tag k="name" v="64"/>
    <tag k="source" v="survey"/>
  </node>
  <node id="427837309" version="2" timestamp="2009-08-12T14:06:31Z" uid="156995" user="HampelZamba" changeset="2119076" lat="48.072842" lon="11.513414">
    <tag k="addr:city" v="München"/>
    <tag k="addr:country" v="DE"/>
    <tag k="addr:housenumber" v="64"/>
    <tag k="addr:postcode" v="81477"/>
    <tag k="name" v="64"/>
    <tag k="source" v="survey"/>
  </node>
  <node id="427837309" version="3" timestamp="2009-08-26T00:06:54Z" uid="36809" user="pfoten_weg_!_" changeset="2262648" lat="48.072842" lon="11.513414">
    <tag k="addr:city" v="München"/>
    <tag k="addr:country" v="DE"/>
    <tag k="addr:housenumber" v="64"/>
    <tag k="addr:postcode" v="81477"/>
    <tag k="name" v="64"/>
    <tag k="source" v="survey"/>
  </node>
  <node id="427837309" version="4" timestamp="2009-08-26T01:09:09Z" uid="36809" user="pfoten_weg_!_" changeset="2262879" lat="48.072842" lon="11.513414">
    <tag k="addr:city" v="München"/>
    <tag k="addr:country" v="DE"/>
    <tag k="addr:housenumber" v="64"/>
    <tag k="addr:postcode" v="81477"/>
    <tag k="name" v="64"/>
    <tag k="source" v="survey"/>
  </node>
  <node id="427837309" version="5" timestamp="2009-10-02T20:48:03Z" uid="86259" user="hasse_osm_korinthenkacker" changeset="2717407" lat="48.072842" lon="11.513414">
    <tag k="addr:city" v="München"/>
    <tag k="addr:country" v="DE"/>
    <tag k="addr:housenumber" v="64"/>
    <tag k="addr:postcode" v="81477"/>
    <tag k="name" v="64"/>
    <tag k="source" v="survey"/>
  </node>
  <node id="427837310" version="1" timestamp="2009-06-21T23:52:53Z" uid="36809" user="pfoten_weg_!_" changeset="1589495" lat="48.072807" lon="11.513284">
    <tag k="addr:city" v="München"/>
    <tag k="addr:country" v="DE"/>
    <tag k="addr:housenumber" v="66"/>
    <tag k="addr:postcode" v="81477"/>
    <tag k="created_by" v="RambaZamba"/>
    <tag k="name" v="66"/>
    <tag k="source" v="survey"/>
  </node>
  <node id="427837310" version="2" timestamp="2009-08-12T14:06:31Z" uid="156995" user="HampelZamba" changeset="2119076" lat="48.072807" lon="11.513284">
    <tag k="addr:city" v="München"/>
    <tag k="addr:country" v="DE"/>
    <tag k="addr:housenumber" v="66"/>
    <tag k="addr:postcode" v="81477"/>
    <tag k="name" v="66"/>
    <tag k="source" v="survey"/>
  </node>
  <node id="427837310" version="3" timestamp="2009-08-26T00:06:54Z" uid="36809" user="pfoten_weg_!_" changeset="2262648" lat="48.072807" lon="11.513284">
    <tag k="addr:city" v="München"/>
    <tag k="addr:country" v="DE"/>
    <tag k="addr:housenumber" v="66"/>
    <tag k="addr:postcode" v="81477"/>
    <tag k="name" v="66"/>
    <tag k="source" v="survey"/>
  </node>
  <node id="427837310" version="4" timestamp="2009-08-26T01:09:09Z" uid="36809" user="pfoten_weg_!_" changeset="2262879" lat="48.072807" lon="11.513284">
    <tag k="addr:city" v="München"/>
    <tag k="addr:country" v="DE"/>
    <tag k="addr:housenumber" v="66"/>
    <tag k="addr:postcode" v="81477"/>
    <tag k="name" v="66"/>
    <tag k="source" v="survey"/>
  </node>
  <node id="427837310" version="5" timestamp="2009-10-02T20:48:03Z" uid="86259" user="hasse_osm_korinthenkacker" changeset="2717407" lat="48.072807" lon="11.513284">
    <tag k="addr:city" v="München"/>
    <tag k="addr:country" v="DE"/>
    <tag k="addr:housenumber" v="66"/>
    <tag k="addr:postcode" v="81477"/>
    <tag k="name" v="66"/>
    <tag k="source" v="survey"/>
  </node>
  <node id="427837311" version="1" timestamp="2009-06-21T23:52:53Z" uid="36809" user="pfoten_weg_!_" changeset="1589495" lat="48.072748" lon="11.512268">
    <tag k="addr:city" v="München"/>
    <tag k="addr:country" v="DE"/>
    <tag k="addr:housenumber" v="74"/>
    <tag k="addr:postcode" v="81477"/>
    <tag k="created_by" v="RambaZamba"/>
    <tag k="name" v="74"/>
    <tag k="source" v="survey"/>
  </node>
  <node id="427837311" version="2" timestamp="2009-08-12T14:06:31Z" uid="156995" user="HampelZamba" changeset="2119076" lat="48.072748" lon="11.512268">
    <tag k="addr:city" v="München"/>
    <tag k="addr:country" v="DE"/>
    <tag k="addr:housenumber" v="74"/>
    <tag k="addr:postcode" v="81477"/>
    <tag k="name" v="74"/>
    <tag k="source" v="survey"/>
  </node>
  <node id="427837311" version="3" timestamp="2009-08-26T00:06:53Z" uid="36809" user="pfoten_weg_!_" changeset="2262648" lat="48.072748" lon="11.512268">
    <tag k="addr:city" v="München"/>
    <tag k="addr:country" v="DE"/>
    <tag k="addr:housenumber" v="74"/>
    <tag k="addr:postcode" v="81477"/>
    <tag k="name" v="74"/>
    <tag k="source" v="survey"/>
  </node>
  <node id="427837311" version="4" timestamp="2009-08-26T01:09:08Z" uid="36809" user="pfoten_weg_!_" changeset="2262879" lat="48.072748" lon="11.512268">
    <tag k="addr:city" v="München"/>
    <tag k="addr:country" v="DE"/>
    <tag k="addr:housenumber" v="74"/>
    <tag k="addr:postcode" v="81477"/>
    <tag k="name" v="74"/>
    <tag k="source" v="survey"/>
  </node>
  <node id="427837311" version="5" timestamp="2009-10-02T20:48:05Z" uid="86259" user="hasse_osm_korinthenkacker" changeset="2717407" lat="48.072748" lon="11.512268">
    <tag k="addr:city" v="München"/>
    <tag k="addr:country" v="DE"/>
    <tag k="addr:housenumber" v="74"/>
    <tag k="addr:postcode" v="81477"/>
    <tag k="name" v="74"/>
    <tag k="source" v="survey"/>
  </node>
  <node id="427837312" version="1" timestamp="2009-06-21T23:52:54Z" uid="36809" user="pfoten_weg_!_" changeset="1589495" lat="48.07451" lon="11.510215">
    <tag k="addr:city" v="München"/>
    <tag k="addr:country" v="DE"/>
    <tag k="addr:housenumber" v="2"/>
    <tag k="addr:postcode" v="81477"/>
    <tag k="addr:street" v="Diezweg"/>
    <tag k="created_by" v="RambaZamba"/>
    <tag k="name" v="2"/>
    <tag k="source" v="survey"/>
  </node>
  <node id="427837312" version="2" timestamp="2009-08-12T14:06:31Z" uid="156995" user="HampelZamba" changeset="2119076" lat="48.07451" lon="11.510215">
    <tag k="addr:city" v="München"/>
    <tag k="addr:country" v="DE"/>
    <tag k="addr:housenumber" v="2"/>
    <tag k="addr:postcode" v="81477"/>
    <tag k="addr:street" v="Diezweg"/>
    <tag k="name" v="2"/>
    <tag k="source" v="survey"/>
  </node>
  <node id="427837312" version="3" timestamp="2009-08-19T01:00:07Z" uid="36809" user="pfoten_weg_!_" changeset="2196309" lat="48.07451" lon="11.510215">
    <tag k="addr:city" v="München"/>
    <tag k="addr:country" v="DE"/>
    <tag k="addr:housenumber" v="2"/>
    <tag k="addr:postcode" v="81477"/>
    <tag k="addr:street" v="Diezweg"/>
    <tag k="name" v="2"/>
    <tag k="source" v="survey"/>
  </node>
  <node id="427837313" version="1" timestamp="2009-06-21T23:52:54Z" uid="36809" user="pfoten_weg_!_" changeset="1589495" lat="48.072759" lon="11.512671">
    <tag k="addr:city" v="München"/>
    <tag k="addr:country" v="DE"/>
    <tag k="addr:housenumber" v="70"/>
    <tag k="addr:postcode" v="81477"/>
    <tag k="created_by" v="RambaZamba"/>
    <tag k="name" v="70"/>
    <tag k="source" v="survey"/>
  </node>
  <node id="427837313" version="2" timestamp="2009-08-12T14:06:31Z" uid="156995" user="HampelZamba" changeset="2119076" lat="48.072759" lon="11.512671">
    <tag k="addr:city" v="München"/>
    <tag k="addr:country" v="DE"/>
    <tag k="addr:housenumber" v="70"/>
    <tag k="addr:postcode" v="81477"/>
    <tag k="name" v="70"/>
    <tag k="source" v="survey"/>
  </node>
  <node id="427837313" version="3" timestamp="2009-08-26T00:06:38Z" uid="36809" user="pfoten_weg_!_" changeset="2262648" lat="48.072759" lon="11.512671">
    <tag k="addr:city" v="München"/>
    <tag k="addr:country" v="DE"/>
    <tag k="addr:housenumber" v="70"/>
    <tag k="addr:postcode" v="81477"/>
    <tag k="name" v="70"/>
    <tag k="source" v="survey"/>
  </node>
  <node id="427837313" version="4" timestamp="2009-08-26T01:08:54Z" uid="36809" user="pfoten_weg_!_" changeset="2262879" lat="48.072759" lon="11.512671">
    <tag k="addr:city" v="München"/>
    <tag k="addr:country" v="DE"/>
    <tag k="addr:housenumber" v="70"/>
    <tag k="addr:postcode" v="81477"/>
    <tag k="name" v="70"/>
    <tag k="source" v="survey"/>
  </node>
  <node id="427837313" version="5" timestamp="2009-10-02T20:48:04Z" uid="86259" user="hasse_osm_korinthenkacker" changeset="2717407" lat="48.072759" lon="11.512671">
    <tag k="addr:city" v="München"/>
    <tag k="addr:country" v="DE"/>
    <tag k="addr:housenumber" v="70"/>
    <tag k="addr:postcode" v="81477"/>
    <tag k="name" v="70"/>
    <tag k="source" v="survey"/>
  </node>
  <node id="427837314" version="1" timestamp="2009-06-21T23:52:55Z" uid="36809" user="pfoten_weg_!_" changeset="1589495" lat="48.072765" lon="11.512506">
    <tag k="addr:city" v="München"/>
    <tag k="addr:country" v="DE"/>
    <tag k="addr:housenumber" v="72"/>
    <tag k="addr:postcode" v="81477"/>
    <tag k="created_by" v="RambaZamba"/>
    <tag k="name" v="72"/>
    <tag k="source" v="survey"/>
  </node>
  <node id="427837314" version="2" timestamp="2009-08-12T14:06:32Z" uid="156995" user="HampelZamba" changeset="2119076" lat="48.072765" lon="11.512506">
    <tag k="addr:city" v="München"/>
    <tag k="addr:country" v="DE"/>
    <tag k="addr:housenumber" v="72"/>
    <tag k="addr:postcode" v="81477"/>
    <tag k="name" v="72"/>
    <tag k="source" v="survey"/>
  </node>
  <node id="427837314" version="3" timestamp="2009-08-26T00:06:39Z" uid="36809" user="pfoten_weg_!_" changeset="2262648" lat="48.072765" lon="11.512506">
    <tag k="addr:city" v="München"/>
    <tag k="addr:country" v="DE"/>
    <tag k="addr:housenumber" v="72"/>
    <tag k="addr:postcode" v="81477"/>
    <tag k="name" v="72"/>
    <tag k="source" v="survey"/>
  </node>
  <node id="427837314" version="4" timestamp="2009-08-26T01:08:55Z" uid="36809" user="pfoten_weg_!_" changeset="2262879" lat="48.072765" lon="11.512506">
    <tag k="addr:city" v="München"/>
    <tag k="addr:country" v="DE"/>
    <tag k="addr:housenumber" v="72"/>
    <tag k="addr:postcode" v="81477"/>
    <tag k="name" v="72"/>
    <tag k="source" v="survey"/>
  </node>
  <node id="427837314" version="5" timestamp="2009-10-02T20:48:04Z" uid="86259" user="hasse_osm_korinthenkacker" changeset="2717407" lat="48.072765" lon="11.512506">
    <tag k="addr:city" v="München"/>
    <tag k="addr:country" v="DE"/>
    <tag k="addr:housenumber" v="72"/>
    <tag k="addr:postcode" v="81477"/>
    <tag k="name" v="72"/>
    <tag k="source" v="survey"/>
  </node>
  <node id="427837315" version="1" timestamp="2009-06-21T23:52:55Z" uid="36809" user="pfoten_weg_!_" changeset="1589495" lat="48.072774" lon="11.516491">
    <tag k="addr:city" v="München"/>
    <tag k="addr:country" v="DE"/>
    <tag k="addr:housenumber" v="44A"/>
    <tag k="addr:postcode" v="81477"/>
    <tag k="created_by" v="RambaZamba"/>
    <tag k="name" v="44A"/>
    <tag k="source" v="survey"/>
  </node>
  <node id="427837315" version="2" timestamp="2009-08-12T14:06:32Z" uid="156995" user="HampelZamba" changeset="2119076" lat="48.072774" lon="11.516491">
    <tag k="addr:city" v="München"/>
    <tag k="addr:country" v="DE"/>
    <tag k="addr:housenumber" v="44A"/>
    <tag k="addr:postcode" v="81477"/>
    <tag k="name" v="44A"/>
    <tag k="source" v="survey"/>
  </node>
  <node id="427837315" version="3" timestamp="2009-08-26T00:06:38Z" uid="36809" user="pfoten_weg_!_" changeset="2262648" lat="48.072774" lon="11.516491">
    <tag k="addr:city" v="München"/>
    <tag k="addr:country" v="DE"/>
    <tag k="addr:housenumber" v="44A"/>
    <tag k="addr:postcode" v="81477"/>
    <tag k="name" v="44A"/>
    <tag k="source" v="survey"/>
  </node>
  <node id="427837315" version="4" timestamp="2009-08-26T01:08:55Z" uid="36809" user="pfoten_weg_!_" changeset="2262879" lat="48.072774" lon="11.516491">
    <tag k="addr:city" v="München"/>
    <tag k="addr:country" v="DE"/>
    <tag k="addr:housenumber" v="44A"/>
    <tag k="addr:postcode" v="81477"/>
    <tag k="name" v="44A"/>
    <tag k="source" v="survey"/>
  </node>
  <node id="427837315" version="5" timestamp="2009-10-02T20:46:58Z" uid="86259" user="hasse_osm_korinthenkacker" changeset="2717407" lat="48.072774" lon="11.516491">
    <tag k="addr:city" v="München"/>
    <tag k="addr:country" v="DE"/>
    <tag k="addr:housenumber" v="44A"/>
    <tag k="addr:postcode" v="81477"/>
    <tag k="name" v="44A"/>
    <tag k="source" v="survey"/>
  </node>
  <node id="427837316" version="1" timestamp="2009-06-21T23:52:55Z" uid="36809" user="pfoten_weg_!_" changeset="1589495" lat="48.072643" lon="11.516483">
    <tag k="addr:city" v="München"/>
    <tag k="addr:country" v="DE"/>
    <tag k="addr:housenumber" v="44"/>
    <tag k="addr:postcode" v="81477"/>
    <tag k="created_by" v="RambaZamba"/>
    <tag k="name" v="44"/>
    <tag k="source" v="survey"/>
  </node>
  <node id="427837316" version="2" timestamp="2009-08-12T14:06:32Z" uid="156995" user="HampelZamba" changeset="2119076" lat="48.072643" lon="11.516483">
    <tag k="addr:city" v="München"/>
    <tag k="addr:country" v="DE"/>
    <tag k="addr:housenumber" v="44"/>
    <tag k="addr:postcode" v="81477"/>
    <tag k="name" v="44"/>
    <tag k="source" v="survey"/>
  </node>
  <node id="427837316" version="3" timestamp="2009-08-26T00:06:39Z" uid="36809" user="pfoten_weg_!_" changeset="2262648" lat="48.072643" lon="11.516483">
    <tag k="addr:city" v="München"/>
    <tag k="addr:country" v="DE"/>
    <tag k="addr:housenumber" v="44"/>
    <tag k="addr:postcode" v="81477"/>
    <tag k="name" v="44"/>
    <tag k="source" v="survey"/>
  </node>
  <node id="427837316" version="4" timestamp="2009-08-26T01:08:56Z" uid="36809" user="pfoten_weg_!_" changeset="2262879" lat="48.072643" lon="11.516483">
    <tag k="addr:city" v="München"/>
    <tag k="addr:country" v="DE"/>
    <tag k="addr:housenumber" v="44"/>
    <tag k="addr:postcode" v="81477"/>
    <tag k="name" v="44"/>
    <tag k="source" v="survey"/>
  </node>
  <node id="427837316" version="5" timestamp="2009-10-02T20:46:59Z" uid="86259" user="hasse_osm_korinthenkacker" changeset="2717407" lat="48.072643" lon="11.516483">
    <tag k="addr:city" v="München"/>
    <tag k="addr:country" v="DE"/>
    <tag k="addr:housenumber" v="44"/>
    <tag k="addr:postcode" v="81477"/>
    <tag k="name" v="44"/>
    <tag k="source" v="survey"/>
  </node>
  <node id="427837317" version="1" timestamp="2009-06-21T23:52:56Z" uid="36809" user="pfoten_weg_!_" changeset="1589495" lat="48.0725698" lon="11.5159355">
    <tag k="addr:city" v="München"/>
    <tag k="addr:country" v="DE"/>
    <tag k="addr:housenumber" v="48"/>
    <tag k="addr:postcode" v="81477"/>
    <tag k="created_by" v="RambaZamba"/>
    <tag k="name" v="48"/>
    <tag k="source" v="survey"/>
  </node>
  <node id="427837317" version="2" timestamp="2009-08-12T14:06:32Z" uid="156995" user="HampelZamba" changeset="2119076" lat="48.0725698" lon="11.5159355">
    <tag k="addr:city" v="München"/>
    <tag k="addr:country" v="DE"/>
    <tag k="addr:housenumber" v="48"/>
    <tag k="addr:postcode" v="81477"/>
    <tag k="name" v="48"/>
    <tag k="source" v="survey"/>
  </node>
  <node id="427837317" version="3" timestamp="2009-08-26T00:06:39Z" uid="36809" user="pfoten_weg_!_" changeset="2262648" lat="48.0725698" lon="11.5159355">
    <tag k="addr:city" v="München"/>
    <tag k="addr:country" v="DE"/>
    <tag k="addr:housenumber" v="48"/>
    <tag k="addr:postcode" v="81477"/>
    <tag k="name" v="48"/>
    <tag k="source" v="survey"/>
  </node>
  <node id="427837317" version="4" timestamp="2009-08-26T01:08:55Z" uid="36809" user="pfoten_weg_!_" changeset="2262879" lat="48.0725698" lon="11.5159355">
    <tag k="addr:city" v="München"/>
    <tag k="addr:country" v="DE"/>
    <tag k="addr:housenumber" v="48"/>
    <tag k="addr:postcode" v="81477"/>
    <tag k="name" v="48"/>
    <tag k="source" v="survey"/>
  </node>
  <node id="427837317" version="5" timestamp="2009-10-02T20:47:05Z" uid="86259" user="hasse_osm_korinthenkacker" changeset="2717407" lat="48.0725698" lon="11.5159355">
    <tag k="addr:city" v="München"/>
    <tag k="addr:country" v="DE"/>
    <tag k="addr:housenumber" v="48"/>
    <tag k="addr:postcode" v="81477"/>
    <tag k="name" v="48"/>
    <tag k="source" v="survey"/>
  </node>
  <node id="427837318" version="1" timestamp="2009-06-21T23:52:56Z" uid="36809" user="pfoten_weg_!_" changeset="1589495" lat="48.07257" lon="11.516054">
    <tag k="addr:city" v="München"/>
    <tag k="addr:country" v="DE"/>
    <tag k="addr:housenumber" v="46"/>
    <tag k="addr:postcode" v="81477"/>
    <tag k="created_by" v="RambaZamba"/>
    <tag k="name" v="46"/>
    <tag k="source" v="survey"/>
  </node>
  <node id="427837318" version="2" timestamp="2009-08-12T14:06:32Z" uid="156995" user="HampelZamba" changeset="2119076" lat="48.07257" lon="11.516054">
    <tag k="addr:city" v="München"/>
    <tag k="addr:country" v="DE"/>
    <tag k="addr:housenumber" v="46"/>
    <tag k="addr:postcode" v="81477"/>
    <tag k="name" v="46"/>
    <tag k="source" v="survey"/>
  </node>
  <node id="427837318" version="3" timestamp="2009-08-26T00:06:40Z" uid="36809" user="pfoten_weg_!_" changeset="2262648" lat="48.07257" lon="11.516054">
    <tag k="addr:city" v="München"/>
    <tag k="addr:country" v="DE"/>
    <tag k="addr:housenumber" v="46"/>
    <tag k="addr:postcode" v="81477"/>
    <tag k="name" v="46"/>
    <tag k="source" v="survey"/>
  </node>
  <node id="427837318" version="4" timestamp="2009-08-26T01:08:57Z" uid="36809" user="pfoten_weg_!_" changeset="2262879" lat="48.07257" lon="11.516054">
    <tag k="addr:city" v="München"/>
    <tag k="addr:country" v="DE"/>
    <tag k="addr:housenumber" v="46"/>
    <tag k="addr:postcode" v="81477"/>
    <tag k="name" v="46"/>
    <tag k="source" v="survey"/>
  </node>
  <node id="427837318" version="5" timestamp="2009-10-02T20:47:05Z" uid="86259" user="hasse_osm_korinthenkacker" changeset="2717407" lat="48.07257" lon="11.516054">
    <tag k="addr:city" v="München"/>
    <tag k="addr:country" v="DE"/>
    <tag k="addr:housenumber" v="46"/>
    <tag k="addr:postcode" v="81477"/>
    <tag k="name" v="46"/>
    <tag k="source" v="survey"/>
  </node>
  <node id="427837319" version="1" timestamp="2009-06-21T23:52:56Z" uid="36809" user="pfoten_weg_!_" changeset="1589495" lat="48.072694" lon="11.515069">
    <tag k="addr:city" v="München"/>
    <tag k="addr:country" v="DE"/>
    <tag k="addr:housenumber" v="58"/>
    <tag k="addr:postcode" v="81477"/>
    <tag k="created_by" v="RambaZamba"/>
    <tag k="name" v="58"/>
    <tag k="source" v="survey"/>
  </node>
  <node id="427837319" version="2" timestamp="2009-08-12T14:06:32Z" uid="156995" user="HampelZamba" changeset="2119076" lat="48.072694" lon="11.515069">
    <tag k="addr:city" v="München"/>
    <tag k="addr:country" v="DE"/>
    <tag k="addr:housenumber" v="58"/>
    <tag k="addr:postcode" v="81477"/>
    <tag k="name" v="58"/>
    <tag k="source" v="survey"/>
  </node>
  <node id="427837319" version="3" timestamp="2009-08-26T00:06:40Z" uid="36809" user="pfoten_weg_!_" changeset="2262648" lat="48.072694" lon="11.515069">
    <tag k="addr:city" v="München"/>
    <tag k="addr:country" v="DE"/>
    <tag k="addr:housenumber" v="58"/>
    <tag k="addr:postcode" v="81477"/>
    <tag k="name" v="58"/>
    <tag k="source" v="survey"/>
  </node>
  <node id="427837319" version="4" timestamp="2009-08-26T01:08:56Z" uid="36809" user="pfoten_weg_!_" changeset="2262879" lat="48.072694" lon="11.515069">
    <tag k="addr:city" v="München"/>
    <tag k="addr:country" v="DE"/>
    <tag k="addr:housenumber" v="58"/>
    <tag k="addr:postcode" v="81477"/>
    <tag k="name" v="58"/>
    <tag k="source" v="survey"/>
  </node>
  <node id="427837319" version="5" timestamp="2009-10-02T20:47:05Z" uid="86259" user="hasse_osm_korinthenkacker" changeset="2717407" lat="48.072694" lon="11.515069">
    <tag k="addr:city" v="München"/>
    <tag k="addr:country" v="DE"/>
    <tag k="addr:housenumber" v="58"/>
    <tag k="addr:postcode" v="81477"/>
    <tag k="name" v="58"/>
    <tag k="source" v="survey"/>
  </node>
  <node id="427837320" version="1" timestamp="2009-06-21T23:52:57Z" uid="36809" user="pfoten_weg_!_" changeset="1589495" lat="48.07269" lon="11.515334">
    <tag k="addr:city" v="München"/>
    <tag k="addr:country" v="DE"/>
    <tag k="addr:housenumber" v="52"/>
    <tag k="addr:postcode" v="81477"/>
    <tag k="created_by" v="RambaZamba"/>
    <tag k="name" v="52"/>
    <tag k="source" v="survey"/>
  </node>
  <node id="427837320" version="2" timestamp="2009-08-12T14:06:32Z" uid="156995" user="HampelZamba" changeset="2119076" lat="48.07269" lon="11.515334">
    <tag k="addr:city" v="München"/>
    <tag k="addr:country" v="DE"/>
    <tag k="addr:housenumber" v="52"/>
    <tag k="addr:postcode" v="81477"/>
    <tag k="name" v="52"/>
    <tag k="source" v="survey"/>
  </node>
  <node id="427837320" version="3" timestamp="2009-08-26T00:06:41Z" uid="36809" user="pfoten_weg_!_" changeset="2262648" lat="48.07269" lon="11.515334">
    <tag k="addr:city" v="München"/>
    <tag k="addr:country" v="DE"/>
    <tag k="addr:housenumber" v="52"/>
    <tag k="addr:postcode" v="81477"/>
    <tag k="name" v="52"/>
    <tag k="source" v="survey"/>
  </node>
  <node id="427837320" version="4" timestamp="2009-08-26T01:08:57Z" uid="36809" user="pfoten_weg_!_" changeset="2262879" lat="48.07269" lon="11.515334">
    <tag k="addr:city" v="München"/>
    <tag k="addr:country" v="DE"/>
    <tag k="addr:housenumber" v="52"/>
    <tag k="addr:postcode" v="81477"/>
    <tag k="name" v="52"/>
    <tag k="source" v="survey"/>
  </node>
  <node id="427837320" version="5" timestamp="2009-10-02T20:47:05Z" uid="86259" user="hasse_osm_korinthenkacker" changeset="2717407" lat="48.07269" lon="11.515334">
    <tag k="addr:city" v="München"/>
    <tag k="addr:country" v="DE"/>
    <tag k="addr:housenumber" v="52"/>
    <tag k="addr:postcode" v="81477"/>
    <tag k="name" v="52"/>
    <tag k="source" v="survey"/>
  </node>
  <node id="427837321" version="1" timestamp="2009-06-21T23:52:57Z" uid="36809" user="pfoten_weg_!_" changeset="1589495" lat="48.072819" lon="11.513873">
    <tag k="addr:city" v="München"/>
    <tag k="addr:country" v="DE"/>
    <tag k="addr:housenumber" v="62"/>
    <tag k="addr:postcode" v="81477"/>
    <tag k="created_by" v="RambaZamba"/>
    <tag k="name" v="62"/>
    <tag k="source" v="survey"/>
  </node>
  <node id="427837321" version="2" timestamp="2009-08-12T14:06:32Z" uid="156995" user="HampelZamba" changeset="2119076" lat="48.072819" lon="11.513873">
    <tag k="addr:city" v="München"/>
    <tag k="addr:country" v="DE"/>
    <tag k="addr:housenumber" v="62"/>
    <tag k="addr:postcode" v="81477"/>
    <tag k="name" v="62"/>
    <tag k="source" v="survey"/>
  </node>
  <node id="427837321" version="3" timestamp="2009-08-26T00:06:41Z" uid="36809" user="pfoten_weg_!_" changeset="2262648" lat="48.072819" lon="11.513873">
    <tag k="addr:city" v="München"/>
    <tag k="addr:country" v="DE"/>
    <tag k="addr:housenumber" v="62"/>
    <tag k="addr:postcode" v="81477"/>
    <tag k="name" v="62"/>
    <tag k="source" v="survey"/>
  </node>
  <node id="427837321" version="4" timestamp="2009-08-26T01:08:57Z" uid="36809" user="pfoten_weg_!_" changeset="2262879" lat="48.072819" lon="11.513873">
    <tag k="addr:city" v="München"/>
    <tag k="addr:country" v="DE"/>
    <tag k="addr:housenumber" v="62"/>
    <tag k="addr:postcode" v="81477"/>
    <tag k="name" v="62"/>
    <tag k="source" v="survey"/>
  </node>
  <node id="427837321" version="5" timestamp="2009-10-02T20:47:07Z" uid="86259" user="hasse_osm_korinthenkacker" changeset="2717407" lat="48.072819" lon="11.513873">
    <tag k="addr:city" v="München"/>
    <tag k="addr:country" v="DE"/>
    <tag k="addr:housenumber" v="62"/>
    <tag k="addr:postcode" v="81477"/>
    <tag k="name" v="62"/>
    <tag k="source" v="survey"/>
  </node>
  <node id="427837322" version="1" timestamp="2009-06-21T23:52:57Z" uid="36809" user="pfoten_weg_!_" changeset="1589495" lat="48.072745" lon="11.514051">
    <tag k="addr:city" v="München"/>
    <tag k="addr:country" v="DE"/>
    <tag k="addr:housenumber" v="60"/>
    <tag k="addr:postcode" v="81477"/>
    <tag k="created_by" v="RambaZamba"/>
    <tag k="name" v="60"/>
    <tag k="source" v="survey"/>
  </node>
  <node id="427837322" version="2" timestamp="2009-08-12T14:06:32Z" uid="156995" user="HampelZamba" changeset="2119076" lat="48.072745" lon="11.514051">
    <tag k="addr:city" v="München"/>
    <tag k="addr:country" v="DE"/>
    <tag k="addr:housenumber" v="60"/>
    <tag k="addr:postcode" v="81477"/>
    <tag k="name" v="60"/>
    <tag k="source" v="survey"/>
  </node>
  <node id="427837322" version="3" timestamp="2009-08-26T00:06:42Z" uid="36809" user="pfoten_weg_!_" changeset="2262648" lat="48.072745" lon="11.514051">
    <tag k="addr:city" v="München"/>
    <tag k="addr:country" v="DE"/>
    <tag k="addr:housenumber" v="60"/>
    <tag k="addr:postcode" v="81477"/>
    <tag k="name" v="60"/>
    <tag k="source" v="survey"/>
  </node>
  <node id="427837322" version="4" timestamp="2009-08-26T01:08:58Z" uid="36809" user="pfoten_weg_!_" changeset="2262879" lat="48.072745" lon="11.514051">
    <tag k="addr:city" v="München"/>
    <tag k="addr:country" v="DE"/>
    <tag k="addr:housenumber" v="60"/>
    <tag k="addr:postcode" v="81477"/>
    <tag k="name" v="60"/>
    <tag k="source" v="survey"/>
  </node>
  <node id="427837322" version="5" timestamp="2009-10-02T20:47:07Z" uid="86259" user="hasse_osm_korinthenkacker" changeset="2717407" lat="48.072745" lon="11.514051">
    <tag k="addr:city" v="München"/>
    <tag k="addr:country" v="DE"/>
    <tag k="addr:housenumber" v="60"/>
    <tag k="addr:postcode" v="81477"/>
    <tag k="name" v="60"/>
    <tag k="source" v="survey"/>
  </node>
  <node id="427837323" version="1" timestamp="2009-06-21T23:52:58Z" uid="36809" user="pfoten_weg_!_" changeset="1589495" lat="48.072638" lon="11.516661">
    <tag k="addr:city" v="München"/>
    <tag k="addr:country" v="DE"/>
    <tag k="addr:housenumber" v="42"/>
    <tag k="addr:postcode" v="81477"/>
    <tag k="created_by" v="RambaZamba"/>
    <tag k="name" v="42"/>
    <tag k="source" v="survey"/>
  </node>
  <node id="427837323" version="2" timestamp="2009-08-12T14:06:32Z" uid="156995" user="HampelZamba" changeset="2119076" lat="48.072638" lon="11.516661">
    <tag k="addr:city" v="München"/>
    <tag k="addr:country" v="DE"/>
    <tag k="addr:housenumber" v="42"/>
    <tag k="addr:postcode" v="81477"/>
    <tag k="name" v="42"/>
    <tag k="source" v="survey"/>
  </node>
  <node id="427837323" version="3" timestamp="2009-08-26T00:06:42Z" uid="36809" user="pfoten_weg_!_" changeset="2262648" lat="48.072638" lon="11.516661">
    <tag k="addr:city" v="München"/>
    <tag k="addr:country" v="DE"/>
    <tag k="addr:housenumber" v="42"/>
    <tag k="addr:postcode" v="81477"/>
    <tag k="name" v="42"/>
    <tag k="source" v="survey"/>
  </node>
  <node id="427837323" version="4" timestamp="2009-08-26T01:08:58Z" uid="36809" user="pfoten_weg_!_" changeset="2262879" lat="48.072638" lon="11.516661">
    <tag k="addr:city" v="München"/>
    <tag k="addr:country" v="DE"/>
    <tag k="addr:housenumber" v="42"/>
    <tag k="addr:postcode" v="81477"/>
    <tag k="name" v="42"/>
    <tag k="source" v="survey"/>
  </node>
  <node id="427837323" version="5" timestamp="2009-10-02T20:46:59Z" uid="86259" user="hasse_osm_korinthenkacker" changeset="2717407" lat="48.072638" lon="11.516661">
    <tag k="addr:city" v="München"/>
    <tag k="addr:country" v="DE"/>
    <tag k="addr:housenumber" v="42"/>
    <tag k="addr:postcode" v="81477"/>
    <tag k="name" v="42"/>
    <tag k="source" v="survey"/>
  </node>
  <node id="427837436" version="1" timestamp="2009-06-21T23:59:08Z" uid="36809" user="pfoten_weg_!_" changeset="1589515" lat="48.0794267" lon="11.5029443">
    <tag k="created_by" v="RambaZamba"/>
    <tag k="crossing" v="traffic_signals"/>
    <tag k="highway" v="traffic_signals"/>
    <tag k="source" v="survey"/>
  </node>
  <node id="427837436" version="2" timestamp="2009-07-26T03:16:29Z" uid="36809" user="pfoten_weg_!_" changeset="1940209" lat="48.0794267" lon="11.5029443">
    <tag k="crossing" v="traffic_signals"/>
    <tag k="discovered_by" v="RambaZamba"/>
    <tag k="highway" v="traffic_signals"/>
    <tag k="source" v="survey"/>
  </node>
  <node id="427837436" version="3" timestamp="2009-08-12T14:06:32Z" uid="156995" user="HampelZamba" changeset="2119076" lat="48.0794267" lon="11.5029443">
    <tag k="crossing" v="traffic_signals"/>
    <tag k="highway" v="traffic_signals"/>
    <tag k="source" v="survey"/>
  </node>
  <node id="427837436" version="4" timestamp="2009-08-19T01:14:36Z" uid="36809" user="pfoten_weg_!_" changeset="2196346" lat="48.0794267" lon="11.5029443">
    <tag k="crossing" v="traffic_signals"/>
    <tag k="discovered_by" v="RambaZamba"/>
    <tag k="highway" v="traffic_signals"/>
    <tag k="source" v="survey"/>
  </node>
  <node id="427837436" version="5" timestamp="2009-08-28T19:48:03Z" uid="156995" user="HampelZamba" changeset="2294580" lat="48.0794267" lon="11.5029443">
    <tag k="crossing" v="traffic_signals"/>
    <tag k="highway" v="traffic_signals"/>
    <tag k="source" v="survey"/>
  </node>
  <node id="427837436" version="6" timestamp="2009-08-28T20:50:03Z" uid="36809" user="pfoten_weg_!_" changeset="2295155" lat="48.0794267" lon="11.5029443">
    <tag k="crossing" v="traffic_signals"/>
    <tag k="discovered_by" v="RambaZamba"/>
    <tag k="highway" v="traffic_signals"/>
    <tag k="source" v="survey"/>
  </node>
  <node id="427837436" version="7" timestamp="2009-08-30T09:16:28Z" uid="156995" user="HampelZamba" changeset="2310659" lat="48.0794267" lon="11.5029443">
    <tag k="crossing" v="traffic_signals"/>
    <tag k="highway" v="traffic_signals"/>
    <tag k="source" v="survey"/>
  </node>
  <node id="427837436" version="8" timestamp="2009-08-31T20:58:37Z" uid="36809" user="pfoten_weg_!_" changeset="2331411" lat="48.0794267" lon="11.5029443">
    <tag k="crossing" v="traffic_signals"/>
    <tag k="highway" v="traffic_signals"/>
    <tag k="source" v="survey"/>
  </node>
  <node id="427837436" version="9" timestamp="2009-10-12T21:59:09Z" uid="36809" user="pfoten_weg_!_" changeset="2831291" lat="48.0794267" lon="11.5029443">
    <tag k="crossing" v="traffic_signals"/>
    <tag k="highway" v="traffic_signals"/>
  </node>
  <node id="427837436" version="10" timestamp="2011-05-30T04:15:25Z" uid="137711" user="avus" changeset="8288037" lat="48.0794346" lon="11.502947">
    <tag k="crossing" v="traffic_signals"/>
    <tag k="highway" v="traffic_signals"/>
  </node>
  <node id="427837437" version="1" timestamp="2009-06-21T23:59:08Z" uid="36809" user="pfoten_weg_!_" changeset="1589515" lat="48.0792107" lon="11.5037398">
    <tag k="created_by" v="RambaZamba"/>
    <tag k="crossing" v="traffic_signals"/>
    <tag k="highway" v="traffic_signals"/>
    <tag k="source" v="survey"/>
  </node>
  <node id="427837437" version="2" timestamp="2009-07-26T03:16:29Z" uid="36809" user="pfoten_weg_!_" changeset="1940209" lat="48.0792107" lon="11.5037398">
    <tag k="crossing" v="traffic_signals"/>
    <tag k="discovered_by" v="RambaZamba"/>
    <tag k="highway" v="traffic_signals"/>
    <tag k="source" v="survey"/>
  </node>
  <node id="427837437" version="3" timestamp="2009-08-12T14:06:32Z" uid="156995" user="HampelZamba" changeset="2119076" lat="48.0792107" lon="11.5037398">
    <tag k="crossing" v="traffic_signals"/>
    <tag k="highway" v="traffic_signals"/>
    <tag k="source" v="survey"/>
  </node>
  <node id="427837437" version="4" timestamp="2009-08-19T01:14:36Z" uid="36809" user="pfoten_weg_!_" changeset="2196346" lat="48.0792107" lon="11.5037398">
    <tag k="crossing" v="traffic_signals"/>
    <tag k="discovered_by" v="RambaZamba"/>
    <tag k="highway" v="traffic_signals"/>
    <tag k="source" v="survey"/>
  </node>
  <node id="427837437" version="5" timestamp="2009-08-28T19:48:03Z" uid="156995" user="HampelZamba" changeset="2294580" lat="48.0792107" lon="11.5037398">
    <tag k="crossing" v="traffic_signals"/>
    <tag k="highway" v="traffic_signals"/>
    <tag k="source" v="survey"/>
  </node>
  <node id="427837437" version="6" timestamp="2009-08-28T20:50:03Z" uid="36809" user="pfoten_weg_!_" changeset="2295155" lat="48.0792107" lon="11.5037398">
    <tag k="crossing" v="traffic_signals"/>
    <tag k="discovered_by" v="RambaZamba"/>
    <tag k="highway" v="traffic_signals"/>
    <tag k="source" v="survey"/>
  </node>
  <node id="427837437" version="7" timestamp="2009-08-30T09:16:28Z" uid="156995" user="HampelZamba" changeset="2310659" lat="48.0792107" lon="11.5037398">
    <tag k="crossing" v="traffic_signals"/>
    <tag k="highway" v="traffic_signals"/>
    <tag k="source" v="survey"/>
  </node>
  <node id="427837437" version="8" timestamp="2009-08-31T20:58:38Z" uid="36809" user="pfoten_weg_!_" changeset="2331411" lat="48.0792107" lon="11.5037398">
    <tag k="crossing" v="traffic_signals"/>
    <tag k="highway" v="traffic_signals"/>
    <tag k="source" v="survey"/>
  </node>
  <node id="427837437" version="9" timestamp="2009-10-12T21:59:10Z" uid="36809" user="pfoten_weg_!_" changeset="2831291" lat="48.0792107" lon="11.5037398">
    <tag k="crossing" v="traffic_signals"/>
    <tag k="highway" v="traffic_signals"/>
  </node>
  <node id="427837438" version="1" timestamp="2009-06-21T23:59:09Z" uid="36809" user="pfoten_weg_!_" changeset="1589515" lat="48.0795818" lon="11.5033931">
    <tag k="created_by" v="RambaZamba"/>
    <tag k="crossing" v="traffic_signals"/>
    <tag k="highway" v="traffic_signals"/>
    <tag k="source" v="survey"/>
  </node>
  <node id="427837438" version="2" timestamp="2009-07-26T03:16:29Z" uid="36809" user="pfoten_weg_!_" changeset="1940209" lat="48.0795818" lon="11.5033931">
    <tag k="crossing" v="traffic_signals"/>
    <tag k="discovered_by" v="RambaZamba"/>
    <tag k="highway" v="traffic_signals"/>
    <tag k="source" v="survey"/>
  </node>
  <node id="427837438" version="3" timestamp="2009-08-12T14:06:33Z" uid="156995" user="HampelZamba" changeset="2119076" lat="48.0795818" lon="11.5033931">
    <tag k="crossing" v="traffic_signals"/>
    <tag k="highway" v="traffic_signals"/>
    <tag k="source" v="survey"/>
  </node>
  <node id="427837438" version="4" timestamp="2009-08-19T01:14:35Z" uid="36809" user="pfoten_weg_!_" changeset="2196346" lat="48.0795818" lon="11.5033931">
    <tag k="crossing" v="traffic_signals"/>
    <tag k="discovered_by" v="RambaZamba"/>
    <tag k="highway" v="traffic_signals"/>
    <tag k="source" v="survey"/>
  </node>
  <node id="427837438" version="5" timestamp="2009-08-28T19:48:03Z" uid="156995" user="HampelZamba" changeset="2294580" lat="48.0795818" lon="11.5033931">
    <tag k="crossing" v="traffic_signals"/>
    <tag k="highway" v="traffic_signals"/>
    <tag k="source" v="survey"/>
  </node>
  <node id="427837438" version="6" timestamp="2009-08-28T20:50:02Z" uid="36809" user="pfoten_weg_!_" changeset="2295155" lat="48.0795818" lon="11.5033931">
    <tag k="crossing" v="traffic_signals"/>
    <tag k="discovered_by" v="RambaZamba"/>
    <tag k="highway" v="traffic_signals"/>
    <tag k="source" v="survey"/>
  </node>
  <node id="427837438" version="7" timestamp="2009-08-30T09:16:28Z" uid="156995" user="HampelZamba" changeset="2310659" lat="48.0795818" lon="11.5033931">
    <tag k="crossing" v="traffic_signals"/>
    <tag k="highway" v="traffic_signals"/>
    <tag k="source" v="survey"/>
  </node>
  <node id="427837438" version="8" timestamp="2009-08-31T20:58:36Z" uid="36809" user="pfoten_weg_!_" changeset="2331411" lat="48.0795818" lon="11.5033931">
    <tag k="crossing" v="traffic_signals"/>
    <tag k="highway" v="traffic_signals"/>
    <tag k="source" v="survey"/>
  </node>
  <node id="427837438" version="9" timestamp="2009-10-12T21:59:22Z" uid="36809" user="pfoten_weg_!_" changeset="2831291" lat="48.0795818" lon="11.5033931">
    <tag k="crossing" v="traffic_signals"/>
    <tag k="highway" v="traffic_signals"/>
  </node>
  <node id="427837617" version="2" timestamp="2011-06-15T03:56:00Z" uid="30201" user="rrankin" changeset="8443750" lat="-32.6613198" lon="151.7443372"/>
</osm>
