<?xml version='1.0' encoding='UTF-8'?>
<osm version="0.6" generator="libosmium/2.20.0">
  <node id="428038170" version="4" timestamp="2011-03-06T11:55:23Z" uid="8619" user="cetest" changeset="7472297" lat="32.6027291" lon="35.1164554"/>
  <node id="428038170" version="5" timestamp="2011-03-07T08:54:38Z" uid="248169" user="adrukh" changeset="7481866" lat="32.6015674" lon="35.1164867"/>
  <node id="428039502" version="3" timestamp="2009-07-23T00:20:16Z" uid="20587" user="balrog-kun" changeset="1910333" lat="41.0279766" lon="28.9750669">
    <tag k="alt_name:pl" v="Stambuł"/>
    <tag k="is_in" v="Turkey"/>
    <tag k="name" v="İstanbul"/>
    <tag k="name:en" v="Istanbul"/>
    <tag k="name:es" v="Estambul"/>
    <tag k="name:he" v="איסטנבול"/>
    <tag k="name:pl" v="Istambuł"/>
    <tag k="place" v="city"/>
    <tag k="salb:id" v="TUR041"/>
    <tag k="salb:name" v="Istanbul"/>
    <tag k="source" v="Wikipedia (tr)"/>
    <tag k="watch:hakan" v="turkey-iller"/>
    <tag k="wikipedia" v="Istanbul"/>
  </node>
  <node id="428039502" version="4" timestamp="2009-08-11T15:04:28Z" uid="156456" user="sed" changeset="2109210" lat="41.0279802" lon="28.9750522">
    <tag k="alt_name:pl" v="Stambuł"/>
    <tag k="is_in" v="Turkey"/>
    <tag k="name" v="İstanbul"/>
    <tag k="name:en" v="Istanbul"/>
    <tag k="name:es" v="Estambul"/>
    <tag k="name:he" v="איסטנבול"/>
    <tag k="name:pl" v="Istambuł"/>
    <tag k="place" v="city"/>
    <tag k="salb:id" v="TUR041"/>
    <tag k="salb:name" v="Istanbul"/>
    <tag k="source" v="Wikipedia (tr)"/>
    <tag k="watch:hakan" v="turkey-iller"/>
    <tag k="wikipedia" v="Istanbul"/>
  </node>
  <node id="428039502" version="5" timestamp="2009-09-30T11:17:40Z" uid="29717" user="eumiro" changeset="2686580" lat="41.0279802" lon="28.9750522">
    <tag k="alt_name:pl" v="Stambuł"/>
    <tag k="is_in" v="Turkey"/>
    <tag k="name" v="İstanbul"/>
    <tag k="name:cs" v="Istanbul"/>
    <tag k="name:en" v="Istanbul"/>
    <tag k="name:es" v="Estambul"/>
    <tag k="name:he" v="איסטנבול"/>
    <tag k="name:pl" v="Istambuł"/>
    <tag k="name:sk" v="Istanbul"/>
    <tag k="place" v="city"/>
    <tag k="salb:id" v="TUR041"/>
    <tag k="salb:name" v="Istanbul"/>
    <tag k="source" v="Wikipedia (tr)"/>
    <tag k="watch:hakan" v="turkey-iller"/>
    <tag k="wikipedia" v="Istanbul"/>
  </node>
  <node id="428039502" version="6" timestamp="2009-10-16T17:54:19Z" uid="65298" user="Torsten OSM" changeset="2867117" lat="41.0279802" lon="28.9750522">
    <tag k="alt_name:pl" v="Stambuł"/>
    <tag k="is_in" v="Turkey"/>
    <tag k="name" v="İstanbul"/>
    <tag k="name:cs" v="Istanbul"/>
    <tag k="name:de" v="Konstantinopel"/>
    <tag k="name:en" v="Istanbul"/>
    <tag k="name:es" v="Estambul"/>
    <tag k="name:he" v="איסטנבול"/>
    <tag k="name:pl" v="Istambuł"/>
    <tag k="name:sk" v="Istanbul"/>
    <tag k="place" v="city"/>
    <tag k="salb:id" v="TUR041"/>
    <tag k="salb:name" v="Istanbul"/>
    <tag k="source" v="Wikipedia (tr)"/>
    <tag k="watch:hakan" v="turkey-iller"/>
    <tag k="wikipedia" v="Istanbul"/>
  </node>
  <node id="428039502" version="7" timestamp="2009-12-08T17:38:32Z" uid="175523" user="mapistanbul" changeset="3326548" lat="41.0279801" lon="28.9750522">
    <tag k="alt_name:pl" v="Stambuł"/>
    <tag k="is_in" v="Turkey"/>
    <tag k="name" v="İstanbul"/>
    <tag k="name:cs" v="Istanbul"/>
    <tag k="name:de" v="Istanbul"/>
    <tag k="name:en" v="Istanbul"/>
    <tag k="name:es" v="Estambul"/>
    <tag k="name:he" v="איסטנבול"/>
    <tag k="name:pl" v="Istambuł"/>
    <tag k="name:sk" v="Istanbul"/>
    <tag k="place" v="city"/>
    <tag k="salb:id" v="TUR041"/>
    <tag k="salb:name" v="Istanbul"/>
    <tag k="source" v="Wikipedia (tr)"/>
    <tag k="watch:hakan" v="turkey-iller"/>
    <tag k="wikipedia" v="Istanbul"/>
  </node>
  <node id="428039502" version="8" timestamp="2010-01-17T19:19:59Z" uid="110958" user="NikDiGrik" changeset="3644707" lat="41.0279802" lon="28.9750522">
    <tag k="alt_name:pl" v="Stambuł"/>
    <tag k="is_in" v="Turkey"/>
    <tag k="name" v="İstanbul"/>
    <tag k="name:cs" v="Istanbul"/>
    <tag k="name:de" v="Istanbul"/>
    <tag k="name:el" v="Κωνσταντινούπολη"/>
    <tag k="name:en" v="Istanbul"/>
    <tag k="name:es" v="Estambul"/>
    <tag k="name:he" v="איסטנבול"/>
    <tag k="name:pl" v="Istambuł"/>
    <tag k="name:sk" v="Istanbul"/>
    <tag k="place" v="city"/>
    <tag k="salb:id" v="TUR041"/>
    <tag k="salb:name" v="Istanbul"/>
    <tag k="source" v="Wikipedia (tr)"/>
    <tag k="watch:hakan" v="turkey-iller"/>
    <tag k="wikipedia" v="Κωνσταντινούπολη"/>
  </node>
  <node id="428039502" version="9" timestamp="2010-01-17T19:21:16Z" uid="110958" user="NikDiGrik" changeset="3644707" lat="41.0279802" lon="28.9750522">
    <tag k="alt_name:pl" v="Stambuł"/>
    <tag k="is_in" v="Turkey"/>
    <tag k="name" v="İstanbul"/>
    <tag k="name:cs" v="Istanbul"/>
    <tag k="name:de" v="Istanbul"/>
    <tag k="name:el" v="Κωνσταντινούπολη"/>
    <tag k="name:en" v="Istanbul"/>
    <tag k="name:es" v="Estambul"/>
    <tag k="name:he" v="איסטנבול"/>
    <tag k="name:pl" v="Istambuł"/>
    <tag k="name:sk" v="Istanbul"/>
    <tag k="place" v="city"/>
    <tag k="salb:id" v="TUR041"/>
    <tag k="salb:name" v="Istanbul"/>
    <tag k="source" v="Wikipedia (tr)"/>
    <tag k="watch:hakan" v="turkey-iller"/>
    <tag k="wikipedia" v="Istanbul"/>
  </node>
  <node id="428039502" version="10" timestamp="2010-01-20T16:40:24Z" uid="173548" user="poudro" changeset="3668177" lat="41.0279802" lon="28.9750522">
    <tag k="alt_name:pl" v="Stambuł"/>
    <tag k="is_in" v="Turkey"/>
    <tag k="name" v="İstanbul"/>
    <tag k="name:cs" v="Istanbul"/>
    <tag k="name:de" v="Istanbul"/>
    <tag k="name:el" v="Κωνσταντινούπολη"/>
    <tag k="name:en" v="Istanbul"/>
    <tag k="name:es" v="Estambul"/>
    <tag k="name:he" v="איסטנבול"/>
    <tag k="name:pl" v="Istambuł"/>
    <tag k="name:sk" v="Istanbul"/>
    <tag k="place" v="city"/>
    <tag k="population" v="12697164"/>
    <tag k="salb:id" v="TUR041"/>
    <tag k="salb:name" v="Istanbul"/>
    <tag k="watch:hakan" v="turkey-iller"/>
    <tag k="wikipedia" v="Istanbul"/>
  </node>
  <node id="428039502" version="11" timestamp="2010-01-27T22:22:52Z" uid="220190" user="enver" changeset="3732079" lat="41.0279802" lon="28.9750523">
    <tag k="alt_name:pl" v="Stambuł"/>
    <tag k="is_in" v="Turkey"/>
    <tag k="name" v="İstanbul"/>
    <tag k="name:cs" v="Istanbul"/>
    <tag k="name:de" v="Istanbul"/>
    <tag k="name:el" v="Κωνσταντινούπολη"/>
    <tag k="name:en" v="Istanbul"/>
    <tag k="name:es" v="Estambul"/>
    <tag k="name:he" v="איסטנבול"/>
    <tag k="name:pl" v="Istambuł"/>
    <tag k="name:sk" v="Istanbul"/>
    <tag k="place" v="city"/>
    <tag k="population" v="12697164"/>
    <tag k="salb:id" v="TUR041"/>
    <tag k="salb:name" v="Istanbul"/>
    <tag k="watch:hakan" v="turkey-iller"/>
    <tag k="wikipedia" v="Istanbul"/>
  </node>
  <node id="428039502" version="12" timestamp="2010-03-08T12:09:48Z" uid="221997" user="EuskalMapa" changeset="4071140" lat="41.0279802" lon="28.9750523">
    <tag k="alt_name:pl" v="Stambuł"/>
    <tag k="is_in" v="Turkey"/>
    <tag k="name" v="İstanbul"/>
    <tag k="name:cs" v="Istanbul"/>
    <tag k="name:de" v="Istanbul"/>
    <tag k="name:el" v="Κωνσταντινούπολη"/>
    <tag k="name:en" v="Istanbul"/>
    <tag k="name:es" v="Estambul"/>
    <tag k="name:eu" v="Istanbul"/>
    <tag k="name:he" v="איסטנבול"/>
    <tag k="name:pl" v="Istambuł"/>
    <tag k="name:sk" v="Istanbul"/>
    <tag k="place" v="city"/>
    <tag k="population" v="12697164"/>
    <tag k="salb:id" v="TUR041"/>
    <tag k="salb:name" v="Istanbul"/>
    <tag k="watch:hakan" v="turkey-iller"/>
    <tag k="wikipedia" v="Istanbul"/>
  </node>
  <node id="428039502" version="13" timestamp="2010-04-11T06:14:50Z" uid="166445" user="GranD" changeset="4389406" lat="41.0279802" lon="28.9750523">
    <tag k="alt_name:pl" v="Stambuł"/>
    <tag k="is_in" v="Turkey"/>
    <tag k="name" v="İstanbul"/>
    <tag k="name:cs" v="Istanbul"/>
    <tag k="name:de" v="Istanbul"/>
    <tag k="name:el" v="Κωνσταντινούπολη"/>
    <tag k="name:en" v="Istanbul"/>
    <tag k="name:es" v="Estambul"/>
    <tag k="name:eu" v="Istanbul"/>
    <tag k="name:he" v="איסטנבול"/>
    <tag k="name:pl" v="Istambuł"/>
    <tag k="name:ru" v="Стамбул"/>
    <tag k="name:sk" v="Istanbul"/>
    <tag k="place" v="city"/>
    <tag k="population" v="12697164"/>
    <tag k="salb:id" v="TUR041"/>
    <tag k="salb:name" v="Istanbul"/>
    <tag k="watch:hakan" v="turkey-iller"/>
    <tag k="wikipedia" v="Istanbul"/>
  </node>
  <node id="428039502" version="14" timestamp="2010-08-08T17:57:14Z" uid="207745" user="NE2" changeset="5435557" lat="41.0279802" lon="28.9750523">
    <tag k="alt_name:pl" v="Stambuł"/>
    <tag k="is_in" v="Turkey"/>
    <tag k="name" v="İstanbul"/>
    <tag k="name:cs" v="Istanbul"/>
    <tag k="name:de" v="Istanbul"/>
    <tag k="name:el" v="Κωνσταντινούπολη"/>
    <tag k="name:en" v="Istanbul"/>
    <tag k="name:es" v="Estambul"/>
    <tag k="name:eu" v="Istanbul"/>
    <tag k="name:he" v="איסטנבול"/>
    <tag k="name:pl" v="Istambuł"/>
    <tag k="name:ru" v="Стамбул"/>
    <tag k="name:sk" v="Istanbul"/>
    <tag k="place" v="city"/>
    <tag k="population" v="12697164"/>
    <tag k="salb:id" v="TUR041"/>
    <tag k="salb:name" v="Istanbul"/>
    <tag k="wikipedia" v="Istanbul"/>
  </node>
  <node id="428039502" version="15" timestamp="2010-10-06T13:00:19Z" uid="355347" user="kcsaba" changeset="5968951" lat="41.0279801" lon="28.9750523">
    <tag k="alt_name:pl" v="Stambuł"/>
    <tag k="is_in" v="Turkey"/>
    <tag k="name" v="İstanbul"/>
    <tag k="name:cs" v="Istanbul"/>
    <tag k="name:de" v="Istanbul"/>
    <tag k="name:el" v="Κωνσταντινούπολη"/>
    <tag k="name:en" v="Istanbul"/>
    <tag k="name:es" v="Estambul"/>
    <tag k="name:eu" v="Istanbul"/>
    <tag k="name:he" v="איסטנבול"/>
    <tag k="name:hu" v="Konstantinápoly"/>
    <tag k="name:pl" v="Istambuł"/>
    <tag k="name:ru" v="Стамбул"/>
    <tag k="name:sk" v="Istanbul"/>
    <tag k="place" v="city"/>
    <tag k="population" v="12697164"/>
    <tag k="salb:id" v="TUR041"/>
    <tag k="salb:name" v="Istanbul"/>
    <tag k="wikipedia" v="Istanbul"/>
  </node>
  <node id="428039502" version="16" timestamp="2010-10-07T07:49:26Z" uid="355347" user="kcsaba" changeset="5975821" lat="41.0279801" lon="28.9750523">
    <tag k="alt_name:pl" v="Stambuł"/>
    <tag k="is_in" v="Turkey"/>
    <tag k="name" v="İstanbul"/>
    <tag k="name:cs" v="Istanbul"/>
    <tag k="name:de" v="Istanbul"/>
    <tag k="name:el" v="Κωνσταντινούπολη"/>
    <tag k="name:en" v="Istanbul"/>
    <tag k="name:es" v="Estambul"/>
    <tag k="name:eu" v="Istanbul"/>
    <tag k="name:he" v="איסטנבול"/>
    <tag k="name:pl" v="Istambuł"/>
    <tag k="name:ru" v="Стамбул"/>
    <tag k="name:sk" v="Istanbul"/>
    <tag k="place" v="city"/>
    <tag k="population" v="12697164"/>
    <tag k="salb:id" v="TUR041"/>
    <tag k="salb:name" v="Istanbul"/>
    <tag k="wikipedia" v="Istanbul"/>
  </node>
  <node id="428039502" version="17" timestamp="2010-10-07T07:50:01Z" uid="355347" user="kcsaba" changeset="5975821" lat="41.0279801" lon="28.9750523">
    <tag k="alt_name:pl" v="Stambuł"/>
    <tag k="is_in" v="Turkey"/>
    <tag k="name" v="İstanbul"/>
    <tag k="name:cs" v="Istanbul"/>
    <tag k="name:de" v="Istanbul"/>
    <tag k="name:el" v="Κωνσταντινούπολη"/>
    <tag k="name:en" v="Istanbul"/>
    <tag k="name:es" v="Estambul"/>
    <tag k="name:eu" v="Istanbul"/>
    <tag k="name:he" v="איסטנבול"/>
    <tag k="name:hu" v="Isztambul"/>
    <tag k="name:pl" v="Istambuł"/>
    <tag k="name:ru" v="Стамбул"/>
    <tag k="name:sk" v="Istanbul"/>
    <tag k="place" v="city"/>
    <tag k="population" v="12697164"/>
    <tag k="salb:id" v="TUR041"/>
    <tag k="salb:name" v="Istanbul"/>
    <tag k="wikipedia" v="Istanbul"/>
  </node>
  <node id="428039502" version="18" timestamp="2011-02-02T10:14:47Z" uid="393666" user="etrumap" changeset="7163103" lat="41.0279801" lon="28.9750523">
    <tag k="alt_name:pl" v="Stambuł"/>
    <tag k="is_in" v="Turkey"/>
    <tag k="name" v="İstanbul"/>
    <tag k="name:cs" v="Istanbul"/>
    <tag k="name:de" v="Istanbul"/>
    <tag k="name:el" v="Κωνσταντινούπολη"/>
    <tag k="name:en" v="Istanbul"/>
    <tag k="name:es" v="Estambul"/>
    <tag k="name:eu" v="Istanbul"/>
    <tag k="name:he" v="איסטנבול"/>
    <tag k="name:hu" v="Isztambul"/>
    <tag k="name:pl" v="Istambuł"/>
    <tag k="name:ru" v="Стамбул"/>
    <tag k="name:sk" v="Istanbul"/>
    <tag k="place" v="city"/>
    <tag k="population" v="12697164"/>
    <tag k="rank" v="0"/>
    <tag k="salb:id" v="TUR041"/>
    <tag k="salb:name" v="Istanbul"/>
    <tag k="wikipedia" v="Istanbul"/>
  </node>
  <node id="428039502" version="19" timestamp="2011-02-07T12:14:50Z" uid="348674" user="Cabeleira" changeset="7215282" lat="41.0279801" lon="28.9750523">
    <tag k="alt_name:pl" v="Stambuł"/>
    <tag k="alt_name:uk" v="Константинополь"/>
    <tag k="is_in" v="Turkey"/>
    <tag k="name" v="İstanbul"/>
    <tag k="name:cs" v="Istanbul"/>
    <tag k="name:de" v="Istanbul"/>
    <tag k="name:el" v="Κωνσταντινούπολη"/>
    <tag k="name:en" v="Istanbul"/>
    <tag k="name:es" v="Estambul"/>
    <tag k="name:eu" v="Istanbul"/>
    <tag k="name:he" v="איסטנבול"/>
    <tag k="name:hu" v="Isztambul"/>
    <tag k="name:pl" v="Istambuł"/>
    <tag k="name:ru" v="Стамбул"/>
    <tag k="name:sk" v="Istanbul"/>
    <tag k="name:uk" v="Стамбул"/>
    <tag k="old_name:uk" v="Царгород"/>
    <tag k="place" v="city"/>
    <tag k="population" v="12697164"/>
    <tag k="rank" v="0"/>
    <tag k="salb:id" v="TUR041"/>
    <tag k="salb:name" v="Istanbul"/>
    <tag k="wikipedia" v="Istanbul"/>
    <tag k="wikipedia:uk" v="Стамбул"/>
  </node>
  <node id="428039502" version="20" timestamp="2011-05-11T12:51:23Z" uid="332493" user="bazgal" changeset="8111949" lat="41.0279801" lon="28.9750523">
    <tag k="alt_name:pl" v="Stambuł"/>
    <tag k="alt_name:uk" v="Константинополь"/>
    <tag k="is_in" v="Turkey"/>
    <tag k="name" v="İstanbul"/>
    <tag k="name:cs" v="Istanbul"/>
    <tag k="name:de" v="Istanbul"/>
    <tag k="name:el" v="Κωνσταντινούπολη"/>
    <tag k="name:en" v="Istanbul"/>
    <tag k="name:es" v="Estambul"/>
    <tag k="name:eu" v="Istanbul"/>
    <tag k="name:fr" v="Istanbul"/>
    <tag k="name:he" v="איסטנבול"/>
    <tag k="name:hu" v="Isztambul"/>
    <tag k="name:pl" v="Istambuł"/>
    <tag k="name:ru" v="Стамбул"/>
    <tag k="name:sk" v="Istanbul"/>
    <tag k="name:uk" v="Стамбул"/>
    <tag k="old_name:uk" v="Царгород"/>
    <tag k="place" v="city"/>
    <tag k="population" v="12697164"/>
    <tag k="rank" v="0"/>
    <tag k="salb:id" v="TUR041"/>
    <tag k="salb:name" v="Istanbul"/>
    <tag k="wikipedia" v="Istanbul"/>
    <tag k="wikipedia:uk" v="Стамбул"/>
  </node>
  <node id="428039502" version="21" timestamp="2011-05-15T13:42:53Z" uid="93026" user="mpele" changeset="8151990" lat="41.0279801" lon="28.9750523">
    <tag k="alt_name:pl" v="Stambuł"/>
    <tag k="alt_name:uk" v="Константинополь"/>
    <tag k="is_in" v="Turkey"/>
    <tag k="name" v="İstanbul"/>
    <tag k="name:cs" v="Istanbul"/>
    <tag k="name:de" v="Istanbul"/>
    <tag k="name:el" v="Κωνσταντινούπολη"/>
    <tag k="name:en" v="Istanbul"/>
    <tag k="name:es" v="Estambul"/>
    <tag k="name:eu" v="Istanbul"/>
    <tag k="name:fr" v="Istanbul"/>
    <tag k="name:he" v="איסטנבול"/>
    <tag k="name:hu" v="Isztambul"/>
    <tag k="name:pl" v="Istambuł"/>
    <tag k="name:ru" v="Стамбул"/>
    <tag k="name:sk" v="Istanbul"/>
    <tag k="name:sr" v="Истанбул"/>
    <tag k="name:uk" v="Стамбул"/>
    <tag k="old_name:uk" v="Царгород"/>
    <tag k="place" v="city"/>
    <tag k="population" v="12697164"/>
    <tag k="rank" v="0"/>
    <tag k="salb:id" v="TUR041"/>
    <tag k="salb:name" v="Istanbul"/>
    <tag k="wikipedia" v="Istanbul"/>
    <tag k="wikipedia:uk" v="Стамбул"/>
  </node>
  <node id="428039502" version="22" timestamp="2012-01-28T17:13:36Z" uid="525234" user="MasiMaster" changeset="10522899" lat="41.0279801" lon="28.9750523">
    <tag k="alt_name:pl" v="Stambuł"/>
    <tag k="alt_name:uk" v="Константинополь"/>
    <tag k="is_in" v="Turkey"/>
    <tag k="name" v="İstanbul"/>
    <tag k="name:cs" v="Istanbul"/>
    <tag k="name:de" v="Istanbul"/>
    <tag k="name:el" v="Κωνσταντινούπολη"/>
    <tag k="name:en" v="Istanbul"/>
    <tag k="name:es" v="Estambul"/>
    <tag k="name:eu" v="Istanbul"/>
    <tag k="name:fr" v="Istanbul"/>
    <tag k="name:he" v="איסטנבול"/>
    <tag k="name:hu" v="Isztambul"/>
    <tag k="name:pl" v="Istambuł"/>
    <tag k="name:ru" v="Стамбул"/>
    <tag k="name:sk" v="Istanbul"/>
    <tag k="name:sr" v="Истанбул"/>
    <tag k="name:uk" v="Стамбул"/>
    <tag k="old_name:de" v="Byzantion;Byzanz;Neues Rom;Konstantinopel"/>
    <tag k="old_name:la" v="Nova Roma;Constantinopolis"/>
    <tag k="old_name:uk" v="Царгород"/>
    <tag k="place" v="city"/>
    <tag k="population" v="12697164"/>
    <tag k="rank" v="0"/>
    <tag k="salb:id" v="TUR041"/>
    <tag k="salb:name" v="Istanbul"/>
    <tag k="wikipedia" v="Istanbul"/>
    <tag k="wikipedia:uk" v="Стамбул"/>
  </node>
  <node id="428039502" version="23" timestamp="2012-02-28T13:55:42Z" uid="611778" user="Zuhal" changeset="10818736" lat="41.0279801" lon="28.9750523"/>
</osm>
