<?xml version='1.0' encoding='UTF-8'?>
<osm version="0.6" generator="libosmium/2.20.0">
  <node id="428339442" version="2" timestamp="2009-07-26T01:48:36Z" uid="123700" user="Mala" changeset="1939972" lat="51.2212107" lon="4.3997116">
    <tag k="is_in" v="Belgium, Europe"/>
    <tag k="is_in:continent" v="Europe"/>
    <tag k="name" v="Antwerpen"/>
    <tag k="name:cs" v="Antverpy"/>
    <tag k="name:de" v="Antwerpen"/>
    <tag k="name:en" v="Antwerp"/>
    <tag k="name:es" v="Amberes"/>
    <tag k="name:fr" v="Anvers"/>
    <tag k="name:he" v="אנטוורפן"/>
    <tag k="name:it" v="Anversa"/>
    <tag k="name:pl" v="Antwerpia"/>
    <tag k="name:pt" v="Antuérpia"/>
    <tag k="openGeoDB:auto_update" v="population"/>
    <tag k="openGeoDB:is_in" v="Antwerpen,Antwerpen,Antwerpen,Antwerpen,Antwerpen,Antwerpen,Vlaanderen,Vlaanderen,Belgique,Belgique,Europe"/>
    <tag k="openGeoDB:is_in_loc_id" v="35166"/>
    <tag k="openGeoDB:layer" v="7"/>
    <tag k="openGeoDB:loc_id" v="32446"/>
    <tag k="openGeoDB:name" v="Antwerpen,Antwerpen"/>
    <tag k="openGeoDB:postal_codes" v="2000,2018,2020,2030,2040,2050,2060"/>
    <tag k="openGeoDB:sort_name" v="ANTWERPEN"/>
    <tag k="openGeoDB:type" v="100600000"/>
    <tag k="openGeoDB:version" v="0.2.6.11 / 2007-12-04 / http://fa-technik.adfc.de/code/opengeodb/dump/"/>
    <tag k="opengeodb:lat" v="51.2212093"/>
    <tag k="opengeodb:lon" v="4.3997183"/>
    <tag k="place" v="city"/>
    <tag k="wikipedia" v="Antwerp"/>
  </node>
  <node id="428339442" version="3" timestamp="2009-11-17T16:41:33Z" uid="29717" user="eumiro" changeset="3142565" lat="51.2212107" lon="4.3997116">
    <tag k="is_in" v="Belgium, Europe"/>
    <tag k="is_in:continent" v="Europe"/>
    <tag k="name" v="Antwerpen"/>
    <tag k="name:cs" v="Antverpy"/>
    <tag k="name:de" v="Antwerpen"/>
    <tag k="name:en" v="Antwerp"/>
    <tag k="name:es" v="Amberes"/>
    <tag k="name:fr" v="Anvers"/>
    <tag k="name:he" v="אנטוורפן"/>
    <tag k="name:it" v="Anversa"/>
    <tag k="name:pl" v="Antwerpia"/>
    <tag k="name:pt" v="Antuérpia"/>
    <tag k="name:sk" v="Antverpy"/>
    <tag k="openGeoDB:auto_update" v="population"/>
    <tag k="openGeoDB:is_in" v="Antwerpen,Antwerpen,Antwerpen,Antwerpen,Antwerpen,Antwerpen,Vlaanderen,Vlaanderen,Belgique,Belgique,Europe"/>
    <tag k="openGeoDB:is_in_loc_id" v="35166"/>
    <tag k="openGeoDB:layer" v="7"/>
    <tag k="openGeoDB:loc_id" v="32446"/>
    <tag k="openGeoDB:name" v="Antwerpen,Antwerpen"/>
    <tag k="openGeoDB:postal_codes" v="2000,2018,2020,2030,2040,2050,2060"/>
    <tag k="openGeoDB:sort_name" v="ANTWERPEN"/>
    <tag k="openGeoDB:type" v="100600000"/>
    <tag k="openGeoDB:version" v="0.2.6.11 / 2007-12-04 / http://fa-technik.adfc.de/code/opengeodb/dump/"/>
    <tag k="opengeodb:lat" v="51.2212093"/>
    <tag k="opengeodb:lon" v="4.3997183"/>
    <tag k="place" v="city"/>
    <tag k="wikipedia" v="Antwerp"/>
  </node>
  <node id="428339442" version="4" timestamp="2009-11-27T08:21:58Z" uid="166445" user="GranD" changeset="3226106" lat="51.2212108" lon="4.3997115">
    <tag k="is_in" v="Belgium, Europe"/>
    <tag k="is_in:continent" v="Europe"/>
    <tag k="name" v="Antwerpen"/>
    <tag k="name:cs" v="Antverpy"/>
    <tag k="name:de" v="Antwerpen"/>
    <tag k="name:en" v="Antwerp"/>
    <tag k="name:es" v="Amberes"/>
    <tag k="name:fr" v="Anvers"/>
    <tag k="name:he" v="אנטוורפן"/>
    <tag k="name:it" v="Anversa"/>
    <tag k="name:pl" v="Antwerpia"/>
    <tag k="name:pt" v="Antuérpia"/>
    <tag k="name:ru" v="Антверпен"/>
    <tag k="name:sk" v="Antverpy"/>
    <tag k="openGeoDB:auto_update" v="population"/>
    <tag k="openGeoDB:is_in" v="Antwerpen,Antwerpen,Antwerpen,Antwerpen,Antwerpen,Antwerpen,Vlaanderen,Vlaanderen,Belgique,Belgique,Europe"/>
    <tag k="openGeoDB:is_in_loc_id" v="35166"/>
    <tag k="openGeoDB:layer" v="7"/>
    <tag k="openGeoDB:loc_id" v="32446"/>
    <tag k="openGeoDB:name" v="Antwerpen,Antwerpen"/>
    <tag k="openGeoDB:postal_codes" v="2000,2018,2020,2030,2040,2050,2060"/>
    <tag k="openGeoDB:sort_name" v="ANTWERPEN"/>
    <tag k="openGeoDB:type" v="100600000"/>
    <tag k="openGeoDB:version" v="0.2.6.11 / 2007-12-04 / http://fa-technik.adfc.de/code/opengeodb/dump/"/>
    <tag k="opengeodb:lat" v="51.2212093"/>
    <tag k="opengeodb:lon" v="4.3997183"/>
    <tag k="place" v="city"/>
    <tag k="wikipedia" v="Antwerp"/>
  </node>
  <node id="428339442" version="5" timestamp="2010-05-09T07:26:11Z" uid="42033" user="Tbj" changeset="4645178" lat="51.2212108" lon="4.3997115">
    <tag k="is_in" v="Belgium, Europe"/>
    <tag k="is_in:continent" v="Europe"/>
    <tag k="name" v="Antwerpen"/>
    <tag k="name:cs" v="Antverpy"/>
    <tag k="name:de" v="Antwerpen"/>
    <tag k="name:en" v="Antwerp"/>
    <tag k="name:es" v="Amberes"/>
    <tag k="name:fr" v="Anvers"/>
    <tag k="name:he" v="אנטוורפן"/>
    <tag k="name:it" v="Anversa"/>
    <tag k="name:pl" v="Antwerpia"/>
    <tag k="name:pt" v="Antuérpia"/>
    <tag k="name:ru" v="Антверпен"/>
    <tag k="name:sk" v="Antverpy"/>
    <tag k="openGeoDB:auto_update" v="population"/>
    <tag k="openGeoDB:is_in" v="Antwerpen,Antwerpen,Antwerpen,Antwerpen,Antwerpen,Antwerpen,Vlaanderen,Vlaanderen,Belgique,Belgique,Europe"/>
    <tag k="openGeoDB:is_in_loc_id" v="35166"/>
    <tag k="openGeoDB:layer" v="7"/>
    <tag k="openGeoDB:loc_id" v="32446"/>
    <tag k="openGeoDB:name" v="Antwerpen,Antwerpen"/>
    <tag k="openGeoDB:postal_codes" v="2000,2018,2020,2030,2040,2050,2060"/>
    <tag k="openGeoDB:sort_name" v="ANTWERPEN"/>
    <tag k="openGeoDB:type" v="100600000"/>
    <tag k="openGeoDB:version" v="0.2.6.11 / 2007-12-04 / http://fa-technik.adfc.de/code/opengeodb/dump/"/>
    <tag k="opengeodb:lat" v="51.2212093"/>
    <tag k="opengeodb:lon" v="4.3997183"/>
    <tag k="place" v="city"/>
    <tag k="population" v="472000"/>
    <tag k="wikipedia" v="Antwerp"/>
  </node>
  <node id="428339442" version="6" timestamp="2010-06-22T10:41:44Z" uid="51045" user="Geogast" changeset="5050061" lat="51.2212108" lon="4.3997115">
    <tag k="alt_name:es" v="Antuerpia"/>
    <tag k="is_in" v="Belgium, Europe"/>
    <tag k="is_in:continent" v="Europe"/>
    <tag k="name" v="Antwerpen"/>
    <tag k="name:cs" v="Antverpy"/>
    <tag k="name:de" v="Antwerpen"/>
    <tag k="name:en" v="Antwerp"/>
    <tag k="name:es" v="Amberes"/>
    <tag k="name:fr" v="Anvers"/>
    <tag k="name:he" v="אנטוורפן"/>
    <tag k="name:it" v="Anversa"/>
    <tag k="name:pl" v="Antwerpia"/>
    <tag k="name:pt" v="Antuérpia"/>
    <tag k="name:ru" v="Антверпен"/>
    <tag k="name:sk" v="Antverpy"/>
    <tag k="openGeoDB:auto_update" v="population"/>
    <tag k="openGeoDB:is_in" v="Antwerpen,Antwerpen,Antwerpen,Antwerpen,Antwerpen,Antwerpen,Vlaanderen,Vlaanderen,Belgique,Belgique,Europe"/>
    <tag k="openGeoDB:is_in_loc_id" v="35166"/>
    <tag k="openGeoDB:layer" v="7"/>
    <tag k="openGeoDB:loc_id" v="32446"/>
    <tag k="openGeoDB:name" v="Antwerpen,Antwerpen"/>
    <tag k="openGeoDB:postal_codes" v="2000,2018,2020,2030,2040,2050,2060"/>
    <tag k="openGeoDB:sort_name" v="ANTWERPEN"/>
    <tag k="openGeoDB:type" v="100600000"/>
    <tag k="openGeoDB:version" v="0.2.6.11 / 2007-12-04 / http://fa-technik.adfc.de/code/opengeodb/dump/"/>
    <tag k="opengeodb:lat" v="51.2212093"/>
    <tag k="opengeodb:lon" v="4.3997183"/>
    <tag k="place" v="city"/>
    <tag k="population" v="472000"/>
    <tag k="wikipedia" v="Antwerp"/>
  </node>
  <node id="428339442" version="7" timestamp="2010-06-27T08:41:23Z" uid="10752" user="Filip" changeset="5087417" lat="51.221038" lon="4.3998188">
    <tag k="alt_name:es" v="Antuerpia"/>
    <tag k="is_in" v="Belgium, Europe"/>
    <tag k="is_in:continent" v="Europe"/>
    <tag k="name" v="Antwerpen"/>
    <tag k="name:cs" v="Antverpy"/>
    <tag k="name:de" v="Antwerpen"/>
    <tag k="name:en" v="Antwerp"/>
    <tag k="name:es" v="Amberes"/>
    <tag k="name:fr" v="Anvers"/>
    <tag k="name:he" v="אנטוורפן"/>
    <tag k="name:it" v="Anversa"/>
    <tag k="name:pl" v="Antwerpia"/>
    <tag k="name:pt" v="Antuérpia"/>
    <tag k="name:ru" v="Антверпен"/>
    <tag k="name:sk" v="Antverpy"/>
    <tag k="openGeoDB:auto_update" v="population"/>
    <tag k="openGeoDB:is_in" v="Antwerpen,Antwerpen,Antwerpen,Antwerpen,Antwerpen,Antwerpen,Vlaanderen,Vlaanderen,Belgique,Belgique,Europe"/>
    <tag k="openGeoDB:is_in_loc_id" v="35166"/>
    <tag k="openGeoDB:layer" v="7"/>
    <tag k="openGeoDB:loc_id" v="32446"/>
    <tag k="openGeoDB:name" v="Antwerpen,Antwerpen"/>
    <tag k="openGeoDB:postal_codes" v="2000,2018,2020,2030,2040,2050,2060"/>
    <tag k="openGeoDB:sort_name" v="ANTWERPEN"/>
    <tag k="openGeoDB:type" v="100600000"/>
    <tag k="openGeoDB:version" v="0.2.6.11 / 2007-12-04 / http://fa-technik.adfc.de/code/opengeodb/dump/"/>
    <tag k="opengeodb:lat" v="51.2212093"/>
    <tag k="opengeodb:lon" v="4.3997183"/>
    <tag k="place" v="city"/>
    <tag k="population" v="472000"/>
    <tag k="wikipedia" v="Antwerp"/>
  </node>
  <node id="428339442" version="8" timestamp="2011-10-01T20:33:27Z" uid="212207" user="SunCobalt" changeset="9445807" lat="51.221038" lon="4.3998188">
    <tag k="alt_name:es" v="Antuerpia"/>
    <tag k="is_in" v="Belgium, Europe"/>
    <tag k="is_in:continent" v="Europe"/>
    <tag k="name" v="Antwerpen"/>
    <tag k="name:cs" v="Antverpy"/>
    <tag k="name:de" v="Antwerpen"/>
    <tag k="name:en" v="Antwerp"/>
    <tag k="name:es" v="Amberes"/>
    <tag k="name:fr" v="Anvers"/>
    <tag k="name:he" v="אנטוורפן"/>
    <tag k="name:it" v="Anversa"/>
    <tag k="name:pl" v="Antwerpia"/>
    <tag k="name:pt" v="Antuérpia"/>
    <tag k="name:ru" v="Антверпен"/>
    <tag k="name:sk" v="Antverpy"/>
    <tag k="name:sr" v="Антверпен"/>
    <tag k="openGeoDB:auto_update" v="population"/>
    <tag k="openGeoDB:is_in" v="Antwerpen,Antwerpen,Antwerpen,Antwerpen,Antwerpen,Antwerpen,Vlaanderen,Vlaanderen,Belgique,Belgique,Europe"/>
    <tag k="openGeoDB:is_in_loc_id" v="35166"/>
    <tag k="openGeoDB:layer" v="7"/>
    <tag k="openGeoDB:loc_id" v="32446"/>
    <tag k="openGeoDB:name" v="Antwerpen,Antwerpen"/>
    <tag k="openGeoDB:postal_codes" v="2000,2018,2020,2030,2040,2050,2060"/>
    <tag k="openGeoDB:sort_name" v="ANTWERPEN"/>
    <tag k="openGeoDB:type" v="100600000"/>
    <tag k="openGeoDB:version" v="0.2.6.11 / 2007-12-04 / http://fa-technik.adfc.de/code/opengeodb/dump/"/>
    <tag k="opengeodb:lat" v="51.2212093"/>
    <tag k="opengeodb:lon" v="4.3997183"/>
    <tag k="place" v="city"/>
    <tag k="population" v="472000"/>
    <tag k="wikipedia" v="Antwerp"/>
  </node>
  <node id="428339442" version="9" timestamp="2012-02-17T16:41:09Z" uid="6072" user="Eimai" changeset="10712827" lat="51.221038" lon="4.3998188"/>
  <node id="428339482" version="2" timestamp="2009-07-22T18:42:38Z" uid="20587" user="balrog-kun" changeset="1907934" lat="45.4666211" lon="9.1906166">
    <tag k="created_by" v="Potlatch 0.10f"/>
    <tag k="gfoss_id" v="1844"/>
    <tag k="is_in" v="Milano, Lombardia, Italy"/>
    <tag k="is_in:continent" v="Europe"/>
    <tag k="loc_name" v="Milán"/>
    <tag k="name" v="Milano"/>
    <tag k="name:de" v="Mailand"/>
    <tag k="name:en" v="Milan"/>
    <tag k="name:es" v="Milán"/>
    <tag k="name:fi" v="Milano"/>
    <tag k="name:fr" v="Milan"/>
    <tag k="name:he" v="מילנו"/>
    <tag k="name:hu" v="Milánó"/>
    <tag k="name:it" v="Milano"/>
    <tag k="name:nl" v="Milaan"/>
    <tag k="name:pl" v="Mediolan"/>
    <tag k="name:pt" v="Milão"/>
    <tag k="name:ru" v="Милан"/>
    <tag k="name:za" v="Milaan"/>
    <tag k="place" v="city"/>
    <tag k="population" v="1256211"/>
    <tag k="source" v="geodati.gfoss.it"/>
  </node>
  <node id="428339486" version="2" timestamp="2009-07-22T18:42:39Z" uid="20587" user="balrog-kun" changeset="1907934" lat="45.4386705" lon="12.329098">
    <tag k="created_by" v="Potlatch 0.10f"/>
    <tag k="gfoss_id" v="3515"/>
    <tag k="is_in" v="Venezia, Veneto, Italy"/>
    <tag k="is_in:continent" v="Europe"/>
    <tag k="name" v="Venezia"/>
    <tag k="name:cy" v="Fenis"/>
    <tag k="name:de" v="Venedig"/>
    <tag k="name:en" v="Venice"/>
    <tag k="name:fi" v="Venetsia"/>
    <tag k="name:he" v="ונציה"/>
    <tag k="name:hu" v="Velence"/>
    <tag k="name:sl" v="Benetke"/>
    <tag k="place" v="city"/>
    <tag k="population" v="271073"/>
    <tag k="source" v="geodati.gfoss.it"/>
  </node>
  <node id="428339512" version="2" timestamp="2009-07-23T00:20:34Z" uid="20587" user="balrog-kun" changeset="1910333" lat="42.6973015" lon="23.3199889">
    <tag k="admin_level" v="2"/>
    <tag k="capital" v="yes"/>
    <tag k="int_name" v="Sofia"/>
    <tag k="is_in" v="Bulgaria, EU"/>
    <tag k="is_in:continent" v="Europe"/>
    <tag k="name" v="София"/>
    <tag k="name:bs" v="Sofija"/>
    <tag k="name:cs" v="Sofie"/>
    <tag k="name:de" v="Sofia"/>
    <tag k="name:en" v="Sofia"/>
    <tag k="name:es" v="Sofía"/>
    <tag k="name:he" v="סופיה"/>
    <tag k="name:hr" v="Sofija"/>
    <tag k="name:hu" v="Szófia"/>
    <tag k="name:is" v="Sófía"/>
    <tag k="name:la" v="Serdica"/>
    <tag k="name:lt" v="Sofija"/>
    <tag k="name:lv" v="Sofija"/>
    <tag k="name:pt" v="Sófia"/>
    <tag k="name:sl" v="Sofija"/>
    <tag k="name:tr" v="Sofya"/>
    <tag k="place" v="city"/>
    <tag k="population" v="1397000"/>
  </node>
  <node id="428339513" version="4" timestamp="2009-07-24T01:37:55Z" uid="20587" user="balrog-kun" changeset="1920743" lat="49.9901076" lon="36.2302804">
    <tag k="int_name" v="Kharkov"/>
    <tag k="is_in" v="Kharkov Oblast, Ukraine, Europe"/>
    <tag k="name" v="Харків"/>
    <tag k="name:de" v="Charkow"/>
    <tag k="name:en" v="Kharkiv"/>
    <tag k="name:he" v="קרקוב"/>
    <tag k="name:pl" v="Charków"/>
    <tag k="name:ru" v="Харьков"/>
    <tag k="place" v="city"/>
    <tag k="population" v="1461000"/>
    <tag k="wikipedia" v="Kharkiv"/>
  </node>
  <node id="428339513" version="5" timestamp="2009-11-17T16:43:44Z" uid="29717" user="eumiro" changeset="3142565" lat="49.9901076" lon="36.2302804">
    <tag k="int_name" v="Kharkov"/>
    <tag k="is_in" v="Kharkov Oblast, Ukraine, Europe"/>
    <tag k="name" v="Харків"/>
    <tag k="name:de" v="Charkow"/>
    <tag k="name:en" v="Kharkiv"/>
    <tag k="name:he" v="קרקוב"/>
    <tag k="name:pl" v="Charków"/>
    <tag k="name:ru" v="Харьков"/>
    <tag k="name:sk" v="Charkov"/>
    <tag k="place" v="city"/>
    <tag k="population" v="1461000"/>
    <tag k="wikipedia" v="Kharkiv"/>
  </node>
  <node id="428339513" version="6" timestamp="2010-03-08T13:27:51Z" uid="221997" user="EuskalMapa" changeset="4071808" lat="49.9901076" lon="36.2302804">
    <tag k="int_name" v="Kharkov"/>
    <tag k="is_in" v="Kharkov Oblast, Ukraine, Europe"/>
    <tag k="name" v="Харків"/>
    <tag k="name:de" v="Charkow"/>
    <tag k="name:en" v="Kharkiv"/>
    <tag k="name:eu" v="Kharkiv"/>
    <tag k="name:he" v="קרקוב"/>
    <tag k="name:pl" v="Charków"/>
    <tag k="name:ru" v="Харьков"/>
    <tag k="name:sk" v="Charkov"/>
    <tag k="place" v="city"/>
    <tag k="population" v="1461000"/>
    <tag k="wikipedia" v="Kharkiv"/>
  </node>
  <node id="428339513" version="7" timestamp="2010-07-14T09:31:45Z" uid="314684" user="krattbot" changeset="5215291" lat="49.9901076" lon="36.2302804">
    <tag k="int_name" v="Kharkov"/>
    <tag k="is_in" v="Kharkov Oblast, Ukraine, Europe"/>
    <tag k="name" v="Харків"/>
    <tag k="name:de" v="Charkow"/>
    <tag k="name:en" v="Kharkiv"/>
    <tag k="name:et" v="Harkiv"/>
    <tag k="name:eu" v="Kharkiv"/>
    <tag k="name:he" v="קרקוב"/>
    <tag k="name:pl" v="Charków"/>
    <tag k="name:ru" v="Харьков"/>
    <tag k="name:sk" v="Charkov"/>
    <tag k="place" v="city"/>
    <tag k="population" v="1461000"/>
    <tag k="wikipedia" v="Kharkiv"/>
  </node>
  <node id="428339513" version="8" timestamp="2010-07-15T05:25:53Z" uid="47038" user="Per Lindström" changeset="5223604" lat="49.9901077" lon="36.2302803">
    <tag k="int_name" v="Kharkov"/>
    <tag k="is_in" v="Kharkov Oblast, Ukraine, Europe"/>
    <tag k="name" v="Харків"/>
    <tag k="name:de" v="Charkow"/>
    <tag k="name:en" v="Kharkiv"/>
    <tag k="name:et" v="Harkiv"/>
    <tag k="name:eu" v="Kharkiv"/>
    <tag k="name:he" v="קרקוב"/>
    <tag k="name:pl" v="Charków"/>
    <tag k="name:ru" v="Харьков"/>
    <tag k="name:sk" v="Charkov"/>
    <tag k="name:sv" v="Charkiv"/>
    <tag k="place" v="city"/>
    <tag k="population" v="1461000"/>
    <tag k="wikipedia" v="Kharkiv"/>
  </node>
  <node id="428339513" version="9" timestamp="2010-10-11T09:41:32Z" uid="355347" user="kcsaba" changeset="6010088" lat="49.9901077" lon="36.2302803">
    <tag k="int_name" v="Kharkov"/>
    <tag k="is_in" v="Kharkov Oblast, Ukraine, Europe"/>
    <tag k="name" v="Харків"/>
    <tag k="name:de" v="Charkow"/>
    <tag k="name:en" v="Kharkiv"/>
    <tag k="name:et" v="Harkiv"/>
    <tag k="name:eu" v="Kharkiv"/>
    <tag k="name:he" v="קרקוב"/>
    <tag k="name:hu" v="Harkiv"/>
    <tag k="name:pl" v="Charków"/>
    <tag k="name:ru" v="Харьков"/>
    <tag k="name:sk" v="Charkov"/>
    <tag k="name:sv" v="Charkiv"/>
    <tag k="place" v="city"/>
    <tag k="population" v="1461000"/>
    <tag k="wikipedia" v="Kharkiv"/>
  </node>
  <node id="428339513" version="10" timestamp="2010-10-18T14:18:32Z" uid="356014" user="_sev" changeset="6082705" lat="49.9901077" lon="36.2302803">
    <tag k="int_name" v="Kharkov"/>
    <tag k="is_in" v="Kharkov Oblast, Ukraine, Europe"/>
    <tag k="name" v="Харків"/>
    <tag k="name:de" v="Charkow"/>
    <tag k="name:en" v="Kharkiv"/>
    <tag k="name:et" v="Harkiv"/>
    <tag k="name:eu" v="Kharkiv"/>
    <tag k="name:he" v="קרקוב"/>
    <tag k="name:hu" v="Harkiv"/>
    <tag k="name:pl" v="Charków"/>
    <tag k="name:ru" v="Харьков"/>
    <tag k="name:sk" v="Charkov"/>
    <tag k="name:sv" v="Charkiv"/>
    <tag k="place" v="city"/>
    <tag k="population" v="1461000"/>
    <tag k="wikipedia" v="Kharkiv"/>
  </node>
  <node id="428339513" version="11" timestamp="2011-05-15T11:28:22Z" uid="93026" user="mpele" changeset="8150606" lat="49.9901077" lon="36.2302803">
    <tag k="int_name" v="Kharkov"/>
    <tag k="is_in" v="Kharkov Oblast, Ukraine, Europe"/>
    <tag k="name" v="Харків"/>
    <tag k="name:de" v="Charkow"/>
    <tag k="name:en" v="Kharkiv"/>
    <tag k="name:et" v="Harkiv"/>
    <tag k="name:eu" v="Kharkiv"/>
    <tag k="name:he" v="קרקוב"/>
    <tag k="name:hu" v="Harkiv"/>
    <tag k="name:pl" v="Charków"/>
    <tag k="name:ru" v="Харьков"/>
    <tag k="name:sk" v="Charkov"/>
    <tag k="name:sr" v="Харков"/>
    <tag k="name:sv" v="Charkiv"/>
    <tag k="place" v="city"/>
    <tag k="population" v="1461000"/>
    <tag k="wikipedia" v="Kharkiv"/>
  </node>
  <node id="428339513" version="12" timestamp="2011-07-19T12:00:59Z" uid="102554" user="Jezevec" changeset="8767624" lat="49.9901077" lon="36.2302803">
    <tag k="int_name" v="Kharkov"/>
    <tag k="is_in" v="Kharkov Oblast, Ukraine, Europe"/>
    <tag k="name" v="Харків"/>
    <tag k="name:cs" v="Charkov"/>
    <tag k="name:de" v="Charkow"/>
    <tag k="name:en" v="Kharkiv"/>
    <tag k="name:et" v="Harkiv"/>
    <tag k="name:eu" v="Kharkiv"/>
    <tag k="name:he" v="קרקוב"/>
    <tag k="name:hu" v="Harkiv"/>
    <tag k="name:pl" v="Charków"/>
    <tag k="name:ru" v="Харьков"/>
    <tag k="name:sk" v="Charkov"/>
    <tag k="name:sr" v="Харков"/>
    <tag k="name:sv" v="Charkiv"/>
    <tag k="place" v="city"/>
    <tag k="population" v="1461000"/>
    <tag k="wikipedia" v="Kharkiv"/>
  </node>
  <node id="428339513" version="13" timestamp="2011-09-08T11:18:05Z" uid="356014" user="_sev" changeset="9244709" lat="49.9901077" lon="36.2302803">
    <tag k="name" v="Харків"/>
    <tag k="name:cs" v="Charkov"/>
    <tag k="name:de" v="Charkow"/>
    <tag k="name:en" v="Kharkiv"/>
    <tag k="name:et" v="Harkiv"/>
    <tag k="name:eu" v="Kharkiv"/>
    <tag k="name:he" v="קרקוב"/>
    <tag k="name:hu" v="Harkiv"/>
    <tag k="name:pl" v="Charków"/>
    <tag k="name:ru" v="Харьков"/>
    <tag k="name:sk" v="Charkov"/>
    <tag k="name:sr" v="Харков"/>
    <tag k="name:sv" v="Charkiv"/>
    <tag k="place" v="city"/>
    <tag k="population" v="1461000"/>
    <tag k="wikipedia" v="Kharkiv"/>
  </node>
  <node id="428339513" version="14" timestamp="2012-03-22T12:15:39Z" uid="356014" user="_sev" changeset="11062196" lat="49.9901077" lon="36.2302803"/>
  <node id="428339515" version="8" timestamp="2010-04-11T04:48:03Z" uid="20587" user="balrog-kun" changeset="4389130" lat="52.2319237" lon="21.0067265">
    <tag k="capital" v="yes"/>
    <tag k="is_in" v="województwo mazowieckie, Poland"/>
    <tag k="is_in:continent" v="Europe"/>
    <tag k="is_in:country" v="Poland"/>
    <tag k="is_in:county" v="Warszawa"/>
    <tag k="is_in:municipality" v="gmina m. st. Warszawa"/>
    <tag k="is_in:province" v="województwo mazowieckie"/>
    <tag k="name" v="Warszawa"/>
    <tag k="name:ca" v="Varsòvia"/>
    <tag k="name:cs" v="Varšava"/>
    <tag k="name:de" v="Warschau"/>
    <tag k="name:el" v="Βαρσοβία"/>
    <tag k="name:en" v="Warsaw"/>
    <tag k="name:eo" v="Varsovio"/>
    <tag k="name:es" v="Varsovia"/>
    <tag k="name:et" v="Varssavi"/>
    <tag k="name:eu" v="Varsovia"/>
    <tag k="name:fi" v="Varsova"/>
    <tag k="name:fr" v="Varsovie"/>
    <tag k="name:he" v="ורשה"/>
    <tag k="name:hr" v="Varšava"/>
    <tag k="name:hu" v="Varsó"/>
    <tag k="name:is" v="Varsjá"/>
    <tag k="name:it" v="Varsavia"/>
    <tag k="name:ja" v="ワルシャワ"/>
    <tag k="name:la" v="Varsovia"/>
    <tag k="name:lt" v="Varšuva"/>
    <tag k="name:lv" v="Varšava"/>
    <tag k="name:nl" v="Warschau"/>
    <tag k="name:pt" v="Varsóvia"/>
    <tag k="name:ro" v="Varşovia"/>
    <tag k="name:ru" v="Варшава"/>
    <tag k="name:sk" v="Varšava"/>
    <tag k="name:sl" v="Varšava"/>
    <tag k="name:tr" v="Varşova"/>
    <tag k="name:uk" v="Варшава"/>
    <tag k="place" v="city"/>
    <tag k="population" v="1707983"/>
    <tag k="source:population" v="wikipedia"/>
    <tag k="teryt:rm" v="96"/>
    <tag k="teryt:simc" v="0918123"/>
    <tag k="teryt:stan_na" v="2009-01-01"/>
    <tag k="teryt:terc" v="1465011"/>
    <tag k="teryt:updated_by" v="teryt2osm combine.py v. 49"/>
    <tag k="wikipedia" v="Warsaw"/>
    <tag k="wikipedia:fr" v="Varsovie"/>
    <tag k="wikipedia:pl" v="Warszawa"/>
  </node>
  <node id="428339515" version="9" timestamp="2010-11-07T20:46:13Z" uid="76269" user="Snusmumriken" changeset="6315886" lat="52.2319237" lon="21.0067265">
    <tag k="capital" v="yes"/>
    <tag k="is_in" v="województwo mazowieckie, Poland"/>
    <tag k="is_in:continent" v="Europe"/>
    <tag k="is_in:country" v="Poland"/>
    <tag k="is_in:county" v="Warszawa"/>
    <tag k="is_in:municipality" v="gmina m. st. Warszawa"/>
    <tag k="is_in:province" v="województwo mazowieckie"/>
    <tag k="name" v="Warszawa"/>
    <tag k="name:ca" v="Varsòvia"/>
    <tag k="name:cs" v="Varšava"/>
    <tag k="name:de" v="Warschau"/>
    <tag k="name:el" v="Βαρσοβία"/>
    <tag k="name:en" v="Warsaw"/>
    <tag k="name:eo" v="Varsovio"/>
    <tag k="name:es" v="Varsovia"/>
    <tag k="name:et" v="Varssavi"/>
    <tag k="name:eu" v="Varsovia"/>
    <tag k="name:fi" v="Varsova"/>
    <tag k="name:fr" v="Varsovie"/>
    <tag k="name:he" v="ורשה"/>
    <tag k="name:hr" v="Varšava"/>
    <tag k="name:hu" v="Varsó"/>
    <tag k="name:is" v="Varsjá"/>
    <tag k="name:it" v="Varsavia"/>
    <tag k="name:ja" v="ワルシャワ"/>
    <tag k="name:la" v="Varsovia"/>
    <tag k="name:lt" v="Varšuva"/>
    <tag k="name:lv" v="Varšava"/>
    <tag k="name:nl" v="Warschau"/>
    <tag k="name:pt" v="Varsóvia"/>
    <tag k="name:ro" v="Varşovia"/>
    <tag k="name:ru" v="Варшава"/>
    <tag k="name:sk" v="Varšava"/>
    <tag k="name:sl" v="Varšava"/>
    <tag k="name:sv" v="Warszawa"/>
    <tag k="name:tr" v="Varşova"/>
    <tag k="name:uk" v="Варшава"/>
    <tag k="place" v="city"/>
    <tag k="population" v="1707983"/>
    <tag k="source:population" v="wikipedia"/>
    <tag k="teryt:rm" v="96"/>
    <tag k="teryt:simc" v="0918123"/>
    <tag k="teryt:stan_na" v="2009-01-01"/>
    <tag k="teryt:terc" v="1465011"/>
    <tag k="teryt:updated_by" v="teryt2osm combine.py v. 49"/>
    <tag k="wikipedia" v="Warsaw"/>
    <tag k="wikipedia:fr" v="Varsovie"/>
    <tag k="wikipedia:pl" v="Warszawa"/>
  </node>
  <node id="428339515" version="10" timestamp="2010-11-23T08:58:39Z" uid="33757" user="Minh Nguyen" changeset="6437779" lat="52.2319238" lon="21.0067265">
    <tag k="capital" v="yes"/>
    <tag k="is_in" v="województwo mazowieckie, Poland"/>
    <tag k="is_in:continent" v="Europe"/>
    <tag k="is_in:country" v="Poland"/>
    <tag k="is_in:county" v="Warszawa"/>
    <tag k="is_in:municipality" v="gmina m. st. Warszawa"/>
    <tag k="is_in:province" v="województwo mazowieckie"/>
    <tag k="name" v="Warszawa"/>
    <tag k="name:ca" v="Varsòvia"/>
    <tag k="name:cs" v="Varšava"/>
    <tag k="name:de" v="Warschau"/>
    <tag k="name:el" v="Βαρσοβία"/>
    <tag k="name:en" v="Warsaw"/>
    <tag k="name:eo" v="Varsovio"/>
    <tag k="name:es" v="Varsovia"/>
    <tag k="name:et" v="Varssavi"/>
    <tag k="name:eu" v="Varsovia"/>
    <tag k="name:fi" v="Varsova"/>
    <tag k="name:fr" v="Varsovie"/>
    <tag k="name:he" v="ורשה"/>
    <tag k="name:hr" v="Varšava"/>
    <tag k="name:hu" v="Varsó"/>
    <tag k="name:is" v="Varsjá"/>
    <tag k="name:it" v="Varsavia"/>
    <tag k="name:ja" v="ワルシャワ"/>
    <tag k="name:la" v="Varsovia"/>
    <tag k="name:lt" v="Varšuva"/>
    <tag k="name:lv" v="Varšava"/>
    <tag k="name:nl" v="Warschau"/>
    <tag k="name:pt" v="Varsóvia"/>
    <tag k="name:ro" v="Varşovia"/>
    <tag k="name:ru" v="Варшава"/>
    <tag k="name:sk" v="Varšava"/>
    <tag k="name:sl" v="Varšava"/>
    <tag k="name:sv" v="Warszawa"/>
    <tag k="name:tr" v="Varşova"/>
    <tag k="name:uk" v="Варшава"/>
    <tag k="name:vi" v="Vacsava"/>
    <tag k="place" v="city"/>
    <tag k="population" v="1707983"/>
    <tag k="source:population" v="wikipedia"/>
    <tag k="teryt:rm" v="96"/>
    <tag k="teryt:simc" v="0918123"/>
    <tag k="teryt:stan_na" v="2009-01-01"/>
    <tag k="teryt:terc" v="1465011"/>
    <tag k="teryt:updated_by" v="teryt2osm combine.py v. 49"/>
    <tag k="wikipedia" v="Warsaw"/>
    <tag k="wikipedia:fr" v="Varsovie"/>
    <tag k="wikipedia:pl" v="Warszawa"/>
  </node>
  <node id="428339515" version="11" timestamp="2011-02-02T10:57:23Z" uid="393666" user="etrumap" changeset="7163435" lat="52.2319238" lon="21.0067265">
    <tag k="capital" v="yes"/>
    <tag k="is_in" v="województwo mazowieckie, Poland"/>
    <tag k="is_in:continent" v="Europe"/>
    <tag k="is_in:country" v="Poland"/>
    <tag k="is_in:county" v="Warszawa"/>
    <tag k="is_in:municipality" v="gmina m. st. Warszawa"/>
    <tag k="is_in:province" v="województwo mazowieckie"/>
    <tag k="name" v="Warszawa"/>
    <tag k="name:ca" v="Varsòvia"/>
    <tag k="name:cs" v="Varšava"/>
    <tag k="name:de" v="Warschau"/>
    <tag k="name:el" v="Βαρσοβία"/>
    <tag k="name:en" v="Warsaw"/>
    <tag k="name:eo" v="Varsovio"/>
    <tag k="name:es" v="Varsovia"/>
    <tag k="name:et" v="Varssavi"/>
    <tag k="name:eu" v="Varsovia"/>
    <tag k="name:fi" v="Varsova"/>
    <tag k="name:fr" v="Varsovie"/>
    <tag k="name:he" v="ורשה"/>
    <tag k="name:hr" v="Varšava"/>
    <tag k="name:hu" v="Varsó"/>
    <tag k="name:is" v="Varsjá"/>
    <tag k="name:it" v="Varsavia"/>
    <tag k="name:ja" v="ワルシャワ"/>
    <tag k="name:la" v="Varsovia"/>
    <tag k="name:lt" v="Varšuva"/>
    <tag k="name:lv" v="Varšava"/>
    <tag k="name:nl" v="Warschau"/>
    <tag k="name:pt" v="Varsóvia"/>
    <tag k="name:ro" v="Varşovia"/>
    <tag k="name:ru" v="Варшава"/>
    <tag k="name:sk" v="Varšava"/>
    <tag k="name:sl" v="Varšava"/>
    <tag k="name:sv" v="Warszawa"/>
    <tag k="name:tr" v="Varşova"/>
    <tag k="name:uk" v="Варшава"/>
    <tag k="name:vi" v="Vacsava"/>
    <tag k="place" v="city"/>
    <tag k="population" v="1707983"/>
    <tag k="rank" v="10"/>
    <tag k="source:population" v="wikipedia"/>
    <tag k="teryt:rm" v="96"/>
    <tag k="teryt:simc" v="0918123"/>
    <tag k="teryt:stan_na" v="2009-01-01"/>
    <tag k="teryt:terc" v="1465011"/>
    <tag k="teryt:updated_by" v="teryt2osm combine.py v. 49"/>
    <tag k="wikipedia" v="Warsaw"/>
    <tag k="wikipedia:fr" v="Varsovie"/>
    <tag k="wikipedia:pl" v="Warszawa"/>
  </node>
  <node id="428339515" version="12" timestamp="2011-04-06T16:27:13Z" uid="7045" user="Xuacu" changeset="7786566" lat="52.2319238" lon="21.0067265">
    <tag k="capital" v="yes"/>
    <tag k="is_in" v="województwo mazowieckie, Poland"/>
    <tag k="is_in:continent" v="Europe"/>
    <tag k="is_in:country" v="Poland"/>
    <tag k="is_in:county" v="Warszawa"/>
    <tag k="is_in:municipality" v="gmina m. st. Warszawa"/>
    <tag k="is_in:province" v="województwo mazowieckie"/>
    <tag k="name" v="Warszawa"/>
    <tag k="name:ast" v="Varsovia"/>
    <tag k="name:ca" v="Varsòvia"/>
    <tag k="name:cs" v="Varšava"/>
    <tag k="name:de" v="Warschau"/>
    <tag k="name:el" v="Βαρσοβία"/>
    <tag k="name:en" v="Warsaw"/>
    <tag k="name:eo" v="Varsovio"/>
    <tag k="name:es" v="Varsovia"/>
    <tag k="name:et" v="Varssavi"/>
    <tag k="name:eu" v="Varsovia"/>
    <tag k="name:fi" v="Varsova"/>
    <tag k="name:fr" v="Varsovie"/>
    <tag k="name:he" v="ורשה"/>
    <tag k="name:hr" v="Varšava"/>
    <tag k="name:hu" v="Varsó"/>
    <tag k="name:is" v="Varsjá"/>
    <tag k="name:it" v="Varsavia"/>
    <tag k="name:ja" v="ワルシャワ"/>
    <tag k="name:la" v="Varsovia"/>
    <tag k="name:lt" v="Varšuva"/>
    <tag k="name:lv" v="Varšava"/>
    <tag k="name:nl" v="Warschau"/>
    <tag k="name:pt" v="Varsóvia"/>
    <tag k="name:ro" v="Varşovia"/>
    <tag k="name:ru" v="Варшава"/>
    <tag k="name:sk" v="Varšava"/>
    <tag k="name:sl" v="Varšava"/>
    <tag k="name:sv" v="Warszawa"/>
    <tag k="name:tr" v="Varşova"/>
    <tag k="name:uk" v="Варшава"/>
    <tag k="name:vi" v="Vacsava"/>
    <tag k="place" v="city"/>
    <tag k="population" v="1707983"/>
    <tag k="rank" v="10"/>
    <tag k="source:population" v="wikipedia"/>
    <tag k="teryt:rm" v="96"/>
    <tag k="teryt:simc" v="0918123"/>
    <tag k="teryt:stan_na" v="2009-01-01"/>
    <tag k="teryt:terc" v="1465011"/>
    <tag k="teryt:updated_by" v="teryt2osm combine.py v. 49"/>
    <tag k="wikipedia" v="Warsaw"/>
    <tag k="wikipedia:fr" v="Varsovie"/>
    <tag k="wikipedia:pl" v="Warszawa"/>
  </node>
  <node id="428339515" version="13" timestamp="2011-05-19T18:57:36Z" uid="93026" user="mpele" changeset="8192436" lat="52.2319238" lon="21.0067265">
    <tag k="capital" v="yes"/>
    <tag k="is_in" v="województwo mazowieckie, Poland"/>
    <tag k="is_in:continent" v="Europe"/>
    <tag k="is_in:country" v="Poland"/>
    <tag k="is_in:county" v="Warszawa"/>
    <tag k="is_in:municipality" v="gmina m. st. Warszawa"/>
    <tag k="is_in:province" v="województwo mazowieckie"/>
    <tag k="name" v="Warszawa"/>
    <tag k="name:ast" v="Varsovia"/>
    <tag k="name:ca" v="Varsòvia"/>
    <tag k="name:cs" v="Varšava"/>
    <tag k="name:de" v="Warschau"/>
    <tag k="name:el" v="Βαρσοβία"/>
    <tag k="name:en" v="Warsaw"/>
    <tag k="name:eo" v="Varsovio"/>
    <tag k="name:es" v="Varsovia"/>
    <tag k="name:et" v="Varssavi"/>
    <tag k="name:eu" v="Varsovia"/>
    <tag k="name:fi" v="Varsova"/>
    <tag k="name:fr" v="Varsovie"/>
    <tag k="name:he" v="ורשה"/>
    <tag k="name:hr" v="Varšava"/>
    <tag k="name:hu" v="Varsó"/>
    <tag k="name:is" v="Varsjá"/>
    <tag k="name:it" v="Varsavia"/>
    <tag k="name:ja" v="ワルシャワ"/>
    <tag k="name:la" v="Varsovia"/>
    <tag k="name:lt" v="Varšuva"/>
    <tag k="name:lv" v="Varšava"/>
    <tag k="name:nl" v="Warschau"/>
    <tag k="name:pt" v="Varsóvia"/>
    <tag k="name:ro" v="Varşovia"/>
    <tag k="name:ru" v="Варшава"/>
    <tag k="name:sk" v="Varšava"/>
    <tag k="name:sl" v="Varšava"/>
    <tag k="name:sr" v="Варшава"/>
    <tag k="name:sv" v="Warszawa"/>
    <tag k="name:tr" v="Varşova"/>
    <tag k="name:uk" v="Варшава"/>
    <tag k="name:vi" v="Vacsava"/>
    <tag k="place" v="city"/>
    <tag k="population" v="1707983"/>
    <tag k="rank" v="10"/>
    <tag k="source:population" v="wikipedia"/>
    <tag k="teryt:rm" v="96"/>
    <tag k="teryt:simc" v="0918123"/>
    <tag k="teryt:stan_na" v="2009-01-01"/>
    <tag k="teryt:terc" v="1465011"/>
    <tag k="teryt:updated_by" v="teryt2osm combine.py v. 49"/>
    <tag k="wikipedia" v="Warsaw"/>
    <tag k="wikipedia:fr" v="Varsovie"/>
    <tag k="wikipedia:pl" v="Warszawa"/>
  </node>
  <node id="428339515" version="14" timestamp="2011-08-03T15:13:25Z" uid="39966" user="free_as_a_bird" changeset="8910974" lat="52.2319238" lon="21.0067265">
    <tag k="capital" v="yes"/>
    <tag k="is_in" v="województwo mazowieckie, Poland"/>
    <tag k="is_in:continent" v="Europe"/>
    <tag k="is_in:country" v="Poland"/>
    <tag k="is_in:county" v="Warszawa"/>
    <tag k="is_in:municipality" v="gmina m. st. Warszawa"/>
    <tag k="is_in:province" v="województwo mazowieckie"/>
    <tag k="name" v="Warszawa"/>
    <tag k="name:ast" v="Varsovia"/>
    <tag k="name:ca" v="Varsòvia"/>
    <tag k="name:cs" v="Varšava"/>
    <tag k="name:de" v="Warschau"/>
    <tag k="name:el" v="Βαρσοβία"/>
    <tag k="name:en" v="Warsaw"/>
    <tag k="name:eo" v="Varsovio"/>
    <tag k="name:es" v="Varsovia"/>
    <tag k="name:et" v="Varssavi"/>
    <tag k="name:eu" v="Varsovia"/>
    <tag k="name:fi" v="Varsova"/>
    <tag k="name:fr" v="Varsovie"/>
    <tag k="name:he" v="ורשה"/>
    <tag k="name:hr" v="Varšava"/>
    <tag k="name:hu" v="Varsó"/>
    <tag k="name:is" v="Varsjá"/>
    <tag k="name:it" v="Varsavia"/>
    <tag k="name:ja" v="ワルシャワ"/>
    <tag k="name:la" v="Varsovia"/>
    <tag k="name:lt" v="Varšuva"/>
    <tag k="name:lv" v="Varšava"/>
    <tag k="name:nl" v="Warschau"/>
    <tag k="name:pt" v="Varsóvia"/>
    <tag k="name:ro" v="Varşovia"/>
    <tag k="name:ru" v="Варшава"/>
    <tag k="name:sk" v="Varšava"/>
    <tag k="name:sl" v="Varšava"/>
    <tag k="name:sr" v="Варшава"/>
    <tag k="name:sv" v="Warszawa"/>
    <tag k="name:tr" v="Varşova"/>
    <tag k="name:uk" v="Варшава"/>
    <tag k="name:vi" v="Vacsava"/>
    <tag k="name:zh" v="华沙"/>
    <tag k="place" v="city"/>
    <tag k="population" v="1707983"/>
    <tag k="rank" v="10"/>
    <tag k="source:population" v="wikipedia"/>
    <tag k="teryt:rm" v="96"/>
    <tag k="teryt:simc" v="0918123"/>
    <tag k="teryt:stan_na" v="2009-01-01"/>
    <tag k="teryt:terc" v="1465011"/>
    <tag k="teryt:updated_by" v="teryt2osm combine.py v. 49"/>
    <tag k="wikipedia" v="Warsaw"/>
    <tag k="wikipedia:fr" v="Varsovie"/>
    <tag k="wikipedia:pl" v="Warszawa"/>
  </node>
  <node id="428339538" version="2" timestamp="2009-07-22T21:29:29Z" uid="20587" user="balrog-kun" changeset="1909555" lat="59.3307434" lon="18.061326">
    <tag k="capital" v="yes"/>
    <tag k="created_by" v="Potlatch 0.10f"/>
    <tag k="is_in" v="Europe, Sweden, capital cities"/>
    <tag k="is_in:continent" v="Europe"/>
    <tag k="is_in:country" v="Sweden"/>
    <tag k="is_in:county" v="Stockholms län"/>
    <tag k="is_in:kommun" v="Stockholm"/>
    <tag k="is_in:landskap" v="Södermanland, Uppland"/>
    <tag k="name" v="Stockholm"/>
    <tag k="name:en" v="Stockholm"/>
    <tag k="name:fi" v="Tukholma"/>
    <tag k="name:fr" v="Stockholm"/>
    <tag k="name:he" v="שטוקהולם"/>
    <tag k="name:it" v="Stoccolma"/>
    <tag k="name:lv" v="Stokholma"/>
    <tag k="name:sv" v="Stockholm"/>
    <tag k="place" v="city"/>
    <tag k="population" v="802611"/>
    <tag k="wikipedia:en" v="Stockholm"/>
  </node>
  <node id="428339558" version="2" timestamp="2009-07-22T18:42:32Z" uid="20587" user="balrog-kun" changeset="1907934" lat="40.8489506" lon="14.2500837">
    <tag k="gfoss_id" v="5387"/>
    <tag k="is_in" v="Napoli, Campania, Italy"/>
    <tag k="is_in:continent" v="Europe"/>
    <tag k="name" v="Napoli"/>
    <tag k="name:de" v="Neapel"/>
    <tag k="name:en" v="Naples"/>
    <tag k="name:es" v="Nápoles"/>
    <tag k="name:he" v="נפולי"/>
    <tag k="name:hr" v="Napulj"/>
    <tag k="name:hu" v="Nápoly"/>
    <tag k="name:nap" v="Napule"/>
    <tag k="name:nl" v="Napels"/>
    <tag k="name:pl" v="Neapol"/>
    <tag k="place" v="city"/>
    <tag k="population" v="1004500"/>
    <tag k="source" v="geodati.gfoss.it"/>
    <tag k="wikipedia" v="Naples"/>
  </node>
  <node id="428339558" version="3" timestamp="2009-07-23T09:43:42Z" uid="3834" user="StefanB" changeset="1913681" lat="40.8489506" lon="14.2500837">
    <tag k="gfoss_id" v="5387"/>
    <tag k="is_in" v="Napoli, Campania, Italy"/>
    <tag k="is_in:continent" v="Europe"/>
    <tag k="name" v="Napoli"/>
    <tag k="name:de" v="Neapel"/>
    <tag k="name:en" v="Naples"/>
    <tag k="name:es" v="Nápoles"/>
    <tag k="name:he" v="נפולי"/>
    <tag k="name:hr" v="Napulj"/>
    <tag k="name:hu" v="Nápoly"/>
    <tag k="name:nap" v="Napule"/>
    <tag k="name:nl" v="Napels"/>
    <tag k="name:pl" v="Neapol"/>
    <tag k="name:sl" v="Neapelj"/>
    <tag k="place" v="city"/>
    <tag k="population" v="1004500"/>
    <tag k="source" v="geodati.gfoss.it"/>
    <tag k="wikipedia" v="Naples"/>
  </node>
  <node id="428339558" version="4" timestamp="2009-07-25T22:01:23Z" uid="123700" user="Mala" changeset="1939174" lat="40.8489506" lon="14.2500837">
    <tag k="gfoss_id" v="5387"/>
    <tag k="is_in" v="Napoli, Campania, Italy"/>
    <tag k="is_in:continent" v="Europe"/>
    <tag k="name" v="Napoli"/>
    <tag k="name:de" v="Neapel"/>
    <tag k="name:en" v="Naples"/>
    <tag k="name:es" v="Nápoles"/>
    <tag k="name:fr" v="Naples"/>
    <tag k="name:he" v="נפולי"/>
    <tag k="name:hr" v="Napulj"/>
    <tag k="name:hu" v="Nápoly"/>
    <tag k="name:nap" v="Napule"/>
    <tag k="name:nl" v="Napels"/>
    <tag k="name:pl" v="Neapol"/>
    <tag k="name:pt" v="Nápoles"/>
    <tag k="name:sl" v="Neapelj"/>
    <tag k="place" v="city"/>
    <tag k="population" v="1004500"/>
    <tag k="source" v="geodati.gfoss.it"/>
    <tag k="wikipedia" v="Naples"/>
  </node>
  <node id="428339558" version="5" timestamp="2009-09-30T10:48:08Z" uid="29717" user="eumiro" changeset="2686580" lat="40.8489506" lon="14.2500837">
    <tag k="gfoss_id" v="5387"/>
    <tag k="is_in" v="Napoli, Campania, Italy"/>
    <tag k="is_in:continent" v="Europe"/>
    <tag k="name" v="Napoli"/>
    <tag k="name:cs" v="Neapol"/>
    <tag k="name:de" v="Neapel"/>
    <tag k="name:en" v="Naples"/>
    <tag k="name:es" v="Nápoles"/>
    <tag k="name:fr" v="Naples"/>
    <tag k="name:he" v="נפולי"/>
    <tag k="name:hr" v="Napulj"/>
    <tag k="name:hu" v="Nápoly"/>
    <tag k="name:nap" v="Napule"/>
    <tag k="name:nl" v="Napels"/>
    <tag k="name:pl" v="Neapol"/>
    <tag k="name:pt" v="Nápoles"/>
    <tag k="name:sk" v="Neapol"/>
    <tag k="name:sl" v="Neapelj"/>
    <tag k="place" v="city"/>
    <tag k="population" v="1004500"/>
    <tag k="source" v="geodati.gfoss.it"/>
    <tag k="wikipedia" v="Naples"/>
  </node>
  <node id="428339558" version="6" timestamp="2009-11-27T11:20:45Z" uid="166445" user="GranD" changeset="3227208" lat="40.8489507" lon="14.2500836">
    <tag k="gfoss_id" v="5387"/>
    <tag k="is_in" v="Napoli, Campania, Italy"/>
    <tag k="is_in:continent" v="Europe"/>
    <tag k="name" v="Napoli"/>
    <tag k="name:cs" v="Neapol"/>
    <tag k="name:de" v="Neapel"/>
    <tag k="name:en" v="Naples"/>
    <tag k="name:es" v="Nápoles"/>
    <tag k="name:fr" v="Naples"/>
    <tag k="name:he" v="נפולי"/>
    <tag k="name:hr" v="Napulj"/>
    <tag k="name:hu" v="Nápoly"/>
    <tag k="name:nap" v="Napule"/>
    <tag k="name:nl" v="Napels"/>
    <tag k="name:pl" v="Neapol"/>
    <tag k="name:pt" v="Nápoles"/>
    <tag k="name:ru" v="Неаполь"/>
    <tag k="name:sk" v="Neapol"/>
    <tag k="name:sl" v="Neapelj"/>
    <tag k="place" v="city"/>
    <tag k="population" v="1004500"/>
    <tag k="source" v="geodati.gfoss.it"/>
    <tag k="wikipedia" v="Naples"/>
  </node>
  <node id="428339558" version="7" timestamp="2010-01-20T18:09:42Z" uid="217070" user="Madeco" changeset="3668883" lat="40.8501443" lon="14.2443979">
    <tag k="gfoss_id" v="5387"/>
    <tag k="is_in" v="Napoli, Campania, Italy"/>
    <tag k="is_in:continent" v="Europe"/>
    <tag k="name" v="Napoli"/>
    <tag k="name:cs" v="Neapol"/>
    <tag k="name:de" v="Neapel"/>
    <tag k="name:en" v="Naples"/>
    <tag k="name:es" v="Nápoles"/>
    <tag k="name:fr" v="Naples"/>
    <tag k="name:he" v="נפולי"/>
    <tag k="name:hr" v="Napulj"/>
    <tag k="name:hu" v="Nápoly"/>
    <tag k="name:nap" v="Napule"/>
    <tag k="name:nl" v="Napels"/>
    <tag k="name:pl" v="Neapol"/>
    <tag k="name:pt" v="Nápoles"/>
    <tag k="name:ru" v="Неаполь"/>
    <tag k="name:sk" v="Neapol"/>
    <tag k="name:sl" v="Neapelj"/>
    <tag k="place" v="city"/>
    <tag k="population" v="1004500"/>
    <tag k="source" v="geodati.gfoss.it"/>
    <tag k="wikipedia" v="Naples"/>
  </node>
  <node id="428339558" version="8" timestamp="2010-08-13T03:44:55Z" uid="113813" user="AndersAndersson" changeset="5478475" lat="40.8501443" lon="14.2443978">
    <tag k="gfoss_id" v="5387"/>
    <tag k="is_in" v="Napoli, Campania, Italy"/>
    <tag k="is_in:continent" v="Europe"/>
    <tag k="name" v="Napoli"/>
    <tag k="name:cs" v="Neapol"/>
    <tag k="name:de" v="Neapel"/>
    <tag k="name:en" v="Naples"/>
    <tag k="name:es" v="Nápoles"/>
    <tag k="name:fr" v="Naples"/>
    <tag k="name:he" v="נפולי"/>
    <tag k="name:hr" v="Napulj"/>
    <tag k="name:hu" v="Nápoly"/>
    <tag k="name:nap" v="Napule"/>
    <tag k="name:nl" v="Napels"/>
    <tag k="name:pl" v="Neapol"/>
    <tag k="name:pt" v="Nápoles"/>
    <tag k="name:ru" v="Неаполь"/>
    <tag k="name:sk" v="Neapol"/>
    <tag k="name:sl" v="Neapelj"/>
    <tag k="name:sv" v="Neapel"/>
    <tag k="place" v="city"/>
    <tag k="population" v="1004500"/>
    <tag k="source" v="geodati.gfoss.it"/>
    <tag k="wikipedia" v="Naples"/>
  </node>
  <node id="428339558" version="9" timestamp="2011-01-21T10:44:34Z" uid="393666" user="etrumap" changeset="7038962" lat="40.8501443" lon="14.2443978">
    <tag k="gfoss_id" v="5387"/>
    <tag k="is_in" v="Napoli, Campania, Italy"/>
    <tag k="is_in:continent" v="Europe"/>
    <tag k="name" v="Napoli"/>
    <tag k="name:cs" v="Neapol"/>
    <tag k="name:de" v="Neapel"/>
    <tag k="name:en" v="Naples"/>
    <tag k="name:es" v="Nápoles"/>
    <tag k="name:fr" v="Naples"/>
    <tag k="name:he" v="נפולי"/>
    <tag k="name:hr" v="Napulj"/>
    <tag k="name:hu" v="Nápoly"/>
    <tag k="name:nap" v="Napule"/>
    <tag k="name:nl" v="Napels"/>
    <tag k="name:pl" v="Neapol"/>
    <tag k="name:pt" v="Nápoles"/>
    <tag k="name:ru" v="Неаполь"/>
    <tag k="name:sk" v="Neapol"/>
    <tag k="name:sl" v="Neapelj"/>
    <tag k="name:sv" v="Neapel"/>
    <tag k="place" v="city"/>
    <tag k="population" v="1004500"/>
    <tag k="rank" v="10"/>
    <tag k="source" v="geodati.gfoss.it"/>
    <tag k="wikipedia" v="Naples"/>
  </node>
  <node id="428339558" version="10" timestamp="2011-01-21T13:17:43Z" uid="393666" user="etrumap" changeset="7040255" lat="40.8501443" lon="14.2443978">
    <tag k="capital" v="4"/>
    <tag k="gfoss_id" v="5387"/>
    <tag k="is_in" v="Napoli, Campania, Italy"/>
    <tag k="is_in:continent" v="Europe"/>
    <tag k="name" v="Napoli"/>
    <tag k="name:cs" v="Neapol"/>
    <tag k="name:de" v="Neapel"/>
    <tag k="name:en" v="Naples"/>
    <tag k="name:es" v="Nápoles"/>
    <tag k="name:fr" v="Naples"/>
    <tag k="name:he" v="נפולי"/>
    <tag k="name:hr" v="Napulj"/>
    <tag k="name:hu" v="Nápoly"/>
    <tag k="name:nap" v="Napule"/>
    <tag k="name:nl" v="Napels"/>
    <tag k="name:pl" v="Neapol"/>
    <tag k="name:pt" v="Nápoles"/>
    <tag k="name:ru" v="Неаполь"/>
    <tag k="name:sk" v="Neapol"/>
    <tag k="name:sl" v="Neapelj"/>
    <tag k="name:sv" v="Neapel"/>
    <tag k="place" v="city"/>
    <tag k="population" v="1004500"/>
    <tag k="rank" v="10"/>
    <tag k="source" v="geodati.gfoss.it"/>
    <tag k="wikipedia" v="Naples"/>
  </node>
  <node id="428339558" version="11" timestamp="2011-05-06T17:31:02Z" uid="445536" user="EGis" changeset="8067070" lat="40.8506962" lon="14.2463172">
    <tag k="capital" v="4"/>
    <tag k="gfoss_id" v="5387"/>
    <tag k="is_in" v="Napoli, Campania, Italy"/>
    <tag k="is_in:continent" v="Europe"/>
    <tag k="name" v="Napoli"/>
    <tag k="name:cs" v="Neapol"/>
    <tag k="name:de" v="Neapel"/>
    <tag k="name:en" v="Naples"/>
    <tag k="name:es" v="Nápoles"/>
    <tag k="name:fr" v="Naples"/>
    <tag k="name:he" v="נפולי"/>
    <tag k="name:hr" v="Napulj"/>
    <tag k="name:hu" v="Nápoly"/>
    <tag k="name:nap" v="Napule"/>
    <tag k="name:nl" v="Napels"/>
    <tag k="name:pl" v="Neapol"/>
    <tag k="name:pt" v="Nápoles"/>
    <tag k="name:ru" v="Неаполь"/>
    <tag k="name:sk" v="Neapol"/>
    <tag k="name:sl" v="Neapelj"/>
    <tag k="name:sv" v="Neapel"/>
    <tag k="place" v="city"/>
    <tag k="population" v="1004500"/>
    <tag k="rank" v="10"/>
    <tag k="source" v="geodati.gfoss.it"/>
    <tag k="wikipedia" v="Naples"/>
  </node>
  <node id="428339558" version="12" timestamp="2011-11-24T13:10:52Z" uid="26139" user="dieterdreist" changeset="9932908" lat="40.8506962" lon="14.2463172">
    <tag k="capital" v="4"/>
    <tag k="gfoss_id" v="5387"/>
    <tag k="is_in" v="Napoli, Campania, Italy"/>
    <tag k="is_in:continent" v="Europe"/>
    <tag k="name" v="Napoli"/>
    <tag k="name:cs" v="Neapol"/>
    <tag k="name:de" v="Neapel"/>
    <tag k="name:en" v="Naples"/>
    <tag k="name:es" v="Nápoles"/>
    <tag k="name:fr" v="Naples"/>
    <tag k="name:he" v="נפולי"/>
    <tag k="name:hr" v="Napulj"/>
    <tag k="name:hu" v="Nápoly"/>
    <tag k="name:nap" v="Napule"/>
    <tag k="name:nl" v="Napels"/>
    <tag k="name:pl" v="Neapol"/>
    <tag k="name:pt" v="Nápoles"/>
    <tag k="name:ru" v="Неаполь"/>
    <tag k="name:sk" v="Neapol"/>
    <tag k="name:sl" v="Neapelj"/>
    <tag k="name:sv" v="Neapel"/>
    <tag k="place" v="city"/>
    <tag k="population" v="1004500"/>
    <tag k="rank" v="10"/>
    <tag k="source" v="geodati.gfoss.it"/>
    <tag k="wikipedia" v="en:Naples"/>
  </node>
  <node id="428339558" version="13" timestamp="2012-03-08T14:43:11Z" uid="7045" user="Xuacu" changeset="10909736" lat="40.8506962" lon="14.2463172">
    <tag k="capital" v="4"/>
    <tag k="gfoss_id" v="5387"/>
    <tag k="is_in" v="Napoli, Campania, Italy"/>
    <tag k="is_in:continent" v="Europe"/>
    <tag k="name" v="Napoli"/>
    <tag k="name:ast" v="Nápoles"/>
    <tag k="name:cs" v="Neapol"/>
    <tag k="name:de" v="Neapel"/>
    <tag k="name:en" v="Naples"/>
    <tag k="name:es" v="Nápoles"/>
    <tag k="name:fr" v="Naples"/>
    <tag k="name:he" v="נפולי"/>
    <tag k="name:hr" v="Napulj"/>
    <tag k="name:hu" v="Nápoly"/>
    <tag k="name:nap" v="Napule"/>
    <tag k="name:nl" v="Napels"/>
    <tag k="name:pl" v="Neapol"/>
    <tag k="name:pt" v="Nápoles"/>
    <tag k="name:ru" v="Неаполь"/>
    <tag k="name:sk" v="Neapol"/>
    <tag k="name:sl" v="Neapelj"/>
    <tag k="name:sv" v="Neapel"/>
    <tag k="place" v="city"/>
    <tag k="population" v="1004500"/>
    <tag k="rank" v="10"/>
    <tag k="source" v="geodati.gfoss.it"/>
    <tag k="wikipedia" v="en:Naples"/>
  </node>
  <node id="428339584" version="2" timestamp="2009-07-22T17:27:25Z" uid="20587" user="balrog-kun" changeset="1907117" lat="38.7128305" lon="-9.13288">
    <tag k="capital" v="yes"/>
    <tag k="created_by" v="Potlatch 0.10f"/>
    <tag k="is_in" v="Portugal"/>
    <tag k="is_in:continent" v="Europe"/>
    <tag k="is_in:country" v="Portugal"/>
    <tag k="name" v="Lisboa"/>
    <tag k="name:de" v="Lissabon"/>
    <tag k="name:en" v="Lisbon"/>
    <tag k="name:fi" v="Lissabon"/>
    <tag k="name:fr" v="Lisbonne"/>
    <tag k="name:he" v="ליסבון"/>
    <tag k="name:it" v="Lisbona"/>
    <tag k="name:zh" v="里斯本"/>
    <tag k="name:zh_py" v="Liseben"/>
    <tag k="name:zh_pyt" v="Lǐsīběn"/>
    <tag k="place" v="city"/>
  </node>
</osm>
