<?xml version='1.0' encoding='UTF-8'?>
<osm version="0.6" generator="libosmium/2.20.0">
  <node id="430550074" version="1" timestamp="2009-06-29T01:21:01Z" uid="4467" user="Rosscoe" changeset="1672004" lat="-21.1399789" lon="148.6142394">
    <tag k="highway" v="ford"/>
  </node>
  <node id="430550114" version="1" timestamp="2009-06-29T01:21:26Z" uid="4467" user="Rosscoe" changeset="1672004" lat="-21.1345418" lon="148.6494405"/>
  <node id="430550120" version="1" timestamp="2009-06-29T01:21:29Z" uid="4467" user="Rosscoe" changeset="1672004" lat="-21.133421" lon="148.6493708"/>
  <node id="430551736" version="2" timestamp="2010-04-29T03:32:02Z" uid="4467" user="Rosscoe" changeset="4554998" lat="-38.0443166" lon="145.332883"/>
  <node id="430551812" version="2" timestamp="2009-06-30T04:30:05Z" uid="74617" user="JohnSmith" changeset="1684018" lat="-26.284241" lon="152.9922853">
    <tag k="leisure" v="playground"/>
  </node>
  <node id="430551816" version="3" timestamp="2010-05-02T03:21:58Z" uid="4467" user="Rosscoe" changeset="4580939" lat="-38.0572378" lon="145.3579385">
    <tag k="direction" v="clockwise"/>
    <tag k="highway" v="mini_roundabout"/>
  </node>
  <node id="430552651" version="1" timestamp="2009-06-29T01:55:36Z" uid="20587" user="balrog-kun" changeset="1672485" lat="52.4085425" lon="16.9385671"/>
  <node id="430552651" version="2" timestamp="2011-09-09T17:47:32Z" uid="91056" user="Yarl" changeset="9256309" lat="52.4085425" lon="16.9385671"/>
  <node id="430552652" version="1" timestamp="2009-06-29T01:55:36Z" uid="20587" user="balrog-kun" changeset="1672485" lat="52.4073311" lon="16.9396604">
    <tag k="amenity" v="place_of_worship"/>
    <tag k="denomination" v="catholic"/>
    <tag k="name" v="Kościół Wszystkich Świętych"/>
    <tag k="religion" v="christian"/>
    <tag k="wikipedia" v="pl:Kościół Wszystkich Świętych w Poznaniu"/>
  </node>
  <node id="430552652" version="2" timestamp="2011-09-08T18:08:17Z" uid="91056" user="Yarl" changeset="9247651" lat="52.4073311" lon="16.9396604"/>
  <node id="430552653" version="1" timestamp="2009-06-29T01:55:36Z" uid="20587" user="balrog-kun" changeset="1672485" lat="52.4070538" lon="16.9387512">
    <tag k="highway" v="crossing"/>
  </node>
  <node id="430552654" version="1" timestamp="2009-06-29T01:55:36Z" uid="20587" user="balrog-kun" changeset="1672485" lat="52.4611504" lon="16.82765">
    <tag k="amenity" v="restaurant"/>
    <tag k="name" v="Oaza"/>
  </node>
  <node id="430552655" version="1" timestamp="2009-06-29T01:55:36Z" uid="20587" user="balrog-kun" changeset="1672485" lat="52.4301919" lon="16.8782299">
    <tag k="amenity" v="fast_food"/>
    <tag k="cuisine" v="fish"/>
    <tag k="name" v="Smażalnia Ryb"/>
  </node>
  <node id="430552656" version="1" timestamp="2009-06-29T01:55:36Z" uid="20587" user="balrog-kun" changeset="1672485" lat="52.4079449" lon="16.9337394">
    <tag k="barrier" v="gate"/>
  </node>
  <node id="430552657" version="1" timestamp="2009-06-29T01:55:36Z" uid="20587" user="balrog-kun" changeset="1672485" lat="52.4075041" lon="16.9342823">
    <tag k="amenity" v="cafe"/>
    <tag k="name" v="Café Nescafe"/>
  </node>
  <node id="430552657" version="2" timestamp="2009-07-01T03:20:45Z" uid="20587" user="balrog-kun" changeset="1697137" lat="52.4075195" lon="16.934191">
    <tag k="amenity" v="cafe"/>
    <tag k="name" v="Café Nescafe"/>
  </node>
  <node id="430552657" version="3" timestamp="2011-09-08T20:58:58Z" uid="91056" user="Yarl" changeset="9249570" lat="52.4075345" lon="16.9342113">
    <tag k="amenity" v="cafe"/>
    <tag k="name" v="Café Nescafe"/>
  </node>
  <node id="430552658" version="1" timestamp="2009-06-29T01:55:36Z" uid="20587" user="balrog-kun" changeset="1672485" lat="52.4075158" lon="16.9341666">
    <tag k="alt_name" v="Ratuszowa"/>
    <tag k="amenity" v="restaurant"/>
    <tag k="name" v="Ratuszova"/>
  </node>
  <node id="430552658" version="2" timestamp="2009-07-01T03:20:45Z" uid="20587" user="balrog-kun" changeset="1697137" lat="52.4075288" lon="16.9340831">
    <tag k="alt_name" v="Ratuszowa"/>
    <tag k="amenity" v="restaurant"/>
    <tag k="name" v="Ratuszova"/>
  </node>
  <node id="430552658" version="3" timestamp="2011-09-08T20:59:03Z" uid="91056" user="Yarl" changeset="9249570" lat="52.407551" lon="16.9340788">
    <tag k="alt_name" v="Ratuszowa"/>
    <tag k="amenity" v="restaurant"/>
    <tag k="name" v="Ratuszova"/>
  </node>
  <node id="430552659" version="1" timestamp="2009-06-29T01:55:37Z" uid="20587" user="balrog-kun" changeset="1672485" lat="52.4075326" lon="16.934001">
    <tag k="amenity" v="pub"/>
    <tag k="name" v="SARP"/>
  </node>
  <node id="430552659" version="2" timestamp="2009-07-01T03:20:45Z" uid="20587" user="balrog-kun" changeset="1697137" lat="52.4075397" lon="16.9339524">
    <tag k="amenity" v="pub"/>
    <tag k="name" v="SARP"/>
  </node>
  <node id="430552659" version="3" timestamp="2011-09-08T20:59:03Z" uid="91056" user="Yarl" changeset="9249570" lat="52.4075658" lon="16.9339535">
    <tag k="amenity" v="pub"/>
    <tag k="name" v="SARP"/>
  </node>
  <node id="430552660" version="1" timestamp="2009-06-29T01:55:37Z" uid="20587" user="balrog-kun" changeset="1672485" lat="52.4075498" lon="16.9338312">
    <tag k="amenity" v="cafe"/>
    <tag k="name" v="Kawiarnia Kamienica"/>
  </node>
  <node id="430552660" version="2" timestamp="2010-07-23T22:19:57Z" uid="291927" user="Przemo" changeset="5299485" lat="52.4075498" lon="16.9338312">
    <tag k="amenity" v="cafe"/>
    <tag k="name" v="Kawiarnia Cafe Isabela"/>
  </node>
  <node id="430552660" version="3" timestamp="2011-09-08T20:59:02Z" uid="91056" user="Yarl" changeset="9249570" lat="52.4075792" lon="16.9338323">
    <tag k="amenity" v="cafe"/>
    <tag k="name" v="Kawiarnia Cafe Isabela"/>
  </node>
  <node id="430552661" version="1" timestamp="2009-06-29T01:55:37Z" uid="20587" user="balrog-kun" changeset="1672485" lat="52.4075627" lon="16.9337046">
    <tag k="amenity" v="photography"/>
    <tag k="name" v="FujiFilm"/>
    <tag k="operator" v="Fujifilm"/>
  </node>
  <node id="430552661" version="2" timestamp="2011-09-08T20:58:59Z" uid="91056" user="Yarl" changeset="9249570" lat="52.4075895" lon="16.9337121">
    <tag k="amenity" v="photography"/>
    <tag k="name" v="FujiFilm"/>
    <tag k="operator" v="Fujifilm"/>
  </node>
  <node id="430552662" version="1" timestamp="2009-06-29T01:55:37Z" uid="20587" user="balrog-kun" changeset="1672485" lat="52.4075751" lon="16.9335822">
    <tag k="name" v="Centrum Informacji Turystycznej"/>
    <tag k="tourism" v="information"/>
  </node>
  <node id="430552662" version="2" timestamp="2011-09-08T20:58:58Z" uid="91056" user="Yarl" changeset="9249570" lat="52.4076025" lon="16.9336143">
    <tag k="name" v="Centrum Informacji Turystycznej"/>
    <tag k="tourism" v="information"/>
  </node>
  <node id="430552663" version="1" timestamp="2009-06-29T01:55:37Z" uid="20587" user="balrog-kun" changeset="1672485" lat="52.4075861" lon="16.9334736">
    <tag k="amenity" v="pub"/>
    <tag k="name" v="Tapas Bar"/>
  </node>
  <node id="430552663" version="2" timestamp="2011-09-08T20:59:03Z" uid="91056" user="Yarl" changeset="9249570" lat="52.4076129" lon="16.9335068">
    <tag k="amenity" v="pub"/>
    <tag k="name" v="Tapas Bar"/>
  </node>
  <node id="430552664" version="1" timestamp="2009-06-29T01:55:37Z" uid="20587" user="balrog-kun" changeset="1672485" lat="52.4099833" lon="16.930653"/>
  <node id="430552664" version="2" timestamp="2010-03-11T12:22:42Z" uid="19417" user="xjr" changeset="4097227" lat="52.4099736" lon="16.9306354"/>
  <node id="430552664" version="3" timestamp="2010-12-11T20:39:59Z" uid="19417" user="xjr" changeset="6629328" lat="52.4100068" lon="16.9306253"/>
  <node id="430552664" version="4" timestamp="2011-02-14T18:37:51Z" uid="88909" user="miko101" changeset="7288301" lat="52.4100068" lon="16.9306253"/>
  <node id="430552665" version="1" timestamp="2009-06-29T01:55:37Z" uid="20587" user="balrog-kun" changeset="1672485" lat="52.4100275" lon="16.930697"/>
  <node id="430552665" version="2" timestamp="2010-03-11T12:22:42Z" uid="19417" user="xjr" changeset="4097227" lat="52.4100904" lon="16.9307697"/>
  <node id="430552665" version="3" timestamp="2010-12-11T20:39:57Z" uid="19417" user="xjr" changeset="6629328" lat="52.4100992" lon="16.9307713"/>
  <node id="430552665" version="4" timestamp="2011-02-14T18:37:51Z" uid="88909" user="miko101" changeset="7288301" lat="52.4100992" lon="16.9307713"/>
  <node id="430552666" version="1" timestamp="2009-06-29T01:55:37Z" uid="20587" user="balrog-kun" changeset="1672485" lat="52.4102694" lon="16.9162866">
    <tag k="amenity" v="pub"/>
    <tag k="name" v="Stajenka Pegaza"/>
  </node>
  <node id="430552666" version="2" timestamp="2011-09-01T20:31:10Z" uid="91056" user="Yarl" changeset="9188240" lat="52.4102694" lon="16.9162866"/>
  <node id="430552667" version="1" timestamp="2009-06-29T01:55:37Z" uid="20587" user="balrog-kun" changeset="1672485" lat="52.409464" lon="16.9146052"/>
  <node id="430552667" version="2" timestamp="2011-09-10T21:16:23Z" uid="91056" user="Yarl" changeset="9265922" lat="52.4095002" lon="16.9147188"/>
  <node id="430552668" version="1" timestamp="2009-06-29T01:55:37Z" uid="20587" user="balrog-kun" changeset="1672485" lat="52.4076111" lon="16.9332627">
    <tag k="shop" v="accessories"/>
  </node>
  <node id="430552668" version="2" timestamp="2011-09-08T20:59:06Z" uid="91056" user="Yarl" changeset="9249570" lat="52.4076266" lon="16.9332667">
    <tag k="shop" v="accessories"/>
  </node>
  <node id="430552669" version="1" timestamp="2009-06-29T01:55:37Z" uid="20587" user="balrog-kun" changeset="1672485" lat="52.4076237" lon="16.9331516">
    <tag k="amenity" v="restaurant"/>
    <tag k="name" v="Dom Vikingów"/>
  </node>
  <node id="430552669" version="2" timestamp="2011-09-08T20:58:58Z" uid="91056" user="Yarl" changeset="9249570" lat="52.4076392" lon="16.9331449">
    <tag k="amenity" v="restaurant"/>
    <tag k="name" v="Dom Vikingów"/>
  </node>
  <node id="430552670" version="1" timestamp="2009-06-29T01:55:37Z" uid="20587" user="balrog-kun" changeset="1672485" lat="52.4075796" lon="16.9329809">
    <tag k="name" v="Księgarnia Powszechna"/>
    <tag k="shop" v="books"/>
  </node>
  <node id="430552671" version="1" timestamp="2009-06-29T01:55:37Z" uid="20587" user="balrog-kun" changeset="1672485" lat="52.4076584" lon="16.9330068">
    <tag k="amenity" v="pub"/>
    <tag k="name" v="Alter Ego"/>
  </node>
  <node id="430552671" version="2" timestamp="2011-09-08T20:58:57Z" uid="91056" user="Yarl" changeset="9249570" lat="52.4076551" lon="16.9330188">
    <tag k="amenity" v="pub"/>
    <tag k="name" v="Alter Ego"/>
  </node>
  <node id="430552672" version="1" timestamp="2009-06-29T01:55:37Z" uid="20587" user="balrog-kun" changeset="1672485" lat="52.4076569" lon="16.932862">
    <tag k="addr:housenumber" v="65"/>
    <tag k="addr:street" v="Stary Rynek"/>
    <tag k="amenity" v="restaurant"/>
    <tag k="name" v="Klub 65"/>
    <tag k="note" v="also a club"/>
  </node>
  <node id="430552672" version="2" timestamp="2011-09-08T20:59:02Z" uid="91056" user="Yarl" changeset="9249570" lat="52.4076642" lon="16.9329235">
    <tag k="addr:housenumber" v="65"/>
    <tag k="addr:street" v="Stary Rynek"/>
    <tag k="amenity" v="restaurant"/>
    <tag k="name" v="Klub 65"/>
    <tag k="note" v="also a club"/>
  </node>
  <node id="430552673" version="1" timestamp="2009-06-29T01:55:37Z" uid="20587" user="balrog-kun" changeset="1672485" lat="52.4076758" lon="16.932725">
    <tag k="amenity" v="fast_food"/>
    <tag k="cuisine" v="kebab; chicken"/>
    <tag k="name" v="Ali Baba"/>
  </node>
  <node id="430552673" version="2" timestamp="2011-09-08T20:58:57Z" uid="91056" user="Yarl" changeset="9249570" lat="52.4076872" lon="16.932733">
    <tag k="amenity" v="fast_food"/>
    <tag k="cuisine" v="kebab; chicken"/>
    <tag k="name" v="Ali Baba"/>
  </node>
  <node id="430552674" version="1" timestamp="2009-06-29T01:55:37Z" uid="20587" user="balrog-kun" changeset="1672485" lat="52.4076679" lon="16.9325699">
    <tag k="amenity" v="restaurant"/>
    <tag k="cuisine" v="burger"/>
    <tag k="name" v="Sioux"/>
  </node>
  <node id="430552674" version="2" timestamp="2011-09-08T20:59:03Z" uid="91056" user="Yarl" changeset="9249570" lat="52.4077062" lon="16.9325177">
    <tag k="amenity" v="restaurant"/>
    <tag k="cuisine" v="burger"/>
    <tag k="name" v="Sioux"/>
  </node>
  <node id="430552675" version="1" timestamp="2009-06-29T01:55:37Z" uid="20587" user="balrog-kun" changeset="1672485" lat="52.4077616" lon="16.9324023"/>
  <node id="430552675" version="2" timestamp="2011-01-05T20:58:21Z" uid="101884" user="Antwelm" changeset="6876197" lat="52.4077525" lon="16.9324303"/>
  <node id="430552675" version="3" timestamp="2011-09-08T21:59:51Z" uid="91056" user="Yarl" changeset="9249724" lat="52.4077574" lon="16.9323854"/>
  <node id="430552676" version="1" timestamp="2009-06-29T01:55:37Z" uid="20587" user="balrog-kun" changeset="1672485" lat="52.4081489" lon="16.9354577">
    <tag k="addr:housenumber" v="2/3"/>
    <tag k="addr:street" v="Woźna"/>
    <tag k="amenity" v="restaurant"/>
    <tag k="cuisine" v="jewish"/>
    <tag k="name" v="Cymes Restauracja Żydowska"/>
  </node>
  <node id="430552676" version="2" timestamp="2009-06-30T20:35:42Z" uid="20587" user="balrog-kun" changeset="1695853" lat="52.4081612" lon="16.9356894">
    <tag k="addr:housenumber" v="2/3"/>
    <tag k="addr:street" v="Woźna"/>
    <tag k="amenity" v="restaurant"/>
    <tag k="cuisine" v="jewish"/>
    <tag k="name" v="Cymes Restauracja Żydowska"/>
  </node>
  <node id="430552676" version="3" timestamp="2011-09-09T12:52:30Z" uid="91056" user="Yarl" changeset="9254140" lat="52.4081002" lon="16.9356621">
    <tag k="addr:housenumber" v="2/3"/>
    <tag k="addr:street" v="Woźna"/>
    <tag k="amenity" v="restaurant"/>
    <tag k="cuisine" v="jewish"/>
    <tag k="name" v="Cymes Restauracja Żydowska"/>
  </node>
  <node id="430552677" version="1" timestamp="2009-06-29T01:55:37Z" uid="20587" user="balrog-kun" changeset="1672485" lat="52.4086962" lon="16.9352663">
    <tag k="amenity" v="cafe"/>
    <tag k="name" v="Cute"/>
  </node>
  <node id="430552677" version="2" timestamp="2009-06-29T11:49:38Z" uid="20587" user="balrog-kun" changeset="1676112" lat="52.4086962" lon="16.9352663">
    <tag k="addr:housenumber" v="27/29"/>
    <tag k="addr:street" v="Wielka"/>
    <tag k="amenity" v="cafe"/>
    <tag k="name" v="Cute"/>
  </node>
  <node id="430552677" version="3" timestamp="2009-06-30T20:35:42Z" uid="20587" user="balrog-kun" changeset="1695853" lat="52.4086808" lon="16.9352462">
    <tag k="addr:housenumber" v="27/29"/>
    <tag k="addr:street" v="Wielka"/>
    <tag k="amenity" v="cafe"/>
    <tag k="name" v="Cute"/>
  </node>
  <node id="430552678" version="1" timestamp="2009-06-29T01:55:37Z" uid="20587" user="balrog-kun" changeset="1672485" lat="52.40816" lon="16.9341211">
    <tag k="name" v="Chart"/>
    <tag k="shop" v="jewellery"/>
  </node>
  <node id="430552678" version="2" timestamp="2010-01-14T16:18:12Z" uid="45284" user="Eric S" changeset="3617989" lat="52.40816" lon="16.9341211">
    <tag k="name" v="Chart"/>
    <tag k="shop" v="jewelry"/>
  </node>
  <node id="430552679" version="1" timestamp="2009-06-29T01:55:37Z" uid="20587" user="balrog-kun" changeset="1672485" lat="52.4083792" lon="16.9341469">
    <tag k="amenity" v="cafe"/>
    <tag k="name" v="PostOffice Café"/>
  </node>
  <node id="430552680" version="1" timestamp="2009-06-29T01:55:38Z" uid="20587" user="balrog-kun" changeset="1672485" lat="52.4083918" lon="16.9340357">
    <tag k="name" v="Antykwariat"/>
    <tag k="shop" v="jewellery"/>
  </node>
  <node id="430552680" version="2" timestamp="2010-01-14T16:18:11Z" uid="45284" user="Eric S" changeset="3617989" lat="52.4083918" lon="16.9340357">
    <tag k="name" v="Antykwariat"/>
    <tag k="shop" v="jewelry"/>
  </node>
  <node id="430552681" version="1" timestamp="2009-06-29T01:55:38Z" uid="20587" user="balrog-kun" changeset="1672485" lat="52.4083981" lon="16.9339039">
    <tag k="amenity" v="cafe"/>
    <tag k="name" v="Fuego"/>
  </node>
  <node id="430552682" version="1" timestamp="2009-06-29T01:55:38Z" uid="20587" user="balrog-kun" changeset="1672485" lat="52.4084312" lon="16.9337643">
    <tag k="amenity" v="toilets"/>
  </node>
  <node id="430552683" version="1" timestamp="2009-06-29T01:55:38Z" uid="20587" user="balrog-kun" changeset="1672485" lat="52.4085558" lon="16.9335239">
    <tag k="amenity" v="restaurant"/>
    <tag k="name" v="Restauracja Bamberka"/>
  </node>
  <node id="430552684" version="1" timestamp="2009-06-29T01:55:38Z" uid="20587" user="balrog-kun" changeset="1672485" lat="52.4085053" lon="16.934408">
    <tag k="man_made" v="elephants"/>
    <tag k="note" v="temporary"/>
    <tag k="tourism" v="artwork"/>
  </node>
  <node id="430552685" version="1" timestamp="2009-06-29T01:55:38Z" uid="20587" user="balrog-kun" changeset="1672485" lat="52.4089974" lon="16.9322209">
    <tag k="amenity" v="restaurant"/>
    <tag k="cuisine" v="italian"/>
    <tag k="name" v="La Scala"/>
  </node>
  <node id="430552685" version="2" timestamp="2009-06-30T20:35:41Z" uid="20587" user="balrog-kun" changeset="1695853" lat="52.4089728" lon="16.9321906">
    <tag k="amenity" v="restaurant"/>
    <tag k="cuisine" v="italian"/>
    <tag k="name" v="La Scala"/>
  </node>
  <node id="430552685" version="3" timestamp="2011-09-09T10:53:06Z" uid="91056" user="Yarl" changeset="9253281" lat="52.4089804" lon="16.9321878">
    <tag k="amenity" v="restaurant"/>
    <tag k="cuisine" v="italian"/>
    <tag k="name" v="La Scala"/>
  </node>
  <node id="430552686" version="1" timestamp="2009-06-29T01:55:38Z" uid="20587" user="balrog-kun" changeset="1672485" lat="52.4090605" lon="16.9335239">
    <tag k="name" v="PTTK"/>
    <tag k="tourism" v="hostel"/>
  </node>
  <node id="430552686" version="2" timestamp="2011-09-09T10:53:07Z" uid="91056" user="Yarl" changeset="9253281" lat="52.4089292" lon="16.9334101">
    <tag k="name" v="PTTK"/>
    <tag k="tourism" v="hostel"/>
  </node>
  <node id="430552687" version="1" timestamp="2009-06-29T01:55:38Z" uid="20587" user="balrog-kun" changeset="1672485" lat="52.4090904" lon="16.9329448">
    <tag k="name" v="Aweg"/>
    <tag k="shop" v="jewellery"/>
  </node>
  <node id="430552687" version="2" timestamp="2009-06-30T20:35:41Z" uid="20587" user="balrog-kun" changeset="1695853" lat="52.4091243" lon="16.9329296">
    <tag k="name" v="Aweg"/>
    <tag k="shop" v="jewellery"/>
  </node>
  <node id="430552687" version="3" timestamp="2010-01-14T16:18:10Z" uid="45284" user="Eric S" changeset="3617989" lat="52.4091243" lon="16.9329296">
    <tag k="name" v="Aweg"/>
    <tag k="shop" v="jewelry"/>
  </node>
  <node id="430552687" version="4" timestamp="2011-09-09T10:53:03Z" uid="91056" user="Yarl" changeset="9253281" lat="52.409098" lon="16.9328727">
    <tag k="name" v="Aweg"/>
    <tag k="shop" v="jewelry"/>
  </node>
  <node id="430552688" version="1" timestamp="2009-06-29T01:55:38Z" uid="20587" user="balrog-kun" changeset="1672485" lat="52.4089832" lon="16.9327509"/>
  <node id="430552688" version="2" timestamp="2011-04-07T17:18:23Z" uid="338611" user="marek kleciak" changeset="7796464" lat="52.408977" lon="16.932731"/>
  <node id="430552688" version="3" timestamp="2011-04-07T17:20:55Z" uid="338611" user="marek kleciak" changeset="7796464" lat="52.4089646" lon="16.9327013"/>
  <node id="430552688" version="4" timestamp="2011-09-09T10:53:12Z" uid="91056" user="Yarl" changeset="9253281" lat="52.4089513" lon="16.9327377"/>
  <node id="430552689" version="1" timestamp="2009-06-29T01:55:38Z" uid="20587" user="balrog-kun" changeset="1672485" lat="52.4089264" lon="16.9327069">
    <tag k="name" v="Muzeum Henryka Sienkiewicza"/>
    <tag k="tourism" v="museum"/>
  </node>
  <node id="430552689" version="2" timestamp="2011-06-17T11:03:08Z" uid="91056" user="Yarl" changeset="8463602" lat="52.4089264" lon="16.9327069"/>
  <node id="430552690" version="1" timestamp="2009-06-29T01:55:39Z" uid="20587" user="balrog-kun" changeset="1672485" lat="52.4085526" lon="16.9336435"/>
  <node id="430552691" version="1" timestamp="2009-06-29T01:55:39Z" uid="20587" user="balrog-kun" changeset="1672485" lat="52.4084948" lon="16.9331968"/>
  <node id="430552692" version="1" timestamp="2009-06-29T01:55:39Z" uid="20587" user="balrog-kun" changeset="1672485" lat="52.4074834" lon="16.9342503">
    <tag k="addr:housenumber" v="53"/>
    <tag k="addr:street" v="Stary Rynek"/>
    <tag k="source" v="survey"/>
  </node>
  <node id="430552692" version="2" timestamp="2011-09-08T20:59:08Z" uid="91056" user="Yarl" changeset="9249570" lat="52.4074834" lon="16.9342503"/>
  <node id="430552693" version="1" timestamp="2009-06-29T01:55:39Z" uid="20587" user="balrog-kun" changeset="1672485" lat="52.4076553" lon="16.9325389">
    <tag k="addr:housenumber" v="68"/>
    <tag k="addr:street" v="Stary Rynek"/>
    <tag k="source" v="survey"/>
  </node>
  <node id="430552693" version="2" timestamp="2009-07-01T03:20:46Z" uid="20587" user="balrog-kun" changeset="1697137" lat="52.4076427" lon="16.932618">
    <tag k="addr:housenumber" v="69"/>
    <tag k="addr:street" v="Stary Rynek"/>
    <tag k="source" v="survey"/>
  </node>
  <node id="430552693" version="3" timestamp="2011-09-08T20:59:08Z" uid="91056" user="Yarl" changeset="9249570" lat="52.4076427" lon="16.932618"/>
  <node id="430552694" version="1" timestamp="2009-06-29T01:55:39Z" uid="20587" user="balrog-kun" changeset="1672485" lat="52.4079171" lon="16.9323165">
    <tag k="addr:housenumber" v="70"/>
    <tag k="addr:street" v="Stary Rynek"/>
    <tag k="source" v="survey"/>
  </node>
  <node id="430552694" version="2" timestamp="2009-07-01T03:20:46Z" uid="20587" user="balrog-kun" changeset="1697137" lat="52.4079171" lon="16.9323165">
    <tag k="addr:housenumber" v="71"/>
    <tag k="addr:street" v="Stary Rynek"/>
    <tag k="source" v="survey"/>
  </node>
  <node id="430552694" version="3" timestamp="2011-09-08T21:59:48Z" uid="91056" user="Yarl" changeset="9249724" lat="52.4079429" lon="16.9323364">
    <tag k="addr:city" v="Poznań"/>
    <tag k="addr:country" v="PL"/>
    <tag k="addr:housenumber" v="71/72"/>
    <tag k="addr:postcode" v="61-001"/>
    <tag k="addr:street" v="Stary Rynek"/>
    <tag k="source" v="survey"/>
  </node>
  <node id="430552695" version="1" timestamp="2009-06-29T01:55:39Z" uid="20587" user="balrog-kun" changeset="1672485" lat="52.408898" lon="16.9326138">
    <tag k="addr:housenumber" v="84"/>
    <tag k="addr:street" v="Stary Rynek"/>
    <tag k="source" v="survey"/>
  </node>
  <node id="430552695" version="2" timestamp="2009-07-01T03:20:46Z" uid="20587" user="balrog-kun" changeset="1697137" lat="52.4088393" lon="16.9326001">
    <tag k="addr:housenumber" v="84"/>
    <tag k="addr:street" v="Stary Rynek"/>
    <tag k="source" v="survey"/>
  </node>
  <node id="430552695" version="3" timestamp="2011-06-17T11:02:55Z" uid="91056" user="Yarl" changeset="8463602" lat="52.4088684" lon="16.9326232">
    <tag k="addr:housenumber" v="84"/>
    <tag k="addr:street" v="Stary Rynek"/>
    <tag k="source" v="survey"/>
  </node>
  <node id="430552695" version="4" timestamp="2011-09-09T10:53:14Z" uid="91056" user="Yarl" changeset="9253281" lat="52.4088684" lon="16.9326232"/>
  <node id="430552696" version="1" timestamp="2009-06-29T01:55:39Z" uid="20587" user="balrog-kun" changeset="1672485" lat="52.4091046" lon="16.9330275">
    <tag k="addr:housenumber" v="85"/>
    <tag k="addr:street" v="Stary Rynek"/>
    <tag k="source" v="survey"/>
  </node>
  <node id="430552696" version="2" timestamp="2011-09-09T10:53:06Z" uid="91056" user="Yarl" changeset="9253281" lat="52.4090209" lon="16.9329054">
    <tag k="addr:city" v="Poznań"/>
    <tag k="addr:country" v="PL"/>
    <tag k="addr:housenumber" v="85"/>
    <tag k="addr:postcode" v="61-001"/>
    <tag k="addr:street" v="Stary Rynek"/>
    <tag k="source" v="survey"/>
  </node>
  <node id="430552697" version="1" timestamp="2009-06-29T01:55:39Z" uid="20587" user="balrog-kun" changeset="1672485" lat="52.4089469" lon="16.9346588">
    <tag k="addr:housenumber" v="100"/>
    <tag k="addr:street" v="Stary Rynek"/>
    <tag k="source" v="survey"/>
  </node>
  <node id="430552697" version="2" timestamp="2011-09-09T10:53:13Z" uid="91056" user="Yarl" changeset="9253281" lat="52.4089469" lon="16.9346588"/>
  <node id="430552698" version="1" timestamp="2009-06-29T01:55:39Z" uid="20587" user="balrog-kun" changeset="1672485" lat="52.4086836" lon="16.934982">
    <tag k="addr:housenumber" v="37"/>
    <tag k="addr:street" v="Stary Rynek"/>
    <tag k="source" v="survey"/>
  </node>
  <node id="430552698" version="2" timestamp="2009-07-01T03:20:45Z" uid="20587" user="balrog-kun" changeset="1697137" lat="52.4086332" lon="16.9349716">
    <tag k="addr:housenumber" v="37"/>
    <tag k="addr:street" v="Stary Rynek"/>
    <tag k="source" v="survey"/>
  </node>
  <node id="430552698" version="3" timestamp="2011-09-09T12:52:53Z" uid="91056" user="Yarl" changeset="9254140" lat="52.4086332" lon="16.9349716"/>
  <node id="430552699" version="1" timestamp="2009-06-29T01:55:39Z" uid="20587" user="balrog-kun" changeset="1672485" lat="52.4076852" lon="16.9346433">
    <tag k="addr:housenumber" v="52"/>
    <tag k="addr:street" v="Stary Rynek"/>
    <tag k="source" v="survey"/>
  </node>
  <node id="430552699" version="2" timestamp="2009-07-01T03:20:46Z" uid="20587" user="balrog-kun" changeset="1697137" lat="52.407723" lon="16.9346536">
    <tag k="addr:housenumber" v="52"/>
    <tag k="addr:street" v="Stary Rynek"/>
    <tag k="source" v="survey"/>
  </node>
  <node id="430552699" version="3" timestamp="2011-04-09T12:20:15Z" uid="338611" user="marek kleciak" changeset="7812754" lat="52.4077118" lon="16.9345169">
    <tag k="addr:housenumber" v="52"/>
    <tag k="addr:street" v="Stary Rynek"/>
    <tag k="source" v="survey"/>
  </node>
  <node id="430552699" version="4" timestamp="2011-09-08T21:13:47Z" uid="91056" user="Yarl" changeset="9249724" lat="52.4077118" lon="16.9345169"/>
  <node id="430552700" version="1" timestamp="2009-06-29T01:55:39Z" uid="20587" user="balrog-kun" changeset="1672485" lat="52.4080716" lon="16.9332446">
    <tag k="addr:housenumber" v="5"/>
    <tag k="addr:street" v="Stary Rynek"/>
    <tag k="source" v="survey"/>
  </node>
  <node id="430552701" version="1" timestamp="2009-06-29T01:55:39Z" uid="20587" user="balrog-kun" changeset="1672485" lat="52.4079865" lon="16.933878">
    <tag k="addr:housenumber" v="9/10"/>
    <tag k="addr:street" v="Stary Rynek"/>
    <tag k="source" v="survey"/>
  </node>
  <node id="430552702" version="1" timestamp="2009-06-29T01:55:40Z" uid="20587" user="balrog-kun" changeset="1672485" lat="52.4079754" lon="16.9340564">
    <tag k="addr:housenumber" v="11"/>
    <tag k="addr:street" v="Stary Rynek"/>
    <tag k="source" v="survey"/>
  </node>
  <node id="430552703" version="1" timestamp="2009-06-29T01:55:40Z" uid="20587" user="balrog-kun" changeset="1672485" lat="52.4083555" lon="16.9341081">
    <tag k="addr:housenumber" v="26"/>
    <tag k="addr:street" v="Stary Rynek"/>
    <tag k="source" v="survey"/>
  </node>
  <node id="430552703" version="2" timestamp="2009-07-01T03:20:45Z" uid="20587" user="balrog-kun" changeset="1697137" lat="52.4083501" lon="16.9341117">
    <tag k="addr:housenumber" v="26"/>
    <tag k="addr:street" v="Stary Rynek"/>
    <tag k="source" v="survey"/>
  </node>
  <node id="430552704" version="1" timestamp="2009-06-29T01:55:40Z" uid="20587" user="balrog-kun" changeset="1672485" lat="52.4075589" lon="16.9334984">
    <tag k="addr:housenumber" v="60"/>
    <tag k="addr:street" v="Stary Rynek"/>
    <tag k="source" v="survey"/>
  </node>
  <node id="430552704" version="2" timestamp="2009-07-01T03:20:44Z" uid="20587" user="balrog-kun" changeset="1697137" lat="52.4075463" lon="16.933636">
    <tag k="addr:housenumber" v="60"/>
    <tag k="addr:street" v="Stary Rynek"/>
    <tag k="source" v="survey"/>
  </node>
  <node id="430552704" version="3" timestamp="2011-09-08T20:59:08Z" uid="91056" user="Yarl" changeset="9249570" lat="52.4075463" lon="16.933636"/>
  <node id="430552705" version="1" timestamp="2009-06-29T01:55:40Z" uid="20587" user="balrog-kun" changeset="1672485" lat="52.4075891" lon="16.9331973">
    <tag k="addr:housenumber" v="61"/>
    <tag k="addr:street" v="Stary Rynek"/>
    <tag k="source" v="survey"/>
  </node>
  <node id="430552705" version="2" timestamp="2011-09-08T20:59:08Z" uid="91056" user="Yarl" changeset="9249570" lat="52.4075891" lon="16.9331973"/>
  <node id="430552706" version="1" timestamp="2009-06-29T01:55:40Z" uid="20587" user="balrog-kun" changeset="1672485" lat="52.4083089" lon="16.9324353">
    <tag k="addr:housenumber" v="77"/>
    <tag k="addr:street" v="Stary Rynek"/>
  </node>
  <node id="430552706" version="2" timestamp="2009-07-01T03:20:44Z" uid="20587" user="balrog-kun" changeset="1697137" lat="52.4082418" lon="16.9324215">
    <tag k="addr:housenumber" v="77"/>
    <tag k="addr:street" v="Stary Rynek"/>
  </node>
  <node id="430552706" version="3" timestamp="2011-09-08T21:59:51Z" uid="91056" user="Yarl" changeset="9249724" lat="52.4082418" lon="16.9324215"/>
  <node id="430552707" version="1" timestamp="2009-06-29T01:55:40Z" uid="20587" user="balrog-kun" changeset="1672485" lat="52.4085011" lon="16.9324935">
    <tag k="addr:housenumber" v="78"/>
    <tag k="addr:street" v="Stary Rynek"/>
    <tag k="source" v="survey"/>
  </node>
  <node id="430552707" version="2" timestamp="2011-09-09T10:53:06Z" uid="91056" user="Yarl" changeset="9253281" lat="52.4084417" lon="16.9325487">
    <tag k="addr:city" v="Poznań"/>
    <tag k="addr:country" v="PL"/>
    <tag k="addr:housenumber" v="78"/>
    <tag k="addr:postcode" v="61-001"/>
    <tag k="addr:street" v="Stary Rynek"/>
    <tag k="source" v="survey"/>
  </node>
  <node id="430552708" version="1" timestamp="2009-06-29T01:55:40Z" uid="20587" user="balrog-kun" changeset="1672485" lat="52.4090405" lon="16.9336907">
    <tag k="addr:housenumber" v="91"/>
    <tag k="addr:street" v="Stary Rynek"/>
    <tag k="source" v="survey"/>
  </node>
  <node id="430552708" version="2" timestamp="2011-09-09T10:53:14Z" uid="91056" user="Yarl" changeset="9253281" lat="52.4090405" lon="16.9336907"/>
  <node id="430552709" version="1" timestamp="2009-06-29T01:55:40Z" uid="20587" user="balrog-kun" changeset="1672485" lat="52.4090088" lon="16.9340191">
    <tag k="addr:housenumber" v="92"/>
    <tag k="addr:street" v="Stary Rynek"/>
    <tag k="source" v="survey"/>
  </node>
  <node id="430552709" version="2" timestamp="2011-09-09T10:53:06Z" uid="91056" user="Yarl" changeset="9253281" lat="52.4089489" lon="16.9339664">
    <tag k="addr:city" v="Poznań"/>
    <tag k="addr:country" v="PL"/>
    <tag k="addr:housenumber" v="92"/>
    <tag k="addr:postcode" v="61-001"/>
    <tag k="addr:street" v="Stary Rynek"/>
  </node>
  <node id="430552710" version="1" timestamp="2009-06-29T01:55:40Z" uid="20587" user="balrog-kun" changeset="1672485" lat="52.4082408" lon="16.9348317">
    <tag k="addr:housenumber" v="44"/>
    <tag k="addr:street" v="Stary Rynek"/>
    <tag k="source" v="survey"/>
  </node>
  <node id="430552710" version="2" timestamp="2009-07-01T03:20:44Z" uid="20587" user="balrog-kun" changeset="1697137" lat="52.4082869" lon="16.9348524">
    <tag k="addr:housenumber" v="44"/>
    <tag k="addr:street" v="Stary Rynek"/>
    <tag k="source" v="survey"/>
  </node>
  <node id="430552710" version="3" timestamp="2011-09-09T12:52:53Z" uid="91056" user="Yarl" changeset="9254140" lat="52.4082869" lon="16.9348524"/>
  <node id="430552711" version="1" timestamp="2009-06-29T01:55:40Z" uid="20587" user="balrog-kun" changeset="1672485" lat="52.4080657" lon="16.9347724">
    <tag k="addr:housenumber" v="45"/>
    <tag k="addr:street" v="Stary Rynek"/>
    <tag k="source" v="survey"/>
  </node>
  <node id="430552711" version="2" timestamp="2009-07-01T03:20:44Z" uid="20587" user="balrog-kun" changeset="1697137" lat="52.408009" lon="16.9347517">
    <tag k="addr:housenumber" v="45"/>
    <tag k="addr:street" v="Stary Rynek"/>
    <tag k="source" v="survey"/>
  </node>
  <node id="430552711" version="3" timestamp="2011-04-09T12:20:15Z" uid="338611" user="marek kleciak" changeset="7812754" lat="52.4079978" lon="16.934615">
    <tag k="addr:housenumber" v="45"/>
    <tag k="addr:street" v="Stary Rynek"/>
    <tag k="source" v="survey"/>
  </node>
  <node id="430552711" version="4" timestamp="2011-09-08T21:13:41Z" uid="91056" user="Yarl" changeset="9249724" lat="52.4080612" lon="16.934671">
    <tag k="addr:city" v="Poznań"/>
    <tag k="addr:country" v="PL"/>
    <tag k="addr:housenumber" v="45"/>
    <tag k="addr:postcode" v="61-001"/>
    <tag k="addr:street" v="Stary Rynek"/>
  </node>
  <node id="430552712" version="1" timestamp="2009-06-29T01:55:40Z" uid="20587" user="balrog-kun" changeset="1672485" lat="52.408059" lon="16.9340678">
    <tag k="addr:housenumber" v="11/17"/>
    <tag k="addr:street" v="Stary Rynek"/>
    <tag k="source" v="survey"/>
  </node>
  <node id="430552713" version="1" timestamp="2009-06-29T01:55:40Z" uid="20587" user="balrog-kun" changeset="1672485" lat="52.4073901" lon="16.9342085">
    <tag k="amenity" v="pub"/>
  </node>
  <node id="430552713" version="2" timestamp="2009-07-01T03:20:45Z" uid="20587" user="balrog-kun" changeset="1697137" lat="52.4073865" lon="16.9342571">
    <tag k="amenity" v="pub"/>
    <tag k="name" v="Biały Kruk"/>
  </node>
  <node id="430552713" version="3" timestamp="2009-07-01T20:59:50Z" uid="123700" user="Mala" changeset="1705034" lat="52.4074297" lon="16.9342756">
    <tag k="amenity" v="pub"/>
    <tag k="name" v="Biały Kruk"/>
  </node>
  <node id="430552713" version="4" timestamp="2011-09-08T20:58:57Z" uid="91056" user="Yarl" changeset="9249570" lat="52.4074336" lon="16.9342863">
    <tag k="amenity" v="pub"/>
    <tag k="name" v="Biały Kruk"/>
  </node>
  <node id="430552714" version="1" timestamp="2009-06-29T01:55:40Z" uid="20587" user="balrog-kun" changeset="1672485" lat="52.407261" lon="16.9341632">
    <tag k="amenity" v="restaurant"/>
    <tag k="name" v="Deserownia"/>
  </node>
  <node id="430552714" version="2" timestamp="2009-06-30T20:35:41Z" uid="20587" user="balrog-kun" changeset="1695853" lat="52.407261" lon="16.9341632">
    <tag k="amenity" v="restaurant"/>
    <tag k="name" v="Deserovnia"/>
  </node>
  <node id="430552714" version="3" timestamp="2009-07-01T03:20:45Z" uid="20587" user="balrog-kun" changeset="1697137" lat="52.4072669" lon="16.9342214">
    <tag k="amenity" v="restaurant"/>
    <tag k="name" v="Deserovnia"/>
  </node>
  <node id="430552714" version="4" timestamp="2009-07-01T20:59:50Z" uid="123700" user="Mala" changeset="1705034" lat="52.4073495" lon="16.9342583">
    <tag k="amenity" v="restaurant"/>
    <tag k="name" v="Deserovnia"/>
  </node>
  <node id="430552806" version="1" timestamp="2009-06-29T01:57:13Z" uid="123700" user="Mala" changeset="1672488" lat="52.4089296" lon="16.9342426">
    <tag k="amenity" v="restaurant"/>
    <tag k="name" v="Gospoda Pod Koziołkami"/>
  </node>
  <node id="430552806" version="2" timestamp="2011-09-09T10:53:04Z" uid="91056" user="Yarl" changeset="9253281" lat="52.4088545" lon="16.9342119">
    <tag k="amenity" v="restaurant"/>
    <tag k="name" v="Gospoda Pod Koziołkami"/>
  </node>
  <node id="430552807" version="1" timestamp="2009-06-29T01:57:13Z" uid="123700" user="Mala" changeset="1672488" lat="52.4079581" lon="16.9323682">
    <tag k="shop" v="souvenirs"/>
  </node>
  <node id="430552807" version="2" timestamp="2010-09-20T22:51:07Z" uid="65148" user="Pirat Michi" changeset="5833630" lat="52.4079581" lon="16.9323682">
    <tag k="shop" v="gift"/>
  </node>
  <node id="430552807" version="3" timestamp="2011-09-08T21:59:51Z" uid="91056" user="Yarl" changeset="9249724" lat="52.4079597" lon="16.9324298">
    <tag k="shop" v="gift"/>
  </node>
  <node id="430552808" version="1" timestamp="2009-06-29T01:57:13Z" uid="123700" user="Mala" changeset="1672488" lat="52.4085449" lon="16.9348931">
    <tag k="amenity" v="cafe"/>
    <tag k="name" v="Green line"/>
  </node>
  <node id="430552808" version="2" timestamp="2011-04-07T17:18:23Z" uid="338611" user="marek kleciak" changeset="7796464" lat="52.4085388" lon="16.9347892">
    <tag k="amenity" v="cafe"/>
    <tag k="name" v="Green line"/>
  </node>
  <node id="430552808" version="3" timestamp="2011-09-09T12:52:30Z" uid="91056" user="Yarl" changeset="9254140" lat="52.408544" lon="16.9347892">
    <tag k="amenity" v="cafe"/>
    <tag k="name" v="Green line"/>
  </node>
  <node id="430552809" version="1" timestamp="2009-06-29T01:57:13Z" uid="123700" user="Mala" changeset="1672488" lat="52.4082342" lon="16.9347796">
    <tag k="amenity" v="bank"/>
    <tag k="atm" v="yes"/>
    <tag k="name" v="PKO B.P."/>
  </node>
  <node id="430552809" version="2" timestamp="2011-04-07T17:18:23Z" uid="338611" user="marek kleciak" changeset="7796464" lat="52.4082475" lon="16.9346954">
    <tag k="amenity" v="bank"/>
    <tag k="atm" v="yes"/>
    <tag k="name" v="PKO B.P."/>
  </node>
  <node id="430552809" version="3" timestamp="2011-09-09T12:52:35Z" uid="91056" user="Yarl" changeset="9254140" lat="52.4082386" lon="16.9346906">
    <tag k="amenity" v="bank"/>
    <tag k="atm" v="yes"/>
    <tag k="name" v="PKO B.P."/>
  </node>
  <node id="430552810" version="1" timestamp="2009-06-29T01:57:13Z" uid="123700" user="Mala" changeset="1672488" lat="52.4089122" lon="16.9344623">
    <tag k="amenity" v="bank"/>
    <tag k="name" v="PKO SA"/>
  </node>
  <node id="430552810" version="2" timestamp="2011-09-09T10:53:07Z" uid="91056" user="Yarl" changeset="9253281" lat="52.4088321" lon="16.9344513">
    <tag k="amenity" v="bank"/>
    <tag k="name" v="PKO SA"/>
  </node>
  <node id="430552811" version="1" timestamp="2009-06-29T01:57:13Z" uid="123700" user="Mala" changeset="1672488" lat="52.4089958" lon="16.933984">
    <tag k="name" v="Boutique Primavera"/>
    <tag k="shop" v="shoes"/>
  </node>
  <node id="430552811" version="2" timestamp="2011-09-09T10:53:03Z" uid="91056" user="Yarl" changeset="9253281" lat="52.4089802" lon="16.9339221">
    <tag k="name" v="Boutique Primavera"/>
    <tag k="shop" v="shoes"/>
  </node>
  <node id="430552812" version="1" timestamp="2009-06-29T01:57:13Z" uid="123700" user="Mala" changeset="1672488" lat="52.4089375" lon="16.934134">
    <tag k="amenity" v="restaurant"/>
    <tag k="name" v="Bażanciarnia"/>
  </node>
  <node id="430552812" version="2" timestamp="2011-09-09T10:53:03Z" uid="91056" user="Yarl" changeset="9253281" lat="52.408863" lon="16.9341217">
    <tag k="amenity" v="restaurant"/>
    <tag k="name" v="Bażanciarnia"/>
  </node>
  <node id="430552813" version="1" timestamp="2009-06-29T01:57:13Z" uid="123700" user="Mala" changeset="1672488" lat="52.4077308" lon="16.9345956">
    <tag k="amenity" v="pub"/>
    <tag k="name" v="Columbus"/>
  </node>
  <node id="430552813" version="2" timestamp="2011-09-08T21:13:40Z" uid="91056" user="Yarl" changeset="9249724" lat="52.4077267" lon="16.9345073">
    <tag k="amenity" v="pub"/>
    <tag k="name" v="Columbus"/>
  </node>
  <node id="430552814" version="1" timestamp="2009-06-29T01:57:13Z" uid="123700" user="Mala" changeset="1672488" lat="52.407649" lon="16.9345657">
    <tag k="amenity" v="cafe"/>
    <tag k="name" v="Café Arkady"/>
  </node>
  <node id="430552814" version="2" timestamp="2011-09-08T21:13:40Z" uid="91056" user="Yarl" changeset="9249724" lat="52.4076604" lon="16.9344814">
    <tag k="amenity" v="cafe"/>
    <tag k="name" v="Café Arkady"/>
  </node>
  <node id="430552815" version="1" timestamp="2009-06-29T01:57:13Z" uid="123700" user="Mala" changeset="1672488" lat="52.4082451" lon="16.9324639">
    <tag k="amenity" v="fast_food"/>
    <tag k="name" v="Avanti"/>
  </node>
  <node id="430552815" version="2" timestamp="2011-09-08T21:59:47Z" uid="91056" user="Yarl" changeset="9249724" lat="52.408231" lon="16.9325114">
    <tag k="amenity" v="fast_food"/>
    <tag k="name" v="Avanti"/>
  </node>
  <node id="430552816" version="1" timestamp="2009-06-29T01:57:13Z" uid="123700" user="Mala" changeset="1672488" lat="52.4081536" lon="16.9324329">
    <tag k="amenity" v="pharmacy"/>
    <tag k="name" v="Apteka &quot;Pod Złotym Lwem&quot;"/>
  </node>
  <node id="430552816" version="2" timestamp="2011-09-08T21:59:46Z" uid="91056" user="Yarl" changeset="9249724" lat="52.4081646" lon="16.9324856">
    <tag k="amenity" v="pharmacy"/>
    <tag k="name" v="Apteka &quot;Pod Złotym Lwem&quot;"/>
  </node>
  <node id="430552817" version="1" timestamp="2009-06-29T01:57:13Z" uid="123700" user="Mala" changeset="1672488" lat="52.4080729" lon="16.9347206">
    <tag k="name" v="Muzeum Instrumentów Muzycznych"/>
    <tag k="tourism" v="museum"/>
  </node>
  <node id="430552817" version="2" timestamp="2009-06-30T20:35:41Z" uid="20587" user="balrog-kun" changeset="1695853" lat="52.4080329" lon="16.9348617">
    <tag k="int_name" v="Muzeum Narodowe w Poznaniu, Oddział Instrumentów Muzycznych"/>
    <tag k="name" v="Muzeum Instrumentów Muzycznych"/>
    <tag k="operator" v="Muzeum Narodowe w Poznaniu"/>
    <tag k="tourism" v="museum"/>
  </node>
  <node id="430552817" version="3" timestamp="2011-09-08T21:13:47Z" uid="91056" user="Yarl" changeset="9249724" lat="52.4080329" lon="16.9348617"/>
  <node id="430552818" version="1" timestamp="2009-06-29T01:57:13Z" uid="123700" user="Mala" changeset="1672488" lat="52.4078126" lon="16.9346255">
    <tag k="amenity" v="cafe"/>
    <tag k="name" v="Kawiarnia Gruszecki"/>
  </node>
  <node id="430552818" version="2" timestamp="2011-09-08T21:13:41Z" uid="91056" user="Yarl" changeset="9249724" lat="52.4077995" lon="16.9345358">
    <tag k="amenity" v="cafe"/>
    <tag k="name" v="Kawiarnia Gruszecki"/>
  </node>
  <node id="430552819" version="1" timestamp="2009-06-29T01:57:13Z" uid="123700" user="Mala" changeset="1672488" lat="52.4087151" lon="16.9326319">
    <tag k="amenity" v="restaurant"/>
    <tag k="name" v="Room 55"/>
  </node>
  <node id="430552819" version="2" timestamp="2009-06-29T02:04:56Z" uid="20587" user="balrog-kun" changeset="1672496" lat="52.4087059" lon="16.9326118">
    <tag k="amenity" v="restaurant"/>
    <tag k="name" v="Room 55"/>
  </node>
  <node id="430552819" version="3" timestamp="2011-06-17T11:02:56Z" uid="91056" user="Yarl" changeset="8463602" lat="52.4086627" lon="16.9326754">
    <tag k="amenity" v="restaurant"/>
    <tag k="name" v="Room 55"/>
  </node>
  <node id="430552819" version="4" timestamp="2011-09-09T10:53:08Z" uid="91056" user="Yarl" changeset="9253281" lat="52.408639" lon="16.9326698">
    <tag k="amenity" v="restaurant"/>
    <tag k="name" v="Room 55"/>
  </node>
  <node id="430552820" version="1" timestamp="2009-06-29T01:57:13Z" uid="123700" user="Mala" changeset="1672488" lat="52.4083118" lon="16.9348079">
    <tag k="amenity" v="pharmacy"/>
    <tag k="name" v="Apteka &quot;Pod Białym Orłem&quot;"/>
  </node>
  <node id="430552820" version="2" timestamp="2011-04-07T17:18:22Z" uid="338611" user="marek kleciak" changeset="7796464" lat="52.4083233" lon="16.9347113">
    <tag k="amenity" v="pharmacy"/>
    <tag k="name" v="Apteka &quot;Pod Białym Orłem&quot;"/>
  </node>
  <node id="430552820" version="3" timestamp="2011-09-09T12:52:29Z" uid="91056" user="Yarl" changeset="9254140" lat="52.408296" lon="16.9347137">
    <tag k="amenity" v="pharmacy"/>
    <tag k="name" v="Apteka &quot;Pod Białym Orłem&quot;"/>
  </node>
  <node id="430552821" version="1" timestamp="2009-06-29T01:57:13Z" uid="123700" user="Mala" changeset="1672488" lat="52.408048" lon="16.932407">
    <tag k="amenity" v="restaurant"/>
    <tag k="name" v="Brovaria"/>
    <tag k="rating" v="***"/>
    <tag k="tourism" v="hotel"/>
  </node>
  <node id="430552821" version="2" timestamp="2010-07-21T18:36:26Z" uid="20587" user="balrog-kun" changeset="5281162" lat="52.408048" lon="16.932407">
    <tag k="amenity" v="restaurant"/>
    <tag k="microbrewery" v="yes"/>
    <tag k="name" v="Brovaria"/>
    <tag k="rating" v="***"/>
    <tag k="tourism" v="hotel"/>
  </node>
  <node id="430552821" version="3" timestamp="2011-09-08T21:59:47Z" uid="91056" user="Yarl" changeset="9249724" lat="52.4080276" lon="16.9324455">
    <tag k="amenity" v="restaurant"/>
    <tag k="microbrewery" v="yes"/>
    <tag k="name" v="Brovaria"/>
    <tag k="rating" v="***"/>
    <tag k="tourism" v="hotel"/>
  </node>
  <node id="430552822" version="1" timestamp="2009-06-29T01:57:13Z" uid="123700" user="Mala" changeset="1672488" lat="52.4089185" lon="16.9343537">
    <tag k="name" v="Viva l&apos;arte K. Napiórkowska"/>
    <tag k="shop" v="art_gallery"/>
  </node>
  <node id="430552822" version="2" timestamp="2010-09-19T16:39:12Z" uid="5211" user="emvee" changeset="5821655" lat="52.4089185" lon="16.9343537">
    <tag k="name" v="Viva l&apos;arte K. Napiórkowska"/>
    <tag k="shop" v="art"/>
  </node>
  <node id="430552822" version="3" timestamp="2011-09-09T10:53:08Z" uid="91056" user="Yarl" changeset="9253281" lat="52.4088462" lon="16.9343003">
    <tag k="name" v="Viva l&apos;arte K. Napiórkowska"/>
    <tag k="shop" v="art"/>
  </node>
  <node id="430552823" version="1" timestamp="2009-06-29T01:57:14Z" uid="123700" user="Mala" changeset="1672488" lat="52.4078982" lon="16.9323527">
    <tag k="amenity" v="language_school;something else"/>
    <tag k="name" v="Idea; Finroyal"/>
  </node>
  <node id="430552823" version="2" timestamp="2011-09-08T21:59:48Z" uid="91056" user="Yarl" changeset="9249724" lat="52.407906" lon="16.9324015">
    <tag k="amenity" v="language_school;something else"/>
    <tag k="name" v="Idea; Finroyal"/>
  </node>
  <node id="430552824" version="1" timestamp="2009-06-29T01:57:14Z" uid="123700" user="Mala" changeset="1672488" lat="52.4079847" lon="16.9346884">
    <tag k="amenity" v="cafe"/>
    <tag k="name" v="Shark"/>
    <tag k="note" v="also a pub"/>
  </node>
  <node id="430552824" version="2" timestamp="2011-09-08T21:13:42Z" uid="91056" user="Yarl" changeset="9249724" lat="52.4079831" lon="16.9345974">
    <tag k="amenity" v="cafe"/>
    <tag k="name" v="Shark"/>
    <tag k="note" v="also a pub"/>
  </node>
  <node id="430552825" version="1" timestamp="2009-06-29T01:57:14Z" uid="123700" user="Mala" changeset="1672488" lat="52.4086144" lon="16.9349185">
    <tag k="amenity" v="pub"/>
    <tag k="name" v="Guliwer"/>
  </node>
  <node id="430552825" version="2" timestamp="2011-04-07T17:18:22Z" uid="338611" user="marek kleciak" changeset="7796464" lat="52.4085944" lon="16.9348053">
    <tag k="amenity" v="pub"/>
    <tag k="name" v="Guliwer"/>
  </node>
  <node id="430552826" version="1" timestamp="2009-06-29T01:57:14Z" uid="123700" user="Mala" changeset="1672488" lat="52.4085101" lon="16.932557">
    <tag k="castle_type" v="palace"/>
    <tag k="historic" v="castle"/>
    <tag k="name" v="Pałac Działyńskich"/>
    <tag k="tourism" v="attraction"/>
  </node>
  <node id="430552826" version="2" timestamp="2011-06-17T11:03:08Z" uid="91056" user="Yarl" changeset="8463602" lat="52.4085101" lon="16.932557"/>
  <node id="430552827" version="1" timestamp="2009-06-29T01:57:14Z" uid="123700" user="Mala" changeset="1672488" lat="52.4089469" lon="16.9340409">
    <tag k="amenity" v="restaurant"/>
    <tag k="cuisine" v="grill"/>
  </node>
  <node id="430552827" version="2" timestamp="2009-06-30T20:35:41Z" uid="20587" user="balrog-kun" changeset="1695853" lat="52.4089469" lon="16.9340409">
    <tag k="amenity" v="restaurant"/>
    <tag k="cuisine" v="grill"/>
    <tag k="name" v="Sioux"/>
  </node>
  <node id="430552827" version="3" timestamp="2011-09-09T10:53:08Z" uid="91056" user="Yarl" changeset="9253281" lat="52.4088681" lon="16.9340673">
    <tag k="amenity" v="restaurant"/>
    <tag k="cuisine" v="grill"/>
    <tag k="name" v="Sioux"/>
  </node>
  <node id="430552828" version="1" timestamp="2009-06-29T01:57:14Z" uid="123700" user="Mala" changeset="1672488" lat="52.4082136" lon="16.9346666">
    <tag k="amenity" v="post_box"/>
  </node>
  <node id="430552828" version="2" timestamp="2011-04-07T17:18:22Z" uid="338611" user="marek kleciak" changeset="7796464" lat="52.4082071" lon="16.934629">
    <tag k="amenity" v="post_box"/>
  </node>
  <node id="430552828" version="3" timestamp="2011-09-09T12:52:48Z" uid="91056" user="Yarl" changeset="9254140" lat="52.4081918" lon="16.9346502">
    <tag k="amenity" v="post_box"/>
  </node>
  <node id="430552829" version="1" timestamp="2009-06-29T01:57:14Z" uid="123700" user="Mala" changeset="1672488" lat="52.4089848" lon="16.9337048">
    <tag k="castle_type" v="palace"/>
    <tag k="historic" v="castle"/>
    <tag k="name" v="Pałac Mielżyńskich"/>
    <tag k="tourism" v="attraction"/>
  </node>
  <node id="430552829" version="2" timestamp="2011-09-09T10:53:14Z" uid="91056" user="Yarl" changeset="9253281" lat="52.4089848" lon="16.9337048"/>
  <node id="430552830" version="1" timestamp="2009-06-29T01:57:14Z" uid="123700" user="Mala" changeset="1672488" lat="52.4083334" lon="16.9324923">
    <tag k="amenity" v="restaurant"/>
    <tag k="name" v="Fenix"/>
  </node>
  <node id="430552830" version="2" timestamp="2010-07-21T18:36:26Z" uid="20587" user="balrog-kun" changeset="5281162" lat="52.4083334" lon="16.9324923">
    <tag k="amenity" v="restaurant"/>
    <tag k="name" v="Fenix"/>
    <tag k="operator" v="Sphinx"/>
  </node>
  <node id="430552830" version="3" timestamp="2011-09-08T21:59:47Z" uid="91056" user="Yarl" changeset="9249724" lat="52.408304" lon="16.932534">
    <tag k="amenity" v="restaurant"/>
    <tag k="name" v="Fenix"/>
    <tag k="operator" v="Sphinx"/>
  </node>
  <node id="430552831" version="1" timestamp="2009-06-29T01:57:14Z" uid="123700" user="Mala" changeset="1672488" lat="52.4088917" lon="16.9346304">
    <tag k="amenity" v="restaurant"/>
    <tag k="name" v="Club Sami Swoi"/>
  </node>
  <node id="430552831" version="2" timestamp="2011-09-09T10:53:03Z" uid="91056" user="Yarl" changeset="9253281" lat="52.4088162" lon="16.9346216">
    <tag k="amenity" v="restaurant"/>
    <tag k="name" v="Club Sami Swoi"/>
  </node>
  <node id="430552832" version="1" timestamp="2009-06-29T01:57:14Z" uid="123700" user="Mala" changeset="1672488" lat="52.409002" lon="16.9335688">
    <tag k="amenity" v="pub"/>
    <tag k="name" v="Londoner"/>
  </node>
  <node id="430552832" version="2" timestamp="2011-09-09T10:53:06Z" uid="91056" user="Yarl" changeset="9253281" lat="52.4089182" lon="16.9335063">
    <tag k="amenity" v="pub"/>
    <tag k="name" v="Londoner"/>
  </node>
  <node id="430552833" version="1" timestamp="2009-06-29T01:57:14Z" uid="123700" user="Mala" changeset="1672488" lat="52.4089438" lon="16.9339168">
    <tag k="amenity" v="pub"/>
    <tag k="layer" v="-1"/>
    <tag k="name" v="Stara Piwnica"/>
  </node>
  <node id="430552833" version="2" timestamp="2011-09-09T10:53:08Z" uid="91056" user="Yarl" changeset="9253281" lat="52.4088835" lon="16.9339024">
    <tag k="amenity" v="pub"/>
    <tag k="layer" v="-1"/>
    <tag k="name" v="Stara Piwnica"/>
  </node>
  <node id="430552834" version="1" timestamp="2009-06-29T01:57:14Z" uid="123700" user="Mala" changeset="1672488" lat="52.4084646" lon="16.9348637">
    <tag k="amenity" v="restaurant"/>
    <tag k="name" v="Dramat"/>
  </node>
  <node id="430552834" version="2" timestamp="2011-04-07T17:18:23Z" uid="338611" user="marek kleciak" changeset="7796464" lat="52.4084766" lon="16.9347651">
    <tag k="amenity" v="restaurant"/>
    <tag k="name" v="Dramat"/>
  </node>
  <node id="430552835" version="1" timestamp="2009-06-29T01:57:14Z" uid="123700" user="Mala" changeset="1672488" lat="52.4079078" lon="16.9346603">
    <tag k="amenity" v="restaurant"/>
    <tag k="cuisine" v="chicken"/>
    <tag k="name" v="Rooster"/>
    <tag k="operator" v="Rooster"/>
  </node>
  <node id="430552835" version="2" timestamp="2011-09-08T21:13:42Z" uid="91056" user="Yarl" changeset="9249724" lat="52.40792" lon="16.9345773">
    <tag k="amenity" v="restaurant"/>
    <tag k="cuisine" v="chicken"/>
    <tag k="name" v="Rooster"/>
    <tag k="operator" v="Rooster"/>
  </node>
  <node id="430552836" version="1" timestamp="2009-06-29T01:57:14Z" uid="123700" user="Mala" changeset="1672488" lat="52.4087892" lon="16.93265">
    <tag k="amenity" v="restaurant"/>
    <tag k="name" v="Fever"/>
  </node>
  <node id="430552836" version="2" timestamp="2009-06-29T02:04:56Z" uid="20587" user="balrog-kun" changeset="1672496" lat="52.4087892" lon="16.93265">
    <tag k="amenity" v="nightclub"/>
    <tag k="name" v="Fever"/>
  </node>
  <node id="430552836" version="3" timestamp="2011-09-09T10:53:04Z" uid="91056" user="Yarl" changeset="9253281" lat="52.4087646" lon="16.9327111">
    <tag k="amenity" v="nightclub"/>
    <tag k="name" v="Fever"/>
  </node>
  <node id="430552837" version="1" timestamp="2009-06-29T01:57:14Z" uid="123700" user="Mala" changeset="1672488" lat="52.4086962" lon="16.9349484">
    <tag k="amenity" v="restaurant"/>
    <tag k="name" v="Le Palais Du Jardin"/>
  </node>
  <node id="430552838" version="1" timestamp="2009-06-29T01:57:14Z" uid="123700" user="Mala" changeset="1672488" lat="52.4083873" lon="16.9348355">
    <tag k="name" v="Antyki Horn"/>
    <tag k="shop" v="antiquities"/>
  </node>
  <node id="430552838" version="2" timestamp="2011-01-28T21:18:39Z" uid="31075" user="wieland" changeset="7117234" lat="52.4083874" lon="16.9348354">
    <tag k="name" v="Antyki Horn"/>
    <tag k="shop" v="antiques"/>
  </node>
  <node id="430552838" version="3" timestamp="2011-04-07T17:18:23Z" uid="338611" user="marek kleciak" changeset="7796464" lat="52.4083981" lon="16.934749">
    <tag k="name" v="Antyki Horn"/>
    <tag k="shop" v="antiques"/>
  </node>
  <node id="430552838" version="4" timestamp="2011-09-09T12:52:29Z" uid="91056" user="Yarl" changeset="9254140" lat="52.4084077" lon="16.9347466">
    <tag k="name" v="Antyki Horn"/>
    <tag k="shop" v="antiques"/>
  </node>
  <node id="430553015" version="1" timestamp="2009-06-29T02:04:56Z" uid="20587" user="balrog-kun" changeset="1672496" lat="52.4075101" lon="16.9184525">
    <tag k="addr:housenumber" v="Święty Marcin"/>
    <tag k="addr:street" v="45"/>
    <tag k="amenity" v="nightclub"/>
    <tag k="name" v="Barracuda"/>
  </node>
  <node id="430553015" version="2" timestamp="2009-08-08T01:32:24Z" uid="20587" user="balrog-kun" changeset="2071289" lat="52.4075101" lon="16.9184525">
    <tag k="addr:housenumber" v="45"/>
    <tag k="addr:street" v="Święty Marcin"/>
    <tag k="amenity" v="nightclub"/>
    <tag k="name" v="Barracuda"/>
  </node>
  <node id="430553015" version="3" timestamp="2009-10-01T20:33:22Z" uid="19417" user="xjr" changeset="2705164" lat="52.4062904" lon="16.9238303">
    <tag k="addr:housenumber" v="45"/>
    <tag k="addr:street" v="Święty Marcin"/>
    <tag k="amenity" v="nightclub"/>
    <tag k="name" v="Barracuda"/>
  </node>
  <node id="430553015" version="4" timestamp="2009-11-03T19:14:42Z" uid="123700" user="Mala" changeset="3027356" lat="52.4063688" lon="16.9232359">
    <tag k="addr:housenumber" v="45"/>
    <tag k="addr:street" v="Święty Marcin"/>
    <tag k="amenity" v="nightclub"/>
    <tag k="name" v="Barracuda"/>
  </node>
  <node id="430553380" version="2" timestamp="2010-07-28T16:11:32Z" uid="74617" user="JohnSmith" changeset="5339329" lat="-27.085694" lon="152.9363801">
    <tag k="highway" v="turning_circle"/>
  </node>
  <node id="430553698" version="3" timestamp="2010-05-30T08:39:20Z" uid="4467" user="Rosscoe" changeset="4849490" lat="-27.071408" lon="152.9204237"/>
  <node id="430553700" version="3" timestamp="2010-05-30T08:39:44Z" uid="4467" user="Rosscoe" changeset="4849490" lat="-27.0712539" lon="152.9191869"/>
  <node id="430553701" version="3" timestamp="2010-05-30T08:39:45Z" uid="4467" user="Rosscoe" changeset="4849490" lat="-27.0713315" lon="152.9191105"/>
  <node id="430553708" version="3" timestamp="2010-05-30T08:39:34Z" uid="4467" user="Rosscoe" changeset="4849490" lat="-27.0717095" lon="152.9196665"/>
  <node id="430553710" version="2" timestamp="2010-05-30T08:39:49Z" uid="4467" user="Rosscoe" changeset="4849490" lat="-27.0717367" lon="152.9201678"/>
  <node id="430553711" version="3" timestamp="2010-05-30T08:39:17Z" uid="4467" user="Rosscoe" changeset="4849490" lat="-27.0717384" lon="152.9202118"/>
  <node id="430556060" version="2" timestamp="2010-05-21T02:02:39Z" uid="4467" user="Rosscoe" changeset="4762597" lat="-38.0729151" lon="145.1321094"/>
  <node id="430556090" version="2" timestamp="2010-05-21T02:03:12Z" uid="4467" user="Rosscoe" changeset="4762597" lat="-38.0733384" lon="145.1310062"/>
  <node id="430556119" version="2" timestamp="2010-05-21T02:01:10Z" uid="4467" user="Rosscoe" changeset="4762597" lat="-38.0741159" lon="145.1290708"/>
  <node id="430556120" version="2" timestamp="2010-05-21T02:01:44Z" uid="4467" user="Rosscoe" changeset="4762597" lat="-38.0737295" lon="145.1299901"/>
  <node id="430556218" version="2" timestamp="2011-02-24T05:42:58Z" uid="4467" user="Rosscoe" changeset="7378808" lat="-27.85764" lon="135.1244437"/>
  <node id="430557184" version="1" timestamp="2009-06-29T02:49:05Z" uid="103576" user="DiverCTH" changeset="1672557" lat="35.0167688" lon="-85.1835256"/>
  <node id="430557184" version="2" timestamp="2009-11-28T07:53:47Z" uid="103576" user="DiverCTH" changeset="3233940" lat="35.0167688" lon="-85.1835256"/>
  <node id="430557184" version="3" timestamp="2010-12-28T13:47:56Z" uid="14850" user="T_9er" changeset="6788405" lat="35.0168498" lon="-85.1835374"/>
  <node id="430557185" version="1" timestamp="2009-06-29T02:49:05Z" uid="103576" user="DiverCTH" changeset="1672557" lat="35.0166976" lon="-85.183007"/>
  <node id="430557186" version="1" timestamp="2009-06-29T02:49:05Z" uid="103576" user="DiverCTH" changeset="1672557" lat="35.0173257" lon="-85.1770278"/>
  <node id="430557187" version="1" timestamp="2009-06-29T02:49:05Z" uid="103576" user="DiverCTH" changeset="1672557" lat="35.0179431" lon="-85.1737261"/>
  <node id="430557187" version="2" timestamp="2011-05-03T04:13:44Z" uid="207745" user="NE2" changeset="8036031" lat="35.0179431" lon="-85.1737261"/>
  <node id="430557188" version="1" timestamp="2009-06-29T02:49:05Z" uid="103576" user="DiverCTH" changeset="1672557" lat="35.0174922" lon="-85.1770409"/>
  <node id="430557189" version="1" timestamp="2009-06-29T02:49:05Z" uid="103576" user="DiverCTH" changeset="1672557" lat="35.0172135" lon="-85.17959"/>
  <node id="430557190" version="1" timestamp="2009-06-29T02:49:05Z" uid="103576" user="DiverCTH" changeset="1672557" lat="35.0168187" lon="-85.1830131"/>
  <node id="430557191" version="1" timestamp="2009-06-29T02:49:05Z" uid="103576" user="DiverCTH" changeset="1672557" lat="35.0167688" lon="-85.1835256"/>
  <node id="430557191" version="2" timestamp="2010-05-16T02:42:20Z" uid="8235" user="chriscf" changeset="4711954" lat="35.0167688" lon="-85.1835256"/>
  <node id="430557192" version="1" timestamp="2009-06-29T02:49:05Z" uid="103576" user="DiverCTH" changeset="1672557" lat="35.0167688" lon="-85.1835256"/>
  <node id="430557192" version="2" timestamp="2010-05-16T02:42:23Z" uid="8235" user="chriscf" changeset="4711954" lat="35.0167688" lon="-85.1835256"/>
  <node id="430557193" version="1" timestamp="2009-06-29T02:49:05Z" uid="103576" user="DiverCTH" changeset="1672557" lat="35.0169399" lon="-85.1818302"/>
  <node id="430557194" version="1" timestamp="2009-06-29T02:49:05Z" uid="103576" user="DiverCTH" changeset="1672557" lat="35.0170659" lon="-85.1795777"/>
  <node id="430557195" version="1" timestamp="2009-06-29T02:49:05Z" uid="103576" user="DiverCTH" changeset="1672557" lat="35.0168231" lon="-85.1818365"/>
  <node id="430557196" version="1" timestamp="2009-06-29T02:49:05Z" uid="103576" user="DiverCTH" changeset="1672557" lat="35.0176343" lon="-85.1750187"/>
  <node id="430557197" version="1" timestamp="2009-06-29T02:49:05Z" uid="103576" user="DiverCTH" changeset="1672557" lat="35.0177616" lon="-85.1750205"/>
  <node id="430557198" version="1" timestamp="2009-06-29T02:49:06Z" uid="103576" user="DiverCTH" changeset="1672557" lat="35.0185389" lon="-85.1776804"/>
  <node id="430557199" version="1" timestamp="2009-06-29T02:49:06Z" uid="103576" user="DiverCTH" changeset="1672557" lat="35.0186763" lon="-85.1773295"/>
  <node id="430557200" version="1" timestamp="2009-06-29T02:49:06Z" uid="103576" user="DiverCTH" changeset="1672557" lat="35.018695" lon="-85.177032"/>
  <node id="430557201" version="1" timestamp="2009-06-29T02:49:06Z" uid="103576" user="DiverCTH" changeset="1672557" lat="35.0186076" lon="-85.1767727"/>
  <node id="430557202" version="1" timestamp="2009-06-29T02:49:06Z" uid="103576" user="DiverCTH" changeset="1672557" lat="35.0184452" lon="-85.1765973"/>
  <node id="430557203" version="1" timestamp="2009-06-29T02:49:06Z" uid="103576" user="DiverCTH" changeset="1672557" lat="35.0182765" lon="-85.1764981"/>
  <node id="430557204" version="1" timestamp="2009-06-29T02:49:06Z" uid="103576" user="DiverCTH" changeset="1672557" lat="35.0180829" lon="-85.1764753"/>
  <node id="430557205" version="1" timestamp="2009-06-29T02:49:06Z" uid="103576" user="DiverCTH" changeset="1672557" lat="35.0178455" lon="-85.1765363"/>
  <node id="430557206" version="1" timestamp="2009-06-29T02:49:06Z" uid="103576" user="DiverCTH" changeset="1672557" lat="35.0176519" lon="-85.1767498"/>
  <node id="430557207" version="1" timestamp="2009-06-29T02:49:06Z" uid="103576" user="DiverCTH" changeset="1672557" lat="35.017166" lon="-85.1785339"/>
  <node id="430557208" version="1" timestamp="2009-06-29T02:49:06Z" uid="103576" user="DiverCTH" changeset="1672557" lat="35.0171397" lon="-85.1781151"/>
  <node id="430557209" version="1" timestamp="2009-06-29T02:49:06Z" uid="103576" user="DiverCTH" changeset="1672557" lat="35.0170897" lon="-85.1776499"/>
  <node id="430557210" version="1" timestamp="2009-06-29T02:49:06Z" uid="103576" user="DiverCTH" changeset="1672557" lat="35.0169585" lon="-85.1773982"/>
  <node id="430557211" version="1" timestamp="2009-06-29T02:49:06Z" uid="103576" user="DiverCTH" changeset="1672557" lat="35.0168086" lon="-85.1772609"/>
  <node id="430557212" version="1" timestamp="2009-06-29T02:49:06Z" uid="103576" user="DiverCTH" changeset="1672557" lat="35.01659" lon="-85.1771922"/>
  <node id="430557213" version="1" timestamp="2009-06-29T02:49:06Z" uid="103576" user="DiverCTH" changeset="1672557" lat="35.0163089" lon="-85.177238"/>
  <node id="430557214" version="1" timestamp="2009-06-29T02:49:06Z" uid="103576" user="DiverCTH" changeset="1672557" lat="35.0161152" lon="-85.177421"/>
  <node id="430557215" version="1" timestamp="2009-06-29T02:49:06Z" uid="103576" user="DiverCTH" changeset="1672557" lat="35.0158903" lon="-85.1777109"/>
  <node id="430557216" version="1" timestamp="2009-06-29T02:49:06Z" uid="103576" user="DiverCTH" changeset="1672557" lat="35.0157592" lon="-85.1780541"/>
  <node id="430557217" version="1" timestamp="2009-06-29T02:49:06Z" uid="103576" user="DiverCTH" changeset="1672557" lat="35.0157217" lon="-85.1783592"/>
  <node id="430557218" version="1" timestamp="2009-06-29T02:49:06Z" uid="103576" user="DiverCTH" changeset="1672557" lat="35.0157654" lon="-85.1787177"/>
  <node id="430557219" version="1" timestamp="2009-06-29T02:49:06Z" uid="103576" user="DiverCTH" changeset="1672557" lat="35.0159341" lon="-85.1789846"/>
  <node id="430557220" version="1" timestamp="2009-06-29T02:49:06Z" uid="103576" user="DiverCTH" changeset="1672557" lat="35.0162027" lon="-85.1790914"/>
  <node id="430557221" version="1" timestamp="2009-06-29T02:49:06Z" uid="103576" user="DiverCTH" changeset="1672557" lat="35.0166643" lon="-85.1791208"/>
  <node id="430557222" version="1" timestamp="2009-06-29T02:49:06Z" uid="103576" user="DiverCTH" changeset="1672557" lat="35.0154406" lon="-85.1798255"/>
  <node id="430557223" version="1" timestamp="2009-06-29T02:49:07Z" uid="103576" user="DiverCTH" changeset="1672557" lat="35.0155265" lon="-85.1794728"/>
  <node id="430557224" version="1" timestamp="2009-06-29T02:49:07Z" uid="103576" user="DiverCTH" changeset="1672557" lat="35.0155031" lon="-85.1786433"/>
  <node id="430557225" version="1" timestamp="2009-06-29T02:49:07Z" uid="103576" user="DiverCTH" changeset="1672557" lat="35.0154874" lon="-85.1782429"/>
  <node id="430557226" version="1" timestamp="2009-06-29T02:49:07Z" uid="103576" user="DiverCTH" changeset="1672557" lat="35.0156514" lon="-85.1776518"/>
  <node id="430557227" version="1" timestamp="2009-06-29T02:49:07Z" uid="103576" user="DiverCTH" changeset="1672557" lat="35.015995" lon="-85.177156"/>
  <node id="430557228" version="1" timestamp="2009-06-29T02:49:07Z" uid="103576" user="DiverCTH" changeset="1672557" lat="35.0165416" lon="-85.1767365"/>
  <node id="430557229" version="1" timestamp="2009-06-29T02:49:07Z" uid="103576" user="DiverCTH" changeset="1672557" lat="35.0171974" lon="-85.1761835"/>
  <node id="430557230" version="1" timestamp="2009-06-29T02:49:07Z" uid="103576" user="DiverCTH" changeset="1672557" lat="35.0173614" lon="-85.1758594"/>
  <node id="430557231" version="1" timestamp="2009-06-29T02:49:07Z" uid="103576" user="DiverCTH" changeset="1672557" lat="35.0175862" lon="-85.1753316"/>
  <node id="430557232" version="1" timestamp="2009-06-29T02:49:07Z" uid="103576" user="DiverCTH" changeset="1672557" lat="35.0178143" lon="-85.1755829"/>
  <node id="430557233" version="1" timestamp="2009-06-29T02:49:07Z" uid="103576" user="DiverCTH" changeset="1672557" lat="35.0180251" lon="-85.1759642"/>
  <node id="430557234" version="1" timestamp="2009-06-29T02:49:07Z" uid="103576" user="DiverCTH" changeset="1672557" lat="35.0182594" lon="-85.1762312"/>
  <node id="430557235" version="1" timestamp="2009-06-29T02:49:07Z" uid="103576" user="DiverCTH" changeset="1672557" lat="35.0187122" lon="-85.1764981"/>
  <node id="430557236" version="1" timestamp="2009-06-29T02:49:07Z" uid="103576" user="DiverCTH" changeset="1672557" lat="35.0191885" lon="-85.1766602"/>
  <node id="430557237" version="1" timestamp="2009-06-29T02:49:07Z" uid="103576" user="DiverCTH" changeset="1672557" lat="35.0196648" lon="-85.1766793"/>
  <node id="430557238" version="1" timestamp="2009-06-29T02:49:07Z" uid="103576" user="DiverCTH" changeset="1672557" lat="35.0200162" lon="-85.176603"/>
  <node id="430557239" version="1" timestamp="2009-06-29T02:49:07Z" uid="103576" user="DiverCTH" changeset="1672557" lat="35.0165625" lon="-85.1819273"/>
  <node id="430557240" version="1" timestamp="2009-06-29T02:49:07Z" uid="103576" user="DiverCTH" changeset="1672557" lat="35.0161642" lon="-85.1818319"/>
  <node id="430557241" version="1" timestamp="2009-06-29T02:49:07Z" uid="103576" user="DiverCTH" changeset="1672557" lat="35.0158675" lon="-85.181708"/>
  <node id="430557242" version="1" timestamp="2009-06-29T02:49:07Z" uid="103576" user="DiverCTH" changeset="1672557" lat="35.015524" lon="-85.181584"/>
  <node id="430557243" version="1" timestamp="2009-06-29T02:49:07Z" uid="103576" user="DiverCTH" changeset="1672557" lat="35.0150789" lon="-85.1815745"/>
  <node id="430557244" version="1" timestamp="2009-06-29T02:49:07Z" uid="103576" user="DiverCTH" changeset="1672557" lat="35.0145245" lon="-85.1817652"/>
  <node id="430557245" version="1" timestamp="2009-06-29T02:49:07Z" uid="103576" user="DiverCTH" changeset="1672557" lat="35.0142278" lon="-85.1820131"/>
  <node id="430558562" version="1" timestamp="2009-06-29T03:19:05Z" uid="74617" user="JohnSmith" changeset="1672619" lat="-26.2274827" lon="152.6772902"/>
  <node id="430558563" version="1" timestamp="2009-06-29T03:19:05Z" uid="74617" user="JohnSmith" changeset="1672619" lat="-26.2551889" lon="152.6626122">
    <tag k="name" v="Gympie Riding for the Disabled"/>
  </node>
  <node id="430558563" version="2" timestamp="2009-06-29T09:11:11Z" uid="74617" user="JohnSmith" changeset="1674776" lat="-26.2551889" lon="152.6626122">
    <tag k="name" v="Gympie Riding for the Disabled"/>
  </node>
  <node id="430558767" version="1" timestamp="2009-06-29T03:22:22Z" uid="74617" user="JohnSmith" changeset="1672626" lat="-26.2950954" lon="152.706618"/>
  <node id="430558768" version="1" timestamp="2009-06-29T03:22:22Z" uid="74617" user="JohnSmith" changeset="1672626" lat="-26.2847356" lon="152.6994292"/>
  <node id="430558768" version="2" timestamp="2009-10-06T16:33:19Z" uid="74617" user="JohnSmith" changeset="2762567" lat="-26.284243" lon="152.6990948"/>
  <node id="430558769" version="1" timestamp="2009-06-29T03:22:22Z" uid="74617" user="JohnSmith" changeset="1672626" lat="-26.2931665" lon="152.7052795"/>
  <node id="430558769" version="2" timestamp="2009-10-06T16:33:19Z" uid="74617" user="JohnSmith" changeset="2762567" lat="-26.293166" lon="152.7052804"/>
  <node id="430558770" version="1" timestamp="2009-06-29T03:22:22Z" uid="74617" user="JohnSmith" changeset="1672626" lat="-26.2919717" lon="152.706618">
    <tag k="aeroway" v="terminal"/>
    <tag k="name" v="Gympie Airport"/>
  </node>
  <node id="430558770" version="2" timestamp="2009-10-06T16:33:19Z" uid="74617" user="JohnSmith" changeset="2762567" lat="-26.2924857" lon="152.7067852">
    <tag k="aeroway" v="terminal"/>
    <tag k="name" v="Gympie Airport"/>
  </node>
  <node id="430558771" version="1" timestamp="2009-06-29T03:22:22Z" uid="74617" user="JohnSmith" changeset="1672626" lat="-26.2826794" lon="152.7024723"/>
  <node id="430558771" version="2" timestamp="2009-10-06T16:33:19Z" uid="74617" user="JohnSmith" changeset="2762567" lat="-26.2826794" lon="152.702114"/>
  <node id="430558772" version="1" timestamp="2009-06-29T03:22:22Z" uid="74617" user="JohnSmith" changeset="1672626" lat="-26.2857201" lon="152.7001123"/>
  <node id="430558772" version="2" timestamp="2009-10-06T16:33:19Z" uid="74617" user="JohnSmith" changeset="2762567" lat="-26.2855083" lon="152.6999129"/>
  <node id="430558773" version="1" timestamp="2009-06-29T03:22:22Z" uid="74617" user="JohnSmith" changeset="1672626" lat="-26.2881362" lon="152.6982826"/>
  <node id="430558773" version="2" timestamp="2009-10-06T16:33:19Z" uid="74617" user="JohnSmith" changeset="2762567" lat="-26.2885859" lon="152.6975182"/>
</osm>
