<?xml version='1.0' encoding='UTF-8'?>
<osm version="0.6" generator="libosmium/2.20.0">
  <node id="431912916" version="5" timestamp="2010-03-06T23:32:45Z" uid="6975" user="ulfl" changeset="4056216" lat="46.505149" lon="9.3303324">
    <tag k="ele" v="2123"/>
    <tag k="key" v="21130"/>
    <tag k="mountain_pass" v="yes"/>
    <tag k="name" v="Passo dello Spluga - Splügenpass"/>
    <tag k="name:de" v="Splügenpass"/>
    <tag k="name:it" v="Passo dello Spluga"/>
    <tag k="wikipedia" v="http://de.wikipedia.org/wiki/Spl%C3%BCgenpass"/>
  </node>
  <node id="431912916" version="6" timestamp="2011-07-06T19:56:40Z" uid="17835" user="Stéphane Brunner" changeset="8651744" lat="46.505149" lon="9.3303324">
    <tag k="ele" v="2123"/>
    <tag k="mountain_pass" v="yes"/>
    <tag k="name" v="Passo dello Spluga - Splügenpass"/>
    <tag k="name:de" v="Splügenpass"/>
    <tag k="name:it" v="Passo dello Spluga"/>
    <tag k="ref" v="21130"/>
    <tag k="wikipedia" v="http://de.wikipedia.org/wiki/Spl%C3%BCgenpass"/>
  </node>
  <node id="431912916" version="7" timestamp="2011-09-26T09:55:00Z" uid="287306" user="Matthias Frank" changeset="9400430" lat="46.505149" lon="9.3303324"/>
  <node id="431913437" version="1" timestamp="2009-07-01T20:59:45Z" uid="123700" user="Mala" changeset="1705034" lat="52.4083519" lon="16.9323432">
    <tag k="amenity" v="restaurant"/>
    <tag k="name" v="Wiejskie Jadło"/>
  </node>
  <node id="431913437" version="2" timestamp="2011-09-08T21:59:48Z" uid="91056" user="Yarl" changeset="9249724" lat="52.4083411" lon="16.9323898">
    <tag k="amenity" v="restaurant"/>
    <tag k="name" v="Wiejskie Jadło"/>
  </node>
  <node id="431913441" version="1" timestamp="2009-07-01T20:59:45Z" uid="123700" user="Mala" changeset="1705034" lat="52.4083372" lon="16.9317539">
    <tag k="amenity" v="archives"/>
    <tag k="name" v="Archiwum Państwowe"/>
  </node>
  <node id="431913441" version="2" timestamp="2011-09-08T21:59:47Z" uid="91056" user="Yarl" changeset="9249724" lat="52.4083646" lon="16.9317651">
    <tag k="amenity" v="public_building"/>
    <tag k="name" v="Archiwum Państwowe"/>
  </node>
  <node id="431913441" version="3" timestamp="2011-09-09T10:53:03Z" uid="91056" user="Yarl" changeset="9253281" lat="52.408372" lon="16.9317686">
    <tag k="amenity" v="public_building"/>
    <tag k="name" v="Archiwum Państwowe"/>
  </node>
  <node id="431913442" version="1" timestamp="2009-07-01T20:59:45Z" uid="123700" user="Mala" changeset="1705034" lat="52.408097" lon="16.9316439">
    <tag k="amenity" v="nightclub"/>
    <tag k="name" v="Buddha Bar"/>
  </node>
  <node id="431913442" version="2" timestamp="2011-09-09T10:53:03Z" uid="91056" user="Yarl" changeset="9253281" lat="52.4081171" lon="16.9316595">
    <tag k="amenity" v="nightclub"/>
    <tag k="name" v="Buddha Bar"/>
  </node>
  <node id="431913443" version="1" timestamp="2009-07-01T20:59:45Z" uid="123700" user="Mala" changeset="1705034" lat="52.4080839" lon="16.9318718">
    <tag k="shop" v="beverages"/>
  </node>
  <node id="431913443" version="2" timestamp="2011-09-08T21:59:51Z" uid="91056" user="Yarl" changeset="9249724" lat="52.4080908" lon="16.931867">
    <tag k="shop" v="beverages"/>
  </node>
  <node id="431913445" version="1" timestamp="2009-07-01T20:59:45Z" uid="123700" user="Mala" changeset="1705034" lat="52.4080332" lon="16.9318594">
    <tag k="amenity" v="cafe"/>
    <tag k="name" v="Cafe Sekret"/>
  </node>
  <node id="431913445" version="2" timestamp="2011-09-08T21:59:47Z" uid="91056" user="Yarl" changeset="9249724" lat="52.4080261" lon="16.9318324">
    <tag k="amenity" v="cafe"/>
    <tag k="name" v="Cafe Sekret"/>
  </node>
  <node id="431913446" version="1" timestamp="2009-07-01T20:59:45Z" uid="123700" user="Mala" changeset="1705034" lat="52.4078998" lon="16.9318748">
    <tag k="amenity" v="bureau_de_change"/>
  </node>
  <node id="431913446" version="2" timestamp="2011-09-08T21:59:51Z" uid="91056" user="Yarl" changeset="9249724" lat="52.4079045" lon="16.9318055">
    <tag k="amenity" v="bureau_de_change"/>
  </node>
  <node id="431913447" version="1" timestamp="2009-07-01T20:59:45Z" uid="123700" user="Mala" changeset="1705034" lat="52.4077646" lon="16.9318102">
    <tag k="amenity" v="bank"/>
    <tag k="atm" v="yes"/>
    <tag k="name" v="Bank PKO SA"/>
  </node>
  <node id="431913447" version="2" timestamp="2011-09-08T21:59:47Z" uid="91056" user="Yarl" changeset="9249724" lat="52.4076948" lon="16.9318042">
    <tag k="amenity" v="bank"/>
    <tag k="atm" v="yes"/>
    <tag k="name" v="Bank PKO SA"/>
  </node>
  <node id="431913448" version="1" timestamp="2009-07-01T20:59:45Z" uid="123700" user="Mala" changeset="1705034" lat="52.4077777" lon="16.9315762">
    <tag k="shop" v="jewellery"/>
  </node>
  <node id="431913448" version="2" timestamp="2010-01-14T16:18:11Z" uid="45284" user="Eric S" changeset="3617989" lat="52.4077777" lon="16.9315762">
    <tag k="shop" v="jewelry"/>
  </node>
  <node id="431913448" version="3" timestamp="2011-09-08T21:59:51Z" uid="91056" user="Yarl" changeset="9249724" lat="52.4077214" lon="16.9315541">
    <tag k="shop" v="jewelry"/>
  </node>
  <node id="431913449" version="1" timestamp="2009-07-01T20:59:45Z" uid="123700" user="Mala" changeset="1705034" lat="52.4078397" lon="16.9314838"/>
  <node id="431913449" version="2" timestamp="2011-09-08T21:59:52Z" uid="91056" user="Yarl" changeset="9249724" lat="52.4078397" lon="16.9314838"/>
  <node id="431913450" version="1" timestamp="2009-07-01T20:59:45Z" uid="123700" user="Mala" changeset="1705034" lat="52.4073964" lon="16.9311698">
    <tag k="amenity" v="restaurant"/>
    <tag k="name" v="Pieprz i Wanilia"/>
  </node>
  <node id="431913452" version="1" timestamp="2009-07-01T20:59:45Z" uid="123700" user="Mala" changeset="1705034" lat="52.4073401" lon="16.9324568">
    <tag k="addr:housenumber" v="16"/>
    <tag k="addr:street" v="Kozia"/>
    <tag k="name" v="Melody Hostel"/>
    <tag k="tourism" v="hostel"/>
  </node>
  <node id="431913454" version="1" timestamp="2009-07-01T20:59:46Z" uid="123700" user="Mala" changeset="1705034" lat="52.407188" lon="16.9331649">
    <tag k="amenity" v="nightclub"/>
    <tag k="name" v="IQ Club"/>
  </node>
  <node id="431913456" version="1" timestamp="2009-07-01T20:59:46Z" uid="123700" user="Mala" changeset="1705034" lat="52.4071429" lon="16.9337099">
    <tag k="amenity" v="nightclub"/>
    <tag k="name" v="Deep Club"/>
  </node>
  <node id="431913456" version="2" timestamp="2011-09-08T20:58:58Z" uid="91056" user="Yarl" changeset="9249570" lat="52.4071214" lon="16.9337194">
    <tag k="amenity" v="nightclub"/>
    <tag k="name" v="Deep Club"/>
  </node>
  <node id="431913459" version="1" timestamp="2009-07-01T20:59:46Z" uid="123700" user="Mala" changeset="1705034" lat="52.4071316" lon="16.9338084">
    <tag k="amenity" v="public_building"/>
    <tag k="name" v="Cech Ślusarzy i Rzemiosł Pokrewnych w Poznaniu"/>
  </node>
  <node id="431913459" version="2" timestamp="2011-09-08T20:58:58Z" uid="91056" user="Yarl" changeset="9249570" lat="52.4070985" lon="16.9339551">
    <tag k="amenity" v="public_building"/>
    <tag k="name" v="Cech Ślusarzy i Rzemiosł Pokrewnych w Poznaniu"/>
  </node>
  <node id="431913462" version="1" timestamp="2009-07-01T20:59:46Z" uid="123700" user="Mala" changeset="1705034" lat="52.4071072" lon="16.9341717">
    <tag k="amenity" v="cafe"/>
    <tag k="name" v="Nargila"/>
    <tag k="note" v="also a club"/>
  </node>
  <node id="431913462" version="2" timestamp="2011-09-08T20:59:03Z" uid="91056" user="Yarl" changeset="9249570" lat="52.4070767" lon="16.9341652">
    <tag k="amenity" v="cafe"/>
    <tag k="name" v="Nargila"/>
    <tag k="note" v="also a club"/>
  </node>
  <node id="431913468" version="1" timestamp="2009-07-01T20:59:46Z" uid="123700" user="Mala" changeset="1705034" lat="52.4072462" lon="16.9342333">
    <tag k="amenity" v="pub"/>
    <tag k="name" v="Piwiarnia"/>
  </node>
  <node id="431913506" version="1" timestamp="2009-07-01T20:59:47Z" uid="123700" user="Mala" changeset="1705034" lat="52.4065418" lon="16.9334266">
    <tag k="name" v="Rotring"/>
    <tag k="shop" v="stationery"/>
  </node>
  <node id="431913506" version="2" timestamp="2011-09-17T18:21:15Z" uid="91056" user="Yarl" changeset="9326357" lat="52.4065464" lon="16.9334098">
    <tag k="name" v="Rotring"/>
    <tag k="shop" v="stationery"/>
  </node>
  <node id="431913508" version="1" timestamp="2009-07-01T20:59:47Z" uid="123700" user="Mala" changeset="1705034" lat="52.40657" lon="16.9332696">
    <tag k="amenity" v="pub"/>
    <tag k="name" v="Kuźnia"/>
  </node>
  <node id="431913511" version="1" timestamp="2009-07-01T20:59:47Z" uid="123700" user="Mala" changeset="1705034" lat="52.4055219" lon="16.9328632">
    <tag k="shop" v="kiosk"/>
  </node>
  <node id="431913511" version="2" timestamp="2011-09-08T21:59:51Z" uid="91056" user="Yarl" changeset="9249724" lat="52.4055525" lon="16.9328983">
    <tag k="shop" v="kiosk"/>
  </node>
  <node id="431913511" version="3" timestamp="2011-09-17T18:21:17Z" uid="91056" user="Yarl" changeset="9326357" lat="52.4055525" lon="16.9328983"/>
  <node id="431913513" version="1" timestamp="2009-07-01T20:59:47Z" uid="123700" user="Mala" changeset="1705034" lat="52.4061192" lon="16.933051">
    <tag k="amenity" v="cafe"/>
    <tag k="name" v="Kamea Cafe"/>
  </node>
  <node id="431913513" version="2" timestamp="2011-09-17T18:21:15Z" uid="91056" user="Yarl" changeset="9326357" lat="52.4061397" lon="16.9330847">
    <tag k="amenity" v="cafe"/>
    <tag k="name" v="Kamea Cafe"/>
  </node>
  <node id="431913516" version="1" timestamp="2009-07-01T20:59:47Z" uid="123700" user="Mala" changeset="1705034" lat="52.4059051" lon="16.9330048">
    <tag k="amenity" v="cafe"/>
    <tag k="name" v="Cafe Farma"/>
  </node>
  <node id="431913516" version="2" timestamp="2011-09-17T18:21:14Z" uid="91056" user="Yarl" changeset="9326357" lat="52.4059098" lon="16.9330249">
    <tag k="amenity" v="cafe"/>
    <tag k="name" v="Cafe Farma"/>
  </node>
  <node id="431913519" version="1" timestamp="2009-07-01T20:59:47Z" uid="123700" user="Mala" changeset="1705034" lat="52.4060084" lon="16.9330233">
    <tag k="name" v="Jubiler P. Kusiak"/>
    <tag k="shop" v="jewellery"/>
  </node>
  <node id="431913519" version="2" timestamp="2010-01-14T16:18:11Z" uid="45284" user="Eric S" changeset="3617989" lat="52.4060084" lon="16.9330233">
    <tag k="name" v="Jubiler P. Kusiak"/>
    <tag k="shop" v="jewelry"/>
  </node>
  <node id="431913519" version="3" timestamp="2011-09-17T18:21:15Z" uid="91056" user="Yarl" changeset="9326357" lat="52.4060301" lon="16.9330526">
    <tag k="name" v="Jubiler P. Kusiak"/>
    <tag k="shop" v="jewelry"/>
  </node>
  <node id="431913522" version="1" timestamp="2009-07-01T20:59:47Z" uid="123700" user="Mala" changeset="1705034" lat="52.4058506" lon="16.9327185">
    <tag k="amenity" v="pharmacy"/>
    <tag k="name" v="Apteka Na Starówce"/>
  </node>
  <node id="431913524" version="1" timestamp="2009-07-01T20:59:47Z" uid="123700" user="Mala" changeset="1705034" lat="52.4061023" lon="16.93278">
    <tag k="amenity" v="restaurant"/>
    <tag k="name" v="Czekolada"/>
    <tag k="note" v="also a club"/>
  </node>
  <node id="431913524" version="2" timestamp="2011-09-17T17:09:43Z" uid="91056" user="Yarl" changeset="9325724" lat="52.4060909" lon="16.9327145">
    <tag k="amenity" v="restaurant"/>
    <tag k="name" v="Czekolada"/>
    <tag k="note" v="also a club"/>
  </node>
  <node id="431913527" version="1" timestamp="2009-07-01T20:59:47Z" uid="123700" user="Mala" changeset="1705034" lat="52.4058318" lon="16.9329894">
    <tag k="name" v="Decor K&amp;M"/>
    <tag k="shop" v="furniture"/>
  </node>
  <node id="431913529" version="1" timestamp="2009-07-01T20:59:47Z" uid="123700" user="Mala" changeset="1705034" lat="52.4062281" lon="16.9330602">
    <tag k="amenity" v="nightclub"/>
    <tag k="name" v="Tokyo Underground"/>
  </node>
  <node id="431913529" version="2" timestamp="2011-09-17T18:21:15Z" uid="91056" user="Yarl" changeset="9326357" lat="52.4062187" lon="16.9331124">
    <tag k="amenity" v="nightclub"/>
    <tag k="name" v="Tokyo Underground"/>
  </node>
  <node id="431913532" version="1" timestamp="2009-07-01T20:59:47Z" uid="123700" user="Mala" changeset="1705034" lat="52.4062807" lon="16.9330664">
    <tag k="name" v="Żabka"/>
    <tag k="operator" v="Żabka"/>
    <tag k="shop" v="supermarket"/>
  </node>
  <node id="431913532" version="2" timestamp="2011-09-17T18:21:15Z" uid="91056" user="Yarl" changeset="9326357" lat="52.4063081" lon="16.9331319">
    <tag k="name" v="Żabka"/>
    <tag k="operator" v="Żabka"/>
    <tag k="shop" v="supermarket"/>
  </node>
  <node id="431913535" version="1" timestamp="2009-07-01T20:59:47Z" uid="123700" user="Mala" changeset="1705034" lat="52.4062995" lon="16.9328632">
    <tag k="amenity" v="pub"/>
    <tag k="name" v="Kultowa"/>
  </node>
  <node id="431913535" version="2" timestamp="2011-09-17T17:09:45Z" uid="91056" user="Yarl" changeset="9325724" lat="52.4063022" lon="16.9328437">
    <tag k="amenity" v="pub"/>
    <tag k="name" v="Kultowa"/>
  </node>
  <node id="431913538" version="1" timestamp="2009-07-01T20:59:47Z" uid="123700" user="Mala" changeset="1705034" lat="52.4063991" lon="16.9328724">
    <tag k="amenity" v="restaurant"/>
    <tag k="name" v="Sonata"/>
  </node>
  <node id="431913540" version="1" timestamp="2009-07-01T20:59:47Z" uid="123700" user="Mala" changeset="1705034" lat="52.4063746" lon="16.9330972">
    <tag k="amenity" v="nightclub"/>
    <tag k="name" v="Cuba Libre"/>
  </node>
  <node id="431913540" version="2" timestamp="2011-09-17T18:21:14Z" uid="91056" user="Yarl" changeset="9326357" lat="52.4063955" lon="16.9331627">
    <tag k="amenity" v="nightclub"/>
    <tag k="name" v="Cuba Libre"/>
  </node>
  <node id="431913543" version="1" timestamp="2009-07-01T20:59:47Z" uid="123700" user="Mala" changeset="1705034" lat="52.4066207" lon="16.9331618">
    <tag k="name" v="Calzedonia"/>
    <tag k="shop" v="clothing"/>
  </node>
  <node id="431913543" version="2" timestamp="2010-09-22T00:28:54Z" uid="65148" user="Pirat Michi" changeset="5841956" lat="52.4066207" lon="16.9331618">
    <tag k="name" v="Calzedonia"/>
    <tag k="shop" v="clothes"/>
  </node>
  <node id="431913543" version="3" timestamp="2011-06-17T11:02:54Z" uid="91056" user="Yarl" changeset="8463602" lat="52.4065739" lon="16.9331759">
    <tag k="name" v="Calzedonia"/>
    <tag k="shop" v="clothes"/>
  </node>
  <node id="431913545" version="1" timestamp="2009-07-01T20:59:47Z" uid="123700" user="Mala" changeset="1705034" lat="52.4065493" lon="16.9331495">
    <tag k="name" v="Intimissimi"/>
    <tag k="operator" v="Intimissimi"/>
    <tag k="shop" v="lingerie"/>
  </node>
  <node id="431913545" version="2" timestamp="2010-08-20T08:15:07Z" uid="25504" user="Daniel Herding" changeset="5541746" lat="52.4065493" lon="16.9331495">
    <tag k="clothes" v="underwear"/>
    <tag k="name" v="Intimissimi"/>
    <tag k="operator" v="Intimissimi"/>
    <tag k="shop" v="clothes"/>
  </node>
  <node id="431913545" version="3" timestamp="2011-06-17T11:02:55Z" uid="91056" user="Yarl" changeset="8463602" lat="52.4065025" lon="16.9331636">
    <tag k="clothes" v="underwear"/>
    <tag k="name" v="Intimissimi"/>
    <tag k="operator" v="Intimissimi"/>
    <tag k="shop" v="clothes"/>
  </node>
  <node id="431913545" version="4" timestamp="2011-09-17T18:21:14Z" uid="91056" user="Yarl" changeset="9326357" lat="52.4064683" lon="16.9331636">
    <tag k="clothes" v="underwear"/>
    <tag k="name" v="Intimissimi"/>
    <tag k="operator" v="Intimissimi"/>
    <tag k="shop" v="clothes"/>
  </node>
  <node id="431913548" version="1" timestamp="2009-07-01T20:59:47Z" uid="123700" user="Mala" changeset="1705034" lat="52.4067552" lon="16.9329732">
    <tag k="amenity" v="fast_food"/>
    <tag k="cuisine" v="italian"/>
    <tag k="name" v="Piccolo"/>
  </node>
  <node id="431913548" version="2" timestamp="2011-09-08T20:59:03Z" uid="91056" user="Yarl" changeset="9249570" lat="52.4067314" lon="16.9329817">
    <tag k="amenity" v="fast_food"/>
    <tag k="cuisine" v="italian"/>
    <tag k="name" v="Piccolo"/>
  </node>
  <node id="431913552" version="1" timestamp="2009-07-01T20:59:48Z" uid="123700" user="Mala" changeset="1705034" lat="52.407037" lon="16.9330733">
    <tag k="amenity" v="restaurant"/>
    <tag k="name" v="Pod Aniołem"/>
  </node>
  <node id="431913552" version="2" timestamp="2011-09-08T20:59:03Z" uid="91056" user="Yarl" changeset="9249570" lat="52.407065" lon="16.9330716">
    <tag k="amenity" v="restaurant"/>
    <tag k="name" v="Pod Aniołem"/>
  </node>
  <node id="431913554" version="1" timestamp="2009-07-01T20:59:48Z" uid="123700" user="Mala" changeset="1705034" lat="52.4070206" lon="16.9333042">
    <tag k="amenity" v="restaurant"/>
    <tag k="cuisine" v="italian"/>
    <tag k="name" v="Valpolicella"/>
  </node>
  <node id="431913554" version="2" timestamp="2011-09-08T20:59:04Z" uid="91056" user="Yarl" changeset="9249570" lat="52.4070484" lon="16.9333151">
    <tag k="amenity" v="restaurant"/>
    <tag k="cuisine" v="italian"/>
    <tag k="name" v="Valpolicella"/>
  </node>
  <node id="431913557" version="1" timestamp="2009-07-01T20:59:48Z" uid="123700" user="Mala" changeset="1705034" lat="52.4068539" lon="16.9332657">
    <tag k="amenity" v="pub"/>
    <tag k="name" v="Proletaryat"/>
  </node>
  <node id="431913557" version="2" timestamp="2011-09-08T20:59:03Z" uid="91056" user="Yarl" changeset="9249570" lat="52.4068678" lon="16.9332657">
    <tag k="amenity" v="pub"/>
    <tag k="name" v="Proletaryat"/>
  </node>
  <node id="431913559" version="1" timestamp="2009-07-01T20:59:48Z" uid="123700" user="Mala" changeset="1705034" lat="52.4070933" lon="16.9333158">
    <tag k="name" v="Świat Książki"/>
    <tag k="operator" v="Świat Książki"/>
    <tag k="shop" v="books"/>
  </node>
  <node id="431913559" version="2" timestamp="2011-09-08T20:59:04Z" uid="91056" user="Yarl" changeset="9249570" lat="52.4071138" lon="16.9333288">
    <tag k="name" v="Świat Książki"/>
    <tag k="operator" v="Świat Książki"/>
    <tag k="shop" v="books"/>
  </node>
  <node id="431913562" version="1" timestamp="2009-07-01T20:59:48Z" uid="123700" user="Mala" changeset="1705034" lat="52.4071544" lon="16.933335">
    <tag k="amenity" v="bank"/>
    <tag k="atm" v="yes"/>
    <tag k="name" v="Eurobank"/>
  </node>
  <node id="431913562" version="2" timestamp="2011-09-08T20:58:59Z" uid="91056" user="Yarl" changeset="9249570" lat="52.407159" lon="16.9333437">
    <tag k="amenity" v="bank"/>
    <tag k="atm" v="yes"/>
    <tag k="name" v="Eurobank"/>
  </node>
  <node id="431913564" version="1" timestamp="2009-07-01T20:59:48Z" uid="123700" user="Mala" changeset="1705034" lat="52.4072624" lon="16.9331811">
    <tag k="amenity" v="bank"/>
    <tag k="atm" v="yes"/>
    <tag k="name" v="ING Bank Śląski"/>
  </node>
  <node id="431913564" version="2" timestamp="2011-09-08T20:59:02Z" uid="91056" user="Yarl" changeset="9249570" lat="52.4072741" lon="16.933195">
    <tag k="amenity" v="bank"/>
    <tag k="atm" v="yes"/>
    <tag k="name" v="ING Bank Śląski"/>
  </node>
  <node id="431913567" version="1" timestamp="2009-07-01T20:59:48Z" uid="123700" user="Mala" changeset="1705034" lat="52.4073164" lon="16.9331888">
    <tag k="amenity" v="fast_food"/>
    <tag k="name" v="Kebab Castello"/>
  </node>
  <node id="431913567" version="2" timestamp="2011-09-08T20:59:02Z" uid="91056" user="Yarl" changeset="9249570" lat="52.4073171" lon="16.9332113">
    <tag k="amenity" v="fast_food"/>
    <tag k="name" v="Kebab Castello"/>
  </node>
  <node id="431913569" version="1" timestamp="2009-07-01T20:59:48Z" uid="123700" user="Mala" changeset="1705034" lat="52.4073633" lon="16.9331965">
    <tag k="amenity" v="cafe"/>
    <tag k="name" v="Boutique Chocolaterie"/>
  </node>
  <node id="431913569" version="2" timestamp="2011-09-08T20:58:58Z" uid="91056" user="Yarl" changeset="9249570" lat="52.4073783" lon="16.9332211">
    <tag k="amenity" v="cafe"/>
    <tag k="name" v="Boutique Chocolaterie"/>
  </node>
  <node id="431913572" version="1" timestamp="2009-07-01T20:59:48Z" uid="123700" user="Mala" changeset="1705034" lat="52.4087955" lon="16.9357789">
    <tag k="amenity" v="restaurant"/>
    <tag k="name" v="Madagaskar"/>
    <tag k="note" v="also a cafe"/>
  </node>
  <node id="431913572" version="2" timestamp="2011-09-09T17:06:21Z" uid="91056" user="Yarl" changeset="9255964" lat="52.4087862" lon="16.9358235">
    <tag k="amenity" v="restaurant"/>
    <tag k="name" v="Madagaskar"/>
    <tag k="note" v="also a cafe"/>
  </node>
  <node id="431913575" version="1" timestamp="2009-07-01T20:59:48Z" uid="123700" user="Mala" changeset="1705034" lat="52.4087908" lon="16.9360945">
    <tag k="amenity" v="bank"/>
    <tag k="atm" v="yes"/>
    <tag k="name" v="Polbank"/>
  </node>
  <node id="431913578" version="1" timestamp="2009-07-01T20:59:48Z" uid="123700" user="Mala" changeset="1705034" lat="52.4087767" lon="16.9365602">
    <tag k="amenity" v="fast_food"/>
    <tag k="name" v="Orient Grill"/>
  </node>
  <node id="431913578" version="2" timestamp="2011-09-09T17:06:21Z" uid="91056" user="Yarl" changeset="9255964" lat="52.4087606" lon="16.9365922">
    <tag k="amenity" v="fast_food"/>
    <tag k="name" v="Orient Grill"/>
  </node>
  <node id="431913581" version="1" timestamp="2009-07-01T20:59:48Z" uid="123700" user="Mala" changeset="1705034" lat="52.4087626" lon="16.9369489">
    <tag k="name" v="Księgarnia imienia Z.Gustowskiego"/>
    <tag k="shop" v="books"/>
  </node>
  <node id="431913581" version="2" timestamp="2011-09-09T17:06:20Z" uid="91056" user="Yarl" changeset="9255964" lat="52.408732" lon="16.9369461">
    <tag k="name" v="Księgarnia imienia Z.Gustowskiego"/>
    <tag k="shop" v="books"/>
  </node>
  <node id="431913583" version="1" timestamp="2009-07-01T20:59:48Z" uid="123700" user="Mala" changeset="1705034" lat="52.4086053" lon="16.9367219">
    <tag k="amenity" v="fast_food"/>
    <tag k="name" v="Kebab Ankara"/>
  </node>
  <node id="431913583" version="2" timestamp="2011-06-17T11:02:55Z" uid="91056" user="Yarl" changeset="8463602" lat="52.4085196" lon="16.9367127">
    <tag k="amenity" v="fast_food"/>
    <tag k="name" v="Kebab Ankara"/>
  </node>
  <node id="431913585" version="1" timestamp="2009-07-01T20:59:48Z" uid="123700" user="Mala" changeset="1705034" lat="52.4085889" lon="16.9369066">
    <tag k="amenity" v="cafe"/>
    <tag k="name" v="Cafe Gong"/>
  </node>
  <node id="431913585" version="2" timestamp="2011-06-17T11:02:54Z" uid="91056" user="Yarl" changeset="8463602" lat="52.4085032" lon="16.9368974">
    <tag k="amenity" v="cafe"/>
    <tag k="name" v="Cafe Gong"/>
  </node>
  <node id="431913588" version="1" timestamp="2009-07-01T20:59:48Z" uid="123700" user="Mala" changeset="1705034" lat="52.4085772" lon="16.9370452">
    <tag k="amenity" v="pub"/>
    <tag k="name" v="Piwnica 21"/>
  </node>
  <node id="431913588" version="2" timestamp="2011-06-17T11:02:56Z" uid="91056" user="Yarl" changeset="8463602" lat="52.4084915" lon="16.937036">
    <tag k="amenity" v="pub"/>
    <tag k="name" v="Piwnica 21"/>
  </node>
  <node id="431913591" version="1" timestamp="2009-07-01T20:59:48Z" uid="123700" user="Mala" changeset="1705034" lat="52.4087086" lon="16.9377071">
    <tag k="amenity" v="bank"/>
    <tag k="atm" v="yes"/>
    <tag k="name" v="Bank Ochrony Środowiska SA"/>
  </node>
  <node id="431913591" version="2" timestamp="2011-09-09T17:06:15Z" uid="91056" user="Yarl" changeset="9255964" lat="52.408695" lon="16.9376806">
    <tag k="amenity" v="bank"/>
    <tag k="atm" v="yes"/>
    <tag k="name" v="Bank Ochrony Środowiska SA"/>
  </node>
  <node id="431913594" version="1" timestamp="2009-07-01T20:59:48Z" uid="123700" user="Mala" changeset="1705034" lat="52.4086946" lon="16.9379034">
    <tag k="amenity" v="bank"/>
    <tag k="atm" v="yes"/>
    <tag k="name" v="NEOBANK"/>
  </node>
  <node id="431913594" version="2" timestamp="2011-09-09T17:06:21Z" uid="91056" user="Yarl" changeset="9255964" lat="52.4086751" lon="16.937909">
    <tag k="amenity" v="bank"/>
    <tag k="atm" v="yes"/>
    <tag k="name" v="Neobank"/>
  </node>
  <node id="431913596" version="1" timestamp="2009-07-01T20:59:48Z" uid="123700" user="Mala" changeset="1705034" lat="52.4087392" lon="16.9373338">
    <tag k="amenity" v="fast_food"/>
    <tag k="name" v="Subway"/>
    <tag k="operator" v="Subway"/>
  </node>
  <node id="431913596" version="2" timestamp="2011-09-09T17:06:22Z" uid="91056" user="Yarl" changeset="9255964" lat="52.4087095" lon="16.9373672">
    <tag k="amenity" v="fast_food"/>
    <tag k="name" v="Subway"/>
    <tag k="operator" v="Subway"/>
  </node>
  <node id="431913596" version="3" timestamp="2011-09-09T17:47:26Z" uid="91056" user="Yarl" changeset="9256309" lat="52.4087227" lon="16.9372323">
    <tag k="amenity" v="fast_food"/>
    <tag k="name" v="Subway"/>
    <tag k="operator" v="Subway"/>
  </node>
  <node id="431913599" version="1" timestamp="2009-07-01T20:59:48Z" uid="123700" user="Mala" changeset="1705034" lat="52.4085631" lon="16.9372953">
    <tag k="amenity" v="bank"/>
    <tag k="name" v="GETIN Bank SA"/>
  </node>
  <node id="431913599" version="2" timestamp="2011-06-17T11:02:54Z" uid="91056" user="Yarl" changeset="8463602" lat="52.4084774" lon="16.9372861">
    <tag k="amenity" v="bank"/>
    <tag k="name" v="GETIN Bank SA"/>
  </node>
  <node id="431913601" version="1" timestamp="2009-07-01T20:59:49Z" uid="123700" user="Mala" changeset="1705034" lat="52.4085607" lon="16.9373838">
    <tag k="shop" v="convenience"/>
  </node>
  <node id="431913601" version="2" timestamp="2011-06-17T11:03:06Z" uid="91056" user="Yarl" changeset="8463602" lat="52.408475" lon="16.9373746">
    <tag k="shop" v="convenience"/>
  </node>
  <node id="431913603" version="1" timestamp="2009-07-01T20:59:49Z" uid="123700" user="Mala" changeset="1705034" lat="52.4085513" lon="16.9375416">
    <tag k="amenity" v="restaurant"/>
    <tag k="name" v="Bee"/>
    <tag k="note" v="also a club"/>
  </node>
  <node id="431913603" version="2" timestamp="2011-06-17T11:02:54Z" uid="91056" user="Yarl" changeset="8463602" lat="52.4084656" lon="16.9375324">
    <tag k="amenity" v="restaurant"/>
    <tag k="name" v="Bee"/>
    <tag k="note" v="also a club"/>
  </node>
  <node id="431913604" version="1" timestamp="2009-07-01T20:59:49Z" uid="123700" user="Mala" changeset="1705034" lat="52.4085373" lon="16.9378688">
    <tag k="name" v="Galeria Wielka"/>
    <tag k="shop" v="art_gallery"/>
  </node>
  <node id="431913604" version="2" timestamp="2010-09-19T16:39:12Z" uid="5211" user="emvee" changeset="5821655" lat="52.4085373" lon="16.9378688">
    <tag k="name" v="Galeria Wielka"/>
    <tag k="shop" v="art"/>
  </node>
  <node id="431913604" version="3" timestamp="2011-09-09T17:06:17Z" uid="91056" user="Yarl" changeset="9255964" lat="52.4084853" lon="16.9378827">
    <tag k="name" v="Galeria Wielka"/>
    <tag k="shop" v="art"/>
  </node>
  <node id="431913605" version="1" timestamp="2009-07-01T20:59:49Z" uid="123700" user="Mala" changeset="1705034" lat="52.4084621" lon="16.9382498">
    <tag k="shop" v="supermarket"/>
  </node>
  <node id="431915124" version="1" timestamp="2009-07-01T21:00:54Z" uid="6269" user="Mueck" changeset="1705042" lat="49.049248" lon="8.4480993"/>
  <node id="431915124" version="2" timestamp="2011-02-12T01:09:39Z" uid="6269" user="Mueck" changeset="7259787" lat="49.0492746" lon="8.4481141"/>
  <node id="431915737" version="1" timestamp="2009-07-01T21:01:35Z" uid="6269" user="Mueck" changeset="1705042" lat="49.041817" lon="8.454418"/>
  <node id="431915737" version="2" timestamp="2009-07-01T21:02:14Z" uid="6269" user="Mueck" changeset="1705042" lat="49.041817" lon="8.454418">
    <tag k="boundary" v="city_limit"/>
    <tag k="is_in" v="de"/>
    <tag k="name" v="Karlsruhe Reitschulschlagsiedlung"/>
    <tag k="traffic_sign" v="city_limit"/>
  </node>
  <node id="431915737" version="3" timestamp="2011-05-13T17:46:08Z" uid="165061" user="keinname" changeset="8133641" lat="49.0417215" lon="8.454451">
    <tag k="boundary" v="city_limit"/>
    <tag k="is_in" v="de"/>
    <tag k="name" v="Karlsruhe Reitschulschlagsiedlung"/>
    <tag k="traffic_sign" v="city_limit"/>
  </node>
  <node id="431918840" version="1" timestamp="2009-07-01T21:04:29Z" uid="6269" user="Mueck" changeset="1705042" lat="49.0450344" lon="8.4549057"/>
  <node id="431918843" version="1" timestamp="2009-07-01T21:04:29Z" uid="6269" user="Mueck" changeset="1705042" lat="49.0461877" lon="8.4556095"/>
  <node id="431918846" version="1" timestamp="2009-07-01T21:04:29Z" uid="6269" user="Mueck" changeset="1705042" lat="49.044725" lon="8.4583046"/>
  <node id="431918846" version="2" timestamp="2011-05-14T09:33:02Z" uid="165061" user="keinname" changeset="8138393" lat="49.0447577" lon="8.4582861"/>
  <node id="431918846" version="3" timestamp="2011-08-13T11:16:24Z" uid="165061" user="keinname" changeset="9004303" lat="49.0447577" lon="8.4582861"/>
  <node id="431918848" version="1" timestamp="2009-07-01T21:04:29Z" uid="6269" user="Mueck" changeset="1705042" lat="49.0426602" lon="8.4577123"/>
  <node id="431918852" version="1" timestamp="2009-07-01T21:04:29Z" uid="6269" user="Mueck" changeset="1705042" lat="49.0426321" lon="8.4559099"/>
  <node id="431918854" version="1" timestamp="2009-07-01T21:04:29Z" uid="6269" user="Mueck" changeset="1705042" lat="49.0445562" lon="8.4565193"/>
  <node id="431919079" version="2" timestamp="2010-01-15T21:07:59Z" uid="9581" user="Lobelt" changeset="3627436" lat="49.1512446" lon="9.1466255">
    <tag k="cables" v="6"/>
    <tag k="levels" v="2"/>
    <tag k="power" v="tower"/>
    <tag k="ref" v="Anlage 301, Mast 028"/>
    <tag k="voltage" v="220000"/>
    <tag k="wires" v="2"/>
  </node>
  <node id="431919079" version="3" timestamp="2010-01-22T01:57:57Z" uid="92274" user="adjuva" changeset="3679847" lat="49.1512446" lon="9.1466255">
    <tag k="cables" v="6"/>
    <tag k="levels" v="2"/>
    <tag k="power" v="tower"/>
    <tag k="ref" v="Anlage 301, Mast 028"/>
    <tag k="voltage" v="220000"/>
    <tag k="wires" v="double"/>
  </node>
  <node id="431919079" version="4" timestamp="2011-01-25T21:20:09Z" uid="136321" user="Teddy73" changeset="7085871" lat="49.1512228" lon="9.1466962">
    <tag k="cables" v="6"/>
    <tag k="levels" v="2"/>
    <tag k="power" v="tower"/>
    <tag k="ref" v="Anlage 301, Mast 028"/>
    <tag k="voltage" v="220000"/>
    <tag k="wires" v="double"/>
  </node>
  <node id="431919079" version="5" timestamp="2012-01-02T12:38:02Z" uid="131968" user="changchun_1" changeset="10270124" lat="49.1512228" lon="9.1466962"/>
  <node id="431919083" version="2" timestamp="2010-01-15T21:07:59Z" uid="9581" user="Lobelt" changeset="3627436" lat="49.1459198" lon="9.1510633">
    <tag k="power" v="tower"/>
  </node>
  <node id="431919083" version="3" timestamp="2012-01-02T12:38:02Z" uid="131968" user="changchun_1" changeset="10270124" lat="49.1459198" lon="9.1510633"/>
  <node id="431919084" version="3" timestamp="2010-01-15T21:08:01Z" uid="9581" user="Lobelt" changeset="3627436" lat="49.154603" lon="9.1460664"/>
  <node id="431919084" version="4" timestamp="2012-01-02T12:38:02Z" uid="131968" user="changchun_1" changeset="10270124" lat="49.154603" lon="9.1460664"/>
  <node id="431919085" version="2" timestamp="2010-01-15T21:08:26Z" uid="9581" user="Lobelt" changeset="3627436" lat="49.1513261" lon="9.147611">
    <tag k="cables" v="6"/>
    <tag k="levels" v="2"/>
    <tag k="operator" v="EVS AG"/>
    <tag k="power" v="tower"/>
    <tag k="ref" v="Anlage 320, Mast 22"/>
    <tag k="voltage" v="220000"/>
    <tag k="wires" v="2"/>
  </node>
  <node id="431919089" version="2" timestamp="2010-01-15T21:08:00Z" uid="9581" user="Lobelt" changeset="3627436" lat="49.1461791" lon="9.1518584">
    <tag k="power" v="tower"/>
  </node>
  <node id="431919089" version="3" timestamp="2012-01-02T12:38:02Z" uid="131968" user="changchun_1" changeset="10270124" lat="49.1461791" lon="9.1518584"/>
  <node id="431919091" version="2" timestamp="2010-01-15T21:08:26Z" uid="9581" user="Lobelt" changeset="3627436" lat="49.1516147" lon="9.1473794"/>
  <node id="431919394" version="1" timestamp="2009-07-01T21:05:00Z" uid="6269" user="Mueck" changeset="1705042" lat="49.0432566" lon="8.4537298"/>
  <node id="431919397" version="1" timestamp="2009-07-01T21:05:00Z" uid="6269" user="Mueck" changeset="1705042" lat="49.0432435" lon="8.4561035"/>
  <node id="431919398" version="1" timestamp="2009-07-01T21:05:00Z" uid="6269" user="Mueck" changeset="1705042" lat="49.0426265" lon="8.4536525"/>
  <node id="431919398" version="2" timestamp="2011-08-13T10:55:19Z" uid="165061" user="keinname" changeset="9004303" lat="49.0426303" lon="8.4533451"/>
</osm>
