<?xml version='1.0' encoding='UTF-8'?>
<osm version="0.6" generator="libosmium/2.20.0">
  <node id="432175214" version="2" timestamp="2010-06-29T19:02:45Z" uid="74617" user="JohnSmith" changeset="5108182" lat="32.2118184" lon="35.1911671">
    <tag k="fixme" v="sport=football is ambiguous, see http://wiki.osm.org/wiki/Football for more details"/>
    <tag k="leisure" v="stadium"/>
    <tag k="name" v="Sorrah Youth"/>
    <tag k="name:ar" v="ملعب نادي شباب صرة"/>
    <tag k="sport" v="football"/>
  </node>
  <node id="432175465" version="2" timestamp="2010-06-29T19:01:43Z" uid="74617" user="JohnSmith" changeset="5108182" lat="31.5983772" lon="35.0231462">
    <tag k="fixme" v="sport=football is ambiguous, see http://wiki.osm.org/wiki/Football for more details"/>
    <tag k="leisure" v="stadium"/>
    <tag k="name" v="Beit Ula Stadium"/>
    <tag k="name:ar" v="ملعب بيت اولا"/>
    <tag k="sport" v="football"/>
  </node>
  <node id="432179155" version="2" timestamp="2009-09-10T19:14:57Z" uid="38524" user="Kuddy" changeset="2440070" lat="50.2235096" lon="6.8448788">
    <tag k="amenity" v="place_of_worship"/>
    <tag k="name" v="St. Kunibert"/>
  </node>
  <node id="432179155" version="3" timestamp="2010-02-09T21:25:16Z" uid="31310" user="ComPerkins" changeset="3836116" lat="50.2235096" lon="6.8448788">
    <tag k="amenity" v="place_of_worship"/>
    <tag k="name" v="St. Kunibert"/>
  </node>
</osm>
