<?xml version='1.0' encoding='UTF-8'?>
<osm version="0.6" generator="libosmium/2.20.0">
  <node id="433241460" version="3" timestamp="2010-07-01T17:18:45Z" uid="115477" user="wowik" changeset="5122142" lat="57.0809561" lon="37.517503">
    <tag k="addr:city" v="Центральное сельское поселение"/>
    <tag k="addr:country" v="RU"/>
    <tag k="addr:district" v="Кимрский район"/>
    <tag k="addr:postcode" v="171515"/>
    <tag k="addr:region" v="Тверская область"/>
    <tag k="cladr:code" v="6901400303500"/>
    <tag k="cladr:name" v="Медведицкое"/>
    <tag k="cladr:suffix" v="Село"/>
    <tag k="name" v="Медведицкое"/>
    <tag k="place" v="hamlet"/>
  </node>
  <node id="433241460" version="4" timestamp="2011-08-07T17:04:58Z" uid="297358" user="patashnik" changeset="8949329" lat="57.0809561" lon="37.517503">
    <tag k="addr:city" v="Центральное сельское поселение"/>
    <tag k="addr:country" v="RU"/>
    <tag k="addr:district" v="Кимрский район"/>
    <tag k="addr:region" v="Тверская область"/>
    <tag k="cladr:code" v="6901400303500"/>
    <tag k="name" v="Медведицкое"/>
    <tag k="place" v="hamlet"/>
  </node>
  <node id="433241463" version="3" timestamp="2010-07-01T17:02:18Z" uid="115477" user="wowik" changeset="5122059" lat="57.0818748" lon="37.5039148">
    <tag k="addr:city" v="Центральное сельское поселение"/>
    <tag k="addr:country" v="RU"/>
    <tag k="addr:district" v="Кимрский район"/>
    <tag k="addr:postcode" v="171515"/>
    <tag k="addr:region" v="Тверская область"/>
    <tag k="cladr:code" v="6901400303800"/>
    <tag k="cladr:name" v="Новые Миглощи"/>
    <tag k="cladr:suffix" v="Деревня"/>
    <tag k="name" v="Новые Миглощи"/>
    <tag k="place" v="hamlet"/>
  </node>
  <node id="433241463" version="4" timestamp="2010-07-01T17:18:45Z" uid="115477" user="wowik" changeset="5122142" lat="57.083557" lon="37.502883">
    <tag k="addr:city" v="Центральное сельское поселение"/>
    <tag k="addr:country" v="RU"/>
    <tag k="addr:district" v="Кимрский район"/>
    <tag k="addr:postcode" v="171515"/>
    <tag k="addr:region" v="Тверская область"/>
    <tag k="cladr:code" v="6901400303800"/>
    <tag k="cladr:name" v="Новые Миглощи"/>
    <tag k="cladr:suffix" v="Деревня"/>
    <tag k="name" v="Новые Миглощи"/>
    <tag k="place" v="hamlet"/>
  </node>
  <node id="433241463" version="5" timestamp="2011-08-09T04:59:05Z" uid="297358" user="patashnik" changeset="8963467" lat="57.083557" lon="37.502883">
    <tag k="addr:city" v="Центральное сельское поселение"/>
    <tag k="addr:country" v="RU"/>
    <tag k="addr:district" v="Кимрский район"/>
    <tag k="addr:region" v="Тверская область"/>
    <tag k="cladr:code" v="6901400303800"/>
    <tag k="name" v="Новые Миглощи"/>
    <tag k="place" v="hamlet"/>
  </node>
  <node id="433241474" version="3" timestamp="2010-12-06T10:39:58Z" uid="115477" user="wowik" changeset="6561471" lat="57.0582988" lon="37.4328686">
    <tag k="name" v="Клыпино"/>
    <tag k="place" v="hamlet"/>
  </node>
  <node id="433241474" version="4" timestamp="2012-01-26T21:11:46Z" uid="384084" user="Kostik" changeset="10507299" lat="57.0582988" lon="37.4328686">
    <tag k="name" v="Клыпино"/>
    <tag k="place" v="hamlet"/>
  </node>
</osm>
