<?xml version='1.0' encoding='UTF-8'?>
<osm version="0.6" generator="libosmium/2.20.0">
  <node id="434855770" version="2" timestamp="2009-09-23T13:31:51Z" uid="9581" user="Lobelt" changeset="2595487" lat="50.8709498" lon="12.072997"/>
  <node id="434856047" version="2" timestamp="2010-05-12T10:18:06Z" uid="7617" user="Franc" changeset="4675903" lat="-33.9263602" lon="151.1592687">
    <tag k="amenity" v="fast_food"/>
    <tag k="amenity:toilets" v="yes"/>
    <tag k="name" v="Dino&apos;s Diner"/>
    <tag k="note" v="Big Things: Big Hotdog"/>
    <tag k="tourism" v="attraction"/>
  </node>
  <node id="434856047" version="3" timestamp="2010-08-11T06:19:46Z" uid="331779" user="Jon72" changeset="5459716" lat="-33.9263602" lon="151.1592686">
    <tag k="amenity" v="fast_food"/>
    <tag k="amenity:toilets" v="yes"/>
    <tag k="name" v="Harrys Cafe de Wheels"/>
    <tag k="note" v="http://www.harryscafedewheels.com.au"/>
    <tag k="operator" v="http://www.harryscafedewheels.com.au"/>
    <tag k="shop" v="department_store"/>
  </node>
  <node id="434856047" version="4" timestamp="2010-08-11T06:22:49Z" uid="331779" user="Jon72" changeset="5459738" lat="-33.9263601" lon="151.1592685">
    <tag k="amenity" v="fast_food"/>
    <tag k="amenity:toilets" v="yes"/>
    <tag k="name" v="Harrys Cafe de Wheels"/>
    <tag k="note" v="http://www.harryscafedewheels.com.au"/>
    <tag k="operator" v="http://www.harryscafedewheels.com.au"/>
  </node>
</osm>
