<?xml version='1.0' encoding='UTF-8'?>
<osm version="0.6" generator="libosmium/2.20.0">
  <node id="435980827" version="2" timestamp="2009-07-19T08:11:41Z" uid="59758" user="rendle" changeset="1870455" lat="-5.98025" lon="29.84325">
    <tag k="created_by" v="JOSM"/>
  </node>
  <node id="435981420" version="2" timestamp="2009-07-19T08:11:41Z" uid="59758" user="rendle" changeset="1870455" lat="-6.106" lon="29.73225">
    <tag k="created_by" v="JOSM"/>
  </node>
  <node id="435981690" version="2" timestamp="2009-07-19T08:08:50Z" uid="59758" user="rendle" changeset="1870455" lat="-5.48675" lon="29.77825">
    <tag k="created_by" v="JOSM"/>
  </node>
  <node id="435981993" version="3" timestamp="2009-07-23T23:49:26Z" uid="123700" user="Mala" changeset="1920545" lat="-5.2" lon="21.7166667">
    <tag k="alt_name" v="DR Congo;DRC;RDC;Congo (Kinshasa)"/>
    <tag k="capital_city" v="Kinshasa"/>
    <tag k="country_code_fips" v="CG"/>
    <tag k="country_code_iso3166_1_alpha_2" v="CD"/>
    <tag k="geonames:id" v="203312"/>
    <tag k="int_name" v="Democratic Republic of the Congo"/>
    <tag k="is_in:continent" v="Africa"/>
    <tag k="name" v="République Démocratique du Congo"/>
    <tag k="name:af" v="Demokratiese Republiek van die Kongo"/>
    <tag k="name:ar" v="الكونغو"/>
    <tag k="name:cy" v="Gweriniaeth Ddemocrataidd Congo"/>
    <tag k="name:da" v="Demokratiske Republik Congo"/>
    <tag k="name:en" v="Democratic Republic of the Congo"/>
    <tag k="name:eo" v="Demokratia Respubliko Kongo"/>
    <tag k="name:es" v="República Democrática del Congo"/>
    <tag k="name:fi" v="Kongon demokraattinen tasavalta"/>
    <tag k="name:fr" v="République démocratique du Congo"/>
    <tag k="name:hu" v="Kongói Demokratikus Köztársaság"/>
    <tag k="name:it" v="Repubblica Democratica del Congo"/>
    <tag k="name:kg" v="Repubilika ya Kongo Demokratiki"/>
    <tag k="name:ln" v="Republiki ya Kongó Demokratiki"/>
    <tag k="name:lua" v="Ditunga dia Kongu wa Mungalaata"/>
    <tag k="name:pl" v="Demokratyczna Republika Konga"/>
    <tag k="name:sw" v="Jamhuri ya Kidemokrasia ya Kongo"/>
    <tag k="note" v="Do not confuse with  Republic of the Congo"/>
    <tag k="old_name" v="Congo Free State;Belgian Congo;Congo-Léopoldville;Congo-Kinshasa;Zaire"/>
    <tag k="place" v="country"/>
    <tag k="population" v="62600000"/>
    <tag k="watch:hakan" v="countries"/>
    <tag k="wikipedia" v="Democratic Republic of the Congo"/>
  </node>
  <node id="435981993" version="4" timestamp="2009-07-28T19:34:31Z" uid="111159" user="MaZderMind" changeset="1969185" lat="-5.1999963" lon="21.7166592">
    <tag k="alt_name" v="DR Congo;DRC;RDC;Congo (Kinshasa)"/>
    <tag k="capital_city" v="Kinshasa"/>
    <tag k="country_code_fips" v="CG"/>
    <tag k="country_code_iso3166_1_alpha_2" v="CD"/>
    <tag k="geonames:id" v="203312"/>
    <tag k="int_name" v="Democratic Republic of the Congo"/>
    <tag k="is_in:continent" v="Africa"/>
    <tag k="name" v="République Démocratique du Congo"/>
    <tag k="name:af" v="Demokratiese Republiek van die Kongo"/>
    <tag k="name:ar" v="الكونغو"/>
    <tag k="name:cy" v="Gweriniaeth Ddemocrataidd Congo"/>
    <tag k="name:da" v="Demokratiske Republik Congo"/>
    <tag k="name:de" v="Demokratische Republik Kongo"/>
    <tag k="name:en" v="Democratic Republic of the Congo"/>
    <tag k="name:eo" v="Demokratia Respubliko Kongo"/>
    <tag k="name:es" v="República Democrática del Congo"/>
    <tag k="name:fi" v="Kongon demokraattinen tasavalta"/>
    <tag k="name:fr" v="République démocratique du Congo"/>
    <tag k="name:hu" v="Kongói Demokratikus Köztársaság"/>
    <tag k="name:it" v="Repubblica Democratica del Congo"/>
    <tag k="name:kg" v="Repubilika ya Kongo Demokratiki"/>
    <tag k="name:ln" v="Republiki ya Kongó Demokratiki"/>
    <tag k="name:lua" v="Ditunga dia Kongu wa Mungalaata"/>
    <tag k="name:pl" v="Demokratyczna Republika Konga"/>
    <tag k="name:sw" v="Jamhuri ya Kidemokrasia ya Kongo"/>
    <tag k="note" v="Do not confuse with  Republic of the Congo"/>
    <tag k="old_name" v="Congo Free State;Belgian Congo;Congo-Léopoldville;Congo-Kinshasa;Zaire"/>
    <tag k="place" v="country"/>
    <tag k="population" v="62600000"/>
    <tag k="watch:hakan" v="countries"/>
    <tag k="wikipedia" v="Democratic Republic of the Congo"/>
  </node>
  <node id="435981993" version="5" timestamp="2009-08-02T11:25:52Z" uid="121389" user="Rastatter" changeset="2012976" lat="-5.1999888" lon="21.7166509">
    <tag k="alt_name" v="DR Congo;DRC;RDC;Congo (Kinshasa)"/>
    <tag k="capital_city" v="Kinshasa"/>
    <tag k="country_code_fips" v="CG"/>
    <tag k="country_code_iso3166_1_alpha_2" v="CD"/>
    <tag k="geonames:id" v="203312"/>
    <tag k="int_name" v="République Démocratique du Congo"/>
    <tag k="is_in:continent" v="Africa"/>
    <tag k="name" v="République Démocratique du Congo"/>
    <tag k="name:af" v="Demokratiese Republiek van die Kongo"/>
    <tag k="name:ar" v="الكونغو"/>
    <tag k="name:cy" v="Gweriniaeth Ddemocrataidd Congo"/>
    <tag k="name:da" v="Demokratiske Republik Congo"/>
    <tag k="name:de" v="Demokratische Republik Kongo"/>
    <tag k="name:en" v="Democratic Republic of the Congo"/>
    <tag k="name:eo" v="Demokratia Respubliko Kongo"/>
    <tag k="name:es" v="República Democrática del Congo"/>
    <tag k="name:fi" v="Kongon demokraattinen tasavalta"/>
    <tag k="name:fr" v="République démocratique du Congo"/>
    <tag k="name:hu" v="Kongói Demokratikus Köztársaság"/>
    <tag k="name:it" v="Repubblica Democratica del Congo"/>
    <tag k="name:kg" v="Repubilika ya Kongo Demokratiki"/>
    <tag k="name:ln" v="Republiki ya Kongó Demokratiki"/>
    <tag k="name:lua" v="Ditunga dia Kongu wa Mungalaata"/>
    <tag k="name:pl" v="Demokratyczna Republika Konga"/>
    <tag k="name:sw" v="Jamhuri ya Kidemokrasia ya Kongo"/>
    <tag k="note" v="Do not confuse with  Republic of the Congo"/>
    <tag k="old_name" v="Congo Free State;Belgian Congo;Congo-Léopoldville;Congo-Kinshasa;Zaire"/>
    <tag k="place" v="country"/>
    <tag k="population" v="62600000"/>
    <tag k="watch:hakan" v="countries"/>
    <tag k="wikipedia" v="Democratic Republic of the Congo"/>
  </node>
  <node id="435981993" version="6" timestamp="2009-08-04T19:53:25Z" uid="10610" user="RedFox" changeset="2039537" lat="-5.1999888" lon="21.7166509">
    <tag k="alt_name" v="Congo-Kinshasa;Congo (Kinshasa);Congo;RD Congo;RDC"/>
    <tag k="capital_city" v="Kinshasa"/>
    <tag k="country_code_fips" v="CG"/>
    <tag k="country_code_iso3166_1_alpha_2" v="CD"/>
    <tag k="geonames:id" v="203312"/>
    <tag k="int_name" v="République Démocratique du Congo"/>
    <tag k="is_in:continent" v="Africa"/>
    <tag k="name" v="République Démocratique du Congo"/>
    <tag k="name:af" v="Demokratiese Republiek van die Kongo"/>
    <tag k="name:ar" v="الكونغو"/>
    <tag k="name:cy" v="Gweriniaeth Ddemocrataidd Congo"/>
    <tag k="name:da" v="Demokratiske Republik Congo"/>
    <tag k="name:de" v="Demokratische Republik Kongo"/>
    <tag k="name:en" v="Democratic Republic of the Congo"/>
    <tag k="name:eo" v="Demokratia Respubliko Kongo"/>
    <tag k="name:es" v="República Democrática del Congo"/>
    <tag k="name:fi" v="Kongon demokraattinen tasavalta"/>
    <tag k="name:fr" v="République démocratique du Congo"/>
    <tag k="name:hu" v="Kongói Demokratikus Köztársaság"/>
    <tag k="name:it" v="Repubblica Democratica del Congo"/>
    <tag k="name:kg" v="Repubilika ya Kongo Demokratiki"/>
    <tag k="name:ln" v="Republiki ya Kongó Demokratiki"/>
    <tag k="name:lua" v="Ditunga dia Kongu wa Mungalaata"/>
    <tag k="name:pl" v="Demokratyczna Republika Konga"/>
    <tag k="name:sw" v="Jamhuri ya Kidemokrasia ya Kongo"/>
    <tag k="note" v="Do not confuse with  Republic of the Congo"/>
    <tag k="official_name:fr" v="République démocratique du Congo"/>
    <tag k="old_name" v="Congo Free State;Belgian Congo;Congo-Léopoldville;Congo-Kinshasa;Zaire"/>
    <tag k="old_name:fr" v="Zaïre;Congo Belge;Congo-Léopoldville"/>
    <tag k="place" v="country"/>
    <tag k="population" v="68692542"/>
    <tag k="watch:hakan" v="countries"/>
    <tag k="wikipedia" v="Democratic Republic of the Congo"/>
    <tag k="wikipedia:fr" v="République démocratique du Congo"/>
  </node>
  <node id="435981993" version="7" timestamp="2009-08-13T00:42:00Z" uid="48796" user="Ldp" changeset="2125562" lat="-5.1999888" lon="21.7166509">
    <tag k="alt_name" v="Congo-Kinshasa;Congo (Kinshasa);Congo;RD Congo;RDC"/>
    <tag k="capital_city" v="Kinshasa"/>
    <tag k="country_code_fips" v="CG"/>
    <tag k="country_code_iso3166_1_alpha_2" v="CD"/>
    <tag k="geonames:id" v="203312"/>
    <tag k="int_name" v="République Démocratique du Congo"/>
    <tag k="is_in:continent" v="Africa"/>
    <tag k="name" v="République Démocratique du Congo"/>
    <tag k="name:af" v="Demokratiese Republiek van die Kongo"/>
    <tag k="name:ar" v="الكونغو"/>
    <tag k="name:cy" v="Gweriniaeth Ddemocrataidd Congo"/>
    <tag k="name:da" v="Demokratiske Republik Congo"/>
    <tag k="name:de" v="Demokratische Republik Kongo"/>
    <tag k="name:en" v="Democratic Republic of the Congo"/>
    <tag k="name:eo" v="Demokratia Respubliko Kongo"/>
    <tag k="name:es" v="República Democrática del Congo"/>
    <tag k="name:fi" v="Kongon demokraattinen tasavalta"/>
    <tag k="name:fr" v="République démocratique du Congo"/>
    <tag k="name:hu" v="Kongói Demokratikus Köztársaság"/>
    <tag k="name:it" v="Repubblica Democratica del Congo"/>
    <tag k="name:kg" v="Repubilika ya Kongo Demokratiki"/>
    <tag k="name:ln" v="Republiki ya Kongó Demokratiki"/>
    <tag k="name:lua" v="Ditunga dia Kongu wa Mungalaata"/>
    <tag k="name:nl" v="Democratische Republiek Congo"/>
    <tag k="name:pl" v="Demokratyczna Republika Konga"/>
    <tag k="name:sw" v="Jamhuri ya Kidemokrasia ya Kongo"/>
    <tag k="note" v="Do not confuse with  Republic of the Congo"/>
    <tag k="official_name:fr" v="République démocratique du Congo"/>
    <tag k="old_name" v="Congo Free State;Belgian Congo;Congo-Léopoldville;Congo-Kinshasa;Zaire"/>
    <tag k="old_name:fr" v="Zaïre;Congo Belge;Congo-Léopoldville"/>
    <tag k="place" v="country"/>
    <tag k="population" v="68692542"/>
    <tag k="watch:hakan" v="countries"/>
    <tag k="wikipedia" v="Democratic Republic of the Congo"/>
    <tag k="wikipedia:fr" v="République démocratique du Congo"/>
  </node>
  <node id="435981993" version="8" timestamp="2009-08-13T01:31:18Z" uid="48796" user="Ldp" changeset="2125812" lat="-5.1999888" lon="21.7166509">
    <tag k="alt_name" v="Congo-Kinshasa;Congo (Kinshasa);Congo;RD Congo;RDC"/>
    <tag k="capital_city" v="Kinshasa"/>
    <tag k="country_code_fips" v="CG"/>
    <tag k="country_code_iso3166_1_alpha_2" v="CD"/>
    <tag k="geonames:id" v="203312"/>
    <tag k="int_name" v="République Démocratique du Congo"/>
    <tag k="is_in:continent" v="Africa"/>
    <tag k="name" v="République Démocratique du Congo"/>
    <tag k="name:af" v="Demokratiese Republiek van die Kongo"/>
    <tag k="name:ar" v="الكونغو"/>
    <tag k="name:cy" v="Gweriniaeth Ddemocrataidd Congo"/>
    <tag k="name:da" v="Demokratiske Republik Congo"/>
    <tag k="name:de" v="Demokratische Republik Kongo"/>
    <tag k="name:en" v="Democratic Republic of the Congo"/>
    <tag k="name:eo" v="Demokratia Respubliko Kongo"/>
    <tag k="name:es" v="República Democrática del Congo"/>
    <tag k="name:fi" v="Kongon demokraattinen tasavalta"/>
    <tag k="name:fr" v="République démocratique du Congo"/>
    <tag k="name:fy" v="Demokratyske Republyk de Kongo"/>
    <tag k="name:hu" v="Kongói Demokratikus Köztársaság"/>
    <tag k="name:it" v="Repubblica Democratica del Congo"/>
    <tag k="name:kg" v="Repubilika ya Kongo Demokratiki"/>
    <tag k="name:ln" v="Republiki ya Kongó Demokratiki"/>
    <tag k="name:lua" v="Ditunga dia Kongu wa Mungalaata"/>
    <tag k="name:nl" v="Democratische Republiek Congo"/>
    <tag k="name:pl" v="Demokratyczna Republika Konga"/>
    <tag k="name:sw" v="Jamhuri ya Kidemokrasia ya Kongo"/>
    <tag k="note" v="Do not confuse with  Republic of the Congo"/>
    <tag k="official_name:fr" v="République démocratique du Congo"/>
    <tag k="old_name" v="Congo Free State;Belgian Congo;Congo-Léopoldville;Congo-Kinshasa;Zaire"/>
    <tag k="old_name:fr" v="Zaïre;Congo Belge;Congo-Léopoldville"/>
    <tag k="place" v="country"/>
    <tag k="population" v="68692542"/>
    <tag k="watch:hakan" v="countries"/>
    <tag k="wikipedia" v="Democratic Republic of the Congo"/>
    <tag k="wikipedia:fr" v="République démocratique du Congo"/>
  </node>
  <node id="435981993" version="9" timestamp="2009-08-13T01:42:47Z" uid="24965" user="Ævar Arnfjörð Bjarmason" changeset="2125860" lat="-5.1999888" lon="21.7166509">
    <tag k="alt_name" v="Congo-Kinshasa;Congo (Kinshasa);Congo;RD Congo;RDC"/>
    <tag k="capital_city" v="Kinshasa"/>
    <tag k="country_code_fips" v="CG"/>
    <tag k="country_code_iso3166_1_alpha_2" v="CD"/>
    <tag k="geonames:id" v="203312"/>
    <tag k="int_name" v="République Démocratique du Congo"/>
    <tag k="is_in:continent" v="Africa"/>
    <tag k="name" v="République Démocratique du Congo"/>
    <tag k="name:af" v="Demokratiese Republiek van die Kongo"/>
    <tag k="name:ar" v="الكونغو"/>
    <tag k="name:cy" v="Gweriniaeth Ddemocrataidd Congo"/>
    <tag k="name:da" v="Demokratiske Republik Congo"/>
    <tag k="name:de" v="Demokratische Republik Kongo"/>
    <tag k="name:en" v="Democratic Republic of the Congo"/>
    <tag k="name:eo" v="Demokratia Respubliko Kongo"/>
    <tag k="name:es" v="República Democrática del Congo"/>
    <tag k="name:fi" v="Kongon demokraattinen tasavalta"/>
    <tag k="name:fr" v="République démocratique du Congo"/>
    <tag k="name:fy" v="Demokratyske Republyk de Kongo"/>
    <tag k="name:hu" v="Kongói Demokratikus Köztársaság"/>
    <tag k="name:is" v="Vestur-Kongó"/>
    <tag k="name:it" v="Repubblica Democratica del Congo"/>
    <tag k="name:kg" v="Repubilika ya Kongo Demokratiki"/>
    <tag k="name:ln" v="Republiki ya Kongó Demokratiki"/>
    <tag k="name:lua" v="Ditunga dia Kongu wa Mungalaata"/>
    <tag k="name:nl" v="Democratische Republiek Congo"/>
    <tag k="name:pl" v="Demokratyczna Republika Konga"/>
    <tag k="name:sw" v="Jamhuri ya Kidemokrasia ya Kongo"/>
    <tag k="note" v="Do not confuse with  Republic of the Congo"/>
    <tag k="official_name:fr" v="République démocratique du Congo"/>
    <tag k="old_name" v="Congo Free State;Belgian Congo;Congo-Léopoldville;Congo-Kinshasa;Zaire"/>
    <tag k="old_name:fr" v="Zaïre;Congo Belge;Congo-Léopoldville"/>
    <tag k="place" v="country"/>
    <tag k="population" v="68692542"/>
    <tag k="watch:hakan" v="countries"/>
    <tag k="wikipedia" v="Democratic Republic of the Congo"/>
    <tag k="wikipedia:fr" v="République démocratique du Congo"/>
  </node>
  <node id="435981993" version="10" timestamp="2009-08-13T03:50:32Z" uid="48796" user="Ldp" changeset="2126329" lat="-5.1999888" lon="21.7166509">
    <tag k="alt_name" v="Congo-Kinshasa;Congo (Kinshasa);Congo;RD Congo;RDC"/>
    <tag k="capital_city" v="Kinshasa"/>
    <tag k="country_code_fips" v="CG"/>
    <tag k="country_code_iso3166_1_alpha_2" v="CD"/>
    <tag k="geonames:id" v="203312"/>
    <tag k="int_name" v="République Démocratique du Congo"/>
    <tag k="is_in:continent" v="Africa"/>
    <tag k="name" v="République Démocratique du Congo"/>
    <tag k="name:af" v="Demokratiese Republiek van die Kongo"/>
    <tag k="name:ar" v="الكونغو"/>
    <tag k="name:cy" v="Gweriniaeth Ddemocrataidd Congo"/>
    <tag k="name:da" v="Demokratiske Republik Congo"/>
    <tag k="name:de" v="Demokratische Republik Kongo"/>
    <tag k="name:en" v="Democratic Republic of the Congo"/>
    <tag k="name:eo" v="Demokratia Respubliko Kongo"/>
    <tag k="name:es" v="República Democrática del Congo"/>
    <tag k="name:fi" v="Kongon demokraattinen tasavalta"/>
    <tag k="name:fr" v="République démocratique du Congo"/>
    <tag k="name:fy" v="Demokratyske Republyk de Kongo"/>
    <tag k="name:hu" v="Kongói Demokratikus Köztársaság"/>
    <tag k="name:is" v="Vestur-Kongó"/>
    <tag k="name:it" v="Repubblica Democratica del Congo"/>
    <tag k="name:kg" v="Repubilika ya Kongo Demokratiki"/>
    <tag k="name:ln" v="Republiki ya Kongó Demokratiki"/>
    <tag k="name:lua" v="Ditunga dia Kongu wa Mungalaata"/>
    <tag k="name:nl" v="Democratische Republiek Congo"/>
    <tag k="name:pl" v="Demokratyczna Republika Konga"/>
    <tag k="name:sv" v="Demokratiska republiken Kongo"/>
    <tag k="name:sw" v="Jamhuri ya Kidemokrasia ya Kongo"/>
    <tag k="note" v="Do not confuse with  Republic of the Congo"/>
    <tag k="official_name:fr" v="République démocratique du Congo"/>
    <tag k="old_name" v="Congo Free State;Belgian Congo;Congo-Léopoldville;Congo-Kinshasa;Zaire"/>
    <tag k="old_name:fr" v="Zaïre;Congo Belge;Congo-Léopoldville"/>
    <tag k="place" v="country"/>
    <tag k="population" v="68692542"/>
    <tag k="watch:hakan" v="countries"/>
    <tag k="wikipedia" v="Democratic Republic of the Congo"/>
    <tag k="wikipedia:fr" v="République démocratique du Congo"/>
  </node>
  <node id="435981993" version="11" timestamp="2009-08-13T15:38:58Z" uid="48796" user="Ldp" changeset="2133094" lat="-5.1999888" lon="21.7166509">
    <tag k="alt_name" v="Congo-Kinshasa;Congo (Kinshasa);Congo;RD Congo;RDC"/>
    <tag k="capital_city" v="Kinshasa"/>
    <tag k="country_code_fips" v="CG"/>
    <tag k="country_code_iso3166_1_alpha_2" v="CD"/>
    <tag k="geonames:id" v="203312"/>
    <tag k="int_name" v="République Démocratique du Congo"/>
    <tag k="is_in:continent" v="Africa"/>
    <tag k="name" v="République Démocratique du Congo"/>
    <tag k="name:af" v="Demokratiese Republiek van die Kongo"/>
    <tag k="name:ar" v="الكونغو"/>
    <tag k="name:cy" v="Gweriniaeth Ddemocrataidd Congo"/>
    <tag k="name:da" v="Demokratiske Republik Congo"/>
    <tag k="name:de" v="Demokratische Republik Kongo"/>
    <tag k="name:en" v="Democratic Republic of the Congo"/>
    <tag k="name:eo" v="Demokratia Respubliko Kongo"/>
    <tag k="name:es" v="República Democrática del Congo"/>
    <tag k="name:fi" v="Kongon demokraattinen tasavalta"/>
    <tag k="name:fr" v="République démocratique du Congo"/>
    <tag k="name:fy" v="Demokratyske Republyk de Kongo"/>
    <tag k="name:hu" v="Kongói Demokratikus Köztársaság"/>
    <tag k="name:is" v="Vestur-Kongó"/>
    <tag k="name:it" v="Repubblica Democratica del Congo"/>
    <tag k="name:kg" v="Repubilika ya Kongo Demokratiki"/>
    <tag k="name:li" v="Democratische Rippebliek vaan de Kongo"/>
    <tag k="name:ln" v="Republiki ya Kongó Demokratiki"/>
    <tag k="name:lua" v="Ditunga dia Kongu wa Mungalaata"/>
    <tag k="name:nl" v="Democratische Republiek Congo"/>
    <tag k="name:pl" v="Demokratyczna Republika Konga"/>
    <tag k="name:sv" v="Demokratiska republiken Kongo"/>
    <tag k="name:sw" v="Jamhuri ya Kidemokrasia ya Kongo"/>
    <tag k="note" v="Do not confuse with  Republic of the Congo"/>
    <tag k="official_name:fr" v="République démocratique du Congo"/>
    <tag k="old_name" v="Congo Free State;Belgian Congo;Congo-Léopoldville;Congo-Kinshasa;Zaire"/>
    <tag k="old_name:fr" v="Zaïre;Congo Belge;Congo-Léopoldville"/>
    <tag k="place" v="country"/>
    <tag k="population" v="68692542"/>
    <tag k="watch:hakan" v="countries"/>
    <tag k="wikipedia" v="Democratic Republic of the Congo"/>
    <tag k="wikipedia:fr" v="République démocratique du Congo"/>
  </node>
  <node id="435981993" version="12" timestamp="2009-08-13T16:42:03Z" uid="23966" user="Thomas Petillon" changeset="2133702" lat="-5.1999888" lon="21.7166509">
    <tag k="alt_name" v="Congo-Kinshasa;Congo (Kinshasa);Congo;RD Congo;RDC"/>
    <tag k="capital_city" v="Kinshasa"/>
    <tag k="country_code_fips" v="CG"/>
    <tag k="country_code_iso3166_1_alpha_2" v="CD"/>
    <tag k="geonames:id" v="203312"/>
    <tag k="int_name" v="République Démocratique du Congo"/>
    <tag k="is_in:continent" v="Africa"/>
    <tag k="name" v="République Démocratique du Congo"/>
    <tag k="name:af" v="Demokratiese Republiek van die Kongo"/>
    <tag k="name:ar" v="الكونغو"/>
    <tag k="name:br" v="Republik Demokratel Kongo"/>
    <tag k="name:cy" v="Gweriniaeth Ddemocrataidd Congo"/>
    <tag k="name:da" v="Demokratiske Republik Congo"/>
    <tag k="name:de" v="Demokratische Republik Kongo"/>
    <tag k="name:en" v="Democratic Republic of the Congo"/>
    <tag k="name:eo" v="Demokratia Respubliko Kongo"/>
    <tag k="name:es" v="República Democrática del Congo"/>
    <tag k="name:fi" v="Kongon demokraattinen tasavalta"/>
    <tag k="name:fr" v="République démocratique du Congo"/>
    <tag k="name:fy" v="Demokratyske Republyk de Kongo"/>
    <tag k="name:hu" v="Kongói Demokratikus Köztársaság"/>
    <tag k="name:is" v="Vestur-Kongó"/>
    <tag k="name:it" v="Repubblica Democratica del Congo"/>
    <tag k="name:kg" v="Repubilika ya Kongo Demokratiki"/>
    <tag k="name:li" v="Democratische Rippebliek vaan de Kongo"/>
    <tag k="name:ln" v="Republiki ya Kongó Demokratiki"/>
    <tag k="name:lua" v="Ditunga dia Kongu wa Mungalaata"/>
    <tag k="name:nl" v="Democratische Republiek Congo"/>
    <tag k="name:pl" v="Demokratyczna Republika Konga"/>
    <tag k="name:sv" v="Demokratiska republiken Kongo"/>
    <tag k="name:sw" v="Jamhuri ya Kidemokrasia ya Kongo"/>
    <tag k="note" v="Do not confuse with  Republic of the Congo"/>
    <tag k="official_name:fr" v="République démocratique du Congo"/>
    <tag k="old_name" v="Congo Free State;Belgian Congo;Congo-Léopoldville;Congo-Kinshasa;Zaire"/>
    <tag k="old_name:fr" v="Zaïre;Congo Belge;Congo-Léopoldville"/>
    <tag k="place" v="country"/>
    <tag k="population" v="68692542"/>
    <tag k="watch:hakan" v="countries"/>
    <tag k="wikipedia" v="Democratic Republic of the Congo"/>
    <tag k="wikipedia:fr" v="République démocratique du Congo"/>
  </node>
  <node id="435981993" version="13" timestamp="2009-08-13T17:03:07Z" uid="17497" user="katpatuka" changeset="2133901" lat="-5.1999845" lon="21.7166493">
    <tag k="alt_name" v="Congo-Kinshasa;Congo (Kinshasa);Congo;RD Congo;RDC"/>
    <tag k="capital_city" v="Kinshasa"/>
    <tag k="country_code_fips" v="CG"/>
    <tag k="country_code_iso3166_1_alpha_2" v="CD"/>
    <tag k="geonames:id" v="203312"/>
    <tag k="int_name" v="République Démocratique du Congo"/>
    <tag k="is_in:continent" v="Africa"/>
    <tag k="name" v="République Démocratique du Congo"/>
    <tag k="name:af" v="Demokratiese Republiek van die Kongo"/>
    <tag k="name:ar" v="الكونغو"/>
    <tag k="name:br" v="Republik Demokratel Kongo"/>
    <tag k="name:cy" v="Gweriniaeth Ddemocrataidd Congo"/>
    <tag k="name:da" v="Demokratiske Republik Congo"/>
    <tag k="name:de" v="Demokratische Republik Kongo"/>
    <tag k="name:en" v="Democratic Republic of the Congo"/>
    <tag k="name:eo" v="Demokratia Respubliko Kongo"/>
    <tag k="name:es" v="República Democrática del Congo"/>
    <tag k="name:fi" v="Kongon demokraattinen tasavalta"/>
    <tag k="name:fr" v="République démocratique du Congo"/>
    <tag k="name:fy" v="Demokratyske Republyk de Kongo"/>
    <tag k="name:hu" v="Kongói Demokratikus Köztársaság"/>
    <tag k="name:is" v="Vestur-Kongó"/>
    <tag k="name:it" v="Repubblica Democratica del Congo"/>
    <tag k="name:kg" v="Repubilika ya Kongo Demokratiki"/>
    <tag k="name:li" v="Democratische Rippebliek vaan de Kongo"/>
    <tag k="name:ln" v="Republiki ya Kongó Demokratiki"/>
    <tag k="name:lua" v="Ditunga dia Kongu wa Mungalaata"/>
    <tag k="name:nl" v="Democratische Republiek Congo"/>
    <tag k="name:pl" v="Demokratyczna Republika Konga"/>
    <tag k="name:sv" v="Demokratiska republiken Kongo"/>
    <tag k="name:sw" v="Jamhuri ya Kidemokrasia ya Kongo"/>
    <tag k="name:tr" v="Demokratik Kongo Cumhuriyeti"/>
    <tag k="note" v="Do not confuse with  Republic of the Congo"/>
    <tag k="official_name:fr" v="République démocratique du Congo"/>
    <tag k="old_name" v="Congo Free State;Belgian Congo;Congo-Léopoldville;Congo-Kinshasa;Zaire"/>
    <tag k="old_name:fr" v="Zaïre;Congo Belge;Congo-Léopoldville"/>
    <tag k="place" v="country"/>
    <tag k="population" v="68692542"/>
    <tag k="watch:hakan" v="countries"/>
    <tag k="wikipedia" v="Democratic Republic of the Congo"/>
    <tag k="wikipedia:fr" v="République démocratique du Congo"/>
  </node>
  <node id="435981993" version="14" timestamp="2009-08-13T21:34:12Z" uid="61891" user="stephankn" changeset="2137118" lat="-5.1999845" lon="21.7166493">
    <tag k="alt_name" v="Congo-Kinshasa;Congo (Kinshasa);Congo;RD Congo;RDC"/>
    <tag k="capital_city" v="Kinshasa"/>
    <tag k="country_code_fips" v="CG"/>
    <tag k="country_code_iso3166_1_alpha_2" v="CD"/>
    <tag k="geonames:id" v="203312"/>
    <tag k="int_name" v="République Démocratique du Congo"/>
    <tag k="is_in:continent" v="Africa"/>
    <tag k="name" v="République Démocratique du Congo"/>
    <tag k="name:af" v="Demokratiese Republiek van die Kongo"/>
    <tag k="name:ar" v="الكونغو"/>
    <tag k="name:br" v="Republik Demokratel Kongo"/>
    <tag k="name:cy" v="Gweriniaeth Ddemocrataidd Congo"/>
    <tag k="name:da" v="Demokratiske Republik Congo"/>
    <tag k="name:de" v="Demokratische Republik Kongo"/>
    <tag k="name:en" v="Democratic Republic of the Congo"/>
    <tag k="name:eo" v="Demokratia Respubliko Kongo"/>
    <tag k="name:es" v="República Democrática del Congo"/>
    <tag k="name:fi" v="Kongon demokraattinen tasavalta"/>
    <tag k="name:fr" v="République démocratique du Congo"/>
    <tag k="name:fy" v="Demokratyske Republyk de Kongo"/>
    <tag k="name:hu" v="Kongói Demokratikus Köztársaság"/>
    <tag k="name:is" v="Vestur-Kongó"/>
    <tag k="name:it" v="Repubblica Democratica del Congo"/>
    <tag k="name:kg" v="Repubilika ya Kongo Demokratiki"/>
    <tag k="name:li" v="Democratische Rippebliek vaan de Kongo"/>
    <tag k="name:ln" v="Republiki ya Kongó Demokratiki"/>
    <tag k="name:lua" v="Ditunga dia Kongu wa Mungalaata"/>
    <tag k="name:nl" v="Democratische Republiek Congo"/>
    <tag k="name:pl" v="Demokratyczna Republika Konga"/>
    <tag k="name:sv" v="Demokratiska republiken Kongo"/>
    <tag k="name:sw" v="Jamhuri ya Kidemokrasia ya Kongo"/>
    <tag k="name:th" v="สาธารณรัฐประชาธิปไตยคองโก"/>
    <tag k="name:tr" v="Demokratik Kongo Cumhuriyeti"/>
    <tag k="note" v="Do not confuse with  Republic of the Congo"/>
    <tag k="official_name:fr" v="République démocratique du Congo"/>
    <tag k="old_name" v="Congo Free State;Belgian Congo;Congo-Léopoldville;Congo-Kinshasa;Zaire"/>
    <tag k="old_name:fr" v="Zaïre;Congo Belge;Congo-Léopoldville"/>
    <tag k="place" v="country"/>
    <tag k="population" v="68692542"/>
    <tag k="watch:hakan" v="countries"/>
    <tag k="wikipedia" v="Democratic Republic of the Congo"/>
    <tag k="wikipedia:fr" v="République démocratique du Congo"/>
  </node>
  <node id="435981993" version="15" timestamp="2009-08-14T08:14:40Z" uid="38291" user="talba" changeset="2139829" lat="-5.1999845" lon="21.7166493">
    <tag k="alt_name" v="Congo-Kinshasa;Congo (Kinshasa);Congo;RD Congo;RDC"/>
    <tag k="capital_city" v="Kinshasa"/>
    <tag k="country_code_fips" v="CG"/>
    <tag k="country_code_iso3166_1_alpha_2" v="CD"/>
    <tag k="geonames:id" v="203312"/>
    <tag k="int_name" v="République Démocratique du Congo"/>
    <tag k="is_in:continent" v="Africa"/>
    <tag k="name" v="République Démocratique du Congo"/>
    <tag k="name:af" v="Demokratiese Republiek van die Kongo"/>
    <tag k="name:ar" v="الكونغو"/>
    <tag k="name:br" v="Republik Demokratel Kongo"/>
    <tag k="name:cy" v="Gweriniaeth Ddemocrataidd Congo"/>
    <tag k="name:da" v="Demokratiske Republik Congo"/>
    <tag k="name:de" v="Demokratische Republik Kongo"/>
    <tag k="name:en" v="Democratic Republic of the Congo"/>
    <tag k="name:eo" v="Demokratia Respubliko Kongo"/>
    <tag k="name:es" v="República Democrática del Congo"/>
    <tag k="name:fi" v="Kongon demokraattinen tasavalta"/>
    <tag k="name:fr" v="République démocratique du Congo"/>
    <tag k="name:fy" v="Demokratyske Republyk de Kongo"/>
    <tag k="name:he" v="הרפובליקה הדמוקרטית של קונגו"/>
    <tag k="name:hu" v="Kongói Demokratikus Köztársaság"/>
    <tag k="name:is" v="Vestur-Kongó"/>
    <tag k="name:it" v="Repubblica Democratica del Congo"/>
    <tag k="name:kg" v="Repubilika ya Kongo Demokratiki"/>
    <tag k="name:li" v="Democratische Rippebliek vaan de Kongo"/>
    <tag k="name:ln" v="Republiki ya Kongó Demokratiki"/>
    <tag k="name:lua" v="Ditunga dia Kongu wa Mungalaata"/>
    <tag k="name:nl" v="Democratische Republiek Congo"/>
    <tag k="name:pl" v="Demokratyczna Republika Konga"/>
    <tag k="name:sv" v="Demokratiska republiken Kongo"/>
    <tag k="name:sw" v="Jamhuri ya Kidemokrasia ya Kongo"/>
    <tag k="name:th" v="สาธารณรัฐประชาธิปไตยคองโก"/>
    <tag k="name:tr" v="Demokratik Kongo Cumhuriyeti"/>
    <tag k="note" v="Do not confuse with  Republic of the Congo"/>
    <tag k="official_name:fr" v="République démocratique du Congo"/>
    <tag k="old_name" v="Congo Free State;Belgian Congo;Congo-Léopoldville;Congo-Kinshasa;Zaire"/>
    <tag k="old_name:fr" v="Zaïre;Congo Belge;Congo-Léopoldville"/>
    <tag k="place" v="country"/>
    <tag k="population" v="68692542"/>
    <tag k="watch:hakan" v="countries"/>
    <tag k="wikipedia" v="Democratic Republic of the Congo"/>
    <tag k="wikipedia:fr" v="République démocratique du Congo"/>
  </node>
  <node id="435981993" version="16" timestamp="2009-08-14T10:48:59Z" uid="11132" user="liosha" changeset="2141280" lat="-5.1999845" lon="21.7166493">
    <tag k="alt_name" v="Congo-Kinshasa;Congo (Kinshasa);Congo;RD Congo;RDC"/>
    <tag k="capital_city" v="Kinshasa"/>
    <tag k="country_code_fips" v="CG"/>
    <tag k="country_code_iso3166_1_alpha_2" v="CD"/>
    <tag k="geonames:id" v="203312"/>
    <tag k="int_name" v="République Démocratique du Congo"/>
    <tag k="is_in:continent" v="Africa"/>
    <tag k="name" v="République Démocratique du Congo"/>
    <tag k="name:af" v="Demokratiese Republiek van die Kongo"/>
    <tag k="name:ar" v="الكونغو"/>
    <tag k="name:br" v="Republik Demokratel Kongo"/>
    <tag k="name:cy" v="Gweriniaeth Ddemocrataidd Congo"/>
    <tag k="name:da" v="Demokratiske Republik Congo"/>
    <tag k="name:de" v="Demokratische Republik Kongo"/>
    <tag k="name:en" v="Democratic Republic of the Congo"/>
    <tag k="name:eo" v="Demokratia Respubliko Kongo"/>
    <tag k="name:es" v="República Democrática del Congo"/>
    <tag k="name:fi" v="Kongon demokraattinen tasavalta"/>
    <tag k="name:fr" v="République démocratique du Congo"/>
    <tag k="name:fy" v="Demokratyske Republyk de Kongo"/>
    <tag k="name:he" v="הרפובליקה הדמוקרטית של קונגו"/>
    <tag k="name:hu" v="Kongói Demokratikus Köztársaság"/>
    <tag k="name:is" v="Vestur-Kongó"/>
    <tag k="name:it" v="Repubblica Democratica del Congo"/>
    <tag k="name:kg" v="Repubilika ya Kongo Demokratiki"/>
    <tag k="name:li" v="Democratische Rippebliek vaan de Kongo"/>
    <tag k="name:ln" v="Republiki ya Kongó Demokratiki"/>
    <tag k="name:lua" v="Ditunga dia Kongu wa Mungalaata"/>
    <tag k="name:nl" v="Democratische Republiek Congo"/>
    <tag k="name:pl" v="Demokratyczna Republika Konga"/>
    <tag k="name:ru" v="Демократическая Республика Конго"/>
    <tag k="name:sv" v="Demokratiska republiken Kongo"/>
    <tag k="name:sw" v="Jamhuri ya Kidemokrasia ya Kongo"/>
    <tag k="name:th" v="สาธารณรัฐประชาธิปไตยคองโก"/>
    <tag k="name:tr" v="Demokratik Kongo Cumhuriyeti"/>
    <tag k="note" v="Do not confuse with  Republic of the Congo"/>
    <tag k="official_name:fr" v="République démocratique du Congo"/>
    <tag k="old_name" v="Congo Free State;Belgian Congo;Congo-Léopoldville;Congo-Kinshasa;Zaire"/>
    <tag k="old_name:fr" v="Zaïre;Congo Belge;Congo-Léopoldville"/>
    <tag k="place" v="country"/>
    <tag k="population" v="68692542"/>
    <tag k="watch:hakan" v="countries"/>
    <tag k="wikipedia" v="Democratic Republic of the Congo"/>
    <tag k="wikipedia:fr" v="République démocratique du Congo"/>
  </node>
  <node id="435981993" version="17" timestamp="2009-08-15T00:46:41Z" uid="48796" user="Ldp" changeset="2148984" lat="-5.1999845" lon="21.7166493">
    <tag k="alt_name" v="Congo-Kinshasa;Congo (Kinshasa);Congo;RD Congo;RDC"/>
    <tag k="capital_city" v="Kinshasa"/>
    <tag k="country_code_fips" v="CG"/>
    <tag k="country_code_iso3166_1_alpha_2" v="CD"/>
    <tag k="geonames:id" v="203312"/>
    <tag k="int_name" v="République Démocratique du Congo"/>
    <tag k="is_in:continent" v="Africa"/>
    <tag k="name" v="République Démocratique du Congo"/>
    <tag k="name:af" v="Demokratiese Republiek van die Kongo"/>
    <tag k="name:ar" v="الكونغو"/>
    <tag k="name:br" v="Republik Demokratel Kongo"/>
    <tag k="name:cy" v="Gweriniaeth Ddemocrataidd Congo"/>
    <tag k="name:da" v="Demokratiske Republik Congo"/>
    <tag k="name:de" v="Demokratische Republik Kongo"/>
    <tag k="name:en" v="Democratic Republic of the Congo"/>
    <tag k="name:eo" v="Demokratia Respubliko Kongo"/>
    <tag k="name:es" v="República Democrática del Congo"/>
    <tag k="name:fi" v="Kongon demokraattinen tasavalta"/>
    <tag k="name:fr" v="République démocratique du Congo"/>
    <tag k="name:fy" v="Demokratyske Republyk de Kongo"/>
    <tag k="name:he" v="הרפובליקה הדמוקרטית של קונגו"/>
    <tag k="name:hu" v="Kongói Demokratikus Köztársaság"/>
    <tag k="name:is" v="Vestur-Kongó"/>
    <tag k="name:it" v="Repubblica Democratica del Congo"/>
    <tag k="name:kg" v="Repubilika ya Kongo Demokratiki"/>
    <tag k="name:lb" v="Demokratesch Republik Kongo"/>
    <tag k="name:li" v="Democratische Rippebliek vaan de Kongo"/>
    <tag k="name:ln" v="Republiki ya Kongó Demokratiki"/>
    <tag k="name:lua" v="Ditunga dia Kongu wa Mungalaata"/>
    <tag k="name:nl" v="Democratische Republiek Congo"/>
    <tag k="name:pl" v="Demokratyczna Republika Konga"/>
    <tag k="name:ru" v="Демократическая Республика Конго"/>
    <tag k="name:sv" v="Demokratiska republiken Kongo"/>
    <tag k="name:sw" v="Jamhuri ya Kidemokrasia ya Kongo"/>
    <tag k="name:th" v="สาธารณรัฐประชาธิปไตยคองโก"/>
    <tag k="name:tr" v="Demokratik Kongo Cumhuriyeti"/>
    <tag k="note" v="Do not confuse with  Republic of the Congo"/>
    <tag k="official_name:fr" v="République démocratique du Congo"/>
    <tag k="old_name" v="Congo Free State;Belgian Congo;Congo-Léopoldville;Congo-Kinshasa;Zaire"/>
    <tag k="old_name:fr" v="Zaïre;Congo Belge;Congo-Léopoldville"/>
    <tag k="place" v="country"/>
    <tag k="population" v="68692542"/>
    <tag k="watch:hakan" v="countries"/>
    <tag k="wikipedia" v="Democratic Republic of the Congo"/>
    <tag k="wikipedia:fr" v="République démocratique du Congo"/>
  </node>
  <node id="435981993" version="18" timestamp="2009-08-15T10:58:00Z" uid="9176" user="Maarten Deen" changeset="2152513" lat="-5.1999776" lon="21.7166488">
    <tag k="alt_name" v="Congo-Kinshasa;Congo (Kinshasa);Congo;RD Congo;RDC"/>
    <tag k="capital_city" v="Kinshasa"/>
    <tag k="country_code_fips" v="CG"/>
    <tag k="country_code_iso3166_1_alpha_2" v="CD"/>
    <tag k="geonames:id" v="203312"/>
    <tag k="int_name" v="République Démocratique du Congo"/>
    <tag k="is_in:continent" v="Africa"/>
    <tag k="name" v="République Démocratique du Congo"/>
    <tag k="name:af" v="Demokratiese Republiek van die Kongo"/>
    <tag k="name:ar" v="الكونغو"/>
    <tag k="name:br" v="Republik Demokratel Kongo"/>
    <tag k="name:ca" v="República Democràtica del Congo"/>
    <tag k="name:cy" v="Gweriniaeth Ddemocrataidd Congo"/>
    <tag k="name:da" v="Demokratiske Republik Congo"/>
    <tag k="name:de" v="Demokratische Republik Kongo"/>
    <tag k="name:en" v="Democratic Republic of the Congo"/>
    <tag k="name:eo" v="Demokratia Respubliko Kongo"/>
    <tag k="name:es" v="República Democrática del Congo"/>
    <tag k="name:fi" v="Kongon demokraattinen tasavalta"/>
    <tag k="name:fr" v="République démocratique du Congo"/>
    <tag k="name:fy" v="Demokratyske Republyk de Kongo"/>
    <tag k="name:he" v="הרפובליקה הדמוקרטית של קונגו"/>
    <tag k="name:hu" v="Kongói Demokratikus Köztársaság"/>
    <tag k="name:is" v="Vestur-Kongó"/>
    <tag k="name:it" v="Repubblica Democratica del Congo"/>
    <tag k="name:kg" v="Repubilika ya Kongo Demokratiki"/>
    <tag k="name:lb" v="Demokratesch Republik Kongo"/>
    <tag k="name:li" v="Democratische Rippebliek vaan de Kongo"/>
    <tag k="name:ln" v="Republiki ya Kongó Demokratiki"/>
    <tag k="name:lua" v="Ditunga dia Kongu wa Mungalaata"/>
    <tag k="name:nl" v="Democratische Republiek Congo"/>
    <tag k="name:pl" v="Demokratyczna Republika Konga"/>
    <tag k="name:ru" v="Демократическая Республика Конго"/>
    <tag k="name:sv" v="Demokratiska republiken Kongo"/>
    <tag k="name:sw" v="Jamhuri ya Kidemokrasia ya Kongo"/>
    <tag k="name:th" v="สาธารณรัฐประชาธิปไตยคองโก"/>
    <tag k="name:tr" v="Demokratik Kongo Cumhuriyeti"/>
    <tag k="note" v="Do not confuse with  Republic of the Congo"/>
    <tag k="official_name:fr" v="République démocratique du Congo"/>
    <tag k="old_name" v="Congo Free State;Belgian Congo;Congo-Léopoldville;Congo-Kinshasa;Zaire"/>
    <tag k="old_name:fr" v="Zaïre;Congo Belge;Congo-Léopoldville"/>
    <tag k="place" v="country"/>
    <tag k="population" v="68692542"/>
    <tag k="watch:hakan" v="countries"/>
    <tag k="wikipedia" v="Democratic Republic of the Congo"/>
    <tag k="wikipedia:fr" v="République démocratique du Congo"/>
  </node>
  <node id="435981993" version="19" timestamp="2009-08-15T19:39:44Z" uid="5553" user="dkt" changeset="2157812" lat="-5.1999699" lon="21.7166472">
    <tag k="alt_name" v="Congo-Kinshasa;Congo (Kinshasa);Congo;RD Congo;RDC"/>
    <tag k="capital_city" v="Kinshasa"/>
    <tag k="country_code_fips" v="CG"/>
    <tag k="country_code_iso3166_1_alpha_2" v="CD"/>
    <tag k="geonames:id" v="203312"/>
    <tag k="int_name" v="République Démocratique du Congo"/>
    <tag k="is_in:continent" v="Africa"/>
    <tag k="name" v="République Démocratique du Congo"/>
    <tag k="name:af" v="Demokratiese Republiek van die Kongo"/>
    <tag k="name:ar" v="الكونغو"/>
    <tag k="name:br" v="Republik Demokratel Kongo"/>
    <tag k="name:ca" v="República Democràtica del Congo"/>
    <tag k="name:cy" v="Gweriniaeth Ddemocrataidd Congo"/>
    <tag k="name:da" v="Demokratiske Republik Congo"/>
    <tag k="name:de" v="Demokratische Republik Kongo"/>
    <tag k="name:en" v="Democratic Republic of the Congo"/>
    <tag k="name:eo" v="Demokratia Respubliko Kongo"/>
    <tag k="name:es" v="República Democrática del Congo"/>
    <tag k="name:fi" v="Kongon demokraattinen tasavalta"/>
    <tag k="name:fr" v="République démocratique du Congo"/>
    <tag k="name:fy" v="Demokratyske Republyk de Kongo"/>
    <tag k="name:he" v="הרפובליקה הדמוקרטית של קונגו"/>
    <tag k="name:hu" v="Kongói Demokratikus Köztársaság"/>
    <tag k="name:is" v="Vestur-Kongó"/>
    <tag k="name:it" v="Repubblica Democratica del Congo"/>
    <tag k="name:kg" v="Repubilika ya Kongo Demokratiki"/>
    <tag k="name:lb" v="Demokratesch Republik Kongo"/>
    <tag k="name:li" v="Democratische Rippebliek vaan de Kongo"/>
    <tag k="name:ln" v="Republiki ya Kongó Demokratiki"/>
    <tag k="name:lua" v="Ditunga dia Kongu wa Mungalaata"/>
    <tag k="name:nl" v="Democratische Republiek Congo"/>
    <tag k="name:pl" v="Demokratyczna Republika Konga"/>
    <tag k="name:ru" v="Демократическая Республика Конго"/>
    <tag k="name:sv" v="Demokratiska republiken Kongo"/>
    <tag k="name:sw" v="Jamhuri ya Kidemokrasia ya Kongo"/>
    <tag k="name:th" v="สาธารณรัฐประชาธิปไตยคองโก"/>
    <tag k="name:tr" v="Demokratik Kongo Cumhuriyeti"/>
    <tag k="name:zh" v="刚果民主共和国"/>
    <tag k="note" v="Do not confuse with  Republic of the Congo"/>
    <tag k="official_name:fr" v="République démocratique du Congo"/>
    <tag k="old_name" v="Congo Free State;Belgian Congo;Congo-Léopoldville;Congo-Kinshasa;Zaire"/>
    <tag k="old_name:fr" v="Zaïre;Congo Belge;Congo-Léopoldville"/>
    <tag k="place" v="country"/>
    <tag k="population" v="68692542"/>
    <tag k="watch:hakan" v="countries"/>
    <tag k="wikipedia" v="Democratic Republic of the Congo"/>
    <tag k="wikipedia:fr" v="République démocratique du Congo"/>
  </node>
  <node id="435981993" version="20" timestamp="2009-08-15T20:06:41Z" uid="140069" user="kebil" changeset="2158081" lat="-5.1999683" lon="21.7166405">
    <tag k="alt_name" v="Congo-Kinshasa;Congo (Kinshasa);Congo;RD Congo;RDC"/>
    <tag k="capital_city" v="Kinshasa"/>
    <tag k="country_code_fips" v="CG"/>
    <tag k="country_code_iso3166_1_alpha_2" v="CD"/>
    <tag k="geonames:id" v="203312"/>
    <tag k="int_name" v="République Démocratique du Congo"/>
    <tag k="is_in:continent" v="Africa"/>
    <tag k="name" v="République Démocratique du Congo"/>
    <tag k="name:af" v="Demokratiese Republiek van die Kongo"/>
    <tag k="name:ar" v="الكونغو"/>
    <tag k="name:br" v="Republik Demokratel Kongo"/>
    <tag k="name:ca" v="República Democràtica del Congo"/>
    <tag k="name:cy" v="Gweriniaeth Ddemocrataidd Congo"/>
    <tag k="name:da" v="Demokratiske Republik Congo"/>
    <tag k="name:de" v="Demokratische Republik Kongo"/>
    <tag k="name:en" v="Democratic Republic of the Congo"/>
    <tag k="name:eo" v="Demokratia Respubliko Kongo"/>
    <tag k="name:es" v="República Democrática del Congo"/>
    <tag k="name:fi" v="Kongon demokraattinen tasavalta"/>
    <tag k="name:fr" v="République démocratique du Congo"/>
    <tag k="name:fy" v="Demokratyske Republyk de Kongo"/>
    <tag k="name:he" v="הרפובליקה הדמוקרטית של קונגו"/>
    <tag k="name:hu" v="Kongói Demokratikus Köztársaság"/>
    <tag k="name:is" v="Vestur-Kongó"/>
    <tag k="name:it" v="Repubblica Democratica del Congo"/>
    <tag k="name:kg" v="Repubilika ya Kongo Demokratiki"/>
    <tag k="name:lb" v="Demokratesch Republik Kongo"/>
    <tag k="name:li" v="Democratische Rippebliek vaan de Kongo"/>
    <tag k="name:ln" v="Republiki ya Kongó Demokratiki"/>
    <tag k="name:lt" v="Kongo Demokratinė Respublika"/>
    <tag k="name:lua" v="Ditunga dia Kongu wa Mungalaata"/>
    <tag k="name:nl" v="Democratische Republiek Congo"/>
    <tag k="name:pl" v="Demokratyczna Republika Konga"/>
    <tag k="name:ru" v="Демократическая Республика Конго"/>
    <tag k="name:sv" v="Demokratiska republiken Kongo"/>
    <tag k="name:sw" v="Jamhuri ya Kidemokrasia ya Kongo"/>
    <tag k="name:th" v="สาธารณรัฐประชาธิปไตยคองโก"/>
    <tag k="name:tr" v="Demokratik Kongo Cumhuriyeti"/>
    <tag k="name:zh" v="刚果民主共和国"/>
    <tag k="note" v="Do not confuse with  Republic of the Congo"/>
    <tag k="official_name:fr" v="République démocratique du Congo"/>
    <tag k="old_name" v="Congo Free State;Belgian Congo;Congo-Léopoldville;Congo-Kinshasa;Zaire"/>
    <tag k="old_name:fr" v="Zaïre;Congo Belge;Congo-Léopoldville"/>
    <tag k="place" v="country"/>
    <tag k="population" v="68692542"/>
    <tag k="watch:hakan" v="countries"/>
    <tag k="wikipedia" v="Democratic Republic of the Congo"/>
    <tag k="wikipedia:fr" v="République démocratique du Congo"/>
  </node>
  <node id="435981993" version="21" timestamp="2009-08-16T07:14:49Z" uid="33377" user="Victor LP" changeset="2160824" lat="-5.1999683" lon="21.7166405">
    <tag k="alt_name" v="Congo-Kinshasa;Congo (Kinshasa);Congo;RD Congo;RDC"/>
    <tag k="capital_city" v="Kinshasa"/>
    <tag k="country_code_fips" v="CG"/>
    <tag k="country_code_iso3166_1_alpha_2" v="CD"/>
    <tag k="geonames:id" v="203312"/>
    <tag k="int_name" v="République Démocratique du Congo"/>
    <tag k="is_in:continent" v="Africa"/>
    <tag k="name" v="République Démocratique du Congo"/>
    <tag k="name:af" v="Demokratiese Republiek van die Kongo"/>
    <tag k="name:ar" v="الكونغو"/>
    <tag k="name:br" v="Republik Demokratel Kongo"/>
    <tag k="name:ca" v="República Democràtica del Congo"/>
    <tag k="name:cy" v="Gweriniaeth Ddemocrataidd Congo"/>
    <tag k="name:da" v="Demokratiske Republik Congo"/>
    <tag k="name:de" v="Demokratische Republik Kongo"/>
    <tag k="name:el" v="Λαϊκή Δημοκρατία του Κονγκό"/>
    <tag k="name:en" v="Democratic Republic of the Congo"/>
    <tag k="name:eo" v="Demokratia Respubliko Kongo"/>
    <tag k="name:es" v="República Democrática del Congo"/>
    <tag k="name:fi" v="Kongon demokraattinen tasavalta"/>
    <tag k="name:fr" v="République démocratique du Congo"/>
    <tag k="name:fy" v="Demokratyske Republyk de Kongo"/>
    <tag k="name:he" v="הרפובליקה הדמוקרטית של קונגו"/>
    <tag k="name:hu" v="Kongói Demokratikus Köztársaság"/>
    <tag k="name:is" v="Vestur-Kongó"/>
    <tag k="name:it" v="Repubblica Democratica del Congo"/>
    <tag k="name:kg" v="Repubilika ya Kongo Demokratiki"/>
    <tag k="name:lb" v="Demokratesch Republik Kongo"/>
    <tag k="name:li" v="Democratische Rippebliek vaan de Kongo"/>
    <tag k="name:ln" v="Republiki ya Kongó Demokratiki"/>
    <tag k="name:lt" v="Kongo Demokratinė Respublika"/>
    <tag k="name:lua" v="Ditunga dia Kongu wa Mungalaata"/>
    <tag k="name:nl" v="Democratische Republiek Congo"/>
    <tag k="name:pl" v="Demokratyczna Republika Konga"/>
    <tag k="name:ru" v="Демократическая Республика Конго"/>
    <tag k="name:sv" v="Demokratiska republiken Kongo"/>
    <tag k="name:sw" v="Jamhuri ya Kidemokrasia ya Kongo"/>
    <tag k="name:th" v="สาธารณรัฐประชาธิปไตยคองโก"/>
    <tag k="name:tr" v="Demokratik Kongo Cumhuriyeti"/>
    <tag k="name:zh" v="刚果民主共和国"/>
    <tag k="note" v="Do not confuse with  Republic of the Congo"/>
    <tag k="official_name:fr" v="République démocratique du Congo"/>
    <tag k="old_name" v="Congo Free State;Belgian Congo;Congo-Léopoldville;Congo-Kinshasa;Zaire"/>
    <tag k="old_name:fr" v="Zaïre;Congo Belge;Congo-Léopoldville"/>
    <tag k="place" v="country"/>
    <tag k="population" v="68692542"/>
    <tag k="watch:hakan" v="countries"/>
    <tag k="wikipedia" v="Democratic Republic of the Congo"/>
    <tag k="wikipedia:fr" v="République démocratique du Congo"/>
  </node>
  <node id="435981993" version="22" timestamp="2009-08-16T14:55:40Z" uid="48796" user="Ldp" changeset="2166436" lat="-5.1999683" lon="21.7166405">
    <tag k="alt_name" v="Congo-Kinshasa;Congo (Kinshasa);Congo;RD Congo;RDC"/>
    <tag k="capital_city" v="Kinshasa"/>
    <tag k="country_code_fips" v="CG"/>
    <tag k="country_code_iso3166_1_alpha_2" v="CD"/>
    <tag k="geonames:id" v="203312"/>
    <tag k="int_name" v="République Démocratique du Congo"/>
    <tag k="is_in:continent" v="Africa"/>
    <tag k="name" v="République Démocratique du Congo"/>
    <tag k="name:af" v="Demokratiese Republiek van die Kongo"/>
    <tag k="name:ar" v="الكونغو"/>
    <tag k="name:br" v="Republik Demokratel Kongo"/>
    <tag k="name:ca" v="República Democràtica del Congo"/>
    <tag k="name:cy" v="Gweriniaeth Ddemocrataidd Congo"/>
    <tag k="name:da" v="Demokratiske Republik Congo"/>
    <tag k="name:de" v="Demokratische Republik Kongo"/>
    <tag k="name:el" v="Λαϊκή Δημοκρατία του Κονγκό"/>
    <tag k="name:en" v="Democratic Republic of the Congo"/>
    <tag k="name:eo" v="Demokratia Respubliko Kongo"/>
    <tag k="name:es" v="República Democrática del Congo"/>
    <tag k="name:fi" v="Kongon demokraattinen tasavalta"/>
    <tag k="name:fr" v="République démocratique du Congo"/>
    <tag k="name:fy" v="Demokratyske Republyk de Kongo"/>
    <tag k="name:gd" v="Poblachd Dheamocrach na Congo"/>
    <tag k="name:he" v="הרפובליקה הדמוקרטית של קונגו"/>
    <tag k="name:hu" v="Kongói Demokratikus Köztársaság"/>
    <tag k="name:is" v="Vestur-Kongó"/>
    <tag k="name:it" v="Repubblica Democratica del Congo"/>
    <tag k="name:kg" v="Repubilika ya Kongo Demokratiki"/>
    <tag k="name:lb" v="Demokratesch Republik Kongo"/>
    <tag k="name:li" v="Democratische Rippebliek vaan de Kongo"/>
    <tag k="name:ln" v="Republiki ya Kongó Demokratiki"/>
    <tag k="name:lt" v="Kongo Demokratinė Respublika"/>
    <tag k="name:lua" v="Ditunga dia Kongu wa Mungalaata"/>
    <tag k="name:nl" v="Democratische Republiek Congo"/>
    <tag k="name:pl" v="Demokratyczna Republika Konga"/>
    <tag k="name:ru" v="Демократическая Республика Конго"/>
    <tag k="name:sv" v="Demokratiska republiken Kongo"/>
    <tag k="name:sw" v="Jamhuri ya Kidemokrasia ya Kongo"/>
    <tag k="name:th" v="สาธารณรัฐประชาธิปไตยคองโก"/>
    <tag k="name:tr" v="Demokratik Kongo Cumhuriyeti"/>
    <tag k="name:zh" v="刚果民主共和国"/>
    <tag k="note" v="Do not confuse with  Republic of the Congo"/>
    <tag k="official_name:fr" v="République démocratique du Congo"/>
    <tag k="old_name" v="Congo Free State;Belgian Congo;Congo-Léopoldville;Congo-Kinshasa;Zaire"/>
    <tag k="old_name:fr" v="Zaïre;Congo Belge;Congo-Léopoldville"/>
    <tag k="place" v="country"/>
    <tag k="population" v="68692542"/>
    <tag k="watch:hakan" v="countries"/>
    <tag k="wikipedia" v="Democratic Republic of the Congo"/>
    <tag k="wikipedia:fr" v="République démocratique du Congo"/>
  </node>
  <node id="435981993" version="23" timestamp="2009-08-16T15:48:21Z" uid="48796" user="Ldp" changeset="2167039" lat="-5.1999683" lon="21.7166405">
    <tag k="alt_name" v="Congo-Kinshasa;Congo (Kinshasa);Congo;RD Congo;RDC"/>
    <tag k="capital_city" v="Kinshasa"/>
    <tag k="country_code_fips" v="CG"/>
    <tag k="country_code_iso3166_1_alpha_2" v="CD"/>
    <tag k="geonames:id" v="203312"/>
    <tag k="int_name" v="République Démocratique du Congo"/>
    <tag k="is_in:continent" v="Africa"/>
    <tag k="name" v="République Démocratique du Congo"/>
    <tag k="name:af" v="Demokratiese Republiek van die Kongo"/>
    <tag k="name:ar" v="الكونغو"/>
    <tag k="name:br" v="Republik Demokratel Kongo"/>
    <tag k="name:ca" v="República Democràtica del Congo"/>
    <tag k="name:cy" v="Gweriniaeth Ddemocrataidd Congo"/>
    <tag k="name:da" v="Demokratiske Republik Congo"/>
    <tag k="name:de" v="Demokratische Republik Kongo"/>
    <tag k="name:el" v="Λαϊκή Δημοκρατία του Κονγκό"/>
    <tag k="name:en" v="Democratic Republic of the Congo"/>
    <tag k="name:eo" v="Demokratia Respubliko Kongo"/>
    <tag k="name:es" v="República Democrática del Congo"/>
    <tag k="name:et" v="Kongo Demokraatlik Vabariik"/>
    <tag k="name:fi" v="Kongon demokraattinen tasavalta"/>
    <tag k="name:fr" v="République démocratique du Congo"/>
    <tag k="name:fy" v="Demokratyske Republyk de Kongo"/>
    <tag k="name:gd" v="Poblachd Dheamocrach na Congo"/>
    <tag k="name:he" v="הרפובליקה הדמוקרטית של קונגו"/>
    <tag k="name:hu" v="Kongói Demokratikus Köztársaság"/>
    <tag k="name:is" v="Vestur-Kongó"/>
    <tag k="name:it" v="Repubblica Democratica del Congo"/>
    <tag k="name:kg" v="Repubilika ya Kongo Demokratiki"/>
    <tag k="name:lb" v="Demokratesch Republik Kongo"/>
    <tag k="name:li" v="Democratische Rippebliek vaan de Kongo"/>
    <tag k="name:ln" v="Republiki ya Kongó Demokratiki"/>
    <tag k="name:lt" v="Kongo Demokratinė Respublika"/>
    <tag k="name:lua" v="Ditunga dia Kongu wa Mungalaata"/>
    <tag k="name:nl" v="Democratische Republiek Congo"/>
    <tag k="name:pl" v="Demokratyczna Republika Konga"/>
    <tag k="name:ru" v="Демократическая Республика Конго"/>
    <tag k="name:sv" v="Demokratiska republiken Kongo"/>
    <tag k="name:sw" v="Jamhuri ya Kidemokrasia ya Kongo"/>
    <tag k="name:th" v="สาธารณรัฐประชาธิปไตยคองโก"/>
    <tag k="name:tr" v="Demokratik Kongo Cumhuriyeti"/>
    <tag k="name:zh" v="刚果民主共和国"/>
    <tag k="note" v="Do not confuse with  Republic of the Congo"/>
    <tag k="official_name:fr" v="République démocratique du Congo"/>
    <tag k="old_name" v="Congo Free State;Belgian Congo;Congo-Léopoldville;Congo-Kinshasa;Zaire"/>
    <tag k="old_name:fr" v="Zaïre;Congo Belge;Congo-Léopoldville"/>
    <tag k="place" v="country"/>
    <tag k="population" v="68692542"/>
    <tag k="watch:hakan" v="countries"/>
    <tag k="wikipedia" v="Democratic Republic of the Congo"/>
    <tag k="wikipedia:fr" v="République démocratique du Congo"/>
  </node>
  <node id="435981993" version="24" timestamp="2009-08-17T09:20:19Z" uid="17497" user="katpatuka" changeset="2175377" lat="-5.199964" lon="21.7166389">
    <tag k="alt_name" v="Congo-Kinshasa;Congo (Kinshasa);Congo;RD Congo;RDC"/>
    <tag k="capital_city" v="Kinshasa"/>
    <tag k="country_code_fips" v="CG"/>
    <tag k="country_code_iso3166_1_alpha_2" v="CD"/>
    <tag k="geonames:id" v="203312"/>
    <tag k="int_name" v="République Démocratique du Congo"/>
    <tag k="is_in:continent" v="Africa"/>
    <tag k="name" v="République Démocratique du Congo"/>
    <tag k="name:af" v="Demokratiese Republiek van die Kongo"/>
    <tag k="name:ar" v="الكونغو"/>
    <tag k="name:br" v="Republik Demokratel Kongo"/>
    <tag k="name:ca" v="República Democràtica del Congo"/>
    <tag k="name:cy" v="Gweriniaeth Ddemocrataidd Congo"/>
    <tag k="name:da" v="Demokratiske Republik Congo"/>
    <tag k="name:de" v="Demokratische Republik Kongo"/>
    <tag k="name:el" v="Λαϊκή Δημοκρατία του Κονγκό"/>
    <tag k="name:en" v="Democratic Republic of the Congo"/>
    <tag k="name:eo" v="Demokratia Respubliko Kongo"/>
    <tag k="name:es" v="República Democrática del Congo"/>
    <tag k="name:et" v="Kongo Demokraatlik Vabariik"/>
    <tag k="name:fi" v="Kongon demokraattinen tasavalta"/>
    <tag k="name:fr" v="République démocratique du Congo"/>
    <tag k="name:fy" v="Demokratyske Republyk de Kongo"/>
    <tag k="name:gd" v="Poblachd Dheamocrach na Congo"/>
    <tag k="name:he" v="הרפובליקה הדמוקרטית של קונגו"/>
    <tag k="name:hu" v="Kongói Demokratikus Köztársaság"/>
    <tag k="name:is" v="Vestur-Kongó"/>
    <tag k="name:it" v="Repubblica Democratica del Congo"/>
    <tag k="name:kg" v="Repubilika ya Kongo Demokratiki"/>
    <tag k="name:lb" v="Demokratesch Republik Kongo"/>
    <tag k="name:li" v="Democratische Rippebliek vaan de Kongo"/>
    <tag k="name:ln" v="Republiki ya Kongó Demokratiki"/>
    <tag k="name:lt" v="Kongo Demokratinė Respublika"/>
    <tag k="name:lua" v="Ditunga dia Kongu wa Mungalaata"/>
    <tag k="name:mn" v="Бүгд Найрамдах Ардчилсан Конго"/>
    <tag k="name:nl" v="Democratische Republiek Congo"/>
    <tag k="name:pl" v="Demokratyczna Republika Konga"/>
    <tag k="name:ru" v="Демократическая Республика Конго"/>
    <tag k="name:sv" v="Demokratiska republiken Kongo"/>
    <tag k="name:sw" v="Jamhuri ya Kidemokrasia ya Kongo"/>
    <tag k="name:th" v="สาธารณรัฐประชาธิปไตยคองโก"/>
    <tag k="name:tr" v="Demokratik Kongo Cumhuriyeti"/>
    <tag k="name:zh" v="刚果民主共和国"/>
    <tag k="note" v="Do not confuse with  Republic of the Congo"/>
    <tag k="official_name:fr" v="République démocratique du Congo"/>
    <tag k="old_name" v="Congo Free State;Belgian Congo;Congo-Léopoldville;Congo-Kinshasa;Zaire"/>
    <tag k="old_name:fr" v="Zaïre;Congo Belge;Congo-Léopoldville"/>
    <tag k="place" v="country"/>
    <tag k="population" v="68692542"/>
    <tag k="watch:hakan" v="countries"/>
    <tag k="wikipedia" v="Democratic Republic of the Congo"/>
    <tag k="wikipedia:fr" v="République démocratique du Congo"/>
  </node>
  <node id="435981993" version="25" timestamp="2009-08-17T21:22:17Z" uid="18069" user="Claudius Henrichs" changeset="2183635" lat="-5.199964" lon="21.7166389">
    <tag k="alt_name" v="Congo-Kinshasa;Congo (Kinshasa);Congo;RD Congo;RDC"/>
    <tag k="capital_city" v="Kinshasa"/>
    <tag k="country_code_fips" v="CG"/>
    <tag k="country_code_iso3166_1_alpha_2" v="CD"/>
    <tag k="geonames:id" v="203312"/>
    <tag k="int_name" v="République Démocratique du Congo"/>
    <tag k="is_in:continent" v="Africa"/>
    <tag k="name" v="République Démocratique du Congo"/>
    <tag k="name:af" v="Demokratiese Republiek van die Kongo"/>
    <tag k="name:ar" v="الكونغو"/>
    <tag k="name:br" v="Republik Demokratel Kongo"/>
    <tag k="name:ca" v="República Democràtica del Congo"/>
    <tag k="name:cy" v="Gweriniaeth Ddemocrataidd Congo"/>
    <tag k="name:da" v="Demokratiske Republik Congo"/>
    <tag k="name:de" v="Demokratische Republik Kongo"/>
    <tag k="name:el" v="Λαϊκή Δημοκρατία του Κονγκό"/>
    <tag k="name:en" v="Democratic Republic of the Congo"/>
    <tag k="name:eo" v="Demokratia Respubliko Kongo"/>
    <tag k="name:es" v="República Democrática del Congo"/>
    <tag k="name:et" v="Kongo Demokraatlik Vabariik"/>
    <tag k="name:fa" v="جمهوری دموکراتیک کنگو"/>
    <tag k="name:fi" v="Kongon demokraattinen tasavalta"/>
    <tag k="name:fr" v="République démocratique du Congo"/>
    <tag k="name:fy" v="Demokratyske Republyk de Kongo"/>
    <tag k="name:gd" v="Poblachd Dheamocrach na Congo"/>
    <tag k="name:he" v="הרפובליקה הדמוקרטית של קונגו"/>
    <tag k="name:hu" v="Kongói Demokratikus Köztársaság"/>
    <tag k="name:is" v="Vestur-Kongó"/>
    <tag k="name:it" v="Repubblica Democratica del Congo"/>
    <tag k="name:kg" v="Repubilika ya Kongo Demokratiki"/>
    <tag k="name:lb" v="Demokratesch Republik Kongo"/>
    <tag k="name:li" v="Democratische Rippebliek vaan de Kongo"/>
    <tag k="name:ln" v="Republiki ya Kongó Demokratiki"/>
    <tag k="name:lt" v="Kongo Demokratinė Respublika"/>
    <tag k="name:lua" v="Ditunga dia Kongu wa Mungalaata"/>
    <tag k="name:mn" v="Бүгд Найрамдах Ардчилсан Конго"/>
    <tag k="name:nl" v="Democratische Republiek Congo"/>
    <tag k="name:pl" v="Demokratyczna Republika Konga"/>
    <tag k="name:ru" v="Демократическая Республика Конго"/>
    <tag k="name:sv" v="Demokratiska republiken Kongo"/>
    <tag k="name:sw" v="Jamhuri ya Kidemokrasia ya Kongo"/>
    <tag k="name:th" v="สาธารณรัฐประชาธิปไตยคองโก"/>
    <tag k="name:tr" v="Demokratik Kongo Cumhuriyeti"/>
    <tag k="name:zh" v="刚果民主共和国"/>
    <tag k="note" v="Do not confuse with  Republic of the Congo"/>
    <tag k="official_name:fr" v="République démocratique du Congo"/>
    <tag k="old_name" v="Congo Free State;Belgian Congo;Congo-Léopoldville;Congo-Kinshasa;Zaire"/>
    <tag k="old_name:fr" v="Zaïre;Congo Belge;Congo-Léopoldville"/>
    <tag k="place" v="country"/>
    <tag k="population" v="68692542"/>
    <tag k="watch:hakan" v="countries"/>
    <tag k="wikipedia" v="Democratic Republic of the Congo"/>
    <tag k="wikipedia:fr" v="République démocratique du Congo"/>
  </node>
  <node id="435981993" version="26" timestamp="2009-08-17T21:58:39Z" uid="48796" user="Ldp" changeset="2183959" lat="-5.199964" lon="21.7166389">
    <tag k="alt_name" v="Congo-Kinshasa;Congo (Kinshasa);Congo;RD Congo;RDC"/>
    <tag k="capital_city" v="Kinshasa"/>
    <tag k="country_code_fips" v="CG"/>
    <tag k="country_code_iso3166_1_alpha_2" v="CD"/>
    <tag k="geonames:id" v="203312"/>
    <tag k="int_name" v="République Démocratique du Congo"/>
    <tag k="is_in:continent" v="Africa"/>
    <tag k="name" v="République Démocratique du Congo"/>
    <tag k="name:af" v="Demokratiese Republiek van die Kongo"/>
    <tag k="name:ar" v="الكونغو"/>
    <tag k="name:br" v="Republik Demokratel Kongo"/>
    <tag k="name:ca" v="República Democràtica del Congo"/>
    <tag k="name:cy" v="Gweriniaeth Ddemocrataidd Congo"/>
    <tag k="name:da" v="Demokratiske Republik Congo"/>
    <tag k="name:de" v="Demokratische Republik Kongo"/>
    <tag k="name:el" v="Λαϊκή Δημοκρατία του Κονγκό"/>
    <tag k="name:en" v="Democratic Republic of the Congo"/>
    <tag k="name:eo" v="Demokratia Respubliko Kongo"/>
    <tag k="name:es" v="República Democrática del Congo"/>
    <tag k="name:et" v="Kongo Demokraatlik Vabariik"/>
    <tag k="name:fa" v="جمهوری دموکراتیک کنگو"/>
    <tag k="name:fi" v="Kongon demokraattinen tasavalta"/>
    <tag k="name:fr" v="République démocratique du Congo"/>
    <tag k="name:fy" v="Demokratyske Republyk de Kongo"/>
    <tag k="name:gd" v="Poblachd Dheamocrach na Congo"/>
    <tag k="name:he" v="הרפובליקה הדמוקרטית של קונגו"/>
    <tag k="name:hu" v="Kongói Demokratikus Köztársaság"/>
    <tag k="name:id" v="Republik Demokratik Kongo"/>
    <tag k="name:is" v="Vestur-Kongó"/>
    <tag k="name:it" v="Repubblica Democratica del Congo"/>
    <tag k="name:kg" v="Repubilika ya Kongo Demokratiki"/>
    <tag k="name:lb" v="Demokratesch Republik Kongo"/>
    <tag k="name:li" v="Democratische Rippebliek vaan de Kongo"/>
    <tag k="name:ln" v="Republiki ya Kongó Demokratiki"/>
    <tag k="name:lt" v="Kongo Demokratinė Respublika"/>
    <tag k="name:lua" v="Ditunga dia Kongu wa Mungalaata"/>
    <tag k="name:mn" v="Бүгд Найрамдах Ардчилсан Конго"/>
    <tag k="name:nl" v="Democratische Republiek Congo"/>
    <tag k="name:pl" v="Demokratyczna Republika Konga"/>
    <tag k="name:ru" v="Демократическая Республика Конго"/>
    <tag k="name:sv" v="Demokratiska republiken Kongo"/>
    <tag k="name:sw" v="Jamhuri ya Kidemokrasia ya Kongo"/>
    <tag k="name:th" v="สาธารณรัฐประชาธิปไตยคองโก"/>
    <tag k="name:tr" v="Demokratik Kongo Cumhuriyeti"/>
    <tag k="name:zh" v="刚果民主共和国"/>
    <tag k="note" v="Do not confuse with  Republic of the Congo"/>
    <tag k="official_name:fr" v="République démocratique du Congo"/>
    <tag k="old_name" v="Congo Free State;Belgian Congo;Congo-Léopoldville;Congo-Kinshasa;Zaire"/>
    <tag k="old_name:fr" v="Zaïre;Congo Belge;Congo-Léopoldville"/>
    <tag k="place" v="country"/>
    <tag k="population" v="68692542"/>
    <tag k="watch:hakan" v="countries"/>
    <tag k="wikipedia" v="Democratic Republic of the Congo"/>
    <tag k="wikipedia:fr" v="République démocratique du Congo"/>
  </node>
  <node id="435981993" version="27" timestamp="2009-08-18T09:44:49Z" uid="3834" user="StefanB" changeset="2187712" lat="-5.1999603" lon="21.7166335">
    <tag k="alt_name" v="Congo-Kinshasa;Congo (Kinshasa);Congo;RD Congo;RDC"/>
    <tag k="capital_city" v="Kinshasa"/>
    <tag k="country_code_fips" v="CG"/>
    <tag k="country_code_iso3166_1_alpha_2" v="CD"/>
    <tag k="geonames:id" v="203312"/>
    <tag k="int_name" v="République Démocratique du Congo"/>
    <tag k="is_in:continent" v="Africa"/>
    <tag k="name" v="République Démocratique du Congo"/>
    <tag k="name:af" v="Demokratiese Republiek van die Kongo"/>
    <tag k="name:ar" v="الكونغو"/>
    <tag k="name:br" v="Republik Demokratel Kongo"/>
    <tag k="name:ca" v="República Democràtica del Congo"/>
    <tag k="name:cy" v="Gweriniaeth Ddemocrataidd Congo"/>
    <tag k="name:da" v="Demokratiske Republik Congo"/>
    <tag k="name:de" v="Demokratische Republik Kongo"/>
    <tag k="name:el" v="Λαϊκή Δημοκρατία του Κονγκό"/>
    <tag k="name:en" v="Democratic Republic of the Congo"/>
    <tag k="name:eo" v="Demokratia Respubliko Kongo"/>
    <tag k="name:es" v="República Democrática del Congo"/>
    <tag k="name:et" v="Kongo Demokraatlik Vabariik"/>
    <tag k="name:fa" v="جمهوری دموکراتیک کنگو"/>
    <tag k="name:fi" v="Kongon demokraattinen tasavalta"/>
    <tag k="name:fr" v="République démocratique du Congo"/>
    <tag k="name:fy" v="Demokratyske Republyk de Kongo"/>
    <tag k="name:gd" v="Poblachd Dheamocrach na Congo"/>
    <tag k="name:he" v="הרפובליקה הדמוקרטית של קונגו"/>
    <tag k="name:hu" v="Kongói Demokratikus Köztársaság"/>
    <tag k="name:id" v="Republik Demokratik Kongo"/>
    <tag k="name:is" v="Vestur-Kongó"/>
    <tag k="name:it" v="Repubblica Democratica del Congo"/>
    <tag k="name:kg" v="Repubilika ya Kongo Demokratiki"/>
    <tag k="name:lb" v="Demokratesch Republik Kongo"/>
    <tag k="name:li" v="Democratische Rippebliek vaan de Kongo"/>
    <tag k="name:ln" v="Republiki ya Kongó Demokratiki"/>
    <tag k="name:lt" v="Kongo Demokratinė Respublika"/>
    <tag k="name:lua" v="Ditunga dia Kongu wa Mungalaata"/>
    <tag k="name:mn" v="Бүгд Найрамдах Ардчилсан Конго"/>
    <tag k="name:nl" v="Democratische Republiek Congo"/>
    <tag k="name:pl" v="Demokratyczna Republika Konga"/>
    <tag k="name:ru" v="Демократическая Республика Конго"/>
    <tag k="name:sl" v="Demokratična republika Kongo"/>
    <tag k="name:sv" v="Demokratiska republiken Kongo"/>
    <tag k="name:sw" v="Jamhuri ya Kidemokrasia ya Kongo"/>
    <tag k="name:th" v="สาธารณรัฐประชาธิปไตยคองโก"/>
    <tag k="name:tr" v="Demokratik Kongo Cumhuriyeti"/>
    <tag k="name:zh" v="刚果民主共和国"/>
    <tag k="note" v="Do not confuse with  Republic of the Congo"/>
    <tag k="official_name:fr" v="République démocratique du Congo"/>
    <tag k="old_name" v="Congo Free State;Belgian Congo;Congo-Léopoldville;Congo-Kinshasa;Zaire"/>
    <tag k="old_name:fr" v="Zaïre;Congo Belge;Congo-Léopoldville"/>
    <tag k="place" v="country"/>
    <tag k="population" v="68692542"/>
    <tag k="watch:hakan" v="countries"/>
    <tag k="wikipedia" v="Democratic Republic of the Congo"/>
    <tag k="wikipedia:fr" v="République démocratique du Congo"/>
  </node>
  <node id="435981993" version="28" timestamp="2009-08-18T11:56:06Z" uid="48796" user="Ldp" changeset="2189027" lat="-5.1999603" lon="21.7166335">
    <tag k="alt_name" v="Congo-Kinshasa;Congo (Kinshasa);Congo;RD Congo;RDC"/>
    <tag k="capital_city" v="Kinshasa"/>
    <tag k="country_code_fips" v="CG"/>
    <tag k="country_code_iso3166_1_alpha_2" v="CD"/>
    <tag k="geonames:id" v="203312"/>
    <tag k="int_name" v="République Démocratique du Congo"/>
    <tag k="is_in:continent" v="Africa"/>
    <tag k="name" v="République Démocratique du Congo"/>
    <tag k="name:af" v="Demokratiese Republiek van die Kongo"/>
    <tag k="name:ar" v="الكونغو"/>
    <tag k="name:br" v="Republik Demokratel Kongo"/>
    <tag k="name:ca" v="República Democràtica del Congo"/>
    <tag k="name:cy" v="Gweriniaeth Ddemocrataidd Congo"/>
    <tag k="name:da" v="Demokratiske Republik Congo"/>
    <tag k="name:de" v="Demokratische Republik Kongo"/>
    <tag k="name:el" v="Λαϊκή Δημοκρατία του Κονγκό"/>
    <tag k="name:en" v="Democratic Republic of the Congo"/>
    <tag k="name:eo" v="Demokratia Respubliko Kongo"/>
    <tag k="name:es" v="República Democrática del Congo"/>
    <tag k="name:et" v="Kongo Demokraatlik Vabariik"/>
    <tag k="name:fa" v="جمهوری دموکراتیک کنگو"/>
    <tag k="name:fi" v="Kongon demokraattinen tasavalta"/>
    <tag k="name:fr" v="République démocratique du Congo"/>
    <tag k="name:fy" v="Demokratyske Republyk de Kongo"/>
    <tag k="name:gd" v="Poblachd Dheamocrach na Congo"/>
    <tag k="name:he" v="הרפובליקה הדמוקרטית של קונגו"/>
    <tag k="name:hu" v="Kongói Demokratikus Köztársaság"/>
    <tag k="name:id" v="Republik Demokratik Kongo"/>
    <tag k="name:is" v="Vestur-Kongó"/>
    <tag k="name:it" v="Repubblica Democratica del Congo"/>
    <tag k="name:kg" v="Repubilika ya Kongo Demokratiki"/>
    <tag k="name:lb" v="Demokratesch Republik Kongo"/>
    <tag k="name:li" v="Democratische Rippebliek vaan de Kongo"/>
    <tag k="name:ln" v="Republiki ya Kongó Demokratiki"/>
    <tag k="name:lt" v="Kongo Demokratinė Respublika"/>
    <tag k="name:lua" v="Ditunga dia Kongu wa Mungalaata"/>
    <tag k="name:mn" v="Бүгд Найрамдах Ардчилсан Конго"/>
    <tag k="name:nl" v="Democratische Republiek Congo"/>
    <tag k="name:pl" v="Demokratyczna Republika Konga"/>
    <tag k="name:ru" v="Демократическая Республика Конго"/>
    <tag k="name:sl" v="Demokratična republika Kongo"/>
    <tag k="name:sv" v="Demokratiska republiken Kongo"/>
    <tag k="name:sw" v="Jamhuri ya Kidemokrasia ya Kongo"/>
    <tag k="name:th" v="สาธารณรัฐประชาธิปไตยคองโก"/>
    <tag k="name:tr" v="Demokratik Kongo Cumhuriyeti"/>
    <tag k="name:vi" v="Cộng hòa Dân chủ Congo"/>
    <tag k="name:zh" v="刚果民主共和国"/>
    <tag k="note" v="Do not confuse with  Republic of the Congo"/>
    <tag k="official_name:fr" v="République démocratique du Congo"/>
    <tag k="old_name" v="Congo Free State;Belgian Congo;Congo-Léopoldville;Congo-Kinshasa;Zaire"/>
    <tag k="old_name:fr" v="Zaïre;Congo Belge;Congo-Léopoldville"/>
    <tag k="place" v="country"/>
    <tag k="population" v="68692542"/>
    <tag k="watch:hakan" v="countries"/>
    <tag k="wikipedia" v="Democratic Republic of the Congo"/>
    <tag k="wikipedia:fr" v="République démocratique du Congo"/>
  </node>
  <node id="435981993" version="29" timestamp="2009-08-18T21:10:27Z" uid="48796" user="Ldp" changeset="2195376" lat="-5.1999603" lon="21.7166335">
    <tag k="alt_name" v="Congo-Kinshasa;Congo (Kinshasa);Congo;RD Congo;RDC"/>
    <tag k="capital_city" v="Kinshasa"/>
    <tag k="country_code_fips" v="CG"/>
    <tag k="country_code_iso3166_1_alpha_2" v="CD"/>
    <tag k="geonames:id" v="203312"/>
    <tag k="int_name" v="République Démocratique du Congo"/>
    <tag k="is_in:continent" v="Africa"/>
    <tag k="name" v="République Démocratique du Congo"/>
    <tag k="name:af" v="Demokratiese Republiek van die Kongo"/>
    <tag k="name:ar" v="الكونغو"/>
    <tag k="name:br" v="Republik Demokratel Kongo"/>
    <tag k="name:ca" v="República Democràtica del Congo"/>
    <tag k="name:cy" v="Gweriniaeth Ddemocrataidd Congo"/>
    <tag k="name:da" v="Demokratiske Republik Congo"/>
    <tag k="name:de" v="Demokratische Republik Kongo"/>
    <tag k="name:el" v="Λαϊκή Δημοκρατία του Κονγκό"/>
    <tag k="name:en" v="Democratic Republic of the Congo"/>
    <tag k="name:eo" v="Demokratia Respubliko Kongo"/>
    <tag k="name:es" v="República Democrática del Congo"/>
    <tag k="name:et" v="Kongo Demokraatlik Vabariik"/>
    <tag k="name:fa" v="جمهوری دموکراتیک کنگو"/>
    <tag k="name:fi" v="Kongon demokraattinen tasavalta"/>
    <tag k="name:fr" v="République démocratique du Congo"/>
    <tag k="name:fy" v="Demokratyske Republyk de Kongo"/>
    <tag k="name:gd" v="Poblachd Dheamocrach na Congo"/>
    <tag k="name:he" v="הרפובליקה הדמוקרטית של קונגו"/>
    <tag k="name:hu" v="Kongói Demokratikus Köztársaság"/>
    <tag k="name:id" v="Republik Demokratik Kongo"/>
    <tag k="name:is" v="Vestur-Kongó"/>
    <tag k="name:it" v="Repubblica Democratica del Congo"/>
    <tag k="name:kg" v="Repubilika ya Kongo Demokratiki"/>
    <tag k="name:la" v="Respublica Popularis Congensis"/>
    <tag k="name:lb" v="Demokratesch Republik Kongo"/>
    <tag k="name:li" v="Democratische Rippebliek vaan de Kongo"/>
    <tag k="name:ln" v="Republiki ya Kongó Demokratiki"/>
    <tag k="name:lt" v="Kongo Demokratinė Respublika"/>
    <tag k="name:lua" v="Ditunga dia Kongu wa Mungalaata"/>
    <tag k="name:mn" v="Бүгд Найрамдах Ардчилсан Конго"/>
    <tag k="name:nl" v="Democratische Republiek Congo"/>
    <tag k="name:pl" v="Demokratyczna Republika Konga"/>
    <tag k="name:ru" v="Демократическая Республика Конго"/>
    <tag k="name:sl" v="Demokratična republika Kongo"/>
    <tag k="name:sv" v="Demokratiska republiken Kongo"/>
    <tag k="name:sw" v="Jamhuri ya Kidemokrasia ya Kongo"/>
    <tag k="name:th" v="สาธารณรัฐประชาธิปไตยคองโก"/>
    <tag k="name:tr" v="Demokratik Kongo Cumhuriyeti"/>
    <tag k="name:vi" v="Cộng hòa Dân chủ Congo"/>
    <tag k="name:zh" v="刚果民主共和国"/>
    <tag k="note" v="Do not confuse with  Republic of the Congo"/>
    <tag k="official_name:fr" v="République démocratique du Congo"/>
    <tag k="old_name" v="Congo Free State;Belgian Congo;Congo-Léopoldville;Congo-Kinshasa;Zaire"/>
    <tag k="old_name:fr" v="Zaïre;Congo Belge;Congo-Léopoldville"/>
    <tag k="place" v="country"/>
    <tag k="population" v="68692542"/>
    <tag k="watch:hakan" v="countries"/>
    <tag k="wikipedia" v="Democratic Republic of the Congo"/>
    <tag k="wikipedia:fr" v="République démocratique du Congo"/>
  </node>
  <node id="435981993" version="30" timestamp="2009-08-21T21:26:25Z" uid="1379" user="AndrewMcCarthy" changeset="2228862" lat="-5.1999603" lon="21.7166335">
    <tag k="alt_name" v="Congo-Kinshasa;Congo (Kinshasa);Congo;RD Congo;RDC"/>
    <tag k="capital_city" v="Kinshasa"/>
    <tag k="country_code_fips" v="CG"/>
    <tag k="country_code_iso3166_1_alpha_2" v="CD"/>
    <tag k="geonames:id" v="203312"/>
    <tag k="int_name" v="République Démocratique du Congo"/>
    <tag k="is_in:continent" v="Africa"/>
    <tag k="name" v="République Démocratique du Congo"/>
    <tag k="name:af" v="Demokratiese Republiek van die Kongo"/>
    <tag k="name:ar" v="الكونغو"/>
    <tag k="name:br" v="Republik Demokratel Kongo"/>
    <tag k="name:ca" v="República Democràtica del Congo"/>
    <tag k="name:cy" v="Gweriniaeth Ddemocrataidd Congo"/>
    <tag k="name:da" v="Demokratiske Republik Congo"/>
    <tag k="name:de" v="Demokratische Republik Kongo"/>
    <tag k="name:el" v="Λαϊκή Δημοκρατία του Κονγκό"/>
    <tag k="name:en" v="Democratic Republic of the Congo"/>
    <tag k="name:eo" v="Demokratia Respubliko Kongo"/>
    <tag k="name:es" v="República Democrática del Congo"/>
    <tag k="name:et" v="Kongo Demokraatlik Vabariik"/>
    <tag k="name:fa" v="جمهوری دموکراتیک کنگو"/>
    <tag k="name:fi" v="Kongon demokraattinen tasavalta"/>
    <tag k="name:fr" v="République démocratique du Congo"/>
    <tag k="name:fy" v="Demokratyske Republyk de Kongo"/>
    <tag k="name:ga" v="Poblacht Dhaonlathach an Chongó"/>
    <tag k="name:gd" v="Poblachd Dheamocrach na Congo"/>
    <tag k="name:he" v="הרפובליקה הדמוקרטית של קונגו"/>
    <tag k="name:hu" v="Kongói Demokratikus Köztársaság"/>
    <tag k="name:id" v="Republik Demokratik Kongo"/>
    <tag k="name:is" v="Vestur-Kongó"/>
    <tag k="name:it" v="Repubblica Democratica del Congo"/>
    <tag k="name:kg" v="Repubilika ya Kongo Demokratiki"/>
    <tag k="name:la" v="Respublica Popularis Congensis"/>
    <tag k="name:lb" v="Demokratesch Republik Kongo"/>
    <tag k="name:li" v="Democratische Rippebliek vaan de Kongo"/>
    <tag k="name:ln" v="Republiki ya Kongó Demokratiki"/>
    <tag k="name:lt" v="Kongo Demokratinė Respublika"/>
    <tag k="name:lua" v="Ditunga dia Kongu wa Mungalaata"/>
    <tag k="name:mn" v="Бүгд Найрамдах Ардчилсан Конго"/>
    <tag k="name:nl" v="Democratische Republiek Congo"/>
    <tag k="name:pl" v="Demokratyczna Republika Konga"/>
    <tag k="name:ru" v="Демократическая Республика Конго"/>
    <tag k="name:sl" v="Demokratična republika Kongo"/>
    <tag k="name:sv" v="Demokratiska republiken Kongo"/>
    <tag k="name:sw" v="Jamhuri ya Kidemokrasia ya Kongo"/>
    <tag k="name:th" v="สาธารณรัฐประชาธิปไตยคองโก"/>
    <tag k="name:tr" v="Demokratik Kongo Cumhuriyeti"/>
    <tag k="name:vi" v="Cộng hòa Dân chủ Congo"/>
    <tag k="name:zh" v="刚果民主共和国"/>
    <tag k="note" v="Do not confuse with  Republic of the Congo"/>
    <tag k="official_name:fr" v="République démocratique du Congo"/>
    <tag k="old_name" v="Congo Free State;Belgian Congo;Congo-Léopoldville;Congo-Kinshasa;Zaire"/>
    <tag k="old_name:fr" v="Zaïre;Congo Belge;Congo-Léopoldville"/>
    <tag k="place" v="country"/>
    <tag k="population" v="68692542"/>
    <tag k="watch:hakan" v="countries"/>
    <tag k="wikipedia" v="Democratic Republic of the Congo"/>
    <tag k="wikipedia:fr" v="République démocratique du Congo"/>
  </node>
  <node id="435981993" version="31" timestamp="2009-08-29T22:28:47Z" uid="22556" user="Lafriks" changeset="2307443" lat="-5.1999603" lon="21.7166335">
    <tag k="alt_name" v="Congo-Kinshasa;Congo (Kinshasa);Congo;RD Congo;RDC"/>
    <tag k="capital_city" v="Kinshasa"/>
    <tag k="country_code_fips" v="CG"/>
    <tag k="country_code_iso3166_1_alpha_2" v="CD"/>
    <tag k="geonames:id" v="203312"/>
    <tag k="int_name" v="République Démocratique du Congo"/>
    <tag k="is_in:continent" v="Africa"/>
    <tag k="name" v="République Démocratique du Congo"/>
    <tag k="name:af" v="Demokratiese Republiek van die Kongo"/>
    <tag k="name:ar" v="الكونغو"/>
    <tag k="name:br" v="Republik Demokratel Kongo"/>
    <tag k="name:ca" v="República Democràtica del Congo"/>
    <tag k="name:cy" v="Gweriniaeth Ddemocrataidd Congo"/>
    <tag k="name:da" v="Demokratiske Republik Congo"/>
    <tag k="name:de" v="Demokratische Republik Kongo"/>
    <tag k="name:el" v="Λαϊκή Δημοκρατία του Κονγκό"/>
    <tag k="name:en" v="Democratic Republic of the Congo"/>
    <tag k="name:eo" v="Demokratia Respubliko Kongo"/>
    <tag k="name:es" v="República Democrática del Congo"/>
    <tag k="name:et" v="Kongo Demokraatlik Vabariik"/>
    <tag k="name:fa" v="جمهوری دموکراتیک کنگو"/>
    <tag k="name:fi" v="Kongon demokraattinen tasavalta"/>
    <tag k="name:fr" v="République démocratique du Congo"/>
    <tag k="name:fy" v="Demokratyske Republyk de Kongo"/>
    <tag k="name:ga" v="Poblacht Dhaonlathach an Chongó"/>
    <tag k="name:gd" v="Poblachd Dheamocrach na Congo"/>
    <tag k="name:he" v="הרפובליקה הדמוקרטית של קונגו"/>
    <tag k="name:hu" v="Kongói Demokratikus Köztársaság"/>
    <tag k="name:id" v="Republik Demokratik Kongo"/>
    <tag k="name:is" v="Vestur-Kongó"/>
    <tag k="name:it" v="Repubblica Democratica del Congo"/>
    <tag k="name:kg" v="Repubilika ya Kongo Demokratiki"/>
    <tag k="name:la" v="Respublica Popularis Congensis"/>
    <tag k="name:lb" v="Demokratesch Republik Kongo"/>
    <tag k="name:li" v="Democratische Rippebliek vaan de Kongo"/>
    <tag k="name:ln" v="Republiki ya Kongó Demokratiki"/>
    <tag k="name:lt" v="Kongo Demokratinė Respublika"/>
    <tag k="name:lua" v="Ditunga dia Kongu wa Mungalaata"/>
    <tag k="name:lv" v="Kongo Demokrātiskā Republika"/>
    <tag k="name:mn" v="Бүгд Найрамдах Ардчилсан Конго"/>
    <tag k="name:nl" v="Democratische Republiek Congo"/>
    <tag k="name:pl" v="Demokratyczna Republika Konga"/>
    <tag k="name:ru" v="Демократическая Республика Конго"/>
    <tag k="name:sl" v="Demokratična republika Kongo"/>
    <tag k="name:sv" v="Demokratiska republiken Kongo"/>
    <tag k="name:sw" v="Jamhuri ya Kidemokrasia ya Kongo"/>
    <tag k="name:th" v="สาธารณรัฐประชาธิปไตยคองโก"/>
    <tag k="name:tr" v="Demokratik Kongo Cumhuriyeti"/>
    <tag k="name:vi" v="Cộng hòa Dân chủ Congo"/>
    <tag k="name:zh" v="刚果民主共和国"/>
    <tag k="note" v="Do not confuse with  Republic of the Congo"/>
    <tag k="official_name:fr" v="République démocratique du Congo"/>
    <tag k="old_name" v="Congo Free State;Belgian Congo;Congo-Léopoldville;Congo-Kinshasa;Zaire"/>
    <tag k="old_name:fr" v="Zaïre;Congo Belge;Congo-Léopoldville"/>
    <tag k="place" v="country"/>
    <tag k="population" v="68692542"/>
    <tag k="watch:hakan" v="countries"/>
    <tag k="wikipedia" v="Democratic Republic of the Congo"/>
    <tag k="wikipedia:fr" v="République démocratique du Congo"/>
  </node>
  <node id="435981993" version="32" timestamp="2009-09-01T11:19:47Z" uid="65077" user="mishok13" changeset="2336389" lat="-5.199955" lon="21.7166297">
    <tag k="alt_name" v="Congo-Kinshasa;Congo (Kinshasa);Congo;RD Congo;RDC"/>
    <tag k="capital_city" v="Kinshasa"/>
    <tag k="country_code_fips" v="CG"/>
    <tag k="country_code_iso3166_1_alpha_2" v="CD"/>
    <tag k="geonames:id" v="203312"/>
    <tag k="int_name" v="République Démocratique du Congo"/>
    <tag k="is_in:continent" v="Africa"/>
    <tag k="name" v="République Démocratique du Congo"/>
    <tag k="name:af" v="Demokratiese Republiek van die Kongo"/>
    <tag k="name:ar" v="الكونغو"/>
    <tag k="name:br" v="Republik Demokratel Kongo"/>
    <tag k="name:ca" v="República Democràtica del Congo"/>
    <tag k="name:cy" v="Gweriniaeth Ddemocrataidd Congo"/>
    <tag k="name:da" v="Demokratiske Republik Congo"/>
    <tag k="name:de" v="Demokratische Republik Kongo"/>
    <tag k="name:el" v="Λαϊκή Δημοκρατία του Κονγκό"/>
    <tag k="name:en" v="Democratic Republic of the Congo"/>
    <tag k="name:eo" v="Demokratia Respubliko Kongo"/>
    <tag k="name:es" v="República Democrática del Congo"/>
    <tag k="name:et" v="Kongo Demokraatlik Vabariik"/>
    <tag k="name:fa" v="جمهوری دموکراتیک کنگو"/>
    <tag k="name:fi" v="Kongon demokraattinen tasavalta"/>
    <tag k="name:fr" v="République démocratique du Congo"/>
    <tag k="name:fy" v="Demokratyske Republyk de Kongo"/>
    <tag k="name:ga" v="Poblacht Dhaonlathach an Chongó"/>
    <tag k="name:gd" v="Poblachd Dheamocrach na Congo"/>
    <tag k="name:he" v="הרפובליקה הדמוקרטית של קונגו"/>
    <tag k="name:hu" v="Kongói Demokratikus Köztársaság"/>
    <tag k="name:id" v="Republik Demokratik Kongo"/>
    <tag k="name:is" v="Vestur-Kongó"/>
    <tag k="name:it" v="Repubblica Democratica del Congo"/>
    <tag k="name:kg" v="Repubilika ya Kongo Demokratiki"/>
    <tag k="name:la" v="Respublica Popularis Congensis"/>
    <tag k="name:lb" v="Demokratesch Republik Kongo"/>
    <tag k="name:li" v="Democratische Rippebliek vaan de Kongo"/>
    <tag k="name:ln" v="Republiki ya Kongó Demokratiki"/>
    <tag k="name:lt" v="Kongo Demokratinė Respublika"/>
    <tag k="name:lua" v="Ditunga dia Kongu wa Mungalaata"/>
    <tag k="name:lv" v="Kongo Demokrātiskā Republika"/>
    <tag k="name:mn" v="Бүгд Найрамдах Ардчилсан Конго"/>
    <tag k="name:nl" v="Democratische Republiek Congo"/>
    <tag k="name:pl" v="Demokratyczna Republika Konga"/>
    <tag k="name:ru" v="Демократическая Республика Конго"/>
    <tag k="name:sl" v="Demokratična republika Kongo"/>
    <tag k="name:sv" v="Demokratiska republiken Kongo"/>
    <tag k="name:sw" v="Jamhuri ya Kidemokrasia ya Kongo"/>
    <tag k="name:th" v="สาธารณรัฐประชาธิปไตยคองโก"/>
    <tag k="name:tr" v="Demokratik Kongo Cumhuriyeti"/>
    <tag k="name:uk" v="Демократична Республіка Конго"/>
    <tag k="name:vi" v="Cộng hòa Dân chủ Congo"/>
    <tag k="name:zh" v="刚果民主共和国"/>
    <tag k="note" v="Do not confuse with  Republic of the Congo"/>
    <tag k="official_name:fr" v="République démocratique du Congo"/>
    <tag k="old_name" v="Congo Free State;Belgian Congo;Congo-Léopoldville;Congo-Kinshasa;Zaire"/>
    <tag k="old_name:fr" v="Zaïre;Congo Belge;Congo-Léopoldville"/>
    <tag k="place" v="country"/>
    <tag k="population" v="68692542"/>
    <tag k="watch:hakan" v="countries"/>
    <tag k="wikipedia" v="Democratic Republic of the Congo"/>
    <tag k="wikipedia:fr" v="République démocratique du Congo"/>
  </node>
  <node id="435981993" version="33" timestamp="2009-09-01T15:12:57Z" uid="148025" user="mvrban" changeset="2338759" lat="-5.199955" lon="21.7166297">
    <tag k="alt_name" v="Congo-Kinshasa;Congo (Kinshasa);Congo;RD Congo;RDC"/>
    <tag k="capital_city" v="Kinshasa"/>
    <tag k="country_code_fips" v="CG"/>
    <tag k="country_code_iso3166_1_alpha_2" v="CD"/>
    <tag k="geonames:id" v="203312"/>
    <tag k="int_name" v="République Démocratique du Congo"/>
    <tag k="is_in:continent" v="Africa"/>
    <tag k="name" v="République Démocratique du Congo"/>
    <tag k="name:af" v="Demokratiese Republiek van die Kongo"/>
    <tag k="name:ar" v="الكونغو"/>
    <tag k="name:br" v="Republik Demokratel Kongo"/>
    <tag k="name:ca" v="República Democràtica del Congo"/>
    <tag k="name:cy" v="Gweriniaeth Ddemocrataidd Congo"/>
    <tag k="name:da" v="Demokratiske Republik Congo"/>
    <tag k="name:de" v="Demokratische Republik Kongo"/>
    <tag k="name:el" v="Λαϊκή Δημοκρατία του Κονγκό"/>
    <tag k="name:en" v="Democratic Republic of the Congo"/>
    <tag k="name:eo" v="Demokratia Respubliko Kongo"/>
    <tag k="name:es" v="República Democrática del Congo"/>
    <tag k="name:et" v="Kongo Demokraatlik Vabariik"/>
    <tag k="name:fa" v="جمهوری دموکراتیک کنگو"/>
    <tag k="name:fi" v="Kongon demokraattinen tasavalta"/>
    <tag k="name:fr" v="République démocratique du Congo"/>
    <tag k="name:fy" v="Demokratyske Republyk de Kongo"/>
    <tag k="name:ga" v="Poblacht Dhaonlathach an Chongó"/>
    <tag k="name:gd" v="Poblachd Dheamocrach na Congo"/>
    <tag k="name:he" v="הרפובליקה הדמוקרטית של קונגו"/>
    <tag k="name:hr" v="Demokratska Republika Kongo"/>
    <tag k="name:hu" v="Kongói Demokratikus Köztársaság"/>
    <tag k="name:id" v="Republik Demokratik Kongo"/>
    <tag k="name:is" v="Vestur-Kongó"/>
    <tag k="name:it" v="Repubblica Democratica del Congo"/>
    <tag k="name:kg" v="Repubilika ya Kongo Demokratiki"/>
    <tag k="name:la" v="Respublica Popularis Congensis"/>
    <tag k="name:lb" v="Demokratesch Republik Kongo"/>
    <tag k="name:li" v="Democratische Rippebliek vaan de Kongo"/>
    <tag k="name:ln" v="Republiki ya Kongó Demokratiki"/>
    <tag k="name:lt" v="Kongo Demokratinė Respublika"/>
    <tag k="name:lua" v="Ditunga dia Kongu wa Mungalaata"/>
    <tag k="name:lv" v="Kongo Demokrātiskā Republika"/>
    <tag k="name:mn" v="Бүгд Найрамдах Ардчилсан Конго"/>
    <tag k="name:nl" v="Democratische Republiek Congo"/>
    <tag k="name:pl" v="Demokratyczna Republika Konga"/>
    <tag k="name:ru" v="Демократическая Республика Конго"/>
    <tag k="name:sl" v="Demokratična republika Kongo"/>
    <tag k="name:sv" v="Demokratiska republiken Kongo"/>
    <tag k="name:sw" v="Jamhuri ya Kidemokrasia ya Kongo"/>
    <tag k="name:th" v="สาธารณรัฐประชาธิปไตยคองโก"/>
    <tag k="name:tr" v="Demokratik Kongo Cumhuriyeti"/>
    <tag k="name:uk" v="Демократична Республіка Конго"/>
    <tag k="name:vi" v="Cộng hòa Dân chủ Congo"/>
    <tag k="name:zh" v="刚果民主共和国"/>
    <tag k="note" v="Do not confuse with  Republic of the Congo"/>
    <tag k="official_name:fr" v="République démocratique du Congo"/>
    <tag k="old_name" v="Congo Free State;Belgian Congo;Congo-Léopoldville;Congo-Kinshasa;Zaire"/>
    <tag k="old_name:fr" v="Zaïre;Congo Belge;Congo-Léopoldville"/>
    <tag k="place" v="country"/>
    <tag k="population" v="68692542"/>
    <tag k="watch:hakan" v="countries"/>
    <tag k="wikipedia" v="Democratic Republic of the Congo"/>
    <tag k="wikipedia:fr" v="République démocratique du Congo"/>
  </node>
  <node id="435981993" version="34" timestamp="2009-09-02T20:17:32Z" uid="84468" user="nazotoko" changeset="2353486" lat="-5.199955" lon="21.7166297">
    <tag k="alt_name" v="Congo-Kinshasa;Congo (Kinshasa);Congo;RD Congo;RDC"/>
    <tag k="capital_city" v="Kinshasa"/>
    <tag k="country_code_fips" v="CG"/>
    <tag k="country_code_iso3166_1_alpha_2" v="CD"/>
    <tag k="geonames:id" v="203312"/>
    <tag k="int_name" v="République Démocratique du Congo"/>
    <tag k="is_in:continent" v="Africa"/>
    <tag k="name" v="République Démocratique du Congo"/>
    <tag k="name:af" v="Demokratiese Republiek van die Kongo"/>
    <tag k="name:ar" v="الكونغو"/>
    <tag k="name:br" v="Republik Demokratel Kongo"/>
    <tag k="name:ca" v="República Democràtica del Congo"/>
    <tag k="name:cy" v="Gweriniaeth Ddemocrataidd Congo"/>
    <tag k="name:da" v="Demokratiske Republik Congo"/>
    <tag k="name:de" v="Demokratische Republik Kongo"/>
    <tag k="name:el" v="Λαϊκή Δημοκρατία του Κονγκό"/>
    <tag k="name:en" v="Democratic Republic of the Congo"/>
    <tag k="name:eo" v="Demokratia Respubliko Kongo"/>
    <tag k="name:es" v="República Democrática del Congo"/>
    <tag k="name:et" v="Kongo Demokraatlik Vabariik"/>
    <tag k="name:fa" v="جمهوری دموکراتیک کنگو"/>
    <tag k="name:fi" v="Kongon demokraattinen tasavalta"/>
    <tag k="name:fr" v="République démocratique du Congo"/>
    <tag k="name:fy" v="Demokratyske Republyk de Kongo"/>
    <tag k="name:ga" v="Poblacht Dhaonlathach an Chongó"/>
    <tag k="name:gd" v="Poblachd Dheamocrach na Congo"/>
    <tag k="name:he" v="הרפובליקה הדמוקרטית של קונגו"/>
    <tag k="name:hr" v="Demokratska Republika Kongo"/>
    <tag k="name:hu" v="Kongói Demokratikus Köztársaság"/>
    <tag k="name:id" v="Republik Demokratik Kongo"/>
    <tag k="name:is" v="Vestur-Kongó"/>
    <tag k="name:it" v="Repubblica Democratica del Congo"/>
    <tag k="name:ja" v="コンゴ共和国"/>
    <tag k="name:kg" v="Repubilika ya Kongo Demokratiki"/>
    <tag k="name:la" v="Respublica Popularis Congensis"/>
    <tag k="name:lb" v="Demokratesch Republik Kongo"/>
    <tag k="name:li" v="Democratische Rippebliek vaan de Kongo"/>
    <tag k="name:ln" v="Republiki ya Kongó Demokratiki"/>
    <tag k="name:lt" v="Kongo Demokratinė Respublika"/>
    <tag k="name:lua" v="Ditunga dia Kongu wa Mungalaata"/>
    <tag k="name:lv" v="Kongo Demokrātiskā Republika"/>
    <tag k="name:mn" v="Бүгд Найрамдах Ардчилсан Конго"/>
    <tag k="name:nl" v="Democratische Republiek Congo"/>
    <tag k="name:pl" v="Demokratyczna Republika Konga"/>
    <tag k="name:ru" v="Демократическая Республика Конго"/>
    <tag k="name:sl" v="Demokratična republika Kongo"/>
    <tag k="name:sv" v="Demokratiska republiken Kongo"/>
    <tag k="name:sw" v="Jamhuri ya Kidemokrasia ya Kongo"/>
    <tag k="name:th" v="สาธารณรัฐประชาธิปไตยคองโก"/>
    <tag k="name:tr" v="Demokratik Kongo Cumhuriyeti"/>
    <tag k="name:uk" v="Демократична Республіка Конго"/>
    <tag k="name:vi" v="Cộng hòa Dân chủ Congo"/>
    <tag k="name:zh" v="刚果民主共和国"/>
    <tag k="note" v="Do not confuse with  Republic of the Congo"/>
    <tag k="official_name:fr" v="République démocratique du Congo"/>
    <tag k="old_name" v="Congo Free State;Belgian Congo;Congo-Léopoldville;Congo-Kinshasa;Zaire"/>
    <tag k="old_name:fr" v="Zaïre;Congo Belge;Congo-Léopoldville"/>
    <tag k="place" v="country"/>
    <tag k="population" v="68692542"/>
    <tag k="watch:hakan" v="countries"/>
    <tag k="wikipedia" v="Democratic Republic of the Congo"/>
    <tag k="wikipedia:fr" v="République démocratique du Congo"/>
  </node>
  <node id="435981993" version="35" timestamp="2009-09-02T20:18:50Z" uid="84468" user="nazotoko" changeset="2353506" lat="-5.199955" lon="21.7166297">
    <tag k="alt_name" v="Congo-Kinshasa;Congo (Kinshasa);Congo;RD Congo;RDC"/>
    <tag k="capital_city" v="Kinshasa"/>
    <tag k="country_code_fips" v="CG"/>
    <tag k="country_code_iso3166_1_alpha_2" v="CD"/>
    <tag k="geonames:id" v="203312"/>
    <tag k="int_name" v="République Démocratique du Congo"/>
    <tag k="is_in:continent" v="Africa"/>
    <tag k="name" v="République Démocratique du Congo"/>
    <tag k="name:af" v="Demokratiese Republiek van die Kongo"/>
    <tag k="name:ar" v="الكونغو"/>
    <tag k="name:br" v="Republik Demokratel Kongo"/>
    <tag k="name:ca" v="República Democràtica del Congo"/>
    <tag k="name:cy" v="Gweriniaeth Ddemocrataidd Congo"/>
    <tag k="name:da" v="Demokratiske Republik Congo"/>
    <tag k="name:de" v="Demokratische Republik Kongo"/>
    <tag k="name:el" v="Λαϊκή Δημοκρατία του Κονγκό"/>
    <tag k="name:en" v="Democratic Republic of the Congo"/>
    <tag k="name:eo" v="Demokratia Respubliko Kongo"/>
    <tag k="name:es" v="República Democrática del Congo"/>
    <tag k="name:et" v="Kongo Demokraatlik Vabariik"/>
    <tag k="name:fa" v="جمهوری دموکراتیک کنگو"/>
    <tag k="name:fi" v="Kongon demokraattinen tasavalta"/>
    <tag k="name:fr" v="République démocratique du Congo"/>
    <tag k="name:fy" v="Demokratyske Republyk de Kongo"/>
    <tag k="name:ga" v="Poblacht Dhaonlathach an Chongó"/>
    <tag k="name:gd" v="Poblachd Dheamocrach na Congo"/>
    <tag k="name:he" v="הרפובליקה הדמוקרטית של קונגו"/>
    <tag k="name:hr" v="Demokratska Republika Kongo"/>
    <tag k="name:hu" v="Kongói Demokratikus Köztársaság"/>
    <tag k="name:id" v="Republik Demokratik Kongo"/>
    <tag k="name:is" v="Vestur-Kongó"/>
    <tag k="name:it" v="Repubblica Democratica del Congo"/>
    <tag k="name:ja" v="コンゴ民主共和国"/>
    <tag k="name:kg" v="Repubilika ya Kongo Demokratiki"/>
    <tag k="name:la" v="Respublica Popularis Congensis"/>
    <tag k="name:lb" v="Demokratesch Republik Kongo"/>
    <tag k="name:li" v="Democratische Rippebliek vaan de Kongo"/>
    <tag k="name:ln" v="Republiki ya Kongó Demokratiki"/>
    <tag k="name:lt" v="Kongo Demokratinė Respublika"/>
    <tag k="name:lua" v="Ditunga dia Kongu wa Mungalaata"/>
    <tag k="name:lv" v="Kongo Demokrātiskā Republika"/>
    <tag k="name:mn" v="Бүгд Найрамдах Ардчилсан Конго"/>
    <tag k="name:nl" v="Democratische Republiek Congo"/>
    <tag k="name:pl" v="Demokratyczna Republika Konga"/>
    <tag k="name:ru" v="Демократическая Республика Конго"/>
    <tag k="name:sl" v="Demokratična republika Kongo"/>
    <tag k="name:sv" v="Demokratiska republiken Kongo"/>
    <tag k="name:sw" v="Jamhuri ya Kidemokrasia ya Kongo"/>
    <tag k="name:th" v="สาธารณรัฐประชาธิปไตยคองโก"/>
    <tag k="name:tr" v="Demokratik Kongo Cumhuriyeti"/>
    <tag k="name:uk" v="Демократична Республіка Конго"/>
    <tag k="name:vi" v="Cộng hòa Dân chủ Congo"/>
    <tag k="name:zh" v="刚果民主共和国"/>
    <tag k="note" v="Do not confuse with  Republic of the Congo"/>
    <tag k="official_name:fr" v="République démocratique du Congo"/>
    <tag k="old_name" v="Congo Free State;Belgian Congo;Congo-Léopoldville;Congo-Kinshasa;Zaire"/>
    <tag k="old_name:fr" v="Zaïre;Congo Belge;Congo-Léopoldville"/>
    <tag k="place" v="country"/>
    <tag k="population" v="68692542"/>
    <tag k="watch:hakan" v="countries"/>
    <tag k="wikipedia" v="Democratic Republic of the Congo"/>
    <tag k="wikipedia:fr" v="République démocratique du Congo"/>
  </node>
  <node id="435981993" version="36" timestamp="2009-09-11T14:59:44Z" uid="10345" user="Mormegil" changeset="2447653" lat="-5.199955" lon="21.7166297">
    <tag k="alt_name" v="Congo-Kinshasa;Congo (Kinshasa);Congo;RD Congo;RDC"/>
    <tag k="capital_city" v="Kinshasa"/>
    <tag k="country_code_fips" v="CG"/>
    <tag k="country_code_iso3166_1_alpha_2" v="CD"/>
    <tag k="geonames:id" v="203312"/>
    <tag k="int_name" v="République Démocratique du Congo"/>
    <tag k="is_in:continent" v="Africa"/>
    <tag k="name" v="République Démocratique du Congo"/>
    <tag k="name:af" v="Demokratiese Republiek van die Kongo"/>
    <tag k="name:ar" v="الكونغو"/>
    <tag k="name:br" v="Republik Demokratel Kongo"/>
    <tag k="name:ca" v="República Democràtica del Congo"/>
    <tag k="name:cs" v="Demokratická republika Kongo"/>
    <tag k="name:cy" v="Gweriniaeth Ddemocrataidd Congo"/>
    <tag k="name:da" v="Demokratiske Republik Congo"/>
    <tag k="name:de" v="Demokratische Republik Kongo"/>
    <tag k="name:el" v="Λαϊκή Δημοκρατία του Κονγκό"/>
    <tag k="name:en" v="Democratic Republic of the Congo"/>
    <tag k="name:eo" v="Demokratia Respubliko Kongo"/>
    <tag k="name:es" v="República Democrática del Congo"/>
    <tag k="name:et" v="Kongo Demokraatlik Vabariik"/>
    <tag k="name:fa" v="جمهوری دموکراتیک کنگو"/>
    <tag k="name:fi" v="Kongon demokraattinen tasavalta"/>
    <tag k="name:fr" v="République démocratique du Congo"/>
    <tag k="name:fy" v="Demokratyske Republyk de Kongo"/>
    <tag k="name:ga" v="Poblacht Dhaonlathach an Chongó"/>
    <tag k="name:gd" v="Poblachd Dheamocrach na Congo"/>
    <tag k="name:he" v="הרפובליקה הדמוקרטית של קונגו"/>
    <tag k="name:hr" v="Demokratska Republika Kongo"/>
    <tag k="name:hu" v="Kongói Demokratikus Köztársaság"/>
    <tag k="name:id" v="Republik Demokratik Kongo"/>
    <tag k="name:is" v="Vestur-Kongó"/>
    <tag k="name:it" v="Repubblica Democratica del Congo"/>
    <tag k="name:ja" v="コンゴ民主共和国"/>
    <tag k="name:kg" v="Repubilika ya Kongo Demokratiki"/>
    <tag k="name:la" v="Respublica Popularis Congensis"/>
    <tag k="name:lb" v="Demokratesch Republik Kongo"/>
    <tag k="name:li" v="Democratische Rippebliek vaan de Kongo"/>
    <tag k="name:ln" v="Republiki ya Kongó Demokratiki"/>
    <tag k="name:lt" v="Kongo Demokratinė Respublika"/>
    <tag k="name:lua" v="Ditunga dia Kongu wa Mungalaata"/>
    <tag k="name:lv" v="Kongo Demokrātiskā Republika"/>
    <tag k="name:mn" v="Бүгд Найрамдах Ардчилсан Конго"/>
    <tag k="name:nl" v="Democratische Republiek Congo"/>
    <tag k="name:pl" v="Demokratyczna Republika Konga"/>
    <tag k="name:ru" v="Демократическая Республика Конго"/>
    <tag k="name:sl" v="Demokratična republika Kongo"/>
    <tag k="name:sv" v="Demokratiska republiken Kongo"/>
    <tag k="name:sw" v="Jamhuri ya Kidemokrasia ya Kongo"/>
    <tag k="name:th" v="สาธารณรัฐประชาธิปไตยคองโก"/>
    <tag k="name:tr" v="Demokratik Kongo Cumhuriyeti"/>
    <tag k="name:uk" v="Демократична Республіка Конго"/>
    <tag k="name:vi" v="Cộng hòa Dân chủ Congo"/>
    <tag k="name:zh" v="刚果民主共和国"/>
    <tag k="note" v="Do not confuse with  Republic of the Congo"/>
    <tag k="official_name:fr" v="République démocratique du Congo"/>
    <tag k="old_name" v="Congo Free State;Belgian Congo;Congo-Léopoldville;Congo-Kinshasa;Zaire"/>
    <tag k="old_name:fr" v="Zaïre;Congo Belge;Congo-Léopoldville"/>
    <tag k="place" v="country"/>
    <tag k="population" v="68692542"/>
    <tag k="watch:hakan" v="countries"/>
    <tag k="wikipedia" v="Democratic Republic of the Congo"/>
    <tag k="wikipedia:fr" v="République démocratique du Congo"/>
  </node>
  <node id="435981993" version="37" timestamp="2009-09-11T17:16:23Z" uid="10345" user="Mormegil" changeset="2449009" lat="-5.199955" lon="21.7166297">
    <tag k="alt_name" v="Congo-Kinshasa;Congo (Kinshasa);Congo;RD Congo;RDC"/>
    <tag k="capital_city" v="Kinshasa"/>
    <tag k="country_code_fips" v="CG"/>
    <tag k="country_code_iso3166_1_alpha_2" v="CD"/>
    <tag k="geonames:id" v="203312"/>
    <tag k="int_name" v="République Démocratique du Congo"/>
    <tag k="is_in:continent" v="Africa"/>
    <tag k="name" v="République Démocratique du Congo"/>
    <tag k="name:af" v="Demokratiese Republiek van die Kongo"/>
    <tag k="name:ar" v="الكونغو"/>
    <tag k="name:br" v="Republik Demokratel Kongo"/>
    <tag k="name:ca" v="República Democràtica del Congo"/>
    <tag k="name:cs" v="Demokratická republika Kongo"/>
    <tag k="name:cy" v="Gweriniaeth Ddemocrataidd Congo"/>
    <tag k="name:da" v="Demokratiske Republik Congo"/>
    <tag k="name:de" v="Demokratische Republik Kongo"/>
    <tag k="name:el" v="Λαϊκή Δημοκρατία του Κονγκό"/>
    <tag k="name:en" v="Democratic Republic of the Congo"/>
    <tag k="name:eo" v="Demokratia Respubliko Kongo"/>
    <tag k="name:es" v="República Democrática del Congo"/>
    <tag k="name:et" v="Kongo Demokraatlik Vabariik"/>
    <tag k="name:fa" v="جمهوری دموکراتیک کنگو"/>
    <tag k="name:fi" v="Kongon demokraattinen tasavalta"/>
    <tag k="name:fr" v="République démocratique du Congo"/>
    <tag k="name:fy" v="Demokratyske Republyk de Kongo"/>
    <tag k="name:ga" v="Poblacht Dhaonlathach an Chongó"/>
    <tag k="name:gd" v="Poblachd Dheamocrach na Congo"/>
    <tag k="name:he" v="הרפובליקה הדמוקרטית של קונגו"/>
    <tag k="name:hr" v="Demokratska Republika Kongo"/>
    <tag k="name:hu" v="Kongói Demokratikus Köztársaság"/>
    <tag k="name:id" v="Republik Demokratik Kongo"/>
    <tag k="name:is" v="Vestur-Kongó"/>
    <tag k="name:it" v="Repubblica Democratica del Congo"/>
    <tag k="name:ja" v="コンゴ民主共和国"/>
    <tag k="name:kg" v="Repubilika ya Kongo Demokratiki"/>
    <tag k="name:la" v="Respublica Popularis Congensis"/>
    <tag k="name:lb" v="Demokratesch Republik Kongo"/>
    <tag k="name:li" v="Democratische Rippebliek vaan de Kongo"/>
    <tag k="name:ln" v="Republiki ya Kongó Demokratiki"/>
    <tag k="name:lt" v="Kongo Demokratinė Respublika"/>
    <tag k="name:lua" v="Ditunga dia Kongu wa Mungalaata"/>
    <tag k="name:lv" v="Kongo Demokrātiskā Republika"/>
    <tag k="name:mn" v="Бүгд Найрамдах Ардчилсан Конго"/>
    <tag k="name:nl" v="Democratische Republiek Congo"/>
    <tag k="name:pl" v="Demokratyczna Republika Konga"/>
    <tag k="name:ru" v="Демократическая Республика Конго"/>
    <tag k="name:sl" v="Demokratična republika Kongo"/>
    <tag k="name:sv" v="Demokratiska republiken Kongo"/>
    <tag k="name:sw" v="Jamhuri ya Kidemokrasia ya Kongo"/>
    <tag k="name:th" v="สาธารณรัฐประชาธิปไตยคองโก"/>
    <tag k="name:tr" v="Demokratik Kongo Cumhuriyeti"/>
    <tag k="name:uk" v="Демократична Республіка Конго"/>
    <tag k="name:vi" v="Cộng hòa Dân chủ Congo"/>
    <tag k="name:zh" v="刚果民主共和国"/>
    <tag k="note" v="Do not confuse with  Republic of the Congo"/>
    <tag k="official_name:fr" v="République démocratique du Congo"/>
    <tag k="old_name" v="Congo Free State;Belgian Congo;Congo-Léopoldville;Congo-Kinshasa;Zaire"/>
    <tag k="old_name:cs" v="Zair"/>
    <tag k="old_name:fr" v="Zaïre;Congo Belge;Congo-Léopoldville"/>
    <tag k="place" v="country"/>
    <tag k="population" v="68692542"/>
    <tag k="watch:hakan" v="countries"/>
    <tag k="wikipedia" v="Democratic Republic of the Congo"/>
    <tag k="wikipedia:fr" v="République démocratique du Congo"/>
  </node>
  <node id="435981993" version="38" timestamp="2009-11-16T20:30:39Z" uid="29717" user="eumiro" changeset="3135700" lat="-5.199955" lon="21.7166297">
    <tag k="alt_name" v="Congo-Kinshasa;Congo (Kinshasa);Congo;RD Congo;RDC"/>
    <tag k="capital_city" v="Kinshasa"/>
    <tag k="country_code_fips" v="CG"/>
    <tag k="country_code_iso3166_1_alpha_2" v="CD"/>
    <tag k="geonames:id" v="203312"/>
    <tag k="int_name" v="République Démocratique du Congo"/>
    <tag k="is_in:continent" v="Africa"/>
    <tag k="name" v="République Démocratique du Congo"/>
    <tag k="name:af" v="Demokratiese Republiek van die Kongo"/>
    <tag k="name:ar" v="الكونغو"/>
    <tag k="name:br" v="Republik Demokratel Kongo"/>
    <tag k="name:ca" v="República Democràtica del Congo"/>
    <tag k="name:cs" v="Demokratická republika Kongo"/>
    <tag k="name:cy" v="Gweriniaeth Ddemocrataidd Congo"/>
    <tag k="name:da" v="Demokratiske Republik Congo"/>
    <tag k="name:de" v="Demokratische Republik Kongo"/>
    <tag k="name:el" v="Λαϊκή Δημοκρατία του Κονγκό"/>
    <tag k="name:en" v="Democratic Republic of the Congo"/>
    <tag k="name:eo" v="Demokratia Respubliko Kongo"/>
    <tag k="name:es" v="República Democrática del Congo"/>
    <tag k="name:et" v="Kongo Demokraatlik Vabariik"/>
    <tag k="name:fa" v="جمهوری دموکراتیک کنگو"/>
    <tag k="name:fi" v="Kongon demokraattinen tasavalta"/>
    <tag k="name:fr" v="République démocratique du Congo"/>
    <tag k="name:fy" v="Demokratyske Republyk de Kongo"/>
    <tag k="name:ga" v="Poblacht Dhaonlathach an Chongó"/>
    <tag k="name:gd" v="Poblachd Dheamocrach na Congo"/>
    <tag k="name:he" v="הרפובליקה הדמוקרטית של קונגו"/>
    <tag k="name:hr" v="Demokratska Republika Kongo"/>
    <tag k="name:hu" v="Kongói Demokratikus Köztársaság"/>
    <tag k="name:id" v="Republik Demokratik Kongo"/>
    <tag k="name:is" v="Vestur-Kongó"/>
    <tag k="name:it" v="Repubblica Democratica del Congo"/>
    <tag k="name:ja" v="コンゴ民主共和国"/>
    <tag k="name:kg" v="Repubilika ya Kongo Demokratiki"/>
    <tag k="name:la" v="Respublica Popularis Congensis"/>
    <tag k="name:lb" v="Demokratesch Republik Kongo"/>
    <tag k="name:li" v="Democratische Rippebliek vaan de Kongo"/>
    <tag k="name:ln" v="Republiki ya Kongó Demokratiki"/>
    <tag k="name:lt" v="Kongo Demokratinė Respublika"/>
    <tag k="name:lua" v="Ditunga dia Kongu wa Mungalaata"/>
    <tag k="name:lv" v="Kongo Demokrātiskā Republika"/>
    <tag k="name:mn" v="Бүгд Найрамдах Ардчилсан Конго"/>
    <tag k="name:nl" v="Democratische Republiek Congo"/>
    <tag k="name:pl" v="Demokratyczna Republika Konga"/>
    <tag k="name:ru" v="Демократическая Республика Конго"/>
    <tag k="name:sk" v="Demokratická republika Kongo"/>
    <tag k="name:sl" v="Demokratična republika Kongo"/>
    <tag k="name:sv" v="Demokratiska republiken Kongo"/>
    <tag k="name:sw" v="Jamhuri ya Kidemokrasia ya Kongo"/>
    <tag k="name:th" v="สาธารณรัฐประชาธิปไตยคองโก"/>
    <tag k="name:tr" v="Demokratik Kongo Cumhuriyeti"/>
    <tag k="name:uk" v="Демократична Республіка Конго"/>
    <tag k="name:vi" v="Cộng hòa Dân chủ Congo"/>
    <tag k="name:zh" v="刚果民主共和国"/>
    <tag k="note" v="Do not confuse with  Republic of the Congo"/>
    <tag k="official_name:fr" v="République démocratique du Congo"/>
    <tag k="old_name" v="Congo Free State;Belgian Congo;Congo-Léopoldville;Congo-Kinshasa;Zaire"/>
    <tag k="old_name:cs" v="Zair"/>
    <tag k="old_name:fr" v="Zaïre;Congo Belge;Congo-Léopoldville"/>
    <tag k="place" v="country"/>
    <tag k="population" v="68692542"/>
    <tag k="watch:hakan" v="countries"/>
    <tag k="wikipedia" v="Democratic Republic of the Congo"/>
    <tag k="wikipedia:fr" v="République démocratique du Congo"/>
  </node>
  <node id="435981993" version="39" timestamp="2009-12-05T12:14:22Z" uid="173870" user="MikelEH" changeset="3294644" lat="-5.1999549" lon="21.7166297">
    <tag k="alt_name" v="Congo-Kinshasa;Congo (Kinshasa);Congo;RD Congo;RDC"/>
    <tag k="capital_city" v="Kinshasa"/>
    <tag k="country_code_fips" v="CG"/>
    <tag k="country_code_iso3166_1_alpha_2" v="CD"/>
    <tag k="geonames:id" v="203312"/>
    <tag k="int_name" v="République Démocratique du Congo"/>
    <tag k="is_in:continent" v="Africa"/>
    <tag k="name" v="République Démocratique du Congo"/>
    <tag k="name:af" v="Demokratiese Republiek van die Kongo"/>
    <tag k="name:ar" v="الكونغو"/>
    <tag k="name:br" v="Republik Demokratel Kongo"/>
    <tag k="name:ca" v="República Democràtica del Congo"/>
    <tag k="name:cs" v="Demokratická republika Kongo"/>
    <tag k="name:cy" v="Gweriniaeth Ddemocrataidd Congo"/>
    <tag k="name:da" v="Demokratiske Republik Congo"/>
    <tag k="name:de" v="Demokratische Republik Kongo"/>
    <tag k="name:el" v="Λαϊκή Δημοκρατία του Κονγκό"/>
    <tag k="name:en" v="Democratic Republic of the Congo"/>
    <tag k="name:eo" v="Demokratia Respubliko Kongo"/>
    <tag k="name:es" v="República Democrática del Congo"/>
    <tag k="name:et" v="Kongo Demokraatlik Vabariik"/>
    <tag k="name:eu" v="Kongoko Errepublika Demokratikoa"/>
    <tag k="name:fa" v="جمهوری دموکراتیک کنگو"/>
    <tag k="name:fi" v="Kongon demokraattinen tasavalta"/>
    <tag k="name:fr" v="République démocratique du Congo"/>
    <tag k="name:fy" v="Demokratyske Republyk de Kongo"/>
    <tag k="name:ga" v="Poblacht Dhaonlathach an Chongó"/>
    <tag k="name:gd" v="Poblachd Dheamocrach na Congo"/>
    <tag k="name:he" v="הרפובליקה הדמוקרטית של קונגו"/>
    <tag k="name:hr" v="Demokratska Republika Kongo"/>
    <tag k="name:hu" v="Kongói Demokratikus Köztársaság"/>
    <tag k="name:id" v="Republik Demokratik Kongo"/>
    <tag k="name:is" v="Vestur-Kongó"/>
    <tag k="name:it" v="Repubblica Democratica del Congo"/>
    <tag k="name:ja" v="コンゴ民主共和国"/>
    <tag k="name:kg" v="Repubilika ya Kongo Demokratiki"/>
    <tag k="name:la" v="Respublica Popularis Congensis"/>
    <tag k="name:lb" v="Demokratesch Republik Kongo"/>
    <tag k="name:li" v="Democratische Rippebliek vaan de Kongo"/>
    <tag k="name:ln" v="Republiki ya Kongó Demokratiki"/>
    <tag k="name:lt" v="Kongo Demokratinė Respublika"/>
    <tag k="name:lua" v="Ditunga dia Kongu wa Mungalaata"/>
    <tag k="name:lv" v="Kongo Demokrātiskā Republika"/>
    <tag k="name:mn" v="Бүгд Найрамдах Ардчилсан Конго"/>
    <tag k="name:nl" v="Democratische Republiek Congo"/>
    <tag k="name:pl" v="Demokratyczna Republika Konga"/>
    <tag k="name:ru" v="Демократическая Республика Конго"/>
    <tag k="name:sk" v="Demokratická republika Kongo"/>
    <tag k="name:sl" v="Demokratična republika Kongo"/>
    <tag k="name:sv" v="Demokratiska republiken Kongo"/>
    <tag k="name:sw" v="Jamhuri ya Kidemokrasia ya Kongo"/>
    <tag k="name:th" v="สาธารณรัฐประชาธิปไตยคองโก"/>
    <tag k="name:tr" v="Demokratik Kongo Cumhuriyeti"/>
    <tag k="name:uk" v="Демократична Республіка Конго"/>
    <tag k="name:vi" v="Cộng hòa Dân chủ Congo"/>
    <tag k="name:zh" v="刚果民主共和国"/>
    <tag k="note" v="Do not confuse with  Republic of the Congo"/>
    <tag k="official_name:fr" v="République démocratique du Congo"/>
    <tag k="old_name" v="Congo Free State;Belgian Congo;Congo-Léopoldville;Congo-Kinshasa;Zaire"/>
    <tag k="old_name:cs" v="Zair"/>
    <tag k="old_name:fr" v="Zaïre;Congo Belge;Congo-Léopoldville"/>
    <tag k="place" v="country"/>
    <tag k="population" v="68692542"/>
    <tag k="watch:hakan" v="countries"/>
    <tag k="wikipedia" v="Democratic Republic of the Congo"/>
    <tag k="wikipedia:fr" v="République démocratique du Congo"/>
  </node>
  <node id="435981993" version="40" timestamp="2010-06-21T09:44:22Z" uid="27647" user="Asztalos Attila Oszkár" changeset="5040958" lat="-5.1999548" lon="21.7166296">
    <tag k="alt_name" v="Congo-Kinshasa;Congo (Kinshasa);Congo;RD Congo;RDC"/>
    <tag k="capital_city" v="Kinshasa"/>
    <tag k="country_code_fips" v="CG"/>
    <tag k="country_code_iso3166_1_alpha_2" v="CD"/>
    <tag k="geonames:id" v="203312"/>
    <tag k="int_name" v="République Démocratique du Congo"/>
    <tag k="is_in:continent" v="Africa"/>
    <tag k="name" v="République Démocratique du Congo"/>
    <tag k="name:af" v="Demokratiese Republiek van die Kongo"/>
    <tag k="name:ar" v="الكونغو"/>
    <tag k="name:br" v="Republik Demokratel Kongo"/>
    <tag k="name:ca" v="República Democràtica del Congo"/>
    <tag k="name:cs" v="Demokratická republika Kongo"/>
    <tag k="name:cy" v="Gweriniaeth Ddemocrataidd Congo"/>
    <tag k="name:da" v="Demokratiske Republik Congo"/>
    <tag k="name:de" v="Demokratische Republik Kongo"/>
    <tag k="name:el" v="Λαϊκή Δημοκρατία του Κονγκό"/>
    <tag k="name:en" v="Democratic Republic of the Congo"/>
    <tag k="name:eo" v="Demokratia Respubliko Kongo"/>
    <tag k="name:es" v="República Democrática del Congo"/>
    <tag k="name:et" v="Kongo Demokraatlik Vabariik"/>
    <tag k="name:eu" v="Kongoko Errepublika Demokratikoa"/>
    <tag k="name:fa" v="جمهوری دموکراتیک کنگو"/>
    <tag k="name:fi" v="Kongon demokraattinen tasavalta"/>
    <tag k="name:fr" v="République démocratique du Congo"/>
    <tag k="name:fy" v="Demokratyske Republyk de Kongo"/>
    <tag k="name:ga" v="Poblacht Dhaonlathach an Chongó"/>
    <tag k="name:gd" v="Poblachd Dheamocrach na Congo"/>
    <tag k="name:he" v="הרפובליקה הדמוקרטית של קונגו"/>
    <tag k="name:hr" v="Demokratska Republika Kongo"/>
    <tag k="name:hu" v="Kongói Demokratikus Köztársaság"/>
    <tag k="name:id" v="Republik Demokratik Kongo"/>
    <tag k="name:is" v="Vestur-Kongó"/>
    <tag k="name:it" v="Repubblica Democratica del Congo"/>
    <tag k="name:ja" v="コンゴ民主共和国"/>
    <tag k="name:kg" v="Repubilika ya Kongo Demokratiki"/>
    <tag k="name:la" v="Respublica Popularis Congensis"/>
    <tag k="name:lb" v="Demokratesch Republik Kongo"/>
    <tag k="name:li" v="Democratische Rippebliek vaan de Kongo"/>
    <tag k="name:ln" v="Republiki ya Kongó Demokratiki"/>
    <tag k="name:lt" v="Kongo Demokratinė Respublika"/>
    <tag k="name:lua" v="Ditunga dia Kongu wa Mungalaata"/>
    <tag k="name:lv" v="Kongo Demokrātiskā Republika"/>
    <tag k="name:mn" v="Бүгд Найрамдах Ардчилсан Конго"/>
    <tag k="name:nl" v="Democratische Republiek Congo"/>
    <tag k="name:pl" v="Demokratyczna Republika Konga"/>
    <tag k="name:ro" v="Republica Democrată Congo"/>
    <tag k="name:ru" v="Демократическая Республика Конго"/>
    <tag k="name:sk" v="Demokratická republika Kongo"/>
    <tag k="name:sl" v="Demokratična republika Kongo"/>
    <tag k="name:sv" v="Demokratiska republiken Kongo"/>
    <tag k="name:sw" v="Jamhuri ya Kidemokrasia ya Kongo"/>
    <tag k="name:th" v="สาธารณรัฐประชาธิปไตยคองโก"/>
    <tag k="name:tr" v="Demokratik Kongo Cumhuriyeti"/>
    <tag k="name:uk" v="Демократична Республіка Конго"/>
    <tag k="name:vi" v="Cộng hòa Dân chủ Congo"/>
    <tag k="name:zh" v="刚果民主共和国"/>
    <tag k="note" v="Do not confuse with  Republic of the Congo"/>
    <tag k="official_name:fr" v="République démocratique du Congo"/>
    <tag k="official_name:ro" v="Republica Democrată Congo"/>
    <tag k="old_name" v="Congo Free State;Belgian Congo;Congo-Léopoldville;Congo-Kinshasa;Zaire"/>
    <tag k="old_name:cs" v="Zair"/>
    <tag k="old_name:fr" v="Zaïre;Congo Belge;Congo-Léopoldville"/>
    <tag k="place" v="country"/>
    <tag k="population" v="68692542"/>
    <tag k="watch:hakan" v="countries"/>
    <tag k="wikipedia" v="Democratic Republic of the Congo"/>
    <tag k="wikipedia:fr" v="République démocratique du Congo"/>
  </node>
  <node id="435981993" version="41" timestamp="2010-06-28T21:41:24Z" uid="7538" user="oyvind" changeset="5101787" lat="-5.1999547" lon="21.7166296">
    <tag k="alt_name" v="Congo-Kinshasa;Congo (Kinshasa);Congo;RD Congo;RDC"/>
    <tag k="capital_city" v="Kinshasa"/>
    <tag k="country_code_fips" v="CG"/>
    <tag k="country_code_iso3166_1_alpha_2" v="CD"/>
    <tag k="geonames:id" v="203312"/>
    <tag k="int_name" v="République Démocratique du Congo"/>
    <tag k="is_in:continent" v="Africa"/>
    <tag k="name" v="République Démocratique du Congo"/>
    <tag k="name:af" v="Demokratiese Republiek van die Kongo"/>
    <tag k="name:ar" v="الكونغو"/>
    <tag k="name:br" v="Republik Demokratel Kongo"/>
    <tag k="name:ca" v="República Democràtica del Congo"/>
    <tag k="name:cs" v="Demokratická republika Kongo"/>
    <tag k="name:cy" v="Gweriniaeth Ddemocrataidd Congo"/>
    <tag k="name:da" v="Demokratiske Republik Congo"/>
    <tag k="name:de" v="Demokratische Republik Kongo"/>
    <tag k="name:el" v="Λαϊκή Δημοκρατία του Κονγκό"/>
    <tag k="name:en" v="Democratic Republic of the Congo"/>
    <tag k="name:eo" v="Demokratia Respubliko Kongo"/>
    <tag k="name:es" v="República Democrática del Congo"/>
    <tag k="name:et" v="Kongo Demokraatlik Vabariik"/>
    <tag k="name:eu" v="Kongoko Errepublika Demokratikoa"/>
    <tag k="name:fa" v="جمهوری دموکراتیک کنگو"/>
    <tag k="name:fi" v="Kongon demokraattinen tasavalta"/>
    <tag k="name:fr" v="République démocratique du Congo"/>
    <tag k="name:fy" v="Demokratyske Republyk de Kongo"/>
    <tag k="name:ga" v="Poblacht Dhaonlathach an Chongó"/>
    <tag k="name:gd" v="Poblachd Dheamocrach na Congo"/>
    <tag k="name:he" v="הרפובליקה הדמוקרטית של קונגו"/>
    <tag k="name:hr" v="Demokratska Republika Kongo"/>
    <tag k="name:hu" v="Kongói Demokratikus Köztársaság"/>
    <tag k="name:id" v="Republik Demokratik Kongo"/>
    <tag k="name:is" v="Vestur-Kongó"/>
    <tag k="name:it" v="Repubblica Democratica del Congo"/>
    <tag k="name:ja" v="コンゴ民主共和国"/>
    <tag k="name:kg" v="Repubilika ya Kongo Demokratiki"/>
    <tag k="name:la" v="Respublica Popularis Congensis"/>
    <tag k="name:lb" v="Demokratesch Republik Kongo"/>
    <tag k="name:li" v="Democratische Rippebliek vaan de Kongo"/>
    <tag k="name:ln" v="Republiki ya Kongó Demokratiki"/>
    <tag k="name:lt" v="Kongo Demokratinė Respublika"/>
    <tag k="name:lua" v="Ditunga dia Kongu wa Mungalaata"/>
    <tag k="name:lv" v="Kongo Demokrātiskā Republika"/>
    <tag k="name:mn" v="Бүгд Найрамдах Ардчилсан Конго"/>
    <tag k="name:nl" v="Democratische Republiek Congo"/>
    <tag k="name:no" v="Den demokratiske republikken Kongo"/>
    <tag k="name:pl" v="Demokratyczna Republika Konga"/>
    <tag k="name:ro" v="Republica Democrată Congo"/>
    <tag k="name:ru" v="Демократическая Республика Конго"/>
    <tag k="name:sk" v="Demokratická republika Kongo"/>
    <tag k="name:sl" v="Demokratična republika Kongo"/>
    <tag k="name:sv" v="Demokratiska republiken Kongo"/>
    <tag k="name:sw" v="Jamhuri ya Kidemokrasia ya Kongo"/>
    <tag k="name:th" v="สาธารณรัฐประชาธิปไตยคองโก"/>
    <tag k="name:tr" v="Demokratik Kongo Cumhuriyeti"/>
    <tag k="name:uk" v="Демократична Республіка Конго"/>
    <tag k="name:vi" v="Cộng hòa Dân chủ Congo"/>
    <tag k="name:zh" v="刚果民主共和国"/>
    <tag k="note" v="Do not confuse with  Republic of the Congo"/>
    <tag k="official_name:fr" v="République démocratique du Congo"/>
    <tag k="official_name:ro" v="Republica Democrată Congo"/>
    <tag k="old_name" v="Congo Free State;Belgian Congo;Congo-Léopoldville;Congo-Kinshasa;Zaire"/>
    <tag k="old_name:cs" v="Zair"/>
    <tag k="old_name:fr" v="Zaïre;Congo Belge;Congo-Léopoldville"/>
    <tag k="place" v="country"/>
    <tag k="population" v="68692542"/>
    <tag k="watch:hakan" v="countries"/>
    <tag k="wikipedia" v="Democratic Republic of the Congo"/>
    <tag k="wikipedia:fr" v="République démocratique du Congo"/>
  </node>
  <node id="435981993" version="42" timestamp="2010-08-08T17:56:50Z" uid="207745" user="NE2" changeset="5435557" lat="-5.1999547" lon="21.7166296">
    <tag k="alt_name" v="Congo-Kinshasa;Congo (Kinshasa);Congo;RD Congo;RDC"/>
    <tag k="capital_city" v="Kinshasa"/>
    <tag k="country_code_fips" v="CG"/>
    <tag k="country_code_iso3166_1_alpha_2" v="CD"/>
    <tag k="geonames:id" v="203312"/>
    <tag k="int_name" v="République Démocratique du Congo"/>
    <tag k="is_in:continent" v="Africa"/>
    <tag k="name" v="République Démocratique du Congo"/>
    <tag k="name:af" v="Demokratiese Republiek van die Kongo"/>
    <tag k="name:ar" v="الكونغو"/>
    <tag k="name:br" v="Republik Demokratel Kongo"/>
    <tag k="name:ca" v="República Democràtica del Congo"/>
    <tag k="name:cs" v="Demokratická republika Kongo"/>
    <tag k="name:cy" v="Gweriniaeth Ddemocrataidd Congo"/>
    <tag k="name:da" v="Demokratiske Republik Congo"/>
    <tag k="name:de" v="Demokratische Republik Kongo"/>
    <tag k="name:el" v="Λαϊκή Δημοκρατία του Κονγκό"/>
    <tag k="name:en" v="Democratic Republic of the Congo"/>
    <tag k="name:eo" v="Demokratia Respubliko Kongo"/>
    <tag k="name:es" v="República Democrática del Congo"/>
    <tag k="name:et" v="Kongo Demokraatlik Vabariik"/>
    <tag k="name:eu" v="Kongoko Errepublika Demokratikoa"/>
    <tag k="name:fa" v="جمهوری دموکراتیک کنگو"/>
    <tag k="name:fi" v="Kongon demokraattinen tasavalta"/>
    <tag k="name:fr" v="République démocratique du Congo"/>
    <tag k="name:fy" v="Demokratyske Republyk de Kongo"/>
    <tag k="name:ga" v="Poblacht Dhaonlathach an Chongó"/>
    <tag k="name:gd" v="Poblachd Dheamocrach na Congo"/>
    <tag k="name:he" v="הרפובליקה הדמוקרטית של קונגו"/>
    <tag k="name:hr" v="Demokratska Republika Kongo"/>
    <tag k="name:hu" v="Kongói Demokratikus Köztársaság"/>
    <tag k="name:id" v="Republik Demokratik Kongo"/>
    <tag k="name:is" v="Vestur-Kongó"/>
    <tag k="name:it" v="Repubblica Democratica del Congo"/>
    <tag k="name:ja" v="コンゴ民主共和国"/>
    <tag k="name:kg" v="Repubilika ya Kongo Demokratiki"/>
    <tag k="name:la" v="Respublica Popularis Congensis"/>
    <tag k="name:lb" v="Demokratesch Republik Kongo"/>
    <tag k="name:li" v="Democratische Rippebliek vaan de Kongo"/>
    <tag k="name:ln" v="Republiki ya Kongó Demokratiki"/>
    <tag k="name:lt" v="Kongo Demokratinė Respublika"/>
    <tag k="name:lua" v="Ditunga dia Kongu wa Mungalaata"/>
    <tag k="name:lv" v="Kongo Demokrātiskā Republika"/>
    <tag k="name:mn" v="Бүгд Найрамдах Ардчилсан Конго"/>
    <tag k="name:nl" v="Democratische Republiek Congo"/>
    <tag k="name:no" v="Den demokratiske republikken Kongo"/>
    <tag k="name:pl" v="Demokratyczna Republika Konga"/>
    <tag k="name:ro" v="Republica Democrată Congo"/>
    <tag k="name:ru" v="Демократическая Республика Конго"/>
    <tag k="name:sk" v="Demokratická republika Kongo"/>
    <tag k="name:sl" v="Demokratična republika Kongo"/>
    <tag k="name:sv" v="Demokratiska republiken Kongo"/>
    <tag k="name:sw" v="Jamhuri ya Kidemokrasia ya Kongo"/>
    <tag k="name:th" v="สาธารณรัฐประชาธิปไตยคองโก"/>
    <tag k="name:tr" v="Demokratik Kongo Cumhuriyeti"/>
    <tag k="name:uk" v="Демократична Республіка Конго"/>
    <tag k="name:vi" v="Cộng hòa Dân chủ Congo"/>
    <tag k="name:zh" v="刚果民主共和国"/>
    <tag k="note" v="Do not confuse with  Republic of the Congo"/>
    <tag k="official_name:fr" v="République démocratique du Congo"/>
    <tag k="official_name:ro" v="Republica Democrată Congo"/>
    <tag k="old_name" v="Congo Free State;Belgian Congo;Congo-Léopoldville;Congo-Kinshasa;Zaire"/>
    <tag k="old_name:cs" v="Zair"/>
    <tag k="old_name:fr" v="Zaïre;Congo Belge;Congo-Léopoldville"/>
    <tag k="place" v="country"/>
    <tag k="population" v="68692542"/>
    <tag k="wikipedia" v="Democratic Republic of the Congo"/>
    <tag k="wikipedia:fr" v="République démocratique du Congo"/>
  </node>
  <node id="435981993" version="43" timestamp="2011-05-28T13:16:23Z" uid="202868" user="Manchito" changeset="8271688" lat="-5.1999547" lon="21.7166296">
    <tag k="alt_name" v="Congo-Kinshasa;Congo (Kinshasa);Congo;RD Congo;RDC"/>
    <tag k="capital_city" v="Kinshasa"/>
    <tag k="country_code_fips" v="CG"/>
    <tag k="country_code_iso3166_1_alpha_2" v="CD"/>
    <tag k="geonames:id" v="203312"/>
    <tag k="int_name" v="République Démocratique du Congo"/>
    <tag k="is_in:continent" v="Africa"/>
    <tag k="name" v="République Démocratique du Congo"/>
    <tag k="name:af" v="Demokratiese Republiek van die Kongo"/>
    <tag k="name:ar" v="الكونغو"/>
    <tag k="name:br" v="Republik Demokratel Kongo"/>
    <tag k="name:ca" v="República Democràtica del Congo"/>
    <tag k="name:cs" v="Demokratická republika Kongo"/>
    <tag k="name:cy" v="Gweriniaeth Ddemocrataidd Congo"/>
    <tag k="name:da" v="Demokratiske Republik Congo"/>
    <tag k="name:de" v="Demokratische Republik Kongo"/>
    <tag k="name:el" v="Λαϊκή Δημοκρατία του Κονγκό"/>
    <tag k="name:en" v="Democratic Republic of the Congo"/>
    <tag k="name:eo" v="Demokratia Respubliko Kongo"/>
    <tag k="name:es" v="República Democrática del Congo"/>
    <tag k="name:et" v="Kongo Demokraatlik Vabariik"/>
    <tag k="name:eu" v="Kongoko Errepublika Demokratikoa"/>
    <tag k="name:fa" v="جمهوری دموکراتیک کنگو"/>
    <tag k="name:fi" v="Kongon demokraattinen tasavalta"/>
    <tag k="name:fr" v="République démocratique du Congo"/>
    <tag k="name:fy" v="Demokratyske Republyk de Kongo"/>
    <tag k="name:ga" v="Poblacht Dhaonlathach an Chongó"/>
    <tag k="name:gd" v="Poblachd Dheamocrach na Congo"/>
    <tag k="name:he" v="הרפובליקה הדמוקרטית של קונגו"/>
    <tag k="name:hr" v="Demokratska Republika Kongo"/>
    <tag k="name:hu" v="Kongói Demokratikus Köztársaság"/>
    <tag k="name:id" v="Republik Demokratik Kongo"/>
    <tag k="name:is" v="Vestur-Kongó"/>
    <tag k="name:it" v="Repubblica Democratica del Congo"/>
    <tag k="name:ja" v="コンゴ民主共和国"/>
    <tag k="name:kg" v="Repubilika ya Kongo Demokratiki"/>
    <tag k="name:la" v="Respublica Popularis Congensis"/>
    <tag k="name:lb" v="Demokratesch Republik Kongo"/>
    <tag k="name:li" v="Democratische Rippebliek vaan de Kongo"/>
    <tag k="name:ln" v="Republiki ya Kongó Demokratiki"/>
    <tag k="name:lt" v="Kongo Demokratinė Respublika"/>
    <tag k="name:lua" v="Ditunga dia Kongu wa Mungalaata"/>
    <tag k="name:lv" v="Kongo Demokrātiskā Republika"/>
    <tag k="name:mn" v="Бүгд Найрамдах Ардчилсан Конго"/>
    <tag k="name:nl" v="Democratische Republiek Congo"/>
    <tag k="name:no" v="Den demokratiske republikken Kongo"/>
    <tag k="name:pl" v="Demokratyczna Republika Konga"/>
    <tag k="name:ro" v="Republica Democrată Congo"/>
    <tag k="name:ru" v="Демократическая Республика Конго"/>
    <tag k="name:sk" v="Demokratická republika Kongo"/>
    <tag k="name:sl" v="Demokratična republika Kongo"/>
    <tag k="name:sv" v="Demokratiska republiken Kongo"/>
    <tag k="name:sw" v="Jamhuri ya Kidemokrasia ya Kongo"/>
    <tag k="name:th" v="สาธารณรัฐประชาธิปไตยคองโก"/>
    <tag k="name:tr" v="Demokratik Kongo Cumhuriyeti"/>
    <tag k="name:uk" v="Демократична Республіка Конго"/>
    <tag k="name:vi" v="Cộng hòa Dân chủ Congo"/>
    <tag k="name:zh" v="刚果民主共和国"/>
    <tag k="note" v="Do not confuse with  Republic of the Congo"/>
    <tag k="official_name:fr" v="République démocratique du Congo"/>
    <tag k="official_name:ro" v="Republica Democrată Congo"/>
    <tag k="old_name" v="Congo Free State;Belgian Congo;Congo-Léopoldville;Congo-Kinshasa;Zaire"/>
    <tag k="old_name:cs" v="Zair"/>
    <tag k="old_name:es" v="Zaire"/>
    <tag k="old_name:fr" v="Zaïre;Congo Belge;Congo-Léopoldville"/>
    <tag k="place" v="country"/>
    <tag k="population" v="68692542"/>
    <tag k="wikipedia" v="Democratic Republic of the Congo"/>
    <tag k="wikipedia:fr" v="République démocratique du Congo"/>
  </node>
  <node id="435981993" version="44" timestamp="2012-03-08T14:39:17Z" uid="7045" user="Xuacu" changeset="10909736" lat="-5.1999547" lon="21.7166296">
    <tag k="alt_name" v="Congo-Kinshasa;Congo (Kinshasa);Congo;RD Congo;RDC"/>
    <tag k="capital_city" v="Kinshasa"/>
    <tag k="country_code_fips" v="CG"/>
    <tag k="country_code_iso3166_1_alpha_2" v="CD"/>
    <tag k="geonames:id" v="203312"/>
    <tag k="int_name" v="République Démocratique du Congo"/>
    <tag k="is_in:continent" v="Africa"/>
    <tag k="name" v="République Démocratique du Congo"/>
    <tag k="name:af" v="Demokratiese Republiek van die Kongo"/>
    <tag k="name:ar" v="الكونغو"/>
    <tag k="name:ast" v="República Democrática d&apos;El Congu"/>
    <tag k="name:br" v="Republik Demokratel Kongo"/>
    <tag k="name:ca" v="República Democràtica del Congo"/>
    <tag k="name:cs" v="Demokratická republika Kongo"/>
    <tag k="name:cy" v="Gweriniaeth Ddemocrataidd Congo"/>
    <tag k="name:da" v="Demokratiske Republik Congo"/>
    <tag k="name:de" v="Demokratische Republik Kongo"/>
    <tag k="name:el" v="Λαϊκή Δημοκρατία του Κονγκό"/>
    <tag k="name:en" v="Democratic Republic of the Congo"/>
    <tag k="name:eo" v="Demokratia Respubliko Kongo"/>
    <tag k="name:es" v="República Democrática del Congo"/>
    <tag k="name:et" v="Kongo Demokraatlik Vabariik"/>
    <tag k="name:eu" v="Kongoko Errepublika Demokratikoa"/>
    <tag k="name:fa" v="جمهوری دموکراتیک کنگو"/>
    <tag k="name:fi" v="Kongon demokraattinen tasavalta"/>
    <tag k="name:fr" v="République démocratique du Congo"/>
    <tag k="name:fy" v="Demokratyske Republyk de Kongo"/>
    <tag k="name:ga" v="Poblacht Dhaonlathach an Chongó"/>
    <tag k="name:gd" v="Poblachd Dheamocrach na Congo"/>
    <tag k="name:he" v="הרפובליקה הדמוקרטית של קונגו"/>
    <tag k="name:hr" v="Demokratska Republika Kongo"/>
    <tag k="name:hu" v="Kongói Demokratikus Köztársaság"/>
    <tag k="name:id" v="Republik Demokratik Kongo"/>
    <tag k="name:is" v="Vestur-Kongó"/>
    <tag k="name:it" v="Repubblica Democratica del Congo"/>
    <tag k="name:ja" v="コンゴ民主共和国"/>
    <tag k="name:kg" v="Repubilika ya Kongo Demokratiki"/>
    <tag k="name:la" v="Respublica Popularis Congensis"/>
    <tag k="name:lb" v="Demokratesch Republik Kongo"/>
    <tag k="name:li" v="Democratische Rippebliek vaan de Kongo"/>
    <tag k="name:ln" v="Republiki ya Kongó Demokratiki"/>
    <tag k="name:lt" v="Kongo Demokratinė Respublika"/>
    <tag k="name:lua" v="Ditunga dia Kongu wa Mungalaata"/>
    <tag k="name:lv" v="Kongo Demokrātiskā Republika"/>
    <tag k="name:mn" v="Бүгд Найрамдах Ардчилсан Конго"/>
    <tag k="name:nl" v="Democratische Republiek Congo"/>
    <tag k="name:no" v="Den demokratiske republikken Kongo"/>
    <tag k="name:pl" v="Demokratyczna Republika Konga"/>
    <tag k="name:ro" v="Republica Democrată Congo"/>
    <tag k="name:ru" v="Демократическая Республика Конго"/>
    <tag k="name:sk" v="Demokratická republika Kongo"/>
    <tag k="name:sl" v="Demokratična republika Kongo"/>
    <tag k="name:sv" v="Demokratiska republiken Kongo"/>
    <tag k="name:sw" v="Jamhuri ya Kidemokrasia ya Kongo"/>
    <tag k="name:th" v="สาธารณรัฐประชาธิปไตยคองโก"/>
    <tag k="name:tr" v="Demokratik Kongo Cumhuriyeti"/>
    <tag k="name:uk" v="Демократична Республіка Конго"/>
    <tag k="name:vi" v="Cộng hòa Dân chủ Congo"/>
    <tag k="name:zh" v="刚果民主共和国"/>
    <tag k="note" v="Do not confuse with  Republic of the Congo"/>
    <tag k="official_name:fr" v="République démocratique du Congo"/>
    <tag k="official_name:ro" v="Republica Democrată Congo"/>
    <tag k="old_name" v="Congo Free State;Belgian Congo;Congo-Léopoldville;Congo-Kinshasa;Zaire"/>
    <tag k="old_name:cs" v="Zair"/>
    <tag k="old_name:es" v="Zaire"/>
    <tag k="old_name:fr" v="Zaïre;Congo Belge;Congo-Léopoldville"/>
    <tag k="place" v="country"/>
    <tag k="population" v="68692542"/>
    <tag k="wikipedia" v="Democratic Republic of the Congo"/>
    <tag k="wikipedia:fr" v="République démocratique du Congo"/>
  </node>
  <node id="435981993" version="45" timestamp="2012-03-30T12:27:05Z" uid="560896" user="Ghybu" changeset="11153165" lat="-5.1999547" lon="21.7166296">
    <tag k="alt_name" v="Congo-Kinshasa;Congo (Kinshasa);Congo;RD Congo;RDC"/>
    <tag k="capital_city" v="Kinshasa"/>
    <tag k="country_code_fips" v="CG"/>
    <tag k="country_code_iso3166_1_alpha_2" v="CD"/>
    <tag k="geonames:id" v="203312"/>
    <tag k="int_name" v="République Démocratique du Congo"/>
    <tag k="is_in:continent" v="Africa"/>
    <tag k="name" v="République Démocratique du Congo"/>
    <tag k="name:af" v="Demokratiese Republiek van die Kongo"/>
    <tag k="name:ar" v="الكونغو"/>
    <tag k="name:ast" v="República Democrática d&apos;El Congu"/>
    <tag k="name:br" v="Republik Demokratel Kongo"/>
    <tag k="name:ca" v="República Democràtica del Congo"/>
    <tag k="name:cs" v="Demokratická republika Kongo"/>
    <tag k="name:cy" v="Gweriniaeth Ddemocrataidd Congo"/>
    <tag k="name:da" v="Demokratiske Republik Congo"/>
    <tag k="name:de" v="Demokratische Republik Kongo"/>
    <tag k="name:el" v="Λαϊκή Δημοκρατία του Κονγκό"/>
    <tag k="name:en" v="Democratic Republic of the Congo"/>
    <tag k="name:eo" v="Demokratia Respubliko Kongo"/>
    <tag k="name:es" v="República Democrática del Congo"/>
    <tag k="name:et" v="Kongo Demokraatlik Vabariik"/>
    <tag k="name:eu" v="Kongoko Errepublika Demokratikoa"/>
    <tag k="name:fa" v="جمهوری دموکراتیک کنگو"/>
    <tag k="name:fi" v="Kongon demokraattinen tasavalta"/>
    <tag k="name:fr" v="République démocratique du Congo"/>
    <tag k="name:fy" v="Demokratyske Republyk de Kongo"/>
    <tag k="name:ga" v="Poblacht Dhaonlathach an Chongó"/>
    <tag k="name:gd" v="Poblachd Dheamocrach na Congo"/>
    <tag k="name:he" v="הרפובליקה הדמוקרטית של קונגו"/>
    <tag k="name:hr" v="Demokratska Republika Kongo"/>
    <tag k="name:hu" v="Kongói Demokratikus Köztársaság"/>
    <tag k="name:id" v="Republik Demokratik Kongo"/>
    <tag k="name:is" v="Vestur-Kongó"/>
    <tag k="name:it" v="Repubblica Democratica del Congo"/>
    <tag k="name:ja" v="コンゴ民主共和国"/>
    <tag k="name:kg" v="Repubilika ya Kongo Demokratiki"/>
    <tag k="name:ku" v="Komara Demokratîk a KongoHere cem: navîgasyon, lêgerînTemplate-info.svg"/>
    <tag k="name:la" v="Respublica Popularis Congensis"/>
    <tag k="name:lb" v="Demokratesch Republik Kongo"/>
    <tag k="name:li" v="Democratische Rippebliek vaan de Kongo"/>
    <tag k="name:ln" v="Republiki ya Kongó Demokratiki"/>
    <tag k="name:lt" v="Kongo Demokratinė Respublika"/>
    <tag k="name:lua" v="Ditunga dia Kongu wa Mungalaata"/>
    <tag k="name:lv" v="Kongo Demokrātiskā Republika"/>
    <tag k="name:mn" v="Бүгд Найрамдах Ардчилсан Конго"/>
    <tag k="name:nl" v="Democratische Republiek Congo"/>
    <tag k="name:no" v="Den demokratiske republikken Kongo"/>
    <tag k="name:pl" v="Demokratyczna Republika Konga"/>
    <tag k="name:ro" v="Republica Democrată Congo"/>
    <tag k="name:ru" v="Демократическая Республика Конго"/>
    <tag k="name:sk" v="Demokratická republika Kongo"/>
    <tag k="name:sl" v="Demokratična republika Kongo"/>
    <tag k="name:sv" v="Demokratiska republiken Kongo"/>
    <tag k="name:sw" v="Jamhuri ya Kidemokrasia ya Kongo"/>
    <tag k="name:th" v="สาธารณรัฐประชาธิปไตยคองโก"/>
    <tag k="name:tr" v="Demokratik Kongo Cumhuriyeti"/>
    <tag k="name:uk" v="Демократична Республіка Конго"/>
    <tag k="name:vi" v="Cộng hòa Dân chủ Congo"/>
    <tag k="name:zh" v="刚果民主共和国"/>
    <tag k="note" v="Do not confuse with  Republic of the Congo"/>
    <tag k="official_name:fr" v="République démocratique du Congo"/>
    <tag k="official_name:ro" v="Republica Democrată Congo"/>
    <tag k="old_name" v="Congo Free State;Belgian Congo;Congo-Léopoldville;Congo-Kinshasa;Zaire"/>
    <tag k="old_name:cs" v="Zair"/>
    <tag k="old_name:es" v="Zaire"/>
    <tag k="old_name:fr" v="Zaïre;Congo Belge;Congo-Léopoldville"/>
    <tag k="place" v="country"/>
    <tag k="population" v="68692542"/>
    <tag k="wikipedia" v="Democratic Republic of the Congo"/>
    <tag k="wikipedia:fr" v="République démocratique du Congo"/>
  </node>
  <node id="435983525" version="2" timestamp="2009-07-19T08:11:49Z" uid="59758" user="rendle" changeset="1870455" lat="-6.03725" lon="29.74">
    <tag k="created_by" v="JOSM"/>
  </node>
  <node id="435983623" version="2" timestamp="2009-07-19T08:08:31Z" uid="59758" user="rendle" changeset="1870455" lat="-5.42325" lon="29.7495">
    <tag k="created_by" v="JOSM"/>
  </node>
  <node id="435985016" version="2" timestamp="2009-07-19T08:09:09Z" uid="59758" user="rendle" changeset="1870455" lat="-5.48575" lon="29.777">
    <tag k="created_by" v="JOSM"/>
  </node>
  <node id="435985322" version="2" timestamp="2009-07-19T08:11:53Z" uid="59758" user="rendle" changeset="1870455" lat="-5.60075" lon="29.85625">
    <tag k="created_by" v="JOSM"/>
  </node>
  <node id="435985725" version="2" timestamp="2009-07-19T08:11:42Z" uid="59758" user="rendle" changeset="1870455" lat="-5.67775" lon="29.8925">
    <tag k="created_by" v="JOSM"/>
  </node>
  <node id="435987747" version="1" timestamp="2009-07-07T02:42:45Z" uid="38528" user="acrosscanadatrails" changeset="1758614" lat="48.4380309" lon="-123.5049425">
    <tag k="information" v="bicyclemap"/>
    <tag k="name" v="Trail continues north-east of intersection"/>
    <tag k="tourism" v="information"/>
  </node>
  <node id="435987747" version="2" timestamp="2012-01-31T11:24:29Z" uid="147510" user="woodpeck_fixbot" changeset="10548167" lat="48.4380309" lon="-123.5049425"/>
  <node id="435987750" version="1" timestamp="2009-07-07T02:42:46Z" uid="38528" user="acrosscanadatrails" changeset="1758614" lat="48.4363584" lon="-123.5046194"/>
  <node id="435987750" version="2" timestamp="2012-03-14T22:20:55Z" uid="307202" user="alester" changeset="10983279" lat="48.4363584" lon="-123.5046194"/>
  <node id="435987752" version="1" timestamp="2009-07-07T02:42:46Z" uid="38528" user="acrosscanadatrails" changeset="1758614" lat="48.4362883" lon="-123.5046851"/>
  <node id="435987752" version="2" timestamp="2012-03-14T22:20:55Z" uid="307202" user="alester" changeset="10983279" lat="48.4362883" lon="-123.5046851"/>
  <node id="435987754" version="1" timestamp="2009-07-07T02:42:46Z" uid="38528" user="acrosscanadatrails" changeset="1758614" lat="48.4362129" lon="-123.5047767"/>
  <node id="435987754" version="2" timestamp="2012-03-14T22:20:55Z" uid="307202" user="alester" changeset="10983279" lat="48.4362129" lon="-123.5047767"/>
  <node id="435987755" version="1" timestamp="2009-07-07T02:42:46Z" uid="38528" user="acrosscanadatrails" changeset="1758614" lat="48.4361762" lon="-123.5048296"/>
  <node id="435987755" version="2" timestamp="2012-03-14T22:20:55Z" uid="307202" user="alester" changeset="10983279" lat="48.4361762" lon="-123.5048296"/>
  <node id="435987757" version="1" timestamp="2009-07-07T02:42:46Z" uid="38528" user="acrosscanadatrails" changeset="1758614" lat="48.4361417" lon="-123.5049072"/>
  <node id="435987757" version="2" timestamp="2012-03-14T22:20:56Z" uid="307202" user="alester" changeset="10983279" lat="48.4361417" lon="-123.5049072"/>
  <node id="435987759" version="1" timestamp="2009-07-07T02:42:46Z" uid="38528" user="acrosscanadatrails" changeset="1758614" lat="48.4333538" lon="-123.5033503"/>
  <node id="435987759" version="2" timestamp="2009-08-10T02:59:03Z" uid="69593" user="Austin Henry" changeset="2092468" lat="48.4332894" lon="-123.5033532"/>
  <node id="435987759" version="3" timestamp="2012-03-14T22:20:56Z" uid="307202" user="alester" changeset="10983279" lat="48.4332894" lon="-123.5033532"/>
  <node id="435987762" version="1" timestamp="2009-07-07T02:42:46Z" uid="38528" user="acrosscanadatrails" changeset="1758614" lat="48.4333461" lon="-123.5033934"/>
  <node id="435987762" version="2" timestamp="2009-08-10T02:59:03Z" uid="69593" user="Austin Henry" changeset="2092468" lat="48.433325" lon="-123.5034325"/>
  <node id="435987762" version="3" timestamp="2012-03-14T22:20:56Z" uid="307202" user="alester" changeset="10983279" lat="48.433325" lon="-123.5034325"/>
  <node id="435987764" version="1" timestamp="2009-07-07T02:42:46Z" uid="38528" user="acrosscanadatrails" changeset="1758614" lat="48.4334004" lon="-123.5035228"/>
  <node id="435987764" version="2" timestamp="2009-08-10T02:59:03Z" uid="69593" user="Austin Henry" changeset="2092468" lat="48.4333793" lon="-123.5035619"/>
  <node id="435987764" version="3" timestamp="2012-03-14T22:20:56Z" uid="307202" user="alester" changeset="10983279" lat="48.4333793" lon="-123.5035619"/>
  <node id="435987766" version="1" timestamp="2009-07-07T02:42:46Z" uid="38528" user="acrosscanadatrails" changeset="1758614" lat="48.4334461" lon="-123.5036366"/>
  <node id="435987766" version="2" timestamp="2009-08-10T02:59:08Z" uid="69593" user="Austin Henry" changeset="2092468" lat="48.4334461" lon="-123.5036366"/>
  <node id="435987768" version="1" timestamp="2009-07-07T02:42:46Z" uid="38528" user="acrosscanadatrails" changeset="1758614" lat="48.4334608" lon="-123.5036573"/>
  <node id="435987768" version="2" timestamp="2009-08-10T02:59:03Z" uid="69593" user="Austin Henry" changeset="2092468" lat="48.4334368" lon="-123.5037109"/>
  <node id="435987768" version="3" timestamp="2012-03-14T22:20:56Z" uid="307202" user="alester" changeset="10983279" lat="48.4334368" lon="-123.5037109"/>
  <node id="435987770" version="1" timestamp="2009-07-07T02:42:46Z" uid="38528" user="acrosscanadatrails" changeset="1758614" lat="48.4329158" lon="-123.5034038"/>
  <node id="435987770" version="2" timestamp="2012-03-14T22:20:56Z" uid="307202" user="alester" changeset="10983279" lat="48.4329158" lon="-123.5034038"/>
  <node id="435987772" version="1" timestamp="2009-07-07T02:42:46Z" uid="38528" user="acrosscanadatrails" changeset="1758614" lat="48.4329416" lon="-123.5034374"/>
  <node id="435987772" version="2" timestamp="2012-03-14T22:20:56Z" uid="307202" user="alester" changeset="10983279" lat="48.4329416" lon="-123.5034374"/>
  <node id="435987775" version="1" timestamp="2009-07-07T02:42:46Z" uid="38528" user="acrosscanadatrails" changeset="1758614" lat="48.4330132" lon="-123.5034874"/>
  <node id="435987775" version="2" timestamp="2012-03-14T22:20:57Z" uid="307202" user="alester" changeset="10983279" lat="48.4330132" lon="-123.5034874"/>
  <node id="435987777" version="1" timestamp="2009-07-07T02:42:46Z" uid="38528" user="acrosscanadatrails" changeset="1758614" lat="48.4331452" lon="-123.5035831"/>
  <node id="435987777" version="2" timestamp="2009-08-10T02:59:03Z" uid="69593" user="Austin Henry" changeset="2092468" lat="48.4331423" lon="-123.5035976"/>
  <node id="435987777" version="3" timestamp="2012-03-14T22:20:57Z" uid="307202" user="alester" changeset="10983279" lat="48.4331423" lon="-123.5035976"/>
  <node id="435987780" version="1" timestamp="2009-07-07T02:42:46Z" uid="38528" user="acrosscanadatrails" changeset="1758614" lat="48.4332038" lon="-123.5036254"/>
  <node id="435987780" version="2" timestamp="2009-08-10T02:59:03Z" uid="69593" user="Austin Henry" changeset="2092468" lat="48.4331961" lon="-123.5036558"/>
  <node id="435987780" version="3" timestamp="2012-03-14T22:20:57Z" uid="307202" user="alester" changeset="10983279" lat="48.4331961" lon="-123.5036558"/>
  <node id="435987782" version="1" timestamp="2009-07-07T02:42:46Z" uid="38528" user="acrosscanadatrails" changeset="1758614" lat="48.4320001" lon="-123.5048254"/>
  <node id="435987782" version="2" timestamp="2009-08-10T02:59:03Z" uid="69593" user="Austin Henry" changeset="2092468" lat="48.4319566" lon="-123.5048164"/>
  <node id="435987782" version="3" timestamp="2012-03-14T22:20:57Z" uid="307202" user="alester" changeset="10983279" lat="48.4319566" lon="-123.5048164"/>
  <node id="435987785" version="1" timestamp="2009-07-07T02:42:46Z" uid="38528" user="acrosscanadatrails" changeset="1758614" lat="48.4318811" lon="-123.5048573"/>
  <node id="435987785" version="2" timestamp="2009-08-10T02:59:03Z" uid="69593" user="Austin Henry" changeset="2092468" lat="48.4318376" lon="-123.5048228"/>
  <node id="435987785" version="3" timestamp="2012-03-14T22:20:57Z" uid="307202" user="alester" changeset="10983279" lat="48.4318376" lon="-123.5048228"/>
  <node id="435987787" version="1" timestamp="2009-07-07T02:42:46Z" uid="38528" user="acrosscanadatrails" changeset="1758614" lat="48.4317716" lon="-123.5048444"/>
  <node id="435987787" version="2" timestamp="2009-08-10T02:59:03Z" uid="69593" user="Austin Henry" changeset="2092468" lat="48.4317318" lon="-123.5048184"/>
  <node id="435987787" version="3" timestamp="2012-03-14T22:20:57Z" uid="307202" user="alester" changeset="10983279" lat="48.4317318" lon="-123.5048184"/>
  <node id="435987790" version="1" timestamp="2009-07-07T02:42:46Z" uid="38528" user="acrosscanadatrails" changeset="1758614" lat="48.4317052" lon="-123.5048358"/>
  <node id="435987790" version="2" timestamp="2009-08-10T02:59:03Z" uid="69593" user="Austin Henry" changeset="2092468" lat="48.4316617" lon="-123.5047985"/>
  <node id="435987790" version="3" timestamp="2012-03-14T22:20:57Z" uid="307202" user="alester" changeset="10983279" lat="48.4316617" lon="-123.5047985"/>
  <node id="435987793" version="1" timestamp="2009-07-07T02:42:46Z" uid="38528" user="acrosscanadatrails" changeset="1758614" lat="48.4322217" lon="-123.5044992"/>
  <node id="435987793" version="2" timestamp="2009-08-10T02:59:03Z" uid="69593" user="Austin Henry" changeset="2092468" lat="48.4321782" lon="-123.5044902"/>
  <node id="435987793" version="3" timestamp="2012-03-14T22:20:58Z" uid="307202" user="alester" changeset="10983279" lat="48.4321782" lon="-123.5044902"/>
  <node id="435987795" version="1" timestamp="2009-07-07T02:42:46Z" uid="38528" user="acrosscanadatrails" changeset="1758614" lat="48.4321881" lon="-123.504594"/>
  <node id="435987795" version="2" timestamp="2009-08-10T02:59:03Z" uid="69593" user="Austin Henry" changeset="2092468" lat="48.4321446" lon="-123.504585"/>
  <node id="435987795" version="3" timestamp="2012-03-14T22:20:58Z" uid="307202" user="alester" changeset="10983279" lat="48.4321446" lon="-123.504585"/>
  <node id="435987797" version="1" timestamp="2009-07-07T02:42:46Z" uid="38528" user="acrosscanadatrails" changeset="1758614" lat="48.4321441" lon="-123.504663"/>
  <node id="435987797" version="2" timestamp="2009-08-10T02:59:03Z" uid="69593" user="Austin Henry" changeset="2092468" lat="48.4321006" lon="-123.504654"/>
  <node id="435987797" version="3" timestamp="2012-03-14T22:20:58Z" uid="307202" user="alester" changeset="10983279" lat="48.4321006" lon="-123.504654"/>
  <node id="435987799" version="1" timestamp="2009-07-07T02:42:46Z" uid="38528" user="acrosscanadatrails" changeset="1758614" lat="48.4320544" lon="-123.5047596"/>
  <node id="435987799" version="2" timestamp="2009-08-10T02:59:03Z" uid="69593" user="Austin Henry" changeset="2092468" lat="48.4320109" lon="-123.5047506"/>
  <node id="435987799" version="3" timestamp="2012-03-14T22:20:58Z" uid="307202" user="alester" changeset="10983279" lat="48.4320109" lon="-123.5047506"/>
  <node id="435987802" version="1" timestamp="2009-07-07T02:42:46Z" uid="38528" user="acrosscanadatrails" changeset="1758614" lat="48.4319527" lon="-123.504914"/>
  <node id="435987802" version="2" timestamp="2009-08-10T02:59:03Z" uid="69593" user="Austin Henry" changeset="2092468" lat="48.4319092" lon="-123.504905"/>
  <node id="435987802" version="3" timestamp="2012-03-14T22:20:58Z" uid="307202" user="alester" changeset="10983279" lat="48.4319092" lon="-123.504905"/>
  <node id="435987804" version="1" timestamp="2009-07-07T02:42:47Z" uid="38528" user="acrosscanadatrails" changeset="1758614" lat="48.4318966" lon="-123.5050183"/>
  <node id="435987804" version="2" timestamp="2009-08-10T02:59:03Z" uid="69593" user="Austin Henry" changeset="2092468" lat="48.4318459" lon="-123.5049966"/>
  <node id="435987804" version="3" timestamp="2012-03-14T22:20:58Z" uid="307202" user="alester" changeset="10983279" lat="48.4318459" lon="-123.5049966"/>
  <node id="435987806" version="1" timestamp="2009-07-07T02:42:47Z" uid="38528" user="acrosscanadatrails" changeset="1758614" lat="48.4318716" lon="-123.5050649"/>
  <node id="435987806" version="2" timestamp="2009-08-10T02:59:03Z" uid="69593" user="Austin Henry" changeset="2092468" lat="48.4318197" lon="-123.5050504"/>
  <node id="435987806" version="3" timestamp="2012-03-14T22:20:58Z" uid="307202" user="alester" changeset="10983279" lat="48.4318197" lon="-123.5050504"/>
  <node id="435987808" version="1" timestamp="2009-07-07T02:42:47Z" uid="38528" user="acrosscanadatrails" changeset="1758614" lat="48.4322519" lon="-123.5048958"/>
  <node id="435987808" version="2" timestamp="2009-08-10T02:59:03Z" uid="69593" user="Austin Henry" changeset="2092468" lat="48.4322084" lon="-123.5048868"/>
  <node id="435987808" version="3" timestamp="2012-03-14T22:20:58Z" uid="307202" user="alester" changeset="10983279" lat="48.4322084" lon="-123.5048868"/>
  <node id="435987811" version="1" timestamp="2009-07-07T02:42:47Z" uid="38528" user="acrosscanadatrails" changeset="1758614" lat="48.4322208" lon="-123.5048596"/>
  <node id="435987811" version="2" timestamp="2009-08-10T02:59:03Z" uid="69593" user="Austin Henry" changeset="2092468" lat="48.4321773" lon="-123.5048506"/>
  <node id="435987811" version="3" timestamp="2012-03-14T22:20:58Z" uid="307202" user="alester" changeset="10983279" lat="48.4321773" lon="-123.5048506"/>
  <node id="435987813" version="1" timestamp="2009-07-07T02:42:47Z" uid="38528" user="acrosscanadatrails" changeset="1758614" lat="48.4321743" lon="-123.50482"/>
  <node id="435987813" version="2" timestamp="2009-08-10T02:59:03Z" uid="69593" user="Austin Henry" changeset="2092468" lat="48.4321308" lon="-123.504811"/>
  <node id="435987813" version="3" timestamp="2012-03-14T22:20:59Z" uid="307202" user="alester" changeset="10983279" lat="48.4321308" lon="-123.504811"/>
  <node id="435987815" version="1" timestamp="2009-07-07T02:42:47Z" uid="38528" user="acrosscanadatrails" changeset="1758614" lat="48.43212" lon="-123.5047812"/>
  <node id="435987815" version="2" timestamp="2009-08-10T02:59:03Z" uid="69593" user="Austin Henry" changeset="2092468" lat="48.4320765" lon="-123.5047722"/>
  <node id="435987815" version="3" timestamp="2012-03-14T22:20:59Z" uid="307202" user="alester" changeset="10983279" lat="48.4320765" lon="-123.5047722"/>
  <node id="435987817" version="1" timestamp="2009-07-07T02:42:47Z" uid="38528" user="acrosscanadatrails" changeset="1758614" lat="48.4335546" lon="-123.5088291"/>
  <node id="435987817" version="2" timestamp="2012-03-14T22:20:59Z" uid="307202" user="alester" changeset="10983279" lat="48.4335546" lon="-123.5088291"/>
  <node id="435987819" version="1" timestamp="2009-07-07T02:42:47Z" uid="38528" user="acrosscanadatrails" changeset="1758614" lat="48.4335082" lon="-123.508827"/>
  <node id="435987819" version="2" timestamp="2012-03-14T22:20:59Z" uid="307202" user="alester" changeset="10983279" lat="48.4335082" lon="-123.508827"/>
  <node id="435987822" version="1" timestamp="2009-07-07T02:42:47Z" uid="38528" user="acrosscanadatrails" changeset="1758614" lat="48.4334903" lon="-123.5088256"/>
  <node id="435987822" version="2" timestamp="2012-03-14T22:20:59Z" uid="307202" user="alester" changeset="10983279" lat="48.4334903" lon="-123.5088256"/>
  <node id="435987824" version="1" timestamp="2009-07-07T02:42:47Z" uid="38528" user="acrosscanadatrails" changeset="1758614" lat="48.4334579" lon="-123.5089222"/>
  <node id="435987824" version="2" timestamp="2012-03-14T22:20:59Z" uid="307202" user="alester" changeset="10983279" lat="48.4334579" lon="-123.5089222"/>
  <node id="435987826" version="1" timestamp="2009-07-07T02:42:47Z" uid="38528" user="acrosscanadatrails" changeset="1758614" lat="48.4334082" lon="-123.5090181"/>
  <node id="435987826" version="2" timestamp="2012-03-14T22:20:59Z" uid="307202" user="alester" changeset="10983279" lat="48.4334082" lon="-123.5090181"/>
  <node id="435987828" version="1" timestamp="2009-07-07T02:42:47Z" uid="38528" user="acrosscanadatrails" changeset="1758614" lat="48.4333592" lon="-123.5090995"/>
  <node id="435987828" version="2" timestamp="2009-08-10T02:59:03Z" uid="69593" user="Austin Henry" changeset="2092468" lat="48.4333556" lon="-123.509085"/>
  <node id="435987828" version="3" timestamp="2012-03-14T22:20:59Z" uid="307202" user="alester" changeset="10983279" lat="48.4333556" lon="-123.509085"/>
  <node id="435987830" version="1" timestamp="2009-07-07T02:42:47Z" uid="38528" user="acrosscanadatrails" changeset="1758614" lat="48.4332902" lon="-123.5091595"/>
  <node id="435987830" version="2" timestamp="2009-08-10T02:59:03Z" uid="69593" user="Austin Henry" changeset="2092468" lat="48.4332878" lon="-123.5091287"/>
  <node id="435987830" version="3" timestamp="2012-03-14T22:20:59Z" uid="307202" user="alester" changeset="10983279" lat="48.4332878" lon="-123.5091287"/>
  <node id="435987833" version="1" timestamp="2009-07-07T02:42:47Z" uid="38528" user="acrosscanadatrails" changeset="1758614" lat="48.4351544" lon="-123.5095242"/>
  <node id="435987833" version="2" timestamp="2012-03-14T22:21:00Z" uid="307202" user="alester" changeset="10983279" lat="48.4351544" lon="-123.5095242"/>
  <node id="435987835" version="1" timestamp="2009-07-07T02:42:47Z" uid="38528" user="acrosscanadatrails" changeset="1758614" lat="48.4351458" lon="-123.5094751"/>
  <node id="435987835" version="2" timestamp="2012-03-14T22:21:00Z" uid="307202" user="alester" changeset="10983279" lat="48.4351458" lon="-123.5094751"/>
  <node id="435987837" version="1" timestamp="2009-07-07T02:42:47Z" uid="38528" user="acrosscanadatrails" changeset="1758614" lat="48.4350785" lon="-123.509388"/>
  <node id="435987837" version="2" timestamp="2012-03-14T22:21:00Z" uid="307202" user="alester" changeset="10983279" lat="48.4350785" lon="-123.509388"/>
  <node id="435987839" version="1" timestamp="2009-07-07T02:42:47Z" uid="38528" user="acrosscanadatrails" changeset="1758614" lat="48.4349949" lon="-123.5092733"/>
  <node id="435987839" version="2" timestamp="2012-03-14T22:21:00Z" uid="307202" user="alester" changeset="10983279" lat="48.4349949" lon="-123.5092733"/>
  <node id="435987842" version="1" timestamp="2009-07-07T02:42:47Z" uid="38528" user="acrosscanadatrails" changeset="1758614" lat="48.4349103" lon="-123.5091578"/>
  <node id="435987842" version="2" timestamp="2012-03-14T22:21:00Z" uid="307202" user="alester" changeset="10983279" lat="48.4349103" lon="-123.5091578"/>
  <node id="435987844" version="1" timestamp="2009-07-07T02:42:47Z" uid="38528" user="acrosscanadatrails" changeset="1758614" lat="48.4347862" lon="-123.5090655"/>
  <node id="435987844" version="2" timestamp="2012-03-14T22:21:00Z" uid="307202" user="alester" changeset="10983279" lat="48.4347862" lon="-123.5090655"/>
  <node id="435987847" version="1" timestamp="2009-07-07T02:42:47Z" uid="38528" user="acrosscanadatrails" changeset="1758614" lat="48.4346577" lon="-123.5089956"/>
  <node id="435987847" version="2" timestamp="2012-03-14T22:21:00Z" uid="307202" user="alester" changeset="10983279" lat="48.4346577" lon="-123.5089956"/>
  <node id="435987849" version="1" timestamp="2009-07-07T02:42:47Z" uid="38528" user="acrosscanadatrails" changeset="1758614" lat="48.4345706" lon="-123.5089525"/>
  <node id="435987849" version="2" timestamp="2012-03-14T22:21:00Z" uid="307202" user="alester" changeset="10983279" lat="48.4345706" lon="-123.5089525"/>
  <node id="435987851" version="1" timestamp="2009-07-07T02:42:47Z" uid="38528" user="acrosscanadatrails" changeset="1758614" lat="48.4344654" lon="-123.5089172"/>
  <node id="435987851" version="2" timestamp="2012-03-14T22:21:00Z" uid="307202" user="alester" changeset="10983279" lat="48.4344654" lon="-123.5089172"/>
  <node id="435987853" version="1" timestamp="2009-07-07T02:42:47Z" uid="38528" user="acrosscanadatrails" changeset="1758614" lat="48.4343653" lon="-123.5089059"/>
  <node id="435987853" version="2" timestamp="2012-03-14T22:21:00Z" uid="307202" user="alester" changeset="10983279" lat="48.4343653" lon="-123.5089059"/>
  <node id="435987855" version="1" timestamp="2009-07-07T02:42:47Z" uid="38528" user="acrosscanadatrails" changeset="1758614" lat="48.4341808" lon="-123.5088904"/>
  <node id="435987855" version="2" timestamp="2012-03-14T22:21:02Z" uid="307202" user="alester" changeset="10983279" lat="48.4341808" lon="-123.5088904"/>
  <node id="435987857" version="1" timestamp="2009-07-07T02:42:47Z" uid="38528" user="acrosscanadatrails" changeset="1758614" lat="48.4340506" lon="-123.5088809"/>
  <node id="435987857" version="2" timestamp="2012-03-14T22:21:02Z" uid="307202" user="alester" changeset="10983279" lat="48.4340506" lon="-123.5088809"/>
  <node id="435987859" version="1" timestamp="2009-07-07T02:42:47Z" uid="38528" user="acrosscanadatrails" changeset="1758614" lat="48.43386" lon="-123.5088508"/>
  <node id="435987859" version="2" timestamp="2012-03-14T22:21:02Z" uid="307202" user="alester" changeset="10983279" lat="48.43386" lon="-123.5088508"/>
  <node id="435987861" version="1" timestamp="2009-07-07T02:42:48Z" uid="38528" user="acrosscanadatrails" changeset="1758614" lat="48.4337427" lon="-123.5088283"/>
  <node id="435987861" version="2" timestamp="2012-03-14T22:21:03Z" uid="307202" user="alester" changeset="10983279" lat="48.4337427" lon="-123.5088283"/>
  <node id="435987863" version="1" timestamp="2009-07-07T02:42:48Z" uid="38528" user="acrosscanadatrails" changeset="1758614" lat="48.435547" lon="-123.5096889">
    <tag k="name" v="Colwood Creek Park"/>
    <tag k="tourism" v="information"/>
  </node>
  <node id="435987863" version="2" timestamp="2012-01-31T11:24:29Z" uid="147510" user="woodpeck_fixbot" changeset="10548167" lat="48.435547" lon="-123.5096889"/>
  <node id="435987950" version="2" timestamp="2009-07-19T08:11:51Z" uid="59758" user="rendle" changeset="1870455" lat="-6.1035" lon="29.73">
    <tag k="created_by" v="JOSM"/>
  </node>
  <node id="435989077" version="2" timestamp="2009-07-19T08:10:09Z" uid="59758" user="rendle" changeset="1870455" lat="-6.24875" lon="29.73525">
    <tag k="created_by" v="JOSM"/>
  </node>
  <node id="435989277" version="2" timestamp="2009-07-19T08:09:54Z" uid="59758" user="rendle" changeset="1870455" lat="-6.19575" lon="29.74025">
    <tag k="created_by" v="JOSM"/>
  </node>
</osm>
