<?xml version='1.0' encoding='UTF-8'?>
<osm version="0.6" generator="libosmium/2.20.0">
  <node id="436292811" version="3" timestamp="2009-12-24T04:00:34Z" uid="6975" user="ulfl" changeset="3439817" lat="51.19217" lon="51.3316">
    <tag k="shop" v="car_repair"/>
  </node>
  <node id="436293812" version="2" timestamp="2010-01-10T20:19:10Z" uid="20587" user="balrog-kun" changeset="3591150" lat="52.2903989" lon="20.9296565">
    <tag k="name" v="Metro Młociny 05"/>
    <tag k="old_name" v="Huta"/>
    <tag k="railway" v="tram_stop"/>
  </node>
  <node id="436293812" version="3" timestamp="2010-01-12T13:53:36Z" uid="20587" user="balrog-kun" changeset="3603234" lat="52.2903989" lon="20.9296565">
    <tag k="name" v="Metro Młociny 05"/>
    <tag k="old_name" v="Huta"/>
    <tag k="railway" v="tram_stop"/>
    <tag k="tactile_paving" v="no"/>
  </node>
  <node id="436293812" version="4" timestamp="2010-01-13T14:45:11Z" uid="20587" user="balrog-kun" changeset="3610428" lat="52.2903989" lon="20.9296565">
    <tag k="name" v="Metro Młociny 05"/>
    <tag k="old_name" v="Huta"/>
    <tag k="railway" v="tram_stop"/>
    <tag k="tactile_paving" v="no"/>
    <tag k="ztm:ciąg_ulicy" v="Nocznickiego"/>
  </node>
  <node id="436293812" version="5" timestamp="2011-10-09T13:30:46Z" uid="477744" user="hormel" changeset="9512215" lat="52.2903712" lon="20.9297136">
    <tag k="name" v="Metro Młociny 05"/>
    <tag k="old_name" v="Huta"/>
    <tag k="railway" v="tram_stop"/>
    <tag k="tactile_paving" v="no"/>
    <tag k="ztm:ciąg_ulicy" v="Nocznickiego"/>
  </node>
  <node id="436293812" version="6" timestamp="2012-03-27T23:53:21Z" uid="165509" user="koszatek" changeset="11122134" lat="52.290376" lon="20.9297412">
    <tag k="name" v="Metro Młociny 05"/>
    <tag k="old_name" v="Huta"/>
    <tag k="railway" v="tram_stop"/>
    <tag k="tactile_paving" v="no"/>
    <tag k="ztm:ciąg_ulicy" v="Nocznickiego"/>
  </node>
  <node id="436293814" version="2" timestamp="2010-01-10T20:19:10Z" uid="20587" user="balrog-kun" changeset="3591150" lat="52.2899306" lon="20.9291093">
    <tag k="name" v="Metro Młociny 06"/>
    <tag k="old_name" v="Huta"/>
    <tag k="railway" v="tram_stop"/>
  </node>
  <node id="436293814" version="3" timestamp="2010-01-12T13:53:36Z" uid="20587" user="balrog-kun" changeset="3603234" lat="52.2899306" lon="20.9291093">
    <tag k="name" v="Metro Młociny 06"/>
    <tag k="old_name" v="Huta"/>
    <tag k="railway" v="tram_stop"/>
    <tag k="tactile_paving" v="no"/>
  </node>
  <node id="436293814" version="4" timestamp="2010-01-13T14:45:10Z" uid="20587" user="balrog-kun" changeset="3610428" lat="52.2899306" lon="20.9291093">
    <tag k="name" v="Metro Młociny 06"/>
    <tag k="old_name" v="Huta"/>
    <tag k="railway" v="tram_stop"/>
    <tag k="tactile_paving" v="no"/>
    <tag k="ztm:ciąg_ulicy" v="Nocznickiego"/>
  </node>
  <node id="436293814" version="5" timestamp="2011-10-09T13:30:46Z" uid="477744" user="hormel" changeset="9512215" lat="52.2899408" lon="20.9291429">
    <tag k="name" v="Metro Młociny 06"/>
    <tag k="old_name" v="Huta"/>
    <tag k="railway" v="tram_stop"/>
    <tag k="tactile_paving" v="no"/>
    <tag k="ztm:ciąg_ulicy" v="Nocznickiego"/>
  </node>
</osm>
