<?xml version='1.0' encoding='UTF-8'?>
<osm version="0.6" generator="libosmium/2.20.0">
  <node id="436250484" version="2" timestamp="2010-01-12T13:53:33Z" uid="20587" user="balrog-kun" changeset="3603234" lat="52.2608587" lon="20.9246109">
    <tag k="name" v="Nowe Bemowo 06"/>
    <tag k="railway" v="tram_stop"/>
    <tag k="tactile_paving" v="yes"/>
    <tag k="tactile_paving:slab_size" v="40x40"/>
    <tag k="ztm:ciąg_ulicy" v="Powstańców Śląskich"/>
  </node>
  <node id="436250484" version="3" timestamp="2011-07-04T13:53:20Z" uid="477744" user="hormel" changeset="8629655" lat="52.2608749" lon="20.9245762">
    <tag k="name" v="Nowe Bemowo 06"/>
    <tag k="railway" v="tram_stop"/>
    <tag k="tactile_paving" v="yes"/>
    <tag k="tactile_paving:slab_size" v="40x40"/>
    <tag k="ztm:ciąg_ulicy" v="Powstańców Śląskich"/>
  </node>
  <node id="436250484" version="4" timestamp="2011-07-04T14:17:02Z" uid="477744" user="hormel" changeset="8629655" lat="52.2608749" lon="20.9245762"/>
  <node id="436250803" version="5" timestamp="2009-08-10T01:39:09Z" uid="4467" user="Rosscoe" changeset="2092274" lat="-27.3096265" lon="152.9865106">
    <tag k="amenity" v="telephone"/>
    <tag k="operator" v="Telstra"/>
    <tag k="payment:coins" v="yes"/>
    <tag k="payment:telephone_cards" v="yes"/>
    <tag k="source" v="survey"/>
  </node>
  <node id="436250803" version="6" timestamp="2010-04-07T02:57:28Z" uid="142485" user="Calrion" changeset="4350931" lat="-27.3096253" lon="152.9864651">
    <tag k="amenity" v="telephone"/>
    <tag k="operator" v="Telstra"/>
    <tag k="payment:coins" v="yes"/>
    <tag k="payment:telephone_cards" v="yes"/>
    <tag k="source" v="survey"/>
  </node>
  <node id="436250804" version="5" timestamp="2009-08-10T01:39:09Z" uid="4467" user="Rosscoe" changeset="2092274" lat="-27.3096351" lon="152.9864676">
    <tag k="amenity" v="post_box"/>
    <tag k="operator" v="Australia Post"/>
    <tag k="source" v="survey"/>
  </node>
  <node id="436250804" version="6" timestamp="2010-04-07T02:57:27Z" uid="142485" user="Calrion" changeset="4350931" lat="-27.3096361" lon="152.9864137">
    <tag k="amenity" v="post_box"/>
    <tag k="operator" v="Australia Post"/>
    <tag k="source" v="survey"/>
  </node>
  <node id="436251252" version="2" timestamp="2010-01-12T13:53:33Z" uid="20587" user="balrog-kun" changeset="3603234" lat="52.2632404" lon="20.9273005">
    <tag k="name" v="Piastów Śląskich 05"/>
    <tag k="railway" v="tram_stop"/>
    <tag k="tactile_paving" v="yes"/>
    <tag k="tactile_paving:slab_size" v="35x35"/>
    <tag k="ztm:ciąg_ulicy" v="Powstańców Śląskich"/>
  </node>
  <node id="436251252" version="3" timestamp="2010-01-17T13:22:48Z" uid="20587" user="balrog-kun" changeset="3640825" lat="52.2632404" lon="20.9273005">
    <tag k="name" v="Piastów Śląskich 05"/>
    <tag k="railway" v="tram_stop"/>
    <tag k="tactile_paving" v="yes"/>
    <tag k="tactile_paving:slab_size" v="35x35"/>
    <tag k="ztm:ciąg_ulicy" v="Powstańców Śląskich"/>
  </node>
  <node id="436251326" version="2" timestamp="2010-01-12T13:53:33Z" uid="20587" user="balrog-kun" changeset="3603234" lat="52.2638043" lon="20.9280589">
    <tag k="name" v="Piastów Śląskich 06"/>
    <tag k="railway" v="tram_stop"/>
    <tag k="tactile_paving" v="yes"/>
    <tag k="tactile_paving:slab_size" v="35x35"/>
    <tag k="ztm:ciąg_ulicy" v="Powstańców Śląskich"/>
  </node>
  <node id="436251326" version="3" timestamp="2011-10-08T09:32:42Z" uid="477744" user="hormel" changeset="9500609" lat="52.2638341" lon="20.9280798">
    <tag k="name" v="Piastów Śląskich 06"/>
    <tag k="railway" v="tram_stop"/>
    <tag k="tactile_paving" v="yes"/>
    <tag k="tactile_paving:slab_size" v="35x35"/>
    <tag k="ztm:ciąg_ulicy" v="Powstańców Śląskich"/>
  </node>
  <node id="436251395" version="2" timestamp="2010-01-12T13:53:33Z" uid="20587" user="balrog-kun" changeset="3603234" lat="52.2632429" lon="20.927304">
    <tag k="name" v="Piastów Śląskich 05"/>
    <tag k="railway" v="tram_stop"/>
    <tag k="tactile_paving" v="yes"/>
    <tag k="tactile_paving:slab_size" v="35x35"/>
    <tag k="ztm:ciąg_ulicy" v="Powstańców Śląskich"/>
  </node>
  <node id="436251395" version="3" timestamp="2011-09-12T21:09:58Z" uid="373244" user="Tomekg" changeset="9284278" lat="52.2631578" lon="20.927087">
    <tag k="name" v="Piastów Śląskich 05"/>
    <tag k="railway" v="tram_stop"/>
    <tag k="tactile_paving" v="yes"/>
    <tag k="tactile_paving:slab_size" v="35x35"/>
    <tag k="ztm:ciąg_ulicy" v="Powstańców Śląskich"/>
  </node>
  <node id="436251395" version="4" timestamp="2011-10-08T09:32:42Z" uid="477744" user="hormel" changeset="9500609" lat="52.2632353" lon="20.927258">
    <tag k="name" v="Piastów Śląskich 05"/>
    <tag k="railway" v="tram_stop"/>
    <tag k="tactile_paving" v="yes"/>
    <tag k="tactile_paving:slab_size" v="35x35"/>
    <tag k="ztm:ciąg_ulicy" v="Powstańców Śląskich"/>
  </node>
  <node id="436253615" version="2" timestamp="2010-01-12T13:53:34Z" uid="20587" user="balrog-kun" changeset="3603234" lat="52.2688872" lon="20.9327427">
    <tag k="name" v="Ogrody Działkowe Bemowo 06"/>
    <tag k="railway" v="tram_stop"/>
    <tag k="tactile_paving" v="yes"/>
    <tag k="tactile_paving:slab_size" v="35x35"/>
    <tag k="ztm:ciąg_ulicy" v="Powstańców Śląskich"/>
  </node>
  <node id="436253615" version="3" timestamp="2011-10-08T09:32:42Z" uid="477744" user="hormel" changeset="9500609" lat="52.2691947" lon="20.9329139">
    <tag k="name" v="Ogrody Działkowe Bemowo 06"/>
    <tag k="railway" v="tram_stop"/>
    <tag k="tactile_paving" v="yes"/>
    <tag k="tactile_paving:slab_size" v="35x35"/>
    <tag k="ztm:ciąg_ulicy" v="Powstańców Śląskich"/>
  </node>
  <node id="436253621" version="2" timestamp="2010-01-12T13:53:34Z" uid="20587" user="balrog-kun" changeset="3603234" lat="52.2692316" lon="20.9329414">
    <tag k="name" v="Ogrody Działkowe Bemowo 05"/>
    <tag k="railway" v="tram_stop"/>
    <tag k="tactile_paving" v="yes"/>
    <tag k="tactile_paving:slab_size" v="35x35"/>
    <tag k="ztm:ciąg_ulicy" v="Powstańców Śląskich"/>
  </node>
  <node id="436253621" version="3" timestamp="2011-10-08T09:32:42Z" uid="477744" user="hormel" changeset="9500609" lat="52.2689295" lon="20.9327123">
    <tag k="name" v="Ogrody Działkowe Bemowo 05"/>
    <tag k="railway" v="tram_stop"/>
    <tag k="tactile_paving" v="yes"/>
    <tag k="tactile_paving:slab_size" v="35x35"/>
    <tag k="ztm:ciąg_ulicy" v="Powstańców Śląskich"/>
  </node>
  <node id="436255111" version="3" timestamp="2010-05-02T03:21:55Z" uid="4467" user="Rosscoe" changeset="4580939" lat="-32.008617" lon="115.898574"/>
  <node id="436255506" version="2" timestamp="2010-03-15T23:28:53Z" uid="23543" user="jkjk" changeset="4139825" lat="37.64272" lon="126.80579"/>
  <node id="436255507" version="2" timestamp="2010-03-15T23:28:45Z" uid="23543" user="jkjk" changeset="4139825" lat="37.642649" lon="126.8056631"/>
  <node id="436255507" version="3" timestamp="2010-11-23T00:05:00Z" uid="3516" user="BiIbo" changeset="6434330" lat="37.6426265" lon="126.8056347"/>
  <node id="436255508" version="2" timestamp="2010-03-15T23:28:45Z" uid="23543" user="jkjk" changeset="4139825" lat="37.6422014" lon="126.8054562"/>
  <node id="436255508" version="3" timestamp="2010-11-23T00:05:27Z" uid="3516" user="BiIbo" changeset="6434330" lat="37.6422014" lon="126.8054562"/>
  <node id="436255509" version="2" timestamp="2010-03-15T23:28:45Z" uid="23543" user="jkjk" changeset="4139825" lat="37.6420081" lon="126.8053869"/>
  <node id="436255510" version="2" timestamp="2010-03-15T23:28:45Z" uid="23543" user="jkjk" changeset="4139825" lat="37.6416297" lon="126.8052516"/>
  <node id="436255511" version="2" timestamp="2010-03-15T23:28:45Z" uid="23543" user="jkjk" changeset="4139825" lat="37.6412674" lon="126.8051332"/>
  <node id="436255512" version="2" timestamp="2010-03-15T23:28:45Z" uid="23543" user="jkjk" changeset="4139825" lat="37.6408275" lon="126.8050224"/>
  <node id="436256078" version="2" timestamp="2010-01-12T13:53:34Z" uid="20587" user="balrog-kun" changeset="3603234" lat="52.2710575" lon="20.9339645">
    <tag k="name" v="Conrada 06"/>
    <tag k="railway" v="tram_stop"/>
    <tag k="tactile_paving" v="yes"/>
    <tag k="tactile_paving:slab_size" v="35x35"/>
    <tag k="ztm:ciąg_ulicy" v="Powstańców Śląskich"/>
  </node>
  <node id="436256078" version="3" timestamp="2010-10-09T14:34:59Z" uid="20587" user="balrog-kun" changeset="5993788" lat="52.2709036" lon="20.9338956">
    <tag k="name" v="Conrada 06"/>
    <tag k="railway" v="tram_stop"/>
    <tag k="tactile_paving" v="yes"/>
    <tag k="tactile_paving:slab_size" v="35x35"/>
    <tag k="ztm:ciąg_ulicy" v="Powstańców Śląskich"/>
  </node>
  <node id="436256078" version="4" timestamp="2011-02-09T01:53:59Z" uid="165509" user="koszatek" changeset="7232505" lat="52.2709127" lon="20.9338185">
    <tag k="name" v="Conrada 06"/>
    <tag k="railway" v="tram_stop"/>
    <tag k="tactile_paving" v="yes"/>
    <tag k="tactile_paving:slab_size" v="35x35"/>
    <tag k="ztm:ciąg_ulicy" v="Powstańców Śląskich"/>
  </node>
  <node id="436256079" version="2" timestamp="2010-01-12T13:53:34Z" uid="20587" user="balrog-kun" changeset="3603234" lat="52.2715964" lon="20.934225">
    <tag k="name" v="Conrada 05"/>
    <tag k="railway" v="tram_stop"/>
    <tag k="tactile_paving" v="yes"/>
    <tag k="tactile_paving:slab_size" v="35x35"/>
    <tag k="ztm:ciąg_ulicy" v="Reymonta"/>
  </node>
  <node id="436256079" version="3" timestamp="2011-02-09T01:53:52Z" uid="165509" user="koszatek" changeset="7232505" lat="52.2716037" lon="20.9342072">
    <tag k="name" v="Conrada 05"/>
    <tag k="railway" v="tram_stop"/>
    <tag k="tactile_paving" v="yes"/>
    <tag k="tactile_paving:slab_size" v="35x35"/>
    <tag k="ztm:ciąg_ulicy" v="Reymonta"/>
  </node>
  <node id="436256079" version="4" timestamp="2011-10-08T09:32:43Z" uid="477744" user="hormel" changeset="9500609" lat="52.2715851" lon="20.934142">
    <tag k="name" v="Conrada 05"/>
    <tag k="railway" v="tram_stop"/>
    <tag k="tactile_paving" v="yes"/>
    <tag k="tactile_paving:slab_size" v="35x35"/>
    <tag k="ztm:ciąg_ulicy" v="Reymonta"/>
  </node>
</osm>
