<?xml version='1.0' encoding='UTF-8'?>
<osm version="0.6" generator="libosmium/2.20.0">
  <node id="436332309" version="2" timestamp="2010-01-10T16:31:32Z" uid="20587" user="balrog-kun" changeset="3588732" lat="52.2964305" lon="20.9329224">
    <tag k="name" v="Zgrupowania AK &quot;Kampinos&quot; 03"/>
    <tag k="note" v="Według Tramwaje Warszawskie sp.z o.o. &quot;Pstrowskiego 03&quot;"/>
    <tag k="railway" v="tram_stop"/>
  </node>
  <node id="436332309" version="3" timestamp="2010-01-10T20:44:44Z" uid="20587" user="balrog-kun" changeset="3591381" lat="52.2964305" lon="20.9329224">
    <tag k="name" v="Zgrupowania AK &quot;Kampinos&quot; 03"/>
    <tag k="old_name" v="Pstrowskiego 03"/>
    <tag k="railway" v="tram_stop"/>
  </node>
  <node id="436332309" version="4" timestamp="2010-01-12T13:54:00Z" uid="20587" user="balrog-kun" changeset="3603234" lat="52.2964305" lon="20.9329224">
    <tag k="name" v="Zgrupowania AK &quot;Kampinos&quot; 03"/>
    <tag k="old_name" v="Pstrowskiego 03"/>
    <tag k="railway" v="tram_stop"/>
    <tag k="tactile_paving" v="yes"/>
    <tag k="tactile_paving:slab_size" v="40x40"/>
    <tag k="ztm:ciąg_ulicy" v="Zgrupowania AK Kampinos"/>
  </node>
  <node id="436332309" version="5" timestamp="2012-03-25T19:28:20Z" uid="550476" user="fishcrosser" changeset="11098894" lat="52.2964305" lon="20.9329224"/>
  <node id="436334665" version="2" timestamp="2010-01-12T13:54:01Z" uid="20587" user="balrog-kun" changeset="3603234" lat="52.2985265" lon="20.9341634">
    <tag k="name" v="Zajezdnia Żoliborz 03"/>
    <tag k="railway" v="tram_stop"/>
    <tag k="tactile_paving" v="yes"/>
    <tag k="tactile_paving:slab_size" v="40x40"/>
    <tag k="ztm:ciąg_ulicy" v="Zgrupowania AK Kampinos"/>
  </node>
  <node id="436334665" version="3" timestamp="2010-01-17T14:20:59Z" uid="20587" user="balrog-kun" changeset="3641432" lat="52.2985265" lon="20.9341634">
    <tag k="name" v="Zajezdnia Żoliborz 03"/>
    <tag k="railway" v="tram_stop"/>
    <tag k="ref" v="6061"/>
    <tag k="tactile_paving" v="yes"/>
    <tag k="tactile_paving:slab_size" v="40x40"/>
    <tag k="ztm:ciąg_ulicy" v="Zgrupowania AK Kampinos"/>
  </node>
  <node id="436334665" version="4" timestamp="2011-11-17T10:15:11Z" uid="477744" user="hormel" changeset="9852694" lat="52.2985265" lon="20.9341634"/>
  <node id="436338816" version="2" timestamp="2009-08-08T15:03:49Z" uid="20587" user="balrog-kun" changeset="2076575" lat="52.2980547" lon="20.9427562">
    <tag k="name" v="Cmentarz Włoski 03"/>
    <tag k="railway" v="tram_stop"/>
  </node>
  <node id="436338816" version="3" timestamp="2010-01-12T13:54:01Z" uid="20587" user="balrog-kun" changeset="3603234" lat="52.2980547" lon="20.9427562">
    <tag k="name" v="Cmentarz Włoski 03"/>
    <tag k="railway" v="tram_stop"/>
    <tag k="tactile_paving" v="yes"/>
    <tag k="tactile_paving:slab_size" v="40x40"/>
    <tag k="ztm:ciąg_ulicy" v="Marymoncka"/>
  </node>
  <node id="436338816" version="4" timestamp="2011-10-09T18:42:48Z" uid="477744" user="hormel" changeset="9515862" lat="52.297945" lon="20.9427967">
    <tag k="name" v="Cmentarz Włoski 03"/>
    <tag k="railway" v="tram_stop"/>
    <tag k="tactile_paving" v="yes"/>
    <tag k="tactile_paving:slab_size" v="40x40"/>
    <tag k="ztm:ciąg_ulicy" v="Marymoncka"/>
  </node>
  <node id="436338826" version="2" timestamp="2009-08-08T15:03:49Z" uid="20587" user="balrog-kun" changeset="2076575" lat="52.2977615" lon="20.9430329">
    <tag k="name" v="Cmentarz Włoski 04"/>
    <tag k="railway" v="tram_stop"/>
  </node>
  <node id="436338826" version="3" timestamp="2010-01-12T13:54:01Z" uid="20587" user="balrog-kun" changeset="3603234" lat="52.2977615" lon="20.9430329">
    <tag k="name" v="Cmentarz Włoski 04"/>
    <tag k="railway" v="tram_stop"/>
    <tag k="tactile_paving" v="yes"/>
    <tag k="tactile_paving:slab_size" v="40x40"/>
    <tag k="ztm:ciąg_ulicy" v="Marymoncka"/>
  </node>
  <node id="436338826" version="4" timestamp="2011-10-09T18:42:49Z" uid="477744" user="hormel" changeset="9515862" lat="52.2978206" lon="20.9429706">
    <tag k="name" v="Cmentarz Włoski 04"/>
    <tag k="railway" v="tram_stop"/>
    <tag k="tactile_paving" v="yes"/>
    <tag k="tactile_paving:slab_size" v="40x40"/>
    <tag k="ztm:ciąg_ulicy" v="Marymoncka"/>
  </node>
  <node id="436338846" version="2" timestamp="2010-01-12T13:54:01Z" uid="20587" user="balrog-kun" changeset="3603234" lat="52.2949713" lon="20.9456656">
    <tag k="name" v="Przy Agorze 04"/>
    <tag k="railway" v="tram_stop"/>
    <tag k="tactile_paving" v="yes"/>
    <tag k="tactile_paving:slab_size" v="40x40"/>
    <tag k="ztm:ciąg_ulicy" v="Marymoncka"/>
  </node>
  <node id="436338846" version="3" timestamp="2011-10-09T18:42:49Z" uid="477744" user="hormel" changeset="9515862" lat="52.295747" lon="20.9449404">
    <tag k="name" v="Przy Agorze 04"/>
    <tag k="railway" v="tram_stop"/>
    <tag k="tactile_paving" v="yes"/>
    <tag k="tactile_paving:slab_size" v="40x40"/>
    <tag k="ztm:ciąg_ulicy" v="Marymoncka"/>
  </node>
  <node id="436339384" version="1" timestamp="2009-07-07T14:08:48Z" uid="99207" user="Lar Kiesel" changeset="1762797" lat="35.0976447" lon="-81.6535309"/>
  <node id="436339452" version="1" timestamp="2009-07-07T14:08:52Z" uid="99207" user="Lar Kiesel" changeset="1762797" lat="35.0736525" lon="-81.752056"/>
  <node id="436339454" version="1" timestamp="2009-07-07T14:08:52Z" uid="99207" user="Lar Kiesel" changeset="1762797" lat="35.0733364" lon="-81.7543906"/>
  <node id="436339456" version="1" timestamp="2009-07-07T14:08:52Z" uid="99207" user="Lar Kiesel" changeset="1762797" lat="35.0730484" lon="-81.7564591"/>
  <node id="436339501" version="1" timestamp="2009-07-07T14:08:54Z" uid="99207" user="Lar Kiesel" changeset="1762797" lat="35.0565039" lon="-81.7864655"/>
  <node id="436339502" version="1" timestamp="2009-07-07T14:08:59Z" uid="99207" user="Lar Kiesel" changeset="1762797" lat="35.072752" lon="-81.757039"/>
  <node id="436339503" version="1" timestamp="2009-07-07T14:08:59Z" uid="99207" user="Lar Kiesel" changeset="1762797" lat="35.0786267" lon="-81.7188629"/>
  <node id="436339504" version="1" timestamp="2009-07-07T14:08:59Z" uid="99207" user="Lar Kiesel" changeset="1762797" lat="35.0938946" lon="-81.6853913"/>
  <node id="436339505" version="1" timestamp="2009-07-07T14:09:03Z" uid="99207" user="Lar Kiesel" changeset="1762797" lat="35.0722757" lon="-81.7583645"/>
  <node id="436339505" version="2" timestamp="2009-07-25T01:07:48Z" uid="135163" user="MikeN" changeset="1930282" lat="35.0721527" lon="-81.7587177"/>
  <node id="436339506" version="1" timestamp="2009-07-07T14:09:03Z" uid="99207" user="Lar Kiesel" changeset="1762797" lat="35.0725145" lon="-81.7578753"/>
  <node id="436339507" version="1" timestamp="2009-07-07T14:09:03Z" uid="99207" user="Lar Kiesel" changeset="1762797" lat="35.0706389" lon="-81.7617634"/>
  <node id="436339507" version="2" timestamp="2009-07-25T01:07:48Z" uid="135163" user="MikeN" changeset="1930282" lat="35.0707096" lon="-81.7616469"/>
  <node id="436339508" version="1" timestamp="2009-07-07T14:09:03Z" uid="99207" user="Lar Kiesel" changeset="1762797" lat="35.0705617" lon="-81.7621497"/>
  <node id="436339508" version="2" timestamp="2009-07-25T01:07:48Z" uid="135163" user="MikeN" changeset="1930282" lat="35.0706048" lon="-81.7621046"/>
</osm>
