<?xml version='1.0' encoding='UTF-8'?>
<osm version="0.6" generator="libosmium/2.20.0">
  <node id="437891823" version="2" timestamp="2009-08-26T19:02:38Z" uid="36809" user="pfoten_weg_!_" changeset="2270948" lat="47.8613638" lon="11.8803743">
    <tag k="is_in" v="Irschenberg,Miesbach"/>
    <tag k="name" v="Nußbaum"/>
    <tag k="place" v="hamlet"/>
  </node>
  <node id="437891823" version="3" timestamp="2009-09-05T13:29:45Z" uid="140803" user="ThomasStr" changeset="2380793" lat="47.8613638" lon="11.8803743">
    <tag k="is_in" v="Irschenberg,Miesbach,Oberbayern,Bayern,Bundesrepublik Deutschland,Europe"/>
    <tag k="name" v="Nußbaum"/>
    <tag k="place" v="hamlet"/>
  </node>
  <node id="437891824" version="2" timestamp="2009-09-01T20:54:19Z" uid="36809" user="pfoten_weg_!_" changeset="2343001" lat="47.8584671" lon="11.8812669">
    <tag k="is_in" v="Irschenberg,Miesbach"/>
    <tag k="name" v="Stolzenberg"/>
    <tag k="place" v="hamlet"/>
  </node>
  <node id="437891824" version="3" timestamp="2009-09-05T13:29:45Z" uid="140803" user="ThomasStr" changeset="2380793" lat="47.8584671" lon="11.8812669">
    <tag k="is_in" v="Irschenberg,Miesbach,Oberbayern,Bayern,Bundesrepublik Deutschland,Europe"/>
    <tag k="name" v="Stolzenberg"/>
    <tag k="place" v="hamlet"/>
  </node>
  <node id="437891824" version="4" timestamp="2011-09-21T09:19:53Z" uid="42393" user="mawi42" changeset="9358473" lat="47.8582886" lon="11.8812417">
    <tag k="is_in" v="Irschenberg,Miesbach,Oberbayern,Bayern,Bundesrepublik Deutschland,Europe"/>
    <tag k="name" v="Stolzenberg"/>
    <tag k="place" v="hamlet"/>
  </node>
  <node id="437891829" version="2" timestamp="2009-09-01T20:54:19Z" uid="36809" user="pfoten_weg_!_" changeset="2343001" lat="47.8590027" lon="11.8793186">
    <tag k="is_in" v="Irschenberg,Miesbach"/>
    <tag k="name" v="Bergbauer"/>
    <tag k="place" v="hamlet"/>
  </node>
  <node id="437891829" version="3" timestamp="2009-09-05T13:29:45Z" uid="140803" user="ThomasStr" changeset="2380793" lat="47.8590027" lon="11.8793186">
    <tag k="is_in" v="Irschenberg,Miesbach,Oberbayern,Bayern,Bundesrepublik Deutschland,Europe"/>
    <tag k="name" v="Bergbauer"/>
    <tag k="place" v="hamlet"/>
  </node>
  <node id="437891829" version="4" timestamp="2011-09-21T09:12:23Z" uid="42393" user="mawi42" changeset="9358473" lat="47.8593104" lon="11.8796217">
    <tag k="addr:postcode" v="83737"/>
    <tag k="is_in" v="Irschenberg,Miesbach,Oberbayern,Bayern,Bundesrepublik Deutschland,Europe"/>
    <tag k="name" v="Bergbauer"/>
    <tag k="place" v="hamlet"/>
  </node>
</osm>
