<?xml version='1.0' encoding='UTF-8'?>
<osm version="0.6" generator="libosmium/2.20.0">
  <node id="444600695" version="1" timestamp="2009-07-20T19:48:09Z" uid="55964" user="Evan Sebire" changeset="1888985" lat="46.5911997" lon="7.6493847">
    <tag k="highway" v="bus_stop"/>
    <tag k="name" v="Frutigen, Ischlag"/>
  </node>
  <node id="444600695" version="2" timestamp="2009-08-28T11:29:17Z" uid="55964" user="Evan Sebire" changeset="2289007" lat="46.5911997" lon="7.6493847">
    <tag k="highway" v="bus_stop"/>
    <tag k="name" v="Frutigen, Ischlag"/>
    <tag k="route_ref" v="210"/>
  </node>
  <node id="444600695" version="3" timestamp="2010-05-16T10:54:37Z" uid="55964" user="Evan Sebire" changeset="4715520" lat="46.5912105" lon="7.6493551">
    <tag k="highway" v="bus_stop"/>
    <tag k="name" v="Frutigen, Ischlag"/>
    <tag k="operator" v="post"/>
    <tag k="phone" v="0848 888 888"/>
    <tag k="route_ref" v="210"/>
    <tag k="source" v="survey"/>
    <tag k="url" v="http://www.postauto.ch"/>
  </node>
  <node id="444600695" version="4" timestamp="2010-11-10T07:40:20Z" uid="368211" user="DidokImportCH" changeset="6333705" lat="46.591211" lon="7.649355">
    <tag k="ele" v="790"/>
    <tag k="highway" v="bus_stop"/>
    <tag k="name" v="Frutigen, Ischlag"/>
    <tag k="operator" v="post"/>
    <tag k="phone" v="0848 888 888"/>
    <tag k="route_ref" v="210"/>
    <tag k="uic_name" v="Frutigen, Ischlag"/>
    <tag k="uic_ref" v="8507503"/>
    <tag k="url" v="http://www.postauto.ch"/>
  </node>
  <node id="444600695" version="5" timestamp="2011-06-10T08:26:22Z" uid="2680" user="xylome" changeset="8395099" lat="46.591211" lon="7.649355">
    <tag k="ele" v="790"/>
    <tag k="highway" v="bus_stop"/>
    <tag k="name" v="Frutigen, Ischlag"/>
    <tag k="operator" v="PostAuto Schweiz AG"/>
    <tag k="operator:de" v="PostAuto Schweiz AG"/>
    <tag k="operator:fr" v="CarPostal Suisse SA"/>
    <tag k="operator:it" v="AutoPostale Svizzera SA"/>
    <tag k="phone" v="0848 888 888"/>
    <tag k="route_ref" v="210"/>
    <tag k="uic_name" v="Frutigen, Ischlag"/>
    <tag k="uic_ref" v="8507503"/>
    <tag k="url" v="http://www.postauto.ch"/>
  </node>
  <node id="444600695" version="6" timestamp="2012-02-28T09:22:19Z" uid="74900" user="FischersFritz" changeset="10816897" lat="46.591211" lon="7.649355"/>
  <node id="444601251" version="2" timestamp="2009-10-03T18:11:49Z" uid="43967" user="railsnail" changeset="2727575" lat="46.6192253" lon="14.2666458"/>
  <node id="444601251" version="3" timestamp="2009-11-03T00:31:58Z" uid="66501" user="georgholzer" changeset="3021401" lat="46.6192537" lon="14.2666469"/>
  <node id="444601260" version="3" timestamp="2009-10-03T18:11:31Z" uid="43967" user="railsnail" changeset="2727575" lat="46.619355" lon="14.2670235"/>
  <node id="444601260" version="4" timestamp="2009-11-03T00:31:57Z" uid="66501" user="georgholzer" changeset="3021401" lat="46.6193385" lon="14.2670265"/>
  <node id="444602465" version="2" timestamp="2009-10-18T09:23:16Z" uid="186548" user="fojhtirf" changeset="2881143" lat="52.4363882" lon="8.366376"/>
  <node id="444602476" version="2" timestamp="2009-10-18T09:23:16Z" uid="186548" user="fojhtirf" changeset="2881143" lat="52.4369897" lon="8.3637622"/>
  <node id="444602488" version="2" timestamp="2009-10-18T09:23:16Z" uid="186548" user="fojhtirf" changeset="2881143" lat="52.4372194" lon="8.3615203"/>
  <node id="444602499" version="2" timestamp="2009-10-18T09:23:15Z" uid="186548" user="fojhtirf" changeset="2881143" lat="52.4387395" lon="8.3556365"/>
  <node id="444602511" version="2" timestamp="2009-10-18T09:23:15Z" uid="186548" user="fojhtirf" changeset="2881143" lat="52.4397566" lon="8.3525744"/>
  <node id="444602520" version="2" timestamp="2009-10-18T09:23:16Z" uid="186548" user="fojhtirf" changeset="2881143" lat="52.4355243" lon="8.3680055"/>
  <node id="444602530" version="2" timestamp="2009-10-18T09:23:16Z" uid="186548" user="fojhtirf" changeset="2881143" lat="52.435743" lon="8.3679071"/>
  <node id="444602542" version="2" timestamp="2009-10-18T09:23:15Z" uid="186548" user="fojhtirf" changeset="2881143" lat="52.4360164" lon="8.3673275"/>
</osm>
