<?xml version='1.0' encoding='UTF-8'?>
<osm version="0.6" generator="libosmium/2.20.0">
  <node id="445923823" version="4" timestamp="2010-07-30T06:03:28Z" uid="4467" user="Rosscoe" changeset="5351887" lat="-27.511211" lon="153.031649">
    <tag k="name" v="Ray White Annerley"/>
    <tag k="office" v="real_estate"/>
    <tag k="source" v="survey"/>
  </node>
  <node id="445923823" version="5" timestamp="2010-09-20T22:36:06Z" uid="25504" user="Daniel Herding" changeset="5833569" lat="-27.511211" lon="153.031649">
    <tag k="name" v="Ray White Annerley"/>
    <tag k="office" v="estate_agent"/>
    <tag k="source" v="survey"/>
  </node>
  <node id="445923824" version="2" timestamp="2010-07-30T06:03:31Z" uid="4467" user="Rosscoe" changeset="5351887" lat="-27.5112008" lon="153.0317983">
    <tag k="name" v="Julie Hardeman Real Estate"/>
    <tag k="office" v="real_estate"/>
    <tag k="source" v="survey"/>
  </node>
  <node id="445923824" version="3" timestamp="2010-09-20T22:36:08Z" uid="25504" user="Daniel Herding" changeset="5833569" lat="-27.5112008" lon="153.0317983">
    <tag k="name" v="Julie Hardeman Real Estate"/>
    <tag k="office" v="estate_agent"/>
    <tag k="source" v="survey"/>
  </node>
  <node id="445923824" version="4" timestamp="2011-10-16T03:20:24Z" uid="103574" user="El Segundo can&apos;t win" changeset="9568929" lat="-27.5111275" lon="153.0318268">
    <tag k="name" v="Julie Hardeman Real Estate"/>
    <tag k="office" v="estate_agent"/>
    <tag k="source" v="survey"/>
  </node>
  <node id="445923828" version="2" timestamp="2010-07-30T06:03:27Z" uid="4467" user="Rosscoe" changeset="5351887" lat="-27.5108544" lon="153.0319623">
    <tag k="name" v="RE/MAX Colonial"/>
    <tag k="office" v="real_estate"/>
    <tag k="source" v="survey"/>
  </node>
  <node id="445923828" version="3" timestamp="2010-09-20T22:36:03Z" uid="25504" user="Daniel Herding" changeset="5833569" lat="-27.5108544" lon="153.0319623">
    <tag k="name" v="RE/MAX Colonial"/>
    <tag k="office" v="estate_agent"/>
    <tag k="source" v="survey"/>
  </node>
  <node id="445923828" version="4" timestamp="2011-10-16T03:26:25Z" uid="103574" user="El Segundo can&apos;t win" changeset="9568929" lat="-27.5108063" lon="153.0319743">
    <tag k="name" v="RE/MAX Colonial"/>
    <tag k="office" v="estate_agent"/>
    <tag k="source" v="survey"/>
  </node>
  <node id="445923830" version="3" timestamp="2010-07-30T06:03:42Z" uid="4467" user="Rosscoe" changeset="5351887" lat="-27.5106096" lon="153.032061">
    <tag k="name" v="LJ Hooker"/>
    <tag k="office" v="real_estate"/>
    <tag k="source" v="survey"/>
  </node>
  <node id="445923830" version="4" timestamp="2010-09-20T22:36:06Z" uid="25504" user="Daniel Herding" changeset="5833569" lat="-27.5106096" lon="153.032061">
    <tag k="name" v="LJ Hooker"/>
    <tag k="office" v="estate_agent"/>
    <tag k="source" v="survey"/>
  </node>
  <node id="445923830" version="5" timestamp="2011-08-02T10:32:24Z" uid="103574" user="El Segundo can&apos;t win" changeset="8899123" lat="-27.5106096" lon="153.032061">
    <tag k="addr:housenumber" v="443"/>
    <tag k="addr:street" v="Ipswich Road"/>
    <tag k="name" v="LJ Hooker"/>
    <tag k="office" v="estate_agent"/>
    <tag k="source" v="survey"/>
  </node>
  <node id="445923835" version="2" timestamp="2010-07-30T06:03:41Z" uid="4467" user="Rosscoe" changeset="5351887" lat="-27.5105414" lon="153.0321827">
    <tag k="amenity" v="waste_basket"/>
    <tag k="source" v="survey"/>
  </node>
  <node id="445923835" version="3" timestamp="2011-11-19T11:13:21Z" uid="103574" user="El Segundo can&apos;t win" changeset="9871911" lat="-27.5105414" lon="153.0321827"/>
</osm>
