<?xml version='1.0' encoding='UTF-8'?>
<osm version="0.6" generator="libosmium/2.20.0">
  <node id="446541852" version="1" timestamp="2009-07-24T01:21:44Z" uid="20587" user="balrog-kun" changeset="1920720" lat="-12.8238866" lon="45.1524938">
    <tag k="name" v="Mayotte"/>
    <tag k="name:pl" v="Majotta"/>
    <tag k="official_name" v="Collectivité départementale de Mayotte"/>
    <tag k="official_name:en" v="Departmental Collectivity of Mayotte"/>
    <tag k="place" v="island"/>
    <tag k="wikipedia" v="Mayotte"/>
  </node>
  <node id="446541852" version="2" timestamp="2011-01-04T10:47:35Z" uid="13442" user="Damouns" changeset="6859147" lat="-12.8238866" lon="45.1524938">
    <tag k="name" v="Mayotte"/>
    <tag k="name:pl" v="Majotta"/>
    <tag k="official_name" v="Collectivité départementale de Mayotte"/>
    <tag k="official_name:en" v="Departmental Collectivity of Mayotte"/>
    <tag k="place" v="island"/>
    <tag k="wikipedia" v="Mayotte"/>
  </node>
  <node id="446541853" version="1" timestamp="2009-07-24T01:21:45Z" uid="20587" user="balrog-kun" changeset="1920720" lat="-6.2536624" lon="39.3695128">
    <tag k="alt_name" v="Unguja"/>
    <tag k="capital_city" v="Stone Town"/>
    <tag k="is_in" v="Tanzania"/>
    <tag k="name" v="Zanzibar"/>
    <tag k="name:en" v="Zanzibar Island"/>
    <tag k="name:es" v="Zanzíbar"/>
    <tag k="place" v="island"/>
    <tag k="wikipedia" v="Unguja"/>
  </node>
  <node id="446541853" version="2" timestamp="2010-02-08T19:11:17Z" uid="179890" user="Someone561" changeset="3826049" lat="-6.2536624" lon="39.3695128">
    <tag k="alt_name" v="Unguja"/>
    <tag k="capital_city" v="Stone Town"/>
    <tag k="is_in" v="Tanzania"/>
    <tag k="name" v="Zanzibar"/>
    <tag k="name:de" v="Sansibar"/>
    <tag k="name:en" v="Zanzibar Island"/>
    <tag k="name:es" v="Zanzíbar"/>
    <tag k="place" v="island"/>
    <tag k="wikipedia" v="Unguja"/>
  </node>
  <node id="446541854" version="1" timestamp="2009-07-24T01:21:45Z" uid="20587" user="balrog-kun" changeset="1920720" lat="-5.1644622" lon="39.7777565">
    <tag k="is_in" v="Tanzania"/>
    <tag k="name" v="Pemba"/>
    <tag k="name:eo" v="Pembo"/>
    <tag k="name:ru" v="Пемба"/>
    <tag k="place" v="island"/>
    <tag k="wikipedia" v="Pemba Island"/>
  </node>
  <node id="446542582" version="2" timestamp="2009-08-11T20:36:04Z" uid="99207" user="Lar Kiesel" changeset="2112856" lat="33.982985" lon="-81.441648"/>
  <node id="446542627" version="2" timestamp="2009-08-11T14:44:28Z" uid="99207" user="Lar Kiesel" changeset="2109049" lat="33.989824" lon="-81.437444"/>
  <node id="446542786" version="2" timestamp="2009-08-08T17:35:21Z" uid="99207" user="Lar Kiesel" changeset="2077957" lat="34.025786" lon="-81.463802"/>
  <node id="446543124" version="2" timestamp="2011-01-22T10:39:49Z" uid="4467" user="Rosscoe" changeset="7048708" lat="-26.7561442" lon="153.1270177"/>
  <node id="446543127" version="2" timestamp="2011-01-22T10:39:31Z" uid="4467" user="Rosscoe" changeset="7048708" lat="-26.7547484" lon="153.1242831"/>
  <node id="446549610" version="2" timestamp="2009-08-11T20:36:04Z" uid="99207" user="Lar Kiesel" changeset="2112856" lat="33.974584" lon="-81.441489"/>
</osm>
