<?xml version='1.0' encoding='UTF-8'?>
<osm version="0.6" generator="libosmium/2.20.0">
  <node id="446722846" version="1" timestamp="2009-07-24T05:46:22Z" uid="110593" user="esetzer" changeset="1921479" lat="40.6228978" lon="-111.8656165">
    <tag k="amenity" v="fast_food"/>
    <tag k="created_by" v="Merkaartor 0.11"/>
    <tag k="cuisine" v="burger"/>
    <tag k="name" v="Wendy&apos;s"/>
  </node>
  <node id="446724064" version="1" timestamp="2009-07-24T05:49:31Z" uid="110593" user="esetzer" changeset="1921498" lat="40.6222725" lon="-111.8686189">
    <tag k="created_by" v="Merkaartor 0.11"/>
  </node>
  <node id="446724064" version="2" timestamp="2012-03-11T18:26:01Z" uid="8909" user="mvexel" changeset="10946570" lat="40.6222725" lon="-111.8686189"/>
  <node id="446724076" version="1" timestamp="2009-07-24T05:49:32Z" uid="110593" user="esetzer" changeset="1921498" lat="40.6221174" lon="-111.8685285">
    <tag k="created_by" v="Merkaartor 0.11"/>
  </node>
  <node id="446724076" version="2" timestamp="2012-03-11T18:26:01Z" uid="8909" user="mvexel" changeset="10946570" lat="40.6221174" lon="-111.8685285"/>
  <node id="446724077" version="1" timestamp="2009-07-24T05:49:32Z" uid="110593" user="esetzer" changeset="1921498" lat="40.6221558" lon="-111.8684254">
    <tag k="created_by" v="Merkaartor 0.11"/>
  </node>
  <node id="446724077" version="2" timestamp="2012-03-11T18:26:02Z" uid="8909" user="mvexel" changeset="10946570" lat="40.6221558" lon="-111.8684254"/>
  <node id="446724080" version="1" timestamp="2009-07-24T05:49:33Z" uid="110593" user="esetzer" changeset="1921498" lat="40.622314" lon="-111.8685147">
    <tag k="created_by" v="Merkaartor 0.11"/>
  </node>
  <node id="446724080" version="2" timestamp="2012-03-11T18:26:02Z" uid="8909" user="mvexel" changeset="10946570" lat="40.622314" lon="-111.8685147"/>
  <node id="446724363" version="1" timestamp="2009-07-24T05:50:24Z" uid="110593" user="esetzer" changeset="1921499" lat="40.6204193" lon="-111.8685743">
    <tag k="created_by" v="Merkaartor 0.11"/>
    <tag k="tourism" v="hotel"/>
  </node>
  <node id="446724363" version="2" timestamp="2009-09-03T04:22:44Z" uid="104930" user="butlerm" changeset="2355407" lat="40.6208084" lon="-111.8683551">
    <tag k="created_by" v="Merkaartor 0.11"/>
    <tag k="tourism" v="hotel"/>
  </node>
  <node id="446725112" version="1" timestamp="2009-07-24T05:53:01Z" uid="110593" user="esetzer" changeset="1921512" lat="40.6218281" lon="-111.8698447">
    <tag k="amenity" v="restaurant"/>
    <tag k="created_by" v="Merkaartor 0.11"/>
    <tag k="cuisine" v="indian"/>
  </node>
  <node id="446725113" version="1" timestamp="2009-07-24T05:53:01Z" uid="110593" user="esetzer" changeset="1921512" lat="40.6217753" lon="-111.870202">
    <tag k="amenity" v="restaurant"/>
    <tag k="created_by" v="Merkaartor 0.11"/>
    <tag k="cuisine" v="chinese"/>
  </node>
  <node id="446725114" version="1" timestamp="2009-07-24T05:53:02Z" uid="110593" user="esetzer" changeset="1921512" lat="40.6211199" lon="-111.8714626">
    <tag k="amenity" v="restaurant"/>
    <tag k="created_by" v="Merkaartor 0.11"/>
  </node>
  <node id="446725114" version="2" timestamp="2010-03-23T01:33:21Z" uid="110593" user="esetzer" changeset="4208700" lat="40.6213429" lon="-111.87176">
    <tag k="amenity" v="restaurant"/>
    <tag k="created_by" v="Merkaartor 0.11"/>
    <tag k="name" v="Epic Casual Dining"/>
  </node>
  <node id="446725138" version="1" timestamp="2009-07-24T05:53:32Z" uid="110593" user="esetzer" changeset="1921517" lat="40.6213195" lon="-111.8693633">
    <tag k="amenity" v="restaurant"/>
    <tag k="created_by" v="Merkaartor 0.11"/>
    <tag k="cuisine" v="italian"/>
  </node>
  <node id="446725138" version="2" timestamp="2009-09-03T04:23:14Z" uid="104930" user="butlerm" changeset="2355407" lat="40.6212905" lon="-111.8692305">
    <tag k="amenity" v="restaurant"/>
    <tag k="created_by" v="Merkaartor 0.11"/>
    <tag k="cuisine" v="italian"/>
  </node>
  <node id="446725288" version="1" timestamp="2009-07-24T05:54:38Z" uid="110593" user="esetzer" changeset="1921528" lat="40.621248" lon="-111.866624">
    <tag k="amenity" v="restaurant"/>
    <tag k="created_by" v="Merkaartor 0.11"/>
    <tag k="cuisine" v="steak_house"/>
    <tag k="name" v="Lone Star Steakhouse"/>
  </node>
  <node id="446725981" version="1" timestamp="2009-07-24T05:58:44Z" uid="110593" user="esetzer" changeset="1921550" lat="40.6214706" lon="-111.8672592">
    <tag k="amenity" v="fast_food"/>
    <tag k="created_by" v="Merkaartor 0.11"/>
    <tag k="cuisine" v="sandwich"/>
    <tag k="name" v="Subway"/>
  </node>
  <node id="446725982" version="1" timestamp="2009-07-24T05:58:46Z" uid="110593" user="esetzer" changeset="1921550" lat="40.6224082" lon="-111.8655211">
    <tag k="amenity" v="fast_food"/>
    <tag k="created_by" v="Merkaartor 0.11"/>
    <tag k="cuisine" v="sandwich"/>
  </node>
  <node id="446726218" version="1" timestamp="2009-07-24T05:59:55Z" uid="110593" user="esetzer" changeset="1921560" lat="40.6253681" lon="-111.8581542">
    <tag k="amenity" v="restaurant"/>
    <tag k="created_by" v="Merkaartor 0.11"/>
    <tag k="cuisine" v="barbecue"/>
    <tag k="old_name" v="JB&apos;s"/>
  </node>
  <node id="446726218" version="2" timestamp="2010-02-23T09:19:15Z" uid="110593" user="esetzer" changeset="3951364" lat="40.6253681" lon="-111.858154">
    <tag k="amenity" v="restaurant"/>
    <tag k="created_by" v="Merkaartor 0.11"/>
    <tag k="cuisine" v="barbecue"/>
    <tag k="name" v="Famous Dave&apos;s"/>
    <tag k="old_name" v="JB&apos;s"/>
  </node>
  <node id="446726218" version="3" timestamp="2012-03-11T18:25:41Z" uid="8909" user="mvexel" changeset="10946570" lat="40.6253681" lon="-111.858154"/>
  <node id="446726410" version="1" timestamp="2009-07-24T06:03:37Z" uid="110593" user="esetzer" changeset="1921577" lat="40.6166826" lon="-111.8663328">
    <tag k="amenity" v="restaurant"/>
    <tag k="created_by" v="Merkaartor 0.11"/>
    <tag k="cuisine" v="pancakes"/>
    <tag k="name" v="Belgian Waffle House and Omlet Inn"/>
    <tag k="note" v="value pancakes is by analogy to savory_pancakes"/>
  </node>
  <node id="446726410" version="2" timestamp="2010-07-18T13:01:17Z" uid="18069" user="Claudius Henrichs" changeset="5250987" lat="40.6166826" lon="-111.8663328">
    <tag k="amenity" v="restaurant"/>
    <tag k="cuisine" v="pancake"/>
    <tag k="name" v="Belgian Waffle House and Omlet Inn"/>
    <tag k="note" v="value pancakes is by analogy to savory_pancakes"/>
  </node>
  <node id="446727857" version="1" timestamp="2009-07-24T06:15:20Z" uid="110593" user="esetzer" changeset="1921645" lat="40.6196543" lon="-111.8980218">
    <tag k="created_by" v="Merkaartor 0.11"/>
  </node>
  <node id="446727857" version="2" timestamp="2009-08-16T19:41:48Z" uid="104930" user="butlerm" changeset="2170158" lat="40.6196543" lon="-111.8980218">
    <tag k="created_by" v="Merkaartor 0.11"/>
  </node>
  <node id="446727858" version="1" timestamp="2009-07-24T06:15:22Z" uid="110593" user="esetzer" changeset="1921645" lat="40.6206594" lon="-111.898068">
    <tag k="source" v="tiger_import_dch_v0.6_20070830"/>
    <tag k="tiger:county" v="Salt Lake, UT"/>
    <tag k="tiger:tlid" v="176085248:176136269"/>
    <tag k="tiger:upload_uuid" v="bulk_upload.pl-a2da7ec1-da05-434f-a535-e5cc3da32f27"/>
  </node>
  <node id="446727858" version="2" timestamp="2009-08-16T19:39:14Z" uid="104930" user="butlerm" changeset="2170158" lat="40.6206594" lon="-111.898068">
    <tag k="source" v="tiger_import_dch_v0.6_20070830"/>
    <tag k="tiger:county" v="Salt Lake, UT"/>
    <tag k="tiger:tlid" v="176085248:176136269"/>
    <tag k="tiger:upload_uuid" v="bulk_upload.pl-a2da7ec1-da05-434f-a535-e5cc3da32f27"/>
  </node>
</osm>
