<?xml version='1.0' encoding='UTF-8'?>
<osm version="0.6" generator="libosmium/2.20.0">
  <node id="447527544" version="1" timestamp="2009-07-24T20:05:02Z" uid="74617" user="JohnSmith" changeset="1928923" lat="-28.6476378" lon="153.5485234">
    <tag k="highway" v="speed_camera"/>
  </node>
  <node id="447527544" version="2" timestamp="2010-02-08T04:51:00Z" uid="230283" user="AuFCL" changeset="3820746" lat="-28.6475593" lon="153.5485624">
    <tag k="highway" v="speed_camera"/>
  </node>
  <node id="447527544" version="3" timestamp="2010-02-14T06:11:57Z" uid="230283" user="AuFCL" changeset="3870529" lat="-28.6475593" lon="153.5485624">
    <tag k="highway" v="speed_camera"/>
    <tag k="maxspeed" v="60km/h"/>
  </node>
  <node id="447527544" version="4" timestamp="2010-04-22T01:56:53Z" uid="4467" user="Rosscoe" changeset="4492133" lat="-28.6475593" lon="153.548562">
    <tag k="highway" v="speed_camera"/>
    <tag k="maxspeed" v="60"/>
  </node>
  <node id="447529611" version="2" timestamp="2010-07-28T20:10:33Z" uid="74617" user="JohnSmith" changeset="5339329" lat="44.2291486" lon="-76.5291551">
    <tag k="emergency" v="fire_hydrant"/>
    <tag k="ref" v="H761"/>
  </node>
  <node id="447529611" version="3" timestamp="2010-07-30T17:45:24Z" uid="74617" user="JohnSmith" changeset="5356742" lat="44.2291486" lon="-76.5291551">
    <tag k="amenity" v="fire_hydrant"/>
    <tag k="emergency" v="fire_hydrant"/>
    <tag k="ref" v="H761"/>
  </node>
  <node id="447529611" version="4" timestamp="2012-03-27T18:25:52Z" uid="67540" user="Cobra" changeset="11118954" lat="44.2291486" lon="-76.5291551">
    <tag k="amenity" v="fire_hydrant"/>
    <tag k="emergency" v="fire_hydrant"/>
    <tag k="odbl" v="clean"/>
    <tag k="ref" v="H761"/>
  </node>
  <node id="447529644" version="2" timestamp="2010-07-28T20:01:29Z" uid="74617" user="JohnSmith" changeset="5339329" lat="44.2300742" lon="-76.5320883">
    <tag k="emergency" v="fire_hydrant"/>
    <tag k="ref" v="H768"/>
  </node>
  <node id="447529644" version="3" timestamp="2010-07-30T17:49:22Z" uid="74617" user="JohnSmith" changeset="5356742" lat="44.2300742" lon="-76.5320883">
    <tag k="amenity" v="fire_hydrant"/>
    <tag k="emergency" v="fire_hydrant"/>
    <tag k="ref" v="H768"/>
  </node>
  <node id="447529644" version="4" timestamp="2012-03-27T18:25:52Z" uid="67540" user="Cobra" changeset="11118954" lat="44.2300742" lon="-76.5320883">
    <tag k="amenity" v="fire_hydrant"/>
    <tag k="emergency" v="fire_hydrant"/>
    <tag k="odbl" v="clean"/>
    <tag k="ref" v="H768"/>
  </node>
  <node id="447529649" version="2" timestamp="2010-07-28T20:01:56Z" uid="74617" user="JohnSmith" changeset="5339329" lat="44.2296912" lon="-76.5309771">
    <tag k="emergency" v="fire_hydrant"/>
    <tag k="ref" v="H767"/>
  </node>
  <node id="447529649" version="3" timestamp="2010-07-30T17:39:11Z" uid="74617" user="JohnSmith" changeset="5356742" lat="44.2296912" lon="-76.5309771">
    <tag k="amenity" v="fire_hydrant"/>
    <tag k="emergency" v="fire_hydrant"/>
    <tag k="ref" v="H767"/>
  </node>
  <node id="447529649" version="4" timestamp="2012-03-27T18:25:52Z" uid="67540" user="Cobra" changeset="11118954" lat="44.2296912" lon="-76.5309771">
    <tag k="amenity" v="fire_hydrant"/>
    <tag k="emergency" v="fire_hydrant"/>
    <tag k="odbl" v="clean"/>
    <tag k="ref" v="H767"/>
  </node>
  <node id="447529696" version="2" timestamp="2010-07-28T20:09:21Z" uid="74617" user="JohnSmith" changeset="5339329" lat="44.2322865" lon="-76.5341645">
    <tag k="emergency" v="fire_hydrant"/>
    <tag k="ref" v="H777"/>
  </node>
  <node id="447529696" version="3" timestamp="2010-07-30T17:38:52Z" uid="74617" user="JohnSmith" changeset="5356742" lat="44.2322865" lon="-76.5341645">
    <tag k="amenity" v="fire_hydrant"/>
    <tag k="emergency" v="fire_hydrant"/>
    <tag k="ref" v="H777"/>
  </node>
  <node id="447529696" version="4" timestamp="2012-03-27T18:25:52Z" uid="67540" user="Cobra" changeset="11118954" lat="44.2322865" lon="-76.5341645">
    <tag k="amenity" v="fire_hydrant"/>
    <tag k="emergency" v="fire_hydrant"/>
    <tag k="odbl" v="clean"/>
    <tag k="ref" v="H777"/>
  </node>
  <node id="447529702" version="2" timestamp="2010-07-28T20:05:34Z" uid="74617" user="JohnSmith" changeset="5339329" lat="44.2322979" lon="-76.5329233">
    <tag k="emergency" v="fire_hydrant"/>
    <tag k="ref" v="H778"/>
  </node>
  <node id="447529702" version="3" timestamp="2010-07-30T17:48:24Z" uid="74617" user="JohnSmith" changeset="5356742" lat="44.2322979" lon="-76.5329233">
    <tag k="amenity" v="fire_hydrant"/>
    <tag k="emergency" v="fire_hydrant"/>
    <tag k="ref" v="H778"/>
  </node>
  <node id="447529702" version="4" timestamp="2012-03-27T18:25:53Z" uid="67540" user="Cobra" changeset="11118954" lat="44.2322979" lon="-76.5329233">
    <tag k="amenity" v="fire_hydrant"/>
    <tag k="emergency" v="fire_hydrant"/>
    <tag k="odbl" v="clean"/>
    <tag k="ref" v="H778"/>
  </node>
  <node id="447529707" version="2" timestamp="2010-07-28T20:05:54Z" uid="74617" user="JohnSmith" changeset="5339329" lat="44.2332991" lon="-76.5339886">
    <tag k="emergency" v="fire_hydrant"/>
    <tag k="ref" v="H776"/>
  </node>
  <node id="447529707" version="3" timestamp="2010-07-30T17:50:06Z" uid="74617" user="JohnSmith" changeset="5356742" lat="44.2332991" lon="-76.5339886">
    <tag k="amenity" v="fire_hydrant"/>
    <tag k="emergency" v="fire_hydrant"/>
    <tag k="ref" v="H776"/>
  </node>
  <node id="447529707" version="4" timestamp="2012-03-27T18:25:53Z" uid="67540" user="Cobra" changeset="11118954" lat="44.2332991" lon="-76.5339886">
    <tag k="amenity" v="fire_hydrant"/>
    <tag k="emergency" v="fire_hydrant"/>
    <tag k="odbl" v="clean"/>
    <tag k="ref" v="H776"/>
  </node>
  <node id="447529715" version="2" timestamp="2010-07-28T20:07:07Z" uid="74617" user="JohnSmith" changeset="5339329" lat="44.2335398" lon="-76.5328423">
    <tag k="emergency" v="fire_hydrant"/>
    <tag k="ref" v="H779"/>
  </node>
  <node id="447529715" version="3" timestamp="2010-07-30T17:39:22Z" uid="74617" user="JohnSmith" changeset="5356742" lat="44.2335398" lon="-76.5328423">
    <tag k="amenity" v="fire_hydrant"/>
    <tag k="emergency" v="fire_hydrant"/>
    <tag k="ref" v="H779"/>
  </node>
  <node id="447529715" version="4" timestamp="2012-03-27T18:25:53Z" uid="67540" user="Cobra" changeset="11118954" lat="44.2335398" lon="-76.5328423">
    <tag k="amenity" v="fire_hydrant"/>
    <tag k="emergency" v="fire_hydrant"/>
    <tag k="odbl" v="clean"/>
    <tag k="ref" v="H779"/>
  </node>
  <node id="447529799" version="2" timestamp="2010-07-28T20:02:15Z" uid="74617" user="JohnSmith" changeset="5339329" lat="44.2338244" lon="-76.5348543">
    <tag k="emergency" v="fire_hydrant"/>
    <tag k="ref" v="H775"/>
  </node>
  <node id="447529799" version="3" timestamp="2010-07-30T17:39:39Z" uid="74617" user="JohnSmith" changeset="5356742" lat="44.2338244" lon="-76.5348543">
    <tag k="amenity" v="fire_hydrant"/>
    <tag k="emergency" v="fire_hydrant"/>
    <tag k="ref" v="H775"/>
  </node>
  <node id="447529799" version="4" timestamp="2012-03-27T18:25:53Z" uid="67540" user="Cobra" changeset="11118954" lat="44.2338244" lon="-76.5348543">
    <tag k="amenity" v="fire_hydrant"/>
    <tag k="emergency" v="fire_hydrant"/>
    <tag k="odbl" v="clean"/>
    <tag k="ref" v="H775"/>
  </node>
  <node id="447529803" version="2" timestamp="2010-07-28T20:09:48Z" uid="74617" user="JohnSmith" changeset="5339329" lat="44.2300022" lon="-76.5343997">
    <tag k="emergency" v="fire_hydrant"/>
    <tag k="ref" v="H771"/>
  </node>
  <node id="447529803" version="3" timestamp="2010-07-30T17:46:04Z" uid="74617" user="JohnSmith" changeset="5356742" lat="44.2300022" lon="-76.5343997">
    <tag k="amenity" v="fire_hydrant"/>
    <tag k="emergency" v="fire_hydrant"/>
    <tag k="ref" v="H771"/>
  </node>
  <node id="447529803" version="4" timestamp="2012-03-27T18:25:54Z" uid="67540" user="Cobra" changeset="11118954" lat="44.2300022" lon="-76.5343997">
    <tag k="amenity" v="fire_hydrant"/>
    <tag k="emergency" v="fire_hydrant"/>
    <tag k="odbl" v="clean"/>
    <tag k="ref" v="H771"/>
  </node>
  <node id="447529808" version="2" timestamp="2010-07-28T20:04:01Z" uid="74617" user="JohnSmith" changeset="5339329" lat="44.2311154" lon="-76.5328028">
    <tag k="emergency" v="fire_hydrant"/>
    <tag k="ref" v="H769N"/>
  </node>
  <node id="447529808" version="3" timestamp="2010-07-30T17:49:26Z" uid="74617" user="JohnSmith" changeset="5356742" lat="44.2311154" lon="-76.5328028">
    <tag k="amenity" v="fire_hydrant"/>
    <tag k="emergency" v="fire_hydrant"/>
    <tag k="ref" v="H769N"/>
  </node>
  <node id="447529808" version="4" timestamp="2012-03-27T18:25:54Z" uid="67540" user="Cobra" changeset="11118954" lat="44.2311154" lon="-76.5328028">
    <tag k="amenity" v="fire_hydrant"/>
    <tag k="emergency" v="fire_hydrant"/>
    <tag k="odbl" v="clean"/>
    <tag k="ref" v="H769N"/>
  </node>
  <node id="447529813" version="2" timestamp="2010-07-28T20:01:51Z" uid="74617" user="JohnSmith" changeset="5339329" lat="44.2355407" lon="-76.5342258">
    <tag k="colour" v="yellow"/>
    <tag k="emergency" v="fire_hydrant"/>
    <tag k="note" v="away"/>
    <tag k="ref" v="H781"/>
    <tag k="trim" v="blue"/>
  </node>
  <node id="447529813" version="3" timestamp="2010-07-30T17:39:18Z" uid="74617" user="JohnSmith" changeset="5356742" lat="44.2355407" lon="-76.5342258">
    <tag k="amenity" v="fire_hydrant"/>
    <tag k="colour" v="yellow"/>
    <tag k="emergency" v="fire_hydrant"/>
    <tag k="note" v="away"/>
    <tag k="ref" v="H781"/>
    <tag k="trim" v="blue"/>
  </node>
  <node id="447529813" version="4" timestamp="2012-03-27T18:25:54Z" uid="67540" user="Cobra" changeset="11118954" lat="44.2355407" lon="-76.5342258">
    <tag k="amenity" v="fire_hydrant"/>
    <tag k="colour" v="yellow"/>
    <tag k="emergency" v="fire_hydrant"/>
    <tag k="note" v="away"/>
    <tag k="odbl" v="clean"/>
    <tag k="ref" v="H781"/>
    <tag k="trim" v="blue"/>
  </node>
</osm>
