<?xml version='1.0' encoding='UTF-8'?>
<osm version="0.6" generator="libosmium/2.20.0">
  <node id="449132046" version="2" timestamp="2010-04-26T19:01:22Z" uid="9581" user="Lobelt" changeset="4534816" lat="49.6457108" lon="9.2198264"/>
  <node id="449134783" version="1" timestamp="2009-07-27T17:19:52Z" uid="9581" user="Lobelt" changeset="1957578" lat="49.4367293" lon="8.5659688">
    <tag k="power" v="tower"/>
  </node>
  <node id="449134783" version="2" timestamp="2010-05-28T00:29:24Z" uid="13203" user="bahnpirat" changeset="4827053" lat="49.4367293" lon="8.5659688">
    <tag k="power" v="tower"/>
    <tag k="ref" v="3196"/>
    <tag k="source" v="extrapolation"/>
  </node>
  <node id="449134783" version="3" timestamp="2010-05-28T00:59:17Z" uid="13203" user="bahnpirat" changeset="4827053" lat="49.4367293" lon="8.5659688">
    <tag k="power" v="tower"/>
    <tag k="ref" v="3359"/>
    <tag k="source" v="extrapolation"/>
  </node>
  <node id="449134783" version="4" timestamp="2012-01-11T15:32:52Z" uid="131968" user="changchun_1" changeset="10361419" lat="49.4367293" lon="8.5659688"/>
  <node id="449134785" version="1" timestamp="2009-07-27T17:19:52Z" uid="9581" user="Lobelt" changeset="1957578" lat="49.4338877" lon="8.5675232">
    <tag k="power" v="tower"/>
  </node>
  <node id="449134785" version="2" timestamp="2010-05-28T00:29:24Z" uid="13203" user="bahnpirat" changeset="4827053" lat="49.4338877" lon="8.5675232">
    <tag k="fixme" v="Nummer prüfen und mit source=survey bestätigen/korrigieren"/>
    <tag k="power" v="tower"/>
    <tag k="ref" v="3197"/>
    <tag k="source" v="extrapolation"/>
  </node>
  <node id="449134785" version="3" timestamp="2010-05-28T00:59:17Z" uid="13203" user="bahnpirat" changeset="4827053" lat="49.4338877" lon="8.5675232">
    <tag k="fixme" v="Nummer (ref) prüfen und mit source=survey bestätigen/korrigieren"/>
    <tag k="power" v="tower"/>
    <tag k="ref" v="3358"/>
    <tag k="source" v="extrapolation"/>
  </node>
  <node id="449134785" version="4" timestamp="2012-01-11T15:32:52Z" uid="131968" user="changchun_1" changeset="10361419" lat="49.4338877" lon="8.5675232"/>
  <node id="449134788" version="1" timestamp="2009-07-27T17:19:52Z" uid="9581" user="Lobelt" changeset="1957578" lat="49.4322057" lon="8.5679052">
    <tag k="power" v="tower"/>
  </node>
  <node id="449134788" version="2" timestamp="2010-05-28T00:29:24Z" uid="13203" user="bahnpirat" changeset="4827053" lat="49.4322057" lon="8.5679052">
    <tag k="fixme" v="Nummer prüfen und mit source=survey bestätigen/korrigieren"/>
    <tag k="power" v="tower"/>
    <tag k="ref" v="3198"/>
    <tag k="source" v="extrapolation"/>
  </node>
  <node id="449134788" version="3" timestamp="2010-05-28T00:59:17Z" uid="13203" user="bahnpirat" changeset="4827053" lat="49.4322057" lon="8.5679052">
    <tag k="fixme" v="Nummer (ref) prüfen und mit source=survey bestätigen/korrigieren"/>
    <tag k="power" v="tower"/>
    <tag k="ref" v="3357"/>
    <tag k="source" v="extrapolation"/>
  </node>
  <node id="449134788" version="4" timestamp="2012-01-11T15:32:53Z" uid="131968" user="changchun_1" changeset="10361419" lat="49.4322057" lon="8.5679052"/>
  <node id="449134792" version="1" timestamp="2009-07-27T17:19:52Z" uid="9581" user="Lobelt" changeset="1957578" lat="49.4296866" lon="8.5684773">
    <tag k="power" v="tower"/>
  </node>
  <node id="449134792" version="2" timestamp="2010-05-28T00:29:24Z" uid="13203" user="bahnpirat" changeset="4827053" lat="49.4296866" lon="8.5684773">
    <tag k="power" v="tower"/>
    <tag k="ref" v="3199"/>
    <tag k="source" v="extrapolation"/>
  </node>
  <node id="449134792" version="3" timestamp="2010-05-28T00:59:17Z" uid="13203" user="bahnpirat" changeset="4827053" lat="49.4296866" lon="8.5684773">
    <tag k="power" v="tower"/>
    <tag k="ref" v="3356"/>
    <tag k="source" v="extrapolation"/>
  </node>
  <node id="449134792" version="4" timestamp="2012-01-11T15:32:53Z" uid="131968" user="changchun_1" changeset="10361419" lat="49.4296866" lon="8.5684773"/>
  <node id="449134797" version="1" timestamp="2009-07-27T17:19:52Z" uid="9581" user="Lobelt" changeset="1957578" lat="49.4272565" lon="8.5690083">
    <tag k="power" v="tower"/>
  </node>
  <node id="449134797" version="2" timestamp="2010-05-28T00:29:24Z" uid="13203" user="bahnpirat" changeset="4827053" lat="49.4272565" lon="8.5690083">
    <tag k="power" v="tower"/>
    <tag k="ref" v="3200"/>
    <tag k="source" v="extrapolation"/>
  </node>
  <node id="449134797" version="3" timestamp="2010-05-28T00:59:17Z" uid="13203" user="bahnpirat" changeset="4827053" lat="49.4272565" lon="8.5690083">
    <tag k="power" v="tower"/>
    <tag k="ref" v="3355"/>
    <tag k="source" v="extrapolation"/>
  </node>
  <node id="449134797" version="4" timestamp="2012-01-11T15:32:53Z" uid="131968" user="changchun_1" changeset="10361419" lat="49.4272565" lon="8.5690083"/>
  <node id="449134802" version="1" timestamp="2009-07-27T17:19:52Z" uid="9581" user="Lobelt" changeset="1957578" lat="49.426992" lon="8.5738209">
    <tag k="power" v="tower"/>
  </node>
  <node id="449134802" version="2" timestamp="2010-05-28T00:29:25Z" uid="13203" user="bahnpirat" changeset="4827053" lat="49.426992" lon="8.5738209">
    <tag k="power" v="tower"/>
    <tag k="ref" v="3201"/>
    <tag k="source" v="extrapolation"/>
  </node>
  <node id="449134802" version="3" timestamp="2010-05-28T00:59:18Z" uid="13203" user="bahnpirat" changeset="4827053" lat="49.426992" lon="8.5738209">
    <tag k="power" v="tower"/>
    <tag k="ref" v="3354"/>
    <tag k="source" v="extrapolation"/>
  </node>
  <node id="449134802" version="4" timestamp="2012-01-11T15:32:53Z" uid="131968" user="changchun_1" changeset="10361419" lat="49.426992" lon="8.5738209"/>
  <node id="449134804" version="1" timestamp="2009-07-27T17:19:52Z" uid="9581" user="Lobelt" changeset="1957578" lat="49.4267485" lon="8.5785841">
    <tag k="power" v="tower"/>
  </node>
  <node id="449134804" version="2" timestamp="2010-05-28T00:29:25Z" uid="13203" user="bahnpirat" changeset="4827053" lat="49.4267485" lon="8.5785841">
    <tag k="power" v="tower"/>
    <tag k="ref" v="3202"/>
    <tag k="source" v="extrapolation"/>
  </node>
  <node id="449134804" version="3" timestamp="2010-05-28T00:59:18Z" uid="13203" user="bahnpirat" changeset="4827053" lat="49.4267485" lon="8.5785841">
    <tag k="power" v="tower"/>
    <tag k="ref" v="3353"/>
    <tag k="source" v="extrapolation"/>
  </node>
  <node id="449134804" version="4" timestamp="2012-01-11T15:32:53Z" uid="131968" user="changchun_1" changeset="10361419" lat="49.4267485" lon="8.5785841"/>
  <node id="449134807" version="1" timestamp="2009-07-27T17:19:52Z" uid="9581" user="Lobelt" changeset="1957578" lat="49.4243974" lon="8.5812026">
    <tag k="power" v="tower"/>
  </node>
  <node id="449134807" version="2" timestamp="2010-05-28T00:29:25Z" uid="13203" user="bahnpirat" changeset="4827053" lat="49.4243974" lon="8.5812026">
    <tag k="power" v="tower"/>
    <tag k="ref" v="3203"/>
    <tag k="source" v="extrapolation"/>
  </node>
  <node id="449134807" version="3" timestamp="2010-05-28T00:59:18Z" uid="13203" user="bahnpirat" changeset="4827053" lat="49.4243974" lon="8.5812026">
    <tag k="power" v="tower"/>
    <tag k="ref" v="3352"/>
    <tag k="source" v="extrapolation"/>
  </node>
  <node id="449134807" version="4" timestamp="2012-01-11T15:32:53Z" uid="131968" user="changchun_1" changeset="10361419" lat="49.4243974" lon="8.5812026"/>
  <node id="449134811" version="1" timestamp="2009-07-27T17:19:52Z" uid="9581" user="Lobelt" changeset="1957578" lat="49.4193133" lon="8.5868276">
    <tag k="power" v="tower"/>
  </node>
  <node id="449134811" version="2" timestamp="2010-05-28T00:29:25Z" uid="13203" user="bahnpirat" changeset="4827053" lat="49.4193133" lon="8.5868276">
    <tag k="power" v="tower"/>
    <tag k="ref" v="3205"/>
    <tag k="source" v="extrapolation"/>
  </node>
  <node id="449134811" version="3" timestamp="2010-05-28T00:59:18Z" uid="13203" user="bahnpirat" changeset="4827053" lat="49.4193133" lon="8.5868276">
    <tag k="power" v="tower"/>
    <tag k="ref" v="3350"/>
    <tag k="source" v="extrapolation"/>
  </node>
  <node id="449134811" version="4" timestamp="2012-01-11T15:32:53Z" uid="131968" user="changchun_1" changeset="10361419" lat="49.4193133" lon="8.5868276"/>
  <node id="449134814" version="1" timestamp="2009-07-27T17:19:52Z" uid="9581" user="Lobelt" changeset="1957578" lat="49.417097" lon="8.5892504">
    <tag k="power" v="tower"/>
  </node>
  <node id="449134814" version="2" timestamp="2010-05-28T00:29:25Z" uid="13203" user="bahnpirat" changeset="4827053" lat="49.417097" lon="8.5892504">
    <tag k="power" v="tower"/>
    <tag k="ref" v="3206"/>
    <tag k="source" v="extrapolation"/>
  </node>
  <node id="449134814" version="3" timestamp="2010-05-28T00:59:18Z" uid="13203" user="bahnpirat" changeset="4827053" lat="49.417097" lon="8.5892504">
    <tag k="power" v="tower"/>
    <tag k="ref" v="3349"/>
    <tag k="source" v="extrapolation"/>
  </node>
  <node id="449134814" version="4" timestamp="2012-01-11T15:32:53Z" uid="131968" user="changchun_1" changeset="10361419" lat="49.417097" lon="8.5892504"/>
  <node id="449134819" version="1" timestamp="2009-07-27T17:19:53Z" uid="9581" user="Lobelt" changeset="1957578" lat="49.4151248" lon="8.5914905">
    <tag k="power" v="tower"/>
  </node>
  <node id="449134819" version="2" timestamp="2010-05-28T00:29:25Z" uid="13203" user="bahnpirat" changeset="4827053" lat="49.4151248" lon="8.5914905">
    <tag k="power" v="tower"/>
    <tag k="ref" v="3207"/>
    <tag k="source" v="extrapolation"/>
  </node>
  <node id="449134819" version="3" timestamp="2010-05-28T00:59:18Z" uid="13203" user="bahnpirat" changeset="4827053" lat="49.4151248" lon="8.5914905">
    <tag k="power" v="tower"/>
    <tag k="ref" v="3348"/>
    <tag k="source" v="extrapolation"/>
  </node>
  <node id="449134819" version="4" timestamp="2012-01-11T15:32:53Z" uid="131968" user="changchun_1" changeset="10361419" lat="49.4151248" lon="8.5914905"/>
  <node id="449134823" version="1" timestamp="2009-07-27T17:19:53Z" uid="9581" user="Lobelt" changeset="1957578" lat="49.4132661" lon="8.5934976">
    <tag k="power" v="tower"/>
  </node>
  <node id="449134823" version="2" timestamp="2010-05-28T00:29:25Z" uid="13203" user="bahnpirat" changeset="4827053" lat="49.4132661" lon="8.5934976">
    <tag k="power" v="tower"/>
    <tag k="ref" v="3208"/>
    <tag k="source" v="extrapolation"/>
  </node>
  <node id="449134823" version="3" timestamp="2010-05-28T00:59:18Z" uid="13203" user="bahnpirat" changeset="4827053" lat="49.4132661" lon="8.5934976">
    <tag k="power" v="tower"/>
    <tag k="ref" v="3347"/>
    <tag k="source" v="extrapolation"/>
  </node>
  <node id="449134823" version="4" timestamp="2012-01-11T15:32:53Z" uid="131968" user="changchun_1" changeset="10361419" lat="49.4132661" lon="8.5934976"/>
  <node id="449134828" version="1" timestamp="2009-07-27T17:19:53Z" uid="9581" user="Lobelt" changeset="1957578" lat="49.4108964" lon="8.5962085">
    <tag k="power" v="tower"/>
  </node>
  <node id="449134828" version="2" timestamp="2010-05-28T00:29:25Z" uid="13203" user="bahnpirat" changeset="4827053" lat="49.4108964" lon="8.5962085">
    <tag k="power" v="tower"/>
    <tag k="ref" v="3209"/>
    <tag k="source" v="extrapolation"/>
  </node>
  <node id="449134828" version="3" timestamp="2010-05-28T00:59:18Z" uid="13203" user="bahnpirat" changeset="4827053" lat="49.4108964" lon="8.5962085">
    <tag k="power" v="tower"/>
    <tag k="ref" v="3346"/>
    <tag k="source" v="extrapolation"/>
  </node>
  <node id="449134828" version="4" timestamp="2012-01-11T15:32:53Z" uid="131968" user="changchun_1" changeset="10361419" lat="49.4108964" lon="8.5962085"/>
  <node id="449134832" version="1" timestamp="2009-07-27T17:19:53Z" uid="9581" user="Lobelt" changeset="1957578" lat="49.4086507" lon="8.5986834">
    <tag k="power" v="tower"/>
  </node>
  <node id="449134832" version="2" timestamp="2010-05-28T00:29:25Z" uid="13203" user="bahnpirat" changeset="4827053" lat="49.4086507" lon="8.5986834">
    <tag k="power" v="tower"/>
    <tag k="ref" v="3210"/>
    <tag k="source" v="extrapolation"/>
  </node>
  <node id="449134832" version="3" timestamp="2010-05-28T00:59:19Z" uid="13203" user="bahnpirat" changeset="4827053" lat="49.4086507" lon="8.5986834">
    <tag k="power" v="tower"/>
    <tag k="ref" v="3345"/>
    <tag k="source" v="extrapolation"/>
  </node>
  <node id="449134832" version="4" timestamp="2012-01-11T15:32:53Z" uid="131968" user="changchun_1" changeset="10361419" lat="49.4086507" lon="8.5986834"/>
  <node id="449134835" version="1" timestamp="2009-07-27T17:19:53Z" uid="9581" user="Lobelt" changeset="1957578" lat="49.4064164" lon="8.6011574">
    <tag k="power" v="tower"/>
  </node>
  <node id="449134835" version="2" timestamp="2010-05-28T00:29:26Z" uid="13203" user="bahnpirat" changeset="4827053" lat="49.4064164" lon="8.6011574">
    <tag k="power" v="tower"/>
    <tag k="ref" v="3211"/>
    <tag k="source" v="extrapolation"/>
  </node>
  <node id="449134835" version="3" timestamp="2010-05-28T00:59:19Z" uid="13203" user="bahnpirat" changeset="4827053" lat="49.4064164" lon="8.6011574">
    <tag k="power" v="tower"/>
    <tag k="ref" v="3344"/>
    <tag k="source" v="extrapolation"/>
  </node>
  <node id="449134835" version="4" timestamp="2012-01-11T15:32:54Z" uid="131968" user="changchun_1" changeset="10361419" lat="49.4064164" lon="8.6011574"/>
  <node id="449134838" version="1" timestamp="2009-07-27T17:19:53Z" uid="9581" user="Lobelt" changeset="1957578" lat="49.4038227" lon="8.6040195">
    <tag k="power" v="tower"/>
  </node>
  <node id="449134838" version="2" timestamp="2010-05-28T00:29:26Z" uid="13203" user="bahnpirat" changeset="4827053" lat="49.4038227" lon="8.6040195">
    <tag k="power" v="tower"/>
    <tag k="ref" v="3212"/>
    <tag k="source" v="extrapolation"/>
  </node>
  <node id="449134838" version="3" timestamp="2010-05-28T00:59:19Z" uid="13203" user="bahnpirat" changeset="4827053" lat="49.4038227" lon="8.6040195">
    <tag k="power" v="tower"/>
    <tag k="ref" v="3343"/>
    <tag k="source" v="extrapolation"/>
  </node>
  <node id="449134838" version="4" timestamp="2012-01-11T15:32:54Z" uid="131968" user="changchun_1" changeset="10361419" lat="49.4038227" lon="8.6040195"/>
  <node id="449134840" version="1" timestamp="2009-07-27T17:19:53Z" uid="9581" user="Lobelt" changeset="1957578" lat="49.4015081" lon="8.6065923">
    <tag k="power" v="tower"/>
  </node>
  <node id="449134840" version="2" timestamp="2010-05-28T00:29:26Z" uid="13203" user="bahnpirat" changeset="4827053" lat="49.4015081" lon="8.6065923">
    <tag k="power" v="tower"/>
    <tag k="ref" v="3213"/>
    <tag k="source" v="extrapolation"/>
  </node>
  <node id="449134840" version="3" timestamp="2010-05-28T00:59:19Z" uid="13203" user="bahnpirat" changeset="4827053" lat="49.4015081" lon="8.6065923">
    <tag k="power" v="tower"/>
    <tag k="ref" v="3342"/>
    <tag k="source" v="extrapolation"/>
  </node>
  <node id="449134840" version="4" timestamp="2012-01-11T15:32:54Z" uid="131968" user="changchun_1" changeset="10361419" lat="49.4015081" lon="8.6065923"/>
  <node id="449134843" version="1" timestamp="2009-07-27T17:19:53Z" uid="9581" user="Lobelt" changeset="1957578" lat="49.3988106" lon="8.6069687">
    <tag k="power" v="tower"/>
  </node>
  <node id="449134843" version="2" timestamp="2010-05-28T00:29:26Z" uid="13203" user="bahnpirat" changeset="4827053" lat="49.3988106" lon="8.6069687">
    <tag k="power" v="tower"/>
    <tag k="ref" v="3214"/>
    <tag k="source" v="extrapolation"/>
  </node>
  <node id="449134843" version="3" timestamp="2010-05-28T00:59:19Z" uid="13203" user="bahnpirat" changeset="4827053" lat="49.3988106" lon="8.6069687">
    <tag k="power" v="tower"/>
    <tag k="ref" v="3341"/>
    <tag k="source" v="extrapolation"/>
  </node>
  <node id="449134843" version="4" timestamp="2012-01-11T15:32:54Z" uid="131968" user="changchun_1" changeset="10361419" lat="49.3988106" lon="8.6069687"/>
  <node id="449134846" version="1" timestamp="2009-07-27T17:19:53Z" uid="9581" user="Lobelt" changeset="1957578" lat="49.396178" lon="8.607326">
    <tag k="power" v="tower"/>
  </node>
  <node id="449134846" version="2" timestamp="2010-05-28T00:29:26Z" uid="13203" user="bahnpirat" changeset="4827053" lat="49.396178" lon="8.607326">
    <tag k="power" v="tower"/>
    <tag k="ref" v="3215"/>
    <tag k="source" v="extrapolation"/>
  </node>
  <node id="449134846" version="3" timestamp="2010-05-28T00:59:19Z" uid="13203" user="bahnpirat" changeset="4827053" lat="49.396178" lon="8.607326">
    <tag k="power" v="tower"/>
    <tag k="ref" v="3340"/>
    <tag k="source" v="extrapolation"/>
  </node>
  <node id="449134846" version="4" timestamp="2012-01-11T15:32:54Z" uid="131968" user="changchun_1" changeset="10361419" lat="49.396178" lon="8.607326"/>
  <node id="449134848" version="1" timestamp="2009-07-27T17:19:53Z" uid="9581" user="Lobelt" changeset="1957578" lat="49.3937394" lon="8.6076285">
    <tag k="power" v="tower"/>
  </node>
  <node id="449134848" version="2" timestamp="2010-05-28T00:29:26Z" uid="13203" user="bahnpirat" changeset="4827053" lat="49.3937394" lon="8.6076285">
    <tag k="power" v="tower"/>
    <tag k="ref" v="3216"/>
    <tag k="source" v="extrapolation"/>
  </node>
  <node id="449134848" version="3" timestamp="2010-05-28T00:59:19Z" uid="13203" user="bahnpirat" changeset="4827053" lat="49.3937394" lon="8.6076285">
    <tag k="power" v="tower"/>
    <tag k="ref" v="3339"/>
    <tag k="source" v="extrapolation"/>
  </node>
  <node id="449134848" version="4" timestamp="2012-01-11T15:32:54Z" uid="131968" user="changchun_1" changeset="10361419" lat="49.3937394" lon="8.6076285"/>
  <node id="449134851" version="1" timestamp="2009-07-27T17:19:53Z" uid="9581" user="Lobelt" changeset="1957578" lat="49.391385" lon="8.6079518">
    <tag k="power" v="tower"/>
  </node>
  <node id="449134851" version="2" timestamp="2010-05-28T00:29:26Z" uid="13203" user="bahnpirat" changeset="4827053" lat="49.391385" lon="8.6079518">
    <tag k="power" v="tower"/>
    <tag k="ref" v="3217"/>
    <tag k="source" v="extrapolation"/>
  </node>
  <node id="449134851" version="3" timestamp="2010-05-28T00:59:19Z" uid="13203" user="bahnpirat" changeset="4827053" lat="49.391385" lon="8.6079518">
    <tag k="power" v="tower"/>
    <tag k="ref" v="3338"/>
    <tag k="source" v="extrapolation"/>
  </node>
  <node id="449134851" version="4" timestamp="2012-01-11T15:32:54Z" uid="131968" user="changchun_1" changeset="10361419" lat="49.391385" lon="8.6079518"/>
  <node id="449134854" version="1" timestamp="2009-07-27T17:19:53Z" uid="9581" user="Lobelt" changeset="1957578" lat="49.3884441" lon="8.6083624">
    <tag k="power" v="tower"/>
  </node>
  <node id="449134854" version="2" timestamp="2010-05-28T00:29:26Z" uid="13203" user="bahnpirat" changeset="4827053" lat="49.3884441" lon="8.6083624">
    <tag k="power" v="tower"/>
    <tag k="ref" v="3218"/>
    <tag k="source" v="extrapolation"/>
  </node>
  <node id="449134854" version="3" timestamp="2010-05-28T00:59:19Z" uid="13203" user="bahnpirat" changeset="4827053" lat="49.3884441" lon="8.6083624">
    <tag k="power" v="tower"/>
    <tag k="ref" v="3337"/>
    <tag k="source" v="extrapolation"/>
  </node>
  <node id="449134854" version="4" timestamp="2012-01-11T15:32:54Z" uid="131968" user="changchun_1" changeset="10361419" lat="49.3884441" lon="8.6083624"/>
  <node id="449134857" version="1" timestamp="2009-07-27T17:19:53Z" uid="9581" user="Lobelt" changeset="1957578" lat="49.3856523" lon="8.6078759">
    <tag k="power" v="tower"/>
  </node>
  <node id="449134857" version="2" timestamp="2009-12-18T15:34:15Z" uid="6893" user="[HEK]the_other" changeset="3401263" lat="49.3855244" lon="8.6078127">
    <tag k="power" v="tower"/>
  </node>
  <node id="449134857" version="3" timestamp="2010-05-28T00:29:26Z" uid="13203" user="bahnpirat" changeset="4827053" lat="49.3855244" lon="8.6078127">
    <tag k="power" v="tower"/>
    <tag k="ref" v="3219"/>
    <tag k="source" v="extrapolation"/>
  </node>
  <node id="449134857" version="4" timestamp="2010-05-28T00:59:19Z" uid="13203" user="bahnpirat" changeset="4827053" lat="49.3855244" lon="8.6078127">
    <tag k="power" v="tower"/>
    <tag k="ref" v="3336"/>
    <tag k="source" v="extrapolation"/>
  </node>
  <node id="449134857" version="5" timestamp="2012-01-11T15:32:54Z" uid="131968" user="changchun_1" changeset="10361419" lat="49.3855244" lon="8.6078127"/>
  <node id="449134859" version="1" timestamp="2009-07-27T17:19:53Z" uid="9581" user="Lobelt" changeset="1957578" lat="49.3822272" lon="8.6071378">
    <tag k="power" v="tower"/>
  </node>
  <node id="449134859" version="2" timestamp="2010-05-28T00:29:26Z" uid="13203" user="bahnpirat" changeset="4827053" lat="49.3822272" lon="8.6071378">
    <tag k="power" v="tower"/>
    <tag k="ref" v="3220"/>
    <tag k="source" v="extrapolation"/>
  </node>
  <node id="449134859" version="3" timestamp="2010-05-28T00:59:19Z" uid="13203" user="bahnpirat" changeset="4827053" lat="49.3822272" lon="8.6071378">
    <tag k="power" v="tower"/>
    <tag k="ref" v="3335"/>
    <tag k="source" v="extrapolation"/>
  </node>
  <node id="449134859" version="4" timestamp="2012-01-11T15:32:54Z" uid="131968" user="changchun_1" changeset="10361419" lat="49.3822272" lon="8.6071378"/>
  <node id="449134862" version="1" timestamp="2009-07-27T17:19:54Z" uid="9581" user="Lobelt" changeset="1957578" lat="49.3791897" lon="8.6065566">
    <tag k="power" v="tower"/>
  </node>
  <node id="449134862" version="2" timestamp="2010-05-28T00:29:26Z" uid="13203" user="bahnpirat" changeset="4827053" lat="49.3791897" lon="8.6065566">
    <tag k="power" v="tower"/>
    <tag k="ref" v="3221"/>
    <tag k="source" v="extrapolation"/>
  </node>
  <node id="449134862" version="3" timestamp="2010-05-28T00:59:19Z" uid="13203" user="bahnpirat" changeset="4827053" lat="49.3791897" lon="8.6065566">
    <tag k="power" v="tower"/>
    <tag k="ref" v="3334"/>
    <tag k="source" v="extrapolation"/>
  </node>
  <node id="449134862" version="4" timestamp="2012-01-11T15:32:54Z" uid="131968" user="changchun_1" changeset="10361419" lat="49.3791897" lon="8.6065566"/>
  <node id="449134864" version="1" timestamp="2009-07-27T17:19:54Z" uid="9581" user="Lobelt" changeset="1957578" lat="49.3762684" lon="8.6059543">
    <tag k="power" v="tower"/>
  </node>
  <node id="449134864" version="2" timestamp="2010-05-28T00:29:27Z" uid="13203" user="bahnpirat" changeset="4827053" lat="49.3762684" lon="8.6059543">
    <tag k="power" v="tower"/>
    <tag k="ref" v="3222"/>
    <tag k="source" v="extrapolation"/>
  </node>
  <node id="449134864" version="3" timestamp="2010-05-28T00:59:20Z" uid="13203" user="bahnpirat" changeset="4827053" lat="49.3762684" lon="8.6059543">
    <tag k="power" v="tower"/>
    <tag k="ref" v="3333"/>
    <tag k="source" v="extrapolation"/>
  </node>
  <node id="449134864" version="4" timestamp="2012-01-11T15:32:54Z" uid="131968" user="changchun_1" changeset="10361419" lat="49.3762684" lon="8.6059543"/>
  <node id="449134867" version="1" timestamp="2009-07-27T17:19:54Z" uid="9581" user="Lobelt" changeset="1957578" lat="49.3733172" lon="8.6054161">
    <tag k="power" v="tower"/>
  </node>
  <node id="449134867" version="2" timestamp="2010-05-28T00:29:27Z" uid="13203" user="bahnpirat" changeset="4827053" lat="49.3733172" lon="8.6054161">
    <tag k="power" v="tower"/>
    <tag k="ref" v="3223"/>
    <tag k="source" v="extrapolation"/>
  </node>
  <node id="449134867" version="3" timestamp="2010-05-28T00:59:20Z" uid="13203" user="bahnpirat" changeset="4827053" lat="49.3733172" lon="8.6054161">
    <tag k="power" v="tower"/>
    <tag k="ref" v="3332"/>
    <tag k="source" v="extrapolation"/>
  </node>
  <node id="449134867" version="4" timestamp="2012-01-11T15:32:54Z" uid="131968" user="changchun_1" changeset="10361419" lat="49.3733172" lon="8.6054161"/>
  <node id="449134870" version="1" timestamp="2009-07-27T17:19:54Z" uid="9581" user="Lobelt" changeset="1957578" lat="49.3705233" lon="8.6049043">
    <tag k="power" v="tower"/>
  </node>
  <node id="449134870" version="2" timestamp="2010-05-28T00:29:27Z" uid="13203" user="bahnpirat" changeset="4827053" lat="49.3705233" lon="8.6049043">
    <tag k="power" v="tower"/>
    <tag k="ref" v="3224"/>
    <tag k="source" v="extrapolation"/>
  </node>
  <node id="449134870" version="3" timestamp="2010-05-28T00:59:20Z" uid="13203" user="bahnpirat" changeset="4827053" lat="49.3705233" lon="8.6049043">
    <tag k="power" v="tower"/>
    <tag k="ref" v="3331"/>
    <tag k="source" v="extrapolation"/>
  </node>
  <node id="449134870" version="4" timestamp="2012-01-11T15:32:54Z" uid="131968" user="changchun_1" changeset="10361419" lat="49.3705233" lon="8.6049043"/>
  <node id="449134872" version="1" timestamp="2009-07-27T17:19:54Z" uid="9581" user="Lobelt" changeset="1957578" lat="49.3666398" lon="8.6069774">
    <tag k="power" v="tower"/>
  </node>
  <node id="449134872" version="2" timestamp="2010-05-28T00:29:27Z" uid="13203" user="bahnpirat" changeset="4827053" lat="49.3666398" lon="8.6069774">
    <tag k="power" v="tower"/>
    <tag k="ref" v="3225"/>
    <tag k="source" v="extrapolation"/>
  </node>
  <node id="449134872" version="3" timestamp="2010-05-28T00:59:20Z" uid="13203" user="bahnpirat" changeset="4827053" lat="49.3666398" lon="8.6069774">
    <tag k="power" v="tower"/>
    <tag k="ref" v="3330"/>
    <tag k="source" v="extrapolation"/>
  </node>
  <node id="449134872" version="4" timestamp="2012-01-11T15:32:55Z" uid="131968" user="changchun_1" changeset="10361419" lat="49.3666398" lon="8.6069774"/>
  <node id="449134875" version="1" timestamp="2009-07-27T17:19:54Z" uid="9581" user="Lobelt" changeset="1957578" lat="49.3639347" lon="8.6119926">
    <tag k="power" v="tower"/>
  </node>
  <node id="449134875" version="2" timestamp="2010-05-28T00:29:27Z" uid="13203" user="bahnpirat" changeset="4827053" lat="49.3639347" lon="8.6119926">
    <tag k="power" v="tower"/>
    <tag k="ref" v="3226"/>
    <tag k="source" v="extrapolation"/>
  </node>
  <node id="449134875" version="3" timestamp="2010-05-28T00:59:20Z" uid="13203" user="bahnpirat" changeset="4827053" lat="49.3639347" lon="8.6119926">
    <tag k="power" v="tower"/>
    <tag k="ref" v="3329"/>
    <tag k="source" v="extrapolation"/>
  </node>
  <node id="449134875" version="4" timestamp="2012-01-11T15:32:55Z" uid="131968" user="changchun_1" changeset="10361419" lat="49.3639347" lon="8.6119926"/>
  <node id="449134876" version="1" timestamp="2009-07-27T17:19:54Z" uid="9581" user="Lobelt" changeset="1957578" lat="49.3648044" lon="8.6141597">
    <tag k="power" v="tower"/>
  </node>
  <node id="449134876" version="2" timestamp="2010-05-28T00:29:27Z" uid="13203" user="bahnpirat" changeset="4827053" lat="49.3648044" lon="8.6141597">
    <tag k="power" v="tower"/>
    <tag k="ref" v="3227"/>
    <tag k="source" v="extrapolation"/>
  </node>
  <node id="449134876" version="3" timestamp="2010-05-28T00:59:20Z" uid="13203" user="bahnpirat" changeset="4827053" lat="49.3648044" lon="8.6141597">
    <tag k="power" v="tower"/>
    <tag k="ref" v="3328"/>
    <tag k="source" v="extrapolation"/>
  </node>
  <node id="449134876" version="4" timestamp="2012-01-11T15:32:55Z" uid="131968" user="changchun_1" changeset="10361419" lat="49.3648044" lon="8.6141597"/>
  <node id="449134879" version="1" timestamp="2009-07-27T17:19:54Z" uid="9581" user="Lobelt" changeset="1957578" lat="49.3613943" lon="8.6249869">
    <tag k="power" v="tower"/>
  </node>
  <node id="449134879" version="2" timestamp="2009-12-18T15:34:17Z" uid="6893" user="[HEK]the_other" changeset="3401263" lat="49.3613943" lon="8.6249869">
    <tag k="power" v="tower"/>
  </node>
</osm>
