<?xml version='1.0' encoding='UTF-8'?>
<osm version="0.6" generator="libosmium/2.20.0">
  <node id="449377930" version="3" timestamp="2010-02-14T17:16:05Z" uid="123700" user="Mala" changeset="3876075" lat="52.4086519" lon="16.9574363">
    <tag k="name" v="Stacja Początkowa Kolejki &quot;Maltanka&quot;"/>
    <tag k="railway" v="halt"/>
  </node>
  <node id="449377930" version="4" timestamp="2011-02-02T10:03:56Z" uid="290680" user="wheelmap_visitor" changeset="7163022" lat="52.4086519" lon="16.9574363">
    <tag k="name" v="Stacja Początkowa Kolejki &quot;Maltanka&quot;"/>
    <tag k="railway" v="halt"/>
    <tag k="wheelchair" v="yes"/>
  </node>
  <node id="449377930" version="5" timestamp="2011-09-18T12:09:34Z" uid="91056" user="Yarl" changeset="9332192" lat="52.4084742" lon="16.9572919">
    <tag k="name" v="Stacja Początkowa Kolejki &quot;Maltanka&quot;"/>
    <tag k="railway" v="halt"/>
    <tag k="wheelchair" v="yes"/>
  </node>
  <node id="449377930" version="6" timestamp="2012-03-14T15:36:36Z" uid="88909" user="miko101" changeset="10979050" lat="52.4084742" lon="16.9572919">
    <tag k="name" v="Maltanka"/>
    <tag k="railway" v="halt"/>
    <tag k="wheelchair" v="yes"/>
  </node>
  <node id="449377930" version="7" timestamp="2012-03-16T13:15:23Z" uid="88909" user="miko101" changeset="10998198" lat="52.4084742" lon="16.9572919">
    <tag k="name" v="Maltanka"/>
    <tag k="operator" v="MPK Poznań"/>
    <tag k="railway" v="halt"/>
    <tag k="wheelchair" v="yes"/>
  </node>
  <node id="449377930" version="8" timestamp="2012-03-16T13:28:41Z" uid="88909" user="miko101" changeset="10998278" lat="52.4084742" lon="16.9572919">
    <tag k="name" v="Maltanka"/>
    <tag k="operator" v="MPK Poznań"/>
    <tag k="railway" v="station"/>
    <tag k="wheelchair" v="yes"/>
  </node>
  <node id="449378817" version="3" timestamp="2009-11-26T18:18:20Z" uid="20587" user="balrog-kun" changeset="3222155" lat="52.399849" lon="16.9924092">
    <tag k="name" v="Stacja Zwierzyniec"/>
    <tag k="railway" v="halt"/>
  </node>
  <node id="449378817" version="4" timestamp="2011-08-04T18:14:22Z" uid="498374" user="sleg" changeset="8922014" lat="52.399963" lon="16.9923126">
    <tag k="name" v="Stacja Zwierzyniec"/>
    <tag k="railway" v="halt"/>
  </node>
  <node id="449378817" version="5" timestamp="2012-03-16T13:15:22Z" uid="88909" user="miko101" changeset="10998198" lat="52.399963" lon="16.9923126">
    <tag k="name" v="Zwierzyniec"/>
    <tag k="operator" v="MPK Poznań"/>
    <tag k="railway" v="halt"/>
  </node>
  <node id="449378817" version="6" timestamp="2012-03-16T13:28:16Z" uid="88909" user="miko101" changeset="10998278" lat="52.399963" lon="16.9923126">
    <tag k="name" v="Zwierzyniec"/>
    <tag k="operator" v="MPK Poznań"/>
    <tag k="railway" v="station"/>
  </node>
</osm>
