<?xml version='1.0' encoding='UTF-8'?>
<osm version="0.6" generator="libosmium/2.20.0">
  <node id="449461790" version="1" timestamp="2009-07-28T03:22:58Z" uid="74617" user="JohnSmith" changeset="1961080" lat="-32.7341262" lon="138.6136626">
    <tag k="is_in" v="South Australia, Australia"/>
    <tag k="is_in:country" v="Australia"/>
    <tag k="is_in:country_code" v="au"/>
    <tag k="name" v="Orroroo"/>
    <tag k="place" v="town"/>
    <tag k="postal_code" v="5431"/>
  </node>
  <node id="449462520" version="1" timestamp="2009-07-28T03:23:32Z" uid="74617" user="JohnSmith" changeset="1961083" lat="-37.2384255" lon="145.2173478">
    <tag k="name" v="Strath Creek"/>
    <tag k="place" v="village"/>
  </node>
  <node id="449463116" version="1" timestamp="2009-07-28T03:24:01Z" uid="74617" user="JohnSmith" changeset="1961086" lat="-37.1779118" lon="143.2475474">
    <tag k="name" v="Elmhurst"/>
    <tag k="place" v="village"/>
  </node>
  <node id="449463701" version="1" timestamp="2009-07-28T03:24:30Z" uid="74617" user="JohnSmith" changeset="1961087" lat="-37.181611" lon="143.4019492">
    <tag k="name" v="Amphitheatre"/>
    <tag k="place" v="village"/>
  </node>
  <node id="449465019" version="1" timestamp="2009-07-28T03:25:43Z" uid="74617" user="JohnSmith" changeset="1961090" lat="-34.5993299" lon="138.7479002">
    <tag k="amenity" v="post_office"/>
    <tag k="name" v="Gawler Postoffice"/>
  </node>
</osm>
