<?xml version='1.0' encoding='UTF-8'?>
<osm version="0.6" generator="libosmium/2.20.0">
  <node id="450058679" version="1" timestamp="2009-07-28T15:08:36Z" uid="58091" user="Andreas M" changeset="1966243" lat="48.2447186" lon="16.411407">
    <tag k="leisure" v="sports_centre"/>
    <tag k="name" v="Club Danube"/>
  </node>
  <node id="450059866" version="1" timestamp="2009-07-28T15:09:14Z" uid="115477" user="wowik" changeset="1966253" lat="55.9972703" lon="37.2274546">
    <tag k="amenity" v="cinema"/>
    <tag k="name" v="Эра"/>
  </node>
  <node id="450059866" version="2" timestamp="2009-08-25T19:36:42Z" uid="109327" user="OverQuantum" changeset="2260814" lat="55.9972703" lon="37.2274546">
    <tag k="amenity" v="cinema"/>
    <tag k="comment" v="Не работает"/>
    <tag k="name" v="Эра"/>
  </node>
  <node id="450059866" version="3" timestamp="2010-02-12T23:41:49Z" uid="200618" user="gps-Max" changeset="3861296" lat="55.9972703" lon="37.2274546">
    <tag k="amenity" v="cinema"/>
    <tag k="comment" v="Не работает"/>
    <tag k="name" v="Эра"/>
  </node>
  <node id="450059870" version="1" timestamp="2009-07-28T15:09:14Z" uid="115477" user="wowik" changeset="1966253" lat="55.9997614" lon="37.2213091">
    <tag k="amenity" v="school"/>
    <tag k="name" v="Музыкальная"/>
  </node>
  <node id="450059870" version="2" timestamp="2010-08-05T11:28:52Z" uid="200618" user="gps-Max" changeset="5407197" lat="55.9997614" lon="37.2213091">
    <tag k="amenity" v="school"/>
    <tag k="name" v="муз. школа"/>
  </node>
  <node id="450059870" version="3" timestamp="2011-02-18T21:04:48Z" uid="206282" user="Amigo" changeset="7326405" lat="55.9997614" lon="37.2213091">
    <tag k="amenity" v="school"/>
    <tag k="name" v="муз. школа"/>
  </node>
  <node id="450059878" version="1" timestamp="2009-07-28T15:09:14Z" uid="115477" user="wowik" changeset="1966253" lat="55.9979951" lon="37.2209744">
    <tag k="amenity" v="school"/>
    <tag k="name" v="609"/>
  </node>
  <node id="450059878" version="2" timestamp="2009-07-29T07:52:18Z" uid="115477" user="wowik" changeset="1973014" lat="55.9981922" lon="37.2208517">
    <tag k="amenity" v="school"/>
    <tag k="name" v="609"/>
  </node>
  <node id="450059878" version="3" timestamp="2009-10-07T15:25:41Z" uid="115477" user="wowik" changeset="2772671" lat="55.9981922" lon="37.2208517">
    <tag k="amenity" v="school"/>
    <tag k="name" v="609"/>
  </node>
  <node id="450059880" version="1" timestamp="2009-07-28T15:09:14Z" uid="115477" user="wowik" changeset="1966253" lat="55.9970879" lon="37.2185711">
    <tag k="name" v="Анюта"/>
    <tag k="shop" v="supermarket"/>
  </node>
  <node id="450059880" version="2" timestamp="2009-07-28T16:35:24Z" uid="115477" user="wowik" changeset="1967041" lat="55.9970078" lon="37.2186399">
    <tag k="name" v="Анюта"/>
    <tag k="shop" v="supermarket"/>
  </node>
  <node id="450059880" version="3" timestamp="2010-11-08T12:01:50Z" uid="115477" user="wowik" changeset="6319974" lat="55.9970078" lon="37.2186399">
    <tag k="name" v="Анюта"/>
    <tag k="shop" v="supermarket"/>
  </node>
  <node id="450059884" version="1" timestamp="2009-07-28T15:09:14Z" uid="115477" user="wowik" changeset="1966253" lat="56.0010524" lon="37.2122111">
    <tag k="amenity" v="pharmacy"/>
    <tag k="name" v="на площади Юности"/>
  </node>
  <node id="450059884" version="2" timestamp="2011-01-28T15:53:53Z" uid="115477" user="wowik" changeset="7114168" lat="56.0010014" lon="37.2121729">
    <tag k="amenity" v="pharmacy"/>
    <tag k="name" v="на площади Юности"/>
  </node>
  <node id="450059884" version="3" timestamp="2011-04-08T11:24:49Z" uid="115477" user="wowik" changeset="7803164" lat="56.0010183" lon="37.2121426">
    <tag k="amenity" v="pharmacy"/>
    <tag k="name" v="на площади Юности"/>
    <tag k="opening_hours" v="24/7"/>
  </node>
  <node id="450059884" version="4" timestamp="2012-02-17T22:18:40Z" uid="384084" user="Kostik" changeset="10715762" lat="56.0010183" lon="37.2121426">
    <tag k="amenity" v="pharmacy"/>
    <tag k="name" v="на площади Юности"/>
    <tag k="opening_hours" v="24/7"/>
  </node>
  <node id="450059889" version="1" timestamp="2009-07-28T15:09:14Z" uid="115477" user="wowik" changeset="1966253" lat="56.0006301" lon="37.2059454">
    <tag k="name" v="Пятерочка"/>
    <tag k="shop" v="supermarket"/>
  </node>
  <node id="450059889" version="2" timestamp="2010-09-30T08:42:26Z" uid="11132" user="liosha" changeset="5918064" lat="56.0006301" lon="37.2059454">
    <tag k="name" v="Пятёрочка"/>
    <tag k="shop" v="supermarket"/>
  </node>
  <node id="450059889" version="3" timestamp="2011-01-12T11:20:38Z" uid="115477" user="wowik" changeset="6946036" lat="56.0006458" lon="37.2060579">
    <tag k="name" v="Пятёрочка"/>
    <tag k="shop" v="supermarket"/>
  </node>
  <node id="450059889" version="4" timestamp="2011-04-08T11:23:47Z" uid="115477" user="wowik" changeset="7803155" lat="56.0006129" lon="37.2060141">
    <tag k="name" v="Пятёрочка"/>
    <tag k="shop" v="supermarket"/>
  </node>
  <node id="450059889" version="5" timestamp="2011-09-06T20:57:11Z" uid="126304" user="TarzanASG" changeset="9231433" lat="56.0006129" lon="37.2060141">
    <tag k="alt_name" v="Пятерочка"/>
    <tag k="name" v="Пятёрочка"/>
    <tag k="shop" v="supermarket"/>
    <tag k="website" v="http://e5.ru/"/>
  </node>
  <node id="450059893" version="1" timestamp="2009-07-28T15:09:15Z" uid="115477" user="wowik" changeset="1966253" lat="56.0010668" lon="37.2057051">
    <tag k="amenity" v="pharmacy"/>
  </node>
  <node id="450059893" version="2" timestamp="2010-05-12T08:11:28Z" uid="115477" user="wowik" changeset="4675093" lat="56.0011029" lon="37.2057093">
    <tag k="amenity" v="pharmacy"/>
  </node>
  <node id="450059893" version="3" timestamp="2012-02-17T22:18:52Z" uid="384084" user="Kostik" changeset="10715762" lat="56.0011029" lon="37.2057093">
    <tag k="amenity" v="pharmacy"/>
  </node>
  <node id="450059899" version="1" timestamp="2009-07-28T15:09:15Z" uid="115477" user="wowik" changeset="1966253" lat="56.0004957" lon="37.2049756">
    <tag k="amenity" v="pharmacy"/>
  </node>
  <node id="450059899" version="2" timestamp="2009-08-02T19:43:05Z" uid="115477" user="wowik" changeset="2018926" lat="56.0004957" lon="37.2049756">
    <tag k="amenity" v="pharmacy"/>
  </node>
  <node id="450059904" version="1" timestamp="2009-07-28T15:09:15Z" uid="115477" user="wowik" changeset="1966253" lat="55.9968095" lon="37.2168803">
    <tag k="amenity" v="post_box"/>
    <tag k="name" v="124482"/>
  </node>
  <node id="450059904" version="2" timestamp="2010-02-12T23:41:31Z" uid="200618" user="gps-Max" changeset="3861296" lat="55.9968095" lon="37.2168803">
    <tag k="amenity" v="post_office"/>
    <tag k="name" v="124482"/>
  </node>
  <node id="450059904" version="3" timestamp="2010-11-08T17:17:05Z" uid="115477" user="wowik" changeset="6322246" lat="55.9968101" lon="37.2168914">
    <tag k="amenity" v="post_office"/>
    <tag k="name" v="124482"/>
  </node>
  <node id="450059904" version="4" timestamp="2011-08-27T19:21:04Z" uid="313900" user="Stud555" changeset="9140845" lat="55.9968101" lon="37.2168914">
    <tag k="amenity" v="post_office"/>
    <tag k="ref" v="124482"/>
  </node>
  <node id="450059904" version="5" timestamp="2011-09-06T00:34:19Z" uid="126304" user="TarzanASG" changeset="9223432" lat="55.9968101" lon="37.2168914">
    <tag k="addr:country" v="RU"/>
    <tag k="amenity" v="post_office"/>
    <tag k="operator" v="Почта России"/>
    <tag k="ref" v="124482"/>
    <tag k="website" v="http://russianpost.ru/"/>
  </node>
  <node id="450059904" version="6" timestamp="2011-09-09T18:49:54Z" uid="313900" user="Stud555" changeset="9256806" lat="55.9968101" lon="37.2168914">
    <tag k="addr:country" v="RU"/>
    <tag k="amenity" v="post_office"/>
    <tag k="name" v="Отделение связи №124482"/>
    <tag k="operator" v="Почта России"/>
    <tag k="ref" v="124482"/>
    <tag k="website" v="http://russianpost.ru/"/>
  </node>
  <node id="450059904" version="7" timestamp="2012-03-27T11:56:57Z" uid="481934" user="iWowik" changeset="11115472" lat="55.9968101" lon="37.2168914">
    <tag k="addr:city" v="Зеленоград"/>
    <tag k="addr:country" v="RU"/>
    <tag k="addr:region" v="Москва"/>
    <tag k="amenity" v="post_office"/>
    <tag k="name" v="Отделение связи №124482"/>
    <tag k="operator" v="Почта России"/>
    <tag k="ref" v="124482"/>
    <tag k="website" v="http://russianpost.ru/"/>
  </node>
  <node id="450059909" version="1" timestamp="2009-07-28T15:09:15Z" uid="115477" user="wowik" changeset="1966253" lat="55.9965839" lon="37.2162194">
    <tag k="name" v="Квартал"/>
    <tag k="shop" v="supermarket"/>
  </node>
  <node id="450059909" version="2" timestamp="2012-02-24T16:53:58Z" uid="384084" user="Kostik" changeset="10780119" lat="55.9965839" lon="37.2162194">
    <tag k="name" v="Квартал"/>
    <tag k="shop" v="supermarket"/>
  </node>
  <node id="450059922" version="1" timestamp="2009-07-28T15:09:15Z" uid="115477" user="wowik" changeset="1966253" lat="55.9950718" lon="37.2075247">
    <tag k="name" v="Квартал"/>
    <tag k="shop" v="supermarket"/>
  </node>
  <node id="450059922" version="2" timestamp="2010-01-26T12:37:22Z" uid="115477" user="wowik" changeset="3719010" lat="55.9950785" lon="37.2075422">
    <tag k="name" v="Квартал"/>
    <tag k="shop" v="supermarket"/>
  </node>
  <node id="450059922" version="3" timestamp="2011-04-08T11:23:47Z" uid="115477" user="wowik" changeset="7803155" lat="55.9950721" lon="37.2074261">
    <tag k="name" v="Квартал"/>
    <tag k="shop" v="supermarket"/>
  </node>
  <node id="450059922" version="4" timestamp="2012-02-24T16:53:58Z" uid="384084" user="Kostik" changeset="10780119" lat="55.9950721" lon="37.2074261">
    <tag k="name" v="Квартал"/>
    <tag k="shop" v="supermarket"/>
  </node>
  <node id="450059930" version="1" timestamp="2009-07-28T15:09:15Z" uid="115477" user="wowik" changeset="1966253" lat="55.9944766" lon="37.2075505">
    <tag k="amenity" v="post_box"/>
    <tag k="name" v="124498"/>
  </node>
  <node id="450059930" version="2" timestamp="2010-11-08T17:30:00Z" uid="115477" user="wowik" changeset="6322246" lat="55.9945146" lon="37.2075394">
    <tag k="amenity" v="post_box"/>
    <tag k="name" v="124498"/>
  </node>
  <node id="450059930" version="3" timestamp="2011-09-05T22:15:40Z" uid="126304" user="TarzanASG" changeset="9222950" lat="55.9945146" lon="37.2075394">
    <tag k="amenity" v="post_box"/>
    <tag k="name" v="124498"/>
    <tag k="operator" v="Почта России"/>
    <tag k="website" v="http://russianpost.ru/"/>
  </node>
  <node id="450059930" version="4" timestamp="2011-09-05T22:48:15Z" uid="126304" user="TarzanASG" changeset="9223163" lat="55.9945146" lon="37.2075394">
    <tag k="addr:country" v="RU"/>
    <tag k="amenity" v="post_box"/>
    <tag k="name" v="124498"/>
    <tag k="operator" v="Почта России"/>
    <tag k="website" v="http://russianpost.ru/"/>
  </node>
  <node id="450059930" version="5" timestamp="2012-03-27T11:57:09Z" uid="481934" user="iWowik" changeset="11115472" lat="55.9945146" lon="37.2075394">
    <tag k="addr:city" v="Зеленоград"/>
    <tag k="addr:country" v="RU"/>
    <tag k="addr:region" v="Москва"/>
    <tag k="amenity" v="post_box"/>
    <tag k="name" v="124498"/>
    <tag k="operator" v="Почта России"/>
    <tag k="website" v="http://russianpost.ru/"/>
  </node>
  <node id="450059938" version="1" timestamp="2009-07-28T15:09:15Z" uid="115477" user="wowik" changeset="1966253" lat="55.9945438" lon="37.2078852">
    <tag k="amenity" v="bar"/>
  </node>
  <node id="450059938" version="2" timestamp="2009-07-28T16:53:07Z" uid="115477" user="wowik" changeset="1967137" lat="55.9945459" lon="37.2078767">
    <tag k="amenity" v="bar"/>
    <tag k="key" v="Нептун"/>
  </node>
  <node id="450059938" version="3" timestamp="2010-11-08T17:30:03Z" uid="115477" user="wowik" changeset="6322246" lat="55.9945707" lon="37.2078545">
    <tag k="amenity" v="bar"/>
    <tag k="key" v="Нептун"/>
  </node>
  <node id="450059938" version="4" timestamp="2011-01-28T15:01:12Z" uid="115477" user="wowik" changeset="7113705" lat="55.9945707" lon="37.2078545">
    <tag k="amenity" v="bar"/>
    <tag k="key" v="Нептун"/>
  </node>
  <node id="450059943" version="1" timestamp="2009-07-28T15:09:15Z" uid="115477" user="wowik" changeset="1966253" lat="55.9953455" lon="37.2070441">
    <tag k="amenity" v="bar"/>
  </node>
  <node id="450059943" version="2" timestamp="2010-01-26T12:36:59Z" uid="115477" user="wowik" changeset="3719010" lat="55.9953935" lon="37.2070112">
    <tag k="amenity" v="bar"/>
  </node>
  <node id="450059943" version="3" timestamp="2011-01-28T15:00:49Z" uid="115477" user="wowik" changeset="7113705" lat="55.9953735" lon="37.2069265">
    <tag k="amenity" v="bar"/>
  </node>
  <node id="450059943" version="4" timestamp="2012-02-17T22:18:53Z" uid="384084" user="Kostik" changeset="10715762" lat="55.9953735" lon="37.2069265">
    <tag k="amenity" v="bar"/>
  </node>
</osm>
