<?xml version='1.0' encoding='UTF-8'?>
<osm version="0.6" generator="libosmium/2.20.0">
  <node id="450103370" version="1" timestamp="2009-07-28T15:27:56Z" uid="115477" user="wowik" changeset="1966253" lat="55.9944334" lon="37.1915516">
    <tag k="amenity" v="pharmacy"/>
  </node>
  <node id="450103370" version="2" timestamp="2012-02-17T22:18:53Z" uid="384084" user="Kostik" changeset="10715762" lat="55.9944334" lon="37.1915516">
    <tag k="amenity" v="pharmacy"/>
  </node>
  <node id="450103376" version="1" timestamp="2009-07-28T15:27:56Z" uid="115477" user="wowik" changeset="1966253" lat="55.9968431" lon="37.1899552">
    <tag k="amenity" v="pharmacy"/>
    <tag k="name" v="на Панфиловском"/>
  </node>
  <node id="450103376" version="2" timestamp="2009-10-07T15:48:28Z" uid="115477" user="wowik" changeset="2772861" lat="55.9968704" lon="37.1896325">
    <tag k="amenity" v="pharmacy"/>
    <tag k="name" v="на Панфиловском"/>
  </node>
  <node id="450103376" version="3" timestamp="2011-01-26T18:24:50Z" uid="115477" user="wowik" changeset="7096167" lat="55.9968627" lon="37.1896653">
    <tag k="amenity" v="pharmacy"/>
    <tag k="name" v="на Панфиловском"/>
  </node>
  <node id="450103376" version="4" timestamp="2012-02-17T22:18:40Z" uid="384084" user="Kostik" changeset="10715762" lat="55.9968627" lon="37.1896653">
    <tag k="amenity" v="pharmacy"/>
    <tag k="name" v="на Панфиловском"/>
  </node>
  <node id="450103379" version="1" timestamp="2009-07-28T15:27:56Z" uid="115477" user="wowik" changeset="1966253" lat="55.9931037" lon="37.1931481">
    <tag k="amenity" v="school"/>
  </node>
  <node id="450103379" version="2" timestamp="2009-10-07T16:02:18Z" uid="115477" user="wowik" changeset="2773148" lat="55.9931037" lon="37.1931481">
    <tag k="amenity" v="school"/>
  </node>
  <node id="450103402" version="1" timestamp="2009-07-28T15:27:57Z" uid="115477" user="wowik" changeset="1966253" lat="55.9811151" lon="37.1844534">
    <tag k="name" v="Копейка"/>
    <tag k="shop" v="supermarket"/>
  </node>
  <node id="450103402" version="2" timestamp="2011-06-12T17:11:40Z" uid="380194" user="ac-trash" changeset="8417494" lat="55.9811151" lon="37.1844534">
    <tag k="name" v="Перекресток"/>
    <tag k="shop" v="supermarket"/>
  </node>
  <node id="450103402" version="3" timestamp="2011-09-06T20:56:16Z" uid="126304" user="TarzanASG" changeset="9231433" lat="55.9811151" lon="37.1844534">
    <tag k="addr:country" v="RU"/>
    <tag k="alt_name" v="Перекресток"/>
    <tag k="name" v="Перекрёсток"/>
    <tag k="operator" v="X5 Retail Group"/>
    <tag k="shop" v="supermarket"/>
    <tag k="website" v="http://www.perekrestok.ru/"/>
  </node>
  <node id="450103402" version="4" timestamp="2011-10-11T11:00:55Z" uid="481934" user="iWowik" changeset="9529533" lat="55.9811151" lon="37.1844534"/>
  <node id="450103416" version="1" timestamp="2009-07-28T15:27:57Z" uid="115477" user="wowik" changeset="1966253" lat="55.9800635" lon="37.1934828">
    <tag k="name" v="Патерочка"/>
    <tag k="shop" v="supermarket"/>
  </node>
  <node id="450103416" version="2" timestamp="2010-02-04T14:49:56Z" uid="115477" user="wowik" changeset="3790835" lat="55.9800635" lon="37.1934828">
    <tag k="name" v="Пятерочка"/>
    <tag k="shop" v="supermarket"/>
  </node>
  <node id="450103416" version="3" timestamp="2010-09-30T08:42:28Z" uid="11132" user="liosha" changeset="5918064" lat="55.9800635" lon="37.1934828">
    <tag k="name" v="Пятёрочка"/>
    <tag k="shop" v="supermarket"/>
  </node>
  <node id="450103416" version="4" timestamp="2011-05-11T14:22:47Z" uid="241531" user="dik_man" changeset="8112766" lat="55.9800201" lon="37.193173">
    <tag k="name" v="Пятёрочка"/>
    <tag k="shop" v="supermarket"/>
  </node>
  <node id="450103416" version="5" timestamp="2011-09-06T20:57:11Z" uid="126304" user="TarzanASG" changeset="9231433" lat="55.9800201" lon="37.193173">
    <tag k="alt_name" v="Пятерочка"/>
    <tag k="name" v="Пятёрочка"/>
    <tag k="shop" v="supermarket"/>
    <tag k="website" v="http://e5.ru/"/>
  </node>
  <node id="450103421" version="1" timestamp="2009-07-28T15:27:57Z" uid="115477" user="wowik" changeset="1966253" lat="55.9823012" lon="37.1841273">
    <tag k="amenity" v="telephone"/>
    <tag k="name" v="499-731"/>
  </node>
  <node id="450103421" version="2" timestamp="2011-01-17T16:53:50Z" uid="115477" user="wowik" changeset="7001307" lat="55.9823312" lon="37.1840523">
    <tag k="amenity" v="telephone"/>
    <tag k="name" v="499-731"/>
  </node>
  <node id="450103421" version="3" timestamp="2012-02-17T22:18:55Z" uid="384084" user="Kostik" changeset="10715762" lat="55.9823312" lon="37.1840523">
    <tag k="amenity" v="telephone"/>
    <tag k="name" v="499-731"/>
  </node>
  <node id="450103425" version="1" timestamp="2009-07-28T15:27:57Z" uid="115477" user="wowik" changeset="1966253" lat="55.9963295" lon="37.2149577">
    <tag k="amenity" v="telephone"/>
    <tag k="name" v="499-735"/>
  </node>
  <node id="450103425" version="2" timestamp="2011-01-25T18:33:40Z" uid="115477" user="wowik" changeset="7086336" lat="55.9963295" lon="37.2149577">
    <tag k="amenity" v="telephone"/>
    <tag k="name" v="499-735"/>
  </node>
  <node id="450103430" version="1" timestamp="2009-07-28T15:27:57Z" uid="115477" user="wowik" changeset="1966253" lat="55.9966511" lon="37.2148976">
    <tag k="amenity" v="telephone"/>
    <tag k="name" v="499-734;499-736"/>
  </node>
  <node id="450103430" version="2" timestamp="2011-01-25T18:33:40Z" uid="115477" user="wowik" changeset="7086336" lat="55.9966511" lon="37.2148976">
    <tag k="amenity" v="telephone"/>
    <tag k="name" v="499-734;499-736"/>
  </node>
  <node id="450103436" version="1" timestamp="2009-07-28T15:27:57Z" uid="115477" user="wowik" changeset="1966253" lat="55.9899497" lon="37.2200903">
    <tag k="amenity" v="theatre"/>
    <tag k="name" v="Дворец Культуры"/>
  </node>
  <node id="450103436" version="2" timestamp="2009-10-07T04:00:44Z" uid="115477" user="wowik" changeset="2767325" lat="55.9899497" lon="37.2200903">
    <tag k="amenity" v="theatre"/>
    <tag k="name" v="Дворец Культуры"/>
  </node>
  <node id="450103441" version="1" timestamp="2009-07-28T15:27:57Z" uid="115477" user="wowik" changeset="1966253" lat="55.9899401" lon="37.2203392">
    <tag k="amenity" v="cinema"/>
    <tag k="name" v="Дворец Культуры"/>
  </node>
  <node id="450103441" version="2" timestamp="2009-10-07T04:00:41Z" uid="115477" user="wowik" changeset="2767325" lat="55.9900471" lon="37.2201224">
    <tag k="amenity" v="cinema"/>
    <tag k="name" v="Дворец Культуры"/>
  </node>
  <node id="450103441" version="3" timestamp="2010-09-28T14:10:55Z" uid="200618" user="gps-Max" changeset="5904289" lat="55.9900471" lon="37.2201224">
    <tag k="amenity" v="cinema"/>
    <tag k="fixme" v="там разве кино показывают?"/>
    <tag k="name" v="Дворец Культуры"/>
  </node>
  <node id="450103441" version="4" timestamp="2010-10-26T14:11:32Z" uid="200618" user="gps-Max" changeset="6183018" lat="55.9900471" lon="37.2201224">
    <tag k="amenity" v="cinema"/>
    <tag k="name" v="Дворец Культуры"/>
  </node>
  <node id="450103447" version="1" timestamp="2009-07-28T15:27:57Z" uid="115477" user="wowik" changeset="1966253" lat="55.9910971" lon="37.2192234">
    <tag k="name" v="7-й континент"/>
    <tag k="shop" v="supermarket"/>
  </node>
  <node id="450103447" version="2" timestamp="2009-10-07T04:02:38Z" uid="115477" user="wowik" changeset="2767325" lat="55.9910971" lon="37.2192234">
    <tag k="name" v="7-й континент"/>
    <tag k="shop" v="supermarket"/>
  </node>
  <node id="450103460" version="1" timestamp="2009-07-28T15:27:58Z" uid="115477" user="wowik" changeset="1966253" lat="55.9974575" lon="37.2365527">
    <tag k="name" v="Покупай"/>
    <tag k="shop" v="supermarket"/>
  </node>
  <node id="450103460" version="2" timestamp="2012-02-24T16:54:00Z" uid="384084" user="Kostik" changeset="10780119" lat="55.9974575" lon="37.2365527">
    <tag k="name" v="Покупай"/>
    <tag k="shop" v="supermarket"/>
  </node>
  <node id="450103467" version="1" timestamp="2009-07-28T15:27:58Z" uid="115477" user="wowik" changeset="1966253" lat="55.9973615" lon="37.2365527">
    <tag k="amenity" v="parking"/>
  </node>
  <node id="450103467" version="2" timestamp="2012-02-17T22:18:53Z" uid="384084" user="Kostik" changeset="10715762" lat="55.9973615" lon="37.2365527">
    <tag k="amenity" v="parking"/>
  </node>
  <node id="450109685" version="1" timestamp="2009-07-28T15:30:56Z" uid="115477" user="wowik" changeset="1966448" lat="55.9775123" lon="37.1552887">
    <tag k="amenity" v="parking"/>
  </node>
  <node id="450109685" version="2" timestamp="2009-10-06T13:01:33Z" uid="115477" user="wowik" changeset="2760452" lat="55.9775188" lon="37.1547366">
    <tag k="amenity" v="parking"/>
  </node>
  <node id="450109685" version="3" timestamp="2010-03-15T08:25:46Z" uid="115477" user="wowik" changeset="4132579" lat="55.9775558" lon="37.1552532">
    <tag k="amenity" v="parking"/>
  </node>
  <node id="450109685" version="4" timestamp="2011-01-21T19:27:03Z" uid="115477" user="wowik" changeset="7043561" lat="55.9775965" lon="37.1551078">
    <tag k="amenity" v="parking"/>
  </node>
  <node id="450109685" version="5" timestamp="2012-02-17T22:18:53Z" uid="384084" user="Kostik" changeset="10715762" lat="55.9775965" lon="37.1551078">
    <tag k="amenity" v="parking"/>
  </node>
  <node id="450109687" version="1" timestamp="2009-07-28T15:30:56Z" uid="115477" user="wowik" changeset="1966448" lat="55.9768544" lon="37.1611252">
    <tag k="name" v="Проспект"/>
    <tag k="shop" v="supermarket"/>
  </node>
  <node id="450109687" version="2" timestamp="2010-08-08T15:19:22Z" uid="241531" user="dik_man" changeset="5434215" lat="55.9768544" lon="37.1611251">
    <tag k="addr:city" v="Зеленоград"/>
    <tag k="addr:housenumber" v="1641"/>
    <tag k="addr:street" v="Панфиловский"/>
    <tag k="name" v="Проспект"/>
    <tag k="shop" v="supermarket"/>
  </node>
  <node id="450109687" version="3" timestamp="2010-11-07T09:12:29Z" uid="206282" user="Amigo" changeset="6309179" lat="55.9768195" lon="37.1611093">
    <tag k="addr:city" v="Зеленоград"/>
    <tag k="addr:housenumber" v="1641"/>
    <tag k="addr:street" v="Панфиловский"/>
    <tag k="name" v="Проспект"/>
    <tag k="shop" v="supermarket"/>
  </node>
  <node id="450109687" version="4" timestamp="2010-11-13T10:51:02Z" uid="115477" user="wowik" changeset="6356871" lat="55.9768195" lon="37.1611093">
    <tag k="addr:city" v="Зеленоград"/>
    <tag k="addr:housenumber" v="1640"/>
    <tag k="addr:street" v="16-й Микрорайон"/>
    <tag k="name" v="Проспект"/>
    <tag k="shop" v="supermarket"/>
  </node>
  <node id="450109687" version="5" timestamp="2011-01-24T17:31:06Z" uid="115477" user="wowik" changeset="7075407" lat="55.9768195" lon="37.1611093">
    <tag k="addr:city" v="Зеленоград"/>
    <tag k="addr:housenumber" v="1640"/>
    <tag k="addr:street" v="16-й Микрорайон"/>
    <tag k="name" v="Проспект"/>
    <tag k="shop" v="supermarket"/>
  </node>
  <node id="450109695" version="1" timestamp="2009-07-28T15:30:57Z" uid="115477" user="wowik" changeset="1966448" lat="55.9774979" lon="37.1626701">
    <tag k="name" v="Атак"/>
    <tag k="shop" v="supermarket"/>
  </node>
  <node id="450109695" version="2" timestamp="2009-10-06T12:52:40Z" uid="115477" user="wowik" changeset="2760244" lat="55.9775825" lon="37.1633769">
    <tag k="name" v="Атак"/>
    <tag k="shop" v="supermarket"/>
  </node>
  <node id="450109695" version="3" timestamp="2009-10-06T12:55:07Z" uid="115477" user="wowik" changeset="2760244" lat="55.9775585" lon="37.1630507">
    <tag k="name" v="Атак"/>
    <tag k="shop" v="supermarket"/>
  </node>
  <node id="450109695" version="4" timestamp="2010-08-08T13:32:49Z" uid="241531" user="dik_man" changeset="5433067" lat="55.9775585" lon="37.1630508">
    <tag k="addr:city" v="Зеленоград"/>
    <tag k="addr:housenumber" v="1801"/>
    <tag k="name" v="Атак"/>
    <tag k="shop" v="supermarket"/>
  </node>
  <node id="450109695" version="5" timestamp="2010-08-08T13:33:25Z" uid="241531" user="dik_man" changeset="5433067" lat="55.9775585" lon="37.1630508">
    <tag k="addr:city" v="Зеленоград"/>
    <tag k="addr:housenumber" v="1801"/>
    <tag k="addr:street" v="18-мкр"/>
    <tag k="name" v="Атак"/>
    <tag k="shop" v="supermarket"/>
  </node>
  <node id="450109695" version="6" timestamp="2010-11-13T10:38:46Z" uid="115477" user="wowik" changeset="6356871" lat="55.9775585" lon="37.1630508">
    <tag k="addr:city" v="Зеленоград"/>
    <tag k="addr:housenumber" v="1801"/>
    <tag k="addr:street" v="18-й Микрорайон"/>
    <tag k="name" v="Атак"/>
    <tag k="shop" v="supermarket"/>
  </node>
  <node id="450109695" version="7" timestamp="2011-01-17T18:51:18Z" uid="115477" user="wowik" changeset="7002711" lat="55.9775727" lon="37.1633052">
    <tag k="addr:city" v="Зеленоград"/>
    <tag k="addr:housenumber" v="1801"/>
    <tag k="addr:street" v="18-й Микрорайон"/>
    <tag k="name" v="Атак"/>
    <tag k="shop" v="supermarket"/>
  </node>
  <node id="450109695" version="8" timestamp="2011-06-07T20:53:46Z" uid="133332" user="AMDmi3" changeset="8374030" lat="55.9775727" lon="37.1633052">
    <tag k="addr:city" v="Зеленоград"/>
    <tag k="addr:housenumber" v="1801"/>
    <tag k="addr:street" v="18-й микрорайон"/>
    <tag k="name" v="Атак"/>
    <tag k="shop" v="supermarket"/>
  </node>
  <node id="450109695" version="9" timestamp="2012-03-27T11:56:49Z" uid="481934" user="iWowik" changeset="11115472" lat="55.9775727" lon="37.1633052">
    <tag k="addr:city" v="Зеленоград"/>
    <tag k="addr:country" v="RU"/>
    <tag k="addr:housenumber" v="1801"/>
    <tag k="addr:region" v="Москва"/>
    <tag k="addr:street" v="18-й микрорайон"/>
    <tag k="name" v="Атак"/>
    <tag k="shop" v="supermarket"/>
  </node>
  <node id="450109703" version="1" timestamp="2009-07-28T15:30:57Z" uid="115477" user="wowik" changeset="1966448" lat="55.9773395" lon="37.1624212">
    <tag k="amenity" v="parking"/>
  </node>
  <node id="450109703" version="2" timestamp="2009-10-06T12:58:52Z" uid="115477" user="wowik" changeset="2760445" lat="55.9774332" lon="37.1626727">
    <tag k="amenity" v="parking"/>
  </node>
  <node id="450109703" version="3" timestamp="2010-09-14T06:38:08Z" uid="241531" user="dik_man" changeset="5775586" lat="55.9776264" lon="37.1626233">
    <tag k="amenity" v="parking"/>
  </node>
</osm>
