<?xml version='1.0' encoding='UTF-8'?>
<osm version="0.6" generator="libosmium/2.20.0">
  <node id="450601480" version="2" timestamp="2010-05-23T23:24:18Z" uid="4467" user="Rosscoe" changeset="4788961" lat="-37.8758444" lon="144.7982226"/>
  <node id="450601481" version="2" timestamp="2010-05-23T23:24:27Z" uid="4467" user="Rosscoe" changeset="4788961" lat="-37.8756182" lon="144.7982163"/>
  <node id="450601501" version="2" timestamp="2010-05-23T23:24:15Z" uid="4467" user="Rosscoe" changeset="4788961" lat="-37.8757206" lon="144.7987459"/>
  <node id="450601502" version="2" timestamp="2010-05-23T23:24:23Z" uid="4467" user="Rosscoe" changeset="4788961" lat="-37.8758879" lon="144.7987507"/>
  <node id="450601930" version="1" timestamp="2009-07-29T09:58:48Z" uid="115477" user="wowik" changeset="1973999" lat="56.6625455" lon="36.6600756">
    <tag k="name" v="Плоски"/>
    <tag k="place" v="hamlet"/>
  </node>
  <node id="450601930" version="2" timestamp="2009-08-15T10:47:48Z" uid="30590" user="KekcuHa" changeset="2152389" lat="56.6625455" lon="36.6600756">
    <tag k="addr:country" v="RU"/>
    <tag k="addr:district" v="Конаковский район"/>
    <tag k="addr:postcode" v="171285"/>
    <tag k="addr:region" v="Тверская область"/>
    <tag k="cladr:code" v="6901500013100"/>
    <tag k="cladr:name" v="Плоски"/>
    <tag k="cladr:suffix" v="Деревня"/>
    <tag k="name" v="Плоски"/>
    <tag k="place" v="hamlet"/>
  </node>
  <node id="450601930" version="3" timestamp="2011-08-07T17:10:43Z" uid="297358" user="patashnik" changeset="8949329" lat="56.6625455" lon="36.6600756">
    <tag k="addr:country" v="RU"/>
    <tag k="addr:district" v="Конаковский район"/>
    <tag k="addr:region" v="Тверская область"/>
    <tag k="cladr:code" v="6901500013100"/>
    <tag k="name" v="Плоски"/>
    <tag k="place" v="hamlet"/>
  </node>
  <node id="450601930" version="4" timestamp="2012-02-09T11:51:06Z" uid="277330" user="xande almeida" changeset="10633037" lat="56.6625455" lon="36.6600756">
    <tag k="addr:country" v="RU"/>
    <tag k="addr:district" v="Конаковский район"/>
    <tag k="addr:region" v="Тверская область"/>
    <tag k="cladr:code" v="6901500013100"/>
    <tag k="name" v="Плоски"/>
    <tag k="official_status" v="ru:деревня"/>
    <tag k="place" v="hamlet"/>
  </node>
  <node id="450601931" version="1" timestamp="2009-07-29T09:58:48Z" uid="115477" user="wowik" changeset="1973999" lat="56.6489581" lon="36.6420512">
    <tag k="name" v="Загорье"/>
    <tag k="place" v="hamlet"/>
  </node>
  <node id="450601931" version="2" timestamp="2010-07-19T12:13:50Z" uid="277330" user="xande almeida" changeset="5260504" lat="56.6489581" lon="36.6420512">
    <tag k="name" v="Загорье"/>
    <tag k="place" v="hamlet"/>
  </node>
  <node id="450601932" version="1" timestamp="2009-07-29T09:58:48Z" uid="115477" user="wowik" changeset="1973999" lat="56.6136458" lon="36.6027407">
    <tag k="name" v="Щелково"/>
    <tag k="place" v="village"/>
  </node>
  <node id="450601932" version="2" timestamp="2010-07-18T12:43:23Z" uid="277330" user="xande almeida" changeset="5250869" lat="56.6084555" lon="36.6088399">
    <tag k="name" v="Щелково"/>
    <tag k="place" v="hamlet"/>
  </node>
  <node id="450601932" version="3" timestamp="2012-02-09T11:51:08Z" uid="277330" user="xande almeida" changeset="10633037" lat="56.6084555" lon="36.6088399">
    <tag k="name" v="Щелково"/>
    <tag k="official_status" v="ru:деревня"/>
    <tag k="place" v="hamlet"/>
  </node>
  <node id="450601933" version="1" timestamp="2009-07-29T09:58:48Z" uid="115477" user="wowik" changeset="1973999" lat="56.611662" lon="36.5922694">
    <tag k="name" v="Терехово"/>
    <tag k="place" v="hamlet"/>
  </node>
  <node id="450601933" version="2" timestamp="2010-05-04T16:40:20Z" uid="102437" user="open650" changeset="4605687" lat="56.611662" lon="36.5902824">
    <tag k="name" v="Терехово"/>
    <tag k="place" v="hamlet"/>
  </node>
  <node id="450601933" version="3" timestamp="2012-02-09T11:51:07Z" uid="277330" user="xande almeida" changeset="10633037" lat="56.611662" lon="36.5902824">
    <tag k="name" v="Терехово"/>
    <tag k="official_status" v="ru:деревня"/>
    <tag k="place" v="hamlet"/>
  </node>
  <node id="450601934" version="1" timestamp="2009-07-29T09:58:48Z" uid="115477" user="wowik" changeset="1973999" lat="56.6079776" lon="36.6217952">
    <tag k="name" v="Вахонино"/>
    <tag k="place" v="hamlet"/>
  </node>
  <node id="450601934" version="2" timestamp="2009-08-15T10:47:46Z" uid="30590" user="KekcuHa" changeset="2152389" lat="56.6079776" lon="36.6217952">
    <tag k="addr:country" v="RU"/>
    <tag k="addr:district" v="Конаковский район"/>
    <tag k="addr:postcode" v="171285"/>
    <tag k="addr:region" v="Тверская область"/>
    <tag k="cladr:code" v="6901500002200"/>
    <tag k="cladr:name" v="Вахонино"/>
    <tag k="cladr:suffix" v="Деревня"/>
    <tag k="name" v="Вахонино"/>
    <tag k="place" v="hamlet"/>
  </node>
  <node id="450601934" version="3" timestamp="2010-07-18T12:43:20Z" uid="277330" user="xande almeida" changeset="5250869" lat="56.6103729" lon="36.6219403">
    <tag k="addr:country" v="RU"/>
    <tag k="addr:district" v="Конаковский район"/>
    <tag k="addr:postcode" v="171285"/>
    <tag k="addr:region" v="Тверская область"/>
    <tag k="cladr:code" v="6901500002200"/>
    <tag k="cladr:name" v="Вахонино"/>
    <tag k="cladr:suffix" v="Деревня"/>
    <tag k="name" v="Вахонино"/>
    <tag k="place" v="hamlet"/>
  </node>
  <node id="450601934" version="4" timestamp="2010-07-18T16:08:32Z" uid="277330" user="xande almeida" changeset="5252647" lat="56.6103729" lon="36.6219403">
    <tag k="addr:country" v="RU"/>
    <tag k="addr:district" v="Конаковский район"/>
    <tag k="addr:postcode" v="171285"/>
    <tag k="addr:region" v="Тверская область"/>
    <tag k="cladr:code" v="6901500002200"/>
    <tag k="cladr:name" v="Вахонино"/>
    <tag k="cladr:suffix" v="Деревня"/>
    <tag k="name" v="Вахонино"/>
    <tag k="place" v="village"/>
  </node>
  <node id="450601934" version="5" timestamp="2010-10-02T19:16:31Z" uid="215339" user="Wiseman" changeset="5938934" lat="56.6110891" lon="36.626991">
    <tag k="addr:country" v="RU"/>
    <tag k="addr:district" v="Конаковский район"/>
    <tag k="addr:postcode" v="171285"/>
    <tag k="addr:region" v="Тверская область"/>
    <tag k="cladr:code" v="6901500002200"/>
    <tag k="cladr:name" v="Вахонино"/>
    <tag k="cladr:suffix" v="Деревня"/>
    <tag k="name" v="Вахонино"/>
    <tag k="place" v="village"/>
  </node>
  <node id="450601934" version="6" timestamp="2011-02-22T18:37:26Z" uid="115477" user="wowik" changeset="7366008" lat="56.6106504" lon="36.6205984">
    <tag k="addr:country" v="RU"/>
    <tag k="addr:district" v="Конаковский район"/>
    <tag k="addr:postcode" v="171285"/>
    <tag k="addr:region" v="Тверская область"/>
    <tag k="cladr:code" v="6901500002200"/>
    <tag k="cladr:name" v="Вахонино"/>
    <tag k="cladr:suffix" v="Деревня"/>
    <tag k="name" v="Вахонино"/>
    <tag k="place" v="village"/>
  </node>
  <node id="450601934" version="7" timestamp="2011-08-07T17:10:43Z" uid="297358" user="patashnik" changeset="8949329" lat="56.6106504" lon="36.6205984">
    <tag k="addr:country" v="RU"/>
    <tag k="addr:district" v="Конаковский район"/>
    <tag k="addr:region" v="Тверская область"/>
    <tag k="cladr:code" v="6901500002200"/>
    <tag k="name" v="Вахонино"/>
    <tag k="place" v="village"/>
  </node>
  <node id="450601934" version="8" timestamp="2012-02-09T11:51:04Z" uid="277330" user="xande almeida" changeset="10633037" lat="56.6106504" lon="36.6205984">
    <tag k="addr:country" v="RU"/>
    <tag k="addr:district" v="Конаковский район"/>
    <tag k="addr:region" v="Тверская область"/>
    <tag k="cladr:code" v="6901500002200"/>
    <tag k="name" v="Вахонино"/>
    <tag k="official_status" v="ru:деревня"/>
    <tag k="place" v="village"/>
  </node>
  <node id="450601935" version="1" timestamp="2009-07-29T09:58:48Z" uid="115477" user="wowik" changeset="1973999" lat="56.6109063" lon="36.6454844">
    <tag k="name" v="Искрино"/>
    <tag k="place" v="hamlet"/>
  </node>
  <node id="450601935" version="2" timestamp="2010-07-18T12:43:15Z" uid="277330" user="xande almeida" changeset="5250869" lat="56.6129093" lon="36.6423944">
    <tag k="name" v="Искрино"/>
    <tag k="place" v="hamlet"/>
  </node>
  <node id="450601935" version="3" timestamp="2012-02-09T11:51:05Z" uid="277330" user="xande almeida" changeset="10633037" lat="56.6129093" lon="36.6423944">
    <tag k="name" v="Искрино"/>
    <tag k="official_status" v="ru:деревня"/>
    <tag k="place" v="hamlet"/>
  </node>
  <node id="450601936" version="1" timestamp="2009-07-29T09:58:48Z" uid="115477" user="wowik" changeset="1973999" lat="56.635177" lon="36.7062526">
    <tag k="name" v="Новошино"/>
    <tag k="place" v="hamlet"/>
  </node>
  <node id="450601936" version="2" timestamp="2009-08-15T10:47:42Z" uid="30590" user="KekcuHa" changeset="2152389" lat="56.635177" lon="36.7062526">
    <tag k="addr:country" v="RU"/>
    <tag k="addr:district" v="Конаковский район"/>
    <tag k="addr:postcode" v="171285"/>
    <tag k="addr:region" v="Тверская область"/>
    <tag k="cladr:code" v="6901500011400"/>
    <tag k="cladr:name" v="Новошино"/>
    <tag k="cladr:suffix" v="Деревня"/>
    <tag k="name" v="Новошино"/>
    <tag k="place" v="hamlet"/>
  </node>
  <node id="450601936" version="3" timestamp="2010-09-22T09:35:52Z" uid="215339" user="Wiseman" changeset="5843927" lat="56.6348493" lon="36.7047996">
    <tag k="addr:country" v="RU"/>
    <tag k="addr:district" v="Конаковский район"/>
    <tag k="addr:postcode" v="171285"/>
    <tag k="addr:region" v="Тверская область"/>
    <tag k="cladr:code" v="6901500011400"/>
    <tag k="cladr:name" v="Новошино"/>
    <tag k="cladr:suffix" v="Деревня"/>
    <tag k="name" v="Новошино"/>
    <tag k="place" v="hamlet"/>
  </node>
  <node id="450601936" version="4" timestamp="2011-08-07T17:10:43Z" uid="297358" user="patashnik" changeset="8949329" lat="56.6348493" lon="36.7047996">
    <tag k="addr:country" v="RU"/>
    <tag k="addr:district" v="Конаковский район"/>
    <tag k="addr:region" v="Тверская область"/>
    <tag k="cladr:code" v="6901500011400"/>
    <tag k="name" v="Новошино"/>
    <tag k="place" v="hamlet"/>
  </node>
  <node id="450601936" version="5" timestamp="2012-02-09T11:51:06Z" uid="277330" user="xande almeida" changeset="10633037" lat="56.6348493" lon="36.7047996">
    <tag k="addr:country" v="RU"/>
    <tag k="addr:district" v="Конаковский район"/>
    <tag k="addr:region" v="Тверская область"/>
    <tag k="cladr:code" v="6901500011400"/>
    <tag k="name" v="Новошино"/>
    <tag k="official_status" v="ru:деревня"/>
    <tag k="place" v="hamlet"/>
  </node>
  <node id="450601936" version="6" timestamp="2012-03-23T10:56:29Z" uid="277330" user="xande almeida" changeset="11072526" lat="56.6349854" lon="36.7048446">
    <tag k="addr:country" v="RU"/>
    <tag k="addr:district" v="Конаковский район"/>
    <tag k="addr:region" v="Тверская область"/>
    <tag k="cladr:code" v="6901500011400"/>
    <tag k="name" v="Новошино"/>
    <tag k="official_status" v="ru:деревня"/>
    <tag k="place" v="hamlet"/>
  </node>
  <node id="450601937" version="1" timestamp="2009-07-29T09:58:49Z" uid="115477" user="wowik" changeset="1973999" lat="56.6544314" lon="36.7076258">
    <tag k="name" v="Долинки"/>
    <tag k="place" v="hamlet"/>
  </node>
  <node id="450601937" version="2" timestamp="2012-01-26T21:11:00Z" uid="384084" user="Kostik" changeset="10507299" lat="56.6544314" lon="36.7076258">
    <tag k="name" v="Долинки"/>
    <tag k="place" v="hamlet"/>
  </node>
  <node id="450601937" version="3" timestamp="2012-02-09T11:51:05Z" uid="277330" user="xande almeida" changeset="10633037" lat="56.6544314" lon="36.7076258">
    <tag k="name" v="Долинки"/>
    <tag k="official_status" v="ru:деревня"/>
    <tag k="place" v="hamlet"/>
  </node>
  <node id="450601938" version="1" timestamp="2009-07-29T09:58:49Z" uid="115477" user="wowik" changeset="1973999" lat="56.5931419" lon="36.6241984">
    <tag k="name" v="Карла Маркса"/>
    <tag k="place" v="hamlet"/>
  </node>
  <node id="450601938" version="2" timestamp="2009-08-15T10:47:44Z" uid="30590" user="KekcuHa" changeset="2152389" lat="56.5931419" lon="36.6241984">
    <tag k="addr:country" v="RU"/>
    <tag k="addr:district" v="Конаковский район"/>
    <tag k="addr:postcode" v="171285"/>
    <tag k="addr:region" v="Тверская область"/>
    <tag k="cladr:code" v="6901500007200"/>
    <tag k="cladr:name" v="Карла Маркса"/>
    <tag k="cladr:suffix" v="Деревня"/>
    <tag k="name" v="Карла Маркса"/>
    <tag k="place" v="hamlet"/>
  </node>
  <node id="450601938" version="3" timestamp="2010-07-17T11:45:22Z" uid="277330" user="xande almeida" changeset="5241827" lat="56.593048" lon="36.6216526">
    <tag k="addr:country" v="RU"/>
    <tag k="addr:district" v="Конаковский район"/>
    <tag k="addr:postcode" v="171285"/>
    <tag k="addr:region" v="Тверская область"/>
    <tag k="cladr:code" v="6901500007200"/>
    <tag k="cladr:name" v="Карла Маркса"/>
    <tag k="cladr:suffix" v="Деревня"/>
    <tag k="name" v="Карла Маркса"/>
    <tag k="place" v="hamlet"/>
  </node>
  <node id="450601938" version="4" timestamp="2010-09-20T11:25:37Z" uid="215339" user="Wiseman" changeset="5828256" lat="56.5938429" lon="36.621817">
    <tag k="addr:country" v="RU"/>
    <tag k="addr:district" v="Конаковский район"/>
    <tag k="addr:postcode" v="171285"/>
    <tag k="addr:region" v="Тверская область"/>
    <tag k="cladr:code" v="6901500007200"/>
    <tag k="cladr:name" v="Карла Маркса"/>
    <tag k="cladr:suffix" v="Деревня"/>
    <tag k="name" v="Карла Маркса"/>
    <tag k="place" v="hamlet"/>
  </node>
  <node id="450601938" version="5" timestamp="2011-08-07T17:10:43Z" uid="297358" user="patashnik" changeset="8949329" lat="56.5938429" lon="36.621817">
    <tag k="addr:country" v="RU"/>
    <tag k="addr:district" v="Конаковский район"/>
    <tag k="addr:region" v="Тверская область"/>
    <tag k="cladr:code" v="6901500007200"/>
    <tag k="name" v="Карла Маркса"/>
    <tag k="place" v="hamlet"/>
  </node>
  <node id="450601938" version="6" timestamp="2012-02-09T11:51:05Z" uid="277330" user="xande almeida" changeset="10633037" lat="56.5938429" lon="36.621817">
    <tag k="addr:country" v="RU"/>
    <tag k="addr:district" v="Конаковский район"/>
    <tag k="addr:region" v="Тверская область"/>
    <tag k="cladr:code" v="6901500007200"/>
    <tag k="name" v="Карла Маркса"/>
    <tag k="official_status" v="ru:деревня"/>
    <tag k="place" v="hamlet"/>
  </node>
  <node id="450601939" version="1" timestamp="2009-07-29T09:58:49Z" uid="115477" user="wowik" changeset="1973999" lat="56.5982453" lon="36.6132121">
    <tag k="name" v="Шуклово"/>
    <tag k="place" v="hamlet"/>
  </node>
  <node id="450601939" version="2" timestamp="2009-08-15T10:47:44Z" uid="30590" user="KekcuHa" changeset="2152389" lat="56.5982453" lon="36.6132121">
    <tag k="addr:country" v="RU"/>
    <tag k="addr:district" v="Конаковский район"/>
    <tag k="addr:postcode" v="171251"/>
    <tag k="addr:region" v="Тверская область"/>
    <tag k="cladr:code" v="6901500018200"/>
    <tag k="cladr:name" v="Шуклово"/>
    <tag k="cladr:suffix" v="Деревня"/>
    <tag k="name" v="Шуклово"/>
    <tag k="place" v="hamlet"/>
  </node>
  <node id="450601939" version="3" timestamp="2010-07-17T11:45:21Z" uid="277330" user="xande almeida" changeset="5241827" lat="56.5976527" lon="36.6131248">
    <tag k="addr:country" v="RU"/>
    <tag k="addr:district" v="Конаковский район"/>
    <tag k="addr:postcode" v="171251"/>
    <tag k="addr:region" v="Тверская область"/>
    <tag k="cladr:code" v="6901500018200"/>
    <tag k="cladr:name" v="Шуклово"/>
    <tag k="cladr:suffix" v="Деревня"/>
    <tag k="name" v="Шуклово"/>
    <tag k="place" v="hamlet"/>
  </node>
  <node id="450601939" version="4" timestamp="2011-08-07T17:10:44Z" uid="297358" user="patashnik" changeset="8949329" lat="56.5976527" lon="36.6131248">
    <tag k="addr:country" v="RU"/>
    <tag k="addr:district" v="Конаковский район"/>
    <tag k="addr:region" v="Тверская область"/>
    <tag k="cladr:code" v="6901500018200"/>
    <tag k="name" v="Шуклово"/>
    <tag k="place" v="hamlet"/>
  </node>
  <node id="450601939" version="5" timestamp="2012-02-09T11:51:08Z" uid="277330" user="xande almeida" changeset="10633037" lat="56.5976527" lon="36.6131248">
    <tag k="addr:country" v="RU"/>
    <tag k="addr:district" v="Конаковский район"/>
    <tag k="addr:region" v="Тверская область"/>
    <tag k="cladr:code" v="6901500018200"/>
    <tag k="name" v="Шуклово"/>
    <tag k="official_status" v="ru:деревня"/>
    <tag k="place" v="hamlet"/>
  </node>
  <node id="450601940" version="1" timestamp="2009-07-29T09:58:49Z" uid="115477" user="wowik" changeset="1973999" lat="56.571303" lon="36.5876345">
    <tag k="name" v="Рябинки"/>
    <tag k="place" v="hamlet"/>
  </node>
  <node id="450601940" version="2" timestamp="2010-10-02T19:16:30Z" uid="215339" user="Wiseman" changeset="5938934" lat="56.5702093" lon="36.5896118">
    <tag k="name" v="Рябинки"/>
    <tag k="place" v="hamlet"/>
  </node>
  <node id="450601940" version="3" timestamp="2012-02-09T11:51:07Z" uid="277330" user="xande almeida" changeset="10633037" lat="56.5702093" lon="36.5896118">
    <tag k="name" v="Рябинки"/>
    <tag k="official_status" v="ru:деревня"/>
    <tag k="place" v="hamlet"/>
  </node>
  <node id="450601941" version="1" timestamp="2009-07-29T09:58:49Z" uid="115477" user="wowik" changeset="1973999" lat="56.6614511" lon="36.6660409"/>
  <node id="450601941" version="2" timestamp="2010-05-03T15:31:29Z" uid="102437" user="open650" changeset="4595954" lat="56.6615482" lon="36.6660733"/>
  <node id="450601941" version="3" timestamp="2011-04-10T12:36:42Z" uid="306635" user="domay" changeset="7822485" lat="56.6615482" lon="36.6661377"/>
  <node id="450601942" version="1" timestamp="2009-07-29T09:58:50Z" uid="115477" user="wowik" changeset="1973999" lat="56.6617294" lon="36.6673283"/>
  <node id="450601942" version="2" timestamp="2010-05-03T15:31:29Z" uid="102437" user="open650" changeset="4595954" lat="56.6618589" lon="36.6673121"/>
  <node id="450601942" version="3" timestamp="2011-04-10T12:36:43Z" uid="306635" user="domay" changeset="7822485" lat="56.6618589" lon="36.6673765"/>
  <node id="450601943" version="1" timestamp="2009-07-29T09:58:50Z" uid="115477" user="wowik" changeset="1973999" lat="56.6630502" lon="36.6729245"/>
  <node id="450601943" version="2" timestamp="2010-05-03T15:31:29Z" uid="102437" user="open650" changeset="4595954" lat="56.6631959" lon="36.6728436"/>
  <node id="450601943" version="3" timestamp="2011-04-10T12:36:42Z" uid="306635" user="domay" changeset="7822485" lat="56.6631959" lon="36.672908"/>
  <node id="450601943" version="4" timestamp="2011-04-11T05:49:19Z" uid="277330" user="xande almeida" changeset="7829516" lat="56.6632975" lon="36.6731981"/>
  <node id="450601944" version="1" timestamp="2009-07-29T09:58:50Z" uid="115477" user="wowik" changeset="1973999" lat="56.6634653" lon="36.6750273"/>
  <node id="450601944" version="2" timestamp="2010-05-03T15:31:29Z" uid="102437" user="open650" changeset="4595954" lat="56.6636433" lon="36.6750597"/>
  <node id="450601944" version="3" timestamp="2010-05-04T16:40:24Z" uid="102437" user="open650" changeset="4605687" lat="56.6637632" lon="36.6749725"/>
  <node id="450601944" version="4" timestamp="2011-04-10T12:36:42Z" uid="306635" user="domay" changeset="7822485" lat="56.6637632" lon="36.6750369"/>
  <node id="450601944" version="5" timestamp="2011-04-11T05:49:19Z" uid="277330" user="xande almeida" changeset="7829516" lat="56.6636841" lon="36.6748234"/>
  <node id="450601945" version="1" timestamp="2009-07-29T09:58:50Z" uid="115477" user="wowik" changeset="1973999" lat="56.6643049" lon="36.679173"/>
  <node id="450601945" version="2" timestamp="2010-05-03T15:31:29Z" uid="102437" user="open650" changeset="4595954" lat="56.6644829" lon="36.6790435"/>
  <node id="450601945" version="3" timestamp="2011-04-09T22:07:22Z" uid="306635" user="domay" changeset="7817985" lat="56.6644082" lon="36.6790842"/>
  <node id="450601945" version="4" timestamp="2011-04-10T12:36:43Z" uid="306635" user="domay" changeset="7822485" lat="56.6644082" lon="36.6791486"/>
  <node id="450601945" version="5" timestamp="2011-04-11T05:49:18Z" uid="277330" user="xande almeida" changeset="7829516" lat="56.6644643" lon="36.6792878"/>
  <node id="450601946" version="1" timestamp="2009-07-29T09:58:50Z" uid="115477" user="wowik" changeset="1973999" lat="56.6653567" lon="36.6843056"/>
  <node id="450601946" version="2" timestamp="2010-05-04T17:21:59Z" uid="102437" user="open650" changeset="4606024" lat="56.6654621" lon="36.6841701"/>
  <node id="450601946" version="3" timestamp="2011-04-09T22:07:22Z" uid="306635" user="domay" changeset="7817985" lat="56.6654332" lon="36.6842061"/>
  <node id="450601946" version="4" timestamp="2011-04-10T12:36:43Z" uid="306635" user="domay" changeset="7822485" lat="56.6654332" lon="36.6842705"/>
  <node id="450601946" version="5" timestamp="2011-04-11T05:49:18Z" uid="277330" user="xande almeida" changeset="7829516" lat="56.6654852" lon="36.6843002"/>
  <node id="450601946" version="6" timestamp="2011-04-11T10:51:27Z" uid="277330" user="xande almeida" changeset="7831779" lat="56.6654772" lon="36.6842413"/>
  <node id="450601947" version="1" timestamp="2009-07-29T09:58:50Z" uid="115477" user="wowik" changeset="1973999" lat="56.6658944" lon="36.6868548"/>
  <node id="450601947" version="2" timestamp="2011-03-13T12:39:19Z" uid="277330" user="xande almeida" changeset="7544184" lat="56.6658944" lon="36.6868548"/>
  <node id="450601948" version="1" timestamp="2009-07-29T09:58:50Z" uid="115477" user="wowik" changeset="1973999" lat="56.6664462" lon="36.6896701"/>
  <node id="450601948" version="2" timestamp="2010-05-03T15:31:29Z" uid="102437" user="open650" changeset="4595954" lat="56.6665726" lon="36.6893414"/>
  <node id="450601948" version="3" timestamp="2011-03-13T12:39:19Z" uid="277330" user="xande almeida" changeset="7544184" lat="56.6665726" lon="36.6893414"/>
  <node id="450601949" version="1" timestamp="2009-07-29T09:58:50Z" uid="115477" user="wowik" changeset="1973999" lat="56.6672622" lon="36.6915068"/>
  <node id="450601949" version="2" timestamp="2011-03-13T12:39:19Z" uid="277330" user="xande almeida" changeset="7544184" lat="56.6672622" lon="36.6915068"/>
  <node id="450601952" version="1" timestamp="2009-07-29T09:58:50Z" uid="115477" user="wowik" changeset="1973999" lat="56.6678612" lon="36.6930175"/>
  <node id="450601952" version="2" timestamp="2011-03-13T12:39:20Z" uid="277330" user="xande almeida" changeset="7544184" lat="56.6678612" lon="36.6930175"/>
  <node id="450601959" version="1" timestamp="2009-07-29T09:58:51Z" uid="115477" user="wowik" changeset="1973999" lat="56.6686771" lon="36.6970858"/>
  <node id="450601959" version="2" timestamp="2011-04-10T12:36:43Z" uid="306635" user="domay" changeset="7822485" lat="56.6686771" lon="36.6971502"/>
  <node id="450601963" version="1" timestamp="2009-07-29T09:58:51Z" uid="115477" user="wowik" changeset="1973999" lat="56.6687478" lon="36.6993174"/>
  <node id="450601963" version="2" timestamp="2010-05-03T15:31:30Z" uid="102437" user="open650" changeset="4595954" lat="56.6688203" lon="36.6992656"/>
  <node id="450601963" version="3" timestamp="2011-04-10T12:36:43Z" uid="306635" user="domay" changeset="7822485" lat="56.6688203" lon="36.69933"/>
  <node id="450601966" version="1" timestamp="2009-07-29T09:58:51Z" uid="115477" user="wowik" changeset="1973999" lat="56.6688893" lon="36.7036347"/>
  <node id="450601966" version="2" timestamp="2010-05-03T15:31:29Z" uid="102437" user="open650" changeset="4595954" lat="56.6690343" lon="36.7036658"/>
  <node id="450601966" version="3" timestamp="2011-04-10T12:36:43Z" uid="306635" user="domay" changeset="7822485" lat="56.6690343" lon="36.7037302"/>
  <node id="450601967" version="1" timestamp="2009-07-29T09:58:51Z" uid="115477" user="wowik" changeset="1973999" lat="56.6693609" lon="36.7087846"/>
  <node id="450601967" version="2" timestamp="2011-04-10T12:36:43Z" uid="306635" user="domay" changeset="7822485" lat="56.6693609" lon="36.708849"/>
  <node id="450601982" version="1" timestamp="2009-07-29T09:58:52Z" uid="115477" user="wowik" changeset="1973999" lat="56.6705399" lon="36.6853957"/>
  <node id="450601982" version="2" timestamp="2011-03-13T12:38:53Z" uid="277330" user="xande almeida" changeset="7544184" lat="56.6703683" lon="36.6866374"/>
  <node id="450601985" version="1" timestamp="2009-07-29T09:58:52Z" uid="115477" user="wowik" changeset="1973999" lat="56.6705164" lon="36.6868119"/>
  <node id="450601985" version="2" timestamp="2011-03-13T12:39:03Z" uid="277330" user="xande almeida" changeset="7544184" lat="56.6702869" lon="36.6873688"/>
  <node id="450601988" version="1" timestamp="2009-07-29T09:58:52Z" uid="115477" user="wowik" changeset="1973999" lat="56.6701627" lon="36.6884427"/>
  <node id="450601988" version="2" timestamp="2011-03-13T12:38:50Z" uid="277330" user="xande almeida" changeset="7544184" lat="56.6697988" lon="36.6894774"/>
  <node id="450601989" version="1" timestamp="2009-07-29T09:58:52Z" uid="115477" user="wowik" changeset="1973999" lat="56.669809" lon="36.6899447"/>
  <node id="450601989" version="2" timestamp="2011-03-13T12:38:33Z" uid="277330" user="xande almeida" changeset="7544184" lat="56.6695669" lon="36.6901855"/>
  <node id="450601990" version="1" timestamp="2009-07-29T09:58:52Z" uid="115477" user="wowik" changeset="1973999" lat="56.6693138" lon="36.6910176"/>
  <node id="450601990" version="2" timestamp="2011-03-13T12:38:00Z" uid="277330" user="xande almeida" changeset="7544184" lat="56.6693014" lon="36.6909762"/>
  <node id="450601991" version="1" timestamp="2009-07-29T09:58:52Z" uid="115477" user="wowik" changeset="1973999" lat="56.668795" lon="36.6921592"/>
  <node id="450601991" version="2" timestamp="2010-05-03T15:31:29Z" uid="102437" user="open650" changeset="4595954" lat="56.6686811" lon="36.6924389"/>
  <node id="450601991" version="3" timestamp="2011-03-13T12:39:17Z" uid="277330" user="xande almeida" changeset="7544184" lat="56.6686922" lon="36.6928908"/>
  <node id="450601991" version="4" timestamp="2011-04-10T12:36:40Z" uid="306635" user="domay" changeset="7822485" lat="56.6686922" lon="36.6929552"/>
  <node id="450601992" version="1" timestamp="2009-07-29T09:58:53Z" uid="115477" user="wowik" changeset="1973999" lat="56.6369471" lon="36.6294513"/>
  <node id="450601992" version="2" timestamp="2010-01-05T14:00:08Z" uid="215339" user="Wiseman" changeset="3545555" lat="56.6369471" lon="36.6294513"/>
  <node id="450601992" version="3" timestamp="2010-05-04T16:40:23Z" uid="102437" user="open650" changeset="4605687" lat="56.6373084" lon="36.628832"/>
  <node id="450601993" version="1" timestamp="2009-07-29T09:58:53Z" uid="115477" user="wowik" changeset="1973999" lat="56.638349" lon="36.6311679"/>
  <node id="450601993" version="2" timestamp="2010-01-05T14:00:09Z" uid="215339" user="Wiseman" changeset="3545555" lat="56.638349" lon="36.6311679"/>
  <node id="450601993" version="3" timestamp="2010-05-04T16:40:23Z" uid="102437" user="open650" changeset="4605687" lat="56.6384264" lon="36.6300325"/>
  <node id="450601994" version="1" timestamp="2009-07-29T09:58:53Z" uid="115477" user="wowik" changeset="1973999" lat="56.6404635" lon="36.6309962"/>
  <node id="450601994" version="2" timestamp="2010-01-05T14:00:09Z" uid="215339" user="Wiseman" changeset="3545555" lat="56.6404635" lon="36.6309962"/>
  <node id="450601994" version="3" timestamp="2010-05-04T16:40:23Z" uid="102437" user="open650" changeset="4605687" lat="56.6407732" lon="36.630893"/>
  <node id="450601995" version="1" timestamp="2009-07-29T09:58:53Z" uid="115477" user="wowik" changeset="1973999" lat="56.6417756" lon="36.6302066"/>
  <node id="450601995" version="2" timestamp="2010-01-05T14:00:09Z" uid="215339" user="Wiseman" changeset="3545555" lat="56.6417756" lon="36.6302066"/>
  <node id="450601995" version="3" timestamp="2010-04-27T14:40:16Z" uid="115477" user="wowik" changeset="4541560" lat="56.6415103" lon="36.6296417"/>
  <node id="450601995" version="4" timestamp="2010-05-03T15:31:28Z" uid="102437" user="open650" changeset="4595954" lat="56.6414844" lon="36.6293828"/>
  <node id="450601996" version="1" timestamp="2009-07-29T09:58:54Z" uid="115477" user="wowik" changeset="1973999" lat="56.6500528" lon="36.6525483"/>
  <node id="450601996" version="2" timestamp="2010-01-05T14:00:10Z" uid="215339" user="Wiseman" changeset="3545555" lat="56.6500528" lon="36.6525483"/>
  <node id="450601997" version="1" timestamp="2009-07-29T09:58:54Z" uid="115477" user="wowik" changeset="1973999" lat="56.6505247" lon="36.6547284"/>
  <node id="450601997" version="2" timestamp="2010-01-05T14:00:10Z" uid="215339" user="Wiseman" changeset="3545555" lat="56.6505247" lon="36.6547284"/>
  <node id="450601997" version="3" timestamp="2010-05-03T15:31:28Z" uid="102437" user="open650" changeset="4595954" lat="56.6507189" lon="36.6547672"/>
  <node id="450601998" version="1" timestamp="2009-07-29T09:58:54Z" uid="115477" user="wowik" changeset="1973999" lat="56.6531811" lon="36.6570287"/>
  <node id="450601998" version="2" timestamp="2010-01-05T14:00:10Z" uid="215339" user="Wiseman" changeset="3545555" lat="56.6531811" lon="36.6570287"/>
  <node id="450601998" version="3" timestamp="2010-05-03T15:31:29Z" uid="102437" user="open650" changeset="4595954" lat="56.6534271" lon="36.6566144"/>
  <node id="450601999" version="1" timestamp="2009-07-29T09:58:54Z" uid="115477" user="wowik" changeset="1973999" lat="56.653969" lon="36.6587023"/>
  <node id="450601999" version="2" timestamp="2010-01-05T14:00:11Z" uid="215339" user="Wiseman" changeset="3545555" lat="56.653969" lon="36.6587023"/>
  <node id="450601999" version="3" timestamp="2010-05-03T15:31:29Z" uid="102437" user="open650" changeset="4595954" lat="56.6546811" lon="36.6581197"/>
  <node id="450602000" version="1" timestamp="2009-07-29T09:58:54Z" uid="115477" user="wowik" changeset="1973999" lat="56.6571785" lon="36.6616858"/>
  <node id="450602000" version="2" timestamp="2010-01-05T14:00:11Z" uid="215339" user="Wiseman" changeset="3545555" lat="56.6571785" lon="36.6616858"/>
  <node id="450602001" version="1" timestamp="2009-07-29T09:58:54Z" uid="115477" user="wowik" changeset="1973999" lat="56.657781" lon="36.6634917"/>
  <node id="450602001" version="2" timestamp="2010-01-05T14:00:11Z" uid="215339" user="Wiseman" changeset="3545555" lat="56.657781" lon="36.6634917"/>
  <node id="450602001" version="3" timestamp="2010-05-03T15:31:29Z" uid="102437" user="open650" changeset="4595954" lat="56.6581047" lon="36.6636374"/>
  <node id="450602302" version="1" timestamp="2009-07-29T09:59:14Z" uid="74617" user="JohnSmith" changeset="1974003" lat="-25.9506126" lon="153.1795246"/>
  <node id="450602303" version="1" timestamp="2009-07-29T09:59:14Z" uid="74617" user="JohnSmith" changeset="1974003" lat="-25.9505043" lon="153.1791194"/>
  <node id="450602304" version="1" timestamp="2009-07-29T09:59:14Z" uid="74617" user="JohnSmith" changeset="1974003" lat="-25.9496582" lon="153.1788886"/>
  <node id="450602305" version="1" timestamp="2009-07-29T09:59:14Z" uid="74617" user="JohnSmith" changeset="1974003" lat="-25.9489877" lon="153.178498"/>
  <node id="450602306" version="1" timestamp="2009-07-29T09:59:14Z" uid="74617" user="JohnSmith" changeset="1974003" lat="-25.9482534" lon="153.1783915"/>
  <node id="450602307" version="1" timestamp="2009-07-29T09:59:14Z" uid="74617" user="JohnSmith" changeset="1974003" lat="-25.9473274" lon="153.1777168"/>
  <node id="450602308" version="1" timestamp="2009-07-29T09:59:14Z" uid="74617" user="JohnSmith" changeset="1974003" lat="-25.9462578" lon="153.1776458"/>
  <node id="450602309" version="1" timestamp="2009-07-29T09:59:14Z" uid="74617" user="JohnSmith" changeset="1974003" lat="-25.9609992" lon="152.9660111"/>
  <node id="450602310" version="1" timestamp="2009-07-29T09:59:15Z" uid="74617" user="JohnSmith" changeset="1974003" lat="-25.9531198" lon="152.9726249"/>
  <node id="450602311" version="1" timestamp="2009-07-29T09:59:15Z" uid="74617" user="JohnSmith" changeset="1974003" lat="-25.9546065" lon="152.9866793"/>
  <node id="450602312" version="1" timestamp="2009-07-29T09:59:15Z" uid="74617" user="JohnSmith" changeset="1974003" lat="-25.9615938" lon="152.9979229"/>
  <node id="450602313" version="1" timestamp="2009-07-29T09:59:15Z" uid="74617" user="JohnSmith" changeset="1974003" lat="-25.9827017" lon="153.0090011"/>
  <node id="450602313" version="2" timestamp="2009-08-26T13:15:07Z" uid="74617" user="JohnSmith" changeset="2267481" lat="-25.9878162" lon="153.0017208"/>
  <node id="450602314" version="1" timestamp="2009-07-29T09:59:15Z" uid="74617" user="JohnSmith" changeset="1974003" lat="-25.9951863" lon="153.0020565"/>
  <node id="450602314" version="2" timestamp="2009-08-26T13:15:07Z" uid="74617" user="JohnSmith" changeset="2267481" lat="-25.9894122" lon="153.0013223"/>
  <node id="450602315" version="1" timestamp="2009-07-29T09:59:15Z" uid="74617" user="JohnSmith" changeset="1974003" lat="-25.9942946" lon="152.9914744"/>
  <node id="450602315" version="2" timestamp="2009-08-26T13:15:07Z" uid="74617" user="JohnSmith" changeset="2267481" lat="-25.9908302" lon="152.9941663"/>
  <node id="450602316" version="1" timestamp="2009-07-29T09:59:15Z" uid="74617" user="JohnSmith" changeset="1974003" lat="-25.979729" lon="152.9732863"/>
  <node id="450602317" version="1" timestamp="2009-07-29T09:59:15Z" uid="74617" user="JohnSmith" changeset="1974003" lat="-25.967986" lon="152.9646883"/>
  <node id="450602318" version="1" timestamp="2009-07-29T09:59:15Z" uid="74617" user="JohnSmith" changeset="1974003" lat="-25.9149896" lon="152.995589"/>
  <node id="450602319" version="1" timestamp="2009-07-29T09:59:15Z" uid="74617" user="JohnSmith" changeset="1974003" lat="-25.9212028" lon="152.9973499"/>
  <node id="450602320" version="1" timestamp="2009-07-29T09:59:15Z" uid="74617" user="JohnSmith" changeset="1974003" lat="-25.9277202" lon="152.9922027"/>
  <node id="450602321" version="1" timestamp="2009-07-29T09:59:15Z" uid="74617" user="JohnSmith" changeset="1974003" lat="-25.9308265" lon="152.994844"/>
  <node id="450602322" version="1" timestamp="2009-07-29T09:59:15Z" uid="74617" user="JohnSmith" changeset="1974003" lat="-25.931192" lon="152.9992462"/>
  <node id="450602323" version="1" timestamp="2009-07-29T09:59:15Z" uid="74617" user="JohnSmith" changeset="1974003" lat="-25.9272939" lon="153.0070346"/>
  <node id="450602324" version="1" timestamp="2009-07-29T09:59:15Z" uid="74617" user="JohnSmith" changeset="1974003" lat="-25.9332628" lon="153.013875"/>
  <node id="450602324" version="2" timestamp="2009-08-26T12:34:34Z" uid="74617" user="JohnSmith" changeset="2267040" lat="-25.931389" lon="153.0145935"/>
  <node id="450602325" version="1" timestamp="2009-07-29T09:59:15Z" uid="74617" user="JohnSmith" changeset="1974003" lat="-25.9307047" lon="153.0171258"/>
  <node id="450602325" version="2" timestamp="2009-08-26T12:34:33Z" uid="74617" user="JohnSmith" changeset="2267040" lat="-25.9303909" lon="153.0153706"/>
  <node id="450602326" version="1" timestamp="2009-07-29T09:59:15Z" uid="74617" user="JohnSmith" changeset="1974003" lat="-25.9235174" lon="153.0140104"/>
  <node id="450602326" version="2" timestamp="2009-08-26T12:34:34Z" uid="74617" user="JohnSmith" changeset="2267040" lat="-25.9252898" lon="153.0116907"/>
  <node id="450602327" version="1" timestamp="2009-07-29T09:59:15Z" uid="74617" user="JohnSmith" changeset="1974003" lat="-25.9202891" lon="153.0093373"/>
  <node id="450602327" version="2" timestamp="2009-08-26T12:34:34Z" uid="74617" user="JohnSmith" changeset="2267040" lat="-25.9194439" lon="153.0065182"/>
  <node id="450602328" version="1" timestamp="2009-07-29T09:59:15Z" uid="74617" user="JohnSmith" changeset="1974003" lat="-25.9126138" lon="153.0102178"/>
  <node id="450602328" version="2" timestamp="2009-08-26T12:34:34Z" uid="74617" user="JohnSmith" changeset="2267040" lat="-25.9124448" lon="153.0082444"/>
  <node id="450602329" version="1" timestamp="2009-07-29T09:59:15Z" uid="74617" user="JohnSmith" changeset="1974003" lat="-25.9059737" lon="153.0129268"/>
  <node id="450602329" version="2" timestamp="2009-08-26T12:34:34Z" uid="74617" user="JohnSmith" changeset="2267040" lat="-25.9093266" lon="153.0079776"/>
  <node id="450602330" version="1" timestamp="2009-07-29T09:59:15Z" uid="74617" user="JohnSmith" changeset="1974003" lat="-25.9046944" lon="153.0180062"/>
  <node id="450602330" version="2" timestamp="2009-08-26T12:34:34Z" uid="74617" user="JohnSmith" changeset="2267040" lat="-25.9055625" lon="153.0105816"/>
  <node id="450602331" version="1" timestamp="2009-07-29T09:59:15Z" uid="74617" user="JohnSmith" changeset="1974003" lat="-25.8996988" lon="153.0163808"/>
  <node id="450602331" version="2" timestamp="2009-08-26T12:34:43Z" uid="74617" user="JohnSmith" changeset="2267040" lat="-25.8996988" lon="153.0163808"/>
  <node id="450602332" version="1" timestamp="2009-07-29T09:59:15Z" uid="74617" user="JohnSmith" changeset="1974003" lat="-25.9019529" lon="153.0109627"/>
  <node id="450602332" version="2" timestamp="2009-08-26T12:34:34Z" uid="74617" user="JohnSmith" changeset="2267040" lat="-25.906602" lon="153.0081122"/>
  <node id="450602333" version="1" timestamp="2009-07-29T09:59:16Z" uid="74617" user="JohnSmith" changeset="1974003" lat="-25.9087151" lon="153.0001266"/>
  <node id="450602334" version="1" timestamp="2009-07-29T09:59:16Z" uid="74617" user="JohnSmith" changeset="1974003" lat="-25.9007954" lon="153.0790272"/>
  <node id="450602334" version="2" timestamp="2009-08-13T02:26:48Z" uid="74617" user="JohnSmith" changeset="2126047" lat="-25.9007528" lon="153.0805418"/>
  <node id="450602335" version="1" timestamp="2009-07-29T09:59:16Z" uid="74617" user="JohnSmith" changeset="1974003" lat="-25.9090197" lon="153.0752345"/>
  <node id="450602335" version="2" timestamp="2009-08-13T02:26:48Z" uid="74617" user="JohnSmith" changeset="2126047" lat="-25.9092964" lon="153.0776247"/>
  <node id="450602336" version="1" timestamp="2009-07-29T09:59:16Z" uid="74617" user="JohnSmith" changeset="1974003" lat="-25.915416" lon="153.0856643"/>
  <node id="450602336" version="2" timestamp="2009-08-13T02:26:48Z" uid="74617" user="JohnSmith" changeset="2126047" lat="-25.9152244" lon="153.0902318"/>
  <node id="450602337" version="1" timestamp="2009-07-29T09:59:16Z" uid="74617" user="JohnSmith" changeset="1974003" lat="-25.9162688" lon="153.0924369"/>
  <node id="450602337" version="2" timestamp="2009-08-13T02:26:57Z" uid="74617" user="JohnSmith" changeset="2126047" lat="-25.9162688" lon="153.0924369"/>
  <node id="450602338" version="1" timestamp="2009-07-29T09:59:16Z" uid="74617" user="JohnSmith" changeset="1974003" lat="-25.9092634" lon="153.101783"/>
  <node id="450602338" version="2" timestamp="2009-08-13T02:26:48Z" uid="74617" user="JohnSmith" changeset="2126047" lat="-25.9099659" lon="153.0987538"/>
  <node id="450602339" version="1" timestamp="2009-07-29T09:59:16Z" uid="74617" user="JohnSmith" changeset="1974003" lat="-25.8964089" lon="153.091895"/>
  <node id="450602339" version="2" timestamp="2009-08-13T02:26:48Z" uid="74617" user="JohnSmith" changeset="2126047" lat="-25.8982611" lon="153.0903331"/>
  <node id="450602340" version="1" timestamp="2009-07-29T09:59:16Z" uid="74617" user="JohnSmith" changeset="1974003" lat="-25.8800798" lon="153.0846484"/>
  <node id="450602340" version="2" timestamp="2009-08-13T02:26:48Z" uid="74617" user="JohnSmith" changeset="2126047" lat="-25.8853176" lon="153.0842461"/>
  <node id="450602341" version="1" timestamp="2009-07-29T09:59:16Z" uid="74617" user="JohnSmith" changeset="1974003" lat="-25.8822125" lon="153.0771986"/>
  <node id="450602341" version="2" timestamp="2009-08-13T02:26:48Z" uid="74617" user="JohnSmith" changeset="2126047" lat="-25.8859385" lon="153.0788079"/>
  <node id="450602342" version="1" timestamp="2009-07-29T09:59:16Z" uid="74617" user="JohnSmith" changeset="1974003" lat="-25.8920831" lon="153.0784176"/>
  <node id="450602342" version="2" timestamp="2009-08-13T02:26:48Z" uid="74617" user="JohnSmith" changeset="2126047" lat="-25.8920192" lon="153.0793169"/>
  <node id="450602368" version="2" timestamp="2010-09-22T06:47:53Z" uid="6975" user="ulfl" changeset="5842875" lat="46.6291993" lon="7.3901261">
    <tag k="addr:city" v="Boltigen"/>
    <tag k="addr:country" v="CH"/>
    <tag k="addr:postcode" v="3766"/>
    <tag k="amenity" v="restaurant"/>
    <tag k="cuisine" v="regional"/>
    <tag k="internet_access" v="wlan"/>
    <tag k="internet_access:fee" v="no"/>
    <tag k="name" v="Simmental"/>
    <tag k="operator" v="Familie K.+S. Moser"/>
    <tag k="phone" v="033 773 60 51"/>
    <tag k="tourism" v="hotel"/>
    <tag k="website" v="www.hotel-simmental.ch"/>
  </node>
  <node id="450602368" version="3" timestamp="2012-03-16T13:51:45Z" uid="178186" user="mdk" changeset="10998500" lat="46.6291993" lon="7.3901261"/>
  <node id="450602411" version="1" timestamp="2009-07-29T10:00:18Z" uid="115477" user="wowik" changeset="1973999" lat="56.6849304" lon="36.7003302">
    <tag k="highway" v="bus_stop"/>
    <tag k="name" v="Карачарово"/>
  </node>
  <node id="450602411" version="2" timestamp="2011-02-09T13:10:23Z" uid="115477" user="wowik" changeset="7235925" lat="56.6849948" lon="36.700295">
    <tag k="highway" v="bus_stop"/>
    <tag k="name" v="Карачарово"/>
  </node>
  <node id="450602411" version="3" timestamp="2011-08-10T09:57:38Z" uid="277330" user="xande almeida" changeset="8974779" lat="56.6852147" lon="36.7004219">
    <tag k="highway" v="bus_stop"/>
    <tag k="name" v="Карачарово"/>
  </node>
  <node id="450602411" version="4" timestamp="2011-11-13T12:42:46Z" uid="306635" user="domay" changeset="9813510" lat="56.6852265" lon="36.7004273">
    <tag k="highway" v="bus_stop"/>
    <tag k="name" v="Карачарово"/>
  </node>
  <node id="450602411" version="5" timestamp="2011-11-13T13:19:42Z" uid="306635" user="domay" changeset="9813863" lat="56.6852396" lon="36.7004995">
    <tag k="highway" v="bus_stop"/>
    <tag k="name" v="Карачарово"/>
  </node>
  <node id="450602411" version="6" timestamp="2011-11-13T13:25:03Z" uid="306635" user="domay" changeset="9813899" lat="56.6852455" lon="36.7004405">
    <tag k="highway" v="bus_stop"/>
    <tag k="name" v="Карачарово"/>
  </node>
  <node id="450607855" version="2" timestamp="2009-11-06T16:03:50Z" uid="36809" user="pfoten_weg_!_" changeset="3049293" lat="55.2515796" lon="21.6269394"/>
  <node id="450607856" version="2" timestamp="2009-11-06T16:03:49Z" uid="36809" user="pfoten_weg_!_" changeset="3049293" lat="55.2499624" lon="21.6312223"/>
  <node id="450607857" version="2" timestamp="2009-11-06T16:03:54Z" uid="36809" user="pfoten_weg_!_" changeset="3049293" lat="55.2441052" lon="21.6468868"/>
  <node id="450607858" version="2" timestamp="2009-11-06T16:03:51Z" uid="36809" user="pfoten_weg_!_" changeset="3049293" lat="55.2398954" lon="21.6582014"/>
  <node id="450607859" version="2" timestamp="2009-11-06T16:03:42Z" uid="36809" user="pfoten_weg_!_" changeset="3049293" lat="55.2352776" lon="21.6701115"/>
  <node id="450607860" version="2" timestamp="2009-11-06T16:03:48Z" uid="36809" user="pfoten_weg_!_" changeset="3049293" lat="55.230048" lon="21.6851183"/>
  <node id="450607861" version="2" timestamp="2009-11-06T16:03:47Z" uid="36809" user="pfoten_weg_!_" changeset="3049293" lat="55.229007" lon="21.6882307"/>
  <node id="450607861" version="3" timestamp="2011-11-08T21:40:28Z" uid="233315" user="Dirbam" changeset="9777314" lat="55.2290142" lon="21.6882942"/>
  <node id="450607865" version="2" timestamp="2009-11-06T16:03:45Z" uid="36809" user="pfoten_weg_!_" changeset="3049293" lat="55.2290348" lon="21.6984997"/>
  <node id="450607866" version="2" timestamp="2009-11-06T16:03:45Z" uid="36809" user="pfoten_weg_!_" changeset="3049293" lat="55.2288957" lon="21.6992071"/>
  <node id="450607866" version="3" timestamp="2011-10-07T23:40:07Z" uid="233315" user="Dirbam" changeset="9498591" lat="55.2287381" lon="21.6994221"/>
  <node id="450607869" version="2" timestamp="2009-11-06T16:04:02Z" uid="36809" user="pfoten_weg_!_" changeset="3049293" lat="55.2234284" lon="21.7166717"/>
  <node id="450607870" version="2" timestamp="2009-11-06T16:04:00Z" uid="36809" user="pfoten_weg_!_" changeset="3049293" lat="55.2168611" lon="21.7272334"/>
  <node id="450607871" version="2" timestamp="2009-11-06T16:03:56Z" uid="36809" user="pfoten_weg_!_" changeset="3049293" lat="55.2104319" lon="21.7376732"/>
  <node id="450607872" version="2" timestamp="2009-11-06T16:03:57Z" uid="36809" user="pfoten_weg_!_" changeset="3049293" lat="55.2040017" lon="21.7481129"/>
  <node id="450607873" version="2" timestamp="2009-11-06T16:04:07Z" uid="36809" user="pfoten_weg_!_" changeset="3049293" lat="55.2005773" lon="21.7536255"/>
  <node id="450607874" version="2" timestamp="2009-11-06T16:04:08Z" uid="36809" user="pfoten_weg_!_" changeset="3049293" lat="55.1995054" lon="21.7555037"/>
  <node id="450607875" version="2" timestamp="2009-11-06T16:04:05Z" uid="36809" user="pfoten_weg_!_" changeset="3049293" lat="55.1990461" lon="21.7568452"/>
  <node id="450607876" version="2" timestamp="2009-11-06T16:04:06Z" uid="36809" user="pfoten_weg_!_" changeset="3049293" lat="55.195428" lon="21.7697803"/>
  <node id="450607876" version="3" timestamp="2011-11-08T21:56:55Z" uid="233315" user="Dirbam" changeset="9777455" lat="55.195428" lon="21.7697803"/>
  <node id="450607877" version="2" timestamp="2009-11-06T16:03:12Z" uid="36809" user="pfoten_weg_!_" changeset="3049293" lat="55.1914509" lon="21.7837746"/>
  <node id="450607878" version="2" timestamp="2009-11-06T16:03:13Z" uid="36809" user="pfoten_weg_!_" changeset="3049293" lat="55.1877794" lon="21.7966971"/>
  <node id="450607879" version="2" timestamp="2009-11-06T16:04:20Z" uid="36809" user="pfoten_weg_!_" changeset="3049293" lat="55.1861815" lon="21.8021162"/>
  <node id="450607880" version="2" timestamp="2009-11-06T16:04:21Z" uid="36809" user="pfoten_weg_!_" changeset="3049293" lat="55.1850256" lon="21.8048556"/>
  <node id="450607881" version="2" timestamp="2009-11-06T16:04:16Z" uid="36809" user="pfoten_weg_!_" changeset="3049293" lat="55.1835296" lon="21.8067612"/>
  <node id="450607882" version="2" timestamp="2009-11-06T16:04:17Z" uid="36809" user="pfoten_weg_!_" changeset="3049293" lat="55.1824416" lon="21.8084286"/>
  <node id="450607883" version="2" timestamp="2009-11-06T16:04:18Z" uid="36809" user="pfoten_weg_!_" changeset="3049293" lat="55.1811155" lon="21.8121207"/>
  <node id="450607884" version="2" timestamp="2009-11-06T16:04:19Z" uid="36809" user="pfoten_weg_!_" changeset="3049293" lat="55.1800274" lon="21.8145623"/>
  <node id="450607885" version="2" timestamp="2009-11-06T16:04:22Z" uid="36809" user="pfoten_weg_!_" changeset="3049293" lat="55.1763889" lon="21.8211129"/>
  <node id="450607886" version="2" timestamp="2009-11-06T16:04:23Z" uid="36809" user="pfoten_weg_!_" changeset="3049293" lat="55.1759571" lon="21.8222105"/>
  <node id="450607887" version="2" timestamp="2009-11-06T16:04:24Z" uid="36809" user="pfoten_weg_!_" changeset="3049293" lat="55.1740627" lon="21.8329186"/>
  <node id="450607888" version="2" timestamp="2009-11-06T16:04:25Z" uid="36809" user="pfoten_weg_!_" changeset="3049293" lat="55.1736866" lon="21.834504"/>
  <node id="450607889" version="2" timestamp="2009-11-06T16:04:25Z" uid="36809" user="pfoten_weg_!_" changeset="3049293" lat="55.1733801" lon="21.8354797"/>
  <node id="450607890" version="2" timestamp="2009-11-06T16:04:14Z" uid="36809" user="pfoten_weg_!_" changeset="3049293" lat="55.1729343" lon="21.836431"/>
  <node id="450607891" version="2" timestamp="2009-11-06T16:04:26Z" uid="36809" user="pfoten_weg_!_" changeset="3049293" lat="55.1696188" lon="21.84309"/>
  <node id="450607895" version="2" timestamp="2009-11-06T16:04:28Z" uid="36809" user="pfoten_weg_!_" changeset="3049293" lat="55.1618861" lon="21.8534078"/>
  <node id="450607896" version="2" timestamp="2009-11-06T16:04:29Z" uid="36809" user="pfoten_weg_!_" changeset="3049293" lat="55.1610918" lon="21.8547981"/>
  <node id="450607897" version="2" timestamp="2009-11-06T16:04:27Z" uid="36809" user="pfoten_weg_!_" changeset="3049293" lat="55.155448" lon="21.8665794"/>
  <node id="450607898" version="2" timestamp="2009-11-06T16:04:27Z" uid="36809" user="pfoten_weg_!_" changeset="3049293" lat="55.1523819" lon="21.8731164"/>
  <node id="450607899" version="2" timestamp="2009-11-06T16:04:11Z" uid="36809" user="pfoten_weg_!_" changeset="3049293" lat="55.1508348" lon="21.8764825"/>
  <node id="450607900" version="2" timestamp="2009-11-06T16:04:12Z" uid="36809" user="pfoten_weg_!_" changeset="3049293" lat="55.1495246" lon="21.879995"/>
  <node id="450607901" version="2" timestamp="2009-11-06T16:04:53Z" uid="36809" user="pfoten_weg_!_" changeset="3049293" lat="55.1476289" lon="21.88541"/>
  <node id="450607902" version="2" timestamp="2009-11-06T16:04:53Z" uid="36809" user="pfoten_weg_!_" changeset="3049293" lat="55.1437676" lon="21.8962888"/>
  <node id="450607902" version="3" timestamp="2010-07-17T17:29:37Z" uid="39504" user="malenki" changeset="5244338" lat="55.1437019" lon="21.8965718">
    <tag k="railway" v="level_crossing"/>
  </node>
  <node id="450607903" version="2" timestamp="2009-11-06T16:04:51Z" uid="36809" user="pfoten_weg_!_" changeset="3049293" lat="55.1426942" lon="21.8994597"/>
  <node id="450607904" version="2" timestamp="2009-11-06T16:04:50Z" uid="36809" user="pfoten_weg_!_" changeset="3049293" lat="55.1422341" lon="21.9002402"/>
  <node id="450607905" version="2" timestamp="2009-11-06T16:04:52Z" uid="36809" user="pfoten_weg_!_" changeset="3049293" lat="55.1413698" lon="21.9013135"/>
  <node id="450607906" version="2" timestamp="2009-11-06T16:04:57Z" uid="36809" user="pfoten_weg_!_" changeset="3049293" lat="55.13405" lon="21.9107532"/>
  <node id="450607907" version="2" timestamp="2009-11-06T16:04:42Z" uid="36809" user="pfoten_weg_!_" changeset="3049293" lat="55.1271611" lon="21.9196074"/>
  <node id="450607908" version="2" timestamp="2009-11-06T16:04:42Z" uid="36809" user="pfoten_weg_!_" changeset="3049293" lat="55.1255572" lon="21.9218271"/>
  <node id="450607909" version="2" timestamp="2009-11-06T16:04:44Z" uid="36809" user="pfoten_weg_!_" changeset="3049293" lat="55.1245391" lon="21.9237297"/>
  <node id="450607910" version="2" timestamp="2009-11-06T16:04:45Z" uid="36809" user="pfoten_weg_!_" changeset="3049293" lat="55.123256" lon="21.9268031"/>
  <node id="450607912" version="2" timestamp="2009-11-06T16:04:58Z" uid="36809" user="pfoten_weg_!_" changeset="3049293" lat="55.1223494" lon="21.9313156"/>
  <node id="450607915" version="2" timestamp="2009-11-06T16:04:59Z" uid="36809" user="pfoten_weg_!_" changeset="3049293" lat="55.1214846" lon="21.9387551"/>
  <node id="450607916" version="2" timestamp="2009-11-06T16:05:01Z" uid="36809" user="pfoten_weg_!_" changeset="3049293" lat="55.1211359" lon="21.9416821"/>
  <node id="450607917" version="2" timestamp="2009-11-06T16:05:00Z" uid="36809" user="pfoten_weg_!_" changeset="3049293" lat="55.1208569" lon="21.9449506"/>
  <node id="450607918" version="2" timestamp="2009-11-06T16:05:03Z" uid="36809" user="pfoten_weg_!_" changeset="3049293" lat="55.1207035" lon="21.9465117"/>
  <node id="450607921" version="2" timestamp="2009-11-06T16:05:04Z" uid="36809" user="pfoten_weg_!_" changeset="3049293" lat="55.1204503" lon="21.9475306"/>
  <node id="450607921" version="3" timestamp="2010-07-17T17:31:36Z" uid="39504" user="malenki" changeset="5244338" lat="55.1204503" lon="21.9475306"/>
  <node id="450607924" version="2" timestamp="2009-11-06T16:06:54Z" uid="36809" user="pfoten_weg_!_" changeset="3049293" lat="55.1225767" lon="21.9750029"/>
  <node id="450607924" version="3" timestamp="2012-03-05T07:29:28Z" uid="60129" user="Tomas Straupis" changeset="10876681" lat="55.1226102" lon="21.974997"/>
  <node id="450607925" version="2" timestamp="2009-11-06T16:06:56Z" uid="36809" user="pfoten_weg_!_" changeset="3049293" lat="55.1221242" lon="21.9792237"/>
  <node id="450607926" version="2" timestamp="2009-11-06T16:06:55Z" uid="36809" user="pfoten_weg_!_" changeset="3049293" lat="55.1142526" lon="21.9963486"/>
  <node id="450607947" version="3" timestamp="2009-10-04T14:54:48Z" uid="20587" user="balrog-kun" changeset="2738034" lat="50.7167322" lon="7.0881006"/>
  <node id="450607948" version="4" timestamp="2009-10-04T14:54:49Z" uid="20587" user="balrog-kun" changeset="2738034" lat="50.7167087" lon="7.0880528"/>
  <node id="450607948" version="5" timestamp="2011-08-20T20:32:54Z" uid="49785" user="mike67" changeset="9077903" lat="50.7167181" lon="7.0880731"/>
  <node id="450607949" version="4" timestamp="2009-10-04T14:54:49Z" uid="20587" user="balrog-kun" changeset="2738034" lat="50.7166853" lon="7.0880052"/>
  <node id="450607949" version="5" timestamp="2011-08-20T20:32:54Z" uid="49785" user="mike67" changeset="9077903" lat="50.7166952" lon="7.0880253"/>
  <node id="450609230" version="3" timestamp="2009-10-04T14:54:25Z" uid="20587" user="balrog-kun" changeset="2738034" lat="50.7165282" lon="7.0863974"/>
  <node id="450609241" version="3" timestamp="2009-10-04T14:54:25Z" uid="20587" user="balrog-kun" changeset="2738034" lat="50.7163612" lon="7.0858314"/>
  <node id="450609243" version="3" timestamp="2009-10-04T14:54:25Z" uid="20587" user="balrog-kun" changeset="2738034" lat="50.7164101" lon="7.0861318"/>
  <node id="450609245" version="3" timestamp="2009-10-04T14:54:25Z" uid="20587" user="balrog-kun" changeset="2738034" lat="50.7164753" lon="7.0863292"/>
</osm>
