<?xml version='1.0' encoding='UTF-8'?>
<osm version="0.6" generator="libosmium/2.20.0">
  <node id="451601733" version="2" timestamp="2009-10-30T03:56:18Z" uid="36809" user="pfoten_weg_!_" changeset="2986526" lat="47.5709179" lon="11.5337361">
    <tag k="addr:city" v="Lenggries-Fall"/>
    <tag k="addr:postcode" v="83661"/>
    <tag k="addr:street" v="Dürrachstraße"/>
    <tag k="name" v="Wohnmobilstellplatz Lenggries-Fall/Sylvensteinsee"/>
    <tag k="tourism" v="caravan_site"/>
  </node>
  <node id="451601733" version="3" timestamp="2011-05-23T19:03:22Z" uid="425153" user="Sternsegler" changeset="8229227" lat="47.5709179" lon="11.5337361">
    <tag k="addr:city" v="Lenggries-Fall"/>
    <tag k="addr:postcode" v="83661"/>
    <tag k="addr:street" v="Dürrachstraße"/>
    <tag k="fee" v="yes"/>
    <tag k="name" v="Wohnmobilstellplatz Lenggries-Fall/Sylvensteinsee"/>
    <tag k="tents" v="yes"/>
    <tag k="tourism" v="caravan_site"/>
  </node>
  <node id="451601733" version="4" timestamp="2011-05-23T19:33:45Z" uid="425153" user="Sternsegler" changeset="8229591" lat="47.5714243" lon="11.5338627">
    <tag k="addr:city" v="Lenggries-Fall"/>
    <tag k="addr:postcode" v="83661"/>
    <tag k="addr:street" v="Dürrachstraße"/>
    <tag k="fee" v="yes"/>
    <tag k="name" v="Wohnmobilstellplatz Lenggries-Fall/Sylvensteinsee"/>
    <tag k="tents" v="yes"/>
    <tag k="tourism" v="caravan_site"/>
  </node>
  <node id="451601733" version="5" timestamp="2011-05-31T21:08:31Z" uid="417684" user="Maler" changeset="8304253" lat="47.5714243" lon="11.5338627"/>
  <node id="451603862" version="3" timestamp="2009-09-25T15:06:41Z" uid="36809" user="pfoten_weg_!_" changeset="2620894" lat="53.732775" lon="14.0590197"/>
  <node id="451603862" version="4" timestamp="2009-12-18T18:12:50Z" uid="131321" user="tmandel" changeset="3402281" lat="53.7327921" lon="14.0589561"/>
  <node id="451603862" version="5" timestamp="2009-12-30T11:31:11Z" uid="131321" user="tmandel" changeset="3488945" lat="53.7325979" lon="14.0585786"/>
  <node id="451603862" version="6" timestamp="2010-07-17T08:06:24Z" uid="131321" user="tmandel" changeset="5240225" lat="53.7325622" lon="14.0584413"/>
  <node id="451603862" version="7" timestamp="2010-08-13T06:05:38Z" uid="131321" user="tmandel" changeset="5478848" lat="53.7325824" lon="14.0584869"/>
</osm>
