<?xml version='1.0' encoding='UTF-8'?>
<osm version="0.6" generator="libosmium/2.20.0">
  <node id="453553415" version="2" timestamp="2009-10-03T17:44:56Z" uid="17602" user="B10xyz" changeset="2727297" lat="52.5242772" lon="13.3678775">
    <tag k="name" v="Meininger Hotel"/>
    <tag k="stars" v="3"/>
    <tag k="tourism" v="hotel"/>
  </node>
  <node id="453553415" version="3" timestamp="2009-10-03T22:28:45Z" uid="17602" user="B10xyz" changeset="2730383" lat="52.5242772" lon="13.3678775">
    <tag k="layer" v="2"/>
    <tag k="name" v="Meininger Hotel"/>
    <tag k="stars" v="3"/>
    <tag k="tourism" v="hotel"/>
  </node>
  <node id="453553415" version="4" timestamp="2010-09-12T10:20:52Z" uid="141931" user="Sharlin" changeset="5757783" lat="52.5242772" lon="13.3678775">
    <tag k="addr:city" v="Berlin"/>
    <tag k="addr:country" v="DE"/>
    <tag k="addr:housenumber" v="9"/>
    <tag k="addr:postcode" v="10557"/>
    <tag k="addr:street" v="Ella-Trebe-Straße"/>
    <tag k="building:levels" v="8"/>
    <tag k="internet_access" v="wlan"/>
    <tag k="layer" v="2"/>
    <tag k="name" v="MEININGER Hotel Berlin Hauptbahnhof"/>
    <tag k="note" v="It&apos;s a hotel and a hostel"/>
    <tag k="operator" v="MEININGER Shared Services GmbH"/>
    <tag k="phone" v="+49 30 98321073"/>
    <tag k="rooms" v="296"/>
    <tag k="stars" v="3"/>
    <tag k="tourism" v="hostel"/>
    <tag k="website" v="http://www.meininger-hotels.com/"/>
  </node>
  <node id="453553415" version="5" timestamp="2010-11-14T14:58:34Z" uid="364815" user="Patrick1987" changeset="6366706" lat="52.5242772" lon="13.3678775">
    <tag k="addr:city" v="Berlin"/>
    <tag k="addr:country" v="DE"/>
    <tag k="addr:housenumber" v="9"/>
    <tag k="addr:postcode" v="10557"/>
    <tag k="addr:street" v="Ella-Trebe-Straße"/>
    <tag k="building:levels" v="8"/>
    <tag k="internet_access" v="wlan"/>
    <tag k="layer" v="2"/>
    <tag k="name" v="MEININGER Hotel Berlin Hauptbahnhof"/>
    <tag k="note" v="It&apos;s a hotel and a hostel"/>
    <tag k="operator" v="MEININGER Shared Services GmbH"/>
    <tag k="phone" v="030 98321073"/>
    <tag k="rooms" v="296"/>
    <tag k="stars" v="3"/>
    <tag k="tourism" v="hotel"/>
    <tag k="website" v="http://www.meininger-hotels.com"/>
    <tag k="wheelchair" v="unknown"/>
  </node>
  <node id="453553415" version="6" timestamp="2011-06-01T07:11:16Z" uid="364815" user="Patrick1987" changeset="8307753" lat="52.5240128" lon="13.3680599">
    <tag k="addr:city" v="Berlin"/>
    <tag k="addr:country" v="DE"/>
    <tag k="addr:housenumber" v="9"/>
    <tag k="addr:postcode" v="10557"/>
    <tag k="addr:street" v="Ella-Trebe-Straße"/>
    <tag k="building:levels" v="8"/>
    <tag k="internet_access" v="wlan"/>
    <tag k="layer" v="2"/>
    <tag k="name" v="MEININGER Hotel Berlin Hauptbahnhof"/>
    <tag k="note" v="It&apos;s a hotel and a hostel"/>
    <tag k="operator" v="MEININGER Shared Services GmbH"/>
    <tag k="phone" v="030 98321073"/>
    <tag k="rooms" v="296"/>
    <tag k="stars" v="3"/>
    <tag k="tourism" v="hotel"/>
    <tag k="website" v="http://www.meininger-hotels.com"/>
    <tag k="wheelchair" v="unknown"/>
  </node>
  <node id="453553415" version="7" timestamp="2011-06-04T12:18:22Z" uid="161619" user="FvGordon" changeset="8338568" lat="52.5243226" lon="13.3677107">
    <tag k="addr:city" v="Berlin"/>
    <tag k="addr:country" v="DE"/>
    <tag k="addr:housenumber" v="9"/>
    <tag k="addr:postcode" v="10557"/>
    <tag k="addr:street" v="Ella-Trebe-Straße"/>
    <tag k="building:levels" v="8"/>
    <tag k="internet_access" v="wlan"/>
    <tag k="layer" v="2"/>
    <tag k="name" v="MEININGER Hotel Berlin Hauptbahnhof"/>
    <tag k="note" v="It&apos;s a hotel and a hostel"/>
    <tag k="operator" v="MEININGER Shared Services GmbH"/>
    <tag k="phone" v="030 98321073"/>
    <tag k="rooms" v="296"/>
    <tag k="stars" v="3"/>
    <tag k="tourism" v="hotel"/>
    <tag k="website" v="http://www.meininger-hotels.com"/>
    <tag k="wheelchair" v="unknown"/>
  </node>
  <node id="453553415" version="8" timestamp="2011-12-29T09:49:43Z" uid="66391" user="geozeisig" changeset="10233431" lat="52.5242715" lon="13.3679229"/>
  <node id="453555663" version="2" timestamp="2009-12-06T17:23:10Z" uid="33382" user="de_muur" changeset="3307377" lat="53.0857218" lon="8.9833907"/>
  <node id="453555666" version="2" timestamp="2009-12-06T17:23:10Z" uid="33382" user="de_muur" changeset="3307377" lat="53.0856901" lon="8.9836957"/>
  <node id="453556083" version="2" timestamp="2010-09-26T08:07:06Z" uid="33382" user="de_muur" changeset="5878044" lat="53.1246238" lon="9.0932168"/>
</osm>
