<?xml version='1.0' encoding='UTF-8'?>
<osm version="0.6" generator="libosmium/2.20.0">
  <node id="453978394" version="1" timestamp="2009-08-02T02:47:19Z" uid="20587" user="balrog-kun" changeset="2009336" lat="52.4345011" lon="16.8128059">
    <tag k="addr:city" v="Poznań"/>
    <tag k="addr:housenumber" v="48"/>
    <tag k="addr:street" v="Warpnowska"/>
    <tag k="source" v="http://ump.waw.pl/ retrieved 15:05:23 06/30/09 (UMP-Poznan/src/POZNAN.ulice.txt)"/>
  </node>
  <node id="453978399" version="1" timestamp="2009-08-02T02:47:20Z" uid="20587" user="balrog-kun" changeset="2009336" lat="52.4405033" lon="16.8132842">
    <tag k="addr:city" v="Poznań"/>
    <tag k="addr:housenumber" v="149"/>
    <tag k="addr:street" v="Polanowska"/>
    <tag k="source" v="http://ump.waw.pl/ retrieved 15:05:23 06/30/09 (UMP-Poznan/src/POZNAN.ulice.txt)"/>
  </node>
  <node id="453978401" version="1" timestamp="2009-08-02T02:47:20Z" uid="20587" user="balrog-kun" changeset="2009336" lat="52.4364642" lon="16.8407539">
    <tag k="addr:city" v="Poznań"/>
    <tag k="addr:housenumber" v="2"/>
    <tag k="addr:street" v="Lęborska"/>
    <tag k="source" v="http://ump.waw.pl/ retrieved 15:05:23 06/30/09 (UMP-Poznan/src/POZNAN.ulice.txt)"/>
  </node>
  <node id="453978401" version="2" timestamp="2009-08-02T17:16:10Z" uid="20587" user="balrog-kun" changeset="2017141" lat="52.4364708" lon="16.8405287">
    <tag k="addr:city" v="Poznań"/>
    <tag k="addr:housenumber" v="2"/>
    <tag k="addr:street" v="Lęborska"/>
    <tag k="source" v="http://ump.waw.pl/ retrieved 15:05:23 06/30/09 (UMP-Poznan/src/POZNAN.ulice.txt)"/>
  </node>
  <node id="453978404" version="1" timestamp="2009-08-02T02:47:20Z" uid="20587" user="balrog-kun" changeset="2009336" lat="52.4317526" lon="16.8397115">
    <tag k="addr:city" v="Poznań"/>
    <tag k="addr:housenumber" v="1"/>
    <tag k="addr:street" v="Chodzieska"/>
    <tag k="source" v="http://ump.waw.pl/ retrieved 15:05:23 06/30/09 (UMP-Poznan/src/POZNAN.ulice.txt)"/>
  </node>
  <node id="453978407" version="1" timestamp="2009-08-02T02:47:20Z" uid="20587" user="balrog-kun" changeset="2009336" lat="52.4373872" lon="16.842041">
    <tag k="addr:city" v="Poznań"/>
    <tag k="addr:housenumber" v="12"/>
    <tag k="addr:street" v="Człuchowska"/>
    <tag k="source" v="http://ump.waw.pl/ retrieved 15:05:23 06/30/09 (UMP-Poznan/src/POZNAN.ulice.txt)"/>
  </node>
  <node id="453978409" version="1" timestamp="2009-08-02T02:47:20Z" uid="20587" user="balrog-kun" changeset="2009336" lat="52.4344735" lon="16.8175627">
    <tag k="addr:city" v="Poznań"/>
    <tag k="addr:housenumber" v="18"/>
    <tag k="addr:street" v="Kościerzyńska"/>
    <tag k="source" v="http://ump.waw.pl/ retrieved 15:05:23 06/30/09 (UMP-Poznan/src/POZNAN.ulice.txt)"/>
  </node>
  <node id="453978412" version="1" timestamp="2009-08-02T02:47:20Z" uid="20587" user="balrog-kun" changeset="2009336" lat="52.4388764" lon="16.8176602">
    <tag k="addr:city" v="Poznań"/>
    <tag k="addr:housenumber" v="101"/>
    <tag k="addr:street" v="Gniewska"/>
    <tag k="source" v="http://ump.waw.pl/ retrieved 15:05:23 06/30/09 (UMP-Poznan/src/POZNAN.ulice.txt)"/>
  </node>
  <node id="453978416" version="1" timestamp="2009-08-02T02:47:20Z" uid="20587" user="balrog-kun" changeset="2009336" lat="52.4322642" lon="16.8276682">
    <tag k="addr:city" v="Poznań"/>
    <tag k="addr:housenumber" v="443"/>
    <tag k="addr:street" v="Dąbrowskiego"/>
    <tag k="source" v="http://ump.waw.pl/ retrieved 15:05:23 06/30/09 (UMP-Poznan/src/POZNAN.ulice.txt)"/>
  </node>
  <node id="453978419" version="1" timestamp="2009-08-02T02:47:20Z" uid="20587" user="balrog-kun" changeset="2009336" lat="52.4322701" lon="16.8261191">
    <tag k="addr:city" v="Poznań"/>
    <tag k="addr:housenumber" v="445"/>
    <tag k="addr:street" v="Dąbrowskiego"/>
    <tag k="source" v="http://ump.waw.pl/ retrieved 15:05:23 06/30/09 (UMP-Poznan/src/POZNAN.ulice.txt)"/>
  </node>
  <node id="453978423" version="1" timestamp="2009-08-02T02:47:20Z" uid="20587" user="balrog-kun" changeset="2009336" lat="52.43802" lon="16.8352879">
    <tag k="addr:city" v="Poznań"/>
    <tag k="addr:housenumber" v="1"/>
    <tag k="addr:street" v="Brodnicka"/>
    <tag k="source" v="http://ump.waw.pl/ retrieved 15:05:23 06/30/09 (UMP-Poznan/src/POZNAN.ulice.txt)"/>
  </node>
  <node id="453978427" version="1" timestamp="2009-08-02T02:47:20Z" uid="20587" user="balrog-kun" changeset="2009336" lat="52.436827" lon="16.8253261">
    <tag k="addr:city" v="Poznań"/>
    <tag k="addr:housenumber" v="74"/>
    <tag k="addr:street" v="Trzebiatowska"/>
    <tag k="source" v="http://ump.waw.pl/ retrieved 15:05:23 06/30/09 (UMP-Poznan/src/POZNAN.ulice.txt)"/>
  </node>
  <node id="453978431" version="1" timestamp="2009-08-02T02:47:20Z" uid="20587" user="balrog-kun" changeset="2009336" lat="52.4328242" lon="16.8412883">
    <tag k="addr:city" v="Poznań"/>
    <tag k="addr:housenumber" v="8"/>
    <tag k="addr:street" v="Chodzieska"/>
    <tag k="source" v="http://ump.waw.pl/ retrieved 15:05:23 06/30/09 (UMP-Poznan/src/POZNAN.ulice.txt)"/>
  </node>
  <node id="453978434" version="1" timestamp="2009-08-02T02:47:20Z" uid="20587" user="balrog-kun" changeset="2009336" lat="52.4348333" lon="16.8129519">
    <tag k="addr:city" v="Poznań"/>
    <tag k="addr:housenumber" v="21"/>
    <tag k="addr:street" v="Łebska"/>
    <tag k="source" v="http://ump.waw.pl/ retrieved 15:05:23 06/30/09 (UMP-Poznan/src/POZNAN.ulice.txt)"/>
  </node>
  <node id="453978438" version="1" timestamp="2009-08-02T02:47:20Z" uid="20587" user="balrog-kun" changeset="2009336" lat="52.436714" lon="16.8209271">
    <tag k="addr:city" v="Poznań"/>
    <tag k="addr:housenumber" v="36"/>
    <tag k="addr:street" v="fixme"/>
    <tag k="source" v="http://ump.waw.pl/ retrieved 15:05:23 06/30/09 (UMP-Poznan/src/POZNAN.ulice.txt)"/>
  </node>
  <node id="453978443" version="1" timestamp="2009-08-02T02:47:20Z" uid="20587" user="balrog-kun" changeset="2009336" lat="52.4394195" lon="16.8162601">
    <tag k="addr:city" v="Poznań"/>
    <tag k="addr:housenumber" v="76"/>
    <tag k="addr:street" v="Kościerzyńska"/>
    <tag k="source" v="http://ump.waw.pl/ retrieved 15:05:23 06/30/09 (UMP-Poznan/src/POZNAN.ulice.txt)"/>
  </node>
  <node id="453978447" version="1" timestamp="2009-08-02T02:47:20Z" uid="20587" user="balrog-kun" changeset="2009336" lat="52.4391735" lon="16.8291826">
    <tag k="addr:city" v="Poznań"/>
    <tag k="addr:housenumber" v="6"/>
    <tag k="addr:street" v="Fromborska"/>
    <tag k="source" v="http://ump.waw.pl/ retrieved 15:05:23 06/30/09 (UMP-Poznan/src/POZNAN.ulice.txt)"/>
  </node>
  <node id="453978447" version="2" timestamp="2009-08-02T17:16:10Z" uid="20587" user="balrog-kun" changeset="2017141" lat="52.439176" lon="16.8292513">
    <tag k="addr:city" v="Poznań"/>
    <tag k="addr:housenumber" v="6"/>
    <tag k="addr:street" v="Fromborska"/>
    <tag k="source" v="http://ump.waw.pl/ retrieved 15:05:23 06/30/09 (UMP-Poznan/src/POZNAN.ulice.txt)"/>
  </node>
  <node id="453978450" version="1" timestamp="2009-08-02T02:47:20Z" uid="20587" user="balrog-kun" changeset="2009336" lat="52.438685" lon="16.8140452">
    <tag k="addr:city" v="Poznań"/>
    <tag k="addr:housenumber" v="13"/>
    <tag k="addr:street" v="Oliwska"/>
    <tag k="source" v="http://ump.waw.pl/ retrieved 15:05:23 06/30/09 (UMP-Poznan/src/POZNAN.ulice.txt)"/>
  </node>
  <node id="453978455" version="1" timestamp="2009-08-02T02:47:21Z" uid="20587" user="balrog-kun" changeset="2009336" lat="52.4310136" lon="16.8432746">
    <tag k="addr:city" v="Poznań"/>
    <tag k="addr:housenumber" v="341"/>
    <tag k="addr:street" v="Dąbrowskiego"/>
    <tag k="source" v="http://ump.waw.pl/ retrieved 15:05:23 06/30/09 (UMP-Poznan/src/POZNAN.ulice.txt)"/>
  </node>
  <node id="453978459" version="1" timestamp="2009-08-02T02:47:21Z" uid="20587" user="balrog-kun" changeset="2009336" lat="52.435534" lon="16.8360538">
    <tag k="addr:city" v="Poznań"/>
    <tag k="addr:housenumber" v="30"/>
    <tag k="addr:street" v="Sianowska"/>
    <tag k="source" v="http://ump.waw.pl/ retrieved 15:05:23 06/30/09 (UMP-Poznan/src/POZNAN.ulice.txt)"/>
  </node>
  <node id="453978463" version="1" timestamp="2009-08-02T02:47:21Z" uid="20587" user="balrog-kun" changeset="2009336" lat="52.4390648" lon="16.8382494">
    <tag k="addr:city" v="Poznań"/>
    <tag k="addr:housenumber" v="8"/>
    <tag k="addr:street" v="Lubowska"/>
    <tag k="source" v="http://ump.waw.pl/ retrieved 15:05:23 06/30/09 (UMP-Poznan/src/POZNAN.ulice.txt)"/>
  </node>
  <node id="453978467" version="1" timestamp="2009-08-02T02:47:21Z" uid="20587" user="balrog-kun" changeset="2009336" lat="52.4377583" lon="16.8392084">
    <tag k="addr:city" v="Poznań"/>
    <tag k="addr:housenumber" v="1"/>
    <tag k="addr:street" v="Myśliborska"/>
    <tag k="source" v="http://ump.waw.pl/ retrieved 15:05:23 06/30/09 (UMP-Poznan/src/POZNAN.ulice.txt)"/>
  </node>
  <node id="453978471" version="1" timestamp="2009-08-02T02:47:21Z" uid="20587" user="balrog-kun" changeset="2009336" lat="52.4378905" lon="16.8350911">
    <tag k="addr:city" v="Poznań"/>
    <tag k="addr:housenumber" v="18"/>
    <tag k="addr:street" v="Myśliborska"/>
    <tag k="source" v="http://ump.waw.pl/ retrieved 15:05:23 06/30/09 (UMP-Poznan/src/POZNAN.ulice.txt)"/>
  </node>
  <node id="453978475" version="1" timestamp="2009-08-02T02:47:21Z" uid="20587" user="balrog-kun" changeset="2009336" lat="52.4362205" lon="16.8407664">
    <tag k="addr:city" v="Poznań"/>
    <tag k="addr:housenumber" v="1"/>
    <tag k="addr:street" v="Lęborska"/>
    <tag k="source" v="http://ump.waw.pl/ retrieved 15:05:23 06/30/09 (UMP-Poznan/src/POZNAN.ulice.txt)"/>
  </node>
  <node id="453978479" version="1" timestamp="2009-08-02T02:47:21Z" uid="20587" user="balrog-kun" changeset="2009336" lat="52.4354966" lon="16.8333257">
    <tag k="addr:city" v="Poznań"/>
    <tag k="addr:housenumber" v="42"/>
    <tag k="addr:street" v="Sianowska"/>
    <tag k="source" v="http://ump.waw.pl/ retrieved 15:05:23 06/30/09 (UMP-Poznan/src/POZNAN.ulice.txt)"/>
  </node>
  <node id="453978484" version="1" timestamp="2009-08-02T02:47:21Z" uid="20587" user="balrog-kun" changeset="2009336" lat="52.43616" lon="16.8261431">
    <tag k="addr:city" v="Poznań"/>
    <tag k="addr:housenumber" v="70"/>
    <tag k="addr:street" v="Lęborska"/>
    <tag k="source" v="http://ump.waw.pl/ retrieved 15:05:23 06/30/09 (UMP-Poznan/src/POZNAN.ulice.txt)"/>
  </node>
  <node id="453978487" version="1" timestamp="2009-08-02T02:47:21Z" uid="20587" user="balrog-kun" changeset="2009336" lat="52.4401791" lon="16.8169206">
    <tag k="addr:city" v="Poznań"/>
    <tag k="addr:housenumber" v="24"/>
    <tag k="addr:street" v="Ornecka"/>
    <tag k="source" v="http://ump.waw.pl/ retrieved 15:05:23 06/30/09 (UMP-Poznan/src/POZNAN.ulice.txt)"/>
  </node>
  <node id="453978492" version="1" timestamp="2009-08-02T02:47:21Z" uid="20587" user="balrog-kun" changeset="2009336" lat="52.4388364" lon="16.815896">
    <tag k="addr:city" v="Poznań"/>
    <tag k="addr:housenumber" v="115"/>
    <tag k="addr:street" v="Kościerzyńska"/>
    <tag k="source" v="http://ump.waw.pl/ retrieved 15:05:23 06/30/09 (UMP-Poznan/src/POZNAN.ulice.txt)"/>
  </node>
  <node id="453978496" version="1" timestamp="2009-08-02T02:47:21Z" uid="20587" user="balrog-kun" changeset="2009336" lat="52.4343575" lon="16.8400331">
    <tag k="addr:city" v="Poznań"/>
    <tag k="addr:housenumber" v="3"/>
    <tag k="addr:street" v="Podgajska"/>
    <tag k="source" v="http://ump.waw.pl/ retrieved 15:05:23 06/30/09 (UMP-Poznan/src/POZNAN.ulice.txt)"/>
  </node>
  <node id="453978499" version="1" timestamp="2009-08-02T02:47:21Z" uid="20587" user="balrog-kun" changeset="2009336" lat="52.4332145" lon="16.8446447">
    <tag k="addr:city" v="Poznań"/>
    <tag k="addr:housenumber" v="15"/>
    <tag k="addr:street" v="Czarnkowska"/>
    <tag k="source" v="http://ump.waw.pl/ retrieved 15:05:23 06/30/09 (UMP-Poznan/src/POZNAN.ulice.txt)"/>
  </node>
  <node id="453978504" version="1" timestamp="2009-08-02T02:47:21Z" uid="20587" user="balrog-kun" changeset="2009336" lat="52.4317698" lon="16.8412169">
    <tag k="addr:city" v="Poznań"/>
    <tag k="addr:housenumber" v="6"/>
    <tag k="addr:street" v="Białośliwska"/>
    <tag k="source" v="http://ump.waw.pl/ retrieved 15:05:23 06/30/09 (UMP-Poznan/src/POZNAN.ulice.txt)"/>
  </node>
  <node id="453978508" version="1" timestamp="2009-08-02T02:47:21Z" uid="20587" user="balrog-kun" changeset="2009336" lat="52.4325614" lon="16.8410519">
    <tag k="addr:city" v="Poznań"/>
    <tag k="addr:housenumber" v="6"/>
    <tag k="addr:street" v="Chodzieska"/>
    <tag k="source" v="http://ump.waw.pl/ retrieved 15:05:23 06/30/09 (UMP-Poznan/src/POZNAN.ulice.txt)"/>
  </node>
  <node id="453978512" version="1" timestamp="2009-08-02T02:47:21Z" uid="20587" user="balrog-kun" changeset="2009336" lat="52.4330729" lon="16.8182155">
    <tag k="addr:city" v="Poznań"/>
    <tag k="addr:housenumber" v="8"/>
    <tag k="addr:street" v="Kościerzyńska"/>
    <tag k="source" v="http://ump.waw.pl/ retrieved 15:05:23 06/30/09 (UMP-Poznan/src/POZNAN.ulice.txt)"/>
  </node>
  <node id="453978517" version="1" timestamp="2009-08-02T02:47:21Z" uid="20587" user="balrog-kun" changeset="2009336" lat="52.4339477" lon="16.8178235">
    <tag k="addr:city" v="Poznań"/>
    <tag k="addr:housenumber" v="16"/>
    <tag k="addr:street" v="Kościerzyńska"/>
    <tag k="source" v="http://ump.waw.pl/ retrieved 15:05:23 06/30/09 (UMP-Poznan/src/POZNAN.ulice.txt)"/>
  </node>
  <node id="453978519" version="1" timestamp="2009-08-02T02:47:21Z" uid="20587" user="balrog-kun" changeset="2009336" lat="52.4391048" lon="16.8138156">
    <tag k="addr:city" v="Poznań"/>
    <tag k="addr:housenumber" v="16"/>
    <tag k="addr:street" v="Oliwska"/>
    <tag k="source" v="http://ump.waw.pl/ retrieved 15:05:23 06/30/09 (UMP-Poznan/src/POZNAN.ulice.txt)"/>
  </node>
  <node id="453978522" version="1" timestamp="2009-08-02T02:47:22Z" uid="20587" user="balrog-kun" changeset="2009336" lat="52.4391152" lon="16.8386462">
    <tag k="addr:city" v="Poznań"/>
    <tag k="addr:housenumber" v="6"/>
    <tag k="addr:street" v="Lubowska"/>
    <tag k="source" v="http://ump.waw.pl/ retrieved 15:05:23 06/30/09 (UMP-Poznan/src/POZNAN.ulice.txt)"/>
  </node>
  <node id="453978525" version="1" timestamp="2009-08-02T02:47:22Z" uid="20587" user="balrog-kun" changeset="2009336" lat="52.4392767" lon="16.8390483">
    <tag k="addr:city" v="Poznań"/>
    <tag k="addr:housenumber" v="2"/>
    <tag k="addr:street" v="Lubowska"/>
    <tag k="source" v="http://ump.waw.pl/ retrieved 15:05:23 06/30/09 (UMP-Poznan/src/POZNAN.ulice.txt)"/>
  </node>
  <node id="453978528" version="1" timestamp="2009-08-02T02:47:22Z" uid="20587" user="balrog-kun" changeset="2009336" lat="52.4322419" lon="16.81505">
    <tag k="addr:city" v="Poznań"/>
    <tag k="addr:housenumber" v="489"/>
    <tag k="addr:street" v="Dąbrowskiego"/>
    <tag k="source" v="http://ump.waw.pl/ retrieved 15:05:23 06/30/09 (UMP-Poznan/src/POZNAN.ulice.txt)"/>
  </node>
  <node id="453978531" version="1" timestamp="2009-08-02T02:47:22Z" uid="20587" user="balrog-kun" changeset="2009336" lat="52.4384734" lon="16.8149338">
    <tag k="addr:city" v="Poznań"/>
    <tag k="addr:housenumber" v="8"/>
    <tag k="addr:street" v="Oliwska"/>
    <tag k="source" v="http://ump.waw.pl/ retrieved 15:05:23 06/30/09 (UMP-Poznan/src/POZNAN.ulice.txt)"/>
  </node>
  <node id="453978534" version="1" timestamp="2009-08-02T02:47:22Z" uid="20587" user="balrog-kun" changeset="2009336" lat="52.4398727" lon="16.8198117">
    <tag k="addr:city" v="Poznań"/>
    <tag k="addr:housenumber" v="9"/>
    <tag k="addr:street" v="Pasłęcka"/>
    <tag k="source" v="http://ump.waw.pl/ retrieved 15:05:23 06/30/09 (UMP-Poznan/src/POZNAN.ulice.txt)"/>
  </node>
  <node id="453978538" version="1" timestamp="2009-08-02T02:47:22Z" uid="20587" user="balrog-kun" changeset="2009336" lat="52.4349581" lon="16.8135078">
    <tag k="addr:city" v="Poznań"/>
    <tag k="addr:housenumber" v="131"/>
    <tag k="addr:street" v="Sianowska"/>
    <tag k="source" v="http://ump.waw.pl/ retrieved 15:05:23 06/30/09 (UMP-Poznan/src/POZNAN.ulice.txt)"/>
  </node>
  <node id="453978541" version="1" timestamp="2009-08-02T02:47:22Z" uid="20587" user="balrog-kun" changeset="2009336" lat="52.4402113" lon="16.8228718">
    <tag k="addr:city" v="Poznań"/>
    <tag k="addr:housenumber" v="6"/>
    <tag k="addr:street" v="Tczewska"/>
    <tag k="source" v="http://ump.waw.pl/ retrieved 15:05:23 06/30/09 (UMP-Poznan/src/POZNAN.ulice.txt)"/>
  </node>
  <node id="453978543" version="1" timestamp="2009-08-02T02:47:22Z" uid="20587" user="balrog-kun" changeset="2009336" lat="52.4352628" lon="16.8341338">
    <tag k="addr:city" v="Poznań"/>
    <tag k="addr:housenumber" v="39"/>
    <tag k="addr:street" v="Sianowska"/>
    <tag k="source" v="http://ump.waw.pl/ retrieved 15:05:23 06/30/09 (UMP-Poznan/src/POZNAN.ulice.txt)"/>
  </node>
  <node id="453978546" version="1" timestamp="2009-08-02T02:47:22Z" uid="20587" user="balrog-kun" changeset="2009336" lat="52.4337065" lon="16.8106983">
    <tag k="addr:city" v="Poznań"/>
    <tag k="addr:housenumber" v="8"/>
    <tag k="addr:street" v="Izbicka"/>
    <tag k="source" v="http://ump.waw.pl/ retrieved 15:05:23 06/30/09 (UMP-Poznan/src/POZNAN.ulice.txt)"/>
  </node>
  <node id="453978548" version="1" timestamp="2009-08-02T02:47:22Z" uid="20587" user="balrog-kun" changeset="2009336" lat="52.4398498" lon="16.8192216">
    <tag k="addr:city" v="Poznań"/>
    <tag k="addr:housenumber" v="11"/>
    <tag k="addr:street" v="Pasłęcka"/>
    <tag k="source" v="http://ump.waw.pl/ retrieved 15:05:23 06/30/09 (UMP-Poznan/src/POZNAN.ulice.txt)"/>
  </node>
  <node id="453978550" version="1" timestamp="2009-08-02T02:47:22Z" uid="20587" user="balrog-kun" changeset="2009336" lat="52.4389322" lon="16.8192665">
    <tag k="addr:city" v="Poznań"/>
    <tag k="addr:housenumber" v="93"/>
    <tag k="addr:street" v="Gniewska"/>
    <tag k="source" v="http://ump.waw.pl/ retrieved 15:05:23 06/30/09 (UMP-Poznan/src/POZNAN.ulice.txt)"/>
  </node>
  <node id="453978553" version="1" timestamp="2009-08-02T02:47:22Z" uid="20587" user="balrog-kun" changeset="2009336" lat="52.4360284" lon="16.844822">
    <tag k="addr:city" v="Poznań"/>
    <tag k="addr:housenumber" v="35"/>
    <tag k="addr:street" v="Czarnkowska"/>
    <tag k="source" v="http://ump.waw.pl/ retrieved 15:05:23 06/30/09 (UMP-Poznan/src/POZNAN.ulice.txt)"/>
  </node>
  <node id="453978556" version="1" timestamp="2009-08-02T02:47:22Z" uid="20587" user="balrog-kun" changeset="2009336" lat="52.4360862" lon="16.8179364">
    <tag k="addr:city" v="Poznań"/>
    <tag k="addr:housenumber" v="38"/>
    <tag k="addr:street" v="Łagowska"/>
    <tag k="source" v="http://ump.waw.pl/ retrieved 15:05:23 06/30/09 (UMP-Poznan/src/POZNAN.ulice.txt)"/>
  </node>
  <node id="453978558" version="1" timestamp="2009-08-02T02:47:22Z" uid="20587" user="balrog-kun" changeset="2009336" lat="52.4395867" lon="16.8233147">
    <tag k="addr:city" v="Poznań"/>
    <tag k="addr:housenumber" v="7"/>
    <tag k="addr:street" v="Tczewska"/>
    <tag k="source" v="http://ump.waw.pl/ retrieved 15:05:23 06/30/09 (UMP-Poznan/src/POZNAN.ulice.txt)"/>
  </node>
  <node id="453978561" version="1" timestamp="2009-08-02T02:47:22Z" uid="20587" user="balrog-kun" changeset="2009336" lat="52.4360058" lon="16.8092336">
    <tag k="addr:city" v="Poznań"/>
    <tag k="addr:housenumber" v="24"/>
    <tag k="addr:street" v="Słupska"/>
    <tag k="source" v="http://ump.waw.pl/ retrieved 15:05:23 06/30/09 (UMP-Poznan/src/POZNAN.ulice.txt)"/>
  </node>
  <node id="453978563" version="1" timestamp="2009-08-02T02:47:22Z" uid="20587" user="balrog-kun" changeset="2009336" lat="52.4321296" lon="16.8410831">
    <tag k="addr:city" v="Poznań"/>
    <tag k="addr:housenumber" v="3"/>
    <tag k="addr:street" v="Białośliwska"/>
    <tag k="source" v="http://ump.waw.pl/ retrieved 15:05:23 06/30/09 (UMP-Poznan/src/POZNAN.ulice.txt)"/>
  </node>
  <node id="453978565" version="1" timestamp="2009-08-02T02:47:22Z" uid="20587" user="balrog-kun" changeset="2009336" lat="52.4392983" lon="16.8349748">
    <tag k="addr:city" v="Poznań"/>
    <tag k="addr:housenumber" v="2"/>
    <tag k="addr:street" v="Bartoszycka"/>
    <tag k="source" v="http://ump.waw.pl/ retrieved 15:05:23 06/30/09 (UMP-Poznan/src/POZNAN.ulice.txt)"/>
  </node>
  <node id="453978568" version="1" timestamp="2009-08-02T02:47:23Z" uid="20587" user="balrog-kun" changeset="2009336" lat="52.4331677" lon="16.8452324">
    <tag k="addr:city" v="Poznań"/>
    <tag k="addr:housenumber" v="18"/>
    <tag k="addr:street" v="Czarnkowska"/>
    <tag k="source" v="http://ump.waw.pl/ retrieved 15:05:23 06/30/09 (UMP-Poznan/src/POZNAN.ulice.txt)"/>
  </node>
  <node id="453978570" version="1" timestamp="2009-08-02T02:47:23Z" uid="20587" user="balrog-kun" changeset="2009336" lat="52.4345182" lon="16.8135642">
    <tag k="addr:city" v="Poznań"/>
    <tag k="addr:housenumber" v="50"/>
    <tag k="addr:street" v="Warpnowska"/>
    <tag k="source" v="http://ump.waw.pl/ retrieved 15:05:23 06/30/09 (UMP-Poznan/src/POZNAN.ulice.txt)"/>
  </node>
  <node id="453978573" version="1" timestamp="2009-08-02T02:47:23Z" uid="20587" user="balrog-kun" changeset="2009336" lat="52.432802" lon="16.8154187">
    <tag k="addr:city" v="Poznań"/>
    <tag k="addr:housenumber" v="5"/>
    <tag k="addr:street" v="Gorzyńska"/>
    <tag k="source" v="http://ump.waw.pl/ retrieved 15:05:23 06/30/09 (UMP-Poznan/src/POZNAN.ulice.txt)"/>
  </node>
  <node id="453978575" version="1" timestamp="2009-08-02T02:47:23Z" uid="20587" user="balrog-kun" changeset="2009336" lat="52.4412145" lon="16.8387342">
    <tag k="addr:city" v="Poznań"/>
    <tag k="addr:housenumber" v="102"/>
    <tag k="addr:street" v="Beskidzka"/>
    <tag k="source" v="http://ump.waw.pl/ retrieved 15:05:23 06/30/09 (UMP-Poznan/src/POZNAN.ulice.txt)"/>
  </node>
  <node id="453978578" version="1" timestamp="2009-08-02T02:47:23Z" uid="20587" user="balrog-kun" changeset="2009336" lat="52.4336591" lon="16.8092466">
    <tag k="addr:city" v="Poznań"/>
    <tag k="addr:housenumber" v="10"/>
    <tag k="addr:street" v="Słupska"/>
    <tag k="source" v="http://ump.waw.pl/ retrieved 15:05:23 06/30/09 (UMP-Poznan/src/POZNAN.ulice.txt)"/>
  </node>
  <node id="453978580" version="1" timestamp="2009-08-02T02:47:23Z" uid="20587" user="balrog-kun" changeset="2009336" lat="52.4385569" lon="16.8111622">
    <tag k="addr:city" v="Poznań"/>
    <tag k="addr:housenumber" v="86"/>
    <tag k="addr:street" v="Łebska"/>
    <tag k="source" v="http://ump.waw.pl/ retrieved 15:05:23 06/30/09 (UMP-Poznan/src/POZNAN.ulice.txt)"/>
  </node>
  <node id="453978582" version="1" timestamp="2009-08-02T02:47:23Z" uid="20587" user="balrog-kun" changeset="2009336" lat="52.4352234" lon="16.8311243">
    <tag k="addr:city" v="Poznań"/>
    <tag k="addr:housenumber" v="55"/>
    <tag k="addr:street" v="Sianowska"/>
    <tag k="source" v="http://ump.waw.pl/ retrieved 15:05:23 06/30/09 (UMP-Poznan/src/POZNAN.ulice.txt)"/>
  </node>
  <node id="453978586" version="1" timestamp="2009-08-02T02:47:23Z" uid="20587" user="balrog-kun" changeset="2009336" lat="52.431281" lon="16.8413609">
    <tag k="addr:city" v="Poznań"/>
    <tag k="addr:housenumber" v="351"/>
    <tag k="addr:street" v="Dąbrowskiego"/>
    <tag k="source" v="http://ump.waw.pl/ retrieved 15:05:23 06/30/09 (UMP-Poznan/src/POZNAN.ulice.txt)"/>
  </node>
  <node id="453978588" version="1" timestamp="2009-08-02T02:47:23Z" uid="20587" user="balrog-kun" changeset="2009336" lat="52.4340775" lon="16.8408865">
    <tag k="addr:city" v="Poznań"/>
    <tag k="addr:housenumber" v="26"/>
    <tag k="addr:street" v="Kołobrzeska"/>
    <tag k="source" v="http://ump.waw.pl/ retrieved 15:05:23 06/30/09 (UMP-Poznan/src/POZNAN.ulice.txt)"/>
  </node>
  <node id="453978591" version="1" timestamp="2009-08-02T02:47:23Z" uid="20587" user="balrog-kun" changeset="2009336" lat="52.4367093" lon="16.80909">
    <tag k="addr:city" v="Poznań"/>
    <tag k="addr:housenumber" v="30"/>
    <tag k="addr:street" v="Słupska"/>
    <tag k="source" v="http://ump.waw.pl/ retrieved 15:05:23 06/30/09 (UMP-Poznan/src/POZNAN.ulice.txt)"/>
  </node>
  <node id="453978595" version="1" timestamp="2009-08-02T02:47:23Z" uid="20587" user="balrog-kun" changeset="2009336" lat="52.4359163" lon="16.8261564">
    <tag k="addr:city" v="Poznań"/>
    <tag k="addr:housenumber" v="71"/>
    <tag k="addr:street" v="Lęborska"/>
    <tag k="source" v="http://ump.waw.pl/ retrieved 15:05:23 06/30/09 (UMP-Poznan/src/POZNAN.ulice.txt)"/>
  </node>
  <node id="453978598" version="1" timestamp="2009-08-02T02:47:23Z" uid="20587" user="balrog-kun" changeset="2009336" lat="52.4385326" lon="16.8352623">
    <tag k="addr:city" v="Poznań"/>
    <tag k="addr:housenumber" v="5"/>
    <tag k="addr:street" v="Brodnicka"/>
    <tag k="source" v="http://ump.waw.pl/ retrieved 15:05:23 06/30/09 (UMP-Poznan/src/POZNAN.ulice.txt)"/>
  </node>
  <node id="453978602" version="1" timestamp="2009-08-02T02:47:23Z" uid="20587" user="balrog-kun" changeset="2009336" lat="52.4322865" lon="16.8304124">
    <tag k="addr:city" v="Poznań"/>
    <tag k="addr:housenumber" v="425"/>
    <tag k="addr:street" v="Dąbrowskiego"/>
    <tag k="source" v="http://ump.waw.pl/ retrieved 15:05:23 06/30/09 (UMP-Poznan/src/POZNAN.ulice.txt)"/>
  </node>
  <node id="453978606" version="1" timestamp="2009-08-02T02:47:23Z" uid="20587" user="balrog-kun" changeset="2009336" lat="52.4327976" lon="16.8397517">
    <tag k="addr:city" v="Poznań"/>
    <tag k="addr:housenumber" v="12"/>
    <tag k="addr:street" v="Kołobrzeska"/>
    <tag k="source" v="http://ump.waw.pl/ retrieved 15:05:23 06/30/09 (UMP-Poznan/src/POZNAN.ulice.txt)"/>
  </node>
  <node id="453978610" version="1" timestamp="2009-08-02T02:47:23Z" uid="20587" user="balrog-kun" changeset="2009336" lat="52.4363692" lon="16.8199038">
    <tag k="addr:city" v="Poznań"/>
    <tag k="addr:housenumber" v="57"/>
    <tag k="addr:street" v="Łagowska"/>
    <tag k="source" v="http://ump.waw.pl/ retrieved 15:05:23 06/30/09 (UMP-Poznan/src/POZNAN.ulice.txt)"/>
  </node>
  <node id="453978614" version="1" timestamp="2009-08-02T02:47:23Z" uid="20587" user="balrog-kun" changeset="2009336" lat="52.4340681" lon="16.8109609">
    <tag k="addr:city" v="Poznań"/>
    <tag k="addr:housenumber" v="28"/>
    <tag k="addr:street" v="Warpnowska"/>
    <tag k="source" v="http://ump.waw.pl/ retrieved 15:05:23 06/30/09 (UMP-Poznan/src/POZNAN.ulice.txt)"/>
  </node>
  <node id="453978618" version="1" timestamp="2009-08-02T02:47:23Z" uid="20587" user="balrog-kun" changeset="2009336" lat="52.4393786" lon="16.8251698">
    <tag k="addr:city" v="Poznań"/>
    <tag k="addr:housenumber" v="20"/>
    <tag k="addr:street" v="Gniewska"/>
    <tag k="source" v="http://ump.waw.pl/ retrieved 15:05:23 06/30/09 (UMP-Poznan/src/POZNAN.ulice.txt)"/>
  </node>
  <node id="453978622" version="1" timestamp="2009-08-02T02:47:23Z" uid="20587" user="balrog-kun" changeset="2009336" lat="52.4322927" lon="16.8110173">
    <tag k="addr:city" v="Poznań"/>
    <tag k="addr:housenumber" v="507"/>
    <tag k="addr:street" v="Dąbrowskiego"/>
    <tag k="source" v="http://ump.waw.pl/ retrieved 15:05:23 06/30/09 (UMP-Poznan/src/POZNAN.ulice.txt)"/>
  </node>
  <node id="453978627" version="1" timestamp="2009-08-02T02:47:24Z" uid="20587" user="balrog-kun" changeset="2009336" lat="52.4373463" lon="16.8236164">
    <tag k="addr:city" v="Poznań"/>
    <tag k="addr:housenumber" v="89"/>
    <tag k="addr:street" v="Myśliborska"/>
    <tag k="source" v="http://ump.waw.pl/ retrieved 15:05:23 06/30/09 (UMP-Poznan/src/POZNAN.ulice.txt)"/>
  </node>
  <node id="453978630" version="1" timestamp="2009-08-02T02:47:24Z" uid="20587" user="balrog-kun" changeset="2009336" lat="52.4322148" lon="16.8221024">
    <tag k="addr:city" v="Poznań"/>
    <tag k="addr:housenumber" v="467"/>
    <tag k="addr:street" v="Dąbrowskiego"/>
    <tag k="source" v="http://ump.waw.pl/ retrieved 15:05:23 06/30/09 (UMP-Poznan/src/POZNAN.ulice.txt)"/>
  </node>
  <node id="453978635" version="1" timestamp="2009-08-02T02:47:24Z" uid="20587" user="balrog-kun" changeset="2009336" lat="52.4333481" lon="16.81149">
    <tag k="addr:city" v="Poznań"/>
    <tag k="addr:housenumber" v="23"/>
    <tag k="addr:street" v="Izbicka"/>
    <tag k="source" v="http://ump.waw.pl/ retrieved 15:05:23 06/30/09 (UMP-Poznan/src/POZNAN.ulice.txt)"/>
  </node>
  <node id="453978640" version="1" timestamp="2009-08-02T02:47:24Z" uid="20587" user="balrog-kun" changeset="2009336" lat="52.4325773" lon="16.8310783">
    <tag k="addr:city" v="Poznań"/>
    <tag k="addr:housenumber" v="2"/>
    <tag k="addr:street" v="Santocka"/>
    <tag k="source" v="http://ump.waw.pl/ retrieved 15:05:23 06/30/09 (UMP-Poznan/src/POZNAN.ulice.txt)"/>
  </node>
  <node id="453978645" version="1" timestamp="2009-08-02T02:47:24Z" uid="20587" user="balrog-kun" changeset="2009336" lat="52.4381466" lon="16.8150562">
    <tag k="addr:city" v="Poznań"/>
    <tag k="addr:housenumber" v="3"/>
    <tag k="addr:street" v="Oliwska"/>
    <tag k="source" v="http://ump.waw.pl/ retrieved 15:05:23 06/30/09 (UMP-Poznan/src/POZNAN.ulice.txt)"/>
  </node>
  <node id="453978648" version="1" timestamp="2009-08-02T02:47:24Z" uid="20587" user="balrog-kun" changeset="2009336" lat="52.4329939" lon="16.81305">
    <tag k="addr:city" v="Poznań"/>
    <tag k="addr:housenumber" v="5"/>
    <tag k="addr:street" v="Łebska"/>
    <tag k="source" v="http://ump.waw.pl/ retrieved 15:05:23 06/30/09 (UMP-Poznan/src/POZNAN.ulice.txt)"/>
  </node>
  <node id="453978654" version="1" timestamp="2009-08-02T02:47:24Z" uid="20587" user="balrog-kun" changeset="2009336" lat="52.4352119" lon="16.8139022">
    <tag k="addr:city" v="Poznań"/>
    <tag k="addr:housenumber" v="134"/>
    <tag k="addr:street" v="Sianowska"/>
    <tag k="source" v="http://ump.waw.pl/ retrieved 15:05:23 06/30/09 (UMP-Poznan/src/POZNAN.ulice.txt)"/>
  </node>
  <node id="453978657" version="1" timestamp="2009-08-02T02:47:24Z" uid="20587" user="balrog-kun" changeset="2009336" lat="52.4322182" lon="16.8156075">
    <tag k="addr:city" v="Poznań"/>
    <tag k="addr:housenumber" v="1"/>
    <tag k="addr:street" v="Gorzyńska"/>
    <tag k="source" v="http://ump.waw.pl/ retrieved 15:05:23 06/30/09 (UMP-Poznan/src/POZNAN.ulice.txt)"/>
  </node>
  <node id="453978660" version="1" timestamp="2009-08-02T02:47:24Z" uid="20587" user="balrog-kun" changeset="2009336" lat="52.4344722" lon="16.810635">
    <tag k="addr:city" v="Poznań"/>
    <tag k="addr:housenumber" v="26"/>
    <tag k="addr:street" v="Warpnowska"/>
    <tag k="source" v="http://ump.waw.pl/ retrieved 15:05:23 06/30/09 (UMP-Poznan/src/POZNAN.ulice.txt)"/>
  </node>
  <node id="453978665" version="1" timestamp="2009-08-02T02:47:24Z" uid="20587" user="balrog-kun" changeset="2009336" lat="52.4371729" lon="16.8400229">
    <tag k="addr:city" v="Poznań"/>
    <tag k="addr:housenumber" v="6"/>
    <tag k="addr:street" v="Trzebiatowska"/>
    <tag k="source" v="http://ump.waw.pl/ retrieved 15:05:23 06/30/09 (UMP-Poznan/src/POZNAN.ulice.txt)"/>
  </node>
  <node id="453978665" version="2" timestamp="2009-08-02T17:16:11Z" uid="20587" user="balrog-kun" changeset="2017141" lat="52.4371795" lon="16.8396797">
    <tag k="addr:city" v="Poznań"/>
    <tag k="addr:housenumber" v="6"/>
    <tag k="addr:street" v="Trzebiatowska"/>
    <tag k="source" v="http://ump.waw.pl/ retrieved 15:05:23 06/30/09 (UMP-Poznan/src/POZNAN.ulice.txt)"/>
  </node>
  <node id="453978668" version="1" timestamp="2009-08-02T02:47:24Z" uid="20587" user="balrog-kun" changeset="2009336" lat="52.4326318" lon="16.812847">
    <tag k="addr:city" v="Poznań"/>
    <tag k="addr:housenumber" v="1"/>
    <tag k="addr:street" v="Charzykowska"/>
    <tag k="source" v="http://ump.waw.pl/ retrieved 15:05:23 06/30/09 (UMP-Poznan/src/POZNAN.ulice.txt)"/>
  </node>
  <node id="453978672" version="1" timestamp="2009-08-02T02:47:24Z" uid="20587" user="balrog-kun" changeset="2009336" lat="52.438881" lon="16.8350038">
    <tag k="addr:city" v="Poznań"/>
    <tag k="addr:housenumber" v="24"/>
    <tag k="addr:street" v="Lubowska"/>
    <tag k="source" v="http://ump.waw.pl/ retrieved 15:05:23 06/30/09 (UMP-Poznan/src/POZNAN.ulice.txt)"/>
  </node>
  <node id="453978675" version="1" timestamp="2009-08-02T02:47:24Z" uid="20587" user="balrog-kun" changeset="2009336" lat="52.4322865" lon="16.8229432">
    <tag k="addr:city" v="Poznań"/>
    <tag k="addr:housenumber" v="465"/>
    <tag k="addr:street" v="Dąbrowskiego"/>
    <tag k="source" v="http://ump.waw.pl/ retrieved 15:05:23 06/30/09 (UMP-Poznan/src/POZNAN.ulice.txt)"/>
  </node>
  <node id="453978679" version="1" timestamp="2009-08-02T02:47:24Z" uid="20587" user="balrog-kun" changeset="2009336" lat="52.439808" lon="16.8214477">
    <tag k="addr:city" v="Poznań"/>
    <tag k="addr:housenumber" v="47"/>
    <tag k="addr:street" v="Pucka"/>
    <tag k="source" v="http://ump.waw.pl/ retrieved 15:05:23 06/30/09 (UMP-Poznan/src/POZNAN.ulice.txt)"/>
  </node>
  <node id="453978683" version="1" timestamp="2009-08-02T02:47:24Z" uid="20587" user="balrog-kun" changeset="2009336" lat="52.4312452" lon="16.8420477">
    <tag k="addr:city" v="Poznań"/>
    <tag k="addr:housenumber" v="2"/>
    <tag k="addr:street" v="Rogozińska"/>
    <tag k="source" v="http://ump.waw.pl/ retrieved 15:05:23 06/30/09 (UMP-Poznan/src/POZNAN.ulice.txt)"/>
  </node>
  <node id="453978687" version="1" timestamp="2009-08-02T02:47:24Z" uid="20587" user="balrog-kun" changeset="2009336" lat="52.4408892" lon="16.8292286">
    <tag k="addr:city" v="Poznań"/>
    <tag k="addr:housenumber" v="27"/>
    <tag k="addr:street" v="Polanowska"/>
    <tag k="source" v="http://ump.waw.pl/ retrieved 15:05:23 06/30/09 (UMP-Poznan/src/POZNAN.ulice.txt)"/>
  </node>
  <node id="453978690" version="1" timestamp="2009-08-02T02:47:24Z" uid="20587" user="balrog-kun" changeset="2009336" lat="52.440542" lon="16.8208041">
    <tag k="addr:city" v="Poznań"/>
    <tag k="addr:housenumber" v="2"/>
    <tag k="addr:street" v="Braniewska"/>
    <tag k="source" v="http://ump.waw.pl/ retrieved 15:05:23 06/30/09 (UMP-Poznan/src/POZNAN.ulice.txt)"/>
  </node>
  <node id="453978690" version="2" timestamp="2009-08-02T17:16:11Z" uid="20587" user="balrog-kun" changeset="2017141" lat="52.4405211" lon="16.8207698">
    <tag k="addr:city" v="Poznań"/>
    <tag k="addr:housenumber" v="2"/>
    <tag k="addr:street" v="Braniewska"/>
    <tag k="source" v="http://ump.waw.pl/ retrieved 15:05:23 06/30/09 (UMP-Poznan/src/POZNAN.ulice.txt)"/>
  </node>
  <node id="453978695" version="1" timestamp="2009-08-02T02:47:24Z" uid="20587" user="balrog-kun" changeset="2009336" lat="52.4398384" lon="16.8226884">
    <tag k="addr:city" v="Poznań"/>
    <tag k="addr:housenumber" v="35"/>
    <tag k="addr:street" v="Pucka"/>
    <tag k="source" v="http://ump.waw.pl/ retrieved 15:05:23 06/30/09 (UMP-Poznan/src/POZNAN.ulice.txt)"/>
  </node>
  <node id="453978698" version="1" timestamp="2009-08-02T02:47:25Z" uid="20587" user="balrog-kun" changeset="2009336" lat="52.4334824" lon="16.8433733">
    <tag k="addr:city" v="Poznań"/>
    <tag k="addr:housenumber" v="7"/>
    <tag k="addr:street" v="Budzyńska"/>
    <tag k="source" v="http://ump.waw.pl/ retrieved 15:05:23 06/30/09 (UMP-Poznan/src/POZNAN.ulice.txt)"/>
  </node>
  <node id="453978701" version="1" timestamp="2009-08-02T02:47:25Z" uid="20587" user="balrog-kun" changeset="2009336" lat="52.4392101" lon="16.8206709">
    <tag k="addr:city" v="Poznań"/>
    <tag k="addr:housenumber" v="50"/>
    <tag k="addr:street" v="Gniewska"/>
    <tag k="source" v="http://ump.waw.pl/ retrieved 15:05:23 06/30/09 (UMP-Poznan/src/POZNAN.ulice.txt)"/>
  </node>
  <node id="453978704" version="1" timestamp="2009-08-02T02:47:25Z" uid="20587" user="balrog-kun" changeset="2009336" lat="52.4359947" lon="16.8454926">
    <tag k="addr:city" v="Poznań"/>
    <tag k="addr:housenumber" v="38"/>
    <tag k="addr:street" v="Czarnkowska"/>
    <tag k="source" v="http://ump.waw.pl/ retrieved 15:05:23 06/30/09 (UMP-Poznan/src/POZNAN.ulice.txt)"/>
  </node>
  <node id="453978709" version="1" timestamp="2009-08-02T02:47:25Z" uid="20587" user="balrog-kun" changeset="2009336" lat="52.4332733" lon="16.8383572">
    <tag k="addr:city" v="Poznań"/>
    <tag k="addr:housenumber" v="12"/>
    <tag k="addr:street" v="Olsztyńska"/>
    <tag k="source" v="http://ump.waw.pl/ retrieved 15:05:23 06/30/09 (UMP-Poznan/src/POZNAN.ulice.txt)"/>
  </node>
  <node id="453978712" version="1" timestamp="2009-08-02T02:47:25Z" uid="20587" user="balrog-kun" changeset="2009336" lat="52.435552" lon="16.8368513">
    <tag k="addr:city" v="Poznań"/>
    <tag k="addr:housenumber" v="28"/>
    <tag k="addr:street" v="Sianowska"/>
    <tag k="source" v="http://ump.waw.pl/ retrieved 15:05:23 06/30/09 (UMP-Poznan/src/POZNAN.ulice.txt)"/>
  </node>
  <node id="453978716" version="1" timestamp="2009-08-02T02:47:25Z" uid="20587" user="balrog-kun" changeset="2009336" lat="52.4404224" lon="16.8161794">
    <tag k="addr:city" v="Poznań"/>
    <tag k="addr:housenumber" v="84"/>
    <tag k="addr:street" v="Kościerzyńska"/>
    <tag k="source" v="http://ump.waw.pl/ retrieved 15:05:23 06/30/09 (UMP-Poznan/src/POZNAN.ulice.txt)"/>
  </node>
  <node id="453978720" version="1" timestamp="2009-08-02T02:47:25Z" uid="20587" user="balrog-kun" changeset="2009336" lat="52.4356153" lon="16.8396072">
    <tag k="addr:city" v="Poznań"/>
    <tag k="addr:housenumber" v="12"/>
    <tag k="addr:street" v="Sianowska"/>
    <tag k="source" v="http://ump.waw.pl/ retrieved 15:05:23 06/30/09 (UMP-Poznan/src/POZNAN.ulice.txt)"/>
  </node>
  <node id="453978723" version="1" timestamp="2009-08-02T02:47:25Z" uid="20587" user="balrog-kun" changeset="2009336" lat="52.4334952" lon="16.8392577">
    <tag k="addr:city" v="Poznań"/>
    <tag k="addr:housenumber" v="15"/>
    <tag k="addr:street" v="Podgajska"/>
    <tag k="source" v="http://ump.waw.pl/ retrieved 15:05:23 06/30/09 (UMP-Poznan/src/POZNAN.ulice.txt)"/>
  </node>
  <node id="453978725" version="1" timestamp="2009-08-02T02:47:25Z" uid="20587" user="balrog-kun" changeset="2009336" lat="52.4360172" lon="16.8310771">
    <tag k="addr:city" v="Poznań"/>
    <tag k="addr:housenumber" v="47"/>
    <tag k="addr:street" v="Lęborska"/>
    <tag k="source" v="http://ump.waw.pl/ retrieved 15:05:23 06/30/09 (UMP-Poznan/src/POZNAN.ulice.txt)"/>
  </node>
  <node id="453978728" version="1" timestamp="2009-08-02T02:47:25Z" uid="20587" user="balrog-kun" changeset="2009336" lat="52.4355297" lon="16.8358334">
    <tag k="addr:city" v="Poznań"/>
    <tag k="addr:housenumber" v="32"/>
    <tag k="addr:street" v="Sianowska"/>
    <tag k="source" v="http://ump.waw.pl/ retrieved 15:05:23 06/30/09 (UMP-Poznan/src/POZNAN.ulice.txt)"/>
  </node>
  <node id="453978728" version="2" timestamp="2009-08-02T17:16:11Z" uid="20587" user="balrog-kun" changeset="2017141" lat="52.4355271" lon="16.8355655">
    <tag k="addr:city" v="Poznań"/>
    <tag k="addr:housenumber" v="32"/>
    <tag k="addr:street" v="Sianowska"/>
    <tag k="source" v="http://ump.waw.pl/ retrieved 15:05:23 06/30/09 (UMP-Poznan/src/POZNAN.ulice.txt)"/>
  </node>
  <node id="453978730" version="1" timestamp="2009-08-02T02:47:25Z" uid="20587" user="balrog-kun" changeset="2009336" lat="52.4354391" lon="16.8227876">
    <tag k="addr:city" v="Poznań"/>
    <tag k="addr:housenumber" v="96"/>
    <tag k="addr:street" v="Sianowska"/>
    <tag k="source" v="http://ump.waw.pl/ retrieved 15:05:23 06/30/09 (UMP-Poznan/src/POZNAN.ulice.txt)"/>
  </node>
  <node id="453978732" version="1" timestamp="2009-08-02T02:47:25Z" uid="20587" user="balrog-kun" changeset="2009336" lat="52.4371008" lon="16.8367924">
    <tag k="addr:city" v="Poznań"/>
    <tag k="addr:housenumber" v="22"/>
    <tag k="addr:street" v="Trzebiatowska"/>
    <tag k="source" v="http://ump.waw.pl/ retrieved 15:05:23 06/30/09 (UMP-Poznan/src/POZNAN.ulice.txt)"/>
  </node>
  <node id="453978732" version="2" timestamp="2009-08-02T17:16:11Z" uid="20587" user="balrog-kun" changeset="2017141" lat="52.4371073" lon="16.8368139">
    <tag k="addr:city" v="Poznań"/>
    <tag k="addr:housenumber" v="22"/>
    <tag k="addr:street" v="Trzebiatowska"/>
    <tag k="source" v="http://ump.waw.pl/ retrieved 15:05:23 06/30/09 (UMP-Poznan/src/POZNAN.ulice.txt)"/>
  </node>
  <node id="453978735" version="1" timestamp="2009-08-02T02:47:25Z" uid="20587" user="balrog-kun" changeset="2009336" lat="52.4392202" lon="16.8168284">
    <tag k="addr:city" v="Poznań"/>
    <tag k="addr:housenumber" v="34"/>
    <tag k="addr:street" v="Ornecka"/>
    <tag k="source" v="http://ump.waw.pl/ retrieved 15:05:23 06/30/09 (UMP-Poznan/src/POZNAN.ulice.txt)"/>
  </node>
  <node id="453978737" version="1" timestamp="2009-08-02T02:47:25Z" uid="20587" user="balrog-kun" changeset="2009336" lat="52.4328757" lon="16.8128531">
    <tag k="addr:city" v="Poznań"/>
    <tag k="addr:housenumber" v="2"/>
    <tag k="addr:street" v="Charzykowska"/>
    <tag k="source" v="http://ump.waw.pl/ retrieved 15:05:23 06/30/09 (UMP-Poznan/src/POZNAN.ulice.txt)"/>
  </node>
  <node id="453978741" version="1" timestamp="2009-08-02T02:47:25Z" uid="20587" user="balrog-kun" changeset="2009336" lat="52.4391104" lon="16.8378867">
    <tag k="addr:city" v="Poznań"/>
    <tag k="addr:housenumber" v="2"/>
    <tag k="addr:street" v="Czaplinecka"/>
    <tag k="source" v="http://ump.waw.pl/ retrieved 15:05:23 06/30/09 (UMP-Poznan/src/POZNAN.ulice.txt)"/>
  </node>
  <node id="453978743" version="1" timestamp="2009-08-02T02:47:25Z" uid="20587" user="balrog-kun" changeset="2009336" lat="52.4354186" lon="16.8210231">
    <tag k="addr:city" v="Poznań"/>
    <tag k="addr:housenumber" v="104"/>
    <tag k="addr:street" v="Sianowska"/>
    <tag k="source" v="http://ump.waw.pl/ retrieved 15:05:23 06/30/09 (UMP-Poznan/src/POZNAN.ulice.txt)"/>
  </node>
  <node id="453978746" version="1" timestamp="2009-08-02T02:47:25Z" uid="20587" user="balrog-kun" changeset="2009336" lat="52.4368571" lon="16.8368071">
    <tag k="addr:city" v="Poznań"/>
    <tag k="addr:housenumber" v="21"/>
    <tag k="addr:street" v="Trzebiatowska"/>
    <tag k="source" v="http://ump.waw.pl/ retrieved 15:05:23 06/30/09 (UMP-Poznan/src/POZNAN.ulice.txt)"/>
  </node>
  <node id="453978748" version="1" timestamp="2009-08-02T02:47:25Z" uid="20587" user="balrog-kun" changeset="2009336" lat="52.4382631" lon="16.8147311">
    <tag k="addr:city" v="Poznań"/>
    <tag k="addr:housenumber" v="7"/>
    <tag k="addr:street" v="Oliwska"/>
    <tag k="source" v="http://ump.waw.pl/ retrieved 15:05:23 06/30/09 (UMP-Poznan/src/POZNAN.ulice.txt)"/>
  </node>
  <node id="453978751" version="1" timestamp="2009-08-02T02:47:25Z" uid="20587" user="balrog-kun" changeset="2009336" lat="52.4393867" lon="16.8128398">
    <tag k="addr:city" v="Poznań"/>
    <tag k="addr:housenumber" v="28"/>
    <tag k="addr:street" v="Oliwska"/>
    <tag k="source" v="http://ump.waw.pl/ retrieved 15:05:23 06/30/09 (UMP-Poznan/src/POZNAN.ulice.txt)"/>
  </node>
  <node id="453978753" version="1" timestamp="2009-08-02T02:47:26Z" uid="20587" user="balrog-kun" changeset="2009336" lat="52.4342593" lon="16.8305058">
    <tag k="addr:city" v="Poznań"/>
    <tag k="addr:housenumber" v="11"/>
    <tag k="addr:street" v="Santocka"/>
    <tag k="source" v="http://ump.waw.pl/ retrieved 15:05:23 06/30/09 (UMP-Poznan/src/POZNAN.ulice.txt)"/>
  </node>
  <node id="453978755" version="1" timestamp="2009-08-02T02:47:26Z" uid="20587" user="balrog-kun" changeset="2009336" lat="52.4404105" lon="16.8157799">
    <tag k="addr:city" v="Poznań"/>
    <tag k="addr:housenumber" v="143"/>
    <tag k="addr:street" v="Kościerzyńska"/>
    <tag k="source" v="http://ump.waw.pl/ retrieved 15:05:23 06/30/09 (UMP-Poznan/src/POZNAN.ulice.txt)"/>
  </node>
  <node id="453978758" version="1" timestamp="2009-08-02T02:47:26Z" uid="20587" user="balrog-kun" changeset="2009336" lat="52.4385646" lon="16.8330318">
    <tag k="addr:city" v="Poznań"/>
    <tag k="addr:housenumber" v="23"/>
    <tag k="addr:street" v="Lubowska"/>
    <tag k="source" v="http://ump.waw.pl/ retrieved 15:05:23 06/30/09 (UMP-Poznan/src/POZNAN.ulice.txt)"/>
  </node>
  <node id="453978758" version="2" timestamp="2009-08-02T17:16:11Z" uid="20587" user="balrog-kun" changeset="2017141" lat="52.4385689" lon="16.8332293">
    <tag k="addr:city" v="Poznań"/>
    <tag k="addr:housenumber" v="23"/>
    <tag k="addr:street" v="Lubowska"/>
    <tag k="source" v="http://ump.waw.pl/ retrieved 15:05:23 06/30/09 (UMP-Poznan/src/POZNAN.ulice.txt)"/>
  </node>
  <node id="453978761" version="1" timestamp="2009-08-02T02:47:26Z" uid="20587" user="balrog-kun" changeset="2009336" lat="52.4392502" lon="16.8178384">
    <tag k="addr:city" v="Poznań"/>
    <tag k="addr:housenumber" v="3"/>
    <tag k="addr:street" v="Ornecka"/>
    <tag k="source" v="http://ump.waw.pl/ retrieved 15:05:23 06/30/09 (UMP-Poznan/src/POZNAN.ulice.txt)"/>
  </node>
  <node id="453978764" version="1" timestamp="2009-08-02T02:47:26Z" uid="20587" user="balrog-kun" changeset="2009336" lat="52.440168" lon="16.8212259">
    <tag k="addr:city" v="Poznań"/>
    <tag k="addr:housenumber" v="7"/>
    <tag k="addr:street" v="Braniewska"/>
    <tag k="source" v="http://ump.waw.pl/ retrieved 15:05:23 06/30/09 (UMP-Poznan/src/POZNAN.ulice.txt)"/>
  </node>
  <node id="453978766" version="1" timestamp="2009-08-02T02:47:26Z" uid="20587" user="balrog-kun" changeset="2009336" lat="52.4354003" lon="16.819891">
    <tag k="addr:city" v="Poznań"/>
    <tag k="addr:housenumber" v="110"/>
    <tag k="addr:street" v="Sianowska"/>
    <tag k="source" v="http://ump.waw.pl/ retrieved 15:05:23 06/30/09 (UMP-Poznan/src/POZNAN.ulice.txt)"/>
  </node>
  <node id="453978769" version="1" timestamp="2009-08-02T02:47:26Z" uid="20587" user="balrog-kun" changeset="2009336" lat="52.4394348" lon="16.8394084">
    <tag k="addr:city" v="Poznań"/>
    <tag k="addr:housenumber" v="33"/>
    <tag k="addr:street" v="Człuchowska"/>
    <tag k="source" v="http://ump.waw.pl/ retrieved 15:05:23 06/30/09 (UMP-Poznan/src/POZNAN.ulice.txt)"/>
  </node>
  <node id="453978771" version="1" timestamp="2009-08-02T02:47:26Z" uid="20587" user="balrog-kun" changeset="2009336" lat="52.4321292" lon="16.841673">
    <tag k="addr:city" v="Poznań"/>
    <tag k="addr:housenumber" v="8"/>
    <tag k="addr:street" v="Białośliwska"/>
    <tag k="source" v="http://ump.waw.pl/ retrieved 15:05:23 06/30/09 (UMP-Poznan/src/POZNAN.ulice.txt)"/>
  </node>
  <node id="453978773" version="1" timestamp="2009-08-02T02:47:26Z" uid="20587" user="balrog-kun" changeset="2009336" lat="52.4348276" lon="16.817366">
    <tag k="addr:city" v="Poznań"/>
    <tag k="addr:housenumber" v="22"/>
    <tag k="addr:street" v="Kościerzyńska"/>
    <tag k="source" v="http://ump.waw.pl/ retrieved 15:05:23 06/30/09 (UMP-Poznan/src/POZNAN.ulice.txt)"/>
  </node>
  <node id="453978776" version="1" timestamp="2009-08-02T02:47:26Z" uid="20587" user="balrog-kun" changeset="2009336" lat="52.4346472" lon="16.8311656">
    <tag k="addr:city" v="Poznań"/>
    <tag k="addr:housenumber" v="1"/>
    <tag k="addr:street" v="Suliszewska"/>
    <tag k="source" v="http://ump.waw.pl/ retrieved 15:05:23 06/30/09 (UMP-Poznan/src/POZNAN.ulice.txt)"/>
  </node>
  <node id="453978778" version="1" timestamp="2009-08-02T02:47:26Z" uid="20587" user="balrog-kun" changeset="2009336" lat="52.4360082" lon="16.8164687">
    <tag k="addr:city" v="Poznań"/>
    <tag k="addr:housenumber" v="44"/>
    <tag k="addr:street" v="Kościerzyńska"/>
    <tag k="source" v="http://ump.waw.pl/ retrieved 15:05:23 06/30/09 (UMP-Poznan/src/POZNAN.ulice.txt)"/>
  </node>
  <node id="453978781" version="1" timestamp="2009-08-02T02:47:26Z" uid="20587" user="balrog-kun" changeset="2009336" lat="52.4399477" lon="16.8259475">
    <tag k="addr:city" v="Poznań"/>
    <tag k="addr:housenumber" v="17"/>
    <tag k="addr:street" v="Pucka"/>
    <tag k="source" v="http://ump.waw.pl/ retrieved 15:05:23 06/30/09 (UMP-Poznan/src/POZNAN.ulice.txt)"/>
  </node>
  <node id="453978784" version="1" timestamp="2009-08-02T02:47:26Z" uid="20587" user="balrog-kun" changeset="2009336" lat="52.4372972" lon="16.8414273">
    <tag k="addr:city" v="Poznań"/>
    <tag k="addr:housenumber" v="1"/>
    <tag k="addr:street" v="Trzebiatowska"/>
    <tag k="source" v="http://ump.waw.pl/ retrieved 15:05:23 06/30/09 (UMP-Poznan/src/POZNAN.ulice.txt)"/>
  </node>
  <node id="453978784" version="2" timestamp="2009-08-02T17:16:11Z" uid="20587" user="balrog-kun" changeset="2017141" lat="52.4373822" lon="16.8413415">
    <tag k="addr:city" v="Poznań"/>
    <tag k="addr:housenumber" v="1"/>
    <tag k="addr:street" v="Trzebiatowska"/>
    <tag k="source" v="http://ump.waw.pl/ retrieved 15:05:23 06/30/09 (UMP-Poznan/src/POZNAN.ulice.txt)"/>
  </node>
  <node id="453978787" version="1" timestamp="2009-08-02T02:47:26Z" uid="20587" user="balrog-kun" changeset="2009336" lat="52.4372482" lon="16.8174884">
    <tag k="addr:city" v="Poznań"/>
    <tag k="addr:housenumber" v="25"/>
    <tag k="addr:street" v="Mrzeżyńska"/>
    <tag k="source" v="http://ump.waw.pl/ retrieved 15:05:23 06/30/09 (UMP-Poznan/src/POZNAN.ulice.txt)"/>
  </node>
  <node id="453978789" version="1" timestamp="2009-08-02T02:47:26Z" uid="20587" user="balrog-kun" changeset="2009336" lat="52.4389374" lon="16.8332">
    <tag k="addr:city" v="Poznań"/>
    <tag k="addr:housenumber" v="1"/>
    <tag k="addr:street" v="Mazurska"/>
    <tag k="source" v="http://ump.waw.pl/ retrieved 15:05:23 06/30/09 (UMP-Poznan/src/POZNAN.ulice.txt)"/>
  </node>
  <node id="453978831" version="1" timestamp="2009-08-02T02:47:27Z" uid="20587" user="balrog-kun" changeset="2009336" lat="52.4362215" lon="16.8432288">
    <tag k="addr:city" v="Poznań"/>
    <tag k="addr:housenumber" v="2"/>
    <tag k="addr:street" v="Człuchowska"/>
    <tag k="source" v="http://ump.waw.pl/ retrieved 15:05:23 06/30/09 (UMP-Poznan/src/POZNAN.ulice.txt)"/>
  </node>
  <node id="453978836" version="1" timestamp="2009-08-02T02:47:27Z" uid="20587" user="balrog-kun" changeset="2009336" lat="52.4315211" lon="16.8401421">
    <tag k="addr:city" v="Poznań"/>
    <tag k="addr:housenumber" v="357"/>
    <tag k="addr:street" v="Dąbrowskiego"/>
    <tag k="source" v="http://ump.waw.pl/ retrieved 15:05:23 06/30/09 (UMP-Poznan/src/POZNAN.ulice.txt)"/>
  </node>
  <node id="453978840" version="1" timestamp="2009-08-02T02:47:27Z" uid="20587" user="balrog-kun" changeset="2009336" lat="52.4384491" lon="16.8294486">
    <tag k="addr:city" v="Poznań"/>
    <tag k="addr:housenumber" v="47"/>
    <tag k="addr:street" v="Lubowska"/>
    <tag k="source" v="http://ump.waw.pl/ retrieved 15:05:23 06/30/09 (UMP-Poznan/src/POZNAN.ulice.txt)"/>
  </node>
  <node id="453978845" version="1" timestamp="2009-08-02T02:47:27Z" uid="20587" user="balrog-kun" changeset="2009336" lat="52.4375453" lon="16.8206947">
    <tag k="addr:city" v="Poznań"/>
    <tag k="addr:housenumber" v="2"/>
    <tag k="addr:street" v="Mrzeżyńska"/>
    <tag k="source" v="http://ump.waw.pl/ retrieved 15:05:23 06/30/09 (UMP-Poznan/src/POZNAN.ulice.txt)"/>
  </node>
  <node id="453978850" version="1" timestamp="2009-08-02T02:47:27Z" uid="20587" user="balrog-kun" changeset="2009336" lat="52.4349683" lon="16.8139185">
    <tag k="addr:city" v="Poznań"/>
    <tag k="addr:housenumber" v="127"/>
    <tag k="addr:street" v="Sianowska"/>
    <tag k="source" v="http://ump.waw.pl/ retrieved 15:05:23 06/30/09 (UMP-Poznan/src/POZNAN.ulice.txt)"/>
  </node>
  <node id="453978853" version="1" timestamp="2009-08-02T02:47:27Z" uid="20587" user="balrog-kun" changeset="2009336" lat="52.4352053" lon="16.8417643">
    <tag k="addr:city" v="Poznań"/>
    <tag k="addr:housenumber" v="36"/>
    <tag k="addr:street" v="Kołobrzeska"/>
    <tag k="source" v="http://ump.waw.pl/ retrieved 15:05:23 06/30/09 (UMP-Poznan/src/POZNAN.ulice.txt)"/>
  </node>
  <node id="453978853" version="2" timestamp="2009-08-02T17:16:11Z" uid="20587" user="balrog-kun" changeset="2017141" lat="52.4350065" lon="16.841893">
    <tag k="addr:city" v="Poznań"/>
    <tag k="addr:housenumber" v="36"/>
    <tag k="addr:street" v="Kołobrzeska"/>
    <tag k="source" v="http://ump.waw.pl/ retrieved 15:05:23 06/30/09 (UMP-Poznan/src/POZNAN.ulice.txt)"/>
  </node>
  <node id="453978859" version="1" timestamp="2009-08-02T02:47:28Z" uid="20587" user="balrog-kun" changeset="2009336" lat="52.4324176" lon="16.8177331">
    <tag k="addr:city" v="Poznań"/>
    <tag k="addr:housenumber" v="5"/>
    <tag k="addr:street" v="Kościerzyńska"/>
    <tag k="source" v="http://ump.waw.pl/ retrieved 15:05:23 06/30/09 (UMP-Poznan/src/POZNAN.ulice.txt)"/>
  </node>
  <node id="453978862" version="1" timestamp="2009-08-02T02:47:28Z" uid="20587" user="balrog-kun" changeset="2009336" lat="52.4404873" lon="16.8124893">
    <tag k="addr:city" v="Poznań"/>
    <tag k="addr:housenumber" v="153"/>
    <tag k="addr:street" v="Polanowska"/>
    <tag k="source" v="http://ump.waw.pl/ retrieved 15:05:23 06/30/09 (UMP-Poznan/src/POZNAN.ulice.txt)"/>
  </node>
  <node id="453978866" version="1" timestamp="2009-08-02T02:47:28Z" uid="20587" user="balrog-kun" changeset="2009336" lat="52.4363431" lon="16.8160116">
    <tag k="addr:city" v="Poznań"/>
    <tag k="addr:housenumber" v="46"/>
    <tag k="addr:street" v="Kościerzyńska"/>
    <tag k="source" v="http://ump.waw.pl/ retrieved 15:05:23 06/30/09 (UMP-Poznan/src/POZNAN.ulice.txt)"/>
  </node>
  <node id="453978870" version="1" timestamp="2009-08-02T02:47:28Z" uid="20587" user="balrog-kun" changeset="2009336" lat="52.4338724" lon="16.8422463">
    <tag k="addr:city" v="Poznań"/>
    <tag k="addr:housenumber" v="1"/>
    <tag k="addr:street" v="Budzyńska"/>
    <tag k="source" v="http://ump.waw.pl/ retrieved 15:05:23 06/30/09 (UMP-Poznan/src/POZNAN.ulice.txt)"/>
  </node>
  <node id="453978874" version="1" timestamp="2009-08-02T02:47:28Z" uid="20587" user="balrog-kun" changeset="2009336" lat="52.4399665" lon="16.8116258">
    <tag k="addr:city" v="Poznań"/>
    <tag k="addr:housenumber" v="44"/>
    <tag k="addr:street" v="Oliwska"/>
    <tag k="source" v="http://ump.waw.pl/ retrieved 15:05:23 06/30/09 (UMP-Poznan/src/POZNAN.ulice.txt)"/>
  </node>
  <node id="453978878" version="1" timestamp="2009-08-02T02:47:28Z" uid="20587" user="balrog-kun" changeset="2009336" lat="52.4409109" lon="16.8348749">
    <tag k="addr:city" v="Poznań"/>
    <tag k="addr:housenumber" v="20"/>
    <tag k="addr:street" v="Bartoszycka"/>
    <tag k="source" v="http://ump.waw.pl/ retrieved 15:05:23 06/30/09 (UMP-Poznan/src/POZNAN.ulice.txt)"/>
  </node>
  <node id="453978882" version="1" timestamp="2009-08-02T02:47:28Z" uid="20587" user="balrog-kun" changeset="2009336" lat="52.4408685" lon="16.8284282">
    <tag k="addr:city" v="Poznań"/>
    <tag k="addr:housenumber" v="31"/>
    <tag k="addr:street" v="Polanowska"/>
    <tag k="source" v="http://ump.waw.pl/ retrieved 15:05:23 06/30/09 (UMP-Poznan/src/POZNAN.ulice.txt)"/>
  </node>
  <node id="453978886" version="1" timestamp="2009-08-02T02:47:28Z" uid="20587" user="balrog-kun" changeset="2009336" lat="52.4329926" lon="16.840812">
    <tag k="addr:city" v="Poznań"/>
    <tag k="addr:housenumber" v="11"/>
    <tag k="addr:street" v="Chodzieska"/>
    <tag k="source" v="http://ump.waw.pl/ retrieved 15:05:23 06/30/09 (UMP-Poznan/src/POZNAN.ulice.txt)"/>
  </node>
  <node id="453978890" version="1" timestamp="2009-08-02T02:47:28Z" uid="20587" user="balrog-kun" changeset="2009336" lat="52.4324358" lon="16.8403123">
    <tag k="addr:city" v="Poznań"/>
    <tag k="addr:housenumber" v="7"/>
    <tag k="addr:street" v="Chodzieska"/>
    <tag k="source" v="http://ump.waw.pl/ retrieved 15:05:23 06/30/09 (UMP-Poznan/src/POZNAN.ulice.txt)"/>
  </node>
  <node id="453978894" version="1" timestamp="2009-08-02T02:47:28Z" uid="20587" user="balrog-kun" changeset="2009336" lat="52.4381246" lon="16.8307299">
    <tag k="addr:city" v="Poznań"/>
    <tag k="addr:housenumber" v="42"/>
    <tag k="addr:street" v="Santocka"/>
    <tag k="source" v="http://ump.waw.pl/ retrieved 15:05:23 06/30/09 (UMP-Poznan/src/POZNAN.ulice.txt)"/>
  </node>
  <node id="453978898" version="1" timestamp="2009-08-02T02:47:28Z" uid="20587" user="balrog-kun" changeset="2009336" lat="52.4322783" lon="16.8316267">
    <tag k="addr:city" v="Poznań"/>
    <tag k="addr:housenumber" v="417"/>
    <tag k="addr:street" v="Dąbrowskiego"/>
    <tag k="source" v="http://ump.waw.pl/ retrieved 15:05:23 06/30/09 (UMP-Poznan/src/POZNAN.ulice.txt)"/>
  </node>
  <node id="453978903" version="1" timestamp="2009-08-02T02:47:28Z" uid="20587" user="balrog-kun" changeset="2009336" lat="52.43351" lon="16.8310322">
    <tag k="addr:city" v="Poznań"/>
    <tag k="addr:housenumber" v="14"/>
    <tag k="addr:street" v="Santocka"/>
    <tag k="source" v="http://ump.waw.pl/ retrieved 15:05:23 06/30/09 (UMP-Poznan/src/POZNAN.ulice.txt)"/>
  </node>
  <node id="453978906" version="1" timestamp="2009-08-02T02:47:28Z" uid="20587" user="balrog-kun" changeset="2009336" lat="52.4374868" lon="16.8172766">
    <tag k="addr:city" v="Poznań"/>
    <tag k="addr:housenumber" v="16"/>
    <tag k="addr:street" v="Mrzeżyńska"/>
    <tag k="source" v="http://ump.waw.pl/ retrieved 15:05:23 06/30/09 (UMP-Poznan/src/POZNAN.ulice.txt)"/>
  </node>
  <node id="453978911" version="1" timestamp="2009-08-02T02:47:28Z" uid="20587" user="balrog-kun" changeset="2009336" lat="52.4384231" lon="16.8286533">
    <tag k="addr:city" v="Poznań"/>
    <tag k="addr:housenumber" v="49"/>
    <tag k="addr:street" v="Lubowska"/>
    <tag k="source" v="http://ump.waw.pl/ retrieved 15:05:23 06/30/09 (UMP-Poznan/src/POZNAN.ulice.txt)"/>
  </node>
  <node id="453978914" version="1" timestamp="2009-08-02T02:47:28Z" uid="20587" user="balrog-kun" changeset="2009336" lat="52.4340519" lon="16.8427188">
    <tag k="addr:city" v="Poznań"/>
    <tag k="addr:housenumber" v="6"/>
    <tag k="addr:street" v="Budzyńska"/>
    <tag k="source" v="http://ump.waw.pl/ retrieved 15:05:23 06/30/09 (UMP-Poznan/src/POZNAN.ulice.txt)"/>
  </node>
  <node id="453978917" version="1" timestamp="2009-08-02T02:47:28Z" uid="20587" user="balrog-kun" changeset="2009336" lat="52.439032" lon="16.8156605">
    <tag k="addr:city" v="Poznań"/>
    <tag k="addr:housenumber" v="3"/>
    <tag k="addr:street" v="Świecka"/>
    <tag k="source" v="http://ump.waw.pl/ retrieved 15:05:23 06/30/09 (UMP-Poznan/src/POZNAN.ulice.txt)"/>
  </node>
  <node id="453978919" version="1" timestamp="2009-08-02T02:47:28Z" uid="20587" user="balrog-kun" changeset="2009336" lat="52.4372426" lon="16.8172343">
    <tag k="addr:city" v="Poznań"/>
    <tag k="addr:housenumber" v="27"/>
    <tag k="addr:street" v="Mrzeżyńska"/>
    <tag k="source" v="http://ump.waw.pl/ retrieved 15:05:23 06/30/09 (UMP-Poznan/src/POZNAN.ulice.txt)"/>
  </node>
  <node id="453978922" version="1" timestamp="2009-08-02T02:47:28Z" uid="20587" user="balrog-kun" changeset="2009336" lat="52.4372237" lon="16.8303953">
    <tag k="addr:city" v="Poznań"/>
    <tag k="addr:housenumber" v="25"/>
    <tag k="addr:street" v="Santocka"/>
    <tag k="source" v="http://ump.waw.pl/ retrieved 15:05:23 06/30/09 (UMP-Poznan/src/POZNAN.ulice.txt)"/>
  </node>
  <node id="453978924" version="1" timestamp="2009-08-02T02:47:28Z" uid="20587" user="balrog-kun" changeset="2009336" lat="52.4339985" lon="16.831004">
    <tag k="addr:city" v="Poznań"/>
    <tag k="addr:housenumber" v="16"/>
    <tag k="addr:street" v="Santocka"/>
    <tag k="source" v="http://ump.waw.pl/ retrieved 15:05:23 06/30/09 (UMP-Poznan/src/POZNAN.ulice.txt)"/>
  </node>
  <node id="453978928" version="1" timestamp="2009-08-02T02:47:29Z" uid="20587" user="balrog-kun" changeset="2009336" lat="52.4361101" lon="16.8191168">
    <tag k="addr:city" v="Poznań"/>
    <tag k="addr:housenumber" v="48"/>
    <tag k="addr:street" v="Łagowska"/>
    <tag k="source" v="http://ump.waw.pl/ retrieved 15:05:23 06/30/09 (UMP-Poznan/src/POZNAN.ulice.txt)"/>
  </node>
  <node id="453978930" version="1" timestamp="2009-08-02T02:47:29Z" uid="20587" user="balrog-kun" changeset="2009336" lat="52.4389599" lon="16.8204591">
    <tag k="addr:city" v="Poznań"/>
    <tag k="addr:housenumber" v="85"/>
    <tag k="addr:street" v="Gniewska"/>
    <tag k="source" v="http://ump.waw.pl/ retrieved 15:05:23 06/30/09 (UMP-Poznan/src/POZNAN.ulice.txt)"/>
  </node>
  <node id="453978933" version="1" timestamp="2009-08-02T02:47:29Z" uid="20587" user="balrog-kun" changeset="2009336" lat="52.4336788" lon="16.8420569">
    <tag k="addr:city" v="Poznań"/>
    <tag k="addr:housenumber" v="18"/>
    <tag k="addr:street" v="Chodzieska"/>
    <tag k="source" v="http://ump.waw.pl/ retrieved 15:05:23 06/30/09 (UMP-Poznan/src/POZNAN.ulice.txt)"/>
  </node>
  <node id="453978935" version="1" timestamp="2009-08-02T02:47:29Z" uid="20587" user="balrog-kun" changeset="2009336" lat="52.4383235" lon="16.8260417">
    <tag k="addr:city" v="Poznań"/>
    <tag k="addr:housenumber" v="67"/>
    <tag k="addr:street" v="Lubowska"/>
    <tag k="source" v="http://ump.waw.pl/ retrieved 15:05:23 06/30/09 (UMP-Poznan/src/POZNAN.ulice.txt)"/>
  </node>
  <node id="453978938" version="1" timestamp="2009-08-02T02:47:29Z" uid="20587" user="balrog-kun" changeset="2009336" lat="52.4369329" lon="16.8302229">
    <tag k="addr:city" v="Poznań"/>
    <tag k="addr:housenumber" v="50"/>
    <tag k="addr:street" v="Trzebiatowska"/>
    <tag k="source" v="http://ump.waw.pl/ retrieved 15:05:23 06/30/09 (UMP-Poznan/src/POZNAN.ulice.txt)"/>
  </node>
  <node id="453978940" version="1" timestamp="2009-08-02T02:47:29Z" uid="20587" user="balrog-kun" changeset="2009336" lat="52.4329086" lon="16.8096454">
    <tag k="addr:city" v="Poznań"/>
    <tag k="addr:housenumber" v="36"/>
    <tag k="addr:street" v="Charzykowska"/>
    <tag k="source" v="http://ump.waw.pl/ retrieved 15:05:23 06/30/09 (UMP-Poznan/src/POZNAN.ulice.txt)"/>
  </node>
  <node id="453978943" version="1" timestamp="2009-08-02T02:47:29Z" uid="20587" user="balrog-kun" changeset="2009336" lat="52.439187" lon="16.8402107">
    <tag k="addr:city" v="Poznań"/>
    <tag k="addr:housenumber" v="26"/>
    <tag k="addr:street" v="Człuchowska"/>
    <tag k="source" v="http://ump.waw.pl/ retrieved 15:05:23 06/30/09 (UMP-Poznan/src/POZNAN.ulice.txt)"/>
  </node>
  <node id="453978945" version="1" timestamp="2009-08-02T02:47:29Z" uid="20587" user="balrog-kun" changeset="2009336" lat="52.4328544" lon="16.8158094">
    <tag k="addr:city" v="Poznań"/>
    <tag k="addr:housenumber" v="10"/>
    <tag k="addr:street" v="Gorzyńska"/>
    <tag k="source" v="http://ump.waw.pl/ retrieved 15:05:23 06/30/09 (UMP-Poznan/src/POZNAN.ulice.txt)"/>
  </node>
  <node id="453978948" version="1" timestamp="2009-08-02T02:47:29Z" uid="20587" user="balrog-kun" changeset="2009336" lat="52.4352734" lon="16.8350439">
    <tag k="addr:city" v="Poznań"/>
    <tag k="addr:housenumber" v="23"/>
    <tag k="addr:street" v="Sianowska"/>
    <tag k="source" v="http://ump.waw.pl/ retrieved 15:05:23 06/30/09 (UMP-Poznan/src/POZNAN.ulice.txt)"/>
  </node>
  <node id="453978952" version="1" timestamp="2009-08-02T02:47:29Z" uid="20587" user="balrog-kun" changeset="2009336" lat="52.4390583" lon="16.8089929">
    <tag k="addr:city" v="Poznań"/>
    <tag k="addr:housenumber" v="110"/>
    <tag k="addr:street" v="Łebska"/>
    <tag k="source" v="http://ump.waw.pl/ retrieved 15:05:23 06/30/09 (UMP-Poznan/src/POZNAN.ulice.txt)"/>
  </node>
  <node id="453978954" version="1" timestamp="2009-08-02T02:47:29Z" uid="20587" user="balrog-kun" changeset="2009336" lat="52.4409773" lon="16.8328294">
    <tag k="addr:city" v="Poznań"/>
    <tag k="addr:housenumber" v="13"/>
    <tag k="addr:street" v="Polanowska"/>
    <tag k="source" v="http://ump.waw.pl/ retrieved 15:05:23 06/30/09 (UMP-Poznan/src/POZNAN.ulice.txt)"/>
  </node>
  <node id="453978957" version="1" timestamp="2009-08-02T02:47:29Z" uid="20587" user="balrog-kun" changeset="2009336" lat="52.4406818" lon="16.8214005">
    <tag k="addr:city" v="Poznań"/>
    <tag k="addr:housenumber" v="107"/>
    <tag k="addr:street" v="Polanowska"/>
    <tag k="source" v="http://ump.waw.pl/ retrieved 15:05:23 06/30/09 (UMP-Poznan/src/POZNAN.ulice.txt)"/>
  </node>
  <node id="453978959" version="1" timestamp="2009-08-02T02:47:29Z" uid="20587" user="balrog-kun" changeset="2009336" lat="52.4366108" lon="16.8362201">
    <tag k="addr:city" v="Poznań"/>
    <tag k="addr:housenumber" v="7"/>
    <tag k="addr:street" v="Maszewska"/>
    <tag k="source" v="http://ump.waw.pl/ retrieved 15:05:23 06/30/09 (UMP-Poznan/src/POZNAN.ulice.txt)"/>
  </node>
  <node id="453978962" version="1" timestamp="2009-08-02T02:47:29Z" uid="20587" user="balrog-kun" changeset="2009336" lat="52.4392891" lon="16.8345751">
    <tag k="addr:city" v="Poznań"/>
    <tag k="addr:housenumber" v="1"/>
    <tag k="addr:street" v="Bartoszycka"/>
    <tag k="source" v="http://ump.waw.pl/ retrieved 15:05:23 06/30/09 (UMP-Poznan/src/POZNAN.ulice.txt)"/>
  </node>
  <node id="453978964" version="1" timestamp="2009-08-02T02:47:29Z" uid="20587" user="balrog-kun" changeset="2009336" lat="52.4397798" lon="16.8172016">
    <tag k="addr:city" v="Poznań"/>
    <tag k="addr:housenumber" v="11"/>
    <tag k="addr:street" v="Ornecka"/>
    <tag k="source" v="http://ump.waw.pl/ retrieved 15:05:23 06/30/09 (UMP-Poznan/src/POZNAN.ulice.txt)"/>
  </node>
  <node id="453978967" version="1" timestamp="2009-08-02T02:47:29Z" uid="20587" user="balrog-kun" changeset="2009336" lat="52.4353586" lon="16.8173063">
    <tag k="addr:city" v="Poznań"/>
    <tag k="addr:housenumber" v="128"/>
    <tag k="addr:street" v="Sianowska"/>
    <tag k="source" v="http://ump.waw.pl/ retrieved 15:05:23 06/30/09 (UMP-Poznan/src/POZNAN.ulice.txt)"/>
  </node>
  <node id="453978970" version="1" timestamp="2009-08-02T02:47:29Z" uid="20587" user="balrog-kun" changeset="2009336" lat="52.4383569" lon="16.8152589">
    <tag k="addr:city" v="Poznań"/>
    <tag k="addr:housenumber" v="4"/>
    <tag k="addr:street" v="Oliwska"/>
    <tag k="source" v="http://ump.waw.pl/ retrieved 15:05:23 06/30/09 (UMP-Poznan/src/POZNAN.ulice.txt)"/>
  </node>
  <node id="453978973" version="1" timestamp="2009-08-02T02:47:30Z" uid="20587" user="balrog-kun" changeset="2009336" lat="52.4384847" lon="16.8235588">
    <tag k="addr:city" v="Poznań"/>
    <tag k="addr:housenumber" v="90"/>
    <tag k="addr:street" v="Lubowska"/>
    <tag k="source" v="http://ump.waw.pl/ retrieved 15:05:23 06/30/09 (UMP-Poznan/src/POZNAN.ulice.txt)"/>
  </node>
  <node id="453978976" version="1" timestamp="2009-08-02T02:47:30Z" uid="20587" user="balrog-kun" changeset="2009336" lat="52.4327732" lon="16.8175465">
    <tag k="addr:city" v="Poznań"/>
    <tag k="addr:housenumber" v="7"/>
    <tag k="addr:street" v="Kościerzyńska"/>
    <tag k="source" v="http://ump.waw.pl/ retrieved 15:05:23 06/30/09 (UMP-Poznan/src/POZNAN.ulice.txt)"/>
  </node>
  <node id="453978979" version="1" timestamp="2009-08-02T02:47:30Z" uid="20587" user="balrog-kun" changeset="2009336" lat="52.4322019" lon="16.8350157">
    <tag k="addr:city" v="Poznań"/>
    <tag k="addr:housenumber" v="383"/>
    <tag k="addr:street" v="Dąbrowskiego"/>
    <tag k="source" v="http://ump.waw.pl/ retrieved 15:05:23 06/30/09 (UMP-Poznan/src/POZNAN.ulice.txt)"/>
  </node>
  <node id="453978982" version="1" timestamp="2009-08-02T02:47:30Z" uid="20587" user="balrog-kun" changeset="2009336" lat="52.4381228" lon="16.8390984">
    <tag k="addr:city" v="Poznań"/>
    <tag k="addr:housenumber" v="25"/>
    <tag k="addr:street" v="Trzcianecka"/>
    <tag k="source" v="http://ump.waw.pl/ retrieved 15:05:23 06/30/09 (UMP-Poznan/src/POZNAN.ulice.txt)"/>
  </node>
  <node id="453978985" version="1" timestamp="2009-08-02T02:47:30Z" uid="20587" user="balrog-kun" changeset="2009336" lat="52.4382953" lon="16.8252412">
    <tag k="addr:city" v="Poznań"/>
    <tag k="addr:housenumber" v="69"/>
    <tag k="addr:street" v="Lubowska"/>
    <tag k="source" v="http://ump.waw.pl/ retrieved 15:05:23 06/30/09 (UMP-Poznan/src/POZNAN.ulice.txt)"/>
  </node>
  <node id="453978988" version="1" timestamp="2009-08-02T02:47:30Z" uid="20587" user="balrog-kun" changeset="2009336" lat="52.4363149" lon="16.8171245">
    <tag k="addr:city" v="Poznań"/>
    <tag k="addr:housenumber" v="43"/>
    <tag k="addr:street" v="Łagowska"/>
    <tag k="source" v="http://ump.waw.pl/ retrieved 15:05:23 06/30/09 (UMP-Poznan/src/POZNAN.ulice.txt)"/>
  </node>
  <node id="453978992" version="1" timestamp="2009-08-02T02:47:30Z" uid="20587" user="balrog-kun" changeset="2009336" lat="52.4388423" lon="16.8143508">
    <tag k="addr:city" v="Poznań"/>
    <tag k="addr:housenumber" v="14"/>
    <tag k="addr:street" v="Oliwska"/>
    <tag k="source" v="http://ump.waw.pl/ retrieved 15:05:23 06/30/09 (UMP-Poznan/src/POZNAN.ulice.txt)"/>
  </node>
  <node id="453978997" version="1" timestamp="2009-08-02T02:47:30Z" uid="20587" user="balrog-kun" changeset="2009336" lat="52.4336125" lon="16.8389069">
    <tag k="addr:city" v="Poznań"/>
    <tag k="addr:housenumber" v="20"/>
    <tag k="addr:street" v="Podgajska"/>
    <tag k="source" v="http://ump.waw.pl/ retrieved 15:05:23 06/30/09 (UMP-Poznan/src/POZNAN.ulice.txt)"/>
  </node>
  <node id="453979002" version="1" timestamp="2009-08-02T02:47:30Z" uid="20587" user="balrog-kun" changeset="2009336" lat="52.4390309" lon="16.8150923">
    <tag k="addr:city" v="Poznań"/>
    <tag k="addr:housenumber" v="7"/>
    <tag k="addr:street" v="Świecka"/>
    <tag k="source" v="http://ump.waw.pl/ retrieved 15:05:23 06/30/09 (UMP-Poznan/src/POZNAN.ulice.txt)"/>
  </node>
  <node id="453979006" version="1" timestamp="2009-08-02T02:47:30Z" uid="20587" user="balrog-kun" changeset="2009336" lat="52.4400403" lon="16.8127946">
    <tag k="addr:city" v="Poznań"/>
    <tag k="addr:housenumber" v="39"/>
    <tag k="addr:street" v="Świecka"/>
    <tag k="source" v="http://ump.waw.pl/ retrieved 15:05:23 06/30/09 (UMP-Poznan/src/POZNAN.ulice.txt)"/>
  </node>
  <node id="453979009" version="1" timestamp="2009-08-02T02:47:30Z" uid="20587" user="balrog-kun" changeset="2009336" lat="52.4351468" lon="16.8093759">
    <tag k="addr:city" v="Poznań"/>
    <tag k="addr:housenumber" v="160"/>
    <tag k="addr:street" v="Sianowska"/>
    <tag k="source" v="http://ump.waw.pl/ retrieved 15:05:23 06/30/09 (UMP-Poznan/src/POZNAN.ulice.txt)"/>
  </node>
  <node id="453979013" version="1" timestamp="2009-08-02T02:47:30Z" uid="20587" user="balrog-kun" changeset="2009336" lat="52.4336587" lon="16.8439757">
    <tag k="addr:city" v="Poznań"/>
    <tag k="addr:housenumber" v="18"/>
    <tag k="addr:street" v="Budzyńska"/>
    <tag k="source" v="http://ump.waw.pl/ retrieved 15:05:23 06/30/09 (UMP-Poznan/src/POZNAN.ulice.txt)"/>
  </node>
  <node id="453979017" version="1" timestamp="2009-08-02T02:47:30Z" uid="20587" user="balrog-kun" changeset="2009336" lat="52.4376813" lon="16.8361718">
    <tag k="addr:city" v="Poznań"/>
    <tag k="addr:housenumber" v="17"/>
    <tag k="addr:street" v="Myśliborska"/>
    <tag k="source" v="http://ump.waw.pl/ retrieved 15:05:23 06/30/09 (UMP-Poznan/src/POZNAN.ulice.txt)"/>
  </node>
  <node id="453979022" version="1" timestamp="2009-08-02T02:47:30Z" uid="20587" user="balrog-kun" changeset="2009336" lat="52.4387581" lon="16.8315494">
    <tag k="addr:city" v="Poznań"/>
    <tag k="addr:housenumber" v="42"/>
    <tag k="addr:street" v="Lubowska"/>
    <tag k="source" v="http://ump.waw.pl/ retrieved 15:05:23 06/30/09 (UMP-Poznan/src/POZNAN.ulice.txt)"/>
  </node>
  <node id="453979025" version="1" timestamp="2009-08-02T02:47:30Z" uid="20587" user="balrog-kun" changeset="2009336" lat="52.4391475" lon="16.8184362">
    <tag k="addr:city" v="Poznań"/>
    <tag k="addr:housenumber" v="66"/>
    <tag k="addr:street" v="Gniewska"/>
    <tag k="source" v="http://ump.waw.pl/ retrieved 15:05:23 06/30/09 (UMP-Poznan/src/POZNAN.ulice.txt)"/>
  </node>
  <node id="453979029" version="1" timestamp="2009-08-02T02:47:30Z" uid="20587" user="balrog-kun" changeset="2009336" lat="52.4396433" lon="16.8116602">
    <tag k="addr:city" v="Poznań"/>
    <tag k="addr:housenumber" v="33"/>
    <tag k="addr:street" v="Oliwska"/>
    <tag k="source" v="http://ump.waw.pl/ retrieved 15:05:23 06/30/09 (UMP-Poznan/src/POZNAN.ulice.txt)"/>
  </node>
  <node id="453979032" version="1" timestamp="2009-08-02T02:47:30Z" uid="20587" user="balrog-kun" changeset="2009336" lat="52.4404591" lon="16.8114485">
    <tag k="addr:city" v="Poznań"/>
    <tag k="addr:housenumber" v="165"/>
    <tag k="addr:street" v="Polanowska"/>
    <tag k="source" v="http://ump.waw.pl/ retrieved 15:05:23 06/30/09 (UMP-Poznan/src/POZNAN.ulice.txt)"/>
  </node>
  <node id="453979036" version="1" timestamp="2009-08-02T02:47:31Z" uid="20587" user="balrog-kun" changeset="2009336" lat="52.4323653" lon="16.8140649">
    <tag k="addr:city" v="Poznań"/>
    <tag k="addr:housenumber" v="1"/>
    <tag k="addr:street" v="Człopska"/>
    <tag k="source" v="http://ump.waw.pl/ retrieved 15:05:23 06/30/09 (UMP-Poznan/src/POZNAN.ulice.txt)"/>
  </node>
  <node id="453979040" version="1" timestamp="2009-08-02T02:47:31Z" uid="20587" user="balrog-kun" changeset="2009336" lat="52.438836" lon="16.8338076">
    <tag k="addr:city" v="Poznań"/>
    <tag k="addr:housenumber" v="32"/>
    <tag k="addr:street" v="Lubowska"/>
    <tag k="source" v="http://ump.waw.pl/ retrieved 15:05:23 06/30/09 (UMP-Poznan/src/POZNAN.ulice.txt)"/>
  </node>
  <node id="453979044" version="1" timestamp="2009-08-02T02:47:31Z" uid="20587" user="balrog-kun" changeset="2009336" lat="52.4377453" lon="16.839979">
    <tag k="addr:city" v="Poznań"/>
    <tag k="addr:housenumber" v="18"/>
    <tag k="addr:street" v="Trzcianecka"/>
    <tag k="source" v="http://ump.waw.pl/ retrieved 15:05:23 06/30/09 (UMP-Poznan/src/POZNAN.ulice.txt)"/>
  </node>
  <node id="453979044" version="2" timestamp="2009-08-02T17:16:11Z" uid="20587" user="balrog-kun" changeset="2017141" lat="52.4377701" lon="16.8401043">
    <tag k="addr:city" v="Poznań"/>
    <tag k="addr:housenumber" v="18"/>
    <tag k="addr:street" v="Trzcianecka"/>
    <tag k="source" v="http://ump.waw.pl/ retrieved 15:05:23 06/30/09 (UMP-Poznan/src/POZNAN.ulice.txt)"/>
  </node>
  <node id="453979047" version="1" timestamp="2009-08-02T02:47:31Z" uid="20587" user="balrog-kun" changeset="2009336" lat="52.4354329" lon="16.8219135">
    <tag k="addr:city" v="Poznań"/>
    <tag k="addr:housenumber" v="98"/>
    <tag k="addr:street" v="Sianowska"/>
    <tag k="source" v="http://ump.waw.pl/ retrieved 15:05:23 06/30/09 (UMP-Poznan/src/POZNAN.ulice.txt)"/>
  </node>
  <node id="453979051" version="1" timestamp="2009-08-02T02:47:31Z" uid="20587" user="balrog-kun" changeset="2009336" lat="52.4388104" lon="16.8292168">
    <tag k="addr:city" v="Poznań"/>
    <tag k="addr:housenumber" v="2"/>
    <tag k="addr:street" v="Fromborska"/>
    <tag k="source" v="http://ump.waw.pl/ retrieved 15:05:23 06/30/09 (UMP-Poznan/src/POZNAN.ulice.txt)"/>
  </node>
  <node id="453979051" version="2" timestamp="2009-08-02T17:16:10Z" uid="20587" user="balrog-kun" changeset="2017141" lat="52.4388314" lon="16.8292768">
    <tag k="addr:city" v="Poznań"/>
    <tag k="addr:housenumber" v="2"/>
    <tag k="addr:street" v="Fromborska"/>
    <tag k="source" v="http://ump.waw.pl/ retrieved 15:05:23 06/30/09 (UMP-Poznan/src/POZNAN.ulice.txt)"/>
  </node>
  <node id="453979055" version="1" timestamp="2009-08-02T02:47:31Z" uid="20587" user="balrog-kun" changeset="2009336" lat="52.4356459" lon="16.8424752">
    <tag k="addr:city" v="Poznań"/>
    <tag k="addr:housenumber" v="2"/>
    <tag k="addr:street" v="Sianowska"/>
    <tag k="source" v="http://ump.waw.pl/ retrieved 15:05:23 06/30/09 (UMP-Poznan/src/POZNAN.ulice.txt)"/>
  </node>
  <node id="453979055" version="2" timestamp="2009-08-02T17:16:11Z" uid="20587" user="balrog-kun" changeset="2017141" lat="52.4356982" lon="16.8429644">
    <tag k="addr:city" v="Poznań"/>
    <tag k="addr:housenumber" v="2"/>
    <tag k="addr:street" v="Sianowska"/>
    <tag k="source" v="http://ump.waw.pl/ retrieved 15:05:23 06/30/09 (UMP-Poznan/src/POZNAN.ulice.txt)"/>
  </node>
  <node id="453979059" version="1" timestamp="2009-08-02T02:47:31Z" uid="20587" user="balrog-kun" changeset="2009336" lat="52.440748" lon="16.8234577">
    <tag k="addr:city" v="Poznań"/>
    <tag k="addr:housenumber" v="87"/>
    <tag k="addr:street" v="Polanowska"/>
    <tag k="source" v="http://ump.waw.pl/ retrieved 15:05:23 06/30/09 (UMP-Poznan/src/POZNAN.ulice.txt)"/>
  </node>
  <node id="453979063" version="1" timestamp="2009-08-02T02:47:31Z" uid="20587" user="balrog-kun" changeset="2009336" lat="52.4343947" lon="16.8145051">
    <tag k="addr:city" v="Poznań"/>
    <tag k="addr:housenumber" v="14"/>
    <tag k="addr:street" v="Człopska"/>
    <tag k="source" v="http://ump.waw.pl/ retrieved 15:05:23 06/30/09 (UMP-Poznan/src/POZNAN.ulice.txt)"/>
  </node>
  <node id="453979066" version="1" timestamp="2009-08-02T02:47:31Z" uid="20587" user="balrog-kun" changeset="2009336" lat="52.4312788" lon="16.8442841">
    <tag k="addr:city" v="Poznań"/>
    <tag k="addr:housenumber" v="5"/>
    <tag k="addr:street" v="Czarnkowska"/>
    <tag k="source" v="http://ump.waw.pl/ retrieved 15:05:23 06/30/09 (UMP-Poznan/src/POZNAN.ulice.txt)"/>
  </node>
  <node id="453979071" version="1" timestamp="2009-08-02T02:47:31Z" uid="20587" user="balrog-kun" changeset="2009336" lat="52.4357383" lon="16.8413601">
    <tag k="addr:city" v="Poznań"/>
    <tag k="addr:housenumber" v="3"/>
    <tag k="addr:street" v="Trzcianecka"/>
    <tag k="source" v="http://ump.waw.pl/ retrieved 15:05:23 06/30/09 (UMP-Poznan/src/POZNAN.ulice.txt)"/>
  </node>
  <node id="453979074" version="1" timestamp="2009-08-02T02:47:31Z" uid="20587" user="balrog-kun" changeset="2009336" lat="52.435579" lon="16.8305047">
    <tag k="addr:city" v="Poznań"/>
    <tag k="addr:housenumber" v="15"/>
    <tag k="addr:street" v="Santocka"/>
    <tag k="source" v="http://ump.waw.pl/ retrieved 15:05:23 06/30/09 (UMP-Poznan/src/POZNAN.ulice.txt)"/>
  </node>
  <node id="453979078" version="1" timestamp="2009-08-02T02:47:31Z" uid="20587" user="balrog-kun" changeset="2009336" lat="52.4322419" lon="16.81374">
    <tag k="addr:city" v="Poznań"/>
    <tag k="addr:housenumber" v="493"/>
    <tag k="addr:street" v="Dąbrowskiego"/>
    <tag k="source" v="http://ump.waw.pl/ retrieved 15:05:23 06/30/09 (UMP-Poznan/src/POZNAN.ulice.txt)"/>
  </node>
  <node id="453979082" version="1" timestamp="2009-08-02T02:47:31Z" uid="20587" user="balrog-kun" changeset="2009336" lat="52.4372075" lon="16.8150206">
    <tag k="addr:city" v="Poznań"/>
    <tag k="addr:housenumber" v="75"/>
    <tag k="addr:street" v="Kościerzyńska"/>
    <tag k="source" v="http://ump.waw.pl/ retrieved 15:05:23 06/30/09 (UMP-Poznan/src/POZNAN.ulice.txt)"/>
  </node>
  <node id="453979086" version="1" timestamp="2009-08-02T02:47:31Z" uid="20587" user="balrog-kun" changeset="2009336" lat="52.4396726" lon="16.820852">
    <tag k="addr:city" v="Poznań"/>
    <tag k="addr:housenumber" v="10"/>
    <tag k="addr:street" v="Braniewska"/>
    <tag k="source" v="http://ump.waw.pl/ retrieved 15:05:23 06/30/09 (UMP-Poznan/src/POZNAN.ulice.txt)"/>
  </node>
  <node id="453979086" version="2" timestamp="2009-08-02T17:16:10Z" uid="20587" user="balrog-kun" changeset="2017141" lat="52.4397879" lon="16.8208089">
    <tag k="addr:city" v="Poznań"/>
    <tag k="addr:housenumber" v="10"/>
    <tag k="addr:street" v="Braniewska"/>
    <tag k="source" v="http://ump.waw.pl/ retrieved 15:05:23 06/30/09 (UMP-Poznan/src/POZNAN.ulice.txt)"/>
  </node>
  <node id="453979089" version="1" timestamp="2009-08-02T02:47:31Z" uid="20587" user="balrog-kun" changeset="2009336" lat="52.4333425" lon="16.8397835">
    <tag k="addr:city" v="Poznań"/>
    <tag k="addr:housenumber" v="13"/>
    <tag k="addr:street" v="Kołobrzeska"/>
    <tag k="source" v="http://ump.waw.pl/ retrieved 15:05:23 06/30/09 (UMP-Poznan/src/POZNAN.ulice.txt)"/>
  </node>
  <node id="453979094" version="1" timestamp="2009-08-02T02:47:31Z" uid="20587" user="balrog-kun" changeset="2009336" lat="52.4373988" lon="16.8260783">
    <tag k="addr:city" v="Poznań"/>
    <tag k="addr:housenumber" v="75"/>
    <tag k="addr:street" v="Myśliborska"/>
    <tag k="source" v="http://ump.waw.pl/ retrieved 15:05:23 06/30/09 (UMP-Poznan/src/POZNAN.ulice.txt)"/>
  </node>
  <node id="453979097" version="1" timestamp="2009-08-02T02:47:31Z" uid="20587" user="balrog-kun" changeset="2009336" lat="52.4354672" lon="16.8311155">
    <tag k="addr:city" v="Poznań"/>
    <tag k="addr:housenumber" v="56"/>
    <tag k="addr:street" v="Sianowska"/>
    <tag k="source" v="http://ump.waw.pl/ retrieved 15:05:23 06/30/09 (UMP-Poznan/src/POZNAN.ulice.txt)"/>
  </node>
  <node id="453979102" version="1" timestamp="2009-08-02T02:47:31Z" uid="20587" user="balrog-kun" changeset="2009336" lat="52.4397727" lon="16.8168018">
    <tag k="addr:city" v="Poznań"/>
    <tag k="addr:housenumber" v="26"/>
    <tag k="addr:street" v="Ornecka"/>
    <tag k="source" v="http://ump.waw.pl/ retrieved 15:05:23 06/30/09 (UMP-Poznan/src/POZNAN.ulice.txt)"/>
  </node>
  <node id="453979102" version="2" timestamp="2009-08-02T17:16:10Z" uid="20587" user="balrog-kun" changeset="2017141" lat="52.4400364" lon="16.8168087">
    <tag k="addr:city" v="Poznań"/>
    <tag k="addr:housenumber" v="26"/>
    <tag k="addr:street" v="Ornecka"/>
    <tag k="source" v="http://ump.waw.pl/ retrieved 15:05:23 06/30/09 (UMP-Poznan/src/POZNAN.ulice.txt)"/>
  </node>
  <node id="453979105" version="1" timestamp="2009-08-02T02:47:31Z" uid="20587" user="balrog-kun" changeset="2009336" lat="52.4408764" lon="16.8314608">
    <tag k="addr:city" v="Poznań"/>
    <tag k="addr:housenumber" v="17"/>
    <tag k="addr:street" v="Polanowska"/>
    <tag k="source" v="http://ump.waw.pl/ retrieved 15:05:23 06/30/09 (UMP-Poznan/src/POZNAN.ulice.txt)"/>
  </node>
  <node id="453979110" version="1" timestamp="2009-08-02T02:47:32Z" uid="20587" user="balrog-kun" changeset="2009336" lat="52.432259" lon="16.832875">
    <tag k="addr:city" v="Poznań"/>
    <tag k="addr:housenumber" v="399"/>
    <tag k="addr:street" v="Dąbrowskiego"/>
    <tag k="source" v="http://ump.waw.pl/ retrieved 15:05:23 06/30/09 (UMP-Poznan/src/POZNAN.ulice.txt)"/>
  </node>
  <node id="453979113" version="1" timestamp="2009-08-02T02:47:32Z" uid="20587" user="balrog-kun" changeset="2009336" lat="52.4390469" lon="16.8360687">
    <tag k="addr:city" v="Poznań"/>
    <tag k="addr:housenumber" v="21"/>
    <tag k="addr:street" v="Maszewska"/>
    <tag k="source" v="http://ump.waw.pl/ retrieved 15:05:23 06/30/09 (UMP-Poznan/src/POZNAN.ulice.txt)"/>
  </node>
  <node id="453979116" version="1" timestamp="2009-08-02T02:47:32Z" uid="20587" user="balrog-kun" changeset="2009336" lat="52.4401671" lon="16.8251287">
    <tag k="addr:city" v="Poznań"/>
    <tag k="addr:housenumber" v="24"/>
    <tag k="addr:street" v="Pucka"/>
    <tag k="source" v="http://ump.waw.pl/ retrieved 15:05:23 06/30/09 (UMP-Poznan/src/POZNAN.ulice.txt)"/>
  </node>
  <node id="453979121" version="1" timestamp="2009-08-02T02:47:32Z" uid="20587" user="balrog-kun" changeset="2009336" lat="52.4332075" lon="16.8310476">
    <tag k="addr:city" v="Poznań"/>
    <tag k="addr:housenumber" v="8"/>
    <tag k="addr:street" v="Santocka"/>
    <tag k="source" v="http://ump.waw.pl/ retrieved 15:05:23 06/30/09 (UMP-Poznan/src/POZNAN.ulice.txt)"/>
  </node>
  <node id="453979124" version="1" timestamp="2009-08-02T02:47:32Z" uid="20587" user="balrog-kun" changeset="2009336" lat="52.4366342" lon="16.8157776">
    <tag k="addr:city" v="Poznań"/>
    <tag k="addr:housenumber" v="50"/>
    <tag k="addr:street" v="Kościerzyńska"/>
    <tag k="source" v="http://ump.waw.pl/ retrieved 15:05:23 06/30/09 (UMP-Poznan/src/POZNAN.ulice.txt)"/>
  </node>
  <node id="453979127" version="1" timestamp="2009-08-02T02:47:32Z" uid="20587" user="balrog-kun" changeset="2009336" lat="52.4391136" lon="16.8174298">
    <tag k="addr:city" v="Poznań"/>
    <tag k="addr:housenumber" v="72"/>
    <tag k="addr:street" v="Gniewska"/>
    <tag k="source" v="http://ump.waw.pl/ retrieved 15:05:23 06/30/09 (UMP-Poznan/src/POZNAN.ulice.txt)"/>
  </node>
  <node id="453979130" version="1" timestamp="2009-08-02T02:47:32Z" uid="20587" user="balrog-kun" changeset="2009336" lat="52.4388701" lon="16.8174493">
    <tag k="addr:city" v="Poznań"/>
    <tag k="addr:housenumber" v="103"/>
    <tag k="addr:street" v="Gniewska"/>
    <tag k="source" v="http://ump.waw.pl/ retrieved 15:05:23 06/30/09 (UMP-Poznan/src/POZNAN.ulice.txt)"/>
  </node>
  <node id="453979133" version="1" timestamp="2009-08-02T02:47:32Z" uid="20587" user="balrog-kun" changeset="2009336" lat="52.4381615" lon="16.8395586">
    <tag k="addr:city" v="Poznań"/>
    <tag k="addr:housenumber" v="20"/>
    <tag k="addr:street" v="Trzcianecka"/>
    <tag k="source" v="http://ump.waw.pl/ retrieved 15:05:23 06/30/09 (UMP-Poznan/src/POZNAN.ulice.txt)"/>
  </node>
  <node id="453979133" version="2" timestamp="2009-08-02T17:16:10Z" uid="20587" user="balrog-kun" changeset="2017141" lat="52.4381078" lon="16.8397629">
    <tag k="addr:city" v="Poznań"/>
    <tag k="addr:housenumber" v="20"/>
    <tag k="addr:street" v="Trzcianecka"/>
    <tag k="source" v="http://ump.waw.pl/ retrieved 15:05:23 06/30/09 (UMP-Poznan/src/POZNAN.ulice.txt)"/>
  </node>
  <node id="453979135" version="1" timestamp="2009-08-02T02:47:32Z" uid="20587" user="balrog-kun" changeset="2009336" lat="52.4354135" lon="16.8434173">
    <tag k="addr:city" v="Poznań"/>
    <tag k="addr:housenumber" v="30"/>
    <tag k="addr:street" v="Chodzieska"/>
    <tag k="source" v="http://ump.waw.pl/ retrieved 15:05:23 06/30/09 (UMP-Poznan/src/POZNAN.ulice.txt)"/>
  </node>
  <node id="453979138" version="1" timestamp="2009-08-02T02:47:32Z" uid="20587" user="balrog-kun" changeset="2009336" lat="52.4326964" lon="16.8305581">
    <tag k="addr:city" v="Poznań"/>
    <tag k="addr:housenumber" v="3"/>
    <tag k="addr:street" v="Santocka"/>
    <tag k="source" v="http://ump.waw.pl/ retrieved 15:05:23 06/30/09 (UMP-Poznan/src/POZNAN.ulice.txt)"/>
  </node>
  <node id="453979140" version="1" timestamp="2009-08-02T02:47:32Z" uid="20587" user="balrog-kun" changeset="2009336" lat="52.4399798" lon="16.8394291">
    <tag k="addr:city" v="Poznań"/>
    <tag k="addr:housenumber" v="30"/>
    <tag k="addr:street" v="Człuchowska"/>
    <tag k="source" v="http://ump.waw.pl/ retrieved 15:05:23 06/30/09 (UMP-Poznan/src/POZNAN.ulice.txt)"/>
  </node>
  <node id="453979143" version="1" timestamp="2009-08-02T02:47:32Z" uid="20587" user="balrog-kun" changeset="2009336" lat="52.4414028" lon="16.8384391">
    <tag k="addr:city" v="Poznań"/>
    <tag k="addr:housenumber" v="106"/>
    <tag k="addr:street" v="Beskidzka"/>
    <tag k="source" v="http://ump.waw.pl/ retrieved 15:05:23 06/30/09 (UMP-Poznan/src/POZNAN.ulice.txt)"/>
  </node>
  <node id="453979145" version="1" timestamp="2009-08-02T02:47:32Z" uid="20587" user="balrog-kun" changeset="2009336" lat="52.4333481" lon="16.81285">
    <tag k="addr:city" v="Poznań"/>
    <tag k="addr:housenumber" v="1"/>
    <tag k="addr:street" v="Izbicka"/>
    <tag k="source" v="http://ump.waw.pl/ retrieved 15:05:23 06/30/09 (UMP-Poznan/src/POZNAN.ulice.txt)"/>
  </node>
  <node id="453979148" version="1" timestamp="2009-08-02T02:47:32Z" uid="20587" user="balrog-kun" changeset="2009336" lat="52.4326543" lon="16.8104369">
    <tag k="addr:city" v="Poznań"/>
    <tag k="addr:housenumber" v="17"/>
    <tag k="addr:street" v="Charzykowska"/>
    <tag k="source" v="http://ump.waw.pl/ retrieved 15:05:23 06/30/09 (UMP-Poznan/src/POZNAN.ulice.txt)"/>
  </node>
  <node id="453979150" version="1" timestamp="2009-08-02T02:47:32Z" uid="20587" user="balrog-kun" changeset="2009336" lat="52.4352219" lon="16.814485">
    <tag k="addr:city" v="Poznań"/>
    <tag k="addr:housenumber" v="132"/>
    <tag k="addr:street" v="Sianowska"/>
    <tag k="source" v="http://ump.waw.pl/ retrieved 15:05:23 06/30/09 (UMP-Poznan/src/POZNAN.ulice.txt)"/>
  </node>
  <node id="453979152" version="1" timestamp="2009-08-02T02:47:32Z" uid="20587" user="balrog-kun" changeset="2009336" lat="52.4384673" lon="16.8301094">
    <tag k="addr:city" v="Poznań"/>
    <tag k="addr:housenumber" v="39"/>
    <tag k="addr:street" v="Lubowska"/>
    <tag k="source" v="http://ump.waw.pl/ retrieved 15:05:23 06/30/09 (UMP-Poznan/src/POZNAN.ulice.txt)"/>
  </node>
  <node id="453979155" version="1" timestamp="2009-08-02T02:47:32Z" uid="20587" user="balrog-kun" changeset="2009336" lat="52.43759" lon="16.8236031">
    <tag k="addr:city" v="Poznań"/>
    <tag k="addr:housenumber" v="80"/>
    <tag k="addr:street" v="Myśliborska"/>
    <tag k="source" v="http://ump.waw.pl/ retrieved 15:05:23 06/30/09 (UMP-Poznan/src/POZNAN.ulice.txt)"/>
  </node>
  <node id="453979158" version="1" timestamp="2009-08-02T02:47:32Z" uid="20587" user="balrog-kun" changeset="2009336" lat="52.4372585" lon="16.8417012">
    <tag k="addr:city" v="Poznań"/>
    <tag k="addr:housenumber" v="15"/>
    <tag k="addr:street" v="Człuchowska"/>
    <tag k="source" v="http://ump.waw.pl/ retrieved 15:05:23 06/30/09 (UMP-Poznan/src/POZNAN.ulice.txt)"/>
  </node>
  <node id="453979158" version="2" timestamp="2009-08-02T17:16:09Z" uid="20587" user="balrog-kun" changeset="2017141" lat="52.4372258" lon="16.8416475">
    <tag k="addr:city" v="Poznań"/>
    <tag k="addr:housenumber" v="15"/>
    <tag k="addr:street" v="Człuchowska"/>
    <tag k="source" v="http://ump.waw.pl/ retrieved 15:05:23 06/30/09 (UMP-Poznan/src/POZNAN.ulice.txt)"/>
  </node>
  <node id="453979161" version="1" timestamp="2009-08-02T02:47:32Z" uid="20587" user="balrog-kun" changeset="2009336" lat="52.4389147" lon="16.8101365">
    <tag k="addr:city" v="Poznań"/>
    <tag k="addr:housenumber" v="100"/>
    <tag k="addr:street" v="Łebska"/>
    <tag k="source" v="http://ump.waw.pl/ retrieved 15:05:23 06/30/09 (UMP-Poznan/src/POZNAN.ulice.txt)"/>
  </node>
  <node id="453979163" version="1" timestamp="2009-08-02T02:47:33Z" uid="20587" user="balrog-kun" changeset="2009336" lat="52.4389041" lon="16.8184621">
    <tag k="addr:city" v="Poznań"/>
    <tag k="addr:housenumber" v="99"/>
    <tag k="addr:street" v="Gniewska"/>
    <tag k="source" v="http://ump.waw.pl/ retrieved 15:05:23 06/30/09 (UMP-Poznan/src/POZNAN.ulice.txt)"/>
  </node>
  <node id="453979166" version="1" timestamp="2009-08-02T02:47:33Z" uid="20587" user="balrog-kun" changeset="2009336" lat="52.4375457" lon="16.815598">
    <tag k="addr:city" v="Poznań"/>
    <tag k="addr:housenumber" v="93"/>
    <tag k="addr:street" v="Kościerzyńska"/>
    <tag k="source" v="http://ump.waw.pl/ retrieved 15:05:23 06/30/09 (UMP-Poznan/src/POZNAN.ulice.txt)"/>
  </node>
  <node id="453979168" version="1" timestamp="2009-08-02T02:47:33Z" uid="20587" user="balrog-kun" changeset="2009336" lat="52.4356935" lon="16.8436573">
    <tag k="addr:city" v="Poznań"/>
    <tag k="addr:housenumber" v="32"/>
    <tag k="addr:street" v="Chodzieska"/>
    <tag k="source" v="http://ump.waw.pl/ retrieved 15:05:23 06/30/09 (UMP-Poznan/src/POZNAN.ulice.txt)"/>
  </node>
  <node id="453979171" version="1" timestamp="2009-08-02T02:47:33Z" uid="20587" user="balrog-kun" changeset="2009336" lat="52.4333507" lon="16.8091996">
    <tag k="addr:city" v="Poznań"/>
    <tag k="addr:housenumber" v="47"/>
    <tag k="addr:street" v="Izbicka"/>
    <tag k="source" v="http://ump.waw.pl/ retrieved 15:05:23 06/30/09 (UMP-Poznan/src/POZNAN.ulice.txt)"/>
  </node>
  <node id="453979173" version="1" timestamp="2009-08-02T02:47:33Z" uid="20587" user="balrog-kun" changeset="2009336" lat="52.4398347" lon="16.8119079">
    <tag k="addr:city" v="Poznań"/>
    <tag k="addr:housenumber" v="42"/>
    <tag k="addr:street" v="Oliwska"/>
    <tag k="source" v="http://ump.waw.pl/ retrieved 15:05:23 06/30/09 (UMP-Poznan/src/POZNAN.ulice.txt)"/>
  </node>
  <node id="453979176" version="1" timestamp="2009-08-02T02:47:33Z" uid="20587" user="balrog-kun" changeset="2009336" lat="52.4345033" lon="16.8412699">
    <tag k="addr:city" v="Poznań"/>
    <tag k="addr:housenumber" v="28"/>
    <tag k="addr:street" v="Kołobrzeska"/>
    <tag k="source" v="http://ump.waw.pl/ retrieved 15:05:23 06/30/09 (UMP-Poznan/src/POZNAN.ulice.txt)"/>
  </node>
  <node id="453979176" version="2" timestamp="2009-08-02T17:16:08Z" uid="20587" user="balrog-kun" changeset="2017141" lat="52.4344405" lon="16.8413986">
    <tag k="addr:city" v="Poznań"/>
    <tag k="addr:housenumber" v="28"/>
    <tag k="addr:street" v="Kołobrzeska"/>
    <tag k="source" v="http://ump.waw.pl/ retrieved 15:05:23 06/30/09 (UMP-Poznan/src/POZNAN.ulice.txt)"/>
  </node>
  <node id="453979178" version="1" timestamp="2009-08-02T02:47:33Z" uid="20587" user="balrog-kun" changeset="2009336" lat="52.4349435" lon="16.8394789">
    <tag k="addr:city" v="Poznań"/>
    <tag k="addr:housenumber" v="10"/>
    <tag k="addr:street" v="Białogardzka"/>
    <tag k="source" v="http://ump.waw.pl/ retrieved 15:05:23 06/30/09 (UMP-Poznan/src/POZNAN.ulice.txt)"/>
  </node>
  <node id="453979182" version="1" timestamp="2009-08-02T02:47:33Z" uid="20587" user="balrog-kun" changeset="2009336" lat="52.4337106" lon="16.8130396">
    <tag k="addr:city" v="Poznań"/>
    <tag k="addr:housenumber" v="11"/>
    <tag k="addr:street" v="Łebska"/>
    <tag k="source" v="http://ump.waw.pl/ retrieved 15:05:23 06/30/09 (UMP-Poznan/src/POZNAN.ulice.txt)"/>
  </node>
  <node id="453979184" version="1" timestamp="2009-08-02T02:47:33Z" uid="20587" user="balrog-kun" changeset="2009336" lat="52.4362358" lon="16.8156524">
    <tag k="addr:city" v="Poznań"/>
    <tag k="addr:housenumber" v="65"/>
    <tag k="addr:street" v="Kościerzyńska"/>
    <tag k="source" v="http://ump.waw.pl/ retrieved 15:05:23 06/30/09 (UMP-Poznan/src/POZNAN.ulice.txt)"/>
  </node>
  <node id="453979188" version="1" timestamp="2009-08-02T02:47:33Z" uid="20587" user="balrog-kun" changeset="2009336" lat="52.4375627" lon="16.8361717">
    <tag k="addr:city" v="Poznań"/>
    <tag k="addr:housenumber" v="13"/>
    <tag k="addr:street" v="Maszewska"/>
    <tag k="source" v="http://ump.waw.pl/ retrieved 15:05:23 06/30/09 (UMP-Poznan/src/POZNAN.ulice.txt)"/>
  </node>
  <node id="453979191" version="1" timestamp="2009-08-02T02:47:33Z" uid="20587" user="balrog-kun" changeset="2009336" lat="52.4401063" lon="16.8234673">
    <tag k="addr:city" v="Poznań"/>
    <tag k="addr:housenumber" v="48"/>
    <tag k="addr:street" v="Pucka"/>
    <tag k="source" v="http://ump.waw.pl/ retrieved 15:05:23 06/30/09 (UMP-Poznan/src/POZNAN.ulice.txt)"/>
  </node>
  <node id="453979195" version="1" timestamp="2009-08-02T02:47:33Z" uid="20587" user="balrog-kun" changeset="2009336" lat="52.4396614" lon="16.8291329">
    <tag k="addr:city" v="Poznań"/>
    <tag k="addr:housenumber" v="8"/>
    <tag k="addr:street" v="Fromborska"/>
    <tag k="source" v="http://ump.waw.pl/ retrieved 15:05:23 06/30/09 (UMP-Poznan/src/POZNAN.ulice.txt)"/>
  </node>
  <node id="453979195" version="2" timestamp="2009-08-02T17:16:08Z" uid="20587" user="balrog-kun" changeset="2017141" lat="52.4395019" lon="16.8292271">
    <tag k="addr:city" v="Poznań"/>
    <tag k="addr:housenumber" v="8"/>
    <tag k="addr:street" v="Fromborska"/>
    <tag k="source" v="http://ump.waw.pl/ retrieved 15:05:23 06/30/09 (UMP-Poznan/src/POZNAN.ulice.txt)"/>
  </node>
  <node id="453979198" version="1" timestamp="2009-08-02T02:47:33Z" uid="20587" user="balrog-kun" changeset="2009336" lat="52.430928" lon="16.8437471">
    <tag k="addr:city" v="Poznań"/>
    <tag k="addr:housenumber" v="339"/>
    <tag k="addr:street" v="Dąbrowskiego"/>
    <tag k="source" v="http://ump.waw.pl/ retrieved 15:05:23 06/30/09 (UMP-Poznan/src/POZNAN.ulice.txt)"/>
  </node>
  <node id="453979201" version="1" timestamp="2009-08-02T02:47:33Z" uid="20587" user="balrog-kun" changeset="2009336" lat="52.4362609" lon="16.8310623">
    <tag k="addr:city" v="Poznań"/>
    <tag k="addr:housenumber" v="46"/>
    <tag k="addr:street" v="Lęborska"/>
    <tag k="source" v="http://ump.waw.pl/ retrieved 15:05:23 06/30/09 (UMP-Poznan/src/POZNAN.ulice.txt)"/>
  </node>
  <node id="453979204" version="1" timestamp="2009-08-02T02:47:33Z" uid="20587" user="balrog-kun" changeset="2009336" lat="52.4396799" lon="16.8212518">
    <tag k="addr:city" v="Poznań"/>
    <tag k="addr:housenumber" v="13"/>
    <tag k="addr:street" v="Braniewska"/>
    <tag k="source" v="http://ump.waw.pl/ retrieved 15:05:23 06/30/09 (UMP-Poznan/src/POZNAN.ulice.txt)"/>
  </node>
  <node id="453979207" version="1" timestamp="2009-08-02T02:47:33Z" uid="20587" user="balrog-kun" changeset="2009336" lat="52.4384568" lon="16.8219259">
    <tag k="addr:city" v="Poznań"/>
    <tag k="addr:housenumber" v="104"/>
    <tag k="addr:street" v="Lubowska"/>
    <tag k="source" v="http://ump.waw.pl/ retrieved 15:05:23 06/30/09 (UMP-Poznan/src/POZNAN.ulice.txt)"/>
  </node>
  <node id="453979211" version="1" timestamp="2009-08-02T02:47:33Z" uid="20587" user="balrog-kun" changeset="2009336" lat="52.4399238" lon="16.8137846">
    <tag k="addr:city" v="Poznań"/>
    <tag k="addr:housenumber" v="18"/>
    <tag k="addr:street" v="Świecka"/>
    <tag k="source" v="http://ump.waw.pl/ retrieved 15:05:23 06/30/09 (UMP-Poznan/src/POZNAN.ulice.txt)"/>
  </node>
  <node id="453979216" version="1" timestamp="2009-08-02T02:47:33Z" uid="20587" user="balrog-kun" changeset="2009336" lat="52.4384919" lon="16.8309106">
    <tag k="addr:city" v="Poznań"/>
    <tag k="addr:housenumber" v="37"/>
    <tag k="addr:street" v="Lubowska"/>
    <tag k="source" v="http://ump.waw.pl/ retrieved 15:05:23 06/30/09 (UMP-Poznan/src/POZNAN.ulice.txt)"/>
  </node>
  <node id="453979216" version="2" timestamp="2009-08-02T17:16:09Z" uid="20587" user="balrog-kun" changeset="2017141" lat="52.4384815" lon="16.8307819">
    <tag k="addr:city" v="Poznań"/>
    <tag k="addr:housenumber" v="37"/>
    <tag k="addr:street" v="Lubowska"/>
    <tag k="source" v="http://ump.waw.pl/ retrieved 15:05:23 06/30/09 (UMP-Poznan/src/POZNAN.ulice.txt)"/>
  </node>
  <node id="453979221" version="1" timestamp="2009-08-02T02:47:33Z" uid="20587" user="balrog-kun" changeset="2009336" lat="52.4407247" lon="16.8226618">
    <tag k="addr:city" v="Poznań"/>
    <tag k="addr:housenumber" v="91"/>
    <tag k="addr:street" v="Polanowska"/>
    <tag k="source" v="http://ump.waw.pl/ retrieved 15:05:23 06/30/09 (UMP-Poznan/src/POZNAN.ulice.txt)"/>
  </node>
  <node id="453979225" version="1" timestamp="2009-08-02T02:47:34Z" uid="20587" user="balrog-kun" changeset="2009336" lat="52.4355247" lon="16.8283423">
    <tag k="addr:city" v="Poznań"/>
    <tag k="addr:housenumber" v="70"/>
    <tag k="addr:street" v="Sianowska"/>
    <tag k="source" v="http://ump.waw.pl/ retrieved 15:05:23 06/30/09 (UMP-Poznan/src/POZNAN.ulice.txt)"/>
  </node>
  <node id="453979230" version="1" timestamp="2009-08-02T02:47:34Z" uid="20587" user="balrog-kun" changeset="2009336" lat="52.4337141" lon="16.8127081">
    <tag k="addr:city" v="Poznań"/>
    <tag k="addr:housenumber" v="2"/>
    <tag k="addr:street" v="Izbicka"/>
    <tag k="source" v="http://ump.waw.pl/ retrieved 15:05:23 06/30/09 (UMP-Poznan/src/POZNAN.ulice.txt)"/>
  </node>
  <node id="453979234" version="1" timestamp="2009-08-02T02:47:34Z" uid="20587" user="balrog-kun" changeset="2009336" lat="52.4369181" lon="16.8408119">
    <tag k="addr:city" v="Poznań"/>
    <tag k="addr:housenumber" v="12"/>
    <tag k="addr:street" v="Trzcianecka"/>
    <tag k="source" v="http://ump.waw.pl/ retrieved 15:05:23 06/30/09 (UMP-Poznan/src/POZNAN.ulice.txt)"/>
  </node>
  <node id="453979234" version="2" timestamp="2009-08-02T17:16:09Z" uid="20587" user="balrog-kun" changeset="2017141" lat="52.4369508" lon="16.8408977">
    <tag k="addr:city" v="Poznań"/>
    <tag k="addr:housenumber" v="12"/>
    <tag k="addr:street" v="Trzcianecka"/>
    <tag k="source" v="http://ump.waw.pl/ retrieved 15:05:23 06/30/09 (UMP-Poznan/src/POZNAN.ulice.txt)"/>
  </node>
  <node id="453979239" version="1" timestamp="2009-08-02T02:47:34Z" uid="20587" user="balrog-kun" changeset="2009336" lat="52.4356017" lon="16.838802">
    <tag k="addr:city" v="Poznań"/>
    <tag k="addr:housenumber" v="14"/>
    <tag k="addr:street" v="Sianowska"/>
    <tag k="source" v="http://ump.waw.pl/ retrieved 15:05:23 06/30/09 (UMP-Poznan/src/POZNAN.ulice.txt)"/>
  </node>
  <node id="453979298" version="1" timestamp="2009-08-02T02:47:35Z" uid="20587" user="balrog-kun" changeset="2009336" lat="52.4355119" lon="16.8266891">
    <tag k="addr:city" v="Poznań"/>
    <tag k="addr:housenumber" v="78"/>
    <tag k="addr:street" v="Sianowska"/>
    <tag k="source" v="http://ump.waw.pl/ retrieved 15:05:23 06/30/09 (UMP-Poznan/src/POZNAN.ulice.txt)"/>
  </node>
  <node id="453979303" version="1" timestamp="2009-08-02T02:47:35Z" uid="20587" user="balrog-kun" changeset="2009336" lat="52.4343976" lon="16.8141052">
    <tag k="addr:city" v="Poznań"/>
    <tag k="addr:housenumber" v="15"/>
    <tag k="addr:street" v="Człopska"/>
    <tag k="source" v="http://ump.waw.pl/ retrieved 15:05:23 06/30/09 (UMP-Poznan/src/POZNAN.ulice.txt)"/>
  </node>
  <node id="453979308" version="1" timestamp="2009-08-02T02:47:35Z" uid="20587" user="balrog-kun" changeset="2009336" lat="52.4327198" lon="16.8310715">
    <tag k="addr:city" v="Poznań"/>
    <tag k="addr:housenumber" v="6"/>
    <tag k="addr:street" v="Santocka"/>
    <tag k="source" v="http://ump.waw.pl/ retrieved 15:05:23 06/30/09 (UMP-Poznan/src/POZNAN.ulice.txt)"/>
  </node>
  <node id="453979315" version="1" timestamp="2009-08-02T02:47:35Z" uid="20587" user="balrog-kun" changeset="2009336" lat="52.4354859" lon="16.8252105">
    <tag k="addr:city" v="Poznań"/>
    <tag k="addr:housenumber" v="84"/>
    <tag k="addr:street" v="Sianowska"/>
    <tag k="source" v="http://ump.waw.pl/ retrieved 15:05:23 06/30/09 (UMP-Poznan/src/POZNAN.ulice.txt)"/>
  </node>
  <node id="453979319" version="1" timestamp="2009-08-02T02:47:35Z" uid="20587" user="balrog-kun" changeset="2009336" lat="52.4398629" lon="16.8234913">
    <tag k="addr:city" v="Poznań"/>
    <tag k="addr:housenumber" v="31"/>
    <tag k="addr:street" v="Pucka"/>
    <tag k="source" v="http://ump.waw.pl/ retrieved 15:05:23 06/30/09 (UMP-Poznan/src/POZNAN.ulice.txt)"/>
  </node>
  <node id="453979325" version="1" timestamp="2009-08-02T02:47:35Z" uid="20587" user="balrog-kun" changeset="2009336" lat="52.4352915" lon="16.8413601">
    <tag k="addr:city" v="Poznań"/>
    <tag k="addr:housenumber" v="31"/>
    <tag k="addr:street" v="Kołobrzeska"/>
    <tag k="source" v="http://ump.waw.pl/ retrieved 15:05:23 06/30/09 (UMP-Poznan/src/POZNAN.ulice.txt)"/>
  </node>
  <node id="453979328" version="1" timestamp="2009-08-02T02:47:35Z" uid="20587" user="balrog-kun" changeset="2009336" lat="52.4387354" lon="16.8308882">
    <tag k="addr:city" v="Poznań"/>
    <tag k="addr:housenumber" v="48"/>
    <tag k="addr:street" v="Lubowska"/>
    <tag k="source" v="http://ump.waw.pl/ retrieved 15:05:23 06/30/09 (UMP-Poznan/src/POZNAN.ulice.txt)"/>
  </node>
  <node id="453979333" version="1" timestamp="2009-08-02T02:47:35Z" uid="20587" user="balrog-kun" changeset="2009336" lat="52.437879" lon="16.8303449">
    <tag k="addr:city" v="Poznań"/>
    <tag k="addr:housenumber" v="27"/>
    <tag k="addr:street" v="Santocka"/>
    <tag k="source" v="http://ump.waw.pl/ retrieved 15:05:23 06/30/09 (UMP-Poznan/src/POZNAN.ulice.txt)"/>
  </node>
  <node id="453979339" version="1" timestamp="2009-08-02T02:47:35Z" uid="20587" user="balrog-kun" changeset="2009336" lat="52.4391175" lon="16.8317204">
    <tag k="addr:city" v="Poznań"/>
    <tag k="addr:housenumber" v="1"/>
    <tag k="addr:street" v="Zagórzycka"/>
    <tag k="source" v="http://ump.waw.pl/ retrieved 15:05:23 06/30/09 (UMP-Poznan/src/POZNAN.ulice.txt)"/>
  </node>
  <node id="453979344" version="1" timestamp="2009-08-02T02:47:35Z" uid="20587" user="balrog-kun" changeset="2009336" lat="52.4363538" lon="16.8191036">
    <tag k="addr:city" v="Poznań"/>
    <tag k="addr:housenumber" v="55"/>
    <tag k="addr:street" v="Łagowska"/>
    <tag k="source" v="http://ump.waw.pl/ retrieved 15:05:23 06/30/09 (UMP-Poznan/src/POZNAN.ulice.txt)"/>
  </node>
  <node id="453979348" version="1" timestamp="2009-08-02T02:47:35Z" uid="20587" user="balrog-kun" changeset="2009336" lat="52.4405506" lon="16.8212039">
    <tag k="addr:city" v="Poznań"/>
    <tag k="addr:housenumber" v="3"/>
    <tag k="addr:street" v="Braniewska"/>
    <tag k="source" v="http://ump.waw.pl/ retrieved 15:05:23 06/30/09 (UMP-Poznan/src/POZNAN.ulice.txt)"/>
  </node>
  <node id="453979351" version="1" timestamp="2009-08-02T02:47:35Z" uid="20587" user="balrog-kun" changeset="2009336" lat="52.4393401" lon="16.8208682">
    <tag k="addr:city" v="Poznań"/>
    <tag k="addr:housenumber" v="16"/>
    <tag k="addr:street" v="Braniewska"/>
    <tag k="source" v="http://ump.waw.pl/ retrieved 15:05:23 06/30/09 (UMP-Poznan/src/POZNAN.ulice.txt)"/>
  </node>
  <node id="453979351" version="2" timestamp="2009-08-02T17:16:08Z" uid="20587" user="balrog-kun" changeset="2017141" lat="52.4393192" lon="16.8208339">
    <tag k="addr:city" v="Poznań"/>
    <tag k="addr:housenumber" v="16"/>
    <tag k="addr:street" v="Braniewska"/>
    <tag k="source" v="http://ump.waw.pl/ retrieved 15:05:23 06/30/09 (UMP-Poznan/src/POZNAN.ulice.txt)"/>
  </node>
  <node id="453979356" version="1" timestamp="2009-08-02T02:47:35Z" uid="20587" user="balrog-kun" changeset="2009336" lat="52.4316637" lon="16.845094">
    <tag k="addr:city" v="Poznań"/>
    <tag k="addr:housenumber" v="10"/>
    <tag k="addr:street" v="Czarnkowska"/>
    <tag k="source" v="http://ump.waw.pl/ retrieved 15:05:23 06/30/09 (UMP-Poznan/src/POZNAN.ulice.txt)"/>
  </node>
  <node id="453979360" version="1" timestamp="2009-08-02T02:47:35Z" uid="20587" user="balrog-kun" changeset="2009336" lat="52.431777" lon="16.8402883">
    <tag k="addr:city" v="Poznań"/>
    <tag k="addr:housenumber" v="2"/>
    <tag k="addr:street" v="Chodzieska"/>
    <tag k="source" v="http://ump.waw.pl/ retrieved 15:05:23 06/30/09 (UMP-Poznan/src/POZNAN.ulice.txt)"/>
  </node>
  <node id="453979366" version="1" timestamp="2009-08-02T02:47:36Z" uid="20587" user="balrog-kun" changeset="2009336" lat="52.4371506" lon="16.8155591">
    <tag k="addr:city" v="Poznań"/>
    <tag k="addr:housenumber" v="85"/>
    <tag k="addr:street" v="Kościerzyńska"/>
    <tag k="source" v="http://ump.waw.pl/ retrieved 15:05:23 06/30/09 (UMP-Poznan/src/POZNAN.ulice.txt)"/>
  </node>
  <node id="453979370" version="1" timestamp="2009-08-02T02:47:36Z" uid="20587" user="balrog-kun" changeset="2009336" lat="52.4393173" lon="16.8202383">
    <tag k="addr:city" v="Poznań"/>
    <tag k="addr:housenumber" v="4"/>
    <tag k="addr:street" v="Pasłęcka"/>
    <tag k="source" v="http://ump.waw.pl/ retrieved 15:05:23 06/30/09 (UMP-Poznan/src/POZNAN.ulice.txt)"/>
  </node>
  <node id="453979370" version="2" timestamp="2009-08-02T17:16:08Z" uid="20587" user="balrog-kun" changeset="2017141" lat="52.4393696" lon="16.8202641">
    <tag k="addr:city" v="Poznań"/>
    <tag k="addr:housenumber" v="4"/>
    <tag k="addr:street" v="Pasłęcka"/>
    <tag k="source" v="http://ump.waw.pl/ retrieved 15:05:23 06/30/09 (UMP-Poznan/src/POZNAN.ulice.txt)"/>
  </node>
  <node id="453979373" version="1" timestamp="2009-08-02T02:47:36Z" uid="20587" user="balrog-kun" changeset="2009336" lat="52.4387373" lon="16.8389711">
    <tag k="addr:city" v="Poznań"/>
    <tag k="addr:housenumber" v="28"/>
    <tag k="addr:street" v="Trzcianecka"/>
    <tag k="source" v="http://ump.waw.pl/ retrieved 15:05:23 06/30/09 (UMP-Poznan/src/POZNAN.ulice.txt)"/>
  </node>
  <node id="453979373" version="2" timestamp="2009-08-02T17:16:08Z" uid="20587" user="balrog-kun" changeset="2017141" lat="52.4387635" lon="16.8390998">
    <tag k="addr:city" v="Poznań"/>
    <tag k="addr:housenumber" v="28"/>
    <tag k="addr:street" v="Trzcianecka"/>
    <tag k="source" v="http://ump.waw.pl/ retrieved 15:05:23 06/30/09 (UMP-Poznan/src/POZNAN.ulice.txt)"/>
  </node>
  <node id="453979377" version="1" timestamp="2009-08-02T02:47:36Z" uid="20587" user="balrog-kun" changeset="2009336" lat="52.4400516" lon="16.8214316">
    <tag k="addr:city" v="Poznań"/>
    <tag k="addr:housenumber" v="64"/>
    <tag k="addr:street" v="Pucka"/>
    <tag k="source" v="http://ump.waw.pl/ retrieved 15:05:23 06/30/09 (UMP-Poznan/src/POZNAN.ulice.txt)"/>
  </node>
  <node id="453979380" version="1" timestamp="2009-08-02T02:47:36Z" uid="20587" user="balrog-kun" changeset="2009336" lat="52.4319294" lon="16.840595">
    <tag k="addr:city" v="Poznań"/>
    <tag k="addr:housenumber" v="2"/>
    <tag k="addr:street" v="Białośliwska"/>
    <tag k="source" v="http://ump.waw.pl/ retrieved 15:05:23 06/30/09 (UMP-Poznan/src/POZNAN.ulice.txt)"/>
  </node>
  <node id="453979384" version="1" timestamp="2009-08-02T02:47:36Z" uid="20587" user="balrog-kun" changeset="2009336" lat="52.4331481" lon="16.8173498">
    <tag k="addr:city" v="Poznań"/>
    <tag k="addr:housenumber" v="9"/>
    <tag k="addr:street" v="Kościerzyńska"/>
    <tag k="source" v="http://ump.waw.pl/ retrieved 15:05:23 06/30/09 (UMP-Poznan/src/POZNAN.ulice.txt)"/>
  </node>
  <node id="453979388" version="1" timestamp="2009-08-02T02:47:36Z" uid="20587" user="balrog-kun" changeset="2009336" lat="52.4363299" lon="16.8179232">
    <tag k="addr:city" v="Poznań"/>
    <tag k="addr:housenumber" v="45"/>
    <tag k="addr:street" v="Łagowska"/>
    <tag k="source" v="http://ump.waw.pl/ retrieved 15:05:23 06/30/09 (UMP-Poznan/src/POZNAN.ulice.txt)"/>
  </node>
  <node id="453979391" version="1" timestamp="2009-08-02T02:47:36Z" uid="20587" user="balrog-kun" changeset="2009336" lat="52.4331374" lon="16.8425411">
    <tag k="addr:city" v="Poznań"/>
    <tag k="addr:housenumber" v="28"/>
    <tag k="addr:street" v="Białośliwska"/>
    <tag k="source" v="http://ump.waw.pl/ retrieved 15:05:23 06/30/09 (UMP-Poznan/src/POZNAN.ulice.txt)"/>
  </node>
  <node id="453979395" version="1" timestamp="2009-08-02T02:47:36Z" uid="20587" user="balrog-kun" changeset="2009336" lat="52.4321121" lon="16.8400255">
    <tag k="addr:city" v="Poznań"/>
    <tag k="addr:housenumber" v="5"/>
    <tag k="addr:street" v="Chodzieska"/>
    <tag k="source" v="http://ump.waw.pl/ retrieved 15:05:23 06/30/09 (UMP-Poznan/src/POZNAN.ulice.txt)"/>
  </node>
  <node id="453979398" version="1" timestamp="2009-08-02T02:47:36Z" uid="20587" user="balrog-kun" changeset="2009336" lat="52.4373015" lon="16.8207056">
    <tag k="addr:city" v="Poznań"/>
    <tag k="addr:housenumber" v="1"/>
    <tag k="addr:street" v="Mrzeżyńska"/>
    <tag k="source" v="http://ump.waw.pl/ retrieved 15:05:23 06/30/09 (UMP-Poznan/src/POZNAN.ulice.txt)"/>
  </node>
  <node id="453979401" version="1" timestamp="2009-08-02T02:47:36Z" uid="20587" user="balrog-kun" changeset="2009336" lat="52.4387043" lon="16.8159064">
    <tag k="addr:city" v="Poznań"/>
    <tag k="addr:housenumber" v="113"/>
    <tag k="addr:street" v="Kościerzyńska"/>
    <tag k="source" v="http://ump.waw.pl/ retrieved 15:05:23 06/30/09 (UMP-Poznan/src/POZNAN.ulice.txt)"/>
  </node>
  <node id="453979404" version="1" timestamp="2009-08-02T02:47:36Z" uid="20587" user="balrog-kun" changeset="2009336" lat="52.4399237" lon="16.8251527">
    <tag k="addr:city" v="Poznań"/>
    <tag k="addr:housenumber" v="19"/>
    <tag k="addr:street" v="Pucka"/>
    <tag k="source" v="http://ump.waw.pl/ retrieved 15:05:23 06/30/09 (UMP-Poznan/src/POZNAN.ulice.txt)"/>
  </node>
  <node id="453979406" version="1" timestamp="2009-08-02T02:47:36Z" uid="20587" user="balrog-kun" changeset="2009336" lat="52.4372547" lon="16.8178853">
    <tag k="addr:city" v="Poznań"/>
    <tag k="addr:housenumber" v="23"/>
    <tag k="addr:street" v="Mrzeżyńska"/>
    <tag k="source" v="http://ump.waw.pl/ retrieved 15:05:23 06/30/09 (UMP-Poznan/src/POZNAN.ulice.txt)"/>
  </node>
  <node id="453979407" version="1" timestamp="2009-08-02T02:47:36Z" uid="20587" user="balrog-kun" changeset="2009336" lat="52.4375839" lon="16.81592">
    <tag k="addr:city" v="Poznań"/>
    <tag k="addr:housenumber" v="95"/>
    <tag k="addr:street" v="Kościerzyńska"/>
    <tag k="source" v="http://ump.waw.pl/ retrieved 15:05:23 06/30/09 (UMP-Poznan/src/POZNAN.ulice.txt)"/>
  </node>
  <node id="453979408" version="1" timestamp="2009-08-02T02:47:36Z" uid="20587" user="balrog-kun" changeset="2009336" lat="52.4406025" lon="16.8319996">
    <tag k="addr:city" v="Poznań"/>
    <tag k="addr:housenumber" v="16"/>
    <tag k="addr:street" v="Zagórzycka"/>
    <tag k="source" v="http://ump.waw.pl/ retrieved 15:05:23 06/30/09 (UMP-Poznan/src/POZNAN.ulice.txt)"/>
  </node>
  <node id="453979409" version="1" timestamp="2009-08-02T02:47:36Z" uid="20587" user="balrog-kun" changeset="2009336" lat="52.4391759" lon="16.8192533">
    <tag k="addr:city" v="Poznań"/>
    <tag k="addr:housenumber" v="60"/>
    <tag k="addr:street" v="Gniewska"/>
    <tag k="source" v="http://ump.waw.pl/ retrieved 15:05:23 06/30/09 (UMP-Poznan/src/POZNAN.ulice.txt)"/>
  </node>
  <node id="453979410" version="1" timestamp="2009-08-02T02:47:36Z" uid="20587" user="balrog-kun" changeset="2009336" lat="52.4398135" lon="16.8113142">
    <tag k="addr:city" v="Poznań"/>
    <tag k="addr:housenumber" v="35"/>
    <tag k="addr:street" v="Oliwska"/>
    <tag k="source" v="http://ump.waw.pl/ retrieved 15:05:23 06/30/09 (UMP-Poznan/src/POZNAN.ulice.txt)"/>
  </node>
  <node id="453979411" version="1" timestamp="2009-08-02T02:47:37Z" uid="20587" user="balrog-kun" changeset="2009336" lat="52.4376237" lon="16.8252636">
    <tag k="addr:city" v="Poznań"/>
    <tag k="addr:housenumber" v="72"/>
    <tag k="addr:street" v="Myśliborska"/>
    <tag k="source" v="http://ump.waw.pl/ retrieved 15:05:23 06/30/09 (UMP-Poznan/src/POZNAN.ulice.txt)"/>
  </node>
  <node id="453979412" version="1" timestamp="2009-08-02T02:47:37Z" uid="20587" user="balrog-kun" changeset="2009336" lat="52.4403888" lon="16.8290628">
    <tag k="addr:city" v="Poznań"/>
    <tag k="addr:housenumber" v="16"/>
    <tag k="addr:street" v="Fromborska"/>
    <tag k="source" v="http://ump.waw.pl/ retrieved 15:05:23 06/30/09 (UMP-Poznan/src/POZNAN.ulice.txt)"/>
  </node>
  <node id="453979412" version="2" timestamp="2009-08-02T17:16:07Z" uid="20587" user="balrog-kun" changeset="2017141" lat="52.4403921" lon="16.829161">
    <tag k="addr:city" v="Poznań"/>
    <tag k="addr:housenumber" v="16"/>
    <tag k="addr:street" v="Fromborska"/>
    <tag k="source" v="http://ump.waw.pl/ retrieved 15:05:23 06/30/09 (UMP-Poznan/src/POZNAN.ulice.txt)"/>
  </node>
  <node id="453979414" version="1" timestamp="2009-08-02T02:47:37Z" uid="20587" user="balrog-kun" changeset="2009336" lat="52.4376652" lon="16.8357111">
    <tag k="addr:city" v="Poznań"/>
    <tag k="addr:housenumber" v="19"/>
    <tag k="addr:street" v="Myśliborska"/>
    <tag k="source" v="http://ump.waw.pl/ retrieved 15:05:23 06/30/09 (UMP-Poznan/src/POZNAN.ulice.txt)"/>
  </node>
  <node id="453979415" version="1" timestamp="2009-08-02T02:47:37Z" uid="20587" user="balrog-kun" changeset="2009336" lat="52.4390585" lon="16.8398707">
    <tag k="addr:city" v="Poznań"/>
    <tag k="addr:housenumber" v="31"/>
    <tag k="addr:street" v="Człuchowska"/>
    <tag k="source" v="http://ump.waw.pl/ retrieved 15:05:23 06/30/09 (UMP-Poznan/src/POZNAN.ulice.txt)"/>
  </node>
  <node id="453979416" version="1" timestamp="2009-08-02T02:47:37Z" uid="20587" user="balrog-kun" changeset="2009336" lat="52.4317112" lon="16.8444861">
    <tag k="addr:city" v="Poznań"/>
    <tag k="addr:housenumber" v="7"/>
    <tag k="addr:street" v="Czarnkowska"/>
    <tag k="source" v="http://ump.waw.pl/ retrieved 15:05:23 06/30/09 (UMP-Poznan/src/POZNAN.ulice.txt)"/>
  </node>
  <node id="453979419" version="1" timestamp="2009-08-02T02:47:37Z" uid="20587" user="balrog-kun" changeset="2009336" lat="52.4367523" lon="16.8153111">
    <tag k="addr:city" v="Poznań"/>
    <tag k="addr:housenumber" v="69"/>
    <tag k="addr:street" v="Kościerzyńska"/>
    <tag k="source" v="http://ump.waw.pl/ retrieved 15:05:23 06/30/09 (UMP-Poznan/src/POZNAN.ulice.txt)"/>
  </node>
  <node id="453979421" version="1" timestamp="2009-08-02T02:47:37Z" uid="20587" user="balrog-kun" changeset="2009336" lat="52.4396274" lon="16.8415536">
    <tag k="addr:city" v="Poznań"/>
    <tag k="addr:housenumber" v="47"/>
    <tag k="addr:street" v="Beskidzka"/>
    <tag k="source" v="http://ump.waw.pl/ retrieved 15:05:23 06/30/09 (UMP-Poznan/src/POZNAN.ulice.txt)"/>
  </node>
  <node id="453979423" version="1" timestamp="2009-08-02T02:47:37Z" uid="20587" user="balrog-kun" changeset="2009336" lat="52.4337644" lon="16.8446004">
    <tag k="addr:city" v="Poznań"/>
    <tag k="addr:housenumber" v="17"/>
    <tag k="addr:street" v="Czarnkowska"/>
    <tag k="source" v="http://ump.waw.pl/ retrieved 15:05:23 06/30/09 (UMP-Poznan/src/POZNAN.ulice.txt)"/>
  </node>
  <node id="453979425" version="1" timestamp="2009-08-02T02:47:37Z" uid="20587" user="balrog-kun" changeset="2009336" lat="52.4385388" lon="16.8252199">
    <tag k="addr:city" v="Poznań"/>
    <tag k="addr:housenumber" v="78"/>
    <tag k="addr:street" v="Lubowska"/>
    <tag k="source" v="http://ump.waw.pl/ retrieved 15:05:23 06/30/09 (UMP-Poznan/src/POZNAN.ulice.txt)"/>
  </node>
  <node id="453979427" version="1" timestamp="2009-08-02T02:47:37Z" uid="20587" user="balrog-kun" changeset="2009336" lat="52.4392943" lon="16.8227368">
    <tag k="addr:city" v="Poznań"/>
    <tag k="addr:housenumber" v="36"/>
    <tag k="addr:street" v="Gniewska"/>
    <tag k="source" v="http://ump.waw.pl/ retrieved 15:05:23 06/30/09 (UMP-Poznan/src/POZNAN.ulice.txt)"/>
  </node>
  <node id="453979429" version="1" timestamp="2009-08-02T02:47:37Z" uid="20587" user="balrog-kun" changeset="2009336" lat="52.4409017" lon="16.8344752">
    <tag k="addr:city" v="Poznań"/>
    <tag k="addr:housenumber" v="19"/>
    <tag k="addr:street" v="Bartoszycka"/>
    <tag k="source" v="http://ump.waw.pl/ retrieved 15:05:23 06/30/09 (UMP-Poznan/src/POZNAN.ulice.txt)"/>
  </node>
  <node id="453979432" version="1" timestamp="2009-08-02T02:47:37Z" uid="20587" user="balrog-kun" changeset="2009336" lat="52.4389441" lon="16.8198567">
    <tag k="addr:city" v="Poznań"/>
    <tag k="addr:housenumber" v="87"/>
    <tag k="addr:street" v="Gniewska"/>
    <tag k="source" v="http://ump.waw.pl/ retrieved 15:05:23 06/30/09 (UMP-Poznan/src/POZNAN.ulice.txt)"/>
  </node>
  <node id="453979434" version="1" timestamp="2009-08-02T02:47:37Z" uid="20587" user="balrog-kun" changeset="2009336" lat="52.4389125" lon="16.8186738">
    <tag k="addr:city" v="Poznań"/>
    <tag k="addr:housenumber" v="95"/>
    <tag k="addr:street" v="Gniewska"/>
    <tag k="source" v="http://ump.waw.pl/ retrieved 15:05:23 06/30/09 (UMP-Poznan/src/POZNAN.ulice.txt)"/>
  </node>
  <node id="453979436" version="1" timestamp="2009-08-02T02:47:37Z" uid="20587" user="balrog-kun" changeset="2009336" lat="52.4389666" lon="16.82069">
    <tag k="addr:city" v="Poznań"/>
    <tag k="addr:housenumber" v="81"/>
    <tag k="addr:street" v="Gniewska"/>
    <tag k="source" v="http://ump.waw.pl/ retrieved 15:05:23 06/30/09 (UMP-Poznan/src/POZNAN.ulice.txt)"/>
  </node>
  <node id="453979438" version="1" timestamp="2009-08-02T02:47:37Z" uid="20587" user="balrog-kun" changeset="2009336" lat="52.4341121" lon="16.8425265">
    <tag k="addr:city" v="Poznań"/>
    <tag k="addr:housenumber" v="2"/>
    <tag k="addr:street" v="Budzyńska"/>
    <tag k="source" v="http://ump.waw.pl/ retrieved 15:05:23 06/30/09 (UMP-Poznan/src/POZNAN.ulice.txt)"/>
  </node>
  <node id="453979441" version="1" timestamp="2009-08-02T02:47:37Z" uid="20587" user="balrog-kun" changeset="2009336" lat="52.4326726" lon="16.840528">
    <tag k="addr:city" v="Poznań"/>
    <tag k="addr:housenumber" v="9"/>
    <tag k="addr:street" v="Chodzieska"/>
    <tag k="source" v="http://ump.waw.pl/ retrieved 15:05:23 06/30/09 (UMP-Poznan/src/POZNAN.ulice.txt)"/>
  </node>
  <node id="453979443" version="1" timestamp="2009-08-02T02:47:37Z" uid="20587" user="balrog-kun" changeset="2009336" lat="52.4394984" lon="16.8398908">
    <tag k="addr:city" v="Poznań"/>
    <tag k="addr:housenumber" v="28"/>
    <tag k="addr:street" v="Człuchowska"/>
    <tag k="source" v="http://ump.waw.pl/ retrieved 15:05:23 06/30/09 (UMP-Poznan/src/POZNAN.ulice.txt)"/>
  </node>
  <node id="453979445" version="1" timestamp="2009-08-02T02:47:37Z" uid="20587" user="balrog-kun" changeset="2009336" lat="52.4385146" lon="16.8315718">
    <tag k="addr:city" v="Poznań"/>
    <tag k="addr:housenumber" v="31"/>
    <tag k="addr:street" v="Lubowska"/>
    <tag k="source" v="http://ump.waw.pl/ retrieved 15:05:23 06/30/09 (UMP-Poznan/src/POZNAN.ulice.txt)"/>
  </node>
  <node id="453979445" version="2" timestamp="2009-08-02T17:16:07Z" uid="20587" user="balrog-kun" changeset="2017141" lat="52.4385112" lon="16.8316146">
    <tag k="addr:city" v="Poznań"/>
    <tag k="addr:housenumber" v="31"/>
    <tag k="addr:street" v="Lubowska"/>
    <tag k="source" v="http://ump.waw.pl/ retrieved 15:05:23 06/30/09 (UMP-Poznan/src/POZNAN.ulice.txt)"/>
  </node>
  <node id="453979447" version="1" timestamp="2009-08-02T02:47:37Z" uid="20587" user="balrog-kun" changeset="2009336" lat="52.4408317" lon="16.8372642">
    <tag k="addr:city" v="Poznań"/>
    <tag k="addr:housenumber" v="19"/>
    <tag k="addr:street" v="Czaplinecka"/>
    <tag k="source" v="http://ump.waw.pl/ retrieved 15:05:23 06/30/09 (UMP-Poznan/src/POZNAN.ulice.txt)"/>
  </node>
  <node id="453979449" version="1" timestamp="2009-08-02T02:47:37Z" uid="20587" user="balrog-kun" changeset="2009336" lat="52.4392902" lon="16.8188484">
    <tag k="addr:city" v="Poznań"/>
    <tag k="addr:housenumber" v="34"/>
    <tag k="addr:street" v="Pasłęcka"/>
    <tag k="source" v="http://ump.waw.pl/ retrieved 15:05:23 06/30/09 (UMP-Poznan/src/POZNAN.ulice.txt)"/>
  </node>
  <node id="453979449" version="2" timestamp="2009-08-02T17:16:07Z" uid="20587" user="balrog-kun" changeset="2017141" lat="52.439286" lon="16.8188003">
    <tag k="addr:city" v="Poznań"/>
    <tag k="addr:housenumber" v="34"/>
    <tag k="addr:street" v="Pasłęcka"/>
    <tag k="source" v="http://ump.waw.pl/ retrieved 15:05:23 06/30/09 (UMP-Poznan/src/POZNAN.ulice.txt)"/>
  </node>
  <node id="453979452" version="1" timestamp="2009-08-02T02:47:38Z" uid="20587" user="balrog-kun" changeset="2009336" lat="52.4408726" lon="16.83344">
    <tag k="addr:city" v="Poznań"/>
    <tag k="addr:housenumber" v="20"/>
    <tag k="addr:street" v="Mazurska"/>
    <tag k="source" v="http://ump.waw.pl/ retrieved 15:05:23 06/30/09 (UMP-Poznan/src/POZNAN.ulice.txt)"/>
  </node>
  <node id="453979454" version="1" timestamp="2009-08-02T02:47:38Z" uid="20587" user="balrog-kun" changeset="2009336" lat="52.4335646" lon="16.8431317">
    <tag k="addr:city" v="Poznań"/>
    <tag k="addr:housenumber" v="5"/>
    <tag k="addr:street" v="Budzyńska"/>
    <tag k="source" v="http://ump.waw.pl/ retrieved 15:05:23 06/30/09 (UMP-Poznan/src/POZNAN.ulice.txt)"/>
  </node>
  <node id="453979456" version="1" timestamp="2009-08-02T02:47:38Z" uid="20587" user="balrog-kun" changeset="2009336" lat="52.4389497" lon="16.8335995">
    <tag k="addr:city" v="Poznań"/>
    <tag k="addr:housenumber" v="2"/>
    <tag k="addr:street" v="Mazurska"/>
    <tag k="source" v="http://ump.waw.pl/ retrieved 15:05:23 06/30/09 (UMP-Poznan/src/POZNAN.ulice.txt)"/>
  </node>
  <node id="453979459" version="1" timestamp="2009-08-02T02:47:38Z" uid="20587" user="balrog-kun" changeset="2009336" lat="52.4368408" lon="16.8261224">
    <tag k="addr:city" v="Poznań"/>
    <tag k="addr:housenumber" v="72"/>
    <tag k="addr:street" v="Trzebiatowska"/>
    <tag k="source" v="http://ump.waw.pl/ retrieved 15:05:23 06/30/09 (UMP-Poznan/src/POZNAN.ulice.txt)"/>
  </node>
  <node id="453979462" version="1" timestamp="2009-08-02T02:47:38Z" uid="20587" user="balrog-kun" changeset="2009336" lat="52.4324471" lon="16.8089138">
    <tag k="addr:city" v="Poznań"/>
    <tag k="addr:housenumber" v="517"/>
    <tag k="addr:street" v="Dąbrowskiego"/>
    <tag k="source" v="http://ump.waw.pl/ retrieved 15:05:23 06/30/09 (UMP-Poznan/src/POZNAN.ulice.txt)"/>
  </node>
  <node id="453979465" version="1" timestamp="2009-08-02T02:47:38Z" uid="20587" user="balrog-kun" changeset="2009336" lat="52.4406583" lon="16.8207269">
    <tag k="addr:city" v="Poznań"/>
    <tag k="addr:housenumber" v="109"/>
    <tag k="addr:street" v="Polanowska"/>
    <tag k="source" v="http://ump.waw.pl/ retrieved 15:05:23 06/30/09 (UMP-Poznan/src/POZNAN.ulice.txt)"/>
  </node>
  <node id="453979467" version="1" timestamp="2009-08-02T02:47:38Z" uid="20587" user="balrog-kun" changeset="2009336" lat="52.4398098" lon="16.8182116">
    <tag k="addr:city" v="Poznań"/>
    <tag k="addr:housenumber" v="14"/>
    <tag k="addr:street" v="Ornecka"/>
    <tag k="source" v="http://ump.waw.pl/ retrieved 15:05:23 06/30/09 (UMP-Poznan/src/POZNAN.ulice.txt)"/>
  </node>
  <node id="453979467" version="2" timestamp="2009-08-02T17:16:07Z" uid="20587" user="balrog-kun" changeset="2017141" lat="52.4400735" lon="16.8182116">
    <tag k="addr:city" v="Poznań"/>
    <tag k="addr:housenumber" v="14"/>
    <tag k="addr:street" v="Ornecka"/>
    <tag k="source" v="http://ump.waw.pl/ retrieved 15:05:23 06/30/09 (UMP-Poznan/src/POZNAN.ulice.txt)"/>
  </node>
  <node id="453979470" version="1" timestamp="2009-08-02T02:47:38Z" uid="20587" user="balrog-kun" changeset="2009336" lat="52.4409592" lon="16.8321686">
    <tag k="addr:city" v="Poznań"/>
    <tag k="addr:housenumber" v="15"/>
    <tag k="addr:street" v="Polanowska"/>
    <tag k="source" v="http://ump.waw.pl/ retrieved 15:05:23 06/30/09 (UMP-Poznan/src/POZNAN.ulice.txt)"/>
  </node>
  <node id="453979473" version="1" timestamp="2009-08-02T02:47:38Z" uid="20587" user="balrog-kun" changeset="2009336" lat="52.4374115" lon="16.8398442">
    <tag k="addr:city" v="Poznań"/>
    <tag k="addr:housenumber" v="13"/>
    <tag k="addr:street" v="Trzcianecka"/>
    <tag k="source" v="http://ump.waw.pl/ retrieved 15:05:23 06/30/09 (UMP-Poznan/src/POZNAN.ulice.txt)"/>
  </node>
  <node id="453979475" version="1" timestamp="2009-08-02T02:47:38Z" uid="20587" user="balrog-kun" changeset="2009336" lat="52.4385377" lon="16.8142492">
    <tag k="addr:city" v="Poznań"/>
    <tag k="addr:housenumber" v="9"/>
    <tag k="addr:street" v="Oliwska"/>
    <tag k="source" v="http://ump.waw.pl/ retrieved 15:05:23 06/30/09 (UMP-Poznan/src/POZNAN.ulice.txt)"/>
  </node>
  <node id="453979479" version="1" timestamp="2009-08-02T02:47:38Z" uid="20587" user="balrog-kun" changeset="2009336" lat="52.4395151" lon="16.8285474">
    <tag k="addr:city" v="Poznań"/>
    <tag k="addr:housenumber" v="2"/>
    <tag k="addr:street" v="Gniewska"/>
    <tag k="source" v="http://ump.waw.pl/ retrieved 15:05:23 06/30/09 (UMP-Poznan/src/POZNAN.ulice.txt)"/>
  </node>
  <node id="453979482" version="1" timestamp="2009-08-02T02:47:38Z" uid="20587" user="balrog-kun" changeset="2009336" lat="52.441563" lon="16.8382253">
    <tag k="addr:city" v="Poznań"/>
    <tag k="addr:housenumber" v="108"/>
    <tag k="addr:street" v="Beskidzka"/>
    <tag k="source" v="http://ump.waw.pl/ retrieved 15:05:23 06/30/09 (UMP-Poznan/src/POZNAN.ulice.txt)"/>
  </node>
  <node id="453979484" version="1" timestamp="2009-08-02T02:47:38Z" uid="20587" user="balrog-kun" changeset="2009336" lat="52.4346175" lon="16.8391963">
    <tag k="addr:city" v="Poznań"/>
    <tag k="addr:housenumber" v="24"/>
    <tag k="addr:street" v="Olsztyńska"/>
    <tag k="source" v="http://ump.waw.pl/ retrieved 15:05:23 06/30/09 (UMP-Poznan/src/POZNAN.ulice.txt)"/>
  </node>
  <node id="453979487" version="1" timestamp="2009-08-02T02:47:38Z" uid="20587" user="balrog-kun" changeset="2009336" lat="52.4331975" lon="16.8438031">
    <tag k="addr:city" v="Poznań"/>
    <tag k="addr:housenumber" v="18"/>
    <tag k="addr:street" v="Rogozińska"/>
    <tag k="source" v="http://ump.waw.pl/ retrieved 15:05:23 06/30/09 (UMP-Poznan/src/POZNAN.ulice.txt)"/>
  </node>
  <node id="453979490" version="1" timestamp="2009-08-02T02:47:38Z" uid="20587" user="balrog-kun" changeset="2009336" lat="52.4396394" lon="16.8391939">
    <tag k="addr:city" v="Poznań"/>
    <tag k="addr:housenumber" v="35"/>
    <tag k="addr:street" v="Człuchowska"/>
    <tag k="source" v="http://ump.waw.pl/ retrieved 15:05:23 06/30/09 (UMP-Poznan/src/POZNAN.ulice.txt)"/>
  </node>
  <node id="453979493" version="1" timestamp="2009-08-02T02:47:39Z" uid="20587" user="balrog-kun" changeset="2009336" lat="52.4384219" lon="16.8159137">
    <tag k="addr:city" v="Poznań"/>
    <tag k="addr:housenumber" v="105"/>
    <tag k="addr:street" v="Kościerzyńska"/>
    <tag k="source" v="http://ump.waw.pl/ retrieved 15:05:23 06/30/09 (UMP-Poznan/src/POZNAN.ulice.txt)"/>
  </node>
  <node id="453979497" version="1" timestamp="2009-08-02T02:47:39Z" uid="20587" user="balrog-kun" changeset="2009336" lat="52.4380361" lon="16.8451088">
    <tag k="addr:city" v="Poznań"/>
    <tag k="addr:housenumber" v="31"/>
    <tag k="addr:street" v="Beskidzka"/>
    <tag k="source" v="http://ump.waw.pl/ retrieved 15:05:23 06/30/09 (UMP-Poznan/src/POZNAN.ulice.txt)"/>
  </node>
  <node id="453979500" version="1" timestamp="2009-08-02T02:47:39Z" uid="20587" user="balrog-kun" changeset="2009336" lat="52.4408078" lon="16.8259076">
    <tag k="addr:city" v="Poznań"/>
    <tag k="addr:housenumber" v="67"/>
    <tag k="addr:street" v="Polanowska"/>
    <tag k="source" v="http://ump.waw.pl/ retrieved 15:05:23 06/30/09 (UMP-Poznan/src/POZNAN.ulice.txt)"/>
  </node>
  <node id="453979502" version="1" timestamp="2009-08-02T02:47:39Z" uid="20587" user="balrog-kun" changeset="2009336" lat="52.4333481" lon="16.81069">
    <tag k="addr:city" v="Poznań"/>
    <tag k="addr:housenumber" v="25"/>
    <tag k="addr:street" v="Izbicka"/>
    <tag k="source" v="http://ump.waw.pl/ retrieved 15:05:23 06/30/09 (UMP-Poznan/src/POZNAN.ulice.txt)"/>
  </node>
  <node id="453979505" version="1" timestamp="2009-08-02T02:47:39Z" uid="20587" user="balrog-kun" changeset="2009336" lat="52.4385419" lon="16.8323706">
    <tag k="addr:city" v="Poznań"/>
    <tag k="addr:housenumber" v="29"/>
    <tag k="addr:street" v="Lubowska"/>
    <tag k="source" v="http://ump.waw.pl/ retrieved 15:05:23 06/30/09 (UMP-Poznan/src/POZNAN.ulice.txt)"/>
  </node>
  <node id="453979505" version="2" timestamp="2009-08-02T17:16:07Z" uid="20587" user="balrog-kun" changeset="2017141" lat="52.4385263" lon="16.8320354">
    <tag k="addr:city" v="Poznań"/>
    <tag k="addr:housenumber" v="29"/>
    <tag k="addr:street" v="Lubowska"/>
    <tag k="source" v="http://ump.waw.pl/ retrieved 15:05:23 06/30/09 (UMP-Poznan/src/POZNAN.ulice.txt)"/>
  </node>
  <node id="453979508" version="1" timestamp="2009-08-02T02:47:39Z" uid="20587" user="balrog-kun" changeset="2009336" lat="52.4407884" lon="16.8251084">
    <tag k="addr:city" v="Poznań"/>
    <tag k="addr:housenumber" v="69"/>
    <tag k="addr:street" v="Polanowska"/>
    <tag k="source" v="http://ump.waw.pl/ retrieved 15:05:23 06/30/09 (UMP-Poznan/src/POZNAN.ulice.txt)"/>
  </node>
  <node id="453979510" version="1" timestamp="2009-08-02T02:47:39Z" uid="20587" user="balrog-kun" changeset="2009336" lat="52.4402163" lon="16.8232717">
    <tag k="addr:city" v="Poznań"/>
    <tag k="addr:housenumber" v="5"/>
    <tag k="addr:street" v="Tczewska"/>
    <tag k="source" v="http://ump.waw.pl/ retrieved 15:05:23 06/30/09 (UMP-Poznan/src/POZNAN.ulice.txt)"/>
  </node>
  <node id="453979513" version="1" timestamp="2009-08-02T02:47:39Z" uid="20587" user="balrog-kun" changeset="2009336" lat="52.4399048" lon="16.8291062">
    <tag k="addr:city" v="Poznań"/>
    <tag k="addr:housenumber" v="14"/>
    <tag k="addr:street" v="Fromborska"/>
    <tag k="source" v="http://ump.waw.pl/ retrieved 15:05:23 06/30/09 (UMP-Poznan/src/POZNAN.ulice.txt)"/>
  </node>
  <node id="453979513" version="2" timestamp="2009-08-02T17:16:07Z" uid="20587" user="balrog-kun" changeset="2017141" lat="52.4400752" lon="16.8291845">
    <tag k="addr:city" v="Poznań"/>
    <tag k="addr:housenumber" v="14"/>
    <tag k="addr:street" v="Fromborska"/>
    <tag k="source" v="http://ump.waw.pl/ retrieved 15:05:23 06/30/09 (UMP-Poznan/src/POZNAN.ulice.txt)"/>
  </node>
  <node id="453979517" version="1" timestamp="2009-08-02T02:47:39Z" uid="20587" user="balrog-kun" changeset="2009336" lat="52.434383" lon="16.8130106">
    <tag k="addr:city" v="Poznań"/>
    <tag k="addr:housenumber" v="17"/>
    <tag k="addr:street" v="Łebska"/>
    <tag k="source" v="http://ump.waw.pl/ retrieved 15:05:23 06/30/09 (UMP-Poznan/src/POZNAN.ulice.txt)"/>
  </node>
  <node id="453979519" version="1" timestamp="2009-08-02T02:47:39Z" uid="20587" user="balrog-kun" changeset="2009336" lat="52.4329052" lon="16.8098455">
    <tag k="addr:city" v="Poznań"/>
    <tag k="addr:housenumber" v="34"/>
    <tag k="addr:street" v="Charzykowska"/>
    <tag k="source" v="http://ump.waw.pl/ retrieved 15:05:23 06/30/09 (UMP-Poznan/src/POZNAN.ulice.txt)"/>
  </node>
  <node id="453979522" version="1" timestamp="2009-08-02T02:47:39Z" uid="20587" user="balrog-kun" changeset="2009336" lat="52.4366892" lon="16.8302376">
    <tag k="addr:city" v="Poznań"/>
    <tag k="addr:housenumber" v="55"/>
    <tag k="addr:street" v="Trzebiatowska"/>
    <tag k="source" v="http://ump.waw.pl/ retrieved 15:05:23 06/30/09 (UMP-Poznan/src/POZNAN.ulice.txt)"/>
  </node>
  <node id="453979525" version="1" timestamp="2009-08-02T02:47:39Z" uid="20587" user="balrog-kun" changeset="2009336" lat="52.4370814" lon="16.8359918">
    <tag k="addr:city" v="Poznań"/>
    <tag k="addr:housenumber" v="24"/>
    <tag k="addr:street" v="Trzebiatowska"/>
    <tag k="source" v="http://ump.waw.pl/ retrieved 15:05:23 06/30/09 (UMP-Poznan/src/POZNAN.ulice.txt)"/>
  </node>
  <node id="453979527" version="1" timestamp="2009-08-02T02:47:39Z" uid="20587" user="balrog-kun" changeset="2009336" lat="52.4323624" lon="16.8144648">
    <tag k="addr:city" v="Poznań"/>
    <tag k="addr:housenumber" v="2"/>
    <tag k="addr:street" v="Człopska"/>
    <tag k="source" v="http://ump.waw.pl/ retrieved 15:05:23 06/30/09 (UMP-Poznan/src/POZNAN.ulice.txt)"/>
  </node>
  <node id="453979529" version="1" timestamp="2009-08-02T02:47:39Z" uid="20587" user="balrog-kun" changeset="2009336" lat="52.4398027" lon="16.8178118">
    <tag k="addr:city" v="Poznań"/>
    <tag k="addr:housenumber" v="9"/>
    <tag k="addr:street" v="Ornecka"/>
    <tag k="source" v="http://ump.waw.pl/ retrieved 15:05:23 06/30/09 (UMP-Poznan/src/POZNAN.ulice.txt)"/>
  </node>
  <node id="453979532" version="1" timestamp="2009-08-02T02:47:39Z" uid="20587" user="balrog-kun" changeset="2009336" lat="52.4332261" lon="16.81305">
    <tag k="addr:city" v="Poznań"/>
    <tag k="addr:housenumber" v="7"/>
    <tag k="addr:street" v="Łebska"/>
    <tag k="source" v="http://ump.waw.pl/ retrieved 15:05:23 06/30/09 (UMP-Poznan/src/POZNAN.ulice.txt)"/>
  </node>
  <node id="453979535" version="1" timestamp="2009-08-02T02:47:39Z" uid="20587" user="balrog-kun" changeset="2009336" lat="52.4394268" lon="16.8229284">
    <tag k="addr:city" v="Poznań"/>
    <tag k="addr:housenumber" v="14"/>
    <tag k="addr:street" v="Tczewska"/>
    <tag k="source" v="http://ump.waw.pl/ retrieved 15:05:23 06/30/09 (UMP-Poznan/src/POZNAN.ulice.txt)"/>
  </node>
  <node id="453979537" version="1" timestamp="2009-08-02T02:47:39Z" uid="20587" user="balrog-kun" changeset="2009336" lat="52.4362074" lon="16.8440656">
    <tag k="addr:city" v="Poznań"/>
    <tag k="addr:housenumber" v="38"/>
    <tag k="addr:street" v="Chodzieska"/>
    <tag k="source" v="http://ump.waw.pl/ retrieved 15:05:23 06/30/09 (UMP-Poznan/src/POZNAN.ulice.txt)"/>
  </node>
  <node id="453979540" version="1" timestamp="2009-08-02T02:47:40Z" uid="20587" user="balrog-kun" changeset="2009336" lat="52.4354061" lon="16.8202513">
    <tag k="addr:city" v="Poznań"/>
    <tag k="addr:housenumber" v="106"/>
    <tag k="addr:street" v="Sianowska"/>
    <tag k="source" v="http://ump.waw.pl/ retrieved 15:05:23 06/30/09 (UMP-Poznan/src/POZNAN.ulice.txt)"/>
  </node>
  <node id="453979542" version="1" timestamp="2009-08-02T02:47:40Z" uid="20587" user="balrog-kun" changeset="2009336" lat="52.431184" lon="16.8423189">
    <tag k="addr:city" v="Poznań"/>
    <tag k="addr:housenumber" v="349"/>
    <tag k="addr:street" v="Dąbrowskiego"/>
    <tag k="source" v="http://ump.waw.pl/ retrieved 15:05:23 06/30/09 (UMP-Poznan/src/POZNAN.ulice.txt)"/>
  </node>
  <node id="453979544" version="1" timestamp="2009-08-02T02:47:40Z" uid="20587" user="balrog-kun" changeset="2009336" lat="52.4346666" lon="16.8326257">
    <tag k="addr:city" v="Poznań"/>
    <tag k="addr:housenumber" v="13"/>
    <tag k="addr:street" v="Suliszewska"/>
    <tag k="source" v="http://ump.waw.pl/ retrieved 15:05:23 06/30/09 (UMP-Poznan/src/POZNAN.ulice.txt)"/>
  </node>
  <node id="453979547" version="1" timestamp="2009-08-02T02:47:40Z" uid="20587" user="balrog-kun" changeset="2009336" lat="52.4408603" lon="16.8330405">
    <tag k="addr:city" v="Poznań"/>
    <tag k="addr:housenumber" v="19"/>
    <tag k="addr:street" v="Mazurska"/>
    <tag k="source" v="http://ump.waw.pl/ retrieved 15:05:23 06/30/09 (UMP-Poznan/src/POZNAN.ulice.txt)"/>
  </node>
  <node id="453979549" version="1" timestamp="2009-08-02T02:47:40Z" uid="20587" user="balrog-kun" changeset="2009336" lat="52.434811" lon="16.8092525">
    <tag k="addr:city" v="Poznań"/>
    <tag k="addr:housenumber" v="16"/>
    <tag k="addr:street" v="Słupska"/>
    <tag k="source" v="http://ump.waw.pl/ retrieved 15:05:23 06/30/09 (UMP-Poznan/src/POZNAN.ulice.txt)"/>
  </node>
  <node id="453979551" version="1" timestamp="2009-08-02T02:47:40Z" uid="20587" user="balrog-kun" changeset="2009336" lat="52.4352017" lon="16.8134915">
    <tag k="addr:city" v="Poznań"/>
    <tag k="addr:housenumber" v="136"/>
    <tag k="addr:street" v="Sianowska"/>
    <tag k="source" v="http://ump.waw.pl/ retrieved 15:05:23 06/30/09 (UMP-Poznan/src/POZNAN.ulice.txt)"/>
  </node>
  <node id="453979554" version="1" timestamp="2009-08-02T02:47:40Z" uid="20587" user="balrog-kun" changeset="2009336" lat="52.4370175" lon="16.8226308">
    <tag k="addr:city" v="Poznań"/>
    <tag k="addr:housenumber" v="11"/>
    <tag k="addr:street" v="Tczewska"/>
    <tag k="source" v="http://ump.waw.pl/ retrieved 15:05:23 06/30/09 (UMP-Poznan/src/POZNAN.ulice.txt)"/>
  </node>
  <node id="453979557" version="1" timestamp="2009-08-02T02:47:40Z" uid="20587" user="balrog-kun" changeset="2009336" lat="52.4413266" lon="16.8294645">
    <tag k="addr:city" v="Poznań"/>
    <tag k="addr:housenumber" v="32"/>
    <tag k="addr:street" v="Polanowska"/>
    <tag k="source" v="http://ump.waw.pl/ retrieved 15:05:23 06/30/09 (UMP-Poznan/src/POZNAN.ulice.txt)"/>
  </node>
  <node id="453979559" version="1" timestamp="2009-08-02T02:47:40Z" uid="20587" user="balrog-kun" changeset="2009336" lat="52.4347939" lon="16.8399622">
    <tag k="addr:city" v="Poznań"/>
    <tag k="addr:housenumber" v="8"/>
    <tag k="addr:street" v="Białogardzka"/>
    <tag k="source" v="http://ump.waw.pl/ retrieved 15:05:23 06/30/09 (UMP-Poznan/src/POZNAN.ulice.txt)"/>
  </node>
  <node id="453979562" version="1" timestamp="2009-08-02T02:47:40Z" uid="20587" user="balrog-kun" changeset="2009336" lat="52.4389677" lon="16.8372991">
    <tag k="addr:city" v="Poznań"/>
    <tag k="addr:housenumber" v="10"/>
    <tag k="addr:street" v="Lubowska"/>
    <tag k="source" v="http://ump.waw.pl/ retrieved 15:05:23 06/30/09 (UMP-Poznan/src/POZNAN.ulice.txt)"/>
  </node>
  <node id="453979564" version="1" timestamp="2009-08-02T02:47:40Z" uid="20587" user="balrog-kun" changeset="2009336" lat="52.435552" lon="16.8092438">
    <tag k="addr:city" v="Poznań"/>
    <tag k="addr:housenumber" v="20"/>
    <tag k="addr:street" v="Słupska"/>
    <tag k="source" v="http://ump.waw.pl/ retrieved 15:05:23 06/30/09 (UMP-Poznan/src/POZNAN.ulice.txt)"/>
  </node>
  <node id="453979566" version="1" timestamp="2009-08-02T02:47:40Z" uid="20587" user="balrog-kun" changeset="2009336" lat="52.435891" lon="16.8308853">
    <tag k="addr:city" v="Poznań"/>
    <tag k="addr:housenumber" v="32"/>
    <tag k="addr:street" v="Santocka"/>
    <tag k="source" v="http://ump.waw.pl/ retrieved 15:05:23 06/30/09 (UMP-Poznan/src/POZNAN.ulice.txt)"/>
  </node>
  <node id="453979569" version="1" timestamp="2009-08-02T02:47:40Z" uid="20587" user="balrog-kun" changeset="2009336" lat="52.4342811" lon="16.8309857">
    <tag k="addr:city" v="Poznań"/>
    <tag k="addr:housenumber" v="18"/>
    <tag k="addr:street" v="Santocka"/>
    <tag k="source" v="http://ump.waw.pl/ retrieved 15:05:23 06/30/09 (UMP-Poznan/src/POZNAN.ulice.txt)"/>
  </node>
  <node id="453979571" version="1" timestamp="2009-08-02T02:47:40Z" uid="20587" user="balrog-kun" changeset="2009336" lat="52.4318445" lon="16.8388885">
    <tag k="addr:city" v="Poznań"/>
    <tag k="addr:housenumber" v="2"/>
    <tag k="addr:street" v="Kołobrzeska"/>
    <tag k="source" v="http://ump.waw.pl/ retrieved 15:05:23 06/30/09 (UMP-Poznan/src/POZNAN.ulice.txt)"/>
  </node>
  <node id="453979573" version="1" timestamp="2009-08-02T02:47:40Z" uid="20587" user="balrog-kun" changeset="2009336" lat="52.4374602" lon="16.8151762">
    <tag k="addr:city" v="Poznań"/>
    <tag k="addr:housenumber" v="79"/>
    <tag k="addr:street" v="Kościerzyńska"/>
    <tag k="source" v="http://ump.waw.pl/ retrieved 15:05:23 06/30/09 (UMP-Poznan/src/POZNAN.ulice.txt)"/>
  </node>
  <node id="453979576" version="1" timestamp="2009-08-02T02:47:40Z" uid="20587" user="balrog-kun" changeset="2009336" lat="52.4409299" lon="16.8359019">
    <tag k="addr:city" v="Poznań"/>
    <tag k="addr:housenumber" v="39"/>
    <tag k="addr:street" v="Maszewska"/>
    <tag k="source" v="http://ump.waw.pl/ retrieved 15:05:23 06/30/09 (UMP-Poznan/src/POZNAN.ulice.txt)"/>
  </node>
  <node id="453979580" version="1" timestamp="2009-08-02T02:47:40Z" uid="20587" user="balrog-kun" changeset="2009336" lat="52.4338442" lon="16.8433828">
    <tag k="addr:city" v="Poznań"/>
    <tag k="addr:housenumber" v="8"/>
    <tag k="addr:street" v="Budzyńska"/>
    <tag k="source" v="http://ump.waw.pl/ retrieved 15:05:23 06/30/09 (UMP-Poznan/src/POZNAN.ulice.txt)"/>
  </node>
  <node id="453979584" version="1" timestamp="2009-08-02T02:47:40Z" uid="20587" user="balrog-kun" changeset="2009336" lat="52.4354714" lon="16.8244576">
    <tag k="addr:city" v="Poznań"/>
    <tag k="addr:housenumber" v="92"/>
    <tag k="addr:street" v="Sianowska"/>
    <tag k="source" v="http://ump.waw.pl/ retrieved 15:05:23 06/30/09 (UMP-Poznan/src/POZNAN.ulice.txt)"/>
  </node>
  <node id="453979587" version="1" timestamp="2009-08-02T02:47:40Z" uid="20587" user="balrog-kun" changeset="2009336" lat="52.4322391" lon="16.8186923">
    <tag k="addr:city" v="Poznań"/>
    <tag k="addr:housenumber" v="485"/>
    <tag k="addr:street" v="Dąbrowskiego"/>
    <tag k="source" v="http://ump.waw.pl/ retrieved 15:05:23 06/30/09 (UMP-Poznan/src/POZNAN.ulice.txt)"/>
  </node>
  <node id="453979591" version="1" timestamp="2009-08-02T02:47:40Z" uid="20587" user="balrog-kun" changeset="2009336" lat="52.4343724" lon="16.8420181">
    <tag k="addr:city" v="Poznań"/>
    <tag k="addr:housenumber" v="29"/>
    <tag k="addr:street" v="Chodzieska"/>
    <tag k="source" v="http://ump.waw.pl/ retrieved 15:05:23 06/30/09 (UMP-Poznan/src/POZNAN.ulice.txt)"/>
  </node>
  <node id="453979594" version="1" timestamp="2009-08-02T02:47:41Z" uid="20587" user="balrog-kun" changeset="2009336" lat="52.4344781" lon="16.81103">
    <tag k="addr:city" v="Poznań"/>
    <tag k="addr:housenumber" v="30"/>
    <tag k="addr:street" v="Warpnowska"/>
    <tag k="source" v="http://ump.waw.pl/ retrieved 15:05:23 06/30/09 (UMP-Poznan/src/POZNAN.ulice.txt)"/>
  </node>
  <node id="453979598" version="1" timestamp="2009-08-02T02:47:41Z" uid="20587" user="balrog-kun" changeset="2009336" lat="52.4357317" lon="16.8417599">
    <tag k="addr:city" v="Poznań"/>
    <tag k="addr:housenumber" v="2"/>
    <tag k="addr:street" v="Trzcianecka"/>
    <tag k="source" v="http://ump.waw.pl/ retrieved 15:05:23 06/30/09 (UMP-Poznan/src/POZNAN.ulice.txt)"/>
  </node>
  <node id="453979598" version="2" timestamp="2009-08-02T17:16:07Z" uid="20587" user="balrog-kun" changeset="2017141" lat="52.4358429" lon="16.8419487">
    <tag k="addr:city" v="Poznań"/>
    <tag k="addr:housenumber" v="2"/>
    <tag k="addr:street" v="Trzcianecka"/>
    <tag k="source" v="http://ump.waw.pl/ retrieved 15:05:23 06/30/09 (UMP-Poznan/src/POZNAN.ulice.txt)"/>
  </node>
  <node id="453979602" version="1" timestamp="2009-08-02T02:47:41Z" uid="20587" user="balrog-kun" changeset="2009336" lat="52.4407898" lon="16.8301023">
    <tag k="addr:city" v="Poznań"/>
    <tag k="addr:housenumber" v="49"/>
    <tag k="addr:street" v="Santocka"/>
    <tag k="source" v="http://ump.waw.pl/ retrieved 15:05:23 06/30/09 (UMP-Poznan/src/POZNAN.ulice.txt)"/>
  </node>
  <node id="453979605" version="1" timestamp="2009-08-02T02:47:41Z" uid="20587" user="balrog-kun" changeset="2009336" lat="52.4355077" lon="16.8261595">
    <tag k="addr:city" v="Poznań"/>
    <tag k="addr:housenumber" v="80"/>
    <tag k="addr:street" v="Sianowska"/>
    <tag k="source" v="http://ump.waw.pl/ retrieved 15:05:23 06/30/09 (UMP-Poznan/src/POZNAN.ulice.txt)"/>
  </node>
  <node id="453979608" version="1" timestamp="2009-08-02T02:47:41Z" uid="20587" user="balrog-kun" changeset="2009336" lat="52.4391878" lon="16.8198435">
    <tag k="addr:city" v="Poznań"/>
    <tag k="addr:housenumber" v="56"/>
    <tag k="addr:street" v="Gniewska"/>
    <tag k="source" v="http://ump.waw.pl/ retrieved 15:05:23 06/30/09 (UMP-Poznan/src/POZNAN.ulice.txt)"/>
  </node>
  <node id="453979611" version="1" timestamp="2009-08-02T02:47:41Z" uid="20587" user="balrog-kun" changeset="2009336" lat="52.4390555" lon="16.809293">
    <tag k="addr:city" v="Poznań"/>
    <tag k="addr:housenumber" v="102"/>
    <tag k="addr:street" v="Łebska"/>
    <tag k="source" v="http://ump.waw.pl/ retrieved 15:05:23 06/30/09 (UMP-Poznan/src/POZNAN.ulice.txt)"/>
  </node>
  <node id="453979615" version="1" timestamp="2009-08-02T02:47:41Z" uid="20587" user="balrog-kun" changeset="2009336" lat="52.438695" lon="16.8145548">
    <tag k="addr:city" v="Poznań"/>
    <tag k="addr:housenumber" v="10"/>
    <tag k="addr:street" v="Oliwska"/>
    <tag k="source" v="http://ump.waw.pl/ retrieved 15:05:23 06/30/09 (UMP-Poznan/src/POZNAN.ulice.txt)"/>
  </node>
  <node id="453979618" version="1" timestamp="2009-08-02T02:47:41Z" uid="20587" user="balrog-kun" changeset="2009336" lat="52.4413603" lon="16.8309114">
    <tag k="addr:city" v="Poznań"/>
    <tag k="addr:housenumber" v="30"/>
    <tag k="addr:street" v="Polanowska"/>
    <tag k="source" v="http://ump.waw.pl/ retrieved 15:05:23 06/30/09 (UMP-Poznan/src/POZNAN.ulice.txt)"/>
  </node>
  <node id="453979621" version="1" timestamp="2009-08-02T02:47:41Z" uid="20587" user="balrog-kun" changeset="2009336" lat="52.4398798" lon="16.8202115">
    <tag k="addr:city" v="Poznań"/>
    <tag k="addr:housenumber" v="14"/>
    <tag k="addr:street" v="Pasłęcka"/>
    <tag k="source" v="http://ump.waw.pl/ retrieved 15:05:23 06/30/09 (UMP-Poznan/src/POZNAN.ulice.txt)"/>
  </node>
  <node id="453979621" version="2" timestamp="2009-08-02T17:16:07Z" uid="20587" user="balrog-kun" changeset="2017141" lat="52.44011" lon="16.8202201">
    <tag k="addr:city" v="Poznań"/>
    <tag k="addr:housenumber" v="14"/>
    <tag k="addr:street" v="Pasłęcka"/>
    <tag k="source" v="http://ump.waw.pl/ retrieved 15:05:23 06/30/09 (UMP-Poznan/src/POZNAN.ulice.txt)"/>
  </node>
  <node id="453979627" version="1" timestamp="2009-08-02T02:47:41Z" uid="20587" user="balrog-kun" changeset="2009336" lat="52.4390245" lon="16.81542">
    <tag k="addr:city" v="Poznań"/>
    <tag k="addr:housenumber" v="5"/>
    <tag k="addr:street" v="Świecka"/>
    <tag k="source" v="http://ump.waw.pl/ retrieved 15:05:23 06/30/09 (UMP-Poznan/src/POZNAN.ulice.txt)"/>
  </node>
  <node id="453979630" version="1" timestamp="2009-08-02T02:47:41Z" uid="20587" user="balrog-kun" changeset="2009336" lat="52.4346793" lon="16.840321">
    <tag k="addr:city" v="Poznań"/>
    <tag k="addr:housenumber" v="6"/>
    <tag k="addr:street" v="Białogardzka"/>
    <tag k="source" v="http://ump.waw.pl/ retrieved 15:05:23 06/30/09 (UMP-Poznan/src/POZNAN.ulice.txt)"/>
  </node>
  <node id="453979634" version="1" timestamp="2009-08-02T02:47:41Z" uid="20587" user="balrog-kun" changeset="2009336" lat="52.4310866" lon="16.8428714">
    <tag k="addr:city" v="Poznań"/>
    <tag k="addr:housenumber" v="343"/>
    <tag k="addr:street" v="Dąbrowskiego"/>
    <tag k="source" v="http://ump.waw.pl/ retrieved 15:05:23 06/30/09 (UMP-Poznan/src/POZNAN.ulice.txt)"/>
  </node>
  <node id="453979638" version="1" timestamp="2009-08-02T02:47:41Z" uid="20587" user="balrog-kun" changeset="2009336" lat="52.4347682" lon="16.830955">
    <tag k="addr:city" v="Poznań"/>
    <tag k="addr:housenumber" v="22"/>
    <tag k="addr:street" v="Santocka"/>
    <tag k="source" v="http://ump.waw.pl/ retrieved 15:05:23 06/30/09 (UMP-Poznan/src/POZNAN.ulice.txt)"/>
  </node>
  <node id="453979642" version="1" timestamp="2009-08-02T02:47:41Z" uid="20587" user="balrog-kun" changeset="2009336" lat="52.4382412" lon="16.8235801">
    <tag k="addr:city" v="Poznań"/>
    <tag k="addr:housenumber" v="79"/>
    <tag k="addr:street" v="Lubowska"/>
    <tag k="source" v="http://ump.waw.pl/ retrieved 15:05:23 06/30/09 (UMP-Poznan/src/POZNAN.ulice.txt)"/>
  </node>
  <node id="453979646" version="1" timestamp="2009-08-02T02:47:41Z" uid="20587" user="balrog-kun" changeset="2009336" lat="52.4346224" lon="16.8409208">
    <tag k="addr:city" v="Poznań"/>
    <tag k="addr:housenumber" v="27"/>
    <tag k="addr:street" v="Kołobrzeska"/>
    <tag k="source" v="http://ump.waw.pl/ retrieved 15:05:23 06/30/09 (UMP-Poznan/src/POZNAN.ulice.txt)"/>
  </node>
  <node id="453979650" version="1" timestamp="2009-08-02T02:47:41Z" uid="20587" user="balrog-kun" changeset="2009336" lat="52.4391953" lon="16.8125921">
    <tag k="addr:city" v="Poznań"/>
    <tag k="addr:housenumber" v="21"/>
    <tag k="addr:street" v="Oliwska"/>
    <tag k="source" v="http://ump.waw.pl/ retrieved 15:05:23 06/30/09 (UMP-Poznan/src/POZNAN.ulice.txt)"/>
  </node>
  <node id="453979654" version="1" timestamp="2009-08-02T02:47:41Z" uid="20587" user="balrog-kun" changeset="2009336" lat="52.437673" lon="16.8412793">
    <tag k="addr:city" v="Poznań"/>
    <tag k="addr:housenumber" v="17"/>
    <tag k="addr:street" v="Człuchowska"/>
    <tag k="source" v="http://ump.waw.pl/ retrieved 15:05:23 06/30/09 (UMP-Poznan/src/POZNAN.ulice.txt)"/>
  </node>
  <node id="453979695" version="1" timestamp="2009-08-02T02:47:42Z" uid="20587" user="balrog-kun" changeset="2009336" lat="52.4355172" lon="16.8350362">
    <tag k="addr:city" v="Poznań"/>
    <tag k="addr:housenumber" v="34"/>
    <tag k="addr:street" v="Sianowska"/>
    <tag k="source" v="http://ump.waw.pl/ retrieved 15:05:23 06/30/09 (UMP-Poznan/src/POZNAN.ulice.txt)"/>
  </node>
  <node id="453979695" version="2" timestamp="2009-08-02T17:16:10Z" uid="20587" user="balrog-kun" changeset="2017141" lat="52.4355195" lon="16.8350361">
    <tag k="addr:city" v="Poznań"/>
    <tag k="addr:housenumber" v="34"/>
    <tag k="addr:street" v="Sianowska"/>
    <tag k="source" v="http://ump.waw.pl/ retrieved 15:05:23 06/30/09 (UMP-Poznan/src/POZNAN.ulice.txt)"/>
  </node>
  <node id="453979698" version="1" timestamp="2009-08-02T02:47:42Z" uid="20587" user="balrog-kun" changeset="2009336" lat="52.4405363" lon="16.8372848">
    <tag k="addr:city" v="Poznań"/>
    <tag k="addr:housenumber" v="17"/>
    <tag k="addr:street" v="Czaplinecka"/>
    <tag k="source" v="http://ump.waw.pl/ retrieved 15:05:23 06/30/09 (UMP-Poznan/src/POZNAN.ulice.txt)"/>
  </node>
  <node id="453979700" version="1" timestamp="2009-08-02T02:47:42Z" uid="20587" user="balrog-kun" changeset="2009336" lat="52.4394082" lon="16.8259655">
    <tag k="addr:city" v="Poznań"/>
    <tag k="addr:housenumber" v="16"/>
    <tag k="addr:street" v="Gniewska"/>
    <tag k="source" v="http://ump.waw.pl/ retrieved 15:05:23 06/30/09 (UMP-Poznan/src/POZNAN.ulice.txt)"/>
  </node>
  <node id="453979703" version="1" timestamp="2009-08-02T02:47:42Z" uid="20587" user="balrog-kun" changeset="2009336" lat="52.4406187" lon="16.8232582">
    <tag k="addr:city" v="Poznań"/>
    <tag k="addr:housenumber" v="3"/>
    <tag k="addr:street" v="Tczewska"/>
    <tag k="source" v="http://ump.waw.pl/ retrieved 15:05:23 06/30/09 (UMP-Poznan/src/POZNAN.ulice.txt)"/>
  </node>
  <node id="453979705" version="1" timestamp="2009-08-02T02:47:42Z" uid="20587" user="balrog-kun" changeset="2009336" lat="52.4374985" lon="16.8178744">
    <tag k="addr:city" v="Poznań"/>
    <tag k="addr:housenumber" v="14"/>
    <tag k="addr:street" v="Mrzeżyńska"/>
    <tag k="source" v="http://ump.waw.pl/ retrieved 15:05:23 06/30/09 (UMP-Poznan/src/POZNAN.ulice.txt)"/>
  </node>
  <node id="453979707" version="1" timestamp="2009-08-02T02:47:43Z" uid="20587" user="balrog-kun" changeset="2009336" lat="52.4361255" lon="16.8199159">
    <tag k="addr:city" v="Poznań"/>
    <tag k="addr:housenumber" v="50"/>
    <tag k="addr:street" v="Łagowska"/>
    <tag k="source" v="http://ump.waw.pl/ retrieved 15:05:23 06/30/09 (UMP-Poznan/src/POZNAN.ulice.txt)"/>
  </node>
  <node id="453979711" version="1" timestamp="2009-08-02T02:47:43Z" uid="20587" user="balrog-kun" changeset="2009336" lat="52.4355323" lon="16.8293119">
    <tag k="addr:city" v="Poznań"/>
    <tag k="addr:housenumber" v="64"/>
    <tag k="addr:street" v="Sianowska"/>
    <tag k="source" v="http://ump.waw.pl/ retrieved 15:05:23 06/30/09 (UMP-Poznan/src/POZNAN.ulice.txt)"/>
  </node>
  <node id="453979713" version="1" timestamp="2009-08-02T02:47:43Z" uid="20587" user="balrog-kun" changeset="2009336" lat="52.4341064" lon="16.8093243">
    <tag k="addr:city" v="Poznań"/>
    <tag k="addr:housenumber" v="14"/>
    <tag k="addr:street" v="Słupska"/>
    <tag k="source" v="http://ump.waw.pl/ retrieved 15:05:23 06/30/09 (UMP-Poznan/src/POZNAN.ulice.txt)"/>
  </node>
  <node id="453979716" version="1" timestamp="2009-08-02T02:47:43Z" uid="20587" user="balrog-kun" changeset="2009336" lat="52.4329155" lon="16.8394015">
    <tag k="addr:city" v="Poznań"/>
    <tag k="addr:housenumber" v="11"/>
    <tag k="addr:street" v="Kołobrzeska"/>
    <tag k="source" v="http://ump.waw.pl/ retrieved 15:05:23 06/30/09 (UMP-Poznan/src/POZNAN.ulice.txt)"/>
  </node>
  <node id="453979718" version="1" timestamp="2009-08-02T02:47:43Z" uid="20587" user="balrog-kun" changeset="2009336" lat="52.4389458" lon="16.8366778">
    <tag k="addr:city" v="Poznań"/>
    <tag k="addr:housenumber" v="16"/>
    <tag k="addr:street" v="Lubowska"/>
    <tag k="source" v="http://ump.waw.pl/ retrieved 15:05:23 06/30/09 (UMP-Poznan/src/POZNAN.ulice.txt)"/>
  </node>
  <node id="453979721" version="1" timestamp="2009-08-02T02:47:43Z" uid="20587" user="balrog-kun" changeset="2009336" lat="52.43738" lon="16.8252769">
    <tag k="addr:city" v="Poznań"/>
    <tag k="addr:housenumber" v="79"/>
    <tag k="addr:street" v="Myśliborska"/>
    <tag k="source" v="http://ump.waw.pl/ retrieved 15:05:23 06/30/09 (UMP-Poznan/src/POZNAN.ulice.txt)"/>
  </node>
  <node id="453979723" version="1" timestamp="2009-08-02T02:47:43Z" uid="20587" user="balrog-kun" changeset="2009336" lat="52.4345152" lon="16.8408191">
    <tag k="addr:city" v="Poznań"/>
    <tag k="addr:housenumber" v="2"/>
    <tag k="addr:street" v="Białogardzka"/>
    <tag k="source" v="http://ump.waw.pl/ retrieved 15:05:23 06/30/09 (UMP-Poznan/src/POZNAN.ulice.txt)"/>
  </node>
  <node id="453979725" version="1" timestamp="2009-08-02T02:47:43Z" uid="20587" user="balrog-kun" changeset="2009336" lat="52.434454" lon="16.8094047">
    <tag k="addr:city" v="Poznań"/>
    <tag k="addr:housenumber" v="4"/>
    <tag k="addr:street" v="Warpnowska"/>
    <tag k="source" v="http://ump.waw.pl/ retrieved 15:05:23 06/30/09 (UMP-Poznan/src/POZNAN.ulice.txt)"/>
  </node>
  <node id="453979728" version="1" timestamp="2009-08-02T02:47:43Z" uid="20587" user="balrog-kun" changeset="2009336" lat="52.4402465" lon="16.8112558">
    <tag k="addr:city" v="Poznań"/>
    <tag k="addr:housenumber" v="46"/>
    <tag k="addr:street" v="Oliwska"/>
    <tag k="source" v="http://ump.waw.pl/ retrieved 15:05:23 06/30/09 (UMP-Poznan/src/POZNAN.ulice.txt)"/>
  </node>
  <node id="453979731" version="1" timestamp="2009-08-02T02:47:43Z" uid="20587" user="balrog-kun" changeset="2009336" lat="52.4397199" lon="16.8229021">
    <tag k="addr:city" v="Poznań"/>
    <tag k="addr:housenumber" v="8"/>
    <tag k="addr:street" v="Tczewska"/>
    <tag k="source" v="http://ump.waw.pl/ retrieved 15:05:23 06/30/09 (UMP-Poznan/src/POZNAN.ulice.txt)"/>
  </node>
  <node id="453979733" version="1" timestamp="2009-08-02T02:47:43Z" uid="20587" user="balrog-kun" changeset="2009336" lat="52.4405336" lon="16.8377526">
    <tag k="addr:city" v="Poznań"/>
    <tag k="addr:housenumber" v="16"/>
    <tag k="addr:street" v="Czaplinecka"/>
    <tag k="source" v="http://ump.waw.pl/ retrieved 15:05:23 06/30/09 (UMP-Poznan/src/POZNAN.ulice.txt)"/>
  </node>
  <node id="453979736" version="1" timestamp="2009-08-02T02:47:43Z" uid="20587" user="balrog-kun" changeset="2009336" lat="52.4363895" lon="16.8368336">
    <tag k="addr:city" v="Poznań"/>
    <tag k="addr:housenumber" v="20"/>
    <tag k="addr:street" v="Lęborska"/>
    <tag k="source" v="http://ump.waw.pl/ retrieved 15:05:23 06/30/09 (UMP-Poznan/src/POZNAN.ulice.txt)"/>
  </node>
  <node id="453979738" version="1" timestamp="2009-08-02T02:47:43Z" uid="20587" user="balrog-kun" changeset="2009336" lat="52.4365832" lon="16.8253341">
    <tag k="addr:city" v="Poznań"/>
    <tag k="addr:housenumber" v="77"/>
    <tag k="addr:street" v="Trzebiatowska"/>
    <tag k="source" v="http://ump.waw.pl/ retrieved 15:05:23 06/30/09 (UMP-Poznan/src/POZNAN.ulice.txt)"/>
  </node>
  <node id="453979741" version="1" timestamp="2009-08-02T02:47:43Z" uid="20587" user="balrog-kun" changeset="2009336" lat="52.4393249" lon="16.8235386">
    <tag k="addr:city" v="Poznań"/>
    <tag k="addr:housenumber" v="32"/>
    <tag k="addr:street" v="Gniewska"/>
    <tag k="source" v="http://ump.waw.pl/ retrieved 15:05:23 06/30/09 (UMP-Poznan/src/POZNAN.ulice.txt)"/>
  </node>
  <node id="453979743" version="1" timestamp="2009-08-02T02:47:43Z" uid="20587" user="balrog-kun" changeset="2009336" lat="52.4333148" lon="16.8434523">
    <tag k="addr:city" v="Poznań"/>
    <tag k="addr:housenumber" v="13"/>
    <tag k="addr:street" v="Rogozińska"/>
    <tag k="source" v="http://ump.waw.pl/ retrieved 15:05:23 06/30/09 (UMP-Poznan/src/POZNAN.ulice.txt)"/>
  </node>
  <node id="453979745" version="1" timestamp="2009-08-02T02:47:43Z" uid="20587" user="balrog-kun" changeset="2009336" lat="52.4323239" lon="16.8408383">
    <tag k="addr:city" v="Poznań"/>
    <tag k="addr:housenumber" v="4"/>
    <tag k="addr:street" v="Chodzieska"/>
    <tag k="source" v="http://ump.waw.pl/ retrieved 15:05:23 06/30/09 (UMP-Poznan/src/POZNAN.ulice.txt)"/>
  </node>
  <node id="453979748" version="1" timestamp="2009-08-02T02:47:43Z" uid="20587" user="balrog-kun" changeset="2009336" lat="52.4336571" lon="16.8425382">
    <tag k="addr:city" v="Poznań"/>
    <tag k="addr:housenumber" v="19"/>
    <tag k="addr:street" v="Białośliwska"/>
    <tag k="source" v="http://ump.waw.pl/ retrieved 15:05:23 06/30/09 (UMP-Poznan/src/POZNAN.ulice.txt)"/>
  </node>
  <node id="453979750" version="1" timestamp="2009-08-02T02:47:43Z" uid="20587" user="balrog-kun" changeset="2009336" lat="52.4393879" lon="16.8146638">
    <tag k="addr:city" v="Poznań"/>
    <tag k="addr:housenumber" v="13"/>
    <tag k="addr:street" v="Świecka"/>
    <tag k="source" v="http://ump.waw.pl/ retrieved 15:05:23 06/30/09 (UMP-Poznan/src/POZNAN.ulice.txt)"/>
  </node>
  <node id="453979753" version="1" timestamp="2009-08-02T02:47:43Z" uid="20587" user="balrog-kun" changeset="2009336" lat="52.4375076" lon="16.8301691">
    <tag k="addr:city" v="Poznań"/>
    <tag k="addr:housenumber" v="47"/>
    <tag k="addr:street" v="Myśliborska"/>
    <tag k="source" v="http://ump.waw.pl/ retrieved 15:05:23 06/30/09 (UMP-Poznan/src/POZNAN.ulice.txt)"/>
  </node>
  <node id="453979756" version="1" timestamp="2009-08-02T02:47:44Z" uid="20587" user="balrog-kun" changeset="2009336" lat="52.4376424" lon="16.8260609">
    <tag k="addr:city" v="Poznań"/>
    <tag k="addr:housenumber" v="70"/>
    <tag k="addr:street" v="Myśliborska"/>
    <tag k="source" v="http://ump.waw.pl/ retrieved 15:05:23 06/30/09 (UMP-Poznan/src/POZNAN.ulice.txt)"/>
  </node>
  <node id="453979758" version="1" timestamp="2009-08-02T02:47:44Z" uid="20587" user="balrog-kun" changeset="2009336" lat="52.4353154" lon="16.8428716">
    <tag k="addr:city" v="Poznań"/>
    <tag k="addr:housenumber" v="37"/>
    <tag k="addr:street" v="Chodzieska"/>
    <tag k="source" v="http://ump.waw.pl/ retrieved 15:05:23 06/30/09 (UMP-Poznan/src/POZNAN.ulice.txt)"/>
  </node>
  <node id="453979760" version="1" timestamp="2009-08-02T02:47:44Z" uid="20587" user="balrog-kun" changeset="2009336" lat="52.4355188" lon="16.8275793">
    <tag k="addr:city" v="Poznań"/>
    <tag k="addr:housenumber" v="72"/>
    <tag k="addr:street" v="Sianowska"/>
    <tag k="source" v="http://ump.waw.pl/ retrieved 15:05:23 06/30/09 (UMP-Poznan/src/POZNAN.ulice.txt)"/>
  </node>
  <node id="453979763" version="1" timestamp="2009-08-02T02:47:44Z" uid="20587" user="balrog-kun" changeset="2009336" lat="52.4338064" lon="16.8424336">
    <tag k="addr:city" v="Poznań"/>
    <tag k="addr:housenumber" v="3"/>
    <tag k="addr:street" v="Budzyńska"/>
    <tag k="source" v="http://ump.waw.pl/ retrieved 15:05:23 06/30/09 (UMP-Poznan/src/POZNAN.ulice.txt)"/>
  </node>
  <node id="453979765" version="1" timestamp="2009-08-02T02:47:44Z" uid="20587" user="balrog-kun" changeset="2009336" lat="52.4363728" lon="16.8360329">
    <tag k="addr:city" v="Poznań"/>
    <tag k="addr:housenumber" v="22"/>
    <tag k="addr:street" v="Lęborska"/>
    <tag k="source" v="http://ump.waw.pl/ retrieved 15:05:23 06/30/09 (UMP-Poznan/src/POZNAN.ulice.txt)"/>
  </node>
  <node id="453979767" version="1" timestamp="2009-08-02T02:47:44Z" uid="20587" user="balrog-kun" changeset="2009336" lat="52.4311476" lon="16.8448977">
    <tag k="addr:city" v="Poznań"/>
    <tag k="addr:housenumber" v="8"/>
    <tag k="addr:street" v="Czarnkowska"/>
    <tag k="source" v="http://ump.waw.pl/ retrieved 15:05:23 06/30/09 (UMP-Poznan/src/POZNAN.ulice.txt)"/>
  </node>
  <node id="453979770" version="1" timestamp="2009-08-02T02:47:44Z" uid="20587" user="balrog-kun" changeset="2009336" lat="52.4348076" lon="16.8415492">
    <tag k="addr:city" v="Poznań"/>
    <tag k="addr:housenumber" v="34"/>
    <tag k="addr:street" v="Kołobrzeska"/>
    <tag k="source" v="http://ump.waw.pl/ retrieved 15:05:23 06/30/09 (UMP-Poznan/src/POZNAN.ulice.txt)"/>
  </node>
  <node id="453979770" version="2" timestamp="2009-08-02T17:16:10Z" uid="20587" user="balrog-kun" changeset="2017141" lat="52.4347763" lon="16.8417123">
    <tag k="addr:city" v="Poznań"/>
    <tag k="addr:housenumber" v="34"/>
    <tag k="addr:street" v="Kołobrzeska"/>
    <tag k="source" v="http://ump.waw.pl/ retrieved 15:05:23 06/30/09 (UMP-Poznan/src/POZNAN.ulice.txt)"/>
  </node>
  <node id="453979774" version="1" timestamp="2009-08-02T02:47:44Z" uid="20587" user="balrog-kun" changeset="2009336" lat="52.4392034" lon="16.82044">
    <tag k="addr:city" v="Poznań"/>
    <tag k="addr:housenumber" v="52"/>
    <tag k="addr:street" v="Gniewska"/>
    <tag k="source" v="http://ump.waw.pl/ retrieved 15:05:23 06/30/09 (UMP-Poznan/src/POZNAN.ulice.txt)"/>
  </node>
  <node id="453979778" version="1" timestamp="2009-08-02T02:47:44Z" uid="20587" user="balrog-kun" changeset="2009336" lat="52.4307305" lon="16.8446245">
    <tag k="addr:city" v="Poznań"/>
    <tag k="addr:housenumber" v="2"/>
    <tag k="addr:street" v="Czarnkowska"/>
    <tag k="source" v="http://ump.waw.pl/ retrieved 15:05:23 06/30/09 (UMP-Poznan/src/POZNAN.ulice.txt)"/>
  </node>
  <node id="453979782" version="1" timestamp="2009-08-02T02:47:44Z" uid="20587" user="balrog-kun" changeset="2009336" lat="52.4360928" lon="16.842889">
    <tag k="addr:city" v="Poznań"/>
    <tag k="addr:housenumber" v="1"/>
    <tag k="addr:street" v="Człuchowska"/>
    <tag k="source" v="http://ump.waw.pl/ retrieved 15:05:23 06/30/09 (UMP-Poznan/src/POZNAN.ulice.txt)"/>
  </node>
  <node id="453979782" version="2" timestamp="2009-08-02T17:16:10Z" uid="20587" user="balrog-kun" changeset="2017141" lat="52.4360601" lon="16.8428354">
    <tag k="addr:city" v="Poznań"/>
    <tag k="addr:housenumber" v="1"/>
    <tag k="addr:street" v="Człuchowska"/>
    <tag k="source" v="http://ump.waw.pl/ retrieved 15:05:23 06/30/09 (UMP-Poznan/src/POZNAN.ulice.txt)"/>
  </node>
  <node id="453979785" version="1" timestamp="2009-08-02T02:47:44Z" uid="20587" user="balrog-kun" changeset="2009336" lat="52.4335025" lon="16.8304905">
    <tag k="addr:city" v="Poznań"/>
    <tag k="addr:housenumber" v="7"/>
    <tag k="addr:street" v="Santocka"/>
    <tag k="source" v="http://ump.waw.pl/ retrieved 15:05:23 06/30/09 (UMP-Poznan/src/POZNAN.ulice.txt)"/>
  </node>
  <node id="453979788" version="1" timestamp="2009-08-02T02:47:44Z" uid="20587" user="balrog-kun" changeset="2009336" lat="52.4398103" lon="16.8132046">
    <tag k="addr:city" v="Poznań"/>
    <tag k="addr:housenumber" v="35"/>
    <tag k="addr:street" v="Świecka"/>
    <tag k="source" v="http://ump.waw.pl/ retrieved 15:05:23 06/30/09 (UMP-Poznan/src/POZNAN.ulice.txt)"/>
  </node>
  <node id="453979792" version="1" timestamp="2009-08-02T02:47:44Z" uid="20587" user="balrog-kun" changeset="2009336" lat="52.4354063" lon="16.8168929">
    <tag k="addr:city" v="Poznań"/>
    <tag k="addr:housenumber" v="26"/>
    <tag k="addr:street" v="Kościerzyńska"/>
    <tag k="source" v="http://ump.waw.pl/ retrieved 15:05:23 06/30/09 (UMP-Poznan/src/POZNAN.ulice.txt)"/>
  </node>
  <node id="453979795" version="1" timestamp="2009-08-02T02:47:44Z" uid="20587" user="balrog-kun" changeset="2009336" lat="52.4406137" lon="16.8228583">
    <tag k="addr:city" v="Poznań"/>
    <tag k="addr:housenumber" v="2"/>
    <tag k="addr:street" v="Tczewska"/>
    <tag k="source" v="http://ump.waw.pl/ retrieved 15:05:23 06/30/09 (UMP-Poznan/src/POZNAN.ulice.txt)"/>
  </node>
  <node id="453979799" version="1" timestamp="2009-08-02T02:47:44Z" uid="20587" user="balrog-kun" changeset="2009336" lat="52.4375295" lon="16.8309689">
    <tag k="addr:city" v="Poznań"/>
    <tag k="addr:housenumber" v="45"/>
    <tag k="addr:street" v="Myśliborska"/>
    <tag k="source" v="http://ump.waw.pl/ retrieved 15:05:23 06/30/09 (UMP-Poznan/src/POZNAN.ulice.txt)"/>
  </node>
  <node id="453979803" version="1" timestamp="2009-08-02T02:47:44Z" uid="20587" user="balrog-kun" changeset="2009336" lat="52.4404381" lon="16.8106486">
    <tag k="addr:city" v="Poznań"/>
    <tag k="addr:housenumber" v="167"/>
    <tag k="addr:street" v="Polanowska"/>
    <tag k="source" v="http://ump.waw.pl/ retrieved 15:05:23 06/30/09 (UMP-Poznan/src/POZNAN.ulice.txt)"/>
  </node>
  <node id="453979806" version="1" timestamp="2009-08-02T02:47:44Z" uid="20587" user="balrog-kun" changeset="2009336" lat="52.4308617" lon="16.8440109">
    <tag k="addr:city" v="Poznań"/>
    <tag k="addr:housenumber" v="1"/>
    <tag k="addr:street" v="Czarnkowska"/>
    <tag k="source" v="http://ump.waw.pl/ retrieved 15:05:23 06/30/09 (UMP-Poznan/src/POZNAN.ulice.txt)"/>
  </node>
  <node id="453979810" version="1" timestamp="2009-08-02T02:47:44Z" uid="20587" user="balrog-kun" changeset="2009336" lat="52.4390601" lon="16.8364681">
    <tag k="addr:city" v="Poznań"/>
    <tag k="addr:housenumber" v="22"/>
    <tag k="addr:street" v="Maszewska"/>
    <tag k="source" v="http://ump.waw.pl/ retrieved 15:05:23 06/30/09 (UMP-Poznan/src/POZNAN.ulice.txt)"/>
  </node>
  <node id="453979814" version="1" timestamp="2009-08-02T02:47:44Z" uid="20587" user="balrog-kun" changeset="2009336" lat="52.4366214" lon="16.841117">
    <tag k="addr:city" v="Poznań"/>
    <tag k="addr:housenumber" v="8"/>
    <tag k="addr:street" v="Trzcianecka"/>
    <tag k="source" v="http://ump.waw.pl/ retrieved 15:05:23 06/30/09 (UMP-Poznan/src/POZNAN.ulice.txt)"/>
  </node>
  <node id="453979814" version="2" timestamp="2009-08-02T17:16:10Z" uid="20587" user="balrog-kun" changeset="2017141" lat="52.4366018" lon="16.8412543">
    <tag k="addr:city" v="Poznań"/>
    <tag k="addr:housenumber" v="8"/>
    <tag k="addr:street" v="Trzcianecka"/>
    <tag k="source" v="http://ump.waw.pl/ retrieved 15:05:23 06/30/09 (UMP-Poznan/src/POZNAN.ulice.txt)"/>
  </node>
  <node id="453979817" version="1" timestamp="2009-08-02T02:47:44Z" uid="20587" user="balrog-kun" changeset="2009336" lat="52.4405904" lon="16.8316001">
    <tag k="addr:city" v="Poznań"/>
    <tag k="addr:housenumber" v="15"/>
    <tag k="addr:street" v="Zagórzycka"/>
    <tag k="source" v="http://ump.waw.pl/ retrieved 15:05:23 06/30/09 (UMP-Poznan/src/POZNAN.ulice.txt)"/>
  </node>
  <node id="453979821" version="1" timestamp="2009-08-02T02:47:45Z" uid="20587" user="balrog-kun" changeset="2009336" lat="52.4333507" lon="16.8095396">
    <tag k="addr:city" v="Poznań"/>
    <tag k="addr:housenumber" v="41"/>
    <tag k="addr:street" v="Izbicka"/>
    <tag k="source" v="http://ump.waw.pl/ retrieved 15:05:23 06/30/09 (UMP-Poznan/src/POZNAN.ulice.txt)"/>
  </node>
  <node id="453979825" version="1" timestamp="2009-08-02T02:47:45Z" uid="20587" user="balrog-kun" changeset="2009336" lat="52.4372102" lon="16.8361885">
    <tag k="addr:city" v="Poznań"/>
    <tag k="addr:housenumber" v="9"/>
    <tag k="addr:street" v="Maszewska"/>
    <tag k="source" v="http://ump.waw.pl/ retrieved 15:05:23 06/30/09 (UMP-Poznan/src/POZNAN.ulice.txt)"/>
  </node>
  <node id="453979829" version="1" timestamp="2009-08-02T02:47:45Z" uid="20587" user="balrog-kun" changeset="2009336" lat="52.4409431" lon="16.8363013">
    <tag k="addr:city" v="Poznań"/>
    <tag k="addr:housenumber" v="50"/>
    <tag k="addr:street" v="Maszewska"/>
    <tag k="source" v="http://ump.waw.pl/ retrieved 15:05:23 06/30/09 (UMP-Poznan/src/POZNAN.ulice.txt)"/>
  </node>
  <node id="453979832" version="1" timestamp="2009-08-02T02:47:45Z" uid="20587" user="balrog-kun" changeset="2009336" lat="52.440307" lon="16.8200324">
    <tag k="addr:city" v="Poznań"/>
    <tag k="addr:housenumber" v="16"/>
    <tag k="addr:street" v="Pasłęcka"/>
    <tag k="source" v="http://ump.waw.pl/ retrieved 15:05:23 06/30/09 (UMP-Poznan/src/POZNAN.ulice.txt)"/>
  </node>
  <node id="453979836" version="1" timestamp="2009-08-02T02:47:45Z" uid="20587" user="balrog-kun" changeset="2009336" lat="52.4387854" lon="16.8323482">
    <tag k="addr:city" v="Poznań"/>
    <tag k="addr:housenumber" v="40"/>
    <tag k="addr:street" v="Lubowska"/>
    <tag k="source" v="http://ump.waw.pl/ retrieved 15:05:23 06/30/09 (UMP-Poznan/src/POZNAN.ulice.txt)"/>
  </node>
  <node id="453979841" version="1" timestamp="2009-08-02T02:47:45Z" uid="20587" user="balrog-kun" changeset="2009336" lat="52.4355382" lon="16.8300821">
    <tag k="addr:city" v="Poznań"/>
    <tag k="addr:housenumber" v="58"/>
    <tag k="addr:street" v="Sianowska"/>
    <tag k="source" v="http://ump.waw.pl/ retrieved 15:05:23 06/30/09 (UMP-Poznan/src/POZNAN.ulice.txt)"/>
  </node>
  <node id="453979845" version="1" timestamp="2009-08-02T02:47:45Z" uid="20587" user="balrog-kun" changeset="2009336" lat="52.4400086" lon="16.8284882">
    <tag k="addr:city" v="Poznań"/>
    <tag k="addr:housenumber" v="1"/>
    <tag k="addr:street" v="Pucka"/>
    <tag k="source" v="http://ump.waw.pl/ retrieved 15:05:23 06/30/09 (UMP-Poznan/src/POZNAN.ulice.txt)"/>
  </node>
  <node id="453979849" version="1" timestamp="2009-08-02T02:47:45Z" uid="20587" user="balrog-kun" changeset="2009336" lat="52.4389088" lon="16.835638">
    <tag k="addr:city" v="Poznań"/>
    <tag k="addr:housenumber" v="20"/>
    <tag k="addr:street" v="Lubowska"/>
    <tag k="source" v="http://ump.waw.pl/ retrieved 15:05:23 06/30/09 (UMP-Poznan/src/POZNAN.ulice.txt)"/>
  </node>
  <node id="453979849" version="2" timestamp="2009-08-02T17:16:10Z" uid="20587" user="balrog-kun" changeset="2017141" lat="52.4389104" lon="16.8357275">
    <tag k="addr:city" v="Poznań"/>
    <tag k="addr:housenumber" v="20"/>
    <tag k="addr:street" v="Lubowska"/>
    <tag k="source" v="http://ump.waw.pl/ retrieved 15:05:23 06/30/09 (UMP-Poznan/src/POZNAN.ulice.txt)"/>
  </node>
  <node id="453979853" version="1" timestamp="2009-08-02T02:47:45Z" uid="20587" user="balrog-kun" changeset="2009336" lat="52.4388081" lon="16.8330094">
    <tag k="addr:city" v="Poznań"/>
    <tag k="addr:housenumber" v="34"/>
    <tag k="addr:street" v="Lubowska"/>
    <tag k="source" v="http://ump.waw.pl/ retrieved 15:05:23 06/30/09 (UMP-Poznan/src/POZNAN.ulice.txt)"/>
  </node>
  <node id="453979856" version="1" timestamp="2009-08-02T02:47:45Z" uid="20587" user="balrog-kun" changeset="2009336" lat="52.4410517" lon="16.8373242">
    <tag k="addr:city" v="Poznań"/>
    <tag k="addr:housenumber" v="-1"/>
    <tag k="addr:street" v="Czaplinecka"/>
    <tag k="source" v="http://ump.waw.pl/ retrieved 15:05:23 06/30/09 (UMP-Poznan/src/POZNAN.ulice.txt)"/>
  </node>
  <node id="453979861" version="1" timestamp="2009-08-02T02:47:45Z" uid="20587" user="balrog-kun" changeset="2009336" lat="52.4353847" lon="16.8411528">
    <tag k="addr:city" v="Poznań"/>
    <tag k="addr:housenumber" v="5"/>
    <tag k="addr:street" v="Sianowska"/>
    <tag k="source" v="http://ump.waw.pl/ retrieved 15:05:23 06/30/09 (UMP-Poznan/src/POZNAN.ulice.txt)"/>
  </node>
  <node id="453979864" version="1" timestamp="2009-08-02T02:47:45Z" uid="20587" user="balrog-kun" changeset="2009336" lat="52.4353807" lon="16.8186765">
    <tag k="addr:city" v="Poznań"/>
    <tag k="addr:housenumber" v="114"/>
    <tag k="addr:street" v="Sianowska"/>
    <tag k="source" v="http://ump.waw.pl/ retrieved 15:05:23 06/30/09 (UMP-Poznan/src/POZNAN.ulice.txt)"/>
  </node>
  <node id="453979869" version="1" timestamp="2009-08-02T02:47:45Z" uid="20587" user="balrog-kun" changeset="2009336" lat="52.4388368" lon="16.8302783">
    <tag k="addr:city" v="Poznań"/>
    <tag k="addr:housenumber" v="33"/>
    <tag k="addr:street" v="Santocka"/>
    <tag k="source" v="http://ump.waw.pl/ retrieved 15:05:23 06/30/09 (UMP-Poznan/src/POZNAN.ulice.txt)"/>
  </node>
  <node id="453979873" version="1" timestamp="2009-08-02T02:47:45Z" uid="20587" user="balrog-kun" changeset="2009336" lat="52.4370637" lon="16.8160879">
    <tag k="addr:city" v="Poznań"/>
    <tag k="addr:housenumber" v="54"/>
    <tag k="addr:street" v="Kościerzyńska"/>
    <tag k="source" v="http://ump.waw.pl/ retrieved 15:05:23 06/30/09 (UMP-Poznan/src/POZNAN.ulice.txt)"/>
  </node>
  <node id="453979876" version="1" timestamp="2009-08-02T02:47:45Z" uid="20587" user="balrog-kun" changeset="2009336" lat="52.4394076" lon="16.8158606">
    <tag k="addr:city" v="Poznań"/>
    <tag k="addr:housenumber" v="119"/>
    <tag k="addr:street" v="Kościerzyńska"/>
    <tag k="source" v="http://ump.waw.pl/ retrieved 15:05:23 06/30/09 (UMP-Poznan/src/POZNAN.ulice.txt)"/>
  </node>
  <node id="453979881" version="1" timestamp="2009-08-02T02:47:45Z" uid="20587" user="balrog-kun" changeset="2009336" lat="52.432251" lon="16.8128278">
    <tag k="addr:city" v="Poznań"/>
    <tag k="addr:housenumber" v="495"/>
    <tag k="addr:street" v="Dąbrowskiego"/>
    <tag k="source" v="http://ump.waw.pl/ retrieved 15:05:23 06/30/09 (UMP-Poznan/src/POZNAN.ulice.txt)"/>
  </node>
  <node id="453979884" version="1" timestamp="2009-08-02T02:47:45Z" uid="20587" user="balrog-kun" changeset="2009336" lat="52.4391199" lon="16.8176407">
    <tag k="addr:city" v="Poznań"/>
    <tag k="addr:housenumber" v="68"/>
    <tag k="addr:street" v="Gniewska"/>
    <tag k="source" v="http://ump.waw.pl/ retrieved 15:05:23 06/30/09 (UMP-Poznan/src/POZNAN.ulice.txt)"/>
  </node>
  <node id="453979888" version="1" timestamp="2009-08-02T02:47:46Z" uid="20587" user="balrog-kun" changeset="2009336" lat="52.4364668" lon="16.8090999">
    <tag k="addr:city" v="Poznań"/>
    <tag k="addr:housenumber" v="26"/>
    <tag k="addr:street" v="Słupska"/>
    <tag k="source" v="http://ump.waw.pl/ retrieved 15:05:23 06/30/09 (UMP-Poznan/src/POZNAN.ulice.txt)"/>
  </node>
  <node id="453979892" version="1" timestamp="2009-08-02T02:47:46Z" uid="20587" user="balrog-kun" changeset="2009336" lat="52.4393474" lon="16.821268">
    <tag k="addr:city" v="Poznań"/>
    <tag k="addr:housenumber" v="15"/>
    <tag k="addr:street" v="Braniewska"/>
    <tag k="source" v="http://ump.waw.pl/ retrieved 15:05:23 06/30/09 (UMP-Poznan/src/POZNAN.ulice.txt)"/>
  </node>
  <node id="453979896" version="1" timestamp="2009-08-02T02:47:46Z" uid="20587" user="balrog-kun" changeset="2009336" lat="52.4390954" lon="16.8168298">
    <tag k="addr:city" v="Poznań"/>
    <tag k="addr:housenumber" v="76"/>
    <tag k="addr:street" v="Gniewska"/>
    <tag k="source" v="http://ump.waw.pl/ retrieved 15:05:23 06/30/09 (UMP-Poznan/src/POZNAN.ulice.txt)"/>
  </node>
  <node id="453979900" version="1" timestamp="2009-08-02T02:47:46Z" uid="20587" user="balrog-kun" changeset="2009336" lat="52.4379362" lon="16.81592">
    <tag k="addr:city" v="Poznań"/>
    <tag k="addr:housenumber" v="103"/>
    <tag k="addr:street" v="Kościerzyńska"/>
    <tag k="source" v="http://ump.waw.pl/ retrieved 15:05:23 06/30/09 (UMP-Poznan/src/POZNAN.ulice.txt)"/>
  </node>
  <node id="453979905" version="1" timestamp="2009-08-02T02:47:46Z" uid="20587" user="balrog-kun" changeset="2009336" lat="52.4361408" lon="16.8207462">
    <tag k="addr:city" v="Poznań"/>
    <tag k="addr:housenumber" v="58"/>
    <tag k="addr:street" v="Łagowska"/>
    <tag k="source" v="http://ump.waw.pl/ retrieved 15:05:23 06/30/09 (UMP-Poznan/src/POZNAN.ulice.txt)"/>
  </node>
  <node id="453979907" version="1" timestamp="2009-08-02T02:47:46Z" uid="20587" user="balrog-kun" changeset="2009336" lat="52.4321865" lon="16.8408098">
    <tag k="addr:city" v="Poznań"/>
    <tag k="addr:housenumber" v="1"/>
    <tag k="addr:street" v="Białośliwska"/>
    <tag k="source" v="http://ump.waw.pl/ retrieved 15:05:23 06/30/09 (UMP-Poznan/src/POZNAN.ulice.txt)"/>
  </node>
  <node id="453979910" version="1" timestamp="2009-08-02T02:47:46Z" uid="20587" user="balrog-kun" changeset="2009336" lat="52.4385925" lon="16.833831">
    <tag k="addr:city" v="Poznań"/>
    <tag k="addr:housenumber" v="21"/>
    <tag k="addr:street" v="Lubowska"/>
    <tag k="source" v="http://ump.waw.pl/ retrieved 15:05:23 06/30/09 (UMP-Poznan/src/POZNAN.ulice.txt)"/>
  </node>
  <node id="453979910" version="2" timestamp="2009-08-02T17:16:09Z" uid="20587" user="balrog-kun" changeset="2017141" lat="52.4385858" lon="16.8337019">
    <tag k="addr:city" v="Poznań"/>
    <tag k="addr:housenumber" v="21"/>
    <tag k="addr:street" v="Lubowska"/>
    <tag k="source" v="http://ump.waw.pl/ retrieved 15:05:23 06/30/09 (UMP-Poznan/src/POZNAN.ulice.txt)"/>
  </node>
  <node id="453979913" version="1" timestamp="2009-08-02T02:47:46Z" uid="20587" user="balrog-kun" changeset="2009336" lat="52.4332" lon="16.8305058">
    <tag k="addr:city" v="Poznań"/>
    <tag k="addr:housenumber" v="5"/>
    <tag k="addr:street" v="Santocka"/>
    <tag k="source" v="http://ump.waw.pl/ retrieved 15:05:23 06/30/09 (UMP-Poznan/src/POZNAN.ulice.txt)"/>
  </node>
  <node id="453979915" version="1" timestamp="2009-08-02T02:47:46Z" uid="20587" user="balrog-kun" changeset="2009336" lat="52.4363131" lon="16.8414363">
    <tag k="addr:city" v="Poznań"/>
    <tag k="addr:housenumber" v="6"/>
    <tag k="addr:street" v="Trzcianecka"/>
    <tag k="source" v="http://ump.waw.pl/ retrieved 15:05:23 06/30/09 (UMP-Poznan/src/POZNAN.ulice.txt)"/>
  </node>
  <node id="453979915" version="2" timestamp="2009-08-02T17:16:09Z" uid="20587" user="balrog-kun" changeset="2017141" lat="52.4363458" lon="16.8415221">
    <tag k="addr:city" v="Poznań"/>
    <tag k="addr:housenumber" v="6"/>
    <tag k="addr:street" v="Trzcianecka"/>
    <tag k="source" v="http://ump.waw.pl/ retrieved 15:05:23 06/30/09 (UMP-Poznan/src/POZNAN.ulice.txt)"/>
  </node>
  <node id="453979918" version="1" timestamp="2009-08-02T02:47:46Z" uid="20587" user="balrog-kun" changeset="2009336" lat="52.4402636" lon="16.8188659">
    <tag k="addr:city" v="Poznań"/>
    <tag k="addr:housenumber" v="24"/>
    <tag k="addr:street" v="Pasłęcka"/>
    <tag k="source" v="http://ump.waw.pl/ retrieved 15:05:23 06/30/09 (UMP-Poznan/src/POZNAN.ulice.txt)"/>
  </node>
  <node id="453979920" version="1" timestamp="2009-08-02T02:47:46Z" uid="20587" user="balrog-kun" changeset="2009336" lat="52.4332508" lon="16.842187">
    <tag k="addr:city" v="Poznań"/>
    <tag k="addr:housenumber" v="17"/>
    <tag k="addr:street" v="Białośliwska"/>
    <tag k="source" v="http://ump.waw.pl/ retrieved 15:05:23 06/30/09 (UMP-Poznan/src/POZNAN.ulice.txt)"/>
  </node>
  <node id="453979923" version="1" timestamp="2009-08-02T02:47:46Z" uid="20587" user="balrog-kun" changeset="2009336" lat="52.4390964" lon="16.8374874">
    <tag k="addr:city" v="Poznań"/>
    <tag k="addr:housenumber" v="1"/>
    <tag k="addr:street" v="Czaplinecka"/>
    <tag k="source" v="http://ump.waw.pl/ retrieved 15:05:23 06/30/09 (UMP-Poznan/src/POZNAN.ulice.txt)"/>
  </node>
  <node id="453979926" version="1" timestamp="2009-08-02T02:47:46Z" uid="20587" user="balrog-kun" changeset="2009336" lat="52.4351976" lon="16.8432219">
    <tag k="addr:city" v="Poznań"/>
    <tag k="addr:housenumber" v="28"/>
    <tag k="addr:street" v="Chodzieska"/>
    <tag k="source" v="http://ump.waw.pl/ retrieved 15:05:23 06/30/09 (UMP-Poznan/src/POZNAN.ulice.txt)"/>
  </node>
  <node id="453979929" version="1" timestamp="2009-08-02T02:47:46Z" uid="20587" user="balrog-kun" changeset="2009336" lat="52.4362437" lon="16.8302636">
    <tag k="addr:city" v="Poznań"/>
    <tag k="addr:housenumber" v="48"/>
    <tag k="addr:street" v="Lęborska"/>
    <tag k="source" v="http://ump.waw.pl/ retrieved 15:05:23 06/30/09 (UMP-Poznan/src/POZNAN.ulice.txt)"/>
  </node>
  <node id="453979931" version="1" timestamp="2009-08-02T02:47:46Z" uid="20587" user="balrog-kun" changeset="2009336" lat="52.4386085" lon="16.8386314">
    <tag k="addr:city" v="Poznań"/>
    <tag k="addr:housenumber" v="29"/>
    <tag k="addr:street" v="Trzcianecka"/>
    <tag k="source" v="http://ump.waw.pl/ retrieved 15:05:23 06/30/09 (UMP-Poznan/src/POZNAN.ulice.txt)"/>
  </node>
  <node id="453979934" version="1" timestamp="2009-08-02T02:47:46Z" uid="20587" user="balrog-kun" changeset="2009336" lat="52.4319624" lon="16.8385383">
    <tag k="addr:city" v="Poznań"/>
    <tag k="addr:housenumber" v="1"/>
    <tag k="addr:street" v="Kołobrzeska"/>
    <tag k="source" v="http://ump.waw.pl/ retrieved 15:05:23 06/30/09 (UMP-Poznan/src/POZNAN.ulice.txt)"/>
  </node>
  <node id="453979936" version="1" timestamp="2009-08-02T02:47:46Z" uid="20587" user="balrog-kun" changeset="2009336" lat="52.4400935" lon="16.8109442">
    <tag k="addr:city" v="Poznań"/>
    <tag k="addr:housenumber" v="37"/>
    <tag k="addr:street" v="Oliwska"/>
    <tag k="source" v="http://ump.waw.pl/ retrieved 15:05:23 06/30/09 (UMP-Poznan/src/POZNAN.ulice.txt)"/>
  </node>
  <node id="453979939" version="1" timestamp="2009-08-02T02:47:46Z" uid="20587" user="balrog-kun" changeset="2009336" lat="52.439239" lon="16.8214648">
    <tag k="addr:city" v="Poznań"/>
    <tag k="addr:housenumber" v="48"/>
    <tag k="addr:street" v="Gniewska"/>
    <tag k="source" v="http://ump.waw.pl/ retrieved 15:05:23 06/30/09 (UMP-Poznan/src/POZNAN.ulice.txt)"/>
  </node>
  <node id="453979941" version="1" timestamp="2009-08-02T02:47:47Z" uid="20587" user="balrog-kun" changeset="2009336" lat="52.440082" lon="16.8226723">
    <tag k="addr:city" v="Poznań"/>
    <tag k="addr:housenumber" v="52"/>
    <tag k="addr:street" v="Pucka"/>
    <tag k="source" v="http://ump.waw.pl/ retrieved 15:05:23 06/30/09 (UMP-Poznan/src/POZNAN.ulice.txt)"/>
  </node>
  <node id="453979944" version="1" timestamp="2009-08-02T02:47:47Z" uid="20587" user="balrog-kun" changeset="2009336" lat="52.4365971" lon="16.8261371">
    <tag k="addr:city" v="Poznań"/>
    <tag k="addr:housenumber" v="75"/>
    <tag k="addr:street" v="Trzebiatowska"/>
    <tag k="source" v="http://ump.waw.pl/ retrieved 15:05:23 06/30/09 (UMP-Poznan/src/POZNAN.ulice.txt)"/>
  </node>
  <node id="453979947" version="1" timestamp="2009-08-02T02:47:47Z" uid="20587" user="balrog-kun" changeset="2009336" lat="52.4398427" lon="16.8188218">
    <tag k="addr:city" v="Poznań"/>
    <tag k="addr:housenumber" v="26"/>
    <tag k="addr:street" v="Pasłęcka"/>
    <tag k="source" v="http://ump.waw.pl/ retrieved 15:05:23 06/30/09 (UMP-Poznan/src/POZNAN.ulice.txt)"/>
  </node>
  <node id="453979947" version="2" timestamp="2009-08-02T17:16:09Z" uid="20587" user="balrog-kun" changeset="2017141" lat="52.4400854" lon="16.8187326">
    <tag k="addr:city" v="Poznań"/>
    <tag k="addr:housenumber" v="26"/>
    <tag k="addr:street" v="Pasłęcka"/>
    <tag k="source" v="http://ump.waw.pl/ retrieved 15:05:23 06/30/09 (UMP-Poznan/src/POZNAN.ulice.txt)"/>
  </node>
  <node id="453979949" version="1" timestamp="2009-08-02T02:47:47Z" uid="20587" user="balrog-kun" changeset="2009336" lat="52.4383517" lon="16.8303154">
    <tag k="addr:city" v="Poznań"/>
    <tag k="addr:housenumber" v="29"/>
    <tag k="addr:street" v="Santocka"/>
    <tag k="source" v="http://ump.waw.pl/ retrieved 15:05:23 06/30/09 (UMP-Poznan/src/POZNAN.ulice.txt)"/>
  </node>
  <node id="453979952" version="1" timestamp="2009-08-02T02:47:47Z" uid="20587" user="balrog-kun" changeset="2009336" lat="52.4377512" lon="16.8301517">
    <tag k="addr:city" v="Poznań"/>
    <tag k="addr:housenumber" v="44"/>
    <tag k="addr:street" v="Myśliborska"/>
    <tag k="source" v="http://ump.waw.pl/ retrieved 15:05:23 06/30/09 (UMP-Poznan/src/POZNAN.ulice.txt)"/>
  </node>
  <node id="453979954" version="1" timestamp="2009-08-02T02:47:47Z" uid="20587" user="balrog-kun" changeset="2009336" lat="52.4361458" lon="16.8368461">
    <tag k="addr:city" v="Poznań"/>
    <tag k="addr:housenumber" v="19"/>
    <tag k="addr:street" v="Lęborska"/>
    <tag k="source" v="http://ump.waw.pl/ retrieved 15:05:23 06/30/09 (UMP-Poznan/src/POZNAN.ulice.txt)"/>
  </node>
  <node id="453979957" version="1" timestamp="2009-08-02T02:47:47Z" uid="20587" user="balrog-kun" changeset="2009336" lat="52.4376469" lon="16.8351097">
    <tag k="addr:city" v="Poznań"/>
    <tag k="addr:housenumber" v="21"/>
    <tag k="addr:street" v="Myśliborska"/>
    <tag k="source" v="http://ump.waw.pl/ retrieved 15:05:23 06/30/09 (UMP-Poznan/src/POZNAN.ulice.txt)"/>
  </node>
  <node id="453979959" version="1" timestamp="2009-08-02T02:47:47Z" uid="20587" user="balrog-kun" changeset="2009336" lat="52.4337569" lon="16.8384358">
    <tag k="addr:city" v="Poznań"/>
    <tag k="addr:housenumber" v="14"/>
    <tag k="addr:street" v="Olsztyńska"/>
    <tag k="source" v="http://ump.waw.pl/ retrieved 15:05:23 06/30/09 (UMP-Poznan/src/POZNAN.ulice.txt)"/>
  </node>
  <node id="453979962" version="1" timestamp="2009-08-02T02:47:47Z" uid="20587" user="balrog-kun" changeset="2009336" lat="52.437698" lon="16.8367678">
    <tag k="addr:city" v="Poznań"/>
    <tag k="addr:housenumber" v="15"/>
    <tag k="addr:street" v="Myśliborska"/>
    <tag k="source" v="http://ump.waw.pl/ retrieved 15:05:23 06/30/09 (UMP-Poznan/src/POZNAN.ulice.txt)"/>
  </node>
  <node id="453979964" version="1" timestamp="2009-08-02T02:47:47Z" uid="20587" user="balrog-kun" changeset="2009336" lat="52.4409073" lon="16.8298894">
    <tag k="addr:city" v="Poznań"/>
    <tag k="addr:housenumber" v="23"/>
    <tag k="addr:street" v="Polanowska"/>
    <tag k="source" v="http://ump.waw.pl/ retrieved 15:05:23 06/30/09 (UMP-Poznan/src/POZNAN.ulice.txt)"/>
  </node>
  <node id="453979967" version="1" timestamp="2009-08-02T02:47:47Z" uid="20587" user="balrog-kun" changeset="2009336" lat="52.4324644" lon="16.8305783">
    <tag k="addr:city" v="Poznań"/>
    <tag k="addr:housenumber" v="1"/>
    <tag k="addr:street" v="Santocka"/>
    <tag k="source" v="http://ump.waw.pl/ retrieved 15:05:23 06/30/09 (UMP-Poznan/src/POZNAN.ulice.txt)"/>
  </node>
  <node id="453979970" version="1" timestamp="2009-08-02T02:47:47Z" uid="20587" user="balrog-kun" changeset="2009336" lat="52.4379417" lon="16.8367516">
    <tag k="addr:city" v="Poznań"/>
    <tag k="addr:housenumber" v="16"/>
    <tag k="addr:street" v="Myśliborska"/>
    <tag k="source" v="http://ump.waw.pl/ retrieved 15:05:23 06/30/09 (UMP-Poznan/src/POZNAN.ulice.txt)"/>
  </node>
  <node id="453979972" version="1" timestamp="2009-08-02T02:47:47Z" uid="20587" user="balrog-kun" changeset="2009336" lat="52.4368846" lon="16.8153909">
    <tag k="addr:city" v="Poznań"/>
    <tag k="addr:housenumber" v="71"/>
    <tag k="addr:street" v="Kościerzyńska"/>
    <tag k="source" v="http://ump.waw.pl/ retrieved 15:05:23 06/30/09 (UMP-Poznan/src/POZNAN.ulice.txt)"/>
  </node>
  <node id="453979974" version="1" timestamp="2009-08-02T02:47:47Z" uid="20587" user="balrog-kun" changeset="2009336" lat="52.4368378" lon="16.8360089">
    <tag k="addr:city" v="Poznań"/>
    <tag k="addr:housenumber" v="23"/>
    <tag k="addr:street" v="Trzebiatowska"/>
    <tag k="source" v="http://ump.waw.pl/ retrieved 15:05:23 06/30/09 (UMP-Poznan/src/POZNAN.ulice.txt)"/>
  </node>
  <node id="453979977" version="1" timestamp="2009-08-02T02:47:47Z" uid="20587" user="balrog-kun" changeset="2009336" lat="52.4343756" lon="16.8148506">
    <tag k="addr:city" v="Poznań"/>
    <tag k="addr:housenumber" v="21"/>
    <tag k="addr:street" v="Gorzyńska"/>
    <tag k="source" v="http://ump.waw.pl/ retrieved 15:05:23 06/30/09 (UMP-Poznan/src/POZNAN.ulice.txt)"/>
  </node>
  <node id="453979980" version="1" timestamp="2009-08-02T02:47:47Z" uid="20587" user="balrog-kun" changeset="2009336" lat="52.4358418" lon="16.83665">
    <tag k="addr:city" v="Poznań"/>
    <tag k="addr:housenumber" v="2"/>
    <tag k="addr:street" v="Maszewska"/>
    <tag k="source" v="http://ump.waw.pl/ retrieved 15:05:23 06/30/09 (UMP-Poznan/src/POZNAN.ulice.txt)"/>
  </node>
  <node id="453979985" version="1" timestamp="2009-08-02T02:47:47Z" uid="20587" user="balrog-kun" changeset="2009336" lat="52.4360712" lon="16.8171359">
    <tag k="addr:city" v="Poznań"/>
    <tag k="addr:housenumber" v="34"/>
    <tag k="addr:street" v="Łagowska"/>
    <tag k="source" v="http://ump.waw.pl/ retrieved 15:05:23 06/30/09 (UMP-Poznan/src/POZNAN.ulice.txt)"/>
  </node>
  <node id="453979989" version="1" timestamp="2009-08-02T02:47:47Z" uid="20587" user="balrog-kun" changeset="2009336" lat="52.4343743" lon="16.8167063">
    <tag k="addr:city" v="Poznań"/>
    <tag k="addr:housenumber" v="29"/>
    <tag k="addr:street" v="Kościerzyńska"/>
    <tag k="source" v="http://ump.waw.pl/ retrieved 15:05:23 06/30/09 (UMP-Poznan/src/POZNAN.ulice.txt)"/>
  </node>
  <node id="453979995" version="1" timestamp="2009-08-02T02:47:48Z" uid="20587" user="balrog-kun" changeset="2009336" lat="52.4355281" lon="16.8287831">
    <tag k="addr:city" v="Poznań"/>
    <tag k="addr:housenumber" v="66"/>
    <tag k="addr:street" v="Sianowska"/>
    <tag k="source" v="http://ump.waw.pl/ retrieved 15:05:23 06/30/09 (UMP-Poznan/src/POZNAN.ulice.txt)"/>
  </node>
  <node id="453979998" version="1" timestamp="2009-08-02T02:47:48Z" uid="20587" user="balrog-kun" changeset="2009336" lat="52.4355066" lon="16.8341261">
    <tag k="addr:city" v="Poznań"/>
    <tag k="addr:housenumber" v="40"/>
    <tag k="addr:street" v="Sianowska"/>
    <tag k="source" v="http://ump.waw.pl/ retrieved 15:05:23 06/30/09 (UMP-Poznan/src/POZNAN.ulice.txt)"/>
  </node>
</osm>
