<?xml version='1.0' encoding='UTF-8'?>
<osm version="0.6" generator="libosmium/2.20.0">
  <node id="454061687" version="1" timestamp="2009-08-02T04:10:48Z" uid="20587" user="balrog-kun" changeset="2009571" lat="52.3973241" lon="16.92151">
    <tag k="addr:city" v="Poznań"/>
    <tag k="addr:housenumber" v="20"/>
    <tag k="addr:street" v="Wierzbięcice"/>
    <tag k="source" v="http://ump.waw.pl/ retrieved 15:05:23 06/30/09 (UMP-Poznan/src/POZNAN.ulice.txt)"/>
  </node>
  <node id="454061688" version="1" timestamp="2009-08-02T04:10:48Z" uid="20587" user="balrog-kun" changeset="2009571" lat="52.3942873" lon="16.919666">
    <tag k="addr:city" v="Poznań"/>
    <tag k="addr:housenumber" v="53"/>
    <tag k="addr:street" v="Przemysłowa"/>
    <tag k="source" v="http://ump.waw.pl/ retrieved 15:05:23 06/30/09 (UMP-Poznan/src/POZNAN.ulice.txt)"/>
  </node>
  <node id="454061691" version="1" timestamp="2009-08-02T04:10:48Z" uid="20587" user="balrog-kun" changeset="2009571" lat="52.3914545" lon="16.920792">
    <tag k="addr:city" v="Poznań"/>
    <tag k="addr:housenumber" v="125"/>
    <tag k="addr:street" v="28 Czerwca 1956 r."/>
    <tag k="source" v="http://ump.waw.pl/ retrieved 15:05:23 06/30/09 (UMP-Poznan/src/POZNAN.ulice.txt)"/>
  </node>
  <node id="454061692" version="1" timestamp="2009-08-02T04:10:49Z" uid="20587" user="balrog-kun" changeset="2009571" lat="52.393462" lon="16.9237531">
    <tag k="addr:city" v="Poznań"/>
    <tag k="addr:housenumber" v="7"/>
    <tag k="addr:street" v="Przy Dolinie"/>
    <tag k="source" v="http://ump.waw.pl/ retrieved 15:05:23 06/30/09 (UMP-Poznan/src/POZNAN.ulice.txt)"/>
  </node>
  <node id="454061693" version="1" timestamp="2009-08-02T04:10:49Z" uid="20587" user="balrog-kun" changeset="2009571" lat="52.3957454" lon="16.9236151">
    <tag k="addr:city" v="Poznań"/>
    <tag k="addr:housenumber" v="31"/>
    <tag k="addr:street" v="Chwiałkowskiego"/>
    <tag k="source" v="http://ump.waw.pl/ retrieved 15:05:23 06/30/09 (UMP-Poznan/src/POZNAN.ulice.txt)"/>
  </node>
  <node id="454061694" version="1" timestamp="2009-08-02T04:10:49Z" uid="20587" user="balrog-kun" changeset="2009571" lat="52.3919054" lon="16.9205234">
    <tag k="addr:city" v="Poznań"/>
    <tag k="addr:housenumber" v="123"/>
    <tag k="addr:street" v="28 Czerwca 1956 r."/>
    <tag k="source" v="http://ump.waw.pl/ retrieved 15:05:23 06/30/09 (UMP-Poznan/src/POZNAN.ulice.txt)"/>
  </node>
  <node id="454061697" version="1" timestamp="2009-08-02T04:10:49Z" uid="20587" user="balrog-kun" changeset="2009571" lat="52.3921153" lon="16.9227936">
    <tag k="addr:city" v="Poznań"/>
    <tag k="addr:housenumber" v="2"/>
    <tag k="addr:street" v="Powstańcza"/>
    <tag k="source" v="http://ump.waw.pl/ retrieved 15:05:23 06/30/09 (UMP-Poznan/src/POZNAN.ulice.txt)"/>
  </node>
  <node id="454061698" version="1" timestamp="2009-08-02T04:10:49Z" uid="20587" user="balrog-kun" changeset="2009571" lat="52.3919337" lon="16.9169633">
    <tag k="addr:city" v="Poznań"/>
    <tag k="addr:housenumber" v="7"/>
    <tag k="addr:street" v="Sikorskiego"/>
    <tag k="source" v="http://ump.waw.pl/ retrieved 15:05:23 06/30/09 (UMP-Poznan/src/POZNAN.ulice.txt)"/>
  </node>
  <node id="454061699" version="1" timestamp="2009-08-02T04:10:49Z" uid="20587" user="balrog-kun" changeset="2009571" lat="52.3920765" lon="16.9194852">
    <tag k="addr:city" v="Poznań"/>
    <tag k="addr:housenumber" v="40"/>
    <tag k="addr:street" v="Sikorskiego"/>
    <tag k="source" v="http://ump.waw.pl/ retrieved 15:05:23 06/30/09 (UMP-Poznan/src/POZNAN.ulice.txt)"/>
  </node>
  <node id="454061701" version="1" timestamp="2009-08-02T04:10:49Z" uid="20587" user="balrog-kun" changeset="2009571" lat="52.390966" lon="16.9128337">
    <tag k="addr:city" v="Poznań"/>
    <tag k="addr:housenumber" v="21"/>
    <tag k="addr:street" v="Sikorskiego"/>
    <tag k="source" v="http://ump.waw.pl/ retrieved 15:05:23 06/30/09 (UMP-Poznan/src/POZNAN.ulice.txt)"/>
  </node>
  <node id="454061703" version="1" timestamp="2009-08-02T04:10:50Z" uid="20587" user="balrog-kun" changeset="2009571" lat="52.3951439" lon="16.9209169">
    <tag k="addr:city" v="Poznań"/>
    <tag k="addr:housenumber" v="14"/>
    <tag k="addr:street" v="Chwiałkowskiego"/>
    <tag k="source" v="http://ump.waw.pl/ retrieved 15:05:23 06/30/09 (UMP-Poznan/src/POZNAN.ulice.txt)"/>
  </node>
  <node id="454061704" version="1" timestamp="2009-08-02T04:10:50Z" uid="20587" user="balrog-kun" changeset="2009571" lat="52.3957602" lon="16.9234346"/>
  <node id="454061705" version="1" timestamp="2009-08-02T04:10:50Z" uid="20587" user="balrog-kun" changeset="2009571" lat="52.3914797" lon="16.9180383">
    <tag k="addr:city" v="Poznań"/>
    <tag k="addr:housenumber" v="9"/>
    <tag k="addr:street" v="Jana Kilińskiego"/>
    <tag k="source" v="http://ump.waw.pl/ retrieved 15:05:23 06/30/09 (UMP-Poznan/src/POZNAN.ulice.txt)"/>
  </node>
  <node id="454061708" version="1" timestamp="2009-08-02T04:10:50Z" uid="20587" user="balrog-kun" changeset="2009571" lat="52.3947491" lon="16.9240106">
    <tag k="addr:city" v="Poznań"/>
    <tag k="addr:housenumber" v="3"/>
    <tag k="addr:street" v="Dolina"/>
    <tag k="source" v="http://ump.waw.pl/ retrieved 15:05:23 06/30/09 (UMP-Poznan/src/POZNAN.ulice.txt)"/>
  </node>
  <node id="454061709" version="1" timestamp="2009-08-02T04:10:50Z" uid="20587" user="balrog-kun" changeset="2009571" lat="52.392493" lon="16.9196804">
    <tag k="addr:city" v="Poznań"/>
    <tag k="addr:housenumber" v="70"/>
    <tag k="addr:street" v="Przemysłowa"/>
    <tag k="source" v="http://ump.waw.pl/ retrieved 15:05:23 06/30/09 (UMP-Poznan/src/POZNAN.ulice.txt)"/>
  </node>
  <node id="454061710" version="1" timestamp="2009-08-02T04:10:50Z" uid="20587" user="balrog-kun" changeset="2009571" lat="52.3957014" lon="16.9225529">
    <tag k="addr:city" v="Poznań"/>
    <tag k="addr:housenumber" v="7"/>
    <tag k="addr:street" v="Poplińskich"/>
    <tag k="source" v="http://ump.waw.pl/ retrieved 15:05:23 06/30/09 (UMP-Poznan/src/POZNAN.ulice.txt)"/>
  </node>
  <node id="454061711" version="1" timestamp="2009-08-02T04:10:50Z" uid="20587" user="balrog-kun" changeset="2009571" lat="52.3910854" lon="16.9217916">
    <tag k="addr:city" v="Poznań"/>
    <tag k="addr:housenumber" v="62"/>
    <tag k="addr:street" v="Wierzbięcice"/>
    <tag k="source" v="http://ump.waw.pl/ retrieved 15:05:23 06/30/09 (UMP-Poznan/src/POZNAN.ulice.txt)"/>
  </node>
  <node id="454061714" version="1" timestamp="2009-08-02T04:10:50Z" uid="20587" user="balrog-kun" changeset="2009571" lat="52.394009" lon="16.922411">
    <tag k="addr:city" v="Poznań"/>
    <tag k="addr:housenumber" v="105"/>
    <tag k="addr:street" v="Górna Wilda"/>
    <tag k="source" v="http://ump.waw.pl/ retrieved 15:05:23 06/30/09 (UMP-Poznan/src/POZNAN.ulice.txt)"/>
  </node>
  <node id="454061715" version="1" timestamp="2009-08-02T04:10:51Z" uid="20587" user="balrog-kun" changeset="2009571" lat="52.3957398" lon="16.9193956">
    <tag k="addr:city" v="Poznań"/>
    <tag k="addr:housenumber" v="37"/>
    <tag k="addr:street" v="Przemysłowa"/>
    <tag k="source" v="http://ump.waw.pl/ retrieved 15:05:23 06/30/09 (UMP-Poznan/src/POZNAN.ulice.txt)"/>
  </node>
  <node id="454061716" version="1" timestamp="2009-08-02T04:10:51Z" uid="20587" user="balrog-kun" changeset="2009571" lat="52.387653" lon="16.9164787">
    <tag k="addr:city" v="Poznań"/>
    <tag k="addr:housenumber" v="158"/>
    <tag k="addr:street" v="28 Czerwca 1956 r."/>
    <tag k="source" v="http://ump.waw.pl/ retrieved 15:05:23 06/30/09 (UMP-Poznan/src/POZNAN.ulice.txt)"/>
  </node>
  <node id="454061718" version="1" timestamp="2009-08-02T04:10:51Z" uid="20587" user="balrog-kun" changeset="2009571" lat="52.3926388" lon="16.917468">
    <tag k="addr:city" v="Poznań"/>
    <tag k="addr:housenumber" v="9"/>
    <tag k="addr:street" v="Czarnieckiego"/>
    <tag k="source" v="http://ump.waw.pl/ retrieved 15:05:23 06/30/09 (UMP-Poznan/src/POZNAN.ulice.txt)"/>
  </node>
  <node id="454061720" version="1" timestamp="2009-08-02T04:10:51Z" uid="20587" user="balrog-kun" changeset="2009571" lat="52.3919313" lon="16.921145">
    <tag k="addr:city" v="Poznań"/>
    <tag k="addr:housenumber" v="59"/>
    <tag k="addr:street" v="Wierzbięcice"/>
    <tag k="source" v="http://ump.waw.pl/ retrieved 15:05:23 06/30/09 (UMP-Poznan/src/POZNAN.ulice.txt)"/>
  </node>
  <node id="454061721" version="1" timestamp="2009-08-02T04:10:51Z" uid="20587" user="balrog-kun" changeset="2009571" lat="52.3867249" lon="16.9094796">
    <tag k="addr:city" v="Poznań"/>
    <tag k="addr:housenumber" v="27"/>
    <tag k="addr:street" v="Fabryczna"/>
    <tag k="source" v="http://ump.waw.pl/ retrieved 15:05:23 06/30/09 (UMP-Poznan/src/POZNAN.ulice.txt)"/>
  </node>
  <node id="454061721" version="2" timestamp="2010-12-16T14:02:47Z" uid="19417" user="xjr" changeset="6676962" lat="52.3869064" lon="16.9101462">
    <tag k="addr:city" v="Poznań"/>
    <tag k="addr:housenumber" v="22"/>
    <tag k="addr:street" v="Fabryczna"/>
    <tag k="source" v="http://ump.waw.pl/ retrieved 15:05:23 06/30/09 (UMP-Poznan/src/POZNAN.ulice.txt)"/>
  </node>
  <node id="454061723" version="1" timestamp="2009-08-02T04:10:51Z" uid="20587" user="balrog-kun" changeset="2009571" lat="52.3884274" lon="16.9167918">
    <tag k="addr:city" v="Poznań"/>
    <tag k="addr:housenumber" v="1"/>
    <tag k="addr:street" v="Fabryczna"/>
    <tag k="source" v="http://ump.waw.pl/ retrieved 15:05:23 06/30/09 (UMP-Poznan/src/POZNAN.ulice.txt)"/>
  </node>
  <node id="454061724" version="1" timestamp="2009-08-02T04:10:51Z" uid="20587" user="balrog-kun" changeset="2009571" lat="52.3956291" lon="16.9223353">
    <tag k="addr:city" v="Poznań"/>
    <tag k="addr:housenumber" v="27"/>
    <tag k="addr:street" v="Chwiałkowskiego"/>
    <tag k="source" v="http://ump.waw.pl/ retrieved 15:05:23 06/30/09 (UMP-Poznan/src/POZNAN.ulice.txt)"/>
  </node>
  <node id="454061726" version="1" timestamp="2009-08-02T04:10:51Z" uid="20587" user="balrog-kun" changeset="2009571" lat="52.3909272" lon="16.9171534">
    <tag k="addr:city" v="Poznań"/>
    <tag k="addr:housenumber" v="14"/>
    <tag k="addr:street" v="Prądzyńskiego"/>
    <tag k="source" v="http://ump.waw.pl/ retrieved 15:05:23 06/30/09 (UMP-Poznan/src/POZNAN.ulice.txt)"/>
  </node>
  <node id="454061727" version="1" timestamp="2009-08-02T04:10:51Z" uid="20587" user="balrog-kun" changeset="2009571" lat="52.3968359" lon="16.92151">
    <tag k="addr:city" v="Poznań"/>
    <tag k="addr:housenumber" v="24"/>
    <tag k="addr:street" v="Wierzbięcice"/>
    <tag k="source" v="http://ump.waw.pl/ retrieved 15:05:23 06/30/09 (UMP-Poznan/src/POZNAN.ulice.txt)"/>
  </node>
  <node id="454061729" version="1" timestamp="2009-08-02T04:10:52Z" uid="20587" user="balrog-kun" changeset="2009571" lat="52.3938569" lon="16.9215785">
    <tag k="addr:city" v="Poznań"/>
    <tag k="addr:housenumber" v="46"/>
    <tag k="addr:street" v="Wierzbięcice"/>
    <tag k="source" v="http://ump.waw.pl/ retrieved 15:05:23 06/30/09 (UMP-Poznan/src/POZNAN.ulice.txt)"/>
  </node>
  <node id="454061730" version="1" timestamp="2009-08-02T04:10:52Z" uid="20587" user="balrog-kun" changeset="2009571" lat="52.3940866" lon="16.9253343">
    <tag k="addr:city" v="Poznań"/>
    <tag k="addr:housenumber" v="36"/>
    <tag k="addr:street" v="Dolna Wilda"/>
    <tag k="source" v="http://ump.waw.pl/ retrieved 15:05:23 06/30/09 (UMP-Poznan/src/POZNAN.ulice.txt)"/>
  </node>
  <node id="454061732" version="1" timestamp="2009-08-02T04:10:52Z" uid="20587" user="balrog-kun" changeset="2009571" lat="52.3905124" lon="16.9199542">
    <tag k="addr:city" v="Poznań"/>
    <tag k="addr:housenumber" v="133"/>
    <tag k="addr:street" v="28 Czerwca 1956 r."/>
    <tag k="source" v="http://ump.waw.pl/ retrieved 15:05:23 06/30/09 (UMP-Poznan/src/POZNAN.ulice.txt)"/>
  </node>
  <node id="454061733" version="1" timestamp="2009-08-02T04:10:52Z" uid="20587" user="balrog-kun" changeset="2009571" lat="52.3883243" lon="16.9179413">
    <tag k="addr:city" v="Poznań"/>
    <tag k="addr:housenumber" v="30"/>
    <tag k="addr:street" v="Chłapowskiego"/>
    <tag k="source" v="http://ump.waw.pl/ retrieved 15:05:23 06/30/09 (UMP-Poznan/src/POZNAN.ulice.txt)"/>
  </node>
  <node id="454061735" version="1" timestamp="2009-08-02T04:10:52Z" uid="20587" user="balrog-kun" changeset="2009571" lat="52.3978987" lon="16.9255815">
    <tag k="addr:city" v="Poznań"/>
    <tag k="addr:housenumber" v="71"/>
    <tag k="addr:street" v="Górna Wilda"/>
    <tag k="source" v="http://ump.waw.pl/ retrieved 15:05:23 06/30/09 (UMP-Poznan/src/POZNAN.ulice.txt)"/>
  </node>
  <node id="454061736" version="1" timestamp="2009-08-02T04:10:52Z" uid="20587" user="balrog-kun" changeset="2009571" lat="52.3855701" lon="16.917296">
    <tag k="addr:city" v="Poznań"/>
    <tag k="addr:housenumber" v="7"/>
    <tag k="addr:street" v="Rolna"/>
    <tag k="source" v="http://ump.waw.pl/ retrieved 15:05:23 06/30/09 (UMP-Poznan/src/POZNAN.ulice.txt)"/>
  </node>
  <node id="454061738" version="1" timestamp="2009-08-02T04:10:52Z" uid="20587" user="balrog-kun" changeset="2009571" lat="52.3913816" lon="16.914607">
    <tag k="addr:city" v="Poznań"/>
    <tag k="addr:housenumber" v="16"/>
    <tag k="addr:street" v="Sikorskiego"/>
    <tag k="source" v="http://ump.waw.pl/ retrieved 15:05:23 06/30/09 (UMP-Poznan/src/POZNAN.ulice.txt)"/>
  </node>
  <node id="454061739" version="1" timestamp="2009-08-02T04:10:52Z" uid="20587" user="balrog-kun" changeset="2009571" lat="52.3936155" lon="16.9198503">
    <tag k="addr:city" v="Poznań"/>
    <tag k="addr:housenumber" v="57"/>
    <tag k="addr:street" v="Przemysłowa"/>
    <tag k="source" v="http://ump.waw.pl/ retrieved 15:05:23 06/30/09 (UMP-Poznan/src/POZNAN.ulice.txt)"/>
  </node>
  <node id="454061740" version="1" timestamp="2009-08-02T04:10:52Z" uid="20587" user="balrog-kun" changeset="2009571" lat="52.3886504" lon="16.9147994">
    <tag k="addr:city" v="Poznań"/>
    <tag k="addr:housenumber" v="48"/>
    <tag k="addr:street" v="Prądzyńskiego"/>
    <tag k="source" v="http://ump.waw.pl/ retrieved 15:05:23 06/30/09 (UMP-Poznan/src/POZNAN.ulice.txt)"/>
  </node>
  <node id="454061742" version="1" timestamp="2009-08-02T04:10:53Z" uid="20587" user="balrog-kun" changeset="2009571" lat="52.398488" lon="16.9190551">
    <tag k="addr:city" v="Poznań"/>
    <tag k="addr:housenumber" v="15"/>
    <tag k="addr:street" v="Przemysłowa"/>
    <tag k="source" v="http://ump.waw.pl/ retrieved 15:05:23 06/30/09 (UMP-Poznan/src/POZNAN.ulice.txt)"/>
  </node>
  <node id="454061744" version="1" timestamp="2009-08-02T04:10:53Z" uid="20587" user="balrog-kun" changeset="2009571" lat="52.3953754" lon="16.9198099">
    <tag k="addr:city" v="Poznań"/>
    <tag k="addr:housenumber" v="11"/>
    <tag k="addr:street" v="Chwiałkowskiego"/>
    <tag k="source" v="http://ump.waw.pl/ retrieved 15:05:23 06/30/09 (UMP-Poznan/src/POZNAN.ulice.txt)"/>
  </node>
  <node id="454061745" version="1" timestamp="2009-08-02T04:10:53Z" uid="20587" user="balrog-kun" changeset="2009571" lat="52.387752" lon="16.9145423"/>
  <node id="454061746" version="1" timestamp="2009-08-02T04:10:53Z" uid="20587" user="balrog-kun" changeset="2009571" lat="52.3950368" lon="16.9175437">
    <tag k="addr:city" v="Poznań"/>
    <tag k="addr:housenumber" v="1"/>
    <tag k="addr:street" v="Chwiałkowskiego"/>
    <tag k="source" v="http://ump.waw.pl/ retrieved 15:05:23 06/30/09 (UMP-Poznan/src/POZNAN.ulice.txt)"/>
  </node>
  <node id="454061748" version="1" timestamp="2009-08-02T04:10:53Z" uid="20587" user="balrog-kun" changeset="2009571" lat="52.3863401" lon="16.9172006">
    <tag k="addr:city" v="Poznań"/>
    <tag k="addr:housenumber" v="18"/>
    <tag k="addr:street" v="Pamiątkowa"/>
    <tag k="source" v="http://ump.waw.pl/ retrieved 15:05:23 06/30/09 (UMP-Poznan/src/POZNAN.ulice.txt)"/>
  </node>
  <node id="454061750" version="1" timestamp="2009-08-02T04:10:53Z" uid="20587" user="balrog-kun" changeset="2009571" lat="52.3940475" lon="16.9240588">
    <tag k="addr:city" v="Poznań"/>
    <tag k="addr:housenumber" v="7"/>
    <tag k="addr:street" v="Dolina"/>
    <tag k="source" v="http://ump.waw.pl/ retrieved 15:05:23 06/30/09 (UMP-Poznan/src/POZNAN.ulice.txt)"/>
  </node>
  <node id="454061751" version="1" timestamp="2009-08-02T04:10:53Z" uid="20587" user="balrog-kun" changeset="2009571" lat="52.3988901" lon="16.9219623">
    <tag k="addr:city" v="Poznań"/>
    <tag k="addr:housenumber" v="23"/>
    <tag k="addr:street" v="Niedziałkowskiego"/>
    <tag k="source" v="http://ump.waw.pl/ retrieved 15:05:23 06/30/09 (UMP-Poznan/src/POZNAN.ulice.txt)"/>
  </node>
  <node id="454061752" version="1" timestamp="2009-08-02T04:10:53Z" uid="20587" user="balrog-kun" changeset="2009571" lat="52.3970271" lon="16.9238537">
    <tag k="addr:city" v="Poznań"/>
    <tag k="addr:housenumber" v="15"/>
    <tag k="addr:street" v="Różana"/>
    <tag k="source" v="http://ump.waw.pl/ retrieved 15:05:23 06/30/09 (UMP-Poznan/src/POZNAN.ulice.txt)"/>
  </node>
  <node id="454061754" version="1" timestamp="2009-08-02T04:10:54Z" uid="20587" user="balrog-kun" changeset="2009571" lat="52.3849104" lon="16.9195338">
    <tag k="addr:city" v="Poznań"/>
    <tag k="addr:housenumber" v="42"/>
    <tag k="addr:street" v="Traugutta"/>
    <tag k="source" v="http://ump.waw.pl/ retrieved 15:05:23 06/30/09 (UMP-Poznan/src/POZNAN.ulice.txt)"/>
  </node>
  <node id="454061756" version="1" timestamp="2009-08-02T04:10:54Z" uid="20587" user="balrog-kun" changeset="2009571" lat="52.3974623" lon="16.9239671">
    <tag k="addr:city" v="Poznań"/>
    <tag k="addr:housenumber" v="16"/>
    <tag k="addr:street" v="Różana"/>
    <tag k="source" v="http://ump.waw.pl/ retrieved 15:05:23 06/30/09 (UMP-Poznan/src/POZNAN.ulice.txt)"/>
  </node>
  <node id="454061757" version="1" timestamp="2009-08-02T04:10:54Z" uid="20587" user="balrog-kun" changeset="2009571" lat="52.387645" lon="16.9200168">
    <tag k="addr:city" v="Poznań"/>
    <tag k="addr:housenumber" v="16"/>
    <tag k="addr:street" v="Dąbrówki"/>
    <tag k="source" v="http://ump.waw.pl/ retrieved 15:05:23 06/30/09 (UMP-Poznan/src/POZNAN.ulice.txt)"/>
  </node>
  <node id="454061759" version="1" timestamp="2009-08-02T04:10:54Z" uid="20587" user="balrog-kun" changeset="2009571" lat="52.3895131" lon="16.9134788">
    <tag k="addr:city" v="Poznań"/>
    <tag k="addr:housenumber" v="12"/>
    <tag k="addr:street" v="Antoniego Kosińskiego"/>
    <tag k="source" v="http://ump.waw.pl/ retrieved 15:05:23 06/30/09 (UMP-Poznan/src/POZNAN.ulice.txt)"/>
  </node>
  <node id="454061760" version="1" timestamp="2009-08-02T04:10:54Z" uid="20587" user="balrog-kun" changeset="2009571" lat="52.3991639" lon="16.921724">
    <tag k="addr:city" v="Poznań"/>
    <tag k="addr:housenumber" v="7"/>
    <tag k="addr:street" v="Niedziałkowskiego"/>
    <tag k="source" v="http://ump.waw.pl/ retrieved 15:05:23 06/30/09 (UMP-Poznan/src/POZNAN.ulice.txt)"/>
  </node>
  <node id="454061761" version="1" timestamp="2009-08-02T04:10:54Z" uid="20587" user="balrog-kun" changeset="2009571" lat="52.3888177" lon="16.9181494">
    <tag k="addr:city" v="Poznań"/>
    <tag k="addr:housenumber" v="137"/>
    <tag k="addr:street" v="28 Czerwca 1956 r."/>
    <tag k="source" v="http://ump.waw.pl/ retrieved 15:05:23 06/30/09 (UMP-Poznan/src/POZNAN.ulice.txt)"/>
  </node>
  <node id="454061762" version="1" timestamp="2009-08-02T04:10:54Z" uid="20587" user="balrog-kun" changeset="2009571" lat="52.3864625" lon="16.9159987">
    <tag k="addr:city" v="Poznań"/>
    <tag k="addr:housenumber" v="165"/>
    <tag k="addr:street" v="28 Czerwca 1956 r."/>
    <tag k="source" v="http://ump.waw.pl/ retrieved 15:05:23 06/30/09 (UMP-Poznan/src/POZNAN.ulice.txt)"/>
  </node>
  <node id="454061765" version="1" timestamp="2009-08-02T04:10:54Z" uid="20587" user="balrog-kun" changeset="2009571" lat="52.3949111" lon="16.9256017">
    <tag k="addr:city" v="Poznań"/>
    <tag k="addr:housenumber" v="30"/>
    <tag k="addr:street" v="Dolna Wilda"/>
    <tag k="source" v="http://ump.waw.pl/ retrieved 15:05:23 06/30/09 (UMP-Poznan/src/POZNAN.ulice.txt)"/>
  </node>
  <node id="454061766" version="1" timestamp="2009-08-02T04:10:54Z" uid="20587" user="balrog-kun" changeset="2009571" lat="52.3961083" lon="16.9217312">
    <tag k="addr:city" v="Poznań"/>
    <tag k="addr:housenumber" v="17"/>
    <tag k="addr:street" v="Żupańskiego"/>
    <tag k="source" v="http://ump.waw.pl/ retrieved 15:05:23 06/30/09 (UMP-Poznan/src/POZNAN.ulice.txt)"/>
  </node>
  <node id="454061767" version="1" timestamp="2009-08-02T04:10:54Z" uid="20587" user="balrog-kun" changeset="2009571" lat="52.3881135" lon="16.9201172">
    <tag k="addr:city" v="Poznań"/>
    <tag k="addr:housenumber" v="24"/>
    <tag k="addr:street" v="Chłapowskiego"/>
    <tag k="source" v="http://ump.waw.pl/ retrieved 15:05:23 06/30/09 (UMP-Poznan/src/POZNAN.ulice.txt)"/>
  </node>
  <node id="454061769" version="1" timestamp="2009-08-02T04:10:55Z" uid="20587" user="balrog-kun" changeset="2009571" lat="52.3896783" lon="16.9133014">
    <tag k="addr:city" v="Poznań"/>
    <tag k="addr:housenumber" v="6"/>
    <tag k="addr:street" v="Umińskiego"/>
    <tag k="source" v="http://ump.waw.pl/ retrieved 15:05:23 06/30/09 (UMP-Poznan/src/POZNAN.ulice.txt)"/>
  </node>
  <node id="454061771" version="1" timestamp="2009-08-02T04:10:55Z" uid="20587" user="balrog-kun" changeset="2009571" lat="52.3878269" lon="16.9230764">
    <tag k="addr:city" v="Poznań"/>
    <tag k="addr:housenumber" v="16"/>
    <tag k="addr:street" v="Chłapowskiego"/>
    <tag k="source" v="http://ump.waw.pl/ retrieved 15:05:23 06/30/09 (UMP-Poznan/src/POZNAN.ulice.txt)"/>
  </node>
  <node id="454061772" version="1" timestamp="2009-08-02T04:10:55Z" uid="20587" user="balrog-kun" changeset="2009571" lat="52.392274" lon="16.9168894">
    <tag k="addr:city" v="Poznań"/>
    <tag k="addr:housenumber" v="14"/>
    <tag k="addr:street" v="Czarnieckiego"/>
    <tag k="source" v="http://ump.waw.pl/ retrieved 15:05:23 06/30/09 (UMP-Poznan/src/POZNAN.ulice.txt)"/>
  </node>
  <node id="454061773" version="1" timestamp="2009-08-02T04:10:55Z" uid="20587" user="balrog-kun" changeset="2009571" lat="52.3911993" lon="16.917629">
    <tag k="addr:city" v="Poznań"/>
    <tag k="addr:housenumber" v="8"/>
    <tag k="addr:street" v="Jana Kilińskiego"/>
    <tag k="source" v="http://ump.waw.pl/ retrieved 15:05:23 06/30/09 (UMP-Poznan/src/POZNAN.ulice.txt)"/>
  </node>
  <node id="454061775" version="1" timestamp="2009-08-02T04:10:55Z" uid="20587" user="balrog-kun" changeset="2009571" lat="52.3873466" lon="16.9219876">
    <tag k="addr:city" v="Poznań"/>
    <tag k="addr:housenumber" v="5"/>
    <tag k="addr:street" v="Zmartwychwstańców"/>
    <tag k="source" v="http://ump.waw.pl/ retrieved 15:05:23 06/30/09 (UMP-Poznan/src/POZNAN.ulice.txt)"/>
  </node>
  <node id="454061776" version="1" timestamp="2009-08-02T04:10:55Z" uid="20587" user="balrog-kun" changeset="2009571" lat="52.3978089" lon="16.9241403">
    <tag k="addr:city" v="Poznań"/>
    <tag k="addr:housenumber" v="17"/>
    <tag k="addr:street" v="Różana"/>
    <tag k="source" v="http://ump.waw.pl/ retrieved 15:05:23 06/30/09 (UMP-Poznan/src/POZNAN.ulice.txt)"/>
  </node>
  <node id="454061778" version="1" timestamp="2009-08-02T04:10:55Z" uid="20587" user="balrog-kun" changeset="2009571" lat="52.3950969" lon="16.9239868">
    <tag k="addr:city" v="Poznań"/>
    <tag k="addr:housenumber" v="2"/>
    <tag k="addr:street" v="Dolina"/>
    <tag k="source" v="http://ump.waw.pl/ retrieved 15:05:23 06/30/09 (UMP-Poznan/src/POZNAN.ulice.txt)"/>
  </node>
  <node id="454061780" version="1" timestamp="2009-08-02T04:10:55Z" uid="20587" user="balrog-kun" changeset="2009571" lat="52.3992217" lon="16.9224606">
    <tag k="addr:city" v="Poznań"/>
    <tag k="addr:housenumber" v="6"/>
    <tag k="addr:street" v="Niedziałkowskiego"/>
    <tag k="source" v="http://ump.waw.pl/ retrieved 15:05:23 06/30/09 (UMP-Poznan/src/POZNAN.ulice.txt)"/>
  </node>
  <node id="454061781" version="1" timestamp="2009-08-02T04:10:56Z" uid="20587" user="balrog-kun" changeset="2009571" lat="52.390849" lon="16.9205206">
    <tag k="addr:city" v="Poznań"/>
    <tag k="addr:housenumber" v="127"/>
    <tag k="addr:street" v="28 Czerwca 1956 r."/>
    <tag k="source" v="http://ump.waw.pl/ retrieved 15:05:23 06/30/09 (UMP-Poznan/src/POZNAN.ulice.txt)"/>
  </node>
  <node id="454061782" version="1" timestamp="2009-08-02T04:10:56Z" uid="20587" user="balrog-kun" changeset="2009571" lat="52.3908225" lon="16.9218036">
    <tag k="addr:city" v="Poznań"/>
    <tag k="addr:housenumber" v="64"/>
    <tag k="addr:street" v="Wierzbięcice"/>
    <tag k="source" v="http://ump.waw.pl/ retrieved 15:05:23 06/30/09 (UMP-Poznan/src/POZNAN.ulice.txt)"/>
  </node>
  <node id="454061784" version="1" timestamp="2009-08-02T04:10:56Z" uid="20587" user="balrog-kun" changeset="2009571" lat="52.3964893" lon="16.9248217">
    <tag k="addr:city" v="Poznań"/>
    <tag k="addr:housenumber" v="81"/>
    <tag k="addr:street" v="Górna Wilda"/>
    <tag k="source" v="http://ump.waw.pl/ retrieved 15:05:23 06/30/09 (UMP-Poznan/src/POZNAN.ulice.txt)"/>
  </node>
  <node id="454061786" version="1" timestamp="2009-08-02T04:10:56Z" uid="20587" user="balrog-kun" changeset="2009571" lat="52.3989515" lon="16.9241278">
    <tag k="addr:city" v="Poznań"/>
    <tag k="addr:housenumber" v="23"/>
    <tag k="addr:street" v="Różana"/>
    <tag k="source" v="http://ump.waw.pl/ retrieved 15:05:23 06/30/09 (UMP-Poznan/src/POZNAN.ulice.txt)"/>
  </node>
  <node id="454061787" version="1" timestamp="2009-08-02T04:10:56Z" uid="20587" user="balrog-kun" changeset="2009571" lat="52.385485" lon="16.9181307">
    <tag k="addr:city" v="Poznań"/>
    <tag k="addr:housenumber" v="33"/>
    <tag k="addr:street" v="Traugutta"/>
    <tag k="source" v="http://ump.waw.pl/ retrieved 15:05:23 06/30/09 (UMP-Poznan/src/POZNAN.ulice.txt)"/>
  </node>
  <node id="454061788" version="1" timestamp="2009-08-02T04:10:56Z" uid="20587" user="balrog-kun" changeset="2009571" lat="52.3944292" lon="16.922379">
    <tag k="addr:city" v="Poznań"/>
    <tag k="addr:housenumber" v="100"/>
    <tag k="addr:street" v="Górna Wilda"/>
    <tag k="source" v="http://ump.waw.pl/ retrieved 15:05:23 06/30/09 (UMP-Poznan/src/POZNAN.ulice.txt)"/>
  </node>
  <node id="454061790" version="1" timestamp="2009-08-02T04:10:56Z" uid="20587" user="balrog-kun" changeset="2009571" lat="52.3915738" lon="16.9178388">
    <tag k="addr:city" v="Poznań"/>
    <tag k="addr:housenumber" v="12"/>
    <tag k="addr:street" v="Prądzyńskiego"/>
    <tag k="source" v="http://ump.waw.pl/ retrieved 15:05:23 06/30/09 (UMP-Poznan/src/POZNAN.ulice.txt)"/>
  </node>
  <node id="454061791" version="1" timestamp="2009-08-02T04:10:56Z" uid="20587" user="balrog-kun" changeset="2009571" lat="52.3927268" lon="16.9204658">
    <tag k="addr:city" v="Poznań"/>
    <tag k="addr:housenumber" v="115"/>
    <tag k="addr:street" v="28 Czerwca 1956 r."/>
    <tag k="source" v="http://ump.waw.pl/ retrieved 15:05:23 06/30/09 (UMP-Poznan/src/POZNAN.ulice.txt)"/>
  </node>
  <node id="454061793" version="1" timestamp="2009-08-02T04:10:56Z" uid="20587" user="balrog-kun" changeset="2009571" lat="52.385578" lon="16.9160704">
    <tag k="addr:city" v="Poznań"/>
    <tag k="addr:housenumber" v="23"/>
    <tag k="addr:street" v="Traugutta"/>
    <tag k="source" v="http://ump.waw.pl/ retrieved 15:05:23 06/30/09 (UMP-Poznan/src/POZNAN.ulice.txt)"/>
  </node>
  <node id="454061794" version="1" timestamp="2009-08-02T04:10:57Z" uid="20587" user="balrog-kun" changeset="2009571" lat="52.3934893" lon="16.923961">
    <tag k="addr:city" v="Poznań"/>
    <tag k="addr:housenumber" v="1"/>
    <tag k="addr:street" v="Przy Dolinie"/>
    <tag k="source" v="http://ump.waw.pl/ retrieved 15:05:23 06/30/09 (UMP-Poznan/src/POZNAN.ulice.txt)"/>
  </node>
  <node id="454061796" version="1" timestamp="2009-08-02T04:10:57Z" uid="20587" user="balrog-kun" changeset="2009571" lat="52.3891208" lon="16.9122684">
    <tag k="addr:city" v="Poznań"/>
    <tag k="addr:housenumber" v="20"/>
    <tag k="addr:street" v="Umińskiego"/>
    <tag k="source" v="http://ump.waw.pl/ retrieved 15:05:23 06/30/09 (UMP-Poznan/src/POZNAN.ulice.txt)"/>
  </node>
  <node id="454061797" version="1" timestamp="2009-08-02T04:10:57Z" uid="20587" user="balrog-kun" changeset="2009571" lat="52.3987259" lon="16.9271675">
    <tag k="addr:city" v="Poznań"/>
    <tag k="addr:housenumber" v="-1"/>
    <tag k="addr:street" v="Dolna Wilda"/>
    <tag k="source" v="http://ump.waw.pl/ retrieved 15:05:23 06/30/09 (UMP-Poznan/src/POZNAN.ulice.txt)"/>
  </node>
  <node id="454061797" version="2" timestamp="2011-09-07T20:39:44Z" uid="19417" user="xjr" changeset="9240628" lat="52.3987259" lon="16.9271675"/>
  <node id="454061799" version="1" timestamp="2009-08-02T04:10:57Z" uid="20587" user="balrog-kun" changeset="2009571" lat="52.3969587" lon="16.9227573">
    <tag k="addr:city" v="Poznań"/>
    <tag k="addr:housenumber" v="1"/>
    <tag k="addr:street" v="Poplińskich"/>
    <tag k="source" v="http://ump.waw.pl/ retrieved 15:05:23 06/30/09 (UMP-Poznan/src/POZNAN.ulice.txt)"/>
  </node>
  <node id="454061800" version="1" timestamp="2009-08-02T04:10:57Z" uid="20587" user="balrog-kun" changeset="2009571" lat="52.3918659" lon="16.9182363">
    <tag k="addr:city" v="Poznań"/>
    <tag k="addr:housenumber" v="38"/>
    <tag k="addr:street" v="Sikorskiego"/>
    <tag k="source" v="http://ump.waw.pl/ retrieved 15:05:23 06/30/09 (UMP-Poznan/src/POZNAN.ulice.txt)"/>
  </node>
  <node id="454061801" version="1" timestamp="2009-08-02T04:10:57Z" uid="20587" user="balrog-kun" changeset="2009571" lat="52.391514" lon="16.921772">
    <tag k="addr:city" v="Poznań"/>
    <tag k="addr:housenumber" v="60"/>
    <tag k="addr:street" v="Wierzbięcice"/>
    <tag k="source" v="http://ump.waw.pl/ retrieved 15:05:23 06/30/09 (UMP-Poznan/src/POZNAN.ulice.txt)"/>
  </node>
  <node id="454061803" version="1" timestamp="2009-08-02T04:10:57Z" uid="20587" user="balrog-kun" changeset="2009571" lat="52.3923053" lon="16.9232659">
    <tag k="addr:city" v="Poznań"/>
    <tag k="addr:housenumber" v="3"/>
    <tag k="addr:street" v="Powstańcza"/>
    <tag k="source" v="http://ump.waw.pl/ retrieved 15:05:23 06/30/09 (UMP-Poznan/src/POZNAN.ulice.txt)"/>
  </node>
  <node id="454061805" version="1" timestamp="2009-08-02T04:10:57Z" uid="20587" user="balrog-kun" changeset="2009571" lat="52.3874605" lon="16.9129557">
    <tag k="addr:city" v="Poznań"/>
    <tag k="addr:housenumber" v="33"/>
    <tag k="addr:street" v="Fabryczna"/>
    <tag k="source" v="http://ump.waw.pl/ retrieved 15:05:23 06/30/09 (UMP-Poznan/src/POZNAN.ulice.txt)"/>
  </node>
  <node id="454061806" version="1" timestamp="2009-08-02T04:10:57Z" uid="20587" user="balrog-kun" changeset="2009571" lat="52.3873386" lon="16.919947">
    <tag k="addr:city" v="Poznań"/>
    <tag k="addr:housenumber" v="13"/>
    <tag k="addr:street" v="Dąbrówki"/>
    <tag k="source" v="http://ump.waw.pl/ retrieved 15:05:23 06/30/09 (UMP-Poznan/src/POZNAN.ulice.txt)"/>
  </node>
  <node id="454061807" version="1" timestamp="2009-08-02T04:10:57Z" uid="20587" user="balrog-kun" changeset="2009571" lat="52.3901916" lon="16.9187828">
    <tag k="addr:city" v="Poznań"/>
    <tag k="addr:housenumber" v="132"/>
    <tag k="addr:street" v="28 Czerwca 1956 r."/>
    <tag k="source" v="http://ump.waw.pl/ retrieved 15:05:23 06/30/09 (UMP-Poznan/src/POZNAN.ulice.txt)"/>
  </node>
  <node id="454061810" version="1" timestamp="2009-08-02T04:10:58Z" uid="20587" user="balrog-kun" changeset="2009571" lat="52.3852482" lon="16.9153948">
    <tag k="addr:city" v="Poznań"/>
    <tag k="addr:housenumber" v="28"/>
    <tag k="addr:street" v="Traugutta"/>
    <tag k="source" v="http://ump.waw.pl/ retrieved 15:05:23 06/30/09 (UMP-Poznan/src/POZNAN.ulice.txt)"/>
  </node>
  <node id="454061811" version="1" timestamp="2009-08-02T04:10:58Z" uid="20587" user="balrog-kun" changeset="2009571" lat="52.3871985" lon="16.9166613">
    <tag k="addr:city" v="Poznań"/>
    <tag k="addr:housenumber" v="159"/>
    <tag k="addr:street" v="28 Czerwca 1956 r."/>
    <tag k="source" v="http://ump.waw.pl/ retrieved 15:05:23 06/30/09 (UMP-Poznan/src/POZNAN.ulice.txt)"/>
  </node>
  <node id="454061812" version="1" timestamp="2009-08-02T04:10:58Z" uid="20587" user="balrog-kun" changeset="2009571" lat="52.3899201" lon="16.9158076">
    <tag k="addr:city" v="Poznań"/>
    <tag k="addr:housenumber" v="51"/>
    <tag k="addr:street" v="Prądzyńskiego"/>
    <tag k="source" v="http://ump.waw.pl/ retrieved 15:05:23 06/30/09 (UMP-Poznan/src/POZNAN.ulice.txt)"/>
  </node>
  <node id="454061814" version="1" timestamp="2009-08-02T04:10:58Z" uid="20587" user="balrog-kun" changeset="2009571" lat="52.391125" lon="16.9207442"/>
  <node id="454061815" version="1" timestamp="2009-08-02T04:10:58Z" uid="20587" user="balrog-kun" changeset="2009571" lat="52.398963" lon="16.9265467">
    <tag k="addr:city" v="Poznań"/>
    <tag k="addr:housenumber" v="61"/>
    <tag k="addr:street" v="Górna Wilda"/>
    <tag k="source" v="http://ump.waw.pl/ retrieved 15:05:23 06/30/09 (UMP-Poznan/src/POZNAN.ulice.txt)"/>
  </node>
  <node id="454061816" version="1" timestamp="2009-08-02T04:10:58Z" uid="20587" user="balrog-kun" changeset="2009571" lat="52.3987364" lon="16.9210159">
    <tag k="addr:city" v="Poznań"/>
    <tag k="addr:housenumber" v="7"/>
    <tag k="addr:street" v="Wierzbięcice"/>
    <tag k="source" v="http://ump.waw.pl/ retrieved 15:05:23 06/30/09 (UMP-Poznan/src/POZNAN.ulice.txt)"/>
  </node>
  <node id="454061818" version="1" timestamp="2009-08-02T04:10:58Z" uid="20587" user="balrog-kun" changeset="2009571" lat="52.3888111" lon="16.9173054">
    <tag k="addr:city" v="Poznań"/>
    <tag k="addr:housenumber" v="33"/>
    <tag k="addr:street" v="Antoniego Kosińskiego"/>
    <tag k="source" v="http://ump.waw.pl/ retrieved 15:05:23 06/30/09 (UMP-Poznan/src/POZNAN.ulice.txt)"/>
  </node>
  <node id="454061820" version="1" timestamp="2009-08-02T04:10:59Z" uid="20587" user="balrog-kun" changeset="2009571" lat="52.3992188" lon="16.9214938">
    <tag k="addr:city" v="Poznań"/>
    <tag k="addr:housenumber" v="6"/>
    <tag k="addr:street" v="Wierzbięcice"/>
    <tag k="source" v="http://ump.waw.pl/ retrieved 15:05:23 06/30/09 (UMP-Poznan/src/POZNAN.ulice.txt)"/>
  </node>
  <node id="454061821" version="1" timestamp="2009-08-02T04:10:59Z" uid="20587" user="balrog-kun" changeset="2009571" lat="52.3854724" lon="16.9184575">
    <tag k="addr:city" v="Poznań"/>
    <tag k="addr:housenumber" v="11"/>
    <tag k="addr:street" v="Filarecka"/>
    <tag k="source" v="http://ump.waw.pl/ retrieved 15:05:23 06/30/09 (UMP-Poznan/src/POZNAN.ulice.txt)"/>
  </node>
  <node id="454061822" version="1" timestamp="2009-08-02T04:10:59Z" uid="20587" user="balrog-kun" changeset="2009571" lat="52.3948222" lon="16.9228118">
    <tag k="addr:city" v="Poznań"/>
    <tag k="addr:housenumber" v="98"/>
    <tag k="addr:street" v="Górna Wilda"/>
    <tag k="source" v="http://ump.waw.pl/ retrieved 15:05:23 06/30/09 (UMP-Poznan/src/POZNAN.ulice.txt)"/>
  </node>
  <node id="454061826" version="1" timestamp="2009-08-02T04:10:59Z" uid="20587" user="balrog-kun" changeset="2009571" lat="52.3915318" lon="16.9211457">
    <tag k="addr:city" v="Poznań"/>
    <tag k="addr:housenumber" v="63"/>
    <tag k="addr:street" v="Wierzbięcice"/>
    <tag k="source" v="http://ump.waw.pl/ retrieved 15:05:23 06/30/09 (UMP-Poznan/src/POZNAN.ulice.txt)"/>
  </node>
  <node id="454061827" version="1" timestamp="2009-08-02T04:10:59Z" uid="20587" user="balrog-kun" changeset="2009571" lat="52.3963415" lon="16.9193488">
    <tag k="addr:city" v="Poznań"/>
    <tag k="addr:housenumber" v="33"/>
    <tag k="addr:street" v="Przemysłowa"/>
    <tag k="source" v="http://ump.waw.pl/ retrieved 15:05:23 06/30/09 (UMP-Poznan/src/POZNAN.ulice.txt)"/>
  </node>
  <node id="454061828" version="1" timestamp="2009-08-02T04:10:59Z" uid="20587" user="balrog-kun" changeset="2009571" lat="52.3848779" lon="16.9210609">
    <tag k="addr:city" v="Poznań"/>
    <tag k="addr:housenumber" v="46"/>
    <tag k="addr:street" v="Traugutta"/>
    <tag k="source" v="http://ump.waw.pl/ retrieved 15:05:23 06/30/09 (UMP-Poznan/src/POZNAN.ulice.txt)"/>
  </node>
  <node id="454061830" version="1" timestamp="2009-08-02T04:10:59Z" uid="20587" user="balrog-kun" changeset="2009571" lat="52.3905626" lon="16.9194644">
    <tag k="addr:city" v="Poznań"/>
    <tag k="addr:housenumber" v="130"/>
    <tag k="addr:street" v="28 Czerwca 1956 r."/>
    <tag k="source" v="http://ump.waw.pl/ retrieved 15:05:23 06/30/09 (UMP-Poznan/src/POZNAN.ulice.txt)"/>
  </node>
  <node id="454061832" version="1" timestamp="2009-08-02T04:10:59Z" uid="20587" user="balrog-kun" changeset="2009571" lat="52.3938879" lon="16.9161644">
    <tag k="addr:city" v="Poznań"/>
    <tag k="addr:housenumber" v="2"/>
    <tag k="addr:street" v="Czarnieckiego"/>
    <tag k="source" v="http://ump.waw.pl/ retrieved 15:05:23 06/30/09 (UMP-Poznan/src/POZNAN.ulice.txt)"/>
  </node>
  <node id="454061833" version="1" timestamp="2009-08-02T04:10:59Z" uid="20587" user="balrog-kun" changeset="2009571" lat="52.3857428" lon="16.9148671">
    <tag k="addr:city" v="Poznań"/>
    <tag k="addr:housenumber" v="176"/>
    <tag k="addr:street" v="28 Czerwca 1956 r."/>
    <tag k="source" v="http://ump.waw.pl/ retrieved 15:05:23 06/30/09 (UMP-Poznan/src/POZNAN.ulice.txt)"/>
  </node>
  <node id="454061834" version="1" timestamp="2009-08-02T04:10:59Z" uid="20587" user="balrog-kun" changeset="2009571" lat="52.3994788" lon="16.9265653">
    <tag k="addr:city" v="Poznań"/>
    <tag k="addr:housenumber" v="1"/>
    <tag k="addr:street" v="Niedziałkowskiego"/>
    <tag k="source" v="http://ump.waw.pl/ retrieved 15:05:23 06/30/09 (UMP-Poznan/src/POZNAN.ulice.txt)"/>
  </node>
  <node id="454061837" version="1" timestamp="2009-08-02T04:11:00Z" uid="20587" user="balrog-kun" changeset="2009571" lat="52.3939197" lon="16.9246129">
    <tag k="addr:city" v="Poznań"/>
    <tag k="addr:housenumber" v="15"/>
    <tag k="addr:street" v="Dolina"/>
    <tag k="source" v="http://ump.waw.pl/ retrieved 15:05:23 06/30/09 (UMP-Poznan/src/POZNAN.ulice.txt)"/>
  </node>
  <node id="454061838" version="1" timestamp="2009-08-02T04:11:00Z" uid="20587" user="balrog-kun" changeset="2009571" lat="52.3965546" lon="16.9228209">
    <tag k="addr:city" v="Poznań"/>
    <tag k="addr:housenumber" v="3"/>
    <tag k="addr:street" v="Poplińskich"/>
    <tag k="source" v="http://ump.waw.pl/ retrieved 15:05:23 06/30/09 (UMP-Poznan/src/POZNAN.ulice.txt)"/>
  </node>
  <node id="454061839" version="1" timestamp="2009-08-02T04:11:00Z" uid="20587" user="balrog-kun" changeset="2009571" lat="52.3928407" lon="16.9240571">
    <tag k="addr:city" v="Poznań"/>
    <tag k="addr:housenumber" v="6"/>
    <tag k="addr:street" v="Czajcza"/>
    <tag k="source" v="http://ump.waw.pl/ retrieved 15:05:23 06/30/09 (UMP-Poznan/src/POZNAN.ulice.txt)"/>
  </node>
  <node id="454061842" version="1" timestamp="2009-08-02T04:11:00Z" uid="20587" user="balrog-kun" changeset="2009571" lat="52.3930333" lon="16.9218459">
    <tag k="addr:city" v="Poznań"/>
    <tag k="addr:housenumber" v="1"/>
    <tag k="addr:street" v="Czajcza"/>
    <tag k="source" v="http://ump.waw.pl/ retrieved 15:05:23 06/30/09 (UMP-Poznan/src/POZNAN.ulice.txt)"/>
  </node>
  <node id="454061843" version="1" timestamp="2009-08-02T04:11:00Z" uid="20587" user="balrog-kun" changeset="2009571" lat="52.3880502" lon="16.9143985">
    <tag k="addr:city" v="Poznań"/>
    <tag k="addr:housenumber" v="38"/>
    <tag k="addr:street" v="Fabryczna"/>
    <tag k="source" v="http://ump.waw.pl/ retrieved 15:05:23 06/30/09 (UMP-Poznan/src/POZNAN.ulice.txt)"/>
  </node>
  <node id="454061844" version="1" timestamp="2009-08-02T04:11:00Z" uid="20587" user="balrog-kun" changeset="2009571" lat="52.3981362" lon="16.9241971">
    <tag k="addr:city" v="Poznań"/>
    <tag k="addr:housenumber" v="19"/>
    <tag k="addr:street" v="Różana"/>
    <tag k="source" v="http://ump.waw.pl/ retrieved 15:05:23 06/30/09 (UMP-Poznan/src/POZNAN.ulice.txt)"/>
  </node>
  <node id="454061845" version="1" timestamp="2009-08-02T04:11:00Z" uid="20587" user="balrog-kun" changeset="2009571" lat="52.3956399" lon="16.9257739">
    <tag k="addr:city" v="Poznań"/>
    <tag k="addr:housenumber" v="28"/>
    <tag k="addr:street" v="Dolna Wilda"/>
    <tag k="source" v="http://ump.waw.pl/ retrieved 15:05:23 06/30/09 (UMP-Poznan/src/POZNAN.ulice.txt)"/>
  </node>
  <node id="454061848" version="1" timestamp="2009-08-02T04:11:01Z" uid="20587" user="balrog-kun" changeset="2009571" lat="52.395817" lon="16.9188677">
    <tag k="addr:city" v="Poznań"/>
    <tag k="addr:housenumber" v="46"/>
    <tag k="addr:street" v="Przemysłowa"/>
    <tag k="source" v="http://ump.waw.pl/ retrieved 15:05:23 06/30/09 (UMP-Poznan/src/POZNAN.ulice.txt)"/>
  </node>
  <node id="454061849" version="1" timestamp="2009-08-02T04:11:01Z" uid="20587" user="balrog-kun" changeset="2009571" lat="52.3970428" lon="16.9180927">
    <tag k="addr:city" v="Poznań"/>
    <tag k="addr:housenumber" v="34"/>
    <tag k="addr:street" v="Przemysłowa"/>
    <tag k="source" v="http://ump.waw.pl/ retrieved 15:05:23 06/30/09 (UMP-Poznan/src/POZNAN.ulice.txt)"/>
  </node>
  <node id="454061850" version="1" timestamp="2009-08-02T04:11:01Z" uid="20587" user="balrog-kun" changeset="2009571" lat="52.3890163" lon="16.9147317">
    <tag k="addr:city" v="Poznań"/>
    <tag k="addr:housenumber" v="26"/>
    <tag k="addr:street" v="Antoniego Kosińskiego"/>
    <tag k="source" v="http://ump.waw.pl/ retrieved 15:05:23 06/30/09 (UMP-Poznan/src/POZNAN.ulice.txt)"/>
  </node>
  <node id="454061851" version="1" timestamp="2009-08-02T04:11:01Z" uid="20587" user="balrog-kun" changeset="2009571" lat="52.3848369" lon="16.9206789">
    <tag k="addr:city" v="Poznań"/>
    <tag k="addr:housenumber" v="1"/>
    <tag k="addr:street" v="Małeckiego"/>
    <tag k="source" v="http://ump.waw.pl/ retrieved 15:05:23 06/30/09 (UMP-Poznan/src/POZNAN.ulice.txt)"/>
  </node>
  <node id="454061853" version="1" timestamp="2009-08-02T04:11:01Z" uid="20587" user="balrog-kun" changeset="2009571" lat="52.390951" lon="16.9144743">
    <tag k="addr:city" v="Poznań"/>
    <tag k="addr:housenumber" v="29"/>
    <tag k="addr:street" v="Sikorskiego"/>
    <tag k="source" v="http://ump.waw.pl/ retrieved 15:05:23 06/30/09 (UMP-Poznan/src/POZNAN.ulice.txt)"/>
  </node>
  <node id="454061854" version="1" timestamp="2009-08-02T04:11:01Z" uid="20587" user="balrog-kun" changeset="2009571" lat="52.395307" lon="16.9194977">
    <tag k="addr:city" v="Poznań"/>
    <tag k="addr:housenumber" v="43"/>
    <tag k="addr:street" v="Przemysłowa"/>
    <tag k="source" v="http://ump.waw.pl/ retrieved 15:05:23 06/30/09 (UMP-Poznan/src/POZNAN.ulice.txt)"/>
  </node>
  <node id="454061856" version="1" timestamp="2009-08-02T04:11:01Z" uid="20587" user="balrog-kun" changeset="2009571" lat="52.3856823" lon="16.9166753">
    <tag k="addr:city" v="Poznań"/>
    <tag k="addr:housenumber" v="8"/>
    <tag k="addr:street" v="Rolna"/>
    <tag k="source" v="http://ump.waw.pl/ retrieved 15:05:23 06/30/09 (UMP-Poznan/src/POZNAN.ulice.txt)"/>
  </node>
  <node id="454061857" version="1" timestamp="2009-08-02T04:11:01Z" uid="20587" user="balrog-kun" changeset="2009571" lat="52.3953041" lon="16.9245424">
    <tag k="addr:city" v="Poznań"/>
    <tag k="addr:housenumber" v="20"/>
    <tag k="addr:street" v="Dolina"/>
    <tag k="source" v="http://ump.waw.pl/ retrieved 15:05:23 06/30/09 (UMP-Poznan/src/POZNAN.ulice.txt)"/>
  </node>
  <node id="454061858" version="1" timestamp="2009-08-02T04:11:01Z" uid="20587" user="balrog-kun" changeset="2009571" lat="52.3903687" lon="16.9134169">
    <tag k="addr:city" v="Poznań"/>
    <tag k="addr:housenumber" v="25"/>
    <tag k="addr:street" v="Umińskiego"/>
    <tag k="source" v="http://ump.waw.pl/ retrieved 15:05:23 06/30/09 (UMP-Poznan/src/POZNAN.ulice.txt)"/>
  </node>
  <node id="454061859" version="1" timestamp="2009-08-02T04:11:01Z" uid="20587" user="balrog-kun" changeset="2009571" lat="52.3968359" lon="16.92111">
    <tag k="addr:city" v="Poznań"/>
    <tag k="addr:housenumber" v="23"/>
    <tag k="addr:street" v="Wierzbięcice"/>
    <tag k="source" v="http://ump.waw.pl/ retrieved 15:05:23 06/30/09 (UMP-Poznan/src/POZNAN.ulice.txt)"/>
  </node>
  <node id="454061862" version="1" timestamp="2009-08-02T04:11:02Z" uid="20587" user="balrog-kun" changeset="2009571" lat="52.3855333" lon="16.9166974">
    <tag k="addr:city" v="Poznań"/>
    <tag k="addr:housenumber" v="27"/>
    <tag k="addr:street" v="Traugutta"/>
    <tag k="source" v="http://ump.waw.pl/ retrieved 15:05:23 06/30/09 (UMP-Poznan/src/POZNAN.ulice.txt)"/>
  </node>
  <node id="454061863" version="1" timestamp="2009-08-02T04:11:02Z" uid="20587" user="balrog-kun" changeset="2009571" lat="52.3896427" lon="16.9247084">
    <tag k="addr:city" v="Poznań"/>
    <tag k="addr:housenumber" v="87"/>
    <tag k="addr:street" v="Dolna Wilda"/>
    <tag k="source" v="http://ump.waw.pl/ retrieved 15:05:23 06/30/09 (UMP-Poznan/src/POZNAN.ulice.txt)"/>
  </node>
  <node id="454061864" version="1" timestamp="2009-08-02T04:11:02Z" uid="20587" user="balrog-kun" changeset="2009571" lat="52.3858133" lon="16.9154368">
    <tag k="addr:city" v="Poznań"/>
    <tag k="addr:housenumber" v="175"/>
    <tag k="addr:street" v="28 Czerwca 1956 r."/>
    <tag k="source" v="http://ump.waw.pl/ retrieved 15:05:23 06/30/09 (UMP-Poznan/src/POZNAN.ulice.txt)"/>
  </node>
  <node id="454061865" version="1" timestamp="2009-08-02T04:11:02Z" uid="20587" user="balrog-kun" changeset="2009571" lat="52.3865047" lon="16.9155522">
    <tag k="addr:city" v="Poznań"/>
    <tag k="addr:housenumber" v="166"/>
    <tag k="addr:street" v="28 Czerwca 1956 r."/>
    <tag k="source" v="http://ump.waw.pl/ retrieved 15:05:23 06/30/09 (UMP-Poznan/src/POZNAN.ulice.txt)"/>
  </node>
  <node id="454061868" version="1" timestamp="2009-08-02T04:11:02Z" uid="20587" user="balrog-kun" changeset="2009571" lat="52.395276" lon="16.9232572">
    <tag k="addr:city" v="Poznań"/>
    <tag k="addr:housenumber" v="90"/>
    <tag k="addr:street" v="Górna Wilda"/>
    <tag k="source" v="http://ump.waw.pl/ retrieved 15:05:23 06/30/09 (UMP-Poznan/src/POZNAN.ulice.txt)"/>
  </node>
  <node id="454061869" version="1" timestamp="2009-08-02T04:11:02Z" uid="20587" user="balrog-kun" changeset="2009571" lat="52.3905867" lon="16.9171456">
    <tag k="addr:city" v="Poznań"/>
    <tag k="addr:housenumber" v="12"/>
    <tag k="addr:street" v="Wybickiego"/>
    <tag k="source" v="http://ump.waw.pl/ retrieved 15:05:23 06/30/09 (UMP-Poznan/src/POZNAN.ulice.txt)"/>
  </node>
  <node id="454061870" version="1" timestamp="2009-08-02T04:11:02Z" uid="20587" user="balrog-kun" changeset="2009571" lat="52.393477" lon="16.921727">
    <tag k="addr:city" v="Poznań"/>
    <tag k="addr:housenumber" v="109"/>
    <tag k="addr:street" v="Górna Wilda"/>
    <tag k="source" v="http://ump.waw.pl/ retrieved 15:05:23 06/30/09 (UMP-Poznan/src/POZNAN.ulice.txt)"/>
  </node>
  <node id="454061872" version="1" timestamp="2009-08-02T04:11:03Z" uid="20587" user="balrog-kun" changeset="2009571" lat="52.3921931" lon="16.9180824">
    <tag k="addr:city" v="Poznań"/>
    <tag k="addr:housenumber" v="6"/>
    <tag k="addr:street" v="Sikorskiego"/>
    <tag k="source" v="http://ump.waw.pl/ retrieved 15:05:23 06/30/09 (UMP-Poznan/src/POZNAN.ulice.txt)"/>
  </node>
  <node id="454061874" version="1" timestamp="2009-08-02T04:11:03Z" uid="20587" user="balrog-kun" changeset="2009571" lat="52.3863369" lon="16.9163856">
    <tag k="addr:city" v="Poznań"/>
    <tag k="addr:housenumber" v="2"/>
    <tag k="addr:street" v="Rolna"/>
    <tag k="source" v="http://ump.waw.pl/ retrieved 15:05:23 06/30/09 (UMP-Poznan/src/POZNAN.ulice.txt)"/>
  </node>
  <node id="454061875" version="1" timestamp="2009-08-02T04:11:03Z" uid="20587" user="balrog-kun" changeset="2009571" lat="52.3904534" lon="16.9243251">
    <tag k="addr:city" v="Poznań"/>
    <tag k="addr:housenumber" v="64"/>
    <tag k="addr:street" v="Dolna Wilda"/>
    <tag k="source" v="http://ump.waw.pl/ retrieved 15:05:23 06/30/09 (UMP-Poznan/src/POZNAN.ulice.txt)"/>
  </node>
  <node id="454061876" version="1" timestamp="2009-08-02T04:11:03Z" uid="20587" user="balrog-kun" changeset="2009571" lat="52.3957108" lon="16.923098">
    <tag k="addr:city" v="Poznań"/>
    <tag k="addr:housenumber" v="29"/>
    <tag k="addr:street" v="Chwiałkowskiego"/>
    <tag k="source" v="http://ump.waw.pl/ retrieved 15:05:23 06/30/09 (UMP-Poznan/src/POZNAN.ulice.txt)"/>
  </node>
  <node id="454061877" version="1" timestamp="2009-08-02T04:11:03Z" uid="20587" user="balrog-kun" changeset="2009571" lat="52.3879015" lon="16.9223068">
    <tag k="addr:city" v="Poznań"/>
    <tag k="addr:housenumber" v="18"/>
    <tag k="addr:street" v="Chłapowskiego"/>
    <tag k="source" v="http://ump.waw.pl/ retrieved 15:05:23 06/30/09 (UMP-Poznan/src/POZNAN.ulice.txt)"/>
  </node>
  <node id="454061879" version="1" timestamp="2009-08-02T04:11:03Z" uid="20587" user="balrog-kun" changeset="2009571" lat="52.3967908" lon="16.924574">
    <tag k="addr:city" v="Poznań"/>
    <tag k="addr:housenumber" v="84"/>
    <tag k="addr:street" v="Górna Wilda"/>
    <tag k="source" v="http://ump.waw.pl/ retrieved 15:05:23 06/30/09 (UMP-Poznan/src/POZNAN.ulice.txt)"/>
  </node>
  <node id="454061881" version="1" timestamp="2009-08-02T04:11:03Z" uid="20587" user="balrog-kun" changeset="2009571" lat="52.3880184" lon="16.9176704">
    <tag k="addr:city" v="Poznań"/>
    <tag k="addr:housenumber" v="1"/>
    <tag k="addr:street" v="Chłapowskiego"/>
    <tag k="source" v="http://ump.waw.pl/ retrieved 15:05:23 06/30/09 (UMP-Poznan/src/POZNAN.ulice.txt)"/>
  </node>
  <node id="454061882" version="1" timestamp="2009-08-02T04:11:03Z" uid="20587" user="balrog-kun" changeset="2009571" lat="52.3909973" lon="16.9192668">
    <tag k="addr:city" v="Poznań"/>
    <tag k="addr:housenumber" v="2"/>
    <tag k="addr:street" v="Jana Kilińskiego"/>
    <tag k="source" v="http://ump.waw.pl/ retrieved 15:05:23 06/30/09 (UMP-Poznan/src/POZNAN.ulice.txt)"/>
  </node>
  <node id="454061883" version="1" timestamp="2009-08-02T04:11:03Z" uid="20587" user="balrog-kun" changeset="2009571" lat="52.3895969" lon="16.912423">
    <tag k="addr:city" v="Poznań"/>
    <tag k="addr:housenumber" v="13"/>
    <tag k="addr:street" v="Antoniego Kosińskiego"/>
    <tag k="source" v="http://ump.waw.pl/ retrieved 15:05:23 06/30/09 (UMP-Poznan/src/POZNAN.ulice.txt)"/>
  </node>
  <node id="454061884" version="1" timestamp="2009-08-02T04:11:04Z" uid="20587" user="balrog-kun" changeset="2009571" lat="52.3877138" lon="16.9206367">
    <tag k="addr:city" v="Poznań"/>
    <tag k="addr:housenumber" v="9"/>
    <tag k="addr:street" v="Chłapowskiego"/>
    <tag k="source" v="http://ump.waw.pl/ retrieved 15:05:23 06/30/09 (UMP-Poznan/src/POZNAN.ulice.txt)"/>
  </node>
  <node id="454061887" version="1" timestamp="2009-08-02T04:11:04Z" uid="20587" user="balrog-kun" changeset="2009571" lat="52.3892983" lon="16.9121725">
    <tag k="addr:city" v="Poznań"/>
    <tag k="addr:housenumber" v="18"/>
    <tag k="addr:street" v="Antoniego Kosińskiego"/>
    <tag k="source" v="http://ump.waw.pl/ retrieved 15:05:23 06/30/09 (UMP-Poznan/src/POZNAN.ulice.txt)"/>
  </node>
  <node id="454061889" version="1" timestamp="2009-08-02T04:11:04Z" uid="20587" user="balrog-kun" changeset="2009571" lat="52.3961494" lon="16.922287">
    <tag k="addr:city" v="Poznań"/>
    <tag k="addr:housenumber" v="15"/>
    <tag k="addr:street" v="Żupańskiego"/>
    <tag k="source" v="http://ump.waw.pl/ retrieved 15:05:23 06/30/09 (UMP-Poznan/src/POZNAN.ulice.txt)"/>
  </node>
  <node id="454061892" version="1" timestamp="2009-08-02T04:11:04Z" uid="20587" user="balrog-kun" changeset="2009571" lat="52.3992956" lon="16.9252871">
    <tag k="addr:city" v="Poznań"/>
    <tag k="addr:housenumber" v="29"/>
    <tag k="addr:street" v="Niedziałkowskiego"/>
    <tag k="source" v="http://ump.waw.pl/ retrieved 15:05:23 06/30/09 (UMP-Poznan/src/POZNAN.ulice.txt)"/>
  </node>
  <node id="454061901" version="1" timestamp="2009-08-02T04:11:04Z" uid="20587" user="balrog-kun" changeset="2009571" lat="52.3882183" lon="16.9147682">
    <tag k="addr:city" v="Poznań"/>
    <tag k="addr:housenumber" v="2"/>
    <tag k="addr:street" v="Madalińskiego"/>
    <tag k="source" v="http://ump.waw.pl/ retrieved 15:05:23 06/30/09 (UMP-Poznan/src/POZNAN.ulice.txt)"/>
  </node>
  <node id="454061905" version="1" timestamp="2009-08-02T04:11:04Z" uid="20587" user="balrog-kun" changeset="2009571" lat="52.3971588" lon="16.9237278">
    <tag k="addr:city" v="Poznań"/>
    <tag k="addr:housenumber" v="10"/>
    <tag k="addr:street" v="Świętego Czesława"/>
    <tag k="source" v="http://ump.waw.pl/ retrieved 15:05:23 06/30/09 (UMP-Poznan/src/POZNAN.ulice.txt)"/>
  </node>
  <node id="454061908" version="1" timestamp="2009-08-02T04:11:04Z" uid="20587" user="balrog-kun" changeset="2009571" lat="52.39424" lon="16.9226978">
    <tag k="addr:city" v="Poznań"/>
    <tag k="addr:housenumber" v="101"/>
    <tag k="addr:street" v="Górna Wilda"/>
    <tag k="source" v="http://ump.waw.pl/ retrieved 15:05:23 06/30/09 (UMP-Poznan/src/POZNAN.ulice.txt)"/>
  </node>
  <node id="454061912" version="1" timestamp="2009-08-02T04:11:04Z" uid="20587" user="balrog-kun" changeset="2009571" lat="52.3965313" lon="16.9224227">
    <tag k="addr:city" v="Poznań"/>
    <tag k="addr:housenumber" v="11"/>
    <tag k="addr:street" v="Poplińskich"/>
    <tag k="source" v="http://ump.waw.pl/ retrieved 15:05:23 06/30/09 (UMP-Poznan/src/POZNAN.ulice.txt)"/>
  </node>
  <node id="454061916" version="1" timestamp="2009-08-02T04:11:05Z" uid="20587" user="balrog-kun" changeset="2009571" lat="52.3992772" lon="16.924974"/>
  <node id="454061918" version="1" timestamp="2009-08-02T04:11:05Z" uid="20587" user="balrog-kun" changeset="2009571" lat="52.385521" lon="16.9176052">
    <tag k="addr:city" v="Poznań"/>
    <tag k="addr:housenumber" v="29"/>
    <tag k="addr:street" v="Traugutta"/>
    <tag k="source" v="http://ump.waw.pl/ retrieved 15:05:23 06/30/09 (UMP-Poznan/src/POZNAN.ulice.txt)"/>
  </node>
  <node id="454061922" version="1" timestamp="2009-08-02T04:11:05Z" uid="20587" user="balrog-kun" changeset="2009571" lat="52.3923627" lon="16.924857">
    <tag k="addr:city" v="Poznań"/>
    <tag k="addr:housenumber" v="46"/>
    <tag k="addr:street" v="Dolna Wilda"/>
    <tag k="source" v="http://ump.waw.pl/ retrieved 15:05:23 06/30/09 (UMP-Poznan/src/POZNAN.ulice.txt)"/>
  </node>
  <node id="454061930" version="1" timestamp="2009-08-02T04:11:05Z" uid="20587" user="balrog-kun" changeset="2009571" lat="52.3930657" lon="16.9194786">
    <tag k="addr:city" v="Poznań"/>
    <tag k="addr:housenumber" v="62"/>
    <tag k="addr:street" v="Przemysłowa"/>
    <tag k="source" v="http://ump.waw.pl/ retrieved 15:05:23 06/30/09 (UMP-Poznan/src/POZNAN.ulice.txt)"/>
  </node>
  <node id="454061933" version="1" timestamp="2009-08-02T04:11:05Z" uid="20587" user="balrog-kun" changeset="2009571" lat="52.3918243" lon="16.9226948">
    <tag k="addr:city" v="Poznań"/>
    <tag k="addr:housenumber" v="6"/>
    <tag k="addr:street" v="Powstańcza"/>
    <tag k="source" v="http://ump.waw.pl/ retrieved 15:05:23 06/30/09 (UMP-Poznan/src/POZNAN.ulice.txt)"/>
  </node>
  <node id="454061937" version="1" timestamp="2009-08-02T04:11:05Z" uid="20587" user="balrog-kun" changeset="2009571" lat="52.3992515" lon="16.9263514">
    <tag k="addr:city" v="Poznań"/>
    <tag k="addr:housenumber" v="31"/>
    <tag k="addr:street" v="Niedziałkowskiego"/>
    <tag k="source" v="http://ump.waw.pl/ retrieved 15:05:23 06/30/09 (UMP-Poznan/src/POZNAN.ulice.txt)"/>
  </node>
  <node id="454061940" version="1" timestamp="2009-08-02T04:11:05Z" uid="20587" user="balrog-kun" changeset="2009571" lat="52.3870707" lon="16.9228425">
    <tag k="addr:city" v="Poznań"/>
    <tag k="addr:housenumber" v="86"/>
    <tag k="addr:street" v="Dolna Wilda"/>
    <tag k="source" v="http://ump.waw.pl/ retrieved 15:05:23 06/30/09 (UMP-Poznan/src/POZNAN.ulice.txt)"/>
  </node>
  <node id="454061949" version="1" timestamp="2009-08-02T04:11:05Z" uid="20587" user="balrog-kun" changeset="2009571" lat="52.3867617" lon="16.9162574">
    <tag k="addr:city" v="Poznań"/>
    <tag k="addr:housenumber" v="163"/>
    <tag k="addr:street" v="28 Czerwca 1956 r."/>
    <tag k="source" v="http://ump.waw.pl/ retrieved 15:05:23 06/30/09 (UMP-Poznan/src/POZNAN.ulice.txt)"/>
  </node>
  <node id="454061951" version="1" timestamp="2009-08-02T04:11:05Z" uid="20587" user="balrog-kun" changeset="2009571" lat="52.392412" lon="16.9203182">
    <tag k="addr:city" v="Poznań"/>
    <tag k="addr:housenumber" v="117"/>
    <tag k="addr:street" v="28 Czerwca 1956 r."/>
    <tag k="source" v="http://ump.waw.pl/ retrieved 15:05:23 06/30/09 (UMP-Poznan/src/POZNAN.ulice.txt)"/>
  </node>
  <node id="454061955" version="1" timestamp="2009-08-02T04:11:06Z" uid="20587" user="balrog-kun" changeset="2009571" lat="52.3958429" lon="16.9237711">
    <tag k="addr:city" v="Poznań"/>
    <tag k="addr:housenumber" v="88"/>
    <tag k="addr:street" v="Górna Wilda"/>
    <tag k="source" v="http://ump.waw.pl/ retrieved 15:05:23 06/30/09 (UMP-Poznan/src/POZNAN.ulice.txt)"/>
  </node>
  <node id="454061960" version="1" timestamp="2009-08-02T04:11:06Z" uid="20587" user="balrog-kun" changeset="2009571" lat="52.3956557" lon="16.9241416">
    <tag k="addr:city" v="Poznań"/>
    <tag k="addr:housenumber" v="89"/>
    <tag k="addr:street" v="Górna Wilda"/>
    <tag k="source" v="http://ump.waw.pl/ retrieved 15:05:23 06/30/09 (UMP-Poznan/src/POZNAN.ulice.txt)"/>
  </node>
  <node id="454061962" version="1" timestamp="2009-08-02T04:11:06Z" uid="20587" user="balrog-kun" changeset="2009571" lat="52.3931509" lon="16.9243826">
    <tag k="addr:city" v="Poznań"/>
    <tag k="addr:housenumber" v="10"/>
    <tag k="addr:street" v="Dolina"/>
    <tag k="source" v="http://ump.waw.pl/ retrieved 15:05:23 06/30/09 (UMP-Poznan/src/POZNAN.ulice.txt)"/>
  </node>
  <node id="454061965" version="1" timestamp="2009-08-02T04:11:06Z" uid="20587" user="balrog-kun" changeset="2009571" lat="52.3941846" lon="16.9167231">
    <tag k="addr:city" v="Poznań"/>
    <tag k="addr:housenumber" v="1"/>
    <tag k="addr:street" v="Czarnieckiego"/>
    <tag k="source" v="http://ump.waw.pl/ retrieved 15:05:23 06/30/09 (UMP-Poznan/src/POZNAN.ulice.txt)"/>
  </node>
  <node id="454061974" version="1" timestamp="2009-08-02T04:11:06Z" uid="20587" user="balrog-kun" changeset="2009571" lat="52.3875654" lon="16.9205773">
    <tag k="addr:city" v="Poznań"/>
    <tag k="addr:housenumber" v="1"/>
    <tag k="addr:street" v="Dąbrówki"/>
    <tag k="source" v="http://ump.waw.pl/ retrieved 15:05:23 06/30/09 (UMP-Poznan/src/POZNAN.ulice.txt)"/>
  </node>
  <node id="454061977" version="1" timestamp="2009-08-02T04:11:06Z" uid="20587" user="balrog-kun" changeset="2009571" lat="52.3888859" lon="16.9149864">
    <tag k="addr:city" v="Poznań"/>
    <tag k="addr:housenumber" v="49"/>
    <tag k="addr:street" v="Prądzyńskiego"/>
    <tag k="source" v="http://ump.waw.pl/ retrieved 15:05:23 06/30/09 (UMP-Poznan/src/POZNAN.ulice.txt)"/>
  </node>
  <node id="454061980" version="1" timestamp="2009-08-02T04:11:06Z" uid="20587" user="balrog-kun" changeset="2009571" lat="52.3908592" lon="16.921147">
    <tag k="addr:city" v="Poznań"/>
    <tag k="addr:housenumber" v="65"/>
    <tag k="addr:street" v="Wierzbięcice"/>
    <tag k="source" v="http://ump.waw.pl/ retrieved 15:05:23 06/30/09 (UMP-Poznan/src/POZNAN.ulice.txt)"/>
  </node>
  <node id="454061982" version="1" timestamp="2009-08-02T04:11:06Z" uid="20587" user="balrog-kun" changeset="2009571" lat="52.3887164" lon="16.917489">
    <tag k="addr:city" v="Poznań"/>
    <tag k="addr:housenumber" v="148"/>
    <tag k="addr:street" v="28 Czerwca 1956 r."/>
    <tag k="source" v="http://ump.waw.pl/ retrieved 15:05:23 06/30/09 (UMP-Poznan/src/POZNAN.ulice.txt)"/>
  </node>
  <node id="454061993" version="1" timestamp="2009-08-02T04:11:07Z" uid="20587" user="balrog-kun" changeset="2009571" lat="52.388459" lon="16.9178267">
    <tag k="addr:city" v="Poznań"/>
    <tag k="addr:housenumber" v="151"/>
    <tag k="addr:street" v="28 Czerwca 1956 r."/>
    <tag k="source" v="http://ump.waw.pl/ retrieved 15:05:23 06/30/09 (UMP-Poznan/src/POZNAN.ulice.txt)"/>
  </node>
  <node id="454061996" version="1" timestamp="2009-08-02T04:11:07Z" uid="20587" user="balrog-kun" changeset="2009571" lat="52.3905477" lon="16.9228832">
    <tag k="addr:city" v="Poznań"/>
    <tag k="addr:housenumber" v="3"/>
    <tag k="addr:street" v="Krzyżowa"/>
    <tag k="source" v="http://ump.waw.pl/ retrieved 15:05:23 06/30/09 (UMP-Poznan/src/POZNAN.ulice.txt)"/>
  </node>
  <node id="454061996" version="2" timestamp="2012-03-28T13:51:17Z" uid="641570" user="kudlinskir" changeset="11127318" lat="52.3905477" lon="16.9228832">
    <tag k="addr:city" v="Poznań"/>
    <tag k="addr:housenumber" v="5"/>
    <tag k="addr:postcode" v="61-545"/>
    <tag k="addr:street" v="Krzyżowa"/>
    <tag k="building" v="yes"/>
    <tag k="source" v="http://ump.waw.pl/ retrieved 15:05:23 06/30/09 (UMP-Poznan/src/POZNAN.ulice.txt)"/>
  </node>
  <node id="454061998" version="1" timestamp="2009-08-02T04:11:07Z" uid="20587" user="balrog-kun" changeset="2009571" lat="52.3955913" lon="16.9251739">
    <tag k="addr:city" v="Poznań"/>
    <tag k="addr:housenumber" v="41"/>
    <tag k="addr:street" v="Chwiałkowskiego"/>
    <tag k="source" v="http://ump.waw.pl/ retrieved 15:05:23 06/30/09 (UMP-Poznan/src/POZNAN.ulice.txt)"/>
  </node>
  <node id="454062008" version="1" timestamp="2009-08-02T04:11:07Z" uid="20587" user="balrog-kun" changeset="2009571" lat="52.3967722" lon="16.9238696">
    <tag k="addr:city" v="Poznań"/>
    <tag k="addr:housenumber" v="14"/>
    <tag k="addr:street" v="Różana"/>
    <tag k="source" v="http://ump.waw.pl/ retrieved 15:05:23 06/30/09 (UMP-Poznan/src/POZNAN.ulice.txt)"/>
  </node>
  <node id="454062010" version="1" timestamp="2009-08-02T04:11:07Z" uid="20587" user="balrog-kun" changeset="2009571" lat="52.3972875" lon="16.9210587">
    <tag k="addr:city" v="Poznań"/>
    <tag k="addr:housenumber" v="21"/>
    <tag k="addr:street" v="Wierzbięcice"/>
    <tag k="source" v="http://ump.waw.pl/ retrieved 15:05:23 06/30/09 (UMP-Poznan/src/POZNAN.ulice.txt)"/>
  </node>
  <node id="454062011" version="1" timestamp="2009-08-02T04:11:07Z" uid="20587" user="balrog-kun" changeset="2009571" lat="52.3937072" lon="16.9169531">
    <tag k="addr:city" v="Poznań"/>
    <tag k="addr:housenumber" v="3"/>
    <tag k="addr:street" v="Czarnieckiego"/>
    <tag k="source" v="http://ump.waw.pl/ retrieved 15:05:23 06/30/09 (UMP-Poznan/src/POZNAN.ulice.txt)"/>
  </node>
  <node id="454062019" version="1" timestamp="2009-08-02T04:11:07Z" uid="20587" user="balrog-kun" changeset="2009571" lat="52.3965163" lon="16.9237257">
    <tag k="addr:city" v="Poznań"/>
    <tag k="addr:housenumber" v="10"/>
    <tag k="addr:street" v="Żupańskiego"/>
    <tag k="source" v="http://ump.waw.pl/ retrieved 15:05:23 06/30/09 (UMP-Poznan/src/POZNAN.ulice.txt)"/>
  </node>
  <node id="454062024" version="1" timestamp="2009-08-02T04:11:07Z" uid="20587" user="balrog-kun" changeset="2009571" lat="52.394834" lon="16.9195386">
    <tag k="addr:city" v="Poznań"/>
    <tag k="addr:housenumber" v="45"/>
    <tag k="addr:street" v="Przemysłowa"/>
    <tag k="source" v="http://ump.waw.pl/ retrieved 15:05:23 06/30/09 (UMP-Poznan/src/POZNAN.ulice.txt)"/>
  </node>
  <node id="454062027" version="1" timestamp="2009-08-02T04:11:07Z" uid="20587" user="balrog-kun" changeset="2009571" lat="52.3866456" lon="16.9170889">
    <tag k="addr:city" v="Poznań"/>
    <tag k="addr:housenumber" v="15"/>
    <tag k="addr:street" v="Pamiątkowa"/>
    <tag k="source" v="http://ump.waw.pl/ retrieved 15:05:23 06/30/09 (UMP-Poznan/src/POZNAN.ulice.txt)"/>
  </node>
  <node id="454062029" version="1" timestamp="2009-08-02T04:11:08Z" uid="20587" user="balrog-kun" changeset="2009571" lat="52.3962623" lon="16.9239985">
    <tag k="addr:city" v="Poznań"/>
    <tag k="addr:housenumber" v="12"/>
    <tag k="addr:street" v="Różana"/>
    <tag k="source" v="http://ump.waw.pl/ retrieved 15:05:23 06/30/09 (UMP-Poznan/src/POZNAN.ulice.txt)"/>
  </node>
  <node id="454062041" version="1" timestamp="2009-08-02T04:11:08Z" uid="20587" user="balrog-kun" changeset="2009571" lat="52.3949969" lon="16.921086">
    <tag k="addr:city" v="Poznań"/>
    <tag k="addr:housenumber" v="37"/>
    <tag k="addr:street" v="Wierzbięcice"/>
    <tag k="source" v="http://ump.waw.pl/ retrieved 15:05:23 06/30/09 (UMP-Poznan/src/POZNAN.ulice.txt)"/>
  </node>
  <node id="454062045" version="1" timestamp="2009-08-02T04:11:08Z" uid="20587" user="balrog-kun" changeset="2009571" lat="52.397756" lon="16.9254978">
    <tag k="addr:city" v="Poznań"/>
    <tag k="addr:housenumber" v="73"/>
    <tag k="addr:street" v="Górna Wilda"/>
    <tag k="source" v="http://ump.waw.pl/ retrieved 15:05:23 06/30/09 (UMP-Poznan/src/POZNAN.ulice.txt)"/>
  </node>
  <node id="454062048" version="1" timestamp="2009-08-02T04:11:08Z" uid="20587" user="balrog-kun" changeset="2009571" lat="52.3927774" lon="16.9217141">
    <tag k="addr:city" v="Poznań"/>
    <tag k="addr:housenumber" v="50"/>
    <tag k="addr:street" v="Wierzbięcice"/>
    <tag k="source" v="http://ump.waw.pl/ retrieved 15:05:23 06/30/09 (UMP-Poznan/src/POZNAN.ulice.txt)"/>
  </node>
  <node id="454062057" version="1" timestamp="2009-08-02T04:11:08Z" uid="20587" user="balrog-kun" changeset="2009571" lat="52.3986738" lon="16.9246129">
    <tag k="addr:city" v="Poznań"/>
    <tag k="addr:housenumber" v="2"/>
    <tag k="addr:street" v="Różana"/>
    <tag k="source" v="http://ump.waw.pl/ retrieved 15:05:23 06/30/09 (UMP-Poznan/src/POZNAN.ulice.txt)"/>
  </node>
  <node id="454062058" version="1" timestamp="2009-08-02T04:11:08Z" uid="20587" user="balrog-kun" changeset="2009571" lat="52.3922119" lon="16.9203701">
    <tag k="addr:city" v="Poznań"/>
    <tag k="addr:housenumber" v="119"/>
    <tag k="addr:street" v="28 Czerwca 1956 r."/>
    <tag k="source" v="http://ump.waw.pl/ retrieved 15:05:23 06/30/09 (UMP-Poznan/src/POZNAN.ulice.txt)"/>
  </node>
  <node id="454062059" version="1" timestamp="2009-08-02T04:11:08Z" uid="20587" user="balrog-kun" changeset="2009571" lat="52.3871132" lon="16.9145941">
    <tag k="addr:city" v="Poznań"/>
    <tag k="addr:housenumber" v="13"/>
    <tag k="addr:street" v="Madalińskiego"/>
    <tag k="source" v="http://ump.waw.pl/ retrieved 15:05:23 06/30/09 (UMP-Poznan/src/POZNAN.ulice.txt)"/>
  </node>
  <node id="454062064" version="1" timestamp="2009-08-02T04:11:08Z" uid="20587" user="balrog-kun" changeset="2009571" lat="52.3952265" lon="16.9217807">
    <tag k="addr:city" v="Poznań"/>
    <tag k="addr:housenumber" v="16"/>
    <tag k="addr:street" v="Chwiałkowskiego"/>
    <tag k="source" v="http://ump.waw.pl/ retrieved 15:05:23 06/30/09 (UMP-Poznan/src/POZNAN.ulice.txt)"/>
  </node>
  <node id="454062068" version="1" timestamp="2009-08-02T04:11:09Z" uid="20587" user="balrog-kun" changeset="2009571" lat="52.3997014" lon="16.9210115">
    <tag k="addr:city" v="Poznań"/>
    <tag k="addr:housenumber" v="3"/>
    <tag k="addr:street" v="Wierzbięcice"/>
    <tag k="source" v="http://ump.waw.pl/ retrieved 15:05:23 06/30/09 (UMP-Poznan/src/POZNAN.ulice.txt)"/>
  </node>
  <node id="454062072" version="1" timestamp="2009-08-02T04:11:09Z" uid="20587" user="balrog-kun" changeset="2009571" lat="52.3987259" lon="16.92151">
    <tag k="addr:city" v="Poznań"/>
    <tag k="addr:housenumber" v="8"/>
    <tag k="addr:street" v="Wierzbięcice"/>
    <tag k="source" v="http://ump.waw.pl/ retrieved 15:05:23 06/30/09 (UMP-Poznan/src/POZNAN.ulice.txt)"/>
  </node>
  <node id="454062074" version="1" timestamp="2009-08-02T04:11:09Z" uid="20587" user="balrog-kun" changeset="2009571" lat="52.3995725" lon="16.9190736">
    <tag k="addr:city" v="Poznań"/>
    <tag k="addr:housenumber" v="17"/>
    <tag k="addr:street" v="Wujka"/>
    <tag k="source" v="http://ump.waw.pl/ retrieved 15:05:23 06/30/09 (UMP-Poznan/src/POZNAN.ulice.txt)"/>
  </node>
  <node id="454062083" version="1" timestamp="2009-08-02T04:11:09Z" uid="20587" user="balrog-kun" changeset="2009571" lat="52.3850145" lon="16.9180088">
    <tag k="addr:city" v="Poznań"/>
    <tag k="addr:housenumber" v="40"/>
    <tag k="addr:street" v="Traugutta"/>
    <tag k="source" v="http://ump.waw.pl/ retrieved 15:05:23 06/30/09 (UMP-Poznan/src/POZNAN.ulice.txt)"/>
  </node>
  <node id="454062085" version="1" timestamp="2009-08-02T04:11:09Z" uid="20587" user="balrog-kun" changeset="2009571" lat="52.3896709" lon="16.9116533">
    <tag k="addr:city" v="Poznań"/>
    <tag k="addr:housenumber" v="16"/>
    <tag k="addr:street" v="Antoniego Kosińskiego"/>
    <tag k="source" v="http://ump.waw.pl/ retrieved 15:05:23 06/30/09 (UMP-Poznan/src/POZNAN.ulice.txt)"/>
  </node>
  <node id="454062089" version="1" timestamp="2009-08-02T04:11:09Z" uid="20587" user="balrog-kun" changeset="2009571" lat="52.3892492" lon="16.9162387">
    <tag k="addr:city" v="Poznań"/>
    <tag k="addr:housenumber" v="6"/>
    <tag k="addr:street" v="Antoniego Kosińskiego"/>
    <tag k="source" v="http://ump.waw.pl/ retrieved 15:05:23 06/30/09 (UMP-Poznan/src/POZNAN.ulice.txt)"/>
  </node>
  <node id="454062096" version="1" timestamp="2009-08-02T04:11:09Z" uid="20587" user="balrog-kun" changeset="2009571" lat="52.386956" lon="16.9188114">
    <tag k="addr:city" v="Poznań"/>
    <tag k="addr:housenumber" v="1"/>
    <tag k="addr:street" v="Filarecka"/>
    <tag k="source" v="http://ump.waw.pl/ retrieved 15:05:23 06/30/09 (UMP-Poznan/src/POZNAN.ulice.txt)"/>
  </node>
  <node id="454062098" version="1" timestamp="2009-08-02T04:11:09Z" uid="20587" user="balrog-kun" changeset="2009571" lat="52.3865232" lon="16.91048">
    <tag k="addr:city" v="Poznań"/>
    <tag k="addr:housenumber" v="22"/>
    <tag k="addr:street" v="Fabryczna"/>
    <tag k="source" v="http://ump.waw.pl/ retrieved 15:05:23 06/30/09 (UMP-Poznan/src/POZNAN.ulice.txt)"/>
  </node>
  <node id="454062098" version="2" timestamp="2010-12-16T14:02:51Z" uid="19417" user="xjr" changeset="6676962" lat="52.3865232" lon="16.91048">
    <tag k="addr:city" v="Poznań"/>
    <tag k="addr:housenumber" v="27"/>
    <tag k="addr:street" v="Fabryczna"/>
    <tag k="source" v="http://ump.waw.pl/ retrieved 15:05:23 06/30/09 (UMP-Poznan/src/POZNAN.ulice.txt)"/>
  </node>
  <node id="454062101" version="1" timestamp="2009-08-02T04:11:09Z" uid="20587" user="balrog-kun" changeset="2009571" lat="52.3912028" lon="16.9169266">
    <tag k="addr:city" v="Poznań"/>
    <tag k="addr:housenumber" v="55"/>
    <tag k="addr:street" v="Prądzyńskiego"/>
    <tag k="source" v="http://ump.waw.pl/ retrieved 15:05:23 06/30/09 (UMP-Poznan/src/POZNAN.ulice.txt)"/>
  </node>
  <node id="454062103" version="1" timestamp="2009-08-02T04:11:09Z" uid="20587" user="balrog-kun" changeset="2009571" lat="52.390051" lon="16.9131188">
    <tag k="addr:city" v="Poznań"/>
    <tag k="addr:housenumber" v="24"/>
    <tag k="addr:street" v="Umińskiego"/>
    <tag k="source" v="http://ump.waw.pl/ retrieved 15:05:23 06/30/09 (UMP-Poznan/src/POZNAN.ulice.txt)"/>
  </node>
  <node id="454062110" version="1" timestamp="2009-08-02T04:11:10Z" uid="20587" user="balrog-kun" changeset="2009571" lat="52.3929707" lon="16.9243853">
    <tag k="addr:city" v="Poznań"/>
    <tag k="addr:housenumber" v="11"/>
    <tag k="addr:street" v="Dolina"/>
    <tag k="source" v="http://ump.waw.pl/ retrieved 15:05:23 06/30/09 (UMP-Poznan/src/POZNAN.ulice.txt)"/>
  </node>
  <node id="454062111" version="1" timestamp="2009-08-02T04:11:10Z" uid="20587" user="balrog-kun" changeset="2009571" lat="52.3917437" lon="16.9179725">
    <tag k="addr:city" v="Poznań"/>
    <tag k="addr:housenumber" v="10"/>
    <tag k="addr:street" v="Prądzyńskiego"/>
    <tag k="source" v="http://ump.waw.pl/ retrieved 15:05:23 06/30/09 (UMP-Poznan/src/POZNAN.ulice.txt)"/>
  </node>
  <node id="454062112" version="1" timestamp="2009-08-02T04:11:10Z" uid="20587" user="balrog-kun" changeset="2009571" lat="52.3933791" lon="16.9171113">
    <tag k="addr:city" v="Poznań"/>
    <tag k="addr:housenumber" v="5"/>
    <tag k="addr:street" v="Czarnieckiego"/>
    <tag k="source" v="http://ump.waw.pl/ retrieved 15:05:23 06/30/09 (UMP-Poznan/src/POZNAN.ulice.txt)"/>
  </node>
  <node id="454062124" version="1" timestamp="2009-08-02T04:11:10Z" uid="20587" user="balrog-kun" changeset="2009571" lat="52.3954763" lon="16.9208479">
    <tag k="addr:city" v="Poznań"/>
    <tag k="addr:housenumber" v="21"/>
    <tag k="addr:street" v="Chwiałkowskiego"/>
    <tag k="source" v="http://ump.waw.pl/ retrieved 15:05:23 06/30/09 (UMP-Poznan/src/POZNAN.ulice.txt)"/>
  </node>
  <node id="454062127" version="1" timestamp="2009-08-02T04:11:10Z" uid="20587" user="balrog-kun" changeset="2009571" lat="52.3942857" lon="16.9277551">
    <tag k="addr:city" v="Poznań"/>
    <tag k="addr:housenumber" v="34"/>
    <tag k="addr:street" v="Chwiałkowskiego"/>
    <tag k="source" v="http://ump.waw.pl/ retrieved 15:05:23 06/30/09 (UMP-Poznan/src/POZNAN.ulice.txt)"/>
  </node>
  <node id="454062129" version="1" timestamp="2009-08-02T04:11:10Z" uid="20587" user="balrog-kun" changeset="2009571" lat="52.385665" lon="16.9214614">
    <tag k="addr:city" v="Poznań"/>
    <tag k="addr:housenumber" v="11"/>
    <tag k="addr:street" v="Zmartwychwstańców"/>
    <tag k="source" v="http://ump.waw.pl/ retrieved 15:05:23 06/30/09 (UMP-Poznan/src/POZNAN.ulice.txt)"/>
  </node>
  <node id="454062139" version="1" timestamp="2009-08-02T04:11:10Z" uid="20587" user="balrog-kun" changeset="2009571" lat="52.3938914" lon="16.9197711">
    <tag k="addr:city" v="Poznań"/>
    <tag k="addr:housenumber" v="55"/>
    <tag k="addr:street" v="Przemysłowa"/>
    <tag k="source" v="http://ump.waw.pl/ retrieved 15:05:23 06/30/09 (UMP-Poznan/src/POZNAN.ulice.txt)"/>
  </node>
  <node id="454062142" version="1" timestamp="2009-08-02T04:11:11Z" uid="20587" user="balrog-kun" changeset="2009571" lat="52.3975262" lon="16.9248959">
    <tag k="addr:city" v="Poznań"/>
    <tag k="addr:housenumber" v="78"/>
    <tag k="addr:street" v="Górna Wilda"/>
    <tag k="source" v="http://ump.waw.pl/ retrieved 15:05:23 06/30/09 (UMP-Poznan/src/POZNAN.ulice.txt)"/>
  </node>
  <node id="454062142" version="2" timestamp="2012-02-22T09:49:42Z" uid="19417" user="xjr" changeset="10757462" lat="52.3970545" lon="16.9246774">
    <tag k="addr:city" v="Poznań"/>
    <tag k="addr:housenumber" v="80"/>
    <tag k="addr:street" v="Górna Wilda"/>
  </node>
  <node id="454062145" version="1" timestamp="2009-08-02T04:11:11Z" uid="20587" user="balrog-kun" changeset="2009571" lat="52.3972633" lon="16.9192783">
    <tag k="addr:city" v="Poznań"/>
    <tag k="addr:housenumber" v="29"/>
    <tag k="addr:street" v="Przemysłowa"/>
    <tag k="source" v="http://ump.waw.pl/ retrieved 15:05:23 06/30/09 (UMP-Poznan/src/POZNAN.ulice.txt)"/>
  </node>
  <node id="454062148" version="1" timestamp="2009-08-02T04:11:11Z" uid="20587" user="balrog-kun" changeset="2009571" lat="52.3943283" lon="16.9240395">
    <tag k="addr:city" v="Poznań"/>
    <tag k="addr:housenumber" v="6"/>
    <tag k="addr:street" v="Dolina"/>
    <tag k="source" v="http://ump.waw.pl/ retrieved 15:05:23 06/30/09 (UMP-Poznan/src/POZNAN.ulice.txt)"/>
  </node>
  <node id="454062157" version="1" timestamp="2009-08-02T04:11:11Z" uid="20587" user="balrog-kun" changeset="2009571" lat="52.3918128" lon="16.9174066">
    <tag k="addr:city" v="Poznań"/>
    <tag k="addr:housenumber" v="57"/>
    <tag k="addr:street" v="Prądzyńskiego"/>
    <tag k="source" v="http://ump.waw.pl/ retrieved 15:05:23 06/30/09 (UMP-Poznan/src/POZNAN.ulice.txt)"/>
  </node>
  <node id="454062160" version="1" timestamp="2009-08-02T04:11:11Z" uid="20587" user="balrog-kun" changeset="2009571" lat="52.3873889" lon="16.9113605">
    <tag k="addr:city" v="Poznań"/>
    <tag k="addr:housenumber" v="18"/>
    <tag k="addr:street" v="Fabryczna"/>
    <tag k="source" v="http://ump.waw.pl/ retrieved 15:05:23 06/30/09 (UMP-Poznan/src/POZNAN.ulice.txt)"/>
  </node>
  <node id="454062161" version="1" timestamp="2009-08-02T04:11:11Z" uid="20587" user="balrog-kun" changeset="2009571" lat="52.3908384" lon="16.9197827">
    <tag k="addr:city" v="Poznań"/>
    <tag k="addr:housenumber" v="1"/>
    <tag k="addr:street" v="Jana Kilińskiego"/>
    <tag k="source" v="http://ump.waw.pl/ retrieved 15:05:23 06/30/09 (UMP-Poznan/src/POZNAN.ulice.txt)"/>
  </node>
  <node id="454062165" version="1" timestamp="2009-08-02T04:11:11Z" uid="20587" user="balrog-kun" changeset="2009571" lat="52.3974913" lon="16.9253452">
    <tag k="addr:city" v="Poznań"/>
    <tag k="addr:housenumber" v="75"/>
    <tag k="addr:street" v="Górna Wilda"/>
    <tag k="source" v="http://ump.waw.pl/ retrieved 15:05:23 06/30/09 (UMP-Poznan/src/POZNAN.ulice.txt)"/>
  </node>
  <node id="454062169" version="1" timestamp="2009-08-02T04:11:11Z" uid="20587" user="balrog-kun" changeset="2009571" lat="52.3955473" lon="16.9215391">
    <tag k="addr:city" v="Poznań"/>
    <tag k="addr:housenumber" v="32"/>
    <tag k="addr:street" v="Wierzbięcice"/>
    <tag k="source" v="http://ump.waw.pl/ retrieved 15:05:23 06/30/09 (UMP-Poznan/src/POZNAN.ulice.txt)"/>
  </node>
  <node id="454062172" version="1" timestamp="2009-08-02T04:11:11Z" uid="20587" user="balrog-kun" changeset="2009571" lat="52.398976" lon="16.9187947">
    <tag k="addr:city" v="Poznań"/>
    <tag k="addr:housenumber" v="13"/>
    <tag k="addr:street" v="Przemysłowa"/>
    <tag k="source" v="http://ump.waw.pl/ retrieved 15:05:23 06/30/09 (UMP-Poznan/src/POZNAN.ulice.txt)"/>
  </node>
  <node id="454062180" version="1" timestamp="2009-08-02T04:11:11Z" uid="20587" user="balrog-kun" changeset="2009571" lat="52.3922815" lon="16.917595">
    <tag k="addr:city" v="Poznań"/>
    <tag k="addr:housenumber" v="15"/>
    <tag k="addr:street" v="Czarnieckiego"/>
    <tag k="source" v="http://ump.waw.pl/ retrieved 15:05:23 06/30/09 (UMP-Poznan/src/POZNAN.ulice.txt)"/>
  </node>
  <node id="454062183" version="1" timestamp="2009-08-02T04:11:12Z" uid="20587" user="balrog-kun" changeset="2009571" lat="52.3957246" lon="16.922951">
    <tag k="addr:city" v="Poznań"/>
    <tag k="addr:housenumber" v="6"/>
    <tag k="addr:street" v="Poplińskich"/>
    <tag k="source" v="http://ump.waw.pl/ retrieved 15:05:23 06/30/09 (UMP-Poznan/src/POZNAN.ulice.txt)"/>
  </node>
  <node id="454062187" version="1" timestamp="2009-08-02T04:11:12Z" uid="20587" user="balrog-kun" changeset="2009571" lat="52.390327" lon="16.9166802">
    <tag k="addr:city" v="Poznań"/>
    <tag k="addr:housenumber" v="15"/>
    <tag k="addr:street" v="Prądzyńskiego"/>
    <tag k="source" v="http://ump.waw.pl/ retrieved 15:05:23 06/30/09 (UMP-Poznan/src/POZNAN.ulice.txt)"/>
  </node>
  <node id="454062189" version="1" timestamp="2009-08-02T04:11:12Z" uid="20587" user="balrog-kun" changeset="2009571" lat="52.3870849" lon="16.9187351">
    <tag k="addr:city" v="Poznań"/>
    <tag k="addr:housenumber" v="6"/>
    <tag k="addr:street" v="Langiewicza"/>
    <tag k="source" v="http://ump.waw.pl/ retrieved 15:05:23 06/30/09 (UMP-Poznan/src/POZNAN.ulice.txt)"/>
  </node>
  <node id="454062197" version="1" timestamp="2009-08-02T04:11:12Z" uid="20587" user="balrog-kun" changeset="2009571" lat="52.3896325" lon="16.9127352">
    <tag k="addr:city" v="Poznań"/>
    <tag k="addr:housenumber" v="21"/>
    <tag k="addr:street" v="Umińskiego"/>
    <tag k="source" v="http://ump.waw.pl/ retrieved 15:05:23 06/30/09 (UMP-Poznan/src/POZNAN.ulice.txt)"/>
  </node>
  <node id="454062199" version="1" timestamp="2009-08-02T04:11:12Z" uid="20587" user="balrog-kun" changeset="2009571" lat="52.394656" lon="16.9231559">
    <tag k="addr:city" v="Poznań"/>
    <tag k="addr:housenumber" v="99"/>
    <tag k="addr:street" v="Górna Wilda"/>
    <tag k="source" v="http://ump.waw.pl/ retrieved 15:05:23 06/30/09 (UMP-Poznan/src/POZNAN.ulice.txt)"/>
  </node>
  <node id="454062202" version="1" timestamp="2009-08-02T04:11:12Z" uid="20587" user="balrog-kun" changeset="2009571" lat="52.3874946" lon="16.916342">
    <tag k="addr:city" v="Poznań"/>
    <tag k="addr:housenumber" v="160"/>
    <tag k="addr:street" v="28 Czerwca 1956 r."/>
    <tag k="source" v="http://ump.waw.pl/ retrieved 15:05:23 06/30/09 (UMP-Poznan/src/POZNAN.ulice.txt)"/>
  </node>
  <node id="454062211" version="1" timestamp="2009-08-02T04:11:12Z" uid="20587" user="balrog-kun" changeset="2009571" lat="52.3992069" lon="16.9245909">
    <tag k="addr:city" v="Poznań"/>
    <tag k="addr:housenumber" v="28"/>
    <tag k="addr:street" v="Niedziałkowskiego"/>
    <tag k="source" v="http://ump.waw.pl/ retrieved 15:05:23 06/30/09 (UMP-Poznan/src/POZNAN.ulice.txt)"/>
  </node>
  <node id="454062212" version="1" timestamp="2009-08-02T04:11:12Z" uid="20587" user="balrog-kun" changeset="2009571" lat="52.390433" lon="16.9163198">
    <tag k="addr:city" v="Poznań"/>
    <tag k="addr:housenumber" v="52"/>
    <tag k="addr:street" v="Prądzyńskiego"/>
    <tag k="source" v="http://ump.waw.pl/ retrieved 15:05:23 06/30/09 (UMP-Poznan/src/POZNAN.ulice.txt)"/>
  </node>
  <node id="454062213" version="1" timestamp="2009-08-02T04:11:12Z" uid="20587" user="balrog-kun" changeset="2009571" lat="52.3903252" lon="16.9190256">
    <tag k="addr:city" v="Poznań"/>
    <tag k="addr:housenumber" v="16"/>
    <tag k="addr:street" v="Wybickiego"/>
    <tag k="source" v="http://ump.waw.pl/ retrieved 15:05:23 06/30/09 (UMP-Poznan/src/POZNAN.ulice.txt)"/>
  </node>
  <node id="454062219" version="1" timestamp="2009-08-02T04:11:13Z" uid="20587" user="balrog-kun" changeset="2009571" lat="52.3928652" lon="16.9249942">
    <tag k="addr:city" v="Poznań"/>
    <tag k="addr:housenumber" v="44"/>
    <tag k="addr:street" v="Dolna Wilda"/>
    <tag k="source" v="http://ump.waw.pl/ retrieved 15:05:23 06/30/09 (UMP-Poznan/src/POZNAN.ulice.txt)"/>
  </node>
  <node id="454062223" version="1" timestamp="2009-08-02T04:11:13Z" uid="20587" user="balrog-kun" changeset="2009571" lat="52.3855571" lon="16.9163638">
    <tag k="addr:city" v="Poznań"/>
    <tag k="addr:housenumber" v="25"/>
    <tag k="addr:street" v="Traugutta"/>
    <tag k="source" v="http://ump.waw.pl/ retrieved 15:05:23 06/30/09 (UMP-Poznan/src/POZNAN.ulice.txt)"/>
  </node>
  <node id="454062226" version="1" timestamp="2009-08-02T04:11:13Z" uid="20587" user="balrog-kun" changeset="2009571" lat="52.3917747" lon="16.9230864">
    <tag k="addr:city" v="Poznań"/>
    <tag k="addr:housenumber" v="7"/>
    <tag k="addr:street" v="Powstańcza"/>
    <tag k="source" v="http://ump.waw.pl/ retrieved 15:05:23 06/30/09 (UMP-Poznan/src/POZNAN.ulice.txt)"/>
  </node>
  <node id="454062228" version="1" timestamp="2009-08-02T04:11:13Z" uid="20587" user="balrog-kun" changeset="2009571" lat="52.3917889" lon="16.9198841">
    <tag k="addr:city" v="Poznań"/>
    <tag k="addr:housenumber" v="122"/>
    <tag k="addr:street" v="28 Czerwca 1956 r."/>
    <tag k="source" v="http://ump.waw.pl/ retrieved 15:05:23 06/30/09 (UMP-Poznan/src/POZNAN.ulice.txt)"/>
  </node>
  <node id="454062237" version="1" timestamp="2009-08-02T04:11:13Z" uid="20587" user="balrog-kun" changeset="2009571" lat="52.392371" lon="16.9197197">
    <tag k="addr:city" v="Poznań"/>
    <tag k="addr:housenumber" v="1"/>
    <tag k="addr:street" v="Sikorskiego"/>
    <tag k="source" v="http://ump.waw.pl/ retrieved 15:05:23 06/30/09 (UMP-Poznan/src/POZNAN.ulice.txt)"/>
  </node>
  <node id="454062240" version="1" timestamp="2009-08-02T04:11:13Z" uid="20587" user="balrog-kun" changeset="2009571" lat="52.3906657" lon="16.9136812">
    <tag k="addr:city" v="Poznań"/>
    <tag k="addr:housenumber" v="26"/>
    <tag k="addr:street" v="Umińskiego"/>
    <tag k="source" v="http://ump.waw.pl/ retrieved 15:05:23 06/30/09 (UMP-Poznan/src/POZNAN.ulice.txt)"/>
  </node>
  <node id="454062243" version="1" timestamp="2009-08-02T04:11:13Z" uid="20587" user="balrog-kun" changeset="2009571" lat="52.3954295" lon="16.9234072">
    <tag k="addr:city" v="Poznań"/>
    <tag k="addr:housenumber" v="26"/>
    <tag k="addr:street" v="Chwiałkowskiego"/>
    <tag k="source" v="http://ump.waw.pl/ retrieved 15:05:23 06/30/09 (UMP-Poznan/src/POZNAN.ulice.txt)"/>
  </node>
  <node id="454062251" version="1" timestamp="2009-08-02T04:11:13Z" uid="20587" user="balrog-kun" changeset="2009571" lat="52.3882605" lon="16.9154939">
    <tag k="addr:city" v="Poznań"/>
    <tag k="addr:housenumber" v="39"/>
    <tag k="addr:street" v="Fabryczna"/>
    <tag k="source" v="http://ump.waw.pl/ retrieved 15:05:23 06/30/09 (UMP-Poznan/src/POZNAN.ulice.txt)"/>
  </node>
  <node id="454062254" version="1" timestamp="2009-08-02T04:11:13Z" uid="20587" user="balrog-kun" changeset="2009571" lat="52.3929379" lon="16.9228553">
    <tag k="addr:city" v="Poznań"/>
    <tag k="addr:housenumber" v="4"/>
    <tag k="addr:street" v="Czajcza"/>
    <tag k="source" v="http://ump.waw.pl/ retrieved 15:05:23 06/30/09 (UMP-Poznan/src/POZNAN.ulice.txt)"/>
  </node>
  <node id="454062257" version="1" timestamp="2009-08-02T04:11:14Z" uid="20587" user="balrog-kun" changeset="2009571" lat="52.3959073" lon="16.9195042">
    <tag k="addr:city" v="Poznań"/>
    <tag k="addr:housenumber" v="22"/>
    <tag k="addr:street" v="Żupańskiego"/>
    <tag k="source" v="http://ump.waw.pl/ retrieved 15:05:23 06/30/09 (UMP-Poznan/src/POZNAN.ulice.txt)"/>
  </node>
  <node id="454062260" version="1" timestamp="2009-08-02T04:11:14Z" uid="20587" user="balrog-kun" changeset="2009571" lat="52.3959821" lon="16.9244229">
    <tag k="addr:city" v="Poznań"/>
    <tag k="addr:housenumber" v="85"/>
    <tag k="addr:street" v="Górna Wilda"/>
    <tag k="source" v="http://ump.waw.pl/ retrieved 15:05:23 06/30/09 (UMP-Poznan/src/POZNAN.ulice.txt)"/>
  </node>
  <node id="454062264" version="1" timestamp="2009-08-02T04:11:14Z" uid="20587" user="balrog-kun" changeset="2009571" lat="52.3915848" lon="16.9168417">
    <tag k="addr:city" v="Poznań"/>
    <tag k="addr:housenumber" v="37"/>
    <tag k="addr:street" v="Sikorskiego"/>
    <tag k="source" v="http://ump.waw.pl/ retrieved 15:05:23 06/30/09 (UMP-Poznan/src/POZNAN.ulice.txt)"/>
  </node>
  <node id="454062266" version="1" timestamp="2009-08-02T04:11:14Z" uid="20587" user="balrog-kun" changeset="2009571" lat="52.3875074" lon="16.9228537">
    <tag k="addr:city" v="Poznań"/>
    <tag k="addr:housenumber" v="17"/>
    <tag k="addr:street" v="Chłapowskiego"/>
    <tag k="source" v="http://ump.waw.pl/ retrieved 15:05:23 06/30/09 (UMP-Poznan/src/POZNAN.ulice.txt)"/>
  </node>
  <node id="454062269" version="1" timestamp="2009-08-02T04:11:14Z" uid="20587" user="balrog-kun" changeset="2009571" lat="52.3980529" lon="16.9251938">
    <tag k="addr:city" v="Poznań"/>
    <tag k="addr:housenumber" v="70"/>
    <tag k="addr:street" v="Górna Wilda"/>
    <tag k="source" v="http://ump.waw.pl/ retrieved 15:05:23 06/30/09 (UMP-Poznan/src/POZNAN.ulice.txt)"/>
  </node>
  <node id="454062278" version="1" timestamp="2009-08-02T04:11:14Z" uid="20587" user="balrog-kun" changeset="2009571" lat="52.398398" lon="16.9178695">
    <tag k="addr:city" v="Poznań"/>
    <tag k="addr:housenumber" v="24"/>
    <tag k="addr:street" v="Przemysłowa"/>
    <tag k="source" v="http://ump.waw.pl/ retrieved 15:05:23 06/30/09 (UMP-Poznan/src/POZNAN.ulice.txt)"/>
  </node>
  <node id="454062281" version="1" timestamp="2009-08-02T04:11:14Z" uid="20587" user="balrog-kun" changeset="2009571" lat="52.3927655" lon="16.9211435">
    <tag k="addr:city" v="Poznań"/>
    <tag k="addr:housenumber" v="49"/>
    <tag k="addr:street" v="Wierzbięcice"/>
    <tag k="source" v="http://ump.waw.pl/ retrieved 15:05:23 06/30/09 (UMP-Poznan/src/POZNAN.ulice.txt)"/>
  </node>
  <node id="454062284" version="1" timestamp="2009-08-02T04:11:14Z" uid="20587" user="balrog-kun" changeset="2009571" lat="52.3996557" lon="16.9200611">
    <tag k="addr:city" v="Poznań"/>
    <tag k="addr:housenumber" v="7"/>
    <tag k="addr:street" v="Wujka"/>
    <tag k="source" v="http://ump.waw.pl/ retrieved 15:05:23 06/30/09 (UMP-Poznan/src/POZNAN.ulice.txt)"/>
  </node>
  <node id="454062293" version="1" timestamp="2009-08-02T04:11:14Z" uid="20587" user="balrog-kun" changeset="2009571" lat="52.3978836" lon="16.9263643">
    <tag k="addr:city" v="Poznań"/>
    <tag k="addr:housenumber" v="4"/>
    <tag k="addr:street" v="Dolna Wilda"/>
    <tag k="source" v="http://ump.waw.pl/ retrieved 15:05:23 06/30/09 (UMP-Poznan/src/POZNAN.ulice.txt)"/>
  </node>
  <node id="454062296" version="1" timestamp="2009-08-02T04:11:15Z" uid="20587" user="balrog-kun" changeset="2009571" lat="52.3935889" lon="16.9251922">
    <tag k="addr:city" v="Poznań"/>
    <tag k="addr:housenumber" v="36"/>
    <tag k="addr:street" v="Dolna Wilda"/>
    <tag k="source" v="http://ump.waw.pl/ retrieved 15:05:23 06/30/09 (UMP-Poznan/src/POZNAN.ulice.txt)"/>
  </node>
  <node id="454062299" version="1" timestamp="2009-08-02T04:11:15Z" uid="20587" user="balrog-kun" changeset="2009571" lat="52.3855898" lon="16.9223665">
    <tag k="addr:city" v="Poznań"/>
    <tag k="addr:housenumber" v="92"/>
    <tag k="addr:street" v="Dolna Wilda"/>
    <tag k="source" v="http://ump.waw.pl/ retrieved 15:05:23 06/30/09 (UMP-Poznan/src/POZNAN.ulice.txt)"/>
  </node>
  <node id="454062301" version="1" timestamp="2009-08-02T04:11:15Z" uid="20587" user="balrog-kun" changeset="2009571" lat="52.3978135" lon="16.9250103">
    <tag k="addr:city" v="Poznań"/>
    <tag k="addr:housenumber" v="72"/>
    <tag k="addr:street" v="Górna Wilda"/>
    <tag k="source" v="http://ump.waw.pl/ retrieved 15:05:23 06/30/09 (UMP-Poznan/src/POZNAN.ulice.txt)"/>
  </node>
  <node id="454062310" version="1" timestamp="2009-08-02T04:11:15Z" uid="20587" user="balrog-kun" changeset="2009571" lat="52.3891425" lon="16.9133199">
    <tag k="addr:city" v="Poznań"/>
    <tag k="addr:housenumber" v="19"/>
    <tag k="addr:street" v="Antoniego Kosińskiego"/>
    <tag k="source" v="http://ump.waw.pl/ retrieved 15:05:23 06/30/09 (UMP-Poznan/src/POZNAN.ulice.txt)"/>
  </node>
  <node id="454062314" version="1" timestamp="2009-08-02T04:11:15Z" uid="20587" user="balrog-kun" changeset="2009571" lat="52.3981263" lon="16.9257465">
    <tag k="addr:city" v="Poznań"/>
    <tag k="addr:housenumber" v="63"/>
    <tag k="addr:street" v="Górna Wilda"/>
    <tag k="source" v="http://ump.waw.pl/ retrieved 15:05:23 06/30/09 (UMP-Poznan/src/POZNAN.ulice.txt)"/>
  </node>
  <node id="454062315" version="1" timestamp="2009-08-02T04:11:15Z" uid="20587" user="balrog-kun" changeset="2009571" lat="52.3928847" lon="16.9205942">
    <tag k="addr:city" v="Poznań"/>
    <tag k="addr:housenumber" v="113"/>
    <tag k="addr:street" v="28 Czerwca 1956 r."/>
    <tag k="source" v="http://ump.waw.pl/ retrieved 15:05:23 06/30/09 (UMP-Poznan/src/POZNAN.ulice.txt)"/>
  </node>
  <node id="454062319" version="1" timestamp="2009-08-02T04:11:15Z" uid="20587" user="balrog-kun" changeset="2009571" lat="52.3914227" lon="16.9246005">
    <tag k="addr:city" v="Poznań"/>
    <tag k="addr:housenumber" v="52"/>
    <tag k="addr:street" v="Dolna Wilda"/>
    <tag k="source" v="http://ump.waw.pl/ retrieved 15:05:23 06/30/09 (UMP-Poznan/src/POZNAN.ulice.txt)"/>
  </node>
  <node id="454062321" version="1" timestamp="2009-08-02T04:11:15Z" uid="20587" user="balrog-kun" changeset="2009571" lat="52.3981319" lon="16.9245971">
    <tag k="addr:city" v="Poznań"/>
    <tag k="addr:housenumber" v="5"/>
    <tag k="addr:street" v="Różana"/>
    <tag k="source" v="http://ump.waw.pl/ retrieved 15:05:23 06/30/09 (UMP-Poznan/src/POZNAN.ulice.txt)"/>
  </node>
  <node id="454062326" version="1" timestamp="2009-08-02T04:11:15Z" uid="20587" user="balrog-kun" changeset="2009571" lat="52.3862522" lon="16.9183899">
    <tag k="addr:city" v="Poznań"/>
    <tag k="addr:housenumber" v="26"/>
    <tag k="addr:street" v="Pamiątkowa"/>
    <tag k="source" v="http://ump.waw.pl/ retrieved 15:05:23 06/30/09 (UMP-Poznan/src/POZNAN.ulice.txt)"/>
  </node>
  <node id="454062334" version="1" timestamp="2009-08-02T04:11:15Z" uid="20587" user="balrog-kun" changeset="2009571" lat="52.3917958" lon="16.9247024">
    <tag k="addr:city" v="Poznań"/>
    <tag k="addr:housenumber" v="50"/>
    <tag k="addr:street" v="Dolna Wilda"/>
    <tag k="source" v="http://ump.waw.pl/ retrieved 15:05:23 06/30/09 (UMP-Poznan/src/POZNAN.ulice.txt)"/>
  </node>
  <node id="454062337" version="1" timestamp="2009-08-02T04:11:16Z" uid="20587" user="balrog-kun" changeset="2009571" lat="52.3843559" lon="16.9205236">
    <tag k="addr:city" v="Poznań"/>
    <tag k="addr:housenumber" v="9"/>
    <tag k="addr:street" v="Małeckiego"/>
    <tag k="source" v="http://ump.waw.pl/ retrieved 15:05:23 06/30/09 (UMP-Poznan/src/POZNAN.ulice.txt)"/>
  </node>
  <node id="454062339" version="1" timestamp="2009-08-02T04:11:16Z" uid="20587" user="balrog-kun" changeset="2009571" lat="52.3880078" lon="16.916785">
    <tag k="addr:city" v="Poznań"/>
    <tag k="addr:housenumber" v="152"/>
    <tag k="addr:street" v="28 Czerwca 1956 r."/>
    <tag k="source" v="http://ump.waw.pl/ retrieved 15:05:23 06/30/09 (UMP-Poznan/src/POZNAN.ulice.txt)"/>
  </node>
  <node id="454062343" version="1" timestamp="2009-08-02T04:11:16Z" uid="20587" user="balrog-kun" changeset="2009571" lat="52.397099" lon="16.9229416">
    <tag k="addr:city" v="Poznań"/>
    <tag k="addr:housenumber" v="12"/>
    <tag k="addr:street" v="Świętego Czesława"/>
    <tag k="source" v="http://ump.waw.pl/ retrieved 15:05:23 06/30/09 (UMP-Poznan/src/POZNAN.ulice.txt)"/>
  </node>
  <node id="454062348" version="1" timestamp="2009-08-02T04:11:16Z" uid="20587" user="balrog-kun" changeset="2009571" lat="52.3928716" lon="16.9236413">
    <tag k="addr:city" v="Poznań"/>
    <tag k="addr:housenumber" v="5"/>
    <tag k="addr:street" v="Czajcza"/>
    <tag k="source" v="http://ump.waw.pl/ retrieved 15:05:23 06/30/09 (UMP-Poznan/src/POZNAN.ulice.txt)"/>
  </node>
  <node id="454062349" version="1" timestamp="2009-08-02T04:11:16Z" uid="20587" user="balrog-kun" changeset="2009571" lat="52.395285" lon="16.9239738">
    <tag k="addr:city" v="Poznań"/>
    <tag k="addr:housenumber" v="1"/>
    <tag k="addr:street" v="Dolina"/>
    <tag k="source" v="http://ump.waw.pl/ retrieved 15:05:23 06/30/09 (UMP-Poznan/src/POZNAN.ulice.txt)"/>
  </node>
  <node id="454062350" version="1" timestamp="2009-08-02T04:11:16Z" uid="20587" user="balrog-kun" changeset="2009571" lat="52.3922994" lon="16.9188864">
    <tag k="addr:city" v="Poznań"/>
    <tag k="addr:housenumber" v="3"/>
    <tag k="addr:street" v="Sikorskiego"/>
    <tag k="source" v="http://ump.waw.pl/ retrieved 15:05:23 06/30/09 (UMP-Poznan/src/POZNAN.ulice.txt)"/>
  </node>
  <node id="454062353" version="1" timestamp="2009-08-02T04:11:16Z" uid="20587" user="balrog-kun" changeset="2009571" lat="52.3906049" lon="16.9126335">
    <tag k="addr:city" v="Poznań"/>
    <tag k="addr:housenumber" v="22"/>
    <tag k="addr:street" v="Sikorskiego"/>
    <tag k="source" v="http://ump.waw.pl/ retrieved 15:05:23 06/30/09 (UMP-Poznan/src/POZNAN.ulice.txt)"/>
  </node>
  <node id="454062354" version="1" timestamp="2009-08-02T04:11:16Z" uid="20587" user="balrog-kun" changeset="2009571" lat="52.3871284" lon="16.9121577">
    <tag k="addr:city" v="Poznań"/>
    <tag k="addr:housenumber" v="31"/>
    <tag k="addr:street" v="Fabryczna"/>
    <tag k="source" v="http://ump.waw.pl/ retrieved 15:05:23 06/30/09 (UMP-Poznan/src/POZNAN.ulice.txt)"/>
  </node>
  <node id="454062354" version="2" timestamp="2010-12-16T14:02:44Z" uid="19417" user="xjr" changeset="6676962" lat="52.3869908" lon="16.9116685">
    <tag k="addr:city" v="Poznań"/>
    <tag k="addr:housenumber" v="30"/>
    <tag k="addr:street" v="Fabryczna"/>
    <tag k="source" v="http://ump.waw.pl/ retrieved 15:05:23 06/30/09 (UMP-Poznan/src/POZNAN.ulice.txt)"/>
  </node>
  <node id="454062355" version="1" timestamp="2009-08-02T04:11:17Z" uid="20587" user="balrog-kun" changeset="2009571" lat="52.3990147" lon="16.9232698">
    <tag k="addr:city" v="Poznań"/>
    <tag k="addr:housenumber" v="25"/>
    <tag k="addr:street" v="Niedziałkowskiego"/>
    <tag k="source" v="http://ump.waw.pl/ retrieved 15:05:23 06/30/09 (UMP-Poznan/src/POZNAN.ulice.txt)"/>
  </node>
  <node id="454062357" version="1" timestamp="2009-08-02T04:11:17Z" uid="20587" user="balrog-kun" changeset="2009571" lat="52.3848542" lon="16.9216011">
    <tag k="addr:city" v="Poznań"/>
    <tag k="addr:housenumber" v="48"/>
    <tag k="addr:street" v="Traugutta"/>
    <tag k="source" v="http://ump.waw.pl/ retrieved 15:05:23 06/30/09 (UMP-Poznan/src/POZNAN.ulice.txt)"/>
  </node>
  <node id="454062359" version="1" timestamp="2009-08-02T04:11:17Z" uid="20587" user="balrog-kun" changeset="2009571" lat="52.3966869" lon="16.9242931">
    <tag k="addr:city" v="Poznań"/>
    <tag k="addr:housenumber" v="10"/>
    <tag k="addr:street" v="Różana"/>
    <tag k="source" v="http://ump.waw.pl/ retrieved 15:05:23 06/30/09 (UMP-Poznan/src/POZNAN.ulice.txt)"/>
  </node>
  <node id="454062359" version="2" timestamp="2012-02-22T09:49:42Z" uid="19417" user="xjr" changeset="10757462" lat="52.3967869" lon="16.9242623">
    <tag k="addr:city" v="Poznań"/>
    <tag k="addr:housenumber" v="10"/>
    <tag k="addr:street" v="Różana"/>
  </node>
  <node id="454062360" version="1" timestamp="2009-08-02T04:11:17Z" uid="20587" user="balrog-kun" changeset="2009571" lat="52.3911668" lon="16.9201194">
    <tag k="addr:city" v="Poznań"/>
    <tag k="addr:housenumber" v="126"/>
    <tag k="addr:street" v="28 Czerwca 1956 r."/>
    <tag k="source" v="http://ump.waw.pl/ retrieved 15:05:23 06/30/09 (UMP-Poznan/src/POZNAN.ulice.txt)"/>
  </node>
  <node id="454062361" version="1" timestamp="2009-08-02T04:11:17Z" uid="20587" user="balrog-kun" changeset="2009571" lat="52.3906596" lon="16.9220101">
    <tag k="addr:city" v="Poznań"/>
    <tag k="addr:housenumber" v="2"/>
    <tag k="addr:street" v="Krzyżowa"/>
    <tag k="source" v="http://ump.waw.pl/ retrieved 15:05:23 06/30/09 (UMP-Poznan/src/POZNAN.ulice.txt)"/>
  </node>
  <node id="454062361" version="2" timestamp="2012-03-28T13:51:17Z" uid="641570" user="kudlinskir" changeset="11127318" lat="52.3906596" lon="16.9220101">
    <tag k="addr:city" v="Poznań"/>
    <tag k="addr:housenumber" v="2"/>
    <tag k="addr:street" v="Krzyżowa"/>
    <tag k="building" v="yes"/>
    <tag k="source" v="http://ump.waw.pl/ retrieved 15:05:23 06/30/09 (UMP-Poznan/src/POZNAN.ulice.txt)"/>
  </node>
  <node id="454062361" version="3" timestamp="2012-03-28T14:02:18Z" uid="641570" user="kudlinskir" changeset="11127431" lat="52.3906596" lon="16.9220101">
    <tag k="addr:city" v="Poznań"/>
    <tag k="addr:housenumber" v="3"/>
    <tag k="addr:street" v="Krzyżowa"/>
    <tag k="building" v="yes"/>
    <tag k="source" v="http://ump.waw.pl/ retrieved 15:05:23 06/30/09 (UMP-Poznan/src/POZNAN.ulice.txt)"/>
  </node>
  <node id="454062362" version="1" timestamp="2009-08-02T04:11:17Z" uid="20587" user="balrog-kun" changeset="2009571" lat="52.395544" lon="16.9211228">
    <tag k="addr:city" v="Poznań"/>
    <tag k="addr:housenumber" v="33"/>
    <tag k="addr:street" v="Wierzbięcice"/>
    <tag k="source" v="http://ump.waw.pl/ retrieved 15:05:23 06/30/09 (UMP-Poznan/src/POZNAN.ulice.txt)"/>
  </node>
  <node id="454062364" version="1" timestamp="2009-08-02T04:11:17Z" uid="20587" user="balrog-kun" changeset="2009571" lat="52.3927444" lon="16.9222894">
    <tag k="addr:city" v="Poznań"/>
    <tag k="addr:housenumber" v="14"/>
    <tag k="addr:street" v="Czajcza"/>
    <tag k="source" v="http://ump.waw.pl/ retrieved 15:05:23 06/30/09 (UMP-Poznan/src/POZNAN.ulice.txt)"/>
  </node>
  <node id="454062366" version="1" timestamp="2009-08-02T04:11:17Z" uid="20587" user="balrog-kun" changeset="2009571" lat="52.3952426" lon="16.9248978">
    <tag k="addr:city" v="Poznań"/>
    <tag k="addr:housenumber" v="28"/>
    <tag k="addr:street" v="Chwiałkowskiego"/>
    <tag k="source" v="http://ump.waw.pl/ retrieved 15:05:23 06/30/09 (UMP-Poznan/src/POZNAN.ulice.txt)"/>
  </node>
  <node id="454062367" version="1" timestamp="2009-08-02T04:11:17Z" uid="20587" user="balrog-kun" changeset="2009571" lat="52.3920657" lon="16.9231852">
    <tag k="addr:city" v="Poznań"/>
    <tag k="addr:housenumber" v="5"/>
    <tag k="addr:street" v="Powstańcza"/>
    <tag k="source" v="http://ump.waw.pl/ retrieved 15:05:23 06/30/09 (UMP-Poznan/src/POZNAN.ulice.txt)"/>
  </node>
  <node id="454062368" version="1" timestamp="2009-08-02T04:11:18Z" uid="20587" user="balrog-kun" changeset="2009571" lat="52.3865315" lon="16.9185606">
    <tag k="addr:city" v="Poznań"/>
    <tag k="addr:housenumber" v="29"/>
    <tag k="addr:street" v="Pamiątkowa"/>
    <tag k="source" v="http://ump.waw.pl/ retrieved 15:05:23 06/30/09 (UMP-Poznan/src/POZNAN.ulice.txt)"/>
  </node>
  <node id="454062369" version="1" timestamp="2009-08-02T04:11:18Z" uid="20587" user="balrog-kun" changeset="2009571" lat="52.3960454" lon="16.922499">
    <tag k="addr:city" v="Poznań"/>
    <tag k="addr:housenumber" v="10"/>
    <tag k="addr:street" v="Poplińskich"/>
    <tag k="source" v="http://ump.waw.pl/ retrieved 15:05:23 06/30/09 (UMP-Poznan/src/POZNAN.ulice.txt)"/>
  </node>
  <node id="454062371" version="1" timestamp="2009-08-02T04:11:18Z" uid="20587" user="balrog-kun" changeset="2009571" lat="52.3991255" lon="16.9240138">
    <tag k="addr:city" v="Poznań"/>
    <tag k="addr:housenumber" v="27"/>
    <tag k="addr:street" v="Niedziałkowskiego"/>
    <tag k="source" v="http://ump.waw.pl/ retrieved 15:05:23 06/30/09 (UMP-Poznan/src/POZNAN.ulice.txt)"/>
  </node>
  <node id="454062373" version="1" timestamp="2009-08-02T04:11:18Z" uid="20587" user="balrog-kun" changeset="2009571" lat="52.3876156" lon="16.9171034">
    <tag k="addr:city" v="Poznań"/>
    <tag k="addr:housenumber" v="23"/>
    <tag k="addr:street" v="Langiewicza"/>
    <tag k="source" v="http://ump.waw.pl/ retrieved 15:05:23 06/30/09 (UMP-Poznan/src/POZNAN.ulice.txt)"/>
  </node>
  <node id="454062374" version="1" timestamp="2009-08-02T04:11:18Z" uid="20587" user="balrog-kun" changeset="2009571" lat="52.3911966" lon="16.9199434">
    <tag k="addr:city" v="Poznań"/>
    <tag k="addr:housenumber" v="17"/>
    <tag k="addr:street" v="Jana Kilińskiego"/>
    <tag k="source" v="http://ump.waw.pl/ retrieved 15:05:23 06/30/09 (UMP-Poznan/src/POZNAN.ulice.txt)"/>
  </node>
  <node id="454062375" version="1" timestamp="2009-08-02T04:11:18Z" uid="20587" user="balrog-kun" changeset="2009571" lat="52.3879912" lon="16.9240486">
    <tag k="addr:city" v="Poznań"/>
    <tag k="addr:housenumber" v="89"/>
    <tag k="addr:street" v="Dolna Wilda"/>
    <tag k="source" v="http://ump.waw.pl/ retrieved 15:05:23 06/30/09 (UMP-Poznan/src/POZNAN.ulice.txt)"/>
  </node>
  <node id="454062378" version="1" timestamp="2009-08-02T04:11:18Z" uid="20587" user="balrog-kun" changeset="2009571" lat="52.3903909" lon="16.9240713">
    <tag k="addr:city" v="Poznań"/>
    <tag k="addr:housenumber" v="7"/>
    <tag k="addr:street" v="Krzyżowa"/>
    <tag k="source" v="http://ump.waw.pl/ retrieved 15:05:23 06/30/09 (UMP-Poznan/src/POZNAN.ulice.txt)"/>
  </node>
  <node id="454062379" version="1" timestamp="2009-08-02T04:11:18Z" uid="20587" user="balrog-kun" changeset="2009571" lat="52.3960353" lon="16.92395">
    <tag k="addr:city" v="Poznań"/>
    <tag k="addr:housenumber" v="86"/>
    <tag k="addr:street" v="Górna Wilda"/>
    <tag k="source" v="http://ump.waw.pl/ retrieved 15:05:23 06/30/09 (UMP-Poznan/src/POZNAN.ulice.txt)"/>
  </node>
  <node id="454062380" version="1" timestamp="2009-08-02T04:11:18Z" uid="20587" user="balrog-kun" changeset="2009571" lat="52.3872436" lon="16.9169765">
    <tag k="addr:city" v="Poznań"/>
    <tag k="addr:housenumber" v="1"/>
    <tag k="addr:street" v="Langiewicza"/>
    <tag k="source" v="http://ump.waw.pl/ retrieved 15:05:23 06/30/09 (UMP-Poznan/src/POZNAN.ulice.txt)"/>
  </node>
  <node id="454062382" version="1" timestamp="2009-08-02T04:11:18Z" uid="20587" user="balrog-kun" changeset="2009571" lat="52.3925566" lon="16.92431">
    <tag k="addr:city" v="Poznań"/>
    <tag k="addr:housenumber" v="11"/>
    <tag k="addr:street" v="Czajcza"/>
    <tag k="source" v="http://ump.waw.pl/ retrieved 15:05:23 06/30/09 (UMP-Poznan/src/POZNAN.ulice.txt)"/>
  </node>
  <node id="454062384" version="1" timestamp="2009-08-02T04:11:19Z" uid="20587" user="balrog-kun" changeset="2009571" lat="52.3992645" lon="16.9257585">
    <tag k="addr:city" v="Poznań"/>
    <tag k="addr:housenumber" v="30"/>
    <tag k="addr:street" v="Niedziałkowskiego"/>
    <tag k="source" v="http://ump.waw.pl/ retrieved 15:05:23 06/30/09 (UMP-Poznan/src/POZNAN.ulice.txt)"/>
  </node>
  <node id="454062385" version="1" timestamp="2009-08-02T04:11:19Z" uid="20587" user="balrog-kun" changeset="2009571" lat="52.3992609" lon="16.9187429">
    <tag k="addr:city" v="Poznań"/>
    <tag k="addr:housenumber" v="11"/>
    <tag k="addr:street" v="Przemysłowa"/>
    <tag k="source" v="http://ump.waw.pl/ retrieved 15:05:23 06/30/09 (UMP-Poznan/src/POZNAN.ulice.txt)"/>
  </node>
  <node id="454062386" version="1" timestamp="2009-08-02T04:11:19Z" uid="20587" user="balrog-kun" changeset="2009571" lat="52.3861391" lon="16.918614">
    <tag k="addr:city" v="Poznań"/>
    <tag k="addr:housenumber" v="5"/>
    <tag k="addr:street" v="Filarecka"/>
    <tag k="source" v="http://ump.waw.pl/ retrieved 15:05:23 06/30/09 (UMP-Poznan/src/POZNAN.ulice.txt)"/>
  </node>
  <node id="454062387" version="1" timestamp="2009-08-02T04:11:19Z" uid="20587" user="balrog-kun" changeset="2009571" lat="52.3928229" lon="16.924355">
    <tag k="addr:city" v="Poznań"/>
    <tag k="addr:housenumber" v="12"/>
    <tag k="addr:street" v="Dolina"/>
    <tag k="source" v="http://ump.waw.pl/ retrieved 15:05:23 06/30/09 (UMP-Poznan/src/POZNAN.ulice.txt)"/>
  </node>
  <node id="454062389" version="1" timestamp="2009-08-02T04:11:19Z" uid="20587" user="balrog-kun" changeset="2009571" lat="52.393492" lon="16.924265">
    <tag k="addr:city" v="Poznań"/>
    <tag k="addr:housenumber" v="9"/>
    <tag k="addr:street" v="Dolina"/>
    <tag k="source" v="http://ump.waw.pl/ retrieved 15:05:23 06/30/09 (UMP-Poznan/src/POZNAN.ulice.txt)"/>
  </node>
  <node id="454062391" version="1" timestamp="2009-08-02T04:11:19Z" uid="20587" user="balrog-kun" changeset="2009571" lat="52.3874207" lon="16.9192086">
    <tag k="addr:city" v="Poznań"/>
    <tag k="addr:housenumber" v="19"/>
    <tag k="addr:street" v="Langiewicza"/>
    <tag k="source" v="http://ump.waw.pl/ retrieved 15:05:23 06/30/09 (UMP-Poznan/src/POZNAN.ulice.txt)"/>
  </node>
  <node id="454062392" version="1" timestamp="2009-08-02T04:11:19Z" uid="20587" user="balrog-kun" changeset="2009571" lat="52.3908248" lon="16.9172344">
    <tag k="addr:city" v="Poznań"/>
    <tag k="addr:housenumber" v="7"/>
    <tag k="addr:street" v="Wybickiego"/>
    <tag k="source" v="http://ump.waw.pl/ retrieved 15:05:23 06/30/09 (UMP-Poznan/src/POZNAN.ulice.txt)"/>
  </node>
  <node id="454062393" version="1" timestamp="2009-08-02T04:11:19Z" uid="20587" user="balrog-kun" changeset="2009571" lat="52.3893785" lon="16.9150549">
    <tag k="addr:city" v="Poznań"/>
    <tag k="addr:housenumber" v="7"/>
    <tag k="addr:street" v="Antoniego Kosińskiego"/>
    <tag k="source" v="http://ump.waw.pl/ retrieved 15:05:23 06/30/09 (UMP-Poznan/src/POZNAN.ulice.txt)"/>
  </node>
  <node id="454062395" version="1" timestamp="2009-08-02T04:11:19Z" uid="20587" user="balrog-kun" changeset="2009571" lat="52.3889341" lon="16.9158471">
    <tag k="addr:city" v="Poznań"/>
    <tag k="addr:housenumber" v="27"/>
    <tag k="addr:street" v="Antoniego Kosińskiego"/>
    <tag k="source" v="http://ump.waw.pl/ retrieved 15:05:23 06/30/09 (UMP-Poznan/src/POZNAN.ulice.txt)"/>
  </node>
  <node id="454062397" version="1" timestamp="2009-08-02T04:11:19Z" uid="20587" user="balrog-kun" changeset="2009571" lat="52.3876547" lon="16.9212952">
    <tag k="addr:city" v="Poznań"/>
    <tag k="addr:housenumber" v="11"/>
    <tag k="addr:street" v="Chłapowskiego"/>
    <tag k="source" v="http://ump.waw.pl/ retrieved 15:05:23 06/30/09 (UMP-Poznan/src/POZNAN.ulice.txt)"/>
  </node>
  <node id="454062398" version="1" timestamp="2009-08-02T04:11:20Z" uid="20587" user="balrog-kun" changeset="2009571" lat="52.3923267" lon="16.9194091">
    <tag k="addr:city" v="Poznań"/>
    <tag k="addr:housenumber" v="2"/>
    <tag k="addr:street" v="Sikorskiego"/>
    <tag k="source" v="http://ump.waw.pl/ retrieved 15:05:23 06/30/09 (UMP-Poznan/src/POZNAN.ulice.txt)"/>
  </node>
  <node id="454062399" version="1" timestamp="2009-08-02T04:11:20Z" uid="20587" user="balrog-kun" changeset="2009571" lat="52.3970989" lon="16.9242692">
    <tag k="addr:city" v="Poznań"/>
    <tag k="addr:housenumber" v="9"/>
    <tag k="addr:street" v="Różana"/>
    <tag k="source" v="http://ump.waw.pl/ retrieved 15:05:23 06/30/09 (UMP-Poznan/src/POZNAN.ulice.txt)"/>
  </node>
  <node id="454062400" version="1" timestamp="2009-08-02T04:11:20Z" uid="20587" user="balrog-kun" changeset="2009571" lat="52.3879925" lon="16.921367">
    <tag k="addr:city" v="Poznań"/>
    <tag k="addr:housenumber" v="19"/>
    <tag k="addr:street" v="Chłapowskiego"/>
    <tag k="source" v="http://ump.waw.pl/ retrieved 15:05:23 06/30/09 (UMP-Poznan/src/POZNAN.ulice.txt)"/>
  </node>
  <node id="454062403" version="1" timestamp="2009-08-02T04:11:20Z" uid="20587" user="balrog-kun" changeset="2009571" lat="52.3960126" lon="16.9208261">
    <tag k="addr:city" v="Poznań"/>
    <tag k="addr:housenumber" v="18"/>
    <tag k="addr:street" v="Żupańskiego"/>
    <tag k="source" v="http://ump.waw.pl/ retrieved 15:05:23 06/30/09 (UMP-Poznan/src/POZNAN.ulice.txt)"/>
  </node>
  <node id="454062404" version="1" timestamp="2009-08-02T04:11:20Z" uid="20587" user="balrog-kun" changeset="2009571" lat="52.397019" lon="16.9251671">
    <tag k="addr:city" v="Poznań"/>
    <tag k="addr:housenumber" v="79"/>
    <tag k="addr:street" v="Górna Wilda"/>
    <tag k="source" v="http://ump.waw.pl/ retrieved 15:05:23 06/30/09 (UMP-Poznan/src/POZNAN.ulice.txt)"/>
  </node>
  <node id="454062405" version="1" timestamp="2009-08-02T04:11:20Z" uid="20587" user="balrog-kun" changeset="2009571" lat="52.3883525" lon="16.9115267">
    <tag k="addr:city" v="Poznań"/>
    <tag k="addr:housenumber" v="16"/>
    <tag k="addr:street" v="Umińskiego"/>
    <tag k="source" v="http://ump.waw.pl/ retrieved 15:05:23 06/30/09 (UMP-Poznan/src/POZNAN.ulice.txt)"/>
  </node>
  <node id="454062408" version="1" timestamp="2009-08-02T04:11:20Z" uid="20587" user="balrog-kun" changeset="2009571" lat="52.3908097" lon="16.9136235">
    <tag k="addr:city" v="Poznań"/>
    <tag k="addr:housenumber" v="25"/>
    <tag k="addr:street" v="Sikorskiego"/>
    <tag k="source" v="http://ump.waw.pl/ retrieved 15:05:23 06/30/09 (UMP-Poznan/src/POZNAN.ulice.txt)"/>
  </node>
  <node id="454062409" version="1" timestamp="2009-08-02T04:11:20Z" uid="20587" user="balrog-kun" changeset="2009571" lat="52.3960686" lon="16.9228971">
    <tag k="addr:city" v="Poznań"/>
    <tag k="addr:housenumber" v="4"/>
    <tag k="addr:street" v="Poplińskich"/>
    <tag k="source" v="http://ump.waw.pl/ retrieved 15:05:23 06/30/09 (UMP-Poznan/src/POZNAN.ulice.txt)"/>
  </node>
  <node id="454062410" version="1" timestamp="2009-08-02T04:11:21Z" uid="20587" user="balrog-kun" changeset="2009571" lat="52.3946675" lon="16.9245748">
    <tag k="addr:city" v="Poznań"/>
    <tag k="addr:housenumber" v="18"/>
    <tag k="addr:street" v="Dolina"/>
    <tag k="source" v="http://ump.waw.pl/ retrieved 15:05:23 06/30/09 (UMP-Poznan/src/POZNAN.ulice.txt)"/>
  </node>
  <node id="454062412" version="1" timestamp="2009-08-02T04:11:21Z" uid="20587" user="balrog-kun" changeset="2009571" lat="52.3910329" lon="16.9167929">
    <tag k="addr:city" v="Poznań"/>
    <tag k="addr:housenumber" v="53"/>
    <tag k="addr:street" v="Prądzyńskiego"/>
    <tag k="source" v="http://ump.waw.pl/ retrieved 15:05:23 06/30/09 (UMP-Poznan/src/POZNAN.ulice.txt)"/>
  </node>
  <node id="454062414" version="1" timestamp="2009-08-02T04:11:21Z" uid="20587" user="balrog-kun" changeset="2009571" lat="52.395956" lon="16.9211045">
    <tag k="addr:city" v="Poznań"/>
    <tag k="addr:housenumber" v="27"/>
    <tag k="addr:street" v="Wierzbięcice"/>
    <tag k="source" v="http://ump.waw.pl/ retrieved 15:05:23 06/30/09 (UMP-Poznan/src/POZNAN.ulice.txt)"/>
  </node>
  <node id="454062415" version="1" timestamp="2009-08-02T04:11:21Z" uid="20587" user="balrog-kun" changeset="2009571" lat="52.3875814" lon="16.922084">
    <tag k="addr:city" v="Poznań"/>
    <tag k="addr:housenumber" v="12"/>
    <tag k="addr:street" v="Chłapowskiego"/>
    <tag k="source" v="http://ump.waw.pl/ retrieved 15:05:23 06/30/09 (UMP-Poznan/src/POZNAN.ulice.txt)"/>
  </node>
  <node id="454062416" version="1" timestamp="2009-08-02T04:11:21Z" uid="20587" user="balrog-kun" changeset="2009571" lat="52.3868908" lon="16.9158208">
    <tag k="addr:city" v="Poznań"/>
    <tag k="addr:housenumber" v="164"/>
    <tag k="addr:street" v="28 Czerwca 1956 r."/>
    <tag k="source" v="http://ump.waw.pl/ retrieved 15:05:23 06/30/09 (UMP-Poznan/src/POZNAN.ulice.txt)"/>
  </node>
  <node id="454062419" version="1" timestamp="2009-08-02T04:11:21Z" uid="20587" user="balrog-kun" changeset="2009571" lat="52.3930131" lon="16.9209051">
    <tag k="addr:city" v="Poznań"/>
    <tag k="addr:housenumber" v="111"/>
    <tag k="addr:street" v="28 Czerwca 1956 r."/>
    <tag k="source" v="http://ump.waw.pl/ retrieved 15:05:23 06/30/09 (UMP-Poznan/src/POZNAN.ulice.txt)"/>
  </node>
  <node id="454062420" version="1" timestamp="2009-08-02T04:11:21Z" uid="20587" user="balrog-kun" changeset="2009571" lat="52.3969354" lon="16.9223591">
    <tag k="addr:city" v="Poznań"/>
    <tag k="addr:housenumber" v="13"/>
    <tag k="addr:street" v="Poplińskich"/>
    <tag k="source" v="http://ump.waw.pl/ retrieved 15:05:23 06/30/09 (UMP-Poznan/src/POZNAN.ulice.txt)"/>
  </node>
  <node id="454062421" version="1" timestamp="2009-08-02T04:11:21Z" uid="20587" user="balrog-kun" changeset="2009571" lat="52.38811" lon="16.9153691">
    <tag k="addr:city" v="Poznań"/>
    <tag k="addr:housenumber" v="3"/>
    <tag k="addr:street" v="Madalińskiego"/>
    <tag k="source" v="http://ump.waw.pl/ retrieved 15:05:23 06/30/09 (UMP-Poznan/src/POZNAN.ulice.txt)"/>
  </node>
  <node id="454062423" version="1" timestamp="2009-08-02T04:11:22Z" uid="20587" user="balrog-kun" changeset="2009571" lat="52.3897271" lon="16.9162062">
    <tag k="addr:city" v="Poznań"/>
    <tag k="addr:housenumber" v="16"/>
    <tag k="addr:street" v="Prądzyńskiego"/>
    <tag k="source" v="http://ump.waw.pl/ retrieved 15:05:23 06/30/09 (UMP-Poznan/src/POZNAN.ulice.txt)"/>
  </node>
  <node id="454062424" version="1" timestamp="2009-08-02T04:11:22Z" uid="20587" user="balrog-kun" changeset="2009571" lat="52.3864291" lon="16.921066">
    <tag k="addr:city" v="Poznań"/>
    <tag k="addr:housenumber" v="8"/>
    <tag k="addr:street" v="Zmartwychwstańców"/>
    <tag k="source" v="http://ump.waw.pl/ retrieved 15:05:23 06/30/09 (UMP-Poznan/src/POZNAN.ulice.txt)"/>
  </node>
  <node id="454062426" version="1" timestamp="2009-08-02T04:11:22Z" uid="20587" user="balrog-kun" changeset="2009571" lat="52.3959593" lon="16.9215208">
    <tag k="addr:city" v="Poznań"/>
    <tag k="addr:housenumber" v="28"/>
    <tag k="addr:street" v="Wierzbięcice"/>
    <tag k="source" v="http://ump.waw.pl/ retrieved 15:05:23 06/30/09 (UMP-Poznan/src/POZNAN.ulice.txt)"/>
  </node>
  <node id="454062427" version="1" timestamp="2009-08-02T04:11:22Z" uid="20587" user="balrog-kun" changeset="2009571" lat="52.388542" lon="16.9144637">
    <tag k="addr:city" v="Poznań"/>
    <tag k="addr:housenumber" v="7"/>
    <tag k="addr:street" v="Fabryczna"/>
    <tag k="source" v="http://ump.waw.pl/ retrieved 15:05:23 06/30/09 (UMP-Poznan/src/POZNAN.ulice.txt)"/>
  </node>
  <node id="454062428" version="1" timestamp="2009-08-02T04:11:22Z" uid="20587" user="balrog-kun" changeset="2009571" lat="52.3991187" lon="16.9210284">
    <tag k="addr:city" v="Poznań"/>
    <tag k="addr:housenumber" v="5"/>
    <tag k="addr:street" v="Wierzbięcice"/>
    <tag k="source" v="http://ump.waw.pl/ retrieved 15:05:23 06/30/09 (UMP-Poznan/src/POZNAN.ulice.txt)"/>
  </node>
  <node id="454062429" version="1" timestamp="2009-08-02T04:11:22Z" uid="20587" user="balrog-kun" changeset="2009571" lat="52.3961366" lon="16.9245356">
    <tag k="addr:city" v="Poznań"/>
    <tag k="addr:housenumber" v="83"/>
    <tag k="addr:street" v="Górna Wilda"/>
    <tag k="source" v="http://ump.waw.pl/ retrieved 15:05:23 06/30/09 (UMP-Poznan/src/POZNAN.ulice.txt)"/>
  </node>
  <node id="454062431" version="1" timestamp="2009-08-02T04:11:22Z" uid="20587" user="balrog-kun" changeset="2009571" lat="52.3964441" lon="16.92111">
    <tag k="addr:city" v="Poznań"/>
    <tag k="addr:housenumber" v="25"/>
    <tag k="addr:street" v="Wierzbięcice"/>
    <tag k="source" v="http://ump.waw.pl/ retrieved 15:05:23 06/30/09 (UMP-Poznan/src/POZNAN.ulice.txt)"/>
  </node>
  <node id="454062433" version="1" timestamp="2009-08-02T04:11:22Z" uid="20587" user="balrog-kun" changeset="2009571" lat="52.3883699" lon="16.9172557">
    <tag k="addr:city" v="Poznań"/>
    <tag k="addr:housenumber" v="150"/>
    <tag k="addr:street" v="28 Czerwca 1956 r."/>
    <tag k="source" v="http://ump.waw.pl/ retrieved 15:05:23 06/30/09 (UMP-Poznan/src/POZNAN.ulice.txt)"/>
  </node>
  <node id="454062434" version="1" timestamp="2009-08-02T04:11:23Z" uid="20587" user="balrog-kun" changeset="2009571" lat="52.3919496" lon="16.921752">
    <tag k="addr:city" v="Poznań"/>
    <tag k="addr:housenumber" v="58"/>
    <tag k="addr:street" v="Wierzbięcice"/>
    <tag k="source" v="http://ump.waw.pl/ retrieved 15:05:23 06/30/09 (UMP-Poznan/src/POZNAN.ulice.txt)"/>
  </node>
  <node id="454062435" version="1" timestamp="2009-08-02T04:11:23Z" uid="20587" user="balrog-kun" changeset="2009571" lat="52.3966779" lon="16.9192906">
    <tag k="addr:city" v="Poznań"/>
    <tag k="addr:housenumber" v="31"/>
    <tag k="addr:street" v="Przemysłowa"/>
    <tag k="source" v="http://ump.waw.pl/ retrieved 15:05:23 06/30/09 (UMP-Poznan/src/POZNAN.ulice.txt)"/>
  </node>
  <node id="454062438" version="1" timestamp="2009-08-02T04:11:23Z" uid="20587" user="balrog-kun" changeset="2009571" lat="52.3908127" lon="16.9198872">
    <tag k="addr:city" v="Poznań"/>
    <tag k="addr:housenumber" v="128"/>
    <tag k="addr:street" v="28 Czerwca 1956 r."/>
    <tag k="source" v="http://ump.waw.pl/ retrieved 15:05:23 06/30/09 (UMP-Poznan/src/POZNAN.ulice.txt)"/>
  </node>
  <node id="454062439" version="1" timestamp="2009-08-02T04:11:23Z" uid="20587" user="balrog-kun" changeset="2009571" lat="52.3951987" lon="16.918589">
    <tag k="addr:city" v="Poznań"/>
    <tag k="addr:housenumber" v="9"/>
    <tag k="addr:street" v="Chwiałkowskiego"/>
    <tag k="source" v="http://ump.waw.pl/ retrieved 15:05:23 06/30/09 (UMP-Poznan/src/POZNAN.ulice.txt)"/>
  </node>
  <node id="454062440" version="1" timestamp="2009-08-02T04:11:23Z" uid="20587" user="balrog-kun" changeset="2009571" lat="52.3874529" lon="16.918861">
    <tag k="addr:city" v="Poznań"/>
    <tag k="addr:housenumber" v="20"/>
    <tag k="addr:street" v="Langiewicza"/>
    <tag k="source" v="http://ump.waw.pl/ retrieved 15:05:23 06/30/09 (UMP-Poznan/src/POZNAN.ulice.txt)"/>
  </node>
  <node id="454062441" version="1" timestamp="2009-08-02T04:11:23Z" uid="20587" user="balrog-kun" changeset="2009571" lat="52.3997045" lon="16.9214823">
    <tag k="addr:city" v="Poznań"/>
    <tag k="addr:housenumber" v="2"/>
    <tag k="addr:street" v="Wierzbięcice"/>
    <tag k="source" v="http://ump.waw.pl/ retrieved 15:05:23 06/30/09 (UMP-Poznan/src/POZNAN.ulice.txt)"/>
  </node>
  <node id="454062443" version="1" timestamp="2009-08-02T04:11:23Z" uid="20587" user="balrog-kun" changeset="2009571" lat="52.3873711" lon="16.9197441">
    <tag k="addr:city" v="Poznań"/>
    <tag k="addr:housenumber" v="17"/>
    <tag k="addr:street" v="Langiewicza"/>
    <tag k="source" v="http://ump.waw.pl/ retrieved 15:05:23 06/30/09 (UMP-Poznan/src/POZNAN.ulice.txt)"/>
  </node>
  <node id="454062444" version="1" timestamp="2009-08-02T04:11:23Z" uid="20587" user="balrog-kun" changeset="2009571" lat="52.3893514" lon="16.911514">
    <tag k="addr:city" v="Poznań"/>
    <tag k="addr:housenumber" v="17"/>
    <tag k="addr:street" v="Antoniego Kosińskiego"/>
    <tag k="source" v="http://ump.waw.pl/ retrieved 15:05:23 06/30/09 (UMP-Poznan/src/POZNAN.ulice.txt)"/>
  </node>
  <node id="454062446" version="1" timestamp="2009-08-02T04:11:23Z" uid="20587" user="balrog-kun" changeset="2009571" lat="52.3876183" lon="16.9150968"/>
  <node id="454062447" version="1" timestamp="2009-08-02T04:11:23Z" uid="20587" user="balrog-kun" changeset="2009571" lat="52.3912558" lon="16.9140705">
    <tag k="addr:city" v="Poznań"/>
    <tag k="addr:housenumber" v="17"/>
    <tag k="addr:street" v="Sikorskiego"/>
    <tag k="source" v="http://ump.waw.pl/ retrieved 15:05:23 06/30/09 (UMP-Poznan/src/POZNAN.ulice.txt)"/>
  </node>
  <node id="454062449" version="1" timestamp="2009-08-02T04:11:24Z" uid="20587" user="balrog-kun" changeset="2009571" lat="52.38623" lon="16.9169807">
    <tag k="addr:city" v="Poznań"/>
    <tag k="addr:housenumber" v="5"/>
    <tag k="addr:street" v="Rolna"/>
    <tag k="source" v="http://ump.waw.pl/ retrieved 15:05:23 06/30/09 (UMP-Poznan/src/POZNAN.ulice.txt)"/>
  </node>
  <node id="454062450" version="1" timestamp="2009-08-02T04:11:24Z" uid="20587" user="balrog-kun" changeset="2009571" lat="52.3916429" lon="16.9172729">
    <tag k="addr:city" v="Poznań"/>
    <tag k="addr:housenumber" v="56"/>
    <tag k="addr:street" v="Prądzyńskiego"/>
    <tag k="source" v="http://ump.waw.pl/ retrieved 15:05:23 06/30/09 (UMP-Poznan/src/POZNAN.ulice.txt)"/>
  </node>
  <node id="454062451" version="1" timestamp="2009-08-02T04:11:24Z" uid="20587" user="balrog-kun" changeset="2009571" lat="52.3951377" lon="16.9255423">
    <tag k="addr:city" v="Poznań"/>
    <tag k="addr:housenumber" v="32"/>
    <tag k="addr:street" v="Chwiałkowskiego"/>
    <tag k="source" v="http://ump.waw.pl/ retrieved 15:05:23 06/30/09 (UMP-Poznan/src/POZNAN.ulice.txt)"/>
  </node>
  <node id="454062453" version="1" timestamp="2009-08-02T04:11:24Z" uid="20587" user="balrog-kun" changeset="2009571" lat="52.3937593" lon="16.9240786">
    <tag k="addr:city" v="Poznań"/>
    <tag k="addr:housenumber" v="8"/>
    <tag k="addr:street" v="Dolina"/>
    <tag k="source" v="http://ump.waw.pl/ retrieved 15:05:23 06/30/09 (UMP-Poznan/src/POZNAN.ulice.txt)"/>
  </node>
  <node id="454062454" version="1" timestamp="2009-08-02T04:11:24Z" uid="20587" user="balrog-kun" changeset="2009571" lat="52.3893771" lon="16.9160202">
    <tag k="addr:city" v="Poznań"/>
    <tag k="addr:housenumber" v="17"/>
    <tag k="addr:street" v="Prądzyńskiego"/>
    <tag k="source" v="http://ump.waw.pl/ retrieved 15:05:23 06/30/09 (UMP-Poznan/src/POZNAN.ulice.txt)"/>
  </node>
  <node id="454062456" version="1" timestamp="2009-08-02T04:11:24Z" uid="20587" user="balrog-kun" changeset="2009571" lat="52.3912975" lon="16.9195769">
    <tag k="addr:city" v="Poznań"/>
    <tag k="addr:housenumber" v="16"/>
    <tag k="addr:street" v="Jana Kilińskiego"/>
    <tag k="source" v="http://ump.waw.pl/ retrieved 15:05:23 06/30/09 (UMP-Poznan/src/POZNAN.ulice.txt)"/>
  </node>
  <node id="454062458" version="1" timestamp="2009-08-02T04:11:24Z" uid="20587" user="balrog-kun" changeset="2009571" lat="52.3953205" lon="16.9224284">
    <tag k="addr:city" v="Poznań"/>
    <tag k="addr:housenumber" v="22"/>
    <tag k="addr:street" v="Chwiałkowskiego"/>
    <tag k="source" v="http://ump.waw.pl/ retrieved 15:05:23 06/30/09 (UMP-Poznan/src/POZNAN.ulice.txt)"/>
  </node>
  <node id="454062459" version="1" timestamp="2009-08-02T04:11:24Z" uid="20587" user="balrog-kun" changeset="2009571" lat="52.3901344" lon="16.9137329">
    <tag k="addr:city" v="Poznań"/>
    <tag k="addr:housenumber" v="5"/>
    <tag k="addr:street" v="Umińskiego"/>
    <tag k="source" v="http://ump.waw.pl/ retrieved 15:05:23 06/30/09 (UMP-Poznan/src/POZNAN.ulice.txt)"/>
  </node>
  <node id="454062460" version="1" timestamp="2009-08-02T04:11:24Z" uid="20587" user="balrog-kun" changeset="2009571" lat="52.3926361" lon="16.9233761">
    <tag k="addr:city" v="Poznań"/>
    <tag k="addr:housenumber" v="1"/>
    <tag k="addr:street" v="Powstańcza"/>
    <tag k="source" v="http://ump.waw.pl/ retrieved 15:05:23 06/30/09 (UMP-Poznan/src/POZNAN.ulice.txt)"/>
  </node>
  <node id="454062463" version="1" timestamp="2009-08-02T04:11:24Z" uid="20587" user="balrog-kun" changeset="2009571" lat="52.3936052" lon="16.9211238">
    <tag k="addr:city" v="Poznań"/>
    <tag k="addr:housenumber" v="45"/>
    <tag k="addr:street" v="Wierzbięcice"/>
    <tag k="source" v="http://ump.waw.pl/ retrieved 15:05:23 06/30/09 (UMP-Poznan/src/POZNAN.ulice.txt)"/>
  </node>
  <node id="454062464" version="1" timestamp="2009-08-02T04:11:25Z" uid="20587" user="balrog-kun" changeset="2009571" lat="52.3899665" lon="16.9191854">
    <tag k="addr:city" v="Poznań"/>
    <tag k="addr:housenumber" v="135"/>
    <tag k="addr:street" v="28 Czerwca 1956 r."/>
    <tag k="source" v="http://ump.waw.pl/ retrieved 15:05:23 06/30/09 (UMP-Poznan/src/POZNAN.ulice.txt)"/>
  </node>
  <node id="454062465" version="1" timestamp="2009-08-02T04:11:25Z" uid="20587" user="balrog-kun" changeset="2009571" lat="52.3955811" lon="16.9218861">
    <tag k="addr:city" v="Poznań"/>
    <tag k="addr:housenumber" v="23"/>
    <tag k="addr:street" v="Chwiałkowskiego"/>
    <tag k="source" v="http://ump.waw.pl/ retrieved 15:05:23 06/30/09 (UMP-Poznan/src/POZNAN.ulice.txt)"/>
  </node>
  <node id="454062466" version="1" timestamp="2009-08-02T04:11:25Z" uid="20587" user="balrog-kun" changeset="2009571" lat="52.3893382" lon="16.9153455">
    <tag k="addr:city" v="Poznań"/>
    <tag k="addr:housenumber" v="50"/>
    <tag k="addr:street" v="Prądzyńskiego"/>
    <tag k="source" v="http://ump.waw.pl/ retrieved 15:05:23 06/30/09 (UMP-Poznan/src/POZNAN.ulice.txt)"/>
  </node>
  <node id="454062468" version="1" timestamp="2009-08-02T04:11:25Z" uid="20587" user="balrog-kun" changeset="2009571" lat="52.3910971" lon="16.9172871">
    <tag k="addr:city" v="Poznań"/>
    <tag k="addr:housenumber" v="13"/>
    <tag k="addr:street" v="Prądzyńskiego"/>
    <tag k="source" v="http://ump.waw.pl/ retrieved 15:05:23 06/30/09 (UMP-Poznan/src/POZNAN.ulice.txt)"/>
  </node>
  <node id="454062469" version="1" timestamp="2009-08-02T04:11:25Z" uid="20587" user="balrog-kun" changeset="2009571" lat="52.3926293" lon="16.9235929">
    <tag k="addr:city" v="Poznań"/>
    <tag k="addr:housenumber" v="12"/>
    <tag k="addr:street" v="Czajcza"/>
    <tag k="source" v="http://ump.waw.pl/ retrieved 15:05:23 06/30/09 (UMP-Poznan/src/POZNAN.ulice.txt)"/>
  </node>
  <node id="454062470" version="1" timestamp="2009-08-02T04:11:25Z" uid="20587" user="balrog-kun" changeset="2009571" lat="52.395256" lon="16.9237382">
    <tag k="addr:city" v="Poznań"/>
    <tag k="addr:housenumber" v="91"/>
    <tag k="addr:street" v="Górna Wilda"/>
    <tag k="source" v="http://ump.waw.pl/ retrieved 15:05:23 06/30/09 (UMP-Poznan/src/POZNAN.ulice.txt)"/>
  </node>
  <node id="454062473" version="1" timestamp="2009-08-02T04:11:25Z" uid="20587" user="balrog-kun" changeset="2009571" lat="52.3856199" lon="16.9154847">
    <tag k="addr:city" v="Poznań"/>
    <tag k="addr:housenumber" v="19"/>
    <tag k="addr:street" v="Traugutta"/>
    <tag k="source" v="http://ump.waw.pl/ retrieved 15:05:23 06/30/09 (UMP-Poznan/src/POZNAN.ulice.txt)"/>
  </node>
  <node id="454062474" version="1" timestamp="2009-08-02T04:11:25Z" uid="20587" user="balrog-kun" changeset="2009571" lat="52.3989479" lon="16.9226988">
    <tag k="addr:city" v="Poznań"/>
    <tag k="addr:housenumber" v="24"/>
    <tag k="addr:street" v="Niedziałkowskiego"/>
    <tag k="source" v="http://ump.waw.pl/ retrieved 15:05:23 06/30/09 (UMP-Poznan/src/POZNAN.ulice.txt)"/>
  </node>
  <node id="454062475" version="1" timestamp="2009-08-02T04:11:26Z" uid="20587" user="balrog-kun" changeset="2009571" lat="52.3872215" lon="16.9140274">
    <tag k="addr:city" v="Poznań"/>
    <tag k="addr:housenumber" v="8"/>
    <tag k="addr:street" v="Madalińskiego"/>
    <tag k="source" v="http://ump.waw.pl/ retrieved 15:05:23 06/30/09 (UMP-Poznan/src/POZNAN.ulice.txt)"/>
  </node>
  <node id="454062476" version="1" timestamp="2009-08-02T04:11:26Z" uid="20587" user="balrog-kun" changeset="2009571" lat="52.3941983" lon="16.9220922">
    <tag k="addr:city" v="Poznań"/>
    <tag k="addr:housenumber" v="106"/>
    <tag k="addr:street" v="Górna Wilda"/>
    <tag k="source" v="http://ump.waw.pl/ retrieved 15:05:23 06/30/09 (UMP-Poznan/src/POZNAN.ulice.txt)"/>
  </node>
  <node id="454062479" version="1" timestamp="2009-08-02T04:11:26Z" uid="20587" user="balrog-kun" changeset="2009571" lat="52.399008" lon="16.9246025">
    <tag k="addr:city" v="Poznań"/>
    <tag k="addr:housenumber" v="1"/>
    <tag k="addr:street" v="Różana"/>
    <tag k="source" v="http://ump.waw.pl/ retrieved 15:05:23 06/30/09 (UMP-Poznan/src/POZNAN.ulice.txt)"/>
  </node>
  <node id="454062480" version="1" timestamp="2009-08-02T04:11:26Z" uid="20587" user="balrog-kun" changeset="2009571" lat="52.3950221" lon="16.9196649">
    <tag k="addr:city" v="Poznań"/>
    <tag k="addr:housenumber" v="10"/>
    <tag k="addr:street" v="Chwiałkowskiego"/>
    <tag k="source" v="http://ump.waw.pl/ retrieved 15:05:23 06/30/09 (UMP-Poznan/src/POZNAN.ulice.txt)"/>
  </node>
  <node id="454062482" version="1" timestamp="2009-08-02T04:11:26Z" uid="20587" user="balrog-kun" changeset="2009571" lat="52.3937632" lon="16.9221037">
    <tag k="addr:city" v="Poznań"/>
    <tag k="addr:housenumber" v="107"/>
    <tag k="addr:street" v="Górna Wilda"/>
    <tag k="source" v="http://ump.waw.pl/ retrieved 15:05:23 06/30/09 (UMP-Poznan/src/POZNAN.ulice.txt)"/>
  </node>
  <node id="454062483" version="1" timestamp="2009-08-02T04:11:26Z" uid="20587" user="balrog-kun" changeset="2009571" lat="52.38516" lon="16.9166649">
    <tag k="addr:city" v="Poznań"/>
    <tag k="addr:housenumber" v="34"/>
    <tag k="addr:street" v="Traugutta"/>
    <tag k="source" v="http://ump.waw.pl/ retrieved 15:05:23 06/30/09 (UMP-Poznan/src/POZNAN.ulice.txt)"/>
  </node>
  <node id="454062486" version="1" timestamp="2009-08-02T04:11:26Z" uid="20587" user="balrog-kun" changeset="2009571" lat="52.3890876" lon="16.9126833">
    <tag k="addr:city" v="Poznań"/>
    <tag k="addr:housenumber" v="7"/>
    <tag k="addr:street" v="Umińskiego"/>
    <tag k="source" v="http://ump.waw.pl/ retrieved 15:05:23 06/30/09 (UMP-Poznan/src/POZNAN.ulice.txt)"/>
  </node>
  <node id="454062487" version="1" timestamp="2009-08-02T04:11:26Z" uid="20587" user="balrog-kun" changeset="2009571" lat="52.3986781" lon="16.9242129">
    <tag k="addr:city" v="Poznań"/>
    <tag k="addr:housenumber" v="22"/>
    <tag k="addr:street" v="Różana"/>
    <tag k="source" v="http://ump.waw.pl/ retrieved 15:05:23 06/30/09 (UMP-Poznan/src/POZNAN.ulice.txt)"/>
  </node>
  <node id="454062488" version="1" timestamp="2009-08-02T04:11:26Z" uid="20587" user="balrog-kun" changeset="2009571" lat="52.3952746" lon="16.9190125">
    <tag k="addr:city" v="Poznań"/>
    <tag k="addr:housenumber" v="48"/>
    <tag k="addr:street" v="Przemysłowa"/>
    <tag k="source" v="http://ump.waw.pl/ retrieved 15:05:23 06/30/09 (UMP-Poznan/src/POZNAN.ulice.txt)"/>
  </node>
  <node id="454062490" version="1" timestamp="2009-08-02T04:11:27Z" uid="20587" user="balrog-kun" changeset="2009571" lat="52.3964441" lon="16.92151">
    <tag k="addr:city" v="Poznań"/>
    <tag k="addr:housenumber" v="26"/>
    <tag k="addr:street" v="Wierzbięcice"/>
    <tag k="source" v="http://ump.waw.pl/ retrieved 15:05:23 06/30/09 (UMP-Poznan/src/POZNAN.ulice.txt)"/>
  </node>
  <node id="454062492" version="1" timestamp="2009-08-02T04:11:27Z" uid="20587" user="balrog-kun" changeset="2009571" lat="52.3949496" lon="16.9245605">
    <tag k="addr:city" v="Poznań"/>
    <tag k="addr:housenumber" v="19"/>
    <tag k="addr:street" v="Dolina"/>
    <tag k="source" v="http://ump.waw.pl/ retrieved 15:05:23 06/30/09 (UMP-Poznan/src/POZNAN.ulice.txt)"/>
  </node>
  <node id="454062493" version="1" timestamp="2009-08-02T04:11:27Z" uid="20587" user="balrog-kun" changeset="2009571" lat="52.3929528" lon="16.9166545">
    <tag k="addr:city" v="Poznań"/>
    <tag k="addr:housenumber" v="12"/>
    <tag k="addr:street" v="Czarnieckiego"/>
    <tag k="source" v="http://ump.waw.pl/ retrieved 15:05:23 06/30/09 (UMP-Poznan/src/POZNAN.ulice.txt)"/>
  </node>
  <node id="454062494" version="1" timestamp="2009-08-02T04:11:27Z" uid="20587" user="balrog-kun" changeset="2009571" lat="52.3962137" lon="16.9230843">
    <tag k="addr:city" v="Poznań"/>
    <tag k="addr:housenumber" v="14"/>
    <tag k="addr:street" v="Żupańskiego"/>
    <tag k="source" v="http://ump.waw.pl/ retrieved 15:05:23 06/30/09 (UMP-Poznan/src/POZNAN.ulice.txt)"/>
  </node>
  <node id="454062495" version="1" timestamp="2009-08-02T04:11:27Z" uid="20587" user="balrog-kun" changeset="2009571" lat="52.396534" lon="16.9239242">
    <tag k="addr:city" v="Poznań"/>
    <tag k="addr:housenumber" v="13"/>
    <tag k="addr:street" v="Różana"/>
    <tag k="source" v="http://ump.waw.pl/ retrieved 15:05:23 06/30/09 (UMP-Poznan/src/POZNAN.ulice.txt)"/>
  </node>
  <node id="454062497" version="1" timestamp="2009-08-02T04:11:27Z" uid="20587" user="balrog-kun" changeset="2009571" lat="52.3905633" lon="16.9191144">
    <tag k="addr:city" v="Poznań"/>
    <tag k="addr:housenumber" v="1"/>
    <tag k="addr:street" v="Wybickiego"/>
    <tag k="source" v="http://ump.waw.pl/ retrieved 15:05:23 06/30/09 (UMP-Poznan/src/POZNAN.ulice.txt)"/>
  </node>
  <node id="454062499" version="1" timestamp="2009-08-02T04:11:27Z" uid="20587" user="balrog-kun" changeset="2009571" lat="52.387259" lon="16.9205075">
    <tag k="addr:city" v="Poznań"/>
    <tag k="addr:housenumber" v="2"/>
    <tag k="addr:street" v="Dąbrówki"/>
    <tag k="source" v="http://ump.waw.pl/ retrieved 15:05:23 06/30/09 (UMP-Poznan/src/POZNAN.ulice.txt)"/>
  </node>
  <node id="454062500" version="1" timestamp="2009-08-02T04:11:28Z" uid="20587" user="balrog-kun" changeset="2009571" lat="52.3953698" lon="16.9228217">
    <tag k="addr:city" v="Poznań"/>
    <tag k="addr:housenumber" v="24"/>
    <tag k="addr:street" v="Chwiałkowskiego"/>
    <tag k="source" v="http://ump.waw.pl/ retrieved 15:05:23 06/30/09 (UMP-Poznan/src/POZNAN.ulice.txt)"/>
  </node>
  <node id="454062501" version="1" timestamp="2009-08-02T04:11:28Z" uid="20587" user="balrog-kun" changeset="2009571" lat="52.3891195" lon="16.9176477">
    <tag k="addr:city" v="Poznań"/>
    <tag k="addr:housenumber" v="1"/>
    <tag k="addr:street" v="Antoniego Kosińskiego"/>
    <tag k="source" v="http://ump.waw.pl/ retrieved 15:05:23 06/30/09 (UMP-Poznan/src/POZNAN.ulice.txt)"/>
  </node>
  <node id="454062502" version="1" timestamp="2009-08-02T04:11:28Z" uid="20587" user="balrog-kun" changeset="2009571" lat="52.3855784" lon="16.9208287">
    <tag k="addr:city" v="Poznań"/>
    <tag k="addr:housenumber" v="10"/>
    <tag k="addr:street" v="Zmartwychwstańców"/>
    <tag k="source" v="http://ump.waw.pl/ retrieved 15:05:23 06/30/09 (UMP-Poznan/src/POZNAN.ulice.txt)"/>
  </node>
  <node id="454062503" version="1" timestamp="2009-08-02T04:11:28Z" uid="20587" user="balrog-kun" changeset="2009571" lat="52.3984689" lon="16.9256014">
    <tag k="addr:city" v="Poznań"/>
    <tag k="addr:housenumber" v="66"/>
    <tag k="addr:street" v="Górna Wilda"/>
    <tag k="source" v="http://ump.waw.pl/ retrieved 15:05:23 06/30/09 (UMP-Poznan/src/POZNAN.ulice.txt)"/>
  </node>
  <node id="454062506" version="1" timestamp="2009-08-02T04:11:28Z" uid="20587" user="balrog-kun" changeset="2009571" lat="52.3875235" lon="16.9214478">
    <tag k="addr:city" v="Poznań"/>
    <tag k="addr:housenumber" v="2"/>
    <tag k="addr:street" v="Zmartwychwstańców"/>
    <tag k="source" v="http://ump.waw.pl/ retrieved 15:05:23 06/30/09 (UMP-Poznan/src/POZNAN.ulice.txt)"/>
  </node>
  <node id="454062507" version="1" timestamp="2009-08-02T04:11:28Z" uid="20587" user="balrog-kun" changeset="2009571" lat="52.3872128" lon="16.9213495">
    <tag k="addr:city" v="Poznań"/>
    <tag k="addr:housenumber" v="6"/>
    <tag k="addr:street" v="Zmartwychwstańców"/>
    <tag k="source" v="http://ump.waw.pl/ retrieved 15:05:23 06/30/09 (UMP-Poznan/src/POZNAN.ulice.txt)"/>
  </node>
  <node id="454062508" version="1" timestamp="2009-08-02T04:11:28Z" uid="20587" user="balrog-kun" changeset="2009571" lat="52.387791" lon="16.9198419">
    <tag k="addr:city" v="Poznań"/>
    <tag k="addr:housenumber" v="8"/>
    <tag k="addr:street" v="Chłapowskiego"/>
    <tag k="source" v="http://ump.waw.pl/ retrieved 15:05:23 06/30/09 (UMP-Poznan/src/POZNAN.ulice.txt)"/>
  </node>
  <node id="454062509" version="1" timestamp="2009-08-02T04:11:28Z" uid="20587" user="balrog-kun" changeset="2009571" lat="52.3962746" lon="16.9237823">
    <tag k="addr:city" v="Poznań"/>
    <tag k="addr:housenumber" v="12"/>
    <tag k="addr:street" v="Żupańskiego"/>
    <tag k="source" v="http://ump.waw.pl/ retrieved 15:05:23 06/30/09 (UMP-Poznan/src/POZNAN.ulice.txt)"/>
  </node>
  <node id="454062512" version="1" timestamp="2009-08-02T04:11:28Z" uid="20587" user="balrog-kun" changeset="2009571" lat="52.3880562" lon="16.9207097">
    <tag k="addr:city" v="Poznań"/>
    <tag k="addr:housenumber" v="21"/>
    <tag k="addr:street" v="Chłapowskiego"/>
    <tag k="source" v="http://ump.waw.pl/ retrieved 15:05:23 06/30/09 (UMP-Poznan/src/POZNAN.ulice.txt)"/>
  </node>
  <node id="454062513" version="1" timestamp="2009-08-02T04:11:29Z" uid="20587" user="balrog-kun" changeset="2009571" lat="52.3983339" lon="16.9254585">
    <tag k="addr:city" v="Poznań"/>
    <tag k="addr:housenumber" v="68"/>
    <tag k="addr:street" v="Górna Wilda"/>
    <tag k="source" v="http://ump.waw.pl/ retrieved 15:05:23 06/30/09 (UMP-Poznan/src/POZNAN.ulice.txt)"/>
  </node>
  <node id="454062514" version="1" timestamp="2009-08-02T04:11:29Z" uid="20587" user="balrog-kun" changeset="2009571" lat="52.3914441" lon="16.9201031">
    <tag k="addr:city" v="Poznań"/>
    <tag k="addr:housenumber" v="124"/>
    <tag k="addr:street" v="28 Czerwca 1956 r."/>
    <tag k="source" v="http://ump.waw.pl/ retrieved 15:05:23 06/30/09 (UMP-Poznan/src/POZNAN.ulice.txt)"/>
  </node>
  <node id="454062515" version="1" timestamp="2009-08-02T04:11:29Z" uid="20587" user="balrog-kun" changeset="2009571" lat="52.3876995" lon="16.9122539">
    <tag k="addr:city" v="Poznań"/>
    <tag k="addr:housenumber" v="17"/>
    <tag k="addr:street" v="Fabryczna"/>
    <tag k="source" v="http://ump.waw.pl/ retrieved 15:05:23 06/30/09 (UMP-Poznan/src/POZNAN.ulice.txt)"/>
  </node>
  <node id="454062518" version="1" timestamp="2009-08-02T04:11:29Z" uid="20587" user="balrog-kun" changeset="2009571" lat="52.3882305" lon="16.9118731">
    <tag k="addr:city" v="Poznań"/>
    <tag k="addr:housenumber" v="12"/>
    <tag k="addr:street" v="Umińskiego"/>
    <tag k="source" v="http://ump.waw.pl/ retrieved 15:05:23 06/30/09 (UMP-Poznan/src/POZNAN.ulice.txt)"/>
  </node>
  <node id="454062519" version="1" timestamp="2009-08-02T04:11:29Z" uid="20587" user="balrog-kun" changeset="2009571" lat="52.389304" lon="16.9179437">
    <tag k="addr:city" v="Poznań"/>
    <tag k="addr:housenumber" v="146"/>
    <tag k="addr:street" v="28 Czerwca 1956 r."/>
    <tag k="source" v="http://ump.waw.pl/ retrieved 15:05:23 06/30/09 (UMP-Poznan/src/POZNAN.ulice.txt)"/>
  </node>
  <node id="454062520" version="1" timestamp="2009-08-02T04:11:29Z" uid="20587" user="balrog-kun" changeset="2009571" lat="52.3964554" lon="16.9230277">
    <tag k="addr:city" v="Poznań"/>
    <tag k="addr:housenumber" v="8"/>
    <tag k="addr:street" v="Żupańskiego"/>
    <tag k="source" v="http://ump.waw.pl/ retrieved 15:05:23 06/30/09 (UMP-Poznan/src/POZNAN.ulice.txt)"/>
  </node>
  <node id="454062521" version="1" timestamp="2009-08-02T04:11:29Z" uid="20587" user="balrog-kun" changeset="2009571" lat="52.3914165" lon="16.9229663">
    <tag k="addr:city" v="Poznań"/>
    <tag k="addr:housenumber" v="9"/>
    <tag k="addr:street" v="Powstańcza"/>
    <tag k="source" v="http://ump.waw.pl/ retrieved 15:05:23 06/30/09 (UMP-Poznan/src/POZNAN.ulice.txt)"/>
  </node>
  <node id="454062524" version="1" timestamp="2009-08-02T04:11:29Z" uid="20587" user="balrog-kun" changeset="2009571" lat="52.3866694" lon="16.9187444">
    <tag k="addr:city" v="Poznań"/>
    <tag k="addr:housenumber" v="3"/>
    <tag k="addr:street" v="Filarecka"/>
    <tag k="source" v="http://ump.waw.pl/ retrieved 15:05:23 06/30/09 (UMP-Poznan/src/POZNAN.ulice.txt)"/>
  </node>
  <node id="454062525" version="1" timestamp="2009-08-02T04:11:29Z" uid="20587" user="balrog-kun" changeset="2009571" lat="52.3906949" lon="16.9227257">
    <tag k="addr:city" v="Poznań"/>
    <tag k="addr:housenumber" v="15"/>
    <tag k="addr:street" v="Powstańcza"/>
    <tag k="source" v="http://ump.waw.pl/ retrieved 15:05:23 06/30/09 (UMP-Poznan/src/POZNAN.ulice.txt)"/>
  </node>
  <node id="454062526" version="1" timestamp="2009-08-02T04:11:30Z" uid="20587" user="balrog-kun" changeset="2009571" lat="52.3994818" lon="16.9259067">
    <tag k="addr:city" v="Poznań"/>
    <tag k="addr:housenumber" v="3"/>
    <tag k="addr:street" v="Niedziałkowskiego"/>
    <tag k="source" v="http://ump.waw.pl/ retrieved 15:05:23 06/30/09 (UMP-Poznan/src/POZNAN.ulice.txt)"/>
  </node>
  <node id="454062529" version="1" timestamp="2009-08-02T04:11:30Z" uid="20587" user="balrog-kun" changeset="2009571" lat="52.3950548" lon="16.9215462">
    <tag k="addr:city" v="Poznań"/>
    <tag k="addr:housenumber" v="34"/>
    <tag k="addr:street" v="Wierzbięcice"/>
    <tag k="source" v="http://ump.waw.pl/ retrieved 15:05:23 06/30/09 (UMP-Poznan/src/POZNAN.ulice.txt)"/>
  </node>
  <node id="454062530" version="1" timestamp="2009-08-02T04:11:30Z" uid="20587" user="balrog-kun" changeset="2009571" lat="52.388569" lon="16.9154617">
    <tag k="addr:city" v="Poznań"/>
    <tag k="addr:housenumber" v="6"/>
    <tag k="addr:street" v="Fabryczna"/>
    <tag k="source" v="http://ump.waw.pl/ retrieved 15:05:23 06/30/09 (UMP-Poznan/src/POZNAN.ulice.txt)"/>
  </node>
  <node id="454062531" version="1" timestamp="2009-08-02T04:11:30Z" uid="20587" user="balrog-kun" changeset="2009571" lat="52.3881398" lon="16.9165707">
    <tag k="addr:city" v="Poznań"/>
    <tag k="addr:housenumber" v="42"/>
    <tag k="addr:street" v="Fabryczna"/>
    <tag k="source" v="http://ump.waw.pl/ retrieved 15:05:23 06/30/09 (UMP-Poznan/src/POZNAN.ulice.txt)"/>
  </node>
  <node id="454062532" version="1" timestamp="2009-08-02T04:11:30Z" uid="20587" user="balrog-kun" changeset="2009571" lat="52.4585025" lon="16.8496262">
    <tag k="addr:city" v="Poznań"/>
    <tag k="addr:housenumber" v="22"/>
    <tag k="addr:street" v="Mławska"/>
    <tag k="source" v="http://ump.waw.pl/ retrieved 15:05:23 06/30/09 (UMP-Poznan/src/POZNAN.ulice.txt)"/>
  </node>
  <node id="454062535" version="1" timestamp="2009-08-02T04:11:30Z" uid="20587" user="balrog-kun" changeset="2009571" lat="52.4585998" lon="16.847018">
    <tag k="addr:city" v="Poznań"/>
    <tag k="addr:housenumber" v="1"/>
    <tag k="addr:street" v="Żuromińska"/>
    <tag k="source" v="http://ump.waw.pl/ retrieved 15:05:23 06/30/09 (UMP-Poznan/src/POZNAN.ulice.txt)"/>
  </node>
  <node id="454062536" version="1" timestamp="2009-08-02T04:11:30Z" uid="20587" user="balrog-kun" changeset="2009571" lat="52.459617" lon="16.8478928">
    <tag k="addr:city" v="Poznań"/>
    <tag k="addr:housenumber" v="12"/>
    <tag k="addr:street" v="Ostrołęcka"/>
    <tag k="source" v="http://ump.waw.pl/ retrieved 15:05:23 06/30/09 (UMP-Poznan/src/POZNAN.ulice.txt)"/>
  </node>
  <node id="454062537" version="1" timestamp="2009-08-02T04:11:30Z" uid="20587" user="balrog-kun" changeset="2009571" lat="52.4593282" lon="16.8483224">
    <tag k="addr:city" v="Poznań"/>
    <tag k="addr:housenumber" v="19"/>
    <tag k="addr:street" v="Żuromińska"/>
    <tag k="source" v="http://ump.waw.pl/ retrieved 15:05:23 06/30/09 (UMP-Poznan/src/POZNAN.ulice.txt)"/>
  </node>
  <node id="454062538" version="1" timestamp="2009-08-02T04:11:31Z" uid="20587" user="balrog-kun" changeset="2009571" lat="52.4577914" lon="16.8483459">
    <tag k="addr:city" v="Poznań"/>
    <tag k="addr:housenumber" v="2"/>
    <tag k="addr:street" v="Mławska"/>
    <tag k="source" v="http://ump.waw.pl/ retrieved 15:05:23 06/30/09 (UMP-Poznan/src/POZNAN.ulice.txt)"/>
  </node>
  <node id="454062539" version="1" timestamp="2009-08-02T04:11:31Z" uid="20587" user="balrog-kun" changeset="2009571" lat="52.4580721" lon="16.8478677">
    <tag k="addr:city" v="Poznań"/>
    <tag k="addr:housenumber" v="1"/>
    <tag k="addr:street" v="Mławska"/>
    <tag k="source" v="http://ump.waw.pl/ retrieved 15:05:23 06/30/09 (UMP-Poznan/src/POZNAN.ulice.txt)"/>
  </node>
  <node id="454062541" version="1" timestamp="2009-08-02T04:11:31Z" uid="20587" user="balrog-kun" changeset="2009571" lat="52.4588816" lon="16.846584">
    <tag k="addr:city" v="Poznań"/>
    <tag k="addr:housenumber" v="2"/>
    <tag k="addr:street" v="Ostrołęcka"/>
    <tag k="source" v="http://ump.waw.pl/ retrieved 15:05:23 06/30/09 (UMP-Poznan/src/POZNAN.ulice.txt)"/>
  </node>
  <node id="454062543" version="1" timestamp="2009-08-02T04:11:31Z" uid="20587" user="balrog-kun" changeset="2009571" lat="52.4587832" lon="16.849148">
    <tag k="addr:city" v="Poznań"/>
    <tag k="addr:housenumber" v="21"/>
    <tag k="addr:street" v="Mławska"/>
    <tag k="source" v="http://ump.waw.pl/ retrieved 15:05:23 06/30/09 (UMP-Poznan/src/POZNAN.ulice.txt)"/>
  </node>
  <node id="454062544" version="1" timestamp="2009-08-02T04:11:31Z" uid="20587" user="balrog-kun" changeset="2009571" lat="52.4591532" lon="16.8461974">
    <tag k="addr:city" v="Poznań"/>
    <tag k="addr:housenumber" v="1"/>
    <tag k="addr:street" v="Ostrołęcka"/>
    <tag k="source" v="http://ump.waw.pl/ retrieved 15:05:23 06/30/09 (UMP-Poznan/src/POZNAN.ulice.txt)"/>
  </node>
  <node id="454062545" version="1" timestamp="2009-08-02T04:11:31Z" uid="20587" user="balrog-kun" changeset="2009571" lat="52.4598886" lon="16.8475061">
    <tag k="addr:city" v="Poznań"/>
    <tag k="addr:housenumber" v="11"/>
    <tag k="addr:street" v="Ostrołęcka"/>
    <tag k="source" v="http://ump.waw.pl/ retrieved 15:05:23 06/30/09 (UMP-Poznan/src/POZNAN.ulice.txt)"/>
  </node>
  <node id="454062547" version="1" timestamp="2009-08-02T04:11:31Z" uid="20587" user="balrog-kun" changeset="2009571" lat="52.4590813" lon="16.8487601">
    <tag k="addr:city" v="Poznań"/>
    <tag k="addr:housenumber" v="20"/>
    <tag k="addr:street" v="Żuromińska"/>
    <tag k="source" v="http://ump.waw.pl/ retrieved 15:05:23 06/30/09 (UMP-Poznan/src/POZNAN.ulice.txt)"/>
  </node>
  <node id="454062548" version="1" timestamp="2009-08-02T04:11:31Z" uid="20587" user="balrog-kun" changeset="2009571" lat="52.4583529" lon="16.8474557">
    <tag k="addr:city" v="Poznań"/>
    <tag k="addr:housenumber" v="2"/>
    <tag k="addr:street" v="Żuromińska"/>
    <tag k="source" v="http://ump.waw.pl/ retrieved 15:05:23 06/30/09 (UMP-Poznan/src/POZNAN.ulice.txt)"/>
  </node>
  <node id="454062549" version="1" timestamp="2009-08-02T04:11:31Z" uid="20587" user="balrog-kun" changeset="2009571" lat="52.4519276" lon="16.8724608">
    <tag k="addr:city" v="Poznań"/>
    <tag k="addr:housenumber" v="14"/>
    <tag k="addr:street" v="Stanisława Grochowiaka"/>
    <tag k="source" v="http://ump.waw.pl/ retrieved 15:05:23 06/30/09 (UMP-Poznan/src/POZNAN.ulice.txt)"/>
  </node>
  <node id="454062550" version="1" timestamp="2009-08-02T04:11:31Z" uid="20587" user="balrog-kun" changeset="2009571" lat="52.4504209" lon="16.8630427">
    <tag k="addr:city" v="Poznań"/>
    <tag k="addr:housenumber" v="3"/>
    <tag k="addr:street" v="Aleksandra Puszkina"/>
    <tag k="source" v="http://ump.waw.pl/ retrieved 15:05:23 06/30/09 (UMP-Poznan/src/POZNAN.ulice.txt)"/>
  </node>
  <node id="454062552" version="1" timestamp="2009-08-02T04:11:32Z" uid="20587" user="balrog-kun" changeset="2009571" lat="52.4532785" lon="16.8716778">
    <tag k="addr:city" v="Poznań"/>
    <tag k="addr:housenumber" v="1"/>
    <tag k="addr:street" v="Stanisława Grochowiaka"/>
    <tag k="source" v="http://ump.waw.pl/ retrieved 15:05:23 06/30/09 (UMP-Poznan/src/POZNAN.ulice.txt)"/>
  </node>
  <node id="454062553" version="1" timestamp="2009-08-02T04:11:32Z" uid="20587" user="balrog-kun" changeset="2009571" lat="52.4532313" lon="16.8675703">
    <tag k="addr:city" v="Poznań"/>
    <tag k="addr:housenumber" v="12"/>
    <tag k="addr:street" v="Stefana Kisielewskiego"/>
    <tag k="source" v="http://ump.waw.pl/ retrieved 15:05:23 06/30/09 (UMP-Poznan/src/POZNAN.ulice.txt)"/>
  </node>
  <node id="454062554" version="1" timestamp="2009-08-02T04:11:32Z" uid="20587" user="balrog-kun" changeset="2009571" lat="52.449751" lon="16.8644458">
    <tag k="addr:city" v="Poznań"/>
    <tag k="addr:housenumber" v="11"/>
    <tag k="addr:street" v="Michaiła Lermontowa"/>
    <tag k="source" v="http://ump.waw.pl/ retrieved 15:05:23 06/30/09 (UMP-Poznan/src/POZNAN.ulice.txt)"/>
  </node>
  <node id="454062556" version="1" timestamp="2009-08-02T04:11:32Z" uid="20587" user="balrog-kun" changeset="2009571" lat="52.4532586" lon="16.8702629">
    <tag k="addr:city" v="Poznań"/>
    <tag k="addr:housenumber" v="2"/>
    <tag k="addr:street" v="Stanisława Lema"/>
    <tag k="source" v="http://ump.waw.pl/ retrieved 15:05:23 06/30/09 (UMP-Poznan/src/POZNAN.ulice.txt)"/>
  </node>
  <node id="454062557" version="1" timestamp="2009-08-02T04:11:32Z" uid="20587" user="balrog-kun" changeset="2009571" lat="52.4493354" lon="16.866288">
    <tag k="addr:city" v="Poznań"/>
    <tag k="addr:housenumber" v="2"/>
    <tag k="addr:street" v="Michaiła Lermontowa"/>
    <tag k="source" v="http://ump.waw.pl/ retrieved 15:05:23 06/30/09 (UMP-Poznan/src/POZNAN.ulice.txt)"/>
  </node>
  <node id="454062558" version="1" timestamp="2009-08-02T04:11:32Z" uid="20587" user="balrog-kun" changeset="2009571" lat="52.4509893" lon="16.8637554">
    <tag k="addr:city" v="Poznań"/>
    <tag k="addr:housenumber" v="9"/>
    <tag k="addr:street" v="Aleksandra Puszkina"/>
    <tag k="source" v="http://ump.waw.pl/ retrieved 15:05:23 06/30/09 (UMP-Poznan/src/POZNAN.ulice.txt)"/>
  </node>
  <node id="454062559" version="1" timestamp="2009-08-02T04:11:32Z" uid="20587" user="balrog-kun" changeset="2009571" lat="52.4501954" lon="16.8627474">
    <tag k="addr:city" v="Poznań"/>
    <tag k="addr:housenumber" v="1"/>
    <tag k="addr:street" v="Aleksandra Puszkina"/>
    <tag k="source" v="http://ump.waw.pl/ retrieved 15:05:23 06/30/09 (UMP-Poznan/src/POZNAN.ulice.txt)"/>
  </node>
  <node id="454062561" version="1" timestamp="2009-08-02T04:11:32Z" uid="20587" user="balrog-kun" changeset="2009571" lat="52.4520686" lon="16.8592749">
    <tag k="addr:city" v="Poznań"/>
    <tag k="addr:housenumber" v="3"/>
    <tag k="addr:street" v="Gołubiewa"/>
    <tag k="source" v="http://ump.waw.pl/ retrieved 15:05:23 06/30/09 (UMP-Poznan/src/POZNAN.ulice.txt)"/>
  </node>
  <node id="454062562" version="1" timestamp="2009-08-02T04:11:32Z" uid="20587" user="balrog-kun" changeset="2009571" lat="52.4524778" lon="16.8684548">
    <tag k="addr:city" v="Poznań"/>
    <tag k="addr:housenumber" v="2"/>
    <tag k="addr:street" v="Stefana Kisielewskiego"/>
    <tag k="source" v="http://ump.waw.pl/ retrieved 15:05:23 06/30/09 (UMP-Poznan/src/POZNAN.ulice.txt)"/>
  </node>
  <node id="454062563" version="1" timestamp="2009-08-02T04:11:33Z" uid="20587" user="balrog-kun" changeset="2009571" lat="52.4521583" lon="16.87296">
    <tag k="addr:city" v="Poznań"/>
    <tag k="addr:housenumber" v="13"/>
    <tag k="addr:street" v="Stanisława Grochowiaka"/>
    <tag k="source" v="http://ump.waw.pl/ retrieved 15:05:23 06/30/09 (UMP-Poznan/src/POZNAN.ulice.txt)"/>
  </node>
  <node id="454062564" version="1" timestamp="2009-08-02T04:11:33Z" uid="20587" user="balrog-kun" changeset="2009571" lat="52.4517137" lon="16.8617419">
    <tag k="addr:city" v="Poznań"/>
    <tag k="addr:housenumber" v="1"/>
    <tag k="addr:street" v="Karola Bunscha"/>
    <tag k="source" v="http://ump.waw.pl/ retrieved 15:05:23 06/30/09 (UMP-Poznan/src/POZNAN.ulice.txt)"/>
  </node>
  <node id="454062565" version="1" timestamp="2009-08-02T04:11:33Z" uid="20587" user="balrog-kun" changeset="2009571" lat="52.4498141" lon="16.8653798">
    <tag k="addr:city" v="Poznań"/>
    <tag k="addr:housenumber" v="10"/>
    <tag k="addr:street" v="Michaiła Lermontowa"/>
    <tag k="source" v="http://ump.waw.pl/ retrieved 15:05:23 06/30/09 (UMP-Poznan/src/POZNAN.ulice.txt)"/>
  </node>
  <node id="454062567" version="1" timestamp="2009-08-02T04:11:33Z" uid="20587" user="balrog-kun" changeset="2009571" lat="52.4515907" lon="16.8601775">
    <tag k="addr:city" v="Poznań"/>
    <tag k="addr:housenumber" v="1"/>
    <tag k="addr:street" v="Teodora Parnickiego"/>
    <tag k="source" v="http://ump.waw.pl/ retrieved 15:05:23 06/30/09 (UMP-Poznan/src/POZNAN.ulice.txt)"/>
  </node>
  <node id="454062568" version="1" timestamp="2009-08-02T04:11:33Z" uid="20587" user="balrog-kun" changeset="2009571" lat="52.4532856" lon="16.8617194">
    <tag k="addr:city" v="Poznań"/>
    <tag k="addr:housenumber" v="6"/>
    <tag k="addr:street" v="Gołubiewa"/>
    <tag k="source" v="http://ump.waw.pl/ retrieved 15:05:23 06/30/09 (UMP-Poznan/src/POZNAN.ulice.txt)"/>
  </node>
  <node id="454062569" version="1" timestamp="2009-08-02T04:11:33Z" uid="20587" user="balrog-kun" changeset="2009571" lat="52.4537875" lon="16.8689057">
    <tag k="addr:city" v="Poznań"/>
    <tag k="addr:housenumber" v="11"/>
    <tag k="addr:street" v="Stanisława Lema"/>
    <tag k="source" v="http://ump.waw.pl/ retrieved 15:05:23 06/30/09 (UMP-Poznan/src/POZNAN.ulice.txt)"/>
  </node>
  <node id="454062570" version="1" timestamp="2009-08-02T04:11:33Z" uid="20587" user="balrog-kun" changeset="2009571" lat="52.4526346" lon="16.8688582">
    <tag k="addr:city" v="Poznań"/>
    <tag k="addr:housenumber" v="1"/>
    <tag k="addr:street" v="Gustava Herlinga-Grudzińskiego"/>
    <tag k="source" v="http://ump.waw.pl/ retrieved 15:05:23 06/30/09 (UMP-Poznan/src/POZNAN.ulice.txt)"/>
  </node>
  <node id="454062571" version="1" timestamp="2009-08-02T04:11:33Z" uid="20587" user="balrog-kun" changeset="2009571" lat="52.4522447" lon="16.8679583">
    <tag k="addr:city" v="Poznań"/>
    <tag k="addr:housenumber" v="1"/>
    <tag k="addr:street" v="Stefana Kisielewskiego"/>
    <tag k="source" v="http://ump.waw.pl/ retrieved 15:05:23 06/30/09 (UMP-Poznan/src/POZNAN.ulice.txt)"/>
  </node>
  <node id="454062573" version="1" timestamp="2009-08-02T04:11:34Z" uid="20587" user="balrog-kun" changeset="2009571" lat="52.4516893" lon="16.8719414">
    <tag k="addr:city" v="Poznań"/>
    <tag k="addr:housenumber" v="13"/>
    <tag k="addr:street" v="Zbigniewa Herberta"/>
    <tag k="source" v="http://ump.waw.pl/ retrieved 15:05:23 06/30/09 (UMP-Poznan/src/POZNAN.ulice.txt)"/>
  </node>
  <node id="454062574" version="1" timestamp="2009-08-02T04:11:34Z" uid="20587" user="balrog-kun" changeset="2009571" lat="52.4533783" lon="16.8679841">
    <tag k="addr:city" v="Poznań"/>
    <tag k="addr:housenumber" v="11"/>
    <tag k="addr:street" v="Gustava Herlinga-Grudzińskiego"/>
    <tag k="source" v="http://ump.waw.pl/ retrieved 15:05:23 06/30/09 (UMP-Poznan/src/POZNAN.ulice.txt)"/>
  </node>
  <node id="454062575" version="1" timestamp="2009-08-02T04:11:34Z" uid="20587" user="balrog-kun" changeset="2009571" lat="52.4506333" lon="16.8683369">
    <tag k="addr:city" v="Poznań"/>
    <tag k="addr:housenumber" v="3"/>
    <tag k="addr:street" v="Iwana Turgieniewa"/>
    <tag k="source" v="http://ump.waw.pl/ retrieved 15:05:23 06/30/09 (UMP-Poznan/src/POZNAN.ulice.txt)"/>
  </node>
  <node id="454062577" version="1" timestamp="2009-08-02T04:11:34Z" uid="20587" user="balrog-kun" changeset="2009571" lat="52.4522912" lon="16.8641166">
    <tag k="addr:city" v="Poznań"/>
    <tag k="addr:housenumber" v="1"/>
    <tag k="addr:street" v="Proroka"/>
    <tag k="source" v="http://ump.waw.pl/ retrieved 15:05:23 06/30/09 (UMP-Poznan/src/POZNAN.ulice.txt)"/>
  </node>
  <node id="454062578" version="1" timestamp="2009-08-02T04:11:34Z" uid="20587" user="balrog-kun" changeset="2009571" lat="52.4517198" lon="16.86103">
    <tag k="addr:city" v="Poznań"/>
    <tag k="addr:housenumber" v="6"/>
    <tag k="addr:street" v="Teodora Parnickiego"/>
    <tag k="source" v="http://ump.waw.pl/ retrieved 15:05:23 06/30/09 (UMP-Poznan/src/POZNAN.ulice.txt)"/>
  </node>
  <node id="454062579" version="1" timestamp="2009-08-02T04:11:34Z" uid="20587" user="balrog-kun" changeset="2009571" lat="52.4525661" lon="16.8644259">
    <tag k="addr:city" v="Poznań"/>
    <tag k="addr:housenumber" v="2"/>
    <tag k="addr:street" v="Proroka"/>
    <tag k="source" v="http://ump.waw.pl/ retrieved 15:05:23 06/30/09 (UMP-Poznan/src/POZNAN.ulice.txt)"/>
  </node>
  <node id="454062580" version="1" timestamp="2009-08-02T04:11:34Z" uid="20587" user="balrog-kun" changeset="2009571" lat="52.4491499" lon="16.8657846">
    <tag k="addr:city" v="Poznań"/>
    <tag k="addr:housenumber" v="1"/>
    <tag k="addr:street" v="Michaiła Lermontowa"/>
    <tag k="source" v="http://ump.waw.pl/ retrieved 15:05:23 06/30/09 (UMP-Poznan/src/POZNAN.ulice.txt)"/>
  </node>
  <node id="454062581" version="1" timestamp="2009-08-02T04:11:34Z" uid="20587" user="balrog-kun" changeset="2009571" lat="52.450058" lon="16.8648173">
    <tag k="addr:city" v="Poznań"/>
    <tag k="addr:housenumber" v="12"/>
    <tag k="addr:street" v="Michaiła Lermontowa"/>
    <tag k="source" v="http://ump.waw.pl/ retrieved 15:05:23 06/30/09 (UMP-Poznan/src/POZNAN.ulice.txt)"/>
  </node>
  <node id="454062582" version="1" timestamp="2009-08-02T04:11:34Z" uid="20587" user="balrog-kun" changeset="2009571" lat="52.4517163" lon="16.8647227">
    <tag k="addr:city" v="Poznań"/>
    <tag k="addr:housenumber" v="15"/>
    <tag k="addr:street" v="Aleksandra Puszkina"/>
    <tag k="source" v="http://ump.waw.pl/ retrieved 15:05:23 06/30/09 (UMP-Poznan/src/POZNAN.ulice.txt)"/>
  </node>
  <node id="454062583" version="1" timestamp="2009-08-02T04:11:34Z" uid="20587" user="balrog-kun" changeset="2009571" lat="52.4493724" lon="16.8653416">
    <tag k="addr:city" v="Poznań"/>
    <tag k="addr:housenumber" v="3"/>
    <tag k="addr:street" v="Michaiła Lermontowa"/>
    <tag k="source" v="http://ump.waw.pl/ retrieved 15:05:23 06/30/09 (UMP-Poznan/src/POZNAN.ulice.txt)"/>
  </node>
  <node id="454062585" version="1" timestamp="2009-08-02T04:11:35Z" uid="20587" user="balrog-kun" changeset="2009571" lat="52.4496245" lon="16.864417">
    <tag k="addr:city" v="Poznań"/>
    <tag k="addr:housenumber" v="5"/>
    <tag k="addr:street" v="Antoniego Czechowa"/>
    <tag k="source" v="http://ump.waw.pl/ retrieved 15:05:23 06/30/09 (UMP-Poznan/src/POZNAN.ulice.txt)"/>
  </node>
  <node id="454062586" version="1" timestamp="2009-08-02T04:11:35Z" uid="20587" user="balrog-kun" changeset="2009571" lat="52.449773" lon="16.8660263">
    <tag k="addr:city" v="Poznań"/>
    <tag k="addr:housenumber" v="1"/>
    <tag k="addr:street" v="Nikołaja Gogola"/>
    <tag k="source" v="http://ump.waw.pl/ retrieved 15:05:23 06/30/09 (UMP-Poznan/src/POZNAN.ulice.txt)"/>
  </node>
  <node id="454062587" version="1" timestamp="2009-08-02T04:11:35Z" uid="20587" user="balrog-kun" changeset="2009571" lat="52.4503026" lon="16.8631796">
    <tag k="addr:city" v="Poznań"/>
    <tag k="addr:housenumber" v="19"/>
    <tag k="addr:street" v="Michaiła Lermontowa"/>
    <tag k="source" v="http://ump.waw.pl/ retrieved 15:05:23 06/30/09 (UMP-Poznan/src/POZNAN.ulice.txt)"/>
  </node>
  <node id="454062589" version="1" timestamp="2009-08-02T04:11:35Z" uid="20587" user="balrog-kun" changeset="2009571" lat="52.4513177" lon="16.8650825">
    <tag k="addr:city" v="Poznań"/>
    <tag k="addr:housenumber" v="11"/>
    <tag k="addr:street" v="Iwana Bunina"/>
    <tag k="source" v="http://ump.waw.pl/ retrieved 15:05:23 06/30/09 (UMP-Poznan/src/POZNAN.ulice.txt)"/>
  </node>
  <node id="454062590" version="1" timestamp="2009-08-02T04:11:35Z" uid="20587" user="balrog-kun" changeset="2009571" lat="52.4508703" lon="16.8678434">
    <tag k="addr:city" v="Poznań"/>
    <tag k="addr:housenumber" v="4"/>
    <tag k="addr:street" v="Iwana Turgieniewa"/>
    <tag k="source" v="http://ump.waw.pl/ retrieved 15:05:23 06/30/09 (UMP-Poznan/src/POZNAN.ulice.txt)"/>
  </node>
  <node id="454062591" version="1" timestamp="2009-08-02T04:11:35Z" uid="20587" user="balrog-kun" changeset="2009571" lat="52.4504227" lon="16.8638662">
    <tag k="addr:city" v="Poznań"/>
    <tag k="addr:housenumber" v="16"/>
    <tag k="addr:street" v="Michaiła Lermontowa"/>
    <tag k="source" v="http://ump.waw.pl/ retrieved 15:05:23 06/30/09 (UMP-Poznan/src/POZNAN.ulice.txt)"/>
  </node>
  <node id="454062592" version="1" timestamp="2009-08-02T04:11:35Z" uid="20587" user="balrog-kun" changeset="2009571" lat="52.4529982" lon="16.8670738">
    <tag k="addr:city" v="Poznań"/>
    <tag k="addr:housenumber" v="9"/>
    <tag k="addr:street" v="Stefana Kisielewskiego"/>
    <tag k="source" v="http://ump.waw.pl/ retrieved 15:05:23 06/30/09 (UMP-Poznan/src/POZNAN.ulice.txt)"/>
  </node>
  <node id="454062594" version="1" timestamp="2009-08-02T04:11:35Z" uid="20587" user="balrog-kun" changeset="2009571" lat="52.4515156" lon="16.871519">
    <tag k="addr:city" v="Poznań"/>
    <tag k="addr:housenumber" v="14"/>
    <tag k="addr:street" v="Zbigniewa Herberta"/>
    <tag k="source" v="http://ump.waw.pl/ retrieved 15:05:23 06/30/09 (UMP-Poznan/src/POZNAN.ulice.txt)"/>
  </node>
  <node id="454062595" version="1" timestamp="2009-08-02T04:11:35Z" uid="20587" user="balrog-kun" changeset="2009571" lat="52.4503155" lon="16.8677971">
    <tag k="addr:city" v="Poznań"/>
    <tag k="addr:housenumber" v="13"/>
    <tag k="addr:street" v="Iwana Turgieniewa"/>
    <tag k="source" v="http://ump.waw.pl/ retrieved 15:05:23 06/30/09 (UMP-Poznan/src/POZNAN.ulice.txt)"/>
  </node>
  <node id="454062596" version="1" timestamp="2009-08-02T04:11:35Z" uid="20587" user="balrog-kun" changeset="2009571" lat="52.4524658" lon="16.8698154">
    <tag k="addr:city" v="Poznań"/>
    <tag k="addr:housenumber" v="1"/>
    <tag k="addr:street" v="Jarosława Iwaszkiewicza"/>
    <tag k="source" v="http://ump.waw.pl/ retrieved 15:05:23 06/30/09 (UMP-Poznan/src/POZNAN.ulice.txt)"/>
  </node>
  <node id="454062597" version="1" timestamp="2009-08-02T04:11:36Z" uid="20587" user="balrog-kun" changeset="2009571" lat="52.4524419" lon="16.8587566">
    <tag k="addr:city" v="Poznań"/>
    <tag k="addr:housenumber" v="4"/>
    <tag k="addr:street" v="Karola Irzykowskiego"/>
  </node>
  <node id="454062598" version="1" timestamp="2009-08-02T04:11:36Z" uid="20587" user="balrog-kun" changeset="2009571" lat="52.4530477" lon="16.8711786">
    <tag k="addr:city" v="Poznań"/>
    <tag k="addr:housenumber" v="2"/>
    <tag k="addr:street" v="Stanisława Grochowiaka"/>
    <tag k="source" v="http://ump.waw.pl/ retrieved 15:05:23 06/30/09 (UMP-Poznan/src/POZNAN.ulice.txt)"/>
  </node>
  <node id="454062600" version="1" timestamp="2009-08-02T04:11:36Z" uid="20587" user="balrog-kun" changeset="2009571" lat="52.4513741" lon="16.8605316">
    <tag k="addr:city" v="Poznań"/>
    <tag k="addr:housenumber" v="2"/>
    <tag k="addr:street" v="Teodora Parnickiego"/>
    <tag k="source" v="http://ump.waw.pl/ retrieved 15:05:23 06/30/09 (UMP-Poznan/src/POZNAN.ulice.txt)"/>
  </node>
  <node id="454062604" version="1" timestamp="2009-08-02T04:11:36Z" uid="20587" user="balrog-kun" changeset="2009571" lat="52.4509592" lon="16.8687745">
    <tag k="addr:city" v="Poznań"/>
    <tag k="addr:housenumber" v="1"/>
    <tag k="addr:street" v="Iwana Turgieniewa"/>
    <tag k="source" v="http://ump.waw.pl/ retrieved 15:05:23 06/30/09 (UMP-Poznan/src/POZNAN.ulice.txt)"/>
  </node>
  <node id="454062606" version="1" timestamp="2009-08-02T04:11:36Z" uid="20587" user="balrog-kun" changeset="2009571" lat="52.4514473" lon="16.8622449">
    <tag k="addr:city" v="Poznań"/>
    <tag k="addr:housenumber" v="2"/>
    <tag k="addr:street" v="Karola Bunscha"/>
    <tag k="source" v="http://ump.waw.pl/ retrieved 15:05:23 06/30/09 (UMP-Poznan/src/POZNAN.ulice.txt)"/>
  </node>
  <node id="454062607" version="1" timestamp="2009-08-02T04:11:36Z" uid="20587" user="balrog-kun" changeset="2009571" lat="52.454017" lon="16.8694064">
    <tag k="addr:city" v="Poznań"/>
    <tag k="addr:housenumber" v="12"/>
    <tag k="addr:street" v="Stanisława Lema"/>
    <tag k="source" v="http://ump.waw.pl/ retrieved 15:05:23 06/30/09 (UMP-Poznan/src/POZNAN.ulice.txt)"/>
  </node>
  <node id="454062608" version="1" timestamp="2009-08-02T04:11:36Z" uid="20587" user="balrog-kun" changeset="2009571" lat="52.4503609" lon="16.8688788">
    <tag k="addr:city" v="Poznań"/>
    <tag k="addr:housenumber" v="27"/>
    <tag k="addr:street" v="Lwa Tołstoja"/>
    <tag k="source" v="http://ump.waw.pl/ retrieved 15:05:23 06/30/09 (UMP-Poznan/src/POZNAN.ulice.txt)"/>
  </node>
  <node id="454062614" version="1" timestamp="2009-08-02T04:11:36Z" uid="20587" user="balrog-kun" changeset="2009571" lat="52.4496794" lon="16.86573">
    <tag k="addr:city" v="Poznań"/>
    <tag k="addr:housenumber" v="4"/>
    <tag k="addr:street" v="Michaiła Lermontowa"/>
    <tag k="source" v="http://ump.waw.pl/ retrieved 15:05:23 06/30/09 (UMP-Poznan/src/POZNAN.ulice.txt)"/>
  </node>
  <node id="454062615" version="1" timestamp="2009-08-02T04:11:37Z" uid="20587" user="balrog-kun" changeset="2009571" lat="52.4495662" lon="16.8665916">
    <tag k="addr:city" v="Poznań"/>
    <tag k="addr:housenumber" v="4"/>
    <tag k="addr:street" v="Nikołaja Gogola"/>
    <tag k="source" v="http://ump.waw.pl/ retrieved 15:05:23 06/30/09 (UMP-Poznan/src/POZNAN.ulice.txt)"/>
  </node>
  <node id="454062616" version="1" timestamp="2009-08-02T04:11:37Z" uid="20587" user="balrog-kun" changeset="2009571" lat="52.4507789" lon="16.8634754">
    <tag k="addr:city" v="Poznań"/>
    <tag k="addr:housenumber" v="7"/>
    <tag k="addr:street" v="Aleksandra Puszkina"/>
    <tag k="source" v="http://ump.waw.pl/ retrieved 15:05:23 06/30/09 (UMP-Poznan/src/POZNAN.ulice.txt)"/>
  </node>
  <node id="454062618" version="1" timestamp="2009-08-02T04:11:37Z" uid="20587" user="balrog-kun" changeset="2009571" lat="52.4502122" lon="16.8643851">
    <tag k="addr:city" v="Poznań"/>
    <tag k="addr:housenumber" v="14"/>
    <tag k="addr:street" v="Michaiła Lermontowa"/>
    <tag k="source" v="http://ump.waw.pl/ retrieved 15:05:23 06/30/09 (UMP-Poznan/src/POZNAN.ulice.txt)"/>
  </node>
  <node id="454062620" version="1" timestamp="2009-08-02T04:11:37Z" uid="20587" user="balrog-kun" changeset="2009571" lat="52.4527796" lon="16.8603119">
    <tag k="addr:city" v="Poznań"/>
    <tag k="addr:housenumber" v="1"/>
    <tag k="addr:street" v="Gołubiewa"/>
    <tag k="source" v="http://ump.waw.pl/ retrieved 15:05:23 06/30/09 (UMP-Poznan/src/POZNAN.ulice.txt)"/>
  </node>
  <node id="454062621" version="1" timestamp="2009-08-02T04:11:37Z" uid="20587" user="balrog-kun" changeset="2009571" lat="52.4511639" lon="16.865393">
    <tag k="addr:city" v="Poznań"/>
    <tag k="addr:housenumber" v="12"/>
    <tag k="addr:street" v="Iwana Bunina"/>
    <tag k="source" v="http://ump.waw.pl/ retrieved 15:05:23 06/30/09 (UMP-Poznan/src/POZNAN.ulice.txt)"/>
  </node>
  <node id="454062622" version="1" timestamp="2009-08-02T04:11:37Z" uid="20587" user="balrog-kun" changeset="2009571" lat="52.4540471" lon="16.8615577">
    <tag k="addr:city" v="Poznań"/>
    <tag k="addr:housenumber" v="34"/>
    <tag k="addr:street" v="Proroka"/>
    <tag k="source" v="http://ump.waw.pl/ retrieved 15:05:23 06/30/09 (UMP-Poznan/src/POZNAN.ulice.txt)"/>
  </node>
  <node id="454062624" version="1" timestamp="2009-08-02T04:11:37Z" uid="20587" user="balrog-kun" changeset="2009571" lat="52.4504923" lon="16.8644975">
    <tag k="addr:city" v="Poznań"/>
    <tag k="addr:housenumber" v="2"/>
    <tag k="addr:street" v="Iwana Bunina"/>
    <tag k="source" v="http://ump.waw.pl/ retrieved 15:05:23 06/30/09 (UMP-Poznan/src/POZNAN.ulice.txt)"/>
  </node>
  <node id="454062626" version="1" timestamp="2009-08-02T04:11:37Z" uid="20587" user="balrog-kun" changeset="2009571" lat="52.4529074" lon="16.8611713">
    <tag k="addr:city" v="Poznań"/>
    <tag k="addr:housenumber" v="2"/>
    <tag k="addr:street" v="Gołubiewa"/>
    <tag k="source" v="http://ump.waw.pl/ retrieved 15:05:23 06/30/09 (UMP-Poznan/src/POZNAN.ulice.txt)"/>
  </node>
  <node id="454062627" version="1" timestamp="2009-08-02T04:11:37Z" uid="20587" user="balrog-kun" changeset="2009571" lat="52.4511103" lon="16.8705733">
    <tag k="addr:city" v="Poznań"/>
    <tag k="addr:housenumber" v="14"/>
    <tag k="addr:street" v="Jarosława Iwaszkiewicza"/>
    <tag k="source" v="http://ump.waw.pl/ retrieved 15:05:23 06/30/09 (UMP-Poznan/src/POZNAN.ulice.txt)"/>
  </node>
  <node id="454062628" version="1" timestamp="2009-08-02T04:11:38Z" uid="20587" user="balrog-kun" changeset="2009571" lat="52.4514492" lon="16.8667242">
    <tag k="addr:city" v="Poznań"/>
    <tag k="addr:housenumber" v="7"/>
    <tag k="addr:street" v="Antoniego Czechowa"/>
    <tag k="source" v="http://ump.waw.pl/ retrieved 15:05:23 06/30/09 (UMP-Poznan/src/POZNAN.ulice.txt)"/>
  </node>
  <node id="454062629" version="1" timestamp="2009-08-02T04:11:38Z" uid="20587" user="balrog-kun" changeset="2009571" lat="52.450004" lon="16.8638348">
    <tag k="addr:city" v="Poznań"/>
    <tag k="addr:housenumber" v="15"/>
    <tag k="addr:street" v="Michaiła Lermontowa"/>
    <tag k="source" v="http://ump.waw.pl/ retrieved 15:05:23 06/30/09 (UMP-Poznan/src/POZNAN.ulice.txt)"/>
  </node>
  <node id="454062630" version="1" timestamp="2009-08-02T04:11:38Z" uid="20587" user="balrog-kun" changeset="2009571" lat="52.4495158" lon="16.8670194">
    <tag k="addr:city" v="Poznań"/>
    <tag k="addr:housenumber" v="7"/>
    <tag k="addr:street" v="Lwa Tołstoja"/>
    <tag k="source" v="http://ump.waw.pl/ retrieved 15:05:23 06/30/09 (UMP-Poznan/src/POZNAN.ulice.txt)"/>
  </node>
  <node id="454062633" version="1" timestamp="2009-08-02T04:11:38Z" uid="20587" user="balrog-kun" changeset="2009571" lat="52.4494966" lon="16.8650598">
    <tag k="addr:city" v="Poznań"/>
    <tag k="addr:housenumber" v="9"/>
    <tag k="addr:street" v="Michaiła Lermontowa"/>
    <tag k="source" v="http://ump.waw.pl/ retrieved 15:05:23 06/30/09 (UMP-Poznan/src/POZNAN.ulice.txt)"/>
  </node>
  <node id="454062634" version="1" timestamp="2009-08-02T04:11:38Z" uid="20587" user="balrog-kun" changeset="2009571" lat="52.4527317" lon="16.8631461">
    <tag k="addr:city" v="Poznań"/>
    <tag k="addr:housenumber" v="13"/>
    <tag k="addr:street" v="Karola Bunscha"/>
    <tag k="source" v="http://ump.waw.pl/ retrieved 15:05:23 06/30/09 (UMP-Poznan/src/POZNAN.ulice.txt)"/>
  </node>
  <node id="454062635" version="1" timestamp="2009-08-02T04:11:38Z" uid="20587" user="balrog-kun" changeset="2009571" lat="52.4494382" lon="16.8641608">
    <tag k="addr:city" v="Poznań"/>
    <tag k="addr:housenumber" v="1"/>
    <tag k="addr:street" v="Antoniego Czechowa"/>
    <tag k="source" v="http://ump.waw.pl/ retrieved 15:05:23 06/30/09 (UMP-Poznan/src/POZNAN.ulice.txt)"/>
  </node>
  <node id="454062636" version="1" timestamp="2009-08-02T04:11:38Z" uid="20587" user="balrog-kun" changeset="2009571" lat="52.451156" lon="16.8671834">
    <tag k="addr:city" v="Poznań"/>
    <tag k="addr:housenumber" v="28"/>
    <tag k="addr:street" v="Antoniego Czechowa"/>
    <tag k="source" v="http://ump.waw.pl/ retrieved 15:05:23 06/30/09 (UMP-Poznan/src/POZNAN.ulice.txt)"/>
  </node>
  <node id="454062639" version="1" timestamp="2009-08-02T04:11:38Z" uid="20587" user="balrog-kun" changeset="2009571" lat="52.4518452" lon="16.8648942">
    <tag k="addr:city" v="Poznań"/>
    <tag k="addr:housenumber" v="17"/>
    <tag k="addr:street" v="Aleksandra Puszkina"/>
    <tag k="source" v="http://ump.waw.pl/ retrieved 15:05:23 06/30/09 (UMP-Poznan/src/POZNAN.ulice.txt)"/>
  </node>
  <node id="454062640" version="1" timestamp="2009-08-02T04:11:38Z" uid="20587" user="balrog-kun" changeset="2009571" lat="52.4536781" lon="16.8712177">
    <tag k="addr:city" v="Poznań"/>
    <tag k="addr:housenumber" v="2"/>
    <tag k="addr:street" v="Eugeniusza Paukszty"/>
    <tag k="source" v="http://ump.waw.pl/ retrieved 15:05:23 06/30/09 (UMP-Poznan/src/POZNAN.ulice.txt)"/>
  </node>
  <node id="454062641" version="1" timestamp="2009-08-02T04:11:38Z" uid="20587" user="balrog-kun" changeset="2009571" lat="52.4504228" lon="16.866194">
    <tag k="addr:city" v="Poznań"/>
    <tag k="addr:housenumber" v="6"/>
    <tag k="addr:street" v="Antoniego Czechowa"/>
    <tag k="source" v="http://ump.waw.pl/ retrieved 15:05:23 06/30/09 (UMP-Poznan/src/POZNAN.ulice.txt)"/>
  </node>
  <node id="454062645" version="1" timestamp="2009-08-02T04:11:39Z" uid="20587" user="balrog-kun" changeset="2009571" lat="52.4535636" lon="16.863741">
    <tag k="addr:city" v="Poznań"/>
    <tag k="addr:housenumber" v="189"/>
    <tag k="addr:street" v="fixme"/>
    <tag k="source" v="http://ump.waw.pl/ retrieved 15:05:23 06/30/09 (UMP-Poznan/src/POZNAN.ulice.txt)"/>
  </node>
  <node id="454062648" version="1" timestamp="2009-08-02T04:11:39Z" uid="20587" user="balrog-kun" changeset="2009571" lat="52.4533973" lon="16.8619198">
    <tag k="addr:city" v="Poznań"/>
    <tag k="addr:housenumber" v="47"/>
    <tag k="addr:street" v="Proroka"/>
    <tag k="source" v="http://ump.waw.pl/ retrieved 15:05:23 06/30/09 (UMP-Poznan/src/POZNAN.ulice.txt)"/>
  </node>
  <node id="454062650" version="1" timestamp="2009-08-02T04:11:39Z" uid="20587" user="balrog-kun" changeset="2009571" lat="52.4505892" lon="16.8658444">
    <tag k="addr:city" v="Poznań"/>
    <tag k="addr:housenumber" v="7"/>
    <tag k="addr:street" v="Antoniego Czechowa"/>
    <tag k="source" v="http://ump.waw.pl/ retrieved 15:05:23 06/30/09 (UMP-Poznan/src/POZNAN.ulice.txt)"/>
  </node>
  <node id="454062655" version="1" timestamp="2009-08-02T04:11:39Z" uid="20587" user="balrog-kun" changeset="2009571" lat="52.4503698" lon="16.8668726">
    <tag k="addr:city" v="Poznań"/>
    <tag k="addr:housenumber" v="3"/>
    <tag k="addr:street" v="Nikołaja Gogola"/>
    <tag k="source" v="http://ump.waw.pl/ retrieved 15:05:23 06/30/09 (UMP-Poznan/src/POZNAN.ulice.txt)"/>
  </node>
  <node id="454062657" version="1" timestamp="2009-08-02T04:11:39Z" uid="20587" user="balrog-kun" changeset="2009571" lat="52.4512483" lon="16.8626434">
    <tag k="addr:city" v="Poznań"/>
    <tag k="addr:housenumber" v="8"/>
    <tag k="addr:street" v="Aleksandra Puszkina"/>
    <tag k="source" v="http://ump.waw.pl/ retrieved 15:05:23 06/30/09 (UMP-Poznan/src/POZNAN.ulice.txt)"/>
  </node>
  <node id="454062659" version="1" timestamp="2009-08-02T04:11:39Z" uid="20587" user="balrog-kun" changeset="2009571" lat="52.4531339" lon="16.8633471">
    <tag k="addr:city" v="Poznań"/>
    <tag k="addr:housenumber" v="24"/>
    <tag k="addr:street" v="Proroka"/>
    <tag k="source" v="http://ump.waw.pl/ retrieved 15:05:23 06/30/09 (UMP-Poznan/src/POZNAN.ulice.txt)"/>
  </node>
  <node id="454062662" version="1" timestamp="2009-08-02T04:11:39Z" uid="20587" user="balrog-kun" changeset="2009571" lat="52.4531784" lon="16.8623547">
    <tag k="addr:city" v="Poznań"/>
    <tag k="addr:housenumber" v="33"/>
    <tag k="addr:street" v="Proroka"/>
    <tag k="source" v="http://ump.waw.pl/ retrieved 15:05:23 06/30/09 (UMP-Poznan/src/POZNAN.ulice.txt)"/>
  </node>
  <node id="454062664" version="1" timestamp="2009-08-02T04:11:39Z" uid="20587" user="balrog-kun" changeset="2009571" lat="52.4541816" lon="16.862519">
    <tag k="addr:city" v="Poznań"/>
    <tag k="addr:housenumber" v="201"/>
    <tag k="addr:street" v="fixme"/>
    <tag k="source" v="http://ump.waw.pl/ retrieved 15:05:23 06/30/09 (UMP-Poznan/src/POZNAN.ulice.txt)"/>
  </node>
  <node id="454062665" version="1" timestamp="2009-08-02T04:11:39Z" uid="20587" user="balrog-kun" changeset="2009571" lat="52.4528018" lon="16.8706447">
    <tag k="addr:city" v="Poznań"/>
    <tag k="addr:housenumber" v="1"/>
    <tag k="addr:street" v="Zbigniewa Herberta"/>
    <tag k="source" v="http://ump.waw.pl/ retrieved 15:05:23 06/30/09 (UMP-Poznan/src/POZNAN.ulice.txt)"/>
  </node>
  <node id="454062667" version="1" timestamp="2009-08-02T04:11:40Z" uid="20587" user="balrog-kun" changeset="2009571" lat="52.4534344" lon="16.8627075">
    <tag k="addr:city" v="Poznań"/>
    <tag k="addr:housenumber" v="26"/>
    <tag k="addr:street" v="Proroka"/>
    <tag k="source" v="http://ump.waw.pl/ retrieved 15:05:23 06/30/09 (UMP-Poznan/src/POZNAN.ulice.txt)"/>
  </node>
  <node id="454062671" version="1" timestamp="2009-08-02T04:11:40Z" uid="20587" user="balrog-kun" changeset="2009571" lat="52.450574" lon="16.8635433">
    <tag k="addr:city" v="Poznań"/>
    <tag k="addr:housenumber" v="18"/>
    <tag k="addr:street" v="Michaiła Lermontowa"/>
    <tag k="source" v="http://ump.waw.pl/ retrieved 15:05:23 06/30/09 (UMP-Poznan/src/POZNAN.ulice.txt)"/>
  </node>
  <node id="454062674" version="1" timestamp="2009-08-02T04:11:40Z" uid="20587" user="balrog-kun" changeset="2009571" lat="52.4514303" lon="16.8643422">
    <tag k="addr:city" v="Poznań"/>
    <tag k="addr:housenumber" v="13"/>
    <tag k="addr:street" v="Aleksandra Puszkina"/>
    <tag k="source" v="http://ump.waw.pl/ retrieved 15:05:23 06/30/09 (UMP-Poznan/src/POZNAN.ulice.txt)"/>
  </node>
  <node id="454062675" version="1" timestamp="2009-08-02T04:11:40Z" uid="20587" user="balrog-kun" changeset="2009571" lat="52.4506203" lon="16.8674234">
    <tag k="addr:city" v="Poznań"/>
    <tag k="addr:housenumber" v="12"/>
    <tag k="addr:street" v="Iwana Turgieniewa"/>
    <tag k="source" v="http://ump.waw.pl/ retrieved 15:05:23 06/30/09 (UMP-Poznan/src/POZNAN.ulice.txt)"/>
  </node>
  <node id="454062680" version="1" timestamp="2009-08-02T04:11:40Z" uid="20587" user="balrog-kun" changeset="2009571" lat="52.454188" lon="16.8698609">
    <tag k="addr:city" v="Poznań"/>
    <tag k="addr:housenumber" v="11"/>
    <tag k="addr:street" v="Eugeniusza Paukszty"/>
    <tag k="source" v="http://ump.waw.pl/ retrieved 15:05:23 06/30/09 (UMP-Poznan/src/POZNAN.ulice.txt)"/>
  </node>
  <node id="454062682" version="1" timestamp="2009-08-02T04:11:40Z" uid="20587" user="balrog-kun" changeset="2009571" lat="52.4506461" lon="16.864187">
    <tag k="addr:city" v="Poznań"/>
    <tag k="addr:housenumber" v="1"/>
    <tag k="addr:street" v="Iwana Bunina"/>
    <tag k="source" v="http://ump.waw.pl/ retrieved 15:05:23 06/30/09 (UMP-Poznan/src/POZNAN.ulice.txt)"/>
  </node>
  <node id="454062684" version="1" timestamp="2009-08-02T04:11:40Z" uid="20587" user="balrog-kun" changeset="2009571" lat="52.4532332" lon="16.8601373">
    <tag k="addr:city" v="Poznań"/>
    <tag k="addr:housenumber" v="8"/>
    <tag k="addr:street" v="Karola Irzykowskiego"/>
  </node>
  <node id="454062685" version="1" timestamp="2009-08-02T04:11:40Z" uid="20587" user="balrog-kun" changeset="2009571" lat="52.4498619" lon="16.8641749">
    <tag k="addr:city" v="Poznań"/>
    <tag k="addr:housenumber" v="13"/>
    <tag k="addr:street" v="Michaiła Lermontowa"/>
    <tag k="source" v="http://ump.waw.pl/ retrieved 15:05:23 06/30/09 (UMP-Poznan/src/POZNAN.ulice.txt)"/>
  </node>
  <node id="454062689" version="1" timestamp="2009-08-02T04:11:41Z" uid="20587" user="balrog-kun" changeset="2009571" lat="52.4513388" lon="16.871075">
    <tag k="addr:city" v="Poznań"/>
    <tag k="addr:housenumber" v="13"/>
    <tag k="addr:street" v="Jarosława Iwaszkiewicza"/>
    <tag k="source" v="http://ump.waw.pl/ retrieved 15:05:23 06/30/09 (UMP-Poznan/src/POZNAN.ulice.txt)"/>
  </node>
  <node id="454062690" version="1" timestamp="2009-08-02T04:11:41Z" uid="20587" user="balrog-kun" changeset="2009571" lat="52.4520251" lon="16.8608042">
    <tag k="addr:city" v="Poznań"/>
    <tag k="addr:housenumber" v="7"/>
    <tag k="addr:street" v="Teodora Parnickiego"/>
    <tag k="source" v="http://ump.waw.pl/ retrieved 15:05:23 06/30/09 (UMP-Poznan/src/POZNAN.ulice.txt)"/>
  </node>
  <node id="454062692" version="1" timestamp="2009-08-02T04:11:41Z" uid="20587" user="balrog-kun" changeset="2009571" lat="52.4536115" lon="16.8684804">
    <tag k="addr:city" v="Poznań"/>
    <tag k="addr:housenumber" v="12"/>
    <tag k="addr:street" v="Gustava Herlinga-Grudzińskiego"/>
    <tag k="source" v="http://ump.waw.pl/ retrieved 15:05:23 06/30/09 (UMP-Poznan/src/POZNAN.ulice.txt)"/>
  </node>
  <node id="454062695" version="1" timestamp="2009-08-02T04:11:41Z" uid="20587" user="balrog-kun" changeset="2009571" lat="52.4534463" lon="16.8707197">
    <tag k="addr:city" v="Poznań"/>
    <tag k="addr:housenumber" v="1"/>
    <tag k="addr:street" v="Eugeniusza Paukszty"/>
    <tag k="source" v="http://ump.waw.pl/ retrieved 15:05:23 06/30/09 (UMP-Poznan/src/POZNAN.ulice.txt)"/>
  </node>
  <node id="454062697" version="1" timestamp="2009-08-02T04:11:41Z" uid="20587" user="balrog-kun" changeset="2009571" lat="52.4517587" lon="16.8671254">
    <tag k="addr:city" v="Poznań"/>
    <tag k="addr:housenumber" v="23"/>
    <tag k="addr:street" v="Antoniego Czechowa"/>
    <tag k="source" v="http://ump.waw.pl/ retrieved 15:05:23 06/30/09 (UMP-Poznan/src/POZNAN.ulice.txt)"/>
  </node>
  <node id="454062699" version="1" timestamp="2009-08-02T04:11:41Z" uid="20587" user="balrog-kun" changeset="2009571" lat="52.4521015" lon="16.8638124">
    <tag k="addr:city" v="Poznań"/>
    <tag k="addr:housenumber" v="20"/>
    <tag k="addr:street" v="Aleksandra Puszkina"/>
    <tag k="source" v="http://ump.waw.pl/ retrieved 15:05:23 06/30/09 (UMP-Poznan/src/POZNAN.ulice.txt)"/>
  </node>
  <node id="454062701" version="1" timestamp="2009-08-02T04:11:41Z" uid="20587" user="balrog-kun" changeset="2009571" lat="52.4522373" lon="16.8693136">
    <tag k="addr:city" v="Poznań"/>
    <tag k="addr:housenumber" v="2"/>
    <tag k="addr:street" v="Jarosława Iwaszkiewicza"/>
    <tag k="source" v="http://ump.waw.pl/ retrieved 15:05:23 06/30/09 (UMP-Poznan/src/POZNAN.ulice.txt)"/>
  </node>
  <node id="454062705" version="1" timestamp="2009-08-02T04:11:41Z" uid="20587" user="balrog-kun" changeset="2009571" lat="52.4499689" lon="16.8672724">
    <tag k="addr:city" v="Poznań"/>
    <tag k="addr:housenumber" v="8"/>
    <tag k="addr:street" v="Nikołaja Gogola"/>
    <tag k="source" v="http://ump.waw.pl/ retrieved 15:05:23 06/30/09 (UMP-Poznan/src/POZNAN.ulice.txt)"/>
  </node>
  <node id="454062707" version="1" timestamp="2009-08-02T04:11:41Z" uid="20587" user="balrog-kun" changeset="2009571" lat="52.4528678" lon="16.8693545">
    <tag k="addr:city" v="Poznań"/>
    <tag k="addr:housenumber" v="2"/>
    <tag k="addr:street" v="Gustava Herlinga-Grudzińskiego"/>
    <tag k="source" v="http://ump.waw.pl/ retrieved 15:05:23 06/30/09 (UMP-Poznan/src/POZNAN.ulice.txt)"/>
  </node>
  <node id="454062709" version="1" timestamp="2009-08-02T04:11:41Z" uid="20587" user="balrog-kun" changeset="2009571" lat="52.4530291" lon="16.8697622">
    <tag k="addr:city" v="Poznań"/>
    <tag k="addr:housenumber" v="1"/>
    <tag k="addr:street" v="Stanisława Lema"/>
    <tag k="source" v="http://ump.waw.pl/ retrieved 15:05:23 06/30/09 (UMP-Poznan/src/POZNAN.ulice.txt)"/>
  </node>
  <node id="454062715" version="1" timestamp="2009-08-02T04:11:42Z" uid="20587" user="balrog-kun" changeset="2009571" lat="52.4506611" lon="16.8633187">
    <tag k="addr:city" v="Poznań"/>
    <tag k="addr:housenumber" v="5"/>
    <tag k="addr:street" v="Aleksandra Puszkina"/>
    <tag k="source" v="http://ump.waw.pl/ retrieved 15:05:23 06/30/09 (UMP-Poznan/src/POZNAN.ulice.txt)"/>
  </node>
  <node id="454062716" version="1" timestamp="2009-08-02T04:11:42Z" uid="20587" user="balrog-kun" changeset="2009571" lat="52.4523245" lon="16.8634608">
    <tag k="addr:city" v="Poznań"/>
    <tag k="addr:housenumber" v="16"/>
    <tag k="addr:street" v="Karola Bunscha"/>
    <tag k="source" v="http://ump.waw.pl/ retrieved 15:05:23 06/30/09 (UMP-Poznan/src/POZNAN.ulice.txt)"/>
  </node>
  <node id="454062717" version="1" timestamp="2009-08-02T04:11:42Z" uid="20587" user="balrog-kun" changeset="2009571" lat="52.4526281" lon="16.8702223">
    <tag k="addr:city" v="Poznań"/>
    <tag k="addr:housenumber" v="2"/>
    <tag k="addr:street" v="Zbigniewa Herberta"/>
    <tag k="source" v="http://ump.waw.pl/ retrieved 15:05:23 06/30/09 (UMP-Poznan/src/POZNAN.ulice.txt)"/>
  </node>
  <node id="454062723" version="1" timestamp="2009-08-02T04:11:42Z" uid="20587" user="balrog-kun" changeset="2009571" lat="52.4501512" lon="16.8635025">
    <tag k="addr:city" v="Poznań"/>
    <tag k="addr:housenumber" v="17"/>
    <tag k="addr:street" v="Michaiła Lermontowa"/>
    <tag k="source" v="http://ump.waw.pl/ retrieved 15:05:23 06/30/09 (UMP-Poznan/src/POZNAN.ulice.txt)"/>
  </node>
  <node id="454062724" version="1" timestamp="2009-08-02T04:11:42Z" uid="20587" user="balrog-kun" changeset="2009571" lat="52.4534147" lon="16.8640519">
    <tag k="addr:city" v="Poznań"/>
    <tag k="addr:housenumber" v="175"/>
    <tag k="addr:street" v="fixme"/>
    <tag k="source" v="http://ump.waw.pl/ retrieved 15:05:23 06/30/09 (UMP-Poznan/src/POZNAN.ulice.txt)"/>
  </node>
  <node id="454062726" version="1" timestamp="2009-08-02T04:11:42Z" uid="20587" user="balrog-kun" changeset="2009571" lat="52.4544198" lon="16.8703589">
    <tag k="addr:city" v="Poznań"/>
    <tag k="addr:housenumber" v="12"/>
    <tag k="addr:street" v="Eugeniusza Paukszty"/>
    <tag k="source" v="http://ump.waw.pl/ retrieved 15:05:23 06/30/09 (UMP-Poznan/src/POZNAN.ulice.txt)"/>
  </node>
  <node id="454062727" version="1" timestamp="2009-08-02T04:11:42Z" uid="20587" user="balrog-kun" changeset="2009571" lat="52.4538691" lon="16.8631134">
    <tag k="addr:city" v="Poznań"/>
    <tag k="addr:housenumber" v="191"/>
    <tag k="addr:street" v="fixme"/>
    <tag k="source" v="http://ump.waw.pl/ retrieved 15:05:23 06/30/09 (UMP-Poznan/src/POZNAN.ulice.txt)"/>
  </node>
  <node id="454062728" version="1" timestamp="2009-08-02T04:11:42Z" uid="20587" user="balrog-kun" changeset="2009571" lat="52.4524939" lon="16.8637223">
    <tag k="addr:city" v="Poznań"/>
    <tag k="addr:housenumber" v="31"/>
    <tag k="addr:street" v="Proroka"/>
    <tag k="source" v="http://ump.waw.pl/ retrieved 15:05:23 06/30/09 (UMP-Poznan/src/POZNAN.ulice.txt)"/>
  </node>
  <node id="454062730" version="1" timestamp="2009-08-02T04:11:42Z" uid="20587" user="balrog-kun" changeset="2009571" lat="52.4125895" lon="17.0795544">
    <tag k="addr:city" v="Swarzędz"/>
    <tag k="addr:housenumber" v="18"/>
    <tag k="addr:street" v="Grudzińskiego"/>
    <tag k="source" v="http://ump.waw.pl/ retrieved 15:05:23 06/30/09 (UMP-Poznan/src/SWARZEDZ.ulice.txt)"/>
  </node>
  <node id="454062731" version="1" timestamp="2009-08-02T04:11:42Z" uid="20587" user="balrog-kun" changeset="2009571" lat="52.4032511" lon="17.0523105">
    <tag k="addr:city" v="Swarzędz"/>
    <tag k="addr:housenumber" v="49"/>
    <tag k="addr:street" v="Poznańska"/>
    <tag k="source" v="http://ump.waw.pl/ retrieved 15:05:23 06/30/09 (UMP-Poznan/src/SWARZEDZ.ulice.txt)"/>
  </node>
  <node id="454062733" version="1" timestamp="2009-08-02T04:11:43Z" uid="20587" user="balrog-kun" changeset="2009571" lat="52.4039541" lon="17.0602177">
    <tag k="addr:city" v="Swarzędz"/>
    <tag k="addr:housenumber" v="35"/>
    <tag k="addr:street" v="Poznańska"/>
    <tag k="source" v="http://ump.waw.pl/ retrieved 15:05:23 06/30/09 (UMP-Poznan/src/SWARZEDZ.ulice.txt)"/>
  </node>
  <node id="454062733" version="2" timestamp="2009-12-20T06:00:56Z" uid="210405" user="Joanna Gudowicz" changeset="3411439" lat="52.4039541" lon="17.0602176">
    <tag k="addr:housenumber" v="35"/>
    <tag k="addr:street" v="Poznańska"/>
  </node>
</osm>
