<?xml version='1.0' encoding='UTF-8'?>
<osm version="0.6" generator="libosmium/2.20.0">
  <node id="455230011" version="2" timestamp="2009-10-02T16:56:02Z" uid="86259" user="hasse_osm_korinthenkacker" changeset="2714981" lat="47.9153652" lon="11.4229242">
    <tag k="highway" v="bus_stop"/>
  </node>
  <node id="455230011" version="3" timestamp="2010-08-24T06:36:44Z" uid="75483" user="Lala-Rob" changeset="5577350" lat="47.9152725" lon="11.4225948">
    <tag k="highway" v="bus_stop"/>
  </node>
  <node id="455230011" version="4" timestamp="2012-02-04T14:59:25Z" uid="290680" user="wheelmap_visitor" changeset="10582938" lat="47.9152725" lon="11.4225948">
    <tag k="highway" v="bus_stop"/>
    <tag k="wheelchair" v="limited"/>
  </node>
  <node id="455231193" version="2" timestamp="2009-10-02T16:57:19Z" uid="86259" user="hasse_osm_korinthenkacker" changeset="2714981" lat="47.9089506" lon="11.4351294">
    <tag k="leisure" v="stadium"/>
  </node>
  <node id="455231193" version="3" timestamp="2010-05-11T18:39:48Z" uid="286492" user="Isarpirat" changeset="4671031" lat="47.9089506" lon="11.4351293">
    <tag k="leisure" v="Isar-Loisach-Stadion"/>
  </node>
  <node id="455231193" version="4" timestamp="2010-08-25T08:49:32Z" uid="75483" user="Lala-Rob" changeset="5587355" lat="47.9091514" lon="11.4354288">
    <tag k="leisure" v="Isar-Loisach-Stadion"/>
  </node>
  <node id="455231193" version="5" timestamp="2010-11-16T10:16:48Z" uid="140803" user="ThomasStr" changeset="6383843" lat="47.9091514" lon="11.4354288">
    <tag k="leisure" v="stadium"/>
    <tag k="name" v="Isar-Loisach-Stadion"/>
    <tag k="sport" v="multi"/>
  </node>
  <node id="455231193" version="6" timestamp="2011-01-20T08:33:47Z" uid="100010" user="Thomas Martin" changeset="7027865" lat="47.9086404" lon="11.4362742">
    <tag k="leisure" v="stadium"/>
    <tag k="name" v="Isar-Loisach-Stadion"/>
    <tag k="sport" v="multi"/>
  </node>
  <node id="455231193" version="7" timestamp="2012-02-04T15:00:28Z" uid="290680" user="wheelmap_visitor" changeset="10582938" lat="47.9086404" lon="11.4362742">
    <tag k="leisure" v="stadium"/>
    <tag k="name" v="Isar-Loisach-Stadion"/>
    <tag k="sport" v="multi"/>
    <tag k="wheelchair" v="yes"/>
  </node>
  <node id="455232357" version="4" timestamp="2009-10-02T16:57:20Z" uid="86259" user="hasse_osm_korinthenkacker" changeset="2714981" lat="47.9058668" lon="11.4379618">
    <tag k="amenity" v="restaurant"/>
    <tag k="name" v="Griechisches Restaurant"/>
  </node>
  <node id="455232357" version="5" timestamp="2010-05-08T07:44:20Z" uid="253179" user="aveee" changeset="4636288" lat="47.9051729" lon="11.4390203">
    <tag k="amenity" v="restaurant"/>
    <tag k="name" v="Griechisches Restaurant"/>
  </node>
  <node id="455232357" version="6" timestamp="2010-08-08T11:07:37Z" uid="254505" user="ego_42" changeset="5431844" lat="47.9051604" lon="11.4390003">
    <tag k="amenity" v="restaurant"/>
    <tag k="name" v="Griechisches Restaurant"/>
  </node>
  <node id="455232357" version="7" timestamp="2010-08-25T08:51:07Z" uid="75483" user="Lala-Rob" changeset="5587368" lat="47.9051801" lon="11.4389524">
    <tag k="amenity" v="restaurant"/>
    <tag k="name" v="Griechisches Restaurant"/>
  </node>
  <node id="455232357" version="8" timestamp="2011-05-08T16:52:20Z" uid="100010" user="Thomas Martin" changeset="8084724" lat="47.9054541" lon="11.4391278">
    <tag k="amenity" v="restaurant"/>
    <tag k="name" v="Griechisches Restaurant"/>
  </node>
  <node id="455232357" version="9" timestamp="2011-09-07T06:16:53Z" uid="498988" user="xs400dohc" changeset="9233605" lat="47.9054541" lon="11.4391278">
    <tag k="amenity" v="restaurant"/>
    <tag k="cuisine" v="greek"/>
    <tag k="name" v="Griechisches Restaurant"/>
  </node>
</osm>
