<?xml version='1.0' encoding='UTF-8'?>
<osm version="0.6" generator="libosmium/2.20.0">
  <node id="461541972" version="1" timestamp="2009-08-11T03:45:27Z" uid="74617" user="JohnSmith" changeset="2104249" lat="-26.3747382" lon="153.0145225">
    <tag k="highway" v="turning_circle"/>
  </node>
  <node id="461541972" version="2" timestamp="2010-09-22T08:57:03Z" uid="12182" user="DancingFool" changeset="5843681" lat="-26.374779" lon="153.014566">
    <tag k="highway" v="turning_circle"/>
  </node>
  <node id="461541973" version="1" timestamp="2009-08-11T03:45:27Z" uid="74617" user="JohnSmith" changeset="2104249" lat="-26.3746937" lon="153.0152574"/>
  <node id="461541973" version="2" timestamp="2010-09-22T08:57:12Z" uid="12182" user="DancingFool" changeset="5843681" lat="-26.3746937" lon="153.01529"/>
  <node id="461541974" version="1" timestamp="2009-08-11T03:45:27Z" uid="74617" user="JohnSmith" changeset="2104249" lat="-26.3747427" lon="153.0152227"/>
  <node id="461541974" version="2" timestamp="2010-09-22T08:57:07Z" uid="12182" user="DancingFool" changeset="5843681" lat="-26.3747672" lon="153.0152499"/>
  <node id="461542417" version="2" timestamp="2009-10-22T21:40:19Z" uid="36809" user="pfoten_weg_!_" changeset="2925750" lat="47.848584" lon="11.5201153">
    <tag k="addr:city" v="Dietramszell"/>
    <tag k="addr:country" v="DE"/>
    <tag k="addr:housenumber" v="9"/>
    <tag k="addr:postcode" v="83626"/>
    <tag k="addr:street" v="Einöd"/>
    <tag k="name" v="Camping Gasthof Beham"/>
    <tag k="operator" v="Landgasthof Beham"/>
    <tag k="phone" v="+49 8027 386"/>
    <tag k="tourism" v="camp_site"/>
    <tag k="url" v="http://www.landgasthof-beham.de/"/>
  </node>
  <node id="461542417" version="3" timestamp="2010-09-19T14:50:37Z" uid="65148" user="Pirat Michi" changeset="5820386" lat="47.848584" lon="11.5201153">
    <tag k="addr:city" v="Dietramszell"/>
    <tag k="addr:country" v="DE"/>
    <tag k="addr:housenumber" v="9"/>
    <tag k="addr:postcode" v="83626"/>
    <tag k="addr:street" v="Einöd"/>
    <tag k="name" v="Camping Gasthof Beham"/>
    <tag k="operator" v="Landgasthof Beham"/>
    <tag k="phone" v="+49 8027 386"/>
    <tag k="tourism" v="camp_site"/>
    <tag k="website" v="http://www.landgasthof-beham.de/"/>
  </node>
  <node id="461542417" version="4" timestamp="2011-01-23T09:21:24Z" uid="62236" user="Paulchen Panther" changeset="7058632" lat="47.848584" lon="11.5201153">
    <tag k="addr:city" v="Dietramszell"/>
    <tag k="addr:country" v="DE"/>
    <tag k="addr:housenumber" v="9"/>
    <tag k="addr:postcode" v="83626"/>
    <tag k="addr:street" v="Einöd"/>
    <tag k="name" v="Camping Gasthof Beham"/>
    <tag k="operator" v="Landgasthof Beham"/>
    <tag k="phone" v="+49 8027 386"/>
    <tag k="tourism" v="camp_site"/>
    <tag k="website" v="http://www.landgasthof-beham.de/"/>
  </node>
  <node id="461542418" version="2" timestamp="2009-10-22T21:40:18Z" uid="36809" user="pfoten_weg_!_" changeset="2925750" lat="47.8480483" lon="11.5208449">
    <tag k="addr:city" v="Dietramszell"/>
    <tag k="addr:country" v="DE"/>
    <tag k="addr:housenumber" v="9"/>
    <tag k="addr:postcode" v="83626"/>
    <tag k="addr:street" v="Einöd"/>
    <tag k="amenity" v="restaurant"/>
    <tag k="name" v="Landgasthof Beham"/>
    <tag k="phone" v="+49 8027 386"/>
    <tag k="url" v="http://www.landgasthof-beham.de/"/>
  </node>
  <node id="461542418" version="3" timestamp="2010-09-19T14:50:38Z" uid="65148" user="Pirat Michi" changeset="5820386" lat="47.8480483" lon="11.5208449">
    <tag k="addr:city" v="Dietramszell"/>
    <tag k="addr:country" v="DE"/>
    <tag k="addr:housenumber" v="9"/>
    <tag k="addr:postcode" v="83626"/>
    <tag k="addr:street" v="Einöd"/>
    <tag k="amenity" v="restaurant"/>
    <tag k="name" v="Landgasthof Beham"/>
    <tag k="phone" v="+49 8027 386"/>
    <tag k="website" v="http://www.landgasthof-beham.de/"/>
  </node>
  <node id="461542418" version="4" timestamp="2011-01-23T09:21:17Z" uid="62236" user="Paulchen Panther" changeset="7058632" lat="47.8483963" lon="11.5207324">
    <tag k="addr:city" v="Dietramszell"/>
    <tag k="addr:country" v="DE"/>
    <tag k="addr:housenumber" v="9"/>
    <tag k="addr:postcode" v="83626"/>
    <tag k="addr:street" v="Einöd"/>
    <tag k="amenity" v="restaurant"/>
    <tag k="name" v="Landgasthof Beham"/>
    <tag k="phone" v="+49 8027 386"/>
    <tag k="website" v="http://www.landgasthof-beham.de/"/>
  </node>
  <node id="461542418" version="5" timestamp="2011-10-09T13:17:12Z" uid="290680" user="wheelmap_visitor" changeset="9508573" lat="47.8483963" lon="11.5207324">
    <tag k="addr:city" v="Dietramszell"/>
    <tag k="addr:country" v="DE"/>
    <tag k="addr:housenumber" v="9"/>
    <tag k="addr:postcode" v="83626"/>
    <tag k="addr:street" v="Einöd"/>
    <tag k="amenity" v="restaurant"/>
    <tag k="name" v="Landgasthof Beham"/>
    <tag k="phone" v="+49 8027 386"/>
    <tag k="website" v="http://www.landgasthof-beham.de/"/>
    <tag k="wheelchair" v="limited"/>
  </node>
</osm>
