<?xml version='1.0' encoding='UTF-8'?>
<osm version="0.6" generator="libosmium/2.20.0">
  <node id="464553104" version="2" timestamp="2010-05-03T19:30:38Z" uid="151899" user="Bikeman2000" changeset="4598248" lat="51.2313598" lon="6.7602415">
    <tag k="name" v="Kaisers"/>
    <tag k="shop" v="supermarket"/>
  </node>
  <node id="464553104" version="3" timestamp="2011-10-14T15:51:42Z" uid="290680" user="wheelmap_visitor" changeset="9552229" lat="51.2313598" lon="6.7602415">
    <tag k="name" v="Kaisers"/>
    <tag k="shop" v="supermarket"/>
    <tag k="wheelchair" v="no"/>
  </node>
  <node id="464553104" version="4" timestamp="2011-11-17T20:39:27Z" uid="173844" user="Antikalk" changeset="9857679" lat="51.2313864" lon="6.7603053">
    <tag k="name" v="Kaisers"/>
    <tag k="shop" v="supermarket"/>
    <tag k="wheelchair" v="no"/>
  </node>
  <node id="464553161" version="2" timestamp="2010-05-03T19:30:34Z" uid="151899" user="Bikeman2000" changeset="4598248" lat="51.2313317" lon="6.7605689">
    <tag k="amenity" v="cafe"/>
    <tag k="name" v="Casa del caffe&apos; vergnano"/>
  </node>
  <node id="464553161" version="3" timestamp="2011-05-13T21:15:47Z" uid="290680" user="wheelmap_visitor" changeset="8134404" lat="51.2313317" lon="6.7605689">
    <tag k="amenity" v="cafe"/>
    <tag k="name" v="Casa del caffe&apos; vergnano"/>
    <tag k="wheelchair" v="limited"/>
  </node>
  <node id="464553161" version="4" timestamp="2011-05-13T21:17:48Z" uid="453258" user="Siggiwu" changeset="8135681" lat="51.2313317" lon="6.7605689">
    <tag k="amenity" v="cafe"/>
    <tag k="name" v="B채ckerei Kamps"/>
    <tag k="shop" v="bakery"/>
    <tag k="wheelchair" v="limited"/>
    <tag k="wheelchair:description" v="Das Lokal existiert nicht mehr, ist jetzt eine B채ckerei"/>
  </node>
  <node id="464553161" version="5" timestamp="2011-11-17T20:39:27Z" uid="173844" user="Antikalk" changeset="9857679" lat="51.2314054" lon="6.7606215">
    <tag k="amenity" v="cafe"/>
    <tag k="name" v="B채ckerei Kamps"/>
    <tag k="shop" v="bakery"/>
    <tag k="wheelchair" v="limited"/>
    <tag k="wheelchair:description" v="Das Lokal existiert nicht mehr, ist jetzt eine B채ckerei"/>
  </node>
</osm>
