<?xml version='1.0' encoding='UTF-8'?>
<osm version="0.6" generator="libosmium/2.20.0">
  <node id="467030445" version="1" timestamp="2009-08-15T06:56:04Z" uid="33382" user="de_muur" changeset="2150153" lat="52.2022537" lon="9.2019097">
    <tag k="amenity" v="restaurant"/>
    <tag k="name" v="Schaumburger Ritter"/>
    <tag k="stars" v="3"/>
    <tag k="tourism" v="hotel"/>
  </node>
  <node id="467030445" version="2" timestamp="2010-04-07T21:00:51Z" uid="45263" user="Noframe" changeset="4359186" lat="52.2021624" lon="9.2019653">
    <tag k="amenity" v="restaurant"/>
    <tag k="name" v="Schaumburger Ritter"/>
    <tag k="stars" v="3"/>
    <tag k="tourism" v="hotel"/>
  </node>
  <node id="467030445" version="3" timestamp="2010-04-07T21:03:19Z" uid="45263" user="Noframe" changeset="4359186" lat="52.2021624" lon="9.2019653">
    <tag k="addr:city" v="Rinteln"/>
    <tag k="addr:housenumber" v="2"/>
    <tag k="addr:postcode" v="31737"/>
    <tag k="addr:street" v="Burgstraße"/>
    <tag k="amenity" v="restaurant"/>
    <tag k="name" v="Schaumburger Ritter"/>
    <tag k="stars" v="3"/>
    <tag k="tourism" v="hotel"/>
    <tag k="website" v="http://www.schaumburger-ritter.de"/>
  </node>
  <node id="467030445" version="4" timestamp="2010-06-08T08:46:26Z" uid="264172" user="yalcinkaya" changeset="4935344" lat="52.2021625" lon="9.2019652">
    <tag k="addr:city" v="Rinteln"/>
    <tag k="addr:housenumber" v="2"/>
    <tag k="addr:postcode" v="31737"/>
    <tag k="addr:street" v="Burgstraße"/>
    <tag k="amenity" v="restaurant"/>
    <tag k="name" v="Schaumburger Ritter"/>
    <tag k="stars" v="3"/>
    <tag k="tourism" v="hotel"/>
    <tag k="website" v="www.schaumburger-ritter.de"/>
  </node>
</osm>
