<?xml version='1.0' encoding='UTF-8'?>
<osm version="0.6" generator="libosmium/2.20.0">
  <node id="46715854" version="6" timestamp="2009-05-01T19:25:40Z" uid="20587" user="balrog-kun" changeset="1041165" lat="49.6250537" lon="20.6911417">
    <tag k="addr:postcode" v="33-300"/>
    <tag k="created_by" v="Potlatch 0.7b"/>
    <tag k="is_in" v="województwo małopolskie, Poland"/>
    <tag k="is_in:country" v="Poland"/>
    <tag k="is_in:county" v="powiat nowy sącz"/>
    <tag k="is_in:municipality" v="gmina Nowy Sącz"/>
    <tag k="is_in:province" v="województwo małopolskie"/>
    <tag k="name" v="Nowy Sącz"/>
    <tag k="place" v="town"/>
    <tag k="population" v="84492"/>
    <tag k="postal_code" v="33-300"/>
    <tag k="source:population" v="wikipedia"/>
    <tag k="teryt:rm" v="96"/>
    <tag k="teryt:simc" v="0959435"/>
    <tag k="teryt:stan_na" v="2009-01-01"/>
    <tag k="teryt:terc" v="1262011"/>
    <tag k="teryt:updated_by" v="teryt2osm combine.py v. 36M"/>
    <tag k="wikipedia" v="Nowy Sącz"/>
  </node>
  <node id="46715854" version="7" timestamp="2009-05-07T18:42:53Z" uid="115021" user="Jajcuś" changeset="1110395" lat="49.6250537" lon="20.6911417">
    <tag k="addr:postcode" v="33-300"/>
    <tag k="created_by" v="Potlatch 0.7b"/>
    <tag k="is_in" v="województwo małopolskie, Poland"/>
    <tag k="is_in:country" v="Poland"/>
    <tag k="is_in:province" v="województwo małopolskie"/>
    <tag k="name" v="Nowy Sącz"/>
    <tag k="place" v="town"/>
    <tag k="population" v="84492"/>
    <tag k="postal_code" v="33-300"/>
    <tag k="source:population" v="wikipedia"/>
    <tag k="teryt:rm" v="96"/>
    <tag k="teryt:simc" v="0959435"/>
    <tag k="teryt:stan_na" v="2009-01-01"/>
    <tag k="teryt:terc" v="1262011"/>
    <tag k="teryt:updated_by" v="teryt2osm combine.py v. 47M"/>
    <tag k="wikipedia" v="Nowy Sącz"/>
  </node>
  <node id="46715854" version="8" timestamp="2009-05-08T18:40:10Z" uid="115021" user="Jajcuś" changeset="1120479" lat="49.6250537" lon="20.6911417">
    <tag k="addr:postcode" v="33-300"/>
    <tag k="created_by" v="Potlatch 0.7b"/>
    <tag k="is_in" v="województwo małopolskie, Poland"/>
    <tag k="is_in:country" v="Poland"/>
    <tag k="is_in:county" v="powiat m. Nowy Sącz"/>
    <tag k="is_in:municipality" v="gmina m. Nowy Sącz"/>
    <tag k="is_in:province" v="województwo małopolskie"/>
    <tag k="name" v="Nowy Sącz"/>
    <tag k="place" v="town"/>
    <tag k="population" v="84492"/>
    <tag k="postal_code" v="33-300"/>
    <tag k="source:population" v="wikipedia"/>
    <tag k="teryt:rm" v="96"/>
    <tag k="teryt:simc" v="0959435"/>
    <tag k="teryt:stan_na" v="2009-01-01"/>
    <tag k="teryt:terc" v="1262011"/>
    <tag k="teryt:updated_by" v="teryt2osm combine.py v. 49"/>
    <tag k="wikipedia" v="Nowy Sącz"/>
  </node>
  <node id="46715854" version="9" timestamp="2009-08-13T12:13:16Z" uid="9475" user="Slawek Maderak" changeset="2130651" lat="49.6250537" lon="20.6911417">
    <tag k="addr:postcode" v="33-300"/>
    <tag k="is_in" v="województwo małopolskie, Poland"/>
    <tag k="is_in:country" v="Poland"/>
    <tag k="is_in:county" v="powiat m. Nowy Sącz"/>
    <tag k="is_in:municipality" v="gmina m. Nowy Sącz"/>
    <tag k="is_in:province" v="województwo małopolskie"/>
    <tag k="name" v="Nowy Sącz"/>
    <tag k="place" v="city"/>
    <tag k="population" v="84492"/>
    <tag k="postal_code" v="33-300"/>
    <tag k="source:population" v="wikipedia"/>
    <tag k="teryt:rm" v="96"/>
    <tag k="teryt:simc" v="0959435"/>
    <tag k="teryt:stan_na" v="2009-01-01"/>
    <tag k="teryt:terc" v="1262011"/>
    <tag k="teryt:updated_by" v="teryt2osm combine.py v. 49"/>
    <tag k="wikipedia" v="Nowy Sącz"/>
  </node>
  <node id="46715854" version="10" timestamp="2009-09-12T15:00:49Z" uid="91056" user="Yarl" changeset="2458843" lat="49.6257052" lon="20.6924651">
    <tag k="addr:postcode" v="33-300"/>
    <tag k="is_in" v="województwo małopolskie, Poland"/>
    <tag k="is_in:country" v="Poland"/>
    <tag k="is_in:county" v="powiat m. Nowy Sącz"/>
    <tag k="is_in:municipality" v="gmina m. Nowy Sącz"/>
    <tag k="is_in:province" v="województwo małopolskie"/>
    <tag k="name" v="Nowy Sącz"/>
    <tag k="place" v="city"/>
    <tag k="population" v="84492"/>
    <tag k="postal_code" v="33-300"/>
    <tag k="source:population" v="wikipedia"/>
    <tag k="teryt:rm" v="96"/>
    <tag k="teryt:simc" v="0959435"/>
    <tag k="teryt:stan_na" v="2009-01-01"/>
    <tag k="teryt:terc" v="1262011"/>
    <tag k="teryt:updated_by" v="teryt2osm combine.py v. 49"/>
    <tag k="wikipedia" v="Nowy Sącz"/>
  </node>
  <node id="46715854" version="11" timestamp="2009-10-28T12:19:33Z" uid="190732" user="pablokey" changeset="2972762" lat="49.625706" lon="20.6924819">
    <tag k="addr:postcode" v="33-300"/>
    <tag k="is_in" v="województwo małopolskie, Poland"/>
    <tag k="is_in:country" v="Poland"/>
    <tag k="is_in:county" v="powiat m. Nowy Sącz"/>
    <tag k="is_in:municipality" v="gmina m. Nowy Sącz"/>
    <tag k="is_in:province" v="województwo małopolskie"/>
    <tag k="name" v="Nowy Sącz"/>
    <tag k="place" v="city"/>
    <tag k="population" v="84492"/>
    <tag k="postal_code" v="33-300"/>
    <tag k="source:population" v="wikipedia"/>
    <tag k="teryt:rm" v="96"/>
    <tag k="teryt:simc" v="0959435"/>
    <tag k="teryt:stan_na" v="2009-01-01"/>
    <tag k="teryt:terc" v="1262011"/>
    <tag k="teryt:updated_by" v="teryt2osm combine.py v. 49"/>
    <tag k="wikipedia" v="Nowy Sącz"/>
  </node>
  <node id="46715854" version="12" timestamp="2010-02-09T19:54:02Z" uid="166445" user="GranD" changeset="3835338" lat="49.625706" lon="20.6924819">
    <tag k="addr:postcode" v="33-300"/>
    <tag k="is_in" v="województwo małopolskie, Poland"/>
    <tag k="is_in:country" v="Poland"/>
    <tag k="is_in:county" v="powiat m. Nowy Sącz"/>
    <tag k="is_in:municipality" v="gmina m. Nowy Sącz"/>
    <tag k="is_in:province" v="województwo małopolskie"/>
    <tag k="name" v="Nowy Sącz"/>
    <tag k="name:ru" v="Новы-Сонч"/>
    <tag k="place" v="city"/>
    <tag k="population" v="84492"/>
    <tag k="postal_code" v="33-300"/>
    <tag k="source:population" v="wikipedia"/>
    <tag k="teryt:rm" v="96"/>
    <tag k="teryt:simc" v="0959435"/>
    <tag k="teryt:stan_na" v="2009-01-01"/>
    <tag k="teryt:terc" v="1262011"/>
    <tag k="teryt:updated_by" v="teryt2osm combine.py v. 49"/>
    <tag k="wikipedia" v="Nowy Sącz"/>
  </node>
  <node id="46715854" version="13" timestamp="2010-03-26T01:45:10Z" uid="163746" user="anti_bot-nonsense" changeset="4234529" lat="49.625706" lon="20.6924819">
    <tag k="addr:postcode" v="33-300"/>
    <tag k="is_in" v="województwo małopolskie, Poland"/>
    <tag k="is_in:country" v="Poland"/>
    <tag k="is_in:county" v="powiat m. Nowy Sącz"/>
    <tag k="is_in:municipality" v="gmina m. Nowy Sącz"/>
    <tag k="is_in:province" v="województwo małopolskie"/>
    <tag k="name" v="Nowy Sącz"/>
    <tag k="name:ru" v="Новы-Сонч"/>
    <tag k="place" v="city"/>
    <tag k="population" v="84492"/>
    <tag k="postal_code" v="33-300"/>
    <tag k="source:population" v="wikipedia"/>
    <tag k="teryt:rm" v="96"/>
    <tag k="teryt:simc" v="0959435"/>
    <tag k="teryt:stan_na" v="2009-01-01"/>
    <tag k="teryt:terc" v="1262011"/>
    <tag k="wikipedia" v="Nowy Sącz"/>
  </node>
  <node id="46715854" version="14" timestamp="2010-04-11T04:37:32Z" uid="20587" user="balrog-kun" changeset="4389130" lat="49.6208794" lon="20.6953227">
    <tag k="addr:postcode" v="33-300"/>
    <tag k="is_in" v="województwo małopolskie, Poland"/>
    <tag k="is_in:country" v="Poland"/>
    <tag k="is_in:county" v="powiat m. Nowy Sącz"/>
    <tag k="is_in:municipality" v="gmina m. Nowy Sącz"/>
    <tag k="is_in:province" v="województwo małopolskie"/>
    <tag k="name" v="Nowy Sącz"/>
    <tag k="name:ru" v="Новы-Сонч"/>
    <tag k="place" v="city"/>
    <tag k="population" v="84492"/>
    <tag k="postal_code" v="33-300"/>
    <tag k="source:population" v="wikipedia"/>
    <tag k="teryt:rm" v="96"/>
    <tag k="teryt:simc" v="0959435"/>
    <tag k="teryt:stan_na" v="2009-01-01"/>
    <tag k="teryt:terc" v="1262011"/>
    <tag k="wikipedia" v="Nowy Sącz"/>
  </node>
  <node id="46715854" version="15" timestamp="2010-08-24T14:01:39Z" uid="335195" user="Rapidografek" changeset="5580181" lat="49.6249652" lon="20.6910316">
    <tag k="addr:postcode" v="33-300"/>
    <tag k="is_in" v="województwo małopolskie, Poland"/>
    <tag k="is_in:country" v="Poland"/>
    <tag k="is_in:county" v="powiat m. Nowy Sącz"/>
    <tag k="is_in:municipality" v="gmina m. Nowy Sącz"/>
    <tag k="is_in:province" v="województwo małopolskie"/>
    <tag k="name" v="Nowy Sącz"/>
    <tag k="name:ru" v="Новы-Сонч"/>
    <tag k="place" v="city"/>
    <tag k="population" v="84492"/>
    <tag k="postal_code" v="33-300"/>
    <tag k="source:population" v="wikipedia"/>
    <tag k="teryt:rm" v="96"/>
    <tag k="teryt:simc" v="0959435"/>
    <tag k="teryt:stan_na" v="2009-01-01"/>
    <tag k="teryt:terc" v="1262011"/>
    <tag k="wikipedia" v="Nowy Sącz"/>
  </node>
  <node id="46715854" version="16" timestamp="2010-08-27T08:50:58Z" uid="335195" user="Rapidografek" changeset="5605614" lat="49.6249089" lon="20.6909754">
    <tag k="addr:postcode" v="33-300"/>
    <tag k="is_in" v="województwo małopolskie, Poland"/>
    <tag k="is_in:country" v="Poland"/>
    <tag k="is_in:county" v="powiat m. Nowy Sącz"/>
    <tag k="is_in:municipality" v="gmina m. Nowy Sącz"/>
    <tag k="is_in:province" v="województwo małopolskie"/>
    <tag k="name" v="Nowy Sącz"/>
    <tag k="name:ru" v="Новы-Сонч"/>
    <tag k="place" v="city"/>
    <tag k="population" v="84492"/>
    <tag k="postal_code" v="33-300"/>
    <tag k="source:population" v="wikipedia"/>
    <tag k="teryt:rm" v="96"/>
    <tag k="teryt:simc" v="0959435"/>
    <tag k="teryt:stan_na" v="2009-01-01"/>
    <tag k="teryt:terc" v="1262011"/>
    <tag k="wikipedia" v="Nowy Sącz"/>
  </node>
  <node id="46715854" version="17" timestamp="2010-10-24T00:45:33Z" uid="152074" user="beweta" changeset="6152826" lat="49.6249089" lon="20.6909754">
    <tag k="addr:postcode" v="33-300"/>
    <tag k="is_in" v="województwo małopolskie, Poland"/>
    <tag k="is_in:country" v="Poland"/>
    <tag k="is_in:county" v="powiat m. Nowy Sącz"/>
    <tag k="is_in:municipality" v="gmina m. Nowy Sącz"/>
    <tag k="is_in:province" v="województwo małopolskie"/>
    <tag k="name" v="Nowy Sącz"/>
    <tag k="name:de" v="Neu Sandez"/>
    <tag k="name:hu" v="Újszandec"/>
    <tag k="name:lv" v="Novi Sonča"/>
    <tag k="name:ru" v="Новы-Сонч"/>
    <tag k="old_name:de" v="Neu Sandec"/>
    <tag k="place" v="city"/>
    <tag k="population" v="84492"/>
    <tag k="postal_code" v="33-300"/>
    <tag k="source:population" v="wikipedia"/>
    <tag k="teryt:rm" v="96"/>
    <tag k="teryt:simc" v="0959435"/>
    <tag k="teryt:stan_na" v="2009-01-01"/>
    <tag k="teryt:terc" v="1262011"/>
    <tag k="wikipedia" v="Nowy Sącz"/>
  </node>
  <node id="46719085" version="2" timestamp="2008-07-13T18:32:03Z" uid="6975" user="ulfl" changeset="478415" lat="49.4759388" lon="11.1310377">
    <tag k="created_by" v="JOSM"/>
    <tag k="highway" v="footway"/>
  </node>
  <node id="46719117" version="4" timestamp="2009-05-04T15:49:21Z" uid="10712" user="Kraeml" changeset="1076273" lat="49.474576" lon="11.1344083">
    <tag k="created_by" v="JOSM"/>
  </node>
  <node id="46719117" version="5" timestamp="2009-05-05T10:53:30Z" uid="41113" user="cycling_zno" changeset="1085200" lat="49.4748844" lon="11.1344625">
    <tag k="created_by" v="JOSM"/>
  </node>
  <node id="46719117" version="6" timestamp="2010-03-28T15:21:32Z" uid="70581" user="rsl" changeset="4257915" lat="49.4749523" lon="11.1342992"/>
  <node id="46719117" version="7" timestamp="2011-11-29T11:00:45Z" uid="71557" user="Taroc" changeset="9986497" lat="49.4749523" lon="11.1342992"/>
  <node id="46719121" version="2" timestamp="2009-05-04T15:49:21Z" uid="10712" user="Kraeml" changeset="1076273" lat="49.4751785" lon="11.1345261">
    <tag k="created_by" v="JOSM"/>
  </node>
  <node id="46719121" version="3" timestamp="2010-03-28T15:21:32Z" uid="70581" user="rsl" changeset="4257915" lat="49.4753525" lon="11.1343824"/>
  <node id="46719121" version="4" timestamp="2010-04-10T14:44:31Z" uid="70581" user="rsl" changeset="4383123" lat="49.4756495" lon="11.1344459"/>
  <node id="46719121" version="5" timestamp="2011-11-29T11:00:45Z" uid="71557" user="Taroc" changeset="9986497" lat="49.4756495" lon="11.1344459"/>
  <node id="46719145" version="2" timestamp="2009-05-04T15:49:21Z" uid="10712" user="Kraeml" changeset="1076273" lat="49.4760696" lon="11.134908">
    <tag k="created_by" v="JOSM"/>
  </node>
  <node id="46719145" version="3" timestamp="2010-03-28T15:21:32Z" uid="70581" user="rsl" changeset="4257915" lat="49.4763582" lon="11.1347969"/>
  <node id="46719145" version="4" timestamp="2011-11-29T11:00:46Z" uid="71557" user="Taroc" changeset="9986497" lat="49.4763582" lon="11.1347969"/>
  <node id="46719150" version="2" timestamp="2009-05-04T15:49:21Z" uid="10712" user="Kraeml" changeset="1076273" lat="49.4767464" lon="11.134474">
    <tag k="created_by" v="JOSM"/>
  </node>
  <node id="46719150" version="3" timestamp="2010-03-28T15:21:32Z" uid="70581" user="rsl" changeset="4257915" lat="49.4770435" lon="11.1344087"/>
  <node id="46719150" version="4" timestamp="2011-11-29T11:00:46Z" uid="71557" user="Taroc" changeset="9986497" lat="49.4770435" lon="11.1344087"/>
</osm>
