<?xml version='1.0' encoding='UTF-8'?>
<osm version="0.6" generator="libosmium/2.20.0">
  <node id="468443115" version="2" timestamp="2009-09-30T13:35:46Z" uid="36809" user="pfoten_weg_!_" changeset="2688655" lat="48.279332" lon="11.196237">
    <tag k="power" v="tower"/>
    <tag k="ref" v="4117"/>
  </node>
  <node id="468443115" version="3" timestamp="2009-10-10T08:35:45Z" uid="13203" user="bahnpirat" changeset="2801107" lat="48.279332" lon="11.196237">
    <tag k="power" v="tower"/>
    <tag k="ref" v="4117"/>
    <tag k="source" v="interpolation"/>
  </node>
  <node id="468443123" version="2" timestamp="2009-09-30T13:35:45Z" uid="36809" user="pfoten_weg_!_" changeset="2688655" lat="48.2815325" lon="11.1904393">
    <tag k="power" v="tower"/>
    <tag k="ref" v="4119"/>
  </node>
  <node id="468443123" version="3" timestamp="2009-10-10T08:35:45Z" uid="13203" user="bahnpirat" changeset="2801107" lat="48.2815325" lon="11.1904393">
    <tag k="power" v="tower"/>
    <tag k="ref" v="4119"/>
    <tag k="source" v="survey"/>
  </node>
  <node id="468443129" version="2" timestamp="2009-09-30T13:35:45Z" uid="36809" user="pfoten_weg_!_" changeset="2688655" lat="48.2804216" lon="11.193353">
    <tag k="power" v="tower"/>
    <tag k="ref" v="4118"/>
  </node>
  <node id="468443129" version="3" timestamp="2009-10-10T08:35:45Z" uid="13203" user="bahnpirat" changeset="2801107" lat="48.2804216" lon="11.193353">
    <tag k="power" v="tower"/>
    <tag k="ref" v="4118"/>
    <tag k="source" v="survey"/>
  </node>
  <node id="468446034" version="2" timestamp="2010-09-26T09:28:43Z" uid="33382" user="de_muur" changeset="5878610" lat="53.1373714" lon="9.1491537"/>
  <node id="468446053" version="2" timestamp="2010-08-02T14:23:30Z" uid="33382" user="de_muur" changeset="5381153" lat="53.1550192" lon="9.1868182"/>
</osm>
