<?xml version='1.0' encoding='UTF-8'?>
<osm version="0.6" generator="libosmium/2.20.0">
  <node id="468757971" version="2" timestamp="2010-02-22T00:41:49Z" uid="30201" user="rrankin" changeset="3940331" lat="-34.3891063" lon="150.894186">
    <tag k="amenity" v="fuel"/>
    <tag k="name" v="Caltex"/>
    <tag k="source" v="survey"/>
  </node>
  <node id="468757974" version="2" timestamp="2009-12-14T17:06:24Z" uid="74617" user="JohnSmith" changeset="3373323" lat="-34.3744045" lon="150.8965937">
    <tag k="amenity" v="fuel"/>
    <tag k="operator" v="Shell"/>
    <tag k="source" v="survey"/>
  </node>
  <node id="468757974" version="3" timestamp="2010-02-06T11:10:55Z" uid="18775" user="drlizau" changeset="3804076" lat="-34.3744045" lon="150.896594">
    <tag k="amenity" v="fuel"/>
    <tag k="fuel:discount" v="coles"/>
    <tag k="name" v="Coles Express Corrimal"/>
    <tag k="operator" v="Shell"/>
    <tag k="source" v="survey;colesexpress.com.au"/>
    <tag k="source:location" v="survey"/>
  </node>
  <node id="468757974" version="4" timestamp="2011-03-17T22:38:39Z" uid="181013" user="Zhent" changeset="7590826" lat="-34.3744645" lon="150.8963389">
    <tag k="amenity" v="fuel"/>
    <tag k="fuel:discount" v="coles"/>
    <tag k="name" v="Coles Express Corrimal"/>
    <tag k="operator" v="Shell"/>
    <tag k="source" v="survey;colesexpress.com.au"/>
    <tag k="source:location" v="survey"/>
  </node>
</osm>
