<?xml version='1.0' encoding='UTF-8'?>
<osm version="0.6" generator="libosmium/2.20.0">
  <node id="469285224" version="4" timestamp="2010-09-01T23:56:49Z" uid="6975" user="ulfl" changeset="5658436" lat="44.8868995" lon="5.1582683">
    <tag k="ele" v="1086"/>
    <tag k="mountain_pass" v="yes"/>
    <tag k="name" v="Col des Limouches"/>
    <tag k="wikipedia" v="http://fr.wikipedia.org/wiki/Col_des_Limouches"/>
  </node>
  <node id="469285224" version="5" timestamp="2011-08-02T12:23:10Z" uid="200426" user="gottferdom" changeset="8900293" lat="44.8868995" lon="5.1582683">
    <tag k="ele" v="1086"/>
    <tag k="mountain_pass" v="yes"/>
    <tag k="name" v="Col des Limouches"/>
    <tag k="wikipedia" v="fr:Col des Limouches"/>
  </node>
  <node id="469287558" version="3" timestamp="2009-08-18T16:37:56Z" uid="20587" user="balrog-kun" changeset="2192016" lat="51.2362713" lon="7.1689035"/>
  <node id="469287558" version="4" timestamp="2009-08-18T20:12:57Z" uid="20587" user="balrog-kun" changeset="2194870" lat="51.2362713" lon="7.1689035"/>
</osm>
