<?xml version='1.0' encoding='UTF-8'?>
<osm version="0.6" generator="libosmium/2.20.0">
  <node id="470071588" version="1" timestamp="2009-08-17T22:38:49Z" uid="18775" user="drlizau" changeset="2184161" lat="-35.1199639" lon="147.3620354"/>
  <node id="470071588" version="2" timestamp="2010-07-22T11:22:21Z" uid="74617" user="JohnSmith" changeset="5286397" lat="-35.120054" lon="147.3621961"/>
  <node id="470071588" version="3" timestamp="2011-09-17T07:38:16Z" uid="328538" user="o&apos;cholio" changeset="9321605" lat="-35.1200463" lon="147.3621914"/>
  <node id="470079433" version="1" timestamp="2009-08-17T23:01:32Z" uid="36809" user="pfoten_weg_!_" changeset="2184262" lat="46.4959434" lon="11.4648144">
    <tag k="addr:city" v="Fié allo Sciliar"/>
    <tag k="addr:country" v="IT"/>
    <tag k="addr:housename" v="Ferienhaus"/>
    <tag k="addr:housenumber" v="10"/>
    <tag k="addr:postcode" v="39050"/>
    <tag k="addr:street" v="Aica di Sotto"/>
    <tag k="discovered_by" v="RambaZamba"/>
    <tag k="name" v="Prackfolerhof"/>
    <tag k="source" v="survey"/>
  </node>
  <node id="470079433" version="2" timestamp="2009-08-17T23:40:21Z" uid="36809" user="pfoten_weg_!_" changeset="2184395" lat="46.4959434" lon="11.4648144">
    <tag k="addr:city" v="Fié allo Sciliar"/>
    <tag k="addr:country" v="IT"/>
    <tag k="addr:housename" v="Ferienhaus"/>
    <tag k="addr:housenumber" v="10"/>
    <tag k="addr:postcode" v="39050"/>
    <tag k="addr:street" v="Aica di Sotto"/>
    <tag k="discovered_by" v="RambaZamba"/>
    <tag k="name" v="Prackfolerhof"/>
    <tag k="source" v="survey"/>
  </node>
  <node id="470079444" version="1" timestamp="2009-08-17T23:01:33Z" uid="36809" user="pfoten_weg_!_" changeset="2184262" lat="46.4963084" lon="11.4614321">
    <tag k="addr:city" v="Fié allo Sciliar"/>
    <tag k="addr:country" v="IT"/>
    <tag k="addr:housename" v="Ferienhaus"/>
    <tag k="addr:housenumber" v="9"/>
    <tag k="addr:postcode" v="39050"/>
    <tag k="addr:street" v="Aica di Sotto"/>
    <tag k="discovered_by" v="RambaZamba"/>
    <tag k="name" v="Gemoanerhof"/>
    <tag k="source" v="survey"/>
  </node>
  <node id="470079444" version="2" timestamp="2009-08-17T23:40:21Z" uid="36809" user="pfoten_weg_!_" changeset="2184395" lat="46.4963084" lon="11.4614321">
    <tag k="addr:city" v="Fié allo Sciliar"/>
    <tag k="addr:country" v="IT"/>
    <tag k="addr:housename" v="Ferienhaus"/>
    <tag k="addr:housenumber" v="9"/>
    <tag k="addr:postcode" v="39050"/>
    <tag k="addr:street" v="Aica di Sotto"/>
    <tag k="discovered_by" v="RambaZamba"/>
    <tag k="name" v="Gemoanerhof"/>
    <tag k="source" v="survey"/>
  </node>
  <node id="470079469" version="1" timestamp="2009-08-17T23:01:33Z" uid="36809" user="pfoten_weg_!_" changeset="2184262" lat="46.498821" lon="11.465135">
    <tag k="addr:city" v="Fié allo Sciliar"/>
    <tag k="addr:country" v="IT"/>
    <tag k="addr:housename" v="Ferienhaus"/>
    <tag k="addr:housenumber" v="8"/>
    <tag k="addr:postcode" v="39050"/>
    <tag k="addr:street" v="Aica di Sotto"/>
    <tag k="discovered_by" v="RambaZamba"/>
    <tag k="name" v="Tommelehof"/>
    <tag k="source" v="survey"/>
  </node>
  <node id="470079469" version="2" timestamp="2009-08-17T23:40:21Z" uid="36809" user="pfoten_weg_!_" changeset="2184395" lat="46.498821" lon="11.465135">
    <tag k="addr:city" v="Fié allo Sciliar"/>
    <tag k="addr:country" v="IT"/>
    <tag k="addr:housename" v="Ferienhaus"/>
    <tag k="addr:housenumber" v="8"/>
    <tag k="addr:postcode" v="39050"/>
    <tag k="addr:street" v="Aica di Sotto"/>
    <tag k="discovered_by" v="RambaZamba"/>
    <tag k="name" v="Tommelehof"/>
    <tag k="source" v="survey"/>
  </node>
</osm>
