<?xml version='1.0' encoding='UTF-8'?>
<osm version="0.6" generator="libosmium/2.20.0">
  <node id="470272687" version="2" timestamp="2010-08-29T19:43:52Z" uid="9581" user="Lobelt" changeset="5629984" lat="49.6785045" lon="8.4357104"/>
  <node id="470272687" version="3" timestamp="2012-03-04T17:05:02Z" uid="55687" user="dschuwa" changeset="10870944" lat="49.6785045" lon="8.4357104"/>
  <node id="470277068" version="2" timestamp="2010-07-28T20:06:15Z" uid="74617" user="JohnSmith" changeset="5339329" lat="48.7953647" lon="11.5466046">
    <tag k="emergency" v="fire_hydrant"/>
  </node>
  <node id="470277068" version="3" timestamp="2010-07-30T17:44:36Z" uid="74617" user="JohnSmith" changeset="5356742" lat="48.7953647" lon="11.5466046">
    <tag k="amenity" v="fire_hydrant"/>
    <tag k="emergency" v="fire_hydrant"/>
  </node>
  <node id="470277068" version="4" timestamp="2010-10-12T15:43:41Z" uid="26348" user="Rodolphe Quiédeville" changeset="6022071" lat="48.7953647" lon="11.5466046">
    <tag k="emergency" v="fire_hydrant"/>
  </node>
  <node id="470277068" version="5" timestamp="2010-10-19T08:57:53Z" uid="26348" user="Rodolphe Quiédeville" changeset="6094728" lat="48.7953647" lon="11.5466046">
    <tag k="amenity" v="fire_hydrant"/>
    <tag k="emergency" v="fire_hydrant"/>
  </node>
  <node id="470277068" version="6" timestamp="2012-03-27T18:26:28Z" uid="67540" user="Cobra" changeset="11118954" lat="48.7953647" lon="11.5466046">
    <tag k="amenity" v="fire_hydrant"/>
    <tag k="emergency" v="fire_hydrant"/>
    <tag k="odbl" v="clean"/>
  </node>
  <node id="470277147" version="2" timestamp="2009-08-26T09:57:19Z" uid="36809" user="pfoten_weg_!_" changeset="2265457" lat="48.1129946" lon="11.5199564">
    <tag k="amenity" v="restaurant"/>
    <tag k="name" v="Wöllinger"/>
  </node>
  <node id="470277147" version="3" timestamp="2010-07-16T19:38:09Z" uid="30579" user="Tiramisu" changeset="5237376" lat="48.1129946" lon="11.5199563">
    <tag k="addr:city" v="München"/>
    <tag k="addr:housenumber" v="112"/>
    <tag k="addr:postcode" v="81369"/>
    <tag k="addr:street" v="Johann-Clanze-Straße"/>
    <tag k="amenity" v="restaurant"/>
    <tag k="cuisine" v="bavarian"/>
    <tag k="name" v="Wöllinger"/>
    <tag k="phone" v="089  71 44 651"/>
    <tag k="website" v="http://www.woellinger.com"/>
  </node>
  <node id="470277147" version="4" timestamp="2010-11-15T13:56:38Z" uid="65148" user="tixuwuoz" changeset="6377564" lat="48.1129946" lon="11.5199563">
    <tag k="addr:city" v="München"/>
    <tag k="addr:country" v="DE"/>
    <tag k="addr:housenumber" v="112"/>
    <tag k="addr:postcode" v="81369"/>
    <tag k="addr:street" v="Johann-Clanze-Straße"/>
    <tag k="amenity" v="restaurant"/>
    <tag k="cuisine" v="bavarian"/>
    <tag k="name" v="Wöllinger"/>
    <tag k="phone" v="089  71 44 651"/>
    <tag k="website" v="http://www.woellinger.com"/>
  </node>
  <node id="470277147" version="5" timestamp="2011-08-13T12:19:02Z" uid="8703" user="rolandg" changeset="9005009" lat="48.1130295" lon="11.5198656">
    <tag k="addr:city" v="München"/>
    <tag k="addr:country" v="DE"/>
    <tag k="addr:housenumber" v="112"/>
    <tag k="addr:postcode" v="81369"/>
    <tag k="addr:street" v="Johann-Clanze-Straße"/>
    <tag k="amenity" v="restaurant"/>
    <tag k="cuisine" v="bavarian"/>
    <tag k="name" v="Wöllinger"/>
    <tag k="phone" v="089  71 44 651"/>
    <tag k="website" v="http://www.woellinger.com"/>
  </node>
  <node id="470277147" version="6" timestamp="2011-11-12T06:12:28Z" uid="290680" user="wheelmap_visitor" changeset="9801921" lat="48.1130295" lon="11.5198656">
    <tag k="addr:city" v="München"/>
    <tag k="addr:country" v="DE"/>
    <tag k="addr:housenumber" v="112"/>
    <tag k="addr:postcode" v="81369"/>
    <tag k="addr:street" v="Johann-Clanze-Straße"/>
    <tag k="amenity" v="restaurant"/>
    <tag k="cuisine" v="bavarian"/>
    <tag k="name" v="Wöllinger"/>
    <tag k="phone" v="089  71 44 651"/>
    <tag k="website" v="http://www.woellinger.com"/>
    <tag k="wheelchair" v="limited"/>
  </node>
  <node id="470277968" version="2" timestamp="2010-07-28T20:04:25Z" uid="74617" user="JohnSmith" changeset="5339329" lat="48.7975059" lon="11.5457534">
    <tag k="emergency" v="fire_hydrant"/>
  </node>
  <node id="470277968" version="3" timestamp="2010-07-30T17:39:14Z" uid="74617" user="JohnSmith" changeset="5356742" lat="48.7975059" lon="11.5457534">
    <tag k="amenity" v="fire_hydrant"/>
    <tag k="emergency" v="fire_hydrant"/>
  </node>
  <node id="470277968" version="4" timestamp="2010-10-12T15:43:46Z" uid="26348" user="Rodolphe Quiédeville" changeset="6022071" lat="48.7975059" lon="11.5457534">
    <tag k="emergency" v="fire_hydrant"/>
  </node>
  <node id="470277968" version="5" timestamp="2010-10-19T08:58:13Z" uid="26348" user="Rodolphe Quiédeville" changeset="6094728" lat="48.7975059" lon="11.5457534">
    <tag k="amenity" v="fire_hydrant"/>
    <tag k="emergency" v="fire_hydrant"/>
  </node>
  <node id="470277968" version="6" timestamp="2012-03-27T18:26:28Z" uid="67540" user="Cobra" changeset="11118954" lat="48.7975059" lon="11.5457534">
    <tag k="amenity" v="fire_hydrant"/>
    <tag k="emergency" v="fire_hydrant"/>
    <tag k="odbl" v="clean"/>
  </node>
  <node id="470278845" version="2" timestamp="2010-07-28T20:05:30Z" uid="74617" user="JohnSmith" changeset="5339329" lat="48.7962892" lon="11.7495804">
    <tag k="emergency" v="fire_hydrant"/>
    <tag k="fire_hydrant" v="pillar"/>
    <tag k="name" v="Hydrant"/>
    <tag k="source" v="survey"/>
  </node>
  <node id="470278845" version="3" timestamp="2010-07-30T17:44:12Z" uid="74617" user="JohnSmith" changeset="5356742" lat="48.7962892" lon="11.7495804">
    <tag k="amenity" v="fire_hydrant"/>
    <tag k="emergency" v="fire_hydrant"/>
    <tag k="fire_hydrant" v="pillar"/>
    <tag k="name" v="Hydrant"/>
    <tag k="source" v="survey"/>
  </node>
  <node id="470278845" version="4" timestamp="2010-10-12T15:43:38Z" uid="26348" user="Rodolphe Quiédeville" changeset="6022071" lat="48.7962892" lon="11.7495804">
    <tag k="emergency" v="fire_hydrant"/>
    <tag k="fire_hydrant" v="pillar"/>
    <tag k="name" v="Hydrant"/>
    <tag k="source" v="survey"/>
  </node>
  <node id="470278845" version="5" timestamp="2010-10-19T08:58:57Z" uid="26348" user="Rodolphe Quiédeville" changeset="6094728" lat="48.7962892" lon="11.7495804">
    <tag k="amenity" v="fire_hydrant"/>
    <tag k="emergency" v="fire_hydrant"/>
    <tag k="fire_hydrant" v="pillar"/>
    <tag k="name" v="Hydrant"/>
    <tag k="source" v="survey"/>
  </node>
  <node id="470278845" version="6" timestamp="2012-03-27T18:23:36Z" uid="67540" user="Cobra" changeset="11118954" lat="48.7962892" lon="11.7495804">
    <tag k="amenity" v="fire_hydrant"/>
    <tag k="emergency" v="fire_hydrant"/>
    <tag k="fire_hydrant" v="pillar"/>
    <tag k="name" v="Hydrant"/>
    <tag k="odbl" v="clean"/>
    <tag k="source" v="survey"/>
  </node>
  <node id="470278848" version="2" timestamp="2010-07-28T20:01:44Z" uid="74617" user="JohnSmith" changeset="5339329" lat="48.7961199" lon="11.7486111">
    <tag k="emergency" v="fire_hydrant"/>
    <tag k="fire_hydrant" v="pillar"/>
    <tag k="name" v="Hydrant"/>
    <tag k="source" v="survey"/>
  </node>
  <node id="470278848" version="3" timestamp="2010-07-30T17:40:56Z" uid="74617" user="JohnSmith" changeset="5356742" lat="48.7961199" lon="11.7486111">
    <tag k="amenity" v="fire_hydrant"/>
    <tag k="emergency" v="fire_hydrant"/>
    <tag k="fire_hydrant" v="pillar"/>
    <tag k="name" v="Hydrant"/>
    <tag k="source" v="survey"/>
  </node>
  <node id="470278848" version="4" timestamp="2010-10-12T15:43:31Z" uid="26348" user="Rodolphe Quiédeville" changeset="6022071" lat="48.7961199" lon="11.7486111">
    <tag k="emergency" v="fire_hydrant"/>
    <tag k="fire_hydrant" v="pillar"/>
    <tag k="name" v="Hydrant"/>
    <tag k="source" v="survey"/>
  </node>
  <node id="470278848" version="5" timestamp="2010-10-19T08:57:57Z" uid="26348" user="Rodolphe Quiédeville" changeset="6094728" lat="48.7961199" lon="11.7486111">
    <tag k="amenity" v="fire_hydrant"/>
    <tag k="emergency" v="fire_hydrant"/>
    <tag k="fire_hydrant" v="pillar"/>
    <tag k="name" v="Hydrant"/>
    <tag k="source" v="survey"/>
  </node>
  <node id="470278848" version="6" timestamp="2012-03-27T18:23:36Z" uid="67540" user="Cobra" changeset="11118954" lat="48.7961199" lon="11.7486111">
    <tag k="amenity" v="fire_hydrant"/>
    <tag k="emergency" v="fire_hydrant"/>
    <tag k="fire_hydrant" v="pillar"/>
    <tag k="name" v="Hydrant"/>
    <tag k="odbl" v="clean"/>
    <tag k="source" v="survey"/>
  </node>
  <node id="470278849" version="2" timestamp="2010-07-28T20:06:16Z" uid="74617" user="JohnSmith" changeset="5339329" lat="48.7933705" lon="11.7476698">
    <tag k="emergency" v="fire_hydrant"/>
    <tag k="fire_hydrant" v="pillar"/>
    <tag k="name" v="Hydrant"/>
    <tag k="source" v="survey"/>
  </node>
  <node id="470278849" version="3" timestamp="2010-07-30T17:48:07Z" uid="74617" user="JohnSmith" changeset="5356742" lat="48.7933705" lon="11.7476698">
    <tag k="amenity" v="fire_hydrant"/>
    <tag k="emergency" v="fire_hydrant"/>
    <tag k="fire_hydrant" v="pillar"/>
    <tag k="name" v="Hydrant"/>
    <tag k="source" v="survey"/>
  </node>
  <node id="470278849" version="4" timestamp="2010-10-12T15:43:45Z" uid="26348" user="Rodolphe Quiédeville" changeset="6022071" lat="48.7933705" lon="11.7476698">
    <tag k="emergency" v="fire_hydrant"/>
    <tag k="fire_hydrant" v="pillar"/>
    <tag k="name" v="Hydrant"/>
    <tag k="source" v="survey"/>
  </node>
  <node id="470278849" version="5" timestamp="2010-10-19T08:58:30Z" uid="26348" user="Rodolphe Quiédeville" changeset="6094728" lat="48.7933705" lon="11.7476698">
    <tag k="amenity" v="fire_hydrant"/>
    <tag k="emergency" v="fire_hydrant"/>
    <tag k="fire_hydrant" v="pillar"/>
    <tag k="name" v="Hydrant"/>
    <tag k="source" v="survey"/>
  </node>
  <node id="470278849" version="6" timestamp="2012-03-27T18:23:35Z" uid="67540" user="Cobra" changeset="11118954" lat="48.7933705" lon="11.7476698">
    <tag k="amenity" v="fire_hydrant"/>
    <tag k="emergency" v="fire_hydrant"/>
    <tag k="fire_hydrant" v="pillar"/>
    <tag k="name" v="Hydrant"/>
    <tag k="odbl" v="clean"/>
    <tag k="source" v="survey"/>
  </node>
  <node id="470278850" version="2" timestamp="2010-07-28T20:04:42Z" uid="74617" user="JohnSmith" changeset="5339329" lat="48.7926592" lon="11.7470479">
    <tag k="emergency" v="fire_hydrant"/>
    <tag k="fire_hydrant" v="pillar"/>
    <tag k="name" v="Löschwassersaugstelle"/>
    <tag k="source" v="survey"/>
  </node>
  <node id="470278850" version="3" timestamp="2010-07-30T17:43:35Z" uid="74617" user="JohnSmith" changeset="5356742" lat="48.7926592" lon="11.7470479">
    <tag k="amenity" v="fire_hydrant"/>
    <tag k="emergency" v="fire_hydrant"/>
    <tag k="fire_hydrant" v="pillar"/>
    <tag k="name" v="Löschwassersaugstelle"/>
    <tag k="source" v="survey"/>
  </node>
  <node id="470278850" version="4" timestamp="2010-10-12T15:43:33Z" uid="26348" user="Rodolphe Quiédeville" changeset="6022071" lat="48.7926592" lon="11.7470479">
    <tag k="emergency" v="fire_hydrant"/>
    <tag k="fire_hydrant" v="pillar"/>
    <tag k="name" v="Löschwassersaugstelle"/>
    <tag k="source" v="survey"/>
  </node>
  <node id="470278850" version="5" timestamp="2010-10-19T08:58:55Z" uid="26348" user="Rodolphe Quiédeville" changeset="6094728" lat="48.7926592" lon="11.7470479">
    <tag k="amenity" v="fire_hydrant"/>
    <tag k="emergency" v="fire_hydrant"/>
    <tag k="fire_hydrant" v="pillar"/>
    <tag k="name" v="Löschwassersaugstelle"/>
    <tag k="source" v="survey"/>
  </node>
  <node id="470278850" version="6" timestamp="2012-03-27T18:23:46Z" uid="67540" user="Cobra" changeset="11118954" lat="48.7926592" lon="11.7470479">
    <tag k="amenity" v="fire_hydrant"/>
    <tag k="emergency" v="fire_hydrant"/>
    <tag k="fire_hydrant" v="pillar"/>
    <tag k="name" v="Löschwassersaugstelle"/>
    <tag k="odbl" v="clean"/>
    <tag k="source" v="survey"/>
  </node>
  <node id="470278852" version="2" timestamp="2010-07-28T20:07:05Z" uid="74617" user="JohnSmith" changeset="5339329" lat="48.7926749" lon="11.7470645">
    <tag k="emergency" v="fire_hydrant"/>
    <tag k="fire_hydrant" v="pillar"/>
    <tag k="name" v="Löschwassersaugstelle"/>
    <tag k="source" v="survey"/>
  </node>
  <node id="470278852" version="3" timestamp="2010-07-30T17:47:04Z" uid="74617" user="JohnSmith" changeset="5356742" lat="48.7926749" lon="11.7470645">
    <tag k="amenity" v="fire_hydrant"/>
    <tag k="emergency" v="fire_hydrant"/>
    <tag k="fire_hydrant" v="pillar"/>
    <tag k="name" v="Löschwassersaugstelle"/>
    <tag k="source" v="survey"/>
  </node>
  <node id="470278852" version="4" timestamp="2010-10-12T15:43:51Z" uid="26348" user="Rodolphe Quiédeville" changeset="6022071" lat="48.7926749" lon="11.7470645">
    <tag k="emergency" v="fire_hydrant"/>
    <tag k="fire_hydrant" v="pillar"/>
    <tag k="name" v="Löschwassersaugstelle"/>
    <tag k="source" v="survey"/>
  </node>
  <node id="470278852" version="5" timestamp="2010-10-19T08:57:37Z" uid="26348" user="Rodolphe Quiédeville" changeset="6094728" lat="48.7926749" lon="11.7470645">
    <tag k="amenity" v="fire_hydrant"/>
    <tag k="emergency" v="fire_hydrant"/>
    <tag k="fire_hydrant" v="pillar"/>
    <tag k="name" v="Löschwassersaugstelle"/>
    <tag k="source" v="survey"/>
  </node>
  <node id="470278852" version="6" timestamp="2012-03-27T18:23:47Z" uid="67540" user="Cobra" changeset="11118954" lat="48.7926749" lon="11.7470645">
    <tag k="amenity" v="fire_hydrant"/>
    <tag k="emergency" v="fire_hydrant"/>
    <tag k="fire_hydrant" v="pillar"/>
    <tag k="name" v="Löschwassersaugstelle"/>
    <tag k="odbl" v="clean"/>
    <tag k="source" v="survey"/>
  </node>
  <node id="470278853" version="2" timestamp="2010-07-28T20:11:37Z" uid="74617" user="JohnSmith" changeset="5339329" lat="48.7929468" lon="11.7422892">
    <tag k="emergency" v="fire_hydrant"/>
    <tag k="fire_hydrant" v="pillar"/>
    <tag k="name" v="Hydrant"/>
    <tag k="source" v="survey"/>
  </node>
  <node id="470278853" version="3" timestamp="2010-07-30T17:42:52Z" uid="74617" user="JohnSmith" changeset="5356742" lat="48.7929468" lon="11.7422892">
    <tag k="amenity" v="fire_hydrant"/>
    <tag k="emergency" v="fire_hydrant"/>
    <tag k="fire_hydrant" v="pillar"/>
    <tag k="name" v="Hydrant"/>
    <tag k="source" v="survey"/>
  </node>
  <node id="470278853" version="4" timestamp="2010-10-12T15:43:41Z" uid="26348" user="Rodolphe Quiédeville" changeset="6022071" lat="48.7929468" lon="11.7422892">
    <tag k="emergency" v="fire_hydrant"/>
    <tag k="fire_hydrant" v="pillar"/>
    <tag k="name" v="Hydrant"/>
    <tag k="source" v="survey"/>
  </node>
  <node id="470278853" version="5" timestamp="2010-10-19T08:58:08Z" uid="26348" user="Rodolphe Quiédeville" changeset="6094728" lat="48.7929468" lon="11.7422892">
    <tag k="amenity" v="fire_hydrant"/>
    <tag k="emergency" v="fire_hydrant"/>
    <tag k="fire_hydrant" v="pillar"/>
    <tag k="name" v="Hydrant"/>
    <tag k="source" v="survey"/>
  </node>
  <node id="470278853" version="6" timestamp="2012-03-27T18:23:35Z" uid="67540" user="Cobra" changeset="11118954" lat="48.7929468" lon="11.7422892">
    <tag k="amenity" v="fire_hydrant"/>
    <tag k="emergency" v="fire_hydrant"/>
    <tag k="fire_hydrant" v="pillar"/>
    <tag k="name" v="Hydrant"/>
    <tag k="odbl" v="clean"/>
    <tag k="source" v="survey"/>
  </node>
</osm>
