<?xml version='1.0' encoding='UTF-8'?>
<osm version="0.6" generator="libosmium/2.20.0">
  <node id="470409810" version="1" timestamp="2009-08-18T16:57:41Z" uid="36809" user="pfoten_weg_!_" changeset="2192221" lat="46.4969261" lon="11.4632169"/>
  <node id="470409810" version="2" timestamp="2009-08-20T22:48:07Z" uid="36809" user="pfoten_weg_!_" changeset="2217860" lat="46.4969242" lon="11.4632087"/>
  <node id="470409810" version="3" timestamp="2009-09-16T07:00:00Z" uid="36809" user="pfoten_weg_!_" changeset="2499303" lat="46.4969242" lon="11.4632087"/>
  <node id="470409814" version="1" timestamp="2009-08-18T16:57:42Z" uid="36809" user="pfoten_weg_!_" changeset="2192221" lat="46.4992934" lon="11.4655316"/>
  <node id="470409814" version="2" timestamp="2009-09-19T20:15:19Z" uid="36809" user="pfoten_weg_!_" changeset="2538688" lat="46.4992934" lon="11.4655316"/>
  <node id="470409816" version="1" timestamp="2009-08-18T16:57:43Z" uid="36809" user="pfoten_weg_!_" changeset="2192221" lat="46.4991094" lon="11.4652086"/>
  <node id="470409816" version="2" timestamp="2009-09-19T20:15:19Z" uid="36809" user="pfoten_weg_!_" changeset="2538688" lat="46.4991094" lon="11.4652086"/>
  <node id="470409821" version="1" timestamp="2009-08-18T16:57:44Z" uid="36809" user="pfoten_weg_!_" changeset="2192221" lat="46.495975" lon="11.464477">
    <tag k="addr:city" v="Fié allo Sciliar"/>
    <tag k="addr:country" v="IT"/>
    <tag k="addr:housename" v="Ferienhaus"/>
    <tag k="addr:housenumber" v="10"/>
    <tag k="addr:postcode" v="39050"/>
    <tag k="addr:street" v="Aica di Sotto"/>
    <tag k="discovered_by" v="RambaZamba"/>
    <tag k="name" v="Prackfolerhof"/>
    <tag k="source" v="survey"/>
  </node>
  <node id="470409821" version="2" timestamp="2009-08-19T17:06:16Z" uid="36809" user="pfoten_weg_!_" changeset="2203425" lat="46.4961337" lon="11.4644039">
    <tag k="addr:city" v="Fié allo Sciliar"/>
    <tag k="addr:country" v="IT"/>
    <tag k="addr:housename" v="Ferienhaus"/>
    <tag k="addr:housenumber" v="10"/>
    <tag k="addr:postcode" v="39050"/>
    <tag k="addr:street" v="Aica di Sotto"/>
    <tag k="discovered_by" v="RambaZamba"/>
    <tag k="name" v="Prackfolerhof"/>
    <tag k="source" v="survey"/>
  </node>
  <node id="470409821" version="3" timestamp="2009-08-28T19:50:08Z" uid="156995" user="HampelZamba" changeset="2294580" lat="46.4961337" lon="11.4644039">
    <tag k="addr:city" v="Fié allo Sciliar"/>
    <tag k="addr:country" v="IT"/>
    <tag k="addr:housename" v="Ferienhaus"/>
    <tag k="addr:housenumber" v="10"/>
    <tag k="addr:postcode" v="39050"/>
    <tag k="addr:street" v="Aica di Sotto"/>
    <tag k="name" v="Prackfolerhof"/>
    <tag k="source" v="survey"/>
  </node>
  <node id="470409821" version="4" timestamp="2009-08-28T22:49:11Z" uid="36809" user="pfoten_weg_!_" changeset="2296033" lat="46.4961337" lon="11.4644039">
    <tag k="addr:city" v="Fié allo Sciliar"/>
    <tag k="addr:country" v="IT"/>
    <tag k="addr:housename" v="Ferienhaus"/>
    <tag k="addr:housenumber" v="10"/>
    <tag k="addr:postcode" v="39050"/>
    <tag k="addr:street" v="Aica di Sotto"/>
    <tag k="discovered_by" v="RambaZamba"/>
    <tag k="name" v="Prackfolerhof"/>
    <tag k="source" v="survey"/>
  </node>
  <node id="470409821" version="5" timestamp="2009-08-30T07:38:46Z" uid="156995" user="HampelZamba" changeset="2309774" lat="46.4961337" lon="11.4644039">
    <tag k="addr:city" v="Fié allo Sciliar"/>
    <tag k="addr:country" v="IT"/>
    <tag k="addr:housename" v="Ferienhaus"/>
    <tag k="addr:housenumber" v="10"/>
    <tag k="addr:postcode" v="39050"/>
    <tag k="addr:street" v="Aica di Sotto"/>
    <tag k="name" v="Prackfolerhof"/>
    <tag k="source" v="survey"/>
  </node>
  <node id="470409821" version="6" timestamp="2009-08-30T09:54:32Z" uid="36809" user="pfoten_weg_!_" changeset="2311149" lat="46.4961337" lon="11.4644039">
    <tag k="addr:city" v="Fié allo Sciliar"/>
    <tag k="addr:country" v="IT"/>
    <tag k="addr:housename" v="Ferienhaus"/>
    <tag k="addr:housenumber" v="10"/>
    <tag k="addr:postcode" v="39050"/>
    <tag k="addr:street" v="Aica di Sotto"/>
    <tag k="discovered_by" v="RambaZamba"/>
    <tag k="name" v="Prackfolerhof"/>
    <tag k="source" v="survey"/>
  </node>
  <node id="470409821" version="7" timestamp="2009-08-30T10:04:05Z" uid="156995" user="HampelZamba" changeset="2311254" lat="46.4961337" lon="11.4644039">
    <tag k="addr:city" v="Fié allo Sciliar"/>
    <tag k="addr:country" v="IT"/>
    <tag k="addr:housename" v="Ferienhaus"/>
    <tag k="addr:housenumber" v="10"/>
    <tag k="addr:postcode" v="39050"/>
    <tag k="addr:street" v="Aica di Sotto"/>
    <tag k="name" v="Prackfolerhof"/>
    <tag k="source" v="survey"/>
  </node>
  <node id="470409821" version="8" timestamp="2009-08-30T10:16:02Z" uid="36809" user="pfoten_weg_!_" changeset="2311385" lat="46.4961337" lon="11.4644039">
    <tag k="addr:city" v="Fié allo Sciliar"/>
    <tag k="addr:country" v="IT"/>
    <tag k="addr:housename" v="Ferienhaus"/>
    <tag k="addr:housenumber" v="10"/>
    <tag k="addr:postcode" v="39050"/>
    <tag k="addr:street" v="Aica di Sotto"/>
    <tag k="name" v="Prackfolerhof"/>
    <tag k="source" v="survey by RambaZamba"/>
  </node>
  <node id="470409821" version="9" timestamp="2009-08-30T10:18:23Z" uid="156995" user="HampelZamba" changeset="2311254" lat="46.4961337" lon="11.4644039">
    <tag k="addr:city" v="Fié allo Sciliar"/>
    <tag k="addr:country" v="IT"/>
    <tag k="addr:housename" v="Ferienhaus"/>
    <tag k="addr:housenumber" v="10"/>
    <tag k="addr:postcode" v="39050"/>
    <tag k="addr:street" v="Aica di Sotto"/>
    <tag k="name" v="Prackfolerhof"/>
    <tag k="source" v="survey"/>
  </node>
  <node id="470409821" version="10" timestamp="2009-08-30T10:36:38Z" uid="36809" user="pfoten_weg_!_" changeset="2311615" lat="46.4961337" lon="11.4644039">
    <tag k="addr:city" v="Fié allo Sciliar"/>
    <tag k="addr:country" v="IT"/>
    <tag k="addr:housename" v="Ferienhaus"/>
    <tag k="addr:housenumber" v="10"/>
    <tag k="addr:postcode" v="39050"/>
    <tag k="addr:street" v="Aica di Sotto"/>
    <tag k="name" v="Prackfolerhof"/>
    <tag k="source" v="survey"/>
  </node>
  <node id="470409821" version="11" timestamp="2009-09-25T11:56:35Z" uid="36809" user="pfoten_weg_!_" changeset="2617822" lat="46.4959703" lon="11.4646622">
    <tag k="addr:city" v="Fié allo Sciliar"/>
    <tag k="addr:country" v="IT"/>
    <tag k="addr:housename" v="Ferienhaus"/>
    <tag k="addr:housenumber" v="10"/>
    <tag k="addr:postcode" v="39050"/>
    <tag k="addr:street" v="Aica di Sotto"/>
    <tag k="name" v="Prackfolerhof"/>
    <tag k="source" v="survey"/>
  </node>
  <node id="470409821" version="12" timestamp="2009-09-30T10:59:12Z" uid="36809" user="pfoten_weg_!_" changeset="2686844" lat="46.4959703" lon="11.4646622">
    <tag k="addr:city" v="Fié allo Sciliar"/>
    <tag k="addr:country" v="IT"/>
    <tag k="addr:housename" v="Ferienhaus"/>
    <tag k="addr:housenumber" v="10"/>
    <tag k="addr:postcode" v="39050"/>
    <tag k="addr:street" v="Aica di Sotto"/>
    <tag k="name" v="Prackfolerhof"/>
  </node>
  <node id="470409821" version="13" timestamp="2009-09-30T11:07:07Z" uid="36809" user="pfoten_weg_!_" changeset="2686844" lat="46.4959703" lon="11.4646622">
    <tag k="addr:city" v="Fié allo Sciliar"/>
    <tag k="addr:country" v="IT"/>
    <tag k="addr:housename" v="Ferienhaus"/>
    <tag k="addr:housenumber" v="10"/>
    <tag k="addr:postcode" v="39050"/>
    <tag k="addr:street" v="Aica di Sotto"/>
    <tag k="name" v="Prackfolerhof"/>
  </node>
  <node id="470409833" version="1" timestamp="2009-08-18T16:57:46Z" uid="36809" user="pfoten_weg_!_" changeset="2192221" lat="46.4960888" lon="11.46426">
    <tag k="building" v="yes"/>
    <tag k="discovered_by" v="RambaZamba"/>
    <tag k="is_in" v="Aica di Sotto"/>
    <tag k="is_in:city:de" v="Völs am Schlern"/>
    <tag k="is_in:city:it" v="Fiè allo Sciliar"/>
    <tag k="layer" v="1"/>
    <tag k="name" v="Prackfolerhof"/>
    <tag k="source" v="survey"/>
    <tag k="tourism" v="guest_house"/>
  </node>
  <node id="470409833" version="2" timestamp="2009-08-19T17:06:10Z" uid="36809" user="pfoten_weg_!_" changeset="2203425" lat="46.4960369" lon="11.4646888">
    <tag k="building" v="yes"/>
    <tag k="discovered_by" v="RambaZamba"/>
    <tag k="is_in" v="Aica di Sotto"/>
    <tag k="is_in:city:de" v="Völs am Schlern"/>
    <tag k="is_in:city:it" v="Fiè allo Sciliar"/>
    <tag k="layer" v="1"/>
    <tag k="name" v="Prackfolerhof"/>
    <tag k="source" v="survey"/>
    <tag k="tourism" v="guest_house"/>
  </node>
  <node id="470409833" version="3" timestamp="2009-08-21T22:54:12Z" uid="36809" user="pfoten_weg_!_" changeset="2229386" lat="46.4960369" lon="11.4646888">
    <tag k="building" v="yes"/>
    <tag k="discovered_by" v="RambaZamba"/>
    <tag k="is_in" v="Aica di Sotto"/>
    <tag k="is_in:city:de" v="Völs am Schlern"/>
    <tag k="is_in:city:it" v="Fiè allo Sciliar"/>
    <tag k="layer" v="1"/>
    <tag k="name" v="Prackfolerhof"/>
    <tag k="source" v="survey"/>
    <tag k="stars" v="5"/>
    <tag k="tourism" v="hotel"/>
  </node>
  <node id="470409833" version="4" timestamp="2009-08-28T19:50:08Z" uid="156995" user="HampelZamba" changeset="2294580" lat="46.4960369" lon="11.4646888">
    <tag k="building" v="yes"/>
    <tag k="is_in" v="Aica di Sotto"/>
    <tag k="is_in:city:de" v="Völs am Schlern"/>
    <tag k="is_in:city:it" v="Fiè allo Sciliar"/>
    <tag k="layer" v="1"/>
    <tag k="name" v="Prackfolerhof"/>
    <tag k="source" v="survey"/>
    <tag k="stars" v="5"/>
    <tag k="tourism" v="hotel"/>
  </node>
  <node id="470409833" version="5" timestamp="2009-08-28T22:49:10Z" uid="36809" user="pfoten_weg_!_" changeset="2296033" lat="46.4960369" lon="11.4646888">
    <tag k="building" v="yes"/>
    <tag k="discovered_by" v="RambaZamba"/>
    <tag k="is_in" v="Aica di Sotto"/>
    <tag k="is_in:city:de" v="Völs am Schlern"/>
    <tag k="is_in:city:it" v="Fiè allo Sciliar"/>
    <tag k="layer" v="1"/>
    <tag k="name" v="Prackfolerhof"/>
    <tag k="source" v="survey"/>
    <tag k="stars" v="5"/>
    <tag k="tourism" v="hotel"/>
  </node>
  <node id="470409833" version="6" timestamp="2009-08-30T07:38:46Z" uid="156995" user="HampelZamba" changeset="2309774" lat="46.4960369" lon="11.4646888">
    <tag k="building" v="yes"/>
    <tag k="is_in" v="Aica di Sotto"/>
    <tag k="is_in:city:de" v="Völs am Schlern"/>
    <tag k="is_in:city:it" v="Fiè allo Sciliar"/>
    <tag k="layer" v="1"/>
    <tag k="name" v="Prackfolerhof"/>
    <tag k="source" v="survey"/>
    <tag k="stars" v="5"/>
    <tag k="tourism" v="hotel"/>
  </node>
  <node id="470409833" version="7" timestamp="2009-08-30T09:54:31Z" uid="36809" user="pfoten_weg_!_" changeset="2311149" lat="46.4960369" lon="11.4646888">
    <tag k="building" v="yes"/>
    <tag k="discovered_by" v="RambaZamba"/>
    <tag k="is_in" v="Aica di Sotto"/>
    <tag k="is_in:city:de" v="Völs am Schlern"/>
    <tag k="is_in:city:it" v="Fiè allo Sciliar"/>
    <tag k="layer" v="1"/>
    <tag k="name" v="Prackfolerhof"/>
    <tag k="source" v="survey"/>
    <tag k="stars" v="5"/>
    <tag k="tourism" v="hotel"/>
  </node>
  <node id="470409833" version="8" timestamp="2009-08-30T10:04:05Z" uid="156995" user="HampelZamba" changeset="2311254" lat="46.4960369" lon="11.4646888">
    <tag k="building" v="yes"/>
    <tag k="is_in" v="Aica di Sotto"/>
    <tag k="is_in:city:de" v="Völs am Schlern"/>
    <tag k="is_in:city:it" v="Fiè allo Sciliar"/>
    <tag k="layer" v="1"/>
    <tag k="name" v="Prackfolerhof"/>
    <tag k="source" v="survey"/>
    <tag k="stars" v="5"/>
    <tag k="tourism" v="hotel"/>
  </node>
  <node id="470409833" version="9" timestamp="2009-08-30T10:16:00Z" uid="36809" user="pfoten_weg_!_" changeset="2311385" lat="46.4960369" lon="11.4646888">
    <tag k="building" v="yes"/>
    <tag k="is_in" v="Aica di Sotto"/>
    <tag k="is_in:city:de" v="Völs am Schlern"/>
    <tag k="is_in:city:it" v="Fiè allo Sciliar"/>
    <tag k="layer" v="1"/>
    <tag k="name" v="Prackfolerhof"/>
    <tag k="source" v="survey by RambaZamba"/>
    <tag k="stars" v="5"/>
    <tag k="tourism" v="hotel"/>
  </node>
  <node id="470409833" version="10" timestamp="2009-08-30T10:18:23Z" uid="156995" user="HampelZamba" changeset="2311254" lat="46.4960369" lon="11.4646888">
    <tag k="building" v="yes"/>
    <tag k="is_in" v="Aica di Sotto"/>
    <tag k="is_in:city:de" v="Völs am Schlern"/>
    <tag k="is_in:city:it" v="Fiè allo Sciliar"/>
    <tag k="layer" v="1"/>
    <tag k="name" v="Prackfolerhof"/>
    <tag k="source" v="survey"/>
    <tag k="stars" v="5"/>
    <tag k="tourism" v="hotel"/>
  </node>
  <node id="470409833" version="11" timestamp="2009-08-30T10:36:37Z" uid="36809" user="pfoten_weg_!_" changeset="2311615" lat="46.4960369" lon="11.4646888">
    <tag k="building" v="yes"/>
    <tag k="is_in" v="Aica di Sotto"/>
    <tag k="is_in:city:de" v="Völs am Schlern"/>
    <tag k="is_in:city:it" v="Fiè allo Sciliar"/>
    <tag k="layer" v="1"/>
    <tag k="name" v="Prackfolerhof"/>
    <tag k="source" v="survey"/>
    <tag k="stars" v="5"/>
    <tag k="tourism" v="hotel"/>
  </node>
  <node id="470409833" version="12" timestamp="2009-09-16T07:00:00Z" uid="36809" user="pfoten_weg_!_" changeset="2499303" lat="46.4960369" lon="11.4646888">
    <tag k="building" v="yes"/>
    <tag k="is_in" v="Aica di Sotto"/>
    <tag k="is_in:city:de" v="Völs am Schlern"/>
    <tag k="is_in:city:it" v="Fiè allo Sciliar"/>
    <tag k="layer" v="1"/>
    <tag k="name" v="Prackfolerhof"/>
    <tag k="source" v="survey"/>
    <tag k="stars" v="5"/>
    <tag k="tourism" v="hotel"/>
  </node>
  <node id="470409852" version="1" timestamp="2009-08-18T16:57:49Z" uid="36809" user="pfoten_weg_!_" changeset="2192221" lat="46.4987512" lon="11.4653385"/>
  <node id="470409852" version="2" timestamp="2009-09-19T20:15:19Z" uid="36809" user="pfoten_weg_!_" changeset="2538688" lat="46.4987512" lon="11.4653385"/>
  <node id="470409859" version="1" timestamp="2009-08-18T16:57:49Z" uid="36809" user="pfoten_weg_!_" changeset="2192221" lat="46.4957372" lon="11.4641365"/>
  <node id="470409859" version="2" timestamp="2009-08-19T17:06:40Z" uid="36809" user="pfoten_weg_!_" changeset="2203425" lat="46.4957372" lon="11.4641365"/>
  <node id="470409864" version="1" timestamp="2009-08-18T16:57:50Z" uid="36809" user="pfoten_weg_!_" changeset="2192221" lat="46.4959883" lon="11.4645499"/>
  <node id="470409864" version="2" timestamp="2009-08-19T17:06:40Z" uid="36809" user="pfoten_weg_!_" changeset="2203425" lat="46.4959883" lon="11.4645499"/>
  <node id="470409869" version="1" timestamp="2009-08-18T16:57:51Z" uid="36809" user="pfoten_weg_!_" changeset="2192221" lat="46.4959914" lon="11.4612387"/>
  <node id="470409869" version="2" timestamp="2009-09-19T20:12:30Z" uid="36809" user="pfoten_weg_!_" changeset="2538662" lat="46.4959914" lon="11.4612387"/>
  <node id="470409878" version="1" timestamp="2009-08-18T16:57:52Z" uid="36809" user="pfoten_weg_!_" changeset="2192221" lat="46.4985951" lon="11.465063"/>
  <node id="470409878" version="2" timestamp="2009-09-19T20:15:19Z" uid="36809" user="pfoten_weg_!_" changeset="2538688" lat="46.4985951" lon="11.465063"/>
  <node id="470409881" version="1" timestamp="2009-08-18T16:57:53Z" uid="36809" user="pfoten_weg_!_" changeset="2192221" lat="46.4988794" lon="11.4653029">
    <tag k="building" v="yes"/>
    <tag k="discovered_by" v="RambaZamba"/>
    <tag k="is_in" v="Aica di Sotto"/>
    <tag k="is_in:city:de" v="Völs am Schlern"/>
    <tag k="is_in:city:it" v="Fiè allo Sciliar"/>
    <tag k="layer" v="1"/>
    <tag k="name" v="Tommelehof"/>
    <tag k="source" v="survey"/>
    <tag k="tourism" v="chalet"/>
  </node>
  <node id="470409881" version="2" timestamp="2009-08-20T22:48:08Z" uid="36809" user="pfoten_weg_!_" changeset="2217860" lat="46.4988072" lon="11.4651153">
    <tag k="building" v="yes"/>
    <tag k="discovered_by" v="RambaZamba"/>
    <tag k="is_in" v="Aica di Sotto"/>
    <tag k="is_in:city:de" v="Völs am Schlern"/>
    <tag k="is_in:city:it" v="Fiè allo Sciliar"/>
    <tag k="layer" v="1"/>
    <tag k="name" v="Tommelehof"/>
    <tag k="source" v="survey"/>
    <tag k="tourism" v="chalet"/>
  </node>
  <node id="470409881" version="3" timestamp="2009-08-21T22:54:13Z" uid="36809" user="pfoten_weg_!_" changeset="2229386" lat="46.4988072" lon="11.4651153">
    <tag k="building" v="yes"/>
    <tag k="discovered_by" v="RambaZamba"/>
    <tag k="is_in" v="Aica di Sotto"/>
    <tag k="is_in:city:de" v="Völs am Schlern"/>
    <tag k="is_in:city:it" v="Fiè allo Sciliar"/>
    <tag k="layer" v="1"/>
    <tag k="name" v="Tommelehof"/>
    <tag k="source" v="survey"/>
    <tag k="stars" v="5"/>
    <tag k="tourism" v="hotel"/>
  </node>
  <node id="470409881" version="4" timestamp="2009-08-28T19:50:08Z" uid="156995" user="HampelZamba" changeset="2294580" lat="46.4988072" lon="11.4651153">
    <tag k="building" v="yes"/>
    <tag k="is_in" v="Aica di Sotto"/>
    <tag k="is_in:city:de" v="Völs am Schlern"/>
    <tag k="is_in:city:it" v="Fiè allo Sciliar"/>
    <tag k="layer" v="1"/>
    <tag k="name" v="Tommelehof"/>
    <tag k="source" v="survey"/>
    <tag k="stars" v="5"/>
    <tag k="tourism" v="hotel"/>
  </node>
  <node id="470409881" version="5" timestamp="2009-08-28T22:49:13Z" uid="36809" user="pfoten_weg_!_" changeset="2296033" lat="46.4988072" lon="11.4651153">
    <tag k="building" v="yes"/>
    <tag k="discovered_by" v="RambaZamba"/>
    <tag k="is_in" v="Aica di Sotto"/>
    <tag k="is_in:city:de" v="Völs am Schlern"/>
    <tag k="is_in:city:it" v="Fiè allo Sciliar"/>
    <tag k="layer" v="1"/>
    <tag k="name" v="Tommelehof"/>
    <tag k="source" v="survey"/>
    <tag k="stars" v="5"/>
    <tag k="tourism" v="hotel"/>
  </node>
  <node id="470409881" version="6" timestamp="2009-08-30T07:38:46Z" uid="156995" user="HampelZamba" changeset="2309774" lat="46.4988072" lon="11.4651153">
    <tag k="building" v="yes"/>
    <tag k="is_in" v="Aica di Sotto"/>
    <tag k="is_in:city:de" v="Völs am Schlern"/>
    <tag k="is_in:city:it" v="Fiè allo Sciliar"/>
    <tag k="layer" v="1"/>
    <tag k="name" v="Tommelehof"/>
    <tag k="source" v="survey"/>
    <tag k="stars" v="5"/>
    <tag k="tourism" v="hotel"/>
  </node>
  <node id="470409881" version="7" timestamp="2009-08-30T09:54:36Z" uid="36809" user="pfoten_weg_!_" changeset="2311149" lat="46.4988072" lon="11.4651153">
    <tag k="building" v="yes"/>
    <tag k="discovered_by" v="RambaZamba"/>
    <tag k="is_in" v="Aica di Sotto"/>
    <tag k="is_in:city:de" v="Völs am Schlern"/>
    <tag k="is_in:city:it" v="Fiè allo Sciliar"/>
    <tag k="layer" v="1"/>
    <tag k="name" v="Tommelehof"/>
    <tag k="source" v="survey"/>
    <tag k="stars" v="5"/>
    <tag k="tourism" v="hotel"/>
  </node>
  <node id="470409881" version="8" timestamp="2009-08-30T10:04:05Z" uid="156995" user="HampelZamba" changeset="2311254" lat="46.4988072" lon="11.4651153">
    <tag k="building" v="yes"/>
    <tag k="is_in" v="Aica di Sotto"/>
    <tag k="is_in:city:de" v="Völs am Schlern"/>
    <tag k="is_in:city:it" v="Fiè allo Sciliar"/>
    <tag k="layer" v="1"/>
    <tag k="name" v="Tommelehof"/>
    <tag k="source" v="survey"/>
    <tag k="stars" v="5"/>
    <tag k="tourism" v="hotel"/>
  </node>
  <node id="470409881" version="9" timestamp="2009-08-30T10:16:04Z" uid="36809" user="pfoten_weg_!_" changeset="2311385" lat="46.4988072" lon="11.4651153">
    <tag k="building" v="yes"/>
    <tag k="is_in" v="Aica di Sotto"/>
    <tag k="is_in:city:de" v="Völs am Schlern"/>
    <tag k="is_in:city:it" v="Fiè allo Sciliar"/>
    <tag k="layer" v="1"/>
    <tag k="name" v="Tommelehof"/>
    <tag k="source" v="survey by RambaZamba"/>
    <tag k="stars" v="5"/>
    <tag k="tourism" v="hotel"/>
  </node>
  <node id="470409881" version="10" timestamp="2009-08-30T10:18:24Z" uid="156995" user="HampelZamba" changeset="2311254" lat="46.4988072" lon="11.4651153">
    <tag k="building" v="yes"/>
    <tag k="is_in" v="Aica di Sotto"/>
    <tag k="is_in:city:de" v="Völs am Schlern"/>
    <tag k="is_in:city:it" v="Fiè allo Sciliar"/>
    <tag k="layer" v="1"/>
    <tag k="name" v="Tommelehof"/>
    <tag k="source" v="survey"/>
    <tag k="stars" v="5"/>
    <tag k="tourism" v="hotel"/>
  </node>
  <node id="470409881" version="11" timestamp="2009-08-30T10:36:40Z" uid="36809" user="pfoten_weg_!_" changeset="2311615" lat="46.4988072" lon="11.4651153">
    <tag k="building" v="yes"/>
    <tag k="is_in" v="Aica di Sotto"/>
    <tag k="is_in:city:de" v="Völs am Schlern"/>
    <tag k="is_in:city:it" v="Fiè allo Sciliar"/>
    <tag k="layer" v="1"/>
    <tag k="name" v="Tommelehof"/>
    <tag k="source" v="survey"/>
    <tag k="stars" v="5"/>
    <tag k="tourism" v="hotel"/>
  </node>
  <node id="470409881" version="12" timestamp="2009-09-19T20:15:19Z" uid="36809" user="pfoten_weg_!_" changeset="2538688" lat="46.4988072" lon="11.4651153">
    <tag k="building" v="yes"/>
    <tag k="is_in" v="Aica di Sotto"/>
    <tag k="is_in:city:de" v="Völs am Schlern"/>
    <tag k="is_in:city:it" v="Fiè allo Sciliar"/>
    <tag k="layer" v="1"/>
    <tag k="name" v="Tommelehof"/>
    <tag k="source" v="survey"/>
    <tag k="stars" v="5"/>
    <tag k="tourism" v="hotel"/>
  </node>
  <node id="470409897" version="1" timestamp="2009-08-18T16:57:57Z" uid="36809" user="pfoten_weg_!_" changeset="2192221" lat="46.4960834" lon="11.4616708"/>
  <node id="470409897" version="2" timestamp="2009-09-19T20:12:30Z" uid="36809" user="pfoten_weg_!_" changeset="2538662" lat="46.4960834" lon="11.4616708"/>
  <node id="470409903" version="1" timestamp="2009-08-18T16:57:58Z" uid="36809" user="pfoten_weg_!_" changeset="2192221" lat="46.499046" lon="11.4652848"/>
  <node id="470409903" version="2" timestamp="2009-09-19T20:15:19Z" uid="36809" user="pfoten_weg_!_" changeset="2538688" lat="46.499046" lon="11.4652848"/>
  <node id="470409907" version="1" timestamp="2009-08-18T16:57:59Z" uid="36809" user="pfoten_weg_!_" changeset="2192221" lat="46.4958851" lon="11.464418"/>
  <node id="470409907" version="2" timestamp="2009-08-19T17:06:41Z" uid="36809" user="pfoten_weg_!_" changeset="2203425" lat="46.4958851" lon="11.464418"/>
  <node id="470409911" version="1" timestamp="2009-08-18T16:58:00Z" uid="36809" user="pfoten_weg_!_" changeset="2192221" lat="46.4963601" lon="11.4615068">
    <tag k="addr:city" v="Fié allo Sciliar"/>
    <tag k="addr:country" v="IT"/>
    <tag k="addr:housename" v="Ferienhaus"/>
    <tag k="addr:housenumber" v="9"/>
    <tag k="addr:postcode" v="39050"/>
    <tag k="addr:street" v="Aica di Sotto"/>
    <tag k="discovered_by" v="RambaZamba"/>
    <tag k="name" v="Gemoanerhof"/>
    <tag k="source" v="survey"/>
  </node>
  <node id="470409911" version="2" timestamp="2009-08-28T19:50:08Z" uid="156995" user="HampelZamba" changeset="2294580" lat="46.4963601" lon="11.4615068">
    <tag k="addr:city" v="Fié allo Sciliar"/>
    <tag k="addr:country" v="IT"/>
    <tag k="addr:housename" v="Ferienhaus"/>
    <tag k="addr:housenumber" v="9"/>
    <tag k="addr:postcode" v="39050"/>
    <tag k="addr:street" v="Aica di Sotto"/>
    <tag k="name" v="Gemoanerhof"/>
    <tag k="source" v="survey"/>
  </node>
  <node id="470409911" version="3" timestamp="2009-08-28T22:49:12Z" uid="36809" user="pfoten_weg_!_" changeset="2296033" lat="46.4963601" lon="11.4615068">
    <tag k="addr:city" v="Fié allo Sciliar"/>
    <tag k="addr:country" v="IT"/>
    <tag k="addr:housename" v="Ferienhaus"/>
    <tag k="addr:housenumber" v="9"/>
    <tag k="addr:postcode" v="39050"/>
    <tag k="addr:street" v="Aica di Sotto"/>
    <tag k="discovered_by" v="RambaZamba"/>
    <tag k="name" v="Gemoanerhof"/>
    <tag k="source" v="survey"/>
  </node>
  <node id="470409911" version="4" timestamp="2009-08-30T07:38:47Z" uid="156995" user="HampelZamba" changeset="2309774" lat="46.4963601" lon="11.4615068">
    <tag k="addr:city" v="Fié allo Sciliar"/>
    <tag k="addr:country" v="IT"/>
    <tag k="addr:housename" v="Ferienhaus"/>
    <tag k="addr:housenumber" v="9"/>
    <tag k="addr:postcode" v="39050"/>
    <tag k="addr:street" v="Aica di Sotto"/>
    <tag k="name" v="Gemoanerhof"/>
    <tag k="source" v="survey"/>
  </node>
  <node id="470409911" version="5" timestamp="2009-08-30T09:54:34Z" uid="36809" user="pfoten_weg_!_" changeset="2311149" lat="46.4963601" lon="11.4615068">
    <tag k="addr:city" v="Fié allo Sciliar"/>
    <tag k="addr:country" v="IT"/>
    <tag k="addr:housename" v="Ferienhaus"/>
    <tag k="addr:housenumber" v="9"/>
    <tag k="addr:postcode" v="39050"/>
    <tag k="addr:street" v="Aica di Sotto"/>
    <tag k="discovered_by" v="RambaZamba"/>
    <tag k="name" v="Gemoanerhof"/>
    <tag k="source" v="survey"/>
  </node>
  <node id="470409911" version="6" timestamp="2009-08-30T10:04:05Z" uid="156995" user="HampelZamba" changeset="2311254" lat="46.4963601" lon="11.4615068">
    <tag k="addr:city" v="Fié allo Sciliar"/>
    <tag k="addr:country" v="IT"/>
    <tag k="addr:housename" v="Ferienhaus"/>
    <tag k="addr:housenumber" v="9"/>
    <tag k="addr:postcode" v="39050"/>
    <tag k="addr:street" v="Aica di Sotto"/>
    <tag k="name" v="Gemoanerhof"/>
    <tag k="source" v="survey"/>
  </node>
  <node id="470409911" version="7" timestamp="2009-08-30T10:16:02Z" uid="36809" user="pfoten_weg_!_" changeset="2311385" lat="46.4963601" lon="11.4615068">
    <tag k="addr:city" v="Fié allo Sciliar"/>
    <tag k="addr:country" v="IT"/>
    <tag k="addr:housename" v="Ferienhaus"/>
    <tag k="addr:housenumber" v="9"/>
    <tag k="addr:postcode" v="39050"/>
    <tag k="addr:street" v="Aica di Sotto"/>
    <tag k="name" v="Gemoanerhof"/>
    <tag k="source" v="survey by RambaZamba"/>
  </node>
  <node id="470409911" version="8" timestamp="2009-08-30T10:18:23Z" uid="156995" user="HampelZamba" changeset="2311254" lat="46.4963601" lon="11.4615068">
    <tag k="addr:city" v="Fié allo Sciliar"/>
    <tag k="addr:country" v="IT"/>
    <tag k="addr:housename" v="Ferienhaus"/>
    <tag k="addr:housenumber" v="9"/>
    <tag k="addr:postcode" v="39050"/>
    <tag k="addr:street" v="Aica di Sotto"/>
    <tag k="name" v="Gemoanerhof"/>
    <tag k="source" v="survey"/>
  </node>
  <node id="470409911" version="9" timestamp="2009-08-30T10:36:39Z" uid="36809" user="pfoten_weg_!_" changeset="2311615" lat="46.4963601" lon="11.4615068">
    <tag k="addr:city" v="Fié allo Sciliar"/>
    <tag k="addr:country" v="IT"/>
    <tag k="addr:housename" v="Ferienhaus"/>
    <tag k="addr:housenumber" v="9"/>
    <tag k="addr:postcode" v="39050"/>
    <tag k="addr:street" v="Aica di Sotto"/>
    <tag k="name" v="Gemoanerhof"/>
    <tag k="source" v="survey"/>
  </node>
  <node id="470409911" version="10" timestamp="2009-09-19T20:12:29Z" uid="36809" user="pfoten_weg_!_" changeset="2538662" lat="46.496312" lon="11.4613082">
    <tag k="addr:city" v="Fié allo Sciliar"/>
    <tag k="addr:country" v="IT"/>
    <tag k="addr:housename" v="Ferienhaus"/>
    <tag k="addr:housenumber" v="9"/>
    <tag k="addr:postcode" v="39050"/>
    <tag k="addr:street" v="Aica di Sotto"/>
    <tag k="name" v="Gemoanerhof"/>
    <tag k="source" v="survey"/>
  </node>
  <node id="470409911" version="11" timestamp="2009-09-30T10:59:10Z" uid="36809" user="pfoten_weg_!_" changeset="2686844" lat="46.496312" lon="11.4613082">
    <tag k="addr:city" v="Fié allo Sciliar"/>
    <tag k="addr:country" v="IT"/>
    <tag k="addr:housename" v="Ferienhaus"/>
    <tag k="addr:housenumber" v="9"/>
    <tag k="addr:postcode" v="39050"/>
    <tag k="addr:street" v="Aica di Sotto"/>
    <tag k="name" v="Gemoanerhof"/>
  </node>
  <node id="470409911" version="12" timestamp="2009-09-30T11:07:06Z" uid="36809" user="pfoten_weg_!_" changeset="2686844" lat="46.496312" lon="11.4613082">
    <tag k="addr:city" v="Fié allo Sciliar"/>
    <tag k="addr:country" v="IT"/>
    <tag k="addr:housename" v="Ferienhaus"/>
    <tag k="addr:housenumber" v="9"/>
    <tag k="addr:postcode" v="39050"/>
    <tag k="addr:street" v="Aica di Sotto"/>
    <tag k="name" v="Gemoanerhof"/>
  </node>
  <node id="470409918" version="1" timestamp="2009-08-18T16:58:01Z" uid="36809" user="pfoten_weg_!_" changeset="2192221" lat="46.4986323" lon="11.4654995"/>
  <node id="470409918" version="2" timestamp="2009-09-19T20:15:19Z" uid="36809" user="pfoten_weg_!_" changeset="2538688" lat="46.4986323" lon="11.4654995"/>
  <node id="470409928" version="1" timestamp="2009-08-18T16:58:03Z" uid="36809" user="pfoten_weg_!_" changeset="2192221" lat="46.4963128" lon="11.4612532">
    <tag k="building" v="yes"/>
    <tag k="discovered_by" v="RambaZamba"/>
    <tag k="is_in" v="Aica di Sotto"/>
    <tag k="is_in:city:de" v="Völs am Schlern"/>
    <tag k="is_in:city:it" v="Fiè allo Sciliar"/>
    <tag k="layer" v="1"/>
    <tag k="name" v="Gemoanerhof"/>
    <tag k="source" v="survey"/>
    <tag k="tourism" v="chalet"/>
  </node>
  <node id="470409928" version="2" timestamp="2009-08-21T22:54:13Z" uid="36809" user="pfoten_weg_!_" changeset="2229386" lat="46.4963128" lon="11.4612532">
    <tag k="building" v="yes"/>
    <tag k="discovered_by" v="RambaZamba"/>
    <tag k="is_in" v="Aica di Sotto"/>
    <tag k="is_in:city:de" v="Völs am Schlern"/>
    <tag k="is_in:city:it" v="Fiè allo Sciliar"/>
    <tag k="layer" v="1"/>
    <tag k="name" v="Gemoanerhof"/>
    <tag k="source" v="survey"/>
    <tag k="stars" v="5"/>
    <tag k="tourism" v="hotel"/>
  </node>
  <node id="470409928" version="3" timestamp="2009-08-28T19:50:09Z" uid="156995" user="HampelZamba" changeset="2294580" lat="46.4963128" lon="11.4612532">
    <tag k="building" v="yes"/>
    <tag k="is_in" v="Aica di Sotto"/>
    <tag k="is_in:city:de" v="Völs am Schlern"/>
    <tag k="is_in:city:it" v="Fiè allo Sciliar"/>
    <tag k="layer" v="1"/>
    <tag k="name" v="Gemoanerhof"/>
    <tag k="source" v="survey"/>
    <tag k="stars" v="5"/>
    <tag k="tourism" v="hotel"/>
  </node>
  <node id="470409928" version="4" timestamp="2009-08-28T22:49:15Z" uid="36809" user="pfoten_weg_!_" changeset="2296033" lat="46.4963128" lon="11.4612532">
    <tag k="building" v="yes"/>
    <tag k="discovered_by" v="RambaZamba"/>
    <tag k="is_in" v="Aica di Sotto"/>
    <tag k="is_in:city:de" v="Völs am Schlern"/>
    <tag k="is_in:city:it" v="Fiè allo Sciliar"/>
    <tag k="layer" v="1"/>
    <tag k="name" v="Gemoanerhof"/>
    <tag k="source" v="survey"/>
    <tag k="stars" v="5"/>
    <tag k="tourism" v="hotel"/>
  </node>
  <node id="470409928" version="5" timestamp="2009-08-30T07:38:47Z" uid="156995" user="HampelZamba" changeset="2309774" lat="46.4963128" lon="11.4612532">
    <tag k="building" v="yes"/>
    <tag k="is_in" v="Aica di Sotto"/>
    <tag k="is_in:city:de" v="Völs am Schlern"/>
    <tag k="is_in:city:it" v="Fiè allo Sciliar"/>
    <tag k="layer" v="1"/>
    <tag k="name" v="Gemoanerhof"/>
    <tag k="source" v="survey"/>
    <tag k="stars" v="5"/>
    <tag k="tourism" v="hotel"/>
  </node>
  <node id="470409928" version="6" timestamp="2009-08-30T09:54:39Z" uid="36809" user="pfoten_weg_!_" changeset="2311149" lat="46.4963128" lon="11.4612532">
    <tag k="building" v="yes"/>
    <tag k="discovered_by" v="RambaZamba"/>
    <tag k="is_in" v="Aica di Sotto"/>
    <tag k="is_in:city:de" v="Völs am Schlern"/>
    <tag k="is_in:city:it" v="Fiè allo Sciliar"/>
    <tag k="layer" v="1"/>
    <tag k="name" v="Gemoanerhof"/>
    <tag k="source" v="survey"/>
    <tag k="stars" v="5"/>
    <tag k="tourism" v="hotel"/>
  </node>
  <node id="470409928" version="7" timestamp="2009-08-30T10:04:06Z" uid="156995" user="HampelZamba" changeset="2311254" lat="46.4963128" lon="11.4612532">
    <tag k="building" v="yes"/>
    <tag k="is_in" v="Aica di Sotto"/>
    <tag k="is_in:city:de" v="Völs am Schlern"/>
    <tag k="is_in:city:it" v="Fiè allo Sciliar"/>
    <tag k="layer" v="1"/>
    <tag k="name" v="Gemoanerhof"/>
    <tag k="source" v="survey"/>
    <tag k="stars" v="5"/>
    <tag k="tourism" v="hotel"/>
  </node>
  <node id="470409928" version="8" timestamp="2009-08-30T10:16:07Z" uid="36809" user="pfoten_weg_!_" changeset="2311385" lat="46.4963128" lon="11.4612532">
    <tag k="building" v="yes"/>
    <tag k="is_in" v="Aica di Sotto"/>
    <tag k="is_in:city:de" v="Völs am Schlern"/>
    <tag k="is_in:city:it" v="Fiè allo Sciliar"/>
    <tag k="layer" v="1"/>
    <tag k="name" v="Gemoanerhof"/>
    <tag k="source" v="survey by RambaZamba"/>
    <tag k="stars" v="5"/>
    <tag k="tourism" v="hotel"/>
  </node>
  <node id="470409928" version="9" timestamp="2009-08-30T10:18:24Z" uid="156995" user="HampelZamba" changeset="2311254" lat="46.4963128" lon="11.4612532">
    <tag k="building" v="yes"/>
    <tag k="is_in" v="Aica di Sotto"/>
    <tag k="is_in:city:de" v="Völs am Schlern"/>
    <tag k="is_in:city:it" v="Fiè allo Sciliar"/>
    <tag k="layer" v="1"/>
    <tag k="name" v="Gemoanerhof"/>
    <tag k="source" v="survey"/>
    <tag k="stars" v="5"/>
    <tag k="tourism" v="hotel"/>
  </node>
  <node id="470409928" version="10" timestamp="2009-08-30T10:36:43Z" uid="36809" user="pfoten_weg_!_" changeset="2311615" lat="46.4963128" lon="11.4612532">
    <tag k="building" v="yes"/>
    <tag k="is_in" v="Aica di Sotto"/>
    <tag k="is_in:city:de" v="Völs am Schlern"/>
    <tag k="is_in:city:it" v="Fiè allo Sciliar"/>
    <tag k="layer" v="1"/>
    <tag k="name" v="Gemoanerhof"/>
    <tag k="source" v="survey"/>
    <tag k="stars" v="5"/>
    <tag k="tourism" v="hotel"/>
  </node>
  <node id="470409928" version="11" timestamp="2009-09-19T20:12:30Z" uid="36809" user="pfoten_weg_!_" changeset="2538662" lat="46.4963128" lon="11.4612532">
    <tag k="building" v="yes"/>
    <tag k="is_in" v="Aica di Sotto"/>
    <tag k="is_in:city:de" v="Völs am Schlern"/>
    <tag k="is_in:city:it" v="Fiè allo Sciliar"/>
    <tag k="layer" v="1"/>
    <tag k="name" v="Gemoanerhof"/>
    <tag k="source" v="survey"/>
    <tag k="stars" v="5"/>
    <tag k="tourism" v="hotel"/>
  </node>
  <node id="470409941" version="1" timestamp="2009-08-18T16:58:06Z" uid="36809" user="pfoten_weg_!_" changeset="2192221" lat="46.4961656" lon="11.4642441"/>
  <node id="470409941" version="2" timestamp="2009-08-19T17:06:39Z" uid="36809" user="pfoten_weg_!_" changeset="2203425" lat="46.4961656" lon="11.4642441"/>
  <node id="470409950" version="1" timestamp="2009-08-18T16:58:07Z" uid="36809" user="pfoten_weg_!_" changeset="2192221" lat="46.4958781" lon="11.463891"/>
  <node id="470409950" version="2" timestamp="2009-08-19T17:06:39Z" uid="36809" user="pfoten_weg_!_" changeset="2203425" lat="46.4958781" lon="11.463891"/>
  <node id="470409957" version="1" timestamp="2009-08-18T16:58:08Z" uid="36809" user="pfoten_weg_!_" changeset="2192221" lat="46.4963937" lon="11.461058"/>
  <node id="470409957" version="2" timestamp="2009-09-19T20:12:30Z" uid="36809" user="pfoten_weg_!_" changeset="2538662" lat="46.4963937" lon="11.461058"/>
  <node id="470409968" version="1" timestamp="2009-08-18T16:58:11Z" uid="36809" user="pfoten_weg_!_" changeset="2192221" lat="46.4958851" lon="11.464321"/>
  <node id="470409968" version="2" timestamp="2009-08-19T17:06:40Z" uid="36809" user="pfoten_weg_!_" changeset="2203425" lat="46.4958851" lon="11.464321"/>
  <node id="470409972" version="1" timestamp="2009-08-18T16:58:12Z" uid="36809" user="pfoten_weg_!_" changeset="2192221" lat="46.4988207" lon="11.4658266"/>
  <node id="470409972" version="2" timestamp="2009-09-19T20:15:19Z" uid="36809" user="pfoten_weg_!_" changeset="2538688" lat="46.4988207" lon="11.4658266"/>
  <node id="470409980" version="1" timestamp="2009-08-18T16:58:13Z" uid="36809" user="pfoten_weg_!_" changeset="2192221" lat="46.4989954" lon="11.465558">
    <tag k="addr:city" v="Fié allo Sciliar"/>
    <tag k="addr:country" v="IT"/>
    <tag k="addr:housename" v="Ferienhaus"/>
    <tag k="addr:housenumber" v="7"/>
    <tag k="addr:postcode" v="39050"/>
    <tag k="addr:street" v="Aica di Sotto"/>
    <tag k="discovered_by" v="RambaZamba"/>
    <tag k="name" v="Tommelehof"/>
    <tag k="source" v="survey"/>
  </node>
  <node id="470409980" version="2" timestamp="2009-08-20T22:48:08Z" uid="36809" user="pfoten_weg_!_" changeset="2217860" lat="46.4990524" lon="11.4655635">
    <tag k="addr:city" v="Fié allo Sciliar"/>
    <tag k="addr:country" v="IT"/>
    <tag k="addr:housename" v="Ferienhaus"/>
    <tag k="addr:housenumber" v="7"/>
    <tag k="addr:postcode" v="39050"/>
    <tag k="addr:street" v="Aica di Sotto"/>
    <tag k="discovered_by" v="RambaZamba"/>
    <tag k="name" v="Tommelehof"/>
    <tag k="source" v="survey"/>
  </node>
  <node id="470409980" version="3" timestamp="2009-08-28T19:50:09Z" uid="156995" user="HampelZamba" changeset="2294580" lat="46.4990524" lon="11.4655635">
    <tag k="addr:city" v="Fié allo Sciliar"/>
    <tag k="addr:country" v="IT"/>
    <tag k="addr:housename" v="Ferienhaus"/>
    <tag k="addr:housenumber" v="7"/>
    <tag k="addr:postcode" v="39050"/>
    <tag k="addr:street" v="Aica di Sotto"/>
    <tag k="name" v="Tommelehof"/>
    <tag k="source" v="survey"/>
  </node>
  <node id="470409980" version="4" timestamp="2009-08-28T22:49:14Z" uid="36809" user="pfoten_weg_!_" changeset="2296033" lat="46.4990524" lon="11.4655635">
    <tag k="addr:city" v="Fié allo Sciliar"/>
    <tag k="addr:country" v="IT"/>
    <tag k="addr:housename" v="Ferienhaus"/>
    <tag k="addr:housenumber" v="7"/>
    <tag k="addr:postcode" v="39050"/>
    <tag k="addr:street" v="Aica di Sotto"/>
    <tag k="discovered_by" v="RambaZamba"/>
    <tag k="name" v="Tommelehof"/>
    <tag k="source" v="survey"/>
  </node>
  <node id="470409980" version="5" timestamp="2009-08-30T07:38:47Z" uid="156995" user="HampelZamba" changeset="2309774" lat="46.4990524" lon="11.4655635">
    <tag k="addr:city" v="Fié allo Sciliar"/>
    <tag k="addr:country" v="IT"/>
    <tag k="addr:housename" v="Ferienhaus"/>
    <tag k="addr:housenumber" v="7"/>
    <tag k="addr:postcode" v="39050"/>
    <tag k="addr:street" v="Aica di Sotto"/>
    <tag k="name" v="Tommelehof"/>
    <tag k="source" v="survey"/>
  </node>
  <node id="470409980" version="6" timestamp="2009-08-30T09:54:37Z" uid="36809" user="pfoten_weg_!_" changeset="2311149" lat="46.4990524" lon="11.4655635">
    <tag k="addr:city" v="Fié allo Sciliar"/>
    <tag k="addr:country" v="IT"/>
    <tag k="addr:housename" v="Ferienhaus"/>
    <tag k="addr:housenumber" v="7"/>
    <tag k="addr:postcode" v="39050"/>
    <tag k="addr:street" v="Aica di Sotto"/>
    <tag k="discovered_by" v="RambaZamba"/>
    <tag k="name" v="Tommelehof"/>
    <tag k="source" v="survey"/>
  </node>
  <node id="470409980" version="7" timestamp="2009-08-30T10:04:05Z" uid="156995" user="HampelZamba" changeset="2311254" lat="46.4990524" lon="11.4655635">
    <tag k="addr:city" v="Fié allo Sciliar"/>
    <tag k="addr:country" v="IT"/>
    <tag k="addr:housename" v="Ferienhaus"/>
    <tag k="addr:housenumber" v="7"/>
    <tag k="addr:postcode" v="39050"/>
    <tag k="addr:street" v="Aica di Sotto"/>
    <tag k="name" v="Tommelehof"/>
    <tag k="source" v="survey"/>
  </node>
  <node id="470409980" version="8" timestamp="2009-08-30T10:16:06Z" uid="36809" user="pfoten_weg_!_" changeset="2311385" lat="46.4990524" lon="11.4655635">
    <tag k="addr:city" v="Fié allo Sciliar"/>
    <tag k="addr:country" v="IT"/>
    <tag k="addr:housename" v="Ferienhaus"/>
    <tag k="addr:housenumber" v="7"/>
    <tag k="addr:postcode" v="39050"/>
    <tag k="addr:street" v="Aica di Sotto"/>
    <tag k="name" v="Tommelehof"/>
    <tag k="source" v="survey by RambaZamba"/>
  </node>
  <node id="470409980" version="9" timestamp="2009-08-30T10:18:24Z" uid="156995" user="HampelZamba" changeset="2311254" lat="46.4990524" lon="11.4655635">
    <tag k="addr:city" v="Fié allo Sciliar"/>
    <tag k="addr:country" v="IT"/>
    <tag k="addr:housename" v="Ferienhaus"/>
    <tag k="addr:housenumber" v="7"/>
    <tag k="addr:postcode" v="39050"/>
    <tag k="addr:street" v="Aica di Sotto"/>
    <tag k="name" v="Tommelehof"/>
    <tag k="source" v="survey"/>
  </node>
  <node id="470409980" version="10" timestamp="2009-08-30T10:36:42Z" uid="36809" user="pfoten_weg_!_" changeset="2311615" lat="46.4990524" lon="11.4655635">
    <tag k="addr:city" v="Fié allo Sciliar"/>
    <tag k="addr:country" v="IT"/>
    <tag k="addr:housename" v="Ferienhaus"/>
    <tag k="addr:housenumber" v="7"/>
    <tag k="addr:postcode" v="39050"/>
    <tag k="addr:street" v="Aica di Sotto"/>
    <tag k="name" v="Tommelehof"/>
    <tag k="source" v="survey"/>
  </node>
  <node id="470409980" version="11" timestamp="2009-09-19T20:15:19Z" uid="36809" user="pfoten_weg_!_" changeset="2538688" lat="46.4990524" lon="11.4655635">
    <tag k="addr:city" v="Fié allo Sciliar"/>
    <tag k="addr:country" v="IT"/>
    <tag k="addr:housename" v="Ferienhaus"/>
    <tag k="addr:housenumber" v="7"/>
    <tag k="addr:postcode" v="39050"/>
    <tag k="addr:street" v="Aica di Sotto"/>
    <tag k="name" v="Tommelehof"/>
    <tag k="source" v="survey"/>
  </node>
  <node id="470409987" version="1" timestamp="2009-08-18T16:58:15Z" uid="36809" user="pfoten_weg_!_" changeset="2192221" lat="46.4987841" lon="11.464837"/>
  <node id="470409987" version="2" timestamp="2009-09-19T20:15:19Z" uid="36809" user="pfoten_weg_!_" changeset="2538688" lat="46.4987841" lon="11.464837"/>
  <node id="470409992" version="1" timestamp="2009-08-18T16:58:16Z" uid="36809" user="pfoten_weg_!_" changeset="2192221" lat="46.4964856" lon="11.4614902"/>
  <node id="470409992" version="2" timestamp="2009-09-19T20:12:30Z" uid="36809" user="pfoten_weg_!_" changeset="2538662" lat="46.4964856" lon="11.4614902"/>
</osm>
