<?xml version='1.0' encoding='UTF-8'?>
<osm version="0.6" generator="libosmium/2.20.0">
  <node id="470698455" version="1" timestamp="2009-08-18T22:06:08Z" uid="138868" user="zokiNBGD" changeset="2195785" lat="44.8174867" lon="20.401879">
    <tag k="shop" v="supermarket"/>
  </node>
  <node id="470699516" version="1" timestamp="2009-08-18T22:07:07Z" uid="138868" user="zokiNBGD" changeset="2195785" lat="44.8192523" lon="20.4002654">
    <tag k="amenity" v="school"/>
    <tag k="name" v="O.Š. Đuro Strugar"/>
  </node>
  <node id="470699516" version="2" timestamp="2012-03-04T13:07:41Z" uid="441816" user="kmilos" changeset="10868106" lat="44.8192523" lon="20.4002654">
    <tag k="amenity" v="school"/>
    <tag k="name" v="OŠ „Đuro Strugar“"/>
    <tag k="name:sr" v="ОШ „Ђуро Стругар“"/>
  </node>
  <node id="470699516" version="3" timestamp="2012-03-10T12:53:10Z" uid="441816" user="kmilos" changeset="10931293" lat="44.8192523" lon="20.4002654">
    <tag k="amenity" v="school"/>
    <tag k="name" v="ОШ „Ђуро Стругар“"/>
    <tag k="name:sr" v="ОШ „Ђуро Стругар“"/>
    <tag k="name:sr-Latn" v="OŠ „Đuro Strugar“"/>
  </node>
</osm>
