<?xml version='1.0' encoding='UTF-8'?>
<osm version="0.6" generator="libosmium/2.20.0">
  <node id="47140421" version="2" timestamp="2008-08-23T23:45:29Z" uid="36809" user="pfoten_weg_!_" changeset="384601" lat="48.0943819" lon="11.5327641">
    <tag k="created_by" v="RambaZamba"/>
    <tag k="name" v="Siemenswerke"/>
    <tag k="railway" v="station"/>
  </node>
  <node id="47140421" version="3" timestamp="2008-09-15T12:46:34Z" uid="36809" user="pfoten_weg_!_" changeset="638986" lat="48.0943819" lon="11.5327641">
    <tag k="created_by" v="RambaZamba"/>
    <tag k="name" v="Siemenswerke"/>
    <tag k="railway" v="station"/>
    <tag k="source" v="survey "/>
  </node>
  <node id="47140421" version="4" timestamp="2008-09-16T06:01:57Z" uid="31231" user="Andre68" changeset="645611" lat="48.0943819" lon="11.5327641">
    <tag k="created_by" v="RambaZamba"/>
    <tag k="name" v="Siemenswerke"/>
    <tag k="railway" v="station"/>
    <tag k="source" v="survey"/>
  </node>
  <node id="47140421" version="5" timestamp="2008-09-21T23:51:57Z" uid="36809" user="pfoten_weg_!_" changeset="678890" lat="48.0943819" lon="11.5327641">
    <tag k="created_by" v="RambaZamba"/>
    <tag k="name" v="Siemenswerke"/>
    <tag k="railway" v="station"/>
    <tag k="source" v="survey"/>
  </node>
  <node id="47140421" version="6" timestamp="2008-10-01T01:01:07Z" uid="36809" user="pfoten_weg_!_" changeset="5644" lat="48.0943819" lon="11.5327641">
    <tag k="created_by" v="RambaZamba"/>
    <tag k="name" v="Siemenswerke"/>
    <tag k="railway" v="station"/>
    <tag k="source" v="survey"/>
  </node>
  <node id="47140421" version="7" timestamp="2008-10-14T15:04:25Z" uid="48243" user="safado" changeset="335749" lat="48.0943065" lon="11.5327266">
    <tag k="name" v="Siemenswerke"/>
    <tag k="railway" v="station"/>
    <tag k="source" v="survey"/>
  </node>
  <node id="47140421" version="8" timestamp="2008-10-22T00:04:29Z" uid="36809" user="pfoten_weg_!_" changeset="498765" lat="48.0943065" lon="11.5327266">
    <tag k="created_by" v="RambaZamba"/>
    <tag k="name" v="Siemenswerke"/>
    <tag k="railway" v="station"/>
    <tag k="source" v="survey"/>
  </node>
  <node id="47140421" version="9" timestamp="2009-06-08T11:57:05Z" uid="132988" user="ich-liebe-euch" changeset="1457959" lat="48.0943065" lon="11.5327266">
    <tag k="name" v="Siemenswerke"/>
    <tag k="railway" v="station"/>
    <tag k="source" v="survey"/>
  </node>
  <node id="47140421" version="10" timestamp="2009-06-08T13:38:05Z" uid="36809" user="pfoten_weg_!_" changeset="1458869" lat="48.0943065" lon="11.5327266">
    <tag k="created_by" v="RambaZamba"/>
    <tag k="name" v="Siemenswerke"/>
    <tag k="railway" v="station"/>
    <tag k="source" v="survey"/>
  </node>
  <node id="47140421" version="11" timestamp="2009-08-12T12:37:22Z" uid="156995" user="HampelZamba" changeset="2118306" lat="48.0943065" lon="11.5327266">
    <tag k="name" v="Siemenswerke"/>
    <tag k="railway" v="station"/>
    <tag k="source" v="survey"/>
  </node>
  <node id="47140421" version="12" timestamp="2009-08-31T20:39:12Z" uid="36809" user="pfoten_weg_!_" changeset="2331411" lat="48.0943065" lon="11.5327266">
    <tag k="name" v="Siemenswerke"/>
    <tag k="railway" v="station"/>
    <tag k="source" v="survey"/>
  </node>
  <node id="47140421" version="13" timestamp="2009-10-13T23:35:45Z" uid="36809" user="pfoten_weg_!_" changeset="2841273" lat="48.0943065" lon="11.5327266">
    <tag k="name" v="Siemenswerke"/>
    <tag k="railway" v="station"/>
  </node>
  <node id="47140421" version="14" timestamp="2011-10-17T20:32:29Z" uid="64536" user="Michael Forster" changeset="9586104" lat="48.0943065" lon="11.5327266">
    <tag k="name" v="Siemenswerke"/>
    <tag k="public_transport" v="stop_position"/>
    <tag k="railway" v="station"/>
    <tag k="train" v="yes"/>
  </node>
  <node id="47144350" version="7" timestamp="2010-09-01T22:42:06Z" uid="6975" user="ulfl" changeset="5658200" lat="47.3348795" lon="-120.5781291">
    <tag k="ele" v="1250"/>
    <tag k="mountain_pass" v="yes"/>
    <tag k="name" v="Blewett Pass"/>
    <tag k="wikipedia" v="http://en.wikipedia.org/wiki/Blewett_Pass"/>
  </node>
</osm>
