<?xml version='1.0' encoding='UTF-8'?>
<osm version="0.6" generator="libosmium/2.20.0">
  <node id="472040858" version="4" timestamp="2009-12-24T04:04:33Z" uid="6975" user="ulfl" changeset="3439829" lat="52.6999836" lon="-2.516159">
    <tag k="dispensing" v="no"/>
    <tag k="name" v="Savers"/>
    <tag k="shop" v="chemist"/>
  </node>
  <node id="472040858" version="5" timestamp="2010-05-27T08:41:41Z" uid="36667" user="Flo(o)r" changeset="4820113" lat="52.6999756" lon="-2.5161933">
    <tag k="dispensing" v="no"/>
    <tag k="name" v="Savers"/>
    <tag k="shop" v="chemist"/>
  </node>
  <node id="472040858" version="6" timestamp="2010-10-10T20:14:45Z" uid="357138" user="Jorge749" changeset="6006201" lat="52.6999756" lon="-2.5161934">
    <tag k="dispensing" v="no"/>
    <tag k="name" v="Savers"/>
    <tag k="shop" v="chemist"/>
  </node>
  <node id="472044175" version="3" timestamp="2009-09-14T19:22:25Z" uid="103576" user="DiverCTH" changeset="2485516" lat="35.7794204" lon="-84.3482234">
    <tag k="highway" v="motorway_junction"/>
    <tag k="ref" v="76"/>
  </node>
</osm>
