<?xml version='1.0' encoding='UTF-8'?>
<osm version="0.6" generator="libosmium/2.20.0">
  <node id="473770197" version="1" timestamp="2009-08-25T18:56:55Z" uid="36809" user="pfoten_weg_!_" changeset="2260316" lat="48.0801075" lon="11.5115279">
    <tag k="discovered_by" v="RambaZamba"/>
    <tag k="name" v="Orterer Getränkemarkt"/>
    <tag k="shop" v="beverages"/>
    <tag k="source" v="survey"/>
  </node>
  <node id="473770197" version="2" timestamp="2009-08-30T09:16:31Z" uid="156995" user="HampelZamba" changeset="2310659" lat="48.0801075" lon="11.5115279">
    <tag k="name" v="Orterer Getränkemarkt"/>
    <tag k="shop" v="beverages"/>
    <tag k="source" v="survey"/>
  </node>
  <node id="473770197" version="3" timestamp="2009-08-31T21:09:28Z" uid="36809" user="pfoten_weg_!_" changeset="2331411" lat="48.0801075" lon="11.5115279">
    <tag k="name" v="Orterer Getränkemarkt"/>
    <tag k="shop" v="beverages"/>
    <tag k="source" v="survey"/>
  </node>
  <node id="473770197" version="4" timestamp="2009-10-03T17:38:39Z" uid="179968" user="Ich_hasse_doitsche_OSM-Korinthenkacker" changeset="2727120" lat="48.0801075" lon="11.5115279">
    <tag k="name" v="Orterer Getränkemarkt"/>
    <tag k="shop" v="beverages"/>
  </node>
  <node id="473770197" version="5" timestamp="2010-05-03T13:17:42Z" uid="30579" user="Tiramisu" changeset="4594774" lat="48.0801075" lon="11.5115279">
    <tag k="name" v="Orterer Getränkemarkt"/>
    <tag k="shop" v="beverages"/>
  </node>
  <node id="473770206" version="1" timestamp="2009-08-25T18:56:55Z" uid="36809" user="pfoten_weg_!_" changeset="2260316" lat="48.080107" lon="11.511617">
    <tag k="addr:city" v="München"/>
    <tag k="addr:country" v="DE"/>
    <tag k="addr:housename" v="Pavillon"/>
    <tag k="addr:housenumber" v="42"/>
    <tag k="addr:postcode" v="81479"/>
    <tag k="addr:street" v="Uhdestraße"/>
    <tag k="discovered_by" v="RambaZamba"/>
    <tag k="source" v="survey"/>
  </node>
  <node id="473770206" version="2" timestamp="2009-08-30T09:16:31Z" uid="156995" user="HampelZamba" changeset="2310659" lat="48.080107" lon="11.511617">
    <tag k="addr:city" v="München"/>
    <tag k="addr:country" v="DE"/>
    <tag k="addr:housename" v="Pavillon"/>
    <tag k="addr:housenumber" v="42"/>
    <tag k="addr:postcode" v="81479"/>
    <tag k="addr:street" v="Uhdestraße"/>
    <tag k="source" v="survey"/>
  </node>
  <node id="473770206" version="3" timestamp="2009-08-31T21:09:28Z" uid="36809" user="pfoten_weg_!_" changeset="2331411" lat="48.080107" lon="11.511617">
    <tag k="addr:city" v="München"/>
    <tag k="addr:country" v="DE"/>
    <tag k="addr:housename" v="Pavillon"/>
    <tag k="addr:housenumber" v="42"/>
    <tag k="addr:postcode" v="81479"/>
    <tag k="addr:street" v="Uhdestraße"/>
    <tag k="source" v="survey"/>
  </node>
  <node id="473770206" version="4" timestamp="2009-10-02T20:44:24Z" uid="86259" user="hasse_osm_korinthenkacker" changeset="2717407" lat="48.080107" lon="11.511617">
    <tag k="addr:city" v="München"/>
    <tag k="addr:country" v="DE"/>
    <tag k="addr:housename" v="Pavillon"/>
    <tag k="addr:housenumber" v="42"/>
    <tag k="addr:postcode" v="81479"/>
    <tag k="addr:street" v="Uhdestraße"/>
    <tag k="source" v="survey"/>
  </node>
  <node id="473770217" version="1" timestamp="2009-08-25T18:56:56Z" uid="36809" user="pfoten_weg_!_" changeset="2260316" lat="48.0764482" lon="11.5252284">
    <tag k="amenity" v="post_box"/>
    <tag k="discovered_by" v="RambaZamba"/>
    <tag k="name" v="Deutsche Post Briefkasten"/>
    <tag k="operator" v="Deutsche Post"/>
    <tag k="source" v="survey"/>
  </node>
  <node id="473770217" version="2" timestamp="2009-08-25T19:15:11Z" uid="36809" user="pfoten_weg_!_" changeset="2260562" lat="48.0764482" lon="11.5252284">
    <tag k="amenity" v="post_box"/>
    <tag k="discovered_by" v="RambaZamba"/>
    <tag k="name" v="Deutsche Post Briefkasten"/>
    <tag k="operator" v="Deutsche Post"/>
    <tag k="source" v="survey"/>
  </node>
  <node id="473770232" version="1" timestamp="2009-08-25T18:56:56Z" uid="36809" user="pfoten_weg_!_" changeset="2260316" lat="48.073207" lon="11.5218361">
    <tag k="amenity" v="post_box"/>
    <tag k="discovered_by" v="RambaZamba"/>
    <tag k="name" v="Deutsche Post Briefkasten"/>
    <tag k="operator" v="Deutsche Post"/>
    <tag k="source" v="survey"/>
  </node>
  <node id="473770232" version="2" timestamp="2009-08-25T19:15:11Z" uid="36809" user="pfoten_weg_!_" changeset="2260562" lat="48.073207" lon="11.5218361">
    <tag k="amenity" v="post_box"/>
    <tag k="discovered_by" v="RambaZamba"/>
    <tag k="name" v="Deutsche Post Briefkasten"/>
    <tag k="operator" v="Deutsche Post"/>
    <tag k="source" v="survey"/>
  </node>
  <node id="473770245" version="1" timestamp="2009-08-25T18:56:57Z" uid="36809" user="pfoten_weg_!_" changeset="2260316" lat="48.0727641" lon="11.5103384">
    <tag k="amenity" v="post_box"/>
    <tag k="discovered_by" v="RambaZamba"/>
    <tag k="name" v="Deutsche Post Briefkasten"/>
    <tag k="operator" v="Deutsche Post"/>
    <tag k="source" v="survey"/>
  </node>
  <node id="473770245" version="2" timestamp="2009-08-25T19:15:11Z" uid="36809" user="pfoten_weg_!_" changeset="2260562" lat="48.0727641" lon="11.5103384">
    <tag k="amenity" v="post_box"/>
    <tag k="discovered_by" v="RambaZamba"/>
    <tag k="name" v="Deutsche Post Briefkasten"/>
    <tag k="operator" v="Deutsche Post"/>
    <tag k="source" v="survey"/>
  </node>
  <node id="473770260" version="1" timestamp="2009-08-25T18:56:57Z" uid="36809" user="pfoten_weg_!_" changeset="2260316" lat="48.078414" lon="11.5067149">
    <tag k="amenity" v="post_box"/>
    <tag k="discovered_by" v="RambaZamba"/>
    <tag k="name" v="Deutsche Post Briefkasten"/>
    <tag k="operator" v="Deutsche Post"/>
    <tag k="source" v="survey"/>
  </node>
  <node id="473770260" version="2" timestamp="2009-08-25T19:15:10Z" uid="36809" user="pfoten_weg_!_" changeset="2260562" lat="48.078414" lon="11.5067149">
    <tag k="amenity" v="post_box"/>
    <tag k="discovered_by" v="RambaZamba"/>
    <tag k="name" v="Deutsche Post Briefkasten"/>
    <tag k="operator" v="Deutsche Post"/>
    <tag k="source" v="survey"/>
  </node>
  <node id="473770277" version="1" timestamp="2009-08-25T18:56:57Z" uid="36809" user="pfoten_weg_!_" changeset="2260316" lat="48.077072" lon="11.5186063">
    <tag k="amenity" v="post_box"/>
    <tag k="discovered_by" v="RambaZamba"/>
    <tag k="name" v="Deutsche Post Briefkasten"/>
    <tag k="operator" v="Deutsche Post"/>
    <tag k="source" v="survey"/>
  </node>
  <node id="473770277" version="2" timestamp="2009-08-25T19:15:10Z" uid="36809" user="pfoten_weg_!_" changeset="2260562" lat="48.077072" lon="11.5186063">
    <tag k="amenity" v="post_box"/>
    <tag k="discovered_by" v="RambaZamba"/>
    <tag k="name" v="Deutsche Post Briefkasten"/>
    <tag k="operator" v="Deutsche Post"/>
    <tag k="source" v="survey"/>
  </node>
  <node id="473770296" version="1" timestamp="2009-08-25T18:56:58Z" uid="36809" user="pfoten_weg_!_" changeset="2260316" lat="48.0616151" lon="11.5216345">
    <tag k="amenity" v="post_box"/>
    <tag k="collection_times" v="Mo-Fr 16:15;Sa 10:15"/>
    <tag k="discovered_by" v="RambaZamba"/>
    <tag k="name" v="Deutsche Post Briefkasten"/>
    <tag k="operator" v="Deutsche Post"/>
    <tag k="source" v="survey"/>
  </node>
  <node id="473770296" version="2" timestamp="2009-08-25T19:15:10Z" uid="36809" user="pfoten_weg_!_" changeset="2260562" lat="48.0616151" lon="11.5216345">
    <tag k="amenity" v="post_box"/>
    <tag k="collection_times" v="Mo-Fr 16:15;Sa 10:15"/>
    <tag k="discovered_by" v="RambaZamba"/>
    <tag k="name" v="Deutsche Post Briefkasten"/>
    <tag k="operator" v="Deutsche Post"/>
    <tag k="source" v="survey"/>
  </node>
  <node id="473770306" version="1" timestamp="2009-08-25T18:56:59Z" uid="36809" user="pfoten_weg_!_" changeset="2260316" lat="48.0744452" lon="11.5265643">
    <tag k="amenity" v="post_box"/>
    <tag k="collection_times" v="Mo-Fr 15:45,16:45; Sa 10:30"/>
    <tag k="discovered_by" v="RambaZamba"/>
    <tag k="name" v="Deutsche Post Briefkasten"/>
    <tag k="operator" v="Deutsche Post"/>
    <tag k="source" v="survey"/>
  </node>
  <node id="473770306" version="2" timestamp="2009-08-25T19:15:09Z" uid="36809" user="pfoten_weg_!_" changeset="2260562" lat="48.0744452" lon="11.5265643">
    <tag k="amenity" v="post_box"/>
    <tag k="collection_times" v="Mo-Fr 15:45,16:45; Sa 10:30"/>
    <tag k="discovered_by" v="RambaZamba"/>
    <tag k="name" v="Deutsche Post Briefkasten"/>
    <tag k="operator" v="Deutsche Post"/>
    <tag k="source" v="survey"/>
  </node>
  <node id="473770326" version="1" timestamp="2009-08-25T18:56:59Z" uid="36809" user="pfoten_weg_!_" changeset="2260316" lat="48.077342" lon="11.5260781">
    <tag k="amenity" v="post_box"/>
    <tag k="collection_times" v="Mo-Fr 15:45,16:45; Sa 10:30; Su 08:30"/>
    <tag k="discovered_by" v="RambaZamba"/>
    <tag k="name" v="Deutsche Post Briefkasten"/>
    <tag k="operator" v="Deutsche Post"/>
    <tag k="source" v="survey"/>
  </node>
  <node id="473770326" version="2" timestamp="2009-08-25T19:15:09Z" uid="36809" user="pfoten_weg_!_" changeset="2260562" lat="48.077342" lon="11.5260781">
    <tag k="amenity" v="post_box"/>
    <tag k="collection_times" v="Mo-Fr 15:45,16:45; Sa 10:30; Su 08:30"/>
    <tag k="discovered_by" v="RambaZamba"/>
    <tag k="name" v="Deutsche Post Briefkasten"/>
    <tag k="operator" v="Deutsche Post"/>
    <tag k="source" v="survey"/>
  </node>
  <node id="473770335" version="1" timestamp="2009-08-25T18:56:59Z" uid="36809" user="pfoten_weg_!_" changeset="2260316" lat="48.0801519" lon="11.5119628">
    <tag k="amenity" v="post_box"/>
    <tag k="discovered_by" v="RambaZamba"/>
    <tag k="name" v="Deutsche Post Briefkasten"/>
    <tag k="operator" v="Deutsche Post"/>
    <tag k="source" v="survey"/>
  </node>
  <node id="473770335" version="2" timestamp="2009-08-25T19:15:09Z" uid="36809" user="pfoten_weg_!_" changeset="2260562" lat="48.0801519" lon="11.5119628">
    <tag k="amenity" v="post_box"/>
    <tag k="discovered_by" v="RambaZamba"/>
    <tag k="name" v="Deutsche Post Briefkasten"/>
    <tag k="operator" v="Deutsche Post"/>
    <tag k="source" v="survey"/>
  </node>
  <node id="473770345" version="1" timestamp="2009-08-25T18:57:00Z" uid="36809" user="pfoten_weg_!_" changeset="2260316" lat="48.0663651" lon="11.5191727">
    <tag k="amenity" v="post_box"/>
    <tag k="discovered_by" v="RambaZamba"/>
    <tag k="name" v="Deutsche Post Briefkasten"/>
    <tag k="operator" v="Deutsche Post"/>
    <tag k="source" v="survey"/>
  </node>
  <node id="473770345" version="2" timestamp="2009-08-25T19:15:09Z" uid="36809" user="pfoten_weg_!_" changeset="2260562" lat="48.0663651" lon="11.5191727">
    <tag k="amenity" v="post_box"/>
    <tag k="discovered_by" v="RambaZamba"/>
    <tag k="name" v="Deutsche Post Briefkasten"/>
    <tag k="operator" v="Deutsche Post"/>
    <tag k="source" v="survey"/>
  </node>
  <node id="473770363" version="1" timestamp="2009-08-25T18:57:00Z" uid="36809" user="pfoten_weg_!_" changeset="2260316" lat="48.065994" lon="11.5303309">
    <tag k="amenity" v="post_box"/>
    <tag k="discovered_by" v="RambaZamba"/>
    <tag k="name" v="Deutsche Post Briefkasten"/>
    <tag k="operator" v="Deutsche Post"/>
    <tag k="source" v="survey"/>
  </node>
  <node id="473770363" version="2" timestamp="2009-08-25T19:15:08Z" uid="36809" user="pfoten_weg_!_" changeset="2260562" lat="48.065994" lon="11.5303309">
    <tag k="amenity" v="post_box"/>
    <tag k="discovered_by" v="RambaZamba"/>
    <tag k="name" v="Deutsche Post Briefkasten"/>
    <tag k="operator" v="Deutsche Post"/>
    <tag k="source" v="survey"/>
  </node>
  <node id="473770385" version="1" timestamp="2009-08-25T18:57:01Z" uid="36809" user="pfoten_weg_!_" changeset="2260316" lat="48.076244" lon="11.5136989">
    <tag k="amenity" v="post_box"/>
    <tag k="discovered_by" v="RambaZamba"/>
    <tag k="name" v="Deutsche Post Briefkasten"/>
    <tag k="operator" v="Deutsche Post"/>
    <tag k="source" v="survey"/>
  </node>
  <node id="473770385" version="2" timestamp="2009-08-25T19:15:08Z" uid="36809" user="pfoten_weg_!_" changeset="2260562" lat="48.076244" lon="11.5136989">
    <tag k="amenity" v="post_box"/>
    <tag k="discovered_by" v="RambaZamba"/>
    <tag k="name" v="Deutsche Post Briefkasten"/>
    <tag k="operator" v="Deutsche Post"/>
    <tag k="source" v="survey"/>
  </node>
  <node id="473770399" version="1" timestamp="2009-08-25T18:57:01Z" uid="36809" user="pfoten_weg_!_" changeset="2260316" lat="48.0712385" lon="11.532098">
    <tag k="amenity" v="post_box"/>
    <tag k="discovered_by" v="RambaZamba"/>
    <tag k="name" v="Deutsche Post Briefkasten"/>
    <tag k="operator" v="Deutsche Post"/>
    <tag k="source" v="survey"/>
  </node>
  <node id="473770399" version="2" timestamp="2009-08-25T19:06:12Z" uid="36809" user="pfoten_weg_!_" changeset="2260462" lat="48.0712385" lon="11.532098">
    <tag k="amenity" v="post_box"/>
    <tag k="discovered_by" v="RambaZamba"/>
    <tag k="name" v="Deutsche Post Briefkasten"/>
    <tag k="operator" v="Deutsche Post"/>
    <tag k="source" v="survey"/>
  </node>
  <node id="473773409" version="1" timestamp="2009-08-25T19:01:14Z" uid="36809" user="pfoten_weg_!_" changeset="2260381" lat="48.0665011" lon="11.5338584">
    <tag k="discovered_by" v="RambaZamba"/>
    <tag k="ele" v="577"/>
    <tag k="historic" v="monument"/>
    <tag k="man_made" v="water_tower"/>
    <tag k="name" v="Wasserturm"/>
    <tag k="ref" v="Kgl. Hofbrunnwerke München 1898"/>
    <tag k="source" v="survey"/>
  </node>
  <node id="473773409" version="2" timestamp="2009-08-30T09:17:33Z" uid="156995" user="HampelZamba" changeset="2310659" lat="48.0665011" lon="11.5338584">
    <tag k="ele" v="577"/>
    <tag k="historic" v="monument"/>
    <tag k="man_made" v="water_tower"/>
    <tag k="name" v="Wasserturm"/>
    <tag k="ref" v="Kgl. Hofbrunnwerke München 1898"/>
    <tag k="source" v="survey"/>
  </node>
  <node id="473773409" version="3" timestamp="2009-08-31T21:07:54Z" uid="36809" user="pfoten_weg_!_" changeset="2331411" lat="48.0665011" lon="11.5338584">
    <tag k="ele" v="577"/>
    <tag k="historic" v="monument"/>
    <tag k="man_made" v="water_tower"/>
    <tag k="name" v="Wasserturm"/>
    <tag k="ref" v="Kgl. Hofbrunnwerke München 1898"/>
    <tag k="source" v="survey"/>
  </node>
  <node id="473773409" version="4" timestamp="2009-10-02T21:24:18Z" uid="86259" user="hasse_osm_korinthenkacker" changeset="2717728" lat="48.0665011" lon="11.5338584">
    <tag k="ele" v="577"/>
    <tag k="historic" v="monument"/>
    <tag k="man_made" v="water_tower"/>
    <tag k="name" v="Wasserturm"/>
    <tag k="ref" v="Kgl. Hofbrunnwerke München 1898"/>
  </node>
  <node id="473773428" version="1" timestamp="2009-08-25T19:01:14Z" uid="36809" user="pfoten_weg_!_" changeset="2260381" lat="48.0713658" lon="11.534912"/>
  <node id="473773428" version="2" timestamp="2011-04-01T07:28:55Z" uid="42393" user="mawi42" changeset="7732629" lat="48.0713641" lon="11.534906"/>
  <node id="473773441" version="1" timestamp="2009-08-25T19:01:15Z" uid="36809" user="pfoten_weg_!_" changeset="2260381" lat="48.0712589" lon="11.5349808"/>
  <node id="473773441" version="2" timestamp="2011-04-01T07:28:55Z" uid="42393" user="mawi42" changeset="7732629" lat="48.0712512" lon="11.5349624"/>
  <node id="473773460" version="1" timestamp="2009-08-25T19:01:15Z" uid="36809" user="pfoten_weg_!_" changeset="2260381" lat="48.0712865" lon="11.5348879"/>
  <node id="473773460" version="2" timestamp="2011-04-01T07:28:55Z" uid="42393" user="mawi42" changeset="7732629" lat="48.0712832" lon="11.5348683"/>
  <node id="473773470" version="1" timestamp="2009-08-25T19:01:15Z" uid="36809" user="pfoten_weg_!_" changeset="2260381" lat="48.0714413" lon="11.5350882"/>
  <node id="473773470" version="2" timestamp="2011-04-01T07:28:55Z" uid="42393" user="mawi42" changeset="7732629" lat="48.0714764" lon="11.5350817"/>
  <node id="473773478" version="1" timestamp="2009-08-25T19:01:16Z" uid="36809" user="pfoten_weg_!_" changeset="2260381" lat="48.0714303" lon="11.5347004"/>
  <node id="473773478" version="2" timestamp="2011-04-01T07:28:56Z" uid="42393" user="mawi42" changeset="7732629" lat="48.0714285" lon="11.5346909"/>
  <node id="473773485" version="1" timestamp="2009-08-25T19:01:16Z" uid="36809" user="pfoten_weg_!_" changeset="2260381" lat="48.0712367" lon="11.5350555"/>
  <node id="473773485" version="2" timestamp="2011-04-01T07:28:54Z" uid="42393" user="mawi42" changeset="7732629" lat="48.0712265" lon="11.5350371"/>
  <node id="473773493" version="1" timestamp="2009-08-25T19:01:16Z" uid="36809" user="pfoten_weg_!_" changeset="2260381" lat="48.0712953" lon="11.5348583"/>
  <node id="473773493" version="2" timestamp="2011-04-01T07:28:55Z" uid="42393" user="mawi42" changeset="7732629" lat="48.0712885" lon="11.5348509"/>
  <node id="473773500" version="1" timestamp="2009-08-25T19:01:16Z" uid="36809" user="pfoten_weg_!_" changeset="2260381" lat="48.071427" lon="11.5347219"/>
  <node id="473773500" version="2" timestamp="2011-04-01T07:28:55Z" uid="42393" user="mawi42" changeset="7732629" lat="48.0714255" lon="11.534716"/>
  <node id="473773507" version="1" timestamp="2009-08-25T19:01:17Z" uid="36809" user="pfoten_weg_!_" changeset="2260381" lat="48.0714898" lon="11.5347171"/>
  <node id="473773507" version="2" timestamp="2011-04-01T07:28:54Z" uid="42393" user="mawi42" changeset="7732629" lat="48.0715265" lon="11.5347202"/>
  <node id="473773513" version="1" timestamp="2009-08-25T19:01:17Z" uid="36809" user="pfoten_weg_!_" changeset="2260381" lat="48.0714504" lon="11.5347657">
    <tag k="amenity" v="place_of_worship"/>
    <tag k="denomination" v="catholic"/>
    <tag k="discovered_by" v="RambaZamba"/>
    <tag k="man_made" v="tower"/>
    <tag k="name" v="Heilig Dreifaltigkeit"/>
    <tag k="religion" v="christian"/>
    <tag k="source" v="survey"/>
  </node>
  <node id="473773513" version="2" timestamp="2009-08-30T09:17:21Z" uid="156995" user="HampelZamba" changeset="2310659" lat="48.0714504" lon="11.5347657">
    <tag k="amenity" v="place_of_worship"/>
    <tag k="denomination" v="catholic"/>
    <tag k="man_made" v="tower"/>
    <tag k="name" v="Heilig Dreifaltigkeit"/>
    <tag k="religion" v="christian"/>
    <tag k="source" v="survey"/>
  </node>
  <node id="473773513" version="3" timestamp="2009-08-31T21:07:53Z" uid="36809" user="pfoten_weg_!_" changeset="2331411" lat="48.0714504" lon="11.5347657">
    <tag k="amenity" v="place_of_worship"/>
    <tag k="denomination" v="catholic"/>
    <tag k="man_made" v="tower"/>
    <tag k="name" v="Heilig Dreifaltigkeit"/>
    <tag k="religion" v="christian"/>
    <tag k="source" v="survey"/>
  </node>
  <node id="473773513" version="4" timestamp="2009-10-03T17:37:58Z" uid="179968" user="Ich_hasse_doitsche_OSM-Korinthenkacker" changeset="2727120" lat="48.0714504" lon="11.5347657">
    <tag k="amenity" v="place_of_worship"/>
    <tag k="denomination" v="catholic"/>
    <tag k="man_made" v="tower"/>
    <tag k="name" v="Heilig Dreifaltigkeit"/>
    <tag k="religion" v="christian"/>
  </node>
  <node id="473773513" version="5" timestamp="2011-01-16T08:17:52Z" uid="5359" user="user_5359" changeset="6984794" lat="48.0714504" lon="11.5347657">
    <tag k="addr:city" v="Pullach im Isartal"/>
    <tag k="addr:country" v="DE"/>
    <tag k="addr:housenumber" v="21"/>
    <tag k="addr:postcode" v="82049"/>
    <tag k="addr:street" v="Pullacher Straße"/>
    <tag k="amenity" v="place_of_worship"/>
    <tag k="denomination" v="catholic"/>
    <tag k="man_made" v="tower"/>
    <tag k="name" v="Heilig Dreifaltigkeit"/>
    <tag k="religion" v="christian"/>
  </node>
  <node id="473773513" version="6" timestamp="2011-04-01T07:33:37Z" uid="42393" user="mawi42" changeset="7732629" lat="48.0714731" lon="11.5347218">
    <tag k="addr:city" v="Pullach im Isartal"/>
    <tag k="addr:country" v="DE"/>
    <tag k="addr:housenumber" v="21"/>
    <tag k="addr:postcode" v="82049"/>
    <tag k="addr:street" v="Pullacher Straße"/>
    <tag k="amenity" v="place_of_worship"/>
    <tag k="denomination" v="catholic"/>
    <tag k="man_made" v="tower"/>
    <tag k="name" v="Heilig Dreifaltigkeit"/>
    <tag k="religion" v="christian"/>
  </node>
  <node id="473773521" version="1" timestamp="2009-08-25T19:01:17Z" uid="36809" user="pfoten_weg_!_" changeset="2260381" lat="48.0713785" lon="11.5350686"/>
  <node id="473773521" version="2" timestamp="2011-04-01T07:28:55Z" uid="42393" user="mawi42" changeset="7732629" lat="48.0713822" lon="11.5350515"/>
  <node id="473773521" version="3" timestamp="2011-04-01T07:33:37Z" uid="42393" user="mawi42" changeset="7732629" lat="48.071381" lon="11.5350505"/>
  <node id="473773527" version="1" timestamp="2009-08-25T19:01:18Z" uid="36809" user="pfoten_weg_!_" changeset="2260381" lat="48.0712214" lon="11.5348075"/>
  <node id="473773527" version="2" timestamp="2011-04-01T07:28:55Z" uid="42393" user="mawi42" changeset="7732629" lat="48.0712173" lon="11.5347999"/>
  <node id="473773543" version="1" timestamp="2009-08-25T19:01:18Z" uid="36809" user="pfoten_weg_!_" changeset="2260381" lat="48.0713929" lon="11.5347123"/>
  <node id="473773543" version="2" timestamp="2011-04-01T07:28:55Z" uid="42393" user="mawi42" changeset="7732629" lat="48.0713933" lon="11.5347058"/>
  <node id="473773550" version="1" timestamp="2009-08-25T19:01:18Z" uid="36809" user="pfoten_weg_!_" changeset="2260381" lat="48.0711636" lon="11.5350024"/>
  <node id="473773550" version="2" timestamp="2011-04-01T07:28:54Z" uid="42393" user="mawi42" changeset="7732629" lat="48.0711573" lon="11.5349847"/>
  <node id="473773559" version="1" timestamp="2009-08-25T19:01:19Z" uid="36809" user="pfoten_weg_!_" changeset="2260381" lat="48.071255" lon="11.534993">
    <tag k="addr:city" v="Pullach im Isartal"/>
    <tag k="addr:country" v="DE"/>
    <tag k="addr:housename" v="Kirche"/>
    <tag k="addr:housenumber" v="21"/>
    <tag k="addr:postcode" v="82049"/>
    <tag k="discovered_by" v="RambaZamba"/>
    <tag k="name" v="21"/>
    <tag k="source" v="survey"/>
  </node>
  <node id="473773559" version="2" timestamp="2009-08-30T09:17:21Z" uid="156995" user="HampelZamba" changeset="2310659" lat="48.071255" lon="11.534993">
    <tag k="addr:city" v="Pullach im Isartal"/>
    <tag k="addr:country" v="DE"/>
    <tag k="addr:housename" v="Kirche"/>
    <tag k="addr:housenumber" v="21"/>
    <tag k="addr:postcode" v="82049"/>
    <tag k="name" v="21"/>
    <tag k="source" v="survey"/>
  </node>
  <node id="473773559" version="3" timestamp="2009-08-31T21:07:53Z" uid="36809" user="pfoten_weg_!_" changeset="2331411" lat="48.071255" lon="11.534993">
    <tag k="addr:city" v="Pullach im Isartal"/>
    <tag k="addr:country" v="DE"/>
    <tag k="addr:housename" v="Kirche"/>
    <tag k="addr:housenumber" v="21"/>
    <tag k="addr:postcode" v="82049"/>
    <tag k="name" v="21"/>
    <tag k="source" v="survey"/>
  </node>
  <node id="473773559" version="4" timestamp="2009-10-02T20:44:54Z" uid="86259" user="hasse_osm_korinthenkacker" changeset="2717407" lat="48.071255" lon="11.534993">
    <tag k="addr:city" v="Pullach im Isartal"/>
    <tag k="addr:country" v="DE"/>
    <tag k="addr:housename" v="Kirche"/>
    <tag k="addr:housenumber" v="21"/>
    <tag k="addr:postcode" v="82049"/>
    <tag k="name" v="21"/>
    <tag k="source" v="survey"/>
  </node>
  <node id="473773575" version="1" timestamp="2009-08-25T19:01:19Z" uid="36809" user="pfoten_weg_!_" changeset="2260381" lat="48.0713855" lon="11.5350192"/>
  <node id="473774839" version="1" timestamp="2009-08-25T19:02:57Z" uid="36809" user="pfoten_weg_!_" changeset="2260410" lat="48.0714737" lon="11.5365411"/>
  <node id="473774839" version="2" timestamp="2011-06-18T13:02:37Z" uid="11374" user="q_un_go" changeset="8473101" lat="48.0714737" lon="11.5365411"/>
  <node id="473774850" version="1" timestamp="2009-08-25T19:02:57Z" uid="36809" user="pfoten_weg_!_" changeset="2260410" lat="48.0719554" lon="11.5365871"/>
  <node id="473774850" version="2" timestamp="2011-06-18T13:02:38Z" uid="11374" user="q_un_go" changeset="8473101" lat="48.0719554" lon="11.5365871"/>
  <node id="473774854" version="1" timestamp="2009-08-25T19:02:58Z" uid="36809" user="pfoten_weg_!_" changeset="2260410" lat="48.0719164" lon="11.5365182"/>
  <node id="473774854" version="2" timestamp="2011-06-18T13:02:35Z" uid="11374" user="q_un_go" changeset="8473101" lat="48.0719164" lon="11.5365182"/>
  <node id="473774855" version="1" timestamp="2009-08-25T19:02:58Z" uid="36809" user="pfoten_weg_!_" changeset="2260410" lat="48.0714819" lon="11.5364881"/>
  <node id="473774855" version="2" timestamp="2011-06-18T13:02:38Z" uid="11374" user="q_un_go" changeset="8473101" lat="48.0714819" lon="11.5364881"/>
  <node id="473774860" version="1" timestamp="2009-08-25T19:02:58Z" uid="36809" user="pfoten_weg_!_" changeset="2260410" lat="48.0715893" lon="11.5352127"/>
  <node id="473774860" version="2" timestamp="2011-04-01T06:59:02Z" uid="42393" user="mawi42" changeset="7732541" lat="48.071574" lon="11.5352001"/>
  <node id="473774863" version="1" timestamp="2009-08-25T19:02:58Z" uid="36809" user="pfoten_weg_!_" changeset="2260410" lat="48.071796" lon="11.5366454"/>
  <node id="473774863" version="2" timestamp="2011-06-18T13:02:37Z" uid="11374" user="q_un_go" changeset="8473101" lat="48.071796" lon="11.5366454"/>
  <node id="473774869" version="1" timestamp="2009-08-25T19:02:59Z" uid="36809" user="pfoten_weg_!_" changeset="2260410" lat="48.0710239" lon="11.5367037"/>
  <node id="473774869" version="2" timestamp="2012-02-11T19:53:40Z" uid="342705" user="KLMB" changeset="10656709" lat="48.0710239" lon="11.5367037"/>
  <node id="473774871" version="1" timestamp="2009-08-25T19:02:59Z" uid="36809" user="pfoten_weg_!_" changeset="2260410" lat="48.0715992" lon="11.5351624"/>
  <node id="473774871" version="2" timestamp="2011-04-01T06:59:02Z" uid="42393" user="mawi42" changeset="7732541" lat="48.0715882" lon="11.5351553"/>
  <node id="473774872" version="1" timestamp="2009-08-25T19:02:59Z" uid="36809" user="pfoten_weg_!_" changeset="2260410" lat="48.0718704" lon="11.5366136"/>
  <node id="473774872" version="2" timestamp="2011-06-18T13:02:34Z" uid="11374" user="q_un_go" changeset="8473101" lat="48.0718704" lon="11.5366136"/>
  <node id="473774881" version="1" timestamp="2009-08-25T19:03:00Z" uid="36809" user="pfoten_weg_!_" changeset="2260410" lat="48.0714808" lon="11.53658"/>
  <node id="473774881" version="2" timestamp="2011-06-18T13:02:35Z" uid="11374" user="q_un_go" changeset="8473101" lat="48.0714808" lon="11.53658"/>
  <node id="473774889" version="1" timestamp="2009-08-25T19:03:00Z" uid="36809" user="pfoten_weg_!_" changeset="2260410" lat="48.0716153" lon="11.5365641"/>
  <node id="473774889" version="2" timestamp="2011-06-18T13:02:34Z" uid="11374" user="q_un_go" changeset="8473101" lat="48.0716153" lon="11.5365641"/>
  <node id="473774902" version="1" timestamp="2009-08-25T19:03:00Z" uid="36809" user="pfoten_weg_!_" changeset="2260410" lat="48.0715056" lon="11.53661"/>
  <node id="473774902" version="2" timestamp="2011-06-18T13:02:34Z" uid="11374" user="q_un_go" changeset="8473101" lat="48.0715056" lon="11.53661"/>
  <node id="473774907" version="1" timestamp="2009-08-25T19:03:01Z" uid="36809" user="pfoten_weg_!_" changeset="2260410" lat="48.0716815" lon="11.5365871"/>
  <node id="473774907" version="2" timestamp="2011-06-18T13:02:34Z" uid="11374" user="q_un_go" changeset="8473101" lat="48.0716815" lon="11.5365871"/>
  <node id="473774916" version="1" timestamp="2009-08-25T19:03:01Z" uid="36809" user="pfoten_weg_!_" changeset="2260410" lat="48.071476" lon="11.5365659"/>
  <node id="473774916" version="2" timestamp="2011-06-18T13:02:37Z" uid="11374" user="q_un_go" changeset="8473101" lat="48.071476" lon="11.5365659"/>
  <node id="473774923" version="1" timestamp="2009-08-25T19:03:01Z" uid="36809" user="pfoten_weg_!_" changeset="2260410" lat="48.0715315" lon="11.5367602"/>
  <node id="473774923" version="2" timestamp="2012-02-11T19:53:40Z" uid="342705" user="KLMB" changeset="10656709" lat="48.0715315" lon="11.5367602"/>
  <node id="473774924" version="1" timestamp="2009-08-25T19:03:01Z" uid="36809" user="pfoten_weg_!_" changeset="2260410" lat="48.0715658" lon="11.5366507"/>
  <node id="473774924" version="2" timestamp="2012-02-11T19:53:40Z" uid="342705" user="KLMB" changeset="10656709" lat="48.0715658" lon="11.5366507"/>
  <node id="473774930" version="1" timestamp="2009-08-25T19:03:02Z" uid="36809" user="pfoten_weg_!_" changeset="2260410" lat="48.0717582" lon="11.5362178"/>
  <node id="473774930" version="2" timestamp="2011-06-18T13:02:35Z" uid="11374" user="q_un_go" changeset="8473101" lat="48.0717582" lon="11.5362178"/>
  <node id="473774931" version="1" timestamp="2009-08-25T19:03:02Z" uid="36809" user="pfoten_weg_!_" changeset="2260410" lat="48.0718149" lon="11.5361242"/>
  <node id="473774931" version="2" timestamp="2011-06-18T13:02:38Z" uid="11374" user="q_un_go" changeset="8473101" lat="48.0718149" lon="11.5361242"/>
  <node id="473774933" version="1" timestamp="2009-08-25T19:03:02Z" uid="36809" user="pfoten_weg_!_" changeset="2260410" lat="48.071528" lon="11.5366471"/>
  <node id="473774933" version="2" timestamp="2011-06-18T13:02:36Z" uid="11374" user="q_un_go" changeset="8473101" lat="48.071528" lon="11.5366471"/>
  <node id="473774939" version="1" timestamp="2009-08-25T19:03:03Z" uid="36809" user="pfoten_weg_!_" changeset="2260410" lat="48.0716862" lon="11.5363185"/>
  <node id="473774939" version="2" timestamp="2011-06-18T13:02:37Z" uid="11374" user="q_un_go" changeset="8473101" lat="48.0716862" lon="11.5363185"/>
  <node id="473774940" version="1" timestamp="2009-08-25T19:03:03Z" uid="36809" user="pfoten_weg_!_" changeset="2260410" lat="48.0702847" lon="11.5356859"/>
  <node id="473774944" version="1" timestamp="2009-08-25T19:03:03Z" uid="36809" user="pfoten_weg_!_" changeset="2260410" lat="48.0717039" lon="11.5362549"/>
  <node id="473774944" version="2" timestamp="2011-06-18T13:02:38Z" uid="11374" user="q_un_go" changeset="8473101" lat="48.0717039" lon="11.5362549"/>
  <node id="473774950" version="1" timestamp="2009-08-25T19:03:04Z" uid="36809" user="pfoten_weg_!_" changeset="2260410" lat="48.0715067" lon="11.5366118"/>
  <node id="473774950" version="2" timestamp="2011-06-18T13:02:34Z" uid="11374" user="q_un_go" changeset="8473101" lat="48.0715067" lon="11.5366118"/>
  <node id="473774960" version="1" timestamp="2009-08-25T19:03:04Z" uid="36809" user="pfoten_weg_!_" changeset="2260410" lat="48.0717393" lon="11.5364793"/>
  <node id="473774960" version="2" timestamp="2011-06-18T13:02:34Z" uid="11374" user="q_un_go" changeset="8473101" lat="48.0717393" lon="11.5364793"/>
  <node id="473774972" version="1" timestamp="2009-08-25T19:03:04Z" uid="36809" user="pfoten_weg_!_" changeset="2260410" lat="48.0716149" lon="11.53556"/>
  <node id="473774972" version="2" timestamp="2011-06-18T13:02:36Z" uid="11374" user="q_un_go" changeset="8473101" lat="48.0716149" lon="11.53556"/>
  <node id="473774977" version="1" timestamp="2009-08-25T19:03:05Z" uid="36809" user="pfoten_weg_!_" changeset="2260410" lat="48.0716933" lon="11.5364033"/>
  <node id="473774977" version="2" timestamp="2011-06-18T13:02:35Z" uid="11374" user="q_un_go" changeset="8473101" lat="48.0716933" lon="11.5364033"/>
  <node id="473774988" version="1" timestamp="2009-08-25T19:03:05Z" uid="36809" user="pfoten_weg_!_" changeset="2260410" lat="48.0714926" lon="11.5366878"/>
  <node id="473774988" version="2" timestamp="2011-06-18T13:02:38Z" uid="11374" user="q_un_go" changeset="8473101" lat="48.0714926" lon="11.5366878"/>
  <node id="473774991" version="1" timestamp="2009-08-25T19:03:05Z" uid="36809" user="pfoten_weg_!_" changeset="2260410" lat="48.0718408" lon="11.5365058"/>
  <node id="473774991" version="2" timestamp="2011-06-18T13:02:35Z" uid="11374" user="q_un_go" changeset="8473101" lat="48.0718408" lon="11.5365058"/>
  <node id="473774998" version="1" timestamp="2009-08-25T19:03:06Z" uid="36809" user="pfoten_weg_!_" changeset="2260410" lat="48.0717806" lon="11.5365111"/>
  <node id="473774998" version="2" timestamp="2011-06-18T13:02:39Z" uid="11374" user="q_un_go" changeset="8473101" lat="48.0717806" lon="11.5365111"/>
  <node id="473775000" version="1" timestamp="2009-08-25T19:03:06Z" uid="36809" user="pfoten_weg_!_" changeset="2260410" lat="48.0714961" lon="11.5366807"/>
  <node id="473775000" version="2" timestamp="2011-06-18T13:02:37Z" uid="11374" user="q_un_go" changeset="8473101" lat="48.0714961" lon="11.5366807"/>
  <node id="473775003" version="1" timestamp="2009-08-25T19:03:06Z" uid="36809" user="pfoten_weg_!_" changeset="2260410" lat="48.0714725" lon="11.536762"/>
  <node id="473775003" version="2" timestamp="2011-06-18T13:02:34Z" uid="11374" user="q_un_go" changeset="8473101" lat="48.0714725" lon="11.536762"/>
  <node id="473775007" version="1" timestamp="2009-08-25T19:03:07Z" uid="36809" user="pfoten_weg_!_" changeset="2260410" lat="48.070975" lon="11.5340298"/>
  <node id="473775008" version="1" timestamp="2009-08-25T19:03:07Z" uid="36809" user="pfoten_weg_!_" changeset="2260410" lat="48.0717039" lon="11.5356277"/>
  <node id="473775008" version="2" timestamp="2011-06-18T13:02:35Z" uid="11374" user="q_un_go" changeset="8473101" lat="48.0717039" lon="11.5356277"/>
  <node id="473775014" version="1" timestamp="2009-08-25T19:03:07Z" uid="36809" user="pfoten_weg_!_" changeset="2260410" lat="48.0709683" lon="11.5355331"/>
  <node id="473775019" version="1" timestamp="2009-08-25T19:03:08Z" uid="36809" user="pfoten_weg_!_" changeset="2260410" lat="48.0710145" lon="11.533995"/>
  <node id="473775025" version="1" timestamp="2009-08-25T19:03:08Z" uid="36809" user="pfoten_weg_!_" changeset="2260410" lat="48.0717287" lon="11.5357001"/>
  <node id="473775025" version="2" timestamp="2011-06-18T13:02:39Z" uid="11374" user="q_un_go" changeset="8473101" lat="48.0717287" lon="11.5357001"/>
  <node id="473775036" version="1" timestamp="2009-08-25T19:03:08Z" uid="36809" user="pfoten_weg_!_" changeset="2260410" lat="48.0710714" lon="11.5351812"/>
  <node id="473775042" version="1" timestamp="2009-08-25T19:03:09Z" uid="36809" user="pfoten_weg_!_" changeset="2260410" lat="48.0714772" lon="11.5367531"/>
  <node id="473775042" version="2" timestamp="2011-06-18T13:02:37Z" uid="11374" user="q_un_go" changeset="8473101" lat="48.0714772" lon="11.5367531"/>
  <node id="473775051" version="1" timestamp="2009-08-25T19:03:09Z" uid="36809" user="pfoten_weg_!_" changeset="2260410" lat="48.0714273" lon="11.5352588"/>
  <node id="473775051" version="2" timestamp="2011-04-01T06:59:03Z" uid="42393" user="mawi42" changeset="7732541" lat="48.071426" lon="11.5352391"/>
  <node id="473775055" version="1" timestamp="2009-08-25T19:03:10Z" uid="36809" user="pfoten_weg_!_" changeset="2260410" lat="48.0717429" lon="11.5357832"/>
  <node id="473775055" version="2" timestamp="2011-06-18T13:02:36Z" uid="11374" user="q_un_go" changeset="8473101" lat="48.0717429" lon="11.5357832"/>
  <node id="473775057" version="1" timestamp="2009-08-25T19:03:10Z" uid="36809" user="pfoten_weg_!_" changeset="2260410" lat="48.0716236" lon="11.5355622"/>
  <node id="473775062" version="1" timestamp="2009-08-25T19:03:11Z" uid="36809" user="pfoten_weg_!_" changeset="2260410" lat="48.0717275" lon="11.5358662"/>
  <node id="473775062" version="2" timestamp="2011-06-18T13:02:35Z" uid="11374" user="q_un_go" changeset="8473101" lat="48.0717275" lon="11.5358662"/>
  <node id="473775063" version="1" timestamp="2009-08-25T19:03:11Z" uid="36809" user="pfoten_weg_!_" changeset="2260410" lat="48.070298" lon="11.5355939"/>
  <node id="473775068" version="1" timestamp="2009-08-25T19:03:11Z" uid="36809" user="pfoten_weg_!_" changeset="2260410" lat="48.071469" lon="11.5368203"/>
  <node id="473775068" version="2" timestamp="2011-06-18T13:02:35Z" uid="11374" user="q_un_go" changeset="8473101" lat="48.071469" lon="11.5368203"/>
  <node id="473775074" version="1" timestamp="2009-08-25T19:03:12Z" uid="36809" user="pfoten_weg_!_" changeset="2260410" lat="48.0702877" lon="11.5359541"/>
  <node id="473775081" version="1" timestamp="2009-08-25T19:03:12Z" uid="36809" user="pfoten_weg_!_" changeset="2260410" lat="48.0709087" lon="11.5343893"/>
  <node id="473775081" version="2" timestamp="2011-04-01T07:13:09Z" uid="42393" user="mawi42" changeset="7732629" lat="48.0709274" lon="11.5342417"/>
  <node id="473775090" version="1" timestamp="2009-08-25T19:03:13Z" uid="36809" user="pfoten_weg_!_" changeset="2260410" lat="48.0717133" lon="11.5359245"/>
  <node id="473775090" version="2" timestamp="2011-06-18T13:02:36Z" uid="11374" user="q_un_go" changeset="8473101" lat="48.0717133" lon="11.5359245"/>
  <node id="473775102" version="1" timestamp="2009-08-25T19:03:13Z" uid="36809" user="pfoten_weg_!_" changeset="2260410" lat="48.0702839" lon="11.5358978"/>
  <node id="473775109" version="1" timestamp="2009-08-25T19:03:13Z" uid="36809" user="pfoten_weg_!_" changeset="2260410" lat="48.0716382" lon="11.5341425"/>
  <node id="473775112" version="1" timestamp="2009-08-25T19:03:14Z" uid="36809" user="pfoten_weg_!_" changeset="2260410" lat="48.0717523" lon="11.5359917"/>
  <node id="473775112" version="2" timestamp="2011-06-18T13:02:35Z" uid="11374" user="q_un_go" changeset="8473101" lat="48.0717523" lon="11.5359917"/>
  <node id="473775116" version="1" timestamp="2009-08-25T19:03:14Z" uid="36809" user="pfoten_weg_!_" changeset="2260410" lat="48.071469" lon="11.5368132"/>
  <node id="473775116" version="2" timestamp="2011-06-18T13:02:37Z" uid="11374" user="q_un_go" changeset="8473101" lat="48.071469" lon="11.5368132"/>
  <node id="473775118" version="1" timestamp="2009-08-25T19:03:14Z" uid="36809" user="pfoten_weg_!_" changeset="2260410" lat="48.0706409" lon="11.5356629"/>
  <node id="473775124" version="1" timestamp="2009-08-25T19:03:15Z" uid="36809" user="pfoten_weg_!_" changeset="2260410" lat="48.0715702" lon="11.535249"/>
  <node id="473775124" version="2" timestamp="2011-04-01T06:59:02Z" uid="42393" user="mawi42" changeset="7732541" lat="48.0715546" lon="11.5352274"/>
  <node id="473775125" version="1" timestamp="2009-08-25T19:03:15Z" uid="36809" user="pfoten_weg_!_" changeset="2260410" lat="48.0717983" lon="11.5360517"/>
  <node id="473775125" version="2" timestamp="2011-06-18T13:02:36Z" uid="11374" user="q_un_go" changeset="8473101" lat="48.0717983" lon="11.5360517"/>
  <node id="473775131" version="1" timestamp="2009-08-25T19:03:15Z" uid="36809" user="pfoten_weg_!_" changeset="2260410" lat="48.0709533" lon="11.5355785"/>
  <node id="473775136" version="1" timestamp="2009-08-25T19:03:15Z" uid="36809" user="pfoten_weg_!_" changeset="2260410" lat="48.0718172" lon="11.5361224"/>
  <node id="473775136" version="2" timestamp="2011-06-18T13:02:38Z" uid="11374" user="q_un_go" changeset="8473101" lat="48.0718172" lon="11.5361224"/>
  <node id="473775147" version="1" timestamp="2009-08-25T19:03:16Z" uid="36809" user="pfoten_weg_!_" changeset="2260410" lat="48.0714619" lon="11.5359881"/>
  <node id="473775147" version="2" timestamp="2011-06-18T13:02:34Z" uid="11374" user="q_un_go" changeset="8473101" lat="48.0714619" lon="11.5359881"/>
  <node id="473775155" version="1" timestamp="2009-08-25T19:03:16Z" uid="36809" user="pfoten_weg_!_" changeset="2260410" lat="48.0715667" lon="11.5356337"/>
  <node id="473775165" version="1" timestamp="2009-08-25T19:03:16Z" uid="36809" user="pfoten_weg_!_" changeset="2260410" lat="48.0714949" lon="11.5359104"/>
  <node id="473775165" version="2" timestamp="2011-06-18T13:02:34Z" uid="11374" user="q_un_go" changeset="8473101" lat="48.0714949" lon="11.5359104"/>
  <node id="473775169" version="1" timestamp="2009-08-25T19:03:17Z" uid="36809" user="pfoten_weg_!_" changeset="2260410" lat="48.0711773" lon="11.5357322"/>
  <node id="473775170" version="1" timestamp="2009-08-25T19:03:17Z" uid="36809" user="pfoten_weg_!_" changeset="2260410" lat="48.0715044" lon="11.5368715"/>
  <node id="473775170" version="2" timestamp="2011-06-18T13:02:35Z" uid="11374" user="q_un_go" changeset="8473101" lat="48.0715044" lon="11.5368715"/>
  <node id="473775175" version="1" timestamp="2009-08-25T19:03:17Z" uid="36809" user="pfoten_weg_!_" changeset="2260410" lat="48.0714619" lon="11.5358733"/>
  <node id="473775175" version="2" timestamp="2011-06-18T13:02:35Z" uid="11374" user="q_un_go" changeset="8473101" lat="48.0714619" lon="11.5358733"/>
  <node id="473775176" version="1" timestamp="2009-08-25T19:03:17Z" uid="36809" user="pfoten_weg_!_" changeset="2260410" lat="48.071113" lon="11.5357082"/>
  <node id="473775177" version="1" timestamp="2009-08-25T19:03:18Z" uid="36809" user="pfoten_weg_!_" changeset="2260410" lat="48.0715032" lon="11.5357779"/>
  <node id="473775177" version="2" timestamp="2011-06-18T13:02:39Z" uid="11374" user="q_un_go" changeset="8473101" lat="48.0715032" lon="11.5357779"/>
  <node id="473775178" version="1" timestamp="2009-08-25T19:03:18Z" uid="36809" user="pfoten_weg_!_" changeset="2260410" lat="48.0708501" lon="11.5357927"/>
  <node id="473775179" version="1" timestamp="2009-08-25T19:03:18Z" uid="36809" user="pfoten_weg_!_" changeset="2260410" lat="48.0715103" lon="11.536845"/>
  <node id="473775179" version="2" timestamp="2011-06-18T13:02:38Z" uid="11374" user="q_un_go" changeset="8473101" lat="48.0715103" lon="11.536845"/>
  <node id="473775180" version="1" timestamp="2009-08-25T19:03:18Z" uid="36809" user="pfoten_weg_!_" changeset="2260410" lat="48.0712228" lon="11.5351204"/>
  <node id="473775180" version="2" timestamp="2011-04-01T07:13:08Z" uid="42393" user="mawi42" changeset="7732629" lat="48.0712223" lon="11.5351489"/>
  <node id="473775186" version="1" timestamp="2009-08-25T19:03:19Z" uid="36809" user="pfoten_weg_!_" changeset="2260410" lat="48.0715245" lon="11.5356471"/>
  <node id="473775186" version="2" timestamp="2011-06-18T13:02:36Z" uid="11374" user="q_un_go" changeset="8473101" lat="48.0715245" lon="11.5356471"/>
  <node id="473775191" version="1" timestamp="2009-08-25T19:03:19Z" uid="36809" user="pfoten_weg_!_" changeset="2260410" lat="48.0714607" lon="11.5369351"/>
  <node id="473775191" version="2" timestamp="2011-06-18T13:02:36Z" uid="11374" user="q_un_go" changeset="8473101" lat="48.0714607" lon="11.5369351"/>
  <node id="473775196" version="1" timestamp="2009-08-25T19:03:20Z" uid="36809" user="pfoten_weg_!_" changeset="2260410" lat="48.0715454" lon="11.5352604"/>
  <node id="473775196" version="2" timestamp="2011-04-01T06:59:03Z" uid="42393" user="mawi42" changeset="7732541" lat="48.0715331" lon="11.5352465"/>
  <node id="473775199" version="1" timestamp="2009-08-25T19:03:20Z" uid="36809" user="pfoten_weg_!_" changeset="2260410" lat="48.0715622" lon="11.5356294"/>
  <node id="473775199" version="2" timestamp="2011-06-18T13:02:36Z" uid="11374" user="q_un_go" changeset="8473101" lat="48.0715622" lon="11.5356294"/>
  <node id="473775204" version="1" timestamp="2009-08-25T19:03:20Z" uid="36809" user="pfoten_weg_!_" changeset="2260410" lat="48.0714725" lon="11.536921"/>
  <node id="473775204" version="2" timestamp="2011-06-18T13:02:36Z" uid="11374" user="q_un_go" changeset="8473101" lat="48.0714725" lon="11.536921"/>
  <node id="473775208" version="1" timestamp="2009-08-25T19:03:20Z" uid="36809" user="pfoten_weg_!_" changeset="2260410" lat="48.0715977" lon="11.5355676"/>
  <node id="473775208" version="2" timestamp="2011-06-18T13:02:39Z" uid="11374" user="q_un_go" changeset="8473101" lat="48.0715977" lon="11.5355676"/>
  <node id="473775209" version="1" timestamp="2009-08-25T19:03:21Z" uid="36809" user="pfoten_weg_!_" changeset="2260410" lat="48.0715005" lon="11.5352695"/>
  <node id="473775209" version="2" timestamp="2011-04-01T06:59:03Z" uid="42393" user="mawi42" changeset="7732541" lat="48.0714954" lon="11.53525"/>
  <node id="473775210" version="1" timestamp="2009-08-25T19:03:21Z" uid="36809" user="pfoten_weg_!_" changeset="2260410" lat="48.0716339" lon="11.5355661"/>
  <node id="473775210" version="2" timestamp="2011-06-18T13:02:37Z" uid="11374" user="q_un_go" changeset="8473101" lat="48.0716339" lon="11.5355661"/>
  <node id="473775211" version="1" timestamp="2009-08-25T19:03:21Z" uid="36809" user="pfoten_weg_!_" changeset="2260410" lat="48.0714961" lon="11.5368804"/>
  <node id="473775211" version="2" timestamp="2011-06-18T13:02:36Z" uid="11374" user="q_un_go" changeset="8473101" lat="48.0714961" lon="11.5368804"/>
  <node id="473775212" version="1" timestamp="2009-08-25T19:03:21Z" uid="36809" user="pfoten_weg_!_" changeset="2260410" lat="48.0714878" lon="11.5364793"/>
  <node id="473775212" version="2" timestamp="2011-06-18T13:02:36Z" uid="11374" user="q_un_go" changeset="8473101" lat="48.0714878" lon="11.5364793"/>
  <node id="473775213" version="1" timestamp="2009-08-25T19:03:22Z" uid="36809" user="pfoten_weg_!_" changeset="2260410" lat="48.0704585" lon="11.5356534"/>
  <node id="473775215" version="1" timestamp="2009-08-25T19:03:22Z" uid="36809" user="pfoten_weg_!_" changeset="2260410" lat="48.0713332" lon="11.5364015"/>
  <node id="473775215" version="2" timestamp="2011-06-18T13:02:38Z" uid="11374" user="q_un_go" changeset="8473101" lat="48.0713332" lon="11.5364015"/>
  <node id="473775221" version="1" timestamp="2009-08-25T19:03:22Z" uid="36809" user="pfoten_weg_!_" changeset="2260410" lat="48.0714595" lon="11.5369987"/>
  <node id="473775221" version="2" timestamp="2011-06-18T13:02:35Z" uid="11374" user="q_un_go" changeset="8473101" lat="48.0714595" lon="11.5369987"/>
  <node id="473775228" version="1" timestamp="2009-08-25T19:03:22Z" uid="36809" user="pfoten_weg_!_" changeset="2260410" lat="48.071384" lon="11.5364316"/>
  <node id="473775228" version="2" timestamp="2011-06-18T13:02:37Z" uid="11374" user="q_un_go" changeset="8473101" lat="48.071384" lon="11.5364316"/>
  <node id="473775235" version="1" timestamp="2009-08-25T19:03:22Z" uid="36809" user="pfoten_weg_!_" changeset="2260410" lat="48.0702768" lon="11.5357854"/>
  <node id="473775241" version="1" timestamp="2009-08-25T19:03:23Z" uid="36809" user="pfoten_weg_!_" changeset="2260410" lat="48.0713851" lon="11.5365553"/>
  <node id="473775241" version="2" timestamp="2012-02-11T19:53:41Z" uid="342705" user="KLMB" changeset="10656709" lat="48.0713851" lon="11.5365553"/>
  <node id="473775251" version="1" timestamp="2009-08-25T19:03:23Z" uid="36809" user="pfoten_weg_!_" changeset="2260410" lat="48.071502" lon="11.5370994"/>
  <node id="473775251" version="2" timestamp="2011-06-18T13:02:36Z" uid="11374" user="q_un_go" changeset="8473101" lat="48.071502" lon="11.5370994"/>
  <node id="473775268" version="1" timestamp="2009-08-25T19:03:23Z" uid="36809" user="pfoten_weg_!_" changeset="2260410" lat="48.0715032" lon="11.5364192"/>
  <node id="473775268" version="2" timestamp="2011-06-18T13:02:38Z" uid="11374" user="q_un_go" changeset="8473101" lat="48.0715032" lon="11.5364192"/>
  <node id="473775286" version="1" timestamp="2009-08-25T19:03:23Z" uid="36809" user="pfoten_weg_!_" changeset="2260410" lat="48.0713332" lon="11.5365835"/>
  <node id="473775286" version="2" timestamp="2012-02-11T19:53:41Z" uid="342705" user="KLMB" changeset="10656709" lat="48.0713332" lon="11.5365835"/>
  <node id="473775297" version="1" timestamp="2009-08-25T19:03:24Z" uid="36809" user="pfoten_weg_!_" changeset="2260410" lat="48.0714194" lon="11.5360093"/>
  <node id="473775297" version="2" timestamp="2011-06-18T13:02:37Z" uid="11374" user="q_un_go" changeset="8473101" lat="48.0714194" lon="11.5360093"/>
  <node id="473775302" version="1" timestamp="2009-08-25T19:03:24Z" uid="36809" user="pfoten_weg_!_" changeset="2260410" lat="48.0715008" lon="11.5364086"/>
  <node id="473775302" version="2" timestamp="2011-06-18T13:02:35Z" uid="11374" user="q_un_go" changeset="8473101" lat="48.0715008" lon="11.5364086"/>
  <node id="473775308" version="1" timestamp="2009-08-25T19:03:24Z" uid="36809" user="pfoten_weg_!_" changeset="2260410" lat="48.0714855" lon="11.5371436"/>
  <node id="473775308" version="2" timestamp="2011-06-18T13:02:36Z" uid="11374" user="q_un_go" changeset="8473101" lat="48.0714855" lon="11.5371436"/>
  <node id="473775321" version="1" timestamp="2009-08-25T19:03:25Z" uid="36809" user="pfoten_weg_!_" changeset="2260410" lat="48.071404" lon="11.5360835"/>
  <node id="473775321" version="2" timestamp="2011-06-18T13:02:38Z" uid="11374" user="q_un_go" changeset="8473101" lat="48.071404" lon="11.5360835"/>
  <node id="473775329" version="1" timestamp="2009-08-25T19:03:25Z" uid="36809" user="pfoten_weg_!_" changeset="2260410" lat="48.0713474" lon="11.5361807"/>
  <node id="473775329" version="2" timestamp="2011-06-18T13:02:35Z" uid="11374" user="q_un_go" changeset="8473101" lat="48.0713474" lon="11.5361807"/>
  <node id="473775333" version="1" timestamp="2009-08-25T19:03:25Z" uid="36809" user="pfoten_weg_!_" changeset="2260410" lat="48.071469" lon="11.5363856"/>
  <node id="473775333" version="2" timestamp="2011-06-18T13:02:37Z" uid="11374" user="q_un_go" changeset="8473101" lat="48.071469" lon="11.5363856"/>
  <node id="473775353" version="1" timestamp="2009-08-25T19:03:26Z" uid="36809" user="pfoten_weg_!_" changeset="2260410" lat="48.0713332" lon="11.536292"/>
  <node id="473775353" version="2" timestamp="2011-06-18T13:02:35Z" uid="11374" user="q_un_go" changeset="8473101" lat="48.0713332" lon="11.536292"/>
  <node id="473775362" version="1" timestamp="2009-08-25T19:03:26Z" uid="36809" user="pfoten_weg_!_" changeset="2260410" lat="48.07143" lon="11.5364228"/>
  <node id="473775362" version="2" timestamp="2011-06-18T13:02:38Z" uid="11374" user="q_un_go" changeset="8473101" lat="48.07143" lon="11.5364228"/>
  <node id="473775375" version="1" timestamp="2009-08-25T19:03:27Z" uid="36809" user="pfoten_weg_!_" changeset="2260410" lat="48.0713192" lon="11.5345743"/>
  <node id="473775375" version="2" timestamp="2011-04-01T07:13:09Z" uid="42393" user="mawi42" changeset="7732629" lat="48.0707591" lon="11.5348071"/>
  <node id="473775389" version="1" timestamp="2009-08-25T19:03:27Z" uid="36809" user="pfoten_weg_!_" changeset="2260410" lat="48.071417" lon="11.5365146"/>
  <node id="473775389" version="2" timestamp="2011-06-18T13:02:35Z" uid="11374" user="q_un_go" changeset="8473101" lat="48.071417" lon="11.5365146"/>
  <node id="473775403" version="1" timestamp="2009-08-25T19:03:27Z" uid="36809" user="pfoten_weg_!_" changeset="2260410" lat="48.07143" lon="11.5364281"/>
  <node id="473775403" version="2" timestamp="2011-06-18T13:02:39Z" uid="11374" user="q_un_go" changeset="8473101" lat="48.07143" lon="11.5364281"/>
  <node id="473775411" version="1" timestamp="2009-08-25T19:03:28Z" uid="36809" user="pfoten_weg_!_" changeset="2260410" lat="48.0712069" lon="11.5366012"/>
  <node id="473775411" version="2" timestamp="2012-02-11T19:53:41Z" uid="342705" user="KLMB" changeset="10656709" lat="48.0712069" lon="11.5366012"/>
  <node id="473775419" version="1" timestamp="2009-08-25T19:03:28Z" uid="36809" user="pfoten_weg_!_" changeset="2260410" lat="48.0714205" lon="11.5366047"/>
  <node id="473775419" version="2" timestamp="2011-06-18T13:02:35Z" uid="11374" user="q_un_go" changeset="8473101" lat="48.0714205" lon="11.5366047"/>
  <node id="473775427" version="1" timestamp="2009-08-25T19:03:28Z" uid="36809" user="pfoten_weg_!_" changeset="2260410" lat="48.0710628" lon="11.5366719"/>
  <node id="473775427" version="2" timestamp="2012-02-11T19:53:41Z" uid="342705" user="KLMB" changeset="10656709" lat="48.0710628" lon="11.5366719"/>
  <node id="473775436" version="1" timestamp="2009-08-25T19:03:28Z" uid="36809" user="pfoten_weg_!_" changeset="2260410" lat="48.0713899" lon="11.5366719"/>
  <node id="473775436" version="2" timestamp="2011-06-18T13:02:37Z" uid="11374" user="q_un_go" changeset="8473101" lat="48.0713899" lon="11.5366719"/>
  <node id="473775446" version="1" timestamp="2009-08-25T19:03:29Z" uid="36809" user="pfoten_weg_!_" changeset="2260410" lat="48.0714465" lon="11.5371966"/>
  <node id="473775446" version="2" timestamp="2011-06-18T13:02:37Z" uid="11374" user="q_un_go" changeset="8473101" lat="48.0714465" lon="11.5371966"/>
  <node id="473775453" version="1" timestamp="2009-08-25T19:03:29Z" uid="36809" user="pfoten_weg_!_" changeset="2260410" lat="48.0714312" lon="11.537338"/>
  <node id="473775453" version="2" timestamp="2011-06-18T13:02:36Z" uid="11374" user="q_un_go" changeset="8473101" lat="48.0714312" lon="11.537338"/>
  <node id="473775464" version="1" timestamp="2009-08-25T19:03:29Z" uid="36809" user="pfoten_weg_!_" changeset="2260410" lat="48.07143" lon="11.5372161"/>
  <node id="473775464" version="2" timestamp="2011-06-18T13:02:38Z" uid="11374" user="q_un_go" changeset="8473101" lat="48.07143" lon="11.5372161"/>
  <node id="473775471" version="1" timestamp="2009-08-25T19:03:30Z" uid="36809" user="pfoten_weg_!_" changeset="2260410" lat="48.071378" lon="11.5366754"/>
  <node id="473775471" version="2" timestamp="2011-06-18T13:02:37Z" uid="11374" user="q_un_go" changeset="8473101" lat="48.071378" lon="11.5366754"/>
  <node id="473775480" version="1" timestamp="2009-08-25T19:03:30Z" uid="36809" user="pfoten_weg_!_" changeset="2260410" lat="48.0714312" lon="11.5373433"/>
  <node id="473775480" version="2" timestamp="2011-06-18T13:02:34Z" uid="11374" user="q_un_go" changeset="8473101" lat="48.0714312" lon="11.5373433"/>
  <node id="473775492" version="1" timestamp="2009-08-25T19:03:30Z" uid="36809" user="pfoten_weg_!_" changeset="2260410" lat="48.0713403" lon="11.5366507"/>
  <node id="473775492" version="2" timestamp="2011-06-18T13:02:34Z" uid="11374" user="q_un_go" changeset="8473101" lat="48.0713403" lon="11.5366507"/>
  <node id="473775504" version="1" timestamp="2009-08-25T19:03:30Z" uid="36809" user="pfoten_weg_!_" changeset="2260410" lat="48.071548" lon="11.5374546"/>
  <node id="473775504" version="2" timestamp="2011-06-18T13:02:38Z" uid="11374" user="q_un_go" changeset="8473101" lat="48.071548" lon="11.5374546"/>
  <node id="473775514" version="1" timestamp="2009-08-25T19:03:31Z" uid="36809" user="pfoten_weg_!_" changeset="2260410" lat="48.0713344" lon="11.5366348"/>
  <node id="473775514" version="2" timestamp="2011-06-18T13:02:37Z" uid="11374" user="q_un_go" changeset="8473101" lat="48.0713344" lon="11.5366348"/>
  <node id="473775516" version="1" timestamp="2009-08-25T19:03:31Z" uid="36809" user="pfoten_weg_!_" changeset="2260410" lat="48.0714784" lon="11.537451"/>
  <node id="473775516" version="2" timestamp="2011-06-18T13:02:35Z" uid="11374" user="q_un_go" changeset="8473101" lat="48.0714784" lon="11.537451"/>
  <node id="473775524" version="1" timestamp="2009-08-25T19:03:31Z" uid="36809" user="pfoten_weg_!_" changeset="2260410" lat="48.0713001" lon="11.5367019"/>
  <node id="473775524" version="2" timestamp="2011-06-18T13:02:37Z" uid="11374" user="q_un_go" changeset="8473101" lat="48.0713001" lon="11.5367019"/>
  <node id="473775534" version="1" timestamp="2009-08-25T19:03:31Z" uid="36809" user="pfoten_weg_!_" changeset="2260410" lat="48.0717216" lon="11.5374352"/>
  <node id="473775534" version="2" timestamp="2011-06-18T13:02:36Z" uid="11374" user="q_un_go" changeset="8473101" lat="48.0717216" lon="11.5374352"/>
  <node id="473775541" version="1" timestamp="2009-08-25T19:03:32Z" uid="36809" user="pfoten_weg_!_" changeset="2260410" lat="48.071646" lon="11.5374581"/>
  <node id="473775541" version="2" timestamp="2011-06-18T13:02:37Z" uid="11374" user="q_un_go" changeset="8473101" lat="48.071646" lon="11.5374581"/>
  <node id="473775542" version="1" timestamp="2009-08-25T19:03:32Z" uid="36809" user="pfoten_weg_!_" changeset="2260410" lat="48.0717901" lon="11.5370889"/>
  <node id="473775542" version="2" timestamp="2011-06-18T13:02:37Z" uid="11374" user="q_un_go" changeset="8473101" lat="48.0717901" lon="11.5370889"/>
  <node id="473775550" version="1" timestamp="2009-08-25T19:03:32Z" uid="36809" user="pfoten_weg_!_" changeset="2260410" lat="48.0712588" lon="11.5367249"/>
  <node id="473775550" version="2" timestamp="2011-06-18T13:02:37Z" uid="11374" user="q_un_go" changeset="8473101" lat="48.0712588" lon="11.5367249"/>
  <node id="473775557" version="1" timestamp="2009-08-25T19:03:32Z" uid="36809" user="pfoten_weg_!_" changeset="2260410" lat="48.0717629" lon="11.5372885"/>
  <node id="473775557" version="2" timestamp="2011-06-18T13:02:39Z" uid="11374" user="q_un_go" changeset="8473101" lat="48.0717629" lon="11.5372885"/>
  <node id="473775565" version="1" timestamp="2009-08-25T19:03:33Z" uid="36809" user="pfoten_weg_!_" changeset="2260410" lat="48.0717015" lon="11.5370023"/>
  <node id="473775565" version="2" timestamp="2012-02-11T19:53:41Z" uid="342705" user="KLMB" changeset="10656709" lat="48.0717015" lon="11.5370023"/>
  <node id="473775573" version="1" timestamp="2009-08-25T19:03:33Z" uid="36809" user="pfoten_weg_!_" changeset="2260410" lat="48.0712045" lon="11.5367726"/>
  <node id="473775573" version="2" timestamp="2011-06-18T13:02:35Z" uid="11374" user="q_un_go" changeset="8473101" lat="48.0712045" lon="11.5367726"/>
  <node id="473775582" version="1" timestamp="2009-08-25T19:03:33Z" uid="36809" user="pfoten_weg_!_" changeset="2260410" lat="48.0717747" lon="11.5369881"/>
  <node id="473775595" version="1" timestamp="2009-08-25T19:03:33Z" uid="36809" user="pfoten_weg_!_" changeset="2260410" lat="48.0711124" lon="11.5368326"/>
  <node id="473775595" version="2" timestamp="2011-06-18T13:02:38Z" uid="11374" user="q_un_go" changeset="8473101" lat="48.0711124" lon="11.5368326"/>
  <node id="473775606" version="1" timestamp="2009-08-25T19:03:34Z" uid="36809" user="pfoten_weg_!_" changeset="2260410" lat="48.071639" lon="11.5370146"/>
  <node id="473775606" version="2" timestamp="2012-02-11T19:53:41Z" uid="342705" user="KLMB" changeset="10656709" lat="48.071639" lon="11.5370146"/>
  <node id="473775624" version="1" timestamp="2009-08-25T19:03:34Z" uid="36809" user="pfoten_weg_!_" changeset="2260410" lat="48.0716838" lon="11.5370093"/>
  <node id="473775624" version="2" timestamp="2012-02-11T19:53:41Z" uid="342705" user="KLMB" changeset="10656709" lat="48.0716838" lon="11.5370093"/>
  <node id="473775631" version="1" timestamp="2009-08-25T19:03:35Z" uid="36809" user="pfoten_weg_!_" changeset="2260410" lat="48.0710451" lon="11.5367991"/>
  <node id="473775631" version="2" timestamp="2011-06-18T13:02:35Z" uid="11374" user="q_un_go" changeset="8473101" lat="48.0710451" lon="11.5367991"/>
  <node id="473775639" version="1" timestamp="2009-08-25T19:03:35Z" uid="36809" user="pfoten_weg_!_" changeset="2260410" lat="48.0715528" lon="11.5368662"/>
  <node id="473775639" version="2" timestamp="2012-02-11T19:53:41Z" uid="342705" user="KLMB" changeset="10656709" lat="48.0715528" lon="11.5368662"/>
  <node id="473775645" version="1" timestamp="2009-08-25T19:03:35Z" uid="36809" user="pfoten_weg_!_" changeset="2260410" lat="48.0715917" lon="11.5369192"/>
  <node id="473775645" version="2" timestamp="2012-02-11T19:53:41Z" uid="342705" user="KLMB" changeset="10656709" lat="48.0715917" lon="11.5369192"/>
  <node id="473777008" version="1" timestamp="2009-08-25T19:05:38Z" uid="55964" user="Evan Sebire" changeset="2260455" lat="46.5894464" lon="7.6510063"/>
  <node id="473777008" version="2" timestamp="2012-02-10T11:54:34Z" uid="125339" user="efred" changeset="10642694" lat="46.5894464" lon="7.6510063"/>
  <node id="473777026" version="1" timestamp="2009-08-25T19:05:40Z" uid="55964" user="Evan Sebire" changeset="2260455" lat="46.5895511" lon="7.650564">
    <tag k="name" v="Landi"/>
    <tag k="shop" v="doityourself"/>
  </node>
  <node id="473777026" version="2" timestamp="2012-03-12T11:43:19Z" uid="125339" user="efred" changeset="10953787" lat="46.5895511" lon="7.650564"/>
  <node id="473777347" version="1" timestamp="2009-08-25T19:06:07Z" uid="36809" user="pfoten_weg_!_" changeset="2260462" lat="48.0707981" lon="11.531292">
    <tag k="amenity" v="bench"/>
    <tag k="discovered_by" v="RambaZamba"/>
    <tag k="source" v="survey"/>
  </node>
  <node id="473777347" version="2" timestamp="2009-08-30T09:17:22Z" uid="156995" user="HampelZamba" changeset="2310659" lat="48.0707981" lon="11.531292">
    <tag k="amenity" v="bench"/>
    <tag k="source" v="survey"/>
  </node>
  <node id="473777347" version="3" timestamp="2009-08-31T21:07:34Z" uid="36809" user="pfoten_weg_!_" changeset="2331411" lat="48.0707981" lon="11.531292">
    <tag k="amenity" v="bench"/>
    <tag k="source" v="survey"/>
  </node>
  <node id="473777347" version="4" timestamp="2009-10-03T17:37:37Z" uid="179968" user="Ich_hasse_doitsche_OSM-Korinthenkacker" changeset="2727120" lat="48.0707981" lon="11.531292">
    <tag k="amenity" v="bench"/>
  </node>
  <node id="473777348" version="1" timestamp="2009-08-25T19:06:07Z" uid="36809" user="pfoten_weg_!_" changeset="2260462" lat="48.070979" lon="11.5311643">
    <tag k="amenity" v="restaurant"/>
    <tag k="discovered_by" v="RambaZamba"/>
    <tag k="name" v="Isarbräu"/>
    <tag k="source" v="survey"/>
  </node>
  <node id="473777348" version="2" timestamp="2009-08-30T09:17:22Z" uid="156995" user="HampelZamba" changeset="2310659" lat="48.070979" lon="11.5311643">
    <tag k="amenity" v="restaurant"/>
    <tag k="name" v="Isarbräu"/>
    <tag k="source" v="survey"/>
  </node>
  <node id="473777348" version="3" timestamp="2009-08-31T21:07:34Z" uid="36809" user="pfoten_weg_!_" changeset="2331411" lat="48.070979" lon="11.5311643">
    <tag k="amenity" v="restaurant"/>
    <tag k="name" v="Isarbräu"/>
    <tag k="source" v="survey"/>
  </node>
  <node id="473777348" version="4" timestamp="2009-10-03T17:37:37Z" uid="179968" user="Ich_hasse_doitsche_OSM-Korinthenkacker" changeset="2727120" lat="48.070979" lon="11.5311643">
    <tag k="amenity" v="restaurant"/>
    <tag k="name" v="Isarbräu"/>
  </node>
  <node id="473777348" version="5" timestamp="2010-07-11T23:02:09Z" uid="126052" user="_Lutz_" changeset="5194956" lat="48.070979" lon="11.5311643">
    <tag k="URL" v="http://isarbraeu.de"/>
    <tag k="amenity" v="restaurant"/>
    <tag k="name" v="Isarbräu"/>
  </node>
  <node id="473777348" version="6" timestamp="2010-07-16T15:21:12Z" uid="30579" user="Tiramisu" changeset="5235555" lat="48.0709791" lon="11.5311643">
    <tag k="addr:city" v="Pullach"/>
    <tag k="addr:housenumber" v="23b"/>
    <tag k="addr:postcode" v="82049"/>
    <tag k="addr:street" v="Kreuzeckstraße"/>
    <tag k="amenity" v="restaurant"/>
    <tag k="cuisine" v="bavarian"/>
    <tag k="name" v="Isarbräu"/>
    <tag k="phone" v="089  79 89 61"/>
    <tag k="website" v="http://www.isarbraeu.de"/>
  </node>
  <node id="473777348" version="7" timestamp="2010-10-01T23:45:28Z" uid="7009" user="giggls" changeset="5932476" lat="48.0709791" lon="11.5311643">
    <tag k="addr:city" v="Pullach"/>
    <tag k="addr:housenumber" v="23b"/>
    <tag k="addr:postcode" v="82049"/>
    <tag k="addr:street" v="Kreuzeckstraße"/>
    <tag k="amenity" v="restaurant"/>
    <tag k="cuisine" v="bavarian"/>
    <tag k="microbrewery" v="yes"/>
    <tag k="name" v="Isarbräu"/>
    <tag k="phone" v="089  79 89 61"/>
    <tag k="website" v="http://www.isarbraeu.de"/>
  </node>
  <node id="473777349" version="1" timestamp="2009-08-25T19:06:08Z" uid="36809" user="pfoten_weg_!_" changeset="2260462" lat="48.0711663" lon="11.5321911">
    <tag k="addr:housenumber" v="Edl Markt"/>
    <tag k="discovered_by" v="RambaZamba"/>
    <tag k="name" v="edl Markt"/>
    <tag k="shop" v="convenience"/>
    <tag k="source" v="survey"/>
  </node>
  <node id="473777349" version="2" timestamp="2009-08-30T09:17:22Z" uid="156995" user="HampelZamba" changeset="2310659" lat="48.0711663" lon="11.5321911">
    <tag k="addr:housenumber" v="Edl Markt"/>
    <tag k="name" v="edl Markt"/>
    <tag k="shop" v="convenience"/>
    <tag k="source" v="survey"/>
  </node>
  <node id="473777349" version="3" timestamp="2009-08-31T21:07:33Z" uid="36809" user="pfoten_weg_!_" changeset="2331411" lat="48.0711663" lon="11.5321911">
    <tag k="addr:housenumber" v="Edl Markt"/>
    <tag k="name" v="edl Markt"/>
    <tag k="shop" v="convenience"/>
    <tag k="source" v="survey"/>
  </node>
  <node id="473777349" version="4" timestamp="2009-10-02T20:45:05Z" uid="86259" user="hasse_osm_korinthenkacker" changeset="2717407" lat="48.0711663" lon="11.5321911">
    <tag k="addr:housenumber" v="Edl Markt"/>
    <tag k="name" v="edl Markt"/>
    <tag k="shop" v="convenience"/>
    <tag k="source" v="survey"/>
  </node>
  <node id="473777355" version="1" timestamp="2009-08-25T19:06:08Z" uid="36809" user="pfoten_weg_!_" changeset="2260462" lat="48.0715866" lon="11.5315529">
    <tag k="amenity" v="bicycle_parking"/>
    <tag k="capacity" v="10"/>
    <tag k="discovered_by" v="RambaZamba"/>
    <tag k="source" v="survey"/>
  </node>
  <node id="473777355" version="2" timestamp="2009-08-30T09:17:22Z" uid="156995" user="HampelZamba" changeset="2310659" lat="48.0715866" lon="11.5315529">
    <tag k="amenity" v="bicycle_parking"/>
    <tag k="capacity" v="10"/>
    <tag k="source" v="survey"/>
  </node>
  <node id="473777355" version="3" timestamp="2009-08-31T21:07:35Z" uid="36809" user="pfoten_weg_!_" changeset="2331411" lat="48.0715866" lon="11.5315529">
    <tag k="amenity" v="bicycle_parking"/>
    <tag k="capacity" v="10"/>
    <tag k="source" v="survey"/>
  </node>
  <node id="473777355" version="4" timestamp="2009-10-03T17:37:43Z" uid="179968" user="Ich_hasse_doitsche_OSM-Korinthenkacker" changeset="2727120" lat="48.0715866" lon="11.5315529">
    <tag k="amenity" v="bicycle_parking"/>
    <tag k="capacity" v="10"/>
  </node>
  <node id="473777362" version="1" timestamp="2009-08-25T19:06:08Z" uid="36809" user="pfoten_weg_!_" changeset="2260462" lat="48.0712386" lon="11.532098">
    <tag k="amenity" v="post_box"/>
    <tag k="discovered_by" v="RambaZamba"/>
    <tag k="name" v="Deutsche Post Briefkasten"/>
    <tag k="operator" v="Deutsche Post"/>
    <tag k="source" v="survey"/>
  </node>
  <node id="473777362" version="2" timestamp="2009-08-25T19:15:08Z" uid="36809" user="pfoten_weg_!_" changeset="2260562" lat="48.0712386" lon="11.532098">
    <tag k="amenity" v="post_box"/>
    <tag k="discovered_by" v="RambaZamba"/>
    <tag k="name" v="Deutsche Post Briefkasten"/>
    <tag k="operator" v="Deutsche Post"/>
    <tag k="source" v="survey"/>
  </node>
  <node id="473777369" version="1" timestamp="2009-08-25T19:06:09Z" uid="36809" user="pfoten_weg_!_" changeset="2260462" lat="48.0710473" lon="11.5317387">
    <tag k="amenity" v="telephone"/>
    <tag k="discovered_by" v="RambaZamba"/>
    <tag k="name" v="Telestation"/>
    <tag k="operator" v="Deutsche Telekom AG"/>
    <tag k="payment:telephone_cards" v="yes"/>
    <tag k="source" v="survey"/>
  </node>
  <node id="473777369" version="2" timestamp="2009-08-30T09:17:22Z" uid="156995" user="HampelZamba" changeset="2310659" lat="48.0710473" lon="11.5317387">
    <tag k="amenity" v="telephone"/>
    <tag k="name" v="Telestation"/>
    <tag k="operator" v="Deutsche Telekom AG"/>
    <tag k="payment:telephone_cards" v="yes"/>
    <tag k="source" v="survey"/>
  </node>
  <node id="473777369" version="3" timestamp="2009-08-31T21:07:33Z" uid="36809" user="pfoten_weg_!_" changeset="2331411" lat="48.0710473" lon="11.5317387">
    <tag k="amenity" v="telephone"/>
    <tag k="name" v="Telestation"/>
    <tag k="operator" v="Deutsche Telekom AG"/>
    <tag k="payment:telephone_cards" v="yes"/>
    <tag k="source" v="survey"/>
  </node>
  <node id="473777369" version="4" timestamp="2009-10-03T17:37:42Z" uid="179968" user="Ich_hasse_doitsche_OSM-Korinthenkacker" changeset="2727120" lat="48.0710473" lon="11.5317387">
    <tag k="amenity" v="telephone"/>
    <tag k="name" v="Telestation"/>
    <tag k="operator" v="Deutsche Telekom AG"/>
    <tag k="payment:telephone_cards" v="yes"/>
  </node>
  <node id="473777375" version="1" timestamp="2009-08-25T19:06:09Z" uid="36809" user="pfoten_weg_!_" changeset="2260462" lat="48.0709051" lon="11.5319777">
    <tag k="amenity" v="cafe"/>
    <tag k="discovered_by" v="RambaZamba"/>
    <tag k="name" v="Konditorei Cafe"/>
    <tag k="source" v="survey"/>
  </node>
  <node id="473777375" version="2" timestamp="2009-08-30T09:17:22Z" uid="156995" user="HampelZamba" changeset="2310659" lat="48.0709051" lon="11.5319777">
    <tag k="amenity" v="cafe"/>
    <tag k="name" v="Konditorei Cafe"/>
    <tag k="source" v="survey"/>
  </node>
  <node id="473777375" version="3" timestamp="2009-08-31T21:07:32Z" uid="36809" user="pfoten_weg_!_" changeset="2331411" lat="48.0709051" lon="11.5319777">
    <tag k="amenity" v="cafe"/>
    <tag k="name" v="Konditorei Cafe"/>
    <tag k="source" v="survey"/>
  </node>
  <node id="473777375" version="4" timestamp="2009-10-03T17:37:41Z" uid="179968" user="Ich_hasse_doitsche_OSM-Korinthenkacker" changeset="2727120" lat="48.0709051" lon="11.5319777">
    <tag k="amenity" v="cafe"/>
    <tag k="name" v="Konditorei Cafe"/>
  </node>
  <node id="473777377" version="1" timestamp="2009-08-25T19:06:09Z" uid="36809" user="pfoten_weg_!_" changeset="2260462" lat="48.0717978" lon="11.5314849">
    <tag k="amenity" v="bicycle_parking"/>
    <tag k="capacity" v="10"/>
    <tag k="discovered_by" v="RambaZamba"/>
    <tag k="source" v="survey"/>
  </node>
  <node id="473777377" version="2" timestamp="2009-08-30T09:17:22Z" uid="156995" user="HampelZamba" changeset="2310659" lat="48.0717978" lon="11.5314849">
    <tag k="amenity" v="bicycle_parking"/>
    <tag k="capacity" v="10"/>
    <tag k="source" v="survey"/>
  </node>
  <node id="473777377" version="3" timestamp="2009-08-31T21:07:29Z" uid="36809" user="pfoten_weg_!_" changeset="2331411" lat="48.0717978" lon="11.5314849">
    <tag k="amenity" v="bicycle_parking"/>
    <tag k="capacity" v="10"/>
    <tag k="source" v="survey"/>
  </node>
  <node id="473777377" version="4" timestamp="2009-10-03T17:37:40Z" uid="179968" user="Ich_hasse_doitsche_OSM-Korinthenkacker" changeset="2727120" lat="48.0717978" lon="11.5314849">
    <tag k="amenity" v="bicycle_parking"/>
    <tag k="capacity" v="10"/>
  </node>
  <node id="473777380" version="1" timestamp="2009-08-25T19:06:10Z" uid="36809" user="pfoten_weg_!_" changeset="2260462" lat="48.0700526" lon="11.5329206">
    <tag k="discovered_by" v="RambaZamba"/>
    <tag k="is_in" v="Pullach i. Isartal"/>
    <tag k="name" v="Großhesselohe"/>
    <tag k="place" v="suburb"/>
    <tag k="source" v="survey"/>
  </node>
  <node id="473777380" version="2" timestamp="2009-08-30T09:17:34Z" uid="156995" user="HampelZamba" changeset="2310659" lat="48.0700526" lon="11.5329206">
    <tag k="is_in" v="Pullach i. Isartal"/>
    <tag k="name" v="Großhesselohe"/>
    <tag k="place" v="suburb"/>
    <tag k="source" v="survey"/>
  </node>
  <node id="473777380" version="3" timestamp="2009-08-31T21:07:28Z" uid="36809" user="pfoten_weg_!_" changeset="2331411" lat="48.0700526" lon="11.5329206">
    <tag k="is_in" v="Pullach i. Isartal"/>
    <tag k="name" v="Großhesselohe"/>
    <tag k="place" v="suburb"/>
    <tag k="source" v="survey"/>
  </node>
  <node id="473777380" version="4" timestamp="2009-10-03T17:36:47Z" uid="179968" user="Ich_hasse_doitsche_OSM-Korinthenkacker" changeset="2727120" lat="48.0700526" lon="11.5329206">
    <tag k="is_in" v="Pullach i. Isartal"/>
    <tag k="name" v="Großhesselohe"/>
    <tag k="place" v="suburb"/>
  </node>
  <node id="473777380" version="5" timestamp="2009-12-20T18:50:41Z" uid="118197" user="JosmJo" changeset="3416017" lat="48.0700526" lon="11.5329206">
    <tag k="is_in" v="Pullach im Isartal,München,Oberbayern,Bayern,Bundesrepublik Deutschland,Europe"/>
    <tag k="name" v="Großhesselohe"/>
    <tag k="place" v="suburb"/>
  </node>
  <node id="473777380" version="6" timestamp="2010-04-20T19:36:26Z" uid="224490" user="Geo-Tobi" changeset="4480841" lat="48.0700526" lon="11.5329206">
    <tag k="is_in" v="Pullach im Isartal,München,Oberbayern,Bayern,Bundesrepublik Deutschland,Europe"/>
    <tag k="name" v="Großhesselohe"/>
    <tag k="place" v="village"/>
  </node>
  <node id="473777380" version="7" timestamp="2010-08-02T17:10:36Z" uid="325837" user="traveler-hiker" changeset="5382702" lat="48.0700526" lon="11.5329206">
    <tag k="is_in" v="Pullach im Isartal,München,Oberbayern,Bayern,Bundesrepublik Deutschland,Europe"/>
    <tag k="name" v="Großhesselohe"/>
    <tag k="place" v="village"/>
  </node>
  <node id="473777386" version="1" timestamp="2009-08-25T19:06:10Z" uid="36809" user="pfoten_weg_!_" changeset="2260462" lat="48.070672" lon="11.5309817">
    <tag k="discovered_by" v="RambaZamba"/>
    <tag k="man_made" v="tower"/>
    <tag k="name" v="Funkmast"/>
    <tag k="source" v="survey"/>
  </node>
  <node id="473777386" version="2" timestamp="2009-08-30T09:17:34Z" uid="156995" user="HampelZamba" changeset="2310659" lat="48.070672" lon="11.5309817">
    <tag k="man_made" v="tower"/>
    <tag k="name" v="Funkmast"/>
    <tag k="source" v="survey"/>
  </node>
  <node id="473777386" version="3" timestamp="2009-08-31T21:07:31Z" uid="36809" user="pfoten_weg_!_" changeset="2331411" lat="48.070672" lon="11.5309817">
    <tag k="man_made" v="tower"/>
    <tag k="name" v="Funkmast"/>
    <tag k="source" v="survey"/>
  </node>
  <node id="473777386" version="4" timestamp="2009-10-03T17:36:37Z" uid="179968" user="Ich_hasse_doitsche_OSM-Korinthenkacker" changeset="2727120" lat="48.070672" lon="11.5309817">
    <tag k="man_made" v="tower"/>
    <tag k="name" v="Funkmast"/>
  </node>
  <node id="473777386" version="5" timestamp="2010-12-17T08:53:45Z" uid="42393" user="mawi42" changeset="6684509" lat="48.070658" lon="11.5309406">
    <tag k="man_made" v="tower"/>
    <tag k="name" v="Funkmast"/>
  </node>
  <node id="473777388" version="1" timestamp="2009-08-25T19:06:11Z" uid="36809" user="pfoten_weg_!_" changeset="2260462" lat="48.0707789" lon="11.5318025">
    <tag k="discovered_by" v="RambaZamba"/>
    <tag k="information" v="citymap"/>
    <tag k="name" v="Ortsplan"/>
    <tag k="source" v="survey"/>
    <tag k="tourism" v="information"/>
  </node>
  <node id="473777388" version="2" timestamp="2009-08-30T09:17:22Z" uid="156995" user="HampelZamba" changeset="2310659" lat="48.0707789" lon="11.5318025">
    <tag k="information" v="citymap"/>
    <tag k="name" v="Ortsplan"/>
    <tag k="source" v="survey"/>
    <tag k="tourism" v="information"/>
  </node>
  <node id="473777388" version="3" timestamp="2009-08-31T21:07:30Z" uid="36809" user="pfoten_weg_!_" changeset="2331411" lat="48.0707789" lon="11.5318025">
    <tag k="information" v="citymap"/>
    <tag k="name" v="Ortsplan"/>
    <tag k="source" v="survey"/>
    <tag k="tourism" v="information"/>
  </node>
  <node id="473777388" version="4" timestamp="2009-10-03T17:37:41Z" uid="179968" user="Ich_hasse_doitsche_OSM-Korinthenkacker" changeset="2727120" lat="48.0707789" lon="11.5318025">
    <tag k="information" v="citymap"/>
    <tag k="name" v="Ortsplan"/>
    <tag k="tourism" v="information"/>
  </node>
  <node id="473777389" version="1" timestamp="2009-08-25T19:06:11Z" uid="36809" user="pfoten_weg_!_" changeset="2260462" lat="48.0716806" lon="11.5310169">
    <tag k="amenity" v="bicycle_parking"/>
    <tag k="capacity" v="30"/>
    <tag k="discovered_by" v="RambaZamba"/>
    <tag k="source" v="survey"/>
  </node>
  <node id="473777389" version="2" timestamp="2009-08-30T09:17:22Z" uid="156995" user="HampelZamba" changeset="2310659" lat="48.0716806" lon="11.5310169">
    <tag k="amenity" v="bicycle_parking"/>
    <tag k="capacity" v="30"/>
    <tag k="source" v="survey"/>
  </node>
  <node id="473777389" version="3" timestamp="2009-08-31T21:07:29Z" uid="36809" user="pfoten_weg_!_" changeset="2331411" lat="48.0716806" lon="11.5310169">
    <tag k="amenity" v="bicycle_parking"/>
    <tag k="capacity" v="30"/>
    <tag k="source" v="survey"/>
  </node>
  <node id="473777389" version="4" timestamp="2009-10-03T17:37:39Z" uid="179968" user="Ich_hasse_doitsche_OSM-Korinthenkacker" changeset="2727120" lat="48.0716806" lon="11.5310169">
    <tag k="amenity" v="bicycle_parking"/>
    <tag k="capacity" v="30"/>
  </node>
  <node id="473777393" version="1" timestamp="2009-08-25T19:06:11Z" uid="36809" user="pfoten_weg_!_" changeset="2260462" lat="48.0707524" lon="11.5314929">
    <tag k="amenity" v="bench"/>
    <tag k="discovered_by" v="RambaZamba"/>
    <tag k="source" v="survey"/>
  </node>
  <node id="473777393" version="2" timestamp="2009-08-30T09:17:22Z" uid="156995" user="HampelZamba" changeset="2310659" lat="48.0707524" lon="11.5314929">
    <tag k="amenity" v="bench"/>
    <tag k="source" v="survey"/>
  </node>
  <node id="473777393" version="3" timestamp="2009-08-31T21:07:28Z" uid="36809" user="pfoten_weg_!_" changeset="2331411" lat="48.0707524" lon="11.5314929">
    <tag k="amenity" v="bench"/>
    <tag k="source" v="survey"/>
  </node>
  <node id="473777393" version="4" timestamp="2009-10-03T17:37:37Z" uid="179968" user="Ich_hasse_doitsche_OSM-Korinthenkacker" changeset="2727120" lat="48.0707524" lon="11.5314929">
    <tag k="amenity" v="bench"/>
  </node>
  <node id="473777399" version="1" timestamp="2009-08-25T19:06:12Z" uid="36809" user="pfoten_weg_!_" changeset="2260462" lat="48.0717131" lon="11.529688">
    <tag k="amenity" v="doctors"/>
    <tag k="discovered_by" v="RambaZamba"/>
    <tag k="name" v="Villa Med"/>
    <tag k="source" v="survey"/>
  </node>
  <node id="473777399" version="2" timestamp="2009-08-30T09:17:22Z" uid="156995" user="HampelZamba" changeset="2310659" lat="48.0717131" lon="11.529688">
    <tag k="amenity" v="doctors"/>
    <tag k="name" v="Villa Med"/>
    <tag k="source" v="survey"/>
  </node>
  <node id="473777399" version="3" timestamp="2009-08-31T21:07:27Z" uid="36809" user="pfoten_weg_!_" changeset="2331411" lat="48.0717131" lon="11.529688">
    <tag k="amenity" v="doctors"/>
    <tag k="name" v="Villa Med"/>
    <tag k="source" v="survey"/>
  </node>
  <node id="473777399" version="4" timestamp="2009-10-03T17:37:11Z" uid="179968" user="Ich_hasse_doitsche_OSM-Korinthenkacker" changeset="2727120" lat="48.0717131" lon="11.529688">
    <tag k="amenity" v="doctors"/>
    <tag k="name" v="Villa Med"/>
  </node>
  <node id="473778250" version="1" timestamp="2009-08-25T19:07:41Z" uid="36809" user="pfoten_weg_!_" changeset="2260477" lat="48.0723174" lon="11.5363882">
    <tag k="amenity" v="restaurant"/>
    <tag k="discovered_by" v="RambaZamba"/>
    <tag k="name" v="Hotel"/>
    <tag k="source" v="survey"/>
    <tag k="tourism" v="hotel"/>
  </node>
  <node id="473778250" version="2" timestamp="2009-08-30T09:17:35Z" uid="156995" user="HampelZamba" changeset="2310659" lat="48.0723174" lon="11.5363882">
    <tag k="amenity" v="restaurant"/>
    <tag k="name" v="Hotel"/>
    <tag k="source" v="survey"/>
    <tag k="tourism" v="hotel"/>
  </node>
  <node id="473778250" version="3" timestamp="2009-08-31T21:07:46Z" uid="36809" user="pfoten_weg_!_" changeset="2331411" lat="48.0723174" lon="11.5363882">
    <tag k="amenity" v="restaurant"/>
    <tag k="name" v="Hotel"/>
    <tag k="source" v="survey"/>
    <tag k="tourism" v="hotel"/>
  </node>
  <node id="473778250" version="4" timestamp="2009-10-13T23:30:16Z" uid="36809" user="pfoten_weg_!_" changeset="2841273" lat="48.0723174" lon="11.5363882">
    <tag k="amenity" v="restaurant"/>
    <tag k="name" v="Hotel"/>
    <tag k="tourism" v="hotel"/>
  </node>
  <node id="473778250" version="5" timestamp="2010-05-07T19:24:52Z" uid="36809" user="pfoten_weg_!_" changeset="4633037" lat="48.0723174" lon="11.5363882">
    <tag k="amenity" v="restaurant"/>
    <tag k="landuse" v="construction"/>
    <tag k="name" v="Hotel"/>
    <tag k="tourism" v="hotel"/>
  </node>
  <node id="473778250" version="6" timestamp="2010-05-09T08:55:27Z" uid="145231" user="woodpeck_repair" changeset="4645739" lat="48.0723174" lon="11.5363882">
    <tag k="amenity" v="restaurant"/>
    <tag k="name" v="Hotel"/>
    <tag k="source" v="survey"/>
    <tag k="tourism" v="hotel"/>
  </node>
  <node id="473778250" version="7" timestamp="2010-07-16T15:28:46Z" uid="30579" user="Tiramisu" changeset="5235615" lat="48.0723175" lon="11.5363881">
    <tag k="addr:city" v="Pullach"/>
    <tag k="addr:housenumber" v="24"/>
    <tag k="addr:postcode" v="82049"/>
    <tag k="addr:street" v="Pullacher Straße"/>
    <tag k="amenity" v="restaurant"/>
    <tag k="name" v="Hotel Bittmann Superior"/>
    <tag k="source" v="survey"/>
    <tag k="tourism" v="hotel"/>
  </node>
  <node id="473778250" version="8" timestamp="2010-07-16T15:31:25Z" uid="30579" user="Tiramisu" changeset="5235615" lat="48.0723175" lon="11.5363881">
    <tag k="addr:city" v="Pullach"/>
    <tag k="addr:housenumber" v="24"/>
    <tag k="addr:postcode" v="82049"/>
    <tag k="addr:street" v="Pullacher Straße"/>
    <tag k="name" v="Hotel Bittmann Superior"/>
    <tag k="source" v="survey"/>
    <tag k="tourism" v="hotel"/>
  </node>
  <node id="473778250" version="9" timestamp="2010-07-16T15:35:44Z" uid="30579" user="Tiramisu" changeset="5235615" lat="48.07231" lon="11.5363593">
    <tag k="addr:city" v="Pullach"/>
    <tag k="addr:housenumber" v="24"/>
    <tag k="addr:postcode" v="82049"/>
    <tag k="addr:street" v="Pullacher Straße"/>
    <tag k="name" v="Hotel Bittmann Superior"/>
    <tag k="source" v="survey"/>
    <tag k="tourism" v="hotel"/>
  </node>
  <node id="473778260" version="1" timestamp="2009-08-25T19:07:44Z" uid="36809" user="pfoten_weg_!_" changeset="2260477" lat="48.0738745" lon="11.5375138">
    <tag k="amenity" v="restaurant"/>
    <tag k="discovered_by" v="RambaZamba"/>
    <tag k="name" v="Zur Großhesseloher &quot;Alm&quot;"/>
    <tag k="source" v="survey"/>
  </node>
  <node id="473778260" version="2" timestamp="2009-08-30T09:17:35Z" uid="156995" user="HampelZamba" changeset="2310659" lat="48.0738745" lon="11.5375138">
    <tag k="amenity" v="restaurant"/>
    <tag k="name" v="Zur Großhesseloher &quot;Alm&quot;"/>
    <tag k="source" v="survey"/>
  </node>
  <node id="473778260" version="3" timestamp="2009-08-31T21:07:46Z" uid="36809" user="pfoten_weg_!_" changeset="2331411" lat="48.0738745" lon="11.5375138">
    <tag k="amenity" v="restaurant"/>
    <tag k="name" v="Zur Großhesseloher &quot;Alm&quot;"/>
    <tag k="source" v="survey"/>
  </node>
  <node id="473778260" version="4" timestamp="2009-10-13T23:30:40Z" uid="36809" user="pfoten_weg_!_" changeset="2841273" lat="48.0738745" lon="11.5375138">
    <tag k="amenity" v="restaurant"/>
    <tag k="name" v="Zur Großhesseloher &quot;Alm&quot;"/>
  </node>
  <node id="473778264" version="1" timestamp="2009-08-25T19:07:45Z" uid="36809" user="pfoten_weg_!_" changeset="2260477" lat="48.0722703" lon="11.5365761">
    <tag k="amenity" v="restaurant"/>
    <tag k="discovered_by" v="RambaZamba"/>
    <tag k="name" v="Restaurant"/>
    <tag k="source" v="survey"/>
  </node>
  <node id="473778264" version="2" timestamp="2009-08-30T09:17:35Z" uid="156995" user="HampelZamba" changeset="2310659" lat="48.0722703" lon="11.5365761">
    <tag k="amenity" v="restaurant"/>
    <tag k="name" v="Restaurant"/>
    <tag k="source" v="survey"/>
  </node>
  <node id="473778264" version="3" timestamp="2009-08-31T21:07:48Z" uid="36809" user="pfoten_weg_!_" changeset="2331411" lat="48.0722703" lon="11.5365761">
    <tag k="amenity" v="restaurant"/>
    <tag k="name" v="Restaurant"/>
    <tag k="source" v="survey"/>
  </node>
  <node id="473778264" version="4" timestamp="2009-10-13T23:30:16Z" uid="36809" user="pfoten_weg_!_" changeset="2841273" lat="48.0722703" lon="11.5365761">
    <tag k="amenity" v="restaurant"/>
    <tag k="name" v="Restaurant"/>
  </node>
  <node id="473778264" version="5" timestamp="2010-05-07T19:24:52Z" uid="36809" user="pfoten_weg_!_" changeset="4633037" lat="48.0722703" lon="11.5365761">
    <tag k="amenity" v="restaurant"/>
    <tag k="landuse" v="construction"/>
    <tag k="name" v="Restaurant"/>
  </node>
  <node id="473778264" version="6" timestamp="2010-05-09T08:55:26Z" uid="145231" user="woodpeck_repair" changeset="4645739" lat="48.0722703" lon="11.5365761">
    <tag k="amenity" v="restaurant"/>
    <tag k="name" v="Restaurant"/>
    <tag k="source" v="survey"/>
  </node>
  <node id="473778264" version="7" timestamp="2010-07-16T15:35:17Z" uid="30579" user="Tiramisu" changeset="5235615" lat="48.0722703" lon="11.536576">
    <tag k="addr:city" v="Pullach"/>
    <tag k="addr:housenumber" v="24"/>
    <tag k="addr:postcode" v="82049"/>
    <tag k="addr:street" v="Pullacher Straße"/>
    <tag k="amenity" v="restaurant"/>
    <tag k="cuisine" v="international"/>
    <tag k="name" v="Küchenfürst II"/>
    <tag k="phone" v="089 749117-0"/>
    <tag k="source" v="survey"/>
    <tag k="website" v="http://www.kuechenfuerst.de/"/>
  </node>
  <node id="473778264" version="8" timestamp="2010-07-16T15:35:43Z" uid="30579" user="Tiramisu" changeset="5235615" lat="48.0723136" lon="11.5364398">
    <tag k="addr:city" v="Pullach"/>
    <tag k="addr:housenumber" v="24"/>
    <tag k="addr:postcode" v="82049"/>
    <tag k="addr:street" v="Pullacher Straße"/>
    <tag k="amenity" v="restaurant"/>
    <tag k="cuisine" v="international"/>
    <tag k="name" v="Küchenfürst II"/>
    <tag k="phone" v="089 749117-0"/>
    <tag k="source" v="survey"/>
    <tag k="website" v="http://www.kuechenfuerst.de/"/>
  </node>
  <node id="473778270" version="1" timestamp="2009-08-25T19:07:45Z" uid="36809" user="pfoten_weg_!_" changeset="2260477" lat="48.072112" lon="11.5305116">
    <tag k="amenity" v="bench"/>
    <tag k="discovered_by" v="RambaZamba"/>
    <tag k="source" v="survey"/>
  </node>
  <node id="473778270" version="2" timestamp="2009-08-30T09:17:22Z" uid="156995" user="HampelZamba" changeset="2310659" lat="48.072112" lon="11.5305116">
    <tag k="amenity" v="bench"/>
    <tag k="source" v="survey"/>
  </node>
  <node id="473778270" version="3" timestamp="2009-08-31T21:07:47Z" uid="36809" user="pfoten_weg_!_" changeset="2331411" lat="48.072112" lon="11.5305116">
    <tag k="amenity" v="bench"/>
    <tag k="source" v="survey"/>
  </node>
  <node id="473778270" version="4" timestamp="2009-10-03T17:37:47Z" uid="179968" user="Ich_hasse_doitsche_OSM-Korinthenkacker" changeset="2727120" lat="48.072112" lon="11.5305116">
    <tag k="amenity" v="bench"/>
  </node>
  <node id="473778275" version="1" timestamp="2009-08-25T19:07:45Z" uid="36809" user="pfoten_weg_!_" changeset="2260477" lat="48.0722043" lon="11.5310471">
    <tag k="amenity" v="pharmacy"/>
    <tag k="discovered_by" v="RambaZamba"/>
    <tag k="dispensing" v="yes"/>
    <tag k="name" v="Wassermann-Apotheke"/>
    <tag k="source" v="survey"/>
  </node>
  <node id="473778275" version="2" timestamp="2009-08-30T09:17:22Z" uid="156995" user="HampelZamba" changeset="2310659" lat="48.0722043" lon="11.5310471">
    <tag k="amenity" v="pharmacy"/>
    <tag k="dispensing" v="yes"/>
    <tag k="name" v="Wassermann-Apotheke"/>
    <tag k="source" v="survey"/>
  </node>
  <node id="473778275" version="3" timestamp="2009-08-31T21:07:42Z" uid="36809" user="pfoten_weg_!_" changeset="2331411" lat="48.0722043" lon="11.5310471">
    <tag k="amenity" v="pharmacy"/>
    <tag k="dispensing" v="yes"/>
    <tag k="name" v="Wassermann-Apotheke"/>
    <tag k="source" v="survey"/>
  </node>
  <node id="473778275" version="4" timestamp="2009-10-03T17:37:49Z" uid="179968" user="Ich_hasse_doitsche_OSM-Korinthenkacker" changeset="2727120" lat="48.0722043" lon="11.5310471">
    <tag k="amenity" v="pharmacy"/>
    <tag k="dispensing" v="yes"/>
    <tag k="name" v="Wassermann-Apotheke"/>
  </node>
  <node id="473778275" version="5" timestamp="2011-12-23T00:08:06Z" uid="290680" user="wheelmap_visitor" changeset="10178643" lat="48.0722043" lon="11.5310471">
    <tag k="amenity" v="pharmacy"/>
    <tag k="dispensing" v="yes"/>
    <tag k="name" v="Wassermann-Apotheke"/>
    <tag k="wheelchair" v="no"/>
  </node>
  <node id="473778280" version="1" timestamp="2009-08-25T19:07:46Z" uid="36809" user="pfoten_weg_!_" changeset="2260477" lat="48.0722025" lon="11.5310251">
    <tag k="addr:city" v="Pullach im Isartal"/>
    <tag k="addr:housename" v="Wassermann-Apotheke"/>
    <tag k="addr:housenumber" v="2"/>
    <tag k="addr:postcode" v="82049"/>
    <tag k="addr:street" v="Rosenstraße"/>
    <tag k="discovered_by" v="RambaZamba"/>
    <tag k="source" v="survey"/>
  </node>
  <node id="473778280" version="2" timestamp="2009-08-30T09:17:22Z" uid="156995" user="HampelZamba" changeset="2310659" lat="48.0722025" lon="11.5310251">
    <tag k="addr:city" v="Pullach im Isartal"/>
    <tag k="addr:housename" v="Wassermann-Apotheke"/>
    <tag k="addr:housenumber" v="2"/>
    <tag k="addr:postcode" v="82049"/>
    <tag k="addr:street" v="Rosenstraße"/>
    <tag k="source" v="survey"/>
  </node>
  <node id="473778280" version="3" timestamp="2009-08-31T21:07:44Z" uid="36809" user="pfoten_weg_!_" changeset="2331411" lat="48.0722025" lon="11.5310251">
    <tag k="addr:city" v="Pullach im Isartal"/>
    <tag k="addr:housename" v="Wassermann-Apotheke"/>
    <tag k="addr:housenumber" v="2"/>
    <tag k="addr:postcode" v="82049"/>
    <tag k="addr:street" v="Rosenstraße"/>
    <tag k="source" v="survey"/>
  </node>
  <node id="473778280" version="4" timestamp="2009-10-02T20:45:00Z" uid="86259" user="hasse_osm_korinthenkacker" changeset="2717407" lat="48.0722025" lon="11.5310251">
    <tag k="addr:city" v="Pullach im Isartal"/>
    <tag k="addr:housename" v="Wassermann-Apotheke"/>
    <tag k="addr:housenumber" v="2"/>
    <tag k="addr:postcode" v="82049"/>
    <tag k="addr:street" v="Rosenstraße"/>
    <tag k="source" v="survey"/>
  </node>
  <node id="473778284" version="1" timestamp="2009-08-25T19:07:46Z" uid="36809" user="pfoten_weg_!_" changeset="2260477" lat="48.07316" lon="11.5371273">
    <tag k="amenity" v="parking"/>
    <tag k="discovered_by" v="RambaZamba"/>
    <tag k="ele" v="561"/>
    <tag k="name" v="Parkplatz"/>
    <tag k="source" v="survey"/>
  </node>
  <node id="473778284" version="2" timestamp="2009-08-30T09:17:35Z" uid="156995" user="HampelZamba" changeset="2310659" lat="48.07316" lon="11.5371273">
    <tag k="amenity" v="parking"/>
    <tag k="ele" v="561"/>
    <tag k="name" v="Parkplatz"/>
    <tag k="source" v="survey"/>
  </node>
  <node id="473778284" version="3" timestamp="2009-08-31T21:07:43Z" uid="36809" user="pfoten_weg_!_" changeset="2331411" lat="48.07316" lon="11.5371273">
    <tag k="amenity" v="parking"/>
    <tag k="ele" v="561"/>
    <tag k="name" v="Parkplatz"/>
    <tag k="source" v="survey"/>
  </node>
  <node id="473778284" version="4" timestamp="2009-10-13T23:30:23Z" uid="36809" user="pfoten_weg_!_" changeset="2841273" lat="48.07316" lon="11.5371273">
    <tag k="amenity" v="parking"/>
    <tag k="ele" v="561"/>
    <tag k="name" v="Parkplatz"/>
  </node>
  <node id="473778284" version="5" timestamp="2010-09-09T14:04:32Z" uid="70696" user="xybot" changeset="5732929" lat="48.07316" lon="11.5371273">
    <tag k="amenity" v="parking"/>
    <tag k="ele" v="561"/>
  </node>
  <node id="473778286" version="1" timestamp="2009-08-25T19:07:46Z" uid="36809" user="pfoten_weg_!_" changeset="2260477" lat="48.0725971" lon="11.530639">
    <tag k="amenity" v="bench"/>
    <tag k="discovered_by" v="RambaZamba"/>
    <tag k="source" v="survey"/>
  </node>
  <node id="473778286" version="2" timestamp="2009-08-30T09:17:23Z" uid="156995" user="HampelZamba" changeset="2310659" lat="48.0725971" lon="11.530639">
    <tag k="amenity" v="bench"/>
    <tag k="source" v="survey"/>
  </node>
  <node id="473778286" version="3" timestamp="2009-08-31T21:07:43Z" uid="36809" user="pfoten_weg_!_" changeset="2331411" lat="48.0725971" lon="11.530639">
    <tag k="amenity" v="bench"/>
    <tag k="source" v="survey"/>
  </node>
  <node id="473778286" version="4" timestamp="2009-10-03T17:37:49Z" uid="179968" user="Ich_hasse_doitsche_OSM-Korinthenkacker" changeset="2727120" lat="48.0725971" lon="11.530639">
    <tag k="amenity" v="bench"/>
  </node>
  <node id="473778287" version="1" timestamp="2009-08-25T19:07:47Z" uid="36809" user="pfoten_weg_!_" changeset="2260477" lat="48.0719797" lon="11.5326347">
    <tag k="amenity" v="bank"/>
    <tag k="atm" v="yes"/>
    <tag k="discovered_by" v="RambaZamba"/>
    <tag k="name" v="Kreissparkasse München Starnberg"/>
    <tag k="source" v="survey"/>
  </node>
  <node id="473778287" version="2" timestamp="2009-08-30T09:17:23Z" uid="156995" user="HampelZamba" changeset="2310659" lat="48.0719797" lon="11.5326347">
    <tag k="amenity" v="bank"/>
    <tag k="atm" v="yes"/>
    <tag k="name" v="Kreissparkasse München Starnberg"/>
    <tag k="source" v="survey"/>
  </node>
  <node id="473778287" version="3" timestamp="2009-08-31T21:07:44Z" uid="36809" user="pfoten_weg_!_" changeset="2331411" lat="48.0719797" lon="11.5326347">
    <tag k="amenity" v="bank"/>
    <tag k="atm" v="yes"/>
    <tag k="name" v="Kreissparkasse München Starnberg"/>
    <tag k="source" v="survey"/>
  </node>
  <node id="473778287" version="4" timestamp="2009-10-03T17:37:45Z" uid="179968" user="Ich_hasse_doitsche_OSM-Korinthenkacker" changeset="2727120" lat="48.0719797" lon="11.5326347">
    <tag k="amenity" v="bank"/>
    <tag k="atm" v="yes"/>
    <tag k="name" v="Kreissparkasse München Starnberg"/>
  </node>
  <node id="473778288" version="1" timestamp="2009-08-25T19:07:47Z" uid="36809" user="pfoten_weg_!_" changeset="2260477" lat="48.0728101" lon="11.536841">
    <tag k="amenity" v="restaurant"/>
    <tag k="discovered_by" v="RambaZamba"/>
    <tag k="name" v="Ristorante La Terra Rossa"/>
    <tag k="source" v="survey"/>
  </node>
  <node id="473778288" version="2" timestamp="2009-08-30T09:17:35Z" uid="156995" user="HampelZamba" changeset="2310659" lat="48.0728101" lon="11.536841">
    <tag k="amenity" v="restaurant"/>
    <tag k="name" v="Ristorante La Terra Rossa"/>
    <tag k="source" v="survey"/>
  </node>
  <node id="473778288" version="3" timestamp="2009-08-31T21:07:45Z" uid="36809" user="pfoten_weg_!_" changeset="2331411" lat="48.0728101" lon="11.536841">
    <tag k="amenity" v="restaurant"/>
    <tag k="name" v="Ristorante La Terra Rossa"/>
    <tag k="source" v="survey"/>
  </node>
  <node id="473778288" version="4" timestamp="2009-10-13T23:30:19Z" uid="36809" user="pfoten_weg_!_" changeset="2841273" lat="48.0728101" lon="11.536841">
    <tag k="amenity" v="restaurant"/>
    <tag k="name" v="Ristorante La Terra Rossa"/>
  </node>
  <node id="473778288" version="5" timestamp="2010-02-21T17:22:24Z" uid="8748" user="ToniE" changeset="3936101" lat="48.0727323" lon="11.536895">
    <tag k="amenity" v="restaurant"/>
    <tag k="cuisine" v="italian"/>
    <tag k="name" v="Ristorante La Terra Rossa"/>
  </node>
  <node id="473778288" version="6" timestamp="2010-04-12T00:40:35Z" uid="36809" user="pfoten_weg_!_" changeset="4400517" lat="48.0728102" lon="11.5368409">
    <tag k="amenity" v="restaurant"/>
    <tag k="name" v="Ristorante La Terra Rossa"/>
  </node>
  <node id="473778288" version="7" timestamp="2010-07-16T14:53:08Z" uid="30579" user="Tiramisu" changeset="5235375" lat="48.0728102" lon="11.5368408">
    <tag k="amenity" v="restaurant"/>
    <tag k="cuisine" v="italian"/>
    <tag k="name" v="Ristorante La Terra Rossa"/>
  </node>
  <node id="473778289" version="1" timestamp="2009-08-25T19:07:47Z" uid="36809" user="pfoten_weg_!_" changeset="2260477" lat="48.0724961" lon="11.5306509">
    <tag k="amenity" v="bench"/>
    <tag k="discovered_by" v="RambaZamba"/>
    <tag k="source" v="survey"/>
  </node>
  <node id="473778289" version="2" timestamp="2009-08-30T09:17:23Z" uid="156995" user="HampelZamba" changeset="2310659" lat="48.0724961" lon="11.5306509">
    <tag k="amenity" v="bench"/>
    <tag k="source" v="survey"/>
  </node>
  <node id="473778289" version="3" timestamp="2009-08-31T21:07:45Z" uid="36809" user="pfoten_weg_!_" changeset="2331411" lat="48.0724961" lon="11.5306509">
    <tag k="amenity" v="bench"/>
    <tag k="source" v="survey"/>
  </node>
  <node id="473778289" version="4" timestamp="2009-10-03T17:37:49Z" uid="179968" user="Ich_hasse_doitsche_OSM-Korinthenkacker" changeset="2727120" lat="48.0724961" lon="11.5306509">
    <tag k="amenity" v="bench"/>
  </node>
</osm>
