<?xml version='1.0' encoding='UTF-8'?>
<osm version="0.6" generator="libosmium/2.20.0">
  <node id="474390913" version="2" timestamp="2010-05-23T01:03:46Z" uid="30201" user="rrankin" changeset="4779528" lat="-33.2770878" lon="151.5509065"/>
  <node id="474390914" version="2" timestamp="2010-05-23T01:03:47Z" uid="30201" user="rrankin" changeset="4779528" lat="-33.2768563" lon="151.5512117"/>
  <node id="474390915" version="1" timestamp="2009-08-26T09:33:40Z" uid="61114" user="Trav" changeset="2265367" lat="-33.8078015" lon="151.1813557">
    <tag k="addr:housenumber" v="8"/>
    <tag k="addr:street" v="Robert Street"/>
  </node>
  <node id="474390915" version="2" timestamp="2012-03-12T05:22:17Z" uid="7523" user="inas" changeset="10950679" lat="-33.8078015" lon="151.1813557"/>
  <node id="474390919" version="1" timestamp="2009-08-26T09:33:41Z" uid="61114" user="Trav" changeset="2265367" lat="-33.8087066" lon="151.1817454">
    <tag k="addr:housenumber" v="3"/>
    <tag k="addr:street" v="Francis Road"/>
  </node>
  <node id="474390919" version="2" timestamp="2012-03-12T05:22:15Z" uid="7523" user="inas" changeset="10950679" lat="-33.8087066" lon="151.1817454"/>
  <node id="474391361" version="2" timestamp="2010-05-23T01:03:52Z" uid="30201" user="rrankin" changeset="4779528" lat="-33.2700383" lon="151.5494373"/>
  <node id="474391362" version="2" timestamp="2010-05-23T01:03:31Z" uid="30201" user="rrankin" changeset="4779528" lat="-33.2699616" lon="151.5487024"/>
  <node id="474391363" version="2" timestamp="2010-05-23T01:03:43Z" uid="30201" user="rrankin" changeset="4779528" lat="-33.2701802" lon="151.5487044"/>
  <node id="474391364" version="2" timestamp="2010-05-23T01:03:52Z" uid="30201" user="rrankin" changeset="4779528" lat="-33.2702152" lon="151.5494481"/>
  <node id="474391365" version="2" timestamp="2010-05-23T01:03:52Z" uid="30201" user="rrankin" changeset="4779528" lat="-33.2701926" lon="151.5494467"/>
  <node id="474391657" version="4" timestamp="2010-05-25T09:09:41Z" uid="4467" user="Rosscoe" changeset="4801669" lat="-37.989189" lon="145.2055163"/>
  <node id="474399226" version="1" timestamp="2009-08-26T09:45:54Z" uid="36809" user="pfoten_weg_!_" changeset="2265457" lat="48.0982971" lon="11.5090695">
    <tag k="amenity" v="wifi"/>
    <tag k="discovered_by" v="RambaZamba"/>
    <tag k="internet_access" v="wlan"/>
    <tag k="internet_access:operator" v="FON"/>
    <tag k="man_made" v="beacon"/>
    <tag k="name" v="FON_AP [OFF]"/>
    <tag k="ref" v="Höglwörther Str.391,81379 Muc,UT0,K1,stargazer2893"/>
    <tag k="seamark" v="beacon"/>
    <tag k="source" v="survey"/>
  </node>
  <node id="474399226" version="2" timestamp="2009-08-30T09:16:21Z" uid="156995" user="HampelZamba" changeset="2310659" lat="48.0982971" lon="11.5090695">
    <tag k="amenity" v="wifi"/>
    <tag k="internet_access" v="wlan"/>
    <tag k="internet_access:operator" v="FON"/>
    <tag k="man_made" v="beacon"/>
    <tag k="name" v="FON_AP [OFF]"/>
    <tag k="ref" v="Höglwörther Str.391,81379 Muc,UT0,K1,stargazer2893"/>
    <tag k="seamark" v="beacon"/>
    <tag k="source" v="survey"/>
  </node>
  <node id="474399226" version="3" timestamp="2009-09-01T10:29:45Z" uid="36809" user="pfoten_weg_!_" changeset="2335754" lat="48.0982971" lon="11.5090695">
    <tag k="amenity" v="wifi"/>
    <tag k="internet_access" v="wlan"/>
    <tag k="internet_access:operator" v="FON"/>
    <tag k="man_made" v="beacon"/>
    <tag k="name" v="FON_AP [OFF]"/>
    <tag k="ref" v="Höglwörther Str.391,81379 Muc,UT0,K1,stargazer2893"/>
    <tag k="seamark" v="beacon"/>
    <tag k="source" v="survey"/>
  </node>
  <node id="474399226" version="4" timestamp="2009-09-01T11:24:20Z" uid="36809" user="pfoten_weg_!_" changeset="2336438" lat="48.0982971" lon="11.5090695">
    <tag k="amenity" v="wifi"/>
    <tag k="internet_access" v="wlan"/>
    <tag k="internet_access:operator" v="FON"/>
    <tag k="man_made" v="beacon"/>
    <tag k="name" v="FON_AP [OFF]"/>
    <tag k="ref" v="Höglwörther Str.391,81379 Muc,UT0,K1,stargazer2893"/>
    <tag k="seamark" v="beacon"/>
    <tag k="source" v="survey"/>
  </node>
  <node id="474399245" version="1" timestamp="2009-08-26T09:45:54Z" uid="36809" user="pfoten_weg_!_" changeset="2265457" lat="48.1074404" lon="11.47229">
    <tag k="amenity" v="wifi"/>
    <tag k="class" v="free"/>
    <tag k="discovered_by" v="RambaZamba"/>
    <tag k="man_made" v="beacon"/>
    <tag k="name" v="FON_KlinikumGrosshadern"/>
    <tag k="ref" v="Prälat-Wellenhofer 31,81377 Muc,UT10,K2,istvanst"/>
    <tag k="seamark" v="beacon"/>
    <tag k="source" v="survey"/>
  </node>
  <node id="474399245" version="2" timestamp="2009-08-30T09:16:20Z" uid="156995" user="HampelZamba" changeset="2310659" lat="48.1074404" lon="11.47229">
    <tag k="amenity" v="wifi"/>
    <tag k="class" v="free"/>
    <tag k="man_made" v="beacon"/>
    <tag k="name" v="FON_KlinikumGrosshadern"/>
    <tag k="ref" v="Prälat-Wellenhofer 31,81377 Muc,UT10,K2,istvanst"/>
    <tag k="seamark" v="beacon"/>
    <tag k="source" v="survey"/>
  </node>
  <node id="474399245" version="3" timestamp="2009-09-01T10:29:43Z" uid="36809" user="pfoten_weg_!_" changeset="2335754" lat="48.1074404" lon="11.47229">
    <tag k="amenity" v="wifi"/>
    <tag k="class" v="free"/>
    <tag k="man_made" v="beacon"/>
    <tag k="name" v="FON_KlinikumGrosshadern"/>
    <tag k="ref" v="Prälat-Wellenhofer 31,81377 Muc,UT10,K2,istvanst"/>
    <tag k="seamark" v="beacon"/>
    <tag k="source" v="survey"/>
  </node>
  <node id="474399257" version="1" timestamp="2009-08-26T09:45:55Z" uid="36809" user="pfoten_weg_!_" changeset="2265457" lat="48.1109604" lon="11.52158">
    <tag k="amenity" v="wifi"/>
    <tag k="class" v="free"/>
    <tag k="discovered_by" v="RambaZamba"/>
    <tag k="man_made" v="beacon"/>
    <tag k="name" v="FON_Public_Access"/>
    <tag k="ref" v="Mainburger Str.9,81369 Muc,UT30,K1,opimuc"/>
    <tag k="seamark" v="beacon"/>
    <tag k="source" v="survey"/>
  </node>
  <node id="474399257" version="2" timestamp="2009-08-30T09:16:32Z" uid="156995" user="HampelZamba" changeset="2310659" lat="48.1109604" lon="11.52158">
    <tag k="amenity" v="wifi"/>
    <tag k="class" v="free"/>
    <tag k="man_made" v="beacon"/>
    <tag k="name" v="FON_Public_Access"/>
    <tag k="ref" v="Mainburger Str.9,81369 Muc,UT30,K1,opimuc"/>
    <tag k="seamark" v="beacon"/>
    <tag k="source" v="survey"/>
  </node>
  <node id="474399257" version="3" timestamp="2009-09-01T10:29:43Z" uid="36809" user="pfoten_weg_!_" changeset="2335754" lat="48.1109604" lon="11.52158">
    <tag k="amenity" v="wifi"/>
    <tag k="class" v="free"/>
    <tag k="man_made" v="beacon"/>
    <tag k="name" v="FON_Public_Access"/>
    <tag k="ref" v="Mainburger Str.9,81369 Muc,UT30,K1,opimuc"/>
    <tag k="seamark" v="beacon"/>
    <tag k="source" v="survey"/>
  </node>
  <node id="474399272" version="1" timestamp="2009-08-26T09:45:56Z" uid="36809" user="pfoten_weg_!_" changeset="2265457" lat="48.1082004" lon="11.47686">
    <tag k="amenity" v="wifi"/>
    <tag k="class" v="free"/>
    <tag k="discovered_by" v="RambaZamba"/>
    <tag k="man_made" v="beacon"/>
    <tag k="name" v="FON_Bastl_Wastl"/>
    <tag k="ref" v="Pfingstrosenstr.89,81377 Muc,UT40,K1,BastlWastl"/>
    <tag k="seamark" v="beacon"/>
    <tag k="source" v="survey"/>
  </node>
  <node id="474399272" version="2" timestamp="2009-08-30T09:16:20Z" uid="156995" user="HampelZamba" changeset="2310659" lat="48.1082004" lon="11.47686">
    <tag k="amenity" v="wifi"/>
    <tag k="class" v="free"/>
    <tag k="man_made" v="beacon"/>
    <tag k="name" v="FON_Bastl_Wastl"/>
    <tag k="ref" v="Pfingstrosenstr.89,81377 Muc,UT40,K1,BastlWastl"/>
    <tag k="seamark" v="beacon"/>
    <tag k="source" v="survey"/>
  </node>
  <node id="474399272" version="3" timestamp="2009-09-01T10:29:45Z" uid="36809" user="pfoten_weg_!_" changeset="2335754" lat="48.1082004" lon="11.47686">
    <tag k="amenity" v="wifi"/>
    <tag k="class" v="free"/>
    <tag k="man_made" v="beacon"/>
    <tag k="name" v="FON_Bastl_Wastl"/>
    <tag k="ref" v="Pfingstrosenstr.89,81377 Muc,UT40,K1,BastlWastl"/>
    <tag k="seamark" v="beacon"/>
    <tag k="source" v="survey"/>
  </node>
  <node id="474399275" version="1" timestamp="2009-08-26T09:45:56Z" uid="36809" user="pfoten_weg_!_" changeset="2265457" lat="48.1075704" lon="11.51072">
    <tag k="amenity" v="wifi"/>
    <tag k="class" v="free"/>
    <tag k="discovered_by" v="RambaZamba"/>
    <tag k="man_made" v="beacon"/>
    <tag k="name" v="FON_Einhornallee"/>
    <tag k="ref" v="Einhornallee 29,81377 Muc,UT30,K1,awesomefon"/>
    <tag k="seamark" v="beacon"/>
    <tag k="source" v="survey"/>
  </node>
  <node id="474399275" version="2" timestamp="2009-08-30T09:16:21Z" uid="156995" user="HampelZamba" changeset="2310659" lat="48.1075704" lon="11.51072">
    <tag k="amenity" v="wifi"/>
    <tag k="class" v="free"/>
    <tag k="man_made" v="beacon"/>
    <tag k="name" v="FON_Einhornallee"/>
    <tag k="ref" v="Einhornallee 29,81377 Muc,UT30,K1,awesomefon"/>
    <tag k="seamark" v="beacon"/>
    <tag k="source" v="survey"/>
  </node>
  <node id="474399275" version="3" timestamp="2009-09-01T10:29:44Z" uid="36809" user="pfoten_weg_!_" changeset="2335754" lat="48.1075704" lon="11.51072">
    <tag k="amenity" v="wifi"/>
    <tag k="class" v="free"/>
    <tag k="man_made" v="beacon"/>
    <tag k="name" v="FON_Einhornallee"/>
    <tag k="ref" v="Einhornallee 29,81377 Muc,UT30,K1,awesomefon"/>
    <tag k="seamark" v="beacon"/>
    <tag k="source" v="survey"/>
  </node>
  <node id="474399275" version="4" timestamp="2010-05-22T11:33:10Z" uid="37850" user="mawis" changeset="4773524" lat="48.1075704" lon="11.51072">
    <tag k="addr:city" v="München"/>
    <tag k="addr:country" v="DE"/>
    <tag k="addr:housenumber" v="29"/>
    <tag k="addr:postcode" v="81377"/>
    <tag k="addr:street" v="Einhornallee"/>
    <tag k="amenity" v="wifi"/>
    <tag k="class" v="free"/>
    <tag k="man_made" v="beacon"/>
    <tag k="name" v="FON_Einhornallee"/>
    <tag k="ref" v="Einhornallee 29,81377 Muc,UT30,K1,awesomefon"/>
    <tag k="seamark" v="beacon"/>
    <tag k="source" v="survey"/>
  </node>
  <node id="474399275" version="5" timestamp="2010-05-22T11:33:24Z" uid="37850" user="mawis" changeset="4773530" lat="48.1075704" lon="11.51072">
    <tag k="addr:city" v="München"/>
    <tag k="addr:country" v="DE"/>
    <tag k="addr:housenumber" v="29"/>
    <tag k="addr:postcode" v="81377"/>
    <tag k="addr:street" v="Einhornallee"/>
    <tag k="amenity" v="wifi"/>
    <tag k="class" v="free"/>
    <tag k="man_made" v="beacon"/>
    <tag k="name" v="FON_Einhornallee"/>
    <tag k="ref" v="Einhornallee 29,81377 Muc,UT30,K1,awesomefon"/>
    <tag k="seamark" v="beacon"/>
    <tag k="source" v="survey"/>
  </node>
  <node id="474399285" version="1" timestamp="2009-08-26T09:45:57Z" uid="36809" user="pfoten_weg_!_" changeset="2265457" lat="48.0989271" lon="11.5268673">
    <tag k="amenity" v="wifi"/>
    <tag k="discovered_by" v="RambaZamba"/>
    <tag k="internet_access" v="wlan"/>
    <tag k="internet_access:operator" v="FON"/>
    <tag k="man_made" v="beacon"/>
    <tag k="name" v="FON_24_7_Free"/>
    <tag k="ref" v="Boschetsriederstr 93,81379 Muc,UT0,K1,wookie2k"/>
    <tag k="seamark" v="beacon"/>
    <tag k="source" v="survey"/>
  </node>
  <node id="474399285" version="2" timestamp="2009-08-30T09:16:33Z" uid="156995" user="HampelZamba" changeset="2310659" lat="48.0989271" lon="11.5268673">
    <tag k="amenity" v="wifi"/>
    <tag k="internet_access" v="wlan"/>
    <tag k="internet_access:operator" v="FON"/>
    <tag k="man_made" v="beacon"/>
    <tag k="name" v="FON_24_7_Free"/>
    <tag k="ref" v="Boschetsriederstr 93,81379 Muc,UT0,K1,wookie2k"/>
    <tag k="seamark" v="beacon"/>
    <tag k="source" v="survey"/>
  </node>
  <node id="474399285" version="3" timestamp="2009-09-01T10:29:44Z" uid="36809" user="pfoten_weg_!_" changeset="2335754" lat="48.0989271" lon="11.5268673">
    <tag k="amenity" v="wifi"/>
    <tag k="internet_access" v="wlan"/>
    <tag k="internet_access:operator" v="FON"/>
    <tag k="man_made" v="beacon"/>
    <tag k="name" v="FON_24_7_Free"/>
    <tag k="ref" v="Boschetsriederstr 93,81379 Muc,UT0,K1,wookie2k"/>
    <tag k="seamark" v="beacon"/>
    <tag k="source" v="survey"/>
  </node>
  <node id="474399285" version="4" timestamp="2009-10-13T23:39:33Z" uid="36809" user="pfoten_weg_!_" changeset="2841273" lat="48.0989271" lon="11.5268673">
    <tag k="amenity" v="wifi"/>
    <tag k="internet_access" v="wlan"/>
    <tag k="internet_access:operator" v="FON"/>
    <tag k="man_made" v="beacon"/>
    <tag k="name" v="FON_24_7_Free"/>
    <tag k="ref" v="Boschetsriederstr 93,81379 Muc,UT0,K1,wookie2k"/>
    <tag k="seamark" v="beacon"/>
  </node>
  <node id="474399298" version="1" timestamp="2009-08-26T09:45:57Z" uid="36809" user="pfoten_weg_!_" changeset="2265457" lat="48.0979904" lon="11.50255">
    <tag k="amenity" v="wifi"/>
    <tag k="discovered_by" v="RambaZamba"/>
    <tag k="internet_access" v="wlan"/>
    <tag k="internet_access:operator" v="FON"/>
    <tag k="man_made" v="beacon"/>
    <tag k="name" v="FON_1222"/>
    <tag k="ref" v="Würmseestr.30,81476 Muc,UT0,K1,cmbranco"/>
    <tag k="seamark" v="beacon"/>
    <tag k="source" v="survey"/>
  </node>
  <node id="474399298" version="2" timestamp="2009-08-30T09:16:21Z" uid="156995" user="HampelZamba" changeset="2310659" lat="48.0979904" lon="11.50255">
    <tag k="amenity" v="wifi"/>
    <tag k="internet_access" v="wlan"/>
    <tag k="internet_access:operator" v="FON"/>
    <tag k="man_made" v="beacon"/>
    <tag k="name" v="FON_1222"/>
    <tag k="ref" v="Würmseestr.30,81476 Muc,UT0,K1,cmbranco"/>
    <tag k="seamark" v="beacon"/>
    <tag k="source" v="survey"/>
  </node>
  <node id="474399298" version="3" timestamp="2009-09-01T10:29:41Z" uid="36809" user="pfoten_weg_!_" changeset="2335754" lat="48.0979904" lon="11.50255">
    <tag k="amenity" v="wifi"/>
    <tag k="internet_access" v="wlan"/>
    <tag k="internet_access:operator" v="FON"/>
    <tag k="man_made" v="beacon"/>
    <tag k="name" v="FON_1222"/>
    <tag k="ref" v="Würmseestr.30,81476 Muc,UT0,K1,cmbranco"/>
    <tag k="seamark" v="beacon"/>
    <tag k="source" v="survey"/>
  </node>
  <node id="474399298" version="4" timestamp="2009-09-01T11:24:20Z" uid="36809" user="pfoten_weg_!_" changeset="2336438" lat="48.0979904" lon="11.50255">
    <tag k="amenity" v="wifi"/>
    <tag k="internet_access" v="wlan"/>
    <tag k="internet_access:operator" v="FON"/>
    <tag k="man_made" v="beacon"/>
    <tag k="name" v="FON_1222"/>
    <tag k="ref" v="Würmseestr.30,81476 Muc,UT0,K1,cmbranco"/>
    <tag k="seamark" v="beacon"/>
    <tag k="source" v="survey"/>
  </node>
  <node id="474399309" version="1" timestamp="2009-08-26T09:45:58Z" uid="36809" user="pfoten_weg_!_" changeset="2265457" lat="48.1089204" lon="11.51819">
    <tag k="amenity" v="wifi"/>
    <tag k="class" v="free"/>
    <tag k="discovered_by" v="RambaZamba"/>
    <tag k="man_made" v="beacon"/>
    <tag k="name" v="FON_AP_vdietmar"/>
    <tag k="ref" v="Uttinger Str.17b,81379 Muc,UT30,K6,vdietmar"/>
    <tag k="seamark" v="beacon"/>
    <tag k="source" v="survey"/>
  </node>
  <node id="474399309" version="2" timestamp="2009-08-30T09:16:32Z" uid="156995" user="HampelZamba" changeset="2310659" lat="48.1089204" lon="11.51819">
    <tag k="amenity" v="wifi"/>
    <tag k="class" v="free"/>
    <tag k="man_made" v="beacon"/>
    <tag k="name" v="FON_AP_vdietmar"/>
    <tag k="ref" v="Uttinger Str.17b,81379 Muc,UT30,K6,vdietmar"/>
    <tag k="seamark" v="beacon"/>
    <tag k="source" v="survey"/>
  </node>
  <node id="474399309" version="3" timestamp="2009-09-01T10:29:41Z" uid="36809" user="pfoten_weg_!_" changeset="2335754" lat="48.1089204" lon="11.51819">
    <tag k="amenity" v="wifi"/>
    <tag k="class" v="free"/>
    <tag k="man_made" v="beacon"/>
    <tag k="name" v="FON_AP_vdietmar"/>
    <tag k="ref" v="Uttinger Str.17b,81379 Muc,UT30,K6,vdietmar"/>
    <tag k="seamark" v="beacon"/>
    <tag k="source" v="survey"/>
  </node>
  <node id="474399333" version="1" timestamp="2009-08-26T09:45:59Z" uid="36809" user="pfoten_weg_!_" changeset="2265457" lat="48.1112704" lon="11.53121">
    <tag k="amenity" v="wifi"/>
    <tag k="class" v="free"/>
    <tag k="discovered_by" v="RambaZamba"/>
    <tag k="man_made" v="beacon"/>
    <tag k="name" v="FON_24"/>
    <tag k="ref" v="Konrad-Celtis-Str.24,81369 Muc,UT30,K8,jaqob"/>
    <tag k="seamark" v="beacon"/>
    <tag k="source" v="survey"/>
  </node>
  <node id="474399333" version="2" timestamp="2009-08-30T09:16:32Z" uid="156995" user="HampelZamba" changeset="2310659" lat="48.1112704" lon="11.53121">
    <tag k="amenity" v="wifi"/>
    <tag k="class" v="free"/>
    <tag k="man_made" v="beacon"/>
    <tag k="name" v="FON_24"/>
    <tag k="ref" v="Konrad-Celtis-Str.24,81369 Muc,UT30,K8,jaqob"/>
    <tag k="seamark" v="beacon"/>
    <tag k="source" v="survey"/>
  </node>
  <node id="474399333" version="3" timestamp="2009-09-01T10:29:42Z" uid="36809" user="pfoten_weg_!_" changeset="2335754" lat="48.1112704" lon="11.53121">
    <tag k="amenity" v="wifi"/>
    <tag k="class" v="free"/>
    <tag k="man_made" v="beacon"/>
    <tag k="name" v="FON_24"/>
    <tag k="ref" v="Konrad-Celtis-Str.24,81369 Muc,UT30,K8,jaqob"/>
    <tag k="seamark" v="beacon"/>
    <tag k="source" v="survey"/>
  </node>
  <node id="474399346" version="1" timestamp="2009-08-26T09:45:59Z" uid="36809" user="pfoten_weg_!_" changeset="2265457" lat="48.1103504" lon="11.52829">
    <tag k="amenity" v="wifi"/>
    <tag k="class" v="free"/>
    <tag k="discovered_by" v="RambaZamba"/>
    <tag k="man_made" v="beacon"/>
    <tag k="name" v="FON_AP"/>
    <tag k="ref" v="Konrad-Celtis-Str.41d,81369 Muc,UT30,K5,DoniDaDon"/>
    <tag k="seamark" v="beacon"/>
    <tag k="source" v="survey"/>
  </node>
  <node id="474399346" version="2" timestamp="2009-08-30T09:16:32Z" uid="156995" user="HampelZamba" changeset="2310659" lat="48.1103504" lon="11.52829">
    <tag k="amenity" v="wifi"/>
    <tag k="class" v="free"/>
    <tag k="man_made" v="beacon"/>
    <tag k="name" v="FON_AP"/>
    <tag k="ref" v="Konrad-Celtis-Str.41d,81369 Muc,UT30,K5,DoniDaDon"/>
    <tag k="seamark" v="beacon"/>
    <tag k="source" v="survey"/>
  </node>
  <node id="474399346" version="3" timestamp="2009-09-01T10:29:42Z" uid="36809" user="pfoten_weg_!_" changeset="2335754" lat="48.1103504" lon="11.52829">
    <tag k="amenity" v="wifi"/>
    <tag k="class" v="free"/>
    <tag k="man_made" v="beacon"/>
    <tag k="name" v="FON_AP"/>
    <tag k="ref" v="Konrad-Celtis-Str.41d,81369 Muc,UT30,K5,DoniDaDon"/>
    <tag k="seamark" v="beacon"/>
    <tag k="source" v="survey"/>
  </node>
  <node id="474399360" version="1" timestamp="2009-08-26T09:45:59Z" uid="36809" user="pfoten_weg_!_" changeset="2265457" lat="48.0987804" lon="11.50251">
    <tag k="amenity" v="wifi"/>
    <tag k="discovered_by" v="RambaZamba"/>
    <tag k="internet_access" v="wlan"/>
    <tag k="internet_access:operator" v="FON"/>
    <tag k="man_made" v="beacon"/>
    <tag k="name" v="FON_AP [OFF]"/>
    <tag k="ref" v="Würmseestr.26,81476 Muc,UT0,K1,kili9r"/>
    <tag k="seamark" v="beacon"/>
    <tag k="source" v="survey"/>
  </node>
  <node id="474399360" version="2" timestamp="2009-08-30T09:16:21Z" uid="156995" user="HampelZamba" changeset="2310659" lat="48.0987804" lon="11.50251">
    <tag k="amenity" v="wifi"/>
    <tag k="internet_access" v="wlan"/>
    <tag k="internet_access:operator" v="FON"/>
    <tag k="man_made" v="beacon"/>
    <tag k="name" v="FON_AP [OFF]"/>
    <tag k="ref" v="Würmseestr.26,81476 Muc,UT0,K1,kili9r"/>
    <tag k="seamark" v="beacon"/>
    <tag k="source" v="survey"/>
  </node>
  <node id="474399360" version="3" timestamp="2009-09-01T10:29:37Z" uid="36809" user="pfoten_weg_!_" changeset="2335754" lat="48.0987804" lon="11.50251">
    <tag k="amenity" v="wifi"/>
    <tag k="internet_access" v="wlan"/>
    <tag k="internet_access:operator" v="FON"/>
    <tag k="man_made" v="beacon"/>
    <tag k="name" v="FON_AP [OFF]"/>
    <tag k="ref" v="Würmseestr.26,81476 Muc,UT0,K1,kili9r"/>
    <tag k="seamark" v="beacon"/>
    <tag k="source" v="survey"/>
  </node>
  <node id="474399360" version="4" timestamp="2009-09-01T11:24:20Z" uid="36809" user="pfoten_weg_!_" changeset="2336438" lat="48.0987804" lon="11.50251">
    <tag k="amenity" v="wifi"/>
    <tag k="internet_access" v="wlan"/>
    <tag k="internet_access:operator" v="FON"/>
    <tag k="man_made" v="beacon"/>
    <tag k="name" v="FON_AP [OFF]"/>
    <tag k="ref" v="Würmseestr.26,81476 Muc,UT0,K1,kili9r"/>
    <tag k="seamark" v="beacon"/>
    <tag k="source" v="survey"/>
  </node>
  <node id="474399379" version="1" timestamp="2009-08-26T09:46:00Z" uid="36809" user="pfoten_weg_!_" changeset="2265457" lat="48.1171504" lon="11.50963">
    <tag k="amenity" v="wifi"/>
    <tag k="class" v="free"/>
    <tag k="discovered_by" v="RambaZamba"/>
    <tag k="man_made" v="beacon"/>
    <tag k="name" v="FON_AP_MW63"/>
    <tag k="ref" v="Mittenwalder Str.63,81377 Muc,UT30,K1,CHofmann"/>
    <tag k="seamark" v="beacon"/>
    <tag k="source" v="survey"/>
  </node>
  <node id="474399379" version="2" timestamp="2009-08-30T09:16:19Z" uid="156995" user="HampelZamba" changeset="2310659" lat="48.1171504" lon="11.50963">
    <tag k="amenity" v="wifi"/>
    <tag k="class" v="free"/>
    <tag k="man_made" v="beacon"/>
    <tag k="name" v="FON_AP_MW63"/>
    <tag k="ref" v="Mittenwalder Str.63,81377 Muc,UT30,K1,CHofmann"/>
    <tag k="seamark" v="beacon"/>
    <tag k="source" v="survey"/>
  </node>
  <node id="474399379" version="3" timestamp="2012-01-10T08:26:10Z" uid="47544" user="SveLil" changeset="10349194" lat="48.1171504" lon="11.50963"/>
  <node id="474399396" version="1" timestamp="2009-08-26T09:46:01Z" uid="36809" user="pfoten_weg_!_" changeset="2265457" lat="48.1096904" lon="11.52397">
    <tag k="amenity" v="wifi"/>
    <tag k="class" v="free"/>
    <tag k="discovered_by" v="RambaZamba"/>
    <tag k="man_made" v="beacon"/>
    <tag k="name" v="FON_AP"/>
    <tag k="ref" v="Heckenstallerstr.149,81369 Muc,UT30,K1,eggi"/>
    <tag k="seamark" v="beacon"/>
    <tag k="source" v="survey"/>
  </node>
  <node id="474399396" version="2" timestamp="2009-08-30T09:16:32Z" uid="156995" user="HampelZamba" changeset="2310659" lat="48.1096904" lon="11.52397">
    <tag k="amenity" v="wifi"/>
    <tag k="class" v="free"/>
    <tag k="man_made" v="beacon"/>
    <tag k="name" v="FON_AP"/>
    <tag k="ref" v="Heckenstallerstr.149,81369 Muc,UT30,K1,eggi"/>
    <tag k="seamark" v="beacon"/>
    <tag k="source" v="survey"/>
  </node>
  <node id="474399396" version="3" timestamp="2009-09-01T10:29:38Z" uid="36809" user="pfoten_weg_!_" changeset="2335754" lat="48.1096904" lon="11.52397">
    <tag k="amenity" v="wifi"/>
    <tag k="class" v="free"/>
    <tag k="man_made" v="beacon"/>
    <tag k="name" v="FON_AP"/>
    <tag k="ref" v="Heckenstallerstr.149,81369 Muc,UT30,K1,eggi"/>
    <tag k="seamark" v="beacon"/>
    <tag k="source" v="survey"/>
  </node>
  <node id="474399406" version="1" timestamp="2009-08-26T09:46:01Z" uid="36809" user="pfoten_weg_!_" changeset="2265457" lat="48.1018204" lon="11.52346">
    <tag k="amenity" v="wifi"/>
    <tag k="discovered_by" v="RambaZamba"/>
    <tag k="internet_access" v="wlan"/>
    <tag k="internet_access:operator" v="FON"/>
    <tag k="man_made" v="beacon"/>
    <tag k="name" v="FON_Public"/>
    <tag k="ref" v="Zielstattstr.93a,81379 Muc,UT30,K2,mofiz"/>
    <tag k="seamark" v="beacon"/>
    <tag k="source" v="survey"/>
  </node>
  <node id="474399406" version="2" timestamp="2009-08-30T09:16:32Z" uid="156995" user="HampelZamba" changeset="2310659" lat="48.1018204" lon="11.52346">
    <tag k="amenity" v="wifi"/>
    <tag k="internet_access" v="wlan"/>
    <tag k="internet_access:operator" v="FON"/>
    <tag k="man_made" v="beacon"/>
    <tag k="name" v="FON_Public"/>
    <tag k="ref" v="Zielstattstr.93a,81379 Muc,UT30,K2,mofiz"/>
    <tag k="seamark" v="beacon"/>
    <tag k="source" v="survey"/>
  </node>
  <node id="474399406" version="3" timestamp="2009-09-01T10:29:39Z" uid="36809" user="pfoten_weg_!_" changeset="2335754" lat="48.1018204" lon="11.52346">
    <tag k="amenity" v="wifi"/>
    <tag k="internet_access" v="wlan"/>
    <tag k="internet_access:operator" v="FON"/>
    <tag k="man_made" v="beacon"/>
    <tag k="name" v="FON_Public"/>
    <tag k="ref" v="Zielstattstr.93a,81379 Muc,UT30,K2,mofiz"/>
    <tag k="seamark" v="beacon"/>
    <tag k="source" v="survey"/>
  </node>
  <node id="474399406" version="4" timestamp="2009-11-25T20:12:06Z" uid="8703" user="rolandg" changeset="3215634" lat="48.1016819" lon="11.5236464">
    <tag k="amenity" v="wifi"/>
    <tag k="internet_access" v="wlan"/>
    <tag k="internet_access:operator" v="FON"/>
    <tag k="man_made" v="beacon"/>
    <tag k="name" v="FON_Public"/>
    <tag k="ref" v="Zielstattstr.93a,81379 Muc,UT30,K2,mofiz"/>
    <tag k="seamark" v="beacon"/>
    <tag k="source" v="survey"/>
  </node>
  <node id="474399406" version="5" timestamp="2009-11-25T20:12:23Z" uid="8703" user="rolandg" changeset="3215634" lat="48.1016031" lon="11.5236786">
    <tag k="amenity" v="wifi"/>
    <tag k="internet_access" v="wlan"/>
    <tag k="internet_access:operator" v="FON"/>
    <tag k="man_made" v="beacon"/>
    <tag k="name" v="FON_Public"/>
    <tag k="ref" v="Zielstattstr.93a,81379 Muc,UT30,K2,mofiz"/>
    <tag k="seamark" v="beacon"/>
    <tag k="source" v="survey"/>
  </node>
  <node id="474399406" version="6" timestamp="2009-11-25T20:12:30Z" uid="8703" user="rolandg" changeset="3215634" lat="48.1018611" lon="11.5234747">
    <tag k="amenity" v="wifi"/>
    <tag k="internet_access" v="wlan"/>
    <tag k="internet_access:operator" v="FON"/>
    <tag k="man_made" v="beacon"/>
    <tag k="name" v="FON_Public"/>
    <tag k="ref" v="Zielstattstr.93a,81379 Muc,UT30,K2,mofiz"/>
    <tag k="seamark" v="beacon"/>
    <tag k="source" v="survey"/>
  </node>
  <node id="474399429" version="1" timestamp="2009-08-26T09:46:03Z" uid="36809" user="pfoten_weg_!_" changeset="2265457" lat="48.1119004" lon="11.50352">
    <tag k="addr:city" v="München"/>
    <tag k="addr:country" v="DE"/>
    <tag k="addr:housenumber" v="115"/>
    <tag k="addr:postcode" v="81377"/>
    <tag k="addr:street" v="Waldfriedhofstraße"/>
    <tag k="amenity" v="wifi"/>
    <tag k="class" v="free"/>
    <tag k="discovered_by" v="RambaZamba"/>
    <tag k="man_made" v="beacon"/>
    <tag k="name" v="FON_AP"/>
    <tag k="ref" v="Waldfriedhofstr.115,81377 Muc,UT30,K2,DarkAngel089"/>
    <tag k="seamark" v="beacon"/>
    <tag k="source" v="survey"/>
  </node>
  <node id="474399429" version="2" timestamp="2009-08-30T09:16:19Z" uid="156995" user="HampelZamba" changeset="2310659" lat="48.1119004" lon="11.50352">
    <tag k="addr:city" v="München"/>
    <tag k="addr:country" v="DE"/>
    <tag k="addr:housenumber" v="115"/>
    <tag k="addr:postcode" v="81377"/>
    <tag k="addr:street" v="Waldfriedhofstraße"/>
    <tag k="amenity" v="wifi"/>
    <tag k="class" v="free"/>
    <tag k="man_made" v="beacon"/>
    <tag k="name" v="FON_AP"/>
    <tag k="ref" v="Waldfriedhofstr.115,81377 Muc,UT30,K2,DarkAngel089"/>
    <tag k="seamark" v="beacon"/>
    <tag k="source" v="survey"/>
  </node>
  <node id="474399429" version="3" timestamp="2009-09-01T10:29:35Z" uid="36809" user="pfoten_weg_!_" changeset="2335754" lat="48.1119004" lon="11.50352">
    <tag k="addr:city" v="München"/>
    <tag k="addr:country" v="DE"/>
    <tag k="addr:housenumber" v="115"/>
    <tag k="addr:postcode" v="81377"/>
    <tag k="addr:street" v="Waldfriedhofstraße"/>
    <tag k="amenity" v="wifi"/>
    <tag k="class" v="free"/>
    <tag k="man_made" v="beacon"/>
    <tag k="name" v="FON_AP"/>
    <tag k="ref" v="Waldfriedhofstr.115,81377 Muc,UT30,K2,DarkAngel089"/>
    <tag k="seamark" v="beacon"/>
    <tag k="source" v="survey"/>
  </node>
  <node id="474399445" version="1" timestamp="2009-08-26T09:46:03Z" uid="36809" user="pfoten_weg_!_" changeset="2265457" lat="48.1072504" lon="11.474">
    <tag k="amenity" v="wifi"/>
    <tag k="class" v="free"/>
    <tag k="discovered_by" v="RambaZamba"/>
    <tag k="man_made" v="beacon"/>
    <tag k="name" v="FON_by_Puschi_GH"/>
    <tag k="ref" v="Prälat-Wellenhofer-Str.11,81377 Muc,UT40,K1,puschi88"/>
    <tag k="seamark" v="beacon"/>
    <tag k="source" v="survey"/>
  </node>
  <node id="474399445" version="2" timestamp="2009-08-30T09:16:20Z" uid="156995" user="HampelZamba" changeset="2310659" lat="48.1072504" lon="11.474">
    <tag k="amenity" v="wifi"/>
    <tag k="class" v="free"/>
    <tag k="man_made" v="beacon"/>
    <tag k="name" v="FON_by_Puschi_GH"/>
    <tag k="ref" v="Prälat-Wellenhofer-Str.11,81377 Muc,UT40,K1,puschi88"/>
    <tag k="seamark" v="beacon"/>
    <tag k="source" v="survey"/>
  </node>
  <node id="474399445" version="3" timestamp="2009-09-01T10:29:33Z" uid="36809" user="pfoten_weg_!_" changeset="2335754" lat="48.1072504" lon="11.474">
    <tag k="amenity" v="wifi"/>
    <tag k="class" v="free"/>
    <tag k="man_made" v="beacon"/>
    <tag k="name" v="FON_by_Puschi_GH"/>
    <tag k="ref" v="Prälat-Wellenhofer-Str.11,81377 Muc,UT40,K1,puschi88"/>
    <tag k="seamark" v="beacon"/>
    <tag k="source" v="survey"/>
  </node>
  <node id="474399465" version="1" timestamp="2009-08-26T09:46:04Z" uid="36809" user="pfoten_weg_!_" changeset="2265457" lat="48.1063204" lon="11.50735">
    <tag k="amenity" v="wifi"/>
    <tag k="class" v="free"/>
    <tag k="discovered_by" v="RambaZamba"/>
    <tag k="man_made" v="beacon"/>
    <tag k="name" v="FON_Cimbern"/>
    <tag k="ref" v="Cimbernstr.73,81377 Muc,UT30,K1,bhelfmann"/>
    <tag k="seamark" v="beacon"/>
    <tag k="source" v="survey"/>
  </node>
  <node id="474399465" version="2" timestamp="2009-08-30T09:16:21Z" uid="156995" user="HampelZamba" changeset="2310659" lat="48.1063204" lon="11.50735">
    <tag k="amenity" v="wifi"/>
    <tag k="class" v="free"/>
    <tag k="man_made" v="beacon"/>
    <tag k="name" v="FON_Cimbern"/>
    <tag k="ref" v="Cimbernstr.73,81377 Muc,UT30,K1,bhelfmann"/>
    <tag k="seamark" v="beacon"/>
    <tag k="source" v="survey"/>
  </node>
  <node id="474399465" version="3" timestamp="2009-09-01T10:29:37Z" uid="36809" user="pfoten_weg_!_" changeset="2335754" lat="48.1063204" lon="11.50735">
    <tag k="amenity" v="wifi"/>
    <tag k="class" v="free"/>
    <tag k="man_made" v="beacon"/>
    <tag k="name" v="FON_Cimbern"/>
    <tag k="ref" v="Cimbernstr.73,81377 Muc,UT30,K1,bhelfmann"/>
    <tag k="seamark" v="beacon"/>
    <tag k="source" v="survey"/>
  </node>
  <node id="474399465" version="4" timestamp="2010-05-22T11:33:10Z" uid="37850" user="mawis" changeset="4773524" lat="48.1063204" lon="11.50735">
    <tag k="addr:city" v="München"/>
    <tag k="addr:country" v="DE"/>
    <tag k="addr:housenumber" v="73"/>
    <tag k="addr:postcode" v="81377"/>
    <tag k="addr:street" v="Cimbernstraße"/>
    <tag k="amenity" v="wifi"/>
    <tag k="class" v="free"/>
    <tag k="man_made" v="beacon"/>
    <tag k="name" v="FON_Cimbern"/>
    <tag k="ref" v="Cimbernstr.73,81377 Muc,UT30,K1,bhelfmann"/>
    <tag k="seamark" v="beacon"/>
    <tag k="source" v="survey"/>
  </node>
  <node id="474399465" version="5" timestamp="2010-05-22T11:33:30Z" uid="37850" user="mawis" changeset="4773530" lat="48.1063204" lon="11.50735">
    <tag k="addr:city" v="München"/>
    <tag k="addr:country" v="DE"/>
    <tag k="addr:housenumber" v="73"/>
    <tag k="addr:postcode" v="81377"/>
    <tag k="addr:street" v="Cimbernstraße"/>
    <tag k="amenity" v="wifi"/>
    <tag k="class" v="free"/>
    <tag k="man_made" v="beacon"/>
    <tag k="name" v="FON_Cimbern"/>
    <tag k="ref" v="Cimbernstr.73,81377 Muc,UT30,K1,bhelfmann"/>
    <tag k="seamark" v="beacon"/>
    <tag k="source" v="survey"/>
  </node>
  <node id="474399478" version="1" timestamp="2009-08-26T09:46:05Z" uid="36809" user="pfoten_weg_!_" changeset="2265457" lat="48.1067704" lon="11.50922">
    <tag k="amenity" v="wifi"/>
    <tag k="class" v="free"/>
    <tag k="discovered_by" v="RambaZamba"/>
    <tag k="man_made" v="beacon"/>
    <tag k="name" v="FON_AP"/>
    <tag k="ref" v="Einhornallee 35,81377 Muc,UT30,K1,netkiller"/>
    <tag k="seamark" v="beacon"/>
    <tag k="source" v="survey"/>
  </node>
  <node id="474399478" version="2" timestamp="2009-08-30T09:16:21Z" uid="156995" user="HampelZamba" changeset="2310659" lat="48.1067704" lon="11.50922">
    <tag k="amenity" v="wifi"/>
    <tag k="class" v="free"/>
    <tag k="man_made" v="beacon"/>
    <tag k="name" v="FON_AP"/>
    <tag k="ref" v="Einhornallee 35,81377 Muc,UT30,K1,netkiller"/>
    <tag k="seamark" v="beacon"/>
    <tag k="source" v="survey"/>
  </node>
  <node id="474399478" version="3" timestamp="2009-09-01T10:29:36Z" uid="36809" user="pfoten_weg_!_" changeset="2335754" lat="48.1067704" lon="11.50922">
    <tag k="amenity" v="wifi"/>
    <tag k="class" v="free"/>
    <tag k="man_made" v="beacon"/>
    <tag k="name" v="FON_AP"/>
    <tag k="ref" v="Einhornallee 35,81377 Muc,UT30,K1,netkiller"/>
    <tag k="seamark" v="beacon"/>
    <tag k="source" v="survey"/>
  </node>
  <node id="474399478" version="4" timestamp="2010-05-22T11:33:11Z" uid="37850" user="mawis" changeset="4773524" lat="48.1067704" lon="11.50922">
    <tag k="addr:city" v="München"/>
    <tag k="addr:country" v="DE"/>
    <tag k="addr:housenumber" v="35"/>
    <tag k="addr:postcode" v="81377"/>
    <tag k="addr:street" v="Einhornallee"/>
    <tag k="amenity" v="wifi"/>
    <tag k="class" v="free"/>
    <tag k="man_made" v="beacon"/>
    <tag k="name" v="FON_AP"/>
    <tag k="ref" v="Einhornallee 35,81377 Muc,UT30,K1,netkiller"/>
    <tag k="seamark" v="beacon"/>
    <tag k="source" v="survey"/>
  </node>
  <node id="474399478" version="5" timestamp="2010-05-22T11:33:31Z" uid="37850" user="mawis" changeset="4773530" lat="48.1067704" lon="11.50922">
    <tag k="addr:city" v="München"/>
    <tag k="addr:country" v="DE"/>
    <tag k="addr:housenumber" v="35"/>
    <tag k="addr:postcode" v="81377"/>
    <tag k="addr:street" v="Einhornallee"/>
    <tag k="amenity" v="wifi"/>
    <tag k="class" v="free"/>
    <tag k="man_made" v="beacon"/>
    <tag k="name" v="FON_AP"/>
    <tag k="ref" v="Einhornallee 35,81377 Muc,UT30,K1,netkiller"/>
    <tag k="seamark" v="beacon"/>
    <tag k="source" v="survey"/>
  </node>
  <node id="474399495" version="1" timestamp="2009-08-26T09:46:05Z" uid="36809" user="pfoten_weg_!_" changeset="2265457" lat="48.1101204" lon="11.51413">
    <tag k="amenity" v="wifi"/>
    <tag k="class" v="free"/>
    <tag k="discovered_by" v="RambaZamba"/>
    <tag k="man_made" v="beacon"/>
    <tag k="name" v="FON_AP"/>
    <tag k="ref" v="Partenkirchner Str.22,81377 Muc,UT30,K1,clausi4"/>
    <tag k="seamark" v="beacon"/>
    <tag k="source" v="survey"/>
  </node>
  <node id="474399495" version="2" timestamp="2009-08-30T09:16:32Z" uid="156995" user="HampelZamba" changeset="2310659" lat="48.1101204" lon="11.51413">
    <tag k="amenity" v="wifi"/>
    <tag k="class" v="free"/>
    <tag k="man_made" v="beacon"/>
    <tag k="name" v="FON_AP"/>
    <tag k="ref" v="Partenkirchner Str.22,81377 Muc,UT30,K1,clausi4"/>
    <tag k="seamark" v="beacon"/>
    <tag k="source" v="survey"/>
  </node>
  <node id="474399495" version="3" timestamp="2009-09-01T10:29:30Z" uid="36809" user="pfoten_weg_!_" changeset="2335754" lat="48.1101204" lon="11.51413">
    <tag k="amenity" v="wifi"/>
    <tag k="class" v="free"/>
    <tag k="man_made" v="beacon"/>
    <tag k="name" v="FON_AP"/>
    <tag k="ref" v="Partenkirchner Str.22,81377 Muc,UT30,K1,clausi4"/>
    <tag k="seamark" v="beacon"/>
    <tag k="source" v="survey"/>
  </node>
  <node id="474399505" version="1" timestamp="2009-08-26T09:46:06Z" uid="36809" user="pfoten_weg_!_" changeset="2265457" lat="48.0974804" lon="11.50567">
    <tag k="amenity" v="wifi"/>
    <tag k="discovered_by" v="RambaZamba"/>
    <tag k="internet_access" v="wlan"/>
    <tag k="internet_access:operator" v="FON"/>
    <tag k="man_made" v="beacon"/>
    <tag k="name" v="FON_One"/>
    <tag k="ref" v="Arader Str.3,81476 Muc,UT0,K1,Onehiller"/>
    <tag k="seamark" v="beacon"/>
    <tag k="source" v="survey"/>
  </node>
  <node id="474399505" version="2" timestamp="2009-08-30T09:16:22Z" uid="156995" user="HampelZamba" changeset="2310659" lat="48.0974804" lon="11.50567">
    <tag k="amenity" v="wifi"/>
    <tag k="internet_access" v="wlan"/>
    <tag k="internet_access:operator" v="FON"/>
    <tag k="man_made" v="beacon"/>
    <tag k="name" v="FON_One"/>
    <tag k="ref" v="Arader Str.3,81476 Muc,UT0,K1,Onehiller"/>
    <tag k="seamark" v="beacon"/>
    <tag k="source" v="survey"/>
  </node>
  <node id="474399505" version="3" timestamp="2009-09-01T10:29:31Z" uid="36809" user="pfoten_weg_!_" changeset="2335754" lat="48.0974804" lon="11.50567">
    <tag k="amenity" v="wifi"/>
    <tag k="internet_access" v="wlan"/>
    <tag k="internet_access:operator" v="FON"/>
    <tag k="man_made" v="beacon"/>
    <tag k="name" v="FON_One"/>
    <tag k="ref" v="Arader Str.3,81476 Muc,UT0,K1,Onehiller"/>
    <tag k="seamark" v="beacon"/>
    <tag k="source" v="survey"/>
  </node>
  <node id="474399505" version="4" timestamp="2009-09-01T11:24:21Z" uid="36809" user="pfoten_weg_!_" changeset="2336438" lat="48.0974804" lon="11.50567">
    <tag k="amenity" v="wifi"/>
    <tag k="internet_access" v="wlan"/>
    <tag k="internet_access:operator" v="FON"/>
    <tag k="man_made" v="beacon"/>
    <tag k="name" v="FON_One"/>
    <tag k="ref" v="Arader Str.3,81476 Muc,UT0,K1,Onehiller"/>
    <tag k="seamark" v="beacon"/>
    <tag k="source" v="survey"/>
  </node>
  <node id="474399517" version="1" timestamp="2009-08-26T09:46:06Z" uid="36809" user="pfoten_weg_!_" changeset="2265457" lat="48.1077304" lon="11.48439">
    <tag k="amenity" v="wifi"/>
    <tag k="class" v="free"/>
    <tag k="discovered_by" v="RambaZamba"/>
    <tag k="man_made" v="beacon"/>
    <tag k="name" v="FON_AP"/>
    <tag k="ref" v="Buschrosenweg 12,81377 Muc,UT20,K1,harrym"/>
    <tag k="seamark" v="beacon"/>
    <tag k="source" v="survey"/>
  </node>
  <node id="474399517" version="2" timestamp="2009-08-30T09:16:20Z" uid="156995" user="HampelZamba" changeset="2310659" lat="48.1077304" lon="11.48439">
    <tag k="amenity" v="wifi"/>
    <tag k="class" v="free"/>
    <tag k="man_made" v="beacon"/>
    <tag k="name" v="FON_AP"/>
    <tag k="ref" v="Buschrosenweg 12,81377 Muc,UT20,K1,harrym"/>
    <tag k="seamark" v="beacon"/>
    <tag k="source" v="survey"/>
  </node>
  <node id="474399517" version="3" timestamp="2009-09-01T10:29:31Z" uid="36809" user="pfoten_weg_!_" changeset="2335754" lat="48.1077304" lon="11.48439">
    <tag k="amenity" v="wifi"/>
    <tag k="class" v="free"/>
    <tag k="man_made" v="beacon"/>
    <tag k="name" v="FON_AP"/>
    <tag k="ref" v="Buschrosenweg 12,81377 Muc,UT20,K1,harrym"/>
    <tag k="seamark" v="beacon"/>
    <tag k="source" v="survey"/>
  </node>
  <node id="474399523" version="1" timestamp="2009-08-26T09:46:06Z" uid="36809" user="pfoten_weg_!_" changeset="2265457" lat="48.1116704" lon="11.5292">
    <tag k="amenity" v="wifi"/>
    <tag k="class" v="free"/>
    <tag k="discovered_by" v="RambaZamba"/>
    <tag k="man_made" v="beacon"/>
    <tag k="name" v="FON_AP"/>
    <tag k="ref" v="Arnimstr.19,81369 Muc,UT30,K7,daniel.r"/>
    <tag k="seamark" v="beacon"/>
    <tag k="source" v="survey"/>
  </node>
  <node id="474399523" version="2" timestamp="2009-08-30T09:16:32Z" uid="156995" user="HampelZamba" changeset="2310659" lat="48.1116704" lon="11.5292">
    <tag k="amenity" v="wifi"/>
    <tag k="class" v="free"/>
    <tag k="man_made" v="beacon"/>
    <tag k="name" v="FON_AP"/>
    <tag k="ref" v="Arnimstr.19,81369 Muc,UT30,K7,daniel.r"/>
    <tag k="seamark" v="beacon"/>
    <tag k="source" v="survey"/>
  </node>
  <node id="474399523" version="3" timestamp="2009-09-01T10:29:33Z" uid="36809" user="pfoten_weg_!_" changeset="2335754" lat="48.1116704" lon="11.5292">
    <tag k="amenity" v="wifi"/>
    <tag k="class" v="free"/>
    <tag k="man_made" v="beacon"/>
    <tag k="name" v="FON_AP"/>
    <tag k="ref" v="Arnimstr.19,81369 Muc,UT30,K7,daniel.r"/>
    <tag k="seamark" v="beacon"/>
    <tag k="source" v="survey"/>
  </node>
  <node id="474399524" version="1" timestamp="2009-08-26T09:46:07Z" uid="36809" user="pfoten_weg_!_" changeset="2265457" lat="48.1071704" lon="11.47402">
    <tag k="amenity" v="wifi"/>
    <tag k="class" v="free"/>
    <tag k="discovered_by" v="RambaZamba"/>
    <tag k="man_made" v="beacon"/>
    <tag k="name" v="FON_Biker_Crew"/>
    <tag k="ref" v="Prälat-Wellenhofer-Str.11,81377 Muc,UT40,K2,biker"/>
    <tag k="seamark" v="beacon"/>
    <tag k="source" v="survey"/>
  </node>
  <node id="474399524" version="2" timestamp="2009-08-30T09:16:20Z" uid="156995" user="HampelZamba" changeset="2310659" lat="48.1071704" lon="11.47402">
    <tag k="amenity" v="wifi"/>
    <tag k="class" v="free"/>
    <tag k="man_made" v="beacon"/>
    <tag k="name" v="FON_Biker_Crew"/>
    <tag k="ref" v="Prälat-Wellenhofer-Str.11,81377 Muc,UT40,K2,biker"/>
    <tag k="seamark" v="beacon"/>
    <tag k="source" v="survey"/>
  </node>
  <node id="474399524" version="3" timestamp="2009-09-01T10:29:32Z" uid="36809" user="pfoten_weg_!_" changeset="2335754" lat="48.1071704" lon="11.47402">
    <tag k="amenity" v="wifi"/>
    <tag k="class" v="free"/>
    <tag k="man_made" v="beacon"/>
    <tag k="name" v="FON_Biker_Crew"/>
    <tag k="ref" v="Prälat-Wellenhofer-Str.11,81377 Muc,UT40,K2,biker"/>
    <tag k="seamark" v="beacon"/>
    <tag k="source" v="survey"/>
  </node>
  <node id="474399526" version="1" timestamp="2009-08-26T09:46:07Z" uid="36809" user="pfoten_weg_!_" changeset="2265457" lat="48.1102904" lon="11.50774">
    <tag k="amenity" v="wifi"/>
    <tag k="class" v="free"/>
    <tag k="discovered_by" v="RambaZamba"/>
    <tag k="man_made" v="beacon"/>
    <tag k="name" v="FON_Werdenfelsstraße"/>
    <tag k="ref" v="Werdenfelsstr.54,81377 Muc,UT30,K1,danher"/>
    <tag k="seamark" v="beacon"/>
    <tag k="source" v="survey"/>
  </node>
  <node id="474399526" version="2" timestamp="2009-08-30T09:16:19Z" uid="156995" user="HampelZamba" changeset="2310659" lat="48.1102904" lon="11.50774">
    <tag k="amenity" v="wifi"/>
    <tag k="class" v="free"/>
    <tag k="man_made" v="beacon"/>
    <tag k="name" v="FON_Werdenfelsstraße"/>
    <tag k="ref" v="Werdenfelsstr.54,81377 Muc,UT30,K1,danher"/>
    <tag k="seamark" v="beacon"/>
    <tag k="source" v="survey"/>
  </node>
  <node id="474399526" version="3" timestamp="2009-09-01T10:29:32Z" uid="36809" user="pfoten_weg_!_" changeset="2335754" lat="48.1102904" lon="11.50774">
    <tag k="amenity" v="wifi"/>
    <tag k="class" v="free"/>
    <tag k="man_made" v="beacon"/>
    <tag k="name" v="FON_Werdenfelsstraße"/>
    <tag k="ref" v="Werdenfelsstr.54,81377 Muc,UT30,K1,danher"/>
    <tag k="seamark" v="beacon"/>
    <tag k="source" v="survey"/>
  </node>
  <node id="474399526" version="4" timestamp="2010-03-01T14:13:29Z" uid="70696" user="xybot" changeset="4008441" lat="48.1102904" lon="11.50774">
    <tag k="amenity" v="wifi"/>
    <tag k="class" v="free"/>
    <tag k="man_made" v="beacon"/>
    <tag k="name" v="FON-Werdenfelsstraße"/>
    <tag k="ref" v="Werdenfelsstr.54,81377 Muc,UT30,K1,danher"/>
    <tag k="seamark" v="beacon"/>
    <tag k="source" v="survey"/>
  </node>
  <node id="474399526" version="5" timestamp="2010-05-22T11:33:11Z" uid="37850" user="mawis" changeset="4773524" lat="48.1102904" lon="11.50774">
    <tag k="addr:city" v="München"/>
    <tag k="addr:country" v="DE"/>
    <tag k="addr:housenumber" v="54"/>
    <tag k="addr:postcode" v="81377"/>
    <tag k="addr:street" v="Werdenfelsstraße"/>
    <tag k="amenity" v="wifi"/>
    <tag k="class" v="free"/>
    <tag k="man_made" v="beacon"/>
    <tag k="name" v="FON-Werdenfelsstraße"/>
    <tag k="ref" v="Werdenfelsstr.54,81377 Muc,UT30,K1,danher"/>
    <tag k="seamark" v="beacon"/>
    <tag k="source" v="survey"/>
  </node>
  <node id="474399526" version="6" timestamp="2010-05-22T11:33:31Z" uid="37850" user="mawis" changeset="4773530" lat="48.1102904" lon="11.50774">
    <tag k="addr:city" v="München"/>
    <tag k="addr:country" v="DE"/>
    <tag k="addr:housenumber" v="54"/>
    <tag k="addr:postcode" v="81377"/>
    <tag k="addr:street" v="Werdenfelsstraße"/>
    <tag k="amenity" v="wifi"/>
    <tag k="class" v="free"/>
    <tag k="man_made" v="beacon"/>
    <tag k="name" v="FON-Werdenfelsstraße"/>
    <tag k="ref" v="Werdenfelsstr.54,81377 Muc,UT30,K1,danher"/>
    <tag k="seamark" v="beacon"/>
    <tag k="source" v="survey"/>
  </node>
</osm>
