<?xml version='1.0' encoding='UTF-8'?>
<osm version="0.6" generator="libosmium/2.20.0">
  <node id="475613547" version="1" timestamp="2009-08-28T12:13:19Z" uid="123700" user="Mala" changeset="2289476" lat="50.0612755" lon="19.9354509">
    <tag k="addr:housenumber" v="26"/>
    <tag k="addr:street" v="Rynek Główny"/>
    <tag k="amenity" v="restaurant"/>
    <tag k="cuisine" v="international"/>
    <tag k="name" v="Sphinx"/>
    <tag k="operator" v="Sphinx"/>
  </node>
  <node id="475613547" version="2" timestamp="2010-04-17T11:18:50Z" uid="91056" user="Yarl" changeset="4446654" lat="50.0612565" lon="19.9355406">
    <tag k="addr:housenumber" v="26"/>
    <tag k="addr:street" v="Rynek Główny"/>
    <tag k="amenity" v="restaurant"/>
    <tag k="cuisine" v="international"/>
    <tag k="name" v="Sphinx"/>
    <tag k="operator" v="Sphinx"/>
  </node>
  <node id="475613547" version="3" timestamp="2012-03-08T14:05:33Z" uid="598456" user="vinci4352" changeset="10909503" lat="50.0612175" lon="19.9355088">
    <tag k="addr:housenumber" v="26"/>
    <tag k="addr:street" v="Rynek Główny"/>
    <tag k="amenity" v="restaurant"/>
    <tag k="cuisine" v="international"/>
    <tag k="name" v="Sphinx"/>
    <tag k="operator" v="Sphinx"/>
  </node>
  <node id="475613548" version="1" timestamp="2009-08-28T12:13:19Z" uid="123700" user="Mala" changeset="2289476" lat="50.061208" lon="19.9356329">
    <tag k="addr:housenumber" v="25"/>
    <tag k="addr:street" v="Rynek Główny"/>
    <tag k="amenity" v="public_building"/>
    <tag k="name" v="Międzynarodowe Centrum Kultury"/>
  </node>
  <node id="475613548" version="2" timestamp="2012-03-08T14:03:15Z" uid="598456" user="vinci4352" changeset="10909503" lat="50.061169" lon="19.9356011">
    <tag k="addr:housenumber" v="25"/>
    <tag k="addr:street" v="Rynek Główny"/>
    <tag k="amenity" v="public_building"/>
    <tag k="name" v="Międzynarodowe Centrum Kultury"/>
  </node>
  <node id="475613550" version="1" timestamp="2009-08-28T12:13:19Z" uid="123700" user="Mala" changeset="2289476" lat="50.0611287" lon="19.9356761">
    <tag k="addr:housenumber" v="25"/>
    <tag k="addr:street" v="Rynek Główny"/>
    <tag k="amenity" v="bank"/>
    <tag k="atm" v="yes"/>
    <tag k="name" v="PKO SA"/>
    <tag k="operator" v="PKO SA"/>
  </node>
  <node id="475613550" version="2" timestamp="2012-03-08T14:05:06Z" uid="598456" user="vinci4352" changeset="10909503" lat="50.0610897" lon="19.9356443">
    <tag k="addr:housenumber" v="25"/>
    <tag k="addr:street" v="Rynek Główny"/>
    <tag k="amenity" v="bank"/>
    <tag k="atm" v="yes"/>
    <tag k="name" v="PKO SA"/>
    <tag k="operator" v="PKO SA"/>
  </node>
  <node id="475613551" version="1" timestamp="2009-08-28T12:13:19Z" uid="123700" user="Mala" changeset="2289476" lat="50.0611613" lon="19.9357906">
    <tag k="addr:housenumber" v="25"/>
    <tag k="addr:street" v="Rynek Główny"/>
    <tag k="amenity" v="fast_food"/>
    <tag k="cuisine" v="american;grill"/>
    <tag k="name" v="Yummie"/>
  </node>
  <node id="475613551" version="2" timestamp="2012-03-08T14:05:37Z" uid="598456" user="vinci4352" changeset="10909503" lat="50.0611223" lon="19.9357588">
    <tag k="addr:housenumber" v="25"/>
    <tag k="addr:street" v="Rynek Główny"/>
    <tag k="amenity" v="fast_food"/>
    <tag k="cuisine" v="american;grill"/>
    <tag k="name" v="Yummie"/>
  </node>
  <node id="475613552" version="1" timestamp="2009-08-28T12:13:20Z" uid="123700" user="Mala" changeset="2289476" lat="50.0611162" lon="19.9359241">
    <tag k="addr:housenumber" v="24"/>
    <tag k="addr:street" v="Rynek Główny"/>
    <tag k="amenity" v="restaurant"/>
    <tag k="cuisine" v="local"/>
    <tag k="name" v="Gospoda U Zdzicha"/>
  </node>
  <node id="475613552" version="2" timestamp="2012-03-08T14:02:51Z" uid="598456" user="vinci4352" changeset="10909503" lat="50.0610772" lon="19.9358923">
    <tag k="addr:housenumber" v="24"/>
    <tag k="addr:street" v="Rynek Główny"/>
    <tag k="amenity" v="restaurant"/>
    <tag k="cuisine" v="local"/>
    <tag k="name" v="Gospoda U Zdzicha"/>
  </node>
  <node id="475613554" version="1" timestamp="2009-08-28T12:13:20Z" uid="123700" user="Mala" changeset="2289476" lat="50.0610492" lon="19.9359241">
    <tag k="addr:housenumber" v="24"/>
    <tag k="addr:street" v="Rynek Główny"/>
    <tag k="shop" v="Internet_cafe"/>
  </node>
  <node id="475613554" version="2" timestamp="2012-03-08T14:04:22Z" uid="598456" user="vinci4352" changeset="10909503" lat="50.0610102" lon="19.9358923">
    <tag k="addr:housenumber" v="24"/>
    <tag k="addr:street" v="Rynek Główny"/>
    <tag k="shop" v="Internet_cafe"/>
  </node>
  <node id="475613555" version="1" timestamp="2009-08-28T12:13:20Z" uid="123700" user="Mala" changeset="2289476" lat="50.0610939" lon="19.9360036">
    <tag k="addr:housenumber" v="24"/>
    <tag k="addr:street" v="Rynek Główny"/>
    <tag k="amenity" v="cafe"/>
    <tag k="name" v="Arlekin"/>
  </node>
  <node id="475613555" version="2" timestamp="2012-03-08T14:02:19Z" uid="598456" user="vinci4352" changeset="10909503" lat="50.0610549" lon="19.9359718">
    <tag k="addr:housenumber" v="24"/>
    <tag k="addr:street" v="Rynek Główny"/>
    <tag k="amenity" v="cafe"/>
    <tag k="name" v="Arlekin"/>
  </node>
  <node id="475613556" version="1" timestamp="2009-08-28T12:13:20Z" uid="123700" user="Mala" changeset="2289476" lat="50.0610641" lon="19.936103">
    <tag k="addr:housenumber" v="23"/>
    <tag k="addr:street" v="Rynek Główny"/>
    <tag k="amenity" v="restaurant"/>
    <tag k="cuisine" v="local"/>
    <tag k="name" v="Restauracja Polskie Jadło"/>
  </node>
  <node id="475613556" version="2" timestamp="2012-03-08T14:05:25Z" uid="598456" user="vinci4352" changeset="10909503" lat="50.0610251" lon="19.9360712">
    <tag k="addr:housenumber" v="23"/>
    <tag k="addr:street" v="Rynek Główny"/>
    <tag k="amenity" v="restaurant"/>
    <tag k="cuisine" v="local"/>
    <tag k="name" v="Restauracja Polskie Jadło"/>
  </node>
  <node id="475613557" version="1" timestamp="2009-08-28T12:13:20Z" uid="123700" user="Mala" changeset="2289476" lat="50.0609918" lon="19.9361213">
    <tag k="addr:housenumber" v="23"/>
    <tag k="addr:street" v="Rynek Główny"/>
    <tag k="name" v="Księgarnia Matras"/>
    <tag k="operator" v="Matras"/>
    <tag k="shop" v="books"/>
  </node>
  <node id="475613557" version="2" timestamp="2012-03-08T14:03:08Z" uid="598456" user="vinci4352" changeset="10909503" lat="50.0609528" lon="19.9360895">
    <tag k="addr:housenumber" v="23"/>
    <tag k="addr:street" v="Rynek Główny"/>
    <tag k="name" v="Księgarnia Matras"/>
    <tag k="operator" v="Matras"/>
    <tag k="shop" v="books"/>
  </node>
  <node id="475613559" version="1" timestamp="2009-08-28T12:13:20Z" uid="123700" user="Mala" changeset="2289476" lat="50.0610056" lon="19.9362703">
    <tag k="addr:housenumber" v="22"/>
    <tag k="addr:street" v="Rynek Główny"/>
    <tag k="amenity" v="restaurant"/>
    <tag k="cuisine" v="international;mexican"/>
    <tag k="name" v="Sioux Classic"/>
  </node>
  <node id="475613559" version="2" timestamp="2012-03-08T14:05:32Z" uid="598456" user="vinci4352" changeset="10909503" lat="50.0609666" lon="19.9362385">
    <tag k="addr:housenumber" v="22"/>
    <tag k="addr:street" v="Rynek Główny"/>
    <tag k="amenity" v="restaurant"/>
    <tag k="cuisine" v="international;mexican"/>
    <tag k="name" v="Sioux Classic"/>
  </node>
  <node id="475613560" version="1" timestamp="2009-08-28T12:13:20Z" uid="123700" user="Mala" changeset="2289476" lat="50.0609429" lon="19.9362852">
    <tag k="addr:housenumber" v="22"/>
    <tag k="addr:street" v="Rynek Główny"/>
    <tag k="amenity" v="restaurant"/>
    <tag k="cuisine" v="pizza"/>
    <tag k="name" v="Dominium Pizza"/>
  </node>
  <node id="475613560" version="2" timestamp="2012-03-08T14:02:40Z" uid="598456" user="vinci4352" changeset="10909503" lat="50.0609039" lon="19.9362534">
    <tag k="addr:housenumber" v="22"/>
    <tag k="addr:street" v="Rynek Główny"/>
    <tag k="amenity" v="restaurant"/>
    <tag k="cuisine" v="pizza"/>
    <tag k="name" v="Dominium Pizza"/>
  </node>
  <node id="475613561" version="1" timestamp="2009-08-28T12:13:20Z" uid="123700" user="Mala" changeset="2289476" lat="50.0609376" lon="19.9364641">
    <tag k="addr:housenumber" v="21"/>
    <tag k="addr:street" v="Rynek Główny"/>
    <tag k="amenity" v="bank"/>
    <tag k="name" v="PKO BP"/>
    <tag k="operator" v="PKO BP"/>
  </node>
  <node id="475613561" version="2" timestamp="2012-03-08T14:05:05Z" uid="598456" user="vinci4352" changeset="10909503" lat="50.0608986" lon="19.9364323">
    <tag k="addr:housenumber" v="21"/>
    <tag k="addr:street" v="Rynek Główny"/>
    <tag k="amenity" v="bank"/>
    <tag k="name" v="PKO BP"/>
    <tag k="operator" v="PKO BP"/>
  </node>
  <node id="475613563" version="1" timestamp="2009-08-28T12:13:20Z" uid="123700" user="Mala" changeset="2289476" lat="50.0608827" lon="19.9366349">
    <tag k="addr:housenumber" v="20"/>
    <tag k="addr:street" v="Rynek Główny"/>
    <tag k="amenity" v="bank"/>
    <tag k="atm" v="yes"/>
    <tag k="name" v="Deutsche Bank"/>
    <tag k="operator" v="Deutsche Bank"/>
  </node>
  <node id="475613565" version="1" timestamp="2009-08-28T12:13:20Z" uid="123700" user="Mala" changeset="2289476" lat="50.060857" lon="19.9367213">
    <tag k="addr:housenumber" v="20"/>
    <tag k="addr:street" v="Rynek Główny"/>
    <tag k="amenity" v="public_building"/>
    <tag k="name" v="Goethe Institut"/>
  </node>
  <node id="475613566" version="1" timestamp="2009-08-28T12:13:20Z" uid="123700" user="Mala" changeset="2289476" lat="50.0608128" lon="19.9366295">
    <tag k="addr:housenumber" v="20"/>
    <tag k="addr:street" v="Rynek Główny"/>
    <tag k="amenity" v="bureau_de_change"/>
  </node>
  <node id="475613569" version="1" timestamp="2009-08-28T12:13:20Z" uid="123700" user="Mala" changeset="2289476" lat="50.0608093" lon="19.9368279">
    <tag k="addr:housenumber" v="19"/>
    <tag k="addr:street" v="Rynek Główny"/>
    <tag k="amenity" v="restaurant"/>
    <tag k="cuisine" v="local;international"/>
    <tag k="name" v="Restauracja Wentzl"/>
  </node>
  <node id="475613591" version="1" timestamp="2009-08-28T12:13:21Z" uid="123700" user="Mala" changeset="2289476" lat="50.0607498" lon="19.9367954">
    <tag k="addr:housenumber" v="19"/>
    <tag k="addr:street" v="Rynek Główny"/>
    <tag k="name" v="Hotel Wentzl"/>
    <tag k="tourism" v="hotel"/>
  </node>
  <node id="475613595" version="1" timestamp="2009-08-28T12:13:21Z" uid="123700" user="Mala" changeset="2289476" lat="50.0607706" lon="19.9368995">
    <tag k="addr:housenumber" v="19"/>
    <tag k="addr:street" v="Rynek Główny"/>
    <tag k="amenity" v="restaurant"/>
    <tag k="cuisine" v="japanese"/>
    <tag k="name" v="Miyako Sushi"/>
  </node>
  <node id="475613599" version="1" timestamp="2009-08-28T12:13:21Z" uid="123700" user="Mala" changeset="2289476" lat="50.0607155" lon="19.9368981">
    <tag k="addr:housenumber" v="19"/>
    <tag k="addr:street" v="Rynek Główny"/>
    <tag k="amenity" v="restaurant"/>
    <tag k="cuisine" v="mexican"/>
    <tag k="name" v="Taco Mexicano Cuatro Elementos"/>
  </node>
  <node id="475613602" version="1" timestamp="2009-08-28T12:13:21Z" uid="123700" user="Mala" changeset="2289476" lat="50.0607545" lon="19.9369853">
    <tag k="addr:housenumber" v="19"/>
    <tag k="addr:street" v="Rynek Główny"/>
    <tag k="amenity" v="cafe"/>
    <tag k="name" v="Cafe Słodki Wentzl"/>
  </node>
  <node id="475613605" version="1" timestamp="2009-08-28T12:13:21Z" uid="123700" user="Mala" changeset="2289476" lat="50.0603916" lon="19.9373719">
    <tag k="addr:housenumber" v="16"/>
    <tag k="addr:street" v="Rynek Główny"/>
    <tag k="amenity" v="fast_food"/>
    <tag k="cuisine" v="grill"/>
    <tag k="name" v="Grill 15/16"/>
  </node>
  <node id="475613608" version="1" timestamp="2009-08-28T12:13:21Z" uid="123700" user="Mala" changeset="2289476" lat="50.0605596" lon="19.9372046">
    <tag k="addr:housenumber" v="17"/>
    <tag k="addr:street" v="Rynek Główny"/>
    <tag k="amenity" v="restaurant"/>
    <tag k="cuisine" v="italian"/>
    <tag k="name" v="Ristorante Da Pietro"/>
  </node>
  <node id="475613611" version="1" timestamp="2009-08-28T12:13:21Z" uid="123700" user="Mala" changeset="2289476" lat="50.0604852" lon="19.9371499">
    <tag k="addr:housenumber" v="17"/>
    <tag k="addr:street" v="Rynek Główny"/>
    <tag k="name" v="Porfirion"/>
    <tag k="shop" v="souvenirs"/>
  </node>
  <node id="475613611" version="2" timestamp="2010-09-20T22:51:16Z" uid="65148" user="Pirat Michi" changeset="5833630" lat="50.0604852" lon="19.9371499">
    <tag k="addr:housenumber" v="17"/>
    <tag k="addr:street" v="Rynek Główny"/>
    <tag k="name" v="Porfirion"/>
    <tag k="shop" v="gift"/>
  </node>
  <node id="475613613" version="1" timestamp="2009-08-28T12:13:21Z" uid="123700" user="Mala" changeset="2289476" lat="50.0604703" lon="19.9372858">
    <tag k="addr:housenumber" v="17"/>
    <tag k="addr:street" v="Rynek Główny"/>
    <tag k="name" v="Księgarnia Hetmańska"/>
    <tag k="shop" v="books"/>
  </node>
  <node id="475613615" version="1" timestamp="2009-08-28T12:13:21Z" uid="123700" user="Mala" changeset="2289476" lat="50.060314" lon="19.9374315">
    <tag k="addr:housenumber" v="15"/>
    <tag k="addr:street" v="Rynek Główny"/>
    <tag k="amenity" v="restaurant"/>
    <tag k="cuisine" v="local"/>
    <tag k="name" v="Restauracja Wierzynek"/>
  </node>
  <node id="475613618" version="1" timestamp="2009-08-28T12:13:21Z" uid="123700" user="Mala" changeset="2289476" lat="50.0602629" lon="19.9374796">
    <tag k="addr:housenumber" v="15"/>
    <tag k="addr:street" v="Rynek Główny"/>
    <tag k="amenity" v="restaurant"/>
    <tag k="cuisine" v="local"/>
    <tag k="name" v="Piwnica Pod Wierzynkiem"/>
  </node>
  <node id="475613621" version="1" timestamp="2009-08-28T12:13:21Z" uid="123700" user="Mala" changeset="2289476" lat="50.0602629" lon="19.9373736">
    <tag k="addr:housenumber" v="15"/>
    <tag k="addr:street" v="Rynek Główny"/>
    <tag k="amenity" v="cafe"/>
    <tag k="name" v="Rossamores Cafe"/>
  </node>
  <node id="475613623" version="1" timestamp="2009-08-28T12:13:22Z" uid="123700" user="Mala" changeset="2289476" lat="50.0601991" lon="19.9375392">
    <tag k="addr:housenumber" v="14"/>
    <tag k="addr:street" v="Rynek Główny"/>
    <tag k="amenity" v="public_building"/>
    <tag k="name" v="Dom Polonii"/>
  </node>
  <node id="475613626" version="1" timestamp="2009-08-28T12:13:22Z" uid="123700" user="Mala" changeset="2289476" lat="50.0601407" lon="19.9375326">
    <tag k="addr:housenumber" v="14"/>
    <tag k="addr:street" v="Rynek Główny"/>
    <tag k="amenity" v="cafe"/>
    <tag k="name" v="Wspólnota Polska"/>
  </node>
  <node id="475613629" version="1" timestamp="2009-08-28T12:13:22Z" uid="123700" user="Mala" changeset="2289476" lat="50.0604799" lon="19.9378518"/>
  <node id="475613629" version="2" timestamp="2012-03-08T14:22:02Z" uid="598456" user="vinci4352" changeset="10909503" lat="50.0604836" lon="19.9378113"/>
  <node id="475613631" version="1" timestamp="2009-08-28T12:13:22Z" uid="123700" user="Mala" changeset="2289476" lat="50.0604285" lon="19.9381"/>
  <node id="475613633" version="1" timestamp="2009-08-28T12:13:22Z" uid="123700" user="Mala" changeset="2289476" lat="50.0601879" lon="19.9378329">
    <tag k="Internet_access" v="yes"/>
    <tag k="addr:housenumber" v="13"/>
    <tag k="addr:street" v="Rynek Główny"/>
    <tag k="amenity" v="pub"/>
    <tag k="name" v="Klub U Louisa"/>
  </node>
  <node id="475613633" version="2" timestamp="2010-06-04T15:34:44Z" uid="86504" user="Thomas8122" changeset="4902062" lat="50.0601879" lon="19.9378328">
    <tag k="addr:housenumber" v="13"/>
    <tag k="addr:street" v="Rynek Główny"/>
    <tag k="amenity" v="pub"/>
    <tag k="internet_access" v="yes"/>
    <tag k="name" v="Klub U Louisa"/>
  </node>
  <node id="475613635" version="1" timestamp="2009-08-28T12:13:22Z" uid="123700" user="Mala" changeset="2289476" lat="50.0603195" lon="19.9378992">
    <tag k="addr:housenumber" v="13"/>
    <tag k="addr:street" v="Rynek Główny"/>
    <tag k="amenity" v="bank"/>
    <tag k="atm" v="yes"/>
    <tag k="name" v="HSBC"/>
    <tag k="operator" v="HSBC"/>
  </node>
  <node id="475613639" version="1" timestamp="2009-08-28T12:13:22Z" uid="123700" user="Mala" changeset="2289476" lat="50.0602477" lon="19.9379158">
    <tag k="addr:housenumber" v="13"/>
    <tag k="addr:street" v="Rynek Główny"/>
    <tag k="amenity" v="fast_food"/>
    <tag k="cuisine" v="mediterranean"/>
    <tag k="name" v="Bar 13"/>
  </node>
  <node id="475613641" version="1" timestamp="2009-08-28T12:13:22Z" uid="123700" user="Mala" changeset="2289476" lat="50.0605906" lon="19.93804">
    <tag k="addr:housenumber" v="11"/>
    <tag k="addr:street" v="Rynek Główny"/>
    <tag k="amenity" v="cafe"/>
    <tag k="name" v="Cafe Malaga"/>
  </node>
  <node id="475613644" version="1" timestamp="2009-08-28T12:13:22Z" uid="123700" user="Mala" changeset="2289476" lat="50.0606611" lon="19.938098">
    <tag k="addr:housenumber" v="10"/>
    <tag k="addr:street" v="Rynek Główny"/>
    <tag k="amenity" v="restaurant"/>
    <tag k="cuisine" v="local"/>
    <tag k="name" v="Restauracja Wesele"/>
  </node>
  <node id="475613647" version="1" timestamp="2009-08-28T12:13:22Z" uid="123700" user="Mala" changeset="2289476" lat="50.0607355" lon="19.9381497">
    <tag k="addr:housenumber" v="9"/>
    <tag k="addr:street" v="Rynek Główny"/>
    <tag k="name" v="Hostel Renesans"/>
    <tag k="tourism" v="hostel"/>
  </node>
  <node id="475613651" version="1" timestamp="2009-08-28T12:13:22Z" uid="123700" user="Mala" changeset="2289476" lat="50.0607608" lon="19.9382553">
    <tag k="addr:housenumber" v="9"/>
    <tag k="addr:street" v="Rynek Główny"/>
    <tag k="amenity" v="bureau_de_change"/>
  </node>
  <node id="475613651" version="2" timestamp="2012-03-08T14:05:00Z" uid="598456" user="vinci4352" changeset="10909503" lat="50.0607719" lon="19.9382437">
    <tag k="addr:housenumber" v="9"/>
    <tag k="addr:street" v="Rynek Główny"/>
    <tag k="amenity" v="bureau_de_change"/>
  </node>
  <node id="475613654" version="1" timestamp="2009-08-28T12:13:22Z" uid="123700" user="Mala" changeset="2289476" lat="50.0608233" lon="19.9382139">
    <tag k="addr:housenumber" v="8"/>
    <tag k="addr:street" v="Rynek Główny"/>
    <tag k="amenity" v="pub"/>
    <tag k="name" v="Klub Pod Jaszczurami"/>
    <tag k="note" v="also a nightclub"/>
  </node>
  <node id="475613660" version="1" timestamp="2009-08-28T12:13:22Z" uid="123700" user="Mala" changeset="2289476" lat="50.0608924" lon="19.9382843">
    <tag k="addr:housenumber" v="8"/>
    <tag k="addr:street" v="Rynek Główny"/>
    <tag k="amenity" v="theatre"/>
    <tag k="name" v="Teatr 38"/>
  </node>
  <node id="475613663" version="1" timestamp="2009-08-28T12:13:22Z" uid="123700" user="Mala" changeset="2289476" lat="50.0609562" lon="19.9383423">
    <tag k="addr:housenumber" v="7"/>
    <tag k="addr:street" v="Rynek Główny"/>
    <tag k="name" v="Hostel Rynek 7"/>
    <tag k="tourism" v="hostel"/>
  </node>
  <node id="475613668" version="1" timestamp="2009-08-28T12:13:22Z" uid="123700" user="Mala" changeset="2289476" lat="50.0610266" lon="19.9383754">
    <tag k="addr:housenumber" v="7"/>
    <tag k="addr:street" v="Rynek Główny"/>
    <tag k="amenity" v="cafe"/>
    <tag k="name" v="Cafe Daktyl"/>
  </node>
  <node id="475613671" version="1" timestamp="2009-08-28T12:13:22Z" uid="123700" user="Mala" changeset="2289476" lat="50.0609801" lon="19.9384231">
    <tag k="addr:housenumber" v="7"/>
    <tag k="addr:street" v="Rynek Główny"/>
    <tag k="name" v="Pol-Tour"/>
    <tag k="shop" v="travel_agency"/>
  </node>
  <node id="475613676" version="1" timestamp="2009-08-28T12:13:23Z" uid="123700" user="Mala" changeset="2289476" lat="50.0610811" lon="19.9384044">
    <tag k="addr:housenumber" v="6"/>
    <tag k="addr:street" v="Rynek Główny"/>
    <tag k="amenity" v="pub"/>
    <tag k="name" v="Buddha Drink&amp;Garden"/>
  </node>
  <node id="475613679" version="1" timestamp="2009-08-28T12:13:23Z" uid="123700" user="Mala" changeset="2289476" lat="50.0610998" lon="19.9385121">
    <tag k="addr:housenumber" v="6"/>
    <tag k="addr:street" v="Rynek Główny"/>
    <tag k="amenity" v="nightclub"/>
    <tag k="name" v="The Mirror Club"/>
  </node>
  <node id="475613681" version="1" timestamp="2009-08-28T12:13:23Z" uid="123700" user="Mala" changeset="2289476" lat="50.0611795" lon="19.9384831">
    <tag k="addr:housenumber" v="6"/>
    <tag k="addr:street" v="Rynek Główny"/>
    <tag k="amenity" v="restaurant"/>
    <tag k="cuisine" v="international"/>
    <tag k="name" v="Restauracja Szara"/>
    <tag k="phone" v="+48124216669"/>
  </node>
  <node id="475613681" version="2" timestamp="2012-03-08T14:05:28Z" uid="598456" user="vinci4352" changeset="10909503" lat="50.0611479" lon="19.9384282">
    <tag k="addr:housenumber" v="6"/>
    <tag k="addr:street" v="Rynek Główny"/>
    <tag k="amenity" v="restaurant"/>
    <tag k="cuisine" v="international"/>
    <tag k="name" v="Restauracja Szara"/>
    <tag k="phone" v="+48124216669"/>
  </node>
  <node id="475613685" version="1" timestamp="2009-08-28T12:13:23Z" uid="123700" user="Mala" changeset="2289476" lat="50.0612739" lon="19.9385929">
    <tag k="addr:housenumber" v="5"/>
    <tag k="addr:street" v="Rynek Główny"/>
    <tag k="name" v="EMPiK"/>
    <tag k="operator" v="EMPiK"/>
    <tag k="shop" v="department_store"/>
  </node>
  <node id="475613685" version="2" timestamp="2011-11-25T23:08:58Z" uid="164910" user="ppece" changeset="9949785" lat="50.061309" lon="19.9386224">
    <tag k="addr:city" v="Kraków"/>
    <tag k="addr:country" v="PL"/>
    <tag k="addr:housenumber" v="5"/>
    <tag k="addr:postcode" v="31-042"/>
    <tag k="addr:street" v="Rynek Główny"/>
    <tag k="name" v="EMPiK"/>
    <tag k="operator" v="EMPiK"/>
    <tag k="shop" v="department_store"/>
    <tag k="website" v="http://www.empik.com/"/>
  </node>
  <node id="475613688" version="1" timestamp="2009-08-28T12:13:23Z" uid="123700" user="Mala" changeset="2289476" lat="50.061234" lon="19.938715">
    <tag k="addr:housenumber" v="5"/>
    <tag k="addr:street" v="Rynek Główny"/>
    <tag k="name" v="Sephora"/>
    <tag k="operator" v="Sephora"/>
    <tag k="shop" v="cosmetics"/>
  </node>
  <node id="475613688" version="2" timestamp="2011-11-25T23:08:58Z" uid="164910" user="ppece" changeset="9949785" lat="50.0612122" lon="19.9387455">
    <tag k="name" v="Sephora"/>
    <tag k="operator" v="Sephora"/>
    <tag k="shop" v="cosmetics"/>
  </node>
  <node id="475613690" version="1" timestamp="2009-08-28T12:13:23Z" uid="123700" user="Mala" changeset="2289476" lat="50.0614387" lon="19.9387357">
    <tag k="addr:housenumber" v="4"/>
    <tag k="addr:street" v="Rynek Główny"/>
    <tag k="amenity" v="cafe"/>
    <tag k="name" v="Hard Rock Cafe"/>
    <tag k="operator" v="Hard Rock Cafe"/>
  </node>
  <node id="475613690" version="2" timestamp="2010-04-17T11:18:51Z" uid="91056" user="Yarl" changeset="4446654" lat="50.061419" lon="19.9387142">
    <tag k="addr:housenumber" v="4"/>
    <tag k="addr:street" v="Rynek Główny"/>
    <tag k="amenity" v="cafe"/>
    <tag k="name" v="Hard Rock Cafe"/>
    <tag k="operator" v="Hard Rock Cafe"/>
  </node>
  <node id="475613693" version="1" timestamp="2009-08-28T12:13:23Z" uid="123700" user="Mala" changeset="2289476" lat="50.0612884" lon="19.9392972">
    <tag k="amenity" v="cafe"/>
    <tag k="name" v="Cafe Avec"/>
  </node>
  <node id="475613693" version="2" timestamp="2009-09-09T12:40:17Z" uid="123700" user="Mala" changeset="2424887" lat="50.0613087" lon="19.9392873">
    <tag k="amenity" v="cafe"/>
    <tag k="name" v="Cafe Avec"/>
  </node>
  <node id="475613693" version="3" timestamp="2010-04-17T11:18:51Z" uid="91056" user="Yarl" changeset="4446654" lat="50.061251" lon="19.939197">
    <tag k="amenity" v="cafe"/>
    <tag k="name" v="Cafe Avec"/>
  </node>
  <node id="475613695" version="1" timestamp="2009-08-28T12:13:23Z" uid="123700" user="Mala" changeset="2289476" lat="50.06132" lon="19.9394652">
    <tag k="amenity" v="restaurant"/>
    <tag k="name" v="Restauracja Gruzińskie Chaczapuri"/>
  </node>
  <node id="475613695" version="2" timestamp="2009-09-09T12:40:17Z" uid="123700" user="Mala" changeset="2424887" lat="50.061334" lon="19.9394573">
    <tag k="amenity" v="restaurant"/>
    <tag k="name" v="Restauracja Gruzińskie Chaczapuri"/>
  </node>
  <node id="475613695" version="3" timestamp="2010-04-17T11:18:51Z" uid="91056" user="Yarl" changeset="4446654" lat="50.0612713" lon="19.9394593">
    <tag k="amenity" v="restaurant"/>
    <tag k="name" v="Restauracja Gruzińskie Chaczapuri"/>
  </node>
  <node id="475613697" version="1" timestamp="2009-08-28T12:13:23Z" uid="123700" user="Mala" changeset="2289476" lat="50.0613522" lon="19.9396336">
    <tag k="shop" v="souvenirs"/>
  </node>
  <node id="475613697" version="2" timestamp="2009-09-09T12:40:19Z" uid="123700" user="Mala" changeset="2424887" lat="50.0613681" lon="19.9396286">
    <tag k="shop" v="souvenirs"/>
  </node>
  <node id="475613697" version="3" timestamp="2010-09-20T22:51:17Z" uid="65148" user="Pirat Michi" changeset="5833630" lat="50.0613681" lon="19.9396286">
    <tag k="shop" v="gift"/>
  </node>
  <node id="475613697" version="4" timestamp="2011-11-25T23:09:01Z" uid="164910" user="ppece" changeset="9949785" lat="50.0613624" lon="19.9396453">
    <tag k="shop" v="gift"/>
  </node>
  <node id="475613699" version="1" timestamp="2009-08-28T12:13:23Z" uid="123700" user="Mala" changeset="2289476" lat="50.0620441" lon="19.9396096">
    <tag k="amenity" v="cafe"/>
    <tag k="name" v="Demmers Teahouse"/>
  </node>
  <node id="475613699" version="2" timestamp="2011-11-27T00:34:32Z" uid="164910" user="ppece" changeset="9962557" lat="50.0620045" lon="19.9396262">
    <tag k="amenity" v="cafe"/>
    <tag k="name" v="Demmers Teahouse"/>
  </node>
  <node id="475613699" version="3" timestamp="2012-03-03T18:29:01Z" uid="598456" user="vinci4352" changeset="10860704" lat="50.0620457" lon="19.9396848">
    <tag k="amenity" v="cafe"/>
    <tag k="name" v="Demmers Teahouse"/>
  </node>
  <node id="475613699" version="4" timestamp="2012-03-04T09:50:10Z" uid="598456" user="vinci4352" changeset="10866280" lat="50.0620677" lon="19.9396692">
    <tag k="amenity" v="cafe"/>
    <tag k="name" v="Demmers Teahouse"/>
  </node>
  <node id="475613699" version="5" timestamp="2012-03-06T01:43:22Z" uid="164910" user="ppece" changeset="10886367" lat="50.0620045" lon="19.9396262">
    <tag k="amenity" v="cafe"/>
    <tag k="name" v="Demmers Teahouse"/>
  </node>
  <node id="475613702" version="1" timestamp="2009-08-28T12:13:23Z" uid="123700" user="Mala" changeset="2289476" lat="50.0619869" lon="19.9398208">
    <tag k="tourism" v="information"/>
  </node>
  <node id="475613702" version="2" timestamp="2011-11-27T00:34:34Z" uid="164910" user="ppece" changeset="9962557" lat="50.061974" lon="19.9398446">
    <tag k="tourism" v="information"/>
  </node>
  <node id="475613702" version="3" timestamp="2012-03-03T18:31:07Z" uid="598456" user="vinci4352" changeset="10860704" lat="50.061965" lon="19.9399422">
    <tag k="tourism" v="information"/>
  </node>
  <node id="475613702" version="4" timestamp="2012-03-04T09:50:35Z" uid="598456" user="vinci4352" changeset="10866280" lat="50.062001" lon="19.9399983">
    <tag k="tourism" v="information"/>
  </node>
  <node id="475613702" version="5" timestamp="2012-03-06T01:43:34Z" uid="164910" user="ppece" changeset="10886367" lat="50.061974" lon="19.9398446">
    <tag k="tourism" v="information"/>
  </node>
  <node id="475613704" version="1" timestamp="2009-08-28T12:13:23Z" uid="123700" user="Mala" changeset="2289476" lat="50.0619324" lon="19.9399492">
    <tag k="amenity" v="cafe"/>
    <tag k="name" v="Cafe Magia"/>
  </node>
  <node id="475613704" version="2" timestamp="2010-04-17T11:47:56Z" uid="91056" user="Yarl" changeset="4446654" lat="50.06192" lon="19.9399804">
    <tag k="amenity" v="cafe"/>
    <tag k="name" v="Cafe Magia"/>
  </node>
  <node id="475613704" version="3" timestamp="2011-11-27T00:34:32Z" uid="164910" user="ppece" changeset="9962557" lat="50.0619071" lon="19.9400042">
    <tag k="amenity" v="cafe"/>
    <tag k="name" v="Cafe Magia"/>
  </node>
  <node id="475613704" version="4" timestamp="2012-03-03T18:29:01Z" uid="598456" user="vinci4352" changeset="10860704" lat="50.0619053" lon="19.9401242">
    <tag k="amenity" v="cafe"/>
    <tag k="name" v="Cafe Magia"/>
  </node>
  <node id="475613704" version="5" timestamp="2012-03-04T09:50:10Z" uid="598456" user="vinci4352" changeset="10866280" lat="50.0619393" lon="19.9401959">
    <tag k="amenity" v="cafe"/>
    <tag k="name" v="Cafe Magia"/>
  </node>
  <node id="475613704" version="6" timestamp="2012-03-06T01:43:22Z" uid="164910" user="ppece" changeset="10886367" lat="50.0619071" lon="19.9400042">
    <tag k="amenity" v="cafe"/>
    <tag k="name" v="Cafe Magia"/>
  </node>
  <node id="475613706" version="1" timestamp="2009-08-28T12:13:23Z" uid="123700" user="Mala" changeset="2289476" lat="50.0621884" lon="19.9391948">
    <tag k="addr:housenumber" v="47"/>
    <tag k="addr:street" v="Rynek Główny"/>
    <tag k="amenity" v="bank"/>
    <tag k="atm" v="yes"/>
    <tag k="name" v="PKO SA"/>
    <tag k="operator" v="PKO SA"/>
  </node>
  <node id="475613706" version="2" timestamp="2012-03-08T14:05:07Z" uid="598456" user="vinci4352" changeset="10909503" lat="50.0621648" lon="19.9391253">
    <tag k="addr:housenumber" v="47"/>
    <tag k="addr:street" v="Rynek Główny"/>
    <tag k="amenity" v="bank"/>
    <tag k="atm" v="yes"/>
    <tag k="name" v="PKO SA"/>
    <tag k="operator" v="PKO SA"/>
  </node>
  <node id="475613710" version="1" timestamp="2009-08-28T12:13:23Z" uid="123700" user="Mala" changeset="2289476" lat="50.0622611" lon="19.9390695">
    <tag k="addr:housenumber" v="47"/>
    <tag k="addr:street" v="Rynek Główny"/>
    <tag k="amenity" v="cafe"/>
    <tag k="name" v="Kawiarnia Bankowa"/>
  </node>
  <node id="475613710" version="2" timestamp="2012-03-08T14:02:59Z" uid="598456" user="vinci4352" changeset="10909503" lat="50.0622375" lon="19.939">
    <tag k="addr:housenumber" v="47"/>
    <tag k="addr:street" v="Rynek Główny"/>
    <tag k="amenity" v="cafe"/>
    <tag k="name" v="Kawiarnia Bankowa"/>
  </node>
  <node id="475613712" version="1" timestamp="2009-08-28T12:13:23Z" uid="123700" user="Mala" changeset="2289476" lat="50.0622474" lon="19.9388962">
    <tag k="addr:housenumber" v="46"/>
    <tag k="addr:street" v="Rynek Główny"/>
    <tag k="amenity" v="restaurant"/>
    <tag k="name" v="The Piano Rouge"/>
    <tag k="note" v="also a jazz club"/>
  </node>
  <node id="475613712" version="2" timestamp="2012-03-03T18:29:32Z" uid="598456" user="vinci4352" changeset="10860704" lat="50.0622743" lon="19.9389046">
    <tag k="addr:housenumber" v="46"/>
    <tag k="addr:street" v="Rynek Główny"/>
    <tag k="amenity" v="restaurant"/>
    <tag k="name" v="The Piano Rouge"/>
    <tag k="note" v="also a jazz club"/>
  </node>
  <node id="475613712" version="3" timestamp="2012-03-04T09:50:21Z" uid="598456" user="vinci4352" changeset="10866280" lat="50.0622933" lon="19.9389108">
    <tag k="addr:housenumber" v="46"/>
    <tag k="addr:street" v="Rynek Główny"/>
    <tag k="amenity" v="restaurant"/>
    <tag k="name" v="The Piano Rouge"/>
    <tag k="note" v="also a jazz club"/>
  </node>
  <node id="475613712" version="4" timestamp="2012-03-08T14:05:34Z" uid="598456" user="vinci4352" changeset="10909503" lat="50.0622697" lon="19.9388413">
    <tag k="addr:housenumber" v="46"/>
    <tag k="addr:street" v="Rynek Główny"/>
    <tag k="amenity" v="restaurant"/>
    <tag k="name" v="The Piano Rouge"/>
    <tag k="note" v="also a jazz club"/>
  </node>
  <node id="475613715" version="1" timestamp="2009-08-28T12:13:23Z" uid="123700" user="Mala" changeset="2289476" lat="50.0623092" lon="19.9388564">
    <tag k="addr:housenumber" v="46"/>
    <tag k="addr:street" v="Rynek Główny"/>
    <tag k="amenity" v="cafe"/>
    <tag k="cuisine" v="chocolate"/>
    <tag k="name" v="Pijalnia Czekolady &quot;Wedel&quot;"/>
  </node>
  <node id="475613715" version="2" timestamp="2012-03-03T18:29:29Z" uid="598456" user="vinci4352" changeset="10860704" lat="50.062302" lon="19.9388801">
    <tag k="addr:housenumber" v="46"/>
    <tag k="addr:street" v="Rynek Główny"/>
    <tag k="amenity" v="cafe"/>
    <tag k="cuisine" v="chocolate"/>
    <tag k="name" v="Pijalnia Czekolady &quot;Wedel&quot;"/>
  </node>
  <node id="475613715" version="3" timestamp="2012-03-04T09:50:19Z" uid="598456" user="vinci4352" changeset="10866280" lat="50.062324" lon="19.9389518">
    <tag k="addr:housenumber" v="46"/>
    <tag k="addr:street" v="Rynek Główny"/>
    <tag k="amenity" v="cafe"/>
    <tag k="cuisine" v="chocolate"/>
    <tag k="name" v="Pijalnia Czekolady &quot;Wedel&quot;"/>
  </node>
  <node id="475613715" version="4" timestamp="2012-03-08T14:05:09Z" uid="598456" user="vinci4352" changeset="10909503" lat="50.0623004" lon="19.9388823">
    <tag k="addr:housenumber" v="46"/>
    <tag k="addr:street" v="Rynek Główny"/>
    <tag k="amenity" v="cafe"/>
    <tag k="cuisine" v="chocolate"/>
    <tag k="name" v="Pijalnia Czekolady &quot;Wedel&quot;"/>
  </node>
  <node id="475613718" version="1" timestamp="2009-08-28T12:13:23Z" uid="123700" user="Mala" changeset="2289476" lat="50.0622946" lon="19.9387301">
    <tag k="addr:housenumber" v="45"/>
    <tag k="addr:street" v="Rynek Główny"/>
    <tag k="amenity" v="auction_house"/>
    <tag k="name" v="Sopocki Dom Aukcyjny"/>
  </node>
  <node id="475613718" version="2" timestamp="2012-03-03T18:29:31Z" uid="598456" user="vinci4352" changeset="10860704" lat="50.062317" lon="19.938765">
    <tag k="addr:housenumber" v="45"/>
    <tag k="addr:street" v="Rynek Główny"/>
    <tag k="amenity" v="auction_house"/>
    <tag k="name" v="Sopocki Dom Aukcyjny"/>
  </node>
  <node id="475613718" version="3" timestamp="2012-03-04T09:50:21Z" uid="598456" user="vinci4352" changeset="10866280" lat="50.062322" lon="19.938779">
    <tag k="addr:housenumber" v="45"/>
    <tag k="addr:street" v="Rynek Główny"/>
    <tag k="amenity" v="auction_house"/>
    <tag k="name" v="Sopocki Dom Aukcyjny"/>
  </node>
  <node id="475613718" version="4" timestamp="2012-03-08T14:05:33Z" uid="598456" user="vinci4352" changeset="10909503" lat="50.0622984" lon="19.9387095">
    <tag k="addr:housenumber" v="45"/>
    <tag k="addr:street" v="Rynek Główny"/>
    <tag k="amenity" v="auction_house"/>
    <tag k="name" v="Sopocki Dom Aukcyjny"/>
  </node>
  <node id="475613721" version="1" timestamp="2009-08-28T12:13:24Z" uid="123700" user="Mala" changeset="2289476" lat="50.0623531" lon="19.9386969">
    <tag k="addr:housenumber" v="45"/>
    <tag k="addr:street" v="Rynek Główny"/>
    <tag k="amenity" v="restaurant"/>
    <tag k="name" v="Restauracja Pod Białym Orłem"/>
  </node>
  <node id="475613721" version="2" timestamp="2012-03-08T14:05:24Z" uid="598456" user="vinci4352" changeset="10909503" lat="50.0623295" lon="19.9386274">
    <tag k="addr:housenumber" v="45"/>
    <tag k="addr:street" v="Rynek Główny"/>
    <tag k="amenity" v="restaurant"/>
    <tag k="name" v="Restauracja Pod Białym Orłem"/>
  </node>
  <node id="475613724" version="1" timestamp="2009-08-28T12:13:24Z" uid="123700" user="Mala" changeset="2289476" lat="50.0623717" lon="19.9387839">
    <tag k="addr:housenumber" v="45"/>
    <tag k="addr:street" v="Rynek Główny"/>
    <tag k="amenity" v="nightclub"/>
    <tag k="name" v="Panaceum"/>
  </node>
  <node id="475613724" version="2" timestamp="2012-03-04T09:50:19Z" uid="598456" user="vinci4352" changeset="10866280" lat="50.0623787" lon="19.9386468">
    <tag k="addr:housenumber" v="45"/>
    <tag k="addr:street" v="Rynek Główny"/>
    <tag k="amenity" v="nightclub"/>
    <tag k="name" v="Panaceum"/>
  </node>
  <node id="475613724" version="3" timestamp="2012-03-08T14:05:08Z" uid="598456" user="vinci4352" changeset="10909503" lat="50.0623551" lon="19.9385773">
    <tag k="addr:housenumber" v="45"/>
    <tag k="addr:street" v="Rynek Główny"/>
    <tag k="amenity" v="nightclub"/>
    <tag k="name" v="Panaceum"/>
  </node>
  <node id="475613726" version="1" timestamp="2009-08-28T12:13:24Z" uid="123700" user="Mala" changeset="2289476" lat="50.0623903" lon="19.9385189">
    <tag k="addr:housenumber" v="44"/>
    <tag k="addr:street" v="Rynek Główny"/>
    <tag k="name" v="Diesel"/>
    <tag k="shop" v="clothes"/>
  </node>
  <node id="475613726" version="2" timestamp="2012-03-03T18:29:02Z" uid="598456" user="vinci4352" changeset="10860704" lat="50.0624002" lon="19.9385384">
    <tag k="addr:housenumber" v="44"/>
    <tag k="addr:street" v="Rynek Główny"/>
    <tag k="name" v="Diesel"/>
    <tag k="shop" v="clothes"/>
  </node>
  <node id="475613726" version="3" timestamp="2012-03-04T09:50:11Z" uid="598456" user="vinci4352" changeset="10866280" lat="50.0624102" lon="19.9385462">
    <tag k="addr:housenumber" v="44"/>
    <tag k="addr:street" v="Rynek Główny"/>
    <tag k="name" v="Diesel"/>
    <tag k="shop" v="clothes"/>
  </node>
  <node id="475613726" version="4" timestamp="2012-03-08T14:02:39Z" uid="598456" user="vinci4352" changeset="10909503" lat="50.0623866" lon="19.9384767">
    <tag k="addr:housenumber" v="44"/>
    <tag k="addr:street" v="Rynek Główny"/>
    <tag k="name" v="Diesel"/>
    <tag k="shop" v="clothes"/>
  </node>
  <node id="475613729" version="1" timestamp="2009-08-28T12:13:24Z" uid="123700" user="Mala" changeset="2289476" lat="50.0624541" lon="19.9383367">
    <tag k="addr:housenumber" v="43"/>
    <tag k="addr:street" v="Rynek Główny"/>
    <tag k="amenity" v="restaurant"/>
    <tag k="cuisine" v="international;local"/>
    <tag k="name" v="Restauracja Pod Słońcem"/>
  </node>
  <node id="475613729" version="2" timestamp="2012-03-03T18:29:31Z" uid="598456" user="vinci4352" changeset="10860704" lat="50.0624407" lon="19.9384148">
    <tag k="addr:housenumber" v="43"/>
    <tag k="addr:street" v="Rynek Główny"/>
    <tag k="amenity" v="restaurant"/>
    <tag k="cuisine" v="international;local"/>
    <tag k="name" v="Restauracja Pod Słońcem"/>
  </node>
  <node id="475613729" version="3" timestamp="2012-03-04T09:50:19Z" uid="598456" user="vinci4352" changeset="10866280" lat="50.0624557" lon="19.9384273">
    <tag k="addr:housenumber" v="43"/>
    <tag k="addr:street" v="Rynek Główny"/>
    <tag k="amenity" v="restaurant"/>
    <tag k="cuisine" v="international;local"/>
    <tag k="name" v="Restauracja Pod Słońcem"/>
  </node>
  <node id="475613729" version="4" timestamp="2012-03-08T14:05:25Z" uid="598456" user="vinci4352" changeset="10909503" lat="50.0624321" lon="19.9383578">
    <tag k="addr:housenumber" v="43"/>
    <tag k="addr:street" v="Rynek Główny"/>
    <tag k="amenity" v="restaurant"/>
    <tag k="cuisine" v="international;local"/>
    <tag k="name" v="Restauracja Pod Słońcem"/>
  </node>
  <node id="475613733" version="1" timestamp="2009-08-28T12:13:24Z" uid="123700" user="Mala" changeset="2289476" lat="50.0625206" lon="19.9383884">
    <tag k="addr:housenumber" v="43"/>
    <tag k="addr:street" v="Rynek Główny"/>
    <tag k="amenity" v="cafe"/>
    <tag k="name" v="Kawiarnia Gehanowska"/>
  </node>
  <node id="475613733" version="2" timestamp="2012-03-03T18:29:02Z" uid="598456" user="vinci4352" changeset="10860704" lat="50.0625027" lon="19.9384428">
    <tag k="addr:housenumber" v="43"/>
    <tag k="addr:street" v="Rynek Główny"/>
    <tag k="amenity" v="cafe"/>
    <tag k="name" v="Kawiarnia Gehanowska"/>
  </node>
  <node id="475613733" version="3" timestamp="2012-03-08T14:02:59Z" uid="598456" user="vinci4352" changeset="10909503" lat="50.0624791" lon="19.9383733">
    <tag k="addr:housenumber" v="43"/>
    <tag k="addr:street" v="Rynek Główny"/>
    <tag k="amenity" v="cafe"/>
    <tag k="name" v="Kawiarnia Gehanowska"/>
  </node>
  <node id="475613735" version="1" timestamp="2009-08-28T12:13:24Z" uid="123700" user="Mala" changeset="2289476" lat="50.0625073" lon="19.9381917">
    <tag k="addr:housenumber" v="42"/>
    <tag k="addr:street" v="Rynek Główny"/>
    <tag k="amenity" v="nightclub"/>
    <tag k="name" v="One Lounge Club"/>
    <tag k="note" v="also a restaurant"/>
  </node>
  <node id="475613735" version="2" timestamp="2012-03-03T18:29:29Z" uid="598456" user="vinci4352" changeset="10860704" lat="50.0624885" lon="19.938267">
    <tag k="addr:housenumber" v="42"/>
    <tag k="addr:street" v="Rynek Główny"/>
    <tag k="amenity" v="nightclub"/>
    <tag k="name" v="One Lounge Club"/>
    <tag k="note" v="also a restaurant"/>
  </node>
  <node id="475613735" version="3" timestamp="2012-03-08T14:05:04Z" uid="598456" user="vinci4352" changeset="10909503" lat="50.0624649" lon="19.9381975">
    <tag k="addr:housenumber" v="42"/>
    <tag k="addr:street" v="Rynek Główny"/>
    <tag k="amenity" v="nightclub"/>
    <tag k="name" v="One Lounge Club"/>
    <tag k="note" v="also a restaurant"/>
  </node>
  <node id="475613740" version="1" timestamp="2009-08-28T12:13:24Z" uid="123700" user="Mala" changeset="2289476" lat="50.0625392" lon="19.9379722">
    <tag k="addr:housenumber" v="41"/>
    <tag k="addr:street" v="Rynek Główny"/>
    <tag k="shop" v="convenience"/>
  </node>
  <node id="475613740" version="2" timestamp="2012-03-03T18:29:22Z" uid="598456" user="vinci4352" changeset="10860704" lat="50.0625709" lon="19.9379683">
    <tag k="addr:housenumber" v="41"/>
    <tag k="addr:street" v="Rynek Główny"/>
    <tag k="shop" v="convenience"/>
  </node>
  <node id="475613740" version="3" timestamp="2012-03-08T14:04:42Z" uid="598456" user="vinci4352" changeset="10909503" lat="50.0625473" lon="19.9379049">
    <tag k="addr:housenumber" v="41"/>
    <tag k="addr:street" v="Rynek Główny"/>
    <tag k="shop" v="convenience"/>
  </node>
  <node id="475613744" version="1" timestamp="2009-08-28T12:13:24Z" uid="123700" user="Mala" changeset="2289476" lat="50.0626136" lon="19.9378728">
    <tag k="addr:housenumber" v="41"/>
    <tag k="addr:street" v="Rynek Główny"/>
    <tag k="amenity" v="restaurant"/>
    <tag k="name" v="Restauracja Loża - Klub Aktora"/>
  </node>
  <node id="475613744" version="2" timestamp="2012-03-08T14:05:23Z" uid="598456" user="vinci4352" changeset="10909503" lat="50.06259" lon="19.9378094">
    <tag k="addr:housenumber" v="41"/>
    <tag k="addr:street" v="Rynek Główny"/>
    <tag k="amenity" v="restaurant"/>
    <tag k="name" v="Restauracja Loża - Klub Aktora"/>
  </node>
  <node id="475613748" version="1" timestamp="2009-08-28T12:13:24Z" uid="123700" user="Mala" changeset="2289476" lat="50.0626216" lon="19.9377113">
    <tag k="addr:housenumber" v="41"/>
    <tag k="addr:street" v="Rynek Główny"/>
    <tag k="name" v="Rainbow Tours"/>
    <tag k="operator" v="Rainbow Tours"/>
    <tag k="shop" v="travel_agency"/>
  </node>
  <node id="475613748" version="2" timestamp="2012-03-03T18:29:30Z" uid="598456" user="vinci4352" changeset="10860704" lat="50.0626438" lon="19.9377379">
    <tag k="addr:housenumber" v="41"/>
    <tag k="addr:street" v="Rynek Główny"/>
    <tag k="name" v="Rainbow Tours"/>
    <tag k="operator" v="Rainbow Tours"/>
    <tag k="shop" v="travel_agency"/>
  </node>
  <node id="475613748" version="3" timestamp="2012-03-08T14:05:17Z" uid="598456" user="vinci4352" changeset="10909503" lat="50.0626165" lon="19.9379116">
    <tag k="addr:housenumber" v="41"/>
    <tag k="addr:street" v="Rynek Główny"/>
    <tag k="name" v="Rainbow Tours"/>
    <tag k="operator" v="Rainbow Tours"/>
    <tag k="shop" v="travel_agency"/>
  </node>
  <node id="475613753" version="1" timestamp="2009-08-28T12:13:24Z" uid="123700" user="Mala" changeset="2289476" lat="50.0626788" lon="19.937585">
    <tag k="addr:housenumber" v="40"/>
    <tag k="addr:street" v="Rynek Główny"/>
    <tag k="name" v="Salamandra"/>
    <tag k="shop" v="shoes"/>
  </node>
  <node id="475613753" version="2" timestamp="2012-03-08T14:05:29Z" uid="598456" user="vinci4352" changeset="10909503" lat="50.062631" lon="19.9376951">
    <tag k="addr:housenumber" v="40"/>
    <tag k="addr:street" v="Rynek Główny"/>
    <tag k="name" v="Salamandra"/>
    <tag k="shop" v="shoes"/>
  </node>
  <node id="475613757" version="1" timestamp="2009-08-28T12:13:24Z" uid="123700" user="Mala" changeset="2289476" lat="50.0627023" lon="19.9374575">
    <tag k="addr:housenumber" v="39"/>
    <tag k="addr:street" v="Rynek Główny"/>
    <tag k="amenity" v="embassy"/>
    <tag k="name" v="Rząd Regionalny Kurdystanu"/>
  </node>
  <node id="475613757" version="2" timestamp="2012-03-08T14:05:29Z" uid="598456" user="vinci4352" changeset="10909503" lat="50.0626768" lon="19.9375792">
    <tag k="addr:housenumber" v="39"/>
    <tag k="addr:street" v="Rynek Główny"/>
    <tag k="amenity" v="embassy"/>
    <tag k="name" v="Rząd Regionalny Kurdystanu"/>
  </node>
  <node id="475613761" version="1" timestamp="2009-08-28T12:13:24Z" uid="123700" user="Mala" changeset="2289476" lat="50.0627513" lon="19.9374437">
    <tag k="addr:housenumber" v="39"/>
    <tag k="addr:street" v="Rynek Główny"/>
    <tag k="amenity" v="restaurant"/>
    <tag k="cuisine" v="local"/>
    <tag k="name" v="Restauracja Pod Krzyżykiem"/>
  </node>
  <node id="475613761" version="2" timestamp="2012-03-08T14:05:25Z" uid="598456" user="vinci4352" changeset="10909503" lat="50.0627314" lon="19.9376145">
    <tag k="addr:housenumber" v="39"/>
    <tag k="addr:street" v="Rynek Główny"/>
    <tag k="amenity" v="restaurant"/>
    <tag k="cuisine" v="local"/>
    <tag k="name" v="Restauracja Pod Krzyżykiem"/>
  </node>
  <node id="475613765" version="1" timestamp="2009-08-28T12:13:24Z" uid="123700" user="Mala" changeset="2289476" lat="50.0629122" lon="19.9369634">
    <tag k="addr:housenumber" v="36"/>
    <tag k="addr:street" v="Rynek Główny"/>
    <tag k="name" v="Księgarnia Muzyczna &quot;Kurant&quot;"/>
    <tag k="note" v="music books"/>
    <tag k="shop" v="books"/>
  </node>
  <node id="475613765" version="2" timestamp="2012-03-04T09:50:12Z" uid="598456" user="vinci4352" changeset="10866280" lat="50.0629082" lon="19.9371644">
    <tag k="addr:housenumber" v="36"/>
    <tag k="addr:street" v="Rynek Główny"/>
    <tag k="name" v="Księgarnia Muzyczna &quot;Kurant&quot;"/>
    <tag k="note" v="music books"/>
    <tag k="shop" v="books"/>
  </node>
  <node id="475613765" version="3" timestamp="2012-03-08T14:03:09Z" uid="598456" user="vinci4352" changeset="10909503" lat="50.0628846" lon="19.937101">
    <tag k="addr:housenumber" v="36"/>
    <tag k="addr:street" v="Rynek Główny"/>
    <tag k="name" v="Księgarnia Muzyczna &quot;Kurant&quot;"/>
    <tag k="note" v="music books"/>
    <tag k="shop" v="books"/>
  </node>
  <node id="475613768" version="1" timestamp="2009-08-28T12:13:24Z" uid="123700" user="Mala" changeset="2289476" lat="50.0628603" lon="19.9371663">
    <tag k="addr:housenumber" v="37"/>
    <tag k="addr:street" v="Rynek Główny"/>
    <tag k="amenity" v="public_building"/>
    <tag k="name" v="Lekarska Spółdzielnia Pracy"/>
  </node>
  <node id="475613768" version="2" timestamp="2012-03-04T09:50:12Z" uid="598456" user="vinci4352" changeset="10866280" lat="50.0628423" lon="19.9374">
    <tag k="addr:housenumber" v="37"/>
    <tag k="addr:street" v="Rynek Główny"/>
    <tag k="amenity" v="public_building"/>
    <tag k="name" v="Lekarska Spółdzielnia Pracy"/>
  </node>
  <node id="475613768" version="3" timestamp="2012-03-08T14:03:11Z" uid="598456" user="vinci4352" changeset="10909503" lat="50.0628187" lon="19.9373366">
    <tag k="addr:housenumber" v="37"/>
    <tag k="addr:street" v="Rynek Główny"/>
    <tag k="amenity" v="public_building"/>
    <tag k="name" v="Lekarska Spółdzielnia Pracy"/>
  </node>
  <node id="475613784" version="1" timestamp="2009-08-28T12:13:25Z" uid="123700" user="Mala" changeset="2289476" lat="50.0627979" lon="19.9373196">
    <tag k="addr:housenumber" v="38"/>
    <tag k="addr:street" v="Rynek Główny"/>
    <tag k="amenity" v="restaurant"/>
    <tag k="cuisine" v="italian"/>
    <tag k="name" v="Restauracja Redolfi"/>
  </node>
  <node id="475613784" version="2" timestamp="2010-04-17T11:18:52Z" uid="91056" user="Yarl" changeset="4446654" lat="50.0627701" lon="19.9373405">
    <tag k="addr:housenumber" v="38"/>
    <tag k="addr:street" v="Rynek Główny"/>
    <tag k="amenity" v="restaurant"/>
    <tag k="cuisine" v="italian"/>
    <tag k="name" v="Restauracja Redolfi"/>
  </node>
  <node id="475613784" version="3" timestamp="2012-03-04T09:50:20Z" uid="598456" user="vinci4352" changeset="10866280" lat="50.0627861" lon="19.9373498">
    <tag k="addr:housenumber" v="38"/>
    <tag k="addr:street" v="Rynek Główny"/>
    <tag k="amenity" v="restaurant"/>
    <tag k="cuisine" v="italian"/>
    <tag k="name" v="Restauracja Redolfi"/>
  </node>
  <node id="475613784" version="4" timestamp="2012-03-08T14:05:26Z" uid="598456" user="vinci4352" changeset="10909503" lat="50.0627625" lon="19.9372864">
    <tag k="addr:housenumber" v="38"/>
    <tag k="addr:street" v="Rynek Główny"/>
    <tag k="amenity" v="restaurant"/>
    <tag k="cuisine" v="italian"/>
    <tag k="name" v="Restauracja Redolfi"/>
  </node>
</osm>
