<?xml version='1.0' encoding='UTF-8'?>
<osm version="0.6" generator="libosmium/2.20.0">
  <node id="478811880" version="2" timestamp="2009-09-28T19:35:35Z" uid="36809" user="pfoten_weg_!_" changeset="2669606" lat="47.621756" lon="11.0489464"/>
  <node id="478818872" version="1" timestamp="2009-08-31T12:36:55Z" uid="64924" user="leck_mich_alle_am_arsch" changeset="2325877" lat="47.442158" lon="11.7006776"/>
  <node id="478818872" version="2" timestamp="2012-02-01T23:34:47Z" uid="596973" user="korinthenfresser" changeset="10563625" lat="47.442158" lon="11.7006776"/>
  <node id="478818876" version="1" timestamp="2009-08-31T12:36:55Z" uid="64924" user="leck_mich_alle_am_arsch" changeset="2325877" lat="47.4425327" lon="11.7010877"/>
  <node id="478818876" version="2" timestamp="2010-12-11T12:04:17Z" uid="81244" user="rurseekatze" changeset="6622179" lat="47.4425306" lon="11.7009687"/>
  <node id="478818876" version="3" timestamp="2011-08-27T16:17:58Z" uid="417684" user="Maler" changeset="9136986" lat="47.4425675" lon="11.7010479"/>
  <node id="478818876" version="4" timestamp="2012-02-01T23:32:54Z" uid="596973" user="korinthenfresser" changeset="10563625" lat="47.4425131" lon="11.7010684"/>
  <node id="478818879" version="1" timestamp="2009-08-31T12:36:55Z" uid="64924" user="leck_mich_alle_am_arsch" changeset="2325877" lat="47.4423845" lon="11.7015537"/>
  <node id="478818879" version="2" timestamp="2012-02-01T23:34:47Z" uid="596973" user="korinthenfresser" changeset="10563625" lat="47.4423845" lon="11.7015537"/>
  <node id="478818882" version="1" timestamp="2009-08-31T12:36:55Z" uid="64924" user="leck_mich_alle_am_arsch" changeset="2325877" lat="47.4426438" lon="11.7021267"/>
  <node id="478818882" version="2" timestamp="2011-01-22T19:01:41Z" uid="81244" user="rurseekatze" changeset="7053986" lat="47.4426438" lon="11.7021267"/>
  <node id="478818883" version="1" timestamp="2009-08-31T12:36:55Z" uid="64924" user="leck_mich_alle_am_arsch" changeset="2325877" lat="47.4421055" lon="11.7004084"/>
  <node id="478818883" version="2" timestamp="2012-02-03T00:18:35Z" uid="45481" user="borisC" changeset="10572626" lat="47.4421055" lon="11.7004084"/>
  <node id="478818885" version="1" timestamp="2009-08-31T12:36:55Z" uid="64924" user="leck_mich_alle_am_arsch" changeset="2325877" lat="47.4422243" lon="11.7009605"/>
  <node id="478818885" version="2" timestamp="2012-02-01T23:34:47Z" uid="596973" user="korinthenfresser" changeset="10563625" lat="47.4422243" lon="11.7009605"/>
  <node id="478818888" version="1" timestamp="2009-08-31T12:36:55Z" uid="64924" user="leck_mich_alle_am_arsch" changeset="2325877" lat="47.442591" lon="11.7020448"/>
  <node id="478818888" version="2" timestamp="2012-02-01T23:34:47Z" uid="596973" user="korinthenfresser" changeset="10563625" lat="47.442591" lon="11.7020448"/>
  <node id="478818891" version="1" timestamp="2009-08-31T12:36:55Z" uid="64924" user="leck_mich_alle_am_arsch" changeset="2325877" lat="47.4431793" lon="11.7027792"/>
  <node id="478818891" version="2" timestamp="2010-12-11T12:04:20Z" uid="81244" user="rurseekatze" changeset="6622179" lat="47.4431694" lon="11.702789"/>
  <node id="478818891" version="3" timestamp="2011-02-06T18:35:45Z" uid="81244" user="rurseekatze" changeset="7207657" lat="47.4431355" lon="11.7028326"/>
  <node id="478818891" version="4" timestamp="2011-08-26T16:40:00Z" uid="417684" user="Maler" changeset="9129734" lat="47.4431355" lon="11.7028326"/>
  <node id="478818909" version="1" timestamp="2009-08-31T12:36:55Z" uid="64924" user="leck_mich_alle_am_arsch" changeset="2325877" lat="47.4422415" lon="11.700334"/>
  <node id="478818909" version="2" timestamp="2010-12-11T12:04:17Z" uid="81244" user="rurseekatze" changeset="6622179" lat="47.4422288" lon="11.7003455"/>
  <node id="478818909" version="3" timestamp="2012-02-01T23:32:30Z" uid="596973" user="korinthenfresser" changeset="10563625" lat="47.4422218" lon="11.7003224"/>
  <node id="478818909" version="4" timestamp="2012-02-04T13:32:04Z" uid="289334" user="Soldier Boy" changeset="10584133" lat="47.4422218" lon="11.7003224">
    <tag k="source" v="GeoImage.at"/>
  </node>
  <node id="478818912" version="1" timestamp="2009-08-31T12:36:55Z" uid="64924" user="leck_mich_alle_am_arsch" changeset="2325877" lat="47.4424428" lon="11.7011384"/>
  <node id="478818912" version="2" timestamp="2010-12-11T12:04:16Z" uid="81244" user="rurseekatze" changeset="6622179" lat="47.4423933" lon="11.7010255"/>
  <node id="478818912" version="3" timestamp="2011-08-27T16:17:58Z" uid="417684" user="Maler" changeset="9136986" lat="47.4424044" lon="11.701121"/>
  <node id="478818912" version="4" timestamp="2012-02-01T23:32:22Z" uid="596973" user="korinthenfresser" changeset="10563625" lat="47.4424172" lon="11.7011146"/>
  <node id="478818914" version="1" timestamp="2009-08-31T12:36:55Z" uid="64924" user="leck_mich_alle_am_arsch" changeset="2325877" lat="47.4426621" lon="11.7021847"/>
  <node id="478818914" version="2" timestamp="2011-01-22T19:01:40Z" uid="81244" user="rurseekatze" changeset="7053986" lat="47.4426621" lon="11.7021847"/>
  <node id="478818917" version="1" timestamp="2009-08-31T12:36:56Z" uid="64924" user="leck_mich_alle_am_arsch" changeset="2325877" lat="47.4429959" lon="11.7010467"/>
  <node id="478818917" version="2" timestamp="2010-12-11T12:04:26Z" uid="81244" user="rurseekatze" changeset="6622179" lat="47.4429959" lon="11.7010467"/>
  <node id="478818919" version="1" timestamp="2009-08-31T12:36:56Z" uid="64924" user="leck_mich_alle_am_arsch" changeset="2325877" lat="47.4430771" lon="11.7029193"/>
  <node id="478818919" version="2" timestamp="2011-02-06T18:36:45Z" uid="81244" user="rurseekatze" changeset="7207657" lat="47.4430771" lon="11.7029193"/>
  <node id="478818922" version="1" timestamp="2009-08-31T12:36:56Z" uid="64924" user="leck_mich_alle_am_arsch" changeset="2325877" lat="47.4429368" lon="11.7014597"/>
  <node id="478818922" version="2" timestamp="2010-12-11T12:04:20Z" uid="81244" user="rurseekatze" changeset="6622179" lat="47.4429174" lon="11.7014247"/>
  <node id="478818922" version="3" timestamp="2011-08-26T16:40:00Z" uid="417684" user="Maler" changeset="9129734" lat="47.4429174" lon="11.7014247"/>
  <node id="478818925" version="1" timestamp="2009-08-31T12:36:56Z" uid="64924" user="leck_mich_alle_am_arsch" changeset="2325877" lat="47.4428113" lon="11.7024713"/>
  <node id="478818925" version="2" timestamp="2011-02-06T18:36:36Z" uid="81244" user="rurseekatze" changeset="7207657" lat="47.4426327" lon="11.7021184"/>
  <node id="478818925" version="3" timestamp="2011-08-26T16:40:00Z" uid="417684" user="Maler" changeset="9129734" lat="47.4426327" lon="11.7021184"/>
  <node id="478818928" version="1" timestamp="2009-08-31T12:36:56Z" uid="64924" user="leck_mich_alle_am_arsch" changeset="2325877" lat="47.4426807" lon="11.7020928"/>
  <node id="478818928" version="2" timestamp="2011-01-22T19:01:38Z" uid="81244" user="rurseekatze" changeset="7053986" lat="47.4426807" lon="11.7020928"/>
  <node id="478818929" version="1" timestamp="2009-08-31T12:36:56Z" uid="64924" user="leck_mich_alle_am_arsch" changeset="2325877" lat="47.4424785" lon="11.701806"/>
  <node id="478818929" version="2" timestamp="2012-02-01T23:34:48Z" uid="596973" user="korinthenfresser" changeset="10563625" lat="47.4424785" lon="11.701806"/>
  <node id="478818932" version="1" timestamp="2009-08-31T12:36:56Z" uid="64924" user="leck_mich_alle_am_arsch" changeset="2325877" lat="47.4423021" lon="11.7012911"/>
  <node id="478818932" version="2" timestamp="2012-02-01T23:34:47Z" uid="596973" user="korinthenfresser" changeset="10563625" lat="47.4423021" lon="11.7012911"/>
  <node id="478818934" version="1" timestamp="2009-08-31T12:36:56Z" uid="64924" user="leck_mich_alle_am_arsch" changeset="2325877" lat="47.4427293" lon="11.7019704"/>
  <node id="478818934" version="2" timestamp="2010-12-11T12:04:20Z" uid="81244" user="rurseekatze" changeset="6622179" lat="47.4427166" lon="11.7019559"/>
  <node id="478818934" version="3" timestamp="2011-08-26T16:40:00Z" uid="417684" user="Maler" changeset="9129734" lat="47.4427166" lon="11.7019559"/>
  <node id="478818937" version="1" timestamp="2009-08-31T12:36:56Z" uid="64924" user="leck_mich_alle_am_arsch" changeset="2325877" lat="47.442687" lon="11.7020309"/>
  <node id="478818937" version="2" timestamp="2011-02-06T18:35:54Z" uid="81244" user="rurseekatze" changeset="7207657" lat="47.4426859" lon="11.7020236"/>
  <node id="478818937" version="3" timestamp="2011-08-26T16:39:19Z" uid="417684" user="Maler" changeset="9129734" lat="47.4426931" lon="11.7020055"/>
  <node id="478818937" version="4" timestamp="2012-02-01T23:34:47Z" uid="596973" user="korinthenfresser" changeset="10563625" lat="47.4426931" lon="11.7020055"/>
  <node id="478818939" version="1" timestamp="2009-08-31T12:36:56Z" uid="64924" user="leck_mich_alle_am_arsch" changeset="2325877" lat="47.4414623" lon="11.7013647">
    <tag k="name" v="Karwendel"/>
    <tag k="source" v="survey"/>
    <tag k="tourism" v="hotel"/>
  </node>
  <node id="478818939" version="2" timestamp="2009-10-10T11:22:11Z" uid="32786" user="Netzwolf" changeset="2802200" lat="47.4414623" lon="11.7013647">
    <tag k="name" v="Karwendel"/>
    <tag k="source" v="survey"/>
    <tag k="tourism" v="hotel"/>
  </node>
  <node id="478818943" version="1" timestamp="2009-08-31T12:36:56Z" uid="64924" user="leck_mich_alle_am_arsch" changeset="2325877" lat="47.4412815" lon="11.700033">
    <tag k="addr:city" v="Pertisau"/>
    <tag k="addr:country" v="AT"/>
    <tag k="addr:housenumber" v="53G"/>
    <tag k="addr:postcode" v="6213"/>
    <tag k="addr:street" v="Eben/Pertisau"/>
    <tag k="name" v="53G"/>
    <tag k="source" v="survey"/>
  </node>
  <node id="478818943" version="2" timestamp="2009-10-15T18:05:18Z" uid="36809" user="pfoten_weg_!_" changeset="2857512" lat="47.4412815" lon="11.700033">
    <tag k="addr:city" v="Pertisau"/>
    <tag k="addr:country" v="AT"/>
    <tag k="addr:housenumber" v="53G"/>
    <tag k="addr:postcode" v="6213"/>
    <tag k="addr:street" v="Eben/Pertisau"/>
    <tag k="name" v="53G"/>
  </node>
  <node id="478818943" version="3" timestamp="2010-07-19T19:36:41Z" uid="81244" user="rurseekatze" changeset="5264261" lat="47.4411732" lon="11.7001551">
    <tag k="addr:city" v="Pertisau"/>
    <tag k="addr:country" v="AT"/>
    <tag k="addr:housenumber" v="53a"/>
    <tag k="addr:postcode" v="6213"/>
    <tag k="addr:street" v="Eben/Pertisau"/>
  </node>
  <node id="478818943" version="4" timestamp="2010-07-20T06:55:20Z" uid="81244" user="rurseekatze" changeset="5267740" lat="47.4411732" lon="11.7001859">
    <tag k="addr:city" v="Pertisau"/>
    <tag k="addr:country" v="AT"/>
    <tag k="addr:housenumber" v="53a"/>
    <tag k="addr:postcode" v="6213"/>
    <tag k="addr:street" v="Eben/Pertisau"/>
  </node>
  <node id="478818943" version="5" timestamp="2010-08-28T17:57:10Z" uid="81244" user="rurseekatze" changeset="5618542" lat="47.4411732" lon="11.7001859">
    <tag k="addr:city" v="Pertisau"/>
    <tag k="addr:country" v="AT"/>
    <tag k="addr:housenumber" v="53a"/>
    <tag k="addr:postcode" v="6213"/>
    <tag k="addr:street" v="Eben/Pertisau"/>
    <tag k="name" v="Ferienhaus Unger"/>
    <tag k="tourism" v="chalet"/>
  </node>
  <node id="478818943" version="6" timestamp="2010-11-01T17:27:52Z" uid="81244" user="rurseekatze" changeset="6258050" lat="47.4411732" lon="11.7001859">
    <tag k="addr:city" v="Pertisau"/>
    <tag k="addr:country" v="AT"/>
    <tag k="addr:housenumber" v="53g"/>
    <tag k="addr:postcode" v="6213"/>
    <tag k="addr:street" v="Eben/Pertisau"/>
    <tag k="email" v="info@unger-achensee.com"/>
    <tag k="fax" v="+43-5243-623535"/>
    <tag k="name" v="Ferienhaus Unger"/>
    <tag k="operator" v="Familie Unger"/>
    <tag k="phone" v="+43-5243-6235"/>
    <tag k="tourism" v="chalet"/>
    <tag k="website" v="http://www.unger-achensee.at/"/>
  </node>
  <node id="478818943" version="7" timestamp="2011-01-18T19:45:33Z" uid="81244" user="rurseekatze" changeset="7013965" lat="47.4411732" lon="11.7001859">
    <tag k="addr:city" v="Pertisau"/>
    <tag k="addr:country" v="AT"/>
    <tag k="addr:housenumber" v="53g"/>
    <tag k="addr:postcode" v="6213"/>
    <tag k="addr:street" v="Eben/Pertisau"/>
    <tag k="email" v="info@unger-achensee.com"/>
    <tag k="fax" v="+43-5243-623535"/>
    <tag k="name" v="Ferienhaus Unger"/>
    <tag k="operator" v="Familie Unger"/>
    <tag k="phone" v="+43-5243-6235"/>
    <tag k="tourism" v="chalet"/>
    <tag k="website" v="http://www.unger-achensee.at/"/>
  </node>
  <node id="478818949" version="1" timestamp="2009-08-31T12:36:56Z" uid="64924" user="leck_mich_alle_am_arsch" changeset="2325877" lat="47.4410605" lon="11.698449">
    <tag k="addr:city" v="Pertisau"/>
    <tag k="addr:country" v="AT"/>
    <tag k="addr:housenumber" v="52A"/>
    <tag k="addr:postcode" v="6213"/>
    <tag k="addr:street" v="Eben/Pertisau"/>
    <tag k="name" v="52A"/>
    <tag k="source" v="survey"/>
  </node>
  <node id="478818949" version="2" timestamp="2009-10-15T18:05:16Z" uid="36809" user="pfoten_weg_!_" changeset="2857512" lat="47.4410605" lon="11.698449">
    <tag k="addr:city" v="Pertisau"/>
    <tag k="addr:country" v="AT"/>
    <tag k="addr:housenumber" v="52A"/>
    <tag k="addr:postcode" v="6213"/>
    <tag k="addr:street" v="Eben/Pertisau"/>
    <tag k="name" v="52A"/>
  </node>
  <node id="478818949" version="3" timestamp="2010-07-19T19:36:41Z" uid="81244" user="rurseekatze" changeset="5264261" lat="47.4409024" lon="11.6984917">
    <tag k="addr:city" v="Pertisau"/>
    <tag k="addr:country" v="AT"/>
    <tag k="addr:housenumber" v="52a"/>
    <tag k="addr:postcode" v="6213"/>
    <tag k="addr:street" v="Eben/Pertisau"/>
  </node>
  <node id="478818949" version="4" timestamp="2010-12-08T16:17:47Z" uid="81244" user="rurseekatze" changeset="6586724" lat="47.4409024" lon="11.6984917">
    <tag k="addr:city" v="Pertisau"/>
    <tag k="addr:country" v="AT"/>
    <tag k="addr:housenumber" v="52a"/>
    <tag k="addr:postcode" v="6213"/>
    <tag k="addr:street" v="Eben/Pertisau"/>
  </node>
  <node id="478818953" version="1" timestamp="2009-08-31T12:36:56Z" uid="64924" user="leck_mich_alle_am_arsch" changeset="2325877" lat="47.4414305" lon="11.701335">
    <tag k="addr:city" v="Pertisau"/>
    <tag k="addr:country" v="AT"/>
    <tag k="addr:housenumber" v="54A Karwendel Hotel"/>
    <tag k="addr:postcode" v="6213"/>
    <tag k="addr:street" v="Eben/Pertisau"/>
    <tag k="name" v="54A Karwendel Hotel"/>
    <tag k="source" v="survey"/>
  </node>
  <node id="478818953" version="2" timestamp="2009-10-10T11:22:09Z" uid="32786" user="Netzwolf" changeset="2802200" lat="47.4414557" lon="11.701338">
    <tag k="addr:city" v="Pertisau"/>
    <tag k="addr:country" v="AT"/>
    <tag k="addr:housenumber" v="54A Karwendel Hotel"/>
    <tag k="addr:postcode" v="6213"/>
    <tag k="addr:street" v="Eben/Pertisau"/>
    <tag k="name" v="54A Karwendel Hotel;Karwendel"/>
    <tag k="source" v="survey"/>
    <tag k="tourism" v="hotel"/>
  </node>
  <node id="478818953" version="3" timestamp="2009-10-15T18:05:36Z" uid="36809" user="pfoten_weg_!_" changeset="2857512" lat="47.4414557" lon="11.701338">
    <tag k="addr:city" v="Pertisau"/>
    <tag k="addr:country" v="AT"/>
    <tag k="addr:housenumber" v="54A Karwendel Hotel"/>
    <tag k="addr:postcode" v="6213"/>
    <tag k="addr:street" v="Eben/Pertisau"/>
    <tag k="name" v="54A Karwendel Hotel;Karwendel"/>
    <tag k="tourism" v="hotel"/>
  </node>
  <node id="478818953" version="4" timestamp="2010-07-20T06:55:18Z" uid="81244" user="rurseekatze" changeset="5267740" lat="47.4413603" lon="11.7013512">
    <tag k="addr:city" v="Pertisau"/>
    <tag k="addr:country" v="AT"/>
    <tag k="addr:housenumber" v="54A Karwendel Hotel"/>
    <tag k="addr:postcode" v="6213"/>
    <tag k="addr:street" v="Eben/Pertisau"/>
    <tag k="name" v="54A Karwendel Hotel;Karwendel"/>
    <tag k="tourism" v="hotel"/>
  </node>
  <node id="478818953" version="5" timestamp="2010-08-19T16:58:44Z" uid="81244" user="rurseekatze" changeset="5537128" lat="47.4413445" lon="11.7012291">
    <tag k="addr:city" v="Pertisau"/>
    <tag k="addr:country" v="AT"/>
    <tag k="addr:housenumber" v="54A Karwendel Hotel"/>
    <tag k="addr:postcode" v="6213"/>
    <tag k="addr:street" v="Eben/Pertisau"/>
    <tag k="amenity" v="restaurant"/>
    <tag k="cuisine" v="regional"/>
    <tag k="name" v="Hotel Karwendel"/>
    <tag k="stars" v="4"/>
    <tag k="tourism" v="hotel"/>
  </node>
  <node id="478818953" version="6" timestamp="2010-11-12T21:43:48Z" uid="81244" user="rurseekatze" changeset="6354512" lat="47.4413445" lon="11.7012291">
    <tag k="addr:city" v="Pertisau"/>
    <tag k="addr:country" v="AT"/>
    <tag k="addr:housenumber" v="54A Karwendel Hotel"/>
    <tag k="addr:postcode" v="6213"/>
    <tag k="addr:street" v="Eben/Pertisau"/>
    <tag k="amenity" v="restaurant"/>
    <tag k="cuisine" v="regional"/>
    <tag k="name" v="Hotel Karwendel"/>
    <tag k="stars" v="4"/>
    <tag k="tourism" v="hotel"/>
  </node>
  <node id="478818955" version="1" timestamp="2009-08-31T12:36:56Z" uid="64924" user="leck_mich_alle_am_arsch" changeset="2325877" lat="47.4413325" lon="11.699114">
    <tag k="addr:city" v="Pertisau"/>
    <tag k="addr:country" v="AT"/>
    <tag k="addr:housenumber" v="53E"/>
    <tag k="addr:postcode" v="6213"/>
    <tag k="addr:street" v="Eben/Pertisau"/>
    <tag k="name" v="53E"/>
    <tag k="source" v="survey"/>
  </node>
  <node id="478818955" version="2" timestamp="2009-10-15T18:05:20Z" uid="36809" user="pfoten_weg_!_" changeset="2857512" lat="47.4413325" lon="11.699114">
    <tag k="addr:city" v="Pertisau"/>
    <tag k="addr:country" v="AT"/>
    <tag k="addr:housenumber" v="53E"/>
    <tag k="addr:postcode" v="6213"/>
    <tag k="addr:street" v="Eben/Pertisau"/>
    <tag k="name" v="53E"/>
  </node>
  <node id="478818955" version="3" timestamp="2010-07-19T19:36:41Z" uid="81244" user="rurseekatze" changeset="5264261" lat="47.441357" lon="11.6989061">
    <tag k="addr:city" v="Pertisau"/>
    <tag k="addr:country" v="AT"/>
    <tag k="addr:housenumber" v="53e"/>
    <tag k="addr:postcode" v="6213"/>
    <tag k="addr:street" v="Eben/Pertisau"/>
  </node>
  <node id="478818955" version="4" timestamp="2010-08-19T16:37:22Z" uid="81244" user="rurseekatze" changeset="5536979" lat="47.441357" lon="11.6989061">
    <tag k="addr:city" v="Pertisau"/>
    <tag k="addr:country" v="AT"/>
    <tag k="addr:housenumber" v="53e"/>
    <tag k="addr:postcode" v="6213"/>
    <tag k="addr:street" v="Eben/Pertisau"/>
    <tag k="amenity" v="cafe"/>
    <tag k="cuisine" v="regional"/>
    <tag k="name" v="Jaus&apos;n Stüberl"/>
    <tag k="shop" v="deli"/>
  </node>
  <node id="478818955" version="5" timestamp="2010-08-28T16:04:11Z" uid="44671" user="Thomas1950" changeset="5617565" lat="47.441357" lon="11.6989061">
    <tag k="addr:city" v="Pertisau"/>
    <tag k="addr:country" v="AT"/>
    <tag k="addr:housenumber" v="53e"/>
    <tag k="addr:postcode" v="6213"/>
    <tag k="addr:street" v="Eben/Pertisau"/>
    <tag k="amenity" v="cafe"/>
    <tag k="cuisine" v="regional"/>
    <tag k="name" v="Jaus&apos;n Stüberl"/>
    <tag k="shop" v="deli"/>
    <tag k="tourism" v="guest_house"/>
  </node>
  <node id="478818955" version="6" timestamp="2011-08-27T16:52:08Z" uid="417684" user="Maler" changeset="9136986" lat="47.441357" lon="11.6989061"/>
  <node id="478818957" version="1" timestamp="2009-08-31T12:36:56Z" uid="64924" user="leck_mich_alle_am_arsch" changeset="2325877" lat="47.4416535" lon="11.7010683">
    <tag k="addr:city" v="Pertisau"/>
    <tag k="addr:country" v="AT"/>
    <tag k="addr:housenumber" v="53D"/>
    <tag k="addr:postcode" v="6213"/>
    <tag k="addr:street" v="Eben/Pertisau"/>
    <tag k="amenity" v="post_office"/>
    <tag k="name" v="6213 Pertisau"/>
    <tag k="postal_code" v="6213"/>
    <tag k="ref" v="6213"/>
    <tag k="source" v="survey"/>
    <tag k="type" v="Post-Servicestelle"/>
  </node>
  <node id="478818957" version="2" timestamp="2009-10-15T18:05:37Z" uid="36809" user="pfoten_weg_!_" changeset="2857512" lat="47.4416535" lon="11.7010683">
    <tag k="addr:city" v="Pertisau"/>
    <tag k="addr:country" v="AT"/>
    <tag k="addr:housenumber" v="53D"/>
    <tag k="addr:postcode" v="6213"/>
    <tag k="addr:street" v="Eben/Pertisau"/>
    <tag k="amenity" v="post_office"/>
    <tag k="name" v="6213 Pertisau"/>
    <tag k="postal_code" v="6213"/>
    <tag k="ref" v="6213"/>
    <tag k="type" v="Post-Servicestelle"/>
  </node>
  <node id="478818957" version="3" timestamp="2010-07-20T06:55:20Z" uid="81244" user="rurseekatze" changeset="5267740" lat="47.4416962" lon="11.7010328">
    <tag k="addr:city" v="Pertisau"/>
    <tag k="addr:country" v="AT"/>
    <tag k="addr:housenumber" v="53D"/>
    <tag k="addr:postcode" v="6213"/>
    <tag k="addr:street" v="Eben/Pertisau"/>
    <tag k="amenity" v="post_office"/>
    <tag k="name" v="6213 Pertisau"/>
    <tag k="postal_code" v="6213"/>
    <tag k="ref" v="6213"/>
    <tag k="type" v="Post-Servicestelle"/>
  </node>
  <node id="478818957" version="4" timestamp="2010-07-20T08:05:22Z" uid="81244" user="rurseekatze" changeset="5268158" lat="47.4416502" lon="11.7009415">
    <tag k="addr:city" v="Pertisau"/>
    <tag k="addr:country" v="AT"/>
    <tag k="addr:housenumber" v="53D"/>
    <tag k="addr:postcode" v="6213"/>
    <tag k="addr:street" v="Eben/Pertisau"/>
    <tag k="amenity" v="post_office"/>
    <tag k="fixme" v="position"/>
    <tag k="name" v="6213 Pertisau"/>
    <tag k="postal_code" v="6213"/>
    <tag k="ref" v="6213"/>
    <tag k="type" v="Post-Servicestelle"/>
  </node>
  <node id="478818957" version="5" timestamp="2010-08-14T17:06:09Z" uid="81244" user="rurseekatze" changeset="5492579" lat="47.4416502" lon="11.7009415">
    <tag k="addr:city" v="Pertisau"/>
    <tag k="addr:country" v="AT"/>
    <tag k="addr:housenumber" v="53D"/>
    <tag k="addr:postcode" v="6213"/>
    <tag k="addr:street" v="Eben/Pertisau"/>
    <tag k="amenity" v="post_office"/>
    <tag k="fixme" v="position"/>
    <tag k="name" v="6213 Pertisau"/>
    <tag k="postal_code" v="6213"/>
    <tag k="ref" v="6213"/>
    <tag k="type" v="Post-Servicestelle"/>
  </node>
  <node id="478818961" version="1" timestamp="2009-08-31T12:36:56Z" uid="64924" user="leck_mich_alle_am_arsch" changeset="2325877" lat="47.4414383" lon="11.7011169">
    <tag k="amenity" v="restaurant"/>
    <tag k="name" v="Karwendel"/>
    <tag k="source" v="survey"/>
  </node>
  <node id="478818961" version="2" timestamp="2009-10-15T18:05:39Z" uid="36809" user="pfoten_weg_!_" changeset="2857512" lat="47.4414383" lon="11.7011169">
    <tag k="amenity" v="restaurant"/>
    <tag k="name" v="Karwendel"/>
  </node>
  <node id="478818961" version="3" timestamp="2010-07-20T06:55:20Z" uid="81244" user="rurseekatze" changeset="5267740" lat="47.4413342" lon="11.7011323">
    <tag k="amenity" v="restaurant"/>
    <tag k="name" v="Karwendel"/>
  </node>
  <node id="478818961" version="4" timestamp="2010-08-19T16:58:45Z" uid="81244" user="rurseekatze" changeset="5537128" lat="47.4413342" lon="11.7011323">
    <tag k="amenity" v="restaurant"/>
    <tag k="name" v="Karwendel"/>
  </node>
  <node id="478818967" version="1" timestamp="2009-08-31T12:36:57Z" uid="64924" user="leck_mich_alle_am_arsch" changeset="2325877" lat="47.4393963" lon="11.703502">
    <tag k="name" v="Hotel Post am See"/>
    <tag k="source" v="survey"/>
    <tag k="tourism" v="hotel"/>
  </node>
  <node id="478818967" version="2" timestamp="2009-10-15T18:05:42Z" uid="36809" user="pfoten_weg_!_" changeset="2857512" lat="47.4393963" lon="11.703502">
    <tag k="name" v="Hotel Post am See"/>
    <tag k="tourism" v="hotel"/>
  </node>
  <node id="478818967" version="3" timestamp="2011-01-15T18:36:45Z" uid="81244" user="rurseekatze" changeset="6980531" lat="47.4393963" lon="11.703502">
    <tag k="name" v="Hotel Post am See"/>
    <tag k="tourism" v="hotel"/>
  </node>
  <node id="478818971" version="1" timestamp="2009-08-31T12:36:57Z" uid="64924" user="leck_mich_alle_am_arsch" changeset="2325877" lat="47.4407049" lon="11.7031897">
    <tag k="name" v="Hotel Entner"/>
    <tag k="source" v="survey"/>
    <tag k="tourism" v="hotel"/>
  </node>
  <node id="478818971" version="2" timestamp="2009-10-15T18:05:50Z" uid="36809" user="pfoten_weg_!_" changeset="2857512" lat="47.4407049" lon="11.7031897">
    <tag k="name" v="Hotel Entner"/>
    <tag k="tourism" v="hotel"/>
  </node>
  <node id="478818971" version="3" timestamp="2010-07-20T06:55:19Z" uid="81244" user="rurseekatze" changeset="5267740" lat="47.4404012" lon="11.7033139">
    <tag k="addr:city" v="Pertisau"/>
    <tag k="addr:country" v="AT"/>
    <tag k="addr:housenumber" v="72"/>
    <tag k="addr:postcode" v="6213"/>
    <tag k="addr:street" v="Eben/Pertisau"/>
    <tag k="amenity" v="restaurant"/>
    <tag k="email" v="info@strandhotel.at"/>
    <tag k="fax" v="+43-5243-5985113"/>
    <tag k="name" v="Strandhotel Entner"/>
    <tag k="operator" v="Familie Joschi Entner"/>
    <tag k="phone" v="+43-5243-55590"/>
    <tag k="tourism" v="hotel"/>
    <tag k="website" v="http://www.strandhotel.at/"/>
  </node>
  <node id="478818971" version="4" timestamp="2010-12-05T09:50:30Z" uid="81244" user="rurseekatze" changeset="6548249" lat="47.4404012" lon="11.7033139">
    <tag k="addr:city" v="Pertisau"/>
    <tag k="addr:country" v="AT"/>
    <tag k="addr:housenumber" v="72"/>
    <tag k="addr:postcode" v="6213"/>
    <tag k="addr:street" v="Eben/Pertisau"/>
    <tag k="amenity" v="restaurant"/>
    <tag k="email" v="info@strandhotel.at"/>
    <tag k="fax" v="+43-5243-5985113"/>
    <tag k="name" v="Strandhotel Entner"/>
    <tag k="operator" v="Familie Joschi Entner"/>
    <tag k="phone" v="+43-5243-55590"/>
    <tag k="tourism" v="hotel"/>
    <tag k="website" v="http://www.strandhotel.at/"/>
  </node>
  <node id="478818973" version="1" timestamp="2009-08-31T12:36:57Z" uid="64924" user="leck_mich_alle_am_arsch" changeset="2325877" lat="47.4416553" lon="11.7011519">
    <tag k="amenity" v="telephone"/>
    <tag k="source" v="survey"/>
  </node>
  <node id="478818973" version="2" timestamp="2009-10-15T18:05:39Z" uid="36809" user="pfoten_weg_!_" changeset="2857512" lat="47.4416553" lon="11.7011519">
    <tag k="amenity" v="telephone"/>
  </node>
  <node id="478818973" version="3" timestamp="2010-07-20T06:55:20Z" uid="81244" user="rurseekatze" changeset="5267740" lat="47.441698" lon="11.7011164">
    <tag k="amenity" v="telephone"/>
  </node>
  <node id="478818973" version="4" timestamp="2010-07-20T08:05:23Z" uid="81244" user="rurseekatze" changeset="5268158" lat="47.4416939" lon="11.7009901">
    <tag k="amenity" v="telephone"/>
  </node>
  <node id="478818973" version="5" timestamp="2010-08-19T16:21:35Z" uid="81244" user="rurseekatze" changeset="5536839" lat="47.4416775" lon="11.7009932">
    <tag k="amenity" v="telephone"/>
    <tag k="name" v="Pertisau Postamt Zelle I"/>
    <tag k="ref" v="11"/>
  </node>
  <node id="478818973" version="6" timestamp="2012-02-03T00:18:31Z" uid="45481" user="borisC" changeset="10572626" lat="47.4416775" lon="11.7009932"/>
  <node id="478818976" version="1" timestamp="2009-08-31T12:36:57Z" uid="64924" user="leck_mich_alle_am_arsch" changeset="2325877" lat="47.4411035" lon="11.699047">
    <tag k="addr:city" v="Pertisau"/>
    <tag k="addr:country" v="AT"/>
    <tag k="addr:housename" v="Gebäude"/>
    <tag k="addr:housenumber" v="53C"/>
    <tag k="addr:postcode" v="6213"/>
    <tag k="addr:street" v="Eben/Pertisau"/>
    <tag k="name" v="53C"/>
    <tag k="source" v="survey"/>
  </node>
  <node id="478818976" version="2" timestamp="2009-10-15T18:05:17Z" uid="36809" user="pfoten_weg_!_" changeset="2857512" lat="47.4411035" lon="11.699047">
    <tag k="addr:city" v="Pertisau"/>
    <tag k="addr:country" v="AT"/>
    <tag k="addr:housename" v="Gebäude"/>
    <tag k="addr:housenumber" v="53C"/>
    <tag k="addr:postcode" v="6213"/>
    <tag k="addr:street" v="Eben/Pertisau"/>
    <tag k="name" v="53C"/>
  </node>
  <node id="478818976" version="3" timestamp="2010-05-22T09:39:07Z" uid="81244" user="rurseekatze" changeset="4772735" lat="47.4411035" lon="11.699047">
    <tag k="addr:city" v="Pertisau"/>
    <tag k="addr:country" v="AT"/>
    <tag k="addr:housenumber" v="53C"/>
    <tag k="addr:postcode" v="6213"/>
    <tag k="addr:street" v="Eben/Pertisau"/>
    <tag k="name" v="53C"/>
  </node>
  <node id="478818976" version="4" timestamp="2010-07-19T19:36:41Z" uid="81244" user="rurseekatze" changeset="5264261" lat="47.4409742" lon="11.6991266">
    <tag k="addr:city" v="Pertisau"/>
    <tag k="addr:country" v="AT"/>
    <tag k="addr:housenumber" v="53c"/>
    <tag k="addr:postcode" v="6213"/>
    <tag k="addr:street" v="Eben/Pertisau"/>
  </node>
  <node id="478818976" version="5" timestamp="2010-08-19T16:33:43Z" uid="81244" user="rurseekatze" changeset="5536957" lat="47.4409742" lon="11.6991266">
    <tag k="addr:city" v="Pertisau"/>
    <tag k="addr:country" v="AT"/>
    <tag k="addr:housenumber" v="53c"/>
    <tag k="addr:postcode" v="6213"/>
    <tag k="addr:street" v="Eben/Pertisau"/>
    <tag k="name" v="Haus Seeberg"/>
    <tag k="tourism" v="chalet"/>
  </node>
  <node id="478818976" version="6" timestamp="2010-11-12T21:43:48Z" uid="81244" user="rurseekatze" changeset="6354512" lat="47.4409742" lon="11.6991266">
    <tag k="addr:city" v="Pertisau"/>
    <tag k="addr:country" v="AT"/>
    <tag k="addr:housenumber" v="53c"/>
    <tag k="addr:postcode" v="6213"/>
    <tag k="addr:street" v="Eben/Pertisau"/>
    <tag k="name" v="Haus Seeberg"/>
    <tag k="tourism" v="chalet"/>
  </node>
  <node id="478818982" version="1" timestamp="2009-08-31T12:36:57Z" uid="64924" user="leck_mich_alle_am_arsch" changeset="2325877" lat="47.4414076" lon="11.7006111">
    <tag k="addr:city" v="Pertisau"/>
    <tag k="addr:country" v="AT"/>
    <tag k="addr:housenumber" v="54"/>
    <tag k="addr:postcode" v="6213"/>
    <tag k="addr:street" v="Eben/Pertisau"/>
    <tag k="name" v="54"/>
    <tag k="source" v="survey"/>
  </node>
  <node id="478818982" version="2" timestamp="2009-10-15T18:05:36Z" uid="36809" user="pfoten_weg_!_" changeset="2857512" lat="47.4414076" lon="11.7006111">
    <tag k="addr:city" v="Pertisau"/>
    <tag k="addr:country" v="AT"/>
    <tag k="addr:housenumber" v="54"/>
    <tag k="addr:postcode" v="6213"/>
    <tag k="addr:street" v="Eben/Pertisau"/>
    <tag k="name" v="54"/>
  </node>
  <node id="478818982" version="3" timestamp="2010-07-19T19:36:41Z" uid="81244" user="rurseekatze" changeset="5264261" lat="47.4412765" lon="11.7006889">
    <tag k="addr:city" v="Pertisau"/>
    <tag k="addr:country" v="AT"/>
    <tag k="addr:housenumber" v="54"/>
    <tag k="addr:postcode" v="6213"/>
    <tag k="addr:street" v="Eben/Pertisau"/>
  </node>
  <node id="478818982" version="4" timestamp="2010-07-20T06:55:19Z" uid="81244" user="rurseekatze" changeset="5267740" lat="47.441253" lon="11.70067">
    <tag k="addr:city" v="Pertisau"/>
    <tag k="addr:country" v="AT"/>
    <tag k="addr:housenumber" v="54"/>
    <tag k="addr:postcode" v="6213"/>
    <tag k="addr:street" v="Eben/Pertisau"/>
  </node>
  <node id="478818982" version="5" timestamp="2010-08-14T16:53:18Z" uid="81244" user="rurseekatze" changeset="5492476" lat="47.4412656" lon="11.7006638">
    <tag k="addr:city" v="Pertisau"/>
    <tag k="addr:country" v="AT"/>
    <tag k="addr:housenumber" v="54"/>
    <tag k="addr:postcode" v="6213"/>
    <tag k="addr:street" v="Eben/Pertisau"/>
  </node>
  <node id="478818982" version="6" timestamp="2010-11-12T21:43:42Z" uid="81244" user="rurseekatze" changeset="6354512" lat="47.4412656" lon="11.7006638">
    <tag k="addr:city" v="Pertisau"/>
    <tag k="addr:country" v="AT"/>
    <tag k="addr:housenumber" v="54"/>
    <tag k="addr:postcode" v="6213"/>
    <tag k="addr:street" v="Eben/Pertisau"/>
  </node>
  <node id="478818986" version="1" timestamp="2009-08-31T12:36:57Z" uid="64924" user="leck_mich_alle_am_arsch" changeset="2325877" lat="47.4417065" lon="11.699093">
    <tag k="addr:city" v="Pertisau"/>
    <tag k="addr:country" v="AT"/>
    <tag k="addr:housenumber" v="52B"/>
    <tag k="addr:postcode" v="6213"/>
    <tag k="addr:street" v="Eben/Pertisau"/>
    <tag k="name" v="52B"/>
    <tag k="source" v="survey"/>
  </node>
  <node id="478818986" version="2" timestamp="2009-10-15T18:05:19Z" uid="36809" user="pfoten_weg_!_" changeset="2857512" lat="47.4417065" lon="11.699093">
    <tag k="addr:city" v="Pertisau"/>
    <tag k="addr:country" v="AT"/>
    <tag k="addr:housenumber" v="52B"/>
    <tag k="addr:postcode" v="6213"/>
    <tag k="addr:street" v="Eben/Pertisau"/>
    <tag k="name" v="52B"/>
  </node>
  <node id="478818986" version="3" timestamp="2010-07-19T19:36:42Z" uid="81244" user="rurseekatze" changeset="5264261" lat="47.4416919" lon="11.698974">
    <tag k="addr:city" v="Pertisau"/>
    <tag k="addr:country" v="AT"/>
    <tag k="addr:housenumber" v="52b"/>
    <tag k="addr:postcode" v="6213"/>
    <tag k="addr:street" v="Eben/Pertisau"/>
  </node>
  <node id="478818986" version="4" timestamp="2010-08-28T17:57:09Z" uid="81244" user="rurseekatze" changeset="5618542" lat="47.4416919" lon="11.698974">
    <tag k="addr:city" v="Pertisau"/>
    <tag k="addr:country" v="AT"/>
    <tag k="addr:housenumber" v="52b"/>
    <tag k="addr:postcode" v="6213"/>
    <tag k="addr:street" v="Eben/Pertisau"/>
    <tag k="amenity" v="cafe"/>
    <tag k="leisure" v="sports_centre"/>
    <tag k="sport" v="tennis"/>
  </node>
  <node id="478818986" version="5" timestamp="2011-08-27T16:52:01Z" uid="417684" user="Maler" changeset="9136986" lat="47.4417185" lon="11.6990308">
    <tag k="addr:city" v="Pertisau"/>
    <tag k="addr:country" v="AT"/>
    <tag k="addr:housenumber" v="52b"/>
    <tag k="addr:postcode" v="6213"/>
    <tag k="addr:street" v="Eben/Pertisau"/>
    <tag k="amenity" v="cafe"/>
    <tag k="leisure" v="sports_centre"/>
    <tag k="sport" v="tennis"/>
  </node>
  <node id="478818986" version="6" timestamp="2012-02-02T11:01:25Z" uid="596973" user="korinthenfresser" changeset="10566369" lat="47.4417185" lon="11.6990308"/>
  <node id="478818991" version="1" timestamp="2009-08-31T12:36:57Z" uid="64924" user="leck_mich_alle_am_arsch" changeset="2325877" lat="47.4398672" lon="11.696445">
    <tag k="amenity" v="place_of_worship"/>
    <tag k="religion" v="christian"/>
    <tag k="source" v="survey"/>
  </node>
  <node id="478818991" version="2" timestamp="2009-10-15T18:05:06Z" uid="36809" user="pfoten_weg_!_" changeset="2857512" lat="47.4398672" lon="11.696445">
    <tag k="amenity" v="place_of_worship"/>
    <tag k="religion" v="christian"/>
  </node>
  <node id="478818991" version="3" timestamp="2010-08-15T17:08:50Z" uid="81244" user="rurseekatze" changeset="5502073" lat="47.4399373" lon="11.6961872">
    <tag k="amenity" v="place_of_worship"/>
    <tag k="religion" v="christian"/>
  </node>
  <node id="478818991" version="4" timestamp="2010-08-15T17:37:34Z" uid="81244" user="rurseekatze" changeset="5502338" lat="47.4399841" lon="11.6962655">
    <tag k="amenity" v="place_of_worship"/>
    <tag k="religion" v="christian"/>
  </node>
  <node id="478818991" version="5" timestamp="2011-08-27T17:10:29Z" uid="417684" user="Maler" changeset="9136986" lat="47.4399841" lon="11.6962655"/>
  <node id="478818994" version="1" timestamp="2009-08-31T12:36:57Z" uid="64924" user="leck_mich_alle_am_arsch" changeset="2325877" lat="47.4417243" lon="11.7013295">
    <tag k="amenity" v="restaurant"/>
    <tag k="name" v="Gasthof Klara"/>
    <tag k="tourism" v="guest_house"/>
  </node>
  <node id="478818994" version="2" timestamp="2010-07-20T06:55:20Z" uid="81244" user="rurseekatze" changeset="5267740" lat="47.4417296" lon="11.7014775">
    <tag k="amenity" v="restaurant"/>
    <tag k="name" v="Gasthof Klara"/>
    <tag k="tourism" v="guest_house"/>
  </node>
  <node id="478818994" version="3" timestamp="2011-01-18T19:45:34Z" uid="81244" user="rurseekatze" changeset="7013965" lat="47.4417296" lon="11.7014775">
    <tag k="amenity" v="restaurant"/>
    <tag k="name" v="Gasthof Klara"/>
    <tag k="tourism" v="guest_house"/>
  </node>
  <node id="478818996" version="1" timestamp="2009-08-31T12:36:57Z" uid="64924" user="leck_mich_alle_am_arsch" changeset="2325877" lat="47.4414863" lon="11.7016189">
    <tag k="amenity" v="bank"/>
    <tag k="atm" v="yes"/>
  </node>
  <node id="478818996" version="2" timestamp="2010-07-20T06:55:19Z" uid="81244" user="rurseekatze" changeset="5267740" lat="47.4413931" lon="11.7016264">
    <tag k="amenity" v="bank"/>
    <tag k="atm" v="yes"/>
  </node>
  <node id="478818996" version="3" timestamp="2010-11-12T21:43:47Z" uid="81244" user="rurseekatze" changeset="6354512" lat="47.4413931" lon="11.7016264">
    <tag k="amenity" v="bank"/>
    <tag k="atm" v="yes"/>
  </node>
  <node id="478819000" version="1" timestamp="2009-08-31T12:36:57Z" uid="64924" user="leck_mich_alle_am_arsch" changeset="2325877" lat="47.4410695" lon="11.6969959">
    <tag k="name" v="Rieser"/>
    <tag k="source" v="survey"/>
    <tag k="tourism" v="hotel"/>
  </node>
  <node id="478819000" version="2" timestamp="2009-10-15T18:05:07Z" uid="36809" user="pfoten_weg_!_" changeset="2857512" lat="47.4410695" lon="11.6969959">
    <tag k="name" v="Rieser"/>
    <tag k="tourism" v="hotel"/>
  </node>
  <node id="478819000" version="3" timestamp="2010-08-19T16:37:23Z" uid="81244" user="rurseekatze" changeset="5536979" lat="47.441182" lon="11.6972785">
    <tag k="name" v="Hotel Rieser"/>
    <tag k="tourism" v="hotel"/>
  </node>
  <node id="478819000" version="4" timestamp="2010-08-28T16:04:17Z" uid="44671" user="Thomas1950" changeset="5617565" lat="47.441182" lon="11.6972785">
    <tag k="addr:city" v="Pertisau"/>
    <tag k="addr:country" v="AT"/>
    <tag k="addr:housenumber" v="52"/>
    <tag k="addr:postcode" v="6213"/>
    <tag k="addr:street" v="Eben/Pertisau"/>
    <tag k="name" v="Hotel Rieser"/>
    <tag k="tourism" v="hotel"/>
  </node>
  <node id="478819000" version="5" timestamp="2011-08-27T16:52:08Z" uid="417684" user="Maler" changeset="9136986" lat="47.441182" lon="11.6972785"/>
  <node id="478819004" version="1" timestamp="2009-08-31T12:36:57Z" uid="64924" user="leck_mich_alle_am_arsch" changeset="2325877" lat="47.4404575" lon="11.695789">
    <tag k="addr:city" v="Pertisau"/>
    <tag k="addr:country" v="AT"/>
    <tag k="addr:housenumber" v="37A"/>
    <tag k="addr:postcode" v="6213"/>
    <tag k="addr:street" v="Eben/Pertisau"/>
    <tag k="name" v="37A"/>
    <tag k="source" v="survey"/>
  </node>
  <node id="478819004" version="2" timestamp="2009-10-15T18:05:06Z" uid="36809" user="pfoten_weg_!_" changeset="2857512" lat="47.4404575" lon="11.695789">
    <tag k="addr:city" v="Pertisau"/>
    <tag k="addr:country" v="AT"/>
    <tag k="addr:housenumber" v="37A"/>
    <tag k="addr:postcode" v="6213"/>
    <tag k="addr:street" v="Eben/Pertisau"/>
    <tag k="name" v="37A"/>
  </node>
  <node id="478819004" version="3" timestamp="2010-07-19T19:36:41Z" uid="81244" user="rurseekatze" changeset="5264261" lat="47.4403966" lon="11.6958928">
    <tag k="addr:city" v="Pertisau"/>
    <tag k="addr:country" v="AT"/>
    <tag k="addr:housenumber" v="37a"/>
    <tag k="addr:postcode" v="6213"/>
    <tag k="addr:street" v="Eben/Pertisau"/>
  </node>
  <node id="478819004" version="4" timestamp="2010-08-15T17:35:26Z" uid="81244" user="rurseekatze" changeset="5502316" lat="47.4403966" lon="11.6958928">
    <tag k="addr:city" v="Pertisau"/>
    <tag k="addr:country" v="AT"/>
    <tag k="addr:housenumber" v="37a"/>
    <tag k="addr:postcode" v="6213"/>
    <tag k="addr:street" v="Eben/Pertisau"/>
    <tag k="name" v="Haus Federspiel"/>
    <tag k="tourism" v="guest_house"/>
  </node>
  <node id="478819004" version="5" timestamp="2011-08-27T17:10:25Z" uid="417684" user="Maler" changeset="9136986" lat="47.4403966" lon="11.6958928"/>
  <node id="478819008" version="1" timestamp="2009-08-31T12:36:57Z" uid="64924" user="leck_mich_alle_am_arsch" changeset="2325877" lat="47.4408473" lon="11.7032897">
    <tag k="amenity" v="restaurant"/>
    <tag k="name" v="Entner&apos;s Wirsthaus am See"/>
    <tag k="source" v="survey"/>
  </node>
  <node id="478819008" version="2" timestamp="2009-10-15T18:05:49Z" uid="36809" user="pfoten_weg_!_" changeset="2857512" lat="47.4408473" lon="11.7032897">
    <tag k="amenity" v="restaurant"/>
    <tag k="name" v="Entner&apos;s Wirsthaus am See"/>
  </node>
  <node id="478819008" version="3" timestamp="2010-07-20T06:55:20Z" uid="81244" user="rurseekatze" changeset="5267740" lat="47.4408473" lon="11.7032897">
    <tag k="amenity" v="restaurant"/>
    <tag k="name" v="Entner&apos;s Wirsthaus am See"/>
  </node>
  <node id="478819012" version="1" timestamp="2009-08-31T12:36:57Z" uid="64924" user="leck_mich_alle_am_arsch" changeset="2325877" lat="47.4401108" lon="11.7032912">
    <tag k="name" v="Hotel Einwaller"/>
    <tag k="source" v="survey"/>
    <tag k="tourism" v="hotel"/>
  </node>
  <node id="478819012" version="2" timestamp="2009-10-15T18:05:47Z" uid="36809" user="pfoten_weg_!_" changeset="2857512" lat="47.4401108" lon="11.7032912">
    <tag k="name" v="Hotel Einwaller"/>
    <tag k="tourism" v="hotel"/>
  </node>
  <node id="478819012" version="3" timestamp="2010-07-20T06:55:19Z" uid="81244" user="rurseekatze" changeset="5267740" lat="47.4401108" lon="11.7032912">
    <tag k="fixme" v="exact position, contact, address, operator"/>
    <tag k="name" v="Hotel Einwaller"/>
    <tag k="tourism" v="hotel"/>
  </node>
  <node id="478819012" version="4" timestamp="2011-02-06T18:14:33Z" uid="81244" user="rurseekatze" changeset="7207323" lat="47.4401108" lon="11.7032912">
    <tag k="fixme" v="exact position, contact, address, operator"/>
    <tag k="name" v="Hotel Einwaller"/>
    <tag k="tourism" v="hotel"/>
  </node>
  <node id="478819017" version="1" timestamp="2009-08-31T12:36:57Z" uid="64924" user="leck_mich_alle_am_arsch" changeset="2325877" lat="47.441476" lon="11.701556">
    <tag k="amenity" v="bureau_de_change"/>
    <tag k="source" v="survey"/>
  </node>
  <node id="478819017" version="2" timestamp="2009-10-15T18:05:35Z" uid="36809" user="pfoten_weg_!_" changeset="2857512" lat="47.441476" lon="11.701556">
    <tag k="amenity" v="bureau_de_change"/>
  </node>
  <node id="478819017" version="3" timestamp="2010-07-20T06:55:20Z" uid="81244" user="rurseekatze" changeset="5267740" lat="47.4413861" lon="11.7015678">
    <tag k="amenity" v="bureau_de_change"/>
  </node>
  <node id="478819017" version="4" timestamp="2010-11-12T21:43:40Z" uid="81244" user="rurseekatze" changeset="6354512" lat="47.4414253" lon="11.7018605">
    <tag k="amenity" v="bureau_de_change"/>
  </node>
  <node id="478819017" version="5" timestamp="2010-12-08T16:17:40Z" uid="81244" user="rurseekatze" changeset="6586724" lat="47.441422" lon="11.701819">
    <tag k="amenity" v="bureau_de_change"/>
  </node>
  <node id="478819017" version="6" timestamp="2012-02-02T00:13:22Z" uid="596973" user="korinthenfresser" changeset="10563803" lat="47.441422" lon="11.701819"/>
  <node id="478819020" version="1" timestamp="2009-08-31T12:36:57Z" uid="64924" user="leck_mich_alle_am_arsch" changeset="2325877" lat="47.4651607" lon="11.7144459"/>
  <node id="478819020" version="2" timestamp="2011-11-24T13:27:47Z" uid="28519" user="Glücki" changeset="9933006" lat="47.465294" lon="11.7144561"/>
  <node id="478819020" version="3" timestamp="2012-01-31T10:03:49Z" uid="596973" user="korinthenfresser" changeset="10547660" lat="47.465294" lon="11.7144561"/>
  <node id="478819023" version="1" timestamp="2009-08-31T12:36:58Z" uid="64924" user="leck_mich_alle_am_arsch" changeset="2325877" lat="47.4513235" lon="11.7134213"/>
  <node id="478819023" version="2" timestamp="2012-01-31T10:03:49Z" uid="596973" user="korinthenfresser" changeset="10547660" lat="47.4513235" lon="11.7134213"/>
  <node id="478819025" version="1" timestamp="2009-08-31T12:36:58Z" uid="64924" user="leck_mich_alle_am_arsch" changeset="2325877" lat="47.4480659" lon="11.714226"/>
  <node id="478819025" version="2" timestamp="2011-11-24T13:27:46Z" uid="28519" user="Glücki" changeset="9933006" lat="47.4480629" lon="11.7142662"/>
  <node id="478819025" version="3" timestamp="2012-01-31T10:03:49Z" uid="596973" user="korinthenfresser" changeset="10547660" lat="47.4480629" lon="11.7142662"/>
  <node id="478819028" version="1" timestamp="2009-08-31T12:36:58Z" uid="64924" user="leck_mich_alle_am_arsch" changeset="2325877" lat="47.453997" lon="11.7142823"/>
  <node id="478819028" version="2" timestamp="2012-01-31T10:03:49Z" uid="596973" user="korinthenfresser" changeset="10547660" lat="47.453997" lon="11.7142823"/>
  <node id="478819029" version="1" timestamp="2009-08-31T12:36:58Z" uid="64924" user="leck_mich_alle_am_arsch" changeset="2325877" lat="47.4580401" lon="11.7141552"/>
  <node id="478819029" version="2" timestamp="2011-01-06T09:39:34Z" uid="364615" user="alpman" changeset="6879939" lat="47.4580424" lon="11.7141283"/>
  <node id="478819029" version="3" timestamp="2012-01-31T10:03:49Z" uid="596973" user="korinthenfresser" changeset="10547660" lat="47.4580424" lon="11.7141283"/>
  <node id="478819031" version="1" timestamp="2009-08-31T12:36:58Z" uid="64924" user="leck_mich_alle_am_arsch" changeset="2325877" lat="47.452205" lon="11.7143789"/>
  <node id="478819031" version="2" timestamp="2012-01-31T10:03:49Z" uid="596973" user="korinthenfresser" changeset="10547660" lat="47.452205" lon="11.7143789"/>
  <node id="478819035" version="1" timestamp="2009-08-31T12:36:58Z" uid="64924" user="leck_mich_alle_am_arsch" changeset="2325877" lat="47.4548273" lon="11.7139435"/>
  <node id="478819035" version="2" timestamp="2011-11-24T13:27:47Z" uid="28519" user="Glücki" changeset="9933006" lat="47.454714" lon="11.7139393"/>
  <node id="478819035" version="3" timestamp="2012-01-31T10:03:49Z" uid="596973" user="korinthenfresser" changeset="10547660" lat="47.454714" lon="11.7139393"/>
  <node id="478819091" version="1" timestamp="2009-08-31T12:36:59Z" uid="64924" user="leck_mich_alle_am_arsch" changeset="2325877" lat="47.4413161" lon="11.7190459"/>
  <node id="478819091" version="2" timestamp="2011-11-24T13:29:16Z" uid="28519" user="Glücki" changeset="9933006" lat="47.4412699" lon="11.7191423"/>
  <node id="478819091" version="3" timestamp="2012-01-31T10:03:49Z" uid="596973" user="korinthenfresser" changeset="10547660" lat="47.4412699" lon="11.7191423"/>
  <node id="478819093" version="1" timestamp="2009-08-31T12:37:00Z" uid="64924" user="leck_mich_alle_am_arsch" changeset="2325877" lat="47.4511132" lon="11.7133489"/>
  <node id="478819093" version="2" timestamp="2012-01-31T10:03:44Z" uid="596973" user="korinthenfresser" changeset="10547660" lat="47.4511132" lon="11.7133489"/>
  <node id="478819095" version="1" timestamp="2009-08-31T12:37:00Z" uid="64924" user="leck_mich_alle_am_arsch" changeset="2325877" lat="47.4564635" lon="11.7142904"/>
  <node id="478819095" version="2" timestamp="2011-11-24T13:27:46Z" uid="28519" user="Glücki" changeset="9933006" lat="47.456367" lon="11.7143091"/>
  <node id="478819095" version="3" timestamp="2012-01-31T10:03:44Z" uid="596973" user="korinthenfresser" changeset="10547660" lat="47.456367" lon="11.7143091"/>
  <node id="478819108" version="1" timestamp="2009-08-31T12:37:00Z" uid="64924" user="leck_mich_alle_am_arsch" changeset="2325877" lat="47.4403057" lon="11.7209074"/>
  <node id="478819108" version="2" timestamp="2012-01-31T10:03:44Z" uid="596973" user="korinthenfresser" changeset="10547660" lat="47.4403057" lon="11.7209074"/>
  <node id="478819110" version="1" timestamp="2009-08-31T12:37:00Z" uid="64924" user="leck_mich_alle_am_arsch" changeset="2325877" lat="47.4666686" lon="11.71463"/>
  <node id="478819110" version="2" timestamp="2012-01-31T10:03:44Z" uid="596973" user="korinthenfresser" changeset="10547660" lat="47.4666686" lon="11.71463"/>
  <node id="478819112" version="1" timestamp="2009-08-31T12:37:00Z" uid="64924" user="leck_mich_alle_am_arsch" changeset="2325877" lat="47.4406852" lon="11.7202384"/>
  <node id="478819112" version="2" timestamp="2011-11-24T13:29:16Z" uid="28519" user="Glücki" changeset="9933006" lat="47.4406527" lon="11.7202527"/>
  <node id="478819112" version="3" timestamp="2012-01-31T10:03:44Z" uid="596973" user="korinthenfresser" changeset="10547660" lat="47.4406527" lon="11.7202527"/>
  <node id="478819117" version="1" timestamp="2009-08-31T12:37:01Z" uid="64924" user="leck_mich_alle_am_arsch" changeset="2325877" lat="47.4508665" lon="11.7133409"/>
  <node id="478819117" version="2" timestamp="2011-11-24T13:27:46Z" uid="28519" user="Glücki" changeset="9933006" lat="47.4508483" lon="11.7134062"/>
  <node id="478819117" version="3" timestamp="2012-01-31T10:03:44Z" uid="596973" user="korinthenfresser" changeset="10547660" lat="47.4508483" lon="11.7134062"/>
  <node id="478819118" version="1" timestamp="2009-08-31T12:37:01Z" uid="64924" user="leck_mich_alle_am_arsch" changeset="2325877" lat="47.4584003" lon="11.714336"/>
  <node id="478819118" version="2" timestamp="2011-11-24T13:27:46Z" uid="28519" user="Glücki" changeset="9933006" lat="47.4584448" lon="11.7143952"/>
  <node id="478819118" version="3" timestamp="2012-01-31T10:03:44Z" uid="596973" user="korinthenfresser" changeset="10547660" lat="47.4584448" lon="11.7143952"/>
  <node id="478819121" version="1" timestamp="2009-08-31T12:37:01Z" uid="64924" user="leck_mich_alle_am_arsch" changeset="2325877" lat="47.4545918" lon="11.7138961"/>
  <node id="478819121" version="2" timestamp="2011-08-07T16:36:04Z" uid="417684" user="Maler" changeset="8946229" lat="47.4545951" lon="11.7139282"/>
  <node id="478819121" version="3" timestamp="2012-01-31T10:03:44Z" uid="596973" user="korinthenfresser" changeset="10547660" lat="47.4545951" lon="11.7139282"/>
  <node id="478819129" version="1" timestamp="2009-08-31T12:37:01Z" uid="64924" user="leck_mich_alle_am_arsch" changeset="2325877" lat="47.4415012" lon="11.7183942"/>
  <node id="478819129" version="2" timestamp="2012-01-31T10:03:44Z" uid="596973" user="korinthenfresser" changeset="10547660" lat="47.4415012" lon="11.7183942"/>
  <node id="478819144" version="1" timestamp="2009-08-31T12:37:01Z" uid="64924" user="leck_mich_alle_am_arsch" changeset="2325877" lat="47.4617643" lon="11.7140999"/>
  <node id="478819144" version="2" timestamp="2012-01-31T10:03:44Z" uid="596973" user="korinthenfresser" changeset="10547660" lat="47.4617643" lon="11.7140999"/>
  <node id="478819149" version="1" timestamp="2009-08-31T12:37:01Z" uid="64924" user="leck_mich_alle_am_arsch" changeset="2325877" lat="47.4392879" lon="11.7221412"/>
  <node id="478819149" version="2" timestamp="2012-01-31T10:03:45Z" uid="596973" user="korinthenfresser" changeset="10547660" lat="47.4392879" lon="11.7221412"/>
  <node id="478819153" version="1" timestamp="2009-08-31T12:37:01Z" uid="64924" user="leck_mich_alle_am_arsch" changeset="2325877" lat="47.4524426" lon="11.714521"/>
  <node id="478819153" version="2" timestamp="2011-11-24T13:27:47Z" uid="28519" user="Glücki" changeset="9933006" lat="47.4524404" lon="11.7145648"/>
  <node id="478819153" version="3" timestamp="2012-01-31T10:03:45Z" uid="596973" user="korinthenfresser" changeset="10547660" lat="47.4524404" lon="11.7145648"/>
  <node id="478819156" version="1" timestamp="2009-08-31T12:37:01Z" uid="64924" user="leck_mich_alle_am_arsch" changeset="2325877" lat="47.4409823" lon="11.7195582"/>
  <node id="478819156" version="2" timestamp="2011-11-24T13:29:16Z" uid="28519" user="Glücki" changeset="9933006" lat="47.4409755" lon="11.7195325"/>
  <node id="478819156" version="3" timestamp="2012-01-31T10:03:45Z" uid="596973" user="korinthenfresser" changeset="10547660" lat="47.4409755" lon="11.7195325"/>
  <node id="478819160" version="1" timestamp="2009-08-31T12:37:02Z" uid="64924" user="leck_mich_alle_am_arsch" changeset="2325877" lat="47.4619855" lon="11.7140543"/>
  <node id="478819160" version="2" timestamp="2011-11-24T13:27:47Z" uid="28519" user="Glücki" changeset="9933006" lat="47.4619058" lon="11.714054"/>
  <node id="478819160" version="3" timestamp="2012-01-31T10:03:45Z" uid="596973" user="korinthenfresser" changeset="10547660" lat="47.4619058" lon="11.714054"/>
  <node id="478819163" version="1" timestamp="2009-08-31T12:37:02Z" uid="64924" user="leck_mich_alle_am_arsch" changeset="2325877" lat="47.4611477" lon="11.7145479"/>
  <node id="478819163" version="2" timestamp="2011-11-24T13:27:46Z" uid="28519" user="Glücki" changeset="9933006" lat="47.4607859" lon="11.7145697"/>
  <node id="478819163" version="3" timestamp="2012-01-31T10:03:45Z" uid="596973" user="korinthenfresser" changeset="10547660" lat="47.4607859" lon="11.7145697"/>
  <node id="478819166" version="1" timestamp="2009-08-31T12:37:02Z" uid="64924" user="leck_mich_alle_am_arsch" changeset="2325877" lat="47.439014" lon="11.7229164"/>
  <node id="478819166" version="2" timestamp="2012-01-31T10:03:45Z" uid="596973" user="korinthenfresser" changeset="10547660" lat="47.439014" lon="11.7229164"/>
  <node id="478819168" version="1" timestamp="2009-08-31T12:37:02Z" uid="64924" user="leck_mich_alle_am_arsch" changeset="2325877" lat="47.4527241" lon="11.7146015"/>
  <node id="478819168" version="2" timestamp="2012-01-31T10:03:45Z" uid="596973" user="korinthenfresser" changeset="10547660" lat="47.4527241" lon="11.7146015"/>
  <node id="478819171" version="1" timestamp="2009-08-31T12:37:02Z" uid="64924" user="leck_mich_alle_am_arsch" changeset="2325877" lat="47.4441624" lon="11.7159614"/>
  <node id="478819171" version="2" timestamp="2012-01-31T10:03:45Z" uid="596973" user="korinthenfresser" changeset="10547660" lat="47.4441624" lon="11.7159614"/>
  <node id="478819174" version="1" timestamp="2009-08-31T12:37:02Z" uid="64924" user="leck_mich_alle_am_arsch" changeset="2325877" lat="47.4428446" lon="11.7169793"/>
  <node id="478819174" version="2" timestamp="2012-01-31T10:03:46Z" uid="596973" user="korinthenfresser" changeset="10547660" lat="47.4428446" lon="11.7169793"/>
  <node id="478819176" version="1" timestamp="2009-08-31T12:37:02Z" uid="64924" user="leck_mich_alle_am_arsch" changeset="2325877" lat="47.451884" lon="11.7140731"/>
  <node id="478819176" version="2" timestamp="2012-01-31T10:03:46Z" uid="596973" user="korinthenfresser" changeset="10547660" lat="47.451884" lon="11.7140731"/>
  <node id="478819179" version="1" timestamp="2009-08-31T12:37:02Z" uid="64924" user="leck_mich_alle_am_arsch" changeset="2325877" lat="47.4387781" lon="11.723147"/>
  <node id="478819179" version="2" timestamp="2012-01-31T10:03:46Z" uid="596973" user="korinthenfresser" changeset="10547660" lat="47.4387781" lon="11.723147"/>
  <node id="478819183" version="1" timestamp="2009-08-31T12:37:02Z" uid="64924" user="leck_mich_alle_am_arsch" changeset="2325877" lat="47.4634924" lon="11.7144728"/>
  <node id="478819183" version="2" timestamp="2011-11-24T13:27:45Z" uid="28519" user="Glücki" changeset="9933006" lat="47.4635379" lon="11.7144841"/>
  <node id="478819183" version="3" timestamp="2012-01-31T10:03:46Z" uid="596973" user="korinthenfresser" changeset="10547660" lat="47.4635379" lon="11.7144841"/>
  <node id="478819186" version="1" timestamp="2009-08-31T12:37:02Z" uid="64924" user="leck_mich_alle_am_arsch" changeset="2325877" lat="47.4621415" lon="11.7140678"/>
  <node id="478819186" version="2" timestamp="2011-11-24T13:27:46Z" uid="28519" user="Glücki" changeset="9933006" lat="47.4621063" lon="11.7141369"/>
  <node id="478819186" version="3" timestamp="2012-01-31T10:03:46Z" uid="596973" user="korinthenfresser" changeset="10547660" lat="47.4621063" lon="11.7141369"/>
  <node id="478819191" version="1" timestamp="2009-08-31T12:37:02Z" uid="64924" user="leck_mich_alle_am_arsch" changeset="2325877" lat="47.4457822" lon="11.7141992"/>
  <node id="478819191" version="2" timestamp="2011-11-24T13:27:46Z" uid="28519" user="Glücki" changeset="9933006" lat="47.4456377" lon="11.7141786"/>
  <node id="478819191" version="3" timestamp="2012-01-31T10:03:46Z" uid="596973" user="korinthenfresser" changeset="10547660" lat="47.4456377" lon="11.7141786"/>
  <node id="478819193" version="1" timestamp="2009-08-31T12:37:02Z" uid="64924" user="leck_mich_alle_am_arsch" changeset="2325877" lat="47.442078" lon="11.7175788"/>
  <node id="478819193" version="2" timestamp="2012-01-31T10:03:46Z" uid="596973" user="korinthenfresser" changeset="10547660" lat="47.442078" lon="11.7175788"/>
  <node id="478819196" version="1" timestamp="2009-08-31T12:37:02Z" uid="64924" user="leck_mich_alle_am_arsch" changeset="2325877" lat="47.4379236" lon="11.7236164"/>
  <node id="478819196" version="2" timestamp="2011-08-26T19:46:57Z" uid="417684" user="Maler" changeset="9129734" lat="47.4379558" lon="11.7236151"/>
  <node id="478819196" version="3" timestamp="2012-01-31T10:03:46Z" uid="596973" user="korinthenfresser" changeset="10547660" lat="47.4379558" lon="11.7236151"/>
  <node id="478819197" version="1" timestamp="2009-08-31T12:37:02Z" uid="64924" user="leck_mich_alle_am_arsch" changeset="2325877" lat="47.4624334" lon="11.7142877"/>
  <node id="478819197" version="2" timestamp="2012-01-31T10:03:46Z" uid="596973" user="korinthenfresser" changeset="10547660" lat="47.4624334" lon="11.7142877"/>
  <node id="478819198" version="1" timestamp="2009-08-31T12:37:02Z" uid="64924" user="leck_mich_alle_am_arsch" changeset="2325877" lat="47.4656684" lon="11.7142287"/>
  <node id="478819198" version="2" timestamp="2011-11-24T13:27:46Z" uid="28519" user="Glücki" changeset="9933006" lat="47.4656025" lon="11.7142495"/>
  <node id="478819198" version="3" timestamp="2012-01-31T10:03:46Z" uid="596973" user="korinthenfresser" changeset="10547660" lat="47.4656025" lon="11.7142495"/>
  <node id="478819200" version="1" timestamp="2009-08-31T12:37:02Z" uid="64924" user="leck_mich_alle_am_arsch" changeset="2325877" lat="47.4538011" lon="11.7144433"/>
  <node id="478819200" version="2" timestamp="2012-01-31T10:03:46Z" uid="596973" user="korinthenfresser" changeset="10547660" lat="47.4538011" lon="11.7144433"/>
  <node id="478819201" version="1" timestamp="2009-08-31T12:37:02Z" uid="64924" user="leck_mich_alle_am_arsch" changeset="2325877" lat="47.462883" lon="11.7144665"/>
  <node id="478819201" version="2" timestamp="2011-11-24T13:27:46Z" uid="28519" user="Glücki" changeset="9933006" lat="47.4628637" lon="11.7144938"/>
  <node id="478819201" version="3" timestamp="2012-01-31T10:03:46Z" uid="596973" user="korinthenfresser" changeset="10547660" lat="47.4628637" lon="11.7144938"/>
  <node id="478819203" version="1" timestamp="2009-08-31T12:37:02Z" uid="64924" user="leck_mich_alle_am_arsch" changeset="2325877" lat="47.4641706" lon="11.7144218"/>
  <node id="478819203" version="2" timestamp="2011-11-24T13:27:46Z" uid="28519" user="Glücki" changeset="9933006" lat="47.4643221" lon="11.7144871"/>
  <node id="478819203" version="3" timestamp="2012-01-31T10:03:47Z" uid="596973" user="korinthenfresser" changeset="10547660" lat="47.4643221" lon="11.7144871"/>
  <node id="478819205" version="1" timestamp="2009-08-31T12:37:02Z" uid="64924" user="leck_mich_alle_am_arsch" changeset="2325877" lat="47.4542146" lon="11.7140141"/>
  <node id="478819205" version="2" timestamp="2011-08-07T16:36:04Z" uid="417684" user="Maler" changeset="8946229" lat="47.4542514" lon="11.7139943"/>
  <node id="478819205" version="3" timestamp="2011-11-24T13:27:46Z" uid="28519" user="Glücki" changeset="9933006" lat="47.4542349" lon="11.7140373"/>
  <node id="478819205" version="4" timestamp="2012-01-31T10:03:47Z" uid="596973" user="korinthenfresser" changeset="10547660" lat="47.4542349" lon="11.7140373"/>
  <node id="478819206" version="1" timestamp="2009-08-31T12:37:02Z" uid="64924" user="leck_mich_alle_am_arsch" changeset="2325877" lat="47.4637909" lon="11.7143269"/>
  <node id="478819206" version="2" timestamp="2011-11-24T13:27:47Z" uid="28519" user="Glücki" changeset="9933006" lat="47.463846" lon="11.7143262"/>
  <node id="478819206" version="3" timestamp="2012-01-31T10:03:47Z" uid="596973" user="korinthenfresser" changeset="10547660" lat="47.463846" lon="11.7143262"/>
  <node id="478819228" version="1" timestamp="2009-08-31T12:37:03Z" uid="64924" user="leck_mich_alle_am_arsch" changeset="2325877" lat="47.4658415" lon="11.7142711"/>
  <node id="478819228" version="2" timestamp="2011-11-24T13:27:47Z" uid="28519" user="Glücki" changeset="9933006" lat="47.4658322" lon="11.7142962"/>
  <node id="478819228" version="3" timestamp="2012-01-31T10:03:47Z" uid="596973" user="korinthenfresser" changeset="10547660" lat="47.4658322" lon="11.7142962"/>
  <node id="478819230" version="1" timestamp="2009-08-31T12:37:03Z" uid="64924" user="leck_mich_alle_am_arsch" changeset="2325877" lat="47.4451582" lon="11.7143789"/>
  <node id="478819230" version="2" timestamp="2012-01-31T10:03:47Z" uid="596973" user="korinthenfresser" changeset="10547660" lat="47.4451582" lon="11.7143789"/>
  <node id="478819233" version="1" timestamp="2009-08-31T12:37:03Z" uid="64924" user="leck_mich_alle_am_arsch" changeset="2325877" lat="47.4383137" lon="11.7233133"/>
  <node id="478819233" version="2" timestamp="2012-01-31T10:03:47Z" uid="596973" user="korinthenfresser" changeset="10547660" lat="47.4383137" lon="11.7233133"/>
  <node id="478819234" version="1" timestamp="2009-08-31T12:37:03Z" uid="64924" user="leck_mich_alle_am_arsch" changeset="2325877" lat="47.4393823" lon="11.7219776"/>
  <node id="478819234" version="2" timestamp="2011-11-24T13:29:16Z" uid="28519" user="Glücki" changeset="9933006" lat="47.4397044" lon="11.7215487"/>
  <node id="478819234" version="3" timestamp="2012-01-31T10:03:47Z" uid="596973" user="korinthenfresser" changeset="10547660" lat="47.4397044" lon="11.7215487"/>
  <node id="478819237" version="1" timestamp="2009-08-31T12:37:03Z" uid="64924" user="leck_mich_alle_am_arsch" changeset="2325877" lat="47.4663513" lon="11.7145672"/>
  <node id="478819237" version="2" timestamp="2011-11-24T13:27:47Z" uid="28519" user="Glücki" changeset="9933006" lat="47.4663514" lon="11.7145953"/>
  <node id="478819237" version="3" timestamp="2012-01-31T10:03:47Z" uid="596973" user="korinthenfresser" changeset="10547660" lat="47.4663514" lon="11.7145953"/>
  <node id="478819239" version="1" timestamp="2009-08-31T12:37:03Z" uid="64924" user="leck_mich_alle_am_arsch" changeset="2325877" lat="47.4535192" lon="11.7145672"/>
  <node id="478819239" version="2" timestamp="2012-01-31T10:03:47Z" uid="596973" user="korinthenfresser" changeset="10547660" lat="47.4535192" lon="11.7145672"/>
  <node id="478819242" version="1" timestamp="2009-08-31T12:37:03Z" uid="64924" user="leck_mich_alle_am_arsch" changeset="2325877" lat="47.4462212" lon="11.7143252"/>
  <node id="478819242" version="2" timestamp="2011-11-24T13:27:47Z" uid="28519" user="Glücki" changeset="9933006" lat="47.4461366" lon="11.7143341"/>
  <node id="478819242" version="3" timestamp="2012-01-31T10:03:47Z" uid="596973" user="korinthenfresser" changeset="10547660" lat="47.4461366" lon="11.7143341"/>
  <node id="478819245" version="1" timestamp="2009-08-31T12:37:03Z" uid="64924" user="leck_mich_alle_am_arsch" changeset="2325877" lat="47.4494227" lon="11.7137352"/>
  <node id="478819245" version="2" timestamp="2011-11-24T13:27:47Z" uid="28519" user="Glücki" changeset="9933006" lat="47.4494008" lon="11.7137757"/>
  <node id="478819245" version="3" timestamp="2012-01-31T10:03:47Z" uid="596973" user="korinthenfresser" changeset="10547660" lat="47.4494008" lon="11.7137757"/>
  <node id="478819247" version="1" timestamp="2009-08-31T12:37:03Z" uid="64924" user="leck_mich_alle_am_arsch" changeset="2325877" lat="47.4554225" lon="11.7143735"/>
  <node id="478819247" version="2" timestamp="2011-08-07T16:36:05Z" uid="417684" user="Maler" changeset="8946229" lat="47.4554426" lon="11.7144254"/>
  <node id="478819247" version="3" timestamp="2012-01-31T10:03:47Z" uid="596973" user="korinthenfresser" changeset="10547660" lat="47.4554426" lon="11.7144254"/>
  <node id="478819250" version="1" timestamp="2009-08-31T12:37:03Z" uid="64924" user="leck_mich_alle_am_arsch" changeset="2325877" lat="47.4669647" lon="11.7146339">
    <tag k="source" v="survey"/>
  </node>
  <node id="478819250" version="2" timestamp="2010-05-22T09:39:03Z" uid="81244" user="rurseekatze" changeset="4772735" lat="47.4669647" lon="11.7146337">
    <tag k="source" v="survey"/>
  </node>
  <node id="478819250" version="3" timestamp="2011-02-03T14:38:11Z" uid="214512" user="Steve8x8" changeset="7174491" lat="47.4669647" lon="11.7146337"/>
  <node id="478819250" version="4" timestamp="2012-02-02T12:25:14Z" uid="596973" user="korinthenfresser" changeset="10566933" lat="47.4669647" lon="11.7146337"/>
  <node id="478819252" version="1" timestamp="2009-08-31T12:37:03Z" uid="64924" user="leck_mich_alle_am_arsch" changeset="2325877" lat="47.4439284" lon="11.716243"/>
  <node id="478819252" version="2" timestamp="2011-11-24T13:27:47Z" uid="28519" user="Glücki" changeset="9933006" lat="47.4438105" lon="11.7163744"/>
  <node id="478819252" version="3" timestamp="2012-01-31T10:03:48Z" uid="596973" user="korinthenfresser" changeset="10547660" lat="47.4438105" lon="11.7163744"/>
  <node id="478819255" version="1" timestamp="2009-08-31T12:37:03Z" uid="64924" user="leck_mich_alle_am_arsch" changeset="2325877" lat="47.4431719" lon="11.7166266"/>
  <node id="478819255" version="2" timestamp="2012-01-31T10:03:48Z" uid="596973" user="korinthenfresser" changeset="10547660" lat="47.4431719" lon="11.7166266"/>
  <node id="478819257" version="1" timestamp="2009-08-31T12:37:03Z" uid="64924" user="leck_mich_alle_am_arsch" changeset="2325877" lat="47.4567972" lon="11.7143494"/>
  <node id="478819257" version="2" timestamp="2011-11-24T13:27:47Z" uid="28519" user="Glücki" changeset="9933006" lat="47.4572606" lon="11.7143024"/>
  <node id="478819257" version="3" timestamp="2012-01-31T10:03:48Z" uid="596973" user="korinthenfresser" changeset="10547660" lat="47.4572606" lon="11.7143024"/>
  <node id="478819259" version="1" timestamp="2009-08-31T12:37:03Z" uid="64924" user="leck_mich_alle_am_arsch" changeset="2325877" lat="47.4570003" lon="11.7143252"/>
  <node id="478819259" version="2" timestamp="2011-08-07T16:30:46Z" uid="417684" user="Maler" changeset="8946229" lat="47.457017" lon="11.7143561"/>
  <node id="478819259" version="3" timestamp="2011-11-24T13:27:47Z" uid="28519" user="Glücki" changeset="9933006" lat="47.4575108" lon="11.7142838"/>
  <node id="478819259" version="4" timestamp="2012-01-31T10:03:48Z" uid="596973" user="korinthenfresser" changeset="10547660" lat="47.4575108" lon="11.7142838"/>
  <node id="478819261" version="1" timestamp="2009-08-31T12:37:03Z" uid="64924" user="leck_mich_alle_am_arsch" changeset="2325877" lat="47.4473386" lon="11.714226"/>
  <node id="478819261" version="2" timestamp="2011-11-24T13:27:47Z" uid="28519" user="Glücki" changeset="9933006" lat="47.4473334" lon="11.7142647"/>
  <node id="478819261" version="3" timestamp="2012-01-31T10:03:48Z" uid="596973" user="korinthenfresser" changeset="10547660" lat="47.4473334" lon="11.7142647"/>
  <node id="478819263" version="1" timestamp="2009-08-31T12:37:04Z" uid="64924" user="leck_mich_alle_am_arsch" changeset="2325877" lat="47.4581794" lon="11.7142153"/>
  <node id="478819263" version="2" timestamp="2012-01-31T10:03:48Z" uid="596973" user="korinthenfresser" changeset="10547660" lat="47.4581794" lon="11.7142153"/>
  <node id="478819265" version="1" timestamp="2009-08-31T12:37:04Z" uid="64924" user="leck_mich_alle_am_arsch" changeset="2325877" lat="47.4454757" lon="11.7141831"/>
  <node id="478819265" version="2" timestamp="2011-11-24T13:27:47Z" uid="28519" user="Glücki" changeset="9933006" lat="47.4454628" lon="11.7142017"/>
  <node id="478819265" version="3" timestamp="2012-01-31T10:03:48Z" uid="596973" user="korinthenfresser" changeset="10547660" lat="47.4454628" lon="11.7142017"/>
  <node id="478819267" version="1" timestamp="2009-08-31T12:37:04Z" uid="64924" user="leck_mich_alle_am_arsch" changeset="2325877" lat="47.4589444" lon="11.7144915"/>
  <node id="478819267" version="2" timestamp="2011-11-24T13:27:45Z" uid="28519" user="Glücki" changeset="9933006" lat="47.4595588" lon="11.7144961"/>
  <node id="478819267" version="3" timestamp="2012-01-31T10:03:48Z" uid="596973" user="korinthenfresser" changeset="10547660" lat="47.4595588" lon="11.7144961"/>
  <node id="478819270" version="1" timestamp="2009-08-31T12:37:04Z" uid="64924" user="leck_mich_alle_am_arsch" changeset="2325877" lat="47.4515135" lon="11.7135751"/>
  <node id="478819270" version="2" timestamp="2012-01-31T10:03:48Z" uid="596973" user="korinthenfresser" changeset="10547660" lat="47.4515135" lon="11.7135751"/>
  <node id="478819272" version="1" timestamp="2009-08-31T12:37:04Z" uid="64924" user="leck_mich_alle_am_arsch" changeset="2325877" lat="47.4558432" lon="11.7144433"/>
  <node id="478819272" version="2" timestamp="2011-08-07T16:36:05Z" uid="417684" user="Maler" changeset="8946229" lat="47.4558666" lon="11.7144631"/>
  <node id="478819272" version="3" timestamp="2012-01-31T10:03:48Z" uid="596973" user="korinthenfresser" changeset="10547660" lat="47.4558666" lon="11.7144631"/>
  <node id="478819275" version="1" timestamp="2009-08-31T12:37:04Z" uid="64924" user="leck_mich_alle_am_arsch" changeset="2325877" lat="47.461456" lon="11.7144486"/>
  <node id="478819275" version="2" timestamp="2011-11-24T13:27:46Z" uid="28519" user="Glücki" changeset="9933006" lat="47.4614395" lon="11.7145055"/>
  <node id="478819275" version="3" timestamp="2012-01-31T10:03:48Z" uid="596973" user="korinthenfresser" changeset="10547660" lat="47.4614395" lon="11.7145055"/>
  <node id="478819277" version="1" timestamp="2009-08-31T12:37:04Z" uid="64924" user="leck_mich_alle_am_arsch" changeset="2325877" lat="47.4498707" lon="11.7134643"/>
  <node id="478819277" version="2" timestamp="2012-01-31T10:03:48Z" uid="596973" user="korinthenfresser" changeset="10547660" lat="47.4498707" lon="11.7134643"/>
  <node id="478819278" version="1" timestamp="2009-08-31T12:37:04Z" uid="64924" user="leck_mich_alle_am_arsch" changeset="2325877" lat="47.4548454" lon="11.7139266"/>
  <node id="478819278" version="2" timestamp="2012-01-31T10:25:30Z" uid="596973" user="korinthenfresser" changeset="10547797" lat="47.4548454" lon="11.7139266"/>
  <node id="478819280" version="1" timestamp="2009-08-31T12:37:04Z" uid="64924" user="leck_mich_alle_am_arsch" changeset="2325877" lat="47.4544018" lon="11.7139197"/>
  <node id="478819280" version="2" timestamp="2011-08-07T16:36:05Z" uid="417684" user="Maler" changeset="8946229" lat="47.4544018" lon="11.7139766"/>
  <node id="478819280" version="3" timestamp="2012-01-31T10:03:49Z" uid="596973" user="korinthenfresser" changeset="10547660" lat="47.4544018" lon="11.7139766"/>
  <node id="478819282" version="1" timestamp="2009-08-31T12:37:04Z" uid="64924" user="leck_mich_alle_am_arsch" changeset="2325877" lat="47.4892974" lon="11.7137486"/>
  <node id="478819282" version="2" timestamp="2011-08-07T16:26:12Z" uid="417684" user="Maler" changeset="8946229" lat="47.4892924" lon="11.7137264"/>
  <node id="478819282" version="3" timestamp="2012-01-31T10:03:52Z" uid="596973" user="korinthenfresser" changeset="10547660" lat="47.4892924" lon="11.7137264"/>
  <node id="478819285" version="1" timestamp="2009-08-31T12:37:04Z" uid="64924" user="leck_mich_alle_am_arsch" changeset="2325877" lat="47.4946924" lon="11.7124107"/>
  <node id="478819285" version="2" timestamp="2012-01-31T10:03:54Z" uid="596973" user="korinthenfresser" changeset="10547660" lat="47.4946924" lon="11.7124107"/>
  <node id="478819288" version="1" timestamp="2009-08-31T12:37:04Z" uid="64924" user="leck_mich_alle_am_arsch" changeset="2325877" lat="47.4974759" lon="11.7108314"/>
  <node id="478819288" version="2" timestamp="2012-01-31T10:03:52Z" uid="596973" user="korinthenfresser" changeset="10547660" lat="47.4974759" lon="11.7108314"/>
  <node id="478819293" version="1" timestamp="2009-08-31T12:37:04Z" uid="64924" user="leck_mich_alle_am_arsch" changeset="2325877" lat="47.495858" lon="11.7116672"/>
  <node id="478819293" version="2" timestamp="2012-01-31T10:03:52Z" uid="596973" user="korinthenfresser" changeset="10547660" lat="47.495858" lon="11.7116672"/>
  <node id="478819295" version="1" timestamp="2009-08-31T12:37:04Z" uid="64924" user="leck_mich_alle_am_arsch" changeset="2325877" lat="47.4957304" lon="11.7117412"/>
  <node id="478819295" version="2" timestamp="2012-01-31T10:03:51Z" uid="596973" user="korinthenfresser" changeset="10547660" lat="47.4957304" lon="11.7117412"/>
  <node id="478819299" version="1" timestamp="2009-08-31T12:37:04Z" uid="64924" user="leck_mich_alle_am_arsch" changeset="2325877" lat="47.4980961" lon="11.7104645"/>
  <node id="478819299" version="2" timestamp="2010-12-08T16:13:03Z" uid="81244" user="rurseekatze" changeset="6586687" lat="47.4980755" lon="11.7103882"/>
  <node id="478819302" version="1" timestamp="2009-08-31T12:37:04Z" uid="64924" user="leck_mich_alle_am_arsch" changeset="2325877" lat="47.4917912" lon="11.7137727"/>
  <node id="478819302" version="2" timestamp="2012-01-31T10:03:43Z" uid="596973" user="korinthenfresser" changeset="10547660" lat="47.4917912" lon="11.7137727"/>
  <node id="478819303" version="1" timestamp="2009-08-31T12:37:04Z" uid="64924" user="leck_mich_alle_am_arsch" changeset="2325877" lat="47.4942071" lon="11.7127186"/>
  <node id="478819303" version="2" timestamp="2012-01-31T10:03:56Z" uid="596973" user="korinthenfresser" changeset="10547660" lat="47.4942071" lon="11.7127186"/>
  <node id="478819307" version="1" timestamp="2009-08-31T12:37:04Z" uid="64924" user="leck_mich_alle_am_arsch" changeset="2325877" lat="47.4922661" lon="11.7135045"/>
  <node id="478819307" version="2" timestamp="2011-08-07T16:26:13Z" uid="417684" user="Maler" changeset="8946229" lat="47.4922243" lon="11.7135161"/>
  <node id="478819307" version="3" timestamp="2012-01-31T10:03:51Z" uid="596973" user="korinthenfresser" changeset="10547660" lat="47.4922243" lon="11.7135161"/>
  <node id="478819310" version="1" timestamp="2009-08-31T12:37:04Z" uid="64924" user="leck_mich_alle_am_arsch" changeset="2325877" lat="47.4912077" lon="11.7139524"/>
  <node id="478819310" version="2" timestamp="2012-02-02T12:25:11Z" uid="596973" user="korinthenfresser" changeset="10566933" lat="47.4912077" lon="11.7139524"/>
  <node id="478819314" version="1" timestamp="2009-08-31T12:37:04Z" uid="64924" user="leck_mich_alle_am_arsch" changeset="2325877" lat="47.4902326" lon="11.7140463"/>
  <node id="478819314" version="2" timestamp="2012-02-02T12:25:21Z" uid="596973" user="korinthenfresser" changeset="10566933" lat="47.4902326" lon="11.7140463"/>
  <node id="478819318" version="1" timestamp="2009-08-31T12:37:04Z" uid="64924" user="leck_mich_alle_am_arsch" changeset="2325877" lat="47.4896997" lon="11.7137861"/>
  <node id="478819318" version="2" timestamp="2012-01-31T10:03:54Z" uid="596973" user="korinthenfresser" changeset="10547660" lat="47.4896997" lon="11.7137861"/>
  <node id="478819321" version="1" timestamp="2009-08-31T12:37:04Z" uid="64924" user="leck_mich_alle_am_arsch" changeset="2325877" lat="47.4874197" lon="11.7144272"/>
  <node id="478819321" version="2" timestamp="2012-01-31T10:03:55Z" uid="596973" user="korinthenfresser" changeset="10547660" lat="47.4874197" lon="11.7144272"/>
  <node id="478819325" version="1" timestamp="2009-08-31T12:37:04Z" uid="64924" user="leck_mich_alle_am_arsch" changeset="2325877" lat="47.4884473" lon="11.714226"/>
  <node id="478819325" version="2" timestamp="2012-01-31T10:03:54Z" uid="596973" user="korinthenfresser" changeset="10547660" lat="47.4884473" lon="11.714226"/>
  <node id="478819327" version="1" timestamp="2009-08-31T12:37:04Z" uid="64924" user="leck_mich_alle_am_arsch" changeset="2325877" lat="47.49047" lon="11.7140704"/>
  <node id="478819327" version="2" timestamp="2012-01-31T10:03:55Z" uid="596973" user="korinthenfresser" changeset="10547660" lat="47.49047" lon="11.7140704"/>
  <node id="478819330" version="1" timestamp="2009-08-31T12:37:05Z" uid="64924" user="leck_mich_alle_am_arsch" changeset="2325877" lat="47.4978324" lon="11.7106343"/>
  <node id="478819330" version="2" timestamp="2010-12-08T16:13:27Z" uid="81244" user="rurseekatze" changeset="6586687" lat="47.4978685" lon="11.7106496"/>
  <node id="478819330" version="3" timestamp="2012-01-31T10:03:51Z" uid="596973" user="korinthenfresser" changeset="10547660" lat="47.4978685" lon="11.7106496"/>
  <node id="478819332" version="1" timestamp="2009-08-31T12:37:05Z" uid="64924" user="leck_mich_alle_am_arsch" changeset="2325877" lat="47.4969943" lon="11.7111522"/>
  <node id="478819332" version="2" timestamp="2012-01-31T10:03:56Z" uid="596973" user="korinthenfresser" changeset="10547660" lat="47.4969943" lon="11.7111522"/>
  <node id="478819336" version="1" timestamp="2009-08-31T12:37:05Z" uid="64924" user="leck_mich_alle_am_arsch" changeset="2325877" lat="47.4964553" lon="11.7114065"/>
  <node id="478819336" version="2" timestamp="2012-01-31T10:03:51Z" uid="596973" user="korinthenfresser" changeset="10547660" lat="47.4964553" lon="11.7114065"/>
  <node id="478819338" version="1" timestamp="2009-08-31T12:37:05Z" uid="64924" user="leck_mich_alle_am_arsch" changeset="2325877" lat="47.49529" lon="11.7120984"/>
  <node id="478819338" version="2" timestamp="2012-01-31T10:03:56Z" uid="596973" user="korinthenfresser" changeset="10547660" lat="47.49529" lon="11.7120984"/>
  <node id="478819342" version="1" timestamp="2009-08-31T12:37:05Z" uid="64924" user="leck_mich_alle_am_arsch" changeset="2325877" lat="47.4982548" lon="11.7103395"/>
  <node id="478819342" version="2" timestamp="2010-12-08T16:13:29Z" uid="81244" user="rurseekatze" changeset="6586687" lat="47.4982084" lon="11.7102175"/>
  <node id="478819342" version="3" timestamp="2010-12-08T17:32:07Z" uid="81244" user="rurseekatze" changeset="6587373" lat="47.4981698" lon="11.710261"/>
  <node id="478819342" version="4" timestamp="2011-01-18T18:08:16Z" uid="81244" user="rurseekatze" changeset="7012914" lat="47.4981645" lon="11.7102821"/>
  <node id="478819342" version="5" timestamp="2012-02-02T12:24:08Z" uid="596973" user="korinthenfresser" changeset="10566933" lat="47.4981484" lon="11.7102498"/>
  <node id="478819344" version="1" timestamp="2009-08-31T12:37:05Z" uid="64924" user="leck_mich_alle_am_arsch" changeset="2325877" lat="47.4981814" lon="11.7101117"/>
  <node id="478819344" version="2" timestamp="2010-12-08T17:31:35Z" uid="81244" user="rurseekatze" changeset="6587373" lat="47.4980823" lon="11.7101599"/>
  <node id="478819344" version="3" timestamp="2011-01-18T18:08:40Z" uid="81244" user="rurseekatze" changeset="7012914" lat="47.4980805" lon="11.7101757"/>
</osm>
