<?xml version='1.0' encoding='UTF-8'?>
<osm version="0.6" generator="libosmium/2.20.0">
  <node id="485208028" version="5" timestamp="2010-07-30T09:00:20Z" uid="74617" user="JohnSmith" changeset="5352774" lat="48.0570864" lon="8.4607313">
    <tag k="name" v="Kiebler"/>
    <tag k="shop" v="deli"/>
  </node>
  <node id="485208028" version="6" timestamp="2012-03-03T21:58:35Z" uid="67540" user="Cobra" changeset="10862861" lat="48.0570689" lon="8.4607612">
    <tag k="name" v="Kiebler"/>
    <tag k="shop" v="deli"/>
  </node>
  <node id="485208038" version="5" timestamp="2010-07-30T09:00:22Z" uid="74617" user="JohnSmith" changeset="5352774" lat="48.0571968" lon="8.460693">
    <tag k="name" v="Vom Fass"/>
    <tag k="shop" v="deli"/>
  </node>
  <node id="485208038" version="6" timestamp="2012-03-03T21:58:36Z" uid="67540" user="Cobra" changeset="10862861" lat="48.0571763" lon="8.4607212">
    <tag k="name" v="Vom Fass"/>
    <tag k="shop" v="deli"/>
  </node>
  <node id="485208462" version="3" timestamp="2011-06-01T02:05:52Z" uid="20587" user="balrog-kun" changeset="8306930" lat="52.2589303" lon="20.8980839"/>
</osm>
