<?xml version='1.0' encoding='UTF-8'?>
<osm version="0.6" generator="libosmium/2.20.0">
  <node id="490680843" version="2" timestamp="2009-09-26T22:39:59Z" uid="30632" user="antblant" changeset="2647147" lat="53.3958249" lon="14.6669533">
    <tag k="name" v="Netto"/>
    <tag k="shop" v="supermarket"/>
  </node>
  <node id="490681890" version="4" timestamp="2010-04-23T06:46:14Z" uid="4467" user="Rosscoe" changeset="4500963" lat="-27.3193309" lon="153.0486716">
    <tag k="source" v="nearmap"/>
    <tag k="traffic_calming" v="island"/>
  </node>
  <node id="490681893" version="4" timestamp="2010-04-23T06:45:37Z" uid="4467" user="Rosscoe" changeset="4500960" lat="-27.3169366" lon="153.0449576">
    <tag k="source" v="nearmap"/>
    <tag k="traffic_calming" v="island"/>
  </node>
  <node id="490681896" version="4" timestamp="2010-04-23T06:45:37Z" uid="4467" user="Rosscoe" changeset="4500960" lat="-27.3170956" lon="153.0466344">
    <tag k="source" v="nearmap"/>
    <tag k="traffic_calming" v="island"/>
  </node>
  <node id="490685293" version="2" timestamp="2009-10-21T17:50:22Z" uid="36809" user="pfoten_weg_!_" changeset="2914805" lat="53.5628987" lon="14.8255613">
    <tag k="name" v="Netto"/>
    <tag k="shop" v="supermarket"/>
  </node>
  <node id="490685297" version="2" timestamp="2009-10-21T17:50:22Z" uid="36809" user="pfoten_weg_!_" changeset="2914805" lat="53.5627203" lon="14.8249605">
    <tag k="name" v="Biedronka"/>
    <tag k="shop" v="supermarket"/>
  </node>
  <node id="490685307" version="2" timestamp="2009-10-21T17:50:20Z" uid="36809" user="pfoten_weg_!_" changeset="2914805" lat="53.5617874" lon="14.8301961">
    <tag k="name" v="Intermarche"/>
    <tag k="shop" v="supermarket"/>
  </node>
</osm>
