<?xml version='1.0' encoding='UTF-8'?>
<osm version="0.6" generator="libosmium/2.20.0">
  <node id="491411201" version="5" timestamp="2010-04-26T20:41:42Z" uid="151899" user="Bikeman2000" changeset="4536067" lat="51.2581653" lon="6.7313745">
    <tag k="amenity" v="parking"/>
  </node>
  <node id="491411329" version="2" timestamp="2010-04-26T20:41:42Z" uid="151899" user="Bikeman2000" changeset="4536067" lat="51.2588432" lon="6.7298935"/>
  <node id="491411329" version="3" timestamp="2010-05-27T22:03:45Z" uid="64008" user="E-Malte" changeset="4826510" lat="51.2587771" lon="6.7299594"/>
  <node id="491411358" version="2" timestamp="2010-04-26T20:10:52Z" uid="151899" user="Bikeman2000" changeset="4535585" lat="51.2598352" lon="6.7265626"/>
  <node id="491411358" version="3" timestamp="2012-01-04T18:42:41Z" uid="173844" user="Antikalk" changeset="10293913" lat="51.2598352" lon="6.7265626"/>
  <node id="491415904" version="1" timestamp="2009-09-09T16:48:04Z" uid="115477" user="wowik" changeset="2427324" lat="55.9950106" lon="37.3452507">
    <tag k="addr:country" v="RU"/>
    <tag k="addr:district" v="Солнечногорский район"/>
    <tag k="addr:postcode" v="141580"/>
    <tag k="addr:region" v="Московская область"/>
    <tag k="cladr:code" v="5003300024800"/>
    <tag k="cladr:name" v="Лунево"/>
    <tag k="cladr:suffix" v="Поселок"/>
    <tag k="name" v="Лунево"/>
    <tag k="place" v="village"/>
  </node>
  <node id="491415904" version="2" timestamp="2009-09-09T16:54:08Z" uid="115477" user="wowik" changeset="2427324" lat="55.995241" lon="37.3416458">
    <tag k="addr:country" v="RU"/>
    <tag k="addr:district" v="Солнечногорский район"/>
    <tag k="addr:postcode" v="141580"/>
    <tag k="addr:region" v="Московская область"/>
    <tag k="cladr:code" v="5003300024800"/>
    <tag k="cladr:name" v="Лунево"/>
    <tag k="cladr:suffix" v="Поселок"/>
    <tag k="name" v="Лунево"/>
    <tag k="place" v="village"/>
  </node>
  <node id="491415904" version="3" timestamp="2009-09-09T16:56:17Z" uid="115477" user="wowik" changeset="2427385" lat="55.995244" lon="37.3416409">
    <tag k="addr:country" v="RU"/>
    <tag k="addr:district" v="Солнечногорский район"/>
    <tag k="addr:postcode" v="141580"/>
    <tag k="addr:region" v="Московская область"/>
    <tag k="cladr:code" v="5003300024800"/>
    <tag k="cladr:name" v="Лунево"/>
    <tag k="cladr:suffix" v="Поселок"/>
    <tag k="name" v="Лунево"/>
    <tag k="place" v="village"/>
  </node>
  <node id="491415904" version="4" timestamp="2009-09-09T16:57:47Z" uid="115477" user="wowik" changeset="2427385" lat="55.995244" lon="37.3416409">
    <tag k="OKATO" v="46252816000"/>
    <tag k="addr:country" v="RU"/>
    <tag k="addr:district" v="Солнечногорский район"/>
    <tag k="addr:postcode" v="141580"/>
    <tag k="addr:region" v="Московская область"/>
    <tag k="cladr:code" v="5003300024800"/>
    <tag k="cladr:name" v="Лунево"/>
    <tag k="cladr:suffix" v="Поселок"/>
    <tag k="name" v="Лунево"/>
    <tag k="place" v="village"/>
  </node>
  <node id="491415904" version="5" timestamp="2011-01-13T17:01:11Z" uid="115477" user="wowik" changeset="6959083" lat="55.995244" lon="37.3416409">
    <tag k="OKATO" v="46252816000"/>
    <tag k="addr:country" v="RU"/>
    <tag k="addr:district" v="Солнечногорский район"/>
    <tag k="addr:postcode" v="141580"/>
    <tag k="addr:region" v="Московская область"/>
    <tag k="cladr:code" v="5003300024800"/>
    <tag k="cladr:name" v="Лунево"/>
    <tag k="cladr:suffix" v="Поселок"/>
    <tag k="name" v="Лунево"/>
    <tag k="okato:user" v="46252816008"/>
    <tag k="place" v="village"/>
  </node>
  <node id="491415904" version="6" timestamp="2011-08-24T17:42:05Z" uid="347929" user="hint" changeset="9114001" lat="55.995244" lon="37.3416409">
    <tag k="OKATO" v="46252816000"/>
    <tag k="addr:country" v="RU"/>
    <tag k="addr:district" v="Солнечногорский район"/>
    <tag k="addr:postcode" v="141580"/>
    <tag k="addr:region" v="Московская область"/>
    <tag k="cladr:code" v="5003300024800"/>
    <tag k="cladr:name" v="Лунево"/>
    <tag k="cladr:suffix" v="Поселок"/>
    <tag k="name" v="Лунёво"/>
    <tag k="name:en" v="Lunyovo"/>
    <tag k="official_status" v="ru:посёлок"/>
    <tag k="okato:user" v="46252816008"/>
    <tag k="place" v="village"/>
  </node>
  <node id="491419043" version="2" timestamp="2011-04-11T19:24:51Z" uid="9581" user="Lobelt" changeset="7836399" lat="50.5569959" lon="11.4880802"/>
  <node id="491419045" version="2" timestamp="2011-04-11T19:24:54Z" uid="9581" user="Lobelt" changeset="7836399" lat="50.5570805" lon="11.4887227"/>
  <node id="491419046" version="2" timestamp="2011-04-11T19:24:57Z" uid="9581" user="Lobelt" changeset="7836399" lat="50.5570206" lon="11.4892936"/>
  <node id="491419046" version="3" timestamp="2012-03-21T15:10:45Z" uid="192395" user="BBO" changeset="11053229" lat="50.5569961" lon="11.489192"/>
  <node id="491419048" version="2" timestamp="2011-04-11T19:24:59Z" uid="9581" user="Lobelt" changeset="7836399" lat="50.5569236" lon="11.4896224"/>
  <node id="491419048" version="3" timestamp="2012-03-21T15:10:45Z" uid="192395" user="BBO" changeset="11053229" lat="50.5569125" lon="11.4895663"/>
</osm>
