<?xml version='1.0' encoding='UTF-8'?>
<osm version="0.6" generator="libosmium/2.20.0">
  <node id="49174847" version="1" timestamp="2007-09-11T07:10:05Z" uid="7617" user="Franc" changeset="411929" lat="-33.8127451" lon="150.9149482">
    <tag k="created_by" v="JOSM"/>
    <tag k="leisure" v="park"/>
    <tag k="name" v="Andrew Campbell Reserve"/>
  </node>
  <node id="49174847" version="2" timestamp="2010-08-30T10:53:56Z" uid="237525" user="aharvey" changeset="5634963" lat="-33.8127451" lon="150.9149482">
    <tag k="created_by" v="JOSM"/>
    <tag k="leisure" v="park"/>
    <tag k="name" v="Andrew Campbell Reserve"/>
  </node>
  <node id="49174847" version="3" timestamp="2010-08-30T12:32:50Z" uid="284466" user="revert_au" changeset="5635774" lat="-33.8127451" lon="150.9149482">
    <tag k="created_by" v="JOSM"/>
    <tag k="leisure" v="park"/>
    <tag k="name" v="Andrew Campbell Reserve"/>
  </node>
  <node id="49176837" version="1" timestamp="2007-09-15T13:27:35Z" uid="7617" user="Franc" changeset="437118" lat="-33.8853282" lon="151.1944224"/>
  <node id="49177223" version="1" timestamp="2007-09-11T07:15:07Z" uid="7617" user="Franc" changeset="411929" lat="-33.7887888" lon="150.8321839">
    <tag k="amenity" v="school"/>
    <tag k="created_by" v="JOSM"/>
    <tag k="name" v="Minchinbury Public School"/>
  </node>
  <node id="49177223" version="2" timestamp="2010-08-30T10:53:09Z" uid="237525" user="aharvey" changeset="5634963" lat="-33.7887888" lon="150.8321839">
    <tag k="amenity" v="school"/>
    <tag k="created_by" v="JOSM"/>
    <tag k="name" v="Minchinbury Public School"/>
  </node>
  <node id="49177223" version="3" timestamp="2010-08-30T12:37:58Z" uid="284466" user="revert_au" changeset="5635774" lat="-33.7887888" lon="150.8321839">
    <tag k="amenity" v="school"/>
    <tag k="created_by" v="JOSM"/>
    <tag k="name" v="Minchinbury Public School"/>
  </node>
  <node id="49177987" version="1" timestamp="2007-09-11T07:16:53Z" uid="7617" user="Franc" changeset="411929" lat="-33.791164" lon="150.8345933">
    <tag k="created_by" v="JOSM"/>
    <tag k="leisure" v="park"/>
    <tag k="name" v="Berruex Reserve"/>
  </node>
  <node id="49177987" version="2" timestamp="2010-08-30T10:52:55Z" uid="237525" user="aharvey" changeset="5634963" lat="-33.791164" lon="150.8345933">
    <tag k="created_by" v="JOSM"/>
    <tag k="leisure" v="park"/>
    <tag k="name" v="Berruex Reserve"/>
  </node>
  <node id="49177987" version="3" timestamp="2010-08-30T12:39:34Z" uid="284466" user="revert_au" changeset="5635774" lat="-33.791164" lon="150.8345933">
    <tag k="created_by" v="JOSM"/>
    <tag k="leisure" v="park"/>
    <tag k="name" v="Berruex Reserve"/>
  </node>
</osm>
