<?xml version='1.0' encoding='UTF-8'?>
<osm version="0.6" generator="libosmium/2.20.0">
  <node id="492680080" version="3" timestamp="2009-10-22T21:39:53Z" uid="99207" user="Lar Kiesel" changeset="2925770" lat="41.221044" lon="-103.4897999">
    <tag k="highway" v="motorway_junction"/>
    <tag k="name" v="L-53A; Dix"/>
    <tag k="ref" v="29"/>
  </node>
  <node id="492680080" version="4" timestamp="2010-12-19T10:35:51Z" uid="262151" user="ToeBee" changeset="6704140" lat="41.2210638" lon="-103.489601">
    <tag k="highway" v="motorway_junction"/>
    <tag k="name" v="L-53A; Dix"/>
    <tag k="ref" v="29"/>
  </node>
  <node id="492680080" version="5" timestamp="2011-04-06T23:22:23Z" uid="207745" user="NE2" changeset="7788882" lat="41.2210638" lon="-103.489601">
    <tag k="exit_to" v="L-53A; Dix"/>
    <tag k="highway" v="motorway_junction"/>
    <tag k="ref" v="29"/>
  </node>
  <node id="492686878" version="1" timestamp="2009-09-10T17:59:43Z" uid="38524" user="Kuddy" changeset="2439075" lat="28.8563813" lon="-13.8122985">
    <tag k="name" v="View Point"/>
    <tag k="tourism" v="viewpoint"/>
  </node>
  <node id="492686878" version="2" timestamp="2012-02-02T10:26:14Z" uid="142223" user="magic_doc" changeset="10566074" lat="28.8563813" lon="-13.8122985"/>
</osm>
