<?xml version='1.0' encoding='UTF-8'?>
<osm version="0.6" generator="libosmium/2.20.0">
  <node id="493452107" version="2" timestamp="2009-09-14T07:44:36Z" uid="6975" user="ulfl" changeset="2478628" lat="48.2353997" lon="8.2943036">
    <tag k="ele" v="786"/>
    <tag k="mountain_pass" v="yes"/>
    <tag k="name" v="Fohrenb端hl"/>
  </node>
  <node id="493452107" version="3" timestamp="2010-03-06T20:40:39Z" uid="6975" user="ulfl" changeset="4054570" lat="48.2353997" lon="8.2943036">
    <tag k="ele" v="786"/>
    <tag k="mountain_pass" v="yes"/>
    <tag k="name" v="Fohrenb端hl"/>
    <tag k="wikipedia" v="http://de.wikipedia.org/wiki/Fohrenb%C3%BChl"/>
  </node>
  <node id="493452107" version="4" timestamp="2011-02-08T23:11:14Z" uid="152744" user="skyper" changeset="7231958" lat="48.2353997" lon="8.2943036">
    <tag k="TMC:cid_58:tabcd_1:Class" v="Point"/>
    <tag k="TMC:cid_58:tabcd_1:LocationCode" v="56774"/>
    <tag k="ele" v="786"/>
    <tag k="mountain_pass" v="yes"/>
    <tag k="name" v="Fohrenb端hl"/>
    <tag k="wikipedia" v="http://de.wikipedia.org/wiki/Fohrenb%C3%BChl"/>
  </node>
  <node id="493452107" version="5" timestamp="2011-02-09T19:04:32Z" uid="218283" user="TMCbot" changeset="7238967" lat="48.2353997" lon="8.2943036">
    <tag k="TMC:cid_58:tabcd_1:Class" v="Point"/>
    <tag k="TMC:cid_58:tabcd_1:LCLversion" v="9.00"/>
    <tag k="TMC:cid_58:tabcd_1:LocationCode" v="56774"/>
    <tag k="TMC:cid_58:tabcd_1:NextLocationCode" v="56775"/>
    <tag k="TMC:cid_58:tabcd_1:PrevLocationCode" v="56773"/>
    <tag k="ele" v="786"/>
    <tag k="mountain_pass" v="yes"/>
    <tag k="name" v="Fohrenb端hl"/>
    <tag k="wikipedia" v="http://de.wikipedia.org/wiki/Fohrenb%C3%BChl"/>
  </node>
  <node id="493455049" version="3" timestamp="2009-10-11T22:23:07Z" uid="20587" user="balrog-kun" changeset="2820869" lat="53.1235369" lon="18.0014754"/>
</osm>
