<?xml version='1.0' encoding='UTF-8'?>
<osm version="0.6" generator="libosmium/2.20.0">
  <node id="493764268" version="2" timestamp="2010-04-11T04:50:35Z" uid="20587" user="balrog-kun" changeset="4389130" lat="50.2169587" lon="18.7856062">
    <tag k="is_in" v="Poland"/>
    <tag k="name" v="Chudów"/>
    <tag k="place" v="village"/>
  </node>
  <node id="493764268" version="3" timestamp="2010-04-27T04:05:33Z" uid="30632" user="antblant" changeset="4537871" lat="50.2169587" lon="18.7856062">
    <tag k="is_in" v="Poland"/>
    <tag k="name" v="Chudów"/>
    <tag k="place" v="village"/>
    <tag k="teryt:simc" v="0214304"/>
  </node>
  <node id="493764268" version="4" timestamp="2011-05-05T22:27:02Z" uid="352700" user="WojtekK" changeset="8061596" lat="50.2132735" lon="18.7791767">
    <tag k="is_in" v="Poland"/>
    <tag k="name" v="Chudów"/>
    <tag k="place" v="village"/>
    <tag k="teryt:simc" v="0214304"/>
  </node>
  <node id="493764269" version="2" timestamp="2010-04-11T04:50:35Z" uid="20587" user="balrog-kun" changeset="4389130" lat="50.2311284" lon="18.7878401">
    <tag k="is_in" v="Poland"/>
    <tag k="name" v="Paniówki"/>
    <tag k="place" v="village"/>
  </node>
  <node id="493764269" version="3" timestamp="2010-04-27T04:05:33Z" uid="30632" user="antblant" changeset="4537871" lat="50.2311284" lon="18.7878401">
    <tag k="is_in" v="Poland"/>
    <tag k="name" v="Paniówki"/>
    <tag k="place" v="village"/>
    <tag k="teryt:simc" v="0214340"/>
  </node>
  <node id="493764269" version="4" timestamp="2011-07-22T13:04:08Z" uid="352700" user="WojtekK" changeset="8797554" lat="50.2315256" lon="18.7813252">
    <tag k="is_in" v="Poland"/>
    <tag k="name" v="Paniówki"/>
    <tag k="place" v="village"/>
    <tag k="teryt:simc" v="0214340"/>
  </node>
</osm>
