<?xml version='1.0' encoding='UTF-8'?>
<osm version="0.6" generator="libosmium/2.20.0">
  <node id="495301026" version="1" timestamp="2009-09-13T15:01:02Z" uid="99207" user="Lar Kiesel" changeset="2470836" lat="34.2105748" lon="-81.5322155"/>
  <node id="495301030" version="1" timestamp="2009-09-13T15:01:02Z" uid="99207" user="Lar Kiesel" changeset="2470836" lat="34.2106955" lon="-81.5325932"/>
  <node id="495301033" version="1" timestamp="2009-09-13T15:01:03Z" uid="99207" user="Lar Kiesel" changeset="2470836" lat="34.2108162" lon="-81.5329708"/>
  <node id="495301076" version="1" timestamp="2009-09-13T15:01:05Z" uid="99207" user="Lar Kiesel" changeset="2470836" lat="34.2121222" lon="-81.5350393"/>
  <node id="495301180" version="1" timestamp="2009-09-13T15:01:15Z" uid="99207" user="Lar Kiesel" changeset="2470836" lat="34.2090345" lon="-81.5338806"/>
  <node id="495301184" version="1" timestamp="2009-09-13T15:01:15Z" uid="99207" user="Lar Kiesel" changeset="2470836" lat="34.2093167" lon="-81.5335994"/>
  <node id="495301250" version="1" timestamp="2009-09-13T15:01:24Z" uid="99207" user="Lar Kiesel" changeset="2470836" lat="34.2101205" lon="-81.530147"/>
  <node id="495301253" version="1" timestamp="2009-09-13T15:01:25Z" uid="99207" user="Lar Kiesel" changeset="2470836" lat="34.2099147" lon="-81.5285849"/>
  <node id="495301258" version="1" timestamp="2009-09-13T15:01:25Z" uid="99207" user="Lar Kiesel" changeset="2470836" lat="34.2099218" lon="-81.52819"/>
  <node id="495301316" version="1" timestamp="2009-09-13T15:01:31Z" uid="99207" user="Lar Kiesel" changeset="2470836" lat="34.2088074" lon="-81.5375971"/>
  <node id="495301316" version="2" timestamp="2010-01-20T15:19:46Z" uid="99207" user="Lar Kiesel" changeset="3667576" lat="34.2088074" lon="-81.5375971"/>
  <node id="495301316" version="3" timestamp="2010-04-02T18:22:47Z" uid="99207" user="Lar Kiesel" changeset="4306523" lat="34.2088074" lon="-81.5375971"/>
  <node id="495301316" version="4" timestamp="2010-04-02T22:20:56Z" uid="99207" user="Lar Kiesel" changeset="4308780" lat="34.2088074" lon="-81.5375971"/>
  <node id="495301316" version="5" timestamp="2011-10-16T16:24:28Z" uid="536243" user="Hemingray" changeset="9574042" lat="34.2087342" lon="-81.5375756"/>
  <node id="495301316" version="6" timestamp="2011-10-16T18:08:43Z" uid="536243" user="Hemingray" changeset="9575291" lat="34.208814" lon="-81.5375971"/>
  <node id="495301318" version="1" timestamp="2009-09-13T15:01:31Z" uid="99207" user="Lar Kiesel" changeset="2470836" lat="34.2086087" lon="-81.5372108"/>
  <node id="495301318" version="2" timestamp="2010-01-20T15:19:46Z" uid="99207" user="Lar Kiesel" changeset="3667576" lat="34.2086087" lon="-81.5372108"/>
  <node id="495301318" version="3" timestamp="2010-04-02T18:22:47Z" uid="99207" user="Lar Kiesel" changeset="4306523" lat="34.2086087" lon="-81.5372108"/>
  <node id="495301318" version="4" timestamp="2010-04-02T22:20:56Z" uid="99207" user="Lar Kiesel" changeset="4308780" lat="34.2086087" lon="-81.5372108"/>
  <node id="495301318" version="5" timestamp="2011-10-16T16:24:30Z" uid="536243" user="Hemingray" changeset="9574042" lat="34.2085355" lon="-81.5371893"/>
  <node id="495301318" version="6" timestamp="2011-10-16T18:08:39Z" uid="536243" user="Hemingray" changeset="9575291" lat="34.2086153" lon="-81.5372108"/>
  <node id="495301349" version="1" timestamp="2009-09-13T15:01:35Z" uid="99207" user="Lar Kiesel" changeset="2470836" lat="34.2068554" lon="-81.5279068"/>
  <node id="495301349" version="2" timestamp="2010-01-20T15:19:47Z" uid="99207" user="Lar Kiesel" changeset="3667576" lat="34.2068554" lon="-81.5279068"/>
  <node id="495301349" version="3" timestamp="2010-04-02T18:22:49Z" uid="99207" user="Lar Kiesel" changeset="4306523" lat="34.2068554" lon="-81.5279068"/>
  <node id="495301349" version="4" timestamp="2010-04-02T22:20:57Z" uid="99207" user="Lar Kiesel" changeset="4308780" lat="34.2068554" lon="-81.5279068"/>
  <node id="495301349" version="5" timestamp="2011-10-16T16:24:30Z" uid="536243" user="Hemingray" changeset="9574042" lat="34.2067822" lon="-81.5278853"/>
  <node id="495301349" version="6" timestamp="2011-10-16T18:08:43Z" uid="536243" user="Hemingray" changeset="9575291" lat="34.206862" lon="-81.5279068"/>
  <node id="495301574" version="1" timestamp="2009-09-13T15:01:44Z" uid="171651" user="dablho" changeset="2470848" lat="51.5858417" lon="13.2396794">
    <tag k="addr:city" v="Falkenberg"/>
    <tag k="addr:housenumber" v="28"/>
    <tag k="addr:interpolation" v="even"/>
    <tag k="addr:postcode" v="04895"/>
    <tag k="addr:street" v="Walter-Rathenau-Straße"/>
  </node>
  <node id="495301574" version="3" timestamp="2009-09-30T12:44:31Z" uid="70696" user="xybot" changeset="2687117" lat="51.5858417" lon="13.2396794">
    <tag k="addr:city" v="Falkenberg/Elster"/>
    <tag k="addr:housenumber" v="28"/>
    <tag k="addr:postcode" v="04895"/>
    <tag k="addr:street" v="Walter-Rathenau-Straße"/>
  </node>
  <node id="495301574" version="4" timestamp="2009-10-18T21:28:51Z" uid="109035" user="Teddy80" changeset="2889445" lat="51.5858417" lon="13.2396794">
    <tag k="addr:city" v="Falkenberg/Elster"/>
    <tag k="addr:country" v="DE"/>
    <tag k="addr:housenumber" v="28"/>
    <tag k="addr:postcode" v="04895"/>
    <tag k="addr:street" v="Walter-Rathenau-Straße"/>
  </node>
  <node id="495301574" version="5" timestamp="2011-01-01T08:58:57Z" uid="109035" user="Teddy80" changeset="6825846" lat="51.5858417" lon="13.2396794">
    <tag k="addr:city" v="Falkenberg/Elster"/>
    <tag k="addr:country" v="DE"/>
    <tag k="addr:housenumber" v="28"/>
    <tag k="addr:postcode" v="04895"/>
    <tag k="addr:street" v="Walther-Rathenau-Straße"/>
  </node>
  <node id="495301574" version="6" timestamp="2011-12-13T05:31:10Z" uid="109035" user="Teddy80" changeset="10105009" lat="51.5858417" lon="13.2396794"/>
  <node id="495301605" version="1" timestamp="2009-09-13T15:01:45Z" uid="171651" user="dablho" changeset="2470848" lat="51.5858257" lon="13.239379">
    <tag k="addr:city" v="Falkenberg"/>
    <tag k="addr:housenumber" v="30"/>
    <tag k="addr:interpolation" v="even"/>
    <tag k="addr:postcode" v="04895"/>
    <tag k="addr:street" v="Walter-Rathenau-Straße"/>
  </node>
  <node id="495301605" version="3" timestamp="2009-09-30T12:44:32Z" uid="70696" user="xybot" changeset="2687117" lat="51.5858257" lon="13.239379">
    <tag k="addr:city" v="Falkenberg/Elster"/>
    <tag k="addr:housenumber" v="30"/>
    <tag k="addr:postcode" v="04895"/>
    <tag k="addr:street" v="Walter-Rathenau-Straße"/>
  </node>
  <node id="495301605" version="4" timestamp="2009-10-18T21:28:50Z" uid="109035" user="Teddy80" changeset="2889445" lat="51.5858257" lon="13.239379">
    <tag k="addr:city" v="Falkenberg/Elster"/>
    <tag k="addr:country" v="DE"/>
    <tag k="addr:housenumber" v="30"/>
    <tag k="addr:postcode" v="04895"/>
    <tag k="addr:street" v="Walter-Rathenau-Straße"/>
  </node>
  <node id="495301605" version="5" timestamp="2011-01-01T08:58:57Z" uid="109035" user="Teddy80" changeset="6825846" lat="51.5858257" lon="13.239379">
    <tag k="addr:city" v="Falkenberg/Elster"/>
    <tag k="addr:country" v="DE"/>
    <tag k="addr:housenumber" v="30"/>
    <tag k="addr:postcode" v="04895"/>
    <tag k="addr:street" v="Walther-Rathenau-Straße"/>
  </node>
  <node id="495301605" version="6" timestamp="2011-12-13T05:31:10Z" uid="109035" user="Teddy80" changeset="10105009" lat="51.5858257" lon="13.239379"/>
  <node id="495301619" version="1" timestamp="2009-09-13T15:01:45Z" uid="171651" user="dablho" changeset="2470848" lat="51.585687" lon="13.2397051">
    <tag k="addr:city" v="Falkenberg"/>
    <tag k="addr:housenumber" v="27"/>
    <tag k="addr:interpolation" v="odd"/>
    <tag k="addr:postcode" v="04895"/>
    <tag k="addr:street" v="Walter-Rathenau-Straße"/>
  </node>
  <node id="495301619" version="3" timestamp="2009-09-30T12:44:33Z" uid="70696" user="xybot" changeset="2687117" lat="51.585687" lon="13.2397051">
    <tag k="addr:city" v="Falkenberg/Elster"/>
    <tag k="addr:housenumber" v="27"/>
    <tag k="addr:postcode" v="04895"/>
    <tag k="addr:street" v="Walter-Rathenau-Straße"/>
    <tag k="shop" v="optician"/>
  </node>
  <node id="495301619" version="4" timestamp="2009-10-18T21:28:51Z" uid="109035" user="Teddy80" changeset="2889445" lat="51.585687" lon="13.2397051">
    <tag k="addr:city" v="Falkenberg/Elster"/>
    <tag k="addr:country" v="DE"/>
    <tag k="addr:housenumber" v="27a"/>
    <tag k="addr:postcode" v="04895"/>
    <tag k="addr:street" v="Walter-Rathenau-Straße"/>
    <tag k="shop" v="optician"/>
  </node>
  <node id="495301619" version="5" timestamp="2010-01-07T00:53:33Z" uid="109035" user="Teddy80" changeset="3558471" lat="51.585685" lon="13.2397053">
    <tag k="addr:city" v="Falkenberg/Elster"/>
    <tag k="addr:country" v="DE"/>
    <tag k="addr:housenumber" v="27a"/>
    <tag k="addr:postcode" v="04895"/>
    <tag k="addr:street" v="Walter-Rathenau-Straße"/>
    <tag k="shop" v="optician"/>
  </node>
  <node id="495301619" version="6" timestamp="2010-12-19T08:18:32Z" uid="109035" user="Teddy80" changeset="6703163" lat="51.5856312" lon="13.2396403">
    <tag k="addr:city" v="Falkenberg/Elster"/>
    <tag k="addr:country" v="DE"/>
    <tag k="addr:housenumber" v="27a"/>
    <tag k="addr:postcode" v="04895"/>
    <tag k="addr:street" v="Walter-Rathenau-Straße"/>
    <tag k="shop" v="optician"/>
  </node>
  <node id="495301619" version="7" timestamp="2010-12-25T07:35:07Z" uid="109035" user="Teddy80" changeset="6759113" lat="51.5856312" lon="13.2396403">
    <tag k="addr:city" v="Falkenberg/Elster"/>
    <tag k="addr:country" v="DE"/>
    <tag k="addr:housenumber" v="27a"/>
    <tag k="addr:postcode" v="04895"/>
    <tag k="addr:street" v="Walter-Rathenau-Straße"/>
    <tag k="name" v="Arnold Augenoptik"/>
    <tag k="phone" v="+49 35365 36474"/>
    <tag k="shop" v="optician"/>
  </node>
  <node id="495301619" version="8" timestamp="2011-01-01T08:58:53Z" uid="109035" user="Teddy80" changeset="6825846" lat="51.5856312" lon="13.2396403">
    <tag k="addr:city" v="Falkenberg/Elster"/>
    <tag k="addr:country" v="DE"/>
    <tag k="addr:housenumber" v="27a"/>
    <tag k="addr:postcode" v="04895"/>
    <tag k="addr:street" v="Walther-Rathenau-Straße"/>
    <tag k="name" v="Arnold Augenoptik"/>
    <tag k="phone" v="+49 35365 36474"/>
    <tag k="shop" v="optician"/>
  </node>
  <node id="495301619" version="9" timestamp="2011-04-10T18:32:44Z" uid="290680" user="wheelmap_visitor" changeset="7825727" lat="51.5856312" lon="13.2396403">
    <tag k="addr:city" v="Falkenberg/Elster"/>
    <tag k="addr:country" v="DE"/>
    <tag k="addr:housenumber" v="27a"/>
    <tag k="addr:postcode" v="04895"/>
    <tag k="addr:street" v="Walther-Rathenau-Straße"/>
    <tag k="name" v="Arnold Augenoptik"/>
    <tag k="phone" v="+49 35365 36474"/>
    <tag k="shop" v="optician"/>
    <tag k="wheelchair" v="no"/>
  </node>
  <node id="495301619" version="10" timestamp="2011-12-13T05:31:09Z" uid="109035" user="Teddy80" changeset="10105009" lat="51.5856312" lon="13.2396403"/>
  <node id="495301633" version="1" timestamp="2009-09-13T15:01:46Z" uid="171651" user="dablho" changeset="2470848" lat="51.5856657" lon="13.2393961">
    <tag k="addr:city" v="Falkenberg"/>
    <tag k="addr:housenumber" v="29"/>
    <tag k="addr:interpolation" v="odd"/>
    <tag k="addr:postcode" v="04895"/>
    <tag k="addr:street" v="Walter-Rathenau-Straße"/>
  </node>
  <node id="495301633" version="3" timestamp="2009-09-30T12:44:34Z" uid="70696" user="xybot" changeset="2687117" lat="51.5856657" lon="13.2393961">
    <tag k="addr:city" v="Falkenberg/Elster"/>
    <tag k="addr:housenumber" v="29"/>
    <tag k="addr:postcode" v="04895"/>
    <tag k="addr:street" v="Walter-Rathenau-Straße"/>
  </node>
  <node id="495301633" version="4" timestamp="2009-10-18T21:28:51Z" uid="109035" user="Teddy80" changeset="2889445" lat="51.5856657" lon="13.2393961">
    <tag k="addr:city" v="Falkenberg/Elster"/>
    <tag k="addr:country" v="DE"/>
    <tag k="addr:housenumber" v="29"/>
    <tag k="addr:postcode" v="04895"/>
    <tag k="addr:street" v="Walter-Rathenau-Straße"/>
  </node>
  <node id="495301633" version="5" timestamp="2009-10-31T19:02:35Z" uid="109035" user="Teddy80" changeset="3000428" lat="51.5856565" lon="13.2393933">
    <tag k="addr:city" v="Falkenberg/Elster"/>
    <tag k="addr:country" v="DE"/>
    <tag k="addr:housenumber" v="29"/>
    <tag k="addr:postcode" v="04895"/>
    <tag k="addr:street" v="Walter-Rathenau-Straße"/>
  </node>
  <node id="495301633" version="6" timestamp="2010-01-07T00:53:33Z" uid="109035" user="Teddy80" changeset="3558471" lat="51.5856725" lon="13.2393916">
    <tag k="addr:city" v="Falkenberg/Elster"/>
    <tag k="addr:country" v="DE"/>
    <tag k="addr:housenumber" v="29"/>
    <tag k="addr:postcode" v="04895"/>
    <tag k="addr:street" v="Walter-Rathenau-Straße"/>
  </node>
  <node id="495301633" version="7" timestamp="2010-12-19T08:18:35Z" uid="109035" user="Teddy80" changeset="6703163" lat="51.585621" lon="13.2393499">
    <tag k="addr:city" v="Falkenberg/Elster"/>
    <tag k="addr:country" v="DE"/>
    <tag k="addr:housenumber" v="29"/>
    <tag k="addr:postcode" v="04895"/>
    <tag k="addr:street" v="Walter-Rathenau-Straße"/>
  </node>
  <node id="495301633" version="8" timestamp="2011-01-01T08:58:54Z" uid="109035" user="Teddy80" changeset="6825846" lat="51.585621" lon="13.2393499">
    <tag k="addr:city" v="Falkenberg/Elster"/>
    <tag k="addr:country" v="DE"/>
    <tag k="addr:housenumber" v="29"/>
    <tag k="addr:postcode" v="04895"/>
    <tag k="addr:street" v="Walther-Rathenau-Straße"/>
  </node>
  <node id="495301633" version="9" timestamp="2011-12-14T07:37:41Z" uid="109035" user="Teddy80" changeset="10113562" lat="51.585621" lon="13.2393499"/>
  <node id="495301698" version="1" timestamp="2009-09-13T15:01:48Z" uid="99207" user="Lar Kiesel" changeset="2470836" lat="34.2013682" lon="-81.5298981"/>
  <node id="495301718" version="1" timestamp="2009-09-13T15:01:48Z" uid="99207" user="Lar Kiesel" changeset="2470836" lat="34.2055706" lon="-81.5316147"/>
  <node id="495301817" version="1" timestamp="2009-09-13T15:01:51Z" uid="99207" user="Lar Kiesel" changeset="2470836" lat="34.2073523" lon="-81.5328335"/>
  <node id="495302173" version="1" timestamp="2009-09-13T15:02:09Z" uid="99207" user="Lar Kiesel" changeset="2470836" lat="34.205386" lon="-81.5363182"/>
  <node id="495302177" version="1" timestamp="2009-09-13T15:02:10Z" uid="99207" user="Lar Kiesel" changeset="2470836" lat="34.2058758" lon="-81.5347904"/>
  <node id="495303430" version="2" timestamp="2010-09-12T16:46:19Z" uid="9581" user="Lobelt" changeset="5761543" lat="49.4474485" lon="8.2240832"/>
  <node id="495307458" version="1" timestamp="2009-09-13T15:09:51Z" uid="33382" user="de_muur" changeset="2470949" lat="53.017458" lon="9.0237761"/>
  <node id="495307461" version="1" timestamp="2009-09-13T15:09:51Z" uid="33382" user="de_muur" changeset="2470949" lat="53.0178092" lon="9.0240293"/>
  <node id="495307462" version="1" timestamp="2009-09-13T15:09:51Z" uid="33382" user="de_muur" changeset="2470949" lat="53.0182599" lon="9.0241802"/>
  <node id="495307463" version="1" timestamp="2009-09-13T15:09:51Z" uid="33382" user="de_muur" changeset="2470949" lat="53.0186322" lon="9.0241778"/>
  <node id="495307464" version="1" timestamp="2009-09-13T15:09:51Z" uid="33382" user="de_muur" changeset="2470949" lat="53.0169591" lon="9.0269526">
    <tag k="amenity" v="parking"/>
    <tag k="parking" v="park_and_ride"/>
  </node>
  <node id="495307464" version="2" timestamp="2009-10-08T14:10:45Z" uid="13203" user="bahnpirat" changeset="2783265" lat="53.0169591" lon="9.0269526">
    <tag k="amenity" v="parking"/>
    <tag k="parking" v="park_and_ride"/>
  </node>
  <node id="495307468" version="1" timestamp="2009-09-13T15:09:51Z" uid="33382" user="de_muur" changeset="2470949" lat="53.0202106" lon="9.0313943">
    <tag k="highway" v="traffic_signals"/>
  </node>
  <node id="495307468" version="2" timestamp="2010-12-12T08:15:01Z" uid="33382" user="de_muur" changeset="6632992" lat="53.0202106" lon="9.0313943">
    <tag k="highway" v="traffic_signals"/>
  </node>
  <node id="495307469" version="1" timestamp="2009-09-13T15:09:52Z" uid="33382" user="de_muur" changeset="2470949" lat="53.0204371" lon="9.0346377">
    <tag k="highway" v="traffic_signals"/>
  </node>
  <node id="495307470" version="1" timestamp="2009-09-13T15:09:52Z" uid="33382" user="de_muur" changeset="2470949" lat="53.0207957" lon="9.0346744">
    <tag k="sport" v="swimming"/>
  </node>
  <node id="495307470" version="2" timestamp="2011-02-08T17:45:05Z" uid="33382" user="de_muur" changeset="7228795" lat="53.0207957" lon="9.0346744">
    <tag k="sport" v="swimming"/>
  </node>
  <node id="495307471" version="1" timestamp="2009-09-13T15:09:52Z" uid="33382" user="de_muur" changeset="2470949" lat="53.0208771" lon="9.0411481">
    <tag k="amenity" v="parking"/>
    <tag k="parking" v="surface"/>
  </node>
  <node id="495307471" version="2" timestamp="2011-02-08T17:45:01Z" uid="33382" user="de_muur" changeset="7228795" lat="53.0211043" lon="9.0409266">
    <tag k="amenity" v="parking"/>
    <tag k="parking" v="surface"/>
  </node>
  <node id="495307471" version="3" timestamp="2011-03-26T20:24:44Z" uid="33382" user="de_muur" changeset="7679742" lat="53.0211043" lon="9.0409266">
    <tag k="amenity" v="parking"/>
    <tag k="parking" v="surface"/>
  </node>
  <node id="495307473" version="1" timestamp="2009-09-13T15:09:52Z" uid="33382" user="de_muur" changeset="2470949" lat="53.0212175" lon="9.0403585">
    <tag k="amenity" v="restaurant"/>
    <tag k="cuisine" v="greek"/>
    <tag k="name" v="Meteora"/>
  </node>
  <node id="495307473" version="2" timestamp="2011-02-08T17:45:02Z" uid="33382" user="de_muur" changeset="7228795" lat="53.0216166" lon="9.0403689">
    <tag k="amenity" v="restaurant"/>
    <tag k="cuisine" v="greek"/>
    <tag k="name" v="Meteora"/>
  </node>
  <node id="495307474" version="1" timestamp="2009-09-13T15:09:52Z" uid="33382" user="de_muur" changeset="2470949" lat="53.0208929" lon="9.037345">
    <tag k="leisure" v="sports_centre"/>
    <tag k="sport" v="multi"/>
  </node>
  <node id="495307474" version="2" timestamp="2011-02-08T17:45:01Z" uid="33382" user="de_muur" changeset="7228795" lat="53.0208555" lon="9.0360595">
    <tag k="leisure" v="sports_centre"/>
    <tag k="sport" v="multi"/>
  </node>
  <node id="495307474" version="3" timestamp="2011-03-26T20:24:44Z" uid="33382" user="de_muur" changeset="7679742" lat="53.0208555" lon="9.0360595">
    <tag k="leisure" v="sports_centre"/>
    <tag k="sport" v="multi"/>
  </node>
  <node id="495307476" version="1" timestamp="2009-09-13T15:09:52Z" uid="33382" user="de_muur" changeset="2470949" lat="53.0215951" lon="9.0422645">
    <tag k="traffic_sign" v="city_limit"/>
  </node>
</osm>
