<?xml version='1.0' encoding='UTF-8'?>
<osm version="0.6" generator="libosmium/2.20.0">
  <node id="49575409" version="3" timestamp="2008-02-16T19:31:22Z" uid="6975" user="ulfl" changeset="141861" lat="51.543017" lon="-0.0475785">
    <tag k="name" v="Tesco Metro"/>
    <tag k="shop" v="supermarket"/>
  </node>
  <node id="49575410" version="2" timestamp="2008-02-16T19:31:22Z" uid="6975" user="ulfl" changeset="141861" lat="51.5468935" lon="-0.0527603">
    <tag k="name" v="Tescos"/>
    <tag k="shop" v="supermarket"/>
  </node>
  <node id="49575410" version="3" timestamp="2008-03-18T20:01:10Z" uid="3762" user="stev" changeset="346397" lat="51.5468946" lon="-0.052764">
    <tag k="created_by" v="Potlatch 0.7b"/>
    <tag k="name" v="Tesco"/>
    <tag k="shop" v="supermarket"/>
  </node>
  <node id="49575410" version="4" timestamp="2009-01-04T23:49:03Z" uid="10785" user="Ollie" changeset="737685" lat="51.5468989" lon="-0.0527658">
    <tag k="created_by" v="Potlatch 0.7b"/>
    <tag k="name" v="Tesco"/>
    <tag k="shop" v="supermarket"/>
  </node>
</osm>
