<?xml version='1.0' encoding='UTF-8'?>
<osm version="0.6" generator="libosmium/2.20.0">
  <node id="496636629" version="1" timestamp="2009-09-15T00:25:56Z" uid="103576" user="DiverCTH" changeset="2487765" lat="34.9986227" lon="-85.0955352">
    <tag k="amenity" v="parking"/>
    <tag k="name" v="Bi-Lo Plaza Parking Lot"/>
  </node>
  <node id="496636629" version="2" timestamp="2012-01-24T14:39:32Z" uid="14850" user="T_9er" changeset="10485105" lat="34.9980738" lon="-85.0959033">
    <tag k="amenity" v="parking"/>
    <tag k="name" v="Bi-Lo Plaza Parking Lot"/>
  </node>
  <node id="496636840" version="1" timestamp="2009-09-15T00:26:19Z" uid="103576" user="DiverCTH" changeset="2487765" lat="34.9978212" lon="-85.0965395">
    <tag k="name" v="Super Bi-Lo"/>
    <tag k="shop" v="supermarket"/>
  </node>
  <node id="496636840" version="2" timestamp="2012-01-24T14:39:32Z" uid="14850" user="T_9er" changeset="10485105" lat="34.9979681" lon="-85.0966244">
    <tag k="name" v="Super Bi-Lo"/>
    <tag k="shop" v="supermarket"/>
  </node>
  <node id="496637849" version="1" timestamp="2009-09-15T00:27:32Z" uid="103576" user="DiverCTH" changeset="2487765" lat="34.9994805" lon="-85.0954494">
    <tag k="amenity" v="fuel"/>
  </node>
  <node id="496637849" version="2" timestamp="2009-11-23T06:31:34Z" uid="103576" user="DiverCTH" changeset="3192966" lat="34.9994805" lon="-85.0954494">
    <tag k="amenity" v="fuel"/>
    <tag k="name" v="BP"/>
  </node>
</osm>
