<?xml version='1.0' encoding='UTF-8'?>
<osm version="0.6" generator="libosmium/2.20.0">
  <node id="496795155" version="1" timestamp="2009-09-15T05:26:46Z" uid="38528" user="acrosscanadatrails" changeset="2488490" lat="49.1952239" lon="-123.1268077">
    <tag k="information" v="map"/>
    <tag k="map_size" v="site"/>
    <tag k="map_type" v="street"/>
    <tag k="tourism" v="information"/>
  </node>
  <node id="496795155" version="2" timestamp="2012-01-31T20:47:12Z" uid="147510" user="woodpeck_fixbot" changeset="10553318" lat="49.1952239" lon="-123.1268077"/>
  <node id="496795156" version="1" timestamp="2009-09-15T05:26:46Z" uid="38528" user="acrosscanadatrails" changeset="2488490" lat="49.1951423" lon="-123.1269013">
    <tag k="amenity" v="bicycle_parking"/>
  </node>
  <node id="496795156" version="2" timestamp="2012-01-31T20:47:13Z" uid="147510" user="woodpeck_fixbot" changeset="10553318" lat="49.1951423" lon="-123.1269013"/>
  <node id="496795157" version="1" timestamp="2009-09-15T05:26:46Z" uid="38528" user="acrosscanadatrails" changeset="2488490" lat="49.1951894" lon="-123.126821">
    <tag k="amenity" v="bicycle_parking"/>
  </node>
  <node id="496795157" version="2" timestamp="2012-01-31T20:47:13Z" uid="147510" user="woodpeck_fixbot" changeset="10553318" lat="49.1951894" lon="-123.126821"/>
  <node id="496795158" version="1" timestamp="2009-09-15T05:26:46Z" uid="38528" user="acrosscanadatrails" changeset="2488490" lat="49.1954202" lon="-123.1263889">
    <tag k="highway" v="platform"/>
    <tag k="ref" v="Bay 2 (unloading only)"/>
  </node>
  <node id="496795158" version="2" timestamp="2010-02-25T23:05:10Z" uid="1679" user="andrewpmk" changeset="3976736" lat="49.1954202" lon="-123.126389">
    <tag k="highway" v="bus_stop"/>
    <tag k="ref" v="Bay 2 (unloading only)"/>
  </node>
  <node id="496795159" version="1" timestamp="2009-09-15T05:26:46Z" uid="38528" user="acrosscanadatrails" changeset="2488490" lat="49.1954105" lon="-123.1266891">
    <tag k="highway" v="platform"/>
    <tag k="ref" v="Bay 9"/>
  </node>
  <node id="496795159" version="2" timestamp="2010-02-25T23:05:10Z" uid="1679" user="andrewpmk" changeset="3976736" lat="49.1954105" lon="-123.126689">
    <tag k="highway" v="bus_stop"/>
    <tag k="ref" v="Bay 9"/>
  </node>
  <node id="496795160" version="1" timestamp="2009-09-15T05:26:46Z" uid="38528" user="acrosscanadatrails" changeset="2488490" lat="49.1952813" lon="-123.1269304">
    <tag k="highway" v="platform"/>
    <tag k="ref" v="Bay 8"/>
  </node>
  <node id="496795160" version="2" timestamp="2010-02-25T23:05:09Z" uid="1679" user="andrewpmk" changeset="3976736" lat="49.1952813" lon="-123.12693">
    <tag k="highway" v="bus_stop"/>
    <tag k="ref" v="Bay 8"/>
  </node>
  <node id="496795161" version="1" timestamp="2009-09-15T05:26:47Z" uid="38528" user="acrosscanadatrails" changeset="2488490" lat="49.1951787" lon="-123.1271195">
    <tag k="highway" v="platform"/>
    <tag k="ref" v="Bay 7"/>
  </node>
  <node id="496795161" version="2" timestamp="2010-02-25T23:05:10Z" uid="1679" user="andrewpmk" changeset="3976736" lat="49.1951787" lon="-123.12712">
    <tag k="highway" v="bus_stop"/>
    <tag k="ref" v="Bay 7"/>
  </node>
  <node id="496795162" version="1" timestamp="2009-09-15T05:26:47Z" uid="38528" user="acrosscanadatrails" changeset="2488490" lat="49.1950384" lon="-123.1273557">
    <tag k="highway" v="platform"/>
    <tag k="ref" v="Bay 6"/>
  </node>
  <node id="496795162" version="2" timestamp="2010-02-25T23:05:09Z" uid="1679" user="andrewpmk" changeset="3976736" lat="49.1950384" lon="-123.127356">
    <tag k="highway" v="bus_stop"/>
    <tag k="ref" v="Bay 6"/>
  </node>
  <node id="496795163" version="1" timestamp="2009-09-15T05:26:47Z" uid="38528" user="acrosscanadatrails" changeset="2488490" lat="49.1949239" lon="-123.1271336">
    <tag k="highway" v="platform"/>
    <tag k="ref" v="Bay 5"/>
  </node>
  <node id="496795163" version="2" timestamp="2010-02-25T23:05:09Z" uid="1679" user="andrewpmk" changeset="3976736" lat="49.1949239" lon="-123.127134">
    <tag k="highway" v="bus_stop"/>
    <tag k="ref" v="Bay 5"/>
  </node>
  <node id="496795164" version="1" timestamp="2009-09-15T05:26:47Z" uid="38528" user="acrosscanadatrails" changeset="2488490" lat="49.1949985" lon="-123.1269114">
    <tag k="highway" v="platform"/>
    <tag k="ref" v="Bay 4"/>
  </node>
  <node id="496795164" version="2" timestamp="2010-02-25T23:05:09Z" uid="1679" user="andrewpmk" changeset="3976736" lat="49.1949985" lon="-123.126911">
    <tag k="highway" v="bus_stop"/>
    <tag k="ref" v="Bay 4"/>
  </node>
  <node id="496795165" version="1" timestamp="2009-09-15T05:26:47Z" uid="38528" user="acrosscanadatrails" changeset="2488490" lat="49.1952019" lon="-123.1266242">
    <tag k="highway" v="platform"/>
    <tag k="ref" v="Bay 3"/>
  </node>
  <node id="496795165" version="2" timestamp="2010-02-25T23:05:09Z" uid="1679" user="andrewpmk" changeset="3976736" lat="49.1952019" lon="-123.126624">
    <tag k="highway" v="bus_stop"/>
    <tag k="ref" v="Bay 3"/>
  </node>
  <node id="496795166" version="1" timestamp="2009-09-15T05:26:47Z" uid="38528" user="acrosscanadatrails" changeset="2488490" lat="49.1956328" lon="-123.1261566">
    <tag k="highway" v="platform"/>
    <tag k="ref" v="Bay 1 (unloading only)"/>
  </node>
  <node id="496795166" version="2" timestamp="2010-12-01T08:05:43Z" uid="355617" user="pnorman" changeset="6500800" lat="49.1956273" lon="-123.1262125">
    <tag k="highway" v="bus_stop"/>
    <tag k="ref" v="Bay 1 (unloading only)"/>
  </node>
</osm>
