<?xml version='1.0' encoding='UTF-8'?>
<osm version="0.6" generator="libosmium/2.20.0">
  <node id="496774164" version="1" timestamp="2009-09-15T04:36:57Z" uid="74617" user="JohnSmith" changeset="2488309" lat="-26.6618" lon="153.1024">
    <tag k="amenity" v="fast_food"/>
    <tag k="cuisine" v="burger"/>
    <tag k="name" v="McDonalds"/>
  </node>
  <node id="496774164" version="2" timestamp="2009-09-15T08:41:23Z" uid="74617" user="JohnSmith" changeset="2489877" lat="-26.661737" lon="153.102458">
    <tag k="amenity" v="fast_food"/>
    <tag k="cuisine" v="burger"/>
    <tag k="name" v="McDonalds"/>
    <tag k="source" v="survey"/>
  </node>
  <node id="496774164" version="3" timestamp="2010-04-18T00:19:57Z" uid="14505" user="David Dean" changeset="4453594" lat="-26.6615932" lon="153.1024288">
    <tag k="amenity" v="fast_food"/>
    <tag k="cuisine" v="burger"/>
    <tag k="name" v="McDonalds"/>
    <tag k="source" v="survey"/>
  </node>
  <node id="496774164" version="4" timestamp="2010-08-06T16:56:33Z" uid="207745" user="NE2" changeset="5418228" lat="-26.6615932" lon="153.1024288">
    <tag k="amenity" v="fast_food"/>
    <tag k="cuisine" v="burger"/>
    <tag k="name" v="McDonald&apos;s"/>
    <tag k="source" v="survey"/>
  </node>
</osm>
