<?xml version='1.0' encoding='UTF-8'?>
<osm version="0.6" generator="libosmium/2.20.0">
  <node id="498410969" version="2" timestamp="2009-10-10T17:07:44Z" uid="9581" user="Lobelt" changeset="2806249" lat="50.4818648" lon="11.6064622"/>
  <node id="498410971" version="2" timestamp="2009-10-10T17:07:44Z" uid="9581" user="Lobelt" changeset="2806249" lat="50.4817806" lon="11.6064347"/>
  <node id="498410974" version="2" timestamp="2009-10-10T17:39:26Z" uid="9581" user="Lobelt" changeset="2806612" lat="50.4512734" lon="11.6426498"/>
  <node id="498410974" version="3" timestamp="2012-01-26T12:47:45Z" uid="192395" user="BBO" changeset="10502777" lat="50.4512734" lon="11.6426498"/>
  <node id="498410976" version="2" timestamp="2009-10-10T17:39:26Z" uid="9581" user="Lobelt" changeset="2806612" lat="50.4513746" lon="11.6428175"/>
  <node id="498410976" version="3" timestamp="2012-01-26T12:47:46Z" uid="192395" user="BBO" changeset="10502777" lat="50.4513746" lon="11.6428175"/>
  <node id="498410977" version="2" timestamp="2009-10-10T17:39:26Z" uid="9581" user="Lobelt" changeset="2806612" lat="50.4475079" lon="11.6450492"/>
  <node id="498410977" version="3" timestamp="2011-07-10T16:58:54Z" uid="13257" user="rolandm" changeset="8685702" lat="50.4474344" lon="11.6449594"/>
  <node id="498410979" version="2" timestamp="2009-10-10T17:39:26Z" uid="9581" user="Lobelt" changeset="2806612" lat="50.4476308" lon="11.6450748"/>
  <node id="498410979" version="3" timestamp="2011-07-10T16:58:54Z" uid="13257" user="rolandm" changeset="8685702" lat="50.4476308" lon="11.6449978"/>
  <node id="498411414" version="1" timestamp="2009-09-16T18:25:32Z" uid="43967" user="railsnail" changeset="2505471" lat="46.0128539" lon="13.0709828">
    <tag k="is_in" v="Italia"/>
    <tag k="name" v="Villaorba"/>
    <tag k="place" v="village"/>
  </node>
  <node id="498411414" version="2" timestamp="2011-10-29T19:32:50Z" uid="129060" user="Klenje" changeset="9687849" lat="46.0128539" lon="13.0709828">
    <tag k="is_in" v="Italia"/>
    <tag k="place" v="village"/>
  </node>
  <node id="498412208" version="1" timestamp="2009-09-16T18:27:54Z" uid="43967" user="railsnail" changeset="2505514" lat="45.9994272" lon="13.0841498">
    <tag k="is_in" v="Italia"/>
    <tag k="name" v="Basagliapenta"/>
    <tag k="place" v="village"/>
  </node>
  <node id="498412208" version="2" timestamp="2010-06-18T19:00:26Z" uid="129060" user="Klenje" changeset="5018554" lat="45.9994272" lon="13.0841498">
    <tag k="is_in" v="Italia"/>
    <tag k="name" v="Basagliapenta"/>
    <tag k="name:fur" v="Visepente"/>
    <tag k="place" v="village"/>
  </node>
  <node id="498412208" version="3" timestamp="2010-06-20T09:28:50Z" uid="129060" user="Klenje" changeset="5031044" lat="45.9994272" lon="13.0841498">
    <tag k="is_in" v="Italia"/>
    <tag k="name" v="Basagliapenta"/>
    <tag k="name:fur" v="Visepente"/>
    <tag k="place" v="village"/>
  </node>
  <node id="498413350" version="1" timestamp="2009-09-16T18:29:54Z" uid="43967" user="railsnail" changeset="2505514" lat="45.9812092" lon="13.086081">
    <tag k="is_in" v="Italia"/>
    <tag k="name" v="Nespoledo"/>
    <tag k="place" v="village"/>
  </node>
  <node id="498413350" version="2" timestamp="2011-10-04T17:09:07Z" uid="129060" user="Klenje" changeset="9471218" lat="45.9812092" lon="13.086081">
    <tag k="is_in" v="Italia"/>
    <tag k="name" v="Nespoledo"/>
    <tag k="name:fur" v="GnespolÃªt"/>
    <tag k="place" v="village"/>
  </node>
  <node id="498414830" version="1" timestamp="2009-09-16T18:33:07Z" uid="43967" user="railsnail" changeset="2505572" lat="45.9608929" lon="13.0929941">
    <tag k="is_in" v="Italia"/>
    <tag k="name" v="Pozzecco"/>
    <tag k="place" v="village"/>
  </node>
  <node id="498414830" version="2" timestamp="2011-10-04T17:09:07Z" uid="129060" user="Klenje" changeset="9471218" lat="45.9608929" lon="13.0929941">
    <tag k="is_in" v="Italia"/>
    <tag k="name" v="Pozzecco"/>
    <tag k="name:fur" v="Possec"/>
    <tag k="place" v="village"/>
  </node>
  <node id="498415987" version="1" timestamp="2009-09-16T18:34:18Z" uid="43967" user="railsnail" changeset="2505572" lat="45.9332611" lon="13.0935091">
    <tag k="is_in" v="Italia"/>
    <tag k="name" v="Flambro"/>
    <tag k="place" v="village"/>
  </node>
  <node id="498415987" version="2" timestamp="2011-10-04T17:09:06Z" uid="129060" user="Klenje" changeset="9471218" lat="45.9332611" lon="13.0935091">
    <tag k="is_in" v="Italia"/>
    <tag k="name" v="Flambro"/>
    <tag k="name:fur" v="Flambri"/>
    <tag k="place" v="village"/>
  </node>
  <node id="498416796" version="1" timestamp="2009-09-16T18:36:49Z" uid="43967" user="railsnail" changeset="2505616" lat="45.9398955" lon="13.2058542">
    <tag k="is_in" v="Italia"/>
    <tag k="name" v="Chiasselis"/>
    <tag k="place" v="village"/>
  </node>
  <node id="498416796" version="2" timestamp="2009-09-27T19:49:16Z" uid="129060" user="Klenje" changeset="2657733" lat="45.9398955" lon="13.2058542">
    <tag k="is_in" v="Italia"/>
    <tag k="name" v="Chiasiellis"/>
    <tag k="name:fur" v="Cjasielis"/>
    <tag k="place" v="village"/>
  </node>
  <node id="498416987" version="1" timestamp="2009-09-16T18:37:22Z" uid="43967" user="railsnail" changeset="2505616" lat="45.9342548" lon="13.2264965">
    <tag k="is_in" v="Italia"/>
    <tag k="name" v="Cuccana"/>
    <tag k="place" v="village"/>
  </node>
  <node id="498416987" version="2" timestamp="2009-11-02T19:41:19Z" uid="129060" user="Klenje" changeset="3019181" lat="45.9342548" lon="13.2264965">
    <tag k="is_in" v="Italia"/>
    <tag k="name" v="Cuccana"/>
    <tag k="name:fur" v="Cucane"/>
    <tag k="place" v="village"/>
  </node>
</osm>
