<?xml version='1.0' encoding='UTF-8'?>
<osm version="0.6" generator="libosmium/2.20.0">
  <node id="49861695" version="2" timestamp="2007-10-28T20:21:17Z" uid="13367" user="nubok" changeset="343478" lat="52.1391999" lon="11.7363814">
    <tag k="created_by" v="Potlatch 0.4b"/>
    <tag k="name" v="Heyrothsberge"/>
    <tag k="place" v="village"/>
  </node>
  <node id="49861695" version="3" timestamp="2007-11-11T16:35:59Z" uid="7094" user="Eratosthenes" changeset="473108" lat="52.1391957" lon="11.7363895">
    <tag k="created_by" v="Potlatch 0.5"/>
    <tag k="name" v="Heyrothsberge"/>
    <tag k="place" v="village"/>
  </node>
  <node id="49861695" version="4" timestamp="2007-11-11T16:42:24Z" uid="7094" user="Eratosthenes" changeset="473108" lat="52.1391957" lon="11.7363895">
    <tag k="created_by" v="Potlatch 0.5"/>
    <tag k="name" v="Heyrothsberge"/>
    <tag k="place" v="village"/>
  </node>
  <node id="49861695" version="5" timestamp="2009-03-15T15:37:58Z" uid="42683" user="riechfield" changeset="813435" lat="52.1391957" lon="11.7363895">
    <tag k="is_in" v="Biederitz"/>
    <tag k="name" v="Heyrothsberge"/>
    <tag k="place" v="suburb"/>
  </node>
  <node id="49861695" version="6" timestamp="2011-11-30T17:32:57Z" uid="390227" user="richtkreiser" changeset="10001176" lat="52.1380497" lon="11.7340561">
    <tag k="is_in" v="Biederitz"/>
    <tag k="name" v="Heyrothsberge"/>
    <tag k="place" v="suburb"/>
  </node>
</osm>
