<?xml version='1.0' encoding='UTF-8'?>
<osm version="0.6" generator="libosmium/2.20.0">
  <node id="500091249" version="3" timestamp="2010-10-29T05:45:15Z" uid="4467" user="Rosscoe" changeset="6214505" lat="-37.7831544" lon="144.8344621"/>
  <node id="500091252" version="2" timestamp="2010-10-29T05:45:08Z" uid="4467" user="Rosscoe" changeset="6214505" lat="-37.7829415" lon="144.8326485"/>
  <node id="500091255" version="2" timestamp="2010-10-29T05:44:35Z" uid="4467" user="Rosscoe" changeset="6214505" lat="-37.7813677" lon="144.8329232"/>
  <node id="500091259" version="2" timestamp="2010-10-29T05:45:00Z" uid="4467" user="Rosscoe" changeset="6214505" lat="-37.7814627" lon="144.8338158"/>
  <node id="500091262" version="2" timestamp="2010-10-29T05:44:52Z" uid="4467" user="Rosscoe" changeset="6214505" lat="-37.7818561" lon="144.8337558"/>
  <node id="500091264" version="3" timestamp="2010-10-29T05:45:16Z" uid="4467" user="Rosscoe" changeset="6214505" lat="-37.7819715" lon="144.8346794"/>
  <node id="500091277" version="1" timestamp="2009-09-18T10:28:40Z" uid="58091" user="Andreas M" changeset="2522497" lat="48.236597" lon="16.3796367">
    <tag k="addr:city" v="Wien"/>
    <tag k="addr:country" v="AT"/>
    <tag k="addr:housenumber" v="60"/>
    <tag k="addr:postcode" v="1200"/>
    <tag k="addr:street" v="Dresdner Straße"/>
    <tag k="name" v="Goldadler"/>
    <tag k="shop" v="computer"/>
  </node>
  <node id="500091277" version="2" timestamp="2010-05-21T15:22:35Z" uid="285891" user="Jango" changeset="4766977" lat="48.2366234" lon="16.3794384">
    <tag k="addr:city" v="Wien"/>
    <tag k="addr:country" v="AT"/>
    <tag k="addr:housenumber" v="60"/>
    <tag k="addr:postcode" v="1200"/>
    <tag k="addr:street" v="Dresdner Straße"/>
    <tag k="name" v="Goldadler"/>
    <tag k="shop" v="computer"/>
  </node>
  <node id="500091277" version="3" timestamp="2011-03-31T21:20:59Z" uid="232372" user="wosm20" changeset="7730316" lat="48.2366855" lon="16.3793284">
    <tag k="addr:city" v="Wien"/>
    <tag k="addr:country" v="AT"/>
    <tag k="addr:housenumber" v="60"/>
    <tag k="addr:postcode" v="1200"/>
    <tag k="addr:street" v="Dresdner Straße"/>
    <tag k="name" v="Goldadler"/>
    <tag k="shop" v="computer"/>
  </node>
  <node id="500091277" version="4" timestamp="2011-04-03T10:36:12Z" uid="232372" user="wosm20" changeset="7752493" lat="48.2366014" lon="16.3791461">
    <tag k="addr:city" v="Wien"/>
    <tag k="addr:country" v="AT"/>
    <tag k="addr:housenumber" v="60"/>
    <tag k="addr:postcode" v="1200"/>
    <tag k="addr:street" v="Dresdner Straße"/>
    <tag k="email" v="verkauf20@goldadler.com"/>
    <tag k="fax" v="+43 1 89501584 15"/>
    <tag k="name" v="Goldadler"/>
    <tag k="note" v="Eingang Hellwagstraße 10"/>
    <tag k="opening_hours" v="Mo-Fr 10:00-18:00, Sa 10:00-13:00"/>
    <tag k="phone" v="+43 1 8901584"/>
    <tag k="shop" v="computer"/>
    <tag k="website" v="http://www.goldadler.at/"/>
  </node>
</osm>
