<?xml version='1.0' encoding='UTF-8'?>
<osm version="0.6" generator="libosmium/2.20.0">
  <node id="50014360" version="3" timestamp="2009-07-12T13:07:07Z" uid="142575" user="dalailama" changeset="1806939" lat="54.6282197" lon="8.3752902">
    <tag k="amenity" v="parking"/>
    <tag k="created_by" v="JOSM"/>
    <tag k="source" v="survey"/>
  </node>
  <node id="50014360" version="4" timestamp="2009-07-27T20:25:29Z" uid="45263" user="Noframe" changeset="1959507" lat="54.6282147" lon="8.3753727">
    <tag k="amenity" v="parking"/>
    <tag k="created_by" v="JOSM"/>
    <tag k="name" v="Badeland"/>
    <tag k="source" v="survey"/>
  </node>
  <node id="50014360" version="5" timestamp="2010-12-14T20:00:38Z" uid="8748" user="ToniE" changeset="6661823" lat="54.6281543" lon="8.3753433">
    <tag k="amenity" v="parking"/>
    <tag k="name" v="Badeland"/>
    <tag k="source" v="survey"/>
  </node>
  <node id="50014360" version="6" timestamp="2011-11-21T09:58:22Z" uid="40397" user="Zartbitter" changeset="9895249" lat="54.6281543" lon="8.3753433"/>
  <node id="50016356" version="10" timestamp="2009-07-23T01:40:51Z" uid="20587" user="balrog-kun" changeset="1910614" lat="-33.4378034" lon="-70.6506537">
    <tag k="capital" v="yes"/>
    <tag k="is_in" v="Chile, Latin America"/>
    <tag k="is_in:continent" v="South America"/>
    <tag k="name" v="Santiago"/>
    <tag k="official_name" v="Santiago de Chile"/>
    <tag k="place" v="city"/>
    <tag k="wikipedia" v="Santiago, Chile"/>
  </node>
  <node id="50016356" version="11" timestamp="2009-09-01T03:00:10Z" uid="39060" user="madek" changeset="2332912" lat="-33.4378411" lon="-70.6505244">
    <tag k="capital" v="yes"/>
    <tag k="is_in" v="Chile, Latin America"/>
    <tag k="is_in:continent" v="South America"/>
    <tag k="name" v="Santiago"/>
    <tag k="official_name" v="Santiago de Chile"/>
    <tag k="place" v="city"/>
    <tag k="wikipedia" v="Santiago, Chile"/>
  </node>
  <node id="50016356" version="12" timestamp="2009-09-06T19:42:54Z" uid="24965" user="Ævar Arnfjörð Bjarmason" changeset="2395774" lat="-33.4378411" lon="-70.6505244">
    <tag k="capital" v="yes"/>
    <tag k="is_in" v="Chile, Latin America"/>
    <tag k="is_in:continent" v="South America"/>
    <tag k="name" v="Santiago"/>
    <tag k="name:is" v="Santíagó"/>
    <tag k="official_name" v="Santiago de Chile"/>
    <tag k="place" v="city"/>
    <tag k="wikipedia" v="Santiago, Chile"/>
  </node>
  <node id="50016356" version="13" timestamp="2009-09-24T17:09:36Z" uid="22108" user="afonin" changeset="2607929" lat="-33.4378411" lon="-70.6505244">
    <tag k="capital" v="yes"/>
    <tag k="is_in" v="Chile, Latin America"/>
    <tag k="is_in:continent" v="South America"/>
    <tag k="name" v="Santiago"/>
    <tag k="name:is" v="Santíagó"/>
    <tag k="name:ru" v="Сентьяго"/>
    <tag k="official_name" v="Santiago de Chile"/>
    <tag k="place" v="city"/>
    <tag k="wikipedia" v="Santiago, Chile"/>
  </node>
  <node id="50016356" version="14" timestamp="2010-03-08T14:19:31Z" uid="221997" user="EuskalMapa" changeset="4072180" lat="-33.4378411" lon="-70.6505244">
    <tag k="capital" v="yes"/>
    <tag k="is_in" v="Chile, Latin America"/>
    <tag k="is_in:continent" v="South America"/>
    <tag k="name" v="Santiago"/>
    <tag k="name:eu" v="Santiago"/>
    <tag k="name:is" v="Santíagó"/>
    <tag k="name:ru" v="Сентьяго"/>
    <tag k="official_name" v="Santiago de Chile"/>
    <tag k="place" v="city"/>
    <tag k="wikipedia" v="Santiago, Chile"/>
  </node>
  <node id="50016356" version="15" timestamp="2010-08-24T00:56:24Z" uid="326787" user="MMDD" changeset="5576491" lat="-33.4378411" lon="-70.6505244">
    <tag k="capital" v="yes"/>
    <tag k="is_in" v="Región Metropolitana de Santiago; Chile; América del Sur"/>
    <tag k="is_in:continent" v="South America"/>
    <tag k="name" v="Santiago"/>
    <tag k="name:eu" v="Santiago"/>
    <tag k="name:is" v="Santíagó"/>
    <tag k="name:ru" v="Сентьяго"/>
    <tag k="official_name" v="Santiago de Chile"/>
    <tag k="place" v="city"/>
    <tag k="wikipedia" v="Santiago, Chile"/>
  </node>
  <node id="50016356" version="16" timestamp="2010-11-14T09:27:45Z" uid="76269" user="Snusmumriken" changeset="6364710" lat="-33.4378411" lon="-70.6505244">
    <tag k="capital" v="yes"/>
    <tag k="is_in" v="Región Metropolitana de Santiago; Chile; América del Sur"/>
    <tag k="is_in:continent" v="South America"/>
    <tag k="name" v="Santiago"/>
    <tag k="name:eu" v="Santiago"/>
    <tag k="name:is" v="Santíagó"/>
    <tag k="name:ru" v="Сентьяго"/>
    <tag k="name:sv" v="Santiago"/>
    <tag k="official_name" v="Santiago de Chile"/>
    <tag k="place" v="city"/>
    <tag k="wikipedia" v="Santiago, Chile"/>
  </node>
  <node id="50016356" version="17" timestamp="2011-01-12T18:15:45Z" uid="337684" user="felipeedwards" changeset="6949291" lat="-33.4378411" lon="-70.6505244">
    <tag k="capital" v="yes"/>
    <tag k="is_in" v="Región Metropolitana de Santiago; Chile; América del Sur"/>
    <tag k="is_in:continent" v="South America"/>
    <tag k="is_in:municipality" v="Santiago"/>
    <tag k="is_in:province" v="Santiago"/>
    <tag k="is_in:region" v="Region Metropolitana"/>
    <tag k="is_in:state" v="Region Metropolitana"/>
    <tag k="name" v="Santiago"/>
    <tag k="name:eu" v="Santiago"/>
    <tag k="name:is" v="Santíagó"/>
    <tag k="name:ru" v="Сентьяго"/>
    <tag k="name:sv" v="Santiago"/>
    <tag k="official_name" v="Santiago de Chile"/>
    <tag k="place" v="city"/>
    <tag k="wikipedia" v="Santiago, Chile"/>
  </node>
  <node id="50016356" version="18" timestamp="2011-04-06T16:32:14Z" uid="39060" user="madek" changeset="7786609" lat="-33.437841" lon="-70.6505245">
    <tag k="capital" v="yes"/>
    <tag k="is_in" v="Región Metropolitana de Santiago; Chile; América del Sur"/>
    <tag k="is_in:continent" v="South America"/>
    <tag k="is_in:municipality" v="Santiago"/>
    <tag k="is_in:province" v="Santiago"/>
    <tag k="is_in:region" v="Region Metropolitana"/>
    <tag k="name" v="Santiago de Chile"/>
    <tag k="name:eu" v="Santiago"/>
    <tag k="name:is" v="Santíagó"/>
    <tag k="name:ru" v="Сентьяго"/>
    <tag k="name:sv" v="Santiago"/>
    <tag k="official_name" v="Santiago de Chile"/>
    <tag k="place" v="city"/>
    <tag k="wikipedia" v="Santiago, Chile"/>
  </node>
  <node id="50016356" version="19" timestamp="2011-04-08T17:22:11Z" uid="39060" user="madek" changeset="7805982" lat="-33.4378409" lon="-70.6505246">
    <tag k="capital" v="yes"/>
    <tag k="is_in" v="Región Metropolitana de Santiago; Chile; América del Sur"/>
    <tag k="is_in:continent" v="South America"/>
    <tag k="is_in:municipality" v="Santiago"/>
    <tag k="is_in:province" v="Santiago"/>
    <tag k="is_in:region" v="Region Metropolitana"/>
    <tag k="name" v="Santiago"/>
    <tag k="name:eu" v="Santiago"/>
    <tag k="name:is" v="Santíagó"/>
    <tag k="name:ru" v="Сентьяго"/>
    <tag k="name:sv" v="Santiago"/>
    <tag k="official_name" v="Santiago de Chile"/>
    <tag k="place" v="city"/>
    <tag k="wikipedia" v="Santiago de Chile"/>
  </node>
  <node id="50016356" version="20" timestamp="2011-04-13T10:19:49Z" uid="219187" user="jgc" changeset="7850397" lat="-33.4378409" lon="-70.6505246">
    <tag k="capital" v="yes"/>
    <tag k="is_in" v="Región Metropolitana de Santiago; Chile; América del Sur"/>
    <tag k="is_in:continent" v="South America"/>
    <tag k="is_in:municipality" v="Santiago"/>
    <tag k="is_in:province" v="Santiago"/>
    <tag k="is_in:region" v="Region Metropolitana"/>
    <tag k="name" v="Santiago"/>
    <tag k="name:eu" v="Santiago"/>
    <tag k="name:fr" v="Santiago du Chili"/>
    <tag k="name:is" v="Santíagó"/>
    <tag k="name:ru" v="Сентьяго"/>
    <tag k="name:sv" v="Santiago"/>
    <tag k="official_name" v="Santiago de Chile"/>
    <tag k="place" v="city"/>
    <tag k="wikipedia" v="es:Santiago_de_Chile"/>
  </node>
  <node id="50016356" version="21" timestamp="2011-04-26T11:37:51Z" uid="334156" user="desilex" changeset="7973794" lat="-33.4378409" lon="-70.6505246">
    <tag k="capital" v="yes"/>
    <tag k="is_in" v="Región Metropolitana de Santiago; Chile; América del Sur"/>
    <tag k="is_in:continent" v="South America"/>
    <tag k="is_in:municipality" v="Santiago"/>
    <tag k="is_in:province" v="Santiago"/>
    <tag k="is_in:region" v="Region Metropolitana"/>
    <tag k="name" v="Santiago"/>
    <tag k="name:eu" v="Santiago"/>
    <tag k="name:fr" v="Santiago du Chili"/>
    <tag k="name:is" v="Santíagó"/>
    <tag k="name:ru" v="Сантьяго"/>
    <tag k="name:sv" v="Santiago"/>
    <tag k="official_name" v="Santiago de Chile"/>
    <tag k="place" v="city"/>
    <tag k="wikipedia" v="es:Santiago_de_Chile"/>
  </node>
  <node id="50016356" version="22" timestamp="2011-05-11T21:57:15Z" uid="449385" user="OttoPilot" changeset="8117100" lat="-33.4379537" lon="-70.650404">
    <tag k="capital" v="yes"/>
    <tag k="is_in" v="Región Metropolitana de Santiago; Chile; América del Sur"/>
    <tag k="is_in:continent" v="South America"/>
    <tag k="is_in:municipality" v="Santiago"/>
    <tag k="is_in:province" v="Santiago"/>
    <tag k="is_in:region" v="Region Metropolitana"/>
    <tag k="name" v="Santiago"/>
    <tag k="name:eu" v="Santiago"/>
    <tag k="name:fr" v="Santiago du Chili"/>
    <tag k="name:is" v="Santíagó"/>
    <tag k="name:ru" v="Сантьяго"/>
    <tag k="name:sv" v="Santiago"/>
    <tag k="official_name" v="Santiago de Chile"/>
    <tag k="place" v="city"/>
    <tag k="wikipedia" v="es:Santiago_de_Chile"/>
  </node>
  <node id="50016356" version="23" timestamp="2011-06-14T01:48:32Z" uid="443717" user="Luis_ibarra" changeset="8433117" lat="-33.4379537" lon="-70.650404">
    <tag k="capital" v="yes"/>
    <tag k="is_in" v="Región Metropolitana de Santiago; Chile; América del Sur"/>
    <tag k="is_in:continent" v="South America"/>
    <tag k="is_in:country" v="Chile"/>
    <tag k="is_in:municipality" v="Santiago"/>
    <tag k="is_in:province" v="Santiago"/>
    <tag k="is_in:region" v="Region Metropolitana"/>
    <tag k="name" v="Santiago"/>
    <tag k="name:eu" v="Santiago"/>
    <tag k="name:fr" v="Santiago du Chili"/>
    <tag k="name:is" v="Santíagó"/>
    <tag k="name:ru" v="Сантьяго"/>
    <tag k="name:sv" v="Santiago"/>
    <tag k="official_name" v="Santiago de Chile"/>
    <tag k="place" v="city"/>
    <tag k="wikipedia" v="es:Santiago_de_Chile"/>
  </node>
  <node id="50016356" version="24" timestamp="2011-09-06T17:49:55Z" uid="206812" user="jack_napier" changeset="9229828" lat="-33.4379537" lon="-70.650404">
    <tag k="capital" v="yes"/>
    <tag k="is_in" v="Chile, Latin America"/>
    <tag k="is_in:continent" v="South America"/>
    <tag k="is_in:country" v="Chile"/>
    <tag k="is_in:municipality" v="Santiago"/>
    <tag k="is_in:province" v="Santiago"/>
    <tag k="is_in:region" v="Metropolitana"/>
    <tag k="name" v="Santiago"/>
    <tag k="name:eu" v="Santiago"/>
    <tag k="name:fr" v="Santiago du Chili"/>
    <tag k="name:is" v="Santíagó"/>
    <tag k="name:ru" v="Сантьяго"/>
    <tag k="name:sv" v="Santiago"/>
    <tag k="official_name" v="Santiago de Chile"/>
    <tag k="place" v="city"/>
    <tag k="wikipedia" v="es:Santiago_de_Chile"/>
  </node>
  <node id="50016356" version="25" timestamp="2012-03-08T14:44:52Z" uid="7045" user="Xuacu" changeset="10909736" lat="-33.4379537" lon="-70.650404">
    <tag k="capital" v="yes"/>
    <tag k="is_in" v="Chile, Latin America"/>
    <tag k="is_in:continent" v="South America"/>
    <tag k="is_in:country" v="Chile"/>
    <tag k="is_in:municipality" v="Santiago"/>
    <tag k="is_in:province" v="Santiago"/>
    <tag k="is_in:region" v="Metropolitana"/>
    <tag k="name" v="Santiago"/>
    <tag k="name:ast" v="Santiago de Chile"/>
    <tag k="name:eu" v="Santiago"/>
    <tag k="name:fr" v="Santiago du Chili"/>
    <tag k="name:is" v="Santíagó"/>
    <tag k="name:ru" v="Сантьяго"/>
    <tag k="name:sv" v="Santiago"/>
    <tag k="official_name" v="Santiago de Chile"/>
    <tag k="place" v="city"/>
    <tag k="wikipedia" v="es:Santiago_de_Chile"/>
  </node>
  <node id="50018108" version="2" timestamp="2009-08-03T16:43:22Z" uid="142575" user="dalailama" changeset="2027377" lat="54.6650094" lon="8.3407975"/>
  <node id="50018108" version="3" timestamp="2010-12-19T16:29:52Z" uid="8748" user="ToniE" changeset="6707701" lat="54.6647082" lon="8.3405924"/>
  <node id="50018114" version="3" timestamp="2009-08-03T16:43:19Z" uid="142575" user="dalailama" changeset="2027377" lat="54.6645726" lon="8.3409091">
    <tag k="amenity" v="parking"/>
    <tag k="created_by" v="JOSM"/>
    <tag k="source" v="survey"/>
  </node>
  <node id="50018114" version="4" timestamp="2010-12-19T16:31:04Z" uid="8748" user="ToniE" changeset="6707701" lat="54.6645787" lon="8.3406829">
    <tag k="amenity" v="parking"/>
    <tag k="source" v="survey"/>
  </node>
</osm>
