<?xml version='1.0' encoding='UTF-8'?>
<osm version="0.6" generator="libosmium/2.20.0">
  <node id="501534355" version="1" timestamp="2009-09-19T03:23:17Z" uid="74617" user="JohnSmith" changeset="2529955" lat="-27.2347264" lon="153.115147">
    <tag k="name" v="Suttons Beach"/>
    <tag k="natural" v="beach"/>
  </node>
  <node id="501534355" version="2" timestamp="2010-01-01T06:18:28Z" uid="206339" user="chas66" changeset="3505446" lat="-27.2347265" lon="153.115147">
    <tag k="name" v="Suttons Beach"/>
    <tag k="natural" v="beach"/>
    <tag k="place" v="locality"/>
  </node>
  <node id="501534356" version="1" timestamp="2009-09-19T03:23:17Z" uid="74617" user="JohnSmith" changeset="2529955" lat="-27.2326351" lon="153.1174747">
    <tag k="amenity" v="parking"/>
  </node>
  <node id="501534356" version="2" timestamp="2010-05-25T07:21:42Z" uid="22094" user="Chadzopkyo" changeset="4800938" lat="-27.2326351" lon="153.1174747">
    <tag k="amenity" v="parking"/>
  </node>
  <node id="501534357" version="1" timestamp="2009-09-19T03:23:17Z" uid="74617" user="JohnSmith" changeset="2529955" lat="-27.2329066" lon="153.1085681">
    <tag k="name" v="Redcliffe Paceway"/>
  </node>
  <node id="501534357" version="2" timestamp="2009-09-19T11:07:44Z" uid="74617" user="JohnSmith" changeset="2533192" lat="-27.2329066" lon="153.1085681">
    <tag k="name" v="Redcliffe Paceway"/>
  </node>
  <node id="501534828" version="2" timestamp="2009-12-24T03:42:54Z" uid="6975" user="ulfl" changeset="3439770" lat="37.3976587" lon="-121.9241237">
    <tag k="amenity" v="bank"/>
    <tag k="atm" v="yes"/>
    <tag k="name" v="Chase"/>
    <tag k="operator" v="Chase"/>
  </node>
  <node id="501534828" version="3" timestamp="2010-01-10T04:38:42Z" uid="201724" user="mk408" changeset="3584163" lat="37.3976587" lon="-121.9241237">
    <tag k="amenity" v="bank"/>
    <tag k="atm" v="yes"/>
    <tag k="operator" v="Chase"/>
  </node>
  <node id="501534828" version="4" timestamp="2012-03-09T22:58:03Z" uid="622818" user="_Adi" changeset="10926758" lat="37.3976587" lon="-121.9241237">
    <tag k="amenity" v="bank"/>
    <tag k="atm" v="yes"/>
    <tag k="name" v="Chase"/>
    <tag k="operator" v="Chase"/>
  </node>
  <node id="501535014" version="1" timestamp="2009-09-19T03:27:08Z" uid="74617" user="JohnSmith" changeset="2529962" lat="-27.2455325" lon="153.1071043">
    <tag k="name" v="The Cheesecake Shop"/>
    <tag k="shop" v="bakery"/>
  </node>
</osm>
