<?xml version='1.0' encoding='UTF-8'?>
<osm version="0.6" generator="libosmium/2.20.0">
  <node id="503700016" version="3" timestamp="2009-12-24T00:15:25Z" uid="6975" user="ulfl" changeset="3439156" lat="63.872982" lon="11.2962543">
    <tag k="atm" v="minibank / ATM"/>
  </node>
  <node id="503700733" version="2" timestamp="2009-09-30T16:14:26Z" uid="36809" user="pfoten_weg_!_" changeset="2690373" lat="47.679576" lon="11.2535587">
    <tag k="power" v="tower"/>
    <tag k="ref" v="35"/>
  </node>
  <node id="503700735" version="2" timestamp="2009-09-30T16:14:26Z" uid="36809" user="pfoten_weg_!_" changeset="2690373" lat="47.6800501" lon="11.2506172">
    <tag k="power" v="tower"/>
    <tag k="ref" v="36"/>
  </node>
  <node id="503700737" version="2" timestamp="2009-09-30T16:07:09Z" uid="36809" user="pfoten_weg_!_" changeset="2690373" lat="47.682167" lon="11.2374975">
    <tag k="power" v="tower"/>
    <tag k="ref" v="41"/>
  </node>
  <node id="503700738" version="2" timestamp="2009-09-30T16:07:09Z" uid="36809" user="pfoten_weg_!_" changeset="2690373" lat="47.6817532" lon="11.2401133">
    <tag k="power" v="tower"/>
    <tag k="ref" v="40"/>
  </node>
  <node id="503700740" version="2" timestamp="2009-09-30T16:07:08Z" uid="36809" user="pfoten_weg_!_" changeset="2690373" lat="47.6810835" lon="11.2442425">
    <tag k="power" v="tower"/>
    <tag k="ref" v="38"/>
  </node>
  <node id="503700743" version="2" timestamp="2009-09-30T16:06:54Z" uid="36809" user="pfoten_weg_!_" changeset="2690373" lat="47.6805772" lon="11.247366">
    <tag k="power" v="tower"/>
    <tag k="ref" v="37"/>
  </node>
  <node id="503700747" version="2" timestamp="2009-09-30T16:07:08Z" uid="36809" user="pfoten_weg_!_" changeset="2690373" lat="47.6814374" lon="11.2420604">
    <tag k="power" v="tower"/>
    <tag k="ref" v="39"/>
  </node>
  <node id="503700749" version="2" timestamp="2009-09-30T16:07:07Z" uid="36809" user="pfoten_weg_!_" changeset="2690373" lat="47.6843063" lon="11.2218897">
    <tag k="power" v="tower"/>
    <tag k="ref" v="46"/>
  </node>
  <node id="503700752" version="2" timestamp="2009-09-30T16:07:05Z" uid="36809" user="pfoten_weg_!_" changeset="2690373" lat="47.6838778" lon="11.2250155">
    <tag k="power" v="tower"/>
    <tag k="ref" v="45"/>
  </node>
  <node id="503700756" version="2" timestamp="2009-09-30T16:07:05Z" uid="36809" user="pfoten_weg_!_" changeset="2690373" lat="47.6834657" lon="11.2280265">
    <tag k="power" v="tower"/>
    <tag k="ref" v="44"/>
  </node>
  <node id="503700758" version="2" timestamp="2009-09-30T16:07:08Z" uid="36809" user="pfoten_weg_!_" changeset="2690373" lat="47.6826138" lon="11.2342388">
    <tag k="power" v="tower"/>
    <tag k="ref" v="42"/>
  </node>
  <node id="503700760" version="2" timestamp="2009-09-30T16:07:07Z" uid="36809" user="pfoten_weg_!_" changeset="2690373" lat="47.6830347" lon="11.2311697">
    <tag k="power" v="tower"/>
    <tag k="ref" v="43"/>
  </node>
  <node id="503700764" version="2" timestamp="2009-09-30T16:07:04Z" uid="36809" user="pfoten_weg_!_" changeset="2690373" lat="47.6854556" lon="11.2140984">
    <tag k="power" v="tower"/>
    <tag k="ref" v="49"/>
  </node>
  <node id="503700767" version="2" timestamp="2009-09-30T16:07:04Z" uid="36809" user="pfoten_weg_!_" changeset="2690373" lat="47.6851852" lon="11.2159315">
    <tag k="power" v="tower"/>
    <tag k="ref" v="48"/>
  </node>
  <node id="503700770" version="3" timestamp="2009-09-30T16:07:06Z" uid="36809" user="pfoten_weg_!_" changeset="2690373" lat="47.6847486" lon="11.218853">
    <tag k="power" v="tower"/>
    <tag k="ref" v="47"/>
  </node>
  <node id="503700772" version="2" timestamp="2009-09-30T16:07:05Z" uid="36809" user="pfoten_weg_!_" changeset="2690373" lat="47.6859292" lon="11.2108836">
    <tag k="power" v="tower"/>
    <tag k="ref" v="50"/>
  </node>
  <node id="503700775" version="2" timestamp="2009-09-30T16:07:06Z" uid="36809" user="pfoten_weg_!_" changeset="2690373" lat="47.6863447" lon="11.2075899">
    <tag k="power" v="tower"/>
    <tag k="ref" v="51"/>
  </node>
  <node id="503700778" version="2" timestamp="2009-09-30T16:06:57Z" uid="36809" user="pfoten_weg_!_" changeset="2690373" lat="47.6867301" lon="11.2048779">
    <tag k="power" v="tower"/>
    <tag k="ref" v="52"/>
  </node>
  <node id="503700778" version="3" timestamp="2011-06-07T05:55:05Z" uid="384060" user="aliponte" changeset="8366846" lat="47.6866999" lon="11.2050329">
    <tag k="power" v="tower"/>
    <tag k="ref" v="52"/>
  </node>
  <node id="503700780" version="2" timestamp="2009-09-30T16:06:56Z" uid="36809" user="pfoten_weg_!_" changeset="2690373" lat="47.6882686" lon="11.1937407">
    <tag k="power" v="tower"/>
    <tag k="ref" v="56"/>
  </node>
  <node id="503700783" version="2" timestamp="2009-09-30T16:06:56Z" uid="36809" user="pfoten_weg_!_" changeset="2690373" lat="47.6878638" lon="11.1966714">
    <tag k="power" v="tower"/>
    <tag k="ref" v="55"/>
  </node>
  <node id="503700785" version="2" timestamp="2009-09-30T16:06:55Z" uid="36809" user="pfoten_weg_!_" changeset="2690373" lat="47.6870907" lon="11.2022679">
    <tag k="power" v="tower"/>
    <tag k="ref" v="53"/>
  </node>
  <node id="503700788" version="2" timestamp="2009-09-30T16:06:56Z" uid="36809" user="pfoten_weg_!_" changeset="2690373" lat="47.6874983" lon="11.1993292">
    <tag k="power" v="tower"/>
    <tag k="ref" v="54"/>
  </node>
  <node id="503703557" version="5" timestamp="2010-05-08T03:17:57Z" uid="4467" user="Rosscoe" changeset="4635544" lat="-32.8845392" lon="115.7133717"/>
  <node id="503703557" version="6" timestamp="2010-05-09T04:26:23Z" uid="4467" user="Rosscoe" changeset="4644713" lat="-32.8845392" lon="115.7133717"/>
  <node id="503703563" version="5" timestamp="2010-05-08T03:16:22Z" uid="4467" user="Rosscoe" changeset="4635544" lat="-32.8843456" lon="115.7129222"/>
  <node id="503703563" version="6" timestamp="2010-05-09T04:26:16Z" uid="4467" user="Rosscoe" changeset="4644713" lat="-32.8843456" lon="115.7129222"/>
  <node id="503703566" version="4" timestamp="2010-06-12T07:26:52Z" uid="4467" user="Rosscoe" changeset="4968082" lat="-32.8841676" lon="115.711985"/>
  <node id="503703574" version="6" timestamp="2010-06-12T07:27:37Z" uid="4467" user="Rosscoe" changeset="4968082" lat="-32.8842874" lon="115.7117557"/>
  <node id="503703584" version="6" timestamp="2010-06-12T07:27:56Z" uid="4467" user="Rosscoe" changeset="4968082" lat="-32.8844391" lon="115.7115062"/>
  <node id="503704503" version="2" timestamp="2009-10-28T07:12:27Z" uid="36809" user="pfoten_weg_!_" changeset="2971189" lat="47.684709" lon="11.2152402">
    <tag k="power" v="tower"/>
    <tag k="ref" v="42"/>
  </node>
  <node id="503704503" version="3" timestamp="2010-12-28T18:15:56Z" uid="72235" user="Basstoelpel" changeset="6790852" lat="47.6847111" lon="11.2153407">
    <tag k="power" v="tower"/>
    <tag k="ref" v="42"/>
  </node>
  <node id="503704504" version="2" timestamp="2009-10-28T07:12:26Z" uid="36809" user="pfoten_weg_!_" changeset="2971189" lat="47.6849597" lon="11.2126579">
    <tag k="power" v="tower"/>
    <tag k="ref" v="43"/>
  </node>
  <node id="503704506" version="2" timestamp="2009-10-28T07:12:25Z" uid="36809" user="pfoten_weg_!_" changeset="2971189" lat="47.6840132" lon="11.2094523">
    <tag k="power" v="tower"/>
    <tag k="ref" v="44"/>
  </node>
  <node id="503704506" version="3" timestamp="2011-06-07T05:55:05Z" uid="384060" user="aliponte" changeset="8366846" lat="47.6839816" lon="11.2094254">
    <tag k="power" v="tower"/>
    <tag k="ref" v="44"/>
  </node>
</osm>
