<?xml version='1.0' encoding='UTF-8'?>
<osm version="0.6" generator="libosmium/2.20.0">
  <node id="503730188" version="2" timestamp="2010-05-27T13:56:57Z" uid="4467" user="Rosscoe" changeset="4822242" lat="-33.7164917" lon="150.8875251">
    <tag k="amenity" v="school"/>
    <tag k="name" v="Hambledon Road Public"/>
  </node>
  <node id="503730188" version="3" timestamp="2010-08-30T10:52:56Z" uid="237525" user="aharvey" changeset="5634963" lat="-33.7164917" lon="150.8875251">
    <tag k="amenity" v="school"/>
    <tag k="name" v="Hambledon Road Public"/>
  </node>
  <node id="503730188" version="4" timestamp="2010-08-30T12:39:21Z" uid="284466" user="revert_au" changeset="5635774" lat="-33.7164917" lon="150.8875251">
    <tag k="amenity" v="school"/>
    <tag k="name" v="Hambledon Road Public"/>
  </node>
  <node id="503730470" version="2" timestamp="2009-12-24T03:38:56Z" uid="6975" user="ulfl" changeset="3439759" lat="52.6466167" lon="-1.9321457">
    <tag k="amenity" v="atm"/>
    <tag k="source" v="GPS Survey"/>
  </node>
  <node id="503730540" version="2" timestamp="2009-12-24T04:45:35Z" uid="6975" user="ulfl" changeset="3439977" lat="52.6498467" lon="-1.9375852">
    <tag k="amenity" v="police"/>
    <tag k="name" v="Brownhills Police Station"/>
    <tag k="source" v="GPS Survey"/>
  </node>
</osm>
