<?xml version='1.0' encoding='UTF-8'?>
<osm version="0.6" generator="libosmium/2.20.0">
  <node id="504449030" version="1" timestamp="2009-09-21T16:11:39Z" uid="58091" user="Andreas M" changeset="2559262" lat="48.2120479" lon="16.3109586">
    <tag k="highway" v="bus_stop"/>
    <tag k="name" v="Ottakring/Thaliastraße"/>
    <tag k="shelter" v="yes"/>
  </node>
  <node id="504449030" version="2" timestamp="2011-08-15T08:44:47Z" uid="56501" user="Rudolf_H" changeset="9024477" lat="48.2120517" lon="16.3109323">
    <tag k="highway" v="bus_stop"/>
    <tag k="name" v="Ottakring/Thaliastraße"/>
    <tag k="shelter" v="yes"/>
  </node>
  <node id="504449030" version="3" timestamp="2011-11-14T07:29:05Z" uid="26818" user="David &amp; Christine Schmitt" changeset="9822164" lat="48.2120559" lon="16.3108824">
    <tag k="highway" v="bus_stop"/>
    <tag k="name" v="Ottakring/Thaliastraße"/>
    <tag k="shelter" v="yes"/>
  </node>
  <node id="504449032" version="1" timestamp="2009-09-21T16:11:39Z" uid="58091" user="Andreas M" changeset="2559262" lat="48.2132918" lon="16.3075076">
    <tag k="highway" v="bus_stop"/>
    <tag k="name" v="Thaliastraße/Maroltingergasse"/>
  </node>
  <node id="504449032" version="2" timestamp="2011-08-28T21:13:22Z" uid="390669" user="KrilleOSM" changeset="9152110" lat="48.2132999" lon="16.3075088">
    <tag k="highway" v="bus_stop"/>
    <tag k="name" v="Thaliastraße/Maroltingergasse"/>
  </node>
  <node id="504449032" version="3" timestamp="2011-10-17T13:03:26Z" uid="473925" user="caigner" changeset="9581804" lat="48.2133121" lon="16.3075134">
    <tag k="highway" v="bus_stop"/>
    <tag k="name" v="Thaliastraße/Maroltingergasse"/>
  </node>
  <node id="504449032" version="4" timestamp="2012-01-16T19:54:43Z" uid="129531" user="almich" changeset="10411458" lat="48.2133121" lon="16.3075134"/>
  <node id="504449033" version="1" timestamp="2009-09-21T16:11:40Z" uid="58091" user="Andreas M" changeset="2559262" lat="48.2177963" lon="16.3073081">
    <tag k="highway" v="bus_stop"/>
    <tag k="name" v="Wilhelminenstraße/Sandleitengasse"/>
    <tag k="shelter" v="yes"/>
  </node>
  <node id="504449033" version="2" timestamp="2010-03-21T09:37:58Z" uid="249904" user="mijo-music" changeset="4188576" lat="48.2177843" lon="16.3074157">
    <tag k="highway" v="bus_stop"/>
    <tag k="name" v="Wilhelminenstraße/Sandleitengasse"/>
    <tag k="shelter" v="yes"/>
  </node>
  <node id="504449033" version="3" timestamp="2011-06-28T12:32:47Z" uid="473925" user="caigner" changeset="8571286" lat="48.2177983" lon="16.30729"/>
  <node id="504449033" version="4" timestamp="2011-08-13T20:35:34Z" uid="56986" user="alice23" changeset="9009398" lat="48.2178293" lon="16.3071737">
    <tag k="highway" v="bus_stop"/>
    <tag k="name" v="Wilhelminenstraße/Sandleitengasse"/>
    <tag k="shelter" v="yes"/>
  </node>
  <node id="504449033" version="5" timestamp="2011-10-15T16:23:15Z" uid="249904" user="mijo-music" changeset="9564880" lat="48.2178472" lon="16.3071139">
    <tag k="highway" v="bus_stop"/>
    <tag k="name" v="Wilhelminenstraße/Sandleitengasse"/>
    <tag k="shelter" v="yes"/>
  </node>
  <node id="504449033" version="6" timestamp="2011-10-17T12:37:13Z" uid="473925" user="caigner" changeset="9581593" lat="48.2178762" lon="16.3071328">
    <tag k="highway" v="bus_stop"/>
    <tag k="name" v="Wilhelminenstraße/Sandleitengasse"/>
    <tag k="shelter" v="yes"/>
  </node>
  <node id="504449033" version="7" timestamp="2011-10-18T11:37:54Z" uid="54806" user="_al" changeset="9590442" lat="48.2178484" lon="16.307147">
    <tag k="highway" v="bus_stop"/>
    <tag k="name" v="Wilhelminenstraße/Sandleitengasse"/>
    <tag k="shelter" v="yes"/>
  </node>
  <node id="504449033" version="8" timestamp="2011-10-21T20:48:40Z" uid="129531" user="almich" changeset="9619730" lat="48.2178484" lon="16.307147">
    <tag k="name" v="Wilhelminenstraße/Sandleitengasse"/>
    <tag k="public_transport" v="stop_position"/>
  </node>
  <node id="504449034" version="1" timestamp="2009-09-21T16:11:40Z" uid="58091" user="Andreas M" changeset="2559262" lat="48.218646" lon="16.2990882">
    <tag k="highway" v="bus_stop"/>
    <tag k="name" v="Paulinensteig"/>
  </node>
  <node id="504449035" version="1" timestamp="2009-09-21T16:11:40Z" uid="58091" user="Andreas M" changeset="2559262" lat="48.2199957" lon="16.284638">
    <tag k="highway" v="bus_stop"/>
    <tag k="name" v="Schloss Wilhelminenberg"/>
  </node>
  <node id="504449035" version="2" timestamp="2011-10-15T08:36:50Z" uid="78656" user="Walter Schlögl" changeset="9561479" lat="48.2200384" lon="16.284638">
    <tag k="highway" v="bus_stop"/>
    <tag k="name" v="Schloss Wilhelminenberg"/>
  </node>
  <node id="504449035" version="3" timestamp="2011-11-14T07:29:05Z" uid="26818" user="David &amp; Christine Schmitt" changeset="9822164" lat="48.2200529" lon="16.2846037">
    <tag k="highway" v="bus_stop"/>
    <tag k="name" v="Schloss Wilhelminenberg"/>
  </node>
  <node id="504449035" version="4" timestamp="2012-01-26T21:55:43Z" uid="473925" user="caigner" changeset="10507703" lat="48.2199281" lon="16.2841418">
    <tag k="highway" v="bus_stop"/>
    <tag k="name" v="Schloss Wilhelminenberg"/>
  </node>
  <node id="504449036" version="1" timestamp="2009-09-21T16:11:40Z" uid="58091" user="Andreas M" changeset="2559262" lat="48.2184006" lon="16.2795002">
    <tag k="highway" v="bus_stop"/>
    <tag k="name" v="Savoyenstraße/Koenig-Promenade"/>
  </node>
  <node id="504449036" version="2" timestamp="2011-08-13T20:35:35Z" uid="56986" user="alice23" changeset="9009398" lat="48.2184006" lon="16.2795002"/>
  <node id="504449037" version="1" timestamp="2009-09-21T16:11:40Z" uid="58091" user="Andreas M" changeset="2559262" lat="48.2152931" lon="16.2782485"/>
  <node id="504449037" version="2" timestamp="2012-01-04T17:10:54Z" uid="473925" user="caigner" changeset="10293058" lat="48.2153144" lon="16.2782142"/>
  <node id="504449038" version="1" timestamp="2009-09-21T16:11:40Z" uid="58091" user="Andreas M" changeset="2559262" lat="48.2134941" lon="16.3062113">
    <tag k="highway" v="bus_stop"/>
    <tag k="name" v="Thaliastraße/Maroltingergasse"/>
  </node>
  <node id="504449038" version="2" timestamp="2011-11-14T07:29:06Z" uid="26818" user="David &amp; Christine Schmitt" changeset="9822164" lat="48.2135107" lon="16.3062175">
    <tag k="highway" v="bus_stop"/>
    <tag k="name" v="Thaliastraße/Maroltingergasse"/>
  </node>
  <node id="504449038" version="3" timestamp="2012-01-16T19:54:43Z" uid="129531" user="almich" changeset="10411458" lat="48.2135107" lon="16.3062175"/>
  <node id="504449039" version="1" timestamp="2009-09-21T16:11:40Z" uid="58091" user="Andreas M" changeset="2559262" lat="48.2129563" lon="16.3096942">
    <tag k="highway" v="bus_stop"/>
    <tag k="name" v="Stillfriedplatz"/>
  </node>
  <node id="504449039" version="2" timestamp="2011-11-14T07:29:05Z" uid="26818" user="David &amp; Christine Schmitt" changeset="9822164" lat="48.2129798" lon="16.309681">
    <tag k="highway" v="bus_stop"/>
    <tag k="name" v="Stillfriedplatz"/>
  </node>
  <node id="504449040" version="1" timestamp="2009-09-21T16:11:40Z" uid="58091" user="Andreas M" changeset="2559262" lat="48.2106332" lon="16.3104667">
    <tag k="highway" v="bus_stop"/>
    <tag k="name" v="Ottakring"/>
  </node>
  <node id="504449040" version="2" timestamp="2011-10-19T20:26:49Z" uid="129531" user="almich" changeset="9603714" lat="48.2106332" lon="16.3104667">
    <tag k="highway" v="bus_stop"/>
    <tag k="name" v="Ottakring (Huttengasse)"/>
  </node>
</osm>
