<?xml version='1.0' encoding='UTF-8'?>
<osm version="0.6" generator="libosmium/2.20.0">
  <node id="505591324" version="2" timestamp="2011-01-02T00:04:25Z" uid="34428" user="usm78-gis" changeset="6834064" lat="60.2272307" lon="29.6127827">
    <tag k="railway" v="level_crossing"/>
  </node>
  <node id="505591324" version="3" timestamp="2011-01-07T13:47:49Z" uid="34428" user="usm78-gis" changeset="6892843" lat="60.2272655" lon="29.6129158">
    <tag k="railway" v="level_crossing"/>
  </node>
  <node id="505591324" version="4" timestamp="2012-03-22T04:55:23Z" uid="219757" user="Алексей Александрович" changeset="11059281" lat="60.2272761" lon="29.6128967">
    <tag k="railway" v="level_crossing"/>
  </node>
  <node id="505591339" version="3" timestamp="2011-01-07T13:47:55Z" uid="34428" user="usm78-gis" changeset="6892843" lat="60.2467972" lon="29.5782867">
    <tag k="railway" v="level_crossing"/>
  </node>
  <node id="505591365" version="2" timestamp="2010-08-25T16:46:15Z" uid="34428" user="usm78-gis" changeset="5591279" lat="60.3377774" lon="29.4166028">
    <tag k="name" v="Шевелёво"/>
    <tag k="name:alt" v="73км"/>
    <tag k="railway" v="halt"/>
  </node>
  <node id="505591365" version="3" timestamp="2010-09-25T21:47:51Z" uid="34428" user="usm78-gis" changeset="5874838" lat="60.3377774" lon="29.4166028">
    <tag k="alt_name" v="73км"/>
    <tag k="name" v="Шевелёво"/>
    <tag k="railway" v="halt"/>
  </node>
  <node id="505591365" version="4" timestamp="2010-10-12T15:18:48Z" uid="95117" user="one_half_3544" changeset="6021821" lat="60.3377774" lon="29.4166028">
    <tag k="name" v="Шевелёво"/>
    <tag k="old_name" v="73 км"/>
    <tag k="railway" v="halt"/>
    <tag k="wikipedia" v="ru:Шевелёво (платформа)"/>
  </node>
</osm>
