<?xml version='1.0' encoding='UTF-8'?>
<osm version="0.6" generator="libosmium/2.20.0">
  <node id="508454538" version="2" timestamp="2010-06-05T16:54:05Z" uid="171838" user="argrath" changeset="4910412" lat="35.6646938" lon="139.694215">
    <tag k="operator" v="sunkus"/>
    <tag k="shop" v="convenience"/>
  </node>
  <node id="508454538" version="3" timestamp="2010-08-15T11:38:26Z" uid="192905" user="ribbon" changeset="5498657" lat="35.6646938" lon="139.694215">
    <tag k="operator" v="サンクス"/>
    <tag k="shop" v="convenience"/>
  </node>
  <node id="508454538" version="4" timestamp="2011-02-25T11:58:53Z" uid="290680" user="wheelmap_visitor" changeset="7389638" lat="35.6646938" lon="139.694215">
    <tag k="operator" v="サンクス"/>
    <tag k="shop" v="convenience"/>
    <tag k="wheelchair" v="no"/>
  </node>
  <node id="508457832" version="4" timestamp="2010-02-18T16:02:48Z" uid="171838" user="argrath" changeset="3910015" lat="41.2986369" lon="141.1032015">
    <tag k="is_in" v="青森県 (Aomori)"/>
    <tag k="is_in:continent" v="Asia"/>
    <tag k="is_in:country" v="japan"/>
    <tag k="is_in:country_code" v="jp"/>
    <tag k="is_in:island" v="Honshu"/>
    <tag k="name" v="むつ市 (Mutsu)"/>
    <tag k="name:ru" v="Мутсу"/>
    <tag k="place" v="city"/>
  </node>
  <node id="508457832" version="5" timestamp="2010-05-15T07:38:25Z" uid="69966" user="ikiya" changeset="4703383" lat="41.2986369" lon="141.1032015">
    <tag k="is_in" v="青森県 (Aomori)"/>
    <tag k="is_in:continent" v="Asia"/>
    <tag k="is_in:country" v="japan"/>
    <tag k="is_in:country_code" v="jp"/>
    <tag k="is_in:island" v="Honshu"/>
    <tag k="name" v="むつ市 (Mutsu)"/>
    <tag k="name:ru" v="Мутсу"/>
    <tag k="place" v="city"/>
  </node>
</osm>
