<?xml version='1.0' encoding='UTF-8'?>
<osm version="0.6" generator="libosmium/2.20.0">
  <node id="50944784" version="2" timestamp="2008-02-16T19:55:51Z" uid="6975" user="ulfl" changeset="141861" lat="51.5461412" lon="-0.04176">
    <tag k="amenity" v="post_box"/>
  </node>
  <node id="50944784" version="3" timestamp="2008-12-15T10:25:30Z" uid="10785" user="Ollie" changeset="392375" lat="51.5461131" lon="-0.0417147">
    <tag k="amenity" v="post_box"/>
    <tag k="created_by" v="Potlatch 0.10f"/>
    <tag k="last_collection" v="1700"/>
    <tag k="operator" v="Royal Mail"/>
    <tag k="ref" v="E9 22"/>
  </node>
  <node id="50944784" version="4" timestamp="2008-12-26T21:37:49Z" uid="64482" user="Claas Augner" changeset="618984" lat="51.5461131" lon="-0.0417147">
    <tag k="amenity" v="post_box"/>
    <tag k="emptying_time" v="1700"/>
    <tag k="operator" v="Royal Mail"/>
    <tag k="ref" v="E9 22"/>
  </node>
  <node id="50944784" version="5" timestamp="2009-01-29T22:02:52Z" uid="69628" user="vsandre" changeset="852903" lat="51.5461131" lon="-0.0417147">
    <tag k="FIXME" v="Please use time like this: Mo-Fr 18:30; Sa 12:00"/>
    <tag k="amenity" v="post_box"/>
    <tag k="collection_times" v="1700"/>
    <tag k="operator" v="Royal Mail"/>
    <tag k="ref" v="E9 22"/>
  </node>
  <node id="50944784" version="6" timestamp="2009-03-13T17:12:38Z" uid="3937" user="southglos" changeset="800306" lat="51.5461131" lon="-0.0417147">
    <tag k="FIXME" v="Please use time like this: Mo-Fr 18:30\s Sa 12:00"/>
    <tag k="amenity" v="post_box"/>
    <tag k="collection_times" v="1700"/>
    <tag k="operator" v="Royal Mail"/>
    <tag k="postal_code" v="E9"/>
    <tag k="ref" v="E9 22"/>
  </node>
  <node id="50944784" version="7" timestamp="2009-03-16T00:00:45Z" uid="3937" user="southglos" changeset="819668" lat="51.5461131" lon="-0.0417147">
    <tag k="FIXME" v="Please use time like this: Mo-Fr 18:30; Sa 12:00"/>
    <tag k="amenity" v="post_box"/>
    <tag k="collection_times" v="1700"/>
    <tag k="operator" v="Royal Mail"/>
    <tag k="postal_code" v="E9"/>
    <tag k="ref" v="E9 22"/>
  </node>
  <node id="50944784" version="8" timestamp="2009-04-13T12:28:45Z" uid="91657" user="Pink Duck" changeset="495713" lat="51.5461131" lon="-0.0417147">
    <tag k="amenity" v="post_box"/>
    <tag k="collection_times" v="Mo-Fr 17:00; Sa 11:30"/>
    <tag k="operator" v="Royal Mail"/>
    <tag k="postal_code" v="E9"/>
    <tag k="ref" v="E9 22"/>
  </node>
  <node id="50944790" version="2" timestamp="2008-09-14T20:52:27Z" uid="6975" user="ulfl" changeset="640534" lat="51.5467283" lon="-0.0417996">
    <tag k="amenity" v="dead_pub"/>
    <tag k="name" v="The Alma"/>
  </node>
</osm>
