<?xml version='1.0' encoding='UTF-8'?>
<osm version="0.6" generator="libosmium/2.20.0">
  <node id="510581696" version="1" timestamp="2009-09-27T12:43:16Z" uid="85955" user="Gerd Höweler" changeset="2652180" lat="51.9570345" lon="8.609529"/>
  <node id="510581696" version="2" timestamp="2012-01-13T17:08:10Z" uid="461103" user="nomatrix" changeset="10380326" lat="51.9570345" lon="8.609529"/>
  <node id="510581697" version="1" timestamp="2009-09-27T12:43:16Z" uid="85955" user="Gerd Höweler" changeset="2652180" lat="51.9568324" lon="8.6097961"/>
  <node id="510581697" version="2" timestamp="2010-04-27T18:31:28Z" uid="31282" user="tne" changeset="4543620" lat="51.9568324" lon="8.6097961"/>
  <node id="510581699" version="1" timestamp="2009-09-27T12:43:16Z" uid="85955" user="Gerd Höweler" changeset="2652180" lat="51.9567963" lon="8.6104024"/>
  <node id="510581699" version="2" timestamp="2010-04-27T18:31:26Z" uid="31282" user="tne" changeset="4543620" lat="51.9568033" lon="8.6102206"/>
  <node id="510581700" version="1" timestamp="2009-09-27T12:43:16Z" uid="85955" user="Gerd Höweler" changeset="2652180" lat="51.9583461" lon="8.6134305"/>
  <node id="510581700" version="2" timestamp="2012-01-13T17:08:10Z" uid="461103" user="nomatrix" changeset="10380326" lat="51.9583461" lon="8.6134305"/>
  <node id="510581701" version="1" timestamp="2009-09-27T12:43:16Z" uid="85955" user="Gerd Höweler" changeset="2652180" lat="51.9584962" lon="8.6131435"/>
  <node id="510581701" version="2" timestamp="2012-01-13T17:08:10Z" uid="461103" user="nomatrix" changeset="10380326" lat="51.9584962" lon="8.6131435"/>
  <node id="510581702" version="1" timestamp="2009-09-27T12:43:16Z" uid="85955" user="Gerd Höweler" changeset="2652180" lat="51.9587958" lon="8.6135351"/>
  <node id="510581702" version="2" timestamp="2012-01-13T17:08:10Z" uid="461103" user="nomatrix" changeset="10380326" lat="51.9587958" lon="8.6135351"/>
  <node id="510581703" version="1" timestamp="2009-09-27T12:43:16Z" uid="85955" user="Gerd Höweler" changeset="2652180" lat="51.9576381" lon="8.6101337"/>
  <node id="510581703" version="2" timestamp="2012-01-13T17:08:10Z" uid="461103" user="nomatrix" changeset="10380326" lat="51.9576381" lon="8.6101337"/>
  <node id="510581704" version="1" timestamp="2009-09-27T12:43:16Z" uid="85955" user="Gerd Höweler" changeset="2652180" lat="51.9572618" lon="8.6120516"/>
  <node id="510581704" version="2" timestamp="2012-01-13T17:08:10Z" uid="461103" user="nomatrix" changeset="10380326" lat="51.9572618" lon="8.6120516"/>
  <node id="510581705" version="1" timestamp="2009-09-27T12:43:16Z" uid="85955" user="Gerd Höweler" changeset="2652180" lat="51.9642187" lon="8.6095055"/>
  <node id="510581705" version="2" timestamp="2012-01-13T17:08:10Z" uid="461103" user="nomatrix" changeset="10380326" lat="51.9642187" lon="8.6095055"/>
  <node id="510581706" version="1" timestamp="2009-09-27T12:43:16Z" uid="85955" user="Gerd Höweler" changeset="2652180" lat="51.9655866" lon="8.610631"/>
  <node id="510581706" version="2" timestamp="2010-04-27T18:31:26Z" uid="31282" user="tne" changeset="4543620" lat="51.9655642" lon="8.6107855"/>
  <node id="510581706" version="3" timestamp="2012-01-13T17:08:10Z" uid="461103" user="nomatrix" changeset="10380326" lat="51.9655642" lon="8.6107855"/>
  <node id="510582000" version="1" timestamp="2009-09-27T12:44:19Z" uid="115477" user="wowik" changeset="2652186" lat="55.9271752" lon="37.2413962">
    <tag k="addr:country" v="RU"/>
    <tag k="addr:district" v="Солнечногорский район"/>
    <tag k="addr:postcode" v="141411"/>
    <tag k="addr:region" v="Московская область"/>
    <tag k="name" v="посёлок  санатория &quot;Мцыри&quot;"/>
    <tag k="place" v="hamlet"/>
  </node>
  <node id="510582000" version="2" timestamp="2009-09-27T12:50:19Z" uid="115477" user="wowik" changeset="2652233" lat="55.9271764" lon="37.2413908">
    <tag k="addr:country" v="RU"/>
    <tag k="addr:district" v="Солнечногорский район"/>
    <tag k="addr:postcode" v="141411"/>
    <tag k="addr:region" v="Московская область"/>
    <tag k="name" v="Посёлок  санатория &quot;Мцыри&quot;"/>
    <tag k="place" v="hamlet"/>
  </node>
  <node id="510582000" version="3" timestamp="2009-09-27T17:36:16Z" uid="115477" user="wowik" changeset="2655679" lat="55.9274058" lon="37.2403302">
    <tag k="addr:country" v="RU"/>
    <tag k="addr:district" v="Солнечногорский район"/>
    <tag k="addr:postcode" v="141411"/>
    <tag k="addr:region" v="Московская область"/>
    <tag k="name" v="Посёлок  санатория &quot;Мцыри&quot;"/>
    <tag k="place" v="hamlet"/>
  </node>
  <node id="510582000" version="4" timestamp="2009-09-30T12:41:59Z" uid="115477" user="wowik" changeset="2687988" lat="55.9274078" lon="37.2403233">
    <tag k="addr:country" v="RU"/>
    <tag k="addr:district" v="Солнечногорский район"/>
    <tag k="addr:postcode" v="141411"/>
    <tag k="addr:region" v="Московская область"/>
    <tag k="cladr:code" v="5003300013300"/>
    <tag k="cladr:name" v="Cанаторий &quot;Мцыри&quot;"/>
    <tag k="cladr:suffix" v="Поселок"/>
    <tag k="name" v="Посёлок санатория &quot;Мцыри&quot;"/>
    <tag k="place" v="hamlet"/>
    <tag k="source" v="NGA GNS"/>
  </node>
  <node id="510582000" version="5" timestamp="2009-09-30T12:45:26Z" uid="115477" user="wowik" changeset="2687988" lat="55.9274078" lon="37.2403233">
    <tag k="addr:country" v="RU"/>
    <tag k="addr:district" v="Солнечногорский район"/>
    <tag k="addr:postcode" v="141421"/>
    <tag k="addr:region" v="Московская область"/>
    <tag k="cladr:code" v="5003300013300"/>
    <tag k="cladr:name" v="Cанаторий &quot;Мцыри&quot;"/>
    <tag k="cladr:suffix" v="Поселок"/>
    <tag k="name" v="Посёлок санатория &quot;Мцыри&quot;"/>
    <tag k="place" v="hamlet"/>
    <tag k="source" v="NGA GNS"/>
  </node>
  <node id="510582000" version="6" timestamp="2009-10-01T01:36:11Z" uid="30590" user="KekcuHa" changeset="2695408" lat="55.9274078" lon="37.2403233">
    <tag k="addr:country" v="RU"/>
    <tag k="addr:district" v="Солнечногорский район"/>
    <tag k="addr:postcode" v="141411"/>
    <tag k="addr:region" v="Московская область"/>
    <tag k="cladr:code" v="5003300013300"/>
    <tag k="cladr:name" v="Середниково"/>
    <tag k="cladr:suffix" v="Деревня"/>
    <tag k="name" v="Посёлок санатория &quot;Мцыри&quot;"/>
    <tag k="place" v="hamlet"/>
    <tag k="source" v="NGA GNS"/>
  </node>
  <node id="510582000" version="7" timestamp="2009-10-08T16:37:04Z" uid="115477" user="wowik" changeset="2784976" lat="55.9275068" lon="37.2409401">
    <tag k="addr:country" v="RU"/>
    <tag k="addr:district" v="Солнечногорский район"/>
    <tag k="addr:postcode" v="141411"/>
    <tag k="addr:region" v="Московская область"/>
    <tag k="cladr:code" v="5003300013300"/>
    <tag k="cladr:name" v="Санаторий Мцыри"/>
    <tag k="cladr:suffix" v="Деревня"/>
    <tag k="name" v="Посёлок санатория &quot;Мцыри&quot;"/>
    <tag k="place" v="hamlet"/>
    <tag k="source" v="NGA GNS"/>
  </node>
  <node id="510582000" version="8" timestamp="2009-10-25T07:13:45Z" uid="30590" user="KekcuHa" changeset="2943353" lat="55.9275068" lon="37.2409401">
    <tag k="addr:country" v="RU"/>
    <tag k="addr:district" v="Солнечногорский район"/>
    <tag k="addr:postcode" v="141411"/>
    <tag k="addr:region" v="Московская область"/>
    <tag k="cladr:code" v="5003300013300"/>
    <tag k="cladr:name" v="Середниково"/>
    <tag k="cladr:suffix" v="Деревня"/>
    <tag k="name" v="Посёлок санатория &quot;Мцыри&quot;"/>
    <tag k="place" v="hamlet"/>
    <tag k="source" v="NGA GNS"/>
  </node>
  <node id="510582000" version="9" timestamp="2010-04-28T14:00:02Z" uid="115477" user="wowik" changeset="4549659" lat="55.9275068" lon="37.2409401">
    <tag k="addr:country" v="RU"/>
    <tag k="addr:district" v="Солнечногорский район"/>
    <tag k="addr:postcode" v="141411"/>
    <tag k="addr:region" v="Московская область"/>
    <tag k="cladr:code" v="5003300013300"/>
    <tag k="cladr:name" v="Середниково"/>
    <tag k="cladr:suffix" v="Деревня"/>
    <tag k="name" v="Посёлок санатория &quot;Мцыри&quot;"/>
    <tag k="place" v="hamlet"/>
    <tag k="source" v="NGA GNS"/>
  </node>
  <node id="510582477" version="1" timestamp="2009-09-27T12:47:23Z" uid="115477" user="wowik" changeset="2652186" lat="55.9575778" lon="37.24943">
    <tag k="amenity" v="place_of_worship"/>
  </node>
  <node id="510582477" version="2" timestamp="2009-09-27T14:18:57Z" uid="115477" user="wowik" changeset="2653330" lat="55.9582133" lon="37.2454506">
    <tag k="amenity" v="place_of_worship"/>
    <tag k="name" v="Церковь Георгия Победоносца"/>
  </node>
  <node id="510582477" version="3" timestamp="2009-09-27T14:41:06Z" uid="115477" user="wowik" changeset="2653330" lat="55.9583478" lon="37.2453733">
    <tag k="amenity" v="place_of_worship"/>
    <tag k="name" v="Церковь Георгия Победоносца"/>
  </node>
  <node id="510582477" version="4" timestamp="2009-09-27T17:15:51Z" uid="115477" user="wowik" changeset="2655285" lat="55.9583521" lon="37.2453764">
    <tag k="amenity" v="place_of_worship"/>
    <tag k="name" v="Церковь Георгия Победоносца"/>
    <tag k="religion" v="christian"/>
  </node>
  <node id="510582477" version="5" timestamp="2009-09-27T17:30:00Z" uid="115477" user="wowik" changeset="2655679" lat="55.9583513" lon="37.2453684">
    <tag k="amenity" v="place_of_worship"/>
    <tag k="denomination" v="orthodox"/>
    <tag k="name" v="Церковь Георгия Победоносца"/>
    <tag k="religion" v="christian"/>
  </node>
  <node id="510582477" version="6" timestamp="2012-01-26T21:14:44Z" uid="384084" user="Kostik" changeset="10507299" lat="55.9583513" lon="37.2453684">
    <tag k="amenity" v="place_of_worship"/>
    <tag k="denomination" v="orthodox"/>
    <tag k="name" v="Церковь Георгия Победоносца"/>
    <tag k="religion" v="christian"/>
  </node>
  <node id="510582630" version="1" timestamp="2009-09-27T12:48:48Z" uid="115477" user="wowik" changeset="2652214" lat="55.9313341" lon="37.2282207"/>
  <node id="510582630" version="2" timestamp="2011-03-22T04:58:48Z" uid="207409" user="Epolyanichev" changeset="7633768" lat="55.9312901" lon="37.2282155"/>
  <node id="510582631" version="1" timestamp="2009-09-27T12:48:49Z" uid="115477" user="wowik" changeset="2652214" lat="55.9312227" lon="37.224603"/>
  <node id="510582631" version="2" timestamp="2009-09-28T15:21:49Z" uid="115477" user="wowik" changeset="2666049" lat="55.9312227" lon="37.224603"/>
  <node id="510582632" version="1" timestamp="2009-09-27T12:48:49Z" uid="115477" user="wowik" changeset="2652214" lat="55.9309822" lon="37.2251179"/>
  <node id="510582632" version="2" timestamp="2009-09-28T15:21:54Z" uid="115477" user="wowik" changeset="2666049" lat="55.9309822" lon="37.2251179"/>
  <node id="510582633" version="1" timestamp="2009-09-27T12:48:49Z" uid="115477" user="wowik" changeset="2652214" lat="55.9306938" lon="37.2257874"/>
  <node id="510582633" version="2" timestamp="2009-09-28T15:21:48Z" uid="115477" user="wowik" changeset="2666049" lat="55.9307395" lon="37.2259219"/>
  <node id="510582633" version="3" timestamp="2009-09-28T15:48:33Z" uid="115477" user="wowik" changeset="2666390" lat="55.9307683" lon="37.2258275"/>
  <node id="510582634" version="1" timestamp="2009-09-27T12:48:50Z" uid="115477" user="wowik" changeset="2652214" lat="55.9306841" lon="37.2265599"/>
  <node id="510582634" version="2" timestamp="2009-09-28T15:21:48Z" uid="115477" user="wowik" changeset="2666049" lat="55.9307491" lon="37.2265742"/>
  <node id="510582634" version="3" timestamp="2009-09-28T15:48:33Z" uid="115477" user="wowik" changeset="2666390" lat="55.9307203" lon="37.2264969"/>
  <node id="510582635" version="1" timestamp="2009-09-27T12:48:50Z" uid="115477" user="wowik" changeset="2652214" lat="55.9311842" lon="37.228019"/>
  <node id="510582636" version="1" timestamp="2009-09-27T12:48:50Z" uid="115477" user="wowik" changeset="2652214" lat="55.9307034" lon="37.2235558"/>
  <node id="510582636" version="2" timestamp="2009-09-27T12:49:24Z" uid="115477" user="wowik" changeset="2652214" lat="55.9304053" lon="37.2237017"/>
  <node id="510582636" version="3" timestamp="2009-09-28T15:08:16Z" uid="115477" user="wowik" changeset="2665865" lat="55.9301144" lon="37.2237532"/>
  <node id="510582636" version="4" timestamp="2009-09-28T15:21:54Z" uid="115477" user="wowik" changeset="2666049" lat="55.9301144" lon="37.2237532"/>
  <node id="510582637" version="1" timestamp="2009-09-27T12:48:50Z" uid="115477" user="wowik" changeset="2652214" lat="55.930862" lon="37.2248175"/>
  <node id="510582637" version="2" timestamp="2009-09-28T15:08:17Z" uid="115477" user="wowik" changeset="2665865" lat="55.930862" lon="37.2248175"/>
</osm>
