<?xml version='1.0' encoding='UTF-8'?>
<osm version="0.6" generator="libosmium/2.20.0">
  <node id="511039103" version="2" timestamp="2010-04-11T04:51:24Z" uid="20587" user="balrog-kun" changeset="4389130" lat="49.9513446" lon="22.8720281">
    <tag k="name" v="Michałówka"/>
    <tag k="place" v="village"/>
  </node>
  <node id="511039103" version="3" timestamp="2010-04-11T13:15:46Z" uid="20587" user="balrog-kun" changeset="4392352" lat="49.9509437" lon="22.8734416">
    <tag k="name" v="Michałówka"/>
    <tag k="place" v="village"/>
  </node>
  <node id="511039259" version="2" timestamp="2010-04-11T04:51:24Z" uid="20587" user="balrog-kun" changeset="4389130" lat="49.9646201" lon="22.8898403">
    <tag k="name" v="Duńkowice"/>
    <tag k="place" v="village"/>
  </node>
  <node id="511039259" version="3" timestamp="2010-04-11T13:15:47Z" uid="20587" user="balrog-kun" changeset="4392352" lat="49.9646116" lon="22.8894719">
    <tag k="name" v="Duńkowice"/>
    <tag k="place" v="village"/>
  </node>
  <node id="511039259" version="4" timestamp="2010-04-27T04:02:50Z" uid="30632" user="antblant" changeset="4537862" lat="49.9646116" lon="22.8894719">
    <tag k="name" v="Duńkowice"/>
    <tag k="place" v="village"/>
    <tag k="teryt:simc" v="0609400"/>
  </node>
</osm>
