<?xml version='1.0' encoding='UTF-8'?>
<osm version="0.6" generator="libosmium/2.20.0">
  <node id="51425133" version="2" timestamp="2008-07-06T09:01:04Z" uid="6975" user="ulfl" changeset="407266" lat="60.2261172" lon="25.0794115">
    <tag k="name" v="Myllypuron varavoimala"/>
    <tag k="power" v="generator"/>
    <tag k="power_source" v="fossil"/>
  </node>
  <node id="51425133" version="3" timestamp="2011-06-03T23:13:07Z" uid="297482" user="don-vip" changeset="8335041" lat="60.2261172" lon="25.0794115">
    <tag k="generator:source" v="fossil"/>
    <tag k="name" v="Myllypuron varavoimala"/>
    <tag k="power" v="generator"/>
  </node>
  <node id="51425133" version="4" timestamp="2011-10-25T20:21:42Z" uid="139957" user="ij_" changeset="9655738" lat="60.2261172" lon="25.0794115"/>
  <node id="51426156" version="3" timestamp="2008-07-06T09:01:19Z" uid="6975" user="ulfl" changeset="407266" lat="60.1838324" lon="24.9710351">
    <tag k="name" v="Hanasaari B"/>
    <tag k="power" v="generator"/>
    <tag k="power_source" v="fossil"/>
  </node>
  <node id="51426156" version="4" timestamp="2010-11-11T09:30:52Z" uid="4660" user="alv" changeset="6341828" lat="60.1838324" lon="24.9710351">
    <tag k="name" v="Hanasaari B"/>
    <tag k="power" v="generator"/>
    <tag k="power_source" v="fossil"/>
  </node>
</osm>
