<?xml version='1.0' encoding='UTF-8'?>
<osm version="0.6" generator="libosmium/2.20.0">
  <node id="514550218" version="1" timestamp="2009-09-30T14:18:21Z" uid="115477" user="wowik" changeset="2689129" lat="55.9803997" lon="37.1434336">
    <tag k="amenity" v="school"/>
    <tag k="name" v="Андреевская средняя школа"/>
  </node>
  <node id="514550218" version="2" timestamp="2010-09-12T06:38:21Z" uid="241531" user="dik_man" changeset="5756032" lat="55.9804621" lon="37.1432148">
    <tag k="amenity" v="school"/>
    <tag k="name" v="Андреевская средняя школа"/>
  </node>
  <node id="514550227" version="1" timestamp="2009-09-30T14:18:22Z" uid="115477" user="wowik" changeset="2689129" lat="55.9805678" lon="37.1414595">
    <tag k="amenity" v="kindergarten"/>
    <tag k="name" v="д/с Звездочка"/>
  </node>
  <node id="514550227" version="2" timestamp="2012-02-17T22:18:39Z" uid="384084" user="Kostik" changeset="10715762" lat="55.9805678" lon="37.1414595">
    <tag k="amenity" v="kindergarten"/>
    <tag k="name" v="д/с Звездочка"/>
  </node>
</osm>
