<?xml version='1.0' encoding='UTF-8'?>
<osm version="0.6" generator="libosmium/2.20.0">
  <node id="514662022" version="1" timestamp="2009-09-30T15:59:01Z" uid="115477" user="wowik" changeset="2690173" lat="55.9768844" lon="37.1547671">
    <tag k="amenity" v="place_of_worship"/>
    <tag k="denomination" v="orthodox"/>
    <tag k="religion" v="christian"/>
  </node>
  <node id="514662022" version="2" timestamp="2009-10-06T09:41:36Z" uid="115477" user="wowik" changeset="2758765" lat="55.9768814" lon="37.1547629">
    <tag k="amenity" v="place_of_worship"/>
    <tag k="denomination" v="orthodox"/>
    <tag k="name" v="Церковь Сергия Радонежского"/>
    <tag k="religion" v="christian"/>
  </node>
  <node id="514662022" version="3" timestamp="2009-10-06T19:17:32Z" uid="115477" user="wowik" changeset="2764663" lat="55.9768862" lon="37.1547571">
    <tag k="amenity" v="place_of_worship"/>
    <tag k="denomination" v="orthodox"/>
    <tag k="name" v="Церковь Сергия Радонежского"/>
    <tag k="religion" v="christian"/>
  </node>
  <node id="514662022" version="4" timestamp="2010-08-05T11:29:09Z" uid="200618" user="gps-Max" changeset="5407197" lat="55.9768862" lon="37.1547571">
    <tag k="amenity" v="place_of_worship"/>
    <tag k="denomination" v="orthodox"/>
    <tag k="name" v="церковь Сергия Радонежского"/>
    <tag k="religion" v="christian"/>
  </node>
  <node id="514662022" version="5" timestamp="2010-09-14T07:48:37Z" uid="241531" user="dik_man" changeset="5776014" lat="55.9768543" lon="37.1548207">
    <tag k="amenity" v="place_of_worship"/>
    <tag k="denomination" v="orthodox"/>
    <tag k="name" v="церковь Сергия Радонежского"/>
    <tag k="religion" v="christian"/>
  </node>
  <node id="514662022" version="6" timestamp="2010-11-07T09:12:38Z" uid="206282" user="Amigo" changeset="6309179" lat="55.9768543" lon="37.1548207">
    <tag k="amenity" v="place_of_worship"/>
    <tag k="denomination" v="orthodox"/>
    <tag k="name" v="церковь Сергия Радонежского"/>
    <tag k="religion" v="christian"/>
  </node>
</osm>
