<?xml version='1.0' encoding='UTF-8'?>
<osm version="0.6" generator="libosmium/2.20.0">
  <node id="515641014" version="3" timestamp="2010-07-29T09:26:17Z" uid="74617" user="JohnSmith" changeset="5344848" lat="53.6129889" lon="9.2847099">
    <tag k="amenity" v="emergency_phone"/>
    <tag k="emergency" v="phone"/>
  </node>
  <node id="515641014" version="4" timestamp="2010-09-24T10:35:29Z" uid="55462" user="Lübeck" changeset="5861609" lat="53.6129889" lon="9.2847099">
    <tag k="amenity" v="emergency_phone"/>
    <tag k="emergency" v="phone"/>
    <tag k="operator" v="Björn-Steiger-Stiftung"/>
  </node>
  <node id="515641228" version="2" timestamp="2010-07-22T16:28:12Z" uid="115477" user="wowik" changeset="5288983" lat="54.7120674" lon="20.7440504">
    <tag k="name" v="Кошевое"/>
    <tag k="place" v="hamlet"/>
  </node>
  <node id="515641228" version="3" timestamp="2011-03-15T15:37:39Z" uid="314211" user="OldIvantey" changeset="7567287" lat="54.7120674" lon="20.7440504">
    <tag k="addr:country" v="RU"/>
    <tag k="addr:district" v="Гурьевский район"/>
    <tag k="addr:region" v="Калининградская область"/>
    <tag k="name" v="Кошевое"/>
    <tag k="place" v="hamlet"/>
  </node>
  <node id="515641229" version="4" timestamp="2010-09-22T12:39:21Z" uid="115477" user="wowik" changeset="5845207" lat="54.7015319" lon="20.7377767">
    <tag k="addr:country" v="RU"/>
    <tag k="addr:district" v="Гурьевский район"/>
    <tag k="addr:postcode" v="238313"/>
    <tag k="addr:region" v="Калининградская область"/>
    <tag k="cladr:code" v="3900400008500"/>
    <tag k="cladr:name" v="Низовье"/>
    <tag k="cladr:suffix" v="Поселок"/>
    <tag k="name" v="Низовье"/>
    <tag k="name:de" v="Waldau (Preu en)"/>
    <tag k="name:ru" v="Низовье"/>
    <tag k="place" v="hamlet"/>
  </node>
  <node id="515641229" version="5" timestamp="2011-08-09T20:32:20Z" uid="297358" user="patashnik" changeset="8971194" lat="54.7015319" lon="20.7377767">
    <tag k="addr:country" v="RU"/>
    <tag k="addr:district" v="Гурьевский район"/>
    <tag k="addr:region" v="Калининградская область"/>
    <tag k="cladr:code" v="3900400008500"/>
    <tag k="name" v="Низовье"/>
    <tag k="name:de" v="Waldau (Preu en)"/>
    <tag k="name:ru" v="Низовье"/>
    <tag k="place" v="hamlet"/>
  </node>
  <node id="515641229" version="6" timestamp="2011-12-30T23:55:41Z" uid="260756" user="Felis Pimeja" changeset="10250947" lat="54.7015319" lon="20.7377767">
    <tag k="addr:country" v="RU"/>
    <tag k="addr:district" v="Гурьевский район"/>
    <tag k="addr:region" v="Калининградская область"/>
    <tag k="cladr:code" v="3900400008500"/>
    <tag k="name" v="Низовье"/>
    <tag k="name:de" v="Waldau (Preu en)"/>
    <tag k="name:ru" v="Низовье"/>
    <tag k="official_status" v="ru:посёлок"/>
    <tag k="place" v="hamlet"/>
  </node>
  <node id="515641453" version="1" timestamp="2009-10-01T06:48:05Z" uid="99207" user="Lar Kiesel" changeset="2696818" lat="34.0750043" lon="-79.2991505"/>
  <node id="515641454" version="1" timestamp="2009-10-01T06:48:05Z" uid="99207" user="Lar Kiesel" changeset="2696818" lat="34.0756072" lon="-79.3011678"/>
  <node id="515641455" version="1" timestamp="2009-10-01T06:48:05Z" uid="99207" user="Lar Kiesel" changeset="2696818" lat="34.0761703" lon="-79.3028793"/>
  <node id="515641456" version="1" timestamp="2009-10-01T06:48:05Z" uid="99207" user="Lar Kiesel" changeset="2696818" lat="34.0763252" lon="-79.3032449"/>
  <node id="515641457" version="1" timestamp="2009-10-01T06:48:05Z" uid="99207" user="Lar Kiesel" changeset="2696818" lat="34.0764603" lon="-79.3036569"/>
  <node id="515641458" version="1" timestamp="2009-10-01T06:48:06Z" uid="99207" user="Lar Kiesel" changeset="2696818" lat="34.0766238" lon="-79.3041805"/>
  <node id="515641459" version="1" timestamp="2009-10-01T06:48:06Z" uid="99207" user="Lar Kiesel" changeset="2696818" lat="34.0767163" lon="-79.3047384"/>
  <node id="515641460" version="1" timestamp="2009-10-01T06:48:06Z" uid="99207" user="Lar Kiesel" changeset="2696818" lat="34.0767987" lon="-79.3053538"/>
  <node id="515641462" version="1" timestamp="2009-10-01T06:48:17Z" uid="99207" user="Lar Kiesel" changeset="2696818" lat="34.0750119" lon="-79.3036085"/>
  <node id="515641463" version="1" timestamp="2009-10-01T06:48:17Z" uid="99207" user="Lar Kiesel" changeset="2696818" lat="34.0752588" lon="-79.3041719"/>
  <node id="515641464" version="1" timestamp="2009-10-01T06:48:17Z" uid="99207" user="Lar Kiesel" changeset="2696818" lat="34.0754081" lon="-79.3044551"/>
  <node id="515641465" version="1" timestamp="2009-10-01T06:48:17Z" uid="99207" user="Lar Kiesel" changeset="2696818" lat="34.075529" lon="-79.3045152"/>
  <node id="515641466" version="1" timestamp="2009-10-01T06:48:17Z" uid="99207" user="Lar Kiesel" changeset="2696818" lat="34.0756499" lon="-79.3045238"/>
  <node id="515641467" version="1" timestamp="2009-10-01T06:48:17Z" uid="99207" user="Lar Kiesel" changeset="2696818" lat="34.0757636" lon="-79.3044637"/>
  <node id="515641468" version="1" timestamp="2009-10-01T06:48:17Z" uid="99207" user="Lar Kiesel" changeset="2696818" lat="34.0758702" lon="-79.3043779"/>
  <node id="515641469" version="1" timestamp="2009-10-01T06:48:18Z" uid="99207" user="Lar Kiesel" changeset="2696818" lat="34.0759556" lon="-79.3042062"/>
  <node id="515641470" version="1" timestamp="2009-10-01T06:48:18Z" uid="99207" user="Lar Kiesel" changeset="2696818" lat="34.0760053" lon="-79.3040689"/>
  <node id="515641475" version="1" timestamp="2009-10-01T06:48:22Z" uid="99207" user="Lar Kiesel" changeset="2696818" lat="34.0746048" lon="-79.3001035"/>
  <node id="515641476" version="1" timestamp="2009-10-01T06:48:23Z" uid="99207" user="Lar Kiesel" changeset="2696818" lat="34.0742067" lon="-79.2983869"/>
  <node id="515641480" version="1" timestamp="2009-10-01T06:48:23Z" uid="99207" user="Lar Kiesel" changeset="2696818" lat="34.0698854" lon="-79.2781034"/>
  <node id="515641484" version="1" timestamp="2009-10-01T06:48:24Z" uid="99207" user="Lar Kiesel" changeset="2696818" lat="34.0688317" lon="-79.2734187"/>
  <node id="515641490" version="1" timestamp="2009-10-01T06:48:24Z" uid="99207" user="Lar Kiesel" changeset="2696818" lat="34.060015" lon="-79.2553171"/>
  <node id="515641496" version="1" timestamp="2009-10-01T06:48:25Z" uid="99207" user="Lar Kiesel" changeset="2696818" lat="34.0576826" lon="-79.2497981"/>
  <node id="515641497" version="1" timestamp="2009-10-01T06:48:25Z" uid="99207" user="Lar Kiesel" changeset="2696818" lat="34.0570853" lon="-79.2483562"/>
  <node id="515641499" version="1" timestamp="2009-10-01T06:48:25Z" uid="99207" user="Lar Kiesel" changeset="2696818" lat="34.0565876" lon="-79.2471717"/>
  <node id="515641516" version="1" timestamp="2009-10-01T06:48:32Z" uid="99207" user="Lar Kiesel" changeset="2696818" lat="34.0748678" lon="-79.2981466"/>
  <node id="515641517" version="1" timestamp="2009-10-01T06:48:32Z" uid="99207" user="Lar Kiesel" changeset="2696818" lat="34.0752517" lon="-79.3009704"/>
  <node id="515641610" version="2" timestamp="2010-07-29T09:39:17Z" uid="74617" user="JohnSmith" changeset="5344848" lat="53.6647106" lon="9.1922165">
    <tag k="amenity" v="emergency_phone"/>
    <tag k="emergency" v="phone"/>
  </node>
  <node id="515641610" version="3" timestamp="2010-12-08T21:48:57Z" uid="167616" user="ajeba" changeset="6589932" lat="53.6650108" lon="9.1923046">
    <tag k="amenity" v="emergency_phone"/>
    <tag k="emergency" v="phone"/>
  </node>
  <node id="515645338" version="3" timestamp="2010-09-22T11:44:46Z" uid="115477" user="wowik" changeset="5844765" lat="54.7007937" lon="20.7833194">
    <tag k="addr:country" v="RU"/>
    <tag k="addr:district" v="Гурьевский район"/>
    <tag k="addr:postcode" v="238316"/>
    <tag k="addr:region" v="Калининградская область"/>
    <tag k="cladr:code" v="3900400013400"/>
    <tag k="cladr:name" v="Трубкино"/>
    <tag k="cladr:suffix" v="Поселок"/>
    <tag k="name" v="Трубкино"/>
    <tag k="place" v="hamlet"/>
  </node>
  <node id="515645338" version="4" timestamp="2011-08-09T20:32:21Z" uid="297358" user="patashnik" changeset="8971194" lat="54.7007937" lon="20.7833194">
    <tag k="addr:country" v="RU"/>
    <tag k="addr:district" v="Гурьевский район"/>
    <tag k="addr:region" v="Калининградская область"/>
    <tag k="cladr:code" v="3900400013400"/>
    <tag k="name" v="Трубкино"/>
    <tag k="place" v="hamlet"/>
  </node>
  <node id="515649577" version="2" timestamp="2010-09-22T11:44:46Z" uid="115477" user="wowik" changeset="5844765" lat="54.7007729" lon="20.8008056">
    <tag k="name" v="Высокое"/>
    <tag k="place" v="hamlet"/>
  </node>
  <node id="515649585" version="3" timestamp="2010-09-22T11:44:46Z" uid="115477" user="wowik" changeset="5844765" lat="54.6989817" lon="20.8229499">
    <tag k="addr:country" v="RU"/>
    <tag k="addr:district" v="Гурьевский район"/>
    <tag k="addr:postcode" v="238313"/>
    <tag k="addr:region" v="Калининградская область"/>
    <tag k="cladr:code" v="3900400001900"/>
    <tag k="cladr:name" v="Воробьево"/>
    <tag k="cladr:suffix" v="Поселок"/>
    <tag k="name" v="Воробьёво"/>
    <tag k="place" v="hamlet"/>
  </node>
  <node id="515649585" version="4" timestamp="2011-08-09T20:32:24Z" uid="297358" user="patashnik" changeset="8971194" lat="54.6989817" lon="20.8229499">
    <tag k="addr:country" v="RU"/>
    <tag k="addr:district" v="Гурьевский район"/>
    <tag k="addr:region" v="Калининградская область"/>
    <tag k="cladr:code" v="3900400001900"/>
    <tag k="name" v="Воробьёво"/>
    <tag k="place" v="hamlet"/>
  </node>
</osm>
