<?xml version='1.0' encoding='UTF-8'?>
<osm version="0.6" generator="libosmium/2.20.0">
  <node id="516530005" version="1" timestamp="2009-10-01T18:36:35Z" uid="86259" user="hasse_osm_korinthenkacker" changeset="2703768" lat="54.3831922" lon="12.4254132"/>
  <node id="516530014" version="1" timestamp="2009-10-01T18:36:36Z" uid="86259" user="hasse_osm_korinthenkacker" changeset="2703768" lat="54.3831348" lon="12.4243349"/>
  <node id="516530024" version="1" timestamp="2009-10-01T18:36:36Z" uid="86259" user="hasse_osm_korinthenkacker" changeset="2703768" lat="54.3835542" lon="12.4256271"/>
  <node id="516530040" version="1" timestamp="2009-10-01T18:36:36Z" uid="86259" user="hasse_osm_korinthenkacker" changeset="2703768" lat="54.3834293" lon="12.4277685"/>
  <node id="516530054" version="1" timestamp="2009-10-01T18:36:37Z" uid="86259" user="hasse_osm_korinthenkacker" changeset="2703768" lat="54.3830444" lon="12.4282786"/>
  <node id="516530065" version="1" timestamp="2009-10-01T18:36:37Z" uid="86259" user="hasse_osm_korinthenkacker" changeset="2703768" lat="54.3841823" lon="12.4267197"/>
  <node id="516530068" version="1" timestamp="2009-10-01T18:36:37Z" uid="86259" user="hasse_osm_korinthenkacker" changeset="2703768" lat="54.3837853" lon="12.4259888"/>
  <node id="516530081" version="1" timestamp="2009-10-01T18:36:38Z" uid="86259" user="hasse_osm_korinthenkacker" changeset="2703768" lat="54.3843582" lon="12.4282452"/>
  <node id="516530087" version="1" timestamp="2009-10-01T18:36:38Z" uid="86259" user="hasse_osm_korinthenkacker" changeset="2703768" lat="54.383764" lon="12.4274381"/>
  <node id="516530100" version="1" timestamp="2009-10-01T18:36:38Z" uid="86259" user="hasse_osm_korinthenkacker" changeset="2703768" lat="54.3842736" lon="12.4280866"/>
  <node id="516530111" version="1" timestamp="2009-10-01T18:36:38Z" uid="86259" user="hasse_osm_korinthenkacker" changeset="2703768" lat="54.3848896" lon="12.4281265"/>
  <node id="516530111" version="2" timestamp="2011-08-31T17:30:10Z" uid="25720" user="!i!" changeset="9178111" lat="54.3848669" lon="12.4281835"/>
  <node id="516530127" version="1" timestamp="2009-10-01T18:36:39Z" uid="86259" user="hasse_osm_korinthenkacker" changeset="2703768" lat="54.3843968" lon="12.4282235"/>
  <node id="516530144" version="1" timestamp="2009-10-01T18:36:39Z" uid="86259" user="hasse_osm_korinthenkacker" changeset="2703768" lat="54.3844412" lon="12.4282027"/>
  <node id="516530156" version="1" timestamp="2009-10-01T18:36:39Z" uid="86259" user="hasse_osm_korinthenkacker" changeset="2703768" lat="54.3845661" lon="12.4274451"/>
  <node id="516530161" version="1" timestamp="2009-10-01T18:36:40Z" uid="86259" user="hasse_osm_korinthenkacker" changeset="2703768" lat="54.3844129" lon="12.4286501">
    <tag k="name" v="Hotel Schifferwiege"/>
    <tag k="tourism" v="hotel"/>
  </node>
  <node id="516530161" version="2" timestamp="2011-08-31T17:30:10Z" uid="25720" user="!i!" changeset="9178111" lat="54.3844129" lon="12.4286501"/>
  <node id="516530174" version="1" timestamp="2009-10-01T18:36:40Z" uid="86259" user="hasse_osm_korinthenkacker" changeset="2703768" lat="54.3844375" lon="12.4283985"/>
  <node id="516530187" version="1" timestamp="2009-10-01T18:36:40Z" uid="86259" user="hasse_osm_korinthenkacker" changeset="2703768" lat="54.3838113" lon="12.4287722"/>
  <node id="516530200" version="1" timestamp="2009-10-01T18:36:40Z" uid="86259" user="hasse_osm_korinthenkacker" changeset="2703768" lat="54.3839578" lon="12.4290697"/>
  <node id="516530213" version="1" timestamp="2009-10-01T18:36:41Z" uid="86259" user="hasse_osm_korinthenkacker" changeset="2703768" lat="54.3854943" lon="12.4295148"/>
  <node id="516530218" version="1" timestamp="2009-10-01T18:36:41Z" uid="86259" user="hasse_osm_korinthenkacker" changeset="2703768" lat="54.3850783" lon="12.4285489"/>
  <node id="516530218" version="2" timestamp="2011-08-31T17:30:10Z" uid="25720" user="!i!" changeset="9178111" lat="54.3850469" lon="12.4286149"/>
  <node id="516530231" version="1" timestamp="2009-10-01T18:36:41Z" uid="86259" user="hasse_osm_korinthenkacker" changeset="2703768" lat="54.385419" lon="12.4296897"/>
  <node id="516530251" version="1" timestamp="2009-10-01T18:36:42Z" uid="86259" user="hasse_osm_korinthenkacker" changeset="2703768" lat="54.3852773" lon="12.4304351"/>
  <node id="516530263" version="1" timestamp="2009-10-01T18:36:42Z" uid="86259" user="hasse_osm_korinthenkacker" changeset="2703768" lat="54.3853216" lon="12.4300244"/>
  <node id="516530276" version="1" timestamp="2009-10-01T18:36:43Z" uid="86259" user="hasse_osm_korinthenkacker" changeset="2703768" lat="54.3852241" lon="12.4307317"/>
  <node id="516530286" version="1" timestamp="2009-10-01T18:36:43Z" uid="86259" user="hasse_osm_korinthenkacker" changeset="2703768" lat="54.3858306" lon="12.4303321"/>
  <node id="516530295" version="1" timestamp="2009-10-01T18:36:43Z" uid="86259" user="hasse_osm_korinthenkacker" changeset="2703768" lat="54.3863282" lon="12.4314168"/>
  <node id="516530308" version="1" timestamp="2009-10-01T18:36:43Z" uid="86259" user="hasse_osm_korinthenkacker" changeset="2703768" lat="54.385202" lon="12.4310739"/>
  <node id="516530324" version="1" timestamp="2009-10-01T18:36:44Z" uid="86259" user="hasse_osm_korinthenkacker" changeset="2703768" lat="54.3866074" lon="12.4318808"/>
  <node id="516530331" version="1" timestamp="2009-10-01T18:36:44Z" uid="86259" user="hasse_osm_korinthenkacker" changeset="2703768" lat="54.3867948" lon="12.4322062"/>
  <node id="516530344" version="1" timestamp="2009-10-01T18:36:44Z" uid="86259" user="hasse_osm_korinthenkacker" changeset="2703768" lat="54.3868972" lon="12.4322426"/>
  <node id="516530356" version="1" timestamp="2009-10-01T18:36:45Z" uid="86259" user="hasse_osm_korinthenkacker" changeset="2703768" lat="54.3869174" lon="12.4321382">
    <tag k="amenity" v="parking"/>
  </node>
  <node id="516530356" version="2" timestamp="2010-05-09T20:27:42Z" uid="249331" user="noasenmann" changeset="4653832" lat="54.3869" lon="12.4320836">
    <tag k="amenity" v="parking"/>
  </node>
  <node id="516530369" version="1" timestamp="2009-10-01T18:36:45Z" uid="86259" user="hasse_osm_korinthenkacker" changeset="2703768" lat="54.3819305" lon="12.4425885"/>
  <node id="516530369" version="2" timestamp="2011-06-07T15:11:11Z" uid="55462" user="Lübeck" changeset="8371010" lat="54.3817693" lon="12.44097"/>
  <node id="516530376" version="1" timestamp="2009-10-01T18:36:45Z" uid="86259" user="hasse_osm_korinthenkacker" changeset="2703768" lat="54.3822304" lon="12.4440477"/>
  <node id="516530390" version="1" timestamp="2009-10-01T18:36:45Z" uid="86259" user="hasse_osm_korinthenkacker" changeset="2703768" lat="54.3830802" lon="12.4473522"/>
  <node id="516530400" version="1" timestamp="2009-10-01T18:36:46Z" uid="86259" user="hasse_osm_korinthenkacker" changeset="2703768" lat="54.3849546" lon="12.4543903"/>
  <node id="516530410" version="1" timestamp="2009-10-01T18:36:46Z" uid="86259" user="hasse_osm_korinthenkacker" changeset="2703768" lat="25.0338227" lon="121.5647169">
    <tag k="amenity" v="public_building"/>
    <tag k="name" v="Taipei 101"/>
  </node>
  <node id="516530410" version="2" timestamp="2010-02-06T23:27:42Z" uid="150368" user="Cicerone" changeset="3810002" lat="25.0338227" lon="121.5647169">
    <tag k="amenity" v="public_building"/>
    <tag k="name" v="Taipei 101"/>
  </node>
  <node id="516530423" version="1" timestamp="2009-10-01T18:36:46Z" uid="86259" user="hasse_osm_korinthenkacker" changeset="2703768" lat="25.0330391" lon="121.567078">
    <tag k="is_in" v="Taipei City, Taiwan"/>
    <tag k="is_in:zh" v="台灣台北市"/>
    <tag k="name" v="信義區 (Xinyi)"/>
    <tag k="name:zh" v="信義區"/>
    <tag k="place" v="suburb"/>
    <tag k="postal_code" v="110"/>
  </node>
  <node id="516530423" version="2" timestamp="2010-09-19T19:07:51Z" uid="343490" user="AaronWu" changeset="5823196" lat="25.0330391" lon="121.567078">
    <tag k="is_in" v="Taipei City, Taiwan"/>
    <tag k="is_in:zh" v="台灣台北市"/>
    <tag k="name" v="信義區 (Xinyi)"/>
    <tag k="name:zh" v="信義區"/>
    <tag k="place" v="suburb"/>
    <tag k="postal_code" v="110"/>
  </node>
  <node id="516530438" version="1" timestamp="2009-10-01T18:36:47Z" uid="86259" user="hasse_osm_korinthenkacker" changeset="2703768" lat="25.0374846" lon="121.5645723">
    <tag k="capital" v="yes"/>
    <tag k="is_in" v="Taiwan"/>
    <tag k="is_in:continent" v="Asia"/>
    <tag k="is_in:zh" v="台灣"/>
    <tag k="name" v="台北市 (Taipei City)"/>
    <tag k="name:fr" v="Taipei"/>
    <tag k="name:he" v="טאיפאי"/>
    <tag k="name:is" v="Taípei"/>
    <tag k="name:ru" v="Тайпей"/>
    <tag k="name:vi" v="Đài Bắc"/>
    <tag k="name:zh" v="台北市"/>
    <tag k="place" v="city"/>
  </node>
  <node id="516530438" version="2" timestamp="2009-11-10T13:36:11Z" uid="148025" user="mvrban" changeset="3082082" lat="25.0374846" lon="121.5645723">
    <tag k="capital" v="yes"/>
    <tag k="is_in" v="Taiwan"/>
    <tag k="is_in:continent" v="Asia"/>
    <tag k="is_in:zh" v="台灣"/>
    <tag k="name" v="台北市 (Taipei City)"/>
    <tag k="name:fr" v="Taipei"/>
    <tag k="name:he" v="טאיפאי"/>
    <tag k="name:hr" v="Taipei"/>
    <tag k="name:is" v="Taípei"/>
    <tag k="name:ru" v="Тайпей"/>
    <tag k="name:vi" v="Đài Bắc"/>
    <tag k="name:zh" v="台北市"/>
    <tag k="place" v="city"/>
  </node>
  <node id="516530438" version="3" timestamp="2009-11-10T20:13:05Z" uid="33981" user="romanm" changeset="3084993" lat="25.0374846" lon="121.5645723">
    <tag k="capital" v="yes"/>
    <tag k="is_in" v="Taiwan"/>
    <tag k="is_in:continent" v="Asia"/>
    <tag k="is_in:zh" v="台灣"/>
    <tag k="name" v="台北市 (Taipei City)"/>
    <tag k="name:fr" v="Taipei"/>
    <tag k="name:he" v="טאיפאי"/>
    <tag k="name:hr" v="Taipei"/>
    <tag k="name:is" v="Taípei"/>
    <tag k="name:ru" v="Тайпей"/>
    <tag k="name:sl" v="Taipei"/>
    <tag k="name:vi" v="Đài Bắc"/>
    <tag k="name:zh" v="台北市"/>
    <tag k="place" v="city"/>
  </node>
  <node id="516530438" version="4" timestamp="2009-11-16T15:02:21Z" uid="22536" user="Hellstorm" changeset="3132535" lat="25.0374846" lon="121.5645723">
    <tag k="capital" v="yes"/>
    <tag k="is_in" v="Taiwan"/>
    <tag k="is_in:continent" v="Asia"/>
    <tag k="is_in:zh" v="台灣"/>
    <tag k="name" v="台北市 (Taipei City)"/>
    <tag k="name:de" v="Taipeh"/>
    <tag k="name:fr" v="Taipei"/>
    <tag k="name:he" v="טאיפאי"/>
    <tag k="name:hr" v="Taipei"/>
    <tag k="name:is" v="Taípei"/>
    <tag k="name:py" v="Táiběi-shì"/>
    <tag k="name:ru" v="Тайпей"/>
    <tag k="name:sl" v="Taipei"/>
    <tag k="name:vi" v="Đài Bắc"/>
    <tag k="name:zh" v="台北市"/>
    <tag k="place" v="city"/>
  </node>
  <node id="516530438" version="5" timestamp="2009-11-22T22:19:46Z" uid="29717" user="eumiro" changeset="3191467" lat="25.0374846" lon="121.5645723">
    <tag k="capital" v="yes"/>
    <tag k="is_in" v="Taiwan"/>
    <tag k="is_in:continent" v="Asia"/>
    <tag k="is_in:zh" v="台灣"/>
    <tag k="name" v="台北市 (Taipei City)"/>
    <tag k="name:de" v="Taipeh"/>
    <tag k="name:fr" v="Taipei"/>
    <tag k="name:he" v="טאיפאי"/>
    <tag k="name:hr" v="Taipei"/>
    <tag k="name:is" v="Taípei"/>
    <tag k="name:py" v="Táiběi-shì"/>
    <tag k="name:ru" v="Тайпей"/>
    <tag k="name:sk" v="Tchaj-pej"/>
    <tag k="name:sl" v="Taipei"/>
    <tag k="name:vi" v="Đài Bắc"/>
    <tag k="name:zh" v="台北市"/>
    <tag k="place" v="city"/>
  </node>
  <node id="516530438" version="6" timestamp="2009-12-11T18:33:13Z" uid="9785" user="mixmaxtw" changeset="3351093" lat="25.0374846" lon="121.5645723">
    <tag k="capital" v="yes"/>
    <tag k="is_in" v="Taiwan"/>
    <tag k="is_in:continent" v="Asia"/>
    <tag k="is_in:zh" v="台灣"/>
    <tag k="name" v="台北市 (Taipei City)"/>
    <tag k="name:de" v="Taipeh"/>
    <tag k="name:fr" v="Taipei"/>
    <tag k="name:he" v="טאיפאי"/>
    <tag k="name:hr" v="Taipei"/>
    <tag k="name:is" v="Taípei"/>
    <tag k="name:ru" v="Тайпей"/>
    <tag k="name:sk" v="Tchaj-pej"/>
    <tag k="name:sl" v="Taipei"/>
    <tag k="name:vi" v="Đài Bắc"/>
    <tag k="name:zh" v="台北市"/>
    <tag k="name:zh-py" v="Táiběi-shì"/>
    <tag k="place" v="city"/>
  </node>
  <node id="516530438" version="7" timestamp="2010-01-30T18:19:43Z" uid="150368" user="Cicerone" changeset="3753446" lat="25.0376382" lon="121.5644592">
    <tag k="capital" v="yes"/>
    <tag k="is_in" v="Taiwan"/>
    <tag k="is_in:continent" v="Asia"/>
    <tag k="is_in:zh" v="台灣"/>
    <tag k="name" v="台北市 (Taipei)"/>
    <tag k="name:de" v="Taipeh"/>
    <tag k="name:fr" v="Taipei"/>
    <tag k="name:he" v="טאיפאי"/>
    <tag k="name:hr" v="Taipei"/>
    <tag k="name:is" v="Taípei"/>
    <tag k="name:ru" v="Тайпей"/>
    <tag k="name:sk" v="Tchaj-pej"/>
    <tag k="name:sl" v="Taipei"/>
    <tag k="name:vi" v="Đài Bắc"/>
    <tag k="name:zh" v="台北市"/>
    <tag k="name:zh-py" v="Táiběi-shì"/>
    <tag k="place" v="city"/>
  </node>
  <node id="516530438" version="8" timestamp="2010-03-08T11:30:23Z" uid="221997" user="EuskalMapa" changeset="4070806" lat="25.0376382" lon="121.5644592">
    <tag k="capital" v="yes"/>
    <tag k="is_in" v="Taiwan"/>
    <tag k="is_in:continent" v="Asia"/>
    <tag k="is_in:zh" v="台灣"/>
    <tag k="name" v="台北市 (Taipei)"/>
    <tag k="name:de" v="Taipeh"/>
    <tag k="name:eu" v="Taipei"/>
    <tag k="name:fr" v="Taipei"/>
    <tag k="name:he" v="טאיפאי"/>
    <tag k="name:hr" v="Taipei"/>
    <tag k="name:is" v="Taípei"/>
    <tag k="name:ru" v="Тайпей"/>
    <tag k="name:sk" v="Tchaj-pej"/>
    <tag k="name:sl" v="Taipei"/>
    <tag k="name:vi" v="Đài Bắc"/>
    <tag k="name:zh" v="台北市"/>
    <tag k="name:zh-py" v="Táiběi-shì"/>
    <tag k="place" v="city"/>
  </node>
  <node id="516530438" version="9" timestamp="2010-05-15T06:07:17Z" uid="22536" user="Hellstorm" changeset="4703052" lat="25.0376382" lon="121.564459">
    <tag k="capital" v="yes"/>
    <tag k="is_in" v="Taiwan"/>
    <tag k="is_in:continent" v="Asia"/>
    <tag k="is_in:zh" v="台灣"/>
    <tag k="name" v="台北市 (Taipei)"/>
    <tag k="name:de" v="Taipeh"/>
    <tag k="name:eu" v="Taipei"/>
    <tag k="name:fr" v="Taipei"/>
    <tag k="name:he" v="טאיפאי"/>
    <tag k="name:hr" v="Taipei"/>
    <tag k="name:is" v="Taípei"/>
    <tag k="name:ja" v="台北市"/>
    <tag k="name:ko" v="타이베이 시"/>
    <tag k="name:py" v="Táiběi Shì"/>
    <tag k="name:ru" v="Тайпей"/>
    <tag k="name:sk" v="Tchaj-pej"/>
    <tag k="name:sl" v="Taipei"/>
    <tag k="name:vi" v="Đài Bắc"/>
    <tag k="name:zh" v="台北市"/>
    <tag k="place" v="city"/>
  </node>
  <node id="516530438" version="10" timestamp="2010-09-19T19:07:54Z" uid="343490" user="AaronWu" changeset="5823196" lat="25.0376382" lon="121.564459">
    <tag k="capital" v="yes"/>
    <tag k="is_in" v="Taiwan"/>
    <tag k="is_in:continent" v="Asia"/>
    <tag k="is_in:zh" v="台灣"/>
    <tag k="name" v="台北市 (Taipei)"/>
    <tag k="name:de" v="Taipeh"/>
    <tag k="name:eu" v="Taipei"/>
    <tag k="name:fr" v="Taipei"/>
    <tag k="name:he" v="טאיפאי"/>
    <tag k="name:hr" v="Taipei"/>
    <tag k="name:is" v="Taípei"/>
    <tag k="name:ja" v="台北市"/>
    <tag k="name:ko" v="타이베이 시"/>
    <tag k="name:py" v="Táiběi Shì"/>
    <tag k="name:ru" v="Тайпей"/>
    <tag k="name:sk" v="Tchaj-pej"/>
    <tag k="name:sl" v="Taipei"/>
    <tag k="name:vi" v="Đài Bắc"/>
    <tag k="name:zh" v="台北市"/>
    <tag k="place" v="city"/>
  </node>
  <node id="516530452" version="1" timestamp="2009-10-01T18:36:47Z" uid="86259" user="hasse_osm_korinthenkacker" changeset="2703768" lat="25.03557" lon="121.5678644">
    <tag k="amenity" v="public_building"/>
    <tag k="name" v="Neo19"/>
  </node>
  <node id="516530453" version="1" timestamp="2009-10-01T18:36:47Z" uid="86259" user="hasse_osm_korinthenkacker" changeset="2703768" lat="25.0405083" lon="121.5608218"/>
  <node id="516530453" version="2" timestamp="2011-03-28T22:02:09Z" uid="261299" user="dariocadavere" changeset="7702084" lat="25.0404414" lon="121.5608731"/>
  <node id="516530460" version="1" timestamp="2009-10-01T18:36:48Z" uid="86259" user="hasse_osm_korinthenkacker" changeset="2703768" lat="25.0405705" lon="121.559809"/>
  <node id="516530460" version="2" timestamp="2011-03-28T22:03:08Z" uid="261299" user="dariocadavere" changeset="7702084" lat="25.0404897" lon="121.5598647"/>
  <node id="516530467" version="1" timestamp="2009-10-01T18:36:48Z" uid="86259" user="hasse_osm_korinthenkacker" changeset="2703768" lat="25.0396296" lon="121.5597575"/>
  <node id="516530467" version="2" timestamp="2011-03-28T22:02:07Z" uid="261299" user="dariocadavere" changeset="7702084" lat="25.0395642" lon="121.5598107"/>
  <node id="516530475" version="1" timestamp="2009-10-01T18:36:48Z" uid="86259" user="hasse_osm_korinthenkacker" changeset="2703768" lat="25.0395985" lon="121.5607617"/>
  <node id="516530475" version="2" timestamp="2011-03-28T22:03:32Z" uid="261299" user="dariocadavere" changeset="7702084" lat="25.0395159" lon="121.5608191"/>
  <node id="516530477" version="1" timestamp="2009-10-01T18:36:48Z" uid="86259" user="hasse_osm_korinthenkacker" changeset="2703768" lat="25.0408922" lon="121.5672816">
    <tag k="is_in" v="Taipei City, Taiwan"/>
    <tag k="is_in:zh" v="台灣台北市"/>
    <tag k="name" v="MRT Taipei City Hall"/>
    <tag k="name:zh" v="捷運市政府站"/>
    <tag k="railway" v="subway_entrance"/>
    <tag k="ref" v="3"/>
  </node>
  <node id="516530477" version="2" timestamp="2011-11-13T13:00:51Z" uid="139957" user="ij_" changeset="9813675" lat="25.0409078" lon="121.5670516">
    <tag k="is_in" v="Taipei City, Taiwan"/>
    <tag k="is_in:zh" v="台灣台北市"/>
    <tag k="name" v="MRT Taipei City Hall"/>
    <tag k="name:zh" v="捷運市政府站"/>
    <tag k="railway" v="subway_entrance"/>
    <tag k="ref" v="3"/>
  </node>
</osm>
