<?xml version='1.0' encoding='UTF-8'?>
<osm version="0.6" generator="libosmium/2.20.0">
  <node id="518074066" version="1" timestamp="2009-10-02T20:14:14Z" uid="86259" user="hasse_osm_korinthenkacker" changeset="2717163" lat="47.8864564" lon="11.7606375">
    <tag k="addr:city" v="Unterdarching"/>
    <tag k="addr:country" v="DE"/>
    <tag k="addr:housenumber" v="29a"/>
    <tag k="addr:postcode" v="83626"/>
    <tag k="addr:street" v="Holzkirchner Straße"/>
  </node>
  <node id="518074069" version="1" timestamp="2009-10-02T20:14:14Z" uid="86259" user="hasse_osm_korinthenkacker" changeset="2717163" lat="47.8863816" lon="11.7606375">
    <tag k="addr:city" v="Unterdarching"/>
    <tag k="addr:country" v="DE"/>
    <tag k="addr:housenumber" v="29b"/>
    <tag k="addr:postcode" v="83626"/>
    <tag k="addr:street" v="Holzkirchner Straße"/>
  </node>
  <node id="518074070" version="1" timestamp="2009-10-02T20:14:14Z" uid="86259" user="hasse_osm_korinthenkacker" changeset="2717163" lat="47.8871698" lon="11.7607067">
    <tag k="addr:city" v="Unterdarching"/>
    <tag k="addr:country" v="DE"/>
    <tag k="addr:housenumber" v="4"/>
    <tag k="addr:postcode" v="83626"/>
    <tag k="addr:street" v="Heerder Weg"/>
  </node>
  <node id="518074073" version="1" timestamp="2009-10-02T20:14:15Z" uid="86259" user="hasse_osm_korinthenkacker" changeset="2717163" lat="47.8869454" lon="11.7604492">
    <tag k="addr:city" v="Unterdarching"/>
    <tag k="addr:country" v="DE"/>
    <tag k="addr:housenumber" v="1"/>
    <tag k="addr:postcode" v="83626"/>
    <tag k="addr:street" v="Heerder Weg"/>
  </node>
  <node id="518074076" version="1" timestamp="2009-10-02T20:14:15Z" uid="86259" user="hasse_osm_korinthenkacker" changeset="2717163" lat="47.8866579" lon="11.7606461">
    <tag k="addr:city" v="Unterdarching"/>
    <tag k="addr:country" v="DE"/>
    <tag k="addr:housenumber" v="31"/>
    <tag k="addr:postcode" v="83626"/>
    <tag k="addr:street" v="Holzkirchner Straße"/>
  </node>
  <node id="518074078" version="1" timestamp="2009-10-02T20:14:15Z" uid="86259" user="hasse_osm_korinthenkacker" changeset="2717163" lat="47.8864792" lon="11.762389">
    <tag k="addr:city" v="Unterdarching"/>
    <tag k="addr:country" v="DE"/>
    <tag k="addr:housenumber" v="23"/>
    <tag k="addr:postcode" v="83626"/>
    <tag k="addr:street" v="Holzkirchner Straße"/>
  </node>
  <node id="518074079" version="1" timestamp="2009-10-02T20:14:15Z" uid="86259" user="hasse_osm_korinthenkacker" changeset="2717163" lat="47.8865597" lon="11.7616508">
    <tag k="addr:city" v="Unterdarching"/>
    <tag k="addr:country" v="DE"/>
    <tag k="addr:housenumber" v="27"/>
    <tag k="addr:postcode" v="83626"/>
    <tag k="addr:street" v="Holzkirchner Straße"/>
  </node>
  <node id="518074081" version="1" timestamp="2009-10-02T20:14:15Z" uid="86259" user="hasse_osm_korinthenkacker" changeset="2717163" lat="47.8865137" lon="11.7620542">
    <tag k="addr:city" v="Unterdarching"/>
    <tag k="addr:country" v="DE"/>
    <tag k="addr:housenumber" v="25"/>
    <tag k="addr:postcode" v="83626"/>
    <tag k="addr:street" v="Holzkirchner Straße"/>
  </node>
  <node id="518074084" version="1" timestamp="2009-10-02T20:14:15Z" uid="86259" user="hasse_osm_korinthenkacker" changeset="2717163" lat="47.8865252" lon="11.7615392">
    <tag k="addr:city" v="Unterdarching"/>
    <tag k="addr:country" v="DE"/>
    <tag k="addr:housenumber" v="29"/>
    <tag k="addr:postcode" v="83626"/>
    <tag k="addr:street" v="Holzkirchner Straße"/>
  </node>
  <node id="518074087" version="1" timestamp="2009-10-02T20:14:15Z" uid="86259" user="hasse_osm_korinthenkacker" changeset="2717163" lat="47.8865194" lon="11.7635734">
    <tag k="addr:city" v="Unterdarching"/>
    <tag k="addr:country" v="DE"/>
    <tag k="addr:housenumber" v="2"/>
    <tag k="addr:postcode" v="83626"/>
    <tag k="addr:street" v="Alpenblickstraße"/>
  </node>
  <node id="518074088" version="1" timestamp="2009-10-02T20:14:15Z" uid="86259" user="hasse_osm_korinthenkacker" changeset="2717163" lat="47.8844243" lon="11.7644661">
    <tag k="addr:city" v="Unterdarching"/>
    <tag k="addr:country" v="DE"/>
    <tag k="addr:housenumber" v="7"/>
    <tag k="addr:postcode" v="83626"/>
    <tag k="addr:street" v="Alpenblickstraße"/>
  </node>
  <node id="518074091" version="1" timestamp="2009-10-02T20:14:15Z" uid="86259" user="hasse_osm_korinthenkacker" changeset="2717163" lat="47.8847984" lon="11.7648094">
    <tag k="addr:city" v="Unterdarching"/>
    <tag k="addr:country" v="DE"/>
    <tag k="addr:housenumber" v="1"/>
    <tag k="addr:postcode" v="83626"/>
    <tag k="addr:street" v="Ulmenweg"/>
  </node>
  <node id="518074094" version="1" timestamp="2009-10-02T20:14:15Z" uid="86259" user="hasse_osm_korinthenkacker" changeset="2717163" lat="47.8850172" lon="11.7643974">
    <tag k="addr:city" v="Unterdarching"/>
    <tag k="addr:country" v="DE"/>
    <tag k="addr:housenumber" v="5"/>
    <tag k="addr:postcode" v="83626"/>
    <tag k="addr:street" v="Alpenblickstraße"/>
  </node>
  <node id="518074096" version="1" timestamp="2009-10-02T20:14:15Z" uid="86259" user="hasse_osm_korinthenkacker" changeset="2717163" lat="47.8847984" lon="11.7646978">
    <tag k="addr:city" v="Unterdarching"/>
    <tag k="addr:country" v="DE"/>
    <tag k="addr:housenumber" v="3"/>
    <tag k="addr:postcode" v="83626"/>
    <tag k="addr:street" v="Ulmenweg"/>
  </node>
  <node id="518074097" version="1" timestamp="2009-10-02T20:14:15Z" uid="86259" user="hasse_osm_korinthenkacker" changeset="2717163" lat="47.8852359" lon="11.7653244">
    <tag k="addr:city" v="Unterdarching"/>
    <tag k="addr:country" v="DE"/>
    <tag k="addr:housenumber" v="6a"/>
    <tag k="addr:postcode" v="83626"/>
    <tag k="addr:street" v="Ulmenweg"/>
  </node>
  <node id="518074099" version="1" timestamp="2009-10-02T20:14:15Z" uid="86259" user="hasse_osm_korinthenkacker" changeset="2717163" lat="47.8846603" lon="11.7652385">
    <tag k="addr:city" v="Unterdarching"/>
    <tag k="addr:country" v="DE"/>
    <tag k="addr:housenumber" v="2"/>
    <tag k="addr:postcode" v="83626"/>
    <tag k="addr:street" v="Ulmenweg"/>
  </node>
  <node id="518074102" version="1" timestamp="2009-10-02T20:14:16Z" uid="86259" user="hasse_osm_korinthenkacker" changeset="2717163" lat="47.8849366" lon="11.7652042">
    <tag k="addr:city" v="Unterdarching"/>
    <tag k="addr:country" v="DE"/>
    <tag k="addr:housenumber" v="4"/>
    <tag k="addr:postcode" v="83626"/>
    <tag k="addr:street" v="Ulmenweg"/>
  </node>
  <node id="518074103" version="1" timestamp="2009-10-02T20:14:16Z" uid="86259" user="hasse_osm_korinthenkacker" changeset="2717163" lat="47.8852359" lon="11.7651785">
    <tag k="addr:city" v="Unterdarching"/>
    <tag k="addr:country" v="DE"/>
    <tag k="addr:housenumber" v="6"/>
    <tag k="addr:postcode" v="83626"/>
    <tag k="addr:street" v="Ulmenweg"/>
  </node>
  <node id="518074105" version="1" timestamp="2009-10-02T20:14:16Z" uid="86259" user="hasse_osm_korinthenkacker" changeset="2717163" lat="47.8852934" lon="11.7640283">
    <tag k="addr:city" v="Unterdarching"/>
    <tag k="addr:country" v="DE"/>
    <tag k="addr:housenumber" v="4"/>
    <tag k="addr:postcode" v="83626"/>
    <tag k="addr:street" v="Alpenblickstraße"/>
  </node>
  <node id="518074107" version="1" timestamp="2009-10-02T20:14:16Z" uid="86259" user="hasse_osm_korinthenkacker" changeset="2717163" lat="47.8858921" lon="11.7644146">
    <tag k="addr:city" v="Unterdarching"/>
    <tag k="addr:country" v="DE"/>
    <tag k="addr:housenumber" v="3a"/>
    <tag k="addr:postcode" v="83626"/>
    <tag k="addr:street" v="Alpenblickstraße"/>
  </node>
  <node id="518074108" version="1" timestamp="2009-10-02T20:14:16Z" uid="86259" user="hasse_osm_korinthenkacker" changeset="2717163" lat="47.8856158" lon="11.7648351">
    <tag k="addr:city" v="Unterdarching"/>
    <tag k="addr:country" v="DE"/>
    <tag k="addr:housenumber" v="9"/>
    <tag k="addr:postcode" v="83626"/>
    <tag k="addr:street" v="Ulmenweg"/>
  </node>
  <node id="518074109" version="1" timestamp="2009-10-02T20:14:16Z" uid="86259" user="hasse_osm_korinthenkacker" changeset="2717163" lat="47.8853625" lon="11.7647751">
    <tag k="addr:city" v="Unterdarching"/>
    <tag k="addr:country" v="DE"/>
    <tag k="addr:housenumber" v="7"/>
    <tag k="addr:postcode" v="83626"/>
    <tag k="addr:street" v="Ulmenweg"/>
  </node>
  <node id="518074110" version="1" timestamp="2009-10-02T20:14:16Z" uid="86259" user="hasse_osm_korinthenkacker" changeset="2717163" lat="47.8860014" lon="11.7648866">
    <tag k="addr:city" v="Unterdarching"/>
    <tag k="addr:country" v="DE"/>
    <tag k="addr:housenumber" v="10"/>
    <tag k="addr:postcode" v="83626"/>
    <tag k="addr:street" v="Ulmenweg"/>
  </node>
  <node id="518074111" version="1" timestamp="2009-10-02T20:14:16Z" uid="86259" user="hasse_osm_korinthenkacker" changeset="2717163" lat="47.8860878" lon="11.7643459">
    <tag k="addr:city" v="Unterdarching"/>
    <tag k="addr:country" v="DE"/>
    <tag k="addr:housenumber" v="3"/>
    <tag k="addr:postcode" v="83626"/>
    <tag k="addr:street" v="Alpenblickstraße"/>
  </node>
  <node id="518074112" version="1" timestamp="2009-10-02T20:14:16Z" uid="86259" user="hasse_osm_korinthenkacker" changeset="2717163" lat="47.8865712" lon="11.7641485">
    <tag k="addr:city" v="Unterdarching"/>
    <tag k="addr:country" v="DE"/>
    <tag k="addr:housenumber" v="1"/>
    <tag k="addr:postcode" v="83626"/>
    <tag k="addr:street" v="Alpenblickstraße"/>
  </node>
  <node id="518074113" version="1" timestamp="2009-10-02T20:14:16Z" uid="86259" user="hasse_osm_korinthenkacker" changeset="2717163" lat="47.8852877" lon="11.7656419">
    <tag k="addr:city" v="Unterdarching"/>
    <tag k="addr:country" v="DE"/>
    <tag k="addr:housenumber" v="2"/>
    <tag k="addr:postcode" v="83626"/>
    <tag k="addr:street" v="Ahornweg"/>
  </node>
  <node id="518074114" version="1" timestamp="2009-10-02T20:14:16Z" uid="86259" user="hasse_osm_korinthenkacker" changeset="2717163" lat="47.8853222" lon="11.7661312">
    <tag k="addr:city" v="Unterdarching"/>
    <tag k="addr:country" v="DE"/>
    <tag k="addr:housenumber" v="6"/>
    <tag k="addr:postcode" v="83626"/>
    <tag k="addr:street" v="Ahornweg"/>
  </node>
  <node id="518074115" version="1" timestamp="2009-10-02T20:14:16Z" uid="86259" user="hasse_osm_korinthenkacker" changeset="2717163" lat="47.8853165" lon="11.765908">
    <tag k="addr:city" v="Unterdarching"/>
    <tag k="addr:country" v="DE"/>
    <tag k="addr:housenumber" v="4"/>
    <tag k="addr:postcode" v="83626"/>
    <tag k="addr:street" v="Ahornweg"/>
  </node>
  <node id="518074116" version="1" timestamp="2009-10-02T20:14:16Z" uid="86259" user="hasse_osm_korinthenkacker" changeset="2717163" lat="47.8856676" lon="11.7652557">
    <tag k="addr:city" v="Unterdarching"/>
    <tag k="addr:country" v="DE"/>
    <tag k="addr:housenumber" v="8"/>
    <tag k="addr:postcode" v="83626"/>
    <tag k="addr:street" v="Ulmenweg"/>
  </node>
  <node id="518074117" version="1" timestamp="2009-10-02T20:14:16Z" uid="86259" user="hasse_osm_korinthenkacker" changeset="2717163" lat="47.8869799" lon="11.7611444">
    <tag k="addr:city" v="Unterdarching"/>
    <tag k="addr:country" v="DE"/>
    <tag k="addr:housenumber" v="2"/>
    <tag k="addr:postcode" v="83626"/>
    <tag k="addr:street" v="Heerder Weg"/>
  </node>
  <node id="518074118" version="1" timestamp="2009-10-02T20:14:17Z" uid="86259" user="hasse_osm_korinthenkacker" changeset="2717163" lat="47.8871871" lon="11.7614448">
    <tag k="addr:city" v="Unterdarching"/>
    <tag k="addr:country" v="DE"/>
    <tag k="addr:housenumber" v="4"/>
    <tag k="addr:postcode" v="83626"/>
    <tag k="addr:street" v="Stahuber Weg"/>
  </node>
  <node id="518074119" version="1" timestamp="2009-10-02T20:14:17Z" uid="86259" user="hasse_osm_korinthenkacker" changeset="2717163" lat="47.8871871" lon="11.7611616">
    <tag k="addr:city" v="Unterdarching"/>
    <tag k="addr:country" v="DE"/>
    <tag k="addr:housenumber" v="2"/>
    <tag k="addr:postcode" v="83626"/>
    <tag k="addr:street" v="Stahuber Weg"/>
  </node>
  <node id="518076648" version="2" timestamp="2011-02-27T11:23:38Z" uid="4467" user="Rosscoe" changeset="7409351" lat="-26.4691229" lon="147.966174"/>
  <node id="518076653" version="2" timestamp="2011-02-27T11:23:19Z" uid="4467" user="Rosscoe" changeset="7409351" lat="-26.4703444" lon="147.9668168"/>
  <node id="518076658" version="2" timestamp="2011-02-27T11:23:20Z" uid="4467" user="Rosscoe" changeset="7409351" lat="-26.4706612" lon="147.9670834"/>
  <node id="518076663" version="2" timestamp="2011-02-27T11:23:39Z" uid="4467" user="Rosscoe" changeset="7409351" lat="-26.4741417" lon="147.9685727"/>
  <node id="518076667" version="2" timestamp="2011-02-27T11:23:21Z" uid="4467" user="Rosscoe" changeset="7409351" lat="-26.4774277" lon="147.9702385"/>
  <node id="518076668" version="2" timestamp="2011-02-27T11:23:31Z" uid="4467" user="Rosscoe" changeset="7409351" lat="-26.4794321" lon="147.9712292"/>
  <node id="518076669" version="2" timestamp="2011-02-27T11:23:04Z" uid="4467" user="Rosscoe" changeset="7409351" lat="-26.4814567" lon="147.972139"/>
  <node id="518076670" version="2" timestamp="2011-02-27T11:23:18Z" uid="4467" user="Rosscoe" changeset="7409351" lat="-26.4834621" lon="147.9731045"/>
  <node id="518076671" version="2" timestamp="2011-02-27T11:23:27Z" uid="4467" user="Rosscoe" changeset="7409351" lat="-26.4854813" lon="147.9741478"/>
  <node id="518076693" version="2" timestamp="2011-02-27T11:23:35Z" uid="4467" user="Rosscoe" changeset="7409351" lat="-26.4716216" lon="147.9629669"/>
  <node id="518076697" version="2" timestamp="2011-02-27T11:23:26Z" uid="4467" user="Rosscoe" changeset="7409351" lat="-26.4741559" lon="147.9568805"/>
  <node id="518076708" version="2" timestamp="2011-02-27T11:23:39Z" uid="4467" user="Rosscoe" changeset="7409351" lat="-26.4737866" lon="147.9564923"/>
  <node id="518076710" version="2" timestamp="2011-02-27T11:23:18Z" uid="4467" user="Rosscoe" changeset="7409351" lat="-26.4811952" lon="147.9602886"/>
  <node id="518076713" version="2" timestamp="2011-02-27T11:23:30Z" uid="4467" user="Rosscoe" changeset="7409351" lat="-26.4852426" lon="147.9622344"/>
  <node id="518076726" version="2" timestamp="2011-02-27T11:23:03Z" uid="4467" user="Rosscoe" changeset="7409351" lat="-26.4919502" lon="147.9756545"/>
  <node id="518076727" version="2" timestamp="2011-02-27T11:23:12Z" uid="4467" user="Rosscoe" changeset="7409351" lat="-26.493114" lon="147.9762213"/>
  <node id="518076739" version="2" timestamp="2011-02-27T11:23:11Z" uid="4467" user="Rosscoe" changeset="7409351" lat="-26.4898963" lon="147.9748603"/>
  <node id="518076767" version="2" timestamp="2011-02-27T11:23:27Z" uid="4467" user="Rosscoe" changeset="7409351" lat="-26.4757497" lon="147.9746706"/>
  <node id="518076770" version="2" timestamp="2011-02-27T11:23:29Z" uid="4467" user="Rosscoe" changeset="7409351" lat="-26.4765707" lon="147.9725274"/>
  <node id="518076772" version="2" timestamp="2011-02-27T11:23:13Z" uid="4467" user="Rosscoe" changeset="7409351" lat="-26.4782164" lon="147.9680612"/>
  <node id="518076773" version="2" timestamp="2011-02-27T11:23:21Z" uid="4467" user="Rosscoe" changeset="7409351" lat="-26.4788411" lon="147.9663781"/>
  <node id="518076783" version="2" timestamp="2011-02-27T11:23:39Z" uid="4467" user="Rosscoe" changeset="7409351" lat="-26.4800942" lon="147.96741"/>
  <node id="518076786" version="2" timestamp="2011-02-27T11:23:38Z" uid="4467" user="Rosscoe" changeset="7409351" lat="-26.4829905" lon="147.9687832"/>
  <node id="518076794" version="2" timestamp="2011-02-27T11:23:38Z" uid="4467" user="Rosscoe" changeset="7409351" lat="-26.4756075" lon="147.9646376"/>
  <node id="518076796" version="2" timestamp="2011-02-27T11:23:28Z" uid="4467" user="Rosscoe" changeset="7409351" lat="-26.4711126" lon="147.975658"/>
  <node id="518076801" version="2" timestamp="2011-02-27T11:23:03Z" uid="4467" user="Rosscoe" changeset="7409351" lat="-26.4681137" lon="147.9736108"/>
  <node id="518076804" version="2" timestamp="2011-02-27T11:23:35Z" uid="4467" user="Rosscoe" changeset="7409351" lat="-26.4688096" lon="147.9746178"/>
  <node id="518076807" version="2" timestamp="2011-02-27T11:23:28Z" uid="4467" user="Rosscoe" changeset="7409351" lat="-26.4694646" lon="147.975109"/>
  <node id="518076816" version="2" timestamp="2011-02-27T11:23:19Z" uid="4467" user="Rosscoe" changeset="7409351" lat="-26.4724278" lon="147.976011"/>
  <node id="518076819" version="2" timestamp="2011-02-27T11:23:12Z" uid="4467" user="Rosscoe" changeset="7409351" lat="-26.4748575" lon="147.9765096"/>
  <node id="518076826" version="2" timestamp="2011-02-27T11:23:39Z" uid="4467" user="Rosscoe" changeset="7409351" lat="-26.470552" lon="147.9622687"/>
  <node id="518076831" version="2" timestamp="2011-02-27T11:23:37Z" uid="4467" user="Rosscoe" changeset="7409351" lat="-26.4725881" lon="147.9632042"/>
  <node id="518076852" version="2" timestamp="2011-02-27T11:23:13Z" uid="4467" user="Rosscoe" changeset="7409351" lat="-26.4846766" lon="147.9696691"/>
  <node id="518076855" version="2" timestamp="2011-02-27T11:23:37Z" uid="4467" user="Rosscoe" changeset="7409351" lat="-26.4851032" lon="147.9696845"/>
  <node id="518076857" version="2" timestamp="2011-02-27T11:23:12Z" uid="4467" user="Rosscoe" changeset="7409351" lat="-26.4859781" lon="147.9702904"/>
  <node id="518076859" version="2" timestamp="2011-02-27T11:23:30Z" uid="4467" user="Rosscoe" changeset="7409351" lat="-26.4854498" lon="147.971432"/>
  <node id="518076865" version="2" timestamp="2011-02-27T11:23:39Z" uid="4467" user="Rosscoe" changeset="7409351" lat="-26.4838892" lon="147.9664534"/>
  <node id="518076867" version="2" timestamp="2011-02-27T11:23:37Z" uid="4467" user="Rosscoe" changeset="7409351" lat="-26.484825" lon="147.9668907"/>
  <node id="518076868" version="2" timestamp="2011-02-27T11:23:38Z" uid="4467" user="Rosscoe" changeset="7409351" lat="-26.4858237" lon="147.9673614"/>
  <node id="518076869" version="2" timestamp="2011-02-27T11:23:23Z" uid="4467" user="Rosscoe" changeset="7409351" lat="-26.4832604" lon="147.9674603"/>
  <node id="518076870" version="2" timestamp="2009-10-10T10:48:02Z" uid="74617" user="JohnSmith" changeset="2802239" lat="-26.4844842" lon="147.9678263"/>
  <node id="518076870" version="3" timestamp="2011-02-27T11:23:40Z" uid="4467" user="Rosscoe" changeset="7409351" lat="-26.4844842" lon="147.9678263"/>
  <node id="518076871" version="2" timestamp="2011-02-27T11:23:10Z" uid="4467" user="Rosscoe" changeset="7409351" lat="-26.4851532" lon="147.9683632"/>
  <node id="518076888" version="2" timestamp="2009-10-10T10:48:05Z" uid="74617" user="JohnSmith" changeset="2802239" lat="-26.4847882" lon="147.9669722"/>
  <node id="518076897" version="2" timestamp="2011-02-27T11:23:13Z" uid="4467" user="Rosscoe" changeset="7409351" lat="-26.4802768" lon="147.9690164"/>
  <node id="518076902" version="2" timestamp="2011-02-27T11:23:27Z" uid="4467" user="Rosscoe" changeset="7409351" lat="-26.478581" lon="147.9734775"/>
  <node id="518076905" version="2" timestamp="2011-02-27T11:23:03Z" uid="4467" user="Rosscoe" changeset="7409351" lat="-26.4777338" lon="147.9755988"/>
  <node id="518076931" version="2" timestamp="2011-02-27T11:23:19Z" uid="4467" user="Rosscoe" changeset="7409351" lat="-26.4797797" lon="147.9765182"/>
  <node id="518076933" version="2" timestamp="2011-02-27T11:23:02Z" uid="4467" user="Rosscoe" changeset="7409351" lat="-26.4805935" lon="147.9743701"/>
  <node id="518076940" version="2" timestamp="2011-02-27T11:23:23Z" uid="4467" user="Rosscoe" changeset="7409351" lat="-26.4822614" lon="147.9699607"/>
  <node id="518076972" version="2" timestamp="2011-02-27T11:23:18Z" uid="4467" user="Rosscoe" changeset="7409351" lat="-26.4831172" lon="147.9781623"/>
  <node id="518076977" version="2" timestamp="2011-02-27T11:23:13Z" uid="4467" user="Rosscoe" changeset="7409351" lat="-26.4817786" lon="147.9774336"/>
  <node id="518076978" version="2" timestamp="2011-02-27T11:23:27Z" uid="4467" user="Rosscoe" changeset="7409351" lat="-26.4841957" lon="147.9708492"/>
  <node id="518076979" version="2" timestamp="2011-02-27T11:23:31Z" uid="4467" user="Rosscoe" changeset="7409351" lat="-26.4842745" lon="147.9709283"/>
  <node id="518076990" version="2" timestamp="2011-02-27T11:23:21Z" uid="4467" user="Rosscoe" changeset="7409351" lat="-26.4856958" lon="147.9669306"/>
  <node id="518077006" version="2" timestamp="2011-02-27T11:23:23Z" uid="4467" user="Rosscoe" changeset="7409351" lat="-26.483943" lon="147.9785423"/>
  <node id="518077008" version="2" timestamp="2011-02-27T11:23:28Z" uid="4467" user="Rosscoe" changeset="7409351" lat="-26.4842602" lon="147.9774061"/>
  <node id="518077009" version="2" timestamp="2011-02-27T11:23:36Z" uid="4467" user="Rosscoe" changeset="7409351" lat="-26.4846514" lon="147.9763637"/>
  <node id="518077010" version="2" timestamp="2011-02-27T11:23:38Z" uid="4467" user="Rosscoe" changeset="7409351" lat="-26.4859021" lon="147.9736241"/>
  <node id="518077011" version="2" timestamp="2011-02-27T11:23:20Z" uid="4467" user="Rosscoe" changeset="7409351" lat="-26.4863033" lon="147.9720969"/>
  <node id="518077013" version="2" timestamp="2011-02-27T11:23:03Z" uid="4467" user="Rosscoe" changeset="7409351" lat="-26.4865322" lon="147.9718195"/>
  <node id="518077026" version="2" timestamp="2011-02-27T11:23:38Z" uid="4467" user="Rosscoe" changeset="7409351" lat="-26.4869085" lon="147.9719418"/>
  <node id="518077029" version="3" timestamp="2011-02-27T11:23:12Z" uid="4467" user="Rosscoe" changeset="7409351" lat="-26.4882563" lon="147.9728781"/>
  <node id="518077030" version="2" timestamp="2011-02-27T11:23:22Z" uid="4467" user="Rosscoe" changeset="7409351" lat="-26.4848129" lon="147.9776437"/>
  <node id="518077032" version="2" timestamp="2011-02-28T08:17:37Z" uid="4467" user="Rosscoe" changeset="7418214" lat="-26.4932763" lon="147.9544115"/>
  <node id="518077033" version="2" timestamp="2011-02-27T11:23:35Z" uid="4467" user="Rosscoe" changeset="7409351" lat="-26.4899156" lon="147.9630776"/>
  <node id="518077035" version="2" timestamp="2011-02-27T11:23:19Z" uid="4467" user="Rosscoe" changeset="7409351" lat="-26.4825834" lon="147.9753228"/>
  <node id="518077044" version="2" timestamp="2011-02-27T11:23:39Z" uid="4467" user="Rosscoe" changeset="7409351" lat="-26.501327" lon="147.9695986"/>
  <node id="518077045" version="2" timestamp="2011-02-27T11:23:39Z" uid="4467" user="Rosscoe" changeset="7409351" lat="-26.4940527" lon="147.966174"/>
  <node id="518077048" version="2" timestamp="2011-02-27T11:23:38Z" uid="4467" user="Rosscoe" changeset="7409351" lat="-26.4915945" lon="147.9650067"/>
  <node id="518077051" version="3" timestamp="2011-02-27T11:23:04Z" uid="4467" user="Rosscoe" changeset="7409351" lat="-26.4879425" lon="147.9682251"/>
  <node id="518077053" version="2" timestamp="2011-02-27T11:23:39Z" uid="4467" user="Rosscoe" changeset="7409351" lat="-26.4882529" lon="147.9681138"/>
  <node id="518077056" version="2" timestamp="2011-02-27T11:23:22Z" uid="4467" user="Rosscoe" changeset="7409351" lat="-26.4892946" lon="147.9688738"/>
  <node id="518077064" version="3" timestamp="2011-02-27T11:23:14Z" uid="4467" user="Rosscoe" changeset="7409351" lat="-26.4884693" lon="147.9668842"/>
  <node id="518077067" version="2" timestamp="2011-02-27T11:23:37Z" uid="4467" user="Rosscoe" changeset="7409351" lat="-26.4887906" lon="147.9668091"/>
  <node id="518077070" version="2" timestamp="2011-02-27T11:23:02Z" uid="4467" user="Rosscoe" changeset="7409351" lat="-26.4903287" lon="147.9677468"/>
  <node id="518077072" version="2" timestamp="2011-02-27T11:23:11Z" uid="4467" user="Rosscoe" changeset="7409351" lat="-26.4906039" lon="147.968001"/>
  <node id="518077078" version="3" timestamp="2011-02-27T11:23:39Z" uid="4467" user="Rosscoe" changeset="7409351" lat="-26.4890243" lon="147.9654138"/>
  <node id="518077079" version="2" timestamp="2011-02-27T11:23:37Z" uid="4467" user="Rosscoe" changeset="7409351" lat="-26.4891978" lon="147.9654873"/>
  <node id="518077080" version="2" timestamp="2011-02-27T11:23:40Z" uid="4467" user="Rosscoe" changeset="7409351" lat="-26.4910908" lon="147.9663166"/>
  <node id="518077082" version="2" timestamp="2011-02-27T11:23:39Z" uid="4467" user="Rosscoe" changeset="7409351" lat="-26.489505" lon="147.9704398"/>
  <node id="518077109" version="2" timestamp="2011-02-27T11:23:12Z" uid="4467" user="Rosscoe" changeset="7409351" lat="-26.4902927" lon="147.9738547"/>
  <node id="518077110" version="2" timestamp="2010-06-24T15:36:26Z" uid="74617" user="JohnSmith" changeset="5066657" lat="-26.489722" lon="147.9759367"/>
  <node id="518077112" version="2" timestamp="2011-02-27T11:23:28Z" uid="4467" user="Rosscoe" changeset="7409351" lat="-26.4885942" lon="147.9782352"/>
  <node id="518077116" version="2" timestamp="2011-02-27T11:23:30Z" uid="4467" user="Rosscoe" changeset="7409351" lat="-26.4881707" lon="147.979347"/>
  <node id="518077123" version="2" timestamp="2011-02-27T11:23:28Z" uid="4467" user="Rosscoe" changeset="7409351" lat="-26.48806" lon="147.9796563"/>
  <node id="518077131" version="2" timestamp="2011-02-27T11:23:22Z" uid="4467" user="Rosscoe" changeset="7409351" lat="-26.4887355" lon="147.9731068"/>
  <node id="518077135" version="2" timestamp="2011-02-27T11:23:39Z" uid="4467" user="Rosscoe" changeset="7409351" lat="-26.491318" lon="147.9740447"/>
  <node id="518077140" version="2" timestamp="2011-02-27T11:23:27Z" uid="4467" user="Rosscoe" changeset="7409351" lat="-26.4914186" lon="147.9743974"/>
  <node id="518077144" version="2" timestamp="2011-02-27T11:23:18Z" uid="4467" user="Rosscoe" changeset="7409351" lat="-26.4922941" lon="147.974791"/>
  <node id="518077148" version="2" timestamp="2011-02-27T11:23:19Z" uid="4467" user="Rosscoe" changeset="7409351" lat="-26.4934649" lon="147.9753536"/>
  <node id="518077151" version="2" timestamp="2011-02-27T11:23:12Z" uid="4467" user="Rosscoe" changeset="7409351" lat="-26.5000975" lon="147.978316"/>
  <node id="518077172" version="2" timestamp="2010-06-24T15:36:26Z" uid="74617" user="JohnSmith" changeset="5066657" lat="-26.4907879" lon="147.9764308"/>
  <node id="518077174" version="2" timestamp="2010-06-24T15:36:24Z" uid="74617" user="JohnSmith" changeset="5066657" lat="-26.490807" lon="147.9763659"/>
  <node id="518077174" version="3" timestamp="2011-02-27T11:23:02Z" uid="4467" user="Rosscoe" changeset="7409351" lat="-26.4905954" lon="147.9764738"/>
  <node id="518077181" version="2" timestamp="2011-02-27T11:23:20Z" uid="4467" user="Rosscoe" changeset="7409351" lat="-26.4964955" lon="147.9851583"/>
  <node id="518077184" version="2" timestamp="2011-02-27T11:23:38Z" uid="4467" user="Rosscoe" changeset="7409351" lat="-26.4980164" lon="147.9825247"/>
  <node id="518077187" version="2" timestamp="2011-02-27T11:23:11Z" uid="4467" user="Rosscoe" changeset="7409351" lat="-26.4980304" lon="147.9835211"/>
  <node id="518077205" version="2" timestamp="2011-02-27T11:23:13Z" uid="4467" user="Rosscoe" changeset="7409351" lat="-26.4994349" lon="147.9809673"/>
  <node id="518077207" version="2" timestamp="2011-02-27T11:23:31Z" uid="4467" user="Rosscoe" changeset="7409351" lat="-26.4979759" lon="147.9833815"/>
  <node id="518077209" version="2" timestamp="2011-02-27T11:23:37Z" uid="4467" user="Rosscoe" changeset="7409351" lat="-26.4979933" lon="147.9821728"/>
  <node id="518077259" version="2" timestamp="2010-06-24T15:36:36Z" uid="74617" user="JohnSmith" changeset="5066657" lat="-26.4929202" lon="147.9774551"/>
  <node id="518077287" version="2" timestamp="2011-02-27T11:23:19Z" uid="4467" user="Rosscoe" changeset="7409351" lat="-26.4900293" lon="147.9806641"/>
  <node id="518077289" version="2" timestamp="2011-02-27T11:23:27Z" uid="4467" user="Rosscoe" changeset="7409351" lat="-26.4939629" lon="147.9826641"/>
  <node id="518077291" version="2" timestamp="2011-02-27T11:23:11Z" uid="4467" user="Rosscoe" changeset="7409351" lat="-26.4960323" lon="147.984611"/>
  <node id="518077294" version="2" timestamp="2011-02-27T11:23:03Z" uid="4467" user="Rosscoe" changeset="7409351" lat="-26.4967788" lon="147.985376"/>
  <node id="518077297" version="2" timestamp="2011-02-27T11:23:18Z" uid="4467" user="Rosscoe" changeset="7409351" lat="-26.4974921" lon="147.984933"/>
  <node id="518077298" version="2" timestamp="2011-02-27T11:23:29Z" uid="4467" user="Rosscoe" changeset="7409351" lat="-26.4996299" lon="147.9808664"/>
  <node id="518077305" version="2" timestamp="2011-02-27T11:23:12Z" uid="4467" user="Rosscoe" changeset="7409351" lat="-26.4940745" lon="147.9824899"/>
  <node id="518077306" version="2" timestamp="2011-02-27T11:23:23Z" uid="4467" user="Rosscoe" changeset="7409351" lat="-26.4945873" lon="147.9810822"/>
  <node id="518077310" version="2" timestamp="2011-02-27T11:23:27Z" uid="4467" user="Rosscoe" changeset="7409351" lat="-26.4954889" lon="147.9788699"/>
  <node id="518077333" version="2" timestamp="2010-06-24T15:36:30Z" uid="74617" user="JohnSmith" changeset="5066657" lat="-26.4916937" lon="147.9768728"/>
  <node id="518077341" version="2" timestamp="2011-02-27T11:23:37Z" uid="4467" user="Rosscoe" changeset="7409351" lat="-26.471328" lon="147.9605521"/>
  <node id="518077349" version="2" timestamp="2011-02-27T11:23:38Z" uid="4467" user="Rosscoe" changeset="7409351" lat="-26.4697837" lon="147.9640626"/>
  <node id="518077383" version="3" timestamp="2011-02-27T11:23:22Z" uid="4467" user="Rosscoe" changeset="7409351" lat="-26.4865388" lon="147.9772527"/>
  <node id="518077386" version="2" timestamp="2011-02-27T11:23:02Z" uid="4467" user="Rosscoe" changeset="7409351" lat="-26.4906032" lon="147.9791495"/>
  <node id="518077388" version="2" timestamp="2011-02-27T11:23:39Z" uid="4467" user="Rosscoe" changeset="7409351" lat="-26.4965799" lon="147.9818038"/>
</osm>
