<?xml version='1.0' encoding='UTF-8'?>
<osm version="0.6" generator="libosmium/2.20.0">
  <node id="518535675" version="1" timestamp="2009-10-03T09:10:22Z" uid="12188" user="Babis" changeset="2721148" lat="37.9395245" lon="23.7409436">
    <tag k="name" v="Αγ.Δημήτριος"/>
    <tag k="railway" v="station"/>
  </node>
  <node id="518535675" version="2" timestamp="2009-10-03T09:11:06Z" uid="12188" user="Babis" changeset="2721148" lat="37.9395245" lon="23.7409436">
    <tag k="name" v="Αγ.Δημήτριος"/>
    <tag k="name:en" v="Ag.Dimitrios"/>
    <tag k="railway" v="station"/>
  </node>
  <node id="518535675" version="3" timestamp="2009-10-13T14:05:34Z" uid="12188" user="Babis" changeset="2836328" lat="37.9395261" lon="23.7409376">
    <tag k="name" v="Αγ.Δημήτριος"/>
    <tag k="name:en" v="Ag.Dimitrios"/>
    <tag k="railway" v="station"/>
  </node>
  <node id="518535675" version="4" timestamp="2011-09-15T13:30:44Z" uid="471191" user="gata_osm" changeset="9308113" lat="37.9404043" lon="23.740693">
    <tag k="name" v="Αγ.Δημήτριος"/>
    <tag k="name:en" v="Ag.Dimitrios"/>
    <tag k="railway" v="station"/>
  </node>
  <node id="518538690" version="1" timestamp="2009-10-03T09:12:03Z" uid="12188" user="Babis" changeset="2721148" lat="37.9493458" lon="23.7373645">
    <tag k="name" v="Δάφνη"/>
    <tag k="name:en" v="Dafni"/>
    <tag k="railway" v="station"/>
  </node>
  <node id="518538690" version="2" timestamp="2009-10-03T09:23:11Z" uid="12188" user="Babis" changeset="2721148" lat="37.9493458" lon="23.7373645">
    <tag k="name" v="Δάφνη"/>
    <tag k="name:en" v="Dafni"/>
    <tag k="railway" v="station"/>
  </node>
  <node id="518538690" version="3" timestamp="2009-10-03T09:23:30Z" uid="12188" user="Babis" changeset="2721148" lat="37.9493458" lon="23.7373645">
    <tag k="name" v="Δάφνη"/>
    <tag k="name:en" v="Dafni"/>
    <tag k="railway" v="station"/>
  </node>
  <node id="518539653" version="1" timestamp="2009-10-03T09:12:40Z" uid="12188" user="Babis" changeset="2721148" lat="37.9567972" lon="23.7351672">
    <tag k="name" v="Αγ.Ιωάννης"/>
    <tag k="name:en" v="Ag.Ioannis"/>
    <tag k="railway" v="station"/>
  </node>
  <node id="518539653" version="2" timestamp="2009-10-03T09:23:11Z" uid="12188" user="Babis" changeset="2721148" lat="37.9567972" lon="23.7351672">
    <tag k="name" v="Αγ.Ιωάννης"/>
    <tag k="name:en" v="Ag.Ioannis"/>
    <tag k="railway" v="station"/>
  </node>
  <node id="518539653" version="3" timestamp="2009-10-03T09:23:31Z" uid="12188" user="Babis" changeset="2721148" lat="37.9567972" lon="23.7351672">
    <tag k="name" v="Αγ.Ιωάννης"/>
    <tag k="name:en" v="Ag.Ioannis"/>
    <tag k="railway" v="station"/>
  </node>
</osm>
