<?xml version='1.0' encoding='UTF-8'?>
<osm version="0.6" generator="libosmium/2.20.0">
  <node id="518862870" version="3" timestamp="2009-12-24T04:27:05Z" uid="6975" user="ulfl" changeset="3439915" lat="49.3476756" lon="8.7750006">
    <tag k="amenity" v="kindergarten"/>
    <tag k="name" v="Regenbogenkindergarten"/>
  </node>
  <node id="518862870" version="4" timestamp="2011-02-15T14:00:26Z" uid="290680" user="wheelmap_visitor" changeset="7293585" lat="49.3476756" lon="8.7750006">
    <tag k="amenity" v="kindergarten"/>
    <tag k="name" v="Regenbogenkindergarten"/>
    <tag k="wheelchair" v="yes"/>
  </node>
  <node id="518864373" version="3" timestamp="2009-12-24T04:27:03Z" uid="6975" user="ulfl" changeset="3439915" lat="49.3567037" lon="8.7798314">
    <tag k="amenity" v="kindergarten"/>
    <tag k="name" v="Heldenkindergarten"/>
  </node>
  <node id="518864373" version="4" timestamp="2011-04-10T21:16:00Z" uid="202726" user="whb" changeset="7827760" lat="49.3567037" lon="8.7798314">
    <tag k="amenity" v="kindergarten"/>
    <tag k="name" v="Heldenkindergarten"/>
  </node>
</osm>
