<?xml version='1.0' encoding='UTF-8'?>
<osm version="0.6" generator="libosmium/2.20.0">
  <node id="520625397" version="2" timestamp="2009-12-22T17:08:32Z" uid="157412" user="Leopold" changeset="3428306" lat="50.1517158" lon="6.5491388">
    <tag k="amenity" v="parking"/>
  </node>
  <node id="520625397" version="3" timestamp="2010-06-23T17:23:19Z" uid="82866" user="Hagebutte" changeset="5060378" lat="50.1517158" lon="6.5491388">
    <tag k="amenity" v="parking"/>
    <tag k="capacity" v="15"/>
  </node>
  <node id="520625427" version="2" timestamp="2009-12-22T17:08:31Z" uid="157412" user="Leopold" changeset="3428306" lat="50.1526582" lon="6.5497842">
    <tag k="amenity" v="place_of_worship"/>
    <tag k="name" v="Grabkapelle Weißenseifen"/>
    <tag k="religion" v="christian"/>
  </node>
  <node id="520625427" version="3" timestamp="2011-03-16T21:06:22Z" uid="153109" user="pschaefer" changeset="7579735" lat="50.1526182" lon="6.5498154">
    <tag k="amenity" v="place_of_worship"/>
    <tag k="name" v="Grabkapelle Weißenseifen"/>
    <tag k="religion" v="christian"/>
  </node>
  <node id="520625427" version="4" timestamp="2011-04-19T09:31:12Z" uid="313442" user="chillschote" changeset="7904673" lat="50.152623" lon="6.5499048">
    <tag k="amenity" v="place_of_worship"/>
    <tag k="name" v="Grabkapelle Weißenseifen"/>
    <tag k="religion" v="christian"/>
  </node>
</osm>
