<?xml version='1.0' encoding='UTF-8'?>
<osm version="0.6" generator="libosmium/2.20.0">
  <node id="523347039" version="1" timestamp="2009-10-06T20:29:13Z" uid="99207" user="Lar Kiesel" changeset="2765468" lat="33.5264512" lon="-79.0643102"/>
  <node id="523347039" version="2" timestamp="2009-10-07T00:30:52Z" uid="99207" user="Lar Kiesel" changeset="2766884" lat="33.5263864" lon="-79.0640741"/>
  <node id="523347039" version="3" timestamp="2009-10-07T06:57:44Z" uid="99207" user="Lar Kiesel" changeset="2768105" lat="33.5263864" lon="-79.0640741"/>
  <node id="523347250" version="1" timestamp="2009-10-06T20:29:18Z" uid="99207" user="Lar Kiesel" changeset="2765468" lat="33.5287793" lon="-79.0618979"/>
  <node id="523347702" version="1" timestamp="2009-10-06T20:29:38Z" uid="99207" user="Lar Kiesel" changeset="2765468" lat="33.5282856" lon="-79.0626189"/>
  <node id="523347702" version="2" timestamp="2010-05-02T22:17:27Z" uid="99207" user="Lar Kiesel" changeset="4590838" lat="33.5283102" lon="-79.0626407"/>
  <node id="523349276" version="2" timestamp="2010-04-11T04:51:26Z" uid="20587" user="balrog-kun" changeset="4389130" lat="49.9303136" lon="22.4667171">
    <tag k="name" v="Rzeplin"/>
    <tag k="place" v="village"/>
  </node>
  <node id="523349276" version="3" timestamp="2010-04-11T13:15:48Z" uid="20587" user="balrog-kun" changeset="4392352" lat="49.9299209" lon="22.4667801">
    <tag k="name" v="Rzeplin"/>
    <tag k="place" v="village"/>
  </node>
  <node id="523349279" version="2" timestamp="2010-04-11T04:51:26Z" uid="20587" user="balrog-kun" changeset="4389130" lat="49.8929907" lon="22.4645388">
    <tag k="name" v="Jodłówka"/>
    <tag k="place" v="village"/>
  </node>
  <node id="523349279" version="3" timestamp="2010-04-11T13:15:48Z" uid="20587" user="balrog-kun" changeset="4392352" lat="49.8914267" lon="22.4650825">
    <tag k="name" v="Jodłówka"/>
    <tag k="place" v="village"/>
  </node>
  <node id="523349282" version="2" timestamp="2010-04-11T04:51:26Z" uid="20587" user="balrog-kun" changeset="4389130" lat="49.9333253" lon="22.4974578">
    <tag k="name" v="Rozbórz Długi"/>
    <tag k="place" v="village"/>
  </node>
  <node id="523349282" version="3" timestamp="2010-04-11T13:15:48Z" uid="20587" user="balrog-kun" changeset="4392352" lat="49.9331047" lon="22.4977097">
    <tag k="name" v="Rozbórz Długi"/>
    <tag k="place" v="village"/>
  </node>
  <node id="523349282" version="4" timestamp="2010-04-27T04:07:42Z" uid="30632" user="antblant" changeset="4537875" lat="49.9331047" lon="22.4977097">
    <tag k="name" v="Rozbórz Długi"/>
    <tag k="place" v="village"/>
    <tag k="teryt:simc" v="0608434"/>
  </node>
  <node id="523349286" version="2" timestamp="2010-04-11T04:51:26Z" uid="20587" user="balrog-kun" changeset="4389130" lat="49.9392168" lon="22.5097">
    <tag k="name" v="Parcelacja"/>
    <tag k="place" v="hamlet"/>
  </node>
  <node id="523349286" version="3" timestamp="2010-04-11T13:15:48Z" uid="20587" user="balrog-kun" changeset="4392352" lat="49.9401583" lon="22.4911428">
    <tag k="name" v="Parcelacja"/>
    <tag k="place" v="hamlet"/>
  </node>
  <node id="523349287" version="2" timestamp="2010-04-11T04:51:26Z" uid="20587" user="balrog-kun" changeset="4389130" lat="49.9142215" lon="22.5349644">
    <tag k="name" v="Krzyżówka"/>
    <tag k="place" v="village"/>
  </node>
  <node id="523349287" version="3" timestamp="2010-04-11T13:15:48Z" uid="20587" user="balrog-kun" changeset="4392352" lat="49.9143079" lon="22.5345377">
    <tag k="name" v="Krzyżówka"/>
    <tag k="place" v="village"/>
  </node>
  <node id="523349287" version="4" timestamp="2011-11-30T01:47:49Z" uid="467703" user="Zbigniew Czernik" changeset="9994742" lat="49.9143079" lon="22.5345377">
    <tag k="name" v="Krzyżówka"/>
    <tag k="place" v="hamlet"/>
  </node>
  <node id="523349288" version="2" timestamp="2010-04-11T04:51:26Z" uid="20587" user="balrog-kun" changeset="4389130" lat="49.919128" lon="22.5781183">
    <tag k="name" v="Więckowice"/>
    <tag k="place" v="village"/>
  </node>
  <node id="523349288" version="3" timestamp="2010-04-11T13:15:48Z" uid="20587" user="balrog-kun" changeset="4392352" lat="49.9194229" lon="22.5774318">
    <tag k="name" v="Więckowice"/>
    <tag k="place" v="village"/>
  </node>
  <node id="523349303" version="2" timestamp="2010-04-11T04:51:26Z" uid="20587" user="balrog-kun" changeset="4389130" lat="49.93133" lon="22.5721154">
    <tag k="name" v="Bystrowice"/>
    <tag k="place" v="village"/>
  </node>
  <node id="523349303" version="3" timestamp="2010-04-11T13:15:48Z" uid="20587" user="balrog-kun" changeset="4392352" lat="49.9321914" lon="22.5713463">
    <tag k="name" v="Bystrowice"/>
    <tag k="place" v="village"/>
  </node>
  <node id="523349303" version="4" timestamp="2010-04-27T04:17:11Z" uid="30632" user="antblant" changeset="4537905" lat="49.9321914" lon="22.5713463">
    <tag k="name" v="Bystrowice"/>
    <tag k="place" v="village"/>
    <tag k="teryt:simc" v="0610388"/>
  </node>
  <node id="523349303" version="5" timestamp="2012-02-04T01:45:57Z" uid="467703" user="Zbigniew Czernik" changeset="10580799" lat="49.9314213" lon="22.571856">
    <tag k="name" v="Bystrowice"/>
    <tag k="place" v="village"/>
    <tag k="teryt:simc" v="0610388"/>
  </node>
</osm>
