<?xml version='1.0' encoding='UTF-8'?>
<osm version="0.6" generator="libosmium/2.20.0">
  <node id="523900566" version="1" timestamp="2009-10-07T09:23:46Z" uid="115477" user="wowik" changeset="2769345" lat="56.1275929" lon="37.402087">
    <tag k="addr:country" v="RU"/>
    <tag k="addr:district" v="Дмитровский район"/>
    <tag k="addr:postcode" v="141870"/>
    <tag k="addr:region" v="Московская область"/>
    <tag k="cladr:code" v="5000500038300"/>
    <tag k="cladr:name" v="Белый Раст"/>
    <tag k="cladr:suffix" v="Деревня"/>
    <tag k="name" v="Белый Раст"/>
    <tag k="place" v="hamlet"/>
  </node>
  <node id="523900566" version="2" timestamp="2009-10-07T09:24:13Z" uid="115477" user="wowik" changeset="2769345" lat="56.1265883" lon="37.4029882">
    <tag k="addr:country" v="RU"/>
    <tag k="addr:district" v="Дмитровский район"/>
    <tag k="addr:postcode" v="141870"/>
    <tag k="addr:region" v="Московская область"/>
    <tag k="cladr:code" v="5000500038300"/>
    <tag k="cladr:name" v="Белый Раст"/>
    <tag k="cladr:suffix" v="Деревня"/>
    <tag k="name" v="Белый Раст"/>
    <tag k="place" v="hamlet"/>
  </node>
  <node id="523900566" version="3" timestamp="2009-10-07T09:31:15Z" uid="115477" user="wowik" changeset="2769345" lat="56.1265883" lon="37.4029882">
    <tag k="addr:country" v="RU"/>
    <tag k="addr:district" v="Дмитровский район"/>
    <tag k="addr:postcode" v="141870"/>
    <tag k="addr:region" v="Московская область"/>
    <tag k="cladr:code" v="5000500005400"/>
    <tag k="cladr:name" v="Белый Раст"/>
    <tag k="cladr:suffix" v="Село"/>
    <tag k="name" v="Белый Раст"/>
    <tag k="place" v="hamlet"/>
  </node>
  <node id="523900566" version="4" timestamp="2010-02-28T15:44:51Z" uid="218619" user="Andrey Korolyov" changeset="3999481" lat="56.1265883" lon="37.4029882">
    <tag k="addr:country" v="RU"/>
    <tag k="addr:district" v="Дмитровский район"/>
    <tag k="addr:postcode" v="141870"/>
    <tag k="addr:region" v="Московская область"/>
    <tag k="cladr:code" v="5000500005400"/>
    <tag k="cladr:name" v="Белый Раст"/>
    <tag k="cladr:suffix" v="Село"/>
    <tag k="name" v="Белый Раст"/>
    <tag k="place" v="hamlet"/>
  </node>
  <node id="523900573" version="1" timestamp="2009-10-07T09:23:46Z" uid="115477" user="wowik" changeset="2769345" lat="56.122761" lon="37.441612">
    <tag k="name" v="ПС 750"/>
  </node>
  <node id="523900573" version="2" timestamp="2009-10-07T09:31:15Z" uid="115477" user="wowik" changeset="2769345" lat="56.1245551" lon="37.4471052">
    <tag k="addr:country" v="RU"/>
    <tag k="addr:district" v="Дмитровский район"/>
    <tag k="addr:postcode" v="141870"/>
    <tag k="addr:region" v="Московская область"/>
    <tag k="cladr:code" v="5000500048300"/>
    <tag k="cladr:name" v="Подстанция 750 Квт"/>
    <tag k="cladr:suffix" v="Поселок"/>
    <tag k="name" v="Подстанция 750 Квт"/>
    <tag k="place" v="village"/>
  </node>
  <node id="523900573" version="3" timestamp="2009-10-07T09:33:41Z" uid="115477" user="wowik" changeset="2769441" lat="56.1240754" lon="37.4438257">
    <tag k="addr:country" v="RU"/>
    <tag k="addr:district" v="Дмитровский район"/>
    <tag k="addr:postcode" v="141870"/>
    <tag k="addr:region" v="Московская область"/>
    <tag k="cladr:code" v="5000500048300"/>
    <tag k="cladr:name" v="Подстанция 750 Квт"/>
    <tag k="cladr:suffix" v="Поселок"/>
    <tag k="name" v="Подстанция 750 Квт"/>
    <tag k="place" v="village"/>
  </node>
  <node id="523900573" version="4" timestamp="2009-10-07T09:36:17Z" uid="115477" user="wowik" changeset="2769441" lat="56.1246495" lon="37.4470873">
    <tag k="addr:country" v="RU"/>
    <tag k="addr:district" v="Дмитровский район"/>
    <tag k="addr:postcode" v="141870"/>
    <tag k="addr:region" v="Московская область"/>
    <tag k="cladr:code" v="5000500048300"/>
    <tag k="cladr:name" v="Подстанция 750 Квт"/>
    <tag k="cladr:suffix" v="Поселок"/>
    <tag k="name" v="Подстанция 750 Квт"/>
    <tag k="place" v="village"/>
  </node>
  <node id="523900573" version="5" timestamp="2009-10-07T09:49:03Z" uid="115477" user="wowik" changeset="2769441" lat="56.1249844" lon="37.4473448">
    <tag k="addr:country" v="RU"/>
    <tag k="addr:district" v="Дмитровский район"/>
    <tag k="addr:postcode" v="141870"/>
    <tag k="addr:region" v="Московская область"/>
    <tag k="cladr:code" v="5000500048300"/>
    <tag k="cladr:name" v="Подстанция 750 Квт"/>
    <tag k="cladr:suffix" v="Поселок"/>
    <tag k="name" v="Подстанция 750 Квт"/>
    <tag k="place" v="village"/>
  </node>
  <node id="523900573" version="6" timestamp="2010-01-29T23:21:05Z" uid="200618" user="gps-Max" changeset="3747495" lat="56.1249844" lon="37.4473448">
    <tag k="addr:country" v="RU"/>
    <tag k="addr:district" v="Дмитровский район"/>
    <tag k="addr:postcode" v="141870"/>
    <tag k="addr:region" v="Московская область"/>
    <tag k="cladr:code" v="5000500048300"/>
    <tag k="cladr:name" v="Подстанция 750 КВт"/>
    <tag k="cladr:suffix" v="Поселок"/>
    <tag k="name" v="Подстанция 750 Квт"/>
    <tag k="place" v="village"/>
  </node>
  <node id="523900573" version="7" timestamp="2010-03-08T18:36:22Z" uid="75360" user="krysha" changeset="4074379" lat="56.1231059" lon="37.4469436">
    <tag k="addr:country" v="RU"/>
    <tag k="addr:district" v="Дмитровский район"/>
    <tag k="addr:postcode" v="141870"/>
    <tag k="addr:region" v="Московская область"/>
    <tag k="cladr:code" v="5000500048300"/>
    <tag k="cladr:name" v="Подстанция 750 кВ"/>
    <tag k="cladr:suffix" v="Поселок"/>
    <tag k="name" v="Подстанция 750 кВ"/>
    <tag k="place" v="village"/>
  </node>
  <node id="523900573" version="8" timestamp="2010-04-04T06:04:36Z" uid="30590" user="KekcuHa" changeset="4319328" lat="56.1231059" lon="37.4469436">
    <tag k="addr:country" v="RU"/>
    <tag k="addr:district" v="Дмитровский район"/>
    <tag k="addr:postcode" v="141870"/>
    <tag k="addr:region" v="Московская область"/>
    <tag k="cladr:code" v="5000500048300"/>
    <tag k="cladr:name" v="Подстанция 750 Квт"/>
    <tag k="cladr:suffix" v="Поселок"/>
    <tag k="name" v="Подстанция 750 кВ"/>
    <tag k="place" v="village"/>
  </node>
  <node id="523900573" version="9" timestamp="2010-12-11T05:05:14Z" uid="133332" user="AMDmi3" changeset="6619256" lat="56.1231059" lon="37.4469436">
    <tag k="addr:country" v="RU"/>
    <tag k="addr:district" v="Дмитровский район"/>
    <tag k="addr:postcode" v="141870"/>
    <tag k="addr:region" v="Московская область"/>
    <tag k="cladr:code" v="5000500048300"/>
    <tag k="cladr:name" v="Подстанция 750 Квт"/>
    <tag k="cladr:suffix" v="Поселок"/>
    <tag k="name" v="Подстанция 750 кВ"/>
    <tag k="place" v="village"/>
  </node>
  <node id="523900582" version="1" timestamp="2009-10-07T09:23:47Z" uid="115477" user="wowik" changeset="2769345" lat="56.1353149" lon="37.4010122"/>
  <node id="523900582" version="2" timestamp="2010-03-02T10:43:57Z" uid="115477" user="wowik" changeset="4015671" lat="56.1352927" lon="37.4003697"/>
  <node id="523900605" version="1" timestamp="2009-10-07T09:23:48Z" uid="115477" user="wowik" changeset="2769345" lat="56.1196989" lon="37.3988683"/>
  <node id="523900607" version="1" timestamp="2009-10-07T09:23:48Z" uid="115477" user="wowik" changeset="2769345" lat="56.1209908" lon="37.3986538"/>
  <node id="523900610" version="1" timestamp="2009-10-07T09:23:48Z" uid="115477" user="wowik" changeset="2769345" lat="56.1211822" lon="37.3967226"/>
  <node id="523900614" version="1" timestamp="2009-10-07T09:23:48Z" uid="115477" user="wowik" changeset="2769345" lat="56.1210865" lon="37.3956926"/>
  <node id="523900617" version="1" timestamp="2009-10-07T09:23:48Z" uid="115477" user="wowik" changeset="2769345" lat="56.1208951" lon="37.3945768"/>
  <node id="523900619" version="1" timestamp="2009-10-07T09:23:48Z" uid="115477" user="wowik" changeset="2769345" lat="56.1202731" lon="37.3947485"/>
  <node id="523900621" version="1" timestamp="2009-10-07T09:23:48Z" uid="115477" user="wowik" changeset="2769345" lat="56.1201774" lon="37.3956926"/>
  <node id="523900629" version="1" timestamp="2009-10-07T09:23:49Z" uid="115477" user="wowik" changeset="2769345" lat="56.1190291" lon="37.3974092"/>
  <node id="523900631" version="1" timestamp="2009-10-07T09:23:49Z" uid="115477" user="wowik" changeset="2769345" lat="56.1188855" lon="37.3978384"/>
  <node id="523900633" version="1" timestamp="2009-10-07T09:23:49Z" uid="115477" user="wowik" changeset="2769345" lat="56.1179764" lon="37.3976667"/>
  <node id="523900635" version="1" timestamp="2009-10-07T09:23:49Z" uid="115477" user="wowik" changeset="2769345" lat="56.1174979" lon="37.3984392"/>
  <node id="523900638" version="1" timestamp="2009-10-07T09:23:49Z" uid="115477" user="wowik" changeset="2769345" lat="56.1174022" lon="37.3992117"/>
  <node id="523900640" version="1" timestamp="2009-10-07T09:23:49Z" uid="115477" user="wowik" changeset="2769345" lat="56.118407" lon="37.3994692"/>
  <node id="523900641" version="1" timestamp="2009-10-07T09:23:49Z" uid="115477" user="wowik" changeset="2769345" lat="56.118742" lon="37.3991258"/>
  <node id="523900642" version="1" timestamp="2009-10-07T09:23:49Z" uid="115477" user="wowik" changeset="2769345" lat="56.1191726" lon="37.39904"/>
  <node id="523900648" version="1" timestamp="2009-10-07T09:23:50Z" uid="115477" user="wowik" changeset="2769345" lat="56.1211104" lon="37.4032028"/>
  <node id="523900654" version="1" timestamp="2009-10-07T09:23:50Z" uid="115477" user="wowik" changeset="2769345" lat="56.1215171" lon="37.4037178"/>
  <node id="523900654" version="2" timestamp="2011-04-05T14:17:51Z" uid="432480" user="DIM568" changeset="7775334" lat="56.1215317" lon="37.4038198"/>
  <node id="523900657" version="1" timestamp="2009-10-07T09:23:50Z" uid="115477" user="wowik" changeset="2769345" lat="56.122785" lon="37.4031599"/>
  <node id="523900657" version="2" timestamp="2011-04-05T14:17:51Z" uid="432480" user="DIM568" changeset="7775334" lat="56.1227972" lon="37.4031809"/>
  <node id="523900660" version="1" timestamp="2009-10-07T09:23:50Z" uid="115477" user="wowik" changeset="2769345" lat="56.1304152" lon="37.4039324"/>
  <node id="523900660" version="2" timestamp="2009-10-07T09:41:48Z" uid="115477" user="wowik" changeset="2769441" lat="56.130677" lon="37.4038286"/>
  <node id="523900660" version="3" timestamp="2010-02-28T15:44:39Z" uid="218619" user="Andrey Korolyov" changeset="3999481" lat="56.130677" lon="37.4038286">
    <tag k="addr:country" v="RU"/>
    <tag k="addr:district" v="Дмитровский район"/>
    <tag k="addr:postcode" v="141870"/>
    <tag k="addr:region" v="Московская область"/>
    <tag k="cladr:code" v="5000500005400"/>
    <tag k="cladr:name" v="Белый Раст"/>
    <tag k="cladr:suffix" v="Село"/>
    <tag k="name" v="Белый Раст"/>
    <tag k="place" v="hamlet"/>
  </node>
  <node id="523900660" version="4" timestamp="2011-04-05T14:17:55Z" uid="432480" user="DIM568" changeset="7775334" lat="56.1308469" lon="37.4036835">
    <tag k="addr:country" v="RU"/>
    <tag k="addr:district" v="Дмитровский район"/>
    <tag k="addr:postcode" v="141870"/>
    <tag k="addr:region" v="Московская область"/>
    <tag k="cladr:code" v="5000500005400"/>
    <tag k="cladr:name" v="Белый Раст"/>
    <tag k="cladr:suffix" v="Село"/>
    <tag k="name" v="Белый Раст"/>
    <tag k="place" v="hamlet"/>
  </node>
  <node id="523900660" version="5" timestamp="2011-04-11T14:53:10Z" uid="432480" user="DIM568" changeset="7833908" lat="56.1308526" lon="37.4036792">
    <tag k="addr:country" v="RU"/>
    <tag k="addr:district" v="Дмитровский район"/>
    <tag k="addr:postcode" v="141870"/>
    <tag k="addr:region" v="Московская область"/>
    <tag k="cladr:code" v="5000500005400"/>
    <tag k="cladr:name" v="Белый Раст"/>
    <tag k="cladr:suffix" v="Село"/>
    <tag k="name" v="Белый Раст"/>
    <tag k="place" v="hamlet"/>
  </node>
</osm>
