<?xml version='1.0' encoding='UTF-8'?>
<osm version="0.6" generator="libosmium/2.20.0">
  <node id="525494585" version="1" timestamp="2009-10-08T11:10:35Z" uid="115477" user="wowik" changeset="2781654" lat="56.1127805" lon="36.9654868">
    <tag k="addr:country" v="RU"/>
    <tag k="addr:district" v="Солнечногорский район"/>
    <tag k="addr:postcode" v="141540"/>
    <tag k="addr:region" v="Московская область"/>
    <tag k="cladr:code" v=" &#x9;5003300024600"/>
    <tag k="cladr:name" v="Малые снопы"/>
    <tag k="cladr:suffix" v="Деревня"/>
    <tag k="name" v="Малые снопы"/>
    <tag k="place" v="hamlet"/>
  </node>
  <node id="525494585" version="2" timestamp="2009-10-08T11:14:48Z" uid="115477" user="wowik" changeset="2781654" lat="56.1128762" lon="36.9660018">
    <tag k="addr:country" v="RU"/>
    <tag k="addr:district" v="Солнечногорский район"/>
    <tag k="addr:postcode" v="141540"/>
    <tag k="addr:region" v="Московская область"/>
    <tag k="cladr:code" v="5003300024600"/>
    <tag k="cladr:name" v="Малые снопы"/>
    <tag k="cladr:suffix" v="Деревня"/>
    <tag k="name" v="Малые снопы"/>
    <tag k="place" v="hamlet"/>
  </node>
  <node id="525494585" version="3" timestamp="2009-10-25T07:13:45Z" uid="30590" user="KekcuHa" changeset="2943353" lat="56.1128762" lon="36.9660018">
    <tag k="addr:country" v="RU"/>
    <tag k="addr:district" v="Солнечногорский район"/>
    <tag k="addr:postcode" v="141554"/>
    <tag k="addr:region" v="Московская область"/>
    <tag k="cladr:code" v="5003300024600"/>
    <tag k="cladr:name" v="Малые снопы"/>
    <tag k="cladr:suffix" v="Деревня"/>
    <tag k="name" v="Малые снопы"/>
    <tag k="place" v="hamlet"/>
  </node>
  <node id="525494585" version="4" timestamp="2010-11-30T16:34:48Z" uid="115477" user="wowik" changeset="6495709" lat="56.1128763" lon="36.9660017">
    <tag k="addr:country" v="RU"/>
    <tag k="addr:district" v="Солнечногорский район"/>
    <tag k="addr:postcode" v="141554"/>
    <tag k="addr:region" v="Московская область"/>
    <tag k="cladr:code" v="5003300024600"/>
    <tag k="cladr:name" v="Малые снопы"/>
    <tag k="cladr:suffix" v="Деревня"/>
    <tag k="name" v="Малые Cнопы"/>
    <tag k="place" v="hamlet"/>
  </node>
  <node id="525494585" version="5" timestamp="2011-01-11T17:40:23Z" uid="115477" user="wowik" changeset="6939258" lat="56.1128764" lon="36.9660016">
    <tag k="addr:country" v="RU"/>
    <tag k="addr:district" v="Солнечногорский район"/>
    <tag k="addr:postcode" v="141554"/>
    <tag k="addr:region" v="Московская область"/>
    <tag k="cladr:code" v="5003300024600"/>
    <tag k="cladr:name" v="Малые снопы"/>
    <tag k="cladr:suffix" v="Деревня"/>
    <tag k="name" v="Малые Снопы"/>
    <tag k="place" v="hamlet"/>
  </node>
  <node id="525494585" version="6" timestamp="2011-08-07T17:15:06Z" uid="297358" user="patashnik" changeset="8949329" lat="56.1128764" lon="36.9660016">
    <tag k="addr:country" v="RU"/>
    <tag k="addr:district" v="Солнечногорский район"/>
    <tag k="addr:region" v="Московская область"/>
    <tag k="cladr:code" v="5003300024600"/>
    <tag k="name" v="Малые Снопы"/>
    <tag k="place" v="hamlet"/>
  </node>
  <node id="525495738" version="1" timestamp="2009-10-08T11:14:50Z" uid="115477" user="wowik" changeset="2781654" lat="56.1126848" lon="36.9472907">
    <tag k="addr:country" v="RU"/>
    <tag k="addr:district" v="Солнечногорский район"/>
    <tag k="addr:postcode" v="141540"/>
    <tag k="addr:region" v="Московская область"/>
    <tag k="cladr:code" v="5003300004700"/>
    <tag k="cladr:name" v="Жуково"/>
    <tag k="cladr:suffix" v="Деревня"/>
    <tag k="name" v="Жуково"/>
    <tag k="place" v="hamlet"/>
  </node>
  <node id="525495738" version="2" timestamp="2009-10-25T07:13:45Z" uid="30590" user="KekcuHa" changeset="2943353" lat="56.1126848" lon="36.9472907">
    <tag k="addr:country" v="RU"/>
    <tag k="addr:district" v="Солнечногорский район"/>
    <tag k="addr:postcode" v="141554"/>
    <tag k="addr:region" v="Московская область"/>
    <tag k="cladr:code" v="5003300004700"/>
    <tag k="cladr:name" v="Жуково"/>
    <tag k="cladr:suffix" v="Поселок"/>
    <tag k="name" v="Жуково"/>
    <tag k="place" v="hamlet"/>
  </node>
  <node id="525495738" version="3" timestamp="2011-05-30T15:18:46Z" uid="115477" user="wowik" changeset="8292512" lat="56.1115513" lon="36.9460877">
    <tag k="addr:country" v="RU"/>
    <tag k="addr:district" v="Солнечногорский район"/>
    <tag k="addr:postcode" v="141554"/>
    <tag k="addr:region" v="Московская область"/>
    <tag k="cladr:code" v="5003300004700"/>
    <tag k="cladr:name" v="Жуково"/>
    <tag k="cladr:suffix" v="Поселок"/>
    <tag k="name" v="Жуково"/>
    <tag k="place" v="hamlet"/>
  </node>
  <node id="525495738" version="4" timestamp="2011-08-07T17:15:06Z" uid="297358" user="patashnik" changeset="8949329" lat="56.1115513" lon="36.9460877">
    <tag k="addr:country" v="RU"/>
    <tag k="addr:district" v="Солнечногорский район"/>
    <tag k="addr:region" v="Московская область"/>
    <tag k="cladr:code" v="5003300004700"/>
    <tag k="name" v="Жуково"/>
    <tag k="place" v="hamlet"/>
  </node>
  <node id="525495746" version="1" timestamp="2009-10-08T11:14:52Z" uid="115477" user="wowik" changeset="2781654" lat="56.1081861" lon="36.9835112"/>
  <node id="525495746" version="2" timestamp="2010-05-13T17:17:22Z" uid="115477" user="wowik" changeset="4687342" lat="56.1084523" lon="36.9821932"/>
  <node id="525495746" version="3" timestamp="2010-08-04T07:08:20Z" uid="241531" user="dik_man" changeset="5396135" lat="56.1084523" lon="36.9821932"/>
  <node id="525495754" version="1" timestamp="2009-10-08T11:14:55Z" uid="115477" user="wowik" changeset="2781654" lat="56.0976013" lon="36.9580083"/>
  <node id="525495754" version="2" timestamp="2010-02-22T23:13:15Z" uid="115477" user="wowik" changeset="3948115" lat="56.0976626" lon="36.9565026"/>
  <node id="525495754" version="3" timestamp="2011-01-28T18:03:34Z" uid="241531" user="dik_man" changeset="7115025" lat="56.0976136" lon="36.9565424"/>
  <node id="525495782" version="1" timestamp="2009-10-08T11:15:05Z" uid="115477" user="wowik" changeset="2781654" lat="56.1059058" lon="36.9937293"/>
  <node id="525495783" version="1" timestamp="2009-10-08T11:15:05Z" uid="115477" user="wowik" changeset="2781654" lat="56.106487" lon="36.992223"/>
  <node id="525495788" version="1" timestamp="2009-10-08T11:15:06Z" uid="115477" user="wowik" changeset="2781654" lat="56.1126848" lon="36.9496939"/>
  <node id="525495788" version="2" timestamp="2009-10-08T12:19:59Z" uid="115477" user="wowik" changeset="2782193" lat="56.111981" lon="36.9497521"/>
  <node id="525495788" version="3" timestamp="2009-10-08T12:20:09Z" uid="115477" user="wowik" changeset="2782193" lat="56.1125553" lon="36.9492371"/>
  <node id="525495788" version="4" timestamp="2010-02-22T23:13:13Z" uid="115477" user="wowik" changeset="3948115" lat="56.1109694" lon="36.9519107"/>
  <node id="525495791" version="1" timestamp="2009-10-08T11:15:07Z" uid="115477" user="wowik" changeset="2781654" lat="56.1104834" lon="36.9529555"/>
  <node id="525495791" version="2" timestamp="2010-02-22T23:13:14Z" uid="115477" user="wowik" changeset="3948115" lat="56.1089833" lon="36.953284"/>
  <node id="525495792" version="1" timestamp="2009-10-08T11:15:07Z" uid="115477" user="wowik" changeset="2781654" lat="56.1083775" lon="36.9538138"/>
  <node id="525495792" version="2" timestamp="2010-02-22T23:13:14Z" uid="115477" user="wowik" changeset="3948115" lat="56.1077628" lon="36.9559018"/>
  <node id="525495795" version="1" timestamp="2009-10-08T11:15:07Z" uid="115477" user="wowik" changeset="2781654" lat="56.1062716" lon="36.9558737"/>
  <node id="525495795" version="2" timestamp="2010-02-22T23:13:14Z" uid="115477" user="wowik" changeset="3948115" lat="56.1062551" lon="36.9551293"/>
  <node id="525495798" version="1" timestamp="2009-10-08T11:15:08Z" uid="115477" user="wowik" changeset="2781654" lat="56.1021551" lon="36.9565604"/>
  <node id="525495798" version="2" timestamp="2010-02-22T23:13:14Z" uid="115477" user="wowik" changeset="3948115" lat="56.1017796" lon="36.9554726"/>
  <node id="525496847" version="1" timestamp="2009-10-08T11:16:51Z" uid="115477" user="wowik" changeset="2781654" lat="56.1175648" lon="36.9288738"/>
  <node id="525496847" version="3" timestamp="2011-05-30T15:18:49Z" uid="115477" user="wowik" changeset="8292512" lat="56.1175648" lon="36.9288738"/>
  <node id="525496938" version="1" timestamp="2009-10-08T11:16:59Z" uid="115477" user="wowik" changeset="2781654" lat="56.1117755" lon="36.9474623"/>
  <node id="525496938" version="2" timestamp="2010-02-22T23:12:56Z" uid="115477" user="wowik" changeset="3948115" lat="56.1111848" lon="36.9487349"/>
  <node id="525496940" version="1" timestamp="2009-10-08T11:17:00Z" uid="115477" user="wowik" changeset="2781654" lat="56.1133069" lon="36.9390509"/>
  <node id="525496940" version="2" timestamp="2010-02-22T23:12:56Z" uid="115477" user="wowik" changeset="3948115" lat="56.1124052" lon="36.9410102"/>
  <node id="525496940" version="3" timestamp="2011-05-30T15:18:45Z" uid="115477" user="wowik" changeset="8292512" lat="56.1125516" lon="36.9405506"/>
  <node id="525497542" version="1" timestamp="2009-10-08T11:20:36Z" uid="115477" user="wowik" changeset="2781654" lat="56.1315354" lon="36.9648001">
    <tag k="addr:country" v="RU"/>
    <tag k="addr:district" v="Солнечногорский район"/>
    <tag k="addr:postcode" v="141504"/>
    <tag k="addr:region" v="Московская область"/>
    <tag k="cladr:code" v="5003300013600"/>
    <tag k="cladr:name" v="Снопово"/>
    <tag k="cladr:suffix" v="Деревня"/>
    <tag k="name" v="Снопово"/>
    <tag k="place" v="hamlet"/>
  </node>
  <node id="525497542" version="2" timestamp="2009-10-08T12:34:26Z" uid="115477" user="wowik" changeset="2782344" lat="56.1315355" lon="36.9647938">
    <tag k="addr:country" v="RU"/>
    <tag k="addr:district" v="Солнечногорский район"/>
    <tag k="addr:postcode" v="141504"/>
    <tag k="addr:region" v="Московская область"/>
    <tag k="alt_name" v="Большое Снопово"/>
    <tag k="cladr:code" v="5003300013600"/>
    <tag k="cladr:name" v="Снопово"/>
    <tag k="cladr:suffix" v="Деревня"/>
    <tag k="name" v="Снопово"/>
    <tag k="place" v="hamlet"/>
  </node>
  <node id="525497542" version="3" timestamp="2010-05-13T16:15:41Z" uid="115477" user="wowik" changeset="4687342" lat="56.131335" lon="36.964276">
    <tag k="addr:country" v="RU"/>
    <tag k="addr:district" v="Солнечногорский район"/>
    <tag k="addr:postcode" v="141504"/>
    <tag k="addr:region" v="Московская область"/>
    <tag k="alt_name" v="Большое Снопово"/>
    <tag k="cladr:code" v="5003300013600"/>
    <tag k="cladr:name" v="Снопово"/>
    <tag k="cladr:suffix" v="Деревня"/>
    <tag k="name" v="Снопово"/>
    <tag k="place" v="hamlet"/>
  </node>
  <node id="525497542" version="4" timestamp="2012-01-26T21:14:02Z" uid="384084" user="Kostik" changeset="10507299" lat="56.131335" lon="36.964276">
    <tag k="addr:country" v="RU"/>
    <tag k="addr:district" v="Солнечногорский район"/>
    <tag k="addr:postcode" v="141504"/>
    <tag k="addr:region" v="Московская область"/>
    <tag k="alt_name" v="Большое Снопово"/>
    <tag k="cladr:code" v="5003300013600"/>
    <tag k="cladr:name" v="Снопово"/>
    <tag k="cladr:suffix" v="Деревня"/>
    <tag k="name" v="Снопово"/>
    <tag k="place" v="hamlet"/>
  </node>
  <node id="525497546" version="1" timestamp="2009-10-08T11:20:38Z" uid="115477" user="wowik" changeset="2781654" lat="56.1380879" lon="36.976044"/>
  <node id="525497546" version="2" timestamp="2010-02-19T12:14:40Z" uid="115477" user="wowik" changeset="3915069" lat="56.1380601" lon="36.9764153"/>
  <node id="525497546" version="3" timestamp="2010-05-17T11:53:20Z" uid="115477" user="wowik" changeset="4727877" lat="56.1380627" lon="36.9762438"/>
  <node id="525497548" version="1" timestamp="2009-10-08T11:20:38Z" uid="115477" user="wowik" changeset="2781654" lat="56.1367966" lon="36.9740698"/>
  <node id="525497548" version="2" timestamp="2010-02-19T12:14:40Z" uid="115477" user="wowik" changeset="3915069" lat="56.1369243" lon="36.972982"/>
  <node id="525497549" version="1" timestamp="2009-10-08T11:20:38Z" uid="115477" user="wowik" changeset="2781654" lat="56.1338313" lon="36.9725249"/>
  <node id="525497549" version="2" timestamp="2010-02-19T12:14:41Z" uid="115477" user="wowik" changeset="3915069" lat="56.1339231" lon="36.971716"/>
  <node id="525497549" version="3" timestamp="2010-05-13T16:21:07Z" uid="115477" user="wowik" changeset="4687342" lat="56.1339179" lon="36.9713356"/>
  <node id="525497550" version="1" timestamp="2009-10-08T11:20:39Z" uid="115477" user="wowik" changeset="2781654" lat="56.1307701" lon="36.9656584"/>
  <node id="525497550" version="2" timestamp="2010-02-19T12:14:41Z" uid="115477" user="wowik" changeset="3915069" lat="56.130826" lon="36.964635"/>
  <node id="525497550" version="3" timestamp="2010-05-13T16:21:10Z" uid="115477" user="wowik" changeset="4687342" lat="56.130826" lon="36.964635"/>
  <node id="525497554" version="1" timestamp="2009-10-08T11:20:39Z" uid="115477" user="wowik" changeset="2781654" lat="56.1308658" lon="36.9618819"/>
  <node id="525497554" version="2" timestamp="2010-02-19T12:14:42Z" uid="115477" user="wowik" changeset="3915069" lat="56.1299889" lon="36.959292"/>
  <node id="525497554" version="3" timestamp="2010-05-13T16:21:08Z" uid="115477" user="wowik" changeset="4687342" lat="56.1300077" lon="36.9592871"/>
  <node id="525497554" version="4" timestamp="2011-05-12T12:02:45Z" uid="115477" user="wowik" changeset="8121503" lat="56.1300077" lon="36.9592871"/>
  <node id="525497555" version="1" timestamp="2009-10-08T11:20:39Z" uid="115477" user="wowik" changeset="2781654" lat="56.1319181" lon="36.9639418"/>
  <node id="525497555" version="2" timestamp="2010-02-19T12:14:42Z" uid="115477" user="wowik" changeset="3915069" lat="56.1318305" lon="36.9620172"/>
  <node id="525497555" version="3" timestamp="2010-05-13T16:21:09Z" uid="115477" user="wowik" changeset="4687342" lat="56.1317476" lon="36.9624199"/>
  <node id="525497555" version="4" timestamp="2011-05-12T12:02:33Z" uid="115477" user="wowik" changeset="8121503" lat="56.1317008" lon="36.962331"/>
  <node id="525497557" version="1" timestamp="2009-10-08T11:20:40Z" uid="115477" user="wowik" changeset="2781654" lat="56.1293351" lon="36.9672034"/>
  <node id="525497557" version="2" timestamp="2010-02-19T12:14:42Z" uid="115477" user="wowik" changeset="3915069" lat="56.1293192" lon="36.9664804"/>
  <node id="525497557" version="3" timestamp="2011-05-12T12:02:30Z" uid="115477" user="wowik" changeset="8121503" lat="56.1296417" lon="36.965962"/>
  <node id="525497558" version="1" timestamp="2009-10-08T11:20:40Z" uid="115477" user="wowik" changeset="2781654" lat="56.1280913" lon="36.9672034"/>
  <node id="525497558" version="2" timestamp="2010-02-19T12:14:42Z" uid="115477" user="wowik" changeset="3915069" lat="56.1271187" lon="36.9675747"/>
  <node id="525497558" version="3" timestamp="2010-05-13T16:21:03Z" uid="115477" user="wowik" changeset="4687342" lat="56.1271187" lon="36.9675747"/>
  <node id="525499020" version="1" timestamp="2009-10-08T11:22:00Z" uid="115477" user="wowik" changeset="2781654" lat="56.121872" lon="36.9376776">
    <tag k="addr:country" v="RU"/>
    <tag k="addr:district" v="Солнечногорский район"/>
    <tag k="addr:postcode" v="141554"/>
    <tag k="addr:region" v="Московская область"/>
    <tag k="cladr:code" v="5003300009400"/>
    <tag k="cladr:name" v="Новинки"/>
    <tag k="cladr:suffix" v="Деревня"/>
    <tag k="name" v="Новинки"/>
    <tag k="place" v="hamlet"/>
  </node>
  <node id="525499020" version="2" timestamp="2010-04-17T10:33:18Z" uid="115477" user="wowik" changeset="4446260" lat="56.1214454" lon="36.9367434">
    <tag k="addr:country" v="RU"/>
    <tag k="addr:district" v="Солнечногорский район"/>
    <tag k="addr:postcode" v="141554"/>
    <tag k="addr:region" v="Московская область"/>
    <tag k="cladr:code" v="5003300009400"/>
    <tag k="cladr:name" v="Новинки"/>
    <tag k="cladr:suffix" v="Деревня"/>
    <tag k="name" v="Новинки"/>
    <tag k="place" v="hamlet"/>
  </node>
  <node id="525499020" version="3" timestamp="2010-04-17T10:38:15Z" uid="115477" user="wowik" changeset="4446260" lat="56.1207397" lon="36.9377519">
    <tag k="addr:country" v="RU"/>
    <tag k="addr:district" v="Солнечногорский район"/>
    <tag k="addr:postcode" v="141554"/>
    <tag k="addr:region" v="Московская область"/>
    <tag k="cladr:code" v="5003300009400"/>
    <tag k="cladr:name" v="Новинки"/>
    <tag k="cladr:suffix" v="Деревня"/>
    <tag k="name" v="Новинки"/>
    <tag k="place" v="hamlet"/>
  </node>
  <node id="525499020" version="4" timestamp="2012-01-26T21:12:58Z" uid="384084" user="Kostik" changeset="10507299" lat="56.1207397" lon="36.9377519">
    <tag k="addr:country" v="RU"/>
    <tag k="addr:district" v="Солнечногорский район"/>
    <tag k="addr:postcode" v="141554"/>
    <tag k="addr:region" v="Московская область"/>
    <tag k="cladr:code" v="5003300009400"/>
    <tag k="cladr:name" v="Новинки"/>
    <tag k="cladr:suffix" v="Деревня"/>
    <tag k="name" v="Новинки"/>
    <tag k="place" v="hamlet"/>
  </node>
</osm>
