<?xml version='1.0' encoding='UTF-8'?>
<osm version="0.6" generator="libosmium/2.20.0">
  <node id="525772711" version="1" timestamp="2009-10-08T14:45:37Z" uid="115477" user="wowik" changeset="2783644" lat="55.8592949" lon="37.1890035"/>
  <node id="525772711" version="2" timestamp="2010-05-16T10:24:18Z" uid="30590" user="KekcuHa" changeset="4715261" lat="55.8611018" lon="37.1861864"/>
  <node id="525772727" version="1" timestamp="2009-10-08T14:45:38Z" uid="115477" user="wowik" changeset="2783644" lat="55.8666161" lon="37.1869436"/>
  <node id="525772727" version="2" timestamp="2010-05-16T10:24:22Z" uid="30590" user="KekcuHa" changeset="4715261" lat="55.8676162" lon="37.1839348"/>
  <node id="525772736" version="1" timestamp="2009-10-08T14:45:38Z" uid="115477" user="wowik" changeset="2783644" lat="55.8720099" lon="37.1864286"/>
  <node id="525772736" version="2" timestamp="2010-05-16T10:24:29Z" uid="30590" user="KekcuHa" changeset="4715261" lat="55.8699347" lon="37.1844547"/>
  <node id="525772747" version="1" timestamp="2009-10-08T14:45:38Z" uid="115477" user="wowik" changeset="2783644" lat="55.8847206" lon="37.1898619"/>
  <node id="525772747" version="2" timestamp="2010-05-16T10:24:23Z" uid="30590" user="KekcuHa" changeset="4715261" lat="55.8861716" lon="37.1874281"/>
  <node id="525772752" version="1" timestamp="2009-10-08T14:45:39Z" uid="115477" user="wowik" changeset="2783644" lat="55.8927109" lon="37.1816221"/>
  <node id="525772752" version="2" timestamp="2009-10-08T15:48:50Z" uid="115477" user="wowik" changeset="2784378" lat="55.8928378" lon="37.1814611"/>
  <node id="525772752" version="3" timestamp="2009-11-07T23:33:29Z" uid="128299" user="MAXimall" changeset="3060020" lat="55.8925326" lon="37.1812066"/>
  <node id="525772752" version="4" timestamp="2010-05-16T10:24:19Z" uid="30590" user="KekcuHa" changeset="4715261" lat="55.8924831" lon="37.1811379"/>
  <node id="525772760" version="1" timestamp="2009-10-08T14:45:39Z" uid="115477" user="wowik" changeset="2783644" lat="55.8917483" lon="37.1696058"/>
  <node id="525772760" version="2" timestamp="2009-11-07T23:33:29Z" uid="128299" user="MAXimall" changeset="3060020" lat="55.891995" lon="37.1696904"/>
  <node id="525772760" version="3" timestamp="2010-05-16T10:24:20Z" uid="30590" user="KekcuHa" changeset="4715261" lat="55.8919015" lon="37.1696708"/>
  <node id="525772779" version="1" timestamp="2009-10-08T14:45:39Z" uid="115477" user="wowik" changeset="2783644" lat="55.8917483" lon="37.1651426"/>
  <node id="525772779" version="2" timestamp="2009-11-07T23:33:29Z" uid="128299" user="MAXimall" changeset="3060020" lat="55.8920615" lon="37.1651088"/>
  <node id="525772779" version="3" timestamp="2010-05-16T10:24:27Z" uid="30590" user="KekcuHa" changeset="4715261" lat="55.891915" lon="37.1652133"/>
  <node id="525772787" version="1" timestamp="2009-10-08T14:45:40Z" uid="115477" user="wowik" changeset="2783644" lat="55.8945397" lon="37.1541563"/>
  <node id="525772787" version="2" timestamp="2009-11-07T23:33:29Z" uid="128299" user="MAXimall" changeset="3060020" lat="55.8945278" lon="37.1544102"/>
  <node id="525772787" version="3" timestamp="2010-05-19T10:36:46Z" uid="115477" user="wowik" changeset="4746829" lat="55.894442" lon="37.1546843"/>
  <node id="525772793" version="1" timestamp="2009-10-08T14:45:40Z" uid="115477" user="wowik" changeset="2783644" lat="55.894636" lon="37.1483198"/>
  <node id="525772793" version="2" timestamp="2010-05-19T10:36:47Z" uid="115477" user="wowik" changeset="4746829" lat="55.894636" lon="37.1483198"/>
  <node id="525772801" version="1" timestamp="2009-10-08T14:45:41Z" uid="115477" user="wowik" changeset="2783644" lat="55.8958873" lon="37.1429983"/>
  <node id="525772801" version="2" timestamp="2009-10-08T14:46:48Z" uid="115477" user="wowik" changeset="2783644" lat="55.8958873" lon="37.1429983"/>
  <node id="525774350" version="1" timestamp="2009-10-08T14:46:47Z" uid="115477" user="wowik" changeset="2783644" lat="55.8946275" lon="37.1488343"/>
  <node id="525774350" version="2" timestamp="2010-05-19T10:36:46Z" uid="115477" user="wowik" changeset="4746829" lat="55.8946225" lon="37.1530965"/>
  <node id="525777069" version="1" timestamp="2009-10-08T14:48:25Z" uid="115477" user="wowik" changeset="2783772" lat="55.9167363" lon="37.1176889">
    <tag k="addr:country" v="RU"/>
    <tag k="addr:district" v="Истринский район"/>
    <tag k="addr:postcode" v="143590"/>
    <tag k="addr:region" v="Московская область"/>
    <tag k="cladr:code" v="5000901600000"/>
    <tag k="cladr:name" v="Турово"/>
    <tag k="cladr:suffix" v="Деревня"/>
    <tag k="name" v="Турово"/>
    <tag k="place" v="hamlet"/>
  </node>
  <node id="525777069" version="2" timestamp="2009-10-08T14:51:37Z" uid="115477" user="wowik" changeset="2783772" lat="55.9167363" lon="37.1176889">
    <tag k="addr:country" v="RU"/>
    <tag k="addr:district" v="Истринский район"/>
    <tag k="addr:postcode" v="143532"/>
    <tag k="addr:region" v="Московская область"/>
    <tag k="cladr:code" v="5000900021951"/>
    <tag k="cladr:name" v="Турово"/>
    <tag k="cladr:suffix" v="Деревня"/>
    <tag k="name" v="Турово"/>
    <tag k="place" v="hamlet"/>
  </node>
  <node id="525777069" version="3" timestamp="2009-10-08T15:05:13Z" uid="115477" user="wowik" changeset="2783772" lat="55.9028813" lon="37.1128824">
    <tag k="addr:country" v="RU"/>
    <tag k="addr:district" v="Истринский район"/>
    <tag k="addr:postcode" v="143532"/>
    <tag k="addr:region" v="Московская область"/>
    <tag k="cladr:code" v="5000900021951"/>
    <tag k="cladr:name" v="Турово"/>
    <tag k="cladr:suffix" v="Деревня"/>
    <tag k="name" v="Турово"/>
    <tag k="place" v="hamlet"/>
  </node>
  <node id="525777069" version="4" timestamp="2009-10-25T07:15:13Z" uid="30590" user="KekcuHa" changeset="2943353" lat="55.9028813" lon="37.1128824">
    <tag k="addr:city" v="Снегири дачный поселок"/>
    <tag k="addr:country" v="RU"/>
    <tag k="addr:district" v="Истринский район"/>
    <tag k="addr:postcode" v="143532"/>
    <tag k="addr:region" v="Московская область"/>
    <tag k="cladr:code" v="5000901600700"/>
    <tag k="cladr:name" v="Турово"/>
    <tag k="cladr:suffix" v="Деревня"/>
    <tag k="name" v="Турово"/>
    <tag k="place" v="hamlet"/>
  </node>
  <node id="525777069" version="5" timestamp="2010-01-23T13:22:00Z" uid="60561" user="VIPstars" changeset="3691547" lat="55.9028813" lon="37.1128823">
    <tag k="addr:country" v="RU"/>
    <tag k="addr:district" v="Истринский район"/>
    <tag k="addr:postcode" v="143532"/>
    <tag k="addr:region" v="Московская область"/>
    <tag k="cladr:code" v="5000901600700"/>
    <tag k="cladr:name" v="Турово"/>
    <tag k="cladr:suffix" v="Деревня"/>
    <tag k="name" v="Турово"/>
    <tag k="place" v="hamlet"/>
  </node>
  <node id="525777069" version="6" timestamp="2010-01-29T05:06:12Z" uid="30590" user="KekcuHa" changeset="3740799" lat="55.9028813" lon="37.1128823">
    <tag k="addr:city" v="Снегири дачный поселок"/>
    <tag k="addr:country" v="RU"/>
    <tag k="addr:district" v="Истринский район"/>
    <tag k="addr:postcode" v="143532"/>
    <tag k="addr:region" v="Московская область"/>
    <tag k="cladr:code" v="5000901600700"/>
    <tag k="cladr:name" v="Турово"/>
    <tag k="cladr:suffix" v="Деревня"/>
    <tag k="name" v="Турово"/>
    <tag k="place" v="hamlet"/>
  </node>
  <node id="525777069" version="7" timestamp="2011-08-07T17:15:11Z" uid="297358" user="patashnik" changeset="8949329" lat="55.9028813" lon="37.1128823">
    <tag k="addr:city" v="Снегири дачный поселок"/>
    <tag k="addr:country" v="RU"/>
    <tag k="addr:district" v="Истринский район"/>
    <tag k="addr:region" v="Московская область"/>
    <tag k="cladr:code" v="5000901600700"/>
    <tag k="name" v="Турово"/>
    <tag k="place" v="hamlet"/>
  </node>
</osm>
