<?xml version='1.0' encoding='UTF-8'?>
<osm version="0.6" generator="libosmium/2.20.0">
  <node id="529750188" version="1" timestamp="2009-10-12T23:48:10Z" uid="68769" user="david lynch" changeset="2831775" lat="30.1956833" lon="-97.8861456">
    <tag k="barrier" v="gate"/>
  </node>
  <node id="529750190" version="1" timestamp="2009-10-12T23:48:11Z" uid="68769" user="david lynch" changeset="2831775" lat="30.1957602" lon="-97.8863385">
    <tag k="barrier" v="gate"/>
  </node>
  <node id="529750191" version="1" timestamp="2009-10-12T23:48:11Z" uid="68769" user="david lynch" changeset="2831775" lat="30.1954359" lon="-97.8904004"/>
  <node id="529750193" version="1" timestamp="2009-10-12T23:48:12Z" uid="68769" user="david lynch" changeset="2831775" lat="30.1954862" lon="-97.8902174">
    <tag k="barrier" v="gate"/>
  </node>
  <node id="529750198" version="1" timestamp="2009-10-12T23:48:17Z" uid="68769" user="david lynch" changeset="2831775" lat="30.1904215" lon="-97.8846647">
    <tag k="highway" v="turning_circle"/>
  </node>
  <node id="529750207" version="1" timestamp="2009-10-12T23:48:25Z" uid="68769" user="david lynch" changeset="2831775" lat="30.1837221" lon="-97.89487">
    <tag k="highway" v="turning_circle"/>
  </node>
  <node id="529750228" version="1" timestamp="2009-10-12T23:48:47Z" uid="68769" user="david lynch" changeset="2831775" lat="30.190607" lon="-97.8919518">
    <tag k="highway" v="turning_circle"/>
  </node>
  <node id="529753832" version="3" timestamp="2010-04-11T04:52:04Z" uid="20587" user="balrog-kun" changeset="4389130" lat="49.8574622" lon="20.251789">
    <tag k="name" v="Lubomierz"/>
    <tag k="place" v="village"/>
    <tag k="source" v="http://ump.waw.pl/ retrieved 01:24:13 09/02/09 (UMP-Krakow/src/cities-Krakow.pnt-converted.txt)"/>
  </node>
  <node id="529753832" version="4" timestamp="2010-04-11T13:15:52Z" uid="20587" user="balrog-kun" changeset="4392352" lat="49.8570945" lon="20.2502886">
    <tag k="name" v="Lubomierz"/>
    <tag k="place" v="village"/>
    <tag k="source" v="http://ump.waw.pl/ retrieved 01:24:13 09/02/09 (UMP-Krakow/src/cities-Krakow.pnt-converted.txt)"/>
  </node>
  <node id="529753904" version="3" timestamp="2010-04-11T04:52:04Z" uid="20587" user="balrog-kun" changeset="4389130" lat="49.8752325" lon="20.2347509">
    <tag k="name" v="Zagórzany"/>
    <tag k="place" v="village"/>
    <tag k="source" v="http://ump.waw.pl/ retrieved 01:24:13 09/02/09 (UMP-Krakow/src/cities-Krakow.pnt-converted.txt)"/>
  </node>
  <node id="529753904" version="4" timestamp="2010-04-11T13:15:52Z" uid="20587" user="balrog-kun" changeset="4392352" lat="49.8744622" lon="20.2330841">
    <tag k="name" v="Zagórzany"/>
    <tag k="place" v="village"/>
    <tag k="source" v="http://ump.waw.pl/ retrieved 01:24:13 09/02/09 (UMP-Krakow/src/cities-Krakow.pnt-converted.txt)"/>
  </node>
  <node id="529754828" version="3" timestamp="2010-04-11T04:52:04Z" uid="20587" user="balrog-kun" changeset="4389130" lat="49.896062" lon="20.2426836">
    <tag k="name" v="Wola Zręczycka"/>
    <tag k="place" v="village"/>
    <tag k="source" v="http://ump.waw.pl/ retrieved 01:24:13 09/02/09 (UMP-Krakow/src/cities-Krakow.pnt-converted.txt)"/>
  </node>
  <node id="529754828" version="4" timestamp="2010-04-11T13:15:52Z" uid="20587" user="balrog-kun" changeset="4392352" lat="49.8968429" lon="20.2416566">
    <tag k="name" v="Wola Zręczycka"/>
    <tag k="place" v="village"/>
    <tag k="source" v="http://ump.waw.pl/ retrieved 01:24:13 09/02/09 (UMP-Krakow/src/cities-Krakow.pnt-converted.txt)"/>
  </node>
  <node id="529754844" version="3" timestamp="2010-04-11T04:52:05Z" uid="20587" user="balrog-kun" changeset="4389130" lat="49.8957202" lon="20.2352158">
    <tag k="name" v="Podolany"/>
    <tag k="place" v="village"/>
    <tag k="source" v="http://ump.waw.pl/ retrieved 01:24:13 09/02/09 (UMP-Krakow/src/cities-Krakow.pnt-converted.txt)"/>
  </node>
  <node id="529754844" version="4" timestamp="2010-04-11T13:15:52Z" uid="20587" user="balrog-kun" changeset="4392352" lat="49.8953731" lon="20.234374">
    <tag k="name" v="Podolany"/>
    <tag k="place" v="village"/>
    <tag k="source" v="http://ump.waw.pl/ retrieved 01:24:13 09/02/09 (UMP-Krakow/src/cities-Krakow.pnt-converted.txt)"/>
  </node>
  <node id="529755711" version="3" timestamp="2010-04-11T04:52:05Z" uid="20587" user="balrog-kun" changeset="4389130" lat="49.9146487" lon="20.2358714">
    <tag k="name" v="Marszowice"/>
    <tag k="place" v="village"/>
    <tag k="source" v="http://ump.waw.pl/ retrieved 01:24:13 09/02/09 (UMP-Krakow/src/cities-Krakow.pnt-converted.txt)"/>
  </node>
  <node id="529755711" version="4" timestamp="2010-04-11T13:15:53Z" uid="20587" user="balrog-kun" changeset="4392352" lat="49.9126295" lon="20.2339563">
    <tag k="name" v="Marszowice"/>
    <tag k="place" v="village"/>
    <tag k="source" v="http://ump.waw.pl/ retrieved 01:24:13 09/02/09 (UMP-Krakow/src/cities-Krakow.pnt-converted.txt)"/>
  </node>
  <node id="529755902" version="3" timestamp="2010-04-11T04:52:05Z" uid="20587" user="balrog-kun" changeset="4389130" lat="49.8775971" lon="20.2833749">
    <tag k="name" v="Kobylec"/>
    <tag k="place" v="village"/>
    <tag k="source" v="http://ump.waw.pl/ retrieved 01:24:13 09/02/09 (UMP-Krakow/src/cities-Krakow.pnt-converted.txt)"/>
  </node>
  <node id="529755902" version="4" timestamp="2010-04-11T13:15:53Z" uid="20587" user="balrog-kun" changeset="4392352" lat="49.8757744" lon="20.284907">
    <tag k="name" v="Kobylec"/>
    <tag k="place" v="village"/>
    <tag k="source" v="http://ump.waw.pl/ retrieved 01:24:13 09/02/09 (UMP-Krakow/src/cities-Krakow.pnt-converted.txt)"/>
  </node>
  <node id="529756037" version="3" timestamp="2010-04-11T04:52:05Z" uid="20587" user="balrog-kun" changeset="4389130" lat="49.8957386" lon="20.2575387">
    <tag k="name" v="Klęczana"/>
    <tag k="place" v="village"/>
    <tag k="source" v="http://ump.waw.pl/ retrieved 01:24:13 09/02/09 (UMP-Krakow/src/cities-Krakow.pnt-converted.txt)"/>
  </node>
  <node id="529756037" version="4" timestamp="2010-04-11T13:15:53Z" uid="20587" user="balrog-kun" changeset="4392352" lat="49.8960423" lon="20.2556867">
    <tag k="name" v="Klęczana"/>
    <tag k="place" v="village"/>
    <tag k="source" v="http://ump.waw.pl/ retrieved 01:24:13 09/02/09 (UMP-Krakow/src/cities-Krakow.pnt-converted.txt)"/>
  </node>
  <node id="529756037" version="5" timestamp="2010-04-27T04:20:00Z" uid="30632" user="antblant" changeset="4537912" lat="49.8960423" lon="20.2556867">
    <tag k="name" v="Klęczana"/>
    <tag k="place" v="village"/>
    <tag k="source" v="http://ump.waw.pl/ retrieved 01:24:13 09/02/09 (UMP-Krakow/src/cities-Krakow.pnt-converted.txt)"/>
    <tag k="teryt:simc" v="0318080"/>
  </node>
  <node id="529756613" version="3" timestamp="2010-04-11T04:52:05Z" uid="20587" user="balrog-kun" changeset="4389130" lat="49.9021882" lon="20.2755098">
    <tag k="name" v="Jaroszówka"/>
    <tag k="place" v="village"/>
    <tag k="source" v="http://ump.waw.pl/ retrieved 01:24:13 09/02/09 (UMP-Krakow/src/cities-Krakow.pnt-converted.txt)"/>
  </node>
  <node id="529756613" version="4" timestamp="2010-04-11T13:15:53Z" uid="20587" user="balrog-kun" changeset="4392352" lat="49.9029846" lon="20.2764568">
    <tag k="name" v="Jaroszówka"/>
    <tag k="place" v="village"/>
    <tag k="source" v="http://ump.waw.pl/ retrieved 01:24:13 09/02/09 (UMP-Krakow/src/cities-Krakow.pnt-converted.txt)"/>
  </node>
  <node id="529757257" version="2" timestamp="2010-04-11T04:52:05Z" uid="20587" user="balrog-kun" changeset="4389130" lat="49.91247" lon="20.29237">
    <tag k="name" v="Wieniec"/>
    <tag k="place" v="village"/>
    <tag k="source" v="http://ump.waw.pl/ retrieved 01:24:13 09/02/09 (UMP-Krakow/src/cities-Krakow.pnt-converted.txt)"/>
  </node>
  <node id="529757257" version="3" timestamp="2010-04-11T13:15:53Z" uid="20587" user="balrog-kun" changeset="4392352" lat="49.91247" lon="20.29237">
    <tag k="name" v="Wieniec"/>
    <tag k="place" v="village"/>
    <tag k="source" v="http://ump.waw.pl/ retrieved 01:24:13 09/02/09 (UMP-Krakow/src/cities-Krakow.pnt-converted.txt)"/>
  </node>
  <node id="529757546" version="2" timestamp="2010-04-11T04:52:05Z" uid="20587" user="balrog-kun" changeset="4389130" lat="49.8695725" lon="20.3217979">
    <tag k="name" v="Wieruszyce"/>
    <tag k="place" v="village"/>
    <tag k="source" v="http://ump.waw.pl/ retrieved 01:24:13 09/02/09 (UMP-Krakow/src/cities-Krakow.pnt-converted.txt)"/>
  </node>
  <node id="529757546" version="3" timestamp="2010-04-11T13:15:53Z" uid="20587" user="balrog-kun" changeset="4392352" lat="49.8679493" lon="20.3231642">
    <tag k="name" v="Wieruszyce"/>
    <tag k="place" v="village"/>
    <tag k="source" v="http://ump.waw.pl/ retrieved 01:24:13 09/02/09 (UMP-Krakow/src/cities-Krakow.pnt-converted.txt)"/>
  </node>
  <node id="529757546" version="4" timestamp="2010-04-27T04:18:42Z" uid="30632" user="antblant" changeset="4537909" lat="49.8679493" lon="20.3231642">
    <tag k="name" v="Wieruszyce"/>
    <tag k="place" v="village"/>
    <tag k="source" v="http://ump.waw.pl/ retrieved 01:24:13 09/02/09 (UMP-Krakow/src/cities-Krakow.pnt-converted.txt)"/>
    <tag k="teryt:simc" v="0823807"/>
  </node>
  <node id="529757794" version="3" timestamp="2010-04-11T04:52:05Z" uid="20587" user="balrog-kun" changeset="4389130" lat="49.8739299" lon="20.3509219">
    <tag k="name" v="Cichawka"/>
    <tag k="place" v="village"/>
    <tag k="source" v="http://ump.waw.pl/ retrieved 01:24:13 09/02/09 (UMP-Krakow/src/cities-Krakow.pnt-converted.txt)"/>
  </node>
  <node id="529757794" version="4" timestamp="2010-04-11T13:15:53Z" uid="20587" user="balrog-kun" changeset="4392352" lat="49.8749499" lon="20.3539356">
    <tag k="name" v="Cichawka"/>
    <tag k="place" v="village"/>
    <tag k="source" v="http://ump.waw.pl/ retrieved 01:24:13 09/02/09 (UMP-Krakow/src/cities-Krakow.pnt-converted.txt)"/>
  </node>
  <node id="529757794" version="5" timestamp="2010-04-27T04:03:01Z" uid="30632" user="antblant" changeset="4537862" lat="49.8749499" lon="20.3539356">
    <tag k="name" v="Cichawka"/>
    <tag k="place" v="village"/>
    <tag k="source" v="http://ump.waw.pl/ retrieved 01:24:13 09/02/09 (UMP-Krakow/src/cities-Krakow.pnt-converted.txt)"/>
    <tag k="teryt:simc" v="0823055"/>
  </node>
  <node id="529759270" version="3" timestamp="2010-04-11T04:52:05Z" uid="20587" user="balrog-kun" changeset="4389130" lat="49.9076613" lon="20.3122615">
    <tag k="name" v="Chrostowa"/>
    <tag k="place" v="village"/>
    <tag k="source" v="http://ump.waw.pl/ retrieved 01:24:13 09/02/09 (UMP-Krakow/src/cities-Krakow.pnt-converted.txt)"/>
  </node>
  <node id="529759270" version="4" timestamp="2010-04-11T13:15:54Z" uid="20587" user="balrog-kun" changeset="4392352" lat="49.907889" lon="20.3117564">
    <tag k="name" v="Chrostowa"/>
    <tag k="place" v="village"/>
    <tag k="source" v="http://ump.waw.pl/ retrieved 01:24:13 09/02/09 (UMP-Krakow/src/cities-Krakow.pnt-converted.txt)"/>
  </node>
  <node id="529759403" version="3" timestamp="2010-04-11T04:52:05Z" uid="20587" user="balrog-kun" changeset="4389130" lat="49.927619" lon="20.3453166">
    <tag k="name" v="Dąbrowica"/>
    <tag k="place" v="village"/>
    <tag k="source" v="http://ump.waw.pl/ retrieved 01:24:13 09/02/09 (UMP-Krakow/src/cities-Krakow.pnt-converted.txt)"/>
  </node>
  <node id="529759403" version="4" timestamp="2010-04-11T13:15:54Z" uid="20587" user="balrog-kun" changeset="4392352" lat="49.9336314" lon="20.3625737">
    <tag k="name" v="Dąbrowica"/>
    <tag k="place" v="village"/>
    <tag k="source" v="http://ump.waw.pl/ retrieved 01:24:13 09/02/09 (UMP-Krakow/src/cities-Krakow.pnt-converted.txt)"/>
  </node>
  <node id="529759817" version="2" timestamp="2010-04-11T04:52:05Z" uid="20587" user="balrog-kun" changeset="4389130" lat="49.90838" lon="20.33889">
    <tag k="name" v="Sobolów"/>
    <tag k="place" v="village"/>
    <tag k="source" v="http://ump.waw.pl/ retrieved 01:24:13 09/02/09 (UMP-Krakow/src/cities-Krakow.pnt-converted.txt)"/>
  </node>
  <node id="529759817" version="3" timestamp="2010-04-11T13:15:54Z" uid="20587" user="balrog-kun" changeset="4392352" lat="49.90838" lon="20.33889">
    <tag k="name" v="Sobolów"/>
    <tag k="place" v="village"/>
    <tag k="source" v="http://ump.waw.pl/ retrieved 01:24:13 09/02/09 (UMP-Krakow/src/cities-Krakow.pnt-converted.txt)"/>
  </node>
  <node id="529759817" version="4" timestamp="2010-04-27T04:17:13Z" uid="30632" user="antblant" changeset="4537905" lat="49.90838" lon="20.33889">
    <tag k="name" v="Sobolów"/>
    <tag k="place" v="village"/>
    <tag k="source" v="http://ump.waw.pl/ retrieved 01:24:13 09/02/09 (UMP-Krakow/src/cities-Krakow.pnt-converted.txt)"/>
    <tag k="teryt:simc" v="0823492"/>
  </node>
</osm>
