<?xml version='1.0' encoding='UTF-8'?>
<osm version="0.6" generator="libosmium/2.20.0">
  <node id="530990690" version="2" timestamp="2010-02-28T01:27:22Z" uid="7617" user="Franc" changeset="3994205" lat="-34.4286537" lon="150.4787393">
    <tag k="railway" v="level_crossing"/>
  </node>
  <node id="530992249" version="2" timestamp="2010-04-11T04:52:13Z" uid="20587" user="balrog-kun" changeset="4389130" lat="49.9056025" lon="20.0794518">
    <tag k="name" v="Sieraków"/>
    <tag k="place" v="village"/>
    <tag k="source" v="http://ump.waw.pl/ retrieved 01:24:13 09/02/09 (UMP-Krakow/src/cities-Krakow.pnt-converted.txt)"/>
  </node>
  <node id="530992249" version="3" timestamp="2010-04-11T13:16:06Z" uid="20587" user="balrog-kun" changeset="4392352" lat="49.9055821" lon="20.0779912">
    <tag k="name" v="Sieraków"/>
    <tag k="place" v="village"/>
    <tag k="source" v="http://ump.waw.pl/ retrieved 01:24:13 09/02/09 (UMP-Krakow/src/cities-Krakow.pnt-converted.txt)"/>
  </node>
  <node id="530992920" version="2" timestamp="2010-04-11T04:52:13Z" uid="20587" user="balrog-kun" changeset="4389130" lat="49.9127091" lon="20.101476">
    <tag k="name" v="Rudnik"/>
    <tag k="place" v="village"/>
    <tag k="source" v="http://ump.waw.pl/ retrieved 01:24:13 09/02/09 (UMP-Krakow/src/cities-Krakow.pnt-converted.txt)"/>
  </node>
  <node id="530992920" version="3" timestamp="2010-04-11T13:16:06Z" uid="20587" user="balrog-kun" changeset="4392352" lat="49.9114401" lon="20.1051428">
    <tag k="name" v="Rudnik"/>
    <tag k="place" v="village"/>
    <tag k="source" v="http://ump.waw.pl/ retrieved 01:24:13 09/02/09 (UMP-Krakow/src/cities-Krakow.pnt-converted.txt)"/>
  </node>
  <node id="530994107" version="2" timestamp="2010-04-11T04:52:13Z" uid="20587" user="balrog-kun" changeset="4389130" lat="49.90563" lon="20.17169">
    <tag k="name" v="Fałkowice"/>
    <tag k="place" v="village"/>
    <tag k="source" v="http://ump.waw.pl/ retrieved 01:24:13 09/02/09 (UMP-Krakow/src/cities-Krakow.pnt-converted.txt)"/>
  </node>
  <node id="530994107" version="3" timestamp="2010-04-11T13:16:06Z" uid="20587" user="balrog-kun" changeset="4392352" lat="49.90563" lon="20.17169">
    <tag k="name" v="Fałkowice"/>
    <tag k="place" v="village"/>
    <tag k="source" v="http://ump.waw.pl/ retrieved 01:24:13 09/02/09 (UMP-Krakow/src/cities-Krakow.pnt-converted.txt)"/>
  </node>
  <node id="530997207" version="2" timestamp="2010-04-11T04:52:13Z" uid="20587" user="balrog-kun" changeset="4389130" lat="49.9432261" lon="20.1133436">
    <tag k="name" v="Dobranowice"/>
    <tag k="place" v="village"/>
    <tag k="source" v="http://ump.waw.pl/ retrieved 01:24:13 09/02/09 (UMP-Krakow/src/cities-Krakow.pnt-converted.txt)"/>
  </node>
  <node id="530997207" version="3" timestamp="2010-04-11T13:16:06Z" uid="20587" user="balrog-kun" changeset="4392352" lat="49.9433658" lon="20.1124751">
    <tag k="name" v="Dobranowice"/>
    <tag k="place" v="village"/>
    <tag k="source" v="http://ump.waw.pl/ retrieved 01:24:13 09/02/09 (UMP-Krakow/src/cities-Krakow.pnt-converted.txt)"/>
  </node>
  <node id="530999126" version="2" timestamp="2010-04-11T04:52:13Z" uid="20587" user="balrog-kun" changeset="4389130" lat="49.9300373" lon="20.1804529">
    <tag k="name" v="Bilczyce"/>
    <tag k="place" v="village"/>
    <tag k="source" v="http://ump.waw.pl/ retrieved 01:24:13 09/02/09 (UMP-Krakow/src/cities-Krakow.pnt-converted.txt)"/>
  </node>
  <node id="530999126" version="3" timestamp="2010-04-11T13:16:06Z" uid="20587" user="balrog-kun" changeset="4392352" lat="49.9301176" lon="20.1795798">
    <tag k="name" v="Bilczyce"/>
    <tag k="place" v="village"/>
    <tag k="source" v="http://ump.waw.pl/ retrieved 01:24:13 09/02/09 (UMP-Krakow/src/cities-Krakow.pnt-converted.txt)"/>
  </node>
  <node id="530999126" version="4" timestamp="2010-04-27T04:18:21Z" uid="30632" user="antblant" changeset="4537909" lat="49.9301176" lon="20.1795798">
    <tag k="name" v="Bilczyce"/>
    <tag k="place" v="village"/>
    <tag k="source" v="http://ump.waw.pl/ retrieved 01:24:13 09/02/09 (UMP-Krakow/src/cities-Krakow.pnt-converted.txt)"/>
    <tag k="teryt:simc" v="0317702"/>
  </node>
  <node id="530999212" version="2" timestamp="2010-03-15T17:01:16Z" uid="30632" user="antblant" changeset="4136151" lat="49.94027" lon="20.17216"/>
  <node id="530999507" version="3" timestamp="2010-04-11T04:52:13Z" uid="20587" user="balrog-kun" changeset="4389130" lat="49.931319" lon="20.2104907">
    <tag k="name" v="Liplas"/>
    <tag k="place" v="village"/>
    <tag k="source" v="http://ump.waw.pl/ retrieved 01:24:13 09/02/09 (UMP-Krakow/src/cities-Krakow.pnt-converted.txt)"/>
  </node>
  <node id="530999507" version="4" timestamp="2010-04-11T13:16:06Z" uid="20587" user="balrog-kun" changeset="4392352" lat="49.9315972" lon="20.2104653">
    <tag k="name" v="Liplas"/>
    <tag k="place" v="village"/>
    <tag k="source" v="http://ump.waw.pl/ retrieved 01:24:13 09/02/09 (UMP-Krakow/src/cities-Krakow.pnt-converted.txt)"/>
  </node>
  <node id="530999507" version="5" timestamp="2010-04-27T04:15:25Z" uid="30632" user="antblant" changeset="4537896" lat="49.9315972" lon="20.2104653">
    <tag k="name" v="Liplas"/>
    <tag k="place" v="village"/>
    <tag k="source" v="http://ump.waw.pl/ retrieved 01:24:13 09/02/09 (UMP-Krakow/src/cities-Krakow.pnt-converted.txt)"/>
    <tag k="teryt:simc" v="0318216"/>
  </node>
  <node id="530999996" version="2" timestamp="2010-03-15T17:01:16Z" uid="30632" user="antblant" changeset="4136151" lat="49.96855" lon="20.13372"/>
  <node id="530999999" version="2" timestamp="2010-03-15T17:01:16Z" uid="30632" user="antblant" changeset="4136151" lat="49.9858" lon="20.14582"/>
</osm>
