<?xml version='1.0' encoding='UTF-8'?>
<osm version="0.6" generator="libosmium/2.20.0">
  <node id="532098502" version="1" timestamp="2009-10-15T17:16:26Z" uid="43863" user="Rundling" changeset="2857012" lat="52.9835662" lon="10.7629584">
    <tag k="amenity" v="veterinary"/>
    <tag k="name" v="Dr. Michaelis"/>
    <tag k="opening_hours" v="Mo-Fr 08:30-20:00"/>
  </node>
  <node id="532098502" version="2" timestamp="2009-10-17T08:12:06Z" uid="43863" user="Rundling" changeset="2871285" lat="52.9835662" lon="10.7629584">
    <tag k="amenity" v="veterinary"/>
    <tag k="name" v="Michaelis Ute Dr. Tier채rztin"/>
    <tag k="opening_hours" v="Mo-Fr 08:30-20:00"/>
  </node>
  <node id="532098502" version="3" timestamp="2010-05-09T06:21:04Z" uid="43863" user="Rundling" changeset="4644974" lat="52.9835662" lon="10.7629584">
    <tag k="amenity" v="veterinary"/>
    <tag k="name" v="Michaelis Ute Dr. Tier채rztin"/>
    <tag k="opening_hours" v="Mo-Fr 08:30-19:00"/>
  </node>
  <node id="532098502" version="4" timestamp="2011-03-01T15:14:47Z" uid="43863" user="Rundling" changeset="7430070" lat="52.9835743" lon="10.76294">
    <tag k="addr:city" v="Rosche"/>
    <tag k="addr:country" v="DE"/>
    <tag k="addr:housenumber" v="4"/>
    <tag k="addr:postcode" v="29571"/>
    <tag k="addr:street" v="Birkenweg"/>
    <tag k="amenity" v="veterinary"/>
    <tag k="name" v="Michaelis Ute Dr. Tier채rztin"/>
    <tag k="opening_hours" v="Mo-Fr 17:00-19:00; We 09:45-12:00"/>
  </node>
  <node id="532098502" version="5" timestamp="2011-03-01T15:16:58Z" uid="43863" user="Rundling" changeset="7430081" lat="52.9835743" lon="10.76294">
    <tag k="addr:city" v="Rosche"/>
    <tag k="addr:country" v="DE"/>
    <tag k="addr:housenumber" v="4"/>
    <tag k="addr:postcode" v="29571"/>
    <tag k="addr:street" v="Birkenweg"/>
    <tag k="amenity" v="veterinary"/>
    <tag k="email" v="praxis@forcom.de"/>
    <tag k="fax" v="+49 5803 969576"/>
    <tag k="name" v="Michaelis Ute Dr. Tier채rztin"/>
    <tag k="opening_hours" v="Mo-Fr 17:00-19:00; We 09:45-12:00"/>
    <tag k="phone" v="+49 5803 882"/>
  </node>
</osm>
