<?xml version='1.0' encoding='UTF-8'?>
<osm version="0.6" generator="libosmium/2.20.0">
  <node id="532580126" version="2" timestamp="2010-04-10T20:21:08Z" uid="33382" user="de_muur" changeset="4386862" lat="52.8759003" lon="9.0621448"/>
  <node id="532580126" version="3" timestamp="2010-12-25T12:46:06Z" uid="57645" user="KartoGrapHiti" changeset="6760603" lat="52.8758633" lon="9.0621295"/>
  <node id="532587027" version="1" timestamp="2009-10-15T21:30:35Z" uid="36809" user="pfoten_weg_!_" changeset="2859787" lat="48.0724684" lon="11.513637">
    <tag k="addr:city" v="München"/>
    <tag k="addr:country" v="DE"/>
    <tag k="addr:housename" v="Wohngebäude"/>
    <tag k="addr:housenumber" v="75A"/>
    <tag k="addr:postcode" v="81479"/>
    <tag k="addr:street" v="Melchiorstraße"/>
    <tag k="name" v="75A"/>
  </node>
  <node id="532587027" version="2" timestamp="2010-05-08T20:00:56Z" uid="30579" user="Tiramisu" changeset="4642499" lat="48.0724684" lon="11.5136369">
    <tag k="addr:city" v="München"/>
    <tag k="addr:country" v="DE"/>
    <tag k="addr:housenumber" v="75A"/>
    <tag k="addr:postcode" v="81479"/>
    <tag k="addr:street" v="Melchiorstraße"/>
  </node>
  <node id="532587027" version="3" timestamp="2010-05-08T20:41:01Z" uid="36809" user="pfoten_weg_!_" changeset="4642840" lat="48.0724684" lon="11.5136369">
    <tag k="addr:city" v="München"/>
    <tag k="addr:country" v="DE"/>
    <tag k="addr:housenumber" v="75A"/>
    <tag k="addr:postcode" v="81479"/>
    <tag k="addr:street" v="Melchiorstraße"/>
  </node>
  <node id="532587027" version="4" timestamp="2010-05-09T08:38:18Z" uid="145231" user="woodpeck_repair" changeset="4645739" lat="48.0724684" lon="11.5136369">
    <tag k="addr:city" v="München"/>
    <tag k="addr:country" v="DE"/>
    <tag k="addr:housenumber" v="75A"/>
    <tag k="addr:postcode" v="81479"/>
    <tag k="addr:street" v="Melchiorstraße"/>
  </node>
  <node id="532587065" version="1" timestamp="2009-10-15T21:30:36Z" uid="36809" user="pfoten_weg_!_" changeset="2859787" lat="48.0705604" lon="11.515697">
    <tag k="addr:city" v="München"/>
    <tag k="addr:country" v="DE"/>
    <tag k="addr:housename" v="Wohngebäude"/>
    <tag k="addr:housenumber" v="286G"/>
    <tag k="addr:postcode" v="81479"/>
    <tag k="addr:street" v="Wolfratshauser Straße"/>
    <tag k="name" v="286G"/>
  </node>
  <node id="532587065" version="2" timestamp="2010-05-08T20:41:03Z" uid="36809" user="pfoten_weg_!_" changeset="4642840" lat="48.0705604" lon="11.515697">
    <tag k="addr:city" v="München"/>
    <tag k="addr:country" v="DE"/>
    <tag k="addr:housename" v="Wohngebäude"/>
    <tag k="addr:housenumber" v="286G"/>
    <tag k="addr:postcode" v="81479"/>
    <tag k="addr:street" v="Wolfratshauser Straße"/>
    <tag k="name" v="286G"/>
  </node>
  <node id="532587088" version="1" timestamp="2009-10-15T21:30:36Z" uid="36809" user="pfoten_weg_!_" changeset="2859787" lat="48.0701784" lon="11.516029">
    <tag k="addr:city" v="München"/>
    <tag k="addr:country" v="DE"/>
    <tag k="addr:housename" v="Wohngebäude"/>
    <tag k="addr:housenumber" v="31"/>
    <tag k="addr:postcode" v="81479"/>
    <tag k="addr:street" v="Wilhelm-Leibl-Straße"/>
    <tag k="name" v="31"/>
  </node>
  <node id="532587088" version="2" timestamp="2010-05-08T20:40:28Z" uid="36809" user="pfoten_weg_!_" changeset="4642840" lat="48.0701784" lon="11.516029">
    <tag k="addr:city" v="München"/>
    <tag k="addr:country" v="DE"/>
    <tag k="addr:housename" v="Wohngebäude"/>
    <tag k="addr:housenumber" v="31"/>
    <tag k="addr:postcode" v="81479"/>
    <tag k="addr:street" v="Wilhelm-Leibl-Straße"/>
    <tag k="name" v="31"/>
  </node>
  <node id="532587112" version="1" timestamp="2009-10-15T21:30:37Z" uid="36809" user="pfoten_weg_!_" changeset="2859787" lat="48.0701674" lon="11.516109">
    <tag k="addr:city" v="München"/>
    <tag k="addr:country" v="DE"/>
    <tag k="addr:housename" v="Wohngebäude"/>
    <tag k="addr:housenumber" v="31A"/>
    <tag k="addr:postcode" v="81479"/>
    <tag k="addr:street" v="Wilhelm-Leibl-Straße"/>
    <tag k="name" v="31A"/>
  </node>
  <node id="532587112" version="2" timestamp="2010-05-08T20:40:16Z" uid="36809" user="pfoten_weg_!_" changeset="4642840" lat="48.0701674" lon="11.516109">
    <tag k="addr:city" v="München"/>
    <tag k="addr:country" v="DE"/>
    <tag k="addr:housename" v="Wohngebäude"/>
    <tag k="addr:housenumber" v="31A"/>
    <tag k="addr:postcode" v="81479"/>
    <tag k="addr:street" v="Wilhelm-Leibl-Straße"/>
    <tag k="name" v="31A"/>
  </node>
  <node id="532587138" version="1" timestamp="2009-10-15T21:30:37Z" uid="36809" user="pfoten_weg_!_" changeset="2859787" lat="48.0701534" lon="11.5162001">
    <tag k="addr:city" v="München"/>
    <tag k="addr:country" v="DE"/>
    <tag k="addr:housename" v="Wohngebäude"/>
    <tag k="addr:housenumber" v="31B"/>
    <tag k="addr:postcode" v="81479"/>
    <tag k="addr:street" v="Wilhelm-Leibl-Straße"/>
    <tag k="name" v="31B"/>
  </node>
  <node id="532587138" version="2" timestamp="2010-05-08T20:39:55Z" uid="36809" user="pfoten_weg_!_" changeset="4642840" lat="48.0701534" lon="11.5162001">
    <tag k="addr:city" v="München"/>
    <tag k="addr:country" v="DE"/>
    <tag k="addr:housename" v="Wohngebäude"/>
    <tag k="addr:housenumber" v="31B"/>
    <tag k="addr:postcode" v="81479"/>
    <tag k="addr:street" v="Wilhelm-Leibl-Straße"/>
    <tag k="name" v="31B"/>
  </node>
  <node id="532587166" version="1" timestamp="2009-10-15T21:30:38Z" uid="36809" user="pfoten_weg_!_" changeset="2859787" lat="48.0704044" lon="11.516295">
    <tag k="addr:city" v="München"/>
    <tag k="addr:country" v="DE"/>
    <tag k="addr:housename" v="Wohngebäude"/>
    <tag k="addr:housenumber" v="286E"/>
    <tag k="addr:postcode" v="81479"/>
    <tag k="addr:street" v="Wolfratshauser Straße"/>
    <tag k="name" v="286E"/>
  </node>
  <node id="532587166" version="2" timestamp="2010-05-08T20:40:23Z" uid="36809" user="pfoten_weg_!_" changeset="4642840" lat="48.0704044" lon="11.516295">
    <tag k="addr:city" v="München"/>
    <tag k="addr:country" v="DE"/>
    <tag k="addr:housename" v="Wohngebäude"/>
    <tag k="addr:housenumber" v="286E"/>
    <tag k="addr:postcode" v="81479"/>
    <tag k="addr:street" v="Wolfratshauser Straße"/>
    <tag k="name" v="286E"/>
  </node>
  <node id="532587198" version="1" timestamp="2009-10-15T21:30:38Z" uid="36809" user="pfoten_weg_!_" changeset="2859787" lat="48.0705264" lon="11.515903">
    <tag k="addr:city" v="München"/>
    <tag k="addr:country" v="DE"/>
    <tag k="addr:housename" v="Wohngebäude"/>
    <tag k="addr:housenumber" v="286F"/>
    <tag k="addr:postcode" v="81479"/>
    <tag k="addr:street" v="Wolfratshauser Straße"/>
    <tag k="name" v="286F"/>
  </node>
  <node id="532587198" version="2" timestamp="2010-05-08T20:40:32Z" uid="36809" user="pfoten_weg_!_" changeset="4642840" lat="48.0705264" lon="11.515903">
    <tag k="addr:city" v="München"/>
    <tag k="addr:country" v="DE"/>
    <tag k="addr:housename" v="Wohngebäude"/>
    <tag k="addr:housenumber" v="286F"/>
    <tag k="addr:postcode" v="81479"/>
    <tag k="addr:street" v="Wolfratshauser Straße"/>
    <tag k="name" v="286F"/>
  </node>
  <node id="532587234" version="1" timestamp="2009-10-15T21:30:39Z" uid="36809" user="pfoten_weg_!_" changeset="2859787" lat="48.0699697" lon="11.5171928">
    <tag k="addr:city" v="München"/>
    <tag k="addr:country" v="DE"/>
    <tag k="addr:housename" v="Wohngebäude"/>
    <tag k="addr:housenumber" v="290"/>
    <tag k="addr:postcode" v="81479"/>
    <tag k="addr:street" v="Wolfratshauser Straße"/>
    <tag k="name" v="290"/>
  </node>
  <node id="532587234" version="2" timestamp="2010-05-08T20:39:46Z" uid="36809" user="pfoten_weg_!_" changeset="4642840" lat="48.0699697" lon="11.5171928">
    <tag k="addr:city" v="München"/>
    <tag k="addr:country" v="DE"/>
    <tag k="addr:housename" v="Wohngebäude"/>
    <tag k="addr:housenumber" v="290"/>
    <tag k="addr:postcode" v="81479"/>
    <tag k="addr:street" v="Wolfratshauser Straße"/>
    <tag k="name" v="290"/>
  </node>
  <node id="532587254" version="1" timestamp="2009-10-15T21:30:39Z" uid="36809" user="pfoten_weg_!_" changeset="2859787" lat="48.0700334" lon="11.516872">
    <tag k="addr:city" v="München"/>
    <tag k="addr:country" v="DE"/>
    <tag k="addr:housename" v="Wohngebäude"/>
    <tag k="addr:housenumber" v="292"/>
    <tag k="addr:postcode" v="81479"/>
    <tag k="addr:street" v="Wolfratshauser Straße"/>
    <tag k="name" v="292"/>
  </node>
  <node id="532587254" version="2" timestamp="2010-05-08T20:39:52Z" uid="36809" user="pfoten_weg_!_" changeset="4642840" lat="48.0700334" lon="11.516872">
    <tag k="addr:city" v="München"/>
    <tag k="addr:country" v="DE"/>
    <tag k="addr:housename" v="Wohngebäude"/>
    <tag k="addr:housenumber" v="292"/>
    <tag k="addr:postcode" v="81479"/>
    <tag k="addr:street" v="Wolfratshauser Straße"/>
    <tag k="name" v="292"/>
  </node>
  <node id="532587284" version="1" timestamp="2009-10-15T21:30:40Z" uid="36809" user="pfoten_weg_!_" changeset="2859787" lat="48.0701144" lon="11.516494">
    <tag k="addr:city" v="München"/>
    <tag k="addr:country" v="DE"/>
    <tag k="addr:housename" v="Wohngebäude"/>
    <tag k="addr:housenumber" v="33"/>
    <tag k="addr:postcode" v="81479"/>
    <tag k="addr:street" v="Wilhelm-Leibl-Straße"/>
    <tag k="name" v="33"/>
  </node>
  <node id="532587284" version="2" timestamp="2010-05-08T20:40:31Z" uid="36809" user="pfoten_weg_!_" changeset="4642840" lat="48.0701144" lon="11.516494">
    <tag k="addr:city" v="München"/>
    <tag k="addr:country" v="DE"/>
    <tag k="addr:housename" v="Wohngebäude"/>
    <tag k="addr:housenumber" v="33"/>
    <tag k="addr:postcode" v="81479"/>
    <tag k="addr:street" v="Wilhelm-Leibl-Straße"/>
    <tag k="name" v="33"/>
  </node>
  <node id="532587307" version="1" timestamp="2009-10-15T21:30:40Z" uid="36809" user="pfoten_weg_!_" changeset="2859787" lat="48.070297" lon="11.5169198">
    <tag k="addr:city" v="München"/>
    <tag k="addr:country" v="DE"/>
    <tag k="addr:housename" v="Wohngebäude"/>
    <tag k="addr:housenumber" v="286C"/>
    <tag k="addr:postcode" v="81479"/>
    <tag k="addr:street" v="Wolfratshauser Straße"/>
    <tag k="name" v="286C"/>
  </node>
  <node id="532587307" version="2" timestamp="2010-05-08T20:41:10Z" uid="36809" user="pfoten_weg_!_" changeset="4642840" lat="48.070297" lon="11.5169198">
    <tag k="addr:city" v="München"/>
    <tag k="addr:country" v="DE"/>
    <tag k="addr:housename" v="Wohngebäude"/>
    <tag k="addr:housenumber" v="286C"/>
    <tag k="addr:postcode" v="81479"/>
    <tag k="addr:street" v="Wolfratshauser Straße"/>
    <tag k="name" v="286C"/>
  </node>
  <node id="532587325" version="1" timestamp="2009-10-15T21:30:40Z" uid="36809" user="pfoten_weg_!_" changeset="2859787" lat="48.0705765" lon="11.5170677">
    <tag k="addr:city" v="München"/>
    <tag k="addr:country" v="DE"/>
    <tag k="addr:housename" v="Wohngebäude"/>
    <tag k="addr:housenumber" v="284A"/>
    <tag k="addr:postcode" v="81479"/>
    <tag k="addr:street" v="Wolfratshauser Straße"/>
    <tag k="name" v="284A"/>
  </node>
  <node id="532587325" version="2" timestamp="2010-05-08T20:40:46Z" uid="36809" user="pfoten_weg_!_" changeset="4642840" lat="48.0705765" lon="11.5170677">
    <tag k="addr:city" v="München"/>
    <tag k="addr:country" v="DE"/>
    <tag k="addr:housename" v="Wohngebäude"/>
    <tag k="addr:housenumber" v="284A"/>
    <tag k="addr:postcode" v="81479"/>
    <tag k="addr:street" v="Wolfratshauser Straße"/>
    <tag k="name" v="284A"/>
  </node>
  <node id="532587353" version="1" timestamp="2009-10-15T21:30:41Z" uid="36809" user="pfoten_weg_!_" changeset="2859787" lat="48.0706739" lon="11.5165093">
    <tag k="addr:city" v="München"/>
    <tag k="addr:country" v="DE"/>
    <tag k="addr:housename" v="Wohngebäude"/>
    <tag k="addr:housenumber" v="284B"/>
    <tag k="addr:postcode" v="81479"/>
    <tag k="addr:street" v="Wolfratshauser Straße"/>
    <tag k="name" v="284B"/>
  </node>
  <node id="532587353" version="2" timestamp="2010-05-08T20:40:54Z" uid="36809" user="pfoten_weg_!_" changeset="4642840" lat="48.0706739" lon="11.5165093">
    <tag k="addr:city" v="München"/>
    <tag k="addr:country" v="DE"/>
    <tag k="addr:housename" v="Wohngebäude"/>
    <tag k="addr:housenumber" v="284B"/>
    <tag k="addr:postcode" v="81479"/>
    <tag k="addr:street" v="Wolfratshauser Straße"/>
    <tag k="name" v="284B"/>
  </node>
  <node id="532587388" version="1" timestamp="2009-10-15T21:30:41Z" uid="36809" user="pfoten_weg_!_" changeset="2859787" lat="48.0703675" lon="11.5165097">
    <tag k="addr:city" v="München"/>
    <tag k="addr:country" v="DE"/>
    <tag k="addr:housename" v="Wohngebäude"/>
    <tag k="addr:housenumber" v="286D"/>
    <tag k="addr:postcode" v="81479"/>
    <tag k="addr:street" v="Wolfratshauser Straße"/>
    <tag k="name" v="286D"/>
  </node>
  <node id="532587388" version="2" timestamp="2010-05-08T20:40:42Z" uid="36809" user="pfoten_weg_!_" changeset="4642840" lat="48.0703675" lon="11.5165097">
    <tag k="addr:city" v="München"/>
    <tag k="addr:country" v="DE"/>
    <tag k="addr:housename" v="Wohngebäude"/>
    <tag k="addr:housenumber" v="286D"/>
    <tag k="addr:postcode" v="81479"/>
    <tag k="addr:street" v="Wolfratshauser Straße"/>
    <tag k="name" v="286D"/>
  </node>
  <node id="532587431" version="1" timestamp="2009-10-15T21:30:42Z" uid="36809" user="pfoten_weg_!_" changeset="2859787" lat="48.0702184" lon="11.517765">
    <tag k="addr:city" v="München"/>
    <tag k="addr:country" v="DE"/>
    <tag k="addr:housename" v="Wohngebäude"/>
    <tag k="addr:housenumber" v="286"/>
    <tag k="addr:postcode" v="81479"/>
    <tag k="addr:street" v="Wolfratshauser Straße"/>
    <tag k="name" v="286"/>
  </node>
  <node id="532587431" version="2" timestamp="2010-05-08T20:41:09Z" uid="36809" user="pfoten_weg_!_" changeset="4642840" lat="48.0702184" lon="11.517765">
    <tag k="addr:city" v="München"/>
    <tag k="addr:country" v="DE"/>
    <tag k="addr:housename" v="Wohngebäude"/>
    <tag k="addr:housenumber" v="286"/>
    <tag k="addr:postcode" v="81479"/>
    <tag k="addr:street" v="Wolfratshauser Straße"/>
    <tag k="name" v="286"/>
  </node>
  <node id="532587467" version="1" timestamp="2009-10-15T21:30:43Z" uid="36809" user="pfoten_weg_!_" changeset="2859787" lat="48.0702484" lon="11.517564">
    <tag k="addr:city" v="München"/>
    <tag k="addr:country" v="DE"/>
    <tag k="addr:housename" v="Wohngebäude"/>
    <tag k="addr:housenumber" v="286A"/>
    <tag k="addr:postcode" v="81479"/>
    <tag k="addr:street" v="Wolfratshauser Straße"/>
    <tag k="name" v="286A"/>
  </node>
  <node id="532587467" version="2" timestamp="2010-05-08T20:40:04Z" uid="36809" user="pfoten_weg_!_" changeset="4642840" lat="48.0702484" lon="11.517564">
    <tag k="addr:city" v="München"/>
    <tag k="addr:country" v="DE"/>
    <tag k="addr:housename" v="Wohngebäude"/>
    <tag k="addr:housenumber" v="286A"/>
    <tag k="addr:postcode" v="81479"/>
    <tag k="addr:street" v="Wolfratshauser Straße"/>
    <tag k="name" v="286A"/>
  </node>
  <node id="532587514" version="1" timestamp="2009-10-15T21:30:43Z" uid="36809" user="pfoten_weg_!_" changeset="2859787" lat="48.0702614" lon="11.517127">
    <tag k="addr:city" v="München"/>
    <tag k="addr:country" v="DE"/>
    <tag k="addr:housename" v="Wohngebäude"/>
    <tag k="addr:housenumber" v="286B"/>
    <tag k="addr:postcode" v="81479"/>
    <tag k="addr:street" v="Wolfratshauser Straße"/>
    <tag k="name" v="286B"/>
  </node>
  <node id="532587514" version="2" timestamp="2010-05-08T20:41:11Z" uid="36809" user="pfoten_weg_!_" changeset="4642840" lat="48.0702614" lon="11.517127">
    <tag k="addr:city" v="München"/>
    <tag k="addr:country" v="DE"/>
    <tag k="addr:housename" v="Wohngebäude"/>
    <tag k="addr:housenumber" v="286B"/>
    <tag k="addr:postcode" v="81479"/>
    <tag k="addr:street" v="Wolfratshauser Straße"/>
    <tag k="name" v="286B"/>
  </node>
  <node id="532587534" version="1" timestamp="2009-10-15T21:30:44Z" uid="36809" user="pfoten_weg_!_" changeset="2859787" lat="48.0704814" lon="11.517613">
    <tag k="addr:city" v="München"/>
    <tag k="addr:country" v="DE"/>
    <tag k="addr:housename" v="Wohngebäude"/>
    <tag k="addr:housenumber" v="284"/>
    <tag k="addr:postcode" v="81479"/>
    <tag k="addr:street" v="Wolfratshauser Straße"/>
    <tag k="name" v="284"/>
  </node>
  <node id="532587534" version="2" timestamp="2010-05-08T20:41:13Z" uid="36809" user="pfoten_weg_!_" changeset="4642840" lat="48.0704814" lon="11.517613">
    <tag k="addr:city" v="München"/>
    <tag k="addr:country" v="DE"/>
    <tag k="addr:housename" v="Wohngebäude"/>
    <tag k="addr:housenumber" v="284"/>
    <tag k="addr:postcode" v="81479"/>
    <tag k="addr:street" v="Wolfratshauser Straße"/>
    <tag k="name" v="284"/>
  </node>
  <node id="532587561" version="1" timestamp="2009-10-15T21:30:44Z" uid="36809" user="pfoten_weg_!_" changeset="2859787" lat="48.0708764" lon="11.515541">
    <tag k="addr:city" v="München"/>
    <tag k="addr:country" v="DE"/>
    <tag k="addr:housename" v="Wohngebäude"/>
    <tag k="addr:housenumber" v="47"/>
    <tag k="addr:postcode" v="81479"/>
    <tag k="addr:street" v="Stridbeckstraße"/>
    <tag k="name" v="47"/>
  </node>
  <node id="532587561" version="2" timestamp="2010-05-08T20:39:40Z" uid="36809" user="pfoten_weg_!_" changeset="4642840" lat="48.0708764" lon="11.515541">
    <tag k="addr:city" v="München"/>
    <tag k="addr:country" v="DE"/>
    <tag k="addr:housename" v="Wohngebäude"/>
    <tag k="addr:housenumber" v="47"/>
    <tag k="addr:postcode" v="81479"/>
    <tag k="addr:street" v="Stridbeckstraße"/>
    <tag k="name" v="47"/>
  </node>
  <node id="532587593" version="1" timestamp="2009-10-15T21:30:45Z" uid="36809" user="pfoten_weg_!_" changeset="2859787" lat="48.0710134" lon="11.516239">
    <tag k="addr:city" v="München"/>
    <tag k="addr:country" v="DE"/>
    <tag k="addr:housename" v="Wohngebäude"/>
    <tag k="addr:housenumber" v="45"/>
    <tag k="addr:postcode" v="81479"/>
    <tag k="addr:street" v="Stridbeckstraße"/>
    <tag k="name" v="45"/>
  </node>
  <node id="532587593" version="2" timestamp="2010-05-08T20:40:46Z" uid="36809" user="pfoten_weg_!_" changeset="4642840" lat="48.0710134" lon="11.516239">
    <tag k="addr:city" v="München"/>
    <tag k="addr:country" v="DE"/>
    <tag k="addr:housename" v="Wohngebäude"/>
    <tag k="addr:housenumber" v="45"/>
    <tag k="addr:postcode" v="81479"/>
    <tag k="addr:street" v="Stridbeckstraße"/>
    <tag k="name" v="45"/>
  </node>
  <node id="532587680" version="1" timestamp="2009-10-15T21:30:46Z" uid="36809" user="pfoten_weg_!_" changeset="2859787" lat="48.0707682" lon="11.5159682">
    <tag k="addr:city" v="München"/>
    <tag k="addr:country" v="DE"/>
    <tag k="addr:housename" v="Wohngebäude"/>
    <tag k="addr:housenumber" v="284C"/>
    <tag k="addr:postcode" v="81479"/>
    <tag k="addr:street" v="Wolfratshauser Straße"/>
    <tag k="name" v="284C"/>
  </node>
  <node id="532587680" version="2" timestamp="2010-05-08T20:40:31Z" uid="36809" user="pfoten_weg_!_" changeset="4642840" lat="48.0707682" lon="11.5159682">
    <tag k="addr:city" v="München"/>
    <tag k="addr:country" v="DE"/>
    <tag k="addr:housename" v="Wohngebäude"/>
    <tag k="addr:housenumber" v="284C"/>
    <tag k="addr:postcode" v="81479"/>
    <tag k="addr:street" v="Wolfratshauser Straße"/>
    <tag k="name" v="284C"/>
  </node>
  <node id="532587718" version="1" timestamp="2009-10-15T21:30:46Z" uid="36809" user="pfoten_weg_!_" changeset="2859787" lat="48.0724654" lon="11.513787">
    <tag k="addr:city" v="München"/>
    <tag k="addr:country" v="DE"/>
    <tag k="addr:housename" v="Wohngebäude"/>
    <tag k="addr:housenumber" v="75"/>
    <tag k="addr:postcode" v="81479"/>
    <tag k="addr:street" v="Melchiorstraße"/>
    <tag k="name" v="75"/>
  </node>
  <node id="532587718" version="2" timestamp="2010-05-08T20:00:52Z" uid="30579" user="Tiramisu" changeset="4642499" lat="48.0724655" lon="11.5137869">
    <tag k="addr:city" v="München"/>
    <tag k="addr:country" v="DE"/>
    <tag k="addr:housenumber" v="75"/>
    <tag k="addr:postcode" v="81479"/>
    <tag k="addr:street" v="Melchiorstraße"/>
  </node>
  <node id="532587718" version="3" timestamp="2010-05-08T20:39:54Z" uid="36809" user="pfoten_weg_!_" changeset="4642840" lat="48.0724655" lon="11.5137869">
    <tag k="addr:city" v="München"/>
    <tag k="addr:country" v="DE"/>
    <tag k="addr:housenumber" v="75"/>
    <tag k="addr:postcode" v="81479"/>
    <tag k="addr:street" v="Melchiorstraße"/>
  </node>
  <node id="532587718" version="4" timestamp="2010-05-09T08:38:12Z" uid="145231" user="woodpeck_repair" changeset="4645739" lat="48.0724655" lon="11.5137869">
    <tag k="addr:city" v="München"/>
    <tag k="addr:country" v="DE"/>
    <tag k="addr:housenumber" v="75"/>
    <tag k="addr:postcode" v="81479"/>
    <tag k="addr:street" v="Melchiorstraße"/>
  </node>
  <node id="532587760" version="1" timestamp="2009-10-15T21:30:47Z" uid="36809" user="pfoten_weg_!_" changeset="2859787" lat="48.0724584" lon="11.514032">
    <tag k="addr:city" v="München"/>
    <tag k="addr:country" v="DE"/>
    <tag k="addr:housename" v="Wohngebäude"/>
    <tag k="addr:housenumber" v="73"/>
    <tag k="addr:postcode" v="81479"/>
    <tag k="addr:street" v="Melchiorstraße"/>
    <tag k="name" v="73"/>
  </node>
  <node id="532587760" version="2" timestamp="2010-05-08T20:01:01Z" uid="30579" user="Tiramisu" changeset="4642499" lat="48.0724585" lon="11.5140319">
    <tag k="addr:city" v="München"/>
    <tag k="addr:country" v="DE"/>
    <tag k="addr:housenumber" v="73"/>
    <tag k="addr:postcode" v="81479"/>
    <tag k="addr:street" v="Melchiorstraße"/>
  </node>
  <node id="532587760" version="3" timestamp="2010-05-08T20:40:53Z" uid="36809" user="pfoten_weg_!_" changeset="4642840" lat="48.0724585" lon="11.5140319">
    <tag k="addr:city" v="München"/>
    <tag k="addr:country" v="DE"/>
    <tag k="addr:housenumber" v="73"/>
    <tag k="addr:postcode" v="81479"/>
    <tag k="addr:street" v="Melchiorstraße"/>
  </node>
  <node id="532587760" version="4" timestamp="2010-05-09T08:38:11Z" uid="145231" user="woodpeck_repair" changeset="4645739" lat="48.0724585" lon="11.5140319">
    <tag k="addr:city" v="München"/>
    <tag k="addr:country" v="DE"/>
    <tag k="addr:housenumber" v="73"/>
    <tag k="addr:postcode" v="81479"/>
    <tag k="addr:street" v="Melchiorstraße"/>
  </node>
  <node id="532587804" version="1" timestamp="2009-10-15T21:30:47Z" uid="36809" user="pfoten_weg_!_" changeset="2859787" lat="48.0724314" lon="11.514754">
    <tag k="addr:city" v="München"/>
    <tag k="addr:country" v="DE"/>
    <tag k="addr:housename" v="Wohngebäude"/>
    <tag k="addr:housenumber" v="71"/>
    <tag k="addr:postcode" v="81479"/>
    <tag k="addr:street" v="Melchiorstraße"/>
    <tag k="name" v="71"/>
  </node>
  <node id="532587804" version="2" timestamp="2010-05-08T20:00:55Z" uid="30579" user="Tiramisu" changeset="4642499" lat="48.0724315" lon="11.5147539">
    <tag k="addr:city" v="München"/>
    <tag k="addr:country" v="DE"/>
    <tag k="addr:housenumber" v="71"/>
    <tag k="addr:postcode" v="81479"/>
    <tag k="addr:street" v="Melchiorstraße"/>
  </node>
  <node id="532587804" version="3" timestamp="2010-05-08T20:40:11Z" uid="36809" user="pfoten_weg_!_" changeset="4642840" lat="48.0724315" lon="11.5147539">
    <tag k="addr:city" v="München"/>
    <tag k="addr:country" v="DE"/>
    <tag k="addr:housenumber" v="71"/>
    <tag k="addr:postcode" v="81479"/>
    <tag k="addr:street" v="Melchiorstraße"/>
  </node>
  <node id="532587804" version="4" timestamp="2010-05-09T08:38:11Z" uid="145231" user="woodpeck_repair" changeset="4645739" lat="48.0724315" lon="11.5147539">
    <tag k="addr:city" v="München"/>
    <tag k="addr:country" v="DE"/>
    <tag k="addr:housenumber" v="71"/>
    <tag k="addr:postcode" v="81479"/>
    <tag k="addr:street" v="Melchiorstraße"/>
  </node>
  <node id="532587832" version="1" timestamp="2009-10-15T21:30:48Z" uid="36809" user="pfoten_weg_!_" changeset="2859787" lat="48.0724224" lon="11.514995">
    <tag k="addr:city" v="München"/>
    <tag k="addr:country" v="DE"/>
    <tag k="addr:housename" v="Wohngebäude"/>
    <tag k="addr:housenumber" v="69"/>
    <tag k="addr:postcode" v="81479"/>
    <tag k="addr:street" v="Melchiorstraße"/>
    <tag k="name" v="69"/>
  </node>
  <node id="532587832" version="2" timestamp="2010-05-08T20:00:59Z" uid="30579" user="Tiramisu" changeset="4642499" lat="48.0724224" lon="11.5149949">
    <tag k="addr:city" v="München"/>
    <tag k="addr:country" v="DE"/>
    <tag k="addr:housenumber" v="69"/>
    <tag k="addr:postcode" v="81479"/>
    <tag k="addr:street" v="Melchiorstraße"/>
  </node>
  <node id="532587832" version="3" timestamp="2010-05-08T20:40:56Z" uid="36809" user="pfoten_weg_!_" changeset="4642840" lat="48.0724224" lon="11.5149949">
    <tag k="addr:city" v="München"/>
    <tag k="addr:country" v="DE"/>
    <tag k="addr:housenumber" v="69"/>
    <tag k="addr:postcode" v="81479"/>
    <tag k="addr:street" v="Melchiorstraße"/>
  </node>
  <node id="532587832" version="4" timestamp="2010-05-09T08:38:10Z" uid="145231" user="woodpeck_repair" changeset="4645739" lat="48.0724224" lon="11.5149949">
    <tag k="addr:city" v="München"/>
    <tag k="addr:country" v="DE"/>
    <tag k="addr:housenumber" v="69"/>
    <tag k="addr:postcode" v="81479"/>
    <tag k="addr:street" v="Melchiorstraße"/>
  </node>
  <node id="532587855" version="1" timestamp="2009-10-15T21:30:48Z" uid="36809" user="pfoten_weg_!_" changeset="2859787" lat="48.0727458" lon="11.514051">
    <tag k="addr:city" v="München"/>
    <tag k="addr:country" v="DE"/>
    <tag k="addr:housenumber" v="60"/>
    <tag k="addr:postcode" v="81477"/>
    <tag k="name" v="60"/>
  </node>
  <node id="532587855" version="2" timestamp="2010-05-08T19:45:49Z" uid="30579" user="Tiramisu" changeset="4642350" lat="48.0727458" lon="11.514051">
    <tag k="addr:city" v="München"/>
    <tag k="addr:country" v="DE"/>
    <tag k="addr:housenumber" v="60"/>
    <tag k="addr:postcode" v="81477"/>
    <tag k="addr:street" v="Melchiorstraße"/>
  </node>
  <node id="532587855" version="3" timestamp="2010-05-08T20:40:59Z" uid="36809" user="pfoten_weg_!_" changeset="4642840" lat="48.0727458" lon="11.514051">
    <tag k="addr:city" v="München"/>
    <tag k="addr:country" v="DE"/>
    <tag k="addr:housenumber" v="60"/>
    <tag k="addr:postcode" v="81477"/>
    <tag k="addr:street" v="Melchiorstraße"/>
  </node>
  <node id="532587855" version="4" timestamp="2010-05-09T08:38:10Z" uid="145231" user="woodpeck_repair" changeset="4645739" lat="48.0727458" lon="11.514051">
    <tag k="addr:city" v="München"/>
    <tag k="addr:country" v="DE"/>
    <tag k="addr:housenumber" v="60"/>
    <tag k="addr:postcode" v="81477"/>
    <tag k="addr:street" v="Melchiorstraße"/>
  </node>
  <node id="532587888" version="1" timestamp="2009-10-15T21:30:49Z" uid="36809" user="pfoten_weg_!_" changeset="2859787" lat="48.0728198" lon="11.513873">
    <tag k="addr:city" v="München"/>
    <tag k="addr:country" v="DE"/>
    <tag k="addr:housenumber" v="62"/>
    <tag k="addr:postcode" v="81477"/>
    <tag k="name" v="62"/>
  </node>
  <node id="532587888" version="2" timestamp="2010-05-08T19:45:51Z" uid="30579" user="Tiramisu" changeset="4642350" lat="48.0728198" lon="11.5138729">
    <tag k="addr:city" v="München"/>
    <tag k="addr:country" v="DE"/>
    <tag k="addr:housenumber" v="62"/>
    <tag k="addr:postcode" v="81477"/>
    <tag k="addr:street" v="Melchiorstraße"/>
  </node>
  <node id="532587888" version="3" timestamp="2010-05-08T20:40:17Z" uid="36809" user="pfoten_weg_!_" changeset="4642840" lat="48.0728198" lon="11.5138729">
    <tag k="addr:city" v="München"/>
    <tag k="addr:country" v="DE"/>
    <tag k="addr:housenumber" v="62"/>
    <tag k="addr:postcode" v="81477"/>
    <tag k="addr:street" v="Melchiorstraße"/>
  </node>
  <node id="532587888" version="4" timestamp="2010-05-09T08:38:09Z" uid="145231" user="woodpeck_repair" changeset="4645739" lat="48.0728198" lon="11.5138729">
    <tag k="addr:city" v="München"/>
    <tag k="addr:country" v="DE"/>
    <tag k="addr:housenumber" v="62"/>
    <tag k="addr:postcode" v="81477"/>
    <tag k="addr:street" v="Melchiorstraße"/>
  </node>
  <node id="532587912" version="1" timestamp="2009-10-15T21:30:49Z" uid="36809" user="pfoten_weg_!_" changeset="2859787" lat="48.0726908" lon="11.515334">
    <tag k="addr:city" v="München"/>
    <tag k="addr:country" v="DE"/>
    <tag k="addr:housenumber" v="52"/>
    <tag k="addr:postcode" v="81477"/>
    <tag k="name" v="52"/>
  </node>
  <node id="532587912" version="2" timestamp="2010-05-08T20:41:02Z" uid="36809" user="pfoten_weg_!_" changeset="4642840" lat="48.0726908" lon="11.515334">
    <tag k="addr:city" v="München"/>
    <tag k="addr:country" v="DE"/>
    <tag k="addr:housenumber" v="52"/>
    <tag k="addr:postcode" v="81477"/>
    <tag k="name" v="52"/>
  </node>
  <node id="532587944" version="1" timestamp="2009-10-15T21:30:49Z" uid="36809" user="pfoten_weg_!_" changeset="2859787" lat="48.0723974" lon="11.515494">
    <tag k="addr:city" v="München"/>
    <tag k="addr:country" v="DE"/>
    <tag k="addr:housename" v="Wohngebäude"/>
    <tag k="addr:housenumber" v="65"/>
    <tag k="addr:postcode" v="81479"/>
    <tag k="addr:street" v="Melchiorstraße"/>
    <tag k="name" v="65"/>
  </node>
  <node id="532587944" version="2" timestamp="2010-05-08T20:01:03Z" uid="30579" user="Tiramisu" changeset="4642499" lat="48.0723974" lon="11.515494">
    <tag k="addr:city" v="München"/>
    <tag k="addr:country" v="DE"/>
    <tag k="addr:housenumber" v="65"/>
    <tag k="addr:postcode" v="81479"/>
    <tag k="addr:street" v="Melchiorstraße"/>
  </node>
  <node id="532587944" version="3" timestamp="2010-05-08T20:41:13Z" uid="36809" user="pfoten_weg_!_" changeset="4642840" lat="48.0723974" lon="11.515494">
    <tag k="addr:city" v="München"/>
    <tag k="addr:country" v="DE"/>
    <tag k="addr:housenumber" v="65"/>
    <tag k="addr:postcode" v="81479"/>
    <tag k="addr:street" v="Melchiorstraße"/>
  </node>
  <node id="532587944" version="4" timestamp="2010-05-09T08:38:09Z" uid="145231" user="woodpeck_repair" changeset="4645739" lat="48.0723974" lon="11.515494">
    <tag k="addr:city" v="München"/>
    <tag k="addr:country" v="DE"/>
    <tag k="addr:housenumber" v="65"/>
    <tag k="addr:postcode" v="81479"/>
    <tag k="addr:street" v="Melchiorstraße"/>
  </node>
  <node id="532587944" version="5" timestamp="2011-07-30T09:15:13Z" uid="127169" user="Bike_S" changeset="8870208" lat="48.0723974" lon="11.515494"/>
  <node id="532587975" version="1" timestamp="2009-10-15T21:30:50Z" uid="36809" user="pfoten_weg_!_" changeset="2859787" lat="48.0726948" lon="11.515069">
    <tag k="addr:city" v="München"/>
    <tag k="addr:country" v="DE"/>
    <tag k="addr:housenumber" v="58"/>
    <tag k="addr:postcode" v="81477"/>
    <tag k="name" v="58"/>
  </node>
  <node id="532587975" version="2" timestamp="2010-05-08T20:39:59Z" uid="36809" user="pfoten_weg_!_" changeset="4642840" lat="48.0726948" lon="11.515069">
    <tag k="addr:city" v="München"/>
    <tag k="addr:country" v="DE"/>
    <tag k="addr:housenumber" v="58"/>
    <tag k="addr:postcode" v="81477"/>
    <tag k="name" v="58"/>
  </node>
  <node id="532587992" version="1" timestamp="2009-10-15T21:30:50Z" uid="36809" user="pfoten_weg_!_" changeset="2859787" lat="48.0723944" lon="11.516159">
    <tag k="addr:city" v="München"/>
    <tag k="addr:country" v="DE"/>
    <tag k="addr:housename" v="Wohngebäude"/>
    <tag k="addr:housenumber" v="61"/>
    <tag k="addr:postcode" v="81479"/>
    <tag k="addr:street" v="Melchiorstraße"/>
    <tag k="name" v="61"/>
  </node>
  <node id="532587992" version="2" timestamp="2010-05-08T20:01:01Z" uid="30579" user="Tiramisu" changeset="4642499" lat="48.0723945" lon="11.5161589">
    <tag k="addr:city" v="München"/>
    <tag k="addr:country" v="DE"/>
    <tag k="addr:housenumber" v="61"/>
    <tag k="addr:postcode" v="81479"/>
    <tag k="addr:street" v="Melchiorstraße"/>
  </node>
  <node id="532587992" version="3" timestamp="2010-05-08T20:39:51Z" uid="36809" user="pfoten_weg_!_" changeset="4642840" lat="48.0723945" lon="11.5161589">
    <tag k="addr:city" v="München"/>
    <tag k="addr:country" v="DE"/>
    <tag k="addr:housenumber" v="61"/>
    <tag k="addr:postcode" v="81479"/>
    <tag k="addr:street" v="Melchiorstraße"/>
  </node>
  <node id="532587992" version="4" timestamp="2010-05-09T08:38:08Z" uid="145231" user="woodpeck_repair" changeset="4645739" lat="48.0723945" lon="11.5161589">
    <tag k="addr:city" v="München"/>
    <tag k="addr:country" v="DE"/>
    <tag k="addr:housenumber" v="61"/>
    <tag k="addr:postcode" v="81479"/>
    <tag k="addr:street" v="Melchiorstraße"/>
  </node>
  <node id="532588015" version="1" timestamp="2009-10-15T21:30:51Z" uid="36809" user="pfoten_weg_!_" changeset="2859787" lat="48.0724024" lon="11.515959">
    <tag k="addr:city" v="München"/>
    <tag k="addr:country" v="DE"/>
    <tag k="addr:housename" v="Wohngebäude"/>
    <tag k="addr:housenumber" v="63"/>
    <tag k="addr:postcode" v="81479"/>
    <tag k="addr:street" v="Melchiorstraße"/>
    <tag k="name" v="63"/>
  </node>
  <node id="532588015" version="2" timestamp="2010-05-08T20:01:04Z" uid="30579" user="Tiramisu" changeset="4642499" lat="48.0724025" lon="11.5159589">
    <tag k="addr:city" v="München"/>
    <tag k="addr:country" v="DE"/>
    <tag k="addr:housenumber" v="63"/>
    <tag k="addr:postcode" v="81479"/>
    <tag k="addr:street" v="Melchiorstraße"/>
  </node>
  <node id="532588015" version="3" timestamp="2010-05-08T20:40:32Z" uid="36809" user="pfoten_weg_!_" changeset="4642840" lat="48.0724025" lon="11.5159589">
    <tag k="addr:city" v="München"/>
    <tag k="addr:country" v="DE"/>
    <tag k="addr:housenumber" v="63"/>
    <tag k="addr:postcode" v="81479"/>
    <tag k="addr:street" v="Melchiorstraße"/>
  </node>
  <node id="532588015" version="4" timestamp="2010-05-09T08:38:07Z" uid="145231" user="woodpeck_repair" changeset="4645739" lat="48.0724025" lon="11.5159589">
    <tag k="addr:city" v="München"/>
    <tag k="addr:country" v="DE"/>
    <tag k="addr:housenumber" v="63"/>
    <tag k="addr:postcode" v="81479"/>
    <tag k="addr:street" v="Melchiorstraße"/>
  </node>
  <node id="532588033" version="1" timestamp="2009-10-15T21:30:51Z" uid="36809" user="pfoten_weg_!_" changeset="2859787" lat="48.0725706" lon="11.5159355">
    <tag k="addr:city" v="München"/>
    <tag k="addr:country" v="DE"/>
    <tag k="addr:housenumber" v="48"/>
    <tag k="addr:postcode" v="81477"/>
    <tag k="name" v="48"/>
  </node>
  <node id="532588033" version="2" timestamp="2010-05-08T20:40:03Z" uid="36809" user="pfoten_weg_!_" changeset="4642840" lat="48.0725706" lon="11.5159355">
    <tag k="addr:city" v="München"/>
    <tag k="addr:country" v="DE"/>
    <tag k="addr:housenumber" v="48"/>
    <tag k="addr:postcode" v="81477"/>
    <tag k="name" v="48"/>
  </node>
  <node id="532588060" version="1" timestamp="2009-10-15T21:30:51Z" uid="36809" user="pfoten_weg_!_" changeset="2859787" lat="48.0725708" lon="11.516054">
    <tag k="addr:city" v="München"/>
    <tag k="addr:country" v="DE"/>
    <tag k="addr:housenumber" v="46"/>
    <tag k="addr:postcode" v="81477"/>
    <tag k="name" v="46"/>
  </node>
  <node id="532588060" version="2" timestamp="2010-05-08T20:40:45Z" uid="36809" user="pfoten_weg_!_" changeset="4642840" lat="48.0725708" lon="11.516054">
    <tag k="addr:city" v="München"/>
    <tag k="addr:country" v="DE"/>
    <tag k="addr:housenumber" v="46"/>
    <tag k="addr:postcode" v="81477"/>
    <tag k="name" v="46"/>
  </node>
  <node id="532588100" version="1" timestamp="2009-10-15T21:30:52Z" uid="36809" user="pfoten_weg_!_" changeset="2859787" lat="48.0709994" lon="11.516866">
    <tag k="addr:city" v="München"/>
    <tag k="addr:country" v="DE"/>
    <tag k="addr:housename" v="Wohngebäude"/>
    <tag k="addr:housenumber" v="43"/>
    <tag k="addr:postcode" v="81479"/>
    <tag k="addr:street" v="Stridbeckstraße"/>
    <tag k="name" v="43"/>
  </node>
  <node id="532588100" version="2" timestamp="2010-05-08T20:40:56Z" uid="36809" user="pfoten_weg_!_" changeset="4642840" lat="48.0709994" lon="11.516866">
    <tag k="addr:city" v="München"/>
    <tag k="addr:country" v="DE"/>
    <tag k="addr:housename" v="Wohngebäude"/>
    <tag k="addr:housenumber" v="43"/>
    <tag k="addr:postcode" v="81479"/>
    <tag k="addr:street" v="Stridbeckstraße"/>
    <tag k="name" v="43"/>
  </node>
  <node id="532588135" version="1" timestamp="2009-10-15T21:30:53Z" uid="36809" user="pfoten_weg_!_" changeset="2859787" lat="48.0709174" lon="11.517733">
    <tag k="addr:city" v="München"/>
    <tag k="addr:country" v="DE"/>
    <tag k="addr:housename" v="Wohngebäude"/>
    <tag k="addr:housenumber" v="39A"/>
    <tag k="addr:postcode" v="81479"/>
    <tag k="addr:street" v="Stridbeckstraße"/>
    <tag k="name" v="39A"/>
  </node>
  <node id="532588135" version="2" timestamp="2010-05-08T20:39:46Z" uid="36809" user="pfoten_weg_!_" changeset="4642840" lat="48.0709174" lon="11.517733">
    <tag k="addr:city" v="München"/>
    <tag k="addr:country" v="DE"/>
    <tag k="addr:housename" v="Wohngebäude"/>
    <tag k="addr:housenumber" v="39A"/>
    <tag k="addr:postcode" v="81479"/>
    <tag k="addr:street" v="Stridbeckstraße"/>
    <tag k="name" v="39A"/>
  </node>
  <node id="532588156" version="1" timestamp="2009-10-15T21:30:53Z" uid="36809" user="pfoten_weg_!_" changeset="2859787" lat="48.0709444" lon="11.517116">
    <tag k="addr:city" v="München"/>
    <tag k="addr:country" v="DE"/>
    <tag k="addr:housename" v="Wohngebäude"/>
    <tag k="addr:housenumber" v="41A"/>
    <tag k="addr:postcode" v="81479"/>
    <tag k="addr:street" v="Stridbeckstraße"/>
    <tag k="name" v="41A"/>
  </node>
  <node id="532588156" version="2" timestamp="2010-05-08T20:40:36Z" uid="36809" user="pfoten_weg_!_" changeset="4642840" lat="48.0709444" lon="11.517116">
    <tag k="addr:city" v="München"/>
    <tag k="addr:country" v="DE"/>
    <tag k="addr:housename" v="Wohngebäude"/>
    <tag k="addr:housenumber" v="41A"/>
    <tag k="addr:postcode" v="81479"/>
    <tag k="addr:street" v="Stridbeckstraße"/>
    <tag k="name" v="41A"/>
  </node>
  <node id="532588187" version="1" timestamp="2009-10-15T21:30:54Z" uid="36809" user="pfoten_weg_!_" changeset="2859787" lat="48.0709904" lon="11.517499">
    <tag k="addr:city" v="München"/>
    <tag k="addr:country" v="DE"/>
    <tag k="addr:housename" v="Wohngebäude"/>
    <tag k="addr:housenumber" v="41"/>
    <tag k="addr:postcode" v="81479"/>
    <tag k="addr:street" v="Stridbeckstraße"/>
    <tag k="name" v="41"/>
  </node>
  <node id="532588187" version="2" timestamp="2010-05-08T20:40:59Z" uid="36809" user="pfoten_weg_!_" changeset="4642840" lat="48.0709904" lon="11.517499">
    <tag k="addr:city" v="München"/>
    <tag k="addr:country" v="DE"/>
    <tag k="addr:housename" v="Wohngebäude"/>
    <tag k="addr:housenumber" v="41"/>
    <tag k="addr:postcode" v="81479"/>
    <tag k="addr:street" v="Stridbeckstraße"/>
    <tag k="name" v="41"/>
  </node>
  <node id="532588216" version="1" timestamp="2009-10-15T21:30:54Z" uid="36809" user="pfoten_weg_!_" changeset="2859787" lat="48.0713564" lon="11.517156">
    <tag k="addr:city" v="München"/>
    <tag k="addr:country" v="DE"/>
    <tag k="addr:housename" v="Wohngebäude"/>
    <tag k="addr:housenumber" v="25"/>
    <tag k="addr:postcode" v="81479"/>
    <tag k="addr:street" v="Memlingstraße"/>
    <tag k="name" v="25"/>
  </node>
  <node id="532588216" version="2" timestamp="2010-05-08T20:40:53Z" uid="36809" user="pfoten_weg_!_" changeset="4642840" lat="48.0713564" lon="11.517156">
    <tag k="addr:city" v="München"/>
    <tag k="addr:country" v="DE"/>
    <tag k="addr:housename" v="Wohngebäude"/>
    <tag k="addr:housenumber" v="25"/>
    <tag k="addr:postcode" v="81479"/>
    <tag k="addr:street" v="Memlingstraße"/>
    <tag k="name" v="25"/>
  </node>
  <node id="532588237" version="1" timestamp="2009-10-15T21:30:54Z" uid="36809" user="pfoten_weg_!_" changeset="2859787" lat="48.0713524" lon="11.5174">
    <tag k="addr:city" v="München"/>
    <tag k="addr:country" v="DE"/>
    <tag k="addr:housename" v="Wohngebäude"/>
    <tag k="addr:housenumber" v="50"/>
    <tag k="addr:postcode" v="81479"/>
    <tag k="addr:street" v="Stridbeckstraße"/>
    <tag k="name" v="50"/>
  </node>
  <node id="532588237" version="2" timestamp="2010-05-08T20:40:27Z" uid="36809" user="pfoten_weg_!_" changeset="4642840" lat="48.0713524" lon="11.5174">
    <tag k="addr:city" v="München"/>
    <tag k="addr:country" v="DE"/>
    <tag k="addr:housename" v="Wohngebäude"/>
    <tag k="addr:housenumber" v="50"/>
    <tag k="addr:postcode" v="81479"/>
    <tag k="addr:street" v="Stridbeckstraße"/>
    <tag k="name" v="50"/>
  </node>
  <node id="532588257" version="1" timestamp="2009-10-15T21:30:55Z" uid="36809" user="pfoten_weg_!_" changeset="2859787" lat="48.0715534" lon="11.516759">
    <tag k="addr:city" v="München"/>
    <tag k="addr:country" v="DE"/>
    <tag k="addr:housename" v="Wohngebäude"/>
    <tag k="addr:housenumber" v="22"/>
    <tag k="addr:postcode" v="81479"/>
    <tag k="addr:street" v="Memlingstraße"/>
    <tag k="name" v="22"/>
  </node>
  <node id="532588257" version="2" timestamp="2010-05-08T20:40:51Z" uid="36809" user="pfoten_weg_!_" changeset="4642840" lat="48.0715534" lon="11.516759">
    <tag k="addr:city" v="München"/>
    <tag k="addr:country" v="DE"/>
    <tag k="addr:housename" v="Wohngebäude"/>
    <tag k="addr:housenumber" v="22"/>
    <tag k="addr:postcode" v="81479"/>
    <tag k="addr:street" v="Memlingstraße"/>
    <tag k="name" v="22"/>
  </node>
  <node id="532588277" version="1" timestamp="2009-10-15T21:30:55Z" uid="36809" user="pfoten_weg_!_" changeset="2859787" lat="48.0714604" lon="11.516756">
    <tag k="addr:city" v="München"/>
    <tag k="addr:country" v="DE"/>
    <tag k="addr:housename" v="Wohngebäude"/>
    <tag k="addr:housenumber" v="24"/>
    <tag k="addr:postcode" v="81479"/>
    <tag k="addr:street" v="Memlingstraße"/>
    <tag k="name" v="24"/>
  </node>
  <node id="532588277" version="2" timestamp="2010-05-08T20:40:57Z" uid="36809" user="pfoten_weg_!_" changeset="4642840" lat="48.0714604" lon="11.516756">
    <tag k="addr:city" v="München"/>
    <tag k="addr:country" v="DE"/>
    <tag k="addr:housename" v="Wohngebäude"/>
    <tag k="addr:housenumber" v="24"/>
    <tag k="addr:postcode" v="81479"/>
    <tag k="addr:street" v="Memlingstraße"/>
    <tag k="name" v="24"/>
  </node>
  <node id="532588315" version="1" timestamp="2009-10-15T21:30:56Z" uid="36809" user="pfoten_weg_!_" changeset="2859787" lat="48.0715214" lon="11.517009">
    <tag k="addr:city" v="München"/>
    <tag k="addr:country" v="DE"/>
    <tag k="addr:housename" v="Wohngebäude"/>
    <tag k="addr:housenumber" v="23"/>
    <tag k="addr:postcode" v="81479"/>
    <tag k="addr:street" v="Memlingstraße"/>
    <tag k="name" v="23"/>
  </node>
  <node id="532588315" version="2" timestamp="2010-05-08T20:40:22Z" uid="36809" user="pfoten_weg_!_" changeset="4642840" lat="48.0715214" lon="11.517009">
    <tag k="addr:city" v="München"/>
    <tag k="addr:country" v="DE"/>
    <tag k="addr:housename" v="Wohngebäude"/>
    <tag k="addr:housenumber" v="23"/>
    <tag k="addr:postcode" v="81479"/>
    <tag k="addr:street" v="Memlingstraße"/>
    <tag k="name" v="23"/>
  </node>
  <node id="532588343" version="1" timestamp="2009-10-15T21:30:56Z" uid="36809" user="pfoten_weg_!_" changeset="2859787" lat="48.0719354" lon="11.517022">
    <tag k="addr:city" v="München"/>
    <tag k="addr:country" v="DE"/>
    <tag k="addr:housename" v="Wohngebäude"/>
    <tag k="addr:housenumber" v="19"/>
    <tag k="addr:postcode" v="81479"/>
    <tag k="addr:street" v="Memlingstraße"/>
    <tag k="name" v="19"/>
  </node>
  <node id="532588343" version="2" timestamp="2010-05-08T20:41:07Z" uid="36809" user="pfoten_weg_!_" changeset="4642840" lat="48.0719354" lon="11.517022">
    <tag k="addr:city" v="München"/>
    <tag k="addr:country" v="DE"/>
    <tag k="addr:housename" v="Wohngebäude"/>
    <tag k="addr:housenumber" v="19"/>
    <tag k="addr:postcode" v="81479"/>
    <tag k="addr:street" v="Memlingstraße"/>
    <tag k="name" v="19"/>
  </node>
  <node id="532588360" version="1" timestamp="2009-10-15T21:30:57Z" uid="36809" user="pfoten_weg_!_" changeset="2859787" lat="48.0717504" lon="11.517009">
    <tag k="addr:city" v="München"/>
    <tag k="addr:country" v="DE"/>
    <tag k="addr:housename" v="Wohngebäude"/>
    <tag k="addr:housenumber" v="21"/>
    <tag k="addr:postcode" v="81479"/>
    <tag k="addr:street" v="Memlingstraße"/>
    <tag k="name" v="21"/>
  </node>
  <node id="532588360" version="2" timestamp="2010-05-08T20:40:41Z" uid="36809" user="pfoten_weg_!_" changeset="4642840" lat="48.0717504" lon="11.517009">
    <tag k="addr:city" v="München"/>
    <tag k="addr:country" v="DE"/>
    <tag k="addr:housename" v="Wohngebäude"/>
    <tag k="addr:housenumber" v="21"/>
    <tag k="addr:postcode" v="81479"/>
    <tag k="addr:street" v="Memlingstraße"/>
    <tag k="name" v="21"/>
  </node>
  <node id="532588399" version="1" timestamp="2009-10-15T21:30:57Z" uid="36809" user="pfoten_weg_!_" changeset="2859787" lat="48.0719584" lon="11.516767">
    <tag k="addr:city" v="München"/>
    <tag k="addr:country" v="DE"/>
    <tag k="addr:housename" v="Wohngebäude"/>
    <tag k="addr:housenumber" v="18"/>
    <tag k="addr:postcode" v="81479"/>
    <tag k="addr:street" v="Memlingstraße"/>
    <tag k="name" v="18"/>
  </node>
  <node id="532588399" version="2" timestamp="2010-05-08T20:40:28Z" uid="36809" user="pfoten_weg_!_" changeset="4642840" lat="48.0719584" lon="11.516767">
    <tag k="addr:city" v="München"/>
    <tag k="addr:country" v="DE"/>
    <tag k="addr:housename" v="Wohngebäude"/>
    <tag k="addr:housenumber" v="18"/>
    <tag k="addr:postcode" v="81479"/>
    <tag k="addr:street" v="Memlingstraße"/>
    <tag k="name" v="18"/>
  </node>
  <node id="532588422" version="1" timestamp="2009-10-15T21:30:58Z" uid="36809" user="pfoten_weg_!_" changeset="2859787" lat="48.0717214" lon="11.516759">
    <tag k="addr:city" v="München"/>
    <tag k="addr:country" v="DE"/>
    <tag k="addr:housename" v="Wohngebäude"/>
    <tag k="addr:housenumber" v="20"/>
    <tag k="addr:postcode" v="81479"/>
    <tag k="addr:street" v="Memlingstraße"/>
    <tag k="name" v="20"/>
  </node>
  <node id="532588422" version="2" timestamp="2010-05-08T20:39:52Z" uid="36809" user="pfoten_weg_!_" changeset="4642840" lat="48.0717214" lon="11.516759">
    <tag k="addr:city" v="München"/>
    <tag k="addr:country" v="DE"/>
    <tag k="addr:housename" v="Wohngebäude"/>
    <tag k="addr:housenumber" v="20"/>
    <tag k="addr:postcode" v="81479"/>
    <tag k="addr:street" v="Memlingstraße"/>
    <tag k="name" v="20"/>
  </node>
  <node id="532588440" version="1" timestamp="2009-10-15T21:30:58Z" uid="36809" user="pfoten_weg_!_" changeset="2859787" lat="48.0715744" lon="11.517701">
    <tag k="addr:city" v="München"/>
    <tag k="addr:country" v="DE"/>
    <tag k="addr:housename" v="Wohngebäude"/>
    <tag k="addr:housenumber" v="46"/>
    <tag k="addr:postcode" v="81479"/>
    <tag k="addr:street" v="Stridbeckstraße"/>
    <tag k="name" v="46"/>
  </node>
  <node id="532588440" version="2" timestamp="2010-05-08T20:41:05Z" uid="36809" user="pfoten_weg_!_" changeset="4642840" lat="48.0715744" lon="11.517701">
    <tag k="addr:city" v="München"/>
    <tag k="addr:country" v="DE"/>
    <tag k="addr:housename" v="Wohngebäude"/>
    <tag k="addr:housenumber" v="46"/>
    <tag k="addr:postcode" v="81479"/>
    <tag k="addr:street" v="Stridbeckstraße"/>
    <tag k="name" v="46"/>
  </node>
  <node id="532588469" version="1" timestamp="2009-10-15T21:30:58Z" uid="36809" user="pfoten_weg_!_" changeset="2859787" lat="48.0714604" lon="11.517615">
    <tag k="addr:city" v="München"/>
    <tag k="addr:country" v="DE"/>
    <tag k="addr:housename" v="Wohngebäude"/>
    <tag k="addr:housenumber" v="48"/>
    <tag k="addr:postcode" v="81479"/>
    <tag k="addr:street" v="Stridbeckstraße"/>
    <tag k="name" v="48"/>
  </node>
  <node id="532588469" version="2" timestamp="2010-05-08T20:40:01Z" uid="36809" user="pfoten_weg_!_" changeset="4642840" lat="48.0714604" lon="11.517615">
    <tag k="addr:city" v="München"/>
    <tag k="addr:country" v="DE"/>
    <tag k="addr:housename" v="Wohngebäude"/>
    <tag k="addr:housenumber" v="48"/>
    <tag k="addr:postcode" v="81479"/>
    <tag k="addr:street" v="Stridbeckstraße"/>
    <tag k="name" v="48"/>
  </node>
  <node id="532588485" version="1" timestamp="2009-10-15T21:30:59Z" uid="36809" user="pfoten_weg_!_" changeset="2859787" lat="48.0708904" lon="11.518183">
    <tag k="addr:city" v="München"/>
    <tag k="addr:country" v="DE"/>
    <tag k="addr:housename" v="Wohngebäude"/>
    <tag k="addr:housenumber" v="280"/>
    <tag k="addr:postcode" v="81479"/>
    <tag k="addr:street" v="Wolfratshauser Straße"/>
    <tag k="name" v="280"/>
  </node>
  <node id="532588485" version="2" timestamp="2010-05-08T20:40:26Z" uid="36809" user="pfoten_weg_!_" changeset="4642840" lat="48.0708904" lon="11.518183">
    <tag k="addr:city" v="München"/>
    <tag k="addr:country" v="DE"/>
    <tag k="addr:housename" v="Wohngebäude"/>
    <tag k="addr:housenumber" v="280"/>
    <tag k="addr:postcode" v="81479"/>
    <tag k="addr:street" v="Wolfratshauser Straße"/>
    <tag k="name" v="280"/>
  </node>
  <node id="532588507" version="1" timestamp="2009-10-15T21:30:59Z" uid="36809" user="pfoten_weg_!_" changeset="2859787" lat="48.0710064" lon="11.518462">
    <tag k="addr:city" v="München"/>
    <tag k="addr:country" v="DE"/>
    <tag k="addr:housename" v="Wohngebäude"/>
    <tag k="addr:housenumber" v="278"/>
    <tag k="addr:postcode" v="81479"/>
    <tag k="addr:street" v="Wolfratshauser Straße"/>
    <tag k="name" v="278"/>
  </node>
  <node id="532588507" version="2" timestamp="2010-05-08T20:11:25Z" uid="30579" user="Tiramisu" changeset="4642578" lat="48.0710065" lon="11.518462">
    <tag k="addr:city" v="München"/>
    <tag k="addr:country" v="DE"/>
    <tag k="addr:housenumber" v="278"/>
    <tag k="addr:postcode" v="81479"/>
    <tag k="addr:street" v="Wolfratshauser Straße"/>
  </node>
  <node id="532588507" version="3" timestamp="2010-05-08T20:41:00Z" uid="36809" user="pfoten_weg_!_" changeset="4642840" lat="48.0710065" lon="11.518462">
    <tag k="addr:city" v="München"/>
    <tag k="addr:country" v="DE"/>
    <tag k="addr:housenumber" v="278"/>
    <tag k="addr:postcode" v="81479"/>
    <tag k="addr:street" v="Wolfratshauser Straße"/>
  </node>
  <node id="532588507" version="4" timestamp="2010-05-09T08:38:02Z" uid="145231" user="woodpeck_repair" changeset="4645739" lat="48.0710065" lon="11.518462">
    <tag k="addr:city" v="München"/>
    <tag k="addr:country" v="DE"/>
    <tag k="addr:housenumber" v="278"/>
    <tag k="addr:postcode" v="81479"/>
    <tag k="addr:street" v="Wolfratshauser Straße"/>
  </node>
  <node id="532588528" version="1" timestamp="2009-10-15T21:31:00Z" uid="36809" user="pfoten_weg_!_" changeset="2859787" lat="48.0712084" lon="11.517867">
    <tag k="addr:city" v="München"/>
    <tag k="addr:country" v="DE"/>
    <tag k="addr:housename" v="Wohngebäude"/>
    <tag k="addr:housenumber" v="39"/>
    <tag k="addr:postcode" v="81479"/>
    <tag k="addr:street" v="Stridbeckstraße"/>
    <tag k="name" v="39"/>
  </node>
  <node id="532588528" version="2" timestamp="2010-05-08T20:40:35Z" uid="36809" user="pfoten_weg_!_" changeset="4642840" lat="48.0712084" lon="11.517867">
    <tag k="addr:city" v="München"/>
    <tag k="addr:country" v="DE"/>
    <tag k="addr:housename" v="Wohngebäude"/>
    <tag k="addr:housenumber" v="39"/>
    <tag k="addr:postcode" v="81479"/>
    <tag k="addr:street" v="Stridbeckstraße"/>
    <tag k="name" v="39"/>
  </node>
  <node id="532588558" version="1" timestamp="2009-10-15T21:31:00Z" uid="36809" user="pfoten_weg_!_" changeset="2859787" lat="48.0713494" lon="11.518055">
    <tag k="addr:city" v="München"/>
    <tag k="addr:country" v="DE"/>
    <tag k="addr:housename" v="Wohngebäude"/>
    <tag k="addr:housenumber" v="37"/>
    <tag k="addr:postcode" v="81479"/>
    <tag k="addr:street" v="Stridbeckstraße"/>
    <tag k="name" v="37"/>
  </node>
  <node id="532588558" version="2" timestamp="2010-05-08T20:39:51Z" uid="36809" user="pfoten_weg_!_" changeset="4642840" lat="48.0713494" lon="11.518055">
    <tag k="addr:city" v="München"/>
    <tag k="addr:country" v="DE"/>
    <tag k="addr:housename" v="Wohngebäude"/>
    <tag k="addr:housenumber" v="37"/>
    <tag k="addr:postcode" v="81479"/>
    <tag k="addr:street" v="Stridbeckstraße"/>
    <tag k="name" v="37"/>
  </node>
  <node id="532588571" version="1" timestamp="2009-10-15T21:31:00Z" uid="36809" user="pfoten_weg_!_" changeset="2859787" lat="48.0716714" lon="11.518044">
    <tag k="addr:city" v="München"/>
    <tag k="addr:country" v="DE"/>
    <tag k="addr:housename" v="Wohngebäude"/>
    <tag k="addr:housenumber" v="33"/>
    <tag k="addr:postcode" v="81479"/>
    <tag k="addr:street" v="Stridbeckstraße"/>
    <tag k="name" v="33"/>
  </node>
  <node id="532588571" version="2" timestamp="2010-05-08T20:40:55Z" uid="36809" user="pfoten_weg_!_" changeset="4642840" lat="48.0716714" lon="11.518044">
    <tag k="addr:city" v="München"/>
    <tag k="addr:country" v="DE"/>
    <tag k="addr:housename" v="Wohngebäude"/>
    <tag k="addr:housenumber" v="33"/>
    <tag k="addr:postcode" v="81479"/>
    <tag k="addr:street" v="Stridbeckstraße"/>
    <tag k="name" v="33"/>
  </node>
  <node id="532588593" version="1" timestamp="2009-10-15T21:31:01Z" uid="36809" user="pfoten_weg_!_" changeset="2859787" lat="48.0715554" lon="11.517988">
    <tag k="addr:city" v="München"/>
    <tag k="addr:country" v="DE"/>
    <tag k="addr:housename" v="Wohngebäude"/>
    <tag k="addr:housenumber" v="35"/>
    <tag k="addr:postcode" v="81479"/>
    <tag k="addr:street" v="Stridbeckstraße"/>
    <tag k="name" v="35"/>
  </node>
  <node id="532588593" version="2" timestamp="2010-05-08T20:40:15Z" uid="36809" user="pfoten_weg_!_" changeset="4642840" lat="48.0715554" lon="11.517988">
    <tag k="addr:city" v="München"/>
    <tag k="addr:country" v="DE"/>
    <tag k="addr:housename" v="Wohngebäude"/>
    <tag k="addr:housenumber" v="35"/>
    <tag k="addr:postcode" v="81479"/>
    <tag k="addr:street" v="Stridbeckstraße"/>
    <tag k="name" v="35"/>
  </node>
  <node id="532588613" version="1" timestamp="2009-10-15T21:31:01Z" uid="36809" user="pfoten_weg_!_" changeset="2859787" lat="48.0718504" lon="11.518092">
    <tag k="addr:city" v="München"/>
    <tag k="addr:country" v="DE"/>
    <tag k="addr:housename" v="Wohngebäude"/>
    <tag k="addr:housenumber" v="31"/>
    <tag k="addr:postcode" v="81479"/>
    <tag k="addr:street" v="Stridbeckstraße"/>
    <tag k="name" v="31"/>
  </node>
  <node id="532588613" version="2" timestamp="2010-05-08T20:40:02Z" uid="36809" user="pfoten_weg_!_" changeset="4642840" lat="48.0718504" lon="11.518092">
    <tag k="addr:city" v="München"/>
    <tag k="addr:country" v="DE"/>
    <tag k="addr:housename" v="Wohngebäude"/>
    <tag k="addr:housenumber" v="31"/>
    <tag k="addr:postcode" v="81479"/>
    <tag k="addr:street" v="Stridbeckstraße"/>
    <tag k="name" v="31"/>
  </node>
  <node id="532588655" version="1" timestamp="2009-10-15T21:31:02Z" uid="36809" user="pfoten_weg_!_" changeset="2859787" lat="48.0717894" lon="11.517803">
    <tag k="addr:city" v="München"/>
    <tag k="addr:country" v="DE"/>
    <tag k="addr:housename" v="Wohngebäude"/>
    <tag k="addr:housenumber" v="44"/>
    <tag k="addr:postcode" v="81479"/>
    <tag k="addr:street" v="Stridbeckstraße"/>
    <tag k="name" v="44"/>
  </node>
  <node id="532588655" version="2" timestamp="2010-05-08T20:41:02Z" uid="36809" user="pfoten_weg_!_" changeset="4642840" lat="48.0717894" lon="11.517803">
    <tag k="addr:city" v="München"/>
    <tag k="addr:country" v="DE"/>
    <tag k="addr:housename" v="Wohngebäude"/>
    <tag k="addr:housenumber" v="44"/>
    <tag k="addr:postcode" v="81479"/>
    <tag k="addr:street" v="Stridbeckstraße"/>
    <tag k="name" v="44"/>
  </node>
  <node id="532588686" version="1" timestamp="2009-10-15T21:31:02Z" uid="36809" user="pfoten_weg_!_" changeset="2859787" lat="48.0720244" lon="11.518138">
    <tag k="addr:city" v="München"/>
    <tag k="addr:country" v="DE"/>
    <tag k="addr:housename" v="Wohngebäude"/>
    <tag k="addr:housenumber" v="29"/>
    <tag k="addr:postcode" v="81479"/>
    <tag k="addr:street" v="Stridbeckstraße"/>
    <tag k="name" v="29"/>
  </node>
  <node id="532588686" version="2" timestamp="2010-05-08T20:40:48Z" uid="36809" user="pfoten_weg_!_" changeset="4642840" lat="48.0720244" lon="11.518138">
    <tag k="addr:city" v="München"/>
    <tag k="addr:country" v="DE"/>
    <tag k="addr:housename" v="Wohngebäude"/>
    <tag k="addr:housenumber" v="29"/>
    <tag k="addr:postcode" v="81479"/>
    <tag k="addr:street" v="Stridbeckstraße"/>
    <tag k="name" v="29"/>
  </node>
  <node id="532588707" version="1" timestamp="2009-10-15T21:31:03Z" uid="36809" user="pfoten_weg_!_" changeset="2859787" lat="48.0719624" lon="11.517851">
    <tag k="addr:city" v="München"/>
    <tag k="addr:country" v="DE"/>
    <tag k="addr:housename" v="Wohngebäude"/>
    <tag k="addr:housenumber" v="42"/>
    <tag k="addr:postcode" v="81479"/>
    <tag k="addr:street" v="Stridbeckstraße"/>
    <tag k="name" v="42"/>
  </node>
  <node id="532588707" version="2" timestamp="2010-05-08T20:40:59Z" uid="36809" user="pfoten_weg_!_" changeset="4642840" lat="48.0719624" lon="11.517851">
    <tag k="addr:city" v="München"/>
    <tag k="addr:country" v="DE"/>
    <tag k="addr:housename" v="Wohngebäude"/>
    <tag k="addr:housenumber" v="42"/>
    <tag k="addr:postcode" v="81479"/>
    <tag k="addr:street" v="Stridbeckstraße"/>
    <tag k="name" v="42"/>
  </node>
  <node id="532588743" version="1" timestamp="2009-10-15T21:31:03Z" uid="36809" user="pfoten_weg_!_" changeset="2859787" lat="48.0723714" lon="11.516698">
    <tag k="addr:city" v="München"/>
    <tag k="addr:country" v="DE"/>
    <tag k="addr:housename" v="Wohngebäude"/>
    <tag k="addr:housenumber" v="57"/>
    <tag k="addr:postcode" v="81479"/>
    <tag k="addr:street" v="Melchiorstraße"/>
    <tag k="name" v="57"/>
  </node>
  <node id="532588743" version="2" timestamp="2010-05-08T20:00:54Z" uid="30579" user="Tiramisu" changeset="4642499" lat="48.0723714" lon="11.5166979">
    <tag k="addr:city" v="München"/>
    <tag k="addr:country" v="DE"/>
    <tag k="addr:housenumber" v="57"/>
    <tag k="addr:postcode" v="81479"/>
    <tag k="addr:street" v="Melchiorstraße"/>
  </node>
  <node id="532588743" version="3" timestamp="2010-05-08T20:39:53Z" uid="36809" user="pfoten_weg_!_" changeset="4642840" lat="48.0723714" lon="11.5166979">
    <tag k="addr:city" v="München"/>
    <tag k="addr:country" v="DE"/>
    <tag k="addr:housenumber" v="57"/>
    <tag k="addr:postcode" v="81479"/>
    <tag k="addr:street" v="Melchiorstraße"/>
  </node>
  <node id="532588743" version="4" timestamp="2010-05-09T08:37:59Z" uid="145231" user="woodpeck_repair" changeset="4645739" lat="48.0723714" lon="11.5166979">
    <tag k="addr:city" v="München"/>
    <tag k="addr:country" v="DE"/>
    <tag k="addr:housenumber" v="57"/>
    <tag k="addr:postcode" v="81479"/>
    <tag k="addr:street" v="Melchiorstraße"/>
  </node>
  <node id="532588775" version="1" timestamp="2009-10-15T21:31:04Z" uid="36809" user="pfoten_weg_!_" changeset="2859787" lat="48.0723884" lon="11.517079">
    <tag k="addr:city" v="München"/>
    <tag k="addr:country" v="DE"/>
    <tag k="addr:housename" v="Wohngebäude"/>
    <tag k="addr:housenumber" v="55"/>
    <tag k="addr:postcode" v="81479"/>
    <tag k="addr:street" v="Melchiorstraße"/>
    <tag k="name" v="55"/>
  </node>
  <node id="532588775" version="2" timestamp="2010-05-08T20:01:01Z" uid="30579" user="Tiramisu" changeset="4642499" lat="48.0723885" lon="11.5170789">
    <tag k="addr:city" v="München"/>
    <tag k="addr:country" v="DE"/>
    <tag k="addr:housenumber" v="55"/>
    <tag k="addr:postcode" v="81479"/>
    <tag k="addr:street" v="Melchiorstraße"/>
  </node>
  <node id="532588775" version="3" timestamp="2010-05-08T20:40:03Z" uid="36809" user="pfoten_weg_!_" changeset="4642840" lat="48.0723885" lon="11.5170789">
    <tag k="addr:city" v="München"/>
    <tag k="addr:country" v="DE"/>
    <tag k="addr:housenumber" v="55"/>
    <tag k="addr:postcode" v="81479"/>
    <tag k="addr:street" v="Melchiorstraße"/>
  </node>
  <node id="532588775" version="4" timestamp="2010-05-09T08:37:59Z" uid="145231" user="woodpeck_repair" changeset="4645739" lat="48.0723885" lon="11.5170789">
    <tag k="addr:city" v="München"/>
    <tag k="addr:country" v="DE"/>
    <tag k="addr:housenumber" v="55"/>
    <tag k="addr:postcode" v="81479"/>
    <tag k="addr:street" v="Melchiorstraße"/>
  </node>
  <node id="532588815" version="1" timestamp="2009-10-15T21:31:05Z" uid="36809" user="pfoten_weg_!_" changeset="2859787" lat="48.0721524" lon="11.517035">
    <tag k="addr:city" v="München"/>
    <tag k="addr:country" v="DE"/>
    <tag k="addr:housename" v="Wohngebäude"/>
    <tag k="addr:housenumber" v="17"/>
    <tag k="addr:postcode" v="81479"/>
    <tag k="addr:street" v="Memlingstraße"/>
    <tag k="name" v="17"/>
  </node>
  <node id="532588815" version="2" timestamp="2010-05-08T20:39:56Z" uid="36809" user="pfoten_weg_!_" changeset="4642840" lat="48.0721524" lon="11.517035">
    <tag k="addr:city" v="München"/>
    <tag k="addr:country" v="DE"/>
    <tag k="addr:housename" v="Wohngebäude"/>
    <tag k="addr:housenumber" v="17"/>
    <tag k="addr:postcode" v="81479"/>
    <tag k="addr:street" v="Memlingstraße"/>
    <tag k="name" v="17"/>
  </node>
  <node id="532588840" version="1" timestamp="2009-10-15T21:31:05Z" uid="36809" user="pfoten_weg_!_" changeset="2859787" lat="48.0723794" lon="11.516488">
    <tag k="addr:city" v="München"/>
    <tag k="addr:country" v="DE"/>
    <tag k="addr:housename" v="Wohngebäude"/>
    <tag k="addr:housenumber" v="59"/>
    <tag k="addr:postcode" v="81479"/>
    <tag k="addr:street" v="Melchiorstraße"/>
    <tag k="name" v="59"/>
  </node>
  <node id="532588840" version="2" timestamp="2010-05-08T20:01:02Z" uid="30579" user="Tiramisu" changeset="4642499" lat="48.0723794" lon="11.516488">
    <tag k="addr:city" v="München"/>
    <tag k="addr:country" v="DE"/>
    <tag k="addr:housenumber" v="59"/>
    <tag k="addr:postcode" v="81479"/>
    <tag k="addr:street" v="Melchiorstraße"/>
  </node>
  <node id="532588840" version="3" timestamp="2010-05-08T20:40:29Z" uid="36809" user="pfoten_weg_!_" changeset="4642840" lat="48.0723794" lon="11.516488">
    <tag k="addr:city" v="München"/>
    <tag k="addr:country" v="DE"/>
    <tag k="addr:housenumber" v="59"/>
    <tag k="addr:postcode" v="81479"/>
    <tag k="addr:street" v="Melchiorstraße"/>
  </node>
  <node id="532588840" version="4" timestamp="2010-05-09T08:37:58Z" uid="145231" user="woodpeck_repair" changeset="4645739" lat="48.0723794" lon="11.516488">
    <tag k="addr:city" v="München"/>
    <tag k="addr:country" v="DE"/>
    <tag k="addr:housenumber" v="59"/>
    <tag k="addr:postcode" v="81479"/>
    <tag k="addr:street" v="Melchiorstraße"/>
  </node>
  <node id="532588867" version="1" timestamp="2009-10-15T21:31:05Z" uid="36809" user="pfoten_weg_!_" changeset="2859787" lat="48.0721374" lon="11.516778">
    <tag k="addr:city" v="München"/>
    <tag k="addr:country" v="DE"/>
    <tag k="addr:housename" v="Wohngebäude"/>
    <tag k="addr:housenumber" v="16"/>
    <tag k="addr:postcode" v="81479"/>
    <tag k="addr:street" v="Memlingstraße"/>
    <tag k="name" v="16"/>
  </node>
  <node id="532588867" version="2" timestamp="2010-05-08T20:39:52Z" uid="36809" user="pfoten_weg_!_" changeset="4642840" lat="48.0721374" lon="11.516778">
    <tag k="addr:city" v="München"/>
    <tag k="addr:country" v="DE"/>
    <tag k="addr:housename" v="Wohngebäude"/>
    <tag k="addr:housenumber" v="16"/>
    <tag k="addr:postcode" v="81479"/>
    <tag k="addr:street" v="Memlingstraße"/>
    <tag k="name" v="16"/>
  </node>
  <node id="532588889" version="1" timestamp="2009-10-15T21:31:06Z" uid="36809" user="pfoten_weg_!_" changeset="2859787" lat="48.0726438" lon="11.516483">
    <tag k="addr:city" v="München"/>
    <tag k="addr:country" v="DE"/>
    <tag k="addr:housenumber" v="44"/>
    <tag k="addr:postcode" v="81477"/>
    <tag k="name" v="44"/>
  </node>
  <node id="532588889" version="2" timestamp="2010-05-08T19:45:47Z" uid="30579" user="Tiramisu" changeset="4642350" lat="48.0726439" lon="11.5164829">
    <tag k="addr:city" v="München"/>
    <tag k="addr:country" v="DE"/>
    <tag k="addr:housenumber" v="44"/>
    <tag k="addr:postcode" v="81477"/>
  </node>
  <node id="532588889" version="3" timestamp="2010-05-08T20:40:29Z" uid="36809" user="pfoten_weg_!_" changeset="4642840" lat="48.0726439" lon="11.5164829">
    <tag k="addr:city" v="München"/>
    <tag k="addr:country" v="DE"/>
    <tag k="addr:housenumber" v="44"/>
    <tag k="addr:postcode" v="81477"/>
  </node>
  <node id="532588889" version="4" timestamp="2010-05-09T08:37:57Z" uid="145231" user="woodpeck_repair" changeset="4645739" lat="48.0726439" lon="11.5164829">
    <tag k="addr:city" v="München"/>
    <tag k="addr:country" v="DE"/>
    <tag k="addr:housenumber" v="44"/>
    <tag k="addr:postcode" v="81477"/>
  </node>
  <node id="532588915" version="1" timestamp="2009-10-15T21:31:06Z" uid="36809" user="pfoten_weg_!_" changeset="2859787" lat="48.0726947" lon="11.5170188">
    <tag k="addr:city" v="München"/>
    <tag k="addr:country" v="DE"/>
    <tag k="addr:housename" v="Wohngebäude"/>
    <tag k="addr:housenumber" v="15"/>
    <tag k="name" v="15"/>
  </node>
  <node id="532588915" version="2" timestamp="2010-05-08T19:45:50Z" uid="30579" user="Tiramisu" changeset="4642350" lat="48.0726948" lon="11.5170187">
    <tag k="addr:city" v="München"/>
    <tag k="addr:country" v="DE"/>
    <tag k="addr:housenumber" v="15"/>
  </node>
  <node id="532588915" version="3" timestamp="2010-05-08T20:01:05Z" uid="30579" user="Tiramisu" changeset="4642499" lat="48.0726949" lon="11.5170187">
    <tag k="addr:city" v="München"/>
    <tag k="addr:country" v="DE"/>
    <tag k="addr:housenumber" v="15"/>
    <tag k="addr:street" v="Memlingstraße"/>
  </node>
  <node id="532588915" version="4" timestamp="2010-05-08T20:40:45Z" uid="36809" user="pfoten_weg_!_" changeset="4642840" lat="48.0726949" lon="11.5170187">
    <tag k="addr:city" v="München"/>
    <tag k="addr:country" v="DE"/>
    <tag k="addr:housenumber" v="15"/>
    <tag k="addr:street" v="Memlingstraße"/>
  </node>
  <node id="532588915" version="5" timestamp="2010-05-09T08:37:56Z" uid="145231" user="woodpeck_repair" changeset="4645739" lat="48.0726949" lon="11.5170187">
    <tag k="addr:city" v="München"/>
    <tag k="addr:country" v="DE"/>
    <tag k="addr:housenumber" v="15"/>
    <tag k="addr:street" v="Memlingstraße"/>
  </node>
  <node id="532588940" version="1" timestamp="2009-10-15T21:31:07Z" uid="36809" user="pfoten_weg_!_" changeset="2859787" lat="48.0726388" lon="11.516661">
    <tag k="addr:city" v="München"/>
    <tag k="addr:country" v="DE"/>
    <tag k="addr:housenumber" v="42"/>
    <tag k="addr:postcode" v="81477"/>
    <tag k="name" v="42"/>
  </node>
  <node id="532588940" version="2" timestamp="2010-05-08T19:45:49Z" uid="30579" user="Tiramisu" changeset="4642350" lat="48.0726388" lon="11.5166609">
    <tag k="addr:city" v="München"/>
    <tag k="addr:country" v="DE"/>
    <tag k="addr:housenumber" v="42"/>
    <tag k="addr:postcode" v="81477"/>
  </node>
  <node id="532588940" version="3" timestamp="2010-05-08T20:40:40Z" uid="36809" user="pfoten_weg_!_" changeset="4642840" lat="48.0726388" lon="11.5166609">
    <tag k="addr:city" v="München"/>
    <tag k="addr:country" v="DE"/>
    <tag k="addr:housenumber" v="42"/>
    <tag k="addr:postcode" v="81477"/>
  </node>
  <node id="532588940" version="4" timestamp="2010-05-09T08:37:55Z" uid="145231" user="woodpeck_repair" changeset="4645739" lat="48.0726388" lon="11.5166609">
    <tag k="addr:city" v="München"/>
    <tag k="addr:country" v="DE"/>
    <tag k="addr:housenumber" v="42"/>
    <tag k="addr:postcode" v="81477"/>
  </node>
  <node id="532588965" version="1" timestamp="2009-10-15T21:31:07Z" uid="36809" user="pfoten_weg_!_" changeset="2859787" lat="48.0723564" lon="11.517293">
    <tag k="addr:city" v="München"/>
    <tag k="addr:country" v="DE"/>
    <tag k="addr:housename" v="Wohngebäude"/>
    <tag k="addr:housenumber" v="53"/>
    <tag k="addr:postcode" v="81479"/>
    <tag k="addr:street" v="Melchiorstraße"/>
    <tag k="name" v="53"/>
  </node>
  <node id="532588965" version="2" timestamp="2010-05-08T20:00:57Z" uid="30579" user="Tiramisu" changeset="4642499" lat="48.0723565" lon="11.5172929">
    <tag k="addr:city" v="München"/>
    <tag k="addr:country" v="DE"/>
    <tag k="addr:housenumber" v="53"/>
    <tag k="addr:postcode" v="81479"/>
    <tag k="addr:street" v="Melchiorstraße"/>
  </node>
  <node id="532588965" version="3" timestamp="2010-05-08T20:40:14Z" uid="36809" user="pfoten_weg_!_" changeset="4642840" lat="48.0723565" lon="11.5172929">
    <tag k="addr:city" v="München"/>
    <tag k="addr:country" v="DE"/>
    <tag k="addr:housenumber" v="53"/>
    <tag k="addr:postcode" v="81479"/>
    <tag k="addr:street" v="Melchiorstraße"/>
  </node>
  <node id="532588965" version="4" timestamp="2010-05-09T08:37:55Z" uid="145231" user="woodpeck_repair" changeset="4645739" lat="48.0723565" lon="11.5172929">
    <tag k="addr:city" v="München"/>
    <tag k="addr:country" v="DE"/>
    <tag k="addr:housenumber" v="53"/>
    <tag k="addr:postcode" v="81479"/>
    <tag k="addr:street" v="Melchiorstraße"/>
  </node>
  <node id="532588994" version="1" timestamp="2009-10-15T21:31:08Z" uid="36809" user="pfoten_weg_!_" changeset="2859787" lat="48.0723314" lon="11.517653">
    <tag k="addr:city" v="München"/>
    <tag k="addr:country" v="DE"/>
    <tag k="addr:housename" v="Wohngebäude"/>
    <tag k="addr:housenumber" v="51"/>
    <tag k="addr:postcode" v="81479"/>
    <tag k="addr:street" v="Melchiorstraße"/>
    <tag k="name" v="51"/>
  </node>
  <node id="532588994" version="2" timestamp="2010-05-08T20:01:05Z" uid="30579" user="Tiramisu" changeset="4642499" lat="48.0723314" lon="11.517653">
    <tag k="addr:city" v="München"/>
    <tag k="addr:country" v="DE"/>
    <tag k="addr:housename" v="Wohngebäude"/>
    <tag k="addr:housenumber" v="51"/>
    <tag k="addr:postcode" v="81479"/>
    <tag k="addr:street" v="Melchiorstraße"/>
    <tag k="name" v="51"/>
  </node>
  <node id="532589023" version="1" timestamp="2009-10-15T21:31:08Z" uid="36809" user="pfoten_weg_!_" changeset="2859787" lat="48.0723314" lon="11.517647">
    <tag k="addr:city" v="München"/>
    <tag k="addr:country" v="DE"/>
    <tag k="addr:housename" v="Wohngebäude"/>
    <tag k="addr:housenumber" v="51"/>
    <tag k="addr:postcode" v="81479"/>
    <tag k="addr:street" v="Melchiorstraße"/>
    <tag k="name" v="51"/>
  </node>
  <node id="532589023" version="2" timestamp="2010-05-08T20:39:44Z" uid="36809" user="pfoten_weg_!_" changeset="4642840" lat="48.0723314" lon="11.517647">
    <tag k="addr:city" v="München"/>
    <tag k="addr:country" v="DE"/>
    <tag k="addr:housename" v="Wohngebäude"/>
    <tag k="addr:housenumber" v="51"/>
    <tag k="addr:postcode" v="81479"/>
    <tag k="addr:street" v="Melchiorstraße"/>
    <tag k="name" v="51"/>
  </node>
  <node id="532589070" version="1" timestamp="2009-10-15T21:31:09Z" uid="36809" user="pfoten_weg_!_" changeset="2859787" lat="48.0723434" lon="11.517292">
    <tag k="addr:city" v="München"/>
    <tag k="addr:country" v="DE"/>
    <tag k="addr:housename" v="Wohngebäude"/>
    <tag k="addr:housenumber" v="53"/>
    <tag k="addr:postcode" v="81479"/>
    <tag k="addr:street" v="Melchiorstraße"/>
    <tag k="name" v="53"/>
  </node>
  <node id="532589070" version="2" timestamp="2010-05-08T20:01:05Z" uid="30579" user="Tiramisu" changeset="4642499" lat="48.0723434" lon="11.517292">
    <tag k="addr:city" v="München"/>
    <tag k="addr:country" v="DE"/>
    <tag k="addr:housename" v="Wohngebäude"/>
    <tag k="addr:housenumber" v="53"/>
    <tag k="addr:postcode" v="81479"/>
    <tag k="addr:street" v="Melchiorstraße"/>
    <tag k="name" v="53"/>
  </node>
  <node id="532589098" version="1" timestamp="2009-10-15T21:31:10Z" uid="36809" user="pfoten_weg_!_" changeset="2859787" lat="48.0723544" lon="11.517145">
    <tag k="addr:city" v="München"/>
    <tag k="addr:country" v="DE"/>
    <tag k="addr:housename" v="Wohngebäude"/>
    <tag k="addr:housenumber" v="55"/>
    <tag k="addr:postcode" v="81479"/>
    <tag k="addr:street" v="Melchiorstraße"/>
    <tag k="name" v="55"/>
  </node>
  <node id="532589098" version="2" timestamp="2010-05-08T20:00:53Z" uid="30579" user="Tiramisu" changeset="4642499" lat="48.0723544" lon="11.517145">
    <tag k="addr:city" v="München"/>
    <tag k="addr:country" v="DE"/>
    <tag k="addr:housenumber" v="55"/>
    <tag k="addr:postcode" v="81479"/>
    <tag k="addr:street" v="Melchiorstraße"/>
  </node>
  <node id="532589098" version="3" timestamp="2010-05-08T20:39:56Z" uid="36809" user="pfoten_weg_!_" changeset="4642840" lat="48.0723544" lon="11.517145">
    <tag k="addr:city" v="München"/>
    <tag k="addr:country" v="DE"/>
    <tag k="addr:housenumber" v="55"/>
    <tag k="addr:postcode" v="81479"/>
    <tag k="addr:street" v="Melchiorstraße"/>
  </node>
  <node id="532589098" version="4" timestamp="2010-05-09T08:37:54Z" uid="145231" user="woodpeck_repair" changeset="4645739" lat="48.0723544" lon="11.517145">
    <tag k="addr:city" v="München"/>
    <tag k="addr:country" v="DE"/>
    <tag k="addr:housenumber" v="55"/>
    <tag k="addr:postcode" v="81479"/>
    <tag k="addr:street" v="Melchiorstraße"/>
  </node>
  <node id="532589134" version="1" timestamp="2009-10-15T21:31:11Z" uid="36809" user="pfoten_weg_!_" changeset="2859787" lat="48.0726742" lon="11.5177355">
    <tag k="addr:city" v="München"/>
    <tag k="addr:country" v="DE"/>
    <tag k="addr:housename" v="Wohngebäude"/>
    <tag k="addr:housenumber" v="36"/>
    <tag k="addr:postcode" v="81479"/>
    <tag k="addr:street" v="Stridbeckstraße"/>
    <tag k="name" v="36"/>
  </node>
  <node id="532589134" version="2" timestamp="2010-05-08T20:00:51Z" uid="30579" user="Tiramisu" changeset="4642499" lat="48.0726742" lon="11.5177355">
    <tag k="addr:city" v="München"/>
    <tag k="addr:country" v="DE"/>
    <tag k="addr:housenumber" v="36"/>
    <tag k="addr:postcode" v="81479"/>
    <tag k="addr:street" v="Stridbeckstraße"/>
  </node>
  <node id="532589134" version="3" timestamp="2010-05-08T20:40:27Z" uid="36809" user="pfoten_weg_!_" changeset="4642840" lat="48.0726742" lon="11.5177355">
    <tag k="addr:city" v="München"/>
    <tag k="addr:country" v="DE"/>
    <tag k="addr:housenumber" v="36"/>
    <tag k="addr:postcode" v="81479"/>
    <tag k="addr:street" v="Stridbeckstraße"/>
  </node>
  <node id="532589134" version="4" timestamp="2010-05-09T08:37:53Z" uid="145231" user="woodpeck_repair" changeset="4645739" lat="48.0726742" lon="11.5177355">
    <tag k="addr:city" v="München"/>
    <tag k="addr:country" v="DE"/>
    <tag k="addr:housenumber" v="36"/>
    <tag k="addr:postcode" v="81479"/>
    <tag k="addr:street" v="Stridbeckstraße"/>
  </node>
  <node id="532589168" version="1" timestamp="2009-10-15T21:31:12Z" uid="36809" user="pfoten_weg_!_" changeset="2859787" lat="48.0727748" lon="11.516491">
    <tag k="addr:city" v="München"/>
    <tag k="addr:country" v="DE"/>
    <tag k="addr:housenumber" v="44A"/>
    <tag k="addr:postcode" v="81477"/>
    <tag k="name" v="44A"/>
  </node>
  <node id="532589168" version="2" timestamp="2010-05-08T19:45:48Z" uid="30579" user="Tiramisu" changeset="4642350" lat="48.0727749" lon="11.516491">
    <tag k="addr:city" v="München"/>
    <tag k="addr:country" v="DE"/>
    <tag k="addr:housenumber" v="44A"/>
    <tag k="addr:postcode" v="81477"/>
  </node>
  <node id="532589168" version="3" timestamp="2010-05-08T20:41:05Z" uid="36809" user="pfoten_weg_!_" changeset="4642840" lat="48.0727749" lon="11.516491">
    <tag k="addr:city" v="München"/>
    <tag k="addr:country" v="DE"/>
    <tag k="addr:housenumber" v="44A"/>
    <tag k="addr:postcode" v="81477"/>
  </node>
  <node id="532589168" version="4" timestamp="2010-05-09T08:37:53Z" uid="145231" user="woodpeck_repair" changeset="4645739" lat="48.0727749" lon="11.516491">
    <tag k="addr:city" v="München"/>
    <tag k="addr:country" v="DE"/>
    <tag k="addr:housenumber" v="44A"/>
    <tag k="addr:postcode" v="81477"/>
  </node>
  <node id="532589221" version="1" timestamp="2009-10-15T21:31:12Z" uid="36809" user="pfoten_weg_!_" changeset="2859787" lat="48.0721444" lon="11.517851">
    <tag k="addr:city" v="München"/>
    <tag k="addr:country" v="DE"/>
    <tag k="addr:housename" v="Wohngebäude"/>
    <tag k="addr:housenumber" v="40"/>
    <tag k="addr:postcode" v="81479"/>
    <tag k="addr:street" v="Stridbeckstraße"/>
    <tag k="name" v="40"/>
  </node>
  <node id="532589221" version="2" timestamp="2010-05-08T20:40:47Z" uid="36809" user="pfoten_weg_!_" changeset="4642840" lat="48.0721444" lon="11.517851">
    <tag k="addr:city" v="München"/>
    <tag k="addr:country" v="DE"/>
    <tag k="addr:housename" v="Wohngebäude"/>
    <tag k="addr:housenumber" v="40"/>
    <tag k="addr:postcode" v="81479"/>
    <tag k="addr:street" v="Stridbeckstraße"/>
    <tag k="name" v="40"/>
  </node>
  <node id="532589274" version="1" timestamp="2009-10-15T21:31:13Z" uid="36809" user="pfoten_weg_!_" changeset="2859787" lat="48.0722833" lon="11.5178763">
    <tag k="addr:city" v="München"/>
    <tag k="addr:country" v="DE"/>
    <tag k="addr:housename" v="Wohngebäude"/>
    <tag k="addr:housenumber" v="38"/>
    <tag k="addr:postcode" v="81479"/>
    <tag k="addr:street" v="Stridbeckstraße"/>
    <tag k="name" v="49"/>
  </node>
  <node id="532589274" version="2" timestamp="2010-05-08T20:00:50Z" uid="30579" user="Tiramisu" changeset="4642499" lat="48.0722834" lon="11.5178762">
    <tag k="addr:city" v="München"/>
    <tag k="addr:country" v="DE"/>
    <tag k="addr:housenumber" v="38"/>
    <tag k="addr:postcode" v="81479"/>
    <tag k="addr:street" v="Stridbeckstraße"/>
  </node>
  <node id="532589274" version="3" timestamp="2010-05-08T20:41:09Z" uid="36809" user="pfoten_weg_!_" changeset="4642840" lat="48.0722834" lon="11.5178762">
    <tag k="addr:city" v="München"/>
    <tag k="addr:country" v="DE"/>
    <tag k="addr:housenumber" v="38"/>
    <tag k="addr:postcode" v="81479"/>
    <tag k="addr:street" v="Stridbeckstraße"/>
  </node>
  <node id="532589274" version="4" timestamp="2010-05-09T08:37:52Z" uid="145231" user="woodpeck_repair" changeset="4645739" lat="48.0722834" lon="11.5178762">
    <tag k="addr:city" v="München"/>
    <tag k="addr:country" v="DE"/>
    <tag k="addr:housenumber" v="38"/>
    <tag k="addr:postcode" v="81479"/>
    <tag k="addr:street" v="Stridbeckstraße"/>
  </node>
  <node id="532589288" version="1" timestamp="2009-10-15T21:31:14Z" uid="36809" user="pfoten_weg_!_" changeset="2859787" lat="48.0723084" lon="11.518451">
    <tag k="addr:city" v="München"/>
    <tag k="addr:country" v="DE"/>
    <tag k="addr:housename" v="Wohngebäude"/>
    <tag k="addr:housenumber" v="47"/>
    <tag k="addr:postcode" v="81479"/>
    <tag k="addr:street" v="Melchiorstraße"/>
    <tag k="name" v="47"/>
  </node>
  <node id="532589288" version="2" timestamp="2010-05-08T20:01:00Z" uid="30579" user="Tiramisu" changeset="4642499" lat="48.0723085" lon="11.518451">
    <tag k="addr:city" v="München"/>
    <tag k="addr:country" v="DE"/>
    <tag k="addr:housenumber" v="47"/>
    <tag k="addr:postcode" v="81479"/>
    <tag k="addr:street" v="Melchiorstraße"/>
  </node>
  <node id="532589288" version="3" timestamp="2010-05-08T20:40:07Z" uid="36809" user="pfoten_weg_!_" changeset="4642840" lat="48.0723085" lon="11.518451">
    <tag k="addr:city" v="München"/>
    <tag k="addr:country" v="DE"/>
    <tag k="addr:housenumber" v="47"/>
    <tag k="addr:postcode" v="81479"/>
    <tag k="addr:street" v="Melchiorstraße"/>
  </node>
  <node id="532589288" version="4" timestamp="2010-05-09T08:37:52Z" uid="145231" user="woodpeck_repair" changeset="4645739" lat="48.0723085" lon="11.518451">
    <tag k="addr:city" v="München"/>
    <tag k="addr:country" v="DE"/>
    <tag k="addr:housenumber" v="47"/>
    <tag k="addr:postcode" v="81479"/>
    <tag k="addr:street" v="Melchiorstraße"/>
  </node>
  <node id="532589335" version="1" timestamp="2009-10-15T21:31:14Z" uid="36809" user="pfoten_weg_!_" changeset="2859787" lat="48.0723064" lon="11.518199">
    <tag k="addr:city" v="München"/>
    <tag k="addr:country" v="DE"/>
    <tag k="addr:housename" v="Wohngebäude"/>
    <tag k="addr:housenumber" v="49"/>
    <tag k="addr:postcode" v="81479"/>
    <tag k="addr:street" v="Melchiorstraße"/>
    <tag k="name" v="49"/>
  </node>
  <node id="532589335" version="2" timestamp="2010-05-08T20:01:02Z" uid="30579" user="Tiramisu" changeset="4642499" lat="48.0723065" lon="11.518199">
    <tag k="addr:city" v="München"/>
    <tag k="addr:country" v="DE"/>
    <tag k="addr:housenumber" v="49"/>
    <tag k="addr:postcode" v="81479"/>
    <tag k="addr:street" v="Melchiorstraße"/>
  </node>
  <node id="532589335" version="3" timestamp="2010-05-08T20:41:14Z" uid="36809" user="pfoten_weg_!_" changeset="4642840" lat="48.0723065" lon="11.518199">
    <tag k="addr:city" v="München"/>
    <tag k="addr:country" v="DE"/>
    <tag k="addr:housenumber" v="49"/>
    <tag k="addr:postcode" v="81479"/>
    <tag k="addr:street" v="Melchiorstraße"/>
  </node>
  <node id="532589335" version="4" timestamp="2010-05-09T08:37:51Z" uid="145231" user="woodpeck_repair" changeset="4645739" lat="48.0723065" lon="11.518199">
    <tag k="addr:city" v="München"/>
    <tag k="addr:country" v="DE"/>
    <tag k="addr:housenumber" v="49"/>
    <tag k="addr:postcode" v="81479"/>
    <tag k="addr:street" v="Melchiorstraße"/>
  </node>
  <node id="532589352" version="1" timestamp="2009-10-15T21:31:15Z" uid="36809" user="pfoten_weg_!_" changeset="2859787" lat="48.0727988" lon="11.5178474">
    <tag k="addr:city" v="München"/>
    <tag k="addr:country" v="DE"/>
    <tag k="addr:housename" v="Wohngebäude"/>
    <tag k="addr:housenumber" v="34A"/>
    <tag k="addr:postcode" v="81479"/>
    <tag k="addr:street" v="Stridbeckstraße"/>
    <tag k="name" v="34A"/>
  </node>
  <node id="532589352" version="2" timestamp="2010-05-08T20:01:03Z" uid="30579" user="Tiramisu" changeset="4642499" lat="48.0727988" lon="11.5178473">
    <tag k="addr:city" v="München"/>
    <tag k="addr:country" v="DE"/>
    <tag k="addr:housenumber" v="34A"/>
    <tag k="addr:postcode" v="81479"/>
    <tag k="addr:street" v="Stridbeckstraße"/>
  </node>
  <node id="532589352" version="3" timestamp="2010-05-08T20:39:48Z" uid="36809" user="pfoten_weg_!_" changeset="4642840" lat="48.0727988" lon="11.5178473">
    <tag k="addr:city" v="München"/>
    <tag k="addr:country" v="DE"/>
    <tag k="addr:housenumber" v="34A"/>
    <tag k="addr:postcode" v="81479"/>
    <tag k="addr:street" v="Stridbeckstraße"/>
  </node>
  <node id="532589352" version="4" timestamp="2010-05-09T08:37:51Z" uid="145231" user="woodpeck_repair" changeset="4645739" lat="48.0727988" lon="11.5178473">
    <tag k="addr:city" v="München"/>
    <tag k="addr:country" v="DE"/>
    <tag k="addr:housenumber" v="34A"/>
    <tag k="addr:postcode" v="81479"/>
    <tag k="addr:street" v="Stridbeckstraße"/>
  </node>
  <node id="532589375" version="1" timestamp="2009-10-15T21:31:15Z" uid="36809" user="pfoten_weg_!_" changeset="2859787" lat="48.0728728" lon="11.5178656">
    <tag k="addr:city" v="München"/>
    <tag k="addr:country" v="DE"/>
    <tag k="addr:housename" v="Wohngebäude"/>
    <tag k="addr:housenumber" v="34"/>
    <tag k="addr:postcode" v="81479"/>
    <tag k="addr:street" v="Stridbeckstraße"/>
    <tag k="name" v="34"/>
  </node>
  <node id="532589375" version="2" timestamp="2010-05-08T20:00:55Z" uid="30579" user="Tiramisu" changeset="4642499" lat="48.0728728" lon="11.5178656">
    <tag k="addr:city" v="München"/>
    <tag k="addr:country" v="DE"/>
    <tag k="addr:housenumber" v="34"/>
    <tag k="addr:postcode" v="81479"/>
    <tag k="addr:street" v="Stridbeckstraße"/>
  </node>
  <node id="532589375" version="3" timestamp="2010-05-08T20:40:09Z" uid="36809" user="pfoten_weg_!_" changeset="4642840" lat="48.0728728" lon="11.5178656">
    <tag k="addr:city" v="München"/>
    <tag k="addr:country" v="DE"/>
    <tag k="addr:housenumber" v="34"/>
    <tag k="addr:postcode" v="81479"/>
    <tag k="addr:street" v="Stridbeckstraße"/>
  </node>
  <node id="532589375" version="4" timestamp="2010-05-09T08:37:50Z" uid="145231" user="woodpeck_repair" changeset="4645739" lat="48.0728728" lon="11.5178656">
    <tag k="addr:city" v="München"/>
    <tag k="addr:country" v="DE"/>
    <tag k="addr:housenumber" v="34"/>
    <tag k="addr:postcode" v="81479"/>
    <tag k="addr:street" v="Stridbeckstraße"/>
  </node>
</osm>
