<?xml version='1.0' encoding='UTF-8'?>
<osm version="0.6" generator="libosmium/2.20.0">
  <node id="533651586" version="2" timestamp="2010-03-16T01:16:19Z" uid="23543" user="jkjk" changeset="4140183" lat="41.791928" lon="123.27335"/>
  <node id="533651586" version="3" timestamp="2010-03-28T16:59:10Z" uid="83557" user="Esperanza36" changeset="4259080" lat="41.791928" lon="123.27335"/>
  <node id="533654059" version="1" timestamp="2009-10-16T11:13:36Z" uid="66036" user="h4v" changeset="2863546" lat="51.7807281" lon="19.4328081"/>
  <node id="533654059" version="2" timestamp="2011-02-28T11:25:09Z" uid="338611" user="marek kleciak" changeset="7419617" lat="51.7808323" lon="19.4327477"/>
  <node id="533654074" version="1" timestamp="2009-10-16T11:13:37Z" uid="66036" user="h4v" changeset="2863546" lat="51.7806719" lon="19.4315875">
    <tag k="highway" v="turning_point"/>
  </node>
  <node id="533654074" version="2" timestamp="2010-03-02T19:06:12Z" uid="7412" user="Matthias Julius" changeset="4019100" lat="51.7806719" lon="19.4315875">
    <tag k="highway" v="turning_circle"/>
  </node>
  <node id="533654074" version="3" timestamp="2011-02-28T11:25:23Z" uid="338611" user="marek kleciak" changeset="7419617" lat="51.7807389" lon="19.4315494">
    <tag k="highway" v="turning_circle"/>
  </node>
  <node id="533654084" version="1" timestamp="2009-10-16T11:13:37Z" uid="66036" user="h4v" changeset="2863546" lat="51.7805634" lon="19.4303495"/>
  <node id="533654084" version="2" timestamp="2011-02-28T11:25:13Z" uid="338611" user="marek kleciak" changeset="7419617" lat="51.7806382" lon="19.4303238"/>
  <node id="533654099" version="1" timestamp="2009-10-16T11:13:38Z" uid="66036" user="h4v" changeset="2863546" lat="51.780722" lon="19.4314563">
    <tag k="amenity" v="parking"/>
  </node>
  <node id="533656366" version="2" timestamp="2010-10-01T17:03:59Z" uid="115477" user="wowik" changeset="5929623" lat="54.6697012" lon="20.1237741"/>
  <node id="533656366" version="3" timestamp="2011-01-22T14:31:06Z" uid="383137" user="ErshKUS" changeset="7050899" lat="54.6697547" lon="20.1237124"/>
  <node id="533657332" version="7" timestamp="2009-12-24T04:06:13Z" uid="6975" user="ulfl" changeset="3439834" lat="60.4047921" lon="24.9892027">
    <tag k="addr:city" v="Tuusula"/>
    <tag k="addr:country" v="FI"/>
    <tag k="addr:full" v="04300"/>
    <tag k="addr:housenumber" v="99"/>
    <tag k="addr:street" v="Nahkelantie"/>
    <tag k="disused" v="yes"/>
    <tag k="name" v="Nahkelan portin elintarvikekioski"/>
    <tag k="phone" v="+358 44 3802380"/>
    <tag k="shop" v="convenience"/>
    <tag k="url" v="http://www.jkfinland.fi/1"/>
  </node>
  <node id="533657332" version="8" timestamp="2011-08-15T19:37:13Z" uid="21439" user="etu" changeset="9030637" lat="60.4048104" lon="24.9891553">
    <tag k="addr:city" v="Tuusula"/>
    <tag k="addr:country" v="FI"/>
    <tag k="addr:full" v="04300"/>
    <tag k="addr:housenumber" v="99"/>
    <tag k="addr:street" v="Nahkelantie"/>
    <tag k="disused" v="yes"/>
    <tag k="name" v="Nahkelan portin elintarvikekioski"/>
    <tag k="phone" v="+358 44 3802380"/>
    <tag k="shop" v="convenience"/>
    <tag k="url" v="http://www.jkfinland.fi/1"/>
  </node>
</osm>
