<?xml version='1.0' encoding='UTF-8'?>
<osm version="0.6" generator="libosmium/2.20.0">
  <node id="534416449" version="2" timestamp="2010-04-11T04:52:20Z" uid="20587" user="balrog-kun" changeset="4389130" lat="50.2262403" lon="18.2556635">
    <tag k="is_in" v="opolskie"/>
    <tag k="name" v="Przewóz"/>
    <tag k="place" v="village"/>
  </node>
  <node id="534416449" version="3" timestamp="2010-05-25T16:02:10Z" uid="170195" user="czako" changeset="4804955" lat="50.22661" lon="18.2564527">
    <tag k="addr:postcode" v="47-253"/>
    <tag k="is_in" v="opolskie"/>
    <tag k="name" v="Przewóz"/>
    <tag k="place" v="village"/>
  </node>
  <node id="534416450" version="2" timestamp="2010-04-11T04:52:20Z" uid="20587" user="balrog-kun" changeset="4389130" lat="50.2392123" lon="18.2893507">
    <tag k="is_in" v="opolskie"/>
    <tag k="name" v="Dziergowice"/>
    <tag k="place" v="village"/>
  </node>
  <node id="534416450" version="3" timestamp="2010-04-27T04:11:14Z" uid="30632" user="antblant" changeset="4537882" lat="50.2392123" lon="18.2893507">
    <tag k="is_in" v="opolskie"/>
    <tag k="name" v="Dziergowice"/>
    <tag k="place" v="village"/>
    <tag k="teryt:simc" v="0491618"/>
  </node>
  <node id="534416450" version="4" timestamp="2010-04-27T17:31:31Z" uid="91056" user="Yarl" changeset="4543066" lat="50.2392123" lon="18.2893507">
    <tag k="is_in" v="opolskie"/>
    <tag k="name" v="Dziergowice"/>
    <tag k="name:de" v="Dziergowitz"/>
    <tag k="place" v="village"/>
    <tag k="teryt:simc" v="0491618"/>
    <tag k="wikipedia" v="Dziergowice"/>
  </node>
  <node id="534418408" version="2" timestamp="2011-01-08T14:07:30Z" uid="49111" user="Markus B" changeset="6903969" lat="39.7992272" lon="19.8833042">
    <tag k="amenity" v="restaurant"/>
    <tag k="cuisine" v="greek"/>
    <tag k="name" v="Nikolas"/>
  </node>
  <node id="534418419" version="2" timestamp="2011-01-08T14:07:07Z" uid="49111" user="Markus B" changeset="6903969" lat="39.8055317" lon="19.8728491"/>
  <node id="534418419" version="3" timestamp="2011-04-10T23:57:40Z" uid="72081" user="NightWatcher" changeset="7828706" lat="39.8056128" lon="19.8730093"/>
  <node id="534418420" version="2" timestamp="2011-01-08T14:06:36Z" uid="49111" user="Markus B" changeset="6903969" lat="39.8049208" lon="19.8723268"/>
  <node id="534418420" version="3" timestamp="2011-04-10T23:57:34Z" uid="72081" user="NightWatcher" changeset="7828706" lat="39.8049027" lon="19.8723975"/>
  <node id="534418425" version="2" timestamp="2011-01-08T14:07:32Z" uid="49111" user="Markus B" changeset="6903969" lat="39.8046173" lon="19.8711725">
    <tag k="amenity" v="car_rental"/>
    <tag k="name" v="northcorfutravel.com"/>
  </node>
</osm>
