<?xml version='1.0' encoding='UTF-8'?>
<osm version="0.6" generator="libosmium/2.20.0">
  <node id="536035291" version="1" timestamp="2009-10-19T22:08:14Z" uid="36809" user="pfoten_weg_!_" changeset="2899019" lat="47.7459065" lon="11.760422">
    <tag k="name" v="Ostin"/>
    <tag k="place" v="village"/>
  </node>
  <node id="536035291" version="2" timestamp="2010-11-28T05:54:24Z" uid="140803" user="ThomasStr" changeset="6475407" lat="47.7459065" lon="11.760422">
    <tag k="is_in" v="Gmund am Tegernsee,Miesbach,Oberbayern,Bayern,Bundesrepublik Deutschland,Europe"/>
    <tag k="name" v="Ostin"/>
    <tag k="place" v="village"/>
  </node>
  <node id="536035291" version="3" timestamp="2011-01-01T08:20:31Z" uid="42393" user="mawi42" changeset="6825643" lat="47.7458455" lon="11.7600164">
    <tag k="is_in" v="Gmund am Tegernsee,Miesbach,Oberbayern,Bayern,Bundesrepublik Deutschland,Europe"/>
    <tag k="name" v="Ostin"/>
    <tag k="place" v="village"/>
  </node>
  <node id="536035349" version="1" timestamp="2009-10-19T22:08:16Z" uid="36809" user="pfoten_weg_!_" changeset="2899019" lat="47.745958" lon="11.7604743"/>
  <node id="536035349" version="2" timestamp="2011-01-01T08:20:31Z" uid="42393" user="mawi42" changeset="6825643" lat="47.7459092" lon="11.7605028"/>
  <node id="536035379" version="1" timestamp="2009-10-19T22:08:17Z" uid="36809" user="pfoten_weg_!_" changeset="2899019" lat="47.7461462" lon="11.7636714"/>
  <node id="536035379" version="2" timestamp="2011-01-01T08:20:32Z" uid="42393" user="mawi42" changeset="6825643" lat="47.7461311" lon="11.7636185"/>
  <node id="536035379" version="3" timestamp="2011-12-27T09:03:26Z" uid="16696" user="Hike39" changeset="10213695" lat="47.7461311" lon="11.7636185"/>
  <node id="536035505" version="1" timestamp="2009-10-19T22:08:18Z" uid="36809" user="pfoten_weg_!_" changeset="2899019" lat="47.7478057" lon="11.7631326"/>
  <node id="536035533" version="1" timestamp="2009-10-19T22:08:19Z" uid="36809" user="pfoten_weg_!_" changeset="2899019" lat="47.7475212" lon="11.7631887"/>
  <node id="536035562" version="1" timestamp="2009-10-19T22:08:19Z" uid="36809" user="pfoten_weg_!_" changeset="2899019" lat="47.7490299" lon="11.7621972"/>
  <node id="536035562" version="2" timestamp="2011-12-27T09:03:26Z" uid="16696" user="Hike39" changeset="10213695" lat="47.7490299" lon="11.7621972"/>
  <node id="536035586" version="1" timestamp="2009-10-19T22:08:20Z" uid="36809" user="pfoten_weg_!_" changeset="2899019" lat="47.7490731" lon="11.762167"/>
  <node id="536035586" version="2" timestamp="2011-12-27T09:03:26Z" uid="16696" user="Hike39" changeset="10213695" lat="47.7490731" lon="11.762167"/>
  <node id="536035618" version="1" timestamp="2009-10-19T22:08:20Z" uid="36809" user="pfoten_weg_!_" changeset="2899019" lat="47.7479591" lon="11.7628941">
    <tag k="addr:city" v="Ostin"/>
    <tag k="addr:country" v="DE"/>
    <tag k="addr:housenumber" v="25"/>
    <tag k="addr:postcode" v="83703"/>
    <tag k="addr:street" v="Georg-Stöger-Straße"/>
  </node>
  <node id="536035618" version="2" timestamp="2010-02-10T09:03:21Z" uid="104054" user="WernerSnow" changeset="3838543" lat="47.7479644" lon="11.7628313">
    <tag k="addr:city" v="Ostin"/>
    <tag k="addr:country" v="DE"/>
    <tag k="addr:housenumber" v="25"/>
    <tag k="addr:postcode" v="83703"/>
    <tag k="addr:street" v="Georg-Stöger-Straße"/>
  </node>
  <node id="536035655" version="1" timestamp="2009-10-19T22:08:21Z" uid="36809" user="pfoten_weg_!_" changeset="2899019" lat="47.7480745" lon="11.7627266">
    <tag k="addr:city" v="Ostin"/>
    <tag k="addr:country" v="DE"/>
    <tag k="addr:housenumber" v="25a"/>
    <tag k="addr:postcode" v="83703"/>
    <tag k="addr:street" v="Georg-Stöger-Straße"/>
  </node>
  <node id="536035655" version="2" timestamp="2010-02-10T09:03:21Z" uid="104054" user="WernerSnow" changeset="3838543" lat="47.748159" lon="11.7624517">
    <tag k="addr:city" v="Ostin"/>
    <tag k="addr:country" v="DE"/>
    <tag k="addr:housenumber" v="25a"/>
    <tag k="addr:postcode" v="83703"/>
    <tag k="addr:street" v="Georg-Stöger-Straße"/>
  </node>
  <node id="536035677" version="1" timestamp="2009-10-19T22:08:21Z" uid="36809" user="pfoten_weg_!_" changeset="2899019" lat="47.7482442" lon="11.7626769">
    <tag k="addr:city" v="Ostin"/>
    <tag k="addr:country" v="DE"/>
    <tag k="addr:housenumber" v="27"/>
    <tag k="addr:postcode" v="83703"/>
    <tag k="addr:street" v="Georg-Stöger-Straße"/>
  </node>
  <node id="536035699" version="1" timestamp="2009-10-19T22:08:22Z" uid="36809" user="pfoten_weg_!_" changeset="2899019" lat="47.7482454" lon="11.7628438"/>
  <node id="536035699" version="2" timestamp="2011-12-27T09:03:26Z" uid="16696" user="Hike39" changeset="10213695" lat="47.7482454" lon="11.7628438"/>
  <node id="536035720" version="1" timestamp="2009-10-19T22:08:22Z" uid="36809" user="pfoten_weg_!_" changeset="2899019" lat="47.7480483" lon="11.7627907"/>
  <node id="536035720" version="2" timestamp="2011-12-27T09:03:26Z" uid="16696" user="Hike39" changeset="10213695" lat="47.7480483" lon="11.7627907"/>
  <node id="536035740" version="1" timestamp="2009-10-19T22:08:23Z" uid="36809" user="pfoten_weg_!_" changeset="2899019" lat="47.7484479" lon="11.7627063">
    <tag k="addr:city" v="Ostin"/>
    <tag k="addr:country" v="DE"/>
    <tag k="addr:housenumber" v="29"/>
    <tag k="addr:postcode" v="83703"/>
    <tag k="addr:street" v="Georg-Stöger-Straße"/>
  </node>
  <node id="536035767" version="1" timestamp="2009-10-19T22:08:23Z" uid="36809" user="pfoten_weg_!_" changeset="2899019" lat="47.7484265" lon="11.7628395"/>
  <node id="536035767" version="2" timestamp="2011-12-27T09:03:26Z" uid="16696" user="Hike39" changeset="10213695" lat="47.7484265" lon="11.7628395"/>
  <node id="536035789" version="1" timestamp="2009-10-19T22:08:23Z" uid="36809" user="pfoten_weg_!_" changeset="2899019" lat="47.7480235" lon="11.7629642"/>
  <node id="536035789" version="2" timestamp="2011-12-27T09:03:26Z" uid="16696" user="Hike39" changeset="10213695" lat="47.7480235" lon="11.7629642"/>
  <node id="536035806" version="1" timestamp="2009-10-19T22:08:24Z" uid="36809" user="pfoten_weg_!_" changeset="2899019" lat="47.748055" lon="11.7633127"/>
  <node id="536035806" version="2" timestamp="2011-12-27T09:03:26Z" uid="16696" user="Hike39" changeset="10213695" lat="47.748055" lon="11.7633127"/>
  <node id="536035823" version="1" timestamp="2009-10-19T22:08:24Z" uid="36809" user="pfoten_weg_!_" changeset="2899019" lat="47.7480439" lon="11.7629518"/>
  <node id="536035841" version="1" timestamp="2009-10-19T22:08:24Z" uid="36809" user="pfoten_weg_!_" changeset="2899019" lat="47.7481335" lon="11.7630815">
    <tag k="addr:city" v="Ostin"/>
    <tag k="addr:country" v="DE"/>
    <tag k="addr:housenumber" v="16"/>
    <tag k="addr:postcode" v="83703"/>
    <tag k="addr:street" v="Georg-Stöger-Straße"/>
  </node>
  <node id="536035841" version="2" timestamp="2010-02-10T09:03:21Z" uid="104054" user="WernerSnow" changeset="3838543" lat="47.748189" lon="11.763109">
    <tag k="addr:city" v="Ostin"/>
    <tag k="addr:country" v="DE"/>
    <tag k="addr:housenumber" v="16"/>
    <tag k="addr:postcode" v="83703"/>
    <tag k="addr:street" v="Georg-Stöger-Straße"/>
  </node>
  <node id="536035860" version="1" timestamp="2009-10-19T22:08:24Z" uid="36809" user="pfoten_weg_!_" changeset="2899019" lat="47.7486377" lon="11.762943"/>
  <node id="536035860" version="2" timestamp="2011-12-27T09:03:26Z" uid="16696" user="Hike39" changeset="10213695" lat="47.7486377" lon="11.762943"/>
  <node id="536035876" version="1" timestamp="2009-10-19T22:08:25Z" uid="36809" user="pfoten_weg_!_" changeset="2899019" lat="47.7487194" lon="11.7628285">
    <tag k="addr:city" v="Ostin"/>
    <tag k="addr:country" v="DE"/>
    <tag k="addr:housenumber" v="31"/>
    <tag k="addr:postcode" v="83703"/>
    <tag k="addr:street" v="Georg-Stöger-Straße"/>
  </node>
  <node id="536035900" version="1" timestamp="2009-10-19T22:08:25Z" uid="36809" user="pfoten_weg_!_" changeset="2899019" lat="47.748844" lon="11.7625338">
    <tag k="addr:city" v="Ostin"/>
    <tag k="addr:country" v="DE"/>
    <tag k="addr:housenumber" v="17"/>
    <tag k="addr:postcode" v="83703"/>
    <tag k="addr:street" v="Ostiner Höhe"/>
  </node>
  <node id="536035923" version="1" timestamp="2009-10-19T22:08:26Z" uid="36809" user="pfoten_weg_!_" changeset="2899019" lat="47.749266" lon="11.7625408"/>
  <node id="536035923" version="2" timestamp="2012-01-17T18:46:54Z" uid="62236" user="Paulchen Panther" changeset="10420599" lat="47.7492862" lon="11.7625408"/>
  <node id="536035942" version="1" timestamp="2009-10-19T22:08:26Z" uid="36809" user="pfoten_weg_!_" changeset="2899019" lat="47.7492886" lon="11.762249"/>
  <node id="536035942" version="2" timestamp="2012-01-17T18:46:55Z" uid="62236" user="Paulchen Panther" changeset="10420599" lat="47.7492908" lon="11.7622111"/>
  <node id="536035966" version="1" timestamp="2009-10-19T22:08:26Z" uid="36809" user="pfoten_weg_!_" changeset="2899019" lat="47.7487747" lon="11.7635294">
    <tag k="addr:city" v="Ostin"/>
    <tag k="addr:country" v="DE"/>
    <tag k="addr:housenumber" v="20"/>
    <tag k="addr:postcode" v="83703"/>
    <tag k="addr:street" v="Georg-Stöger-Straße"/>
  </node>
  <node id="536035966" version="2" timestamp="2010-02-09T14:12:23Z" uid="104054" user="WernerSnow" changeset="3832520" lat="47.7487855" lon="11.7636229">
    <tag k="addr:city" v="Ostin"/>
    <tag k="addr:country" v="DE"/>
    <tag k="addr:housenumber" v="20"/>
    <tag k="addr:postcode" v="83703"/>
    <tag k="addr:street" v="Georg-Stöger-Straße"/>
  </node>
  <node id="536036001" version="1" timestamp="2009-10-19T22:08:27Z" uid="36809" user="pfoten_weg_!_" changeset="2899019" lat="47.7487286" lon="11.7632204">
    <tag k="addr:city" v="Ostin"/>
    <tag k="addr:country" v="DE"/>
    <tag k="addr:housenumber" v="18"/>
    <tag k="addr:postcode" v="83703"/>
    <tag k="addr:street" v="Georg-Stöger-Straße"/>
  </node>
  <node id="536036033" version="1" timestamp="2009-10-19T22:08:27Z" uid="36809" user="pfoten_weg_!_" changeset="2899019" lat="47.7488661" lon="11.7631369"/>
  <node id="536036033" version="2" timestamp="2011-12-27T09:03:24Z" uid="16696" user="Hike39" changeset="10213695" lat="47.7488517" lon="11.763124"/>
  <node id="536036056" version="1" timestamp="2009-10-19T22:08:28Z" uid="36809" user="pfoten_weg_!_" changeset="2899019" lat="47.7490298" lon="11.7635624">
    <tag k="addr:city" v="Ostin"/>
    <tag k="addr:country" v="DE"/>
    <tag k="addr:housenumber" v="35"/>
    <tag k="addr:postcode" v="83703"/>
    <tag k="addr:street" v="Georg-Stöger-Straße"/>
  </node>
  <node id="536036056" version="2" timestamp="2010-02-09T14:12:22Z" uid="104054" user="WernerSnow" changeset="3832520" lat="47.7490417" lon="11.7636011">
    <tag k="addr:city" v="Ostin"/>
    <tag k="addr:country" v="DE"/>
    <tag k="addr:housenumber" v="35"/>
    <tag k="addr:postcode" v="83703"/>
    <tag k="addr:street" v="Georg-Stöger-Straße"/>
  </node>
  <node id="536036056" version="3" timestamp="2010-02-10T09:03:21Z" uid="104054" user="WernerSnow" changeset="3838543" lat="47.7490417" lon="11.7636286">
    <tag k="addr:city" v="Ostin"/>
    <tag k="addr:country" v="DE"/>
    <tag k="addr:housenumber" v="35"/>
    <tag k="addr:postcode" v="83703"/>
    <tag k="addr:street" v="Georg-Stöger-Straße"/>
  </node>
  <node id="536036098" version="1" timestamp="2009-10-19T22:08:28Z" uid="36809" user="pfoten_weg_!_" changeset="2899019" lat="47.7492122" lon="11.7634173"/>
  <node id="536036098" version="2" timestamp="2011-12-27T09:03:26Z" uid="16696" user="Hike39" changeset="10213695" lat="47.7492122" lon="11.7634173"/>
  <node id="536036121" version="1" timestamp="2009-10-19T22:08:29Z" uid="36809" user="pfoten_weg_!_" changeset="2899019" lat="47.7492183" lon="11.7635224">
    <tag k="addr:city" v="Ostin"/>
    <tag k="addr:country" v="DE"/>
    <tag k="addr:housenumber" v="2"/>
    <tag k="addr:postcode" v="83703"/>
    <tag k="addr:street" v="Ostiner Höhe"/>
  </node>
  <node id="536036121" version="2" timestamp="2010-02-10T09:03:21Z" uid="104054" user="WernerSnow" changeset="3838543" lat="47.7492473" lon="11.763597">
    <tag k="addr:city" v="Ostin"/>
    <tag k="addr:country" v="DE"/>
    <tag k="addr:housenumber" v="2"/>
    <tag k="addr:postcode" v="83703"/>
    <tag k="addr:street" v="Ostiner Höhe"/>
  </node>
  <node id="536036147" version="1" timestamp="2009-10-19T22:08:29Z" uid="36809" user="pfoten_weg_!_" changeset="2899019" lat="47.7490806" lon="11.7630316">
    <tag k="addr:city" v="Ostin"/>
    <tag k="addr:country" v="DE"/>
    <tag k="addr:housenumber" v="1"/>
    <tag k="addr:postcode" v="83703"/>
    <tag k="addr:street" v="Ostiner Höhe"/>
  </node>
  <node id="536036147" version="2" timestamp="2010-02-10T09:03:21Z" uid="104054" user="WernerSnow" changeset="3838543" lat="47.7491149" lon="11.7630984">
    <tag k="addr:city" v="Ostin"/>
    <tag k="addr:country" v="DE"/>
    <tag k="addr:housenumber" v="1"/>
    <tag k="addr:postcode" v="83703"/>
    <tag k="addr:street" v="Ostiner Höhe"/>
  </node>
  <node id="536036197" version="1" timestamp="2009-10-19T22:08:30Z" uid="36809" user="pfoten_weg_!_" changeset="2899019" lat="47.7493274" lon="11.7634344"/>
  <node id="536036197" version="2" timestamp="2011-03-26T22:40:51Z" uid="418282" user="Norbert18" changeset="7680900" lat="47.7493274" lon="11.7634344"/>
  <node id="536036222" version="1" timestamp="2009-10-19T22:08:30Z" uid="36809" user="pfoten_weg_!_" changeset="2899019" lat="47.7466117" lon="11.7636327"/>
  <node id="536036222" version="2" timestamp="2011-01-01T08:20:31Z" uid="42393" user="mawi42" changeset="6825643" lat="47.7466235" lon="11.7635423"/>
  <node id="536036222" version="3" timestamp="2011-12-27T09:03:26Z" uid="16696" user="Hike39" changeset="10213695" lat="47.7466235" lon="11.7635423"/>
  <node id="536036259" version="1" timestamp="2009-10-19T22:08:31Z" uid="36809" user="pfoten_weg_!_" changeset="2899019" lat="47.7481927" lon="11.7636661"/>
  <node id="536036259" version="2" timestamp="2011-12-27T09:03:27Z" uid="16696" user="Hike39" changeset="10213695" lat="47.7481927" lon="11.7636661"/>
  <node id="536036278" version="1" timestamp="2009-10-19T22:08:31Z" uid="36809" user="pfoten_weg_!_" changeset="2899019" lat="47.7482844" lon="11.7646481"/>
  <node id="536036278" version="2" timestamp="2011-12-27T09:03:27Z" uid="16696" user="Hike39" changeset="10213695" lat="47.7482844" lon="11.7646481"/>
  <node id="536036306" version="1" timestamp="2009-10-19T22:08:32Z" uid="36809" user="pfoten_weg_!_" changeset="2899019" lat="47.748367" lon="11.7648821"/>
  <node id="536036306" version="2" timestamp="2011-12-27T09:03:27Z" uid="16696" user="Hike39" changeset="10213695" lat="47.748367" lon="11.7648821"/>
  <node id="536036332" version="1" timestamp="2009-10-19T22:08:32Z" uid="36809" user="pfoten_weg_!_" changeset="2899019" lat="47.7483843" lon="11.7638345">
    <tag k="addr:city" v="Ostin"/>
    <tag k="addr:country" v="DE"/>
    <tag k="addr:housenumber" v="9"/>
    <tag k="addr:postcode" v="83703"/>
    <tag k="addr:street" v="Bgm.-Feichner-Straße"/>
  </node>
  <node id="536036332" version="2" timestamp="2010-02-10T09:03:22Z" uid="104054" user="WernerSnow" changeset="3838543" lat="47.7484318" lon="11.763972">
    <tag k="addr:city" v="Ostin"/>
    <tag k="addr:country" v="DE"/>
    <tag k="addr:housenumber" v="9"/>
    <tag k="addr:postcode" v="83703"/>
    <tag k="addr:street" v="Bgm.-Feichner-Straße"/>
  </node>
  <node id="536036332" version="3" timestamp="2011-06-08T20:57:13Z" uid="42393" user="mawi42" changeset="8383656" lat="47.7484318" lon="11.763972">
    <tag k="addr:city" v="Ostin"/>
    <tag k="addr:country" v="DE"/>
    <tag k="addr:housenumber" v="9"/>
    <tag k="addr:postcode" v="83703"/>
    <tag k="addr:street" v="Bgm.-Feichtner-Straße"/>
  </node>
  <node id="536036395" version="1" timestamp="2009-10-19T22:08:33Z" uid="36809" user="pfoten_weg_!_" changeset="2899019" lat="47.748075" lon="11.7638787">
    <tag k="addr:city" v="Ostin"/>
    <tag k="addr:country" v="DE"/>
    <tag k="addr:housenumber" v="4"/>
    <tag k="addr:postcode" v="83703"/>
    <tag k="addr:street" v="Bgm.-Feichner-Straße"/>
  </node>
  <node id="536036395" version="2" timestamp="2011-06-08T20:57:13Z" uid="42393" user="mawi42" changeset="8383656" lat="47.748075" lon="11.7638787">
    <tag k="addr:city" v="Ostin"/>
    <tag k="addr:country" v="DE"/>
    <tag k="addr:housenumber" v="4"/>
    <tag k="addr:postcode" v="83703"/>
    <tag k="addr:street" v="Bgm.-Feichtner-Straße"/>
  </node>
  <node id="536036422" version="1" timestamp="2009-10-19T22:08:34Z" uid="36809" user="pfoten_weg_!_" changeset="2899019" lat="47.7488151" lon="11.7638127">
    <tag k="addr:city" v="Ostin"/>
    <tag k="addr:country" v="DE"/>
    <tag k="addr:housenumber" v="22"/>
    <tag k="addr:postcode" v="83703"/>
    <tag k="addr:street" v="Georg-Stöger-Straße"/>
  </node>
  <node id="536036422" version="2" timestamp="2010-02-09T14:12:23Z" uid="104054" user="WernerSnow" changeset="3832520" lat="47.7488194" lon="11.7639643">
    <tag k="addr:city" v="Ostin"/>
    <tag k="addr:country" v="DE"/>
    <tag k="addr:housenumber" v="22"/>
    <tag k="addr:postcode" v="83703"/>
    <tag k="addr:street" v="Georg-Stöger-Straße"/>
  </node>
  <node id="536036422" version="3" timestamp="2010-02-10T09:03:21Z" uid="104054" user="WernerSnow" changeset="3838543" lat="47.7487983" lon="11.7639604">
    <tag k="addr:city" v="Ostin"/>
    <tag k="addr:country" v="DE"/>
    <tag k="addr:housenumber" v="22"/>
    <tag k="addr:postcode" v="83703"/>
    <tag k="addr:street" v="Georg-Stöger-Straße"/>
  </node>
  <node id="536036452" version="1" timestamp="2009-10-19T22:08:34Z" uid="36809" user="pfoten_weg_!_" changeset="2899019" lat="47.7490457" lon="11.7638637">
    <tag k="addr:city" v="Ostin"/>
    <tag k="addr:country" v="DE"/>
    <tag k="addr:housenumber" v="37"/>
    <tag k="addr:postcode" v="83703"/>
    <tag k="addr:street" v="Georg-Stöger-Straße"/>
  </node>
  <node id="536036452" version="2" timestamp="2010-02-09T14:12:23Z" uid="104054" user="WernerSnow" changeset="3832520" lat="47.749049" lon="11.7640605">
    <tag k="addr:city" v="Ostin"/>
    <tag k="addr:country" v="DE"/>
    <tag k="addr:housenumber" v="37"/>
    <tag k="addr:postcode" v="83703"/>
    <tag k="addr:street" v="Georg-Stöger-Straße"/>
  </node>
  <node id="536036452" version="3" timestamp="2010-02-10T09:03:21Z" uid="104054" user="WernerSnow" changeset="3838543" lat="47.749049" lon="11.7640801">
    <tag k="addr:city" v="Ostin"/>
    <tag k="addr:country" v="DE"/>
    <tag k="addr:housenumber" v="37"/>
    <tag k="addr:postcode" v="83703"/>
    <tag k="addr:street" v="Georg-Stöger-Straße"/>
  </node>
  <node id="536036488" version="1" timestamp="2009-10-19T22:08:35Z" uid="36809" user="pfoten_weg_!_" changeset="2899019" lat="47.7488845" lon="11.7642237"/>
  <node id="536036488" version="2" timestamp="2010-02-09T14:12:22Z" uid="104054" user="WernerSnow" changeset="3832520" lat="47.7488845" lon="11.7645285"/>
  <node id="536036488" version="3" timestamp="2011-12-27T09:03:27Z" uid="16696" user="Hike39" changeset="10213695" lat="47.7488845" lon="11.7645285"/>
  <node id="536036505" version="1" timestamp="2009-10-19T22:08:35Z" uid="36809" user="pfoten_weg_!_" changeset="2899019" lat="47.7490423" lon="11.7642254">
    <tag k="addr:city" v="Gmund"/>
    <tag k="addr:country" v="DE"/>
    <tag k="addr:housenumber" v="41"/>
    <tag k="addr:postcode" v="83703"/>
    <tag k="addr:street" v="Georg-Stöger-Straße"/>
  </node>
  <node id="536036505" version="2" timestamp="2010-02-09T14:12:23Z" uid="104054" user="WernerSnow" changeset="3832520" lat="47.7490434" lon="11.7646109">
    <tag k="addr:city" v="Gmund"/>
    <tag k="addr:country" v="DE"/>
    <tag k="addr:housenumber" v="41"/>
    <tag k="addr:postcode" v="83703"/>
    <tag k="addr:street" v="Georg-Stöger-Straße"/>
  </node>
  <node id="536036505" version="3" timestamp="2010-02-10T09:03:22Z" uid="104054" user="WernerSnow" changeset="3838543" lat="47.7490487" lon="11.764662">
    <tag k="addr:city" v="Gmund"/>
    <tag k="addr:country" v="DE"/>
    <tag k="addr:housenumber" v="41"/>
    <tag k="addr:postcode" v="83703"/>
    <tag k="addr:street" v="Georg-Stöger-Straße"/>
  </node>
  <node id="536036536" version="1" timestamp="2009-10-19T22:08:36Z" uid="36809" user="pfoten_weg_!_" changeset="2899019" lat="47.7490539" lon="11.764043">
    <tag k="addr:city" v="Gmund"/>
    <tag k="addr:country" v="DE"/>
    <tag k="addr:housenumber" v="39"/>
    <tag k="addr:postcode" v="83703"/>
    <tag k="addr:street" v="Georg-Stöger-Straße"/>
  </node>
  <node id="536036536" version="2" timestamp="2010-02-09T14:12:22Z" uid="104054" user="WernerSnow" changeset="3832520" lat="47.7490463" lon="11.764343">
    <tag k="addr:city" v="Gmund"/>
    <tag k="addr:country" v="DE"/>
    <tag k="addr:housenumber" v="39"/>
    <tag k="addr:postcode" v="83703"/>
    <tag k="addr:street" v="Georg-Stöger-Straße"/>
  </node>
  <node id="536036536" version="3" timestamp="2010-02-10T09:03:22Z" uid="104054" user="WernerSnow" changeset="3838543" lat="47.7490489" lon="11.7643194">
    <tag k="addr:city" v="Gmund"/>
    <tag k="addr:country" v="DE"/>
    <tag k="addr:housenumber" v="39"/>
    <tag k="addr:postcode" v="83703"/>
    <tag k="addr:street" v="Georg-Stöger-Straße"/>
  </node>
  <node id="536036569" version="1" timestamp="2009-10-19T22:08:36Z" uid="36809" user="pfoten_weg_!_" changeset="2899019" lat="47.7488005" lon="11.7640386">
    <tag k="addr:city" v="Gmund"/>
    <tag k="addr:country" v="DE"/>
    <tag k="addr:housenumber" v="24"/>
    <tag k="addr:postcode" v="83703"/>
    <tag k="addr:street" v="Georg-Stöger-Straße"/>
  </node>
  <node id="536036569" version="2" timestamp="2010-02-09T14:12:23Z" uid="104054" user="WernerSnow" changeset="3832520" lat="47.7487983" lon="11.7642709">
    <tag k="addr:city" v="Gmund"/>
    <tag k="addr:country" v="DE"/>
    <tag k="addr:housenumber" v="24"/>
    <tag k="addr:postcode" v="83703"/>
    <tag k="addr:street" v="Georg-Stöger-Straße"/>
  </node>
  <node id="536036569" version="3" timestamp="2010-02-10T09:03:21Z" uid="104054" user="WernerSnow" changeset="3838543" lat="47.7488062" lon="11.7643377">
    <tag k="addr:city" v="Gmund"/>
    <tag k="addr:country" v="DE"/>
    <tag k="addr:housenumber" v="24"/>
    <tag k="addr:postcode" v="83703"/>
    <tag k="addr:street" v="Georg-Stöger-Straße"/>
  </node>
  <node id="536036596" version="1" timestamp="2009-10-19T22:08:37Z" uid="36809" user="pfoten_weg_!_" changeset="2899019" lat="47.748786" lon="11.7642138">
    <tag k="addr:city" v="Gmund"/>
    <tag k="addr:country" v="DE"/>
    <tag k="addr:housenumber" v="26"/>
    <tag k="addr:postcode" v="83703"/>
    <tag k="addr:street" v="Georg-Stöger-Straße"/>
  </node>
  <node id="536036596" version="2" timestamp="2010-02-09T14:12:22Z" uid="104054" user="WernerSnow" changeset="3832520" lat="47.7488196" lon="11.7645703">
    <tag k="addr:city" v="Gmund"/>
    <tag k="addr:country" v="DE"/>
    <tag k="addr:housenumber" v="26"/>
    <tag k="addr:postcode" v="83703"/>
    <tag k="addr:street" v="Georg-Stöger-Straße"/>
  </node>
  <node id="536036596" version="3" timestamp="2010-02-10T09:03:21Z" uid="104054" user="WernerSnow" changeset="3838543" lat="47.7488196" lon="11.7646488">
    <tag k="addr:city" v="Gmund"/>
    <tag k="addr:country" v="DE"/>
    <tag k="addr:housenumber" v="26"/>
    <tag k="addr:postcode" v="83703"/>
    <tag k="addr:street" v="Georg-Stöger-Straße"/>
  </node>
  <node id="536036620" version="1" timestamp="2009-10-19T22:08:37Z" uid="36809" user="pfoten_weg_!_" changeset="2899019" lat="47.7485322" lon="11.7651987"/>
  <node id="536036620" version="2" timestamp="2011-12-27T09:03:27Z" uid="16696" user="Hike39" changeset="10213695" lat="47.7485322" lon="11.7651987"/>
  <node id="536036639" version="1" timestamp="2009-10-19T22:08:37Z" uid="36809" user="pfoten_weg_!_" changeset="2899019" lat="47.74878" lon="11.7652584"/>
  <node id="536036639" version="2" timestamp="2011-12-27T09:03:27Z" uid="16696" user="Hike39" changeset="10213695" lat="47.74878" lon="11.7652584"/>
  <node id="536036657" version="1" timestamp="2009-10-19T22:08:38Z" uid="36809" user="pfoten_weg_!_" changeset="2899019" lat="47.7495203" lon="11.7634778">
    <tag k="addr:city" v="Ostin"/>
    <tag k="addr:country" v="DE"/>
    <tag k="addr:housenumber" v="3"/>
    <tag k="addr:postcode" v="83703"/>
    <tag k="addr:street" v="Ostiner Höhe"/>
  </node>
  <node id="536036675" version="1" timestamp="2009-10-19T22:08:38Z" uid="36809" user="pfoten_weg_!_" changeset="2899019" lat="47.7494007" lon="11.7622921"/>
  <node id="536036675" version="2" timestamp="2011-12-27T09:03:27Z" uid="16696" user="Hike39" changeset="10213695" lat="47.7494007" lon="11.7622921"/>
  <node id="536036692" version="1" timestamp="2009-10-19T22:08:38Z" uid="36809" user="pfoten_weg_!_" changeset="2899019" lat="47.7494136" lon="11.7633826"/>
  <node id="536036692" version="2" timestamp="2011-03-26T22:40:41Z" uid="418282" user="Norbert18" changeset="7680900" lat="47.7494012" lon="11.7634564"/>
  <node id="536036692" version="3" timestamp="2011-12-27T09:03:24Z" uid="16696" user="Hike39" changeset="10213695" lat="47.7493848" lon="11.7634455"/>
  <node id="536036711" version="1" timestamp="2009-10-19T22:08:39Z" uid="36809" user="pfoten_weg_!_" changeset="2899019" lat="47.7494481" lon="11.762818"/>
  <node id="536036711" version="2" timestamp="2011-12-27T09:03:27Z" uid="16696" user="Hike39" changeset="10213695" lat="47.7494481" lon="11.762818"/>
  <node id="536036729" version="1" timestamp="2009-10-19T22:08:39Z" uid="36809" user="pfoten_weg_!_" changeset="2899019" lat="47.7494438" lon="11.7632619"/>
  <node id="536036729" version="2" timestamp="2011-12-27T09:03:27Z" uid="16696" user="Hike39" changeset="10213695" lat="47.7494438" lon="11.7632619"/>
  <node id="536036743" version="1" timestamp="2009-10-19T22:08:39Z" uid="36809" user="pfoten_weg_!_" changeset="2899019" lat="47.7494308" lon="11.7623352"/>
  <node id="536036743" version="2" timestamp="2011-12-27T09:03:28Z" uid="16696" user="Hike39" changeset="10213695" lat="47.7494308" lon="11.7623352"/>
  <node id="536036764" version="1" timestamp="2009-10-19T22:08:40Z" uid="36809" user="pfoten_weg_!_" changeset="2899019" lat="47.7494351" lon="11.7624343"/>
  <node id="536036764" version="2" timestamp="2011-12-27T09:03:28Z" uid="16696" user="Hike39" changeset="10213695" lat="47.7494351" lon="11.7624343"/>
  <node id="536036782" version="1" timestamp="2009-10-19T22:08:40Z" uid="36809" user="pfoten_weg_!_" changeset="2899019" lat="47.7544144" lon="11.7845603">
    <tag k="name" v="Eck"/>
    <tag k="place" v="suburb"/>
  </node>
  <node id="536036782" version="2" timestamp="2010-11-28T05:54:23Z" uid="140803" user="ThomasStr" changeset="6475407" lat="47.7544144" lon="11.7845603">
    <tag k="is_in" v="Gmund am Tegernsee,Miesbach,Oberbayern,Bayern,Bundesrepublik Deutschland,Europe"/>
    <tag k="name" v="Eck"/>
    <tag k="place" v="village"/>
  </node>
  <node id="536036801" version="1" timestamp="2009-10-19T22:08:40Z" uid="36809" user="pfoten_weg_!_" changeset="2899019" lat="47.7534391" lon="11.8274579"/>
  <node id="536036801" version="2" timestamp="2010-12-22T13:55:14Z" uid="342705" user="KLMB" changeset="6735863" lat="47.753478" lon="11.8274935"/>
  <node id="536036801" version="3" timestamp="2011-11-30T09:20:49Z" uid="16696" user="Hike39" changeset="9997086" lat="47.753478" lon="11.8274935"/>
  <node id="536036825" version="1" timestamp="2009-10-19T22:08:41Z" uid="36809" user="pfoten_weg_!_" changeset="2899019" lat="47.7534391" lon="11.8318782"/>
  <node id="536036825" version="2" timestamp="2011-11-30T09:20:49Z" uid="16696" user="Hike39" changeset="9997086" lat="47.7534391" lon="11.8318782"/>
  <node id="536036849" version="1" timestamp="2009-10-19T22:08:41Z" uid="36809" user="pfoten_weg_!_" changeset="2899019" lat="47.7529775" lon="11.832067"/>
  <node id="536036849" version="2" timestamp="2011-11-30T09:20:49Z" uid="16696" user="Hike39" changeset="9997086" lat="47.7529775" lon="11.832067"/>
  <node id="536036870" version="1" timestamp="2009-10-19T22:08:41Z" uid="36809" user="pfoten_weg_!_" changeset="2899019" lat="47.7539954" lon="11.8317201"/>
  <node id="536036870" version="2" timestamp="2011-02-02T10:11:16Z" uid="62236" user="Paulchen Panther" changeset="7163085" lat="47.7539763" lon="11.8317282"/>
  <node id="536036870" version="3" timestamp="2011-12-21T17:31:33Z" uid="16696" user="Hike39" changeset="10173627" lat="47.7539763" lon="11.8317282"/>
  <node id="536036885" version="1" timestamp="2009-10-19T22:08:42Z" uid="36809" user="pfoten_weg_!_" changeset="2899019" lat="47.7542355" lon="11.8316894"/>
  <node id="536036885" version="2" timestamp="2011-02-02T10:11:24Z" uid="62236" user="Paulchen Panther" changeset="7163085" lat="47.75432" lon="11.8316205"/>
  <node id="536036885" version="3" timestamp="2011-11-30T09:20:49Z" uid="16696" user="Hike39" changeset="9997086" lat="47.75432" lon="11.8316205"/>
  <node id="536036899" version="1" timestamp="2009-10-19T22:08:42Z" uid="36809" user="pfoten_weg_!_" changeset="2899019" lat="47.7517368" lon="11.8323245"/>
  <node id="536036899" version="2" timestamp="2011-02-02T10:25:20Z" uid="62236" user="Paulchen Panther" changeset="7163193" lat="47.7516075" lon="11.8321883"/>
  <node id="536036899" version="3" timestamp="2011-11-30T09:20:49Z" uid="16696" user="Hike39" changeset="9997086" lat="47.7516075" lon="11.8321883"/>
  <node id="536036916" version="1" timestamp="2009-10-19T22:08:42Z" uid="36809" user="pfoten_weg_!_" changeset="2899019" lat="47.7523889" lon="11.8323932"/>
  <node id="536036916" version="2" timestamp="2011-02-02T10:25:15Z" uid="62236" user="Paulchen Panther" changeset="7163193" lat="47.7523054" lon="11.8324453"/>
  <node id="536036916" version="3" timestamp="2011-11-30T09:20:49Z" uid="16696" user="Hike39" changeset="9997086" lat="47.7523054" lon="11.8324453"/>
  <node id="536036932" version="1" timestamp="2009-10-19T22:08:43Z" uid="36809" user="pfoten_weg_!_" changeset="2899019" lat="47.7525851" lon="11.8323073"/>
  <node id="536036932" version="2" timestamp="2011-11-30T09:20:49Z" uid="16696" user="Hike39" changeset="9997086" lat="47.7525851" lon="11.8323073"/>
</osm>
