<?xml version='1.0' encoding='UTF-8'?>
<osm version="0.6" generator="libosmium/2.20.0">
  <node id="538352586" version="3" timestamp="2009-12-24T04:49:34Z" uid="6975" user="ulfl" changeset="3439986" lat="53.147195" lon="8.1874859">
    <tag k="addr:city" v="Oldenburg"/>
    <tag k="addr:housenumber" v="11"/>
    <tag k="addr:street" v="Schützenweg"/>
    <tag k="amenity" v="restaurant"/>
    <tag k="name" v="Rashid&apos;s"/>
  </node>
  <node id="538352586" version="4" timestamp="2010-02-04T20:47:39Z" uid="155761" user="Dusche" changeset="3793370" lat="53.147195" lon="8.1874859">
    <tag k="addr:city" v="Oldenburg"/>
    <tag k="addr:housenumber" v="11"/>
    <tag k="addr:street" v="Schützenweg"/>
    <tag k="amenity" v="restaurant"/>
    <tag k="name" v="Rashid&apos;s"/>
    <tag k="website" v="http://rashids.de"/>
  </node>
  <node id="538352586" version="5" timestamp="2010-04-06T19:21:34Z" uid="155761" user="Dusche" changeset="4347829" lat="53.147195" lon="8.1874859">
    <tag k="addr:city" v="Oldenburg"/>
    <tag k="addr:housenumber" v="11"/>
    <tag k="addr:street" v="Schützenweg"/>
    <tag k="amenity" v="restaurant"/>
    <tag k="name" v="Rashid&apos;s"/>
    <tag k="sportsbar" v="yes"/>
    <tag k="website" v="http://rashids.de"/>
  </node>
  <node id="538352586" version="6" timestamp="2010-09-27T19:11:03Z" uid="290680" user="wheelmap_visitor" changeset="5894625" lat="53.147195" lon="8.1874859">
    <tag k="addr:city" v="Oldenburg"/>
    <tag k="addr:housenumber" v="11"/>
    <tag k="addr:street" v="Schützenweg"/>
    <tag k="amenity" v="restaurant"/>
    <tag k="name" v="Rashid&apos;s"/>
    <tag k="sportsbar" v="yes"/>
    <tag k="website" v="http://rashids.de"/>
    <tag k="wheelchair" v="limited"/>
  </node>
  <node id="538352586" version="7" timestamp="2010-12-09T20:51:13Z" uid="155761" user="Dusche" changeset="6599435" lat="53.1472082" lon="8.1874103">
    <tag k="addr:city" v="Oldenburg"/>
    <tag k="addr:housenumber" v="11"/>
    <tag k="addr:street" v="Schützenweg"/>
    <tag k="amenity" v="restaurant"/>
    <tag k="name" v="Rashid&apos;s"/>
    <tag k="sportsbar" v="yes"/>
    <tag k="website" v="http://rashids.de"/>
    <tag k="wheelchair" v="limited"/>
  </node>
  <node id="538353477" version="2" timestamp="2009-12-08T18:17:48Z" uid="53938" user="ctheile" changeset="3326810" lat="14.3757212" lon="-15.8188704"/>
  <node id="538353617" version="3" timestamp="2010-06-06T21:57:26Z" uid="107674" user="GeoCounter" changeset="4923314" lat="50.0880617" lon="8.65959"/>
  <node id="538353617" version="4" timestamp="2010-08-04T08:13:04Z" uid="8464" user="MichaH" changeset="5396641" lat="50.0880617" lon="8.65959"/>
  <node id="538357067" version="2" timestamp="2010-07-28T20:09:17Z" uid="74617" user="JohnSmith" changeset="5339329" lat="43.6906158" lon="-79.3628671">
    <tag k="colour" v="yellow"/>
    <tag k="emergency" v="fire_hydrant"/>
  </node>
  <node id="538357067" version="3" timestamp="2010-07-30T17:50:06Z" uid="74617" user="JohnSmith" changeset="5356742" lat="43.6906158" lon="-79.3628671">
    <tag k="amenity" v="fire_hydrant"/>
    <tag k="colour" v="yellow"/>
    <tag k="emergency" v="fire_hydrant"/>
  </node>
  <node id="538357067" version="4" timestamp="2011-12-27T23:47:02Z" uid="1679" user="andrewpmk" changeset="10221128" lat="43.6906158" lon="-79.3628671"/>
  <node id="538357080" version="2" timestamp="2010-07-28T20:04:40Z" uid="74617" user="JohnSmith" changeset="5339329" lat="43.6915786" lon="-79.3632148">
    <tag k="colour" v="yellow"/>
    <tag k="emergency" v="fire_hydrant"/>
    <tag k="note" v="between"/>
  </node>
  <node id="538357080" version="3" timestamp="2010-07-30T17:42:44Z" uid="74617" user="JohnSmith" changeset="5356742" lat="43.6915786" lon="-79.3632148">
    <tag k="amenity" v="fire_hydrant"/>
    <tag k="colour" v="yellow"/>
    <tag k="emergency" v="fire_hydrant"/>
    <tag k="note" v="between"/>
  </node>
  <node id="538357080" version="4" timestamp="2011-12-27T23:47:02Z" uid="1679" user="andrewpmk" changeset="10221128" lat="43.6915786" lon="-79.3632148"/>
  <node id="538357119" version="2" timestamp="2010-07-28T20:09:44Z" uid="74617" user="JohnSmith" changeset="5339329" lat="43.6923088" lon="-79.3638092">
    <tag k="colour" v="yellow"/>
    <tag k="emergency" v="fire_hydrant"/>
    <tag k="note" v="between"/>
  </node>
  <node id="538357119" version="3" timestamp="2010-07-30T17:42:40Z" uid="74617" user="JohnSmith" changeset="5356742" lat="43.6923088" lon="-79.3638092">
    <tag k="amenity" v="fire_hydrant"/>
    <tag k="colour" v="yellow"/>
    <tag k="emergency" v="fire_hydrant"/>
    <tag k="note" v="between"/>
  </node>
  <node id="538357119" version="4" timestamp="2011-12-27T23:47:02Z" uid="1679" user="andrewpmk" changeset="10221128" lat="43.6923088" lon="-79.3638092"/>
  <node id="538357123" version="2" timestamp="2010-07-28T20:10:34Z" uid="74617" user="JohnSmith" changeset="5339329" lat="43.6920449" lon="-79.3623561">
    <tag k="colour" v="yellow"/>
    <tag k="emergency" v="fire_hydrant"/>
    <tag k="note" v="between"/>
  </node>
  <node id="538357123" version="3" timestamp="2010-07-30T17:46:15Z" uid="74617" user="JohnSmith" changeset="5356742" lat="43.6920449" lon="-79.3623561">
    <tag k="amenity" v="fire_hydrant"/>
    <tag k="colour" v="yellow"/>
    <tag k="emergency" v="fire_hydrant"/>
    <tag k="note" v="between"/>
  </node>
  <node id="538357123" version="4" timestamp="2011-12-27T23:47:02Z" uid="1679" user="andrewpmk" changeset="10221128" lat="43.6920449" lon="-79.3623561"/>
  <node id="538357134" version="2" timestamp="2010-07-28T20:12:43Z" uid="74617" user="JohnSmith" changeset="5339329" lat="43.6931006" lon="-79.3645114">
    <tag k="colour" v="yellow"/>
    <tag k="emergency" v="fire_hydrant"/>
    <tag k="note" v="between"/>
  </node>
  <node id="538357134" version="3" timestamp="2010-07-30T17:46:37Z" uid="74617" user="JohnSmith" changeset="5356742" lat="43.6931006" lon="-79.3645114">
    <tag k="amenity" v="fire_hydrant"/>
    <tag k="colour" v="yellow"/>
    <tag k="emergency" v="fire_hydrant"/>
    <tag k="note" v="between"/>
  </node>
  <node id="538357134" version="4" timestamp="2011-12-27T23:47:02Z" uid="1679" user="andrewpmk" changeset="10221128" lat="43.6931006" lon="-79.3645114"/>
  <node id="538357148" version="2" timestamp="2010-07-28T20:12:12Z" uid="74617" user="JohnSmith" changeset="5339329" lat="43.6928995" lon="-79.3632495">
    <tag k="colour" v="yellow"/>
    <tag k="emergency" v="fire_hydrant"/>
    <tag k="note" v="between"/>
  </node>
  <node id="538357148" version="3" timestamp="2010-07-30T17:46:19Z" uid="74617" user="JohnSmith" changeset="5356742" lat="43.6928995" lon="-79.3632495">
    <tag k="amenity" v="fire_hydrant"/>
    <tag k="colour" v="yellow"/>
    <tag k="emergency" v="fire_hydrant"/>
    <tag k="note" v="between"/>
  </node>
  <node id="538357148" version="4" timestamp="2011-12-27T23:47:02Z" uid="1679" user="andrewpmk" changeset="10221128" lat="43.6928995" lon="-79.3632495"/>
</osm>
