<?xml version='1.0' encoding='UTF-8'?>
<osm version="0.6" generator="libosmium/2.20.0">
  <node id="538683940" version="2" timestamp="2010-04-11T04:52:29Z" uid="20587" user="balrog-kun" changeset="4389130" lat="50.2071248" lon="19.6223554">
    <tag k="name" v="Nawsie"/>
    <tag k="place" v="village"/>
    <tag k="source" v="http://ump.waw.pl/ retrieved 01:24:13 09/02/09 (UMP-Krakow/src/cities-Krakow.pnt-converted.txt)"/>
  </node>
  <node id="538683940" version="3" timestamp="2010-04-11T13:16:31Z" uid="20587" user="balrog-kun" changeset="4392352" lat="50.207444" lon="19.6196148">
    <tag k="name" v="Nawsie"/>
    <tag k="place" v="village"/>
    <tag k="source" v="http://ump.waw.pl/ retrieved 01:24:13 09/02/09 (UMP-Krakow/src/cities-Krakow.pnt-converted.txt)"/>
  </node>
  <node id="538683940" version="4" timestamp="2010-04-27T04:12:12Z" uid="30632" user="antblant" changeset="4537887" lat="50.207444" lon="19.6196148">
    <tag k="name" v="Nawsie"/>
    <tag k="place" v="village"/>
    <tag k="source" v="http://ump.waw.pl/ retrieved 01:24:13 09/02/09 (UMP-Krakow/src/cities-Krakow.pnt-converted.txt)"/>
    <tag k="teryt:simc" v="0666584"/>
  </node>
  <node id="538684452" version="2" timestamp="2010-04-11T04:52:29Z" uid="20587" user="balrog-kun" changeset="4389130" lat="50.22822" lon="19.63954">
    <tag k="name" v="Zawada"/>
    <tag k="place" v="village"/>
    <tag k="source" v="http://ump.waw.pl/ retrieved 01:24:13 09/02/09 (UMP-Krakow/src/cities-Krakow.pnt-converted.txt)"/>
  </node>
  <node id="538684452" version="3" timestamp="2010-04-11T13:16:31Z" uid="20587" user="balrog-kun" changeset="4392352" lat="50.22822" lon="19.63954">
    <tag k="name" v="Zawada"/>
    <tag k="place" v="village"/>
    <tag k="source" v="http://ump.waw.pl/ retrieved 01:24:13 09/02/09 (UMP-Krakow/src/cities-Krakow.pnt-converted.txt)"/>
  </node>
  <node id="538684726" version="2" timestamp="2010-04-11T04:52:29Z" uid="20587" user="balrog-kun" changeset="4389130" lat="50.19829" lon="19.66654">
    <tag k="name" v="Podskale"/>
    <tag k="place" v="village"/>
    <tag k="source" v="http://ump.waw.pl/ retrieved 01:24:13 09/02/09 (UMP-Krakow/src/cities-Krakow.pnt-converted.txt)"/>
  </node>
  <node id="538684726" version="3" timestamp="2010-04-11T13:16:31Z" uid="20587" user="balrog-kun" changeset="4392352" lat="50.19829" lon="19.66654">
    <tag k="name" v="Podskale"/>
    <tag k="place" v="village"/>
    <tag k="source" v="http://ump.waw.pl/ retrieved 01:24:13 09/02/09 (UMP-Krakow/src/cities-Krakow.pnt-converted.txt)"/>
  </node>
  <node id="538684726" version="4" timestamp="2010-04-27T03:58:06Z" uid="30632" user="antblant" changeset="4537850" lat="50.19829" lon="19.66654">
    <tag k="name" v="Podskale"/>
    <tag k="place" v="village"/>
    <tag k="source" v="http://ump.waw.pl/ retrieved 01:24:13 09/02/09 (UMP-Krakow/src/cities-Krakow.pnt-converted.txt)"/>
    <tag k="teryt:simc" v="0257970"/>
  </node>
  <node id="538686679" version="2" timestamp="2010-04-11T04:52:30Z" uid="20587" user="balrog-kun" changeset="4389130" lat="50.14611" lon="19.69675">
    <tag k="name" v="Chechło"/>
    <tag k="place" v="village"/>
    <tag k="source" v="http://ump.waw.pl/ retrieved 01:24:13 09/02/09 (UMP-Krakow/src/cities-Krakow.pnt-converted.txt)"/>
  </node>
  <node id="538686679" version="3" timestamp="2010-04-11T13:16:31Z" uid="20587" user="balrog-kun" changeset="4392352" lat="50.14611" lon="19.69675">
    <tag k="name" v="Chechło"/>
    <tag k="place" v="village"/>
    <tag k="source" v="http://ump.waw.pl/ retrieved 01:24:13 09/02/09 (UMP-Krakow/src/cities-Krakow.pnt-converted.txt)"/>
  </node>
  <node id="538686813" version="2" timestamp="2010-04-11T04:52:30Z" uid="20587" user="balrog-kun" changeset="4389130" lat="50.15301" lon="19.69332">
    <tag k="name" v="Dubie"/>
    <tag k="place" v="village"/>
    <tag k="source" v="http://ump.waw.pl/ retrieved 01:24:13 09/02/09 (UMP-Krakow/src/cities-Krakow.pnt-converted.txt)"/>
  </node>
  <node id="538686813" version="3" timestamp="2010-04-11T13:16:31Z" uid="20587" user="balrog-kun" changeset="4392352" lat="50.15301" lon="19.69332">
    <tag k="name" v="Dubie"/>
    <tag k="place" v="village"/>
    <tag k="source" v="http://ump.waw.pl/ retrieved 01:24:13 09/02/09 (UMP-Krakow/src/cities-Krakow.pnt-converted.txt)"/>
  </node>
  <node id="538686837" version="2" timestamp="2009-11-02T17:48:15Z" uid="20587" user="balrog-kun" changeset="3018112" lat="50.15857" lon="19.69177">
    <tag k="name" v="Za Piłą"/>
    <tag k="place" v="village"/>
    <tag k="source" v="http://ump.waw.pl/ retrieved 01:24:13 09/02/09 (UMP-Krakow/src/cities-Krakow.pnt-converted.txt)"/>
  </node>
  <node id="538686909" version="2" timestamp="2010-04-11T04:52:30Z" uid="20587" user="balrog-kun" changeset="4389130" lat="50.150888" lon="19.730312">
    <tag k="name" v="Skotnica"/>
    <tag k="place" v="village"/>
    <tag k="source" v="http://ump.waw.pl/ retrieved 01:24:13 09/02/09 (UMP-Krakow/src/cities-Krakow.pnt-converted.txt)"/>
  </node>
  <node id="538686909" version="3" timestamp="2010-04-11T13:16:32Z" uid="20587" user="balrog-kun" changeset="4392352" lat="50.15486" lon="19.70417">
    <tag k="name" v="Skotnica"/>
    <tag k="place" v="village"/>
    <tag k="source" v="http://ump.waw.pl/ retrieved 01:24:13 09/02/09 (UMP-Krakow/src/cities-Krakow.pnt-converted.txt)"/>
  </node>
  <node id="538688704" version="2" timestamp="2010-04-11T04:52:30Z" uid="20587" user="balrog-kun" changeset="4389130" lat="50.1868636" lon="19.7409194">
    <tag k="name" v="Łazy"/>
    <tag k="place" v="village"/>
  </node>
  <node id="538688704" version="3" timestamp="2010-04-11T13:16:32Z" uid="20587" user="balrog-kun" changeset="4392352" lat="50.1864452" lon="19.7398392">
    <tag k="name" v="Łazy"/>
    <tag k="place" v="village"/>
  </node>
  <node id="538688745" version="2" timestamp="2010-04-11T04:52:30Z" uid="20587" user="balrog-kun" changeset="4389130" lat="50.1960205" lon="19.75547">
    <tag k="name" v="Kopaniny"/>
    <tag k="place" v="hamlet"/>
  </node>
  <node id="538688745" version="3" timestamp="2010-04-11T13:16:32Z" uid="20587" user="balrog-kun" changeset="4392352" lat="50.1960678" lon="19.7555943">
    <tag k="name" v="Kopaniny"/>
    <tag k="place" v="hamlet"/>
  </node>
  <node id="538688748" version="2" timestamp="2010-04-11T04:52:30Z" uid="20587" user="balrog-kun" changeset="4389130" lat="50.1967408" lon="19.7762566">
    <tag k="is_in" v="Poland"/>
    <tag k="name" v="Kolonia Wschodnia"/>
    <tag k="place" v="hamlet"/>
  </node>
  <node id="538688748" version="3" timestamp="2010-04-11T13:16:32Z" uid="20587" user="balrog-kun" changeset="4392352" lat="50.2046654" lon="19.7641137">
    <tag k="is_in" v="Poland"/>
    <tag k="name" v="Kolonia Wschodnia"/>
    <tag k="place" v="hamlet"/>
  </node>
  <node id="538688755" version="2" timestamp="2010-04-11T04:52:30Z" uid="20587" user="balrog-kun" changeset="4389130" lat="50.2161882" lon="19.7612836">
    <tag k="name" v="Gościniec"/>
    <tag k="place" v="hamlet"/>
  </node>
  <node id="538688755" version="3" timestamp="2010-04-11T13:16:32Z" uid="20587" user="balrog-kun" changeset="4392352" lat="50.2177988" lon="19.7592194">
    <tag k="name" v="Gościniec"/>
    <tag k="place" v="hamlet"/>
  </node>
  <node id="538688755" version="4" timestamp="2011-02-19T17:24:02Z" uid="163896" user="Zbigniew Czernik" changeset="7333946" lat="50.2196963" lon="19.7537877">
    <tag k="name" v="Gościniec"/>
    <tag k="place" v="hamlet"/>
  </node>
  <node id="538688757" version="2" timestamp="2010-04-11T04:52:30Z" uid="20587" user="balrog-kun" changeset="4389130" lat="50.2239978" lon="19.7749096">
    <tag k="name" v="Strona Kościelna"/>
    <tag k="place" v="hamlet"/>
  </node>
  <node id="538688757" version="3" timestamp="2010-04-11T13:16:32Z" uid="20587" user="balrog-kun" changeset="4392352" lat="50.2229683" lon="19.7722008">
    <tag k="name" v="Strona Kościelna"/>
    <tag k="place" v="hamlet"/>
  </node>
  <node id="538688759" version="2" timestamp="2010-04-11T04:52:30Z" uid="20587" user="balrog-kun" changeset="4389130" lat="50.2229157" lon="19.7692818">
    <tag k="name" v="Strona Góralska"/>
    <tag k="place" v="hamlet"/>
  </node>
  <node id="538688759" version="3" timestamp="2010-04-11T13:16:32Z" uid="20587" user="balrog-kun" changeset="4392352" lat="50.2238396" lon="19.7686954">
    <tag k="name" v="Strona Góralska"/>
    <tag k="place" v="hamlet"/>
  </node>
</osm>
