<?xml version='1.0' encoding='UTF-8'?>
<osm version="0.6" generator="libosmium/2.20.0">
  <node id="538674195" version="2" timestamp="2010-04-11T04:52:29Z" uid="20587" user="balrog-kun" changeset="4389130" lat="50.1751097" lon="19.5911541">
    <tag k="name" v="Nowa Góra"/>
    <tag k="place" v="village"/>
    <tag k="source" v="http://ump.waw.pl/ retrieved 01:24:13 09/02/09 (UMP-Krakow/src/cities-Krakow.pnt-converted.txt)"/>
  </node>
  <node id="538674195" version="3" timestamp="2010-04-11T13:16:30Z" uid="20587" user="balrog-kun" changeset="4392352" lat="50.1739953" lon="19.593333">
    <tag k="name" v="Nowa Góra"/>
    <tag k="place" v="village"/>
    <tag k="source" v="http://ump.waw.pl/ retrieved 01:24:13 09/02/09 (UMP-Krakow/src/cities-Krakow.pnt-converted.txt)"/>
  </node>
  <node id="538678943" version="3" timestamp="2010-04-22T22:24:22Z" uid="30632" user="antblant" changeset="4499596" lat="50.1491781" lon="19.6716901">
    <tag k="name" v="Błonia"/>
    <tag k="old_name" v="Błonie"/>
    <tag k="place" v="hamlet"/>
    <tag k="source" v="http://ump.waw.pl/ retrieved 01:24:13 09/02/09 (UMP-Krakow/src/cities-Krakow.pnt-converted.txt)"/>
  </node>
  <node id="538679015" version="2" timestamp="2010-04-11T04:52:29Z" uid="20587" user="balrog-kun" changeset="4389130" lat="50.15036" lon="19.67418">
    <tag k="name" v="Góra"/>
    <tag k="place" v="village"/>
    <tag k="source" v="http://ump.waw.pl/ retrieved 01:24:13 09/02/09 (UMP-Krakow/src/cities-Krakow.pnt-converted.txt)"/>
  </node>
  <node id="538679015" version="3" timestamp="2010-04-11T13:16:31Z" uid="20587" user="balrog-kun" changeset="4392352" lat="50.15036" lon="19.67418">
    <tag k="name" v="Góra"/>
    <tag k="place" v="village"/>
    <tag k="source" v="http://ump.waw.pl/ retrieved 01:24:13 09/02/09 (UMP-Krakow/src/cities-Krakow.pnt-converted.txt)"/>
  </node>
  <node id="538679100" version="2" timestamp="2010-04-11T04:52:29Z" uid="20587" user="balrog-kun" changeset="4389130" lat="50.14413" lon="19.67797">
    <tag k="name" v="Siedlec"/>
    <tag k="place" v="village"/>
    <tag k="source" v="http://ump.waw.pl/ retrieved 01:24:13 09/02/09 (UMP-Krakow/src/cities-Krakow.pnt-converted.txt)"/>
  </node>
  <node id="538679100" version="3" timestamp="2010-04-11T13:16:31Z" uid="20587" user="balrog-kun" changeset="4392352" lat="50.14413" lon="19.67797">
    <tag k="name" v="Siedlec"/>
    <tag k="place" v="village"/>
    <tag k="source" v="http://ump.waw.pl/ retrieved 01:24:13 09/02/09 (UMP-Krakow/src/cities-Krakow.pnt-converted.txt)"/>
  </node>
  <node id="538679323" version="2" timestamp="2010-04-11T04:52:29Z" uid="20587" user="balrog-kun" changeset="4389130" lat="50.14857" lon="19.6795">
    <tag k="name" v="Murowaniec"/>
    <tag k="place" v="village"/>
    <tag k="source" v="http://ump.waw.pl/ retrieved 01:24:13 09/02/09 (UMP-Krakow/src/cities-Krakow.pnt-converted.txt)"/>
  </node>
  <node id="538679323" version="3" timestamp="2010-04-11T13:16:31Z" uid="20587" user="balrog-kun" changeset="4392352" lat="50.14857" lon="19.6795">
    <tag k="name" v="Murowaniec"/>
    <tag k="place" v="village"/>
    <tag k="source" v="http://ump.waw.pl/ retrieved 01:24:13 09/02/09 (UMP-Krakow/src/cities-Krakow.pnt-converted.txt)"/>
  </node>
  <node id="538679337" version="3" timestamp="2010-04-11T04:52:29Z" uid="20587" user="balrog-kun" changeset="4389130" lat="50.1567975" lon="19.6927093">
    <tag k="name" v="Za Piłą"/>
    <tag k="place" v="hamlet"/>
    <tag k="source" v="http://ump.waw.pl/ retrieved 01:24:13 09/02/09 (UMP-Krakow/src/cities-Krakow.pnt-converted.txt)"/>
  </node>
  <node id="538679337" version="4" timestamp="2010-04-11T13:16:31Z" uid="20587" user="balrog-kun" changeset="4392352" lat="50.1560379" lon="19.6931118">
    <tag k="name" v="Za Piłą"/>
    <tag k="place" v="hamlet"/>
    <tag k="source" v="http://ump.waw.pl/ retrieved 01:24:13 09/02/09 (UMP-Krakow/src/cities-Krakow.pnt-converted.txt)"/>
  </node>
  <node id="538679406" version="2" timestamp="2010-04-11T04:52:29Z" uid="20587" user="balrog-kun" changeset="4389130" lat="50.16265" lon="19.67025">
    <tag k="name" v="Dębnik"/>
    <tag k="place" v="village"/>
    <tag k="source" v="http://ump.waw.pl/ retrieved 01:24:13 09/02/09 (UMP-Krakow/src/cities-Krakow.pnt-converted.txt)"/>
  </node>
  <node id="538679406" version="3" timestamp="2010-04-11T13:16:31Z" uid="20587" user="balrog-kun" changeset="4392352" lat="50.16265" lon="19.67025">
    <tag k="name" v="Dębnik"/>
    <tag k="place" v="village"/>
    <tag k="source" v="http://ump.waw.pl/ retrieved 01:24:13 09/02/09 (UMP-Krakow/src/cities-Krakow.pnt-converted.txt)"/>
  </node>
</osm>
