<?xml version='1.0' encoding='UTF-8'?>
<osm version="0.6" generator="libosmium/2.20.0">
  <node id="543262656" version="3" timestamp="2011-01-08T22:04:04Z" uid="6975" user="ulfl" changeset="6909590" lat="49.451033" lon="11.0729736">
    <tag k="addr:city" v="Nürnberg"/>
    <tag k="addr:country" v="DE"/>
    <tag k="addr:housenumber" v="8"/>
    <tag k="addr:postcode" v="90402"/>
    <tag k="addr:street" v="Hefnersplatz"/>
    <tag k="email" v="info@buch-jakob.de"/>
    <tag k="name" v="Jakob"/>
    <tag k="phone" v="0911 224718"/>
    <tag k="shop" v="books"/>
    <tag k="website" v="www.buch-jakob.de"/>
  </node>
  <node id="543262656" version="4" timestamp="2011-05-02T19:09:51Z" uid="89943" user="Bengatzer" changeset="8033504" lat="49.451033" lon="11.0729736">
    <tag k="addr:city" v="Nürnberg"/>
    <tag k="addr:country" v="DE"/>
    <tag k="addr:housenumber" v="8"/>
    <tag k="addr:postcode" v="90402"/>
    <tag k="addr:street" v="Hefnersplatz"/>
    <tag k="email" v="info@buch-jakob.de"/>
    <tag k="name" v="Jakob"/>
    <tag k="opening_hours" v="Mo-Sa 09:30-19:00"/>
    <tag k="phone" v="0911 224718"/>
    <tag k="shop" v="books"/>
    <tag k="website" v="www.buch-jakob.de"/>
  </node>
  <node id="543262656" version="5" timestamp="2011-09-24T20:27:16Z" uid="290680" user="wheelmap_visitor" changeset="9383846" lat="49.451033" lon="11.0729736">
    <tag k="addr:city" v="Nürnberg"/>
    <tag k="addr:country" v="DE"/>
    <tag k="addr:housenumber" v="8"/>
    <tag k="addr:postcode" v="90402"/>
    <tag k="addr:street" v="Hefnersplatz"/>
    <tag k="email" v="info@buch-jakob.de"/>
    <tag k="name" v="Jakob"/>
    <tag k="opening_hours" v="Mo-Sa 09:30-19:00"/>
    <tag k="phone" v="0911 224718"/>
    <tag k="shop" v="books"/>
    <tag k="website" v="www.buch-jakob.de"/>
    <tag k="wheelchair" v="no"/>
  </node>
  <node id="543262656" version="6" timestamp="2011-12-10T10:57:17Z" uid="71557" user="Taroc" changeset="10079938" lat="49.451033" lon="11.0729736"/>
</osm>
