<?xml version='1.0' encoding='UTF-8'?>
<osm version="0.6" generator="libosmium/2.20.0">
  <node id="544221769" version="2" timestamp="2010-09-22T12:10:31Z" uid="115477" user="wowik" changeset="5844970" lat="54.9202067" lon="22.0820469">
    <tag k="name" v="Лунино"/>
    <tag k="place" v="hamlet"/>
  </node>
  <node id="544221769" version="3" timestamp="2011-12-30T18:35:03Z" uid="260756" user="Felis Pimeja" changeset="10248219" lat="54.9202067" lon="22.0820469">
    <tag k="name" v="Лунино"/>
    <tag k="official_status" v="ru:посёлок"/>
    <tag k="place" v="hamlet"/>
    <tag k="population" v="520"/>
    <tag k="wikipedia" v="ru:Лунино (Неманский район)"/>
  </node>
  <node id="544225101" version="2" timestamp="2010-05-12T15:00:30Z" uid="58091" user="Andreas M" changeset="4677879" lat="48.1998569" lon="16.374949"/>
  <node id="544225101" version="3" timestamp="2010-12-04T17:13:20Z" uid="49642" user="realadry" changeset="6540477" lat="48.1998675" lon="16.3749701"/>
  <node id="544225101" version="4" timestamp="2010-12-05T13:16:54Z" uid="49642" user="realadry" changeset="6550519" lat="48.1998629" lon="16.3749494"/>
  <node id="544225101" version="5" timestamp="2011-07-29T22:41:22Z" uid="29320" user="Komяpa" changeset="8867909" lat="48.1998525" lon="16.3749121"/>
  <node id="544225101" version="6" timestamp="2011-09-04T10:42:26Z" uid="298560" user="evod" changeset="9207526" lat="48.1998525" lon="16.3749221"/>
  <node id="544225126" version="2" timestamp="2010-05-12T15:00:31Z" uid="58091" user="Andreas M" changeset="4677879" lat="48.2004171" lon="16.376828"/>
  <node id="544225126" version="3" timestamp="2011-07-03T13:39:38Z" uid="49642" user="realadry" changeset="8619010" lat="48.2004322" lon="16.3768364"/>
  <node id="544225126" version="4" timestamp="2011-09-04T10:42:26Z" uid="298560" user="evod" changeset="9207526" lat="48.2004157" lon="16.3767829"/>
  <node id="544225499" version="3" timestamp="2010-04-05T03:05:22Z" uid="4467" user="Rosscoe" changeset="4328970" lat="-36.9762211" lon="144.2509683"/>
  <node id="544225597" version="4" timestamp="2010-09-22T12:11:08Z" uid="115477" user="wowik" changeset="5844970" lat="54.9108037" lon="21.9732558">
    <tag k="addr:country" v="RU"/>
    <tag k="addr:district" v="Неманский район"/>
    <tag k="addr:postcode" v="238725"/>
    <tag k="addr:region" v="Калининградская область"/>
    <tag k="cladr:code" v="3900800004200"/>
    <tag k="cladr:name" v="Рудаково"/>
    <tag k="cladr:suffix" v="Поселок"/>
    <tag k="name" v="Рудаково"/>
    <tag k="name:de" v="Buddecken"/>
    <tag k="place" v="hamlet"/>
  </node>
  <node id="544225597" version="5" timestamp="2011-07-15T06:08:25Z" uid="383137" user="ErshKUS" changeset="8727923" lat="54.910224" lon="21.9881044">
    <tag k="addr:country" v="RU"/>
    <tag k="addr:district" v="Неманский район"/>
    <tag k="addr:postcode" v="238725"/>
    <tag k="addr:region" v="Калининградская область"/>
    <tag k="cladr:code" v="3900800004200"/>
    <tag k="cladr:name" v="Рудаково"/>
    <tag k="cladr:suffix" v="Поселок"/>
    <tag k="name" v="поселок Рудаково"/>
    <tag k="name:de" v="Buddecken"/>
    <tag k="place" v="hamlet"/>
  </node>
  <node id="544225597" version="6" timestamp="2011-08-09T20:32:31Z" uid="297358" user="patashnik" changeset="8971194" lat="54.910224" lon="21.9881044">
    <tag k="addr:country" v="RU"/>
    <tag k="addr:district" v="Неманский район"/>
    <tag k="addr:region" v="Калининградская область"/>
    <tag k="cladr:code" v="3900800004200"/>
    <tag k="name" v="поселок Рудаково"/>
    <tag k="name:de" v="Buddecken"/>
    <tag k="place" v="hamlet"/>
  </node>
  <node id="544225597" version="7" timestamp="2011-11-28T10:31:51Z" uid="383137" user="ErshKUS" changeset="9976371" lat="54.910224" lon="21.9881044">
    <tag k="addr:country" v="RU"/>
    <tag k="addr:district" v="Неманский район"/>
    <tag k="addr:region" v="Калининградская область"/>
    <tag k="cladr:code" v="3900800004200"/>
    <tag k="name" v="поселок Рудаково"/>
    <tag k="name:de" v="Buddecken"/>
    <tag k="official_status" v="ru:посёлок"/>
    <tag k="place" v="hamlet"/>
  </node>
  <node id="544225597" version="8" timestamp="2012-02-13T17:16:09Z" uid="481934" user="iWowik" changeset="10674259" lat="54.910224" lon="21.9881044">
    <tag k="addr:country" v="RU"/>
    <tag k="addr:district" v="Неманский район"/>
    <tag k="addr:region" v="Калининградская область"/>
    <tag k="cladr:code" v="3900800004200"/>
    <tag k="name" v="Рудаково"/>
    <tag k="name:de" v="Rudakowo"/>
    <tag k="official_status" v="ru:посёлок"/>
    <tag k="old_name:de" v="Buddecken"/>
    <tag k="place" v="hamlet"/>
  </node>
  <node id="544229966" version="2" timestamp="2010-04-11T04:52:47Z" uid="20587" user="balrog-kun" changeset="4389130" lat="49.6061444" lon="20.7819209">
    <tag k="name" v="Mystkow"/>
    <tag k="place" v="village"/>
  </node>
</osm>
