<?xml version='1.0' encoding='UTF-8'?>
<osm version="0.6" generator="libosmium/2.20.0">
  <node id="545622320" version="1" timestamp="2009-10-30T05:41:08Z" uid="38528" user="acrosscanadatrails" changeset="2986743" lat="49.3170587" lon="-124.294428">
    <tag k="amenity" v="fast_food"/>
    <tag k="cuisine" v="burger"/>
    <tag k="drive_thru" v="yes"/>
    <tag k="name" v="A&amp;W"/>
  </node>
  <node id="545622320" version="2" timestamp="2010-06-23T20:03:00Z" uid="5359" user="user_5359" changeset="5061563" lat="49.3170587" lon="-124.294428">
    <tag k="amenity" v="fast_food"/>
    <tag k="cuisine" v="burger"/>
    <tag k="drive_through" v="yes"/>
    <tag k="name" v="A&amp;W"/>
  </node>
  <node id="545622320" version="3" timestamp="2011-03-04T13:16:37Z" uid="236412" user="dcs" changeset="7454334" lat="49.3170587" lon="-124.294428">
    <tag k="amenity" v="fast_food"/>
    <tag k="cuisine" v="burger"/>
    <tag k="drive_thru" v="yes"/>
    <tag k="name" v="A&amp;W"/>
  </node>
  <node id="545622320" version="4" timestamp="2011-03-04T14:44:26Z" uid="236412" user="dcs" changeset="7454914" lat="49.3170587" lon="-124.294428">
    <tag k="amenity" v="fast_food"/>
    <tag k="cuisine" v="burger"/>
    <tag k="drive_through" v="yes"/>
    <tag k="name" v="A&amp;W"/>
  </node>
  <node id="545622320" version="5" timestamp="2012-03-24T22:39:17Z" uid="307202" user="alester" changeset="11089815" lat="49.3170587" lon="-124.294428"/>
  <node id="545622338" version="1" timestamp="2009-10-30T05:41:08Z" uid="38528" user="acrosscanadatrails" changeset="2986743" lat="49.3166979" lon="-124.2946445">
    <tag k="amenity" v="bus_station"/>
    <tag k="name" v="Parksville Laidlaw Bus Depot"/>
    <tag k="name2" v="Greyhound Currier Express"/>
  </node>
  <node id="545622338" version="2" timestamp="2012-02-01T02:42:22Z" uid="147510" user="woodpeck_fixbot" changeset="10555534" lat="49.3166979" lon="-124.2946445"/>
  <node id="545622877" version="2" timestamp="2011-01-15T14:22:49Z" uid="4467" user="Rosscoe" changeset="6977419" lat="-34.6228951" lon="117.6694031"/>
</osm>
