<?xml version='1.0' encoding='UTF-8'?>
<osm version="0.6" generator="libosmium/2.20.0">
  <node id="547500632" version="3" timestamp="2010-07-29T09:37:25Z" uid="74617" user="JohnSmith" changeset="5344848" lat="52.8691531" lon="9.5211179">
    <tag k="amenity" v="emergency_phone"/>
    <tag k="emergency" v="phone"/>
    <tag k="name" v="Autobahnmeisterei"/>
  </node>
  <node id="547501583" version="1" timestamp="2009-10-31T01:43:37Z" uid="99207" user="Lar Kiesel" changeset="2994557" lat="34.0508271" lon="-81.1834138">
    <tag k="addr:city" v="Columbia, SC"/>
    <tag k="addr:housenumber" v="5604"/>
    <tag k="addr:postcode" v="29212"/>
    <tag k="addr:street" v="Bush River Road"/>
    <tag k="leisure" v="park"/>
    <tag k="name" v="Saluda Shoals Park"/>
  </node>
  <node id="547501583" version="2" timestamp="2009-10-31T01:51:21Z" uid="99207" user="Lar Kiesel" changeset="2994584" lat="34.0508342" lon="-81.1834194">
    <tag k="addr:city" v="Columbia, SC"/>
    <tag k="addr:housenumber" v="5604"/>
    <tag k="addr:postcode" v="29212"/>
    <tag k="addr:street" v="Bush River Road"/>
    <tag k="leisure" v="park"/>
    <tag k="name" v="Saluda Shoals Park"/>
    <tag k="phone" v="803-731-5208"/>
    <tag k="website" v="http://www.icrc.net/saludashoals/"/>
  </node>
  <node id="547501583" version="3" timestamp="2012-02-24T19:48:11Z" uid="606209" user="IkeHurley13" changeset="10781712" lat="34.0508342" lon="-81.1834194"/>
  <node id="547501775" version="2" timestamp="2010-07-29T09:14:42Z" uid="74617" user="JohnSmith" changeset="5344848" lat="52.8687882" lon="9.5209143">
    <tag k="amenity" v="emergency_phone"/>
    <tag k="emergency" v="phone"/>
    <tag k="name" v="Autobahnmeisterei"/>
  </node>
  <node id="547501779" version="2" timestamp="2010-07-29T09:40:45Z" uid="74617" user="JohnSmith" changeset="5344848" lat="52.8608297" lon="9.5392676">
    <tag k="amenity" v="emergency_phone"/>
    <tag k="emergency" v="phone"/>
    <tag k="name" v="Autobahnmeisterei"/>
  </node>
  <node id="547503023" version="2" timestamp="2010-07-29T09:28:32Z" uid="74617" user="JohnSmith" changeset="5344848" lat="52.8507041" lon="9.5592137">
    <tag k="amenity" v="emergency_phone"/>
    <tag k="emergency" v="phone"/>
    <tag k="name" v="Autobahnmeisterei"/>
  </node>
  <node id="547505001" version="1" timestamp="2009-10-31T01:46:28Z" uid="99207" user="Lar Kiesel" changeset="2994557" lat="34.050379" lon="-81.1543258">
    <tag k="addr:city" v="Columbia, SC"/>
    <tag k="addr:housenumber" v="200"/>
    <tag k="addr:postcode" v="29210"/>
    <tag k="addr:street" v="Leisure Lane"/>
    <tag k="leisure" v="park"/>
    <tag k="name" v="Seven Oaks Park"/>
    <tag k="phone" v="803-772-3336"/>
    <tag k="website" v="http://www.icrc.net/SevenOaks/Default.aspx"/>
  </node>
  <node id="547505602" version="2" timestamp="2010-07-29T09:41:41Z" uid="74617" user="JohnSmith" changeset="5344848" lat="52.8438231" lon="9.5771199">
    <tag k="amenity" v="emergency_phone"/>
    <tag k="emergency" v="phone"/>
    <tag k="name" v="Autobahnmeisterei"/>
  </node>
  <node id="547506564" version="2" timestamp="2010-07-29T09:40:31Z" uid="74617" user="JohnSmith" changeset="5344848" lat="52.8364794" lon="9.592697">
    <tag k="amenity" v="emergency_phone"/>
    <tag k="emergency" v="phone"/>
    <tag k="name" v="Autobahnmeisterei"/>
  </node>
  <node id="547507292" version="2" timestamp="2010-07-29T09:19:01Z" uid="74617" user="JohnSmith" changeset="5344848" lat="52.8234112" lon="9.6103044">
    <tag k="amenity" v="emergency_phone"/>
    <tag k="emergency" v="phone"/>
    <tag k="name" v="Autobahnmeisterei"/>
  </node>
  <node id="547508294" version="2" timestamp="2010-07-29T09:21:32Z" uid="74617" user="JohnSmith" changeset="5344848" lat="52.7951095" lon="9.6532323">
    <tag k="amenity" v="emergency_phone"/>
    <tag k="emergency" v="phone"/>
    <tag k="name" v="Autobahnmeisterei"/>
  </node>
  <node id="547508297" version="2" timestamp="2010-07-29T09:25:01Z" uid="74617" user="JohnSmith" changeset="5344848" lat="52.795495" lon="9.6534893">
    <tag k="amenity" v="emergency_phone"/>
    <tag k="emergency" v="phone"/>
    <tag k="name" v="Autobahnmeisterei"/>
  </node>
  <node id="547509422" version="2" timestamp="2010-07-29T09:20:41Z" uid="74617" user="JohnSmith" changeset="5344848" lat="52.7778394" lon="9.6685171">
    <tag k="amenity" v="emergency_phone"/>
    <tag k="emergency" v="phone"/>
    <tag k="name" v="Autobahnmeisterei"/>
  </node>
</osm>
