<?xml version='1.0' encoding='UTF-8'?>
<osm version="0.6" generator="libosmium/2.20.0">
  <node id="548211516" version="2" timestamp="2010-04-03T17:26:06Z" uid="85955" user="Gerd Höweler" changeset="4315328" lat="52.0504046" lon="8.5959751">
    <tag k="addr:housenumber" v="74"/>
    <tag k="addr:street" v="Rabenhof"/>
    <tag k="amenity" v="pharmacy"/>
    <tag k="name" v="Apotheke am Rabenhof"/>
    <tag k="note" v="Position geschätzt"/>
    <tag k="website" v="http://www.apotheke-am-rabenhof.de/"/>
  </node>
  <node id="548211516" version="3" timestamp="2010-12-10T16:58:12Z" uid="290680" user="wheelmap_visitor" changeset="6607185" lat="52.0504046" lon="8.5959751">
    <tag k="addr:housenumber" v="74"/>
    <tag k="addr:street" v="Rabenhof"/>
    <tag k="amenity" v="pharmacy"/>
    <tag k="name" v="Apotheke am Rabenhof"/>
    <tag k="note" v="Position geschätzt"/>
    <tag k="shop" v="pharmacy"/>
    <tag k="website" v="http://www.apotheke-am-rabenhof.de/"/>
    <tag k="wheelchair" v="limited"/>
  </node>
  <node id="548211516" version="4" timestamp="2011-07-12T03:05:54Z" uid="461103" user="nomatrix" changeset="8699284" lat="52.0504046" lon="8.5959751">
    <tag k="addr:housenumber" v="74"/>
    <tag k="addr:postcode" v="33609"/>
    <tag k="addr:street" v="Rabenhof"/>
    <tag k="amenity" v="pharmacy"/>
    <tag k="name" v="Apotheke am Rabenhof"/>
    <tag k="note" v="Position geschätzt"/>
    <tag k="shop" v="pharmacy"/>
    <tag k="website" v="http://www.apotheke-am-rabenhof.de/"/>
    <tag k="wheelchair" v="limited"/>
  </node>
  <node id="548211516" version="5" timestamp="2011-07-24T18:01:33Z" uid="461103" user="nomatrix" changeset="8819378" lat="52.0504028" lon="8.5959334">
    <tag k="addr:housenumber" v="74"/>
    <tag k="addr:postcode" v="33609"/>
    <tag k="addr:street" v="Rabenhof"/>
    <tag k="amenity" v="pharmacy"/>
    <tag k="name" v="Apotheke am Rabenhof"/>
    <tag k="note" v="Position geschätzt"/>
    <tag k="shop" v="pharmacy"/>
    <tag k="website" v="http://www.apotheke-am-rabenhof.de/"/>
    <tag k="wheelchair" v="limited"/>
  </node>
  <node id="548211516" version="6" timestamp="2011-07-27T00:06:00Z" uid="461103" user="nomatrix" changeset="8841093" lat="52.0504028" lon="8.5959334">
    <tag k="addr:city" v="Bielefeld"/>
    <tag k="addr:country" v="DE"/>
    <tag k="addr:housenumber" v="74"/>
    <tag k="addr:postcode" v="33609"/>
    <tag k="addr:street" v="Rabenhof"/>
    <tag k="amenity" v="pharmacy"/>
    <tag k="name" v="Apotheke am Rabenhof"/>
    <tag k="note" v="Position geschätzt"/>
    <tag k="shop" v="pharmacy"/>
    <tag k="website" v="http://www.apotheke-am-rabenhof.de/"/>
    <tag k="wheelchair" v="limited"/>
  </node>
</osm>
