<?xml version='1.0' encoding='UTF-8'?>
<osm version="0.6" generator="libosmium/2.20.0">
  <node id="548684081" version="1" timestamp="2009-10-31T14:18:02Z" uid="64977" user="CLoeser" changeset="2997717" lat="53.9304954" lon="9.4964008">
    <tag k="man_made" v="gasometer"/>
  </node>
  <node id="548684081" version="2" timestamp="2010-12-25T18:59:38Z" uid="75388" user="Svalbard" changeset="6763216" lat="53.9304954" lon="9.4964008">
    <tag k="man_made" v="gasometer"/>
  </node>
  <node id="548684201" version="3" timestamp="2010-04-27T04:18:46Z" uid="30632" user="antblant" changeset="4537909" lat="50.5490888" lon="18.9350389">
    <tag k="is_in:town" v="Kalety"/>
    <tag k="name" v="Kuczów"/>
    <tag k="place" v="suburb"/>
    <tag k="teryt:simc" v="0230993"/>
    <tag k="wikipedia" v="pl:Kuczów (dzielnica Kalet)"/>
  </node>
  <node id="548684201" version="4" timestamp="2012-02-06T20:02:19Z" uid="314684" user="krattbot" changeset="10605722" lat="50.5490888" lon="18.9350389">
    <tag k="fixme" v="Bad wikipedia link: pl:Kuczów (dzielnica Kalet)"/>
    <tag k="is_in:town" v="Kalety"/>
    <tag k="name" v="Kuczów"/>
    <tag k="place" v="suburb"/>
    <tag k="teryt:simc" v="0230993"/>
    <tag k="wikipedia" v="pl:Kuczów (dzielnica Kalet)"/>
  </node>
  <node id="548688077" version="3" timestamp="2010-04-27T04:02:24Z" uid="30632" user="antblant" changeset="4537862" lat="50.5562412" lon="18.8596186">
    <tag k="is_in" v="Kalety"/>
    <tag k="name" v="Lubocz"/>
    <tag k="place" v="village"/>
    <tag k="teryt:simc" v="0551496"/>
  </node>
  <node id="548688077" version="4" timestamp="2011-04-19T11:13:44Z" uid="439794" user="cotara" changeset="7905480" lat="50.5560613" lon="18.8609393">
    <tag k="is_in" v="Kalety"/>
    <tag k="name" v="Lubocz"/>
    <tag k="place" v="suburb"/>
    <tag k="teryt:simc" v="0551496"/>
  </node>
  <node id="548688077" version="5" timestamp="2011-10-11T13:52:09Z" uid="439794" user="cotara" changeset="9530860" lat="50.5565482" lon="18.8609463">
    <tag k="is_in" v="Kalety"/>
    <tag k="name" v="Lubocz"/>
    <tag k="place" v="suburb"/>
    <tag k="teryt:simc" v="0551496"/>
  </node>
  <node id="548688077" version="6" timestamp="2012-02-26T15:44:37Z" uid="192105" user="krychu2000" changeset="10799649" lat="50.5565482" lon="18.8609463">
    <tag k="is_in" v="Kalety"/>
    <tag k="name" v="Lubocz"/>
    <tag k="place" v="hamlet"/>
    <tag k="teryt:simc" v="0551496"/>
  </node>
</osm>
