<?xml version='1.0' encoding='UTF-8'?>
<osm version="0.6" generator="libosmium/2.20.0">
  <node id="550495211" version="2" timestamp="2010-10-05T01:33:19Z" uid="20587" user="balrog-kun" changeset="5958352" lat="49.8837595" lon="19.4922902">
    <tag k="addr:city" v="Wadowice"/>
    <tag k="addr:housenumber" v="19"/>
    <tag k="addr:street" v="Plac Jana Pawła II"/>
    <tag k="amenity" v="atm"/>
    <tag k="name" v="ING ATM"/>
    <tag k="phone" v="+48338731377"/>
    <tag k="source" v="http://ump.waw.pl/ retrieved 01:24:13 09/02/09 (UMP-Krakow/src/KRAKOW.bankomaty.pnt-converted.txt)"/>
  </node>
  <node id="550495211" version="3" timestamp="2012-03-04T19:14:56Z" uid="147230" user="TomaszKoniaków" changeset="10872698" lat="49.8837227" lon="19.4922867">
    <tag k="addr:city" v="Wadowice"/>
    <tag k="addr:housenumber" v="19"/>
    <tag k="addr:street" v="Plac Jana Pawła II"/>
    <tag k="amenity" v="atm"/>
    <tag k="name" v="ING ATM"/>
    <tag k="phone" v="+48338731377"/>
    <tag k="source" v="http://ump.waw.pl/ retrieved 01:24:13 09/02/09 (UMP-Krakow/src/KRAKOW.bankomaty.pnt-converted.txt)"/>
  </node>
  <node id="550495217" version="2" timestamp="2010-10-05T01:34:04Z" uid="20587" user="balrog-kun" changeset="5958352" lat="49.883746" lon="19.4921202">
    <tag k="addr:city" v="Wadowice"/>
    <tag k="addr:housenumber" v="18"/>
    <tag k="addr:street" v="Plac Jana Pawła II"/>
    <tag k="amenity" v="atm"/>
    <tag k="atm_ref" v="ML3073A"/>
    <tag k="millennium:date" v="2009-05-21 17:13:02"/>
    <tag k="millennium:network" v="Millennium"/>
    <tag k="millennium:ref" v="18172"/>
    <tag k="millennium:subtype" v="Euronet"/>
    <tag k="name" v="Bankomat Millennium"/>
    <tag k="operator" v="Euronet Sp. z o.o."/>
    <tag k="phone" v="+48338731377"/>
  </node>
  <node id="550495217" version="3" timestamp="2012-03-04T19:14:54Z" uid="147230" user="TomaszKoniaków" changeset="10872698" lat="49.8837237" lon="19.4921185">
    <tag k="addr:city" v="Wadowice"/>
    <tag k="addr:housenumber" v="18"/>
    <tag k="addr:street" v="Plac Jana Pawła II"/>
    <tag k="amenity" v="atm"/>
    <tag k="atm_ref" v="ML3073A"/>
    <tag k="millennium:date" v="2009-05-21 17:13:02"/>
    <tag k="millennium:network" v="Millennium"/>
    <tag k="millennium:ref" v="18172"/>
    <tag k="millennium:subtype" v="Euronet"/>
    <tag k="name" v="Bankomat Millennium"/>
    <tag k="operator" v="Euronet Sp. z o.o."/>
    <tag k="phone" v="+48338731377"/>
  </node>
  <node id="550497022" version="2" timestamp="2010-04-11T04:52:48Z" uid="20587" user="balrog-kun" changeset="4389130" lat="49.90243" lon="19.48447">
    <tag k="name" v="Tomice"/>
    <tag k="place" v="town"/>
    <tag k="source" v="http://ump.waw.pl/ retrieved 01:24:13 09/02/09 (UMP-Krakow/src/cities-Krakow.pnt-converted.txt)"/>
  </node>
  <node id="550497022" version="3" timestamp="2010-04-11T13:16:35Z" uid="20587" user="balrog-kun" changeset="4392352" lat="49.90243" lon="19.48447">
    <tag k="name" v="Tomice"/>
    <tag k="place" v="town"/>
    <tag k="source" v="http://ump.waw.pl/ retrieved 01:24:13 09/02/09 (UMP-Krakow/src/cities-Krakow.pnt-converted.txt)"/>
  </node>
  <node id="550497022" version="4" timestamp="2011-08-01T23:53:47Z" uid="467703" user="ZbigniewCzernik" changeset="8896588" lat="49.90243" lon="19.48447">
    <tag k="name" v="Tomice"/>
    <tag k="place" v="village"/>
    <tag k="source" v="http://ump.waw.pl/ retrieved 01:24:13 09/02/09 (UMP-Krakow/src/cities-Krakow.pnt-converted.txt)"/>
  </node>
  <node id="550497022" version="5" timestamp="2011-08-02T00:05:51Z" uid="467703" user="ZbigniewCzernik" changeset="8896588" lat="49.90243" lon="19.48447">
    <tag k="name" v="Tomice"/>
    <tag k="place" v="village"/>
  </node>
  <node id="550497424" version="2" timestamp="2010-04-11T04:52:49Z" uid="20587" user="balrog-kun" changeset="4389130" lat="49.9174449" lon="19.4749002">
    <tag k="name" v="Radocza"/>
    <tag k="place" v="village"/>
    <tag k="source" v="http://ump.waw.pl/ retrieved 01:24:13 09/02/09 (UMP-Krakow/src/cities-Krakow.pnt-converted.txt)"/>
  </node>
  <node id="550497424" version="3" timestamp="2010-04-11T13:16:35Z" uid="20587" user="balrog-kun" changeset="4392352" lat="49.9182055" lon="19.4715274">
    <tag k="name" v="Radocza"/>
    <tag k="place" v="village"/>
    <tag k="source" v="http://ump.waw.pl/ retrieved 01:24:13 09/02/09 (UMP-Krakow/src/cities-Krakow.pnt-converted.txt)"/>
  </node>
  <node id="550497424" version="4" timestamp="2010-04-27T04:04:04Z" uid="30632" user="antblant" changeset="4537867" lat="49.9182055" lon="19.4715274">
    <tag k="name" v="Radocza"/>
    <tag k="place" v="village"/>
    <tag k="source" v="http://ump.waw.pl/ retrieved 01:24:13 09/02/09 (UMP-Krakow/src/cities-Krakow.pnt-converted.txt)"/>
    <tag k="teryt:simc" v="0072710"/>
  </node>
  <node id="550497424" version="5" timestamp="2011-08-02T00:05:57Z" uid="467703" user="ZbigniewCzernik" changeset="8896588" lat="49.9182055" lon="19.4715274">
    <tag k="name" v="Radocza"/>
    <tag k="place" v="village"/>
    <tag k="teryt:simc" v="0072710"/>
  </node>
</osm>
