<?xml version='1.0' encoding='UTF-8'?>
<osm version="0.6" generator="libosmium/2.20.0">
  <node id="552900237" version="2" timestamp="2010-04-11T04:52:54Z" uid="20587" user="balrog-kun" changeset="4389130" lat="50.04129" lon="19.44033">
    <tag k="name" v="Jankowice"/>
    <tag k="place" v="village"/>
    <tag k="source" v="http://ump.waw.pl/ retrieved 01:24:13 09/02/09 (UMP-Krakow/src/cities-Krakow.pnt-converted.txt)"/>
  </node>
  <node id="552900237" version="3" timestamp="2010-04-11T13:16:40Z" uid="20587" user="balrog-kun" changeset="4392352" lat="50.04129" lon="19.44033">
    <tag k="name" v="Jankowice"/>
    <tag k="place" v="village"/>
    <tag k="source" v="http://ump.waw.pl/ retrieved 01:24:13 09/02/09 (UMP-Krakow/src/cities-Krakow.pnt-converted.txt)"/>
  </node>
  <node id="552902459" version="2" timestamp="2010-04-11T04:52:54Z" uid="20587" user="balrog-kun" changeset="4389130" lat="50.07493" lon="19.4361">
    <tag k="name" v="Wygiełzów"/>
    <tag k="place" v="village"/>
    <tag k="source" v="http://ump.waw.pl/ retrieved 01:24:13 09/02/09 (UMP-Krakow/src/cities-Krakow.pnt-converted.txt)"/>
  </node>
  <node id="552902459" version="3" timestamp="2010-04-11T13:16:41Z" uid="20587" user="balrog-kun" changeset="4392352" lat="50.07493" lon="19.4361">
    <tag k="name" v="Wygiełzów"/>
    <tag k="place" v="village"/>
    <tag k="source" v="http://ump.waw.pl/ retrieved 01:24:13 09/02/09 (UMP-Krakow/src/cities-Krakow.pnt-converted.txt)"/>
  </node>
  <node id="552902587" version="2" timestamp="2010-04-11T04:52:54Z" uid="20587" user="balrog-kun" changeset="4389130" lat="50.0541677" lon="19.4520369">
    <tag k="name" v="Olszyny"/>
    <tag k="place" v="village"/>
    <tag k="source" v="http://ump.waw.pl/ retrieved 01:24:13 09/02/09 (UMP-Krakow/src/cities-Krakow.pnt-converted.txt)"/>
  </node>
  <node id="552902587" version="3" timestamp="2010-04-11T13:16:41Z" uid="20587" user="balrog-kun" changeset="4392352" lat="50.0532496" lon="19.4518041">
    <tag k="name" v="Olszyny"/>
    <tag k="place" v="village"/>
    <tag k="source" v="http://ump.waw.pl/ retrieved 01:24:13 09/02/09 (UMP-Krakow/src/cities-Krakow.pnt-converted.txt)"/>
  </node>
  <node id="552902899" version="2" timestamp="2010-04-11T04:52:54Z" uid="20587" user="balrog-kun" changeset="4389130" lat="50.06094" lon="19.46511">
    <tag k="name" v="Włosień"/>
    <tag k="place" v="village"/>
    <tag k="source" v="http://ump.waw.pl/ retrieved 01:24:13 09/02/09 (UMP-Krakow/src/cities-Krakow.pnt-converted.txt)"/>
  </node>
  <node id="552902899" version="3" timestamp="2010-04-11T13:16:41Z" uid="20587" user="balrog-kun" changeset="4392352" lat="50.06094" lon="19.46511">
    <tag k="name" v="Włosień"/>
    <tag k="place" v="village"/>
    <tag k="source" v="http://ump.waw.pl/ retrieved 01:24:13 09/02/09 (UMP-Krakow/src/cities-Krakow.pnt-converted.txt)"/>
  </node>
  <node id="552902899" version="4" timestamp="2010-04-27T04:15:33Z" uid="30632" user="antblant" changeset="4537896" lat="50.06094" lon="19.46511">
    <tag k="name" v="Włosień"/>
    <tag k="place" v="village"/>
    <tag k="source" v="http://ump.waw.pl/ retrieved 01:24:13 09/02/09 (UMP-Krakow/src/cities-Krakow.pnt-converted.txt)"/>
    <tag k="teryt:simc" v="0192028"/>
  </node>
  <node id="552903064" version="2" timestamp="2010-04-11T04:52:54Z" uid="20587" user="balrog-kun" changeset="4389130" lat="50.0709" lon="19.44934">
    <tag k="name" v="Babice"/>
    <tag k="place" v="town"/>
    <tag k="source" v="http://ump.waw.pl/ retrieved 01:24:13 09/02/09 (UMP-Krakow/src/cities-Krakow.pnt-converted.txt)"/>
  </node>
  <node id="552903064" version="3" timestamp="2010-04-11T13:16:41Z" uid="20587" user="balrog-kun" changeset="4392352" lat="50.0709" lon="19.44934">
    <tag k="name" v="Babice"/>
    <tag k="place" v="town"/>
    <tag k="source" v="http://ump.waw.pl/ retrieved 01:24:13 09/02/09 (UMP-Krakow/src/cities-Krakow.pnt-converted.txt)"/>
  </node>
  <node id="552908183" version="2" timestamp="2010-04-11T04:52:54Z" uid="20587" user="balrog-kun" changeset="4389130" lat="50.0424693" lon="19.5737112">
    <tag k="name" v="Działki"/>
    <tag k="place" v="village"/>
    <tag k="source" v="http://ump.waw.pl/ retrieved 01:24:13 09/02/09 (UMP-Krakow/src/cities-Krakow.pnt-converted.txt)"/>
  </node>
  <node id="552908183" version="3" timestamp="2010-04-11T13:16:41Z" uid="20587" user="balrog-kun" changeset="4392352" lat="50.0426661" lon="19.5732617">
    <tag k="name" v="Działki"/>
    <tag k="place" v="village"/>
    <tag k="source" v="http://ump.waw.pl/ retrieved 01:24:13 09/02/09 (UMP-Krakow/src/cities-Krakow.pnt-converted.txt)"/>
  </node>
  <node id="552908739" version="2" timestamp="2010-04-11T04:52:54Z" uid="20587" user="balrog-kun" changeset="4389130" lat="50.06098" lon="19.52577">
    <tag k="name" v="Spalona"/>
    <tag k="place" v="village"/>
    <tag k="source" v="http://ump.waw.pl/ retrieved 01:24:13 09/02/09 (UMP-Krakow/src/cities-Krakow.pnt-converted.txt)"/>
  </node>
  <node id="552908739" version="3" timestamp="2010-04-11T13:16:41Z" uid="20587" user="balrog-kun" changeset="4392352" lat="50.06098" lon="19.52577">
    <tag k="name" v="Spalona"/>
    <tag k="place" v="village"/>
    <tag k="source" v="http://ump.waw.pl/ retrieved 01:24:13 09/02/09 (UMP-Krakow/src/cities-Krakow.pnt-converted.txt)"/>
  </node>
  <node id="552909251" version="2" timestamp="2010-04-11T04:52:54Z" uid="20587" user="balrog-kun" changeset="4389130" lat="50.05948" lon="19.54451">
    <tag k="name" v="Kamionki"/>
    <tag k="place" v="village"/>
    <tag k="source" v="http://ump.waw.pl/ retrieved 01:24:13 09/02/09 (UMP-Krakow/src/cities-Krakow.pnt-converted.txt)"/>
  </node>
  <node id="552909251" version="3" timestamp="2010-04-11T13:16:41Z" uid="20587" user="balrog-kun" changeset="4392352" lat="50.05948" lon="19.54451">
    <tag k="name" v="Kamionki"/>
    <tag k="place" v="village"/>
    <tag k="source" v="http://ump.waw.pl/ retrieved 01:24:13 09/02/09 (UMP-Krakow/src/cities-Krakow.pnt-converted.txt)"/>
  </node>
</osm>
