<?xml version='1.0' encoding='UTF-8'?>
<osm version="0.6" generator="libosmium/2.20.0">
  <node id="555709938" version="1" timestamp="2009-11-05T03:29:07Z" uid="99207" user="Lar Kiesel" changeset="3037842" lat="33.9881133" lon="-81.2454123">
    <tag k="amenity" v="restaurant"/>
    <tag k="cuisine" v="ice_cream"/>
    <tag k="name" v="TCBY"/>
  </node>
  <node id="555709961" version="1" timestamp="2009-11-05T03:29:08Z" uid="99207" user="Lar Kiesel" changeset="3037842" lat="33.9880706" lon="-81.2444253">
    <tag k="amenity" v="restaurant"/>
    <tag k="cuisine" v="chinese"/>
  </node>
  <node id="555709961" version="2" timestamp="2010-01-28T08:10:45Z" uid="99207" user="Lar Kiesel" changeset="3733733" lat="33.9888949" lon="-81.2406174">
    <tag k="amenity" v="restaurant"/>
    <tag k="cuisine" v="chinese"/>
    <tag k="name" v="Little China Buffet"/>
  </node>
  <node id="555709973" version="1" timestamp="2009-11-05T03:29:08Z" uid="99207" user="Lar Kiesel" changeset="3037842" lat="33.9849178" lon="-81.2416186">
    <tag k="addr:city" v="Lexington, SC"/>
    <tag k="addr:postcode" v="29072"/>
    <tag k="addr:street" v="West Main Street"/>
    <tag k="amenity" v="restaurant"/>
    <tag k="name" v="Lexington Arms"/>
  </node>
</osm>
