<?xml version='1.0' encoding='UTF-8'?>
<osm version="0.6" generator="libosmium/2.20.0">
  <node id="557360525" version="5" timestamp="2010-08-14T08:08:02Z" uid="6975" user="ulfl" changeset="5488231" lat="49.5096604" lon="11.4311332">
    <tag k="addr:city" v="Hersbruck"/>
    <tag k="addr:country" v="DE"/>
    <tag k="addr:housenumber" v="1B"/>
    <tag k="addr:postcode" v="91217"/>
    <tag k="addr:street" v="Grabenstrasse"/>
    <tag k="brand" v="Yamaha;Husqvarna;Kymco;MZ"/>
    <tag k="clothes" v="yes"/>
    <tag k="email" v="info@teuchert.de"/>
    <tag k="fax" v="09151 824872 "/>
    <tag k="name" v="Teuchert"/>
    <tag k="operator" v="Zweirad Teuchert"/>
    <tag k="parts" v="yes"/>
    <tag k="phone" v="09151 824870"/>
    <tag k="repair" v="yes"/>
    <tag k="sale" v="yes"/>
    <tag k="shop" v="motorcycle"/>
    <tag k="website" v="www.teuchert.de"/>
  </node>
  <node id="557360525" version="6" timestamp="2010-08-14T19:58:37Z" uid="70696" user="xybot" changeset="5493964" lat="49.5096604" lon="11.4311332">
    <tag k="addr:city" v="Hersbruck"/>
    <tag k="addr:country" v="DE"/>
    <tag k="addr:housenumber" v="1B"/>
    <tag k="addr:postcode" v="91217"/>
    <tag k="addr:street" v="Grabenstrasse"/>
    <tag k="brand" v="Yamaha;Husqvarna;Kymco;MZ"/>
    <tag k="clothes" v="yes"/>
    <tag k="email" v="info@teuchert.de"/>
    <tag k="fax" v="09151 824872"/>
    <tag k="name" v="Teuchert"/>
    <tag k="operator" v="Zweirad Teuchert"/>
    <tag k="parts" v="yes"/>
    <tag k="phone" v="09151 824870"/>
    <tag k="repair" v="yes"/>
    <tag k="sale" v="yes"/>
    <tag k="shop" v="motorcycle"/>
    <tag k="website" v="www.teuchert.de"/>
  </node>
  <node id="557360525" version="7" timestamp="2010-08-16T12:04:06Z" uid="70696" user="xybot" changeset="5508443" lat="49.5096604" lon="11.4311332">
    <tag k="addr:city" v="Hersbruck"/>
    <tag k="addr:country" v="DE"/>
    <tag k="addr:housenumber" v="1B"/>
    <tag k="addr:postcode" v="91217"/>
    <tag k="addr:street" v="GrabenstraÃŸe"/>
    <tag k="brand" v="Yamaha;Husqvarna;Kymco;MZ"/>
    <tag k="clothes" v="yes"/>
    <tag k="email" v="info@teuchert.de"/>
    <tag k="fax" v="09151 824872"/>
    <tag k="name" v="Teuchert"/>
    <tag k="operator" v="Zweirad Teuchert"/>
    <tag k="parts" v="yes"/>
    <tag k="phone" v="09151 824870"/>
    <tag k="repair" v="yes"/>
    <tag k="sale" v="yes"/>
    <tag k="shop" v="motorcycle"/>
    <tag k="website" v="www.teuchert.de"/>
  </node>
  <node id="557360525" version="8" timestamp="2012-01-15T22:50:49Z" uid="82877" user="Wankmann" changeset="10404318" lat="49.5096604" lon="11.4311332"/>
  <node id="557368205" version="2" timestamp="2011-03-04T11:17:58Z" uid="4467" user="Rosscoe" changeset="7453501" lat="-19.1985088" lon="146.6768232"/>
  <node id="557368311" version="2" timestamp="2011-03-04T11:17:59Z" uid="4467" user="Rosscoe" changeset="7453501" lat="-19.1985873" lon="146.6766983"/>
  <node id="557368415" version="2" timestamp="2010-04-25T15:06:23Z" uid="4467" user="Rosscoe" changeset="4522433" lat="-19.1924654" lon="146.6781387"/>
  <node id="557368653" version="2" timestamp="2011-03-04T11:17:59Z" uid="4467" user="Rosscoe" changeset="7453501" lat="-19.1987071" lon="146.6767906"/>
  <node id="557368661" version="2" timestamp="2011-03-04T11:17:59Z" uid="4467" user="Rosscoe" changeset="7453501" lat="-19.198611" lon="146.6769087"/>
</osm>
