<?xml version='1.0' encoding='UTF-8'?>
<osm version="0.6" generator="libosmium/2.20.0">
  <node id="558645783" version="2" timestamp="2010-12-18T22:07:40Z" uid="6269" user="Mueck" changeset="6701030" lat="53.5437666" lon="8.5786986">
    <tag k="addr:city" v="Bremerhaven"/>
    <tag k="addr:housenumber" v="48"/>
    <tag k="addr:postcode" v="27568"/>
    <tag k="addr:street" v="Bürgermeister-Smidt-Straße"/>
    <tag k="name" v="Stadtbäckerei Engelbrecht"/>
    <tag k="shop" v="bakery"/>
    <tag k="source" v="survey"/>
  </node>
  <node id="558645783" version="3" timestamp="2011-02-26T20:15:37Z" uid="114813" user="Chrisuu" changeset="7404007" lat="53.5437667" lon="8.5786985">
    <tag k="addr:city" v="Bremerhaven"/>
    <tag k="addr:country" v="DE"/>
    <tag k="addr:housenumber" v="48"/>
    <tag k="addr:postcode" v="27568"/>
    <tag k="addr:street" v="Bürgermeister-Smidt-Straße"/>
    <tag k="name" v="Stadtbäckerei Engelbrecht"/>
    <tag k="shop" v="bakery"/>
    <tag k="source" v="survey"/>
  </node>
  <node id="558645783" version="4" timestamp="2011-06-07T15:39:19Z" uid="290680" user="wheelmap_visitor" changeset="8371144" lat="53.5437667" lon="8.5786985">
    <tag k="addr:city" v="Bremerhaven"/>
    <tag k="addr:country" v="DE"/>
    <tag k="addr:housenumber" v="48"/>
    <tag k="addr:postcode" v="27568"/>
    <tag k="addr:street" v="Bürgermeister-Smidt-Straße"/>
    <tag k="name" v="Stadtbäckerei Engelbrecht"/>
    <tag k="shop" v="bakery"/>
    <tag k="source" v="survey"/>
    <tag k="wheelchair" v="no"/>
  </node>
  <node id="558645783" version="5" timestamp="2011-10-14T13:07:52Z" uid="536493" user="Frank73" changeset="9555358" lat="53.5437667" lon="8.5786985">
    <tag k="addr:city" v="Bremerhaven"/>
    <tag k="addr:country" v="DE"/>
    <tag k="addr:housenumber" v="48"/>
    <tag k="addr:postcode" v="27568"/>
    <tag k="addr:street" v="Bürgermeister-Smidt-Straße"/>
    <tag k="name" v="Stadtbäckerei Engelbrecht"/>
    <tag k="shop" v="bakery"/>
    <tag k="source" v="survey"/>
    <tag k="wheelchair" v="limited"/>
    <tag k="wheelchair:description" v="Außensitzbereich zugänglich, Bäckerei über Rampe der Apotheke erreichbar"/>
  </node>
  <node id="558645783" version="6" timestamp="2012-01-09T20:28:05Z" uid="114813" user="Chrisuu" changeset="10345592" lat="53.5437667" lon="8.5786985">
    <tag k="addr:city" v="Bremerhaven"/>
    <tag k="addr:country" v="DE"/>
    <tag k="addr:housenumber" v="48"/>
    <tag k="addr:postcode" v="27568"/>
    <tag k="addr:street" v="Bürgermeister-Smidt-Straße"/>
    <tag k="name" v="Stadtbäckerei Engelbrecht"/>
    <tag k="shop" v="bakery"/>
    <tag k="source" v="survey"/>
    <tag k="website" v="http://www.stadtbaeckerei-engelbrecht.org"/>
    <tag k="wheelchair" v="limited"/>
    <tag k="wheelchair:description" v="Außensitzbereich zugänglich, Bäckerei über Rampe der Apotheke erreichbar"/>
  </node>
  <node id="558646771" version="2" timestamp="2010-03-25T22:23:39Z" uid="9581" user="Lobelt" changeset="4233761" lat="49.4609741" lon="8.5172252"/>
  <node id="558646771" version="3" timestamp="2011-09-06T12:58:22Z" uid="6326" user="mike_hd" changeset="9227095" lat="49.4609847" lon="8.5172312"/>
  <node id="558646772" version="2" timestamp="2010-03-25T22:23:39Z" uid="9581" user="Lobelt" changeset="4233761" lat="49.4636539" lon="8.5195922"/>
  <node id="558646772" version="3" timestamp="2012-03-23T20:36:16Z" uid="136321" user="Teddy73" changeset="11078145" lat="49.4636539" lon="8.5195922"/>
  <node id="558646774" version="2" timestamp="2010-01-09T23:25:31Z" uid="9581" user="Lobelt" changeset="3583419" lat="49.4556257" lon="8.5315003"/>
  <node id="558646774" version="3" timestamp="2011-01-03T07:53:13Z" uid="6326" user="mike_hd" changeset="6846853" lat="49.4556544" lon="8.5314776"/>
  <node id="558646774" version="4" timestamp="2011-09-06T12:58:21Z" uid="6326" user="mike_hd" changeset="9227095" lat="49.4556464" lon="8.5314323"/>
  <node id="558646777" version="2" timestamp="2010-03-25T22:23:39Z" uid="9581" user="Lobelt" changeset="4233761" lat="49.4611754" lon="8.5261625"/>
  <node id="558646777" version="3" timestamp="2011-01-03T07:53:13Z" uid="6326" user="mike_hd" changeset="6846853" lat="49.4612111" lon="8.5261175"/>
  <node id="558646777" version="4" timestamp="2011-09-06T12:58:22Z" uid="6326" user="mike_hd" changeset="9227095" lat="49.461217" lon="8.5261022"/>
  <node id="558647237" version="2" timestamp="2011-01-07T04:23:23Z" uid="30201" user="rrankin" changeset="6889372" lat="-34.8842294" lon="150.7120365"/>
  <node id="558647238" version="2" timestamp="2011-01-07T04:23:37Z" uid="30201" user="rrankin" changeset="6889372" lat="-34.884657" lon="150.7135765"/>
</osm>
