<?xml version='1.0' encoding='UTF-8'?>
<osm version="0.6" generator="libosmium/2.20.0">
  <node id="559292966" version="2" timestamp="2010-04-11T04:52:56Z" uid="20587" user="balrog-kun" changeset="4389130" lat="49.8737623" lon="20.0331085">
    <tag k="name" v="Brzączowice"/>
    <tag k="place" v="village"/>
    <tag k="source" v="http://ump.waw.pl/ retrieved 01:24:13 09/02/09 (UMP-Krakow/src/cities-Krakow.pnt-converted.txt)"/>
  </node>
  <node id="559292966" version="3" timestamp="2010-04-11T13:16:43Z" uid="20587" user="balrog-kun" changeset="4392352" lat="49.8732104" lon="20.0326878">
    <tag k="name" v="Brzączowice"/>
    <tag k="place" v="village"/>
    <tag k="source" v="http://ump.waw.pl/ retrieved 01:24:13 09/02/09 (UMP-Krakow/src/cities-Krakow.pnt-converted.txt)"/>
  </node>
  <node id="559292966" version="4" timestamp="2010-04-27T03:57:40Z" uid="30632" user="antblant" changeset="4537850" lat="49.8732104" lon="20.0326878">
    <tag k="name" v="Brzączowice"/>
    <tag k="place" v="village"/>
    <tag k="source" v="http://ump.waw.pl/ retrieved 01:24:13 09/02/09 (UMP-Krakow/src/cities-Krakow.pnt-converted.txt)"/>
    <tag k="teryt:simc" v="0316631"/>
  </node>
  <node id="559295817" version="2" timestamp="2010-04-11T04:52:56Z" uid="20587" user="balrog-kun" changeset="4389130" lat="49.894981" lon="20.066958">
    <tag k="name" v="Nowa Wieś"/>
    <tag k="place" v="village"/>
    <tag k="source" v="http://ump.waw.pl/ retrieved 01:24:13 09/02/09 (UMP-Krakow/src/cities-Krakow.pnt-converted.txt)"/>
  </node>
  <node id="559295817" version="3" timestamp="2010-04-11T13:16:43Z" uid="20587" user="balrog-kun" changeset="4392352" lat="49.89484" lon="20.06697">
    <tag k="name" v="Nowa Wieś"/>
    <tag k="place" v="village"/>
    <tag k="source" v="http://ump.waw.pl/ retrieved 01:24:13 09/02/09 (UMP-Krakow/src/cities-Krakow.pnt-converted.txt)"/>
  </node>
  <node id="559297263" version="2" timestamp="2010-04-11T04:52:56Z" uid="20587" user="balrog-kun" changeset="4389130" lat="49.90172" lon="20.09947">
    <tag k="name" v="Dziekanowice"/>
    <tag k="place" v="village"/>
    <tag k="source" v="http://ump.waw.pl/ retrieved 01:24:13 09/02/09 (UMP-Krakow/src/cities-Krakow.pnt-converted.txt)"/>
  </node>
  <node id="559297263" version="3" timestamp="2010-04-11T13:16:44Z" uid="20587" user="balrog-kun" changeset="4392352" lat="49.90172" lon="20.09947">
    <tag k="name" v="Dziekanowice"/>
    <tag k="place" v="village"/>
    <tag k="source" v="http://ump.waw.pl/ retrieved 01:24:13 09/02/09 (UMP-Krakow/src/cities-Krakow.pnt-converted.txt)"/>
  </node>
</osm>
