<?xml version='1.0' encoding='UTF-8'?>
<osm version="0.6" generator="libosmium/2.20.0">
  <node id="560616532" version="1" timestamp="2009-11-11T00:39:52Z" uid="4467" user="Rosscoe" changeset="3086815" lat="-41.4320447" lon="147.1499398">
    <tag k="name" v="The Lido Apartments"/>
    <tag k="tourism" v="apartments"/>
  </node>
  <node id="560616532" version="2" timestamp="2010-01-22T07:45:20Z" uid="4467" user="Rosscoe" changeset="3680766" lat="-41.4320447" lon="147.1499397">
    <tag k="addr:city" v="Launceston"/>
    <tag k="addr:country" v="AU"/>
    <tag k="addr:housenumber" v="47-49"/>
    <tag k="addr:state" v="Tas"/>
    <tag k="addr:street" v="Elphin Road"/>
    <tag k="name" v="The Lido Apartments"/>
    <tag k="tourism" v="apartments"/>
  </node>
  <node id="560616532" version="3" timestamp="2010-01-22T07:48:48Z" uid="4467" user="Rosscoe" changeset="3680766" lat="-41.4320447" lon="147.1499397">
    <tag k="addr:city" v="Launceston"/>
    <tag k="addr:country" v="AU"/>
    <tag k="addr:housenumber" v="47-49"/>
    <tag k="addr:postcode" v="7250"/>
    <tag k="addr:state" v="Tas"/>
    <tag k="addr:street" v="Elphin Road"/>
    <tag k="name" v="The Lido Apartments"/>
    <tag k="tourism" v="apartments"/>
  </node>
  <node id="560616532" version="4" timestamp="2011-02-01T07:58:08Z" uid="4467" user="Rosscoe" changeset="7152257" lat="-41.4318543" lon="147.1495866">
    <tag k="addr:city" v="Launceston"/>
    <tag k="addr:country" v="AU"/>
    <tag k="addr:housenumber" v="47-49"/>
    <tag k="addr:postcode" v="7250"/>
    <tag k="addr:state" v="Tas"/>
    <tag k="addr:street" v="Elphin Road"/>
    <tag k="name" v="The Lido Apartments"/>
    <tag k="tourism" v="apartments"/>
  </node>
  <node id="560618693" version="2" timestamp="2011-01-27T01:51:15Z" uid="4467" user="Rosscoe" changeset="7099791" lat="-31.9427921" lon="115.8400568"/>
  <node id="560618693" version="3" timestamp="2012-01-24T13:22:39Z" uid="142807" user="SDavies" changeset="10484444" lat="-31.9427921" lon="115.8400567"/>
  <node id="560618697" version="2" timestamp="2011-01-27T01:51:19Z" uid="4467" user="Rosscoe" changeset="7099791" lat="-31.9427549" lon="115.8400803"/>
  <node id="560618697" version="3" timestamp="2012-01-24T13:22:39Z" uid="142807" user="SDavies" changeset="10484444" lat="-31.9427541" lon="115.8400793"/>
  <node id="560618699" version="2" timestamp="2011-01-27T01:51:22Z" uid="4467" user="Rosscoe" changeset="7099791" lat="-31.9427176" lon="115.8400937"/>
  <node id="560618701" version="2" timestamp="2011-01-27T01:51:15Z" uid="4467" user="Rosscoe" changeset="7099791" lat="-31.9427349" lon="115.8401613"/>
  <node id="560618701" version="3" timestamp="2012-01-24T13:22:39Z" uid="142807" user="SDavies" changeset="10484444" lat="-31.9427349" lon="115.8401613"/>
  <node id="560618703" version="2" timestamp="2011-01-27T01:51:20Z" uid="4467" user="Rosscoe" changeset="7099791" lat="-31.9427753" lon="115.8402207"/>
  <node id="560618703" version="3" timestamp="2012-01-24T13:22:39Z" uid="142807" user="SDavies" changeset="10484444" lat="-31.9427765" lon="115.8402173"/>
  <node id="560618706" version="2" timestamp="2011-01-27T01:51:21Z" uid="4467" user="Rosscoe" changeset="7099791" lat="-31.9428318" lon="115.8402241"/>
  <node id="560618706" version="3" timestamp="2012-01-24T13:22:39Z" uid="142807" user="SDavies" changeset="10484444" lat="-31.9428297" lon="115.8402179"/>
  <node id="560618708" version="2" timestamp="2011-01-27T01:51:18Z" uid="4467" user="Rosscoe" changeset="7099791" lat="-31.9428735" lon="115.8401799"/>
  <node id="560618708" version="3" timestamp="2012-01-24T13:22:39Z" uid="142807" user="SDavies" changeset="10484444" lat="-31.9428678" lon="115.8401766"/>
  <node id="560618710" version="2" timestamp="2011-01-27T01:51:16Z" uid="4467" user="Rosscoe" changeset="7099791" lat="-31.9428746" lon="115.840107"/>
  <node id="560618710" version="3" timestamp="2012-01-24T13:22:39Z" uid="142807" user="SDavies" changeset="10484444" lat="-31.9428702" lon="115.840109"/>
  <node id="560618712" version="2" timestamp="2011-01-27T01:51:14Z" uid="4467" user="Rosscoe" changeset="7099791" lat="-31.9428492" lon="115.8400707"/>
  <node id="560618712" version="3" timestamp="2012-01-24T13:22:40Z" uid="142807" user="SDavies" changeset="10484444" lat="-31.9428475" lon="115.8400732"/>
  <node id="560619524" version="1" timestamp="2009-11-11T01:01:53Z" uid="4467" user="Rosscoe" changeset="3086834" lat="-42.1223575" lon="148.343427"/>
  <node id="560619524" version="2" timestamp="2009-11-11T01:02:27Z" uid="4467" user="Rosscoe" changeset="3086834" lat="-42.1223575" lon="148.343427">
    <tag k="source" v="survey"/>
  </node>
  <node id="560619524" version="3" timestamp="2009-11-11T01:03:41Z" uid="4467" user="Rosscoe" changeset="3086834" lat="-42.1223639" lon="148.3433583">
    <tag k="source" v="survey"/>
  </node>
  <node id="560619524" version="4" timestamp="2010-09-25T07:01:42Z" uid="223157" user="markus_g" changeset="5868427" lat="-42.1223639" lon="148.3433583">
    <tag k="source" v="survey"/>
  </node>
  <node id="560619526" version="1" timestamp="2009-11-11T01:02:40Z" uid="4467" user="Rosscoe" changeset="3086834" lat="-42.1228031" lon="148.3427489"/>
  <node id="560619526" version="2" timestamp="2009-11-11T01:03:17Z" uid="4467" user="Rosscoe" changeset="3086834" lat="-42.1228031" lon="148.3427489">
    <tag k="man_made" v="lighthouse"/>
    <tag k="source" v="survey"/>
  </node>
  <node id="560619526" version="3" timestamp="2009-11-11T01:03:38Z" uid="4467" user="Rosscoe" changeset="3086834" lat="-42.1228286" lon="148.3426888">
    <tag k="man_made" v="lighthouse"/>
    <tag k="source" v="survey"/>
  </node>
  <node id="560619526" version="4" timestamp="2011-03-07T15:44:13Z" uid="49111" user="Markus B" changeset="7485412" lat="-42.1228286" lon="148.3426888">
    <tag k="man_made" v="lighthouse"/>
    <tag k="ref" v="K 3608"/>
    <tag k="seamark:landmark:height" v="30"/>
    <tag k="seamark:light:character" v="Fl"/>
    <tag k="seamark:light:colour" v="white"/>
    <tag k="seamark:light:group" v="3"/>
    <tag k="seamark:light:height" v="126"/>
    <tag k="seamark:light:period" v="6"/>
    <tag k="seamark:light:range" v="18"/>
    <tag k="seamark:light:ref" v="K 3608"/>
    <tag k="seamark:name" v="Cape Tourville."/>
    <tag k="seamark:type" v="light_major"/>
    <tag k="source" v="US NGA Pub. 111. 2010-09-02."/>
  </node>
  <node id="560619565" version="1" timestamp="2009-11-11T01:03:57Z" uid="4467" user="Rosscoe" changeset="3086834" lat="-42.1220201" lon="148.3417275">
    <tag k="amenity" v="parking"/>
  </node>
  <node id="560619565" version="2" timestamp="2009-11-11T01:04:26Z" uid="4467" user="Rosscoe" changeset="3086834" lat="-42.1220201" lon="148.3417275">
    <tag k="amenity" v="parking"/>
    <tag k="parking" v="surface"/>
    <tag k="source" v="survey"/>
  </node>
</osm>
