<?xml version='1.0' encoding='UTF-8'?>
<osm version="0.6" generator="libosmium/2.20.0">
  <node id="562765796" version="3" timestamp="2010-04-11T04:53:02Z" uid="20587" user="balrog-kun" changeset="4389130" lat="49.60266" lon="21.80155">
    <tag k="name" v="Iwonicz"/>
    <tag k="place" v="village"/>
    <tag k="source" v="http://ump.waw.pl/ retrieved 01:32:52 09/02/09 (UMP-Przemysl/src/cities-Przemysl.pnt-converted.txt)"/>
  </node>
  <node id="562765796" version="4" timestamp="2010-04-11T13:16:46Z" uid="20587" user="balrog-kun" changeset="4392352" lat="49.60266" lon="21.80155">
    <tag k="name" v="Iwonicz"/>
    <tag k="place" v="village"/>
    <tag k="source" v="http://ump.waw.pl/ retrieved 01:32:52 09/02/09 (UMP-Przemysl/src/cities-Przemysl.pnt-converted.txt)"/>
  </node>
  <node id="562765796" version="5" timestamp="2010-04-27T04:01:18Z" uid="30632" user="antblant" changeset="4537859" lat="49.60266" lon="21.80155">
    <tag k="name" v="Iwonicz"/>
    <tag k="place" v="village"/>
    <tag k="source" v="http://ump.waw.pl/ retrieved 01:32:52 09/02/09 (UMP-Przemysl/src/cities-Przemysl.pnt-converted.txt)"/>
    <tag k="teryt:simc" v="0351580"/>
  </node>
  <node id="562766470" version="2" timestamp="2010-04-11T04:53:02Z" uid="20587" user="balrog-kun" changeset="4389130" lat="49.59914" lon="21.86371">
    <tag k="name" v="Ladzin"/>
    <tag k="place" v="village"/>
    <tag k="source" v="http://ump.waw.pl/ retrieved 01:32:52 09/02/09 (UMP-Przemysl/src/cities-Przemysl.pnt-converted.txt)"/>
  </node>
  <node id="562766470" version="3" timestamp="2010-04-11T13:16:47Z" uid="20587" user="balrog-kun" changeset="4392352" lat="49.59914" lon="21.86371">
    <tag k="name" v="Ladzin"/>
    <tag k="place" v="village"/>
    <tag k="source" v="http://ump.waw.pl/ retrieved 01:32:52 09/02/09 (UMP-Przemysl/src/cities-Przemysl.pnt-converted.txt)"/>
  </node>
  <node id="562766470" version="4" timestamp="2010-04-27T04:12:41Z" uid="30632" user="antblant" changeset="4537887" lat="49.59914" lon="21.86371">
    <tag k="name" v="Ladzin"/>
    <tag k="place" v="village"/>
    <tag k="source" v="http://ump.waw.pl/ retrieved 01:32:52 09/02/09 (UMP-Przemysl/src/cities-Przemysl.pnt-converted.txt)"/>
    <tag k="teryt:simc" v="0358894"/>
  </node>
  <node id="562767442" version="2" timestamp="2010-04-11T04:53:02Z" uid="20587" user="balrog-kun" changeset="4389130" lat="49.6529177" lon="21.8396528">
    <tag k="name" v="Zalesie"/>
    <tag k="place" v="village"/>
    <tag k="source" v="http://ump.waw.pl/ retrieved 01:32:52 09/02/09 (UMP-Przemysl/src/cities-Przemysl.pnt-converted.txt)"/>
  </node>
  <node id="562767442" version="3" timestamp="2010-04-11T13:16:47Z" uid="20587" user="balrog-kun" changeset="4392352" lat="49.6532295" lon="21.8418568">
    <tag k="name" v="Zalesie"/>
    <tag k="place" v="village"/>
    <tag k="source" v="http://ump.waw.pl/ retrieved 01:32:52 09/02/09 (UMP-Przemysl/src/cities-Przemysl.pnt-converted.txt)"/>
  </node>
  <node id="562767678" version="2" timestamp="2010-04-11T04:53:02Z" uid="20587" user="balrog-kun" changeset="4389130" lat="49.60297" lon="21.89938">
    <tag k="name" v="Zmysłówka"/>
    <tag k="place" v="village"/>
    <tag k="source" v="http://ump.waw.pl/ retrieved 01:32:52 09/02/09 (UMP-Przemysl/src/cities-Przemysl.pnt-converted.txt)"/>
  </node>
  <node id="562767678" version="3" timestamp="2010-04-11T13:16:47Z" uid="20587" user="balrog-kun" changeset="4392352" lat="49.60297" lon="21.89938">
    <tag k="name" v="Zmysłówka"/>
    <tag k="place" v="village"/>
    <tag k="source" v="http://ump.waw.pl/ retrieved 01:32:52 09/02/09 (UMP-Przemysl/src/cities-Przemysl.pnt-converted.txt)"/>
  </node>
  <node id="562767678" version="4" timestamp="2010-04-27T04:01:03Z" uid="30632" user="antblant" changeset="4537859" lat="49.60297" lon="21.89938">
    <tag k="name" v="Zmysłówka"/>
    <tag k="place" v="village"/>
    <tag k="source" v="http://ump.waw.pl/ retrieved 01:32:52 09/02/09 (UMP-Przemysl/src/cities-Przemysl.pnt-converted.txt)"/>
    <tag k="teryt:simc" v="0650880"/>
  </node>
  <node id="562767774" version="2" timestamp="2010-04-11T04:53:02Z" uid="20587" user="balrog-kun" changeset="4389130" lat="49.61018" lon="21.90447">
    <tag k="name" v="Milcza"/>
    <tag k="place" v="village"/>
    <tag k="source" v="http://ump.waw.pl/ retrieved 01:32:52 09/02/09 (UMP-Przemysl/src/cities-Przemysl.pnt-converted.txt)"/>
  </node>
  <node id="562767774" version="3" timestamp="2010-04-11T13:16:47Z" uid="20587" user="balrog-kun" changeset="4392352" lat="49.61018" lon="21.90447">
    <tag k="name" v="Milcza"/>
    <tag k="place" v="village"/>
    <tag k="source" v="http://ump.waw.pl/ retrieved 01:32:52 09/02/09 (UMP-Przemysl/src/cities-Przemysl.pnt-converted.txt)"/>
  </node>
  <node id="562767774" version="4" timestamp="2010-04-27T03:57:48Z" uid="30632" user="antblant" changeset="4537850" lat="49.61018" lon="21.90447">
    <tag k="name" v="Milcza"/>
    <tag k="place" v="village"/>
    <tag k="source" v="http://ump.waw.pl/ retrieved 01:32:52 09/02/09 (UMP-Przemysl/src/cities-Przemysl.pnt-converted.txt)"/>
    <tag k="teryt:simc" v="0358925"/>
  </node>
  <node id="562768719" version="2" timestamp="2010-04-11T04:53:02Z" uid="20587" user="balrog-kun" changeset="4389130" lat="49.6374144" lon="21.9184245">
    <tag k="name" v="Bzianka"/>
    <tag k="place" v="village"/>
    <tag k="source" v="http://ump.waw.pl/ retrieved 01:32:52 09/02/09 (UMP-Przemysl/src/cities-Przemysl.pnt-converted.txt)"/>
  </node>
  <node id="562768719" version="3" timestamp="2010-04-11T13:16:47Z" uid="20587" user="balrog-kun" changeset="4392352" lat="49.6382991" lon="21.917895">
    <tag k="name" v="Bzianka"/>
    <tag k="place" v="village"/>
    <tag k="source" v="http://ump.waw.pl/ retrieved 01:32:52 09/02/09 (UMP-Przemysl/src/cities-Przemysl.pnt-converted.txt)"/>
  </node>
  <node id="562768815" version="2" timestamp="2010-04-11T04:53:03Z" uid="20587" user="balrog-kun" changeset="4389130" lat="49.64587" lon="21.9381888">
    <tag k="name" v="Trześniów"/>
    <tag k="place" v="town"/>
    <tag k="source" v="http://ump.waw.pl/ retrieved 01:32:52 09/02/09 (UMP-Przemysl/src/cities-Przemysl.pnt-converted.txt)"/>
  </node>
  <node id="562768815" version="3" timestamp="2010-04-11T13:16:47Z" uid="20587" user="balrog-kun" changeset="4392352" lat="49.6461443" lon="21.9398726">
    <tag k="name" v="Trześniów"/>
    <tag k="place" v="town"/>
    <tag k="source" v="http://ump.waw.pl/ retrieved 01:32:52 09/02/09 (UMP-Przemysl/src/cities-Przemysl.pnt-converted.txt)"/>
  </node>
  <node id="562768815" version="4" timestamp="2011-02-03T20:12:25Z" uid="369208" user="Slawek_n" changeset="7177317" lat="49.6461443" lon="21.9398726">
    <tag k="name" v="Trześniów"/>
    <tag k="place" v="village"/>
    <tag k="source" v="http://ump.waw.pl/ retrieved 01:32:52 09/02/09 (UMP-Przemysl/src/cities-Przemysl.pnt-converted.txt)"/>
  </node>
  <node id="562768898" version="2" timestamp="2010-04-11T04:53:03Z" uid="20587" user="balrog-kun" changeset="4389130" lat="49.643996" lon="21.9583378">
    <tag k="name" v="Buków"/>
    <tag k="place" v="village"/>
    <tag k="source" v="http://ump.waw.pl/ retrieved 01:32:52 09/02/09 (UMP-Przemysl/src/cities-Przemysl.pnt-converted.txt)"/>
  </node>
  <node id="562768898" version="3" timestamp="2010-04-11T13:16:47Z" uid="20587" user="balrog-kun" changeset="4392352" lat="49.6439" lon="21.9620654">
    <tag k="name" v="Buków"/>
    <tag k="place" v="village"/>
    <tag k="source" v="http://ump.waw.pl/ retrieved 01:32:52 09/02/09 (UMP-Przemysl/src/cities-Przemysl.pnt-converted.txt)"/>
  </node>
  <node id="562769078" version="2" timestamp="2010-04-11T04:53:03Z" uid="20587" user="balrog-kun" changeset="4389130" lat="49.6585652" lon="21.8345054">
    <tag k="name" v="Pustyny"/>
    <tag k="place" v="village"/>
    <tag k="source" v="http://ump.waw.pl/ retrieved 01:32:52 09/02/09 (UMP-Przemysl/src/cities-Przemysl.pnt-converted.txt)"/>
  </node>
  <node id="562769078" version="3" timestamp="2010-04-11T13:16:47Z" uid="20587" user="balrog-kun" changeset="4392352" lat="49.6596046" lon="21.8343448">
    <tag k="name" v="Pustyny"/>
    <tag k="place" v="village"/>
    <tag k="source" v="http://ump.waw.pl/ retrieved 01:32:52 09/02/09 (UMP-Przemysl/src/cities-Przemysl.pnt-converted.txt)"/>
  </node>
</osm>
