<?xml version='1.0' encoding='UTF-8'?>
<osm version="0.6" generator="libosmium/2.20.0">
  <node id="563832346" version="9" timestamp="2010-12-21T00:02:00Z" uid="6269" user="Mueck" changeset="6721616" lat="53.5716" lon="8.6005667"/>
  <node id="563832347" version="6" timestamp="2010-12-21T00:02:02Z" uid="6269" user="Mueck" changeset="6721616" lat="53.5718289" lon="8.6010551"/>
  <node id="563832348" version="7" timestamp="2010-12-21T00:02:05Z" uid="6269" user="Mueck" changeset="6721616" lat="53.5717671" lon="8.6009725">
    <tag k="barrier" v="bollard"/>
  </node>
  <node id="563832349" version="9" timestamp="2010-12-21T00:01:52Z" uid="6269" user="Mueck" changeset="6721616" lat="53.5721697" lon="8.6012359"/>
  <node id="563832350" version="7" timestamp="2010-12-21T00:02:03Z" uid="6269" user="Mueck" changeset="6721616" lat="53.572796" lon="8.6012136"/>
  <node id="563832876" version="1" timestamp="2009-11-14T14:12:30Z" uid="196934" user="dhenge" changeset="3113426" lat="47.823494" lon="8.8631651"/>
  <node id="563832876" version="2" timestamp="2009-11-14T14:13:12Z" uid="196934" user="dhenge" changeset="3113426" lat="47.823494" lon="8.8631651"/>
  <node id="563832878" version="1" timestamp="2009-11-14T14:12:31Z" uid="196934" user="dhenge" changeset="3113426" lat="47.8206413" lon="8.8653538"/>
  <node id="563832878" version="2" timestamp="2009-11-14T14:13:13Z" uid="196934" user="dhenge" changeset="3113426" lat="47.8206413" lon="8.8653538"/>
  <node id="563834190" version="4" timestamp="2010-03-22T17:53:20Z" uid="6269" user="Mueck" changeset="4204954" lat="49.0152734" lon="8.2957236">
    <tag k="FIXME" v="Bitte nicht löschen; siehe http://wiki.openstreetmap.org/index.php?title=DE:Naturfreundehäuser"/>
    <tag k="addr:city" v="Wörth-Maximiliansau"/>
    <tag k="addr:country" v="DE"/>
    <tag k="addr:postcode" v="76744"/>
    <tag k="addr:street" v="Insel Nauas"/>
    <tag k="amenity" v="restaurant"/>
    <tag k="capacity" v="22"/>
    <tag k="name" v="Naturfreundehaus Rheinfrieden"/>
    <tag k="opening_hours" v="We-Mo 10-22"/>
    <tag k="operator" v="NaturFreunde Deutschland"/>
    <tag k="ref" v="K 029"/>
    <tag k="source" v="Datenspende der NaturFreunde Deutschland"/>
    <tag k="tourism" v="hostel"/>
    <tag k="url" v="http://www.nfh-rheinfrieden.de/"/>
  </node>
  <node id="563834190" version="5" timestamp="2010-09-19T15:23:07Z" uid="65148" user="Pirat Michi" changeset="5820767" lat="49.0152734" lon="8.2957236">
    <tag k="FIXME" v="Bitte nicht löschen; siehe http://wiki.openstreetmap.org/index.php?title=DE:Naturfreundehäuser"/>
    <tag k="addr:city" v="Wörth-Maximiliansau"/>
    <tag k="addr:country" v="DE"/>
    <tag k="addr:postcode" v="76744"/>
    <tag k="addr:street" v="Insel Nauas"/>
    <tag k="amenity" v="restaurant"/>
    <tag k="capacity" v="22"/>
    <tag k="name" v="Naturfreundehaus Rheinfrieden"/>
    <tag k="opening_hours" v="We-Mo 10-22"/>
    <tag k="operator" v="NaturFreunde Deutschland"/>
    <tag k="ref" v="K 029"/>
    <tag k="source" v="Datenspende der NaturFreunde Deutschland"/>
    <tag k="tourism" v="hostel"/>
    <tag k="website" v="http://www.nfh-rheinfrieden.de/"/>
  </node>
  <node id="563834190" version="6" timestamp="2010-11-30T19:08:33Z" uid="89943" user="Bengatzer" changeset="6496855" lat="49.0152734" lon="8.2957236">
    <tag k="FIXME" v="Bitte nicht löschen; siehe http://wiki.openstreetmap.org/index.php?title=DE:Naturfreundehäuser"/>
    <tag k="addr:city" v="Wörth-Maximiliansau"/>
    <tag k="addr:country" v="DE"/>
    <tag k="addr:postcode" v="76744"/>
    <tag k="addr:street" v="Insel Nauas"/>
    <tag k="amenity" v="restaurant"/>
    <tag k="capacity" v="22"/>
    <tag k="name" v="Naturfreundehaus Rheinfrieden"/>
    <tag k="opening_hours" v="We-Mo 10:00-22:00"/>
    <tag k="operator" v="NaturFreunde Deutschland"/>
    <tag k="ref" v="K 029"/>
    <tag k="source" v="Datenspende der NaturFreunde Deutschland"/>
    <tag k="tourism" v="hostel"/>
    <tag k="website" v="http://www.nfh-rheinfrieden.de/"/>
  </node>
  <node id="563834190" version="7" timestamp="2011-01-11T14:38:51Z" uid="243707" user="Essimo" changeset="6936285" lat="49.0159538" lon="8.2959006">
    <tag k="FIXME" v="Bitte nicht löschen; siehe http://wiki.openstreetmap.org/index.php?title=DE:Naturfreundehäuser"/>
    <tag k="addr:city" v="Wörth-Maximiliansau"/>
    <tag k="addr:country" v="DE"/>
    <tag k="addr:postcode" v="76744"/>
    <tag k="addr:street" v="Insel Nauas"/>
    <tag k="amenity" v="restaurant"/>
    <tag k="capacity" v="22"/>
    <tag k="name" v="Naturfreundehaus Rheinfrieden"/>
    <tag k="opening_hours" v="We-Mo 10:00-22:00"/>
    <tag k="operator" v="NaturFreunde Deutschland"/>
    <tag k="ref" v="K 029"/>
    <tag k="source" v="Datenspende der NaturFreunde Deutschland"/>
    <tag k="tourism" v="hostel"/>
    <tag k="website" v="http://www.nfh-rheinfrieden.de/"/>
  </node>
  <node id="563834190" version="8" timestamp="2011-04-05T11:13:27Z" uid="6269" user="Mueck" changeset="7773603" lat="49.0160367" lon="8.2962831">
    <tag k="FIXME" v="Bitte nicht löschen; siehe http://wiki.openstreetmap.org/index.php?title=DE:Naturfreundehäuser"/>
    <tag k="addr:city" v="Wörth-Maximiliansau"/>
    <tag k="addr:country" v="DE"/>
    <tag k="addr:postcode" v="76744"/>
    <tag k="addr:street" v="Insel Nauas"/>
    <tag k="amenity" v="restaurant"/>
    <tag k="capacity" v="22"/>
    <tag k="name" v="Naturfreundehaus Rheinfrieden"/>
    <tag k="opening_hours" v="We-Mo 10:00-22:00"/>
    <tag k="operator" v="NaturFreunde Deutschland"/>
    <tag k="ref" v="K 029"/>
    <tag k="source" v="Datenspende der NaturFreunde Deutschland"/>
    <tag k="tourism" v="hostel"/>
    <tag k="website" v="http://www.nfh-rheinfrieden.de/"/>
  </node>
  <node id="563834190" version="9" timestamp="2011-10-08T07:20:59Z" uid="290680" user="wheelmap_visitor" changeset="9499106" lat="49.0160367" lon="8.2962831">
    <tag k="FIXME" v="Bitte nicht löschen; siehe http://wiki.openstreetmap.org/index.php?title=DE:Naturfreundehäuser"/>
    <tag k="addr:city" v="Wörth-Maximiliansau"/>
    <tag k="addr:country" v="DE"/>
    <tag k="addr:postcode" v="76744"/>
    <tag k="addr:street" v="Insel Nauas"/>
    <tag k="amenity" v="restaurant"/>
    <tag k="capacity" v="22"/>
    <tag k="name" v="Naturfreundehaus Rheinfrieden"/>
    <tag k="opening_hours" v="We-Mo 10:00-22:00"/>
    <tag k="operator" v="NaturFreunde Deutschland"/>
    <tag k="ref" v="K 029"/>
    <tag k="source" v="Datenspende der NaturFreunde Deutschland"/>
    <tag k="tourism" v="hostel"/>
    <tag k="website" v="http://www.nfh-rheinfrieden.de/"/>
    <tag k="wheelchair" v="no"/>
  </node>
  <node id="563834240" version="4" timestamp="2010-11-27T21:49:48Z" uid="9581" user="Lobelt" changeset="6473738" lat="49.6294984" lon="8.3781786">
    <tag k="FIXME" v="laut Datenspende 50 m NW im Hafenbecken :-)"/>
    <tag k="addr:city" v="Worms"/>
    <tag k="addr:country" v="DE"/>
    <tag k="addr:housenumber" v="7"/>
    <tag k="addr:postcode" v="67547"/>
    <tag k="addr:street" v="Floßhafenstraße"/>
    <tag k="amenity" v="biergarten"/>
    <tag k="name" v="Naturfreundehaus Wanderheim Worms"/>
    <tag k="operator" v="NaturFreunde Deutschland"/>
    <tag k="ref" v="K 007"/>
    <tag k="source" v="Datenspende der NaturFreunde Deutschland"/>
    <tag k="tourism" v="hostel"/>
  </node>
  <node id="563835949" version="1" timestamp="2009-11-14T14:17:36Z" uid="196934" user="dhenge" changeset="3113426" lat="47.8212176" lon="8.8653538">
    <tag k="amenity" v="restaurant"/>
    <tag k="name" v="Sternen"/>
  </node>
  <node id="563835949" version="2" timestamp="2009-11-14T14:18:49Z" uid="196934" user="dhenge" changeset="3113426" lat="47.8209583" lon="8.8652851">
    <tag k="amenity" v="restaurant"/>
    <tag k="name" v="Sternen"/>
  </node>
  <node id="563835949" version="3" timestamp="2010-08-04T11:02:47Z" uid="196934" user="dhenge" changeset="5397897" lat="47.8207503" lon="8.8654397">
    <tag k="amenity" v="restaurant"/>
    <tag k="name" v="Sternen"/>
  </node>
  <node id="563835949" version="4" timestamp="2011-10-22T15:41:02Z" uid="290680" user="wheelmap_visitor" changeset="9621211" lat="47.8207503" lon="8.8654397">
    <tag k="amenity" v="restaurant"/>
    <tag k="name" v="Sternen"/>
    <tag k="wheelchair" v="limited"/>
  </node>
  <node id="563835949" version="5" timestamp="2012-03-15T22:17:00Z" uid="90689" user="HansJ" changeset="10993595" lat="47.8207503" lon="8.8654397"/>
  <node id="563836051" version="2" timestamp="2011-04-17T11:33:25Z" uid="6269" user="Mueck" changeset="7885228" lat="49.0123413" lon="8.4003101"/>
  <node id="563836052" version="2" timestamp="2011-04-17T11:33:24Z" uid="6269" user="Mueck" changeset="7885228" lat="49.0122837" lon="8.4002736"/>
  <node id="563836055" version="2" timestamp="2011-04-17T11:33:24Z" uid="6269" user="Mueck" changeset="7885228" lat="49.0118602" lon="8.4008208"/>
  <node id="563838122" version="1" timestamp="2009-11-14T14:22:44Z" uid="171838" user="argrath" changeset="3113534" lat="34.6819271" lon="135.512906"/>
  <node id="563838126" version="1" timestamp="2009-11-14T14:22:45Z" uid="171838" user="argrath" changeset="3113534" lat="34.6820219" lon="135.5110196"/>
  <node id="563838129" version="1" timestamp="2009-11-14T14:22:46Z" uid="171838" user="argrath" changeset="3113534" lat="34.6820328" lon="135.5108031"/>
  <node id="563838139" version="1" timestamp="2009-11-14T14:22:48Z" uid="171838" user="argrath" changeset="3113534" lat="34.6834661" lon="135.5108862"/>
  <node id="563838147" version="1" timestamp="2009-11-14T14:22:51Z" uid="171838" user="argrath" changeset="3113534" lat="34.6828768" lon="135.5109406"/>
  <node id="563838156" version="1" timestamp="2009-11-14T14:22:54Z" uid="171838" user="argrath" changeset="3113534" lat="34.6828949" lon="135.5101768"/>
  <node id="563838168" version="1" timestamp="2009-11-14T14:22:56Z" uid="171838" user="argrath" changeset="3113534" lat="34.6827634" lon="135.5144064"/>
  <node id="563838173" version="1" timestamp="2009-11-14T14:22:56Z" uid="171838" user="argrath" changeset="3113534" lat="34.6828116" lon="135.512915"/>
  <node id="563838178" version="1" timestamp="2009-11-14T14:22:58Z" uid="171838" user="argrath" changeset="3113534" lat="34.6824116" lon="135.5129071"/>
  <node id="563838346" version="1" timestamp="2009-11-14T14:23:11Z" uid="171838" user="argrath" changeset="3113534" lat="34.6810819" lon="135.5112181"/>
  <node id="563838366" version="1" timestamp="2009-11-14T14:23:14Z" uid="171838" user="argrath" changeset="3113534" lat="34.678971" lon="135.5142278"/>
  <node id="563838370" version="1" timestamp="2009-11-14T14:23:15Z" uid="171838" user="argrath" changeset="3113534" lat="34.6790553" lon="135.512747"/>
  <node id="563838374" version="1" timestamp="2009-11-14T14:23:16Z" uid="171838" user="argrath" changeset="3113534" lat="34.6788886" lon="135.5154176"/>
  <node id="563838384" version="1" timestamp="2009-11-14T14:23:18Z" uid="171838" user="argrath" changeset="3113534" lat="34.6814853" lon="135.5128304"/>
  <node id="563838396" version="1" timestamp="2009-11-14T14:23:21Z" uid="171838" user="argrath" changeset="3113534" lat="34.6805623" lon="135.5127986"/>
  <node id="563838404" version="1" timestamp="2009-11-14T14:23:22Z" uid="171838" user="argrath" changeset="3113534" lat="34.6797542" lon="135.512771"/>
  <node id="563838408" version="1" timestamp="2009-11-14T14:23:23Z" uid="171838" user="argrath" changeset="3113534" lat="34.6784193" lon="135.5127033"/>
  <node id="563838414" version="1" timestamp="2009-11-14T14:23:24Z" uid="171838" user="argrath" changeset="3113534" lat="34.6778241" lon="135.5126626"/>
  <node id="563838417" version="1" timestamp="2009-11-14T14:23:25Z" uid="171838" user="argrath" changeset="3113534" lat="34.6772396" lon="135.5126225"/>
  <node id="563838439" version="1" timestamp="2009-11-14T14:23:28Z" uid="171838" user="argrath" changeset="3113534" lat="34.677866" lon="135.5119132"/>
  <node id="563838439" version="2" timestamp="2010-04-02T10:36:42Z" uid="112530" user="Caballista" changeset="4302045" lat="34.6778802" lon="135.5112475"/>
  <node id="563838524" version="1" timestamp="2009-11-14T14:23:39Z" uid="171838" user="argrath" changeset="3113534" lat="34.677759" lon="135.5141241"/>
  <node id="563838553" version="1" timestamp="2009-11-14T14:23:40Z" uid="171838" user="argrath" changeset="3113534" lat="34.6777002" lon="135.5153666"/>
  <node id="563838622" version="1" timestamp="2009-11-14T14:23:43Z" uid="171838" user="argrath" changeset="3113534" lat="34.6765526" lon="135.5153498"/>
  <node id="563838629" version="1" timestamp="2009-11-14T14:23:45Z" uid="171838" user="argrath" changeset="3113534" lat="34.6772643" lon="135.5153602"/>
  <node id="563838632" version="1" timestamp="2009-11-14T14:23:47Z" uid="171838" user="argrath" changeset="3113534" lat="34.6782868" lon="135.5153917"/>
  <node id="563838640" version="1" timestamp="2009-11-14T14:23:49Z" uid="171838" user="argrath" changeset="3113534" lat="34.6796433" lon="135.5154662"/>
  <node id="563838643" version="1" timestamp="2009-11-14T14:23:50Z" uid="171838" user="argrath" changeset="3113534" lat="34.6804028" lon="135.515515"/>
  <node id="563838658" version="1" timestamp="2009-11-14T14:23:55Z" uid="171838" user="argrath" changeset="3113534" lat="34.6772984" lon="135.5140847"/>
  <node id="563838668" version="1" timestamp="2009-11-14T14:23:57Z" uid="171838" user="argrath" changeset="3113534" lat="34.6771879" lon="135.5140752"/>
  <node id="563838677" version="1" timestamp="2009-11-14T14:23:59Z" uid="171838" user="argrath" changeset="3113534" lat="34.6783352" lon="135.5141734"/>
  <node id="563838682" version="1" timestamp="2009-11-14T14:24:00Z" uid="171838" user="argrath" changeset="3113534" lat="34.6782052" lon="135.5170829"/>
  <node id="563838682" version="2" timestamp="2009-12-10T03:05:34Z" uid="127167" user="ignis" changeset="3338930" lat="34.6782195" lon="135.5170114"/>
  <node id="563838702" version="1" timestamp="2009-11-14T14:24:03Z" uid="171838" user="argrath" changeset="3113534" lat="34.6797124" lon="135.5142449"/>
  <node id="563838717" version="1" timestamp="2009-11-14T14:24:03Z" uid="171838" user="argrath" changeset="3113534" lat="34.679574" lon="135.5171189"/>
  <node id="563838717" version="2" timestamp="2009-12-10T03:05:34Z" uid="127167" user="ignis" changeset="3338930" lat="34.679574" lon="135.5170402"/>
  <node id="563838751" version="1" timestamp="2009-11-14T14:24:09Z" uid="171838" user="argrath" changeset="3113534" lat="34.6803421" lon="135.5171429"/>
  <node id="563838751" version="2" timestamp="2009-12-10T03:05:34Z" uid="127167" user="ignis" changeset="3338930" lat="34.6803349" lon="135.5170392"/>
</osm>
