<?xml version='1.0' encoding='UTF-8'?>
<osm version="0.6" generator="libosmium/2.20.0">
  <node id="564874888" version="3" timestamp="2011-01-24T18:49:49Z" uid="6269" user="Mueck" changeset="7076352" lat="48.9975276" lon="8.4044896">
    <tag k="addr:housenumber" v="2"/>
    <tag k="addr:street" v="Nebeniusstraße"/>
  </node>
  <node id="564874888" version="4" timestamp="2011-02-16T22:41:19Z" uid="165061" user="keinname" changeset="7308551" lat="48.9974718" lon="8.4045914">
    <tag k="addr:housenumber" v="2"/>
    <tag k="addr:street" v="Nebeniusstraße"/>
  </node>
  <node id="564874899" version="2" timestamp="2011-01-24T18:49:52Z" uid="6269" user="Mueck" changeset="7076352" lat="48.9984712" lon="8.4041392">
    <tag k="addr:housenumber" v="1"/>
    <tag k="addr:street" v="Winterstraße"/>
  </node>
  <node id="564874899" version="3" timestamp="2011-03-20T17:34:55Z" uid="144572" user="TreumIch" changeset="7619096" lat="48.9984712" lon="8.4041392">
    <tag k="addr:housenumber" v="1"/>
    <tag k="addr:street" v="Winterstraße"/>
  </node>
  <node id="564874904" version="2" timestamp="2011-01-24T18:49:47Z" uid="6269" user="Mueck" changeset="7076352" lat="48.9983126" lon="8.4041844">
    <tag k="addr:housenumber" v="2"/>
    <tag k="addr:street" v="Winterstraße"/>
  </node>
  <node id="564874904" version="3" timestamp="2011-03-20T17:34:48Z" uid="144572" user="TreumIch" changeset="7619096" lat="48.9983126" lon="8.4041844">
    <tag k="addr:housenumber" v="2"/>
    <tag k="addr:street" v="Winterstraße"/>
  </node>
  <node id="564876772" version="2" timestamp="2010-07-30T09:00:14Z" uid="74617" user="JohnSmith" changeset="5352774" lat="52.4244879" lon="-1.9342791">
    <tag k="addr:housenumber" v="218"/>
    <tag k="addr:street" v="Mary Vale Road"/>
    <tag k="name" v="Leverton &amp; Halls Deli &amp; Coffee Shop"/>
    <tag k="shop" v="deli"/>
  </node>
</osm>
