<?xml version='1.0' encoding='UTF-8'?>
<osm version="0.6" generator="libosmium/2.20.0">
  <node id="56519673" version="1" timestamp="2007-09-21T20:55:53Z" uid="6454" user="B10xxx" changeset="485995" lat="50.0664691" lon="8.221293">
    <tag k="amenity" v="fuel"/>
    <tag k="created_by" v="JOSM"/>
  </node>
  <node id="56519673" version="2" timestamp="2008-10-13T19:21:33Z" uid="40957" user="Schwoggel" changeset="311971" lat="50.066469" lon="8.2212929">
    <tag k="amenity" v="fuel"/>
    <tag k="created_by" v="Merkaartor 0.13"/>
    <tag k="name" v="Shell"/>
  </node>
  <node id="56519673" version="3" timestamp="2009-12-26T15:41:00Z" uid="27803" user="xavax" changeset="3455460" lat="50.0669924" lon="8.2220281">
    <tag k="amenity" v="fuel"/>
    <tag k="name" v="Shell"/>
  </node>
  <node id="56519673" version="4" timestamp="2009-12-28T19:31:48Z" uid="5657" user="Olivier Boudet" changeset="3475000" lat="50.0669924" lon="8.2220281">
    <tag k="amenity" v="fuel"/>
    <tag k="name" v="Shell"/>
    <tag k="operator" v="Shell"/>
  </node>
  <node id="56519673" version="5" timestamp="2010-05-17T00:57:20Z" uid="27716" user="glmosm" changeset="4724367" lat="50.0670311" lon="8.2220055">
    <tag k="amenity" v="fuel"/>
    <tag k="name" v="Shell"/>
    <tag k="operator" v="Shell"/>
  </node>
  <node id="56519673" version="6" timestamp="2010-05-17T01:03:43Z" uid="27716" user="glmosm" changeset="4724407" lat="50.0670425" lon="8.2220885">
    <tag k="amenity" v="fuel"/>
    <tag k="name" v="Shell"/>
    <tag k="operator" v="Shell"/>
  </node>
  <node id="56519673" version="7" timestamp="2010-07-10T15:58:42Z" uid="94353" user="Fips" changeset="5183669" lat="50.0670425" lon="8.2220885">
    <tag k="amenity" v="fuel"/>
    <tag k="name" v="Shell"/>
    <tag k="operator" v="Shell"/>
  </node>
  <node id="56519677" version="1" timestamp="2007-09-21T20:55:54Z" uid="6454" user="B10xxx" changeset="485995" lat="50.0662567" lon="8.2220541">
    <tag k="amenity" v="fuel"/>
    <tag k="created_by" v="JOSM"/>
  </node>
  <node id="56519677" version="2" timestamp="2008-06-08T20:20:55Z" uid="17602" user="B10xyz" changeset="97745" lat="50.0666749" lon="8.2225498">
    <tag k="amenity" v="fuel"/>
    <tag k="created_by" v="Potlatch 0.9c"/>
  </node>
  <node id="56519677" version="3" timestamp="2008-10-13T19:21:32Z" uid="40957" user="Schwoggel" changeset="311971" lat="50.066675" lon="8.2225498">
    <tag k="amenity" v="fuel"/>
    <tag k="created_by" v="Merkaartor 0.13"/>
    <tag k="name" v="ESSO"/>
  </node>
  <node id="56519677" version="4" timestamp="2009-12-28T19:28:49Z" uid="5657" user="Olivier Boudet" changeset="3474972" lat="50.066675" lon="8.2225498">
    <tag k="amenity" v="fuel"/>
    <tag k="name" v="ESSO"/>
    <tag k="operator" v="Esso"/>
  </node>
  <node id="56519677" version="5" timestamp="2010-04-21T20:42:47Z" uid="40023" user="ALE!" changeset="4490558" lat="50.066675" lon="8.2225499">
    <tag k="amenity" v="fuel"/>
    <tag k="name" v="Esso"/>
    <tag k="operator" v="Esso"/>
  </node>
  <node id="56519677" version="6" timestamp="2010-07-10T15:58:43Z" uid="94353" user="Fips" changeset="5183669" lat="50.066675" lon="8.2225499">
    <tag k="amenity" v="fuel"/>
    <tag k="name" v="Esso"/>
    <tag k="operator" v="Esso"/>
  </node>
  <node id="56519681" version="1" timestamp="2007-09-21T20:55:54Z" uid="6454" user="B10xxx" changeset="485995" lat="50.0610081" lon="8.2568976">
    <tag k="created_by" v="JOSM"/>
  </node>
  <node id="56519681" version="2" timestamp="2007-11-22T20:25:12Z" uid="3360" user="RalfZ" changeset="593708" lat="50.0609275" lon="8.256649">
    <tag k="created_by" v="JOSM"/>
  </node>
  <node id="56519681" version="3" timestamp="2009-08-13T15:09:05Z" uid="67792" user="UncleBob" changeset="2132743" lat="50.0608813" lon="8.256541"/>
  <node id="56519681" version="4" timestamp="2012-01-04T13:10:03Z" uid="328555" user="peb12345" changeset="10290638" lat="50.0608813" lon="8.256541"/>
  <node id="56519687" version="1" timestamp="2007-09-21T20:55:55Z" uid="6454" user="B10xxx" changeset="485995" lat="50.0585684" lon="8.2582139">
    <tag k="created_by" v="JOSM"/>
  </node>
  <node id="56519687" version="2" timestamp="2007-11-22T20:25:13Z" uid="3360" user="RalfZ" changeset="593708" lat="50.0584266" lon="8.2580849">
    <tag k="created_by" v="JOSM"/>
  </node>
  <node id="56519687" version="3" timestamp="2012-01-04T13:10:03Z" uid="328555" user="peb12345" changeset="10290638" lat="50.0584266" lon="8.2580849"/>
  <node id="56519691" version="1" timestamp="2007-09-21T20:55:56Z" uid="6454" user="B10xxx" changeset="485995" lat="50.0589647" lon="8.2599021">
    <tag k="created_by" v="JOSM"/>
  </node>
  <node id="56519691" version="2" timestamp="2007-11-22T20:25:13Z" uid="3360" user="RalfZ" changeset="593708" lat="50.0587885" lon="8.2599455">
    <tag k="created_by" v="JOSM"/>
  </node>
  <node id="56519691" version="3" timestamp="2008-11-12T23:12:50Z" uid="67792" user="UncleBob" changeset="743096" lat="50.0587999" lon="8.2600006">
    <tag k="created_by" v="JOSM"/>
  </node>
  <node id="56519691" version="4" timestamp="2008-11-15T23:05:26Z" uid="67792" user="UncleBob" changeset="754123" lat="50.0588283" lon="8.2599808">
    <tag k="created_by" v="JOSM"/>
  </node>
  <node id="56519691" version="5" timestamp="2012-01-04T13:10:03Z" uid="328555" user="peb12345" changeset="10290638" lat="50.0588283" lon="8.2599808"/>
  <node id="56519697" version="1" timestamp="2007-09-21T20:55:56Z" uid="6454" user="B10xxx" changeset="485995" lat="50.0613423" lon="8.2583924">
    <tag k="created_by" v="JOSM"/>
  </node>
  <node id="56519697" version="2" timestamp="2012-01-04T13:10:03Z" uid="328555" user="peb12345" changeset="10290638" lat="50.0613423" lon="8.2583924"/>
  <node id="56519701" version="1" timestamp="2007-10-03T14:18:41Z" uid="6454" user="B10xxx" changeset="25251" lat="50.0039952" lon="7.981444">
    <tag k="created_by" v="JOSM"/>
    <tag k="name" v="Johannisberg"/>
    <tag k="place" v="village"/>
  </node>
  <node id="56519701" version="2" timestamp="2010-01-23T19:24:59Z" uid="92311" user="negro" changeset="3694836" lat="50.0039952" lon="7.981444">
    <tag k="name" v="Johannisberg"/>
    <tag k="place" v="village"/>
    <tag k="wikipedia" v="http://de.wikipedia.org/wiki/Johannisberg_(Geisenheim)"/>
  </node>
  <node id="56519701" version="3" timestamp="2012-01-29T09:40:58Z" uid="336641" user="Der Harry" changeset="10527913" lat="50.0039952" lon="7.981444"/>
  <node id="56519704" version="1" timestamp="2007-09-21T20:55:57Z" uid="6454" user="B10xxx" changeset="485995" lat="50.0130753" lon="7.9961329">
    <tag k="created_by" v="JOSM"/>
    <tag k="man_made" v="tower"/>
    <tag k="name" v="Schloss Vollrad"/>
  </node>
  <node id="56519704" version="2" timestamp="2010-03-10T15:27:45Z" uid="226439" user="ingams" changeset="4090351" lat="50.0130753" lon="7.9961329">
    <tag k="created_by" v="JOSM"/>
    <tag k="man_made" v="tower"/>
    <tag k="name" v="Schloss Vollrad"/>
  </node>
  <node id="56519709" version="1" timestamp="2007-09-21T20:55:58Z" uid="6454" user="B10xxx" changeset="485995" lat="50.042506" lon="8.0490254">
    <tag k="created_by" v="JOSM"/>
    <tag k="name" v="Kloster Eberbach"/>
    <tag k="tourism" v="attraction"/>
  </node>
  <node id="56519709" version="2" timestamp="2008-08-14T21:35:40Z" uid="28378" user="PHerison" changeset="249244" lat="50.0433245" lon="8.0462657">
    <tag k="created_by" v="Potlatch 0.10b"/>
    <tag k="name" v="Kloster Eberbach"/>
    <tag k="tourism" v="attraction"/>
  </node>
  <node id="56519709" version="3" timestamp="2010-02-13T17:04:02Z" uid="201359" user="wambacher" changeset="3863922" lat="50.0433245" lon="8.0462657">
    <tag k="created_by" v="Potlatch 0.10b"/>
    <tag k="name" v="Kloster Eberbach"/>
    <tag k="tourism" v="attraction"/>
  </node>
</osm>
