<?xml version='1.0' encoding='UTF-8'?>
<osm version="0.6" generator="libosmium/2.20.0">
  <node id="566490011" version="2" timestamp="2010-04-11T04:53:08Z" uid="20587" user="balrog-kun" changeset="4389130" lat="49.8851252" lon="22.2766245">
    <tag k="name" v="Jawornik Przedmieście"/>
    <tag k="place" v="village"/>
    <tag k="source" v="http://ump.waw.pl/ retrieved 01:34:01 09/02/09 (UMP-Rzeszow/src/cities-Rzeszow.pnt-converted.txt)"/>
  </node>
  <node id="566490011" version="3" timestamp="2010-04-11T13:16:53Z" uid="20587" user="balrog-kun" changeset="4392352" lat="49.8861388" lon="22.2737807">
    <tag k="name" v="Jawornik Przedmieście"/>
    <tag k="place" v="village"/>
    <tag k="source" v="http://ump.waw.pl/ retrieved 01:34:01 09/02/09 (UMP-Rzeszow/src/cities-Rzeszow.pnt-converted.txt)"/>
  </node>
  <node id="566490011" version="4" timestamp="2012-02-17T01:00:33Z" uid="467703" user="Zbigniew Czernik" changeset="10707102" lat="49.886227" lon="22.2807984">
    <tag k="name" v="Jawornik Przedmieście"/>
    <tag k="place" v="village"/>
  </node>
  <node id="566490053" version="2" timestamp="2010-04-11T04:53:08Z" uid="20587" user="balrog-kun" changeset="4389130" lat="49.88986" lon="22.27504">
    <tag k="name" v="Jawornik Polski"/>
    <tag k="place" v="village"/>
    <tag k="source" v="http://ump.waw.pl/ retrieved 01:34:01 09/02/09 (UMP-Rzeszow/src/cities-Rzeszow.pnt-converted.txt)"/>
  </node>
  <node id="566490053" version="3" timestamp="2010-04-11T13:16:53Z" uid="20587" user="balrog-kun" changeset="4392352" lat="49.88986" lon="22.27504">
    <tag k="name" v="Jawornik Polski"/>
    <tag k="place" v="village"/>
    <tag k="source" v="http://ump.waw.pl/ retrieved 01:34:01 09/02/09 (UMP-Rzeszow/src/cities-Rzeszow.pnt-converted.txt)"/>
  </node>
  <node id="566490053" version="4" timestamp="2010-04-27T04:15:20Z" uid="30632" user="antblant" changeset="4537896" lat="49.88986" lon="22.27504">
    <tag k="name" v="Jawornik Polski"/>
    <tag k="place" v="village"/>
    <tag k="source" v="http://ump.waw.pl/ retrieved 01:34:01 09/02/09 (UMP-Rzeszow/src/cities-Rzeszow.pnt-converted.txt)"/>
    <tag k="teryt:simc" v="0603900"/>
  </node>
  <node id="566490053" version="5" timestamp="2012-02-17T01:00:33Z" uid="467703" user="Zbigniew Czernik" changeset="10707102" lat="49.8886796" lon="22.2843243">
    <tag k="name" v="Jawornik Polski"/>
    <tag k="place" v="village"/>
    <tag k="teryt:simc" v="0603900"/>
  </node>
  <node id="566490500" version="2" timestamp="2010-04-11T04:53:09Z" uid="20587" user="balrog-kun" changeset="4389130" lat="49.9091708" lon="22.285806">
    <tag k="name" v="Hadle Szklarskie"/>
    <tag k="place" v="village"/>
    <tag k="source" v="http://ump.waw.pl/ retrieved 01:34:01 09/02/09 (UMP-Rzeszow/src/cities-Rzeszow.pnt-converted.txt)"/>
  </node>
  <node id="566490500" version="3" timestamp="2010-04-11T13:16:53Z" uid="20587" user="balrog-kun" changeset="4392352" lat="49.9097754" lon="22.2856372">
    <tag k="name" v="Hadle Szklarskie"/>
    <tag k="place" v="village"/>
    <tag k="source" v="http://ump.waw.pl/ retrieved 01:34:01 09/02/09 (UMP-Rzeszow/src/cities-Rzeszow.pnt-converted.txt)"/>
  </node>
  <node id="566490500" version="4" timestamp="2010-04-27T04:04:02Z" uid="30632" user="antblant" changeset="4537867" lat="49.9097754" lon="22.2856372">
    <tag k="name" v="Hadle Szklarskie"/>
    <tag k="place" v="village"/>
    <tag k="source" v="http://ump.waw.pl/ retrieved 01:34:01 09/02/09 (UMP-Rzeszow/src/cities-Rzeszow.pnt-converted.txt)"/>
    <tag k="teryt:simc" v="0603780"/>
  </node>
  <node id="566490500" version="5" timestamp="2012-02-17T01:00:31Z" uid="467703" user="Zbigniew Czernik" changeset="10707102" lat="49.9095515" lon="22.2894847">
    <tag k="name" v="Hadle Szklarskie"/>
    <tag k="place" v="village"/>
    <tag k="teryt:simc" v="0603780"/>
  </node>
  <node id="566490562" version="2" timestamp="2010-04-11T04:53:09Z" uid="20587" user="balrog-kun" changeset="4389130" lat="49.9205772" lon="22.2989705">
    <tag k="name" v="Hadle Kańczuckie"/>
    <tag k="place" v="village"/>
    <tag k="source" v="http://ump.waw.pl/ retrieved 01:34:01 09/02/09 (UMP-Rzeszow/src/cities-Rzeszow.pnt-converted.txt)"/>
  </node>
  <node id="566490562" version="3" timestamp="2010-04-11T13:16:54Z" uid="20587" user="balrog-kun" changeset="4392352" lat="49.9211631" lon="22.300655">
    <tag k="name" v="Hadle Kańczuckie"/>
    <tag k="place" v="village"/>
    <tag k="source" v="http://ump.waw.pl/ retrieved 01:34:01 09/02/09 (UMP-Rzeszow/src/cities-Rzeszow.pnt-converted.txt)"/>
  </node>
  <node id="566490562" version="4" timestamp="2010-04-27T04:01:06Z" uid="30632" user="antblant" changeset="4537859" lat="49.9211631" lon="22.300655">
    <tag k="name" v="Hadle Kańczuckie"/>
    <tag k="place" v="village"/>
    <tag k="source" v="http://ump.waw.pl/ retrieved 01:34:01 09/02/09 (UMP-Rzeszow/src/cities-Rzeszow.pnt-converted.txt)"/>
    <tag k="teryt:simc" v="0603744"/>
  </node>
  <node id="566491002" version="3" timestamp="2010-04-11T04:53:09Z" uid="20587" user="balrog-kun" changeset="4389130" lat="49.9537606" lon="21.948799">
    <tag k="name" v="Siedliska"/>
    <tag k="place" v="village"/>
    <tag k="source" v="http://ump.waw.pl/ retrieved 01:34:01 09/02/09 (UMP-Rzeszow/src/cities-Rzeszow.pnt-converted.txt)"/>
  </node>
  <node id="566491002" version="4" timestamp="2010-04-11T13:16:54Z" uid="20587" user="balrog-kun" changeset="4392352" lat="49.9539366" lon="21.9474314">
    <tag k="name" v="Siedliska"/>
    <tag k="place" v="village"/>
    <tag k="source" v="http://ump.waw.pl/ retrieved 01:34:01 09/02/09 (UMP-Rzeszow/src/cities-Rzeszow.pnt-converted.txt)"/>
  </node>
  <node id="566491167" version="3" timestamp="2010-04-11T04:53:09Z" uid="20587" user="balrog-kun" changeset="4389130" lat="49.9659022" lon="21.9832764">
    <tag k="name" v="Budziwój"/>
    <tag k="place" v="village"/>
    <tag k="source" v="http://ump.waw.pl/ retrieved 01:34:01 09/02/09 (UMP-Rzeszow/src/cities-Rzeszow.pnt-converted.txt)"/>
  </node>
  <node id="566491167" version="4" timestamp="2010-04-11T13:16:54Z" uid="20587" user="balrog-kun" changeset="4392352" lat="49.9669874" lon="21.9843506">
    <tag k="name" v="Budziwój"/>
    <tag k="place" v="village"/>
    <tag k="source" v="http://ump.waw.pl/ retrieved 01:34:01 09/02/09 (UMP-Rzeszow/src/cities-Rzeszow.pnt-converted.txt)"/>
  </node>
  <node id="566491322" version="2" timestamp="2010-04-11T04:53:09Z" uid="20587" user="balrog-kun" changeset="4389130" lat="49.9425862" lon="22.0191045">
    <tag k="name" v="Hermanowa"/>
    <tag k="place" v="village"/>
    <tag k="source" v="http://ump.waw.pl/ retrieved 01:34:01 09/02/09 (UMP-Rzeszow/src/cities-Rzeszow.pnt-converted.txt)"/>
  </node>
  <node id="566491322" version="3" timestamp="2010-04-11T13:16:54Z" uid="20587" user="balrog-kun" changeset="4392352" lat="49.9435532" lon="22.0182835">
    <tag k="name" v="Hermanowa"/>
    <tag k="place" v="village"/>
    <tag k="source" v="http://ump.waw.pl/ retrieved 01:34:01 09/02/09 (UMP-Rzeszow/src/cities-Rzeszow.pnt-converted.txt)"/>
  </node>
  <node id="566491322" version="4" timestamp="2010-04-27T04:11:09Z" uid="30632" user="antblant" changeset="4537882" lat="49.9435532" lon="22.0182835">
    <tag k="name" v="Hermanowa"/>
    <tag k="place" v="village"/>
    <tag k="source" v="http://ump.waw.pl/ retrieved 01:34:01 09/02/09 (UMP-Rzeszow/src/cities-Rzeszow.pnt-converted.txt)"/>
    <tag k="teryt:simc" v="0665870"/>
  </node>
  <node id="566491861" version="1" timestamp="2009-11-18T00:40:04Z" uid="198597" user="gogocando" changeset="3146893" lat="30.0518459" lon="31.3239758"/>
  <node id="566491888" version="1" timestamp="2009-11-18T00:40:05Z" uid="198597" user="gogocando" changeset="3146893" lat="30.0520047" lon="31.3239066"/>
  <node id="566491907" version="1" timestamp="2009-11-18T00:40:05Z" uid="198597" user="gogocando" changeset="3146893" lat="30.0523613" lon="31.3251512"/>
  <node id="566491915" version="1" timestamp="2009-11-18T00:40:06Z" uid="198597" user="gogocando" changeset="3146893" lat="30.0522127" lon="31.3251769"/>
  <node id="566491934" version="1" timestamp="2009-11-18T00:40:06Z" uid="198597" user="gogocando" changeset="3146893" lat="30.0507714" lon="31.320688"/>
  <node id="566491940" version="1" timestamp="2009-11-18T00:40:07Z" uid="198597" user="gogocando" changeset="3146893" lat="30.0509572" lon="31.3206193"/>
  <node id="566491950" version="1" timestamp="2009-11-18T00:40:07Z" uid="198597" user="gogocando" changeset="3146893" lat="30.0509126" lon="31.3203961"/>
  <node id="566491954" version="1" timestamp="2009-11-18T00:40:07Z" uid="198597" user="gogocando" changeset="3146893" lat="30.0506232" lon="31.3205173"/>
  <node id="566492204" version="2" timestamp="2010-04-11T04:53:09Z" uid="20587" user="balrog-kun" changeset="4389130" lat="49.92469" lon="22.08647">
    <tag k="name" v="Nowy Borek"/>
    <tag k="place" v="village"/>
    <tag k="source" v="http://ump.waw.pl/ retrieved 01:34:01 09/02/09 (UMP-Rzeszow/src/cities-Rzeszow.pnt-converted.txt)"/>
  </node>
  <node id="566492204" version="3" timestamp="2010-04-11T13:16:54Z" uid="20587" user="balrog-kun" changeset="4392352" lat="49.92469" lon="22.08647">
    <tag k="name" v="Nowy Borek"/>
    <tag k="place" v="village"/>
    <tag k="source" v="http://ump.waw.pl/ retrieved 01:34:01 09/02/09 (UMP-Rzeszow/src/cities-Rzeszow.pnt-converted.txt)"/>
  </node>
  <node id="566492726" version="2" timestamp="2010-04-11T04:53:09Z" uid="20587" user="balrog-kun" changeset="4389130" lat="49.9526029" lon="22.0956979">
    <tag k="name" v="Borek Stary"/>
    <tag k="place" v="village"/>
    <tag k="source" v="http://ump.waw.pl/ retrieved 01:34:01 09/02/09 (UMP-Rzeszow/src/cities-Rzeszow.pnt-converted.txt)"/>
  </node>
  <node id="566492726" version="3" timestamp="2010-04-11T13:16:54Z" uid="20587" user="balrog-kun" changeset="4392352" lat="49.9540356" lon="22.0980455">
    <tag k="name" v="Borek Stary"/>
    <tag k="place" v="village"/>
    <tag k="source" v="http://ump.waw.pl/ retrieved 01:34:01 09/02/09 (UMP-Rzeszow/src/cities-Rzeszow.pnt-converted.txt)"/>
  </node>
  <node id="566492726" version="4" timestamp="2010-04-27T03:59:43Z" uid="30632" user="antblant" changeset="4537857" lat="49.9540356" lon="22.0980455">
    <tag k="name" v="Borek Stary"/>
    <tag k="place" v="village"/>
    <tag k="source" v="http://ump.waw.pl/ retrieved 01:34:01 09/02/09 (UMP-Rzeszow/src/cities-Rzeszow.pnt-converted.txt)"/>
    <tag k="teryt:simc" v="0666087"/>
  </node>
  <node id="566492913" version="2" timestamp="2010-04-11T04:53:09Z" uid="20587" user="balrog-kun" changeset="4389130" lat="49.9298093" lon="22.1416339">
    <tag k="name" v="Brzezówka"/>
    <tag k="place" v="village"/>
    <tag k="source" v="http://ump.waw.pl/ retrieved 01:34:01 09/02/09 (UMP-Rzeszow/src/cities-Rzeszow.pnt-converted.txt)"/>
  </node>
  <node id="566492913" version="3" timestamp="2010-04-11T13:16:54Z" uid="20587" user="balrog-kun" changeset="4392352" lat="49.9295133" lon="22.1394799">
    <tag k="name" v="Brzezówka"/>
    <tag k="place" v="village"/>
    <tag k="source" v="http://ump.waw.pl/ retrieved 01:34:01 09/02/09 (UMP-Rzeszow/src/cities-Rzeszow.pnt-converted.txt)"/>
  </node>
  <node id="566493140" version="2" timestamp="2010-04-11T04:53:10Z" uid="20587" user="balrog-kun" changeset="4389130" lat="49.96709" lon="22.0613">
    <tag k="name" v="Kielnarowa"/>
    <tag k="place" v="village"/>
    <tag k="source" v="http://ump.waw.pl/ retrieved 01:34:01 09/02/09 (UMP-Rzeszow/src/cities-Rzeszow.pnt-converted.txt)"/>
  </node>
  <node id="566493140" version="3" timestamp="2010-04-11T13:16:55Z" uid="20587" user="balrog-kun" changeset="4392352" lat="49.96709" lon="22.0613">
    <tag k="name" v="Kielnarowa"/>
    <tag k="place" v="village"/>
    <tag k="source" v="http://ump.waw.pl/ retrieved 01:34:01 09/02/09 (UMP-Rzeszow/src/cities-Rzeszow.pnt-converted.txt)"/>
  </node>
  <node id="566493140" version="4" timestamp="2010-04-27T04:10:46Z" uid="30632" user="antblant" changeset="4537882" lat="49.96709" lon="22.0613">
    <tag k="name" v="Kielnarowa"/>
    <tag k="place" v="village"/>
    <tag k="source" v="http://ump.waw.pl/ retrieved 01:34:01 09/02/09 (UMP-Rzeszow/src/cities-Rzeszow.pnt-converted.txt)"/>
    <tag k="teryt:simc" v="0665952"/>
  </node>
  <node id="566495113" version="3" timestamp="2010-04-11T04:53:10Z" uid="20587" user="balrog-kun" changeset="4389130" lat="50.04985" lon="22.0897299">
    <tag k="name" v="Krasne"/>
    <tag k="place" v="village"/>
    <tag k="source" v="http://ump.waw.pl/ retrieved 01:34:01 09/02/09 (UMP-Rzeszow/src/cities-Rzeszow.pnt-converted.txt)"/>
  </node>
  <node id="566495562" version="2" timestamp="2010-04-11T04:53:10Z" uid="20587" user="balrog-kun" changeset="4389130" lat="50.06987" lon="22.13773">
    <tag k="name" v="Strażów"/>
    <tag k="place" v="village"/>
    <tag k="source" v="http://ump.waw.pl/ retrieved 01:34:01 09/02/09 (UMP-Rzeszow/src/cities-Rzeszow.pnt-converted.txt)"/>
  </node>
  <node id="566495562" version="3" timestamp="2010-04-11T13:16:55Z" uid="20587" user="balrog-kun" changeset="4392352" lat="50.06987" lon="22.13773">
    <tag k="name" v="Strażów"/>
    <tag k="place" v="village"/>
    <tag k="source" v="http://ump.waw.pl/ retrieved 01:34:01 09/02/09 (UMP-Rzeszow/src/cities-Rzeszow.pnt-converted.txt)"/>
  </node>
  <node id="566495562" version="4" timestamp="2010-04-27T04:17:10Z" uid="30632" user="antblant" changeset="4537905" lat="50.06987" lon="22.13773">
    <tag k="name" v="Strażów"/>
    <tag k="place" v="village"/>
    <tag k="source" v="http://ump.waw.pl/ retrieved 01:34:01 09/02/09 (UMP-Rzeszow/src/cities-Rzeszow.pnt-converted.txt)"/>
    <tag k="teryt:simc" v="0652926"/>
  </node>
  <node id="566496053" version="2" timestamp="2010-04-11T04:53:10Z" uid="20587" user="balrog-kun" changeset="4389130" lat="49.9650378" lon="22.1723865">
    <tag k="name" v="Błędowa Tyczyńska"/>
    <tag k="place" v="village"/>
    <tag k="source" v="http://ump.waw.pl/ retrieved 01:34:01 09/02/09 (UMP-Rzeszow/src/cities-Rzeszow.pnt-converted.txt)"/>
  </node>
  <node id="566496053" version="3" timestamp="2010-04-11T13:16:55Z" uid="20587" user="balrog-kun" changeset="4392352" lat="49.9636568" lon="22.1736664">
    <tag k="name" v="Błędowa Tyczyńska"/>
    <tag k="place" v="village"/>
    <tag k="source" v="http://ump.waw.pl/ retrieved 01:34:01 09/02/09 (UMP-Rzeszow/src/cities-Rzeszow.pnt-converted.txt)"/>
  </node>
  <node id="566496053" version="4" timestamp="2010-04-27T04:02:34Z" uid="30632" user="antblant" changeset="4537862" lat="49.9636568" lon="22.1736664">
    <tag k="name" v="Błędowa Tyczyńska"/>
    <tag k="place" v="village"/>
    <tag k="source" v="http://ump.waw.pl/ retrieved 01:34:01 09/02/09 (UMP-Rzeszow/src/cities-Rzeszow.pnt-converted.txt)"/>
    <tag k="teryt:simc" v="0646073"/>
  </node>
  <node id="566496073" version="2" timestamp="2010-04-11T04:53:10Z" uid="20587" user="balrog-kun" changeset="4389130" lat="49.9244692" lon="22.2073617">
    <tag k="name" v="Wólka Hyżeńska"/>
    <tag k="place" v="village"/>
    <tag k="source" v="http://ump.waw.pl/ retrieved 01:34:01 09/02/09 (UMP-Rzeszow/src/cities-Rzeszow.pnt-converted.txt)"/>
  </node>
  <node id="566496073" version="3" timestamp="2010-04-11T13:16:55Z" uid="20587" user="balrog-kun" changeset="4392352" lat="49.9241732" lon="22.206321">
    <tag k="name" v="Wólka Hyżeńska"/>
    <tag k="place" v="village"/>
    <tag k="source" v="http://ump.waw.pl/ retrieved 01:34:01 09/02/09 (UMP-Rzeszow/src/cities-Rzeszow.pnt-converted.txt)"/>
  </node>
  <node id="566496099" version="2" timestamp="2010-04-11T04:53:10Z" uid="20587" user="balrog-kun" changeset="4389130" lat="49.9336995" lon="22.1982652">
    <tag k="name" v="Grzegorzówka"/>
    <tag k="place" v="village"/>
    <tag k="source" v="http://ump.waw.pl/ retrieved 01:34:01 09/02/09 (UMP-Rzeszow/src/cities-Rzeszow.pnt-converted.txt)"/>
  </node>
  <node id="566496099" version="3" timestamp="2010-04-11T13:16:55Z" uid="20587" user="balrog-kun" changeset="4392352" lat="49.9332322" lon="22.1972003">
    <tag k="name" v="Grzegorzówka"/>
    <tag k="place" v="village"/>
    <tag k="source" v="http://ump.waw.pl/ retrieved 01:34:01 09/02/09 (UMP-Rzeszow/src/cities-Rzeszow.pnt-converted.txt)"/>
  </node>
  <node id="566496099" version="4" timestamp="2010-04-27T04:07:45Z" uid="30632" user="antblant" changeset="4537875" lat="49.9332322" lon="22.1972003">
    <tag k="name" v="Grzegorzówka"/>
    <tag k="place" v="village"/>
    <tag k="source" v="http://ump.waw.pl/ retrieved 01:34:01 09/02/09 (UMP-Rzeszow/src/cities-Rzeszow.pnt-converted.txt)"/>
    <tag k="teryt:simc" v="0651105"/>
  </node>
  <node id="566496837" version="2" timestamp="2010-04-11T04:53:10Z" uid="20587" user="balrog-kun" changeset="4389130" lat="49.9894016" lon="22.2172501">
    <tag k="name" v="Handzlówka"/>
    <tag k="place" v="village"/>
    <tag k="source" v="http://ump.waw.pl/ retrieved 01:34:01 09/02/09 (UMP-Rzeszow/src/cities-Rzeszow.pnt-converted.txt)"/>
  </node>
  <node id="566496837" version="3" timestamp="2010-04-11T13:16:55Z" uid="20587" user="balrog-kun" changeset="4392352" lat="49.9882151" lon="22.2182787">
    <tag k="name" v="Handzlówka"/>
    <tag k="place" v="village"/>
    <tag k="source" v="http://ump.waw.pl/ retrieved 01:34:01 09/02/09 (UMP-Rzeszow/src/cities-Rzeszow.pnt-converted.txt)"/>
  </node>
  <node id="566496837" version="4" timestamp="2010-04-27T04:17:10Z" uid="30632" user="antblant" changeset="4537905" lat="49.9882151" lon="22.2182787">
    <tag k="name" v="Handzlówka"/>
    <tag k="place" v="village"/>
    <tag k="source" v="http://ump.waw.pl/ retrieved 01:34:01 09/02/09 (UMP-Rzeszow/src/cities-Rzeszow.pnt-converted.txt)"/>
    <tag k="teryt:simc" v="0654859"/>
  </node>
  <node id="566497621" version="2" timestamp="2010-04-11T04:53:10Z" uid="20587" user="balrog-kun" changeset="4389130" lat="49.977743" lon="22.2848097">
    <tag k="name" v="Husów"/>
    <tag k="place" v="village"/>
    <tag k="source" v="http://ump.waw.pl/ retrieved 01:34:01 09/02/09 (UMP-Rzeszow/src/cities-Rzeszow.pnt-converted.txt)"/>
  </node>
  <node id="566497621" version="3" timestamp="2010-04-11T13:16:55Z" uid="20587" user="balrog-kun" changeset="4392352" lat="49.9776457" lon="22.288251">
    <tag k="name" v="Husów"/>
    <tag k="place" v="village"/>
    <tag k="source" v="http://ump.waw.pl/ retrieved 01:34:01 09/02/09 (UMP-Rzeszow/src/cities-Rzeszow.pnt-converted.txt)"/>
  </node>
  <node id="566497621" version="4" timestamp="2010-04-27T04:08:00Z" uid="30632" user="antblant" changeset="4537875" lat="49.9776457" lon="22.288251">
    <tag k="name" v="Husów"/>
    <tag k="place" v="village"/>
    <tag k="source" v="http://ump.waw.pl/ retrieved 01:34:01 09/02/09 (UMP-Rzeszow/src/cities-Rzeszow.pnt-converted.txt)"/>
    <tag k="teryt:simc" v="0655333"/>
  </node>
  <node id="566497664" version="2" timestamp="2010-04-11T04:53:10Z" uid="20587" user="balrog-kun" changeset="4389130" lat="49.9945564" lon="22.3153881">
    <tag k="name" v="Lipnik"/>
    <tag k="place" v="village"/>
    <tag k="source" v="http://ump.waw.pl/ retrieved 01:34:01 09/02/09 (UMP-Rzeszow/src/cities-Rzeszow.pnt-converted.txt)"/>
  </node>
  <node id="566497664" version="3" timestamp="2010-04-11T13:16:55Z" uid="20587" user="balrog-kun" changeset="4392352" lat="49.9936034" lon="22.3137544">
    <tag k="name" v="Lipnik"/>
    <tag k="place" v="village"/>
    <tag k="source" v="http://ump.waw.pl/ retrieved 01:34:01 09/02/09 (UMP-Rzeszow/src/cities-Rzeszow.pnt-converted.txt)"/>
  </node>
  <node id="566498200" version="2" timestamp="2010-04-11T04:53:10Z" uid="20587" user="balrog-kun" changeset="4389130" lat="50.0666863" lon="22.1845703">
    <tag k="name" v="Krzemienica"/>
    <tag k="place" v="village"/>
    <tag k="source" v="http://ump.waw.pl/ retrieved 01:34:01 09/02/09 (UMP-Rzeszow/src/cities-Rzeszow.pnt-converted.txt)"/>
  </node>
  <node id="566498200" version="3" timestamp="2010-04-11T13:16:55Z" uid="20587" user="balrog-kun" changeset="4392352" lat="50.069359" lon="22.1858219">
    <tag k="name" v="Krzemienica"/>
    <tag k="place" v="village"/>
    <tag k="source" v="http://ump.waw.pl/ retrieved 01:34:01 09/02/09 (UMP-Rzeszow/src/cities-Rzeszow.pnt-converted.txt)"/>
  </node>
  <node id="566498705" version="2" timestamp="2010-07-28T20:10:55Z" uid="74617" user="JohnSmith" changeset="5339329" lat="32.671782" lon="-97.3996335">
    <tag k="emergency" v="fire_hydrant"/>
  </node>
  <node id="566498705" version="3" timestamp="2010-07-30T17:39:20Z" uid="74617" user="JohnSmith" changeset="5356742" lat="32.671782" lon="-97.3996335">
    <tag k="amenity" v="fire_hydrant"/>
    <tag k="emergency" v="fire_hydrant"/>
  </node>
  <node id="566498705" version="4" timestamp="2010-10-18T17:46:13Z" uid="26348" user="Rodolphe Quiédeville" changeset="6084703" lat="32.671782" lon="-97.3996335">
    <tag k="emergency" v="fire_hydrant"/>
  </node>
  <node id="566498705" version="5" timestamp="2012-03-27T18:27:32Z" uid="67540" user="Cobra" changeset="11118954" lat="32.671782" lon="-97.3996335">
    <tag k="emergency" v="fire_hydrant"/>
    <tag k="odbl" v="clean"/>
  </node>
  <node id="566498734" version="2" timestamp="2010-07-28T20:06:04Z" uid="74617" user="JohnSmith" changeset="5339329" lat="32.6727324" lon="-97.3932682">
    <tag k="emergency" v="fire_hydrant"/>
  </node>
  <node id="566498734" version="3" timestamp="2010-07-30T17:47:16Z" uid="74617" user="JohnSmith" changeset="5356742" lat="32.6727324" lon="-97.3932682">
    <tag k="amenity" v="fire_hydrant"/>
    <tag k="emergency" v="fire_hydrant"/>
  </node>
  <node id="566498734" version="4" timestamp="2010-10-18T17:46:17Z" uid="26348" user="Rodolphe Quiédeville" changeset="6084703" lat="32.6727324" lon="-97.3932682">
    <tag k="emergency" v="fire_hydrant"/>
  </node>
  <node id="566498734" version="5" timestamp="2012-03-27T18:27:32Z" uid="67540" user="Cobra" changeset="11118954" lat="32.6727324" lon="-97.3932682">
    <tag k="emergency" v="fire_hydrant"/>
    <tag k="odbl" v="clean"/>
  </node>
  <node id="566498745" version="2" timestamp="2010-07-28T20:05:11Z" uid="74617" user="JohnSmith" changeset="5339329" lat="32.6766998" lon="-97.3959612">
    <tag k="emergency" v="fire_hydrant"/>
  </node>
  <node id="566498745" version="3" timestamp="2010-07-30T17:47:46Z" uid="74617" user="JohnSmith" changeset="5356742" lat="32.6766998" lon="-97.3959612">
    <tag k="amenity" v="fire_hydrant"/>
    <tag k="emergency" v="fire_hydrant"/>
  </node>
  <node id="566498745" version="4" timestamp="2010-10-18T17:45:47Z" uid="26348" user="Rodolphe Quiédeville" changeset="6084703" lat="32.6766998" lon="-97.3959612">
    <tag k="emergency" v="fire_hydrant"/>
  </node>
  <node id="566498745" version="5" timestamp="2012-03-27T18:27:33Z" uid="67540" user="Cobra" changeset="11118954" lat="32.6766998" lon="-97.3959612">
    <tag k="emergency" v="fire_hydrant"/>
    <tag k="odbl" v="clean"/>
  </node>
  <node id="566498992" version="2" timestamp="2010-04-11T04:53:10Z" uid="20587" user="balrog-kun" changeset="4389130" lat="50.04485" lon="22.26347">
    <tag k="name" v="Wysoka"/>
    <tag k="place" v="village"/>
    <tag k="source" v="http://ump.waw.pl/ retrieved 01:34:01 09/02/09 (UMP-Rzeszow/src/cities-Rzeszow.pnt-converted.txt)"/>
  </node>
  <node id="566498992" version="3" timestamp="2010-04-11T13:16:55Z" uid="20587" user="balrog-kun" changeset="4392352" lat="50.04485" lon="22.26347">
    <tag k="name" v="Wysoka"/>
    <tag k="place" v="village"/>
    <tag k="source" v="http://ump.waw.pl/ retrieved 01:34:01 09/02/09 (UMP-Rzeszow/src/cities-Rzeszow.pnt-converted.txt)"/>
  </node>
  <node id="566499185" version="2" timestamp="2010-03-16T20:59:36Z" uid="30632" user="antblant" changeset="4146794" lat="50.02323" lon="22.3136">
    <tag k="addr:city" v="Markowa"/>
    <tag k="landuse" v="cemetery"/>
    <tag k="name" v="cmentarz"/>
    <tag k="source" v="http://ump.waw.pl/ retrieved 01:34:01 09/02/09 (UMP-Rzeszow/src/POI-Rzeszow.pnt-converted.txt)"/>
  </node>
  <node id="566499477" version="2" timestamp="2010-04-11T04:53:10Z" uid="20587" user="balrog-kun" changeset="4389130" lat="50.0815762" lon="22.2710164">
    <tag k="name" v="Głuchów"/>
    <tag k="place" v="village"/>
    <tag k="source" v="http://ump.waw.pl/ retrieved 01:34:01 09/02/09 (UMP-Rzeszow/src/cities-Rzeszow.pnt-converted.txt)"/>
  </node>
  <node id="566499477" version="3" timestamp="2010-04-11T13:16:55Z" uid="20587" user="balrog-kun" changeset="4392352" lat="50.0817289" lon="22.2702134">
    <tag k="name" v="Głuchów"/>
    <tag k="place" v="village"/>
    <tag k="source" v="http://ump.waw.pl/ retrieved 01:34:01 09/02/09 (UMP-Rzeszow/src/cities-Rzeszow.pnt-converted.txt)"/>
  </node>
  <node id="566499524" version="2" timestamp="2010-04-11T04:53:10Z" uid="20587" user="balrog-kun" changeset="4389130" lat="49.9361824" lon="22.3471739">
    <tag k="name" v="Manasterz"/>
    <tag k="place" v="village"/>
    <tag k="source" v="http://ump.waw.pl/ retrieved 01:34:01 09/02/09 (UMP-Rzeszow/src/cities-Rzeszow.pnt-converted.txt)"/>
  </node>
  <node id="566499524" version="3" timestamp="2010-04-11T13:16:55Z" uid="20587" user="balrog-kun" changeset="4392352" lat="49.9422777" lon="22.3581255">
    <tag k="name" v="Manasterz"/>
    <tag k="place" v="village"/>
    <tag k="source" v="http://ump.waw.pl/ retrieved 01:34:01 09/02/09 (UMP-Rzeszow/src/cities-Rzeszow.pnt-converted.txt)"/>
  </node>
  <node id="566499621" version="2" timestamp="2010-04-11T04:53:10Z" uid="20587" user="balrog-kun" changeset="4389130" lat="50.0787565" lon="22.3341202">
    <tag k="name" v="Kosina Dolna"/>
    <tag k="place" v="hamlet"/>
    <tag k="source" v="http://ump.waw.pl/ retrieved 01:34:01 09/02/09 (UMP-Rzeszow/src/cities-Rzeszow.pnt-converted.txt)"/>
  </node>
  <node id="566499621" version="3" timestamp="2010-04-11T13:16:55Z" uid="20587" user="balrog-kun" changeset="4392352" lat="50.0788236" lon="22.3338032">
    <tag k="name" v="Kosina Dolna"/>
    <tag k="place" v="hamlet"/>
    <tag k="source" v="http://ump.waw.pl/ retrieved 01:34:01 09/02/09 (UMP-Rzeszow/src/cities-Rzeszow.pnt-converted.txt)"/>
  </node>
  <node id="566499941" version="2" timestamp="2010-04-27T04:17:14Z" uid="30632" user="antblant" changeset="4537905" lat="50.117105" lon="22.381227">
    <tag k="is_in" v="Poland"/>
    <tag k="name" v="Korniaktów Północny"/>
    <tag k="place" v="village"/>
    <tag k="teryt:simc" v="0643809"/>
  </node>
</osm>
