<?xml version='1.0' encoding='UTF-8'?>
<osm version="0.6" generator="libosmium/2.20.0">
  <node id="568982194" version="1" timestamp="2009-11-23T06:46:44Z" uid="103576" user="DiverCTH" changeset="3192966" lat="34.999589" lon="-85.085595"/>
  <node id="568982196" version="1" timestamp="2009-11-23T06:46:44Z" uid="103576" user="DiverCTH" changeset="3192966" lat="34.999318" lon="-85.08519">
    <tag k="addr:country" v="US"/>
    <tag k="addr:county" v="Hamilton, TN"/>
    <tag k="addr:housenumber" v="9998"/>
    <tag k="addr:postcode" v="37363"/>
    <tag k="addr:state" v="Tennessee"/>
    <tag k="addr:street" v="Frost Ridge Rd"/>
  </node>
  <node id="568982199" version="1" timestamp="2009-11-23T06:46:44Z" uid="103576" user="DiverCTH" changeset="3192966" lat="34.999469" lon="-85.085443"/>
  <node id="568982201" version="1" timestamp="2009-11-23T06:46:44Z" uid="103576" user="DiverCTH" changeset="3192966" lat="34.999335" lon="-85.084875">
    <tag k="addr:country" v="US"/>
    <tag k="addr:county" v="Hamilton, TN"/>
    <tag k="addr:housenumber" v="9987"/>
    <tag k="addr:postcode" v="37363"/>
    <tag k="addr:state" v="Tennessee"/>
    <tag k="addr:street" v="Frost Ridge Rd"/>
  </node>
  <node id="568982205" version="1" timestamp="2009-11-23T06:46:45Z" uid="103576" user="DiverCTH" changeset="3192966" lat="34.999292" lon="-85.084795">
    <tag k="addr:country" v="US"/>
    <tag k="addr:county" v="Hamilton, TN"/>
    <tag k="addr:housenumber" v="9999"/>
    <tag k="addr:postcode" v="37363"/>
    <tag k="addr:state" v="Tennessee"/>
    <tag k="addr:street" v="Frost Ridge Rd"/>
  </node>
  <node id="568982208" version="1" timestamp="2009-11-23T06:46:45Z" uid="103576" user="DiverCTH" changeset="3192966" lat="34.999449" lon="-85.085069">
    <tag k="addr:country" v="US"/>
    <tag k="addr:county" v="Hamilton, TN"/>
    <tag k="addr:housenumber" v="9985"/>
    <tag k="addr:postcode" v="37363"/>
    <tag k="addr:state" v="Tennessee"/>
    <tag k="addr:street" v="Frost Ridge Rd"/>
  </node>
  <node id="568982211" version="1" timestamp="2009-11-23T06:46:45Z" uid="103576" user="DiverCTH" changeset="3192966" lat="34.999601" lon="-85.085301"/>
  <node id="568982213" version="1" timestamp="2009-11-23T06:46:45Z" uid="103576" user="DiverCTH" changeset="3192966" lat="34.9996586" lon="-85.0855215"/>
  <node id="568982215" version="1" timestamp="2009-11-23T06:46:45Z" uid="103576" user="DiverCTH" changeset="3192966" lat="34.9995405" lon="-85.0853629"/>
  <node id="568982217" version="1" timestamp="2009-11-23T06:46:45Z" uid="103576" user="DiverCTH" changeset="3192966" lat="35.002297" lon="-85.088681">
    <tag k="addr:country" v="US"/>
    <tag k="addr:county" v="Hamilton, TN"/>
    <tag k="addr:housenumber" v="9801"/>
    <tag k="addr:postcode" v="37363"/>
    <tag k="addr:state" v="Tennessee"/>
    <tag k="addr:street" v="Frost Ridge Rd"/>
  </node>
  <node id="568982220" version="1" timestamp="2009-11-23T06:46:45Z" uid="103576" user="DiverCTH" changeset="3192966" lat="35.002262" lon="-85.088558"/>
  <node id="568982222" version="1" timestamp="2009-11-23T06:46:45Z" uid="103576" user="DiverCTH" changeset="3192966" lat="35.002106" lon="-85.088626"/>
  <node id="568982224" version="1" timestamp="2009-11-23T06:46:45Z" uid="103576" user="DiverCTH" changeset="3192966" lat="35.002142" lon="-85.088748">
    <tag k="addr:country" v="US"/>
    <tag k="addr:county" v="Hamilton, TN"/>
    <tag k="addr:housenumber" v="9800"/>
    <tag k="addr:postcode" v="37363"/>
    <tag k="addr:state" v="Tennessee"/>
    <tag k="addr:street" v="Frost Ridge Rd"/>
  </node>
  <node id="568982227" version="1" timestamp="2009-11-23T06:46:45Z" uid="103576" user="DiverCTH" changeset="3192966" lat="35.002191" lon="-85.0885963"/>
  <node id="568982229" version="1" timestamp="2009-11-23T06:46:45Z" uid="103576" user="DiverCTH" changeset="3192966" lat="35.002077" lon="-85.087912"/>
  <node id="568982231" version="1" timestamp="2009-11-23T06:46:45Z" uid="103576" user="DiverCTH" changeset="3192966" lat="35.002044" lon="-85.087772"/>
  <node id="568982232" version="1" timestamp="2009-11-23T06:46:45Z" uid="103576" user="DiverCTH" changeset="3192966" lat="35.001884" lon="-85.087822"/>
  <node id="568982234" version="1" timestamp="2009-11-23T06:46:45Z" uid="103576" user="DiverCTH" changeset="3192966" lat="35.001913" lon="-85.087974"/>
  <node id="568982237" version="1" timestamp="2009-11-23T06:46:45Z" uid="103576" user="DiverCTH" changeset="3192966" lat="35.0019992" lon="-85.0879224"/>
  <node id="568982239" version="1" timestamp="2009-11-23T06:46:45Z" uid="103576" user="DiverCTH" changeset="3192966" lat="35.0019702" lon="-85.0877929"/>
  <node id="568982241" version="1" timestamp="2009-11-23T06:46:45Z" uid="103576" user="DiverCTH" changeset="3192966" lat="35.001738" lon="-85.086994"/>
  <node id="568982244" version="1" timestamp="2009-11-23T06:46:45Z" uid="103576" user="DiverCTH" changeset="3192966" lat="35.001735" lon="-85.086868"/>
  <node id="568982245" version="1" timestamp="2009-11-23T06:46:45Z" uid="103576" user="DiverCTH" changeset="3192966" lat="35.001967" lon="-85.087362">
    <tag k="addr:country" v="US"/>
    <tag k="addr:county" v="Hamilton, TN"/>
    <tag k="addr:housenumber" v="9861"/>
    <tag k="addr:postcode" v="37363"/>
    <tag k="addr:state" v="Tennessee"/>
    <tag k="addr:street" v="Frost Ridge Rd"/>
  </node>
  <node id="568982246" version="1" timestamp="2009-11-23T06:46:45Z" uid="103576" user="DiverCTH" changeset="3192966" lat="35.00192" lon="-85.087057"/>
  <node id="568982247" version="1" timestamp="2009-11-23T06:46:46Z" uid="103576" user="DiverCTH" changeset="3192966" lat="35.002019" lon="-85.08765">
    <tag k="addr:country" v="US"/>
    <tag k="addr:county" v="Hamilton, TN"/>
    <tag k="addr:housenumber" v="9859"/>
    <tag k="addr:postcode" v="37363"/>
    <tag k="addr:state" v="Tennessee"/>
    <tag k="addr:street" v="Frost Ridge Rd"/>
  </node>
  <node id="568982248" version="1" timestamp="2009-11-23T06:46:46Z" uid="103576" user="DiverCTH" changeset="3192966" lat="35.001859" lon="-85.087698">
    <tag k="addr:country" v="US"/>
    <tag k="addr:county" v="Hamilton, TN"/>
    <tag k="addr:housenumber" v="9898"/>
    <tag k="addr:postcode" v="37363"/>
    <tag k="addr:state" v="Tennessee"/>
    <tag k="addr:street" v="Frost Ridge Rd"/>
  </node>
  <node id="568982249" version="1" timestamp="2009-11-23T06:46:46Z" uid="103576" user="DiverCTH" changeset="3192966" lat="35.001805" lon="-85.087399">
    <tag k="addr:country" v="US"/>
    <tag k="addr:county" v="Hamilton, TN"/>
    <tag k="addr:housenumber" v="9900"/>
    <tag k="addr:postcode" v="37363"/>
    <tag k="addr:state" v="Tennessee"/>
    <tag k="addr:street" v="Frost Ridge Rd"/>
  </node>
  <node id="568982250" version="1" timestamp="2009-11-23T06:46:46Z" uid="103576" user="DiverCTH" changeset="3192966" lat="35.001758" lon="-85.087093"/>
  <node id="568982251" version="1" timestamp="2009-11-23T06:46:46Z" uid="103576" user="DiverCTH" changeset="3192966" lat="35.002047" lon="-85.087594">
    <tag k="addr:country" v="US"/>
    <tag k="addr:county" v="Hamilton, TN"/>
    <tag k="addr:housenumber" v="2001"/>
    <tag k="addr:postcode" v="37363"/>
    <tag k="addr:state" v="Tennessee"/>
    <tag k="addr:street" v="Sutters Ln"/>
  </node>
  <node id="568982254" version="1" timestamp="2009-11-23T06:46:46Z" uid="103576" user="DiverCTH" changeset="3192966" lat="35.002012" lon="-85.087398">
    <tag k="addr:country" v="US"/>
    <tag k="addr:county" v="Hamilton, TN"/>
    <tag k="addr:housenumber" v="2000"/>
    <tag k="addr:postcode" v="37363"/>
    <tag k="addr:state" v="Tennessee"/>
    <tag k="addr:street" v="Sutters Ln"/>
  </node>
  <node id="568982257" version="1" timestamp="2009-11-23T06:46:46Z" uid="103576" user="DiverCTH" changeset="3192966" lat="35.002052" lon="-85.087593"/>
  <node id="568982259" version="1" timestamp="2009-11-23T06:46:46Z" uid="103576" user="DiverCTH" changeset="3192966" lat="35.002018" lon="-85.087397"/>
  <node id="568982261" version="1" timestamp="2009-11-23T06:46:46Z" uid="103576" user="DiverCTH" changeset="3192966" lat="35.00184" lon="-85.0870692"/>
  <node id="568982263" version="1" timestamp="2009-11-23T06:46:46Z" uid="103576" user="DiverCTH" changeset="3192966" lat="35.002431" lon="-85.087494"/>
  <node id="568982266" version="1" timestamp="2009-11-23T06:46:46Z" uid="103576" user="DiverCTH" changeset="3192966" lat="35.002397" lon="-85.087298"/>
  <node id="568982268" version="1" timestamp="2009-11-23T06:46:46Z" uid="103576" user="DiverCTH" changeset="3192966" lat="35.002437" lon="-85.087493">
    <tag k="addr:country" v="US"/>
    <tag k="addr:county" v="Hamilton, TN"/>
    <tag k="addr:housenumber" v="2099"/>
    <tag k="addr:postcode" v="37363"/>
    <tag k="addr:state" v="Tennessee"/>
    <tag k="addr:street" v="Sutters Ln"/>
  </node>
  <node id="568982271" version="1" timestamp="2009-11-23T06:46:46Z" uid="103576" user="DiverCTH" changeset="3192966" lat="35.002403" lon="-85.087296">
    <tag k="addr:country" v="US"/>
    <tag k="addr:county" v="Hamilton, TN"/>
    <tag k="addr:housenumber" v="2098"/>
    <tag k="addr:postcode" v="37363"/>
    <tag k="addr:state" v="Tennessee"/>
    <tag k="addr:street" v="Sutters Ln"/>
  </node>
  <node id="568982274" version="1" timestamp="2009-11-23T06:46:46Z" uid="103576" user="DiverCTH" changeset="3192966" lat="35.001914" lon="-85.086976"/>
  <node id="568982276" version="1" timestamp="2009-11-23T06:46:46Z" uid="103576" user="DiverCTH" changeset="3192966" lat="35.002006" lon="-85.086527"/>
  <node id="568982278" version="1" timestamp="2009-11-23T06:46:46Z" uid="103576" user="DiverCTH" changeset="3192966" lat="35.001919" lon="-85.0869"/>
  <node id="568982280" version="1" timestamp="2009-11-23T06:46:46Z" uid="103576" user="DiverCTH" changeset="3192966" lat="35.002007" lon="-85.086391"/>
  <node id="568982282" version="1" timestamp="2009-11-23T06:46:46Z" uid="103576" user="DiverCTH" changeset="3192966" lat="35.001824" lon="-85.086493"/>
  <node id="568982285" version="1" timestamp="2009-11-23T06:46:46Z" uid="103576" user="DiverCTH" changeset="3192966" lat="35.001827" lon="-85.086415"/>
  <node id="568982287" version="1" timestamp="2009-11-23T06:46:47Z" uid="103576" user="DiverCTH" changeset="3192966" lat="35.0018205" lon="-85.0869906"/>
  <node id="568982289" version="1" timestamp="2009-11-23T06:46:47Z" uid="103576" user="DiverCTH" changeset="3192966" lat="35.001822" lon="-85.0868851"/>
  <node id="568982291" version="1" timestamp="2009-11-23T06:46:47Z" uid="103576" user="DiverCTH" changeset="3192966" lat="35.0019206" lon="-85.0865223"/>
  <node id="568982293" version="1" timestamp="2009-11-23T06:46:47Z" uid="103576" user="DiverCTH" changeset="3192966" lat="34.999732" lon="-85.08568"/>
  <node id="568982295" version="1" timestamp="2009-11-23T06:46:47Z" uid="103576" user="DiverCTH" changeset="3192966" lat="34.999993" lon="-85.085712"/>
  <node id="568982297" version="1" timestamp="2009-11-23T06:46:47Z" uid="103576" user="DiverCTH" changeset="3192966" lat="34.999844" lon="-85.08571"/>
  <node id="568982299" version="1" timestamp="2009-11-23T06:46:47Z" uid="103576" user="DiverCTH" changeset="3192966" lat="35.000073" lon="-85.08568"/>
  <node id="568982301" version="1" timestamp="2009-11-23T06:46:47Z" uid="103576" user="DiverCTH" changeset="3192966" lat="34.999995" lon="-85.085476"/>
  <node id="568982303" version="1" timestamp="2009-11-23T06:46:47Z" uid="103576" user="DiverCTH" changeset="3192966" lat="34.999699" lon="-85.085409"/>
  <node id="568982305" version="1" timestamp="2009-11-23T06:46:47Z" uid="103576" user="DiverCTH" changeset="3192966" lat="34.999794" lon="-85.08547"/>
  <node id="568982307" version="1" timestamp="2009-11-23T06:46:47Z" uid="103576" user="DiverCTH" changeset="3192966" lat="34.999864" lon="-85.08549"/>
  <node id="568982309" version="1" timestamp="2009-11-23T06:46:47Z" uid="103576" user="DiverCTH" changeset="3192966" lat="34.999965" lon="-85.085486"/>
  <node id="568982312" version="1" timestamp="2009-11-23T06:46:47Z" uid="103576" user="DiverCTH" changeset="3192966" lat="34.999863" lon="-85.0856175"/>
  <node id="568982314" version="1" timestamp="2009-11-23T06:46:47Z" uid="103576" user="DiverCTH" changeset="3192966" lat="34.9997704" lon="-85.0855897"/>
  <node id="568982327" version="1" timestamp="2009-11-23T06:46:47Z" uid="103576" user="DiverCTH" changeset="3192966" lat="35.000057" lon="-85.085432"/>
  <node id="568982329" version="1" timestamp="2009-11-23T06:46:48Z" uid="103576" user="DiverCTH" changeset="3192966" lat="35.000341" lon="-85.085145"/>
  <node id="568982331" version="1" timestamp="2009-11-23T06:46:48Z" uid="103576" user="DiverCTH" changeset="3192966" lat="35.000233" lon="-85.085239"/>
  <node id="568982333" version="1" timestamp="2009-11-23T06:46:48Z" uid="103576" user="DiverCTH" changeset="3192966" lat="35.000341" lon="-85.085409"/>
  <node id="568982335" version="1" timestamp="2009-11-23T06:46:48Z" uid="103576" user="DiverCTH" changeset="3192966" lat="35.000165" lon="-85.085604"/>
  <node id="568982337" version="1" timestamp="2009-11-23T06:46:48Z" uid="103576" user="DiverCTH" changeset="3192966" lat="35.0010563" lon="-85.0859267"/>
  <node id="568982339" version="1" timestamp="2009-11-23T06:46:48Z" uid="103576" user="DiverCTH" changeset="3192966" lat="35.000915" lon="-85.086001">
    <tag k="addr:country" v="US"/>
    <tag k="addr:county" v="Hamilton, TN"/>
    <tag k="addr:housenumber" v="1900"/>
    <tag k="addr:postcode" v="37363"/>
    <tag k="addr:state" v="Tennessee"/>
    <tag k="addr:street" v="Becky Ct"/>
  </node>
  <node id="568982342" version="1" timestamp="2009-11-23T06:46:48Z" uid="103576" user="DiverCTH" changeset="3192966" lat="35.000985" lon="-85.085859"/>
  <node id="568982344" version="1" timestamp="2009-11-23T06:46:48Z" uid="103576" user="DiverCTH" changeset="3192966" lat="35.001052" lon="-85.086111">
    <tag k="addr:country" v="US"/>
    <tag k="addr:county" v="Hamilton, TN"/>
    <tag k="addr:housenumber" v="1901"/>
    <tag k="addr:postcode" v="37363"/>
    <tag k="addr:state" v="Tennessee"/>
    <tag k="addr:street" v="Becky Ct"/>
  </node>
  <node id="568982347" version="1" timestamp="2009-11-23T06:46:48Z" uid="103576" user="DiverCTH" changeset="3192966" lat="35.000602" lon="-85.085135"/>
  <node id="568982349" version="1" timestamp="2009-11-23T06:46:48Z" uid="103576" user="DiverCTH" changeset="3192966" lat="35.000452" lon="-85.085123"/>
  <node id="568982351" version="1" timestamp="2009-11-23T06:46:48Z" uid="103576" user="DiverCTH" changeset="3192966" lat="35.00069" lon="-85.085394"/>
  <node id="568982353" version="1" timestamp="2009-11-23T06:46:48Z" uid="103576" user="DiverCTH" changeset="3192966" lat="35.000464" lon="-85.085335"/>
  <node id="568982355" version="1" timestamp="2009-11-23T06:46:48Z" uid="103576" user="DiverCTH" changeset="3192966" lat="35.000566" lon="-85.085351"/>
  <node id="568982357" version="1" timestamp="2009-11-23T06:46:48Z" uid="103576" user="DiverCTH" changeset="3192966" lat="35.000415" lon="-85.085359"/>
  <node id="568982359" version="1" timestamp="2009-11-23T06:46:48Z" uid="103576" user="DiverCTH" changeset="3192966" lat="35.00081" lon="-85.085233"/>
  <node id="568982361" version="1" timestamp="2009-11-23T06:46:48Z" uid="103576" user="DiverCTH" changeset="3192966" lat="35.00075" lon="-85.085196"/>
  <node id="568982363" version="1" timestamp="2009-11-23T06:46:48Z" uid="103576" user="DiverCTH" changeset="3192966" lat="35.001053" lon="-85.085581">
    <tag k="addr:country" v="US"/>
    <tag k="addr:county" v="Hamilton, TN"/>
    <tag k="addr:housenumber" v="9936"/>
    <tag k="addr:postcode" v="37363"/>
    <tag k="addr:state" v="Tennessee"/>
    <tag k="addr:street" v="Frost Ridge Rd"/>
  </node>
  <node id="568982366" version="1" timestamp="2009-11-23T06:46:48Z" uid="103576" user="DiverCTH" changeset="3192966" lat="35.000744" lon="-85.085417"/>
  <node id="568982368" version="1" timestamp="2009-11-23T06:46:48Z" uid="103576" user="DiverCTH" changeset="3192966" lat="35.001318" lon="-85.085758"/>
  <node id="568982370" version="1" timestamp="2009-11-23T06:46:48Z" uid="103576" user="DiverCTH" changeset="3192966" lat="35.001263" lon="-85.085713">
    <tag k="addr:country" v="US"/>
    <tag k="addr:county" v="Hamilton, TN"/>
    <tag k="addr:housenumber" v="9934"/>
    <tag k="addr:postcode" v="37363"/>
    <tag k="addr:state" v="Tennessee"/>
    <tag k="addr:street" v="Frost Ridge Rd"/>
  </node>
  <node id="568982373" version="1" timestamp="2009-11-23T06:46:48Z" uid="103576" user="DiverCTH" changeset="3192966" lat="35.001139" lon="-85.085963"/>
  <node id="568982375" version="1" timestamp="2009-11-23T06:46:48Z" uid="103576" user="DiverCTH" changeset="3192966" lat="35.001222" lon="-85.085728">
    <tag k="addr:country" v="US"/>
    <tag k="addr:county" v="Hamilton, TN"/>
    <tag k="addr:housenumber" v="1999"/>
    <tag k="addr:postcode" v="37363"/>
    <tag k="addr:state" v="Tennessee"/>
    <tag k="addr:street" v="Becky Ct"/>
  </node>
  <node id="568982378" version="1" timestamp="2009-11-23T06:46:49Z" uid="103576" user="DiverCTH" changeset="3192966" lat="35.001674" lon="-85.086091"/>
  <node id="568982381" version="1" timestamp="2009-11-23T06:46:49Z" uid="103576" user="DiverCTH" changeset="3192966" lat="35.001504" lon="-85.085919"/>
  <node id="568982383" version="1" timestamp="2009-11-23T06:46:49Z" uid="103576" user="DiverCTH" changeset="3192966" lat="35.001602" lon="-85.085757"/>
  <node id="568982385" version="1" timestamp="2009-11-23T06:46:49Z" uid="103576" user="DiverCTH" changeset="3192966" lat="35.001119" lon="-85.085398">
    <tag k="addr:country" v="US"/>
    <tag k="addr:county" v="Hamilton, TN"/>
    <tag k="addr:housenumber" v="9937"/>
    <tag k="addr:postcode" v="37363"/>
    <tag k="addr:state" v="Tennessee"/>
    <tag k="addr:street" v="Frost Ridge Rd"/>
  </node>
  <node id="568982388" version="1" timestamp="2009-11-23T06:46:49Z" uid="103576" user="DiverCTH" changeset="3192966" lat="35.0012185" lon="-85.0854029"/>
  <node id="568982389" version="1" timestamp="2009-11-23T06:46:49Z" uid="103576" user="DiverCTH" changeset="3192966" lat="35.00114" lon="-85.085384">
    <tag k="addr:country" v="US"/>
    <tag k="addr:county" v="Hamilton, TN"/>
    <tag k="addr:housenumber" v="2000"/>
    <tag k="addr:postcode" v="37363"/>
    <tag k="addr:state" v="Tennessee"/>
    <tag k="addr:street" v="Silo"/>
  </node>
  <node id="568982391" version="1" timestamp="2009-11-23T06:46:49Z" uid="103576" user="DiverCTH" changeset="3192966" lat="35.001137" lon="-85.08537"/>
  <node id="568982392" version="1" timestamp="2009-11-23T06:46:49Z" uid="103576" user="DiverCTH" changeset="3192966" lat="35.001073" lon="-85.085644">
    <tag k="addr:country" v="US"/>
    <tag k="addr:county" v="Hamilton, TN"/>
    <tag k="addr:housenumber" v="1998"/>
    <tag k="addr:postcode" v="37363"/>
    <tag k="addr:state" v="Tennessee"/>
    <tag k="addr:street" v="Becky Ct"/>
  </node>
  <node id="568982393" version="1" timestamp="2009-11-23T06:46:49Z" uid="103576" user="DiverCTH" changeset="3192966" lat="35.001347" lon="-85.08554">
    <tag k="addr:country" v="US"/>
    <tag k="addr:county" v="Hamilton, TN"/>
    <tag k="addr:housenumber" v="9935"/>
    <tag k="addr:postcode" v="37363"/>
    <tag k="addr:state" v="Tennessee"/>
    <tag k="addr:street" v="Frost Ridge Rd"/>
  </node>
  <node id="568982395" version="1" timestamp="2009-11-23T06:46:49Z" uid="103576" user="DiverCTH" changeset="3192966" lat="35.001302" lon="-85.08542">
    <tag k="addr:country" v="US"/>
    <tag k="addr:county" v="Hamilton, TN"/>
    <tag k="addr:housenumber" v="2001"/>
    <tag k="addr:postcode" v="37363"/>
    <tag k="addr:state" v="Tennessee"/>
    <tag k="addr:street" v="Silo"/>
  </node>
  <node id="568982396" version="1" timestamp="2009-11-23T06:46:49Z" uid="103576" user="DiverCTH" changeset="3192966" lat="35.001307" lon="-85.085422"/>
  <node id="568982397" version="1" timestamp="2009-11-23T06:46:49Z" uid="103576" user="DiverCTH" changeset="3192966" lat="35.001178" lon="-85.085219"/>
  <node id="568982399" version="1" timestamp="2009-11-23T06:46:49Z" uid="103576" user="DiverCTH" changeset="3192966" lat="35.00134" lon="-85.085297"/>
  <node id="568982401" version="1" timestamp="2009-11-23T06:46:49Z" uid="103576" user="DiverCTH" changeset="3192966" lat="35.001406" lon="-85.085134"/>
  <node id="568982403" version="1" timestamp="2009-11-23T06:46:49Z" uid="103576" user="DiverCTH" changeset="3192966" lat="35.00125" lon="-85.085016"/>
  <node id="568982405" version="1" timestamp="2009-11-23T06:46:49Z" uid="103576" user="DiverCTH" changeset="3192966" lat="35.0012568" lon="-85.0852591"/>
  <node id="568982407" version="1" timestamp="2009-11-23T06:46:49Z" uid="103576" user="DiverCTH" changeset="3192966" lat="35.0013265" lon="-85.0850766"/>
  <node id="568982409" version="1" timestamp="2009-11-23T06:46:49Z" uid="103576" user="DiverCTH" changeset="3192966" lat="35.001414" lon="-85.085582"/>
  <node id="568982412" version="1" timestamp="2009-11-23T06:46:50Z" uid="103576" user="DiverCTH" changeset="3192966" lat="35.001451" lon="-85.085052"/>
  <node id="568982414" version="1" timestamp="2009-11-23T06:46:50Z" uid="103576" user="DiverCTH" changeset="3192966" lat="35.001467" lon="-85.085037">
    <tag k="addr:country" v="US"/>
    <tag k="addr:county" v="Hamilton, TN"/>
    <tag k="addr:housenumber" v="2099"/>
    <tag k="addr:postcode" v="37363"/>
    <tag k="addr:state" v="Tennessee"/>
    <tag k="addr:street" v="Silo"/>
  </node>
  <node id="568982417" version="1" timestamp="2009-11-23T06:46:50Z" uid="103576" user="DiverCTH" changeset="3192966" lat="35.001755" lon="-85.086202"/>
  <node id="568982419" version="1" timestamp="2009-11-23T06:46:50Z" uid="103576" user="DiverCTH" changeset="3192966" lat="35.001801" lon="-85.086301"/>
  <node id="568982421" version="1" timestamp="2009-11-23T06:46:50Z" uid="103576" user="DiverCTH" changeset="3192966" lat="35.001975" lon="-85.086213"/>
  <node id="568982423" version="1" timestamp="2009-11-23T06:46:50Z" uid="103576" user="DiverCTH" changeset="3192966" lat="35.001796" lon="-85.085937"/>
  <node id="568982425" version="1" timestamp="2009-11-23T06:46:50Z" uid="103576" user="DiverCTH" changeset="3192966" lat="35.001897" lon="-85.08607"/>
  <node id="568982427" version="1" timestamp="2009-11-23T06:46:50Z" uid="103576" user="DiverCTH" changeset="3192966" lat="35.0018842" lon="-85.0862651"/>
  <node id="568982429" version="1" timestamp="2009-11-23T06:46:50Z" uid="103576" user="DiverCTH" changeset="3192966" lat="35.0018205" lon="-85.0861373"/>
  <node id="568982431" version="1" timestamp="2009-11-23T06:46:50Z" uid="103576" user="DiverCTH" changeset="3192966" lat="35.001353" lon="-85.084886"/>
  <node id="568982434" version="1" timestamp="2009-11-23T06:46:50Z" uid="103576" user="DiverCTH" changeset="3192966" lat="35.001374" lon="-85.084871">
    <tag k="addr:country" v="US"/>
    <tag k="addr:county" v="Hamilton, TN"/>
    <tag k="addr:housenumber" v="2098"/>
    <tag k="addr:postcode" v="37363"/>
    <tag k="addr:state" v="Tennessee"/>
    <tag k="addr:street" v="Silo"/>
  </node>
  <node id="568982437" version="1" timestamp="2009-11-23T06:46:50Z" uid="103576" user="DiverCTH" changeset="3192966" lat="35.0014101" lon="-85.0849487"/>
  <node id="568982439" version="1" timestamp="2009-11-23T06:46:50Z" uid="103576" user="DiverCTH" changeset="3192966" lat="35.00343" lon="-85.092782"/>
  <node id="568982441" version="1" timestamp="2009-11-23T06:46:50Z" uid="103576" user="DiverCTH" changeset="3192966" lat="35.003498" lon="-85.092964"/>
  <node id="568982444" version="1" timestamp="2009-11-23T06:46:50Z" uid="103576" user="DiverCTH" changeset="3192966" lat="35.003381" lon="-85.092809">
    <tag k="addr:country" v="US"/>
    <tag k="addr:county" v="Hamilton, TN"/>
    <tag k="addr:housenumber" v="1948"/>
    <tag k="addr:postcode" v="37363"/>
    <tag k="addr:state" v="Tennessee"/>
    <tag k="addr:street" v="Ooltewah Ringgold Rd"/>
  </node>
  <node id="568982447" version="1" timestamp="2009-11-23T06:46:50Z" uid="103576" user="DiverCTH" changeset="3192966" lat="35.003449" lon="-85.092991">
    <tag k="addr:country" v="US"/>
    <tag k="addr:county" v="Hamilton, TN"/>
    <tag k="addr:housenumber" v="1949"/>
    <tag k="addr:postcode" v="37363"/>
    <tag k="addr:state" v="Tennessee"/>
    <tag k="addr:street" v="Ooltewah Ringgold Rd"/>
  </node>
  <node id="568982450" version="1" timestamp="2009-11-23T06:46:50Z" uid="103576" user="DiverCTH" changeset="3192966" lat="35.003916" lon="-85.092512"/>
  <node id="568982452" version="1" timestamp="2009-11-23T06:46:50Z" uid="103576" user="DiverCTH" changeset="3192966" lat="35.003984" lon="-85.092694"/>
  <node id="568982454" version="1" timestamp="2009-11-23T06:46:50Z" uid="103576" user="DiverCTH" changeset="3192966" lat="35.004033" lon="-85.092667">
    <tag k="addr:country" v="US"/>
    <tag k="addr:county" v="Hamilton, TN"/>
    <tag k="addr:housenumber" v="2099"/>
    <tag k="addr:postcode" v="37363"/>
    <tag k="addr:state" v="Tennessee"/>
    <tag k="addr:street" v="Ooltewah Ringgold Rd"/>
  </node>
  <node id="568982457" version="1" timestamp="2009-11-23T06:46:50Z" uid="103576" user="DiverCTH" changeset="3192966" lat="35.003966" lon="-85.092484">
    <tag k="addr:country" v="US"/>
    <tag k="addr:county" v="Hamilton, TN"/>
    <tag k="addr:housenumber" v="2098"/>
    <tag k="addr:postcode" v="37363"/>
    <tag k="addr:state" v="Tennessee"/>
    <tag k="addr:street" v="Ooltewah Ringgold Rd"/>
  </node>
  <node id="568983608" version="1" timestamp="2009-11-23T06:49:24Z" uid="103576" user="DiverCTH" changeset="3192966" lat="34.9987" lon="-85.085582"/>
  <node id="568983609" version="1" timestamp="2009-11-23T06:49:24Z" uid="103576" user="DiverCTH" changeset="3192966" lat="34.998651" lon="-85.085754">
    <tag k="addr:country" v="US"/>
    <tag k="addr:county" v="Hamilton, TN"/>
    <tag k="addr:housenumber" v="1812"/>
    <tag k="addr:postcode" v="37363"/>
    <tag k="addr:state" v="Tennessee"/>
    <tag k="addr:street" v="Apple Orchard Trl"/>
  </node>
  <node id="568983611" version="1" timestamp="2009-11-23T06:49:24Z" uid="103576" user="DiverCTH" changeset="3192966" lat="34.998843" lon="-85.085334"/>
  <node id="568983612" version="1" timestamp="2009-11-23T06:49:24Z" uid="103576" user="DiverCTH" changeset="3192966" lat="34.998995" lon="-85.085139"/>
  <node id="568983613" version="1" timestamp="2009-11-23T06:49:25Z" uid="103576" user="DiverCTH" changeset="3192966" lat="34.998645" lon="-85.085714"/>
  <node id="568983614" version="1" timestamp="2009-11-23T06:49:25Z" uid="103576" user="DiverCTH" changeset="3192966" lat="34.9989394" lon="-85.0853879"/>
  <node id="568983615" version="1" timestamp="2009-11-23T06:49:25Z" uid="103576" user="DiverCTH" changeset="3192966" lat="34.9988219" lon="-85.0856146"/>
  <node id="568983616" version="1" timestamp="2009-11-23T06:49:25Z" uid="103576" user="DiverCTH" changeset="3192966" lat="34.999161" lon="-85.085011">
    <tag k="addr:country" v="US"/>
    <tag k="addr:county" v="Hamilton, TN"/>
    <tag k="addr:housenumber" v="1800"/>
    <tag k="addr:postcode" v="37363"/>
    <tag k="addr:state" v="Tennessee"/>
    <tag k="addr:street" v="Apple Orchard Trl"/>
  </node>
  <node id="568983618" version="1" timestamp="2009-11-23T06:49:25Z" uid="103576" user="DiverCTH" changeset="3192966" lat="34.999089" lon="-85.085069"/>
  <node id="568983619" version="1" timestamp="2009-11-23T06:49:25Z" uid="103576" user="DiverCTH" changeset="3192966" lat="34.9990531" lon="-85.0852143"/>
</osm>
