<?xml version='1.0' encoding='UTF-8'?>
<osm version="0.6" generator="libosmium/2.20.0">
  <node id="569513847" version="1" timestamp="2009-11-23T17:56:04Z" uid="88880" user="firsttimelinux" changeset="3197736" lat="47.4592514" lon="10.2727524">
    <tag k="amenity" v="restaurant"/>
    <tag k="name" v="Münchner Kindl"/>
  </node>
  <node id="569513847" version="2" timestamp="2012-01-10T08:01:53Z" uid="290680" user="wheelmap_visitor" changeset="10349079" lat="47.4592514" lon="10.2727524">
    <tag k="amenity" v="restaurant"/>
    <tag k="name" v="Münchner Kindl"/>
    <tag k="wheelchair" v="no"/>
  </node>
  <node id="569513851" version="1" timestamp="2009-11-23T17:56:04Z" uid="88880" user="firsttimelinux" changeset="3197736" lat="47.4584049" lon="10.2701619">
    <tag k="amenity" v="restaurant"/>
    <tag k="name" v="Da Vinci"/>
  </node>
  <node id="569513851" version="2" timestamp="2011-02-13T20:08:49Z" uid="252133" user="pilinux314159" changeset="7279927" lat="47.4584437" lon="10.2701236">
    <tag k="amenity" v="restaurant"/>
    <tag k="name" v="Da Vinci"/>
  </node>
  <node id="569513853" version="1" timestamp="2009-11-23T17:56:04Z" uid="88880" user="firsttimelinux" changeset="3197736" lat="47.4606455" lon="10.2722332">
    <tag k="amenity" v="restaurant"/>
    <tag k="name" v="Gungelstube"/>
  </node>
  <node id="569513853" version="2" timestamp="2011-06-20T18:24:14Z" uid="252133" user="pilinux314159" changeset="8497132" lat="47.460648" lon="10.2723423">
    <tag k="amenity" v="restaurant"/>
    <tag k="building" v="entrance"/>
    <tag k="name" v="Gungelstube"/>
  </node>
  <node id="569515756" version="1" timestamp="2009-11-23T17:57:17Z" uid="88880" user="firsttimelinux" changeset="3197745" lat="47.4593587" lon="10.2727976">
    <tag k="amenity" v="restaurant"/>
    <tag k="name" v="Gasthaus Kreuz"/>
  </node>
  <node id="569515756" version="2" timestamp="2010-08-15T16:34:18Z" uid="252133" user="pilinux314159" changeset="5501725" lat="47.4594458" lon="10.2728024">
    <tag k="amenity" v="restaurant"/>
    <tag k="name" v="Gasthaus Kreuz"/>
  </node>
  <node id="569515756" version="3" timestamp="2011-12-29T10:09:39Z" uid="290680" user="wheelmap_visitor" changeset="10232645" lat="47.4594458" lon="10.2728024">
    <tag k="amenity" v="restaurant"/>
    <tag k="name" v="Gasthaus Kreuz"/>
    <tag k="wheelchair" v="yes"/>
  </node>
</osm>
