<?xml version='1.0' encoding='UTF-8'?>
<osm version="0.6" generator="libosmium/2.20.0">
  <node id="571264885" version="3" timestamp="2010-02-14T16:59:43Z" uid="74617" user="JohnSmith" changeset="3875836" lat="-27.4881725" lon="153.023281">
    <tag k="addr:housenumber" v="44"/>
    <tag k="addr:street" v="Gloucester Street"/>
    <tag k="source" v="survey"/>
  </node>
  <node id="571264894" version="3" timestamp="2010-02-14T16:59:43Z" uid="74617" user="JohnSmith" changeset="3875836" lat="-27.4882326" lon="153.023588">
    <tag k="addr:housenumber" v="46"/>
    <tag k="addr:street" v="Gloucester Street"/>
    <tag k="source" v="survey"/>
  </node>
  <node id="571264903" version="3" timestamp="2010-02-14T16:59:43Z" uid="74617" user="JohnSmith" changeset="3875836" lat="-27.4882469" lon="153.02372">
    <tag k="addr:housenumber" v="48"/>
    <tag k="addr:street" v="Gloucester Street"/>
    <tag k="source" v="survey"/>
  </node>
  <node id="571264917" version="3" timestamp="2010-02-14T16:59:33Z" uid="74617" user="JohnSmith" changeset="3875836" lat="-27.4883892" lon="153.02226">
    <tag k="addr:housenumber" v="43"/>
    <tag k="addr:street" v="Gloucester Street"/>
    <tag k="source" v="survey"/>
  </node>
  <node id="571264979" version="3" timestamp="2010-02-14T16:59:33Z" uid="74617" user="JohnSmith" changeset="3875836" lat="-27.4884452" lon="153.022432">
    <tag k="addr:housenumber" v="47"/>
    <tag k="addr:street" v="Gloucester Street"/>
    <tag k="source" v="survey"/>
  </node>
  <node id="571265044" version="3" timestamp="2010-02-14T16:59:34Z" uid="74617" user="JohnSmith" changeset="3875836" lat="-27.4884487" lon="153.022605">
    <tag k="addr:housenumber" v="49"/>
    <tag k="addr:street" v="Gloucester Street"/>
    <tag k="source" v="survey"/>
  </node>
  <node id="571265065" version="3" timestamp="2010-02-14T16:59:34Z" uid="74617" user="JohnSmith" changeset="3875836" lat="-27.4884511" lon="153.022723">
    <tag k="addr:housenumber" v="51"/>
    <tag k="addr:street" v="Gloucester Street"/>
    <tag k="source" v="survey"/>
  </node>
  <node id="571265078" version="3" timestamp="2010-02-14T16:59:34Z" uid="74617" user="JohnSmith" changeset="3875836" lat="-27.4884689" lon="153.02283">
    <tag k="addr:housenumber" v="53"/>
    <tag k="addr:street" v="Gloucester Street"/>
    <tag k="source" v="survey"/>
  </node>
  <node id="571265105" version="3" timestamp="2010-02-14T16:59:33Z" uid="74617" user="JohnSmith" changeset="3875836" lat="-27.488488" lon="153.022932">
    <tag k="addr:housenumber" v="55"/>
    <tag k="addr:street" v="Gloucester Street"/>
    <tag k="source" v="survey"/>
  </node>
  <node id="571265106" version="3" timestamp="2010-02-14T16:59:33Z" uid="74617" user="JohnSmith" changeset="3875836" lat="-27.4885189" lon="153.023025">
    <tag k="addr:housenumber" v="57"/>
    <tag k="addr:street" v="Gloucester Street"/>
    <tag k="source" v="survey"/>
  </node>
  <node id="571268503" version="2" timestamp="2010-10-23T22:07:52Z" uid="4467" user="Rosscoe" changeset="6152168" lat="-37.790894" lon="144.9425818"/>
  <node id="571268504" version="2" timestamp="2010-10-23T22:07:58Z" uid="4467" user="Rosscoe" changeset="6152168" lat="-37.7908693" lon="144.9425416"/>
  <node id="571268506" version="2" timestamp="2010-10-23T22:07:50Z" uid="4467" user="Rosscoe" changeset="6152168" lat="-37.7907136" lon="144.9427279"/>
  <node id="571269027" version="1" timestamp="2009-11-25T23:05:41Z" uid="17602" user="B10xyz" changeset="3216979" lat="45.4332422" lon="12.3124691">
    <tag k="addr:housenumber" v="2108"/>
    <tag k="note" v="Dorsoduro"/>
  </node>
  <node id="571269030" version="1" timestamp="2009-11-25T23:05:41Z" uid="17602" user="B10xyz" changeset="3216979" lat="45.433011" lon="12.3136382">
    <tag k="addr:housenumber" v="2103"/>
    <tag k="note" v="Dorsoduro"/>
  </node>
  <node id="571269032" version="1" timestamp="2009-11-25T23:05:41Z" uid="17602" user="B10xyz" changeset="3216979" lat="45.4312758" lon="12.3206806"/>
  <node id="571269032" version="2" timestamp="2010-03-21T21:29:52Z" uid="17602" user="B10xyz" changeset="4195922" lat="45.4312499" lon="12.3206738"/>
  <node id="571269032" version="3" timestamp="2010-05-16T12:44:05Z" uid="17602" user="B10xyz" changeset="4716621" lat="45.4312631" lon="12.32065"/>
  <node id="571269034" version="1" timestamp="2009-11-25T23:05:41Z" uid="17602" user="B10xyz" changeset="3216979" lat="45.4312864" lon="12.3207025">
    <tag k="addr:housenumber" v="1527"/>
    <tag k="note" v="Castello"/>
  </node>
  <node id="571269034" version="2" timestamp="2010-05-16T12:44:05Z" uid="17602" user="B10xyz" changeset="4716621" lat="45.4312984" lon="12.3207025">
    <tag k="addr:housenumber" v="1527"/>
    <tag k="note" v="Castello"/>
  </node>
  <node id="571269034" version="3" timestamp="2011-09-22T20:33:20Z" uid="80088" user="FedericoCozzi" changeset="9372172" lat="45.4312984" lon="12.3207025">
    <tag k="addr:housenumber" v="1527"/>
  </node>
  <node id="571269036" version="1" timestamp="2009-11-25T23:05:42Z" uid="17602" user="B10xyz" changeset="3216979" lat="45.4320252" lon="12.3206104">
    <tag k="addr:housenumber" v="1636"/>
    <tag k="note" v="DORSODURO"/>
  </node>
  <node id="571269036" version="2" timestamp="2010-05-16T12:44:06Z" uid="17602" user="B10xyz" changeset="4716621" lat="45.4320884" lon="12.3205962">
    <tag k="addr:housenumber" v="1636"/>
    <tag k="note" v="DORSODURO"/>
  </node>
  <node id="571269037" version="1" timestamp="2009-11-25T23:05:42Z" uid="17602" user="B10xyz" changeset="3216979" lat="45.433735" lon="12.3217054">
    <tag k="addr:housenumber" v="2608"/>
    <tag k="note" v="DORSODURO"/>
  </node>
  <node id="571269040" version="1" timestamp="2009-11-25T23:05:42Z" uid="17602" user="B10xyz" changeset="3216979" lat="45.4317837" lon="12.325978">
    <tag k="addr:housenumber" v="1183"/>
    <tag k="note" v="DORSODURO"/>
  </node>
  <node id="571269040" version="2" timestamp="2010-05-16T12:44:15Z" uid="17602" user="B10xyz" changeset="4716621" lat="45.4317754" lon="12.3260047">
    <tag k="addr:housenumber" v="1183"/>
    <tag k="note" v="DORSODURO"/>
  </node>
  <node id="571269042" version="1" timestamp="2009-11-25T23:05:42Z" uid="17602" user="B10xyz" changeset="3216979" lat="45.4318228" lon="12.3257059">
    <tag k="addr:housenumber" v="1183E"/>
    <tag k="note" v="DORSODURO"/>
  </node>
  <node id="571269042" version="2" timestamp="2010-05-16T12:44:15Z" uid="17602" user="B10xyz" changeset="4716621" lat="45.4318477" lon="12.3257918">
    <tag k="addr:housenumber" v="1183E"/>
    <tag k="note" v="DORSODURO"/>
  </node>
  <node id="571269043" version="1" timestamp="2009-11-25T23:05:42Z" uid="17602" user="B10xyz" changeset="3216979" lat="45.4344258" lon="12.3235194">
    <tag k="addr:housenumber" v="2961"/>
    <tag k="note" v="DORSODURO"/>
  </node>
  <node id="571269043" version="2" timestamp="2010-05-16T12:44:23Z" uid="17602" user="B10xyz" changeset="4716621" lat="45.4345029" lon="12.3235061">
    <tag k="addr:housenumber" v="2961"/>
    <tag k="note" v="DORSODURO"/>
  </node>
  <node id="571269045" version="1" timestamp="2009-11-25T23:05:42Z" uid="17602" user="B10xyz" changeset="3216979" lat="45.4345812" lon="12.3236188">
    <tag k="addr:housenumber" v="2978"/>
    <tag k="note" v="DORSODURO"/>
  </node>
  <node id="571269045" version="2" timestamp="2010-05-16T12:44:24Z" uid="17602" user="B10xyz" changeset="4716621" lat="45.4346637" lon="12.3235979">
    <tag k="addr:housenumber" v="2978"/>
    <tag k="note" v="DORSODURO"/>
  </node>
  <node id="571269047" version="1" timestamp="2009-11-25T23:05:42Z" uid="17602" user="B10xyz" changeset="3216979" lat="45.435446" lon="12.324845">
    <tag k="addr:housenumber" v="3714"/>
    <tag k="note" v="Dorsoduro"/>
  </node>
  <node id="571269048" version="1" timestamp="2009-11-25T23:05:42Z" uid="17602" user="B10xyz" changeset="3216979" lat="45.4361891" lon="12.3252307">
    <tag k="addr:housenumber" v="3801"/>
    <tag k="note" v="Dorsoduro"/>
  </node>
  <node id="571269050" version="1" timestamp="2009-11-25T23:05:42Z" uid="17602" user="B10xyz" changeset="3216979" lat="45.4364257" lon="12.325845">
    <tag k="addr:housenumber" v="3133"/>
    <tag k="note" v="San Polo"/>
  </node>
  <node id="571269052" version="1" timestamp="2009-11-25T23:05:42Z" uid="17602" user="B10xyz" changeset="3216979" lat="45.438672" lon="12.3231396">
    <tag k="addr:housenumber" v="639"/>
    <tag k="note" v="Santa Croce"/>
  </node>
  <node id="571269052" version="2" timestamp="2010-05-16T16:06:18Z" uid="17602" user="B10xyz" changeset="4718941" lat="45.438638" lon="12.3230638">
    <tag k="addr:housenumber" v="639"/>
    <tag k="note" v="Santa Croce"/>
  </node>
  <node id="571269054" version="1" timestamp="2009-11-25T23:05:42Z" uid="17602" user="B10xyz" changeset="3216979" lat="45.4387985" lon="12.3235775">
    <tag k="addr:housenumber" v="643"/>
    <tag k="note" v="Santa Croce"/>
  </node>
  <node id="571269054" version="2" timestamp="2010-05-16T16:06:19Z" uid="17602" user="B10xyz" changeset="4718941" lat="45.4387974" lon="12.3234501">
    <tag k="addr:housenumber" v="643"/>
    <tag k="note" v="Santa Croce"/>
  </node>
  <node id="571269056" version="1" timestamp="2009-11-25T23:05:42Z" uid="17602" user="B10xyz" changeset="3216979" lat="45.4371474" lon="12.3243817">
    <tag k="addr:housenumber" v="3092"/>
    <tag k="note" v="San Polo"/>
  </node>
  <node id="571269056" version="2" timestamp="2010-04-10T19:17:29Z" uid="17602" user="B10xyz" changeset="4386128" lat="45.4371261" lon="12.3243756">
    <tag k="addr:housenumber" v="3092"/>
    <tag k="note" v="San Polo"/>
  </node>
  <node id="571269057" version="1" timestamp="2009-11-25T23:05:42Z" uid="17602" user="B10xyz" changeset="3216979" lat="45.433439" lon="12.3356945">
    <tag k="addr:housenumber" v="1559"/>
    <tag k="note" v="San Marco"/>
  </node>
  <node id="571269057" version="2" timestamp="2010-05-16T12:44:41Z" uid="17602" user="B10xyz" changeset="4716621" lat="45.4335627" lon="12.3356282">
    <tag k="addr:housenumber" v="1559"/>
    <tag k="note" v="San Marco"/>
  </node>
  <node id="571269057" version="3" timestamp="2011-10-12T15:42:46Z" uid="536612" user="Roxanne Laiho" changeset="9539931" lat="45.4335627" lon="12.3356282"/>
  <node id="571269059" version="1" timestamp="2009-11-25T23:05:42Z" uid="17602" user="B10xyz" changeset="3216979" lat="45.4360022" lon="12.3271016">
    <tag k="addr:housenumber" v="2863"/>
    <tag k="note" v="San Polo"/>
  </node>
  <node id="571269059" version="2" timestamp="2010-05-25T00:34:38Z" uid="17602" user="B10xyz" changeset="4799862" lat="45.4360669" lon="12.3270745">
    <tag k="addr:housenumber" v="2863"/>
    <tag k="note" v="San Polo"/>
  </node>
  <node id="571269062" version="1" timestamp="2009-11-25T23:05:42Z" uid="17602" user="B10xyz" changeset="3216979" lat="45.4358118" lon="12.327484">
    <tag k="addr:housenumber" v="2871"/>
    <tag k="note" v="San Polo"/>
  </node>
  <node id="571269062" version="2" timestamp="2010-05-25T00:34:38Z" uid="17602" user="B10xyz" changeset="4799862" lat="45.4358722" lon="12.3274977">
    <tag k="addr:housenumber" v="2871"/>
    <tag k="note" v="San Polo"/>
  </node>
  <node id="571269063" version="1" timestamp="2009-11-25T23:05:42Z" uid="17602" user="B10xyz" changeset="3216979" lat="45.4367001" lon="12.3270091">
    <tag k="addr:housenumber" v="3004"/>
    <tag k="note" v="San Polo"/>
  </node>
  <node id="571269063" version="2" timestamp="2010-05-25T00:34:43Z" uid="17602" user="B10xyz" changeset="4799862" lat="45.4367214" lon="12.3270183">
    <tag k="addr:housenumber" v="3004"/>
    <tag k="note" v="San Polo"/>
  </node>
  <node id="571269064" version="1" timestamp="2009-11-25T23:05:42Z" uid="17602" user="B10xyz" changeset="3216979" lat="45.4366389" lon="12.3286979">
    <tag k="addr:housenumber" v="2748"/>
    <tag k="note" v="San Polo"/>
  </node>
  <node id="571269065" version="1" timestamp="2009-11-25T23:05:43Z" uid="17602" user="B10xyz" changeset="3216979" lat="45.4372621" lon="12.3276654">
    <tag k="addr:housenumber" v="2582"/>
    <tag k="note" v="San Polo"/>
  </node>
  <node id="571269065" version="2" timestamp="2010-05-15T16:17:23Z" uid="17602" user="B10xyz" changeset="4707821" lat="45.4372813" lon="12.3276401">
    <tag k="addr:housenumber" v="2582"/>
    <tag k="note" v="San Polo"/>
  </node>
  <node id="571269066" version="1" timestamp="2009-11-25T23:05:43Z" uid="17602" user="B10xyz" changeset="3216979" lat="45.4373427" lon="12.3275086">
    <tag k="addr:housenumber" v="2570"/>
    <tag k="note" v="San Polo"/>
  </node>
  <node id="571269066" version="2" timestamp="2010-05-15T16:17:23Z" uid="17602" user="B10xyz" changeset="4707821" lat="45.4373294" lon="12.327437">
    <tag k="addr:housenumber" v="2570"/>
    <tag k="note" v="San Polo"/>
  </node>
  <node id="571269067" version="1" timestamp="2009-11-25T23:05:43Z" uid="17602" user="B10xyz" changeset="3216979" lat="45.4386446" lon="12.3284581">
    <tag k="addr:housenumber" v="2304B"/>
    <tag k="note" v="San Polo"/>
  </node>
  <node id="571269067" version="2" timestamp="2010-05-15T16:17:31Z" uid="17602" user="B10xyz" changeset="4707821" lat="45.4386612" lon="12.3284107">
    <tag k="addr:housenumber" v="2304B"/>
    <tag k="note" v="San Polo"/>
  </node>
  <node id="571269069" version="1" timestamp="2009-11-25T23:05:43Z" uid="17602" user="B10xyz" changeset="3216979" lat="45.4389485" lon="12.3293798">
    <tag k="addr:housenumber" v="2233"/>
    <tag k="note" v="San Polo"/>
  </node>
  <node id="571269069" version="2" timestamp="2010-05-15T16:17:32Z" uid="17602" user="B10xyz" changeset="4707821" lat="45.438939" lon="12.3292529">
    <tag k="addr:housenumber" v="2233"/>
    <tag k="note" v="San Polo"/>
  </node>
  <node id="571269071" version="1" timestamp="2009-11-25T23:05:43Z" uid="17602" user="B10xyz" changeset="3216979" lat="45.4390159" lon="12.3289955">
    <tag k="addr:housenumber" v="2307"/>
    <tag k="note" v="San Polo"/>
  </node>
  <node id="571269071" version="2" timestamp="2010-02-15T23:48:10Z" uid="17602" user="B10xyz" changeset="3888187" lat="45.4390359" lon="12.3289718">
    <tag k="addr:housenumber" v="2307"/>
    <tag k="note" v="San Polo"/>
  </node>
  <node id="571269072" version="1" timestamp="2009-11-25T23:05:43Z" uid="17602" user="B10xyz" changeset="3216979" lat="45.4388538" lon="12.3287693">
    <tag k="addr:housenumber" v="2279B"/>
    <tag k="note" v="San Polo"/>
  </node>
  <node id="571269072" version="2" timestamp="2010-02-15T23:48:07Z" uid="17602" user="B10xyz" changeset="3888187" lat="45.4388738" lon="12.3287598">
    <tag k="addr:housenumber" v="2279B"/>
    <tag k="note" v="San Polo"/>
  </node>
  <node id="571269072" version="3" timestamp="2010-05-15T16:17:32Z" uid="17602" user="B10xyz" changeset="4707821" lat="45.4388557" lon="12.3287232">
    <tag k="addr:housenumber" v="2279B"/>
    <tag k="note" v="San Polo"/>
  </node>
  <node id="571269074" version="1" timestamp="2009-11-25T23:05:43Z" uid="17602" user="B10xyz" changeset="3216979" lat="45.4391476" lon="12.329895">
    <tag k="addr:housenumber" v="2148A"/>
    <tag k="note" v="Santa Croce"/>
  </node>
  <node id="571269076" version="1" timestamp="2009-11-25T23:05:43Z" uid="17602" user="B10xyz" changeset="3216979" lat="45.4353669" lon="12.3366416">
    <tag k="addr:housenumber" v="1019"/>
    <tag k="note" v="San Marco"/>
  </node>
  <node id="571269076" version="2" timestamp="2010-05-16T12:45:06Z" uid="17602" user="B10xyz" changeset="4716621" lat="45.4353865" lon="12.3365809">
    <tag k="addr:housenumber" v="1019"/>
    <tag k="note" v="San Marco"/>
  </node>
  <node id="571269078" version="1" timestamp="2009-11-25T23:05:43Z" uid="17602" user="B10xyz" changeset="3216979" lat="45.4391941" lon="12.3374169">
    <tag k="addr:housenumber" v="5887"/>
    <tag k="note" v="San Marco"/>
  </node>
  <node id="571269078" version="2" timestamp="2012-02-11T16:39:57Z" uid="590900" user="Ciaurlec" changeset="10654276" lat="45.4392331" lon="12.3374297">
    <tag k="addr:housenumber" v="5887"/>
    <tag k="note" v="Cannaregio"/>
  </node>
  <node id="571269078" version="3" timestamp="2012-02-11T23:05:51Z" uid="590900" user="Ciaurlec" changeset="10658337" lat="45.4392331" lon="12.3374297">
    <tag k="addr:housenumber" v="5887"/>
    <tag k="is_in" v="Cannaregio"/>
  </node>
  <node id="571269078" version="4" timestamp="2012-03-02T18:16:56Z" uid="590900" user="Ciaurlec" changeset="10850991" lat="45.4392331" lon="12.3374297"/>
  <node id="571269080" version="1" timestamp="2009-11-25T23:05:43Z" uid="17602" user="B10xyz" changeset="3216979" lat="45.4350496" lon="12.3411663">
    <tag k="addr:housenumber" v="4334"/>
    <tag k="note" v="Castello"/>
  </node>
  <node id="571269080" version="2" timestamp="2010-05-15T16:17:57Z" uid="17602" user="B10xyz" changeset="4707821" lat="45.4351127" lon="12.3411768">
    <tag k="addr:housenumber" v="4334"/>
    <tag k="note" v="Castello"/>
  </node>
  <node id="571269080" version="3" timestamp="2011-10-12T15:42:46Z" uid="536612" user="Roxanne Laiho" changeset="9539931" lat="45.4351127" lon="12.3411768"/>
  <node id="571269082" version="1" timestamp="2009-11-25T23:05:43Z" uid="17602" user="B10xyz" changeset="3216979" lat="45.4357921" lon="12.3428703">
    <tag k="addr:housenumber" v="4949"/>
    <tag k="note" v="Castello"/>
  </node>
  <node id="571269082" version="2" timestamp="2010-05-15T16:18:03Z" uid="17602" user="B10xyz" changeset="4707821" lat="45.4358613" lon="12.3428724">
    <tag k="addr:housenumber" v="4949"/>
    <tag k="note" v="Castello"/>
  </node>
  <node id="571269084" version="1" timestamp="2009-11-25T23:05:43Z" uid="17602" user="B10xyz" changeset="3216979" lat="45.434156" lon="12.3480489">
    <tag k="addr:housenumber" v="4096"/>
    <tag k="note" v="Castello"/>
  </node>
  <node id="571269084" version="2" timestamp="2010-03-21T21:02:21Z" uid="17602" user="B10xyz" changeset="4195922" lat="45.4341263" lon="12.3480691">
    <tag k="addr:housenumber" v="4096"/>
    <tag k="note" v="Castello"/>
  </node>
  <node id="571269084" version="3" timestamp="2010-05-16T12:45:26Z" uid="17602" user="B10xyz" changeset="4716621" lat="45.4340914" lon="12.3480359">
    <tag k="addr:housenumber" v="4096"/>
    <tag k="note" v="Castello"/>
  </node>
  <node id="571269086" version="1" timestamp="2009-11-25T23:05:43Z" uid="17602" user="B10xyz" changeset="3216979" lat="45.4323786" lon="12.3510435">
    <tag k="addr:housenumber" v="1654"/>
    <tag k="note" v="Castello"/>
  </node>
  <node id="571269086" version="2" timestamp="2010-05-16T12:45:42Z" uid="17602" user="B10xyz" changeset="4716621" lat="45.4324072" lon="12.3510202">
    <tag k="addr:housenumber" v="1654"/>
    <tag k="note" v="Castello"/>
  </node>
  <node id="571269087" version="1" timestamp="2009-11-25T23:05:43Z" uid="17602" user="B10xyz" changeset="3216979" lat="45.4321756" lon="12.3518666">
    <tag k="addr:housenumber" v="1734"/>
    <tag k="note" v="Castello"/>
  </node>
  <node id="571269087" version="2" timestamp="2010-05-16T12:45:42Z" uid="17602" user="B10xyz" changeset="4716621" lat="45.4322168" lon="12.3518647">
    <tag k="addr:housenumber" v="1734"/>
    <tag k="note" v="Castello"/>
  </node>
  <node id="571269089" version="1" timestamp="2009-11-25T23:05:43Z" uid="17602" user="B10xyz" changeset="3216979" lat="45.4319085" lon="12.3519551">
    <tag k="addr:housenumber" v="1633"/>
    <tag k="note" v="Castello"/>
  </node>
  <node id="571269089" version="2" timestamp="2010-05-16T12:45:42Z" uid="17602" user="B10xyz" changeset="4716621" lat="45.4319096" lon="12.351949">
    <tag k="addr:housenumber" v="1633"/>
    <tag k="note" v="Castello"/>
  </node>
  <node id="571269091" version="1" timestamp="2009-11-25T23:05:43Z" uid="17602" user="B10xyz" changeset="3216979" lat="45.4314368" lon="12.3540456">
    <tag k="addr:housenumber" v="1365A"/>
    <tag k="note" v="Castello"/>
  </node>
  <node id="571269091" version="2" timestamp="2010-05-16T12:45:43Z" uid="17602" user="B10xyz" changeset="4716621" lat="45.4314688" lon="12.3539874">
    <tag k="addr:housenumber" v="1365A"/>
    <tag k="note" v="Castello"/>
  </node>
  <node id="571269092" version="1" timestamp="2009-11-25T23:05:43Z" uid="17602" user="B10xyz" changeset="3216979" lat="45.4322379" lon="12.3540579">
    <tag k="addr:housenumber" v="1334"/>
    <tag k="note" v="Castello"/>
  </node>
  <node id="571269094" version="1" timestamp="2009-11-25T23:05:43Z" uid="17602" user="B10xyz" changeset="3216979" lat="45.4308571" lon="12.3555917">
    <tag k="addr:housenumber" v="1208"/>
    <tag k="note" v="Castello"/>
  </node>
  <node id="571269094" version="2" timestamp="2010-05-16T12:45:48Z" uid="17602" user="B10xyz" changeset="4716621" lat="45.4308754" lon="12.355568">
    <tag k="addr:housenumber" v="1208"/>
    <tag k="note" v="Castello"/>
  </node>
  <node id="571269096" version="1" timestamp="2009-11-25T23:05:44Z" uid="17602" user="B10xyz" changeset="3216979" lat="45.4323736" lon="12.35595">
    <tag k="addr:housenumber" v="1126"/>
    <tag k="note" v="Castello"/>
  </node>
  <node id="571269096" version="2" timestamp="2010-05-16T12:45:52Z" uid="17602" user="B10xyz" changeset="4716621" lat="45.4323427" lon="12.3558787">
    <tag k="addr:housenumber" v="1126"/>
    <tag k="note" v="Castello"/>
  </node>
  <node id="571269098" version="1" timestamp="2009-11-25T23:05:44Z" uid="17602" user="B10xyz" changeset="3216979" lat="45.4324695" lon="12.3565757">
    <tag k="addr:housenumber" v="994"/>
    <tag k="note" v="Castello"/>
  </node>
  <node id="571269098" version="2" timestamp="2010-05-16T12:45:53Z" uid="17602" user="B10xyz" changeset="4716621" lat="45.4324643" lon="12.3565159">
    <tag k="addr:housenumber" v="994"/>
    <tag k="note" v="Castello"/>
  </node>
  <node id="571269099" version="1" timestamp="2009-11-25T23:05:44Z" uid="17602" user="B10xyz" changeset="3216979" lat="45.432592" lon="12.3560673">
    <tag k="addr:housenumber" v="455A"/>
    <tag k="note" v="Castello"/>
  </node>
  <node id="571269101" version="1" timestamp="2009-11-25T23:05:44Z" uid="17602" user="B10xyz" changeset="3216979" lat="45.4326239" lon="12.3566008">
    <tag k="addr:housenumber" v="494"/>
    <tag k="note" v="Castello"/>
  </node>
  <node id="571269102" version="1" timestamp="2009-11-25T23:05:44Z" uid="17602" user="B10xyz" changeset="3216979" lat="45.4333696" lon="12.3566478">
    <tag k="addr:housenumber" v="417"/>
    <tag k="note" v="Castello"/>
  </node>
  <node id="571269102" version="2" timestamp="2010-05-16T12:45:55Z" uid="17602" user="B10xyz" changeset="4716621" lat="45.4333941" lon="12.3565979">
    <tag k="addr:housenumber" v="417"/>
    <tag k="note" v="Castello"/>
  </node>
  <node id="571269103" version="1" timestamp="2009-11-25T23:05:44Z" uid="17602" user="B10xyz" changeset="3216979" lat="45.4333789" lon="12.3564757">
    <tag k="addr:housenumber" v="419"/>
    <tag k="note" v="Castello"/>
  </node>
  <node id="571269103" version="2" timestamp="2010-05-16T12:45:55Z" uid="17602" user="B10xyz" changeset="4716621" lat="45.4333754" lon="12.3563909">
    <tag k="addr:housenumber" v="419"/>
    <tag k="note" v="Castello"/>
  </node>
  <node id="571269105" version="1" timestamp="2009-11-25T23:05:44Z" uid="17602" user="B10xyz" changeset="3216979" lat="45.4325343" lon="12.3576963">
    <tag k="addr:housenumber" v="507"/>
    <tag k="note" v="Castello"/>
  </node>
  <node id="571269105" version="2" timestamp="2010-05-16T12:45:56Z" uid="17602" user="B10xyz" changeset="4716621" lat="45.4325245" lon="12.357648">
    <tag k="addr:housenumber" v="507"/>
    <tag k="note" v="Castello"/>
  </node>
  <node id="571269107" version="1" timestamp="2009-11-25T23:05:44Z" uid="17602" user="B10xyz" changeset="3216979" lat="45.4327844" lon="12.3576339">
    <tag k="addr:housenumber" v="253"/>
    <tag k="note" v="Castello"/>
  </node>
  <node id="571269110" version="1" timestamp="2009-11-25T23:05:44Z" uid="17602" user="B10xyz" changeset="3216979" lat="45.4329978" lon="12.3576321">
    <tag k="addr:housenumber" v="255"/>
    <tag k="note" v="Castello"/>
  </node>
  <node id="571269110" version="2" timestamp="2010-05-16T12:45:59Z" uid="17602" user="B10xyz" changeset="4716621" lat="45.432979" lon="12.3576199">
    <tag k="addr:housenumber" v="255"/>
    <tag k="note" v="Castello"/>
  </node>
  <node id="571269118" version="1" timestamp="2009-11-25T23:05:45Z" uid="17602" user="B10xyz" changeset="3216979" lat="45.4339152" lon="12.357172">
    <tag k="addr:housenumber" v="130"/>
    <tag k="note" v="Castello"/>
  </node>
  <node id="571269118" version="2" timestamp="2010-05-16T12:46:07Z" uid="17602" user="B10xyz" changeset="4716621" lat="45.4339922" lon="12.3571122">
    <tag k="addr:housenumber" v="130"/>
    <tag k="note" v="Castello"/>
  </node>
  <node id="571269119" version="1" timestamp="2009-11-25T23:05:45Z" uid="17602" user="B10xyz" changeset="3216979" lat="45.4337617" lon="12.3591957">
    <tag k="addr:housenumber" v="49"/>
    <tag k="note" v="Castello"/>
  </node>
  <node id="571269119" version="2" timestamp="2010-05-16T12:46:00Z" uid="17602" user="B10xyz" changeset="4716621" lat="45.4337813" lon="12.3591492">
    <tag k="addr:housenumber" v="49"/>
    <tag k="note" v="Castello"/>
  </node>
  <node id="571269120" version="1" timestamp="2009-11-25T23:05:45Z" uid="17602" user="B10xyz" changeset="3216979" lat="45.4345749" lon="12.3579287">
    <tag k="addr:housenumber" v="75"/>
    <tag k="note" v="Castello"/>
  </node>
  <node id="571269121" version="1" timestamp="2009-11-25T23:05:45Z" uid="17602" user="B10xyz" changeset="3216979" lat="45.4348748" lon="12.3573078">
    <tag k="addr:housenumber" v="98"/>
    <tag k="note" v="Castello"/>
  </node>
  <node id="571269121" version="2" timestamp="2010-05-16T12:46:07Z" uid="17602" user="B10xyz" changeset="4716621" lat="45.4348787" lon="12.3572669">
    <tag k="addr:housenumber" v="98"/>
    <tag k="note" v="Castello"/>
  </node>
  <node id="571269122" version="1" timestamp="2009-11-25T23:05:45Z" uid="17602" user="B10xyz" changeset="3216979" lat="45.4349242" lon="12.3571192">
    <tag k="addr:housenumber" v="97"/>
    <tag k="note" v="Castello"/>
  </node>
  <node id="571269122" version="2" timestamp="2010-05-16T12:46:07Z" uid="17602" user="B10xyz" changeset="4716621" lat="45.4349359" lon="12.3570541">
    <tag k="addr:housenumber" v="97"/>
    <tag k="note" v="Castello"/>
  </node>
  <node id="571269123" version="1" timestamp="2009-11-25T23:05:45Z" uid="17602" user="B10xyz" changeset="3216979" lat="45.4420671" lon="12.3234254">
    <tag k="addr:housenumber" v="147"/>
    <tag k="note" v="CANAREGIO"/>
  </node>
  <node id="571269123" version="2" timestamp="2010-05-15T16:18:25Z" uid="17602" user="B10xyz" changeset="4707821" lat="45.4420967" lon="12.3233812">
    <tag k="addr:housenumber" v="147"/>
    <tag k="note" v="CANAREGIO"/>
  </node>
  <node id="571269123" version="3" timestamp="2011-08-18T14:39:11Z" uid="183450" user="cypriend" changeset="9057504" lat="45.4420967" lon="12.3233812">
    <tag k="addr:housenumber" v="147"/>
    <tag k="note" v="CANNAREGIO"/>
  </node>
  <node id="571269124" version="1" timestamp="2009-11-25T23:05:45Z" uid="17602" user="B10xyz" changeset="3216979" lat="45.4420904" lon="12.323396"/>
  <node id="571269124" version="2" timestamp="2010-05-15T16:18:25Z" uid="17602" user="B10xyz" changeset="4707821" lat="45.44212" lon="12.3233578"/>
  <node id="571269125" version="1" timestamp="2009-11-25T23:05:45Z" uid="17602" user="B10xyz" changeset="3216979" lat="45.4415187" lon="12.3226129">
    <tag k="addr:housenumber" v="117"/>
    <tag k="note" v="CANAREGIO"/>
  </node>
  <node id="571269126" version="1" timestamp="2009-11-25T23:05:45Z" uid="17602" user="B10xyz" changeset="3216979" lat="45.441499" lon="12.3244756">
    <tag k="addr:housenumber" v="1207C"/>
    <tag k="note" v="Santa Croce"/>
  </node>
  <node id="571269128" version="1" timestamp="2009-11-25T23:05:45Z" uid="17602" user="B10xyz" changeset="3216979" lat="45.4414335" lon="12.3242671">
    <tag k="addr:housenumber" v="1189"/>
    <tag k="note" v="Santa Croce"/>
  </node>
  <node id="571269129" version="1" timestamp="2009-11-25T23:05:45Z" uid="17602" user="B10xyz" changeset="3216979" lat="45.441293" lon="12.325123">
    <tag k="addr:housenumber" v="1230"/>
    <tag k="note" v="Santa Croce"/>
  </node>
  <node id="571269130" version="1" timestamp="2009-11-25T23:05:45Z" uid="17602" user="B10xyz" changeset="3216979" lat="45.4422732" lon="12.3231656"/>
  <node id="571269130" version="2" timestamp="2010-05-15T16:18:27Z" uid="17602" user="B10xyz" changeset="4707821" lat="45.4423028" lon="12.3231274"/>
  <node id="571269132" version="1" timestamp="2009-11-25T23:05:45Z" uid="17602" user="B10xyz" changeset="3216979" lat="45.445546" lon="12.3211886">
    <tag k="addr:housenumber" v="961"/>
    <tag k="note" v="CANAREGIO"/>
  </node>
  <node id="571269132" version="2" timestamp="2010-05-15T16:18:44Z" uid="17602" user="B10xyz" changeset="4707821" lat="45.4455696" lon="12.3211304">
    <tag k="addr:housenumber" v="961"/>
    <tag k="note" v="CANAREGIO"/>
  </node>
  <node id="571269134" version="1" timestamp="2009-11-25T23:05:45Z" uid="17602" user="B10xyz" changeset="3216979" lat="45.4457029" lon="12.3234004">
    <tag k="addr:housenumber" v="1045B"/>
    <tag k="note" v="CANAREGIO"/>
  </node>
  <node id="571269134" version="2" timestamp="2010-05-15T16:18:49Z" uid="17602" user="B10xyz" changeset="4707821" lat="45.4457448" lon="12.3233332">
    <tag k="addr:housenumber" v="1045B"/>
    <tag k="note" v="CANAREGIO"/>
  </node>
  <node id="571269136" version="1" timestamp="2009-11-25T23:05:45Z" uid="17602" user="B10xyz" changeset="3216979" lat="45.4468035" lon="12.3223117">
    <tag k="addr:housenumber" v="2971D"/>
    <tag k="note" v="CANAREGIO"/>
  </node>
  <node id="571269137" version="1" timestamp="2009-11-25T23:05:45Z" uid="17602" user="B10xyz" changeset="3216979" lat="45.4471388" lon="12.3238718">
    <tag k="addr:housenumber" v="3013E"/>
    <tag k="note" v="CANAREGIO"/>
  </node>
  <node id="571269137" version="2" timestamp="2010-05-24T16:51:30Z" uid="17602" user="B10xyz" changeset="4795667" lat="45.4471694" lon="12.3238095">
    <tag k="addr:housenumber" v="3013E"/>
    <tag k="note" v="CANAREGIO"/>
  </node>
  <node id="571269139" version="1" timestamp="2009-11-25T23:05:45Z" uid="17602" user="B10xyz" changeset="3216979" lat="45.4475211" lon="12.3240232">
    <tag k="addr:housenumber" v="3009D"/>
    <tag k="note" v="CANAREGIO"/>
  </node>
  <node id="571269141" version="1" timestamp="2009-11-25T23:05:45Z" uid="17602" user="B10xyz" changeset="3216979" lat="45.4415632" lon="12.3268827">
    <tag k="addr:housenumber" v="1313"/>
    <tag k="note" v="Santa Croce"/>
  </node>
  <node id="571269141" version="2" timestamp="2010-05-16T16:06:33Z" uid="17602" user="B10xyz" changeset="4718941" lat="45.441633" lon="12.3268732">
    <tag k="addr:housenumber" v="1313"/>
    <tag k="note" v="Santa Croce"/>
  </node>
  <node id="571269143" version="1" timestamp="2009-11-25T23:05:45Z" uid="17602" user="B10xyz" changeset="3216979" lat="45.4408815" lon="12.3285508">
    <tag k="addr:housenumber" v="1759"/>
    <tag k="note" v="Santa Croce"/>
  </node>
  <node id="571269143" version="2" timestamp="2010-05-15T16:18:56Z" uid="17602" user="B10xyz" changeset="4707821" lat="45.4409172" lon="12.3285027">
    <tag k="addr:housenumber" v="1759"/>
    <tag k="note" v="Santa Croce"/>
  </node>
  <node id="571269145" version="1" timestamp="2009-11-25T23:05:46Z" uid="17602" user="B10xyz" changeset="3216979" lat="45.4408769" lon="12.3284113">
    <tag k="addr:housenumber" v="1666"/>
    <tag k="note" v="Santa Croce"/>
  </node>
  <node id="571269146" version="1" timestamp="2009-11-25T23:05:46Z" uid="17602" user="B10xyz" changeset="3216979" lat="45.4402147" lon="12.330206">
    <tag k="addr:housenumber" v="2045"/>
    <tag k="note" v="Santa Croce"/>
  </node>
  <node id="571269146" version="2" timestamp="2010-05-15T16:18:58Z" uid="17602" user="B10xyz" changeset="4707821" lat="45.4402644" lon="12.3302478">
    <tag k="addr:housenumber" v="2045"/>
    <tag k="note" v="Santa Croce"/>
  </node>
  <node id="571269148" version="1" timestamp="2009-11-25T23:05:46Z" uid="17602" user="B10xyz" changeset="3216979" lat="45.4437341" lon="12.3269159">
    <tag k="addr:housenumber" v="1351"/>
    <tag k="note" v="CANAREGIO"/>
  </node>
  <node id="571269150" version="1" timestamp="2009-11-25T23:05:46Z" uid="17602" user="B10xyz" changeset="3216979" lat="45.4436028" lon="12.3291272">
    <tag k="addr:housenumber" v="1835"/>
    <tag k="note" v="CANAREGIO"/>
  </node>
  <node id="571269150" version="2" timestamp="2010-05-15T16:19:06Z" uid="17602" user="B10xyz" changeset="4707821" lat="45.443658" lon="12.3291156">
    <tag k="addr:housenumber" v="1835"/>
    <tag k="note" v="CANAREGIO"/>
  </node>
  <node id="571269150" version="3" timestamp="2010-05-24T16:51:40Z" uid="17602" user="B10xyz" changeset="4795667" lat="45.4436667" lon="12.3290957">
    <tag k="addr:housenumber" v="1835"/>
    <tag k="note" v="CANAREGIO"/>
  </node>
  <node id="571269152" version="1" timestamp="2009-11-25T23:05:46Z" uid="17602" user="B10xyz" changeset="3216979" lat="45.4427489" lon="12.3314791"/>
  <node id="571269152" version="2" timestamp="2010-05-24T16:51:45Z" uid="17602" user="B10xyz" changeset="4795667" lat="45.4428113" lon="12.3314724"/>
  <node id="571269153" version="1" timestamp="2009-11-25T23:05:46Z" uid="17602" user="B10xyz" changeset="3216979" lat="45.4426523" lon="12.3315971">
    <tag k="addr:housenumber" v="2157"/>
    <tag k="note" v="CANAREGIO"/>
  </node>
  <node id="571269153" version="2" timestamp="2010-05-24T16:51:45Z" uid="17602" user="B10xyz" changeset="4795667" lat="45.442699" lon="12.3315735">
    <tag k="addr:housenumber" v="2157"/>
    <tag k="note" v="CANAREGIO"/>
  </node>
  <node id="571269155" version="1" timestamp="2009-11-25T23:05:46Z" uid="17602" user="B10xyz" changeset="3216979" lat="45.4433553" lon="12.3310298">
    <tag k="addr:housenumber" v="2101"/>
    <tag k="note" v="CANAREGIO"/>
  </node>
  <node id="571269155" version="2" timestamp="2010-05-24T16:51:45Z" uid="17602" user="B10xyz" changeset="4795667" lat="45.4434146" lon="12.3309541">
    <tag k="addr:housenumber" v="2101"/>
    <tag k="note" v="CANAREGIO"/>
  </node>
  <node id="571269157" version="1" timestamp="2009-11-25T23:05:46Z" uid="17602" user="B10xyz" changeset="3216979" lat="45.4420595" lon="12.3323035">
    <tag k="addr:housenumber" v="2269"/>
    <tag k="note" v="CANAREGIO"/>
  </node>
  <node id="571269157" version="2" timestamp="2010-05-24T16:51:52Z" uid="17602" user="B10xyz" changeset="4795667" lat="45.4420951" lon="12.3322582">
    <tag k="addr:housenumber" v="2269"/>
    <tag k="note" v="CANAREGIO"/>
  </node>
  <node id="571269158" version="1" timestamp="2009-11-25T23:05:46Z" uid="17602" user="B10xyz" changeset="3216979" lat="45.4413987" lon="12.3336779">
    <tag k="addr:housenumber" v="3823a"/>
    <tag k="note" v="CANAREGIO"/>
  </node>
  <node id="571269158" version="2" timestamp="2010-05-24T16:51:54Z" uid="17602" user="B10xyz" changeset="4795667" lat="45.4414156" lon="12.333584">
    <tag k="addr:housenumber" v="3823a"/>
    <tag k="note" v="CANAREGIO"/>
  </node>
  <node id="571269158" version="3" timestamp="2012-03-03T11:40:58Z" uid="590900" user="Ciaurlec" changeset="10856729" lat="45.4414156" lon="12.333584">
    <tag k="addr:housenumber" v="3823a"/>
    <tag k="is_in" v="Cannaregio"/>
    <tag k="note" v="CANAREGIO"/>
  </node>
  <node id="571269158" version="4" timestamp="2012-03-03T11:49:41Z" uid="590900" user="Ciaurlec" changeset="10856811" lat="45.4414156" lon="12.333584">
    <tag k="addr:housenumber" v="3823a"/>
    <tag k="is_in" v="Cannaregio"/>
  </node>
  <node id="571269160" version="1" timestamp="2009-11-25T23:05:46Z" uid="17602" user="B10xyz" changeset="3216979" lat="45.4412767" lon="12.3344837">
    <tag k="shop" v="convenience"/>
  </node>
  <node id="571269160" version="2" timestamp="2010-05-16T12:46:13Z" uid="17602" user="B10xyz" changeset="4716621" lat="45.4412896" lon="12.3344895">
    <tag k="shop" v="convenience"/>
  </node>
  <node id="571269160" version="3" timestamp="2010-05-24T16:51:54Z" uid="17602" user="B10xyz" changeset="4795667" lat="45.4413403" lon="12.3344487">
    <tag k="shop" v="convenience"/>
  </node>
  <node id="571269162" version="1" timestamp="2009-11-25T23:05:46Z" uid="17602" user="B10xyz" changeset="3216979" lat="45.4421707" lon="12.3336799">
    <tag k="addr:housenumber" v="3622"/>
    <tag k="note" v="CANAREGIO"/>
  </node>
  <node id="571269162" version="2" timestamp="2010-05-24T16:52:09Z" uid="17602" user="B10xyz" changeset="4795667" lat="45.4422096" lon="12.3336113">
    <tag k="addr:housenumber" v="3622"/>
    <tag k="note" v="CANAREGIO"/>
  </node>
  <node id="571269163" version="1" timestamp="2009-11-25T23:05:46Z" uid="17602" user="B10xyz" changeset="3216979" lat="45.4414941" lon="12.3355059">
    <tag k="addr:housenumber" v="4222"/>
    <tag k="note" v="CANAREGIO"/>
  </node>
  <node id="571269163" version="2" timestamp="2010-05-24T16:52:02Z" uid="17602" user="B10xyz" changeset="4795667" lat="45.4415079" lon="12.3354699">
    <tag k="addr:housenumber" v="4222"/>
    <tag k="note" v="CANAREGIO"/>
  </node>
  <node id="571269163" version="3" timestamp="2012-03-03T11:40:59Z" uid="590900" user="Ciaurlec" changeset="10856729" lat="45.4415079" lon="12.3354699">
    <tag k="addr:housenumber" v="4222"/>
    <tag k="is_in" v="Cannaregio"/>
    <tag k="note" v="CANAREGIO"/>
  </node>
  <node id="571269163" version="4" timestamp="2012-03-03T11:49:42Z" uid="590900" user="Ciaurlec" changeset="10856811" lat="45.4415079" lon="12.3354699">
    <tag k="addr:housenumber" v="4222"/>
    <tag k="is_in" v="Cannaregio"/>
  </node>
  <node id="571269165" version="1" timestamp="2009-11-25T23:05:46Z" uid="17602" user="B10xyz" changeset="3216979" lat="45.4414311" lon="12.335523">
    <tag k="addr:housenumber" v="4223"/>
    <tag k="note" v="CANAREGIO"/>
  </node>
  <node id="571269165" version="2" timestamp="2010-05-24T16:52:02Z" uid="17602" user="B10xyz" changeset="4795667" lat="45.441444" lon="12.3354752">
    <tag k="addr:housenumber" v="4223"/>
    <tag k="note" v="CANAREGIO"/>
  </node>
  <node id="571269165" version="3" timestamp="2012-03-03T11:40:59Z" uid="590900" user="Ciaurlec" changeset="10856729" lat="45.441444" lon="12.3354752">
    <tag k="addr:housenumber" v="4223"/>
    <tag k="is_in" v="Cannaregio"/>
    <tag k="note" v="CANAREGIO"/>
  </node>
  <node id="571269165" version="4" timestamp="2012-03-03T11:49:42Z" uid="590900" user="Ciaurlec" changeset="10856811" lat="45.441444" lon="12.3354752">
    <tag k="addr:housenumber" v="4223"/>
    <tag k="is_in" v="Cannaregio"/>
  </node>
  <node id="571269167" version="1" timestamp="2009-11-25T23:05:46Z" uid="17602" user="B10xyz" changeset="3216979" lat="45.4413821" lon="12.3368333"/>
  <node id="571269167" version="2" timestamp="2010-03-21T21:30:04Z" uid="17602" user="B10xyz" changeset="4195922" lat="45.4413607" lon="12.3368192"/>
  <node id="571269167" version="3" timestamp="2010-05-24T16:52:04Z" uid="17602" user="B10xyz" changeset="4795667" lat="45.4414447" lon="12.3367619"/>
  <node id="571269167" version="4" timestamp="2012-02-10T16:18:43Z" uid="590900" user="Ciaurlec" changeset="10644555" lat="45.4414248" lon="12.3367847"/>
  <node id="571269168" version="1" timestamp="2009-11-25T23:05:46Z" uid="17602" user="B10xyz" changeset="3216979" lat="45.4414427" lon="12.3365935"/>
  <node id="571269168" version="2" timestamp="2010-03-21T21:30:04Z" uid="17602" user="B10xyz" changeset="4195922" lat="45.4413917" lon="12.3366826"/>
  <node id="571269168" version="3" timestamp="2010-05-24T16:52:04Z" uid="17602" user="B10xyz" changeset="4795667" lat="45.4414748" lon="12.3366533"/>
  <node id="571269168" version="4" timestamp="2012-02-10T16:18:41Z" uid="590900" user="Ciaurlec" changeset="10644555" lat="45.4414496" lon="12.3366608"/>
  <node id="571269168" version="5" timestamp="2012-03-27T21:38:54Z" uid="590900" user="Ciaurlec" changeset="11121305" lat="45.4414563" lon="12.3366488"/>
  <node id="571269170" version="1" timestamp="2009-11-25T23:05:46Z" uid="17602" user="B10xyz" changeset="3216979" lat="45.4425979" lon="12.3348111">
    <tag k="addr:housenumber" v="3743"/>
    <tag k="note" v="CANAREGIO"/>
  </node>
  <node id="571269170" version="2" timestamp="2010-05-24T16:52:09Z" uid="17602" user="B10xyz" changeset="4795667" lat="45.4426057" lon="12.3347633">
    <tag k="addr:housenumber" v="3743"/>
    <tag k="note" v="CANAREGIO"/>
  </node>
  <node id="571269172" version="1" timestamp="2009-11-25T23:05:46Z" uid="17602" user="B10xyz" changeset="3216979" lat="45.4426712" lon="12.3346738">
    <tag k="addr:housenumber" v="3745"/>
    <tag k="note" v="CANAREGIO"/>
  </node>
  <node id="571269172" version="2" timestamp="2010-05-24T16:52:09Z" uid="17602" user="B10xyz" changeset="4795667" lat="45.4426667" lon="12.3346356">
    <tag k="addr:housenumber" v="3745"/>
    <tag k="note" v="CANAREGIO"/>
  </node>
  <node id="571269173" version="1" timestamp="2009-11-25T23:05:46Z" uid="17602" user="B10xyz" changeset="3216979" lat="45.4425917" lon="12.3349633">
    <tag k="addr:housenumber" v="3748"/>
    <tag k="note" v="CANAREGIO"/>
  </node>
  <node id="571269173" version="2" timestamp="2010-05-24T16:52:14Z" uid="17602" user="B10xyz" changeset="4795667" lat="45.4426063" lon="12.3349045">
    <tag k="addr:housenumber" v="3748"/>
    <tag k="note" v="CANAREGIO"/>
  </node>
  <node id="571269175" version="1" timestamp="2009-11-25T23:05:46Z" uid="17602" user="B10xyz" changeset="3216979" lat="45.4432031" lon="12.3355257"/>
  <node id="571269175" version="2" timestamp="2010-05-24T16:52:15Z" uid="17602" user="B10xyz" changeset="4795667" lat="45.4432642" lon="12.3355424"/>
  <node id="571269177" version="1" timestamp="2009-11-25T23:05:46Z" uid="17602" user="B10xyz" changeset="3216979" lat="45.4433135" lon="12.3353648">
    <tag k="addr:housenumber" v="3768"/>
    <tag k="note" v="CANAREGIO"/>
  </node>
  <node id="571269177" version="2" timestamp="2010-05-24T16:52:15Z" uid="17602" user="B10xyz" changeset="4795667" lat="45.4433746" lon="12.3353897">
    <tag k="addr:housenumber" v="3768"/>
    <tag k="note" v="CANAREGIO"/>
  </node>
  <node id="571269179" version="1" timestamp="2009-11-25T23:05:47Z" uid="17602" user="B10xyz" changeset="3216979" lat="45.4432366" lon="12.3354631"/>
  <node id="571269179" version="2" timestamp="2010-05-24T16:52:15Z" uid="17602" user="B10xyz" changeset="4795667" lat="45.4433019" lon="12.3354548"/>
  <node id="571269180" version="1" timestamp="2009-11-25T23:05:47Z" uid="17602" user="B10xyz" changeset="3216979" lat="45.4450729" lon="12.3274862">
    <tag k="addr:housenumber" v="1441"/>
    <tag k="note" v="CANAREGIO"/>
  </node>
  <node id="571269180" version="2" timestamp="2009-12-02T16:17:50Z" uid="17602" user="B10xyz" changeset="3273308" lat="45.4450671" lon="12.3274825">
    <tag k="addr:housenumber" v="1441"/>
    <tag k="note" v="CANAREGIO"/>
  </node>
  <node id="571269181" version="1" timestamp="2009-11-25T23:05:47Z" uid="17602" user="B10xyz" changeset="3216979" lat="45.4479838" lon="12.3292681">
    <tag k="addr:housenumber" v="3194"/>
    <tag k="note" v="CANAREGIO"/>
  </node>
  <node id="571269181" version="2" timestamp="2010-05-24T16:52:35Z" uid="17602" user="B10xyz" changeset="4795667" lat="45.4479961" lon="12.3291378">
    <tag k="addr:housenumber" v="3194"/>
    <tag k="note" v="CANAREGIO"/>
  </node>
</osm>
