<?xml version='1.0' encoding='UTF-8'?>
<osm version="0.6" generator="libosmium/2.20.0">
  <node id="571907368" version="3" timestamp="2010-07-22T11:21:41Z" uid="115477" user="wowik" changeset="5286395" lat="56.8066042" lon="37.5553329">
    <tag k="addr:country" v="RU"/>
    <tag k="addr:district" v="Талдомский район"/>
    <tag k="addr:postcode" v="141916"/>
    <tag k="addr:region" v="Московская область"/>
    <tag k="cladr:code" v="5003500006800"/>
    <tag k="cladr:name" v="Квашонки"/>
    <tag k="cladr:suffix" v="Село"/>
    <tag k="name" v="Квашонки"/>
    <tag k="place" v="hamlet"/>
  </node>
  <node id="571907368" version="4" timestamp="2010-11-26T19:10:53Z" uid="115477" user="wowik" changeset="6463696" lat="56.8066042" lon="37.5553329">
    <tag k="addr:country" v="RU"/>
    <tag k="addr:district" v="Талдомский район"/>
    <tag k="addr:postcode" v="141916"/>
    <tag k="addr:region" v="Московская область"/>
    <tag k="alt_name" v="Квашенки"/>
    <tag k="cladr:code" v="5003500006800"/>
    <tag k="cladr:name" v="Квашонки"/>
    <tag k="cladr:suffix" v="Село"/>
    <tag k="name" v="Квашонки"/>
    <tag k="place" v="hamlet"/>
  </node>
  <node id="571907368" version="5" timestamp="2011-08-07T17:16:25Z" uid="297358" user="patashnik" changeset="8949329" lat="56.8066042" lon="37.5553329">
    <tag k="addr:country" v="RU"/>
    <tag k="addr:district" v="Талдомский район"/>
    <tag k="addr:region" v="Московская область"/>
    <tag k="alt_name" v="Квашенки"/>
    <tag k="cladr:code" v="5003500006800"/>
    <tag k="name" v="Квашонки"/>
    <tag k="place" v="hamlet"/>
  </node>
  <node id="571907368" version="6" timestamp="2011-09-15T20:13:53Z" uid="347929" user="hint" changeset="9311157" lat="56.8066042" lon="37.5553329">
    <tag k="addr:country" v="RU"/>
    <tag k="addr:district" v="Талдомский район"/>
    <tag k="addr:region" v="Московская область"/>
    <tag k="alt_name" v="Квашонки"/>
    <tag k="cladr:code" v="5003500006800"/>
    <tag k="name" v="Квашёнки"/>
    <tag k="place" v="hamlet"/>
  </node>
  <node id="571907368" version="7" timestamp="2011-09-23T06:38:23Z" uid="143266" user="Sergey Astakhov" changeset="9374189" lat="56.8066042" lon="37.5553329">
    <tag k="addr:country" v="RU"/>
    <tag k="addr:district" v="Талдомский район"/>
    <tag k="addr:region" v="Московская область"/>
    <tag k="alt_name" v="Квашенки"/>
    <tag k="cladr:code" v="5003500006800"/>
    <tag k="name" v="Квашонки"/>
    <tag k="place" v="hamlet"/>
  </node>
</osm>
