<?xml version='1.0' encoding='UTF-8'?>
<osm version="0.6" generator="libosmium/2.20.0">
  <node id="574351614" version="5" timestamp="2010-01-05T15:05:09Z" uid="23543" user="jkjk" changeset="3546145" lat="25.2104244" lon="55.2751172">
    <tag k="name" v="Financial Center"/>
    <tag k="railway" v="station"/>
  </node>
  <node id="574351614" version="6" timestamp="2010-02-28T17:24:27Z" uid="18069" user="Claudius Henrichs" changeset="4000680" lat="25.2104244" lon="55.2751172">
    <tag k="name" v="Financial Center"/>
    <tag k="public_transport" v="stop_position"/>
    <tag k="railway" v="station"/>
    <tag k="subway" v="yes"/>
  </node>
  <node id="574351614" version="7" timestamp="2010-10-16T03:10:23Z" uid="359110" user="davemcmahon" changeset="6054076" lat="25.2104244" lon="55.2751172">
    <tag k="name" v="Financial Center"/>
    <tag k="public_transport" v="stop_position"/>
    <tag k="railway" v="station"/>
    <tag k="subway" v="yes"/>
  </node>
  <node id="574351616" version="2" timestamp="2010-01-05T15:05:10Z" uid="23543" user="jkjk" changeset="3546145" lat="25.2333634" lon="55.2920421">
    <tag k="name" v="Al Jafiya"/>
    <tag k="railway" v="station"/>
  </node>
  <node id="574351616" version="3" timestamp="2010-02-28T17:24:27Z" uid="18069" user="Claudius Henrichs" changeset="4000680" lat="25.2333634" lon="55.2920421">
    <tag k="name" v="Al Jafiya"/>
    <tag k="public_transport" v="stop_position"/>
    <tag k="railway" v="station"/>
    <tag k="subway" v="yes"/>
  </node>
  <node id="574351616" version="4" timestamp="2010-10-16T03:10:19Z" uid="359110" user="davemcmahon" changeset="6054076" lat="25.2333634" lon="55.2920421">
    <tag k="name" v="Al Jafiya"/>
    <tag k="public_transport" v="stop_position"/>
    <tag k="railway" v="station"/>
    <tag k="subway" v="yes"/>
  </node>
</osm>
