<?xml version='1.0' encoding='UTF-8'?>
<osm version="0.6" generator="libosmium/2.20.0">
  <node id="57590683" version="2" timestamp="2008-12-07T17:44:54Z" uid="58091" user="Andreas M" changeset="244793" lat="48.2145263" lon="16.3845258">
    <tag k="name" v="Nestroyplatz"/>
    <tag k="railway" v="station"/>
  </node>
  <node id="57590683" version="3" timestamp="2009-01-24T15:16:56Z" uid="54806" user="_al" changeset="831841" lat="48.2147236" lon="16.3848502">
    <tag k="name" v="Nestroyplatz"/>
    <tag k="railway" v="station"/>
  </node>
  <node id="57590683" version="4" timestamp="2011-06-06T00:19:33Z" uid="56501" user="Rudolf_H" changeset="8355634" lat="48.2147236" lon="16.3848502">
    <tag k="name" v="Nestroyplatz"/>
    <tag k="railway" v="station"/>
    <tag k="uic_name" v="Wien Nestroyplatz (U1)"/>
    <tag k="uic_ref" v="8170034"/>
  </node>
  <node id="57590683" version="5" timestamp="2011-07-19T22:23:24Z" uid="29320" user="Komяpa" changeset="8773535" lat="48.2147236" lon="16.3848502">
    <tag k="name" v="Nestroyplatz"/>
    <tag k="railway" v="station"/>
    <tag k="transport" v="subway"/>
    <tag k="uic_name" v="Wien Nestroyplatz (U1)"/>
    <tag k="uic_ref" v="8170034"/>
  </node>
  <node id="57590683" version="6" timestamp="2011-07-20T08:34:43Z" uid="290680" user="wheelmap_visitor" changeset="8775409" lat="48.2147236" lon="16.3848502">
    <tag k="name" v="Nestroyplatz"/>
    <tag k="railway" v="station"/>
    <tag k="transport" v="subway"/>
    <tag k="uic_name" v="Wien Nestroyplatz (U1)"/>
    <tag k="uic_ref" v="8170034"/>
    <tag k="wheelchair" v="yes"/>
  </node>
  <node id="57590683" version="7" timestamp="2011-08-01T00:42:33Z" uid="29320" user="Komяpa" changeset="8886564" lat="48.2147236" lon="16.3848502">
    <tag k="colour" v="red"/>
    <tag k="name" v="Nestroyplatz"/>
    <tag k="operator" v="Wiener Linien"/>
    <tag k="railway" v="station"/>
    <tag k="transport" v="subway"/>
    <tag k="uic_name" v="Wien Nestroyplatz (U1)"/>
    <tag k="uic_ref" v="8170034"/>
    <tag k="wheelchair" v="yes"/>
  </node>
  <node id="57590683" version="8" timestamp="2012-03-26T13:10:49Z" uid="99800" user="wolfbert" changeset="11105857" lat="48.214822" lon="16.3847562">
    <tag k="colour" v="red"/>
    <tag k="name" v="Nestroyplatz"/>
    <tag k="operator" v="Wiener Linien"/>
    <tag k="railway" v="station"/>
    <tag k="transport" v="subway"/>
    <tag k="uic_name" v="Wien Nestroyplatz (U1)"/>
    <tag k="uic_ref" v="8170034"/>
    <tag k="wheelchair" v="yes"/>
  </node>
  <node id="57590684" version="12" timestamp="2008-12-07T17:44:54Z" uid="58091" user="Andreas M" changeset="244793" lat="48.218463" lon="16.3916955">
    <tag k="name" v="Praterstern"/>
    <tag k="railway" v="station"/>
  </node>
  <node id="57590684" version="13" timestamp="2008-12-25T05:08:56Z" uid="76050" user="Wolfgang_Wasserburger" changeset="604615" lat="48.2188537" lon="16.3922108">
    <tag k="name" v="Praterstern"/>
    <tag k="railway" v="station"/>
  </node>
  <node id="57590684" version="14" timestamp="2008-12-26T00:41:57Z" uid="76050" user="Wolfgang_Wasserburger" changeset="612782" lat="48.218463" lon="16.3916955">
    <tag k="name" v="Praterstern"/>
    <tag k="railway" v="station"/>
  </node>
  <node id="57590684" version="15" timestamp="2008-12-26T23:06:54Z" uid="76050" user="Wolfgang_Wasserburger" changeset="622088" lat="48.2187295" lon="16.3919954">
    <tag k="name" v="Praterstern"/>
    <tag k="railway" v="station"/>
  </node>
  <node id="57590684" version="16" timestamp="2009-02-17T18:11:32Z" uid="58091" user="Andreas M" changeset="518785" lat="48.2187295" lon="16.3921375">
    <tag k="name" v="Praterstern"/>
    <tag k="railway" v="station"/>
  </node>
  <node id="57590684" version="17" timestamp="2009-02-18T14:49:26Z" uid="58091" user="Andreas M" changeset="531056" lat="48.2187433" lon="16.3921306">
    <tag k="name" v="Praterstern"/>
    <tag k="railway" v="station"/>
  </node>
  <node id="57590684" version="18" timestamp="2009-07-23T05:34:25Z" uid="56501" user="Rudolf_H" changeset="1911456" lat="48.2187433" lon="16.3921306">
    <tag k="name" v="Praterstern"/>
    <tag k="railway" v="station"/>
  </node>
  <node id="57597813" version="3" timestamp="2008-10-15T09:49:52Z" uid="49111" user="Markus B" changeset="358875" lat="49.6425548" lon="11.2495381"/>
  <node id="57597820" version="2" timestamp="2008-10-15T09:49:52Z" uid="49111" user="Markus B" changeset="358875" lat="49.6425509" lon="11.2501094"/>
  <node id="57597823" version="2" timestamp="2008-10-15T09:49:51Z" uid="49111" user="Markus B" changeset="358875" lat="49.6413822" lon="11.2499987"/>
  <node id="57597823" version="3" timestamp="2008-10-15T09:49:53Z" uid="49111" user="Markus B" changeset="358875" lat="49.6413822" lon="11.2499987"/>
  <node id="57597827" version="3" timestamp="2008-10-15T09:49:51Z" uid="49111" user="Markus B" changeset="358875" lat="49.6415547" lon="11.2487725"/>
  <node id="57597834" version="3" timestamp="2008-10-15T09:49:52Z" uid="49111" user="Markus B" changeset="358875" lat="49.641517" lon="11.2463442"/>
  <node id="57597838" version="2" timestamp="2008-10-15T09:49:52Z" uid="49111" user="Markus B" changeset="358875" lat="49.6423215" lon="11.2468099"/>
  <node id="57597842" version="2" timestamp="2008-10-15T09:49:52Z" uid="49111" user="Markus B" changeset="358875" lat="49.6421136" lon="11.2484154"/>
  <node id="57597844" version="3" timestamp="2008-10-15T09:49:52Z" uid="49111" user="Markus B" changeset="358875" lat="49.6423374" lon="11.2490987"/>
  <node id="57598328" version="2" timestamp="2008-09-07T06:06:12Z" uid="58091" user="Andreas M" changeset="557625" lat="48.238473" lon="16.3753419"/>
  <node id="57598328" version="3" timestamp="2008-12-15T12:30:13Z" uid="49642" user="realadry" changeset="391800" lat="48.2383729" lon="16.3752776">
    <tag k="created_by" v="Merkaartor 0.12"/>
  </node>
  <node id="57598328" version="4" timestamp="2009-11-27T09:33:50Z" uid="136033" user="peter_wien" changeset="3226491" lat="48.2383729" lon="16.3752776">
    <tag k="created_by" v="Merkaartor 0.12"/>
  </node>
</osm>
