<?xml version='1.0' encoding='UTF-8'?>
<osm version="0.6" generator="libosmium/2.20.0">
  <node id="577440196" version="2" timestamp="2010-04-11T04:53:36Z" uid="20587" user="balrog-kun" changeset="4389130" lat="50.2633622" lon="21.0931767">
    <tag k="name" v="Brzezówka"/>
    <tag k="place" v="village"/>
    <tag k="source" v="http://ump.waw.pl/ retrieved 11:18:52 11/17/09 (UMP-Tarnow/src/cities-Tarnow.pnt-converted.txt)"/>
  </node>
  <node id="577440196" version="3" timestamp="2010-04-11T13:17:18Z" uid="20587" user="balrog-kun" changeset="4392352" lat="50.2670617" lon="21.0926181">
    <tag k="name" v="Brzezówka"/>
    <tag k="place" v="village"/>
    <tag k="source" v="http://ump.waw.pl/ retrieved 11:18:52 11/17/09 (UMP-Tarnow/src/cities-Tarnow.pnt-converted.txt)"/>
  </node>
  <node id="577440216" version="2" timestamp="2010-04-27T03:56:15Z" uid="30632" user="antblant" changeset="4537843" lat="50.2929304" lon="20.4204069">
    <tag k="name" v="Szczekarzów"/>
    <tag k="place" v="village"/>
    <tag k="teryt:simc" v="0268122"/>
  </node>
  <node id="577440219" version="2" timestamp="2010-04-27T03:56:15Z" uid="30632" user="antblant" changeset="4537843" lat="50.3158975" lon="20.4169958">
    <tag k="name" v="Sielec Biskupi"/>
    <tag k="place" v="village"/>
    <tag k="teryt:simc" v="0268004"/>
  </node>
  <node id="577440222" version="2" timestamp="2010-04-27T04:09:12Z" uid="30632" user="antblant" changeset="4537879" lat="50.3411915" lon="20.4249648">
    <tag k="name" v="Sielec-Kolonia"/>
    <tag k="place" v="village"/>
    <tag k="teryt:simc" v="0268027"/>
  </node>
  <node id="577440227" version="2" timestamp="2010-04-27T04:09:12Z" uid="30632" user="antblant" changeset="4537879" lat="50.3556629" lon="20.4458117">
    <tag k="name" v="Bieglów"/>
    <tag k="place" v="village"/>
    <tag k="teryt:simc" v="0235677"/>
  </node>
  <node id="577440232" version="2" timestamp="2010-04-11T04:53:36Z" uid="20587" user="balrog-kun" changeset="4389130" lat="50.28356" lon="20.50015">
    <tag k="name" v="Holdowiec"/>
    <tag k="place" v="village"/>
    <tag k="source" v="http://ump.waw.pl/ retrieved 11:18:52 11/17/09 (UMP-Tarnow/src/cities-Tarnow.pnt-converted.txt)"/>
  </node>
  <node id="577440232" version="3" timestamp="2010-04-11T13:17:18Z" uid="20587" user="balrog-kun" changeset="4392352" lat="50.28356" lon="20.50015">
    <tag k="name" v="Holdowiec"/>
    <tag k="place" v="village"/>
    <tag k="source" v="http://ump.waw.pl/ retrieved 11:18:52 11/17/09 (UMP-Tarnow/src/cities-Tarnow.pnt-converted.txt)"/>
  </node>
  <node id="577440474" version="2" timestamp="2010-04-11T04:53:36Z" uid="20587" user="balrog-kun" changeset="4389130" lat="50.28614" lon="20.52611">
    <tag k="name" v="Gabułtów"/>
    <tag k="place" v="village"/>
    <tag k="source" v="http://ump.waw.pl/ retrieved 11:18:52 11/17/09 (UMP-Tarnow/src/cities-Tarnow.pnt-converted.txt)"/>
  </node>
  <node id="577440474" version="3" timestamp="2010-04-11T13:17:18Z" uid="20587" user="balrog-kun" changeset="4392352" lat="50.28614" lon="20.52611">
    <tag k="name" v="Gabułtów"/>
    <tag k="place" v="village"/>
    <tag k="source" v="http://ump.waw.pl/ retrieved 11:18:52 11/17/09 (UMP-Tarnow/src/cities-Tarnow.pnt-converted.txt)"/>
  </node>
  <node id="577440474" version="4" timestamp="2010-04-27T04:12:41Z" uid="30632" user="antblant" changeset="4537887" lat="50.28614" lon="20.52611">
    <tag k="name" v="Gabułtów"/>
    <tag k="place" v="village"/>
    <tag k="source" v="http://ump.waw.pl/ retrieved 11:18:52 11/17/09 (UMP-Tarnow/src/cities-Tarnow.pnt-converted.txt)"/>
    <tag k="teryt:simc" v="0241459"/>
  </node>
  <node id="577440500" version="2" timestamp="2010-04-11T04:53:36Z" uid="20587" user="balrog-kun" changeset="4389130" lat="50.27519" lon="20.55984">
    <tag k="name" v="Zagórzyce"/>
    <tag k="place" v="village"/>
    <tag k="source" v="http://ump.waw.pl/ retrieved 11:18:52 11/17/09 (UMP-Tarnow/src/cities-Tarnow.pnt-converted.txt)"/>
  </node>
  <node id="577440500" version="3" timestamp="2010-04-11T13:17:18Z" uid="20587" user="balrog-kun" changeset="4392352" lat="50.27519" lon="20.55984">
    <tag k="name" v="Zagórzyce"/>
    <tag k="place" v="village"/>
    <tag k="source" v="http://ump.waw.pl/ retrieved 11:18:52 11/17/09 (UMP-Tarnow/src/cities-Tarnow.pnt-converted.txt)"/>
  </node>
  <node id="577440531" version="2" timestamp="2010-04-11T04:53:37Z" uid="20587" user="balrog-kun" changeset="4389130" lat="50.3" lon="20.55302">
    <tag k="name" v="Zięblice"/>
    <tag k="place" v="village"/>
    <tag k="source" v="http://ump.waw.pl/ retrieved 11:18:52 11/17/09 (UMP-Tarnow/src/cities-Tarnow.pnt-converted.txt)"/>
  </node>
  <node id="577440531" version="3" timestamp="2010-04-11T13:17:18Z" uid="20587" user="balrog-kun" changeset="4392352" lat="50.3" lon="20.55302">
    <tag k="name" v="Zięblice"/>
    <tag k="place" v="village"/>
    <tag k="source" v="http://ump.waw.pl/ retrieved 11:18:52 11/17/09 (UMP-Tarnow/src/cities-Tarnow.pnt-converted.txt)"/>
  </node>
  <node id="577440531" version="4" timestamp="2010-04-27T04:04:17Z" uid="30632" user="antblant" changeset="4537867" lat="50.3" lon="20.55302">
    <tag k="name" v="Zięblice"/>
    <tag k="place" v="village"/>
    <tag k="source" v="http://ump.waw.pl/ retrieved 11:18:52 11/17/09 (UMP-Tarnow/src/cities-Tarnow.pnt-converted.txt)"/>
    <tag k="teryt:simc" v="0242482"/>
  </node>
  <node id="577440563" version="2" timestamp="2010-04-11T04:53:37Z" uid="20587" user="balrog-kun" changeset="4389130" lat="50.3129345" lon="20.5648945">
    <tag k="name" v="Dębiany"/>
    <tag k="place" v="village"/>
    <tag k="source" v="http://ump.waw.pl/ retrieved 11:18:52 11/17/09 (UMP-Tarnow/src/cities-Tarnow.pnt-converted.txt)"/>
  </node>
  <node id="577440563" version="3" timestamp="2010-04-11T13:17:18Z" uid="20587" user="balrog-kun" changeset="4392352" lat="50.3132364" lon="20.5651278">
    <tag k="name" v="Dębiany"/>
    <tag k="place" v="village"/>
    <tag k="source" v="http://ump.waw.pl/ retrieved 11:18:52 11/17/09 (UMP-Tarnow/src/cities-Tarnow.pnt-converted.txt)"/>
  </node>
  <node id="577440677" version="2" timestamp="2010-04-11T04:53:37Z" uid="20587" user="balrog-kun" changeset="4389130" lat="50.32099" lon="20.54031">
    <tag k="name" v="Krzyż"/>
    <tag k="place" v="village"/>
    <tag k="source" v="http://ump.waw.pl/ retrieved 11:18:52 11/17/09 (UMP-Tarnow/src/cities-Tarnow.pnt-converted.txt)"/>
  </node>
  <node id="577440677" version="3" timestamp="2010-04-11T13:17:18Z" uid="20587" user="balrog-kun" changeset="4392352" lat="50.32099" lon="20.54031">
    <tag k="name" v="Krzyż"/>
    <tag k="place" v="village"/>
    <tag k="source" v="http://ump.waw.pl/ retrieved 11:18:52 11/17/09 (UMP-Tarnow/src/cities-Tarnow.pnt-converted.txt)"/>
  </node>
  <node id="577440737" version="2" timestamp="2010-04-11T04:53:37Z" uid="20587" user="balrog-kun" changeset="4389130" lat="50.29322" lon="20.57525">
    <tag k="name" v="Zagajów"/>
    <tag k="place" v="village"/>
    <tag k="source" v="http://ump.waw.pl/ retrieved 11:18:52 11/17/09 (UMP-Tarnow/src/cities-Tarnow.pnt-converted.txt)"/>
  </node>
  <node id="577440737" version="3" timestamp="2010-04-11T13:17:18Z" uid="20587" user="balrog-kun" changeset="4392352" lat="50.29322" lon="20.57525">
    <tag k="name" v="Zagajów"/>
    <tag k="place" v="village"/>
    <tag k="source" v="http://ump.waw.pl/ retrieved 11:18:52 11/17/09 (UMP-Tarnow/src/cities-Tarnow.pnt-converted.txt)"/>
  </node>
  <node id="577440815" version="2" timestamp="2010-04-11T04:53:37Z" uid="20587" user="balrog-kun" changeset="4389130" lat="50.2820566" lon="20.6073545">
    <tag k="name" v="Charbinowice"/>
    <tag k="place" v="village"/>
    <tag k="source" v="http://ump.waw.pl/ retrieved 11:18:52 11/17/09 (UMP-Tarnow/src/cities-Tarnow.pnt-converted.txt)"/>
  </node>
  <node id="577440815" version="3" timestamp="2010-04-11T13:17:19Z" uid="20587" user="balrog-kun" changeset="4392352" lat="50.2825137" lon="20.6061693">
    <tag k="name" v="Charbinowice"/>
    <tag k="place" v="village"/>
    <tag k="source" v="http://ump.waw.pl/ retrieved 11:18:52 11/17/09 (UMP-Tarnow/src/cities-Tarnow.pnt-converted.txt)"/>
  </node>
  <node id="577440815" version="4" timestamp="2010-04-27T04:07:41Z" uid="30632" user="antblant" changeset="4537875" lat="50.2825137" lon="20.6061693">
    <tag k="name" v="Charbinowice"/>
    <tag k="place" v="village"/>
    <tag k="source" v="http://ump.waw.pl/ retrieved 11:18:52 11/17/09 (UMP-Tarnow/src/cities-Tarnow.pnt-converted.txt)"/>
    <tag k="teryt:simc" v="0257510"/>
  </node>
  <node id="577440826" version="2" timestamp="2010-04-11T04:53:37Z" uid="20587" user="balrog-kun" changeset="4389130" lat="50.29446" lon="20.60718">
    <tag k="name" v="Stropieszyn"/>
    <tag k="place" v="village"/>
    <tag k="source" v="http://ump.waw.pl/ retrieved 11:18:52 11/17/09 (UMP-Tarnow/src/cities-Tarnow.pnt-converted.txt)"/>
  </node>
  <node id="577440826" version="3" timestamp="2010-04-11T13:17:19Z" uid="20587" user="balrog-kun" changeset="4392352" lat="50.29446" lon="20.60718">
    <tag k="name" v="Stropieszyn"/>
    <tag k="place" v="village"/>
    <tag k="source" v="http://ump.waw.pl/ retrieved 11:18:52 11/17/09 (UMP-Tarnow/src/cities-Tarnow.pnt-converted.txt)"/>
  </node>
  <node id="577440933" version="2" timestamp="2010-04-11T04:53:37Z" uid="20587" user="balrog-kun" changeset="4389130" lat="50.29753" lon="20.59222">
    <tag k="name" v="Mikołajów"/>
    <tag k="place" v="village"/>
    <tag k="source" v="http://ump.waw.pl/ retrieved 11:18:52 11/17/09 (UMP-Tarnow/src/cities-Tarnow.pnt-converted.txt)"/>
  </node>
  <node id="577440933" version="3" timestamp="2010-04-11T13:17:19Z" uid="20587" user="balrog-kun" changeset="4392352" lat="50.29753" lon="20.59222">
    <tag k="name" v="Mikołajów"/>
    <tag k="place" v="village"/>
    <tag k="source" v="http://ump.waw.pl/ retrieved 11:18:52 11/17/09 (UMP-Tarnow/src/cities-Tarnow.pnt-converted.txt)"/>
  </node>
  <node id="577440958" version="2" timestamp="2010-04-11T04:53:37Z" uid="20587" user="balrog-kun" changeset="4389130" lat="50.30331" lon="20.60048">
    <tag k="name" v="Sokolina"/>
    <tag k="place" v="village"/>
    <tag k="source" v="http://ump.waw.pl/ retrieved 11:18:52 11/17/09 (UMP-Tarnow/src/cities-Tarnow.pnt-converted.txt)"/>
  </node>
  <node id="577440958" version="3" timestamp="2010-04-11T13:17:19Z" uid="20587" user="balrog-kun" changeset="4392352" lat="50.30331" lon="20.60048">
    <tag k="name" v="Sokolina"/>
    <tag k="place" v="village"/>
    <tag k="source" v="http://ump.waw.pl/ retrieved 11:18:52 11/17/09 (UMP-Tarnow/src/cities-Tarnow.pnt-converted.txt)"/>
  </node>
  <node id="577440958" version="4" timestamp="2010-04-27T04:04:22Z" uid="30632" user="antblant" changeset="4537867" lat="50.30331" lon="20.60048">
    <tag k="name" v="Sokolina"/>
    <tag k="place" v="village"/>
    <tag k="source" v="http://ump.waw.pl/ retrieved 11:18:52 11/17/09 (UMP-Tarnow/src/cities-Tarnow.pnt-converted.txt)"/>
    <tag k="teryt:simc" v="0236116"/>
  </node>
  <node id="577440996" version="2" timestamp="2010-04-11T04:53:37Z" uid="20587" user="balrog-kun" changeset="4389130" lat="50.28853" lon="20.64957">
    <tag k="name" v="Krzczonów"/>
    <tag k="place" v="village"/>
    <tag k="source" v="http://ump.waw.pl/ retrieved 11:18:52 11/17/09 (UMP-Tarnow/src/cities-Tarnow.pnt-converted.txt)"/>
  </node>
  <node id="577440996" version="3" timestamp="2010-04-11T13:17:19Z" uid="20587" user="balrog-kun" changeset="4392352" lat="50.28853" lon="20.64957">
    <tag k="name" v="Krzczonów"/>
    <tag k="place" v="village"/>
    <tag k="source" v="http://ump.waw.pl/ retrieved 11:18:52 11/17/09 (UMP-Tarnow/src/cities-Tarnow.pnt-converted.txt)"/>
  </node>
  <node id="577441055" version="2" timestamp="2010-04-11T04:53:37Z" uid="20587" user="balrog-kun" changeset="4389130" lat="50.30397" lon="20.64723">
    <tag k="name" v="Kamienna"/>
    <tag k="place" v="village"/>
    <tag k="source" v="http://ump.waw.pl/ retrieved 11:18:52 11/17/09 (UMP-Tarnow/src/cities-Tarnow.pnt-converted.txt)"/>
  </node>
  <node id="577441055" version="3" timestamp="2010-04-11T13:17:19Z" uid="20587" user="balrog-kun" changeset="4392352" lat="50.30397" lon="20.64723">
    <tag k="name" v="Kamienna"/>
    <tag k="place" v="village"/>
    <tag k="source" v="http://ump.waw.pl/ retrieved 11:18:52 11/17/09 (UMP-Tarnow/src/cities-Tarnow.pnt-converted.txt)"/>
  </node>
  <node id="577441165" version="2" timestamp="2010-04-11T04:53:37Z" uid="20587" user="balrog-kun" changeset="4389130" lat="50.3126588" lon="20.6624125">
    <tag k="name" v="Wawrowice"/>
    <tag k="place" v="village"/>
    <tag k="source" v="http://ump.waw.pl/ retrieved 11:18:52 11/17/09 (UMP-Tarnow/src/cities-Tarnow.pnt-converted.txt)"/>
  </node>
  <node id="577441165" version="3" timestamp="2010-04-11T13:17:19Z" uid="20587" user="balrog-kun" changeset="4392352" lat="50.3119169" lon="20.6642178">
    <tag k="name" v="Wawrowice"/>
    <tag k="place" v="village"/>
    <tag k="source" v="http://ump.waw.pl/ retrieved 11:18:52 11/17/09 (UMP-Tarnow/src/cities-Tarnow.pnt-converted.txt)"/>
  </node>
  <node id="577441179" version="2" timestamp="2010-04-11T04:53:37Z" uid="20587" user="balrog-kun" changeset="4389130" lat="50.2977283" lon="20.6790487">
    <tag k="name" v="Kocina"/>
    <tag k="place" v="village"/>
    <tag k="source" v="http://ump.waw.pl/ retrieved 11:18:52 11/17/09 (UMP-Tarnow/src/cities-Tarnow.pnt-converted.txt)"/>
  </node>
  <node id="577441179" version="3" timestamp="2010-04-11T13:17:19Z" uid="20587" user="balrog-kun" changeset="4392352" lat="50.2969519" lon="20.6799782">
    <tag k="name" v="Kocina"/>
    <tag k="place" v="village"/>
    <tag k="source" v="http://ump.waw.pl/ retrieved 11:18:52 11/17/09 (UMP-Tarnow/src/cities-Tarnow.pnt-converted.txt)"/>
  </node>
  <node id="577441205" version="2" timestamp="2010-04-11T04:53:37Z" uid="20587" user="balrog-kun" changeset="4389130" lat="50.27554" lon="20.70464">
    <tag k="name" v="Ksany"/>
    <tag k="place" v="village"/>
    <tag k="source" v="http://ump.waw.pl/ retrieved 11:18:52 11/17/09 (UMP-Tarnow/src/cities-Tarnow.pnt-converted.txt)"/>
  </node>
  <node id="577441205" version="3" timestamp="2010-04-11T13:17:19Z" uid="20587" user="balrog-kun" changeset="4392352" lat="50.27554" lon="20.70464">
    <tag k="name" v="Ksany"/>
    <tag k="place" v="village"/>
    <tag k="source" v="http://ump.waw.pl/ retrieved 11:18:52 11/17/09 (UMP-Tarnow/src/cities-Tarnow.pnt-converted.txt)"/>
  </node>
  <node id="577441205" version="4" timestamp="2010-04-27T03:57:38Z" uid="30632" user="antblant" changeset="4537850" lat="50.27554" lon="20.70464">
    <tag k="name" v="Ksany"/>
    <tag k="place" v="village"/>
    <tag k="source" v="http://ump.waw.pl/ retrieved 11:18:52 11/17/09 (UMP-Tarnow/src/cities-Tarnow.pnt-converted.txt)"/>
    <tag k="teryt:simc" v="0257874"/>
  </node>
  <node id="577441231" version="2" timestamp="2010-04-11T04:53:37Z" uid="20587" user="balrog-kun" changeset="4389130" lat="50.29429" lon="20.73203">
    <tag k="name" v="Żukowice"/>
    <tag k="place" v="village"/>
    <tag k="source" v="http://ump.waw.pl/ retrieved 11:18:52 11/17/09 (UMP-Tarnow/src/cities-Tarnow.pnt-converted.txt)"/>
  </node>
  <node id="577441231" version="3" timestamp="2010-04-11T13:17:19Z" uid="20587" user="balrog-kun" changeset="4392352" lat="50.29429" lon="20.73203">
    <tag k="name" v="Żukowice"/>
    <tag k="place" v="village"/>
    <tag k="source" v="http://ump.waw.pl/ retrieved 11:18:52 11/17/09 (UMP-Tarnow/src/cities-Tarnow.pnt-converted.txt)"/>
  </node>
  <node id="577441260" version="2" timestamp="2010-04-11T04:53:37Z" uid="20587" user="balrog-kun" changeset="4389130" lat="50.30351" lon="20.70988">
    <tag k="name" v="Czarkowy"/>
    <tag k="place" v="village"/>
    <tag k="source" v="http://ump.waw.pl/ retrieved 11:18:52 11/17/09 (UMP-Tarnow/src/cities-Tarnow.pnt-converted.txt)"/>
  </node>
  <node id="577441260" version="3" timestamp="2010-04-11T13:17:19Z" uid="20587" user="balrog-kun" changeset="4392352" lat="50.30351" lon="20.70988">
    <tag k="name" v="Czarkowy"/>
    <tag k="place" v="village"/>
    <tag k="source" v="http://ump.waw.pl/ retrieved 11:18:52 11/17/09 (UMP-Tarnow/src/cities-Tarnow.pnt-converted.txt)"/>
  </node>
  <node id="577441260" version="4" timestamp="2010-04-27T03:58:00Z" uid="30632" user="antblant" changeset="4537850" lat="50.30351" lon="20.70988">
    <tag k="name" v="Czarkowy"/>
    <tag k="place" v="village"/>
    <tag k="source" v="http://ump.waw.pl/ retrieved 11:18:52 11/17/09 (UMP-Tarnow/src/cities-Tarnow.pnt-converted.txt)"/>
    <tag k="teryt:simc" v="0256018"/>
  </node>
  <node id="577441290" version="2" timestamp="2010-04-11T04:53:37Z" uid="20587" user="balrog-kun" changeset="4389130" lat="50.3188386" lon="20.6730953">
    <tag k="name" v="Ostrów"/>
    <tag k="place" v="village"/>
    <tag k="source" v="http://ump.waw.pl/ retrieved 11:18:52 11/17/09 (UMP-Tarnow/src/cities-Tarnow.pnt-converted.txt)"/>
  </node>
  <node id="577441290" version="3" timestamp="2010-04-11T13:17:19Z" uid="20587" user="balrog-kun" changeset="4392352" lat="50.3182337" lon="20.6732562">
    <tag k="name" v="Ostrów"/>
    <tag k="place" v="village"/>
    <tag k="source" v="http://ump.waw.pl/ retrieved 11:18:52 11/17/09 (UMP-Tarnow/src/cities-Tarnow.pnt-converted.txt)"/>
  </node>
  <node id="577441297" version="2" timestamp="2010-04-11T04:53:37Z" uid="20587" user="balrog-kun" changeset="4389130" lat="50.3316671" lon="20.6643083">
    <tag k="name" v="Kuchary"/>
    <tag k="place" v="village"/>
    <tag k="source" v="http://ump.waw.pl/ retrieved 11:18:52 11/17/09 (UMP-Tarnow/src/cities-Tarnow.pnt-converted.txt)"/>
  </node>
  <node id="577441297" version="3" timestamp="2010-04-11T13:17:19Z" uid="20587" user="balrog-kun" changeset="4392352" lat="50.3318716" lon="20.6641619">
    <tag k="name" v="Kuchary"/>
    <tag k="place" v="village"/>
    <tag k="source" v="http://ump.waw.pl/ retrieved 11:18:52 11/17/09 (UMP-Tarnow/src/cities-Tarnow.pnt-converted.txt)"/>
  </node>
  <node id="577441299" version="2" timestamp="2010-04-11T04:53:38Z" uid="20587" user="balrog-kun" changeset="4389130" lat="50.32136" lon="20.71649">
    <tag k="name" v="Szczytniki"/>
    <tag k="place" v="village"/>
    <tag k="source" v="http://ump.waw.pl/ retrieved 11:18:52 11/17/09 (UMP-Tarnow/src/cities-Tarnow.pnt-converted.txt)"/>
  </node>
  <node id="577441299" version="3" timestamp="2010-04-11T13:17:19Z" uid="20587" user="balrog-kun" changeset="4392352" lat="50.32136" lon="20.71649">
    <tag k="name" v="Szczytniki"/>
    <tag k="place" v="village"/>
    <tag k="source" v="http://ump.waw.pl/ retrieved 11:18:52 11/17/09 (UMP-Tarnow/src/cities-Tarnow.pnt-converted.txt)"/>
  </node>
  <node id="577441310" version="2" timestamp="2010-04-11T04:53:38Z" uid="20587" user="balrog-kun" changeset="4389130" lat="50.27639" lon="20.75124">
    <tag k="name" v="Senisławice"/>
    <tag k="place" v="village"/>
    <tag k="source" v="http://ump.waw.pl/ retrieved 11:18:52 11/17/09 (UMP-Tarnow/src/cities-Tarnow.pnt-converted.txt)"/>
  </node>
  <node id="577441310" version="3" timestamp="2010-04-11T13:17:19Z" uid="20587" user="balrog-kun" changeset="4392352" lat="50.27639" lon="20.75124">
    <tag k="name" v="Senisławice"/>
    <tag k="place" v="village"/>
    <tag k="source" v="http://ump.waw.pl/ retrieved 11:18:52 11/17/09 (UMP-Tarnow/src/cities-Tarnow.pnt-converted.txt)"/>
  </node>
  <node id="577441310" version="4" timestamp="2010-04-27T04:13:46Z" uid="30632" user="antblant" changeset="4537892" lat="50.27639" lon="20.75124">
    <tag k="name" v="Senisławice"/>
    <tag k="place" v="village"/>
    <tag k="source" v="http://ump.waw.pl/ retrieved 11:18:52 11/17/09 (UMP-Tarnow/src/cities-Tarnow.pnt-converted.txt)"/>
    <tag k="teryt:simc" v="0258069"/>
  </node>
  <node id="577441325" version="2" timestamp="2010-04-11T04:53:38Z" uid="20587" user="balrog-kun" changeset="4389130" lat="50.29381" lon="20.75756">
    <tag k="name" v="Stary Korczyn"/>
    <tag k="place" v="village"/>
    <tag k="source" v="http://ump.waw.pl/ retrieved 11:18:52 11/17/09 (UMP-Tarnow/src/cities-Tarnow.pnt-converted.txt)"/>
  </node>
  <node id="577441325" version="3" timestamp="2010-04-11T13:17:19Z" uid="20587" user="balrog-kun" changeset="4392352" lat="50.29381" lon="20.75756">
    <tag k="name" v="Stary Korczyn"/>
    <tag k="place" v="village"/>
    <tag k="source" v="http://ump.waw.pl/ retrieved 11:18:52 11/17/09 (UMP-Tarnow/src/cities-Tarnow.pnt-converted.txt)"/>
  </node>
  <node id="577441325" version="4" timestamp="2010-04-27T04:04:13Z" uid="30632" user="antblant" changeset="4537867" lat="50.29381" lon="20.75756">
    <tag k="name" v="Stary Korczyn"/>
    <tag k="place" v="village"/>
    <tag k="source" v="http://ump.waw.pl/ retrieved 11:18:52 11/17/09 (UMP-Tarnow/src/cities-Tarnow.pnt-converted.txt)"/>
    <tag k="teryt:simc" v="0256308"/>
  </node>
  <node id="577441345" version="2" timestamp="2010-04-11T04:53:38Z" uid="20587" user="balrog-kun" changeset="4389130" lat="50.2888" lon="20.77141">
    <tag k="name" v="Winiary"/>
    <tag k="place" v="village"/>
    <tag k="source" v="http://ump.waw.pl/ retrieved 11:18:52 11/17/09 (UMP-Tarnow/src/cities-Tarnow.pnt-converted.txt)"/>
  </node>
  <node id="577441345" version="3" timestamp="2010-04-11T13:17:19Z" uid="20587" user="balrog-kun" changeset="4392352" lat="50.2888" lon="20.77141">
    <tag k="name" v="Winiary"/>
    <tag k="place" v="village"/>
    <tag k="source" v="http://ump.waw.pl/ retrieved 11:18:52 11/17/09 (UMP-Tarnow/src/cities-Tarnow.pnt-converted.txt)"/>
  </node>
  <node id="577441355" version="2" timestamp="2010-04-11T04:53:38Z" uid="20587" user="balrog-kun" changeset="4389130" lat="50.28986" lon="20.78185">
    <tag k="name" v="Winiary Dolne"/>
    <tag k="place" v="village"/>
    <tag k="source" v="http://ump.waw.pl/ retrieved 11:18:52 11/17/09 (UMP-Tarnow/src/cities-Tarnow.pnt-converted.txt)"/>
  </node>
  <node id="577441355" version="3" timestamp="2010-04-11T13:17:20Z" uid="20587" user="balrog-kun" changeset="4392352" lat="50.28986" lon="20.78185">
    <tag k="name" v="Winiary Dolne"/>
    <tag k="place" v="village"/>
    <tag k="source" v="http://ump.waw.pl/ retrieved 11:18:52 11/17/09 (UMP-Tarnow/src/cities-Tarnow.pnt-converted.txt)"/>
  </node>
  <node id="577441355" version="4" timestamp="2010-04-27T04:14:00Z" uid="30632" user="antblant" changeset="4537892" lat="50.28986" lon="20.78185">
    <tag k="name" v="Winiary Dolne"/>
    <tag k="place" v="village"/>
    <tag k="source" v="http://ump.waw.pl/ retrieved 11:18:52 11/17/09 (UMP-Tarnow/src/cities-Tarnow.pnt-converted.txt)"/>
    <tag k="teryt:simc" v="0256350"/>
  </node>
  <node id="577441392" version="2" timestamp="2010-04-11T04:53:38Z" uid="20587" user="balrog-kun" changeset="4389130" lat="50.27657" lon="20.80072">
    <tag k="name" v="Borusowa"/>
    <tag k="place" v="village"/>
    <tag k="source" v="http://ump.waw.pl/ retrieved 11:18:52 11/17/09 (UMP-Tarnow/src/cities-Tarnow.pnt-converted.txt)"/>
  </node>
  <node id="577441392" version="3" timestamp="2010-04-11T13:17:20Z" uid="20587" user="balrog-kun" changeset="4392352" lat="50.27657" lon="20.80072">
    <tag k="name" v="Borusowa"/>
    <tag k="place" v="village"/>
    <tag k="source" v="http://ump.waw.pl/ retrieved 11:18:52 11/17/09 (UMP-Tarnow/src/cities-Tarnow.pnt-converted.txt)"/>
  </node>
  <node id="577441392" version="4" timestamp="2010-04-27T04:18:57Z" uid="30632" user="antblant" changeset="4537909" lat="50.27657" lon="20.80072">
    <tag k="name" v="Borusowa"/>
    <tag k="place" v="village"/>
    <tag k="source" v="http://ump.waw.pl/ retrieved 11:18:52 11/17/09 (UMP-Tarnow/src/cities-Tarnow.pnt-converted.txt)"/>
    <tag k="teryt:simc" v="0820045"/>
  </node>
  <node id="577441450" version="2" timestamp="2010-04-11T04:53:38Z" uid="20587" user="balrog-kun" changeset="4389130" lat="50.2953081" lon="20.8226746">
    <tag k="name" v="Podzamcze"/>
    <tag k="place" v="village"/>
    <tag k="source" v="http://ump.waw.pl/ retrieved 11:18:52 11/17/09 (UMP-Tarnow/src/cities-Tarnow.pnt-converted.txt)"/>
  </node>
  <node id="577441450" version="3" timestamp="2010-04-11T13:17:20Z" uid="20587" user="balrog-kun" changeset="4392352" lat="50.2954187" lon="20.8214851">
    <tag k="name" v="Podzamcze"/>
    <tag k="place" v="village"/>
    <tag k="source" v="http://ump.waw.pl/ retrieved 11:18:52 11/17/09 (UMP-Tarnow/src/cities-Tarnow.pnt-converted.txt)"/>
  </node>
  <node id="577441457" version="2" timestamp="2010-04-11T04:53:38Z" uid="20587" user="balrog-kun" changeset="4389130" lat="50.3298014" lon="20.7807872">
    <tag k="name" v="Przymiarki"/>
    <tag k="place" v="village"/>
    <tag k="source" v="http://ump.waw.pl/ retrieved 11:18:52 11/17/09 (UMP-Tarnow/src/cities-Tarnow.pnt-converted.txt)"/>
  </node>
  <node id="577441457" version="3" timestamp="2010-04-11T13:17:20Z" uid="20587" user="balrog-kun" changeset="4392352" lat="50.3297849" lon="20.7792688">
    <tag k="name" v="Przymiarki"/>
    <tag k="place" v="village"/>
    <tag k="source" v="http://ump.waw.pl/ retrieved 11:18:52 11/17/09 (UMP-Tarnow/src/cities-Tarnow.pnt-converted.txt)"/>
  </node>
  <node id="577441472" version="2" timestamp="2010-04-11T04:53:38Z" uid="20587" user="balrog-kun" changeset="4389130" lat="50.2892478" lon="20.8313906">
    <tag k="name" v="Łęka"/>
    <tag k="place" v="village"/>
    <tag k="source" v="http://ump.waw.pl/ retrieved 11:18:52 11/17/09 (UMP-Tarnow/src/cities-Tarnow.pnt-converted.txt)"/>
  </node>
  <node id="577441472" version="3" timestamp="2010-04-11T13:17:20Z" uid="20587" user="balrog-kun" changeset="4392352" lat="50.2894054" lon="20.8322309">
    <tag k="name" v="Łęka"/>
    <tag k="place" v="village"/>
    <tag k="source" v="http://ump.waw.pl/ retrieved 11:18:52 11/17/09 (UMP-Tarnow/src/cities-Tarnow.pnt-converted.txt)"/>
  </node>
  <node id="577441496" version="2" timestamp="2010-04-11T04:53:38Z" uid="20587" user="balrog-kun" changeset="4389130" lat="50.2916974" lon="20.8407186">
    <tag k="name" v="Podraje"/>
    <tag k="place" v="village"/>
    <tag k="source" v="http://ump.waw.pl/ retrieved 11:18:52 11/17/09 (UMP-Tarnow/src/cities-Tarnow.pnt-converted.txt)"/>
  </node>
  <node id="577441496" version="3" timestamp="2010-04-11T13:17:20Z" uid="20587" user="balrog-kun" changeset="4392352" lat="50.2927034" lon="20.8420637">
    <tag k="name" v="Podraje"/>
    <tag k="place" v="village"/>
    <tag k="source" v="http://ump.waw.pl/ retrieved 11:18:52 11/17/09 (UMP-Tarnow/src/cities-Tarnow.pnt-converted.txt)"/>
  </node>
  <node id="577441496" version="4" timestamp="2010-04-27T04:12:23Z" uid="30632" user="antblant" changeset="4537887" lat="50.2927034" lon="20.8420637">
    <tag k="name" v="Podraje"/>
    <tag k="place" v="village"/>
    <tag k="source" v="http://ump.waw.pl/ retrieved 11:18:52 11/17/09 (UMP-Tarnow/src/cities-Tarnow.pnt-converted.txt)"/>
    <tag k="teryt:simc" v="0256248"/>
  </node>
  <node id="577441525" version="2" timestamp="2010-04-11T04:53:38Z" uid="20587" user="balrog-kun" changeset="4389130" lat="50.28189" lon="20.87169">
    <tag k="name" v="Kanna"/>
    <tag k="place" v="village"/>
    <tag k="source" v="http://ump.waw.pl/ retrieved 11:18:52 11/17/09 (UMP-Tarnow/src/cities-Tarnow.pnt-converted.txt)"/>
  </node>
  <node id="577441525" version="3" timestamp="2010-04-11T13:17:20Z" uid="20587" user="balrog-kun" changeset="4392352" lat="50.28189" lon="20.87169">
    <tag k="name" v="Kanna"/>
    <tag k="place" v="village"/>
    <tag k="source" v="http://ump.waw.pl/ retrieved 11:18:52 11/17/09 (UMP-Tarnow/src/cities-Tarnow.pnt-converted.txt)"/>
  </node>
  <node id="577441525" version="4" timestamp="2010-04-27T03:59:50Z" uid="30632" user="antblant" changeset="4537857" lat="50.28189" lon="20.87169">
    <tag k="name" v="Kanna"/>
    <tag k="place" v="village"/>
    <tag k="source" v="http://ump.waw.pl/ retrieved 11:18:52 11/17/09 (UMP-Tarnow/src/cities-Tarnow.pnt-converted.txt)"/>
    <tag k="teryt:simc" v="0813111"/>
  </node>
  <node id="577441618" version="2" timestamp="2010-04-11T04:53:38Z" uid="20587" user="balrog-kun" changeset="4389130" lat="50.297553" lon="20.886957">
    <tag k="name" v="Pawlow"/>
    <tag k="place" v="village"/>
    <tag k="source" v="http://ump.waw.pl/ retrieved 11:18:52 11/17/09 (UMP-Tarnow/src/cities-Tarnow.pnt-converted.txt)"/>
  </node>
  <node id="577441618" version="3" timestamp="2010-04-11T13:17:20Z" uid="20587" user="balrog-kun" changeset="4392352" lat="50.29155" lon="20.88909">
    <tag k="name" v="Pawlow"/>
    <tag k="place" v="village"/>
    <tag k="source" v="http://ump.waw.pl/ retrieved 11:18:52 11/17/09 (UMP-Tarnow/src/cities-Tarnow.pnt-converted.txt)"/>
  </node>
  <node id="577441639" version="2" timestamp="2010-04-11T04:53:38Z" uid="20587" user="balrog-kun" changeset="4389130" lat="50.27447" lon="20.89882">
    <tag k="name" v="Bolesław"/>
    <tag k="place" v="village"/>
    <tag k="source" v="http://ump.waw.pl/ retrieved 11:18:52 11/17/09 (UMP-Tarnow/src/cities-Tarnow.pnt-converted.txt)"/>
  </node>
  <node id="577441639" version="3" timestamp="2010-04-11T13:17:20Z" uid="20587" user="balrog-kun" changeset="4392352" lat="50.27447" lon="20.89882">
    <tag k="name" v="Bolesław"/>
    <tag k="place" v="village"/>
    <tag k="source" v="http://ump.waw.pl/ retrieved 11:18:52 11/17/09 (UMP-Tarnow/src/cities-Tarnow.pnt-converted.txt)"/>
  </node>
  <node id="577441687" version="2" timestamp="2010-04-11T04:53:38Z" uid="20587" user="balrog-kun" changeset="4389130" lat="50.29014" lon="20.91602">
    <tag k="name" v="Tonia"/>
    <tag k="place" v="village"/>
    <tag k="source" v="http://ump.waw.pl/ retrieved 11:18:52 11/17/09 (UMP-Tarnow/src/cities-Tarnow.pnt-converted.txt)"/>
  </node>
  <node id="577441687" version="3" timestamp="2010-04-11T13:17:20Z" uid="20587" user="balrog-kun" changeset="4392352" lat="50.29014" lon="20.91602">
    <tag k="name" v="Tonia"/>
    <tag k="place" v="village"/>
    <tag k="source" v="http://ump.waw.pl/ retrieved 11:18:52 11/17/09 (UMP-Tarnow/src/cities-Tarnow.pnt-converted.txt)"/>
  </node>
  <node id="577441699" version="2" timestamp="2010-04-11T04:53:38Z" uid="20587" user="balrog-kun" changeset="4389130" lat="50.3109154" lon="20.8785114">
    <tag k="name" v="Pawłów"/>
    <tag k="place" v="village"/>
    <tag k="source" v="http://ump.waw.pl/ retrieved 11:18:52 11/17/09 (UMP-Tarnow/src/cities-Tarnow.pnt-converted.txt)"/>
  </node>
  <node id="577441699" version="3" timestamp="2010-04-11T13:17:20Z" uid="20587" user="balrog-kun" changeset="4392352" lat="50.3106392" lon="20.8770249">
    <tag k="name" v="Pawłów"/>
    <tag k="place" v="village"/>
    <tag k="source" v="http://ump.waw.pl/ retrieved 11:18:52 11/17/09 (UMP-Tarnow/src/cities-Tarnow.pnt-converted.txt)"/>
  </node>
  <node id="577441701" version="2" timestamp="2010-04-11T04:53:38Z" uid="20587" user="balrog-kun" changeset="4389130" lat="50.298" lon="20.89678">
    <tag k="name" v="Stroców"/>
    <tag k="place" v="village"/>
    <tag k="source" v="http://ump.waw.pl/ retrieved 11:18:52 11/17/09 (UMP-Tarnow/src/cities-Tarnow.pnt-converted.txt)"/>
  </node>
  <node id="577441701" version="3" timestamp="2010-04-11T13:17:20Z" uid="20587" user="balrog-kun" changeset="4392352" lat="50.298" lon="20.89678">
    <tag k="name" v="Stroców"/>
    <tag k="place" v="village"/>
    <tag k="source" v="http://ump.waw.pl/ retrieved 11:18:52 11/17/09 (UMP-Tarnow/src/cities-Tarnow.pnt-converted.txt)"/>
  </node>
  <node id="577441710" version="2" timestamp="2010-04-11T04:53:38Z" uid="20587" user="balrog-kun" changeset="4389130" lat="50.3149" lon="20.89929">
    <tag k="name" v="Brzostków"/>
    <tag k="place" v="village"/>
    <tag k="source" v="http://ump.waw.pl/ retrieved 11:18:52 11/17/09 (UMP-Tarnow/src/cities-Tarnow.pnt-converted.txt)"/>
  </node>
  <node id="577441710" version="3" timestamp="2010-04-11T13:17:20Z" uid="20587" user="balrog-kun" changeset="4392352" lat="50.3149" lon="20.89929">
    <tag k="name" v="Brzostków"/>
    <tag k="place" v="village"/>
    <tag k="source" v="http://ump.waw.pl/ retrieved 11:18:52 11/17/09 (UMP-Tarnow/src/cities-Tarnow.pnt-converted.txt)"/>
  </node>
  <node id="577441719" version="2" timestamp="2010-04-11T04:53:39Z" uid="20587" user="balrog-kun" changeset="4389130" lat="50.3222927" lon="20.8519111">
    <tag k="name" v="Górnowola"/>
    <tag k="place" v="village"/>
    <tag k="source" v="http://ump.waw.pl/ retrieved 11:18:52 11/17/09 (UMP-Tarnow/src/cities-Tarnow.pnt-converted.txt)"/>
  </node>
  <node id="577441719" version="3" timestamp="2010-04-11T13:17:20Z" uid="20587" user="balrog-kun" changeset="4392352" lat="50.3226195" lon="20.8518087">
    <tag k="name" v="Górnowola"/>
    <tag k="place" v="village"/>
    <tag k="source" v="http://ump.waw.pl/ retrieved 11:18:52 11/17/09 (UMP-Tarnow/src/cities-Tarnow.pnt-converted.txt)"/>
  </node>
  <node id="577441719" version="4" timestamp="2010-04-27T03:59:34Z" uid="30632" user="antblant" changeset="4537857" lat="50.3226195" lon="20.8518087">
    <tag k="name" v="Górnowola"/>
    <tag k="place" v="village"/>
    <tag k="source" v="http://ump.waw.pl/ retrieved 11:18:52 11/17/09 (UMP-Tarnow/src/cities-Tarnow.pnt-converted.txt)"/>
    <tag k="teryt:simc" v="0256024"/>
  </node>
  <node id="577441721" version="2" timestamp="2010-04-11T04:53:39Z" uid="20587" user="balrog-kun" changeset="4389130" lat="50.32995" lon="20.83445">
    <tag k="name" v="Piotrówka"/>
    <tag k="place" v="village"/>
    <tag k="source" v="http://ump.waw.pl/ retrieved 11:18:52 11/17/09 (UMP-Tarnow/src/cities-Tarnow.pnt-converted.txt)"/>
  </node>
  <node id="577441721" version="3" timestamp="2010-04-11T13:17:20Z" uid="20587" user="balrog-kun" changeset="4392352" lat="50.32995" lon="20.83445">
    <tag k="name" v="Piotrówka"/>
    <tag k="place" v="village"/>
    <tag k="source" v="http://ump.waw.pl/ retrieved 11:18:52 11/17/09 (UMP-Tarnow/src/cities-Tarnow.pnt-converted.txt)"/>
  </node>
  <node id="577441811" version="3" timestamp="2010-04-11T04:53:39Z" uid="20587" user="balrog-kun" changeset="4389130" lat="50.28198" lon="20.9463399">
    <tag k="name" v="Mędrzechów"/>
    <tag k="place" v="village"/>
    <tag k="source" v="http://ump.waw.pl/ retrieved 11:18:52 11/17/09 (UMP-Tarnow/src/cities-Tarnow.pnt-converted.txt)"/>
  </node>
  <node id="577441811" version="4" timestamp="2010-04-27T04:05:54Z" uid="30632" user="antblant" changeset="4537871" lat="50.28198" lon="20.9463399">
    <tag k="name" v="Mędrzechów"/>
    <tag k="place" v="village"/>
    <tag k="source" v="http://ump.waw.pl/ retrieved 11:18:52 11/17/09 (UMP-Tarnow/src/cities-Tarnow.pnt-converted.txt)"/>
    <tag k="teryt:simc" v="0824149"/>
  </node>
  <node id="577441870" version="2" timestamp="2010-04-11T04:53:39Z" uid="20587" user="balrog-kun" changeset="4389130" lat="50.30481" lon="20.95737">
    <tag k="name" v="Kupienin"/>
    <tag k="place" v="village"/>
    <tag k="source" v="http://ump.waw.pl/ retrieved 11:18:52 11/17/09 (UMP-Tarnow/src/cities-Tarnow.pnt-converted.txt)"/>
  </node>
  <node id="577441870" version="3" timestamp="2010-04-11T13:17:20Z" uid="20587" user="balrog-kun" changeset="4392352" lat="50.30481" lon="20.95737">
    <tag k="name" v="Kupienin"/>
    <tag k="place" v="village"/>
    <tag k="source" v="http://ump.waw.pl/ retrieved 11:18:52 11/17/09 (UMP-Tarnow/src/cities-Tarnow.pnt-converted.txt)"/>
  </node>
  <node id="577441870" version="4" timestamp="2010-04-27T04:04:35Z" uid="30632" user="antblant" changeset="4537867" lat="50.30481" lon="20.95737">
    <tag k="name" v="Kupienin"/>
    <tag k="place" v="village"/>
    <tag k="source" v="http://ump.waw.pl/ retrieved 11:18:52 11/17/09 (UMP-Tarnow/src/cities-Tarnow.pnt-converted.txt)"/>
    <tag k="teryt:simc" v="0824103"/>
  </node>
  <node id="577442055" version="2" timestamp="2010-04-27T04:09:21Z" uid="30632" user="antblant" changeset="4537879" lat="50.2999147" lon="21.0109326">
    <tag k="name" v="Dalestowice"/>
    <tag k="place" v="village"/>
    <tag k="source" v="http://ump.waw.pl/ retrieved 11:18:52 11/17/09 (UMP-Tarnow/src/cities-Tarnow.pnt-converted.txt)"/>
    <tag k="teryt:simc" v="0830598"/>
  </node>
  <node id="577442134" version="2" timestamp="2010-04-11T04:53:39Z" uid="20587" user="balrog-kun" changeset="4389130" lat="50.30288" lon="21.04912">
    <tag k="name" v="Lubasz"/>
    <tag k="place" v="village"/>
    <tag k="source" v="http://ump.waw.pl/ retrieved 11:18:52 11/17/09 (UMP-Tarnow/src/cities-Tarnow.pnt-converted.txt)"/>
  </node>
  <node id="577442134" version="3" timestamp="2010-04-11T13:17:20Z" uid="20587" user="balrog-kun" changeset="4392352" lat="50.30288" lon="21.04912">
    <tag k="name" v="Lubasz"/>
    <tag k="place" v="village"/>
    <tag k="source" v="http://ump.waw.pl/ retrieved 11:18:52 11/17/09 (UMP-Tarnow/src/cities-Tarnow.pnt-converted.txt)"/>
  </node>
  <node id="577442159" version="2" timestamp="2010-04-11T04:53:39Z" uid="20587" user="balrog-kun" changeset="4389130" lat="50.27949" lon="21.05028">
    <tag k="name" v="Skrzynka"/>
    <tag k="place" v="village"/>
    <tag k="source" v="http://ump.waw.pl/ retrieved 11:18:52 11/17/09 (UMP-Tarnow/src/cities-Tarnow.pnt-converted.txt)"/>
  </node>
  <node id="577442159" version="3" timestamp="2010-04-11T13:17:21Z" uid="20587" user="balrog-kun" changeset="4392352" lat="50.27949" lon="21.05028">
    <tag k="name" v="Skrzynka"/>
    <tag k="place" v="village"/>
    <tag k="source" v="http://ump.waw.pl/ retrieved 11:18:52 11/17/09 (UMP-Tarnow/src/cities-Tarnow.pnt-converted.txt)"/>
  </node>
  <node id="577442461" version="3" timestamp="2010-04-11T04:53:39Z" uid="20587" user="balrog-kun" changeset="4389130" lat="50.3079801" lon="21.0733599">
    <tag k="name" v="Szczucin"/>
    <tag k="place" v="town"/>
    <tag k="source" v="http://ump.waw.pl/ retrieved 11:18:52 11/17/09 (UMP-Tarnow/src/cities-Tarnow.pnt-converted.txt)"/>
  </node>
  <node id="577442461" version="4" timestamp="2010-04-27T03:56:04Z" uid="30632" user="antblant" changeset="4537843" lat="50.3079801" lon="21.0733599">
    <tag k="name" v="Szczucin"/>
    <tag k="place" v="town"/>
    <tag k="source" v="http://ump.waw.pl/ retrieved 11:18:52 11/17/09 (UMP-Tarnow/src/cities-Tarnow.pnt-converted.txt)"/>
    <tag k="teryt:simc" v="0831149"/>
  </node>
  <node id="577443084" version="3" timestamp="2010-04-11T04:53:39Z" uid="20587" user="balrog-kun" changeset="4389130" lat="50.0756398" lon="21.2250536">
    <tag k="name" v="Stary Jawornik"/>
    <tag k="place" v="village"/>
    <tag k="source" v="http://ump.waw.pl/ retrieved 11:18:52 11/17/09 (UMP-Tarnow/src/cities-Tarnow.pnt-converted.txt)"/>
  </node>
  <node id="577443084" version="4" timestamp="2010-04-11T13:17:21Z" uid="20587" user="balrog-kun" changeset="4392352" lat="50.0754768" lon="21.2252694">
    <tag k="name" v="Stary Jawornik"/>
    <tag k="place" v="village"/>
    <tag k="source" v="http://ump.waw.pl/ retrieved 11:18:52 11/17/09 (UMP-Tarnow/src/cities-Tarnow.pnt-converted.txt)"/>
  </node>
  <node id="577443084" version="5" timestamp="2010-04-27T04:12:35Z" uid="30632" user="antblant" changeset="4537887" lat="50.0754768" lon="21.2252694">
    <tag k="name" v="Stary Jawornik"/>
    <tag k="place" v="village"/>
    <tag k="source" v="http://ump.waw.pl/ retrieved 11:18:52 11/17/09 (UMP-Tarnow/src/cities-Tarnow.pnt-converted.txt)"/>
    <tag k="teryt:simc" v="0816598"/>
  </node>
  <node id="577443299" version="2" timestamp="2010-04-11T04:53:39Z" uid="20587" user="balrog-kun" changeset="4389130" lat="50.0914529" lon="21.246089">
    <tag k="name" v="Jaźwiny"/>
    <tag k="place" v="village"/>
    <tag k="source" v="http://ump.waw.pl/ retrieved 11:18:52 11/17/09 (UMP-Tarnow/src/cities-Tarnow.pnt-converted.txt)"/>
  </node>
  <node id="577443299" version="3" timestamp="2010-04-11T13:17:21Z" uid="20587" user="balrog-kun" changeset="4392352" lat="50.0921399" lon="21.2453385">
    <tag k="name" v="Jaźwiny"/>
    <tag k="place" v="village"/>
    <tag k="source" v="http://ump.waw.pl/ retrieved 11:18:52 11/17/09 (UMP-Tarnow/src/cities-Tarnow.pnt-converted.txt)"/>
  </node>
  <node id="577443530" version="2" timestamp="2010-04-11T04:53:39Z" uid="20587" user="balrog-kun" changeset="4389130" lat="50.08918" lon="21.28576">
    <tag k="name" v="Borowa"/>
    <tag k="place" v="village"/>
    <tag k="source" v="http://ump.waw.pl/ retrieved 11:18:52 11/17/09 (UMP-Tarnow/src/cities-Tarnow.pnt-converted.txt)"/>
  </node>
  <node id="577443530" version="3" timestamp="2010-04-11T13:17:21Z" uid="20587" user="balrog-kun" changeset="4392352" lat="50.08918" lon="21.28576">
    <tag k="name" v="Borowa"/>
    <tag k="place" v="village"/>
    <tag k="source" v="http://ump.waw.pl/ retrieved 11:18:52 11/17/09 (UMP-Tarnow/src/cities-Tarnow.pnt-converted.txt)"/>
  </node>
  <node id="577443798" version="2" timestamp="2010-04-11T04:53:39Z" uid="20587" user="balrog-kun" changeset="4389130" lat="50.1403486" lon="21.0970222">
    <tag k="name" v="Luszowice"/>
    <tag k="place" v="town"/>
    <tag k="source" v="http://ump.waw.pl/ retrieved 11:18:52 11/17/09 (UMP-Tarnow/src/cities-Tarnow.pnt-converted.txt)"/>
  </node>
  <node id="577443798" version="3" timestamp="2010-04-11T13:17:21Z" uid="20587" user="balrog-kun" changeset="4392352" lat="50.136298" lon="21.0950775">
    <tag k="name" v="Luszowice"/>
    <tag k="place" v="town"/>
    <tag k="source" v="http://ump.waw.pl/ retrieved 11:18:52 11/17/09 (UMP-Tarnow/src/cities-Tarnow.pnt-converted.txt)"/>
  </node>
  <node id="577443798" version="4" timestamp="2012-02-26T13:33:18Z" uid="91056" user="Yarl" changeset="10798194" lat="50.136298" lon="21.0950775">
    <tag k="name" v="Luszowice"/>
    <tag k="place" v="village"/>
    <tag k="source" v="http://ump.waw.pl/ retrieved 11:18:52 11/17/09 (UMP-Tarnow/src/cities-Tarnow.pnt-converted.txt)"/>
  </node>
  <node id="577443904" version="2" timestamp="2010-04-11T04:53:39Z" uid="20587" user="balrog-kun" changeset="4389130" lat="50.14001" lon="21.13195">
    <tag k="name" v="Smyków"/>
    <tag k="place" v="village"/>
    <tag k="source" v="http://ump.waw.pl/ retrieved 11:18:52 11/17/09 (UMP-Tarnow/src/cities-Tarnow.pnt-converted.txt)"/>
  </node>
  <node id="577443904" version="3" timestamp="2010-04-11T13:17:21Z" uid="20587" user="balrog-kun" changeset="4392352" lat="50.14001" lon="21.13195">
    <tag k="name" v="Smyków"/>
    <tag k="place" v="village"/>
    <tag k="source" v="http://ump.waw.pl/ retrieved 11:18:52 11/17/09 (UMP-Tarnow/src/cities-Tarnow.pnt-converted.txt)"/>
  </node>
  <node id="577444256" version="2" timestamp="2010-04-11T04:53:39Z" uid="20587" user="balrog-kun" changeset="4389130" lat="50.17486" lon="21.10611">
    <tag k="name" v="Świerza"/>
    <tag k="place" v="village"/>
  </node>
  <node id="577444256" version="3" timestamp="2010-04-11T13:17:21Z" uid="20587" user="balrog-kun" changeset="4392352" lat="50.17486" lon="21.10611">
    <tag k="name" v="Świerza"/>
    <tag k="place" v="village"/>
  </node>
  <node id="577444704" version="2" timestamp="2010-04-11T04:53:39Z" uid="20587" user="balrog-kun" changeset="4389130" lat="50.1190208" lon="21.2419542">
    <tag k="name" v="Stara Jastrząbka"/>
    <tag k="place" v="village"/>
    <tag k="source" v="http://ump.waw.pl/ retrieved 11:18:52 11/17/09 (UMP-Tarnow/src/cities-Tarnow.pnt-converted.txt)"/>
  </node>
  <node id="577444704" version="3" timestamp="2010-04-11T13:17:21Z" uid="20587" user="balrog-kun" changeset="4392352" lat="50.1203411" lon="21.2423546">
    <tag k="name" v="Stara Jastrząbka"/>
    <tag k="place" v="village"/>
    <tag k="source" v="http://ump.waw.pl/ retrieved 11:18:52 11/17/09 (UMP-Tarnow/src/cities-Tarnow.pnt-converted.txt)"/>
  </node>
  <node id="577444775" version="2" timestamp="2010-04-11T04:53:39Z" uid="20587" user="balrog-kun" changeset="4389130" lat="50.1368174" lon="21.2640812">
    <tag k="name" v="Przeryty Bór"/>
    <tag k="place" v="village"/>
    <tag k="source" v="http://ump.waw.pl/ retrieved 11:18:52 11/17/09 (UMP-Tarnow/src/cities-Tarnow.pnt-converted.txt)"/>
  </node>
  <node id="577444775" version="3" timestamp="2010-04-11T13:17:21Z" uid="20587" user="balrog-kun" changeset="4392352" lat="50.1357791" lon="21.2592774">
    <tag k="name" v="Przeryty Bór"/>
    <tag k="place" v="village"/>
    <tag k="source" v="http://ump.waw.pl/ retrieved 11:18:52 11/17/09 (UMP-Tarnow/src/cities-Tarnow.pnt-converted.txt)"/>
  </node>
  <node id="577444775" version="4" timestamp="2010-04-27T04:05:53Z" uid="30632" user="antblant" changeset="4537871" lat="50.1357791" lon="21.2592774">
    <tag k="name" v="Przeryty Bór"/>
    <tag k="place" v="village"/>
    <tag k="source" v="http://ump.waw.pl/ retrieved 11:18:52 11/17/09 (UMP-Tarnow/src/cities-Tarnow.pnt-converted.txt)"/>
    <tag k="teryt:simc" v="0816470"/>
  </node>
  <node id="577444812" version="2" timestamp="2010-04-11T04:53:40Z" uid="20587" user="balrog-kun" changeset="4389130" lat="50.1528875" lon="21.192342">
    <tag k="name" v="Janowiec"/>
    <tag k="place" v="village"/>
    <tag k="source" v="http://ump.waw.pl/ retrieved 11:18:52 11/17/09 (UMP-Tarnow/src/cities-Tarnow.pnt-converted.txt)"/>
  </node>
  <node id="577444812" version="3" timestamp="2010-04-11T13:17:22Z" uid="20587" user="balrog-kun" changeset="4392352" lat="50.1537178" lon="21.1926772">
    <tag k="name" v="Janowiec"/>
    <tag k="place" v="village"/>
    <tag k="source" v="http://ump.waw.pl/ retrieved 11:18:52 11/17/09 (UMP-Tarnow/src/cities-Tarnow.pnt-converted.txt)"/>
  </node>
  <node id="577444920" version="2" timestamp="2010-04-11T04:53:40Z" uid="20587" user="balrog-kun" changeset="4389130" lat="50.18228" lon="21.19151">
    <tag k="name" v="Podlesie"/>
    <tag k="place" v="village"/>
    <tag k="source" v="http://ump.waw.pl/ retrieved 11:18:52 11/17/09 (UMP-Tarnow/src/cities-Tarnow.pnt-converted.txt)"/>
  </node>
  <node id="577444920" version="3" timestamp="2010-04-11T13:17:22Z" uid="20587" user="balrog-kun" changeset="4392352" lat="50.18228" lon="21.19151">
    <tag k="name" v="Podlesie"/>
    <tag k="place" v="village"/>
    <tag k="source" v="http://ump.waw.pl/ retrieved 11:18:52 11/17/09 (UMP-Tarnow/src/cities-Tarnow.pnt-converted.txt)"/>
  </node>
  <node id="577445121" version="2" timestamp="2010-04-11T04:53:40Z" uid="20587" user="balrog-kun" changeset="4389130" lat="50.16855" lon="21.26447">
    <tag k="name" v="Zdziarzec"/>
    <tag k="place" v="village"/>
    <tag k="source" v="http://ump.waw.pl/ retrieved 11:18:52 11/17/09 (UMP-Tarnow/src/cities-Tarnow.pnt-converted.txt)"/>
  </node>
  <node id="577445121" version="3" timestamp="2010-04-11T13:17:22Z" uid="20587" user="balrog-kun" changeset="4392352" lat="50.16855" lon="21.26447">
    <tag k="name" v="Zdziarzec"/>
    <tag k="place" v="village"/>
    <tag k="source" v="http://ump.waw.pl/ retrieved 11:18:52 11/17/09 (UMP-Tarnow/src/cities-Tarnow.pnt-converted.txt)"/>
  </node>
  <node id="577445121" version="4" timestamp="2010-04-27T03:57:50Z" uid="30632" user="antblant" changeset="4537850" lat="50.16855" lon="21.26447">
    <tag k="name" v="Zdziarzec"/>
    <tag k="place" v="village"/>
    <tag k="source" v="http://ump.waw.pl/ retrieved 11:18:52 11/17/09 (UMP-Tarnow/src/cities-Tarnow.pnt-converted.txt)"/>
    <tag k="teryt:simc" v="0828638"/>
  </node>
  <node id="577445151" version="2" timestamp="2010-04-11T04:53:40Z" uid="20587" user="balrog-kun" changeset="4389130" lat="50.19572" lon="21.09577">
    <tag k="name" v="Zdzary"/>
    <tag k="place" v="village"/>
    <tag k="source" v="http://ump.waw.pl/ retrieved 11:18:52 11/17/09 (UMP-Tarnow/src/cities-Tarnow.pnt-converted.txt)"/>
  </node>
  <node id="577445151" version="3" timestamp="2010-04-11T13:17:22Z" uid="20587" user="balrog-kun" changeset="4392352" lat="50.19572" lon="21.09577">
    <tag k="name" v="Zdzary"/>
    <tag k="place" v="village"/>
    <tag k="source" v="http://ump.waw.pl/ retrieved 11:18:52 11/17/09 (UMP-Tarnow/src/cities-Tarnow.pnt-converted.txt)"/>
  </node>
  <node id="577446036" version="2" timestamp="2010-04-11T04:53:40Z" uid="20587" user="balrog-kun" changeset="4389130" lat="50.267873" lon="21.1377562">
    <tag k="name" v="Suchy Grunt"/>
    <tag k="place" v="village"/>
    <tag k="source" v="http://ump.waw.pl/ retrieved 11:18:52 11/17/09 (UMP-Tarnow/src/cities-Tarnow.pnt-converted.txt)"/>
  </node>
  <node id="577446036" version="3" timestamp="2010-04-11T13:17:22Z" uid="20587" user="balrog-kun" changeset="4392352" lat="50.2684871" lon="21.1347845">
    <tag k="name" v="Suchy Grunt"/>
    <tag k="place" v="village"/>
    <tag k="source" v="http://ump.waw.pl/ retrieved 11:18:52 11/17/09 (UMP-Tarnow/src/cities-Tarnow.pnt-converted.txt)"/>
  </node>
  <node id="577446086" version="2" timestamp="2010-04-11T04:53:40Z" uid="20587" user="balrog-kun" changeset="4389130" lat="50.2464005" lon="21.1469871">
    <tag k="name" v="Malec"/>
    <tag k="place" v="village"/>
    <tag k="source" v="http://ump.waw.pl/ retrieved 11:18:52 11/17/09 (UMP-Tarnow/src/cities-Tarnow.pnt-converted.txt)"/>
  </node>
  <node id="577446086" version="3" timestamp="2010-04-11T13:17:22Z" uid="20587" user="balrog-kun" changeset="4392352" lat="50.2455007" lon="21.1559901">
    <tag k="name" v="Malec"/>
    <tag k="place" v="village"/>
    <tag k="source" v="http://ump.waw.pl/ retrieved 11:18:52 11/17/09 (UMP-Tarnow/src/cities-Tarnow.pnt-converted.txt)"/>
  </node>
  <node id="577446251" version="2" timestamp="2010-04-11T04:53:40Z" uid="20587" user="balrog-kun" changeset="4389130" lat="50.19091" lon="21.21114">
    <tag k="name" v="Dulcza Wielka"/>
    <tag k="place" v="village"/>
    <tag k="source" v="http://ump.waw.pl/ retrieved 11:18:52 11/17/09 (UMP-Tarnow/src/cities-Tarnow.pnt-converted.txt)"/>
  </node>
  <node id="577446251" version="3" timestamp="2010-04-11T13:17:22Z" uid="20587" user="balrog-kun" changeset="4392352" lat="50.19091" lon="21.21114">
    <tag k="name" v="Dulcza Wielka"/>
    <tag k="place" v="village"/>
    <tag k="source" v="http://ump.waw.pl/ retrieved 11:18:52 11/17/09 (UMP-Tarnow/src/cities-Tarnow.pnt-converted.txt)"/>
  </node>
  <node id="577446251" version="4" timestamp="2010-04-27T04:16:59Z" uid="30632" user="antblant" changeset="4537905" lat="50.19091" lon="21.21114">
    <tag k="name" v="Dulcza Wielka"/>
    <tag k="place" v="village"/>
    <tag k="source" v="http://ump.waw.pl/ retrieved 11:18:52 11/17/09 (UMP-Tarnow/src/cities-Tarnow.pnt-converted.txt)"/>
    <tag k="teryt:simc" v="0828236"/>
  </node>
  <node id="577446448" version="2" timestamp="2010-04-11T04:53:40Z" uid="20587" user="balrog-kun" changeset="4389130" lat="50.2184855" lon="21.2179415">
    <tag k="name" v="Dulcza Mała"/>
    <tag k="place" v="village"/>
    <tag k="source" v="http://ump.waw.pl/ retrieved 11:18:52 11/17/09 (UMP-Tarnow/src/cities-Tarnow.pnt-converted.txt)"/>
  </node>
  <node id="577446448" version="3" timestamp="2010-04-11T13:17:22Z" uid="20587" user="balrog-kun" changeset="4392352" lat="50.2196578" lon="21.2178521">
    <tag k="name" v="Dulcza Mała"/>
    <tag k="place" v="village"/>
    <tag k="source" v="http://ump.waw.pl/ retrieved 11:18:52 11/17/09 (UMP-Tarnow/src/cities-Tarnow.pnt-converted.txt)"/>
  </node>
  <node id="577446448" version="4" timestamp="2010-04-27T04:12:31Z" uid="30632" user="antblant" changeset="4537887" lat="50.2196578" lon="21.2178521">
    <tag k="name" v="Dulcza Mała"/>
    <tag k="place" v="village"/>
    <tag k="source" v="http://ump.waw.pl/ retrieved 11:18:52 11/17/09 (UMP-Tarnow/src/cities-Tarnow.pnt-converted.txt)"/>
    <tag k="teryt:simc" v="0828153"/>
  </node>
  <node id="577446500" version="2" timestamp="2010-04-11T04:53:40Z" uid="20587" user="balrog-kun" changeset="4389130" lat="50.20461" lon="21.23182">
    <tag k="name" v="Góra"/>
    <tag k="place" v="village"/>
    <tag k="source" v="http://ump.waw.pl/ retrieved 11:18:52 11/17/09 (UMP-Tarnow/src/cities-Tarnow.pnt-converted.txt)"/>
  </node>
  <node id="577446500" version="3" timestamp="2010-04-11T13:17:22Z" uid="20587" user="balrog-kun" changeset="4392352" lat="50.20461" lon="21.23182">
    <tag k="name" v="Góra"/>
    <tag k="place" v="village"/>
    <tag k="source" v="http://ump.waw.pl/ retrieved 11:18:52 11/17/09 (UMP-Tarnow/src/cities-Tarnow.pnt-converted.txt)"/>
  </node>
  <node id="577446650" version="2" timestamp="2010-04-11T04:53:40Z" uid="20587" user="balrog-kun" changeset="4389130" lat="50.22261" lon="21.25903">
    <tag k="name" v="Pień"/>
    <tag k="place" v="village"/>
    <tag k="source" v="http://ump.waw.pl/ retrieved 11:18:52 11/17/09 (UMP-Tarnow/src/cities-Tarnow.pnt-converted.txt)"/>
  </node>
  <node id="577446650" version="3" timestamp="2010-04-11T13:17:22Z" uid="20587" user="balrog-kun" changeset="4392352" lat="50.22261" lon="21.25903">
    <tag k="name" v="Pień"/>
    <tag k="place" v="village"/>
    <tag k="source" v="http://ump.waw.pl/ retrieved 11:18:52 11/17/09 (UMP-Tarnow/src/cities-Tarnow.pnt-converted.txt)"/>
  </node>
  <node id="577446694" version="2" timestamp="2010-04-11T04:53:40Z" uid="20587" user="balrog-kun" changeset="4389130" lat="50.2420067" lon="21.2042897">
    <tag k="name" v="Jamy"/>
    <tag k="place" v="village"/>
    <tag k="source" v="http://ump.waw.pl/ retrieved 11:18:52 11/17/09 (UMP-Tarnow/src/cities-Tarnow.pnt-converted.txt)"/>
  </node>
  <node id="577446694" version="3" timestamp="2010-04-11T13:17:22Z" uid="20587" user="balrog-kun" changeset="4392352" lat="50.2427895" lon="21.2012124">
    <tag k="name" v="Jamy"/>
    <tag k="place" v="village"/>
    <tag k="source" v="http://ump.waw.pl/ retrieved 11:18:52 11/17/09 (UMP-Tarnow/src/cities-Tarnow.pnt-converted.txt)"/>
  </node>
  <node id="577446777" version="2" timestamp="2010-04-11T04:53:40Z" uid="20587" user="balrog-kun" changeset="4389130" lat="50.2725832" lon="21.1897335">
    <tag k="name" v="Wola Wadowska"/>
    <tag k="place" v="village"/>
    <tag k="source" v="http://ump.waw.pl/ retrieved 11:18:52 11/17/09 (UMP-Tarnow/src/cities-Tarnow.pnt-converted.txt)"/>
  </node>
  <node id="577446777" version="3" timestamp="2010-04-11T13:17:22Z" uid="20587" user="balrog-kun" changeset="4392352" lat="50.2727688" lon="21.191655">
    <tag k="name" v="Wola Wadowska"/>
    <tag k="place" v="village"/>
    <tag k="source" v="http://ump.waw.pl/ retrieved 11:18:52 11/17/09 (UMP-Tarnow/src/cities-Tarnow.pnt-converted.txt)"/>
  </node>
  <node id="577446777" version="4" timestamp="2010-04-27T04:01:05Z" uid="30632" user="antblant" changeset="4537859" lat="50.2727688" lon="21.191655">
    <tag k="name" v="Wola Wadowska"/>
    <tag k="place" v="village"/>
    <tag k="source" v="http://ump.waw.pl/ retrieved 11:18:52 11/17/09 (UMP-Tarnow/src/cities-Tarnow.pnt-converted.txt)"/>
    <tag k="teryt:simc" v="0835302"/>
  </node>
  <node id="577446823" version="2" timestamp="2010-04-11T04:53:40Z" uid="20587" user="balrog-kun" changeset="4389130" lat="50.24673" lon="21.25593">
    <tag k="name" v="Izbiska"/>
    <tag k="place" v="village"/>
    <tag k="source" v="http://ump.waw.pl/ retrieved 11:18:52 11/17/09 (UMP-Tarnow/src/cities-Tarnow.pnt-converted.txt)"/>
  </node>
  <node id="577446823" version="3" timestamp="2010-04-11T13:17:22Z" uid="20587" user="balrog-kun" changeset="4392352" lat="50.24673" lon="21.25593">
    <tag k="name" v="Izbiska"/>
    <tag k="place" v="village"/>
    <tag k="source" v="http://ump.waw.pl/ retrieved 11:18:52 11/17/09 (UMP-Tarnow/src/cities-Tarnow.pnt-converted.txt)"/>
  </node>
  <node id="577446900" version="2" timestamp="2010-04-11T04:53:40Z" uid="20587" user="balrog-kun" changeset="4389130" lat="50.26526" lon="21.23459">
    <tag k="name" v="Wierzchowiny"/>
    <tag k="place" v="village"/>
    <tag k="source" v="http://ump.waw.pl/ retrieved 11:18:52 11/17/09 (UMP-Tarnow/src/cities-Tarnow.pnt-converted.txt)"/>
  </node>
  <node id="577446900" version="3" timestamp="2010-04-11T13:17:23Z" uid="20587" user="balrog-kun" changeset="4392352" lat="50.26526" lon="21.23459">
    <tag k="name" v="Wierzchowiny"/>
    <tag k="place" v="village"/>
    <tag k="source" v="http://ump.waw.pl/ retrieved 11:18:52 11/17/09 (UMP-Tarnow/src/cities-Tarnow.pnt-converted.txt)"/>
  </node>
  <node id="577446918" version="2" timestamp="2010-04-11T04:53:40Z" uid="20587" user="balrog-kun" changeset="4389130" lat="50.11666" lon="21.28516">
    <tag k="name" v="Róża"/>
    <tag k="place" v="village"/>
    <tag k="source" v="http://ump.waw.pl/ retrieved 11:18:52 11/17/09 (UMP-Tarnow/src/cities-Tarnow.pnt-converted.txt)"/>
  </node>
  <node id="577446918" version="3" timestamp="2010-04-11T13:17:23Z" uid="20587" user="balrog-kun" changeset="4392352" lat="50.11666" lon="21.28516">
    <tag k="name" v="Róża"/>
    <tag k="place" v="village"/>
    <tag k="source" v="http://ump.waw.pl/ retrieved 11:18:52 11/17/09 (UMP-Tarnow/src/cities-Tarnow.pnt-converted.txt)"/>
  </node>
  <node id="577446964" version="2" timestamp="2010-04-11T04:53:40Z" uid="20587" user="balrog-kun" changeset="4389130" lat="50.11193" lon="21.31326">
    <tag k="name" v="Grabówka"/>
    <tag k="place" v="village"/>
    <tag k="source" v="http://ump.waw.pl/ retrieved 11:18:52 11/17/09 (UMP-Tarnow/src/cities-Tarnow.pnt-converted.txt)"/>
  </node>
  <node id="577446964" version="3" timestamp="2010-04-11T13:17:23Z" uid="20587" user="balrog-kun" changeset="4392352" lat="50.11193" lon="21.31326">
    <tag k="name" v="Grabówka"/>
    <tag k="place" v="village"/>
    <tag k="source" v="http://ump.waw.pl/ retrieved 11:18:52 11/17/09 (UMP-Tarnow/src/cities-Tarnow.pnt-converted.txt)"/>
  </node>
</osm>
