<?xml version='1.0' encoding='UTF-8'?>
<osm version="0.6" generator="libosmium/2.20.0">
  <node id="577421485" version="2" timestamp="2010-06-01T07:28:08Z" uid="4467" user="Rosscoe" changeset="4872324" lat="-27.3223127" lon="153.0703035"/>
  <node id="577421486" version="2" timestamp="2010-06-01T07:27:27Z" uid="4467" user="Rosscoe" changeset="4872324" lat="-27.3205693" lon="153.071716"/>
  <node id="577421521" version="2" timestamp="2011-02-20T10:37:31Z" uid="4467" user="Rosscoe" changeset="7340530" lat="-27.3296629" lon="153.0871148"/>
  <node id="577421521" version="3" timestamp="2011-04-11T07:36:48Z" uid="129262" user="ElderKorean" changeset="7829890" lat="-27.3296609" lon="153.0871163"/>
  <node id="577421522" version="2" timestamp="2011-02-20T10:37:35Z" uid="4467" user="Rosscoe" changeset="7340530" lat="-27.3293795" lon="153.0875361"/>
  <node id="577421526" version="2" timestamp="2011-02-20T10:37:34Z" uid="4467" user="Rosscoe" changeset="7340530" lat="-27.3284213" lon="153.0878398"/>
  <node id="577421528" version="2" timestamp="2011-02-20T10:37:26Z" uid="4467" user="Rosscoe" changeset="7340530" lat="-27.3292478" lon="153.0877656"/>
  <node id="577421534" version="2" timestamp="2011-02-20T10:37:31Z" uid="4467" user="Rosscoe" changeset="7340530" lat="-27.3283379" lon="153.0879085"/>
  <node id="577421535" version="2" timestamp="2011-02-20T10:37:34Z" uid="4467" user="Rosscoe" changeset="7340530" lat="-27.3282657" lon="153.087905"/>
  <node id="577421539" version="2" timestamp="2011-02-20T10:37:29Z" uid="4467" user="Rosscoe" changeset="7340530" lat="-27.3254828" lon="153.0848235"/>
  <node id="577421541" version="2" timestamp="2011-02-20T10:37:35Z" uid="4467" user="Rosscoe" changeset="7340530" lat="-27.3254204" lon="153.0849948"/>
  <node id="577421542" version="2" timestamp="2011-02-20T10:37:27Z" uid="4467" user="Rosscoe" changeset="7340530" lat="-27.32545" lon="153.0851404"/>
  <node id="577421544" version="2" timestamp="2011-02-20T10:37:30Z" uid="4467" user="Rosscoe" changeset="7340530" lat="-27.3251598" lon="153.0855949"/>
  <node id="577421545" version="2" timestamp="2011-02-20T10:37:34Z" uid="4467" user="Rosscoe" changeset="7340530" lat="-27.3251368" lon="153.0855095"/>
  <node id="577421978" version="2" timestamp="2010-04-11T04:53:21Z" uid="20587" user="balrog-kun" changeset="4389130" lat="49.9413822" lon="20.5506959">
    <tag k="name" v="Poręba Spytkowska"/>
    <tag k="place" v="village"/>
  </node>
  <node id="577421978" version="3" timestamp="2010-04-11T13:17:06Z" uid="20587" user="balrog-kun" changeset="4392352" lat="49.9426217" lon="20.5450498">
    <tag k="name" v="Poręba Spytkowska"/>
    <tag k="place" v="village"/>
  </node>
  <node id="577421978" version="4" timestamp="2010-04-27T04:05:40Z" uid="30632" user="antblant" changeset="4537871" lat="49.9426217" lon="20.5450498">
    <tag k="name" v="Poręba Spytkowska"/>
    <tag k="place" v="village"/>
    <tag k="teryt:simc" v="0814317"/>
  </node>
  <node id="577421978" version="5" timestamp="2012-03-11T03:28:16Z" uid="164910" user="ppece" changeset="10938744" lat="49.9427799" lon="20.5451136">
    <tag k="name" v="Poręba Spytkowska"/>
    <tag k="place" v="village"/>
    <tag k="teryt:simc" v="0814317"/>
  </node>
  <node id="577421979" version="3" timestamp="2010-04-11T04:53:21Z" uid="20587" user="balrog-kun" changeset="4389130" lat="49.9575195" lon="20.5612638">
    <tag k="name" v="Granice"/>
    <tag k="place" v="village"/>
  </node>
  <node id="577421979" version="4" timestamp="2010-04-11T13:17:06Z" uid="20587" user="balrog-kun" changeset="4392352" lat="49.9574893" lon="20.5605112">
    <tag k="name" v="Granice"/>
    <tag k="place" v="village"/>
  </node>
  <node id="577421980" version="2" timestamp="2010-04-11T04:53:21Z" uid="20587" user="balrog-kun" changeset="4389130" lat="49.9703438" lon="20.5147811">
    <tag k="name" v="Łazy"/>
    <tag k="place" v="village"/>
  </node>
  <node id="577421980" version="3" timestamp="2010-04-11T13:17:07Z" uid="20587" user="balrog-kun" changeset="4392352" lat="49.9701097" lon="20.5170444">
    <tag k="name" v="Łazy"/>
    <tag k="place" v="village"/>
  </node>
  <node id="577422019" version="2" timestamp="2010-04-11T04:53:21Z" uid="20587" user="balrog-kun" changeset="4389130" lat="50.07783" lon="20.50173">
    <tag k="name" v="Besów"/>
    <tag k="place" v="village"/>
    <tag k="source" v="http://ump.waw.pl/ retrieved 11:18:52 11/17/09 (UMP-Tarnow/src/cities-Tarnow.pnt-converted.txt)"/>
  </node>
  <node id="577422019" version="3" timestamp="2010-04-11T13:17:07Z" uid="20587" user="balrog-kun" changeset="4392352" lat="50.07783" lon="20.50173">
    <tag k="name" v="Besów"/>
    <tag k="place" v="village"/>
    <tag k="source" v="http://ump.waw.pl/ retrieved 11:18:52 11/17/09 (UMP-Tarnow/src/cities-Tarnow.pnt-converted.txt)"/>
  </node>
  <node id="577422232" version="2" timestamp="2010-04-11T04:53:21Z" uid="20587" user="balrog-kun" changeset="4389130" lat="50.08843" lon="20.5434">
    <tag k="name" v="Wrzępia"/>
    <tag k="place" v="village"/>
    <tag k="source" v="http://ump.waw.pl/ retrieved 11:18:52 11/17/09 (UMP-Tarnow/src/cities-Tarnow.pnt-converted.txt)"/>
  </node>
  <node id="577422232" version="3" timestamp="2010-04-11T13:17:07Z" uid="20587" user="balrog-kun" changeset="4392352" lat="50.08843" lon="20.5434">
    <tag k="name" v="Wrzępia"/>
    <tag k="place" v="village"/>
    <tag k="source" v="http://ump.waw.pl/ retrieved 11:18:52 11/17/09 (UMP-Tarnow/src/cities-Tarnow.pnt-converted.txt)"/>
  </node>
  <node id="577422232" version="4" timestamp="2010-04-27T04:07:11Z" uid="30632" user="antblant" changeset="4537875" lat="50.08843" lon="20.5434">
    <tag k="name" v="Wrzępia"/>
    <tag k="place" v="village"/>
    <tag k="source" v="http://ump.waw.pl/ retrieved 11:18:52 11/17/09 (UMP-Tarnow/src/cities-Tarnow.pnt-converted.txt)"/>
    <tag k="teryt:simc" v="0832166"/>
  </node>
  <node id="577422366" version="2" timestamp="2010-04-11T04:53:21Z" uid="20587" user="balrog-kun" changeset="4389130" lat="49.9616929" lon="20.5780878">
    <tag k="name" v="Pomianowa"/>
    <tag k="place" v="village"/>
  </node>
  <node id="577422366" version="3" timestamp="2010-04-11T13:17:07Z" uid="20587" user="balrog-kun" changeset="4392352" lat="49.9620755" lon="20.5778168">
    <tag k="name" v="Pomianowa"/>
    <tag k="place" v="village"/>
  </node>
  <node id="577422367" version="3" timestamp="2010-04-11T04:53:21Z" uid="20587" user="balrog-kun" changeset="4389130" lat="49.9467796" lon="20.6143331">
    <tag k="name" v="Okocim"/>
    <tag k="place" v="village"/>
  </node>
  <node id="577422367" version="4" timestamp="2010-04-11T13:17:07Z" uid="20587" user="balrog-kun" changeset="4392352" lat="49.9466551" lon="20.6166659">
    <tag k="name" v="Okocim"/>
    <tag k="place" v="village"/>
  </node>
  <node id="577422367" version="5" timestamp="2010-04-27T04:00:55Z" uid="30632" user="antblant" changeset="4537859" lat="49.9466551" lon="20.6166659">
    <tag k="name" v="Okocim"/>
    <tag k="place" v="village"/>
    <tag k="teryt:simc" v="0814205"/>
  </node>
  <node id="577422368" version="2" timestamp="2010-04-11T04:53:22Z" uid="20587" user="balrog-kun" changeset="4389130" lat="49.969939" lon="20.5705281">
    <tag k="name" v="Jasień"/>
    <tag k="place" v="village"/>
  </node>
  <node id="577422368" version="3" timestamp="2010-04-11T13:17:07Z" uid="20587" user="balrog-kun" changeset="4392352" lat="49.9702771" lon="20.5696273">
    <tag k="name" v="Jasień"/>
    <tag k="place" v="village"/>
  </node>
  <node id="577422670" version="2" timestamp="2010-04-11T04:53:22Z" uid="20587" user="balrog-kun" changeset="4389130" lat="50.07747" lon="20.62085">
    <tag k="name" v="Wygoda"/>
    <tag k="place" v="village"/>
    <tag k="source" v="http://ump.waw.pl/ retrieved 11:18:52 11/17/09 (UMP-Tarnow/src/cities-Tarnow.pnt-converted.txt)"/>
  </node>
  <node id="577422670" version="3" timestamp="2010-04-11T13:17:07Z" uid="20587" user="balrog-kun" changeset="4392352" lat="50.07747" lon="20.62085">
    <tag k="name" v="Wygoda"/>
    <tag k="place" v="village"/>
    <tag k="source" v="http://ump.waw.pl/ retrieved 11:18:52 11/17/09 (UMP-Tarnow/src/cities-Tarnow.pnt-converted.txt)"/>
  </node>
  <node id="577422872" version="2" timestamp="2010-04-11T04:53:22Z" uid="20587" user="balrog-kun" changeset="4389130" lat="50.0580787" lon="20.6711228">
    <tag k="name" v="Łazy"/>
    <tag k="place" v="village"/>
  </node>
  <node id="577422872" version="3" timestamp="2010-04-11T13:17:07Z" uid="20587" user="balrog-kun" changeset="4392352" lat="50.0579496" lon="20.6712226">
    <tag k="name" v="Łazy"/>
    <tag k="place" v="village"/>
  </node>
  <node id="577422958" version="2" timestamp="2010-04-11T04:53:22Z" uid="20587" user="balrog-kun" changeset="4389130" lat="50.0916838" lon="20.6658933">
    <tag k="name" v="Wisowatki"/>
    <tag k="place" v="village"/>
    <tag k="source" v="http://ump.waw.pl/ retrieved 11:18:52 11/17/09 (UMP-Tarnow/src/cities-Tarnow.pnt-converted.txt)"/>
  </node>
  <node id="577422958" version="3" timestamp="2010-04-11T13:17:07Z" uid="20587" user="balrog-kun" changeset="4392352" lat="50.0919468" lon="20.6663619">
    <tag k="name" v="Wisowatki"/>
    <tag k="place" v="village"/>
    <tag k="source" v="http://ump.waw.pl/ retrieved 11:18:52 11/17/09 (UMP-Tarnow/src/cities-Tarnow.pnt-converted.txt)"/>
  </node>
  <node id="577423011" version="3" timestamp="2010-04-11T04:53:22Z" uid="20587" user="balrog-kun" changeset="4389130" lat="50.0896" lon="20.68999">
    <tag k="name" v="Przymiarki"/>
    <tag k="note" v="FIXME"/>
    <tag k="place" v="village"/>
    <tag k="source" v="http://ump.waw.pl/ retrieved 11:18:52 11/17/09 (UMP-Tarnow/src/cities-Tarnow.pnt-converted.txt)"/>
  </node>
  <node id="577423011" version="4" timestamp="2010-04-11T13:17:07Z" uid="20587" user="balrog-kun" changeset="4392352" lat="50.0896" lon="20.68999">
    <tag k="name" v="Przymiarki"/>
    <tag k="note" v="FIXME"/>
    <tag k="place" v="village"/>
    <tag k="source" v="http://ump.waw.pl/ retrieved 11:18:52 11/17/09 (UMP-Tarnow/src/cities-Tarnow.pnt-converted.txt)"/>
  </node>
  <node id="577423110" version="2" timestamp="2010-04-11T04:53:22Z" uid="20587" user="balrog-kun" changeset="4389130" lat="50.0769452" lon="20.7047143">
    <tag k="name" v="Borzęcin"/>
    <tag k="place" v="village"/>
    <tag k="source" v="http://ump.waw.pl/ retrieved 11:18:52 11/17/09 (UMP-Tarnow/src/cities-Tarnow.pnt-converted.txt)"/>
  </node>
  <node id="577423110" version="3" timestamp="2010-04-11T13:17:07Z" uid="20587" user="balrog-kun" changeset="4392352" lat="50.0750274" lon="20.7037647">
    <tag k="name" v="Borzęcin"/>
    <tag k="place" v="village"/>
    <tag k="source" v="http://ump.waw.pl/ retrieved 11:18:52 11/17/09 (UMP-Tarnow/src/cities-Tarnow.pnt-converted.txt)"/>
  </node>
  <node id="577423786" version="2" timestamp="2010-04-11T04:53:22Z" uid="20587" user="balrog-kun" changeset="4389130" lat="50.14902" lon="20.5504">
    <tag k="name" v="Morsko"/>
    <tag k="place" v="village"/>
    <tag k="source" v="http://ump.waw.pl/ retrieved 11:18:52 11/17/09 (UMP-Tarnow/src/cities-Tarnow.pnt-converted.txt)"/>
  </node>
  <node id="577423786" version="3" timestamp="2010-04-11T13:17:07Z" uid="20587" user="balrog-kun" changeset="4392352" lat="50.14902" lon="20.5504">
    <tag k="name" v="Morsko"/>
    <tag k="place" v="village"/>
    <tag k="source" v="http://ump.waw.pl/ retrieved 11:18:52 11/17/09 (UMP-Tarnow/src/cities-Tarnow.pnt-converted.txt)"/>
  </node>
  <node id="577423907" version="2" timestamp="2010-04-11T04:53:22Z" uid="20587" user="balrog-kun" changeset="4389130" lat="50.1713274" lon="20.5616621">
    <tag k="name" v="Włostowice"/>
    <tag k="place" v="village"/>
    <tag k="source" v="http://ump.waw.pl/ retrieved 11:18:52 11/17/09 (UMP-Tarnow/src/cities-Tarnow.pnt-converted.txt)"/>
  </node>
  <node id="577423907" version="3" timestamp="2010-04-11T13:17:08Z" uid="20587" user="balrog-kun" changeset="4392352" lat="50.1715534" lon="20.558693">
    <tag k="name" v="Włostowice"/>
    <tag k="place" v="village"/>
    <tag k="source" v="http://ump.waw.pl/ retrieved 11:18:52 11/17/09 (UMP-Tarnow/src/cities-Tarnow.pnt-converted.txt)"/>
  </node>
  <node id="577423918" version="2" timestamp="2010-04-11T04:53:22Z" uid="20587" user="balrog-kun" changeset="4389130" lat="50.1828418" lon="20.5478464">
    <tag k="name" v="Łapszów"/>
    <tag k="place" v="village"/>
    <tag k="source" v="http://ump.waw.pl/ retrieved 11:18:52 11/17/09 (UMP-Tarnow/src/cities-Tarnow.pnt-converted.txt)"/>
  </node>
  <node id="577423918" version="3" timestamp="2010-04-11T13:17:08Z" uid="20587" user="balrog-kun" changeset="4392352" lat="50.1825769" lon="20.5491606">
    <tag k="name" v="Łapszów"/>
    <tag k="place" v="village"/>
    <tag k="source" v="http://ump.waw.pl/ retrieved 11:18:52 11/17/09 (UMP-Tarnow/src/cities-Tarnow.pnt-converted.txt)"/>
  </node>
  <node id="577423918" version="4" timestamp="2010-04-27T04:15:39Z" uid="30632" user="antblant" changeset="4537896" lat="50.1825769" lon="20.5491606">
    <tag k="name" v="Łapszów"/>
    <tag k="place" v="village"/>
    <tag k="source" v="http://ump.waw.pl/ retrieved 11:18:52 11/17/09 (UMP-Tarnow/src/cities-Tarnow.pnt-converted.txt)"/>
    <tag k="teryt:simc" v="0244720"/>
  </node>
  <node id="577424101" version="2" timestamp="2010-04-11T04:53:22Z" uid="20587" user="balrog-kun" changeset="4389130" lat="50.19414" lon="20.55464">
    <tag k="name" v="Jankowice"/>
    <tag k="place" v="village"/>
    <tag k="source" v="http://ump.waw.pl/ retrieved 11:18:52 11/17/09 (UMP-Tarnow/src/cities-Tarnow.pnt-converted.txt)"/>
  </node>
  <node id="577424101" version="3" timestamp="2010-04-11T13:17:08Z" uid="20587" user="balrog-kun" changeset="4392352" lat="50.19414" lon="20.55464">
    <tag k="name" v="Jankowice"/>
    <tag k="place" v="village"/>
    <tag k="source" v="http://ump.waw.pl/ retrieved 11:18:52 11/17/09 (UMP-Tarnow/src/cities-Tarnow.pnt-converted.txt)"/>
  </node>
  <node id="577424141" version="2" timestamp="2010-04-11T04:53:22Z" uid="20587" user="balrog-kun" changeset="4389130" lat="50.2084837" lon="20.5231575">
    <tag k="name" v="Donatkowice"/>
    <tag k="place" v="village"/>
    <tag k="source" v="http://ump.waw.pl/ retrieved 11:18:52 11/17/09 (UMP-Tarnow/src/cities-Tarnow.pnt-converted.txt)"/>
  </node>
  <node id="577424141" version="3" timestamp="2010-04-11T13:17:08Z" uid="20587" user="balrog-kun" changeset="4392352" lat="50.2081896" lon="20.5229507">
    <tag k="name" v="Donatkowice"/>
    <tag k="place" v="village"/>
    <tag k="source" v="http://ump.waw.pl/ retrieved 11:18:52 11/17/09 (UMP-Tarnow/src/cities-Tarnow.pnt-converted.txt)"/>
  </node>
  <node id="577424141" version="4" timestamp="2010-04-27T04:09:02Z" uid="30632" user="antblant" changeset="4537879" lat="50.2081896" lon="20.5229507">
    <tag k="name" v="Donatkowice"/>
    <tag k="place" v="village"/>
    <tag k="source" v="http://ump.waw.pl/ retrieved 11:18:52 11/17/09 (UMP-Tarnow/src/cities-Tarnow.pnt-converted.txt)"/>
    <tag k="teryt:simc" v="0241353"/>
  </node>
  <node id="577424215" version="2" timestamp="2010-04-27T04:15:15Z" uid="30632" user="antblant" changeset="4537896" lat="50.2138357" lon="20.5450835">
    <tag k="name" v="Kaczkowice"/>
    <tag k="place" v="village"/>
    <tag k="source" v="http://ump.waw.pl/ retrieved 11:18:52 11/17/09 (UMP-Tarnow/src/cities-Tarnow.pnt-converted.txt)"/>
    <tag k="teryt:simc" v="0227005"/>
  </node>
  <node id="577424268" version="2" timestamp="2010-04-11T04:53:22Z" uid="20587" user="balrog-kun" changeset="4389130" lat="50.2309118" lon="20.5061055">
    <tag k="name" v="Plechówka"/>
    <tag k="place" v="village"/>
    <tag k="source" v="http://ump.waw.pl/ retrieved 11:18:52 11/17/09 (UMP-Tarnow/src/cities-Tarnow.pnt-converted.txt)"/>
  </node>
  <node id="577424268" version="3" timestamp="2010-04-11T13:17:08Z" uid="20587" user="balrog-kun" changeset="4392352" lat="50.2305054" lon="20.5074878">
    <tag k="name" v="Plechówka"/>
    <tag k="place" v="village"/>
    <tag k="source" v="http://ump.waw.pl/ retrieved 11:18:52 11/17/09 (UMP-Tarnow/src/cities-Tarnow.pnt-converted.txt)"/>
  </node>
  <node id="577424268" version="4" timestamp="2010-04-27T04:01:14Z" uid="30632" user="antblant" changeset="4537859" lat="50.2305054" lon="20.5074878">
    <tag k="name" v="Plechówka"/>
    <tag k="place" v="village"/>
    <tag k="source" v="http://ump.waw.pl/ retrieved 11:18:52 11/17/09 (UMP-Tarnow/src/cities-Tarnow.pnt-converted.txt)"/>
    <tag k="teryt:simc" v="0242080"/>
  </node>
  <node id="577424270" version="2" timestamp="2010-04-11T04:53:22Z" uid="20587" user="balrog-kun" changeset="4389130" lat="50.23812" lon="20.50087">
    <tag k="name" v="Łyczaków"/>
    <tag k="place" v="village"/>
    <tag k="source" v="http://ump.waw.pl/ retrieved 11:18:52 11/17/09 (UMP-Tarnow/src/cities-Tarnow.pnt-converted.txt)"/>
  </node>
  <node id="577424270" version="3" timestamp="2010-04-11T13:17:08Z" uid="20587" user="balrog-kun" changeset="4392352" lat="50.23812" lon="20.50087">
    <tag k="name" v="Łyczaków"/>
    <tag k="place" v="village"/>
    <tag k="source" v="http://ump.waw.pl/ retrieved 11:18:52 11/17/09 (UMP-Tarnow/src/cities-Tarnow.pnt-converted.txt)"/>
  </node>
  <node id="577424270" version="4" timestamp="2010-04-27T04:13:58Z" uid="30632" user="antblant" changeset="4537892" lat="50.23812" lon="20.50087">
    <tag k="name" v="Łyczaków"/>
    <tag k="place" v="village"/>
    <tag k="source" v="http://ump.waw.pl/ retrieved 11:18:52 11/17/09 (UMP-Tarnow/src/cities-Tarnow.pnt-converted.txt)"/>
    <tag k="teryt:simc" v="0241896"/>
  </node>
  <node id="577424380" version="2" timestamp="2010-04-11T04:53:22Z" uid="20587" user="balrog-kun" changeset="4389130" lat="50.24819" lon="20.53767">
    <tag k="name" v="Stradlice"/>
    <tag k="place" v="village"/>
    <tag k="source" v="http://ump.waw.pl/ retrieved 11:18:52 11/17/09 (UMP-Tarnow/src/cities-Tarnow.pnt-converted.txt)"/>
  </node>
  <node id="577424380" version="3" timestamp="2010-04-11T13:17:08Z" uid="20587" user="balrog-kun" changeset="4392352" lat="50.24819" lon="20.53767">
    <tag k="name" v="Stradlice"/>
    <tag k="place" v="village"/>
    <tag k="source" v="http://ump.waw.pl/ retrieved 11:18:52 11/17/09 (UMP-Tarnow/src/cities-Tarnow.pnt-converted.txt)"/>
  </node>
  <node id="577424380" version="4" timestamp="2010-04-27T04:18:35Z" uid="30632" user="antblant" changeset="4537909" lat="50.24819" lon="20.53767">
    <tag k="name" v="Stradlice"/>
    <tag k="place" v="village"/>
    <tag k="source" v="http://ump.waw.pl/ retrieved 11:18:52 11/17/09 (UMP-Tarnow/src/cities-Tarnow.pnt-converted.txt)"/>
    <tag k="teryt:simc" v="0242269"/>
  </node>
  <node id="577424399" version="2" timestamp="2010-04-11T04:53:22Z" uid="20587" user="balrog-kun" changeset="4389130" lat="50.2394793" lon="20.5556939">
    <tag k="name" v="Podolany"/>
    <tag k="place" v="village"/>
    <tag k="source" v="http://ump.waw.pl/ retrieved 11:18:52 11/17/09 (UMP-Tarnow/src/cities-Tarnow.pnt-converted.txt)"/>
  </node>
  <node id="577424399" version="3" timestamp="2010-04-11T13:17:08Z" uid="20587" user="balrog-kun" changeset="4392352" lat="50.2391062" lon="20.5545042">
    <tag k="name" v="Podolany"/>
    <tag k="place" v="village"/>
    <tag k="source" v="http://ump.waw.pl/ retrieved 11:18:52 11/17/09 (UMP-Tarnow/src/cities-Tarnow.pnt-converted.txt)"/>
  </node>
  <node id="577424444" version="2" timestamp="2010-04-11T04:53:22Z" uid="20587" user="balrog-kun" changeset="4389130" lat="50.2624429" lon="20.5325762">
    <tag k="name" v="Kazimierza Mala"/>
    <tag k="place" v="village"/>
    <tag k="source" v="http://ump.waw.pl/ retrieved 11:18:52 11/17/09 (UMP-Tarnow/src/cities-Tarnow.pnt-converted.txt)"/>
  </node>
  <node id="577424444" version="3" timestamp="2010-04-11T13:17:08Z" uid="20587" user="balrog-kun" changeset="4392352" lat="50.2619127" lon="20.5323474">
    <tag k="name" v="Kazimierza Mala"/>
    <tag k="place" v="village"/>
    <tag k="source" v="http://ump.waw.pl/ retrieved 11:18:52 11/17/09 (UMP-Tarnow/src/cities-Tarnow.pnt-converted.txt)"/>
  </node>
  <node id="577424486" version="2" timestamp="2010-04-27T03:56:24Z" uid="30632" user="antblant" changeset="4537843" lat="50.2520756" lon="20.5517781">
    <tag k="name" v="Cło"/>
    <tag k="place" v="village"/>
    <tag k="source" v="http://ump.waw.pl/ retrieved 11:18:52 11/17/09 (UMP-Tarnow/src/cities-Tarnow.pnt-converted.txt)"/>
    <tag k="teryt:simc" v="0241206"/>
  </node>
  <node id="577424492" version="2" timestamp="2010-04-11T04:53:22Z" uid="20587" user="balrog-kun" changeset="4389130" lat="50.2596635" lon="20.5548678">
    <tag k="name" v="Wymysłów"/>
    <tag k="place" v="village"/>
    <tag k="source" v="http://ump.waw.pl/ retrieved 11:18:52 11/17/09 (UMP-Tarnow/src/cities-Tarnow.pnt-converted.txt)"/>
  </node>
  <node id="577424492" version="3" timestamp="2010-04-11T13:17:08Z" uid="20587" user="balrog-kun" changeset="4392352" lat="50.2590564" lon="20.5536669">
    <tag k="name" v="Wymysłów"/>
    <tag k="place" v="village"/>
    <tag k="source" v="http://ump.waw.pl/ retrieved 11:18:52 11/17/09 (UMP-Tarnow/src/cities-Tarnow.pnt-converted.txt)"/>
  </node>
  <node id="577424559" version="2" timestamp="2010-04-11T04:53:22Z" uid="20587" user="balrog-kun" changeset="4389130" lat="50.10499" lon="20.58224">
    <tag k="name" v="Strzelce Wielkie"/>
    <tag k="place" v="village"/>
    <tag k="source" v="http://ump.waw.pl/ retrieved 11:18:52 11/17/09 (UMP-Tarnow/src/cities-Tarnow.pnt-converted.txt)"/>
  </node>
  <node id="577424559" version="3" timestamp="2010-04-11T13:17:08Z" uid="20587" user="balrog-kun" changeset="4392352" lat="50.10499" lon="20.58224">
    <tag k="name" v="Strzelce Wielkie"/>
    <tag k="place" v="village"/>
    <tag k="source" v="http://ump.waw.pl/ retrieved 11:18:52 11/17/09 (UMP-Tarnow/src/cities-Tarnow.pnt-converted.txt)"/>
  </node>
  <node id="577424596" version="3" timestamp="2010-04-11T04:53:23Z" uid="20587" user="balrog-kun" changeset="4389130" lat="50.1000835" lon="20.6022975">
    <tag k="name" v="Rajsko"/>
    <tag k="place" v="village"/>
    <tag k="source" v="http://ump.waw.pl/ retrieved 11:18:52 11/17/09 (UMP-Tarnow/src/cities-Tarnow.pnt-converted.txt)"/>
  </node>
  <node id="577424596" version="4" timestamp="2010-04-11T13:17:08Z" uid="20587" user="balrog-kun" changeset="4392352" lat="50.0996522" lon="20.5997635">
    <tag k="name" v="Rajsko"/>
    <tag k="place" v="village"/>
    <tag k="source" v="http://ump.waw.pl/ retrieved 11:18:52 11/17/09 (UMP-Tarnow/src/cities-Tarnow.pnt-converted.txt)"/>
  </node>
  <node id="577424680" version="2" timestamp="2010-04-11T04:53:23Z" uid="20587" user="balrog-kun" changeset="4389130" lat="50.1268165" lon="20.5926666">
    <tag k="name" v="Strzelce Małe"/>
    <tag k="place" v="village"/>
    <tag k="source" v="http://ump.waw.pl/ retrieved 11:18:52 11/17/09 (UMP-Tarnow/src/cities-Tarnow.pnt-converted.txt)"/>
  </node>
  <node id="577424680" version="3" timestamp="2010-04-11T13:17:08Z" uid="20587" user="balrog-kun" changeset="4392352" lat="50.1273207" lon="20.5933637">
    <tag k="name" v="Strzelce Małe"/>
    <tag k="place" v="village"/>
    <tag k="source" v="http://ump.waw.pl/ retrieved 11:18:52 11/17/09 (UMP-Tarnow/src/cities-Tarnow.pnt-converted.txt)"/>
  </node>
  <node id="577424740" version="2" timestamp="2010-04-11T04:53:23Z" uid="20587" user="balrog-kun" changeset="4389130" lat="50.0966004" lon="20.6279503">
    <tag k="name" v="Niedzieliska"/>
    <tag k="place" v="village"/>
    <tag k="source" v="http://ump.waw.pl/ retrieved 11:18:52 11/17/09 (UMP-Tarnow/src/cities-Tarnow.pnt-converted.txt)"/>
  </node>
  <node id="577424740" version="3" timestamp="2010-04-11T13:17:08Z" uid="20587" user="balrog-kun" changeset="4392352" lat="50.097942" lon="20.6265918">
    <tag k="name" v="Niedzieliska"/>
    <tag k="place" v="village"/>
    <tag k="source" v="http://ump.waw.pl/ retrieved 11:18:52 11/17/09 (UMP-Tarnow/src/cities-Tarnow.pnt-converted.txt)"/>
  </node>
  <node id="577424808" version="2" timestamp="2010-04-11T04:53:23Z" uid="20587" user="balrog-kun" changeset="4389130" lat="50.1389984" lon="20.6140638">
    <tag k="name" v="Rząchowa"/>
    <tag k="place" v="village"/>
    <tag k="source" v="http://ump.waw.pl/ retrieved 11:18:52 11/17/09 (UMP-Tarnow/src/cities-Tarnow.pnt-converted.txt)"/>
  </node>
  <node id="577424808" version="3" timestamp="2010-04-11T13:17:08Z" uid="20587" user="balrog-kun" changeset="4392352" lat="50.1388048" lon="20.6142926">
    <tag k="name" v="Rząchowa"/>
    <tag k="place" v="village"/>
    <tag k="source" v="http://ump.waw.pl/ retrieved 11:18:52 11/17/09 (UMP-Tarnow/src/cities-Tarnow.pnt-converted.txt)"/>
  </node>
  <node id="577424808" version="4" timestamp="2010-04-27T04:16:59Z" uid="30632" user="antblant" changeset="4537905" lat="50.1388048" lon="20.6142926">
    <tag k="name" v="Rząchowa"/>
    <tag k="place" v="village"/>
    <tag k="source" v="http://ump.waw.pl/ retrieved 11:18:52 11/17/09 (UMP-Tarnow/src/cities-Tarnow.pnt-converted.txt)"/>
    <tag k="teryt:simc" v="0831818"/>
  </node>
  <node id="577424886" version="2" timestamp="2010-04-11T04:53:23Z" uid="20587" user="balrog-kun" changeset="4389130" lat="50.1571446" lon="20.5716042">
    <tag k="name" v="Witów"/>
    <tag k="place" v="village"/>
    <tag k="source" v="http://ump.waw.pl/ retrieved 11:18:52 11/17/09 (UMP-Tarnow/src/cities-Tarnow.pnt-converted.txt)"/>
  </node>
  <node id="577424886" version="3" timestamp="2010-04-11T13:17:08Z" uid="20587" user="balrog-kun" changeset="4392352" lat="50.1567008" lon="20.5736374">
    <tag k="name" v="Witów"/>
    <tag k="place" v="village"/>
    <tag k="source" v="http://ump.waw.pl/ retrieved 11:18:52 11/17/09 (UMP-Tarnow/src/cities-Tarnow.pnt-converted.txt)"/>
  </node>
  <node id="577424922" version="2" timestamp="2010-04-11T04:53:23Z" uid="20587" user="balrog-kun" changeset="4389130" lat="50.14843" lon="20.6102455">
    <tag k="name" v="Górka"/>
    <tag k="place" v="village"/>
    <tag k="source" v="http://ump.waw.pl/ retrieved 11:18:52 11/17/09 (UMP-Tarnow/src/cities-Tarnow.pnt-converted.txt)"/>
  </node>
  <node id="577424922" version="3" timestamp="2010-04-11T13:17:09Z" uid="20587" user="balrog-kun" changeset="4392352" lat="50.1469429" lon="20.6061335">
    <tag k="name" v="Górka"/>
    <tag k="place" v="village"/>
    <tag k="source" v="http://ump.waw.pl/ retrieved 11:18:52 11/17/09 (UMP-Tarnow/src/cities-Tarnow.pnt-converted.txt)"/>
  </node>
  <node id="577424987" version="2" timestamp="2010-04-11T04:53:23Z" uid="20587" user="balrog-kun" changeset="4389130" lat="50.16709" lon="20.57512">
    <tag k="name" v="Koszyce"/>
    <tag k="place" v="village"/>
    <tag k="source" v="http://ump.waw.pl/ retrieved 11:18:52 11/17/09 (UMP-Tarnow/src/cities-Tarnow.pnt-converted.txt)"/>
  </node>
  <node id="577424987" version="3" timestamp="2010-04-11T13:17:09Z" uid="20587" user="balrog-kun" changeset="4392352" lat="50.16709" lon="20.57512">
    <tag k="name" v="Koszyce"/>
    <tag k="place" v="village"/>
    <tag k="source" v="http://ump.waw.pl/ retrieved 11:18:52 11/17/09 (UMP-Tarnow/src/cities-Tarnow.pnt-converted.txt)"/>
  </node>
  <node id="577425021" version="2" timestamp="2010-04-11T04:53:23Z" uid="20587" user="balrog-kun" changeset="4389130" lat="50.16508" lon="20.58763">
    <tag k="name" v="Sokołowice"/>
    <tag k="place" v="village"/>
    <tag k="source" v="http://ump.waw.pl/ retrieved 11:18:52 11/17/09 (UMP-Tarnow/src/cities-Tarnow.pnt-converted.txt)"/>
  </node>
  <node id="577425021" version="3" timestamp="2010-04-11T13:17:09Z" uid="20587" user="balrog-kun" changeset="4392352" lat="50.16508" lon="20.58763">
    <tag k="name" v="Sokołowice"/>
    <tag k="place" v="village"/>
    <tag k="source" v="http://ump.waw.pl/ retrieved 11:18:52 11/17/09 (UMP-Tarnow/src/cities-Tarnow.pnt-converted.txt)"/>
  </node>
  <node id="577425068" version="2" timestamp="2010-04-11T04:53:23Z" uid="20587" user="balrog-kun" changeset="4389130" lat="50.1733932" lon="20.6046287">
    <tag k="name" v="Małkowice"/>
    <tag k="place" v="village"/>
    <tag k="source" v="http://ump.waw.pl/ retrieved 11:18:52 11/17/09 (UMP-Tarnow/src/cities-Tarnow.pnt-converted.txt)"/>
  </node>
  <node id="577425068" version="3" timestamp="2010-04-11T13:17:09Z" uid="20587" user="balrog-kun" changeset="4392352" lat="50.1735617" lon="20.6040796">
    <tag k="name" v="Małkowice"/>
    <tag k="place" v="village"/>
    <tag k="source" v="http://ump.waw.pl/ retrieved 11:18:52 11/17/09 (UMP-Tarnow/src/cities-Tarnow.pnt-converted.txt)"/>
  </node>
  <node id="577425184" version="2" timestamp="2010-04-11T04:53:23Z" uid="20587" user="balrog-kun" changeset="4389130" lat="50.1739203" lon="20.6157234">
    <tag k="name" v="Siedliska"/>
    <tag k="place" v="village"/>
    <tag k="source" v="http://ump.waw.pl/ retrieved 11:18:52 11/17/09 (UMP-Tarnow/src/cities-Tarnow.pnt-converted.txt)"/>
  </node>
  <node id="577425184" version="3" timestamp="2010-04-11T13:17:09Z" uid="20587" user="balrog-kun" changeset="4392352" lat="50.1722747" lon="20.6159692">
    <tag k="name" v="Siedliska"/>
    <tag k="place" v="village"/>
    <tag k="source" v="http://ump.waw.pl/ retrieved 11:18:52 11/17/09 (UMP-Tarnow/src/cities-Tarnow.pnt-converted.txt)"/>
  </node>
  <node id="577425309" version="2" timestamp="2010-04-11T04:53:23Z" uid="20587" user="balrog-kun" changeset="4389130" lat="50.10946" lon="20.66335">
    <tag k="name" v="Rylowa"/>
    <tag k="place" v="village"/>
    <tag k="source" v="http://ump.waw.pl/ retrieved 11:18:52 11/17/09 (UMP-Tarnow/src/cities-Tarnow.pnt-converted.txt)"/>
  </node>
  <node id="577425309" version="3" timestamp="2010-04-11T13:17:09Z" uid="20587" user="balrog-kun" changeset="4392352" lat="50.10946" lon="20.66335">
    <tag k="name" v="Rylowa"/>
    <tag k="place" v="village"/>
    <tag k="source" v="http://ump.waw.pl/ retrieved 11:18:52 11/17/09 (UMP-Tarnow/src/cities-Tarnow.pnt-converted.txt)"/>
  </node>
  <node id="577425309" version="4" timestamp="2010-04-27T04:15:33Z" uid="30632" user="antblant" changeset="4537896" lat="50.10946" lon="20.66335">
    <tag k="name" v="Rylowa"/>
    <tag k="place" v="village"/>
    <tag k="source" v="http://ump.waw.pl/ retrieved 11:18:52 11/17/09 (UMP-Tarnow/src/cities-Tarnow.pnt-converted.txt)"/>
    <tag k="teryt:simc" v="0831793"/>
  </node>
  <node id="577425313" version="2" timestamp="2009-12-11T02:55:00Z" uid="4467" user="Rosscoe" changeset="3346367" lat="-37.6780875" lon="144.9024947"/>
  <node id="577425426" version="2" timestamp="2010-04-11T04:53:23Z" uid="20587" user="balrog-kun" changeset="4389130" lat="50.1238363" lon="20.6720659">
    <tag k="name" v="Włoszyn"/>
    <tag k="place" v="village"/>
    <tag k="source" v="http://ump.waw.pl/ retrieved 11:18:52 11/17/09 (UMP-Tarnow/src/cities-Tarnow.pnt-converted.txt)"/>
  </node>
  <node id="577425426" version="3" timestamp="2010-04-11T13:17:09Z" uid="20587" user="balrog-kun" changeset="4392352" lat="50.1234618" lon="20.6717641">
    <tag k="name" v="Włoszyn"/>
    <tag k="place" v="village"/>
    <tag k="source" v="http://ump.waw.pl/ retrieved 11:18:52 11/17/09 (UMP-Tarnow/src/cities-Tarnow.pnt-converted.txt)"/>
  </node>
  <node id="577425590" version="2" timestamp="2010-04-11T04:53:23Z" uid="20587" user="balrog-kun" changeset="4389130" lat="50.11976" lon="20.70266">
    <tag k="name" v="Jagniówka"/>
    <tag k="place" v="village"/>
    <tag k="source" v="http://ump.waw.pl/ retrieved 11:18:52 11/17/09 (UMP-Tarnow/src/cities-Tarnow.pnt-converted.txt)"/>
  </node>
  <node id="577425590" version="3" timestamp="2010-04-11T13:17:09Z" uid="20587" user="balrog-kun" changeset="4392352" lat="50.11976" lon="20.70266">
    <tag k="name" v="Jagniówka"/>
    <tag k="place" v="village"/>
    <tag k="source" v="http://ump.waw.pl/ retrieved 11:18:52 11/17/09 (UMP-Tarnow/src/cities-Tarnow.pnt-converted.txt)"/>
  </node>
  <node id="577425590" version="4" timestamp="2010-04-17T16:56:01Z" uid="91056" user="Yarl" changeset="4449616" lat="50.1201131" lon="20.7052997">
    <tag k="name" v="Jagniówka"/>
    <tag k="place" v="village"/>
    <tag k="source" v="http://ump.waw.pl/ retrieved 11:18:52 11/17/09 (UMP-Tarnow/src/cities-Tarnow.pnt-converted.txt)"/>
  </node>
  <node id="577425606" version="2" timestamp="2010-04-11T04:53:23Z" uid="20587" user="balrog-kun" changeset="4389130" lat="50.12774" lon="20.70125">
    <tag k="name" v="Dołęga"/>
    <tag k="place" v="village"/>
    <tag k="source" v="http://ump.waw.pl/ retrieved 11:18:52 11/17/09 (UMP-Tarnow/src/cities-Tarnow.pnt-converted.txt)"/>
  </node>
  <node id="577425606" version="3" timestamp="2010-04-11T13:17:09Z" uid="20587" user="balrog-kun" changeset="4392352" lat="50.12774" lon="20.70125">
    <tag k="name" v="Dołęga"/>
    <tag k="place" v="village"/>
    <tag k="source" v="http://ump.waw.pl/ retrieved 11:18:52 11/17/09 (UMP-Tarnow/src/cities-Tarnow.pnt-converted.txt)"/>
  </node>
  <node id="577425800" version="2" timestamp="2010-04-11T04:53:23Z" uid="20587" user="balrog-kun" changeset="4389130" lat="50.1447073" lon="20.6598098">
    <tag k="name" v="Kwików"/>
    <tag k="place" v="village"/>
    <tag k="source" v="http://ump.waw.pl/ retrieved 11:18:52 11/17/09 (UMP-Tarnow/src/cities-Tarnow.pnt-converted.txt)"/>
  </node>
  <node id="577425800" version="3" timestamp="2010-04-11T13:17:09Z" uid="20587" user="balrog-kun" changeset="4392352" lat="50.1441918" lon="20.6604354">
    <tag k="name" v="Kwików"/>
    <tag k="place" v="village"/>
    <tag k="source" v="http://ump.waw.pl/ retrieved 11:18:52 11/17/09 (UMP-Tarnow/src/cities-Tarnow.pnt-converted.txt)"/>
  </node>
  <node id="577425800" version="4" timestamp="2010-04-27T04:14:11Z" uid="30632" user="antblant" changeset="4537892" lat="50.1441918" lon="20.6604354">
    <tag k="name" v="Kwików"/>
    <tag k="place" v="village"/>
    <tag k="source" v="http://ump.waw.pl/ retrieved 11:18:52 11/17/09 (UMP-Tarnow/src/cities-Tarnow.pnt-converted.txt)"/>
    <tag k="teryt:simc" v="0831557"/>
  </node>
  <node id="577425828" version="2" timestamp="2010-04-11T04:53:23Z" uid="20587" user="balrog-kun" changeset="4389130" lat="50.1596015" lon="20.656638">
    <tag k="name" v="Księże Kopacze"/>
    <tag k="place" v="village"/>
    <tag k="source" v="http://ump.waw.pl/ retrieved 11:18:52 11/17/09 (UMP-Tarnow/src/cities-Tarnow.pnt-converted.txt)"/>
  </node>
  <node id="577425828" version="3" timestamp="2010-04-11T13:17:09Z" uid="20587" user="balrog-kun" changeset="4392352" lat="50.1600779" lon="20.6572243">
    <tag k="name" v="Księże Kopacze"/>
    <tag k="place" v="village"/>
    <tag k="source" v="http://ump.waw.pl/ retrieved 11:18:52 11/17/09 (UMP-Tarnow/src/cities-Tarnow.pnt-converted.txt)"/>
  </node>
  <node id="577425828" version="4" timestamp="2010-04-27T04:13:42Z" uid="30632" user="antblant" changeset="4537892" lat="50.1600779" lon="20.6572243">
    <tag k="name" v="Księże Kopacze"/>
    <tag k="place" v="village"/>
    <tag k="source" v="http://ump.waw.pl/ retrieved 11:18:52 11/17/09 (UMP-Tarnow/src/cities-Tarnow.pnt-converted.txt)"/>
    <tag k="teryt:simc" v="0831540"/>
  </node>
  <node id="577425829" version="2" timestamp="2010-04-11T04:53:23Z" uid="20587" user="balrog-kun" changeset="4389130" lat="50.14701" lon="20.68451">
    <tag k="name" v="Zaborów"/>
    <tag k="place" v="village"/>
    <tag k="source" v="http://ump.waw.pl/ retrieved 11:18:52 11/17/09 (UMP-Tarnow/src/cities-Tarnow.pnt-converted.txt)"/>
  </node>
  <node id="577425829" version="3" timestamp="2010-04-11T13:17:09Z" uid="20587" user="balrog-kun" changeset="4392352" lat="50.14701" lon="20.68451">
    <tag k="name" v="Zaborów"/>
    <tag k="place" v="village"/>
    <tag k="source" v="http://ump.waw.pl/ retrieved 11:18:52 11/17/09 (UMP-Tarnow/src/cities-Tarnow.pnt-converted.txt)"/>
  </node>
  <node id="577425897" version="2" timestamp="2010-04-11T04:53:23Z" uid="20587" user="balrog-kun" changeset="4389130" lat="50.1717839" lon="20.6530946">
    <tag k="name" v="Kopacze Wielkie"/>
    <tag k="place" v="village"/>
    <tag k="source" v="http://ump.waw.pl/ retrieved 11:18:52 11/17/09 (UMP-Tarnow/src/cities-Tarnow.pnt-converted.txt)"/>
  </node>
  <node id="577425897" version="3" timestamp="2010-04-11T13:17:09Z" uid="20587" user="balrog-kun" changeset="4392352" lat="50.1723041" lon="20.6551194">
    <tag k="name" v="Kopacze Wielkie"/>
    <tag k="place" v="village"/>
    <tag k="source" v="http://ump.waw.pl/ retrieved 11:18:52 11/17/09 (UMP-Tarnow/src/cities-Tarnow.pnt-converted.txt)"/>
  </node>
  <node id="577425897" version="4" timestamp="2010-04-27T04:02:57Z" uid="30632" user="antblant" changeset="4537862" lat="50.1723041" lon="20.6551194">
    <tag k="name" v="Kopacze Wielkie"/>
    <tag k="place" v="village"/>
    <tag k="source" v="http://ump.waw.pl/ retrieved 11:18:52 11/17/09 (UMP-Tarnow/src/cities-Tarnow.pnt-converted.txt)"/>
    <tag k="teryt:simc" v="0831528"/>
  </node>
  <node id="577425963" version="2" timestamp="2010-04-11T04:53:23Z" uid="20587" user="balrog-kun" changeset="4389130" lat="50.1484669" lon="20.7183283">
    <tag k="name" v="Pojawie"/>
    <tag k="place" v="village"/>
    <tag k="source" v="http://ump.waw.pl/ retrieved 11:18:52 11/17/09 (UMP-Tarnow/src/cities-Tarnow.pnt-converted.txt)"/>
  </node>
  <node id="577425963" version="3" timestamp="2010-04-11T13:17:09Z" uid="20587" user="balrog-kun" changeset="4392352" lat="50.1483027" lon="20.7160861">
    <tag k="name" v="Pojawie"/>
    <tag k="place" v="village"/>
    <tag k="source" v="http://ump.waw.pl/ retrieved 11:18:52 11/17/09 (UMP-Tarnow/src/cities-Tarnow.pnt-converted.txt)"/>
  </node>
  <node id="577425963" version="4" timestamp="2010-04-27T03:56:40Z" uid="30632" user="antblant" changeset="4537843" lat="50.1483027" lon="20.7160861">
    <tag k="name" v="Pojawie"/>
    <tag k="place" v="village"/>
    <tag k="source" v="http://ump.waw.pl/ retrieved 11:18:52 11/17/09 (UMP-Tarnow/src/cities-Tarnow.pnt-converted.txt)"/>
    <tag k="teryt:simc" v="0831652"/>
  </node>
  <node id="577426036" version="3" timestamp="2010-04-11T04:53:24Z" uid="20587" user="balrog-kun" changeset="4389130" lat="50.16773" lon="20.7414199">
    <tag k="name" v="Jadowniki Mokre"/>
    <tag k="place" v="village"/>
    <tag k="source" v="http://ump.waw.pl/ retrieved 11:18:52 11/17/09 (UMP-Tarnow/src/cities-Tarnow.pnt-converted.txt)"/>
  </node>
  <node id="577426036" version="4" timestamp="2010-04-27T04:06:04Z" uid="30632" user="antblant" changeset="4537871" lat="50.16773" lon="20.7414199">
    <tag k="name" v="Jadowniki Mokre"/>
    <tag k="place" v="village"/>
    <tag k="source" v="http://ump.waw.pl/ retrieved 11:18:52 11/17/09 (UMP-Tarnow/src/cities-Tarnow.pnt-converted.txt)"/>
    <tag k="teryt:simc" v="0835667"/>
  </node>
  <node id="577426077" version="2" timestamp="2010-04-11T04:53:24Z" uid="20587" user="balrog-kun" changeset="4389130" lat="50.18634" lon="20.57804">
    <tag k="name" v="Podgaje"/>
    <tag k="place" v="village"/>
    <tag k="source" v="http://ump.waw.pl/ retrieved 11:18:52 11/17/09 (UMP-Tarnow/src/cities-Tarnow.pnt-converted.txt)"/>
  </node>
  <node id="577426077" version="3" timestamp="2010-04-11T13:17:09Z" uid="20587" user="balrog-kun" changeset="4392352" lat="50.18634" lon="20.57804">
    <tag k="name" v="Podgaje"/>
    <tag k="place" v="village"/>
    <tag k="source" v="http://ump.waw.pl/ retrieved 11:18:52 11/17/09 (UMP-Tarnow/src/cities-Tarnow.pnt-converted.txt)"/>
  </node>
  <node id="577426095" version="2" timestamp="2010-04-11T04:53:24Z" uid="20587" user="balrog-kun" changeset="4389130" lat="50.2043158" lon="20.5676367">
    <tag k="name" v="Prokocice"/>
    <tag k="place" v="village"/>
    <tag k="source" v="http://ump.waw.pl/ retrieved 11:18:52 11/17/09 (UMP-Tarnow/src/cities-Tarnow.pnt-converted.txt)"/>
  </node>
  <node id="577426095" version="3" timestamp="2010-04-11T13:17:10Z" uid="20587" user="balrog-kun" changeset="4392352" lat="50.2050512" lon="20.5679095">
    <tag k="name" v="Prokocice"/>
    <tag k="place" v="village"/>
    <tag k="source" v="http://ump.waw.pl/ retrieved 11:18:52 11/17/09 (UMP-Tarnow/src/cities-Tarnow.pnt-converted.txt)"/>
  </node>
  <node id="577426095" version="4" timestamp="2010-04-27T04:09:20Z" uid="30632" user="antblant" changeset="4537879" lat="50.2050512" lon="20.5679095">
    <tag k="name" v="Prokocice"/>
    <tag k="place" v="village"/>
    <tag k="source" v="http://ump.waw.pl/ retrieved 11:18:52 11/17/09 (UMP-Tarnow/src/cities-Tarnow.pnt-converted.txt)"/>
    <tag k="teryt:simc" v="0227318"/>
  </node>
  <node id="577426097" version="2" timestamp="2010-04-11T04:53:24Z" uid="20587" user="balrog-kun" changeset="4389130" lat="50.20503" lon="20.57667">
    <tag k="name" v="Sędziszowice"/>
    <tag k="place" v="village"/>
    <tag k="source" v="http://ump.waw.pl/ retrieved 11:18:52 11/17/09 (UMP-Tarnow/src/cities-Tarnow.pnt-converted.txt)"/>
  </node>
  <node id="577426097" version="3" timestamp="2010-04-11T13:17:10Z" uid="20587" user="balrog-kun" changeset="4392352" lat="50.20503" lon="20.57667">
    <tag k="name" v="Sędziszowice"/>
    <tag k="place" v="village"/>
    <tag k="source" v="http://ump.waw.pl/ retrieved 11:18:52 11/17/09 (UMP-Tarnow/src/cities-Tarnow.pnt-converted.txt)"/>
  </node>
  <node id="577426097" version="4" timestamp="2010-04-27T04:09:21Z" uid="30632" user="antblant" changeset="4537879" lat="50.20503" lon="20.57667">
    <tag k="name" v="Sędziszowice"/>
    <tag k="place" v="village"/>
    <tag k="source" v="http://ump.waw.pl/ retrieved 11:18:52 11/17/09 (UMP-Tarnow/src/cities-Tarnow.pnt-converted.txt)"/>
    <tag k="teryt:simc" v="0227353"/>
  </node>
  <node id="577426121" version="2" timestamp="2010-04-11T04:53:24Z" uid="20587" user="balrog-kun" changeset="4389130" lat="50.18724" lon="20.60094">
    <tag k="name" v="Filipowice"/>
    <tag k="place" v="village"/>
    <tag k="source" v="http://ump.waw.pl/ retrieved 11:18:52 11/17/09 (UMP-Tarnow/src/cities-Tarnow.pnt-converted.txt)"/>
  </node>
  <node id="577426121" version="3" timestamp="2010-04-11T13:17:10Z" uid="20587" user="balrog-kun" changeset="4392352" lat="50.18724" lon="20.60094">
    <tag k="name" v="Filipowice"/>
    <tag k="place" v="village"/>
    <tag k="source" v="http://ump.waw.pl/ retrieved 11:18:52 11/17/09 (UMP-Tarnow/src/cities-Tarnow.pnt-converted.txt)"/>
  </node>
  <node id="577426145" version="2" timestamp="2010-04-11T04:53:24Z" uid="20587" user="balrog-kun" changeset="4389130" lat="50.19792" lon="20.59792">
    <tag k="name" v="Kasin"/>
    <tag k="place" v="village"/>
    <tag k="source" v="http://ump.waw.pl/ retrieved 11:18:52 11/17/09 (UMP-Tarnow/src/cities-Tarnow.pnt-converted.txt)"/>
  </node>
  <node id="577426145" version="3" timestamp="2010-04-11T13:17:10Z" uid="20587" user="balrog-kun" changeset="4392352" lat="50.19792" lon="20.59792">
    <tag k="name" v="Kasin"/>
    <tag k="place" v="village"/>
    <tag k="source" v="http://ump.waw.pl/ retrieved 11:18:52 11/17/09 (UMP-Tarnow/src/cities-Tarnow.pnt-converted.txt)"/>
  </node>
  <node id="577426167" version="2" timestamp="2010-04-11T04:53:24Z" uid="20587" user="balrog-kun" changeset="4389130" lat="50.2212549" lon="20.572599">
    <tag k="name" v="Dobiesławice"/>
    <tag k="place" v="village"/>
    <tag k="source" v="http://ump.waw.pl/ retrieved 11:18:52 11/17/09 (UMP-Tarnow/src/cities-Tarnow.pnt-converted.txt)"/>
  </node>
  <node id="577426167" version="3" timestamp="2010-04-11T13:17:10Z" uid="20587" user="balrog-kun" changeset="4392352" lat="50.2210255" lon="20.5720843">
    <tag k="name" v="Dobiesławice"/>
    <tag k="place" v="village"/>
    <tag k="source" v="http://ump.waw.pl/ retrieved 11:18:52 11/17/09 (UMP-Tarnow/src/cities-Tarnow.pnt-converted.txt)"/>
  </node>
  <node id="577426168" version="2" timestamp="2010-04-11T04:53:24Z" uid="20587" user="balrog-kun" changeset="4389130" lat="50.2273625" lon="20.5644708">
    <tag k="name" v="Stojanowice"/>
    <tag k="place" v="village"/>
    <tag k="source" v="http://ump.waw.pl/ retrieved 11:18:52 11/17/09 (UMP-Tarnow/src/cities-Tarnow.pnt-converted.txt)"/>
  </node>
  <node id="577426168" version="3" timestamp="2010-04-11T13:17:10Z" uid="20587" user="balrog-kun" changeset="4392352" lat="50.2276036" lon="20.5664469">
    <tag k="name" v="Stojanowice"/>
    <tag k="place" v="village"/>
    <tag k="source" v="http://ump.waw.pl/ retrieved 11:18:52 11/17/09 (UMP-Tarnow/src/cities-Tarnow.pnt-converted.txt)"/>
  </node>
  <node id="577426168" version="4" timestamp="2010-04-27T04:13:59Z" uid="30632" user="antblant" changeset="4537892" lat="50.2276036" lon="20.5664469">
    <tag k="name" v="Stojanowice"/>
    <tag k="place" v="village"/>
    <tag k="source" v="http://ump.waw.pl/ retrieved 11:18:52 11/17/09 (UMP-Tarnow/src/cities-Tarnow.pnt-converted.txt)"/>
    <tag k="teryt:simc" v="0227407"/>
  </node>
  <node id="577426246" version="2" timestamp="2010-04-11T04:53:24Z" uid="20587" user="balrog-kun" changeset="4389130" lat="50.19649" lon="20.61151">
    <tag k="name" v="Rachwałowice"/>
    <tag k="place" v="village"/>
    <tag k="source" v="http://ump.waw.pl/ retrieved 11:18:52 11/17/09 (UMP-Tarnow/src/cities-Tarnow.pnt-converted.txt)"/>
  </node>
  <node id="577426246" version="3" timestamp="2010-04-11T13:17:10Z" uid="20587" user="balrog-kun" changeset="4392352" lat="50.19649" lon="20.61151">
    <tag k="name" v="Rachwałowice"/>
    <tag k="place" v="village"/>
    <tag k="source" v="http://ump.waw.pl/ retrieved 11:18:52 11/17/09 (UMP-Tarnow/src/cities-Tarnow.pnt-converted.txt)"/>
  </node>
  <node id="577426246" version="4" timestamp="2010-04-27T04:20:07Z" uid="30632" user="antblant" changeset="4537912" lat="50.19649" lon="20.61151">
    <tag k="name" v="Rachwałowice"/>
    <tag k="place" v="village"/>
    <tag k="source" v="http://ump.waw.pl/ retrieved 11:18:52 11/17/09 (UMP-Tarnow/src/cities-Tarnow.pnt-converted.txt)"/>
    <tag k="teryt:simc" v="0244883"/>
  </node>
  <node id="577426294" version="2" timestamp="2010-04-11T04:53:24Z" uid="20587" user="balrog-kun" changeset="4389130" lat="50.18661" lon="20.64622">
    <tag k="name" v="Przemyków"/>
    <tag k="place" v="village"/>
    <tag k="source" v="http://ump.waw.pl/ retrieved 11:18:52 11/17/09 (UMP-Tarnow/src/cities-Tarnow.pnt-converted.txt)"/>
  </node>
  <node id="577426294" version="3" timestamp="2010-04-11T13:17:10Z" uid="20587" user="balrog-kun" changeset="4392352" lat="50.18661" lon="20.64622">
    <tag k="name" v="Przemyków"/>
    <tag k="place" v="village"/>
    <tag k="source" v="http://ump.waw.pl/ retrieved 11:18:52 11/17/09 (UMP-Tarnow/src/cities-Tarnow.pnt-converted.txt)"/>
  </node>
  <node id="577426294" version="4" timestamp="2010-04-27T04:04:25Z" uid="30632" user="antblant" changeset="4537867" lat="50.18661" lon="20.64622">
    <tag k="name" v="Przemyków"/>
    <tag k="place" v="village"/>
    <tag k="source" v="http://ump.waw.pl/ retrieved 11:18:52 11/17/09 (UMP-Tarnow/src/cities-Tarnow.pnt-converted.txt)"/>
    <tag k="teryt:simc" v="0244848"/>
  </node>
  <node id="577426349" version="2" timestamp="2010-04-11T04:53:24Z" uid="20587" user="balrog-kun" changeset="4389130" lat="50.2005854" lon="20.6455785">
    <tag k="name" v="Piotrowice"/>
    <tag k="place" v="village"/>
    <tag k="source" v="http://ump.waw.pl/ retrieved 11:18:52 11/17/09 (UMP-Tarnow/src/cities-Tarnow.pnt-converted.txt)"/>
  </node>
  <node id="577426349" version="3" timestamp="2010-04-11T13:17:10Z" uid="20587" user="balrog-kun" changeset="4392352" lat="50.2001163" lon="20.6456679">
    <tag k="name" v="Piotrowice"/>
    <tag k="place" v="village"/>
    <tag k="source" v="http://ump.waw.pl/ retrieved 11:18:52 11/17/09 (UMP-Tarnow/src/cities-Tarnow.pnt-converted.txt)"/>
  </node>
  <node id="577426367" version="2" timestamp="2010-04-11T04:53:24Z" uid="20587" user="balrog-kun" changeset="4389130" lat="50.2069509" lon="20.6519861">
    <tag k="name" v="Ławy"/>
    <tag k="place" v="village"/>
    <tag k="source" v="http://ump.waw.pl/ retrieved 11:18:52 11/17/09 (UMP-Tarnow/src/cities-Tarnow.pnt-converted.txt)"/>
  </node>
  <node id="577426367" version="3" timestamp="2010-04-11T13:17:10Z" uid="20587" user="balrog-kun" changeset="4392352" lat="50.2059099" lon="20.6517359">
    <tag k="name" v="Ławy"/>
    <tag k="place" v="village"/>
    <tag k="source" v="http://ump.waw.pl/ retrieved 11:18:52 11/17/09 (UMP-Tarnow/src/cities-Tarnow.pnt-converted.txt)"/>
  </node>
  <node id="577426371" version="2" timestamp="2010-04-11T04:53:24Z" uid="20587" user="balrog-kun" changeset="4389130" lat="50.21239" lon="20.61873">
    <tag k="name" v="Kijany"/>
    <tag k="place" v="village"/>
    <tag k="source" v="http://ump.waw.pl/ retrieved 11:18:52 11/17/09 (UMP-Tarnow/src/cities-Tarnow.pnt-converted.txt)"/>
  </node>
  <node id="577426371" version="3" timestamp="2010-04-11T13:17:10Z" uid="20587" user="balrog-kun" changeset="4392352" lat="50.21239" lon="20.61873">
    <tag k="name" v="Kijany"/>
    <tag k="place" v="village"/>
    <tag k="source" v="http://ump.waw.pl/ retrieved 11:18:52 11/17/09 (UMP-Tarnow/src/cities-Tarnow.pnt-converted.txt)"/>
  </node>
  <node id="577426429" version="2" timestamp="2010-04-11T04:53:24Z" uid="20587" user="balrog-kun" changeset="4389130" lat="50.22186" lon="20.61736">
    <tag k="name" v="Stara Wieś"/>
    <tag k="place" v="village"/>
    <tag k="source" v="http://ump.waw.pl/ retrieved 11:18:52 11/17/09 (UMP-Tarnow/src/cities-Tarnow.pnt-converted.txt)"/>
  </node>
  <node id="577426429" version="3" timestamp="2010-04-11T13:17:10Z" uid="20587" user="balrog-kun" changeset="4392352" lat="50.22186" lon="20.61736">
    <tag k="name" v="Stara Wieś"/>
    <tag k="place" v="village"/>
    <tag k="source" v="http://ump.waw.pl/ retrieved 11:18:52 11/17/09 (UMP-Tarnow/src/cities-Tarnow.pnt-converted.txt)"/>
  </node>
  <node id="577426433" version="2" timestamp="2010-04-11T04:53:24Z" uid="20587" user="balrog-kun" changeset="4389130" lat="50.22816" lon="20.61444">
    <tag k="name" v="Morawiany"/>
    <tag k="place" v="village"/>
    <tag k="source" v="http://ump.waw.pl/ retrieved 11:18:52 11/17/09 (UMP-Tarnow/src/cities-Tarnow.pnt-converted.txt)"/>
  </node>
  <node id="577426433" version="3" timestamp="2010-04-11T13:17:10Z" uid="20587" user="balrog-kun" changeset="4392352" lat="50.22816" lon="20.61444">
    <tag k="name" v="Morawiany"/>
    <tag k="place" v="village"/>
    <tag k="source" v="http://ump.waw.pl/ retrieved 11:18:52 11/17/09 (UMP-Tarnow/src/cities-Tarnow.pnt-converted.txt)"/>
  </node>
  <node id="577426433" version="4" timestamp="2010-04-27T03:57:36Z" uid="30632" user="antblant" changeset="4537850" lat="50.22816" lon="20.61444">
    <tag k="name" v="Morawiany"/>
    <tag k="place" v="village"/>
    <tag k="source" v="http://ump.waw.pl/ retrieved 11:18:52 11/17/09 (UMP-Tarnow/src/cities-Tarnow.pnt-converted.txt)"/>
    <tag k="teryt:simc" v="0227212"/>
  </node>
  <node id="577426481" version="2" timestamp="2010-04-11T04:53:24Z" uid="20587" user="balrog-kun" changeset="4389130" lat="50.2217703" lon="20.6404739">
    <tag k="name" v="Morawianki"/>
    <tag k="place" v="village"/>
    <tag k="source" v="http://ump.waw.pl/ retrieved 11:18:52 11/17/09 (UMP-Tarnow/src/cities-Tarnow.pnt-converted.txt)"/>
  </node>
  <node id="577426481" version="3" timestamp="2010-04-11T13:17:10Z" uid="20587" user="balrog-kun" changeset="4392352" lat="50.2219762" lon="20.6421898">
    <tag k="name" v="Morawianki"/>
    <tag k="place" v="village"/>
    <tag k="source" v="http://ump.waw.pl/ retrieved 11:18:52 11/17/09 (UMP-Tarnow/src/cities-Tarnow.pnt-converted.txt)"/>
  </node>
  <node id="577426481" version="4" timestamp="2010-04-27T04:06:07Z" uid="30632" user="antblant" changeset="4537871" lat="50.2219762" lon="20.6421898">
    <tag k="name" v="Morawianki"/>
    <tag k="place" v="village"/>
    <tag k="source" v="http://ump.waw.pl/ retrieved 11:18:52 11/17/09 (UMP-Tarnow/src/cities-Tarnow.pnt-converted.txt)"/>
    <tag k="teryt:simc" v="0227169"/>
  </node>
  <node id="577426554" version="2" timestamp="2010-04-11T04:53:24Z" uid="20587" user="balrog-kun" changeset="4389130" lat="50.24775" lon="20.59794">
    <tag k="name" v="Brodek"/>
    <tag k="place" v="village"/>
    <tag k="source" v="http://ump.waw.pl/ retrieved 11:18:52 11/17/09 (UMP-Tarnow/src/cities-Tarnow.pnt-converted.txt)"/>
  </node>
  <node id="577426554" version="3" timestamp="2010-04-11T13:17:11Z" uid="20587" user="balrog-kun" changeset="4392352" lat="50.24775" lon="20.59794">
    <tag k="name" v="Brodek"/>
    <tag k="place" v="village"/>
    <tag k="source" v="http://ump.waw.pl/ retrieved 11:18:52 11/17/09 (UMP-Tarnow/src/cities-Tarnow.pnt-converted.txt)"/>
  </node>
  <node id="577426554" version="4" timestamp="2010-04-27T04:15:26Z" uid="30632" user="antblant" changeset="4537896" lat="50.24775" lon="20.59794">
    <tag k="name" v="Brodek"/>
    <tag k="place" v="village"/>
    <tag k="source" v="http://ump.waw.pl/ retrieved 11:18:52 11/17/09 (UMP-Tarnow/src/cities-Tarnow.pnt-converted.txt)"/>
    <tag k="teryt:simc" v="0642170"/>
  </node>
  <node id="577426560" version="2" timestamp="2010-04-11T04:53:24Z" uid="20587" user="balrog-kun" changeset="4389130" lat="50.24164" lon="20.6007">
    <tag k="name" v="Bejsce"/>
    <tag k="place" v="village"/>
    <tag k="source" v="http://ump.waw.pl/ retrieved 11:18:52 11/17/09 (UMP-Tarnow/src/cities-Tarnow.pnt-converted.txt)"/>
  </node>
  <node id="577426560" version="3" timestamp="2010-04-11T13:17:11Z" uid="20587" user="balrog-kun" changeset="4392352" lat="50.24164" lon="20.6007">
    <tag k="name" v="Bejsce"/>
    <tag k="place" v="village"/>
    <tag k="source" v="http://ump.waw.pl/ retrieved 11:18:52 11/17/09 (UMP-Tarnow/src/cities-Tarnow.pnt-converted.txt)"/>
  </node>
  <node id="577426560" version="4" timestamp="2010-04-27T04:01:02Z" uid="30632" user="antblant" changeset="4537859" lat="50.24164" lon="20.6007">
    <tag k="name" v="Bejsce"/>
    <tag k="place" v="village"/>
    <tag k="source" v="http://ump.waw.pl/ retrieved 11:18:52 11/17/09 (UMP-Tarnow/src/cities-Tarnow.pnt-converted.txt)"/>
    <tag k="teryt:simc" v="0226690"/>
  </node>
  <node id="577426639" version="2" timestamp="2010-04-11T04:53:24Z" uid="20587" user="balrog-kun" changeset="4389130" lat="50.2672069" lon="20.5899419">
    <tag k="name" v="Grodowice"/>
    <tag k="place" v="village"/>
    <tag k="source" v="http://ump.waw.pl/ retrieved 11:18:52 11/17/09 (UMP-Tarnow/src/cities-Tarnow.pnt-converted.txt)"/>
  </node>
  <node id="577426639" version="3" timestamp="2010-04-11T13:17:11Z" uid="20587" user="balrog-kun" changeset="4392352" lat="50.266807" lon="20.5889141">
    <tag k="name" v="Grodowice"/>
    <tag k="place" v="village"/>
    <tag k="source" v="http://ump.waw.pl/ retrieved 11:18:52 11/17/09 (UMP-Tarnow/src/cities-Tarnow.pnt-converted.txt)"/>
  </node>
  <node id="577426639" version="4" timestamp="2010-04-27T04:09:24Z" uid="30632" user="antblant" changeset="4537879" lat="50.266807" lon="20.5889141">
    <tag k="name" v="Grodowice"/>
    <tag k="place" v="village"/>
    <tag k="source" v="http://ump.waw.pl/ retrieved 11:18:52 11/17/09 (UMP-Tarnow/src/cities-Tarnow.pnt-converted.txt)"/>
    <tag k="teryt:simc" v="0226916"/>
  </node>
  <node id="577426691" version="2" timestamp="2010-04-11T04:53:24Z" uid="20587" user="balrog-kun" changeset="4389130" lat="50.236876" lon="20.6394997">
    <tag k="name" v="Piotrkowice"/>
    <tag k="place" v="village"/>
    <tag k="source" v="http://ump.waw.pl/ retrieved 11:18:52 11/17/09 (UMP-Tarnow/src/cities-Tarnow.pnt-converted.txt)"/>
  </node>
  <node id="577426691" version="3" timestamp="2010-04-11T13:17:11Z" uid="20587" user="balrog-kun" changeset="4392352" lat="50.2361329" lon="20.6408582">
    <tag k="name" v="Piotrkowice"/>
    <tag k="place" v="village"/>
    <tag k="source" v="http://ump.waw.pl/ retrieved 11:18:52 11/17/09 (UMP-Tarnow/src/cities-Tarnow.pnt-converted.txt)"/>
  </node>
  <node id="577426711" version="2" timestamp="2010-04-11T04:53:24Z" uid="20587" user="balrog-kun" changeset="4389130" lat="50.2314921" lon="20.6510373">
    <tag k="name" v="Uściszkowice"/>
    <tag k="place" v="village"/>
    <tag k="source" v="http://ump.waw.pl/ retrieved 11:18:52 11/17/09 (UMP-Tarnow/src/cities-Tarnow.pnt-converted.txt)"/>
  </node>
  <node id="577426711" version="3" timestamp="2010-04-11T13:17:11Z" uid="20587" user="balrog-kun" changeset="4392352" lat="50.230383" lon="20.6520562">
    <tag k="name" v="Uściszkowice"/>
    <tag k="place" v="village"/>
    <tag k="source" v="http://ump.waw.pl/ retrieved 11:18:52 11/17/09 (UMP-Tarnow/src/cities-Tarnow.pnt-converted.txt)"/>
  </node>
  <node id="577426770" version="2" timestamp="2010-04-11T04:53:25Z" uid="20587" user="balrog-kun" changeset="4389130" lat="50.2640311" lon="20.619278">
    <tag k="name" v="Czyżowice"/>
    <tag k="place" v="village"/>
    <tag k="source" v="http://ump.waw.pl/ retrieved 11:18:52 11/17/09 (UMP-Tarnow/src/cities-Tarnow.pnt-converted.txt)"/>
  </node>
  <node id="577426770" version="3" timestamp="2010-04-11T13:17:11Z" uid="20587" user="balrog-kun" changeset="4392352" lat="50.2637316" lon="20.6193585">
    <tag k="name" v="Czyżowice"/>
    <tag k="place" v="village"/>
    <tag k="source" v="http://ump.waw.pl/ retrieved 11:18:52 11/17/09 (UMP-Tarnow/src/cities-Tarnow.pnt-converted.txt)"/>
  </node>
  <node id="577426774" version="2" timestamp="2010-04-11T04:53:25Z" uid="20587" user="balrog-kun" changeset="4389130" lat="50.2549" lon="20.63623">
    <tag k="name" v="Królewice"/>
    <tag k="place" v="village"/>
    <tag k="source" v="http://ump.waw.pl/ retrieved 11:18:52 11/17/09 (UMP-Tarnow/src/cities-Tarnow.pnt-converted.txt)"/>
  </node>
  <node id="577426774" version="3" timestamp="2010-04-11T13:17:11Z" uid="20587" user="balrog-kun" changeset="4392352" lat="50.2549" lon="20.63623">
    <tag k="name" v="Królewice"/>
    <tag k="place" v="village"/>
    <tag k="source" v="http://ump.waw.pl/ retrieved 11:18:52 11/17/09 (UMP-Tarnow/src/cities-Tarnow.pnt-converted.txt)"/>
  </node>
  <node id="577426804" version="2" timestamp="2010-04-11T04:53:25Z" uid="20587" user="balrog-kun" changeset="4389130" lat="50.1838345" lon="20.6698213">
    <tag k="name" v="Wola Przemykowska"/>
    <tag k="place" v="village"/>
    <tag k="source" v="http://ump.waw.pl/ retrieved 11:18:52 11/17/09 (UMP-Tarnow/src/cities-Tarnow.pnt-converted.txt)"/>
  </node>
  <node id="577426804" version="3" timestamp="2010-04-11T13:17:11Z" uid="20587" user="balrog-kun" changeset="4392352" lat="50.1869822" lon="20.6642076">
    <tag k="name" v="Wola Przemykowska"/>
    <tag k="place" v="village"/>
    <tag k="source" v="http://ump.waw.pl/ retrieved 11:18:52 11/17/09 (UMP-Tarnow/src/cities-Tarnow.pnt-converted.txt)"/>
  </node>
  <node id="577426804" version="4" timestamp="2010-04-27T04:07:17Z" uid="30632" user="antblant" changeset="4537875" lat="50.1869822" lon="20.6642076">
    <tag k="name" v="Wola Przemykowska"/>
    <tag k="place" v="village"/>
    <tag k="source" v="http://ump.waw.pl/ retrieved 11:18:52 11/17/09 (UMP-Tarnow/src/cities-Tarnow.pnt-converted.txt)"/>
    <tag k="teryt:simc" v="0832090"/>
  </node>
  <node id="577426875" version="2" timestamp="2010-04-11T04:53:25Z" uid="20587" user="balrog-kun" changeset="4389130" lat="50.1933552" lon="20.6865487">
    <tag k="name" v="Natków"/>
    <tag k="place" v="village"/>
    <tag k="source" v="http://ump.waw.pl/ retrieved 11:18:52 11/17/09 (UMP-Tarnow/src/cities-Tarnow.pnt-converted.txt)"/>
  </node>
  <node id="577426875" version="3" timestamp="2010-04-11T13:17:11Z" uid="20587" user="balrog-kun" changeset="4392352" lat="50.1930403" lon="20.6859996">
    <tag k="name" v="Natków"/>
    <tag k="place" v="village"/>
    <tag k="source" v="http://ump.waw.pl/ retrieved 11:18:52 11/17/09 (UMP-Tarnow/src/cities-Tarnow.pnt-converted.txt)"/>
  </node>
  <node id="577426948" version="2" timestamp="2010-04-11T04:53:25Z" uid="20587" user="balrog-kun" changeset="4389130" lat="50.2123709" lon="20.6679368">
    <tag k="name" v="Urzuty"/>
    <tag k="place" v="village"/>
    <tag k="source" v="http://ump.waw.pl/ retrieved 11:18:52 11/17/09 (UMP-Tarnow/src/cities-Tarnow.pnt-converted.txt)"/>
  </node>
  <node id="577426948" version="3" timestamp="2010-04-11T13:17:11Z" uid="20587" user="balrog-kun" changeset="4392352" lat="50.2127827" lon="20.6680083">
    <tag k="name" v="Urzuty"/>
    <tag k="place" v="village"/>
    <tag k="source" v="http://ump.waw.pl/ retrieved 11:18:52 11/17/09 (UMP-Tarnow/src/cities-Tarnow.pnt-converted.txt)"/>
  </node>
  <node id="577426983" version="2" timestamp="2010-04-11T04:53:25Z" uid="20587" user="balrog-kun" changeset="4389130" lat="50.2083909" lon="20.6942408">
    <tag k="name" v="Wola Rogowska"/>
    <tag k="place" v="village"/>
    <tag k="source" v="http://ump.waw.pl/ retrieved 11:18:52 11/17/09 (UMP-Tarnow/src/cities-Tarnow.pnt-converted.txt)"/>
  </node>
  <node id="577426983" version="3" timestamp="2010-04-11T13:17:11Z" uid="20587" user="balrog-kun" changeset="4392352" lat="50.2098698" lon="20.6930968">
    <tag k="name" v="Wola Rogowska"/>
    <tag k="place" v="village"/>
    <tag k="source" v="http://ump.waw.pl/ retrieved 11:18:52 11/17/09 (UMP-Tarnow/src/cities-Tarnow.pnt-converted.txt)"/>
  </node>
  <node id="577426983" version="4" timestamp="2010-04-27T03:57:42Z" uid="30632" user="antblant" changeset="4537850" lat="50.2098698" lon="20.6930968">
    <tag k="name" v="Wola Rogowska"/>
    <tag k="place" v="village"/>
    <tag k="source" v="http://ump.waw.pl/ retrieved 11:18:52 11/17/09 (UMP-Tarnow/src/cities-Tarnow.pnt-converted.txt)"/>
    <tag k="teryt:simc" v="0835740"/>
  </node>
  <node id="577427013" version="2" timestamp="2010-04-11T04:53:25Z" uid="20587" user="balrog-kun" changeset="4389130" lat="50.2203953" lon="20.6878139">
    <tag k="name" v="Wyszogród"/>
    <tag k="place" v="village"/>
    <tag k="source" v="http://ump.waw.pl/ retrieved 11:18:52 11/17/09 (UMP-Tarnow/src/cities-Tarnow.pnt-converted.txt)"/>
  </node>
  <node id="577427013" version="3" timestamp="2010-04-11T13:17:11Z" uid="20587" user="balrog-kun" changeset="4392352" lat="50.219549" lon="20.6880641">
    <tag k="name" v="Wyszogród"/>
    <tag k="place" v="village"/>
    <tag k="source" v="http://ump.waw.pl/ retrieved 11:18:52 11/17/09 (UMP-Tarnow/src/cities-Tarnow.pnt-converted.txt)"/>
  </node>
  <node id="577427103" version="2" timestamp="2009-12-14T06:07:08Z" uid="4467" user="Rosscoe" changeset="3369509" lat="-37.6634077" lon="144.9145598"/>
  <node id="577427105" version="2" timestamp="2009-12-14T06:07:08Z" uid="4467" user="Rosscoe" changeset="3369509" lat="-37.6631327" lon="144.9145994"/>
  <node id="577427107" version="2" timestamp="2009-12-14T06:07:08Z" uid="4467" user="Rosscoe" changeset="3369509" lat="-37.6628888" lon="144.9146208"/>
  <node id="577427108" version="2" timestamp="2009-12-14T06:07:08Z" uid="4467" user="Rosscoe" changeset="3369509" lat="-37.6626676" lon="144.9146172"/>
  <node id="577427110" version="2" timestamp="2009-12-14T06:07:08Z" uid="4467" user="Rosscoe" changeset="3369509" lat="-37.6622834" lon="144.9145792"/>
  <node id="577427126" version="2" timestamp="2010-04-11T04:53:25Z" uid="20587" user="balrog-kun" changeset="4389130" lat="50.22803" lon="20.70103">
    <tag k="name" v="Rogów"/>
    <tag k="place" v="village"/>
    <tag k="source" v="http://ump.waw.pl/ retrieved 11:18:52 11/17/09 (UMP-Tarnow/src/cities-Tarnow.pnt-converted.txt)"/>
  </node>
  <node id="577427126" version="3" timestamp="2010-04-11T13:17:11Z" uid="20587" user="balrog-kun" changeset="4392352" lat="50.22803" lon="20.70103">
    <tag k="name" v="Rogów"/>
    <tag k="place" v="village"/>
    <tag k="source" v="http://ump.waw.pl/ retrieved 11:18:52 11/17/09 (UMP-Tarnow/src/cities-Tarnow.pnt-converted.txt)"/>
  </node>
  <node id="577427146" version="2" timestamp="2010-04-11T04:53:25Z" uid="20587" user="balrog-kun" changeset="4389130" lat="50.21015" lon="20.73586">
    <tag k="name" v="Demblin"/>
    <tag k="place" v="village"/>
    <tag k="source" v="http://ump.waw.pl/ retrieved 11:18:52 11/17/09 (UMP-Tarnow/src/cities-Tarnow.pnt-converted.txt)"/>
  </node>
  <node id="577427146" version="3" timestamp="2010-04-11T13:17:11Z" uid="20587" user="balrog-kun" changeset="4392352" lat="50.21015" lon="20.73586">
    <tag k="name" v="Demblin"/>
    <tag k="place" v="village"/>
    <tag k="source" v="http://ump.waw.pl/ retrieved 11:18:52 11/17/09 (UMP-Tarnow/src/cities-Tarnow.pnt-converted.txt)"/>
  </node>
  <node id="577427146" version="4" timestamp="2010-04-27T03:59:50Z" uid="30632" user="antblant" changeset="4537857" lat="50.21015" lon="20.73586">
    <tag k="name" v="Demblin"/>
    <tag k="place" v="village"/>
    <tag k="source" v="http://ump.waw.pl/ retrieved 11:18:52 11/17/09 (UMP-Tarnow/src/cities-Tarnow.pnt-converted.txt)"/>
    <tag k="teryt:simc" v="0835650"/>
  </node>
  <node id="577427230" version="2" timestamp="2010-04-11T04:53:25Z" uid="20587" user="balrog-kun" changeset="4389130" lat="50.22632" lon="20.72922">
    <tag k="name" v="Nowopole"/>
    <tag k="place" v="village"/>
    <tag k="source" v="http://ump.waw.pl/ retrieved 11:18:52 11/17/09 (UMP-Tarnow/src/cities-Tarnow.pnt-converted.txt)"/>
  </node>
  <node id="577427230" version="3" timestamp="2010-04-11T13:17:11Z" uid="20587" user="balrog-kun" changeset="4392352" lat="50.22632" lon="20.72922">
    <tag k="name" v="Nowopole"/>
    <tag k="place" v="village"/>
    <tag k="source" v="http://ump.waw.pl/ retrieved 11:18:52 11/17/09 (UMP-Tarnow/src/cities-Tarnow.pnt-converted.txt)"/>
  </node>
  <node id="577427314" version="2" timestamp="2010-04-11T04:53:26Z" uid="20587" user="balrog-kun" changeset="4389130" lat="50.2471" lon="20.66833">
    <tag k="name" v="Kęsów"/>
    <tag k="place" v="village"/>
    <tag k="source" v="http://ump.waw.pl/ retrieved 11:18:52 11/17/09 (UMP-Tarnow/src/cities-Tarnow.pnt-converted.txt)"/>
  </node>
  <node id="577427314" version="3" timestamp="2010-04-11T13:17:11Z" uid="20587" user="balrog-kun" changeset="4392352" lat="50.2471" lon="20.66833">
    <tag k="name" v="Kęsów"/>
    <tag k="place" v="village"/>
    <tag k="source" v="http://ump.waw.pl/ retrieved 11:18:52 11/17/09 (UMP-Tarnow/src/cities-Tarnow.pnt-converted.txt)"/>
  </node>
  <node id="577427314" version="4" timestamp="2010-04-27T04:20:36Z" uid="30632" user="antblant" changeset="4537912" lat="50.2471" lon="20.66833">
    <tag k="name" v="Kęsów"/>
    <tag k="place" v="village"/>
    <tag k="source" v="http://ump.waw.pl/ retrieved 11:18:52 11/17/09 (UMP-Tarnow/src/cities-Tarnow.pnt-converted.txt)"/>
    <tag k="teryt:simc" v="0257673"/>
  </node>
  <node id="577427325" version="2" timestamp="2010-04-11T04:53:26Z" uid="20587" user="balrog-kun" changeset="4389130" lat="50.24397" lon="20.68639">
    <tag k="name" v="Kobiela"/>
    <tag k="place" v="village"/>
    <tag k="source" v="http://ump.waw.pl/ retrieved 11:18:52 11/17/09 (UMP-Tarnow/src/cities-Tarnow.pnt-converted.txt)"/>
  </node>
  <node id="577427325" version="3" timestamp="2010-04-11T13:17:11Z" uid="20587" user="balrog-kun" changeset="4392352" lat="50.24397" lon="20.68639">
    <tag k="name" v="Kobiela"/>
    <tag k="place" v="village"/>
    <tag k="source" v="http://ump.waw.pl/ retrieved 11:18:52 11/17/09 (UMP-Tarnow/src/cities-Tarnow.pnt-converted.txt)"/>
  </node>
  <node id="577427355" version="2" timestamp="2010-04-11T04:53:29Z" uid="20587" user="balrog-kun" changeset="4389130" lat="50.25923" lon="20.66842">
    <tag k="name" v="Mistrzowice"/>
    <tag k="place" v="village"/>
    <tag k="source" v="http://ump.waw.pl/ retrieved 11:18:52 11/17/09 (UMP-Tarnow/src/cities-Tarnow.pnt-converted.txt)"/>
  </node>
  <node id="577427355" version="3" timestamp="2010-04-11T13:17:11Z" uid="20587" user="balrog-kun" changeset="4392352" lat="50.25923" lon="20.66842">
    <tag k="name" v="Mistrzowice"/>
    <tag k="place" v="village"/>
    <tag k="source" v="http://ump.waw.pl/ retrieved 11:18:52 11/17/09 (UMP-Tarnow/src/cities-Tarnow.pnt-converted.txt)"/>
  </node>
  <node id="577427355" version="4" timestamp="2010-04-27T04:07:31Z" uid="30632" user="antblant" changeset="4537875" lat="50.25923" lon="20.66842">
    <tag k="name" v="Mistrzowice"/>
    <tag k="place" v="village"/>
    <tag k="source" v="http://ump.waw.pl/ retrieved 11:18:52 11/17/09 (UMP-Tarnow/src/cities-Tarnow.pnt-converted.txt)"/>
    <tag k="teryt:simc" v="0257957"/>
  </node>
  <node id="577427376" version="2" timestamp="2010-04-11T04:53:31Z" uid="20587" user="balrog-kun" changeset="4389130" lat="50.27265" lon="20.66279">
    <tag k="name" v="Rzemienowice"/>
    <tag k="place" v="village"/>
    <tag k="source" v="http://ump.waw.pl/ retrieved 11:18:52 11/17/09 (UMP-Tarnow/src/cities-Tarnow.pnt-converted.txt)"/>
  </node>
  <node id="577427376" version="3" timestamp="2010-04-11T13:17:12Z" uid="20587" user="balrog-kun" changeset="4392352" lat="50.27265" lon="20.66279">
    <tag k="name" v="Rzemienowice"/>
    <tag k="place" v="village"/>
    <tag k="source" v="http://ump.waw.pl/ retrieved 11:18:52 11/17/09 (UMP-Tarnow/src/cities-Tarnow.pnt-converted.txt)"/>
  </node>
  <node id="577427376" version="4" timestamp="2010-04-27T04:20:11Z" uid="30632" user="antblant" changeset="4537912" lat="50.27265" lon="20.66279">
    <tag k="name" v="Rzemienowice"/>
    <tag k="place" v="village"/>
    <tag k="source" v="http://ump.waw.pl/ retrieved 11:18:52 11/17/09 (UMP-Tarnow/src/cities-Tarnow.pnt-converted.txt)"/>
    <tag k="teryt:simc" v="0258017"/>
  </node>
  <node id="577427410" version="2" timestamp="2010-04-11T04:53:31Z" uid="20587" user="balrog-kun" changeset="4389130" lat="50.25868" lon="20.69177">
    <tag k="name" v="Chrustowice"/>
    <tag k="place" v="village"/>
    <tag k="source" v="http://ump.waw.pl/ retrieved 11:18:52 11/17/09 (UMP-Tarnow/src/cities-Tarnow.pnt-converted.txt)"/>
  </node>
  <node id="577427410" version="3" timestamp="2010-04-11T13:17:12Z" uid="20587" user="balrog-kun" changeset="4392352" lat="50.25868" lon="20.69177">
    <tag k="name" v="Chrustowice"/>
    <tag k="place" v="village"/>
    <tag k="source" v="http://ump.waw.pl/ retrieved 11:18:52 11/17/09 (UMP-Tarnow/src/cities-Tarnow.pnt-converted.txt)"/>
  </node>
  <node id="577427410" version="4" timestamp="2010-04-27T04:20:23Z" uid="30632" user="antblant" changeset="4537912" lat="50.25868" lon="20.69177">
    <tag k="name" v="Chrustowice"/>
    <tag k="place" v="village"/>
    <tag k="source" v="http://ump.waw.pl/ retrieved 11:18:52 11/17/09 (UMP-Tarnow/src/cities-Tarnow.pnt-converted.txt)"/>
    <tag k="teryt:simc" v="0257555"/>
  </node>
  <node id="577427512" version="2" timestamp="2010-04-11T04:53:31Z" uid="20587" user="balrog-kun" changeset="4389130" lat="50.24477" lon="20.72391">
    <tag k="name" v="Opatowiec"/>
    <tag k="place" v="village"/>
    <tag k="source" v="http://ump.waw.pl/ retrieved 11:18:52 11/17/09 (UMP-Tarnow/src/cities-Tarnow.pnt-converted.txt)"/>
  </node>
  <node id="577427512" version="3" timestamp="2010-04-11T13:17:12Z" uid="20587" user="balrog-kun" changeset="4392352" lat="50.24477" lon="20.72391">
    <tag k="name" v="Opatowiec"/>
    <tag k="place" v="village"/>
    <tag k="source" v="http://ump.waw.pl/ retrieved 11:18:52 11/17/09 (UMP-Tarnow/src/cities-Tarnow.pnt-converted.txt)"/>
  </node>
  <node id="577427560" version="2" timestamp="2010-04-11T04:53:31Z" uid="20587" user="balrog-kun" changeset="4389130" lat="50.2619" lon="20.73871">
    <tag k="name" v="Kraśniów"/>
    <tag k="place" v="village"/>
    <tag k="source" v="http://ump.waw.pl/ retrieved 11:18:52 11/17/09 (UMP-Tarnow/src/cities-Tarnow.pnt-converted.txt)"/>
  </node>
  <node id="577427560" version="3" timestamp="2010-04-11T13:17:12Z" uid="20587" user="balrog-kun" changeset="4392352" lat="50.2619" lon="20.73871">
    <tag k="name" v="Kraśniów"/>
    <tag k="place" v="village"/>
    <tag k="source" v="http://ump.waw.pl/ retrieved 11:18:52 11/17/09 (UMP-Tarnow/src/cities-Tarnow.pnt-converted.txt)"/>
  </node>
  <node id="577427560" version="4" timestamp="2010-04-27T04:02:34Z" uid="30632" user="antblant" changeset="4537862" lat="50.2619" lon="20.73871">
    <tag k="name" v="Kraśniów"/>
    <tag k="place" v="village"/>
    <tag k="source" v="http://ump.waw.pl/ retrieved 11:18:52 11/17/09 (UMP-Tarnow/src/cities-Tarnow.pnt-converted.txt)"/>
    <tag k="teryt:simc" v="0257791"/>
  </node>
  <node id="577427564" version="2" timestamp="2010-04-11T04:53:31Z" uid="20587" user="balrog-kun" changeset="4389130" lat="50.2698" lon="20.74043">
    <tag k="name" v="Chwalibogowice"/>
    <tag k="place" v="village"/>
    <tag k="source" v="http://ump.waw.pl/ retrieved 11:18:52 11/17/09 (UMP-Tarnow/src/cities-Tarnow.pnt-converted.txt)"/>
  </node>
  <node id="577427564" version="3" timestamp="2010-04-11T13:17:12Z" uid="20587" user="balrog-kun" changeset="4392352" lat="50.2698" lon="20.74043">
    <tag k="name" v="Chwalibogowice"/>
    <tag k="place" v="village"/>
    <tag k="source" v="http://ump.waw.pl/ retrieved 11:18:52 11/17/09 (UMP-Tarnow/src/cities-Tarnow.pnt-converted.txt)"/>
  </node>
  <node id="577427564" version="4" timestamp="2010-04-27T04:13:59Z" uid="30632" user="antblant" changeset="4537892" lat="50.2698" lon="20.74043">
    <tag k="name" v="Chwalibogowice"/>
    <tag k="place" v="village"/>
    <tag k="source" v="http://ump.waw.pl/ retrieved 11:18:52 11/17/09 (UMP-Tarnow/src/cities-Tarnow.pnt-converted.txt)"/>
    <tag k="teryt:simc" v="0257584"/>
  </node>
  <node id="577427910" version="3" timestamp="2010-04-11T04:53:31Z" uid="20587" user="balrog-kun" changeset="4389130" lat="50.09644" lon="20.81687">
    <tag k="name" v="Wola Radłowska"/>
    <tag k="place" v="village"/>
    <tag k="source" v="http://ump.waw.pl/ retrieved 11:18:52 11/17/09 (UMP-Tarnow/src/cities-Tarnow.pnt-converted.txt)"/>
  </node>
  <node id="577427910" version="4" timestamp="2010-04-11T13:17:12Z" uid="20587" user="balrog-kun" changeset="4392352" lat="50.09644" lon="20.81687">
    <tag k="name" v="Wola Radłowska"/>
    <tag k="place" v="village"/>
    <tag k="source" v="http://ump.waw.pl/ retrieved 11:18:52 11/17/09 (UMP-Tarnow/src/cities-Tarnow.pnt-converted.txt)"/>
  </node>
  <node id="577427910" version="5" timestamp="2010-04-27T03:56:39Z" uid="30632" user="antblant" changeset="4537843" lat="50.09644" lon="20.81687">
    <tag k="name" v="Wola Radłowska"/>
    <tag k="place" v="village"/>
    <tag k="source" v="http://ump.waw.pl/ retrieved 11:18:52 11/17/09 (UMP-Tarnow/src/cities-Tarnow.pnt-converted.txt)"/>
    <tag k="teryt:simc" v="0828012"/>
  </node>
  <node id="577428150" version="2" timestamp="2010-04-11T04:53:31Z" uid="20587" user="balrog-kun" changeset="4389130" lat="50.08404" lon="20.84777">
    <tag k="name" v="Radłów"/>
    <tag k="place" v="town"/>
    <tag k="source" v="http://ump.waw.pl/ retrieved 11:18:52 11/17/09 (UMP-Tarnow/src/cities-Tarnow.pnt-converted.txt)"/>
  </node>
  <node id="577428150" version="3" timestamp="2010-04-11T13:17:12Z" uid="20587" user="balrog-kun" changeset="4392352" lat="50.08404" lon="20.84777">
    <tag k="name" v="Radłów"/>
    <tag k="place" v="town"/>
    <tag k="source" v="http://ump.waw.pl/ retrieved 11:18:52 11/17/09 (UMP-Tarnow/src/cities-Tarnow.pnt-converted.txt)"/>
  </node>
  <node id="577428220" version="2" timestamp="2010-04-11T04:53:31Z" uid="20587" user="balrog-kun" changeset="4389130" lat="50.07677" lon="20.86369">
    <tag k="name" v="Skałka"/>
    <tag k="place" v="village"/>
    <tag k="source" v="http://ump.waw.pl/ retrieved 11:18:52 11/17/09 (UMP-Tarnow/src/cities-Tarnow.pnt-converted.txt)"/>
  </node>
  <node id="577428220" version="3" timestamp="2010-04-11T13:17:12Z" uid="20587" user="balrog-kun" changeset="4392352" lat="50.07677" lon="20.86369">
    <tag k="name" v="Skałka"/>
    <tag k="place" v="village"/>
    <tag k="source" v="http://ump.waw.pl/ retrieved 11:18:52 11/17/09 (UMP-Tarnow/src/cities-Tarnow.pnt-converted.txt)"/>
  </node>
  <node id="577428221" version="2" timestamp="2010-04-11T04:53:31Z" uid="20587" user="balrog-kun" changeset="4389130" lat="50.08514" lon="20.87077">
    <tag k="name" v="Łęka Siedlecka"/>
    <tag k="place" v="village"/>
    <tag k="source" v="http://ump.waw.pl/ retrieved 11:18:52 11/17/09 (UMP-Tarnow/src/cities-Tarnow.pnt-converted.txt)"/>
  </node>
  <node id="577428221" version="3" timestamp="2010-04-11T13:17:12Z" uid="20587" user="balrog-kun" changeset="4392352" lat="50.08514" lon="20.87077">
    <tag k="name" v="Łęka Siedlecka"/>
    <tag k="place" v="village"/>
    <tag k="source" v="http://ump.waw.pl/ retrieved 11:18:52 11/17/09 (UMP-Tarnow/src/cities-Tarnow.pnt-converted.txt)"/>
  </node>
  <node id="577428221" version="4" timestamp="2010-04-27T04:00:53Z" uid="30632" user="antblant" changeset="4537859" lat="50.08514" lon="20.87077">
    <tag k="name" v="Łęka Siedlecka"/>
    <tag k="place" v="village"/>
    <tag k="source" v="http://ump.waw.pl/ retrieved 11:18:52 11/17/09 (UMP-Tarnow/src/cities-Tarnow.pnt-converted.txt)"/>
    <tag k="teryt:simc" v="0827863"/>
  </node>
  <node id="577428314" version="2" timestamp="2010-04-11T04:53:31Z" uid="20587" user="balrog-kun" changeset="4389130" lat="50.0753263" lon="20.8892886">
    <tag k="name" v="Siedlec"/>
    <tag k="place" v="village"/>
    <tag k="source" v="http://ump.waw.pl/ retrieved 11:18:52 11/17/09 (UMP-Tarnow/src/cities-Tarnow.pnt-converted.txt)"/>
  </node>
  <node id="577428314" version="3" timestamp="2010-04-11T13:17:12Z" uid="20587" user="balrog-kun" changeset="4392352" lat="50.0751618" lon="20.8884009">
    <tag k="name" v="Siedlec"/>
    <tag k="place" v="village"/>
    <tag k="source" v="http://ump.waw.pl/ retrieved 11:18:52 11/17/09 (UMP-Tarnow/src/cities-Tarnow.pnt-converted.txt)"/>
  </node>
  <node id="577428629" version="2" timestamp="2010-04-11T04:53:31Z" uid="20587" user="balrog-kun" changeset="4389130" lat="50.0951886" lon="20.8819575">
    <tag k="name" v="Sanoka"/>
    <tag k="place" v="village"/>
    <tag k="source" v="http://ump.waw.pl/ retrieved 11:18:52 11/17/09 (UMP-Tarnow/src/cities-Tarnow.pnt-converted.txt)"/>
  </node>
  <node id="577428629" version="3" timestamp="2010-04-11T13:17:12Z" uid="20587" user="balrog-kun" changeset="4392352" lat="50.094888" lon="20.8812107">
    <tag k="name" v="Sanoka"/>
    <tag k="place" v="village"/>
    <tag k="source" v="http://ump.waw.pl/ retrieved 11:18:52 11/17/09 (UMP-Tarnow/src/cities-Tarnow.pnt-converted.txt)"/>
  </node>
  <node id="577428629" version="4" timestamp="2010-04-27T03:58:07Z" uid="30632" user="antblant" changeset="4537850" lat="50.094888" lon="20.8812107">
    <tag k="name" v="Sanoka"/>
    <tag k="place" v="village"/>
    <tag k="source" v="http://ump.waw.pl/ retrieved 11:18:52 11/17/09 (UMP-Tarnow/src/cities-Tarnow.pnt-converted.txt)"/>
    <tag k="teryt:simc" v="0827930"/>
  </node>
  <node id="577428662" version="2" timestamp="2010-04-11T04:53:31Z" uid="20587" user="balrog-kun" changeset="4389130" lat="50.0942346" lon="20.8965598">
    <tag k="name" v="Ilkowice"/>
    <tag k="place" v="town"/>
    <tag k="source" v="http://ump.waw.pl/ retrieved 11:18:52 11/17/09 (UMP-Tarnow/src/cities-Tarnow.pnt-converted.txt)"/>
  </node>
  <node id="577428662" version="3" timestamp="2010-04-11T13:17:13Z" uid="20587" user="balrog-kun" changeset="4392352" lat="50.0939709" lon="20.8935211">
    <tag k="name" v="Ilkowice"/>
    <tag k="place" v="town"/>
    <tag k="source" v="http://ump.waw.pl/ retrieved 11:18:52 11/17/09 (UMP-Tarnow/src/cities-Tarnow.pnt-converted.txt)"/>
  </node>
  <node id="577428662" version="4" timestamp="2012-02-26T13:33:17Z" uid="91056" user="Yarl" changeset="10798194" lat="50.0939709" lon="20.8935211">
    <tag k="name" v="Ilkowice"/>
    <tag k="place" v="village"/>
    <tag k="source" v="http://ump.waw.pl/ retrieved 11:18:52 11/17/09 (UMP-Tarnow/src/cities-Tarnow.pnt-converted.txt)"/>
  </node>
  <node id="577428679" version="3" timestamp="2010-04-11T04:53:31Z" uid="20587" user="balrog-kun" changeset="4389130" lat="50.07844" lon="20.91521">
    <tag k="name" v="Łężec"/>
    <tag k="note" v="FIXME"/>
    <tag k="place" v="village"/>
    <tag k="source" v="http://ump.waw.pl/ retrieved 11:18:52 11/17/09 (UMP-Tarnow/src/cities-Tarnow.pnt-converted.txt)"/>
  </node>
  <node id="577428679" version="4" timestamp="2010-04-11T13:17:13Z" uid="20587" user="balrog-kun" changeset="4392352" lat="50.07844" lon="20.91521">
    <tag k="name" v="Łężec"/>
    <tag k="note" v="FIXME"/>
    <tag k="place" v="village"/>
    <tag k="source" v="http://ump.waw.pl/ retrieved 11:18:52 11/17/09 (UMP-Tarnow/src/cities-Tarnow.pnt-converted.txt)"/>
  </node>
  <node id="577428679" version="5" timestamp="2010-04-27T04:09:24Z" uid="30632" user="antblant" changeset="4537879" lat="50.07844" lon="20.91521">
    <tag k="name" v="Łężec"/>
    <tag k="note" v="FIXME"/>
    <tag k="place" v="village"/>
    <tag k="source" v="http://ump.waw.pl/ retrieved 11:18:52 11/17/09 (UMP-Tarnow/src/cities-Tarnow.pnt-converted.txt)"/>
    <tag k="teryt:simc" v="0296638"/>
  </node>
  <node id="577428723" version="3" timestamp="2010-04-11T04:53:31Z" uid="20587" user="balrog-kun" changeset="4389130" lat="50.0890059" lon="20.9124688">
    <tag k="name" v="Rudno"/>
    <tag k="place" v="village"/>
    <tag k="source" v="http://ump.waw.pl/ retrieved 11:18:52 11/17/09 (UMP-Tarnow/src/cities-Tarnow.pnt-converted.txt)"/>
  </node>
  <node id="577428723" version="4" timestamp="2010-04-11T13:17:13Z" uid="20587" user="balrog-kun" changeset="4392352" lat="50.0878813" lon="20.9126225">
    <tag k="name" v="Rudno"/>
    <tag k="place" v="village"/>
    <tag k="source" v="http://ump.waw.pl/ retrieved 11:18:52 11/17/09 (UMP-Tarnow/src/cities-Tarnow.pnt-converted.txt)"/>
  </node>
  <node id="577428899" version="3" timestamp="2010-04-11T04:53:31Z" uid="20587" user="balrog-kun" changeset="4389130" lat="50.0717921" lon="20.9308014">
    <tag k="name" v="Górny Łęg"/>
    <tag k="place" v="hamlet"/>
    <tag k="source" v="http://ump.waw.pl/ retrieved 11:18:52 11/17/09 (UMP-Tarnow/src/cities-Tarnow.pnt-converted.txt)"/>
  </node>
  <node id="577428899" version="4" timestamp="2010-04-11T13:17:13Z" uid="20587" user="balrog-kun" changeset="4392352" lat="50.071403" lon="20.9309949">
    <tag k="name" v="Górny Łęg"/>
    <tag k="place" v="hamlet"/>
    <tag k="source" v="http://ump.waw.pl/ retrieved 11:18:52 11/17/09 (UMP-Tarnow/src/cities-Tarnow.pnt-converted.txt)"/>
  </node>
  <node id="577428930" version="3" timestamp="2010-04-11T04:53:32Z" uid="20587" user="balrog-kun" changeset="4389130" lat="50.0746415" lon="20.940023">
    <tag k="name" v="Wychylówka"/>
    <tag k="place" v="hamlet"/>
    <tag k="source" v="http://ump.waw.pl/ retrieved 11:18:52 11/17/09 (UMP-Tarnow/src/cities-Tarnow.pnt-converted.txt)"/>
  </node>
  <node id="577428930" version="4" timestamp="2010-04-11T13:17:13Z" uid="20587" user="balrog-kun" changeset="4392352" lat="50.0755379" lon="20.9371528">
    <tag k="name" v="Wychylówka"/>
    <tag k="place" v="hamlet"/>
    <tag k="source" v="http://ump.waw.pl/ retrieved 11:18:52 11/17/09 (UMP-Tarnow/src/cities-Tarnow.pnt-converted.txt)"/>
  </node>
  <node id="577428930" version="5" timestamp="2010-04-27T04:02:58Z" uid="30632" user="antblant" changeset="4537862" lat="50.0755379" lon="20.9371528">
    <tag k="name" v="Wychylówka"/>
    <tag k="place" v="hamlet"/>
    <tag k="source" v="http://ump.waw.pl/ retrieved 11:18:52 11/17/09 (UMP-Tarnow/src/cities-Tarnow.pnt-converted.txt)"/>
    <tag k="teryt:simc" v="0648161"/>
  </node>
  <node id="577429049" version="2" timestamp="2010-04-11T04:53:32Z" uid="20587" user="balrog-kun" changeset="4389130" lat="50.0910522" lon="20.9276214">
    <tag k="name" v="Łęg Tarnowski"/>
    <tag k="place" v="village"/>
    <tag k="source" v="http://ump.waw.pl/ retrieved 11:18:52 11/17/09 (UMP-Tarnow/src/cities-Tarnow.pnt-converted.txt)"/>
  </node>
  <node id="577429049" version="3" timestamp="2010-04-11T13:17:13Z" uid="20587" user="balrog-kun" changeset="4392352" lat="50.0933888" lon="20.9278448">
    <tag k="name" v="Łęg Tarnowski"/>
    <tag k="place" v="village"/>
    <tag k="source" v="http://ump.waw.pl/ retrieved 11:18:52 11/17/09 (UMP-Tarnow/src/cities-Tarnow.pnt-converted.txt)"/>
  </node>
  <node id="577429049" version="4" timestamp="2010-04-27T04:01:18Z" uid="30632" user="antblant" changeset="4537859" lat="50.0933888" lon="20.9278448">
    <tag k="name" v="Łęg Tarnowski"/>
    <tag k="place" v="village"/>
    <tag k="source" v="http://ump.waw.pl/ retrieved 11:18:52 11/17/09 (UMP-Tarnow/src/cities-Tarnow.pnt-converted.txt)"/>
    <tag k="teryt:simc" v="0837844"/>
  </node>
  <node id="577429260" version="2" timestamp="2010-04-11T04:53:32Z" uid="20587" user="balrog-kun" changeset="4389130" lat="50.0924862" lon="20.973081">
    <tag k="name" v="Łukowa"/>
    <tag k="place" v="village"/>
    <tag k="source" v="http://ump.waw.pl/ retrieved 11:18:52 11/17/09 (UMP-Tarnow/src/cities-Tarnow.pnt-converted.txt)"/>
  </node>
  <node id="577429260" version="3" timestamp="2010-04-11T13:17:13Z" uid="20587" user="balrog-kun" changeset="4392352" lat="50.0928445" lon="20.9742428">
    <tag k="name" v="Łukowa"/>
    <tag k="place" v="village"/>
    <tag k="source" v="http://ump.waw.pl/ retrieved 11:18:52 11/17/09 (UMP-Tarnow/src/cities-Tarnow.pnt-converted.txt)"/>
  </node>
  <node id="577429348" version="2" timestamp="2010-04-11T04:53:32Z" uid="20587" user="balrog-kun" changeset="4389130" lat="50.0804249" lon="20.9922668">
    <tag k="name" v="Smigno"/>
    <tag k="place" v="village"/>
    <tag k="source" v="http://ump.waw.pl/ retrieved 11:18:52 11/17/09 (UMP-Tarnow/src/cities-Tarnow.pnt-converted.txt)"/>
  </node>
  <node id="577429348" version="3" timestamp="2010-04-11T13:17:13Z" uid="20587" user="balrog-kun" changeset="4392352" lat="50.0816655" lon="20.9952869">
    <tag k="name" v="Smigno"/>
    <tag k="place" v="village"/>
    <tag k="source" v="http://ump.waw.pl/ retrieved 11:18:52 11/17/09 (UMP-Tarnow/src/cities-Tarnow.pnt-converted.txt)"/>
  </node>
  <node id="577429648" version="2" timestamp="2010-04-11T04:53:32Z" uid="20587" user="balrog-kun" changeset="4389130" lat="50.07859" lon="21.06328">
    <tag k="name" v="Dębiarze"/>
    <tag k="place" v="village"/>
    <tag k="source" v="http://ump.waw.pl/ retrieved 11:18:52 11/17/09 (UMP-Tarnow/src/cities-Tarnow.pnt-converted.txt)"/>
  </node>
  <node id="577429648" version="3" timestamp="2010-04-11T13:17:13Z" uid="20587" user="balrog-kun" changeset="4392352" lat="50.07859" lon="21.06328">
    <tag k="name" v="Dębiarze"/>
    <tag k="place" v="village"/>
    <tag k="source" v="http://ump.waw.pl/ retrieved 11:18:52 11/17/09 (UMP-Tarnow/src/cities-Tarnow.pnt-converted.txt)"/>
  </node>
  <node id="577429648" version="4" timestamp="2012-03-21T13:18:59Z" uid="634575" user="@wally" changeset="11052072" lat="50.07859" lon="21.06328">
    <tag k="name" v="Dębiarze"/>
    <tag k="place" v="hamlet"/>
    <tag k="source" v="http://ump.waw.pl/ retrieved 11:18:52 11/17/09 (UMP-Tarnow/src/cities-Tarnow.pnt-converted.txt)"/>
  </node>
  <node id="577429747" version="3" timestamp="2010-04-11T04:53:32Z" uid="20587" user="balrog-kun" changeset="4389130" lat="50.0910438" lon="21.0894661">
    <tag k="name" v="Stare Żukowice"/>
    <tag k="place" v="village"/>
    <tag k="source" v="http://ump.waw.pl/ retrieved 11:18:52 11/17/09 (UMP-Tarnow/src/cities-Tarnow.pnt-converted.txt)"/>
  </node>
  <node id="577429747" version="4" timestamp="2010-04-11T13:17:13Z" uid="20587" user="balrog-kun" changeset="4392352" lat="50.0910968" lon="21.0920787">
    <tag k="name" v="Stare Żukowice"/>
    <tag k="place" v="village"/>
    <tag k="source" v="http://ump.waw.pl/ retrieved 11:18:52 11/17/09 (UMP-Tarnow/src/cities-Tarnow.pnt-converted.txt)"/>
  </node>
  <node id="577429747" version="5" timestamp="2010-04-27T04:12:22Z" uid="30632" user="antblant" changeset="4537887" lat="50.0910968" lon="21.0920787">
    <tag k="name" v="Stare Żukowice"/>
    <tag k="place" v="village"/>
    <tag k="source" v="http://ump.waw.pl/ retrieved 11:18:52 11/17/09 (UMP-Tarnow/src/cities-Tarnow.pnt-converted.txt)"/>
    <tag k="teryt:simc" v="0822736"/>
  </node>
  <node id="577429824" version="2" timestamp="2010-04-11T04:53:32Z" uid="20587" user="balrog-kun" changeset="4389130" lat="50.12278" lon="20.77865">
    <tag k="name" v="Śmietana"/>
    <tag k="place" v="village"/>
    <tag k="source" v="http://ump.waw.pl/ retrieved 11:18:52 11/17/09 (UMP-Tarnow/src/cities-Tarnow.pnt-converted.txt)"/>
  </node>
  <node id="577429824" version="3" timestamp="2010-04-11T13:17:13Z" uid="20587" user="balrog-kun" changeset="4392352" lat="50.12278" lon="20.77865">
    <tag k="name" v="Śmietana"/>
    <tag k="place" v="village"/>
    <tag k="source" v="http://ump.waw.pl/ retrieved 11:18:52 11/17/09 (UMP-Tarnow/src/cities-Tarnow.pnt-converted.txt)"/>
  </node>
  <node id="577429854" version="3" timestamp="2010-04-11T04:53:32Z" uid="20587" user="balrog-kun" changeset="4389130" lat="50.118873" lon="20.7920662">
    <tag k="name" v="Wał"/>
    <tag k="place" v="hamlet"/>
    <tag k="source" v="http://ump.waw.pl/ retrieved 11:18:52 11/17/09 (UMP-Tarnow/src/cities-Tarnow.pnt-converted.txt)"/>
  </node>
  <node id="577429854" version="4" timestamp="2010-04-11T13:17:13Z" uid="20587" user="balrog-kun" changeset="4392352" lat="50.1208372" lon="20.7905046">
    <tag k="name" v="Wał"/>
    <tag k="place" v="hamlet"/>
    <tag k="source" v="http://ump.waw.pl/ retrieved 11:18:52 11/17/09 (UMP-Tarnow/src/cities-Tarnow.pnt-converted.txt)"/>
  </node>
  <node id="577429855" version="2" timestamp="2010-04-11T04:53:32Z" uid="20587" user="balrog-kun" changeset="4389130" lat="50.11906" lon="20.79571">
    <tag k="name" v="Podwale"/>
    <tag k="place" v="village"/>
    <tag k="source" v="http://ump.waw.pl/ retrieved 11:18:52 11/17/09 (UMP-Tarnow/src/cities-Tarnow.pnt-converted.txt)"/>
  </node>
  <node id="577429855" version="3" timestamp="2010-04-11T13:17:13Z" uid="20587" user="balrog-kun" changeset="4392352" lat="50.11906" lon="20.79571">
    <tag k="name" v="Podwale"/>
    <tag k="place" v="village"/>
    <tag k="source" v="http://ump.waw.pl/ retrieved 11:18:52 11/17/09 (UMP-Tarnow/src/cities-Tarnow.pnt-converted.txt)"/>
  </node>
  <node id="577429866" version="2" timestamp="2010-04-11T04:53:32Z" uid="20587" user="balrog-kun" changeset="4389130" lat="50.1119195" lon="20.7992894">
    <tag k="name" v="Wał-Ruda"/>
    <tag k="place" v="village"/>
    <tag k="source" v="http://ump.waw.pl/ retrieved 11:18:52 11/17/09 (UMP-Tarnow/src/cities-Tarnow.pnt-converted.txt)"/>
  </node>
  <node id="577429866" version="3" timestamp="2010-04-11T13:17:13Z" uid="20587" user="balrog-kun" changeset="4392352" lat="50.1117993" lon="20.7991605">
    <tag k="name" v="Wał-Ruda"/>
    <tag k="place" v="village"/>
    <tag k="source" v="http://ump.waw.pl/ retrieved 11:18:52 11/17/09 (UMP-Tarnow/src/cities-Tarnow.pnt-converted.txt)"/>
  </node>
  <node id="577429866" version="4" timestamp="2010-04-27T04:07:47Z" uid="30632" user="antblant" changeset="4537875" lat="50.1117993" lon="20.7991605">
    <tag k="name" v="Wał-Ruda"/>
    <tag k="place" v="village"/>
    <tag k="source" v="http://ump.waw.pl/ retrieved 11:18:52 11/17/09 (UMP-Tarnow/src/cities-Tarnow.pnt-converted.txt)"/>
    <tag k="teryt:simc" v="0827981"/>
  </node>
  <node id="577429918" version="2" timestamp="2010-04-11T04:53:32Z" uid="20587" user="balrog-kun" changeset="4389130" lat="50.12772" lon="20.79278">
    <tag k="name" v="Zdarzec"/>
    <tag k="place" v="village"/>
    <tag k="source" v="http://ump.waw.pl/ retrieved 11:18:52 11/17/09 (UMP-Tarnow/src/cities-Tarnow.pnt-converted.txt)"/>
  </node>
  <node id="577429918" version="3" timestamp="2010-04-11T13:17:13Z" uid="20587" user="balrog-kun" changeset="4392352" lat="50.12772" lon="20.79278">
    <tag k="name" v="Zdarzec"/>
    <tag k="place" v="village"/>
    <tag k="source" v="http://ump.waw.pl/ retrieved 11:18:52 11/17/09 (UMP-Tarnow/src/cities-Tarnow.pnt-converted.txt)"/>
  </node>
  <node id="577429946" version="2" timestamp="2010-04-11T04:53:32Z" uid="20587" user="balrog-kun" changeset="4389130" lat="50.12987" lon="20.80801">
    <tag k="name" v="Kmiecie"/>
    <tag k="place" v="village"/>
    <tag k="source" v="http://ump.waw.pl/ retrieved 11:18:52 11/17/09 (UMP-Tarnow/src/cities-Tarnow.pnt-converted.txt)"/>
  </node>
  <node id="577429946" version="3" timestamp="2010-04-11T13:17:14Z" uid="20587" user="balrog-kun" changeset="4392352" lat="50.12987" lon="20.80801">
    <tag k="name" v="Kmiecie"/>
    <tag k="place" v="village"/>
    <tag k="source" v="http://ump.waw.pl/ retrieved 11:18:52 11/17/09 (UMP-Tarnow/src/cities-Tarnow.pnt-converted.txt)"/>
  </node>
  <node id="577429987" version="2" timestamp="2010-04-11T04:53:32Z" uid="20587" user="balrog-kun" changeset="4389130" lat="50.12038" lon="20.8242">
    <tag k="name" v="Zabawa"/>
    <tag k="place" v="village"/>
    <tag k="source" v="http://ump.waw.pl/ retrieved 11:18:52 11/17/09 (UMP-Tarnow/src/cities-Tarnow.pnt-converted.txt)"/>
  </node>
  <node id="577429987" version="3" timestamp="2010-04-11T13:17:14Z" uid="20587" user="balrog-kun" changeset="4392352" lat="50.12038" lon="20.8242">
    <tag k="name" v="Zabawa"/>
    <tag k="place" v="village"/>
    <tag k="source" v="http://ump.waw.pl/ retrieved 11:18:52 11/17/09 (UMP-Tarnow/src/cities-Tarnow.pnt-converted.txt)"/>
  </node>
</osm>
