<?xml version='1.0' encoding='UTF-8'?>
<osm version="0.6" generator="libosmium/2.20.0">
  <node id="580009086" version="1" timestamp="2009-12-03T21:15:33Z" uid="195557" user="markusbee" changeset="3284135" lat="50.0248331" lon="6.7579053">
    <tag k="name" v="Teich"/>
    <tag k="wpt_description" v="See"/>
    <tag k="wpt_symbol" v="Diamond, Blue"/>
  </node>
  <node id="580009086" version="2" timestamp="2009-12-04T19:56:02Z" uid="195557" user="markusbee" changeset="3290921" lat="50.024833" lon="6.7579054">
    <tag k="name" v="Teich"/>
    <tag k="natural" v="water"/>
    <tag k="wpt_description" v="See"/>
    <tag k="wpt_symbol" v="Diamond, Blue"/>
  </node>
  <node id="580009086" version="3" timestamp="2009-12-05T21:24:39Z" uid="38524" user="Kuddy" changeset="3298464" lat="50.0255419" lon="6.7575439">
    <tag k="name" v="Teich"/>
    <tag k="natural" v="water"/>
    <tag k="wpt_description" v="See"/>
    <tag k="wpt_symbol" v="Diamond, Blue"/>
  </node>
  <node id="580009378" version="1" timestamp="2009-12-03T21:16:08Z" uid="195557" user="markusbee" changeset="3284135" lat="50.0029849" lon="6.7860148"/>
  <node id="580009378" version="2" timestamp="2009-12-05T21:15:21Z" uid="38524" user="Kuddy" changeset="3298383" lat="50.0029782" lon="6.7859956"/>
</osm>
