<?xml version='1.0' encoding='UTF-8'?>
<osm version="0.6" generator="libosmium/2.20.0">
  <node id="583424585" version="1" timestamp="2009-12-08T23:39:29Z" uid="123700" user="Mala" changeset="3330111" lat="52.4116015" lon="16.9079538">
    <tag k="name" v="Rossmann"/>
    <tag k="operator" v="Rossmann"/>
    <tag k="shop" v="chemist"/>
  </node>
  <node id="583424588" version="1" timestamp="2009-12-08T23:39:29Z" uid="123700" user="Mala" changeset="3330111" lat="52.4116229" lon="16.9078454">
    <tag k="shop" v="second_hand"/>
  </node>
  <node id="583424590" version="1" timestamp="2009-12-08T23:39:29Z" uid="123700" user="Mala" changeset="3330111" lat="52.4118947" lon="16.9058862">
    <tag k="shop" v="chemist"/>
  </node>
  <node id="583424592" version="1" timestamp="2009-12-08T23:39:29Z" uid="123700" user="Mala" changeset="3330111" lat="52.4122185" lon="16.9054734">
    <tag k="name" v="Schlecker"/>
    <tag k="operator" v="Schlecker"/>
    <tag k="shop" v="chemist"/>
  </node>
  <node id="583424595" version="1" timestamp="2009-12-08T23:39:29Z" uid="123700" user="Mala" changeset="3330111" lat="52.4121325" lon="16.9059484">
    <tag k="amenity" v="pharmacy"/>
  </node>
  <node id="583424597" version="1" timestamp="2009-12-08T23:39:29Z" uid="123700" user="Mala" changeset="3330111" lat="52.4118767" lon="16.9071508">
    <tag k="name" v="Piekarnia Hildebrand"/>
    <tag k="shop" v="bakery"/>
  </node>
  <node id="583424604" version="1" timestamp="2009-12-08T23:39:29Z" uid="123700" user="Mala" changeset="3330111" lat="52.4116998" lon="16.9076626">
    <tag k="name" v="Biuro Podróży &quot;Gromada&quot;"/>
    <tag k="shop" v="travel_agency"/>
  </node>
  <node id="583424606" version="1" timestamp="2009-12-08T23:39:29Z" uid="123700" user="Mala" changeset="3330111" lat="52.4117768" lon="16.9076063">
    <tag k="name" v="Telimena"/>
    <tag k="shop" v="clothes"/>
  </node>
  <node id="583424608" version="1" timestamp="2009-12-08T23:39:29Z" uid="123700" user="Mala" changeset="3330111" lat="52.4117448" lon="16.9074621">
    <tag k="shop" v="dishware"/>
  </node>
  <node id="583424609" version="1" timestamp="2009-12-08T23:39:29Z" uid="123700" user="Mala" changeset="3330111" lat="52.4118427" lon="16.9073048">
    <tag k="name" v="Salon Fryzjerski &quot;Beaute&quot;"/>
    <tag k="shop" v="hairdresser"/>
  </node>
  <node id="583424613" version="1" timestamp="2009-12-08T23:39:30Z" uid="123700" user="Mala" changeset="3330111" lat="52.4070925" lon="16.9183132">
    <tag k="amenity" v="atm"/>
    <tag k="name" v="WBK"/>
  </node>
  <node id="583424613" version="2" timestamp="2010-10-05T01:33:36Z" uid="20587" user="balrog-kun" changeset="5958352" lat="52.4070815" lon="16.918284">
    <tag k="addr:city" v="Poznań"/>
    <tag k="addr:housenumber" v="81"/>
    <tag k="addr:street" v="Święty Marcin"/>
    <tag k="amenity" v="atm"/>
    <tag k="atm_ref" v="1359000"/>
    <tag k="millennium:date" v="2009-05-21 17:13:02"/>
    <tag k="millennium:network" v="BZ WBK"/>
    <tag k="millennium:ref" v="18653"/>
    <tag k="millennium:subtype" v="Euronet"/>
    <tag k="name" v="Bankomat BZ WBK"/>
    <tag k="operator" v="Euronet Sp. z o.o."/>
  </node>
  <node id="583424616" version="1" timestamp="2009-12-08T23:39:30Z" uid="123700" user="Mala" changeset="3330111" lat="52.4071317" lon="16.9178594">
    <tag k="amenity" v="bank"/>
    <tag k="name" v="WBK"/>
    <tag k="operator" v="WBK"/>
  </node>
  <node id="583424616" version="2" timestamp="2010-10-05T01:33:21Z" uid="20587" user="balrog-kun" changeset="5958352" lat="52.4069927" lon="16.9179607">
    <tag k="amenity" v="bank"/>
    <tag k="name" v="WBK"/>
    <tag k="operator" v="WBK"/>
  </node>
  <node id="583424619" version="1" timestamp="2009-12-08T23:39:30Z" uid="123700" user="Mala" changeset="3330111" lat="52.4093927" lon="16.9160062">
    <tag k="amenity" v="pub"/>
    <tag k="name" v="Szwejk"/>
  </node>
  <node id="583424619" version="2" timestamp="2011-09-10T19:10:28Z" uid="91056" user="Yarl" changeset="9264888" lat="52.4094735" lon="16.9159359">
    <tag k="amenity" v="pub"/>
    <tag k="name" v="Szwejk"/>
  </node>
  <node id="583424622" version="1" timestamp="2009-12-08T23:39:30Z" uid="123700" user="Mala" changeset="3330111" lat="52.4078188" lon="16.9180386">
    <tag k="amenity" v="nightclub"/>
    <tag k="name" v="Balzac"/>
  </node>
  <node id="583424622" version="2" timestamp="2011-09-10T21:16:17Z" uid="91056" user="Yarl" changeset="9265922" lat="52.4078207" lon="16.9180052">
    <tag k="amenity" v="nightclub"/>
    <tag k="name" v="Balzac"/>
  </node>
  <node id="583424626" version="1" timestamp="2009-12-08T23:39:30Z" uid="123700" user="Mala" changeset="3330111" lat="52.4080561" lon="16.9181819">
    <tag k="amenity" v="pub"/>
    <tag k="name" v="The Dubliner"/>
    <tag k="note" v="also a restaurant"/>
  </node>
  <node id="583424626" version="2" timestamp="2011-09-10T21:16:19Z" uid="91056" user="Yarl" changeset="9265922" lat="52.4080376" lon="16.9181819">
    <tag k="amenity" v="pub"/>
    <tag k="name" v="The Dubliner"/>
    <tag k="note" v="also a restaurant"/>
  </node>
  <node id="583424628" version="1" timestamp="2009-12-08T23:39:30Z" uid="123700" user="Mala" changeset="3330111" lat="52.4114194" lon="16.9092232">
    <tag k="shop" v="dry_cleaning"/>
  </node>
  <node id="583424629" version="1" timestamp="2009-12-08T23:39:30Z" uid="123700" user="Mala" changeset="3330111" lat="52.41146" lon="16.9090133">
    <tag k="name" v="Modny Styl"/>
    <tag k="shop" v="clothes"/>
  </node>
  <node id="583424630" version="1" timestamp="2009-12-08T23:39:30Z" uid="123700" user="Mala" changeset="3330111" lat="52.4115104" lon="16.9087926">
    <tag k="name" v="Vinationale"/>
    <tag k="shop" v="alcohol"/>
  </node>
  <node id="583424634" version="1" timestamp="2009-12-08T23:39:30Z" uid="123700" user="Mala" changeset="3330111" lat="52.411544" lon="16.9086432">
    <tag k="name" v="Żabka"/>
    <tag k="operator" v="Żabka"/>
    <tag k="shop" v="supermarket"/>
  </node>
  <node id="583424637" version="1" timestamp="2009-12-08T23:39:31Z" uid="123700" user="Mala" changeset="3330111" lat="52.4114624" lon="16.9083103">
    <tag k="name" v="Market Jana"/>
    <tag k="shop" v="supermarket"/>
  </node>
  <node id="583424639" version="1" timestamp="2009-12-08T23:39:31Z" uid="123700" user="Mala" changeset="3330111" lat="52.4115951" lon="16.9081609">
    <tag k="amenity" v="bureau_de_change"/>
  </node>
  <node id="583424641" version="1" timestamp="2009-12-08T23:39:31Z" uid="123700" user="Mala" changeset="3330111" lat="52.4112133" lon="16.910201">
    <tag k="shop" v="hairdresser"/>
  </node>
  <node id="583424647" version="1" timestamp="2009-12-08T23:39:31Z" uid="123700" user="Mala" changeset="3330111" lat="52.4112945" lon="16.9098068">
    <tag k="name" v="ERA Sklep"/>
    <tag k="shop" v="mobile_telephony"/>
  </node>
  <node id="583424650" version="1" timestamp="2009-12-08T23:39:31Z" uid="123700" user="Mala" changeset="3330111" lat="52.4113445" lon="16.9095969">
    <tag k="shop" v="kiosk"/>
  </node>
  <node id="583424651" version="1" timestamp="2009-12-08T23:39:31Z" uid="123700" user="Mala" changeset="3330111" lat="52.4112914" lon="16.9095406">
    <tag k="shop" v="butcher"/>
  </node>
  <node id="583424652" version="1" timestamp="2009-12-08T23:39:31Z" uid="123700" user="Mala" changeset="3330111" lat="52.4108542" lon="16.9115422">
    <tag k="amenity" v="bank"/>
    <tag k="name" v="Alior Bank"/>
    <tag k="operator" v="Alior Bank"/>
  </node>
  <node id="583424655" version="1" timestamp="2009-12-08T23:39:31Z" uid="123700" user="Mala" changeset="3330111" lat="52.410748" lon="16.9113887">
    <tag k="amenity" v="pharmacy"/>
  </node>
  <node id="583424657" version="1" timestamp="2009-12-08T23:39:31Z" uid="123700" user="Mala" changeset="3330111" lat="52.4107668" lon="16.9119671">
    <tag k="amenity" v="bureau_de_change"/>
  </node>
  <node id="583424660" version="1" timestamp="2009-12-08T23:39:31Z" uid="123700" user="Mala" changeset="3330111" lat="52.4108823" lon="16.9110354">
    <tag k="shop" v="kiosk"/>
  </node>
  <node id="583424662" version="1" timestamp="2009-12-08T23:39:31Z" uid="123700" user="Mala" changeset="3330111" lat="52.4109572" lon="16.9109382">
    <tag k="amenity" v="public_building"/>
    <tag k="name" v="ZUS"/>
  </node>
  <node id="583424662" version="2" timestamp="2010-02-12T20:51:18Z" uid="20587" user="balrog-kun" changeset="3860201" lat="52.410879" lon="16.9106047">
    <tag k="amenity" v="public_building"/>
    <tag k="name" v="Zakład Ubezpieczeń Społecznych"/>
  </node>
  <node id="583424664" version="1" timestamp="2009-12-08T23:39:31Z" uid="123700" user="Mala" changeset="3330111" lat="52.4110728" lon="16.9108307">
    <tag k="name" v="Ciastkarnia Ewa"/>
    <tag k="shop" v="confectionery"/>
  </node>
  <node id="583424670" version="1" timestamp="2009-12-08T23:39:31Z" uid="123700" user="Mala" changeset="3330111" lat="52.4103827" lon="16.9127965">
    <tag k="amenity" v="fast_food"/>
  </node>
  <node id="583424672" version="1" timestamp="2009-12-08T23:39:31Z" uid="123700" user="Mala" changeset="3330111" lat="52.4071529" lon="16.9214841">
    <tag k="shop" v="kiosk"/>
  </node>
  <node id="583424673" version="1" timestamp="2009-12-08T23:39:32Z" uid="123700" user="Mala" changeset="3330111" lat="52.4070955" lon="16.9215637">
    <tag k="highway" v="crossing"/>
  </node>
  <node id="583424673" version="2" timestamp="2011-09-10T12:30:32Z" uid="91056" user="Yarl" changeset="9261682" lat="52.4070583" lon="16.921608">
    <tag k="highway" v="crossing"/>
  </node>
  <node id="583424674" version="1" timestamp="2009-12-08T23:39:32Z" uid="123700" user="Mala" changeset="3330111" lat="52.4069485" lon="16.9215162">
    <tag k="highway" v="crossing"/>
  </node>
  <node id="583424674" version="2" timestamp="2011-09-10T12:30:36Z" uid="91056" user="Yarl" changeset="9261682" lat="52.4069485" lon="16.9215162"/>
  <node id="583424678" version="1" timestamp="2009-12-08T23:39:32Z" uid="123700" user="Mala" changeset="3330111" lat="52.4068809" lon="16.9214945">
    <tag k="highway" v="crossing"/>
  </node>
  <node id="583424678" version="2" timestamp="2011-09-10T12:30:32Z" uid="91056" user="Yarl" changeset="9261682" lat="52.4069316" lon="16.9215548">
    <tag k="highway" v="crossing"/>
  </node>
  <node id="583424680" version="1" timestamp="2009-12-08T23:39:32Z" uid="123700" user="Mala" changeset="3330111" lat="52.4072213" lon="16.9212356">
    <tag k="highway" v="crossing"/>
  </node>
  <node id="583424680" version="2" timestamp="2011-08-23T13:55:30Z" uid="19417" user="xjr" changeset="9103928" lat="52.4072256" lon="16.9212186">
    <tag k="highway" v="crossing"/>
  </node>
  <node id="583424680" version="3" timestamp="2011-08-24T12:58:24Z" uid="19417" user="xjr" changeset="9112365" lat="52.4072278" lon="16.9211131">
    <tag k="highway" v="crossing"/>
  </node>
  <node id="583424682" version="1" timestamp="2009-12-08T23:39:32Z" uid="123700" user="Mala" changeset="3330111" lat="52.407568" lon="16.9215367">
    <tag k="amenity" v="cafe"/>
    <tag k="name" v="Cafe Betty"/>
  </node>
  <node id="583424684" version="1" timestamp="2009-12-08T23:39:32Z" uid="123700" user="Mala" changeset="3330111" lat="52.4074121" lon="16.9214974">
    <tag k="amenity" v="fast_food"/>
    <tag k="name" v="Sphinx Burger"/>
  </node>
  <node id="583424687" version="1" timestamp="2009-12-08T23:39:32Z" uid="123700" user="Mala" changeset="3330111" lat="52.4074461" lon="16.9214057">
    <tag k="shop" v="florist"/>
  </node>
  <node id="583424687" version="2" timestamp="2011-09-12T13:24:41Z" uid="91056" user="Yarl" changeset="9280158" lat="52.4074461" lon="16.9214057"/>
  <node id="583424693" version="1" timestamp="2009-12-08T23:39:32Z" uid="123700" user="Mala" changeset="3330111" lat="52.4071963" lon="16.9211305">
    <tag k="shop" v="kiosk"/>
  </node>
  <node id="583424693" version="2" timestamp="2011-08-24T12:58:24Z" uid="19417" user="xjr" changeset="9112365" lat="52.407227" lon="16.920984">
    <tag k="shop" v="kiosk"/>
  </node>
  <node id="583424694" version="1" timestamp="2009-12-08T23:39:32Z" uid="123700" user="Mala" changeset="3330111" lat="52.4074721" lon="16.9211403">
    <tag k="name" v="Mała Galeria"/>
    <tag k="shop" v="gift"/>
  </node>
  <node id="583424694" version="2" timestamp="2011-08-24T12:58:12Z" uid="19417" user="xjr" changeset="9112365" lat="52.4074782" lon="16.9210944">
    <tag k="name" v="Mała Galeria"/>
    <tag k="shop" v="gift"/>
  </node>
  <node id="583424695" version="1" timestamp="2009-12-08T23:39:32Z" uid="123700" user="Mala" changeset="3330111" lat="52.4070885" lon="16.9231316">
    <tag k="amenity" v="atm"/>
    <tag k="name" v="Pekao SA"/>
  </node>
  <node id="583424696" version="1" timestamp="2009-12-08T23:39:32Z" uid="123700" user="Mala" changeset="3330111" lat="52.4068917" lon="16.9242015">
    <tag k="amenity" v="nightclub"/>
    <tag k="name" v="Blueberry Bar"/>
  </node>
  <node id="583424700" version="1" timestamp="2009-12-08T23:39:32Z" uid="123700" user="Mala" changeset="3330111" lat="52.4077938" lon="16.919774">
    <tag k="amenity" v="atm"/>
    <tag k="name" v="PKO BP"/>
  </node>
  <node id="583424703" version="1" timestamp="2009-12-08T23:39:32Z" uid="123700" user="Mala" changeset="3330111" lat="52.4078799" lon="16.9197943">
    <tag k="amenity" v="bank"/>
    <tag k="name" v="PKO BP"/>
    <tag k="operator" v="PKO BP"/>
  </node>
  <node id="583424705" version="1" timestamp="2009-12-08T23:39:33Z" uid="123700" user="Mala" changeset="3330111" lat="52.40797" lon="16.9198155">
    <tag k="amenity" v="pub"/>
    <tag k="name" v="Herezja"/>
  </node>
  <node id="583424708" version="1" timestamp="2009-12-08T23:39:33Z" uid="123700" user="Mala" changeset="3330111" lat="52.4079156" lon="16.9194566">
    <tag k="amenity" v="pub"/>
    <tag k="name" v="Bogota"/>
  </node>
  <node id="583424708" version="2" timestamp="2011-09-10T20:20:12Z" uid="91056" user="Yarl" changeset="9265517" lat="52.4079212" lon="16.9193777">
    <tag k="amenity" v="pub"/>
    <tag k="name" v="Bogota"/>
  </node>
  <node id="583424714" version="1" timestamp="2009-12-08T23:39:33Z" uid="123700" user="Mala" changeset="3330111" lat="52.4081717" lon="16.9194976">
    <tag k="amenity" v="nightclub"/>
    <tag k="name" v="Blue Note"/>
  </node>
  <node id="583424714" version="2" timestamp="2011-09-10T20:20:12Z" uid="91056" user="Yarl" changeset="9265517" lat="52.4081069" lon="16.9193975">
    <tag k="amenity" v="nightclub"/>
    <tag k="name" v="Blue Note"/>
  </node>
  <node id="583424715" version="1" timestamp="2009-12-08T23:39:33Z" uid="123700" user="Mala" changeset="3330111" lat="52.4077095" lon="16.9189652">
    <tag k="name" v="Muzeum Poznańskiego Czerwca 1956"/>
    <tag k="tourism" v="museum"/>
  </node>
  <node id="583424715" version="2" timestamp="2011-09-10T20:20:12Z" uid="91056" user="Yarl" changeset="9265517" lat="52.4077687" lon="16.9191472">
    <tag k="name" v="Muzeum Poznańskiego Czerwca 1956"/>
    <tag k="tourism" v="museum"/>
  </node>
  <node id="583424716" version="1" timestamp="2009-12-08T23:39:33Z" uid="123700" user="Mala" changeset="3330111" lat="52.4082507" lon="16.9198815">
    <tag k="shop" v="hairdresser"/>
  </node>
  <node id="583424717" version="1" timestamp="2009-12-08T23:39:33Z" uid="123700" user="Mala" changeset="3330111" lat="52.4084902" lon="16.9199378"/>
  <node id="583424717" version="2" timestamp="2011-09-10T21:16:28Z" uid="91056" user="Yarl" changeset="9265922" lat="52.4084902" lon="16.9199378"/>
  <node id="583424721" version="1" timestamp="2009-12-08T23:39:33Z" uid="123700" user="Mala" changeset="3330111" lat="52.408612" lon="16.9199532">
    <tag k="name" v="Galeria Szarotka"/>
    <tag k="shop" v="gift"/>
  </node>
  <node id="583424724" version="1" timestamp="2009-12-08T23:39:33Z" uid="123700" user="Mala" changeset="3330111" lat="52.4088431" lon="16.9192007">
    <tag k="amenity" v="cafe"/>
    <tag k="name" v="Pod Pretekstem"/>
  </node>
  <node id="583424724" version="2" timestamp="2011-09-10T21:16:19Z" uid="91056" user="Yarl" changeset="9265922" lat="52.4087881" lon="16.9191957">
    <tag k="amenity" v="cafe"/>
    <tag k="name" v="Pod Pretekstem"/>
  </node>
  <node id="583424726" version="1" timestamp="2009-12-08T23:39:33Z" uid="123700" user="Mala" changeset="3330111" lat="52.4078258" lon="16.921599">
    <tag k="name" v="Chata Polska"/>
    <tag k="operator" v="Chata Polska"/>
    <tag k="shop" v="supermarket"/>
  </node>
  <node id="583424726" version="2" timestamp="2011-09-12T13:24:31Z" uid="91056" user="Yarl" changeset="9280158" lat="52.407872" lon="16.9214999">
    <tag k="name" v="Chata Polska"/>
    <tag k="operator" v="Chata Polska"/>
    <tag k="shop" v="supermarket"/>
  </node>
  <node id="583424728" version="1" timestamp="2009-12-08T23:39:33Z" uid="123700" user="Mala" changeset="3330111" lat="52.4077799" lon="16.9215236">
    <tag k="amenity" v="restaurant"/>
    <tag k="cuisine" v="mexican"/>
    <tag k="name" v="Taco Mexicano"/>
  </node>
  <node id="583424728" version="2" timestamp="2011-09-12T13:24:35Z" uid="91056" user="Yarl" changeset="9280158" lat="52.4078041" lon="16.9214839">
    <tag k="amenity" v="restaurant"/>
    <tag k="cuisine" v="mexican"/>
    <tag k="name" v="Taco Mexicano"/>
  </node>
  <node id="583424733" version="1" timestamp="2009-12-08T23:39:33Z" uid="123700" user="Mala" changeset="3330111" lat="52.4076979" lon="16.9215662">
    <tag k="amenity" v="fast_food"/>
    <tag k="cuisine" v="kebab"/>
    <tag k="name" v="Ali Baba"/>
  </node>
  <node id="583424733" version="2" timestamp="2011-09-12T13:24:30Z" uid="91056" user="Yarl" changeset="9280158" lat="52.4077729" lon="16.9214676">
    <tag k="amenity" v="fast_food"/>
    <tag k="cuisine" v="kebab"/>
    <tag k="name" v="Ali Baba"/>
  </node>
  <node id="583424736" version="1" timestamp="2009-12-08T23:39:34Z" uid="123700" user="Mala" changeset="3330111" lat="52.407638" lon="16.9214876">
    <tag k="name" v="Żabka"/>
    <tag k="operator" v="Żabka"/>
    <tag k="shop" v="supermarket"/>
  </node>
  <node id="583424736" version="2" timestamp="2011-09-12T13:24:35Z" uid="91056" user="Yarl" changeset="9280158" lat="52.4077271" lon="16.9214618">
    <tag k="name" v="Żabka"/>
    <tag k="operator" v="Żabka"/>
    <tag k="shop" v="supermarket"/>
  </node>
  <node id="583424738" version="1" timestamp="2009-12-08T23:39:34Z" uid="123700" user="Mala" changeset="3330111" lat="52.407534" lon="16.9214614">
    <tag k="shop" v="travel_agency"/>
  </node>
  <node id="583424738" version="2" timestamp="2011-09-12T13:24:38Z" uid="91056" user="Yarl" changeset="9280158" lat="52.4075945" lon="16.9214217">
    <tag k="shop" v="travel_agency"/>
  </node>
  <node id="583424739" version="1" timestamp="2009-12-08T23:39:34Z" uid="123700" user="Mala" changeset="3330111" lat="52.4077212" lon="16.9212092">
    <tag k="name" v="Yves Rocher"/>
    <tag k="operator" v="Yves Rocher"/>
    <tag k="shop" v="chemist"/>
  </node>
  <node id="583424739" version="2" timestamp="2011-08-24T12:58:13Z" uid="19417" user="xjr" changeset="9112365" lat="52.4077248" lon="16.9211722">
    <tag k="name" v="Yves Rocher"/>
    <tag k="operator" v="Yves Rocher"/>
    <tag k="shop" v="chemist"/>
  </node>
  <node id="583424741" version="1" timestamp="2009-12-08T23:39:34Z" uid="123700" user="Mala" changeset="3330111" lat="52.407654" lon="16.9212583">
    <tag k="amenity" v="pharmacy"/>
    <tag k="name" v="Apteka Na Gwarnej"/>
  </node>
  <node id="583424741" version="2" timestamp="2011-08-24T12:58:11Z" uid="19417" user="xjr" changeset="9112365" lat="52.4076628" lon="16.9211494">
    <tag k="amenity" v="pharmacy"/>
    <tag k="name" v="Apteka Na Gwarnej"/>
  </node>
  <node id="583424743" version="1" timestamp="2009-12-08T23:39:34Z" uid="123700" user="Mala" changeset="3330111" lat="52.4075745" lon="16.9211686">
    <tag k="amenity" v="restaurant"/>
    <tag k="name" v="U Mnie Czy U Ciebie"/>
  </node>
  <node id="583424743" version="2" timestamp="2011-08-24T12:58:13Z" uid="19417" user="xjr" changeset="9112365" lat="52.4075783" lon="16.9211103">
    <tag k="amenity" v="restaurant"/>
    <tag k="name" v="U Mnie Czy U Ciebie"/>
  </node>
  <node id="583424745" version="1" timestamp="2009-12-08T23:39:34Z" uid="123700" user="Mala" changeset="3330111" lat="52.4079498" lon="16.9216449">
    <tag k="amenity" v="bureau_de_change"/>
  </node>
  <node id="583424745" version="2" timestamp="2011-09-12T13:24:38Z" uid="91056" user="Yarl" changeset="9280158" lat="52.4079146" lon="16.9215241">
    <tag k="amenity" v="bureau_de_change"/>
  </node>
  <node id="583424747" version="1" timestamp="2009-12-08T23:39:34Z" uid="123700" user="Mala" changeset="3330111" lat="52.4079018" lon="16.9215531">
    <tag k="amenity" v="restaurant"/>
    <tag k="cuisine" v="italian"/>
    <tag k="name" v="Pinokio"/>
  </node>
  <node id="583424747" version="2" timestamp="2011-09-12T13:24:34Z" uid="91056" user="Yarl" changeset="9280158" lat="52.4079601" lon="16.9215279">
    <tag k="amenity" v="restaurant"/>
    <tag k="cuisine" v="italian"/>
    <tag k="name" v="Pinokio"/>
  </node>
  <node id="583424752" version="1" timestamp="2009-12-08T23:39:34Z" uid="123700" user="Mala" changeset="3330111" lat="52.4081836" lon="16.9212746">
    <tag k="shop" v="newsagent"/>
  </node>
  <node id="583424754" version="1" timestamp="2009-12-08T23:39:34Z" uid="123700" user="Mala" changeset="3330111" lat="52.4080997" lon="16.9212484">
    <tag k="shop" v="cobbler"/>
  </node>
  <node id="583424756" version="1" timestamp="2009-12-08T23:39:34Z" uid="123700" user="Mala" changeset="3330111" lat="52.4079937" lon="16.9212845">
    <tag k="amenity" v="pharmacy"/>
    <tag k="name" v="MEDIQ"/>
    <tag k="operator" v="MEDIQ"/>
  </node>
  <node id="583424756" version="2" timestamp="2011-08-24T12:58:12Z" uid="19417" user="xjr" changeset="9112365" lat="52.4079925" lon="16.9212442">
    <tag k="amenity" v="pharmacy"/>
    <tag k="name" v="MEDIQ"/>
    <tag k="operator" v="MEDIQ"/>
  </node>
  <node id="583424758" version="1" timestamp="2009-12-08T23:39:34Z" uid="123700" user="Mala" changeset="3330111" lat="52.4079173" lon="16.9212633">
    <tag k="amenity" v="nightclub"/>
    <tag k="name" v="Club Broadway"/>
  </node>
  <node id="583424758" version="2" timestamp="2011-08-24T12:58:12Z" uid="19417" user="xjr" changeset="9112365" lat="52.4079215" lon="16.9212268">
    <tag k="amenity" v="nightclub"/>
    <tag k="name" v="Club Broadway"/>
  </node>
  <node id="583424761" version="1" timestamp="2009-12-08T23:39:34Z" uid="123700" user="Mala" changeset="3330111" lat="52.4086753" lon="16.920947">
    <tag k="amenity" v="cafe"/>
    <tag k="name" v="Coffee House"/>
    <tag k="operator" v="Coffee House"/>
  </node>
  <node id="583424762" version="1" timestamp="2009-12-08T23:39:35Z" uid="123700" user="Mala" changeset="3330111" lat="52.4087164" lon="16.9208566">
    <tag k="amenity" v="fast_food"/>
    <tag k="name" v="Pancake"/>
    <tag k="operator" v="Pancake"/>
  </node>
  <node id="583424765" version="1" timestamp="2009-12-08T23:39:35Z" uid="123700" user="Mala" changeset="3330111" lat="52.408844" lon="16.9208955"/>
  <node id="583424765" version="2" timestamp="2011-08-24T12:58:24Z" uid="19417" user="xjr" changeset="9112365" lat="52.4088265" lon="16.9208794"/>
  <node id="583424765" version="3" timestamp="2011-09-10T21:16:25Z" uid="91056" user="Yarl" changeset="9265922" lat="52.408803" lon="16.9208538"/>
  <node id="583424767" version="1" timestamp="2009-12-08T23:39:35Z" uid="123700" user="Mala" changeset="3330111" lat="52.4085733" lon="16.920603"/>
  <node id="583424770" version="1" timestamp="2009-12-08T23:39:35Z" uid="123700" user="Mala" changeset="3330111" lat="52.4086793" lon="16.9206604">
    <tag k="name" v="Sklep Górski Alpin"/>
    <tag k="shop" v="outdoor"/>
  </node>
  <node id="583424779" version="1" timestamp="2009-12-08T23:39:35Z" uid="123700" user="Mala" changeset="3330111" lat="52.4085786" lon="16.9206682">
    <tag k="name" v="LEGO"/>
    <tag k="shop" v="toys"/>
  </node>
  <node id="583424783" version="1" timestamp="2009-12-08T23:39:35Z" uid="123700" user="Mala" changeset="3330111" lat="52.4087737" lon="16.9206866">
    <tag k="amenity" v="bank"/>
    <tag k="name" v="CityBank"/>
    <tag k="operator" v="CityBank"/>
  </node>
  <node id="583424786" version="1" timestamp="2009-12-08T23:39:35Z" uid="123700" user="Mala" changeset="3330111" lat="52.4088184" lon="16.9205765">
    <tag k="amenity" v="fast_food"/>
    <tag k="cuisine" v="kebab"/>
  </node>
  <node id="583424789" version="1" timestamp="2009-12-08T23:39:35Z" uid="123700" user="Mala" changeset="3330111" lat="52.4088984" lon="16.9203826">
    <tag k="shop" v="jewellery"/>
  </node>
  <node id="583424789" version="2" timestamp="2010-01-14T16:18:10Z" uid="45284" user="Eric S" changeset="3617989" lat="52.4088984" lon="16.9203826">
    <tag k="shop" v="jewelry"/>
  </node>
  <node id="583424796" version="1" timestamp="2009-12-08T23:39:35Z" uid="123700" user="Mala" changeset="3330111" lat="52.4084814" lon="16.9214155">
    <tag k="amenity" v="bank"/>
    <tag k="atm" v="yes"/>
    <tag k="name" v="Millenium"/>
    <tag k="operator" v="Millenium"/>
  </node>
  <node id="583424796" version="2" timestamp="2010-10-05T01:33:26Z" uid="20587" user="balrog-kun" changeset="5958352" lat="52.408424" lon="16.9213362">
    <tag k="addr:city" v="Poznań"/>
    <tag k="addr:housenumber" v="1"/>
    <tag k="addr:street" v="Aleksandra Fredry"/>
    <tag k="amenity" v="bank"/>
    <tag k="atm" v="yes"/>
    <tag k="millennium:date" v="2009-09-14 14:49:45"/>
    <tag k="millennium:ref" v="20502"/>
    <tag k="millennium:usługi" v="Millennium"/>
    <tag k="name" v="Millennium Bank"/>
    <tag k="opening_hours" v="09.00-17.00 Mo-Fr"/>
    <tag k="operator" v="Millennium Bank S.A."/>
  </node>
  <node id="583424799" version="1" timestamp="2009-12-08T23:39:35Z" uid="123700" user="Mala" changeset="3330111" lat="52.4083995" lon="16.921137">
    <tag k="name" v="Księgarnia Językowa Omnibus"/>
    <tag k="shop" v="books"/>
  </node>
  <node id="583424803" version="1" timestamp="2009-12-08T23:39:35Z" uid="123700" user="Mala" changeset="3330111" lat="52.4085314" lon="16.9212976">
    <tag k="name" v="Ciszak"/>
    <tag k="shop" v="optician"/>
  </node>
  <node id="583424803" version="2" timestamp="2011-08-24T12:58:12Z" uid="19417" user="xjr" changeset="9112365" lat="52.4085234" lon="16.9212858">
    <tag k="name" v="Ciszak"/>
    <tag k="shop" v="optician"/>
  </node>
  <node id="583424806" version="1" timestamp="2009-12-08T23:39:36Z" uid="123700" user="Mala" changeset="3330111" lat="52.4086153" lon="16.9210977">
    <tag k="name" v="Piekarnia Pod Strzechą"/>
    <tag k="shop" v="bakery"/>
  </node>
  <node id="583424810" version="1" timestamp="2009-12-08T23:39:36Z" uid="123700" user="Mala" changeset="3330111" lat="52.4089383" lon="16.9202725">
    <tag k="shop" v="organic"/>
  </node>
  <node id="583424812" version="1" timestamp="2009-12-08T23:39:36Z" uid="123700" user="Mala" changeset="3330111" lat="52.4089831" lon="16.9201598">
    <tag k="amenity" v="fast_food"/>
    <tag k="name" v="Spaghetteria Tosca"/>
  </node>
  <node id="583424815" version="1" timestamp="2009-12-08T23:39:36Z" uid="123700" user="Mala" changeset="3330111" lat="52.4064441" lon="16.9251117">
    <tag k="highway" v="crossing"/>
  </node>
  <node id="583424815" version="2" timestamp="2010-05-06T21:00:34Z" uid="88909" user="miko101" changeset="4625498" lat="52.4064331" lon="16.9250741">
    <tag k="highway" v="crossing"/>
  </node>
  <node id="583424815" version="3" timestamp="2011-03-14T22:19:30Z" uid="88909" user="miko101" changeset="7561832" lat="52.4064207" lon="16.9250568">
    <tag k="highway" v="crossing"/>
  </node>
  <node id="583424815" version="4" timestamp="2011-08-23T13:55:30Z" uid="19417" user="xjr" changeset="9103928" lat="52.4064043" lon="16.9250469">
    <tag k="highway" v="crossing"/>
  </node>
  <node id="583424815" version="5" timestamp="2011-09-10T12:30:33Z" uid="91056" user="Yarl" changeset="9261682" lat="52.4064262" lon="16.9249556">
    <tag k="highway" v="crossing"/>
  </node>
  <node id="583424817" version="1" timestamp="2009-12-08T23:39:36Z" uid="123700" user="Mala" changeset="3330111" lat="52.4062309" lon="16.9251855">
    <tag k="highway" v="crossing"/>
  </node>
  <node id="583424824" version="1" timestamp="2009-12-08T23:39:36Z" uid="123700" user="Mala" changeset="3330111" lat="52.4071384" lon="16.9251844">
    <tag k="amenity" v="bank"/>
    <tag k="atm" v="yes"/>
    <tag k="name" v="Bank BPH"/>
    <tag k="operator" v="BPH"/>
  </node>
  <node id="583424824" version="2" timestamp="2011-09-17T16:05:42Z" uid="91056" user="Yarl" changeset="9325116" lat="52.4072109" lon="16.9250882">
    <tag k="amenity" v="bank"/>
    <tag k="atm" v="yes"/>
    <tag k="name" v="Bank BPH"/>
    <tag k="operator" v="BPH"/>
  </node>
  <node id="583424828" version="1" timestamp="2009-12-08T23:39:36Z" uid="123700" user="Mala" changeset="3330111" lat="52.4072352" lon="16.9251076">
    <tag k="shop" v="kitchenware"/>
  </node>
  <node id="583424828" version="2" timestamp="2011-09-17T16:05:50Z" uid="91056" user="Yarl" changeset="9325116" lat="52.407287" lon="16.9251005">
    <tag k="shop" v="kitchenware"/>
  </node>
  <node id="583424830" version="1" timestamp="2009-12-08T23:39:36Z" uid="123700" user="Mala" changeset="3330111" lat="52.4073227" lon="16.9251947">
    <tag k="amenity" v="fast_food"/>
    <tag k="cuisine" v="greek"/>
    <tag k="name" v="Meze"/>
  </node>
  <node id="583424830" version="2" timestamp="2011-09-17T16:05:45Z" uid="91056" user="Yarl" changeset="9325116" lat="52.4073426" lon="16.9251098">
    <tag k="amenity" v="fast_food"/>
    <tag k="cuisine" v="greek"/>
    <tag k="name" v="Meze"/>
  </node>
  <node id="583424834" version="1" timestamp="2009-12-08T23:39:36Z" uid="123700" user="Mala" changeset="3330111" lat="52.4075288" lon="16.92521">
    <tag k="amenity" v="fast_food"/>
    <tag k="cuisine" v="italian"/>
    <tag k="name" v="Piccolo"/>
  </node>
  <node id="583424834" version="2" timestamp="2011-09-17T16:05:45Z" uid="91056" user="Yarl" changeset="9325116" lat="52.4075754" lon="16.9251421">
    <tag k="amenity" v="fast_food"/>
    <tag k="cuisine" v="italian"/>
    <tag k="name" v="Piccolo"/>
  </node>
  <node id="583424841" version="1" timestamp="2009-12-08T23:39:37Z" uid="123700" user="Mala" changeset="3330111" lat="52.4074195" lon="16.9251076">
    <tag k="amenity" v="fast_food"/>
    <tag k="cuisine" v="fish"/>
    <tag k="name" v="Fisheria"/>
  </node>
  <node id="583424841" version="2" timestamp="2011-09-17T16:05:43Z" uid="91056" user="Yarl" changeset="9325116" lat="52.4074281" lon="16.9251175">
    <tag k="amenity" v="fast_food"/>
    <tag k="cuisine" v="fish"/>
    <tag k="name" v="Fisheria"/>
  </node>
  <node id="583424846" version="1" timestamp="2009-12-08T23:39:37Z" uid="123700" user="Mala" changeset="3330111" lat="52.4070666" lon="16.9250872">
    <tag k="name" v="Piekarnia Pod Strzechą"/>
    <tag k="shop" v="bakery"/>
  </node>
  <node id="583424846" version="2" timestamp="2011-09-17T16:05:45Z" uid="91056" user="Yarl" changeset="9325116" lat="52.4071089" lon="16.925083">
    <tag k="name" v="Piekarnia Pod Strzechą"/>
    <tag k="shop" v="bakery"/>
  </node>
  <node id="583424850" version="1" timestamp="2009-12-08T23:39:37Z" uid="123700" user="Mala" changeset="3330111" lat="52.4074476" lon="16.9255274">
    <tag k="amenity" v="library"/>
    <tag k="name" v="Wypożyczalnia Biblioteki Uniwersyteckiej"/>
  </node>
  <node id="583424850" version="2" timestamp="2011-09-17T12:42:16Z" uid="91056" user="Yarl" changeset="9323562" lat="52.4074742" lon="16.9254928">
    <tag k="amenity" v="library"/>
    <tag k="name" v="Wypożyczalnia Biblioteki Uniwersyteckiej"/>
  </node>
  <node id="583424854" version="1" timestamp="2009-12-08T23:39:37Z" uid="123700" user="Mala" changeset="3330111" lat="52.4070572" lon="16.9254967">
    <tag k="amenity" v="library"/>
    <tag k="name" v="Biblioteka Uniwersytecka"/>
  </node>
  <node id="583424854" version="2" timestamp="2011-09-17T12:42:19Z" uid="91056" user="Yarl" changeset="9323562" lat="52.4070572" lon="16.9254967"/>
  <node id="583424863" version="1" timestamp="2009-12-08T23:39:37Z" uid="123700" user="Mala" changeset="3330111" lat="52.4076225" lon="16.9250974">
    <tag k="amenity" v="fast_food"/>
    <tag k="cuisine" v="sandwich"/>
    <tag k="name" v="Canappka"/>
  </node>
  <node id="583424863" version="2" timestamp="2011-09-17T16:05:43Z" uid="91056" user="Yarl" changeset="9325116" lat="52.4076562" lon="16.9251526">
    <tag k="amenity" v="fast_food"/>
    <tag k="cuisine" v="sandwich"/>
    <tag k="name" v="Canappka"/>
  </node>
  <node id="583425997" version="2" timestamp="2010-10-09T23:45:39Z" uid="7617" user="Franc" changeset="5998238" lat="-33.7959736" lon="150.8021477"/>
</osm>
