<?xml version='1.0' encoding='UTF-8'?>
<osm version="0.6" generator="libosmium/2.20.0">
  <node id="584456268" version="3" timestamp="2010-04-11T04:53:51Z" uid="20587" user="balrog-kun" changeset="4389130" lat="50.043751" lon="20.9058516">
    <tag k="name" v="Komorów"/>
    <tag k="place" v="village"/>
    <tag k="source" v="http://ump.waw.pl/ retrieved 11:18:52 11/17/09 (UMP-Tarnow/src/cities-Tarnow.pnt-converted.txt)"/>
  </node>
  <node id="584456268" version="4" timestamp="2010-04-11T13:17:33Z" uid="20587" user="balrog-kun" changeset="4392352" lat="50.0432414" lon="20.9044723">
    <tag k="name" v="Komorów"/>
    <tag k="place" v="village"/>
    <tag k="source" v="http://ump.waw.pl/ retrieved 11:18:52 11/17/09 (UMP-Tarnow/src/cities-Tarnow.pnt-converted.txt)"/>
  </node>
  <node id="584456842" version="3" timestamp="2010-04-11T04:53:51Z" uid="20587" user="balrog-kun" changeset="4389130" lat="49.9618448" lon="20.9725883">
    <tag k="name" v="Radlna"/>
    <tag k="place" v="village"/>
    <tag k="source" v="http://ump.waw.pl/ retrieved 11:18:52 11/17/09 (UMP-Tarnow/src/cities-Tarnow.pnt-converted.txt)"/>
  </node>
  <node id="584456842" version="4" timestamp="2010-04-11T13:17:33Z" uid="20587" user="balrog-kun" changeset="4392352" lat="49.9617654" lon="20.9720947">
    <tag k="name" v="Radlna"/>
    <tag k="place" v="village"/>
    <tag k="source" v="http://ump.waw.pl/ retrieved 11:18:52 11/17/09 (UMP-Tarnow/src/cities-Tarnow.pnt-converted.txt)"/>
  </node>
  <node id="584456842" version="5" timestamp="2010-04-27T04:07:10Z" uid="30632" user="antblant" changeset="4537875" lat="49.9617654" lon="20.9720947">
    <tag k="name" v="Radlna"/>
    <tag k="place" v="village"/>
    <tag k="source" v="http://ump.waw.pl/ retrieved 11:18:52 11/17/09 (UMP-Tarnow/src/cities-Tarnow.pnt-converted.txt)"/>
    <tag k="teryt:simc" v="0833088"/>
  </node>
  <node id="584456948" version="2" timestamp="2010-04-11T04:53:51Z" uid="20587" user="balrog-kun" changeset="4389130" lat="49.97612" lon="20.92462">
    <tag k="name" v="Brzezinki"/>
    <tag k="place" v="village"/>
    <tag k="source" v="http://ump.waw.pl/ retrieved 11:18:52 11/17/09 (UMP-Tarnow/src/cities-Tarnow.pnt-converted.txt)"/>
  </node>
  <node id="584456948" version="3" timestamp="2010-04-11T13:17:33Z" uid="20587" user="balrog-kun" changeset="4392352" lat="49.97612" lon="20.92462">
    <tag k="name" v="Brzezinki"/>
    <tag k="place" v="village"/>
    <tag k="source" v="http://ump.waw.pl/ retrieved 11:18:52 11/17/09 (UMP-Tarnow/src/cities-Tarnow.pnt-converted.txt)"/>
  </node>
  <node id="584457408" version="2" timestamp="2010-04-11T04:53:51Z" uid="20587" user="balrog-kun" changeset="4389130" lat="49.972" lon="20.94583">
    <tag k="name" v="Koszyce Małe"/>
    <tag k="place" v="village"/>
    <tag k="source" v="http://ump.waw.pl/ retrieved 11:18:52 11/17/09 (UMP-Tarnow/src/cities-Tarnow.pnt-converted.txt)"/>
  </node>
  <node id="584457408" version="3" timestamp="2010-04-11T13:17:33Z" uid="20587" user="balrog-kun" changeset="4392352" lat="49.972" lon="20.94583">
    <tag k="name" v="Koszyce Małe"/>
    <tag k="place" v="village"/>
    <tag k="source" v="http://ump.waw.pl/ retrieved 11:18:52 11/17/09 (UMP-Tarnow/src/cities-Tarnow.pnt-converted.txt)"/>
  </node>
  <node id="584457408" version="4" timestamp="2010-04-27T04:05:54Z" uid="30632" user="antblant" changeset="4537871" lat="49.972" lon="20.94583">
    <tag k="name" v="Koszyce Małe"/>
    <tag k="place" v="village"/>
    <tag k="source" v="http://ump.waw.pl/ retrieved 11:18:52 11/17/09 (UMP-Tarnow/src/cities-Tarnow.pnt-converted.txt)"/>
    <tag k="teryt:simc" v="0832835"/>
  </node>
  <node id="584457490" version="3" timestamp="2010-04-11T04:53:51Z" uid="20587" user="balrog-kun" changeset="4389130" lat="49.9803327" lon="20.9415886">
    <tag k="name" v="Koszyce Wielkie"/>
    <tag k="place" v="village"/>
    <tag k="source" v="http://ump.waw.pl/ retrieved 11:18:52 11/17/09 (UMP-Tarnow/src/cities-Tarnow.pnt-converted.txt)"/>
  </node>
  <node id="584457490" version="4" timestamp="2010-04-11T13:17:33Z" uid="20587" user="balrog-kun" changeset="4392352" lat="49.9802139" lon="20.9412666">
    <tag k="name" v="Koszyce Wielkie"/>
    <tag k="place" v="village"/>
    <tag k="source" v="http://ump.waw.pl/ retrieved 11:18:52 11/17/09 (UMP-Tarnow/src/cities-Tarnow.pnt-converted.txt)"/>
  </node>
  <node id="584457490" version="5" timestamp="2010-04-27T03:56:14Z" uid="30632" user="antblant" changeset="4537843" lat="49.9802139" lon="20.9412666">
    <tag k="name" v="Koszyce Wielkie"/>
    <tag k="place" v="village"/>
    <tag k="source" v="http://ump.waw.pl/ retrieved 11:18:52 11/17/09 (UMP-Tarnow/src/cities-Tarnow.pnt-converted.txt)"/>
    <tag k="teryt:simc" v="0832864"/>
  </node>
</osm>
