<?xml version='1.0' encoding='UTF-8'?>
<osm version="0.6" generator="libosmium/2.20.0">
  <node id="58603967" version="3" timestamp="2008-06-04T16:13:35Z" uid="27600" user="Islanit" changeset="49298" lat="53.6306535" lon="10.1388401"/>
  <node id="58604526" version="7" timestamp="2009-10-03T21:45:20Z" uid="20587" user="balrog-kun" changeset="2730063" lat="51.541279" lon="0.6388378">
    <tag k="name" v="Leigh-on-Sea"/>
    <tag k="railway" v="station"/>
    <tag k="source" v="NPE"/>
    <tag k="wikipedia" v="Leigh-on-Sea railway station"/>
  </node>
  <node id="58604526" version="8" timestamp="2009-12-31T12:21:26Z" uid="210115" user="v-na-more" changeset="3500078" lat="51.5412977" lon="0.6403647">
    <tag k="name" v="Leigh-on-Sea"/>
    <tag k="railway" v="station"/>
    <tag k="source" v="NPE"/>
    <tag k="wikipedia" v="Leigh-on-Sea railway station"/>
  </node>
  <node id="58604526" version="9" timestamp="2011-02-28T06:12:25Z" uid="364" user="Edward" changeset="7417631" lat="51.5412977" lon="0.6403647">
    <tag k="name" v="Leigh-on-Sea"/>
    <tag k="naptan:AtcoCode" v="9100LHONSEA"/>
    <tag k="railway" v="station"/>
    <tag k="source" v="NPE"/>
    <tag k="wikipedia" v="Leigh-on-Sea railway station"/>
  </node>
  <node id="58604526" version="10" timestamp="2011-07-24T12:27:08Z" uid="2435" user="h2g2bob" changeset="8815160" lat="51.5412818" lon="0.6399509">
    <tag k="name" v="Leigh-on-Sea"/>
    <tag k="naptan:AtcoCode" v="9100LHONSEA"/>
    <tag k="railway" v="station"/>
    <tag k="source" v="NPE"/>
    <tag k="wikipedia" v="Leigh-on-Sea railway station"/>
  </node>
  <node id="58604526" version="11" timestamp="2011-11-22T15:17:18Z" uid="61216" user="UniEagle" changeset="9910041" lat="51.5412775" lon="0.6399567">
    <tag k="name" v="Leigh-on-Sea"/>
    <tag k="naptan:AtcoCode" v="9100LHONSEA"/>
    <tag k="railway" v="station"/>
    <tag k="source" v="NPE"/>
    <tag k="wikipedia" v="Leigh-on-Sea railway station"/>
  </node>
  <node id="58604550" version="3" timestamp="2009-10-03T21:45:22Z" uid="20587" user="balrog-kun" changeset="2730063" lat="51.538667" lon="0.6696538">
    <tag k="name" v="Chalkwell"/>
    <tag k="railway" v="station"/>
    <tag k="source" v="NPE"/>
    <tag k="wikipedia" v="Chalkwell railway station"/>
  </node>
  <node id="58604550" version="4" timestamp="2010-01-03T23:16:10Z" uid="210115" user="v-na-more" changeset="3533770" lat="51.5386358" lon="0.6705607">
    <tag k="name" v="Chalkwell"/>
    <tag k="railway" v="station"/>
    <tag k="source" v="NPE"/>
    <tag k="wikipedia" v="Chalkwell railway station"/>
  </node>
  <node id="58604550" version="5" timestamp="2010-01-04T22:19:53Z" uid="210115" user="v-na-more" changeset="3541589" lat="51.5386358" lon="0.6705607">
    <tag k="name" v="Chalkwell"/>
    <tag k="railway" v="station"/>
    <tag k="source" v="NPE"/>
    <tag k="wikipedia" v="Chalkwell railway station"/>
  </node>
  <node id="58604550" version="6" timestamp="2011-02-28T06:13:45Z" uid="364" user="Edward" changeset="7417631" lat="51.5386358" lon="0.6705607">
    <tag k="name" v="Chalkwell"/>
    <tag k="naptan:AtcoCode" v="9100CHLKWEL"/>
    <tag k="railway" v="station"/>
    <tag k="source" v="NPE"/>
    <tag k="wikipedia" v="Chalkwell railway station"/>
  </node>
  <node id="58604550" version="7" timestamp="2011-11-22T14:19:32Z" uid="61216" user="UniEagle" changeset="9909526" lat="51.5386121" lon="0.6705634">
    <tag k="name" v="Chalkwell"/>
    <tag k="naptan:AtcoCode" v="9100CHLKWEL"/>
    <tag k="railway" v="station"/>
    <tag k="source" v="NPE"/>
    <tag k="wikipedia" v="Chalkwell railway station"/>
  </node>
  <node id="58604550" version="8" timestamp="2011-11-22T17:59:22Z" uid="61216" user="UniEagle" changeset="9911602" lat="51.5385829" lon="0.6703962">
    <tag k="name" v="Chalkwell"/>
    <tag k="naptan:AtcoCode" v="9100CHLKWEL"/>
    <tag k="railway" v="station"/>
    <tag k="source" v="NPE"/>
    <tag k="wikipedia" v="Chalkwell railway station"/>
  </node>
  <node id="58608266" version="3" timestamp="2008-02-16T19:24:58Z" uid="6975" user="ulfl" changeset="141861" lat="50.5611221" lon="8.6084022">
    <tag k="name" v="Globus"/>
    <tag k="shop" v="supermarket"/>
  </node>
  <node id="58608266" version="4" timestamp="2008-07-23T18:35:25Z" uid="18141" user="Hobby Navigator" changeset="575134" lat="50.5611221" lon="8.6084022">
    <tag k="name" v="Globus"/>
    <tag k="shop" v="supermarket"/>
  </node>
</osm>
