<?xml version='1.0' encoding='UTF-8'?>
<osm version="0.6" generator="libosmium/2.20.0">
  <node id="588470401" version="3" timestamp="2010-04-17T06:57:50Z" uid="4467" user="Rosscoe" changeset="4444892" lat="-32.0044274" lon="115.8425906">
    <tag k="direction" v="clockwise"/>
    <tag k="highway" v="mini_roundabout"/>
  </node>
  <node id="588470746" version="2" timestamp="2010-07-28T20:09:26Z" uid="74617" user="JohnSmith" changeset="5339329" lat="60.1822393" lon="24.9241987">
    <tag k="emergency" v="fire_hydrant"/>
    <tag k="location" v="underground"/>
  </node>
  <node id="588470746" version="3" timestamp="2010-07-30T17:46:16Z" uid="74617" user="JohnSmith" changeset="5356742" lat="60.1822393" lon="24.9241987">
    <tag k="amenity" v="fire_hydrant"/>
    <tag k="emergency" v="fire_hydrant"/>
    <tag k="location" v="underground"/>
  </node>
  <node id="588470746" version="4" timestamp="2011-11-25T17:01:54Z" uid="38239" user="Daeron" changeset="9946301" lat="60.1822393" lon="24.9241987"/>
  <node id="588474380" version="2" timestamp="2010-02-22T18:28:08Z" uid="171838" user="argrath" changeset="3946008" lat="34.6346905" lon="135.4583755"/>
  <node id="588474380" version="3" timestamp="2011-11-27T15:05:19Z" uid="151227" user="MaryHiroshige" changeset="9967847" lat="34.6346921" lon="135.4583366"/>
  <node id="588474380" version="4" timestamp="2012-02-05T14:01:13Z" uid="151227" user="MaryHiroshige" changeset="10593671" lat="34.6346921" lon="135.4583366"/>
  <node id="588474389" version="2" timestamp="2010-02-22T18:33:22Z" uid="171838" user="argrath" changeset="3946053" lat="34.6300578" lon="135.4790225"/>
  <node id="588474391" version="3" timestamp="2010-08-11T11:41:43Z" uid="171838" user="argrath" changeset="5462079" lat="34.6311007" lon="135.4785746"/>
  <node id="588477123" version="1" timestamp="2009-12-13T13:50:34Z" uid="85955" user="Gerd Höweler" changeset="3362951" lat="52.0765538" lon="8.5852667">
    <tag k="addr:housenumber" v="17"/>
    <tag k="addr:postcode" v="33729"/>
    <tag k="addr:street" v="Husumer Straße"/>
  </node>
  <node id="588477123" version="2" timestamp="2012-01-13T17:04:45Z" uid="461103" user="nomatrix" changeset="10380326" lat="52.0765538" lon="8.5852667">
    <tag k="addr:housenumber" v="17"/>
    <tag k="addr:postcode" v="33729"/>
    <tag k="addr:street" v="Husumer Straße"/>
  </node>
  <node id="588477123" version="3" timestamp="2012-03-18T02:44:52Z" uid="461103" user="nomatrix" changeset="11014621" lat="52.0765538" lon="8.5852667">
    <tag k="addr:city" v="Bielefeld"/>
    <tag k="addr:country" v="DE"/>
    <tag k="addr:housenumber" v="17"/>
    <tag k="addr:postcode" v="33729"/>
    <tag k="addr:street" v="Husumer Straße"/>
  </node>
  <node id="588477123" version="4" timestamp="2012-03-28T12:29:45Z" uid="461103" user="nomatrix" changeset="11126519" lat="52.0765538" lon="8.5852667"/>
  <node id="588477126" version="1" timestamp="2009-12-13T13:50:34Z" uid="85955" user="Gerd Höweler" changeset="3362951" lat="52.0769301" lon="8.5861024">
    <tag k="addr:housenumber" v="21"/>
    <tag k="addr:postcode" v="33729"/>
    <tag k="addr:street" v="Husumer Straße"/>
  </node>
  <node id="588477126" version="2" timestamp="2012-01-13T17:04:48Z" uid="461103" user="nomatrix" changeset="10380326" lat="52.0769301" lon="8.5861024">
    <tag k="addr:housenumber" v="21"/>
    <tag k="addr:postcode" v="33729"/>
    <tag k="addr:street" v="Husumer Straße"/>
  </node>
  <node id="588477126" version="3" timestamp="2012-03-18T02:44:54Z" uid="461103" user="nomatrix" changeset="11014621" lat="52.0769301" lon="8.5861024">
    <tag k="addr:city" v="Bielefeld"/>
    <tag k="addr:country" v="DE"/>
    <tag k="addr:housenumber" v="21"/>
    <tag k="addr:postcode" v="33729"/>
    <tag k="addr:street" v="Husumer Straße"/>
  </node>
  <node id="588477127" version="1" timestamp="2009-12-13T13:50:34Z" uid="85955" user="Gerd Höweler" changeset="3362951" lat="52.0771008" lon="8.5864962">
    <tag k="addr:housenumber" v="23"/>
    <tag k="addr:postcode" v="33729"/>
    <tag k="addr:street" v="Husumer Straße"/>
  </node>
  <node id="588477127" version="2" timestamp="2012-01-13T17:04:48Z" uid="461103" user="nomatrix" changeset="10380326" lat="52.0771008" lon="8.5864962">
    <tag k="addr:housenumber" v="23"/>
    <tag k="addr:postcode" v="33729"/>
    <tag k="addr:street" v="Husumer Straße"/>
  </node>
  <node id="588477127" version="3" timestamp="2012-03-18T02:44:55Z" uid="461103" user="nomatrix" changeset="11014621" lat="52.0771008" lon="8.5864962">
    <tag k="addr:city" v="Bielefeld"/>
    <tag k="addr:country" v="DE"/>
    <tag k="addr:housenumber" v="23"/>
    <tag k="addr:postcode" v="33729"/>
    <tag k="addr:street" v="Husumer Straße"/>
  </node>
  <node id="588477128" version="1" timestamp="2009-12-13T13:50:34Z" uid="85955" user="Gerd Höweler" changeset="3362951" lat="52.077232" lon="8.5868069">
    <tag k="addr:housenumber" v="25"/>
    <tag k="addr:postcode" v="33729"/>
    <tag k="addr:street" v="Husumer Straße"/>
  </node>
  <node id="588477128" version="2" timestamp="2012-01-13T17:04:49Z" uid="461103" user="nomatrix" changeset="10380326" lat="52.077232" lon="8.5868069">
    <tag k="addr:housenumber" v="25"/>
    <tag k="addr:postcode" v="33729"/>
    <tag k="addr:street" v="Husumer Straße"/>
  </node>
  <node id="588477128" version="3" timestamp="2012-03-18T02:44:56Z" uid="461103" user="nomatrix" changeset="11014621" lat="52.077232" lon="8.5868069">
    <tag k="addr:city" v="Bielefeld"/>
    <tag k="addr:country" v="DE"/>
    <tag k="addr:housenumber" v="25"/>
    <tag k="addr:postcode" v="33729"/>
    <tag k="addr:street" v="Husumer Straße"/>
  </node>
  <node id="588477130" version="1" timestamp="2009-12-13T13:50:34Z" uid="85955" user="Gerd Höweler" changeset="3362951" lat="52.0773939" lon="8.5872445">
    <tag k="addr:housenumber" v="27"/>
    <tag k="addr:postcode" v="33729"/>
    <tag k="addr:street" v="Husumer Straße"/>
  </node>
  <node id="588477130" version="2" timestamp="2012-01-13T17:04:50Z" uid="461103" user="nomatrix" changeset="10380326" lat="52.0773939" lon="8.5872445">
    <tag k="addr:housenumber" v="27"/>
    <tag k="addr:postcode" v="33729"/>
    <tag k="addr:street" v="Husumer Straße"/>
  </node>
  <node id="588477130" version="3" timestamp="2012-03-18T02:44:57Z" uid="461103" user="nomatrix" changeset="11014621" lat="52.0773939" lon="8.5872445">
    <tag k="addr:city" v="Bielefeld"/>
    <tag k="addr:country" v="DE"/>
    <tag k="addr:housenumber" v="27"/>
    <tag k="addr:postcode" v="33729"/>
    <tag k="addr:street" v="Husumer Straße"/>
  </node>
  <node id="588477132" version="1" timestamp="2009-12-13T13:50:34Z" uid="85955" user="Gerd Höweler" changeset="3362951" lat="52.0776302" lon="8.5880758">
    <tag k="addr:housenumber" v="29"/>
    <tag k="addr:postcode" v="33729"/>
    <tag k="addr:street" v="Husumer Straße"/>
  </node>
  <node id="588477132" version="2" timestamp="2012-01-13T17:04:51Z" uid="461103" user="nomatrix" changeset="10380326" lat="52.0776302" lon="8.5880758">
    <tag k="addr:housenumber" v="29"/>
    <tag k="addr:postcode" v="33729"/>
    <tag k="addr:street" v="Husumer Straße"/>
  </node>
  <node id="588477132" version="3" timestamp="2012-03-18T02:44:57Z" uid="461103" user="nomatrix" changeset="11014621" lat="52.0776302" lon="8.5880758">
    <tag k="addr:city" v="Bielefeld"/>
    <tag k="addr:country" v="DE"/>
    <tag k="addr:housenumber" v="29"/>
    <tag k="addr:postcode" v="33729"/>
    <tag k="addr:street" v="Rendsburger Weg"/>
  </node>
  <node id="588477134" version="1" timestamp="2009-12-13T13:50:34Z" uid="85955" user="Gerd Höweler" changeset="3362951" lat="52.0777265" lon="8.5884827">
    <tag k="addr:housenumber" v="31"/>
    <tag k="addr:postcode" v="33729"/>
    <tag k="addr:street" v="Husumer Straße"/>
  </node>
  <node id="588477134" version="2" timestamp="2012-01-13T17:04:52Z" uid="461103" user="nomatrix" changeset="10380326" lat="52.0777265" lon="8.5884827">
    <tag k="addr:housenumber" v="31"/>
    <tag k="addr:postcode" v="33729"/>
    <tag k="addr:street" v="Husumer Straße"/>
  </node>
  <node id="588477134" version="3" timestamp="2012-03-18T02:44:58Z" uid="461103" user="nomatrix" changeset="11014621" lat="52.0777265" lon="8.5884827">
    <tag k="addr:city" v="Bielefeld"/>
    <tag k="addr:country" v="DE"/>
    <tag k="addr:housenumber" v="31"/>
    <tag k="addr:postcode" v="33729"/>
    <tag k="addr:street" v="Husumer Straße"/>
  </node>
  <node id="588477135" version="1" timestamp="2009-12-13T13:50:34Z" uid="85955" user="Gerd Höweler" changeset="3362951" lat="52.0777702" lon="8.588824">
    <tag k="addr:housenumber" v="33"/>
    <tag k="addr:postcode" v="33729"/>
    <tag k="addr:street" v="Husumer Straße"/>
  </node>
  <node id="588477135" version="2" timestamp="2012-01-13T17:04:52Z" uid="461103" user="nomatrix" changeset="10380326" lat="52.0777702" lon="8.588824">
    <tag k="addr:housenumber" v="33"/>
    <tag k="addr:postcode" v="33729"/>
    <tag k="addr:street" v="Husumer Straße"/>
  </node>
  <node id="588477135" version="3" timestamp="2012-03-18T02:44:58Z" uid="461103" user="nomatrix" changeset="11014621" lat="52.0777702" lon="8.588824">
    <tag k="addr:city" v="Bielefeld"/>
    <tag k="addr:country" v="DE"/>
    <tag k="addr:housenumber" v="33"/>
    <tag k="addr:postcode" v="33729"/>
    <tag k="addr:street" v="Husumer Straße"/>
  </node>
  <node id="588477136" version="1" timestamp="2009-12-13T13:50:34Z" uid="85955" user="Gerd Höweler" changeset="3362951" lat="52.0778402" lon="8.5891697">
    <tag k="addr:housenumber" v="33a"/>
    <tag k="addr:postcode" v="33729"/>
    <tag k="addr:street" v="Husumer Straße"/>
  </node>
  <node id="588477136" version="2" timestamp="2012-01-13T17:04:52Z" uid="461103" user="nomatrix" changeset="10380326" lat="52.0778402" lon="8.5891697">
    <tag k="addr:housenumber" v="33a"/>
    <tag k="addr:postcode" v="33729"/>
    <tag k="addr:street" v="Husumer Straße"/>
  </node>
  <node id="588477136" version="3" timestamp="2012-03-18T02:44:58Z" uid="461103" user="nomatrix" changeset="11014621" lat="52.0778402" lon="8.5891697">
    <tag k="addr:city" v="Bielefeld"/>
    <tag k="addr:country" v="DE"/>
    <tag k="addr:housenumber" v="33a"/>
    <tag k="addr:postcode" v="33729"/>
    <tag k="addr:street" v="Husumer Straße"/>
  </node>
  <node id="588477138" version="1" timestamp="2009-12-13T13:50:35Z" uid="85955" user="Gerd Höweler" changeset="3362951" lat="52.0779011" lon="8.5899843">
    <tag k="addr:housenumber" v="35"/>
    <tag k="addr:postcode" v="33729"/>
    <tag k="addr:street" v="Husumer Straße"/>
  </node>
  <node id="588477138" version="2" timestamp="2012-01-13T17:04:53Z" uid="461103" user="nomatrix" changeset="10380326" lat="52.0779011" lon="8.5899843">
    <tag k="addr:housenumber" v="35"/>
    <tag k="addr:postcode" v="33729"/>
    <tag k="addr:street" v="Husumer Straße"/>
  </node>
  <node id="588477138" version="3" timestamp="2012-03-18T02:44:59Z" uid="461103" user="nomatrix" changeset="11014621" lat="52.0779011" lon="8.5899843">
    <tag k="addr:city" v="Bielefeld"/>
    <tag k="addr:country" v="DE"/>
    <tag k="addr:housenumber" v="35"/>
    <tag k="addr:postcode" v="33729"/>
    <tag k="addr:street" v="Rendsburger Weg"/>
  </node>
  <node id="588477139" version="1" timestamp="2009-12-13T13:50:35Z" uid="85955" user="Gerd Höweler" changeset="3362951" lat="52.077912" lon="8.5903289">
    <tag k="addr:housenumber" v="37"/>
    <tag k="addr:postcode" v="33729"/>
    <tag k="addr:street" v="Husumer Straße"/>
  </node>
  <node id="588477139" version="2" timestamp="2012-01-13T17:04:53Z" uid="461103" user="nomatrix" changeset="10380326" lat="52.077912" lon="8.5903289">
    <tag k="addr:housenumber" v="37"/>
    <tag k="addr:postcode" v="33729"/>
    <tag k="addr:street" v="Husumer Straße"/>
  </node>
  <node id="588477139" version="3" timestamp="2012-03-18T02:44:59Z" uid="461103" user="nomatrix" changeset="11014621" lat="52.077912" lon="8.5903289">
    <tag k="addr:city" v="Bielefeld"/>
    <tag k="addr:country" v="DE"/>
    <tag k="addr:housenumber" v="37"/>
    <tag k="addr:postcode" v="33729"/>
    <tag k="addr:street" v="Husumer Straße"/>
  </node>
  <node id="588477140" version="1" timestamp="2009-12-13T13:50:35Z" uid="85955" user="Gerd Höweler" changeset="3362951" lat="52.0779066" lon="8.5905969">
    <tag k="addr:housenumber" v="39"/>
    <tag k="addr:postcode" v="33729"/>
    <tag k="addr:street" v="Husumer Straße"/>
  </node>
  <node id="588477140" version="2" timestamp="2012-01-13T17:04:54Z" uid="461103" user="nomatrix" changeset="10380326" lat="52.0779066" lon="8.5905969">
    <tag k="addr:housenumber" v="39"/>
    <tag k="addr:postcode" v="33729"/>
    <tag k="addr:street" v="Husumer Straße"/>
  </node>
  <node id="588477140" version="3" timestamp="2012-03-18T02:45:00Z" uid="461103" user="nomatrix" changeset="11014621" lat="52.0779066" lon="8.5905969">
    <tag k="addr:city" v="Bielefeld"/>
    <tag k="addr:country" v="DE"/>
    <tag k="addr:housenumber" v="39"/>
    <tag k="addr:postcode" v="33729"/>
    <tag k="addr:street" v="Husumer Straße"/>
  </node>
  <node id="588477141" version="1" timestamp="2009-12-13T13:50:35Z" uid="85955" user="Gerd Höweler" changeset="3362951" lat="52.077912" lon="8.5909032">
    <tag k="addr:housenumber" v="41"/>
    <tag k="addr:postcode" v="33729"/>
    <tag k="addr:street" v="Husumer Straße"/>
  </node>
  <node id="588477141" version="2" timestamp="2012-01-13T17:04:55Z" uid="461103" user="nomatrix" changeset="10380326" lat="52.077912" lon="8.5909032">
    <tag k="addr:housenumber" v="41"/>
    <tag k="addr:postcode" v="33729"/>
    <tag k="addr:street" v="Husumer Straße"/>
  </node>
  <node id="588477141" version="3" timestamp="2012-03-18T02:45:01Z" uid="461103" user="nomatrix" changeset="11014621" lat="52.077912" lon="8.5909032">
    <tag k="addr:city" v="Bielefeld"/>
    <tag k="addr:country" v="DE"/>
    <tag k="addr:housenumber" v="41"/>
    <tag k="addr:postcode" v="33729"/>
    <tag k="addr:street" v="Husumer Straße"/>
  </node>
  <node id="588477143" version="1" timestamp="2009-12-13T13:50:35Z" uid="85955" user="Gerd Höweler" changeset="3362951" lat="52.0778901" lon="8.5912095">
    <tag k="addr:housenumber" v="43"/>
    <tag k="addr:postcode" v="33729"/>
    <tag k="addr:street" v="Husumer Straße"/>
  </node>
  <node id="588477143" version="2" timestamp="2012-01-13T17:04:56Z" uid="461103" user="nomatrix" changeset="10380326" lat="52.0778901" lon="8.5912095">
    <tag k="addr:housenumber" v="43"/>
    <tag k="addr:postcode" v="33729"/>
    <tag k="addr:street" v="Husumer Straße"/>
  </node>
  <node id="588477143" version="3" timestamp="2012-03-18T02:45:01Z" uid="461103" user="nomatrix" changeset="11014621" lat="52.0778901" lon="8.5912095">
    <tag k="addr:city" v="Bielefeld"/>
    <tag k="addr:country" v="DE"/>
    <tag k="addr:housenumber" v="43"/>
    <tag k="addr:postcode" v="33729"/>
    <tag k="addr:street" v="Husumer Straße"/>
  </node>
  <node id="588477144" version="1" timestamp="2009-12-13T13:50:35Z" uid="85955" user="Gerd Höweler" changeset="3362951" lat="52.0761598" lon="8.5926345">
    <tag k="name" v="Pension Beckmann"/>
    <tag k="tourism" v="guest_house"/>
  </node>
  <node id="588477144" version="2" timestamp="2010-02-13T16:42:16Z" uid="85955" user="Gerd Höweler" changeset="3866274" lat="52.0761598" lon="8.5926345">
    <tag k="name" v="Pension Beckmann"/>
    <tag k="tourism" v="guest_house"/>
    <tag k="website" v="http://www.pension-beckmann.de/"/>
  </node>
  <node id="588477144" version="3" timestamp="2011-07-23T11:58:20Z" uid="461103" user="nomatrix" changeset="8805630" lat="52.0761598" lon="8.5926345">
    <tag k="addr:city" v="Bielefeld"/>
    <tag k="addr:country" v="DE"/>
    <tag k="addr:housenumber" v="27"/>
    <tag k="addr:postcode" v="33729"/>
    <tag k="addr:street" v="Klippenweg"/>
    <tag k="fax" v="+49-521-771871"/>
    <tag k="name" v="Pension Beckmann"/>
    <tag k="phone" v="+49-521-761052"/>
    <tag k="tourism" v="guest_house"/>
    <tag k="website" v="http://www.pension-beckmann.de/"/>
  </node>
  <node id="588477145" version="1" timestamp="2009-12-13T13:50:35Z" uid="85955" user="Gerd Höweler" changeset="3362951" lat="52.0778792" lon="8.5915759">
    <tag k="addr:housenumber" v="45"/>
    <tag k="addr:postcode" v="33729"/>
    <tag k="addr:street" v="Husumer Straße"/>
  </node>
  <node id="588477145" version="2" timestamp="2012-01-13T17:04:56Z" uid="461103" user="nomatrix" changeset="10380326" lat="52.0778792" lon="8.5915759">
    <tag k="addr:housenumber" v="45"/>
    <tag k="addr:postcode" v="33729"/>
    <tag k="addr:street" v="Husumer Straße"/>
  </node>
  <node id="588477145" version="3" timestamp="2012-03-18T02:45:02Z" uid="461103" user="nomatrix" changeset="11014621" lat="52.0778792" lon="8.5915759">
    <tag k="addr:city" v="Bielefeld"/>
    <tag k="addr:country" v="DE"/>
    <tag k="addr:housenumber" v="45"/>
    <tag k="addr:postcode" v="33729"/>
    <tag k="addr:street" v="Husumer Straße"/>
  </node>
  <node id="588477146" version="1" timestamp="2009-12-13T13:50:35Z" uid="85955" user="Gerd Höweler" changeset="3362951" lat="52.0778628" lon="8.5918548">
    <tag k="addr:housenumber" v="45a"/>
    <tag k="addr:postcode" v="33729"/>
    <tag k="addr:street" v="Husumer Straße"/>
  </node>
  <node id="588477146" version="2" timestamp="2012-01-13T17:04:57Z" uid="461103" user="nomatrix" changeset="10380326" lat="52.0778628" lon="8.5918548">
    <tag k="addr:housenumber" v="45a"/>
    <tag k="addr:postcode" v="33729"/>
    <tag k="addr:street" v="Husumer Straße"/>
  </node>
  <node id="588477146" version="3" timestamp="2012-03-18T02:45:02Z" uid="461103" user="nomatrix" changeset="11014621" lat="52.0778628" lon="8.5918548">
    <tag k="addr:city" v="Bielefeld"/>
    <tag k="addr:country" v="DE"/>
    <tag k="addr:housenumber" v="45a"/>
    <tag k="addr:postcode" v="33729"/>
    <tag k="addr:street" v="Husumer Straße"/>
  </node>
  <node id="588477148" version="1" timestamp="2009-12-13T13:50:35Z" uid="85955" user="Gerd Höweler" changeset="3362951" lat="52.077923" lon="8.5922541">
    <tag k="addr:housenumber" v="47"/>
    <tag k="addr:postcode" v="33729"/>
    <tag k="addr:street" v="Husumer Straße"/>
  </node>
  <node id="588477148" version="2" timestamp="2012-01-13T17:04:57Z" uid="461103" user="nomatrix" changeset="10380326" lat="52.077923" lon="8.5922541">
    <tag k="addr:housenumber" v="47"/>
    <tag k="addr:postcode" v="33729"/>
    <tag k="addr:street" v="Husumer Straße"/>
  </node>
  <node id="588477148" version="3" timestamp="2012-03-18T02:45:02Z" uid="461103" user="nomatrix" changeset="11014621" lat="52.077923" lon="8.5922541">
    <tag k="addr:city" v="Bielefeld"/>
    <tag k="addr:country" v="DE"/>
    <tag k="addr:housenumber" v="47"/>
    <tag k="addr:postcode" v="33729"/>
    <tag k="addr:street" v="Husumer Straße"/>
  </node>
  <node id="588477149" version="1" timestamp="2009-12-13T13:50:35Z" uid="85955" user="Gerd Höweler" changeset="3362951" lat="52.0782015" lon="8.5936478">
    <tag k="addr:housenumber" v="57"/>
    <tag k="addr:postcode" v="33729"/>
    <tag k="addr:street" v="Husumer Straße"/>
  </node>
  <node id="588477149" version="2" timestamp="2012-01-13T17:05:00Z" uid="461103" user="nomatrix" changeset="10380326" lat="52.0782015" lon="8.5936478">
    <tag k="addr:housenumber" v="57"/>
    <tag k="addr:postcode" v="33729"/>
    <tag k="addr:street" v="Husumer Straße"/>
  </node>
  <node id="588477149" version="3" timestamp="2012-03-18T02:45:04Z" uid="461103" user="nomatrix" changeset="11014621" lat="52.0782015" lon="8.5936478">
    <tag k="addr:city" v="Bielefeld"/>
    <tag k="addr:country" v="DE"/>
    <tag k="addr:housenumber" v="57"/>
    <tag k="addr:postcode" v="33729"/>
    <tag k="addr:street" v="Husumer Straße"/>
  </node>
  <node id="588477150" version="1" timestamp="2009-12-13T13:50:35Z" uid="85955" user="Gerd Höweler" changeset="3362951" lat="52.078604" lon="8.5953937">
    <tag k="addr:housenumber" v="77"/>
    <tag k="addr:postcode" v="33729"/>
    <tag k="addr:street" v="Husumer Straße"/>
  </node>
  <node id="588477150" version="2" timestamp="2012-01-13T17:05:09Z" uid="461103" user="nomatrix" changeset="10380326" lat="52.078604" lon="8.5953937">
    <tag k="addr:housenumber" v="77"/>
    <tag k="addr:postcode" v="33729"/>
    <tag k="addr:street" v="Husumer Straße"/>
  </node>
  <node id="588477150" version="3" timestamp="2012-03-18T02:45:12Z" uid="461103" user="nomatrix" changeset="11014621" lat="52.078604" lon="8.5953937">
    <tag k="addr:city" v="Bielefeld"/>
    <tag k="addr:country" v="DE"/>
    <tag k="addr:housenumber" v="77"/>
    <tag k="addr:postcode" v="33729"/>
    <tag k="addr:street" v="Husumer Straße"/>
  </node>
  <node id="588477152" version="1" timestamp="2009-12-13T13:50:35Z" uid="85955" user="Gerd Höweler" changeset="3362951" lat="52.0788491" lon="8.5952405">
    <tag k="addr:housenumber" v="79"/>
    <tag k="addr:postcode" v="33729"/>
    <tag k="addr:street" v="Husumer Straße"/>
  </node>
  <node id="588477152" version="2" timestamp="2012-01-13T17:05:10Z" uid="461103" user="nomatrix" changeset="10380326" lat="52.0788491" lon="8.5952405">
    <tag k="addr:housenumber" v="79"/>
    <tag k="addr:postcode" v="33729"/>
    <tag k="addr:street" v="Husumer Straße"/>
  </node>
  <node id="588477152" version="3" timestamp="2012-03-18T02:45:13Z" uid="461103" user="nomatrix" changeset="11014621" lat="52.0788491" lon="8.5952405">
    <tag k="addr:city" v="Bielefeld"/>
    <tag k="addr:country" v="DE"/>
    <tag k="addr:housenumber" v="79"/>
    <tag k="addr:postcode" v="33729"/>
    <tag k="addr:street" v="Guntenweg"/>
  </node>
  <node id="588477153" version="1" timestamp="2009-12-13T13:50:35Z" uid="85955" user="Gerd Höweler" changeset="3362951" lat="52.0788753" lon="8.5956693">
    <tag k="addr:housenumber" v="81"/>
    <tag k="addr:postcode" v="33729"/>
    <tag k="addr:street" v="Husumer Straße"/>
  </node>
  <node id="588477153" version="2" timestamp="2012-01-13T17:05:11Z" uid="461103" user="nomatrix" changeset="10380326" lat="52.0788753" lon="8.5956693">
    <tag k="addr:housenumber" v="81"/>
    <tag k="addr:postcode" v="33729"/>
    <tag k="addr:street" v="Husumer Straße"/>
  </node>
  <node id="588477153" version="3" timestamp="2012-03-18T02:45:14Z" uid="461103" user="nomatrix" changeset="11014621" lat="52.0788753" lon="8.5956693">
    <tag k="addr:city" v="Bielefeld"/>
    <tag k="addr:country" v="DE"/>
    <tag k="addr:housenumber" v="81"/>
    <tag k="addr:postcode" v="33729"/>
    <tag k="addr:street" v="Husumer Straße"/>
  </node>
  <node id="588477154" version="1" timestamp="2009-12-13T13:50:35Z" uid="85955" user="Gerd Höweler" changeset="3362951" lat="52.0786741" lon="8.5957744">
    <tag k="addr:housenumber" v="83"/>
    <tag k="addr:postcode" v="33729"/>
    <tag k="addr:street" v="Husumer Straße"/>
  </node>
  <node id="588477154" version="2" timestamp="2012-01-13T17:05:13Z" uid="461103" user="nomatrix" changeset="10380326" lat="52.0786741" lon="8.5957744">
    <tag k="addr:housenumber" v="83"/>
    <tag k="addr:postcode" v="33729"/>
    <tag k="addr:street" v="Husumer Straße"/>
  </node>
  <node id="588477154" version="3" timestamp="2012-03-18T02:45:15Z" uid="461103" user="nomatrix" changeset="11014621" lat="52.0786741" lon="8.5957744">
    <tag k="addr:city" v="Bielefeld"/>
    <tag k="addr:country" v="DE"/>
    <tag k="addr:housenumber" v="83"/>
    <tag k="addr:postcode" v="33729"/>
    <tag k="addr:street" v="Husumer Straße"/>
  </node>
  <node id="588477156" version="1" timestamp="2009-12-13T13:50:35Z" uid="85955" user="Gerd Höweler" changeset="3362951" lat="52.0787047" lon="8.5962951">
    <tag k="addr:housenumber" v="85"/>
    <tag k="addr:postcode" v="33729"/>
    <tag k="addr:street" v="Husumer Straße"/>
  </node>
  <node id="588477156" version="2" timestamp="2012-01-13T17:05:13Z" uid="461103" user="nomatrix" changeset="10380326" lat="52.0787047" lon="8.5962951">
    <tag k="addr:housenumber" v="85"/>
    <tag k="addr:postcode" v="33729"/>
    <tag k="addr:street" v="Husumer Straße"/>
  </node>
  <node id="588477156" version="3" timestamp="2012-03-18T02:45:16Z" uid="461103" user="nomatrix" changeset="11014621" lat="52.0787047" lon="8.5962951">
    <tag k="addr:city" v="Bielefeld"/>
    <tag k="addr:country" v="DE"/>
    <tag k="addr:housenumber" v="85"/>
    <tag k="addr:postcode" v="33729"/>
    <tag k="addr:street" v="Husumer Straße"/>
  </node>
  <node id="588477157" version="1" timestamp="2009-12-13T13:50:35Z" uid="85955" user="Gerd Höweler" changeset="3362951" lat="52.078941" lon="8.5961944">
    <tag k="addr:housenumber" v="87"/>
    <tag k="addr:postcode" v="33729"/>
    <tag k="addr:street" v="Husumer Straße"/>
  </node>
  <node id="588477157" version="2" timestamp="2012-01-13T17:05:15Z" uid="461103" user="nomatrix" changeset="10380326" lat="52.078941" lon="8.5961944">
    <tag k="addr:housenumber" v="87"/>
    <tag k="addr:postcode" v="33729"/>
    <tag k="addr:street" v="Husumer Straße"/>
  </node>
  <node id="588477157" version="3" timestamp="2012-03-18T02:45:17Z" uid="461103" user="nomatrix" changeset="11014621" lat="52.078941" lon="8.5961944">
    <tag k="addr:city" v="Bielefeld"/>
    <tag k="addr:country" v="DE"/>
    <tag k="addr:housenumber" v="87"/>
    <tag k="addr:postcode" v="33729"/>
    <tag k="addr:street" v="Halligstraße"/>
  </node>
  <node id="588477158" version="1" timestamp="2009-12-13T13:50:35Z" uid="85955" user="Gerd Höweler" changeset="3362951" lat="52.0789541" lon="8.5966145">
    <tag k="addr:housenumber" v="89"/>
    <tag k="addr:postcode" v="33729"/>
    <tag k="addr:street" v="Husumer Straße"/>
  </node>
  <node id="588477158" version="2" timestamp="2012-01-13T17:05:16Z" uid="461103" user="nomatrix" changeset="10380326" lat="52.0789541" lon="8.5966145">
    <tag k="addr:housenumber" v="89"/>
    <tag k="addr:postcode" v="33729"/>
    <tag k="addr:street" v="Husumer Straße"/>
  </node>
  <node id="588477158" version="3" timestamp="2012-03-18T02:45:18Z" uid="461103" user="nomatrix" changeset="11014621" lat="52.0789541" lon="8.5966145">
    <tag k="addr:city" v="Bielefeld"/>
    <tag k="addr:country" v="DE"/>
    <tag k="addr:housenumber" v="89"/>
    <tag k="addr:postcode" v="33729"/>
    <tag k="addr:street" v="Husumer Straße"/>
  </node>
  <node id="588477160" version="1" timestamp="2009-12-13T13:50:35Z" uid="85955" user="Gerd Höweler" changeset="3362951" lat="52.0786959" lon="8.5966757">
    <tag k="addr:housenumber" v="91"/>
    <tag k="addr:postcode" v="33729"/>
    <tag k="addr:street" v="Husumer Straße"/>
  </node>
  <node id="588477160" version="2" timestamp="2012-01-13T17:05:18Z" uid="461103" user="nomatrix" changeset="10380326" lat="52.0786959" lon="8.5966757">
    <tag k="addr:housenumber" v="91"/>
    <tag k="addr:postcode" v="33729"/>
    <tag k="addr:street" v="Husumer Straße"/>
  </node>
  <node id="588477160" version="3" timestamp="2012-03-18T02:45:20Z" uid="461103" user="nomatrix" changeset="11014621" lat="52.0786959" lon="8.5966757">
    <tag k="addr:city" v="Bielefeld"/>
    <tag k="addr:country" v="DE"/>
    <tag k="addr:housenumber" v="91"/>
    <tag k="addr:postcode" v="33729"/>
    <tag k="addr:street" v="Husumer Straße"/>
  </node>
  <node id="588477161" version="1" timestamp="2009-12-13T13:50:36Z" uid="85955" user="Gerd Höweler" changeset="3362951" lat="52.0779215" lon="8.5970531">
    <tag k="addr:housenumber" v="88a"/>
    <tag k="addr:postcode" v="33729"/>
    <tag k="addr:street" v="Husumer Straße"/>
  </node>
  <node id="588477161" version="2" timestamp="2012-01-13T17:05:15Z" uid="461103" user="nomatrix" changeset="10380326" lat="52.0779215" lon="8.5970531">
    <tag k="addr:housenumber" v="88a"/>
    <tag k="addr:postcode" v="33729"/>
    <tag k="addr:street" v="Husumer Straße"/>
  </node>
  <node id="588477161" version="3" timestamp="2012-03-18T02:45:18Z" uid="461103" user="nomatrix" changeset="11014621" lat="52.0779215" lon="8.5970531">
    <tag k="addr:city" v="Bielefeld"/>
    <tag k="addr:country" v="DE"/>
    <tag k="addr:housenumber" v="88a"/>
    <tag k="addr:postcode" v="33729"/>
    <tag k="addr:street" v="Husumer Straße"/>
  </node>
  <node id="588477162" version="1" timestamp="2009-12-13T13:50:36Z" uid="85955" user="Gerd Höweler" changeset="3362951" lat="52.078009" lon="8.5968562">
    <tag k="addr:housenumber" v="86"/>
    <tag k="addr:postcode" v="33729"/>
    <tag k="addr:street" v="Husumer Straße"/>
  </node>
  <node id="588477162" version="2" timestamp="2012-01-13T17:05:14Z" uid="461103" user="nomatrix" changeset="10380326" lat="52.078009" lon="8.5968562">
    <tag k="addr:housenumber" v="86"/>
    <tag k="addr:postcode" v="33729"/>
    <tag k="addr:street" v="Husumer Straße"/>
  </node>
  <node id="588477162" version="3" timestamp="2012-03-18T02:45:17Z" uid="461103" user="nomatrix" changeset="11014621" lat="52.078009" lon="8.5968562">
    <tag k="addr:city" v="Bielefeld"/>
    <tag k="addr:country" v="DE"/>
    <tag k="addr:housenumber" v="86"/>
    <tag k="addr:postcode" v="33729"/>
    <tag k="addr:street" v="Halligstraße"/>
  </node>
  <node id="588477164" version="1" timestamp="2009-12-13T13:50:36Z" uid="85955" user="Gerd Höweler" changeset="3362951" lat="52.078941" lon="8.5971789">
    <tag k="addr:housenumber" v="95"/>
    <tag k="addr:postcode" v="33729"/>
    <tag k="addr:street" v="Husumer Straße"/>
  </node>
  <node id="588477164" version="2" timestamp="2012-01-13T17:05:19Z" uid="461103" user="nomatrix" changeset="10380326" lat="52.078941" lon="8.5971789">
    <tag k="addr:housenumber" v="95"/>
    <tag k="addr:postcode" v="33729"/>
    <tag k="addr:street" v="Husumer Straße"/>
  </node>
  <node id="588477164" version="3" timestamp="2012-03-18T02:45:21Z" uid="461103" user="nomatrix" changeset="11014621" lat="52.078941" lon="8.5971789">
    <tag k="addr:city" v="Bielefeld"/>
    <tag k="addr:country" v="DE"/>
    <tag k="addr:housenumber" v="95"/>
    <tag k="addr:postcode" v="33729"/>
    <tag k="addr:street" v="Husumer Straße"/>
  </node>
  <node id="588477165" version="1" timestamp="2009-12-13T13:50:36Z" uid="85955" user="Gerd Höweler" changeset="3362951" lat="52.0787309" lon="8.5972358">
    <tag k="addr:housenumber" v="93"/>
    <tag k="addr:postcode" v="33729"/>
    <tag k="addr:street" v="Husumer Straße"/>
  </node>
  <node id="588477165" version="2" timestamp="2012-01-13T17:05:19Z" uid="461103" user="nomatrix" changeset="10380326" lat="52.0787309" lon="8.5972358">
    <tag k="addr:housenumber" v="93"/>
    <tag k="addr:postcode" v="33729"/>
    <tag k="addr:street" v="Husumer Straße"/>
  </node>
  <node id="588477165" version="3" timestamp="2012-03-18T02:45:20Z" uid="461103" user="nomatrix" changeset="11014621" lat="52.0787309" lon="8.5972358">
    <tag k="addr:city" v="Bielefeld"/>
    <tag k="addr:country" v="DE"/>
    <tag k="addr:housenumber" v="93"/>
    <tag k="addr:postcode" v="33729"/>
    <tag k="addr:street" v="Husumer Straße"/>
  </node>
  <node id="588477166" version="1" timestamp="2009-12-13T13:50:36Z" uid="85955" user="Gerd Höweler" changeset="3362951" lat="52.079011" lon="8.5976296">
    <tag k="addr:housenumber" v="97"/>
    <tag k="addr:postcode" v="33729"/>
    <tag k="addr:street" v="Husumer Straße"/>
  </node>
  <node id="588477166" version="2" timestamp="2012-01-13T17:05:20Z" uid="461103" user="nomatrix" changeset="10380326" lat="52.079011" lon="8.5976296">
    <tag k="addr:housenumber" v="97"/>
    <tag k="addr:postcode" v="33729"/>
    <tag k="addr:street" v="Husumer Straße"/>
  </node>
  <node id="588477166" version="3" timestamp="2012-03-18T02:45:22Z" uid="461103" user="nomatrix" changeset="11014621" lat="52.079011" lon="8.5976296">
    <tag k="addr:city" v="Bielefeld"/>
    <tag k="addr:country" v="DE"/>
    <tag k="addr:housenumber" v="97"/>
    <tag k="addr:postcode" v="33729"/>
    <tag k="addr:street" v="Husumer Straße"/>
  </node>
  <node id="588477167" version="1" timestamp="2009-12-13T13:50:36Z" uid="85955" user="Gerd Höweler" changeset="3362951" lat="52.0787572" lon="8.5977434">
    <tag k="addr:housenumber" v="99"/>
    <tag k="addr:postcode" v="33729"/>
    <tag k="addr:street" v="Husumer Straße"/>
  </node>
  <node id="588477167" version="2" timestamp="2012-01-13T17:05:20Z" uid="461103" user="nomatrix" changeset="10380326" lat="52.0787572" lon="8.5977434">
    <tag k="addr:housenumber" v="99"/>
    <tag k="addr:postcode" v="33729"/>
    <tag k="addr:street" v="Husumer Straße"/>
  </node>
  <node id="588477167" version="3" timestamp="2012-03-18T02:45:22Z" uid="461103" user="nomatrix" changeset="11014621" lat="52.0787572" lon="8.5977434">
    <tag k="addr:city" v="Bielefeld"/>
    <tag k="addr:country" v="DE"/>
    <tag k="addr:housenumber" v="99"/>
    <tag k="addr:postcode" v="33729"/>
    <tag k="addr:street" v="Husumer Straße"/>
  </node>
  <node id="588477169" version="1" timestamp="2009-12-13T13:50:36Z" uid="85955" user="Gerd Höweler" changeset="3362951" lat="52.0790153" lon="8.5981415">
    <tag k="addr:housenumber" v="103"/>
    <tag k="addr:postcode" v="33729"/>
    <tag k="addr:street" v="Husumer Straße"/>
  </node>
  <node id="588477169" version="2" timestamp="2012-01-13T17:04:29Z" uid="461103" user="nomatrix" changeset="10380326" lat="52.0790153" lon="8.5981415">
    <tag k="addr:housenumber" v="103"/>
    <tag k="addr:postcode" v="33729"/>
    <tag k="addr:street" v="Husumer Straße"/>
  </node>
  <node id="588477169" version="3" timestamp="2012-03-18T02:44:37Z" uid="461103" user="nomatrix" changeset="11014621" lat="52.0790153" lon="8.5981415">
    <tag k="addr:city" v="Bielefeld"/>
    <tag k="addr:country" v="DE"/>
    <tag k="addr:housenumber" v="103"/>
    <tag k="addr:postcode" v="33729"/>
    <tag k="addr:street" v="Husumer Straße"/>
  </node>
  <node id="588477170" version="1" timestamp="2009-12-13T13:50:36Z" uid="85955" user="Gerd Höweler" changeset="3362951" lat="52.0787659" lon="8.5982772">
    <tag k="addr:housenumber" v="101"/>
    <tag k="addr:postcode" v="33729"/>
    <tag k="addr:street" v="Husumer Straße"/>
  </node>
  <node id="588477170" version="2" timestamp="2012-01-13T17:04:29Z" uid="461103" user="nomatrix" changeset="10380326" lat="52.0787659" lon="8.5982772">
    <tag k="addr:housenumber" v="101"/>
    <tag k="addr:postcode" v="33729"/>
    <tag k="addr:street" v="Husumer Straße"/>
  </node>
  <node id="588477170" version="3" timestamp="2012-03-18T02:44:36Z" uid="461103" user="nomatrix" changeset="11014621" lat="52.0787659" lon="8.5982772">
    <tag k="addr:city" v="Bielefeld"/>
    <tag k="addr:country" v="DE"/>
    <tag k="addr:housenumber" v="101"/>
    <tag k="addr:postcode" v="33729"/>
    <tag k="addr:street" v="Husumer Straße"/>
  </node>
  <node id="588477171" version="1" timestamp="2009-12-13T13:50:36Z" uid="85955" user="Gerd Höweler" changeset="3362951" lat="52.0790679" lon="8.5986491">
    <tag k="addr:housenumber" v="105"/>
    <tag k="addr:postcode" v="33729"/>
    <tag k="addr:street" v="Husumer Straße"/>
  </node>
  <node id="588477171" version="2" timestamp="2012-01-13T17:04:29Z" uid="461103" user="nomatrix" changeset="10380326" lat="52.0790679" lon="8.5986491">
    <tag k="addr:housenumber" v="105"/>
    <tag k="addr:postcode" v="33729"/>
    <tag k="addr:street" v="Husumer Straße"/>
  </node>
  <node id="588477171" version="3" timestamp="2012-03-18T02:44:37Z" uid="461103" user="nomatrix" changeset="11014621" lat="52.0790679" lon="8.5986491">
    <tag k="addr:city" v="Bielefeld"/>
    <tag k="addr:country" v="DE"/>
    <tag k="addr:housenumber" v="105"/>
    <tag k="addr:postcode" v="33729"/>
    <tag k="addr:street" v="Husumer Straße"/>
  </node>
  <node id="588477173" version="1" timestamp="2009-12-13T13:50:36Z" uid="85955" user="Gerd Höweler" changeset="3362951" lat="52.0787834" lon="8.5987497">
    <tag k="addr:housenumber" v="107"/>
    <tag k="addr:postcode" v="33729"/>
    <tag k="addr:street" v="Husumer Straße"/>
  </node>
  <node id="588477173" version="2" timestamp="2012-01-13T17:04:30Z" uid="461103" user="nomatrix" changeset="10380326" lat="52.0787834" lon="8.5987497">
    <tag k="addr:housenumber" v="107"/>
    <tag k="addr:postcode" v="33729"/>
    <tag k="addr:street" v="Husumer Straße"/>
  </node>
  <node id="588477173" version="3" timestamp="2012-03-18T02:44:37Z" uid="461103" user="nomatrix" changeset="11014621" lat="52.0787834" lon="8.5987497">
    <tag k="addr:city" v="Bielefeld"/>
    <tag k="addr:country" v="DE"/>
    <tag k="addr:housenumber" v="107"/>
    <tag k="addr:postcode" v="33729"/>
    <tag k="addr:street" v="Husumer Straße"/>
  </node>
  <node id="588477174" version="1" timestamp="2009-12-13T13:50:36Z" uid="85955" user="Gerd Höweler" changeset="3362951" lat="52.0790766" lon="8.5991304">
    <tag k="addr:housenumber" v="111"/>
    <tag k="addr:postcode" v="33729"/>
    <tag k="addr:street" v="Husumer Straße"/>
  </node>
  <node id="588477174" version="2" timestamp="2012-01-13T17:04:31Z" uid="461103" user="nomatrix" changeset="10380326" lat="52.0790766" lon="8.5991304">
    <tag k="addr:housenumber" v="111"/>
    <tag k="addr:postcode" v="33729"/>
    <tag k="addr:street" v="Husumer Straße"/>
  </node>
  <node id="588477174" version="3" timestamp="2012-03-18T02:44:39Z" uid="461103" user="nomatrix" changeset="11014621" lat="52.0790766" lon="8.5991304">
    <tag k="addr:city" v="Bielefeld"/>
    <tag k="addr:country" v="DE"/>
    <tag k="addr:housenumber" v="111"/>
    <tag k="addr:postcode" v="33729"/>
    <tag k="addr:street" v="Husumer Straße"/>
  </node>
  <node id="588477175" version="1" timestamp="2009-12-13T13:50:36Z" uid="85955" user="Gerd Höweler" changeset="3362951" lat="52.0788316" lon="8.5992223">
    <tag k="addr:housenumber" v="109"/>
    <tag k="addr:postcode" v="33729"/>
    <tag k="addr:street" v="Husumer Straße"/>
  </node>
  <node id="588477175" version="2" timestamp="2012-01-13T17:04:30Z" uid="461103" user="nomatrix" changeset="10380326" lat="52.0788316" lon="8.5992223">
    <tag k="addr:housenumber" v="109"/>
    <tag k="addr:postcode" v="33729"/>
    <tag k="addr:street" v="Husumer Straße"/>
  </node>
  <node id="588477175" version="3" timestamp="2012-03-18T02:44:38Z" uid="461103" user="nomatrix" changeset="11014621" lat="52.0788316" lon="8.5992223">
    <tag k="addr:city" v="Bielefeld"/>
    <tag k="addr:country" v="DE"/>
    <tag k="addr:housenumber" v="109"/>
    <tag k="addr:postcode" v="33729"/>
    <tag k="addr:street" v="Husumer Straße"/>
  </node>
  <node id="588477177" version="1" timestamp="2009-12-13T13:50:36Z" uid="85955" user="Gerd Höweler" changeset="3362951" lat="52.0790897" lon="8.5996424">
    <tag k="addr:housenumber" v="113"/>
    <tag k="addr:postcode" v="33729"/>
    <tag k="addr:street" v="Husumer Straße"/>
  </node>
  <node id="588477177" version="2" timestamp="2012-01-13T17:04:32Z" uid="461103" user="nomatrix" changeset="10380326" lat="52.0790897" lon="8.5996424">
    <tag k="addr:housenumber" v="113"/>
    <tag k="addr:postcode" v="33729"/>
    <tag k="addr:street" v="Husumer Straße"/>
  </node>
  <node id="588477177" version="3" timestamp="2012-03-18T02:44:39Z" uid="461103" user="nomatrix" changeset="11014621" lat="52.0790897" lon="8.5996424">
    <tag k="addr:city" v="Bielefeld"/>
    <tag k="addr:country" v="DE"/>
    <tag k="addr:housenumber" v="113"/>
    <tag k="addr:postcode" v="33729"/>
    <tag k="addr:street" v="Husumer Straße"/>
  </node>
  <node id="588477178" version="1" timestamp="2009-12-13T13:50:36Z" uid="85955" user="Gerd Höweler" changeset="3362951" lat="52.0788491" lon="8.5996774">
    <tag k="addr:housenumber" v="115"/>
    <tag k="addr:postcode" v="33729"/>
    <tag k="addr:street" v="Husumer Straße"/>
  </node>
  <node id="588477178" version="2" timestamp="2012-01-13T17:04:32Z" uid="461103" user="nomatrix" changeset="10380326" lat="52.0788491" lon="8.5996774">
    <tag k="addr:housenumber" v="115"/>
    <tag k="addr:postcode" v="33729"/>
    <tag k="addr:street" v="Husumer Straße"/>
  </node>
  <node id="588477178" version="3" timestamp="2012-03-18T02:44:40Z" uid="461103" user="nomatrix" changeset="11014621" lat="52.0788491" lon="8.5996774">
    <tag k="addr:city" v="Bielefeld"/>
    <tag k="addr:country" v="DE"/>
    <tag k="addr:housenumber" v="115"/>
    <tag k="addr:postcode" v="33729"/>
    <tag k="addr:street" v="Husumer Straße"/>
  </node>
</osm>
