<?xml version='1.0' encoding='UTF-8'?>
<osm version="0.6" generator="libosmium/2.20.0">
  <node id="589236389" version="9" timestamp="2010-04-22T06:38:16Z" uid="4467" user="Rosscoe" changeset="4492832" lat="-27.4676603" lon="153.023202">
    <tag k="amenity" v="bicycle_parking"/>
    <tag k="name" v="Cycle2City"/>
    <tag k="phone" v="+61-7-32216868"/>
    <tag k="shop" v="bicycle"/>
    <tag k="website" v="http://www.cycle2city.com.au"/>
  </node>
  <node id="589236389" version="10" timestamp="2010-06-13T17:03:21Z" uid="114230" user="danerikk" changeset="4980592" lat="-27.4676797" lon="153.0231784">
    <tag k="amenity" v="bicycle_parking"/>
    <tag k="name" v="Cycle2City"/>
    <tag k="phone" v="+61-7-32216868"/>
    <tag k="shop" v="bicycle"/>
    <tag k="website" v="http://www.cycle2city.com.au"/>
  </node>
  <node id="589236389" version="11" timestamp="2011-04-03T02:24:32Z" uid="84644" user="Ash Kyd" changeset="7749875" lat="-27.4676797" lon="153.0231784">
    <tag k="access" v="customers"/>
    <tag k="amenity" v="bicycle_parking"/>
    <tag k="bicycle_parking" v="building"/>
    <tag k="covered" v="yes"/>
    <tag k="fee" v="yes"/>
    <tag k="name" v="Cycle2City"/>
    <tag k="phone" v="+61-7-32216868"/>
    <tag k="shop" v="bicycle"/>
    <tag k="website" v="http://www.cycle2city.com.au"/>
  </node>
</osm>
