<?xml version='1.0' encoding='UTF-8'?>
<osm version="0.6" generator="libosmium/2.20.0">
  <node id="589681986" version="2" timestamp="2010-04-11T04:54:10Z" uid="20587" user="balrog-kun" changeset="4389130" lat="52.96687" lon="17.91842">
    <tag k="name" v="Kapie"/>
    <tag k="place" v="village"/>
    <tag k="source" v="http://ump.waw.pl/ retrieved 11:19:07 11/17/09 (UMP-Torun/src/cities-Torun.pnt-converted.txt)"/>
  </node>
  <node id="589681986" version="3" timestamp="2010-04-11T13:18:00Z" uid="20587" user="balrog-kun" changeset="4392352" lat="52.96687" lon="17.91842">
    <tag k="name" v="Kapie"/>
    <tag k="place" v="village"/>
    <tag k="source" v="http://ump.waw.pl/ retrieved 11:19:07 11/17/09 (UMP-Torun/src/cities-Torun.pnt-converted.txt)"/>
  </node>
  <node id="589683322" version="2" timestamp="2010-04-11T04:54:10Z" uid="20587" user="balrog-kun" changeset="4389130" lat="53.02654" lon="17.76137">
    <tag k="name" v="Łachowo"/>
    <tag k="place" v="village"/>
    <tag k="source" v="http://ump.waw.pl/ retrieved 11:19:07 11/17/09 (UMP-Torun/src/cities-Torun.pnt-converted.txt)"/>
  </node>
  <node id="589683322" version="3" timestamp="2010-04-11T13:18:00Z" uid="20587" user="balrog-kun" changeset="4392352" lat="53.02654" lon="17.76137">
    <tag k="name" v="Łachowo"/>
    <tag k="place" v="village"/>
    <tag k="source" v="http://ump.waw.pl/ retrieved 11:19:07 11/17/09 (UMP-Torun/src/cities-Torun.pnt-converted.txt)"/>
  </node>
  <node id="589683322" version="4" timestamp="2010-04-27T04:09:21Z" uid="30632" user="antblant" changeset="4537879" lat="53.02654" lon="17.76137">
    <tag k="name" v="Łachowo"/>
    <tag k="place" v="village"/>
    <tag k="source" v="http://ump.waw.pl/ retrieved 11:19:07 11/17/09 (UMP-Torun/src/cities-Torun.pnt-converted.txt)"/>
    <tag k="teryt:simc" v="0096885"/>
  </node>
  <node id="589683489" version="2" timestamp="2010-02-22T18:46:03Z" uid="20587" user="balrog-kun" changeset="3946176" lat="53.0413" lon="17.7588">
    <tag k="name" v="Stanislawka"/>
    <tag k="place" v="village"/>
    <tag k="source" v="http://ump.waw.pl/ retrieved 11:19:07 11/17/09 (UMP-Torun/src/cities-Torun.pnt-converted.txt)"/>
  </node>
  <node id="589683881" version="2" timestamp="2010-04-11T04:54:10Z" uid="20587" user="balrog-kun" changeset="4389130" lat="53.03427" lon="17.78335">
    <tag k="name" v="Kołaczkowo"/>
    <tag k="place" v="village"/>
    <tag k="source" v="http://ump.waw.pl/ retrieved 11:19:07 11/17/09 (UMP-Torun/src/cities-Torun.pnt-converted.txt)"/>
  </node>
  <node id="589683881" version="3" timestamp="2010-04-11T13:18:00Z" uid="20587" user="balrog-kun" changeset="4392352" lat="53.03427" lon="17.78335">
    <tag k="name" v="Kołaczkowo"/>
    <tag k="place" v="village"/>
    <tag k="source" v="http://ump.waw.pl/ retrieved 11:19:07 11/17/09 (UMP-Torun/src/cities-Torun.pnt-converted.txt)"/>
  </node>
  <node id="589683881" version="4" timestamp="2010-04-16T19:50:01Z" uid="30632" user="antblant" changeset="4441909" lat="53.03427" lon="17.78335">
    <tag k="name" v="Kołaczkowo"/>
    <tag k="place" v="village"/>
    <tag k="source" v="http://ump.waw.pl/ retrieved 11:19:07 11/17/09 (UMP-Torun/src/cities-Torun.pnt-converted.txt)"/>
  </node>
  <node id="589684556" version="2" timestamp="2010-02-22T18:46:03Z" uid="20587" user="balrog-kun" changeset="3946176" lat="53.01418" lon="17.80292">
    <tag k="name" v="Zazdrosc"/>
    <tag k="place" v="village"/>
    <tag k="source" v="http://ump.waw.pl/ retrieved 11:19:07 11/17/09 (UMP-Torun/src/cities-Torun.pnt-converted.txt)"/>
  </node>
  <node id="589685185" version="2" timestamp="2010-04-11T04:54:10Z" uid="20587" user="balrog-kun" changeset="4389130" lat="53.01242" lon="17.83184">
    <tag k="name" v="Wielki Sosnowiec"/>
    <tag k="place" v="village"/>
    <tag k="source" v="http://ump.waw.pl/ retrieved 11:19:07 11/17/09 (UMP-Torun/src/cities-Torun.pnt-converted.txt)"/>
  </node>
  <node id="589685185" version="3" timestamp="2010-04-11T13:18:00Z" uid="20587" user="balrog-kun" changeset="4392352" lat="53.01242" lon="17.83184">
    <tag k="name" v="Wielki Sosnowiec"/>
    <tag k="place" v="village"/>
    <tag k="source" v="http://ump.waw.pl/ retrieved 11:19:07 11/17/09 (UMP-Torun/src/cities-Torun.pnt-converted.txt)"/>
  </node>
  <node id="589685185" version="4" timestamp="2010-04-27T04:07:15Z" uid="30632" user="antblant" changeset="4537875" lat="53.01242" lon="17.83184">
    <tag k="name" v="Wielki Sosnowiec"/>
    <tag k="place" v="village"/>
    <tag k="source" v="http://ump.waw.pl/ retrieved 11:19:07 11/17/09 (UMP-Torun/src/cities-Torun.pnt-converted.txt)"/>
    <tag k="teryt:simc" v="0091209"/>
  </node>
  <node id="589685508" version="2" timestamp="2010-02-22T18:46:03Z" uid="20587" user="balrog-kun" changeset="3946176" lat="53.03817" lon="17.80626">
    <tag k="name" v="Skorzewo"/>
    <tag k="place" v="village"/>
    <tag k="source" v="http://ump.waw.pl/ retrieved 11:19:07 11/17/09 (UMP-Torun/src/cities-Torun.pnt-converted.txt)"/>
  </node>
  <node id="589686036" version="2" timestamp="2010-04-11T04:54:10Z" uid="20587" user="balrog-kun" changeset="4389130" lat="53.05107" lon="17.75758">
    <tag k="name" v="Czarny Zdroj"/>
    <tag k="place" v="village"/>
    <tag k="source" v="http://ump.waw.pl/ retrieved 11:19:07 11/17/09 (UMP-Torun/src/cities-Torun.pnt-converted.txt)"/>
  </node>
  <node id="589686036" version="3" timestamp="2010-04-11T13:18:00Z" uid="20587" user="balrog-kun" changeset="4392352" lat="53.05107" lon="17.75758">
    <tag k="name" v="Czarny Zdroj"/>
    <tag k="place" v="village"/>
    <tag k="source" v="http://ump.waw.pl/ retrieved 11:19:07 11/17/09 (UMP-Torun/src/cities-Torun.pnt-converted.txt)"/>
  </node>
  <node id="589686126" version="2" timestamp="2010-04-11T04:54:10Z" uid="20587" user="balrog-kun" changeset="4389130" lat="53.05718" lon="17.77373">
    <tag k="name" v="Szkocja"/>
    <tag k="place" v="village"/>
    <tag k="source" v="http://ump.waw.pl/ retrieved 11:19:07 11/17/09 (UMP-Torun/src/cities-Torun.pnt-converted.txt)"/>
  </node>
  <node id="589686126" version="3" timestamp="2010-04-11T13:18:00Z" uid="20587" user="balrog-kun" changeset="4392352" lat="53.05718" lon="17.77373">
    <tag k="name" v="Szkocja"/>
    <tag k="place" v="village"/>
    <tag k="source" v="http://ump.waw.pl/ retrieved 11:19:07 11/17/09 (UMP-Torun/src/cities-Torun.pnt-converted.txt)"/>
  </node>
  <node id="589686228" version="2" timestamp="2010-07-26T02:03:53Z" uid="20587" user="balrog-kun" changeset="5317852" lat="53.04712" lon="17.79088">
    <tag k="bridge" v="yes"/>
    <tag k="name" v="most"/>
    <tag k="source" v="http://ump.waw.pl/ retrieved 11:19:07 11/17/09 (UMP-Torun/src/POI-Torun.pnt-converted.txt)"/>
  </node>
  <node id="589686313" version="2" timestamp="2010-07-26T02:03:51Z" uid="20587" user="balrog-kun" changeset="5317852" lat="53.05317" lon="17.79318">
    <tag k="bridge" v="yes"/>
    <tag k="name" v="most"/>
    <tag k="source" v="http://ump.waw.pl/ retrieved 11:19:07 11/17/09 (UMP-Torun/src/POI-Torun.pnt-converted.txt)"/>
  </node>
  <node id="589686521" version="2" timestamp="2010-04-11T04:54:10Z" uid="20587" user="balrog-kun" changeset="4389130" lat="53.08529" lon="17.76219">
    <tag k="name" v="Olek"/>
    <tag k="place" v="village"/>
    <tag k="source" v="http://ump.waw.pl/ retrieved 11:19:07 11/17/09 (UMP-Torun/src/cities-Torun.pnt-converted.txt)"/>
  </node>
  <node id="589686521" version="3" timestamp="2010-04-11T13:18:00Z" uid="20587" user="balrog-kun" changeset="4392352" lat="53.08529" lon="17.76219">
    <tag k="name" v="Olek"/>
    <tag k="place" v="village"/>
    <tag k="source" v="http://ump.waw.pl/ retrieved 11:19:07 11/17/09 (UMP-Torun/src/cities-Torun.pnt-converted.txt)"/>
  </node>
  <node id="589686521" version="4" timestamp="2010-04-16T19:50:01Z" uid="30632" user="antblant" changeset="4441909" lat="53.08529" lon="17.76219">
    <tag k="name" v="Olek"/>
    <tag k="place" v="village"/>
    <tag k="source" v="http://ump.waw.pl/ retrieved 11:19:07 11/17/09 (UMP-Torun/src/cities-Torun.pnt-converted.txt)"/>
  </node>
  <node id="589686558" version="2" timestamp="2010-04-11T04:54:10Z" uid="20587" user="balrog-kun" changeset="4389130" lat="53.0777" lon="17.76837">
    <tag k="name" v="Zurczyn"/>
    <tag k="place" v="village"/>
    <tag k="source" v="http://ump.waw.pl/ retrieved 11:19:07 11/17/09 (UMP-Torun/src/cities-Torun.pnt-converted.txt)"/>
  </node>
  <node id="589686558" version="3" timestamp="2010-04-11T13:18:00Z" uid="20587" user="balrog-kun" changeset="4392352" lat="53.0777" lon="17.76837">
    <tag k="name" v="Zurczyn"/>
    <tag k="place" v="village"/>
    <tag k="source" v="http://ump.waw.pl/ retrieved 11:19:07 11/17/09 (UMP-Torun/src/cities-Torun.pnt-converted.txt)"/>
  </node>
  <node id="589686961" version="2" timestamp="2010-05-05T05:04:05Z" uid="4467" user="Rosscoe" changeset="4609862" lat="-31.8438355" lon="115.8910618"/>
  <node id="589687066" version="2" timestamp="2010-04-11T04:54:10Z" uid="20587" user="balrog-kun" changeset="4389130" lat="53.0478" lon="17.81367">
    <tag k="name" v="Wojsławiec"/>
    <tag k="place" v="village"/>
    <tag k="source" v="http://ump.waw.pl/ retrieved 11:19:07 11/17/09 (UMP-Torun/src/cities-Torun.pnt-converted.txt)"/>
  </node>
  <node id="589687066" version="3" timestamp="2010-04-11T13:18:00Z" uid="20587" user="balrog-kun" changeset="4392352" lat="53.0478" lon="17.81367">
    <tag k="name" v="Wojsławiec"/>
    <tag k="place" v="village"/>
    <tag k="source" v="http://ump.waw.pl/ retrieved 11:19:07 11/17/09 (UMP-Torun/src/cities-Torun.pnt-converted.txt)"/>
  </node>
  <node id="589687066" version="4" timestamp="2010-04-27T04:11:06Z" uid="30632" user="antblant" changeset="4537882" lat="53.0478" lon="17.81367">
    <tag k="name" v="Wojsławiec"/>
    <tag k="place" v="village"/>
    <tag k="source" v="http://ump.waw.pl/ retrieved 11:19:07 11/17/09 (UMP-Torun/src/cities-Torun.pnt-converted.txt)"/>
    <tag k="teryt:simc" v="0302190"/>
  </node>
  <node id="589687418" version="2" timestamp="2010-07-26T02:03:49Z" uid="20587" user="balrog-kun" changeset="5317852" lat="53.06817" lon="17.79942">
    <tag k="bridge" v="yes"/>
    <tag k="name" v="most"/>
    <tag k="source" v="http://ump.waw.pl/ retrieved 11:19:07 11/17/09 (UMP-Torun/src/POI-Torun.pnt-converted.txt)"/>
  </node>
  <node id="589687533" version="2" timestamp="2010-02-22T18:46:03Z" uid="20587" user="balrog-kun" changeset="3946176" lat="53.06465" lon="17.81712">
    <tag k="name" v="Rynarzewo"/>
    <tag k="place" v="village"/>
    <tag k="source" v="http://ump.waw.pl/ retrieved 11:19:07 11/17/09 (UMP-Torun/src/cities-Torun.pnt-converted.txt)"/>
  </node>
  <node id="589687565" version="2" timestamp="2010-04-11T04:54:10Z" uid="20587" user="balrog-kun" changeset="4389130" lat="53.07315" lon="17.81008">
    <tag k="name" v="Zamosc"/>
    <tag k="place" v="village"/>
    <tag k="source" v="http://ump.waw.pl/ retrieved 11:19:07 11/17/09 (UMP-Torun/src/cities-Torun.pnt-converted.txt)"/>
  </node>
  <node id="589687565" version="3" timestamp="2010-04-11T13:18:00Z" uid="20587" user="balrog-kun" changeset="4392352" lat="53.07315" lon="17.81008">
    <tag k="name" v="Zamosc"/>
    <tag k="place" v="village"/>
    <tag k="source" v="http://ump.waw.pl/ retrieved 11:19:07 11/17/09 (UMP-Torun/src/cities-Torun.pnt-converted.txt)"/>
  </node>
  <node id="589687565" version="4" timestamp="2010-11-15T15:38:03Z" uid="296172" user="Colonia" changeset="6378262" lat="53.072732" lon="17.8091765">
    <tag k="name" v="Zamość"/>
    <tag k="place" v="village"/>
    <tag k="source" v="http://ump.waw.pl/ retrieved 11:19:07 11/17/09 (UMP-Torun/src/cities-Torun.pnt-converted.txt)"/>
  </node>
  <node id="589687565" version="5" timestamp="2010-11-16T12:19:56Z" uid="296172" user="Colonia" changeset="6384608" lat="53.0741233" lon="17.8121924">
    <tag k="addr:postcode" v="89-203"/>
    <tag k="is_in" v="gmina Szubin, powiat nakielski, województwo kujawsko-pomorskie, Poland"/>
    <tag k="is_in:country" v="Poland"/>
    <tag k="is_in:county" v="powiat nakielski"/>
    <tag k="is_in:municipality" v="gmina Szubin"/>
    <tag k="is_in:province" v="województwo kujawsko-pomorskie"/>
    <tag k="name" v="Zamość"/>
    <tag k="place" v="village"/>
    <tag k="population" v="1373"/>
    <tag k="source:population" v="wikipedia"/>
    <tag k="wikipedia:pl" v="Zamość_(województwo_kujawsko-pomorskie)"/>
  </node>
  <node id="589687589" version="2" timestamp="2010-07-26T02:03:48Z" uid="20587" user="balrog-kun" changeset="5317852" lat="53.07108" lon="17.81931">
    <tag k="bridge" v="yes"/>
    <tag k="name" v="most"/>
    <tag k="source" v="http://ump.waw.pl/ retrieved 11:19:07 11/17/09 (UMP-Torun/src/POI-Torun.pnt-converted.txt)"/>
  </node>
  <node id="589687779" version="2" timestamp="2010-05-05T05:04:06Z" uid="4467" user="Rosscoe" changeset="4609862" lat="-31.8426725" lon="115.8944092"/>
  <node id="589688606" version="2" timestamp="2010-04-11T04:54:10Z" uid="20587" user="balrog-kun" changeset="4389130" lat="53.02976" lon="17.86025">
    <tag k="name" v="Annowo"/>
    <tag k="place" v="village"/>
    <tag k="source" v="http://ump.waw.pl/ retrieved 11:19:07 11/17/09 (UMP-Torun/src/cities-Torun.pnt-converted.txt)"/>
  </node>
  <node id="589688606" version="3" timestamp="2010-04-11T13:18:01Z" uid="20587" user="balrog-kun" changeset="4392352" lat="53.02976" lon="17.86025">
    <tag k="name" v="Annowo"/>
    <tag k="place" v="village"/>
    <tag k="source" v="http://ump.waw.pl/ retrieved 11:19:07 11/17/09 (UMP-Torun/src/cities-Torun.pnt-converted.txt)"/>
  </node>
  <node id="589689582" version="2" timestamp="2010-04-11T04:54:10Z" uid="20587" user="balrog-kun" changeset="4389130" lat="53.04161" lon="17.86673">
    <tag k="name" v="Małe Rudy"/>
    <tag k="place" v="village"/>
    <tag k="source" v="http://ump.waw.pl/ retrieved 11:19:07 11/17/09 (UMP-Torun/src/cities-Torun.pnt-converted.txt)"/>
  </node>
  <node id="589689582" version="3" timestamp="2010-04-11T13:18:01Z" uid="20587" user="balrog-kun" changeset="4392352" lat="53.04161" lon="17.86673">
    <tag k="name" v="Małe Rudy"/>
    <tag k="place" v="village"/>
    <tag k="source" v="http://ump.waw.pl/ retrieved 11:19:07 11/17/09 (UMP-Torun/src/cities-Torun.pnt-converted.txt)"/>
  </node>
  <node id="589689582" version="4" timestamp="2010-04-27T04:02:33Z" uid="30632" user="antblant" changeset="4537862" lat="53.04161" lon="17.86673">
    <tag k="name" v="Małe Rudy"/>
    <tag k="place" v="village"/>
    <tag k="source" v="http://ump.waw.pl/ retrieved 11:19:07 11/17/09 (UMP-Torun/src/cities-Torun.pnt-converted.txt)"/>
    <tag k="teryt:simc" v="0096891"/>
  </node>
  <node id="589689943" version="2" timestamp="2010-04-11T04:54:10Z" uid="20587" user="balrog-kun" changeset="4389130" lat="53.00727" lon="17.8975">
    <tag k="name" v="Pszczolczyn"/>
    <tag k="place" v="village"/>
    <tag k="source" v="http://ump.waw.pl/ retrieved 11:19:07 11/17/09 (UMP-Torun/src/cities-Torun.pnt-converted.txt)"/>
  </node>
  <node id="589689943" version="3" timestamp="2010-04-11T13:18:01Z" uid="20587" user="balrog-kun" changeset="4392352" lat="53.00727" lon="17.8975">
    <tag k="name" v="Pszczolczyn"/>
    <tag k="place" v="village"/>
    <tag k="source" v="http://ump.waw.pl/ retrieved 11:19:07 11/17/09 (UMP-Torun/src/cities-Torun.pnt-converted.txt)"/>
  </node>
</osm>
