<?xml version='1.0' encoding='UTF-8'?>
<osm version="0.6" generator="libosmium/2.20.0">
  <node id="589860166" version="2" timestamp="2010-04-11T04:54:15Z" uid="20587" user="balrog-kun" changeset="4389130" lat="53.23318" lon="17.96548">
    <tag k="name" v="Bożenkowo"/>
    <tag k="place" v="village"/>
    <tag k="source" v="http://ump.waw.pl/ retrieved 11:19:07 11/17/09 (UMP-Torun/src/cities-Torun.pnt-converted.txt)"/>
  </node>
  <node id="589860166" version="3" timestamp="2010-04-11T13:18:08Z" uid="20587" user="balrog-kun" changeset="4392352" lat="53.23318" lon="17.96548">
    <tag k="name" v="Bożenkowo"/>
    <tag k="place" v="village"/>
    <tag k="source" v="http://ump.waw.pl/ retrieved 11:19:07 11/17/09 (UMP-Torun/src/cities-Torun.pnt-converted.txt)"/>
  </node>
  <node id="589860166" version="4" timestamp="2010-04-27T03:57:57Z" uid="30632" user="antblant" changeset="4537850" lat="53.23318" lon="17.96548">
    <tag k="name" v="Bożenkowo"/>
    <tag k="place" v="village"/>
    <tag k="source" v="http://ump.waw.pl/ retrieved 11:19:07 11/17/09 (UMP-Torun/src/cities-Torun.pnt-converted.txt)"/>
    <tag k="teryt:simc" v="0093473"/>
  </node>
  <node id="589863326" version="1" timestamp="2009-12-14T06:27:37Z" uid="7617" user="Franc" changeset="3369555" lat="-33.9645583" lon="150.9776085"/>
  <node id="589863329" version="1" timestamp="2009-12-14T06:27:37Z" uid="7617" user="Franc" changeset="3369555" lat="-33.9640346" lon="150.9765696"/>
  <node id="589863331" version="1" timestamp="2009-12-14T06:27:37Z" uid="7617" user="Franc" changeset="3369555" lat="-33.964013" lon="150.9766345"/>
  <node id="589863332" version="1" timestamp="2009-12-14T06:27:37Z" uid="7617" user="Franc" changeset="3369555" lat="-33.9638771" lon="150.9775517"/>
  <node id="589863335" version="1" timestamp="2009-12-14T06:27:37Z" uid="7617" user="Franc" changeset="3369555" lat="-33.9615073" lon="150.9770631"/>
  <node id="589863337" version="1" timestamp="2009-12-14T06:27:37Z" uid="7617" user="Franc" changeset="3369555" lat="-33.9609512" lon="150.9785793"/>
  <node id="589863337" version="2" timestamp="2009-12-14T07:24:40Z" uid="7617" user="Franc" changeset="3369673" lat="-33.9609527" lon="150.9785704"/>
  <node id="589863963" version="4" timestamp="2010-04-11T04:54:15Z" uid="20587" user="balrog-kun" changeset="4389130" lat="53.1923144" lon="18.028486">
    <tag k="name" v="Jagodowo"/>
    <tag k="place" v="village"/>
    <tag k="source" v="http://ump.waw.pl/ retrieved 11:19:07 11/17/09 (UMP-Torun/src/cities-Torun.pnt-converted.txt)"/>
  </node>
  <node id="589863963" version="5" timestamp="2010-04-11T13:18:08Z" uid="20587" user="balrog-kun" changeset="4392352" lat="53.1898263" lon="18.0255443">
    <tag k="name" v="Jagodowo"/>
    <tag k="place" v="village"/>
    <tag k="source" v="http://ump.waw.pl/ retrieved 11:19:07 11/17/09 (UMP-Torun/src/cities-Torun.pnt-converted.txt)"/>
  </node>
  <node id="589863963" version="6" timestamp="2010-04-21T14:22:48Z" uid="164487" user="LoveMaps" changeset="4486901" lat="53.200994" lon="18.0552339">
    <tag k="name" v="Jagodowo"/>
    <tag k="place" v="village"/>
    <tag k="source" v="http://ump.waw.pl/ retrieved 11:19:07 11/17/09 (UMP-Torun/src/cities-Torun.pnt-converted.txt)"/>
  </node>
  <node id="589864387" version="2" timestamp="2010-02-22T18:06:54Z" uid="20587" user="balrog-kun" changeset="3945817" lat="53.18801" lon="18.07191">
    <tag k="highway" v="traffic_signals"/>
  </node>
  <node id="589864387" version="3" timestamp="2010-04-21T19:01:45Z" uid="164487" user="LoveMaps" changeset="4489620" lat="53.18801" lon="18.07191">
    <tag k="highway" v="traffic_signals"/>
  </node>
  <node id="589865398" version="2" timestamp="2010-04-11T04:54:15Z" uid="20587" user="balrog-kun" changeset="4389130" lat="53.20683" lon="18.10028">
    <tag k="name" v="Nowe Niwy"/>
    <tag k="place" v="village"/>
    <tag k="source" v="http://ump.waw.pl/ retrieved 11:19:07 11/17/09 (UMP-Torun/src/cities-Torun.pnt-converted.txt)"/>
  </node>
  <node id="589865398" version="3" timestamp="2010-04-11T13:18:08Z" uid="20587" user="balrog-kun" changeset="4392352" lat="53.20683" lon="18.10028">
    <tag k="name" v="Nowe Niwy"/>
    <tag k="place" v="village"/>
    <tag k="source" v="http://ump.waw.pl/ retrieved 11:19:07 11/17/09 (UMP-Torun/src/cities-Torun.pnt-converted.txt)"/>
  </node>
  <node id="589866894" version="2" timestamp="2010-04-11T04:54:15Z" uid="20587" user="balrog-kun" changeset="4389130" lat="53.22666" lon="18.09787">
    <tag k="name" v="Augustowo"/>
    <tag k="place" v="village"/>
    <tag k="source" v="http://ump.waw.pl/ retrieved 11:19:07 11/17/09 (UMP-Torun/src/cities-Torun.pnt-converted.txt)"/>
  </node>
  <node id="589866894" version="3" timestamp="2010-04-11T13:18:08Z" uid="20587" user="balrog-kun" changeset="4392352" lat="53.22666" lon="18.09787">
    <tag k="name" v="Augustowo"/>
    <tag k="place" v="village"/>
    <tag k="source" v="http://ump.waw.pl/ retrieved 11:19:07 11/17/09 (UMP-Torun/src/cities-Torun.pnt-converted.txt)"/>
  </node>
  <node id="589868602" version="2" timestamp="2010-04-11T04:54:15Z" uid="20587" user="balrog-kun" changeset="4389130" lat="53.09444" lon="18.12658">
    <tag k="name" v="Legnowo"/>
    <tag k="place" v="village"/>
    <tag k="source" v="http://ump.waw.pl/ retrieved 11:19:07 11/17/09 (UMP-Torun/src/cities-Torun.pnt-converted.txt)"/>
  </node>
  <node id="589868602" version="3" timestamp="2010-04-11T13:18:09Z" uid="20587" user="balrog-kun" changeset="4392352" lat="53.09444" lon="18.12658">
    <tag k="name" v="Legnowo"/>
    <tag k="place" v="village"/>
    <tag k="source" v="http://ump.waw.pl/ retrieved 11:19:07 11/17/09 (UMP-Torun/src/cities-Torun.pnt-converted.txt)"/>
  </node>
  <node id="589868602" version="4" timestamp="2010-04-16T19:50:02Z" uid="30632" user="antblant" changeset="4441909" lat="53.09444" lon="18.12658">
    <tag k="name" v="Legnowo"/>
    <tag k="place" v="village"/>
    <tag k="source" v="http://ump.waw.pl/ retrieved 11:19:07 11/17/09 (UMP-Torun/src/cities-Torun.pnt-converted.txt)"/>
  </node>
  <node id="589868927" version="3" timestamp="2010-07-26T02:03:07Z" uid="20587" user="balrog-kun" changeset="5317852" lat="53.10722" lon="18.11253">
    <tag k="addr:city" v="Bydgoszcz"/>
    <tag k="name" v="Bydgoszcz Łęgnowo"/>
    <tag k="note" v="UMP: Bydgoszcz Legnowo"/>
    <tag k="old_name" v="Łęgowo"/>
    <tag k="operator" v="PKP"/>
    <tag k="railway" v="halt"/>
    <tag k="ref" v="5076"/>
    <tag k="source" v="http://ump.waw.pl/ retrieved 11:19:07 11/17/09 (UMP-Torun/src/POI-BYDGOSZCZ.punkty.pnt-converted.txt)"/>
    <tag k="wikipedia" v="pl:Bydgoszcz Łęgnowo"/>
  </node>
  <node id="589868927" version="4" timestamp="2012-01-15T14:11:10Z" uid="164487" user="LoveMaps" changeset="10398348" lat="53.1071738" lon="18.1126714">
    <tag k="addr:city" v="Bydgoszcz"/>
    <tag k="name" v="Bydgoszcz Łęgnowo"/>
    <tag k="note" v="UMP: Bydgoszcz Legnowo"/>
    <tag k="old_name" v="Łęgowo"/>
    <tag k="operator" v="PKP"/>
    <tag k="railway" v="halt"/>
    <tag k="ref" v="5076"/>
    <tag k="source" v="http://ump.waw.pl/ retrieved 11:19:07 11/17/09 (UMP-Torun/src/POI-BYDGOSZCZ.punkty.pnt-converted.txt)"/>
    <tag k="wikipedia" v="pl:Bydgoszcz Łęgnowo"/>
  </node>
  <node id="589868940" version="2" timestamp="2010-07-26T02:03:53Z" uid="20587" user="balrog-kun" changeset="5317852" lat="53.10722" lon="18.11253"/>
</osm>
