<?xml version='1.0' encoding='UTF-8'?>
<osm version="0.6" generator="libosmium/2.20.0">
  <node id="5910540" version="4" timestamp="2008-02-25T20:37:28Z" uid="6975" user="ulfl" changeset="208586" lat="49.3970398" lon="11.2063585">
    <tag k="created_by" v="JOSM"/>
    <tag k="highway" v="motorway_junction"/>
    <tag k="name" v="Nürnberg-Ost"/>
    <tag k="ref" v="60"/>
  </node>
  <node id="5910540" version="5" timestamp="2008-03-25T23:27:28Z" uid="17099" user="matmai" changeset="401733" lat="49.3971294" lon="11.2074646">
    <tag k="created_by" v="JOSM"/>
    <tag k="highway" v="motorway_junction"/>
    <tag k="name" v="Nürnberg-Ost"/>
    <tag k="ref" v="60"/>
  </node>
  <node id="5910540" version="6" timestamp="2008-05-31T19:48:19Z" uid="28378" user="PHerison" changeset="563151" lat="49.3971294" lon="11.2074646">
    <tag k="created_by" v="JOSM"/>
    <tag k="highway" v="motorway_junction"/>
    <tag k="name" v="Kreuz Nürnberg-Ost"/>
    <tag k="ref" v="60"/>
  </node>
  <node id="5910540" version="7" timestamp="2008-05-31T19:50:02Z" uid="28378" user="PHerison" changeset="563151" lat="49.3971294" lon="11.2074646">
    <tag k="created_by" v="JOSM"/>
    <tag k="highway" v="motorway_junction"/>
    <tag k="name" v="Nürnberg-Ost"/>
    <tag k="ref" v="60"/>
  </node>
  <node id="5910540" version="8" timestamp="2008-05-31T19:50:36Z" uid="28378" user="PHerison" changeset="563151" lat="49.3971294" lon="11.2074646">
    <tag k="created_by" v="JOSM"/>
    <tag k="highway" v="motorway_junction"/>
    <tag k="name" v="Kreuz Nürnberg-Ost"/>
    <tag k="ref" v="60"/>
  </node>
  <node id="5910540" version="9" timestamp="2008-05-31T19:51:34Z" uid="28378" user="PHerison" changeset="563151" lat="49.3971294" lon="11.2074646">
    <tag k="created_by" v="JOSM"/>
    <tag k="highway" v="motorway_junction"/>
    <tag k="name" v="Nürnberg-Ost"/>
    <tag k="ref" v="60"/>
  </node>
  <node id="5910540" version="10" timestamp="2008-05-31T19:51:37Z" uid="28378" user="PHerison" changeset="563151" lat="49.3971294" lon="11.2074646">
    <tag k="created_by" v="JOSM"/>
    <tag k="highway" v="motorway_junction"/>
    <tag k="name" v="Kreuz Nürnberg-Ost"/>
    <tag k="ref" v="60"/>
  </node>
  <node id="5910540" version="11" timestamp="2008-05-31T19:52:13Z" uid="28378" user="PHerison" changeset="563151" lat="49.3971294" lon="11.2074646">
    <tag k="created_by" v="JOSM"/>
    <tag k="highway" v="motorway_junction"/>
    <tag k="name" v="Nürnberg-Ost"/>
    <tag k="ref" v="60"/>
  </node>
  <node id="5910540" version="12" timestamp="2009-08-15T12:41:51Z" uid="109925" user="WanMil" changeset="2153670" lat="49.3971294" lon="11.2074646">
    <tag k="highway" v="motorway_junction"/>
    <tag k="name" v="Nürnberg-Ost"/>
    <tag k="ref" v="60"/>
  </node>
  <node id="5910540" version="13" timestamp="2010-04-11T07:22:57Z" uid="6270" user="mikes" changeset="4389683" lat="49.3971294" lon="11.2074646">
    <tag k="TMC:cid_58:tabcd_1:Class" v="Point"/>
    <tag k="TMC:cid_58:tabcd_1:Direction" v="negative"/>
    <tag k="TMC:cid_58:tabcd_1:LCLversion" v="9.00"/>
    <tag k="TMC:cid_58:tabcd_1:LocationCode" v="11914"/>
    <tag k="TMC:cid_58:tabcd_1:NextLocationCode" v="11915"/>
    <tag k="TMC:cid_58:tabcd_1:PrevLocationCode" v="11913"/>
    <tag k="highway" v="motorway_junction"/>
    <tag k="name" v="Nürnberg-Ost"/>
    <tag k="ref" v="60"/>
  </node>
  <node id="5910540" version="14" timestamp="2011-04-03T20:06:55Z" uid="429794" user="SennaHB" changeset="7758648" lat="49.3971294" lon="11.2074646">
    <tag k="TMC:cid_58:tabcd_1:Class" v="Point"/>
    <tag k="TMC:cid_58:tabcd_1:Direction" v="negative"/>
    <tag k="TMC:cid_58:tabcd_1:LCLversion" v="9.00"/>
    <tag k="TMC:cid_58:tabcd_1:LocationCode" v="11914"/>
    <tag k="TMC:cid_58:tabcd_1:NextLocationCode" v="11915"/>
    <tag k="TMC:cid_58:tabcd_1:PrevLocationCode" v="11913"/>
    <tag k="highway" v="motorway_junction"/>
    <tag k="name" v="Kreuz Nürnberg-Ost"/>
    <tag k="ref" v="60"/>
  </node>
  <node id="5910556" version="2" timestamp="2008-02-25T20:37:28Z" uid="6975" user="ulfl" changeset="208586" lat="49.3966162" lon="11.2031088">
    <tag k="created_by" v="JOSM"/>
  </node>
  <node id="5910556" version="3" timestamp="2008-03-25T23:27:27Z" uid="17099" user="matmai" changeset="401733" lat="49.3961513" lon="11.2015851">
    <tag k="created_by" v="JOSM"/>
  </node>
  <node id="5910556" version="4" timestamp="2009-08-15T12:41:50Z" uid="109925" user="WanMil" changeset="2153670" lat="49.3961513" lon="11.2015851"/>
  <node id="5910558" version="2" timestamp="2008-02-25T20:37:28Z" uid="6975" user="ulfl" changeset="208586" lat="49.3967391" lon="11.2038212">
    <tag k="created_by" v="JOSM"/>
  </node>
  <node id="5910558" version="3" timestamp="2008-03-25T23:27:27Z" uid="17099" user="matmai" changeset="401733" lat="49.39676" lon="11.2047415">
    <tag k="created_by" v="JOSM"/>
  </node>
  <node id="5910558" version="4" timestamp="2008-12-23T23:07:36Z" uid="45875" user="Warlock74" changeset="589853" lat="49.39676" lon="11.2047415"/>
  <node id="5910558" version="5" timestamp="2009-01-06T12:54:30Z" uid="89501" user="Grenzgänger" changeset="744310" lat="49.3968398" lon="11.2047415"/>
</osm>
