<?xml version='1.0' encoding='UTF-8'?>
<osm version="0.6" generator="libosmium/2.20.0">
  <node id="592412765" version="1" timestamp="2009-12-15T18:27:47Z" uid="53938" user="ctheile" changeset="3381839" lat="13.0009247" lon="-15.8307917">
    <tag k="name" v="Bougary"/>
    <tag k="place" v="village"/>
  </node>
  <node id="592412770" version="1" timestamp="2009-12-15T18:27:47Z" uid="53938" user="ctheile" changeset="3381839" lat="13.0176879" lon="-15.7818613">
    <tag k="name" v="Barandama"/>
    <tag k="place" v="village"/>
  </node>
  <node id="592412771" version="1" timestamp="2009-12-15T18:27:47Z" uid="53938" user="ctheile" changeset="3381839" lat="13.0405368" lon="-15.6926409">
    <tag k="name" v="Bounkiling"/>
    <tag k="place" v="village"/>
  </node>
  <node id="592412772" version="1" timestamp="2009-12-15T18:27:47Z" uid="53938" user="ctheile" changeset="3381839" lat="13.055416" lon="-15.6491227">
    <tag k="name" v="DiaroumÃ©"/>
    <tag k="place" v="village"/>
  </node>
  <node id="592412775" version="1" timestamp="2009-12-15T18:27:47Z" uid="53938" user="ctheile" changeset="3381839" lat="13.0797978" lon="-15.610685">
    <tag k="name" v="Taoune"/>
    <tag k="place" v="village"/>
  </node>
  <node id="592412777" version="1" timestamp="2009-12-15T18:27:47Z" uid="53938" user="ctheile" changeset="3381839" lat="13.0886807" lon="-15.6062544">
    <tag k="name" v="Medina Torodo"/>
    <tag k="place" v="hamlet"/>
  </node>
  <node id="592416742" version="1" timestamp="2009-12-15T18:32:02Z" uid="74027" user="katzlbt" changeset="3381861" lat="46.8631692" lon="10.9040652">
    <tag k="amenity" v="restaurant"/>
    <tag k="name" v="Hochvent"/>
  </node>
  <node id="592416742" version="2" timestamp="2011-01-18T09:09:16Z" uid="178186" user="mdk" changeset="7008230" lat="46.8631692" lon="10.9040652">
    <tag k="amenity" v="restaurant"/>
    <tag k="name" v="Hochvent"/>
  </node>
</osm>
