<?xml version='1.0' encoding='UTF-8'?>
<osm version="0.6" generator="libosmium/2.20.0">
  <node id="594868026" version="3" timestamp="2011-03-18T11:59:50Z" uid="115477" user="wowik" changeset="7593567" lat="55.7482567" lon="37.533305">
    <tag k="traffic_calming" v="bump"/>
  </node>
  <node id="594869490" version="1" timestamp="2009-12-17T11:15:12Z" uid="59758" user="rendle" changeset="3393034" lat="51.1705315" lon="4.1425229">
    <tag k="name" v="NewFlanders"/>
    <tag k="tourism" v="hotel"/>
  </node>
  <node id="594869490" version="2" timestamp="2009-12-17T11:16:43Z" uid="59758" user="rendle" changeset="3393034" lat="51.170521" lon="4.1425189">
    <tag k="name" v="NewFlanders"/>
    <tag k="tourism" v="hotel"/>
  </node>
  <node id="594869490" version="3" timestamp="2010-03-21T13:32:24Z" uid="61696" user="NICK666" changeset="4190912" lat="51.170521" lon="4.1425189">
    <tag k="name" v="NewFlanders"/>
    <tag k="tourism" v="hotel"/>
  </node>
  <node id="594869986" version="1" timestamp="2009-12-17T11:15:38Z" uid="59758" user="rendle" changeset="3393034" lat="51.1703566" lon="4.1426522">
    <tag k="amenity" v="pub"/>
    <tag k="name" v="Den dobbelsteen"/>
  </node>
  <node id="594869986" version="2" timestamp="2009-12-17T11:16:54Z" uid="59758" user="rendle" changeset="3393034" lat="51.1703789" lon="4.1426261">
    <tag k="amenity" v="pub"/>
    <tag k="name" v="Den dobbelsteen"/>
  </node>
  <node id="594869986" version="3" timestamp="2011-08-01T11:01:53Z" uid="378610" user="Jorieke V" changeset="8889596" lat="51.1702859" lon="4.1424358">
    <tag k="amenity" v="pub"/>
    <tag k="name" v="Den dobbelsteen"/>
  </node>
  <node id="594869986" version="4" timestamp="2012-02-10T14:56:10Z" uid="138772" user="lodde1949" changeset="10644099" lat="51.1702859" lon="4.1424358"/>
</osm>
