<?xml version='1.0' encoding='UTF-8'?>
<osm version="0.6" generator="libosmium/2.20.0">
  <node id="59503358" version="4" timestamp="2008-09-30T11:39:41Z" uid="1066" user="pavel" changeset="720911" lat="50.3651175" lon="12.9237682">
    <tag k="is_in" v="Czech Republic, Europe"/>
    <tag k="name" v="J치chymov"/>
    <tag k="name:de" v="Joachimsthal"/>
    <tag k="place" v="town"/>
  </node>
  <node id="59503358" version="5" timestamp="2008-11-04T13:11:55Z" uid="308" user="MichaelCollinson" changeset="676656" lat="50.3651175" lon="12.9237682">
    <tag k="is_in" v="Czech Republic, Europe"/>
    <tag k="is_in:continent" v="Europe"/>
    <tag k="is_in:country_code" v="cz"/>
    <tag k="name" v="J치chymov"/>
    <tag k="name:de" v="Joachimsthal"/>
    <tag k="place" v="town"/>
  </node>
  <node id="59503358" version="6" timestamp="2009-07-17T08:27:30Z" uid="146620" user="hkremss" changeset="1851976" lat="50.3651221" lon="12.9237658">
    <tag k="is_in" v="Czech Republic, Europe"/>
    <tag k="is_in:continent" v="Europe"/>
    <tag k="is_in:country_code" v="cz"/>
    <tag k="name" v="J치chymov"/>
    <tag k="name:de" v="Sankt Joachimsthal"/>
    <tag k="place" v="town"/>
  </node>
  <node id="59503358" version="7" timestamp="2012-01-09T23:57:03Z" uid="229590" user="xificurk" changeset="10347560" lat="50.3651221" lon="12.9237658">
    <tag k="is_in" v="Czech Republic, Europe"/>
    <tag k="is_in:continent" v="Europe"/>
    <tag k="is_in:country_code" v="cz"/>
    <tag k="name" v="J치chymov"/>
    <tag k="name:de" v="Sankt Joachimsthal"/>
    <tag k="place" v="village"/>
  </node>
  <node id="59503358" version="8" timestamp="2012-01-20T19:16:50Z" uid="229590" user="xificurk" changeset="10449503" lat="50.3651221" lon="12.9237658"/>
  <node id="59503362" version="3" timestamp="2008-09-30T10:39:04Z" uid="1066" user="pavel" changeset="720911" lat="50.3081548" lon="12.9478154">
    <tag k="is_in" v="Czech Republic, Europe"/>
    <tag k="name" v="Ostrov"/>
    <tag k="place" v="town"/>
  </node>
  <node id="59503362" version="4" timestamp="2008-11-04T13:11:48Z" uid="308" user="MichaelCollinson" changeset="676656" lat="50.3081548" lon="12.9478154">
    <tag k="is_in" v="Czech Republic, Europe"/>
    <tag k="is_in:continent" v="Europe"/>
    <tag k="is_in:country_code" v="cz"/>
    <tag k="name" v="Ostrov"/>
    <tag k="place" v="town"/>
  </node>
  <node id="59503362" version="5" timestamp="2009-07-17T08:30:17Z" uid="146620" user="hkremss" changeset="1851999" lat="50.3081572" lon="12.9478081">
    <tag k="is_in" v="Czech Republic, Europe"/>
    <tag k="is_in:continent" v="Europe"/>
    <tag k="is_in:country_code" v="cz"/>
    <tag k="name" v="Ostrov"/>
    <tag k="name:de" v="Schlackenwerth"/>
    <tag k="place" v="town"/>
  </node>
  <node id="59503362" version="6" timestamp="2011-07-16T19:00:26Z" uid="102554" user="Jezevec" changeset="8742080" lat="50.3081572" lon="12.9478081">
    <tag k="is_in" v="Czech Republic, Europe"/>
    <tag k="is_in:continent" v="Europe"/>
    <tag k="is_in:country_code" v="cz"/>
    <tag k="lau1" v="CZ0412"/>
    <tag k="lau2" v="555428"/>
    <tag k="name" v="Ostrov"/>
    <tag k="name:de" v="Schlackenwerth"/>
    <tag k="place" v="town"/>
    <tag k="population" v="17305"/>
  </node>
  <node id="59503362" version="7" timestamp="2012-01-20T19:19:03Z" uid="229590" user="xificurk" changeset="10449531" lat="50.3081572" lon="12.9478081"/>
  <node id="59505369" version="5" timestamp="2007-11-20T08:41:56Z" uid="8807" user="brendanpuck" changeset="578864" lat="-37.1432446" lon="175.5475522">
    <tag k="created_by" v="Potlatch 0.5b"/>
    <tag k="name" v="Thames"/>
    <tag k="place" v="town"/>
  </node>
  <node id="59505369" version="6" timestamp="2011-01-23T04:48:14Z" uid="142831" user="Rudy355" changeset="7057801" lat="-37.1424698" lon="175.5503224">
    <tag k="name" v="Thames"/>
    <tag k="place" v="town"/>
  </node>
  <node id="59505369" version="7" timestamp="2011-01-23T05:32:32Z" uid="142831" user="Rudy355" changeset="7057894" lat="-37.1373297" lon="175.5535411">
    <tag k="name" v="Thames"/>
    <tag k="place" v="town"/>
  </node>
</osm>
