<?xml version='1.0' encoding='UTF-8'?>
<osm version="0.6" generator="libosmium/2.20.0">
  <node id="596428913" version="2" timestamp="2009-12-24T01:16:10Z" uid="6975" user="ulfl" changeset="3439379" lat="51.4522756" lon="7.1104167">
    <tag k="bus" v="yes"/>
    <tag k="name" v="Schacht Heintzmann"/>
    <tag k="public_transport" v="stop_position"/>
  </node>
  <node id="596428913" version="3" timestamp="2011-05-10T20:26:20Z" uid="74746" user="vogelfreier" changeset="8106358" lat="51.4522654" lon="7.1103663">
    <tag k="bus" v="yes"/>
    <tag k="name" v="Schacht Heintzmann"/>
    <tag k="public_transport" v="stop_position"/>
  </node>
  <node id="596428913" version="4" timestamp="2011-06-14T10:36:14Z" uid="399089" user="AlexBochum" changeset="8435835" lat="51.4522654" lon="7.1103663">
    <tag k="bus" v="yes"/>
    <tag k="highway" v="bus_stop"/>
    <tag k="name" v="Schacht Heintzmann"/>
    <tag k="public_transport" v="stop_position"/>
  </node>
  <node id="596428913" version="5" timestamp="2012-01-18T13:25:09Z" uid="74746" user="vogelfreier" changeset="10427441" lat="51.4522654" lon="7.1103663"/>
</osm>
