<?xml version='1.0' encoding='UTF-8'?>
<osm version="0.6" generator="libosmium/2.20.0">
  <node id="597148904" version="2" timestamp="2010-07-28T21:03:06Z" uid="74617" user="JohnSmith" changeset="5342181" lat="-27.1912754" lon="152.8136467">
    <tag k="emergency" v="ambulance_station"/>
  </node>
  <node id="597148911" version="2" timestamp="2009-12-20T11:55:21Z" uid="74617" user="JohnSmith" changeset="3412889" lat="-27.1879848" lon="152.8059605">
    <tag k="amenity" v="fire_station"/>
    <tag k="name" v="Dayboro RFS"/>
  </node>
  <node id="597148918" version="2" timestamp="2009-12-20T12:00:27Z" uid="74617" user="JohnSmith" changeset="3412933" lat="-27.1966156" lon="152.8242038">
    <tag k="amenity" v="post_office"/>
    <tag k="name" v="Dayboro Post Office"/>
    <tag k="source" v="survey"/>
  </node>
  <node id="597148926" version="2" timestamp="2009-12-20T11:55:22Z" uid="74617" user="JohnSmith" changeset="3412889" lat="-27.1961301" lon="152.8257213">
    <tag k="amenity" v="fuel"/>
    <tag k="operator" v="Matilda"/>
  </node>
  <node id="597148926" version="3" timestamp="2009-12-20T12:00:28Z" uid="74617" user="JohnSmith" changeset="3412933" lat="-27.1961301" lon="152.8257213">
    <tag k="amenity" v="fuel"/>
    <tag k="name" v="Dayboro Matilda"/>
    <tag k="operator" v="Matilda"/>
  </node>
  <node id="597148926" version="4" timestamp="2009-12-20T12:27:34Z" uid="74617" user="JohnSmith" changeset="3413115" lat="-27.1961301" lon="152.8257213">
    <tag k="amenity" v="fuel"/>
    <tag k="amenity:atm" v="yes"/>
    <tag k="fax" v="+61-7-3425-1809"/>
    <tag k="fuel:diesel" v="yes"/>
    <tag k="fuel:octane_91" v="yes"/>
    <tag k="fuel:octane_95" v="yes"/>
    <tag k="matilda:address" v="36 Williams St, Dayboro, Qld, 4521"/>
    <tag k="name" v="Dayboro Matilda"/>
    <tag k="opening_hours" v="Mon-Su 05:30-19:30"/>
    <tag k="operator" v="Matilda"/>
    <tag k="phone" v="+61-7-3425-1325"/>
    <tag k="services:groceries" v="yes"/>
    <tag k="services:hot_food" v="yes"/>
    <tag k="services:mechanic" v="yes"/>
    <tag k="source:information" v="matildafuel.com.au"/>
  </node>
  <node id="597148926" version="5" timestamp="2009-12-20T15:22:44Z" uid="74617" user="JohnSmith" changeset="3414332" lat="-27.1961301" lon="152.8257213">
    <tag k="amenity" v="fuel"/>
    <tag k="amenity:atm" v="yes"/>
    <tag k="fax" v="+61-7-3425-1809"/>
    <tag k="fuel:diesel" v="yes"/>
    <tag k="fuel:octane_91" v="yes"/>
    <tag k="fuel:octane_95" v="yes"/>
    <tag k="matilda:address" v="36 Williams St, Dayboro, Qld, 4521"/>
    <tag k="matilda:manager" v="Dennis Fabian"/>
    <tag k="name" v="Dayboro Matilda"/>
    <tag k="opening_hours" v="Mon-Su 05:30-19:30"/>
    <tag k="operator" v="Matilda"/>
    <tag k="phone" v="+61-7-3425-1325"/>
    <tag k="services:groceries" v="yes"/>
    <tag k="services:hot_food" v="yes"/>
    <tag k="services:mechanic" v="yes"/>
    <tag k="source:information" v="matildafuel.com.au"/>
  </node>
  <node id="597148936" version="2" timestamp="2009-12-20T11:55:21Z" uid="74617" user="JohnSmith" changeset="3412889" lat="-27.1976271" lon="152.823131">
    <tag k="addr:housenumber" v="12"/>
    <tag k="amenity" v="police"/>
    <tag k="name" v="Dayboro Police"/>
    <tag k="phone" v="+61-7-3425-120"/>
    <tag k="source" v="survey"/>
  </node>
  <node id="597148938" version="2" timestamp="2009-12-20T12:00:27Z" uid="74617" user="JohnSmith" changeset="3412933" lat="-27.2003969" lon="152.8245287">
    <tag k="amenity" v="pub"/>
    <tag k="name" v="Dayboro Bowls Club"/>
    <tag k="source" v="survey"/>
  </node>
  <node id="597149540" version="2" timestamp="2009-12-20T11:55:21Z" uid="74617" user="JohnSmith" changeset="3412889" lat="-27.1952084" lon="152.8236436"/>
</osm>
