<?xml version='1.0' encoding='UTF-8'?>
<osm version="0.6" generator="libosmium/2.20.0">
  <node id="597394935" version="2" timestamp="2009-12-25T14:14:03Z" uid="43863" user="Rundling" changeset="3448366" lat="53.0592152" lon="10.6673448">
    <tag k="name" v="Masbrock"/>
    <tag k="traffic_sign" v="city_limit"/>
  </node>
  <node id="597394935" version="3" timestamp="2010-01-05T21:45:59Z" uid="87429" user="k4r573n" changeset="3549314" lat="53.0592152" lon="10.6673448">
    <tag k="name" v="Höver"/>
    <tag k="traffic_sign" v="city_limit"/>
  </node>
  <node id="597394938" version="2" timestamp="2009-12-25T14:08:50Z" uid="43863" user="Rundling" changeset="3448333" lat="52.9526042" lon="10.7629209">
    <tag k="name" v="Batensen"/>
    <tag k="traffic_sign" v="city_limit"/>
  </node>
  <node id="597394941" version="2" timestamp="2009-12-25T14:11:23Z" uid="43863" user="Rundling" changeset="3448341" lat="52.9294046" lon="10.7916717">
    <tag k="name" v="Növenthien"/>
    <tag k="traffic_sign" v="city_limit"/>
  </node>
  <node id="597394941" version="3" timestamp="2010-01-05T21:45:59Z" uid="87429" user="k4r573n" changeset="3549314" lat="52.9292502" lon="10.7908802">
    <tag k="name" v="Növenthien"/>
    <tag k="traffic_sign" v="city_limit"/>
  </node>
  <node id="597394941" version="4" timestamp="2011-01-07T17:18:30Z" uid="43863" user="Rundling" changeset="6895050" lat="52.9293911" lon="10.7917848">
    <tag k="name" v="Növenthien"/>
    <tag k="traffic_sign" v="city_limit"/>
  </node>
  <node id="597394941" version="5" timestamp="2011-02-01T13:46:08Z" uid="51324" user="OPerivar" changeset="7153322" lat="52.929324" lon="10.7912601">
    <tag k="name" v="Növenthien"/>
    <tag k="traffic_sign" v="city_limit"/>
  </node>
  <node id="597394943" version="2" timestamp="2011-01-07T17:18:34Z" uid="43863" user="Rundling" changeset="6895050" lat="52.929465" lon="10.7976259">
    <tag k="name" v="Növenthien"/>
    <tag k="traffic_sign" v="city_limit"/>
  </node>
  <node id="597394945" version="2" timestamp="2011-02-11T18:45:06Z" uid="43863" user="Rundling" changeset="7257883" lat="52.9551674" lon="10.7575245">
    <tag k="name" v="Batensen"/>
    <tag k="traffic_sign" v="city_limit"/>
  </node>
  <node id="597394960" version="2" timestamp="2010-12-29T09:40:15Z" uid="43863" user="Rundling" changeset="6796296" lat="53.0931234" lon="10.6564038">
    <tag k="name" v="Römstedt"/>
    <tag k="traffic_sign" v="city_limit"/>
  </node>
  <node id="597394961" version="3" timestamp="2010-12-30T16:36:55Z" uid="43863" user="Rundling" changeset="6811337" lat="53.1340265" lon="10.636112">
    <tag k="alt_name" v="Gemeinde Altenmedingen"/>
    <tag k="name" v="Vorwerk"/>
    <tag k="traffic_sign" v="city_limit"/>
  </node>
</osm>
