<?xml version='1.0' encoding='UTF-8'?>
<osm version="0.6" generator="libosmium/2.20.0">
  <node id="599450486" version="1" timestamp="2009-12-26T04:06:03Z" uid="8807" user="brendanpuck" changeset="3452161" lat="-33.7151578" lon="151.117048">
    <tag k="amenity" v="place_of_worship"/>
    <tag k="denomination" v="uniting"/>
    <tag k="name" v="St Johns Uniting Church"/>
    <tag k="opening_hours" v="Su 09:00-11:00"/>
    <tag k="religion" v="christian"/>
    <tag k="source" v="nearmap"/>
  </node>
  <node id="599454614" version="2" timestamp="2010-01-11T04:20:25Z" uid="30201" user="rrankin" changeset="3593484" lat="-33.835282" lon="151.254953"/>
  <node id="599454615" version="2" timestamp="2010-01-11T04:19:52Z" uid="30201" user="rrankin" changeset="3593484" lat="-33.8357447" lon="151.2551299"/>
  <node id="599454617" version="2" timestamp="2010-01-11T04:19:54Z" uid="30201" user="rrankin" changeset="3593484" lat="-33.8359397" lon="151.2559284"/>
  <node id="599454618" version="2" timestamp="2010-01-11T04:19:55Z" uid="30201" user="rrankin" changeset="3593484" lat="-33.8358902" lon="151.2559545"/>
  <node id="599456387" version="3" timestamp="2010-04-11T04:54:21Z" uid="20587" user="balrog-kun" changeset="4389130" lat="53.2391653" lon="18.0814265">
    <tag k="name" v="Nekla"/>
    <tag k="place" v="village"/>
  </node>
  <node id="599456387" version="4" timestamp="2010-04-11T13:18:13Z" uid="20587" user="balrog-kun" changeset="4392352" lat="53.2389362" lon="18.0821022">
    <tag k="name" v="Nekla"/>
    <tag k="place" v="village"/>
  </node>
  <node id="599456507" version="2" timestamp="2010-04-11T04:54:21Z" uid="20587" user="balrog-kun" changeset="4389130" lat="53.25889" lon="18.12851">
    <tag k="name" v="Pauliny"/>
    <tag k="place" v="village"/>
    <tag k="source" v="http://ump.waw.pl/ retrieved 11:19:07 11/17/09 (UMP-Torun/src/cities-Torun.pnt-converted.txt)"/>
  </node>
  <node id="599456507" version="3" timestamp="2010-04-11T13:18:13Z" uid="20587" user="balrog-kun" changeset="4392352" lat="53.25889" lon="18.12851">
    <tag k="name" v="Pauliny"/>
    <tag k="place" v="village"/>
    <tag k="source" v="http://ump.waw.pl/ retrieved 11:19:07 11/17/09 (UMP-Torun/src/cities-Torun.pnt-converted.txt)"/>
  </node>
  <node id="599456507" version="4" timestamp="2010-04-27T04:02:54Z" uid="30632" user="antblant" changeset="4537862" lat="53.25889" lon="18.12851">
    <tag k="name" v="Pauliny"/>
    <tag k="place" v="village"/>
    <tag k="source" v="http://ump.waw.pl/ retrieved 11:19:07 11/17/09 (UMP-Torun/src/cities-Torun.pnt-converted.txt)"/>
    <tag k="teryt:simc" v="0084362"/>
  </node>
  <node id="599456516" version="3" timestamp="2010-04-27T03:57:51Z" uid="30632" user="antblant" changeset="4537850" lat="53.2312623" lon="18.1872129">
    <tag k="name" v="Hutna WieÅ›"/>
    <tag k="place" v="village"/>
    <tag k="source" v="http://ump.waw.pl/ retrieved 11:19:07 11/17/09 (UMP-Torun/src/cities-Torun.pnt-converted.txt)"/>
    <tag k="teryt:simc" v="0084570"/>
  </node>
  <node id="599456762" version="3" timestamp="2010-04-11T04:54:21Z" uid="20587" user="balrog-kun" changeset="4389130" lat="53.2647293" lon="18.0802797">
    <tag k="name" v="Marcelewo"/>
    <tag k="place" v="village"/>
    <tag k="source" v="http://ump.waw.pl/ retrieved 11:19:07 11/17/09 (UMP-Torun/src/cities-Torun.pnt-converted.txt)"/>
  </node>
  <node id="599456762" version="4" timestamp="2010-04-11T13:18:13Z" uid="20587" user="balrog-kun" changeset="4392352" lat="53.2646604" lon="18.0836996">
    <tag k="name" v="Marcelewo"/>
    <tag k="place" v="village"/>
    <tag k="source" v="http://ump.waw.pl/ retrieved 11:19:07 11/17/09 (UMP-Torun/src/cities-Torun.pnt-converted.txt)"/>
  </node>
  <node id="599456762" version="5" timestamp="2010-04-27T03:56:15Z" uid="30632" user="antblant" changeset="4537843" lat="53.2646604" lon="18.0836996">
    <tag k="name" v="Marcelewo"/>
    <tag k="place" v="village"/>
    <tag k="source" v="http://ump.waw.pl/ retrieved 11:19:07 11/17/09 (UMP-Torun/src/cities-Torun.pnt-converted.txt)"/>
    <tag k="teryt:simc" v="0084416"/>
  </node>
  <node id="599456821" version="3" timestamp="2010-04-11T04:54:21Z" uid="20587" user="balrog-kun" changeset="4389130" lat="53.2763891" lon="18.0894574">
    <tag k="name" v="Karczemka"/>
    <tag k="place" v="hamlet"/>
    <tag k="source" v="http://ump.waw.pl/ retrieved 11:19:07 11/17/09 (UMP-Torun/src/cities-Torun.pnt-converted.txt)"/>
  </node>
  <node id="599456821" version="4" timestamp="2010-04-11T13:18:13Z" uid="20587" user="balrog-kun" changeset="4392352" lat="53.276423" lon="18.0886848">
    <tag k="name" v="Karczemka"/>
    <tag k="place" v="hamlet"/>
    <tag k="source" v="http://ump.waw.pl/ retrieved 11:19:07 11/17/09 (UMP-Torun/src/cities-Torun.pnt-converted.txt)"/>
  </node>
  <node id="599457391" version="3" timestamp="2010-04-11T04:54:21Z" uid="20587" user="balrog-kun" changeset="4389130" lat="53.3478787" lon="18.0687646">
    <tag k="name" v="Kurpiszewo"/>
    <tag k="place" v="hamlet"/>
    <tag k="source" v="http://ump.waw.pl/ retrieved 11:19:07 11/17/09 (UMP-Torun/src/cities-Torun.pnt-converted.txt)"/>
  </node>
  <node id="599457391" version="4" timestamp="2010-04-11T13:18:13Z" uid="20587" user="balrog-kun" changeset="4392352" lat="53.3456667" lon="18.0668808">
    <tag k="name" v="Kurpiszewo"/>
    <tag k="place" v="hamlet"/>
    <tag k="source" v="http://ump.waw.pl/ retrieved 11:19:07 11/17/09 (UMP-Torun/src/cities-Torun.pnt-converted.txt)"/>
  </node>
</osm>
