<?xml version='1.0' encoding='UTF-8'?>
<osm version="0.6" generator="libosmium/2.20.0">
  <node id="602157122" version="4" timestamp="2010-09-09T16:21:49Z" uid="115477" user="wowik" changeset="5734035" lat="54.8714087" lon="37.4144646">
    <tag k="name" v="107 км"/>
    <tag k="railway" v="halt"/>
  </node>
  <node id="602157122" version="5" timestamp="2011-02-18T13:01:19Z" uid="407701" user="vinnipushkin" changeset="7322242" lat="54.8714087" lon="37.4144646">
    <tag k="name" v="пл. 107 км"/>
    <tag k="railway" v="station"/>
  </node>
  <node id="602157122" version="6" timestamp="2011-04-09T21:39:59Z" uid="266092" user="luch86" changeset="7817805" lat="54.8714087" lon="37.4144646">
    <tag k="name" v="107 км"/>
    <tag k="railway" v="halt"/>
  </node>
  <node id="602157122" version="7" timestamp="2011-07-25T09:04:47Z" uid="397326" user="trolleway" changeset="8823541" lat="54.8714087" lon="37.4144646">
    <tag k="name" v="107 км"/>
    <tag k="railway" v="halt"/>
    <tag k="ticket_office" v="no"/>
  </node>
</osm>
