<?xml version='1.0' encoding='UTF-8'?>
<osm version="0.6" generator="libosmium/2.20.0">
  <node id="602552008" version="1" timestamp="2010-01-01T15:15:44Z" uid="16922" user="amai" changeset="3509072" lat="49.9016794" lon="8.839198">
    <tag k="shop" v="hairdresser"/>
  </node>
  <node id="602552008" version="2" timestamp="2011-04-30T20:46:15Z" uid="16922" user="amai" changeset="8015734" lat="49.9016587" lon="8.8392382">
    <tag k="shop" v="hairdresser"/>
  </node>
  <node id="602552008" version="3" timestamp="2012-02-11T16:43:07Z" uid="131968" user="changchun_1" changeset="10654099" lat="49.9016587" lon="8.8392382"/>
  <node id="602553194" version="2" timestamp="2010-10-05T01:33:56Z" uid="20587" user="balrog-kun" changeset="5958352" lat="50.1689235" lon="18.9047664">
    <tag k="addr:city" v="Mikołów"/>
    <tag k="addr:housenumber" v="6"/>
    <tag k="addr:street" v="Rynek"/>
    <tag k="amenity" v="bank"/>
    <tag k="atm" v="yes"/>
    <tag k="millennium:date" v="2009-09-14 14:49:45"/>
    <tag k="millennium:ref" v="20431"/>
    <tag k="millennium:usługi" v="Millennium"/>
    <tag k="name" v="Millennium Bank"/>
    <tag k="opening_hours" v="09.00-17.00 Mo-Fr"/>
    <tag k="operator" v="Millenium Bank S.A."/>
  </node>
  <node id="602553194" version="3" timestamp="2012-02-26T12:30:54Z" uid="94017" user="AdiS" changeset="10797261" lat="50.1689442" lon="18.9046437">
    <tag k="addr:city" v="Mikołów"/>
    <tag k="addr:housenumber" v="6"/>
    <tag k="addr:postcode" v="43-190"/>
    <tag k="addr:street" v="Rynek"/>
    <tag k="amenity" v="bank"/>
    <tag k="atm" v="yes"/>
    <tag k="millennium:date" v="2009-09-14 14:49:45"/>
    <tag k="millennium:ref" v="20431"/>
    <tag k="millennium:usługi" v="Millennium"/>
    <tag k="name" v="Millennium Bank"/>
    <tag k="opening_hours" v="09.00-17.00 Mo-Fr"/>
    <tag k="operator" v="Millenium Bank S.A."/>
  </node>
  <node id="602553197" version="2" timestamp="2010-10-05T01:33:36Z" uid="20587" user="balrog-kun" changeset="5958352" lat="50.1692003" lon="18.9048163">
    <tag k="amenity" v="pharmacy"/>
    <tag k="name" v="Stara Apteka"/>
  </node>
  <node id="602553197" version="3" timestamp="2012-02-26T12:28:54Z" uid="94017" user="AdiS" changeset="10797261" lat="50.1692209" lon="18.9047466">
    <tag k="amenity" v="pharmacy"/>
    <tag k="name" v="Stara Apteka"/>
  </node>
  <node id="602558085" version="3" timestamp="2011-04-15T20:58:12Z" uid="9581" user="Lobelt" changeset="7873598" lat="50.5792666" lon="10.8548019">
    <tag k="power" v="pole"/>
  </node>
  <node id="602558087" version="4" timestamp="2011-04-15T20:58:13Z" uid="9581" user="Lobelt" changeset="7873598" lat="50.579277" lon="10.8556841">
    <tag k="power" v="pole"/>
  </node>
  <node id="602558090" version="3" timestamp="2011-04-15T20:58:13Z" uid="9581" user="Lobelt" changeset="7873598" lat="50.5791803" lon="10.856329">
    <tag k="power" v="pole"/>
  </node>
</osm>
