<?xml version='1.0' encoding='UTF-8'?>
<osm version="0.6" generator="libosmium/2.20.0">
  <node id="604725174" version="2" timestamp="2010-05-08T21:05:09Z" uid="36809" user="pfoten_weg_!_" changeset="4643076" lat="48.051031" lon="11.5072286">
    <tag k="addr:city" v="Pullach im Isartal"/>
    <tag k="addr:country" v="DE"/>
    <tag k="addr:housename" v="Wohngebäude"/>
    <tag k="addr:housenumber" v="29"/>
    <tag k="addr:postcode" v="82049"/>
    <tag k="addr:street" v="Waldstraße"/>
    <tag k="name" v="29"/>
  </node>
  <node id="604725174" version="3" timestamp="2010-05-09T08:36:36Z" uid="145231" user="woodpeck_repair" changeset="4645739" lat="48.051031" lon="11.5072286">
    <tag k="addr:city" v="Pullach im Isartal"/>
    <tag k="addr:country" v="DE"/>
    <tag k="addr:housename" v="Wohngebäude"/>
    <tag k="addr:housenumber" v="29"/>
    <tag k="addr:postcode" v="82049"/>
    <tag k="addr:street" v="Waldstraße"/>
    <tag k="name" v="29"/>
  </node>
  <node id="604725174" version="4" timestamp="2010-05-10T16:45:08Z" uid="30579" user="Tiramisu" changeset="4661006" lat="48.051031" lon="11.5072286">
    <tag k="addr:city" v="Pullach im Isartal"/>
    <tag k="addr:country" v="DE"/>
    <tag k="addr:housenumber" v="29"/>
    <tag k="addr:postcode" v="82049"/>
    <tag k="addr:street" v="Waldstraße"/>
  </node>
  <node id="604725192" version="2" timestamp="2010-05-08T21:05:07Z" uid="36809" user="pfoten_weg_!_" changeset="4643076" lat="48.0577436" lon="11.5136577">
    <tag k="addr:city" v="Pullach"/>
    <tag k="addr:country" v="DE"/>
    <tag k="addr:housenumber" v="28"/>
    <tag k="addr:postcode" v="82049"/>
    <tag k="addr:street" v="Anton-Köck-Straße"/>
  </node>
  <node id="604725192" version="3" timestamp="2010-05-09T08:36:35Z" uid="145231" user="woodpeck_repair" changeset="4645739" lat="48.0577436" lon="11.5136577">
    <tag k="addr:city" v="Pullach"/>
    <tag k="addr:country" v="DE"/>
    <tag k="addr:housenumber" v="28"/>
    <tag k="addr:postcode" v="82049"/>
    <tag k="addr:street" v="Anton-Köck-Straße"/>
  </node>
  <node id="604725200" version="2" timestamp="2010-05-08T00:55:04Z" uid="200463" user="harmagedon" changeset="4635282" lat="48.0591126" lon="11.514977">
    <tag k="addr:city" v="Pullach"/>
    <tag k="addr:country" v="DE"/>
    <tag k="addr:housenumber" v="25"/>
    <tag k="addr:postcode" v="82049"/>
    <tag k="addr:street" v="Pater-Rupert-Mayer-Straße"/>
  </node>
  <node id="604725200" version="3" timestamp="2010-05-09T17:04:27Z" uid="145231" user="woodpeck_repair" changeset="4651092" lat="48.0591126" lon="11.514977">
    <tag k="addr:city" v="Pullach"/>
    <tag k="addr:country" v="DE"/>
    <tag k="addr:housenumber" v="25"/>
    <tag k="addr:postcode" v="82049"/>
    <tag k="addr:street" v="Pater-Rupert-Mayer-Straße"/>
  </node>
  <node id="604725205" version="2" timestamp="2010-05-08T00:55:04Z" uid="200463" user="harmagedon" changeset="4635282" lat="48.0591759" lon="11.5145469">
    <tag k="addr:city" v="Pullach"/>
    <tag k="addr:country" v="DE"/>
    <tag k="addr:housenumber" v="27"/>
    <tag k="addr:postcode" v="82049"/>
    <tag k="addr:street" v="Pater-Rupert-Mayer-Straße"/>
  </node>
  <node id="604725205" version="3" timestamp="2010-05-09T17:04:25Z" uid="145231" user="woodpeck_repair" changeset="4651092" lat="48.0591759" lon="11.5145469">
    <tag k="addr:city" v="Pullach"/>
    <tag k="addr:country" v="DE"/>
    <tag k="addr:housenumber" v="27"/>
    <tag k="addr:postcode" v="82049"/>
    <tag k="addr:street" v="Pater-Rupert-Mayer-Straße"/>
  </node>
  <node id="604725209" version="2" timestamp="2010-05-08T00:55:04Z" uid="200463" user="harmagedon" changeset="4635282" lat="48.0590736" lon="11.5152467">
    <tag k="addr:city" v="Pullach"/>
    <tag k="addr:country" v="DE"/>
    <tag k="addr:housenumber" v="23A"/>
    <tag k="addr:postcode" v="82049"/>
    <tag k="addr:street" v="Pater-Rupert-Mayer-Straße"/>
  </node>
  <node id="604725209" version="3" timestamp="2010-05-09T17:04:23Z" uid="145231" user="woodpeck_repair" changeset="4651092" lat="48.0590736" lon="11.5152467">
    <tag k="addr:city" v="Pullach"/>
    <tag k="addr:country" v="DE"/>
    <tag k="addr:housenumber" v="23A"/>
    <tag k="addr:postcode" v="82049"/>
    <tag k="addr:street" v="Pater-Rupert-Mayer-Straße"/>
  </node>
  <node id="604725215" version="2" timestamp="2010-05-08T00:55:05Z" uid="200463" user="harmagedon" changeset="4635282" lat="48.0590444" lon="11.5154289">
    <tag k="addr:city" v="Pullach"/>
    <tag k="addr:country" v="DE"/>
    <tag k="addr:housenumber" v="23"/>
    <tag k="addr:postcode" v="82049"/>
    <tag k="addr:street" v="Pater-Rupert-Mayer-Straße"/>
  </node>
  <node id="604725215" version="3" timestamp="2010-05-09T17:04:22Z" uid="145231" user="woodpeck_repair" changeset="4651092" lat="48.0590444" lon="11.5154289">
    <tag k="addr:city" v="Pullach"/>
    <tag k="addr:country" v="DE"/>
    <tag k="addr:housenumber" v="23"/>
    <tag k="addr:postcode" v="82049"/>
    <tag k="addr:street" v="Pater-Rupert-Mayer-Straße"/>
  </node>
  <node id="604725222" version="2" timestamp="2010-05-08T00:55:06Z" uid="200463" user="harmagedon" changeset="4635282" lat="48.0593221" lon="11.5153852">
    <tag k="addr:city" v="Pullach"/>
    <tag k="addr:country" v="DE"/>
    <tag k="addr:housenumber" v="30"/>
    <tag k="addr:postcode" v="82049"/>
    <tag k="addr:street" v="Pater-Rupert-Mayer-Straße"/>
  </node>
  <node id="604725222" version="3" timestamp="2010-05-09T17:04:21Z" uid="145231" user="woodpeck_repair" changeset="4651092" lat="48.0593221" lon="11.5153852">
    <tag k="addr:city" v="Pullach"/>
    <tag k="addr:country" v="DE"/>
    <tag k="addr:housenumber" v="30"/>
    <tag k="addr:postcode" v="82049"/>
    <tag k="addr:street" v="Pater-Rupert-Mayer-Straße"/>
  </node>
  <node id="604725228" version="2" timestamp="2010-05-08T00:55:06Z" uid="200463" user="harmagedon" changeset="4635282" lat="48.0592782" lon="11.5156476">
    <tag k="addr:city" v="Pullach"/>
    <tag k="addr:country" v="DE"/>
    <tag k="addr:housenumber" v="28A"/>
    <tag k="addr:postcode" v="82049"/>
    <tag k="addr:street" v="Pater-Rupert-Mayer-Straße"/>
  </node>
  <node id="604725228" version="3" timestamp="2010-05-09T17:04:19Z" uid="145231" user="woodpeck_repair" changeset="4651092" lat="48.0592782" lon="11.5156476">
    <tag k="addr:city" v="Pullach"/>
    <tag k="addr:country" v="DE"/>
    <tag k="addr:housenumber" v="28A"/>
    <tag k="addr:postcode" v="82049"/>
    <tag k="addr:street" v="Pater-Rupert-Mayer-Straße"/>
  </node>
  <node id="604725231" version="2" timestamp="2010-05-08T00:55:05Z" uid="200463" user="harmagedon" changeset="4635282" lat="48.0592392" lon="11.5158954">
    <tag k="addr:city" v="Pullach"/>
    <tag k="addr:country" v="DE"/>
    <tag k="addr:housenumber" v="28"/>
    <tag k="addr:postcode" v="82049"/>
    <tag k="addr:street" v="Pater-Rupert-Mayer-Straße"/>
  </node>
  <node id="604725231" version="3" timestamp="2010-05-09T17:04:18Z" uid="145231" user="woodpeck_repair" changeset="4651092" lat="48.0592392" lon="11.5158954">
    <tag k="addr:city" v="Pullach"/>
    <tag k="addr:country" v="DE"/>
    <tag k="addr:housenumber" v="28"/>
    <tag k="addr:postcode" v="82049"/>
    <tag k="addr:street" v="Pater-Rupert-Mayer-Straße"/>
  </node>
  <node id="604725235" version="2" timestamp="2010-05-08T00:55:05Z" uid="200463" user="harmagedon" changeset="4635282" lat="48.0589323" lon="11.5162161">
    <tag k="addr:city" v="Pullach"/>
    <tag k="addr:country" v="DE"/>
    <tag k="addr:housenumber" v="19A"/>
    <tag k="addr:postcode" v="82049"/>
    <tag k="addr:street" v="Pater-Rupert-Mayer-Straße"/>
  </node>
  <node id="604725235" version="3" timestamp="2010-05-09T17:04:16Z" uid="145231" user="woodpeck_repair" changeset="4651092" lat="48.0589323" lon="11.5162161">
    <tag k="addr:city" v="Pullach"/>
    <tag k="addr:country" v="DE"/>
    <tag k="addr:housenumber" v="19A"/>
    <tag k="addr:postcode" v="82049"/>
    <tag k="addr:street" v="Pater-Rupert-Mayer-Straße"/>
  </node>
  <node id="604725239" version="2" timestamp="2010-05-08T00:55:05Z" uid="200463" user="harmagedon" changeset="4635282" lat="48.058981" lon="11.5159027">
    <tag k="addr:city" v="Pullach"/>
    <tag k="addr:country" v="DE"/>
    <tag k="addr:housenumber" v="21"/>
    <tag k="addr:postcode" v="82049"/>
    <tag k="addr:street" v="Pater-Rupert-Mayer-Straße"/>
  </node>
  <node id="604725239" version="3" timestamp="2010-05-09T17:04:13Z" uid="145231" user="woodpeck_repair" changeset="4651092" lat="48.058981" lon="11.5159027">
    <tag k="addr:city" v="Pullach"/>
    <tag k="addr:country" v="DE"/>
    <tag k="addr:housenumber" v="21"/>
    <tag k="addr:postcode" v="82049"/>
    <tag k="addr:street" v="Pater-Rupert-Mayer-Straße"/>
  </node>
  <node id="604725245" version="2" timestamp="2010-05-08T00:55:05Z" uid="200463" user="harmagedon" changeset="4635282" lat="48.058869" lon="11.5165223">
    <tag k="addr:city" v="Pullach"/>
    <tag k="addr:country" v="DE"/>
    <tag k="addr:housenumber" v="19"/>
    <tag k="addr:postcode" v="82049"/>
    <tag k="addr:street" v="Pater-Rupert-Mayer-Straße"/>
  </node>
  <node id="604725245" version="3" timestamp="2010-05-09T17:04:12Z" uid="145231" user="woodpeck_repair" changeset="4651092" lat="48.058869" lon="11.5165223">
    <tag k="addr:city" v="Pullach"/>
    <tag k="addr:country" v="DE"/>
    <tag k="addr:housenumber" v="19"/>
    <tag k="addr:postcode" v="82049"/>
    <tag k="addr:street" v="Pater-Rupert-Mayer-Straße"/>
  </node>
</osm>
