<?xml version='1.0' encoding='UTF-8'?>
<osm version="0.6" generator="libosmium/2.20.0">
  <node id="604715798" version="2" timestamp="2010-05-25T06:28:19Z" uid="18775" user="drlizau" changeset="4800396" lat="53.8645259" lon="27.6674403">
    <tag k="office" v="company"/>
    <tag k="operator" v="Velcom"/>
  </node>
  <node id="604715818" version="2" timestamp="2010-05-25T06:28:19Z" uid="18775" user="drlizau" changeset="4800396" lat="53.8646435" lon="27.6670318">
    <tag k="internet_access" v="terminal"/>
    <tag k="name" v="Белтелеком"/>
    <tag k="note" v="ПКП, 16 компьютеров"/>
    <tag k="office" v="company"/>
  </node>
  <node id="604715818" version="3" timestamp="2011-11-27T20:59:55Z" uid="86479" user="osm-belarus" changeset="9969899" lat="53.8646435" lon="27.6670318">
    <tag k="internet_access" v="terminal"/>
    <tag k="name" v="Белтелеком"/>
    <tag k="name:be" v="Белтэлекам"/>
    <tag k="name:ru" v="Белтелеком"/>
    <tag k="note" v="ПКП, 16 компьютеров"/>
    <tag k="office" v="company"/>
  </node>
</osm>
