<?xml version='1.0' encoding='UTF-8'?>
<osm version="0.6" generator="libosmium/2.20.0">
  <node id="605835996" version="1" timestamp="2010-01-05T17:32:55Z" uid="10712" user="Kraeml" changeset="3547221" lat="49.4709629" lon="11.097533">
    <tag k="amenity" v="recycling"/>
    <tag k="recycling:clothes" v="yes"/>
    <tag k="recycling:glass" v="yes"/>
  </node>
  <node id="605835996" version="2" timestamp="2011-10-29T17:15:05Z" uid="71557" user="Taroc" changeset="9686609" lat="49.4709629" lon="11.097533"/>
  <node id="605836002" version="1" timestamp="2010-01-05T17:32:55Z" uid="10712" user="Kraeml" changeset="3547221" lat="49.4720708" lon="11.1041353">
    <tag k="amenity" v="bank"/>
    <tag k="atm" v="yes"/>
    <tag k="name" v="Hypo Vereinsbank"/>
  </node>
  <node id="605836002" version="2" timestamp="2010-03-28T13:14:09Z" uid="123534" user="ef9ker00" changeset="4256494" lat="49.47211" lon="11.1041162">
    <tag k="amenity" v="bank"/>
    <tag k="atm" v="yes"/>
    <tag k="name" v="Hypo Vereinsbank"/>
  </node>
  <node id="605836002" version="3" timestamp="2010-10-02T18:14:35Z" uid="65148" user="Pirat_Michi" changeset="5938390" lat="49.47211" lon="11.1041162">
    <tag k="amenity" v="bank"/>
    <tag k="atm" v="yes"/>
    <tag k="name" v="HypoVereinsbank"/>
  </node>
  <node id="605836002" version="4" timestamp="2011-07-22T19:04:07Z" uid="202858" user="kellerma" changeset="8800410" lat="49.47211" lon="11.1041162"/>
</osm>
