<?xml version='1.0' encoding='UTF-8'?>
<osm version="0.6" generator="libosmium/2.20.0">
  <node id="611080360" version="2" timestamp="2010-04-11T11:54:24Z" uid="20587" user="balrog-kun" changeset="4392352" lat="50.26155" lon="16.8235">
    <tag k="name" v="Janowa Góra"/>
    <tag k="place" v="village"/>
    <tag k="source" v="http://ump.waw.pl/ retrieved 10:37:36 12/08/09 (UMP-Klodzko/src/cities-Klodzko.pnt-converted.txt)"/>
  </node>
  <node id="611080360" version="3" timestamp="2010-04-11T13:18:22Z" uid="20587" user="balrog-kun" changeset="4392352" lat="50.26155" lon="16.8235">
    <tag k="name" v="Janowa Góra"/>
    <tag k="place" v="village"/>
    <tag k="source" v="http://ump.waw.pl/ retrieved 10:37:36 12/08/09 (UMP-Klodzko/src/cities-Klodzko.pnt-converted.txt)"/>
  </node>
  <node id="611080360" version="4" timestamp="2010-04-22T19:57:30Z" uid="163896" user="Zbigniew Czernik" changeset="4498120" lat="50.2531069" lon="16.8361261">
    <tag k="name" v="Janowa Góra"/>
    <tag k="place" v="village"/>
    <tag k="source" v="http://ump.waw.pl/ retrieved 10:37:36 12/08/09 (UMP-Klodzko/src/cities-Klodzko.pnt-converted.txt)"/>
  </node>
  <node id="611080360" version="5" timestamp="2010-04-25T12:50:02Z" uid="42429" user="FK270673" changeset="4520929" lat="50.2531069" lon="16.836126">
    <tag k="name" v="Janowa Góra"/>
    <tag k="name:de" v="Johannesberg"/>
    <tag k="place" v="village"/>
    <tag k="source" v="http://ump.waw.pl/ retrieved 10:37:36 12/08/09 (UMP-Klodzko/src/cities-Klodzko.pnt-converted.txt)"/>
  </node>
  <node id="611080360" version="6" timestamp="2010-04-27T04:05:53Z" uid="30632" user="antblant" changeset="4537871" lat="50.2531069" lon="16.836126">
    <tag k="name" v="Janowa Góra"/>
    <tag k="name:de" v="Johannesberg"/>
    <tag k="place" v="village"/>
    <tag k="source" v="http://ump.waw.pl/ retrieved 10:37:36 12/08/09 (UMP-Klodzko/src/cities-Klodzko.pnt-converted.txt)"/>
    <tag k="teryt:simc" v="0855635"/>
  </node>
  <node id="611080944" version="2" timestamp="2010-04-11T11:54:24Z" uid="20587" user="balrog-kun" changeset="4392352" lat="50.26734" lon="16.84067">
    <tag k="name" v="Sienna"/>
    <tag k="place" v="village"/>
    <tag k="source" v="http://ump.waw.pl/ retrieved 10:37:36 12/08/09 (UMP-Klodzko/src/cities-Klodzko.pnt-converted.txt)"/>
  </node>
  <node id="611080944" version="3" timestamp="2010-04-11T13:18:22Z" uid="20587" user="balrog-kun" changeset="4392352" lat="50.26734" lon="16.84067">
    <tag k="name" v="Sienna"/>
    <tag k="place" v="village"/>
    <tag k="source" v="http://ump.waw.pl/ retrieved 10:37:36 12/08/09 (UMP-Klodzko/src/cities-Klodzko.pnt-converted.txt)"/>
  </node>
  <node id="611080944" version="4" timestamp="2010-04-22T19:57:30Z" uid="163896" user="Zbigniew Czernik" changeset="4498120" lat="50.2604424" lon="16.8219241">
    <tag k="name" v="Sienna"/>
    <tag k="place" v="village"/>
    <tag k="source" v="http://ump.waw.pl/ retrieved 10:37:36 12/08/09 (UMP-Klodzko/src/cities-Klodzko.pnt-converted.txt)"/>
  </node>
  <node id="611081050" version="2" timestamp="2010-04-11T11:54:24Z" uid="20587" user="balrog-kun" changeset="4392352" lat="50.26279" lon="16.87423">
    <tag k="name" v="Kletno"/>
    <tag k="place" v="village"/>
    <tag k="source" v="http://ump.waw.pl/ retrieved 10:37:36 12/08/09 (UMP-Klodzko/src/cities-Klodzko.pnt-converted.txt)"/>
  </node>
  <node id="611081050" version="3" timestamp="2010-04-11T13:18:22Z" uid="20587" user="balrog-kun" changeset="4392352" lat="50.26279" lon="16.87423">
    <tag k="name" v="Kletno"/>
    <tag k="place" v="village"/>
    <tag k="source" v="http://ump.waw.pl/ retrieved 10:37:36 12/08/09 (UMP-Klodzko/src/cities-Klodzko.pnt-converted.txt)"/>
  </node>
  <node id="611081050" version="4" timestamp="2010-04-25T12:50:12Z" uid="42429" user="FK270673" changeset="4520929" lat="50.26279" lon="16.8742299">
    <tag k="name" v="Kletno"/>
    <tag k="name:de" v="Klessengrund"/>
    <tag k="place" v="village"/>
    <tag k="source" v="http://ump.waw.pl/ retrieved 10:37:36 12/08/09 (UMP-Klodzko/src/cities-Klodzko.pnt-converted.txt)"/>
  </node>
  <node id="611081050" version="5" timestamp="2010-04-27T04:02:28Z" uid="30632" user="antblant" changeset="4537862" lat="50.26279" lon="16.8742299">
    <tag k="name" v="Kletno"/>
    <tag k="name:de" v="Klessengrund"/>
    <tag k="place" v="village"/>
    <tag k="source" v="http://ump.waw.pl/ retrieved 10:37:36 12/08/09 (UMP-Klodzko/src/cities-Klodzko.pnt-converted.txt)"/>
    <tag k="teryt:simc" v="0855581"/>
  </node>
  <node id="611081689" version="2" timestamp="2010-04-11T11:54:25Z" uid="20587" user="balrog-kun" changeset="4392352" lat="50.30476" lon="16.45516">
    <tag k="name" v="Lasówka"/>
    <tag k="place" v="village"/>
    <tag k="source" v="http://ump.waw.pl/ retrieved 10:37:36 12/08/09 (UMP-Klodzko/src/cities-Klodzko.pnt-converted.txt)"/>
  </node>
  <node id="611081689" version="3" timestamp="2010-04-11T13:18:22Z" uid="20587" user="balrog-kun" changeset="4392352" lat="50.30476" lon="16.45516">
    <tag k="name" v="Lasówka"/>
    <tag k="place" v="village"/>
    <tag k="source" v="http://ump.waw.pl/ retrieved 10:37:36 12/08/09 (UMP-Klodzko/src/cities-Klodzko.pnt-converted.txt)"/>
  </node>
  <node id="611081689" version="4" timestamp="2010-04-27T03:56:10Z" uid="30632" user="antblant" changeset="4537843" lat="50.30476" lon="16.45516">
    <tag k="name" v="Lasówka"/>
    <tag k="place" v="village"/>
    <tag k="source" v="http://ump.waw.pl/ retrieved 10:37:36 12/08/09 (UMP-Klodzko/src/cities-Klodzko.pnt-converted.txt)"/>
    <tag k="teryt:simc" v="0851382"/>
  </node>
  <node id="611081728" version="2" timestamp="2010-04-11T11:54:25Z" uid="20587" user="balrog-kun" changeset="4392352" lat="50.27416" lon="16.48275">
    <tag k="name" v="Mostowice"/>
    <tag k="place" v="village"/>
    <tag k="source" v="http://ump.waw.pl/ retrieved 10:37:36 12/08/09 (UMP-Klodzko/src/cities-Klodzko.pnt-converted.txt)"/>
  </node>
  <node id="611081728" version="3" timestamp="2010-04-11T13:18:22Z" uid="20587" user="balrog-kun" changeset="4392352" lat="50.27416" lon="16.48275">
    <tag k="name" v="Mostowice"/>
    <tag k="place" v="village"/>
    <tag k="source" v="http://ump.waw.pl/ retrieved 10:37:36 12/08/09 (UMP-Klodzko/src/cities-Klodzko.pnt-converted.txt)"/>
  </node>
  <node id="611081728" version="4" timestamp="2010-04-27T04:20:31Z" uid="30632" user="antblant" changeset="4537912" lat="50.27416" lon="16.48275">
    <tag k="name" v="Mostowice"/>
    <tag k="place" v="village"/>
    <tag k="source" v="http://ump.waw.pl/ retrieved 10:37:36 12/08/09 (UMP-Klodzko/src/cities-Klodzko.pnt-converted.txt)"/>
    <tag k="teryt:simc" v="0851442"/>
  </node>
  <node id="611081728" version="5" timestamp="2010-05-10T18:33:09Z" uid="91056" user="Yarl" changeset="4662062" lat="50.2742105" lon="16.4826316">
    <tag k="name" v="Mostowice"/>
    <tag k="place" v="village"/>
    <tag k="source" v="http://ump.waw.pl/ retrieved 10:37:36 12/08/09 (UMP-Klodzko/src/cities-Klodzko.pnt-converted.txt)"/>
    <tag k="teryt:simc" v="0851442"/>
  </node>
  <node id="611083840" version="1" timestamp="2010-01-10T18:20:31Z" uid="43863" user="Rundling" changeset="3589963" lat="53.0142506" lon="10.8281941"/>
  <node id="611083844" version="1" timestamp="2010-01-10T18:20:31Z" uid="43863" user="Rundling" changeset="3589963" lat="53.0126633" lon="10.8290431"/>
  <node id="611083846" version="1" timestamp="2010-01-10T18:20:31Z" uid="43863" user="Rundling" changeset="3589963" lat="53.0053206" lon="10.8379514"/>
  <node id="611083849" version="1" timestamp="2010-01-10T18:20:31Z" uid="43863" user="Rundling" changeset="3589963" lat="53.0058512" lon="10.8372155"/>
  <node id="611083851" version="1" timestamp="2010-01-10T18:20:31Z" uid="43863" user="Rundling" changeset="3589963" lat="53.0090089" lon="10.8369403"/>
  <node id="611083852" version="1" timestamp="2010-01-10T18:20:31Z" uid="43863" user="Rundling" changeset="3589963" lat="53.006339" lon="10.8362714"/>
  <node id="611083854" version="1" timestamp="2010-01-10T18:20:31Z" uid="43863" user="Rundling" changeset="3589963" lat="53.0063301" lon="10.8360698"/>
  <node id="611083856" version="1" timestamp="2010-01-10T18:20:31Z" uid="43863" user="Rundling" changeset="3589963" lat="53.0069298" lon="10.8343836"/>
  <node id="611083857" version="1" timestamp="2010-01-10T18:20:31Z" uid="43863" user="Rundling" changeset="3589963" lat="53.0049026" lon="10.8384679"/>
  <node id="611083860" version="1" timestamp="2010-01-10T18:20:31Z" uid="43863" user="Rundling" changeset="3589963" lat="53.0051574" lon="10.8390129"/>
  <node id="611083861" version="1" timestamp="2010-01-10T18:20:32Z" uid="43863" user="Rundling" changeset="3589963" lat="53.0060709" lon="10.8404053"/>
  <node id="611083863" version="1" timestamp="2010-01-10T18:20:32Z" uid="43863" user="Rundling" changeset="3589963" lat="53.0056095" lon="10.839852"/>
  <node id="611083865" version="1" timestamp="2010-01-10T18:20:32Z" uid="43863" user="Rundling" changeset="3589963" lat="53.0051606" lon="10.8390062"/>
  <node id="611083867" version="1" timestamp="2010-01-10T18:20:32Z" uid="43863" user="Rundling" changeset="3589963" lat="53.0060375" lon="10.8381877"/>
  <node id="611083869" version="1" timestamp="2010-01-10T18:20:32Z" uid="43863" user="Rundling" changeset="3589963" lat="53.0082898" lon="10.8397364"/>
  <node id="611083871" version="1" timestamp="2010-01-10T18:20:32Z" uid="43863" user="Rundling" changeset="3589963" lat="53.0077829" lon="10.838804"/>
  <node id="611083873" version="1" timestamp="2010-01-10T18:20:32Z" uid="43863" user="Rundling" changeset="3589963" lat="53.0069388" lon="10.8392554"/>
  <node id="611083875" version="1" timestamp="2010-01-10T18:20:32Z" uid="43863" user="Rundling" changeset="3589963" lat="53.0069224" lon="10.8400076"/>
  <node id="611083876" version="1" timestamp="2010-01-10T18:20:32Z" uid="43863" user="Rundling" changeset="3589963" lat="53.0064828" lon="10.8408864"/>
  <node id="611083878" version="1" timestamp="2010-01-10T18:20:32Z" uid="43863" user="Rundling" changeset="3589963" lat="53.0098133" lon="10.8367613"/>
  <node id="611083892" version="1" timestamp="2010-01-10T18:20:33Z" uid="43863" user="Rundling" changeset="3589963" lat="53.0097157" lon="10.8338242"/>
  <node id="611083894" version="1" timestamp="2010-01-10T18:20:33Z" uid="43863" user="Rundling" changeset="3589963" lat="53.0097095" lon="10.8355418"/>
  <node id="611083896" version="1" timestamp="2010-01-10T18:20:33Z" uid="43863" user="Rundling" changeset="3589963" lat="53.0130092" lon="10.8350072"/>
  <node id="611083898" version="1" timestamp="2010-01-10T18:20:33Z" uid="43863" user="Rundling" changeset="3589963" lat="53.0122875" lon="10.8351226"/>
  <node id="611083900" version="1" timestamp="2010-01-10T18:20:33Z" uid="43863" user="Rundling" changeset="3589963" lat="53.0119212" lon="10.8351927"/>
  <node id="611083902" version="1" timestamp="2010-01-10T18:20:33Z" uid="43863" user="Rundling" changeset="3589963" lat="53.0106659" lon="10.8392483"/>
  <node id="611083905" version="1" timestamp="2010-01-10T18:20:33Z" uid="43863" user="Rundling" changeset="3589963" lat="53.0100262" lon="10.8388942"/>
  <node id="611083906" version="1" timestamp="2010-01-10T18:20:33Z" uid="43863" user="Rundling" changeset="3589963" lat="53.0090624" lon="10.8394263"/>
  <node id="611083909" version="1" timestamp="2010-01-10T18:20:33Z" uid="43863" user="Rundling" changeset="3589963" lat="53.0125584" lon="10.838159"/>
  <node id="611083911" version="1" timestamp="2010-01-10T18:20:33Z" uid="43863" user="Rundling" changeset="3589963" lat="53.019355" lon="10.8340035"/>
  <node id="611083911" version="2" timestamp="2010-12-21T18:30:48Z" uid="43863" user="Rundling" changeset="6728226" lat="53.0195803" lon="10.8339695"/>
  <node id="611083913" version="1" timestamp="2010-01-10T18:20:33Z" uid="43863" user="Rundling" changeset="3589963" lat="53.0186115" lon="10.8341304"/>
  <node id="611084089" version="2" timestamp="2010-04-11T11:54:25Z" uid="20587" user="balrog-kun" changeset="4392352" lat="50.37652" lon="16.51636">
    <tag k="name" v="Pokrzywno"/>
    <tag k="place" v="village"/>
    <tag k="source" v="http://ump.waw.pl/ retrieved 10:37:36 12/08/09 (UMP-Klodzko/src/cities-Klodzko.pnt-converted.txt)"/>
  </node>
  <node id="611084089" version="3" timestamp="2010-04-11T13:18:22Z" uid="20587" user="balrog-kun" changeset="4392352" lat="50.37652" lon="16.51636">
    <tag k="name" v="Pokrzywno"/>
    <tag k="place" v="village"/>
    <tag k="source" v="http://ump.waw.pl/ retrieved 10:37:36 12/08/09 (UMP-Klodzko/src/cities-Klodzko.pnt-converted.txt)"/>
  </node>
  <node id="611084204" version="2" timestamp="2010-04-11T11:54:25Z" uid="20587" user="balrog-kun" changeset="4392352" lat="50.29704" lon="16.54764">
    <tag k="name" v="Młoty"/>
    <tag k="place" v="village"/>
    <tag k="source" v="http://ump.waw.pl/ retrieved 10:37:36 12/08/09 (UMP-Klodzko/src/cities-Klodzko.pnt-converted.txt)"/>
  </node>
  <node id="611084204" version="3" timestamp="2010-04-11T13:18:23Z" uid="20587" user="balrog-kun" changeset="4392352" lat="50.29704" lon="16.54764">
    <tag k="name" v="Młoty"/>
    <tag k="place" v="village"/>
    <tag k="source" v="http://ump.waw.pl/ retrieved 10:37:36 12/08/09 (UMP-Klodzko/src/cities-Klodzko.pnt-converted.txt)"/>
  </node>
  <node id="611084204" version="4" timestamp="2010-04-27T04:11:03Z" uid="30632" user="antblant" changeset="4537882" lat="50.29704" lon="16.54764">
    <tag k="name" v="Młoty"/>
    <tag k="place" v="village"/>
    <tag k="source" v="http://ump.waw.pl/ retrieved 10:37:36 12/08/09 (UMP-Klodzko/src/cities-Klodzko.pnt-converted.txt)"/>
    <tag k="teryt:simc" v="0851436"/>
  </node>
  <node id="611084204" version="5" timestamp="2011-05-05T11:51:39Z" uid="20587" user="balrog-kun" changeset="8056823" lat="50.29704" lon="16.54764">
    <tag k="name" v="Młoty"/>
    <tag k="place" v="village"/>
    <tag k="source" v="http://ump.waw.pl/ retrieved 10:37:36 12/08/09 (UMP-Klodzko/src/cities-Klodzko.pnt-converted.txt)"/>
    <tag k="teryt:simc" v="0851436"/>
  </node>
  <node id="611084221" version="2" timestamp="2010-01-14T10:55:11Z" uid="20587" user="balrog-kun" changeset="3616068" lat="50.30427" lon="16.56496">
    <tag k="name" v="Wojtowice"/>
    <tag k="place" v="village"/>
    <tag k="source" v="http://ump.waw.pl/ retrieved 10:37:36 12/08/09 (UMP-Klodzko/src/cities-Klodzko.pnt-converted.txt)"/>
  </node>
  <node id="611084226" version="2" timestamp="2010-04-11T11:54:25Z" uid="20587" user="balrog-kun" changeset="4392352" lat="50.29417" lon="16.57661">
    <tag k="name" v="Nowa Bystrzyca"/>
    <tag k="place" v="village"/>
    <tag k="source" v="http://ump.waw.pl/ retrieved 10:37:36 12/08/09 (UMP-Klodzko/src/cities-Klodzko.pnt-converted.txt)"/>
  </node>
  <node id="611084226" version="3" timestamp="2010-04-11T13:18:23Z" uid="20587" user="balrog-kun" changeset="4392352" lat="50.29417" lon="16.57661">
    <tag k="name" v="Nowa Bystrzyca"/>
    <tag k="place" v="village"/>
    <tag k="source" v="http://ump.waw.pl/ retrieved 10:37:36 12/08/09 (UMP-Klodzko/src/cities-Klodzko.pnt-converted.txt)"/>
  </node>
  <node id="611084226" version="4" timestamp="2010-04-25T12:49:56Z" uid="42429" user="FK270673" changeset="4520929" lat="50.29417" lon="16.5766101">
    <tag k="name" v="Nowa Bystrzyca"/>
    <tag k="name:de" v="Neuweistritz"/>
    <tag k="place" v="village"/>
    <tag k="source" v="http://ump.waw.pl/ retrieved 10:37:36 12/08/09 (UMP-Klodzko/src/cities-Klodzko.pnt-converted.txt)"/>
  </node>
  <node id="611084226" version="5" timestamp="2010-04-27T04:10:42Z" uid="30632" user="antblant" changeset="4537882" lat="50.29417" lon="16.5766101">
    <tag k="name" v="Nowa Bystrzyca"/>
    <tag k="name:de" v="Neuweistritz"/>
    <tag k="place" v="village"/>
    <tag k="source" v="http://ump.waw.pl/ retrieved 10:37:36 12/08/09 (UMP-Klodzko/src/cities-Klodzko.pnt-converted.txt)"/>
    <tag k="teryt:simc" v="0851465"/>
  </node>
  <node id="611084240" version="2" timestamp="2010-01-14T10:55:11Z" uid="20587" user="balrog-kun" changeset="3616068" lat="50.31335" lon="16.5706">
    <tag k="addr:street" v="737"/>
    <tag k="natural" v="peak"/>
    <tag k="source" v="http://ump.waw.pl/ retrieved 10:37:36 12/08/09 (UMP-Klodzko/src/POI-Klodzko.pnt-converted.txt)"/>
  </node>
  <node id="611084244" version="2" timestamp="2010-04-11T11:54:25Z" uid="20587" user="balrog-kun" changeset="4392352" lat="50.31494" lon="16.57931">
    <tag k="name" v="Zalesie"/>
    <tag k="place" v="village"/>
    <tag k="source" v="http://ump.waw.pl/ retrieved 10:37:36 12/08/09 (UMP-Klodzko/src/cities-Klodzko.pnt-converted.txt)"/>
  </node>
  <node id="611084244" version="3" timestamp="2010-04-11T13:18:23Z" uid="20587" user="balrog-kun" changeset="4392352" lat="50.31494" lon="16.57931">
    <tag k="name" v="Zalesie"/>
    <tag k="place" v="village"/>
    <tag k="source" v="http://ump.waw.pl/ retrieved 10:37:36 12/08/09 (UMP-Klodzko/src/cities-Klodzko.pnt-converted.txt)"/>
  </node>
  <node id="611084246" version="2" timestamp="2010-01-14T10:55:11Z" uid="20587" user="balrog-kun" changeset="3616068" lat="50.30588" lon="16.60884">
    <tag k="name" v="Stara Bystrzyca"/>
    <tag k="place" v="village"/>
    <tag k="source" v="http://ump.waw.pl/ retrieved 10:37:36 12/08/09 (UMP-Klodzko/src/cities-Klodzko.pnt-converted.txt)"/>
  </node>
  <node id="611084293" version="2" timestamp="2010-04-11T11:54:25Z" uid="20587" user="balrog-kun" changeset="4392352" lat="50.36068" lon="16.52653">
    <tag k="name" v="Paszków"/>
    <tag k="place" v="village"/>
    <tag k="source" v="http://ump.waw.pl/ retrieved 10:37:36 12/08/09 (UMP-Klodzko/src/cities-Klodzko.pnt-converted.txt)"/>
  </node>
  <node id="611084293" version="3" timestamp="2010-04-11T13:18:23Z" uid="20587" user="balrog-kun" changeset="4392352" lat="50.36068" lon="16.52653">
    <tag k="name" v="Paszków"/>
    <tag k="place" v="village"/>
    <tag k="source" v="http://ump.waw.pl/ retrieved 10:37:36 12/08/09 (UMP-Klodzko/src/cities-Klodzko.pnt-converted.txt)"/>
  </node>
  <node id="611084293" version="4" timestamp="2010-06-21T12:41:06Z" uid="42429" user="FK270673" changeset="5042441" lat="50.36068" lon="16.52653">
    <tag k="name" v="Paszków"/>
    <tag k="name:de" v="Pohldorf"/>
    <tag k="place" v="village"/>
    <tag k="source" v="http://ump.waw.pl/ retrieved 10:37:36 12/08/09 (UMP-Klodzko/src/cities-Klodzko.pnt-converted.txt)"/>
  </node>
  <node id="611084330" version="2" timestamp="2010-04-11T11:54:25Z" uid="20587" user="balrog-kun" changeset="4392352" lat="50.35438" lon="16.55301">
    <tag k="name" v="Nowa Łomnica"/>
    <tag k="place" v="village"/>
    <tag k="source" v="http://ump.waw.pl/ retrieved 10:37:36 12/08/09 (UMP-Klodzko/src/cities-Klodzko.pnt-converted.txt)"/>
  </node>
  <node id="611084330" version="3" timestamp="2010-04-11T13:18:23Z" uid="20587" user="balrog-kun" changeset="4392352" lat="50.35438" lon="16.55301">
    <tag k="name" v="Nowa Łomnica"/>
    <tag k="place" v="village"/>
    <tag k="source" v="http://ump.waw.pl/ retrieved 10:37:36 12/08/09 (UMP-Klodzko/src/cities-Klodzko.pnt-converted.txt)"/>
  </node>
  <node id="611084330" version="4" timestamp="2010-04-27T04:04:21Z" uid="30632" user="antblant" changeset="4537867" lat="50.35438" lon="16.55301">
    <tag k="name" v="Nowa Łomnica"/>
    <tag k="place" v="village"/>
    <tag k="source" v="http://ump.waw.pl/ retrieved 10:37:36 12/08/09 (UMP-Klodzko/src/cities-Klodzko.pnt-converted.txt)"/>
    <tag k="teryt:simc" v="0851471"/>
  </node>
  <node id="611084330" version="5" timestamp="2011-05-05T11:42:37Z" uid="20587" user="balrog-kun" changeset="8056750" lat="50.35438" lon="16.55301">
    <tag k="name" v="Nowa Łomnica"/>
    <tag k="place" v="village"/>
    <tag k="source" v="http://ump.waw.pl/ retrieved 10:37:36 12/08/09 (UMP-Klodzko/src/cities-Klodzko.pnt-converted.txt)"/>
    <tag k="teryt:simc" v="0851471"/>
  </node>
  <node id="611084341" version="2" timestamp="2010-04-11T11:54:25Z" uid="20587" user="balrog-kun" changeset="4392352" lat="50.33249" lon="16.5676">
    <tag k="name" v="Szczawina"/>
    <tag k="place" v="village"/>
    <tag k="source" v="http://ump.waw.pl/ retrieved 10:37:36 12/08/09 (UMP-Klodzko/src/cities-Klodzko.pnt-converted.txt)"/>
  </node>
  <node id="611084341" version="3" timestamp="2010-04-11T13:18:23Z" uid="20587" user="balrog-kun" changeset="4392352" lat="50.33249" lon="16.5676">
    <tag k="name" v="Szczawina"/>
    <tag k="place" v="village"/>
    <tag k="source" v="http://ump.waw.pl/ retrieved 10:37:36 12/08/09 (UMP-Klodzko/src/cities-Klodzko.pnt-converted.txt)"/>
  </node>
  <node id="611084341" version="4" timestamp="2010-04-27T04:15:24Z" uid="30632" user="antblant" changeset="4537896" lat="50.33249" lon="16.5676">
    <tag k="name" v="Szczawina"/>
    <tag k="place" v="village"/>
    <tag k="source" v="http://ump.waw.pl/ retrieved 10:37:36 12/08/09 (UMP-Klodzko/src/cities-Klodzko.pnt-converted.txt)"/>
    <tag k="teryt:simc" v="0851650"/>
  </node>
  <node id="611084341" version="5" timestamp="2011-05-05T11:38:29Z" uid="20587" user="balrog-kun" changeset="8056711" lat="50.33249" lon="16.5676">
    <tag k="name" v="Szczawina"/>
    <tag k="place" v="village"/>
    <tag k="source" v="http://ump.waw.pl/ retrieved 10:37:36 12/08/09 (UMP-Klodzko/src/cities-Klodzko.pnt-converted.txt)"/>
    <tag k="teryt:simc" v="0851650"/>
  </node>
  <node id="611084353" version="2" timestamp="2010-01-14T10:55:12Z" uid="20587" user="balrog-kun" changeset="3616068" lat="50.33043" lon="16.60296">
    <tag k="name" v="Szklarka"/>
    <tag k="place" v="village"/>
    <tag k="source" v="http://ump.waw.pl/ retrieved 10:37:36 12/08/09 (UMP-Klodzko/src/cities-Klodzko.pnt-converted.txt)"/>
  </node>
  <node id="611084382" version="2" timestamp="2010-01-14T10:55:12Z" uid="20587" user="balrog-kun" changeset="3616068" lat="50.35193" lon="16.58163">
    <tag k="name" v="Stara Łomnica"/>
    <tag k="place" v="village"/>
    <tag k="source" v="http://ump.waw.pl/ retrieved 10:37:36 12/08/09 (UMP-Klodzko/src/cities-Klodzko.pnt-converted.txt)"/>
  </node>
  <node id="611085831" version="2" timestamp="2010-01-14T10:55:10Z" uid="20587" user="balrog-kun" changeset="3616068" lat="50.33742" lon="16.63601">
    <tag k="name" v="Kolonia Muszyn"/>
    <tag k="place" v="village"/>
    <tag k="source" v="http://ump.waw.pl/ retrieved 10:37:36 12/08/09 (UMP-Klodzko/src/cities-Klodzko.pnt-converted.txt)"/>
  </node>
  <node id="611085831" version="3" timestamp="2010-04-11T11:54:25Z" uid="20587" user="balrog-kun" changeset="4392352" lat="50.33742" lon="16.63601">
    <tag k="name" v="Kolonia Muszyn"/>
    <tag k="place" v="village"/>
    <tag k="source" v="http://ump.waw.pl/ retrieved 10:37:36 12/08/09 (UMP-Klodzko/src/cities-Klodzko.pnt-converted.txt)"/>
  </node>
  <node id="611085899" version="2" timestamp="2010-01-14T10:55:12Z" uid="20587" user="balrog-kun" changeset="3616068" lat="50.35369" lon="16.62665">
    <tag k="name" v="Gorzanów"/>
    <tag k="place" v="town"/>
    <tag k="source" v="http://ump.waw.pl/ retrieved 10:37:36 12/08/09 (UMP-Klodzko/src/cities-Klodzko.pnt-converted.txt)"/>
  </node>
  <node id="611086046" version="2" timestamp="2010-04-11T11:54:25Z" uid="20587" user="balrog-kun" changeset="4392352" lat="50.32189" lon="16.69051">
    <tag k="name" v="Stary Waliszów"/>
    <tag k="place" v="village"/>
    <tag k="source" v="http://ump.waw.pl/ retrieved 10:37:36 12/08/09 (UMP-Klodzko/src/cities-Klodzko.pnt-converted.txt)"/>
  </node>
  <node id="611086046" version="3" timestamp="2010-04-11T13:18:23Z" uid="20587" user="balrog-kun" changeset="4392352" lat="50.32189" lon="16.69051">
    <tag k="name" v="Stary Waliszów"/>
    <tag k="place" v="village"/>
    <tag k="source" v="http://ump.waw.pl/ retrieved 10:37:36 12/08/09 (UMP-Klodzko/src/cities-Klodzko.pnt-converted.txt)"/>
  </node>
  <node id="611086046" version="4" timestamp="2010-04-27T04:00:50Z" uid="30632" user="antblant" changeset="4537859" lat="50.32189" lon="16.69051">
    <tag k="name" v="Stary Waliszów"/>
    <tag k="place" v="village"/>
    <tag k="source" v="http://ump.waw.pl/ retrieved 10:37:36 12/08/09 (UMP-Klodzko/src/cities-Klodzko.pnt-converted.txt)"/>
    <tag k="teryt:simc" v="0851637"/>
  </node>
  <node id="611086046" version="5" timestamp="2010-06-21T12:41:09Z" uid="42429" user="FK270673" changeset="5042441" lat="50.32189" lon="16.69051">
    <tag k="name" v="Stary Waliszów"/>
    <tag k="name:de" v="Altwaltersdorf"/>
    <tag k="place" v="village"/>
    <tag k="source" v="http://ump.waw.pl/ retrieved 10:37:36 12/08/09 (UMP-Klodzko/src/cities-Klodzko.pnt-converted.txt)"/>
    <tag k="teryt:simc" v="0851637"/>
  </node>
  <node id="611086057" version="2" timestamp="2010-01-14T10:55:12Z" uid="20587" user="balrog-kun" changeset="3616068" lat="50.33502" lon="16.69034">
    <tag k="name" v="Piotrowice"/>
    <tag k="place" v="village"/>
    <tag k="source" v="http://ump.waw.pl/ retrieved 10:37:36 12/08/09 (UMP-Klodzko/src/cities-Klodzko.pnt-converted.txt)"/>
  </node>
  <node id="611086077" version="2" timestamp="2010-04-11T11:54:26Z" uid="20587" user="balrog-kun" changeset="4392352" lat="50.35167" lon="16.65999">
    <tag k="name" v="Mielnik"/>
    <tag k="place" v="village"/>
    <tag k="source" v="http://ump.waw.pl/ retrieved 10:37:36 12/08/09 (UMP-Klodzko/src/cities-Klodzko.pnt-converted.txt)"/>
  </node>
  <node id="611086077" version="3" timestamp="2010-04-11T13:18:23Z" uid="20587" user="balrog-kun" changeset="4392352" lat="50.35167" lon="16.65999">
    <tag k="name" v="Mielnik"/>
    <tag k="place" v="village"/>
    <tag k="source" v="http://ump.waw.pl/ retrieved 10:37:36 12/08/09 (UMP-Klodzko/src/cities-Klodzko.pnt-converted.txt)"/>
  </node>
  <node id="611086077" version="4" timestamp="2010-06-21T12:41:07Z" uid="42429" user="FK270673" changeset="5042441" lat="50.35167" lon="16.65999">
    <tag k="name" v="Mielnik"/>
    <tag k="name:de" v="Melling"/>
    <tag k="place" v="village"/>
    <tag k="source" v="http://ump.waw.pl/ retrieved 10:37:36 12/08/09 (UMP-Klodzko/src/cities-Klodzko.pnt-converted.txt)"/>
  </node>
  <node id="611086107" version="2" timestamp="2010-04-11T11:54:26Z" uid="20587" user="balrog-kun" changeset="4392352" lat="50.34159" lon="16.6939">
    <tag k="name" v="Romanowo"/>
    <tag k="place" v="village"/>
    <tag k="source" v="http://ump.waw.pl/ retrieved 10:37:36 12/08/09 (UMP-Klodzko/src/cities-Klodzko.pnt-converted.txt)"/>
  </node>
  <node id="611086107" version="3" timestamp="2010-04-11T13:18:23Z" uid="20587" user="balrog-kun" changeset="4392352" lat="50.34159" lon="16.6939">
    <tag k="name" v="Romanowo"/>
    <tag k="place" v="village"/>
    <tag k="source" v="http://ump.waw.pl/ retrieved 10:37:36 12/08/09 (UMP-Klodzko/src/cities-Klodzko.pnt-converted.txt)"/>
  </node>
  <node id="611086310" version="2" timestamp="2010-04-11T11:54:26Z" uid="20587" user="balrog-kun" changeset="4392352" lat="50.36841" lon="16.54756">
    <tag k="name" v="Starkówek"/>
    <tag k="place" v="village"/>
    <tag k="source" v="http://ump.waw.pl/ retrieved 10:37:36 12/08/09 (UMP-Klodzko/src/cities-Klodzko.pnt-converted.txt)"/>
  </node>
  <node id="611086310" version="3" timestamp="2010-04-11T13:18:23Z" uid="20587" user="balrog-kun" changeset="4392352" lat="50.36841" lon="16.54756">
    <tag k="name" v="Starkówek"/>
    <tag k="place" v="village"/>
    <tag k="source" v="http://ump.waw.pl/ retrieved 10:37:36 12/08/09 (UMP-Klodzko/src/cities-Klodzko.pnt-converted.txt)"/>
  </node>
  <node id="611086310" version="4" timestamp="2010-04-21T10:06:02Z" uid="30632" user="antblant" changeset="4485002" lat="50.36841" lon="16.54756">
    <tag k="name" v="Starkówek"/>
    <tag k="place" v="village"/>
    <tag k="source" v="http://ump.waw.pl/ retrieved 10:37:36 12/08/09 (UMP-Klodzko/src/cities-Klodzko.pnt-converted.txt)"/>
  </node>
  <node id="611086377" version="2" timestamp="2010-04-11T11:54:26Z" uid="20587" user="balrog-kun" changeset="4392352" lat="50.37592" lon="16.56966">
    <tag k="name" v="Starków"/>
    <tag k="place" v="village"/>
    <tag k="source" v="http://ump.waw.pl/ retrieved 10:37:36 12/08/09 (UMP-Klodzko/src/cities-Klodzko.pnt-converted.txt)"/>
  </node>
  <node id="611086377" version="3" timestamp="2010-04-11T13:18:23Z" uid="20587" user="balrog-kun" changeset="4392352" lat="50.37592" lon="16.56966">
    <tag k="name" v="Starków"/>
    <tag k="place" v="village"/>
    <tag k="source" v="http://ump.waw.pl/ retrieved 10:37:36 12/08/09 (UMP-Klodzko/src/cities-Klodzko.pnt-converted.txt)"/>
  </node>
  <node id="611086377" version="4" timestamp="2010-06-21T12:41:12Z" uid="42429" user="FK270673" changeset="5042441" lat="50.37592" lon="16.56966">
    <tag k="name" v="Starków"/>
    <tag k="name:de" v="Altbatzdorf"/>
    <tag k="place" v="village"/>
    <tag k="source" v="http://ump.waw.pl/ retrieved 10:37:36 12/08/09 (UMP-Klodzko/src/cities-Klodzko.pnt-converted.txt)"/>
  </node>
  <node id="611086464" version="2" timestamp="2010-04-11T11:54:26Z" uid="20587" user="balrog-kun" changeset="4392352" lat="50.3642" lon="16.63837">
    <tag k="name" v="Topolice"/>
    <tag k="place" v="village"/>
    <tag k="source" v="http://ump.waw.pl/ retrieved 10:37:36 12/08/09 (UMP-Klodzko/src/cities-Klodzko.pnt-converted.txt)"/>
  </node>
  <node id="611086464" version="3" timestamp="2010-04-11T13:18:23Z" uid="20587" user="balrog-kun" changeset="4392352" lat="50.3642" lon="16.63837">
    <tag k="name" v="Topolice"/>
    <tag k="place" v="village"/>
    <tag k="source" v="http://ump.waw.pl/ retrieved 10:37:36 12/08/09 (UMP-Klodzko/src/cities-Klodzko.pnt-converted.txt)"/>
  </node>
  <node id="611086464" version="4" timestamp="2010-06-21T12:41:07Z" uid="42429" user="FK270673" changeset="5042441" lat="50.3642" lon="16.63837">
    <tag k="name" v="Topolice"/>
    <tag k="name:de" v="Aspenau"/>
    <tag k="place" v="village"/>
    <tag k="source" v="http://ump.waw.pl/ retrieved 10:37:36 12/08/09 (UMP-Klodzko/src/cities-Klodzko.pnt-converted.txt)"/>
  </node>
  <node id="611086654" version="2" timestamp="2010-01-14T10:55:12Z" uid="20587" user="balrog-kun" changeset="3616068" lat="50.37064" lon="16.67145">
    <tag k="name" v="Żelazno"/>
    <tag k="place" v="town"/>
    <tag k="source" v="http://ump.waw.pl/ retrieved 10:37:36 12/08/09 (UMP-Klodzko/src/cities-Klodzko.pnt-converted.txt)"/>
  </node>
  <node id="611086937" version="2" timestamp="2010-04-11T11:54:26Z" uid="20587" user="balrog-kun" changeset="4392352" lat="50.27704" lon="16.72741">
    <tag k="name" v="Idzików"/>
    <tag k="place" v="village"/>
    <tag k="source" v="http://ump.waw.pl/ retrieved 10:37:36 12/08/09 (UMP-Klodzko/src/cities-Klodzko.pnt-converted.txt)"/>
  </node>
  <node id="611086937" version="3" timestamp="2010-04-11T13:18:24Z" uid="20587" user="balrog-kun" changeset="4392352" lat="50.27704" lon="16.72741">
    <tag k="name" v="Idzików"/>
    <tag k="place" v="village"/>
    <tag k="source" v="http://ump.waw.pl/ retrieved 10:37:36 12/08/09 (UMP-Klodzko/src/cities-Klodzko.pnt-converted.txt)"/>
  </node>
  <node id="611086937" version="4" timestamp="2010-04-27T04:20:53Z" uid="30632" user="antblant" changeset="4537915" lat="50.27704" lon="16.72741">
    <tag k="name" v="Idzików"/>
    <tag k="place" v="village"/>
    <tag k="source" v="http://ump.waw.pl/ retrieved 10:37:36 12/08/09 (UMP-Klodzko/src/cities-Klodzko.pnt-converted.txt)"/>
    <tag k="teryt:simc" v="0851353"/>
  </node>
  <node id="611086937" version="5" timestamp="2010-06-21T12:41:08Z" uid="42429" user="FK270673" changeset="5042441" lat="50.27704" lon="16.72741">
    <tag k="name" v="Idzików"/>
    <tag k="name:de" v="Kieslingswalde"/>
    <tag k="place" v="village"/>
    <tag k="source" v="http://ump.waw.pl/ retrieved 10:37:36 12/08/09 (UMP-Klodzko/src/cities-Klodzko.pnt-converted.txt)"/>
    <tag k="teryt:simc" v="0851353"/>
  </node>
  <node id="611087001" version="2" timestamp="2010-04-11T11:54:26Z" uid="20587" user="balrog-kun" changeset="4392352" lat="50.28262" lon="16.7566">
    <tag k="name" v="Kamienna"/>
    <tag k="place" v="village"/>
    <tag k="source" v="http://ump.waw.pl/ retrieved 10:37:36 12/08/09 (UMP-Klodzko/src/cities-Klodzko.pnt-converted.txt)"/>
  </node>
  <node id="611087001" version="3" timestamp="2010-04-11T13:18:24Z" uid="20587" user="balrog-kun" changeset="4392352" lat="50.28262" lon="16.7566">
    <tag k="name" v="Kamienna"/>
    <tag k="place" v="village"/>
    <tag k="source" v="http://ump.waw.pl/ retrieved 10:37:36 12/08/09 (UMP-Klodzko/src/cities-Klodzko.pnt-converted.txt)"/>
  </node>
  <node id="611087001" version="4" timestamp="2010-06-21T12:41:06Z" uid="42429" user="FK270673" changeset="5042441" lat="50.28262" lon="16.7566">
    <tag k="name" v="Kamienna"/>
    <tag k="name:de" v="Steingrund"/>
    <tag k="place" v="village"/>
    <tag k="source" v="http://ump.waw.pl/ retrieved 10:37:36 12/08/09 (UMP-Klodzko/src/cities-Klodzko.pnt-converted.txt)"/>
  </node>
  <node id="611087179" version="2" timestamp="2010-04-11T11:54:26Z" uid="20587" user="balrog-kun" changeset="4392352" lat="50.28125" lon="16.77149">
    <tag k="name" v="Marcinków"/>
    <tag k="place" v="village"/>
    <tag k="source" v="http://ump.waw.pl/ retrieved 10:37:36 12/08/09 (UMP-Klodzko/src/cities-Klodzko.pnt-converted.txt)"/>
  </node>
  <node id="611087179" version="3" timestamp="2010-04-11T13:18:24Z" uid="20587" user="balrog-kun" changeset="4392352" lat="50.28125" lon="16.77149">
    <tag k="name" v="Marcinków"/>
    <tag k="place" v="village"/>
    <tag k="source" v="http://ump.waw.pl/ retrieved 10:37:36 12/08/09 (UMP-Klodzko/src/cities-Klodzko.pnt-converted.txt)"/>
  </node>
  <node id="611087179" version="4" timestamp="2010-04-13T06:23:51Z" uid="98336" user="decomposed06" changeset="4410839" lat="50.2750344" lon="16.7754178">
    <tag k="name" v="Marcinków"/>
    <tag k="place" v="village"/>
    <tag k="source" v="http://ump.waw.pl/ retrieved 10:37:36 12/08/09 (UMP-Klodzko/src/cities-Klodzko.pnt-converted.txt)"/>
  </node>
  <node id="611087179" version="5" timestamp="2010-04-22T19:57:30Z" uid="163896" user="Zbigniew Czernik" changeset="4498120" lat="50.2826567" lon="16.7877983">
    <tag k="name" v="Marcinków"/>
    <tag k="place" v="village"/>
    <tag k="source" v="http://ump.waw.pl/ retrieved 10:37:36 12/08/09 (UMP-Klodzko/src/cities-Klodzko.pnt-converted.txt)"/>
  </node>
  <node id="611087460" version="2" timestamp="2010-04-11T11:54:26Z" uid="20587" user="balrog-kun" changeset="4392352" lat="50.35953" lon="16.72179">
    <tag k="name" v="Oldrzychowice Kłodzkie"/>
    <tag k="place" v="town"/>
    <tag k="source" v="http://ump.waw.pl/ retrieved 10:37:36 12/08/09 (UMP-Klodzko/src/cities-Klodzko.pnt-converted.txt)"/>
  </node>
  <node id="611087460" version="3" timestamp="2010-04-11T13:18:24Z" uid="20587" user="balrog-kun" changeset="4392352" lat="50.35953" lon="16.72179">
    <tag k="name" v="Oldrzychowice Kłodzkie"/>
    <tag k="place" v="town"/>
    <tag k="source" v="http://ump.waw.pl/ retrieved 10:37:36 12/08/09 (UMP-Klodzko/src/cities-Klodzko.pnt-converted.txt)"/>
  </node>
  <node id="611087460" version="4" timestamp="2010-06-09T19:55:33Z" uid="94114" user="Jaszczur" changeset="4948599" lat="50.35953" lon="16.72179">
    <tag k="name" v="Oldrzychowice Kłodzkie"/>
    <tag k="place" v="town"/>
    <tag k="source" v="http://ump.waw.pl/ retrieved 10:37:36 12/08/09 (UMP-Klodzko/src/cities-Klodzko.pnt-converted.txt)"/>
  </node>
  <node id="611088275" version="2" timestamp="2010-04-11T11:54:26Z" uid="20587" user="balrog-kun" changeset="4392352" lat="50.30348" lon="16.86861">
    <tag k="name" v="Strachocin"/>
    <tag k="place" v="village"/>
    <tag k="source" v="http://ump.waw.pl/ retrieved 10:37:36 12/08/09 (UMP-Klodzko/src/cities-Klodzko.pnt-converted.txt)"/>
  </node>
  <node id="611088275" version="3" timestamp="2010-04-11T13:18:24Z" uid="20587" user="balrog-kun" changeset="4392352" lat="50.30348" lon="16.86861">
    <tag k="name" v="Strachocin"/>
    <tag k="place" v="village"/>
    <tag k="source" v="http://ump.waw.pl/ retrieved 10:37:36 12/08/09 (UMP-Klodzko/src/cities-Klodzko.pnt-converted.txt)"/>
  </node>
  <node id="611089037" version="1" timestamp="2010-01-10T18:23:05Z" uid="74027" user="katzlbt" changeset="3589991" lat="47.2580898" lon="11.7006969"/>
  <node id="611089037" version="2" timestamp="2011-05-15T15:25:24Z" uid="19763" user="leofranz" changeset="8153162" lat="47.2581569" lon="11.7005851"/>
  <node id="611089037" version="3" timestamp="2012-03-26T16:42:20Z" uid="45481" user="borisC" changeset="11107958" lat="47.2580768" lon="11.7007486"/>
  <node id="611089041" version="1" timestamp="2010-01-10T18:23:05Z" uid="74027" user="katzlbt" changeset="3589991" lat="47.2585995" lon="11.7009007"/>
  <node id="611089041" version="2" timestamp="2011-05-15T15:25:28Z" uid="19763" user="leofranz" changeset="8153162" lat="47.258626" lon="11.7007993"/>
  <node id="611089045" version="1" timestamp="2010-01-10T18:23:06Z" uid="74027" user="katzlbt" changeset="3589991" lat="47.2587306" lon="11.7010295"/>
  <node id="611089045" version="2" timestamp="2011-05-15T15:25:39Z" uid="19763" user="leofranz" changeset="8153162" lat="47.2587535" lon="11.7010191"/>
  <node id="611089050" version="1" timestamp="2010-01-10T18:23:06Z" uid="74027" user="katzlbt" changeset="3589991" lat="47.2591602" lon="11.7018449"/>
  <node id="611089050" version="2" timestamp="2011-05-15T15:25:42Z" uid="19763" user="leofranz" changeset="8153162" lat="47.259098" lon="11.7018939"/>
  <node id="611089050" version="3" timestamp="2012-03-26T16:42:23Z" uid="45481" user="borisC" changeset="11107958" lat="47.25894" lon="11.7014871"/>
  <node id="611089057" version="1" timestamp="2010-01-10T18:23:06Z" uid="74027" user="katzlbt" changeset="3589991" lat="47.2593932" lon="11.7019951"/>
  <node id="611089057" version="2" timestamp="2011-05-15T15:25:39Z" uid="19763" user="leofranz" changeset="8153162" lat="47.2593802" lon="11.7019674"/>
  <node id="611089057" version="3" timestamp="2012-03-26T16:42:23Z" uid="45481" user="borisC" changeset="11107958" lat="47.2590801" lon="11.7019224"/>
  <node id="611089069" version="1" timestamp="2010-01-10T18:23:06Z" uid="74027" user="katzlbt" changeset="3589991" lat="47.2595971" lon="11.7018556"/>
  <node id="611089069" version="2" timestamp="2011-05-15T15:25:32Z" uid="19763" user="leofranz" changeset="8153162" lat="47.2595609" lon="11.7020047"/>
  <node id="611089069" version="3" timestamp="2012-03-26T16:42:23Z" uid="45481" user="borisC" changeset="11107958" lat="47.2592332" lon="11.7019224"/>
  <node id="611089072" version="1" timestamp="2010-01-10T18:23:06Z" uid="74027" user="katzlbt" changeset="3589991" lat="47.2598738" lon="11.7018127"/>
  <node id="611089072" version="2" timestamp="2012-03-26T16:42:32Z" uid="45481" user="borisC" changeset="11107958" lat="47.2598738" lon="11.7018127"/>
  <node id="611089081" version="1" timestamp="2010-01-10T18:23:06Z" uid="74027" user="katzlbt" changeset="3589991" lat="47.2600849" lon="11.7020058"/>
  <node id="611089081" version="2" timestamp="2012-03-26T16:42:33Z" uid="45481" user="borisC" changeset="11107958" lat="47.2600849" lon="11.7020058"/>
  <node id="611089086" version="1" timestamp="2010-01-10T18:23:06Z" uid="74027" user="katzlbt" changeset="3589991" lat="47.2600995" lon="11.7018449"/>
  <node id="611089086" version="2" timestamp="2012-03-26T16:42:33Z" uid="45481" user="borisC" changeset="11107958" lat="47.2600995" lon="11.7018449"/>
  <node id="611089398" version="2" timestamp="2010-04-11T11:54:26Z" uid="20587" user="balrog-kun" changeset="4392352" lat="50.37064" lon="16.77952">
    <tag k="name" v="Skrzynka"/>
    <tag k="place" v="village"/>
    <tag k="source" v="http://ump.waw.pl/ retrieved 10:37:36 12/08/09 (UMP-Klodzko/src/cities-Klodzko.pnt-converted.txt)"/>
  </node>
  <node id="611089398" version="3" timestamp="2010-04-11T13:18:25Z" uid="20587" user="balrog-kun" changeset="4392352" lat="50.37064" lon="16.77952">
    <tag k="name" v="Skrzynka"/>
    <tag k="place" v="village"/>
    <tag k="source" v="http://ump.waw.pl/ retrieved 10:37:36 12/08/09 (UMP-Klodzko/src/cities-Klodzko.pnt-converted.txt)"/>
  </node>
</osm>
