<?xml version='1.0' encoding='UTF-8'?>
<osm version="0.6" generator="libosmium/2.20.0">
  <node id="611696306" version="2" timestamp="2010-01-23T07:48:34Z" uid="58091" user="Andreas M" changeset="3689434" lat="48.1424473" lon="16.3433332">
    <tag k="highway" v="bus_stop"/>
    <tag k="name" v="Firma Fuci-Film"/>
    <tag k="note" v="16A"/>
  </node>
  <node id="611696306" version="3" timestamp="2011-06-07T05:30:32Z" uid="67489" user="Manze" changeset="8366695" lat="48.1424567" lon="16.3432507">
    <tag k="highway" v="bus_stop"/>
    <tag k="name" v="Firma Fuci-Film"/>
    <tag k="note" v="16A"/>
  </node>
  <node id="611696306" version="4" timestamp="2011-08-16T19:00:20Z" uid="507210" user="slurm" changeset="9040475" lat="48.1424567" lon="16.3432507">
    <tag k="highway" v="bus_stop"/>
    <tag k="name" v="Firma Fuji-Film"/>
    <tag k="note" v="16A"/>
  </node>
  <node id="611696306" version="5" timestamp="2011-12-17T17:33:34Z" uid="129531" user="almich" changeset="10140156" lat="48.1424567" lon="16.3432507">
    <tag k="highway" v="bus_stop"/>
    <tag k="name" v="Firma Fuji-Film"/>
    <tag k="note" v="laut www.vor.at &quot;Pfarrgasse/Traviatagasse&quot;"/>
  </node>
</osm>
