<?xml version='1.0' encoding='UTF-8'?>
<osm version="0.6" generator="libosmium/2.20.0">
  <node id="611841559" version="1" timestamp="2010-01-11T20:55:26Z" uid="20587" user="balrog-kun" changeset="3599092" lat="52.2399185" lon="20.9876397">
    <tag k="name" v="Wola-Ratusz 03"/>
    <tag k="note" v="south rail (east bound)"/>
    <tag k="old_name" v="Żelazna 03"/>
    <tag k="railway" v="tram_stop"/>
  </node>
  <node id="611841559" version="2" timestamp="2010-01-12T13:53:30Z" uid="20587" user="balrog-kun" changeset="3603234" lat="52.2399185" lon="20.9876397">
    <tag k="name" v="Wola-Ratusz 03"/>
    <tag k="note" v="south rail (east bound)"/>
    <tag k="old_name" v="Żelazna 03"/>
    <tag k="railway" v="tram_stop"/>
    <tag k="tactile_paving" v="yes"/>
    <tag k="tactile_paving:slab_size" v="40x40"/>
    <tag k="ztm:ciąg_ulicy" v="Al. Solidarności"/>
  </node>
  <node id="611841559" version="3" timestamp="2011-01-13T23:20:17Z" uid="165509" user="koszatek" changeset="6962916" lat="52.2398939" lon="20.9874857">
    <tag k="name" v="Wola-Ratusz 03"/>
    <tag k="note" v="south rail (east bound)"/>
    <tag k="old_name" v="Żelazna 03"/>
    <tag k="railway" v="tram_stop"/>
    <tag k="tactile_paving" v="yes"/>
    <tag k="tactile_paving:slab_size" v="40x40"/>
    <tag k="ztm:ciąg_ulicy" v="Al. Solidarności"/>
  </node>
  <node id="611841559" version="4" timestamp="2011-07-09T06:27:41Z" uid="477744" user="hormel" changeset="8671642" lat="52.2399151" lon="20.9874832">
    <tag k="name" v="Wola-Ratusz 04"/>
    <tag k="note" v="south rail (east bound)"/>
    <tag k="old_name" v="Żelazna 03"/>
    <tag k="railway" v="tram_stop"/>
    <tag k="tactile_paving" v="yes"/>
    <tag k="tactile_paving:slab_size" v="40x40"/>
    <tag k="ztm:ciąg_ulicy" v="Al. Solidarności"/>
  </node>
</osm>
