<?xml version='1.0' encoding='UTF-8'?>
<osm version="0.6" generator="libosmium/2.20.0">
  <node id="61393809" version="2" timestamp="2008-09-29T23:47:22Z" uid="1066" user="pavel" changeset="720263" lat="50.1599986" lon="14.8248118">
    <tag k="is_in" v="Czech Republic, Europe"/>
    <tag k="name" v="Přerov nad Labem"/>
    <tag k="place" v="town"/>
  </node>
  <node id="61393809" version="3" timestamp="2008-11-04T13:16:17Z" uid="308" user="MichaelCollinson" changeset="676656" lat="50.1599986" lon="14.8248118">
    <tag k="is_in" v="Czech Republic, Europe"/>
    <tag k="is_in:continent" v="Europe"/>
    <tag k="is_in:country_code" v="cz"/>
    <tag k="name" v="Přerov nad Labem"/>
    <tag k="place" v="town"/>
  </node>
  <node id="61393809" version="4" timestamp="2009-04-25T12:10:00Z" uid="119317" user="slimejs" changeset="947682" lat="50.1600677" lon="14.8249132">
    <tag k="is_in" v="Czech Republic, Europe"/>
    <tag k="is_in:continent" v="Europe"/>
    <tag k="is_in:country_code" v="cz"/>
    <tag k="name" v="Přerov nad Labem"/>
    <tag k="place" v="town"/>
  </node>
  <node id="61393809" version="5" timestamp="2009-04-26T06:14:00Z" uid="119317" user="slimejs" changeset="968600" lat="50.15904" lon="14.8258341">
    <tag k="is_in" v="Czech Republic, Europe"/>
    <tag k="is_in:continent" v="Europe"/>
    <tag k="is_in:country_code" v="cz"/>
    <tag k="name" v="Přerov nad Labem"/>
    <tag k="place" v="town"/>
  </node>
  <node id="61393809" version="6" timestamp="2009-04-26T09:56:19Z" uid="119317" user="slimejs" changeset="971303" lat="50.1591312" lon="14.8259345">
    <tag k="is_in" v="Czech Republic, Europe"/>
    <tag k="is_in:continent" v="Europe"/>
    <tag k="is_in:country_code" v="cz"/>
    <tag k="name" v="Přerov nad Labem"/>
    <tag k="place" v="town"/>
  </node>
  <node id="61393809" version="7" timestamp="2009-04-28T07:57:55Z" uid="119317" user="slimejs" changeset="1000885" lat="50.1591243" lon="14.8259072">
    <tag k="is_in" v="Czech Republic, Europe"/>
    <tag k="is_in:continent" v="Europe"/>
    <tag k="is_in:country_code" v="cz"/>
    <tag k="name" v="Přerov nad Labem"/>
    <tag k="place" v="town"/>
  </node>
  <node id="61393809" version="8" timestamp="2009-05-01T07:42:18Z" uid="119317" user="slimejs" changeset="1033550" lat="50.1608949" lon="14.8266161">
    <tag k="is_in" v="Czech Republic, Europe"/>
    <tag k="is_in:continent" v="Europe"/>
    <tag k="is_in:country_code" v="cz"/>
    <tag k="name" v="Přerov nad Labem"/>
    <tag k="place" v="town"/>
  </node>
  <node id="61393809" version="9" timestamp="2011-09-29T21:46:48Z" uid="229590" user="xificurk" changeset="9431234" lat="50.1608949" lon="14.8266161">
    <tag k="is_in" v="Czech Republic, Europe"/>
    <tag k="is_in:continent" v="Europe"/>
    <tag k="is_in:country_code" v="cz"/>
    <tag k="name" v="Přerov nad Labem"/>
    <tag k="place" v="village"/>
  </node>
  <node id="61393809" version="10" timestamp="2012-01-22T14:24:22Z" uid="536216" user="uir-zsj" changeset="10465154" lat="50.1608949" lon="14.8266161"/>
  <node id="61394188" version="6" timestamp="2010-02-14T15:31:01Z" uid="74617" user="JohnSmith" changeset="3874791" lat="-27.4372788" lon="153.0105308"/>
  <node id="61394189" version="9" timestamp="2010-02-14T15:14:32Z" uid="74617" user="JohnSmith" changeset="3874633" lat="-27.4377607" lon="153.0140703">
    <tag k="traffic_calming" v="table"/>
  </node>
</osm>
