<?xml version='1.0' encoding='UTF-8'?>
<osm version="0.6" generator="libosmium/2.20.0">
  <node id="61750047" version="2" timestamp="2009-09-24T12:35:32Z" uid="4467" user="Rosscoe" changeset="2605253" lat="-10.7855329" lon="142.5834798">
    <tag k="natural" v="coastline"/>
    <tag k="source" v="landsat"/>
  </node>
  <node id="61750047" version="3" timestamp="2009-09-24T12:41:07Z" uid="4467" user="Rosscoe" changeset="2605309" lat="-10.7855329" lon="142.5834798"/>
  <node id="61750267" version="3" timestamp="2009-09-24T12:35:32Z" uid="4467" user="Rosscoe" changeset="2605253" lat="-10.806569" lon="142.564896">
    <tag k="source" v="landsat"/>
  </node>
  <node id="61750267" version="4" timestamp="2009-09-24T12:52:33Z" uid="4467" user="Rosscoe" changeset="2605411" lat="-10.806569" lon="142.564896"/>
  <node id="61751125" version="1" timestamp="2007-10-09T12:40:34Z" uid="7617" user="Franc" changeset="74502" lat="-33.9005284" lon="151.1889753">
    <tag k="created_by" v="JOSM"/>
  </node>
  <node id="61751128" version="1" timestamp="2007-10-09T12:40:35Z" uid="7617" user="Franc" changeset="74502" lat="-33.9013388" lon="151.1898955">
    <tag k="created_by" v="JOSM"/>
  </node>
  <node id="61751131" version="1" timestamp="2007-10-09T12:40:36Z" uid="7617" user="Franc" changeset="74502" lat="-33.9012362" lon="151.188862">
    <tag k="created_by" v="JOSM"/>
  </node>
  <node id="61751134" version="1" timestamp="2007-10-09T12:40:36Z" uid="7617" user="Franc" changeset="74502" lat="-33.9005749" lon="151.1899764">
    <tag k="created_by" v="JOSM"/>
  </node>
  <node id="61751137" version="1" timestamp="2007-10-09T12:40:37Z" uid="7617" user="Franc" changeset="74502" lat="-33.9008083" lon="151.1904897">
    <tag k="created_by" v="JOSM"/>
  </node>
  <node id="61751140" version="1" timestamp="2007-10-09T12:40:38Z" uid="7617" user="Franc" changeset="74502" lat="-33.9006329" lon="151.190281">
    <tag k="created_by" v="JOSM"/>
  </node>
  <node id="61751143" version="1" timestamp="2007-10-09T12:40:38Z" uid="7617" user="Franc" changeset="74502" lat="-33.9019228" lon="151.1888691">
    <tag k="created_by" v="JOSM"/>
  </node>
  <node id="61751143" version="2" timestamp="2009-11-26T11:54:02Z" uid="7617" user="Franc" changeset="3219579" lat="-33.9019066" lon="151.1888352"/>
  <node id="61751146" version="1" timestamp="2007-10-09T12:40:39Z" uid="7617" user="Franc" changeset="74502" lat="-33.9023793" lon="151.1887948">
    <tag k="created_by" v="JOSM"/>
  </node>
  <node id="61751146" version="2" timestamp="2009-11-26T11:54:02Z" uid="7617" user="Franc" changeset="3219579" lat="-33.9023631" lon="151.1887609"/>
  <node id="61751149" version="1" timestamp="2007-10-09T12:40:40Z" uid="7617" user="Franc" changeset="74502" lat="-33.9024289" lon="151.1891098">
    <tag k="created_by" v="JOSM"/>
  </node>
  <node id="61751149" version="2" timestamp="2009-11-26T11:54:02Z" uid="7617" user="Franc" changeset="3219579" lat="-33.9024127" lon="151.1890759"/>
  <node id="61751152" version="1" timestamp="2007-10-09T12:40:40Z" uid="7617" user="Franc" changeset="74502" lat="-33.902305" lon="151.189131">
    <tag k="created_by" v="JOSM"/>
  </node>
  <node id="61751152" version="2" timestamp="2009-11-26T11:54:02Z" uid="7617" user="Franc" changeset="3219579" lat="-33.9022888" lon="151.1890971"/>
  <node id="61751154" version="1" timestamp="2007-10-09T12:40:41Z" uid="7617" user="Franc" changeset="74502" lat="-33.9023616" lon="151.1895734">
    <tag k="created_by" v="JOSM"/>
  </node>
  <node id="61751154" version="2" timestamp="2009-11-26T11:54:02Z" uid="7617" user="Franc" changeset="3219579" lat="-33.9023454" lon="151.1895395"/>
  <node id="61751157" version="1" timestamp="2007-10-09T12:40:42Z" uid="7617" user="Franc" changeset="74502" lat="-33.9016043" lon="151.1897043">
    <tag k="created_by" v="JOSM"/>
  </node>
  <node id="61751157" version="2" timestamp="2009-11-26T11:54:02Z" uid="7617" user="Franc" changeset="3219579" lat="-33.9015881" lon="151.1896704"/>
  <node id="61751160" version="1" timestamp="2007-10-09T12:40:42Z" uid="7617" user="Franc" changeset="74502" lat="-33.9015582" lon="151.1892301">
    <tag k="created_by" v="JOSM"/>
  </node>
  <node id="61751160" version="2" timestamp="2009-11-26T11:54:02Z" uid="7617" user="Franc" changeset="3219579" lat="-33.9015259" lon="151.1892075"/>
  <node id="61751163" version="1" timestamp="2007-10-09T12:40:43Z" uid="7617" user="Franc" changeset="74502" lat="-33.9019476" lon="151.1891628">
    <tag k="created_by" v="JOSM"/>
  </node>
  <node id="61751163" version="2" timestamp="2009-11-26T11:54:02Z" uid="7617" user="Franc" changeset="3219579" lat="-33.9019444" lon="151.1891289"/>
  <node id="61751166" version="1" timestamp="2007-10-09T12:40:44Z" uid="7617" user="Franc" changeset="74502" lat="-33.9018803" lon="151.1893787">
    <tag k="created_by" v="JOSM"/>
    <tag k="sport" v="bowls"/>
  </node>
  <node id="61751166" version="2" timestamp="2008-03-12T22:25:23Z" uid="7617" user="Franc" changeset="310548" lat="-33.9018803" lon="151.1893787">
    <tag k="created_by" v="JOSM"/>
    <tag k="sport" v="bowls"/>
  </node>
  <node id="61751734" version="3" timestamp="2009-09-24T12:35:32Z" uid="4467" user="Rosscoe" changeset="2605253" lat="-10.8274901" lon="142.5550485">
    <tag k="source" v="landsat"/>
  </node>
  <node id="61751734" version="4" timestamp="2009-09-24T12:52:33Z" uid="4467" user="Rosscoe" changeset="2605411" lat="-10.8274901" lon="142.5550485"/>
  <node id="61753360" version="7" timestamp="2009-07-25T22:01:29Z" uid="123700" user="Mala" changeset="1939174" lat="43.7696739" lon="11.2557581">
    <tag k="gfoss_id" v="4495"/>
    <tag k="is_in" v="Firenze, Toscana, Italy"/>
    <tag k="is_in:continent" v="Europe"/>
    <tag k="name" v="Firenze"/>
    <tag k="name:de" v="Florenz"/>
    <tag k="name:en" v="Florence"/>
    <tag k="name:es" v="Florencia"/>
    <tag k="name:fr" v="Florence"/>
    <tag k="name:pl" v="Florencja"/>
    <tag k="name:pt" v="Florença"/>
    <tag k="place" v="city"/>
    <tag k="population" v="356118"/>
    <tag k="source" v="geodati.gfoss.it"/>
    <tag k="wikipedia" v="Florence"/>
  </node>
  <node id="61753360" version="8" timestamp="2009-09-30T10:49:56Z" uid="29717" user="eumiro" changeset="2686580" lat="43.7696739" lon="11.2557581">
    <tag k="gfoss_id" v="4495"/>
    <tag k="is_in" v="Firenze, Toscana, Italy"/>
    <tag k="is_in:continent" v="Europe"/>
    <tag k="name" v="Firenze"/>
    <tag k="name:cs" v="Florencie"/>
    <tag k="name:de" v="Florenz"/>
    <tag k="name:en" v="Florence"/>
    <tag k="name:es" v="Florencia"/>
    <tag k="name:fr" v="Florence"/>
    <tag k="name:pl" v="Florencja"/>
    <tag k="name:pt" v="Florença"/>
    <tag k="name:sk" v="Florencia"/>
    <tag k="place" v="city"/>
    <tag k="population" v="356118"/>
    <tag k="source" v="geodati.gfoss.it"/>
    <tag k="wikipedia" v="Florence"/>
  </node>
  <node id="61753360" version="9" timestamp="2009-10-19T09:47:36Z" uid="186583" user="daryl70" changeset="2892482" lat="43.7697122" lon="11.2559848">
    <tag k="gfoss_id" v="4495"/>
    <tag k="is_in" v="Firenze, Toscana, Italy"/>
    <tag k="is_in:continent" v="Europe"/>
    <tag k="name" v="Firenze"/>
    <tag k="name:cs" v="Florencie"/>
    <tag k="name:de" v="Florenz"/>
    <tag k="name:en" v="Florence"/>
    <tag k="name:es" v="Florencia"/>
    <tag k="name:fr" v="Florence"/>
    <tag k="name:pl" v="Florencja"/>
    <tag k="name:pt" v="Florença"/>
    <tag k="name:sk" v="Florencia"/>
    <tag k="place" v="city"/>
    <tag k="population" v="356118"/>
    <tag k="source" v="geodati.gfoss.it"/>
    <tag k="wikipedia" v="Florence"/>
  </node>
  <node id="61753360" version="10" timestamp="2009-11-24T15:48:34Z" uid="186583" user="daryl70" changeset="3205324" lat="43.77041" lon="11.2550368">
    <tag k="gfoss_id" v="4495"/>
    <tag k="is_in" v="Firenze, Toscana, Italy"/>
    <tag k="is_in:continent" v="Europe"/>
    <tag k="name" v="Firenze"/>
    <tag k="name:cs" v="Florencie"/>
    <tag k="name:de" v="Florenz"/>
    <tag k="name:en" v="Florence"/>
    <tag k="name:es" v="Florencia"/>
    <tag k="name:fr" v="Florence"/>
    <tag k="name:pl" v="Florencja"/>
    <tag k="name:pt" v="Florença"/>
    <tag k="name:sk" v="Florencia"/>
    <tag k="place" v="city"/>
    <tag k="population" v="356118"/>
    <tag k="source" v="geodati.gfoss.it"/>
    <tag k="wikipedia" v="Florence"/>
  </node>
  <node id="61753360" version="11" timestamp="2010-03-08T13:27:54Z" uid="221997" user="EuskalMapa" changeset="4071808" lat="43.77041" lon="11.2550368">
    <tag k="gfoss_id" v="4495"/>
    <tag k="is_in" v="Firenze, Toscana, Italy"/>
    <tag k="is_in:continent" v="Europe"/>
    <tag k="name" v="Firenze"/>
    <tag k="name:cs" v="Florencie"/>
    <tag k="name:de" v="Florenz"/>
    <tag k="name:en" v="Florence"/>
    <tag k="name:es" v="Florencia"/>
    <tag k="name:eu" v="Florentzia"/>
    <tag k="name:fr" v="Florence"/>
    <tag k="name:pl" v="Florencja"/>
    <tag k="name:pt" v="Florença"/>
    <tag k="name:sk" v="Florencia"/>
    <tag k="place" v="city"/>
    <tag k="population" v="356118"/>
    <tag k="source" v="geodati.gfoss.it"/>
    <tag k="wikipedia" v="Florence"/>
  </node>
  <node id="61753360" version="12" timestamp="2010-04-12T19:38:13Z" uid="166445" user="GranD" changeset="4407950" lat="43.77041" lon="11.2550368">
    <tag k="gfoss_id" v="4495"/>
    <tag k="is_in" v="Firenze, Toscana, Italy"/>
    <tag k="is_in:continent" v="Europe"/>
    <tag k="name" v="Firenze"/>
    <tag k="name:cs" v="Florencie"/>
    <tag k="name:de" v="Florenz"/>
    <tag k="name:en" v="Florence"/>
    <tag k="name:es" v="Florencia"/>
    <tag k="name:eu" v="Florentzia"/>
    <tag k="name:fr" v="Florence"/>
    <tag k="name:pl" v="Florencja"/>
    <tag k="name:pt" v="Florença"/>
    <tag k="name:ru" v="Флоренция"/>
    <tag k="name:sk" v="Florencia"/>
    <tag k="place" v="city"/>
    <tag k="population" v="356118"/>
    <tag k="source" v="geodati.gfoss.it"/>
    <tag k="wikipedia" v="Florence"/>
  </node>
  <node id="61753360" version="13" timestamp="2010-11-21T13:29:53Z" uid="97922" user="damjang" changeset="6422518" lat="43.77041" lon="11.2550368">
    <tag k="gfoss_id" v="4495"/>
    <tag k="is_in" v="Firenze, Toscana, Italy"/>
    <tag k="is_in:continent" v="Europe"/>
    <tag k="name" v="Firenze"/>
    <tag k="name:cs" v="Florencie"/>
    <tag k="name:de" v="Florenz"/>
    <tag k="name:en" v="Florence"/>
    <tag k="name:es" v="Florencia"/>
    <tag k="name:eu" v="Florentzia"/>
    <tag k="name:fr" v="Florence"/>
    <tag k="name:pl" v="Florencja"/>
    <tag k="name:pt" v="Florença"/>
    <tag k="name:ru" v="Флоренция"/>
    <tag k="name:sk" v="Florencia"/>
    <tag k="name:sl" v="Firence"/>
    <tag k="place" v="city"/>
    <tag k="population" v="356118"/>
    <tag k="source" v="geodati.gfoss.it"/>
    <tag k="wikipedia" v="Florence"/>
  </node>
  <node id="61753360" version="14" timestamp="2011-01-21T10:55:43Z" uid="393666" user="etrumap" changeset="7039046" lat="43.77041" lon="11.2550368">
    <tag k="gfoss_id" v="4495"/>
    <tag k="is_in" v="Firenze, Toscana, Italy"/>
    <tag k="is_in:continent" v="Europe"/>
    <tag k="name" v="Firenze"/>
    <tag k="name:cs" v="Florencie"/>
    <tag k="name:de" v="Florenz"/>
    <tag k="name:en" v="Florence"/>
    <tag k="name:es" v="Florencia"/>
    <tag k="name:eu" v="Florentzia"/>
    <tag k="name:fr" v="Florence"/>
    <tag k="name:pl" v="Florencja"/>
    <tag k="name:pt" v="Florença"/>
    <tag k="name:ru" v="Флоренция"/>
    <tag k="name:sk" v="Florencia"/>
    <tag k="name:sl" v="Firence"/>
    <tag k="place" v="city"/>
    <tag k="population" v="356118"/>
    <tag k="rank" v="20"/>
    <tag k="source" v="geodati.gfoss.it"/>
    <tag k="wikipedia" v="Florence"/>
  </node>
  <node id="61753360" version="15" timestamp="2011-01-21T12:55:55Z" uid="393666" user="etrumap" changeset="7040068" lat="43.77041" lon="11.2550368">
    <tag k="capital" v="4"/>
    <tag k="gfoss_id" v="4495"/>
    <tag k="is_in" v="Firenze, Toscana, Italy"/>
    <tag k="is_in:continent" v="Europe"/>
    <tag k="name" v="Firenze"/>
    <tag k="name:cs" v="Florencie"/>
    <tag k="name:de" v="Florenz"/>
    <tag k="name:en" v="Florence"/>
    <tag k="name:es" v="Florencia"/>
    <tag k="name:eu" v="Florentzia"/>
    <tag k="name:fr" v="Florence"/>
    <tag k="name:pl" v="Florencja"/>
    <tag k="name:pt" v="Florença"/>
    <tag k="name:ru" v="Флоренция"/>
    <tag k="name:sk" v="Florencia"/>
    <tag k="name:sl" v="Firence"/>
    <tag k="place" v="city"/>
    <tag k="population" v="356118"/>
    <tag k="rank" v="20"/>
    <tag k="source" v="geodati.gfoss.it"/>
    <tag k="wikipedia" v="Florence"/>
  </node>
  <node id="61753360" version="16" timestamp="2011-05-14T05:08:51Z" uid="453793" user="Dmitry Goloub" changeset="8137469" lat="43.77041" lon="11.2550368">
    <tag k="capital" v="4"/>
    <tag k="gfoss_id" v="4495"/>
    <tag k="int_name" v="Florence"/>
    <tag k="is_in" v="Firenze, Toscana, Italy"/>
    <tag k="is_in:continent" v="Europe"/>
    <tag k="name" v="Firenze"/>
    <tag k="name:cs" v="Florencie"/>
    <tag k="name:de" v="Florenz"/>
    <tag k="name:en" v="Florence"/>
    <tag k="name:es" v="Florencia"/>
    <tag k="name:eu" v="Florentzia"/>
    <tag k="name:fr" v="Florence"/>
    <tag k="name:pl" v="Florencja"/>
    <tag k="name:pt" v="Florença"/>
    <tag k="name:ru" v="Флоренция"/>
    <tag k="name:sk" v="Florencia"/>
    <tag k="name:sl" v="Firence"/>
    <tag k="old_name" v="Florentia"/>
    <tag k="place" v="city"/>
    <tag k="population" v="356118"/>
    <tag k="rank" v="20"/>
    <tag k="source" v="geodati.gfoss.it"/>
    <tag k="wikipedia" v="Florence"/>
  </node>
  <node id="61753365" version="3" timestamp="2009-07-25T22:01:28Z" uid="123700" user="Mala" changeset="1939174" lat="43.542636" lon="10.316005">
    <tag k="gfoss_id" v="4533"/>
    <tag k="is_in" v="Livorno, Toscana, Italy"/>
    <tag k="is_in:continent" v="Europe"/>
    <tag k="name" v="Livorno"/>
    <tag k="name:fr" v="Livourne"/>
    <tag k="place" v="city"/>
    <tag k="population" v="156274"/>
    <tag k="source" v="geodati.gfoss.it"/>
    <tag k="wikipedia" v="Livorno"/>
  </node>
  <node id="61753365" version="4" timestamp="2010-04-12T19:38:14Z" uid="166445" user="GranD" changeset="4407950" lat="43.542636" lon="10.316005">
    <tag k="gfoss_id" v="4533"/>
    <tag k="is_in" v="Livorno, Toscana, Italy"/>
    <tag k="is_in:continent" v="Europe"/>
    <tag k="name" v="Livorno"/>
    <tag k="name:fr" v="Livourne"/>
    <tag k="name:ru" v="Ливорно"/>
    <tag k="place" v="city"/>
    <tag k="population" v="156274"/>
    <tag k="source" v="geodati.gfoss.it"/>
    <tag k="wikipedia" v="Livorno"/>
  </node>
  <node id="61753365" version="5" timestamp="2011-01-21T12:55:55Z" uid="393666" user="etrumap" changeset="7040068" lat="43.542636" lon="10.316005">
    <tag k="capital" v="6"/>
    <tag k="gfoss_id" v="4533"/>
    <tag k="is_in" v="Livorno, Toscana, Italy"/>
    <tag k="is_in:continent" v="Europe"/>
    <tag k="name" v="Livorno"/>
    <tag k="name:fr" v="Livourne"/>
    <tag k="name:ru" v="Ливорно"/>
    <tag k="place" v="city"/>
    <tag k="population" v="156274"/>
    <tag k="source" v="geodati.gfoss.it"/>
    <tag k="wikipedia" v="Livorno"/>
  </node>
  <node id="61753365" version="6" timestamp="2012-03-30T13:21:19Z" uid="175882" user="MarcoR" changeset="11153980" lat="43.542636" lon="10.316005"/>
  <node id="61753366" version="4" timestamp="2009-07-25T15:08:22Z" uid="123700" user="Mala" changeset="1935220" lat="43.8448954" lon="10.5065117">
    <tag k="gfoss_id" v="4440"/>
    <tag k="is_in" v="Lucca, Toscana, Italy"/>
    <tag k="is_in:continent" v="Europe"/>
    <tag k="name" v="Lucca"/>
    <tag k="name:es" v="Lucca"/>
    <tag k="name:fi" v="Lucca"/>
    <tag k="name:fr" v="Lucques"/>
    <tag k="name:pl" v="Lukka"/>
    <tag k="name:pt" v="Lucca"/>
    <tag k="place" v="city"/>
    <tag k="population" v="81862"/>
    <tag k="source" v="geodati.gfoss.it"/>
    <tag k="wikipedia" v="Lucca"/>
  </node>
  <node id="61753366" version="5" timestamp="2010-02-18T16:29:56Z" uid="42690" user="Peter Dörrie" changeset="3910249" lat="43.84149" lon="10.5024805">
    <tag k="gfoss_id" v="4440"/>
    <tag k="is_in" v="Lucca, Toscana, Italy"/>
    <tag k="is_in:continent" v="Europe"/>
    <tag k="name" v="Lucca"/>
    <tag k="name:es" v="Lucca"/>
    <tag k="name:fi" v="Lucca"/>
    <tag k="name:fr" v="Lucques"/>
    <tag k="name:pl" v="Lukka"/>
    <tag k="name:pt" v="Lucca"/>
    <tag k="place" v="city"/>
    <tag k="population" v="81862"/>
    <tag k="source" v="geodati.gfoss.it"/>
    <tag k="wikipedia" v="Lucca"/>
  </node>
  <node id="61753366" version="6" timestamp="2010-04-12T19:38:14Z" uid="166445" user="GranD" changeset="4407950" lat="43.84149" lon="10.5024805">
    <tag k="gfoss_id" v="4440"/>
    <tag k="is_in" v="Lucca, Toscana, Italy"/>
    <tag k="is_in:continent" v="Europe"/>
    <tag k="name" v="Lucca"/>
    <tag k="name:es" v="Lucca"/>
    <tag k="name:fi" v="Lucca"/>
    <tag k="name:fr" v="Lucques"/>
    <tag k="name:pl" v="Lukka"/>
    <tag k="name:pt" v="Lucca"/>
    <tag k="name:ru" v="Лукка"/>
    <tag k="place" v="city"/>
    <tag k="population" v="81862"/>
    <tag k="source" v="geodati.gfoss.it"/>
    <tag k="wikipedia" v="Lucca"/>
  </node>
  <node id="61753366" version="7" timestamp="2010-05-04T17:15:22Z" uid="80088" user="FedericoCozzi" changeset="4605983" lat="43.84149" lon="10.5024805">
    <tag k="gfoss_id" v="4440"/>
    <tag k="is_in" v="Lucca, Toscana, Italy"/>
    <tag k="is_in:continent" v="Europe"/>
    <tag k="name" v="Lucca"/>
    <tag k="name:es" v="Lucca"/>
    <tag k="name:fi" v="Lucca"/>
    <tag k="name:fr" v="Lucques"/>
    <tag k="name:pl" v="Lukka"/>
    <tag k="name:pt" v="Lucca"/>
    <tag k="name:ru" v="Лукка"/>
    <tag k="place" v="town"/>
    <tag k="population" v="81862"/>
    <tag k="source" v="geodati.gfoss.it"/>
    <tag k="wikipedia" v="Lucca"/>
  </node>
  <node id="61753366" version="8" timestamp="2010-05-24T13:32:01Z" uid="80088" user="FedericoCozzi" changeset="4793465" lat="43.84149" lon="10.5024804">
    <tag k="gfoss_id" v="4440"/>
    <tag k="is_in" v="Lucca, Toscana, Italy"/>
    <tag k="is_in:continent" v="Europe"/>
    <tag k="name" v="Lucca"/>
    <tag k="name:es" v="Lucca"/>
    <tag k="name:fi" v="Lucca"/>
    <tag k="name:fr" v="Lucques"/>
    <tag k="name:pl" v="Lukka"/>
    <tag k="name:pt" v="Lucca"/>
    <tag k="name:ru" v="Лукка"/>
    <tag k="place" v="city"/>
    <tag k="population" v="81862"/>
    <tag k="source" v="geodati.gfoss.it"/>
    <tag k="wikipedia" v="Lucca"/>
  </node>
  <node id="61753366" version="9" timestamp="2011-01-21T12:55:54Z" uid="393666" user="etrumap" changeset="7040068" lat="43.84149" lon="10.5024804">
    <tag k="capital" v="6"/>
    <tag k="gfoss_id" v="4440"/>
    <tag k="is_in" v="Lucca, Toscana, Italy"/>
    <tag k="is_in:continent" v="Europe"/>
    <tag k="name" v="Lucca"/>
    <tag k="name:es" v="Lucca"/>
    <tag k="name:fi" v="Lucca"/>
    <tag k="name:fr" v="Lucques"/>
    <tag k="name:pl" v="Lukka"/>
    <tag k="name:pt" v="Lucca"/>
    <tag k="name:ru" v="Лукка"/>
    <tag k="place" v="city"/>
    <tag k="population" v="81862"/>
    <tag k="source" v="geodati.gfoss.it"/>
    <tag k="wikipedia" v="Lucca"/>
  </node>
  <node id="61753366" version="10" timestamp="2011-09-01T07:15:15Z" uid="504502" user="peppe10" changeset="9182041" lat="43.8384782" lon="10.503373">
    <tag k="capital" v="6"/>
    <tag k="gfoss_id" v="4440"/>
    <tag k="is_in" v="Lucca, Toscana, Italy"/>
    <tag k="is_in:continent" v="Europe"/>
    <tag k="name" v="Lucca"/>
    <tag k="name:es" v="Lucca"/>
    <tag k="name:fi" v="Lucca"/>
    <tag k="name:fr" v="Lucques"/>
    <tag k="name:pl" v="Lukka"/>
    <tag k="name:pt" v="Lucca"/>
    <tag k="name:ru" v="Лукка"/>
    <tag k="place" v="city"/>
    <tag k="population" v="81862"/>
    <tag k="source" v="geodati.gfoss.it"/>
    <tag k="wikipedia" v="Lucca"/>
  </node>
  <node id="61753366" version="11" timestamp="2012-03-22T22:45:46Z" uid="1700" user="Diego Guidotti" changeset="11068768" lat="43.8384782" lon="10.503373"/>
  <node id="61753369" version="6" timestamp="2009-07-22T18:42:30Z" uid="20587" user="balrog-kun" changeset="1907934" lat="43.7159276" lon="10.401906">
    <tag k="gfoss_id" v="4570"/>
    <tag k="is_in" v="Pisa, Toscana, Italy"/>
    <tag k="is_in:continent" v="Europe"/>
    <tag k="name" v="Pisa"/>
    <tag k="name:pl" v="Piza"/>
    <tag k="name:ru" v="Пиза"/>
    <tag k="place" v="city"/>
    <tag k="population" v="89694"/>
    <tag k="source" v="geodati.gfoss.it"/>
    <tag k="wikipedia" v="Pisa"/>
  </node>
  <node id="61753369" version="7" timestamp="2009-07-25T15:08:22Z" uid="123700" user="Mala" changeset="1935220" lat="43.7159276" lon="10.401906">
    <tag k="gfoss_id" v="4570"/>
    <tag k="is_in" v="Pisa, Toscana, Italy"/>
    <tag k="is_in:continent" v="Europe"/>
    <tag k="name" v="Pisa"/>
    <tag k="name:fr" v="Pise"/>
    <tag k="name:pl" v="Piza"/>
    <tag k="name:ru" v="Пиза"/>
    <tag k="place" v="city"/>
    <tag k="population" v="89694"/>
    <tag k="source" v="geodati.gfoss.it"/>
    <tag k="wikipedia" v="Pisa"/>
  </node>
  <node id="61753369" version="8" timestamp="2010-05-04T17:15:22Z" uid="80088" user="FedericoCozzi" changeset="4605983" lat="43.7159276" lon="10.401906">
    <tag k="gfoss_id" v="4570"/>
    <tag k="is_in" v="Pisa, Toscana, Italy"/>
    <tag k="is_in:continent" v="Europe"/>
    <tag k="name" v="Pisa"/>
    <tag k="name:fr" v="Pise"/>
    <tag k="name:pl" v="Piza"/>
    <tag k="name:ru" v="Пиза"/>
    <tag k="place" v="town"/>
    <tag k="population" v="89694"/>
    <tag k="source" v="geodati.gfoss.it"/>
    <tag k="wikipedia" v="Pisa"/>
  </node>
  <node id="61753369" version="9" timestamp="2010-05-24T13:31:12Z" uid="80088" user="FedericoCozzi" changeset="4793459" lat="43.7159277" lon="10.401906">
    <tag k="gfoss_id" v="4570"/>
    <tag k="is_in" v="Pisa, Toscana, Italy"/>
    <tag k="is_in:continent" v="Europe"/>
    <tag k="name" v="Pisa"/>
    <tag k="name:fr" v="Pise"/>
    <tag k="name:pl" v="Piza"/>
    <tag k="name:ru" v="Пиза"/>
    <tag k="place" v="city"/>
    <tag k="population" v="89694"/>
    <tag k="source" v="geodati.gfoss.it"/>
    <tag k="wikipedia" v="Pisa"/>
  </node>
  <node id="61753369" version="10" timestamp="2010-11-21T13:29:50Z" uid="97922" user="damjang" changeset="6422518" lat="43.7159277" lon="10.401906">
    <tag k="gfoss_id" v="4570"/>
    <tag k="is_in" v="Pisa, Toscana, Italy"/>
    <tag k="is_in:continent" v="Europe"/>
    <tag k="name" v="Pisa"/>
    <tag k="name:fr" v="Pise"/>
    <tag k="name:pl" v="Piza"/>
    <tag k="name:ru" v="Пиза"/>
    <tag k="name:sl" v="Piza"/>
    <tag k="place" v="city"/>
    <tag k="population" v="89694"/>
    <tag k="source" v="geodati.gfoss.it"/>
    <tag k="wikipedia" v="Pisa"/>
  </node>
  <node id="61753369" version="11" timestamp="2011-01-21T12:55:53Z" uid="393666" user="etrumap" changeset="7040068" lat="43.7159277" lon="10.401906">
    <tag k="capital" v="6"/>
    <tag k="gfoss_id" v="4570"/>
    <tag k="is_in" v="Pisa, Toscana, Italy"/>
    <tag k="is_in:continent" v="Europe"/>
    <tag k="name" v="Pisa"/>
    <tag k="name:fr" v="Pise"/>
    <tag k="name:pl" v="Piza"/>
    <tag k="name:ru" v="Пиза"/>
    <tag k="name:sl" v="Piza"/>
    <tag k="place" v="city"/>
    <tag k="population" v="89694"/>
    <tag k="source" v="geodati.gfoss.it"/>
    <tag k="wikipedia" v="Pisa"/>
  </node>
  <node id="61753369" version="12" timestamp="2011-09-18T13:54:37Z" uid="257767" user="mau59" changeset="9333028" lat="43.7159277" lon="10.401906">
    <tag k="capital" v="6"/>
    <tag k="gfoss_id" v="4570"/>
    <tag k="int_name" v="Pisa"/>
    <tag k="is_in" v="Pisa, Toscana, Italy"/>
    <tag k="is_in:continent" v="Europe"/>
    <tag k="name" v="Pisa"/>
    <tag k="name:fr" v="Pise"/>
    <tag k="name:pl" v="Piza"/>
    <tag k="name:ru" v="Пиза"/>
    <tag k="name:sl" v="Piza"/>
    <tag k="place" v="city"/>
    <tag k="population" v="89694"/>
    <tag k="source" v="geodati.gfoss.it"/>
    <tag k="wikipedia" v="Pisa"/>
  </node>
  <node id="61753369" version="13" timestamp="2012-03-16T19:31:32Z" uid="1700" user="Diego Guidotti" changeset="11001581" lat="43.7159277" lon="10.401906"/>
  <node id="61753614" version="6" timestamp="2009-07-25T22:01:25Z" uid="123700" user="Mala" changeset="1939174" lat="44.0791803" lon="10.1023532">
    <tag k="gfoss_id" v="4409"/>
    <tag k="is_in" v="Massa-Carrara, Toscana, Italy"/>
    <tag k="name" v="Carrara"/>
    <tag k="name:fr" v="Carrare"/>
    <tag k="place" v="city"/>
    <tag k="population" v="65034"/>
    <tag k="source" v="geodati.gfoss.it"/>
    <tag k="wikipedia" v="Carrara"/>
  </node>
  <node id="61753614" version="7" timestamp="2010-04-12T19:38:16Z" uid="166445" user="GranD" changeset="4407950" lat="44.0791803" lon="10.1023532">
    <tag k="gfoss_id" v="4409"/>
    <tag k="is_in" v="Massa-Carrara, Toscana, Italy"/>
    <tag k="name" v="Carrara"/>
    <tag k="name:fr" v="Carrare"/>
    <tag k="name:ru" v="Каррара"/>
    <tag k="place" v="city"/>
    <tag k="population" v="65034"/>
    <tag k="source" v="geodati.gfoss.it"/>
    <tag k="wikipedia" v="Carrara"/>
  </node>
  <node id="61753614" version="8" timestamp="2010-05-04T16:36:56Z" uid="80088" user="FedericoCozzi" changeset="4605663" lat="44.0791804" lon="10.1023532">
    <tag k="gfoss_id" v="4409"/>
    <tag k="is_in" v="Massa-Carrara, Toscana, Italy"/>
    <tag k="name" v="Carrara"/>
    <tag k="name:fr" v="Carrare"/>
    <tag k="name:ru" v="Каррара"/>
    <tag k="place" v="town"/>
    <tag k="population" v="65034"/>
    <tag k="source" v="geodati.gfoss.it"/>
    <tag k="wikipedia" v="Carrara"/>
  </node>
  <node id="61754309" version="4" timestamp="2010-12-27T10:18:17Z" uid="7617" user="Franc" changeset="6775930" lat="-33.8098853" lon="151.0448735">
    <tag k="highway" v="turning_circle"/>
    <tag k="source" v="nearmap"/>
  </node>
  <node id="61754813" version="3" timestamp="2009-07-19T06:00:30Z" uid="7617" user="Franc" changeset="1869567" lat="-33.8120886" lon="151.0471743"/>
  <node id="61754813" version="4" timestamp="2010-12-27T10:16:57Z" uid="7617" user="Franc" changeset="6775930" lat="-33.8120734" lon="151.0471455"/>
  <node id="61754814" version="2" timestamp="2009-07-19T06:00:50Z" uid="7617" user="Franc" changeset="1869567" lat="-33.812001" lon="151.0472102"/>
  <node id="61754815" version="2" timestamp="2009-07-19T06:00:35Z" uid="7617" user="Franc" changeset="1869567" lat="-33.8109117" lon="151.0473293"/>
  <node id="61754815" version="3" timestamp="2010-12-27T10:17:50Z" uid="7617" user="Franc" changeset="6775930" lat="-33.810829" lon="151.0472717"/>
  <node id="61754816" version="2" timestamp="2009-07-19T06:00:34Z" uid="7617" user="Franc" changeset="1869567" lat="-33.8107249" lon="151.0472687"/>
  <node id="61754816" version="3" timestamp="2010-12-27T10:18:23Z" uid="7617" user="Franc" changeset="6775930" lat="-33.8107053" lon="151.0472242"/>
  <node id="61754817" version="2" timestamp="2010-12-27T10:17:47Z" uid="7617" user="Franc" changeset="6775930" lat="-33.8106359" lon="151.0471289"/>
  <node id="61754818" version="2" timestamp="2009-07-19T06:00:50Z" uid="7617" user="Franc" changeset="1869567" lat="-33.8104035" lon="151.0467124"/>
  <node id="61754819" version="2" timestamp="2009-07-19T06:00:34Z" uid="7617" user="Franc" changeset="1869567" lat="-33.8103313" lon="151.0464662"/>
  <node id="61754819" version="3" timestamp="2010-12-27T10:18:30Z" uid="7617" user="Franc" changeset="6775930" lat="-33.8103465" lon="151.0464164"/>
  <node id="61754820" version="2" timestamp="2009-07-19T06:00:35Z" uid="7617" user="Franc" changeset="1869567" lat="-33.8104256" lon="151.0464006"/>
  <node id="61754820" version="3" timestamp="2010-12-27T10:17:58Z" uid="7617" user="Franc" changeset="6775930" lat="-33.8104278" lon="151.0463665"/>
  <node id="61754821" version="2" timestamp="2010-12-27T10:18:33Z" uid="7617" user="Franc" changeset="6775930" lat="-33.8117799" lon="151.0461545"/>
  <node id="61754822" version="2" timestamp="2009-11-04T09:41:22Z" uid="30201" user="rrankin" changeset="3031266" lat="-33.8119337" lon="151.0461291"/>
  <node id="61754822" version="3" timestamp="2010-12-27T10:18:32Z" uid="7617" user="Franc" changeset="6775930" lat="-33.8119337" lon="151.0461291"/>
  <node id="61755436" version="9" timestamp="2010-04-19T06:56:59Z" uid="4467" user="Rosscoe" changeset="4465258" lat="-37.9764401" lon="145.2576893">
    <tag k="direction" v="clockwise"/>
    <tag k="highway" v="mini_roundabout"/>
  </node>
  <node id="61755853" version="4" timestamp="2009-05-23T23:44:41Z" uid="7617" user="Franc" changeset="1300737" lat="-33.8060674" lon="151.0400909"/>
  <node id="61755854" version="4" timestamp="2010-12-27T10:18:32Z" uid="7617" user="Franc" changeset="6775930" lat="-33.8064383" lon="151.0427945"/>
  <node id="61755855" version="6" timestamp="2010-12-27T10:18:33Z" uid="7617" user="Franc" changeset="6775930" lat="-33.8064609" lon="151.0428911"/>
  <node id="61755857" version="4" timestamp="2010-12-27T10:16:14Z" uid="7617" user="Franc" changeset="6775930" lat="-33.8064506" lon="151.042957">
    <tag k="highway" v="traffic_signals"/>
  </node>
  <node id="61757593" version="2" timestamp="2008-09-30T10:26:41Z" uid="1066" user="pavel" changeset="720911" lat="49.3876696" lon="17.0705761">
    <tag k="is_in" v="Czech Republic, Europe"/>
    <tag k="name" v="Otaslavice"/>
    <tag k="place" v="village"/>
  </node>
  <node id="61757593" version="3" timestamp="2008-11-04T13:08:47Z" uid="308" user="MichaelCollinson" changeset="676656" lat="49.3876696" lon="17.0705761">
    <tag k="is_in" v="Czech Republic, Europe"/>
    <tag k="is_in:continent" v="Europe"/>
    <tag k="is_in:country_code" v="cz"/>
    <tag k="name" v="Otaslavice"/>
    <tag k="place" v="village"/>
  </node>
  <node id="61757593" version="4" timestamp="2012-01-20T23:08:19Z" uid="536216" user="uir-zsj" changeset="10451630" lat="49.3876696" lon="17.0705761"/>
  <node id="61758241" version="2" timestamp="2009-09-24T12:41:08Z" uid="4467" user="Rosscoe" changeset="2605309" lat="-10.8400259" lon="142.5197516"/>
  <node id="61758577" version="2" timestamp="2009-09-24T12:41:08Z" uid="4467" user="Rosscoe" changeset="2605309" lat="-10.8394806" lon="142.512345"/>
  <node id="61758588" version="9" timestamp="2009-12-26T06:17:36Z" uid="61114" user="Trav" changeset="3452335" lat="-33.7863022" lon="150.9851383"/>
  <node id="61758588" version="10" timestamp="2011-02-12T13:44:14Z" uid="7617" user="Franc" changeset="7264888" lat="-33.7864135" lon="150.9851115"/>
  <node id="61758591" version="6" timestamp="2009-12-26T06:17:12Z" uid="61114" user="Trav" changeset="3452335" lat="-33.7812419" lon="150.9866167"/>
  <node id="61758592" version="6" timestamp="2009-12-26T06:17:12Z" uid="61114" user="Trav" changeset="3452335" lat="-33.7793255" lon="150.987167"/>
  <node id="61758593" version="6" timestamp="2009-12-26T06:17:27Z" uid="61114" user="Trav" changeset="3452335" lat="-33.7778981" lon="150.9876167"/>
  <node id="61758707" version="3" timestamp="2011-02-12T13:44:15Z" uid="7617" user="Franc" changeset="7264888" lat="-33.7851842" lon="150.9897498"/>
  <node id="61758709" version="3" timestamp="2011-02-12T13:43:59Z" uid="7617" user="Franc" changeset="7264888" lat="-33.7849485" lon="150.9895441"/>
  <node id="61758710" version="3" timestamp="2011-02-12T13:44:18Z" uid="7617" user="Franc" changeset="7264888" lat="-33.7846551" lon="150.9895132"/>
  <node id="61758711" version="3" timestamp="2011-02-12T13:44:14Z" uid="7617" user="Franc" changeset="7264888" lat="-33.7845016" lon="150.9895318"/>
  <node id="61758712" version="3" timestamp="2011-02-12T13:44:13Z" uid="7617" user="Franc" changeset="7264888" lat="-33.7843112" lon="150.9895784"/>
  <node id="61758713" version="3" timestamp="2011-02-12T13:44:06Z" uid="7617" user="Franc" changeset="7264888" lat="-33.7840793" lon="150.9896271"/>
  <node id="61758714" version="3" timestamp="2011-02-12T13:44:00Z" uid="7617" user="Franc" changeset="7264888" lat="-33.7838538" lon="150.9898449"/>
  <node id="61758715" version="3" timestamp="2011-02-12T13:44:19Z" uid="7617" user="Franc" changeset="7264888" lat="-33.7836527" lon="150.9899266"/>
  <node id="61758716" version="3" timestamp="2011-02-12T13:44:10Z" uid="7617" user="Franc" changeset="7264888" lat="-33.7835623" lon="150.9899112"/>
  <node id="61758717" version="3" timestamp="2011-02-12T13:44:03Z" uid="7617" user="Franc" changeset="7264888" lat="-33.7834279" lon="150.9898164"/>
  <node id="61758718" version="3" timestamp="2011-02-12T13:43:59Z" uid="7617" user="Franc" changeset="7264888" lat="-33.782959" lon="150.9889636"/>
  <node id="61758719" version="3" timestamp="2011-02-12T13:44:21Z" uid="7617" user="Franc" changeset="7264888" lat="-33.7828586" lon="150.9884681"/>
  <node id="61758723" version="6" timestamp="2009-12-26T06:17:13Z" uid="61114" user="Trav" changeset="3452335" lat="-33.7823712" lon="150.9862677"/>
  <node id="61758775" version="7" timestamp="2009-07-26T01:48:44Z" uid="123700" user="Mala" changeset="1939972" lat="50.7355702" lon="4.2350068">
    <tag k="is_in" v="Vlaams-Brabant, Belgium, Europe"/>
    <tag k="name" v="Halle"/>
    <tag k="name:fr" v="Hal"/>
    <tag k="openGeoDB:auto_update" v="population"/>
    <tag k="openGeoDB:is_in" v="Halle,Halle,Halle-Vilvoorde,Halle-Vilvoorde,Vlaams Brabant,Vlaams Brabant,Vlaanderen,Vlaanderen,Belgique,Belgique,Europe"/>
    <tag k="openGeoDB:is_in_loc_id" v="35321"/>
    <tag k="openGeoDB:layer" v="7"/>
    <tag k="openGeoDB:loc_id" v="33294"/>
    <tag k="openGeoDB:name" v="Halle,Halle"/>
    <tag k="openGeoDB:postal_codes" v="1500"/>
    <tag k="openGeoDB:sort_name" v="HALLE"/>
    <tag k="openGeoDB:type" v="100600000"/>
    <tag k="openGeoDB:version" v="0.2.6.11 / 2007-12-04 / http://fa-technik.adfc.de/code/opengeodb/dump/"/>
    <tag k="opengeodb:lat" v="50.7355702"/>
    <tag k="opengeodb:lon" v="4.2350068"/>
    <tag k="place" v="town"/>
    <tag k="population" v="35000"/>
    <tag k="wikipedia" v="Halle, Belgium"/>
  </node>
  <node id="61758775" version="8" timestamp="2010-02-04T07:39:37Z" uid="42033" user="Tbj" changeset="3788389" lat="50.7355702" lon="4.2350068">
    <tag k="is_in" v="Vlaams-Brabant, Belgium, Europe"/>
    <tag k="name" v="Halle"/>
    <tag k="name:fr" v="Hal"/>
    <tag k="name:nl" v="Halle"/>
    <tag k="openGeoDB:auto_update" v="population"/>
    <tag k="openGeoDB:is_in" v="Halle,Halle,Halle-Vilvoorde,Halle-Vilvoorde,Vlaams Brabant,Vlaams Brabant,Vlaanderen,Vlaanderen,Belgique,Belgique,Europe"/>
    <tag k="openGeoDB:is_in_loc_id" v="35321"/>
    <tag k="openGeoDB:layer" v="7"/>
    <tag k="openGeoDB:loc_id" v="33294"/>
    <tag k="openGeoDB:name" v="Halle,Halle"/>
    <tag k="openGeoDB:postal_codes" v="1500"/>
    <tag k="openGeoDB:sort_name" v="HALLE"/>
    <tag k="openGeoDB:type" v="100600000"/>
    <tag k="openGeoDB:version" v="0.2.6.11 / 2007-12-04 / http://fa-technik.adfc.de/code/opengeodb/dump/"/>
    <tag k="opengeodb:lat" v="50.7355702"/>
    <tag k="opengeodb:lon" v="4.2350068"/>
    <tag k="place" v="town"/>
    <tag k="population" v="35000"/>
    <tag k="wikipedia" v="Halle, Belgium"/>
  </node>
  <node id="61758775" version="9" timestamp="2010-10-31T11:27:36Z" uid="351205" user="Daniel44" changeset="6237035" lat="50.7355702" lon="4.2350067">
    <tag k="is_in" v="Vlaams-Brabant, Belgium, Europe"/>
    <tag k="name" v="Halle"/>
    <tag k="name:fr" v="Hal"/>
    <tag k="name:nl" v="Halle"/>
    <tag k="openGeoDB:auto_update" v="population"/>
    <tag k="openGeoDB:is_in" v="Halle,Halle,Halle-Vilvoorde,Halle-Vilvoorde,Vlaams Brabant,Vlaams Brabant,Vlaanderen,Vlaanderen,Belgique,Belgique,Europe"/>
    <tag k="openGeoDB:is_in_loc_id" v="35321"/>
    <tag k="openGeoDB:layer" v="7"/>
    <tag k="openGeoDB:loc_id" v="33294"/>
    <tag k="openGeoDB:name" v="Halle,Halle"/>
    <tag k="openGeoDB:postal_codes" v="1500"/>
    <tag k="openGeoDB:sort_name" v="HALLE"/>
    <tag k="openGeoDB:type" v="100600000"/>
    <tag k="openGeoDB:version" v="0.2.6.11 / 2007-12-04 / http://fa-technik.adfc.de/code/opengeodb/dump/"/>
    <tag k="opengeodb:lat" v="50.7355702"/>
    <tag k="opengeodb:lon" v="4.2350068"/>
    <tag k="place" v="town"/>
    <tag k="population" v="35000"/>
    <tag k="wikipedia" v="Halle, Belgium"/>
  </node>
  <node id="61758775" version="10" timestamp="2012-03-16T20:19:21Z" uid="6072" user="Eimai" changeset="11002012" lat="50.7355702" lon="4.2350067"/>
  <node id="61758812" version="4" timestamp="2009-12-26T06:17:10Z" uid="61114" user="Trav" changeset="3452335" lat="-33.7828629" lon="150.9885241"/>
  <node id="61758813" version="3" timestamp="2009-12-26T06:17:09Z" uid="61114" user="Trav" changeset="3452335" lat="-33.783377" lon="150.9883782"/>
  <node id="61758814" version="3" timestamp="2009-12-26T06:17:09Z" uid="61114" user="Trav" changeset="3452335" lat="-33.7838169" lon="150.9882448"/>
  <node id="61758814" version="4" timestamp="2011-02-12T13:44:15Z" uid="7617" user="Franc" changeset="7264888" lat="-33.7837604" lon="150.9882654"/>
  <node id="61758815" version="3" timestamp="2009-12-26T06:17:03Z" uid="61114" user="Trav" changeset="3452335" lat="-33.7838502" lon="150.9881248"/>
  <node id="61758815" version="4" timestamp="2011-02-12T13:44:10Z" uid="7617" user="Franc" changeset="7264888" lat="-33.783881" lon="150.9880609"/>
  <node id="61758816" version="3" timestamp="2009-12-26T06:17:04Z" uid="61114" user="Trav" changeset="3452335" lat="-33.7839786" lon="150.9880304"/>
  <node id="61758816" version="4" timestamp="2011-02-12T13:44:02Z" uid="7617" user="Franc" changeset="7264888" lat="-33.7839461" lon="150.9879851"/>
  <node id="61758817" version="3" timestamp="2009-12-26T06:17:04Z" uid="61114" user="Trav" changeset="3452335" lat="-33.7842886" lon="150.9877562"/>
  <node id="61758817" version="4" timestamp="2011-02-12T13:43:58Z" uid="7617" user="Franc" changeset="7264888" lat="-33.7842937" lon="150.9877397"/>
  <node id="61758818" version="3" timestamp="2009-12-26T06:17:05Z" uid="61114" user="Trav" changeset="3452335" lat="-33.7847973" lon="150.9875721"/>
  <node id="61758818" version="4" timestamp="2011-02-12T13:44:16Z" uid="7617" user="Franc" changeset="7264888" lat="-33.7849497" lon="150.9874917"/>
  <node id="61758819" version="3" timestamp="2009-12-26T06:17:06Z" uid="61114" user="Trav" changeset="3452335" lat="-33.7850782" lon="150.9874008"/>
  <node id="61758820" version="3" timestamp="2009-12-26T06:17:06Z" uid="61114" user="Trav" changeset="3452335" lat="-33.7852372" lon="150.987204"/>
  <node id="61758821" version="3" timestamp="2009-12-26T06:17:07Z" uid="61114" user="Trav" changeset="3452335" lat="-33.7853379" lon="150.9870327"/>
  <node id="61758821" version="4" timestamp="2011-02-12T13:44:18Z" uid="7617" user="Franc" changeset="7264888" lat="-33.7853516" lon="150.9870224"/>
  <node id="61758823" version="3" timestamp="2009-12-26T06:17:07Z" uid="61114" user="Trav" changeset="3452335" lat="-33.7853644" lon="150.9868994"/>
  <node id="61758823" version="4" timestamp="2011-02-12T13:44:09Z" uid="7617" user="Franc" changeset="7264888" lat="-33.7853832" lon="150.9868973"/>
  <node id="61758824" version="3" timestamp="2009-12-26T06:17:08Z" uid="61114" user="Trav" changeset="3452335" lat="-33.7852698" lon="150.9862451"/>
  <node id="61758824" version="4" timestamp="2011-02-12T13:44:08Z" uid="7617" user="Franc" changeset="7264888" lat="-33.7853828" lon="150.9867849"/>
  <node id="61758829" version="5" timestamp="2009-12-26T06:17:08Z" uid="61114" user="Trav" changeset="3452335" lat="-33.7850778" lon="150.9855308"/>
  <node id="61758829" version="6" timestamp="2011-02-12T13:44:00Z" uid="7617" user="Franc" changeset="7264888" lat="-33.7851138" lon="150.985471"/>
  <node id="61758860" version="3" timestamp="2009-12-26T06:17:05Z" uid="61114" user="Trav" changeset="3452335" lat="-33.7846861" lon="150.9875849"/>
  <node id="61758860" version="4" timestamp="2011-02-12T13:43:57Z" uid="7617" user="Franc" changeset="7264888" lat="-33.7847049" lon="150.9876014"/>
  <node id="61758861" version="2" timestamp="2009-12-26T06:17:02Z" uid="61114" user="Trav" changeset="3452335" lat="-33.7846649" lon="150.9874325"/>
  <node id="61758861" version="3" timestamp="2011-02-12T13:44:20Z" uid="7617" user="Franc" changeset="7264888" lat="-33.7846649" lon="150.9874325"/>
  <node id="61758862" version="2" timestamp="2011-02-12T13:44:20Z" uid="7617" user="Franc" changeset="7264888" lat="-33.7844993" lon="150.9866657"/>
  <node id="61758863" version="3" timestamp="2009-12-26T06:17:03Z" uid="61114" user="Trav" changeset="3452335" lat="-33.7843045" lon="150.9857252"/>
  <node id="61758863" version="4" timestamp="2011-02-12T13:44:04Z" uid="7617" user="Franc" changeset="7264888" lat="-33.7843096" lon="150.9857046"/>
  <node id="61758949" version="2" timestamp="2011-02-12T13:44:16Z" uid="7617" user="Franc" changeset="7264888" lat="-33.7838274" lon="150.9879777"/>
  <node id="61758950" version="2" timestamp="2011-02-12T13:44:20Z" uid="7617" user="Franc" changeset="7264888" lat="-33.7835505" lon="150.9866657"/>
  <node id="61758952" version="4" timestamp="2009-12-26T06:17:14Z" uid="61114" user="Trav" changeset="3452335" lat="-33.7833804" lon="150.9859836"/>
  <node id="61758952" version="5" timestamp="2011-02-12T13:44:03Z" uid="7617" user="Franc" changeset="7264888" lat="-33.7834147" lon="150.985963"/>
  <node id="61759929" version="3" timestamp="2009-09-24T12:35:32Z" uid="4467" user="Rosscoe" changeset="2605253" lat="-10.839289" lon="142.5250459">
    <tag k="source" v="landsat"/>
    <tag k="waterway" v="river"/>
  </node>
  <node id="61759929" version="4" timestamp="2009-09-24T12:41:07Z" uid="4467" user="Rosscoe" changeset="2605309" lat="-10.839289" lon="142.5250459"/>
</osm>
