<?xml version='1.0' encoding='UTF-8'?>
<osm version="0.6" generator="libosmium/2.20.0">
  <node id="61952973" version="5" timestamp="2007-11-18T15:57:01Z" uid="4667" user="MapZ" changeset="557434" lat="49.4695709" lon="8.5660793">
    <tag k="amenity" v="fuel"/>
    <tag k="created_by" v="Potlatch 0.5"/>
    <tag k="name" v="Avia"/>
  </node>
  <node id="61952973" version="6" timestamp="2011-03-25T23:16:07Z" uid="165061" user="keinname" changeset="7671006" lat="49.4695709" lon="8.5660793">
    <tag k="amenity" v="fuel"/>
    <tag k="brand" v="Avia"/>
    <tag k="fuel:diesel" v="yes"/>
    <tag k="fuel:e10" v="yes"/>
    <tag k="fuel:e85" v="yes"/>
    <tag k="fuel:lpg" v="yes"/>
    <tag k="fuel:octane_95" v="yes"/>
    <tag k="fuel:octane_98" v="no"/>
    <tag k="name" v="Avia"/>
  </node>
  <node id="61952973" version="7" timestamp="2011-12-16T21:06:50Z" uid="290680" user="wheelmap_visitor" changeset="10131081" lat="49.4695709" lon="8.5660793">
    <tag k="amenity" v="fuel"/>
    <tag k="brand" v="Avia"/>
    <tag k="fuel:diesel" v="yes"/>
    <tag k="fuel:e10" v="yes"/>
    <tag k="fuel:e85" v="yes"/>
    <tag k="fuel:lpg" v="yes"/>
    <tag k="fuel:octane_95" v="yes"/>
    <tag k="fuel:octane_98" v="no"/>
    <tag k="name" v="Avia"/>
    <tag k="wheelchair" v="yes"/>
  </node>
  <node id="61952973" version="8" timestamp="2011-12-22T18:53:26Z" uid="165061" user="keinname" changeset="10179222" lat="49.4695709" lon="8.5660793">
    <tag k="addr:city" v="Ilvesheim"/>
    <tag k="addr:country" v="DE"/>
    <tag k="addr:postcode" v="68549"/>
    <tag k="addr:street" v="Brückenstraße"/>
    <tag k="amenity" v="fuel"/>
    <tag k="brand" v="Avia"/>
    <tag k="fuel:diesel" v="yes"/>
    <tag k="fuel:e10" v="yes"/>
    <tag k="fuel:e85" v="yes"/>
    <tag k="fuel:lpg" v="yes"/>
    <tag k="fuel:octane_95" v="yes"/>
    <tag k="fuel:octane_98" v="no"/>
    <tag k="name" v="Avia"/>
    <tag k="wheelchair" v="yes"/>
  </node>
  <node id="61953047" version="2" timestamp="2007-11-18T15:57:00Z" uid="4667" user="MapZ" changeset="557434" lat="49.471358" lon="8.566776">
    <tag k="amenity" v="pharmacy"/>
    <tag k="created_by" v="JOSM"/>
    <tag k="name" v="Schloß-Apotheke"/>
  </node>
  <node id="61953047" version="3" timestamp="2010-01-16T22:04:24Z" uid="31231" user="Andre68" changeset="3636078" lat="49.4712903" lon="8.5668954">
    <tag k="amenity" v="pharmacy"/>
    <tag k="name" v="Schloß-Apotheke"/>
  </node>
  <node id="61953047" version="4" timestamp="2011-12-16T21:07:52Z" uid="290680" user="wheelmap_visitor" changeset="10131081" lat="49.4712903" lon="8.5668954">
    <tag k="amenity" v="pharmacy"/>
    <tag k="name" v="Schloß-Apotheke"/>
    <tag k="wheelchair" v="yes"/>
  </node>
  <node id="61953047" version="5" timestamp="2012-01-12T15:53:27Z" uid="564585" user="wegavision" changeset="10370522" lat="49.4712903" lon="8.5668954"/>
  <node id="61955944" version="2" timestamp="2007-12-14T03:59:42Z" uid="6454" user="B10xxx" changeset="297547" lat="45.5360912" lon="12.5396551">
    <tag k="created_by" v="JOSM"/>
  </node>
  <node id="61957964" version="4" timestamp="2011-01-29T20:25:37Z" uid="107674" user="GeoCounter" changeset="7126889" lat="50.024528" lon="8.8852498"/>
  <node id="61957971" version="3" timestamp="2011-01-29T20:25:40Z" uid="107674" user="GeoCounter" changeset="7126889" lat="50.0255199" lon="8.8853868"/>
  <node id="61957980" version="3" timestamp="2011-01-29T20:25:34Z" uid="107674" user="GeoCounter" changeset="7126889" lat="50.0261126" lon="8.8852782"/>
  <node id="61957986" version="4" timestamp="2011-01-29T20:25:37Z" uid="107674" user="GeoCounter" changeset="7126889" lat="50.0284203" lon="8.8845339"/>
  <node id="61957986" version="5" timestamp="2011-02-17T21:37:51Z" uid="122324" user="Tobias-1990" changeset="7317767" lat="50.0284387" lon="8.8845708"/>
  <node id="61958017" version="5" timestamp="2008-07-03T21:06:15Z" uid="6975" user="ulfl" changeset="386611" lat="52.4020439" lon="9.6733528"/>
  <node id="61958017" version="6" timestamp="2009-03-01T02:10:35Z" uid="55521" user="Ebbe73" changeset="705886" lat="52.4020626" lon="9.6733835"/>
  <node id="61958017" version="7" timestamp="2009-03-27T13:18:41Z" uid="111000" user="heuchi" changeset="864308" lat="52.4020034" lon="9.6735705"/>
  <node id="61958017" version="8" timestamp="2011-03-18T09:08:11Z" uid="34953" user="Langlaeufer" changeset="7593092" lat="52.401978" lon="9.6735174"/>
  <node id="61958112" version="4" timestamp="2011-01-29T20:25:36Z" uid="107674" user="GeoCounter" changeset="7126889" lat="50.0248088" lon="8.885446"/>
  <node id="61958207" version="3" timestamp="2008-11-28T13:39:56Z" uid="6269" user="Mueck" changeset="804651" lat="50.0234418" lon="8.8805865"/>
  <node id="61958207" version="4" timestamp="2008-11-28T13:40:00Z" uid="6269" user="Mueck" changeset="804651" lat="50.0234418" lon="8.8805865"/>
  <node id="61958207" version="5" timestamp="2010-04-14T11:29:10Z" uid="11008" user="spacer1971" changeset="4421655" lat="50.0234006" lon="8.8806351"/>
</osm>
