<?xml version='1.0' encoding='UTF-8'?>
<osm version="0.6" generator="libosmium/2.20.0">
  <node id="620501406" version="2" timestamp="2010-07-28T20:30:07Z" uid="74617" user="JohnSmith" changeset="5341853" lat="49.2669715" lon="-123.2518309">
    <tag k="emergency" v="phone"/>
    <tag k="name" v="Hennings"/>
    <tag k="ref" v="8"/>
  </node>
  <node id="620501406" version="3" timestamp="2010-07-29T08:18:23Z" uid="74617" user="JohnSmith" changeset="5344518" lat="49.2669715" lon="-123.2518309">
    <tag k="amenity" v="emergency_phone"/>
    <tag k="emergency" v="phone"/>
    <tag k="name" v="Hennings"/>
    <tag k="ref" v="8"/>
  </node>
  <node id="620501406" version="4" timestamp="2012-03-27T13:16:55Z" uid="67540" user="Cobra" changeset="11116336" lat="49.2669715" lon="-123.2518309">
    <tag k="amenity" v="emergency_phone"/>
    <tag k="emergency" v="phone"/>
    <tag k="name" v="Hennings"/>
    <tag k="odbl" v="clean"/>
    <tag k="ref" v="8"/>
  </node>
  <node id="620501426" version="2" timestamp="2010-07-28T20:29:42Z" uid="74617" user="JohnSmith" changeset="5341853" lat="49.2650889" lon="-123.247365">
    <tag k="emergency" v="phone"/>
    <tag k="name" v="IRC/Woodward"/>
    <tag k="ref" v="10"/>
  </node>
  <node id="620501426" version="3" timestamp="2010-07-29T08:18:57Z" uid="74617" user="JohnSmith" changeset="5344518" lat="49.2650889" lon="-123.247365">
    <tag k="amenity" v="emergency_phone"/>
    <tag k="emergency" v="phone"/>
    <tag k="name" v="IRC/Woodward"/>
    <tag k="ref" v="10"/>
  </node>
  <node id="620501426" version="4" timestamp="2012-03-27T13:16:55Z" uid="67540" user="Cobra" changeset="11116336" lat="49.2650889" lon="-123.247365">
    <tag k="amenity" v="emergency_phone"/>
    <tag k="emergency" v="phone"/>
    <tag k="name" v="IRC/Woodward"/>
    <tag k="odbl" v="clean"/>
    <tag k="ref" v="10"/>
  </node>
  <node id="620502977" version="2" timestamp="2010-07-30T05:10:36Z" uid="4467" user="Rosscoe" changeset="5351735" lat="-37.8727104" lon="145.1486317">
    <tag k="amenity" v="pharmacy"/>
    <tag k="dispensing" v="yes"/>
    <tag k="name" v="Syndal Pharmacy"/>
    <tag k="phone" v="+61-3-98026618"/>
    <tag k="website" v="http://www.syndalpharmacy.com.au/"/>
  </node>
  <node id="620506499" version="2" timestamp="2010-07-30T05:10:38Z" uid="4467" user="Rosscoe" changeset="5351735" lat="-37.8656728" lon="145.093218">
    <tag k="amenity" v="pharmacy"/>
    <tag k="name" v="Priceline Pharmacy Ashwood"/>
    <tag k="phone" v="+61-3-98859888"/>
    <tag k="website" v="http://www.priceline.com.au/"/>
  </node>
</osm>
