<?xml version='1.0' encoding='UTF-8'?>
<osm version="0.6" generator="libosmium/2.20.0">
  <node id="621620912" version="1" timestamp="2010-01-28T08:10:41Z" uid="99207" user="Lar Kiesel" changeset="3733733" lat="33.9929958" lon="-81.228349">
    <tag k="addr:city" v="Lexington, SC"/>
    <tag k="addr:postcode" v="29072"/>
    <tag k="addr:street" v="Sunset Boulevard"/>
    <tag k="name" v="Herndon Chevrolet"/>
    <tag k="shop" v="car"/>
  </node>
  <node id="621620916" version="1" timestamp="2010-01-28T08:10:41Z" uid="99207" user="Lar Kiesel" changeset="3733733" lat="33.9937563" lon="-81.226289">
    <tag k="addr:city" v="Lexington, SC"/>
    <tag k="addr:housenumber" v="5596"/>
    <tag k="addr:postcode" v="29072"/>
    <tag k="addr:street" v="Sunset Boulevard"/>
    <tag k="amenity" v="restaurant"/>
    <tag k="cuisine" v="american"/>
    <tag k="name" v="O&apos;Charley&apos;s"/>
    <tag k="phone" v="803-359-4220"/>
    <tag k="website" v="http://www.ocharleys.com/"/>
  </node>
  <node id="621620916" version="2" timestamp="2010-01-28T08:19:01Z" uid="99207" user="Lar Kiesel" changeset="3733767" lat="33.9937563" lon="-81.2262891">
    <tag k="addr:city" v="Lexington, SC"/>
    <tag k="addr:housenumber" v="5595"/>
    <tag k="addr:postcode" v="29072"/>
    <tag k="addr:street" v="Sunset Boulevard"/>
    <tag k="amenity" v="restaurant"/>
    <tag k="cuisine" v="american"/>
    <tag k="name" v="O&apos;Charley&apos;s"/>
    <tag k="phone" v="803-359-4220"/>
    <tag k="website" v="http://www.ocharleys.com/"/>
  </node>
  <node id="621620924" version="1" timestamp="2010-01-28T08:10:42Z" uid="99207" user="Lar Kiesel" changeset="3733733" lat="33.9942633" lon="-81.2255165">
    <tag k="addr:city" v="Lexington, SC"/>
    <tag k="addr:housenumber" v="918B"/>
    <tag k="addr:postcode" v="29072"/>
    <tag k="amenity" v="fast_food"/>
    <tag k="cuisine" v="pizza"/>
    <tag k="name" v="Little Ceasars Pizza"/>
    <tag k="phone" v="803-951-2841"/>
  </node>
  <node id="621620924" version="2" timestamp="2010-01-28T08:19:01Z" uid="99207" user="Lar Kiesel" changeset="3733767" lat="33.9938849" lon="-81.2287408">
    <tag k="addr:city" v="Lexington, SC"/>
    <tag k="addr:housenumber" v="918 D"/>
    <tag k="addr:postcode" v="29072"/>
    <tag k="addr:street" v="North Lake Dr"/>
    <tag k="amenity" v="fast_food"/>
    <tag k="cuisine" v="pizza"/>
    <tag k="name" v="Little Ceasars Pizza"/>
    <tag k="phone" v="803-951-2841"/>
    <tag k="website" v="www.littlecaesars.com"/>
  </node>
  <node id="621620933" version="1" timestamp="2010-01-28T08:10:42Z" uid="99207" user="Lar Kiesel" changeset="3733733" lat="33.9873248" lon="-81.2432459">
    <tag k="addr:city" v="Lexington, SC"/>
    <tag k="addr:postcode" v="29072"/>
    <tag k="addr:street" v="Columbia Ave"/>
    <tag k="amenity" v="pharmacy"/>
    <tag k="name" v="Riley&apos;s Drugs "/>
  </node>
  <node id="621620933" version="2" timestamp="2010-01-28T09:05:15Z" uid="70696" user="xybot" changeset="3733963" lat="33.9873248" lon="-81.2432459">
    <tag k="addr:city" v="Lexington, SC"/>
    <tag k="addr:postcode" v="29072"/>
    <tag k="addr:street" v="Columbia Ave"/>
    <tag k="amenity" v="pharmacy"/>
    <tag k="name" v="Riley&apos;s Drugs"/>
  </node>
  <node id="621620937" version="1" timestamp="2010-01-28T08:10:42Z" uid="99207" user="Lar Kiesel" changeset="3733733" lat="33.9868266" lon="-81.2444422">
    <tag k="addr:city" v="Lexington, SC"/>
    <tag k="addr:housenumber" v="200"/>
    <tag k="addr:postcode" v="29072"/>
    <tag k="addr:street" v="Columbia Ave"/>
    <tag k="amenity" v="bank"/>
    <tag k="name" v="Wachovia"/>
    <tag k="phone" v="803-356-2053"/>
    <tag k="website" v="http://www.wachovia.com/"/>
  </node>
  <node id="621620942" version="1" timestamp="2010-01-28T08:10:42Z" uid="99207" user="Lar Kiesel" changeset="3733733" lat="33.9886725" lon="-81.2369857">
    <tag k="addr:city" v="Lexington, SC"/>
    <tag k="addr:postcode" v="29072"/>
    <tag k="addr:street" v="Columbia Ave"/>
    <tag k="amenity" v="car_wash"/>
    <tag k="name" v="Franks Car Wash"/>
  </node>
  <node id="621620946" version="1" timestamp="2010-01-28T08:10:43Z" uid="99207" user="Lar Kiesel" changeset="3733733" lat="33.9890595" lon="-81.2343035">
    <tag k="name" v="KLean Kare"/>
    <tag k="shop" v="dry_cleaning"/>
  </node>
  <node id="621620959" version="1" timestamp="2010-01-28T08:10:43Z" uid="99207" user="Lar Kiesel" changeset="3733733" lat="33.9881388" lon="-81.2427631">
    <tag k="addr:city" v="Lexington, SC"/>
    <tag k="addr:housenumber" v="309"/>
    <tag k="addr:postcode" v="29072"/>
    <tag k="addr:street" v="Columbia Ave"/>
    <tag k="amenity" v="bank"/>
    <tag k="name" v="BB&amp;T"/>
    <tag k="phone" v="803-359-1839"/>
    <tag k="website" v="http://www.bbt.com/"/>
  </node>
  <node id="621620964" version="1" timestamp="2010-01-28T08:10:43Z" uid="99207" user="Lar Kiesel" changeset="3733733" lat="33.9880676" lon="-81.2391046">
    <tag k="addr:city" v="Lexington, SC"/>
    <tag k="addr:housenumber" v="416"/>
    <tag k="addr:postcode" v="29072"/>
    <tag k="addr:street" v="Columbia Ave"/>
    <tag k="name" v="NAPA Auto Parts"/>
    <tag k="phone" v="803-359-4143"/>
    <tag k="shop" v="car_parts"/>
    <tag k="website" v="http://www.napaautoparts.com/"/>
  </node>
  <node id="621620979" version="1" timestamp="2010-01-28T08:10:44Z" uid="99207" user="Lar Kiesel" changeset="3733733" lat="33.9877296" lon="-81.2416152">
    <tag k="addr:city" v="Lexington, SC"/>
    <tag k="addr:postcode" v="29072"/>
    <tag k="addr:street" v="Columbia Ave"/>
    <tag k="amenity" v="pharmacy"/>
    <tag k="name" v="Medicine Mart"/>
  </node>
  <node id="621621007" version="1" timestamp="2010-01-28T08:10:45Z" uid="99207" user="Lar Kiesel" changeset="3733733" lat="33.9883434" lon="-81.2419048">
    <tag k="addr:city" v="Lexington, SC"/>
    <tag k="addr:housenumber" v="415"/>
    <tag k="addr:postcode" v="29072"/>
    <tag k="addr:street" v="Columbia Ave"/>
    <tag k="amenity" v="fast_food"/>
    <tag k="cuisine" v="burger"/>
    <tag k="name" v="Hardee&apos;s"/>
    <tag k="phone" v="803-359-4344"/>
    <tag k="website" v="http://www.hardees.com/"/>
  </node>
  <node id="621621007" version="2" timestamp="2010-04-17T06:40:10Z" uid="99207" user="Lar Kiesel" changeset="4444804" lat="33.9883435" lon="-81.2419049">
    <tag k="addr:city" v="Lexington, SC"/>
    <tag k="addr:housenumber" v="415"/>
    <tag k="addr:postcode" v="29072"/>
    <tag k="addr:street" v="Columbia Ave"/>
    <tag k="amenity" v="fast_food"/>
    <tag k="cuisine" v="burger"/>
    <tag k="name" v="Hardee&apos;s"/>
    <tag k="phone" v="803-359-4344"/>
    <tag k="website" v="http://www.hardees.com/"/>
  </node>
  <node id="621621028" version="1" timestamp="2010-01-28T08:10:46Z" uid="99207" user="Lar Kiesel" changeset="3733733" lat="33.9929735" lon="-81.2287459"/>
  <node id="621621028" version="2" timestamp="2010-04-24T00:56:35Z" uid="99207" user="Lar Kiesel" changeset="4508686" lat="33.9929782" lon="-81.2287747"/>
  <node id="621621031" version="1" timestamp="2010-01-28T08:10:46Z" uid="99207" user="Lar Kiesel" changeset="3733733" lat="33.9931514" lon="-81.2280217"/>
  <node id="621621031" version="2" timestamp="2010-04-24T00:56:35Z" uid="99207" user="Lar Kiesel" changeset="4508686" lat="33.9931828" lon="-81.2280183"/>
  <node id="621621033" version="1" timestamp="2010-01-28T08:10:46Z" uid="99207" user="Lar Kiesel" changeset="3733733" lat="33.9929691" lon="-81.2279627"/>
  <node id="621621035" version="1" timestamp="2010-01-28T08:10:46Z" uid="99207" user="Lar Kiesel" changeset="3733733" lat="33.992929" lon="-81.2281129"/>
  <node id="621621038" version="1" timestamp="2010-01-28T08:10:46Z" uid="99207" user="Lar Kiesel" changeset="3733733" lat="33.9927778" lon="-81.2280646"/>
  <node id="621621040" version="1" timestamp="2010-01-28T08:10:46Z" uid="99207" user="Lar Kiesel" changeset="3733733" lat="33.9928401" lon="-81.2278286"/>
  <node id="621621049" version="1" timestamp="2010-01-28T08:10:47Z" uid="99207" user="Lar Kiesel" changeset="3733733" lat="33.9924665" lon="-81.2276784"/>
  <node id="621621051" version="1" timestamp="2010-01-28T08:10:47Z" uid="99207" user="Lar Kiesel" changeset="3733733" lat="33.9923597" lon="-81.2281773"/>
  <node id="621621055" version="1" timestamp="2010-01-28T08:10:47Z" uid="99207" user="Lar Kiesel" changeset="3733733" lat="33.9927156" lon="-81.2283007"/>
  <node id="621621058" version="1" timestamp="2010-01-28T08:10:47Z" uid="99207" user="Lar Kiesel" changeset="3733733" lat="33.9927333" lon="-81.2282417"/>
  <node id="621621061" version="1" timestamp="2010-01-28T08:10:47Z" uid="99207" user="Lar Kiesel" changeset="3733733" lat="33.9928801" lon="-81.2283007"/>
  <node id="621621064" version="1" timestamp="2010-01-28T08:10:47Z" uid="99207" user="Lar Kiesel" changeset="3733733" lat="33.9927778" lon="-81.228703"/>
  <node id="621621068" version="1" timestamp="2010-01-28T08:10:47Z" uid="99207" user="Lar Kiesel" changeset="3733733" lat="33.9932404" lon="-81.2275818"/>
  <node id="621621069" version="1" timestamp="2010-01-28T08:10:47Z" uid="99207" user="Lar Kiesel" changeset="3733733" lat="33.993276" lon="-81.2275443"/>
  <node id="621621070" version="1" timestamp="2010-01-28T08:10:48Z" uid="99207" user="Lar Kiesel" changeset="3733733" lat="33.9935606" lon="-81.2276301"/>
  <node id="621621071" version="1" timestamp="2010-01-28T08:10:48Z" uid="99207" user="Lar Kiesel" changeset="3733733" lat="33.9935917" lon="-81.2274692"/>
  <node id="621621072" version="1" timestamp="2010-01-28T08:10:48Z" uid="99207" user="Lar Kiesel" changeset="3733733" lat="33.9931692" lon="-81.2273726"/>
  <node id="621621073" version="1" timestamp="2010-01-28T08:10:48Z" uid="99207" user="Lar Kiesel" changeset="3733733" lat="33.9931336" lon="-81.2275443"/>
  <node id="621621074" version="1" timestamp="2010-01-28T08:10:48Z" uid="99207" user="Lar Kiesel" changeset="3733733" lat="33.9936095" lon="-81.2263695"/>
  <node id="621621075" version="1" timestamp="2010-01-28T08:10:48Z" uid="99207" user="Lar Kiesel" changeset="3733733" lat="33.9936762" lon="-81.2261495"/>
  <node id="621621076" version="1" timestamp="2010-01-28T08:10:48Z" uid="99207" user="Lar Kiesel" changeset="3733733" lat="33.9938853" lon="-81.22623"/>
  <node id="621621077" version="1" timestamp="2010-01-28T08:10:48Z" uid="99207" user="Lar Kiesel" changeset="3733733" lat="33.9938275" lon="-81.22645"/>
  <node id="621629045" version="1" timestamp="2010-01-28T08:19:02Z" uid="99207" user="Lar Kiesel" changeset="3733767" lat="33.993578" lon="-81.2256455"/>
  <node id="621629048" version="1" timestamp="2010-01-28T08:19:02Z" uid="99207" user="Lar Kiesel" changeset="3733767" lat="33.9937025" lon="-81.2252271"/>
  <node id="621629050" version="1" timestamp="2010-01-28T08:19:02Z" uid="99207" user="Lar Kiesel" changeset="3733767" lat="33.9933156" lon="-81.2250715"/>
  <node id="621629053" version="1" timestamp="2010-01-28T08:19:02Z" uid="99207" user="Lar Kiesel" changeset="3733767" lat="33.9932044" lon="-81.2254631"/>
</osm>
