<?xml version='1.0' encoding='UTF-8'?>
<osm version="0.6" generator="libosmium/2.20.0">
  <node id="622410688" version="1" timestamp="2010-01-29T15:29:17Z" uid="99207" user="Lar Kiesel" changeset="3744041" lat="34.0286062" lon="-81.4780852"/>
  <node id="622410692" version="1" timestamp="2010-01-29T15:29:17Z" uid="99207" user="Lar Kiesel" changeset="3744041" lat="34.028857" lon="-81.4778715"/>
  <node id="622410694" version="1" timestamp="2010-01-29T15:29:17Z" uid="99207" user="Lar Kiesel" changeset="3744041" lat="34.0289267" lon="-81.47771"/>
  <node id="622410696" version="1" timestamp="2010-01-29T15:29:17Z" uid="99207" user="Lar Kiesel" changeset="3744041" lat="34.0609524" lon="-81.4761765"/>
  <node id="622410698" version="1" timestamp="2010-01-29T15:29:17Z" uid="99207" user="Lar Kiesel" changeset="3744041" lat="34.0609588" lon="-81.4764517"/>
  <node id="622410700" version="1" timestamp="2010-01-29T15:29:17Z" uid="99207" user="Lar Kiesel" changeset="3744041" lat="34.0609018" lon="-81.476658"/>
  <node id="622410702" version="1" timestamp="2010-01-29T15:29:17Z" uid="99207" user="Lar Kiesel" changeset="3744041" lat="34.0609081" lon="-81.4768644"/>
  <node id="622410704" version="1" timestamp="2010-01-29T15:29:17Z" uid="99207" user="Lar Kiesel" changeset="3744041" lat="34.0610031" lon="-81.4770403"/>
  <node id="622410706" version="1" timestamp="2010-01-29T15:29:17Z" uid="99207" user="Lar Kiesel" changeset="3744041" lat="34.0438661" lon="-81.4731327">
    <tag k="barrier" v="gate"/>
  </node>
  <node id="622410709" version="1" timestamp="2010-01-29T15:29:17Z" uid="99207" user="Lar Kiesel" changeset="3744041" lat="34.0568973" lon="-81.470774">
    <tag k="barrier" v="gate"/>
  </node>
  <node id="622414795" version="3" timestamp="2011-05-11T16:33:24Z" uid="115477" user="wowik" changeset="8113835" lat="55.8920179" lon="37.4387348">
    <tag k="highway" v="bus_stop"/>
    <tag k="name" v="магазин Мелодия"/>
    <tag k="shelter" v="yes"/>
  </node>
  <node id="622414795" version="4" timestamp="2012-02-24T16:52:17Z" uid="384084" user="Kostik" changeset="10780087" lat="55.8920179" lon="37.4387348">
    <tag k="highway" v="bus_stop"/>
    <tag k="name" v="магазин Мелодия"/>
    <tag k="shelter" v="yes"/>
  </node>
  <node id="622414798" version="2" timestamp="2011-05-11T16:33:32Z" uid="115477" user="wowik" changeset="8113835" lat="55.8938384" lon="37.4431409">
    <tag k="bench" v="yes"/>
    <tag k="highway" v="bus_stop"/>
    <tag k="name" v="улица Первомайская"/>
    <tag k="shelter" v="yes"/>
  </node>
  <node id="622414798" version="3" timestamp="2012-02-24T16:52:20Z" uid="384084" user="Kostik" changeset="10780087" lat="55.8938384" lon="37.4431409">
    <tag k="bench" v="yes"/>
    <tag k="highway" v="bus_stop"/>
    <tag k="name" v="улица Первомайская"/>
    <tag k="shelter" v="yes"/>
  </node>
  <node id="622416036" version="2" timestamp="2010-03-09T21:36:15Z" uid="9581" user="Lobelt" changeset="4084813" lat="49.4852192" lon="8.7253104"/>
  <node id="622416039" version="2" timestamp="2010-03-09T21:36:14Z" uid="9581" user="Lobelt" changeset="4084813" lat="49.4849144" lon="8.7254552"/>
  <node id="622416970" version="4" timestamp="2011-01-25T13:40:16Z" uid="115477" user="wowik" changeset="7083719" lat="55.8539226" lon="37.4504942">
    <tag k="addr:housenumber" v="61 к1"/>
    <tag k="addr:street" v="улица Свободы"/>
    <tag k="name" v="Дочки и Сыночки"/>
    <tag k="shop" v="toys"/>
  </node>
  <node id="622416970" version="5" timestamp="2011-03-10T17:27:56Z" uid="206282" user="Amigo" changeset="7516132" lat="55.8539226" lon="37.4504941">
    <tag k="addr:housenumber" v="61 к1"/>
    <tag k="addr:street" v="улица Свободы"/>
    <tag k="name" v="Дочки и Сыночки"/>
    <tag k="shop" v="kids"/>
  </node>
  <node id="622416970" version="6" timestamp="2012-03-28T06:27:26Z" uid="481934" user="iWowik" changeset="11123401" lat="55.8539226" lon="37.4504941">
    <tag k="addr:city" v="Москва"/>
    <tag k="addr:country" v="RU"/>
    <tag k="addr:housenumber" v="61 к1"/>
    <tag k="addr:street" v="улица Свободы"/>
    <tag k="name" v="Дочки и Сыночки"/>
    <tag k="shop" v="kids"/>
  </node>
</osm>
