<?xml version='1.0' encoding='UTF-8'?>
<osm version="0.6" generator="libosmium/2.20.0">
  <node id="622793718" version="3" timestamp="2010-12-30T08:28:40Z" uid="4467" user="Rosscoe" changeset="6806511" lat="-21.6389751" lon="116.3257172">
    <tag k="amenity" v="pub"/>
    <tag k="name" v="Pannawonica Tavern"/>
  </node>
  <node id="622793719" version="2" timestamp="2010-12-30T08:28:48Z" uid="4467" user="Rosscoe" changeset="6806511" lat="-21.6359334" lon="116.323344">
    <tag k="amenity" v="pub"/>
    <tag k="name" v="Pannawonica Sporting club"/>
  </node>
  <node id="622793722" version="2" timestamp="2010-12-30T08:28:49Z" uid="4467" user="Rosscoe" changeset="6806511" lat="-21.636811" lon="116.3247087">
    <tag k="amenity" v="school"/>
    <tag k="name" v="Pannawonica Primary"/>
  </node>
  <node id="622793724" version="3" timestamp="2010-12-30T08:28:42Z" uid="4467" user="Rosscoe" changeset="6806511" lat="-21.639015" lon="116.3246765">
    <tag k="amenity" v="post_office"/>
    <tag k="name" v="Pannawonica"/>
  </node>
  <node id="622793725" version="3" timestamp="2010-12-30T08:28:50Z" uid="4467" user="Rosscoe" changeset="6806511" lat="-21.6400123" lon="116.3238826">
    <tag k="amenity" v="police"/>
    <tag k="name" v="Pannawonica"/>
  </node>
  <node id="622793725" version="4" timestamp="2010-12-30T08:29:55Z" uid="4467" user="Rosscoe" changeset="6806519" lat="-21.6401625" lon="116.3236156">
    <tag k="amenity" v="police"/>
    <tag k="name" v="Pannawonica"/>
  </node>
  <node id="622793726" version="2" timestamp="2010-12-30T08:28:51Z" uid="4467" user="Rosscoe" changeset="6806511" lat="-21.6396832" lon="116.3254383">
    <tag k="amenity" v="library"/>
    <tag k="name" v="Pannawonica"/>
  </node>
  <node id="622793726" version="3" timestamp="2010-12-30T08:29:55Z" uid="4467" user="Rosscoe" changeset="6806519" lat="-21.6397681" lon="116.3249114">
    <tag k="amenity" v="library"/>
    <tag k="name" v="Pannawonica"/>
  </node>
  <node id="622793727" version="2" timestamp="2010-12-30T08:28:55Z" uid="4467" user="Rosscoe" changeset="6806511" lat="-21.6392644" lon="116.3270047">
    <tag k="amenity" v="hospital"/>
    <tag k="name" v="Pannawonica Medical Center"/>
  </node>
  <node id="622798230" version="2" timestamp="2010-12-30T08:28:51Z" uid="4467" user="Rosscoe" changeset="6806511" lat="-21.6404668" lon="116.3229666">
    <tag k="amenity" v="fuel"/>
    <tag k="name" v="Mobil"/>
  </node>
</osm>
