<?xml version='1.0' encoding='UTF-8'?>
<osm version="0.6" generator="libosmium/2.20.0">
  <node id="623350670" version="4" timestamp="2011-04-20T12:56:54Z" uid="115477" user="wowik" changeset="7916018" lat="55.7629881" lon="37.6044221">
    <tag k="addr:city" v="Москва"/>
    <tag k="addr:country" v="RU"/>
    <tag k="addr:housenumber" v="26/5"/>
    <tag k="addr:postcode" v="125009"/>
    <tag k="addr:street" v="Тверской бульвар"/>
    <tag k="amenity" v="restaurant"/>
    <tag k="contact:email" v="welcome@Turandot-Palace.ru"/>
    <tag k="contact:phone" v="739-00-11"/>
    <tag k="contact:website" v="www.Turandot-Palace.ru"/>
    <tag k="name" v="Турандот"/>
  </node>
  <node id="623350670" version="5" timestamp="2012-02-17T22:18:37Z" uid="384084" user="Kostik" changeset="10715762" lat="55.7629881" lon="37.6044221">
    <tag k="addr:city" v="Москва"/>
    <tag k="addr:country" v="RU"/>
    <tag k="addr:housenumber" v="26/5"/>
    <tag k="addr:postcode" v="125009"/>
    <tag k="addr:street" v="Тверской бульвар"/>
    <tag k="amenity" v="restaurant"/>
    <tag k="contact:email" v="welcome@Turandot-Palace.ru"/>
    <tag k="contact:phone" v="739-00-11"/>
    <tag k="contact:website" v="www.Turandot-Palace.ru"/>
    <tag k="name" v="Турандот"/>
  </node>
  <node id="623350682" version="4" timestamp="2011-04-20T12:57:54Z" uid="115477" user="wowik" changeset="7916018" lat="55.7628734" lon="37.6043148">
    <tag k="addr:city" v="Москва"/>
    <tag k="addr:country" v="RU"/>
    <tag k="addr:housenumber" v="26"/>
    <tag k="addr:postcode" v="125009"/>
    <tag k="addr:street" v="Тверской бульвар"/>
    <tag k="amenity" v="restaurant"/>
    <tag k="email" v="restaurant@CastaDiva.ru"/>
    <tag k="name" v="Каста Дива"/>
    <tag k="phone" v="+7(495)651-8181"/>
    <tag k="website" v="www.CastaDiva.ru"/>
  </node>
  <node id="623350682" version="5" timestamp="2012-02-17T22:18:28Z" uid="384084" user="Kostik" changeset="10715762" lat="55.7628734" lon="37.6043148">
    <tag k="addr:city" v="Москва"/>
    <tag k="addr:country" v="RU"/>
    <tag k="addr:housenumber" v="26"/>
    <tag k="addr:postcode" v="125009"/>
    <tag k="addr:street" v="Тверской бульвар"/>
    <tag k="amenity" v="restaurant"/>
    <tag k="email" v="restaurant@CastaDiva.ru"/>
    <tag k="name" v="Каста Дива"/>
    <tag k="phone" v="+7(495)651-8181"/>
    <tag k="website" v="www.CastaDiva.ru"/>
  </node>
  <node id="623350694" version="3" timestamp="2011-04-20T12:57:05Z" uid="115477" user="wowik" changeset="7916018" lat="55.7630968" lon="37.6045509">
    <tag k="addr:city" v="Москва"/>
    <tag k="addr:country" v="RU"/>
    <tag k="addr:housenumber" v="26/5"/>
    <tag k="addr:postcode" v="125009"/>
    <tag k="addr:street" v="Тверской бульвар"/>
    <tag k="amenity" v="cafe"/>
    <tag k="description" v="Кондитерская"/>
    <tag k="name" v="Пушкинъ"/>
    <tag k="phone" v="+7(495)604-4280"/>
    <tag k="website" v="www.cafe-pushkin.ru"/>
  </node>
  <node id="623350694" version="4" timestamp="2012-02-17T22:18:32Z" uid="384084" user="Kostik" changeset="10715762" lat="55.7630968" lon="37.6045509">
    <tag k="addr:city" v="Москва"/>
    <tag k="addr:country" v="RU"/>
    <tag k="addr:housenumber" v="26/5"/>
    <tag k="addr:postcode" v="125009"/>
    <tag k="addr:street" v="Тверской бульвар"/>
    <tag k="amenity" v="cafe"/>
    <tag k="description" v="Кондитерская"/>
    <tag k="name" v="Пушкинъ"/>
    <tag k="phone" v="+7(495)604-4280"/>
    <tag k="website" v="www.cafe-pushkin.ru"/>
  </node>
  <node id="623358192" version="1" timestamp="2010-01-30T16:36:45Z" uid="59758" user="rendle" changeset="3752592" lat="18.6134332" lon="-72.2172257"/>
  <node id="623358209" version="1" timestamp="2010-01-30T16:36:46Z" uid="59758" user="rendle" changeset="3752592" lat="18.613235" lon="-72.2173115"/>
  <node id="623358218" version="1" timestamp="2010-01-30T16:36:46Z" uid="59758" user="rendle" changeset="3752592" lat="18.6133214" lon="-72.2175261"/>
  <node id="623358241" version="1" timestamp="2010-01-30T16:36:46Z" uid="59758" user="rendle" changeset="3752592" lat="18.6130367" lon="-72.2176763"/>
  <node id="623358267" version="1" timestamp="2010-01-30T16:36:47Z" uid="59758" user="rendle" changeset="3752592" lat="18.6128181" lon="-72.2172364"/>
  <node id="623358280" version="1" timestamp="2010-01-30T16:36:47Z" uid="59758" user="rendle" changeset="3752592" lat="18.613057" lon="-72.2171077"/>
  <node id="623358288" version="1" timestamp="2010-01-30T16:36:47Z" uid="59758" user="rendle" changeset="3752592" lat="18.6128994" lon="-72.216759"/>
  <node id="623358295" version="1" timestamp="2010-01-30T16:36:47Z" uid="59758" user="rendle" changeset="3752592" lat="18.6131536" lon="-72.2166356"/>
  <node id="623359912" version="1" timestamp="2010-01-30T16:37:20Z" uid="59758" user="rendle" changeset="3752592" lat="18.6125334" lon="-72.2173813"/>
  <node id="623359927" version="1" timestamp="2010-01-30T16:37:20Z" uid="59758" user="rendle" changeset="3752592" lat="18.6123809" lon="-72.2174564"/>
  <node id="623359944" version="1" timestamp="2010-01-30T16:37:21Z" uid="59758" user="rendle" changeset="3752592" lat="18.6126046" lon="-72.217907"/>
  <node id="623359953" version="1" timestamp="2010-01-30T16:37:21Z" uid="59758" user="rendle" changeset="3752592" lat="18.6127622" lon="-72.2178158"/>
</osm>
