<?xml version='1.0' encoding='UTF-8'?>
<osm version="0.6" generator="libosmium/2.20.0">
  <node id="624580455" version="1" timestamp="2010-01-31T20:12:39Z" uid="216873" user="Goonie" changeset="3762859" lat="52.4957183" lon="13.4304552">
    <tag k="highway" v="bus_stop"/>
    <tag k="name" v="Ohlauer Straße"/>
  </node>
  <node id="624580484" version="1" timestamp="2010-01-31T20:12:40Z" uid="216873" user="Goonie" changeset="3762859" lat="52.4954574" lon="13.430588">
    <tag k="highway" v="bus_stop"/>
    <tag k="name" v="Ohlauer Straße"/>
  </node>
  <node id="624580492" version="1" timestamp="2010-01-31T20:12:40Z" uid="216873" user="Goonie" changeset="3762859" lat="52.4935676" lon="13.4370616">
    <tag k="highway" v="bus_stop"/>
    <tag k="name" v="Glogauer Straße"/>
    <tag k="ref" v="103217;103209"/>
  </node>
  <node id="624580492" version="2" timestamp="2011-10-28T09:28:45Z" uid="290680" user="wheelmap_visitor" changeset="9673767" lat="52.4935676" lon="13.4370616">
    <tag k="highway" v="bus_stop"/>
    <tag k="name" v="Glogauer Straße"/>
    <tag k="ref" v="103217;103209"/>
    <tag k="wheelchair" v="yes"/>
  </node>
</osm>
