<?xml version='1.0' encoding='UTF-8'?>
<osm version="0.6" generator="libosmium/2.20.0">
  <node id="62671321" version="4" timestamp="2009-11-24T12:54:26Z" uid="7617" user="Franc" changeset="3204086" lat="-33.8176779" lon="150.7759289"/>
  <node id="62671321" version="5" timestamp="2010-04-14T10:59:09Z" uid="47167" user="MCH" changeset="4421276" lat="-33.8176489" lon="150.7759143"/>
  <node id="62671324" version="3" timestamp="2008-11-14T08:50:39Z" uid="7617" user="Franc" changeset="745755" lat="-33.8197019" lon="150.7760011"/>
  <node id="62671324" version="4" timestamp="2010-04-14T10:59:10Z" uid="47167" user="MCH" changeset="4421276" lat="-33.8197019" lon="150.7760011"/>
  <node id="62671325" version="6" timestamp="2008-11-14T08:50:38Z" uid="7617" user="Franc" changeset="745755" lat="-33.8207754" lon="150.776135"/>
  <node id="62671325" version="7" timestamp="2009-04-04T13:23:36Z" uid="7617" user="Franc" changeset="174588" lat="-33.8206772" lon="150.7761028"/>
  <node id="62671325" version="8" timestamp="2010-04-14T10:59:09Z" uid="47167" user="MCH" changeset="4421276" lat="-33.8206572" lon="150.7760578"/>
  <node id="62671326" version="3" timestamp="2009-04-04T13:23:37Z" uid="7617" user="Franc" changeset="174588" lat="-33.8213795" lon="150.7761195"/>
  <node id="62671326" version="4" timestamp="2010-04-14T10:59:09Z" uid="47167" user="MCH" changeset="4421276" lat="-33.8213769" lon="150.7761329"/>
  <node id="62671327" version="3" timestamp="2009-04-04T13:23:36Z" uid="7617" user="Franc" changeset="174588" lat="-33.8221069" lon="150.7762225"/>
  <node id="62671328" version="3" timestamp="2009-04-04T13:23:35Z" uid="7617" user="Franc" changeset="174588" lat="-33.8225204" lon="150.7763255"/>
  <node id="62671328" version="4" timestamp="2010-04-14T10:59:09Z" uid="47167" user="MCH" changeset="4421276" lat="-33.82252" lon="150.7763341"/>
  <node id="62671339" version="3" timestamp="2009-04-04T13:23:34Z" uid="7617" user="Franc" changeset="174588" lat="-33.8314516" lon="150.7810738">
    <tag k="highway" v="traffic_signals"/>
  </node>
  <node id="62671818" version="7" timestamp="2008-12-07T18:01:17Z" uid="58091" user="Andreas M" changeset="244793" lat="48.2177225" lon="16.4053136">
    <tag k="name" v="Messe Prater"/>
    <tag k="railway" v="station"/>
  </node>
  <node id="62671818" version="8" timestamp="2009-12-26T19:16:05Z" uid="67684" user="darkweasel" changeset="3457514" lat="48.2177225" lon="16.4053136">
    <tag k="name" v="Messe-Prater"/>
    <tag k="railway" v="station"/>
  </node>
  <node id="62671818" version="9" timestamp="2010-08-25T05:16:44Z" uid="54806" user="_al" changeset="5585981" lat="48.2177292" lon="16.4060318">
    <tag k="name" v="Messe-Prater"/>
    <tag k="railway" v="station"/>
  </node>
  <node id="62671818" version="10" timestamp="2011-03-01T19:28:02Z" uid="99800" user="wolfbert" changeset="7432102" lat="48.2177922" lon="16.4051434">
    <tag k="name" v="Messe-Prater"/>
    <tag k="railway" v="station"/>
  </node>
  <node id="62671818" version="11" timestamp="2011-06-05T23:53:36Z" uid="56501" user="Rudolf_H" changeset="8355563" lat="48.2177922" lon="16.4051434">
    <tag k="name" v="Messe-Prater"/>
    <tag k="railway" v="station"/>
    <tag k="uic_name" v="Wien Messe-Prater (U2)"/>
    <tag k="uic_ref" v="8170412"/>
  </node>
  <node id="62671818" version="12" timestamp="2011-07-19T22:23:24Z" uid="29320" user="Komяpa" changeset="8773535" lat="48.2177922" lon="16.4051434">
    <tag k="name" v="Messe-Prater"/>
    <tag k="railway" v="station"/>
    <tag k="transport" v="subway"/>
    <tag k="uic_name" v="Wien Messe-Prater (U2)"/>
    <tag k="uic_ref" v="8170412"/>
  </node>
  <node id="62671818" version="13" timestamp="2011-08-01T00:42:32Z" uid="29320" user="Komяpa" changeset="8886564" lat="48.2177922" lon="16.4051434">
    <tag k="colour" v="purple"/>
    <tag k="name" v="Messe-Prater"/>
    <tag k="operator" v="Wiener Linien"/>
    <tag k="railway" v="station"/>
    <tag k="transport" v="subway"/>
    <tag k="uic_name" v="Wien Messe-Prater (U2)"/>
    <tag k="uic_ref" v="8170412"/>
  </node>
  <node id="62671818" version="14" timestamp="2011-09-17T20:08:40Z" uid="290680" user="wheelmap_visitor" changeset="9324096" lat="48.2177922" lon="16.4051434">
    <tag k="colour" v="purple"/>
    <tag k="name" v="Messe-Prater"/>
    <tag k="operator" v="Wiener Linien"/>
    <tag k="railway" v="station"/>
    <tag k="transport" v="subway"/>
    <tag k="uic_name" v="Wien Messe-Prater (U2)"/>
    <tag k="uic_ref" v="8170412"/>
    <tag k="wheelchair" v="yes"/>
  </node>
  <node id="62671827" version="14" timestamp="2008-12-07T18:01:17Z" uid="58091" user="Andreas M" changeset="244793" lat="48.2142625" lon="16.4142314">
    <tag k="name" v="Krieau"/>
    <tag k="railway" v="station"/>
  </node>
  <node id="62671827" version="15" timestamp="2010-12-29T18:20:13Z" uid="78656" user="Walter Schlögl" changeset="6801581" lat="48.2143673" lon="16.4143542">
    <tag k="name" v="Krieau"/>
    <tag k="railway" v="station"/>
  </node>
  <node id="62671827" version="16" timestamp="2011-03-01T19:27:58Z" uid="99800" user="wolfbert" changeset="7432102" lat="48.2146982" lon="16.4137386">
    <tag k="name" v="Krieau"/>
    <tag k="railway" v="station"/>
  </node>
  <node id="62671827" version="17" timestamp="2011-06-05T23:53:37Z" uid="56501" user="Rudolf_H" changeset="8355563" lat="48.2146982" lon="16.4137386">
    <tag k="name" v="Krieau"/>
    <tag k="railway" v="station"/>
    <tag k="uic_name" v="Wien Krieau (U2)"/>
    <tag k="uic_ref" v="8170448"/>
  </node>
  <node id="62671827" version="18" timestamp="2011-07-19T22:23:24Z" uid="29320" user="Komяpa" changeset="8773535" lat="48.2146982" lon="16.4137386">
    <tag k="name" v="Krieau"/>
    <tag k="railway" v="station"/>
    <tag k="transport" v="subway"/>
    <tag k="uic_name" v="Wien Krieau (U2)"/>
    <tag k="uic_ref" v="8170448"/>
  </node>
  <node id="62671827" version="19" timestamp="2011-08-01T00:42:31Z" uid="29320" user="Komяpa" changeset="8886564" lat="48.2146982" lon="16.4137386">
    <tag k="colour" v="purple"/>
    <tag k="name" v="Krieau"/>
    <tag k="operator" v="Wiener Linien"/>
    <tag k="railway" v="station"/>
    <tag k="transport" v="subway"/>
    <tag k="uic_name" v="Wien Krieau (U2)"/>
    <tag k="uic_ref" v="8170448"/>
  </node>
  <node id="62671827" version="20" timestamp="2011-09-17T20:07:39Z" uid="290680" user="wheelmap_visitor" changeset="9324096" lat="48.2146982" lon="16.4137386">
    <tag k="colour" v="purple"/>
    <tag k="name" v="Krieau"/>
    <tag k="operator" v="Wiener Linien"/>
    <tag k="railway" v="station"/>
    <tag k="transport" v="subway"/>
    <tag k="uic_name" v="Wien Krieau (U2)"/>
    <tag k="uic_ref" v="8170448"/>
    <tag k="wheelchair" v="yes"/>
  </node>
  <node id="62671836" version="14" timestamp="2009-04-28T14:53:02Z" uid="58091" user="Andreas M" changeset="1004980" lat="48.2064732" lon="16.4316571">
    <tag k="name" v="Donaumarina"/>
    <tag k="opening_date" v="2010-10-01"/>
    <tag k="railway" v="station"/>
  </node>
  <node id="62671836" version="15" timestamp="2009-06-10T11:04:59Z" uid="16645" user="roli-d" changeset="1476442" lat="48.2064732" lon="16.4316571">
    <tag k="name" v="Donaumarina"/>
    <tag k="opening_date" v="2010-10-01"/>
    <tag k="railway" v="station"/>
  </node>
  <node id="62671836" version="16" timestamp="2009-09-06T16:43:06Z" uid="86147" user="wolfi1220" changeset="2393422" lat="48.2064732" lon="16.4316571">
    <tag k="name" v="Donaumarina"/>
    <tag k="opening_date" v="2010-10-02"/>
    <tag k="railway" v="station"/>
  </node>
  <node id="62671836" version="17" timestamp="2009-09-26T19:08:03Z" uid="104947" user="My Friend" changeset="2645174" lat="48.2063812" lon="16.4317948">
    <tag k="name" v="Donaumarina"/>
    <tag k="opening_date" v="2010-10-02"/>
    <tag k="railway" v="station"/>
  </node>
  <node id="62671836" version="18" timestamp="2009-09-26T19:30:00Z" uid="104947" user="My Friend" changeset="2645624" lat="48.2063964" lon="16.431765">
    <tag k="name" v="Donaumarina"/>
    <tag k="opening_date" v="2010-10-02"/>
    <tag k="railway" v="station"/>
  </node>
  <node id="62671836" version="19" timestamp="2010-10-01T21:26:55Z" uid="86147" user="wolfi1220" changeset="5931792" lat="48.2063964" lon="16.431765">
    <tag k="name" v="Donaumarina"/>
    <tag k="railway" v="station"/>
  </node>
  <node id="62671836" version="20" timestamp="2010-10-02T18:07:06Z" uid="104947" user="My Friend" changeset="5938317" lat="48.206126" lon="16.4312502">
    <tag k="name" v="Donaumarina"/>
    <tag k="railway" v="station"/>
  </node>
  <node id="62671836" version="21" timestamp="2010-11-07T19:51:40Z" uid="67684" user="darkweasel" changeset="6315295" lat="48.2062078" lon="16.4312112">
    <tag k="name" v="Donaumarina"/>
    <tag k="railway" v="station"/>
  </node>
  <node id="62671836" version="22" timestamp="2010-11-30T18:14:36Z" uid="104947" user="My Friend" changeset="6496379" lat="48.2063502" lon="16.4314593">
    <tag k="name" v="Donaumarina"/>
    <tag k="railway" v="station"/>
  </node>
  <node id="62671836" version="23" timestamp="2010-11-30T18:52:26Z" uid="104947" user="My Friend" changeset="6496665" lat="48.2063593" lon="16.4314522">
    <tag k="name" v="Donaumarina"/>
    <tag k="railway" v="station"/>
  </node>
  <node id="62671836" version="24" timestamp="2011-06-05T23:53:36Z" uid="56501" user="Rudolf_H" changeset="8355563" lat="48.2063593" lon="16.4314522">
    <tag k="name" v="Donaumarina"/>
    <tag k="railway" v="station"/>
    <tag k="uic_name" v="Wien Donaumarina (U2)"/>
    <tag k="uic_ref" v="8170611"/>
  </node>
  <node id="62671836" version="25" timestamp="2011-07-19T22:23:20Z" uid="29320" user="Komяpa" changeset="8773535" lat="48.2063593" lon="16.4314522">
    <tag k="name" v="Donaumarina"/>
    <tag k="railway" v="station"/>
    <tag k="transport" v="subway"/>
    <tag k="uic_name" v="Wien Donaumarina (U2)"/>
    <tag k="uic_ref" v="8170611"/>
  </node>
  <node id="62671836" version="26" timestamp="2011-08-01T00:42:26Z" uid="29320" user="Komяpa" changeset="8886564" lat="48.2063593" lon="16.4314522">
    <tag k="colour" v="purple"/>
    <tag k="name" v="Donaumarina"/>
    <tag k="operator" v="Wiener Linien"/>
    <tag k="railway" v="station"/>
    <tag k="transport" v="subway"/>
    <tag k="uic_name" v="Wien Donaumarina (U2)"/>
    <tag k="uic_ref" v="8170611"/>
  </node>
  <node id="62671836" version="27" timestamp="2011-09-17T20:07:38Z" uid="290680" user="wheelmap_visitor" changeset="9324096" lat="48.2063593" lon="16.4314522">
    <tag k="colour" v="purple"/>
    <tag k="name" v="Donaumarina"/>
    <tag k="operator" v="Wiener Linien"/>
    <tag k="railway" v="station"/>
    <tag k="transport" v="subway"/>
    <tag k="uic_name" v="Wien Donaumarina (U2)"/>
    <tag k="uic_ref" v="8170611"/>
    <tag k="wheelchair" v="yes"/>
  </node>
  <node id="62672003" version="5" timestamp="2010-10-31T05:56:13Z" uid="4467" user="Rosscoe" changeset="6235133" lat="-37.7629955" lon="144.9203226"/>
  <node id="62672296" version="2" timestamp="2010-10-31T06:40:34Z" uid="4467" user="Rosscoe" changeset="6235254" lat="-37.7620105" lon="144.919947">
    <tag k="traffic_calming" v="table"/>
  </node>
  <node id="62673046" version="5" timestamp="2010-10-31T05:56:11Z" uid="4467" user="Rosscoe" changeset="6235133" lat="-37.7657565" lon="144.9195001"/>
  <node id="62673983" version="5" timestamp="2008-07-03T17:49:00Z" uid="6975" user="ulfl" changeset="379368" lat="39.8974325" lon="32.8601647">
    <tag k="name" v="Kuaför"/>
    <tag k="shop" v="hairdresser"/>
  </node>
  <node id="62674132" version="5" timestamp="2008-07-03T00:13:11Z" uid="6975" user="ulfl" changeset="377243" lat="39.8853198" lon="32.8508657">
    <tag k="name" v="Sır Erkek Kuaförü"/>
    <tag k="shop" v="hairdresser"/>
  </node>
  <node id="62674132" version="6" timestamp="2008-11-07T15:15:30Z" uid="11395" user="XceptN" changeset="706255" lat="39.8853014" lon="32.8507783">
    <tag k="name" v="Sır Erkek Kuaförü"/>
    <tag k="shop" v="hairdresser"/>
  </node>
  <node id="62674443" version="7" timestamp="2008-07-03T15:51:34Z" uid="6975" user="ulfl" changeset="378199" lat="39.8484847" lon="32.8395524">
    <tag k="amenity" v="pub"/>
    <tag k="name" v="Newcastle Pub"/>
  </node>
  <node id="62674464" version="2" timestamp="2009-04-04T13:26:13Z" uid="7617" user="Franc" changeset="174588" lat="-33.8315828" lon="150.781623"/>
  <node id="62674465" version="2" timestamp="2009-04-04T13:26:12Z" uid="7617" user="Franc" changeset="174588" lat="-33.8317183" lon="150.7826186"/>
  <node id="62674466" version="2" timestamp="2009-04-04T13:26:11Z" uid="7617" user="Franc" changeset="174588" lat="-33.8318894" lon="150.7837774"/>
  <node id="62674467" version="2" timestamp="2009-04-04T13:26:10Z" uid="7617" user="Franc" changeset="174588" lat="-33.8320534" lon="150.7847387"/>
  <node id="62674468" version="2" timestamp="2009-04-04T13:26:09Z" uid="7617" user="Franc" changeset="174588" lat="-33.8321675" lon="150.7856056"/>
  <node id="62674469" version="2" timestamp="2009-04-04T13:26:09Z" uid="7617" user="Franc" changeset="174588" lat="-33.8326309" lon="150.7890045"/>
  <node id="62674471" version="3" timestamp="2009-04-04T13:26:08Z" uid="7617" user="Franc" changeset="174588" lat="-33.8327735" lon="150.7900516">
    <tag k="direction" v="clockwise"/>
    <tag k="highway" v="mini_roundabout"/>
  </node>
  <node id="62674472" version="2" timestamp="2009-04-04T13:26:17Z" uid="7617" user="Franc" changeset="174588" lat="-33.8331656" lon="150.7926351"/>
  <node id="62674473" version="2" timestamp="2009-04-04T13:23:58Z" uid="7617" user="Franc" changeset="174588" lat="-33.8333209" lon="150.7945078"/>
  <node id="62674474" version="2" timestamp="2009-04-04T13:23:59Z" uid="7617" user="Franc" changeset="174588" lat="-33.8333779" lon="150.7947481"/>
  <node id="62674475" version="2" timestamp="2009-04-04T13:23:59Z" uid="7617" user="Franc" changeset="174588" lat="-33.8334492" lon="150.794997"/>
  <node id="62674476" version="2" timestamp="2009-04-04T13:26:16Z" uid="7617" user="Franc" changeset="174588" lat="-33.8337645" lon="150.7954418"/>
  <node id="62674477" version="2" timestamp="2009-04-04T13:26:15Z" uid="7617" user="Franc" changeset="174588" lat="-33.8340568" lon="150.7960168"/>
  <node id="62674478" version="2" timestamp="2009-04-04T13:26:14Z" uid="7617" user="Franc" changeset="174588" lat="-33.8344989" lon="150.7968665"/>
  <node id="62674479" version="2" timestamp="2009-04-04T13:26:14Z" uid="7617" user="Franc" changeset="174588" lat="-33.8348767" lon="150.7975875"/>
  <node id="62674480" version="2" timestamp="2009-04-04T13:26:17Z" uid="7617" user="Franc" changeset="174588" lat="-33.8350692" lon="150.7979051"/>
  <node id="62674481" version="2" timestamp="2009-04-04T13:23:54Z" uid="7617" user="Franc" changeset="174588" lat="-33.8351875" lon="150.7982484"/>
  <node id="62674482" version="2" timestamp="2009-04-04T13:23:55Z" uid="7617" user="Franc" changeset="174588" lat="-33.8353942" lon="150.7984887"/>
  <node id="62674483" version="2" timestamp="2009-04-04T13:23:55Z" uid="7617" user="Franc" changeset="174588" lat="-33.8355867" lon="150.7986432"/>
  <node id="62674485" version="2" timestamp="2009-04-04T13:23:56Z" uid="7617" user="Franc" changeset="174588" lat="-33.8358434" lon="150.7988492"/>
  <node id="62674486" version="2" timestamp="2009-04-04T13:23:57Z" uid="7617" user="Franc" changeset="174588" lat="-33.8362854" lon="150.7990724"/>
  <node id="62674487" version="2" timestamp="2009-04-04T13:23:57Z" uid="7617" user="Franc" changeset="174588" lat="-33.8364921" lon="150.7991754"/>
  <node id="62675343" version="3" timestamp="2010-10-31T05:56:00Z" uid="4467" user="Rosscoe" changeset="6235133" lat="-37.7655151" lon="144.9221559"/>
  <node id="62675345" version="4" timestamp="2010-10-31T05:56:04Z" uid="4467" user="Rosscoe" changeset="6235133" lat="-37.7656983" lon="144.9220836"/>
  <node id="62675855" version="3" timestamp="2010-10-31T05:56:10Z" uid="4467" user="Rosscoe" changeset="6235133" lat="-37.7650893" lon="144.9222163"/>
  <node id="62675858" version="2" timestamp="2010-10-31T05:56:02Z" uid="4467" user="Rosscoe" changeset="6235133" lat="-37.7660357" lon="144.9220266"/>
  <node id="62675858" version="3" timestamp="2010-12-15T04:05:00Z" uid="84937" user="Neil Penman" changeset="6664469" lat="-37.7660448" lon="144.9220249"/>
  <node id="62676239" version="3" timestamp="2010-10-31T05:56:01Z" uid="4467" user="Rosscoe" changeset="6235133" lat="-37.7656522" lon="144.9215799"/>
  <node id="62677819" version="5" timestamp="2010-10-31T05:56:06Z" uid="4467" user="Rosscoe" changeset="6235133" lat="-37.7665758" lon="144.9239577"/>
  <node id="62679429" version="2" timestamp="2008-09-22T11:31:18Z" uid="9581" user="Lobelt" changeset="678878" lat="50.8299466" lon="13.0382975">
    <tag k="created_by" v="JOSM"/>
  </node>
  <node id="62679429" version="3" timestamp="2009-05-19T15:04:45Z" uid="69628" user="vsandre" changeset="1250523" lat="50.8299466" lon="13.0382975"/>
  <node id="62679429" version="4" timestamp="2011-04-18T12:11:43Z" uid="69628" user="vsandre" changeset="7896400" lat="50.8299431" lon="13.0382531"/>
  <node id="62679429" version="5" timestamp="2011-07-25T09:24:33Z" uid="69628" user="vsandre" changeset="8824191" lat="50.8299431" lon="13.0382531"/>
  <node id="62679449" version="2" timestamp="2008-09-22T11:31:20Z" uid="9581" user="Lobelt" changeset="678878" lat="50.8315798" lon="13.0333127">
    <tag k="created_by" v="JOSM"/>
  </node>
  <node id="62679449" version="3" timestamp="2009-05-19T15:04:45Z" uid="69628" user="vsandre" changeset="1250523" lat="50.8315798" lon="13.0333127"/>
  <node id="62679449" version="4" timestamp="2011-07-25T09:24:33Z" uid="69628" user="vsandre" changeset="8824191" lat="50.8315798" lon="13.0333127"/>
</osm>
