<?xml version='1.0' encoding='UTF-8'?>
<osm version="0.6" generator="libosmium/2.20.0">
  <node id="626970732" version="1" timestamp="2010-02-02T20:53:17Z" uid="164966" user="linuss1" changeset="3778955" lat="53.5752263" lon="9.7065921">
    <tag k="amenity" v="restaurant"/>
    <tag k="name" v="China Res. Canton"/>
  </node>
  <node id="626970732" version="2" timestamp="2010-04-10T19:27:24Z" uid="208474" user="Joke123" changeset="4386242" lat="53.5752264" lon="9.706592">
    <tag k="amenity" v="restaurant"/>
    <tag k="cuisine" v="chinese"/>
    <tag k="name" v="Canton"/>
  </node>
  <node id="626970732" version="3" timestamp="2011-08-07T18:33:00Z" uid="208474" user="Joke123" changeset="8950365" lat="53.5751918" lon="9.706618">
    <tag k="addr:housenumber" v="63"/>
    <tag k="addr:postcode" v="22880"/>
    <tag k="addr:street" v="Bahnhofstraße"/>
    <tag k="amenity" v="restaurant"/>
    <tag k="cuisine" v="chinese"/>
    <tag k="name" v="Canton"/>
  </node>
  <node id="626970732" version="4" timestamp="2011-10-17T10:38:29Z" uid="290680" user="wheelmap_visitor" changeset="9578325" lat="53.5751918" lon="9.706618">
    <tag k="addr:housenumber" v="63"/>
    <tag k="addr:postcode" v="22880"/>
    <tag k="addr:street" v="Bahnhofstraße"/>
    <tag k="amenity" v="restaurant"/>
    <tag k="cuisine" v="chinese"/>
    <tag k="name" v="Canton"/>
    <tag k="wheelchair" v="no"/>
  </node>
  <node id="626970732" version="5" timestamp="2011-12-19T17:55:11Z" uid="208474" user="Joke123" changeset="10157325" lat="53.5752667" lon="9.7065595">
    <tag k="addr:housenumber" v="63"/>
    <tag k="addr:postcode" v="22880"/>
    <tag k="addr:street" v="Bahnhofstraße"/>
    <tag k="amenity" v="restaurant"/>
    <tag k="cuisine" v="chinese"/>
    <tag k="name" v="Canton"/>
    <tag k="wheelchair" v="no"/>
  </node>
  <node id="626970732" version="6" timestamp="2011-12-19T18:54:21Z" uid="208474" user="Joke123" changeset="10157325" lat="53.5752667" lon="9.7065381">
    <tag k="addr:housenumber" v="63"/>
    <tag k="addr:postcode" v="22880"/>
    <tag k="addr:street" v="Bahnhofstraße"/>
    <tag k="amenity" v="restaurant"/>
    <tag k="cuisine" v="chinese"/>
    <tag k="name" v="Canton"/>
    <tag k="wheelchair" v="no"/>
  </node>
  <node id="626970732" version="7" timestamp="2012-02-13T17:11:52Z" uid="208474" user="Joke123" changeset="10675097" lat="53.5752667" lon="9.7065381">
    <tag k="addr:city" v="Wedel"/>
    <tag k="addr:country" v="DE"/>
    <tag k="addr:housenumber" v="63"/>
    <tag k="addr:postcode" v="22880"/>
    <tag k="addr:street" v="Bahnhofstraße"/>
    <tag k="amenity" v="restaurant"/>
    <tag k="cuisine" v="chinese"/>
    <tag k="name" v="Canton"/>
    <tag k="wheelchair" v="no"/>
  </node>
  <node id="626970807" version="2" timestamp="2010-05-25T04:38:12Z" uid="242497" user="cvl" changeset="4800307" lat="-33.6160084" lon="115.1081693"/>
  <node id="626970807" version="3" timestamp="2012-02-27T04:07:09Z" uid="261730" user="Davoz" changeset="10805300" lat="-33.6160124" lon="115.1080049"/>
  <node id="626970808" version="2" timestamp="2010-05-25T04:38:12Z" uid="242497" user="cvl" changeset="4800307" lat="-33.6158297" lon="115.1082257"/>
  <node id="626970808" version="3" timestamp="2012-02-27T04:07:09Z" uid="261730" user="Davoz" changeset="10805300" lat="-33.6158227" lon="115.1080251"/>
  <node id="626970896" version="1" timestamp="2010-02-02T20:54:09Z" uid="164966" user="linuss1" changeset="3778955" lat="53.5748217" lon="9.7058977">
    <tag k="amenity" v="pharmacy"/>
    <tag k="name" v="Doppeleichen-Apotheke"/>
  </node>
  <node id="626970896" version="2" timestamp="2010-02-02T20:54:58Z" uid="164966" user="linuss1" changeset="3778955" lat="53.5747994" lon="9.7058811">
    <tag k="amenity" v="pharmacy"/>
    <tag k="name" v="Doppeleichen-Apotheke"/>
  </node>
  <node id="626970896" version="3" timestamp="2010-04-10T19:27:25Z" uid="208474" user="Joke123" changeset="4386242" lat="53.574746" lon="9.7058437">
    <tag k="amenity" v="pharmacy"/>
    <tag k="name" v="Doppeleichen-Apotheke"/>
  </node>
  <node id="626970896" version="4" timestamp="2011-08-07T18:33:01Z" uid="208474" user="Joke123" changeset="8950365" lat="53.5747172" lon="9.7058241">
    <tag k="addr:housenumber" v="62"/>
    <tag k="addr:postcode" v="22880"/>
    <tag k="addr:street" v="Bahnhofstraße"/>
    <tag k="amenity" v="pharmacy"/>
    <tag k="name" v="Doppeleichen-Apotheke"/>
  </node>
  <node id="626970896" version="5" timestamp="2011-10-17T10:38:27Z" uid="290680" user="wheelmap_visitor" changeset="9578325" lat="53.5747172" lon="9.7058241">
    <tag k="addr:housenumber" v="62"/>
    <tag k="addr:postcode" v="22880"/>
    <tag k="addr:street" v="Bahnhofstraße"/>
    <tag k="amenity" v="pharmacy"/>
    <tag k="name" v="Doppeleichen-Apotheke"/>
    <tag k="wheelchair" v="yes"/>
  </node>
  <node id="626970896" version="6" timestamp="2011-12-19T17:54:57Z" uid="208474" user="Joke123" changeset="10157325" lat="53.5747571" lon="9.705771">
    <tag k="addr:housenumber" v="62"/>
    <tag k="addr:postcode" v="22880"/>
    <tag k="addr:street" v="Bahnhofstraße"/>
    <tag k="amenity" v="pharmacy"/>
    <tag k="name" v="Doppeleichen-Apotheke"/>
    <tag k="wheelchair" v="yes"/>
  </node>
  <node id="626970896" version="7" timestamp="2012-01-02T10:48:38Z" uid="208474" user="Joke123" changeset="10268788" lat="53.5747652" lon="9.7057305">
    <tag k="addr:housenumber" v="62"/>
    <tag k="addr:postcode" v="22880"/>
    <tag k="addr:street" v="Bahnhofstraße"/>
    <tag k="amenity" v="pharmacy"/>
    <tag k="name" v="Doppeleichen-Apotheke"/>
    <tag k="wheelchair" v="yes"/>
  </node>
  <node id="626970896" version="8" timestamp="2012-02-13T17:11:54Z" uid="208474" user="Joke123" changeset="10675097" lat="53.5747652" lon="9.7057305">
    <tag k="addr:city" v="Wedel"/>
    <tag k="addr:country" v="DE"/>
    <tag k="addr:housenumber" v="62"/>
    <tag k="addr:postcode" v="22880"/>
    <tag k="addr:street" v="Bahnhofstraße"/>
    <tag k="amenity" v="pharmacy"/>
    <tag k="name" v="Doppeleichen-Apotheke"/>
    <tag k="wheelchair" v="yes"/>
  </node>
  <node id="626970896" version="9" timestamp="2012-02-13T18:37:17Z" uid="208474" user="Joke123" changeset="10675979" lat="53.5747684" lon="9.7057346">
    <tag k="addr:city" v="Wedel"/>
    <tag k="addr:country" v="DE"/>
    <tag k="addr:housenumber" v="62"/>
    <tag k="addr:postcode" v="22880"/>
    <tag k="addr:street" v="Bahnhofstraße"/>
    <tag k="amenity" v="pharmacy"/>
    <tag k="name" v="Doppeleichen-Apotheke"/>
    <tag k="wheelchair" v="yes"/>
  </node>
  <node id="626970896" version="10" timestamp="2012-02-17T17:53:23Z" uid="208474" user="Joke123" changeset="10713495" lat="53.5747684" lon="9.7057346">
    <tag k="addr:city" v="Wedel"/>
    <tag k="addr:country" v="DE"/>
    <tag k="addr:housenumber" v="62"/>
    <tag k="addr:postcode" v="22880"/>
    <tag k="addr:street" v="Bahnhofstraße"/>
    <tag k="amenity" v="pharmacy"/>
    <tag k="dispensing" v="yes"/>
    <tag k="name" v="Doppeleichen-Apotheke"/>
    <tag k="wheelchair" v="yes"/>
  </node>
  <node id="626977230" version="1" timestamp="2010-02-02T21:02:00Z" uid="171838" user="argrath" changeset="3779030" lat="30.4284183" lon="131.2642887"/>
  <node id="626977246" version="1" timestamp="2010-02-02T21:02:02Z" uid="171838" user="argrath" changeset="3779030" lat="32.0305961" lon="131.7515013"/>
  <node id="626977256" version="1" timestamp="2010-02-02T21:02:02Z" uid="171838" user="argrath" changeset="3779030" lat="32.7139131" lon="132.1774549"/>
  <node id="626977256" version="2" timestamp="2010-03-23T11:03:40Z" uid="171838" user="argrath" changeset="4211036" lat="32.3905301" lon="132.1650059"/>
</osm>
