<?xml version='1.0' encoding='UTF-8'?>
<osm version="0.6" generator="libosmium/2.20.0">
  <node id="631513506" version="2" timestamp="2011-02-27T08:58:41Z" uid="4467" user="Rosscoe" changeset="7407963" lat="-37.7978021" lon="145.1756852">
    <tag k="highway" v="turning_circle"/>
  </node>
  <node id="631515513" version="1" timestamp="2010-02-06T12:58:23Z" uid="40577" user="guggis" changeset="3804680" lat="18.450555" lon="-72.287777">
    <tag k="amenity" v="hospital"/>
    <tag k="attribute_source_type" v="PAHO"/>
    <tag k="geometry_source_type" v="PAHO"/>
    <tag k="health_facility:commune" v="KENSCOFF"/>
    <tag k="health_facility:commune_id" v="11"/>
    <tag k="health_facility:department" v="OUEST"/>
    <tag k="health_facility:paho_id" v="1159007"/>
    <tag k="name" v="KENSCOFF HOSPITAL FERMATHE"/>
    <tag k="pcode" v="11503"/>
    <tag k="source:health_facility" v="HHS_20100120"/>
  </node>
  <node id="631515513" version="2" timestamp="2010-02-08T09:08:18Z" uid="8619" user="cetest" changeset="3821566" lat="18.4505254" lon="-72.2876622">
    <tag k="amenity" v="hospital"/>
    <tag k="attribute_source_type" v="PAHO"/>
    <tag k="geometry_source_type" v="PAHO"/>
    <tag k="health_facility:commune" v="KENSCOFF"/>
    <tag k="health_facility:commune_id" v="11"/>
    <tag k="health_facility:department" v="OUEST"/>
    <tag k="health_facility:paho_id" v="1159007"/>
    <tag k="name" v="KENSCOFF HOSPITAL FERMATHE"/>
    <tag k="pcode" v="11503"/>
    <tag k="source:health_facility" v="HHS_20100120"/>
  </node>
  <node id="631515513" version="3" timestamp="2010-02-13T13:43:47Z" uid="219187" user="jgc" changeset="3864728" lat="18.4505254" lon="-72.2876622">
    <tag k="amenity" v="hospital"/>
    <tag k="attribute_source_type" v="PAHO"/>
    <tag k="geometry_source_type" v="PAHO"/>
    <tag k="health_facility:commune" v="KENSCOFF"/>
    <tag k="health_facility:commune_id" v="11"/>
    <tag k="health_facility:department" v="OUEST"/>
    <tag k="health_facility:paho_id" v="1159007"/>
    <tag k="health_facility:type" v="hospital"/>
    <tag k="name" v="KENSCOFF HOSPITAL FERMATHE"/>
    <tag k="pcode" v="11503"/>
    <tag k="source:health_facility" v="HHS_20100120"/>
  </node>
  <node id="631515513" version="4" timestamp="2010-02-15T16:54:11Z" uid="219187" user="jgc" changeset="3884776" lat="18.4505254" lon="-72.2876622">
    <tag k="amenity" v="hospital"/>
    <tag k="attribute_source_type" v="PAHO"/>
    <tag k="geometry_source_type" v="PAHO"/>
    <tag k="health_facility:commune" v="KENSCOFF"/>
    <tag k="health_facility:commune_id" v="11"/>
    <tag k="health_facility:department" v="OUEST"/>
    <tag k="health_facility:paho_id" v="1159007"/>
    <tag k="health_facility:type" v="hospital"/>
    <tag k="name" v="KENSCOFF HOSPITAL FERMATHE"/>
    <tag k="pcode" v="11503"/>
    <tag k="source:health_facility" v="HHS_20100120"/>
  </node>
  <node id="631515513" version="5" timestamp="2010-02-16T21:35:12Z" uid="231539" user="Xapitoun" changeset="3896573" lat="18.4505255" lon="-72.2876622"/>
  <node id="631515513" version="6" timestamp="2010-02-17T22:20:55Z" uid="231539" user="Xapitoun" changeset="3905194" lat="18.4505255" lon="-72.2876622"/>
  <node id="631518822" version="2" timestamp="2010-07-21T08:44:33Z" uid="115477" user="wowik" changeset="5277068" lat="57.5042676" lon="36.9711498">
    <tag k="name" v="Сутоки"/>
    <tag k="place" v="hamlet"/>
  </node>
  <node id="631518822" version="3" timestamp="2012-01-26T21:14:20Z" uid="384084" user="Kostik" changeset="10507299" lat="57.5042676" lon="36.9711498">
    <tag k="name" v="Сутоки"/>
    <tag k="place" v="hamlet"/>
  </node>
  <node id="631519877" version="2" timestamp="2010-02-11T16:05:09Z" uid="57884" user="EdLoach" changeset="3849503" lat="19.3333252" lon="-72.1166737">
    <tag k="amenity" v="hospital"/>
    <tag k="attribute_source_type" v="PAHO"/>
    <tag k="geometry_source_type" v="PAHO"/>
    <tag k="health_facility:commune" v="PIGNON"/>
    <tag k="health_facility:commune_id" v="44"/>
    <tag k="health_facility:department" v="NORD"/>
    <tag k="health_facility:paho_id" v="3449001"/>
    <tag k="name" v="PIGNON HOSPITAL BIENFAISANCE"/>
    <tag k="pcode" v="95628"/>
    <tag k="source:health_facility" v="HHS_20100120"/>
  </node>
  <node id="631519877" version="3" timestamp="2010-02-12T20:11:21Z" uid="8619" user="cetest" changeset="3859872" lat="19.3330079" lon="-72.1169526">
    <tag k="amenity" v="hospital"/>
    <tag k="attribute_source_type" v="PAHO"/>
    <tag k="geometry_source_type" v="PAHO"/>
    <tag k="health_facility:commune" v="PIGNON"/>
    <tag k="health_facility:commune_id" v="44"/>
    <tag k="health_facility:department" v="NORD"/>
    <tag k="health_facility:paho_id" v="3449001"/>
    <tag k="name" v="PIGNON HOSPITAL BIENFAISANCE"/>
    <tag k="pcode" v="95628"/>
    <tag k="source:health_facility" v="HHS_20100120"/>
  </node>
  <node id="631519877" version="4" timestamp="2010-02-13T13:44:06Z" uid="219187" user="jgc" changeset="3864728" lat="19.3330079" lon="-72.1169526">
    <tag k="amenity" v="hospital"/>
    <tag k="attribute_source_type" v="PAHO"/>
    <tag k="geometry_source_type" v="PAHO"/>
    <tag k="health_facility:commune" v="PIGNON"/>
    <tag k="health_facility:commune_id" v="44"/>
    <tag k="health_facility:department" v="NORD"/>
    <tag k="health_facility:paho_id" v="3449001"/>
    <tag k="health_facility:type" v="hospital"/>
    <tag k="name" v="PIGNON HOSPITAL BIENFAISANCE"/>
    <tag k="pcode" v="95628"/>
    <tag k="source:health_facility" v="HHS_20100120"/>
  </node>
  <node id="631519877" version="5" timestamp="2010-02-15T12:18:37Z" uid="40577" user="guggis" changeset="3882581" lat="19.3330079" lon="-72.1169526">
    <tag k="addr:street" v="Rue D&apos;honneur/Pignon"/>
    <tag k="amenity" v="hospital"/>
    <tag k="health_facility:type" v="hospital"/>
    <tag k="name" v="PIGNON HOSPITAL BIENFAISANCE"/>
    <tag k="paho:commune" v="PIGNON"/>
    <tag k="paho:commune_id" v="44"/>
    <tag k="paho:department" v="NORD"/>
    <tag k="paho:district_id" v="4"/>
    <tag k="paho:id" v="3449001"/>
    <tag k="paho:region_id" v="3"/>
    <tag k="pcode" v="95628"/>
    <tag k="source:health_facility" v="HHS_20100120"/>
  </node>
  <node id="631519877" version="6" timestamp="2010-02-15T17:22:00Z" uid="219187" user="jgc" changeset="3884981" lat="19.3330079" lon="-72.1169526">
    <tag k="addr:street" v="Rue D&apos;honneur/Pignon"/>
    <tag k="amenity" v="hospital"/>
    <tag k="health_facility:type" v="hospital"/>
    <tag k="name" v="PIGNON HOSPITAL BIENFAISANCE"/>
    <tag k="paho:commune" v="PIGNON"/>
    <tag k="paho:commune_id" v="44"/>
    <tag k="paho:department" v="NORD"/>
    <tag k="paho:district_id" v="4"/>
    <tag k="paho:id" v="3449001"/>
    <tag k="paho:region_id" v="3"/>
    <tag k="pcode" v="95628"/>
    <tag k="source:health_facility" v="HHS_20100120"/>
  </node>
  <node id="631519877" version="7" timestamp="2010-02-18T00:37:59Z" uid="79857" user="RDSantiago" changeset="3905927" lat="19.3330079" lon="-72.1169526">
    <tag k="addr:country" v="HT"/>
    <tag k="addr:street" v="Rue D&apos;honneur/Pignon"/>
    <tag k="amenity" v="hospital"/>
    <tag k="health_facility:type" v="hospital"/>
    <tag k="name" v="PIGNON HOSPITAL BIENFAISANCE"/>
    <tag k="paho:commune" v="PIGNON"/>
    <tag k="paho:commune_id" v="44"/>
    <tag k="paho:department" v="NORD"/>
    <tag k="paho:district_id" v="4"/>
    <tag k="paho:id" v="3449001"/>
    <tag k="paho:region_id" v="3"/>
    <tag k="pcode" v="95628"/>
    <tag k="source:health_facility" v="HHS_20100120"/>
  </node>
  <node id="631519877" version="8" timestamp="2010-02-18T16:20:37Z" uid="40577" user="guggis" changeset="3910148" lat="19.333333" lon="-72.116666">
    <tag k="addr:country" v="HT"/>
    <tag k="addr:street" v="Rue D&apos;honneur/Pignon"/>
    <tag k="amenity" v="hospital"/>
    <tag k="health_facility:type" v="hospital"/>
    <tag k="name" v="PIGNON HOSPITAL BIENFAISANCE"/>
    <tag k="paho:commune" v="PIGNON"/>
    <tag k="paho:commune_id" v="44"/>
    <tag k="paho:department" v="NORD"/>
    <tag k="paho:district_id" v="4"/>
    <tag k="paho:id" v="3449001"/>
    <tag k="paho:region_id" v="3"/>
    <tag k="pcode" v="95628"/>
    <tag k="source:health_facility" v="HHS_20100120"/>
  </node>
  <node id="631519877" version="9" timestamp="2010-02-21T16:53:22Z" uid="79857" user="RDSantiago" changeset="3935016" lat="19.333333" lon="-72.116666">
    <tag k="addr:country" v="HT"/>
    <tag k="addr:street" v="Rue D&apos;honneur/Pignon"/>
    <tag k="amenity" v="hospital"/>
    <tag k="health_facility:type" v="hospital"/>
    <tag k="name" v="PIGNON HOSPITAL BIENFAISANCE"/>
    <tag k="paho:commune" v="PIGNON"/>
    <tag k="paho:commune_id" v="44"/>
    <tag k="paho:department" v="NORD"/>
    <tag k="paho:district_id" v="4"/>
    <tag k="paho:id" v="3449001"/>
    <tag k="paho:region_id" v="3"/>
    <tag k="pcode" v="95628"/>
    <tag k="source:health_facility" v="HHS_20100120"/>
  </node>
  <node id="631519877" version="10" timestamp="2010-03-24T11:52:11Z" uid="40577" user="guggis" changeset="4220531" lat="19.333333" lon="-72.116666">
    <tag k="addr:country" v="HT"/>
    <tag k="addr:street" v="Rue D&apos;honneur/Pignon"/>
    <tag k="amenity" v="hospital"/>
    <tag k="health_facility:type" v="hospital"/>
    <tag k="name" v="PIGNON HOSPITAL BIENFAISANCE"/>
    <tag k="paho:commune" v="PIGNON"/>
    <tag k="paho:commune_id" v="44"/>
    <tag k="paho:department" v="NORD"/>
    <tag k="paho:district_id" v="4"/>
    <tag k="paho:id" v="3449001"/>
    <tag k="paho:region_id" v="3"/>
    <tag k="pcode" v="95628"/>
    <tag k="source:health_facility" v="HHS_20100120"/>
  </node>
</osm>
