<?xml version='1.0' encoding='UTF-8'?>
<osm version="0.6" generator="libosmium/2.20.0">
  <node id="631533980" version="2" timestamp="2010-05-13T10:11:14Z" uid="58091" user="Andreas M" changeset="4684255" lat="48.2063859" lon="16.3510707">
    <tag k="amenity" v="restaurant"/>
    <tag k="cuisine" v="greek"/>
    <tag k="name" v="La Grece"/>
  </node>
  <node id="631533980" version="3" timestamp="2010-08-02T13:43:49Z" uid="99078" user="ulrich-dtmd" changeset="5380805" lat="48.2064293" lon="16.3510707">
    <tag k="amenity" v="restaurant"/>
    <tag k="cuisine" v="greek"/>
    <tag k="name" v="La Grece"/>
  </node>
  <node id="631533980" version="4" timestamp="2011-11-09T21:24:20Z" uid="290680" user="wheelmap_visitor" changeset="9779156" lat="48.2064293" lon="16.3510707">
    <tag k="amenity" v="restaurant"/>
    <tag k="cuisine" v="greek"/>
    <tag k="name" v="La Grece"/>
    <tag k="wheelchair" v="limited"/>
  </node>
  <node id="631533987" version="2" timestamp="2010-05-13T10:11:14Z" uid="58091" user="Andreas M" changeset="4684255" lat="48.2065954" lon="16.3532271">
    <tag k="amenity" v="telephone"/>
    <tag k="operator" v="Telekom Austria"/>
  </node>
  <node id="631535308" version="2" timestamp="2010-02-06T15:38:20Z" uid="43863" user="Rundling" changeset="3806149" lat="52.9663454" lon="10.5859915"/>
  <node id="631535340" version="2" timestamp="2010-02-06T15:38:20Z" uid="43863" user="Rundling" changeset="3806149" lat="52.9664239" lon="10.58594"/>
</osm>
