<?xml version='1.0' encoding='UTF-8'?>
<osm version="0.6" generator="libosmium/2.20.0">
  <node id="63161775" version="2" timestamp="2008-02-28T07:56:48Z" uid="6975" user="ulfl" changeset="224230" lat="49.4615663" lon="11.1115617">
    <tag k="name" v="Museum Industriekultur"/>
    <tag k="tourism" v="museum"/>
  </node>
  <node id="63161775" version="3" timestamp="2008-03-10T22:10:23Z" uid="17099" user="matmai" changeset="304597" lat="49.4614253" lon="11.1115265">
    <tag k="name" v="Museum Industriekultur"/>
    <tag k="tourism" v="museum"/>
  </node>
  <node id="63161775" version="4" timestamp="2008-04-03T09:55:55Z" uid="33053" user="Smurf" changeset="31807" lat="49.4612875" lon="11.1111919">
    <tag k="created_by" v="Potlatch 0.8a"/>
    <tag k="name" v="Museum Industriekultur"/>
    <tag k="tourism" v="museum"/>
  </node>
  <node id="63161775" version="5" timestamp="2008-11-27T20:23:57Z" uid="70581" user="rsl" changeset="802281" lat="49.4612008" lon="11.1111397">
    <tag k="created_by" v="Potlatch 0.8a"/>
    <tag k="name" v="Museum Industriekultur"/>
    <tag k="tourism" v="museum"/>
  </node>
  <node id="63161775" version="6" timestamp="2008-12-06T13:23:52Z" uid="70581" user="rsl" changeset="175766" lat="49.4612008" lon="11.1111397">
    <tag k="created_by" v="Potlatch 0.8a"/>
    <tag k="name" v="Museum Industriekultur"/>
    <tag k="old_name" v="Tafelwerk"/>
    <tag k="tourism" v="museum"/>
    <tag k="wikipedia:de" v="Museum_Industriekultur_(Nürnberg)"/>
  </node>
  <node id="63161775" version="7" timestamp="2010-01-03T16:58:40Z" uid="203915" user="Salvo" changeset="3530112" lat="49.4612008" lon="11.1111397">
    <tag k="created_by" v="Potlatch 0.8a"/>
    <tag k="name" v="Museum Industriekultur"/>
    <tag k="old_name" v="Tafelwerk"/>
    <tag k="tourism" v="museum"/>
    <tag k="wikipedia:de" v="Museum_Industriekultur_(Nürnberg)"/>
  </node>
</osm>
