<?xml version='1.0' encoding='UTF-8'?>
<osm version="0.6" generator="libosmium/2.20.0">
  <node id="63290228" version="5" timestamp="2007-12-08T18:08:37Z" uid="4667" user="MapZ" changeset="187222" lat="49.4641288" lon="8.4807597">
    <tag k="created_by" v="Potlatch 0.4a"/>
    <tag k="is_in" v="Mannheim,Baden-Wuerttemberg,Germany"/>
    <tag k="name" v="Almenhof"/>
    <tag k="place" v="suburb"/>
  </node>
  <node id="63290228" version="6" timestamp="2008-06-11T06:28:31Z" uid="36981" user="akr75" changeset="134485" lat="49.4640993" lon="8.4807659">
    <tag k="created_by" v="Potlatch 0.9c"/>
    <tag k="is_in" v="Mannheim,Baden-Wuerttemberg,Germany"/>
    <tag k="name" v="Almenhof"/>
    <tag k="place" v="suburb"/>
  </node>
  <node id="63290228" version="7" timestamp="2008-10-19T17:17:15Z" uid="7562" user="LosHawlos" changeset="442518" lat="49.4642091" lon="8.4821081">
    <tag k="created_by" v="Potlatch 0.9c"/>
    <tag k="is_in" v="Mannheim,Baden-Wuerttemberg,Germany"/>
    <tag k="name" v="Almenhof"/>
    <tag k="place" v="suburb"/>
  </node>
  <node id="63290228" version="8" timestamp="2008-11-03T16:54:08Z" uid="76798" user="is_in-bot" changeset="665803" lat="49.4642091" lon="8.4821081">
    <tag k="created_by" v="is_in-bot"/>
    <tag k="is_in" v="Mannheim,Baden-Württemberg,Bundesrepublik Deutschland,Europe"/>
    <tag k="name" v="Almenhof"/>
    <tag k="place" v="suburb"/>
  </node>
  <node id="63290228" version="9" timestamp="2009-08-03T20:01:43Z" uid="151834" user="ahone" changeset="2029756" lat="49.4642091" lon="8.4821081">
    <tag k="is_in" v="Mannheim,Baden-Württemberg,Bundesrepublik Deutschland,Europe"/>
    <tag k="name" v="Almenhof Apotheke"/>
    <tag k="place" v="suburb"/>
  </node>
  <node id="63290228" version="10" timestamp="2009-08-04T18:21:25Z" uid="151834" user="ahone" changeset="2038401" lat="49.4641954" lon="8.4821488">
    <tag k="is_in" v="Mannheim,Baden-Württemberg,Bundesrepublik Deutschland,Europe"/>
    <tag k="name" v="Almenhof"/>
    <tag k="place" v="suburb"/>
  </node>
  <node id="63290228" version="11" timestamp="2009-08-05T18:46:23Z" uid="151834" user="ahone" changeset="2048971" lat="49.4641784" lon="8.4821209">
    <tag k="is_in" v="Mannheim,Baden-Württemberg,Bundesrepublik Deutschland,Europe"/>
    <tag k="name" v="Almenhof"/>
    <tag k="place" v="suburb"/>
  </node>
  <node id="63290228" version="12" timestamp="2011-12-07T20:30:32Z" uid="565998" user="telemann" changeset="10060801" lat="49.4600293" lon="8.4866828">
    <tag k="is_in" v="Mannheim,Baden-Württemberg,Bundesrepublik Deutschland,Europe"/>
    <tag k="name" v="Almenhof"/>
    <tag k="place" v="suburb"/>
  </node>
  <node id="63290228" version="13" timestamp="2012-01-22T18:13:44Z" uid="564585" user="wegavision" changeset="10467844" lat="49.4591269" lon="8.48649">
    <tag k="is_in" v="Mannheim,Baden-Württemberg,Bundesrepublik Deutschland,Europe"/>
    <tag k="name" v="Almenhof"/>
    <tag k="place" v="suburb"/>
  </node>
  <node id="63290234" version="2" timestamp="2007-12-08T18:06:51Z" uid="4667" user="MapZ" changeset="187222" lat="49.4557126" lon="8.4769015">
    <tag k="created_by" v="JOSM"/>
    <tag k="name" v="Niederfeld"/>
    <tag k="place" v="suburb"/>
  </node>
  <node id="63290234" version="3" timestamp="2007-12-08T18:08:36Z" uid="4667" user="MapZ" changeset="187222" lat="49.4557126" lon="8.4769015">
    <tag k="created_by" v="JOSM"/>
    <tag k="is_in" v="Mannheim,Baden-Wuerttemberg,Germany"/>
    <tag k="name" v="Niederfeld"/>
    <tag k="place" v="suburb"/>
  </node>
  <node id="63290234" version="4" timestamp="2008-11-03T16:54:08Z" uid="76798" user="is_in-bot" changeset="665803" lat="49.4557126" lon="8.4769015">
    <tag k="created_by" v="is_in-bot"/>
    <tag k="is_in" v="Mannheim,Baden-Württemberg,Bundesrepublik Deutschland,Europe"/>
    <tag k="name" v="Niederfeld"/>
    <tag k="place" v="suburb"/>
  </node>
</osm>
