<?xml version='1.0' encoding='UTF-8'?>
<osm version="0.6" generator="libosmium/2.20.0">
  <node id="634450299" version="1" timestamp="2010-02-09T18:21:32Z" uid="59758" user="rendle" changeset="3834629" lat="18.5275674" lon="-72.3148785"/>
  <node id="634450300" version="1" timestamp="2010-02-09T18:21:32Z" uid="59758" user="rendle" changeset="3834629" lat="18.5271605" lon="-72.3149644"/>
  <node id="634450301" version="1" timestamp="2010-02-09T18:21:32Z" uid="59758" user="rendle" changeset="3834629" lat="18.5269316" lon="-72.3141812"/>
  <node id="634450302" version="1" timestamp="2010-02-09T18:21:32Z" uid="59758" user="rendle" changeset="3834629" lat="18.5271045" lon="-72.3140095"/>
  <node id="634450303" version="1" timestamp="2010-02-09T18:21:32Z" uid="59758" user="rendle" changeset="3834629" lat="18.5272266" lon="-72.3138754"/>
  <node id="634450304" version="1" timestamp="2010-02-09T18:21:32Z" uid="59758" user="rendle" changeset="3834629" lat="18.527425" lon="-72.3139022"/>
  <node id="634450305" version="1" timestamp="2010-02-09T18:21:33Z" uid="59758" user="rendle" changeset="3834629" lat="18.527425" lon="-72.3142026"/>
  <node id="634450306" version="1" timestamp="2010-02-09T18:21:33Z" uid="59758" user="rendle" changeset="3834629" lat="18.5275267" lon="-72.3143206"/>
  <node id="634450518" version="1" timestamp="2010-02-09T18:22:32Z" uid="8619" user="cetest" changeset="3834642" lat="19.3094394" lon="-72.1782368">
    <tag k="name" v="Chèche"/>
    <tag k="place" v="locality"/>
  </node>
  <node id="634450518" version="2" timestamp="2010-02-18T00:37:59Z" uid="79857" user="RDSantiago" changeset="3905927" lat="19.3094394" lon="-72.1782368">
    <tag k="addr:country" v="HT"/>
    <tag k="name" v="Chèche"/>
    <tag k="place" v="locality"/>
  </node>
  <node id="634450519" version="1" timestamp="2010-02-09T18:22:32Z" uid="8619" user="cetest" changeset="3834642" lat="19.3265441" lon="-72.172178">
    <tag k="ele" v="328"/>
    <tag k="name" v="Bouhaya"/>
    <tag k="natural" v="peak"/>
  </node>
  <node id="634450520" version="1" timestamp="2010-02-09T18:22:32Z" uid="8619" user="cetest" changeset="3834642" lat="19.2986477" lon="-72.158012">
    <tag k="name" v="Lan Claire"/>
    <tag k="place" v="locality"/>
  </node>
  <node id="634450520" version="2" timestamp="2010-02-18T00:37:59Z" uid="79857" user="RDSantiago" changeset="3905927" lat="19.2986477" lon="-72.158012">
    <tag k="addr:country" v="HT"/>
    <tag k="name" v="Lan Claire"/>
    <tag k="place" v="locality"/>
  </node>
  <node id="634450521" version="1" timestamp="2010-02-09T18:22:32Z" uid="8619" user="cetest" changeset="3834642" lat="19.304235" lon="-72.1509998">
    <tag k="ele" v="317"/>
    <tag k="natural" v="peak"/>
  </node>
  <node id="634450522" version="1" timestamp="2010-02-09T18:22:32Z" uid="8619" user="cetest" changeset="3834642" lat="19.3070825" lon="-72.1499994">
    <tag k="name" v="Louis Gilbert"/>
    <tag k="place" v="locality"/>
  </node>
  <node id="634450522" version="2" timestamp="2010-02-18T00:37:59Z" uid="79857" user="RDSantiago" changeset="3905927" lat="19.3070825" lon="-72.1499994">
    <tag k="addr:country" v="HT"/>
    <tag k="name" v="Louis Gilbert"/>
    <tag k="place" v="locality"/>
  </node>
  <node id="634450523" version="1" timestamp="2010-02-09T18:22:32Z" uid="8619" user="cetest" changeset="3834642" lat="19.2986375" lon="-72.1174967">
    <tag k="ele" v="339"/>
    <tag k="natural" v="peak"/>
  </node>
  <node id="634450524" version="1" timestamp="2010-02-09T18:22:32Z" uid="8619" user="cetest" changeset="3834642" lat="19.3037189" lon="-72.134427">
    <tag k="ele" v="315"/>
    <tag k="natural" v="peak"/>
  </node>
  <node id="634450525" version="1" timestamp="2010-02-09T18:22:32Z" uid="8619" user="cetest" changeset="3834642" lat="19.3071552" lon="-72.1315601">
    <tag k="name" v="Pied Louis"/>
    <tag k="place" v="locality"/>
  </node>
  <node id="634450525" version="2" timestamp="2010-02-18T00:37:59Z" uid="79857" user="RDSantiago" changeset="3905927" lat="19.3071552" lon="-72.1315601">
    <tag k="addr:country" v="HT"/>
    <tag k="name" v="Pied Louis"/>
    <tag k="place" v="locality"/>
  </node>
  <node id="634450526" version="1" timestamp="2010-02-09T18:22:32Z" uid="8619" user="cetest" changeset="3834642" lat="19.324193" lon="-72.1532096">
    <tag k="name" v="Nan Manuel"/>
    <tag k="place" v="locality"/>
  </node>
  <node id="634450526" version="2" timestamp="2010-02-18T00:37:59Z" uid="79857" user="RDSantiago" changeset="3905927" lat="19.324193" lon="-72.1532096">
    <tag k="addr:country" v="HT"/>
    <tag k="name" v="Nan Manuel"/>
    <tag k="place" v="locality"/>
  </node>
  <node id="634450527" version="1" timestamp="2010-02-09T18:22:32Z" uid="8619" user="cetest" changeset="3834642" lat="19.3201942" lon="-72.1407027">
    <tag k="name" v="Baliares"/>
    <tag k="place" v="locality"/>
  </node>
  <node id="634450527" version="2" timestamp="2010-02-18T00:37:59Z" uid="79857" user="RDSantiago" changeset="3905927" lat="19.3201942" lon="-72.1407027">
    <tag k="addr:country" v="HT"/>
    <tag k="name" v="Baliares"/>
    <tag k="place" v="locality"/>
  </node>
  <node id="634450528" version="1" timestamp="2010-02-09T18:22:32Z" uid="8619" user="cetest" changeset="3834642" lat="19.3305972" lon="-72.1575196">
    <tag k="name" v="Quanalope"/>
    <tag k="place" v="locality"/>
  </node>
  <node id="634450528" version="2" timestamp="2010-02-18T00:37:59Z" uid="79857" user="RDSantiago" changeset="3905927" lat="19.3305972" lon="-72.1575196">
    <tag k="addr:country" v="HT"/>
    <tag k="name" v="Quanalope"/>
    <tag k="place" v="locality"/>
  </node>
  <node id="634450529" version="1" timestamp="2010-02-09T18:22:32Z" uid="8619" user="cetest" changeset="3834642" lat="19.3142807" lon="-72.1261156">
    <tag k="name" v="Lacoste"/>
    <tag k="place" v="locality"/>
  </node>
  <node id="634450529" version="2" timestamp="2010-02-18T00:37:59Z" uid="79857" user="RDSantiago" changeset="3905927" lat="19.3142807" lon="-72.1261156">
    <tag k="addr:country" v="HT"/>
    <tag k="name" v="Lacoste"/>
    <tag k="place" v="locality"/>
  </node>
  <node id="634450530" version="1" timestamp="2010-02-09T18:22:33Z" uid="8619" user="cetest" changeset="3834642" lat="19.2951882" lon="-72.0861381">
    <tag k="name" v="Lejène"/>
    <tag k="place" v="locality"/>
  </node>
  <node id="634450530" version="2" timestamp="2010-02-18T00:38:00Z" uid="79857" user="RDSantiago" changeset="3905927" lat="19.2951882" lon="-72.0861381">
    <tag k="addr:country" v="HT"/>
    <tag k="name" v="Lejène"/>
    <tag k="place" v="locality"/>
  </node>
  <node id="634450531" version="1" timestamp="2010-02-09T18:22:33Z" uid="8619" user="cetest" changeset="3834642" lat="19.3013892" lon="-72.089502">
    <tag k="name" v="Cim"/>
    <tag k="place" v="locality"/>
  </node>
  <node id="634450531" version="2" timestamp="2010-02-12T20:55:08Z" uid="8619" user="cetest" changeset="3860230" lat="19.3014486" lon="-72.0902839">
    <tag k="name" v="Cim"/>
    <tag k="place" v="locality"/>
  </node>
  <node id="634450531" version="3" timestamp="2010-02-18T00:38:00Z" uid="79857" user="RDSantiago" changeset="3905927" lat="19.3014486" lon="-72.0902839">
    <tag k="addr:country" v="HT"/>
    <tag k="name" v="Cim"/>
    <tag k="place" v="locality"/>
  </node>
  <node id="634450531" version="4" timestamp="2010-11-18T15:01:37Z" uid="226516" user="PierreB" changeset="6400661" lat="19.3014486" lon="-72.0902839">
    <tag k="addr:country" v="HT"/>
    <tag k="landuse" v="cemetery"/>
  </node>
  <node id="634450532" version="1" timestamp="2010-02-09T18:22:33Z" uid="8619" user="cetest" changeset="3834642" lat="19.2740484" lon="-72.0398423">
    <tag k="name" v="Cayahonde"/>
    <tag k="place" v="locality"/>
  </node>
  <node id="634450532" version="2" timestamp="2010-02-18T00:38:13Z" uid="79857" user="RDSantiago" changeset="3905927" lat="19.2740484" lon="-72.0398423">
    <tag k="addr:country" v="HT"/>
    <tag k="name" v="Cayahonde"/>
    <tag k="place" v="locality"/>
  </node>
  <node id="634450533" version="1" timestamp="2010-02-09T18:22:33Z" uid="8619" user="cetest" changeset="3834642" lat="19.2683924" lon="-71.9971422">
    <tag k="name" v="La Sienne"/>
    <tag k="place" v="locality"/>
  </node>
  <node id="634450533" version="2" timestamp="2010-02-18T00:38:13Z" uid="79857" user="RDSantiago" changeset="3905927" lat="19.2683924" lon="-71.9971422">
    <tag k="addr:country" v="HT"/>
    <tag k="name" v="La Sienne"/>
    <tag k="place" v="locality"/>
  </node>
  <node id="634450534" version="1" timestamp="2010-02-09T18:22:33Z" uid="8619" user="cetest" changeset="3834642" lat="19.2662144" lon="-72.0014466">
    <tag k="ele" v="610"/>
    <tag k="natural" v="peak"/>
  </node>
  <node id="634450535" version="1" timestamp="2010-02-09T18:22:33Z" uid="8619" user="cetest" changeset="3834642" lat="19.264524" lon="-71.9984163">
    <tag k="ele" v="637"/>
    <tag k="natural" v="peak"/>
  </node>
  <node id="634450536" version="1" timestamp="2010-02-09T18:22:33Z" uid="8619" user="cetest" changeset="3834642" lat="19.2538288" lon="-71.9827481">
    <tag k="name" v="Céde"/>
    <tag k="place" v="locality"/>
  </node>
  <node id="634450536" version="2" timestamp="2010-02-18T00:38:13Z" uid="79857" user="RDSantiago" changeset="3905927" lat="19.2538288" lon="-71.9827481">
    <tag k="addr:country" v="HT"/>
    <tag k="name" v="Céde"/>
    <tag k="place" v="locality"/>
  </node>
  <node id="634450537" version="1" timestamp="2010-02-09T18:22:33Z" uid="8619" user="cetest" changeset="3834642" lat="19.2800943" lon="-72.019422">
    <tag k="ele" v="650"/>
    <tag k="natural" v="peak"/>
  </node>
  <node id="634450538" version="1" timestamp="2010-02-09T18:22:33Z" uid="8619" user="cetest" changeset="3834642" lat="19.2753811" lon="-72.0046836">
    <tag k="name" v="Laboc"/>
    <tag k="place" v="locality"/>
  </node>
  <node id="634450538" version="2" timestamp="2010-02-18T00:38:13Z" uid="79857" user="RDSantiago" changeset="3905927" lat="19.2753811" lon="-72.0046836">
    <tag k="addr:country" v="HT"/>
    <tag k="name" v="Laboc"/>
    <tag k="place" v="locality"/>
  </node>
  <node id="634450539" version="1" timestamp="2010-02-09T18:22:33Z" uid="8619" user="cetest" changeset="3834642" lat="19.2899103" lon="-72.0228656">
    <tag k="name" v="Lblanc"/>
    <tag k="place" v="locality"/>
  </node>
  <node id="634450539" version="2" timestamp="2010-02-18T00:38:13Z" uid="79857" user="RDSantiago" changeset="3905927" lat="19.2899103" lon="-72.0228656">
    <tag k="addr:country" v="HT"/>
    <tag k="name" v="Lblanc"/>
    <tag k="place" v="locality"/>
  </node>
  <node id="634450540" version="1" timestamp="2010-02-09T18:22:33Z" uid="8619" user="cetest" changeset="3834642" lat="19.293388" lon="-72.006061">
    <tag k="ele" v="733"/>
    <tag k="natural" v="peak"/>
  </node>
  <node id="634450541" version="1" timestamp="2010-02-09T18:22:33Z" uid="8619" user="cetest" changeset="3834642" lat="19.2667345" lon="-71.970248">
    <tag k="ele" v="610"/>
    <tag k="natural" v="peak"/>
  </node>
  <node id="634450542" version="1" timestamp="2010-02-09T18:22:33Z" uid="8619" user="cetest" changeset="3834642" lat="19.2512828" lon="-71.9543622">
    <tag k="ele" v="479"/>
    <tag k="natural" v="peak"/>
  </node>
  <node id="634450543" version="1" timestamp="2010-02-09T18:22:33Z" uid="8619" user="cetest" changeset="3834642" lat="19.2580549" lon="-71.9450067">
    <tag k="name" v="René"/>
    <tag k="place" v="locality"/>
  </node>
  <node id="634450543" version="2" timestamp="2010-02-18T00:38:14Z" uid="79857" user="RDSantiago" changeset="3905927" lat="19.2580549" lon="-71.9450067">
    <tag k="addr:country" v="HT"/>
    <tag k="name" v="René"/>
    <tag k="place" v="locality"/>
  </node>
  <node id="634450544" version="1" timestamp="2010-02-09T18:22:33Z" uid="8619" user="cetest" changeset="3834642" lat="19.2617609" lon="-71.9486913">
    <tag k="ele" v="435"/>
    <tag k="natural" v="peak"/>
  </node>
  <node id="634450545" version="1" timestamp="2010-02-09T18:22:33Z" uid="8619" user="cetest" changeset="3834642" lat="19.2827272" lon="-71.9818528">
    <tag k="name" v="Etriac"/>
    <tag k="place" v="locality"/>
  </node>
  <node id="634450545" version="2" timestamp="2010-02-18T00:38:15Z" uid="79857" user="RDSantiago" changeset="3905927" lat="19.2827272" lon="-71.9818528">
    <tag k="addr:country" v="HT"/>
    <tag k="name" v="Etriac"/>
    <tag k="place" v="locality"/>
  </node>
  <node id="634450546" version="1" timestamp="2010-02-09T18:22:34Z" uid="8619" user="cetest" changeset="3834642" lat="19.2769725" lon="-71.9447035">
    <tag k="name" v="Digo"/>
    <tag k="place" v="locality"/>
  </node>
  <node id="634450546" version="2" timestamp="2010-02-18T00:38:15Z" uid="79857" user="RDSantiago" changeset="3905927" lat="19.2769725" lon="-71.9447035">
    <tag k="addr:country" v="HT"/>
    <tag k="name" v="Digo"/>
    <tag k="place" v="locality"/>
  </node>
  <node id="634450547" version="1" timestamp="2010-02-09T18:22:34Z" uid="8619" user="cetest" changeset="3834642" lat="19.2572397" lon="-71.9285235">
    <tag k="name" v="Corosier"/>
    <tag k="place" v="locality"/>
  </node>
  <node id="634450547" version="2" timestamp="2010-02-18T00:38:15Z" uid="79857" user="RDSantiago" changeset="3905927" lat="19.2572397" lon="-71.9285235">
    <tag k="addr:country" v="HT"/>
    <tag k="name" v="Corosier"/>
    <tag k="place" v="locality"/>
  </node>
  <node id="634450548" version="1" timestamp="2010-02-09T18:22:34Z" uid="8619" user="cetest" changeset="3834642" lat="19.2527471" lon="-71.9087831">
    <tag k="name" v="D&apos;Lo Contrée"/>
    <tag k="place" v="locality"/>
  </node>
  <node id="634450548" version="2" timestamp="2010-02-18T00:38:15Z" uid="79857" user="RDSantiago" changeset="3905927" lat="19.2527471" lon="-71.9087831">
    <tag k="addr:country" v="HT"/>
    <tag k="name" v="D&apos;Lo Contrée"/>
    <tag k="place" v="locality"/>
  </node>
  <node id="634450549" version="1" timestamp="2010-02-09T18:22:34Z" uid="8619" user="cetest" changeset="3834642" lat="19.2639951" lon="-71.9145642">
    <tag k="ele" v="518"/>
    <tag k="natural" v="peak"/>
  </node>
  <node id="634450550" version="1" timestamp="2010-02-09T18:22:34Z" uid="8619" user="cetest" changeset="3834642" lat="19.2805994" lon="-71.931978">
    <tag k="ele" v="499"/>
    <tag k="natural" v="peak"/>
  </node>
  <node id="634450551" version="1" timestamp="2010-02-09T18:22:34Z" uid="8619" user="cetest" changeset="3834642" lat="19.279335" lon="-71.9216496">
    <tag k="name" v="Bourgeois"/>
    <tag k="place" v="locality"/>
  </node>
  <node id="634450551" version="2" timestamp="2010-02-18T00:38:16Z" uid="79857" user="RDSantiago" changeset="3905927" lat="19.279335" lon="-71.9216496">
    <tag k="addr:country" v="HT"/>
    <tag k="name" v="Bourgeois"/>
    <tag k="place" v="locality"/>
  </node>
  <node id="634450552" version="1" timestamp="2010-02-09T18:22:34Z" uid="8619" user="cetest" changeset="3834642" lat="19.275575" lon="-71.9082896">
    <tag k="ele" v="850"/>
    <tag k="natural" v="peak"/>
  </node>
  <node id="634450553" version="1" timestamp="2010-02-09T18:22:34Z" uid="8619" user="cetest" changeset="3834642" lat="19.2573728" lon="-71.8943656">
    <tag k="ele" v="659"/>
    <tag k="natural" v="peak"/>
  </node>
  <node id="634454212" version="1" timestamp="2010-02-09T18:26:07Z" uid="8619" user="cetest" changeset="3834666" lat="19.2485266" lon="-71.8967356"/>
  <node id="634454215" version="1" timestamp="2010-02-09T18:26:07Z" uid="8619" user="cetest" changeset="3834666" lat="19.2488557" lon="-71.8989822"/>
  <node id="634454218" version="1" timestamp="2010-02-09T18:26:07Z" uid="8619" user="cetest" changeset="3834666" lat="19.2483347" lon="-71.8986626"/>
  <node id="634454221" version="1" timestamp="2010-02-09T18:26:07Z" uid="8619" user="cetest" changeset="3834666" lat="19.2482889" lon="-71.8977814"/>
  <node id="634454223" version="1" timestamp="2010-02-09T18:26:07Z" uid="8619" user="cetest" changeset="3834666" lat="19.2485632" lon="-71.8959126"/>
  <node id="634454228" version="1" timestamp="2010-02-09T18:26:07Z" uid="8619" user="cetest" changeset="3834666" lat="19.2487643" lon="-71.8956414"/>
  <node id="634454230" version="1" timestamp="2010-02-09T18:26:07Z" uid="8619" user="cetest" changeset="3834666" lat="19.2487186" lon="-71.8948958"/>
  <node id="634454232" version="1" timestamp="2010-02-09T18:26:07Z" uid="8619" user="cetest" changeset="3834666" lat="19.2532417" lon="-71.894922"/>
  <node id="634454236" version="1" timestamp="2010-02-09T18:26:07Z" uid="8619" user="cetest" changeset="3834666" lat="19.2527418" lon="-71.8950733"/>
  <node id="634454238" version="1" timestamp="2010-02-09T18:26:07Z" uid="8619" user="cetest" changeset="3834666" lat="19.2522954" lon="-71.8949787"/>
  <node id="634454241" version="1" timestamp="2010-02-09T18:26:07Z" uid="8619" user="cetest" changeset="3834666" lat="19.2520633" lon="-71.8947707"/>
  <node id="634454242" version="1" timestamp="2010-02-09T18:26:07Z" uid="8619" user="cetest" changeset="3834666" lat="19.2543487" lon="-71.9034706"/>
  <node id="634454247" version="1" timestamp="2010-02-09T18:26:07Z" uid="8619" user="cetest" changeset="3834666" lat="19.2543666" lon="-71.902941"/>
  <node id="634454249" version="1" timestamp="2010-02-09T18:26:07Z" uid="8619" user="cetest" changeset="3834666" lat="19.2542773" lon="-71.9023547"/>
  <node id="634454253" version="1" timestamp="2010-02-09T18:26:08Z" uid="8619" user="cetest" changeset="3834666" lat="19.2546522" lon="-71.9015036"/>
  <node id="634454256" version="1" timestamp="2010-02-09T18:26:08Z" uid="8619" user="cetest" changeset="3834666" lat="19.2550629" lon="-71.9009552"/>
  <node id="634454261" version="1" timestamp="2010-02-09T18:26:08Z" uid="8619" user="cetest" changeset="3834666" lat="19.25542" lon="-71.9006715"/>
  <node id="634454265" version="1" timestamp="2010-02-09T18:26:08Z" uid="8619" user="cetest" changeset="3834666" lat="19.2545808" lon="-71.8980048"/>
  <node id="634454269" version="1" timestamp="2010-02-09T18:26:08Z" uid="8619" user="cetest" changeset="3834666" lat="19.2544558" lon="-71.8974941"/>
  <node id="634454274" version="1" timestamp="2010-02-09T18:26:08Z" uid="8619" user="cetest" changeset="3834666" lat="19.2540809" lon="-71.8974374"/>
  <node id="634454276" version="1" timestamp="2010-02-09T18:26:08Z" uid="8619" user="cetest" changeset="3834666" lat="19.2554914" lon="-71.8999717"/>
  <node id="634454278" version="1" timestamp="2010-02-09T18:26:08Z" uid="8619" user="cetest" changeset="3834666" lat="19.2552057" lon="-71.8990639"/>
  <node id="634454281" version="1" timestamp="2010-02-09T18:26:08Z" uid="8619" user="cetest" changeset="3834666" lat="19.2551522" lon="-71.8983641"/>
  <node id="634454283" version="1" timestamp="2010-02-09T18:26:08Z" uid="8619" user="cetest" changeset="3834666" lat="19.2551343" lon="-71.8980426"/>
  <node id="634454285" version="1" timestamp="2010-02-09T18:26:08Z" uid="8619" user="cetest" changeset="3834666" lat="19.254188" lon="-71.8971159"/>
  <node id="634454287" version="1" timestamp="2010-02-09T18:26:08Z" uid="8619" user="cetest" changeset="3834666" lat="19.2535988" lon="-71.8966241"/>
  <node id="634454290" version="1" timestamp="2010-02-09T18:26:08Z" uid="8619" user="cetest" changeset="3834666" lat="19.2535452" lon="-71.8961324"/>
  <node id="634454292" version="1" timestamp="2010-02-09T18:26:08Z" uid="8619" user="cetest" changeset="3834666" lat="19.2537238" lon="-71.8959054"/>
  <node id="634454295" version="1" timestamp="2010-02-09T18:26:08Z" uid="8619" user="cetest" changeset="3834666" lat="19.2540095" lon="-71.895792"/>
  <node id="634454296" version="1" timestamp="2010-02-09T18:26:08Z" uid="8619" user="cetest" changeset="3834666" lat="19.2542416" lon="-71.8958298"/>
  <node id="634454299" version="1" timestamp="2010-02-09T18:26:08Z" uid="8619" user="cetest" changeset="3834666" lat="19.2541523" lon="-71.8954515"/>
  <node id="634454300" version="1" timestamp="2010-02-09T18:26:08Z" uid="8619" user="cetest" changeset="3834666" lat="19.2542952" lon="-71.8951868"/>
  <node id="634454303" version="1" timestamp="2010-02-09T18:26:08Z" uid="8619" user="cetest" changeset="3834666" lat="19.2547415" lon="-71.8949976"/>
  <node id="634454304" version="1" timestamp="2010-02-09T18:26:08Z" uid="8619" user="cetest" changeset="3834666" lat="19.2537595" lon="-71.8945815"/>
  <node id="634454305" version="1" timestamp="2010-02-09T18:26:08Z" uid="8619" user="cetest" changeset="3834666" lat="19.2535988" lon="-71.8948274"/>
  <node id="634454308" version="1" timestamp="2010-02-09T18:26:08Z" uid="8619" user="cetest" changeset="3834666" lat="19.2475816" lon="-71.8921796"/>
  <node id="634454311" version="1" timestamp="2010-02-09T18:26:08Z" uid="8619" user="cetest" changeset="3834666" lat="19.2474566" lon="-71.8918392"/>
  <node id="634454312" version="1" timestamp="2010-02-09T18:26:08Z" uid="8619" user="cetest" changeset="3834666" lat="19.2466352" lon="-71.8912151"/>
  <node id="634454314" version="1" timestamp="2010-02-09T18:26:08Z" uid="8619" user="cetest" changeset="3834666" lat="19.2459746" lon="-71.8908368"/>
  <node id="634454315" version="1" timestamp="2010-02-09T18:26:08Z" uid="8619" user="cetest" changeset="3834666" lat="19.2457067" lon="-71.8905342"/>
  <node id="634454332" version="1" timestamp="2010-02-09T18:26:09Z" uid="8619" user="cetest" changeset="3834666" lat="19.2456174" lon="-71.8902316"/>
  <node id="634454335" version="1" timestamp="2010-02-09T18:26:09Z" uid="8619" user="cetest" changeset="3834666" lat="19.2457781" lon="-71.8897399"/>
  <node id="634454339" version="1" timestamp="2010-02-09T18:26:09Z" uid="8619" user="cetest" changeset="3834666" lat="19.2458496" lon="-71.8893049"/>
  <node id="634454342" version="1" timestamp="2010-02-09T18:26:09Z" uid="8619" user="cetest" changeset="3834666" lat="19.2452068" lon="-71.8885862"/>
  <node id="634454344" version="1" timestamp="2010-02-09T18:26:09Z" uid="8619" user="cetest" changeset="3834666" lat="19.2451175" lon="-71.888189"/>
  <node id="634454347" version="1" timestamp="2010-02-09T18:26:09Z" uid="8619" user="cetest" changeset="3834666" lat="19.2451532" lon="-71.8877351"/>
  <node id="634454349" version="1" timestamp="2010-02-09T18:26:09Z" uid="8619" user="cetest" changeset="3834666" lat="19.2452782" lon="-71.8873758"/>
  <node id="634454352" version="1" timestamp="2010-02-09T18:26:09Z" uid="8619" user="cetest" changeset="3834666" lat="19.2449746" lon="-71.8871299"/>
  <node id="634454354" version="1" timestamp="2010-02-09T18:26:09Z" uid="8619" user="cetest" changeset="3834666" lat="19.2447604" lon="-71.8872434"/>
  <node id="634454357" version="1" timestamp="2010-02-09T18:26:09Z" uid="8619" user="cetest" changeset="3834666" lat="19.2445639" lon="-71.8874514"/>
  <node id="634454358" version="1" timestamp="2010-02-09T18:26:09Z" uid="8619" user="cetest" changeset="3834666" lat="19.2443497" lon="-71.8872434"/>
  <node id="634454361" version="1" timestamp="2010-02-09T18:26:09Z" uid="8619" user="cetest" changeset="3834666" lat="19.2440818" lon="-71.8868273"/>
  <node id="634454363" version="1" timestamp="2010-02-09T18:26:09Z" uid="8619" user="cetest" changeset="3834666" lat="19.2441533" lon="-71.8864112"/>
  <node id="634454365" version="1" timestamp="2010-02-09T18:26:09Z" uid="8619" user="cetest" changeset="3834666" lat="19.2436354" lon="-71.8856358"/>
  <node id="634454367" version="1" timestamp="2010-02-09T18:26:09Z" uid="8619" user="cetest" changeset="3834666" lat="19.2432783" lon="-71.8854467"/>
  <node id="634454368" version="1" timestamp="2010-02-09T18:26:09Z" uid="8619" user="cetest" changeset="3834666" lat="19.243439" lon="-71.8851062"/>
  <node id="634454371" version="1" timestamp="2010-02-09T18:26:09Z" uid="8619" user="cetest" changeset="3834666" lat="19.2432962" lon="-71.8849928"/>
  <node id="634454373" version="1" timestamp="2010-02-09T18:26:10Z" uid="8619" user="cetest" changeset="3834666" lat="19.2429033" lon="-71.8850117"/>
  <node id="634454376" version="1" timestamp="2010-02-09T18:26:10Z" uid="8619" user="cetest" changeset="3834666" lat="19.2427248" lon="-71.8844821"/>
  <node id="634454378" version="1" timestamp="2010-02-09T18:26:10Z" uid="8619" user="cetest" changeset="3834666" lat="19.2441175" lon="-71.8859384"/>
  <node id="634454380" version="1" timestamp="2010-02-09T18:26:10Z" uid="8619" user="cetest" changeset="3834666" lat="19.2458496" lon="-71.8889644"/>
  <node id="634454382" version="1" timestamp="2010-02-09T18:26:10Z" uid="8619" user="cetest" changeset="3834666" lat="19.245546" lon="-71.8888699"/>
  <node id="634454385" version="1" timestamp="2010-02-09T18:26:10Z" uid="8619" user="cetest" changeset="3834666" lat="19.2520633" lon="-71.8944113"/>
  <node id="634454387" version="1" timestamp="2010-02-09T18:26:10Z" uid="8619" user="cetest" changeset="3834666" lat="19.2506349" lon="-71.8941087"/>
  <node id="634454390" version="1" timestamp="2010-02-09T18:26:10Z" uid="8619" user="cetest" changeset="3834666" lat="19.2505813" lon="-71.8937116"/>
  <node id="634454392" version="1" timestamp="2010-02-09T18:26:10Z" uid="8619" user="cetest" changeset="3834666" lat="19.2502956" lon="-71.8937116"/>
  <node id="634454395" version="1" timestamp="2010-02-09T18:26:10Z" uid="8619" user="cetest" changeset="3834666" lat="19.2501528" lon="-71.8942222"/>
  <node id="634454397" version="1" timestamp="2010-02-09T18:26:10Z" uid="8619" user="cetest" changeset="3834666" lat="19.2499564" lon="-71.8942789"/>
  <node id="634454400" version="1" timestamp="2010-02-09T18:26:10Z" uid="8619" user="cetest" changeset="3834666" lat="19.2497599" lon="-71.8939953"/>
  <node id="634454403" version="1" timestamp="2010-02-09T18:26:10Z" uid="8619" user="cetest" changeset="3834666" lat="19.2495814" lon="-71.8935413"/>
  <node id="634454404" version="1" timestamp="2010-02-09T18:26:10Z" uid="8619" user="cetest" changeset="3834666" lat="19.2490636" lon="-71.8932387"/>
  <node id="634454406" version="1" timestamp="2010-02-09T18:26:10Z" uid="8619" user="cetest" changeset="3834666" lat="19.24876" lon="-71.89339"/>
  <node id="634454408" version="1" timestamp="2010-02-09T18:26:10Z" uid="8619" user="cetest" changeset="3834666" lat="19.2485636" lon="-71.8930307"/>
  <node id="634454410" version="1" timestamp="2010-02-09T18:26:10Z" uid="8619" user="cetest" changeset="3834666" lat="19.2488557" lon="-71.8945278"/>
  <node id="634454413" version="1" timestamp="2010-02-09T18:26:10Z" uid="8619" user="cetest" changeset="3834666" lat="19.2547951" lon="-71.8943924"/>
  <node id="634454414" version="1" timestamp="2010-02-09T18:26:10Z" uid="8619" user="cetest" changeset="3834666" lat="19.2549736" lon="-71.8935035"/>
  <node id="634454417" version="1" timestamp="2010-02-09T18:26:10Z" uid="8619" user="cetest" changeset="3834666" lat="19.2553486" lon="-71.8930496"/>
  <node id="634454418" version="1" timestamp="2010-02-09T18:26:10Z" uid="8619" user="cetest" changeset="3834666" lat="19.255545" lon="-71.8926146"/>
  <node id="634454419" version="1" timestamp="2010-02-09T18:26:10Z" uid="8619" user="cetest" changeset="3834666" lat="19.2558842" lon="-71.8926524"/>
  <node id="634454420" version="1" timestamp="2010-02-09T18:26:10Z" uid="8619" user="cetest" changeset="3834666" lat="19.2561699" lon="-71.8928605"/>
  <node id="634454423" version="1" timestamp="2010-02-09T18:26:10Z" uid="8619" user="cetest" changeset="3834666" lat="19.2558842" lon="-71.8918203"/>
  <node id="634454424" version="1" timestamp="2010-02-09T18:26:10Z" uid="8619" user="cetest" changeset="3834666" lat="19.2555807" lon="-71.8919527"/>
  <node id="634454425" version="1" timestamp="2010-02-09T18:26:10Z" uid="8619" user="cetest" changeset="3834666" lat="19.2552057" lon="-71.8922742"/>
  <node id="634454428" version="1" timestamp="2010-02-09T18:26:10Z" uid="8619" user="cetest" changeset="3834666" lat="19.254188" lon="-71.8932955"/>
  <node id="634454429" version="1" timestamp="2010-02-09T18:26:11Z" uid="8619" user="cetest" changeset="3834666" lat="19.2541345" lon="-71.893617"/>
  <node id="634454431" version="1" timestamp="2010-02-09T18:26:11Z" uid="8619" user="cetest" changeset="3834666" lat="19.2542416" lon="-71.8939007"/>
  <node id="634454433" version="1" timestamp="2010-02-09T18:26:11Z" uid="8619" user="cetest" changeset="3834666" lat="19.2542059" lon="-71.8941466"/>
  <node id="634454435" version="1" timestamp="2010-02-09T18:26:11Z" uid="8619" user="cetest" changeset="3834666" lat="19.254063" lon="-71.8943168"/>
  <node id="634454438" version="1" timestamp="2010-02-09T18:26:11Z" uid="8619" user="cetest" changeset="3834666" lat="19.2564913" lon="-71.8927281"/>
  <node id="634454444" version="1" timestamp="2010-02-09T18:26:11Z" uid="8619" user="cetest" changeset="3834666" lat="19.2564734" lon="-71.8922931"/>
  <node id="634456885" version="2" timestamp="2010-07-29T09:14:54Z" uid="74617" user="JohnSmith" changeset="5344848" lat="53.2670932" lon="7.5482836">
    <tag k="amenity" v="emergency_phone"/>
    <tag k="emergency" v="phone"/>
  </node>
</osm>
