<?xml version='1.0' encoding='UTF-8'?>
<osm version="0.6" generator="libosmium/2.20.0">
  <node id="634620842" version="1" timestamp="2010-02-09T22:07:01Z" uid="59758" user="rendle" changeset="3836478" lat="18.5190616" lon="-72.4058854"/>
  <node id="634620844" version="1" timestamp="2010-02-09T22:07:01Z" uid="59758" user="rendle" changeset="3836478" lat="18.5188861" lon="-72.4058103"/>
  <node id="634620845" version="1" timestamp="2010-02-09T22:07:01Z" uid="59758" user="rendle" changeset="3836478" lat="18.5186674" lon="-72.4058666"/>
  <node id="634620847" version="1" timestamp="2010-02-09T22:07:01Z" uid="59758" user="rendle" changeset="3836478" lat="18.5183749" lon="-72.4057566"/>
  <node id="634620849" version="1" timestamp="2010-02-09T22:07:01Z" uid="59758" user="rendle" changeset="3836478" lat="18.5184817" lon="-72.4055179"/>
  <node id="634620850" version="1" timestamp="2010-02-09T22:07:01Z" uid="59758" user="rendle" changeset="3836478" lat="18.5185326" lon="-72.4052282"/>
  <node id="634620852" version="1" timestamp="2010-02-09T22:07:01Z" uid="59758" user="rendle" changeset="3836478" lat="18.5184868" lon="-72.4051451"/>
  <node id="634620854" version="1" timestamp="2010-02-09T22:07:01Z" uid="59758" user="rendle" changeset="3836478" lat="18.5180875" lon="-72.4054938"/>
  <node id="634620857" version="1" timestamp="2010-02-09T22:07:01Z" uid="59758" user="rendle" changeset="3836478" lat="18.5180824" lon="-72.4045523"/>
  <node id="634620859" version="1" timestamp="2010-02-09T22:07:01Z" uid="59758" user="rendle" changeset="3836478" lat="18.5182096" lon="-72.4036457"/>
  <node id="634620864" version="1" timestamp="2010-02-09T22:07:01Z" uid="59758" user="rendle" changeset="3836478" lat="18.5192447" lon="-72.4035706"/>
  <node id="634620865" version="1" timestamp="2010-02-09T22:07:02Z" uid="59758" user="rendle" changeset="3836478" lat="18.5189369" lon="-72.4039891"/>
  <node id="634620866" version="1" timestamp="2010-02-09T22:07:02Z" uid="59758" user="rendle" changeset="3836478" lat="18.5189649" lon="-72.4044289"/>
  <node id="634620867" version="1" timestamp="2010-02-09T22:07:02Z" uid="59758" user="rendle" changeset="3836478" lat="18.5189878" lon="-72.4047857"/>
  <node id="634620869" version="1" timestamp="2010-02-09T22:07:02Z" uid="59758" user="rendle" changeset="3836478" lat="18.5189725" lon="-72.405137"/>
  <node id="634620870" version="1" timestamp="2010-02-09T22:07:02Z" uid="59758" user="rendle" changeset="3836478" lat="18.5192523" lon="-72.4051826"/>
  <node id="634620871" version="1" timestamp="2010-02-09T22:07:02Z" uid="59758" user="rendle" changeset="3836478" lat="18.5190616" lon="-72.4057352"/>
  <node id="634621811" version="3" timestamp="2010-04-11T11:54:41Z" uid="20587" user="balrog-kun" changeset="4392352" lat="49.7210429" lon="21.3163391">
    <tag k="name" v="Głęboka"/>
    <tag k="place" v="village"/>
    <tag k="source" v="http://ump.waw.pl/ retrieved 15:56:07 01/18/10 (UMP-NowySacz/src/cities-NowySacz.pnt-converted.txt)"/>
  </node>
  <node id="634621811" version="4" timestamp="2010-04-11T13:18:29Z" uid="20587" user="balrog-kun" changeset="4392352" lat="49.7218798" lon="21.3107159">
    <tag k="name" v="Głęboka"/>
    <tag k="place" v="village"/>
    <tag k="source" v="http://ump.waw.pl/ retrieved 15:56:07 01/18/10 (UMP-NowySacz/src/cities-NowySacz.pnt-converted.txt)"/>
  </node>
  <node id="634621902" version="2" timestamp="2010-04-11T11:54:42Z" uid="20587" user="balrog-kun" changeset="4392352" lat="49.71518" lon="21.34199">
    <tag k="name" v="Harklowa"/>
    <tag k="place" v="village"/>
    <tag k="source" v="http://ump.waw.pl/ retrieved 15:56:07 01/18/10 (UMP-NowySacz/src/cities-NowySacz.pnt-converted.txt)"/>
  </node>
  <node id="634621902" version="3" timestamp="2010-04-11T13:18:29Z" uid="20587" user="balrog-kun" changeset="4392352" lat="49.71518" lon="21.34199">
    <tag k="name" v="Harklowa"/>
    <tag k="place" v="village"/>
    <tag k="source" v="http://ump.waw.pl/ retrieved 15:56:07 01/18/10 (UMP-NowySacz/src/cities-NowySacz.pnt-converted.txt)"/>
  </node>
  <node id="634622025" version="3" timestamp="2010-04-11T11:54:42Z" uid="20587" user="balrog-kun" changeset="4392352" lat="49.7342217" lon="21.3284349">
    <tag k="name" v="Kunowa"/>
    <tag k="place" v="village"/>
    <tag k="source" v="http://ump.waw.pl/ retrieved 15:56:07 01/18/10 (UMP-NowySacz/src/cities-NowySacz.pnt-converted.txt)"/>
  </node>
  <node id="634622025" version="4" timestamp="2010-04-11T13:18:29Z" uid="20587" user="balrog-kun" changeset="4392352" lat="49.7334896" lon="21.3244299">
    <tag k="name" v="Kunowa"/>
    <tag k="place" v="village"/>
    <tag k="source" v="http://ump.waw.pl/ retrieved 15:56:07 01/18/10 (UMP-NowySacz/src/cities-NowySacz.pnt-converted.txt)"/>
  </node>
  <node id="634622025" version="5" timestamp="2010-04-27T04:01:18Z" uid="30632" user="antblant" changeset="4537859" lat="49.7334896" lon="21.3244299">
    <tag k="name" v="Kunowa"/>
    <tag k="place" v="village"/>
    <tag k="source" v="http://ump.waw.pl/ retrieved 15:56:07 01/18/10 (UMP-NowySacz/src/cities-NowySacz.pnt-converted.txt)"/>
    <tag k="teryt:simc" v="0360069"/>
  </node>
  <node id="634622445" version="2" timestamp="2010-04-11T11:54:42Z" uid="20587" user="balrog-kun" changeset="4392352" lat="49.7386" lon="21.38465">
    <tag k="name" v="Przysieki"/>
    <tag k="place" v="village"/>
    <tag k="source" v="http://ump.waw.pl/ retrieved 15:56:07 01/18/10 (UMP-NowySacz/src/cities-NowySacz.pnt-converted.txt)"/>
  </node>
  <node id="634622445" version="3" timestamp="2010-04-11T13:18:29Z" uid="20587" user="balrog-kun" changeset="4392352" lat="49.7386" lon="21.38465">
    <tag k="name" v="Przysieki"/>
    <tag k="place" v="village"/>
    <tag k="source" v="http://ump.waw.pl/ retrieved 15:56:07 01/18/10 (UMP-NowySacz/src/cities-NowySacz.pnt-converted.txt)"/>
  </node>
  <node id="634622445" version="4" timestamp="2010-04-27T04:09:41Z" uid="30632" user="antblant" changeset="4537879" lat="49.7386" lon="21.38465">
    <tag k="name" v="Przysieki"/>
    <tag k="place" v="village"/>
    <tag k="source" v="http://ump.waw.pl/ retrieved 15:56:07 01/18/10 (UMP-NowySacz/src/cities-NowySacz.pnt-converted.txt)"/>
    <tag k="teryt:simc" v="0360201"/>
  </node>
  <node id="634622520" version="3" timestamp="2010-04-27T04:06:08Z" uid="30632" user="antblant" changeset="4537871" lat="49.6994143" lon="21.40201">
    <tag k="name" v="Osobnica"/>
    <tag k="place" v="village"/>
    <tag k="source" v="http://ump.waw.pl/ retrieved 15:56:07 01/18/10 (UMP-NowySacz/src/cities-NowySacz.pnt-converted.txt)"/>
    <tag k="teryt:simc" v="0352992"/>
  </node>
  <node id="634622708" version="3" timestamp="2010-04-11T11:54:42Z" uid="20587" user="balrog-kun" changeset="4392352" lat="49.7190296" lon="21.435149">
    <tag k="name" v="Brzyście"/>
    <tag k="place" v="village"/>
    <tag k="source" v="http://ump.waw.pl/ retrieved 15:56:07 01/18/10 (UMP-NowySacz/src/cities-NowySacz.pnt-converted.txt)"/>
  </node>
  <node id="634622708" version="4" timestamp="2010-04-11T13:18:29Z" uid="20587" user="balrog-kun" changeset="4392352" lat="49.7195265" lon="21.4342185">
    <tag k="name" v="Brzyście"/>
    <tag k="place" v="village"/>
    <tag k="source" v="http://ump.waw.pl/ retrieved 15:56:07 01/18/10 (UMP-NowySacz/src/cities-NowySacz.pnt-converted.txt)"/>
  </node>
  <node id="634622759" version="3" timestamp="2010-04-11T11:54:42Z" uid="20587" user="balrog-kun" changeset="4392352" lat="49.7411421" lon="21.4165056">
    <tag k="name" v="Trzcinica"/>
    <tag k="place" v="village"/>
    <tag k="source" v="http://ump.waw.pl/ retrieved 15:56:07 01/18/10 (UMP-NowySacz/src/cities-NowySacz.pnt-converted.txt)"/>
  </node>
  <node id="634622759" version="4" timestamp="2010-04-11T13:18:29Z" uid="20587" user="balrog-kun" changeset="4392352" lat="49.7419787" lon="21.4191352">
    <tag k="name" v="Trzcinica"/>
    <tag k="place" v="village"/>
    <tag k="source" v="http://ump.waw.pl/ retrieved 15:56:07 01/18/10 (UMP-NowySacz/src/cities-NowySacz.pnt-converted.txt)"/>
  </node>
  <node id="634623620" version="2" timestamp="2010-04-11T11:54:42Z" uid="20587" user="balrog-kun" changeset="4392352" lat="49.76611" lon="21.33076">
    <tag k="name" v="Lisów"/>
    <tag k="place" v="village"/>
    <tag k="source" v="http://ump.waw.pl/ retrieved 15:56:07 01/18/10 (UMP-NowySacz/src/cities-NowySacz.pnt-converted.txt)"/>
  </node>
  <node id="634623620" version="3" timestamp="2010-04-11T13:18:30Z" uid="20587" user="balrog-kun" changeset="4392352" lat="49.76611" lon="21.33076">
    <tag k="name" v="Lisów"/>
    <tag k="place" v="village"/>
    <tag k="source" v="http://ump.waw.pl/ retrieved 15:56:07 01/18/10 (UMP-NowySacz/src/cities-NowySacz.pnt-converted.txt)"/>
  </node>
  <node id="634623664" version="3" timestamp="2010-04-11T11:54:42Z" uid="20587" user="balrog-kun" changeset="4392352" lat="49.7507516" lon="21.3378587">
    <tag k="name" v="Skołyszyn"/>
    <tag k="place" v="village"/>
    <tag k="source" v="http://ump.waw.pl/ retrieved 15:56:07 01/18/10 (UMP-NowySacz/src/cities-NowySacz.pnt-converted.txt)"/>
  </node>
  <node id="634623664" version="4" timestamp="2010-04-11T13:18:30Z" uid="20587" user="balrog-kun" changeset="4392352" lat="49.7521108" lon="21.3352696">
    <tag k="name" v="Skołyszyn"/>
    <tag k="place" v="village"/>
    <tag k="source" v="http://ump.waw.pl/ retrieved 15:56:07 01/18/10 (UMP-NowySacz/src/cities-NowySacz.pnt-converted.txt)"/>
  </node>
  <node id="634623664" version="5" timestamp="2010-04-27T04:00:54Z" uid="30632" user="antblant" changeset="4537859" lat="49.7521108" lon="21.3352696">
    <tag k="name" v="Skołyszyn"/>
    <tag k="place" v="village"/>
    <tag k="source" v="http://ump.waw.pl/ retrieved 15:56:07 01/18/10 (UMP-NowySacz/src/cities-NowySacz.pnt-converted.txt)"/>
    <tag k="teryt:simc" v="0360320"/>
  </node>
  <node id="634625866" version="3" timestamp="2010-04-11T11:54:42Z" uid="20587" user="balrog-kun" changeset="4392352" lat="49.8201609" lon="21.3909483">
    <tag k="name" v="Brzyska"/>
    <tag k="place" v="village"/>
    <tag k="source" v="http://ump.waw.pl/ retrieved 15:56:07 01/18/10 (UMP-NowySacz/src/cities-NowySacz.pnt-converted.txt)"/>
  </node>
  <node id="634625866" version="4" timestamp="2010-04-11T13:18:30Z" uid="20587" user="balrog-kun" changeset="4392352" lat="49.8202856" lon="21.3908147">
    <tag k="name" v="Brzyska"/>
    <tag k="place" v="village"/>
    <tag k="source" v="http://ump.waw.pl/ retrieved 15:56:07 01/18/10 (UMP-NowySacz/src/cities-NowySacz.pnt-converted.txt)"/>
  </node>
  <node id="634625866" version="5" timestamp="2010-04-27T04:15:44Z" uid="30632" user="antblant" changeset="4537896" lat="49.8202856" lon="21.3908147">
    <tag k="name" v="Brzyska"/>
    <tag k="place" v="village"/>
    <tag k="source" v="http://ump.waw.pl/ retrieved 15:56:07 01/18/10 (UMP-NowySacz/src/cities-NowySacz.pnt-converted.txt)"/>
    <tag k="teryt:simc" v="0346371"/>
  </node>
  <node id="634625930" version="3" timestamp="2010-04-11T11:54:42Z" uid="20587" user="balrog-kun" changeset="4392352" lat="49.8139413" lon="21.4151852">
    <tag k="name" v="Kłodawa"/>
    <tag k="place" v="village"/>
    <tag k="source" v="http://ump.waw.pl/ retrieved 15:56:07 01/18/10 (UMP-NowySacz/src/cities-NowySacz.pnt-converted.txt)"/>
  </node>
  <node id="634625930" version="4" timestamp="2010-04-11T13:18:30Z" uid="20587" user="balrog-kun" changeset="4392352" lat="49.8139162" lon="21.4154532">
    <tag k="name" v="Kłodawa"/>
    <tag k="place" v="village"/>
    <tag k="source" v="http://ump.waw.pl/ retrieved 15:56:07 01/18/10 (UMP-NowySacz/src/cities-NowySacz.pnt-converted.txt)"/>
  </node>
  <node id="634626383" version="3" timestamp="2010-04-11T11:54:42Z" uid="20587" user="balrog-kun" changeset="4392352" lat="49.8062284" lon="21.4022627">
    <tag k="name" v="Ujazd"/>
    <tag k="place" v="village"/>
    <tag k="source" v="http://ump.waw.pl/ retrieved 15:56:07 01/18/10 (UMP-NowySacz/src/cities-NowySacz.pnt-converted.txt)"/>
  </node>
  <node id="634626383" version="4" timestamp="2010-04-11T13:18:30Z" uid="20587" user="balrog-kun" changeset="4392352" lat="49.806592" lon="21.4022295">
    <tag k="name" v="Ujazd"/>
    <tag k="place" v="village"/>
    <tag k="source" v="http://ump.waw.pl/ retrieved 15:56:07 01/18/10 (UMP-NowySacz/src/cities-NowySacz.pnt-converted.txt)"/>
  </node>
  <node id="634626585" version="3" timestamp="2010-04-11T11:54:42Z" uid="20587" user="balrog-kun" changeset="4392352" lat="49.8055797" lon="21.440107">
    <tag k="name" v="Nawsie Kołaczyckie"/>
    <tag k="place" v="village"/>
    <tag k="source" v="http://ump.waw.pl/ retrieved 15:56:07 01/18/10 (UMP-NowySacz/src/cities-NowySacz.pnt-converted.txt)"/>
  </node>
  <node id="634626585" version="4" timestamp="2010-04-11T13:18:30Z" uid="20587" user="balrog-kun" changeset="4392352" lat="49.8063682" lon="21.4431443">
    <tag k="name" v="Nawsie Kołaczyckie"/>
    <tag k="place" v="village"/>
    <tag k="source" v="http://ump.waw.pl/ retrieved 15:56:07 01/18/10 (UMP-NowySacz/src/cities-NowySacz.pnt-converted.txt)"/>
  </node>
  <node id="634626585" version="5" timestamp="2010-04-27T04:02:39Z" uid="30632" user="antblant" changeset="4537862" lat="49.8063682" lon="21.4431443">
    <tag k="name" v="Nawsie Kołaczyckie"/>
    <tag k="place" v="village"/>
    <tag k="source" v="http://ump.waw.pl/ retrieved 15:56:07 01/18/10 (UMP-NowySacz/src/cities-NowySacz.pnt-converted.txt)"/>
    <tag k="teryt:simc" v="0354057"/>
  </node>
  <node id="634627519" version="3" timestamp="2010-04-11T11:54:42Z" uid="20587" user="balrog-kun" changeset="4392352" lat="49.8528748" lon="21.3390721">
    <tag k="name" v="Dębowa"/>
    <tag k="place" v="village"/>
    <tag k="source" v="http://ump.waw.pl/ retrieved 15:56:07 01/18/10 (UMP-NowySacz/src/cities-NowySacz.pnt-converted.txt)"/>
  </node>
  <node id="634627519" version="4" timestamp="2010-04-11T13:18:30Z" uid="20587" user="balrog-kun" changeset="4392352" lat="49.8531811" lon="21.3406501">
    <tag k="name" v="Dębowa"/>
    <tag k="place" v="village"/>
    <tag k="source" v="http://ump.waw.pl/ retrieved 15:56:07 01/18/10 (UMP-NowySacz/src/cities-NowySacz.pnt-converted.txt)"/>
  </node>
  <node id="634627831" version="3" timestamp="2010-04-11T11:54:42Z" uid="20587" user="balrog-kun" changeset="4392352" lat="49.8507783" lon="21.3760708">
    <tag k="name" v="Błażkowa"/>
    <tag k="place" v="village"/>
    <tag k="source" v="http://ump.waw.pl/ retrieved 15:56:07 01/18/10 (UMP-NowySacz/src/cities-NowySacz.pnt-converted.txt)"/>
  </node>
  <node id="634627831" version="4" timestamp="2010-04-11T13:18:30Z" uid="20587" user="balrog-kun" changeset="4392352" lat="49.8509919" lon="21.3776183">
    <tag k="name" v="Błażkowa"/>
    <tag k="place" v="village"/>
    <tag k="source" v="http://ump.waw.pl/ retrieved 15:56:07 01/18/10 (UMP-NowySacz/src/cities-NowySacz.pnt-converted.txt)"/>
  </node>
  <node id="634628038" version="3" timestamp="2010-04-11T11:54:42Z" uid="20587" user="balrog-kun" changeset="4392352" lat="49.8376746" lon="21.4153669">
    <tag k="name" v="Bukowa"/>
    <tag k="place" v="village"/>
    <tag k="source" v="http://ump.waw.pl/ retrieved 15:56:07 01/18/10 (UMP-NowySacz/src/cities-NowySacz.pnt-converted.txt)"/>
  </node>
  <node id="634628038" version="4" timestamp="2010-04-11T13:18:30Z" uid="20587" user="balrog-kun" changeset="4392352" lat="49.8360309" lon="21.4179155">
    <tag k="name" v="Bukowa"/>
    <tag k="place" v="village"/>
    <tag k="source" v="http://ump.waw.pl/ retrieved 15:56:07 01/18/10 (UMP-NowySacz/src/cities-NowySacz.pnt-converted.txt)"/>
  </node>
  <node id="634628430" version="3" timestamp="2010-04-11T11:54:43Z" uid="20587" user="balrog-kun" changeset="4392352" lat="49.8638044" lon="21.4104512">
    <tag k="name" v="Klecie"/>
    <tag k="place" v="village"/>
    <tag k="source" v="http://ump.waw.pl/ retrieved 15:56:07 01/18/10 (UMP-NowySacz/src/cities-NowySacz.pnt-converted.txt)"/>
  </node>
  <node id="634628430" version="4" timestamp="2010-04-11T13:18:30Z" uid="20587" user="balrog-kun" changeset="4392352" lat="49.8627092" lon="21.4103703">
    <tag k="name" v="Klecie"/>
    <tag k="place" v="village"/>
    <tag k="source" v="http://ump.waw.pl/ retrieved 15:56:07 01/18/10 (UMP-NowySacz/src/cities-NowySacz.pnt-converted.txt)"/>
  </node>
</osm>
