<?xml version='1.0' encoding='UTF-8'?>
<osm version="0.6" generator="libosmium/2.20.0">
  <node id="638340057" version="1" timestamp="2010-02-13T11:51:52Z" uid="8807" user="brendanpuck" changeset="3863887" lat="-32.5416171" lon="151.1683766"/>
  <node id="638343074" version="1" timestamp="2010-02-13T12:03:51Z" uid="20587" user="balrog-kun" changeset="3863990" lat="52.4156324" lon="16.9153105"/>
  <node id="638343074" version="2" timestamp="2010-03-09T22:20:22Z" uid="163896" user="Zbigniew Czernik" changeset="4085146" lat="52.4159229" lon="16.915617"/>
  <node id="638343075" version="1" timestamp="2010-02-13T12:03:51Z" uid="20587" user="balrog-kun" changeset="3863990" lat="52.4148559" lon="16.9158001"/>
  <node id="638343075" version="2" timestamp="2010-03-09T22:20:22Z" uid="163896" user="Zbigniew Czernik" changeset="4085146" lat="52.4148664" lon="16.9154105"/>
  <node id="638344968" version="2" timestamp="2010-04-11T11:54:49Z" uid="20587" user="balrog-kun" changeset="4392352" lat="51.7163621" lon="17.2247584">
    <tag k="name" v="Kobylin"/>
    <tag k="place" v="town"/>
  </node>
  <node id="638345294" version="1" timestamp="2010-02-13T12:08:52Z" uid="20587" user="balrog-kun" changeset="3864027" lat="52.4136599" lon="16.9050745">
    <tag k="amenity" v="bank"/>
    <tag k="name" v="InvestBank"/>
    <tag k="operator" v="InvestBank"/>
  </node>
  <node id="638345294" version="2" timestamp="2010-02-13T21:21:02Z" uid="20587" user="balrog-kun" changeset="3868613" lat="52.4136599" lon="16.9050745">
    <tag k="amenity" v="bank"/>
    <tag k="name" v="InvestBank"/>
    <tag k="operator" v="InvestBank S.A."/>
  </node>
  <node id="638345294" version="3" timestamp="2010-02-15T18:20:01Z" uid="123700" user="Mala" changeset="3885458" lat="52.413628" lon="16.9050004">
    <tag k="amenity" v="bank"/>
    <tag k="name" v="InvestBank"/>
    <tag k="operator" v="InvestBank S.A."/>
  </node>
  <node id="638345295" version="1" timestamp="2010-02-13T12:08:52Z" uid="20587" user="balrog-kun" changeset="3864027" lat="52.4106551" lon="16.9130929">
    <tag k="highway" v="bus_stop"/>
    <tag k="name" v="Most Teatralny"/>
  </node>
  <node id="638345296" version="1" timestamp="2010-02-13T12:08:52Z" uid="20587" user="balrog-kun" changeset="3864027" lat="52.4103771" lon="16.9140421">
    <tag k="information" v="map"/>
    <tag k="map_size" v="city"/>
    <tag k="map_type" v="street"/>
    <tag k="tourism" v="information"/>
  </node>
  <node id="638345296" version="2" timestamp="2011-12-27T00:17:02Z" uid="88909" user="miko101" changeset="10212057" lat="52.4103771" lon="16.9140431">
    <tag k="information" v="map"/>
    <tag k="map_size" v="city"/>
    <tag k="map_type" v="street"/>
    <tag k="tourism" v="information"/>
  </node>
  <node id="638345315" version="1" timestamp="2010-02-13T12:09:12Z" uid="85955" user="Gerd Höweler" changeset="3864033" lat="52.078505" lon="8.6075656">
    <tag k="alt_name" v="Stedefreund"/>
    <tag k="name" v="Bielefeld - Brake"/>
    <tag k="traffic_sign" v="city_limit"/>
  </node>
  <node id="638345315" version="2" timestamp="2012-01-13T17:04:25Z" uid="461103" user="nomatrix" changeset="10380326" lat="52.078505" lon="8.6075656">
    <tag k="alt_name" v="Stedefreund"/>
    <tag k="name" v="Bielefeld - Brake"/>
    <tag k="traffic_sign" v="city_limit"/>
  </node>
  <node id="638345318" version="1" timestamp="2010-02-13T12:09:12Z" uid="85955" user="Gerd Höweler" changeset="3864033" lat="52.0795663" lon="8.6073642">
    <tag k="alt_name" v="Stedefreund"/>
    <tag k="name" v="Bielefeld - Brake"/>
    <tag k="traffic_sign" v="city_limit"/>
  </node>
  <node id="638345318" version="2" timestamp="2012-01-13T17:04:25Z" uid="461103" user="nomatrix" changeset="10380326" lat="52.0795663" lon="8.6073642">
    <tag k="alt_name" v="Stedefreund"/>
    <tag k="name" v="Bielefeld - Brake"/>
    <tag k="traffic_sign" v="city_limit"/>
  </node>
  <node id="638345319" version="1" timestamp="2010-02-13T12:09:12Z" uid="85955" user="Gerd Höweler" changeset="3864033" lat="52.0806529" lon="8.6071245">
    <tag k="alt_name" v="Stedefreund"/>
    <tag k="name" v="Bielefeld - Brake"/>
    <tag k="traffic_sign" v="city_limit"/>
  </node>
  <node id="638345319" version="2" timestamp="2012-01-13T17:04:25Z" uid="461103" user="nomatrix" changeset="10380326" lat="52.0806529" lon="8.6071245">
    <tag k="alt_name" v="Stedefreund"/>
    <tag k="name" v="Bielefeld - Brake"/>
    <tag k="traffic_sign" v="city_limit"/>
  </node>
</osm>
