<?xml version='1.0' encoding='UTF-8'?>
<osm version="0.6" generator="libosmium/2.20.0">
  <node id="638805520" version="1" timestamp="2010-02-14T00:40:48Z" uid="230283" user="AuFCL" changeset="3869822" lat="-28.8619933" lon="153.5197114"/>
  <node id="638805520" version="2" timestamp="2011-09-26T06:57:59Z" uid="22094" user="Chadzopkyo" changeset="9398999" lat="-28.8620465" lon="153.5196304"/>
  <node id="638805520" version="3" timestamp="2011-09-29T06:06:51Z" uid="22094" user="Chadzopkyo" changeset="9424624" lat="-28.861859" lon="153.5186386"/>
  <node id="638805520" version="4" timestamp="2012-01-05T23:07:35Z" uid="46482" user="Leon K" changeset="10306704" lat="-28.8620424" lon="153.5187145"/>
  <node id="638805520" version="5" timestamp="2012-01-10T01:24:58Z" uid="76950" user="paulg" changeset="10347855" lat="-28.8620699" lon="153.5187349"/>
  <node id="638805623" version="2" timestamp="2010-02-15T05:50:26Z" uid="115684" user="jVviJ11dNx" changeset="3880316" lat="-36.1485699" lon="145.43406">
    <tag k="railway" v="level_crossing"/>
  </node>
  <node id="638805673" version="2" timestamp="2010-02-15T05:50:26Z" uid="115684" user="jVviJ11dNx" changeset="3880316" lat="-36.1599171" lon="145.43392">
    <tag k="railway" v="level_crossing"/>
  </node>
  <node id="638809234" version="1" timestamp="2010-02-14T00:43:56Z" uid="103576" user="DiverCTH" changeset="3869890" lat="35.020285" lon="-85.29271"/>
  <node id="638809237" version="1" timestamp="2010-02-14T00:43:56Z" uid="103576" user="DiverCTH" changeset="3869890" lat="35.020265" lon="-85.292715"/>
  <node id="638809238" version="1" timestamp="2010-02-14T00:43:57Z" uid="103576" user="DiverCTH" changeset="3869890" lat="35.020185" lon="-85.292753">
    <tag k="addr:country" v="US"/>
    <tag k="addr:county" v="Hamilton, TN"/>
    <tag k="addr:housenumber" v="2398"/>
    <tag k="addr:postcode" v="37404"/>
    <tag k="addr:state" v="Tennessee"/>
    <tag k="addr:street" v="S Holtzclaw Ave"/>
  </node>
  <node id="638809241" version="1" timestamp="2010-02-14T00:43:57Z" uid="103576" user="DiverCTH" changeset="3869890" lat="35.020233" lon="-85.292945">
    <tag k="addr:country" v="US"/>
    <tag k="addr:county" v="Hamilton, TN"/>
    <tag k="addr:housenumber" v="2399"/>
    <tag k="addr:postcode" v="37408"/>
    <tag k="addr:state" v="Tennessee"/>
    <tag k="addr:street" v="S Holtzclaw Ave"/>
  </node>
  <node id="638809243" version="1" timestamp="2010-02-14T00:43:57Z" uid="103576" user="DiverCTH" changeset="3869890" lat="35.020357" lon="-85.292894"/>
  <node id="638809245" version="1" timestamp="2010-02-14T00:43:57Z" uid="103576" user="DiverCTH" changeset="3869890" lat="35.020331" lon="-85.292917"/>
  <node id="638809247" version="1" timestamp="2010-02-14T00:43:57Z" uid="103576" user="DiverCTH" changeset="3869890" lat="35.02111" lon="-85.292498">
    <tag k="addr:country" v="US"/>
    <tag k="addr:county" v="Hamilton, TN"/>
    <tag k="addr:housenumber" v="2315"/>
    <tag k="addr:postcode" v="37408"/>
    <tag k="addr:state" v="Tennessee"/>
    <tag k="addr:street" v="S Holtzclaw Ave"/>
  </node>
  <node id="638809249" version="1" timestamp="2010-02-14T00:43:57Z" uid="103576" user="DiverCTH" changeset="3869890" lat="35.021004" lon="-85.292544"/>
  <node id="638809251" version="1" timestamp="2010-02-14T00:43:57Z" uid="103576" user="DiverCTH" changeset="3869890" lat="35.021351" lon="-85.292362">
    <tag k="addr:country" v="US"/>
    <tag k="addr:county" v="Hamilton, TN"/>
    <tag k="addr:housenumber" v="2313"/>
    <tag k="addr:postcode" v="37408"/>
    <tag k="addr:state" v="Tennessee"/>
    <tag k="addr:street" v="S Holtzclaw Ave"/>
  </node>
  <node id="638809253" version="1" timestamp="2010-02-14T00:43:57Z" uid="103576" user="DiverCTH" changeset="3869890" lat="35.020942" lon="-85.292346"/>
  <node id="638809255" version="1" timestamp="2010-02-14T00:43:57Z" uid="103576" user="DiverCTH" changeset="3869890" lat="35.021061" lon="-85.292307">
    <tag k="addr:country" v="US"/>
    <tag k="addr:county" v="Hamilton, TN"/>
    <tag k="addr:housenumber" v="2316"/>
    <tag k="addr:postcode" v="37404"/>
    <tag k="addr:state" v="Tennessee"/>
    <tag k="addr:street" v="S Holtzclaw Ave"/>
  </node>
  <node id="638809257" version="1" timestamp="2010-02-14T00:43:57Z" uid="103576" user="DiverCTH" changeset="3869890" lat="35.021348" lon="-85.292119"/>
  <node id="638809259" version="1" timestamp="2010-02-14T00:43:57Z" uid="103576" user="DiverCTH" changeset="3869890" lat="35.021263" lon="-85.292193">
    <tag k="addr:country" v="US"/>
    <tag k="addr:county" v="Hamilton, TN"/>
    <tag k="addr:housenumber" v="2314"/>
    <tag k="addr:postcode" v="37404"/>
    <tag k="addr:state" v="Tennessee"/>
    <tag k="addr:street" v="S Holtzclaw Ave"/>
  </node>
  <node id="638809261" version="1" timestamp="2010-02-14T00:43:57Z" uid="103576" user="DiverCTH" changeset="3869890" lat="35.021432" lon="-85.292307"/>
  <node id="638809263" version="1" timestamp="2010-02-14T00:43:57Z" uid="103576" user="DiverCTH" changeset="3869890" lat="35.022096" lon="-85.291719">
    <tag k="addr:country" v="US"/>
    <tag k="addr:county" v="Hamilton, TN"/>
    <tag k="addr:housenumber" v="2300"/>
    <tag k="addr:postcode" v="37404"/>
    <tag k="addr:state" v="Tennessee"/>
    <tag k="addr:street" v="S Holtzclaw Ave"/>
  </node>
  <node id="638809265" version="1" timestamp="2010-02-14T00:43:57Z" uid="103576" user="DiverCTH" changeset="3869890" lat="35.021995" lon="-85.291774"/>
  <node id="638809267" version="1" timestamp="2010-02-14T00:43:57Z" uid="103576" user="DiverCTH" changeset="3869890" lat="35.022063" lon="-85.291956"/>
  <node id="638809269" version="1" timestamp="2010-02-14T00:43:57Z" uid="103576" user="DiverCTH" changeset="3869890" lat="35.022163" lon="-85.291902">
    <tag k="addr:country" v="US"/>
    <tag k="addr:county" v="Hamilton, TN"/>
    <tag k="addr:housenumber" v="2301"/>
    <tag k="addr:postcode" v="37408"/>
    <tag k="addr:state" v="Tennessee"/>
    <tag k="addr:street" v="S Holtzclaw Ave"/>
  </node>
  <node id="638809271" version="1" timestamp="2010-02-14T00:43:58Z" uid="103576" user="DiverCTH" changeset="3869890" lat="35.022421" lon="-85.291547"/>
  <node id="638809273" version="1" timestamp="2010-02-14T00:43:58Z" uid="103576" user="DiverCTH" changeset="3869890" lat="35.022323" lon="-85.291598">
    <tag k="addr:country" v="US"/>
    <tag k="addr:county" v="Hamilton, TN"/>
    <tag k="addr:housenumber" v="2298"/>
    <tag k="addr:postcode" v="37404"/>
    <tag k="addr:state" v="Tennessee"/>
    <tag k="addr:street" v="S Holtzclaw Ave"/>
  </node>
  <node id="638809275" version="1" timestamp="2010-02-14T00:43:58Z" uid="103576" user="DiverCTH" changeset="3869890" lat="35.022608" lon="-85.291449"/>
  <node id="638809276" version="1" timestamp="2010-02-14T00:43:58Z" uid="103576" user="DiverCTH" changeset="3869890" lat="35.022388" lon="-85.291782">
    <tag k="addr:country" v="US"/>
    <tag k="addr:county" v="Hamilton, TN"/>
    <tag k="addr:housenumber" v="2299"/>
    <tag k="addr:postcode" v="37404"/>
    <tag k="addr:state" v="Tennessee"/>
    <tag k="addr:street" v="S Holtzclaw Ave"/>
  </node>
  <node id="638809277" version="1" timestamp="2010-02-14T00:43:58Z" uid="103576" user="DiverCTH" changeset="3869890" lat="35.022674" lon="-85.291635"/>
  <node id="638809278" version="1" timestamp="2010-02-14T00:43:58Z" uid="103576" user="DiverCTH" changeset="3869890" lat="35.022485" lon="-85.291731"/>
  <node id="638809279" version="1" timestamp="2010-02-14T00:43:58Z" uid="103576" user="DiverCTH" changeset="3869890" lat="35.023047" lon="-85.291208"/>
  <node id="638809280" version="1" timestamp="2010-02-14T00:43:58Z" uid="103576" user="DiverCTH" changeset="3869890" lat="35.023144" lon="-85.291156">
    <tag k="addr:country" v="US"/>
    <tag k="addr:county" v="Hamilton, TN"/>
    <tag k="addr:housenumber" v="2100"/>
    <tag k="addr:postcode" v="37404"/>
    <tag k="addr:state" v="Tennessee"/>
    <tag k="addr:street" v="S Holtzclaw Ave"/>
  </node>
  <node id="638809281" version="1" timestamp="2010-02-14T00:43:58Z" uid="103576" user="DiverCTH" changeset="3869890" lat="35.023115" lon="-85.291392"/>
  <node id="638809282" version="1" timestamp="2010-02-14T00:43:58Z" uid="103576" user="DiverCTH" changeset="3869890" lat="35.023211" lon="-85.291339">
    <tag k="addr:country" v="US"/>
    <tag k="addr:county" v="Hamilton, TN"/>
    <tag k="addr:housenumber" v="2101"/>
    <tag k="addr:postcode" v="37404"/>
    <tag k="addr:state" v="Tennessee"/>
    <tag k="addr:street" v="S Holtzclaw Ave"/>
  </node>
  <node id="638809283" version="1" timestamp="2010-02-14T00:43:58Z" uid="103576" user="DiverCTH" changeset="3869890" lat="35.023627" lon="-85.290894"/>
  <node id="638809284" version="1" timestamp="2010-02-14T00:43:58Z" uid="103576" user="DiverCTH" changeset="3869890" lat="35.023369" lon="-85.291033">
    <tag k="addr:country" v="US"/>
    <tag k="addr:county" v="Hamilton, TN"/>
    <tag k="addr:housenumber" v="2098"/>
    <tag k="addr:postcode" v="37404"/>
    <tag k="addr:state" v="Tennessee"/>
    <tag k="addr:street" v="S Holtzclaw Ave"/>
  </node>
  <node id="638809285" version="1" timestamp="2010-02-14T00:43:58Z" uid="103576" user="DiverCTH" changeset="3869890" lat="35.023693" lon="-85.291078"/>
  <node id="638809287" version="1" timestamp="2010-02-14T00:43:58Z" uid="103576" user="DiverCTH" changeset="3869890" lat="35.023436" lon="-85.291217">
    <tag k="addr:country" v="US"/>
    <tag k="addr:county" v="Hamilton, TN"/>
    <tag k="addr:housenumber" v="2099"/>
    <tag k="addr:postcode" v="37404"/>
    <tag k="addr:state" v="Tennessee"/>
    <tag k="addr:street" v="S Holtzclaw Ave"/>
  </node>
  <node id="638809289" version="1" timestamp="2010-02-14T00:43:58Z" uid="103576" user="DiverCTH" changeset="3869890" lat="35.024996" lon="-85.290159">
    <tag k="addr:country" v="US"/>
    <tag k="addr:county" v="Hamilton, TN"/>
    <tag k="addr:housenumber" v="1900"/>
    <tag k="addr:postcode" v="37404"/>
    <tag k="addr:state" v="Tennessee"/>
    <tag k="addr:street" v="S Holtzclaw Ave"/>
  </node>
  <node id="638809292" version="1" timestamp="2010-02-14T00:43:59Z" uid="103576" user="DiverCTH" changeset="3869890" lat="35.024738" lon="-85.290297"/>
  <node id="638809293" version="1" timestamp="2010-02-14T00:43:59Z" uid="103576" user="DiverCTH" changeset="3869890" lat="35.025062" lon="-85.290342">
    <tag k="addr:country" v="US"/>
    <tag k="addr:county" v="Hamilton, TN"/>
    <tag k="addr:housenumber" v="1901"/>
    <tag k="addr:postcode" v="37404"/>
    <tag k="addr:state" v="Tennessee"/>
    <tag k="addr:street" v="S Holtzclaw Ave"/>
  </node>
  <node id="638809296" version="1" timestamp="2010-02-14T00:43:59Z" uid="103576" user="DiverCTH" changeset="3869890" lat="35.024804" lon="-85.290481"/>
  <node id="638809297" version="1" timestamp="2010-02-14T00:43:59Z" uid="103576" user="DiverCTH" changeset="3869890" lat="35.025221" lon="-85.290037">
    <tag k="addr:country" v="US"/>
    <tag k="addr:county" v="Hamilton, TN"/>
    <tag k="addr:housenumber" v="1898"/>
    <tag k="addr:postcode" v="37404"/>
    <tag k="addr:state" v="Tennessee"/>
    <tag k="addr:street" v="S Holtzclaw Ave"/>
  </node>
  <node id="638809299" version="1" timestamp="2010-02-14T00:43:59Z" uid="103576" user="DiverCTH" changeset="3869890" lat="35.025303" lon="-85.289993"/>
  <node id="638809301" version="1" timestamp="2010-02-14T00:43:59Z" uid="103576" user="DiverCTH" changeset="3869890" lat="35.025288" lon="-85.290221">
    <tag k="addr:country" v="US"/>
    <tag k="addr:county" v="Hamilton, TN"/>
    <tag k="addr:housenumber" v="1899"/>
    <tag k="addr:postcode" v="37404"/>
    <tag k="addr:state" v="Tennessee"/>
    <tag k="addr:street" v="S Holtzclaw Ave"/>
  </node>
  <node id="638809303" version="1" timestamp="2010-02-14T00:43:59Z" uid="103576" user="DiverCTH" changeset="3869890" lat="35.025369" lon="-85.290177"/>
  <node id="638809305" version="1" timestamp="2010-02-14T00:43:59Z" uid="103576" user="DiverCTH" changeset="3869890" lat="35.025887" lon="-85.289682"/>
  <node id="638809307" version="1" timestamp="2010-02-14T00:43:59Z" uid="103576" user="DiverCTH" changeset="3869890" lat="35.025969" lon="-85.289639">
    <tag k="addr:country" v="US"/>
    <tag k="addr:county" v="Hamilton, TN"/>
    <tag k="addr:housenumber" v="1800"/>
    <tag k="addr:postcode" v="37404"/>
    <tag k="addr:state" v="Tennessee"/>
    <tag k="addr:street" v="S Holtzclaw Ave"/>
  </node>
  <node id="638809309" version="1" timestamp="2010-02-14T00:43:59Z" uid="103576" user="DiverCTH" changeset="3869890" lat="35.025953" lon="-85.289866"/>
  <node id="638809311" version="1" timestamp="2010-02-14T00:43:59Z" uid="103576" user="DiverCTH" changeset="3869890" lat="35.026035" lon="-85.289822">
    <tag k="addr:country" v="US"/>
    <tag k="addr:county" v="Hamilton, TN"/>
    <tag k="addr:housenumber" v="1801"/>
    <tag k="addr:postcode" v="37404"/>
    <tag k="addr:state" v="Tennessee"/>
    <tag k="addr:street" v="S Holtzclaw Ave"/>
  </node>
  <node id="638809313" version="1" timestamp="2010-02-14T00:43:59Z" uid="103576" user="DiverCTH" changeset="3869890" lat="35.026261" lon="-85.289701">
    <tag k="addr:country" v="US"/>
    <tag k="addr:county" v="Hamilton, TN"/>
    <tag k="addr:housenumber" v="1799"/>
    <tag k="addr:postcode" v="37404"/>
    <tag k="addr:state" v="Tennessee"/>
    <tag k="addr:street" v="S Holtzclaw Ave"/>
  </node>
  <node id="638809315" version="1" timestamp="2010-02-14T00:43:59Z" uid="103576" user="DiverCTH" changeset="3869890" lat="35.026337" lon="-85.28966"/>
  <node id="638809317" version="1" timestamp="2010-02-14T00:43:59Z" uid="103576" user="DiverCTH" changeset="3869890" lat="35.02684" lon="-85.289173"/>
  <node id="638809319" version="1" timestamp="2010-02-14T00:43:59Z" uid="103576" user="DiverCTH" changeset="3869890" lat="35.026917" lon="-85.289132">
    <tag k="addr:country" v="US"/>
    <tag k="addr:county" v="Hamilton, TN"/>
    <tag k="addr:housenumber" v="1700"/>
    <tag k="addr:postcode" v="37404"/>
    <tag k="addr:state" v="Tennessee"/>
    <tag k="addr:street" v="S Holtzclaw Ave"/>
  </node>
  <node id="638809321" version="1" timestamp="2010-02-14T00:43:59Z" uid="103576" user="DiverCTH" changeset="3869890" lat="35.026194" lon="-85.289517">
    <tag k="addr:country" v="US"/>
    <tag k="addr:county" v="Hamilton, TN"/>
    <tag k="addr:housenumber" v="1798"/>
    <tag k="addr:postcode" v="37404"/>
    <tag k="addr:state" v="Tennessee"/>
    <tag k="addr:street" v="S Holtzclaw Ave"/>
  </node>
  <node id="638809323" version="1" timestamp="2010-02-14T00:44:00Z" uid="103576" user="DiverCTH" changeset="3869890" lat="35.026271" lon="-85.289476"/>
  <node id="638809325" version="1" timestamp="2010-02-14T00:44:00Z" uid="103576" user="DiverCTH" changeset="3869890" lat="35.026906" lon="-85.289357"/>
  <node id="638809327" version="1" timestamp="2010-02-14T00:44:00Z" uid="103576" user="DiverCTH" changeset="3869890" lat="35.026983" lon="-85.289316">
    <tag k="addr:country" v="US"/>
    <tag k="addr:county" v="Hamilton, TN"/>
    <tag k="addr:housenumber" v="1701"/>
    <tag k="addr:postcode" v="37404"/>
    <tag k="addr:state" v="Tennessee"/>
    <tag k="addr:street" v="S Holtzclaw Ave"/>
  </node>
  <node id="638809329" version="1" timestamp="2010-02-14T00:44:00Z" uid="103576" user="DiverCTH" changeset="3869890" lat="35.027143" lon="-85.289012">
    <tag k="addr:country" v="US"/>
    <tag k="addr:county" v="Hamilton, TN"/>
    <tag k="addr:housenumber" v="1698"/>
    <tag k="addr:postcode" v="37404"/>
    <tag k="addr:state" v="Tennessee"/>
    <tag k="addr:street" v="S Holtzclaw Ave"/>
  </node>
  <node id="638809331" version="1" timestamp="2010-02-14T00:44:00Z" uid="103576" user="DiverCTH" changeset="3869890" lat="35.027209" lon="-85.289195">
    <tag k="addr:country" v="US"/>
    <tag k="addr:county" v="Hamilton, TN"/>
    <tag k="addr:housenumber" v="1699"/>
    <tag k="addr:postcode" v="37404"/>
    <tag k="addr:state" v="Tennessee"/>
    <tag k="addr:street" v="S Holtzclaw Ave"/>
  </node>
  <node id="638809334" version="1" timestamp="2010-02-14T00:44:00Z" uid="103576" user="DiverCTH" changeset="3869890" lat="35.027844" lon="-85.288858"/>
  <node id="638809335" version="1" timestamp="2010-02-14T00:44:00Z" uid="103576" user="DiverCTH" changeset="3869890" lat="35.027282" lon="-85.289156"/>
  <node id="638809337" version="1" timestamp="2010-02-14T00:44:00Z" uid="103576" user="DiverCTH" changeset="3869890" lat="35.027918" lon="-85.288819">
    <tag k="addr:country" v="US"/>
    <tag k="addr:county" v="Hamilton, TN"/>
    <tag k="addr:housenumber" v="1601"/>
    <tag k="addr:postcode" v="37404"/>
    <tag k="addr:state" v="Tennessee"/>
    <tag k="addr:street" v="S Holtzclaw Ave"/>
  </node>
  <node id="638809339" version="1" timestamp="2010-02-14T00:44:00Z" uid="103576" user="DiverCTH" changeset="3869890" lat="35.027216" lon="-85.288972"/>
  <node id="638809341" version="1" timestamp="2010-02-14T00:44:00Z" uid="103576" user="DiverCTH" changeset="3869890" lat="35.027778" lon="-85.288674"/>
  <node id="638809343" version="1" timestamp="2010-02-14T00:44:00Z" uid="103576" user="DiverCTH" changeset="3869890" lat="35.027852" lon="-85.288635">
    <tag k="addr:country" v="US"/>
    <tag k="addr:county" v="Hamilton, TN"/>
    <tag k="addr:housenumber" v="1600"/>
    <tag k="addr:postcode" v="37404"/>
    <tag k="addr:state" v="Tennessee"/>
    <tag k="addr:street" v="S Holtzclaw Ave"/>
  </node>
</osm>
