<?xml version='1.0' encoding='UTF-8'?>
<osm version="0.6" generator="libosmium/2.20.0">
  <node id="642980299" version="2" timestamp="2010-03-12T16:23:01Z" uid="115477" user="wowik" changeset="4107707" lat="55.9715362" lon="37.3284469"/>
  <node id="642981372" version="3" timestamp="2010-04-11T11:54:54Z" uid="20587" user="balrog-kun" changeset="4392352" lat="54.36839" lon="22.93245">
    <tag k="is_in" v="gmina Wiżajny, powiat suwalski, województwo podlaskie, Poland"/>
    <tag k="is_in:country" v="Poland"/>
    <tag k="is_in:county" v="powiat suwalski"/>
    <tag k="is_in:municipality" v="gmina Wiżajny"/>
    <tag k="is_in:province" v="województwo podlaskie"/>
    <tag k="name" v="Wysokie"/>
    <tag k="place" v="village"/>
    <tag k="source" v="http://ump.waw.pl/ retrieved 16:02:22 01/18/10 (UMP-Suwalki/src/cities-Suwalki.pnt-converted.txt)"/>
    <tag k="teryt:rm" v="01"/>
    <tag k="teryt:simc" v="0772197"/>
    <tag k="teryt:stan_na" v="2009-01-01"/>
    <tag k="teryt:terc" v="2012092"/>
    <tag k="wikipedia" v="Wysokie, Gmina Wiżajny"/>
  </node>
  <node id="642981372" version="4" timestamp="2011-06-27T12:36:42Z" uid="29717" user="eumiro" changeset="8561657" lat="54.36839" lon="22.93245">
    <tag k="is_in" v="gmina Wiżajny, powiat suwalski, województwo podlaskie, Poland"/>
    <tag k="is_in:country" v="Poland"/>
    <tag k="is_in:county" v="powiat suwalski"/>
    <tag k="is_in:municipality" v="gmina Wiżajny"/>
    <tag k="is_in:province" v="województwo podlaskie"/>
    <tag k="name" v="Wysokie"/>
    <tag k="place" v="hamlet"/>
    <tag k="source" v="http://ump.waw.pl/ retrieved 16:02:22 01/18/10 (UMP-Suwalki/src/cities-Suwalki.pnt-converted.txt)"/>
    <tag k="teryt:rm" v="01"/>
    <tag k="teryt:simc" v="0772197"/>
    <tag k="teryt:stan_na" v="2009-01-01"/>
    <tag k="teryt:terc" v="2012092"/>
    <tag k="wikipedia" v="Wysokie, Gmina Wiżajny"/>
  </node>
  <node id="642981387" version="4" timestamp="2010-03-18T05:51:42Z" uid="30632" user="antblant" changeset="4158744" lat="54.3237589" lon="22.9701242">
    <tag k="addr:postcode" v="16-406"/>
    <tag k="is_in" v="gmina Rutka-Tartak, powiat suwalski, województwo podlaskie, Poland"/>
    <tag k="is_in:county" v="powiat suwalski"/>
    <tag k="is_in:municipality" v="gmina Rutka-Tartak"/>
    <tag k="is_in:province" v="województwo podlaskie"/>
    <tag k="name" v="Rutka Tartak"/>
    <tag k="place" v="village"/>
    <tag k="population" v="481"/>
    <tag k="source" v="http://ump.waw.pl/ retrieved 16:02:22 01/18/10 (UMP-Suwalki/src/cities-Suwalki.pnt-converted.txt)"/>
    <tag k="source:population" v="wikipedia"/>
    <tag k="wikipedia" v="Rutka-Tartak"/>
  </node>
  <node id="642981387" version="5" timestamp="2010-04-11T11:54:54Z" uid="20587" user="balrog-kun" changeset="4392352" lat="54.32386" lon="22.97014">
    <tag k="addr:postcode" v="16-406"/>
    <tag k="is_in" v="gmina Rutka-Tartak, powiat suwalski, województwo podlaskie, Poland"/>
    <tag k="is_in:county" v="powiat suwalski"/>
    <tag k="is_in:municipality" v="gmina Rutka-Tartak"/>
    <tag k="is_in:province" v="województwo podlaskie"/>
    <tag k="name" v="Rutka Tartak"/>
    <tag k="place" v="village"/>
    <tag k="population" v="481"/>
    <tag k="source" v="http://ump.waw.pl/ retrieved 16:02:22 01/18/10 (UMP-Suwalki/src/cities-Suwalki.pnt-converted.txt)"/>
    <tag k="source:population" v="wikipedia"/>
    <tag k="wikipedia" v="Rutka-Tartak"/>
  </node>
  <node id="642981439" version="3" timestamp="2010-04-11T11:54:54Z" uid="20587" user="balrog-kun" changeset="4392352" lat="54.32623" lon="22.98732">
    <tag k="is_in" v="gmina Rutka-Tartak, powiat suwalski, województwo podlaskie, Poland"/>
    <tag k="is_in:country" v="Poland"/>
    <tag k="is_in:county" v="powiat suwalski"/>
    <tag k="is_in:municipality" v="gmina Rutka-Tartak"/>
    <tag k="is_in:province" v="województwo podlaskie"/>
    <tag k="name" v="Folusz"/>
    <tag k="place" v="village"/>
    <tag k="source" v="http://ump.waw.pl/ retrieved 16:02:22 01/18/10 (UMP-Suwalki/src/cities-Suwalki.pnt-converted.txt)"/>
    <tag k="teryt:rm" v="01"/>
    <tag k="teryt:simc" v="0767300"/>
    <tag k="teryt:stan_na" v="2009-01-01"/>
    <tag k="teryt:terc" v="2012062"/>
    <tag k="wikipedia" v="Folusz, Podlaskie Voivodeship"/>
  </node>
  <node id="642987854" version="2" timestamp="2011-02-02T09:47:56Z" uid="4467" user="Rosscoe" changeset="7162887" lat="-38.1337489" lon="145.8452798">
    <tag k="highway" v="turning_circle"/>
  </node>
  <node id="642987856" version="2" timestamp="2011-02-02T09:47:58Z" uid="4467" user="Rosscoe" changeset="7162887" lat="-38.1348667" lon="145.8494912"/>
  <node id="642987858" version="5" timestamp="2011-02-02T09:47:43Z" uid="4467" user="Rosscoe" changeset="7162887" lat="-38.1326442" lon="145.845475"/>
  <node id="642987861" version="4" timestamp="2011-02-02T09:48:03Z" uid="4467" user="Rosscoe" changeset="7162887" lat="-38.1328767" lon="145.8464204"/>
</osm>
