<?xml version='1.0' encoding='UTF-8'?>
<osm version="0.6" generator="libosmium/2.20.0">
  <node id="64600101" version="2" timestamp="2010-03-16T15:18:19Z" uid="23543" user="jkjk" changeset="4144051" lat="26.0549" lon="119.3195499"/>
  <node id="64608247" version="2" timestamp="2010-03-16T15:18:24Z" uid="23543" user="jkjk" changeset="4144051" lat="26.06276" lon="119.32528"/>
  <node id="64608871" version="13" timestamp="2009-07-26T01:48:39Z" uid="123700" user="Mala" changeset="1939972" lat="50.8150156" lon="5.1859481">
    <tag k="is_in" v="Limburg, Belgium, Europe"/>
    <tag k="is_in:continent" v="Europe"/>
    <tag k="name" v="Sint-Truiden"/>
    <tag k="name:fr" v="Saint-Trond"/>
    <tag k="name:lt" v="Sint Treidenas"/>
    <tag k="openGeoDB:auto_update" v="population"/>
    <tag k="openGeoDB:is_in" v="Sint-Truiden,Sint-Truiden,Hasselt,Hasselt,Limburg,Limburg,Vlaanderen,Vlaanderen,Belgique,Belgique,Europe"/>
    <tag k="openGeoDB:is_in_loc_id" v="35217"/>
    <tag k="openGeoDB:layer" v="7"/>
    <tag k="openGeoDB:loc_id" v="34637"/>
    <tag k="openGeoDB:name" v="Sint-Truiden,Sint-Truiden"/>
    <tag k="openGeoDB:postal_codes" v="3800"/>
    <tag k="openGeoDB:sort_name" v="SINT-TRUIDEN"/>
    <tag k="openGeoDB:type" v="100600000"/>
    <tag k="openGeoDB:version" v="0.2.6.11 / 2007-12-04 / http://fa-technik.adfc.de/code/opengeodb/dump/"/>
    <tag k="opengeodb:lat" v="50.8166503"/>
    <tag k="opengeodb:lon" v="5.1858994"/>
    <tag k="place" v="town"/>
    <tag k="population" v="38247"/>
    <tag k="wikipedia" v="Sint-Truiden"/>
  </node>
  <node id="64608871" version="14" timestamp="2012-03-11T22:06:30Z" uid="6072" user="Eimai" changeset="10949180" lat="50.8150156" lon="5.1859481"/>
  <node id="64609624" version="2" timestamp="2008-02-16T19:38:01Z" uid="6975" user="ulfl" changeset="141861" lat="49.5230662" lon="11.0325126">
    <tag k="highway" v="bus_stop"/>
  </node>
  <node id="64609624" version="3" timestamp="2009-02-01T00:16:49Z" uid="54319" user="Mathemathis" changeset="8048" lat="49.5230662" lon="11.0325635">
    <tag k="direction" v="1"/>
    <tag k="highway" v="bus_stop"/>
    <tag k="line" v="30"/>
    <tag k="name" v="Boxdorf Nord"/>
    <tag k="shelter" v="yes"/>
  </node>
  <node id="64609624" version="4" timestamp="2009-03-10T14:52:49Z" uid="41049" user="r_kleineisel" changeset="777051" lat="49.5230662" lon="11.0325635">
    <tag k="direction" v="1"/>
    <tag k="highway" v="bus_stop"/>
    <tag k="line" v="30"/>
    <tag k="name" v="Boxdorf Nord"/>
    <tag k="shelter" v="yes"/>
  </node>
  <node id="64609625" version="2" timestamp="2008-02-16T19:38:02Z" uid="6975" user="ulfl" changeset="141861" lat="49.5187173" lon="11.0336078">
    <tag k="highway" v="bus_stop"/>
  </node>
  <node id="64609625" version="3" timestamp="2008-07-06T20:26:54Z" uid="9364" user="keichwa" changeset="415257" lat="49.5187173" lon="11.0336078">
    <tag k="highway" v="bus_stop"/>
    <tag k="name" v="Moosäckerstraße"/>
  </node>
  <node id="64609625" version="4" timestamp="2009-02-01T00:16:49Z" uid="54319" user="Mathemathis" changeset="8048" lat="49.5187173" lon="11.0336078">
    <tag k="direction" v="1"/>
    <tag k="highway" v="bus_stop"/>
    <tag k="line" v="30"/>
    <tag k="name" v="Moosäckerstraße"/>
    <tag k="shelter" v="yes"/>
  </node>
  <node id="64609625" version="5" timestamp="2010-01-03T22:00:17Z" uid="20415" user="nordbeck" changeset="3533118" lat="49.5187173" lon="11.0336078">
    <tag k="direction" v="1"/>
    <tag k="highway" v="bus_stop"/>
    <tag k="line" v="30;28"/>
    <tag k="name" v="Moosäckerstraße"/>
    <tag k="shelter" v="yes"/>
  </node>
  <node id="64609625" version="6" timestamp="2010-08-03T09:35:37Z" uid="319840" user="octo" changeset="5388148" lat="49.5187097" lon="11.0336754">
    <tag k="bench" v="yes"/>
    <tag k="highway" v="bus_stop"/>
    <tag k="line" v="28;30;30 E;N10"/>
    <tag k="name" v="Moosäckerstraße"/>
    <tag k="shelter" v="yes"/>
  </node>
  <node id="64609625" version="7" timestamp="2012-01-26T12:33:35Z" uid="82877" user="Wankmann" changeset="10502686" lat="49.5187097" lon="11.0336754"/>
</osm>
