<?xml version='1.0' encoding='UTF-8'?>
<osm version="0.6" generator="libosmium/2.20.0">
  <node id="64807402" version="4" timestamp="2009-07-26T01:48:45Z" uid="123700" user="Mala" changeset="1939972" lat="51.0716287" lon="2.666495">
    <tag k="is_in" v="West-Vlaanderen"/>
    <tag k="name" v="Veurne"/>
    <tag k="name:fr" v="Furnes"/>
    <tag k="name:la" v="Furna"/>
    <tag k="openGeoDB:auto_update" v="population"/>
    <tag k="openGeoDB:is_in" v="Veurne,Veurne,Veurne,Veurne,West-Vlaanderen,West-Vlaanderen,Vlaanderen,Vlaanderen,Belgique,Belgique,Europe"/>
    <tag k="openGeoDB:is_in_loc_id" v="35424"/>
    <tag k="openGeoDB:layer" v="7"/>
    <tag k="openGeoDB:loc_id" v="34850"/>
    <tag k="openGeoDB:name" v="Veurne,Veurne"/>
    <tag k="openGeoDB:postal_codes" v="8630"/>
    <tag k="openGeoDB:sort_name" v="VEURNE"/>
    <tag k="openGeoDB:type" v="100600000"/>
    <tag k="openGeoDB:version" v="0.2.6.11 / 2007-12-04 / http://fa-technik.adfc.de/code/opengeodb/dump/"/>
    <tag k="opengeodb:lat" v="51.0716287"/>
    <tag k="opengeodb:lon" v="2.666495"/>
    <tag k="place" v="town"/>
    <tag k="wikipedia" v="Veurne"/>
  </node>
  <node id="64807402" version="5" timestamp="2010-01-02T19:54:34Z" uid="209650" user="s-m" changeset="3522010" lat="51.0716288" lon="2.6664949">
    <tag k="is_in" v="West-Vlaanderen"/>
    <tag k="name" v="Veurne - Furnes"/>
    <tag k="name:fr" v="Furnes"/>
    <tag k="name:la" v="Furna"/>
    <tag k="openGeoDB:auto_update" v="population"/>
    <tag k="openGeoDB:is_in" v="Veurne,Veurne,Veurne,Veurne,West-Vlaanderen,West-Vlaanderen,Vlaanderen,Vlaanderen,Belgique,Belgique,Europe"/>
    <tag k="openGeoDB:is_in_loc_id" v="35424"/>
    <tag k="openGeoDB:layer" v="7"/>
    <tag k="openGeoDB:loc_id" v="34850"/>
    <tag k="openGeoDB:name" v="Veurne,Veurne"/>
    <tag k="openGeoDB:postal_codes" v="8630"/>
    <tag k="openGeoDB:sort_name" v="VEURNE"/>
    <tag k="openGeoDB:type" v="100600000"/>
    <tag k="openGeoDB:version" v="0.2.6.11 / 2007-12-04 / http://fa-technik.adfc.de/code/opengeodb/dump/"/>
    <tag k="opengeodb:lat" v="51.0716287"/>
    <tag k="opengeodb:lon" v="2.666495"/>
    <tag k="place" v="town"/>
    <tag k="wikipedia" v="Veurne"/>
  </node>
  <node id="64807402" version="6" timestamp="2010-01-21T19:31:48Z" uid="6072" user="Eimai" changeset="3677411" lat="51.0716288" lon="2.6664949">
    <tag k="is_in" v="West-Vlaanderen"/>
    <tag k="name" v="Veurne"/>
    <tag k="name:fr" v="Furnes"/>
    <tag k="name:la" v="Furna"/>
    <tag k="openGeoDB:auto_update" v="population"/>
    <tag k="openGeoDB:is_in" v="Veurne,Veurne,Veurne,Veurne,West-Vlaanderen,West-Vlaanderen,Vlaanderen,Vlaanderen,Belgique,Belgique,Europe"/>
    <tag k="openGeoDB:is_in_loc_id" v="35424"/>
    <tag k="openGeoDB:layer" v="7"/>
    <tag k="openGeoDB:loc_id" v="34850"/>
    <tag k="openGeoDB:name" v="Veurne,Veurne"/>
    <tag k="openGeoDB:postal_codes" v="8630"/>
    <tag k="openGeoDB:sort_name" v="VEURNE"/>
    <tag k="openGeoDB:type" v="100600000"/>
    <tag k="openGeoDB:version" v="0.2.6.11 / 2007-12-04 / http://fa-technik.adfc.de/code/opengeodb/dump/"/>
    <tag k="opengeodb:lat" v="51.0716287"/>
    <tag k="opengeodb:lon" v="2.666495"/>
    <tag k="place" v="town"/>
    <tag k="wikipedia" v="Veurne"/>
  </node>
  <node id="64807402" version="7" timestamp="2010-08-04T19:12:32Z" uid="170722" user="JosV" changeset="5402162" lat="51.0724" lon="2.662135">
    <tag k="is_in" v="West-Vlaanderen"/>
    <tag k="name" v="Veurne"/>
    <tag k="name:fr" v="Furnes"/>
    <tag k="name:la" v="Furna"/>
    <tag k="openGeoDB:auto_update" v="population"/>
    <tag k="openGeoDB:is_in" v="Veurne,Veurne,Veurne,Veurne,West-Vlaanderen,West-Vlaanderen,Vlaanderen,Vlaanderen,Belgique,Belgique,Europe"/>
    <tag k="openGeoDB:is_in_loc_id" v="35424"/>
    <tag k="openGeoDB:layer" v="7"/>
    <tag k="openGeoDB:loc_id" v="34850"/>
    <tag k="openGeoDB:name" v="Veurne,Veurne"/>
    <tag k="openGeoDB:postal_codes" v="8630"/>
    <tag k="openGeoDB:sort_name" v="VEURNE"/>
    <tag k="openGeoDB:type" v="100600000"/>
    <tag k="openGeoDB:version" v="0.2.6.11 / 2007-12-04 / http://fa-technik.adfc.de/code/opengeodb/dump/"/>
    <tag k="opengeodb:lat" v="51.0716287"/>
    <tag k="opengeodb:lon" v="2.666495"/>
    <tag k="place" v="town"/>
    <tag k="wikipedia" v="Veurne"/>
  </node>
  <node id="64807402" version="8" timestamp="2012-02-28T14:51:49Z" uid="6072" user="Eimai" changeset="10819375" lat="51.0724" lon="2.662135"/>
  <node id="64808663" version="2" timestamp="2008-07-03T18:07:11Z" uid="6975" user="ulfl" changeset="379368" lat="52.5167023" lon="-1.8623426">
    <tag k="leisure" v="playground"/>
  </node>
  <node id="64808663" version="3" timestamp="2011-12-12T00:44:31Z" uid="735" user="blackadder" changeset="10095432" lat="52.5167023" lon="-1.8623426"/>
  <node id="64809829" version="4" timestamp="2008-09-07T06:06:26Z" uid="58091" user="Andreas M" changeset="557625" lat="48.2381651" lon="16.3746906"/>
  <node id="64809850" version="4" timestamp="2008-09-07T06:06:09Z" uid="58091" user="Andreas M" changeset="557625" lat="48.2379193" lon="16.3741928"/>
  <node id="64809850" version="5" timestamp="2011-03-07T15:22:33Z" uid="99800" user="wolfbert" changeset="7485181" lat="48.2380085" lon="16.3742476"/>
  <node id="64809850" version="6" timestamp="2012-01-20T07:33:33Z" uid="64564" user="Alexander Kirk" changeset="10443726" lat="48.2380094" lon="16.3742597"/>
</osm>
