<?xml version='1.0' encoding='UTF-8'?>
<osm version="0.6" generator="libosmium/2.20.0">
  <node id="65190235" version="5" timestamp="2008-07-11T13:12:32Z" uid="13367" user="nubok" changeset="459420" lat="52.1457497" lon="11.6396495"/>
  <node id="65190235" version="6" timestamp="2008-07-16T17:13:48Z" uid="13367" user="nubok" changeset="506835" lat="52.1457534" lon="11.6397381"/>
  <node id="65190235" version="7" timestamp="2008-09-21T12:31:55Z" uid="13367" user="nubok" changeset="675369" lat="52.1457534" lon="11.6397381"/>
  <node id="65190236" version="7" timestamp="2008-06-17T20:30:23Z" uid="13367" user="nubok" changeset="198517" lat="52.147622" lon="11.6395581">
    <tag k="highway" v="traffic_signals"/>
  </node>
  <node id="65190236" version="8" timestamp="2008-07-11T13:15:20Z" uid="13367" user="nubok" changeset="459420" lat="52.1476194" lon="11.6397267">
    <tag k="highway" v="traffic_signals"/>
  </node>
  <node id="65190236" version="9" timestamp="2008-07-11T13:15:46Z" uid="13367" user="nubok" changeset="459420" lat="52.1476194" lon="11.6397267"/>
  <node id="65190236" version="10" timestamp="2008-07-11T13:16:02Z" uid="13367" user="nubok" changeset="459420" lat="52.1476194" lon="11.6397267">
    <tag k="highway" v="traffic_signals"/>
  </node>
  <node id="65190236" version="11" timestamp="2008-07-16T17:13:19Z" uid="13367" user="nubok" changeset="506835" lat="52.1476336" lon="11.6397725">
    <tag k="highway" v="traffic_signals"/>
  </node>
  <node id="65190236" version="12" timestamp="2008-09-22T10:50:58Z" uid="42683" user="riechfield" changeset="679050" lat="52.1476165" lon="11.6397685">
    <tag k="highway" v="traffic_signals"/>
  </node>
  <node id="65190236" version="13" timestamp="2009-03-03T16:35:57Z" uid="42683" user="riechfield" changeset="729384" lat="52.1474939" lon="11.6397878">
    <tag k="highway" v="traffic_signals"/>
  </node>
  <node id="65190236" version="14" timestamp="2009-03-03T16:44:08Z" uid="42683" user="riechfield" changeset="729384" lat="52.1474229" lon="11.6397839">
    <tag k="highway" v="traffic_signals"/>
  </node>
  <node id="65190236" version="15" timestamp="2009-03-03T17:00:52Z" uid="42683" user="riechfield" changeset="729384" lat="52.1474206" lon="11.6397911"/>
  <node id="65190236" version="16" timestamp="2009-03-07T19:30:04Z" uid="13565" user="hadhuey" changeset="751812" lat="52.1474206" lon="11.6397911"/>
  <node id="65190237" version="5" timestamp="2008-06-17T20:29:19Z" uid="13367" user="nubok" changeset="198517" lat="52.1495405" lon="11.639101"/>
  <node id="65190237" version="6" timestamp="2008-11-03T17:15:01Z" uid="13565" user="hadhuey" changeset="668344" lat="52.1495405" lon="11.639101"/>
  <node id="65190237" version="7" timestamp="2008-11-03T17:18:05Z" uid="13565" user="hadhuey" changeset="668344" lat="52.1495405" lon="11.639101"/>
  <node id="65190237" version="8" timestamp="2010-05-05T21:25:17Z" uid="101337" user="bonzulu" changeset="4617268" lat="52.14956" lon="11.6391066"/>
  <node id="65190237" version="9" timestamp="2010-05-14T17:35:48Z" uid="101337" user="bonzulu" changeset="4698320" lat="52.14956" lon="11.6391066"/>
  <node id="65190240" version="2" timestamp="2008-09-21T12:31:55Z" uid="13367" user="nubok" changeset="675369" lat="52.1457575" lon="11.6397727"/>
  <node id="65191295" version="1" timestamp="2007-10-11T21:13:03Z" uid="4667" user="MapZ" changeset="122267" lat="49.5059395" lon="8.6241589">
    <tag k="created_by" v="JOSM"/>
  </node>
  <node id="65191295" version="2" timestamp="2010-05-01T20:06:40Z" uid="9581" user="Lobelt" changeset="4578903" lat="49.5059348" lon="8.624188"/>
  <node id="65191325" version="1" timestamp="2007-10-11T21:13:03Z" uid="4667" user="MapZ" changeset="122267" lat="49.5061375" lon="8.6229096">
    <tag k="created_by" v="JOSM"/>
  </node>
  <node id="65191325" version="2" timestamp="2010-05-01T20:06:40Z" uid="9581" user="Lobelt" changeset="4578903" lat="49.5061091" lon="8.6229824"/>
  <node id="65191347" version="1" timestamp="2007-10-11T21:13:04Z" uid="4667" user="MapZ" changeset="122267" lat="49.5063715" lon="8.6218626">
    <tag k="created_by" v="JOSM"/>
  </node>
  <node id="65191349" version="1" timestamp="2007-10-11T21:13:04Z" uid="4667" user="MapZ" changeset="122267" lat="49.5066" lon="8.6210559">
    <tag k="created_by" v="JOSM"/>
  </node>
  <node id="65191349" version="2" timestamp="2007-10-16T22:38:44Z" uid="4667" user="MapZ" changeset="223456" lat="49.5066" lon="8.6210559">
    <tag k="created_by" v="MapZ"/>
  </node>
  <node id="65191349" version="3" timestamp="2008-07-05T13:02:13Z" uid="4667" user="MapZ" changeset="399518" lat="49.5066" lon="8.6210559"/>
  <node id="65191354" version="1" timestamp="2007-10-11T21:13:04Z" uid="4667" user="MapZ" changeset="122267" lat="49.5067338" lon="8.6204895">
    <tag k="created_by" v="JOSM"/>
  </node>
  <node id="65191354" version="2" timestamp="2007-10-16T22:38:58Z" uid="4667" user="MapZ" changeset="223456" lat="49.5067338" lon="8.6204895">
    <tag k="created_by" v="MapZ"/>
  </node>
  <node id="65191354" version="3" timestamp="2008-07-05T13:02:13Z" uid="4667" user="MapZ" changeset="399518" lat="49.5067338" lon="8.6204895"/>
  <node id="65191358" version="1" timestamp="2007-10-11T21:13:04Z" uid="4667" user="MapZ" changeset="122267" lat="49.5068452" lon="8.6200432">
    <tag k="created_by" v="JOSM"/>
  </node>
  <node id="65191358" version="2" timestamp="2007-10-16T22:39:08Z" uid="4667" user="MapZ" changeset="223456" lat="49.5068452" lon="8.6200432">
    <tag k="created_by" v="MapZ"/>
  </node>
  <node id="65191358" version="3" timestamp="2008-07-05T13:02:13Z" uid="4667" user="MapZ" changeset="399518" lat="49.5068452" lon="8.6200432"/>
  <node id="65191358" version="4" timestamp="2011-12-14T21:24:23Z" uid="6390" user="grenzdebil_bonn" changeset="10119586" lat="49.5068207" lon="8.6200299"/>
  <node id="65191363" version="1" timestamp="2007-10-11T21:13:05Z" uid="4667" user="MapZ" changeset="122267" lat="49.5013435" lon="8.6265563">
    <tag k="created_by" v="JOSM"/>
  </node>
  <node id="65191363" version="2" timestamp="2008-06-15T22:08:07Z" uid="45142" user="nogirard" changeset="190490" lat="49.5013324" lon="8.6265735">
    <tag k="created_by" v="JOSM"/>
  </node>
  <node id="65191363" version="3" timestamp="2009-12-02T21:50:57Z" uid="9581" user="Lobelt" changeset="3275909" lat="49.5012793" lon="8.626399"/>
  <node id="65191370" version="1" timestamp="2007-10-11T21:13:05Z" uid="4667" user="MapZ" changeset="122267" lat="49.4981622" lon="8.6521065">
    <tag k="amenity" v="post_box"/>
    <tag k="created_by" v="JOSM"/>
  </node>
  <node id="65191370" version="2" timestamp="2007-11-23T20:43:09Z" uid="20153" user="su1970" changeset="604115" lat="49.4981651" lon="8.6521054">
    <tag k="amenity" v="post_box"/>
    <tag k="created_by" v="Potlatch 0.5c"/>
  </node>
  <node id="65191370" version="3" timestamp="2008-07-19T14:32:19Z" uid="4667" user="MapZ" changeset="539737" lat="49.4981651" lon="8.6521054">
    <tag k="amenity" v="post_box"/>
    <tag k="created_by" v="Potlatch 0.5c"/>
    <tag k="postal_code" v="69469"/>
  </node>
  <node id="65191370" version="4" timestamp="2008-07-19T14:43:42Z" uid="4667" user="MapZ" changeset="539737" lat="49.4981651" lon="8.6521054">
    <tag k="amenity" v="post_box"/>
    <tag k="created_by" v="Potlatch 0.5c"/>
    <tag k="postal_code" v="69493"/>
  </node>
  <node id="65191370" version="5" timestamp="2012-01-09T14:59:49Z" uid="442210" user="dwausr" changeset="10342241" lat="49.4981651" lon="8.6521054"/>
  <node id="65191370" version="6" timestamp="2012-03-28T06:39:36Z" uid="442210" user="dwausr" changeset="11123485" lat="49.4981651" lon="8.6521054">
    <tag k="amenity" v="post_box"/>
    <tag k="postal_code" v="69493"/>
  </node>
  <node id="65191380" version="1" timestamp="2007-10-11T21:13:05Z" uid="4667" user="MapZ" changeset="122267" lat="49.4984273" lon="8.6571402">
    <tag k="amenity" v="post_box"/>
    <tag k="created_by" v="JOSM"/>
  </node>
  <node id="65191380" version="2" timestamp="2008-07-19T14:32:19Z" uid="4667" user="MapZ" changeset="539737" lat="49.4984273" lon="8.6571402">
    <tag k="amenity" v="post_box"/>
    <tag k="created_by" v="JOSM"/>
    <tag k="postal_code" v="69469"/>
  </node>
  <node id="65191380" version="3" timestamp="2008-07-19T14:43:42Z" uid="4667" user="MapZ" changeset="539737" lat="49.4984273" lon="8.6571402">
    <tag k="amenity" v="post_box"/>
    <tag k="created_by" v="JOSM"/>
    <tag k="postal_code" v="69493"/>
  </node>
  <node id="65191380" version="4" timestamp="2010-07-16T19:02:23Z" uid="9581" user="Lobelt" changeset="5237079" lat="49.4984273" lon="8.6571402">
    <tag k="amenity" v="post_box"/>
    <tag k="postal_code" v="69493"/>
  </node>
  <node id="65191391" version="1" timestamp="2007-10-11T21:13:06Z" uid="4667" user="MapZ" changeset="122267" lat="49.4984476" lon="8.6571535">
    <tag k="amenity" v="bank"/>
    <tag k="created_by" v="JOSM"/>
    <tag k="name" v="Volksbank"/>
  </node>
  <node id="65191391" version="2" timestamp="2008-07-19T14:32:19Z" uid="4667" user="MapZ" changeset="539737" lat="49.4984476" lon="8.6571535">
    <tag k="amenity" v="bank"/>
    <tag k="created_by" v="JOSM"/>
    <tag k="name" v="Volksbank"/>
    <tag k="postal_code" v="69469"/>
  </node>
  <node id="65191391" version="3" timestamp="2008-07-19T14:43:42Z" uid="4667" user="MapZ" changeset="539737" lat="49.4984476" lon="8.6571535">
    <tag k="amenity" v="bank"/>
    <tag k="created_by" v="JOSM"/>
    <tag k="name" v="Volksbank"/>
    <tag k="postal_code" v="69493"/>
  </node>
  <node id="65191391" version="4" timestamp="2009-02-19T20:30:09Z" uid="4667" user="MapZ" changeset="558735" lat="49.4984638" lon="8.6571719">
    <tag k="addr:city" v="Hirschberg-Leutershausen"/>
    <tag k="addr:housenumber" v="48"/>
    <tag k="addr:postcode" v="69493"/>
    <tag k="addr:street" v="Bahnhofstraße"/>
    <tag k="amenity" v="bank"/>
    <tag k="created_by" v="JOSM"/>
    <tag k="name" v="Volksbank"/>
    <tag k="postal_code" v="69493"/>
  </node>
  <node id="65191391" version="5" timestamp="2009-02-19T20:45:15Z" uid="4667" user="MapZ" changeset="558735" lat="49.4984803" lon="8.6571816">
    <tag k="addr:city" v="Hirschberg-Leutershausen"/>
    <tag k="addr:housenumber" v="48"/>
    <tag k="addr:postcode" v="69493"/>
    <tag k="addr:street" v="Bahnhofstraße"/>
    <tag k="amenity" v="bank"/>
    <tag k="created_by" v="JOSM"/>
    <tag k="name" v="Volksbank"/>
    <tag k="postal_code" v="69493"/>
  </node>
  <node id="65191391" version="6" timestamp="2010-03-06T23:20:33Z" uid="9581" user="Lobelt" changeset="4056134" lat="49.4984803" lon="8.6571816">
    <tag k="addr:city" v="Hirschberg-Leutershausen"/>
    <tag k="addr:housenumber" v="48"/>
    <tag k="addr:postcode" v="69493"/>
    <tag k="addr:street" v="Bahnhofstraße"/>
    <tag k="amenity" v="bank"/>
    <tag k="created_by" v="JOSM"/>
    <tag k="name" v="Volksbank"/>
    <tag k="postal_code" v="69493"/>
  </node>
  <node id="65191400" version="1" timestamp="2007-10-11T21:13:06Z" uid="4667" user="MapZ" changeset="122267" lat="49.4985937" lon="8.6576851">
    <tag k="amenity" v="bank"/>
    <tag k="created_by" v="JOSM"/>
    <tag k="name" v="Sparkasse"/>
  </node>
  <node id="65191400" version="2" timestamp="2008-07-19T14:32:18Z" uid="4667" user="MapZ" changeset="539737" lat="49.4985937" lon="8.6576851">
    <tag k="amenity" v="bank"/>
    <tag k="created_by" v="JOSM"/>
    <tag k="name" v="Sparkasse"/>
    <tag k="postal_code" v="69469"/>
  </node>
  <node id="65191400" version="3" timestamp="2008-07-19T14:43:41Z" uid="4667" user="MapZ" changeset="539737" lat="49.4985937" lon="8.6576851">
    <tag k="amenity" v="bank"/>
    <tag k="created_by" v="JOSM"/>
    <tag k="name" v="Sparkasse"/>
    <tag k="postal_code" v="69493"/>
  </node>
  <node id="65191400" version="4" timestamp="2009-02-16T20:11:10Z" uid="4667" user="MapZ" changeset="485707" lat="49.4985937" lon="8.6576851">
    <tag k="addr:city" v="Hirschberg-Leutershausen"/>
    <tag k="addr:housenumber" v="39"/>
    <tag k="addr:postcode" v="69493"/>
    <tag k="addr:street" v="Bahnhofstraße"/>
    <tag k="amenity" v="bank"/>
    <tag k="created_by" v="JOSM"/>
    <tag k="name" v="Sparkasse"/>
    <tag k="postal_code" v="69493"/>
  </node>
  <node id="65191400" version="5" timestamp="2009-02-19T21:14:04Z" uid="4667" user="MapZ" changeset="558735" lat="49.4985862" lon="8.6576989">
    <tag k="addr:city" v="Hirschberg-Leutershausen"/>
    <tag k="addr:housenumber" v="39"/>
    <tag k="addr:postcode" v="69493"/>
    <tag k="addr:street" v="Bahnhofstraße"/>
    <tag k="amenity" v="bank"/>
    <tag k="created_by" v="JOSM"/>
    <tag k="name" v="Sparkasse"/>
    <tag k="postal_code" v="69493"/>
  </node>
  <node id="65191400" version="6" timestamp="2009-03-26T20:40:43Z" uid="9581" user="Lobelt" changeset="861331" lat="49.4987083" lon="8.6582127">
    <tag k="addr:city" v="Hirschberg-Leutershausen"/>
    <tag k="addr:housenumber" v="39"/>
    <tag k="addr:postcode" v="69493"/>
    <tag k="addr:street" v="Bahnhofstraße"/>
    <tag k="amenity" v="bank"/>
    <tag k="created_by" v="JOSM"/>
    <tag k="name" v="Sparkasse"/>
    <tag k="postal_code" v="69493"/>
  </node>
  <node id="65191400" version="7" timestamp="2010-03-05T19:35:21Z" uid="9581" user="Lobelt" changeset="4043829" lat="49.4987083" lon="8.6582127">
    <tag k="addr:city" v="Hirschberg-Leutershausen"/>
    <tag k="addr:housenumber" v="39"/>
    <tag k="addr:postcode" v="69493"/>
    <tag k="addr:street" v="Bahnhofstraße"/>
    <tag k="amenity" v="bank"/>
    <tag k="created_by" v="JOSM"/>
    <tag k="name" v="Sparkasse"/>
    <tag k="postal_code" v="69493"/>
  </node>
  <node id="65191412" version="1" timestamp="2007-10-11T21:13:06Z" uid="4667" user="MapZ" changeset="122267" lat="49.4984999" lon="8.657317">
    <tag k="amenity" v="fast_food"/>
    <tag k="created_by" v="JOSM"/>
    <tag k="name" v="Dicle Döner"/>
  </node>
  <node id="65191412" version="2" timestamp="2008-07-19T14:32:18Z" uid="4667" user="MapZ" changeset="539737" lat="49.4984999" lon="8.657317">
    <tag k="amenity" v="fast_food"/>
    <tag k="created_by" v="JOSM"/>
    <tag k="name" v="Dicle Döner"/>
    <tag k="postal_code" v="69469"/>
  </node>
  <node id="65191412" version="3" timestamp="2008-07-19T14:43:42Z" uid="4667" user="MapZ" changeset="539737" lat="49.4984999" lon="8.657317">
    <tag k="amenity" v="fast_food"/>
    <tag k="created_by" v="JOSM"/>
    <tag k="name" v="Dicle Döner"/>
    <tag k="postal_code" v="69493"/>
  </node>
  <node id="65191412" version="4" timestamp="2009-02-19T20:45:14Z" uid="4667" user="MapZ" changeset="558735" lat="49.4985085" lon="8.6573194">
    <tag k="amenity" v="fast_food"/>
    <tag k="created_by" v="JOSM"/>
    <tag k="name" v="Dicle Döner"/>
    <tag k="postal_code" v="69493"/>
  </node>
  <node id="65191412" version="5" timestamp="2009-03-26T20:40:43Z" uid="9581" user="Lobelt" changeset="861331" lat="49.498617" lon="8.6576202">
    <tag k="amenity" v="fast_food"/>
    <tag k="created_by" v="JOSM"/>
    <tag k="name" v="Dicle Döner"/>
    <tag k="postal_code" v="69493"/>
  </node>
  <node id="65191412" version="6" timestamp="2009-08-23T15:41:47Z" uid="67820" user="tandem1965" changeset="2231428" lat="49.4986251" lon="8.6575971">
    <tag k="amenity" v="fast_food"/>
    <tag k="created_by" v="JOSM"/>
    <tag k="name" v="Dicle Döner"/>
    <tag k="postal_code" v="69493"/>
  </node>
  <node id="65191412" version="7" timestamp="2010-01-20T21:22:32Z" uid="9581" user="Lobelt" changeset="3670587" lat="49.4986272" lon="8.6576332">
    <tag k="amenity" v="fast_food"/>
    <tag k="name" v="Dicle Döner"/>
    <tag k="postal_code" v="69493"/>
  </node>
  <node id="65191412" version="8" timestamp="2010-03-06T23:20:31Z" uid="9581" user="Lobelt" changeset="4056134" lat="49.4986694" lon="8.6576831">
    <tag k="amenity" v="fast_food"/>
    <tag k="name" v="Dicle Döner"/>
    <tag k="postal_code" v="69493"/>
  </node>
  <node id="65191412" version="9" timestamp="2011-10-16T20:35:51Z" uid="290680" user="wheelmap_visitor" changeset="9569216" lat="49.4986694" lon="8.6576831">
    <tag k="amenity" v="fast_food"/>
    <tag k="name" v="Dicle Döner"/>
    <tag k="postal_code" v="69493"/>
    <tag k="wheelchair" v="limited"/>
  </node>
  <node id="65191412" version="10" timestamp="2012-01-12T07:43:58Z" uid="442210" user="dwausr" changeset="10367185" lat="49.4986694" lon="8.6576831"/>
  <node id="65191412" version="11" timestamp="2012-03-27T13:43:52Z" uid="442210" user="dwausr" changeset="11116588" lat="49.4986694" lon="8.6576831">
    <tag k="amenity" v="fast_food"/>
    <tag k="name" v="Dicle Döner"/>
    <tag k="postal_code" v="69493"/>
    <tag k="wheelchair" v="limited"/>
  </node>
  <node id="65192281" version="3" timestamp="2008-09-21T12:31:20Z" uid="13367" user="nubok" changeset="675369" lat="52.148113" lon="11.6394435"/>
  <node id="65192281" version="4" timestamp="2009-03-07T19:27:04Z" uid="13565" user="hadhuey" changeset="751812" lat="52.148113" lon="11.6394435"/>
  <node id="65192281" version="5" timestamp="2009-03-07T19:27:04Z" uid="13565" user="hadhuey" changeset="751812" lat="52.148113" lon="11.6394435"/>
  <node id="65192281" version="6" timestamp="2009-03-07T19:29:37Z" uid="13565" user="hadhuey" changeset="751812" lat="52.148113" lon="11.6394435"/>
  <node id="65192281" version="7" timestamp="2012-02-11T18:23:59Z" uid="101337" user="bonzulu" changeset="10655711" lat="52.1480869" lon="11.6394535"/>
  <node id="65194616" version="2" timestamp="2008-06-17T20:30:23Z" uid="13367" user="nubok" changeset="198517" lat="52.1474693" lon="11.6456018"/>
  <node id="65194616" version="3" timestamp="2008-10-14T10:05:12Z" uid="42683" user="riechfield" changeset="324446" lat="52.1474271" lon="11.6457392"/>
  <node id="65194616" version="4" timestamp="2008-10-14T20:48:03Z" uid="13565" user="hadhuey" changeset="331124" lat="52.1474271" lon="11.6457392"/>
  <node id="65194616" version="5" timestamp="2008-10-14T20:48:17Z" uid="13565" user="hadhuey" changeset="331124" lat="52.1474271" lon="11.6457392"/>
  <node id="65194616" version="6" timestamp="2008-10-14T20:48:39Z" uid="13565" user="hadhuey" changeset="331124" lat="52.1474271" lon="11.6457392">
    <tag k="railway" v="halt"/>
  </node>
  <node id="65194616" version="7" timestamp="2008-11-25T11:31:47Z" uid="42683" user="riechfield" changeset="793637" lat="52.1474271" lon="11.6457392">
    <tag k="name" v="Sieverstorstraße"/>
    <tag k="railway" v="tram_stop"/>
  </node>
  <node id="65194616" version="8" timestamp="2008-11-25T11:32:53Z" uid="42683" user="riechfield" changeset="793637" lat="52.1474271" lon="11.6457392">
    <tag k="name" v="Agnetenstraße"/>
    <tag k="railway" v="tram_stop"/>
  </node>
  <node id="65194616" version="9" timestamp="2008-12-22T23:11:41Z" uid="13367" user="nubok" changeset="563286" lat="52.1474297" lon="11.6458282">
    <tag k="name" v="Agnetenstraße"/>
    <tag k="railway" v="tram_stop"/>
  </node>
  <node id="65194616" version="10" timestamp="2009-08-05T07:49:27Z" uid="42683" user="riechfield" changeset="2043126" lat="52.1474428" lon="11.6457713">
    <tag k="name" v="Agnetenstraße"/>
    <tag k="public_transport" v="stop_position"/>
    <tag k="railway" v="tram_stop"/>
    <tag k="tram" v="yes"/>
  </node>
  <node id="65194616" version="11" timestamp="2011-09-28T17:47:13Z" uid="41889" user="Kurt Krampmeier" changeset="9421396" lat="52.1474481" lon="11.6456826">
    <tag k="name" v="Agnetenstraße"/>
    <tag k="public_transport" v="stop_position"/>
    <tag k="railway" v="tram_stop"/>
    <tag k="tram" v="yes"/>
  </node>
  <node id="65194616" version="12" timestamp="2011-10-05T09:41:35Z" uid="290680" user="wheelmap_visitor" changeset="9474855" lat="52.1474481" lon="11.6456826">
    <tag k="name" v="Agnetenstraße"/>
    <tag k="public_transport" v="stop_position"/>
    <tag k="railway" v="tram_stop"/>
    <tag k="tram" v="yes"/>
    <tag k="wheelchair" v="no"/>
  </node>
  <node id="65194616" version="13" timestamp="2012-03-14T11:17:45Z" uid="90262" user="ClickKlack" changeset="10976694" lat="52.1475187" lon="11.6457227">
    <tag k="name" v="Agnetenstraße"/>
    <tag k="public_transport" v="stop_position"/>
    <tag k="railway" v="tram_stop"/>
    <tag k="tram" v="yes"/>
    <tag k="wheelchair" v="no"/>
  </node>
  <node id="65196018" version="1" timestamp="2007-10-11T21:16:12Z" uid="4667" user="MapZ" changeset="122267" lat="49.4996625" lon="8.6617683">
    <tag k="amenity" v="post_office"/>
    <tag k="created_by" v="JOSM"/>
  </node>
  <node id="65196018" version="2" timestamp="2008-07-19T14:29:01Z" uid="4667" user="MapZ" changeset="539737" lat="49.4996625" lon="8.6617683">
    <tag k="amenity" v="post_office"/>
    <tag k="created_by" v="JOSM"/>
    <tag k="postal_code" v="69469"/>
  </node>
  <node id="65196018" version="3" timestamp="2008-07-19T14:39:02Z" uid="4667" user="MapZ" changeset="539737" lat="49.4996625" lon="8.6617683">
    <tag k="amenity" v="post_office"/>
    <tag k="created_by" v="JOSM"/>
    <tag k="postal_code" v="69493"/>
  </node>
  <node id="65196018" version="4" timestamp="2010-04-13T20:01:33Z" uid="9581" user="Lobelt" changeset="4417232" lat="49.4996489" lon="8.661788">
    <tag k="amenity" v="post_office"/>
    <tag k="postal_code" v="69493"/>
  </node>
  <node id="65196018" version="5" timestamp="2012-01-12T07:44:05Z" uid="442210" user="dwausr" changeset="10367185" lat="49.4996489" lon="8.661788"/>
  <node id="65196018" version="6" timestamp="2012-03-28T06:39:46Z" uid="442210" user="dwausr" changeset="11123485" lat="49.4996489" lon="8.661788">
    <tag k="amenity" v="post_office"/>
    <tag k="postal_code" v="69493"/>
  </node>
  <node id="65196025" version="1" timestamp="2007-10-11T21:16:12Z" uid="4667" user="MapZ" changeset="122267" lat="49.5065041" lon="8.6281436">
    <tag k="created_by" v="JOSM"/>
    <tag k="name" v="Penny"/>
    <tag k="shop" v="supermarket"/>
  </node>
  <node id="65196025" version="2" timestamp="2007-11-19T12:28:18Z" changeset="566744" lat="49.5065041" lon="8.6281436">
    <tag k="amenity" v="supermarket"/>
    <tag k="created_by" v="JOSM"/>
    <tag k="name" v="Penny"/>
    <tag k="shop" v="supermarket"/>
  </node>
  <node id="65196025" version="3" timestamp="2007-11-23T20:42:41Z" uid="20153" user="su1970" changeset="604115" lat="49.5065094" lon="8.6281414">
    <tag k="amenity" v="supermarket"/>
    <tag k="created_by" v="Potlatch 0.5c"/>
    <tag k="name" v="Penny"/>
    <tag k="shop" v="supermarket"/>
  </node>
  <node id="65196025" version="4" timestamp="2008-05-03T12:36:27Z" uid="4667" user="MapZ" changeset="320706" lat="49.5068147" lon="8.6273813">
    <tag k="amenity" v="supermarket"/>
    <tag k="created_by" v="Potlatch 0.5c"/>
    <tag k="name" v="Penny"/>
    <tag k="shop" v="supermarket"/>
  </node>
  <node id="65196025" version="5" timestamp="2008-06-05T02:45:09Z" uid="3516" user="BiIbo" changeset="58435" lat="49.5068147" lon="8.6273813">
    <tag k="created_by" v="Potlatch 0.5c"/>
    <tag k="name" v="Penny"/>
    <tag k="shop" v="supermarket"/>
  </node>
  <node id="65196025" version="6" timestamp="2010-05-01T20:06:40Z" uid="9581" user="Lobelt" changeset="4578903" lat="49.5067315" lon="8.6274069">
    <tag k="name" v="Penny"/>
    <tag k="shop" v="supermarket"/>
  </node>
  <node id="65196025" version="7" timestamp="2010-09-05T19:18:44Z" uid="279457" user="Piddi" changeset="5691499" lat="49.5067315" lon="8.6274069">
    <tag k="name" v="Penny"/>
    <tag k="shop" v="supermarket"/>
  </node>
  <node id="65196031" version="1" timestamp="2007-10-11T21:16:12Z" uid="4667" user="MapZ" changeset="122267" lat="49.5076586" lon="8.6258237">
    <tag k="created_by" v="JOSM"/>
    <tag k="name" v="Lidl"/>
    <tag k="shop" v="supermarket"/>
  </node>
  <node id="65196031" version="2" timestamp="2007-11-19T12:28:18Z" changeset="566744" lat="49.5076586" lon="8.6258237">
    <tag k="amenity" v="supermarket"/>
    <tag k="created_by" v="JOSM"/>
    <tag k="name" v="Lidl"/>
    <tag k="shop" v="supermarket"/>
  </node>
  <node id="65196031" version="3" timestamp="2007-11-23T20:43:04Z" uid="20153" user="su1970" changeset="604115" lat="49.5076631" lon="8.6258154">
    <tag k="amenity" v="supermarket"/>
    <tag k="created_by" v="Potlatch 0.5c"/>
    <tag k="name" v="Lidl"/>
    <tag k="shop" v="supermarket"/>
  </node>
  <node id="65196031" version="4" timestamp="2007-11-23T20:44:45Z" uid="20153" user="su1970" changeset="604115" lat="49.5076631" lon="8.6258154">
    <tag k="amenity" v="supermarket"/>
    <tag k="created_by" v="Potlatch 0.5c"/>
    <tag k="name" v="Lidl"/>
    <tag k="shop" v="supermarket"/>
  </node>
  <node id="65196031" version="5" timestamp="2008-05-03T12:36:27Z" uid="4667" user="MapZ" changeset="320706" lat="49.507819" lon="8.6253153">
    <tag k="amenity" v="supermarket"/>
    <tag k="created_by" v="Potlatch 0.5c"/>
    <tag k="name" v="Lidl"/>
    <tag k="shop" v="supermarket"/>
  </node>
  <node id="65196031" version="6" timestamp="2008-06-05T02:45:09Z" uid="3516" user="BiIbo" changeset="58435" lat="49.507819" lon="8.6253153">
    <tag k="created_by" v="Potlatch 0.5c"/>
    <tag k="name" v="Lidl"/>
    <tag k="shop" v="supermarket"/>
  </node>
  <node id="65196031" version="7" timestamp="2008-11-14T08:26:10Z" uid="7562" user="LosHawlos" changeset="745978" lat="49.507819" lon="8.6253153">
    <tag k="addr:city" v="Viernheim"/>
    <tag k="addr:housenumber" v="4"/>
    <tag k="addr:postcode" v="68542"/>
    <tag k="addr:street" v="Schulze-Delitzsch-Straße"/>
    <tag k="created_by" v="Potlatch 0.5c"/>
    <tag k="name" v="Lidl"/>
    <tag k="shop" v="supermarket"/>
  </node>
  <node id="65196031" version="8" timestamp="2010-09-05T19:15:38Z" uid="279457" user="Piddi" changeset="5691472" lat="49.507819" lon="8.6253153">
    <tag k="addr:city" v="Viernheim"/>
    <tag k="addr:housenumber" v="4"/>
    <tag k="addr:postcode" v="68542"/>
    <tag k="addr:street" v="Schulze-Delitzsch-Straße"/>
    <tag k="created_by" v="Potlatch 0.5c"/>
    <tag k="name" v="Lidl"/>
    <tag k="shop" v="supermarket"/>
  </node>
</osm>
