<?xml version='1.0' encoding='UTF-8'?>
<osm version="0.6" generator="libosmium/2.20.0">
  <node id="65275575" version="1" timestamp="2007-10-11T22:18:05Z" uid="4667" user="MapZ" changeset="122267" lat="49.4844989" lon="8.7965366">
    <tag k="created_by" v="JOSM"/>
    <tag k="name" v="Heiligkreuzsteinach"/>
    <tag k="place" v="village"/>
  </node>
  <node id="65275575" version="2" timestamp="2008-01-19T20:30:33Z" uid="24767" user="OpenGeoDB Bot" changeset="668163" lat="49.4844989" lon="8.7965366">
    <tag k="created_by" v="opengeodb2osm0.5.2"/>
    <tag k="is_in" v="Rhein-Neckar-Kreis,Karlsruhe,Baden-Württemberg,Bundesrepublik Deutschland,Europe"/>
    <tag k="name" v="Heiligkreuzsteinach"/>
    <tag k="openGeoDB:auto_update" v="population,is_in"/>
    <tag k="openGeoDB:combination_of_public_administration" v="Verwaltungsgemeinschaft Schönau"/>
    <tag k="openGeoDB:community_identification_number" v="08226029"/>
    <tag k="openGeoDB:is_in" v="Rhein-Neckar-Kreis,Karlsruhe,Baden-Württemberg,Bundesrepublik Deutschland,Europe"/>
    <tag k="openGeoDB:is_in_loc_id" v="361"/>
    <tag k="openGeoDB:layer" v="6"/>
    <tag k="openGeoDB:license_plate_code" v="HD"/>
    <tag k="openGeoDB:loc_id" v="18089"/>
    <tag k="openGeoDB:name" v="Heiligkreuzsteinach"/>
    <tag k="openGeoDB:population" v="3137"/>
    <tag k="openGeoDB:postal_codes" v="69253"/>
    <tag k="openGeoDB:sort_name" v="HEILIGKREUZSTEINACH"/>
    <tag k="openGeoDB:telephone_area_code" v="06220"/>
    <tag k="openGeoDB:type" v="Gemeinde"/>
    <tag k="openGeoDB:version" v="0.2.6.11 / 2007-12-04 / http://fa-technik.adfc.de/code/opengeodb/dump/"/>
    <tag k="opengeodb:lat" v="49.4844989"/>
    <tag k="opengeodb:lon" v="8.7965366"/>
    <tag k="place" v="village"/>
    <tag k="population" v="3137"/>
  </node>
  <node id="65275575" version="3" timestamp="2012-03-23T10:25:30Z" uid="202726" user="whb" changeset="11072264" lat="49.4844989" lon="8.7965366"/>
  <node id="65275580" version="1" timestamp="2007-10-11T22:18:05Z" uid="4667" user="MapZ" changeset="122267" lat="49.562289" lon="8.7054758">
    <tag k="created_by" v="JOSM"/>
    <tag k="name" v="Birkenau (Odenwald)"/>
    <tag k="place" v="town"/>
  </node>
  <node id="65275580" version="2" timestamp="2008-01-26T19:38:55Z" uid="12165" user="MrJott" changeset="696939" lat="49.5622918" lon="8.7054752">
    <tag k="created_by" v="JOSM"/>
    <tag k="name" v="Birkenau (Odenwald)"/>
    <tag k="place" v="town"/>
  </node>
  <node id="65275580" version="3" timestamp="2008-01-26T19:39:02Z" uid="12165" user="MrJott" changeset="696939" lat="49.5622918" lon="8.7054752">
    <tag k="created_by" v="JOSM"/>
    <tag k="name" v="Birkenau (Odenwald)"/>
    <tag k="place" v="town"/>
  </node>
  <node id="65275580" version="4" timestamp="2008-01-26T19:39:03Z" uid="12165" user="MrJott" changeset="696939" lat="49.5622918" lon="8.7054752">
    <tag k="created_by" v="JOSM"/>
    <tag k="name" v="Birkenau (Odenwald)"/>
    <tag k="place" v="town"/>
  </node>
  <node id="65275580" version="5" timestamp="2008-01-26T19:39:04Z" uid="12165" user="MrJott" changeset="696939" lat="49.5622918" lon="8.7054752">
    <tag k="created_by" v="JOSM"/>
    <tag k="name" v="Birkenau (Odenwald)"/>
    <tag k="place" v="town"/>
  </node>
  <node id="65275580" version="6" timestamp="2008-01-26T19:39:04Z" uid="12165" user="MrJott" changeset="696939" lat="49.5622918" lon="8.7054752">
    <tag k="created_by" v="JOSM"/>
    <tag k="name" v="Birkenau (Odenwald)"/>
    <tag k="place" v="town"/>
  </node>
  <node id="65275580" version="7" timestamp="2008-01-26T19:39:05Z" uid="12165" user="MrJott" changeset="696939" lat="49.5622918" lon="8.7054752">
    <tag k="created_by" v="JOSM"/>
    <tag k="name" v="Birkenau (Odenwald)"/>
    <tag k="place" v="town"/>
  </node>
  <node id="65275580" version="8" timestamp="2008-01-26T19:39:05Z" uid="12165" user="MrJott" changeset="696939" lat="49.5622918" lon="8.7054752">
    <tag k="created_by" v="JOSM"/>
    <tag k="name" v="Birkenau (Odenwald)"/>
    <tag k="place" v="town"/>
  </node>
  <node id="65275580" version="9" timestamp="2008-01-26T19:39:10Z" uid="12165" user="MrJott" changeset="696939" lat="49.5622918" lon="8.7054752">
    <tag k="created_by" v="JOSM"/>
    <tag k="name" v="Birkenau (Odenwald)"/>
    <tag k="place" v="town"/>
  </node>
  <node id="65275580" version="10" timestamp="2008-01-26T19:39:26Z" uid="12165" user="MrJott" changeset="696939" lat="49.5622918" lon="8.7054752">
    <tag k="created_by" v="JOSM"/>
    <tag k="name" v="Birkenau (Odenwald)"/>
    <tag k="place" v="town"/>
  </node>
  <node id="65275580" version="11" timestamp="2008-01-26T19:44:07Z" uid="12165" user="MrJott" changeset="696939" lat="49.5622918" lon="8.7054752">
    <tag k="created_by" v="JOSM"/>
    <tag k="name" v="Birkenau (Odenwald)"/>
    <tag k="place" v="town"/>
  </node>
  <node id="65275583" version="1" timestamp="2007-10-11T22:18:05Z" uid="4667" user="MapZ" changeset="122267" lat="49.5442982" lon="8.7856527">
    <tag k="created_by" v="JOSM"/>
    <tag k="name" v="Ober-Abtsteinach"/>
    <tag k="place" v="village"/>
  </node>
  <node id="65275583" version="2" timestamp="2008-11-06T14:16:30Z" uid="7562" user="LosHawlos" changeset="695731" lat="49.5442982" lon="8.7856527">
    <tag k="created_by" v="JOSM"/>
    <tag k="is_in" v="Abtsteinach,Bergstraße,Darmstadt,Hessen,Bundesrepublik Deutschland,Europe"/>
    <tag k="name" v="Ober-Abtsteinach"/>
    <tag k="place" v="village"/>
  </node>
  <node id="65275583" version="3" timestamp="2011-11-12T10:04:30Z" uid="475266" user="Lobelt_2" changeset="9802979" lat="49.5442982" lon="8.7856527">
    <tag k="is_in" v="Abtsteinach,Bergstraße,Darmstadt,Hessen,Bundesrepublik Deutschland,Europe"/>
    <tag k="name" v="Ober-Abtsteinach"/>
    <tag k="place" v="village"/>
  </node>
  <node id="65275590" version="1" timestamp="2007-10-11T22:18:05Z" uid="4667" user="MapZ" changeset="122267" lat="49.5500573" lon="8.8092478">
    <tag k="created_by" v="JOSM"/>
    <tag k="name" v="Siedelsbrunn"/>
    <tag k="place" v="village"/>
  </node>
  <node id="65275590" version="2" timestamp="2008-11-06T14:23:44Z" uid="7562" user="LosHawlos" changeset="695731" lat="49.5500573" lon="8.8092478">
    <tag k="created_by" v="JOSM"/>
    <tag k="is_in" v="Wald-Michelbach,Bergstraße,Darmstadt,Hessen,Bundesrepublik Deutschland,Europe"/>
    <tag k="name" v="Siedelsbrunn"/>
    <tag k="place" v="village"/>
  </node>
  <node id="65275590" version="3" timestamp="2010-03-02T17:20:06Z" uid="7562" user="LosHawlos" changeset="4018462" lat="49.5500573" lon="8.8092478">
    <tag k="is_in" v="Wald-Michelbach,Bergstraße,Darmstadt,Hessen,Bundesrepublik Deutschland,Europe"/>
    <tag k="name" v="Siedelsbrunn"/>
    <tag k="place" v="village"/>
    <tag k="wikipedia:de" v="Siedelsbrunn"/>
  </node>
  <node id="65275590" version="4" timestamp="2012-03-14T21:39:28Z" uid="60824" user="Carsten Güse" changeset="10982924" lat="49.5500573" lon="8.8092478"/>
  <node id="65279893" version="4" timestamp="2011-03-17T23:53:09Z" uid="20587" user="balrog-kun" changeset="7591208" lat="37.719298" lon="-122.39002">
    <tag k="highway" v="stop"/>
  </node>
  <node id="65279895" version="4" timestamp="2011-03-17T23:52:56Z" uid="20587" user="balrog-kun" changeset="7591208" lat="37.718688" lon="-122.390564">
    <tag k="highway" v="stop"/>
  </node>
</osm>
