<?xml version='1.0' encoding='UTF-8'?>
<osm version="0.6" generator="libosmium/2.20.0">
  <node id="652831373" version="2" timestamp="2010-04-27T04:11:08Z" uid="30632" user="antblant" changeset="4537882" lat="51.4943558" lon="15.1105026">
    <tag k="is_in" v="undefined"/>
    <tag k="name" v="Chwalimierz"/>
    <tag k="place" v="hamlet"/>
    <tag k="teryt:simc" v="0880774"/>
  </node>
  <node id="652831377" version="2" timestamp="2010-04-11T11:54:55Z" uid="20587" user="balrog-kun" changeset="4392352" lat="51.4839683" lon="15.1270358">
    <tag k="addr:postcode" v="68-120"/>
    <tag k="is_in" v="gmina Iłowa, powiat żagański, województwo lubuskie, Poland"/>
    <tag k="is_in:country" v="Poland"/>
    <tag k="is_in:county" v="powiat żagański"/>
    <tag k="is_in:municipality" v="gmina Iłowa"/>
    <tag k="is_in:province" v="województwo lubuskie"/>
    <tag k="name" v="Borowe"/>
    <tag k="place" v="village"/>
    <tag k="population" v="450"/>
    <tag k="wikipedia" v="Borowe"/>
  </node>
  <node id="652831381" version="2" timestamp="2010-04-27T04:20:35Z" uid="30632" user="antblant" changeset="4537912" lat="51.5107582" lon="15.1961616">
    <tag k="is_in" v="gmina Iłowa, powiat żagański, województwo lubuskie, Poland"/>
    <tag k="name" v="Skarbiec"/>
    <tag k="place" v="hamlet"/>
    <tag k="teryt:simc" v="0474436"/>
  </node>
</osm>
