<?xml version='1.0' encoding='UTF-8'?>
<osm version="0.6" generator="libosmium/2.20.0">
  <node id="658430656" version="2" timestamp="2010-07-28T20:09:49Z" uid="74617" user="JohnSmith" changeset="5339329" lat="51.3903419" lon="11.2607154">
    <tag k="emergency" v="fire_hydrant"/>
    <tag k="fire_hydrant" v="pillar"/>
    <tag k="fire_hydrant:pipe_diameter" v="80"/>
    <tag k="fire_hydrant:position" v="green"/>
    <tag k="fire_hydrant:standard" v="DIN"/>
    <tag k="ref" v="H 80"/>
  </node>
  <node id="658430656" version="3" timestamp="2010-07-30T17:38:16Z" uid="74617" user="JohnSmith" changeset="5356742" lat="51.3903419" lon="11.2607154">
    <tag k="amenity" v="fire_hydrant"/>
    <tag k="emergency" v="fire_hydrant"/>
    <tag k="fire_hydrant" v="pillar"/>
    <tag k="fire_hydrant:pipe_diameter" v="80"/>
    <tag k="fire_hydrant:position" v="green"/>
    <tag k="fire_hydrant:standard" v="DIN"/>
    <tag k="ref" v="H 80"/>
  </node>
  <node id="658430656" version="4" timestamp="2010-10-12T15:40:51Z" uid="26348" user="Rodolphe Quiédeville" changeset="6022037" lat="51.3903419" lon="11.2607154">
    <tag k="emergency" v="fire_hydrant"/>
    <tag k="fire_hydrant" v="pillar"/>
    <tag k="fire_hydrant:pipe_diameter" v="80"/>
    <tag k="fire_hydrant:position" v="green"/>
    <tag k="fire_hydrant:standard" v="DIN"/>
    <tag k="ref" v="H 80"/>
  </node>
  <node id="658430656" version="5" timestamp="2010-10-19T09:08:13Z" uid="26348" user="Rodolphe Quiédeville" changeset="6094889" lat="51.3903419" lon="11.2607154">
    <tag k="amenity" v="fire_hydrant"/>
    <tag k="emergency" v="fire_hydrant"/>
    <tag k="fire_hydrant" v="pillar"/>
    <tag k="fire_hydrant:pipe_diameter" v="80"/>
    <tag k="fire_hydrant:position" v="green"/>
    <tag k="fire_hydrant:standard" v="DIN"/>
    <tag k="ref" v="H 80"/>
  </node>
  <node id="658430677" version="2" timestamp="2010-07-28T20:10:13Z" uid="74617" user="JohnSmith" changeset="5339329" lat="51.3787974" lon="11.2831279">
    <tag k="emergency" v="fire_hydrant"/>
    <tag k="fire_hydrant" v="pillar"/>
    <tag k="fire_hydrant:pipe_diameter" v="80"/>
    <tag k="fire_hydrant:position" v="green"/>
    <tag k="fire_hydrant:standard" v="DIN"/>
    <tag k="ref" v="H 80"/>
  </node>
  <node id="658430677" version="3" timestamp="2010-07-30T17:42:58Z" uid="74617" user="JohnSmith" changeset="5356742" lat="51.3787974" lon="11.2831279">
    <tag k="amenity" v="fire_hydrant"/>
    <tag k="emergency" v="fire_hydrant"/>
    <tag k="fire_hydrant" v="pillar"/>
    <tag k="fire_hydrant:pipe_diameter" v="80"/>
    <tag k="fire_hydrant:position" v="green"/>
    <tag k="fire_hydrant:standard" v="DIN"/>
    <tag k="ref" v="H 80"/>
  </node>
  <node id="658430677" version="4" timestamp="2010-10-12T15:41:07Z" uid="26348" user="Rodolphe Quiédeville" changeset="6022037" lat="51.3787974" lon="11.2831279">
    <tag k="emergency" v="fire_hydrant"/>
    <tag k="fire_hydrant" v="pillar"/>
    <tag k="fire_hydrant:pipe_diameter" v="80"/>
    <tag k="fire_hydrant:position" v="green"/>
    <tag k="fire_hydrant:standard" v="DIN"/>
    <tag k="ref" v="H 80"/>
  </node>
  <node id="658430677" version="5" timestamp="2010-10-19T09:08:12Z" uid="26348" user="Rodolphe Quiédeville" changeset="6094889" lat="51.3787974" lon="11.2831279">
    <tag k="amenity" v="fire_hydrant"/>
    <tag k="emergency" v="fire_hydrant"/>
    <tag k="fire_hydrant" v="pillar"/>
    <tag k="fire_hydrant:pipe_diameter" v="80"/>
    <tag k="fire_hydrant:position" v="green"/>
    <tag k="fire_hydrant:standard" v="DIN"/>
    <tag k="ref" v="H 80"/>
  </node>
  <node id="658435234" version="3" timestamp="2010-06-14T20:34:02Z" uid="151899" user="Bikeman2000" changeset="4991173" lat="51.229228" lon="6.7748947">
    <tag k="amenity" v="bar"/>
    <tag k="name" v="Indiana Lounge"/>
  </node>
  <node id="658435234" version="4" timestamp="2011-03-17T10:50:54Z" uid="12614" user="rabenkind" changeset="7584015" lat="51.2292289" lon="6.7749143">
    <tag k="amenity" v="bar"/>
    <tag k="name" v="Indiana Lounge"/>
  </node>
  <node id="658435234" version="5" timestamp="2011-10-09T21:18:35Z" uid="290680" user="wheelmap_visitor" changeset="9508573" lat="51.2292289" lon="6.7749143">
    <tag k="amenity" v="bar"/>
    <tag k="name" v="Indiana Lounge"/>
    <tag k="wheelchair" v="limited"/>
  </node>
  <node id="658435234" version="6" timestamp="2012-01-04T20:12:58Z" uid="173844" user="Antikalk" changeset="10294780" lat="51.2292289" lon="6.7749143"/>
  <node id="658435690" version="4" timestamp="2010-06-15T20:07:16Z" uid="151899" user="Bikeman2000" changeset="4995074" lat="51.229664" lon="6.7755429">
    <tag k="addr:city" v="Düsseldorf"/>
    <tag k="addr:country" v="DE"/>
    <tag k="addr:housenumber" v="24"/>
    <tag k="addr:postcode" v="40213"/>
    <tag k="addr:street" v="Ratinger Straße"/>
    <tag k="amenity" v="pub"/>
    <tag k="name" v="St. Pauli"/>
  </node>
  <node id="658435690" version="5" timestamp="2010-06-16T21:14:16Z" uid="151899" user="Bikeman2000" changeset="5004490" lat="51.2296891" lon="6.7755429">
    <tag k="addr:city" v="Düsseldorf"/>
    <tag k="addr:country" v="DE"/>
    <tag k="addr:housenumber" v="24"/>
    <tag k="addr:postcode" v="40213"/>
    <tag k="addr:street" v="Ratinger Straße"/>
    <tag k="amenity" v="pub"/>
    <tag k="name" v="St. Pauli"/>
  </node>
  <node id="658435690" version="6" timestamp="2011-02-24T14:50:29Z" uid="13687" user="HMD" changeset="7382182" lat="51.2298303" lon="6.7766208">
    <tag k="addr:city" v="Düsseldorf"/>
    <tag k="addr:country" v="DE"/>
    <tag k="addr:housenumber" v="24"/>
    <tag k="addr:postcode" v="40213"/>
    <tag k="addr:street" v="Ratinger Straße"/>
    <tag k="amenity" v="pub"/>
    <tag k="name" v="St. Pauli"/>
  </node>
  <node id="658435690" version="7" timestamp="2011-02-24T14:51:08Z" uid="13687" user="HMD" changeset="7382182" lat="51.2298303" lon="6.7766208">
    <tag k="addr:city" v="Düsseldorf"/>
    <tag k="addr:country" v="DE"/>
    <tag k="addr:housenumber" v="50"/>
    <tag k="addr:postcode" v="40213"/>
    <tag k="addr:street" v="Ratinger Straße"/>
    <tag k="amenity" v="pub"/>
    <tag k="name" v="St. Pauli"/>
  </node>
  <node id="658435690" version="8" timestamp="2011-10-09T21:17:30Z" uid="290680" user="wheelmap_visitor" changeset="9508573" lat="51.2298303" lon="6.7766208">
    <tag k="addr:city" v="Düsseldorf"/>
    <tag k="addr:country" v="DE"/>
    <tag k="addr:housenumber" v="50"/>
    <tag k="addr:postcode" v="40213"/>
    <tag k="addr:street" v="Ratinger Straße"/>
    <tag k="amenity" v="pub"/>
    <tag k="name" v="St. Pauli"/>
    <tag k="wheelchair" v="yes"/>
  </node>
  <node id="658435690" version="9" timestamp="2012-01-04T20:54:12Z" uid="173844" user="Antikalk" changeset="10295205" lat="51.2298303" lon="6.7766208"/>
  <node id="658435813" version="3" timestamp="2010-06-14T20:34:00Z" uid="151899" user="Bikeman2000" changeset="4991173" lat="51.2294242" lon="6.7754173">
    <tag k="addr:city" v="Düsseldorf"/>
    <tag k="addr:country" v="DE"/>
    <tag k="addr:housenumber" v="25"/>
    <tag k="addr:postcode" v="40213"/>
    <tag k="addr:street" v="Ratinger Straße"/>
    <tag k="amenity" v="pub"/>
    <tag k="name" v="Quartier Boheme"/>
  </node>
  <node id="658435813" version="4" timestamp="2010-06-16T21:14:16Z" uid="151899" user="Bikeman2000" changeset="5004490" lat="51.229407" lon="6.7753603">
    <tag k="addr:city" v="Düsseldorf"/>
    <tag k="addr:country" v="DE"/>
    <tag k="addr:housenumber" v="25"/>
    <tag k="addr:postcode" v="40213"/>
    <tag k="addr:street" v="Ratinger Straße"/>
    <tag k="amenity" v="pub"/>
    <tag k="name" v="Quartier Boheme"/>
  </node>
  <node id="658435813" version="5" timestamp="2010-11-19T16:32:34Z" uid="290680" user="wheelmap_visitor" changeset="6405810" lat="51.229407" lon="6.7753603">
    <tag k="addr:city" v="Düsseldorf"/>
    <tag k="addr:country" v="DE"/>
    <tag k="addr:housenumber" v="25"/>
    <tag k="addr:postcode" v="40213"/>
    <tag k="addr:street" v="Ratinger Straße"/>
    <tag k="amenity" v="pub"/>
    <tag k="name" v="Quartier Boheme"/>
    <tag k="wheelchair" v="yes"/>
  </node>
  <node id="658435813" version="6" timestamp="2010-11-19T16:32:35Z" uid="290680" user="wheelmap_visitor" changeset="6405810" lat="51.229407" lon="6.7753603">
    <tag k="addr:city" v="Düsseldorf"/>
    <tag k="addr:country" v="DE"/>
    <tag k="addr:housenumber" v="25"/>
    <tag k="addr:postcode" v="40213"/>
    <tag k="addr:street" v="Ratinger Straße"/>
    <tag k="amenity" v="pub"/>
    <tag k="name" v="Quartier Boheme"/>
    <tag k="wheelchair" v="limited"/>
  </node>
  <node id="658435813" version="7" timestamp="2011-03-17T10:50:51Z" uid="12614" user="rabenkind" changeset="7584015" lat="51.2293892" lon="6.7753363">
    <tag k="addr:city" v="Düsseldorf"/>
    <tag k="addr:country" v="DE"/>
    <tag k="addr:housenumber" v="25"/>
    <tag k="addr:postcode" v="40213"/>
    <tag k="addr:street" v="Ratinger Straße"/>
    <tag k="amenity" v="pub"/>
    <tag k="name" v="Quartier Boheme"/>
    <tag k="wheelchair" v="limited"/>
  </node>
  <node id="658435813" version="8" timestamp="2011-10-07T08:52:23Z" uid="290680" user="wheelmap_visitor" changeset="9490517" lat="51.2293892" lon="6.7753363">
    <tag k="addr:city" v="Düsseldorf"/>
    <tag k="addr:country" v="DE"/>
    <tag k="addr:housenumber" v="25"/>
    <tag k="addr:postcode" v="40213"/>
    <tag k="addr:street" v="Ratinger Straße"/>
    <tag k="amenity" v="pub"/>
    <tag k="name" v="Quartier Boheme"/>
    <tag k="wheelchair" v="yes"/>
  </node>
  <node id="658435813" version="9" timestamp="2012-01-04T20:13:07Z" uid="173844" user="Antikalk" changeset="10294780" lat="51.2293892" lon="6.7753363"/>
  <node id="658435866" version="2" timestamp="2010-06-16T21:14:15Z" uid="151899" user="Bikeman2000" changeset="5004490" lat="51.2293585" lon="6.7756329">
    <tag k="amenity" v="theatre"/>
    <tag k="name" v="Henkel Saal"/>
  </node>
  <node id="658435866" version="3" timestamp="2012-01-04T20:12:55Z" uid="173844" user="Antikalk" changeset="10294780" lat="51.2293585" lon="6.7756329"/>
  <node id="658437338" version="1" timestamp="2010-03-01T15:58:05Z" uid="171838" user="argrath" changeset="4009597" lat="34.5571342" lon="135.4942551"/>
  <node id="658437346" version="1" timestamp="2010-03-01T15:58:06Z" uid="171838" user="argrath" changeset="4009597" lat="34.5567187" lon="135.4943523"/>
  <node id="658437349" version="1" timestamp="2010-03-01T15:58:07Z" uid="171838" user="argrath" changeset="4009597" lat="34.5565384" lon="135.4944412"/>
  <node id="658437353" version="1" timestamp="2010-03-01T15:58:07Z" uid="171838" user="argrath" changeset="4009597" lat="34.5562712" lon="135.4945864"/>
  <node id="658437356" version="1" timestamp="2010-03-01T15:58:08Z" uid="171838" user="argrath" changeset="4009597" lat="34.5561176" lon="135.4946914"/>
  <node id="658437359" version="1" timestamp="2010-03-01T15:58:08Z" uid="171838" user="argrath" changeset="4009597" lat="34.5559506" lon="135.4947075"/>
  <node id="658437362" version="1" timestamp="2010-03-01T15:58:08Z" uid="171838" user="argrath" changeset="4009597" lat="34.5557235" lon="135.4946914"/>
  <node id="658437367" version="1" timestamp="2010-03-01T15:58:09Z" uid="171838" user="argrath" changeset="4009597" lat="34.5556318" lon="135.4946676"/>
  <node id="658437369" version="1" timestamp="2010-03-01T15:58:09Z" uid="171838" user="argrath" changeset="4009597" lat="34.5548818" lon="135.4944734"/>
  <node id="658437372" version="1" timestamp="2010-03-01T15:58:10Z" uid="171838" user="argrath" changeset="4009597" lat="34.5547415" lon="135.4944008"/>
  <node id="658437378" version="1" timestamp="2010-03-01T15:58:10Z" uid="171838" user="argrath" changeset="4009597" lat="34.5546776" lon="135.4943112"/>
  <node id="658437381" version="1" timestamp="2010-03-01T15:58:11Z" uid="171838" user="argrath" changeset="4009597" lat="34.5545745" lon="135.4941667"/>
  <node id="658437384" version="1" timestamp="2010-03-01T15:58:11Z" uid="171838" user="argrath" changeset="4009597" lat="34.5545077" lon="135.4937953"/>
  <node id="658437388" version="1" timestamp="2010-03-01T15:58:11Z" uid="171838" user="argrath" changeset="4009597" lat="34.5544743" lon="135.493666"/>
  <node id="658437390" version="1" timestamp="2010-03-01T15:58:12Z" uid="171838" user="argrath" changeset="4009597" lat="34.5543942" lon="135.4932058"/>
  <node id="658437401" version="1" timestamp="2010-03-01T15:58:13Z" uid="171838" user="argrath" changeset="4009597" lat="34.5565117" lon="135.4927133"/>
  <node id="658437404" version="1" timestamp="2010-03-01T15:58:14Z" uid="171838" user="argrath" changeset="4009597" lat="34.5560307" lon="135.4931493"/>
  <node id="658437406" version="1" timestamp="2010-03-01T15:58:15Z" uid="171838" user="argrath" changeset="4009597" lat="34.5558638" lon="135.4932058"/>
  <node id="658437408" version="1" timestamp="2010-03-01T15:58:15Z" uid="171838" user="argrath" changeset="4009597" lat="34.5557502" lon="135.4932946"/>
  <node id="658437409" version="1" timestamp="2010-03-01T15:58:15Z" uid="171838" user="argrath" changeset="4009597" lat="34.5556567" lon="135.4934157"/>
  <node id="658437411" version="1" timestamp="2010-03-01T15:58:16Z" uid="171838" user="argrath" changeset="4009597" lat="34.5556033" lon="135.4935691"/>
  <node id="658437412" version="1" timestamp="2010-03-01T15:58:16Z" uid="171838" user="argrath" changeset="4009597" lat="34.5555966" lon="135.4937629"/>
  <node id="658437414" version="1" timestamp="2010-03-01T15:58:17Z" uid="171838" user="argrath" changeset="4009597" lat="34.5555765" lon="135.494207"/>
  <node id="658437415" version="1" timestamp="2010-03-01T15:58:17Z" uid="171838" user="argrath" changeset="4009597" lat="34.5555832" lon="135.4944088"/>
  <node id="658437418" version="1" timestamp="2010-03-01T15:58:18Z" uid="171838" user="argrath" changeset="4009597" lat="34.5553427" lon="135.4941989"/>
  <node id="658437420" version="1" timestamp="2010-03-01T15:58:19Z" uid="171838" user="argrath" changeset="4009597" lat="34.5552225" lon="135.4941505"/>
  <node id="658437421" version="1" timestamp="2010-03-01T15:58:19Z" uid="171838" user="argrath" changeset="4009597" lat="34.5549352" lon="135.4942474"/>
  <node id="658437424" version="1" timestamp="2010-03-01T15:58:20Z" uid="171838" user="argrath" changeset="4009597" lat="34.5549361" lon="135.4966832"/>
  <node id="658437427" version="1" timestamp="2010-03-01T15:58:22Z" uid="171838" user="argrath" changeset="4009597" lat="34.554481" lon="135.4953292"/>
  <node id="658437428" version="1" timestamp="2010-03-01T15:58:22Z" uid="171838" user="argrath" changeset="4009597" lat="34.5541269" lon="135.4953696"/>
  <node id="658437430" version="1" timestamp="2010-03-01T15:58:22Z" uid="171838" user="argrath" changeset="4009597" lat="34.5538732" lon="135.4953212"/>
  <node id="658437432" version="1" timestamp="2010-03-01T15:58:23Z" uid="171838" user="argrath" changeset="4009597" lat="34.5537462" lon="135.4950144"/>
  <node id="658437433" version="1" timestamp="2010-03-01T15:58:23Z" uid="171838" user="argrath" changeset="4009597" lat="34.5537261" lon="135.4947237"/>
  <node id="658437434" version="1" timestamp="2010-03-01T15:58:24Z" uid="171838" user="argrath" changeset="4009597" lat="34.5537462" lon="135.494425"/>
  <node id="658437436" version="1" timestamp="2010-03-01T15:58:25Z" uid="171838" user="argrath" changeset="4009597" lat="34.5537195" lon="135.4942554"/>
  <node id="658437437" version="1" timestamp="2010-03-01T15:58:26Z" uid="171838" user="argrath" changeset="4009597" lat="34.5536593" lon="135.4939163"/>
  <node id="658437440" version="1" timestamp="2010-03-01T15:58:27Z" uid="171838" user="argrath" changeset="4009597" lat="34.5542939" lon="135.4937629"/>
  <node id="658437441" version="1" timestamp="2010-03-01T15:58:27Z" uid="171838" user="argrath" changeset="4009597" lat="34.5538397" lon="135.4938436"/>
  <node id="658437446" version="1" timestamp="2010-03-01T15:58:30Z" uid="171838" user="argrath" changeset="4009597" lat="34.5567922" lon="135.4976545"/>
  <node id="658437446" version="2" timestamp="2010-03-17T03:38:10Z" uid="19528" user="karida" changeset="4148946" lat="34.5567922" lon="135.4976817"/>
  <node id="658437447" version="1" timestamp="2010-03-01T15:58:30Z" uid="171838" user="argrath" changeset="4009597" lat="34.5566921" lon="135.4978968"/>
  <node id="658437447" version="2" timestamp="2010-03-17T03:38:10Z" uid="19528" user="karida" changeset="4148946" lat="34.5567099" lon="135.4979237"/>
  <node id="658437449" version="1" timestamp="2010-03-01T15:58:31Z" uid="171838" user="argrath" changeset="4009597" lat="34.556672" lon="135.4981067"/>
  <node id="658437450" version="1" timestamp="2010-03-01T15:58:31Z" uid="171838" user="argrath" changeset="4009597" lat="34.5565918" lon="135.4990028"/>
  <node id="658437450" version="2" timestamp="2010-03-17T03:38:10Z" uid="19528" user="karida" changeset="4148946" lat="34.556614" lon="135.498963"/>
  <node id="658437452" version="1" timestamp="2010-03-01T15:58:32Z" uid="171838" user="argrath" changeset="4009597" lat="34.5564984" lon="135.49935"/>
  <node id="658437454" version="1" timestamp="2010-03-01T15:58:32Z" uid="171838" user="argrath" changeset="4009597" lat="34.5563714" lon="135.4997538"/>
  <node id="658437454" version="2" timestamp="2010-03-17T03:38:10Z" uid="19528" user="karida" changeset="4148946" lat="34.5564158" lon="135.4997762"/>
  <node id="658437455" version="1" timestamp="2010-03-01T15:58:33Z" uid="171838" user="argrath" changeset="4009597" lat="34.5563246" lon="135.5001735"/>
  <node id="658437457" version="1" timestamp="2010-03-01T15:58:33Z" uid="171838" user="argrath" changeset="4009597" lat="34.5562712" lon="135.5005449"/>
  <node id="658437457" version="2" timestamp="2010-03-17T03:38:11Z" uid="19528" user="karida" changeset="4148946" lat="34.5562623" lon="135.5006072"/>
  <node id="658437458" version="1" timestamp="2010-03-01T15:58:33Z" uid="171838" user="argrath" changeset="4009597" lat="34.5559234" lon="135.5015874"/>
  <node id="658437461" version="1" timestamp="2010-03-01T15:58:35Z" uid="171838" user="argrath" changeset="4009597" lat="34.5561977" lon="135.4992289"/>
  <node id="658437463" version="1" timestamp="2010-03-01T15:58:36Z" uid="171838" user="argrath" changeset="4009597" lat="34.5560374" lon="135.4991644"/>
  <node id="658437465" version="1" timestamp="2010-03-01T15:58:36Z" uid="171838" user="argrath" changeset="4009597" lat="34.5558571" lon="135.4989868"/>
  <node id="658437466" version="1" timestamp="2010-03-01T15:58:36Z" uid="171838" user="argrath" changeset="4009597" lat="34.5555498" lon="135.4986396"/>
  <node id="658437467" version="1" timestamp="2010-03-01T15:58:37Z" uid="171838" user="argrath" changeset="4009597" lat="34.5552251" lon="135.4984682"/>
  <node id="658437467" version="2" timestamp="2010-03-17T03:38:10Z" uid="19528" user="karida" changeset="4148946" lat="34.5552162" lon="135.498508"/>
  <node id="658437470" version="1" timestamp="2010-03-01T15:58:38Z" uid="171838" user="argrath" changeset="4009597" lat="34.5547082" lon="135.4984687"/>
  <node id="658437470" version="2" timestamp="2010-03-17T03:38:09Z" uid="19528" user="karida" changeset="4148946" lat="34.5546993" lon="135.4985045"/>
  <node id="658437471" version="1" timestamp="2010-03-01T15:58:38Z" uid="171838" user="argrath" changeset="4009597" lat="34.5536527" lon="135.49847"/>
  <node id="658437473" version="1" timestamp="2010-03-01T15:58:39Z" uid="171838" user="argrath" changeset="4009597" lat="34.5537596" lon="135.4986961"/>
  <node id="658437475" version="1" timestamp="2010-03-01T15:58:39Z" uid="171838" user="argrath" changeset="4009597" lat="34.5538464" lon="135.4989868"/>
  <node id="658437476" version="1" timestamp="2010-03-01T15:58:39Z" uid="171838" user="argrath" changeset="4009597" lat="34.5538798" lon="135.4992128"/>
  <node id="658437478" version="1" timestamp="2010-03-01T15:58:40Z" uid="171838" user="argrath" changeset="4009597" lat="34.5538798" lon="135.4994308"/>
  <node id="658437480" version="1" timestamp="2010-03-01T15:58:40Z" uid="171838" user="argrath" changeset="4009597" lat="34.5537061" lon="135.4999879"/>
  <node id="658437490" version="1" timestamp="2010-03-01T15:58:41Z" uid="171838" user="argrath" changeset="4009597" lat="34.5535992" lon="135.5003512"/>
  <node id="658437492" version="1" timestamp="2010-03-01T15:58:42Z" uid="171838" user="argrath" changeset="4009597" lat="34.5534723" lon="135.500658"/>
  <node id="658437493" version="1" timestamp="2010-03-01T15:58:42Z" uid="171838" user="argrath" changeset="4009597" lat="34.5533722" lon="135.5008921"/>
  <node id="658437495" version="1" timestamp="2010-03-01T15:58:42Z" uid="171838" user="argrath" changeset="4009597" lat="34.5531583" lon="135.501199"/>
  <node id="658437496" version="1" timestamp="2010-03-01T15:58:43Z" uid="171838" user="argrath" changeset="4009597" lat="34.552823" lon="135.5015128"/>
  <node id="658437496" version="2" timestamp="2010-03-17T03:38:10Z" uid="19528" user="karida" changeset="4148946" lat="34.5528763" lon="135.5015041"/>
  <node id="658437499" version="1" timestamp="2010-03-01T15:58:43Z" uid="171838" user="argrath" changeset="4009597" lat="34.5541337" lon="135.5002947"/>
  <node id="658437500" version="1" timestamp="2010-03-01T15:58:44Z" uid="171838" user="argrath" changeset="4009597" lat="34.5539533" lon="135.5008276"/>
  <node id="658437501" version="1" timestamp="2010-03-01T15:58:44Z" uid="171838" user="argrath" changeset="4009597" lat="34.5538397" lon="135.5010617"/>
  <node id="658437501" version="2" timestamp="2010-03-17T03:38:10Z" uid="19528" user="karida" changeset="4148946" lat="34.5538397" lon="135.5010931"/>
  <node id="658437503" version="1" timestamp="2010-03-01T15:58:45Z" uid="171838" user="argrath" changeset="4009597" lat="34.5537261" lon="135.5012959"/>
  <node id="658437503" version="2" timestamp="2010-03-17T03:38:10Z" uid="19528" user="karida" changeset="4148946" lat="34.5536906" lon="135.5013315"/>
  <node id="658437506" version="1" timestamp="2010-03-01T15:58:45Z" uid="171838" user="argrath" changeset="4009597" lat="34.5531308" lon="135.5019483"/>
  <node id="658437506" version="2" timestamp="2010-03-17T03:38:10Z" uid="19528" user="karida" changeset="4148946" lat="34.5532019" lon="135.5019391"/>
  <node id="658437508" version="1" timestamp="2010-03-01T15:58:46Z" uid="171838" user="argrath" changeset="4009597" lat="34.5530715" lon="135.4995923"/>
  <node id="658437508" version="2" timestamp="2010-03-17T03:38:09Z" uid="19528" user="karida" changeset="4148946" lat="34.5530937" lon="135.4995742"/>
  <node id="658437510" version="1" timestamp="2010-03-01T15:58:46Z" uid="171838" user="argrath" changeset="4009597" lat="34.5529446" lon="135.5001493"/>
  <node id="658437510" version="2" timestamp="2010-03-17T03:38:10Z" uid="19528" user="karida" changeset="4148946" lat="34.5529935" lon="135.5001757"/>
  <node id="658437511" version="1" timestamp="2010-03-01T15:58:47Z" uid="171838" user="argrath" changeset="4009597" lat="34.5528645" lon="135.5004481"/>
  <node id="658437511" version="2" timestamp="2010-03-17T03:38:10Z" uid="19528" user="karida" changeset="4148946" lat="34.5529" lon="135.500448"/>
  <node id="658437513" version="1" timestamp="2010-03-01T15:58:47Z" uid="171838" user="argrath" changeset="4009597" lat="34.5527375" lon="135.5005207"/>
  <node id="658437515" version="1" timestamp="2010-03-01T15:58:48Z" uid="171838" user="argrath" changeset="4009597" lat="34.5526173" lon="135.5005046"/>
  <node id="658437518" version="1" timestamp="2010-03-01T15:58:49Z" uid="171838" user="argrath" changeset="4009597" lat="34.552497" lon="135.5004158"/>
  <node id="658437518" version="2" timestamp="2010-03-17T03:38:10Z" uid="19528" user="karida" changeset="4148946" lat="34.5525414" lon="135.5004204"/>
  <node id="658437519" version="1" timestamp="2010-03-01T15:58:49Z" uid="171838" user="argrath" changeset="4009597" lat="34.5524703" lon="135.5002704"/>
  <node id="658437519" version="2" timestamp="2010-03-17T03:38:10Z" uid="19528" user="karida" changeset="4148946" lat="34.5524881" lon="135.5002922"/>
  <node id="658437521" version="1" timestamp="2010-03-01T15:58:49Z" uid="171838" user="argrath" changeset="4009597" lat="34.5523968" lon="135.4994308"/>
  <node id="658437521" version="2" timestamp="2010-03-17T03:38:09Z" uid="19528" user="karida" changeset="4148946" lat="34.552379" lon="135.499471"/>
  <node id="658437524" version="1" timestamp="2010-03-01T15:58:51Z" uid="171838" user="argrath" changeset="4009597" lat="34.553145" lon="135.498583"/>
  <node id="658437526" version="1" timestamp="2010-03-01T15:58:52Z" uid="171838" user="argrath" changeset="4009597" lat="34.5529914" lon="135.498793"/>
  <node id="658437527" version="1" timestamp="2010-03-01T15:58:52Z" uid="171838" user="argrath" changeset="4009597" lat="34.5531851" lon="135.4996165"/>
  <node id="658437527" version="2" timestamp="2010-03-17T03:38:09Z" uid="19528" user="karida" changeset="4148946" lat="34.5531629" lon="135.4995903"/>
  <node id="658437528" version="1" timestamp="2010-03-01T15:58:54Z" uid="171838" user="argrath" changeset="4009597" lat="34.5558638" lon="135.5018691"/>
  <node id="658437528" version="2" timestamp="2010-03-17T03:38:11Z" uid="19528" user="karida" changeset="4148946" lat="34.555846" lon="135.5018557"/>
  <node id="658437529" version="1" timestamp="2010-03-01T15:58:55Z" uid="171838" user="argrath" changeset="4009597" lat="34.5553293" lon="135.5025635"/>
  <node id="658437530" version="1" timestamp="2010-03-01T15:58:55Z" uid="171838" user="argrath" changeset="4009597" lat="34.5551824" lon="135.5042832"/>
  <node id="658437531" version="1" timestamp="2010-03-01T15:58:55Z" uid="171838" user="argrath" changeset="4009597" lat="34.5550669" lon="135.5044288"/>
  <node id="658437535" version="1" timestamp="2010-03-01T15:58:58Z" uid="171838" user="argrath" changeset="4009597" lat="34.5546279" lon="135.5032981"/>
  <node id="658437536" version="1" timestamp="2010-03-01T15:58:58Z" uid="171838" user="argrath" changeset="4009597" lat="34.5547282" lon="135.5027088"/>
  <node id="658437537" version="1" timestamp="2010-03-01T15:58:58Z" uid="171838" user="argrath" changeset="4009597" lat="34.5547482" lon="135.5019176"/>
  <node id="658437538" version="1" timestamp="2010-03-01T15:58:59Z" uid="171838" user="argrath" changeset="4009597" lat="34.5542979" lon="135.5013081"/>
  <node id="658437538" version="2" timestamp="2010-03-17T03:38:10Z" uid="19528" user="karida" changeset="4148946" lat="34.5542757" lon="135.5012858"/>
  <node id="658437555" version="1" timestamp="2010-03-01T15:59:02Z" uid="171838" user="argrath" changeset="4009597" lat="34.5553026" lon="135.5042347"/>
  <node id="658437556" version="1" timestamp="2010-03-01T15:59:02Z" uid="171838" user="argrath" changeset="4009597" lat="34.555523" lon="135.5044447"/>
  <node id="658437557" version="1" timestamp="2010-03-01T15:59:03Z" uid="171838" user="argrath" changeset="4009597" lat="34.55578" lon="135.5045497"/>
  <node id="658437558" version="1" timestamp="2010-03-01T15:59:04Z" uid="171838" user="argrath" changeset="4009597" lat="34.5521668" lon="135.5005892"/>
  <node id="658437558" version="2" timestamp="2010-03-17T03:38:10Z" uid="19528" user="karida" changeset="4148946" lat="34.5522112" lon="135.5005712"/>
</osm>
