<?xml version='1.0' encoding='UTF-8'?>
<osm version="0.6" generator="libosmium/2.20.0">
  <node id="659213265" version="3" timestamp="2010-11-26T18:46:48Z" uid="115477" user="wowik" changeset="6463696" lat="56.8187252" lon="37.2057026">
    <tag k="addr:city" v="Федоровское сельское поселение"/>
    <tag k="addr:country" v="RU"/>
    <tag k="addr:district" v="Кимрский район"/>
    <tag k="addr:postcode" v="171533"/>
    <tag k="addr:region" v="Тверская область"/>
    <tag k="cladr:code" v="6901400600100"/>
    <tag k="cladr:name" v="Губин Угол"/>
    <tag k="cladr:suffix" v="Деревня"/>
    <tag k="name" v="Губин Угол"/>
    <tag k="place" v="hamlet"/>
  </node>
  <node id="659213265" version="4" timestamp="2011-08-07T17:20:30Z" uid="297358" user="patashnik" changeset="8949329" lat="56.8187252" lon="37.2057026">
    <tag k="addr:city" v="Федоровское сельское поселение"/>
    <tag k="addr:country" v="RU"/>
    <tag k="addr:district" v="Кимрский район"/>
    <tag k="addr:region" v="Тверская область"/>
    <tag k="cladr:code" v="6901400600100"/>
    <tag k="name" v="Губин Угол"/>
    <tag k="place" v="hamlet"/>
  </node>
  <node id="659213278" version="2" timestamp="2010-11-26T18:36:04Z" uid="115477" user="wowik" changeset="6463696" lat="56.8143794" lon="37.259768">
    <tag k="name" v="Святье"/>
    <tag k="place" v="hamlet"/>
  </node>
  <node id="659213278" version="3" timestamp="2012-01-26T21:13:52Z" uid="384084" user="Kostik" changeset="10507299" lat="56.8143794" lon="37.259768">
    <tag k="name" v="Святье"/>
    <tag k="place" v="hamlet"/>
  </node>
  <node id="659213812" version="2" timestamp="2010-11-30T16:23:26Z" uid="115477" user="wowik" changeset="6495632" lat="56.9282734" lon="37.2410187"/>
  <node id="659213812" version="3" timestamp="2011-04-03T21:37:05Z" uid="314211" user="OldIvantey" changeset="7759483" lat="56.9282514" lon="37.240948"/>
  <node id="659213837" version="2" timestamp="2010-11-30T16:23:26Z" uid="115477" user="wowik" changeset="6495632" lat="56.9335774" lon="37.2483183"/>
  <node id="659213899" version="2" timestamp="2010-11-30T16:23:26Z" uid="115477" user="wowik" changeset="6495632" lat="56.9359037" lon="37.2507327"/>
  <node id="659213907" version="2" timestamp="2010-11-30T16:23:26Z" uid="115477" user="wowik" changeset="6495632" lat="56.939743" lon="37.2556128"/>
  <node id="659214466" version="3" timestamp="2010-11-26T18:46:47Z" uid="115477" user="wowik" changeset="6463696" lat="56.8260278" lon="37.3117003">
    <tag k="addr:city" v="Федоровское сельское поселение"/>
    <tag k="addr:country" v="RU"/>
    <tag k="addr:district" v="Кимрский район"/>
    <tag k="addr:postcode" v="171502"/>
    <tag k="addr:region" v="Тверская область"/>
    <tag k="cladr:code" v="6901400601700"/>
    <tag k="cladr:name" v="Богунино"/>
    <tag k="cladr:suffix" v="Деревня"/>
    <tag k="name" v="Богунино"/>
    <tag k="place" v="hamlet"/>
  </node>
  <node id="659214466" version="4" timestamp="2011-08-07T17:20:31Z" uid="297358" user="patashnik" changeset="8949329" lat="56.8260278" lon="37.3117003">
    <tag k="addr:city" v="Федоровское сельское поселение"/>
    <tag k="addr:country" v="RU"/>
    <tag k="addr:district" v="Кимрский район"/>
    <tag k="addr:region" v="Тверская область"/>
    <tag k="cladr:code" v="6901400601700"/>
    <tag k="name" v="Богунино"/>
    <tag k="place" v="hamlet"/>
  </node>
  <node id="659217946" version="2" timestamp="2010-11-30T16:23:26Z" uid="115477" user="wowik" changeset="6495632" lat="56.9429095" lon="37.2661949"/>
  <node id="659217957" version="2" timestamp="2010-11-30T16:23:26Z" uid="115477" user="wowik" changeset="6495632" lat="56.9432178" lon="37.2704586"/>
  <node id="659217970" version="2" timestamp="2010-11-30T16:23:26Z" uid="115477" user="wowik" changeset="6495632" lat="56.9438342" lon="37.2717942"/>
  <node id="659217993" version="2" timestamp="2010-11-30T16:23:26Z" uid="115477" user="wowik" changeset="6495632" lat="56.9439743" lon="37.2789346"/>
</osm>
