<?xml version='1.0' encoding='UTF-8'?>
<osm version="0.6" generator="libosmium/2.20.0">
  <node id="662560155" version="1" timestamp="2010-03-07T20:50:41Z" uid="115477" user="wowik" changeset="4066253" lat="55.998135" lon="37.2117467"/>
  <node id="662560155" version="2" timestamp="2011-01-28T15:54:47Z" uid="115477" user="wowik" changeset="7114168" lat="55.9981169" lon="37.2117467"/>
  <node id="662560155" version="3" timestamp="2011-09-12T16:04:35Z" uid="518169" user="kosatov" changeset="9281128" lat="55.9980981" lon="37.2117181"/>
  <node id="662560156" version="1" timestamp="2010-03-07T20:50:41Z" uid="115477" user="wowik" changeset="4066253" lat="55.998669" lon="37.2114302"/>
  <node id="662560156" version="2" timestamp="2011-09-12T16:04:35Z" uid="518169" user="kosatov" changeset="9281128" lat="55.9986096" lon="37.2113902"/>
  <node id="662560816" version="1" timestamp="2010-03-07T20:51:57Z" uid="30632" user="antblant" changeset="4066269" lat="53.4216827" lon="14.5384022">
    <tag k="name" v="Hotel Kapitan"/>
    <tag k="operator" v="Hotele Wam"/>
    <tag k="stars" v="1"/>
    <tag k="tourism" v="hotel"/>
    <tag k="website" v="http://www.hotelewam.pl/Hotel.aspx?hid=11"/>
  </node>
  <node id="662560955" version="1" timestamp="2010-03-07T20:53:19Z" uid="115477" user="wowik" changeset="4066253" lat="55.9998119" lon="37.2106309"/>
  <node id="662560955" version="2" timestamp="2011-01-28T15:54:40Z" uid="115477" user="wowik" changeset="7114168" lat="55.9997527" lon="37.210628"/>
  <node id="662560955" version="3" timestamp="2011-10-09T22:27:38Z" uid="518169" user="kosatov" changeset="9517911" lat="55.9997527" lon="37.210628"/>
  <node id="662560956" version="1" timestamp="2010-03-07T20:53:19Z" uid="115477" user="wowik" changeset="4066253" lat="55.9995539" lon="37.2099442"/>
  <node id="662560956" version="2" timestamp="2010-11-09T13:47:08Z" uid="115477" user="wowik" changeset="6327211" lat="55.9995539" lon="37.2099442"/>
  <node id="662561213" version="1" timestamp="2010-03-07T20:55:23Z" uid="30632" user="antblant" changeset="4066314" lat="53.3576327" lon="14.7411159">
    <tag k="name" v="Hotel PÅ‚onia"/>
    <tag k="operator" v="Hotele Tur"/>
    <tag k="stars" v="1"/>
    <tag k="tourism" v="hotel"/>
    <tag k="website" v="http://www.hotele-tur.com.pl/plonia.html"/>
  </node>
  <node id="662563291" version="1" timestamp="2010-03-07T20:59:50Z" uid="30632" user="antblant" changeset="4066359" lat="53.4537943" lon="14.4886715">
    <tag k="name" v="Hotel Jantar"/>
    <tag k="operator" v="Hotele Tur"/>
    <tag k="stars" v="1"/>
    <tag k="tourism" v="hotel"/>
    <tag k="website" v="http://www.hotele-tur.com.pl/jantar.html"/>
  </node>
  <node id="662564317" version="2" timestamp="2010-07-28T20:01:34Z" uid="74617" user="JohnSmith" changeset="5339329" lat="43.1315449" lon="-77.5759928">
    <tag k="addr:housenumber" v="62"/>
    <tag k="emergency" v="fire_hydrant"/>
    <tag k="source" v="survey"/>
  </node>
  <node id="662564317" version="3" timestamp="2010-07-30T17:45:18Z" uid="74617" user="JohnSmith" changeset="5356742" lat="43.1315449" lon="-77.5759928">
    <tag k="addr:housenumber" v="62"/>
    <tag k="amenity" v="fire_hydrant"/>
    <tag k="emergency" v="fire_hydrant"/>
    <tag k="source" v="survey"/>
  </node>
  <node id="662564317" version="4" timestamp="2012-03-27T18:23:32Z" uid="67540" user="Cobra" changeset="11118954" lat="43.1315449" lon="-77.5759928">
    <tag k="addr:housenumber" v="62"/>
    <tag k="amenity" v="fire_hydrant"/>
    <tag k="emergency" v="fire_hydrant"/>
    <tag k="odbl" v="clean"/>
    <tag k="source" v="survey"/>
  </node>
  <node id="662564321" version="2" timestamp="2010-07-28T20:09:14Z" uid="74617" user="JohnSmith" changeset="5339329" lat="43.130161" lon="-77.5764408">
    <tag k="addr:housenumber" v="120"/>
    <tag k="emergency" v="fire_hydrant"/>
    <tag k="source" v="survey"/>
  </node>
  <node id="662564321" version="3" timestamp="2010-07-30T17:42:42Z" uid="74617" user="JohnSmith" changeset="5356742" lat="43.130161" lon="-77.5764408">
    <tag k="addr:housenumber" v="120"/>
    <tag k="amenity" v="fire_hydrant"/>
    <tag k="emergency" v="fire_hydrant"/>
    <tag k="source" v="survey"/>
  </node>
  <node id="662564321" version="4" timestamp="2012-03-27T18:23:32Z" uid="67540" user="Cobra" changeset="11118954" lat="43.130161" lon="-77.5764408">
    <tag k="addr:housenumber" v="120"/>
    <tag k="amenity" v="fire_hydrant"/>
    <tag k="emergency" v="fire_hydrant"/>
    <tag k="odbl" v="clean"/>
    <tag k="source" v="survey"/>
  </node>
</osm>
