<?xml version='1.0' encoding='UTF-8'?>
<osm version="0.6" generator="libosmium/2.20.0">
  <node id="663300568" version="3" timestamp="2010-04-24T09:35:31Z" uid="86259" user="hasse_osm_korinthenkacker" changeset="4510283" lat="48.0825459" lon="11.5040769">
    <tag k="addr:city" v="München"/>
    <tag k="addr:housenumber" v="117"/>
    <tag k="addr:postcode" v="81477"/>
    <tag k="addr:street" v="Drygalski-Allee"/>
    <tag k="name" v="Juwelier Lindau"/>
    <tag k="shop" v="jewelry"/>
  </node>
  <node id="663302265" version="2" timestamp="2010-04-24T09:35:32Z" uid="86259" user="hasse_osm_korinthenkacker" changeset="4510283" lat="48.0822072" lon="11.503979">
    <tag k="amenity" v="telephone"/>
    <tag k="name" v="Telestation"/>
    <tag k="operator" v="Deutsche Telekom"/>
  </node>
  <node id="663304368" version="3" timestamp="2010-07-29T09:14:16Z" uid="74617" user="JohnSmith" changeset="5344848" lat="50.1070012" lon="8.6042927">
    <tag k="amenity" v="emergency_phone"/>
    <tag k="emergency" v="phone"/>
    <tag k="operator" v="Autobahnmeisterei"/>
  </node>
  <node id="663305222" version="2" timestamp="2010-04-24T09:35:33Z" uid="86259" user="hasse_osm_korinthenkacker" changeset="4510283" lat="48.0821799" lon="11.5046187">
    <tag k="addr:city" v="München"/>
    <tag k="addr:housenumber" v="117"/>
    <tag k="addr:postcode" v="81477"/>
    <tag k="addr:street" v="Drygalski-Allee"/>
    <tag k="name" v="Va bene"/>
    <tag k="shop" v="fashion"/>
  </node>
  <node id="663305540" version="2" timestamp="2010-04-24T09:35:30Z" uid="86259" user="hasse_osm_korinthenkacker" changeset="4510283" lat="48.0821808" lon="11.5045141">
    <tag k="addr:city" v="München"/>
    <tag k="addr:housenumber" v="117"/>
    <tag k="addr:postcode" v="81477"/>
    <tag k="addr:street" v="Drygalski-Allee"/>
    <tag k="name" v="Brillenstudio Zeilinger"/>
    <tag k="shop" v="optician"/>
  </node>
  <node id="663305849" version="2" timestamp="2010-04-24T09:35:31Z" uid="86259" user="hasse_osm_korinthenkacker" changeset="4510283" lat="48.0821817" lon="11.5044243">
    <tag k="addr:city" v="München"/>
    <tag k="addr:housenumber" v="117"/>
    <tag k="addr:postcode" v="81477"/>
    <tag k="addr:street" v="Drygalski-Allee"/>
    <tag k="name" v="In Sachen Styling"/>
    <tag k="shop" v="massage"/>
  </node>
  <node id="663306479" version="2" timestamp="2010-04-24T09:35:32Z" uid="86259" user="hasse_osm_korinthenkacker" changeset="4510283" lat="48.0821826" lon="11.5043371">
    <tag k="addr:city" v="München"/>
    <tag k="addr:housenumber" v="117"/>
    <tag k="addr:postcode" v="81477"/>
    <tag k="addr:street" v="Drygalski-Allee"/>
    <tag k="name" v="Mrs. Clean"/>
    <tag k="shop" v="dry_cleaning"/>
  </node>
  <node id="663308955" version="1" timestamp="2010-03-09T16:35:08Z" uid="49111" user="Markus B" changeset="4082263" lat="49.5020099" lon="10.4172007"/>
  <node id="663308955" version="2" timestamp="2011-04-05T20:50:04Z" uid="71557" user="Taroc" changeset="7779311" lat="49.5021191" lon="10.4175028"/>
  <node id="663308956" version="1" timestamp="2010-03-09T16:35:10Z" uid="49111" user="Markus B" changeset="4082263" lat="49.5020313" lon="10.4172687"/>
  <node id="663308956" version="2" timestamp="2010-11-01T22:33:22Z" uid="13363" user="CaptainCrunch" changeset="6261826" lat="49.5020313" lon="10.4172687"/>
  <node id="663308957" version="1" timestamp="2010-03-09T16:35:10Z" uid="49111" user="Markus B" changeset="4082263" lat="49.5020218" lon="10.4172838"/>
  <node id="663308957" version="2" timestamp="2010-11-01T22:33:22Z" uid="13363" user="CaptainCrunch" changeset="6261826" lat="49.5020218" lon="10.4172838"/>
  <node id="663308958" version="1" timestamp="2010-03-09T16:35:10Z" uid="49111" user="Markus B" changeset="4082263" lat="49.5020686" lon="10.4173117"/>
  <node id="663308958" version="2" timestamp="2010-11-01T22:33:23Z" uid="13363" user="CaptainCrunch" changeset="6261826" lat="49.5020686" lon="10.4173117"/>
  <node id="663308959" version="1" timestamp="2010-03-09T16:35:10Z" uid="49111" user="Markus B" changeset="4082263" lat="49.5020609" lon="10.41733"/>
  <node id="663308959" version="2" timestamp="2010-11-01T22:33:22Z" uid="13363" user="CaptainCrunch" changeset="6261826" lat="49.5020609" lon="10.41733"/>
  <node id="663308960" version="1" timestamp="2010-03-09T16:35:10Z" uid="49111" user="Markus B" changeset="4082263" lat="49.5023492" lon="10.4174"/>
  <node id="663308960" version="2" timestamp="2010-04-01T17:29:11Z" uid="238266" user="bangla" changeset="4296017" lat="49.5023656" lon="10.4175308"/>
  <node id="663308960" version="3" timestamp="2010-11-01T22:33:23Z" uid="13363" user="CaptainCrunch" changeset="6261826" lat="49.5023656" lon="10.4175308"/>
  <node id="663308961" version="1" timestamp="2010-03-09T16:35:10Z" uid="49111" user="Markus B" changeset="4082263" lat="49.5023807" lon="10.4171208"/>
  <node id="663308961" version="2" timestamp="2010-11-01T22:33:22Z" uid="13363" user="CaptainCrunch" changeset="6261826" lat="49.5023807" lon="10.4171208"/>
</osm>
