<?xml version='1.0' encoding='UTF-8'?>
<osm version="0.6" generator="libosmium/2.20.0">
  <node id="66845051" version="4" timestamp="2011-06-18T16:05:20Z" uid="16922" user="amai" changeset="8474880" lat="47.4762862" lon="11.0098617"/>
  <node id="66845051" version="5" timestamp="2011-06-30T18:27:22Z" uid="106405" user="turbojoe" changeset="8592433" lat="47.4764476" lon="11.0100296"/>
  <node id="66845052" version="4" timestamp="2011-06-18T16:05:20Z" uid="16922" user="amai" changeset="8474880" lat="47.4743529" lon="11.0114598"/>
  <node id="66845052" version="5" timestamp="2011-06-28T17:19:22Z" uid="88172" user="TheFive" changeset="8573456" lat="47.4743036" lon="11.0114121"/>
  <node id="66846538" version="3" timestamp="2008-12-08T08:39:32Z" uid="58091" user="Andreas M" changeset="253155" lat="48.2017221" lon="16.3745201">
    <tag k="name" v="Schwarzenbergplatz"/>
    <tag k="railway" v="tram_stop"/>
  </node>
  <node id="66846538" version="4" timestamp="2009-02-28T18:56:48Z" uid="2689" user="user_2689" changeset="696688" lat="48.2017048" lon="16.3745346">
    <tag k="name" v="Schwarzenbergplatz"/>
    <tag k="railway" v="tram_stop"/>
  </node>
  <node id="66846538" version="5" timestamp="2011-02-26T18:14:20Z" uid="411661" user="fahrnwol" changeset="7402729" lat="48.2017293" lon="16.3744978">
    <tag k="name" v="Schwarzenbergplatz"/>
    <tag k="railway" v="tram_stop"/>
  </node>
  <node id="66846538" version="6" timestamp="2011-03-24T19:18:31Z" uid="99800" user="wolfbert" changeset="7658921" lat="48.2018133" lon="16.3747144">
    <tag k="name" v="Schwarzenbergplatz"/>
    <tag k="railway" v="tram_stop"/>
  </node>
  <node id="66846538" version="7" timestamp="2011-08-15T08:44:48Z" uid="56501" user="Rudolf_H" changeset="9024477" lat="48.2018133" lon="16.3747144">
    <tag k="name" v="Schwarzenbergplatz"/>
    <tag k="railway" v="tram_stop"/>
    <tag k="ref" v="1193"/>
  </node>
  <node id="66846567" version="3" timestamp="2009-03-05T16:19:30Z" uid="58091" user="Andreas M" changeset="738810" lat="48.2114637" lon="16.3785657"/>
  <node id="66846567" version="4" timestamp="2009-05-31T18:13:34Z" uid="56311" user="Elandrion" changeset="1371947" lat="48.21138" lon="16.378945"/>
  <node id="66846567" version="5" timestamp="2011-07-27T23:03:56Z" uid="99692" user="that" changeset="8850026" lat="48.2114454" lon="16.3789695"/>
  <node id="66846584" version="5" timestamp="2008-12-08T10:31:36Z" uid="58091" user="Andreas M" changeset="253155" lat="48.2168239" lon="16.3710243">
    <tag k="name" v="Schottenring"/>
    <tag k="railway" v="tram_stop"/>
  </node>
  <node id="66846584" version="6" timestamp="2009-12-22T15:19:09Z" uid="56311" user="Elandrion" changeset="3428014" lat="48.2168055" lon="16.3710438">
    <tag k="name" v="Schottenring"/>
    <tag k="railway" v="tram_stop"/>
  </node>
  <node id="66846584" version="7" timestamp="2011-08-20T09:02:14Z" uid="56501" user="Rudolf_H" changeset="9072317" lat="48.2168055" lon="16.3710438">
    <tag k="name" v="Schottenring"/>
    <tag k="railway" v="tram_stop"/>
    <tag k="ref" v="1182"/>
  </node>
  <node id="66846600" version="5" timestamp="2008-09-05T14:14:18Z" uid="58091" user="Andreas M" changeset="536381" lat="48.2137009" lon="16.3621257">
    <tag k="name" v="Schottentor"/>
    <tag k="railway" v="tram_stop"/>
  </node>
  <node id="66846600" version="6" timestamp="2008-12-03T22:34:59Z" uid="49642" user="realadry" changeset="84679" lat="48.2137008" lon="16.3621257">
    <tag k="created_by" v="Merkaartor 0.12"/>
    <tag k="name" v="Schottentor"/>
    <tag k="railway" v="tram_stop"/>
  </node>
  <node id="66846600" version="7" timestamp="2009-05-31T18:13:25Z" uid="56311" user="Elandrion" changeset="1371947" lat="48.2136909" lon="16.3621275">
    <tag k="name" v="Schottentor"/>
    <tag k="railway" v="tram_stop"/>
  </node>
  <node id="66846600" version="8" timestamp="2010-05-02T10:17:31Z" uid="135339" user="mplusplus" changeset="4583123" lat="48.2136909" lon="16.3621275">
    <tag k="name" v="Schottentor"/>
    <tag k="railway" v="tram_stop"/>
    <tag k="ref" v="D;1;Vienna Ring Tram"/>
  </node>
  <node id="66846600" version="9" timestamp="2011-06-28T06:02:01Z" uid="28427" user="skunk" changeset="8568344" lat="48.2136909" lon="16.3621275">
    <tag k="direction" v="forward"/>
    <tag k="name" v="Schottentor"/>
    <tag k="railway" v="tram_stop"/>
    <tag k="ref" v="D;1;Vienna Ring Tram"/>
  </node>
  <node id="66846600" version="10" timestamp="2011-08-17T07:17:02Z" uid="56501" user="Rudolf_H" changeset="9044811" lat="48.2136909" lon="16.3621275">
    <tag k="name" v="Schottentor"/>
    <tag k="railway" v="tram_stop"/>
    <tag k="ref" v="1184"/>
  </node>
</osm>
