<?xml version='1.0' encoding='UTF-8'?>
<osm version="0.6" generator="libosmium/2.20.0">
  <node id="673632156" version="1" timestamp="2010-03-24T20:17:48Z" uid="65019" user="Kaefer84" changeset="4224294" lat="52.9698876" lon="10.5554753">
    <tag k="addr:city" v="Uelzen"/>
    <tag k="addr:country" v="DE"/>
    <tag k="addr:housenumber" v="13"/>
    <tag k="addr:postcode" v="29525"/>
    <tag k="addr:street" v="Sankt-Viti-Straße"/>
    <tag k="name" v="Edeka"/>
    <tag k="opening_hours" v="Mo-Sa 08:00-20:00"/>
    <tag k="shop" v="supermarket"/>
  </node>
  <node id="673632156" version="2" timestamp="2010-03-25T05:43:40Z" uid="43863" user="Rundling" changeset="4226717" lat="52.9698876" lon="10.5554753">
    <tag k="addr:city" v="Uelzen"/>
    <tag k="addr:country" v="DE"/>
    <tag k="addr:housenumber" v="13"/>
    <tag k="addr:postcode" v="29525"/>
    <tag k="addr:street" v="Sankt-Viti-Straße"/>
    <tag k="name" v="Edeka"/>
    <tag k="opening_hours" v="Mo-Sa 08:00-20:00"/>
    <tag k="shop" v="supermarket"/>
  </node>
</osm>
