<?xml version='1.0' encoding='UTF-8'?>
<osm version="0.6" generator="libosmium/2.20.0">
  <node id="67503904" version="2" timestamp="2009-09-28T03:20:17Z" uid="103576" user="DiverCTH" changeset="2660192" lat="34.028803" lon="-84.575007">
    <tag k="highway" v="motorway_junction"/>
    <tag k="ref" v="271"/>
    <tag k="source" v="tiger_import_dch_v0.6_20070809"/>
    <tag k="tiger:county" v="Cobb, GA"/>
    <tag k="tiger:tlid" v="17241953:17167902:17167895"/>
    <tag k="tiger:upload_uuid" v="bulk_upload.pl-569bc173-420d-4e38-b2c0-80659dd4675a"/>
  </node>
  <node id="67503904" version="3" timestamp="2009-12-11T03:10:07Z" uid="147510" user="woodpeck_fixbot" changeset="3346409" lat="34.028803" lon="-84.575007">
    <tag k="highway" v="motorway_junction"/>
    <tag k="ref" v="271"/>
  </node>
  <node id="67504956" version="2" timestamp="2009-09-28T03:20:17Z" uid="103576" user="DiverCTH" changeset="2660192" lat="33.915809" lon="-84.481055">
    <tag k="highway" v="motorway_junction"/>
    <tag k="ref" v="261"/>
    <tag k="source" v="tiger_import_dch_v0.6_20070809"/>
    <tag k="tiger:county" v="Cobb, GA"/>
    <tag k="tiger:tlid" v="17253858:17253859:17243641:17261601"/>
    <tag k="tiger:upload_uuid" v="bulk_upload.pl-569bc173-420d-4e38-b2c0-80659dd4675a"/>
  </node>
  <node id="67504956" version="3" timestamp="2009-12-11T03:10:19Z" uid="147510" user="woodpeck_fixbot" changeset="3346409" lat="33.915809" lon="-84.481055">
    <tag k="highway" v="motorway_junction"/>
    <tag k="ref" v="261"/>
  </node>
  <node id="67507831" version="2" timestamp="2010-10-26T01:56:42Z" uid="4467" user="Rosscoe" changeset="6178718" lat="-37.7783653" lon="144.9243575"/>
</osm>
