<?xml version='1.0' encoding='UTF-8'?>
<osm version="0.6" generator="libosmium/2.20.0">
  <node id="676041188" version="2" timestamp="2010-07-29T09:15:46Z" uid="74617" user="JohnSmith" changeset="5344848" lat="51.051677" lon="2.5447947">
    <tag k="amenity" v="emergency_phone"/>
    <tag k="emergency" v="phone"/>
  </node>
  <node id="676042332" version="3" timestamp="2010-07-29T09:16:56Z" uid="74617" user="JohnSmith" changeset="5344848" lat="51.0556687" lon="2.5565655">
    <tag k="amenity" v="emergency_phone"/>
    <tag k="emergency" v="phone"/>
    <tag k="ref" v="5940"/>
  </node>
  <node id="676042754" version="1" timestamp="2010-03-27T16:57:28Z" uid="74617" user="JohnSmith" changeset="4248468" lat="-33.7568297" lon="150.6419837"/>
  <node id="676042755" version="1" timestamp="2010-03-27T16:57:28Z" uid="74617" user="JohnSmith" changeset="4248468" lat="-33.7564704" lon="150.6421663"/>
  <node id="676045020" version="2" timestamp="2010-07-29T09:14:07Z" uid="74617" user="JohnSmith" changeset="5344848" lat="51.0657669" lon="2.5904733">
    <tag k="amenity" v="emergency_phone"/>
    <tag k="emergency" v="phone"/>
  </node>
  <node id="676045502" version="2" timestamp="2010-07-29T09:30:02Z" uid="74617" user="JohnSmith" changeset="5344848" lat="51.0676647" lon="2.6175674">
    <tag k="amenity" v="emergency_phone"/>
    <tag k="emergency" v="phone"/>
  </node>
  <node id="676045502" version="3" timestamp="2010-12-23T09:40:35Z" uid="33377" user="Victor LP" changeset="6743480" lat="51.0679521" lon="2.6175774">
    <tag k="amenity" v="emergency_phone"/>
    <tag k="emergency" v="phone"/>
  </node>
  <node id="676046174" version="2" timestamp="2010-07-29T09:19:51Z" uid="74617" user="JohnSmith" changeset="5344848" lat="51.0612772" lon="2.6435624">
    <tag k="amenity" v="emergency_phone"/>
    <tag k="emergency" v="phone"/>
  </node>
  <node id="676046174" version="3" timestamp="2010-09-05T15:38:54Z" uid="170722" user="JosV" changeset="5688851" lat="51.0613472" lon="2.6437235">
    <tag k="amenity" v="emergency_phone"/>
    <tag k="emergency" v="phone"/>
  </node>
  <node id="676046174" version="4" timestamp="2011-05-11T12:29:10Z" uid="170722" user="JosV" changeset="8111735" lat="51.0614183" lon="2.6439475">
    <tag k="amenity" v="emergency_phone"/>
    <tag k="emergency" v="phone"/>
  </node>
  <node id="676048579" version="2" timestamp="2010-07-30T09:00:15Z" uid="74617" user="JohnSmith" changeset="5352774" lat="47.726534" lon="10.3163852">
    <tag k="addr:housenumber" v="25"/>
    <tag k="name" v="Da Mariella"/>
    <tag k="shop" v="deli"/>
  </node>
  <node id="676048579" version="3" timestamp="2010-12-03T11:25:16Z" uid="154663" user="MetiorErgoSum" changeset="6524978" lat="47.726534" lon="10.3163852">
    <tag k="addr:city" v="Kempten"/>
    <tag k="addr:country" v="DE"/>
    <tag k="addr:housenumber" v="25"/>
    <tag k="addr:postcode" v="87435"/>
    <tag k="addr:street" v="KronenstraÃŸe"/>
    <tag k="name" v="Da Mariella"/>
    <tag k="shop" v="deli"/>
  </node>
  <node id="676048579" version="4" timestamp="2011-05-24T07:34:08Z" uid="154663" user="MetiorErgoSum" changeset="8232717" lat="47.7265414" lon="10.3163152">
    <tag k="name" v="Da Mariella"/>
    <tag k="shop" v="deli"/>
  </node>
  <node id="676048579" version="5" timestamp="2011-12-17T18:46:14Z" uid="154663" user="MetiorErgoSum" changeset="10140759" lat="47.7265414" lon="10.3163152"/>
</osm>
