<?xml version='1.0' encoding='UTF-8'?>
<osm version="0.6" generator="libosmium/2.20.0">
  <node id="677542277" version="2" timestamp="2010-07-29T09:37:49Z" uid="74617" user="JohnSmith" changeset="5344848" lat="48.1243371" lon="10.0401636">
    <tag k="amenity" v="emergency_phone"/>
    <tag k="emergency" v="phone"/>
  </node>
  <node id="677544338" version="1" timestamp="2010-03-29T16:21:53Z" uid="33382" user="de_muur" changeset="4268834" lat="52.940248" lon="9.3191993">
    <tag k="crossing" v="uncontrolled"/>
    <tag k="crossing_ref" v="zebra"/>
    <tag k="highway" v="crossing"/>
  </node>
  <node id="677544338" version="2" timestamp="2011-12-26T23:19:39Z" uid="57645" user="KartoGrapHiti" changeset="10211847" lat="52.9401254" lon="9.3189758">
    <tag k="crossing" v="uncontrolled"/>
    <tag k="crossing_ref" v="zebra"/>
    <tag k="highway" v="crossing"/>
  </node>
  <node id="677544338" version="3" timestamp="2012-02-26T15:01:53Z" uid="45882" user="smarties" changeset="10799187" lat="52.9401254" lon="9.3189758"/>
  <node id="677544339" version="1" timestamp="2010-03-29T16:21:53Z" uid="33382" user="de_muur" changeset="4268834" lat="52.9401887" lon="9.3192769">
    <tag k="addr:city" v="Kirchlinteln"/>
    <tag k="addr:country" v="DE"/>
    <tag k="addr:housenumber" v="32"/>
    <tag k="addr:phone" v="04236942525"/>
    <tag k="addr:postcode" v="27308"/>
    <tag k="addr:street" v="Hauptstraße"/>
    <tag k="amenity" v="restaurant"/>
    <tag k="cuisine" v="greek"/>
    <tag k="name" v="Nionios"/>
  </node>
  <node id="677544339" version="2" timestamp="2010-04-15T16:35:13Z" uid="70696" user="xybot" changeset="4431179" lat="52.9401887" lon="9.3192769">
    <tag k="addr:city" v="Kirchlinteln"/>
    <tag k="addr:country" v="DE"/>
    <tag k="addr:housenumber" v="32"/>
    <tag k="addr:postcode" v="27308"/>
    <tag k="addr:street" v="Hauptstraße"/>
    <tag k="amenity" v="restaurant"/>
    <tag k="cuisine" v="greek"/>
    <tag k="name" v="Nionios"/>
    <tag k="phone" v="04236942525"/>
  </node>
  <node id="677544339" version="3" timestamp="2011-12-26T23:19:36Z" uid="57645" user="KartoGrapHiti" changeset="10211847" lat="52.9400661" lon="9.3190907">
    <tag k="addr:city" v="Kirchlinteln"/>
    <tag k="addr:country" v="DE"/>
    <tag k="addr:housenumber" v="32"/>
    <tag k="addr:postcode" v="27308"/>
    <tag k="addr:street" v="Hauptstraße"/>
    <tag k="amenity" v="restaurant"/>
    <tag k="cuisine" v="greek"/>
    <tag k="name" v="Nionios"/>
    <tag k="phone" v="04236942525"/>
  </node>
  <node id="677544342" version="1" timestamp="2010-03-29T16:21:53Z" uid="33382" user="de_muur" changeset="4268834" lat="52.9425045" lon="9.3166707"/>
  <node id="677544344" version="1" timestamp="2010-03-29T16:21:53Z" uid="33382" user="de_muur" changeset="4268834" lat="52.9418272" lon="9.3165729"/>
  <node id="677544346" version="1" timestamp="2010-03-29T16:21:53Z" uid="33382" user="de_muur" changeset="4268834" lat="52.9392895" lon="9.3245009"/>
  <node id="677544348" version="1" timestamp="2010-03-29T16:21:53Z" uid="33382" user="de_muur" changeset="4268834" lat="52.9392513" lon="9.3254113"/>
  <node id="677544356" version="1" timestamp="2010-03-29T16:21:53Z" uid="33382" user="de_muur" changeset="4268834" lat="52.9412538" lon="9.3223904">
    <tag k="addr:city" v="Kirchlinteln"/>
    <tag k="addr:country" v="DE"/>
    <tag k="addr:housenumber" v="15"/>
    <tag k="addr:phone" v="04236210"/>
    <tag k="addr:postcode" v="27308"/>
    <tag k="addr:street" v="Hauptstraße"/>
    <tag k="name" v="Renault"/>
    <tag k="operator" v="Bomnüter"/>
    <tag k="shop" v="car"/>
  </node>
  <node id="677544356" version="2" timestamp="2010-04-05T07:04:21Z" uid="33382" user="de_muur" changeset="4329746" lat="52.9412898" lon="9.3224128">
    <tag k="addr:city" v="Kirchlinteln"/>
    <tag k="addr:country" v="DE"/>
    <tag k="addr:housenumber" v="15"/>
    <tag k="addr:phone" v="04236210"/>
    <tag k="addr:postcode" v="27308"/>
    <tag k="addr:street" v="Hauptstraße"/>
    <tag k="name" v="Renault"/>
    <tag k="operator" v="Bomnüter"/>
    <tag k="shop" v="car"/>
  </node>
  <node id="677544356" version="3" timestamp="2010-04-15T16:35:14Z" uid="70696" user="xybot" changeset="4431179" lat="52.9412898" lon="9.3224128">
    <tag k="addr:city" v="Kirchlinteln"/>
    <tag k="addr:country" v="DE"/>
    <tag k="addr:housenumber" v="15"/>
    <tag k="addr:postcode" v="27308"/>
    <tag k="addr:street" v="Hauptstraße"/>
    <tag k="name" v="Renault"/>
    <tag k="operator" v="Bomnüter"/>
    <tag k="phone" v="04236210"/>
    <tag k="shop" v="car"/>
  </node>
  <node id="677544360" version="1" timestamp="2010-03-29T16:21:53Z" uid="33382" user="de_muur" changeset="4268834" lat="52.9411912" lon="9.3224976">
    <tag k="crossing" v="traffic_signals"/>
    <tag k="highway" v="crossing"/>
  </node>
  <node id="677544360" version="2" timestamp="2011-12-26T23:19:39Z" uid="57645" user="KartoGrapHiti" changeset="10211847" lat="52.9411601" lon="9.322552">
    <tag k="crossing" v="traffic_signals"/>
    <tag k="highway" v="crossing"/>
  </node>
  <node id="677544360" version="3" timestamp="2012-02-08T15:22:33Z" uid="45882" user="smarties" changeset="10625539" lat="52.9411601" lon="9.322552"/>
  <node id="677544363" version="1" timestamp="2010-03-29T16:21:53Z" uid="33382" user="de_muur" changeset="4268834" lat="52.9411665" lon="9.3226487">
    <tag k="amenity" v="bank"/>
    <tag k="atm" v="yes"/>
  </node>
  <node id="677544363" version="2" timestamp="2011-03-13T18:02:04Z" uid="290680" user="wheelmap_visitor" changeset="7548199" lat="52.9411665" lon="9.3226487">
    <tag k="amenity" v="bank"/>
    <tag k="atm" v="yes"/>
    <tag k="wheelchair" v="limited"/>
  </node>
  <node id="677548296" version="1" timestamp="2010-03-29T16:32:14Z" uid="74617" user="JohnSmith" changeset="4268973" lat="-33.8624737" lon="151.2137746"/>
  <node id="677548296" version="2" timestamp="2012-03-01T04:50:42Z" uid="7523" user="inas" changeset="10834413" lat="-33.8624737" lon="151.2137746"/>
  <node id="677548297" version="1" timestamp="2010-03-29T16:32:14Z" uid="74617" user="JohnSmith" changeset="4268973" lat="-33.8628418" lon="151.2136717"/>
  <node id="677548297" version="2" timestamp="2010-06-28T03:45:59Z" uid="299678" user="peteramjet" changeset="5094614" lat="-33.8628442" lon="151.2136932"/>
  <node id="677548297" version="3" timestamp="2010-07-27T13:37:30Z" uid="4467" user="Rosscoe" changeset="5329516" lat="-33.8628442" lon="151.2136932"/>
  <node id="677548298" version="1" timestamp="2010-03-29T16:32:14Z" uid="74617" user="JohnSmith" changeset="4268973" lat="-33.862508" lon="151.2136834"/>
  <node id="677548298" version="2" timestamp="2012-03-01T04:50:42Z" uid="7523" user="inas" changeset="10834413" lat="-33.862508" lon="151.2136834"/>
  <node id="677548299" version="1" timestamp="2010-03-29T16:32:14Z" uid="74617" user="JohnSmith" changeset="4268973" lat="-33.8621408" lon="151.2137152"/>
  <node id="677548299" version="2" timestamp="2012-03-01T04:50:43Z" uid="7523" user="inas" changeset="10834413" lat="-33.8621408" lon="151.2137152"/>
</osm>
