<?xml version='1.0' encoding='UTF-8'?>
<osm version="0.6" generator="libosmium/2.20.0">
  <node id="679716918" version="3" timestamp="2010-05-07T14:15:44Z" uid="4467" user="Rosscoe" changeset="4630441" lat="-31.8820227" lon="115.9565993"/>
  <node id="679717630" version="2" timestamp="2010-10-24T05:45:18Z" uid="4467" user="Rosscoe" changeset="6153373" lat="-37.7967024" lon="144.953595"/>
  <node id="679718506" version="2" timestamp="2011-03-10T00:53:42Z" uid="4467" user="Rosscoe" changeset="7510228" lat="-37.8603307" lon="144.8799021"/>
  <node id="679718849" version="1" timestamp="2010-04-01T10:32:48Z" uid="33382" user="de_muur" changeset="4292848" lat="52.9983075" lon="9.0796815"/>
  <node id="679718850" version="1" timestamp="2010-04-01T10:32:48Z" uid="33382" user="de_muur" changeset="4292848" lat="52.998596" lon="9.0842043"/>
  <node id="679718850" version="2" timestamp="2011-10-22T13:15:24Z" uid="42429" user="FK270673" changeset="9623884" lat="52.998596" lon="9.0842043"/>
  <node id="679718851" version="1" timestamp="2010-04-01T10:32:48Z" uid="33382" user="de_muur" changeset="4292848" lat="52.9981978" lon="9.0845611"/>
  <node id="679718851" version="2" timestamp="2011-10-22T13:15:24Z" uid="42429" user="FK270673" changeset="9623884" lat="52.9981978" lon="9.0845611"/>
  <node id="679718852" version="1" timestamp="2010-04-01T10:32:48Z" uid="33382" user="de_muur" changeset="4292848" lat="52.9979655" lon="9.084893"/>
  <node id="679718852" version="2" timestamp="2011-10-22T13:15:24Z" uid="42429" user="FK270673" changeset="9623884" lat="52.9979655" lon="9.084893"/>
  <node id="679718853" version="1" timestamp="2010-04-01T10:32:48Z" uid="33382" user="de_muur" changeset="4292848" lat="52.9981448" lon="9.0746182"/>
  <node id="679718853" version="2" timestamp="2010-06-20T17:33:04Z" uid="33382" user="de_muur" changeset="5035186" lat="52.9981261" lon="9.074612"/>
  <node id="679718854" version="1" timestamp="2010-04-01T10:32:48Z" uid="33382" user="de_muur" changeset="4292848" lat="52.9977302" lon="9.0745571"/>
  <node id="679718855" version="1" timestamp="2010-04-01T10:32:48Z" uid="33382" user="de_muur" changeset="4292848" lat="52.9979263" lon="9.0849479">
    <tag k="addr:city" v="Achim"/>
    <tag k="addr:country" v="DE"/>
    <tag k="addr:housenumber" v="4"/>
    <tag k="addr:phone" v="0420270243"/>
    <tag k="addr:postcode" v="28832"/>
    <tag k="addr:street" v="An der Wasserburg"/>
    <tag k="amenity" v="restaurant"/>
    <tag k="name" v="Zur alten Wasserburg"/>
  </node>
  <node id="679718855" version="2" timestamp="2010-04-15T16:35:50Z" uid="70696" user="xybot" changeset="4431179" lat="52.9979263" lon="9.0849479">
    <tag k="addr:city" v="Achim"/>
    <tag k="addr:country" v="DE"/>
    <tag k="addr:housenumber" v="4"/>
    <tag k="addr:postcode" v="28832"/>
    <tag k="addr:street" v="An der Wasserburg"/>
    <tag k="amenity" v="restaurant"/>
    <tag k="name" v="Zur alten Wasserburg"/>
    <tag k="phone" v="0420270243"/>
  </node>
  <node id="679718856" version="1" timestamp="2010-04-01T10:32:49Z" uid="33382" user="de_muur" changeset="4292848" lat="52.9982213" lon="9.0809858">
    <tag k="addr:city" v="Achim"/>
    <tag k="addr:country" v="DE"/>
    <tag k="addr:housenumber" v="157"/>
    <tag k="addr:phone" v="04202979197"/>
    <tag k="addr:postcode" v="28832"/>
    <tag k="addr:street" v="Verdener Straße"/>
    <tag k="amenity" v="pharmacy"/>
    <tag k="dispensing" v="yes"/>
    <tag k="name" v="Weser-Apotheke"/>
  </node>
  <node id="679718856" version="2" timestamp="2010-04-15T16:35:51Z" uid="70696" user="xybot" changeset="4431179" lat="52.9982213" lon="9.0809858">
    <tag k="addr:city" v="Achim"/>
    <tag k="addr:country" v="DE"/>
    <tag k="addr:housenumber" v="157"/>
    <tag k="addr:postcode" v="28832"/>
    <tag k="addr:street" v="Verdener Straße"/>
    <tag k="amenity" v="pharmacy"/>
    <tag k="dispensing" v="yes"/>
    <tag k="name" v="Weser-Apotheke"/>
    <tag k="phone" v="04202979197"/>
  </node>
  <node id="679718857" version="1" timestamp="2010-04-01T10:32:49Z" uid="33382" user="de_muur" changeset="4292848" lat="52.9983861" lon="9.0821003">
    <tag k="addr:city" v="Achim"/>
    <tag k="addr:country" v="DE"/>
    <tag k="addr:housenumber" v="2"/>
    <tag k="addr:phone" v="04202522171"/>
    <tag k="addr:postcode" v="28832"/>
    <tag k="addr:street" v="Bahnhofstraße"/>
    <tag k="amenity" v="restaurant"/>
    <tag k="cuisine" v="italian"/>
    <tag k="name" v="Bellini"/>
  </node>
  <node id="679718857" version="2" timestamp="2010-04-15T16:35:51Z" uid="70696" user="xybot" changeset="4431179" lat="52.9983861" lon="9.0821003">
    <tag k="addr:city" v="Achim"/>
    <tag k="addr:country" v="DE"/>
    <tag k="addr:housenumber" v="2"/>
    <tag k="addr:postcode" v="28832"/>
    <tag k="addr:street" v="Bahnhofstraße"/>
    <tag k="amenity" v="restaurant"/>
    <tag k="cuisine" v="italian"/>
    <tag k="name" v="Bellini"/>
    <tag k="phone" v="04202522171"/>
  </node>
  <node id="679718857" version="3" timestamp="2011-11-02T19:35:15Z" uid="290680" user="wheelmap_visitor" changeset="9718775" lat="52.9983861" lon="9.0821003">
    <tag k="addr:city" v="Achim"/>
    <tag k="addr:country" v="DE"/>
    <tag k="addr:housenumber" v="2"/>
    <tag k="addr:postcode" v="28832"/>
    <tag k="addr:street" v="Bahnhofstraße"/>
    <tag k="amenity" v="restaurant"/>
    <tag k="cuisine" v="italian"/>
    <tag k="name" v="Bellini"/>
    <tag k="phone" v="04202522171"/>
    <tag k="wheelchair" v="limited"/>
  </node>
  <node id="679718858" version="1" timestamp="2010-04-01T10:32:49Z" uid="33382" user="de_muur" changeset="4292848" lat="52.9983808" lon="9.0815765">
    <tag k="addr:city" v="Achim"/>
    <tag k="addr:country" v="DE"/>
    <tag k="addr:housenumber" v="2"/>
    <tag k="addr:phone" v="04202522171"/>
    <tag k="addr:postcode" v="28832"/>
    <tag k="addr:street" v="Bahnhofstraße"/>
    <tag k="amenity" v="cafe"/>
    <tag k="cuisine" v="italian"/>
    <tag k="name" v="La Delizia"/>
  </node>
  <node id="679718858" version="2" timestamp="2010-04-15T16:35:52Z" uid="70696" user="xybot" changeset="4431179" lat="52.9983808" lon="9.0815765">
    <tag k="addr:city" v="Achim"/>
    <tag k="addr:country" v="DE"/>
    <tag k="addr:housenumber" v="2"/>
    <tag k="addr:postcode" v="28832"/>
    <tag k="addr:street" v="Bahnhofstraße"/>
    <tag k="amenity" v="cafe"/>
    <tag k="cuisine" v="italian"/>
    <tag k="name" v="La Delizia"/>
    <tag k="phone" v="04202522171"/>
  </node>
  <node id="679718858" version="3" timestamp="2011-11-02T19:35:14Z" uid="290680" user="wheelmap_visitor" changeset="9718775" lat="52.9983808" lon="9.0815765">
    <tag k="addr:city" v="Achim"/>
    <tag k="addr:country" v="DE"/>
    <tag k="addr:housenumber" v="2"/>
    <tag k="addr:postcode" v="28832"/>
    <tag k="addr:street" v="Bahnhofstraße"/>
    <tag k="amenity" v="cafe"/>
    <tag k="cuisine" v="italian"/>
    <tag k="name" v="La Delizia"/>
    <tag k="phone" v="04202522171"/>
    <tag k="wheelchair" v="limited"/>
  </node>
  <node id="679718859" version="1" timestamp="2010-04-01T10:32:49Z" uid="33382" user="de_muur" changeset="4292848" lat="52.9982838" lon="9.0814988">
    <tag k="crossing" v="traffic_signals"/>
    <tag k="highway" v="crossing"/>
  </node>
  <node id="679718860" version="1" timestamp="2010-04-01T10:32:49Z" uid="33382" user="de_muur" changeset="4292848" lat="52.998335" lon="9.0813998">
    <tag k="crossing" v="uncontrolled"/>
    <tag k="crossing_ref" v="zebra"/>
    <tag k="highway" v="crossing"/>
  </node>
  <node id="679718860" version="2" timestamp="2011-04-25T19:10:30Z" uid="57645" user="KartoGrapHiti" changeset="7967552" lat="52.9983472" lon="9.0811524">
    <tag k="crossing" v="uncontrolled"/>
    <tag k="crossing_ref" v="zebra"/>
    <tag k="highway" v="crossing"/>
  </node>
  <node id="679718861" version="1" timestamp="2010-04-01T10:32:49Z" uid="33382" user="de_muur" changeset="4292848" lat="52.9983829" lon="9.0817498">
    <tag k="shop" v="florist"/>
  </node>
  <node id="679718862" version="1" timestamp="2010-04-01T10:32:49Z" uid="33382" user="de_muur" changeset="4292848" lat="52.9983882" lon="9.0819117">
    <tag k="name" v="Schlecker"/>
    <tag k="shop" v="chemist"/>
  </node>
  <node id="679718862" version="2" timestamp="2012-01-05T13:20:53Z" uid="49446" user="eikew" changeset="10300792" lat="52.9983882" lon="9.0819117">
    <tag k="name" v="Schlecker"/>
    <tag k="shop" v="supermarket"/>
  </node>
  <node id="679718863" version="1" timestamp="2010-04-01T10:32:50Z" uid="33382" user="de_muur" changeset="4292848" lat="52.9983913" lon="9.0814067"/>
  <node id="679718863" version="2" timestamp="2011-04-25T19:10:13Z" uid="57645" user="KartoGrapHiti" changeset="7967552" lat="52.9984035" lon="9.0811634"/>
  <node id="679718864" version="1" timestamp="2010-04-01T10:32:50Z" uid="33382" user="de_muur" changeset="4292848" lat="52.9981009" lon="9.0764518">
    <tag k="crossing" v="traffic_signals"/>
    <tag k="highway" v="crossing"/>
  </node>
  <node id="679718865" version="1" timestamp="2010-04-01T10:32:50Z" uid="33382" user="de_muur" changeset="4292848" lat="52.9981901" lon="9.0763528">
    <tag k="addr:city" v="Achim"/>
    <tag k="addr:country" v="DE"/>
    <tag k="addr:housenumber" v="114"/>
    <tag k="addr:phone" v="0420297710"/>
    <tag k="addr:postcode" v="28832"/>
    <tag k="addr:street" v="Verdener Straße"/>
    <tag k="amenity" v="restaurant"/>
    <tag k="cuisine" v="regional"/>
    <tag k="name" v="Landhaus Wesermarsch"/>
    <tag k="stars" v="3"/>
    <tag k="tourism" v="hotel"/>
  </node>
  <node id="679718865" version="2" timestamp="2010-04-15T16:35:52Z" uid="70696" user="xybot" changeset="4431179" lat="52.9981901" lon="9.0763528">
    <tag k="addr:city" v="Achim"/>
    <tag k="addr:country" v="DE"/>
    <tag k="addr:housenumber" v="114"/>
    <tag k="addr:postcode" v="28832"/>
    <tag k="addr:street" v="Verdener Straße"/>
    <tag k="amenity" v="restaurant"/>
    <tag k="cuisine" v="regional"/>
    <tag k="name" v="Landhaus Wesermarsch"/>
    <tag k="phone" v="0420297710"/>
    <tag k="stars" v="3"/>
    <tag k="tourism" v="hotel"/>
  </node>
  <node id="679718865" version="3" timestamp="2012-01-03T16:14:04Z" uid="77417" user="Jiffy" changeset="10282718" lat="52.9981435" lon="9.0754867">
    <tag k="addr:city" v="Achim"/>
    <tag k="addr:country" v="DE"/>
    <tag k="addr:housenumber" v="114"/>
    <tag k="addr:postcode" v="28832"/>
    <tag k="addr:street" v="Verdener Straße"/>
    <tag k="amenity" v="restaurant"/>
    <tag k="cuisine" v="regional"/>
    <tag k="name" v="Landhaus Wesermarsch"/>
    <tag k="phone" v="0420297710"/>
    <tag k="stars" v="3"/>
    <tag k="tourism" v="hotel"/>
  </node>
  <node id="679718868" version="1" timestamp="2010-04-01T10:32:50Z" uid="33382" user="de_muur" changeset="4292848" lat="52.9976368" lon="9.0746337">
    <tag k="addr:city" v="Achim"/>
    <tag k="addr:country" v="DE"/>
    <tag k="addr:housenumber" v="6"/>
    <tag k="addr:phone" v="0420271067"/>
    <tag k="addr:postcode" v="28832"/>
    <tag k="addr:street" v="Weserblick"/>
    <tag k="amenity" v="restaurant"/>
    <tag k="name" v="Weserterrassen"/>
  </node>
  <node id="679718868" version="2" timestamp="2010-04-15T16:35:53Z" uid="70696" user="xybot" changeset="4431179" lat="52.9976368" lon="9.0746337">
    <tag k="addr:city" v="Achim"/>
    <tag k="addr:country" v="DE"/>
    <tag k="addr:housenumber" v="6"/>
    <tag k="addr:postcode" v="28832"/>
    <tag k="addr:street" v="Weserblick"/>
    <tag k="amenity" v="restaurant"/>
    <tag k="name" v="Weserterrassen"/>
    <tag k="phone" v="0420271067"/>
  </node>
  <node id="679719712" version="1" timestamp="2010-04-01T10:40:04Z" uid="7617" user="Franc" changeset="4292890" lat="-33.9207613" lon="151.169046"/>
  <node id="679719713" version="1" timestamp="2010-04-01T10:40:04Z" uid="7617" user="Franc" changeset="4292890" lat="-33.9208888" lon="151.1702001"/>
  <node id="679719714" version="1" timestamp="2010-04-01T10:40:04Z" uid="7617" user="Franc" changeset="4292890" lat="-33.9208957" lon="151.1699448"/>
  <node id="679719715" version="1" timestamp="2010-04-01T10:40:04Z" uid="7617" user="Franc" changeset="4292890" lat="-33.9208376" lon="151.1693397"/>
  <node id="679719716" version="1" timestamp="2010-04-01T10:40:04Z" uid="7617" user="Franc" changeset="4292890" lat="-33.920874" lon="151.1704484"/>
  <node id="679719717" version="1" timestamp="2010-04-01T10:40:04Z" uid="7617" user="Franc" changeset="4292890" lat="-33.9207602" lon="151.1711551"/>
  <node id="679719718" version="1" timestamp="2010-04-01T10:40:04Z" uid="7617" user="Franc" changeset="4292890" lat="-33.9208" lon="151.1709109"/>
  <node id="679719719" version="1" timestamp="2010-04-01T10:40:04Z" uid="7617" user="Franc" changeset="4292890" lat="-33.9204527" lon="151.1715133"/>
  <node id="679719720" version="1" timestamp="2010-04-01T10:40:04Z" uid="7617" user="Franc" changeset="4292890" lat="-33.9207271" lon="151.1710344"/>
  <node id="679719721" version="1" timestamp="2010-04-01T10:40:05Z" uid="7617" user="Franc" changeset="4292890" lat="-33.9205563" lon="151.1713624"/>
  <node id="679719722" version="1" timestamp="2010-04-01T10:40:05Z" uid="7617" user="Franc" changeset="4292890" lat="-33.920767" lon="151.170915"/>
  <node id="679719723" version="1" timestamp="2010-04-01T10:40:05Z" uid="7617" user="Franc" changeset="4292890" lat="-33.920348" lon="151.1716286"/>
  <node id="679719724" version="1" timestamp="2010-04-01T10:40:05Z" uid="7617" user="Franc" changeset="4292890" lat="-33.9205973" lon="151.1717205"/>
  <node id="679719725" version="1" timestamp="2010-04-01T10:40:05Z" uid="7617" user="Franc" changeset="4292890" lat="-33.9202512" lon="151.1717205"/>
  <node id="679719726" version="1" timestamp="2010-04-01T10:40:05Z" uid="7617" user="Franc" changeset="4292890" lat="-33.92034" lon="151.1723668"/>
  <node id="679719727" version="1" timestamp="2010-04-01T10:40:05Z" uid="7617" user="Franc" changeset="4292890" lat="-33.9199904" lon="151.1719305"/>
  <node id="679719727" version="2" timestamp="2011-04-10T01:46:32Z" uid="74275" user="behemoth14" changeset="7818821" lat="-33.9200285" lon="151.1718948"/>
  <node id="679719728" version="1" timestamp="2010-04-01T10:40:05Z" uid="7617" user="Franc" changeset="4292890" lat="-33.920094" lon="151.1729665"/>
  <node id="679719729" version="1" timestamp="2010-04-01T10:40:05Z" uid="7617" user="Franc" changeset="4292890" lat="-33.9200291" lon="151.173112"/>
  <node id="679719729" version="2" timestamp="2011-04-09T20:26:55Z" uid="74275" user="behemoth14" changeset="7817100" lat="-33.9200043" lon="151.1731279"/>
  <node id="679719730" version="1" timestamp="2010-04-01T10:40:05Z" uid="7617" user="Franc" changeset="4292890" lat="-33.9145383" lon="151.1768858"/>
  <node id="679719731" version="1" timestamp="2010-04-01T10:40:05Z" uid="7617" user="Franc" changeset="4292890" lat="-33.9146299" lon="151.1769447"/>
  <node id="679719732" version="1" timestamp="2010-04-01T10:40:05Z" uid="7617" user="Franc" changeset="4292890" lat="-33.9135333" lon="151.1764004"/>
  <node id="679719733" version="1" timestamp="2010-04-01T10:40:05Z" uid="7617" user="Franc" changeset="4292890" lat="-33.9134354" lon="151.1762946"/>
  <node id="679719734" version="1" timestamp="2010-04-01T10:40:05Z" uid="7617" user="Franc" changeset="4292890" lat="-33.9135747" lon="151.1760905"/>
  <node id="679719735" version="1" timestamp="2010-04-01T10:40:05Z" uid="7617" user="Franc" changeset="4292890" lat="-33.9138382" lon="151.1770869">
    <tag k="amenity" v="place_of_worship"/>
    <tag k="source" v="nearmap"/>
  </node>
  <node id="679719735" version="2" timestamp="2011-04-24T05:34:47Z" uid="7617" user="Franc" changeset="7949355" lat="-33.9138382" lon="151.1770869">
    <tag k="amenity" v="place_of_worship"/>
    <tag k="religion" v="christian"/>
    <tag k="source" v="nearmap"/>
  </node>
  <node id="679719735" version="3" timestamp="2011-05-22T09:07:51Z" uid="7617" user="Franc" changeset="8213765" lat="-33.9137539" lon="151.1769992">
    <tag k="amenity" v="place_of_worship"/>
    <tag k="religion" v="christian"/>
    <tag k="source" v="nearmap"/>
  </node>
  <node id="679719736" version="1" timestamp="2010-04-01T10:40:05Z" uid="7617" user="Franc" changeset="4292890" lat="-33.9127867" lon="151.1753148"/>
  <node id="679719737" version="1" timestamp="2010-04-01T10:40:05Z" uid="7617" user="Franc" changeset="4292890" lat="-33.912862" lon="151.1768389"/>
  <node id="679719738" version="1" timestamp="2010-04-01T10:40:05Z" uid="7617" user="Franc" changeset="4292890" lat="-33.9128883" lon="151.1773273"/>
  <node id="679719739" version="1" timestamp="2010-04-01T10:40:05Z" uid="7617" user="Franc" changeset="4292890" lat="-33.9121881" lon="151.1761766"/>
  <node id="679719740" version="1" timestamp="2010-04-01T10:40:05Z" uid="7617" user="Franc" changeset="4292890" lat="-33.9122534" lon="151.1773454"/>
  <node id="679719741" version="1" timestamp="2010-04-01T10:40:05Z" uid="7617" user="Franc" changeset="4292890" lat="-33.9125796" lon="151.1779124"/>
  <node id="679719742" version="1" timestamp="2010-04-01T10:40:05Z" uid="7617" user="Franc" changeset="4292890" lat="-33.9126537" lon="151.1778595"/>
  <node id="679719743" version="1" timestamp="2010-04-01T10:40:05Z" uid="7617" user="Franc" changeset="4292890" lat="-33.912749" lon="151.1780077"/>
  <node id="679719744" version="1" timestamp="2010-04-01T10:40:05Z" uid="7617" user="Franc" changeset="4292890" lat="-33.9131029" lon="151.1776765"/>
  <node id="679719745" version="1" timestamp="2010-04-01T10:40:05Z" uid="7617" user="Franc" changeset="4292890" lat="-33.9129761" lon="151.1782632"/>
  <node id="679719746" version="1" timestamp="2010-04-01T10:40:05Z" uid="7617" user="Franc" changeset="4292890" lat="-33.9120465" lon="151.1786969"/>
  <node id="679719746" version="2" timestamp="2011-05-28T12:51:31Z" uid="7617" user="Franc" changeset="8271467" lat="-33.912042" lon="151.178686"/>
  <node id="679719747" version="1" timestamp="2010-04-01T10:40:05Z" uid="7617" user="Franc" changeset="4292890" lat="-33.9072895" lon="151.1812977"/>
  <node id="679719747" version="2" timestamp="2011-09-05T03:35:52Z" uid="7523" user="inas" changeset="9214095" lat="-33.9072895" lon="151.1812977"/>
  <node id="679719748" version="1" timestamp="2010-04-01T10:40:05Z" uid="7617" user="Franc" changeset="4292890" lat="-33.9072522" lon="151.1814502"/>
  <node id="679719749" version="1" timestamp="2010-04-01T10:40:05Z" uid="7617" user="Franc" changeset="4292890" lat="-33.9070628" lon="151.1814768">
    <tag k="highway" v="traffic_signals"/>
  </node>
  <node id="679719749" version="2" timestamp="2010-07-14T02:14:18Z" uid="30201" user="rrankin" changeset="5213661" lat="-33.9070628" lon="151.1814768">
    <tag k="highway" v="traffic_signals"/>
  </node>
  <node id="679719750" version="1" timestamp="2010-04-01T10:40:05Z" uid="7617" user="Franc" changeset="4292890" lat="-33.9072096" lon="151.1814568"/>
  <node id="679719750" version="2" timestamp="2010-07-14T02:14:16Z" uid="30201" user="rrankin" changeset="5213661" lat="-33.9072096" lon="151.1814568">
    <tag k="highway" v="traffic_signals"/>
  </node>
  <node id="679719751" version="1" timestamp="2010-04-01T10:40:05Z" uid="7617" user="Franc" changeset="4292890" lat="-33.9073495" lon="151.1816335"/>
  <node id="679719752" version="1" timestamp="2010-04-01T10:40:05Z" uid="7617" user="Franc" changeset="4292890" lat="-33.907203" lon="151.1815922"/>
  <node id="679719752" version="2" timestamp="2010-07-14T02:14:13Z" uid="30201" user="rrankin" changeset="5213661" lat="-33.907203" lon="151.1815922">
    <tag k="highway" v="traffic_signals"/>
  </node>
  <node id="679719752" version="3" timestamp="2011-04-20T13:11:45Z" uid="7617" user="Franc" changeset="7916137" lat="-33.9072096" lon="151.1815823">
    <tag k="highway" v="traffic_signals"/>
  </node>
  <node id="679719753" version="1" timestamp="2010-04-01T10:40:06Z" uid="7617" user="Franc" changeset="4292890" lat="-33.9070617" lon="151.1815995">
    <tag k="highway" v="traffic_signals"/>
  </node>
  <node id="679719753" version="2" timestamp="2010-07-14T02:14:18Z" uid="30201" user="rrankin" changeset="5213661" lat="-33.9070617" lon="151.1815995">
    <tag k="highway" v="traffic_signals"/>
  </node>
  <node id="679719754" version="1" timestamp="2010-04-01T10:40:06Z" uid="7617" user="Franc" changeset="4292890" lat="-33.9070211" lon="151.1816992">
    <tag k="highway" v="crossing"/>
  </node>
  <node id="679719755" version="1" timestamp="2010-04-01T10:40:06Z" uid="7617" user="Franc" changeset="4292890" lat="-33.907158" lon="151.1819458"/>
  <node id="679719755" version="2" timestamp="2012-02-02T09:27:35Z" uid="308" user="MichaelCollinson" changeset="10565629" lat="-33.907158" lon="151.1819458"/>
  <node id="679719756" version="1" timestamp="2010-04-01T10:40:06Z" uid="7617" user="Franc" changeset="4292890" lat="-33.9071938" lon="151.1818342"/>
  <node id="679719757" version="1" timestamp="2010-04-01T10:40:06Z" uid="7617" user="Franc" changeset="4292890" lat="-33.9070841" lon="151.1820189"/>
  <node id="679719758" version="1" timestamp="2010-04-01T10:40:06Z" uid="7617" user="Franc" changeset="4292890" lat="-33.9070439" lon="151.1821395"/>
  <node id="679719759" version="1" timestamp="2010-04-01T10:40:06Z" uid="7617" user="Franc" changeset="4292890" lat="-33.906924" lon="151.1824125"/>
  <node id="679719760" version="1" timestamp="2010-04-01T10:40:06Z" uid="7617" user="Franc" changeset="4292890" lat="-33.9069302" lon="151.1826827"/>
  <node id="679719761" version="1" timestamp="2010-04-01T10:40:06Z" uid="7617" user="Franc" changeset="4292890" lat="-33.9069377" lon="151.1822692"/>
  <node id="679719762" version="1" timestamp="2010-04-01T10:40:06Z" uid="7617" user="Franc" changeset="4292890" lat="-33.9070217" lon="151.1822482"/>
  <node id="679719763" version="1" timestamp="2010-04-01T10:40:06Z" uid="7617" user="Franc" changeset="4292890" lat="-33.9070066" lon="151.182381"/>
  <node id="679719764" version="1" timestamp="2010-04-01T10:40:06Z" uid="7617" user="Franc" changeset="4292890" lat="-33.9070036" lon="151.1824751"/>
  <node id="679719765" version="1" timestamp="2010-04-01T10:40:06Z" uid="7617" user="Franc" changeset="4292890" lat="-33.9070047" lon="151.1826634"/>
  <node id="679719766" version="1" timestamp="2010-04-01T10:40:06Z" uid="7617" user="Franc" changeset="4292890" lat="-33.9068637" lon="151.1827239"/>
  <node id="679719767" version="1" timestamp="2010-04-01T10:40:06Z" uid="7617" user="Franc" changeset="4292890" lat="-33.9064276" lon="151.1828149"/>
  <node id="679719768" version="1" timestamp="2010-04-01T10:40:06Z" uid="7617" user="Franc" changeset="4292890" lat="-33.9070217" lon="151.1829589"/>
  <node id="679719769" version="1" timestamp="2010-04-01T10:40:06Z" uid="7617" user="Franc" changeset="4292890" lat="-33.9069603" lon="151.1829725"/>
  <node id="679719770" version="1" timestamp="2010-04-01T10:40:06Z" uid="7617" user="Franc" changeset="4292890" lat="-33.9067202" lon="151.1834951"/>
  <node id="679719771" version="1" timestamp="2010-04-01T10:40:06Z" uid="7617" user="Franc" changeset="4292890" lat="-33.9069723" lon="151.1835281"/>
  <node id="679719772" version="1" timestamp="2010-04-01T10:40:06Z" uid="7617" user="Franc" changeset="4292890" lat="-33.9065201" lon="151.1835008"/>
</osm>
