<?xml version='1.0' encoding='UTF-8'?>
<osm version="0.6" generator="libosmium/2.20.0">
  <node id="68187430" version="6" timestamp="2009-04-28T14:53:02Z" uid="58091" user="Andreas M" changeset="1004980" lat="48.2194989" lon="16.4651576">
    <tag k="name" v="Donauspital"/>
    <tag k="opening_date" v="2010-10-01"/>
    <tag k="railway" v="station"/>
  </node>
  <node id="68187430" version="7" timestamp="2009-06-10T11:05:04Z" uid="16645" user="roli-d" changeset="1476442" lat="48.2194989" lon="16.4651576">
    <tag k="name" v="Donauspital"/>
    <tag k="opening_date" v="2010-10-01"/>
    <tag k="railway" v="station"/>
  </node>
  <node id="68187430" version="8" timestamp="2009-09-06T16:43:07Z" uid="86147" user="wolfi1220" changeset="2393422" lat="48.2194989" lon="16.4651576">
    <tag k="name" v="Donauspital"/>
    <tag k="opening_date" v="2010-10-02"/>
    <tag k="railway" v="station"/>
  </node>
  <node id="68187430" version="9" timestamp="2009-09-26T19:08:08Z" uid="104947" user="My Friend" changeset="2645174" lat="48.2195302" lon="16.4651658">
    <tag k="name" v="Donauspital"/>
    <tag k="opening_date" v="2010-10-02"/>
    <tag k="railway" v="station"/>
  </node>
  <node id="68187430" version="10" timestamp="2010-04-18T06:49:16Z" uid="78656" user="Walter Schlögl" changeset="4454560" lat="48.2195825" lon="16.4652007">
    <tag k="name" v="Donauspital"/>
    <tag k="opening_date" v="2010-10-02"/>
    <tag k="railway" v="station"/>
  </node>
  <node id="68187430" version="11" timestamp="2010-09-19T17:39:07Z" uid="86147" user="wolfi1220" changeset="5822214" lat="48.2194331" lon="16.4665363">
    <tag k="name" v="Donauspital"/>
    <tag k="opening_date" v="2010-10-02"/>
    <tag k="railway" v="station"/>
  </node>
  <node id="68187430" version="12" timestamp="2010-10-01T21:26:55Z" uid="86147" user="wolfi1220" changeset="5931792" lat="48.2194331" lon="16.4665363">
    <tag k="name" v="Donauspital"/>
    <tag k="railway" v="station"/>
  </node>
  <node id="68187430" version="13" timestamp="2010-10-02T17:33:49Z" uid="104947" user="My Friend" changeset="5938076" lat="48.2195569" lon="16.4656914">
    <tag k="name" v="Donauspital"/>
    <tag k="railway" v="station"/>
  </node>
  <node id="68187430" version="14" timestamp="2011-06-05T23:53:35Z" uid="56501" user="Rudolf_H" changeset="8355563" lat="48.2195569" lon="16.4656914">
    <tag k="name" v="Donauspital"/>
    <tag k="railway" v="station"/>
    <tag k="uic_name" v="Wien Donauspital (U2)"/>
    <tag k="uic_ref" v="8170297"/>
  </node>
  <node id="68187430" version="15" timestamp="2011-07-19T22:23:21Z" uid="29320" user="Komяpa" changeset="8773535" lat="48.2195569" lon="16.4656914">
    <tag k="name" v="Donauspital"/>
    <tag k="railway" v="station"/>
    <tag k="transport" v="subway"/>
    <tag k="uic_name" v="Wien Donauspital (U2)"/>
    <tag k="uic_ref" v="8170297"/>
  </node>
  <node id="68187430" version="16" timestamp="2011-08-01T00:42:26Z" uid="29320" user="Komяpa" changeset="8886564" lat="48.2195569" lon="16.4656914">
    <tag k="colour" v="purple"/>
    <tag k="name" v="Donauspital"/>
    <tag k="operator" v="Wiener Linien"/>
    <tag k="railway" v="station"/>
    <tag k="transport" v="subway"/>
    <tag k="uic_name" v="Wien Donauspital (U2)"/>
    <tag k="uic_ref" v="8170297"/>
  </node>
  <node id="68187430" version="17" timestamp="2011-08-20T11:55:50Z" uid="56501" user="Rudolf_H" changeset="9073584" lat="48.2195569" lon="16.4656914">
    <tag k="colour" v="purple"/>
    <tag k="name" v="Donauspital"/>
    <tag k="operator" v="Wiener Linien"/>
    <tag k="railway" v="station"/>
    <tag k="ref" v="1278"/>
    <tag k="transport" v="subway"/>
    <tag k="uic_name" v="Wien Donauspital (U2)"/>
    <tag k="uic_ref" v="8170297"/>
  </node>
  <node id="68187430" version="18" timestamp="2011-09-17T20:04:23Z" uid="290680" user="wheelmap_visitor" changeset="9324096" lat="48.2195569" lon="16.4656914">
    <tag k="colour" v="purple"/>
    <tag k="name" v="Donauspital"/>
    <tag k="operator" v="Wiener Linien"/>
    <tag k="railway" v="station"/>
    <tag k="ref" v="1278"/>
    <tag k="transport" v="subway"/>
    <tag k="uic_name" v="Wien Donauspital (U2)"/>
    <tag k="uic_ref" v="8170297"/>
    <tag k="wheelchair" v="yes"/>
  </node>
  <node id="68187437" version="5" timestamp="2009-04-28T14:53:02Z" uid="58091" user="Andreas M" changeset="1004980" lat="48.2225205" lon="16.4763728">
    <tag k="name" v="Aspernstraße"/>
    <tag k="opening_date" v="2010-10-01"/>
    <tag k="railway" v="station"/>
  </node>
  <node id="68187437" version="6" timestamp="2009-06-10T11:05:05Z" uid="16645" user="roli-d" changeset="1476442" lat="48.2225205" lon="16.4763728">
    <tag k="name" v="Aspernstraße"/>
    <tag k="opening_date" v="2010-10-01"/>
    <tag k="railway" v="station"/>
  </node>
  <node id="68187437" version="7" timestamp="2009-06-14T18:57:20Z" uid="86147" user="wolfi1220" changeset="1518264" lat="48.2228897" lon="16.4751668">
    <tag k="name" v="Aspernstraße"/>
    <tag k="opening_date" v="2010-10-01"/>
    <tag k="railway" v="station"/>
  </node>
  <node id="68187437" version="8" timestamp="2009-09-06T16:43:06Z" uid="86147" user="wolfi1220" changeset="2393422" lat="48.2228897" lon="16.4751668">
    <tag k="name" v="Aspernstraße"/>
    <tag k="opening_date" v="2010-10-02"/>
    <tag k="railway" v="station"/>
  </node>
  <node id="68187437" version="9" timestamp="2009-09-26T19:08:11Z" uid="104947" user="My Friend" changeset="2645174" lat="48.2228897" lon="16.4751668">
    <tag k="name" v="Aspernstraße"/>
    <tag k="opening_date" v="2010-10-02"/>
    <tag k="railway" v="station"/>
  </node>
  <node id="68187437" version="10" timestamp="2009-09-26T19:13:22Z" uid="104947" user="My Friend" changeset="2645351" lat="48.223003" lon="16.4761303">
    <tag k="name" v="Aspernstraße"/>
    <tag k="opening_date" v="2010-10-02"/>
    <tag k="railway" v="station"/>
  </node>
  <node id="68187437" version="11" timestamp="2009-09-26T19:15:05Z" uid="104947" user="My Friend" changeset="2645351" lat="48.2230259" lon="16.4760273">
    <tag k="name" v="Aspernstraße"/>
    <tag k="opening_date" v="2010-10-02"/>
    <tag k="railway" v="station"/>
  </node>
  <node id="68187437" version="12" timestamp="2010-01-21T21:38:06Z" uid="78656" user="Walter Schlögl" changeset="3678595" lat="48.2231403" lon="16.4756965">
    <tag k="name" v="Aspernstraße"/>
    <tag k="opening_date" v="2010-10-02"/>
    <tag k="railway" v="station"/>
  </node>
  <node id="68187437" version="13" timestamp="2010-04-10T22:16:22Z" uid="86147" user="wolfi1220" changeset="4388008" lat="48.2232264" lon="16.4754718">
    <tag k="name" v="Aspernstraße"/>
    <tag k="opening_date" v="2010-10-02"/>
    <tag k="railway" v="station"/>
  </node>
  <node id="68187437" version="14" timestamp="2010-09-19T17:39:19Z" uid="86147" user="wolfi1220" changeset="5822214" lat="48.2225839" lon="16.4749136">
    <tag k="name" v="Aspernstraße"/>
    <tag k="opening_date" v="2010-10-02"/>
    <tag k="railway" v="station"/>
  </node>
  <node id="68187437" version="15" timestamp="2010-10-01T21:26:52Z" uid="86147" user="wolfi1220" changeset="5931792" lat="48.2225839" lon="16.4749136">
    <tag k="name" v="Aspernstraße"/>
    <tag k="railway" v="station"/>
  </node>
  <node id="68187437" version="16" timestamp="2010-10-02T17:32:00Z" uid="104947" user="My Friend" changeset="5938061" lat="48.2232346" lon="16.4754492">
    <tag k="name" v="Aspernstraße"/>
    <tag k="railway" v="station"/>
  </node>
  <node id="68187437" version="17" timestamp="2011-06-05T23:53:35Z" uid="56501" user="Rudolf_H" changeset="8355563" lat="48.2232346" lon="16.4754492">
    <tag k="name" v="Aspernstraße"/>
    <tag k="railway" v="station"/>
    <tag k="uic_name" v="Wien Aspernstraße (U2)"/>
    <tag k="uic_ref" v="8170639"/>
  </node>
  <node id="68187437" version="18" timestamp="2011-07-19T22:23:20Z" uid="29320" user="Komяpa" changeset="8773535" lat="48.2232346" lon="16.4754492">
    <tag k="name" v="Aspernstraße"/>
    <tag k="railway" v="station"/>
    <tag k="transport" v="subway"/>
    <tag k="uic_name" v="Wien Aspernstraße (U2)"/>
    <tag k="uic_ref" v="8170639"/>
  </node>
  <node id="68187437" version="19" timestamp="2011-08-01T00:42:25Z" uid="29320" user="Komяpa" changeset="8886564" lat="48.2232346" lon="16.4754492">
    <tag k="colour" v="purple"/>
    <tag k="name" v="Aspernstraße"/>
    <tag k="operator" v="Wiener Linien"/>
    <tag k="railway" v="station"/>
    <tag k="transport" v="subway"/>
    <tag k="uic_name" v="Wien Aspernstraße (U2)"/>
    <tag k="uic_ref" v="8170639"/>
  </node>
  <node id="68187437" version="20" timestamp="2011-08-20T11:55:49Z" uid="56501" user="Rudolf_H" changeset="9073584" lat="48.2232346" lon="16.4754492">
    <tag k="colour" v="purple"/>
    <tag k="name" v="Aspernstraße"/>
    <tag k="operator" v="Wiener Linien"/>
    <tag k="railway" v="station"/>
    <tag k="ref" v="299"/>
    <tag k="transport" v="subway"/>
    <tag k="uic_name" v="Wien Aspernstraße (U2)"/>
    <tag k="uic_ref" v="8170639"/>
  </node>
  <node id="68187437" version="21" timestamp="2011-09-17T18:27:26Z" uid="290680" user="wheelmap_visitor" changeset="9324096" lat="48.2232346" lon="16.4754492">
    <tag k="colour" v="purple"/>
    <tag k="name" v="Aspernstraße"/>
    <tag k="operator" v="Wiener Linien"/>
    <tag k="railway" v="station"/>
    <tag k="ref" v="299"/>
    <tag k="transport" v="subway"/>
    <tag k="uic_name" v="Wien Aspernstraße (U2)"/>
    <tag k="uic_ref" v="8170639"/>
    <tag k="wheelchair" v="yes"/>
  </node>
</osm>
