<?xml version='1.0' encoding='UTF-8'?>
<osm version="0.6" generator="libosmium/2.20.0">
  <node id="68303301" version="1" timestamp="2007-10-13T09:25:11Z" uid="1066" user="pavel" changeset="142854" lat="50.15" lon="14.1">
    <tag k="created_by" v="readgov"/>
    <tag k="name" v="Kladno"/>
    <tag k="place" v="town"/>
    <tag k="source" v="http://earth-info.nga.mil/gns/html/"/>
  </node>
  <node id="68303301" version="2" timestamp="2008-09-22T23:47:42Z" uid="17615" user="Petr Dlouhý" changeset="683343" lat="50.1470191" lon="14.1027761">
    <tag k="name" v="Kladno"/>
    <tag k="place" v="town"/>
    <tag k="source" v="http://earth-info.nga.mil/gns/html/"/>
  </node>
  <node id="68303301" version="3" timestamp="2008-09-29T23:42:39Z" uid="1066" user="pavel" changeset="720263" lat="50.1470191" lon="14.1027761">
    <tag k="is_in" v="Czech Republic, Europe"/>
    <tag k="name" v="Kladno"/>
    <tag k="place" v="town"/>
    <tag k="source" v="http://earth-info.nga.mil/gns/html/"/>
  </node>
  <node id="68303301" version="4" timestamp="2008-11-04T13:21:09Z" uid="308" user="MichaelCollinson" changeset="676656" lat="50.1470191" lon="14.1027761">
    <tag k="is_in" v="Czech Republic, Europe"/>
    <tag k="is_in:continent" v="Europe"/>
    <tag k="is_in:country_code" v="cz"/>
    <tag k="name" v="Kladno"/>
    <tag k="place" v="town"/>
    <tag k="source" v="http://earth-info.nga.mil/gns/html/"/>
  </node>
  <node id="68303301" version="5" timestamp="2010-10-23T19:13:26Z" uid="127170" user="Ilis" changeset="6150621" lat="50.1470191" lon="14.1027761">
    <tag k="is_in" v="Czech Republic, Europe"/>
    <tag k="is_in:continent" v="Europe"/>
    <tag k="is_in:country_code" v="cz"/>
    <tag k="name" v="Kladno"/>
    <tag k="name:ru" v="Кладно"/>
    <tag k="place" v="town"/>
    <tag k="source" v="http://earth-info.nga.mil/gns/html/"/>
  </node>
  <node id="68303301" version="6" timestamp="2011-07-15T10:33:49Z" uid="102554" user="Jezevec" changeset="8729897" lat="50.1470191" lon="14.1027761">
    <tag k="is_in" v="Czech Republic, Europe"/>
    <tag k="is_in:continent" v="Europe"/>
    <tag k="is_in:country_code" v="cz"/>
    <tag k="lau1" v="CZ0203"/>
    <tag k="lau2" v="532053"/>
    <tag k="name" v="Kladno"/>
    <tag k="name:ru" v="Кладно"/>
    <tag k="place" v="town"/>
    <tag k="population" v="70665"/>
    <tag k="source" v="http://earth-info.nga.mil/gns/html/"/>
  </node>
  <node id="68303301" version="7" timestamp="2012-01-22T15:08:21Z" uid="229590" user="xificurk" changeset="10465562" lat="50.1470191" lon="14.1027761"/>
  <node id="68303311" version="1" timestamp="2007-10-13T09:25:12Z" uid="1066" user="pavel" changeset="142854" lat="49.866667" lon="18.55">
    <tag k="created_by" v="readgov"/>
    <tag k="name" v="Karviná"/>
    <tag k="place" v="town"/>
    <tag k="source" v="http://earth-info.nga.mil/gns/html/"/>
  </node>
  <node id="68303311" version="2" timestamp="2008-09-30T11:45:05Z" uid="1066" user="pavel" changeset="720911" lat="49.866667" lon="18.55">
    <tag k="is_in" v="Czech Republic, Europe"/>
    <tag k="name" v="Karviná"/>
    <tag k="place" v="town"/>
    <tag k="source" v="http://earth-info.nga.mil/gns/html/"/>
  </node>
  <node id="68303311" version="3" timestamp="2008-11-04T13:21:08Z" uid="308" user="MichaelCollinson" changeset="676656" lat="49.866667" lon="18.55">
    <tag k="is_in" v="Czech Republic, Europe"/>
    <tag k="is_in:continent" v="Europe"/>
    <tag k="is_in:country_code" v="cz"/>
    <tag k="name" v="Karviná"/>
    <tag k="place" v="town"/>
    <tag k="source" v="http://earth-info.nga.mil/gns/html/"/>
  </node>
  <node id="68303311" version="4" timestamp="2010-04-25T11:12:28Z" uid="91056" user="Yarl" changeset="4519930" lat="49.866667" lon="18.55">
    <tag k="is_in" v="Czech Republic, Europe"/>
    <tag k="is_in:continent" v="Europe"/>
    <tag k="is_in:country_code" v="cz"/>
    <tag k="name" v="Karviná"/>
    <tag k="name:pl" v="Karwina"/>
    <tag k="place" v="town"/>
    <tag k="source" v="http://earth-info.nga.mil/gns/html/"/>
  </node>
  <node id="68303311" version="5" timestamp="2010-05-31T13:23:10Z" uid="102554" user="Jezevec" changeset="4863102" lat="49.866667" lon="18.55">
    <tag k="is_in" v="Czech Republic, Europe"/>
    <tag k="is_in:continent" v="Europe"/>
    <tag k="is_in:country_code" v="cz"/>
    <tag k="name" v="Karviná"/>
    <tag k="name:cs" v="Karviná"/>
    <tag k="name:pl" v="Karwina"/>
    <tag k="place" v="town"/>
    <tag k="source" v="http://earth-info.nga.mil/gns/html/"/>
  </node>
  <node id="68303311" version="6" timestamp="2010-10-23T19:13:23Z" uid="127170" user="Ilis" changeset="6150621" lat="49.866667" lon="18.55">
    <tag k="is_in" v="Czech Republic, Europe"/>
    <tag k="is_in:continent" v="Europe"/>
    <tag k="is_in:country_code" v="cz"/>
    <tag k="name" v="Karviná"/>
    <tag k="name:cs" v="Karviná"/>
    <tag k="name:pl" v="Karwina"/>
    <tag k="name:ru" v="Карвина"/>
    <tag k="place" v="town"/>
    <tag k="source" v="http://earth-info.nga.mil/gns/html/"/>
  </node>
  <node id="68303311" version="7" timestamp="2011-07-15T10:33:49Z" uid="102554" user="Jezevec" changeset="8729897" lat="49.866667" lon="18.55">
    <tag k="is_in" v="Czech Republic, Europe"/>
    <tag k="is_in:continent" v="Europe"/>
    <tag k="is_in:country_code" v="cz"/>
    <tag k="lau1" v="CZ0803"/>
    <tag k="lau2" v="598917"/>
    <tag k="name" v="Karviná"/>
    <tag k="name:cs" v="Karviná"/>
    <tag k="name:pl" v="Karwina"/>
    <tag k="name:ru" v="Карвина"/>
    <tag k="place" v="town"/>
    <tag k="population" v="60679"/>
    <tag k="source" v="http://earth-info.nga.mil/gns/html/"/>
  </node>
  <node id="68303311" version="8" timestamp="2012-01-24T13:37:31Z" uid="229590" user="xificurk" changeset="10484566" lat="49.866667" lon="18.55"/>
  <node id="68303328" version="1" timestamp="2007-10-13T09:25:14Z" uid="1066" user="pavel" changeset="142854" lat="50.633333" lon="13.833333">
    <tag k="created_by" v="readgov"/>
    <tag k="name" v="Teplice"/>
    <tag k="place" v="town"/>
    <tag k="source" v="http://earth-info.nga.mil/gns/html/"/>
  </node>
  <node id="68303328" version="2" timestamp="2008-09-30T11:40:04Z" uid="1066" user="pavel" changeset="720911" lat="50.633333" lon="13.833333">
    <tag k="is_in" v="Czech Republic, Europe"/>
    <tag k="name" v="Teplice"/>
    <tag k="place" v="town"/>
    <tag k="source" v="http://earth-info.nga.mil/gns/html/"/>
  </node>
  <node id="68303328" version="3" timestamp="2008-11-04T13:21:12Z" uid="308" user="MichaelCollinson" changeset="676656" lat="50.633333" lon="13.833333">
    <tag k="is_in" v="Czech Republic, Europe"/>
    <tag k="is_in:continent" v="Europe"/>
    <tag k="is_in:country_code" v="cz"/>
    <tag k="name" v="Teplice"/>
    <tag k="place" v="town"/>
    <tag k="source" v="http://earth-info.nga.mil/gns/html/"/>
  </node>
  <node id="68303328" version="4" timestamp="2009-02-28T23:57:24Z" uid="102554" user="Jezevec" changeset="706698" lat="50.6423357" lon="13.8273538">
    <tag k="is_in" v="Czech Republic, Europe"/>
    <tag k="is_in:continent" v="Europe"/>
    <tag k="is_in:country_code" v="cz"/>
    <tag k="name" v="Teplice"/>
    <tag k="place" v="town"/>
    <tag k="source" v="http://earth-info.nga.mil/gns/html/"/>
  </node>
  <node id="68303328" version="5" timestamp="2009-07-25T19:44:35Z" uid="42123" user="Ropino" changeset="1938082" lat="50.6423357" lon="13.8273538">
    <tag k="is_in" v="Czech Republic, Europe"/>
    <tag k="is_in:continent" v="Europe"/>
    <tag k="is_in:country_code" v="cz"/>
    <tag k="name" v="Teplice"/>
    <tag k="name:de" v="Teplitz"/>
    <tag k="place" v="town"/>
    <tag k="source" v="http://earth-info.nga.mil/gns/html/"/>
  </node>
  <node id="68303328" version="6" timestamp="2009-07-26T17:34:58Z" uid="123700" user="Mala" changeset="1947360" lat="50.6423357" lon="13.8273538">
    <tag k="is_in" v="Czech Republic, Europe"/>
    <tag k="is_in:continent" v="Europe"/>
    <tag k="is_in:country_code" v="cz"/>
    <tag k="name" v="Teplice"/>
    <tag k="name:de" v="Teplitz"/>
    <tag k="name:pl" v="Cieplice"/>
    <tag k="place" v="town"/>
    <tag k="source" v="http://earth-info.nga.mil/gns/html/"/>
    <tag k="wikipedia" v="Teplice"/>
  </node>
  <node id="68303328" version="7" timestamp="2010-05-31T10:27:37Z" uid="102554" user="Jezevec" changeset="4861620" lat="50.6423357" lon="13.8273538">
    <tag k="is_in" v="Czech Republic, Europe"/>
    <tag k="is_in:continent" v="Europe"/>
    <tag k="is_in:country_code" v="cz"/>
    <tag k="name" v="Teplice"/>
    <tag k="name:de" v="Teplitz"/>
    <tag k="name:pl" v="Cieplice"/>
    <tag k="place" v="town"/>
    <tag k="population" v="53610"/>
    <tag k="source" v="http://earth-info.nga.mil/gns/html/"/>
    <tag k="wikipedia" v="Teplice"/>
  </node>
  <node id="68303328" version="8" timestamp="2010-05-31T13:23:14Z" uid="102554" user="Jezevec" changeset="4863102" lat="50.6423357" lon="13.8273538">
    <tag k="is_in" v="Czech Republic, Europe"/>
    <tag k="is_in:continent" v="Europe"/>
    <tag k="is_in:country_code" v="cz"/>
    <tag k="name" v="Teplice"/>
    <tag k="name:cs" v="Teplice"/>
    <tag k="name:de" v="Teplitz"/>
    <tag k="name:pl" v="Cieplice"/>
    <tag k="place" v="town"/>
    <tag k="population" v="53610"/>
    <tag k="source" v="http://earth-info.nga.mil/gns/html/"/>
    <tag k="wikipedia" v="Teplice"/>
  </node>
  <node id="68303328" version="9" timestamp="2010-10-23T19:13:07Z" uid="127170" user="Ilis" changeset="6150621" lat="50.6423357" lon="13.8273538">
    <tag k="is_in" v="Czech Republic, Europe"/>
    <tag k="is_in:continent" v="Europe"/>
    <tag k="is_in:country_code" v="cz"/>
    <tag k="name" v="Teplice"/>
    <tag k="name:cs" v="Teplice"/>
    <tag k="name:de" v="Teplitz"/>
    <tag k="name:pl" v="Cieplice"/>
    <tag k="name:ru" v="Теплице"/>
    <tag k="place" v="town"/>
    <tag k="population" v="53610"/>
    <tag k="source" v="http://earth-info.nga.mil/gns/html/"/>
    <tag k="wikipedia" v="Teplice"/>
  </node>
  <node id="68303328" version="10" timestamp="2011-03-11T13:04:26Z" uid="102554" user="Jezevec" changeset="7523131" lat="50.6418441" lon="13.8266011">
    <tag k="is_in" v="Czech Republic, Europe"/>
    <tag k="is_in:continent" v="Europe"/>
    <tag k="is_in:country_code" v="cz"/>
    <tag k="name" v="Teplice"/>
    <tag k="name:cs" v="Teplice"/>
    <tag k="name:de" v="Teplitz"/>
    <tag k="name:pl" v="Cieplice"/>
    <tag k="name:ru" v="Теплице"/>
    <tag k="place" v="town"/>
    <tag k="population" v="53610"/>
    <tag k="source" v="http://earth-info.nga.mil/gns/html/"/>
    <tag k="wikipedia" v="Teplice"/>
  </node>
  <node id="68303328" version="11" timestamp="2011-07-15T10:33:49Z" uid="102554" user="Jezevec" changeset="8729897" lat="50.6418441" lon="13.8266011">
    <tag k="is_in" v="Czech Republic, Europe"/>
    <tag k="is_in:continent" v="Europe"/>
    <tag k="is_in:country_code" v="cz"/>
    <tag k="lau1" v="CZ0426"/>
    <tag k="lau2" v="567442"/>
    <tag k="name" v="Teplice"/>
    <tag k="name:cs" v="Teplice"/>
    <tag k="name:de" v="Teplitz"/>
    <tag k="name:pl" v="Cieplice"/>
    <tag k="name:ru" v="Теплице"/>
    <tag k="place" v="town"/>
    <tag k="population" v="51146"/>
    <tag k="source" v="http://earth-info.nga.mil/gns/html/"/>
    <tag k="wikipedia" v="Teplice"/>
  </node>
  <node id="68303328" version="12" timestamp="2012-01-20T17:55:40Z" uid="229590" user="xificurk" changeset="10448846" lat="50.6418441" lon="13.8266011"/>
  <node id="68303353" version="1" timestamp="2007-10-13T09:25:15Z" uid="1066" user="pavel" changeset="142854" lat="50.783333" lon="14.216667">
    <tag k="created_by" v="readgov"/>
    <tag k="name" v="Děčín"/>
    <tag k="place" v="town"/>
    <tag k="source" v="http://earth-info.nga.mil/gns/html/"/>
  </node>
  <node id="68303353" version="2" timestamp="2008-05-19T10:17:02Z" uid="30398" user="vaust" changeset="478882" lat="50.7833356" lon="14.2166606">
    <tag k="created_by" v="Potlatch 0.9a"/>
    <tag k="name" v="Děčín"/>
    <tag k="name:de" v="Tetschen-Bodenbach"/>
    <tag k="place" v="town"/>
  </node>
  <node id="68303353" version="3" timestamp="2008-07-14T20:55:22Z" uid="30398" user="vaust" changeset="490490" lat="50.7820493" lon="14.2168319">
    <tag k="created_by" v="Potlatch 0.9c"/>
    <tag k="name" v="Děčín"/>
    <tag k="name:de" v="Tetschen-Bodenbach"/>
    <tag k="place" v="town"/>
  </node>
  <node id="68303353" version="4" timestamp="2008-09-30T10:51:15Z" uid="1066" user="pavel" changeset="720911" lat="50.7820493" lon="14.2168319">
    <tag k="is_in" v="Czech Republic, Europe"/>
    <tag k="name" v="Děčín"/>
    <tag k="name:de" v="Tetschen-Bodenbach"/>
    <tag k="place" v="town"/>
  </node>
  <node id="68303353" version="5" timestamp="2008-11-04T13:21:09Z" uid="308" user="MichaelCollinson" changeset="676656" lat="50.7820493" lon="14.2168319">
    <tag k="is_in" v="Czech Republic, Europe"/>
    <tag k="is_in:continent" v="Europe"/>
    <tag k="is_in:country_code" v="cz"/>
    <tag k="name" v="Děčín"/>
    <tag k="name:de" v="Tetschen-Bodenbach"/>
    <tag k="place" v="town"/>
  </node>
  <node id="68303353" version="6" timestamp="2010-05-31T13:23:12Z" uid="102554" user="Jezevec" changeset="4863102" lat="50.7820493" lon="14.2168319">
    <tag k="is_in" v="Czech Republic, Europe"/>
    <tag k="is_in:continent" v="Europe"/>
    <tag k="is_in:country_code" v="cz"/>
    <tag k="name" v="Děčín"/>
    <tag k="name:cs" v="Děčín"/>
    <tag k="name:de" v="Tetschen-Bodenbach"/>
    <tag k="place" v="town"/>
  </node>
  <node id="68303353" version="7" timestamp="2010-10-23T19:13:27Z" uid="127170" user="Ilis" changeset="6150621" lat="50.7820493" lon="14.2168319">
    <tag k="is_in" v="Czech Republic, Europe"/>
    <tag k="is_in:continent" v="Europe"/>
    <tag k="is_in:country_code" v="cz"/>
    <tag k="name" v="Děčín"/>
    <tag k="name:cs" v="Děčín"/>
    <tag k="name:de" v="Tetschen-Bodenbach"/>
    <tag k="name:ru" v="Дечин"/>
    <tag k="place" v="town"/>
  </node>
  <node id="68303353" version="8" timestamp="2011-01-30T07:58:26Z" uid="183064" user="degga" changeset="7130851" lat="50.7820494" lon="14.2168318">
    <tag k="is_in" v="Czech Republic, Europe"/>
    <tag k="is_in:continent" v="Europe"/>
    <tag k="is_in:country_code" v="cz"/>
    <tag k="name" v="Děčín"/>
    <tag k="name:cs" v="Děčín"/>
    <tag k="name:de" v="Tetschen-Bodenbach"/>
    <tag k="name:ru" v="Дечин"/>
    <tag k="place" v="town"/>
    <tag k="population" v="52260"/>
  </node>
  <node id="68303353" version="9" timestamp="2011-06-29T16:53:59Z" uid="15720" user="J budissin" changeset="8582723" lat="50.7820494" lon="14.2168318">
    <tag k="is_in" v="Czech Republic, Europe"/>
    <tag k="is_in:continent" v="Europe"/>
    <tag k="is_in:country_code" v="cz"/>
    <tag k="name" v="Děčín"/>
    <tag k="name:cs" v="Děčín"/>
    <tag k="name:de" v="Tetschen-Bodenbach"/>
    <tag k="name:hsb" v="Dźěćin"/>
    <tag k="name:ru" v="Дечин"/>
    <tag k="place" v="town"/>
    <tag k="population" v="52260"/>
  </node>
  <node id="68303353" version="10" timestamp="2011-07-15T10:33:48Z" uid="102554" user="Jezevec" changeset="8729897" lat="50.7820494" lon="14.2168318">
    <tag k="is_in" v="Czech Republic, Europe"/>
    <tag k="is_in:continent" v="Europe"/>
    <tag k="is_in:country_code" v="cz"/>
    <tag k="lau1" v="CZ0421"/>
    <tag k="lau2" v="562335"/>
    <tag k="name" v="Děčín"/>
    <tag k="name:cs" v="Děčín"/>
    <tag k="name:de" v="Tetschen-Bodenbach"/>
    <tag k="name:hsb" v="Dźěćin"/>
    <tag k="name:ru" v="Дечин"/>
    <tag k="place" v="town"/>
    <tag k="population" v="51691"/>
  </node>
  <node id="68303353" version="11" timestamp="2012-01-20T14:28:15Z" uid="229590" user="xificurk" changeset="10446834" lat="50.7820494" lon="14.2168318"/>
  <node id="68303371" version="1" timestamp="2007-10-13T09:25:16Z" uid="1066" user="pavel" changeset="142854" lat="49.683333" lon="18.35">
    <tag k="created_by" v="readgov"/>
    <tag k="name" v="Frýdek-Místek"/>
    <tag k="place" v="town"/>
    <tag k="source" v="http://earth-info.nga.mil/gns/html/"/>
  </node>
  <node id="68303371" version="2" timestamp="2008-09-30T11:39:46Z" uid="1066" user="pavel" changeset="720911" lat="49.683333" lon="18.35">
    <tag k="is_in" v="Czech Republic, Europe"/>
    <tag k="name" v="Frýdek-Místek"/>
    <tag k="place" v="town"/>
    <tag k="source" v="http://earth-info.nga.mil/gns/html/"/>
  </node>
  <node id="68303371" version="3" timestamp="2008-11-04T13:20:04Z" uid="308" user="MichaelCollinson" changeset="676656" lat="49.683333" lon="18.35">
    <tag k="is_in" v="Czech Republic, Europe"/>
    <tag k="is_in:continent" v="Europe"/>
    <tag k="is_in:country_code" v="cz"/>
    <tag k="name" v="Frýdek-Místek"/>
    <tag k="place" v="town"/>
    <tag k="source" v="http://earth-info.nga.mil/gns/html/"/>
  </node>
  <node id="68303371" version="4" timestamp="2009-08-17T13:47:50Z" uid="62454" user="Blackhex" changeset="2178224" lat="49.6833334" lon="18.3500031">
    <tag k="is_in" v="Czech Republic, Europe"/>
    <tag k="is_in:continent" v="Europe"/>
    <tag k="is_in:country_code" v="cz"/>
    <tag k="name" v="Frýdek-Místek"/>
    <tag k="place" v="town"/>
    <tag k="source" v="http://earth-info.nga.mil/gns/html/"/>
  </node>
  <node id="68303371" version="5" timestamp="2010-01-05T12:13:33Z" uid="62454" user="Blackhex" changeset="3544803" lat="49.6833334" lon="18.3500031">
    <tag k="is_in" v="Czech Republic, Europe"/>
    <tag k="is_in:continent" v="Europe"/>
    <tag k="is_in:country_code" v="cz"/>
    <tag k="name" v="Frýdek-Místek"/>
    <tag k="place" v="town"/>
    <tag k="population" v="59 821"/>
    <tag k="source" v="http://earth-info.nga.mil/gns/html/"/>
  </node>
  <node id="68303371" version="6" timestamp="2010-03-11T00:28:24Z" uid="210371" user="miozzo" changeset="4094733" lat="49.6833334" lon="18.3500031">
    <tag k="is_in" v="Czech Republic, Europe"/>
    <tag k="is_in:continent" v="Europe"/>
    <tag k="is_in:country_code" v="cz"/>
    <tag k="name" v="Frýdek-Místek"/>
    <tag k="place" v="town"/>
    <tag k="population" v="59821"/>
    <tag k="source" v="http://earth-info.nga.mil/gns/html/"/>
  </node>
  <node id="68303371" version="7" timestamp="2010-10-23T19:13:18Z" uid="127170" user="Ilis" changeset="6150621" lat="49.6833334" lon="18.3500031">
    <tag k="is_in" v="Czech Republic, Europe"/>
    <tag k="is_in:continent" v="Europe"/>
    <tag k="is_in:country_code" v="cz"/>
    <tag k="name" v="Frýdek-Místek"/>
    <tag k="name:ru" v="Фридек-Мистек"/>
    <tag k="place" v="town"/>
    <tag k="population" v="59821"/>
    <tag k="source" v="http://earth-info.nga.mil/gns/html/"/>
  </node>
  <node id="68303371" version="8" timestamp="2010-10-24T00:45:58Z" uid="152074" user="beweta" changeset="6152826" lat="49.6833427" lon="18.3503225">
    <tag k="alt_name:de" v="Friedek-Mistek"/>
    <tag k="is_in" v="Czech Republic, Europe"/>
    <tag k="is_in:continent" v="Europe"/>
    <tag k="is_in:country_code" v="cz"/>
    <tag k="name" v="Frýdek-Místek"/>
    <tag k="name:de" v="Friedeck-Mistek"/>
    <tag k="name:ru" v="Фридек-Мистек"/>
    <tag k="place" v="town"/>
    <tag k="population" v="59821"/>
    <tag k="source" v="http://earth-info.nga.mil/gns/html/"/>
  </node>
  <node id="68303371" version="9" timestamp="2011-07-15T10:33:48Z" uid="102554" user="Jezevec" changeset="8729897" lat="49.6833427" lon="18.3503225">
    <tag k="alt_name:de" v="Friedek-Mistek"/>
    <tag k="is_in" v="Czech Republic, Europe"/>
    <tag k="is_in:continent" v="Europe"/>
    <tag k="is_in:country_code" v="cz"/>
    <tag k="lau1" v="CZ0802"/>
    <tag k="lau2" v="598003"/>
    <tag k="name" v="Frýdek-Místek"/>
    <tag k="name:de" v="Friedeck-Mistek"/>
    <tag k="name:ru" v="Фридек-Мистек"/>
    <tag k="place" v="town"/>
    <tag k="population" v="58200"/>
    <tag k="source" v="http://earth-info.nga.mil/gns/html/"/>
  </node>
  <node id="68303371" version="10" timestamp="2012-01-24T09:00:34Z" uid="229590" user="xificurk" changeset="10482424" lat="49.6833427" lon="18.3503225"/>
  <node id="68303387" version="1" timestamp="2007-10-13T09:25:17Z" uid="1066" user="pavel" changeset="142854" lat="49.8" lon="18.4">
    <tag k="created_by" v="readgov"/>
    <tag k="name" v="Havířov"/>
    <tag k="place" v="town"/>
    <tag k="source" v="http://earth-info.nga.mil/gns/html/"/>
  </node>
  <node id="68303387" version="2" timestamp="2008-02-08T15:37:58Z" uid="26510" user="geordi" changeset="71609" lat="49.7693325" lon="18.433862">
    <tag k="created_by" v="readgov"/>
    <tag k="name" v="Havířov"/>
    <tag k="place" v="town"/>
    <tag k="source" v="http://earth-info.nga.mil/gns/html/"/>
  </node>
  <node id="68303387" version="3" timestamp="2008-09-30T11:33:21Z" uid="1066" user="pavel" changeset="720911" lat="49.7693325" lon="18.433862">
    <tag k="is_in" v="Czech Republic, Europe"/>
    <tag k="name" v="Havířov"/>
    <tag k="place" v="town"/>
    <tag k="source" v="http://earth-info.nga.mil/gns/html/"/>
  </node>
  <node id="68303387" version="4" timestamp="2008-11-04T13:20:06Z" uid="308" user="MichaelCollinson" changeset="676656" lat="49.7693325" lon="18.433862">
    <tag k="is_in" v="Czech Republic, Europe"/>
    <tag k="is_in:continent" v="Europe"/>
    <tag k="is_in:country_code" v="cz"/>
    <tag k="name" v="Havířov"/>
    <tag k="place" v="town"/>
    <tag k="source" v="http://earth-info.nga.mil/gns/html/"/>
  </node>
  <node id="68303387" version="5" timestamp="2009-01-25T20:12:49Z" uid="72020" user="Petr1868" changeset="836964" lat="49.7787538" lon="18.4404241">
    <tag k="is_in" v="Czech Republic, Europe"/>
    <tag k="is_in:continent" v="Europe"/>
    <tag k="is_in:country_code" v="cz"/>
    <tag k="name" v="Havířov"/>
    <tag k="place" v="town"/>
    <tag k="source" v="http://earth-info.nga.mil/gns/html/"/>
  </node>
  <node id="68303387" version="6" timestamp="2010-10-23T19:13:04Z" uid="127170" user="Ilis" changeset="6150621" lat="49.7787538" lon="18.4404241">
    <tag k="is_in" v="Czech Republic, Europe"/>
    <tag k="is_in:continent" v="Europe"/>
    <tag k="is_in:country_code" v="cz"/>
    <tag k="name" v="Havířov"/>
    <tag k="name:ru" v="Гавиржов"/>
    <tag k="place" v="town"/>
    <tag k="source" v="http://earth-info.nga.mil/gns/html/"/>
  </node>
  <node id="68303387" version="7" timestamp="2011-07-15T10:23:44Z" uid="102554" user="Jezevec" changeset="8729812" lat="49.7787538" lon="18.4404241">
    <tag k="is_in" v="Czech Republic, Europe"/>
    <tag k="is_in:continent" v="Europe"/>
    <tag k="is_in:country_code" v="cz"/>
    <tag k="lau1" v="CZ0803"/>
    <tag k="lau2" v="555088"/>
    <tag k="name" v="Havířov"/>
    <tag k="name:ru" v="Гавиржов"/>
    <tag k="place" v="town"/>
    <tag k="population" v="82022"/>
    <tag k="source" v="http://earth-info.nga.mil/gns/html/"/>
  </node>
  <node id="68303387" version="8" timestamp="2012-01-22T20:05:30Z" uid="229590" user="xificurk" changeset="10469169" lat="49.7787538" lon="18.4404241"/>
</osm>
