<?xml version='1.0' encoding='UTF-8'?>
<osm version="0.6" generator="libosmium/2.20.0">
  <node id="68374307" version="1" timestamp="2007-10-13T10:23:50Z" uid="1066" user="pavel" changeset="142854" lat="50.766667" lon="14.583333">
    <tag k="created_by" v="readgov"/>
    <tag k="name" v="Nový Bor"/>
    <tag k="place" v="town"/>
    <tag k="source" v="http://earth-info.nga.mil/gns/html/"/>
  </node>
  <node id="68374307" version="2" timestamp="2008-08-06T19:21:44Z" uid="50217" user="michalelsCZ" changeset="111165" lat="50.7616897" lon="14.556259">
    <tag k="created_by" v="Potlatch 0.10b"/>
    <tag k="name" v="Nový Bor"/>
    <tag k="place" v="town"/>
    <tag k="source" v="http://earth-info.nga.mil/gns/html/"/>
  </node>
  <node id="68374307" version="3" timestamp="2008-09-30T10:36:55Z" uid="1066" user="pavel" changeset="720911" lat="50.7616897" lon="14.556259">
    <tag k="is_in" v="Czech Republic, Europe"/>
    <tag k="name" v="Nový Bor"/>
    <tag k="place" v="town"/>
    <tag k="source" v="http://earth-info.nga.mil/gns/html/"/>
  </node>
  <node id="68374307" version="4" timestamp="2008-11-04T13:08:48Z" uid="308" user="MichaelCollinson" changeset="676656" lat="50.7616897" lon="14.556259">
    <tag k="is_in" v="Czech Republic, Europe"/>
    <tag k="is_in:continent" v="Europe"/>
    <tag k="is_in:country_code" v="cz"/>
    <tag k="name" v="Nový Bor"/>
    <tag k="place" v="town"/>
    <tag k="source" v="http://earth-info.nga.mil/gns/html/"/>
  </node>
  <node id="68374307" version="5" timestamp="2011-10-19T13:45:00Z" uid="102554" user="Jezevec" changeset="9599953" lat="50.7616897" lon="14.556259">
    <tag k="is_in" v="Czech Republic, Europe"/>
    <tag k="is_in:continent" v="Europe"/>
    <tag k="is_in:country_code" v="cz"/>
    <tag k="lau1" v="CZ0511"/>
    <tag k="lau2" v="561860"/>
    <tag k="name" v="Nový Bor"/>
    <tag k="place" v="town"/>
    <tag k="population" v="12259"/>
    <tag k="source" v="http://earth-info.nga.mil/gns/html/"/>
  </node>
  <node id="68374307" version="6" timestamp="2012-01-12T21:29:12Z" uid="536216" user="uir-zsj" changeset="10373751" lat="50.7616897" lon="14.556259"/>
  <node id="68374328" version="1" timestamp="2007-10-13T10:23:50Z" uid="1066" user="pavel" changeset="142854" lat="49.483333" lon="16.666667">
    <tag k="created_by" v="readgov"/>
    <tag k="name" v="Boskovice"/>
    <tag k="place" v="town"/>
    <tag k="source" v="http://earth-info.nga.mil/gns/html/"/>
  </node>
  <node id="68374328" version="2" timestamp="2008-09-30T10:07:13Z" uid="1066" user="pavel" changeset="720911" lat="49.483333" lon="16.666667">
    <tag k="is_in" v="Czech Republic, Europe"/>
    <tag k="name" v="Boskovice"/>
    <tag k="place" v="town"/>
    <tag k="source" v="http://earth-info.nga.mil/gns/html/"/>
  </node>
  <node id="68374328" version="3" timestamp="2008-11-04T13:08:48Z" uid="308" user="MichaelCollinson" changeset="676656" lat="49.483333" lon="16.666667">
    <tag k="is_in" v="Czech Republic, Europe"/>
    <tag k="is_in:continent" v="Europe"/>
    <tag k="is_in:country_code" v="cz"/>
    <tag k="name" v="Boskovice"/>
    <tag k="place" v="town"/>
    <tag k="source" v="http://earth-info.nga.mil/gns/html/"/>
  </node>
  <node id="68374328" version="4" timestamp="2009-06-25T06:09:31Z" uid="17615" user="Petr Dlouhý" changeset="1618571" lat="49.4879316" lon="16.6604057">
    <tag k="is_in" v="Czech Republic, Europe"/>
    <tag k="is_in:continent" v="Europe"/>
    <tag k="is_in:country_code" v="cz"/>
    <tag k="name" v="Boskovice"/>
    <tag k="place" v="town"/>
    <tag k="source" v="http://earth-info.nga.mil/gns/html/"/>
  </node>
  <node id="68374328" version="5" timestamp="2011-10-19T14:46:40Z" uid="102554" user="Jezevec" changeset="9600469" lat="49.4879316" lon="16.6604057">
    <tag k="is_in" v="Czech Republic, Europe"/>
    <tag k="is_in:continent" v="Europe"/>
    <tag k="is_in:country_code" v="cz"/>
    <tag k="lau1" v="CZ0641"/>
    <tag k="lau2" v="581372"/>
    <tag k="name" v="Boskovice"/>
    <tag k="place" v="town"/>
    <tag k="population" v="10987"/>
    <tag k="source" v="http://earth-info.nga.mil/gns/html/"/>
  </node>
  <node id="68374328" version="6" timestamp="2011-10-26T17:35:19Z" uid="37693" user="Heinz" changeset="9662159" lat="49.4879316" lon="16.6604057">
    <tag k="is_in" v="Czech Republic, Europe"/>
    <tag k="is_in:continent" v="Europe"/>
    <tag k="is_in:country_code" v="cz"/>
    <tag k="lau1" v="CZ0641"/>
    <tag k="lau2" v="581372"/>
    <tag k="name" v="Boskovice"/>
    <tag k="name:de" v="Boskowitz"/>
    <tag k="place" v="town"/>
    <tag k="population" v="10987"/>
    <tag k="source" v="http://earth-info.nga.mil/gns/html/"/>
  </node>
  <node id="68374328" version="7" timestamp="2012-01-22T20:02:58Z" uid="229590" user="xificurk" changeset="10469134" lat="49.4879316" lon="16.6604057"/>
  <node id="68374360" version="1" timestamp="2007-10-13T10:23:51Z" uid="1066" user="pavel" changeset="142854" lat="49.566667" lon="16.083333">
    <tag k="created_by" v="readgov"/>
    <tag k="name" v="Nové Město na Moravě"/>
    <tag k="place" v="town"/>
    <tag k="source" v="http://earth-info.nga.mil/gns/html/"/>
  </node>
  <node id="68374360" version="2" timestamp="2007-11-13T12:59:17Z" uid="4788" user="hanoj" changeset="499723" lat="49.5606497" lon="16.0744945">
    <tag k="created_by" v="readgov"/>
    <tag k="name" v="Nové Město na Moravě"/>
    <tag k="place" v="town"/>
    <tag k="source" v="http://earth-info.nga.mil/gns/html/"/>
  </node>
  <node id="68374360" version="3" timestamp="2008-09-30T10:25:52Z" uid="1066" user="pavel" changeset="720911" lat="49.5606497" lon="16.0744945">
    <tag k="is_in" v="Czech Republic, Europe"/>
    <tag k="name" v="Nové Město na Moravě"/>
    <tag k="place" v="town"/>
    <tag k="source" v="http://earth-info.nga.mil/gns/html/"/>
  </node>
  <node id="68374360" version="4" timestamp="2008-11-04T13:08:51Z" uid="308" user="MichaelCollinson" changeset="676656" lat="49.5606497" lon="16.0744945">
    <tag k="is_in" v="Czech Republic, Europe"/>
    <tag k="is_in:continent" v="Europe"/>
    <tag k="is_in:country_code" v="cz"/>
    <tag k="name" v="Nové Město na Moravě"/>
    <tag k="place" v="town"/>
    <tag k="source" v="http://earth-info.nga.mil/gns/html/"/>
  </node>
  <node id="68374360" version="5" timestamp="2011-10-19T14:46:43Z" uid="102554" user="Jezevec" changeset="9600469" lat="49.5606497" lon="16.0744945">
    <tag k="is_in" v="Czech Republic, Europe"/>
    <tag k="is_in:continent" v="Europe"/>
    <tag k="is_in:country_code" v="cz"/>
    <tag k="lau1" v="CZ0635"/>
    <tag k="lau2" v="596230"/>
    <tag k="name" v="Nové Město na Moravě"/>
    <tag k="place" v="town"/>
    <tag k="population" v="10367"/>
    <tag k="source" v="http://earth-info.nga.mil/gns/html/"/>
  </node>
  <node id="68374360" version="6" timestamp="2012-01-12T00:22:47Z" uid="536216" user="uir-zsj" changeset="10365946" lat="49.5606497" lon="16.0744945"/>
  <node id="68374386" version="1" timestamp="2007-10-13T10:23:52Z" uid="1066" user="pavel" changeset="142854" lat="49.016667" lon="14">
    <tag k="created_by" v="readgov"/>
    <tag k="name" v="Prachatice"/>
    <tag k="place" v="town"/>
    <tag k="source" v="http://earth-info.nga.mil/gns/html/"/>
  </node>
  <node id="68374386" version="2" timestamp="2008-09-30T10:48:45Z" uid="1066" user="pavel" changeset="720911" lat="49.016667" lon="14">
    <tag k="is_in" v="Czech Republic, Europe"/>
    <tag k="name" v="Prachatice"/>
    <tag k="place" v="town"/>
    <tag k="source" v="http://earth-info.nga.mil/gns/html/"/>
  </node>
  <node id="68374386" version="3" timestamp="2008-11-04T13:08:55Z" uid="308" user="MichaelCollinson" changeset="676656" lat="49.016667" lon="14">
    <tag k="is_in" v="Czech Republic, Europe"/>
    <tag k="is_in:continent" v="Europe"/>
    <tag k="is_in:country_code" v="cz"/>
    <tag k="name" v="Prachatice"/>
    <tag k="place" v="town"/>
    <tag k="source" v="http://earth-info.nga.mil/gns/html/"/>
  </node>
  <node id="68374386" version="4" timestamp="2009-06-27T15:07:13Z" uid="138613" user="kubiik" changeset="1650725" lat="49.0127089" lon="13.9977336">
    <tag k="is_in" v="Czech Republic, Europe"/>
    <tag k="is_in:continent" v="Europe"/>
    <tag k="is_in:country_code" v="cz"/>
    <tag k="name" v="Prachatice"/>
    <tag k="place" v="town"/>
    <tag k="source" v="http://earth-info.nga.mil/gns/html/"/>
  </node>
  <node id="68374386" version="5" timestamp="2009-06-29T10:42:30Z" uid="138613" user="kubiik" changeset="1675488" lat="49.0127089" lon="13.9977336">
    <tag k="is_in" v="Czech Republic, Europe"/>
    <tag k="is_in:continent" v="Europe"/>
    <tag k="is_in:country_code" v="cz"/>
    <tag k="name" v="Prachatice"/>
    <tag k="place" v="town"/>
    <tag k="source" v="http://earth-info.nga.mil/gns/html/"/>
  </node>
  <node id="68374386" version="6" timestamp="2010-10-24T06:48:20Z" uid="127170" user="Ilis" changeset="6153635" lat="49.0127089" lon="13.9977336">
    <tag k="is_in" v="Czech Republic, Europe"/>
    <tag k="is_in:continent" v="Europe"/>
    <tag k="is_in:country_code" v="cz"/>
    <tag k="name" v="Prachatice"/>
    <tag k="name:ru" v="Прахатице"/>
    <tag k="place" v="town"/>
    <tag k="source" v="http://earth-info.nga.mil/gns/html/"/>
  </node>
  <node id="68374386" version="7" timestamp="2011-10-19T14:46:43Z" uid="102554" user="Jezevec" changeset="9600469" lat="49.0127089" lon="13.9977336">
    <tag k="is_in" v="Czech Republic, Europe"/>
    <tag k="is_in:continent" v="Europe"/>
    <tag k="is_in:country_code" v="cz"/>
    <tag k="lau1" v="CZ0315"/>
    <tag k="lau2" v="550094"/>
    <tag k="name" v="Prachatice"/>
    <tag k="name:ru" v="Прахатице"/>
    <tag k="place" v="town"/>
    <tag k="population" v="11432"/>
    <tag k="source" v="http://earth-info.nga.mil/gns/html/"/>
  </node>
  <node id="68374386" version="8" timestamp="2012-01-20T23:10:36Z" uid="229590" user="xificurk" changeset="10451665" lat="49.0127089" lon="13.9977336"/>
  <node id="68374403" version="1" timestamp="2007-10-13T10:23:53Z" uid="1066" user="pavel" changeset="142854" lat="49.95" lon="16.166667">
    <tag k="created_by" v="readgov"/>
    <tag k="name" v="Vysoké Mýto"/>
    <tag k="place" v="town"/>
    <tag k="source" v="http://earth-info.nga.mil/gns/html/"/>
  </node>
  <node id="68374403" version="2" timestamp="2008-09-30T10:24:06Z" uid="1066" user="pavel" changeset="720911" lat="49.95" lon="16.166667">
    <tag k="is_in" v="Czech Republic, Europe"/>
    <tag k="name" v="Vysoké Mýto"/>
    <tag k="place" v="town"/>
    <tag k="source" v="http://earth-info.nga.mil/gns/html/"/>
  </node>
  <node id="68374403" version="3" timestamp="2008-11-04T13:08:32Z" uid="308" user="MichaelCollinson" changeset="676656" lat="49.95" lon="16.166667">
    <tag k="is_in" v="Czech Republic, Europe"/>
    <tag k="is_in:continent" v="Europe"/>
    <tag k="is_in:country_code" v="cz"/>
    <tag k="name" v="Vysoké Mýto"/>
    <tag k="place" v="town"/>
    <tag k="source" v="http://earth-info.nga.mil/gns/html/"/>
  </node>
  <node id="68374403" version="4" timestamp="2009-03-25T19:39:32Z" uid="72020" user="Petr1868" changeset="858581" lat="49.9534301" lon="16.1605802">
    <tag k="is_in" v="Czech Republic, Europe"/>
    <tag k="is_in:continent" v="Europe"/>
    <tag k="is_in:country_code" v="cz"/>
    <tag k="name" v="Vysoké Mýto"/>
    <tag k="place" v="town"/>
    <tag k="source" v="http://earth-info.nga.mil/gns/html/"/>
  </node>
  <node id="68374403" version="5" timestamp="2010-10-24T06:48:22Z" uid="127170" user="Ilis" changeset="6153635" lat="49.9534301" lon="16.1605802">
    <tag k="is_in" v="Czech Republic, Europe"/>
    <tag k="is_in:continent" v="Europe"/>
    <tag k="is_in:country_code" v="cz"/>
    <tag k="name" v="Vysoké Mýto"/>
    <tag k="name:ru" v="Високе-Мито"/>
    <tag k="place" v="town"/>
    <tag k="source" v="http://earth-info.nga.mil/gns/html/"/>
  </node>
  <node id="68374403" version="6" timestamp="2011-10-19T13:45:00Z" uid="102554" user="Jezevec" changeset="9599953" lat="49.9534301" lon="16.1605802">
    <tag k="is_in" v="Czech Republic, Europe"/>
    <tag k="is_in:continent" v="Europe"/>
    <tag k="is_in:country_code" v="cz"/>
    <tag k="lau1" v="CZ0534"/>
    <tag k="lau2" v="581186"/>
    <tag k="name" v="Vysoké Mýto"/>
    <tag k="name:ru" v="Високе-Мито"/>
    <tag k="place" v="town"/>
    <tag k="population" v="12558"/>
    <tag k="source" v="http://earth-info.nga.mil/gns/html/"/>
  </node>
  <node id="68374403" version="7" timestamp="2012-01-19T23:08:55Z" uid="229590" user="xificurk" changeset="10442236" lat="49.9534301" lon="16.1605802"/>
  <node id="68374422" version="1" timestamp="2007-10-13T10:23:54Z" uid="1066" user="pavel" changeset="142854" lat="49.75" lon="16.666667">
    <tag k="created_by" v="readgov"/>
    <tag k="name" v="Moravská Třebová"/>
    <tag k="place" v="town"/>
    <tag k="source" v="http://earth-info.nga.mil/gns/html/"/>
  </node>
  <node id="68374422" version="2" timestamp="2008-01-27T17:49:19Z" uid="25229" user="rad" changeset="702441" lat="49.7583277" lon="16.6634912">
    <tag k="created_by" v="readgov"/>
    <tag k="name" v="Moravská Třebová"/>
    <tag k="place" v="town"/>
    <tag k="source" v="http://earth-info.nga.mil/gns/html/"/>
  </node>
  <node id="68374422" version="3" timestamp="2008-01-30T19:35:57Z" uid="5013" user="walley" changeset="713104" lat="49.7583295" lon="16.6634848">
    <tag k="created_by" v="Potlatch 0.6c"/>
    <tag k="name" v="Moravská Třebová"/>
    <tag k="place" v="town"/>
    <tag k="source" v="http://earth-info.nga.mil/gns/html/"/>
  </node>
  <node id="68374422" version="4" timestamp="2008-09-30T10:34:00Z" uid="1066" user="pavel" changeset="720911" lat="49.7583295" lon="16.6634848">
    <tag k="is_in" v="Czech Republic, Europe"/>
    <tag k="name" v="Moravská Třebová"/>
    <tag k="place" v="town"/>
    <tag k="source" v="http://earth-info.nga.mil/gns/html/"/>
  </node>
  <node id="68374422" version="5" timestamp="2008-11-04T13:08:34Z" uid="308" user="MichaelCollinson" changeset="676656" lat="49.7583295" lon="16.6634848">
    <tag k="is_in" v="Czech Republic, Europe"/>
    <tag k="is_in:continent" v="Europe"/>
    <tag k="is_in:country_code" v="cz"/>
    <tag k="name" v="Moravská Třebová"/>
    <tag k="place" v="town"/>
    <tag k="source" v="http://earth-info.nga.mil/gns/html/"/>
  </node>
  <node id="68374422" version="6" timestamp="2010-10-24T06:48:13Z" uid="127170" user="Ilis" changeset="6153635" lat="49.7583295" lon="16.6634848">
    <tag k="is_in" v="Czech Republic, Europe"/>
    <tag k="is_in:continent" v="Europe"/>
    <tag k="is_in:country_code" v="cz"/>
    <tag k="name" v="Moravská Třebová"/>
    <tag k="name:ru" v="Моравска-Тршебова"/>
    <tag k="place" v="town"/>
    <tag k="source" v="http://earth-info.nga.mil/gns/html/"/>
  </node>
  <node id="68374422" version="7" timestamp="2011-10-19T14:46:43Z" uid="102554" user="Jezevec" changeset="9600469" lat="49.7583295" lon="16.6634848">
    <tag k="is_in" v="Czech Republic, Europe"/>
    <tag k="is_in:continent" v="Europe"/>
    <tag k="is_in:country_code" v="cz"/>
    <tag k="lau1" v="CZ0533"/>
    <tag k="lau2" v="578444"/>
    <tag k="name" v="Moravská Třebová"/>
    <tag k="name:ru" v="Моравска-Тршебова"/>
    <tag k="place" v="town"/>
    <tag k="population" v="10853"/>
    <tag k="source" v="http://earth-info.nga.mil/gns/html/"/>
  </node>
  <node id="68374422" version="8" timestamp="2012-01-20T12:49:13Z" uid="229590" user="xificurk" changeset="10446038" lat="49.7583295" lon="16.6634848"/>
  <node id="68374448" version="1" timestamp="2007-10-13T10:23:55Z" uid="1066" user="pavel" changeset="142854" lat="49.440278" lon="12.927222">
    <tag k="created_by" v="readgov"/>
    <tag k="name" v="Domažlice"/>
    <tag k="place" v="town"/>
    <tag k="source" v="http://earth-info.nga.mil/gns/html/"/>
  </node>
  <node id="68374474" version="1" timestamp="2007-10-13T10:23:56Z" uid="1066" user="pavel" changeset="142854" lat="49.983333" lon="14.65">
    <tag k="created_by" v="readgov"/>
    <tag k="name" v="Říčany"/>
    <tag k="place" v="town"/>
    <tag k="source" v="http://earth-info.nga.mil/gns/html/"/>
  </node>
  <node id="68374474" version="2" timestamp="2007-10-22T21:37:13Z" uid="3516" user="BiIbo" changeset="295659" lat="49.9961913" lon="14.6616845">
    <tag k="created_by" v="readgov"/>
    <tag k="name" v="Říčany"/>
    <tag k="place" v="town"/>
    <tag k="source" v="http://earth-info.nga.mil/gns/html/"/>
  </node>
  <node id="68374474" version="3" timestamp="2008-08-28T07:25:03Z" uid="53767" user="Rathousky Jan" changeset="434486" lat="49.9958717" lon="14.662319">
    <tag k="created_by" v="Potlatch 0.10b"/>
    <tag k="name" v="Říčany"/>
    <tag k="place" v="town"/>
    <tag k="source" v="http://earth-info.nga.mil/gns/html/"/>
  </node>
  <node id="68374474" version="4" timestamp="2008-09-29T23:44:18Z" uid="1066" user="pavel" changeset="720263" lat="49.9958717" lon="14.662319">
    <tag k="is_in" v="Czech Republic, Europe"/>
    <tag k="name" v="Říčany"/>
    <tag k="place" v="town"/>
    <tag k="source" v="http://earth-info.nga.mil/gns/html/"/>
  </node>
  <node id="68374474" version="5" timestamp="2008-10-29T10:30:29Z" uid="53767" user="Rathousky Jan" changeset="620394" lat="49.9918023" lon="14.6558769">
    <tag k="is_in" v="Czech Republic, Europe"/>
    <tag k="name" v="Říčany"/>
    <tag k="place" v="town"/>
    <tag k="source" v="http://earth-info.nga.mil/gns/html/"/>
  </node>
  <node id="68374474" version="6" timestamp="2008-11-04T13:08:38Z" uid="308" user="MichaelCollinson" changeset="676656" lat="49.9918023" lon="14.6558769">
    <tag k="is_in" v="Czech Republic, Europe"/>
    <tag k="is_in:continent" v="Europe"/>
    <tag k="is_in:country_code" v="cz"/>
    <tag k="name" v="Říčany"/>
    <tag k="place" v="town"/>
    <tag k="source" v="http://earth-info.nga.mil/gns/html/"/>
  </node>
  <node id="68374474" version="7" timestamp="2010-10-24T06:48:20Z" uid="127170" user="Ilis" changeset="6153635" lat="49.9918023" lon="14.6558769">
    <tag k="is_in" v="Czech Republic, Europe"/>
    <tag k="is_in:continent" v="Europe"/>
    <tag k="is_in:country_code" v="cz"/>
    <tag k="name" v="Říčany"/>
    <tag k="name:ru" v="Ржичани"/>
    <tag k="place" v="town"/>
    <tag k="source" v="http://earth-info.nga.mil/gns/html/"/>
  </node>
  <node id="68374474" version="8" timestamp="2011-10-19T13:34:32Z" uid="102554" user="Jezevec" changeset="9599887" lat="49.9918023" lon="14.6558769">
    <tag k="is_in" v="Czech Republic, Europe"/>
    <tag k="is_in:continent" v="Europe"/>
    <tag k="is_in:country_code" v="cz"/>
    <tag k="lau1" v="CZ0209"/>
    <tag k="lau2" v="538728"/>
    <tag k="name" v="Říčany"/>
    <tag k="name:ru" v="Ржичани"/>
    <tag k="place" v="town"/>
    <tag k="population" v="13826"/>
    <tag k="source" v="http://earth-info.nga.mil/gns/html/"/>
  </node>
  <node id="68374474" version="9" timestamp="2012-01-22T18:33:53Z" uid="229590" user="xificurk" changeset="10468114" lat="49.9918023" lon="14.6558769"/>
  <node id="68374495" version="1" timestamp="2007-10-13T10:23:57Z" uid="1066" user="pavel" changeset="142854" lat="49.766667" lon="17.133333">
    <tag k="created_by" v="readgov"/>
    <tag k="name" v="Uničov"/>
    <tag k="place" v="town"/>
    <tag k="source" v="http://earth-info.nga.mil/gns/html/"/>
  </node>
  <node id="68374495" version="2" timestamp="2007-11-01T20:56:15Z" uid="5013" user="walley" changeset="378462" lat="49.766667" lon="17.133333">
    <tag k="created_by" v="readgov"/>
    <tag k="name" v="Uničov"/>
    <tag k="place" v="town"/>
    <tag k="source" v="http://earth-info.nga.mil/gns/html/"/>
  </node>
  <node id="68374531" version="1" timestamp="2007-10-13T10:23:58Z" uid="1066" user="pavel" changeset="142854" lat="50.333333" lon="16.166667">
    <tag k="created_by" v="readgov"/>
    <tag k="name" v="Nové Město nad Metují"/>
    <tag k="place" v="town"/>
    <tag k="source" v="http://earth-info.nga.mil/gns/html/"/>
  </node>
  <node id="68374531" version="2" timestamp="2008-09-30T11:44:52Z" uid="1066" user="pavel" changeset="720911" lat="50.333333" lon="16.166667">
    <tag k="is_in" v="Czech Republic, Europe"/>
    <tag k="name" v="Nové Město nad Metují"/>
    <tag k="place" v="town"/>
    <tag k="source" v="http://earth-info.nga.mil/gns/html/"/>
  </node>
  <node id="68374531" version="3" timestamp="2008-11-04T13:03:56Z" uid="308" user="MichaelCollinson" changeset="676656" lat="50.333333" lon="16.166667">
    <tag k="is_in" v="Czech Republic, Europe"/>
    <tag k="is_in:continent" v="Europe"/>
    <tag k="is_in:country_code" v="cz"/>
    <tag k="name" v="Nové Město nad Metují"/>
    <tag k="place" v="town"/>
    <tag k="source" v="http://earth-info.nga.mil/gns/html/"/>
  </node>
  <node id="68374531" version="4" timestamp="2009-03-04T18:53:49Z" uid="72020" user="Petr1868" changeset="736731" lat="50.3400423" lon="16.1584574">
    <tag k="is_in" v="Czech Republic, Europe"/>
    <tag k="is_in:continent" v="Europe"/>
    <tag k="is_in:country_code" v="cz"/>
    <tag k="name" v="Nové Město nad Metují"/>
    <tag k="place" v="town"/>
    <tag k="source" v="http://earth-info.nga.mil/gns/html/"/>
  </node>
  <node id="68374531" version="5" timestamp="2009-03-05T17:43:18Z" uid="72020" user="Petr1868" changeset="741463" lat="50.3441524" lon="16.1512877">
    <tag k="is_in" v="Czech Republic, Europe"/>
    <tag k="is_in:continent" v="Europe"/>
    <tag k="is_in:country_code" v="cz"/>
    <tag k="name" v="Nové Město nad Metují"/>
    <tag k="place" v="town"/>
    <tag k="source" v="http://earth-info.nga.mil/gns/html/"/>
  </node>
  <node id="68374531" version="6" timestamp="2010-10-31T00:40:10Z" uid="152074" user="beweta" changeset="6234485" lat="50.3441524" lon="16.1512877">
    <tag k="is_in" v="Czech Republic, Europe"/>
    <tag k="is_in:continent" v="Europe"/>
    <tag k="is_in:country_code" v="cz"/>
    <tag k="name" v="Nové Město nad Metují"/>
    <tag k="name:de" v="Neustadt an der Mettau"/>
    <tag k="name:pl" v="Nowe Miasto nad Metują"/>
    <tag k="place" v="town"/>
    <tag k="source" v="http://earth-info.nga.mil/gns/html/"/>
  </node>
  <node id="68374531" version="7" timestamp="2011-10-19T15:37:30Z" uid="102554" user="Jezevec" changeset="9600920" lat="50.3441524" lon="16.1512877">
    <tag k="is_in" v="Czech Republic, Europe"/>
    <tag k="is_in:continent" v="Europe"/>
    <tag k="is_in:country_code" v="cz"/>
    <tag k="lau1" v="CZ0523"/>
    <tag k="lau2" v="574279"/>
    <tag k="name" v="Nové Město nad Metují"/>
    <tag k="name:de" v="Neustadt an der Mettau"/>
    <tag k="name:pl" v="Nowe Miasto nad Metują"/>
    <tag k="place" v="town"/>
    <tag k="population" v="9859"/>
    <tag k="source" v="http://earth-info.nga.mil/gns/html/"/>
  </node>
  <node id="68374531" version="8" timestamp="2012-01-13T11:23:34Z" uid="229590" user="xificurk" changeset="10377508" lat="50.3441524" lon="16.1512877"/>
  <node id="68374546" version="1" timestamp="2007-10-13T10:23:59Z" uid="1066" user="pavel" changeset="142854" lat="49.55" lon="18.216667">
    <tag k="created_by" v="readgov"/>
    <tag k="name" v="Frenštát pod Radhoštěm"/>
    <tag k="place" v="town"/>
    <tag k="source" v="http://earth-info.nga.mil/gns/html/"/>
  </node>
  <node id="68374546" version="2" timestamp="2008-09-30T10:05:22Z" uid="1066" user="pavel" changeset="720911" lat="49.55" lon="18.216667">
    <tag k="is_in" v="Czech Republic, Europe"/>
    <tag k="name" v="Frenštát pod Radhoštěm"/>
    <tag k="place" v="town"/>
    <tag k="source" v="http://earth-info.nga.mil/gns/html/"/>
  </node>
  <node id="68374546" version="3" timestamp="2008-11-04T13:03:57Z" uid="308" user="MichaelCollinson" changeset="676656" lat="49.55" lon="18.216667">
    <tag k="is_in" v="Czech Republic, Europe"/>
    <tag k="is_in:continent" v="Europe"/>
    <tag k="is_in:country_code" v="cz"/>
    <tag k="name" v="Frenštát pod Radhoštěm"/>
    <tag k="place" v="town"/>
    <tag k="source" v="http://earth-info.nga.mil/gns/html/"/>
  </node>
  <node id="68374546" version="4" timestamp="2009-05-08T12:25:54Z" uid="123062" user="bosy" changeset="1116889" lat="49.5470691" lon="18.211913">
    <tag k="is_in" v="Czech Republic, Europe"/>
    <tag k="is_in:continent" v="Europe"/>
    <tag k="is_in:country_code" v="cz"/>
    <tag k="name" v="Frenštát pod Radhoštěm"/>
    <tag k="place" v="town"/>
    <tag k="source" v="http://earth-info.nga.mil/gns/html/"/>
  </node>
  <node id="68374546" version="5" timestamp="2010-10-24T00:45:53Z" uid="152074" user="beweta" changeset="6152826" lat="49.5470691" lon="18.211913">
    <tag k="is_in" v="Czech Republic, Europe"/>
    <tag k="is_in:continent" v="Europe"/>
    <tag k="is_in:country_code" v="cz"/>
    <tag k="name" v="Frenštát pod Radhoštěm"/>
    <tag k="name:de" v="Frankstadt unter dem Radhoscht"/>
    <tag k="place" v="town"/>
    <tag k="source" v="http://earth-info.nga.mil/gns/html/"/>
  </node>
  <node id="68374546" version="6" timestamp="2011-07-25T17:29:46Z" uid="461574" user="Mar4s" changeset="8828257" lat="49.547109" lon="18.2116468">
    <tag k="is_in" v="Czech Republic, Europe"/>
    <tag k="is_in:continent" v="Europe"/>
    <tag k="is_in:country_code" v="cz"/>
    <tag k="name" v="Frenštát pod Radhoštěm"/>
    <tag k="name:de" v="Frankstadt unter dem Radhoscht"/>
    <tag k="place" v="town"/>
    <tag k="source" v="http://earth-info.nga.mil/gns/html/"/>
  </node>
  <node id="68374546" version="7" timestamp="2011-10-19T14:46:41Z" uid="102554" user="Jezevec" changeset="9600469" lat="49.547109" lon="18.2116468">
    <tag k="is_in" v="Czech Republic, Europe"/>
    <tag k="is_in:continent" v="Europe"/>
    <tag k="is_in:country_code" v="cz"/>
    <tag k="lau1" v="CZ0804"/>
    <tag k="lau2" v="599344"/>
    <tag k="name" v="Frenštát pod Radhoštěm"/>
    <tag k="name:de" v="Frankstadt unter dem Radhoscht"/>
    <tag k="place" v="town"/>
    <tag k="population" v="11083"/>
    <tag k="source" v="http://earth-info.nga.mil/gns/html/"/>
  </node>
  <node id="68374546" version="8" timestamp="2011-11-06T20:09:37Z" uid="461574" user="Mar4s" changeset="9759269" lat="49.547418" lon="18.2117379">
    <tag k="is_in" v="Czech Republic, Europe"/>
    <tag k="is_in:continent" v="Europe"/>
    <tag k="is_in:country_code" v="cz"/>
    <tag k="lau1" v="CZ0804"/>
    <tag k="lau2" v="599344"/>
    <tag k="name" v="Frenštát pod Radhoštěm"/>
    <tag k="name:de" v="Frankstadt unter dem Radhoscht"/>
    <tag k="place" v="town"/>
    <tag k="population" v="11083"/>
    <tag k="source" v="http://earth-info.nga.mil/gns/html/"/>
  </node>
  <node id="68374546" version="9" timestamp="2012-01-12T17:56:34Z" uid="461574" user="Mar4s" changeset="10371411" lat="49.547418" lon="18.2117379">
    <tag k="is_in" v="Czech Republic, Europe"/>
    <tag k="is_in:continent" v="Europe"/>
    <tag k="is_in:country_code" v="cz"/>
    <tag k="lau1" v="CZ0804"/>
    <tag k="lau2" v="599344"/>
    <tag k="name" v="Frenštát pod Radhoštěm"/>
    <tag k="name:de" v="Frankstadt unter dem Radhoscht"/>
    <tag k="place" v="town"/>
    <tag k="population" v="11083"/>
    <tag k="source" v="http://earth-info.nga.mil/gns/html/"/>
    <tag k="website" v="www.frenstat.info"/>
    <tag k="wikipedia" v="cs:Frenštát pod Radhoštěm"/>
  </node>
  <node id="68374546" version="10" timestamp="2012-01-24T09:06:53Z" uid="229590" user="xificurk" changeset="10482483" lat="49.547418" lon="18.2117379"/>
  <node id="68374624" version="1" timestamp="2007-10-13T10:24:03Z" uid="1066" user="pavel" changeset="142854" lat="49.7" lon="14.9">
    <tag k="created_by" v="readgov"/>
    <tag k="name" v="Vlašim"/>
    <tag k="place" v="town"/>
    <tag k="source" v="http://earth-info.nga.mil/gns/html/"/>
  </node>
  <node id="68374624" version="2" timestamp="2008-05-19T22:40:10Z" uid="3516" user="BiIbo" changeset="485534" lat="49.7004212" lon="14.8992339">
    <tag k="created_by" v="readgov"/>
    <tag k="name" v="Vlašim"/>
    <tag k="place" v="town"/>
    <tag k="source" v="http://earth-info.nga.mil/gns/html/"/>
  </node>
  <node id="68374624" version="3" timestamp="2008-09-30T00:02:00Z" uid="1066" user="pavel" changeset="720263" lat="49.7004212" lon="14.8992339">
    <tag k="is_in" v="Czech Republic, Europe"/>
    <tag k="name" v="Vlašim"/>
    <tag k="place" v="town"/>
    <tag k="source" v="http://earth-info.nga.mil/gns/html/"/>
  </node>
  <node id="68374624" version="4" timestamp="2008-11-04T13:03:53Z" uid="308" user="MichaelCollinson" changeset="676656" lat="49.7004212" lon="14.8992339">
    <tag k="is_in" v="Czech Republic, Europe"/>
    <tag k="is_in:continent" v="Europe"/>
    <tag k="is_in:country_code" v="cz"/>
    <tag k="name" v="Vlašim"/>
    <tag k="place" v="town"/>
    <tag k="source" v="http://earth-info.nga.mil/gns/html/"/>
  </node>
  <node id="68374624" version="5" timestamp="2010-10-24T06:48:15Z" uid="127170" user="Ilis" changeset="6153635" lat="49.7004212" lon="14.8992339">
    <tag k="is_in" v="Czech Republic, Europe"/>
    <tag k="is_in:continent" v="Europe"/>
    <tag k="is_in:country_code" v="cz"/>
    <tag k="name" v="Vlašim"/>
    <tag k="name:ru" v="Влашим"/>
    <tag k="place" v="town"/>
    <tag k="source" v="http://earth-info.nga.mil/gns/html/"/>
  </node>
  <node id="68374624" version="6" timestamp="2011-10-19T13:56:39Z" uid="102554" user="Jezevec" changeset="9600032" lat="49.7004212" lon="14.8992339">
    <tag k="is_in" v="Czech Republic, Europe"/>
    <tag k="is_in:continent" v="Europe"/>
    <tag k="is_in:country_code" v="cz"/>
    <tag k="lau1" v="CZ0201"/>
    <tag k="lau2" v="530883"/>
    <tag k="name" v="Vlašim"/>
    <tag k="name:ru" v="Влашим"/>
    <tag k="place" v="town"/>
    <tag k="population" v="11956"/>
    <tag k="source" v="http://earth-info.nga.mil/gns/html/"/>
  </node>
  <node id="68374624" version="7" timestamp="2012-01-22T15:07:13Z" uid="229590" user="xificurk" changeset="10465551" lat="49.7004212" lon="14.8992339"/>
  <node id="68374670" version="1" timestamp="2007-10-13T10:24:04Z" uid="1066" user="pavel" changeset="142854" lat="49.333333" lon="17.583333">
    <tag k="created_by" v="readgov"/>
    <tag k="name" v="Holešov"/>
    <tag k="place" v="town"/>
    <tag k="source" v="http://earth-info.nga.mil/gns/html/"/>
  </node>
  <node id="68374670" version="2" timestamp="2008-09-30T11:34:06Z" uid="1066" user="pavel" changeset="720911" lat="49.333333" lon="17.583333">
    <tag k="is_in" v="Czech Republic, Europe"/>
    <tag k="name" v="Holešov"/>
    <tag k="place" v="town"/>
    <tag k="source" v="http://earth-info.nga.mil/gns/html/"/>
  </node>
  <node id="68374670" version="3" timestamp="2008-11-04T13:04:06Z" uid="308" user="MichaelCollinson" changeset="676656" lat="49.333333" lon="17.583333">
    <tag k="is_in" v="Czech Republic, Europe"/>
    <tag k="is_in:continent" v="Europe"/>
    <tag k="is_in:country_code" v="cz"/>
    <tag k="name" v="Holešov"/>
    <tag k="place" v="town"/>
    <tag k="source" v="http://earth-info.nga.mil/gns/html/"/>
  </node>
  <node id="68374670" version="4" timestamp="2011-10-19T13:44:59Z" uid="102554" user="Jezevec" changeset="9599953" lat="49.333333" lon="17.583333">
    <tag k="is_in" v="Czech Republic, Europe"/>
    <tag k="is_in:continent" v="Europe"/>
    <tag k="is_in:country_code" v="cz"/>
    <tag k="lau1" v="CZ0721"/>
    <tag k="lau2" v="588458"/>
    <tag k="name" v="Holešov"/>
    <tag k="place" v="town"/>
    <tag k="population" v="12149"/>
    <tag k="source" v="http://earth-info.nga.mil/gns/html/"/>
  </node>
  <node id="68374670" version="5" timestamp="2012-01-20T14:09:58Z" uid="536216" user="uir-zsj" changeset="10446666" lat="49.333333" lon="17.583333"/>
  <node id="68374709" version="1" timestamp="2007-10-13T10:24:05Z" uid="1066" user="pavel" changeset="142854" lat="50.166667" lon="16.283333">
    <tag k="created_by" v="readgov"/>
    <tag k="name" v="Rychnov nad Kněžnou"/>
    <tag k="place" v="town"/>
    <tag k="source" v="http://earth-info.nga.mil/gns/html/"/>
  </node>
  <node id="68374709" version="2" timestamp="2008-09-30T10:04:25Z" uid="1066" user="pavel" changeset="720911" lat="50.166667" lon="16.283333">
    <tag k="is_in" v="Czech Republic, Europe"/>
    <tag k="name" v="Rychnov nad Kněžnou"/>
    <tag k="place" v="town"/>
    <tag k="source" v="http://earth-info.nga.mil/gns/html/"/>
  </node>
  <node id="68374709" version="3" timestamp="2008-11-04T13:04:09Z" uid="308" user="MichaelCollinson" changeset="676656" lat="50.166667" lon="16.283333">
    <tag k="is_in" v="Czech Republic, Europe"/>
    <tag k="is_in:continent" v="Europe"/>
    <tag k="is_in:country_code" v="cz"/>
    <tag k="name" v="Rychnov nad Kněžnou"/>
    <tag k="place" v="town"/>
    <tag k="source" v="http://earth-info.nga.mil/gns/html/"/>
  </node>
  <node id="68374709" version="4" timestamp="2010-10-24T06:48:16Z" uid="127170" user="Ilis" changeset="6153635" lat="50.166667" lon="16.283333">
    <tag k="is_in" v="Czech Republic, Europe"/>
    <tag k="is_in:continent" v="Europe"/>
    <tag k="is_in:country_code" v="cz"/>
    <tag k="name" v="Rychnov nad Kněžnou"/>
    <tag k="name:ru" v="Рихнов-над-Кнежноу"/>
    <tag k="place" v="town"/>
    <tag k="source" v="http://earth-info.nga.mil/gns/html/"/>
  </node>
  <node id="68374709" version="5" timestamp="2011-10-19T14:46:44Z" uid="102554" user="Jezevec" changeset="9600469" lat="50.166667" lon="16.283333">
    <tag k="is_in" v="Czech Republic, Europe"/>
    <tag k="is_in:continent" v="Europe"/>
    <tag k="is_in:country_code" v="cz"/>
    <tag k="lau1" v="CZ0524"/>
    <tag k="lau2" v="576069"/>
    <tag k="name" v="Rychnov nad Kněžnou"/>
    <tag k="name:ru" v="Рихнов-над-Кнежноу"/>
    <tag k="place" v="town"/>
    <tag k="population" v="11333"/>
    <tag k="source" v="http://earth-info.nga.mil/gns/html/"/>
  </node>
  <node id="68374709" version="6" timestamp="2012-01-13T11:39:51Z" uid="229590" user="xificurk" changeset="10377613" lat="50.166667" lon="16.283333"/>
  <node id="68374735" version="1" timestamp="2007-10-13T10:24:06Z" uid="1066" user="pavel" changeset="142854" lat="50.95" lon="14.566667">
    <tag k="created_by" v="readgov"/>
    <tag k="name" v="Rumburk"/>
    <tag k="place" v="town"/>
    <tag k="source" v="http://earth-info.nga.mil/gns/html/"/>
  </node>
  <node id="68374735" version="2" timestamp="2008-06-02T21:55:10Z" uid="30398" user="vaust" changeset="31735" lat="50.9496705" lon="14.5520898">
    <tag k="created_by" v="Potlatch 0.9c"/>
    <tag k="name" v="Rumburk"/>
    <tag k="name:de" v="Rumburg"/>
    <tag k="place" v="town"/>
  </node>
  <node id="68374735" version="3" timestamp="2008-09-30T11:47:19Z" uid="1066" user="pavel" changeset="720911" lat="50.9496705" lon="14.5520898">
    <tag k="is_in" v="Czech Republic, Europe"/>
    <tag k="name" v="Rumburk"/>
    <tag k="name:de" v="Rumburg"/>
    <tag k="place" v="town"/>
  </node>
  <node id="68374735" version="4" timestamp="2008-10-03T23:04:34Z" uid="51298" user="DieterTD" changeset="61017" lat="50.9496705" lon="14.5520898">
    <tag k="is_in" v="Czech Republic, Europe"/>
    <tag k="name" v="Rumburk"/>
    <tag k="name:de" v="Rumburg"/>
    <tag k="place" v="town"/>
    <tag k="population" v="11100"/>
  </node>
  <node id="68374735" version="5" timestamp="2008-11-04T13:04:01Z" uid="308" user="MichaelCollinson" changeset="676656" lat="50.9496705" lon="14.5520898">
    <tag k="is_in" v="Czech Republic, Europe"/>
    <tag k="is_in:continent" v="Europe"/>
    <tag k="is_in:country_code" v="cz"/>
    <tag k="name" v="Rumburk"/>
    <tag k="name:de" v="Rumburg"/>
    <tag k="place" v="town"/>
    <tag k="population" v="11100"/>
  </node>
  <node id="68374735" version="6" timestamp="2011-10-19T14:46:43Z" uid="102554" user="Jezevec" changeset="9600469" lat="50.9496705" lon="14.5520898">
    <tag k="is_in" v="Czech Republic, Europe"/>
    <tag k="is_in:continent" v="Europe"/>
    <tag k="is_in:country_code" v="cz"/>
    <tag k="lau1" v="CZ0421"/>
    <tag k="lau2" v="562777"/>
    <tag k="name" v="Rumburk"/>
    <tag k="name:de" v="Rumburg"/>
    <tag k="place" v="town"/>
    <tag k="population" v="11496"/>
  </node>
  <node id="68374735" version="7" timestamp="2012-01-20T17:22:59Z" uid="229590" user="xificurk" changeset="10448554" lat="50.9496705" lon="14.5520898"/>
  <node id="68374768" version="1" timestamp="2007-10-13T10:24:07Z" uid="1066" user="pavel" changeset="142854" lat="49.716667" lon="17.083333">
    <tag k="created_by" v="readgov"/>
    <tag k="name" v="Litovel"/>
    <tag k="place" v="town"/>
    <tag k="source" v="http://earth-info.nga.mil/gns/html/"/>
  </node>
  <node id="68374768" version="2" timestamp="2007-11-01T20:30:14Z" uid="5013" user="walley" changeset="378462" lat="49.716667" lon="17.083333">
    <tag k="created_by" v="readgov"/>
    <tag k="name" v="Litovel"/>
    <tag k="place" v="town"/>
    <tag k="source" v="http://earth-info.nga.mil/gns/html/"/>
  </node>
  <node id="68374799" version="1" timestamp="2007-10-13T10:24:09Z" uid="1066" user="pavel" changeset="142854" lat="48.95" lon="17.4">
    <tag k="created_by" v="readgov"/>
    <tag k="name" v="Veselí nad Moravou"/>
    <tag k="place" v="town"/>
    <tag k="source" v="http://earth-info.nga.mil/gns/html/"/>
  </node>
  <node id="68374799" version="2" timestamp="2008-09-30T10:30:15Z" uid="1066" user="pavel" changeset="720911" lat="48.95" lon="17.4">
    <tag k="is_in" v="Czech Republic, Europe"/>
    <tag k="name" v="Veselí nad Moravou"/>
    <tag k="place" v="town"/>
    <tag k="source" v="http://earth-info.nga.mil/gns/html/"/>
  </node>
  <node id="68374799" version="3" timestamp="2008-11-04T13:04:13Z" uid="308" user="MichaelCollinson" changeset="676656" lat="48.95" lon="17.4">
    <tag k="is_in" v="Czech Republic, Europe"/>
    <tag k="is_in:continent" v="Europe"/>
    <tag k="is_in:country_code" v="cz"/>
    <tag k="name" v="Veselí nad Moravou"/>
    <tag k="place" v="town"/>
    <tag k="source" v="http://earth-info.nga.mil/gns/html/"/>
  </node>
  <node id="68374799" version="4" timestamp="2011-10-19T13:56:39Z" uid="102554" user="Jezevec" changeset="9600032" lat="48.95" lon="17.4">
    <tag k="is_in" v="Czech Republic, Europe"/>
    <tag k="is_in:continent" v="Europe"/>
    <tag k="is_in:country_code" v="cz"/>
    <tag k="lau1" v="CZ0645"/>
    <tag k="lau2" v="586722"/>
    <tag k="name" v="Veselí nad Moravou"/>
    <tag k="place" v="town"/>
    <tag k="population" v="11628"/>
    <tag k="source" v="http://earth-info.nga.mil/gns/html/"/>
  </node>
  <node id="68374799" version="5" timestamp="2012-01-22T20:49:42Z" uid="536216" user="uir-zsj" changeset="10469653" lat="48.95" lon="17.4"/>
  <node id="68378281" version="3" timestamp="2010-02-26T03:29:11Z" uid="99207" user="Lar Kiesel" changeset="3977410" lat="33.715189" lon="-84.29941">
    <tag k="highway" v="motorway_junction"/>
    <tag k="name" v="Gresham Road; Flat Shoals Road"/>
    <tag k="ref" v="63"/>
  </node>
  <node id="68378281" version="4" timestamp="2011-04-06T23:40:51Z" uid="207745" user="NE2" changeset="7788882" lat="33.715189" lon="-84.29941">
    <tag k="exit_to" v="Gresham Road; Flat Shoals Road"/>
    <tag k="highway" v="motorway_junction"/>
    <tag k="ref" v="63"/>
  </node>
  <node id="68378391" version="3" timestamp="2010-02-26T03:29:22Z" uid="99207" user="Lar Kiesel" changeset="3977410" lat="33.714644" lon="-84.267354">
    <tag k="highway" v="motorway_junction"/>
    <tag k="name" v="GA 155; Candler Road"/>
    <tag k="ref" v="65"/>
  </node>
  <node id="68378391" version="4" timestamp="2011-04-06T23:24:14Z" uid="207745" user="NE2" changeset="7788882" lat="33.714644" lon="-84.267354">
    <tag k="exit_to" v="GA 155; Candler Road"/>
    <tag k="highway" v="motorway_junction"/>
    <tag k="ref" v="65"/>
  </node>
  <node id="68379052" version="3" timestamp="2010-02-26T03:29:25Z" uid="99207" user="Lar Kiesel" changeset="3977410" lat="33.7121415" lon="-84.2897899"/>
  <node id="68379052" version="4" timestamp="2010-06-18T06:50:27Z" uid="7787" user="dygituljunky" changeset="5014237" lat="33.7121415" lon="-84.2897899"/>
  <node id="68379052" version="5" timestamp="2012-01-18T01:17:35Z" uid="575563" user="kentix" changeset="10423751" lat="33.7121538" lon="-84.2897466"/>
  <node id="68379054" version="3" timestamp="2010-02-26T03:29:25Z" uid="99207" user="Lar Kiesel" changeset="3977410" lat="33.7120433" lon="-84.2877782"/>
  <node id="68379054" version="4" timestamp="2010-06-18T06:50:27Z" uid="7787" user="dygituljunky" changeset="5014237" lat="33.7120433" lon="-84.2877782"/>
  <node id="68379054" version="5" timestamp="2012-01-18T01:17:34Z" uid="575563" user="kentix" changeset="10423751" lat="33.7120807" lon="-84.2876235"/>
  <node id="68379056" version="3" timestamp="2010-02-26T03:29:25Z" uid="99207" user="Lar Kiesel" changeset="3977410" lat="33.712088" lon="-84.2862976"/>
  <node id="68379056" version="4" timestamp="2010-06-18T06:50:27Z" uid="7787" user="dygituljunky" changeset="5014237" lat="33.712088" lon="-84.2862976"/>
  <node id="68379056" version="5" timestamp="2012-01-18T01:17:34Z" uid="575563" user="kentix" changeset="10423751" lat="33.7121023" lon="-84.2866568"/>
  <node id="68379061" version="3" timestamp="2010-02-26T03:29:25Z" uid="99207" user="Lar Kiesel" changeset="3977410" lat="33.7121103" lon="-84.2856485"/>
  <node id="68379061" version="4" timestamp="2010-06-18T06:50:27Z" uid="7787" user="dygituljunky" changeset="5014237" lat="33.7121103" lon="-84.2856485"/>
  <node id="68379061" version="5" timestamp="2012-01-18T01:17:35Z" uid="575563" user="kentix" changeset="10423751" lat="33.7121332" lon="-84.2856367"/>
  <node id="68379076" version="3" timestamp="2010-02-26T03:29:25Z" uid="99207" user="Lar Kiesel" changeset="3977410" lat="33.7123334" lon="-84.2785192"/>
  <node id="68379076" version="4" timestamp="2010-06-18T06:50:28Z" uid="7787" user="dygituljunky" changeset="5014237" lat="33.7123334" lon="-84.2785192"/>
  <node id="68379076" version="5" timestamp="2012-01-18T01:17:35Z" uid="575563" user="kentix" changeset="10423751" lat="33.7123678" lon="-84.2784656"/>
  <node id="68379078" version="3" timestamp="2010-02-26T03:29:25Z" uid="99207" user="Lar Kiesel" changeset="3977410" lat="33.7124539" lon="-84.2774678"/>
  <node id="68379078" version="4" timestamp="2010-06-18T06:50:28Z" uid="7787" user="dygituljunky" changeset="5014237" lat="33.7124539" lon="-84.2774678"/>
  <node id="68379078" version="5" timestamp="2012-01-18T01:17:34Z" uid="575563" user="kentix" changeset="10423751" lat="33.7124909" lon="-84.2774593"/>
  <node id="68379080" version="3" timestamp="2010-02-26T03:29:25Z" uid="99207" user="Lar Kiesel" changeset="3977410" lat="33.7124896" lon="-84.2771942"/>
  <node id="68379080" version="4" timestamp="2010-06-18T06:50:28Z" uid="7787" user="dygituljunky" changeset="5014237" lat="33.7124896" lon="-84.2771942"/>
  <node id="68379080" version="5" timestamp="2012-01-18T01:17:34Z" uid="575563" user="kentix" changeset="10423751" lat="33.7125649" lon="-84.2769832"/>
  <node id="68379112" version="3" timestamp="2010-02-26T03:29:20Z" uid="99207" user="Lar Kiesel" changeset="3977410" lat="33.716213" lon="-84.257823">
    <tag k="highway" v="motorway_junction"/>
    <tag k="name" v="Columbia Drive"/>
    <tag k="ref" v="66"/>
  </node>
  <node id="68379112" version="4" timestamp="2010-06-18T06:50:29Z" uid="7787" user="dygituljunky" changeset="5014237" lat="33.716213" lon="-84.257823">
    <tag k="highway" v="motorway_junction"/>
    <tag k="name" v="Columbia Drive"/>
    <tag k="ref" v="66"/>
  </node>
  <node id="68379112" version="5" timestamp="2011-04-06T23:28:03Z" uid="207745" user="NE2" changeset="7788882" lat="33.716213" lon="-84.257823">
    <tag k="exit_to" v="Columbia Drive"/>
    <tag k="highway" v="motorway_junction"/>
    <tag k="ref" v="66"/>
  </node>
  <node id="68379135" version="3" timestamp="2010-02-26T03:29:25Z" uid="99207" user="Lar Kiesel" changeset="3977410" lat="33.7137568" lon="-84.2347134"/>
  <node id="68379135" version="4" timestamp="2010-06-18T06:50:39Z" uid="7787" user="dygituljunky" changeset="5014237" lat="33.7137568" lon="-84.2347134"/>
</osm>
