<?xml version='1.0' encoding='UTF-8'?>
<osm version="0.6" generator="libosmium/2.20.0">
  <node id="68475821" version="6" timestamp="2008-11-28T16:24:54Z" uid="67142" user="zottel" changeset="805897" lat="48.8965976" lon="8.7060016">
    <tag k="amenity" v="fast_food"/>
    <tag k="created_by" v="Potlatch 0.10e"/>
    <tag k="image" v="http://osm.dev-random.de/upload/schlemmerecke.jpg"/>
    <tag k="name" v="Schlemmerecke"/>
  </node>
  <node id="68475821" version="7" timestamp="2009-02-01T21:35:49Z" uid="63969" user="olvagor" changeset="24325" lat="48.8966099" lon="8.7060045">
    <tag k="addr:city" v="Pforzheim"/>
    <tag k="addr:housenumber" v="31"/>
    <tag k="addr:postcode" v="75177"/>
    <tag k="addr:street" v="Hohenzollernstraße"/>
    <tag k="amenity" v="fast_food"/>
    <tag k="created_by" v="Potlatch 0.10e"/>
    <tag k="image" v="http://osm.dev-random.de/upload/schlemmerecke.jpg"/>
    <tag k="name" v="Schlemmerecke"/>
  </node>
  <node id="68475821" version="8" timestamp="2009-10-02T18:43:03Z" uid="85761" user="klausis" changeset="2716070" lat="48.8966099" lon="8.7060045">
    <tag k="addr:city" v="Pforzheim"/>
    <tag k="addr:housenumber" v="31"/>
    <tag k="addr:postcode" v="75177"/>
    <tag k="addr:street" v="Hohenzollernstraße"/>
    <tag k="amenity" v="fast_food"/>
    <tag k="image" v="http://osm.dev-random.de/upload/schlemmerecke.jpg"/>
    <tag k="name" v="Schlemmerecke"/>
  </node>
  <node id="68475821" version="9" timestamp="2010-10-04T18:52:44Z" uid="63969" user="olvagor" changeset="5956284" lat="48.8966099" lon="8.7060045">
    <tag k="addr:city" v="Pforzheim"/>
    <tag k="addr:housenumber" v="31"/>
    <tag k="addr:postcode" v="75177"/>
    <tag k="addr:street" v="Hohenzollernstraße"/>
    <tag k="amenity" v="fast_food"/>
    <tag k="image" v="http://osm.dev-random.de/upload/schlemmerecke.jpg"/>
    <tag k="name" v="Schlemmerecke"/>
    <tag k="wheelchair" v="no"/>
  </node>
  <node id="68475821" version="10" timestamp="2012-01-09T11:29:07Z" uid="442210" user="dwausr" changeset="10340699" lat="48.8966099" lon="8.7060045"/>
  <node id="68475829" version="2" timestamp="2008-10-29T00:51:22Z" uid="67142" user="zottel" changeset="618553" lat="48.8971103" lon="8.7014898">
    <tag k="addr:city" v="Pforzheim"/>
    <tag k="addr:housenumber" v="37"/>
    <tag k="addr:postcode" v="75177"/>
    <tag k="addr:street" v="Ebersteinstraße"/>
    <tag k="amenity" v="pharmacy"/>
    <tag k="created_by" v="JOSM"/>
    <tag k="fax" v="+49 7231 7814220"/>
    <tag k="name" v="Nordstadtapotheke"/>
    <tag k="phone" v="+49 7231 33462"/>
    <tag k="url" v="http://nordstadt-apotheke-pforzheim.de/"/>
  </node>
  <node id="68475829" version="3" timestamp="2008-11-14T00:25:28Z" uid="63969" user="olvagor" changeset="746436" lat="48.8970325" lon="8.7014033">
    <tag k="addr:city" v="Pforzheim"/>
    <tag k="addr:housenumber" v="37"/>
    <tag k="addr:postcode" v="75177"/>
    <tag k="addr:street" v="Ebersteinstraße"/>
    <tag k="amenity" v="pharmacy"/>
    <tag k="created_by" v="JOSM"/>
    <tag k="fax" v="+49 7231 7814220"/>
    <tag k="name" v="Nordstadtapotheke"/>
    <tag k="phone" v="+49 7231 33462"/>
    <tag k="url" v="http://nordstadt-apotheke-pforzheim.de/"/>
  </node>
  <node id="68475829" version="4" timestamp="2009-07-14T21:48:35Z" uid="63969" user="olvagor" changeset="1831669" lat="48.8970601" lon="8.7013592">
    <tag k="addr:city" v="Pforzheim"/>
    <tag k="addr:housenumber" v="37"/>
    <tag k="addr:postcode" v="75177"/>
    <tag k="addr:street" v="Ebersteinstraße"/>
    <tag k="amenity" v="pharmacy"/>
    <tag k="fax" v="+49 7231 7814220"/>
    <tag k="name" v="Nordstadtapotheke"/>
    <tag k="phone" v="+49 7231 33462"/>
    <tag k="url" v="http://nordstadt-apotheke-pforzheim.de/"/>
  </node>
  <node id="68475829" version="5" timestamp="2010-09-19T15:35:43Z" uid="65148" user="Pirat Michi" changeset="5820767" lat="48.8970601" lon="8.7013592">
    <tag k="addr:city" v="Pforzheim"/>
    <tag k="addr:housenumber" v="37"/>
    <tag k="addr:postcode" v="75177"/>
    <tag k="addr:street" v="Ebersteinstraße"/>
    <tag k="amenity" v="pharmacy"/>
    <tag k="fax" v="+49 7231 7814220"/>
    <tag k="name" v="Nordstadtapotheke"/>
    <tag k="phone" v="+49 7231 33462"/>
    <tag k="website" v="http://nordstadt-apotheke-pforzheim.de/"/>
  </node>
  <node id="68475829" version="6" timestamp="2012-02-01T08:14:38Z" uid="442210" user="dwausr" changeset="10556583" lat="48.8970601" lon="8.7013592"/>
  <node id="68475833" version="2" timestamp="2008-07-03T20:39:10Z" uid="6975" user="ulfl" changeset="386611" lat="48.8983138" lon="8.6940181">
    <tag k="highway" v="bus_stop"/>
    <tag k="name" v="Ispringer Staffel"/>
  </node>
  <node id="68475833" version="3" timestamp="2008-11-05T12:20:27Z" uid="77204" user="aps" changeset="691178" lat="48.8984151" lon="8.6935309">
    <tag k="created_by" v="Merkaartor 0.12"/>
    <tag k="highway" v="bus_stop"/>
    <tag k="name" v="Ispringer Staffel"/>
  </node>
  <node id="68475833" version="4" timestamp="2008-11-14T10:08:44Z" uid="77204" user="aps" changeset="745913" lat="48.8984151" lon="8.6935309">
    <tag k="bus_lines" v="6;731"/>
    <tag k="created_by" v="Merkaartor 0.12"/>
    <tag k="highway" v="bus_stop"/>
    <tag k="name" v="Ispringer Staffel"/>
    <tag k="operator" v="SVP;SüdwestBus"/>
  </node>
  <node id="68475833" version="5" timestamp="2009-02-03T23:06:37Z" uid="64482" user="Claas Augner" changeset="118420" lat="48.8984151" lon="8.6935309">
    <tag k="bus_lines" v="6;731"/>
    <tag k="highway" v="bus_stop"/>
    <tag k="name" v="Ispringer Staffel"/>
    <tag k="operator" v="SVP;SüdwestBus"/>
    <tag k="uic_ref" v="940677"/>
  </node>
  <node id="68475833" version="6" timestamp="2009-07-14T21:02:32Z" uid="63969" user="olvagor" changeset="1831295" lat="48.8984463" lon="8.693522">
    <tag k="bus_lines" v="6;731"/>
    <tag k="highway" v="bus_stop"/>
    <tag k="name" v="Ispringer Staffel"/>
    <tag k="operator" v="SVP;SüdwestBus"/>
    <tag k="uic_ref" v="940677"/>
  </node>
  <node id="68475833" version="7" timestamp="2011-12-17T11:19:14Z" uid="63969" user="olvagor" changeset="10137518" lat="48.8984463" lon="8.693522"/>
  <node id="68475836" version="2" timestamp="2008-07-03T20:39:10Z" uid="6975" user="ulfl" changeset="386611" lat="48.8983857" lon="8.694043">
    <tag k="highway" v="bus_stop"/>
    <tag k="name" v="Ispringer Staffel"/>
  </node>
  <node id="68475836" version="3" timestamp="2008-11-05T12:20:26Z" uid="77204" user="aps" changeset="691178" lat="48.898569" lon="8.6934949">
    <tag k="created_by" v="Merkaartor 0.12"/>
    <tag k="highway" v="bus_stop"/>
    <tag k="name" v="Ispringer Staffel"/>
  </node>
  <node id="68475836" version="4" timestamp="2008-11-14T10:08:44Z" uid="77204" user="aps" changeset="745913" lat="48.898569" lon="8.6934949">
    <tag k="bus_lines" v="6;731"/>
    <tag k="created_by" v="Merkaartor 0.12"/>
    <tag k="highway" v="bus_stop"/>
    <tag k="name" v="Ispringer Staffel"/>
    <tag k="operator" v="SVP;SüdwestBus"/>
  </node>
  <node id="68475836" version="5" timestamp="2009-02-03T23:06:38Z" uid="64482" user="Claas Augner" changeset="118420" lat="48.898569" lon="8.6934949">
    <tag k="bus_lines" v="6;731"/>
    <tag k="highway" v="bus_stop"/>
    <tag k="name" v="Ispringer Staffel"/>
    <tag k="operator" v="SVP;SüdwestBus"/>
    <tag k="uic_ref" v="940677"/>
  </node>
  <node id="68475836" version="6" timestamp="2011-12-17T11:19:14Z" uid="63969" user="olvagor" changeset="10137518" lat="48.898569" lon="8.6934949"/>
</osm>
