<?xml version='1.0' encoding='UTF-8'?>
<osm version="0.6" generator="libosmium/2.20.0">
  <node id="68664513" version="5" timestamp="2008-05-20T13:51:27Z" uid="36809" user="pfoten_weg_!_" changeset="485864" lat="48.0978085" lon="11.5241666">
    <tag k="amenity" v="parking"/>
    <tag k="created_by" v="JOSM"/>
    <tag k="layer" v="2"/>
  </node>
  <node id="68664558" version="2" timestamp="2010-05-24T00:24:29Z" uid="38528" user="acrosscanadatrails" changeset="4789186" lat="45.1336423" lon="-81.3453023"/>
  <node id="68664558" version="3" timestamp="2011-04-19T18:06:14Z" uid="62654" user="fuego" changeset="7908840" lat="45.1336423" lon="-81.3453023"/>
  <node id="68664560" version="2" timestamp="2010-05-24T00:24:29Z" uid="38528" user="acrosscanadatrails" changeset="4789186" lat="45.1378924" lon="-81.3439363"/>
  <node id="68664560" version="3" timestamp="2011-04-19T18:05:59Z" uid="62654" user="fuego" changeset="7908840" lat="45.1378924" lon="-81.3439363"/>
  <node id="68664561" version="2" timestamp="2010-05-24T00:24:25Z" uid="38528" user="acrosscanadatrails" changeset="4789186" lat="45.1411341" lon="-81.3444452"/>
  <node id="68664561" version="3" timestamp="2011-04-19T18:05:32Z" uid="62654" user="fuego" changeset="7908840" lat="45.1411341" lon="-81.3444452"/>
  <node id="68664562" version="2" timestamp="2010-05-24T00:24:30Z" uid="38528" user="acrosscanadatrails" changeset="4789186" lat="45.1414273" lon="-81.3455182"/>
  <node id="68664562" version="3" timestamp="2011-04-19T18:06:06Z" uid="62654" user="fuego" changeset="7908840" lat="45.1414273" lon="-81.3455182"/>
  <node id="68666291" version="14" timestamp="2010-02-07T09:55:45Z" uid="164966" user="linuss1" changeset="3812218" lat="53.5781543" lon="9.7328157">
    <tag k="highway" v="traffic_signals"/>
  </node>
  <node id="68666292" version="11" timestamp="2010-02-07T09:55:43Z" uid="164966" user="linuss1" changeset="3812218" lat="53.5780771" lon="9.7332937"/>
  <node id="68666292" version="12" timestamp="2010-10-18T16:18:06Z" uid="121665" user="hans" changeset="6083869" lat="53.5781537" lon="9.732801"/>
  <node id="68666292" version="13" timestamp="2011-12-21T22:56:53Z" uid="208474" user="Joke123" changeset="10176088" lat="53.5781508" lon="9.7327308"/>
  <node id="68666292" version="14" timestamp="2012-01-03T20:10:24Z" uid="208474" user="Joke123" changeset="10285175" lat="53.5781517" lon="9.7327284"/>
  <node id="68669239" version="3" timestamp="2008-05-04T03:46:29Z" uid="36809" user="pfoten_weg_!_" changeset="326538" lat="48.0983498" lon="11.5362206">
    <tag k="created_by" v="JOSM"/>
    <tag k="name" v="Obersendling"/>
    <tag k="railway" v="station"/>
  </node>
  <node id="68669239" version="4" timestamp="2008-07-17T10:05:59Z" uid="36809" user="pfoten_weg_!_" changeset="514716" lat="48.0983498" lon="11.5362206">
    <tag k="created_by" v="JOSM"/>
    <tag k="name" v="Obersendling"/>
    <tag k="railway" v="station"/>
    <tag k="ref" v="U 3"/>
  </node>
  <node id="68669239" version="5" timestamp="2008-08-08T17:29:36Z" uid="36809" user="pfoten_weg_!_" changeset="142705" lat="48.0983498" lon="11.5362206">
    <tag k="created_by" v="RambaZamba"/>
    <tag k="name" v="Obersendling"/>
    <tag k="railway" v="station"/>
    <tag k="ref" v="U 3"/>
  </node>
  <node id="68669239" version="6" timestamp="2008-09-13T12:43:48Z" uid="36809" user="pfoten_weg_!_" changeset="620497" lat="48.0983499" lon="11.5362211">
    <tag k="created_by" v="RambaZamba"/>
    <tag k="name" v="Obersendling"/>
    <tag k="railway" v="station"/>
    <tag k="ref" v="U 3"/>
  </node>
  <node id="68669239" version="7" timestamp="2008-09-20T03:37:11Z" uid="36809" user="pfoten_weg_!_" changeset="670006" lat="48.0983499" lon="11.5362212">
    <tag k="created_by" v="RambaZamba"/>
    <tag k="name" v="Obersendling"/>
    <tag k="railway" v="station"/>
    <tag k="ref" v="U 3"/>
  </node>
  <node id="68669239" version="8" timestamp="2008-09-21T21:18:59Z" uid="36809" user="pfoten_weg_!_" changeset="676192" lat="48.0983499" lon="11.5362212">
    <tag k="created_by" v="RambaZamba"/>
    <tag k="name" v="Obersendling"/>
    <tag k="railway" v="station"/>
    <tag k="ref" v="U 3"/>
    <tag k="source" v="survey"/>
  </node>
  <node id="68669239" version="9" timestamp="2008-10-01T01:39:05Z" uid="36809" user="pfoten_weg_!_" changeset="5644" lat="48.0983499" lon="11.5362212">
    <tag k="created_by" v="RambaZamba"/>
    <tag k="name" v="Obersendling"/>
    <tag k="railway" v="station"/>
    <tag k="ref" v="U 3"/>
    <tag k="source" v="survey"/>
  </node>
  <node id="68669239" version="10" timestamp="2009-06-08T11:58:52Z" uid="132988" user="ich-liebe-euch" changeset="1457959" lat="48.0983499" lon="11.5362212">
    <tag k="name" v="Obersendling"/>
    <tag k="railway" v="station"/>
    <tag k="ref" v="U 3"/>
    <tag k="source" v="survey"/>
  </node>
  <node id="68669239" version="11" timestamp="2009-06-08T13:38:32Z" uid="36809" user="pfoten_weg_!_" changeset="1458869" lat="48.0983499" lon="11.5362212">
    <tag k="created_by" v="RambaZamba"/>
    <tag k="name" v="Obersendling"/>
    <tag k="railway" v="station"/>
    <tag k="ref" v="U 3"/>
    <tag k="source" v="survey"/>
  </node>
  <node id="68669239" version="12" timestamp="2009-08-12T12:37:34Z" uid="156995" user="HampelZamba" changeset="2118306" lat="48.0983499" lon="11.5362212">
    <tag k="name" v="Obersendling"/>
    <tag k="railway" v="station"/>
    <tag k="ref" v="U 3"/>
    <tag k="source" v="survey"/>
  </node>
  <node id="68669239" version="13" timestamp="2009-08-26T09:19:13Z" uid="36809" user="pfoten_weg_!_" changeset="2265170" lat="48.0983499" lon="11.5362212">
    <tag k="name" v="Obersendling"/>
    <tag k="railway" v="station"/>
    <tag k="ref" v="U 3"/>
    <tag k="source" v="survey"/>
  </node>
  <node id="68669239" version="14" timestamp="2009-10-02T17:49:37Z" uid="86259" user="hasse_osm_korinthenkacker" changeset="2715119" lat="48.0983499" lon="11.5362212">
    <tag k="name" v="Obersendling"/>
    <tag k="railway" v="station"/>
    <tag k="ref" v="U 3"/>
  </node>
  <node id="68669241" version="3" timestamp="2008-05-04T03:46:29Z" uid="36809" user="pfoten_weg_!_" changeset="326538" lat="48.097415" lon="11.5246674">
    <tag k="created_by" v="JOSM"/>
    <tag k="name" v="Aidenbachstraße"/>
    <tag k="railway" v="station"/>
  </node>
  <node id="68669241" version="4" timestamp="2008-05-14T19:40:23Z" uid="36809" user="pfoten_weg_!_" changeset="449749" lat="48.097415" lon="11.5246674">
    <tag k="created_by" v="JOSM"/>
    <tag k="name" v="U3 Aidenbachstraße"/>
    <tag k="railway" v="station"/>
  </node>
  <node id="68669241" version="5" timestamp="2008-05-14T19:42:20Z" uid="36809" user="pfoten_weg_!_" changeset="449749" lat="48.0974957" lon="11.5280874">
    <tag k="created_by" v="JOSM"/>
    <tag k="name" v="U3 Aidenbachstraße"/>
    <tag k="railway" v="station"/>
  </node>
  <node id="68669241" version="6" timestamp="2008-05-20T15:01:05Z" uid="36809" user="pfoten_weg_!_" changeset="485864" lat="48.0975437" lon="11.5280804">
    <tag k="created_by" v="JOSM"/>
    <tag k="name" v="U3 Aidenbachstraße"/>
    <tag k="railway" v="station"/>
  </node>
  <node id="68669241" version="7" timestamp="2008-06-02T18:41:50Z" uid="8748" user="ToniE" changeset="22429" lat="48.0975622" lon="11.5262978">
    <tag k="created_by" v="JOSM"/>
    <tag k="name" v="U3 Aidenbachstraße"/>
    <tag k="railway" v="station"/>
  </node>
  <node id="68669241" version="8" timestamp="2008-06-02T18:44:16Z" uid="8748" user="ToniE" changeset="22429" lat="48.097593" lon="11.5255496">
    <tag k="created_by" v="JOSM"/>
    <tag k="name" v="U3 Aidenbachstraße"/>
    <tag k="railway" v="station"/>
  </node>
  <node id="68669241" version="9" timestamp="2008-06-02T18:45:15Z" uid="8748" user="ToniE" changeset="22429" lat="48.097593" lon="11.5255496">
    <tag k="created_by" v="JOSM"/>
    <tag k="name" v="Aidenbachstraße"/>
    <tag k="railway" v="station"/>
  </node>
  <node id="68669241" version="10" timestamp="2008-06-05T22:21:37Z" uid="36809" user="pfoten_weg_!_" changeset="71211" lat="48.097593" lon="11.5255496">
    <tag k="created_by" v="JOSM"/>
    <tag k="name" v="Aidenbachstraße"/>
    <tag k="railway" v="station"/>
  </node>
  <node id="68669241" version="11" timestamp="2008-07-17T10:05:28Z" uid="36809" user="pfoten_weg_!_" changeset="514716" lat="48.097593" lon="11.5255496">
    <tag k="created_by" v="JOSM"/>
    <tag k="name" v="Aidenbachstraße"/>
    <tag k="railway" v="station"/>
    <tag k="ref" v="U 3"/>
  </node>
  <node id="68669241" version="12" timestamp="2008-08-08T17:29:36Z" uid="36809" user="pfoten_weg_!_" changeset="142705" lat="48.097593" lon="11.5255496">
    <tag k="created_by" v="RambaZamba"/>
    <tag k="name" v="Aidenbachstraße"/>
    <tag k="railway" v="station"/>
    <tag k="ref" v="U 3"/>
  </node>
  <node id="68669241" version="13" timestamp="2008-09-13T12:43:48Z" uid="36809" user="pfoten_weg_!_" changeset="620497" lat="48.0975931" lon="11.5255501">
    <tag k="created_by" v="RambaZamba"/>
    <tag k="name" v="Aidenbachstraße"/>
    <tag k="railway" v="station"/>
    <tag k="ref" v="U 3"/>
  </node>
  <node id="68669241" version="14" timestamp="2008-09-20T03:37:12Z" uid="36809" user="pfoten_weg_!_" changeset="670006" lat="48.0975931" lon="11.5255502">
    <tag k="created_by" v="RambaZamba"/>
    <tag k="name" v="Aidenbachstraße"/>
    <tag k="railway" v="station"/>
    <tag k="ref" v="U 3"/>
  </node>
  <node id="68669241" version="15" timestamp="2008-09-21T21:19:00Z" uid="36809" user="pfoten_weg_!_" changeset="676192" lat="48.0975931" lon="11.5255502">
    <tag k="created_by" v="RambaZamba"/>
    <tag k="name" v="Aidenbachstraße"/>
    <tag k="railway" v="station"/>
    <tag k="ref" v="U 3"/>
    <tag k="source" v="survey"/>
  </node>
  <node id="68669241" version="16" timestamp="2008-10-01T01:39:06Z" uid="36809" user="pfoten_weg_!_" changeset="5644" lat="48.0975931" lon="11.5255502">
    <tag k="created_by" v="RambaZamba"/>
    <tag k="name" v="Aidenbachstraße"/>
    <tag k="railway" v="station"/>
    <tag k="ref" v="U 3"/>
    <tag k="source" v="survey"/>
  </node>
  <node id="68669241" version="17" timestamp="2009-06-08T11:58:52Z" uid="132988" user="ich-liebe-euch" changeset="1457959" lat="48.0975931" lon="11.5255502">
    <tag k="name" v="Aidenbachstraße"/>
    <tag k="railway" v="station"/>
    <tag k="ref" v="U 3"/>
    <tag k="source" v="survey"/>
  </node>
  <node id="68669241" version="18" timestamp="2009-06-08T13:38:32Z" uid="36809" user="pfoten_weg_!_" changeset="1458869" lat="48.0975931" lon="11.5255502">
    <tag k="created_by" v="RambaZamba"/>
    <tag k="name" v="Aidenbachstraße"/>
    <tag k="railway" v="station"/>
    <tag k="ref" v="U 3"/>
    <tag k="source" v="survey"/>
  </node>
  <node id="68669241" version="19" timestamp="2009-08-12T12:37:34Z" uid="156995" user="HampelZamba" changeset="2118306" lat="48.0975931" lon="11.5255502">
    <tag k="name" v="Aidenbachstraße"/>
    <tag k="railway" v="station"/>
    <tag k="ref" v="U 3"/>
    <tag k="source" v="survey"/>
  </node>
  <node id="68669241" version="20" timestamp="2009-08-26T09:19:14Z" uid="36809" user="pfoten_weg_!_" changeset="2265170" lat="48.0975931" lon="11.5255502">
    <tag k="name" v="Aidenbachstraße"/>
    <tag k="railway" v="station"/>
    <tag k="ref" v="U 3"/>
    <tag k="source" v="survey"/>
  </node>
  <node id="68669241" version="21" timestamp="2009-10-02T17:49:34Z" uid="86259" user="hasse_osm_korinthenkacker" changeset="2715119" lat="48.0975931" lon="11.5255502">
    <tag k="name" v="Aidenbachstraße"/>
    <tag k="railway" v="station"/>
    <tag k="ref" v="U 3"/>
  </node>
  <node id="68669241" version="22" timestamp="2011-10-07T20:21:31Z" uid="290680" user="wheelmap_visitor" changeset="9490517" lat="48.0975931" lon="11.5255502">
    <tag k="name" v="Aidenbachstraße"/>
    <tag k="railway" v="station"/>
    <tag k="ref" v="U 3"/>
    <tag k="wheelchair" v="yes"/>
  </node>
  <node id="68669245" version="2" timestamp="2008-05-04T03:46:29Z" uid="36809" user="pfoten_weg_!_" changeset="326538" lat="48.0973866" lon="11.5148363">
    <tag k="created_by" v="JOSM"/>
    <tag k="name" v="Machtlfinger Straße"/>
    <tag k="railway" v="station"/>
  </node>
  <node id="68669245" version="3" timestamp="2008-05-14T19:42:20Z" uid="36809" user="pfoten_weg_!_" changeset="449749" lat="48.0973294" lon="11.5148094">
    <tag k="created_by" v="JOSM"/>
    <tag k="name" v="Machtlfinger Straße"/>
    <tag k="railway" v="station"/>
  </node>
  <node id="68669245" version="4" timestamp="2008-05-20T15:01:05Z" uid="36809" user="pfoten_weg_!_" changeset="485864" lat="48.097303" lon="11.5146994">
    <tag k="created_by" v="JOSM"/>
    <tag k="name" v="Machtlfinger Straße"/>
    <tag k="railway" v="station"/>
  </node>
  <node id="68669245" version="5" timestamp="2008-05-24T00:26:25Z" uid="36809" user="pfoten_weg_!_" changeset="508222" lat="48.097303" lon="11.5146994">
    <tag k="created_by" v="JOSM"/>
    <tag k="name" v="U3 Machtlfinger Straße"/>
    <tag k="railway" v="station"/>
  </node>
  <node id="68669245" version="6" timestamp="2008-06-02T18:45:54Z" uid="8748" user="ToniE" changeset="22429" lat="48.097303" lon="11.5146994">
    <tag k="created_by" v="JOSM"/>
    <tag k="name" v="Machtlfinger Straße"/>
    <tag k="railway" v="station"/>
  </node>
  <node id="68669245" version="7" timestamp="2008-06-05T22:21:37Z" uid="36809" user="pfoten_weg_!_" changeset="71211" lat="48.097303" lon="11.5146994">
    <tag k="created_by" v="JOSM"/>
    <tag k="name" v="Machtlfinger Straße"/>
    <tag k="railway" v="station"/>
  </node>
  <node id="68669245" version="8" timestamp="2008-07-17T10:05:04Z" uid="36809" user="pfoten_weg_!_" changeset="514716" lat="48.097303" lon="11.5146994">
    <tag k="created_by" v="JOSM"/>
    <tag k="name" v="Machtlfinger Straße"/>
    <tag k="railway" v="station"/>
    <tag k="ref" v="U 3"/>
  </node>
  <node id="68669245" version="9" timestamp="2008-08-08T17:29:36Z" uid="36809" user="pfoten_weg_!_" changeset="142705" lat="48.097303" lon="11.5146994">
    <tag k="created_by" v="RambaZamba"/>
    <tag k="name" v="Machtlfinger Straße"/>
    <tag k="railway" v="station"/>
    <tag k="ref" v="U 3"/>
  </node>
  <node id="68669245" version="10" timestamp="2008-09-13T12:43:49Z" uid="36809" user="pfoten_weg_!_" changeset="620497" lat="48.0973031" lon="11.5146999">
    <tag k="created_by" v="RambaZamba"/>
    <tag k="name" v="Machtlfinger Straße"/>
    <tag k="railway" v="station"/>
    <tag k="ref" v="U 3"/>
  </node>
  <node id="68669245" version="11" timestamp="2008-09-20T03:37:13Z" uid="36809" user="pfoten_weg_!_" changeset="670006" lat="48.0973031" lon="11.5147">
    <tag k="created_by" v="RambaZamba"/>
    <tag k="name" v="Machtlfinger Straße"/>
    <tag k="railway" v="station"/>
    <tag k="ref" v="U 3"/>
  </node>
  <node id="68669245" version="12" timestamp="2008-09-21T21:19:00Z" uid="36809" user="pfoten_weg_!_" changeset="676192" lat="48.0973031" lon="11.5147">
    <tag k="created_by" v="RambaZamba"/>
    <tag k="name" v="Machtlfinger Straße"/>
    <tag k="railway" v="station"/>
    <tag k="ref" v="U 3"/>
    <tag k="source" v="survey"/>
  </node>
  <node id="68669245" version="13" timestamp="2008-10-01T01:39:07Z" uid="36809" user="pfoten_weg_!_" changeset="5644" lat="48.0973031" lon="11.5147">
    <tag k="created_by" v="RambaZamba"/>
    <tag k="name" v="Machtlfinger Straße"/>
    <tag k="railway" v="station"/>
    <tag k="ref" v="U 3"/>
    <tag k="source" v="survey"/>
  </node>
  <node id="68669245" version="14" timestamp="2009-06-08T11:58:53Z" uid="132988" user="ich-liebe-euch" changeset="1457959" lat="48.0973031" lon="11.5147">
    <tag k="name" v="Machtlfinger Straße"/>
    <tag k="railway" v="station"/>
    <tag k="ref" v="U 3"/>
    <tag k="source" v="survey"/>
  </node>
  <node id="68669245" version="15" timestamp="2009-06-08T13:38:32Z" uid="36809" user="pfoten_weg_!_" changeset="1458869" lat="48.0973031" lon="11.5147">
    <tag k="created_by" v="RambaZamba"/>
    <tag k="name" v="Machtlfinger Straße"/>
    <tag k="railway" v="station"/>
    <tag k="ref" v="U 3"/>
    <tag k="source" v="survey"/>
  </node>
  <node id="68669245" version="16" timestamp="2009-08-12T12:37:35Z" uid="156995" user="HampelZamba" changeset="2118306" lat="48.0973031" lon="11.5147">
    <tag k="name" v="Machtlfinger Straße"/>
    <tag k="railway" v="station"/>
    <tag k="ref" v="U 3"/>
    <tag k="source" v="survey"/>
  </node>
  <node id="68669245" version="17" timestamp="2009-08-26T09:19:14Z" uid="36809" user="pfoten_weg_!_" changeset="2265170" lat="48.0973031" lon="11.5147">
    <tag k="name" v="Machtlfinger Straße"/>
    <tag k="railway" v="station"/>
    <tag k="ref" v="U 3"/>
    <tag k="source" v="survey"/>
  </node>
  <node id="68669245" version="18" timestamp="2009-10-02T17:49:33Z" uid="86259" user="hasse_osm_korinthenkacker" changeset="2715119" lat="48.0973031" lon="11.5147">
    <tag k="name" v="Machtlfinger Straße"/>
    <tag k="railway" v="station"/>
    <tag k="ref" v="U 3"/>
  </node>
  <node id="68669245" version="19" timestamp="2012-03-30T18:59:24Z" uid="8748" user="ToniE" changeset="11158861" lat="48.0972954" lon="11.5147118">
    <tag k="name" v="Machtlfinger Straße"/>
    <tag k="railway" v="station"/>
    <tag k="ref" v="U 3"/>
  </node>
</osm>
