<?xml version='1.0' encoding='UTF-8'?>
<osm version="0.6" generator="libosmium/2.20.0">
  <node id="688070280" version="2" timestamp="2010-04-11T11:55:51Z" uid="20587" user="balrog-kun" changeset="4392352" lat="49.6876747" lon="20.5732929">
    <tag k="name" v="Kłodne"/>
    <tag k="place" v="village"/>
    <tag k="source" v="http://ump.waw.pl/ retrieved 03:39:37 04/04/10 (UMP-NowySacz/src/cities-NowySacz.pnt-converted.txt)"/>
  </node>
  <node id="688070280" version="3" timestamp="2010-04-11T13:19:00Z" uid="20587" user="balrog-kun" changeset="4392352" lat="49.6869824" lon="20.5755141">
    <tag k="name" v="Kłodne"/>
    <tag k="place" v="village"/>
    <tag k="source" v="http://ump.waw.pl/ retrieved 03:39:37 04/04/10 (UMP-NowySacz/src/cities-NowySacz.pnt-converted.txt)"/>
  </node>
  <node id="688070280" version="4" timestamp="2010-04-27T03:57:37Z" uid="30632" user="antblant" changeset="4537850" lat="49.6869824" lon="20.5755141">
    <tag k="name" v="Kłodne"/>
    <tag k="place" v="village"/>
    <tag k="source" v="http://ump.waw.pl/ retrieved 03:39:37 04/04/10 (UMP-NowySacz/src/cities-NowySacz.pnt-converted.txt)"/>
    <tag k="teryt:simc" v="0438498"/>
  </node>
  <node id="688070289" version="2" timestamp="2010-04-11T11:55:51Z" uid="20587" user="balrog-kun" changeset="4392352" lat="49.79836" lon="20.18049">
    <tag k="name" v="Pogorzany"/>
    <tag k="place" v="village"/>
    <tag k="source" v="http://ump.waw.pl/ retrieved 03:39:37 04/04/10 (UMP-NowySacz/src/cities-NowySacz.pnt-converted.txt)"/>
  </node>
  <node id="688070289" version="3" timestamp="2010-04-11T13:19:00Z" uid="20587" user="balrog-kun" changeset="4392352" lat="49.79836" lon="20.18049">
    <tag k="name" v="Pogorzany"/>
    <tag k="place" v="village"/>
    <tag k="source" v="http://ump.waw.pl/ retrieved 03:39:37 04/04/10 (UMP-NowySacz/src/cities-NowySacz.pnt-converted.txt)"/>
  </node>
  <node id="688070289" version="4" timestamp="2010-04-27T03:57:38Z" uid="30632" user="antblant" changeset="4537850" lat="49.79836" lon="20.18049">
    <tag k="name" v="Pogorzany"/>
    <tag k="place" v="village"/>
    <tag k="source" v="http://ump.waw.pl/ retrieved 03:39:37 04/04/10 (UMP-NowySacz/src/cities-NowySacz.pnt-converted.txt)"/>
    <tag k="teryt:simc" v="0430500"/>
  </node>
  <node id="688071379" version="2" timestamp="2010-04-11T11:55:51Z" uid="20587" user="balrog-kun" changeset="4392352" lat="49.76038" lon="20.4517">
    <tag k="name" v="Laskowa"/>
    <tag k="place" v="village"/>
    <tag k="source" v="http://ump.waw.pl/ retrieved 03:39:37 04/04/10 (UMP-NowySacz/src/cities-NowySacz.pnt-converted.txt)"/>
  </node>
  <node id="688071379" version="3" timestamp="2010-04-11T13:19:00Z" uid="20587" user="balrog-kun" changeset="4392352" lat="49.76038" lon="20.4517">
    <tag k="name" v="Laskowa"/>
    <tag k="place" v="village"/>
    <tag k="source" v="http://ump.waw.pl/ retrieved 03:39:37 04/04/10 (UMP-NowySacz/src/cities-NowySacz.pnt-converted.txt)"/>
  </node>
  <node id="688071841" version="2" timestamp="2010-04-11T11:55:51Z" uid="20587" user="balrog-kun" changeset="4392352" lat="49.66774" lon="20.62376">
    <tag k="name" v="Klęczany"/>
    <tag k="place" v="village"/>
    <tag k="source" v="http://ump.waw.pl/ retrieved 03:39:37 04/04/10 (UMP-NowySacz/src/cities-NowySacz.pnt-converted.txt)"/>
  </node>
  <node id="688071841" version="3" timestamp="2010-04-11T13:19:00Z" uid="20587" user="balrog-kun" changeset="4392352" lat="49.66774" lon="20.62376">
    <tag k="name" v="Klęczany"/>
    <tag k="place" v="village"/>
    <tag k="source" v="http://ump.waw.pl/ retrieved 03:39:37 04/04/10 (UMP-NowySacz/src/cities-NowySacz.pnt-converted.txt)"/>
  </node>
  <node id="688072917" version="2" timestamp="2010-04-11T11:55:51Z" uid="20587" user="balrog-kun" changeset="4392352" lat="49.77818" lon="20.60253">
    <tag k="name" v="Kąty"/>
    <tag k="place" v="village"/>
    <tag k="source" v="http://ump.waw.pl/ retrieved 03:39:37 04/04/10 (UMP-NowySacz/src/cities-NowySacz.pnt-converted.txt)"/>
  </node>
  <node id="688072917" version="3" timestamp="2010-04-11T13:19:01Z" uid="20587" user="balrog-kun" changeset="4392352" lat="49.77818" lon="20.60253">
    <tag k="name" v="Kąty"/>
    <tag k="place" v="village"/>
    <tag k="source" v="http://ump.waw.pl/ retrieved 03:39:37 04/04/10 (UMP-NowySacz/src/cities-NowySacz.pnt-converted.txt)"/>
  </node>
  <node id="688074540" version="2" timestamp="2010-04-11T11:55:51Z" uid="20587" user="balrog-kun" changeset="4392352" lat="49.7479323" lon="20.2100304">
    <tag k="name" v="Stróża"/>
    <tag k="place" v="village"/>
    <tag k="source" v="http://ump.waw.pl/ retrieved 03:39:37 04/04/10 (UMP-NowySacz/src/cities-NowySacz.pnt-converted.txt)"/>
  </node>
  <node id="688074540" version="3" timestamp="2010-04-11T13:19:01Z" uid="20587" user="balrog-kun" changeset="4392352" lat="49.747029" lon="20.2144234">
    <tag k="name" v="Stróża"/>
    <tag k="place" v="village"/>
    <tag k="source" v="http://ump.waw.pl/ retrieved 03:39:37 04/04/10 (UMP-NowySacz/src/cities-NowySacz.pnt-converted.txt)"/>
  </node>
  <node id="688075852" version="4" timestamp="2010-04-11T11:55:51Z" uid="20587" user="balrog-kun" changeset="4392352" lat="49.7536112" lon="20.6224868">
    <tag k="name" v="Łososina Dolna"/>
    <tag k="place" v="village"/>
    <tag k="source" v="http://ump.waw.pl/ retrieved 03:39:37 04/04/10 (UMP-NowySacz/src/cities-NowySacz.pnt-converted.txt)"/>
  </node>
  <node id="688075852" version="5" timestamp="2010-04-11T13:19:01Z" uid="20587" user="balrog-kun" changeset="4392352" lat="49.7534017" lon="20.6172783">
    <tag k="name" v="Łososina Dolna"/>
    <tag k="place" v="village"/>
    <tag k="source" v="http://ump.waw.pl/ retrieved 03:39:37 04/04/10 (UMP-NowySacz/src/cities-NowySacz.pnt-converted.txt)"/>
  </node>
  <node id="688075852" version="6" timestamp="2010-04-27T04:12:41Z" uid="30632" user="antblant" changeset="4537887" lat="49.7534017" lon="20.6172783">
    <tag k="name" v="Łososina Dolna"/>
    <tag k="place" v="village"/>
    <tag k="source" v="http://ump.waw.pl/ retrieved 03:39:37 04/04/10 (UMP-NowySacz/src/cities-NowySacz.pnt-converted.txt)"/>
    <tag k="teryt:simc" v="0447882"/>
  </node>
  <node id="688075857" version="2" timestamp="2010-04-11T11:55:51Z" uid="20587" user="balrog-kun" changeset="4392352" lat="49.816" lon="20.24931">
    <tag k="name" v="Słupia"/>
    <tag k="place" v="village"/>
    <tag k="source" v="http://ump.waw.pl/ retrieved 03:39:37 04/04/10 (UMP-NowySacz/src/cities-NowySacz.pnt-converted.txt)"/>
  </node>
  <node id="688075857" version="3" timestamp="2010-04-11T13:19:01Z" uid="20587" user="balrog-kun" changeset="4392352" lat="49.816" lon="20.24931">
    <tag k="name" v="Słupia"/>
    <tag k="place" v="village"/>
    <tag k="source" v="http://ump.waw.pl/ retrieved 03:39:37 04/04/10 (UMP-NowySacz/src/cities-NowySacz.pnt-converted.txt)"/>
  </node>
  <node id="688076552" version="2" timestamp="2010-04-11T11:55:51Z" uid="20587" user="balrog-kun" changeset="4392352" lat="49.69804" lon="20.35124">
    <tag k="name" v="Słopnice"/>
    <tag k="place" v="village"/>
    <tag k="source" v="http://ump.waw.pl/ retrieved 03:39:37 04/04/10 (UMP-NowySacz/src/cities-NowySacz.pnt-converted.txt)"/>
  </node>
  <node id="688076552" version="3" timestamp="2010-04-11T13:19:01Z" uid="20587" user="balrog-kun" changeset="4392352" lat="49.69804" lon="20.35124">
    <tag k="name" v="Słopnice"/>
    <tag k="place" v="village"/>
    <tag k="source" v="http://ump.waw.pl/ retrieved 03:39:37 04/04/10 (UMP-NowySacz/src/cities-NowySacz.pnt-converted.txt)"/>
  </node>
  <node id="688076552" version="4" timestamp="2010-04-27T04:02:32Z" uid="30632" user="antblant" changeset="4537862" lat="49.69804" lon="20.35124">
    <tag k="name" v="Słopnice"/>
    <tag k="place" v="village"/>
    <tag k="source" v="http://ump.waw.pl/ retrieved 03:39:37 04/04/10 (UMP-NowySacz/src/cities-NowySacz.pnt-converted.txt)"/>
    <tag k="teryt:simc" v="0466939"/>
  </node>
  <node id="688077605" version="2" timestamp="2010-04-11T11:55:51Z" uid="20587" user="balrog-kun" changeset="4392352" lat="49.70875" lon="20.60531">
    <tag k="name" v="Rojówka"/>
    <tag k="place" v="village"/>
    <tag k="source" v="http://ump.waw.pl/ retrieved 03:39:37 04/04/10 (UMP-NowySacz/src/cities-NowySacz.pnt-converted.txt)"/>
  </node>
  <node id="688077605" version="3" timestamp="2010-04-11T13:19:01Z" uid="20587" user="balrog-kun" changeset="4392352" lat="49.70875" lon="20.60531">
    <tag k="name" v="Rojówka"/>
    <tag k="place" v="village"/>
    <tag k="source" v="http://ump.waw.pl/ retrieved 03:39:37 04/04/10 (UMP-NowySacz/src/cities-NowySacz.pnt-converted.txt)"/>
  </node>
  <node id="688077610" version="3" timestamp="2010-04-11T11:55:51Z" uid="20587" user="balrog-kun" changeset="4392352" lat="49.7596128" lon="20.3716247">
    <tag k="name" v="Mroczkówka"/>
    <tag k="place" v="hamlet"/>
    <tag k="source" v="http://ump.waw.pl/ retrieved 03:39:37 04/04/10 (UMP-NowySacz/src/cities-NowySacz.pnt-converted.txt)"/>
  </node>
  <node id="688077610" version="4" timestamp="2010-04-11T13:19:01Z" uid="20587" user="balrog-kun" changeset="4392352" lat="49.7607455" lon="20.369681">
    <tag k="name" v="Mroczkówka"/>
    <tag k="place" v="hamlet"/>
    <tag k="source" v="http://ump.waw.pl/ retrieved 03:39:37 04/04/10 (UMP-NowySacz/src/cities-NowySacz.pnt-converted.txt)"/>
  </node>
  <node id="688078038" version="2" timestamp="2011-04-02T23:47:26Z" uid="7617" user="Franc" changeset="7749406" lat="-33.4459722" lon="151.4442854"/>
  <node id="688079412" version="2" timestamp="2010-04-11T11:55:51Z" uid="20587" user="balrog-kun" changeset="4392352" lat="49.68444" lon="20.23399">
    <tag k="name" v="Jurków"/>
    <tag k="place" v="village"/>
    <tag k="source" v="http://ump.waw.pl/ retrieved 03:39:37 04/04/10 (UMP-NowySacz/src/cities-NowySacz.pnt-converted.txt)"/>
  </node>
  <node id="688079412" version="3" timestamp="2010-04-11T13:19:01Z" uid="20587" user="balrog-kun" changeset="4392352" lat="49.68444" lon="20.23399">
    <tag k="name" v="Jurków"/>
    <tag k="place" v="village"/>
    <tag k="source" v="http://ump.waw.pl/ retrieved 03:39:37 04/04/10 (UMP-NowySacz/src/cities-NowySacz.pnt-converted.txt)"/>
  </node>
</osm>
