<?xml version='1.0' encoding='UTF-8'?>
<osm version="0.6" generator="libosmium/2.20.0">
  <node id="688090737" version="2" timestamp="2010-04-11T11:55:53Z" uid="20587" user="balrog-kun" changeset="4392352" lat="49.8195964" lon="20.4558347">
    <tag k="name" v="Bytomsko"/>
    <tag k="place" v="village"/>
    <tag k="source" v="http://ump.waw.pl/ retrieved 03:39:37 04/04/10 (UMP-NowySacz/src/cities-NowySacz.pnt-converted.txt)"/>
  </node>
  <node id="688090737" version="3" timestamp="2010-04-11T13:19:04Z" uid="20587" user="balrog-kun" changeset="4392352" lat="49.8197106" lon="20.4534539">
    <tag k="name" v="Bytomsko"/>
    <tag k="place" v="village"/>
    <tag k="source" v="http://ump.waw.pl/ retrieved 03:39:37 04/04/10 (UMP-NowySacz/src/cities-NowySacz.pnt-converted.txt)"/>
  </node>
  <node id="688090737" version="4" timestamp="2010-04-27T04:20:20Z" uid="30632" user="antblant" changeset="4537912" lat="49.8197106" lon="20.4534539">
    <tag k="name" v="Bytomsko"/>
    <tag k="place" v="village"/>
    <tag k="source" v="http://ump.waw.pl/ retrieved 03:39:37 04/04/10 (UMP-NowySacz/src/cities-NowySacz.pnt-converted.txt)"/>
    <tag k="teryt:simc" v="0838453"/>
  </node>
  <node id="688090740" version="2" timestamp="2010-04-11T11:55:53Z" uid="20587" user="balrog-kun" changeset="4392352" lat="49.82362" lon="20.35331">
    <tag k="name" v="Rdzawa"/>
    <tag k="place" v="village"/>
    <tag k="source" v="http://ump.waw.pl/ retrieved 03:39:37 04/04/10 (UMP-NowySacz/src/cities-NowySacz.pnt-converted.txt)"/>
  </node>
  <node id="688090740" version="3" timestamp="2010-04-11T13:19:04Z" uid="20587" user="balrog-kun" changeset="4392352" lat="49.82362" lon="20.35331">
    <tag k="name" v="Rdzawa"/>
    <tag k="place" v="village"/>
    <tag k="source" v="http://ump.waw.pl/ retrieved 03:39:37 04/04/10 (UMP-NowySacz/src/cities-NowySacz.pnt-converted.txt)"/>
  </node>
  <node id="688090740" version="4" timestamp="2010-04-27T04:07:43Z" uid="30632" user="antblant" changeset="4537875" lat="49.82362" lon="20.35331">
    <tag k="name" v="Rdzawa"/>
    <tag k="place" v="village"/>
    <tag k="source" v="http://ump.waw.pl/ retrieved 03:39:37 04/04/10 (UMP-NowySacz/src/cities-NowySacz.pnt-converted.txt)"/>
    <tag k="teryt:simc" v="0839139"/>
  </node>
  <node id="688091338" version="2" timestamp="2010-04-11T11:55:53Z" uid="20587" user="balrog-kun" changeset="4392352" lat="49.7730929" lon="20.6178845">
    <tag k="name" v="Łęki"/>
    <tag k="place" v="village"/>
    <tag k="source" v="http://ump.waw.pl/ retrieved 03:39:37 04/04/10 (UMP-NowySacz/src/cities-NowySacz.pnt-converted.txt)"/>
  </node>
  <node id="688091338" version="3" timestamp="2010-04-11T13:19:04Z" uid="20587" user="balrog-kun" changeset="4392352" lat="49.7735527" lon="20.6172393">
    <tag k="name" v="Łęki"/>
    <tag k="place" v="village"/>
    <tag k="source" v="http://ump.waw.pl/ retrieved 03:39:37 04/04/10 (UMP-NowySacz/src/cities-NowySacz.pnt-converted.txt)"/>
  </node>
  <node id="688092314" version="2" timestamp="2010-04-11T11:55:54Z" uid="20587" user="balrog-kun" changeset="4392352" lat="49.7424237" lon="20.5641998">
    <tag k="name" v="Kobyłczyna"/>
    <tag k="place" v="village"/>
    <tag k="source" v="http://ump.waw.pl/ retrieved 03:39:37 04/04/10 (UMP-NowySacz/src/cities-NowySacz.pnt-converted.txt)"/>
  </node>
  <node id="688092314" version="3" timestamp="2010-04-11T13:19:04Z" uid="20587" user="balrog-kun" changeset="4392352" lat="49.7427595" lon="20.5646626">
    <tag k="name" v="Kobyłczyna"/>
    <tag k="place" v="village"/>
    <tag k="source" v="http://ump.waw.pl/ retrieved 03:39:37 04/04/10 (UMP-NowySacz/src/cities-NowySacz.pnt-converted.txt)"/>
  </node>
  <node id="688092314" version="4" timestamp="2010-04-27T03:57:56Z" uid="30632" user="antblant" changeset="4537850" lat="49.7427595" lon="20.5646626">
    <tag k="name" v="Kobyłczyna"/>
    <tag k="place" v="village"/>
    <tag k="source" v="http://ump.waw.pl/ retrieved 03:39:37 04/04/10 (UMP-NowySacz/src/cities-NowySacz.pnt-converted.txt)"/>
    <tag k="teryt:simc" v="0437599"/>
  </node>
  <node id="688092319" version="3" timestamp="2010-04-11T11:55:54Z" uid="20587" user="balrog-kun" changeset="4392352" lat="49.7597286" lon="20.3760239">
    <tag k="name" v="Pasierbiec"/>
    <tag k="place" v="village"/>
    <tag k="source" v="http://ump.waw.pl/ retrieved 03:39:37 04/04/10 (UMP-NowySacz/src/cities-NowySacz.pnt-converted.txt)"/>
  </node>
  <node id="688092319" version="4" timestamp="2010-04-11T13:19:04Z" uid="20587" user="balrog-kun" changeset="4392352" lat="49.759128" lon="20.3782455">
    <tag k="name" v="Pasierbiec"/>
    <tag k="place" v="village"/>
    <tag k="source" v="http://ump.waw.pl/ retrieved 03:39:37 04/04/10 (UMP-NowySacz/src/cities-NowySacz.pnt-converted.txt)"/>
  </node>
  <node id="688092319" version="5" timestamp="2010-04-27T03:57:56Z" uid="30632" user="antblant" changeset="4537850" lat="49.759128" lon="20.3782455">
    <tag k="name" v="Pasierbiec"/>
    <tag k="place" v="village"/>
    <tag k="source" v="http://ump.waw.pl/ retrieved 03:39:37 04/04/10 (UMP-NowySacz/src/cities-NowySacz.pnt-converted.txt)"/>
    <tag k="teryt:simc" v="0439463"/>
  </node>
  <node id="688093184" version="2" timestamp="2010-04-11T11:55:54Z" uid="20587" user="balrog-kun" changeset="4392352" lat="49.8361056" lon="20.3527852">
    <tag k="name" v="Ujazd"/>
    <tag k="place" v="village"/>
    <tag k="source" v="http://ump.waw.pl/ retrieved 03:39:37 04/04/10 (UMP-NowySacz/src/cities-NowySacz.pnt-converted.txt)"/>
  </node>
  <node id="688093184" version="3" timestamp="2010-04-11T13:19:04Z" uid="20587" user="balrog-kun" changeset="4392352" lat="49.8363523" lon="20.3494703">
    <tag k="name" v="Ujazd"/>
    <tag k="place" v="village"/>
    <tag k="source" v="http://ump.waw.pl/ retrieved 03:39:37 04/04/10 (UMP-NowySacz/src/cities-NowySacz.pnt-converted.txt)"/>
  </node>
  <node id="688093838" version="2" timestamp="2010-04-11T11:55:54Z" uid="20587" user="balrog-kun" changeset="4392352" lat="49.7418154" lon="20.2838065">
    <tag k="name" v="Zawadka"/>
    <tag k="place" v="village"/>
    <tag k="source" v="http://ump.waw.pl/ retrieved 03:39:37 04/04/10 (UMP-NowySacz/src/cities-NowySacz.pnt-converted.txt)"/>
  </node>
  <node id="688093838" version="3" timestamp="2010-04-11T13:19:05Z" uid="20587" user="balrog-kun" changeset="4392352" lat="49.7423834" lon="20.2827936">
    <tag k="name" v="Zawadka"/>
    <tag k="place" v="village"/>
    <tag k="source" v="http://ump.waw.pl/ retrieved 03:39:37 04/04/10 (UMP-NowySacz/src/cities-NowySacz.pnt-converted.txt)"/>
  </node>
  <node id="688093843" version="2" timestamp="2010-04-11T11:55:54Z" uid="20587" user="balrog-kun" changeset="4392352" lat="49.7148131" lon="20.6215671">
    <tag k="name" v="Świdnik"/>
    <tag k="place" v="village"/>
    <tag k="source" v="http://ump.waw.pl/ retrieved 03:39:37 04/04/10 (UMP-NowySacz/src/cities-NowySacz.pnt-converted.txt)"/>
  </node>
  <node id="688093843" version="3" timestamp="2010-04-11T13:19:05Z" uid="20587" user="balrog-kun" changeset="4392352" lat="49.7146558" lon="20.6271202">
    <tag k="name" v="Świdnik"/>
    <tag k="place" v="village"/>
    <tag k="source" v="http://ump.waw.pl/ retrieved 03:39:37 04/04/10 (UMP-NowySacz/src/cities-NowySacz.pnt-converted.txt)"/>
  </node>
  <node id="688094674" version="2" timestamp="2010-04-11T11:55:54Z" uid="20587" user="balrog-kun" changeset="4392352" lat="49.8391369" lon="20.4152295">
    <tag k="name" v="Łąkta Dolna"/>
    <tag k="place" v="village"/>
    <tag k="source" v="http://ump.waw.pl/ retrieved 03:39:37 04/04/10 (UMP-NowySacz/src/cities-NowySacz.pnt-converted.txt)"/>
  </node>
  <node id="688094674" version="3" timestamp="2010-04-11T13:19:05Z" uid="20587" user="balrog-kun" changeset="4392352" lat="49.8389813" lon="20.4183664">
    <tag k="name" v="Łąkta Dolna"/>
    <tag k="place" v="village"/>
    <tag k="source" v="http://ump.waw.pl/ retrieved 03:39:37 04/04/10 (UMP-NowySacz/src/cities-NowySacz.pnt-converted.txt)"/>
  </node>
  <node id="688094674" version="4" timestamp="2010-04-27T04:02:40Z" uid="30632" user="antblant" changeset="4537862" lat="49.8389813" lon="20.4183664">
    <tag k="name" v="Łąkta Dolna"/>
    <tag k="place" v="village"/>
    <tag k="source" v="http://ump.waw.pl/ retrieved 03:39:37 04/04/10 (UMP-NowySacz/src/cities-NowySacz.pnt-converted.txt)"/>
    <tag k="teryt:simc" v="0838884"/>
  </node>
  <node id="688094679" version="2" timestamp="2010-04-11T11:55:54Z" uid="20587" user="balrog-kun" changeset="4392352" lat="49.7768" lon="20.27649">
    <tag k="name" v="Kostrza"/>
    <tag k="place" v="village"/>
    <tag k="source" v="http://ump.waw.pl/ retrieved 03:39:37 04/04/10 (UMP-NowySacz/src/cities-NowySacz.pnt-converted.txt)"/>
  </node>
  <node id="688094679" version="3" timestamp="2010-04-11T13:19:05Z" uid="20587" user="balrog-kun" changeset="4392352" lat="49.7768" lon="20.27649">
    <tag k="name" v="Kostrza"/>
    <tag k="place" v="village"/>
    <tag k="source" v="http://ump.waw.pl/ retrieved 03:39:37 04/04/10 (UMP-NowySacz/src/cities-NowySacz.pnt-converted.txt)"/>
  </node>
</osm>
