<?xml version='1.0' encoding='UTF-8'?>
<osm version="0.6" generator="libosmium/2.20.0">
  <node id="688916769" version="4" timestamp="2010-12-06T11:10:30Z" uid="115477" user="wowik" changeset="6561785" lat="55.8503432" lon="32.2655838">
    <tag k="name" v="Жарковский"/>
    <tag k="name:de" v="Scharkowski"/>
    <tag k="place" v="village"/>
    <tag k="population" v="4461"/>
  </node>
  <node id="688916769" version="5" timestamp="2010-12-06T12:34:42Z" uid="127606" user="loir" changeset="6562684" lat="55.8503432" lon="32.2655838">
    <tag k="name" v="Жарковский"/>
    <tag k="name:de" v="Scharkowski"/>
    <tag k="place" v="town"/>
    <tag k="population" v="4461"/>
  </node>
  <node id="688916769" version="6" timestamp="2011-10-17T10:08:13Z" uid="24702" user="Dmitry &apos;MAD&apos; Artamonow" changeset="9580399" lat="55.8503432" lon="32.2655838">
    <tag k="name" v="Жарковский"/>
    <tag k="name:de" v="Scharkowski"/>
    <tag k="name:en" v="Zharkovsky"/>
    <tag k="place" v="town"/>
    <tag k="population" v="4461"/>
  </node>
</osm>
