<?xml version='1.0' encoding='UTF-8'?>
<osm version="0.6" generator="libosmium/2.20.0">
  <node id="691280908" version="2" timestamp="2010-07-29T09:05:29Z" uid="74617" user="JohnSmith" changeset="5344848" lat="45.8961674" lon="4.7317382">
    <tag k="amenity" v="emergency_phone"/>
    <tag k="emergency" v="phone"/>
    <tag k="note" v="vérifier numéro"/>
    <tag k="ref" v="4228"/>
    <tag k="source" v="survey"/>
  </node>
  <node id="691281090" version="2" timestamp="2010-07-28T20:05:26Z" uid="74617" user="JohnSmith" changeset="5339329" lat="45.9027802" lon="4.7299734">
    <tag k="emergency" v="fire_hydrant"/>
    <tag k="ref" v="25"/>
  </node>
  <node id="691281090" version="3" timestamp="2010-07-30T17:45:43Z" uid="74617" user="JohnSmith" changeset="5356742" lat="45.9027802" lon="4.7299734">
    <tag k="amenity" v="fire_hydrant"/>
    <tag k="emergency" v="fire_hydrant"/>
    <tag k="ref" v="25"/>
  </node>
  <node id="691281090" version="4" timestamp="2010-10-11T17:24:49Z" uid="26348" user="Rodolphe Quiédeville" changeset="6013837" lat="45.9027802" lon="4.7299734">
    <tag k="emergency" v="fire_hydrant"/>
    <tag k="ref" v="25"/>
  </node>
  <node id="691281090" version="5" timestamp="2010-10-19T08:46:45Z" uid="26348" user="Rodolphe Quiédeville" changeset="6094601" lat="45.9027802" lon="4.7299734">
    <tag k="amenity" v="fire_hydrant"/>
    <tag k="emergency" v="fire_hydrant"/>
    <tag k="ref" v="25"/>
  </node>
  <node id="691281090" version="6" timestamp="2012-03-27T18:30:56Z" uid="67540" user="Cobra" changeset="11118954" lat="45.9027802" lon="4.7299734">
    <tag k="amenity" v="fire_hydrant"/>
    <tag k="emergency" v="fire_hydrant"/>
    <tag k="odbl" v="clean"/>
    <tag k="ref" v="25"/>
  </node>
</osm>
