<?xml version='1.0' encoding='UTF-8'?>
<osm version="0.6" generator="libosmium/2.20.0">
  <node id="69300003" version="5" timestamp="2009-07-25T22:01:29Z" uid="123700" user="Mala" changeset="1939174" lat="44.645844" lon="10.9255626">
    <tag k="gfoss_id" v="4002"/>
    <tag k="is_in" v="Modena, Emilia Romagna, Italy"/>
    <tag k="is_in:continent" v="Europe"/>
    <tag k="name" v="Modena"/>
    <tag k="name:es" v="Módena"/>
    <tag k="name:fr" v="Modène"/>
    <tag k="name:pt" v="Módena"/>
    <tag k="place" v="city"/>
    <tag k="population" v="175502"/>
    <tag k="source" v="geodati.gfoss.it"/>
    <tag k="wikipedia" v="Modena"/>
  </node>
  <node id="69300003" version="6" timestamp="2009-11-27T16:06:43Z" uid="166445" user="GranD" changeset="3229238" lat="44.6458441" lon="10.9255625">
    <tag k="gfoss_id" v="4002"/>
    <tag k="is_in" v="Modena, Emilia Romagna, Italy"/>
    <tag k="is_in:continent" v="Europe"/>
    <tag k="name" v="Modena"/>
    <tag k="name:es" v="Módena"/>
    <tag k="name:fr" v="Modène"/>
    <tag k="name:pt" v="Módena"/>
    <tag k="name:ru" v="Модена"/>
    <tag k="place" v="city"/>
    <tag k="population" v="175502"/>
    <tag k="source" v="geodati.gfoss.it"/>
    <tag k="wikipedia" v="Modena"/>
  </node>
  <node id="69300003" version="7" timestamp="2011-01-24T11:52:03Z" uid="393666" user="etrumap" changeset="7072164" lat="44.6458441" lon="10.9255625">
    <tag k="capital" v="6"/>
    <tag k="gfoss_id" v="4002"/>
    <tag k="is_in" v="Modena, Emilia Romagna, Italy"/>
    <tag k="is_in:continent" v="Europe"/>
    <tag k="name" v="Modena"/>
    <tag k="name:es" v="Módena"/>
    <tag k="name:fr" v="Modène"/>
    <tag k="name:pt" v="Módena"/>
    <tag k="name:ru" v="Модена"/>
    <tag k="place" v="city"/>
    <tag k="population" v="175502"/>
    <tag k="source" v="geodati.gfoss.it"/>
    <tag k="wikipedia" v="Modena"/>
  </node>
  <node id="69300003" version="8" timestamp="2011-06-08T19:51:52Z" uid="359169" user="Orlandi_IT_EmiliaRomagna" changeset="8382989" lat="44.64591" lon="10.9255405">
    <tag k="capital" v="6"/>
    <tag k="gfoss_id" v="4002"/>
    <tag k="is_in" v="Modena, Emilia Romagna, Italy"/>
    <tag k="is_in:continent" v="Europe"/>
    <tag k="name" v="Modena"/>
    <tag k="name:es" v="Módena"/>
    <tag k="name:fr" v="Modène"/>
    <tag k="name:pt" v="Módena"/>
    <tag k="name:ru" v="Модена"/>
    <tag k="place" v="city"/>
    <tag k="population" v="175502"/>
    <tag k="source" v="geodati.gfoss.it"/>
    <tag k="wikipedia" v="Modena"/>
  </node>
  <node id="69300007" version="9" timestamp="2009-07-25T22:01:29Z" uid="123700" user="Mala" changeset="1939174" lat="44.8013503" lon="10.3280356">
    <tag k="gfoss_id" v="3914"/>
    <tag k="is_in" v="Parma, Emilia Romagna, Italy"/>
    <tag k="is_in:continent" v="Europe"/>
    <tag k="name" v="Parma"/>
    <tag k="name:fr" v="Parme"/>
    <tag k="place" v="city"/>
    <tag k="population" v="163457"/>
    <tag k="source" v="geodati.gfoss.it"/>
    <tag k="wikipedia" v="Parma"/>
  </node>
  <node id="69300007" version="10" timestamp="2009-11-27T21:11:06Z" uid="166445" user="GranD" changeset="3231752" lat="44.8013504" lon="10.3280355">
    <tag k="gfoss_id" v="3914"/>
    <tag k="is_in" v="Parma, Emilia Romagna, Italy"/>
    <tag k="is_in:continent" v="Europe"/>
    <tag k="name" v="Parma"/>
    <tag k="name:fr" v="Parme"/>
    <tag k="name:ru" v="Парма"/>
    <tag k="place" v="city"/>
    <tag k="population" v="163457"/>
    <tag k="source" v="geodati.gfoss.it"/>
    <tag k="wikipedia" v="Parma"/>
  </node>
  <node id="69300007" version="11" timestamp="2011-01-24T11:52:02Z" uid="393666" user="etrumap" changeset="7072164" lat="44.8013504" lon="10.3280355">
    <tag k="capital" v="6"/>
    <tag k="gfoss_id" v="3914"/>
    <tag k="is_in" v="Parma, Emilia Romagna, Italy"/>
    <tag k="is_in:continent" v="Europe"/>
    <tag k="name" v="Parma"/>
    <tag k="name:fr" v="Parme"/>
    <tag k="name:ru" v="Парма"/>
    <tag k="place" v="city"/>
    <tag k="population" v="163457"/>
    <tag k="source" v="geodati.gfoss.it"/>
    <tag k="wikipedia" v="Parma"/>
  </node>
  <node id="69300007" version="12" timestamp="2011-05-15T13:49:28Z" uid="93026" user="mpele" changeset="8152060" lat="44.8013504" lon="10.3280355">
    <tag k="capital" v="6"/>
    <tag k="gfoss_id" v="3914"/>
    <tag k="is_in" v="Parma, Emilia Romagna, Italy"/>
    <tag k="is_in:continent" v="Europe"/>
    <tag k="name" v="Parma"/>
    <tag k="name:fr" v="Parme"/>
    <tag k="name:ru" v="Парма"/>
    <tag k="name:sr" v="Парма"/>
    <tag k="place" v="city"/>
    <tag k="population" v="163457"/>
    <tag k="source" v="geodati.gfoss.it"/>
    <tag k="wikipedia" v="Parma"/>
  </node>
  <node id="69300011" version="3" timestamp="2009-07-25T22:01:25Z" uid="123700" user="Mala" changeset="1939174" lat="45.046765" lon="9.699366">
    <tag k="gfoss_id" v="3871"/>
    <tag k="is_in" v="Piacenza, Emilia Romagna, Italy"/>
    <tag k="is_in:continent" v="Europe"/>
    <tag k="name" v="Piacenza"/>
    <tag k="name:es" v="Plasencia"/>
    <tag k="name:fi" v="Piacenza"/>
    <tag k="name:fr" v="Plaisance"/>
    <tag k="name:pt" v="Placência"/>
    <tag k="place" v="city"/>
    <tag k="population" v="95594"/>
    <tag k="source" v="geodati.gfoss.it"/>
    <tag k="wikipedia" v="Piacenza"/>
  </node>
  <node id="69300011" version="4" timestamp="2009-11-27T16:05:49Z" uid="166445" user="GranD" changeset="3229224" lat="45.0467651" lon="9.6993659">
    <tag k="gfoss_id" v="3871"/>
    <tag k="is_in" v="Piacenza, Emilia Romagna, Italy"/>
    <tag k="is_in:continent" v="Europe"/>
    <tag k="name" v="Piacenza"/>
    <tag k="name:es" v="Plasencia"/>
    <tag k="name:fi" v="Piacenza"/>
    <tag k="name:fr" v="Plaisance"/>
    <tag k="name:pt" v="Placência"/>
    <tag k="name:ru" v="Пьяченца"/>
    <tag k="place" v="city"/>
    <tag k="population" v="95594"/>
    <tag k="source" v="geodati.gfoss.it"/>
    <tag k="wikipedia" v="Piacenza"/>
  </node>
  <node id="69300011" version="5" timestamp="2011-01-24T11:52:04Z" uid="393666" user="etrumap" changeset="7072164" lat="45.0467651" lon="9.6993659">
    <tag k="capital" v="6"/>
    <tag k="gfoss_id" v="3871"/>
    <tag k="is_in" v="Piacenza, Emilia Romagna, Italy"/>
    <tag k="is_in:continent" v="Europe"/>
    <tag k="name" v="Piacenza"/>
    <tag k="name:es" v="Plasencia"/>
    <tag k="name:fi" v="Piacenza"/>
    <tag k="name:fr" v="Plaisance"/>
    <tag k="name:pt" v="Placência"/>
    <tag k="name:ru" v="Пьяченца"/>
    <tag k="place" v="city"/>
    <tag k="population" v="95594"/>
    <tag k="source" v="geodati.gfoss.it"/>
    <tag k="wikipedia" v="Piacenza"/>
  </node>
  <node id="69300015" version="5" timestamp="2009-07-25T15:08:20Z" uid="123700" user="Mala" changeset="1935220" lat="44.4161413" lon="12.2017617">
    <tag k="gfoss_id" v="4126"/>
    <tag k="is_in" v="Ravenna, Emilia Romagna, Italy"/>
    <tag k="is_in:continent" v="Europe"/>
    <tag k="name" v="Ravenna"/>
    <tag k="name:de" v="Raben"/>
    <tag k="name:es" v="Rávena"/>
    <tag k="name:fr" v="Ravenne"/>
    <tag k="place" v="city"/>
    <tag k="population" v="134631"/>
    <tag k="source" v="geodati.gfoss.it"/>
    <tag k="wikipedia" v="Ravenna"/>
  </node>
  <node id="69300015" version="6" timestamp="2009-11-27T16:09:13Z" uid="166445" user="GranD" changeset="3229262" lat="44.4161414" lon="12.2017617">
    <tag k="gfoss_id" v="4126"/>
    <tag k="is_in" v="Ravenna, Emilia Romagna, Italy"/>
    <tag k="is_in:continent" v="Europe"/>
    <tag k="name" v="Ravenna"/>
    <tag k="name:de" v="Raben"/>
    <tag k="name:es" v="Rávena"/>
    <tag k="name:fr" v="Ravenne"/>
    <tag k="name:ru" v="Равенна"/>
    <tag k="place" v="city"/>
    <tag k="population" v="134631"/>
    <tag k="source" v="geodati.gfoss.it"/>
    <tag k="wikipedia" v="Ravenna"/>
  </node>
  <node id="69300015" version="7" timestamp="2011-01-24T11:52:02Z" uid="393666" user="etrumap" changeset="7072164" lat="44.4161414" lon="12.2017617">
    <tag k="capital" v="6"/>
    <tag k="gfoss_id" v="4126"/>
    <tag k="is_in" v="Ravenna, Emilia Romagna, Italy"/>
    <tag k="is_in:continent" v="Europe"/>
    <tag k="name" v="Ravenna"/>
    <tag k="name:de" v="Raben"/>
    <tag k="name:es" v="Rávena"/>
    <tag k="name:fr" v="Ravenne"/>
    <tag k="name:ru" v="Равенна"/>
    <tag k="place" v="city"/>
    <tag k="population" v="134631"/>
    <tag k="source" v="geodati.gfoss.it"/>
    <tag k="wikipedia" v="Ravenna"/>
  </node>
  <node id="69300019" version="5" timestamp="2009-07-25T22:01:23Z" uid="123700" user="Mala" changeset="1939174" lat="44.7086689" lon="10.619485">
    <tag k="gfoss_id" v="3967"/>
    <tag k="is_in" v="Reggio Emilia, Emilia Romagna, Italy"/>
    <tag k="is_in:continent" v="Europe"/>
    <tag k="name" v="Reggio nell&apos;Emilia"/>
    <tag k="name:es" v="Reggio Emilia"/>
    <tag k="name:fr" v="Reggio d&apos;Émilie"/>
    <tag k="name:pt" v="Reggio Emilia"/>
    <tag k="place" v="city"/>
    <tag k="population" v="141877"/>
    <tag k="source" v="geodati.gfoss.it"/>
    <tag k="wikipedia" v="Reggio Emilia"/>
  </node>
  <node id="69300019" version="6" timestamp="2010-04-12T19:38:30Z" uid="166445" user="GranD" changeset="4407950" lat="44.7086689" lon="10.619485">
    <tag k="gfoss_id" v="3967"/>
    <tag k="is_in" v="Reggio Emilia, Emilia Romagna, Italy"/>
    <tag k="is_in:continent" v="Europe"/>
    <tag k="name" v="Reggio nell&apos;Emilia"/>
    <tag k="name:es" v="Reggio Emilia"/>
    <tag k="name:fr" v="Reggio d&apos;Émilie"/>
    <tag k="name:pt" v="Reggio Emilia"/>
    <tag k="name:ru" v="Реджо-Эмилия"/>
    <tag k="place" v="city"/>
    <tag k="population" v="141877"/>
    <tag k="source" v="geodati.gfoss.it"/>
    <tag k="wikipedia" v="Reggio Emilia"/>
  </node>
  <node id="69300019" version="7" timestamp="2010-08-02T11:25:18Z" uid="316233" user="fappo" changeset="5379561" lat="44.6993273" lon="10.6294371">
    <tag k="gfoss_id" v="3967"/>
    <tag k="is_in" v="Reggio Emilia, Emilia Romagna, Italy"/>
    <tag k="is_in:continent" v="Europe"/>
    <tag k="name" v="Reggio nell&apos;Emilia"/>
    <tag k="name:es" v="Reggio Emilia"/>
    <tag k="name:fr" v="Reggio d&apos;Émilie"/>
    <tag k="name:pt" v="Reggio Emilia"/>
    <tag k="name:ru" v="Реджо-Эмилия"/>
    <tag k="place" v="city"/>
    <tag k="population" v="141877"/>
    <tag k="source" v="geodati.gfoss.it"/>
    <tag k="wikipedia" v="Reggio Emilia"/>
  </node>
  <node id="69300019" version="8" timestamp="2010-09-17T19:07:06Z" uid="207544" user="cacaito" changeset="5806351" lat="44.6983071" lon="10.6314564">
    <tag k="gfoss_id" v="3967"/>
    <tag k="is_in" v="Reggio Emilia, Emilia Romagna, Italy"/>
    <tag k="is_in:continent" v="Europe"/>
    <tag k="name" v="Reggio nell&apos;Emilia"/>
    <tag k="name:es" v="Reggio Emilia"/>
    <tag k="name:fr" v="Reggio d&apos;Émilie"/>
    <tag k="name:pt" v="Reggio Emilia"/>
    <tag k="name:ru" v="Реджо-Эмилия"/>
    <tag k="place" v="city"/>
    <tag k="population" v="141877"/>
    <tag k="source" v="geodati.gfoss.it"/>
    <tag k="wikipedia" v="Reggio Emilia"/>
  </node>
  <node id="69300019" version="9" timestamp="2011-01-24T11:52:04Z" uid="393666" user="etrumap" changeset="7072164" lat="44.6983071" lon="10.6314564">
    <tag k="capital" v="6"/>
    <tag k="gfoss_id" v="3967"/>
    <tag k="is_in" v="Reggio Emilia, Emilia Romagna, Italy"/>
    <tag k="is_in:continent" v="Europe"/>
    <tag k="name" v="Reggio nell&apos;Emilia"/>
    <tag k="name:es" v="Reggio Emilia"/>
    <tag k="name:fr" v="Reggio d&apos;Émilie"/>
    <tag k="name:pt" v="Reggio Emilia"/>
    <tag k="name:ru" v="Реджо-Эмилия"/>
    <tag k="place" v="city"/>
    <tag k="population" v="141877"/>
    <tag k="source" v="geodati.gfoss.it"/>
    <tag k="wikipedia" v="Reggio Emilia"/>
  </node>
  <node id="69300019" version="10" timestamp="2011-03-17T23:02:26Z" uid="316233" user="fappo" changeset="7590978" lat="44.6983278" lon="10.6307397">
    <tag k="capital" v="6"/>
    <tag k="gfoss_id" v="3967"/>
    <tag k="is_in" v="Reggio Emilia, Emilia Romagna, Italy"/>
    <tag k="is_in:continent" v="Europe"/>
    <tag k="name" v="Reggio nell&apos;Emilia"/>
    <tag k="name:es" v="Reggio Emilia"/>
    <tag k="name:fr" v="Reggio d&apos;Émilie"/>
    <tag k="name:pt" v="Reggio Emilia"/>
    <tag k="name:ru" v="Реджо-Эмилия"/>
    <tag k="place" v="city"/>
    <tag k="population" v="141877"/>
    <tag k="source" v="geodati.gfoss.it"/>
    <tag k="wikipedia" v="Reggio Emilia"/>
  </node>
  <node id="69300020" version="2" timestamp="2007-11-28T01:00:17Z" uid="17602" user="B10xyz" changeset="640489" lat="44.0683713" lon="12.5556426">
    <tag k="created_by" v="Potlatch 0.5d"/>
    <tag k="gfoss_id" v="7934"/>
    <tag k="is_in" v="Rimini, Emilia Romagna, Italy"/>
    <tag k="name" v="Rimini"/>
    <tag k="place" v="city"/>
    <tag k="population" v="128656"/>
    <tag k="source" v="geodati.gfoss.it"/>
  </node>
  <node id="69300020" version="3" timestamp="2008-08-08T08:53:25Z" uid="51179" user="Samuele Battarra" changeset="136058" lat="44.0593654" lon="12.5686168">
    <tag k="created_by" v="Potlatch 0.10b"/>
    <tag k="gfoss_id" v="7934"/>
    <tag k="is_in" v="Rimini, Emilia Romagna, Italy"/>
    <tag k="name" v="Rimini"/>
    <tag k="place" v="city"/>
    <tag k="population" v="128656"/>
    <tag k="source" v="geodati.gfoss.it"/>
  </node>
  <node id="69300020" version="4" timestamp="2008-11-05T17:41:39Z" uid="308" user="MichaelCollinson" changeset="685958" lat="44.0593654" lon="12.5686168">
    <tag k="gfoss_id" v="7934"/>
    <tag k="is_in" v="Rimini, Emilia Romagna, Italy"/>
    <tag k="is_in:continent" v="Europe"/>
    <tag k="name" v="Rimini"/>
    <tag k="place" v="city"/>
    <tag k="population" v="128656"/>
    <tag k="source" v="geodati.gfoss.it"/>
  </node>
  <node id="69300020" version="5" timestamp="2010-04-12T19:38:31Z" uid="166445" user="GranD" changeset="4407950" lat="44.0593654" lon="12.5686168">
    <tag k="gfoss_id" v="7934"/>
    <tag k="is_in" v="Rimini, Emilia Romagna, Italy"/>
    <tag k="is_in:continent" v="Europe"/>
    <tag k="name" v="Rimini"/>
    <tag k="name:ru" v="Римини"/>
    <tag k="place" v="city"/>
    <tag k="population" v="128656"/>
    <tag k="source" v="geodati.gfoss.it"/>
  </node>
  <node id="69300020" version="6" timestamp="2011-01-24T11:52:04Z" uid="393666" user="etrumap" changeset="7072164" lat="44.0593654" lon="12.5686168">
    <tag k="capital" v="6"/>
    <tag k="gfoss_id" v="7934"/>
    <tag k="is_in" v="Rimini, Emilia Romagna, Italy"/>
    <tag k="is_in:continent" v="Europe"/>
    <tag k="name" v="Rimini"/>
    <tag k="name:ru" v="Римини"/>
    <tag k="place" v="city"/>
    <tag k="population" v="128656"/>
    <tag k="source" v="geodati.gfoss.it"/>
  </node>
  <node id="69300020" version="7" timestamp="2011-05-15T17:49:40Z" uid="93026" user="mpele" changeset="8154765" lat="44.0593654" lon="12.5686168">
    <tag k="capital" v="6"/>
    <tag k="gfoss_id" v="7934"/>
    <tag k="is_in" v="Rimini, Emilia Romagna, Italy"/>
    <tag k="is_in:continent" v="Europe"/>
    <tag k="name" v="Rimini"/>
    <tag k="name:ru" v="Римини"/>
    <tag k="name:sr" v="Римини"/>
    <tag k="place" v="city"/>
    <tag k="population" v="128656"/>
    <tag k="source" v="geodati.gfoss.it"/>
  </node>
  <node id="69300020" version="8" timestamp="2011-08-31T15:21:27Z" uid="504502" user="peppe10" changeset="9177174" lat="44.0587517" lon="12.5631537">
    <tag k="capital" v="6"/>
    <tag k="gfoss_id" v="7934"/>
    <tag k="is_in" v="Rimini, Emilia Romagna, Italy"/>
    <tag k="is_in:continent" v="Europe"/>
    <tag k="name" v="Rimini"/>
    <tag k="name:ru" v="Римини"/>
    <tag k="name:sr" v="Римини"/>
    <tag k="place" v="city"/>
    <tag k="population" v="128656"/>
    <tag k="source" v="geodati.gfoss.it"/>
  </node>
  <node id="69303356" version="2" timestamp="2007-10-22T19:16:18Z" uid="8328" user="benpre" changeset="285095" lat="48.7358263" lon="9.1647065"/>
  <node id="69303356" version="3" timestamp="2010-02-05T23:46:13Z" uid="61990" user="christianb" changeset="3801747" lat="48.7358263" lon="9.1647065">
    <tag k="TMC:cid_58:tabcd_1:Class" v="Point"/>
    <tag k="TMC:cid_58:tabcd_1:Direction" v="positive"/>
    <tag k="TMC:cid_58:tabcd_1:LCLversion" v="8.00"/>
    <tag k="TMC:cid_58:tabcd_1:LocationCode" v="30651"/>
  </node>
  <node id="69303356" version="4" timestamp="2010-02-06T19:10:14Z" uid="218283" user="TMCbot" changeset="3807992" lat="48.7358263" lon="9.1647065">
    <tag k="TMC:cid_58:tabcd_1:Class" v="Point"/>
    <tag k="TMC:cid_58:tabcd_1:Direction" v="positive"/>
    <tag k="TMC:cid_58:tabcd_1:LCLversion" v="8.00"/>
    <tag k="TMC:cid_58:tabcd_1:LocationCode" v="30651"/>
    <tag k="TMC:cid_58:tabcd_1:NextLocationCode" v="30609"/>
    <tag k="TMC:cid_58:tabcd_1:PrevLocationCode" v="30608"/>
  </node>
  <node id="69303356" version="5" timestamp="2012-01-15T21:18:37Z" uid="136321" user="Teddy73" changeset="10401975" lat="48.7363619" lon="9.1642206">
    <tag k="TMC:cid_58:tabcd_1:Class" v="Point"/>
    <tag k="TMC:cid_58:tabcd_1:Direction" v="positive"/>
    <tag k="TMC:cid_58:tabcd_1:LCLversion" v="8.00"/>
    <tag k="TMC:cid_58:tabcd_1:LocationCode" v="30651"/>
    <tag k="TMC:cid_58:tabcd_1:NextLocationCode" v="30609"/>
    <tag k="TMC:cid_58:tabcd_1:PrevLocationCode" v="30608"/>
  </node>
  <node id="69303360" version="2" timestamp="2007-10-22T19:16:34Z" uid="8328" user="benpre" changeset="285095" lat="48.7358263" lon="9.1647065"/>
  <node id="69304545" version="1" timestamp="2007-10-13T21:21:07Z" uid="6454" user="B10xxx" changeset="154656" lat="45.4324169" lon="12.3170621">
    <tag k="created_by" v="JOSM"/>
  </node>
  <node id="69304545" version="2" timestamp="2008-12-22T12:01:56Z" uid="83557" user="Esperanza36" changeset="558902" lat="45.4324169" lon="12.3170621"/>
  <node id="69304545" version="3" timestamp="2008-12-22T12:02:34Z" uid="83557" user="Esperanza36" changeset="558902" lat="45.4324169" lon="12.3170621"/>
  <node id="69304545" version="4" timestamp="2008-12-22T12:02:41Z" uid="83557" user="Esperanza36" changeset="558902" lat="45.4324169" lon="12.3170621"/>
  <node id="69304545" version="5" timestamp="2009-10-23T19:06:10Z" uid="17602" user="B10xyz" changeset="2932535" lat="45.4324459" lon="12.3170208"/>
  <node id="69304545" version="6" timestamp="2009-11-17T18:20:13Z" uid="17602" user="B10xyz" changeset="3143268" lat="45.4324459" lon="12.3170208"/>
  <node id="69304545" version="7" timestamp="2010-05-16T16:06:08Z" uid="17602" user="B10xyz" changeset="4718941" lat="45.4324625" lon="12.3170161"/>
  <node id="69304545" version="8" timestamp="2011-04-07T12:00:34Z" uid="175551" user="coso" changeset="7793947" lat="45.4324662" lon="12.3169772"/>
  <node id="69307096" version="1" timestamp="2007-10-13T21:23:21Z" uid="14179" user="oakland" changeset="168042" lat="38.7168251" lon="-9.1245877"/>
  <node id="69307096" version="2" timestamp="2007-10-20T16:35:02Z" uid="8328" user="benpre" changeset="267100" lat="38.7168251" lon="-9.1245877"/>
  <node id="69307097" version="1" timestamp="2007-10-13T21:23:21Z" uid="14179" user="oakland" changeset="168042" lat="38.7168251" lon="-9.1245877"/>
  <node id="69307097" version="2" timestamp="2007-10-20T16:35:04Z" uid="8328" user="benpre" changeset="267100" lat="38.7168251" lon="-9.1245877"/>
  <node id="69308953" version="2" timestamp="2008-06-20T21:26:52Z" uid="34428" user="usm78-gis" changeset="250112" lat="59.8661162" lon="29.9581421"/>
  <node id="69308953" version="3" timestamp="2009-11-04T12:33:53Z" uid="143266" user="Sergey Astakhov" changeset="3032430" lat="59.8661162" lon="29.9581421"/>
  <node id="69308954" version="2" timestamp="2008-06-20T21:26:52Z" uid="34428" user="usm78-gis" changeset="250112" lat="59.8686023" lon="29.9596699"/>
  <node id="69308954" version="3" timestamp="2009-11-04T12:33:53Z" uid="143266" user="Sergey Astakhov" changeset="3032430" lat="59.8686023" lon="29.9596699"/>
</osm>
