<?xml version='1.0' encoding='UTF-8'?>
<osm version="0.6" generator="libosmium/2.20.0">
  <node id="701468377" version="1" timestamp="2010-04-18T20:40:30Z" uid="115477" user="wowik" changeset="4462697" lat="57.2845574" lon="37.3666172">
    <tag k="name" v="Дудино"/>
    <tag k="place" v="hamlet"/>
  </node>
  <node id="701468377" version="2" timestamp="2010-11-23T19:31:16Z" uid="115477" user="wowik" changeset="6440035" lat="57.284838" lon="37.3665801">
    <tag k="name" v="Дудино"/>
    <tag k="place" v="hamlet"/>
  </node>
  <node id="701468377" version="3" timestamp="2012-01-26T21:11:06Z" uid="384084" user="Kostik" changeset="10507299" lat="57.284838" lon="37.3665801">
    <tag k="name" v="Дудино"/>
    <tag k="place" v="hamlet"/>
  </node>
  <node id="701468382" version="1" timestamp="2010-04-18T20:40:30Z" uid="115477" user="wowik" changeset="4462697" lat="57.2859258" lon="37.3584203">
    <tag k="name" v="Льгово"/>
    <tag k="place" v="hamlet"/>
  </node>
  <node id="701468382" version="2" timestamp="2010-07-12T16:41:41Z" uid="115477" user="wowik" changeset="5200555" lat="57.2903656" lon="37.3538139">
    <tag k="name" v="Льгово"/>
    <tag k="place" v="hamlet"/>
  </node>
  <node id="701468382" version="3" timestamp="2012-01-26T21:12:27Z" uid="384084" user="Kostik" changeset="10507299" lat="57.2903656" lon="37.3538139">
    <tag k="name" v="Льгово"/>
    <tag k="place" v="hamlet"/>
  </node>
  <node id="701468393" version="1" timestamp="2010-04-18T20:40:30Z" uid="115477" user="wowik" changeset="4462697" lat="57.2916078" lon="37.3467044">
    <tag k="name" v="Герасимово"/>
    <tag k="place" v="hamlet"/>
  </node>
  <node id="701468393" version="2" timestamp="2010-04-24T08:39:46Z" uid="30590" user="KekcuHa" changeset="4509869" lat="57.2916078" lon="37.3467044">
    <tag k="addr:country" v="RU"/>
    <tag k="addr:district" v="Молоковский район"/>
    <tag k="addr:postcode" v="171690"/>
    <tag k="addr:region" v="Тверская область"/>
    <tag k="cladr:code" v="6902100004000"/>
    <tag k="cladr:name" v="Герасимово"/>
    <tag k="cladr:suffix" v="Деревня"/>
    <tag k="name" v="Герасимово"/>
    <tag k="place" v="hamlet"/>
  </node>
  <node id="701468393" version="3" timestamp="2010-07-12T16:41:41Z" uid="115477" user="wowik" changeset="5200555" lat="57.2953028" lon="37.3454887">
    <tag k="addr:country" v="RU"/>
    <tag k="addr:district" v="Молоковский район"/>
    <tag k="addr:postcode" v="171690"/>
    <tag k="addr:region" v="Тверская область"/>
    <tag k="cladr:code" v="6902100004000"/>
    <tag k="cladr:name" v="Герасимово"/>
    <tag k="cladr:suffix" v="Деревня"/>
    <tag k="name" v="Герасимово"/>
    <tag k="place" v="hamlet"/>
  </node>
  <node id="701468393" version="4" timestamp="2011-08-09T05:14:02Z" uid="297358" user="patashnik" changeset="8963467" lat="57.2953028" lon="37.3454887">
    <tag k="addr:country" v="RU"/>
    <tag k="addr:district" v="Молоковский район"/>
    <tag k="addr:region" v="Тверская область"/>
    <tag k="cladr:code" v="6902100004000"/>
    <tag k="name" v="Герасимово"/>
    <tag k="place" v="hamlet"/>
  </node>
  <node id="701468439" version="1" timestamp="2010-04-18T20:40:31Z" uid="115477" user="wowik" changeset="4462697" lat="57.2851604" lon="37.3663597"/>
  <node id="701468455" version="1" timestamp="2010-04-18T20:40:31Z" uid="115477" user="wowik" changeset="4462697" lat="57.2862969" lon="37.3652439"/>
  <node id="701468455" version="2" timestamp="2010-11-23T19:31:16Z" uid="115477" user="wowik" changeset="6440035" lat="57.285886" lon="37.3654293"/>
  <node id="701468464" version="1" timestamp="2010-04-18T20:40:31Z" uid="115477" user="wowik" changeset="4462697" lat="57.2871782" lon="37.3644714"/>
  <node id="701468490" version="1" timestamp="2010-04-18T20:40:31Z" uid="115477" user="wowik" changeset="4462697" lat="57.2868535" lon="37.3622827"/>
  <node id="701468490" version="2" timestamp="2010-05-24T20:48:12Z" uid="94786" user="glebius" changeset="4798473" lat="57.2868909" lon="37.3618853"/>
  <node id="701468502" version="1" timestamp="2010-04-18T20:40:31Z" uid="115477" user="wowik" changeset="4462697" lat="57.2875493" lon="37.3618965"/>
  <node id="701468502" version="2" timestamp="2010-05-24T20:47:58Z" uid="94786" user="glebius" changeset="4798473" lat="57.2874933" lon="37.361741"/>
  <node id="701468502" version="3" timestamp="2010-11-24T11:28:56Z" uid="115477" user="wowik" changeset="6446004" lat="57.2875524" lon="37.361741"/>
  <node id="701468530" version="1" timestamp="2010-04-18T20:40:32Z" uid="115477" user="wowik" changeset="4462697" lat="57.2851836" lon="37.3585062"/>
  <node id="701468530" version="2" timestamp="2010-05-24T20:47:58Z" uid="94786" user="glebius" changeset="4798473" lat="57.285169" lon="37.3579662"/>
</osm>
