<?xml version='1.0' encoding='UTF-8'?>
<osm version="0.6" generator="libosmium/2.20.0">
  <node id="701413557" version="2" timestamp="2010-11-19T18:01:11Z" uid="9581" user="Lobelt" changeset="6408925" lat="49.4024441" lon="8.446283"/>
  <node id="701413557" version="3" timestamp="2012-01-30T22:05:50Z" uid="183436" user="mtb" changeset="10544474" lat="49.4024441" lon="8.446283">
    <tag k="odbl" v="clean"/>
  </node>
  <node id="701413559" version="2" timestamp="2010-11-19T18:01:15Z" uid="9581" user="Lobelt" changeset="6408925" lat="49.4052913" lon="8.4437578"/>
  <node id="701413559" version="3" timestamp="2012-02-03T17:51:02Z" uid="183436" user="mtb" changeset="10577554" lat="49.4052913" lon="8.4437578">
    <tag k="odbl" v="clean"/>
  </node>
  <node id="701413559" version="4" timestamp="2012-03-13T22:17:14Z" uid="42429" user="FK270673" changeset="10972796" lat="49.4052872" lon="8.4437516">
    <tag k="odbl" v="clean"/>
  </node>
  <node id="701413561" version="2" timestamp="2010-11-19T18:01:34Z" uid="9581" user="Lobelt" changeset="6408925" lat="49.4038257" lon="8.4449721"/>
  <node id="701413561" version="3" timestamp="2012-02-03T17:51:02Z" uid="183436" user="mtb" changeset="10577554" lat="49.4038257" lon="8.4449721">
    <tag k="odbl" v="clean"/>
  </node>
  <node id="701416556" version="1" timestamp="2010-04-18T19:43:41Z" uid="115477" user="wowik" changeset="4461195" lat="57.3400001" lon="37.2542333">
    <tag k="name" v="Егорьево"/>
    <tag k="place" v="hamlet"/>
  </node>
  <node id="701416556" version="2" timestamp="2010-04-23T11:24:42Z" uid="115477" user="wowik" changeset="4502725" lat="57.3401078" lon="37.2562252">
    <tag k="name" v="Егорьево"/>
    <tag k="place" v="hamlet"/>
  </node>
  <node id="701416556" version="3" timestamp="2010-11-22T17:06:08Z" uid="115477" user="wowik" changeset="6432391" lat="57.3401078" lon="37.2562252">
    <tag k="name" v="Егорьево"/>
    <tag k="place" v="locality"/>
    <tag k="source" v="Менде"/>
  </node>
  <node id="701416556" version="4" timestamp="2012-01-26T21:11:12Z" uid="384084" user="Kostik" changeset="10507299" lat="57.3401078" lon="37.2562252">
    <tag k="name" v="Егорьево"/>
    <tag k="place" v="locality"/>
    <tag k="source" v="Менде"/>
  </node>
  <node id="701416568" version="1" timestamp="2010-04-18T19:43:41Z" uid="115477" user="wowik" changeset="4461195" lat="57.3601896" lon="37.2676229">
    <tag k="name" v="Ивина горка"/>
    <tag k="place" v="hamlet"/>
  </node>
  <node id="701416568" version="2" timestamp="2010-11-22T17:06:07Z" uid="115477" user="wowik" changeset="6432391" lat="57.3610718" lon="37.2706262">
    <tag k="name" v="Ивина Горка"/>
    <tag k="place" v="hamlet"/>
  </node>
  <node id="701416568" version="3" timestamp="2010-11-23T10:34:40Z" uid="115477" user="wowik" changeset="6438394" lat="57.3610719" lon="37.2706261">
    <tag k="name" v="Ивина Горка"/>
    <tag k="place" v="locality"/>
  </node>
  <node id="701416568" version="4" timestamp="2010-11-23T11:34:28Z" uid="115477" user="wowik" changeset="6438744" lat="57.3610719" lon="37.2706261">
    <tag k="name" v="Ивина Горка"/>
    <tag k="place" v="hamlet"/>
  </node>
  <node id="701416568" version="5" timestamp="2012-01-26T21:11:32Z" uid="384084" user="Kostik" changeset="10507299" lat="57.3610719" lon="37.2706261">
    <tag k="name" v="Ивина Горка"/>
    <tag k="place" v="hamlet"/>
  </node>
  <node id="701416580" version="1" timestamp="2010-04-18T19:43:42Z" uid="115477" user="wowik" changeset="4461195" lat="57.3462989" lon="37.3246145">
    <tag k="name" v="Кобылино"/>
    <tag k="place" v="hamlet"/>
  </node>
  <node id="701416580" version="2" timestamp="2010-04-18T20:04:39Z" uid="115477" user="wowik" changeset="4462361" lat="57.3462989" lon="37.3246144">
    <tag k="name" v="Большое Кобылино"/>
    <tag k="place" v="hamlet"/>
  </node>
  <node id="701416580" version="3" timestamp="2010-04-23T14:01:07Z" uid="115477" user="wowik" changeset="4503855" lat="57.3452568" lon="37.3284241">
    <tag k="name" v="Большое Кобылино"/>
    <tag k="place" v="hamlet"/>
  </node>
  <node id="701416580" version="4" timestamp="2010-11-22T17:06:14Z" uid="115477" user="wowik" changeset="6432391" lat="57.3465445" lon="37.3249448">
    <tag k="name" v="Большое Кобылино"/>
    <tag k="place" v="locality"/>
  </node>
  <node id="701416580" version="5" timestamp="2012-01-26T21:10:00Z" uid="384084" user="Kostik" changeset="10507299" lat="57.3465445" lon="37.3249448">
    <tag k="name" v="Большое Кобылино"/>
    <tag k="place" v="locality"/>
  </node>
  <node id="701416594" version="1" timestamp="2010-04-18T19:43:43Z" uid="115477" user="wowik" changeset="4461195" lat="57.3367577" lon="37.1912336">
    <tag k="name" v="Тросухино"/>
    <tag k="place" v="hamlet"/>
  </node>
  <node id="701416594" version="2" timestamp="2010-04-24T08:39:46Z" uid="30590" user="KekcuHa" changeset="4509869" lat="57.3367577" lon="37.1912336">
    <tag k="addr:city" v="Славковское сельское поселение"/>
    <tag k="addr:country" v="RU"/>
    <tag k="addr:district" v="Кашинский район"/>
    <tag k="addr:postcode" v="171623"/>
    <tag k="addr:region" v="Тверская область"/>
    <tag k="cladr:code" v="6901201502400"/>
    <tag k="cladr:name" v="Тросухино"/>
    <tag k="cladr:suffix" v="Деревня"/>
    <tag k="name" v="Тросухино"/>
    <tag k="place" v="hamlet"/>
  </node>
  <node id="701416594" version="3" timestamp="2010-05-25T10:33:07Z" uid="115477" user="wowik" changeset="4802065" lat="57.3388047" lon="37.1912507">
    <tag k="addr:city" v="Славковское сельское поселение"/>
    <tag k="addr:country" v="RU"/>
    <tag k="addr:district" v="Кашинский район"/>
    <tag k="addr:postcode" v="171623"/>
    <tag k="addr:region" v="Тверская область"/>
    <tag k="cladr:code" v="6901201502400"/>
    <tag k="cladr:name" v="Тросухино"/>
    <tag k="cladr:suffix" v="Деревня"/>
    <tag k="name" v="Тросухино"/>
    <tag k="place" v="hamlet"/>
  </node>
  <node id="701416594" version="4" timestamp="2010-07-12T16:38:18Z" uid="115477" user="wowik" changeset="5200519" lat="57.3392643" lon="37.1915437">
    <tag k="addr:city" v="Славковское сельское поселение"/>
    <tag k="addr:country" v="RU"/>
    <tag k="addr:district" v="Кашинский район"/>
    <tag k="addr:postcode" v="171623"/>
    <tag k="addr:region" v="Тверская область"/>
    <tag k="cladr:code" v="6901201502400"/>
    <tag k="cladr:name" v="Тросухино"/>
    <tag k="cladr:suffix" v="Деревня"/>
    <tag k="name" v="Тросухино"/>
    <tag k="place" v="hamlet"/>
  </node>
  <node id="701416594" version="5" timestamp="2010-11-23T16:50:04Z" uid="115477" user="wowik" changeset="6440035" lat="57.3400035" lon="37.1784216">
    <tag k="addr:city" v="Славковское сельское поселение"/>
    <tag k="addr:country" v="RU"/>
    <tag k="addr:district" v="Кашинский район"/>
    <tag k="addr:postcode" v="171623"/>
    <tag k="addr:region" v="Тверская область"/>
    <tag k="cladr:code" v="6901201502400"/>
    <tag k="cladr:name" v="Тросухино"/>
    <tag k="cladr:suffix" v="Деревня"/>
    <tag k="name" v="Тросухино"/>
    <tag k="place" v="hamlet"/>
  </node>
  <node id="701416594" version="6" timestamp="2011-08-09T05:13:58Z" uid="297358" user="patashnik" changeset="8963467" lat="57.3400035" lon="37.1784216">
    <tag k="addr:city" v="Славковское сельское поселение"/>
    <tag k="addr:country" v="RU"/>
    <tag k="addr:district" v="Кашинский район"/>
    <tag k="addr:region" v="Тверская область"/>
    <tag k="cladr:code" v="6901201502400"/>
    <tag k="name" v="Тросухино"/>
    <tag k="place" v="hamlet"/>
  </node>
  <node id="701416612" version="1" timestamp="2010-04-18T19:43:44Z" uid="115477" user="wowik" changeset="4461195" lat="57.3589859" lon="37.1987867">
    <tag k="name" v="Юрлоково"/>
    <tag k="place" v="hamlet"/>
  </node>
  <node id="701416612" version="2" timestamp="2010-11-22T17:06:17Z" uid="115477" user="wowik" changeset="6432391" lat="57.3595961" lon="37.2050715">
    <tag k="name" v="Юрчаково"/>
    <tag k="place" v="hamlet"/>
  </node>
  <node id="701416612" version="3" timestamp="2011-02-01T15:37:23Z" uid="115477" user="wowik" changeset="7155836" lat="57.3595961" lon="37.2050715">
    <tag k="name" v="Юрчаково"/>
    <tag k="place" v="locality"/>
  </node>
  <node id="701416612" version="4" timestamp="2012-01-26T21:15:16Z" uid="384084" user="Kostik" changeset="10507299" lat="57.3595961" lon="37.2050715">
    <tag k="name" v="Юрчаково"/>
    <tag k="place" v="locality"/>
  </node>
  <node id="701416675" version="1" timestamp="2010-04-18T19:43:48Z" uid="115477" user="wowik" changeset="4461195" lat="57.3358312" lon="37.3872709">
    <tag k="name" v="Турово"/>
    <tag k="place" v="hamlet"/>
  </node>
  <node id="701416675" version="2" timestamp="2010-04-23T14:17:33Z" uid="115477" user="wowik" changeset="4503964" lat="57.3358097" lon="37.3859778">
    <tag k="name" v="Турово"/>
    <tag k="place" v="hamlet"/>
  </node>
  <node id="701416675" version="3" timestamp="2010-11-22T17:17:27Z" uid="115477" user="wowik" changeset="6432391" lat="57.3357229" lon="37.3850393">
    <tag k="name" v="Турово"/>
    <tag k="place" v="hamlet"/>
  </node>
  <node id="701416675" version="4" timestamp="2012-01-26T21:14:32Z" uid="384084" user="Kostik" changeset="10507299" lat="57.3357229" lon="37.3850393">
    <tag k="name" v="Турово"/>
    <tag k="place" v="hamlet"/>
  </node>
  <node id="701416697" version="1" timestamp="2010-04-18T19:43:49Z" uid="115477" user="wowik" changeset="4461195" lat="57.3479661" lon="37.4135351">
    <tag k="name" v="Покровское"/>
    <tag k="place" v="hamlet"/>
  </node>
  <node id="701416697" version="2" timestamp="2010-11-22T17:19:00Z" uid="115477" user="wowik" changeset="6432391" lat="57.3476496" lon="37.4136189">
    <tag k="name" v="Покровское"/>
    <tag k="place" v="hamlet"/>
  </node>
  <node id="701416697" version="3" timestamp="2012-01-26T21:13:23Z" uid="384084" user="Kostik" changeset="10507299" lat="57.3476496" lon="37.4136189">
    <tag k="name" v="Покровское"/>
    <tag k="place" v="hamlet"/>
  </node>
  <node id="701416716" version="1" timestamp="2010-04-18T19:43:49Z" uid="115477" user="wowik" changeset="4461195" lat="57.3734271" lon="37.4525022">
    <tag k="name" v="Архангельское"/>
    <tag k="place" v="hamlet"/>
  </node>
  <node id="701416716" version="2" timestamp="2010-11-24T15:51:56Z" uid="115477" user="wowik" changeset="6446894" lat="57.3736115" lon="37.4521792">
    <tag k="name" v="Архангельское"/>
    <tag k="place" v="hamlet"/>
  </node>
  <node id="701416716" version="3" timestamp="2011-02-15T18:27:52Z" uid="115477" user="wowik" changeset="7297462" lat="57.3709521" lon="37.4457994">
    <tag k="name" v="Архангельское"/>
    <tag k="place" v="hamlet"/>
  </node>
  <node id="701416716" version="4" timestamp="2012-01-26T21:09:40Z" uid="384084" user="Kostik" changeset="10507299" lat="57.3709521" lon="37.4457994">
    <tag k="name" v="Архангельское"/>
    <tag k="place" v="hamlet"/>
  </node>
  <node id="701416736" version="1" timestamp="2010-04-18T19:43:51Z" uid="115477" user="wowik" changeset="4461195" lat="57.2785301" lon="37.4121618">
    <tag k="name" v="Леушино"/>
    <tag k="place" v="hamlet"/>
  </node>
  <node id="701416736" version="2" timestamp="2010-04-28T14:47:55Z" uid="115477" user="wowik" changeset="4550146" lat="57.2804835" lon="37.4134719">
    <tag k="name" v="Леушино"/>
    <tag k="place" v="hamlet"/>
  </node>
  <node id="701416736" version="3" timestamp="2010-07-12T16:52:02Z" uid="115477" user="wowik" changeset="5200650" lat="57.2806889" lon="37.4140418">
    <tag k="name" v="Леушино"/>
    <tag k="place" v="hamlet"/>
  </node>
  <node id="701416736" version="4" timestamp="2012-01-26T21:12:19Z" uid="384084" user="Kostik" changeset="10507299" lat="57.2806889" lon="37.4140418">
    <tag k="name" v="Леушино"/>
    <tag k="place" v="hamlet"/>
  </node>
  <node id="701416751" version="1" timestamp="2010-04-18T19:43:51Z" uid="115477" user="wowik" changeset="4461195" lat="57.265444" lon="37.4255514">
    <tag k="name" v="Судников"/>
    <tag k="place" v="hamlet"/>
  </node>
  <node id="701416751" version="2" timestamp="2010-07-12T16:41:39Z" uid="115477" user="wowik" changeset="5200555" lat="57.265444" lon="37.4255514">
    <tag k="name" v="Судниково"/>
    <tag k="place" v="hamlet"/>
  </node>
  <node id="701416751" version="3" timestamp="2010-07-19T16:11:19Z" uid="115477" user="wowik" changeset="5262509" lat="57.2648533" lon="37.4254074">
    <tag k="name" v="Судниково"/>
    <tag k="place" v="hamlet"/>
  </node>
  <node id="701416751" version="4" timestamp="2012-01-26T21:14:19Z" uid="384084" user="Kostik" changeset="10507299" lat="57.2648533" lon="37.4254074">
    <tag k="name" v="Судниково"/>
    <tag k="place" v="hamlet"/>
  </node>
  <node id="701416772" version="1" timestamp="2010-04-18T19:43:52Z" uid="115477" user="wowik" changeset="4461195" lat="57.3618561" lon="37.4210882">
    <tag k="name" v="Фроловское"/>
    <tag k="place" v="hamlet"/>
  </node>
  <node id="701416772" version="2" timestamp="2010-04-24T08:39:47Z" uid="30590" user="KekcuHa" changeset="4509869" lat="57.3618561" lon="37.4210882">
    <tag k="addr:city" v="Давыдовское сельское поселение"/>
    <tag k="addr:country" v="RU"/>
    <tag k="addr:district" v="Кашинский район"/>
    <tag k="addr:postcode" v="171610"/>
    <tag k="addr:region" v="Тверская область"/>
    <tag k="cladr:code" v="6901200703600"/>
    <tag k="cladr:name" v="Фроловское"/>
    <tag k="cladr:suffix" v="Деревня"/>
    <tag k="name" v="Фроловское"/>
    <tag k="place" v="hamlet"/>
  </node>
  <node id="701416772" version="3" timestamp="2011-08-09T05:13:58Z" uid="297358" user="patashnik" changeset="8963467" lat="57.3618561" lon="37.4210882">
    <tag k="addr:city" v="Давыдовское сельское поселение"/>
    <tag k="addr:country" v="RU"/>
    <tag k="addr:district" v="Кашинский район"/>
    <tag k="addr:region" v="Тверская область"/>
    <tag k="cladr:code" v="6901200703600"/>
    <tag k="name" v="Фроловское"/>
    <tag k="place" v="hamlet"/>
  </node>
  <node id="701416792" version="1" timestamp="2010-04-18T19:43:53Z" uid="115477" user="wowik" changeset="4461195" lat="57.2768134" lon="37.4082136"/>
  <node id="701416797" version="1" timestamp="2010-04-18T19:43:53Z" uid="115477" user="wowik" changeset="4461195" lat="57.2781629" lon="37.4107096"/>
  <node id="701416848" version="1" timestamp="2010-04-18T19:43:55Z" uid="115477" user="wowik" changeset="4461195" lat="57.280989" lon="37.3966264"/>
  <node id="701416858" version="1" timestamp="2010-04-18T19:43:55Z" uid="115477" user="wowik" changeset="4461195" lat="57.2782981" lon="37.4014329"/>
  <node id="701416858" version="2" timestamp="2010-05-24T20:47:59Z" uid="94786" user="glebius" changeset="4798473" lat="57.2782625" lon="37.4010703"/>
  <node id="701416868" version="1" timestamp="2010-04-18T19:43:56Z" uid="115477" user="wowik" changeset="4461195" lat="57.2759592" lon="37.4043919"/>
  <node id="701416891" version="1" timestamp="2010-04-18T19:43:57Z" uid="115477" user="wowik" changeset="4461195" lat="57.2729621" lon="37.3917341"/>
  <node id="701416911" version="1" timestamp="2010-04-18T19:43:58Z" uid="115477" user="wowik" changeset="4461195" lat="57.2732869" lon="37.3909616"/>
  <node id="701416923" version="1" timestamp="2010-04-18T19:43:59Z" uid="115477" user="wowik" changeset="4461195" lat="57.2733797" lon="37.3901033"/>
  <node id="701416979" version="1" timestamp="2010-04-18T19:43:59Z" uid="115477" user="wowik" changeset="4461195" lat="57.2738902" lon="37.389245"/>
  <node id="701416989" version="1" timestamp="2010-04-18T19:44:02Z" uid="115477" user="wowik" changeset="4461195" lat="57.2744934" lon="37.389245"/>
  <node id="701417002" version="1" timestamp="2010-04-18T19:44:03Z" uid="115477" user="wowik" changeset="4461195" lat="57.2751894" lon="37.3889017"/>
  <node id="701417016" version="1" timestamp="2010-04-18T19:44:03Z" uid="115477" user="wowik" changeset="4461195" lat="57.275607" lon="37.3879575"/>
  <node id="701417022" version="1" timestamp="2010-04-18T19:44:04Z" uid="115477" user="wowik" changeset="4461195" lat="57.2762566" lon="37.3872709"/>
  <node id="701417032" version="1" timestamp="2010-04-18T19:44:04Z" uid="115477" user="wowik" changeset="4461195" lat="57.2770918" lon="37.3857259"/>
  <node id="701417042" version="1" timestamp="2010-04-18T19:44:05Z" uid="115477" user="wowik" changeset="4461195" lat="57.2784837" lon="37.3819494"/>
  <node id="701417053" version="1" timestamp="2010-04-18T19:44:05Z" uid="115477" user="wowik" changeset="4461195" lat="57.279226" lon="37.3800611"/>
  <node id="701417062" version="1" timestamp="2010-04-18T19:44:06Z" uid="115477" user="wowik" changeset="4461195" lat="57.2799219" lon="37.3793744"/>
  <node id="701417069" version="1" timestamp="2010-04-18T19:44:06Z" uid="115477" user="wowik" changeset="4461195" lat="57.2803395" lon="37.3787736"/>
  <node id="701417122" version="1" timestamp="2010-04-18T19:44:09Z" uid="115477" user="wowik" changeset="4461195" lat="57.3241094" lon="37.2865056"/>
  <node id="701417146" version="1" timestamp="2010-04-18T19:44:09Z" uid="115477" user="wowik" changeset="4461195" lat="57.3245727" lon="37.2904539"/>
  <node id="701417155" version="1" timestamp="2010-04-18T19:44:09Z" uid="115477" user="wowik" changeset="4461195" lat="57.3241557" lon="37.2923421"/>
  <node id="701417164" version="1" timestamp="2010-04-18T19:44:10Z" uid="115477" user="wowik" changeset="4461195" lat="57.3241557" lon="37.2958612"/>
  <node id="701417177" version="1" timestamp="2010-04-18T19:44:10Z" uid="115477" user="wowik" changeset="4461195" lat="57.3242484" lon="37.2976636"/>
  <node id="701417184" version="1" timestamp="2010-04-18T19:44:11Z" uid="115477" user="wowik" changeset="4461195" lat="57.3254995" lon="37.2992944"/>
  <node id="701417191" version="1" timestamp="2010-04-18T19:44:11Z" uid="115477" user="wowik" changeset="4461195" lat="57.3264262" lon="37.3010969"/>
  <node id="701417197" version="1" timestamp="2010-04-18T19:44:11Z" uid="115477" user="wowik" changeset="4461195" lat="57.3266116" lon="37.3026418"/>
  <node id="701417240" version="1" timestamp="2010-04-18T19:44:13Z" uid="115477" user="wowik" changeset="4461195" lat="57.3272139" lon="37.3039293"/>
  <node id="701417245" version="1" timestamp="2010-04-18T19:44:13Z" uid="115477" user="wowik" changeset="4461195" lat="57.3286503" lon="37.3059034"/>
  <node id="701417290" version="1" timestamp="2010-04-18T19:44:15Z" uid="115477" user="wowik" changeset="4461195" lat="57.3291136" lon="37.3068475"/>
  <node id="701417296" version="1" timestamp="2010-04-18T19:44:16Z" uid="115477" user="wowik" changeset="4461195" lat="57.3296696" lon="37.3095083"/>
  <node id="701417305" version="1" timestamp="2010-04-18T19:44:16Z" uid="115477" user="wowik" changeset="4461195" lat="57.3311985" lon="37.3107957"/>
  <node id="701417314" version="1" timestamp="2010-04-18T19:44:16Z" uid="115477" user="wowik" changeset="4461195" lat="57.3318935" lon="37.3119974"/>
  <node id="701417326" version="1" timestamp="2010-04-18T19:44:17Z" uid="115477" user="wowik" changeset="4461195" lat="57.3324957" lon="37.3165464"/>
  <node id="701417371" version="1" timestamp="2010-04-18T19:44:19Z" uid="115477" user="wowik" changeset="4461195" lat="57.2804787" lon="37.4092864"/>
  <node id="701417419" version="1" timestamp="2010-04-18T19:44:20Z" uid="115477" user="wowik" changeset="4461195" lat="57.2783213" lon="37.4054241"/>
  <node id="701417429" version="1" timestamp="2010-04-18T19:44:22Z" uid="115477" user="wowik" changeset="4461195" lat="57.2777413" lon="37.4033641"/>
  <node id="701417435" version="1" timestamp="2010-04-18T19:44:23Z" uid="115477" user="wowik" changeset="4461195" lat="57.2767902" lon="37.4026346"/>
  <node id="701417447" version="1" timestamp="2010-04-18T19:44:23Z" uid="115477" user="wowik" changeset="4461195" lat="57.275143" lon="37.4020767"/>
  <node id="701417458" version="1" timestamp="2010-04-18T19:44:23Z" uid="115477" user="wowik" changeset="4461195" lat="57.274099" lon="37.4005746"/>
  <node id="701417469" version="1" timestamp="2010-04-18T19:44:24Z" uid="115477" user="wowik" changeset="4461195" lat="57.27215" lon="37.3979139"/>
  <node id="701417478" version="1" timestamp="2010-04-18T19:44:24Z" uid="115477" user="wowik" changeset="4461195" lat="57.271918" lon="37.397356"/>
  <node id="701417488" version="1" timestamp="2010-04-18T19:44:25Z" uid="115477" user="wowik" changeset="4461195" lat="57.2716628" lon="37.3966264"/>
  <node id="701417495" version="1" timestamp="2010-04-18T19:44:25Z" uid="115477" user="wowik" changeset="4461195" lat="57.2714076" lon="37.3965406"/>
  <node id="701417509" version="1" timestamp="2010-04-18T19:44:26Z" uid="115477" user="wowik" changeset="4461195" lat="57.2711755" lon="37.3969697"/>
  <node id="701417523" version="1" timestamp="2010-04-18T19:44:26Z" uid="115477" user="wowik" changeset="4461195" lat="57.2710827" lon="37.3965835"/>
  <node id="701417531" version="1" timestamp="2010-04-18T19:44:26Z" uid="115477" user="wowik" changeset="4461195" lat="57.2711059" lon="37.3961973"/>
  <node id="701417540" version="1" timestamp="2010-04-18T19:44:27Z" uid="115477" user="wowik" changeset="4461195" lat="57.2709435" lon="37.3961543"/>
  <node id="701417545" version="1" timestamp="2010-04-18T19:44:27Z" uid="115477" user="wowik" changeset="4461195" lat="57.2707115" lon="37.3966264"/>
  <node id="701417549" version="1" timestamp="2010-04-18T19:44:27Z" uid="115477" user="wowik" changeset="4461195" lat="57.2706187" lon="37.396326"/>
  <node id="701417558" version="1" timestamp="2010-04-18T19:44:28Z" uid="115477" user="wowik" changeset="4461195" lat="57.2704794" lon="37.3959398"/>
  <node id="701417563" version="1" timestamp="2010-04-18T19:44:28Z" uid="115477" user="wowik" changeset="4461195" lat="57.2701546" lon="37.3971414"/>
  <node id="701417569" version="1" timestamp="2010-04-18T19:44:28Z" uid="115477" user="wowik" changeset="4461195" lat="57.269409" lon="37.397916"/>
  <node id="701417678" version="1" timestamp="2010-04-18T19:44:31Z" uid="115477" user="wowik" changeset="4461195" lat="57.2643301" lon="37.426753"/>
  <node id="701417678" version="2" timestamp="2010-05-24T20:48:15Z" uid="94786" user="glebius" changeset="4798473" lat="57.2644691" lon="37.4260767"/>
  <node id="701417701" version="1" timestamp="2010-04-18T19:44:31Z" uid="115477" user="wowik" changeset="4461195" lat="57.2669292" lon="37.4265813"/>
  <node id="701417701" version="2" timestamp="2010-05-24T20:48:05Z" uid="94786" user="glebius" changeset="4798473" lat="57.2668401" lon="37.4266643"/>
  <node id="701417725" version="1" timestamp="2010-04-18T19:44:32Z" uid="115477" user="wowik" changeset="4461195" lat="57.2694353" lon="37.4279546"/>
  <node id="701417725" version="2" timestamp="2010-04-18T20:49:04Z" uid="115477" user="wowik" changeset="4462697" lat="57.2694353" lon="37.4279546"/>
  <node id="701417725" version="3" timestamp="2010-05-24T20:48:15Z" uid="94786" user="glebius" changeset="4798473" lat="57.2693006" lon="37.4280798"/>
  <node id="701417746" version="1" timestamp="2010-04-18T19:44:32Z" uid="115477" user="wowik" changeset="4461195" lat="57.2711987" lon="37.4157667"/>
  <node id="701417746" version="2" timestamp="2010-05-24T20:47:58Z" uid="94786" user="glebius" changeset="4798473" lat="57.2711096" lon="37.4154701"/>
  <node id="701417767" version="1" timestamp="2010-04-18T19:44:32Z" uid="115477" user="wowik" changeset="4461195" lat="57.2713844" lon="37.4144792"/>
  <node id="701417767" version="2" timestamp="2010-05-24T20:47:54Z" uid="94786" user="glebius" changeset="4798473" lat="57.2712953" lon="37.4141826"/>
  <node id="701417776" version="1" timestamp="2010-04-18T19:44:33Z" uid="115477" user="wowik" changeset="4461195" lat="57.2750966" lon="37.4058961"/>
  <node id="701417776" version="2" timestamp="2010-05-24T20:47:53Z" uid="94786" user="glebius" changeset="4798473" lat="57.2750075" lon="37.4055995"/>
  <node id="701417861" version="1" timestamp="2010-04-18T19:44:34Z" uid="115477" user="wowik" changeset="4461195" lat="57.2744006" lon="37.3798036"/>
  <node id="701417956" version="1" timestamp="2010-04-18T19:44:35Z" uid="115477" user="wowik" changeset="4461195" lat="57.2737045" lon="37.3829793"/>
  <node id="701417963" version="1" timestamp="2010-04-18T19:44:38Z" uid="115477" user="wowik" changeset="4461195" lat="57.2732869" lon="37.3842668"/>
  <node id="701417978" version="1" timestamp="2010-04-18T19:44:38Z" uid="115477" user="wowik" changeset="4461195" lat="57.2733333" lon="37.3857259"/>
  <node id="701417989" version="1" timestamp="2010-04-18T19:44:39Z" uid="115477" user="wowik" changeset="4461195" lat="57.2729621" lon="37.387185"/>
  <node id="701417997" version="1" timestamp="2010-04-18T19:44:39Z" uid="115477" user="wowik" changeset="4461195" lat="57.2727301" lon="37.38976"/>
  <node id="701418003" version="1" timestamp="2010-04-18T19:44:40Z" uid="115477" user="wowik" changeset="4461195" lat="57.2722196" lon="37.3934507"/>
  <node id="701418038" version="1" timestamp="2010-04-18T19:44:41Z" uid="115477" user="wowik" changeset="4461195" lat="57.2728229" lon="37.377572"/>
  <node id="701418045" version="1" timestamp="2010-04-18T19:44:42Z" uid="115477" user="wowik" changeset="4461195" lat="57.2723125" lon="37.382121"/>
  <node id="701418048" version="1" timestamp="2010-04-18T19:44:42Z" uid="115477" user="wowik" changeset="4461195" lat="57.2714308" lon="37.3869276"/>
  <node id="701418054" version="1" timestamp="2010-04-18T19:44:42Z" uid="115477" user="wowik" changeset="4461195" lat="57.2716628" lon="37.38976"/>
  <node id="701418056" version="1" timestamp="2010-04-18T19:44:43Z" uid="115477" user="wowik" changeset="4461195" lat="57.2719876" lon="37.395339"/>
  <node id="701418062" version="1" timestamp="2010-04-18T19:44:43Z" uid="115477" user="wowik" changeset="4461195" lat="57.2724981" lon="37.3976564"/>
  <node id="701418071" version="1" timestamp="2010-04-18T19:44:43Z" uid="115477" user="wowik" changeset="4461195" lat="57.2734725" lon="37.4005746"/>
  <node id="701418079" version="1" timestamp="2010-04-18T19:44:44Z" uid="115477" user="wowik" changeset="4461195" lat="57.2740758" lon="37.4018621"/>
  <node id="701418093" version="1" timestamp="2010-04-18T19:44:44Z" uid="115477" user="wowik" changeset="4461195" lat="57.274911" lon="37.4027204"/>
  <node id="701418133" version="1" timestamp="2010-04-18T19:44:46Z" uid="115477" user="wowik" changeset="4461195" lat="57.2768598" lon="37.4132776"/>
</osm>
