<?xml version='1.0' encoding='UTF-8'?>
<osm version="0.6" generator="libosmium/2.20.0">
  <node id="703422210" version="1" timestamp="2010-04-21T19:25:59Z" uid="185286" user="rcpao" changeset="4489879" lat="33.5566564" lon="-117.704738">
    <tag k="amenity" v="school"/>
    <tag k="name" v="Laguna Niguel Elementary School"/>
  </node>
  <node id="703424162" version="1" timestamp="2010-04-21T19:29:00Z" uid="185286" user="rcpao" changeset="4489879" lat="33.5578097" lon="-117.7098664">
    <tag k="name" v="Ralphs"/>
    <tag k="shop" v="supermarket"/>
  </node>
  <node id="703424162" version="2" timestamp="2010-06-25T02:59:01Z" uid="82317" user="AM909" changeset="5070744" lat="33.5579207" lon="-117.7097905">
    <tag k="name" v="Ralphs"/>
    <tag k="shop" v="supermarket"/>
  </node>
  <node id="703424420" version="1" timestamp="2010-04-21T19:29:51Z" uid="185286" user="rcpao" changeset="4489879" lat="33.5561021" lon="-117.7092334">
    <tag k="amenity" v="fast_food"/>
    <tag k="name" v="Carl&apos;s Jr."/>
  </node>
  <node id="703424667" version="1" timestamp="2010-04-21T19:30:21Z" uid="185286" user="rcpao" changeset="4489879" lat="33.5565759" lon="-117.7089759">
    <tag k="amenity" v="pharmacy"/>
    <tag k="name" v="Walgreens"/>
  </node>
  <node id="703424667" version="2" timestamp="2010-06-25T02:59:00Z" uid="82317" user="AM909" changeset="5070744" lat="33.5566795" lon="-117.7088916">
    <tag k="amenity" v="pharmacy"/>
    <tag k="dispensing" v="yes"/>
    <tag k="name" v="Walgreens"/>
    <tag k="shop" v="chemist;stationery;convenience"/>
    <tag k="source" v="usgs_imagery_2007;survey;image"/>
  </node>
  <node id="703425887" version="1" timestamp="2010-04-21T19:33:29Z" uid="185286" user="rcpao" changeset="4489879" lat="33.5582568" lon="-117.7051994">
    <tag k="amenity" v="pub"/>
    <tag k="name" v="Niguel Heights Park"/>
    <tag k="tourism" v="picnic_site"/>
  </node>
  <node id="703427254" version="1" timestamp="2010-04-21T19:35:47Z" uid="185286" user="rcpao" changeset="4489879" lat="33.556263" lon="-117.7119156">
    <tag k="amenity" v="gym"/>
    <tag k="name" v="24 Hour Fitness"/>
  </node>
  <node id="703427992" version="1" timestamp="2010-04-21T19:37:13Z" uid="185286" user="rcpao" changeset="4489879" lat="33.5590882" lon="-117.7090725">
    <tag k="amenity" v="city hall"/>
    <tag k="name" v="Laguna Niguel City Hall"/>
  </node>
  <node id="703427992" version="2" timestamp="2010-06-25T02:59:05Z" uid="82317" user="AM909" changeset="5070744" lat="33.5590882" lon="-117.709073">
    <tag k="amenity" v="townhall"/>
    <tag k="name" v="Laguna Niguel City Hall"/>
  </node>
  <node id="703428221" version="1" timestamp="2010-04-21T19:38:18Z" uid="185286" user="rcpao" changeset="4489879" lat="33.5634511" lon="-117.7060577">
    <tag k="amenity" v="school"/>
    <tag k="name" v="Tutor Time"/>
  </node>
  <node id="703428296" version="1" timestamp="2010-04-21T19:38:50Z" uid="185286" user="rcpao" changeset="4489879" lat="33.5648904" lon="-117.7073881">
    <tag k="amenity" v="fast_food"/>
    <tag k="name" v="In N Out"/>
  </node>
  <node id="703428296" version="2" timestamp="2011-03-08T18:00:42Z" uid="101657" user="ponzu" changeset="7496280" lat="33.5648904" lon="-117.7073881">
    <tag k="amenity" v="fast_food"/>
    <tag k="name" v="In N Out"/>
  </node>
  <node id="703428803" version="1" timestamp="2010-04-21T19:39:52Z" uid="185286" user="rcpao" changeset="4489879" lat="33.5648457" lon="-117.7091369">
    <tag k="name" v="Home Depot"/>
    <tag k="operator" v="Home Depot"/>
    <tag k="shop" v="doityourself"/>
  </node>
  <node id="703428803" version="2" timestamp="2011-03-08T18:08:40Z" uid="101657" user="ponzu" changeset="7496280" lat="33.5648457" lon="-117.7091369">
    <tag k="name" v="Home Depot"/>
    <tag k="operator" v="Home Depot"/>
    <tag k="shop" v="doityourself"/>
  </node>
  <node id="703428922" version="1" timestamp="2010-04-21T19:41:33Z" uid="185286" user="rcpao" changeset="4489879" lat="33.5707459" lon="-117.7071467">
    <tag k="amenity" v="fast_food"/>
    <tag k="name" v="Arby&apos;s"/>
  </node>
  <node id="703429434" version="1" timestamp="2010-04-21T19:42:20Z" uid="185286" user="rcpao" changeset="4489879" lat="33.5703213" lon="-117.7070716">
    <tag k="name" v="Game Stop"/>
    <tag k="operator" v="Game Stop"/>
  </node>
  <node id="703429475" version="1" timestamp="2010-04-21T19:42:45Z" uid="185286" user="rcpao" changeset="4489879" lat="33.5719974" lon="-117.7059826">
    <tag k="name" v="Stater Brothers"/>
    <tag k="shop" v="supermarket"/>
  </node>
  <node id="703429714" version="1" timestamp="2010-04-21T19:43:10Z" uid="185286" user="rcpao" changeset="4489879" lat="33.5712107" lon="-117.7053013">
    <tag k="name" v="Target"/>
    <tag k="operator" v="Target"/>
    <tag k="shop" v="department_store"/>
  </node>
</osm>
