<?xml version='1.0' encoding='UTF-8'?>
<osm version="0.6" generator="libosmium/2.20.0">
  <node id="70835552" version="2" timestamp="2007-10-26T13:23:12Z" uid="1066" user="pavel" changeset="321573" lat="49.1903255" lon="16.578017">
    <tag k="created_by" v="Potlatch 0.4a"/>
    <tag k="note" v="G2"/>
  </node>
  <node id="70835552" version="3" timestamp="2008-09-08T05:17:08Z" uid="4788" user="hanoj" changeset="570577" lat="49.1903255" lon="16.578017">
    <tag k="amenity" v="public_building"/>
    <tag k="created_by" v="Potlatch 0.4a"/>
    <tag k="note" v="G2"/>
  </node>
  <node id="70835552" version="4" timestamp="2009-03-16T18:33:47Z" uid="5013" user="walley" changeset="819683" lat="49.1903255" lon="16.578017">
    <tag k="amenity" v="public_building"/>
    <tag k="created_by" v="Potlatch 0.4a"/>
    <tag k="name" v="G2"/>
  </node>
  <node id="70835552" version="5" timestamp="2009-05-05T19:47:59Z" uid="4788" user="hanoj" changeset="1090506" lat="49.1903255" lon="16.578017">
    <tag k="amenity" v="public_building"/>
    <tag k="created_by" v="Potlatch 0.4a"/>
    <tag k="name" v="G2"/>
  </node>
  <node id="70836059" version="4" timestamp="2009-11-21T08:31:17Z" uid="74617" user="JohnSmith" changeset="3174021" lat="-35.454153" lon="149.1091176">
    <tag k="name" v="Tuggeranong Hill"/>
    <tag k="natural" v="peak"/>
  </node>
  <node id="70836059" version="5" timestamp="2010-03-05T23:06:31Z" uid="232912" user="Jack Kirby" changeset="4045499" lat="-35.4534668" lon="149.1080523">
    <tag k="ele" v="855"/>
    <tag k="name" v="Tuggeranong Hill"/>
    <tag k="natural" v="peak"/>
  </node>
</osm>
