<?xml version='1.0' encoding='UTF-8'?>
<osm version="0.6" generator="libosmium/2.20.0">
  <node id="71219206" version="2" timestamp="2008-07-03T18:48:36Z" uid="6975" user="ulfl" changeset="379368" lat="49.9517915" lon="11.0616084">
    <tag k="amenity" v="place_of_worship"/>
    <tag k="name" v="Gügel"/>
  </node>
  <node id="71219206" version="3" timestamp="2008-08-19T14:45:58Z" uid="49569" user="Marcel D" changeset="328502" lat="49.9517915" lon="11.0616084">
    <tag k="amenity" v="place_of_worship"/>
    <tag k="is_in" v="Scheßlitz,Bamberg,Oberfranken,Bayern,Bundesrepublik Deutschland,Europe"/>
    <tag k="name" v="Gügel"/>
  </node>
  <node id="71219206" version="4" timestamp="2008-11-28T11:17:09Z" uid="3555" user="Marc Schütz" changeset="803427" lat="49.9517915" lon="11.0616084">
    <tag k="amenity" v="place_of_worship"/>
    <tag k="is_in" v="Scheßlitz,Bamberg,Oberfranken,Bayern,Bundesrepublik Deutschland,Europe"/>
    <tag k="name" v="Gügel"/>
    <tag k="religion" v="christian"/>
  </node>
  <node id="71219206" version="5" timestamp="2009-06-01T10:48:45Z" uid="96069" user="theophrastos" changeset="1378343" lat="49.951692" lon="11.0616898">
    <tag k="amenity" v="place_of_worship"/>
    <tag k="denomination" v="catholic"/>
    <tag k="is_in" v="Scheßlitz,Bamberg,Oberfranken,Bayern,Bundesrepublik Deutschland,Europe"/>
    <tag k="name" v="Gügel"/>
    <tag k="religion" v="christian"/>
  </node>
  <node id="71219206" version="6" timestamp="2009-12-19T18:33:52Z" uid="96069" user="theophrastos" changeset="3408890" lat="49.951692" lon="11.0616898">
    <tag k="amenity" v="place_of_worship"/>
    <tag k="denomination" v="catholic"/>
    <tag k="is_in" v="Scheßlitz,Bamberg,Oberfranken,Bayern,Bundesrepublik Deutschland,Europe"/>
    <tag k="name" v="Gügel"/>
    <tag k="religion" v="christian"/>
  </node>
</osm>
