<?xml version='1.0' encoding='UTF-8'?>
<osm version="0.6" generator="libosmium/2.20.0">
  <node id="712746565" version="1" timestamp="2010-04-29T22:49:25Z" uid="244897" user="M526244" changeset="4562126" lat="-29.4650231" lon="153.19658"/>
  <node id="712746565" version="2" timestamp="2011-10-09T11:47:32Z" uid="22094" user="Chadzopkyo" changeset="9511136" lat="-29.4650203" lon="153.1965717"/>
  <node id="712748482" version="3" timestamp="2010-05-24T00:45:06Z" uid="4467" user="Rosscoe" changeset="4789244" lat="-37.8055712" lon="144.982978">
    <tag k="amenity" v="internet_cafe"/>
    <tag k="internet_access" v="fee"/>
    <tag k="name" v="Internet Lounge"/>
  </node>
  <node id="712748482" version="4" timestamp="2010-12-30T00:25:49Z" uid="57437" user="Canley" changeset="6805006" lat="-37.8055712" lon="144.982978">
    <tag k="amenity" v="internet_cafe"/>
    <tag k="internet_access" v="fee"/>
    <tag k="name" v="HQ Internet Lounge"/>
  </node>
  <node id="712748482" version="5" timestamp="2010-12-30T23:29:00Z" uid="57437" user="Canley" changeset="6815128" lat="-37.8055712" lon="144.982978">
    <tag k="addr:housenumber" v="121"/>
    <tag k="addr:street" v="Smith Street"/>
    <tag k="amenity" v="internet_cafe"/>
    <tag k="internet_access" v="fee"/>
    <tag k="name" v="HQ Internet"/>
    <tag k="opening_hours" v="Mo-Fr 10:00-21:00; Sa 11:00-19:00; Su 11:00-18:00"/>
  </node>
</osm>
