<?xml version='1.0' encoding='UTF-8'?>
<osm version="0.6" generator="libosmium/2.20.0">
  <node id="71291622" version="5" timestamp="2009-04-25T20:27:10Z" uid="13367" user="nubok" changeset="958600" lat="52.1796361" lon="11.5999257"/>
  <node id="71291622" version="6" timestamp="2012-02-15T19:14:29Z" uid="13565" user="hadhuey" changeset="10695414" lat="52.1796361" lon="11.5999257"/>
  <node id="71297635" version="3" timestamp="2009-05-13T07:45:52Z" uid="119145" user="asheiner" changeset="1172493" lat="49.5380271" lon="11.1553771">
    <tag k="amenity" v="restaurant"/>
    <tag k="created_by" v="JOSM"/>
    <tag k="cuisine" v="regional"/>
    <tag k="name" v="Rotes Roß"/>
    <tag k="opening_hours" v="17:00-, Sa/So durchgehend, Fr Ruhetag"/>
    <tag k="tourism" v="hotel"/>
  </node>
  <node id="71297635" version="4" timestamp="2009-06-13T22:03:46Z" uid="119145" user="asheiner" changeset="1509250" lat="49.5380271" lon="11.1553771">
    <tag k="amenity" v="restaurant"/>
    <tag k="created_by" v="JOSM"/>
    <tag k="cuisine" v="regional"/>
    <tag k="name" v="Rotes Roß"/>
    <tag k="opening_hours" v="17:00-, Sa/So durchgehend, Fr Ruhetag"/>
    <tag k="phone" v="+49-911-95650"/>
    <tag k="tourism" v="hotel"/>
  </node>
  <node id="71297635" version="5" timestamp="2010-11-22T00:43:43Z" uid="202858" user="kellerma" changeset="6428381" lat="49.5380271" lon="11.1553771">
    <tag k="amenity" v="restaurant"/>
    <tag k="cuisine" v="regional"/>
    <tag k="name" v="Rotes Roß"/>
    <tag k="opening_hours" v="Mo-Th 17:00+; Sa,Su 11:00+; Fr off"/>
    <tag k="phone" v="+49-911-95650"/>
    <tag k="tourism" v="hotel"/>
  </node>
  <node id="71297635" version="6" timestamp="2012-01-10T18:51:46Z" uid="71557" user="Taroc" changeset="10354024" lat="49.5380271" lon="11.1553771"/>
</osm>
