<?xml version='1.0' encoding='UTF-8'?>
<osm version="0.6" generator="libosmium/2.20.0">
  <node id="71320442" version="2" timestamp="2008-10-20T12:12:43Z" uid="70800" user="Cellpaq" changeset="476645" lat="47.7790259" lon="11.6119756"/>
  <node id="71320496" version="2" timestamp="2008-10-20T12:12:51Z" uid="70800" user="Cellpaq" changeset="476645" lat="47.7815037" lon="11.6158367"/>
  <node id="71320498" version="2" timestamp="2008-10-20T12:12:51Z" uid="70800" user="Cellpaq" changeset="476645" lat="47.7789659" lon="11.6122318"/>
  <node id="71327124" version="1" timestamp="2007-10-14T18:16:11Z" uid="6454" user="B10xxx" changeset="165202" lat="52.5201707" lon="13.3691778">
    <tag k="created_by" v="JOSM"/>
    <tag k="name" v="Bundeskanzleramt"/>
    <tag k="tourism" v="attraction"/>
  </node>
  <node id="71327124" version="2" timestamp="2007-11-06T19:51:01Z" uid="10549" user="toaster" changeset="422375" lat="52.5203151" lon="13.369192">
    <tag k="created_by" v="Potlatch 0.4c"/>
    <tag k="name" v="Bundeskanzleramt"/>
    <tag k="tourism" v="attraction"/>
  </node>
  <node id="71327124" version="3" timestamp="2007-11-06T19:51:25Z" uid="10549" user="toaster" changeset="422375" lat="52.5203151" lon="13.369192">
    <tag k="created_by" v="Potlatch 0.4c"/>
    <tag k="name" v="Bundeskanzleramt"/>
    <tag k="tourism" v="attraction"/>
  </node>
  <node id="71327124" version="4" timestamp="2007-11-06T22:46:05Z" uid="10549" user="toaster" changeset="427006" lat="52.5203173" lon="13.3691868">
    <tag k="created_by" v="Potlatch 0.4c"/>
    <tag k="name" v="Bundeskanzleramt"/>
    <tag k="tourism" v="attraction"/>
  </node>
  <node id="71327124" version="5" timestamp="2007-11-07T09:45:55Z" uid="10549" user="toaster" changeset="432024" lat="52.5204506" lon="13.3691694">
    <tag k="created_by" v="Potlatch 0.4c"/>
    <tag k="name" v="Bundeskanzleramt"/>
    <tag k="tourism" v="attraction"/>
  </node>
  <node id="71327124" version="6" timestamp="2007-11-07T11:57:41Z" uid="10549" user="toaster" changeset="432024" lat="52.5200517" lon="13.3691912">
    <tag k="created_by" v="Potlatch 0.4c"/>
    <tag k="name" v="Bundeskanzleramt"/>
    <tag k="tourism" v="attraction"/>
  </node>
  <node id="71327124" version="7" timestamp="2007-11-07T12:07:35Z" uid="10549" user="toaster" changeset="432024" lat="52.5200517" lon="13.3691912">
    <tag k="created_by" v="Potlatch 0.4c"/>
    <tag k="name" v="Bundeskanzleramt"/>
    <tag k="tourism" v="attraction"/>
  </node>
  <node id="71327124" version="8" timestamp="2007-11-07T12:07:47Z" uid="10549" user="toaster" changeset="432024" lat="52.5200987" lon="13.3691826">
    <tag k="created_by" v="Potlatch 0.4c"/>
    <tag k="name" v="Bundeskanzleramt"/>
    <tag k="tourism" v="attraction"/>
  </node>
  <node id="71327124" version="9" timestamp="2007-11-16T19:24:11Z" uid="12983" user="jorilla" changeset="534786" lat="52.5201014" lon="13.3691906">
    <tag k="created_by" v="Potlatch 0.4c"/>
    <tag k="name" v="Bundeskanzleramt"/>
    <tag k="tourism" v="attraction"/>
  </node>
  <node id="71327124" version="10" timestamp="2009-07-19T12:54:13Z" uid="34417" user="TobHaeg" changeset="1873008" lat="52.5201014" lon="13.3691906">
    <tag k="name" v="Bundeskanzleramt"/>
    <tag k="tourism" v="attraction"/>
  </node>
  <node id="71327124" version="11" timestamp="2009-09-08T16:52:41Z" uid="115651" user="Konrad Aust" changeset="2416162" lat="52.5201038" lon="13.369188">
    <tag k="name" v="Bundeskanzleramt"/>
    <tag k="name:da" v="Forbundskansleriet"/>
    <tag k="name:en" v="German Chancellery"/>
    <tag k="name:es" v="Cancillería Federal"/>
    <tag k="name:fr" v="Chancellerie fédérale"/>
    <tag k="name:ja" v="連邦首相府"/>
    <tag k="name:nl" v="Bondskanselarij"/>
    <tag k="name:pl" v="Urząd Kanclerza Federalnego"/>
    <tag k="name:ru" v="Ведомство федерального канцлера Германии"/>
    <tag k="name:sv" v="Förbundskanslerämbetet"/>
    <tag k="tourism" v="attraction"/>
  </node>
  <node id="71327124" version="12" timestamp="2009-09-08T16:53:45Z" uid="115651" user="Konrad Aust" changeset="2416162" lat="52.5201038" lon="13.369188">
    <tag k="name" v="Bundeskanzleramt"/>
    <tag k="name:da" v="Forbundskansleriet"/>
    <tag k="name:en" v="German Chancellery"/>
    <tag k="name:es" v="Cancillería Federal"/>
    <tag k="name:fr" v="Chancellerie fédérale"/>
    <tag k="name:ja" v="連邦首相府"/>
    <tag k="name:nl" v="Bondskanselarij"/>
    <tag k="name:pl" v="Urząd Kanclerza Federalnego"/>
    <tag k="name:ru" v="Ведомство федерального канцлера Германии"/>
    <tag k="name:sv" v="Förbundskanslerämbetet"/>
    <tag k="tourism" v="attraction"/>
    <tag k="website" v="http://www.bundesregierung.de/Webs/Breg/DE/Bundesregierung/Bundeskanzleramt/bundeskanzleramt.html"/>
  </node>
  <node id="71327124" version="13" timestamp="2010-01-11T15:02:56Z" uid="31118" user="Lulu-Ann" changeset="3596454" lat="52.5201039" lon="13.369188">
    <tag k="blind:description:de" v="Im Bundeskanzleramt gibt es Führungen für Blinde und Sehgeschädigte, siehe http://www.absv.de/freizeit/bundeskanzleramt.htm ."/>
    <tag k="name" v="Bundeskanzleramt"/>
    <tag k="name:da" v="Forbundskansleriet"/>
    <tag k="name:en" v="German Chancellery"/>
    <tag k="name:es" v="Cancillería Federal"/>
    <tag k="name:fr" v="Chancellerie fédérale"/>
    <tag k="name:ja" v="連邦首相府"/>
    <tag k="name:nl" v="Bondskanselarij"/>
    <tag k="name:pl" v="Urząd Kanclerza Federalnego"/>
    <tag k="name:ru" v="Ведомство федерального канцлера Германии"/>
    <tag k="name:sv" v="Förbundskanslerämbetet"/>
    <tag k="tourism" v="attraction"/>
    <tag k="website" v="http://www.bundesregierung.de/Webs/Breg/DE/Bundesregierung/Bundeskanzleramt/bundeskanzleramt.html"/>
  </node>
  <node id="71327124" version="14" timestamp="2011-07-04T14:26:42Z" uid="447997" user="Berliner Igel" changeset="8629980" lat="52.520237" lon="13.3691951">
    <tag k="blind:description:de" v="Im Bundeskanzleramt gibt es Führungen für Blinde und Sehgeschädigte, siehe http://www.absv.de/freizeit/bundeskanzleramt.htm ."/>
    <tag k="name" v="Bundeskanzleramt"/>
    <tag k="name:da" v="Forbundskansleriet"/>
    <tag k="name:en" v="German Chancellery"/>
    <tag k="name:es" v="Cancillería Federal"/>
    <tag k="name:fr" v="Chancellerie fédérale"/>
    <tag k="name:ja" v="連邦首相府"/>
    <tag k="name:nl" v="Bondskanselarij"/>
    <tag k="name:pl" v="Urząd Kanclerza Federalnego"/>
    <tag k="name:ru" v="Ведомство федерального канцлера Германии"/>
    <tag k="name:sv" v="Förbundskanslerämbetet"/>
    <tag k="tourism" v="attraction"/>
    <tag k="website" v="http://www.bundesregierung.de/Webs/Breg/DE/Bundesregierung/Bundeskanzleramt/bundeskanzleramt.html"/>
  </node>
  <node id="71327124" version="15" timestamp="2011-10-19T12:52:15Z" uid="39457" user="Markus59" changeset="9599550" lat="52.520237" lon="13.3691951">
    <tag k="addr:city" v="Berlin"/>
    <tag k="addr:country" v="DE"/>
    <tag k="addr:housename" v="Bundeskanzleramt"/>
    <tag k="addr:housenumber" v="1"/>
    <tag k="addr:postcode" v="10557"/>
    <tag k="addr:street" v="Willy-Brand-Str. 1"/>
    <tag k="blind:description:de" v="Im Bundeskanzleramt gibt es Führungen für Blinde und Sehgeschädigte, siehe http://www.absv.de/freizeit/bundeskanzleramt.htm ."/>
    <tag k="name" v="Bundeskanzleramt"/>
    <tag k="name:da" v="Forbundskansleriet"/>
    <tag k="name:en" v="German Chancellery"/>
    <tag k="name:es" v="Cancillería Federal"/>
    <tag k="name:fr" v="Chancellerie fédérale"/>
    <tag k="name:ja" v="連邦首相府"/>
    <tag k="name:nl" v="Bondskanselarij"/>
    <tag k="name:pl" v="Urząd Kanclerza Federalnego"/>
    <tag k="name:ru" v="Ведомство федерального канцлера Германии"/>
    <tag k="name:sv" v="Förbundskanslerämbetet"/>
    <tag k="tourism" v="attraction"/>
    <tag k="website" v="http://www.bundesregierung.de/Webs/Breg/DE/Bundesregierung/Bundeskanzleramt/bundeskanzleramt.html"/>
  </node>
  <node id="71327124" version="16" timestamp="2011-11-10T10:55:30Z" uid="290680" user="wheelmap_visitor" changeset="9786526" lat="52.520237" lon="13.3691951">
    <tag k="addr:city" v="Berlin"/>
    <tag k="addr:country" v="DE"/>
    <tag k="addr:housename" v="Bundeskanzleramt"/>
    <tag k="addr:housenumber" v="1"/>
    <tag k="addr:postcode" v="10557"/>
    <tag k="addr:street" v="Willy-Brand-Str. 1"/>
    <tag k="blind:description:de" v="Im Bundeskanzleramt gibt es Führungen für Blinde und Sehgeschädigte, siehe http://www.absv.de/freizeit/bundeskanzleramt.htm ."/>
    <tag k="name" v="Bundeskanzleramt"/>
    <tag k="name:da" v="Forbundskansleriet"/>
    <tag k="name:en" v="German Chancellery"/>
    <tag k="name:es" v="Cancillería Federal"/>
    <tag k="name:fr" v="Chancellerie fédérale"/>
    <tag k="name:ja" v="連邦首相府"/>
    <tag k="name:nl" v="Bondskanselarij"/>
    <tag k="name:pl" v="Urząd Kanclerza Federalnego"/>
    <tag k="name:ru" v="Ведомство федерального канцлера Германии"/>
    <tag k="name:sv" v="Förbundskanslerämbetet"/>
    <tag k="tourism" v="attraction"/>
    <tag k="website" v="http://www.bundesregierung.de/Webs/Breg/DE/Bundesregierung/Bundeskanzleramt/bundeskanzleramt.html"/>
    <tag k="wheelchair" v="yes"/>
  </node>
  <node id="71327124" version="17" timestamp="2012-01-02T12:26:29Z" uid="70696" user="xybot" changeset="10270116" lat="52.520237" lon="13.3691951">
    <tag k="addr:city" v="Berlin"/>
    <tag k="addr:country" v="DE"/>
    <tag k="addr:housename" v="Bundeskanzleramt"/>
    <tag k="addr:housenumber" v="1"/>
    <tag k="addr:postcode" v="10557"/>
    <tag k="addr:street" v="Willy-Brand-Straße"/>
    <tag k="blind:description:de" v="Im Bundeskanzleramt gibt es Führungen für Blinde und Sehgeschädigte, siehe http://www.absv.de/freizeit/bundeskanzleramt.htm ."/>
    <tag k="name" v="Bundeskanzleramt"/>
    <tag k="name:da" v="Forbundskansleriet"/>
    <tag k="name:en" v="German Chancellery"/>
    <tag k="name:es" v="Cancillería Federal"/>
    <tag k="name:fr" v="Chancellerie fédérale"/>
    <tag k="name:ja" v="連邦首相府"/>
    <tag k="name:nl" v="Bondskanselarij"/>
    <tag k="name:pl" v="Urząd Kanclerza Federalnego"/>
    <tag k="name:ru" v="Ведомство федерального канцлера Германии"/>
    <tag k="name:sv" v="Förbundskanslerämbetet"/>
    <tag k="tourism" v="attraction"/>
    <tag k="website" v="http://www.bundesregierung.de/Webs/Breg/DE/Bundesregierung/Bundeskanzleramt/bundeskanzleramt.html"/>
    <tag k="wheelchair" v="yes"/>
  </node>
</osm>
