<?xml version='1.0' encoding='UTF-8'?>
<osm version="0.6" generator="libosmium/2.20.0">
  <node id="726293126" version="1" timestamp="2010-05-08T11:31:04Z" uid="242497" user="cvl" changeset="4638101" lat="-31.8133719" lon="115.7596523">
    <tag k="amenity" v="fast_food"/>
    <tag k="name" v="Pizza Hut"/>
  </node>
  <node id="726293129" version="1" timestamp="2010-05-08T11:31:04Z" uid="242497" user="cvl" changeset="4638101" lat="-31.8132921" lon="115.7597353">
    <tag k="amenity" v="atm"/>
    <tag k="operator" v="Westpac"/>
  </node>
  <node id="726293134" version="1" timestamp="2010-05-08T11:31:04Z" uid="242497" user="cvl" changeset="4638101" lat="-31.8132294" lon="115.7599512">
    <tag k="name" v="Video Ezy"/>
    <tag k="shop" v="video"/>
  </node>
  <node id="726293138" version="1" timestamp="2010-05-08T11:31:05Z" uid="242497" user="cvl" changeset="4638101" lat="-31.8108259" lon="115.7669987">
    <tag k="name" v="IGA"/>
    <tag k="shop" v="supermarket"/>
  </node>
  <node id="726293142" version="1" timestamp="2010-05-08T11:31:05Z" uid="242497" user="cvl" changeset="4638101" lat="-31.8112601" lon="115.7668083">
    <tag k="amenity" v="fast_food"/>
    <tag k="name" v="Dominos"/>
  </node>
</osm>
