<?xml version='1.0' encoding='UTF-8'?>
<osm version="0.6" generator="libosmium/2.20.0">
  <node id="72920287" version="3" timestamp="2010-02-14T13:48:57Z" uid="74617" user="JohnSmith" changeset="3873864" lat="-27.4347967" lon="153.0333509"/>
  <node id="72920287" version="4" timestamp="2010-02-14T15:41:38Z" uid="74617" user="JohnSmith" changeset="3874884" lat="-27.4347967" lon="153.0333509"/>
  <node id="72920418" version="4" timestamp="2010-02-14T15:41:38Z" uid="74617" user="JohnSmith" changeset="3874884" lat="-27.4356968" lon="153.034191"/>
  <node id="72920613" version="4" timestamp="2010-02-14T15:41:38Z" uid="74617" user="JohnSmith" changeset="3874884" lat="-27.4357729" lon="153.034749"/>
  <node id="72921925" version="9" timestamp="2008-09-14T20:00:19Z" uid="6975" user="ulfl" changeset="640534" lat="47.2313431" lon="9.58491">
    <tag k="amenity" v="bank"/>
    <tag k="atm" v="yes"/>
  </node>
  <node id="72921925" version="10" timestamp="2009-03-01T14:48:50Z" uid="37542" user="Grausewitz" changeset="716708" lat="47.231341" lon="9.5849035">
    <tag k="amenity" v="bank"/>
    <tag k="atm" v="yes"/>
    <tag k="created_by" v="Potlatch 0.10f"/>
    <tag k="operator" v="Sparkasse"/>
  </node>
  <node id="72921925" version="11" timestamp="2009-03-08T09:44:24Z" uid="37542" user="Grausewitz" changeset="755113" lat="47.2313461" lon="9.5849024">
    <tag k="amenity" v="bank"/>
    <tag k="atm" v="yes"/>
    <tag k="created_by" v="Potlatch 0.10f"/>
    <tag k="name" v="Sparkasse"/>
    <tag k="operator" v="Sparkasse"/>
  </node>
  <node id="72921925" version="12" timestamp="2011-09-20T13:22:16Z" uid="29177" user="Gozgo" changeset="9351333" lat="47.2313323" lon="9.5849238">
    <tag k="amenity" v="bank"/>
    <tag k="atm" v="yes"/>
    <tag k="name" v="Sparkasse"/>
    <tag k="operator" v="Sparkasse"/>
  </node>
</osm>
