<?xml version='1.0' encoding='UTF-8'?>
<osm version="0.6" generator="libosmium/2.20.0">
  <node id="730701692" version="2" timestamp="2011-06-10T13:13:56Z" uid="115477" user="wowik" changeset="8396257" lat="56.2187408" lon="36.9029159"/>
  <node id="730701729" version="4" timestamp="2010-10-16T19:37:48Z" uid="20587" user="balrog-kun" changeset="6060770" lat="52.0572938" lon="19.1892127">
    <tag k="amenity" v="place_of_worship"/>
    <tag k="denomination" v="catholic"/>
    <tag k="landuse" v="cemetery"/>
    <tag k="name" v="Cmentarz stary w Łęczycy"/>
    <tag k="name:en" v="Old Cemetery of Łęczycy"/>
    <tag k="religion" v="christian"/>
  </node>
  <node id="730702123" version="4" timestamp="2010-10-16T19:37:54Z" uid="20587" user="balrog-kun" changeset="6060770" lat="52.0571249" lon="19.1882612">
    <tag k="amenity" v="place_of_worship"/>
    <tag k="denomination" v="catholic"/>
    <tag k="name" v="Cmentarz nowy w Łęczycy"/>
    <tag k="name:en" v="New Cemetery of Łęczyca"/>
    <tag k="religion" v="christian"/>
  </node>
</osm>
