<?xml version='1.0' encoding='UTF-8'?>
<osm version="0.6" generator="libosmium/2.20.0">
  <node id="731388794" version="1" timestamp="2010-05-12T19:53:00Z" uid="55964" user="Evan Sebire" changeset="4680403" lat="46.5880384" lon="7.6463286">
    <tag k="highway" v="crossing"/>
    <tag k="lit" v="yes"/>
    <tag k="source" v="survey"/>
  </node>
  <node id="731388794" version="2" timestamp="2010-05-16T10:19:36Z" uid="55964" user="Evan Sebire" changeset="4715223" lat="46.5880238" lon="7.6463119">
    <tag k="highway" v="crossing"/>
    <tag k="lit" v="yes"/>
    <tag k="source" v="survey"/>
  </node>
  <node id="731388794" version="3" timestamp="2012-01-17T09:42:28Z" uid="125339" user="efred" changeset="10415857" lat="46.5880238" lon="7.6463119"/>
  <node id="731388863" version="1" timestamp="2010-05-12T19:53:07Z" uid="55964" user="Evan Sebire" changeset="4680403" lat="46.5877702" lon="7.6450662">
    <tag k="addr:city" v="Frutigen"/>
    <tag k="addr:country" v="CH"/>
    <tag k="addr:housenumber" v="10"/>
    <tag k="addr:postcode" v="3714"/>
    <tag k="addr:street" v="Dorfstrasse"/>
    <tag k="source" v="survey"/>
  </node>
  <node id="731388863" version="2" timestamp="2012-03-25T04:27:49Z" uid="178186" user="mdk" changeset="11091125" lat="46.5877702" lon="7.6450662"/>
  <node id="731388880" version="1" timestamp="2010-05-12T19:53:08Z" uid="55964" user="Evan Sebire" changeset="4680403" lat="46.5877295" lon="7.6448523">
    <tag k="addr:city" v="Frutigen"/>
    <tag k="addr:country" v="CH"/>
    <tag k="addr:housenumber" v="3"/>
    <tag k="addr:postcode" v="3714"/>
    <tag k="addr:street" v="Dorfstrasse"/>
    <tag k="source" v="survey"/>
  </node>
  <node id="731388880" version="2" timestamp="2012-03-25T04:27:55Z" uid="178186" user="mdk" changeset="11091125" lat="46.5877295" lon="7.6448523"/>
  <node id="731388904" version="1" timestamp="2010-05-12T19:53:09Z" uid="55964" user="Evan Sebire" changeset="4680403" lat="46.5875643" lon="7.6446606">
    <tag k="addr:city" v="Frutigen"/>
    <tag k="addr:country" v="CH"/>
    <tag k="addr:housenumber" v="1"/>
    <tag k="addr:postcode" v="3714"/>
    <tag k="addr:street" v="Dorfstrasse"/>
    <tag k="name" v="Germann&apos;s Frischmarkt"/>
    <tag k="shop" v="supermarket"/>
    <tag k="source" v="survey"/>
  </node>
  <node id="731388904" version="2" timestamp="2012-03-12T10:55:48Z" uid="125339" user="efred" changeset="10953335" lat="46.5875643" lon="7.6446606"/>
  <node id="731388963" version="1" timestamp="2010-05-12T19:53:12Z" uid="55964" user="Evan Sebire" changeset="4680403" lat="46.5873761" lon="7.6446458">
    <tag k="addr:city" v="Frutigen"/>
    <tag k="addr:country" v="CH"/>
    <tag k="addr:housenumber" v="2"/>
    <tag k="addr:postcode" v="3714"/>
    <tag k="addr:street" v="Dorfstrasse"/>
    <tag k="source" v="survey"/>
  </node>
  <node id="731388963" version="2" timestamp="2010-05-18T20:40:51Z" uid="55964" user="Evan Sebire" changeset="4742788" lat="46.5873761" lon="7.6446458">
    <tag k="addr:city" v="Frutigen"/>
    <tag k="addr:country" v="CH"/>
    <tag k="addr:housenumber" v="2"/>
    <tag k="addr:postcode" v="3714"/>
    <tag k="addr:street" v="Dorfstrasse"/>
    <tag k="amenity" v="dentist"/>
    <tag k="name" v="Martin Steiner"/>
    <tag k="source" v="survey"/>
  </node>
  <node id="731388963" version="3" timestamp="2012-03-12T10:55:48Z" uid="125339" user="efred" changeset="10953335" lat="46.5873761" lon="7.6446458"/>
  <node id="731389021" version="1" timestamp="2010-05-12T19:53:15Z" uid="55964" user="Evan Sebire" changeset="4680403" lat="46.5877575" lon="7.6454055">
    <tag k="addr:city" v="Frutigen"/>
    <tag k="addr:country" v="CH"/>
    <tag k="addr:housenumber" v="2"/>
    <tag k="addr:postcode" v="3714"/>
    <tag k="addr:street" v="Käsereigässli"/>
    <tag k="source" v="survey"/>
  </node>
  <node id="731389021" version="2" timestamp="2012-03-25T04:27:52Z" uid="178186" user="mdk" changeset="11091125" lat="46.5877575" lon="7.6454055"/>
  <node id="731389032" version="1" timestamp="2010-05-12T19:53:16Z" uid="55964" user="Evan Sebire" changeset="4680403" lat="46.5881109" lon="7.6458518">
    <tag k="addr:city" v="Frutigen"/>
    <tag k="addr:country" v="CH"/>
    <tag k="addr:housenumber" v="6"/>
    <tag k="addr:postcode" v="3714"/>
    <tag k="addr:street" v="Käsereigässli"/>
    <tag k="source" v="survey"/>
  </node>
  <node id="731389032" version="2" timestamp="2012-03-25T04:27:59Z" uid="178186" user="mdk" changeset="11091125" lat="46.5881109" lon="7.6458518"/>
  <node id="731389052" version="1" timestamp="2010-05-12T19:53:17Z" uid="55964" user="Evan Sebire" changeset="4680403" lat="46.5879939" lon="7.6457854">
    <tag k="addr:city" v="Frutigen"/>
    <tag k="addr:country" v="CH"/>
    <tag k="addr:housenumber" v="4"/>
    <tag k="addr:postcode" v="3714"/>
    <tag k="addr:street" v="Käsereigässli"/>
    <tag k="source" v="survey"/>
  </node>
  <node id="731389052" version="2" timestamp="2012-03-25T04:27:57Z" uid="178186" user="mdk" changeset="11091125" lat="46.5879939" lon="7.6457854"/>
  <node id="731389132" version="1" timestamp="2010-05-12T19:53:21Z" uid="55964" user="Evan Sebire" changeset="4680403" lat="46.587974" lon="7.6465939">
    <tag k="addr:city" v="Frutigen"/>
    <tag k="addr:country" v="CH"/>
    <tag k="addr:housenumber" v="7"/>
    <tag k="addr:postcode" v="3714"/>
    <tag k="addr:street" v="Kanderstegstrasse"/>
    <tag k="source" v="survey"/>
  </node>
  <node id="731389132" version="2" timestamp="2012-03-25T04:28:00Z" uid="178186" user="mdk" changeset="11091125" lat="46.587974" lon="7.6465939"/>
  <node id="731389158" version="1" timestamp="2010-05-12T19:53:23Z" uid="55964" user="Evan Sebire" changeset="4680403" lat="46.5880543" lon="7.6464158">
    <tag k="addr:city" v="Frutigen"/>
    <tag k="addr:country" v="CH"/>
    <tag k="addr:housenumber" v="3"/>
    <tag k="addr:postcode" v="3714"/>
    <tag k="addr:street" v="Kanderstegstrasse"/>
    <tag k="amenity" v="restaurant"/>
    <tag k="name" v="Leist"/>
    <tag k="opening_hours" v="Tu-Sa 08:00-23:00"/>
    <tag k="phone" v="+41 33 671 1076"/>
    <tag k="source" v="survey"/>
    <tag k="url" v="http://www.zumleist.ch"/>
  </node>
  <node id="731389158" version="2" timestamp="2012-03-12T11:43:19Z" uid="125339" user="efred" changeset="10953787" lat="46.5880543" lon="7.6464158"/>
  <node id="731389194" version="1" timestamp="2010-05-12T19:53:25Z" uid="55964" user="Evan Sebire" changeset="4680403" lat="46.5882882" lon="7.6456345">
    <tag k="addr:city" v="Frutigen"/>
    <tag k="addr:country" v="CH"/>
    <tag k="addr:housenumber" v="16"/>
    <tag k="addr:postcode" v="3714"/>
    <tag k="addr:street" v="Dorfstrasse"/>
    <tag k="name" v="Landhaus Adler"/>
    <tag k="phone" v="+41 33 671 1271"/>
    <tag k="source" v="survey"/>
    <tag k="tourism" v="hotel"/>
    <tag k="url" v="http://www.landhaus-adler.ch"/>
  </node>
  <node id="731389194" version="2" timestamp="2012-03-12T11:43:19Z" uid="125339" user="efred" changeset="10953787" lat="46.5882882" lon="7.6456345"/>
  <node id="731389264" version="1" timestamp="2010-05-12T19:53:29Z" uid="55964" user="Evan Sebire" changeset="4680403" lat="46.5893921" lon="7.6465493">
    <tag k="amenity" v="atm"/>
    <tag k="operator" v="Post Finance"/>
    <tag k="source" v="survey"/>
  </node>
  <node id="731389264" version="2" timestamp="2012-03-12T11:43:41Z" uid="125339" user="efred" changeset="10953787" lat="46.5893921" lon="7.6465493"/>
  <node id="731389285" version="1" timestamp="2010-05-12T19:53:30Z" uid="55964" user="Evan Sebire" changeset="4680403" lat="46.5887459" lon="7.6457662">
    <tag k="addr:city" v="Frutigen"/>
    <tag k="addr:country" v="CH"/>
    <tag k="addr:housenumber" v="13"/>
    <tag k="addr:postcode" v="3714"/>
    <tag k="addr:street" v="Dorfstrasse"/>
    <tag k="amenity" v="bank"/>
    <tag k="name" v="Spar- und Leihkasse"/>
    <tag k="opening_hours" v="Mo-Fr 08:00-12:00,13:30-17:15"/>
    <tag k="phone" v="+41 33 672 1818"/>
    <tag k="source" v="survey"/>
    <tag k="url" v="http://www.frutigkasse.ch/"/>
  </node>
  <node id="731389285" version="2" timestamp="2012-03-12T10:55:49Z" uid="125339" user="efred" changeset="10953335" lat="46.5887459" lon="7.6457662"/>
</osm>
