<?xml version='1.0' encoding='UTF-8'?>
<osm version="0.6" generator="libosmium/2.20.0">
  <node id="73154948" version="3" timestamp="2007-10-24T15:54:42Z" uid="9581" user="Lobelt" changeset="305513" lat="51.5958083" lon="13.779081">
    <tag k="created_by" v="Potlatch 0.4a"/>
    <tag k="name" v="Lichterfeld"/>
    <tag k="place" v="village"/>
  </node>
  <node id="73154948" version="4" timestamp="2008-01-19T20:27:16Z" uid="24767" user="OpenGeoDB Bot" changeset="668163" lat="51.5958083" lon="13.779081">
    <tag k="created_by" v="opengeodb2osm0.5.2"/>
    <tag k="is_in" v="Lichterfeld-Schacksdorf,Elbe-Elster,Brandenburg,Bundesrepublik Deutschland,Europe"/>
    <tag k="name" v="Lichterfeld"/>
    <tag k="openGeoDB:auto_update" v="population,is_in"/>
    <tag k="openGeoDB:combination_of_public_administration" v="Amt Kleine Elster (Niederlausitz)"/>
    <tag k="openGeoDB:community_identification_number" v="12062293"/>
    <tag k="openGeoDB:is_in" v="Lichterfeld-Schacksdorf,Elbe-Elster,Brandenburg,Bundesrepublik Deutschland,Europe"/>
    <tag k="openGeoDB:is_in_loc_id" v="50014"/>
    <tag k="openGeoDB:layer" v="8"/>
    <tag k="openGeoDB:license_plate_code" v="EE"/>
    <tag k="openGeoDB:loc_id" v="20204"/>
    <tag k="openGeoDB:name" v="Lichterfeld"/>
    <tag k="openGeoDB:postal_codes" v="03238"/>
    <tag k="openGeoDB:sort_name" v="LICHTERFELD"/>
    <tag k="openGeoDB:version" v="0.2.6.11 / 2007-12-04 / http://fa-technik.adfc.de/code/opengeodb/dump/"/>
    <tag k="opengeodb:lat" v="51.5958083"/>
    <tag k="opengeodb:lon" v="13.779081"/>
    <tag k="place" v="village"/>
  </node>
  <node id="73154948" version="5" timestamp="2010-02-14T21:37:50Z" uid="109035" user="Teddy80" changeset="3878785" lat="51.5958083" lon="13.779081">
    <tag k="is_in" v="Lichterfeld-Schacksdorf,Elbe-Elster,Brandenburg,Bundesrepublik Deutschland,Europe"/>
    <tag k="name" v="Lichterfeld"/>
    <tag k="openGeoDB:auto_update" v="population,is_in"/>
    <tag k="openGeoDB:combination_of_public_administration" v="Amt Kleine Elster (Niederlausitz)"/>
    <tag k="openGeoDB:community_identification_number" v="12062293"/>
    <tag k="openGeoDB:is_in" v="Lichterfeld-Schacksdorf,Elbe-Elster,Brandenburg,Bundesrepublik Deutschland,Europe"/>
    <tag k="openGeoDB:is_in_loc_id" v="50014"/>
    <tag k="openGeoDB:layer" v="8"/>
    <tag k="openGeoDB:license_plate_code" v="EE"/>
    <tag k="openGeoDB:loc_id" v="20204"/>
    <tag k="openGeoDB:name" v="Lichterfeld"/>
    <tag k="openGeoDB:postal_codes" v="03238"/>
    <tag k="openGeoDB:sort_name" v="LICHTERFELD"/>
    <tag k="openGeoDB:version" v="0.2.6.11 / 2007-12-04 / http://fa-technik.adfc.de/code/opengeodb/dump/"/>
    <tag k="opengeodb:lat" v="51.5958083"/>
    <tag k="opengeodb:lon" v="13.779081"/>
    <tag k="place" v="village"/>
  </node>
  <node id="73154948" version="6" timestamp="2012-03-15T22:37:16Z" uid="28234" user="derandi" changeset="10993790" lat="51.5958083" lon="13.779081"/>
  <node id="73156051" version="2" timestamp="2007-12-06T10:53:09Z" uid="9581" user="Lobelt" changeset="131193" lat="51.5991983" lon="13.7791514"/>
  <node id="73156051" version="3" timestamp="2011-01-06T15:57:38Z" uid="109035" user="Teddy80" changeset="6883885" lat="51.5991983" lon="13.7791514">
    <tag k="TMC:cid_58:tabcd_1:Class" v="Point"/>
    <tag k="TMC:cid_58:tabcd_1:LCLversion" v="9.00"/>
    <tag k="TMC:cid_58:tabcd_1:LocationCode" v="40402"/>
  </node>
  <node id="73156051" version="4" timestamp="2011-01-06T19:22:24Z" uid="218283" user="TMCbot" changeset="6885991" lat="51.5991983" lon="13.7791514">
    <tag k="TMC:cid_58:tabcd_1:Class" v="Point"/>
    <tag k="TMC:cid_58:tabcd_1:LCLversion" v="9.00"/>
    <tag k="TMC:cid_58:tabcd_1:LocationCode" v="40402"/>
    <tag k="TMC:cid_58:tabcd_1:NextLocationCode" v="40403"/>
  </node>
  <node id="73156051" version="5" timestamp="2011-07-22T11:16:14Z" uid="447997" user="Berliner Igel" changeset="8796594" lat="51.5992197" lon="13.7791711">
    <tag k="TMC:cid_58:tabcd_1:Class" v="Point"/>
    <tag k="TMC:cid_58:tabcd_1:LCLversion" v="9.00"/>
    <tag k="TMC:cid_58:tabcd_1:LocationCode" v="40402"/>
    <tag k="TMC:cid_58:tabcd_1:NextLocationCode" v="40403"/>
  </node>
  <node id="73156051" version="6" timestamp="2012-02-10T08:35:08Z" uid="5294" user="lutz" changeset="10641278" lat="51.5992155" lon="13.7791864">
    <tag k="TMC:cid_58:tabcd_1:Class" v="Point"/>
    <tag k="TMC:cid_58:tabcd_1:LCLversion" v="9.00"/>
    <tag k="TMC:cid_58:tabcd_1:LocationCode" v="40402"/>
    <tag k="TMC:cid_58:tabcd_1:NextLocationCode" v="40403"/>
  </node>
  <node id="73158070" version="6" timestamp="2007-10-24T13:24:25Z" uid="9581" user="Lobelt" changeset="305513" lat="51.5719242" lon="13.7892683">
    <tag k="created_by" v="Potlatch 0.4a"/>
    <tag k="historic" v="monument"/>
    <tag k="name" v="F 60"/>
    <tag k="tourism" v="attraction"/>
  </node>
  <node id="73158070" version="7" timestamp="2007-10-24T15:53:49Z" uid="9581" user="Lobelt" changeset="305513" lat="51.5719207" lon="13.7892605">
    <tag k="created_by" v="Potlatch 0.4a"/>
    <tag k="historic" v="monument"/>
    <tag k="name" v="F 60"/>
    <tag k="tourism" v="attraction"/>
  </node>
  <node id="73158070" version="8" timestamp="2007-11-01T18:44:08Z" uid="9581" user="Lobelt" changeset="379412" lat="51.5719257" lon="13.7892625">
    <tag k="created_by" v="Potlatch 0.4b"/>
    <tag k="historic" v="monument"/>
    <tag k="name" v="F 60"/>
    <tag k="tourism" v="attraction"/>
  </node>
  <node id="73158070" version="9" timestamp="2007-11-23T17:56:37Z" uid="16019" user="Thommse" changeset="603273" lat="51.5719252" lon="13.7892564">
    <tag k="created_by" v="Potlatch 0.5c"/>
    <tag k="historic" v="monument"/>
    <tag k="name" v="F 60"/>
    <tag k="tourism" v="attraction"/>
  </node>
  <node id="73158070" version="10" timestamp="2008-07-15T05:43:27Z" uid="33221" user="tommie19" changeset="499593" lat="51.5858667" lon="13.7780104">
    <tag k="created_by" v="Potlatch 0.9c"/>
    <tag k="historic" v="monument"/>
    <tag k="name" v="F 60"/>
    <tag k="tourism" v="attraction"/>
  </node>
  <node id="73158070" version="11" timestamp="2008-08-04T10:30:17Z" uid="26974" user="master" changeset="52706" lat="51.5865682" lon="13.7790793">
    <tag k="created_by" v="Potlatch 0.9c"/>
    <tag k="historic" v="monument"/>
    <tag k="name" v="F 60"/>
    <tag k="tourism" v="attraction"/>
  </node>
  <node id="73158070" version="12" timestamp="2010-02-14T21:37:37Z" uid="109035" user="Teddy80" changeset="3878785" lat="51.5865682" lon="13.7790793">
    <tag k="historic" v="monument"/>
    <tag k="name" v="F 60"/>
    <tag k="tourism" v="attraction"/>
  </node>
  <node id="73158070" version="13" timestamp="2010-05-04T09:29:12Z" uid="264172" user="yalcinkaya" changeset="4602623" lat="51.5865682" lon="13.7790792">
    <tag k="addr:city" v="Lichterfeld"/>
    <tag k="addr:country" v="DE"/>
    <tag k="addr:housenumber" v="4"/>
    <tag k="addr:postcode" v="03238"/>
    <tag k="addr:street" v="Bergheider"/>
    <tag k="historic" v="monument"/>
    <tag k="name" v="F 60"/>
    <tag k="phone" v="+493531608010"/>
    <tag k="tourism" v="attraction"/>
    <tag k="website" v="www.F60.de"/>
  </node>
  <node id="73158070" version="14" timestamp="2011-07-22T11:16:22Z" uid="447997" user="Berliner Igel" changeset="8796594" lat="51.5865682" lon="13.7790792"/>
</osm>
