<?xml version='1.0' encoding='UTF-8'?>
<osm version="0.6" generator="libosmium/2.20.0">
  <node id="740430120" version="3" timestamp="2011-02-09T13:16:56Z" uid="115477" user="wowik" changeset="7235974" lat="57.3266957" lon="38.4819536">
    <tag k="name" v="Остапково"/>
    <tag k="place" v="hamlet"/>
  </node>
  <node id="740430120" version="4" timestamp="2011-08-18T12:00:16Z" uid="441214" user="Чирикан" changeset="9056282" lat="57.3266957" lon="38.4819536"/>
  <node id="740430124" version="2" timestamp="2011-02-09T13:16:55Z" uid="115477" user="wowik" changeset="7235974" lat="57.3421566" lon="38.4579135">
    <tag k="name" v="Судилово"/>
    <tag k="place" v="hamlet"/>
  </node>
  <node id="740430124" version="3" timestamp="2011-08-18T11:27:06Z" uid="441214" user="Чирикан" changeset="9056007" lat="57.3421566" lon="38.4579135"/>
  <node id="740430127" version="3" timestamp="2011-02-09T13:16:55Z" uid="115477" user="wowik" changeset="7235974" lat="57.3404222" lon="38.4897025">
    <tag k="addr:country" v="RU"/>
    <tag k="addr:district" v="Угличский район"/>
    <tag k="addr:postcode" v="152630"/>
    <tag k="addr:region" v="Ярославская область"/>
    <tag k="cladr:code" v="7601700027100"/>
    <tag k="cladr:name" v="Милодино"/>
    <tag k="cladr:suffix" v="Деревня"/>
    <tag k="name" v="Милодино"/>
    <tag k="place" v="hamlet"/>
  </node>
  <node id="740430127" version="4" timestamp="2011-08-09T04:48:58Z" uid="297358" user="patashnik" changeset="8963432" lat="57.3404222" lon="38.4897025">
    <tag k="addr:country" v="RU"/>
    <tag k="addr:district" v="Угличский район"/>
    <tag k="addr:region" v="Ярославская область"/>
    <tag k="cladr:code" v="7601700027100"/>
    <tag k="name" v="Милодино"/>
    <tag k="place" v="hamlet"/>
  </node>
  <node id="740430128" version="3" timestamp="2011-02-09T13:16:56Z" uid="115477" user="wowik" changeset="7235974" lat="57.3277747" lon="38.4939743">
    <tag k="addr:country" v="RU"/>
    <tag k="addr:district" v="Угличский район"/>
    <tag k="addr:postcode" v="152630"/>
    <tag k="addr:region" v="Ярославская область"/>
    <tag k="cladr:code" v="7601700023800"/>
    <tag k="cladr:name" v="Ларюково"/>
    <tag k="cladr:suffix" v="Деревня"/>
    <tag k="name" v="Ларюково"/>
    <tag k="place" v="hamlet"/>
  </node>
  <node id="740430128" version="4" timestamp="2011-08-09T04:48:59Z" uid="297358" user="patashnik" changeset="8963432" lat="57.3277747" lon="38.4939743">
    <tag k="addr:country" v="RU"/>
    <tag k="addr:district" v="Угличский район"/>
    <tag k="addr:region" v="Ярославская область"/>
    <tag k="cladr:code" v="7601700023800"/>
    <tag k="name" v="Ларюково"/>
    <tag k="place" v="hamlet"/>
  </node>
  <node id="740430128" version="5" timestamp="2011-09-23T05:16:10Z" uid="441214" user="Чирикан" changeset="9373928" lat="57.3291191" lon="38.4932628">
    <tag k="addr:country" v="RU"/>
    <tag k="addr:district" v="Угличский район"/>
    <tag k="addr:region" v="Ярославская область"/>
    <tag k="cladr:code" v="7601700023800"/>
    <tag k="name" v="Ларюково"/>
    <tag k="place" v="hamlet"/>
  </node>
  <node id="740430136" version="2" timestamp="2011-02-09T13:16:55Z" uid="115477" user="wowik" changeset="7235974" lat="57.354413" lon="38.493691">
    <tag k="name" v="Борисовское"/>
    <tag k="place" v="hamlet"/>
  </node>
  <node id="740430136" version="3" timestamp="2011-08-18T11:49:28Z" uid="441214" user="Чирикан" changeset="9056193" lat="57.354413" lon="38.493691"/>
  <node id="740438192" version="2" timestamp="2010-05-27T01:04:16Z" uid="99207" user="Lar Kiesel" changeset="4818554" lat="33.9504435" lon="-80.9705875"/>
</osm>
