<?xml version='1.0' encoding='UTF-8'?>
<osm version="0.6" generator="libosmium/2.20.0">
  <node id="746177061" version="1" timestamp="2010-05-23T07:21:38Z" uid="18775" user="drlizau" changeset="4780096" lat="-34.5076583" lon="144.843952">
    <tag k="name" v="NSW DPI"/>
    <tag k="office" v="government"/>
  </node>
  <node id="746177187" version="1" timestamp="2010-05-23T07:21:44Z" uid="18775" user="drlizau" changeset="4780096" lat="-34.5076243" lon="144.8439533">
    <tag k="amenity" v="chiropractor"/>
    <tag k="name" v="TLC Chiropractic"/>
  </node>
  <node id="746177188" version="1" timestamp="2010-05-23T07:21:44Z" uid="18775" user="drlizau" changeset="4780096" lat="-34.5077527" lon="144.8439519">
    <tag k="addr:housenumber" v="171"/>
    <tag k="amenity" v="fast_food"/>
    <tag k="cuisine" v="fish_and_chips;chicken;pizza"/>
    <tag k="name" v="Hay Fish Shop"/>
  </node>
  <node id="746177190" version="1" timestamp="2010-05-23T07:21:44Z" uid="18775" user="drlizau" changeset="4780096" lat="-34.5075809" lon="144.8439767">
    <tag k="name" v="RCC Employment &amp; Training"/>
    <tag k="office" v="employment_agency"/>
  </node>
  <node id="746177192" version="1" timestamp="2010-05-23T07:21:44Z" uid="18775" user="drlizau" changeset="4780096" lat="-34.5081191" lon="144.8438758">
    <tag k="name" v="Job Services Australia"/>
    <tag k="office" v="employment_agency"/>
  </node>
  <node id="746177194" version="1" timestamp="2010-05-23T07:21:44Z" uid="18775" user="drlizau" changeset="4780096" lat="-34.5079937" lon="144.8439059">
    <tag k="name" v="Jodie&apos;s"/>
    <tag k="shop" v="hairdresser"/>
  </node>
  <node id="746177196" version="1" timestamp="2010-05-23T07:21:44Z" uid="18775" user="drlizau" changeset="4780096" lat="-34.5077044" lon="144.8439552">
    <tag k="shop" v="clothes"/>
  </node>
  <node id="746177198" version="1" timestamp="2010-05-23T07:21:44Z" uid="18775" user="drlizau" changeset="4780096" lat="-34.5078117" lon="144.8439429">
    <tag k="name" v="Hay Furniture Co."/>
    <tag k="shop" v="furniture"/>
  </node>
</osm>
