<?xml version='1.0' encoding='UTF-8'?>
<osm version="0.6" generator="libosmium/2.20.0">
  <node id="746490393" version="1" timestamp="2010-05-23T13:52:39Z" uid="4467" user="Rosscoe" changeset="4783454" lat="-34.4776607" lon="150.418108"/>
  <node id="746490393" version="2" timestamp="2011-02-23T15:46:00Z" uid="4467" user="Rosscoe" changeset="7373526" lat="-34.4776612" lon="150.4181084"/>
  <node id="746490394" version="1" timestamp="2010-05-23T13:52:40Z" uid="4467" user="Rosscoe" changeset="4783454" lat="-34.4776952" lon="150.4181029"/>
  <node id="746490394" version="2" timestamp="2011-02-23T15:45:58Z" uid="4467" user="Rosscoe" changeset="7373526" lat="-34.4776957" lon="150.4181022"/>
  <node id="746490395" version="1" timestamp="2010-05-23T13:52:41Z" uid="4467" user="Rosscoe" changeset="4783454" lat="-34.4776661" lon="150.4181461"/>
  <node id="746490395" version="2" timestamp="2011-02-23T15:45:57Z" uid="4467" user="Rosscoe" changeset="7373526" lat="-34.4776657" lon="150.4181467"/>
  <node id="746490396" version="1" timestamp="2010-05-23T13:52:42Z" uid="4467" user="Rosscoe" changeset="4783454" lat="-34.4777008" lon="150.4181413"/>
  <node id="746490396" version="2" timestamp="2011-02-23T15:45:58Z" uid="4467" user="Rosscoe" changeset="7373526" lat="-34.4777003" lon="150.4181409"/>
  <node id="746490397" version="2" timestamp="2010-08-25T21:35:12Z" uid="9581" user="Lobelt" changeset="5594183" lat="49.5885097" lon="8.4818736"/>
  <node id="746490397" version="3" timestamp="2012-02-26T13:14:44Z" uid="55687" user="dschuwa" changeset="10797963" lat="49.5885097" lon="8.4818736"/>
  <node id="746491619" version="1" timestamp="2010-05-23T13:59:48Z" uid="242497" user="cvl" changeset="4783503" lat="-31.9982927" lon="115.7582752"/>
  <node id="746494115" version="2" timestamp="2010-07-29T09:32:11Z" uid="74617" user="JohnSmith" changeset="5344848" lat="52.6600456" lon="13.2433802">
    <tag k="amenity" v="emergency_phone"/>
    <tag k="emergency" v="phone"/>
    <tag k="operator" v="Autobahnmeisterei"/>
  </node>
  <node id="746494116" version="2" timestamp="2010-07-29T09:23:28Z" uid="74617" user="JohnSmith" changeset="5344848" lat="52.6849391" lon="13.2139383">
    <tag k="amenity" v="emergency_phone"/>
    <tag k="emergency" v="phone"/>
    <tag k="operator" v="Autobahnmeisterei"/>
  </node>
  <node id="746494118" version="2" timestamp="2010-07-29T09:10:23Z" uid="74617" user="JohnSmith" changeset="5344848" lat="52.6600485" lon="13.2430565">
    <tag k="amenity" v="emergency_phone"/>
    <tag k="emergency" v="phone"/>
    <tag k="operator" v="Autobahnmeisterei"/>
  </node>
  <node id="746494119" version="2" timestamp="2010-07-29T09:16:51Z" uid="74617" user="JohnSmith" changeset="5344848" lat="52.6915206" lon="13.2049325">
    <tag k="amenity" v="emergency_phone"/>
    <tag k="emergency" v="phone"/>
    <tag k="operator" v="Autobahnmeisterei"/>
  </node>
  <node id="746494120" version="2" timestamp="2010-07-29T09:04:34Z" uid="74617" user="JohnSmith" changeset="5344848" lat="52.6782222" lon="13.2260531">
    <tag k="amenity" v="emergency_phone"/>
    <tag k="emergency" v="phone"/>
    <tag k="operator" v="Autobahnmeisterei"/>
  </node>
  <node id="746494122" version="2" timestamp="2010-07-29T09:36:19Z" uid="74617" user="JohnSmith" changeset="5344848" lat="52.6914062" lon="13.2046078">
    <tag k="amenity" v="emergency_phone"/>
    <tag k="emergency" v="phone"/>
    <tag k="operator" v="Autobahnmeisterei"/>
  </node>
  <node id="746494123" version="2" timestamp="2010-07-29T08:57:18Z" uid="74617" user="JohnSmith" changeset="5344848" lat="52.6779876" lon="13.2257888">
    <tag k="amenity" v="emergency_phone"/>
    <tag k="emergency" v="phone"/>
    <tag k="operator" v="Autobahnmeisterei"/>
  </node>
  <node id="746494124" version="2" timestamp="2010-07-29T09:31:31Z" uid="74617" user="JohnSmith" changeset="5344848" lat="52.6850821" lon="13.214245">
    <tag k="amenity" v="emergency_phone"/>
    <tag k="emergency" v="phone"/>
    <tag k="operator" v="Autobahnmeisterei"/>
  </node>
  <node id="746494321" version="2" timestamp="2010-07-28T20:04:12Z" uid="74617" user="JohnSmith" changeset="5339329" lat="60.1997855" lon="24.9221786">
    <tag k="diameter" v="400"/>
    <tag k="emergency" v="fire_hydrant"/>
    <tag k="location" v="wall"/>
  </node>
  <node id="746494321" version="3" timestamp="2010-07-30T17:44:31Z" uid="74617" user="JohnSmith" changeset="5356742" lat="60.1997855" lon="24.9221786">
    <tag k="amenity" v="fire_hydrant"/>
    <tag k="diameter" v="400"/>
    <tag k="emergency" v="fire_hydrant"/>
    <tag k="location" v="wall"/>
  </node>
  <node id="746494321" version="4" timestamp="2011-11-27T19:54:39Z" uid="38239" user="Daeron" changeset="9971158" lat="60.1997855" lon="24.9221786"/>
  <node id="746495990" version="2" timestamp="2010-10-03T03:27:59Z" uid="20587" user="balrog-kun" changeset="5941061" lat="54.3513344" lon="18.6469993">
    <tag k="addr:city" v="Gdańsk"/>
    <tag k="addr:housenumber" v="1"/>
    <tag k="addr:street" v="Targ Drzewny"/>
    <tag k="amenity" v="bank"/>
    <tag k="millennium:date" v="2009-09-14 14:49:45"/>
    <tag k="millennium:ref" v="20722"/>
    <tag k="millennium:usługi" v="Millennium"/>
    <tag k="name" v="Millennium Bank"/>
    <tag k="opening_hours" v="10.00-18.00 Mo-Fr"/>
  </node>
</osm>
