<?xml version='1.0' encoding='UTF-8'?>
<osm version="0.6" generator="libosmium/2.20.0">
  <node id="747395586" version="1" timestamp="2010-05-24T19:46:44Z" uid="256927" user="Timo Müller" changeset="4797719" lat="49.3404862" lon="8.6649597">
    <tag k="barrier" v="gate"/>
  </node>
  <node id="747395588" version="1" timestamp="2010-05-24T19:46:44Z" uid="256927" user="Timo Müller" changeset="4797719" lat="49.340799" lon="8.6650806">
    <tag k="addr:city" v="Sandhausen"/>
    <tag k="addr:country" v="DE"/>
    <tag k="addr:housenumber" v="4/9"/>
    <tag k="addr:postcode" v="69207"/>
    <tag k="addr:street" v="Büchertstraße"/>
  </node>
  <node id="747395599" version="1" timestamp="2010-05-24T19:46:44Z" uid="256927" user="Timo Müller" changeset="4797719" lat="49.340995" lon="8.6650638">
    <tag k="addr:city" v="Sandhausen"/>
    <tag k="addr:country" v="DE"/>
    <tag k="addr:housenumber" v="3/3"/>
    <tag k="addr:postcode" v="69207"/>
    <tag k="addr:street" v="Mozartstraße"/>
  </node>
  <node id="747395603" version="1" timestamp="2010-05-24T19:46:44Z" uid="256927" user="Timo Müller" changeset="4797719" lat="49.3403787" lon="8.6652748">
    <tag k="addr:city" v="Sandhausen"/>
    <tag k="addr:country" v="DE"/>
    <tag k="addr:housenumber" v="4/15"/>
    <tag k="addr:postcode" v="69207"/>
    <tag k="addr:street" v="Büchertstraße"/>
  </node>
  <node id="747395609" version="1" timestamp="2010-05-24T19:46:45Z" uid="256927" user="Timo Müller" changeset="4797719" lat="49.3413584" lon="8.665727">
    <tag k="addr:city" v="Sandhausen"/>
    <tag k="addr:country" v="DE"/>
    <tag k="addr:housenumber" v="2/2"/>
    <tag k="addr:postcode" v="69207"/>
    <tag k="addr:street" v="Büchertstraße"/>
  </node>
  <node id="747395612" version="1" timestamp="2010-05-24T19:46:45Z" uid="256927" user="Timo Müller" changeset="4797719" lat="49.3413367" lon="8.6647623">
    <tag k="addr:city" v="Sandhausen"/>
    <tag k="addr:country" v="DE"/>
    <tag k="addr:housenumber" v="1/6"/>
    <tag k="addr:postcode" v="69207"/>
    <tag k="addr:street" v="Mozartstraße"/>
  </node>
  <node id="747395614" version="1" timestamp="2010-05-24T19:46:45Z" uid="256927" user="Timo Müller" changeset="4797719" lat="49.3416188" lon="8.6647461"/>
  <node id="747395616" version="1" timestamp="2010-05-24T19:46:45Z" uid="256927" user="Timo Müller" changeset="4797719" lat="49.34066" lon="8.66439"/>
  <node id="747395616" version="2" timestamp="2010-05-24T19:48:02Z" uid="256927" user="Timo Müller" changeset="4797740" lat="49.34066" lon="8.66439"/>
  <node id="747395618" version="1" timestamp="2010-05-24T19:46:45Z" uid="256927" user="Timo Müller" changeset="4797719" lat="49.3412828" lon="8.6653024"/>
  <node id="747395619" version="1" timestamp="2010-05-24T19:46:45Z" uid="256927" user="Timo Müller" changeset="4797719" lat="49.3412756" lon="8.6651479"/>
  <node id="747395621" version="1" timestamp="2010-05-24T19:46:45Z" uid="256927" user="Timo Müller" changeset="4797719" lat="49.3407203" lon="8.6654574">
    <tag k="addr:city" v="Sandhausen"/>
    <tag k="addr:country" v="DE"/>
    <tag k="addr:housenumber" v="4/6"/>
    <tag k="addr:postcode" v="69207"/>
    <tag k="addr:street" v="Büchertstraße"/>
  </node>
  <node id="747395623" version="1" timestamp="2010-05-24T19:46:45Z" uid="256927" user="Timo Müller" changeset="4797719" lat="49.3411032" lon="8.6652427">
    <tag k="barrier" v="gate"/>
  </node>
  <node id="747395625" version="1" timestamp="2010-05-24T19:46:45Z" uid="256927" user="Timo Müller" changeset="4797719" lat="49.34118" lon="8.66582"/>
  <node id="747395625" version="2" timestamp="2010-05-24T19:48:02Z" uid="256927" user="Timo Müller" changeset="4797740" lat="49.34118" lon="8.66582"/>
  <node id="747395627" version="1" timestamp="2010-05-24T19:46:45Z" uid="256927" user="Timo Müller" changeset="4797719" lat="49.3405595" lon="8.6654189">
    <tag k="addr:city" v="Sandhausen"/>
    <tag k="addr:country" v="DE"/>
    <tag k="addr:housenumber" v="4/11"/>
    <tag k="addr:postcode" v="69207"/>
    <tag k="addr:street" v="Büchertstraße"/>
  </node>
  <node id="747395630" version="1" timestamp="2010-05-24T19:46:45Z" uid="256927" user="Timo Müller" changeset="4797719" lat="49.3406863" lon="8.6649969"/>
  <node id="747395631" version="1" timestamp="2010-05-24T19:46:45Z" uid="256927" user="Timo Müller" changeset="4797719" lat="49.3412787" lon="8.665246"/>
  <node id="747395633" version="1" timestamp="2010-05-24T19:46:45Z" uid="256927" user="Timo Müller" changeset="4797719" lat="49.3405646" lon="8.6646106">
    <tag k="addr:city" v="Sandhausen"/>
    <tag k="addr:country" v="DE"/>
    <tag k="addr:housenumber" v="3/10"/>
    <tag k="addr:postcode" v="69207"/>
    <tag k="addr:street" v="Mozartstraße"/>
  </node>
  <node id="747395637" version="1" timestamp="2010-05-24T19:46:45Z" uid="256927" user="Timo Müller" changeset="4797719" lat="49.341479" lon="8.6651224">
    <tag k="addr:city" v="Sandhausen"/>
    <tag k="addr:country" v="DE"/>
    <tag k="addr:housenumber" v="1/4"/>
    <tag k="addr:postcode" v="69207"/>
    <tag k="addr:street" v="Mozartstraße"/>
  </node>
  <node id="747395639" version="1" timestamp="2010-05-24T19:46:45Z" uid="256927" user="Timo Müller" changeset="4797719" lat="49.3412869" lon="8.6652747"/>
  <node id="747395641" version="1" timestamp="2010-05-24T19:46:45Z" uid="256927" user="Timo Müller" changeset="4797719" lat="49.3410134" lon="8.6652899">
    <tag k="addr:city" v="Sandhausen"/>
    <tag k="addr:country" v="DE"/>
    <tag k="addr:housenumber" v="4/4"/>
    <tag k="addr:postcode" v="69207"/>
    <tag k="addr:street" v="Büchertstraße"/>
  </node>
  <node id="747395644" version="1" timestamp="2010-05-24T19:46:45Z" uid="256927" user="Timo Müller" changeset="4797719" lat="49.3403758" lon="8.6655324"/>
  <node id="747395646" version="1" timestamp="2010-05-24T19:46:45Z" uid="256927" user="Timo Müller" changeset="4797719" lat="49.3413467" lon="8.6658091">
    <tag k="addr:city" v="Sandhausen"/>
    <tag k="addr:country" v="DE"/>
    <tag k="addr:housenumber" v="2/1"/>
    <tag k="addr:postcode" v="69207"/>
    <tag k="addr:street" v="Büchertstraße"/>
  </node>
  <node id="747395652" version="1" timestamp="2010-05-24T19:46:45Z" uid="256927" user="Timo Müller" changeset="4797719" lat="49.3413081" lon="8.6652544"/>
  <node id="747395653" version="1" timestamp="2010-05-24T19:46:46Z" uid="256927" user="Timo Müller" changeset="4797719" lat="49.3403519" lon="8.665439">
    <tag k="addr:city" v="Sandhausen"/>
    <tag k="addr:country" v="DE"/>
    <tag k="addr:housenumber" v="4/14"/>
    <tag k="addr:postcode" v="69207"/>
    <tag k="addr:street" v="Büchertstraße"/>
  </node>
  <node id="747395657" version="1" timestamp="2010-05-24T19:46:46Z" uid="256927" user="Timo Müller" changeset="4797719" lat="49.3415326" lon="8.6649148">
    <tag k="addr:city" v="Sandhausen"/>
    <tag k="addr:country" v="DE"/>
    <tag k="addr:housenumber" v="1/2"/>
    <tag k="addr:postcode" v="69207"/>
    <tag k="addr:street" v="Mozartstraße"/>
  </node>
  <node id="747395660" version="1" timestamp="2010-05-24T19:46:46Z" uid="256927" user="Timo Müller" changeset="4797719" lat="49.34059" lon="8.66555"/>
  <node id="747395660" version="2" timestamp="2010-05-24T19:48:02Z" uid="256927" user="Timo Müller" changeset="4797740" lat="49.34059" lon="8.66555"/>
  <node id="747395662" version="1" timestamp="2010-05-24T19:46:46Z" uid="256927" user="Timo Müller" changeset="4797719" lat="49.3414154" lon="8.665439">
    <tag k="addr:city" v="Sandhausen"/>
    <tag k="addr:country" v="DE"/>
    <tag k="addr:housenumber" v="2/5"/>
    <tag k="addr:postcode" v="69207"/>
    <tag k="addr:street" v="Büchertstraße"/>
  </node>
  <node id="747395676" version="1" timestamp="2010-05-24T19:46:46Z" uid="256927" user="Timo Müller" changeset="4797719" lat="49.3409665" lon="8.6655261">
    <tag k="addr:city" v="Sandhausen"/>
    <tag k="addr:country" v="DE"/>
    <tag k="addr:housenumber" v="4/2"/>
    <tag k="addr:postcode" v="69207"/>
    <tag k="addr:street" v="Büchertstraße"/>
  </node>
  <node id="747395679" version="1" timestamp="2010-05-24T19:46:46Z" uid="256927" user="Timo Müller" changeset="4797719" lat="49.34088" lon="8.66444"/>
  <node id="747395679" version="2" timestamp="2010-05-24T19:48:03Z" uid="256927" user="Timo Müller" changeset="4797740" lat="49.34088" lon="8.66444"/>
  <node id="747395681" version="1" timestamp="2010-05-24T19:46:46Z" uid="256927" user="Timo Müller" changeset="4797719" lat="49.3409692" lon="8.6657944"/>
  <node id="747395682" version="1" timestamp="2010-05-24T19:46:46Z" uid="256927" user="Timo Müller" changeset="4797719" lat="49.3401905" lon="8.6663298"/>
  <node id="747395684" version="1" timestamp="2010-05-24T19:46:46Z" uid="256927" user="Timo Müller" changeset="4797719" lat="49.340784" lon="8.664687">
    <tag k="addr:city" v="Sandhausen"/>
    <tag k="addr:country" v="DE"/>
    <tag k="addr:housenumber" v="3/6"/>
    <tag k="addr:postcode" v="69207"/>
    <tag k="addr:street" v="Mozartstraße"/>
  </node>
  <node id="747395688" version="1" timestamp="2010-05-24T19:46:46Z" uid="256927" user="Timo Müller" changeset="4797719" lat="49.3406551" lon="8.664408"/>
  <node id="747395690" version="1" timestamp="2010-05-24T19:46:46Z" uid="256927" user="Timo Müller" changeset="4797719" lat="49.3411441" lon="8.6645797"/>
  <node id="747395693" version="1" timestamp="2010-05-24T19:46:47Z" uid="256927" user="Timo Müller" changeset="4797719" lat="49.3405394" lon="8.6655277">
    <tag k="addr:city" v="Sandhausen"/>
    <tag k="addr:country" v="DE"/>
    <tag k="addr:housenumber" v="4/10"/>
    <tag k="addr:postcode" v="69207"/>
    <tag k="addr:street" v="Büchertstraße"/>
  </node>
  <node id="747395696" version="1" timestamp="2010-05-24T19:46:47Z" uid="256927" user="Timo Müller" changeset="4797719" lat="49.3415561" lon="8.664826">
    <tag k="addr:city" v="Sandhausen"/>
    <tag k="addr:country" v="DE"/>
    <tag k="addr:housenumber" v="1/1"/>
    <tag k="addr:postcode" v="69207"/>
    <tag k="addr:street" v="Mozartstraße"/>
  </node>
  <node id="747395700" version="1" timestamp="2010-05-24T19:46:47Z" uid="256927" user="Timo Müller" changeset="4797719" lat="49.3405793" lon="8.6645376">
    <tag k="addr:city" v="Sandhausen"/>
    <tag k="addr:country" v="DE"/>
    <tag k="addr:housenumber" v="3/9"/>
    <tag k="addr:postcode" v="69207"/>
    <tag k="addr:street" v="Mozartstraße"/>
  </node>
  <node id="747395703" version="1" timestamp="2010-05-24T19:46:47Z" uid="256927" user="Timo Müller" changeset="4797719" lat="49.3413768" lon="8.6656316">
    <tag k="addr:city" v="Sandhausen"/>
    <tag k="addr:country" v="DE"/>
    <tag k="addr:housenumber" v="2/3"/>
    <tag k="addr:postcode" v="69207"/>
    <tag k="addr:street" v="Büchertstraße"/>
  </node>
  <node id="747395705" version="1" timestamp="2010-05-24T19:46:47Z" uid="256927" user="Timo Müller" changeset="4797719" lat="49.3409347" lon="8.6657153">
    <tag k="addr:city" v="Sandhausen"/>
    <tag k="addr:country" v="DE"/>
    <tag k="addr:housenumber" v="4"/>
    <tag k="addr:postcode" v="69207"/>
    <tag k="addr:street" v="Büchertstraße"/>
  </node>
  <node id="747395708" version="1" timestamp="2010-05-24T19:46:48Z" uid="256927" user="Timo Müller" changeset="4797719" lat="49.3410378" lon="8.6651017"/>
  <node id="747395710" version="1" timestamp="2010-05-24T19:46:48Z" uid="256927" user="Timo Müller" changeset="4797719" lat="49.3414355" lon="8.6653418">
    <tag k="addr:city" v="Sandhausen"/>
    <tag k="addr:country" v="DE"/>
    <tag k="addr:housenumber" v="2/6"/>
    <tag k="addr:postcode" v="69207"/>
    <tag k="addr:street" v="Büchertstraße"/>
  </node>
  <node id="747395713" version="1" timestamp="2010-05-24T19:46:48Z" uid="256927" user="Timo Müller" changeset="4797719" lat="49.3410201" lon="8.6649315">
    <tag k="addr:city" v="Sandhausen"/>
    <tag k="addr:country" v="DE"/>
    <tag k="addr:housenumber" v="3/3"/>
    <tag k="addr:postcode" v="69207"/>
    <tag k="addr:street" v="Mozartstraße"/>
  </node>
  <node id="747395713" version="2" timestamp="2010-05-26T18:04:46Z" uid="256927" user="Timo Müller" changeset="4815302" lat="49.3410201" lon="8.6649314">
    <tag k="addr:city" v="Sandhausen"/>
    <tag k="addr:country" v="DE"/>
    <tag k="addr:housenumber" v="3/2"/>
    <tag k="addr:postcode" v="69207"/>
    <tag k="addr:street" v="Mozartstraße"/>
  </node>
  <node id="747395716" version="1" timestamp="2010-05-24T19:46:48Z" uid="256927" user="Timo Müller" changeset="4797719" lat="49.34049" lon="8.66494"/>
  <node id="747395717" version="1" timestamp="2010-05-24T19:46:48Z" uid="256927" user="Timo Müller" changeset="4797719" lat="49.3408724" lon="8.6644843"/>
  <node id="747395719" version="1" timestamp="2010-05-24T19:46:48Z" uid="256927" user="Timo Müller" changeset="4797719" lat="49.3407722" lon="8.6651928">
    <tag k="addr:city" v="Sandhausen"/>
    <tag k="addr:country" v="DE"/>
    <tag k="addr:housenumber" v="4/8"/>
    <tag k="addr:postcode" v="69207"/>
    <tag k="addr:street" v="Büchertstraße"/>
  </node>
  <node id="747395723" version="1" timestamp="2010-05-24T19:46:48Z" uid="256927" user="Timo Müller" changeset="4797719" lat="49.3407304" lon="8.6649349">
    <tag k="addr:city" v="Sandhausen"/>
    <tag k="addr:country" v="DE"/>
    <tag k="addr:housenumber" v="3/8"/>
    <tag k="addr:postcode" v="69207"/>
    <tag k="addr:street" v="Mozartstraße"/>
  </node>
  <node id="747395727" version="1" timestamp="2010-05-24T19:46:48Z" uid="256927" user="Timo Müller" changeset="4797719" lat="49.3412966" lon="8.6651719"/>
  <node id="747395728" version="1" timestamp="2010-05-24T19:46:48Z" uid="256927" user="Timo Müller" changeset="4797719" lat="49.3406265" lon="8.6650353">
    <tag k="addr:city" v="Sandhausen"/>
    <tag k="addr:country" v="DE"/>
    <tag k="addr:housenumber" v="4/13"/>
    <tag k="addr:postcode" v="69207"/>
    <tag k="addr:street" v="Büchertstraße"/>
  </node>
  <node id="747395731" version="1" timestamp="2010-05-24T19:46:48Z" uid="256927" user="Timo Müller" changeset="4797719" lat="49.341201" lon="8.6654741">
    <tag k="addr:city" v="Sandhausen"/>
    <tag k="addr:country" v="DE"/>
    <tag k="addr:housenumber" v="2/9"/>
    <tag k="addr:postcode" v="69207"/>
    <tag k="addr:street" v="Büchertstraße"/>
  </node>
  <node id="747395734" version="1" timestamp="2010-05-24T19:46:48Z" uid="256927" user="Timo Müller" changeset="4797719" lat="49.34076" lon="8.66563"/>
  <node id="747395734" version="2" timestamp="2010-05-24T19:48:02Z" uid="256927" user="Timo Müller" changeset="4797740" lat="49.34076" lon="8.66563"/>
  <node id="747395736" version="1" timestamp="2010-05-24T19:46:48Z" uid="256927" user="Timo Müller" changeset="4797719" lat="49.3412814" lon="8.6650337">
    <tag k="addr:city" v="Sandhausen"/>
    <tag k="addr:country" v="DE"/>
    <tag k="addr:housenumber" v="1/9"/>
    <tag k="addr:postcode" v="69207"/>
    <tag k="addr:street" v="Mozartstraße"/>
  </node>
  <node id="747395759" version="1" timestamp="2010-05-24T19:46:49Z" uid="256927" user="Timo Müller" changeset="4797719" lat="49.34114" lon="8.6646"/>
  <node id="747395759" version="2" timestamp="2010-05-26T18:04:47Z" uid="256927" user="Timo Müller" changeset="4815302" lat="49.34114" lon="8.6646"/>
  <node id="747395762" version="1" timestamp="2010-05-24T19:46:49Z" uid="256927" user="Timo Müller" changeset="4797719" lat="49.3406969" lon="8.6655679">
    <tag k="addr:city" v="Sandhausen"/>
    <tag k="addr:country" v="DE"/>
    <tag k="addr:housenumber" v="4/5"/>
    <tag k="addr:postcode" v="69207"/>
    <tag k="addr:street" v="Büchertstraße"/>
  </node>
  <node id="747395769" version="1" timestamp="2010-05-24T19:46:49Z" uid="256927" user="Timo Müller" changeset="4797719" lat="49.3408091" lon="8.664563">
    <tag k="addr:city" v="Sandhausen"/>
    <tag k="addr:country" v="DE"/>
    <tag k="addr:housenumber" v="3/5"/>
    <tag k="addr:postcode" v="69207"/>
    <tag k="addr:street" v="Mozartstraße"/>
  </node>
  <node id="747395774" version="1" timestamp="2010-05-24T19:46:49Z" uid="256927" user="Timo Müller" changeset="4797719" lat="49.341066" lon="8.6652383"/>
  <node id="747395777" version="1" timestamp="2010-05-24T19:46:49Z" uid="256927" user="Timo Müller" changeset="4797719" lat="49.3407488" lon="8.665315">
    <tag k="addr:city" v="Sandhausen"/>
    <tag k="addr:country" v="DE"/>
    <tag k="addr:housenumber" v="4/7"/>
    <tag k="addr:postcode" v="69207"/>
    <tag k="addr:street" v="Büchertstraße"/>
  </node>
  <node id="747395783" version="1" timestamp="2010-05-24T19:46:49Z" uid="256927" user="Timo Müller" changeset="4797719" lat="49.3413571" lon="8.6646545"/>
  <node id="747395783" version="2" timestamp="2010-05-24T19:48:02Z" uid="256927" user="Timo Müller" changeset="4797740" lat="49.3413571" lon="8.6646545"/>
  <node id="747395784" version="1" timestamp="2010-05-24T19:46:49Z" uid="256927" user="Timo Müller" changeset="4797719" lat="49.3413132" lon="8.6648762">
    <tag k="addr:city" v="Sandhausen"/>
    <tag k="addr:country" v="DE"/>
    <tag k="addr:housenumber" v="1/7"/>
    <tag k="addr:postcode" v="69207"/>
    <tag k="addr:street" v="Mozartstraße"/>
  </node>
  <node id="747395789" version="1" timestamp="2010-05-24T19:46:49Z" uid="256927" user="Timo Müller" changeset="4797719" lat="49.3410726" lon="8.66527">
    <tag k="barrier" v="bollard"/>
    <tag k="bicycle" v="yes"/>
    <tag k="foot" v="yes"/>
  </node>
  <node id="747395794" version="1" timestamp="2010-05-24T19:46:49Z" uid="256927" user="Timo Müller" changeset="4797719" lat="49.34099" lon="8.6653971">
    <tag k="addr:city" v="Sandhausen"/>
    <tag k="addr:country" v="DE"/>
    <tag k="addr:housenumber" v="4/3"/>
    <tag k="addr:postcode" v="69207"/>
    <tag k="addr:street" v="Büchertstraße"/>
  </node>
  <node id="747395799" version="1" timestamp="2010-05-24T19:46:49Z" uid="256927" user="Timo Müller" changeset="4797719" lat="49.3410369" lon="8.6648528">
    <tag k="addr:city" v="3/1"/>
    <tag k="addr:country" v="DE"/>
    <tag k="addr:housenumber" v="1/9"/>
    <tag k="addr:postcode" v="69207"/>
    <tag k="addr:street" v="Mozartstraße"/>
  </node>
  <node id="747395799" version="2" timestamp="2010-05-26T18:04:46Z" uid="256927" user="Timo Müller" changeset="4815302" lat="49.3410369" lon="8.6648527">
    <tag k="addr:city" v="Sandhausen"/>
    <tag k="addr:country" v="DE"/>
    <tag k="addr:housenumber" v="3/1"/>
    <tag k="addr:postcode" v="69207"/>
    <tag k="addr:street" v="Mozartstraße"/>
  </node>
  <node id="747395803" version="1" timestamp="2010-05-24T19:46:49Z" uid="256927" user="Timo Müller" changeset="4797719" lat="49.34055" lon="8.66496"/>
  <node id="747395805" version="1" timestamp="2010-05-24T19:46:49Z" uid="256927" user="Timo Müller" changeset="4797719" lat="49.3412704" lon="8.6651689">
    <tag k="barrier" v="gate"/>
  </node>
  <node id="747395808" version="1" timestamp="2010-05-24T19:46:49Z" uid="256927" user="Timo Müller" changeset="4797719" lat="49.3407421" lon="8.6656941"/>
  <node id="747395811" version="1" timestamp="2010-05-24T19:46:49Z" uid="256927" user="Timo Müller" changeset="4797719" lat="49.3405123" lon="8.6648705">
    <tag k="addr:city" v="Sandhausen"/>
    <tag k="addr:country" v="DE"/>
    <tag k="addr:housenumber" v="3/12"/>
    <tag k="addr:postcode" v="69207"/>
    <tag k="addr:street" v="Mozartstraße"/>
  </node>
  <node id="747395816" version="1" timestamp="2010-05-24T19:46:49Z" uid="256927" user="Timo Müller" changeset="4797719" lat="49.3414606" lon="8.6652078">
    <tag k="addr:city" v="Sandhausen"/>
    <tag k="addr:country" v="DE"/>
    <tag k="addr:housenumber" v="1/5"/>
    <tag k="addr:postcode" v="69207"/>
    <tag k="addr:street" v="Mozartstraße"/>
  </node>
  <node id="747395823" version="1" timestamp="2010-05-24T19:46:49Z" uid="256927" user="Timo Müller" changeset="4797719" lat="49.3411082" lon="8.6652651"/>
  <node id="747395825" version="1" timestamp="2010-05-24T19:46:49Z" uid="256927" user="Timo Müller" changeset="4797719" lat="49.3412463" lon="8.6652651"/>
  <node id="747395829" version="1" timestamp="2010-05-24T19:46:49Z" uid="256927" user="Timo Müller" changeset="4797719" lat="49.3409531" lon="8.6656249">
    <tag k="addr:city" v="Sandhausen"/>
    <tag k="addr:country" v="DE"/>
    <tag k="addr:housenumber" v="4/1"/>
    <tag k="addr:postcode" v="69207"/>
    <tag k="addr:street" v="Büchertstraße"/>
  </node>
  <node id="747395834" version="1" timestamp="2010-05-24T19:46:49Z" uid="256927" user="Timo Müller" changeset="4797719" lat="49.3413015" lon="8.6652892">
    <tag k="barrier" v="gate"/>
  </node>
  <node id="747395837" version="1" timestamp="2010-05-24T19:46:49Z" uid="256927" user="Timo Müller" changeset="4797719" lat="49.34135" lon="8.664677"/>
  <node id="747395837" version="2" timestamp="2010-05-24T19:48:02Z" uid="256927" user="Timo Müller" changeset="4797740" lat="49.34135" lon="8.664677"/>
  <node id="747395839" version="1" timestamp="2010-05-24T19:46:50Z" uid="256927" user="Timo Müller" changeset="4797719" lat="49.3408579" lon="8.665045"/>
  <node id="747395842" version="1" timestamp="2010-05-24T19:46:50Z" uid="256927" user="Timo Müller" changeset="4797719" lat="49.3409749" lon="8.6651476">
    <tag k="addr:city" v="Sandhausen"/>
    <tag k="addr:country" v="DE"/>
    <tag k="addr:housenumber" v="3/4"/>
    <tag k="addr:postcode" v="69207"/>
    <tag k="addr:street" v="Mozartstraße"/>
  </node>
  <node id="747395847" version="1" timestamp="2010-05-24T19:46:50Z" uid="256927" user="Timo Müller" changeset="4797719" lat="49.340575" lon="8.6656204"/>
  <node id="747395851" version="1" timestamp="2010-05-24T19:46:50Z" uid="256927" user="Timo Müller" changeset="4797719" lat="49.3407679" lon="8.665001"/>
  <node id="747395855" version="1" timestamp="2010-05-24T19:46:50Z" uid="256927" user="Timo Müller" changeset="4797719" lat="49.3404205" lon="8.6650638">
    <tag k="addr:city" v="Sandhausen"/>
    <tag k="addr:country" v="DE"/>
    <tag k="addr:housenumber" v="4/16"/>
    <tag k="addr:postcode" v="69207"/>
    <tag k="addr:street" v="Büchertstraße"/>
  </node>
  <node id="747395873" version="1" timestamp="2010-05-24T19:46:50Z" uid="256927" user="Timo Müller" changeset="4797719" lat="49.3414991" lon="8.6650471">
    <tag k="addr:city" v="Sandhausen"/>
    <tag k="addr:country" v="DE"/>
    <tag k="addr:housenumber" v="1/3"/>
    <tag k="addr:postcode" v="69207"/>
    <tag k="addr:street" v="Mozartstraße"/>
  </node>
  <node id="747395876" version="1" timestamp="2010-05-24T19:46:50Z" uid="256927" user="Timo Müller" changeset="4797719" lat="49.3413982" lon="8.6658943"/>
  <node id="747395877" version="1" timestamp="2010-05-24T19:46:50Z" uid="256927" user="Timo Müller" changeset="4797719" lat="49.3411558" lon="8.6657538">
    <tag k="addr:city" v="Sandhausen"/>
    <tag k="addr:country" v="DE"/>
    <tag k="addr:housenumber" v="2/7"/>
    <tag k="addr:postcode" v="69207"/>
    <tag k="addr:street" v="Büchertstraße"/>
  </node>
  <node id="747395880" version="1" timestamp="2010-05-24T19:46:50Z" uid="256927" user="Timo Müller" changeset="4797719" lat="49.3412194" lon="8.6653653">
    <tag k="addr:city" v="Sandhausen"/>
    <tag k="addr:country" v="DE"/>
    <tag k="addr:housenumber" v="2/10"/>
    <tag k="addr:postcode" v="69207"/>
    <tag k="addr:street" v="Büchertstraße"/>
  </node>
  <node id="747395883" version="1" timestamp="2010-05-24T19:46:50Z" uid="256927" user="Timo Müller" changeset="4797719" lat="49.34039" lon="8.66548"/>
  <node id="747395883" version="2" timestamp="2010-05-24T19:48:02Z" uid="256927" user="Timo Müller" changeset="4797740" lat="49.34039" lon="8.66548"/>
  <node id="747395885" version="1" timestamp="2010-05-24T19:46:50Z" uid="256927" user="Timo Müller" changeset="4797719" lat="49.3404806" lon="8.6663506"/>
  <node id="747395887" version="1" timestamp="2010-05-24T19:46:50Z" uid="256927" user="Timo Müller" changeset="4797719" lat="49.3410536" lon="8.6647238">
    <tag k="addr:city" v="Sandhausen"/>
    <tag k="addr:country" v="DE"/>
    <tag k="addr:housenumber" v="3"/>
    <tag k="addr:postcode" v="69207"/>
    <tag k="addr:street" v="Mozartstraße"/>
  </node>
  <node id="747395891" version="1" timestamp="2010-05-24T19:46:50Z" uid="256927" user="Timo Müller" changeset="4797719" lat="49.3415115" lon="8.6653046">
    <tag k="barrier" v="gate"/>
  </node>
  <node id="747395892" version="1" timestamp="2010-05-24T19:46:50Z" uid="256927" user="Timo Müller" changeset="4797719" lat="49.34098" lon="8.66573"/>
  <node id="747395892" version="2" timestamp="2010-05-24T19:48:32Z" uid="256927" user="Timo Müller" changeset="4797745" lat="49.34098" lon="8.66573"/>
  <node id="747395893" version="1" timestamp="2010-05-24T19:46:51Z" uid="256927" user="Timo Müller" changeset="4797719" lat="49.3406081" lon="8.6651442">
    <tag k="addr:city" v="Sandhausen"/>
    <tag k="addr:country" v="DE"/>
    <tag k="addr:housenumber" v="4/12"/>
    <tag k="addr:postcode" v="69207"/>
    <tag k="addr:street" v="Büchertstraße"/>
  </node>
  <node id="747395895" version="1" timestamp="2010-05-24T19:46:51Z" uid="256927" user="Timo Müller" changeset="4797719" lat="49.3407639" lon="8.6647757">
    <tag k="addr:city" v="Sandhausen"/>
    <tag k="addr:country" v="DE"/>
    <tag k="addr:housenumber" v="3/7"/>
    <tag k="addr:postcode" v="69207"/>
    <tag k="addr:street" v="Mozartstraße"/>
  </node>
  <node id="747395896" version="1" timestamp="2010-05-24T19:46:51Z" uid="256927" user="Timo Müller" changeset="4797719" lat="49.3405344" lon="8.6647811">
    <tag k="addr:city" v="Sandhausen"/>
    <tag k="addr:country" v="DE"/>
    <tag k="addr:housenumber" v="3/11"/>
    <tag k="addr:postcode" v="69207"/>
    <tag k="addr:street" v="Mozartstraße"/>
  </node>
  <node id="747395897" version="1" timestamp="2010-05-24T19:46:51Z" uid="256927" user="Timo Müller" changeset="4797719" lat="49.3413936" lon="8.6655361">
    <tag k="addr:city" v="Sandhausen"/>
    <tag k="addr:country" v="DE"/>
    <tag k="addr:housenumber" v="2/4"/>
    <tag k="addr:postcode" v="69207"/>
    <tag k="addr:street" v="Büchertstraße"/>
  </node>
  <node id="747395898" version="1" timestamp="2010-05-24T19:46:51Z" uid="256927" user="Timo Müller" changeset="4797719" lat="49.3411725" lon="8.6656249">
    <tag k="addr:city" v="Sandhausen"/>
    <tag k="addr:country" v="DE"/>
    <tag k="addr:housenumber" v="2/8"/>
    <tag k="addr:postcode" v="69207"/>
    <tag k="addr:street" v="Büchertstraße"/>
  </node>
  <node id="747395899" version="1" timestamp="2010-05-24T19:46:51Z" uid="256927" user="Timo Müller" changeset="4797719" lat="49.3410726" lon="8.6651039"/>
  <node id="747395901" version="1" timestamp="2010-05-24T19:46:51Z" uid="256927" user="Timo Müller" changeset="4797719" lat="49.3412931" lon="8.6649533">
    <tag k="addr:city" v="Sandhausen"/>
    <tag k="addr:country" v="DE"/>
    <tag k="addr:housenumber" v="1/8"/>
    <tag k="addr:postcode" v="69207"/>
    <tag k="addr:street" v="Mozartstraße"/>
  </node>
</osm>
