<?xml version='1.0' encoding='UTF-8'?>
<osm version="0.6" generator="libosmium/2.20.0">
  <node id="748626037" version="3" timestamp="2010-06-22T02:06:25Z" uid="20587" user="balrog-kun" changeset="5047946" lat="14.5861228" lon="121.0599892">
    <tag k="amenity" v="cafe"/>
    <tag k="name" v="Starbucks"/>
  </node>
  <node id="748626037" version="4" timestamp="2011-05-07T15:13:04Z" uid="11126" user="seav" changeset="8074337" lat="14.5861302" lon="121.0600071">
    <tag k="addr:city" v="Pasig"/>
    <tag k="addr:housename" v="Anson&apos;s"/>
    <tag k="addr:housenumber" v="23"/>
    <tag k="addr:street" v="ADB Avenue"/>
    <tag k="amenity" v="cafe"/>
    <tag k="name" v="Starbucks"/>
  </node>
  <node id="748626047" version="3" timestamp="2010-06-22T02:06:25Z" uid="20587" user="balrog-kun" changeset="5047946" lat="14.5864336" lon="121.0600038">
    <tag k="name" v="7-Eleven"/>
    <tag k="shop" v="convenience"/>
  </node>
  <node id="748626047" version="4" timestamp="2011-05-07T15:13:05Z" uid="11126" user="seav" changeset="8074337" lat="14.5864683" lon="121.0600012">
    <tag k="addr:city" v="Pasig"/>
    <tag k="addr:housename" v="The Malayan Plaza"/>
    <tag k="addr:street" v="ADB Avenue"/>
    <tag k="name" v="7-Eleven"/>
    <tag k="shop" v="convenience"/>
  </node>
  <node id="748626057" version="3" timestamp="2010-06-22T02:06:24Z" uid="20587" user="balrog-kun" changeset="5047946" lat="14.5865648" lon="121.0599973">
    <tag k="amenity" v="bank"/>
    <tag k="name" v="Citibank"/>
    <tag k="operator" v="Citibank"/>
  </node>
  <node id="748626057" version="4" timestamp="2011-05-07T15:13:05Z" uid="11126" user="seav" changeset="8074337" lat="14.5865301" lon="121.0599947">
    <tag k="addr:city" v="Pasig"/>
    <tag k="addr:housename" v="The Malayan Plaza"/>
    <tag k="addr:street" v="ADB Avenue"/>
    <tag k="amenity" v="bank"/>
    <tag k="branch" v="Ortigas"/>
    <tag k="name" v="Citibank Savings"/>
    <tag k="operator" v="Citibank"/>
  </node>
  <node id="748626067" version="3" timestamp="2010-06-22T02:06:24Z" uid="20587" user="balrog-kun" changeset="5047946" lat="14.5866376" lon="121.0600394">
    <tag k="amenity" v="bank"/>
    <tag k="name" v="RCBC"/>
    <tag k="operator" v="RCBC"/>
  </node>
  <node id="748626067" version="4" timestamp="2011-05-07T15:13:05Z" uid="11126" user="seav" changeset="8074337" lat="14.5866153" lon="121.0600215">
    <tag k="addr:city" v="Pasig"/>
    <tag k="addr:housename" v="The Malayan Plaza"/>
    <tag k="addr:street" v="ADB Avenue"/>
    <tag k="addr:unit" v="G3-G4"/>
    <tag k="amenity" v="bank"/>
    <tag k="branch" v="Ortigas-Malayan Plaza"/>
    <tag k="name" v="RCBC"/>
    <tag k="operator" v="RCBC"/>
  </node>
  <node id="748626085" version="3" timestamp="2010-06-22T02:06:24Z" uid="20587" user="balrog-kun" changeset="5047946" lat="14.5853587" lon="121.0600944">
    <tag k="amenity" v="bank"/>
    <tag k="branch" v="Ortigas"/>
    <tag k="name" v="PNB"/>
    <tag k="operator" v="PNB"/>
  </node>
  <node id="748626085" version="4" timestamp="2011-08-20T15:11:54Z" uid="11126" user="seav" changeset="9075124" lat="14.5853587" lon="121.0600944">
    <tag k="addr:city" v="Pasig"/>
    <tag k="addr:housename" v="The JMT Corporate Condominium"/>
    <tag k="addr:housenumber" v="27"/>
    <tag k="addr:street" v="ADB Avenue"/>
    <tag k="amenity" v="bank"/>
    <tag k="branch" v="Ortigas"/>
    <tag k="name" v="PNB"/>
    <tag k="operator" v="PNB"/>
  </node>
  <node id="748626171" version="3" timestamp="2010-06-22T02:06:24Z" uid="20587" user="balrog-kun" changeset="5047946" lat="14.5866716" lon="121.0603486">
    <tag k="amenity" v="restaurant"/>
    <tag k="name" v="Pancake House"/>
  </node>
  <node id="748626171" version="4" timestamp="2011-08-20T15:11:54Z" uid="11126" user="seav" changeset="9075124" lat="14.5866716" lon="121.0603486">
    <tag k="addr:city" v="Pasig"/>
    <tag k="addr:housename" v="The Malayan Plaza"/>
    <tag k="addr:street" v="Opal Road"/>
    <tag k="amenity" v="restaurant"/>
    <tag k="name" v="Pancake House"/>
  </node>
  <node id="748626180" version="3" timestamp="2010-06-22T02:06:25Z" uid="20587" user="balrog-kun" changeset="5047946" lat="14.5865793" lon="121.0603518">
    <tag k="amenity" v="restaurant"/>
    <tag k="name" v="Q Bistro"/>
  </node>
  <node id="748626180" version="4" timestamp="2011-08-20T15:11:49Z" uid="11126" user="seav" changeset="9075124" lat="14.5865793" lon="121.0603518">
    <tag k="addr:city" v="Pasig"/>
    <tag k="addr:housename" v="The Malayan Plaza"/>
    <tag k="addr:street" v="Opal Road"/>
    <tag k="amenity" v="restaurant"/>
    <tag k="name" v="Q Bistro"/>
  </node>
  <node id="748628427" version="1" timestamp="2010-05-25T23:54:13Z" uid="163746" user="anti_bot-nonsense" changeset="4809202" lat="47.8997884" lon="12.3014994"/>
  <node id="748628427" version="2" timestamp="2010-06-07T19:47:22Z" uid="163746" user="anti_bot-nonsense" changeset="4931752" lat="47.8997853" lon="12.3014923"/>
  <node id="748628437" version="1" timestamp="2010-05-25T23:54:14Z" uid="163746" user="anti_bot-nonsense" changeset="4809202" lat="47.8995613" lon="12.3013532"/>
  <node id="748628437" version="2" timestamp="2010-06-07T19:47:23Z" uid="163746" user="anti_bot-nonsense" changeset="4931752" lat="47.899564" lon="12.3013273"/>
  <node id="748628446" version="1" timestamp="2010-05-25T23:54:14Z" uid="163746" user="anti_bot-nonsense" changeset="4809202" lat="47.8995836" lon="12.3015509"/>
  <node id="748628446" version="2" timestamp="2010-06-07T19:47:20Z" uid="163746" user="anti_bot-nonsense" changeset="4931752" lat="47.8995789" lon="12.3015266"/>
  <node id="748628456" version="1" timestamp="2010-05-25T23:54:15Z" uid="163746" user="anti_bot-nonsense" changeset="4809202" lat="47.8997661" lon="12.3013016"/>
  <node id="748628456" version="2" timestamp="2010-06-07T19:47:22Z" uid="163746" user="anti_bot-nonsense" changeset="4931752" lat="47.8997705" lon="12.301293"/>
</osm>
