<?xml version='1.0' encoding='UTF-8'?>
<osm version="0.6" generator="libosmium/2.20.0">
  <node id="748853689" version="2" timestamp="2010-06-17T23:39:09Z" uid="66036" user="h4v" changeset="5013171" lat="51.7581639" lon="19.487941">
    <tag k="fixme" v="bus_stop"/>
    <tag k="name" v="tramwaj 4, 7, 13, 14"/>
    <tag k="note" v="powinno być tram_Stop i połączone z linia tramwajową, oznaczenia lini trzeba inaczej"/>
  </node>
  <node id="748853690" version="2" timestamp="2010-06-17T23:39:07Z" uid="66036" user="h4v" changeset="5013171" lat="51.7605014" lon="19.4855592">
    <tag k="fixme" v="bus_stop"/>
    <tag k="name" v="autobus 70, 70A, 75, 96"/>
    <tag k="note" v="powinno być tram_Stop i połączone z linia tramwajową, oznaczenia lini trzeba inaczej"/>
  </node>
  <node id="748853690" version="3" timestamp="2011-04-10T22:13:54Z" uid="66036" user="h4v" changeset="7828290" lat="51.7605014" lon="19.4855592">
    <tag k="fixme" v="bus_stop"/>
    <tag k="name" v="autobus 70, 70A, 75, 96"/>
  </node>
  <node id="748853690" version="4" timestamp="2011-06-13T11:06:35Z" uid="66036" user="h4v" changeset="8424619" lat="51.7605014" lon="19.4855592"/>
  <node id="748853691" version="2" timestamp="2011-06-13T11:06:25Z" uid="66036" user="h4v" changeset="8424619" lat="51.7603155" lon="19.4867179">
    <tag k="highway" v="bus_stop"/>
    <tag k="line" v="autobus 70, 70A, 96"/>
  </node>
  <node id="748853694" version="2" timestamp="2010-06-17T23:39:09Z" uid="66036" user="h4v" changeset="5013171" lat="51.7611522" lon="19.4809458">
    <tag k="fixme" v="bus_stop"/>
    <tag k="name" v="tramwaj 8, 10, 14"/>
  </node>
  <node id="748853695" version="2" timestamp="2010-06-17T23:39:05Z" uid="66036" user="h4v" changeset="5013171" lat="51.7611256" lon="19.4811174">
    <tag k="fixme" v="bus_stop"/>
    <tag k="name" v="tramwaj 8, 10, 14"/>
  </node>
  <node id="748853696" version="2" timestamp="2010-06-17T23:39:09Z" uid="66036" user="h4v" changeset="5013171" lat="51.7614045" lon="19.4845936">
    <tag k="fixme" v="bus_stop"/>
    <tag k="name" v="tramwaj 8, 10, 14"/>
    <tag k="note" v="powinno być tram_Stop i połączone z linia tramwajową, oznaczenia lini trzeba inaczej"/>
  </node>
  <node id="748853696" version="3" timestamp="2011-03-10T10:36:58Z" uid="338611" user="marek kleciak" changeset="7512622" lat="51.7614472" lon="19.4845721">
    <tag k="fixme" v="bus_stop"/>
    <tag k="name" v="tramwaj 8, 10, 14"/>
    <tag k="note" v="powinno być tram_Stop i połączone z linia tramwajową, oznaczenia lini trzeba inaczej"/>
  </node>
  <node id="748853697" version="2" timestamp="2010-06-17T23:39:11Z" uid="66036" user="h4v" changeset="5013171" lat="51.7612717" lon="19.485366">
    <tag k="fixme" v="bus_stop"/>
    <tag k="name" v="tramwaj 4, 7, 13, 14"/>
    <tag k="note" v="powinno być tram_Stop i połączone z linia tramwajową, oznaczenia lini trzeba inaczej"/>
  </node>
  <node id="748853698" version="2" timestamp="2010-06-17T23:39:09Z" uid="66036" user="h4v" changeset="5013171" lat="51.7581904" lon="19.4880697">
    <tag k="fixme" v="bus_stop"/>
    <tag k="name" v="tramwaj 4, 7, 13, 14"/>
    <tag k="note" v="powinno być tram_Stop i połączone z linia tramwajową, oznaczenia lini trzeba inaczej"/>
  </node>
  <node id="748853699" version="2" timestamp="2010-06-17T23:39:06Z" uid="66036" user="h4v" changeset="5013171" lat="51.7596248" lon="19.4693157">
    <tag k="fixme" v="bus_stop"/>
    <tag k="name" v="tramwaj nr 1"/>
    <tag k="note" v="powinno być tram_Stop i połączone z linia tramwajową, oznaczenia lini trzeba inaczej"/>
  </node>
  <node id="748853701" version="2" timestamp="2010-06-18T12:46:16Z" uid="66036" user="h4v" changeset="5016048" lat="51.7602624" lon="19.4695088">
    <tag k="highway" v="bus_stop"/>
    <tag k="name" v="tramwaj 8, 10, 14"/>
  </node>
  <node id="748853703" version="2" timestamp="2010-06-15T21:56:46Z" uid="66036" user="h4v" changeset="4996161" lat="51.7606209" lon="19.4739077">
    <tag k="highway" v="bus_stop"/>
    <tag k="name" v="tramwaj 8, 10, 14"/>
  </node>
  <node id="748853705" version="2" timestamp="2010-06-17T23:39:08Z" uid="66036" user="h4v" changeset="5013171" lat="51.7556535" lon="19.4707319">
    <tag k="fixme" v="bus_stop"/>
    <tag k="name" v="tramwaj nr 1"/>
    <tag k="note" v="powinno być tram_Stop i połączone z linia tramwajową, oznaczenia lini trzeba inaczej"/>
  </node>
  <node id="748853705" version="3" timestamp="2011-05-03T13:25:47Z" uid="434746" user="SergeanT" changeset="8039615" lat="51.7556535" lon="19.4707319">
    <tag k="fixme" v="bus_stop"/>
    <tag k="name" v="tramwaj nr 1"/>
    <tag k="note" v="powinno być tram_Stop i połączone z linia tramwajową, oznaczenia lini trzeba inaczej"/>
  </node>
  <node id="748853711" version="2" timestamp="2010-06-17T23:39:11Z" uid="66036" user="h4v" changeset="5013171" lat="51.7553214" lon="19.4714615">
    <tag k="fixme" v="bus_stop"/>
    <tag k="name" v="tramwaj nr 1"/>
    <tag k="note" v="powinno być tram_Stop i połączone z linia tramwajową, oznaczenia lini trzeba inaczej"/>
  </node>
  <node id="748853716" version="2" timestamp="2010-06-17T23:39:09Z" uid="66036" user="h4v" changeset="5013171" lat="51.7516818" lon="19.4728348">
    <tag k="fixme" v="bus_stop"/>
    <tag k="name" v="Tramwaj nr 1"/>
    <tag k="note" v="powinno być tram_Stop i połączone z linia tramwajową, oznaczenia lini trzeba inaczej"/>
  </node>
  <node id="748853723" version="2" timestamp="2010-06-17T23:39:07Z" uid="66036" user="h4v" changeset="5013171" lat="51.7512567" lon="19.4735643">
    <tag k="fixme" v="bus_stop"/>
    <tag k="name" v="tramwaj nr 1"/>
    <tag k="note" v="powinno być tram_Stop i połączone z linia tramwajową, oznaczenia lini trzeba inaczej"/>
  </node>
  <node id="748853724" version="2" timestamp="2010-06-17T23:39:12Z" uid="66036" user="h4v" changeset="5013171" lat="51.748095" lon="19.4745085">
    <tag k="fixme" v="bus_stop"/>
    <tag k="name" v="tramwaj nr 1"/>
    <tag k="note" v="powinno być tram_Stop i połączone z linia tramwajową, oznaczenia lini trzeba inaczej"/>
  </node>
  <node id="748853726" version="2" timestamp="2010-06-17T23:39:06Z" uid="66036" user="h4v" changeset="5013171" lat="51.7514029" lon="19.4894645">
    <tag k="fixme" v="bus_stop"/>
    <tag k="name" v="tramwaj nr 4, 7, 13, 14"/>
    <tag k="note" v="powinno być tram_Stop i połączone z linia tramwajową, oznaczenia lini trzeba inaczej"/>
  </node>
  <node id="748853727" version="2" timestamp="2010-06-17T23:39:09Z" uid="66036" user="h4v" changeset="5013171" lat="51.7519342" lon="19.4892499">
    <tag k="fixme" v="bus_stop"/>
    <tag k="name" v="tramwaj nr 4, 7, 13, 14"/>
    <tag k="note" v="powinno być tram_Stop i połączone z linia tramwajową, oznaczenia lini trzeba inaczej"/>
  </node>
  <node id="748853730" version="2" timestamp="2010-06-17T23:39:07Z" uid="66036" user="h4v" changeset="5013171" lat="51.7473245" lon="19.4899365">
    <tag k="fixme" v="bus_stop"/>
    <tag k="name" v="tramwaj nr2, 4, 7, 13, 14"/>
    <tag k="note" v="powinno być tram_Stop i połączone z linia tramwajową, oznaczenia lini trzeba inaczej"/>
  </node>
  <node id="748853731" version="2" timestamp="2010-06-17T23:39:09Z" uid="66036" user="h4v" changeset="5013171" lat="51.7480021" lon="19.4895074">
    <tag k="fixme" v="bus_stop"/>
    <tag k="name" v="tramwaj nr 4, 7, 13, 14"/>
    <tag k="note" v="powinno być tram_Stop i połączone z linia tramwajową, oznaczenia lini trzeba inaczej"/>
  </node>
  <node id="748853732" version="2" timestamp="2010-06-17T23:39:08Z" uid="66036" user="h4v" changeset="5013171" lat="51.7475371" lon="19.4893143">
    <tag k="fixme" v="bus_stop"/>
    <tag k="name" v="tramwaj nr 2, 3"/>
    <tag k="note" v="powinno być tram_Stop i połączone z linia tramwajową, oznaczenia lini trzeba inaczej"/>
  </node>
  <node id="748853732" version="3" timestamp="2012-02-23T13:48:26Z" uid="609590" user="lukaszm89" changeset="10768207" lat="51.7475532" lon="19.4892526">
    <tag k="fixme" v="bus_stop"/>
    <tag k="name" v="tramwaj nr  3"/>
    <tag k="note" v="powinno być tram_Stop i połączone z linia tramwajową, oznaczenia lini trzeba inaczej"/>
    <tag k="railway" v="tram_stop"/>
  </node>
  <node id="748853733" version="2" timestamp="2010-06-17T23:39:11Z" uid="66036" user="h4v" changeset="5013171" lat="51.7476566" lon="19.4753024">
    <tag k="fixme" v="bus_stop"/>
    <tag k="name" v="tramwaj nr 1"/>
    <tag k="note" v="powinno być tram_Stop i połączone z linia tramwajową, oznaczenia lini trzeba inaczej"/>
  </node>
  <node id="748853740" version="2" timestamp="2010-06-17T23:39:11Z" uid="66036" user="h4v" changeset="5013171" lat="51.743299" lon="19.4895074">
    <tag k="fixme" v="bus_stop"/>
    <tag k="name" v="tramwaj 2, 4, 7, 13, 14"/>
    <tag k="note" v="powinno być tram_Stop i połączone z linia tramwajową, oznaczenia lini trzeba inaczej"/>
  </node>
  <node id="748853741" version="2" timestamp="2010-06-17T23:39:06Z" uid="66036" user="h4v" changeset="5013171" lat="51.7424088" lon="19.4778129">
    <tag k="fixme" v="bus_stop"/>
    <tag k="name" v="tramwaj 1"/>
    <tag k="note" v="powinno być tram_Stop i połączone z linia tramwajową, oznaczenia lini trzeba inaczej"/>
  </node>
  <node id="748853742" version="2" timestamp="2010-06-17T23:39:11Z" uid="66036" user="h4v" changeset="5013171" lat="51.7425815" lon="19.4772765">
    <tag k="fixme" v="bus_stop"/>
    <tag k="name" v="tramwaj 1"/>
    <tag k="note" v="powinno być tram_Stop i połączone z linia tramwajową, oznaczenia lini trzeba inaczej"/>
  </node>
  <node id="748853745" version="2" timestamp="2010-06-17T23:39:07Z" uid="66036" user="h4v" changeset="5013171" lat="51.7388345" lon="19.4784138">
    <tag k="fixme" v="bus_stop"/>
    <tag k="name" v="tramwaj 1"/>
    <tag k="note" v="powinno być tram_Stop i połączone z linia tramwajową, oznaczenia lini trzeba inaczej"/>
  </node>
  <node id="748853747" version="2" timestamp="2010-06-17T23:39:08Z" uid="66036" user="h4v" changeset="5013171" lat="51.7436444" lon="19.4891641">
    <tag k="fixme" v="bus_stop"/>
    <tag k="name" v="tramwaj 2, 4, 7, 13, 14"/>
    <tag k="note" v="powinno być tram_Stop i połączone z linia tramwajową, oznaczenia lini trzeba inaczej"/>
  </node>
  <node id="748853748" version="2" timestamp="2010-06-09T22:32:16Z" uid="66036" user="h4v" changeset="4950046" lat="51.7536279" lon="19.4935414"/>
  <node id="748853749" version="2" timestamp="2010-06-09T22:32:17Z" uid="66036" user="h4v" changeset="4950046" lat="51.7536411" lon="19.4933268"/>
</osm>
