<?xml version='1.0' encoding='UTF-8'?>
<osm version="0.6" generator="libosmium/2.20.0">
  <node id="75182236" version="6" timestamp="2008-08-14T20:55:15Z" uid="6975" user="ulfl" changeset="264731" lat="53.134129" lon="8.2764281">
    <tag k="highway" v="motorway_junction"/>
    <tag k="name" v="Oldenburg-Hafen"/>
    <tag k="ref" v="15"/>
  </node>
  <node id="75182236" version="7" timestamp="2010-09-20T18:31:55Z" uid="20622" user="Sebastian Reichel" changeset="5831434" lat="53.134129" lon="8.2764281">
    <tag k="TMC:cid_58:tabcd_1:Direction" v="positive"/>
    <tag k="TMC:cid_58:tabcd_1:LocationCode" v="10768"/>
    <tag k="highway" v="motorway_junction"/>
    <tag k="name" v="Oldenburg-Hafen"/>
    <tag k="ref" v="15"/>
  </node>
  <node id="75182236" version="8" timestamp="2010-09-21T18:03:12Z" uid="218283" user="TMCbot" changeset="5839075" lat="53.134129" lon="8.2764281">
    <tag k="TMC:cid_58:tabcd_1:Class" v="Point"/>
    <tag k="TMC:cid_58:tabcd_1:Direction" v="positive"/>
    <tag k="TMC:cid_58:tabcd_1:LCLversion" v="9.00"/>
    <tag k="TMC:cid_58:tabcd_1:LocationCode" v="10768"/>
    <tag k="TMC:cid_58:tabcd_1:NextLocationCode" v="38875"/>
    <tag k="TMC:cid_58:tabcd_1:PrevLocationCode" v="10767"/>
    <tag k="highway" v="motorway_junction"/>
    <tag k="name" v="Oldenburg-Hafen"/>
    <tag k="ref" v="15"/>
  </node>
  <node id="75187922" version="2" timestamp="2007-11-07T14:27:40Z" uid="5871" user="Banny" changeset="431517" lat="50.8834713" lon="7.0938994"/>
  <node id="75187922" version="3" timestamp="2011-10-08T12:29:09Z" uid="116044" user="berndw" changeset="9502061" lat="50.8834713" lon="7.0938994"/>
  <node id="75187924" version="2" timestamp="2007-11-07T14:27:44Z" uid="5871" user="Banny" changeset="431517" lat="50.8834713" lon="7.0938994"/>
</osm>
