<?xml version='1.0' encoding='UTF-8'?>
<osm version="0.6" generator="libosmium/2.20.0">
  <node id="7535181" version="2" timestamp="2008-06-25T21:25:38Z" uid="34428" user="usm78-gis" changeset="293211" lat="59.9561791" lon="30.3576374">
    <tag k="name" v="Финляндский вокзал"/>
    <tag k="railway" v="station"/>
  </node>
  <node id="7535181" version="3" timestamp="2008-07-01T00:02:19Z" uid="34428" user="usm78-gis" changeset="361422" lat="59.9561708" lon="30.3577309">
    <tag k="name" v="Финляндский вокзал"/>
    <tag k="railway" v="station"/>
  </node>
  <node id="7535181" version="4" timestamp="2009-07-06T10:52:14Z" uid="12671" user="sladen" changeset="1751815" lat="59.9561708" lon="30.3577309">
    <tag k="name" v="Финляндский вокзал"/>
    <tag k="name:en" v="Finland station"/>
    <tag k="railway" v="station"/>
    <tag k="wikipedia" v="Финляндский вокзал"/>
    <tag k="wikipedia:en" v="Finlyandsky Rail Terminal"/>
  </node>
  <node id="7535181" version="5" timestamp="2009-07-06T10:53:49Z" uid="12671" user="sladen" changeset="1751824" lat="59.9561708" lon="30.3577309">
    <tag k="alt_name" v="Finlyandsky vokzal"/>
    <tag k="name" v="Финляндский вокзал"/>
    <tag k="name:en" v="Finland station"/>
    <tag k="railway" v="station"/>
    <tag k="wikipedia" v="Финляндский вокзал"/>
    <tag k="wikipedia:en" v="Finlyandsky Rail Terminal"/>
  </node>
  <node id="7535181" version="6" timestamp="2009-11-16T20:47:18Z" uid="19657" user="Victor Kropp" changeset="3135873" lat="59.9561407" lon="30.3577076">
    <tag k="alt_name" v="Finlyandsky vokzal"/>
    <tag k="name" v="Финляндский вокзал"/>
    <tag k="name:en" v="Finland station"/>
    <tag k="railway" v="station"/>
    <tag k="wikipedia" v="Финляндский вокзал"/>
    <tag k="wikipedia:en" v="Finlyandsky Rail Terminal"/>
  </node>
  <node id="7535181" version="7" timestamp="2010-06-04T18:58:33Z" uid="94786" user="glebius" changeset="4903090" lat="59.9561407" lon="30.3577076">
    <tag k="alt_name" v="Finlyandsky vokzal"/>
    <tag k="name" v="Финляндский вокзал"/>
    <tag k="name:en" v="Finland station"/>
    <tag k="name:ru" v="Финляндский вокзал"/>
    <tag k="railway" v="station"/>
    <tag k="wikipedia" v="Финляндский вокзал"/>
    <tag k="wikipedia:en" v="Finlyandsky Rail Terminal"/>
  </node>
  <node id="7535181" version="8" timestamp="2010-10-15T09:01:57Z" uid="95117" user="one_half_3544" changeset="6047364" lat="59.9561407" lon="30.3577076">
    <tag k="alt_name" v="Finlyandsky vokzal"/>
    <tag k="esr:user" v="038205"/>
    <tag k="name" v="Финляндский вокзал"/>
    <tag k="name:en" v="Finland station"/>
    <tag k="name:ru" v="Финляндский вокзал"/>
    <tag k="railway" v="station"/>
    <tag k="wikipedia" v="Финляндский вокзал"/>
    <tag k="wikipedia:en" v="Finlyandsky Rail Terminal"/>
  </node>
  <node id="7535181" version="9" timestamp="2010-10-24T07:46:47Z" uid="13436" user="hkucharek" changeset="6153889" lat="59.9561407" lon="30.3577076">
    <tag k="alt_name" v="Finlyandsky vokzal"/>
    <tag k="esr:user" v="038205"/>
    <tag k="name" v="Финляндский вокзал"/>
    <tag k="name:de" v="Finnischer Bahnhof"/>
    <tag k="name:en" v="Finland station"/>
    <tag k="name:ru" v="Финляндский вокзал"/>
    <tag k="railway" v="station"/>
    <tag k="wikipedia" v="Финляндский вокзал"/>
    <tag k="wikipedia:en" v="Finlyandsky Rail Terminal"/>
  </node>
  <node id="7535181" version="10" timestamp="2012-02-06T19:49:15Z" uid="314684" user="krattbot" changeset="10605722" lat="59.9561407" lon="30.3577076">
    <tag k="alt_name" v="Finlyandsky vokzal"/>
    <tag k="esr:user" v="038205"/>
    <tag k="fixme" v="Bad wikipedia link: Финляндский вокзал"/>
    <tag k="name" v="Финляндский вокзал"/>
    <tag k="name:de" v="Finnischer Bahnhof"/>
    <tag k="name:en" v="Finland station"/>
    <tag k="name:ru" v="Финляндский вокзал"/>
    <tag k="railway" v="station"/>
    <tag k="wikipedia" v="Финляндский вокзал"/>
    <tag k="wikipedia:en" v="Finlyandsky Rail Terminal"/>
  </node>
  <node id="7535181" version="11" timestamp="2012-02-09T20:28:01Z" uid="22706" user="lansion" changeset="10637849" lat="59.9561407" lon="30.3577076">
    <tag k="alt_name" v="Finlyandsky vokzal"/>
    <tag k="esr:user" v="038205"/>
    <tag k="fixme" v="Bad wikipedia link: Финляндский вокзал"/>
    <tag k="name" v="Финляндский вокзал"/>
    <tag k="name:de" v="Finnischer Bahnhof"/>
    <tag k="name:en" v="Finland station"/>
    <tag k="name:fi" v="Suomen rautatieasema"/>
    <tag k="name:ru" v="Финляндский вокзал"/>
    <tag k="railway" v="station"/>
    <tag k="wikipedia" v="Финляндский вокзал"/>
    <tag k="wikipedia:en" v="Finlyandsky Rail Terminal"/>
  </node>
  <node id="7535182" version="9" timestamp="2009-04-11T23:25:08Z" uid="34428" user="usm78-gis" changeset="432108" lat="59.9569663" lon="30.3521696"/>
  <node id="7535182" version="10" timestamp="2009-04-13T23:42:52Z" uid="34428" user="usm78-gis" changeset="529431" lat="59.9569663" lon="30.3521696"/>
  <node id="7535182" version="11" timestamp="2009-04-13T23:45:05Z" uid="34428" user="usm78-gis" changeset="529431" lat="59.9569715" lon="30.3521005"/>
  <node id="7535182" version="12" timestamp="2011-09-08T12:04:16Z" uid="426246" user="Sipp" changeset="9245037" lat="59.956943" lon="30.3520783"/>
  <node id="7535217" version="5" timestamp="2009-04-11T23:25:02Z" uid="34428" user="usm78-gis" changeset="432108" lat="59.9573542" lon="30.3556452"/>
  <node id="7535345" version="2" timestamp="2008-07-01T00:04:08Z" uid="34428" user="usm78-gis" changeset="361422" lat="59.9585987" lon="30.3581429"/>
  <node id="7535345" version="3" timestamp="2009-11-16T20:46:50Z" uid="19657" user="Victor Kropp" changeset="3135873" lat="59.9585643" lon="30.3581625"/>
  <node id="7535373" version="2" timestamp="2008-07-01T00:04:08Z" uid="34428" user="usm78-gis" changeset="361422" lat="59.9562825" lon="30.3568897"/>
  <node id="7535373" version="3" timestamp="2008-07-01T00:05:00Z" uid="34428" user="usm78-gis" changeset="361422" lat="59.9563814" lon="30.356967"/>
  <node id="7535373" version="4" timestamp="2009-11-16T20:46:50Z" uid="19657" user="Victor Kropp" changeset="3135873" lat="59.9562696" lon="30.3568321"/>
  <node id="7535374" version="2" timestamp="2008-07-01T00:04:08Z" uid="34428" user="usm78-gis" changeset="361422" lat="59.9571377" lon="30.3573361"/>
  <node id="7535374" version="3" timestamp="2009-11-25T21:09:35Z" uid="166445" user="GranD" changeset="3216168" lat="59.9571377" lon="30.3573361"/>
  <node id="7535376" version="2" timestamp="2008-07-01T00:04:08Z" uid="34428" user="usm78-gis" changeset="361422" lat="59.9577049" lon="30.3576622"/>
  <node id="7535376" version="3" timestamp="2009-11-25T21:09:35Z" uid="166445" user="GranD" changeset="3216168" lat="59.9577049" lon="30.3576622"/>
  <node id="7535430" version="2" timestamp="2009-04-24T11:00:44Z" uid="34428" user="usm78-gis" changeset="925877" lat="59.9572274" lon="30.3569084"/>
</osm>
