<?xml version='1.0' encoding='UTF-8'?>
<osm version="0.6" generator="libosmium/2.20.0">
  <node id="75640208" version="1" timestamp="2007-10-16T18:23:33Z" uid="5871" user="Banny" changeset="208980" lat="51.0001373" lon="7.1355721">
    <tag k="created_by" v="JOSM"/>
  </node>
  <node id="75640214" version="1" timestamp="2007-10-16T18:23:33Z" uid="5871" user="Banny" changeset="208980" lat="51.0013909" lon="7.1386316">
    <tag k="created_by" v="JOSM"/>
  </node>
  <node id="75640217" version="1" timestamp="2007-10-16T18:23:34Z" uid="5871" user="Banny" changeset="208980" lat="50.9980543" lon="7.1397848">
    <tag k="created_by" v="JOSM"/>
  </node>
  <node id="75640217" version="2" timestamp="2008-06-22T19:14:57Z" uid="44377" user="klasmd" changeset="264375" lat="50.9980722" lon="7.1397562">
    <tag k="created_by" v="JOSM"/>
  </node>
  <node id="75640224" version="1" timestamp="2007-10-16T18:23:34Z" uid="5871" user="Banny" changeset="208980" lat="50.9984934" lon="7.1400482">
    <tag k="created_by" v="JOSM"/>
  </node>
  <node id="75640228" version="1" timestamp="2007-10-16T18:23:34Z" uid="5871" user="Banny" changeset="208980" lat="50.999057" lon="7.1403538">
    <tag k="created_by" v="JOSM"/>
  </node>
  <node id="75640234" version="1" timestamp="2007-10-16T18:23:34Z" uid="5871" user="Banny" changeset="208980" lat="50.9991731" lon="7.140359">
    <tag k="created_by" v="JOSM"/>
  </node>
  <node id="75640237" version="1" timestamp="2007-10-16T18:23:34Z" uid="5871" user="Banny" changeset="208980" lat="50.9996306" lon="7.1401009">
    <tag k="created_by" v="JOSM"/>
  </node>
  <node id="75640241" version="1" timestamp="2007-10-16T18:23:34Z" uid="5871" user="Banny" changeset="208980" lat="51.0000616" lon="7.1398269">
    <tag k="created_by" v="JOSM"/>
  </node>
  <node id="75640248" version="1" timestamp="2007-10-16T18:23:34Z" uid="5871" user="Banny" changeset="208980" lat="51.0002174" lon="7.1397743">
    <tag k="created_by" v="JOSM"/>
  </node>
  <node id="75640252" version="1" timestamp="2007-10-16T18:23:35Z" uid="5871" user="Banny" changeset="208980" lat="51.0004959" lon="7.1398006">
    <tag k="created_by" v="JOSM"/>
  </node>
  <node id="75640257" version="1" timestamp="2007-10-16T18:23:35Z" uid="5871" user="Banny" changeset="208980" lat="51.0006186" lon="7.1398744">
    <tag k="created_by" v="JOSM"/>
  </node>
  <node id="75640261" version="1" timestamp="2007-10-16T18:23:35Z" uid="5871" user="Banny" changeset="208980" lat="51.0006981" lon="7.1399797">
    <tag k="created_by" v="JOSM"/>
  </node>
  <node id="75642321" version="2" timestamp="2011-05-08T19:13:52Z" uid="9581" user="Lobelt" changeset="8086383" lat="49.9789225" lon="7.0289263"/>
  <node id="75642324" version="2" timestamp="2011-05-08T19:13:37Z" uid="9581" user="Lobelt" changeset="8086383" lat="49.9795523" lon="7.026101"/>
  <node id="75642325" version="2" timestamp="2011-05-08T19:14:34Z" uid="9581" user="Lobelt" changeset="8086383" lat="49.9797735" lon="7.0249691"/>
  <node id="75642330" version="2" timestamp="2011-05-08T19:14:37Z" uid="9581" user="Lobelt" changeset="8086383" lat="49.9795012" lon="7.0181016"/>
  <node id="75642331" version="2" timestamp="2011-05-08T19:13:23Z" uid="9581" user="Lobelt" changeset="8086383" lat="49.9792034" lon="7.0145954"/>
  <node id="75642332" version="2" timestamp="2011-05-08T19:12:50Z" uid="9581" user="Lobelt" changeset="8086383" lat="49.9788289" lon="7.0129105"/>
  <node id="75642333" version="2" timestamp="2011-05-08T19:13:42Z" uid="9581" user="Lobelt" changeset="8086383" lat="49.9781566" lon="7.0113361"/>
  <node id="75642334" version="2" timestamp="2011-05-08T19:13:12Z" uid="9581" user="Lobelt" changeset="8086383" lat="49.9752122" lon="7.0075917"/>
  <node id="75642336" version="2" timestamp="2011-05-08T19:14:38Z" uid="9581" user="Lobelt" changeset="8086383" lat="49.9739697" lon="7.0061705"/>
  <node id="75642337" version="2" timestamp="2011-05-08T19:13:28Z" uid="9581" user="Lobelt" changeset="8086383" lat="49.9732549" lon="7.0055323"/>
  <node id="75642338" version="2" timestamp="2011-05-08T19:12:51Z" uid="9581" user="Lobelt" changeset="8086383" lat="49.9721741" lon="7.0048089"/>
  <node id="75642340" version="2" timestamp="2011-05-08T19:13:13Z" uid="9581" user="Lobelt" changeset="8086383" lat="49.9684467" lon="7.0024261"/>
  <node id="75645684" version="2" timestamp="2007-12-01T02:12:54Z" uid="6454" user="B10xxx" changeset="22961" lat="52.5120988" lon="13.3767162">
    <tag k="amenity" v="telephone"/>
    <tag k="created_by" v="Potlatch 0.5d"/>
  </node>
  <node id="75645684" version="3" timestamp="2011-07-25T20:51:35Z" uid="56986" user="alice23" changeset="8830324" lat="52.5120988" lon="13.3767162"/>
  <node id="75645694" version="2" timestamp="2007-12-01T02:13:11Z" uid="6454" user="B10xxx" changeset="22961" lat="52.5119264" lon="13.3766819">
    <tag k="amenity" v="post_box"/>
    <tag k="created_by" v="Potlatch 0.5d"/>
  </node>
  <node id="75645694" version="3" timestamp="2008-09-20T18:02:05Z" uid="13203" user="bahnpirat" changeset="668541" lat="52.511927" lon="13.3766834">
    <tag k="amenity" v="post_box"/>
    <tag k="created_by" v="Potlatch 0.10b"/>
    <tag k="name" v="Ebertstraße 1"/>
    <tag k="operator" v="Deutsche Post"/>
    <tag k="postal_code" v="10117"/>
  </node>
  <node id="75645694" version="4" timestamp="2008-09-20T19:24:41Z" uid="13203" user="bahnpirat" changeset="668790" lat="52.5122611" lon="13.3767739">
    <tag k="amenity" v="post_box"/>
    <tag k="created_by" v="Potlatch 0.10b"/>
    <tag k="name" v="Ebertstraße 1"/>
    <tag k="operator" v="Deutsche Post"/>
    <tag k="postal_code" v="10117"/>
  </node>
  <node id="75645694" version="5" timestamp="2008-09-20T19:24:47Z" uid="13203" user="bahnpirat" changeset="668790" lat="52.512235" lon="13.3767482">
    <tag k="amenity" v="post_box"/>
    <tag k="created_by" v="Potlatch 0.10b"/>
    <tag k="name" v="Ebertstraße 1"/>
    <tag k="operator" v="Deutsche Post"/>
    <tag k="postal_code" v="10117"/>
  </node>
  <node id="75645694" version="6" timestamp="2009-10-26T01:41:10Z" uid="60345" user="Mirko Küster" changeset="2952910" lat="52.512235" lon="13.3767482">
    <tag k="amenity" v="post_box"/>
    <tag k="name" v="Ebertstraße 1"/>
    <tag k="operator" v="Deutsche Post AG"/>
    <tag k="postal_code" v="10117"/>
  </node>
  <node id="75645694" version="7" timestamp="2011-01-24T12:54:46Z" uid="379250" user="a_peter" changeset="7072656" lat="52.512235" lon="13.3767482">
    <tag k="addr:city" v="Berlin"/>
    <tag k="addr:country" v="DE"/>
    <tag k="addr:postcode" v="10117"/>
    <tag k="amenity" v="post_box"/>
    <tag k="collection_times" v="Mo-Fr 17:30; Sa 16:30"/>
    <tag k="name" v="Ebertstraße 1"/>
    <tag k="operator" v="Deutsche Post AG"/>
    <tag k="postal_code" v="10117"/>
  </node>
  <node id="75649981" version="1" timestamp="2007-10-16T18:34:31Z" uid="8931" user="bluepup" changeset="209668" lat="51.7257669" lon="8.7444423">
    <tag k="created_by" v="JOSM"/>
  </node>
  <node id="75649981" version="2" timestamp="2010-10-08T07:46:01Z" uid="64244" user="ChristopherCreutzig" changeset="5983849" lat="51.7257669" lon="8.7444423"/>
  <node id="75649985" version="1" timestamp="2007-10-16T18:34:31Z" uid="8931" user="bluepup" changeset="209668" lat="51.7229037" lon="8.7435518">
    <tag k="created_by" v="JOSM"/>
  </node>
  <node id="75649985" version="2" timestamp="2008-01-08T22:13:10Z" uid="21756" user="Torfnase" changeset="578776" lat="51.7229818" lon="8.7435853">
    <tag k="created_by" v="JOSM"/>
  </node>
  <node id="75649989" version="1" timestamp="2007-10-16T18:34:31Z" uid="8931" user="bluepup" changeset="209668" lat="51.712717" lon="8.736442">
    <tag k="amenity" v="fuel"/>
    <tag k="created_by" v="JOSM"/>
  </node>
  <node id="75649989" version="2" timestamp="2008-01-31T20:03:03Z" uid="21756" user="Torfnase" changeset="715961" lat="51.712694" lon="8.736396">
    <tag k="amenity" v="fuel"/>
    <tag k="created_by" v="JOSM"/>
  </node>
  <node id="75649989" version="3" timestamp="2008-09-25T09:26:56Z" uid="65019" user="Kaefer84" changeset="693797" lat="51.712694" lon="8.736396">
    <tag k="amenity" v="fuel"/>
    <tag k="created_by" v="JOSM"/>
    <tag k="name" v="Aral"/>
  </node>
  <node id="75649989" version="4" timestamp="2009-06-07T14:54:11Z" uid="22874" user="godofgta" changeset="1449083" lat="51.712697" lon="8.7363944">
    <tag k="addr:housenumber" v="58"/>
    <tag k="addr:street" v="Bahnhofstraße"/>
    <tag k="amenity" v="fuel"/>
    <tag k="created_by" v="JOSM"/>
    <tag k="name" v="Aral"/>
  </node>
  <node id="75649989" version="5" timestamp="2009-09-17T17:31:16Z" uid="109925" user="WanMil" changeset="2514766" lat="51.712697" lon="8.7363944">
    <tag k="addr:housenumber" v="58"/>
    <tag k="addr:street" v="Bahnhofstraße"/>
    <tag k="amenity" v="fuel"/>
    <tag k="operator" v="Aral"/>
  </node>
  <node id="75649989" version="6" timestamp="2011-10-02T00:01:19Z" uid="290680" user="wheelmap_visitor" changeset="9440392" lat="51.712697" lon="8.7363944">
    <tag k="addr:housenumber" v="58"/>
    <tag k="addr:street" v="Bahnhofstraße"/>
    <tag k="amenity" v="fuel"/>
    <tag k="operator" v="Aral"/>
    <tag k="wheelchair" v="yes"/>
  </node>
  <node id="75649995" version="1" timestamp="2007-10-16T18:34:31Z" uid="8931" user="bluepup" changeset="209668" lat="51.712167" lon="8.7338605">
    <tag k="amenity" v="fuel"/>
    <tag k="created_by" v="JOSM"/>
  </node>
  <node id="75649995" version="2" timestamp="2008-01-31T20:03:03Z" uid="21756" user="Torfnase" changeset="715961" lat="51.7121555" lon="8.733941">
    <tag k="amenity" v="fuel"/>
    <tag k="created_by" v="JOSM"/>
  </node>
  <node id="75649995" version="3" timestamp="2009-07-28T10:37:43Z" uid="74746" user="vogelfreier" changeset="1963829" lat="51.7121583" lon="8.7339372">
    <tag k="amenity" v="fuel"/>
    <tag k="created_by" v="JOSM"/>
    <tag k="name" v="T"/>
    <tag k="operator" v="Total"/>
  </node>
  <node id="75649995" version="4" timestamp="2010-02-26T18:32:16Z" uid="127999" user="kaihs" changeset="3982591" lat="51.7121583" lon="8.7339372">
    <tag k="addr:city" v="Paderborn"/>
    <tag k="addr:housenumber" v="76"/>
    <tag k="addr:postcode" v="33102"/>
    <tag k="addr:street" v="Bahnhofstraße"/>
    <tag k="amenity" v="fuel"/>
    <tag k="fax" v="+49-5251-33393"/>
    <tag k="name" v="T"/>
    <tag k="operator" v="Westfalen"/>
    <tag k="phone" v="+49-5251-34367"/>
  </node>
</osm>
