<?xml version='1.0' encoding='UTF-8'?>
<osm version="0.6" generator="libosmium/2.20.0">
  <node id="760092576" version="1" timestamp="2010-05-31T00:28:23Z" uid="74617" user="JohnSmith" changeset="4858028" lat="-27.5191089" lon="153.2559087"/>
  <node id="760092579" version="1" timestamp="2010-05-31T00:28:23Z" uid="74617" user="JohnSmith" changeset="4858028" lat="-27.5177691" lon="153.2555854"/>
  <node id="760092580" version="1" timestamp="2010-05-31T00:28:23Z" uid="74617" user="JohnSmith" changeset="4858028" lat="-27.5119019" lon="153.255678"/>
  <node id="760092582" version="1" timestamp="2010-05-31T00:28:24Z" uid="74617" user="JohnSmith" changeset="4858028" lat="-27.5234919" lon="153.2601581"/>
  <node id="760092584" version="1" timestamp="2010-05-31T00:28:24Z" uid="74617" user="JohnSmith" changeset="4858028" lat="-27.5129602" lon="153.2558686"/>
  <node id="760093443" version="1" timestamp="2010-05-31T00:29:08Z" uid="4467" user="Rosscoe" changeset="4858823" lat="-32.9307884" lon="151.640433"/>
  <node id="760093464" version="1" timestamp="2010-05-31T00:29:09Z" uid="4467" user="Rosscoe" changeset="4858823" lat="-32.9286833" lon="151.639801"/>
  <node id="760093484" version="1" timestamp="2010-05-31T00:29:10Z" uid="4467" user="Rosscoe" changeset="4858823" lat="-32.9327007" lon="151.6415511"/>
  <node id="760093493" version="1" timestamp="2010-05-31T00:29:11Z" uid="4467" user="Rosscoe" changeset="4858823" lat="-32.9324107" lon="151.640301">
    <tag k="addr:city" v="Glendale"/>
    <tag k="addr:country" v="AU"/>
    <tag k="addr:postcode" v="2285"/>
    <tag k="addr:state" v="NSW"/>
    <tag k="addr:street" v="Stockland Drive"/>
    <tag k="amenity" v="fuel"/>
    <tag k="amenity:atm" v="no"/>
    <tag k="amenity:carwash" v="no"/>
    <tag k="amenity:eftpos" v="yes"/>
    <tag k="amenity:toilets" v="yes"/>
    <tag k="amenity:truck_stop" v="no"/>
    <tag k="caltex:address" v="Stockland Drive, Glendale NSW 2285"/>
    <tag k="caltex:starcash" v="no"/>
    <tag k="fuel:GTL_diesel" v="no"/>
    <tag k="fuel:biodiesel" v="no"/>
    <tag k="fuel:diesel" v="yes"/>
    <tag k="fuel:discount" v="woolworths"/>
    <tag k="fuel:e10" v="yes"/>
    <tag k="fuel:lpg" v="yes"/>
    <tag k="fuel:octane_91" v="yes"/>
    <tag k="fuel:octane_95" v="yes"/>
    <tag k="fuel:octane_98" v="no"/>
    <tag k="name" v="Woolworths Petrol Glendale"/>
    <tag k="operator" v="Caltex"/>
    <tag k="phone" v="+61-2-49545069"/>
    <tag k="rent:lpg_bottles" v="yes"/>
    <tag k="source" v="caltex.com.au"/>
    <tag k="source:location" v="nearmap"/>
  </node>
  <node id="760093515" version="1" timestamp="2010-05-31T00:29:12Z" uid="4467" user="Rosscoe" changeset="4858823" lat="-32.9288268" lon="151.64101">
    <tag k="amenity" v="toilets"/>
  </node>
  <node id="760093535" version="1" timestamp="2010-05-31T00:29:12Z" uid="4467" user="Rosscoe" changeset="4858823" lat="-32.9301817" lon="151.6410413"/>
  <node id="760093554" version="1" timestamp="2010-05-31T00:29:13Z" uid="4467" user="Rosscoe" changeset="4858823" lat="-32.9323499" lon="151.6431193"/>
  <node id="760093572" version="1" timestamp="2010-05-31T00:29:14Z" uid="4467" user="Rosscoe" changeset="4858823" lat="-32.9299103" lon="151.6409498"/>
  <node id="760093590" version="1" timestamp="2010-05-31T00:29:15Z" uid="4467" user="Rosscoe" changeset="4858823" lat="-32.9293154" lon="151.6418434"/>
  <node id="760093610" version="1" timestamp="2010-05-31T00:29:16Z" uid="4467" user="Rosscoe" changeset="4858823" lat="-32.9297354" lon="151.6412113"/>
  <node id="760093628" version="1" timestamp="2010-05-31T00:29:17Z" uid="4467" user="Rosscoe" changeset="4858823" lat="-32.9334659" lon="151.6406548"/>
</osm>
