<?xml version='1.0' encoding='UTF-8'?>
<osm version="0.6" generator="libosmium/2.20.0">
  <node id="765178888" version="2" timestamp="2010-07-09T15:28:40Z" uid="107674" user="GeoCounter" changeset="5174474" lat="50.057102" lon="8.813076">
    <tag k="addr:city" v="Heusenstamm"/>
    <tag k="addr:country" v="DE"/>
    <tag k="addr:housenumber" v="15"/>
    <tag k="addr:postcode" v="63150"/>
    <tag k="addr:street" v="Weiskircher Weg"/>
    <tag k="amenity" v="place_of_worship"/>
    <tag k="contact:website" v="http://www.heusenstamm.feg.de/"/>
    <tag k="denomination" v="evangelical"/>
    <tag k="name" v="FeG Heusenstamm"/>
    <tag k="religion" v="christian"/>
    <tag k="service_times" v="Su 10:00+"/>
  </node>
  <node id="765178888" version="3" timestamp="2010-08-23T11:27:26Z" uid="293774" user="Oli-Wan" changeset="5570249" lat="50.057102" lon="8.813076">
    <tag k="addr:city" v="Heusenstamm"/>
    <tag k="addr:country" v="DE"/>
    <tag k="addr:housenumber" v="15"/>
    <tag k="addr:postcode" v="63150"/>
    <tag k="addr:street" v="Weiskircher Weg"/>
    <tag k="amenity" v="place_of_worship"/>
    <tag k="contact:website" v="http://www.heusenstamm.feg.de/"/>
    <tag k="denomination" v="protestant"/>
    <tag k="name" v="Freie Evangelische Gemeinde Heusenstamm"/>
    <tag k="religion" v="christian"/>
    <tag k="service_times" v="Su 10:00+"/>
  </node>
  <node id="765178888" version="4" timestamp="2010-12-05T01:30:17Z" uid="107674" user="GeoCounter" changeset="6546201" lat="50.057102" lon="8.813076">
    <tag k="addr:city" v="Heusenstamm"/>
    <tag k="addr:country" v="DE"/>
    <tag k="addr:housenumber" v="15"/>
    <tag k="addr:postcode" v="63150"/>
    <tag k="addr:street" v="Weiskircher Weg"/>
    <tag k="amenity" v="place_of_worship"/>
    <tag k="contact:website" v="http://www.heusenstamm.feg.de/"/>
    <tag k="denomination" v="protestant"/>
    <tag k="name" v="Freie Evangelische Gemeinde Heusenstamm"/>
    <tag k="religion" v="christian"/>
    <tag k="service_times" v="Su 10:00+"/>
  </node>
</osm>
