<?xml version='1.0' encoding='UTF-8'?>
<osm version="0.6" generator="libosmium/2.20.0">
  <node id="76550519" version="3" timestamp="2008-07-03T18:22:44Z" uid="6975" user="ulfl" changeset="379368" lat="48.1983359" lon="16.3499143">
    <tag k="amenity" v="bank"/>
    <tag k="atm" v="yes"/>
  </node>
  <node id="76550519" version="5" timestamp="2008-07-05T16:12:16Z" uid="49642" user="realadry" changeset="398206" lat="48.1983133" lon="16.3498793">
    <tag k="amenity" v="bank"/>
    <tag k="atm" v="yes"/>
    <tag k="created_by" v="Potlatch 0.9c"/>
    <tag k="name" v="Bank Austria"/>
  </node>
  <node id="76550519" version="6" timestamp="2009-01-04T01:49:53Z" uid="54806" user="_al" changeset="726896" lat="48.1982986" lon="16.3498859">
    <tag k="addr:city" v="Wien"/>
    <tag k="addr:housenumber" v="70"/>
    <tag k="addr:postcode" v="1070"/>
    <tag k="addr:street" v="Mariahilfer Straße"/>
    <tag k="amenity" v="bank"/>
    <tag k="atm" v="yes"/>
    <tag k="created_by" v="Potlatch 0.10f"/>
    <tag k="description" v="Filiale Mariahilf"/>
    <tag k="name" v="Bank Austria"/>
    <tag k="phone" v="+43 (5) 0505-57010"/>
  </node>
  <node id="76550519" version="7" timestamp="2009-06-16T15:14:42Z" uid="22664" user="Gogona" changeset="1536000" lat="48.1982964" lon="16.3498802">
    <tag k="addr:city" v="Wien"/>
    <tag k="addr:housenumber" v="70"/>
    <tag k="addr:postcode" v="1070"/>
    <tag k="addr:street" v="Mariahilfer Straße"/>
    <tag k="amenity" v="bank"/>
    <tag k="atm" v="yes"/>
    <tag k="created_by" v="Potlatch 0.10f"/>
    <tag k="description" v="Filiale Mariahilf"/>
    <tag k="name" v="Bank Austria"/>
    <tag k="operator" v="Bank Austria"/>
    <tag k="phone" v="+43 (5) 0505-57010"/>
  </node>
  <node id="76550519" version="8" timestamp="2010-05-15T20:58:07Z" uid="288113" user="hanhan" changeset="4710554" lat="48.1982964" lon="16.3498801"/>
  <node id="76550519" version="9" timestamp="2010-05-15T21:02:08Z" uid="288113" user="hanhan" changeset="4710586" lat="48.1982964" lon="16.3498801"/>
  <node id="76554112" version="7" timestamp="2008-02-16T19:49:18Z" uid="6975" user="ulfl" changeset="141861" lat="48.2003531" lon="16.3659186">
    <tag k="name" v="Secession"/>
    <tag k="tourism" v="museum"/>
  </node>
  <node id="76554112" version="8" timestamp="2008-07-05T22:52:43Z" uid="49642" user="realadry" changeset="405323" lat="48.200408" lon="16.3658567">
    <tag k="created_by" v="Potlatch 0.9c"/>
    <tag k="name" v="Secession"/>
    <tag k="tourism" v="museum"/>
  </node>
  <node id="76554112" version="9" timestamp="2008-07-12T03:25:52Z" uid="26818" user="David &amp; Christine Schmitt" changeset="466827" lat="48.200408" lon="16.3658567">
    <tag k="created_by" v="Potlatch 0.9c"/>
    <tag k="name" v="Secession"/>
    <tag k="tourism" v="museum"/>
  </node>
  <node id="76558003" version="2" timestamp="2009-12-07T00:06:58Z" uid="200463" user="harmagedon" changeset="3311752" lat="48.2670171" lon="13.5668386">
    <tag k="amenity" v="fuel"/>
  </node>
  <node id="76558003" version="3" timestamp="2009-12-07T11:48:02Z" uid="200463" user="harmagedon" changeset="3314630" lat="48.2670171" lon="13.5668386">
    <tag k="amenity" v="fuel"/>
  </node>
  <node id="76558003" version="4" timestamp="2011-04-28T18:12:13Z" uid="445442" user="tseifried" changeset="7997057" lat="48.2664731" lon="13.566109">
    <tag k="amenity" v="fuel"/>
  </node>
  <node id="76558003" version="5" timestamp="2011-06-17T21:56:16Z" uid="445442" user="tseifried" changeset="8469007" lat="48.2664946" lon="13.5660862">
    <tag k="amenity" v="fuel"/>
  </node>
</osm>
