<?xml version='1.0' encoding='UTF-8'?>
<osm version="0.6" generator="libosmium/2.20.0">
  <node id="76565272" version="3" timestamp="2008-07-06T09:04:48Z" uid="6975" user="ulfl" changeset="407266" lat="48.607667" lon="13.4455233">
    <tag k="power" v="generator"/>
    <tag k="power_source" v="hydro"/>
  </node>
  <node id="76565272" version="4" timestamp="2010-08-19T18:01:55Z" uid="33223" user="k127" changeset="5537553" lat="48.6076782" lon="13.4457197">
    <tag k="power" v="generator"/>
    <tag k="power_source" v="hydro"/>
  </node>
  <node id="76565272" version="5" timestamp="2011-06-04T02:12:16Z" uid="297482" user="don-vip" changeset="8335625" lat="48.6076782" lon="13.4457197">
    <tag k="generator:source" v="hydro"/>
    <tag k="power" v="generator"/>
    <tag k="power_source" v="hydro"/>
  </node>
  <node id="76565272" version="6" timestamp="2012-03-11T20:59:37Z" uid="479256" user="geodreieck4711" changeset="10948357" lat="48.6076782" lon="13.4457197">
    <tag k="generator:source" v="hydro"/>
    <tag k="power" v="generator"/>
  </node>
  <node id="76566916" version="15" timestamp="2007-11-05T15:58:56Z" uid="9581" user="Lobelt" changeset="414873" lat="51.5405578" lon="13.4725387">
    <tag k="created_by" v="Potlatch 0.4c"/>
    <tag k="is_in" v="Brandenburg"/>
    <tag k="key" v="by Thommse"/>
    <tag k="name" v="Theisa"/>
    <tag k="place" v="village"/>
  </node>
  <node id="76566916" version="16" timestamp="2007-11-12T18:22:48Z" uid="16019" user="Thommse" changeset="488433" lat="51.5405558" lon="13.4725338">
    <tag k="created_by" v="Potlatch 0.5"/>
    <tag k="is_in" v="Brandenburg"/>
    <tag k="key" v="by Thommse"/>
    <tag k="name" v="Theisa"/>
    <tag k="place" v="village"/>
  </node>
  <node id="76566916" version="17" timestamp="2007-11-16T12:20:25Z" uid="16019" user="Thommse" changeset="535142" lat="51.5405569" lon="13.4725387">
    <tag k="created_by" v="Potlatch 0.5a"/>
    <tag k="is_in" v="Brandenburg"/>
    <tag k="key" v="by Thommse"/>
    <tag k="name" v="Theisa"/>
    <tag k="place" v="village"/>
  </node>
  <node id="76566916" version="18" timestamp="2007-11-19T14:17:07Z" uid="16019" user="Thommse" changeset="569775" lat="51.54056" lon="13.4725365">
    <tag k="created_by" v="Potlatch 0.5a"/>
    <tag k="is_in" v="Brandenburg"/>
    <tag k="key" v="by Thommse"/>
    <tag k="name" v="Theisa"/>
    <tag k="place" v="village"/>
  </node>
  <node id="76566916" version="19" timestamp="2007-11-20T10:13:25Z" uid="16019" user="Thommse" changeset="579968" lat="51.5405573" lon="13.4725424">
    <tag k="created_by" v="Potlatch 0.5b"/>
    <tag k="is_in" v="Brandenburg"/>
    <tag k="key" v="by Thommse"/>
    <tag k="name" v="Theisa"/>
    <tag k="place" v="village"/>
  </node>
  <node id="76566916" version="20" timestamp="2007-11-23T17:36:38Z" uid="16019" user="Thommse" changeset="603273" lat="51.5405573" lon="13.4725412">
    <tag k="created_by" v="Potlatch 0.5c"/>
    <tag k="is_in" v="Brandenburg"/>
    <tag k="key" v="by Thommse"/>
    <tag k="name" v="Theisa"/>
    <tag k="place" v="village"/>
  </node>
  <node id="76566916" version="21" timestamp="2007-12-05T11:31:34Z" uid="16019" user="Thommse" changeset="80750" lat="51.5405606" lon="13.4725357">
    <tag k="created_by" v="Potlatch 0.5d"/>
    <tag k="is_in" v="Brandenburg"/>
    <tag k="key" v="by Thommse"/>
    <tag k="name" v="Theisa"/>
    <tag k="place" v="village"/>
  </node>
  <node id="76566916" version="22" timestamp="2008-11-03T20:05:25Z" uid="76798" user="is_in-bot" changeset="672076" lat="51.5405606" lon="13.4725357">
    <tag k="created_by" v="is_in-bot"/>
    <tag k="is_in" v="Brandenburg,Bundesrepublik Deutschland,Europe"/>
    <tag k="key" v="by Thommse"/>
    <tag k="name" v="Theisa"/>
    <tag k="place" v="village"/>
  </node>
  <node id="76566916" version="23" timestamp="2009-03-05T08:03:52Z" uid="16019" user="Thommse" changeset="737894" lat="51.5405629" lon="13.4725272">
    <tag k="created_by" v="Potlatch 0.10f"/>
    <tag k="is_in" v="Bad Liebenwerda, Brandenburg,Bundesrepublik Deutschland,Europe"/>
    <tag k="key" v="by Thommse"/>
    <tag k="name" v="Theisa"/>
    <tag k="place" v="village"/>
  </node>
  <node id="76566916" version="24" timestamp="2009-03-05T08:04:10Z" uid="16019" user="Thommse" changeset="737894" lat="51.5415505" lon="13.4723556">
    <tag k="created_by" v="Potlatch 0.10f"/>
    <tag k="is_in" v="Bad Liebenwerda, Brandenburg,Bundesrepublik Deutschland,Europe"/>
    <tag k="key" v="by Thommse"/>
    <tag k="name" v="Theisa"/>
    <tag k="place" v="village"/>
  </node>
  <node id="76566916" version="25" timestamp="2009-08-31T20:30:24Z" uid="43566" user="anbr" changeset="2331336" lat="51.5415505" lon="13.4723556">
    <tag k="is_in" v="Bad Liebenwerda, Brandenburg,Bundesrepublik Deutschland,Europe"/>
    <tag k="name" v="Theisa"/>
    <tag k="place" v="village"/>
  </node>
</osm>
