<?xml version='1.0' encoding='UTF-8'?>
<osm version="0.6" generator="libosmium/2.20.0">
  <node id="768794845" version="2" timestamp="2010-12-27T02:39:09Z" uid="23543" user="jkjk" changeset="6774042" lat="31.266667" lon="34.233333">
    <tag k="alt_name" v="محطة رفح"/>
    <tag k="int_name" v="Rafa, Rafa, Mahattat Rafah, Rafah Station"/>
    <tag k="is_in" v="Egypt, جمهورية مصر العربية"/>
    <tag k="name" v="محطة رفح"/>
    <tag k="name:ar" v="محطة رفح"/>
    <tag k="name:ar1" v="محطة رفح"/>
    <tag k="name:de" v="Rafa"/>
    <tag k="name:en" v="Rafa"/>
    <tag k="name:fr" v="Rafa"/>
    <tag k="railway" v="station"/>
  </node>
  <node id="768795785" version="2" timestamp="2010-12-27T02:39:01Z" uid="23543" user="jkjk" changeset="6774042" lat="31.2437471" lon="34.0978006">
    <tag k="alt_name" v="بئر أبو حنظلة"/>
    <tag k="int_name" v="Bi’r Abū Ḩanz̧alah, Bir Abu Hanzalah, Bir Abu Handala"/>
    <tag k="is_in" v="Egypt, جمهورية مصر العربية"/>
    <tag k="name" v="بئر أبو حنظلة"/>
    <tag k="name:ar" v="بئر أبو حنظلة"/>
    <tag k="name:ar1" v="بئر أبو حنظلة"/>
    <tag k="name:de" v="Bir Abu Hanzalah"/>
    <tag k="name:en" v="Bir Abu Hanzalah"/>
    <tag k="name:fr" v="Bir Abu Hanzalah"/>
    <tag k="natural" v="spring"/>
  </node>
</osm>
