<?xml version='1.0' encoding='UTF-8'?>
<osm version="0.6" generator="libosmium/2.20.0">
  <node id="770810802" version="1" timestamp="2010-06-13T00:09:52Z" uid="256927" user="Timo Müller" changeset="4974970" lat="49.3438024" lon="8.6672941">
    <tag k="addr:city" v="Leimen"/>
    <tag k="addr:country" v="DE"/>
    <tag k="addr:housenumber" v="10"/>
    <tag k="addr:postcode" v="69181"/>
    <tag k="addr:street" v="Julius-Becker-Straße"/>
  </node>
  <node id="770810804" version="1" timestamp="2010-06-13T00:09:52Z" uid="256927" user="Timo Müller" changeset="4974970" lat="49.3428716" lon="8.6684761"/>
  <node id="770810806" version="1" timestamp="2010-06-13T00:09:52Z" uid="256927" user="Timo Müller" changeset="4974970" lat="49.3435342" lon="8.6674252">
    <tag k="addr:city" v="Leimen"/>
    <tag k="addr:country" v="DE"/>
    <tag k="addr:housenumber" v="6"/>
    <tag k="addr:postcode" v="69181"/>
    <tag k="addr:street" v="Julius-Becker-Straße"/>
  </node>
  <node id="770810808" version="1" timestamp="2010-06-13T00:09:52Z" uid="256927" user="Timo Müller" changeset="4974970" lat="49.342854" lon="8.6684172">
    <tag k="addr:city" v="Leimen"/>
    <tag k="addr:country" v="DE"/>
    <tag k="addr:housenumber" v="28"/>
    <tag k="addr:postcode" v="69181"/>
    <tag k="addr:street" v="Aenne-Burda-Weg"/>
  </node>
  <node id="770810810" version="1" timestamp="2010-06-13T00:09:52Z" uid="256927" user="Timo Müller" changeset="4974970" lat="49.3427836" lon="8.66813">
    <tag k="addr:city" v="Leimen"/>
    <tag k="addr:country" v="DE"/>
    <tag k="addr:housenumber" v="14"/>
    <tag k="addr:postcode" v="69181"/>
    <tag k="addr:street" v="Aenne-Burda-Weg"/>
  </node>
  <node id="770810812" version="1" timestamp="2010-06-13T00:09:52Z" uid="256927" user="Timo Müller" changeset="4974970" lat="49.343676" lon="8.6672725"/>
  <node id="770810813" version="1" timestamp="2010-06-13T00:09:52Z" uid="256927" user="Timo Müller" changeset="4974970" lat="49.344061" lon="8.6671444">
    <tag k="addr:city" v="Leimen"/>
    <tag k="addr:housenumber" v="16"/>
    <tag k="addr:postcode" v="69181"/>
    <tag k="addr:street" v="Julius-Becker-Straße"/>
  </node>
  <node id="770810815" version="1" timestamp="2010-06-13T00:09:52Z" uid="256927" user="Timo Müller" changeset="4974970" lat="49.3436708" lon="8.6671954">
    <tag k="addr:city" v="Leimen"/>
    <tag k="addr:country" v="DE"/>
    <tag k="addr:housenumber" v="9"/>
    <tag k="addr:postcode" v="69181"/>
    <tag k="addr:street" v="Julius-Becker-Straße"/>
  </node>
  <node id="770810819" version="1" timestamp="2010-06-13T00:09:53Z" uid="256927" user="Timo Müller" changeset="4974970" lat="49.3437514" lon="8.6676611"/>
  <node id="770810821" version="1" timestamp="2010-06-13T00:09:53Z" uid="256927" user="Timo Müller" changeset="4974970" lat="49.3435631" lon="8.6683063"/>
  <node id="770810822" version="1" timestamp="2010-06-13T00:09:53Z" uid="256927" user="Timo Müller" changeset="4974970" lat="49.3430958" lon="8.6681012"/>
  <node id="770810824" version="1" timestamp="2010-06-13T00:09:53Z" uid="256927" user="Timo Müller" changeset="4974970" lat="49.3439209" lon="8.6676568">
    <tag k="addr:city" v="Leimen"/>
    <tag k="addr:housenumber" v="18"/>
    <tag k="addr:postcode" v="69181"/>
    <tag k="addr:street" v="Julius-Becker-Straße"/>
  </node>
  <node id="770810826" version="1" timestamp="2010-06-13T00:09:53Z" uid="256927" user="Timo Müller" changeset="4974970" lat="49.3430232" lon="8.6680399">
    <tag k="addr:city" v="Leimen"/>
    <tag k="addr:housenumber" v="2"/>
    <tag k="addr:postcode" v="69181"/>
    <tag k="addr:street" v="Aenne-Burda-Weg"/>
  </node>
  <node id="770810828" version="1" timestamp="2010-06-13T00:09:53Z" uid="256927" user="Timo Müller" changeset="4974970" lat="49.3440943" lon="8.6675837">
    <tag k="addr:city" v="Leimen"/>
    <tag k="addr:housenumber" v="20"/>
    <tag k="addr:postcode" v="69181"/>
    <tag k="addr:street" v="Julius-Becker-Straße"/>
  </node>
  <node id="770810830" version="1" timestamp="2010-06-13T00:09:53Z" uid="256927" user="Timo Müller" changeset="4974970" lat="49.342613" lon="8.6678132">
    <tag k="addr:city" v="Leimen"/>
    <tag k="addr:country" v="DE"/>
    <tag k="addr:housenumber" v="1"/>
    <tag k="addr:postcode" v="69181"/>
    <tag k="addr:street" v="Julius-Becker-Straße"/>
  </node>
  <node id="770810833" version="1" timestamp="2010-06-13T00:09:53Z" uid="256927" user="Timo Müller" changeset="4974970" lat="49.3431099" lon="8.6683162">
    <tag k="addr:city" v="Leimen"/>
    <tag k="addr:housenumber" v="16"/>
    <tag k="addr:postcode" v="69181"/>
    <tag k="addr:street" v="Aenne-Burda-Weg"/>
  </node>
  <node id="770810836" version="1" timestamp="2010-06-13T00:09:53Z" uid="256927" user="Timo Müller" changeset="4974970" lat="49.3428028" lon="8.6682114"/>
  <node id="770810838" version="1" timestamp="2010-06-13T00:09:53Z" uid="256927" user="Timo Müller" changeset="4974970" lat="49.3425742" lon="8.6679766">
    <tag k="operator" v="EnBW Regional AG"/>
    <tag k="power" v="sub_station"/>
    <tag k="ref" v="Umspannstation St. Ilgen Julius-Becker-Straße"/>
  </node>
  <node id="770810840" version="1" timestamp="2010-06-13T00:09:53Z" uid="256927" user="Timo Müller" changeset="4974970" lat="49.3432154" lon="8.6684321"/>
  <node id="770810848" version="1" timestamp="2010-06-13T00:09:53Z" uid="256927" user="Timo Müller" changeset="4974970" lat="49.343415" lon="8.6673428">
    <tag k="addr:city" v="Leimen"/>
    <tag k="addr:country" v="DE"/>
    <tag k="addr:housenumber" v="7"/>
    <tag k="addr:postcode" v="69181"/>
    <tag k="addr:street" v="Julius-Becker-Straße"/>
    <tag k="building" v="apartments"/>
  </node>
</osm>
