<?xml version='1.0' encoding='UTF-8'?>
<osm version="0.6" generator="libosmium/2.20.0">
  <node id="771201203" version="1" timestamp="2010-06-13T09:11:00Z" uid="171838" user="argrath" changeset="4976616" lat="24.0593357" lon="123.783327">
    <tag k="name" v="波照間島"/>
    <tag k="place" v="island"/>
  </node>
  <node id="771201203" version="2" timestamp="2010-12-30T15:33:07Z" uid="78938" user="Tomaž Vajngerl" changeset="6810664" lat="24.0593357" lon="123.783327">
    <tag k="name" v="波照間島 (Hateruma Island)"/>
    <tag k="name:en" v="Hateruma Island"/>
    <tag k="name:ja" v="波照間島"/>
    <tag k="place" v="island"/>
  </node>
  <node id="771201473" version="1" timestamp="2010-06-13T09:13:12Z" uid="171838" user="argrath" changeset="4976634" lat="24.1947855" lon="123.562627">
    <tag k="name" v="中御神島"/>
    <tag k="place" v="island"/>
  </node>
  <node id="771202734" version="1" timestamp="2010-06-13T09:18:52Z" uid="171838" user="argrath" changeset="4976687" lat="24.3316238" lon="123.8186786">
    <tag k="name" v="西表島"/>
    <tag k="place" v="island"/>
  </node>
</osm>
