<?xml version='1.0' encoding='UTF-8'?>
<osm version="0.6" generator="libosmium/2.20.0">
  <node id="7729415" version="6" timestamp="2008-06-08T01:15:48Z" uid="34428" user="usm78-gis" changeset="97868" lat="60.2933644" lon="29.4958143">
    <tag k="name" v="Горьковское"/>
    <tag k="old_name" v="Mustamäki"/>
    <tag k="railway" v="station"/>
  </node>
  <node id="7729415" version="7" timestamp="2009-03-05T22:55:22Z" changeset="739499" lat="60.2933644" lon="29.4958143">
    <tag k="name" v="Горьковское"/>
    <tag k="name:fi" v="Mustam�ki"/>
    <tag k="old_name" v="Mustamäki"/>
    <tag k="railway" v="station"/>
  </node>
  <node id="7729415" version="8" timestamp="2009-03-13T23:42:57Z" changeset="807046" lat="60.2933644" lon="29.4958143">
    <tag k="name" v="Горьковское"/>
    <tag k="name:fi" v="Mustamäki"/>
    <tag k="old_name" v="Mustamäki"/>
    <tag k="railway" v="station"/>
  </node>
  <node id="7729415" version="9" timestamp="2010-08-17T18:21:27Z" uid="95117" user="one_half_3544" changeset="5520269" lat="60.2920161" lon="29.4980155">
    <tag k="name" v="Горьковское"/>
    <tag k="name:fi" v="Mustamäki"/>
    <tag k="old_name" v="Mustamäki"/>
    <tag k="railway" v="station"/>
  </node>
</osm>
