<?xml version='1.0' encoding='UTF-8'?>
<osm version="0.6" generator="libosmium/2.20.0">
  <node id="774948450" version="2" timestamp="2010-07-28T20:02:17Z" uid="74617" user="JohnSmith" changeset="5339329" lat="52.2267426" lon="14.6367936">
    <tag k="emergency" v="fire_hydrant"/>
    <tag k="name" v="Hydrant"/>
  </node>
  <node id="774948450" version="3" timestamp="2010-07-30T17:42:05Z" uid="74617" user="JohnSmith" changeset="5356742" lat="52.2267426" lon="14.6367936">
    <tag k="amenity" v="fire_hydrant"/>
    <tag k="emergency" v="fire_hydrant"/>
    <tag k="name" v="Hydrant"/>
  </node>
  <node id="774948450" version="4" timestamp="2010-08-29T18:17:01Z" uid="163437" user="r-michael" changeset="5629063" lat="52.2267426" lon="14.6367936">
    <tag k="emergency" v="fire_hydrant"/>
    <tag k="name" v="Hydrant"/>
  </node>
  <node id="774948450" version="5" timestamp="2010-09-18T14:02:17Z" uid="163437" user="r-michael" changeset="5811816" lat="52.2267426" lon="14.6367936">
    <tag k="emergency" v="fire_hydrant"/>
    <tag k="fire_hydrant:type" v="Überflurhydrant"/>
    <tag k="name" v="Hydrant"/>
  </node>
  <node id="774948450" version="6" timestamp="2010-10-19T08:58:28Z" uid="26348" user="Rodolphe Quiédeville" changeset="6094728" lat="52.2267426" lon="14.6367936">
    <tag k="amenity" v="fire_hydrant"/>
    <tag k="emergency" v="fire_hydrant"/>
    <tag k="fire_hydrant:type" v="Überflurhydrant"/>
    <tag k="name" v="Hydrant"/>
  </node>
  <node id="774948450" version="7" timestamp="2011-01-21T07:58:05Z" uid="124837" user="swus" changeset="7037690" lat="52.2267426" lon="14.6367936">
    <tag k="amenity" v="fire_hydrant"/>
    <tag k="emergency" v="fire_hydrant"/>
    <tag k="fire_hydrant:type" v="pillar"/>
    <tag k="name" v="Hydrant"/>
  </node>
  <node id="774948450" version="8" timestamp="2011-03-16T15:10:15Z" uid="163437" user="r-michael" changeset="7576599" lat="52.2267426" lon="14.6367936">
    <tag k="amenity" v="fire_hydrant"/>
    <tag k="emergency" v="fire_hydrant"/>
    <tag k="fire_hydrant:type" v="Überflurhydrant"/>
    <tag k="name" v="Hydrant"/>
  </node>
  <node id="774948450" version="9" timestamp="2012-03-27T18:23:44Z" uid="67540" user="Cobra" changeset="11118954" lat="52.2267426" lon="14.6367936">
    <tag k="amenity" v="fire_hydrant"/>
    <tag k="emergency" v="fire_hydrant"/>
    <tag k="fire_hydrant:type" v="Überflurhydrant"/>
    <tag k="name" v="Hydrant"/>
    <tag k="odbl" v="clean"/>
  </node>
</osm>
