<?xml version='1.0' encoding='UTF-8'?>
<osm version="0.6" generator="libosmium/2.20.0">
  <node id="775590225" version="1" timestamp="2010-06-18T11:41:38Z" uid="115477" user="wowik" changeset="5015652" lat="54.9308811" lon="20.1628271">
    <tag k="name" v="Gригородный"/>
    <tag k="place" v="village"/>
  </node>
  <node id="775590225" version="2" timestamp="2010-06-24T15:20:49Z" uid="115477" user="wowik" changeset="5066837" lat="54.9308811" lon="20.1628271">
    <tag k="name" v="Пригородный"/>
    <tag k="place" v="village"/>
  </node>
  <node id="775590225" version="3" timestamp="2010-07-22T11:57:29Z" uid="115477" user="wowik" changeset="5286708" lat="54.9308812" lon="20.162827">
    <tag k="name" v="Пригородное"/>
    <tag k="place" v="village"/>
  </node>
  <node id="775590225" version="4" timestamp="2010-07-22T16:37:27Z" uid="115477" user="wowik" changeset="5288983" lat="54.9308812" lon="20.162827">
    <tag k="name" v="Пригородный"/>
    <tag k="place" v="suburb"/>
  </node>
  <node id="775590225" version="5" timestamp="2010-08-12T14:18:22Z" uid="115477" user="wowik" changeset="5473264" lat="54.9300396" lon="20.1604656">
    <tag k="name" v="Пригородный"/>
    <tag k="place" v="suburb"/>
  </node>
  <node id="775590225" version="6" timestamp="2010-08-13T14:01:00Z" uid="115477" user="wowik" changeset="5482166" lat="54.929982" lon="20.1618934">
    <tag k="name" v="Пригородный"/>
    <tag k="place" v="suburb"/>
  </node>
  <node id="775590225" version="7" timestamp="2010-08-13T14:01:07Z" uid="115477" user="wowik" changeset="5482166" lat="54.9299821" lon="20.1618933">
    <tag k="name" v="Пригородный"/>
    <tag k="place" v="suburb"/>
  </node>
  <node id="775590845" version="1" timestamp="2010-06-18T11:47:20Z" uid="115477" user="wowik" changeset="5015678" lat="54.9497644" lon="20.1902071">
    <tag k="name" v="Рыбное"/>
    <tag k="place" v="hamlet"/>
  </node>
  <node id="775590845" version="2" timestamp="2010-08-12T18:07:14Z" uid="115477" user="wowik" changeset="5475273" lat="54.9497426" lon="20.1896924">
    <tag k="name" v="Рыбное"/>
    <tag k="place" v="hamlet"/>
  </node>
  <node id="775590845" version="3" timestamp="2010-10-08T16:16:08Z" uid="115477" user="wowik" changeset="5986870" lat="54.9508211" lon="20.1899945">
    <tag k="name" v="Рыбное"/>
    <tag k="name:de" v="Rybnoje"/>
    <tag k="name:lt" v="Rybnojė"/>
    <tag k="old_name:de" v="Loppöhnen"/>
    <tag k="old_name:lt" v="Lopėnai"/>
    <tag k="place" v="hamlet"/>
  </node>
  <node id="775590875" version="2" timestamp="2011-03-19T08:35:14Z" uid="4467" user="Rosscoe" changeset="7602318" lat="-12.1949798" lon="136.7740522">
    <tag k="highway" v="turning_circle"/>
  </node>
  <node id="775591850" version="3" timestamp="2011-03-19T08:35:16Z" uid="4467" user="Rosscoe" changeset="7602318" lat="-12.1937125" lon="136.7760145">
    <tag k="highway" v="turning_circle"/>
  </node>
  <node id="775591852" version="3" timestamp="2011-03-19T08:34:51Z" uid="4467" user="Rosscoe" changeset="7602318" lat="-12.1948126" lon="136.7754199">
    <tag k="highway" v="turning_circle"/>
  </node>
</osm>
