<?xml version='1.0' encoding='UTF-8'?>
<osm version="0.6" generator="libosmium/2.20.0">
  <node id="777954567" version="3" timestamp="2011-01-25T13:39:35Z" uid="115477" user="wowik" changeset="7083719" lat="55.854103" lon="37.4395114">
    <tag k="addr:housenumber" v="8 к1"/>
    <tag k="addr:street" v="улица Героев Панфиловцев"/>
    <tag k="building" v="entrance"/>
    <tag k="name" v="Товары для детей"/>
    <tag k="shop" v="toys"/>
  </node>
  <node id="777954567" version="4" timestamp="2011-10-12T19:04:57Z" uid="29320" user="Komяpa" changeset="9541529" lat="55.854103" lon="37.4395114">
    <tag k="addr:housenumber" v="8 к1"/>
    <tag k="addr:street" v="улица Героев Панфиловцев"/>
    <tag k="entrance" v="yes"/>
    <tag k="name" v="Товары для детей"/>
    <tag k="shop" v="toys"/>
  </node>
  <node id="777954567" version="5" timestamp="2011-10-12T21:37:22Z" uid="290271" user="Zverik" changeset="9542972" lat="55.854103" lon="37.4395114">
    <tag k="addr:housenumber" v="8 к1"/>
    <tag k="addr:street" v="улица Героев Панфиловцев"/>
    <tag k="building" v="entrance"/>
    <tag k="name" v="Товары для детей"/>
    <tag k="shop" v="toys"/>
  </node>
  <node id="777954567" version="6" timestamp="2012-03-28T06:28:10Z" uid="481934" user="iWowik" changeset="11123401" lat="55.854103" lon="37.4395114">
    <tag k="addr:city" v="Москва"/>
    <tag k="addr:country" v="RU"/>
    <tag k="addr:housenumber" v="8 к1"/>
    <tag k="addr:street" v="улица Героев Панфиловцев"/>
    <tag k="building" v="entrance"/>
    <tag k="name" v="Товары для детей"/>
    <tag k="shop" v="toys"/>
  </node>
</osm>
