<?xml version='1.0' encoding='UTF-8'?>
<osm version="0.6" generator="libosmium/2.20.0">
  <node id="783422615" version="4" timestamp="2010-09-01T21:27:15Z" uid="6975" user="ulfl" changeset="5657704" lat="43.0201381" lon="-1.3243938">
    <tag k="ele" v="1057"/>
    <tag k="mountain_pass" v="yes"/>
    <tag k="name" v="Puerto de Ibañeta"/>
    <tag k="name:fr" v="Col de Roncevaux"/>
    <tag k="place" v="locality"/>
    <tag k="wikipedia" v="http://de.wikipedia.org/wiki/Puerto_de_Iba%C3%B1eta"/>
  </node>
  <node id="783422615" version="5" timestamp="2010-12-14T13:03:15Z" uid="35074" user="mikeltxo" changeset="6658092" lat="43.0201381" lon="-1.3243938">
    <tag k="ele" v="1057"/>
    <tag k="mountain_pass" v="yes"/>
    <tag k="name" v="Puerto de Ibañeta"/>
    <tag k="name:eu" v="Ibañeta mendatea"/>
    <tag k="name:fr" v="Col de Roncevaux"/>
    <tag k="place" v="locality"/>
    <tag k="wikipedia" v="http://de.wikipedia.org/wiki/Puerto_de_Iba%C3%B1eta"/>
  </node>
  <node id="783422615" version="6" timestamp="2012-02-22T11:13:36Z" uid="174822" user="Canabis" changeset="10758138" lat="43.0201381" lon="-1.3243938">
    <tag k="ele" v="1057"/>
    <tag k="mountain_pass" v="yes"/>
    <tag k="name" v="Puerto de Ibañeta"/>
    <tag k="name:eu" v="Ibañeta mendatea"/>
    <tag k="name:fr" v="Col de Roncevaux"/>
    <tag k="name:ru" v="Ронсевальское ущелье"/>
    <tag k="place" v="locality"/>
    <tag k="wikipedia" v="http://de.wikipedia.org/wiki/Puerto_de_Iba%C3%B1eta"/>
  </node>
</osm>
