<?xml version='1.0' encoding='UTF-8'?>
<osm version="0.6" generator="libosmium/2.20.0">
  <node id="790573189" version="2" timestamp="2010-10-26T06:23:26Z" uid="10712" user="Kraeml" changeset="6179315" lat="49.4630064" lon="11.1016457">
    <tag k="amenity" v="pub"/>
    <tag k="name" v="Gasthaus Engel"/>
    <tag k="opening_hours" v="Mo-Su 18:00-01:00"/>
  </node>
  <node id="790573189" version="3" timestamp="2010-10-26T06:30:49Z" uid="10712" user="Kraeml" changeset="6179349" lat="49.462948" lon="11.1016885">
    <tag k="addr:city" v="Nürnberg"/>
    <tag k="addr:country" v="DE"/>
    <tag k="addr:housenumber" v="53"/>
    <tag k="addr:postcode" v="90491"/>
    <tag k="addr:street" v="Schoppershofstraße"/>
    <tag k="amenity" v="restaurant"/>
    <tag k="name" v="Gasthaus Engel"/>
    <tag k="opening_hours" v="Mo-Su 18:00-01:00"/>
    <tag k="phone" v="0911 55 92 51"/>
  </node>
  <node id="790573189" version="4" timestamp="2010-11-05T01:27:01Z" uid="202858" user="kellerma" changeset="6292821" lat="49.462948" lon="11.1016885">
    <tag k="addr:city" v="Nürnberg"/>
    <tag k="addr:country" v="DE"/>
    <tag k="addr:housenumber" v="53"/>
    <tag k="addr:postcode" v="90489"/>
    <tag k="addr:street" v="Schoppershofstraße"/>
    <tag k="amenity" v="restaurant"/>
    <tag k="name" v="Gasthaus Engel"/>
    <tag k="opening_hours" v="Mo-Su 18:00-01:00"/>
    <tag k="phone" v="0911 55 92 51"/>
  </node>
  <node id="790573189" version="5" timestamp="2011-03-08T21:29:30Z" uid="17099" user="matmai" changeset="7498732" lat="49.462945" lon="11.1015953">
    <tag k="addr:city" v="Nürnberg"/>
    <tag k="addr:country" v="DE"/>
    <tag k="addr:housenumber" v="53"/>
    <tag k="addr:postcode" v="90489"/>
    <tag k="addr:street" v="Schoppershofstraße"/>
    <tag k="amenity" v="restaurant"/>
    <tag k="cuisine" v="regional"/>
    <tag k="name" v="Gasthaus Engel"/>
    <tag k="opening_hours" v="Mo-Su 18:00-24:00"/>
    <tag k="phone" v="+49 911 559251"/>
  </node>
  <node id="790573189" version="6" timestamp="2011-10-30T10:43:09Z" uid="346758" user="kukuk" changeset="9692301" lat="49.4630012" lon="11.1015686">
    <tag k="addr:city" v="Nürnberg"/>
    <tag k="addr:country" v="DE"/>
    <tag k="addr:housenumber" v="53"/>
    <tag k="addr:postcode" v="90489"/>
    <tag k="addr:street" v="Schoppershofstraße"/>
    <tag k="amenity" v="restaurant"/>
    <tag k="cuisine" v="regional"/>
    <tag k="name" v="Gasthaus Engel"/>
    <tag k="opening_hours" v="Mo-Su 18:00-24:00"/>
    <tag k="phone" v="+49 911 559251"/>
  </node>
  <node id="790573189" version="7" timestamp="2012-01-07T02:37:56Z" uid="71557" user="Taroc" changeset="10318022" lat="49.4630012" lon="11.1015686"/>
</osm>
