<?xml version='1.0' encoding='UTF-8'?>
<osm version="0.6" generator="libosmium/2.20.0">
  <node id="79350242" version="4" timestamp="2010-05-27T10:06:13Z" uid="74617" user="JohnSmith" changeset="4820562" lat="-27.4489101" lon="153.1228572"/>
  <node id="79350243" version="3" timestamp="2010-05-27T10:06:13Z" uid="74617" user="JohnSmith" changeset="4820562" lat="-27.4486671" lon="153.123373"/>
  <node id="79350244" version="3" timestamp="2010-05-27T10:06:12Z" uid="74617" user="JohnSmith" changeset="4820562" lat="-27.4484589" lon="153.1238571"/>
  <node id="79350245" version="3" timestamp="2010-05-27T10:06:12Z" uid="74617" user="JohnSmith" changeset="4820562" lat="-27.4482916" lon="153.1243612"/>
  <node id="79350246" version="3" timestamp="2010-05-27T10:06:13Z" uid="74617" user="JohnSmith" changeset="4820562" lat="-27.4481306" lon="153.1248628"/>
  <node id="79350247" version="3" timestamp="2010-05-27T10:06:13Z" uid="74617" user="JohnSmith" changeset="4820562" lat="-27.4476509" lon="153.1262921"/>
  <node id="79350248" version="3" timestamp="2010-05-27T10:06:12Z" uid="74617" user="JohnSmith" changeset="4820562" lat="-27.4475171" lon="153.126788"/>
  <node id="79350249" version="3" timestamp="2010-05-27T10:06:13Z" uid="74617" user="JohnSmith" changeset="4820562" lat="-27.4473885" lon="153.1274065">
    <tag k="name" v="Hemmant"/>
    <tag k="railway" v="station"/>
  </node>
  <node id="79350249" version="4" timestamp="2010-07-13T15:01:32Z" uid="4467" user="Rosscoe" changeset="5208823" lat="-27.4473885" lon="153.1274065"/>
  <node id="79350250" version="4" timestamp="2010-05-27T10:06:13Z" uid="74617" user="JohnSmith" changeset="4820562" lat="-27.4470509" lon="153.1285075"/>
  <node id="79351348" version="4" timestamp="2009-07-26T01:48:43Z" uid="123700" user="Mala" changeset="1939972" lat="50.7968546" lon="3.115808">
    <tag k="is_in" v="West-Vlaanderen"/>
    <tag k="name" v="Menen"/>
    <tag k="name:fr" v="Messines"/>
    <tag k="openGeoDB:auto_update" v="population"/>
    <tag k="openGeoDB:is_in" v="Menen,Menen,Kortrijk,Kortrijk,West-Vlaanderen,West-Vlaanderen,Vlaanderen,Vlaanderen,Belgique,Belgique,Europe"/>
    <tag k="openGeoDB:is_in_loc_id" v="35391"/>
    <tag k="openGeoDB:layer" v="7"/>
    <tag k="openGeoDB:loc_id" v="33924"/>
    <tag k="openGeoDB:name" v="Menen,Menen"/>
    <tag k="openGeoDB:postal_codes" v="8930"/>
    <tag k="openGeoDB:sort_name" v="MENEN"/>
    <tag k="openGeoDB:type" v="100600000"/>
    <tag k="openGeoDB:version" v="0.2.6.11 / 2007-12-04 / http://fa-technik.adfc.de/code/opengeodb/dump/"/>
    <tag k="opengeodb:lat" v="50.7968546"/>
    <tag k="opengeodb:lon" v="3.115808"/>
    <tag k="place" v="town"/>
    <tag k="wikipedia" v="Menen"/>
  </node>
  <node id="79351348" version="5" timestamp="2010-04-29T23:00:07Z" uid="253266" user="Sanderd17" changeset="4562359" lat="50.7968547" lon="3.115808">
    <tag k="is_in" v="België, Vlaanderen, West-Vlaanderen"/>
    <tag k="name" v="Menen"/>
    <tag k="name:fr" v="Messines"/>
    <tag k="openGeoDB:auto_update" v="population"/>
    <tag k="openGeoDB:is_in" v="Menen,Menen,Kortrijk,Kortrijk,West-Vlaanderen,West-Vlaanderen,Vlaanderen,Vlaanderen,Belgique,Belgique,Europe"/>
    <tag k="openGeoDB:is_in_loc_id" v="35391"/>
    <tag k="openGeoDB:layer" v="7"/>
    <tag k="openGeoDB:loc_id" v="33924"/>
    <tag k="openGeoDB:name" v="Menen,Menen"/>
    <tag k="openGeoDB:postal_codes" v="8930"/>
    <tag k="openGeoDB:sort_name" v="MENEN"/>
    <tag k="openGeoDB:type" v="100600000"/>
    <tag k="openGeoDB:version" v="0.2.6.11 / 2007-12-04 / http://fa-technik.adfc.de/code/opengeodb/dump/"/>
    <tag k="opengeodb:lat" v="50.7968546"/>
    <tag k="opengeodb:lon" v="3.115808"/>
    <tag k="place" v="town"/>
    <tag k="wikipedia" v="Menen"/>
  </node>
  <node id="79351348" version="6" timestamp="2010-04-29T23:03:54Z" uid="253266" user="Sanderd17" changeset="4562359" lat="50.7968547" lon="3.115808">
    <tag k="is_in" v="België, Vlaanderen, West-Vlaanderen"/>
    <tag k="name" v="Menen"/>
    <tag k="name:fr" v="Menin"/>
    <tag k="openGeoDB:auto_update" v="population"/>
    <tag k="openGeoDB:is_in" v="Menen,Menen,Kortrijk,Kortrijk,West-Vlaanderen,West-Vlaanderen,Vlaanderen,Vlaanderen,Belgique,Belgique,Europe"/>
    <tag k="openGeoDB:is_in_loc_id" v="35391"/>
    <tag k="openGeoDB:layer" v="7"/>
    <tag k="openGeoDB:loc_id" v="33924"/>
    <tag k="openGeoDB:name" v="Menen,Menen"/>
    <tag k="openGeoDB:postal_codes" v="8930"/>
    <tag k="openGeoDB:sort_name" v="MENEN"/>
    <tag k="openGeoDB:type" v="100600000"/>
    <tag k="openGeoDB:version" v="0.2.6.11 / 2007-12-04 / http://fa-technik.adfc.de/code/opengeodb/dump/"/>
    <tag k="opengeodb:lat" v="50.7968546"/>
    <tag k="opengeodb:lon" v="3.115808"/>
    <tag k="place" v="town"/>
    <tag k="wikipedia" v="Menen"/>
  </node>
  <node id="79351348" version="7" timestamp="2010-05-05T20:24:07Z" uid="149496" user="meannder" changeset="4616623" lat="50.7968249" lon="3.1157591">
    <tag k="is_in" v="België, Vlaanderen, West-Vlaanderen"/>
    <tag k="name" v="Menen"/>
    <tag k="name:fr" v="Menin"/>
    <tag k="openGeoDB:auto_update" v="population"/>
    <tag k="openGeoDB:is_in" v="Menen,Menen,Kortrijk,Kortrijk,West-Vlaanderen,West-Vlaanderen,Vlaanderen,Vlaanderen,Belgique,Belgique,Europe"/>
    <tag k="openGeoDB:is_in_loc_id" v="35391"/>
    <tag k="openGeoDB:layer" v="7"/>
    <tag k="openGeoDB:loc_id" v="33924"/>
    <tag k="openGeoDB:name" v="Menen,Menen"/>
    <tag k="openGeoDB:postal_codes" v="8930"/>
    <tag k="openGeoDB:sort_name" v="MENEN"/>
    <tag k="openGeoDB:type" v="100600000"/>
    <tag k="openGeoDB:version" v="0.2.6.11 / 2007-12-04 / http://fa-technik.adfc.de/code/opengeodb/dump/"/>
    <tag k="opengeodb:lat" v="50.7968546"/>
    <tag k="opengeodb:lon" v="3.115808"/>
    <tag k="place" v="town"/>
    <tag k="wikipedia" v="Menen"/>
  </node>
  <node id="79351348" version="8" timestamp="2010-11-04T08:04:08Z" uid="142710" user="tiiiim" changeset="6286374" lat="50.7968249" lon="3.1157591">
    <tag k="is_in" v="West-Vlaanderen;Vlaanderen;Belgium;België;Belgique;Europe"/>
    <tag k="name" v="Menen"/>
    <tag k="name:fr" v="Menin"/>
    <tag k="openGeoDB:auto_update" v="population"/>
    <tag k="openGeoDB:is_in" v="Menen,Menen,Kortrijk,Kortrijk,West-Vlaanderen,West-Vlaanderen,Vlaanderen,Vlaanderen,Belgique,Belgique,Europe"/>
    <tag k="openGeoDB:is_in_loc_id" v="35391"/>
    <tag k="openGeoDB:layer" v="7"/>
    <tag k="openGeoDB:loc_id" v="33924"/>
    <tag k="openGeoDB:name" v="Menen,Menen"/>
    <tag k="openGeoDB:postal_codes" v="8930"/>
    <tag k="openGeoDB:sort_name" v="MENEN"/>
    <tag k="openGeoDB:type" v="100600000"/>
    <tag k="openGeoDB:version" v="0.2.6.11 / 2007-12-04 / http://fa-technik.adfc.de/code/opengeodb/dump/"/>
    <tag k="opengeodb:lat" v="50.7968546"/>
    <tag k="opengeodb:lon" v="3.115808"/>
    <tag k="place" v="town"/>
    <tag k="wikipedia" v="Menen"/>
  </node>
  <node id="79351348" version="9" timestamp="2011-02-05T08:48:14Z" uid="170722" user="JosV" changeset="7190003" lat="50.7969312" lon="3.11566">
    <tag k="is_in" v="West-Vlaanderen;Vlaanderen;Belgium;België;Belgique;Europe"/>
    <tag k="name" v="Menen"/>
    <tag k="name:fr" v="Menin"/>
    <tag k="openGeoDB:auto_update" v="population"/>
    <tag k="openGeoDB:is_in" v="Menen,Menen,Kortrijk,Kortrijk,West-Vlaanderen,West-Vlaanderen,Vlaanderen,Vlaanderen,Belgique,Belgique,Europe"/>
    <tag k="openGeoDB:is_in_loc_id" v="35391"/>
    <tag k="openGeoDB:layer" v="7"/>
    <tag k="openGeoDB:loc_id" v="33924"/>
    <tag k="openGeoDB:name" v="Menen,Menen"/>
    <tag k="openGeoDB:postal_codes" v="8930"/>
    <tag k="openGeoDB:sort_name" v="MENEN"/>
    <tag k="openGeoDB:type" v="100600000"/>
    <tag k="openGeoDB:version" v="0.2.6.11 / 2007-12-04 / http://fa-technik.adfc.de/code/opengeodb/dump/"/>
    <tag k="opengeodb:lat" v="50.7968546"/>
    <tag k="opengeodb:lon" v="3.115808"/>
    <tag k="place" v="town"/>
    <tag k="wikipedia" v="Menen"/>
  </node>
  <node id="79351348" version="10" timestamp="2012-01-27T15:58:22Z" uid="234874" user="-raul" changeset="10513801" lat="50.7969312" lon="3.11566">
    <tag k="is_in" v="West-Vlaanderen;Vlaanderen;Belgium;België;Belgique;Europe"/>
    <tag k="name" v="Menen"/>
    <tag k="name:fr" v="Menin"/>
    <tag k="name:ru" v="Менен"/>
    <tag k="openGeoDB:auto_update" v="population"/>
    <tag k="openGeoDB:is_in" v="Menen,Menen,Kortrijk,Kortrijk,West-Vlaanderen,West-Vlaanderen,Vlaanderen,Vlaanderen,Belgique,Belgique,Europe"/>
    <tag k="openGeoDB:is_in_loc_id" v="35391"/>
    <tag k="openGeoDB:layer" v="7"/>
    <tag k="openGeoDB:loc_id" v="33924"/>
    <tag k="openGeoDB:name" v="Menen,Menen"/>
    <tag k="openGeoDB:postal_codes" v="8930"/>
    <tag k="openGeoDB:sort_name" v="MENEN"/>
    <tag k="openGeoDB:type" v="100600000"/>
    <tag k="openGeoDB:version" v="0.2.6.11 / 2007-12-04 / http://fa-technik.adfc.de/code/opengeodb/dump/"/>
    <tag k="opengeodb:lat" v="50.7968546"/>
    <tag k="opengeodb:lon" v="3.115808"/>
    <tag k="place" v="town"/>
    <tag k="wikipedia" v="Menen"/>
  </node>
  <node id="79351348" version="11" timestamp="2012-03-17T15:23:08Z" uid="6072" user="Eimai" changeset="11008980" lat="50.7969312" lon="3.11566"/>
  <node id="79352083" version="3" timestamp="2010-05-27T10:06:12Z" uid="74617" user="JohnSmith" changeset="4820562" lat="-27.4469212" lon="153.1289381"/>
  <node id="79352084" version="3" timestamp="2010-05-27T10:06:13Z" uid="74617" user="JohnSmith" changeset="4820562" lat="-27.4457549" lon="153.1331861"/>
  <node id="79352750" version="3" timestamp="2010-07-13T15:01:11Z" uid="4467" user="Rosscoe" changeset="5208823" lat="-27.4476489" lon="153.1266356"/>
  <node id="79352750" version="4" timestamp="2011-11-05T06:14:55Z" uid="22094" user="Chadzopkyo" changeset="9743876" lat="-27.4476439" lon="153.1266515"/>
  <node id="79353176" version="4" timestamp="2009-07-26T01:48:42Z" uid="123700" user="Mala" changeset="1939972" lat="50.7650381" lon="2.8982834">
    <tag k="is_in" v="West-Vlaanderen,Belgium,Europe"/>
    <tag k="name" v="Mesen"/>
    <tag k="name:fr" v="Messines"/>
    <tag k="openGeoDB:auto_update" v="population"/>
    <tag k="openGeoDB:is_in" v="Leper,Leper,West-Vlaanderen,West-Vlaanderen,Vlaanderen,Vlaanderen,Belgique,Belgique,Europe"/>
    <tag k="openGeoDB:is_in_loc_id" v="666"/>
    <tag k="openGeoDB:layer" v="6"/>
    <tag k="openGeoDB:loc_id" v="33936"/>
    <tag k="openGeoDB:name" v="Mesen,Mesen"/>
    <tag k="openGeoDB:postal_codes" v="8957"/>
    <tag k="openGeoDB:sort_name" v="MESEN"/>
    <tag k="openGeoDB:type" v="100600000"/>
    <tag k="openGeoDB:version" v="0.2.6.11 / 2007-12-04 / http://fa-technik.adfc.de/code/opengeodb/dump/"/>
    <tag k="opengeodb:lat" v="50.7650381"/>
    <tag k="opengeodb:lon" v="2.8982834"/>
    <tag k="place" v="town"/>
    <tag k="wikipedia" v="Mesen"/>
  </node>
  <node id="79353176" version="5" timestamp="2010-10-16T11:53:25Z" uid="6072" user="Eimai" changeset="6056909" lat="50.7650381" lon="2.8982833">
    <tag k="is_in" v="West-Vlaanderen,Belgium,Europe"/>
    <tag k="name" v="Mesen"/>
    <tag k="name:fr" v="Messines"/>
    <tag k="openGeoDB:auto_update" v="population"/>
    <tag k="openGeoDB:is_in" v="Leper,Leper,West-Vlaanderen,West-Vlaanderen,Vlaanderen,Vlaanderen,Belgique,Belgique,Europe"/>
    <tag k="openGeoDB:is_in_loc_id" v="666"/>
    <tag k="openGeoDB:layer" v="6"/>
    <tag k="openGeoDB:loc_id" v="33936"/>
    <tag k="openGeoDB:name" v="Mesen,Mesen"/>
    <tag k="openGeoDB:postal_codes" v="8957"/>
    <tag k="openGeoDB:sort_name" v="MESEN"/>
    <tag k="openGeoDB:type" v="100600000"/>
    <tag k="openGeoDB:version" v="0.2.6.11 / 2007-12-04 / http://fa-technik.adfc.de/code/opengeodb/dump/"/>
    <tag k="opengeodb:lat" v="50.7650381"/>
    <tag k="opengeodb:lon" v="2.8982834"/>
    <tag k="place" v="village"/>
    <tag k="wikipedia" v="Mesen"/>
  </node>
  <node id="79353176" version="6" timestamp="2011-06-09T13:44:57Z" uid="170722" user="JosV" changeset="8388670" lat="50.7653674" lon="2.8984091">
    <tag k="is_in" v="West-Vlaanderen,Belgium,Europe"/>
    <tag k="name" v="Mesen"/>
    <tag k="name:fr" v="Messines"/>
    <tag k="openGeoDB:auto_update" v="population"/>
    <tag k="openGeoDB:is_in" v="Leper,Leper,West-Vlaanderen,West-Vlaanderen,Vlaanderen,Vlaanderen,Belgique,Belgique,Europe"/>
    <tag k="openGeoDB:is_in_loc_id" v="666"/>
    <tag k="openGeoDB:layer" v="6"/>
    <tag k="openGeoDB:loc_id" v="33936"/>
    <tag k="openGeoDB:name" v="Mesen,Mesen"/>
    <tag k="openGeoDB:postal_codes" v="8957"/>
    <tag k="openGeoDB:sort_name" v="MESEN"/>
    <tag k="openGeoDB:type" v="100600000"/>
    <tag k="openGeoDB:version" v="0.2.6.11 / 2007-12-04 / http://fa-technik.adfc.de/code/opengeodb/dump/"/>
    <tag k="opengeodb:lat" v="50.7650381"/>
    <tag k="opengeodb:lon" v="2.8982834"/>
    <tag k="place" v="village"/>
    <tag k="wikipedia" v="Mesen"/>
  </node>
  <node id="79353176" version="7" timestamp="2012-03-17T15:22:19Z" uid="6072" user="Eimai" changeset="11008969" lat="50.7653674" lon="2.8984091"/>
  <node id="79356887" version="7" timestamp="2009-07-26T01:48:41Z" uid="123700" user="Mala" changeset="1939972" lat="50.9793348" lon="4.9752116">
    <tag k="is_in" v="Vlaams-Brabant,Belgium,Europe"/>
    <tag k="name" v="Scherpenheuvel-Zichem"/>
    <tag k="name:fr" v="Montaigu-Zichem"/>
    <tag k="openGeoDB:auto_update" v="population"/>
    <tag k="openGeoDB:is_in" v="Leuven,Leuven,Vlaams Brabant,Vlaams Brabant,Vlaanderen,Vlaanderen,Belgique,Belgique,Europe"/>
    <tag k="openGeoDB:is_in_loc_id" v="668"/>
    <tag k="openGeoDB:layer" v="6"/>
    <tag k="openGeoDB:loc_id" v="35370"/>
    <tag k="openGeoDB:name" v="Scherpenheuvel-Zichem,Scherpenheuvel-Zichem"/>
    <tag k="openGeoDB:postal_codes" v="3270,3271,3272"/>
    <tag k="openGeoDB:sort_name" v="SCHERPENHEUVEL-ZICHEM"/>
    <tag k="openGeoDB:type" v="100600000"/>
    <tag k="openGeoDB:version" v="0.2.6.11 / 2007-12-04 / http://fa-technik.adfc.de/code/opengeodb/dump/"/>
    <tag k="opengeodb:lat" v="50.9787907"/>
    <tag k="opengeodb:lon" v="4.9744004"/>
    <tag k="place" v="town"/>
    <tag k="wikipedia" v="Scherpenheuvel-Zichem"/>
  </node>
  <node id="79356887" version="8" timestamp="2012-02-23T18:49:07Z" uid="6072" user="Eimai" changeset="10771144" lat="50.9793348" lon="4.9752116"/>
</osm>
