<?xml version='1.0' encoding='UTF-8'?>
<osm version="0.6" generator="libosmium/2.20.0">
  <node id="793604315" version="1" timestamp="2010-06-27T20:59:32Z" uid="115477" user="wowik" changeset="5092541" lat="57.3608795" lon="37.6137235">
    <tag k="amenity" v="place_of_worship"/>
  </node>
  <node id="793604315" version="2" timestamp="2010-07-08T10:58:52Z" uid="115477" user="wowik" changeset="5165129" lat="57.3610101" lon="37.6133603">
    <tag k="amenity" v="place_of_worship"/>
    <tag k="denomination" v="orthodox"/>
    <tag k="name" v="Воскресенский кафедральный собор"/>
    <tag k="religion" v="christian"/>
  </node>
  <node id="793604315" version="3" timestamp="2012-01-26T21:10:29Z" uid="384084" user="Kostik" changeset="10507299" lat="57.3610101" lon="37.6133603">
    <tag k="amenity" v="place_of_worship"/>
    <tag k="denomination" v="orthodox"/>
    <tag k="name" v="Воскресенский кафедральный собор"/>
    <tag k="religion" v="christian"/>
  </node>
  <node id="793604316" version="1" timestamp="2010-06-27T20:59:32Z" uid="115477" user="wowik" changeset="5092541" lat="57.3524591" lon="37.6254608">
    <tag k="amenity" v="place_of_worship"/>
  </node>
  <node id="793604316" version="2" timestamp="2010-07-08T10:58:52Z" uid="115477" user="wowik" changeset="5165129" lat="57.3543318" lon="37.6253551">
    <tag k="amenity" v="place_of_worship"/>
    <tag k="denomination" v="orthodox"/>
    <tag k="religion" v="christian"/>
  </node>
  <node id="793604316" version="3" timestamp="2010-07-21T07:49:01Z" uid="115477" user="wowik" changeset="5276643" lat="57.3554338" lon="37.6251339">
    <tag k="amenity" v="place_of_worship"/>
    <tag k="denomination" v="orthodox"/>
    <tag k="religion" v="christian"/>
  </node>
  <node id="793604316" version="4" timestamp="2010-11-29T18:19:02Z" uid="115477" user="wowik" changeset="6488403" lat="57.3554338" lon="37.6251339">
    <tag k="addr:city" v="Кашин"/>
    <tag k="addr:street" v="Крестьянская улица"/>
    <tag k="amenity" v="place_of_worship"/>
    <tag k="denomination" v="orthodox"/>
    <tag k="name" v="Церковь Петра и Павла"/>
    <tag k="religion" v="christian"/>
  </node>
  <node id="793604316" version="5" timestamp="2012-01-26T21:14:48Z" uid="384084" user="Kostik" changeset="10507299" lat="57.3554338" lon="37.6251339">
    <tag k="addr:city" v="Кашин"/>
    <tag k="addr:street" v="Крестьянская улица"/>
    <tag k="amenity" v="place_of_worship"/>
    <tag k="denomination" v="orthodox"/>
    <tag k="name" v="Церковь Петра и Павла"/>
    <tag k="religion" v="christian"/>
  </node>
  <node id="793604317" version="1" timestamp="2010-06-27T20:59:32Z" uid="115477" user="wowik" changeset="5092541" lat="57.3630784" lon="37.6287868">
    <tag k="amenity" v="place_of_worship"/>
  </node>
  <node id="793604317" version="2" timestamp="2010-06-28T17:09:21Z" uid="115477" user="wowik" changeset="5099174" lat="57.3630617" lon="37.6292915">
    <tag k="amenity" v="place_of_worship"/>
  </node>
  <node id="793604317" version="3" timestamp="2010-07-08T10:58:52Z" uid="115477" user="wowik" changeset="5165129" lat="57.3632783" lon="37.6295394">
    <tag k="amenity" v="place_of_worship"/>
    <tag k="denomination" v="orthodox"/>
    <tag k="religion" v="christian"/>
  </node>
  <node id="793604317" version="4" timestamp="2010-07-21T07:50:01Z" uid="115477" user="wowik" changeset="5276643" lat="57.3626789" lon="37.6280521">
    <tag k="amenity" v="place_of_worship"/>
    <tag k="denomination" v="orthodox"/>
    <tag k="religion" v="christian"/>
  </node>
  <node id="793604317" version="5" timestamp="2010-07-21T08:33:33Z" uid="115477" user="wowik" changeset="5276643" lat="57.3626095" lon="37.6275157">
    <tag k="amenity" v="place_of_worship"/>
    <tag k="denomination" v="orthodox"/>
    <tag k="religion" v="christian"/>
  </node>
  <node id="793604317" version="6" timestamp="2012-01-26T21:15:24Z" uid="384084" user="Kostik" changeset="10507299" lat="57.3626095" lon="37.6275157">
    <tag k="amenity" v="place_of_worship"/>
    <tag k="denomination" v="orthodox"/>
    <tag k="religion" v="christian"/>
  </node>
  <node id="793604318" version="1" timestamp="2010-06-27T20:59:32Z" uid="115477" user="wowik" changeset="5092541" lat="57.3969525" lon="37.630439">
    <tag k="name" v="развалины фермы"/>
    <tag k="place" v="locality"/>
  </node>
  <node id="793604318" version="2" timestamp="2010-06-28T17:02:16Z" uid="115477" user="wowik" changeset="5099174" lat="57.397092" lon="37.6310296">
    <tag k="name" v="развалины фермы"/>
    <tag k="place" v="locality"/>
  </node>
  <node id="793604318" version="3" timestamp="2010-07-14T12:41:45Z" uid="115477" user="wowik" changeset="5216570" lat="57.397092" lon="37.6310296">
    <tag k="name" v="развалины фермы"/>
    <tag k="place" v="locality"/>
  </node>
  <node id="793604319" version="1" timestamp="2010-06-27T20:59:33Z" uid="115477" user="wowik" changeset="5092541" lat="57.3637322" lon="37.620311"/>
  <node id="793604319" version="2" timestamp="2010-06-28T17:12:15Z" uid="115477" user="wowik" changeset="5099174" lat="57.3638081" lon="37.6207836"/>
  <node id="793604319" version="3" timestamp="2010-07-08T10:59:05Z" uid="115477" user="wowik" changeset="5165129" lat="57.3638512" lon="37.6208061"/>
  <node id="793604319" version="4" timestamp="2010-11-23T11:34:22Z" uid="115477" user="wowik" changeset="6438744" lat="57.3638463" lon="37.620707"/>
  <node id="793604320" version="1" timestamp="2010-06-27T20:59:33Z" uid="115477" user="wowik" changeset="5092541" lat="57.3636628" lon="37.6171782"/>
  <node id="793604320" version="2" timestamp="2010-06-28T17:12:16Z" uid="115477" user="wowik" changeset="5099174" lat="57.363704" lon="37.6171358"/>
  <node id="793604320" version="3" timestamp="2010-07-08T10:59:04Z" uid="115477" user="wowik" changeset="5165129" lat="57.3637297" lon="37.6171369"/>
  <node id="793604320" version="4" timestamp="2010-11-23T11:34:35Z" uid="115477" user="wowik" changeset="6438744" lat="57.3637151" lon="37.6169566"/>
  <node id="793604321" version="1" timestamp="2010-06-27T20:59:33Z" uid="115477" user="wowik" changeset="5092541" lat="57.3636628" lon="37.6163628"/>
  <node id="793604321" version="2" timestamp="2010-06-28T17:12:14Z" uid="115477" user="wowik" changeset="5099174" lat="57.3636924" lon="37.6163848"/>
  <node id="793604321" version="3" timestamp="2010-07-08T10:59:04Z" uid="115477" user="wowik" changeset="5165129" lat="57.3637181" lon="37.6163751"/>
  <node id="793604321" version="4" timestamp="2010-11-23T11:34:13Z" uid="115477" user="wowik" changeset="6438744" lat="57.3637035" lon="37.6161948"/>
  <node id="793608782" version="1" timestamp="2010-06-27T21:02:54Z" uid="115477" user="wowik" changeset="5092541" lat="57.4118641" lon="37.6698353">
    <tag k="name" v="Васнево"/>
    <tag k="place" v="hamlet"/>
  </node>
  <node id="793608782" version="2" timestamp="2010-07-01T09:08:21Z" uid="115477" user="wowik" changeset="5118987" lat="57.4116934" lon="37.6692325">
    <tag k="name" v="Васнево"/>
    <tag k="place" v="hamlet"/>
  </node>
  <node id="793608782" version="3" timestamp="2011-01-26T16:44:30Z" uid="115477" user="wowik" changeset="7094999" lat="57.4116492" lon="37.6685376">
    <tag k="name" v="Васнево"/>
    <tag k="place" v="hamlet"/>
  </node>
  <node id="793608782" version="4" timestamp="2012-01-26T21:10:14Z" uid="384084" user="Kostik" changeset="10507299" lat="57.4116492" lon="37.6685376">
    <tag k="name" v="Васнево"/>
    <tag k="place" v="hamlet"/>
  </node>
</osm>
