<?xml version='1.0' encoding='UTF-8'?>
<osm version="0.6" generator="libosmium/2.20.0">
  <node id="796168622" version="1" timestamp="2010-06-29T18:38:29Z" uid="115477" user="wowik" changeset="5107444" lat="57.3725065" lon="37.8319551">
    <tag k="name" v="Рагузино"/>
    <tag k="place" v="hamlet"/>
  </node>
  <node id="796168622" version="2" timestamp="2012-01-26T21:13:34Z" uid="384084" user="Kostik" changeset="10507299" lat="57.3725065" lon="37.8319551">
    <tag k="name" v="Рагузино"/>
    <tag k="place" v="hamlet"/>
  </node>
  <node id="796168629" version="1" timestamp="2010-06-29T18:38:29Z" uid="115477" user="wowik" changeset="5107444" lat="57.3748666" lon="37.8366758">
    <tag k="name" v="Полукьяново"/>
    <tag k="place" v="hamlet"/>
  </node>
  <node id="796168629" version="2" timestamp="2010-06-30T11:28:14Z" uid="115477" user="wowik" changeset="5112742" lat="57.3759358" lon="37.838659">
    <tag k="name" v="Полукьяново"/>
    <tag k="place" v="hamlet"/>
  </node>
  <node id="796168629" version="3" timestamp="2010-11-22T18:01:05Z" uid="115477" user="wowik" changeset="6432391" lat="57.3759358" lon="37.8391841">
    <tag k="name" v="Полукьяново"/>
    <tag k="place" v="hamlet"/>
  </node>
  <node id="796168629" version="4" timestamp="2012-01-26T21:13:23Z" uid="384084" user="Kostik" changeset="10507299" lat="57.3759358" lon="37.8391841">
    <tag k="name" v="Полукьяново"/>
    <tag k="place" v="hamlet"/>
  </node>
  <node id="796168632" version="1" timestamp="2010-06-29T18:38:29Z" uid="115477" user="wowik" changeset="5107444" lat="57.3845368" lon="37.8377057">
    <tag k="name" v="Милюково"/>
    <tag k="place" v="hamlet"/>
  </node>
  <node id="796168632" version="2" timestamp="2010-11-22T18:01:07Z" uid="115477" user="wowik" changeset="6432391" lat="57.3845368" lon="37.8377057">
    <tag k="name" v="Миклюково"/>
    <tag k="place" v="hamlet"/>
  </node>
  <node id="796168632" version="3" timestamp="2012-01-26T21:12:42Z" uid="384084" user="Kostik" changeset="10507299" lat="57.3845368" lon="37.8377057">
    <tag k="name" v="Миклюково"/>
    <tag k="place" v="hamlet"/>
  </node>
  <node id="796168639" version="1" timestamp="2010-06-29T18:38:29Z" uid="115477" user="wowik" changeset="5107444" lat="57.3884226" lon="37.8205396">
    <tag k="name" v="Коськово"/>
    <tag k="place" v="hamlet"/>
  </node>
  <node id="796168639" version="2" timestamp="2010-06-30T11:28:14Z" uid="115477" user="wowik" changeset="5112742" lat="57.3889732" lon="37.8212007">
    <tag k="name" v="Коськово"/>
    <tag k="place" v="hamlet"/>
  </node>
  <node id="796168639" version="3" timestamp="2010-07-14T11:03:51Z" uid="115477" user="wowik" changeset="5215760" lat="57.3889731" lon="37.8212008">
    <tag k="name" v="Коськово"/>
    <tag k="place" v="locality"/>
  </node>
  <node id="796168639" version="4" timestamp="2012-01-26T21:12:00Z" uid="384084" user="Kostik" changeset="10507299" lat="57.3889731" lon="37.8212008">
    <tag k="name" v="Коськово"/>
    <tag k="place" v="locality"/>
  </node>
  <node id="796168644" version="1" timestamp="2010-06-29T18:38:29Z" uid="115477" user="wowik" changeset="5107444" lat="57.4112899" lon="37.8540994">
    <tag k="name" v="Вороново"/>
    <tag k="place" v="hamlet"/>
  </node>
  <node id="796168644" version="2" timestamp="2010-06-29T18:52:04Z" uid="115477" user="wowik" changeset="5107444" lat="57.4112668" lon="37.8560735">
    <tag k="name" v="Вороново"/>
    <tag k="place" v="hamlet"/>
  </node>
  <node id="796168644" version="3" timestamp="2012-01-26T21:10:28Z" uid="384084" user="Kostik" changeset="10507299" lat="57.4112668" lon="37.8560735">
    <tag k="name" v="Вороново"/>
    <tag k="place" v="hamlet"/>
  </node>
  <node id="796168675" version="1" timestamp="2010-06-29T18:38:31Z" uid="115477" user="wowik" changeset="5107444" lat="57.3757227" lon="37.7973224"/>
  <node id="796168678" version="1" timestamp="2010-06-29T18:38:31Z" uid="115477" user="wowik" changeset="5107444" lat="57.3751674" lon="37.7945758"/>
  <node id="796168689" version="1" timestamp="2010-06-29T18:38:31Z" uid="115477" user="wowik" changeset="5107444" lat="57.377296" lon="37.8041459"/>
</osm>
