<?xml version='1.0' encoding='UTF-8'?>
<osm version="0.6" generator="libosmium/2.20.0">
  <node id="797938413" version="1" timestamp="2010-07-01T08:46:29Z" uid="49111" user="Markus B" changeset="5118887" lat="49.4522077" lon="11.0806124"/>
  <node id="797938413" version="2" timestamp="2010-10-15T12:40:39Z" uid="80255" user="miriat" changeset="6048883" lat="49.4521653" lon="11.0806306"/>
  <node id="797938413" version="3" timestamp="2011-11-12T09:39:16Z" uid="346758" user="kukuk" changeset="9802808" lat="49.4521792" lon="11.0806079"/>
  <node id="797938478" version="1" timestamp="2010-07-01T08:46:35Z" uid="49111" user="Markus B" changeset="5118887" lat="49.4522048" lon="11.0806801"/>
  <node id="797938478" version="2" timestamp="2010-10-15T12:41:07Z" uid="80255" user="miriat" changeset="6048883" lat="49.4521624" lon="11.0806983"/>
  <node id="797938478" version="3" timestamp="2011-11-12T09:39:16Z" uid="346758" user="kukuk" changeset="9802808" lat="49.4521763" lon="11.0806756"/>
  <node id="797938479" version="1" timestamp="2010-07-01T08:46:35Z" uid="49111" user="Markus B" changeset="5118887" lat="49.4511475" lon="11.0811716">
    <tag k="addr:city" v="Nürnberg"/>
    <tag k="addr:country" v="DE"/>
    <tag k="addr:housenumber" v="17"/>
    <tag k="addr:postcode" v="90403"/>
    <tag k="addr:street" v="Peter-Vischer-Straße"/>
    <tag k="amenity" v="cafe"/>
    <tag k="name" v="Teestube Konkret"/>
    <tag k="note" v="alkoholfrei"/>
    <tag k="opening_hours" v="Fr-Sa 20:00-23:00"/>
    <tag k="phone" v="+49-911-203387"/>
    <tag k="smoking" v="no"/>
  </node>
  <node id="797938611" version="1" timestamp="2010-07-01T08:46:41Z" uid="49111" user="Markus B" changeset="5118887" lat="49.4518651" lon="11.0813714"/>
  <node id="797938611" version="2" timestamp="2011-10-31T00:16:05Z" uid="346758" user="kukuk" changeset="9699607" lat="49.4518651" lon="11.0813714"/>
  <node id="797938612" version="1" timestamp="2010-07-01T08:46:41Z" uid="49111" user="Markus B" changeset="5118887" lat="49.4519089" lon="11.0814099">
    <tag k="addr:city" v="Nürnberg"/>
    <tag k="addr:country" v="DE"/>
    <tag k="addr:housenumber" v="2"/>
    <tag k="addr:postcode" v="90403"/>
    <tag k="addr:street" v="Peter-Vischer-Straße"/>
    <tag k="amenity" v="bar"/>
    <tag k="name" v="dierote Bar"/>
    <tag k="opening_hours" v="So-Do 19:00-02:00; Fr-Sa 19:00-03:00"/>
    <tag k="phone" v="+49-911-9928956"/>
    <tag k="smoking" v="yes"/>
    <tag k="website" v="http://dierotebar.net"/>
  </node>
  <node id="797938612" version="2" timestamp="2010-08-15T08:10:55Z" uid="319840" user="octo" changeset="5496866" lat="49.4518947" lon="11.0814578">
    <tag k="addr:city" v="Nürnberg"/>
    <tag k="addr:country" v="DE"/>
    <tag k="addr:housenumber" v="2"/>
    <tag k="addr:postcode" v="90403"/>
    <tag k="addr:street" v="Peter-Vischer-Straße"/>
    <tag k="amenity" v="bar"/>
    <tag k="name" v="dierote Bar"/>
    <tag k="opening_hours" v="So-Do 19:00-02:00; Fr-Sa 19:00-03:00"/>
    <tag k="phone" v="+49-911-9928956"/>
    <tag k="smoking" v="yes"/>
    <tag k="website" v="http://dierotebar.net"/>
  </node>
  <node id="797938612" version="3" timestamp="2010-10-01T07:17:21Z" uid="49111" user="Markus B" changeset="5925467" lat="49.4518947" lon="11.0814578">
    <tag k="addr:city" v="Nürnberg"/>
    <tag k="addr:country" v="DE"/>
    <tag k="addr:housenumber" v="2"/>
    <tag k="addr:postcode" v="90403"/>
    <tag k="addr:street" v="Peter-Vischer-Straße"/>
    <tag k="amenity" v="bar"/>
    <tag k="name" v="dierote Bar"/>
    <tag k="opening_hours" v="So-Do 19:00-02:00; Fr-Sa 19:00-03:00"/>
    <tag k="phone" v="+49-911-9928956"/>
    <tag k="smoking" v="no"/>
    <tag k="website" v="http://dierotebar.net"/>
  </node>
  <node id="797938612" version="4" timestamp="2010-11-18T06:33:25Z" uid="290680" user="wheelmap_visitor" changeset="6397826" lat="49.4518947" lon="11.0814578">
    <tag k="addr:city" v="Nürnberg"/>
    <tag k="addr:country" v="DE"/>
    <tag k="addr:housenumber" v="2"/>
    <tag k="addr:postcode" v="90403"/>
    <tag k="addr:street" v="Peter-Vischer-Straße"/>
    <tag k="amenity" v="bar"/>
    <tag k="name" v="dierote Bar"/>
    <tag k="opening_hours" v="So-Do 19:00-02:00; Fr-Sa 19:00-03:00"/>
    <tag k="phone" v="+49-911-9928956"/>
    <tag k="smoking" v="no"/>
    <tag k="website" v="http://dierotebar.net"/>
    <tag k="wheelchair" v="yes"/>
  </node>
  <node id="797938612" version="5" timestamp="2010-11-18T06:35:27Z" uid="290680" user="wheelmap_visitor" changeset="6397826" lat="49.4518947" lon="11.0814578">
    <tag k="addr:city" v="Nürnberg"/>
    <tag k="addr:country" v="DE"/>
    <tag k="addr:housenumber" v="2"/>
    <tag k="addr:postcode" v="90403"/>
    <tag k="addr:street" v="Peter-Vischer-Straße"/>
    <tag k="amenity" v="bar"/>
    <tag k="name" v="dierote Bar"/>
    <tag k="opening_hours" v="So-Do 19:00-02:00; Fr-Sa 19:00-03:00"/>
    <tag k="phone" v="+49-911-9928956"/>
    <tag k="smoking" v="no"/>
    <tag k="website" v="http://dierotebar.net"/>
    <tag k="wheelchair" v="limited"/>
  </node>
  <node id="797938612" version="6" timestamp="2010-11-21T23:55:50Z" uid="202858" user="kellerma" changeset="6428249" lat="49.4518947" lon="11.0814578">
    <tag k="addr:city" v="Nürnberg"/>
    <tag k="addr:country" v="DE"/>
    <tag k="addr:housenumber" v="2"/>
    <tag k="addr:postcode" v="90403"/>
    <tag k="addr:street" v="Peter-Vischer-Straße"/>
    <tag k="amenity" v="bar"/>
    <tag k="name" v="dierote Bar"/>
    <tag k="opening_hours" v="Su-Th 19:00-02:00; Fr-Sa 19:00-03:00"/>
    <tag k="phone" v="+49-911-9928956"/>
    <tag k="smoking" v="no"/>
    <tag k="website" v="http://dierotebar.net"/>
    <tag k="wheelchair" v="limited"/>
  </node>
  <node id="797938612" version="7" timestamp="2011-10-31T00:16:04Z" uid="346758" user="kukuk" changeset="9699607" lat="49.4519068" lon="11.0814009">
    <tag k="addr:city" v="Nürnberg"/>
    <tag k="addr:country" v="DE"/>
    <tag k="addr:housenumber" v="2"/>
    <tag k="addr:postcode" v="90403"/>
    <tag k="addr:street" v="Peter-Vischer-Straße"/>
    <tag k="amenity" v="bar"/>
    <tag k="name" v="dierote Bar"/>
    <tag k="opening_hours" v="Su-Th 19:00-02:00; Fr-Sa 19:00-03:00"/>
    <tag k="phone" v="+49-911-9928956"/>
    <tag k="smoking" v="no"/>
    <tag k="website" v="http://dierotebar.net"/>
    <tag k="wheelchair" v="limited"/>
  </node>
  <node id="797938621" version="1" timestamp="2010-07-01T08:46:41Z" uid="49111" user="Markus B" changeset="5118887" lat="49.4519384" lon="11.0813618"/>
  <node id="797938621" version="2" timestamp="2011-10-31T00:16:05Z" uid="346758" user="kukuk" changeset="9699607" lat="49.4519384" lon="11.0813618"/>
  <node id="797938623" version="1" timestamp="2010-07-01T08:46:41Z" uid="49111" user="Markus B" changeset="5118887" lat="49.451935" lon="11.0813908"/>
  <node id="797938623" version="2" timestamp="2011-10-31T00:16:05Z" uid="346758" user="kukuk" changeset="9699607" lat="49.451935" lon="11.0813908"/>
  <node id="797938625" version="1" timestamp="2010-07-01T08:46:41Z" uid="49111" user="Markus B" changeset="5118887" lat="49.4518685" lon="11.0813425"/>
  <node id="797938625" version="2" timestamp="2011-10-31T00:16:05Z" uid="346758" user="kukuk" changeset="9699607" lat="49.4518685" lon="11.0813425"/>
  <node id="797938626" version="1" timestamp="2010-07-01T08:46:41Z" uid="49111" user="Markus B" changeset="5118887" lat="49.452073" lon="11.0812247"/>
  <node id="797938626" version="2" timestamp="2010-10-15T12:40:52Z" uid="80255" user="miriat" changeset="6048883" lat="49.452057" lon="11.0812437"/>
  <node id="797938626" version="3" timestamp="2011-10-30T23:14:19Z" uid="346758" user="kukuk" changeset="9699267" lat="49.452057" lon="11.0812437"/>
  <node id="797938628" version="1" timestamp="2010-07-01T08:46:41Z" uid="49111" user="Markus B" changeset="5118887" lat="49.4521081" lon="11.081209"/>
  <node id="797938628" version="2" timestamp="2010-10-15T12:41:01Z" uid="80255" user="miriat" changeset="6048883" lat="49.4520933" lon="11.0811957"/>
  <node id="797938628" version="3" timestamp="2011-10-30T23:14:19Z" uid="346758" user="kukuk" changeset="9699267" lat="49.4520933" lon="11.0811957"/>
  <node id="797938629" version="1" timestamp="2010-07-01T08:46:41Z" uid="49111" user="Markus B" changeset="5118887" lat="49.4521764" lon="11.0813299"/>
  <node id="797938629" version="2" timestamp="2011-10-30T22:55:51Z" uid="346758" user="kukuk" changeset="9699181" lat="49.4521764" lon="11.0813299"/>
  <node id="797938630" version="1" timestamp="2010-07-01T08:46:41Z" uid="49111" user="Markus B" changeset="5118887" lat="49.4522087" lon="11.0812676"/>
  <node id="797938630" version="2" timestamp="2011-10-30T22:55:51Z" uid="346758" user="kukuk" changeset="9699181" lat="49.4522087" lon="11.0812676"/>
  <node id="797938631" version="1" timestamp="2010-07-01T08:46:41Z" uid="49111" user="Markus B" changeset="5118887" lat="49.4520315" lon="11.0815142">
    <tag k="addr:city" v="Nürnberg"/>
    <tag k="addr:country" v="DE"/>
    <tag k="addr:housenumber" v="1"/>
    <tag k="addr:postcode" v="90403"/>
    <tag k="addr:street" v="Peter-Vischer-Straße"/>
    <tag k="amenity" v="restaurant"/>
    <tag k="name" v="Vischer&apos;s"/>
    <tag k="opening_hours" v="So-Do 19:00-02:00; Fr-Sa 19:00-03:00"/>
    <tag k="phone" v="+49-911-2110463"/>
    <tag k="smoking" v="no"/>
  </node>
  <node id="797938631" version="2" timestamp="2010-08-15T08:10:55Z" uid="319840" user="octo" changeset="5496866" lat="49.4520064" lon="11.0814965">
    <tag k="addr:city" v="Nürnberg"/>
    <tag k="addr:country" v="DE"/>
    <tag k="addr:housenumber" v="1"/>
    <tag k="addr:postcode" v="90403"/>
    <tag k="addr:street" v="Peter-Vischer-Straße"/>
    <tag k="amenity" v="restaurant"/>
    <tag k="name" v="Vischer&apos;s"/>
    <tag k="opening_hours" v="So-Do 19:00-02:00; Fr-Sa 19:00-03:00"/>
    <tag k="phone" v="+49-911-2110463"/>
    <tag k="smoking" v="no"/>
  </node>
  <node id="797938631" version="3" timestamp="2010-11-21T23:55:50Z" uid="202858" user="kellerma" changeset="6428249" lat="49.4520064" lon="11.0814965">
    <tag k="addr:city" v="Nürnberg"/>
    <tag k="addr:country" v="DE"/>
    <tag k="addr:housenumber" v="1"/>
    <tag k="addr:postcode" v="90403"/>
    <tag k="addr:street" v="Peter-Vischer-Straße"/>
    <tag k="amenity" v="restaurant"/>
    <tag k="name" v="Vischer&apos;s"/>
    <tag k="opening_hours" v="Su-Th 19:00-02:00; Fr-Sa 19:00-03:00"/>
    <tag k="phone" v="+49-911-2110463"/>
    <tag k="smoking" v="no"/>
  </node>
  <node id="797938631" version="4" timestamp="2011-10-31T00:16:04Z" uid="346758" user="kukuk" changeset="9699607" lat="49.451995" lon="11.0813991">
    <tag k="addr:city" v="Nürnberg"/>
    <tag k="addr:country" v="DE"/>
    <tag k="addr:housenumber" v="1"/>
    <tag k="addr:postcode" v="90403"/>
    <tag k="addr:street" v="Peter-Vischer-Straße"/>
    <tag k="amenity" v="restaurant"/>
    <tag k="name" v="Vischer&apos;s"/>
    <tag k="opening_hours" v="Su-Th 19:00-02:00; Fr-Sa 19:00-03:00"/>
    <tag k="phone" v="+49-911-2110463"/>
    <tag k="smoking" v="no"/>
  </node>
  <node id="797938632" version="1" timestamp="2010-07-01T08:46:41Z" uid="49111" user="Markus B" changeset="5118887" lat="49.4520422" lon="11.0817564">
    <tag k="addr:city" v="Nürnberg"/>
    <tag k="addr:country" v="DE"/>
    <tag k="addr:housenumber" v="2"/>
    <tag k="addr:postcode" v="90403"/>
    <tag k="addr:street" v="Wespennest"/>
    <tag k="amenity" v="restaurant"/>
    <tag k="name" v="Zeit &amp; Raum"/>
    <tag k="opening_hours" v="Mo-So 09:00-02:00"/>
    <tag k="phone" v="+49-911-227408"/>
    <tag k="smoking" v="no"/>
    <tag k="smoking:outside" v="yes"/>
    <tag k="website" v="http://zeiti.net"/>
  </node>
  <node id="797938632" version="2" timestamp="2010-08-15T08:10:55Z" uid="319840" user="octo" changeset="5496866" lat="49.4520178" lon="11.0817335">
    <tag k="addr:city" v="Nürnberg"/>
    <tag k="addr:country" v="DE"/>
    <tag k="addr:housenumber" v="2"/>
    <tag k="addr:postcode" v="90403"/>
    <tag k="addr:street" v="Wespennest"/>
    <tag k="amenity" v="restaurant"/>
    <tag k="name" v="Zeit &amp; Raum"/>
    <tag k="opening_hours" v="Mo-So 09:00-02:00"/>
    <tag k="phone" v="+49-911-227408"/>
    <tag k="smoking" v="no"/>
    <tag k="smoking:outside" v="yes"/>
    <tag k="website" v="http://zeiti.net"/>
  </node>
  <node id="797938632" version="3" timestamp="2010-11-21T23:55:49Z" uid="202858" user="kellerma" changeset="6428249" lat="49.4520178" lon="11.0817335">
    <tag k="addr:city" v="Nürnberg"/>
    <tag k="addr:country" v="DE"/>
    <tag k="addr:housenumber" v="2"/>
    <tag k="addr:postcode" v="90403"/>
    <tag k="addr:street" v="Wespennest"/>
    <tag k="amenity" v="restaurant"/>
    <tag k="name" v="Zeit &amp; Raum"/>
    <tag k="opening_hours" v="Mo-Su 09:00-02:00"/>
    <tag k="phone" v="+49-911-227408"/>
    <tag k="smoking" v="no"/>
    <tag k="smoking:outside" v="yes"/>
    <tag k="website" v="http://zeiti.net"/>
  </node>
  <node id="797938632" version="4" timestamp="2011-09-24T20:16:28Z" uid="290680" user="wheelmap_visitor" changeset="9383846" lat="49.4520178" lon="11.0817335">
    <tag k="addr:city" v="Nürnberg"/>
    <tag k="addr:country" v="DE"/>
    <tag k="addr:housenumber" v="2"/>
    <tag k="addr:postcode" v="90403"/>
    <tag k="addr:street" v="Wespennest"/>
    <tag k="amenity" v="restaurant"/>
    <tag k="name" v="Zeit &amp; Raum"/>
    <tag k="opening_hours" v="Mo-Su 09:00-02:00"/>
    <tag k="phone" v="+49-911-227408"/>
    <tag k="smoking" v="no"/>
    <tag k="smoking:outside" v="yes"/>
    <tag k="website" v="http://zeiti.net"/>
    <tag k="wheelchair" v="no"/>
  </node>
  <node id="797938632" version="5" timestamp="2011-10-04T14:57:55Z" uid="290680" user="wheelmap_visitor" changeset="9466302" lat="49.4520178" lon="11.0817335">
    <tag k="addr:city" v="Nürnberg"/>
    <tag k="addr:country" v="DE"/>
    <tag k="addr:housenumber" v="2"/>
    <tag k="addr:postcode" v="90403"/>
    <tag k="addr:street" v="Wespennest"/>
    <tag k="amenity" v="restaurant"/>
    <tag k="name" v="Zeit &amp; Raum"/>
    <tag k="opening_hours" v="Mo-Su 09:00-02:00"/>
    <tag k="phone" v="+49-911-227408"/>
    <tag k="smoking" v="no"/>
    <tag k="smoking:outside" v="yes"/>
    <tag k="website" v="http://zeiti.net"/>
    <tag k="wheelchair" v="yes"/>
  </node>
  <node id="797938632" version="6" timestamp="2011-10-17T22:32:17Z" uid="290680" user="wheelmap_visitor" changeset="9578325" lat="49.4520178" lon="11.0817335">
    <tag k="addr:city" v="Nürnberg"/>
    <tag k="addr:country" v="DE"/>
    <tag k="addr:housenumber" v="2"/>
    <tag k="addr:postcode" v="90403"/>
    <tag k="addr:street" v="Wespennest"/>
    <tag k="amenity" v="restaurant"/>
    <tag k="name" v="Zeit &amp; Raum"/>
    <tag k="opening_hours" v="Mo-Su 09:00-02:00"/>
    <tag k="phone" v="+49-911-227408"/>
    <tag k="smoking" v="no"/>
    <tag k="smoking:outside" v="yes"/>
    <tag k="website" v="http://zeiti.net"/>
    <tag k="wheelchair" v="limited"/>
  </node>
  <node id="797938632" version="7" timestamp="2011-10-31T00:16:04Z" uid="346758" user="kukuk" changeset="9699607" lat="49.4520804" lon="11.0817368">
    <tag k="addr:city" v="Nürnberg"/>
    <tag k="addr:country" v="DE"/>
    <tag k="addr:housenumber" v="2"/>
    <tag k="addr:postcode" v="90403"/>
    <tag k="addr:street" v="Wespennest"/>
    <tag k="amenity" v="restaurant"/>
    <tag k="name" v="Zeit &amp; Raum"/>
    <tag k="opening_hours" v="Mo-Su 09:00-02:00"/>
    <tag k="phone" v="+49-911-227408"/>
    <tag k="smoking" v="no"/>
    <tag k="smoking:outside" v="yes"/>
    <tag k="website" v="http://zeiti.net"/>
    <tag k="wheelchair" v="limited"/>
  </node>
  <node id="797938633" version="1" timestamp="2010-07-01T08:46:42Z" uid="49111" user="Markus B" changeset="5118887" lat="49.4521139" lon="11.0817225"/>
  <node id="797938633" version="2" timestamp="2011-10-31T00:16:06Z" uid="346758" user="kukuk" changeset="9699607" lat="49.4521139" lon="11.0817225"/>
  <node id="797938634" version="1" timestamp="2010-07-01T08:46:42Z" uid="49111" user="Markus B" changeset="5118887" lat="49.4520733" lon="11.0817067"/>
  <node id="797938634" version="2" timestamp="2011-10-31T00:16:06Z" uid="346758" user="kukuk" changeset="9699607" lat="49.4520733" lon="11.0817067"/>
  <node id="797938635" version="1" timestamp="2010-07-01T08:46:42Z" uid="49111" user="Markus B" changeset="5118887" lat="49.4520536" lon="11.0815564"/>
  <node id="797938635" version="2" timestamp="2010-08-15T08:10:54Z" uid="319840" user="octo" changeset="5496866" lat="49.4520502" lon="11.0815689"/>
  <node id="797938635" version="3" timestamp="2011-10-31T00:16:06Z" uid="346758" user="kukuk" changeset="9699607" lat="49.4520502" lon="11.0815689"/>
  <node id="797938636" version="1" timestamp="2010-07-01T08:46:42Z" uid="49111" user="Markus B" changeset="5118887" lat="49.4520794" lon="11.0815624"/>
  <node id="797938636" version="2" timestamp="2010-08-15T08:10:54Z" uid="319840" user="octo" changeset="5496866" lat="49.4520692" lon="11.0815738"/>
  <node id="797938636" version="3" timestamp="2011-10-31T00:16:06Z" uid="346758" user="kukuk" changeset="9699607" lat="49.4520692" lon="11.0815738"/>
  <node id="797938637" version="1" timestamp="2010-07-01T08:46:42Z" uid="49111" user="Markus B" changeset="5118887" lat="49.4520631" lon="11.0814594"/>
  <node id="797938637" version="2" timestamp="2010-08-15T08:10:55Z" uid="319840" user="octo" changeset="5496866" lat="49.4520679" lon="11.0814063"/>
  <node id="797938637" version="3" timestamp="2011-10-31T00:16:06Z" uid="346758" user="kukuk" changeset="9699607" lat="49.4520679" lon="11.0814063"/>
  <node id="797938638" version="1" timestamp="2010-07-01T08:46:42Z" uid="49111" user="Markus B" changeset="5118887" lat="49.4520889" lon="11.0814654"/>
  <node id="797938638" version="2" timestamp="2010-08-15T08:10:56Z" uid="319840" user="octo" changeset="5496866" lat="49.4520869" lon="11.0814112"/>
  <node id="797938638" version="3" timestamp="2011-10-31T00:16:06Z" uid="346758" user="kukuk" changeset="9699607" lat="49.4520869" lon="11.0814112"/>
  <node id="797938639" version="1" timestamp="2010-07-01T08:46:42Z" uid="49111" user="Markus B" changeset="5118887" lat="49.4521909" lon="11.0814592"/>
  <node id="797938639" version="2" timestamp="2011-10-30T22:55:51Z" uid="346758" user="kukuk" changeset="9699181" lat="49.4521909" lon="11.0814592"/>
  <node id="797938640" version="1" timestamp="2010-07-01T08:46:42Z" uid="49111" user="Markus B" changeset="5118887" lat="49.452188" lon="11.0817512"/>
  <node id="797938640" version="2" timestamp="2011-10-30T22:55:51Z" uid="346758" user="kukuk" changeset="9699181" lat="49.452188" lon="11.0817512"/>
  <node id="797938641" version="1" timestamp="2010-07-01T08:46:42Z" uid="49111" user="Markus B" changeset="5118887" lat="49.4519442" lon="11.0819607">
    <tag k="amenity" v="cafe"/>
    <tag k="name" v="Bibliotheks-Cafe"/>
    <tag k="smoking" v="no"/>
    <tag k="smoking:outside" v="yes"/>
  </node>
  <node id="797938641" version="2" timestamp="2011-08-27T09:52:37Z" uid="290680" user="wheelmap_visitor" changeset="9136113" lat="49.4519442" lon="11.0819607">
    <tag k="amenity" v="cafe"/>
    <tag k="name" v="Bibliotheks-Cafe"/>
    <tag k="smoking" v="no"/>
    <tag k="smoking:outside" v="yes"/>
    <tag k="wheelchair" v="yes"/>
  </node>
  <node id="797938641" version="3" timestamp="2011-08-29T05:49:36Z" uid="290680" user="wheelmap_visitor" changeset="9153674" lat="49.4519442" lon="11.0819607">
    <tag k="amenity" v="cafe"/>
    <tag k="name" v="Bibliotheks-Cafe"/>
    <tag k="smoking" v="no"/>
    <tag k="smoking:outside" v="yes"/>
    <tag k="wheelchair" v="limited"/>
  </node>
  <node id="797938641" version="4" timestamp="2011-10-30T23:59:59Z" uid="346758" user="kukuk" changeset="9699520" lat="49.4520144" lon="11.0818745">
    <tag k="amenity" v="cafe"/>
    <tag k="name" v="Bibliotheks-Cafe"/>
    <tag k="smoking" v="no"/>
    <tag k="smoking:outside" v="yes"/>
    <tag k="wheelchair" v="limited"/>
  </node>
  <node id="797938642" version="1" timestamp="2010-07-01T08:46:42Z" uid="49111" user="Markus B" changeset="5118887" lat="49.4519019" lon="11.0819698"/>
  <node id="797938642" version="2" timestamp="2011-10-31T00:00:02Z" uid="346758" user="kukuk" changeset="9699520" lat="49.4519019" lon="11.0819698"/>
  <node id="797938643" version="1" timestamp="2010-07-01T08:46:42Z" uid="49111" user="Markus B" changeset="5118887" lat="49.451889" lon="11.0820454"/>
  <node id="797938643" version="2" timestamp="2011-10-31T00:00:02Z" uid="346758" user="kukuk" changeset="9699520" lat="49.451889" lon="11.0820454"/>
  <node id="797938644" version="1" timestamp="2010-07-01T08:46:42Z" uid="49111" user="Markus B" changeset="5118887" lat="49.4519633" lon="11.0820754"/>
  <node id="797938644" version="2" timestamp="2011-10-31T00:00:02Z" uid="346758" user="kukuk" changeset="9699520" lat="49.4519633" lon="11.0820754"/>
  <node id="797938645" version="1" timestamp="2010-07-01T08:46:42Z" uid="49111" user="Markus B" changeset="5118887" lat="49.4519762" lon="11.0819998"/>
  <node id="797938645" version="2" timestamp="2011-10-31T00:00:02Z" uid="346758" user="kukuk" changeset="9699520" lat="49.4519762" lon="11.0819998"/>
  <node id="797938646" version="1" timestamp="2010-07-01T08:46:42Z" uid="49111" user="Markus B" changeset="5118887" lat="49.4520513" lon="11.08184"/>
  <node id="797938646" version="2" timestamp="2011-10-31T00:16:06Z" uid="346758" user="kukuk" changeset="9699607" lat="49.4520513" lon="11.08184"/>
  <node id="797938647" version="1" timestamp="2010-07-01T08:46:42Z" uid="49111" user="Markus B" changeset="5118887" lat="49.4520919" lon="11.0818559"/>
  <node id="797938647" version="2" timestamp="2011-10-31T00:16:06Z" uid="346758" user="kukuk" changeset="9699607" lat="49.4520919" lon="11.0818559"/>
  <node id="797938648" version="1" timestamp="2010-07-01T08:46:42Z" uid="49111" user="Markus B" changeset="5118887" lat="49.4521374" lon="11.0823707">
    <tag k="addr:city" v="Nürnberg"/>
    <tag k="addr:country" v="DE"/>
    <tag k="addr:housenumber" v="11"/>
    <tag k="addr:postcode" v="90403"/>
    <tag k="addr:street" v="Wespennest"/>
    <tag k="amenity" v="fast_food"/>
    <tag k="cuisine" v="thai"/>
    <tag k="name" v="Sina"/>
    <tag k="smoking" v="no"/>
  </node>
  <node id="797938648" version="2" timestamp="2011-10-30T22:41:55Z" uid="346758" user="kukuk" changeset="9699106" lat="49.4521374" lon="11.0823707"/>
  <node id="797938649" version="1" timestamp="2010-07-01T08:46:42Z" uid="49111" user="Markus B" changeset="5118887" lat="49.4521472" lon="11.0827375"/>
  <node id="797938649" version="2" timestamp="2011-10-30T22:41:56Z" uid="346758" user="kukuk" changeset="9699106" lat="49.4521472" lon="11.0827375"/>
  <node id="797938650" version="1" timestamp="2010-07-01T08:46:42Z" uid="49111" user="Markus B" changeset="5118887" lat="49.4522035" lon="11.082743"/>
  <node id="797938650" version="2" timestamp="2011-10-30T22:41:56Z" uid="346758" user="kukuk" changeset="9699106" lat="49.4522035" lon="11.082743"/>
  <node id="797938651" version="1" timestamp="2010-07-01T08:46:42Z" uid="49111" user="Markus B" changeset="5118887" lat="49.4521085" lon="11.0825876">
    <tag k="addr:city" v="Nürnberg"/>
    <tag k="addr:country" v="DE"/>
    <tag k="addr:housenumber" v="13"/>
    <tag k="addr:postcode" v="90403"/>
    <tag k="addr:street" v="Wespennest"/>
    <tag k="amenity" v="restaurant"/>
    <tag k="cuisine" v="spain"/>
    <tag k="name" v="Tapas Bar"/>
    <tag k="smoking" v="no"/>
  </node>
  <node id="797938651" version="2" timestamp="2010-07-17T10:47:35Z" uid="18069" user="Claudius Henrichs" changeset="5241380" lat="49.4521085" lon="11.0825876">
    <tag k="addr:city" v="Nürnberg"/>
    <tag k="addr:country" v="DE"/>
    <tag k="addr:housenumber" v="13"/>
    <tag k="addr:postcode" v="90403"/>
    <tag k="addr:street" v="Wespennest"/>
    <tag k="amenity" v="restaurant"/>
    <tag k="cuisine" v="spanish"/>
    <tag k="name" v="Tapas Bar"/>
    <tag k="smoking" v="no"/>
  </node>
  <node id="797938651" version="3" timestamp="2011-10-30T22:55:50Z" uid="346758" user="kukuk" changeset="9699181" lat="49.4521625" lon="11.0825242">
    <tag k="addr:city" v="Nürnberg"/>
    <tag k="addr:country" v="DE"/>
    <tag k="addr:housenumber" v="13"/>
    <tag k="addr:postcode" v="90403"/>
    <tag k="addr:street" v="Wespennest"/>
    <tag k="amenity" v="restaurant"/>
    <tag k="cuisine" v="spanish"/>
    <tag k="name" v="Tapas Bar"/>
    <tag k="smoking" v="no"/>
  </node>
  <node id="797938651" version="4" timestamp="2011-11-02T13:18:03Z" uid="346758" user="kukuk" changeset="9721923" lat="49.4521261" lon="11.0826828">
    <tag k="addr:city" v="Nürnberg"/>
    <tag k="addr:country" v="DE"/>
    <tag k="addr:housenumber" v="13"/>
    <tag k="addr:postcode" v="90403"/>
    <tag k="addr:street" v="Wespennest"/>
    <tag k="amenity" v="restaurant"/>
    <tag k="cuisine" v="spanish"/>
    <tag k="name" v="Tapas Bar"/>
    <tag k="smoking" v="no"/>
  </node>
  <node id="797938652" version="1" timestamp="2010-07-01T08:46:42Z" uid="49111" user="Markus B" changeset="5118887" lat="49.4521386" lon="11.0829458"/>
  <node id="797938652" version="2" timestamp="2011-10-30T22:41:56Z" uid="346758" user="kukuk" changeset="9699106" lat="49.4521386" lon="11.0829458"/>
  <node id="797938653" version="1" timestamp="2010-07-01T08:46:42Z" uid="49111" user="Markus B" changeset="5118887" lat="49.4521949" lon="11.0829512"/>
  <node id="797938653" version="2" timestamp="2011-10-30T22:41:56Z" uid="346758" user="kukuk" changeset="9699106" lat="49.4521949" lon="11.0829512"/>
  <node id="797938654" version="1" timestamp="2010-07-01T08:46:42Z" uid="49111" user="Markus B" changeset="5118887" lat="49.452285" lon="11.0808114"/>
  <node id="797938654" version="2" timestamp="2010-10-15T12:41:03Z" uid="80255" user="miriat" changeset="6048883" lat="49.4522623" lon="11.0808235"/>
  <node id="797938654" version="3" timestamp="2011-11-12T09:39:20Z" uid="346758" user="kukuk" changeset="9802808" lat="49.4522623" lon="11.0808235"/>
  <node id="797938656" version="1" timestamp="2010-07-01T08:46:42Z" uid="49111" user="Markus B" changeset="5118887" lat="49.4522228" lon="11.0806139"/>
  <node id="797938656" version="2" timestamp="2010-10-15T12:41:02Z" uid="80255" user="miriat" changeset="6048883" lat="49.4521804" lon="11.0806321"/>
  <node id="797938656" version="3" timestamp="2011-11-12T09:39:16Z" uid="346758" user="kukuk" changeset="9802808" lat="49.4521943" lon="11.0806094"/>
  <node id="797938658" version="1" timestamp="2010-07-01T08:46:42Z" uid="49111" user="Markus B" changeset="5118887" lat="49.45222" lon="11.0806816"/>
  <node id="797938658" version="2" timestamp="2010-10-15T12:40:40Z" uid="80255" user="miriat" changeset="6048883" lat="49.4521776" lon="11.0806998"/>
  <node id="797938658" version="3" timestamp="2011-11-12T09:39:16Z" uid="346758" user="kukuk" changeset="9802808" lat="49.4521915" lon="11.0806771"/>
  <node id="797938664" version="1" timestamp="2010-07-01T08:46:43Z" uid="49111" user="Markus B" changeset="5118887" lat="49.452275" lon="11.0813433"/>
  <node id="797938664" version="2" timestamp="2011-10-30T22:55:51Z" uid="346758" user="kukuk" changeset="9699181" lat="49.452275" lon="11.0813433"/>
  <node id="797938665" version="1" timestamp="2010-07-01T08:46:43Z" uid="49111" user="Markus B" changeset="5118887" lat="49.4522532" lon="11.0817602"/>
  <node id="797938665" version="2" timestamp="2011-10-30T22:55:51Z" uid="346758" user="kukuk" changeset="9699181" lat="49.4522532" lon="11.0817602"/>
  <node id="797938667" version="1" timestamp="2010-07-01T08:46:43Z" uid="49111" user="Markus B" changeset="5118887" lat="49.4522124" lon="11.0812174"/>
  <node id="797938667" version="2" timestamp="2011-10-30T22:55:51Z" uid="346758" user="kukuk" changeset="9699181" lat="49.4522124" lon="11.0812174"/>
  <node id="797938669" version="1" timestamp="2010-07-01T08:46:43Z" uid="49111" user="Markus B" changeset="5118887" lat="49.4522746" lon="11.0812283"/>
  <node id="797938669" version="2" timestamp="2011-10-30T22:55:51Z" uid="346758" user="kukuk" changeset="9699181" lat="49.4522746" lon="11.0812283"/>
  <node id="797938670" version="1" timestamp="2010-07-01T08:46:43Z" uid="49111" user="Markus B" changeset="5118887" lat="49.4522709" lon="11.0812786"/>
  <node id="797938670" version="2" timestamp="2011-10-30T22:55:52Z" uid="346758" user="kukuk" changeset="9699181" lat="49.4522709" lon="11.0812786"/>
  <node id="797938672" version="1" timestamp="2010-07-01T08:46:43Z" uid="49111" user="Markus B" changeset="5118887" lat="49.4522706" lon="11.0816263"/>
  <node id="797938672" version="2" timestamp="2010-10-15T12:40:56Z" uid="80255" user="miriat" changeset="6048883" lat="49.4522642" lon="11.0816197"/>
  <node id="797938672" version="3" timestamp="2011-10-30T22:55:52Z" uid="346758" user="kukuk" changeset="9699181" lat="49.4522642" lon="11.0816197"/>
  <node id="797938674" version="1" timestamp="2010-07-01T08:46:43Z" uid="49111" user="Markus B" changeset="5118887" lat="49.4522379" lon="11.08162"/>
  <node id="797938674" version="2" timestamp="2010-10-15T12:40:36Z" uid="80255" user="miriat" changeset="6048883" lat="49.4522314" lon="11.0816143"/>
  <node id="797938674" version="3" timestamp="2011-10-30T22:55:52Z" uid="346758" user="kukuk" changeset="9699181" lat="49.4522314" lon="11.0816143"/>
  <node id="797938676" version="1" timestamp="2010-07-01T08:46:43Z" uid="49111" user="Markus B" changeset="5118887" lat="49.4522301" lon="11.0817156"/>
  <node id="797938676" version="2" timestamp="2010-10-15T12:40:45Z" uid="80255" user="miriat" changeset="6048883" lat="49.4522247" lon="11.0817101"/>
  <node id="797938676" version="3" timestamp="2011-10-30T22:55:52Z" uid="346758" user="kukuk" changeset="9699181" lat="49.4522247" lon="11.0817101"/>
  <node id="797938677" version="1" timestamp="2010-07-01T08:46:43Z" uid="49111" user="Markus B" changeset="5118887" lat="49.4522628" lon="11.081722"/>
  <node id="797938677" version="2" timestamp="2010-10-15T12:41:16Z" uid="80255" user="miriat" changeset="6048883" lat="49.4522574" lon="11.0817156"/>
  <node id="797938677" version="3" timestamp="2011-10-30T22:55:52Z" uid="346758" user="kukuk" changeset="9699181" lat="49.4522574" lon="11.0817156"/>
</osm>
