<?xml version='1.0' encoding='UTF-8'?>
<osm version="0.6" generator="libosmium/2.20.0">
  <node id="798191469" version="1" timestamp="2010-07-01T11:13:31Z" uid="115477" user="wowik" changeset="5119749" lat="57.0965801" lon="37.6801002">
    <tag k="name" v="Коротково"/>
    <tag k="place" v="hamlet"/>
  </node>
  <node id="798191469" version="2" timestamp="2011-05-03T22:56:48Z" uid="232349" user="vovkav" changeset="8044651" lat="57.0967602" lon="37.6793606">
    <tag k="name" v="Коротково"/>
    <tag k="place" v="hamlet"/>
  </node>
  <node id="798194083" version="1" timestamp="2010-07-01T11:15:08Z" uid="115477" user="wowik" changeset="5119749" lat="57.1112875" lon="37.7458036">
    <tag k="name" v="Удино"/>
    <tag k="place" v="locality"/>
  </node>
  <node id="798194083" version="2" timestamp="2010-07-01T11:15:12Z" uid="115477" user="wowik" changeset="5119749" lat="57.1107748" lon="37.7461469">
    <tag k="name" v="Удино"/>
    <tag k="place" v="locality"/>
  </node>
  <node id="798194083" version="3" timestamp="2010-07-01T11:28:39Z" uid="115477" user="wowik" changeset="5119749" lat="57.1109613" lon="37.7456749">
    <tag k="name" v="Удино"/>
    <tag k="place" v="locality"/>
  </node>
  <node id="798194083" version="4" timestamp="2012-01-26T21:14:33Z" uid="384084" user="Kostik" changeset="10507299" lat="57.1109613" lon="37.7456749">
    <tag k="name" v="Удино"/>
    <tag k="place" v="locality"/>
  </node>
</osm>
