<?xml version='1.0' encoding='UTF-8'?>
<osm version="0.6" generator="libosmium/2.20.0">
  <node id="798780660" version="1" timestamp="2010-07-01T19:22:40Z" uid="49111" user="Markus B" changeset="5123002" lat="49.4507308" lon="11.070348">
    <tag k="amenity" v="restaurant"/>
    <tag k="name" v="Wöhrl-Bistro"/>
    <tag k="smoking" v="no"/>
  </node>
  <node id="798780660" version="2" timestamp="2011-12-03T15:30:44Z" uid="71557" user="Taroc" changeset="10025504" lat="49.4507308" lon="11.070348"/>
  <node id="798780665" version="1" timestamp="2010-07-01T19:22:40Z" uid="49111" user="Markus B" changeset="5123002" lat="49.4508914" lon="11.0702844">
    <tag k="amenity" v="fast_food"/>
    <tag k="name" v="Sushido"/>
    <tag k="note" v="im U1"/>
    <tag k="smoking" v="no"/>
  </node>
  <node id="798780665" version="3" timestamp="2011-10-17T16:40:50Z" uid="290680" user="wheelmap_visitor" changeset="9578325" lat="49.4508914" lon="11.0702844">
    <tag k="amenity" v="fast_food"/>
    <tag k="cuisine" v="sushi"/>
    <tag k="name" v="Sushido"/>
    <tag k="note" v="im U1"/>
    <tag k="smoking" v="no"/>
    <tag k="wheelchair" v="limited"/>
  </node>
  <node id="798780665" version="4" timestamp="2011-12-03T15:30:44Z" uid="71557" user="Taroc" changeset="10025504" lat="49.4508914" lon="11.0702844"/>
  <node id="798780668" version="1" timestamp="2010-07-01T19:22:40Z" uid="49111" user="Markus B" changeset="5123002" lat="49.4513685" lon="11.0720948">
    <tag k="addr:city" v="Nürnberg"/>
    <tag k="addr:country" v="DE"/>
    <tag k="addr:housenumber" v="32"/>
    <tag k="addr:postcode" v="90403"/>
    <tag k="addr:street" v="Josephsplatz"/>
    <tag k="amenity" v="bar"/>
    <tag k="name" v="Zweiundvierzig"/>
    <tag k="note" v="Kellerbar"/>
    <tag k="opening_hours" v="Do-Sa 21:00-05:00"/>
    <tag k="smoking" v="no"/>
    <tag k="smoking:outside" v="yes"/>
    <tag k="website" v="http://42nuernberg.de"/>
  </node>
  <node id="798780668" version="2" timestamp="2010-11-21T23:19:25Z" uid="202858" user="kellerma" changeset="6428095" lat="49.4513685" lon="11.0720948">
    <tag k="addr:city" v="Nürnberg"/>
    <tag k="addr:country" v="DE"/>
    <tag k="addr:housenumber" v="32"/>
    <tag k="addr:postcode" v="90403"/>
    <tag k="addr:street" v="Josephsplatz"/>
    <tag k="amenity" v="bar"/>
    <tag k="name" v="Zweiundvierzig"/>
    <tag k="note" v="Kellerbar"/>
    <tag k="opening_hours" v="Th-Sa 21:00-05:00"/>
    <tag k="smoking" v="no"/>
    <tag k="smoking:outside" v="yes"/>
    <tag k="website" v="http://42nuernberg.de"/>
  </node>
  <node id="798780668" version="3" timestamp="2011-10-13T06:28:32Z" uid="290680" user="wheelmap_visitor" changeset="9544161" lat="49.4513685" lon="11.0720948">
    <tag k="addr:city" v="Nürnberg"/>
    <tag k="addr:country" v="DE"/>
    <tag k="addr:housenumber" v="32"/>
    <tag k="addr:postcode" v="90403"/>
    <tag k="addr:street" v="Josephsplatz"/>
    <tag k="amenity" v="bar"/>
    <tag k="name" v="Zweiundvierzig"/>
    <tag k="note" v="Kellerbar"/>
    <tag k="opening_hours" v="Th-Sa 21:00-05:00"/>
    <tag k="smoking" v="no"/>
    <tag k="smoking:outside" v="yes"/>
    <tag k="website" v="http://42nuernberg.de"/>
    <tag k="wheelchair" v="no"/>
  </node>
  <node id="798780668" version="4" timestamp="2011-12-10T10:57:18Z" uid="71557" user="Taroc" changeset="10079938" lat="49.4513685" lon="11.0720948"/>
  <node id="798780673" version="1" timestamp="2010-07-01T19:22:41Z" uid="49111" user="Markus B" changeset="5123002" lat="49.4519013" lon="11.0721045">
    <tag k="addr:city" v="Nürnberg"/>
    <tag k="addr:country" v="DE"/>
    <tag k="addr:housenumber" v="26"/>
    <tag k="addr:street" v="Hintere Ledergasse"/>
    <tag k="amenity" v="restaurant"/>
    <tag k="cuisine" v="italian"/>
    <tag k="name" v="Cucina"/>
    <tag k="opening_hours" v="Mo-Sa 10:00-20:00"/>
    <tag k="phone" v="+49-911-2427127"/>
    <tag k="smoking" v="no"/>
    <tag k="smoking:outside" v="yes"/>
    <tag k="website" v="http://cucinaalcentro.de"/>
  </node>
  <node id="798780673" version="2" timestamp="2010-11-08T19:14:20Z" uid="202858" user="kellerma" changeset="6323037" lat="49.4519013" lon="11.0721045">
    <tag k="addr:city" v="Nürnberg"/>
    <tag k="addr:country" v="DE"/>
    <tag k="addr:housenumber" v="26"/>
    <tag k="addr:postcode" v="90403"/>
    <tag k="addr:street" v="Hintere Ledergasse"/>
    <tag k="amenity" v="restaurant"/>
    <tag k="cuisine" v="italian"/>
    <tag k="name" v="Cucina al centro"/>
    <tag k="opening_hours" v="Mo-Sa 10:00-20:00"/>
    <tag k="phone" v="+49 911 2427127"/>
    <tag k="smoking" v="no"/>
    <tag k="smoking:outside" v="yes"/>
    <tag k="website" v="http://www.cucinaalcentro.de/"/>
  </node>
  <node id="798780673" version="3" timestamp="2011-11-14T23:09:48Z" uid="346758" user="kukuk" changeset="9830162" lat="49.4519919" lon="11.0720902">
    <tag k="addr:city" v="Nürnberg"/>
    <tag k="addr:country" v="DE"/>
    <tag k="addr:housenumber" v="26"/>
    <tag k="addr:postcode" v="90403"/>
    <tag k="addr:street" v="Hintere Ledergasse"/>
    <tag k="amenity" v="restaurant"/>
    <tag k="cuisine" v="italian"/>
    <tag k="name" v="Cucina al centro"/>
    <tag k="opening_hours" v="Mo-Sa 10:00-20:00"/>
    <tag k="phone" v="+49 911 2427127"/>
    <tag k="smoking" v="no"/>
    <tag k="smoking:outside" v="yes"/>
    <tag k="website" v="http://www.cucinaalcentro.de/"/>
  </node>
  <node id="798780673" version="4" timestamp="2011-12-10T10:57:16Z" uid="71557" user="Taroc" changeset="10079938" lat="49.4519919" lon="11.0720902"/>
  <node id="798780678" version="1" timestamp="2010-07-01T19:22:41Z" uid="49111" user="Markus B" changeset="5123002" lat="49.4518785" lon="11.0720989"/>
  <node id="798780678" version="2" timestamp="2011-11-14T23:10:08Z" uid="346758" user="kukuk" changeset="9830162" lat="49.4518785" lon="11.0720989"/>
  <node id="798780679" version="1" timestamp="2010-07-01T19:22:41Z" uid="49111" user="Markus B" changeset="5123002" lat="49.4518897" lon="11.0720945"/>
  <node id="798780679" version="2" timestamp="2011-11-14T23:10:08Z" uid="346758" user="kukuk" changeset="9830162" lat="49.4518897" lon="11.0720945"/>
  <node id="798780681" version="1" timestamp="2010-07-01T19:22:41Z" uid="49111" user="Markus B" changeset="5123002" lat="49.4518818" lon="11.072047"/>
  <node id="798780681" version="2" timestamp="2011-11-14T23:10:09Z" uid="346758" user="kukuk" changeset="9830162" lat="49.4518818" lon="11.072047"/>
  <node id="798780683" version="1" timestamp="2010-07-01T19:22:41Z" uid="49111" user="Markus B" changeset="5123002" lat="49.4518706" lon="11.0720515"/>
  <node id="798780683" version="2" timestamp="2011-11-14T23:10:09Z" uid="346758" user="kukuk" changeset="9830162" lat="49.4518706" lon="11.0720515"/>
  <node id="798780684" version="1" timestamp="2010-07-01T19:22:41Z" uid="49111" user="Markus B" changeset="5123002" lat="49.4518565" lon="11.0725996">
    <tag k="addr:city" v="Nürnberg"/>
    <tag k="addr:country" v="DE"/>
    <tag k="addr:housenumber" v="25"/>
    <tag k="addr:postcode" v="90403"/>
    <tag k="addr:street" v="Hintere Ledergasse"/>
    <tag k="amenity" v="pub"/>
    <tag k="minage" v="18"/>
    <tag k="name" v="Blaue Glocke"/>
    <tag k="smoking" v="designated"/>
  </node>
  <node id="798780684" version="2" timestamp="2010-07-04T14:25:13Z" uid="49111" user="Markus B" changeset="5133357" lat="49.4518565" lon="11.0725996">
    <tag k="addr:city" v="Nürnberg"/>
    <tag k="addr:country" v="DE"/>
    <tag k="addr:housenumber" v="25"/>
    <tag k="addr:postcode" v="90403"/>
    <tag k="addr:street" v="Hintere Ledergasse"/>
    <tag k="amenity" v="pub"/>
    <tag k="minage" v="18"/>
    <tag k="name" v="Blaue Glocke"/>
    <tag k="smoking" v="dedicated"/>
  </node>
  <node id="798780684" version="3" timestamp="2011-10-17T09:39:37Z" uid="290680" user="wheelmap_visitor" changeset="9578325" lat="49.4518565" lon="11.0725996">
    <tag k="addr:city" v="Nürnberg"/>
    <tag k="addr:country" v="DE"/>
    <tag k="addr:housenumber" v="25"/>
    <tag k="addr:postcode" v="90403"/>
    <tag k="addr:street" v="Hintere Ledergasse"/>
    <tag k="amenity" v="pub"/>
    <tag k="minage" v="18"/>
    <tag k="name" v="Blaue Glocke"/>
    <tag k="smoking" v="dedicated"/>
    <tag k="wheelchair" v="no"/>
  </node>
  <node id="798780684" version="4" timestamp="2011-12-10T10:57:15Z" uid="71557" user="Taroc" changeset="10079938" lat="49.4518565" lon="11.0725996"/>
  <node id="798780695" version="1" timestamp="2010-07-01T19:22:41Z" uid="49111" user="Markus B" changeset="5123002" lat="49.4516526" lon="11.072476">
    <tag k="addr:city" v="Nürnberg"/>
    <tag k="addr:country" v="DE"/>
    <tag k="addr:housenumber" v="7"/>
    <tag k="addr:postcode" v="90403"/>
    <tag k="addr:street" v="Hutergasse"/>
    <tag k="amenity" v="restaurant"/>
    <tag k="cuisine" v="italian"/>
    <tag k="name" v="il dolce"/>
    <tag k="opening_hours" v="Mo-Sa 10:00-22:00"/>
    <tag k="phone" v="+49-911-2179870"/>
    <tag k="smoking" v="no"/>
    <tag k="smoking:outside" v="yes"/>
    <tag k="website" v="http://dolce-panini.de"/>
  </node>
  <node id="798780695" version="2" timestamp="2011-10-17T09:38:34Z" uid="290680" user="wheelmap_visitor" changeset="9578325" lat="49.4516526" lon="11.072476">
    <tag k="addr:city" v="Nürnberg"/>
    <tag k="addr:country" v="DE"/>
    <tag k="addr:housenumber" v="7"/>
    <tag k="addr:postcode" v="90403"/>
    <tag k="addr:street" v="Hutergasse"/>
    <tag k="amenity" v="restaurant"/>
    <tag k="cuisine" v="italian"/>
    <tag k="name" v="il dolce"/>
    <tag k="opening_hours" v="Mo-Sa 10:00-22:00"/>
    <tag k="phone" v="+49-911-2179870"/>
    <tag k="smoking" v="no"/>
    <tag k="smoking:outside" v="yes"/>
    <tag k="website" v="http://dolce-panini.de"/>
    <tag k="wheelchair" v="no"/>
  </node>
  <node id="798780695" version="3" timestamp="2011-12-10T10:57:18Z" uid="71557" user="Taroc" changeset="10079938" lat="49.4516526" lon="11.072476"/>
  <node id="798780698" version="1" timestamp="2010-07-01T19:22:41Z" uid="49111" user="Markus B" changeset="5123002" lat="49.4515838" lon="11.0723452">
    <tag k="addr:city" v="Nürnberg"/>
    <tag k="addr:country" v="DE"/>
    <tag k="addr:housenumber" v="26-28"/>
    <tag k="addr:postcode" v="90403"/>
    <tag k="addr:street" v="Josephsplatz"/>
    <tag k="name" v="chocolat"/>
    <tag k="phone" v="+49 911-2427888"/>
    <tag k="shop" v="chocolat"/>
    <tag k="website" v="http://chocolat-nuernberg.de"/>
  </node>
  <node id="798780698" version="2" timestamp="2010-08-23T21:48:52Z" uid="319840" user="octo" changeset="5575671" lat="49.4515838" lon="11.0723452">
    <tag k="addr:city" v="Nürnberg"/>
    <tag k="addr:country" v="DE"/>
    <tag k="addr:housenumber" v="26-28"/>
    <tag k="addr:postcode" v="90403"/>
    <tag k="addr:street" v="Josephsplatz"/>
    <tag k="name" v="chocolat"/>
    <tag k="phone" v="+49 911 2427888"/>
    <tag k="shop" v="confectionery"/>
    <tag k="website" v="http://chocolat-nuernberg.de"/>
  </node>
  <node id="798780698" version="3" timestamp="2011-05-02T19:09:50Z" uid="89943" user="Bengatzer" changeset="8033504" lat="49.4515838" lon="11.0723452">
    <tag k="addr:city" v="Nürnberg"/>
    <tag k="addr:country" v="DE"/>
    <tag k="addr:housenumber" v="26-28"/>
    <tag k="addr:postcode" v="90403"/>
    <tag k="addr:street" v="Josephsplatz"/>
    <tag k="name" v="chocolat"/>
    <tag k="opening_hours" v="Mo-Sa 10:00-20:00"/>
    <tag k="phone" v="+49 911 2427888"/>
    <tag k="shop" v="confectionery"/>
    <tag k="website" v="http://chocolat-nuernberg.de"/>
  </node>
  <node id="798780698" version="4" timestamp="2011-12-10T10:57:18Z" uid="71557" user="Taroc" changeset="10079938" lat="49.4515838" lon="11.0723452"/>
  <node id="798780700" version="1" timestamp="2010-07-01T19:22:41Z" uid="49111" user="Markus B" changeset="5123002" lat="49.4519298" lon="11.072306"/>
  <node id="798780700" version="2" timestamp="2011-11-14T23:10:09Z" uid="346758" user="kukuk" changeset="9830162" lat="49.4519298" lon="11.072306"/>
  <node id="798780702" version="1" timestamp="2010-07-01T19:22:41Z" uid="49111" user="Markus B" changeset="5123002" lat="49.4519213" lon="11.0722588"/>
  <node id="798780702" version="2" timestamp="2011-11-14T23:10:09Z" uid="346758" user="kukuk" changeset="9830162" lat="49.4519213" lon="11.0722588"/>
  <node id="798780703" version="1" timestamp="2010-07-01T19:22:41Z" uid="49111" user="Markus B" changeset="5123002" lat="49.4519186" lon="11.0723107"/>
  <node id="798780703" version="2" timestamp="2011-11-14T23:10:09Z" uid="346758" user="kukuk" changeset="9830162" lat="49.4519186" lon="11.0723107"/>
  <node id="798780705" version="1" timestamp="2010-07-01T19:22:41Z" uid="49111" user="Markus B" changeset="5123002" lat="49.4519102" lon="11.0722635"/>
  <node id="798780705" version="2" timestamp="2011-11-14T23:10:09Z" uid="346758" user="kukuk" changeset="9830162" lat="49.4519102" lon="11.0722635"/>
  <node id="798780706" version="1" timestamp="2010-07-01T19:22:42Z" uid="49111" user="Markus B" changeset="5123002" lat="49.4520141" lon="11.0723224"/>
  <node id="798780706" version="2" timestamp="2011-11-14T23:10:06Z" uid="346758" user="kukuk" changeset="9830162" lat="49.4520675" lon="11.0722742"/>
  <node id="798780706" version="3" timestamp="2011-11-18T17:56:14Z" uid="346758" user="kukuk" changeset="9866227" lat="49.4520675" lon="11.0722742"/>
  <node id="798780708" version="1" timestamp="2010-07-01T19:22:42Z" uid="49111" user="Markus B" changeset="5123002" lat="49.4520113" lon="11.0721845"/>
  <node id="798780708" version="2" timestamp="2011-11-14T23:10:06Z" uid="346758" user="kukuk" changeset="9830162" lat="49.4520601" lon="11.0721523"/>
  <node id="798780708" version="3" timestamp="2011-11-18T17:56:14Z" uid="346758" user="kukuk" changeset="9866227" lat="49.4520601" lon="11.0721523"/>
  <node id="798780710" version="1" timestamp="2010-07-01T19:22:42Z" uid="49111" user="Markus B" changeset="5123002" lat="49.4521593" lon="11.0738868">
    <tag k="addr:city" v="Nürnberg"/>
    <tag k="addr:country" v="DE"/>
    <tag k="addr:housenumber" v="4"/>
    <tag k="addr:postcode" v="90403"/>
    <tag k="addr:street" v="Hintere Ledergasse"/>
    <tag k="name" v="Pension Altstadt"/>
    <tag k="phone" v="+49-911-226102"/>
    <tag k="smoking" v="separated"/>
    <tag k="tourism" v="guest_house"/>
    <tag k="website" v="http://pension-altstadt.de"/>
  </node>
  <node id="798780710" version="2" timestamp="2011-12-10T10:57:18Z" uid="71557" user="Taroc" changeset="10079938" lat="49.4521593" lon="11.0738868"/>
  <node id="798780713" version="1" timestamp="2010-07-01T19:22:42Z" uid="49111" user="Markus B" changeset="5123002" lat="49.4521905" lon="11.0740752"/>
  <node id="798780713" version="2" timestamp="2011-11-14T23:10:09Z" uid="346758" user="kukuk" changeset="9830162" lat="49.4521905" lon="11.0740752"/>
  <node id="798780714" version="1" timestamp="2010-07-01T19:22:42Z" uid="49111" user="Markus B" changeset="5123002" lat="49.452254" lon="11.0740841"/>
  <node id="798780714" version="2" timestamp="2011-11-14T23:10:09Z" uid="346758" user="kukuk" changeset="9830162" lat="49.452254" lon="11.0740841"/>
  <node id="798780715" version="1" timestamp="2010-07-01T19:22:42Z" uid="49111" user="Markus B" changeset="5123002" lat="49.4522725" lon="11.0740859"/>
  <node id="798780715" version="2" timestamp="2011-11-14T23:10:06Z" uid="346758" user="kukuk" changeset="9830162" lat="49.4522493" lon="11.0742375"/>
  <node id="798780715" version="3" timestamp="2011-11-18T17:56:15Z" uid="346758" user="kukuk" changeset="9866227" lat="49.4522493" lon="11.0742375"/>
  <node id="798780716" version="1" timestamp="2010-07-01T19:22:42Z" uid="49111" user="Markus B" changeset="5123002" lat="49.4523218" lon="11.0739738"/>
  <node id="798780716" version="2" timestamp="2011-11-18T17:56:15Z" uid="346758" user="kukuk" changeset="9866227" lat="49.4523218" lon="11.0739738"/>
  <node id="798780717" version="1" timestamp="2010-07-01T19:22:42Z" uid="49111" user="Markus B" changeset="5123002" lat="49.4522402" lon="11.0742495"/>
  <node id="798780717" version="2" timestamp="2011-11-14T23:10:09Z" uid="346758" user="kukuk" changeset="9830162" lat="49.4522402" lon="11.0742495"/>
  <node id="798783236" version="1" timestamp="2010-07-01T19:25:00Z" uid="8619" user="cetest" changeset="5123019" lat="52.0037168" lon="4.4340743"/>
  <node id="798783236" version="2" timestamp="2011-09-29T20:45:12Z" uid="191979" user="It&apos;s so funny" changeset="9430755" lat="52.0037168" lon="4.4340743"/>
  <node id="798783240" version="1" timestamp="2010-07-01T19:25:00Z" uid="8619" user="cetest" changeset="5123019" lat="52.004938" lon="4.4320526"/>
  <node id="798783240" version="2" timestamp="2011-09-29T20:45:12Z" uid="191979" user="It&apos;s so funny" changeset="9430755" lat="52.004938" lon="4.4320526"/>
  <node id="798783242" version="1" timestamp="2010-07-01T19:25:00Z" uid="8619" user="cetest" changeset="5123019" lat="52.004304" lon="4.4331035"/>
  <node id="798783242" version="2" timestamp="2011-09-29T20:45:12Z" uid="191979" user="It&apos;s so funny" changeset="9430755" lat="52.004304" lon="4.4331035"/>
  <node id="798783244" version="1" timestamp="2010-07-01T19:25:00Z" uid="8619" user="cetest" changeset="5123019" lat="52.0015238" lon="4.4370624"/>
  <node id="798783244" version="2" timestamp="2011-09-29T20:45:12Z" uid="191979" user="It&apos;s so funny" changeset="9430755" lat="52.0015238" lon="4.4370624"/>
  <node id="798783247" version="1" timestamp="2010-07-01T19:25:00Z" uid="8619" user="cetest" changeset="5123019" lat="51.9991405" lon="4.4388287"/>
  <node id="798783247" version="2" timestamp="2011-09-29T20:45:12Z" uid="191979" user="It&apos;s so funny" changeset="9430755" lat="51.9991405" lon="4.4388287"/>
</osm>
