<?xml version='1.0' encoding='UTF-8'?>
<osm version="0.6" generator="libosmium/2.20.0">
  <node id="800280929" version="1" timestamp="2010-07-04T11:19:19Z" uid="49111" user="Markus B" changeset="5131853" lat="47.1375044" lon="7.212739">
    <tag k="amenity" v="restaurant"/>
    <tag k="smoking" v="no"/>
  </node>
  <node id="800280929" version="2" timestamp="2011-07-31T10:03:34Z" uid="28048" user="swissoptimist" changeset="8879324" lat="47.1370811" lon="7.2114215">
    <tag k="amenity" v="restaurant"/>
    <tag k="smoking" v="no"/>
  </node>
  <node id="800280937" version="1" timestamp="2010-07-04T11:19:19Z" uid="49111" user="Markus B" changeset="5131853" lat="47.1378232" lon="7.2131293">
    <tag k="amenity" v="cafe"/>
    <tag k="name" v="Cafe"/>
    <tag k="smoking" v="no"/>
  </node>
  <node id="800280937" version="2" timestamp="2011-07-31T10:03:18Z" uid="28048" user="swissoptimist" changeset="8879324" lat="47.1377181" lon="7.2126186">
    <tag k="amenity" v="cafe"/>
    <tag k="name" v="Cafe"/>
    <tag k="smoking" v="no"/>
  </node>
  <node id="800280944" version="1" timestamp="2010-07-04T11:19:19Z" uid="49111" user="Markus B" changeset="5131853" lat="47.1377555" lon="7.2130604">
    <tag k="name" v="Hallenbad"/>
    <tag k="sport" v="swimming"/>
  </node>
  <node id="800280944" version="2" timestamp="2011-02-02T12:07:40Z" uid="403305" user="gligli" changeset="7163968" lat="47.138272" lon="7.2137685">
    <tag k="name" v="Hallenbad"/>
    <tag k="sport" v="swimming"/>
  </node>
  <node id="800280944" version="3" timestamp="2011-07-31T10:03:10Z" uid="28048" user="swissoptimist" changeset="8879324" lat="47.1381903" lon="7.2134338">
    <tag k="name" v="Hallenbad"/>
    <tag k="sport" v="swimming"/>
  </node>
</osm>
