<?xml version='1.0' encoding='UTF-8'?>
<osm version="0.6" generator="libosmium/2.20.0">
  <node id="800620002" version="3" timestamp="2010-07-29T09:23:56Z" uid="74617" user="JohnSmith" changeset="5344848" lat="51.4101962" lon="6.800621">
    <tag k="amenity" v="emergency_phone"/>
    <tag k="emergency" v="phone"/>
    <tag k="operator" v="Autobahnmeisterei"/>
  </node>
  <node id="800620002" version="4" timestamp="2011-09-18T10:42:58Z" uid="42123" user="Ropino" changeset="9331362" lat="51.4098653" lon="6.8007931">
    <tag k="amenity" v="emergency_phone"/>
    <tag k="emergency" v="phone"/>
    <tag k="operator" v="Autobahnmeisterei"/>
  </node>
  <node id="800620006" version="3" timestamp="2010-07-29T09:05:36Z" uid="74617" user="JohnSmith" changeset="5344848" lat="51.4108626" lon="6.799805">
    <tag k="amenity" v="emergency_phone"/>
    <tag k="emergency" v="phone"/>
    <tag k="operator" v="Autobahnmeisterei"/>
  </node>
  <node id="800620006" version="4" timestamp="2011-09-18T10:42:58Z" uid="42123" user="Ropino" changeset="9331362" lat="51.4106086" lon="6.7998666">
    <tag k="amenity" v="emergency_phone"/>
    <tag k="emergency" v="phone"/>
    <tag k="operator" v="Autobahnmeisterei"/>
  </node>
  <node id="800621211" version="2" timestamp="2011-01-31T16:47:18Z" uid="49111" user="Markus B" changeset="7146557" lat="41.3850502" lon="9.149125"/>
  <node id="800621211" version="3" timestamp="2011-08-09T08:54:53Z" uid="24247" user="Vlad" changeset="8964841" lat="41.3850812" lon="9.1491022"/>
  <node id="800626595" version="2" timestamp="2010-12-05T18:02:20Z" uid="9581" user="Lobelt" changeset="6554270" lat="49.4253431" lon="8.7361315"/>
</osm>
