<?xml version='1.0' encoding='UTF-8'?>
<osm version="0.6" generator="libosmium/2.20.0">
  <node id="811380339" version="2" timestamp="2010-07-26T02:03:38Z" uid="20587" user="balrog-kun" changeset="5317852" lat="52.9105014" lon="18.4802509">
    <tag k="name" v="Suchatówka"/>
    <tag k="railway" v="halt"/>
    <tag k="wikipedia" v="pl:Suchatówka (przystanek kolejowy)"/>
  </node>
  <node id="811380352" version="2" timestamp="2010-07-26T02:02:29Z" uid="20587" user="balrog-kun" changeset="5317852" lat="52.8680846" lon="18.3575002">
    <tag k="name" v="Wierzchosławice"/>
    <tag k="railway" v="station"/>
    <tag k="wikipedia" v="pl:Wierzchosławice (stacja kolejowa)"/>
  </node>
  <node id="811380352" version="3" timestamp="2011-01-23T09:48:29Z" uid="306326" user="Yaro" changeset="7058872" lat="52.8683194" lon="18.3582102">
    <tag k="name" v="Wierzchosławice"/>
    <tag k="railway" v="station"/>
    <tag k="wikipedia" v="pl:Wierzchosławice (stacja kolejowa)"/>
  </node>
  <node id="811380370" version="2" timestamp="2010-07-26T02:03:13Z" uid="20587" user="balrog-kun" changeset="5317852" lat="52.8409721" lon="18.3039004">
    <tag k="name" v="Więcławice"/>
    <tag k="railway" v="station"/>
    <tag k="wikipedia" v="pl:Więcławice (stacja kolejowa)"/>
  </node>
  <node id="811380395" version="2" timestamp="2010-07-26T02:03:28Z" uid="20587" user="balrog-kun" changeset="5317852" lat="52.8049552" lon="18.2440298">
    <tag k="name" v="Inowrocław"/>
    <tag k="old_name" v="Hohensalza"/>
    <tag k="railway" v="station"/>
    <tag k="wikipedia" v="pl:Inowrocław (stacja kolejowa)"/>
  </node>
  <node id="811380395" version="3" timestamp="2010-12-11T19:23:17Z" uid="94340" user="lslachciak" changeset="6628432" lat="52.8049491" lon="18.2440673">
    <tag k="name" v="Inowrocław"/>
    <tag k="old_name" v="Hohensalza"/>
    <tag k="railway" v="station"/>
    <tag k="wikipedia" v="pl:Inowrocław (stacja kolejowa)"/>
  </node>
  <node id="811380395" version="4" timestamp="2012-01-12T13:19:19Z" uid="583704" user="onomatopeja" changeset="10369282" lat="52.8049491" lon="18.2440673">
    <tag k="name" v="Inowrocław"/>
    <tag k="old_name" v="Hohensalza"/>
    <tag k="operator" v="PKP"/>
    <tag k="platforms" v="4"/>
    <tag k="railway" v="station"/>
    <tag k="wikipedia" v="pl:Inowrocław (stacja kolejowa)"/>
  </node>
  <node id="811382505" version="3" timestamp="2011-02-14T07:45:48Z" uid="4467" user="Rosscoe" changeset="7283331" lat="-37.2831547" lon="142.9439335"/>
  <node id="811382533" version="2" timestamp="2011-01-04T22:37:06Z" uid="65847" user="LKK" changeset="6866846" lat="42.7358" lon="23.3148624">
    <tag k="amenity" v="fuel"/>
    <tag k="name" v="Бензиностанция Ромпетрол Рожен"/>
  </node>
  <node id="811382533" version="3" timestamp="2011-04-24T18:05:22Z" uid="8421" user="Константин Коцев" changeset="7955309" lat="42.7358" lon="23.3148624">
    <tag k="amenity" v="fuel"/>
    <tag k="brand" v="Rompetrol"/>
    <tag k="name" v="Ромпетрол"/>
    <tag k="operator" v="Ромпетрол"/>
  </node>
  <node id="811382533" version="4" timestamp="2011-04-24T19:11:30Z" uid="8421" user="Константин Коцев" changeset="7956004" lat="42.7358" lon="23.3148624">
    <tag k="amenity" v="fuel"/>
    <tag k="brand" v="Rompetrol"/>
    <tag k="name" v="Ромпетрол"/>
    <tag k="operator" v="Ромпетрол България"/>
  </node>
  <node id="811382533" version="5" timestamp="2011-04-24T19:15:21Z" uid="8421" user="Константин Коцев" changeset="7956048" lat="42.7358" lon="23.3148624">
    <tag k="amenity" v="fuel"/>
    <tag k="brand" v="Rompetrol"/>
    <tag k="name" v="Ромпетрол"/>
    <tag k="name:en" v="Rompetrol"/>
    <tag k="operator" v="Ромпетрол България"/>
  </node>
  <node id="811383017" version="2" timestamp="2010-07-29T09:13:30Z" uid="74617" user="JohnSmith" changeset="5344848" lat="51.3226837" lon="7.5350823">
    <tag k="amenity" v="emergency_phone"/>
    <tag k="emergency" v="phone"/>
    <tag k="note" v="Notrufsäule"/>
    <tag k="operator" v="Autobahnmeisterei"/>
  </node>
  <node id="811383017" version="3" timestamp="2011-10-28T11:31:27Z" uid="408202" user="BFX" changeset="9675646" lat="51.3226837" lon="7.5350823"/>
</osm>
