<?xml version='1.0' encoding='UTF-8'?>
<osm version="0.6" generator="libosmium/2.20.0">
  <node id="811424282" version="7" timestamp="2010-12-07T19:29:33Z" uid="9581" user="Lobelt" changeset="6578541" lat="34.4811377" lon="-2.0470603">
    <tag k="is_in" v="Oujda-Angad, Orient, Morocco"/>
    <tag k="is_in:continent" v="Africa"/>
    <tag k="name" v="Guenfouda"/>
    <tag k="name:fr" v="Genfouda"/>
    <tag k="place" v="town"/>
    <tag k="population" v="5748"/>
  </node>
  <node id="811424282" version="8" timestamp="2010-12-11T17:43:28Z" uid="26599" user="cdavila" changeset="6627307" lat="34.4811377" lon="-2.0470603">
    <tag k="is_in" v="Oujda-Angad, Orient, Morocco"/>
    <tag k="is_in:continent" v="Africa"/>
    <tag k="is_in:country" v="Morocco"/>
    <tag k="name" v="Guenfouda"/>
    <tag k="name:fr" v="Genfouda"/>
    <tag k="place" v="town"/>
    <tag k="population" v="5748"/>
  </node>
  <node id="811424282" version="9" timestamp="2010-12-12T16:00:56Z" uid="26599" user="cdavila" changeset="6637849" lat="34.4811377" lon="-2.0470603">
    <tag k="is_in" v="Orient;Morocco;Africa"/>
    <tag k="is_in:continent" v="Africa"/>
    <tag k="is_in:country" v="Morocco"/>
    <tag k="is_in:region" v="Oriental"/>
    <tag k="name" v="Guenfouda"/>
    <tag k="name:fr" v="Genfouda"/>
    <tag k="place" v="town"/>
    <tag k="population" v="5748"/>
  </node>
</osm>
