<?xml version='1.0' encoding='UTF-8'?>
<osm version="0.6" generator="libosmium/2.20.0">
  <node id="813597671" version="1" timestamp="2010-07-12T15:57:09Z" uid="115477" user="wowik" changeset="5200192" lat="57.1345976" lon="37.1647716">
    <tag k="name" v="Клясово"/>
    <tag k="place" v="hamlet"/>
  </node>
  <node id="813597671" version="2" timestamp="2012-01-26T21:11:47Z" uid="384084" user="Kostik" changeset="10507299" lat="57.1345976" lon="37.1647716">
    <tag k="name" v="Клясово"/>
    <tag k="place" v="hamlet"/>
  </node>
  <node id="813597674" version="1" timestamp="2010-07-12T15:57:09Z" uid="115477" user="wowik" changeset="5200192" lat="57.0712812" lon="37.3636936">
    <tag k="name" v="Голузино"/>
    <tag k="place" v="hamlet"/>
  </node>
  <node id="813597674" version="2" timestamp="2012-01-26T21:10:40Z" uid="384084" user="Kostik" changeset="10507299" lat="57.0712812" lon="37.3636936">
    <tag k="name" v="Голузино"/>
    <tag k="place" v="hamlet"/>
  </node>
  <node id="813597694" version="1" timestamp="2010-07-12T15:57:09Z" uid="115477" user="wowik" changeset="5200192" lat="57.1296359" lon="37.2641379">
    <tag k="name" v="Кстиново"/>
    <tag k="old_name" v="Костиново"/>
    <tag k="place" v="hamlet"/>
  </node>
  <node id="813597694" version="2" timestamp="2012-01-26T21:12:08Z" uid="384084" user="Kostik" changeset="10507299" lat="57.1296359" lon="37.2641379">
    <tag k="name" v="Кстиново"/>
    <tag k="old_name" v="Костиново"/>
    <tag k="place" v="hamlet"/>
  </node>
  <node id="813597697" version="1" timestamp="2010-07-12T15:57:10Z" uid="115477" user="wowik" changeset="5200192" lat="57.1390765" lon="37.2930646">
    <tag k="name" v="Игумново"/>
    <tag k="place" v="hamlet"/>
  </node>
  <node id="813597697" version="2" timestamp="2012-01-26T21:11:34Z" uid="384084" user="Kostik" changeset="10507299" lat="57.1390765" lon="37.2930646">
    <tag k="name" v="Игумново"/>
    <tag k="place" v="hamlet"/>
  </node>
  <node id="813597701" version="1" timestamp="2010-07-12T15:57:10Z" uid="115477" user="wowik" changeset="5200192" lat="57.1280888" lon="37.2136123">
    <tag k="name" v="Татаринцево"/>
    <tag k="place" v="locality"/>
  </node>
  <node id="813597701" version="2" timestamp="2012-01-26T21:14:23Z" uid="384084" user="Kostik" changeset="10507299" lat="57.1280888" lon="37.2136123">
    <tag k="name" v="Татаринцево"/>
    <tag k="place" v="locality"/>
  </node>
  <node id="813597703" version="1" timestamp="2010-07-12T15:57:10Z" uid="115477" user="wowik" changeset="5200192" lat="57.1244653" lon="37.2674067">
    <tag k="name" v="Керузино"/>
    <tag k="place" v="hamlet"/>
  </node>
  <node id="813597703" version="2" timestamp="2012-01-26T21:11:42Z" uid="384084" user="Kostik" changeset="10507299" lat="57.1244653" lon="37.2674067">
    <tag k="name" v="Керузино"/>
    <tag k="place" v="hamlet"/>
  </node>
  <node id="813597708" version="1" timestamp="2010-07-12T15:57:10Z" uid="115477" user="wowik" changeset="5200192" lat="57.0745707" lon="37.3048297">
    <tag k="name" v="Кожухово"/>
    <tag k="place" v="hamlet"/>
  </node>
  <node id="813597708" version="2" timestamp="2012-01-26T21:11:49Z" uid="384084" user="Kostik" changeset="10507299" lat="57.0745707" lon="37.3048297">
    <tag k="name" v="Кожухово"/>
    <tag k="place" v="hamlet"/>
  </node>
  <node id="813597712" version="1" timestamp="2010-07-12T15:57:10Z" uid="115477" user="wowik" changeset="5200192" lat="57.170484" lon="37.4210267">
    <tag k="name" v="Васильевское"/>
    <tag k="place" v="hamlet"/>
  </node>
  <node id="813597712" version="2" timestamp="2010-07-19T15:02:16Z" uid="115477" user="wowik" changeset="5261881" lat="57.170484" lon="37.4210267">
    <tag k="name" v="Васильевское"/>
    <tag k="place" v="hamlet"/>
  </node>
  <node id="813597717" version="1" timestamp="2010-07-12T15:57:10Z" uid="115477" user="wowik" changeset="5200192" lat="57.1300353" lon="37.218917">
    <tag k="name" v="Вячелово"/>
    <tag k="place" v="hamlet"/>
  </node>
  <node id="813597717" version="2" timestamp="2012-01-26T21:10:34Z" uid="384084" user="Kostik" changeset="10507299" lat="57.1300353" lon="37.218917">
    <tag k="name" v="Вячелово"/>
    <tag k="place" v="hamlet"/>
  </node>
  <node id="813597720" version="1" timestamp="2010-07-12T15:57:10Z" uid="115477" user="wowik" changeset="5200192" lat="57.1728614" lon="37.4958446">
    <tag k="name" v="Королево"/>
    <tag k="place" v="locality"/>
  </node>
  <node id="813597720" version="2" timestamp="2012-01-26T21:11:58Z" uid="384084" user="Kostik" changeset="10507299" lat="57.1728614" lon="37.4958446">
    <tag k="name" v="Королево"/>
    <tag k="place" v="locality"/>
  </node>
  <node id="813597736" version="1" timestamp="2010-07-12T15:57:11Z" uid="115477" user="wowik" changeset="5200192" lat="57.1275256" lon="37.2024872">
    <tag k="name" v="Вороново"/>
    <tag k="place" v="hamlet"/>
  </node>
  <node id="813597736" version="2" timestamp="2012-01-26T21:10:27Z" uid="384084" user="Kostik" changeset="10507299" lat="57.1275256" lon="37.2024872">
    <tag k="name" v="Вороново"/>
    <tag k="place" v="hamlet"/>
  </node>
  <node id="813597741" version="1" timestamp="2010-07-12T15:57:11Z" uid="115477" user="wowik" changeset="5200192" lat="57.0907749" lon="37.2957855">
    <tag k="name" v="Кислово"/>
    <tag k="place" v="hamlet"/>
  </node>
  <node id="813597741" version="2" timestamp="2012-01-26T21:11:44Z" uid="384084" user="Kostik" changeset="10507299" lat="57.0907749" lon="37.2957855">
    <tag k="name" v="Кислово"/>
    <tag k="place" v="hamlet"/>
  </node>
  <node id="813597746" version="1" timestamp="2010-07-12T15:57:11Z" uid="115477" user="wowik" changeset="5200192" lat="57.1694753" lon="37.4716584">
    <tag k="name" v="Трубино"/>
    <tag k="place" v="hamlet"/>
  </node>
  <node id="813597746" version="2" timestamp="2012-01-26T21:14:28Z" uid="384084" user="Kostik" changeset="10507299" lat="57.1694753" lon="37.4716584">
    <tag k="name" v="Трубино"/>
    <tag k="place" v="hamlet"/>
  </node>
  <node id="813597749" version="1" timestamp="2010-07-12T15:57:12Z" uid="115477" user="wowik" changeset="5200192" lat="57.1815609" lon="37.3950501">
    <tag k="name" v="Васильевское"/>
    <tag k="place" v="hamlet"/>
  </node>
  <node id="813597749" version="2" timestamp="2010-07-19T16:11:18Z" uid="115477" user="wowik" changeset="5262509" lat="57.1809351" lon="37.3929634">
    <tag k="name" v="Васильевское"/>
    <tag k="place" v="hamlet"/>
  </node>
  <node id="813597749" version="3" timestamp="2010-07-19T16:36:53Z" uid="115477" user="wowik" changeset="5262761" lat="57.1801606" lon="37.3928588">
    <tag k="name" v="Васильевское"/>
    <tag k="place" v="hamlet"/>
  </node>
  <node id="813597749" version="4" timestamp="2012-01-26T21:10:13Z" uid="384084" user="Kostik" changeset="10507299" lat="57.1801606" lon="37.3928588">
    <tag k="name" v="Васильевское"/>
    <tag k="place" v="hamlet"/>
  </node>
  <node id="813597754" version="1" timestamp="2010-07-12T15:57:12Z" uid="115477" user="wowik" changeset="5200192" lat="57.1456941" lon="37.3195509">
    <tag k="name" v="Керузино"/>
    <tag k="place" v="locality"/>
  </node>
  <node id="813597754" version="2" timestamp="2012-01-26T21:11:42Z" uid="384084" user="Kostik" changeset="10507299" lat="57.1456941" lon="37.3195509">
    <tag k="name" v="Керузино"/>
    <tag k="place" v="locality"/>
  </node>
  <node id="813597756" version="1" timestamp="2010-07-12T15:57:12Z" uid="115477" user="wowik" changeset="5200192" lat="57.1633987" lon="37.4149492">
    <tag k="name" v="Высоково"/>
    <tag k="place" v="hamlet"/>
  </node>
  <node id="813597756" version="2" timestamp="2012-01-26T21:10:31Z" uid="384084" user="Kostik" changeset="10507299" lat="57.1633987" lon="37.4149492">
    <tag k="name" v="Высоково"/>
    <tag k="place" v="hamlet"/>
  </node>
  <node id="813597759" version="1" timestamp="2010-07-12T15:57:12Z" uid="115477" user="wowik" changeset="5200192" lat="57.2001788" lon="37.4109414">
    <tag k="name" v="Туровино"/>
    <tag k="place" v="hamlet"/>
  </node>
  <node id="813597759" version="2" timestamp="2010-07-19T15:02:15Z" uid="115477" user="wowik" changeset="5261881" lat="57.2008346" lon="37.4106697">
    <tag k="name" v="Туровино"/>
    <tag k="place" v="hamlet"/>
  </node>
  <node id="813597759" version="3" timestamp="2010-07-19T15:14:27Z" uid="115477" user="wowik" changeset="5261881" lat="57.2020899" lon="37.4133305">
    <tag k="name" v="Туровино"/>
    <tag k="place" v="hamlet"/>
  </node>
  <node id="813597759" version="4" timestamp="2012-01-26T21:14:32Z" uid="384084" user="Kostik" changeset="10507299" lat="57.2020899" lon="37.4133305">
    <tag k="name" v="Туровино"/>
    <tag k="place" v="hamlet"/>
  </node>
  <node id="813597764" version="1" timestamp="2010-07-12T15:57:12Z" uid="115477" user="wowik" changeset="5200192" lat="57.1311626" lon="37.2321265">
    <tag k="name" v="Бабинское"/>
    <tag k="place" v="hamlet"/>
  </node>
  <node id="813597764" version="2" timestamp="2012-01-26T21:09:43Z" uid="384084" user="Kostik" changeset="10507299" lat="57.1311626" lon="37.2321265">
    <tag k="name" v="Бабинское"/>
    <tag k="place" v="hamlet"/>
  </node>
  <node id="813597785" version="1" timestamp="2010-07-12T15:57:13Z" uid="115477" user="wowik" changeset="5200192" lat="57.1244146" lon="37.2260336">
    <tag k="name" v="Бородино"/>
    <tag k="place" v="hamlet"/>
  </node>
  <node id="813597785" version="2" timestamp="2012-01-26T21:10:04Z" uid="384084" user="Kostik" changeset="10507299" lat="57.1244146" lon="37.2260336">
    <tag k="name" v="Бородино"/>
    <tag k="place" v="hamlet"/>
  </node>
  <node id="813597786" version="1" timestamp="2010-07-12T15:57:13Z" uid="115477" user="wowik" changeset="5200192" lat="57.0846285" lon="37.1936917">
    <tag k="name" v="Берниково"/>
    <tag k="place" v="hamlet"/>
  </node>
  <node id="813597786" version="2" timestamp="2012-01-26T21:09:53Z" uid="384084" user="Kostik" changeset="10507299" lat="57.0846285" lon="37.1936917">
    <tag k="name" v="Берниково"/>
    <tag k="place" v="hamlet"/>
  </node>
  <node id="813597787" version="1" timestamp="2010-07-12T15:57:13Z" uid="115477" user="wowik" changeset="5200192" lat="57.137362" lon="37.2699917">
    <tag k="name" v="Малое Чириково"/>
    <tag k="place" v="locality"/>
  </node>
  <node id="813597787" version="2" timestamp="2012-01-26T21:12:32Z" uid="384084" user="Kostik" changeset="10507299" lat="57.137362" lon="37.2699917">
    <tag k="name" v="Малое Чириково"/>
    <tag k="place" v="locality"/>
  </node>
  <node id="813597791" version="1" timestamp="2010-07-12T15:57:13Z" uid="115477" user="wowik" changeset="5200192" lat="57.0756294" lon="37.3444251">
    <tag k="name" v="Пузаково"/>
    <tag k="place" v="hamlet"/>
  </node>
  <node id="813597791" version="2" timestamp="2010-11-26T18:33:18Z" uid="115477" user="wowik" changeset="6463696" lat="57.0756294" lon="37.3440381">
    <tag k="name" v="Пузаково"/>
    <tag k="place" v="hamlet"/>
  </node>
  <node id="813597791" version="3" timestamp="2012-01-26T21:13:31Z" uid="384084" user="Kostik" changeset="10507299" lat="57.0756294" lon="37.3440381">
    <tag k="name" v="Пузаково"/>
    <tag k="place" v="hamlet"/>
  </node>
  <node id="813597794" version="1" timestamp="2010-07-12T15:57:13Z" uid="115477" user="wowik" changeset="5200192" lat="57.147953" lon="37.2905388">
    <tag k="name" v="Сыркино"/>
    <tag k="place" v="hamlet"/>
  </node>
  <node id="813597794" version="2" timestamp="2012-01-26T21:14:21Z" uid="384084" user="Kostik" changeset="10507299" lat="57.147953" lon="37.2905388">
    <tag k="name" v="Сыркино"/>
    <tag k="place" v="hamlet"/>
  </node>
  <node id="813597798" version="1" timestamp="2010-07-12T15:57:13Z" uid="115477" user="wowik" changeset="5200192" lat="57.1404113" lon="37.2639278">
    <tag k="name" v="Большое Чириково"/>
    <tag k="place" v="hamlet"/>
  </node>
  <node id="813597798" version="2" timestamp="2012-01-26T21:10:03Z" uid="384084" user="Kostik" changeset="10507299" lat="57.1404113" lon="37.2639278">
    <tag k="name" v="Большое Чириково"/>
    <tag k="place" v="hamlet"/>
  </node>
  <node id="813597802" version="1" timestamp="2010-07-12T15:57:13Z" uid="115477" user="wowik" changeset="5200192" lat="57.0702655" lon="37.3511399">
    <tag k="name" v="Харпаево"/>
    <tag k="place" v="hamlet"/>
  </node>
  <node id="813597802" version="2" timestamp="2012-01-26T21:14:41Z" uid="384084" user="Kostik" changeset="10507299" lat="57.0702655" lon="37.3511399">
    <tag k="name" v="Харпаево"/>
    <tag k="place" v="hamlet"/>
  </node>
  <node id="813597820" version="1" timestamp="2010-07-12T15:57:13Z" uid="115477" user="wowik" changeset="5200192" lat="57.1245667" lon="37.2675935">
    <tag k="name" v="Сосновицы"/>
    <tag k="place" v="hamlet"/>
  </node>
  <node id="813597820" version="2" timestamp="2012-01-26T21:14:05Z" uid="384084" user="Kostik" changeset="10507299" lat="57.1245667" lon="37.2675935">
    <tag k="name" v="Сосновицы"/>
    <tag k="place" v="hamlet"/>
  </node>
  <node id="813597824" version="1" timestamp="2010-07-12T15:57:14Z" uid="115477" user="wowik" changeset="5200192" lat="57.0618776" lon="37.3136086">
    <tag k="name" v="Сипоново"/>
    <tag k="place" v="hamlet"/>
  </node>
  <node id="813597824" version="2" timestamp="2011-04-06T05:35:59Z" uid="432887" user="stemax" changeset="7781261" lat="57.0618776" lon="37.3136086">
    <tag k="name" v="Симоново"/>
    <tag k="place" v="hamlet"/>
  </node>
  <node id="813597828" version="1" timestamp="2010-07-12T15:57:14Z" uid="115477" user="wowik" changeset="5200192" lat="57.0578149" lon="37.2528097">
    <tag k="name" v="Лодыгино"/>
    <tag k="place" v="locality"/>
  </node>
  <node id="813597828" version="2" timestamp="2012-01-26T21:12:23Z" uid="384084" user="Kostik" changeset="10507299" lat="57.0578149" lon="37.2528097">
    <tag k="name" v="Лодыгино"/>
    <tag k="place" v="locality"/>
  </node>
  <node id="813597833" version="1" timestamp="2010-07-12T15:57:15Z" uid="115477" user="wowik" changeset="5200192" lat="57.1261382" lon="37.2364002">
    <tag k="name" v="Карповка"/>
    <tag k="place" v="hamlet"/>
  </node>
  <node id="813597833" version="2" timestamp="2012-01-26T21:11:40Z" uid="384084" user="Kostik" changeset="10507299" lat="57.1261382" lon="37.2364002">
    <tag k="name" v="Карповка"/>
    <tag k="place" v="hamlet"/>
  </node>
  <node id="813597837" version="1" timestamp="2010-07-12T15:57:15Z" uid="115477" user="wowik" changeset="5200192" lat="57.0868364" lon="37.1412292">
    <tag k="name" v="Афанасово"/>
    <tag k="place" v="hamlet"/>
  </node>
  <node id="813597837" version="2" timestamp="2012-01-26T21:09:42Z" uid="384084" user="Kostik" changeset="10507299" lat="57.0868364" lon="37.1412292">
    <tag k="name" v="Афанасово"/>
    <tag k="place" v="hamlet"/>
  </node>
</osm>
