<?xml version='1.0' encoding='UTF-8'?>
<osm version="0.6" generator="libosmium/2.20.0">
  <node id="813691246" version="1" timestamp="2010-07-12T16:48:47Z" uid="115477" user="wowik" changeset="5200629" lat="57.315678" lon="37.3939561">
    <tag k="name" v="Ясная Поляна"/>
    <tag k="place" v="hamlet"/>
  </node>
  <node id="813691246" version="2" timestamp="2011-02-01T15:30:42Z" uid="115477" user="wowik" changeset="7155778" lat="57.315678" lon="37.3939561">
    <tag k="name" v="Ясная Поляна"/>
    <tag k="place" v="locality"/>
  </node>
  <node id="813691246" version="3" timestamp="2012-01-26T21:15:19Z" uid="384084" user="Kostik" changeset="10507299" lat="57.315678" lon="37.3939561">
    <tag k="name" v="Ясная Поляна"/>
    <tag k="place" v="locality"/>
  </node>
  <node id="813691249" version="1" timestamp="2010-07-12T16:48:47Z" uid="115477" user="wowik" changeset="5200629" lat="57.2958135" lon="37.4091336">
    <tag k="name" v="Андрейково"/>
    <tag k="place" v="hamlet"/>
  </node>
  <node id="813691249" version="2" timestamp="2012-01-26T21:09:36Z" uid="384084" user="Kostik" changeset="10507299" lat="57.2958135" lon="37.4091336">
    <tag k="name" v="Андрейково"/>
    <tag k="place" v="hamlet"/>
  </node>
  <node id="813691268" version="1" timestamp="2010-07-12T16:48:48Z" uid="115477" user="wowik" changeset="5200629" lat="57.3199963" lon="37.4803291">
    <tag k="name" v="Соколово-Кошкарево"/>
    <tag k="place" v="hamlet"/>
  </node>
  <node id="813691268" version="2" timestamp="2011-02-15T19:06:38Z" uid="115477" user="wowik" changeset="7297822" lat="57.319766" lon="37.4797056">
    <tag k="name" v="Соколово-Кошкарево"/>
    <tag k="place" v="hamlet"/>
  </node>
  <node id="813691268" version="3" timestamp="2012-01-26T21:14:04Z" uid="384084" user="Kostik" changeset="10507299" lat="57.319766" lon="37.4797056">
    <tag k="name" v="Соколово-Кошкарево"/>
    <tag k="place" v="hamlet"/>
  </node>
  <node id="813691270" version="1" timestamp="2010-07-12T16:48:48Z" uid="115477" user="wowik" changeset="5200629" lat="57.2955056" lon="37.429269">
    <tag k="name" v="Введенское"/>
    <tag k="place" v="hamlet"/>
  </node>
  <node id="813691270" version="2" timestamp="2012-01-26T21:10:15Z" uid="384084" user="Kostik" changeset="10507299" lat="57.2955056" lon="37.429269">
    <tag k="name" v="Введенское"/>
    <tag k="place" v="hamlet"/>
  </node>
  <node id="813691273" version="1" timestamp="2010-07-12T16:48:48Z" uid="115477" user="wowik" changeset="5200629" lat="57.3060754" lon="37.4474098">
    <tag k="name" v="Потупово"/>
    <tag k="place" v="hamlet"/>
  </node>
  <node id="813691273" version="2" timestamp="2012-01-26T21:13:26Z" uid="384084" user="Kostik" changeset="10507299" lat="57.3060754" lon="37.4474098">
    <tag k="name" v="Потупово"/>
    <tag k="place" v="hamlet"/>
  </node>
  <node id="813691278" version="1" timestamp="2010-07-12T16:48:48Z" uid="115477" user="wowik" changeset="5200629" lat="57.3192988" lon="37.4500881">
    <tag k="name" v="Павловское"/>
    <tag k="place" v="hamlet"/>
  </node>
  <node id="813691278" version="2" timestamp="2011-01-13T13:40:38Z" uid="115477" user="wowik" changeset="6957204" lat="57.3178454" lon="37.4497019">
    <tag k="name" v="Павловское"/>
    <tag k="place" v="hamlet"/>
  </node>
  <node id="813691278" version="3" timestamp="2012-01-26T21:13:09Z" uid="384084" user="Kostik" changeset="10507299" lat="57.3178454" lon="37.4497019">
    <tag k="name" v="Павловское"/>
    <tag k="place" v="hamlet"/>
  </node>
  <node id="813691281" version="1" timestamp="2010-07-12T16:48:48Z" uid="115477" user="wowik" changeset="5200629" lat="57.2931834" lon="37.4952312">
    <tag k="name" v="Вантеево"/>
    <tag k="place" v="hamlet"/>
  </node>
  <node id="813691281" version="2" timestamp="2012-01-26T21:10:12Z" uid="384084" user="Kostik" changeset="10507299" lat="57.2931834" lon="37.4952312">
    <tag k="name" v="Вантеево"/>
    <tag k="place" v="hamlet"/>
  </node>
  <node id="813691286" version="1" timestamp="2010-07-12T16:48:48Z" uid="115477" user="wowik" changeset="5200629" lat="57.2978918" lon="37.4826941">
    <tag k="name" v="Ременницы"/>
    <tag k="place" v="hamlet"/>
  </node>
  <node id="813691286" version="2" timestamp="2010-07-21T12:07:11Z" uid="115477" user="wowik" changeset="5278361" lat="57.2978919" lon="37.482694">
    <tag k="alt_name" v="Ременницы"/>
    <tag k="name" v="Ременница"/>
    <tag k="place" v="hamlet"/>
  </node>
  <node id="813691286" version="3" timestamp="2012-01-26T21:13:38Z" uid="384084" user="Kostik" changeset="10507299" lat="57.2978919" lon="37.482694">
    <tag k="alt_name" v="Ременницы"/>
    <tag k="name" v="Ременница"/>
    <tag k="place" v="hamlet"/>
  </node>
  <node id="813691299" version="1" timestamp="2010-07-12T16:48:48Z" uid="115477" user="wowik" changeset="5200629" lat="57.2895523" lon="37.4181565">
    <tag k="name" v="Почапки"/>
    <tag k="place" v="hamlet"/>
  </node>
  <node id="813691299" version="2" timestamp="2012-01-26T21:13:27Z" uid="384084" user="Kostik" changeset="10507299" lat="57.2895523" lon="37.4181565">
    <tag k="name" v="Почапки"/>
    <tag k="place" v="hamlet"/>
  </node>
  <node id="813691301" version="1" timestamp="2010-07-12T16:48:48Z" uid="115477" user="wowik" changeset="5200629" lat="57.3163448" lon="37.3655007">
    <tag k="name" v="Девясилово"/>
    <tag k="place" v="locality"/>
  </node>
  <node id="813691301" version="2" timestamp="2012-01-26T21:10:55Z" uid="384084" user="Kostik" changeset="10507299" lat="57.3163448" lon="37.3655007">
    <tag k="name" v="Девясилово"/>
    <tag k="place" v="locality"/>
  </node>
  <node id="813696596" version="1" timestamp="2010-07-12T16:52:02Z" uid="115477" user="wowik" changeset="5200650" lat="57.2774877" lon="37.4075413">
    <tag k="name" v="Аспидниково"/>
    <tag k="place" v="locality"/>
  </node>
  <node id="813696596" version="2" timestamp="2012-01-26T21:09:41Z" uid="384084" user="Kostik" changeset="10507299" lat="57.2774877" lon="37.4075413">
    <tag k="name" v="Аспидниково"/>
    <tag k="place" v="locality"/>
  </node>
  <node id="813696599" version="1" timestamp="2010-07-12T16:52:02Z" uid="115477" user="wowik" changeset="5200650" lat="57.2801574" lon="37.3969038">
    <tag k="name" v="Соколово"/>
    <tag k="place" v="hamlet"/>
  </node>
  <node id="813696599" version="2" timestamp="2012-01-26T21:14:04Z" uid="384084" user="Kostik" changeset="10507299" lat="57.2801574" lon="37.3969038">
    <tag k="name" v="Соколово"/>
    <tag k="place" v="hamlet"/>
  </node>
</osm>
