<?xml version='1.0' encoding='UTF-8'?>
<osm version="0.6" generator="libosmium/2.20.0">
  <node id="813812862" version="1" timestamp="2010-07-12T18:37:32Z" uid="115477" user="wowik" changeset="5201461" lat="57.136089" lon="38.3104737">
    <tag k="name" v="Вякирево"/>
    <tag k="place" v="hamlet"/>
  </node>
  <node id="813812862" version="2" timestamp="2010-07-12T18:39:00Z" uid="115477" user="wowik" changeset="5201522" lat="57.1404074" lon="38.2936915">
    <tag k="name" v="Вякирево"/>
    <tag k="place" v="hamlet"/>
  </node>
  <node id="813812862" version="3" timestamp="2011-09-22T03:45:18Z" uid="441214" user="Чирикан" changeset="9365368" lat="57.1404074" lon="38.2936915"/>
  <node id="813812865" version="1" timestamp="2010-07-12T18:37:32Z" uid="115477" user="wowik" changeset="5201461" lat="57.1438663" lon="38.3036931">
    <tag k="name" v="Ростовцево"/>
    <tag k="place" v="hamlet"/>
  </node>
  <node id="813812865" version="2" timestamp="2010-07-12T18:40:15Z" uid="115477" user="wowik" changeset="5201522" lat="57.1437138" lon="38.3036908">
    <tag k="name" v="Ростовцево"/>
    <tag k="place" v="hamlet"/>
  </node>
  <node id="813812865" version="3" timestamp="2012-01-26T21:13:42Z" uid="384084" user="Kostik" changeset="10507299" lat="57.1437138" lon="38.3036908">
    <tag k="name" v="Ростовцево"/>
    <tag k="place" v="hamlet"/>
  </node>
  <node id="813812865" version="4" timestamp="2012-02-11T20:45:14Z" uid="563357" user="lenux" changeset="10657193" lat="57.1437138" lon="38.3036908">
    <tag k="addr:country" v="RU"/>
    <tag k="addr:district" v="Угличский район"/>
    <tag k="addr:region" v="Ярославская область"/>
    <tag k="name" v="Ростовцево"/>
    <tag k="place" v="hamlet"/>
  </node>
  <node id="813812871" version="1" timestamp="2010-07-12T18:37:33Z" uid="115477" user="wowik" changeset="5201461" lat="57.1415845" lon="38.2918484">
    <tag k="name" v="Алексеево"/>
    <tag k="place" v="hamlet"/>
  </node>
  <node id="813812871" version="2" timestamp="2010-07-12T18:39:00Z" uid="115477" user="wowik" changeset="5201522" lat="57.1444123" lon="38.2923182">
    <tag k="name" v="Алексеево"/>
    <tag k="place" v="hamlet"/>
  </node>
  <node id="813812871" version="3" timestamp="2010-07-12T18:40:14Z" uid="115477" user="wowik" changeset="5201522" lat="57.1446218" lon="38.2921895">
    <tag k="name" v="Алексеево"/>
    <tag k="place" v="hamlet"/>
  </node>
  <node id="813812871" version="4" timestamp="2012-01-26T21:09:33Z" uid="384084" user="Kostik" changeset="10507299" lat="57.1446218" lon="38.2921895">
    <tag k="name" v="Алексеево"/>
    <tag k="place" v="hamlet"/>
  </node>
  <node id="813812871" version="5" timestamp="2012-02-11T20:44:56Z" uid="563357" user="lenux" changeset="10657193" lat="57.1446218" lon="38.2921895">
    <tag k="addr:country" v="RU"/>
    <tag k="addr:district" v="Угличский район"/>
    <tag k="addr:region" v="Ярославская область"/>
    <tag k="name" v="Алексеево"/>
    <tag k="place" v="hamlet"/>
  </node>
</osm>
