<?xml version='1.0' encoding='UTF-8'?>
<osm version="0.6" generator="libosmium/2.20.0">
  <node id="817352656" version="2" timestamp="2010-07-28T20:01:47Z" uid="74617" user="JohnSmith" changeset="5339329" lat="47.3467627" lon="6.3684081">
    <tag k="emergency" v="fire_hydrant"/>
    <tag k="source" v="cadastre-dgi-fr source : Direction Générale des Impôts - Cadastre. Mise à jour : 2010"/>
  </node>
  <node id="817352656" version="3" timestamp="2010-07-30T17:41:47Z" uid="74617" user="JohnSmith" changeset="5356742" lat="47.3467627" lon="6.3684081">
    <tag k="amenity" v="fire_hydrant"/>
    <tag k="emergency" v="fire_hydrant"/>
    <tag k="source" v="cadastre-dgi-fr source : Direction Générale des Impôts - Cadastre. Mise à jour : 2010"/>
  </node>
  <node id="817352656" version="4" timestamp="2010-10-11T18:22:09Z" uid="26348" user="Rodolphe Quiédeville" changeset="6014374" lat="47.3467627" lon="6.3684081">
    <tag k="emergency" v="fire_hydrant"/>
    <tag k="source" v="cadastre-dgi-fr source : Direction Générale des Impôts - Cadastre. Mise à jour : 2010"/>
  </node>
  <node id="817352656" version="5" timestamp="2010-10-19T08:51:22Z" uid="26348" user="Rodolphe Quiédeville" changeset="6094638" lat="47.3467627" lon="6.3684081">
    <tag k="amenity" v="fire_hydrant"/>
    <tag k="emergency" v="fire_hydrant"/>
    <tag k="source" v="cadastre-dgi-fr source : Direction Générale des Impôts - Cadastre. Mise à jour : 2010"/>
  </node>
  <node id="817352656" version="6" timestamp="2011-02-25T17:16:47Z" uid="86289" user="Gustry" changeset="7392312" lat="47.3467503" lon="6.3683746">
    <tag k="amenity" v="fire_hydrant"/>
    <tag k="emergency" v="fire_hydrant"/>
    <tag k="source" v="cadastre-dgi-fr source : Direction Générale des Impôts - Cadastre. Mise à jour : 2010"/>
  </node>
  <node id="817352656" version="7" timestamp="2012-03-20T00:55:18Z" uid="178186" user="mdk" changeset="11036647" lat="47.3467503" lon="6.3683746"/>
  <node id="817352663" version="2" timestamp="2010-07-28T20:02:44Z" uid="74617" user="JohnSmith" changeset="5339329" lat="47.3518685" lon="6.3657645">
    <tag k="emergency" v="fire_hydrant"/>
    <tag k="source" v="cadastre-dgi-fr source : Direction Générale des Impôts - Cadastre. Mise à jour : 2010"/>
  </node>
  <node id="817352663" version="3" timestamp="2010-07-30T17:46:06Z" uid="74617" user="JohnSmith" changeset="5356742" lat="47.3518685" lon="6.3657645">
    <tag k="amenity" v="fire_hydrant"/>
    <tag k="emergency" v="fire_hydrant"/>
    <tag k="source" v="cadastre-dgi-fr source : Direction Générale des Impôts - Cadastre. Mise à jour : 2010"/>
  </node>
  <node id="817352663" version="4" timestamp="2010-10-11T18:25:32Z" uid="26348" user="Rodolphe Quiédeville" changeset="6014374" lat="47.3518685" lon="6.3657645">
    <tag k="emergency" v="fire_hydrant"/>
    <tag k="source" v="cadastre-dgi-fr source : Direction Générale des Impôts - Cadastre. Mise à jour : 2010"/>
  </node>
  <node id="817352663" version="5" timestamp="2010-10-19T08:50:21Z" uid="26348" user="Rodolphe Quiédeville" changeset="6094638" lat="47.3518685" lon="6.3657645">
    <tag k="amenity" v="fire_hydrant"/>
    <tag k="emergency" v="fire_hydrant"/>
    <tag k="source" v="cadastre-dgi-fr source : Direction Générale des Impôts - Cadastre. Mise à jour : 2010"/>
  </node>
  <node id="817352663" version="6" timestamp="2012-03-20T00:55:18Z" uid="178186" user="mdk" changeset="11036647" lat="47.3518685" lon="6.3657645"/>
  <node id="817352665" version="2" timestamp="2010-07-28T20:07:30Z" uid="74617" user="JohnSmith" changeset="5339329" lat="47.3502272" lon="6.3680836">
    <tag k="emergency" v="fire_hydrant"/>
    <tag k="source" v="cadastre-dgi-fr source : Direction Générale des Impôts - Cadastre. Mise à jour : 2010"/>
  </node>
  <node id="817352665" version="3" timestamp="2010-07-30T17:50:05Z" uid="74617" user="JohnSmith" changeset="5356742" lat="47.3502272" lon="6.3680836">
    <tag k="amenity" v="fire_hydrant"/>
    <tag k="emergency" v="fire_hydrant"/>
    <tag k="source" v="cadastre-dgi-fr source : Direction Générale des Impôts - Cadastre. Mise à jour : 2010"/>
  </node>
  <node id="817352665" version="4" timestamp="2010-10-11T18:23:42Z" uid="26348" user="Rodolphe Quiédeville" changeset="6014374" lat="47.3502272" lon="6.3680836">
    <tag k="emergency" v="fire_hydrant"/>
    <tag k="source" v="cadastre-dgi-fr source : Direction Générale des Impôts - Cadastre. Mise à jour : 2010"/>
  </node>
  <node id="817352665" version="5" timestamp="2010-10-19T08:50:36Z" uid="26348" user="Rodolphe Quiédeville" changeset="6094638" lat="47.3502272" lon="6.3680836">
    <tag k="amenity" v="fire_hydrant"/>
    <tag k="emergency" v="fire_hydrant"/>
    <tag k="source" v="cadastre-dgi-fr source : Direction Générale des Impôts - Cadastre. Mise à jour : 2010"/>
  </node>
  <node id="817352665" version="6" timestamp="2012-03-20T00:55:18Z" uid="178186" user="mdk" changeset="11036647" lat="47.3502272" lon="6.3680836"/>
  <node id="817352670" version="2" timestamp="2010-07-28T20:10:48Z" uid="74617" user="JohnSmith" changeset="5339329" lat="47.3499246" lon="6.3705336">
    <tag k="emergency" v="fire_hydrant"/>
    <tag k="source" v="cadastre-dgi-fr source : Direction Générale des Impôts - Cadastre. Mise à jour : 2010"/>
  </node>
  <node id="817352670" version="3" timestamp="2010-07-30T17:40:13Z" uid="74617" user="JohnSmith" changeset="5356742" lat="47.3499246" lon="6.3705336">
    <tag k="amenity" v="fire_hydrant"/>
    <tag k="emergency" v="fire_hydrant"/>
    <tag k="source" v="cadastre-dgi-fr source : Direction Générale des Impôts - Cadastre. Mise à jour : 2010"/>
  </node>
  <node id="817352670" version="4" timestamp="2010-10-11T18:25:23Z" uid="26348" user="Rodolphe Quiédeville" changeset="6014374" lat="47.3499246" lon="6.3705336">
    <tag k="emergency" v="fire_hydrant"/>
    <tag k="source" v="cadastre-dgi-fr source : Direction Générale des Impôts - Cadastre. Mise à jour : 2010"/>
  </node>
  <node id="817352670" version="5" timestamp="2010-10-19T08:50:51Z" uid="26348" user="Rodolphe Quiédeville" changeset="6094638" lat="47.3499246" lon="6.3705336">
    <tag k="amenity" v="fire_hydrant"/>
    <tag k="emergency" v="fire_hydrant"/>
    <tag k="source" v="cadastre-dgi-fr source : Direction Générale des Impôts - Cadastre. Mise à jour : 2010"/>
  </node>
  <node id="817352670" version="6" timestamp="2012-03-20T00:55:18Z" uid="178186" user="mdk" changeset="11036647" lat="47.3499246" lon="6.3705336"/>
  <node id="817352673" version="2" timestamp="2010-07-28T20:08:48Z" uid="74617" user="JohnSmith" changeset="5339329" lat="47.3508742" lon="6.3656027">
    <tag k="emergency" v="fire_hydrant"/>
    <tag k="source" v="cadastre-dgi-fr source : Direction Générale des Impôts - Cadastre. Mise à jour : 2010"/>
  </node>
  <node id="817352673" version="3" timestamp="2010-07-30T17:42:06Z" uid="74617" user="JohnSmith" changeset="5356742" lat="47.3508742" lon="6.3656027">
    <tag k="amenity" v="fire_hydrant"/>
    <tag k="emergency" v="fire_hydrant"/>
    <tag k="source" v="cadastre-dgi-fr source : Direction Générale des Impôts - Cadastre. Mise à jour : 2010"/>
  </node>
  <node id="817352673" version="4" timestamp="2010-10-11T18:24:24Z" uid="26348" user="Rodolphe Quiédeville" changeset="6014374" lat="47.3508742" lon="6.3656027">
    <tag k="emergency" v="fire_hydrant"/>
    <tag k="source" v="cadastre-dgi-fr source : Direction Générale des Impôts - Cadastre. Mise à jour : 2010"/>
  </node>
  <node id="817352673" version="5" timestamp="2010-10-19T08:52:07Z" uid="26348" user="Rodolphe Quiédeville" changeset="6094638" lat="47.3508742" lon="6.3656027">
    <tag k="amenity" v="fire_hydrant"/>
    <tag k="emergency" v="fire_hydrant"/>
    <tag k="source" v="cadastre-dgi-fr source : Direction Générale des Impôts - Cadastre. Mise à jour : 2010"/>
  </node>
  <node id="817352673" version="6" timestamp="2012-03-20T00:55:18Z" uid="178186" user="mdk" changeset="11036647" lat="47.3508742" lon="6.3656027"/>
  <node id="817352674" version="2" timestamp="2010-07-28T20:06:40Z" uid="74617" user="JohnSmith" changeset="5339329" lat="47.3484973" lon="6.3688535">
    <tag k="emergency" v="fire_hydrant"/>
    <tag k="source" v="cadastre-dgi-fr source : Direction Générale des Impôts - Cadastre. Mise à jour : 2010"/>
  </node>
  <node id="817352674" version="3" timestamp="2010-07-30T17:49:21Z" uid="74617" user="JohnSmith" changeset="5356742" lat="47.3484973" lon="6.3688535">
    <tag k="amenity" v="fire_hydrant"/>
    <tag k="emergency" v="fire_hydrant"/>
    <tag k="source" v="cadastre-dgi-fr source : Direction Générale des Impôts - Cadastre. Mise à jour : 2010"/>
  </node>
  <node id="817352674" version="4" timestamp="2010-10-11T18:25:50Z" uid="26348" user="Rodolphe Quiédeville" changeset="6014374" lat="47.3484973" lon="6.3688535">
    <tag k="emergency" v="fire_hydrant"/>
    <tag k="source" v="cadastre-dgi-fr source : Direction Générale des Impôts - Cadastre. Mise à jour : 2010"/>
  </node>
  <node id="817352674" version="5" timestamp="2010-10-19T08:53:04Z" uid="26348" user="Rodolphe Quiédeville" changeset="6094638" lat="47.3484973" lon="6.3688535">
    <tag k="amenity" v="fire_hydrant"/>
    <tag k="emergency" v="fire_hydrant"/>
    <tag k="source" v="cadastre-dgi-fr source : Direction Générale des Impôts - Cadastre. Mise à jour : 2010"/>
  </node>
  <node id="817352674" version="6" timestamp="2012-03-20T00:55:19Z" uid="178186" user="mdk" changeset="11036647" lat="47.3484973" lon="6.3688535"/>
  <node id="817353027" version="1" timestamp="2010-07-14T15:34:20Z" uid="115477" user="wowik" changeset="5217843" lat="57.4840817" lon="37.5235222">
    <tag k="name" v="Дарьино"/>
    <tag k="place" v="hamlet"/>
    <tag k="source" v="Менге"/>
  </node>
  <node id="817353027" version="2" timestamp="2010-11-22T15:38:56Z" uid="115477" user="wowik" changeset="6432391" lat="57.4840817" lon="37.5235222">
    <tag k="name" v="Дарьино"/>
    <tag k="place" v="locality"/>
    <tag k="source" v="Менде"/>
  </node>
  <node id="817353027" version="3" timestamp="2012-01-26T21:10:55Z" uid="384084" user="Kostik" changeset="10507299" lat="57.4840817" lon="37.5235222">
    <tag k="name" v="Дарьино"/>
    <tag k="place" v="locality"/>
    <tag k="source" v="Менде"/>
  </node>
  <node id="817353028" version="1" timestamp="2010-07-14T15:34:21Z" uid="115477" user="wowik" changeset="5217843" lat="57.3904692" lon="37.4808603">
    <tag k="name" v="Андрейково"/>
    <tag k="place" v="hamlet"/>
    <tag k="source" v="Менге"/>
  </node>
  <node id="817353028" version="2" timestamp="2010-11-22T15:38:59Z" uid="115477" user="wowik" changeset="6432391" lat="57.3904692" lon="37.4808603">
    <tag k="name" v="Андрейково"/>
    <tag k="place" v="hamlet"/>
    <tag k="source" v="Менде"/>
  </node>
  <node id="817353028" version="3" timestamp="2010-11-24T15:27:30Z" uid="115477" user="wowik" changeset="6446894" lat="57.3906084" lon="37.4796263">
    <tag k="name" v="Андрейково"/>
    <tag k="place" v="hamlet"/>
    <tag k="source" v="Менде"/>
  </node>
  <node id="817353028" version="4" timestamp="2010-11-29T18:51:41Z" uid="115477" user="wowik" changeset="6488778" lat="57.3906085" lon="37.4796262">
    <tag k="name" v="Андрейцево"/>
    <tag k="old_name" v="Андрейково"/>
    <tag k="place" v="hamlet"/>
    <tag k="source" v="Менде"/>
  </node>
  <node id="817353028" version="5" timestamp="2011-01-26T16:44:11Z" uid="115477" user="wowik" changeset="7094999" lat="57.3906085" lon="37.4789141">
    <tag k="name" v="Андрейцево"/>
    <tag k="old_name" v="Андрейково"/>
    <tag k="place" v="hamlet"/>
    <tag k="source" v="Менде"/>
  </node>
  <node id="817353028" version="6" timestamp="2012-01-26T21:09:36Z" uid="384084" user="Kostik" changeset="10507299" lat="57.3906085" lon="37.4789141">
    <tag k="name" v="Андрейцево"/>
    <tag k="old_name" v="Андрейково"/>
    <tag k="place" v="hamlet"/>
    <tag k="source" v="Менде"/>
  </node>
  <node id="817353029" version="1" timestamp="2010-07-14T15:34:21Z" uid="115477" user="wowik" changeset="5217843" lat="57.5044286" lon="37.4687867"/>
  <node id="817353029" version="2" timestamp="2011-02-01T18:08:39Z" uid="115477" user="wowik" changeset="7157304" lat="57.5041621" lon="37.4677396"/>
  <node id="817353030" version="1" timestamp="2010-07-14T15:34:21Z" uid="115477" user="wowik" changeset="5217843" lat="57.4878637" lon="37.4754595"/>
  <node id="817353030" version="2" timestamp="2010-07-14T16:05:25Z" uid="115477" user="wowik" changeset="5218179" lat="57.4865116" lon="37.4757138"/>
  <node id="817353030" version="3" timestamp="2011-01-26T16:44:00Z" uid="115477" user="wowik" changeset="7094999" lat="57.4859091" lon="37.4768031"/>
  <node id="817353031" version="1" timestamp="2010-07-14T15:34:21Z" uid="115477" user="wowik" changeset="5217843" lat="57.546483" lon="37.4789974">
    <tag k="name" v="Кульнево"/>
    <tag k="place" v="hamlet"/>
    <tag k="source" v="Менге"/>
  </node>
  <node id="817353031" version="2" timestamp="2010-11-22T15:39:24Z" uid="115477" user="wowik" changeset="6432391" lat="57.546483" lon="37.4789974">
    <tag k="name" v="Кульнево"/>
    <tag k="place" v="hamlet"/>
    <tag k="source" v="Менде"/>
  </node>
  <node id="817353031" version="3" timestamp="2012-01-26T21:12:10Z" uid="384084" user="Kostik" changeset="10507299" lat="57.546483" lon="37.4789974">
    <tag k="name" v="Кульнево"/>
    <tag k="place" v="hamlet"/>
    <tag k="source" v="Менде"/>
  </node>
  <node id="817353032" version="1" timestamp="2010-07-14T15:34:21Z" uid="115477" user="wowik" changeset="5217843" lat="57.5428264" lon="37.3764378">
    <tag k="name" v="Страхиново"/>
    <tag k="place" v="hamlet"/>
    <tag k="source" v="Менге"/>
  </node>
  <node id="817353032" version="2" timestamp="2010-07-19T17:48:32Z" uid="115477" user="wowik" changeset="5263458" lat="57.5415644" lon="37.3777205">
    <tag k="name" v="Страхиново"/>
    <tag k="place" v="hamlet"/>
    <tag k="source" v="Менге"/>
  </node>
  <node id="817353032" version="3" timestamp="2010-11-22T15:39:06Z" uid="115477" user="wowik" changeset="6432391" lat="57.5415644" lon="37.3777205">
    <tag k="name" v="Страхиново"/>
    <tag k="place" v="hamlet"/>
    <tag k="source" v="Менде"/>
  </node>
  <node id="817353032" version="4" timestamp="2012-01-26T21:14:18Z" uid="384084" user="Kostik" changeset="10507299" lat="57.5415644" lon="37.3777205">
    <tag k="name" v="Страхиново"/>
    <tag k="place" v="hamlet"/>
    <tag k="source" v="Менде"/>
  </node>
  <node id="817353033" version="1" timestamp="2010-07-14T15:34:21Z" uid="115477" user="wowik" changeset="5217843" lat="57.5053374" lon="37.4701025">
    <tag k="name" v="Уварово"/>
    <tag k="place" v="hamlet"/>
    <tag k="source" v="Менге"/>
  </node>
  <node id="817353033" version="2" timestamp="2010-11-22T15:39:00Z" uid="115477" user="wowik" changeset="6432391" lat="57.5053374" lon="37.4701025">
    <tag k="name" v="Уварово"/>
    <tag k="place" v="hamlet"/>
    <tag k="source" v="Менде"/>
  </node>
  <node id="817353033" version="3" timestamp="2011-02-01T18:08:46Z" uid="115477" user="wowik" changeset="7157304" lat="57.5051177" lon="37.472363">
    <tag k="name" v="Уварово"/>
    <tag k="place" v="hamlet"/>
    <tag k="source" v="Менде"/>
  </node>
  <node id="817353033" version="4" timestamp="2012-01-26T21:14:33Z" uid="384084" user="Kostik" changeset="10507299" lat="57.5051177" lon="37.472363">
    <tag k="name" v="Уварово"/>
    <tag k="place" v="hamlet"/>
    <tag k="source" v="Менде"/>
  </node>
  <node id="817353034" version="1" timestamp="2010-07-14T15:34:21Z" uid="115477" user="wowik" changeset="5217843" lat="57.4880658" lon="37.472546"/>
  <node id="817353034" version="2" timestamp="2010-07-14T16:05:25Z" uid="115477" user="wowik" changeset="5218179" lat="57.4874661" lon="37.4726318"/>
  <node id="817353034" version="3" timestamp="2011-01-26T16:43:56Z" uid="115477" user="wowik" changeset="7094999" lat="57.487831" lon="37.4706743"/>
  <node id="817353035" version="1" timestamp="2010-07-14T15:34:21Z" uid="115477" user="wowik" changeset="5217843" lat="57.5055899" lon="37.4750836"/>
  <node id="817353035" version="2" timestamp="2011-02-01T18:08:43Z" uid="115477" user="wowik" changeset="7157304" lat="57.5051462" lon="37.4758991"/>
  <node id="817353036" version="1" timestamp="2010-07-14T15:34:21Z" uid="115477" user="wowik" changeset="5217843" lat="57.4036674" lon="37.4401421">
    <tag k="name" v="Ильково"/>
    <tag k="place" v="hamlet"/>
    <tag k="source" v="Менге"/>
  </node>
  <node id="817353036" version="2" timestamp="2010-07-19T15:43:27Z" uid="115477" user="wowik" changeset="5262226" lat="57.4016011" lon="37.4422155">
    <tag k="name" v="Ильково"/>
    <tag k="place" v="hamlet"/>
    <tag k="source" v="Менге"/>
  </node>
  <node id="817353036" version="3" timestamp="2010-11-22T15:38:39Z" uid="115477" user="wowik" changeset="6432391" lat="57.4016011" lon="37.4422155">
    <tag k="name" v="Ильково"/>
    <tag k="place" v="hamlet"/>
    <tag k="source" v="Менде"/>
  </node>
  <node id="817353036" version="4" timestamp="2010-11-24T15:27:12Z" uid="115477" user="wowik" changeset="6446894" lat="57.4019338" lon="37.4418626">
    <tag k="name" v="Ильково"/>
    <tag k="place" v="hamlet"/>
    <tag k="source" v="Менде"/>
  </node>
  <node id="817353036" version="5" timestamp="2011-01-14T17:44:08Z" uid="115477" user="wowik" changeset="6969443" lat="57.4022573" lon="37.4417261">
    <tag k="name" v="Ильково"/>
    <tag k="place" v="hamlet"/>
    <tag k="source" v="Менде"/>
  </node>
  <node id="817353036" version="6" timestamp="2012-01-26T21:11:35Z" uid="384084" user="Kostik" changeset="10507299" lat="57.4022573" lon="37.4417261">
    <tag k="name" v="Ильково"/>
    <tag k="place" v="hamlet"/>
    <tag k="source" v="Менде"/>
  </node>
  <node id="817353037" version="1" timestamp="2010-07-14T15:34:21Z" uid="115477" user="wowik" changeset="5217843" lat="57.5475546" lon="37.415206">
    <tag k="name" v="Жуковка"/>
    <tag k="place" v="hamlet"/>
    <tag k="source" v="Менге"/>
  </node>
  <node id="817353037" version="2" timestamp="2010-07-19T17:48:32Z" uid="115477" user="wowik" changeset="5263458" lat="57.5477826" lon="37.4190909">
    <tag k="name" v="Жуковка"/>
    <tag k="place" v="hamlet"/>
    <tag k="source" v="Менге"/>
  </node>
  <node id="817353037" version="3" timestamp="2010-07-19T17:50:06Z" uid="115477" user="wowik" changeset="5263458" lat="57.5477826" lon="37.4190909">
    <tag k="name" v="Жуково"/>
    <tag k="place" v="hamlet"/>
    <tag k="source" v="Менге"/>
  </node>
  <node id="817353037" version="4" timestamp="2010-11-22T15:38:31Z" uid="115477" user="wowik" changeset="6432391" lat="57.5477826" lon="37.4190909">
    <tag k="name" v="Жуково"/>
    <tag k="place" v="hamlet"/>
    <tag k="source" v="Менде"/>
  </node>
  <node id="817353037" version="5" timestamp="2012-01-26T21:11:17Z" uid="384084" user="Kostik" changeset="10507299" lat="57.5477826" lon="37.4190909">
    <tag k="name" v="Жуково"/>
    <tag k="place" v="hamlet"/>
    <tag k="source" v="Менде"/>
  </node>
  <node id="817353038" version="1" timestamp="2010-07-14T15:34:21Z" uid="115477" user="wowik" changeset="5217843" lat="57.5366472" lon="37.4035755">
    <tag k="name" v="Левашово"/>
    <tag k="place" v="hamlet"/>
    <tag k="source" v="Менге"/>
  </node>
  <node id="817353038" version="2" timestamp="2010-07-19T17:48:32Z" uid="115477" user="wowik" changeset="5263458" lat="57.5366813" lon="37.4040705">
    <tag k="name" v="Левашово"/>
    <tag k="place" v="hamlet"/>
    <tag k="source" v="Менге"/>
  </node>
  <node id="817353038" version="3" timestamp="2010-11-22T15:39:16Z" uid="115477" user="wowik" changeset="6432391" lat="57.5366813" lon="37.4040705">
    <tag k="name" v="Левашово"/>
    <tag k="place" v="hamlet"/>
    <tag k="source" v="Менде"/>
  </node>
  <node id="817353038" version="4" timestamp="2012-01-26T21:12:17Z" uid="384084" user="Kostik" changeset="10507299" lat="57.5366813" lon="37.4040705">
    <tag k="name" v="Левашово"/>
    <tag k="place" v="hamlet"/>
    <tag k="source" v="Менде"/>
  </node>
  <node id="817353039" version="1" timestamp="2010-07-14T15:34:21Z" uid="115477" user="wowik" changeset="5217843" lat="57.4248238" lon="37.4102433">
    <tag k="name" v="Крастелево"/>
    <tag k="place" v="hamlet"/>
    <tag k="source" v="Менге"/>
  </node>
  <node id="817353039" version="2" timestamp="2010-07-19T15:49:30Z" uid="115477" user="wowik" changeset="5262226" lat="57.4248238" lon="37.4102433">
    <tag k="name" v="Коростелево"/>
    <tag k="old_name" v="Крастелево"/>
    <tag k="place" v="hamlet"/>
    <tag k="source" v="Менге"/>
  </node>
  <node id="817353039" version="3" timestamp="2010-11-22T15:39:12Z" uid="115477" user="wowik" changeset="6432391" lat="57.4248238" lon="37.4102433">
    <tag k="name" v="Коростелево"/>
    <tag k="old_name" v="Крастелево"/>
    <tag k="place" v="hamlet"/>
    <tag k="source" v="Менде"/>
  </node>
  <node id="817353039" version="4" timestamp="2010-11-22T18:01:06Z" uid="115477" user="wowik" changeset="6432391" lat="57.424048" lon="37.4105053">
    <tag k="name" v="Коростелево"/>
    <tag k="old_name" v="Крастелево"/>
    <tag k="place" v="locality"/>
    <tag k="source" v="Менде"/>
  </node>
  <node id="817353039" version="5" timestamp="2012-01-26T21:11:58Z" uid="384084" user="Kostik" changeset="10507299" lat="57.424048" lon="37.4105053">
    <tag k="name" v="Коростелево"/>
    <tag k="old_name" v="Крастелево"/>
    <tag k="place" v="locality"/>
    <tag k="source" v="Менде"/>
  </node>
  <node id="817354009" version="2" timestamp="2010-07-28T20:13:20Z" uid="74617" user="JohnSmith" changeset="5339329" lat="49.6609342" lon="2.1519251">
    <tag k="emergency" v="fire_hydrant"/>
  </node>
  <node id="817354009" version="3" timestamp="2010-07-30T17:39:38Z" uid="74617" user="JohnSmith" changeset="5356742" lat="49.6609342" lon="2.1519251">
    <tag k="amenity" v="fire_hydrant"/>
    <tag k="emergency" v="fire_hydrant"/>
  </node>
  <node id="817354009" version="4" timestamp="2010-10-11T18:24:26Z" uid="26348" user="Rodolphe Quiédeville" changeset="6014374" lat="49.6609342" lon="2.1519251">
    <tag k="emergency" v="fire_hydrant"/>
  </node>
  <node id="817354009" version="5" timestamp="2010-10-19T08:52:46Z" uid="26348" user="Rodolphe Quiédeville" changeset="6094638" lat="49.6609342" lon="2.1519251">
    <tag k="amenity" v="fire_hydrant"/>
    <tag k="emergency" v="fire_hydrant"/>
  </node>
  <node id="817354009" version="6" timestamp="2012-03-27T18:36:55Z" uid="67540" user="Cobra" changeset="11118954" lat="49.6609342" lon="2.1519251">
    <tag k="amenity" v="fire_hydrant"/>
    <tag k="emergency" v="fire_hydrant"/>
    <tag k="odbl" v="clean"/>
  </node>
  <node id="817356014" version="1" timestamp="2010-07-14T15:38:18Z" uid="115477" user="wowik" changeset="5217872" lat="57.4356576" lon="37.4654628">
    <tag k="name" v="Гаврильцово"/>
    <tag k="place" v="hamlet"/>
    <tag k="source" v="Менге"/>
  </node>
  <node id="817356014" version="2" timestamp="2010-11-22T15:38:36Z" uid="115477" user="wowik" changeset="6432391" lat="57.4356576" lon="37.4654628">
    <tag k="name" v="Гаврильцово"/>
    <tag k="place" v="hamlet"/>
    <tag k="source" v="Менде"/>
  </node>
  <node id="817356014" version="3" timestamp="2010-11-29T18:52:50Z" uid="115477" user="wowik" changeset="6488783" lat="57.4356577" lon="37.4654627">
    <tag k="alt_name" v="Гаврильцево"/>
    <tag k="old_name" v="Гаврильцово"/>
    <tag k="place" v="hamlet"/>
    <tag k="source" v="Менде"/>
  </node>
  <node id="817356014" version="4" timestamp="2010-11-30T09:41:40Z" uid="115477" user="wowik" changeset="6492819" lat="57.4356578" lon="37.4654626">
    <tag k="name" v="Гаврильцево"/>
    <tag k="old_name" v="Гаврильцово"/>
    <tag k="place" v="hamlet"/>
    <tag k="source" v="Менде"/>
  </node>
  <node id="817356014" version="5" timestamp="2012-01-26T21:10:35Z" uid="384084" user="Kostik" changeset="10507299" lat="57.4356578" lon="37.4654626">
    <tag k="name" v="Гаврильцево"/>
    <tag k="old_name" v="Гаврильцово"/>
    <tag k="place" v="hamlet"/>
    <tag k="source" v="Менде"/>
  </node>
</osm>
