<?xml version='1.0' encoding='UTF-8'?>
<osm version="0.6" generator="libosmium/2.20.0">
  <node id="817361853" version="3" timestamp="2011-01-25T11:59:29Z" uid="6269" user="Mueck" changeset="7082885" lat="49.0009388" lon="8.3941545">
    <tag k="highway" v="traffic_signals"/>
  </node>
  <node id="817361881" version="4" timestamp="2011-01-25T11:59:18Z" uid="6269" user="Mueck" changeset="7082885" lat="49.0010697" lon="8.3940118">
    <tag k="addr:housenumber" v="82"/>
    <tag k="addr:street" v="Karlstraße"/>
  </node>
  <node id="817361881" version="5" timestamp="2011-02-10T21:43:43Z" uid="5164" user="woodpeck" changeset="7250024" lat="49.0010697" lon="8.3940118">
    <tag k="addr:housenumber" v="82"/>
    <tag k="addr:street" v="Karlstraße"/>
  </node>
  <node id="817361890" version="4" timestamp="2011-01-25T11:59:17Z" uid="6269" user="Mueck" changeset="7082885" lat="49.0012964" lon="8.3940025">
    <tag k="addr:housenumber" v="78"/>
    <tag k="addr:street" v="Karlstraße"/>
  </node>
  <node id="817361890" version="5" timestamp="2011-02-10T21:43:42Z" uid="5164" user="woodpeck" changeset="7250024" lat="49.0012964" lon="8.3940025">
    <tag k="addr:housenumber" v="78"/>
    <tag k="addr:street" v="Karlstraße"/>
  </node>
  <node id="817363948" version="1" timestamp="2010-07-14T15:47:59Z" uid="115477" user="wowik" changeset="5217955" lat="57.364526" lon="37.586883"/>
  <node id="817363950" version="1" timestamp="2010-07-14T15:47:59Z" uid="115477" user="wowik" changeset="5217955" lat="57.3771155" lon="37.5504402">
    <tag k="name" v="Ковырино"/>
    <tag k="place" v="hamlet"/>
    <tag k="source" v="Менге"/>
  </node>
  <node id="817363950" version="2" timestamp="2010-11-22T15:39:10Z" uid="115477" user="wowik" changeset="6432391" lat="57.3771155" lon="37.5504402">
    <tag k="name" v="Ковырино"/>
    <tag k="place" v="hamlet"/>
    <tag k="source" v="Менде"/>
  </node>
  <node id="817363950" version="3" timestamp="2011-01-26T16:44:16Z" uid="115477" user="wowik" changeset="7094999" lat="57.3770964" lon="37.549766">
    <tag k="name" v="Ковырино"/>
    <tag k="place" v="hamlet"/>
    <tag k="source" v="Менде"/>
  </node>
  <node id="817363950" version="4" timestamp="2012-01-26T21:11:48Z" uid="384084" user="Kostik" changeset="10507299" lat="57.3770964" lon="37.549766">
    <tag k="name" v="Ковырино"/>
    <tag k="place" v="hamlet"/>
    <tag k="source" v="Менде"/>
  </node>
  <node id="817363953" version="1" timestamp="2010-07-14T15:47:59Z" uid="115477" user="wowik" changeset="5217955" lat="57.3623987" lon="37.5739911"/>
  <node id="817363955" version="1" timestamp="2010-07-14T15:47:59Z" uid="115477" user="wowik" changeset="5217955" lat="57.3634883" lon="37.593329"/>
  <node id="817363955" version="2" timestamp="2010-11-23T12:40:22Z" uid="115477" user="wowik" changeset="6438744" lat="57.363381" lon="37.5939628"/>
  <node id="817363957" version="1" timestamp="2010-07-14T15:47:59Z" uid="115477" user="wowik" changeset="5217955" lat="57.3628138" lon="37.6016991"/>
  <node id="817363957" version="2" timestamp="2010-11-23T12:40:35Z" uid="115477" user="wowik" changeset="6438744" lat="57.3630072" lon="37.6013595"/>
  <node id="817363959" version="1" timestamp="2010-07-14T15:47:59Z" uid="115477" user="wowik" changeset="5217955" lat="57.3656675" lon="37.5705276"/>
  <node id="817363961" version="1" timestamp="2010-07-14T15:47:59Z" uid="115477" user="wowik" changeset="5217955" lat="57.3750979" lon="37.5428568">
    <tag k="name" v="Алексеевское"/>
    <tag k="place" v="hamlet"/>
    <tag k="source" v="Менге"/>
  </node>
  <node id="817363961" version="2" timestamp="2010-11-22T15:39:14Z" uid="115477" user="wowik" changeset="6432391" lat="57.3750979" lon="37.5428568">
    <tag k="name" v="Алексеевское"/>
    <tag k="place" v="hamlet"/>
    <tag k="source" v="Менде"/>
  </node>
  <node id="817363961" version="3" timestamp="2012-01-26T21:09:33Z" uid="384084" user="Kostik" changeset="10507299" lat="57.3750979" lon="37.5428568">
    <tag k="name" v="Алексеевское"/>
    <tag k="place" v="hamlet"/>
    <tag k="source" v="Менде"/>
  </node>
  <node id="817363968" version="1" timestamp="2010-07-14T15:48:00Z" uid="115477" user="wowik" changeset="5217955" lat="57.3620874" lon="37.5788015"/>
  <node id="817363970" version="1" timestamp="2010-07-14T15:48:00Z" uid="115477" user="wowik" changeset="5217955" lat="57.367172" lon="37.5670641">
    <tag k="name" v="Маслятка"/>
    <tag k="place" v="hamlet"/>
  </node>
  <node id="817363970" version="2" timestamp="2012-01-26T21:12:37Z" uid="384084" user="Kostik" changeset="10507299" lat="57.367172" lon="37.5670641">
    <tag k="name" v="Маслятка"/>
    <tag k="place" v="hamlet"/>
  </node>
  <node id="817363973" version="1" timestamp="2010-07-14T15:48:00Z" uid="115477" user="wowik" changeset="5217955" lat="57.3708536" lon="37.5648807"/>
  <node id="817363975" version="1" timestamp="2010-07-14T15:48:00Z" uid="115477" user="wowik" changeset="5217955" lat="57.3388146" lon="37.5999783">
    <tag k="name" v="Петровка"/>
    <tag k="place" v="hamlet"/>
  </node>
  <node id="817363975" version="2" timestamp="2012-01-26T21:13:16Z" uid="384084" user="Kostik" changeset="10507299" lat="57.3388146" lon="37.5999783">
    <tag k="name" v="Петровка"/>
    <tag k="place" v="hamlet"/>
  </node>
  <node id="817363978" version="1" timestamp="2010-07-14T15:48:00Z" uid="115477" user="wowik" changeset="5217955" lat="57.36271" lon="37.5972735"/>
  <node id="817363978" version="2" timestamp="2010-11-23T12:40:35Z" uid="115477" user="wowik" changeset="6438744" lat="57.362676" lon="37.5973208"/>
  <node id="817363980" version="1" timestamp="2010-07-14T15:48:00Z" uid="115477" user="wowik" changeset="5217955" lat="57.3445012" lon="37.514296">
    <tag k="name" v="Старово"/>
    <tag k="place" v="locality"/>
    <tag k="source" v="Менге"/>
  </node>
  <node id="817363980" version="2" timestamp="2010-11-22T15:39:17Z" uid="115477" user="wowik" changeset="6432391" lat="57.3445012" lon="37.514296">
    <tag k="name" v="Старово"/>
    <tag k="place" v="locality"/>
    <tag k="source" v="Менде"/>
  </node>
  <node id="817363980" version="3" timestamp="2012-01-26T21:14:12Z" uid="384084" user="Kostik" changeset="10507299" lat="57.3445012" lon="37.514296">
    <tag k="name" v="Старово"/>
    <tag k="place" v="locality"/>
    <tag k="source" v="Менде"/>
  </node>
  <node id="817363982" version="1" timestamp="2010-07-14T15:48:00Z" uid="115477" user="wowik" changeset="5217955" lat="57.3421051" lon="37.58823">
    <tag k="name" v="Письяковка"/>
    <tag k="place" v="hamlet"/>
  </node>
  <node id="817363982" version="2" timestamp="2012-01-26T21:13:17Z" uid="384084" user="Kostik" changeset="10507299" lat="57.3421051" lon="37.58823">
    <tag k="name" v="Письяковка"/>
    <tag k="place" v="hamlet"/>
  </node>
  <node id="817363983" version="1" timestamp="2010-07-14T15:48:00Z" uid="115477" user="wowik" changeset="5217955" lat="57.3728455" lon="37.5574919"/>
  <node id="817363984" version="1" timestamp="2010-07-14T15:48:00Z" uid="115477" user="wowik" changeset="5217955" lat="57.4065901" lon="37.5342533">
    <tag k="name" v="Пучихино"/>
    <tag k="place" v="hamlet"/>
    <tag k="source" v="Менге"/>
  </node>
  <node id="817363984" version="2" timestamp="2010-11-22T15:38:35Z" uid="115477" user="wowik" changeset="6432391" lat="57.4065901" lon="37.5342533">
    <tag k="name" v="Пучихино"/>
    <tag k="place" v="hamlet"/>
    <tag k="source" v="Менде"/>
  </node>
  <node id="817363984" version="3" timestamp="2012-01-26T21:13:32Z" uid="384084" user="Kostik" changeset="10507299" lat="57.4065901" lon="37.5342533">
    <tag k="name" v="Пучихино"/>
    <tag k="place" v="hamlet"/>
    <tag k="source" v="Менде"/>
  </node>
  <node id="817363985" version="1" timestamp="2010-07-14T15:48:00Z" uid="115477" user="wowik" changeset="5217955" lat="57.356535" lon="37.5468604">
    <tag k="name" v="Путилово"/>
    <tag k="place" v="hamlet"/>
  </node>
  <node id="817363985" version="2" timestamp="2011-02-15T17:54:01Z" uid="115477" user="wowik" changeset="7297143" lat="57.3562164" lon="37.546732">
    <tag k="name" v="Путилово"/>
    <tag k="place" v="hamlet"/>
  </node>
  <node id="817363985" version="3" timestamp="2012-01-26T21:13:32Z" uid="384084" user="Kostik" changeset="10507299" lat="57.3562164" lon="37.546732">
    <tag k="name" v="Путилово"/>
    <tag k="place" v="hamlet"/>
  </node>
  <node id="817363986" version="1" timestamp="2010-07-14T15:48:00Z" uid="115477" user="wowik" changeset="5217955" lat="57.3634883" lon="37.5830347"/>
  <node id="817363986" version="2" timestamp="2010-11-23T12:40:23Z" uid="115477" user="wowik" changeset="6438744" lat="57.3634197" lon="37.5827524"/>
  <node id="817363987" version="1" timestamp="2010-07-14T15:48:00Z" uid="115477" user="wowik" changeset="5217955" lat="57.3411184" lon="37.6684326">
    <tag k="name" v="Фарафоновка"/>
    <tag k="place" v="hamlet"/>
    <tag k="source" v="Менге"/>
  </node>
  <node id="817363987" version="2" timestamp="2010-11-22T15:39:09Z" uid="115477" user="wowik" changeset="6432391" lat="57.3411184" lon="37.6684326">
    <tag k="name" v="Фарафоновка"/>
    <tag k="place" v="hamlet"/>
    <tag k="source" v="Менде"/>
  </node>
  <node id="817363987" version="3" timestamp="2012-01-26T21:14:36Z" uid="384084" user="Kostik" changeset="10507299" lat="57.3411184" lon="37.6684326">
    <tag k="name" v="Фарафоновка"/>
    <tag k="place" v="hamlet"/>
    <tag k="source" v="Менде"/>
  </node>
  <node id="817363989" version="1" timestamp="2010-07-14T15:48:00Z" uid="115477" user="wowik" changeset="5217955" lat="57.3679899" lon="37.5701914"/>
</osm>
