<?xml version='1.0' encoding='UTF-8'?>
<osm version="0.6" generator="libosmium/2.20.0">
  <node id="824813690" version="1" timestamp="2010-07-19T17:35:12Z" uid="115477" user="wowik" changeset="5263349" lat="57.5937767" lon="37.2788692">
    <tag k="name" v="Речной"/>
    <tag k="place" v="hamlet"/>
  </node>
  <node id="824813690" version="2" timestamp="2012-01-26T21:13:39Z" uid="384084" user="Kostik" changeset="10507299" lat="57.5937767" lon="37.2788692">
    <tag k="name" v="Речной"/>
    <tag k="place" v="hamlet"/>
  </node>
  <node id="824813694" version="1" timestamp="2010-07-19T17:35:12Z" uid="115477" user="wowik" changeset="5263349" lat="57.5885095" lon="37.2577548">
    <tag k="name" v="Хорышево"/>
    <tag k="place" v="hamlet"/>
    <tag k="source" v="Менде"/>
  </node>
  <node id="824813694" version="2" timestamp="2010-07-20T15:24:20Z" uid="115477" user="wowik" changeset="5271626" lat="57.589151" lon="37.2573558">
    <tag k="name" v="Хорышево"/>
    <tag k="place" v="hamlet"/>
    <tag k="source" v="Менде"/>
  </node>
  <node id="824813694" version="3" timestamp="2010-07-20T15:50:42Z" uid="115477" user="wowik" changeset="5271826" lat="57.5886693" lon="37.2575773">
    <tag k="name" v="Хорышево"/>
    <tag k="place" v="hamlet"/>
    <tag k="source" v="Менде"/>
  </node>
  <node id="824813694" version="4" timestamp="2012-01-26T21:14:43Z" uid="384084" user="Kostik" changeset="10507299" lat="57.5886693" lon="37.2575773">
    <tag k="name" v="Хорышево"/>
    <tag k="place" v="hamlet"/>
    <tag k="source" v="Менде"/>
  </node>
  <node id="824813698" version="1" timestamp="2010-07-19T17:35:12Z" uid="115477" user="wowik" changeset="5263349" lat="57.5871754" lon="37.2229505">
    <tag k="name" v="Захарьино"/>
    <tag k="place" v="hamlet"/>
    <tag k="source" v="Менде"/>
  </node>
  <node id="824813698" version="2" timestamp="2010-07-19T17:36:22Z" uid="115477" user="wowik" changeset="5263349" lat="57.5890616" lon="37.2271562">
    <tag k="name" v="Захарьино"/>
    <tag k="place" v="hamlet"/>
    <tag k="source" v="Менде"/>
  </node>
  <node id="824813698" version="3" timestamp="2010-07-19T17:42:28Z" uid="115477" user="wowik" changeset="5263349" lat="57.5845989" lon="37.2287011">
    <tag k="name" v="Захарьино"/>
    <tag k="place" v="hamlet"/>
  </node>
  <node id="824813698" version="4" timestamp="2012-01-26T21:11:23Z" uid="384084" user="Kostik" changeset="10507299" lat="57.5845989" lon="37.2287011">
    <tag k="name" v="Захарьино"/>
    <tag k="place" v="hamlet"/>
  </node>
  <node id="824813701" version="1" timestamp="2010-07-19T17:35:12Z" uid="115477" user="wowik" changeset="5263349" lat="57.5718519" lon="37.1996904">
    <tag k="name" v="Поцепы"/>
    <tag k="place" v="hamlet"/>
    <tag k="source" v="Менде"/>
  </node>
  <node id="824813701" version="2" timestamp="2010-07-20T13:49:01Z" uid="115477" user="wowik" changeset="5270864" lat="57.5723653" lon="37.2038396">
    <tag k="name" v="Поцепы"/>
    <tag k="place" v="hamlet"/>
    <tag k="source" v="Менде"/>
  </node>
  <node id="824813701" version="3" timestamp="2010-07-20T15:58:53Z" uid="115477" user="wowik" changeset="5271826" lat="57.5739678" lon="37.2017016">
    <tag k="name" v="Поцепы"/>
    <tag k="place" v="hamlet"/>
    <tag k="source" v="Менде"/>
  </node>
  <node id="824813701" version="4" timestamp="2012-01-26T21:13:27Z" uid="384084" user="Kostik" changeset="10507299" lat="57.5739678" lon="37.2017016">
    <tag k="name" v="Поцепы"/>
    <tag k="place" v="hamlet"/>
    <tag k="source" v="Менде"/>
  </node>
  <node id="824813703" version="1" timestamp="2010-07-19T17:35:12Z" uid="115477" user="wowik" changeset="5263349" lat="57.5688601" lon="37.2302461">
    <tag k="name" v="Чириково"/>
    <tag k="place" v="hamlet"/>
    <tag k="source" v="Менде"/>
  </node>
  <node id="824813703" version="2" timestamp="2010-07-19T17:36:22Z" uid="115477" user="wowik" changeset="5263349" lat="57.5693204" lon="37.2331643">
    <tag k="name" v="Чириково"/>
    <tag k="place" v="hamlet"/>
    <tag k="source" v="Менде"/>
  </node>
  <node id="824813703" version="3" timestamp="2012-01-26T21:15:05Z" uid="384084" user="Kostik" changeset="10507299" lat="57.5693204" lon="37.2331643">
    <tag k="name" v="Чириково"/>
    <tag k="place" v="hamlet"/>
    <tag k="source" v="Менде"/>
  </node>
  <node id="824813709" version="1" timestamp="2010-07-19T17:35:13Z" uid="115477" user="wowik" changeset="5263349" lat="57.6188371" lon="37.3101974">
    <tag k="name" v="Дягилево"/>
    <tag k="place" v="hamlet"/>
    <tag k="source" v="Менде"/>
  </node>
  <node id="824813709" version="2" timestamp="2010-07-20T13:40:34Z" uid="115477" user="wowik" changeset="5270787" lat="57.61857" lon="37.3092">
    <tag k="name" v="Дягилево"/>
    <tag k="place" v="hamlet"/>
    <tag k="source" v="Менде"/>
  </node>
  <node id="824813709" version="3" timestamp="2012-01-26T21:11:11Z" uid="384084" user="Kostik" changeset="10507299" lat="57.61857" lon="37.3092">
    <tag k="name" v="Дягилево"/>
    <tag k="place" v="hamlet"/>
    <tag k="source" v="Менде"/>
  </node>
  <node id="824813715" version="1" timestamp="2010-07-19T17:35:13Z" uid="115477" user="wowik" changeset="5263349" lat="57.6226292" lon="37.3061633">
    <tag k="name" v="Стрелки"/>
    <tag k="place" v="hamlet"/>
    <tag k="source" v="Менде"/>
  </node>
  <node id="824813715" version="2" timestamp="2010-07-20T13:40:35Z" uid="115477" user="wowik" changeset="5270787" lat="57.6226292" lon="37.3050662">
    <tag k="name" v="Стрелки"/>
    <tag k="place" v="hamlet"/>
    <tag k="source" v="Менде"/>
  </node>
  <node id="824813715" version="3" timestamp="2012-01-26T21:14:18Z" uid="384084" user="Kostik" changeset="10507299" lat="57.6226292" lon="37.3050662">
    <tag k="name" v="Стрелки"/>
    <tag k="place" v="hamlet"/>
    <tag k="source" v="Менде"/>
  </node>
  <node id="824813717" version="1" timestamp="2010-07-19T17:35:13Z" uid="115477" user="wowik" changeset="5263349" lat="57.5951336" lon="37.3086953">
    <tag k="name" v="Бубново"/>
    <tag k="place" v="hamlet"/>
    <tag k="source" v="Менде"/>
  </node>
  <node id="824813717" version="2" timestamp="2010-07-19T17:37:22Z" uid="115477" user="wowik" changeset="5263349" lat="57.5951336" lon="37.3086953">
    <tag k="name" v="Бубново"/>
    <tag k="place" v="suburb"/>
    <tag k="source" v="Менде"/>
  </node>
  <node id="824813717" version="3" timestamp="2010-07-20T13:47:55Z" uid="115477" user="wowik" changeset="5270854" lat="57.5951336" lon="37.3086953">
    <tag k="description" v="Вошло в состав Кесовой Горы"/>
    <tag k="name" v="Бубново"/>
    <tag k="place" v="locality"/>
    <tag k="source" v="Менде"/>
  </node>
  <node id="824813717" version="4" timestamp="2012-01-26T21:10:06Z" uid="384084" user="Kostik" changeset="10507299" lat="57.5951336" lon="37.3086953">
    <tag k="description" v="Вошло в состав Кесовой Горы"/>
    <tag k="name" v="Бубново"/>
    <tag k="place" v="locality"/>
    <tag k="source" v="Менде"/>
  </node>
  <node id="824813729" version="1" timestamp="2010-07-19T17:35:13Z" uid="115477" user="wowik" changeset="5263349" lat="57.5972494" lon="37.2716165">
    <tag k="name" v="Лукино"/>
    <tag k="place" v="hamlet"/>
    <tag k="source" v="Менде"/>
  </node>
  <node id="824813729" version="2" timestamp="2010-07-20T13:40:36Z" uid="115477" user="wowik" changeset="5270787" lat="57.5992269" lon="37.2640363">
    <tag k="name" v="Лукино"/>
    <tag k="place" v="hamlet"/>
    <tag k="source" v="Менде"/>
  </node>
  <node id="824813729" version="3" timestamp="2010-07-20T13:49:00Z" uid="115477" user="wowik" changeset="5270864" lat="57.5992269" lon="37.263398">
    <tag k="name" v="Лукино"/>
    <tag k="place" v="hamlet"/>
    <tag k="source" v="Менде"/>
  </node>
  <node id="824813729" version="4" timestamp="2010-07-20T15:50:41Z" uid="115477" user="wowik" changeset="5271826" lat="57.5980531" lon="37.2694649">
    <tag k="name" v="Лукино"/>
    <tag k="place" v="hamlet"/>
    <tag k="source" v="Менде"/>
  </node>
  <node id="824813729" version="5" timestamp="2012-01-26T21:12:25Z" uid="384084" user="Kostik" changeset="10507299" lat="57.5980531" lon="37.2694649">
    <tag k="name" v="Лукино"/>
    <tag k="place" v="hamlet"/>
    <tag k="source" v="Менде"/>
  </node>
  <node id="824813733" version="1" timestamp="2010-07-19T17:35:14Z" uid="115477" user="wowik" changeset="5263349" lat="57.5980543" lon="37.2824312">
    <tag k="name" v="Василисово"/>
    <tag k="place" v="hamlet"/>
    <tag k="source" v="Менде"/>
  </node>
  <node id="824813733" version="2" timestamp="2010-07-20T13:40:35Z" uid="115477" user="wowik" changeset="5270787" lat="57.599818" lon="37.2799377">
    <tag k="name" v="Василисово"/>
    <tag k="place" v="hamlet"/>
    <tag k="source" v="Менде"/>
  </node>
  <node id="824813733" version="3" timestamp="2010-07-20T13:49:00Z" uid="115477" user="wowik" changeset="5270864" lat="57.5993904" lon="37.2800973">
    <tag k="name" v="Василисово"/>
    <tag k="place" v="hamlet"/>
    <tag k="source" v="Менде"/>
  </node>
  <node id="824813733" version="4" timestamp="2010-07-20T15:50:41Z" uid="115477" user="wowik" changeset="5271826" lat="57.5981681" lon="37.2829832">
    <tag k="name" v="Василисово"/>
    <tag k="place" v="hamlet"/>
    <tag k="source" v="Менде"/>
  </node>
  <node id="824813733" version="5" timestamp="2012-01-26T21:10:13Z" uid="384084" user="Kostik" changeset="10507299" lat="57.5981681" lon="37.2829832">
    <tag k="name" v="Василисово"/>
    <tag k="place" v="hamlet"/>
    <tag k="source" v="Менде"/>
  </node>
  <node id="824813747" version="1" timestamp="2010-07-19T17:35:14Z" uid="115477" user="wowik" changeset="5263349" lat="57.6044927" lon="37.3147893">
    <tag k="name" v="Нешутконо"/>
    <tag k="place" v="hamlet"/>
    <tag k="source" v="Менде"/>
  </node>
  <node id="824813747" version="2" timestamp="2010-07-20T13:40:33Z" uid="115477" user="wowik" changeset="5270787" lat="57.6020345" lon="37.3150885">
    <tag k="name" v="Нешутконо"/>
    <tag k="place" v="hamlet"/>
    <tag k="source" v="Менде"/>
  </node>
  <node id="824813747" version="3" timestamp="2010-07-20T15:50:41Z" uid="115477" user="wowik" changeset="5271826" lat="57.6041926" lon="37.3149552">
    <tag k="name" v="Нешутконо"/>
    <tag k="place" v="hamlet"/>
    <tag k="source" v="Менде"/>
  </node>
  <node id="824813747" version="4" timestamp="2010-07-21T11:55:09Z" uid="115477" user="wowik" changeset="5278278" lat="57.6041927" lon="37.3149551">
    <tag k="name" v="Нешуткино"/>
    <tag k="place" v="hamlet"/>
    <tag k="source" v="Менде"/>
  </node>
  <node id="824813747" version="5" timestamp="2012-01-26T21:12:53Z" uid="384084" user="Kostik" changeset="10507299" lat="57.6041927" lon="37.3149551">
    <tag k="name" v="Нешуткино"/>
    <tag k="place" v="hamlet"/>
    <tag k="source" v="Менде"/>
  </node>
  <node id="824813751" version="1" timestamp="2010-07-19T17:35:14Z" uid="115477" user="wowik" changeset="5263349" lat="57.6106312" lon="37.3292518">
    <tag k="name" v="Фролово"/>
    <tag k="place" v="hamlet"/>
    <tag k="source" v="Менде"/>
  </node>
  <node id="824813751" version="2" timestamp="2012-01-26T21:14:40Z" uid="384084" user="Kostik" changeset="10507299" lat="57.6106312" lon="37.3292518">
    <tag k="name" v="Фролово"/>
    <tag k="place" v="hamlet"/>
    <tag k="source" v="Менде"/>
  </node>
  <node id="824813752" version="1" timestamp="2010-07-19T17:35:14Z" uid="115477" user="wowik" changeset="5263349" lat="57.6121484" lon="37.340796">
    <tag k="name" v="Бычково"/>
    <tag k="place" v="hamlet"/>
    <tag k="source" v="Менде"/>
  </node>
  <node id="824813752" version="2" timestamp="2010-07-20T13:40:36Z" uid="115477" user="wowik" changeset="5270787" lat="57.6126826" lon="37.3399981">
    <tag k="name" v="Бычково"/>
    <tag k="place" v="hamlet"/>
    <tag k="source" v="Менде"/>
  </node>
  <node id="824813752" version="3" timestamp="2010-07-20T15:50:41Z" uid="115477" user="wowik" changeset="5271826" lat="57.612377" lon="37.3401036">
    <tag k="name" v="Бычково"/>
    <tag k="place" v="hamlet"/>
    <tag k="source" v="Менде"/>
  </node>
  <node id="824813752" version="4" timestamp="2012-01-26T21:10:11Z" uid="384084" user="Kostik" changeset="10507299" lat="57.612377" lon="37.3401036">
    <tag k="name" v="Бычково"/>
    <tag k="place" v="hamlet"/>
    <tag k="source" v="Менде"/>
  </node>
  <node id="824813754" version="1" timestamp="2010-07-19T17:35:15Z" uid="115477" user="wowik" changeset="5263349" lat="57.626191" lon="37.3222995">
    <tag k="name" v="Петровское"/>
    <tag k="place" v="hamlet"/>
    <tag k="source" v="Менде"/>
  </node>
  <node id="824813754" version="2" timestamp="2010-07-20T13:40:36Z" uid="115477" user="wowik" changeset="5270787" lat="57.6266716" lon="37.3219005">
    <tag k="name" v="Петровское"/>
    <tag k="place" v="hamlet"/>
    <tag k="source" v="Менде"/>
  </node>
  <node id="824813754" version="3" timestamp="2010-07-21T10:38:05Z" uid="115477" user="wowik" changeset="5277764" lat="57.6259846" lon="37.32236">
    <tag k="name" v="Петровское"/>
    <tag k="place" v="hamlet"/>
    <tag k="source" v="Менде"/>
  </node>
  <node id="824813754" version="4" timestamp="2012-01-26T21:13:17Z" uid="384084" user="Kostik" changeset="10507299" lat="57.6259846" lon="37.32236">
    <tag k="name" v="Петровское"/>
    <tag k="place" v="hamlet"/>
    <tag k="source" v="Менде"/>
  </node>
</osm>
