<?xml version='1.0' encoding='UTF-8'?>
<osm version="0.6" generator="libosmium/2.20.0">
  <node id="824828023" version="1" timestamp="2010-07-19T17:49:16Z" uid="115477" user="wowik" changeset="5263458" lat="57.5510524" lon="37.3978049">
    <tag k="name" v="Галибино"/>
    <tag k="place" v="hamlet"/>
    <tag k="source" v="Менге"/>
  </node>
  <node id="824828023" version="2" timestamp="2010-11-22T15:38:58Z" uid="115477" user="wowik" changeset="6432391" lat="57.5510524" lon="37.3978049">
    <tag k="name" v="Галибино"/>
    <tag k="place" v="hamlet"/>
    <tag k="source" v="Менде"/>
  </node>
  <node id="824828023" version="3" timestamp="2012-01-26T21:10:36Z" uid="384084" user="Kostik" changeset="10507299" lat="57.5510524" lon="37.3978049">
    <tag k="name" v="Галибино"/>
    <tag k="place" v="hamlet"/>
    <tag k="source" v="Менде"/>
  </node>
  <node id="824829424" version="2" timestamp="2010-07-29T09:11:49Z" uid="74617" user="JohnSmith" changeset="5344848" lat="39.1950644" lon="-0.4121013">
    <tag k="amenity" v="emergency_phone"/>
    <tag k="emergency" v="phone"/>
  </node>
  <node id="824829430" version="2" timestamp="2010-07-29T09:24:41Z" uid="74617" user="JohnSmith" changeset="5344848" lat="39.1948566" lon="-0.4125948">
    <tag k="amenity" v="emergency_phone"/>
    <tag k="emergency" v="phone"/>
  </node>
</osm>
