<?xml version='1.0' encoding='UTF-8'?>
<osm version="0.6" generator="libosmium/2.20.0">
  <node id="825840883" version="3" timestamp="2011-01-25T12:39:31Z" uid="115477" user="wowik" changeset="7083203" lat="55.8595218" lon="37.4368169">
    <tag k="building" v="entrance"/>
    <tag k="name" v="Планерная"/>
    <tag k="railway" v="subway_entrance"/>
  </node>
  <node id="825840883" version="4" timestamp="2011-10-12T19:04:36Z" uid="29320" user="Komяpa" changeset="9541529" lat="55.8595218" lon="37.4368169">
    <tag k="entrance" v="yes"/>
    <tag k="name" v="Планерная"/>
    <tag k="railway" v="subway_entrance"/>
  </node>
  <node id="825840883" version="5" timestamp="2011-10-12T21:37:11Z" uid="290271" user="Zverik" changeset="9542972" lat="55.8595218" lon="37.4368169">
    <tag k="building" v="entrance"/>
    <tag k="name" v="Планерная"/>
    <tag k="railway" v="subway_entrance"/>
  </node>
  <node id="825840883" version="6" timestamp="2012-03-28T06:27:46Z" uid="481934" user="iWowik" changeset="11123401" lat="55.8595218" lon="37.4368169">
    <tag k="addr:city" v="Москва"/>
    <tag k="addr:country" v="RU"/>
    <tag k="building" v="entrance"/>
    <tag k="name" v="Планерная"/>
    <tag k="railway" v="subway_entrance"/>
  </node>
  <node id="825843509" version="2" timestamp="2010-07-28T20:04:39Z" uid="74617" user="JohnSmith" changeset="5339329" lat="47.971862" lon="6.7416919">
    <tag k="emergency" v="fire_hydrant"/>
  </node>
  <node id="825843509" version="3" timestamp="2010-07-30T17:38:57Z" uid="74617" user="JohnSmith" changeset="5356742" lat="47.971862" lon="6.7416919">
    <tag k="amenity" v="fire_hydrant"/>
    <tag k="emergency" v="fire_hydrant"/>
  </node>
  <node id="825843509" version="4" timestamp="2010-10-11T18:23:23Z" uid="26348" user="Rodolphe Quiédeville" changeset="6014374" lat="47.971862" lon="6.7416919">
    <tag k="emergency" v="fire_hydrant"/>
  </node>
  <node id="825843509" version="5" timestamp="2010-10-19T08:50:35Z" uid="26348" user="Rodolphe Quiédeville" changeset="6094638" lat="47.971862" lon="6.7416919">
    <tag k="amenity" v="fire_hydrant"/>
    <tag k="emergency" v="fire_hydrant"/>
  </node>
  <node id="825843509" version="6" timestamp="2012-03-06T19:03:33Z" uid="11374" user="q_un_go" changeset="10893281" lat="47.971862" lon="6.7416919"/>
</osm>
