<?xml version='1.0' encoding='UTF-8'?>
<osm version="0.6" generator="libosmium/2.20.0">
  <node id="826443261" version="1" timestamp="2010-07-20T17:23:04Z" uid="115477" user="wowik" changeset="5272539" lat="57.5483802" lon="37.1798601">
    <tag k="name" v="Столбово"/>
    <tag k="place" v="hamlet"/>
    <tag k="source" v="Менде"/>
  </node>
  <node id="826443261" version="2" timestamp="2010-07-20T18:19:07Z" uid="115477" user="wowik" changeset="5272947" lat="57.5486717" lon="37.1792565">
    <tag k="name" v="Столбово"/>
    <tag k="place" v="hamlet"/>
    <tag k="source" v="Менде"/>
  </node>
  <node id="826443261" version="3" timestamp="2012-01-26T21:14:17Z" uid="384084" user="Kostik" changeset="10507299" lat="57.5486717" lon="37.1792565">
    <tag k="name" v="Столбово"/>
    <tag k="place" v="hamlet"/>
    <tag k="source" v="Менде"/>
  </node>
  <node id="826443265" version="1" timestamp="2010-07-20T17:23:04Z" uid="115477" user="wowik" changeset="5272539" lat="57.5093927" lon="37.2335229">
    <tag k="name" v="Курдемово"/>
    <tag k="place" v="hamlet"/>
    <tag k="source" v="Менде"/>
  </node>
  <node id="826443265" version="2" timestamp="2010-11-22T15:38:47Z" uid="115477" user="wowik" changeset="6432391" lat="57.5093927" lon="37.2343835">
    <tag k="name" v="Курдумово"/>
    <tag k="old_name" v="Курдемово"/>
    <tag k="place" v="locality"/>
    <tag k="source" v="Менде"/>
  </node>
  <node id="826443265" version="3" timestamp="2012-01-26T21:12:11Z" uid="384084" user="Kostik" changeset="10507299" lat="57.5093927" lon="37.2343835">
    <tag k="name" v="Курдумово"/>
    <tag k="old_name" v="Курдемово"/>
    <tag k="place" v="locality"/>
    <tag k="source" v="Менде"/>
  </node>
  <node id="826443270" version="1" timestamp="2010-07-20T17:23:04Z" uid="115477" user="wowik" changeset="5272539" lat="57.4759924" lon="37.3024641"/>
  <node id="826443270" version="2" timestamp="2010-07-20T18:01:36Z" uid="115477" user="wowik" changeset="5272831" lat="57.4759924" lon="37.3015587"/>
  <node id="826443270" version="3" timestamp="2010-11-24T17:00:44Z" uid="115477" user="wowik" changeset="6446894" lat="57.4757526" lon="37.3009412"/>
  <node id="826443274" version="1" timestamp="2010-07-20T17:23:04Z" uid="115477" user="wowik" changeset="5272539" lat="57.4821274" lon="37.294542"/>
  <node id="826443274" version="2" timestamp="2010-07-20T18:01:26Z" uid="115477" user="wowik" changeset="5272831" lat="57.4808295" lon="37.2919013"/>
  <node id="826443277" version="1" timestamp="2010-07-20T17:23:04Z" uid="115477" user="wowik" changeset="5272539" lat="57.4796431" lon="37.2943534"/>
  <node id="826443277" version="2" timestamp="2010-07-20T18:01:32Z" uid="115477" user="wowik" changeset="5272831" lat="57.478548" lon="37.2926181"/>
  <node id="826443281" version="1" timestamp="2010-07-20T17:23:04Z" uid="115477" user="wowik" changeset="5272539" lat="57.4211821" lon="37.2815053"/>
  <node id="826443291" version="1" timestamp="2010-07-20T17:23:04Z" uid="115477" user="wowik" changeset="5272539" lat="57.4899847" lon="37.3186856"/>
  <node id="826443292" version="1" timestamp="2010-07-20T17:23:04Z" uid="115477" user="wowik" changeset="5272539" lat="57.506201" lon="37.2690781">
    <tag k="name" v="Горки"/>
    <tag k="place" v="hamlet"/>
    <tag k="source" v="Менде"/>
  </node>
  <node id="826443292" version="2" timestamp="2010-07-20T18:01:37Z" uid="115477" user="wowik" changeset="5272831" lat="57.5136986" lon="37.2718697">
    <tag k="name" v="Завидово"/>
    <tag k="place" v="hamlet"/>
    <tag k="source" v="Менде"/>
  </node>
  <node id="826443292" version="3" timestamp="2010-11-22T15:38:55Z" uid="115477" user="wowik" changeset="6432391" lat="57.5136986" lon="37.2718697">
    <tag k="name" v="Завидово"/>
    <tag k="place" v="suburb"/>
    <tag k="source" v="Менде"/>
  </node>
  <node id="826443292" version="4" timestamp="2012-01-26T21:11:18Z" uid="384084" user="Kostik" changeset="10507299" lat="57.5136986" lon="37.2718697">
    <tag k="name" v="Завидово"/>
    <tag k="place" v="suburb"/>
    <tag k="source" v="Менде"/>
  </node>
  <node id="826443294" version="1" timestamp="2010-07-20T17:23:04Z" uid="115477" user="wowik" changeset="5272539" lat="57.5379539" lon="37.2098509">
    <tag k="name" v="Каюшево"/>
    <tag k="place" v="hamlet"/>
    <tag k="source" v="Менде"/>
  </node>
  <node id="826443294" version="2" timestamp="2012-01-26T21:11:41Z" uid="384084" user="Kostik" changeset="10507299" lat="57.5379539" lon="37.2098509">
    <tag k="name" v="Каюшево"/>
    <tag k="place" v="hamlet"/>
    <tag k="source" v="Менде"/>
  </node>
  <node id="826443298" version="1" timestamp="2010-07-20T17:23:04Z" uid="115477" user="wowik" changeset="5272539" lat="57.4864872" lon="37.2923729"/>
  <node id="826443298" version="2" timestamp="2010-07-20T18:01:37Z" uid="115477" user="wowik" changeset="5272831" lat="57.4864466" lon="37.2895813"/>
  <node id="826443301" version="1" timestamp="2010-07-20T17:23:04Z" uid="115477" user="wowik" changeset="5272539" lat="57.4706172" lon="37.3016153"/>
  <node id="826443301" version="2" timestamp="2010-11-24T17:00:55Z" uid="115477" user="wowik" changeset="6446894" lat="57.4706172" lon="37.3016153"/>
  <node id="826443324" version="1" timestamp="2010-07-20T17:23:04Z" uid="115477" user="wowik" changeset="5272539" lat="57.4744712" lon="37.2950136"/>
  <node id="826443325" version="1" timestamp="2010-07-20T17:23:05Z" uid="115477" user="wowik" changeset="5272539" lat="57.4892244" lon="37.3111407"/>
  <node id="826443325" version="2" timestamp="2010-07-20T18:01:37Z" uid="115477" user="wowik" changeset="5272831" lat="57.4871157" lon="37.3123479"/>
  <node id="826443328" version="1" timestamp="2010-07-20T17:23:05Z" uid="115477" user="wowik" changeset="5272539" lat="57.5208401" lon="37.2516306">
    <tag k="name" v="Растригино"/>
    <tag k="place" v="hamlet"/>
    <tag k="source" v="Менде"/>
  </node>
  <node id="826443328" version="2" timestamp="2012-01-26T21:13:37Z" uid="384084" user="Kostik" changeset="10507299" lat="57.5208401" lon="37.2516306">
    <tag k="name" v="Растригино"/>
    <tag k="place" v="hamlet"/>
    <tag k="source" v="Менде"/>
  </node>
  <node id="826443332" version="1" timestamp="2010-07-20T17:23:05Z" uid="115477" user="wowik" changeset="5272539" lat="57.5342077" lon="37.3386795">
    <tag k="name" v="Звездино"/>
    <tag k="place" v="hamlet"/>
    <tag k="source" v="Менде"/>
  </node>
  <node id="826443332" version="2" timestamp="2012-01-26T21:11:24Z" uid="384084" user="Kostik" changeset="10507299" lat="57.5342077" lon="37.3386795">
    <tag k="name" v="Звездино"/>
    <tag k="place" v="hamlet"/>
    <tag k="source" v="Менде"/>
  </node>
  <node id="826443337" version="1" timestamp="2010-07-20T17:23:05Z" uid="115477" user="wowik" changeset="5272539" lat="57.4916574" lon="37.3308517"/>
  <node id="826443341" version="1" timestamp="2010-07-20T17:23:05Z" uid="115477" user="wowik" changeset="5272539" lat="57.4720878" lon="37.2942591"/>
  <node id="826443362" version="1" timestamp="2010-07-20T17:23:05Z" uid="115477" user="wowik" changeset="5272539" lat="57.4849664" lon="37.3049162"/>
  <node id="826443362" version="2" timestamp="2010-07-20T18:01:36Z" uid="115477" user="wowik" changeset="5272831" lat="57.4842769" lon="37.303709"/>
  <node id="826443364" version="1" timestamp="2010-07-20T17:23:05Z" uid="115477" user="wowik" changeset="5272539" lat="57.5384601" lon="37.2938818">
    <tag k="name" v="Гущино"/>
    <tag k="place" v="hamlet"/>
    <tag k="source" v="Менде"/>
  </node>
  <node id="826443364" version="2" timestamp="2010-07-20T18:17:28Z" uid="115477" user="wowik" changeset="5272931" lat="57.538486" lon="37.2946061">
    <tag k="name" v="Гущино"/>
    <tag k="place" v="hamlet"/>
    <tag k="source" v="Менде"/>
  </node>
  <node id="826443364" version="3" timestamp="2012-01-26T21:10:52Z" uid="384084" user="Kostik" changeset="10507299" lat="57.538486" lon="37.2946061">
    <tag k="name" v="Гущино"/>
    <tag k="place" v="hamlet"/>
    <tag k="source" v="Менде"/>
  </node>
  <node id="826443368" version="1" timestamp="2010-07-20T17:23:05Z" uid="115477" user="wowik" changeset="5272539" lat="57.4684477" lon="37.2934198"/>
  <node id="826443368" version="2" timestamp="2010-11-24T17:00:52Z" uid="115477" user="wowik" changeset="6446894" lat="57.4681494" lon="37.2930692"/>
  <node id="826443370" version="1" timestamp="2010-07-20T17:23:05Z" uid="115477" user="wowik" changeset="5272539" lat="57.5195234" lon="37.2886947">
    <tag k="name" v="Поповка"/>
    <tag k="place" v="hamlet"/>
    <tag k="source" v="Менде"/>
  </node>
  <node id="826443370" version="2" timestamp="2010-07-20T18:01:36Z" uid="115477" user="wowik" changeset="5272831" lat="57.5182268" lon="37.2874876">
    <tag k="name" v="Поповка"/>
    <tag k="place" v="hamlet"/>
    <tag k="source" v="Менде"/>
  </node>
  <node id="826443370" version="3" timestamp="2012-01-26T21:13:25Z" uid="384084" user="Kostik" changeset="10507299" lat="57.5182268" lon="37.2874876">
    <tag k="name" v="Поповка"/>
    <tag k="place" v="hamlet"/>
    <tag k="source" v="Менде"/>
  </node>
  <node id="826443377" version="1" timestamp="2010-07-20T17:23:05Z" uid="115477" user="wowik" changeset="5272539" lat="57.4802008" lon="37.3014267"/>
  <node id="826443377" version="2" timestamp="2010-07-20T18:01:38Z" uid="115477" user="wowik" changeset="5272831" lat="57.4801603" lon="37.3000686"/>
  <node id="826443378" version="1" timestamp="2010-07-20T17:23:05Z" uid="115477" user="wowik" changeset="5272539" lat="57.4841553" lon="37.2936932"/>
  <node id="826443378" version="2" timestamp="2010-07-20T18:01:32Z" uid="115477" user="wowik" changeset="5272831" lat="57.4829386" lon="37.2905244"/>
  <node id="826443404" version="1" timestamp="2010-07-20T17:23:06Z" uid="115477" user="wowik" changeset="5272539" lat="57.5409403" lon="37.3193457">
    <tag k="name" v="Елисеево"/>
    <tag k="place" v="hamlet"/>
    <tag k="source" v="Менде"/>
  </node>
  <node id="826443404" version="2" timestamp="2010-07-20T18:17:29Z" uid="115477" user="wowik" changeset="5272931" lat="57.5409922" lon="37.3214221">
    <tag k="name" v="Елисеево"/>
    <tag k="place" v="hamlet"/>
    <tag k="source" v="Менде"/>
  </node>
  <node id="826443404" version="3" timestamp="2012-01-26T21:11:13Z" uid="384084" user="Kostik" changeset="10507299" lat="57.5409922" lon="37.3214221">
    <tag k="name" v="Елисеево"/>
    <tag k="place" v="hamlet"/>
    <tag k="source" v="Менде"/>
  </node>
  <node id="826443409" version="1" timestamp="2010-07-20T17:23:06Z" uid="115477" user="wowik" changeset="5272539" lat="57.4670476" lon="37.2961314"/>
  <node id="826443414" version="1" timestamp="2010-07-20T17:23:06Z" uid="115477" user="wowik" changeset="5272539" lat="57.427344" lon="37.2803731"/>
  <node id="826443418" version="1" timestamp="2010-07-20T17:23:06Z" uid="115477" user="wowik" changeset="5272539" lat="57.4957626" lon="37.2784149">
    <tag k="name" v="Быково"/>
    <tag k="place" v="hamlet"/>
    <tag k="source" v="Менде"/>
  </node>
  <node id="826443418" version="2" timestamp="2012-01-26T21:10:11Z" uid="384084" user="Kostik" changeset="10507299" lat="57.4957626" lon="37.2784149">
    <tag k="name" v="Быково"/>
    <tag k="place" v="hamlet"/>
    <tag k="source" v="Менде"/>
  </node>
</osm>
