<?xml version='1.0' encoding='UTF-8'?>
<osm version="0.6" generator="libosmium/2.20.0">
  <node id="827273342" version="1" timestamp="2010-07-21T09:49:46Z" uid="115477" user="wowik" changeset="5277446" lat="56.0662705" lon="37.0963206">
    <tag k="name" v="Шишовка"/>
    <tag k="place" v="hamlet"/>
  </node>
  <node id="827273342" version="2" timestamp="2010-11-13T06:14:06Z" uid="313900" user="Stud555" changeset="6355995" lat="56.0662705" lon="37.0963206">
    <tag k="addr:country" v="RU"/>
    <tag k="addr:district" v="Истринский район"/>
    <tag k="addr:region" v="Московская область"/>
    <tag k="name" v="Шишовка"/>
    <tag k="place" v="hamlet"/>
  </node>
  <node id="827278170" version="1" timestamp="2010-07-21T09:55:03Z" uid="115477" user="wowik" changeset="5277489" lat="56.0550249" lon="37.12068">
    <tag k="barrier" v="gate"/>
  </node>
  <node id="827278170" version="2" timestamp="2012-02-26T10:22:17Z" uid="384084" user="Kostik" changeset="10796233" lat="56.0550249" lon="37.12068">
    <tag k="barrier" v="gate"/>
  </node>
</osm>
