<?xml version='1.0' encoding='UTF-8'?>
<osm version="0.6" generator="libosmium/2.20.0">
  <node id="830723403" version="1" timestamp="2010-07-24T01:05:59Z" uid="20587" user="balrog-kun" changeset="5300182" lat="52.4088441" lon="16.938628">
    <tag k="shop" v="supermarket"/>
  </node>
  <node id="830723403" version="2" timestamp="2011-09-09T17:47:29Z" uid="91056" user="Yarl" changeset="9256309" lat="52.4087688" lon="16.9384517">
    <tag k="FIXME" v="dodać nazwę"/>
    <tag k="shop" v="supermarket"/>
  </node>
  <node id="830723406" version="1" timestamp="2010-07-24T01:05:59Z" uid="20587" user="balrog-kun" changeset="5300182" lat="52.4091254" lon="16.938457">
    <tag k="amenity" v="fast_food"/>
    <tag k="cuisine" v="portuguese"/>
    <tag k="name" v="A casita"/>
  </node>
  <node id="830723406" version="2" timestamp="2011-09-09T17:47:25Z" uid="91056" user="Yarl" changeset="9256309" lat="52.4092741" lon="16.9384483">
    <tag k="amenity" v="fast_food"/>
    <tag k="cuisine" v="portuguese"/>
    <tag k="name" v="A casita"/>
  </node>
</osm>
