<?xml version='1.0' encoding='UTF-8'?>
<osm version="0.6" generator="libosmium/2.20.0">
  <node id="834922889" version="2" timestamp="2010-10-05T01:34:43Z" uid="20587" user="balrog-kun" changeset="5958352" lat="50.078678" lon="19.9714759">
    <tag k="addr:city" v="Kraków"/>
    <tag k="addr:housenumber" v="37"/>
    <tag k="addr:street" v="Pilotów"/>
    <tag k="amenity" v="bank"/>
    <tag k="millennium:date" v="2009-09-14 14:49:45"/>
    <tag k="millennium:ref" v="20773"/>
    <tag k="millennium:usługi" v="Millennium"/>
    <tag k="name" v="Millennium Bank"/>
    <tag k="opening_hours" v="10.00-18.00 Mo-Fr"/>
  </node>
  <node id="834922889" version="3" timestamp="2012-03-22T12:47:26Z" uid="452548" user="yerry_b" changeset="11062487" lat="50.078678" lon="19.9714759"/>
  <node id="834922893" version="2" timestamp="2010-10-05T01:35:31Z" uid="20587" user="balrog-kun" changeset="5958352" lat="50.0786696" lon="19.9713811">
    <tag k="addr:city" v="Kraków"/>
    <tag k="addr:housenumber" v="37"/>
    <tag k="addr:street" v="Pilotów"/>
    <tag k="amenity" v="atm"/>
    <tag k="atm_ref" v="MBPL548A"/>
    <tag k="millennium:date" v="2009-05-21 17:13:02"/>
    <tag k="millennium:network" v="Millennium"/>
    <tag k="millennium:ref" v="18435"/>
    <tag k="millennium:subtype" v="Euronet"/>
    <tag k="name" v="Bankomat Millennium"/>
    <tag k="operator" v="Euronet Sp. z o.o."/>
  </node>
  <node id="834922893" version="3" timestamp="2012-03-23T18:36:27Z" uid="452548" user="yerry_b" changeset="11076779" lat="50.0786591" lon="19.9714597">
    <tag k="addr:city" v="Kraków"/>
    <tag k="addr:housenumber" v="37"/>
    <tag k="addr:street" v="Pilotów"/>
    <tag k="amenity" v="atm"/>
    <tag k="atm_ref" v="MBPL548A"/>
    <tag k="millennium:date" v="2009-05-21 17:13:02"/>
    <tag k="millennium:network" v="Millennium"/>
    <tag k="millennium:ref" v="18435"/>
    <tag k="millennium:subtype" v="Euronet"/>
    <tag k="name" v="Bankomat Millennium"/>
    <tag k="operator" v="Euronet Sp. z o.o."/>
  </node>
</osm>
