<?xml version='1.0' encoding='UTF-8'?>
<osm version="0.6" generator="libosmium/2.20.0">
  <node id="841475473" version="1" timestamp="2010-08-01T06:27:38Z" uid="18775" user="drlizau" changeset="5367889" lat="-32.7243666" lon="148.1912087">
    <tag k="amenity" v="licensed_club"/>
    <tag k="name" v="Peak Hill Ex-Services &amp; Citizens Club"/>
  </node>
  <node id="841475476" version="1" timestamp="2010-08-01T06:27:38Z" uid="18775" user="drlizau" changeset="5367889" lat="-32.7270592" lon="148.192332">
    <tag k="name" v="Peak Hill Hardware"/>
    <tag k="shop" v="hardware"/>
  </node>
  <node id="841475478" version="1" timestamp="2010-08-01T06:27:38Z" uid="18775" user="drlizau" changeset="5367889" lat="-33.1221786" lon="148.1744086">
    <tag k="amenity" v="restaurant"/>
    <tag k="name" v="Marty&apos;s Restaurant"/>
  </node>
  <node id="841475481" version="1" timestamp="2010-08-01T06:27:38Z" uid="18775" user="drlizau" changeset="5367889" lat="-32.7214486" lon="148.1893948">
    <tag k="name" v="Peak Hill Golden Peak Motel"/>
    <tag k="operator" v="Budget"/>
    <tag k="tourism" v="motel"/>
  </node>
  <node id="841475483" version="1" timestamp="2010-08-01T06:27:38Z" uid="18775" user="drlizau" changeset="5367889" lat="-33.120183" lon="148.1756027">
    <tag k="tourism" v="motel"/>
  </node>
  <node id="841475486" version="1" timestamp="2010-08-01T06:27:38Z" uid="18775" user="drlizau" changeset="5367889" lat="-33.1360553" lon="148.1734132">
    <tag k="name" v="Coles"/>
    <tag k="shop" v="supermarket"/>
  </node>
  <node id="841475488" version="1" timestamp="2010-08-01T06:27:38Z" uid="18775" user="drlizau" changeset="5367889" lat="-33.1211989" lon="148.174751">
    <tag k="name" v="Elvis Museum"/>
    <tag k="tourism" v="museum"/>
  </node>
  <node id="841475490" version="1" timestamp="2010-08-01T06:27:38Z" uid="18775" user="drlizau" changeset="5367889" lat="-32.7259293" lon="148.1918967">
    <tag k="amenity" v="pub"/>
    <tag k="name" v="Club House Hotel"/>
  </node>
  <node id="841475492" version="1" timestamp="2010-08-01T06:27:38Z" uid="18775" user="drlizau" changeset="5367889" lat="-32.7320741" lon="148.1948012">
    <tag k="amenity" v="school"/>
    <tag k="name" v="St Joseph&apos;s Primary School"/>
  </node>
  <node id="841475495" version="1" timestamp="2010-08-01T06:27:38Z" uid="18775" user="drlizau" changeset="5367889" lat="-33.1361045" lon="148.1731815">
    <tag k="amenity" v="telephone"/>
  </node>
  <node id="841475496" version="1" timestamp="2010-08-01T06:27:39Z" uid="18775" user="drlizau" changeset="5367889" lat="-32.730882" lon="148.1942149">
    <tag k="amenity" v="place_of_worship"/>
    <tag k="denomination" v="catholic"/>
    <tag k="name" v="St James&apos; Catholic Church"/>
    <tag k="religion" v="christian"/>
  </node>
  <node id="841475499" version="1" timestamp="2010-08-01T06:27:39Z" uid="18775" user="drlizau" changeset="5367889" lat="-33.1416536" lon="148.1713227">
    <tag k="amenity" v="fast_food"/>
    <tag k="cuisine" v="chicken"/>
    <tag k="name" v="KFC"/>
  </node>
  <node id="841475501" version="1" timestamp="2010-08-01T06:27:39Z" uid="18775" user="drlizau" changeset="5367889" lat="-33.1222105" lon="148.174311">
    <tag k="leisure" v="swimming_pool"/>
    <tag k="name" v="Country Comfort Parkes"/>
    <tag k="tourism" v="motel"/>
  </node>
  <node id="841475507" version="1" timestamp="2010-08-01T06:27:39Z" uid="18775" user="drlizau" changeset="5367889" lat="-33.1290466" lon="148.1737979">
    <tag k="addr:housenumber" v="54"/>
    <tag k="addr:street" v="Mitchell Street"/>
    <tag k="name" v="Broderick Motors"/>
    <tag k="operator" v="Holden"/>
    <tag k="shop" v="car"/>
  </node>
  <node id="841475508" version="1" timestamp="2010-08-01T06:27:39Z" uid="18775" user="drlizau" changeset="5367889" lat="-32.7280259" lon="148.1927974">
    <tag k="amenity" v="fuel"/>
    <tag k="fuel:diesel" v="no"/>
    <tag k="fuel:octane_91" v="yes"/>
    <tag k="name" v="Red Spot"/>
  </node>
  <node id="841475510" version="1" timestamp="2010-08-01T06:27:39Z" uid="18775" user="drlizau" changeset="5367889" lat="-33.1245224" lon="148.1736484">
    <tag k="name" v="Bushman&apos;s Motor Inn"/>
    <tag k="tourism" v="motel"/>
  </node>
  <node id="841475513" version="1" timestamp="2010-08-01T06:27:39Z" uid="18775" user="drlizau" changeset="5367889" lat="-33.1229734" lon="148.1743149">
    <tag k="amenity" v="fuel"/>
    <tag k="fuel:diesel" v="yes"/>
    <tag k="fuel:lpg" v="yes"/>
    <tag k="fuel:octane_91" v="yes"/>
    <tag k="fuel:octane_95" v="no"/>
    <tag k="operator" v="Shell"/>
    <tag k="shop" v="kiosk"/>
  </node>
  <node id="841475519" version="1" timestamp="2010-08-01T06:27:40Z" uid="18775" user="drlizau" changeset="5367889" lat="-33.1269399" lon="148.1737058">
    <tag k="name" v="Best Western Parkes"/>
    <tag k="tourism" v="motel"/>
  </node>
  <node id="841475520" version="1" timestamp="2010-08-01T06:27:40Z" uid="18775" user="drlizau" changeset="5367889" lat="-33.1373844" lon="148.1732733">
    <tag k="name" v="Terry Bros"/>
    <tag k="shop" v="furniture"/>
  </node>
  <node id="841475521" version="1" timestamp="2010-08-01T06:27:40Z" uid="18775" user="drlizau" changeset="5367889" lat="-33.121803" lon="148.1744048">
    <tag k="name" v="The Spanish Lantern Motor Inn"/>
    <tag k="tourism" v="motel"/>
  </node>
  <node id="841475529" version="1" timestamp="2010-08-01T06:27:40Z" uid="18775" user="drlizau" changeset="5367889" lat="-33.1350783" lon="148.1731909">
    <tag k="emergency" v="ambulance"/>
  </node>
  <node id="841475529" version="2" timestamp="2010-08-13T09:50:12Z" uid="4467" user="Rosscoe" changeset="5480326" lat="-33.1350783" lon="148.1731909">
    <tag k="emergency" v="ambulance_station"/>
  </node>
  <node id="841475530" version="1" timestamp="2010-08-01T06:27:40Z" uid="18775" user="drlizau" changeset="5367889" lat="-33.1417516" lon="148.1710141">
    <tag k="amenity" v="fast_food"/>
    <tag k="cuisine" v="burger"/>
    <tag k="name" v="McDonalds"/>
  </node>
  <node id="841475531" version="1" timestamp="2010-08-01T06:27:40Z" uid="18775" user="drlizau" changeset="5367889" lat="-33.1245549" lon="148.1744372">
    <tag k="name" v="Parkes International Comfort Inn"/>
    <tag k="tourism" v="motel"/>
  </node>
  <node id="841476973" version="1" timestamp="2010-08-01T06:29:32Z" uid="33382" user="de_muur" changeset="5367898" lat="52.952697" lon="9.191193"/>
  <node id="841476973" version="2" timestamp="2012-03-04T23:00:05Z" uid="57645" user="KartoGrapHiti" changeset="10875039" lat="52.9526431" lon="9.1911781"/>
  <node id="841476976" version="1" timestamp="2010-08-01T06:29:33Z" uid="33382" user="de_muur" changeset="5367898" lat="52.9426636" lon="9.2219291">
    <tag k="direction_northeast" v="Hoya 22km; Verden 0.9km"/>
    <tag k="direction_northwest" v="Achim 16km; Eissel 2.2km"/>
    <tag k="direction_southeast" v="Verden 1km"/>
    <tag k="information" v="guidepost"/>
    <tag k="network" v="lcn"/>
    <tag k="operator" v="Landkreis Verden"/>
    <tag k="route" v="bicycle"/>
    <tag k="tourism" v="information"/>
  </node>
  <node id="841479608" version="1" timestamp="2010-08-01T06:35:20Z" uid="33382" user="de_muur" changeset="5367916" lat="52.9437457" lon="9.223177"/>
  <node id="841479609" version="1" timestamp="2010-08-01T06:35:20Z" uid="33382" user="de_muur" changeset="5367916" lat="52.9479435" lon="9.223888"/>
  <node id="841479609" version="2" timestamp="2011-01-19T14:15:15Z" uid="397390" user="danielvcp" changeset="7020876" lat="52.9479435" lon="9.223888"/>
  <node id="841479610" version="1" timestamp="2010-08-01T06:35:20Z" uid="33382" user="de_muur" changeset="5367916" lat="52.9434223" lon="9.2224716"/>
  <node id="841479611" version="1" timestamp="2010-08-01T06:35:20Z" uid="33382" user="de_muur" changeset="5367916" lat="52.9435157" lon="9.2225506"/>
  <node id="841479613" version="1" timestamp="2010-08-01T06:35:20Z" uid="33382" user="de_muur" changeset="5367916" lat="52.9429553" lon="9.2215233">
    <tag k="barrier" v="gate"/>
    <tag k="bicycle" v="yes"/>
    <tag k="foot" v="yes"/>
  </node>
  <node id="841479613" version="2" timestamp="2012-03-04T23:00:05Z" uid="57645" user="KartoGrapHiti" changeset="10875039" lat="52.9429688" lon="9.2215904">
    <tag k="barrier" v="gate"/>
    <tag k="bicycle" v="yes"/>
    <tag k="foot" v="yes"/>
  </node>
  <node id="841479616" version="1" timestamp="2010-08-01T06:35:20Z" uid="33382" user="de_muur" changeset="5367916" lat="52.9436117" lon="9.222494">
    <tag k="name" v="Storchenstation"/>
    <tag k="tourism" v="attraction"/>
  </node>
  <node id="841479616" version="2" timestamp="2011-10-28T11:49:18Z" uid="290680" user="wheelmap_visitor" changeset="9673767" lat="52.9436117" lon="9.222494">
    <tag k="name" v="Storchenstation"/>
    <tag k="tourism" v="attraction"/>
    <tag k="wheelchair" v="yes"/>
  </node>
  <node id="841479617" version="1" timestamp="2010-08-01T06:35:21Z" uid="33382" user="de_muur" changeset="5367916" lat="52.9429154" lon="9.2214423"/>
  <node id="841479617" version="2" timestamp="2012-03-04T23:00:05Z" uid="57645" user="KartoGrapHiti" changeset="10875039" lat="52.9428839" lon="9.2213528"/>
  <node id="841479618" version="1" timestamp="2010-08-01T06:35:21Z" uid="33382" user="de_muur" changeset="5367916" lat="52.9454376" lon="9.2251405">
    <tag k="name" v="Sachsenhain"/>
    <tag k="tourism" v="attraction"/>
  </node>
  <node id="841479618" version="2" timestamp="2011-10-28T11:49:17Z" uid="290680" user="wheelmap_visitor" changeset="9673767" lat="52.9454376" lon="9.2251405">
    <tag k="name" v="Sachsenhain"/>
    <tag k="tourism" v="attraction"/>
    <tag k="wheelchair" v="limited"/>
  </node>
  <node id="841479972" version="1" timestamp="2010-08-01T06:38:06Z" uid="7617" user="Franc" changeset="5367929" lat="-34.1283116" lon="150.7394482"/>
  <node id="841479973" version="1" timestamp="2010-08-01T06:38:06Z" uid="7617" user="Franc" changeset="5367929" lat="-34.1282289" lon="150.7395113"/>
  <node id="841479974" version="1" timestamp="2010-08-01T06:38:06Z" uid="7617" user="Franc" changeset="5367929" lat="-34.128183" lon="150.7395989"/>
  <node id="841479975" version="1" timestamp="2010-08-01T06:38:06Z" uid="7617" user="Franc" changeset="5367929" lat="-34.128155" lon="150.7396974"/>
</osm>
