<?xml version='1.0' encoding='UTF-8'?>
<osm version="0.6" generator="libosmium/2.20.0">
  <node id="84581505" version="3" timestamp="2008-07-12T19:25:12Z" uid="6975" user="ulfl" changeset="468231" lat="49.4528666" lon="11.0780557">
    <tag k="created_by" v="JOSM"/>
  </node>
  <node id="84581505" version="4" timestamp="2009-03-24T19:41:58Z" uid="90741" user="Robertw" changeset="852997" lat="49.4528741" lon="11.0780569">
    <tag k="created_by" v="JOSM"/>
  </node>
  <node id="84581505" version="5" timestamp="2010-10-15T13:58:21Z" uid="80255" user="miriat" changeset="6049520" lat="49.4528741" lon="11.0780569"/>
  <node id="84581505" version="6" timestamp="2011-11-12T08:08:12Z" uid="346758" user="kukuk" changeset="9802315" lat="49.4528741" lon="11.0780569"/>
  <node id="84585917" version="5" timestamp="2009-10-11T01:36:25Z" uid="36809" user="pfoten_weg_!_" changeset="2809526" lat="43.2767813" lon="-5.6150085">
    <tag k="is_in" v="San Martín,San Martín del Rey Aurelio,Asturias,Spain,Europe"/>
    <tag k="name" v="San Martín"/>
    <tag k="place" v="town"/>
  </node>
  <node id="84585917" version="6" timestamp="2009-10-28T17:21:59Z" uid="26599" user="cdavila" changeset="2974977" lat="43.2767813" lon="-5.6150085">
    <tag k="is_in" v="San Martín;San Martín del Rey Aurelio;Asturias;Principado de Asturia;España;Europe"/>
    <tag k="is_in:city" v="San Martín del Rey Aurelio"/>
    <tag k="is_in:continent" v="Europe"/>
    <tag k="is_in:country" v="España"/>
    <tag k="is_in:province" v="Asturias"/>
    <tag k="is_in:region" v="Principado de Asturias"/>
    <tag k="name" v="San Martín"/>
    <tag k="place" v="town"/>
  </node>
  <node id="84585917" version="7" timestamp="2011-04-05T22:59:49Z" uid="7045" user="Xuacu" changeset="7780207" lat="43.2767813" lon="-5.6150085">
    <tag k="is_in" v="San Martín del Rey Aurelio;Asturias;Principado de Asturia;España;Europe"/>
    <tag k="is_in:continent" v="Europe"/>
    <tag k="is_in:country" v="España"/>
    <tag k="is_in:province" v="Asturias"/>
    <tag k="is_in:region" v="Principado de Asturias"/>
    <tag k="name" v="Samartín"/>
    <tag k="name:ast" v="Samartín"/>
    <tag k="name:es" v="San Martín"/>
    <tag k="place" v="town"/>
  </node>
  <node id="84585917" version="8" timestamp="2011-10-18T23:49:55Z" uid="399394" user="egrn" changeset="9595967" lat="43.2755645" lon="-5.6049189">
    <tag k="admin_level" v="8"/>
    <tag k="capital" v="8"/>
    <tag k="is_in" v="San Martín del Rey Aurelio;Asturias;Principado de Asturia;España;Europe"/>
    <tag k="is_in:continent" v="Europe"/>
    <tag k="is_in:country" v="España"/>
    <tag k="is_in:province" v="Asturias"/>
    <tag k="is_in:region" v="Principado de Asturias"/>
    <tag k="name" v="San Martín del Rey Aurelio"/>
    <tag k="name:ast" v="San Martín del Rey Aurelio"/>
    <tag k="name:es" v="San Martín"/>
    <tag k="place" v="town"/>
    <tag k="population" v="18549"/>
    <tag k="population:date" v="2009"/>
    <tag k="ref:ine" v="33060000000"/>
    <tag k="source" v="Instituto Geográfico Nacional"/>
    <tag k="source:date" v="2011-06"/>
    <tag k="source:ele" v="MDT5"/>
    <tag k="source:file" v="http://centrodedescargas.cnig.es/CentroDescargas/equipamiento/BD_Municipios-Entidades.zip"/>
    <tag k="source:name" v="Nomenclátor Geográfico de Municipios y Entidades de Población"/>
    <tag k="wikipedia" v="San_Martín_del_Rey_Aurelio"/>
  </node>
  <node id="84585917" version="9" timestamp="2012-02-22T17:57:09Z" uid="174822" user="Canabis" changeset="10761385" lat="43.2755645" lon="-5.6049189">
    <tag k="admin_level" v="8"/>
    <tag k="capital" v="8"/>
    <tag k="is_in" v="San Martín del Rey Aurelio;Asturias;Principado de Asturia;España;Europe"/>
    <tag k="is_in:continent" v="Europe"/>
    <tag k="is_in:country" v="España"/>
    <tag k="is_in:province" v="Asturias"/>
    <tag k="is_in:region" v="Principado de Asturias"/>
    <tag k="name" v="San Martín del Rey Aurelio"/>
    <tag k="name:ast" v="San Martín del Rey Aurelio"/>
    <tag k="name:es" v="San Martín"/>
    <tag k="name:ru" v="Сан-Мартин-дель-Рей-Аурелио"/>
    <tag k="place" v="town"/>
    <tag k="population" v="18549"/>
    <tag k="population:date" v="2009"/>
    <tag k="ref:ine" v="33060000000"/>
    <tag k="source" v="Instituto Geográfico Nacional"/>
    <tag k="source:date" v="2011-06"/>
    <tag k="source:ele" v="MDT5"/>
    <tag k="source:file" v="http://centrodedescargas.cnig.es/CentroDescargas/equipamiento/BD_Municipios-Entidades.zip"/>
    <tag k="source:name" v="Nomenclátor Geográfico de Municipios y Entidades de Población"/>
    <tag k="wikipedia" v="San_Martín_del_Rey_Aurelio"/>
  </node>
  <node id="84586776" version="7" timestamp="2009-10-11T00:57:07Z" uid="36809" user="pfoten_weg_!_" changeset="2809526" lat="43.3274225" lon="-5.7203488">
    <tag k="name" v="Riaño"/>
    <tag k="place" v="suburb"/>
  </node>
</osm>
