<?xml version='1.0' encoding='UTF-8'?>
<osm version="0.6" generator="libosmium/2.20.0">
  <node id="845982837" version="1" timestamp="2010-08-04T15:11:04Z" uid="33382" user="de_muur" changeset="5400012" lat="53.5066897" lon="10.3703043">
    <tag k="amenity" v="restaurant"/>
    <tag k="cuisine" v="italian"/>
    <tag k="name" v="Jagdhaus am Riesenbett Da Fabio e Ferrucio"/>
  </node>
  <node id="845982839" version="1" timestamp="2010-08-04T15:11:04Z" uid="33382" user="de_muur" changeset="5400012" lat="53.4897208" lon="10.3313994">
    <tag k="traffic_sign" v="city_limit"/>
  </node>
  <node id="845982839" version="2" timestamp="2012-03-09T12:40:26Z" uid="46145" user="Jacques_N" changeset="10919513" lat="53.4897208" lon="10.3313966">
    <tag k="traffic_sign" v="city_limit"/>
  </node>
  <node id="845982840" version="1" timestamp="2010-08-04T15:11:04Z" uid="33382" user="de_muur" changeset="5400012" lat="53.5039713" lon="10.365773">
    <tag k="amenity" v="restaurant"/>
    <tag k="cuisine" v="italian"/>
    <tag k="name" v="al bosco"/>
  </node>
</osm>
