<?xml version='1.0' encoding='UTF-8'?>
<osm version="0.6" generator="libosmium/2.20.0">
  <node id="84633870" version="3" timestamp="2008-08-23T19:36:57Z" uid="36809" user="pfoten_weg_!_" changeset="380911" lat="48.0988321" lon="11.5189016">
    <tag k="created_by" v="RambaZamba"/>
    <tag k="highway" v="traffic_signals"/>
    <tag k="source" v="survey"/>
  </node>
  <node id="84633870" version="4" timestamp="2008-10-01T01:11:52Z" uid="36809" user="pfoten_weg_!_" changeset="5644" lat="48.0988321" lon="11.5189016">
    <tag k="created_by" v="RambaZamba"/>
    <tag k="highway" v="traffic_signals"/>
    <tag k="source" v="survey"/>
  </node>
  <node id="84633870" version="5" timestamp="2009-02-17T10:08:50Z" uid="8748" user="ToniE" changeset="502147" lat="48.0988321" lon="11.5189016">
    <tag k="created_by" v="RambaZamba"/>
    <tag k="crossing" v="traffic_signals"/>
    <tag k="crossing_ref" v="toucan"/>
    <tag k="highway" v="traffic_signals"/>
    <tag k="source" v="survey"/>
  </node>
  <node id="84633870" version="6" timestamp="2009-02-17T10:11:39Z" uid="8748" user="ToniE" changeset="502147" lat="48.0988321" lon="11.5189016">
    <tag k="created_by" v="RambaZamba"/>
    <tag k="crossing" v="traffic_signals"/>
    <tag k="crossing_ref" v="toucan"/>
    <tag k="highway" v="traffic_signals"/>
    <tag k="source" v="survey"/>
  </node>
  <node id="84633871" version="8" timestamp="2008-08-23T19:36:57Z" uid="36809" user="pfoten_weg_!_" changeset="380911" lat="48.0985684" lon="11.5186508">
    <tag k="amenity" v="fuel"/>
    <tag k="created_by" v="RambaZamba"/>
    <tag k="name" v="ARAL"/>
    <tag k="source" v="survey"/>
  </node>
  <node id="84633871" version="9" timestamp="2008-10-01T01:11:52Z" uid="36809" user="pfoten_weg_!_" changeset="5644" lat="48.0985684" lon="11.5186508">
    <tag k="amenity" v="fuel"/>
    <tag k="created_by" v="RambaZamba"/>
    <tag k="name" v="ARAL"/>
    <tag k="source" v="survey"/>
  </node>
  <node id="84633871" version="10" timestamp="2009-01-16T21:09:04Z" uid="8748" user="ToniE" changeset="795697" lat="48.0985128" lon="11.5186508">
    <tag k="amenity" v="fuel"/>
    <tag k="created_by" v="RambaZamba"/>
    <tag k="name" v="ARAL"/>
    <tag k="source" v="survey"/>
  </node>
  <node id="84633871" version="11" timestamp="2009-08-12T12:37:48Z" uid="156995" user="HampelZamba" changeset="2118306" lat="48.0985128" lon="11.5186508">
    <tag k="amenity" v="fuel"/>
    <tag k="name" v="ARAL"/>
    <tag k="source" v="survey"/>
  </node>
  <node id="84633871" version="12" timestamp="2009-08-26T09:49:01Z" uid="36809" user="pfoten_weg_!_" changeset="2265457" lat="48.0985128" lon="11.5186508">
    <tag k="amenity" v="fuel"/>
    <tag k="name" v="ARAL"/>
    <tag k="source" v="survey"/>
  </node>
  <node id="84633871" version="13" timestamp="2009-10-13T23:07:29Z" uid="36809" user="pfoten_weg_!_" changeset="2841175" lat="48.0985128" lon="11.5186508">
    <tag k="amenity" v="fuel"/>
    <tag k="name" v="ARAL"/>
  </node>
  <node id="84633871" version="14" timestamp="2010-11-18T01:42:23Z" uid="290680" user="wheelmap_visitor" changeset="6397212" lat="48.0985128" lon="11.5186508">
    <tag k="amenity" v="fuel"/>
    <tag k="name" v="ARAL"/>
    <tag k="wheelchair" v="yes"/>
  </node>
  <node id="84634565" version="5" timestamp="2008-10-01T01:12:34Z" uid="36809" user="pfoten_weg_!_" changeset="5644" lat="48.1039574" lon="11.5403988">
    <tag k="created_by" v="RambaZamba"/>
    <tag k="highway" v="traffic_signals"/>
    <tag k="source" v="survey"/>
  </node>
  <node id="84634565" version="6" timestamp="2008-12-02T20:01:02Z" uid="8748" user="ToniE" changeset="47405" lat="48.1039574" lon="11.5403988">
    <tag k="created_by" v="RambaZamba"/>
    <tag k="highway" v="traffic_signals"/>
    <tag k="source" v="survey"/>
  </node>
  <node id="84635159" version="7" timestamp="2008-10-01T01:11:41Z" uid="36809" user="pfoten_weg_!_" changeset="5644" lat="48.1036648" lon="11.5402062">
    <tag k="amenity" v="fuel"/>
    <tag k="created_by" v="RambaZamba"/>
    <tag k="name" v="Shell"/>
    <tag k="source" v="survey"/>
  </node>
  <node id="84635159" version="8" timestamp="2009-01-26T08:20:52Z" uid="8748" user="ToniE" changeset="838358" lat="48.1036648" lon="11.5402062">
    <tag k="amenity" v="fuel"/>
    <tag k="created_by" v="RambaZamba"/>
    <tag k="name" v="Shell"/>
    <tag k="source" v="survey"/>
  </node>
  <node id="84636641" version="2" timestamp="2009-05-01T18:51:21Z" uid="20587" user="balrog-kun" changeset="1040664" lat="52.9100804" lon="19.1220594">
    <tag k="created_by" v="JOSM"/>
    <tag k="is_in" v="gmina Kikół, powiat lipnowski, województwo kujawsko-pomorskie, Poland"/>
    <tag k="is_in:county" v="powiat lipnowski"/>
    <tag k="is_in:municipality" v="gmina Kikół"/>
    <tag k="is_in:province" v="województwo kujawsko-pomorskie"/>
    <tag k="name" v="Kikół"/>
    <tag k="place" v="town"/>
    <tag k="population" v="1500"/>
    <tag k="source:population" v="wikipedia"/>
    <tag k="wikipedia" v="Kikół"/>
  </node>
  <node id="84636641" version="3" timestamp="2010-04-11T04:37:35Z" uid="20587" user="balrog-kun" changeset="4389130" lat="52.9098973" lon="19.1213726">
    <tag k="is_in" v="gmina Kikół, powiat lipnowski, województwo kujawsko-pomorskie, Poland"/>
    <tag k="is_in:county" v="powiat lipnowski"/>
    <tag k="is_in:municipality" v="gmina Kikół"/>
    <tag k="is_in:province" v="województwo kujawsko-pomorskie"/>
    <tag k="name" v="Kikół"/>
    <tag k="place" v="town"/>
    <tag k="population" v="1500"/>
    <tag k="source:population" v="wikipedia"/>
    <tag k="wikipedia" v="Kikół"/>
  </node>
  <node id="84636641" version="4" timestamp="2010-04-27T04:12:09Z" uid="30632" user="antblant" changeset="4537887" lat="52.9098973" lon="19.1213726">
    <tag k="is_in" v="gmina Kikół, powiat lipnowski, województwo kujawsko-pomorskie, Poland"/>
    <tag k="is_in:county" v="powiat lipnowski"/>
    <tag k="is_in:municipality" v="gmina Kikół"/>
    <tag k="is_in:province" v="województwo kujawsko-pomorskie"/>
    <tag k="name" v="Kikół"/>
    <tag k="place" v="town"/>
    <tag k="population" v="1500"/>
    <tag k="source:population" v="wikipedia"/>
    <tag k="teryt:simc" v="0863480"/>
    <tag k="wikipedia" v="Kikół"/>
  </node>
  <node id="84636641" version="5" timestamp="2011-09-21T22:00:27Z" uid="467703" user="Zbigniew Czernik" changeset="9364571" lat="52.912338" lon="19.1203608">
    <tag k="is_in" v="gmina Kikół, powiat lipnowski, województwo kujawsko-pomorskie, Poland"/>
    <tag k="is_in:county" v="powiat lipnowski"/>
    <tag k="is_in:municipality" v="gmina Kikół"/>
    <tag k="is_in:province" v="województwo kujawsko-pomorskie"/>
    <tag k="name" v="Kikół"/>
    <tag k="place" v="town"/>
    <tag k="population" v="1500"/>
    <tag k="source:population" v="wikipedia"/>
    <tag k="teryt:simc" v="0863480"/>
    <tag k="wikipedia" v="Kikół"/>
  </node>
  <node id="84636677" version="2" timestamp="2009-09-18T12:19:53Z" uid="20587" user="balrog-kun" changeset="2523165" lat="52.828885" lon="19.2306406">
    <tag k="created_by" v="JOSM"/>
  </node>
  <node id="84636798" version="2" timestamp="2009-09-18T09:55:47Z" uid="20587" user="balrog-kun" changeset="2522186" lat="52.7370902" lon="19.4289142"/>
</osm>
