<?xml version='1.0' encoding='UTF-8'?>
<osm version="0.6" generator="libosmium/2.20.0">
  <node id="849529130" version="3" timestamp="2011-01-26T19:46:58Z" uid="115477" user="wowik" changeset="7097032" lat="55.9796803" lon="37.2541983">
    <tag k="addr:city" v="Зеленоград"/>
    <tag k="addr:street" v="Сосновая аллея"/>
    <tag k="name" v="Автотехцентр"/>
    <tag k="shop" v="car_repair"/>
  </node>
  <node id="849529130" version="4" timestamp="2012-02-24T16:53:55Z" uid="384084" user="Kostik" changeset="10780119" lat="55.9796803" lon="37.2541983">
    <tag k="addr:city" v="Зеленоград"/>
    <tag k="addr:street" v="Сосновая аллея"/>
    <tag k="name" v="Автотехцентр"/>
    <tag k="shop" v="car_repair"/>
  </node>
  <node id="849529130" version="5" timestamp="2012-03-27T11:56:49Z" uid="481934" user="iWowik" changeset="11115472" lat="55.9796803" lon="37.2541983">
    <tag k="addr:city" v="Зеленоград"/>
    <tag k="addr:country" v="RU"/>
    <tag k="addr:region" v="Москва"/>
    <tag k="addr:street" v="Сосновая аллея"/>
    <tag k="name" v="Автотехцентр"/>
    <tag k="shop" v="car_repair"/>
  </node>
</osm>
