<?xml version='1.0' encoding='UTF-8'?>
<osm version="0.6" generator="libosmium/2.20.0">
  <node id="849674702" version="4" timestamp="2010-11-13T10:45:55Z" uid="115477" user="wowik" changeset="6356871" lat="55.9700049" lon="37.1463402">
    <tag k="addr:city" v="Зеленоград"/>
    <tag k="addr:street" v="16-й Микрорайон"/>
    <tag k="name" v="Автосервис, 16-й Микрорайон"/>
    <tag k="shop" v="car_repair"/>
  </node>
  <node id="849674702" version="5" timestamp="2011-01-12T16:30:53Z" uid="115477" user="wowik" changeset="6948828" lat="55.9700049" lon="37.1463402">
    <tag k="addr:city" v="Зеленоград"/>
    <tag k="addr:street" v="16-й Микрорайон"/>
    <tag k="is_in" v="Russia"/>
    <tag k="name" v="Автосервис, 16-й Микрорайон"/>
    <tag k="shop" v="car_repair"/>
  </node>
  <node id="849674702" version="6" timestamp="2011-02-03T11:45:00Z" uid="241531" user="dik_man" changeset="7173000" lat="55.9701181" lon="37.1466749">
    <tag k="addr:city" v="Зеленоград"/>
    <tag k="addr:street" v="16-й Микрорайон"/>
    <tag k="is_in" v="Russia"/>
    <tag k="name" v="Автосервис, 16-й Микрорайон"/>
    <tag k="shop" v="car_repair"/>
  </node>
  <node id="849674702" version="7" timestamp="2011-06-07T20:49:18Z" uid="133332" user="AMDmi3" changeset="8374030" lat="55.9701181" lon="37.1466749">
    <tag k="addr:city" v="Зеленоград"/>
    <tag k="addr:street" v="16-й микрорайон"/>
    <tag k="is_in" v="Russia"/>
    <tag k="name" v="Автосервис, 16-й Микрорайон"/>
    <tag k="shop" v="car_repair"/>
  </node>
  <node id="849676820" version="3" timestamp="2011-03-14T11:16:54Z" uid="115477" user="wowik" changeset="7555220" lat="55.9848503" lon="37.1430787">
    <tag k="addr:city" v="Анреевка"/>
    <tag k="addr:housenumber" v="33"/>
    <tag k="name" v="Автосервис &quot;Алан-Z&quot;"/>
    <tag k="shop" v="car_repair"/>
  </node>
  <node id="849676820" version="4" timestamp="2011-11-01T10:43:36Z" uid="481934" user="iWowik" changeset="9710944" lat="55.9848911" lon="37.142944">
    <tag k="addr:city" v="Анреевка"/>
    <tag k="addr:housenumber" v="33"/>
    <tag k="name" v="Автосервис &quot;Алан-Z&quot;"/>
    <tag k="shop" v="car_repair"/>
  </node>
  <node id="849676820" version="5" timestamp="2012-01-16T13:56:51Z" uid="481934" user="iWowik" changeset="10408353" lat="55.9848911" lon="37.142944"/>
</osm>
