<?xml version='1.0' encoding='UTF-8'?>
<osm version="0.6" generator="libosmium/2.20.0">
  <node id="849950822" version="1" timestamp="2010-08-08T19:26:02Z" uid="33382" user="de_muur" changeset="5436801" lat="53.43645" lon="10.3185263">
    <tag k="direction_northeast" v="Wentorf b. Hamburg 12km; Borghorst 1.2km"/>
    <tag k="direction_southeast" v="Lauenburg/Elbe 21km; Geesthacht-Zentrum 5.8km"/>
    <tag k="information" v="guidepost"/>
    <tag k="network" v="lcn"/>
    <tag k="operator" v="Kreis Herzogtum Lauenburg"/>
    <tag k="route" v="bicycle"/>
    <tag k="tourism" v="information"/>
  </node>
  <node id="849950822" version="2" timestamp="2010-08-08T19:40:13Z" uid="33382" user="de_muur" changeset="5436999" lat="53.43645" lon="10.3185263">
    <tag k="direction_northwest" v="Wentorf b. Hamburg 12km; Borghorst 1.2km"/>
    <tag k="direction_southeast" v="Lauenburg/Elbe 21km; Geesthacht-Zentrum 5.8km"/>
    <tag k="information" v="guidepost"/>
    <tag k="network" v="lcn"/>
    <tag k="operator" v="Kreis Herzogtum Lauenburg"/>
    <tag k="route" v="bicycle"/>
    <tag k="tourism" v="information"/>
  </node>
  <node id="849950822" version="3" timestamp="2012-03-06T10:44:26Z" uid="63375" user="Divjo" changeset="10888626" lat="53.43645" lon="10.3185263"/>
  <node id="849950823" version="1" timestamp="2010-08-08T19:26:02Z" uid="33382" user="de_muur" changeset="5436801" lat="53.4363957" lon="10.3185369"/>
  <node id="849950823" version="2" timestamp="2012-03-06T10:44:26Z" uid="63375" user="Divjo" changeset="10888626" lat="53.4363957" lon="10.3185369"/>
  <node id="849951114" version="2" timestamp="2010-09-11T19:48:21Z" uid="9581" user="Lobelt" changeset="5753058" lat="50.8336635" lon="11.5034413">
    <tag k="addr:city" v="Milda"/>
    <tag k="addr:housenumber" v="1"/>
    <tag k="addr:postcode" v="07751"/>
    <tag k="addr:street" v="Plinz"/>
    <tag k="name" v="Galerie Plinz"/>
    <tag k="tourism" v="artwork"/>
  </node>
  <node id="849951114" version="3" timestamp="2010-09-20T14:52:25Z" uid="110639" user="aighes" changeset="5829775" lat="50.8337013" lon="11.5035188">
    <tag k="addr:city" v="Milda"/>
    <tag k="addr:housenumber" v="1"/>
    <tag k="addr:postcode" v="07751"/>
    <tag k="addr:street" v="Plinz"/>
    <tag k="name" v="Galerie Plinz"/>
    <tag k="tourism" v="artwork"/>
  </node>
  <node id="849951114" version="4" timestamp="2011-06-04T19:58:56Z" uid="79054" user="tiefsee" changeset="8342497" lat="50.8337013" lon="11.5035188">
    <tag k="addr:city" v="Milda"/>
    <tag k="addr:housenumber" v="1"/>
    <tag k="addr:postcode" v="07751"/>
    <tag k="addr:street" v="Plinz"/>
    <tag k="building" v="yes"/>
    <tag k="name" v="Galerie Plinz"/>
    <tag k="tourism" v="artwork"/>
  </node>
  <node id="849951114" version="5" timestamp="2012-03-21T09:03:42Z" uid="192395" user="BBO" changeset="11049750" lat="50.8336448" lon="11.5034488">
    <tag k="addr:city" v="Milda"/>
    <tag k="addr:housenumber" v="1"/>
    <tag k="addr:postcode" v="07751"/>
    <tag k="addr:street" v="Plinz"/>
    <tag k="building" v="yes"/>
    <tag k="name" v="Galerie Plinz"/>
    <tag k="tourism" v="artwork"/>
  </node>
  <node id="849951123" version="2" timestamp="2011-05-07T12:32:44Z" uid="9581" user="Lobelt" changeset="8072981" lat="50.8269587" lon="11.4727876">
    <tag k="alt_name" v="OT Beckerskirchhof"/>
    <tag k="name" v="ReinstÃ¤dt"/>
    <tag k="traffic_sign" v="city_limit"/>
  </node>
  <node id="849957496" version="2" timestamp="2011-01-30T17:35:40Z" uid="115477" user="wowik" changeset="7136999" lat="56.0041263" lon="37.1977342"/>
  <node id="849957496" version="3" timestamp="2011-09-12T16:38:06Z" uid="518169" user="kosatov" changeset="9281584" lat="56.0041263" lon="37.1977342"/>
  <node id="849957504" version="2" timestamp="2011-01-30T17:36:08Z" uid="115477" user="wowik" changeset="7136999" lat="56.004202" lon="37.1979656"/>
  <node id="849957504" version="3" timestamp="2011-09-12T16:38:06Z" uid="518169" user="kosatov" changeset="9281584" lat="56.004202" lon="37.1979656"/>
  <node id="849957506" version="2" timestamp="2011-01-30T17:37:28Z" uid="115477" user="wowik" changeset="7136999" lat="56.004139" lon="37.1981909"/>
  <node id="849957506" version="3" timestamp="2011-09-12T16:38:06Z" uid="518169" user="kosatov" changeset="9281584" lat="56.004139" lon="37.1981909"/>
  <node id="849957984" version="2" timestamp="2010-11-12T21:43:36Z" uid="115477" user="wowik" changeset="6354516" lat="56.0040922" lon="37.1984042"/>
  <node id="849957984" version="3" timestamp="2011-01-30T17:37:26Z" uid="115477" user="wowik" changeset="7136999" lat="56.0040528" lon="37.1983596"/>
  <node id="849957986" version="2" timestamp="2010-11-12T21:43:36Z" uid="115477" user="wowik" changeset="6354516" lat="56.0039602" lon="37.1982916"/>
  <node id="849957986" version="3" timestamp="2011-01-30T17:36:43Z" uid="115477" user="wowik" changeset="7136999" lat="56.0039208" lon="37.198247"/>
  <node id="849958306" version="2" timestamp="2010-11-12T21:43:36Z" uid="115477" user="wowik" changeset="6354516" lat="56.0040002" lon="37.1983193">
    <tag k="barrier" v="gate"/>
  </node>
  <node id="849958306" version="3" timestamp="2011-01-30T17:36:46Z" uid="115477" user="wowik" changeset="7136999" lat="56.0039608" lon="37.1982747">
    <tag k="barrier" v="gate"/>
  </node>
  <node id="849958306" version="4" timestamp="2011-11-18T14:13:19Z" uid="481934" user="iWowik" changeset="9863926" lat="56.0039692" lon="37.1982819">
    <tag k="barrier" v="gate"/>
  </node>
  <node id="849958894" version="2" timestamp="2011-01-30T17:36:44Z" uid="115477" user="wowik" changeset="7136999" lat="56.0041714" lon="37.198075"/>
  <node id="849958894" version="3" timestamp="2011-09-12T16:38:06Z" uid="518169" user="kosatov" changeset="9281584" lat="56.0041714" lon="37.198075"/>
  <node id="849958911" version="2" timestamp="2011-01-30T17:37:26Z" uid="115477" user="wowik" changeset="7136999" lat="56.004247" lon="37.1982928"/>
  <node id="849958911" version="3" timestamp="2011-09-12T16:38:06Z" uid="518169" user="kosatov" changeset="9281584" lat="56.004247" lon="37.1982928"/>
</osm>
