<?xml version='1.0' encoding='UTF-8'?>
<osm version="0.6" generator="libosmium/2.20.0">
  <node id="850750343" version="1" timestamp="2010-08-09T12:23:32Z" uid="115477" user="wowik" changeset="5443255" lat="54.9433125" lon="20.147408">
    <tag k="amenity" v="cafe"/>
    <tag k="name" v="Арт-кафе"/>
  </node>
  <node id="850750343" version="2" timestamp="2010-08-12T12:13:03Z" uid="115477" user="wowik" changeset="5472454" lat="54.9433125" lon="20.1474081">
    <tag k="amenity" v="cafe"/>
    <tag k="name" v="арт-кафе Титры"/>
  </node>
  <node id="850750344" version="1" timestamp="2010-08-09T12:23:32Z" uid="115477" user="wowik" changeset="5443255" lat="54.9440798" lon="20.1479391">
    <tag k="highway" v="bus_stop"/>
  </node>
  <node id="850750344" version="2" timestamp="2010-08-12T11:57:53Z" uid="115477" user="wowik" changeset="5472454" lat="54.9440946" lon="20.1481223">
    <tag k="highway" v="bus_stop"/>
  </node>
  <node id="850750346" version="1" timestamp="2010-08-09T12:23:32Z" uid="115477" user="wowik" changeset="5443255" lat="54.9413004" lon="20.1374409">
    <tag k="highway" v="bus_stop"/>
  </node>
  <node id="850750346" version="2" timestamp="2010-08-13T08:08:54Z" uid="115477" user="wowik" changeset="5479559" lat="54.9412693" lon="20.1379447">
    <tag k="highway" v="bus_stop"/>
  </node>
  <node id="850750346" version="3" timestamp="2010-10-11T08:03:46Z" uid="115477" user="wowik" changeset="6009352" lat="54.9412433" lon="20.1379568">
    <tag k="highway" v="bus_stop"/>
  </node>
  <node id="850750346" version="4" timestamp="2011-11-26T13:41:20Z" uid="429414" user="Alexey Ti" changeset="9955711" lat="54.9412433" lon="20.1379568">
    <tag k="highway" v="bus_stop"/>
    <tag k="name" v="Янтарный берег"/>
  </node>
  <node id="850750349" version="1" timestamp="2010-08-09T12:23:33Z" uid="115477" user="wowik" changeset="5443255" lat="54.938259" lon="20.1584104">
    <tag k="highway" v="bus_stop"/>
  </node>
  <node id="850750349" version="2" timestamp="2011-11-26T13:41:18Z" uid="429414" user="Alexey Ti" changeset="9955711" lat="54.9382151" lon="20.1573744">
    <tag k="highway" v="bus_stop"/>
    <tag k="name" v="Озеро"/>
  </node>
  <node id="850752291" version="1" timestamp="2010-08-09T12:27:04Z" uid="115477" user="wowik" changeset="5443255" lat="54.9425083" lon="20.1555498"/>
  <node id="850756967" version="1" timestamp="2010-08-09T12:36:35Z" uid="115477" user="wowik" changeset="5443255" lat="54.9404407" lon="20.1353864">
    <tag k="name" v="Гренч"/>
    <tag k="name:en" v="Grange"/>
    <tag k="tourism" v="hotel"/>
    <tag k="website" v="http://hotelgrange.ru"/>
  </node>
  <node id="850756967" version="2" timestamp="2010-08-09T12:50:46Z" uid="115477" user="wowik" changeset="5443255" lat="54.9404407" lon="20.1353864">
    <tag k="addr:housenumber" v="6"/>
    <tag k="addr:street" v="архитектора Попова"/>
    <tag k="name" v="Гренч"/>
    <tag k="name:en" v="Grange"/>
    <tag k="tourism" v="hotel"/>
    <tag k="website" v="http://hotelgrange.ru"/>
  </node>
  <node id="850756967" version="3" timestamp="2010-08-10T12:31:14Z" uid="115477" user="wowik" changeset="5453482" lat="54.9402777" lon="20.1353573">
    <tag k="addr:housenumber" v="6"/>
    <tag k="addr:street" v="архитектора Попова"/>
    <tag k="name" v="Гренч"/>
    <tag k="name:en" v="Grange"/>
    <tag k="tourism" v="hotel"/>
    <tag k="website" v="http://hotelgrange.ru"/>
  </node>
  <node id="850756967" version="4" timestamp="2010-08-12T14:09:42Z" uid="115477" user="wowik" changeset="5473264" lat="54.9402777" lon="20.1353573">
    <tag k="addr:housenumber" v="6"/>
    <tag k="addr:street" v="улица архитектора Попова"/>
    <tag k="name" v="Гренч"/>
    <tag k="name:en" v="Grange"/>
    <tag k="tourism" v="hotel"/>
    <tag k="website" v="http://hotelgrange.ru"/>
  </node>
  <node id="850756967" version="5" timestamp="2010-08-13T17:19:49Z" uid="115477" user="wowik" changeset="5482166" lat="54.9402847" lon="20.1353449">
    <tag k="addr:housenumber" v="6"/>
    <tag k="addr:street" v="улица архитектора Попова"/>
    <tag k="name" v="Гренч"/>
    <tag k="name:en" v="Grange"/>
    <tag k="tourism" v="hotel"/>
    <tag k="website" v="http://hotelgrange.ru"/>
  </node>
  <node id="850756967" version="6" timestamp="2011-09-09T13:02:38Z" uid="133332" user="AMDmi3" changeset="9254200" lat="54.9402847" lon="20.1353449">
    <tag k="addr:housenumber" v="6"/>
    <tag k="addr:street" v="улица Архитектора Попова"/>
    <tag k="name" v="Гренч"/>
    <tag k="name:en" v="Grange"/>
    <tag k="tourism" v="hotel"/>
    <tag k="website" v="http://hotelgrange.ru"/>
  </node>
</osm>
