<?xml version='1.0' encoding='UTF-8'?>
<osm version="0.6" generator="libosmium/2.20.0">
  <node id="856702703" version="1" timestamp="2010-08-12T12:46:20Z" uid="10712" user="Kraeml" changeset="5472902" lat="49.4593692" lon="11.0823035">
    <tag k="addr:city" v="Nürnberg"/>
    <tag k="addr:country" v="DE"/>
    <tag k="addr:housenumber" v="8"/>
    <tag k="addr:postcode" v="90408"/>
    <tag k="addr:street" v="Rollnerstraße"/>
    <tag k="amenity" v="restaurant"/>
    <tag k="cuisine" v="mediterrane"/>
    <tag k="name" v="Cavo"/>
    <tag k="opening_hours" v="Mo-Fr 11:30-14:30 17:30-open end; Sa-So 17:30-open end"/>
    <tag k="phone" v="+49 911 27 86 66 28"/>
    <tag k="smoking" v="no"/>
    <tag k="website" v="www.cavo-nuernberg.de"/>
  </node>
  <node id="856702703" version="2" timestamp="2010-11-21T23:13:43Z" uid="202858" user="kellerma" changeset="6428057" lat="49.4593692" lon="11.0823035">
    <tag k="addr:city" v="Nürnberg"/>
    <tag k="addr:country" v="DE"/>
    <tag k="addr:housenumber" v="8"/>
    <tag k="addr:postcode" v="90408"/>
    <tag k="addr:street" v="Rollnerstraße"/>
    <tag k="amenity" v="restaurant"/>
    <tag k="cuisine" v="mediterrane"/>
    <tag k="name" v="Cavo"/>
    <tag k="opening_hours" v="Mo-Fr 11:30-14:30,17:30+; Sa-Su 17:30+"/>
    <tag k="phone" v="+49 911 27 86 66 28"/>
    <tag k="smoking" v="no"/>
    <tag k="website" v="www.cavo-nuernberg.de"/>
  </node>
  <node id="856702703" version="3" timestamp="2011-02-15T17:20:39Z" uid="39522" user="bmwiedemann" changeset="7296833" lat="49.4593692" lon="11.0823035">
    <tag k="addr:city" v="Nürnberg"/>
    <tag k="addr:country" v="DE"/>
    <tag k="addr:housenumber" v="8"/>
    <tag k="addr:postcode" v="90408"/>
    <tag k="addr:street" v="Rollnerstraße"/>
    <tag k="amenity" v="restaurant"/>
    <tag k="cuisine" v="mediterrane"/>
    <tag k="name" v="Alur"/>
    <tag k="opening_hours" v="?Mo-Fr 11:30-14:30,17:30+; Sa-Su 17:30+"/>
    <tag k="phone" v="?+49 911 27 86 66 28"/>
    <tag k="smoking" v="no"/>
  </node>
  <node id="856702703" version="4" timestamp="2011-03-14T23:07:27Z" uid="421647" user="schiriki87" changeset="7562194" lat="49.4593692" lon="11.0823035">
    <tag k="addr:city" v="Nürnberg"/>
    <tag k="addr:country" v="DE"/>
    <tag k="addr:housenumber" v="8"/>
    <tag k="addr:postcode" v="90408"/>
    <tag k="addr:street" v="Rollnerstraße"/>
    <tag k="amenity" v="restaurant"/>
    <tag k="cuisine" v="mediterrane"/>
    <tag k="name" v="Alur"/>
    <tag k="opening_hours" v="Mo-Fr 11:30-14:30,17:30+; Sa-Su 17:30+"/>
    <tag k="phone" v="+49 911 27 86 66 28"/>
    <tag k="smoking" v="no"/>
  </node>
  <node id="856702703" version="5" timestamp="2011-04-20T16:52:29Z" uid="346758" user="kukuk" changeset="7917882" lat="49.4593692" lon="11.0823035">
    <tag k="addr:city" v="Nürnberg"/>
    <tag k="addr:country" v="DE"/>
    <tag k="addr:housenumber" v="8"/>
    <tag k="addr:postcode" v="90408"/>
    <tag k="addr:street" v="Rollnerstraße"/>
    <tag k="amenity" v="restaurant"/>
    <tag k="disused" v="yes"/>
  </node>
  <node id="856702703" version="6" timestamp="2011-11-11T09:34:38Z" uid="2472" user="cwh" changeset="9794882" lat="49.4594075" lon="11.0822601">
    <tag k="addr:city" v="Nürnberg"/>
    <tag k="addr:country" v="DE"/>
    <tag k="addr:housenumber" v="8"/>
    <tag k="addr:postcode" v="90408"/>
    <tag k="addr:street" v="Rollnerstraße"/>
    <tag k="amenity" v="restaurant"/>
    <tag k="cuisine" v="steak_house"/>
    <tag k="name" v="Spillmann&apos;s"/>
    <tag k="smoking" v="no"/>
    <tag k="wheelchair" v="yes"/>
  </node>
  <node id="856702703" version="7" timestamp="2011-12-02T22:12:21Z" uid="71557" user="Taroc" changeset="10020533" lat="49.4594075" lon="11.0822601"/>
</osm>
