<?xml version='1.0' encoding='UTF-8'?>
<osm version="0.6" generator="libosmium/2.20.0">
  <node id="858774797" version="1" timestamp="2010-08-13T16:06:34Z" uid="115477" user="wowik" changeset="5482166" lat="54.9409503" lon="20.1374381">
    <tag k="name" v="пансионат Чайка"/>
    <tag k="tourism" v="hotel"/>
  </node>
  <node id="858774797" version="2" timestamp="2010-08-16T15:33:35Z" uid="115477" user="wowik" changeset="5510203" lat="54.9406493" lon="20.1371999">
    <tag k="name" v="пансионат Чайка"/>
    <tag k="tourism" v="hotel"/>
  </node>
  <node id="858774797" version="3" timestamp="2011-04-29T16:07:38Z" uid="115477" user="wowik" changeset="8004697" lat="54.9406493" lon="20.1371999">
    <tag k="name" v="пансионат Чайка"/>
    <tag k="tourism" v="hotel"/>
  </node>
  <node id="858774811" version="1" timestamp="2010-08-13T16:06:34Z" uid="115477" user="wowik" changeset="5482166" lat="54.9445985" lon="20.1564003">
    <tag k="amenity" v="toilets"/>
  </node>
  <node id="858774811" version="2" timestamp="2010-10-15T09:20:21Z" uid="174822" user="Canabis" changeset="6047490" lat="54.9445985" lon="20.1564003">
    <tag k="amenity" v="toilets"/>
    <tag k="fee" v="yes"/>
  </node>
</osm>
