<?xml version='1.0' encoding='UTF-8'?>
<osm version="0.6" generator="libosmium/2.20.0">
  <node id="858801955" version="1" timestamp="2010-08-13T16:12:45Z" uid="115477" user="wowik" changeset="5482166" lat="54.9426851" lon="20.1595546">
    <tag k="name" v="база отдыха Факел"/>
    <tag k="tourism" v="hotel"/>
  </node>
  <node id="858801955" version="2" timestamp="2010-08-13T16:14:40Z" uid="115477" user="wowik" changeset="5482166" lat="54.9426851" lon="20.1595546">
    <tag k="addr:city" v="Светлогорск"/>
    <tag k="addr:housenumber" v="23"/>
    <tag k="addr:street" v="улица Гагарина"/>
    <tag k="name" v="база отдыха Факел"/>
    <tag k="tourism" v="hotel"/>
  </node>
  <node id="858801955" version="3" timestamp="2010-08-13T17:03:13Z" uid="115477" user="wowik" changeset="5482166" lat="54.9426851" lon="20.1595546">
    <tag k="addr:city" v="Светлогорск"/>
    <tag k="addr:housenumber" v="23"/>
    <tag k="addr:street" v="улица Гагарина"/>
    <tag k="name" v="гостиница Старый дуб"/>
    <tag k="old_name" v="база отдыха Факел"/>
    <tag k="tourism" v="hotel"/>
  </node>
</osm>
