<?xml version='1.0' encoding='UTF-8'?>
<osm version="0.6" generator="libosmium/2.20.0">
  <node id="862951829" version="1" timestamp="2010-08-16T09:01:27Z" uid="7617" user="Franc" changeset="5507347" lat="-33.913948" lon="151.1469602">
    <tag k="addr:housenumber" v="1"/>
    <tag k="addr:street" v="Warren Road"/>
    <tag k="source" v="survey"/>
  </node>
  <node id="862951829" version="2" timestamp="2012-02-13T05:12:21Z" uid="7523" user="inas" changeset="10670260" lat="-33.913948" lon="151.1469602"/>
  <node id="862951848" version="1" timestamp="2010-08-16T09:01:28Z" uid="7617" user="Franc" changeset="5507347" lat="-33.9140306" lon="151.1471141">
    <tag k="addr:housenumber" v="3"/>
    <tag k="addr:street" v="Warren Road"/>
    <tag k="source" v="exrapolation"/>
  </node>
  <node id="862951848" version="2" timestamp="2011-05-29T08:32:55Z" uid="7617" user="Franc" changeset="8278454" lat="-33.9140306" lon="151.1471141">
    <tag k="addr:housenumber" v="3"/>
    <tag k="addr:street" v="Warren Road"/>
    <tag k="source" v="extrapolation"/>
  </node>
  <node id="862951848" version="3" timestamp="2012-02-13T05:13:25Z" uid="7523" user="inas" changeset="10670260" lat="-33.9140306" lon="151.1471141"/>
  <node id="862951852" version="1" timestamp="2010-08-16T09:01:28Z" uid="7617" user="Franc" changeset="5507347" lat="-33.914112" lon="151.1472413">
    <tag k="addr:housenumber" v="5"/>
    <tag k="addr:street" v="Warren Road"/>
    <tag k="source" v="exrapolation"/>
  </node>
  <node id="862951852" version="2" timestamp="2011-05-29T08:32:33Z" uid="7617" user="Franc" changeset="8278454" lat="-33.914112" lon="151.1472413">
    <tag k="addr:housenumber" v="5"/>
    <tag k="addr:street" v="Warren Road"/>
    <tag k="source" v="extrapolation"/>
  </node>
  <node id="862951852" version="3" timestamp="2012-02-13T05:13:52Z" uid="7523" user="inas" changeset="10670260" lat="-33.914112" lon="151.1472413"/>
  <node id="862951856" version="1" timestamp="2010-08-16T09:01:28Z" uid="7617" user="Franc" changeset="5507347" lat="-33.9139129" lon="151.1476495">
    <tag k="addr:housenumber" v="2"/>
    <tag k="addr:street" v="Wrights Avenue"/>
    <tag k="source" v="survey"/>
  </node>
  <node id="862951856" version="2" timestamp="2012-02-13T05:12:59Z" uid="7523" user="inas" changeset="10670260" lat="-33.9139129" lon="151.1476495"/>
  <node id="862951860" version="1" timestamp="2010-08-16T09:01:29Z" uid="7617" user="Franc" changeset="5507347" lat="-33.9137903" lon="151.1477718">
    <tag k="addr:housenumber" v="6"/>
    <tag k="addr:street" v="Wrights Avenue"/>
    <tag k="source" v="survey"/>
  </node>
  <node id="862951860" version="2" timestamp="2012-02-13T05:13:58Z" uid="7523" user="inas" changeset="10670260" lat="-33.9137903" lon="151.1477718"/>
  <node id="862951874" version="1" timestamp="2010-08-16T09:01:29Z" uid="7617" user="Franc" changeset="5507347" lat="-33.9139542" lon="151.1478106">
    <tag k="addr:housenumber" v="1"/>
    <tag k="addr:street" v="Wrights Avenue"/>
    <tag k="source" v="exrapolation"/>
  </node>
  <node id="862951874" version="2" timestamp="2011-05-29T08:31:53Z" uid="7617" user="Franc" changeset="8278454" lat="-33.9139542" lon="151.1478106">
    <tag k="addr:housenumber" v="1"/>
    <tag k="addr:street" v="Wrights Avenue"/>
    <tag k="source" v="extrapolation"/>
  </node>
  <node id="862951874" version="3" timestamp="2012-02-13T05:12:21Z" uid="7523" user="inas" changeset="10670260" lat="-33.9139542" lon="151.1478106"/>
  <node id="862951880" version="1" timestamp="2010-08-16T09:01:29Z" uid="7617" user="Franc" changeset="5507347" lat="-33.9137099" lon="151.1478397">
    <tag k="addr:housenumber" v="8"/>
    <tag k="addr:street" v="Wrights Avenue"/>
    <tag k="source" v="exrapolation"/>
  </node>
  <node id="862951880" version="2" timestamp="2011-05-29T08:32:24Z" uid="7617" user="Franc" changeset="8278454" lat="-33.9137099" lon="151.1478397">
    <tag k="addr:housenumber" v="8"/>
    <tag k="addr:street" v="Wrights Avenue"/>
    <tag k="source" v="extrapolation"/>
  </node>
  <node id="862951880" version="3" timestamp="2012-02-13T05:14:08Z" uid="7523" user="inas" changeset="10670260" lat="-33.9137099" lon="151.1478397"/>
  <node id="862951885" version="1" timestamp="2010-08-16T09:01:29Z" uid="7617" user="Franc" changeset="5507347" lat="-33.9138717" lon="151.1478905">
    <tag k="addr:housenumber" v="3"/>
    <tag k="addr:street" v="Wrights Avenue"/>
    <tag k="source" v="survey"/>
  </node>
  <node id="862951885" version="2" timestamp="2012-02-13T05:13:25Z" uid="7523" user="inas" changeset="10670260" lat="-33.9138717" lon="151.1478905"/>
  <node id="862951887" version="1" timestamp="2010-08-16T09:01:30Z" uid="7617" user="Franc" changeset="5507347" lat="-33.9137973" lon="151.1479572">
    <tag k="addr:housenumber" v="5"/>
    <tag k="addr:street" v="Wrights Avenue"/>
    <tag k="source" v="exrapolation"/>
  </node>
  <node id="862951887" version="2" timestamp="2011-05-29T08:33:15Z" uid="7617" user="Franc" changeset="8278454" lat="-33.9137973" lon="151.1479572">
    <tag k="addr:housenumber" v="5"/>
    <tag k="addr:street" v="Wrights Avenue"/>
    <tag k="source" v="extrapolation"/>
  </node>
  <node id="862951887" version="3" timestamp="2012-02-13T05:13:52Z" uid="7523" user="inas" changeset="10670260" lat="-33.9137973" lon="151.1479572"/>
  <node id="862951902" version="1" timestamp="2010-08-16T09:01:30Z" uid="7617" user="Franc" changeset="5507347" lat="-33.9136415" lon="151.1478966">
    <tag k="addr:housenumber" v="10"/>
    <tag k="addr:street" v="Wrights Avenue"/>
    <tag k="source" v="survey"/>
  </node>
  <node id="862951902" version="2" timestamp="2012-02-13T05:12:24Z" uid="7523" user="inas" changeset="10670260" lat="-33.9136415" lon="151.1478966"/>
  <node id="862951906" version="1" timestamp="2010-08-16T09:01:30Z" uid="7617" user="Franc" changeset="5507347" lat="-33.9137119" lon="151.1480286">
    <tag k="addr:housenumber" v="7"/>
    <tag k="addr:street" v="Wrights Avenue"/>
    <tag k="source" v="survey"/>
  </node>
  <node id="862951906" version="2" timestamp="2012-02-13T05:14:04Z" uid="7523" user="inas" changeset="10670260" lat="-33.9137119" lon="151.1480286"/>
  <node id="862951909" version="1" timestamp="2010-08-16T09:01:31Z" uid="7617" user="Franc" changeset="5507347" lat="-33.914472" lon="151.1497851">
    <tag k="addr:housenumber" v="31"/>
    <tag k="addr:street" v="Church Street"/>
    <tag k="source" v="survey"/>
  </node>
  <node id="862951909" version="2" timestamp="2012-02-13T04:54:02Z" uid="7523" user="inas" changeset="10670222" lat="-33.914472" lon="151.1497851"/>
  <node id="862951916" version="1" timestamp="2010-08-16T09:01:31Z" uid="7617" user="Franc" changeset="5507347" lat="-33.9145156" lon="151.1498553">
    <tag k="addr:housenumber" v="29"/>
    <tag k="addr:street" v="Church Street"/>
    <tag k="source" v="extrapolation"/>
  </node>
  <node id="862951916" version="2" timestamp="2012-02-13T04:54:01Z" uid="7523" user="inas" changeset="10670222" lat="-33.9145156" lon="151.1498553"/>
  <node id="862951921" version="1" timestamp="2010-08-16T09:01:31Z" uid="7617" user="Franc" changeset="5507347" lat="-33.9144249" lon="151.1496882">
    <tag k="addr:housenumber" v="33"/>
    <tag k="addr:street" v="Church Street"/>
    <tag k="source" v="survey"/>
  </node>
  <node id="862951921" version="2" timestamp="2012-02-13T04:54:03Z" uid="7523" user="inas" changeset="10670222" lat="-33.9144249" lon="151.1496882"/>
  <node id="862951926" version="1" timestamp="2010-08-16T09:01:32Z" uid="7617" user="Franc" changeset="5507347" lat="-33.9140998" lon="151.1492523">
    <tag k="addr:housenumber" v="3"/>
    <tag k="addr:street" v="Moyes Street"/>
  </node>
  <node id="862951926" version="2" timestamp="2012-02-13T04:54:02Z" uid="7523" user="inas" changeset="10670222" lat="-33.9140998" lon="151.1492523"/>
  <node id="862951931" version="1" timestamp="2010-08-16T09:01:32Z" uid="7617" user="Franc" changeset="5507347" lat="-33.9150991" lon="151.1504985">
    <tag k="addr:housenumber" v="2a"/>
    <tag k="addr:street" v="Church Street"/>
    <tag k="source" v="survey"/>
  </node>
  <node id="862951931" version="2" timestamp="2012-02-13T04:54:01Z" uid="7523" user="inas" changeset="10670222" lat="-33.9150991" lon="151.1504985"/>
  <node id="862951937" version="1" timestamp="2010-08-16T09:01:32Z" uid="7617" user="Franc" changeset="5507347" lat="-33.91506" lon="151.1503693">
    <tag k="power" v="sub_station"/>
  </node>
  <node id="862951940" version="1" timestamp="2010-08-16T09:01:32Z" uid="7617" user="Franc" changeset="5507347" lat="-33.9148518" lon="151.1504655">
    <tag k="addr:housenumber" v="2"/>
    <tag k="addr:street" v="Church Street"/>
    <tag k="source" v="survey"/>
  </node>
  <node id="862951940" version="2" timestamp="2012-02-13T04:53:57Z" uid="7523" user="inas" changeset="10670222" lat="-33.9148518" lon="151.1504655"/>
  <node id="862951948" version="1" timestamp="2010-08-16T09:01:32Z" uid="7617" user="Franc" changeset="5507347" lat="-33.9149151" lon="151.1505786">
    <tag k="addr:housenumber" v="7"/>
    <tag k="addr:street" v="Church Street"/>
    <tag k="source" v="extrapolation"/>
  </node>
  <node id="862951948" version="2" timestamp="2012-02-13T04:54:15Z" uid="7523" user="inas" changeset="10670222" lat="-33.9149151" lon="151.1505786"/>
  <node id="862951951" version="1" timestamp="2010-08-16T09:01:33Z" uid="7617" user="Franc" changeset="5507347" lat="-33.914837" lon="151.1504389">
    <tag k="addr:housenumber" v="11"/>
    <tag k="addr:street" v="Church Street"/>
    <tag k="source" v="extrapolation"/>
  </node>
  <node id="862951951" version="2" timestamp="2012-02-13T04:53:52Z" uid="7523" user="inas" changeset="10670222" lat="-33.914837" lon="151.1504389"/>
  <node id="862951960" version="1" timestamp="2010-08-16T09:01:33Z" uid="7617" user="Franc" changeset="5507347" lat="-33.9148865" lon="151.1505274">
    <tag k="addr:housenumber" v="9"/>
    <tag k="addr:street" v="Church Street"/>
    <tag k="source" v="extrapolation"/>
  </node>
  <node id="862951960" version="2" timestamp="2012-02-13T04:54:18Z" uid="7523" user="inas" changeset="10670222" lat="-33.9148865" lon="151.1505274"/>
  <node id="862951962" version="1" timestamp="2010-08-16T09:01:33Z" uid="7617" user="Franc" changeset="5507347" lat="-33.9148169" lon="151.1503949">
    <tag k="addr:housenumber" v="13"/>
    <tag k="addr:street" v="Church Street"/>
    <tag k="source" v="extrapolation"/>
  </node>
  <node id="862951962" version="2" timestamp="2012-02-13T04:53:53Z" uid="7523" user="inas" changeset="10670222" lat="-33.9148169" lon="151.1503949"/>
  <node id="862951965" version="1" timestamp="2010-08-16T09:01:33Z" uid="7617" user="Franc" changeset="5507347" lat="-33.9150129" lon="151.1503297">
    <tag k="addr:housenumber" v="2"/>
    <tag k="addr:street" v="Church Street"/>
    <tag k="source" v="survey"/>
  </node>
  <node id="862951965" version="2" timestamp="2012-02-13T04:53:57Z" uid="7523" user="inas" changeset="10670222" lat="-33.9150129" lon="151.1503297"/>
  <node id="862951967" version="1" timestamp="2010-08-16T09:01:33Z" uid="7617" user="Franc" changeset="5507347" lat="-33.9149633" lon="151.1502462">
    <tag k="addr:housenumber" v="4"/>
    <tag k="addr:street" v="Church Street"/>
    <tag k="source" v="extrapolation"/>
  </node>
  <node id="862951967" version="2" timestamp="2012-02-13T04:54:05Z" uid="7523" user="inas" changeset="10670222" lat="-33.9149633" lon="151.1502462"/>
  <node id="862951981" version="1" timestamp="2010-08-16T09:01:34Z" uid="7617" user="Franc" changeset="5507347" lat="-33.9148948" lon="151.1501338">
    <tag k="addr:housenumber" v="6"/>
    <tag k="addr:street" v="Church Street"/>
    <tag k="source" v="survey"/>
  </node>
  <node id="862951981" version="2" timestamp="2012-02-13T04:54:11Z" uid="7523" user="inas" changeset="10670222" lat="-33.9148948" lon="151.1501338"/>
  <node id="862951986" version="1" timestamp="2010-08-16T09:01:34Z" uid="7617" user="Franc" changeset="5507347" lat="-33.9150309" lon="151.1507856">
    <tag k="addr:housenumber" v="1"/>
    <tag k="addr:street" v="Church Street"/>
    <tag k="source" v="extrapolation"/>
  </node>
  <node id="862951986" version="2" timestamp="2012-02-13T04:53:50Z" uid="7523" user="inas" changeset="10670222" lat="-33.9150309" lon="151.1507856"/>
  <node id="862951991" version="1" timestamp="2010-08-16T09:01:34Z" uid="7617" user="Franc" changeset="5507347" lat="-33.9149823" lon="151.1506988">
    <tag k="addr:housenumber" v="3"/>
    <tag k="addr:street" v="Church Street"/>
    <tag k="source" v="survey"/>
  </node>
  <node id="862951991" version="2" timestamp="2012-02-13T04:54:01Z" uid="7523" user="inas" changeset="10670222" lat="-33.9149823" lon="151.1506988"/>
  <node id="862951992" version="1" timestamp="2010-08-16T09:01:34Z" uid="7617" user="Franc" changeset="5507347" lat="-33.9149501" lon="151.1506411">
    <tag k="addr:housenumber" v="5"/>
    <tag k="addr:street" v="Church Street"/>
    <tag k="source" v="survey"/>
  </node>
  <node id="862951992" version="2" timestamp="2012-02-13T04:54:08Z" uid="7523" user="inas" changeset="10670222" lat="-33.9149501" lon="151.1506411"/>
  <node id="862951995" version="1" timestamp="2010-08-16T09:01:35Z" uid="7617" user="Franc" changeset="5507347" lat="-33.9147439" lon="151.1502724">
    <tag k="addr:housenumber" v="17"/>
    <tag k="addr:street" v="Church Street"/>
    <tag k="source" v="survey"/>
  </node>
  <node id="862951995" version="2" timestamp="2012-02-13T04:53:55Z" uid="7523" user="inas" changeset="10670222" lat="-33.9147439" lon="151.1502724"/>
  <node id="862951999" version="1" timestamp="2010-08-16T09:01:35Z" uid="7617" user="Franc" changeset="5507347" lat="-33.9147708" lon="151.1503205">
    <tag k="addr:housenumber" v="15"/>
    <tag k="addr:street" v="Church Street"/>
    <tag k="source" v="survey"/>
  </node>
  <node id="862951999" version="2" timestamp="2012-02-13T04:53:54Z" uid="7523" user="inas" changeset="10670222" lat="-33.9147708" lon="151.1503205"/>
  <node id="862952004" version="1" timestamp="2010-08-16T09:01:35Z" uid="7617" user="Franc" changeset="5507347" lat="-33.9146945" lon="151.1501802">
    <tag k="addr:housenumber" v="19"/>
    <tag k="addr:street" v="Church Street"/>
    <tag k="source" v="extrapolation"/>
  </node>
  <node id="862952004" version="2" timestamp="2012-02-13T04:53:56Z" uid="7523" user="inas" changeset="10670222" lat="-33.9146945" lon="151.1501802"/>
  <node id="862952010" version="1" timestamp="2010-08-16T09:01:35Z" uid="7617" user="Franc" changeset="5507347" lat="-33.9146688" lon="151.1501317">
    <tag k="addr:housenumber" v="21"/>
    <tag k="addr:street" v="Church Street"/>
    <tag k="source" v="extrapolation"/>
  </node>
  <node id="862952010" version="2" timestamp="2012-02-13T04:53:58Z" uid="7523" user="inas" changeset="10670222" lat="-33.9146688" lon="151.1501317"/>
  <node id="862952024" version="1" timestamp="2010-08-16T09:01:36Z" uid="7617" user="Franc" changeset="5507347" lat="-33.9146329" lon="151.1500554">
    <tag k="addr:housenumber" v="23"/>
    <tag k="addr:street" v="Church Street"/>
    <tag k="source" v="extrapolation"/>
  </node>
  <node id="862952024" version="2" timestamp="2012-02-13T04:53:59Z" uid="7523" user="inas" changeset="10670222" lat="-33.9146329" lon="151.1500554"/>
  <node id="862952029" version="1" timestamp="2010-08-16T09:01:36Z" uid="7617" user="Franc" changeset="5507347" lat="-33.9146055" lon="151.15001">
    <tag k="addr:housenumber" v="25"/>
    <tag k="addr:street" v="Church Street"/>
    <tag k="source" v="extrapolation"/>
  </node>
  <node id="862952029" version="2" timestamp="2012-02-13T04:54:00Z" uid="7523" user="inas" changeset="10670222" lat="-33.9146055" lon="151.15001"/>
  <node id="862952032" version="1" timestamp="2010-08-16T09:01:36Z" uid="7617" user="Franc" changeset="5507347" lat="-33.9145687" lon="151.149946">
    <tag k="addr:housenumber" v="27"/>
    <tag k="addr:street" v="Church Street"/>
    <tag k="source" v="extrapolation"/>
  </node>
  <node id="862952032" version="2" timestamp="2012-02-13T04:54:00Z" uid="7523" user="inas" changeset="10670222" lat="-33.9145687" lon="151.149946"/>
  <node id="862952035" version="1" timestamp="2010-08-16T09:01:36Z" uid="7617" user="Franc" changeset="5507347" lat="-33.8943072" lon="151.1609731">
    <tag k="addr:housenumber" v="32"/>
    <tag k="addr:street" v="Gordon Crescent"/>
    <tag k="source" v="survey"/>
  </node>
  <node id="862952035" version="2" timestamp="2010-11-23T11:02:57Z" uid="7617" user="Franc" changeset="6438557" lat="-33.8943348" lon="151.1609663">
    <tag k="addr:housenumber" v="32"/>
    <tag k="addr:street" v="Gordon Crescent"/>
    <tag k="source" v="survey"/>
  </node>
  <node id="862952035" version="3" timestamp="2012-02-13T05:26:50Z" uid="7523" user="inas" changeset="10670291" lat="-33.8943348" lon="151.1609663"/>
  <node id="862952048" version="1" timestamp="2010-08-16T09:01:37Z" uid="7617" user="Franc" changeset="5507347" lat="-33.8943332" lon="151.1618631">
    <tag k="addr:housenumber" v="30"/>
    <tag k="addr:street" v="Gordon Crescent"/>
    <tag k="source" v="survey"/>
  </node>
  <node id="862952048" version="2" timestamp="2010-11-23T11:02:54Z" uid="7617" user="Franc" changeset="6438557" lat="-33.8943788" lon="151.1618496">
    <tag k="addr:housenumber" v="30"/>
    <tag k="addr:street" v="Gordon Crescent"/>
    <tag k="source" v="survey"/>
  </node>
  <node id="862952048" version="3" timestamp="2012-02-13T05:26:47Z" uid="7523" user="inas" changeset="10670291" lat="-33.8943788" lon="151.1618496"/>
  <node id="862952053" version="1" timestamp="2010-08-16T09:01:37Z" uid="7617" user="Franc" changeset="5507347" lat="-33.8784984" lon="151.1727584">
    <tag k="addr:housenumber" v="90"/>
    <tag k="addr:street" v="View Street"/>
    <tag k="source" v="survey"/>
  </node>
  <node id="862952053" version="2" timestamp="2012-02-16T02:51:38Z" uid="7523" user="inas" changeset="10698461" lat="-33.8784984" lon="151.1727584"/>
  <node id="862952056" version="1" timestamp="2010-08-16T09:01:37Z" uid="7617" user="Franc" changeset="5507347" lat="-33.8784052" lon="151.1728075">
    <tag k="addr:housenumber" v="92"/>
    <tag k="addr:street" v="View Street"/>
    <tag k="source" v="survey"/>
  </node>
  <node id="862952056" version="2" timestamp="2012-02-16T02:51:38Z" uid="7523" user="inas" changeset="10698461" lat="-33.8784052" lon="151.1728075"/>
  <node id="862952060" version="1" timestamp="2010-08-16T09:01:38Z" uid="7617" user="Franc" changeset="5507347" lat="-33.878279" lon="151.1731184">
    <tag k="addr:housenumber" v="77"/>
    <tag k="addr:street" v="View Street"/>
    <tag k="source" v="survey"/>
  </node>
  <node id="862952060" version="2" timestamp="2012-02-16T02:51:35Z" uid="7523" user="inas" changeset="10698461" lat="-33.878279" lon="151.1731184"/>
  <node id="862952063" version="1" timestamp="2010-08-16T09:01:38Z" uid="7617" user="Franc" changeset="5507347" lat="-33.8783509" lon="151.173074">
    <tag k="addr:housenumber" v="75"/>
    <tag k="addr:street" v="View Street"/>
    <tag k="source" v="survey"/>
  </node>
  <node id="862952063" version="2" timestamp="2012-02-16T02:51:35Z" uid="7523" user="inas" changeset="10698461" lat="-33.8783509" lon="151.173074"/>
  <node id="862952070" version="1" timestamp="2010-08-16T09:01:38Z" uid="7617" user="Franc" changeset="5507347" lat="-33.8767243" lon="151.1735556">
    <tag k="addr:housenumber" v="152"/>
    <tag k="addr:street" v="View Street"/>
    <tag k="source" v="survey"/>
  </node>
  <node id="862952070" version="2" timestamp="2012-02-16T02:51:01Z" uid="7523" user="inas" changeset="10698461" lat="-33.8767243" lon="151.1735556"/>
  <node id="862952076" version="1" timestamp="2010-08-16T09:01:38Z" uid="7617" user="Franc" changeset="5507347" lat="-33.8745469" lon="151.1745451">
    <tag k="addr:housenumber" v="222"/>
    <tag k="addr:street" v="View Street"/>
    <tag k="source" v="survey"/>
  </node>
  <node id="862952076" version="2" timestamp="2012-02-16T02:51:08Z" uid="7523" user="inas" changeset="10698461" lat="-33.8745469" lon="151.1745451"/>
  <node id="862952092" version="1" timestamp="2010-08-16T09:01:39Z" uid="7617" user="Franc" changeset="5507347" lat="-33.875699" lon="151.1748648">
    <tag k="addr:housenumber" v="308"/>
    <tag k="addr:street" v="Trafalgar Street"/>
  </node>
  <node id="862952092" version="2" timestamp="2012-02-16T05:59:16Z" uid="7523" user="inas" changeset="10698901" lat="-33.875699" lon="151.1748648"/>
  <node id="862952099" version="1" timestamp="2010-08-16T09:01:39Z" uid="7617" user="Franc" changeset="5507347" lat="-33.866687" lon="151.2035738">
    <tag k="addr:housenumber" v="42"/>
    <tag k="addr:street" v="Erskine Street"/>
    <tag k="source" v="extrapolation"/>
  </node>
  <node id="862952099" version="2" timestamp="2011-07-09T11:01:12Z" uid="473936" user="Socrates2011" changeset="8673459" lat="-33.8666224" lon="151.2035433">
    <tag k="addr:housenumber" v="42"/>
    <tag k="addr:street" v="Erskine Street"/>
    <tag k="source" v="extrapolation"/>
  </node>
  <node id="862952099" version="3" timestamp="2011-07-09T11:03:52Z" uid="473936" user="Socrates2011" changeset="8673459" lat="-33.8666037" lon="151.2035471">
    <tag k="addr:housenumber" v="42"/>
    <tag k="addr:street" v="Erskine Street"/>
    <tag k="source" v="extrapolation"/>
  </node>
  <node id="862952099" version="4" timestamp="2011-09-09T04:34:52Z" uid="7523" user="inas" changeset="9251113" lat="-33.8666037" lon="151.2035471"/>
  <node id="862952109" version="1" timestamp="2010-08-16T09:01:39Z" uid="7617" user="Franc" changeset="5507347" lat="-33.8666306" lon="151.2042074">
    <tag k="addr:housenumber" v="42"/>
    <tag k="addr:street" v="Erskine Street"/>
    <tag k="source" v="extrapolation"/>
  </node>
  <node id="862952109" version="2" timestamp="2011-07-09T11:01:12Z" uid="473936" user="Socrates2011" changeset="8673459" lat="-33.8665891" lon="151.2042176">
    <tag k="addr:housenumber" v="42"/>
    <tag k="addr:street" v="Erskine Street"/>
    <tag k="source" v="extrapolation"/>
  </node>
  <node id="862952109" version="3" timestamp="2011-07-09T11:03:52Z" uid="473936" user="Socrates2011" changeset="8673459" lat="-33.8665751" lon="151.2042407">
    <tag k="addr:housenumber" v="42"/>
    <tag k="addr:street" v="Erskine Street"/>
    <tag k="source" v="extrapolation"/>
  </node>
  <node id="862952109" version="4" timestamp="2011-09-09T04:34:52Z" uid="7523" user="inas" changeset="9251113" lat="-33.8665751" lon="151.2042407"/>
  <node id="862955841" version="1" timestamp="2010-08-16T09:05:29Z" uid="4467" user="Rosscoe" changeset="5507382" lat="-32.225412" lon="116.3920148"/>
  <node id="862955841" version="2" timestamp="2011-05-17T12:01:40Z" uid="18846" user="Treadly" changeset="8170514" lat="-32.2253587" lon="116.3920349"/>
  <node id="862955856" version="1" timestamp="2010-08-16T09:05:30Z" uid="4467" user="Rosscoe" changeset="5507382" lat="-32.2253543" lon="116.3925638"/>
  <node id="862955873" version="1" timestamp="2010-08-16T09:05:30Z" uid="4467" user="Rosscoe" changeset="5507382" lat="-32.2254452" lon="116.3955097"/>
  <node id="862957576" version="1" timestamp="2010-08-16T09:07:51Z" uid="74617" user="JohnSmith" changeset="5507407" lat="-27.4170917" lon="153.0362064"/>
  <node id="862957576" version="2" timestamp="2011-11-18T07:23:17Z" uid="76950" user="paulg" changeset="9861152" lat="-27.4170724" lon="153.0362376"/>
  <node id="862957579" version="1" timestamp="2010-08-16T09:07:51Z" uid="74617" user="JohnSmith" changeset="5507407" lat="-27.4157958" lon="153.036191"/>
  <node id="862957579" version="2" timestamp="2010-09-27T01:02:18Z" uid="76950" user="paulg" changeset="5887908" lat="-27.4156897" lon="153.0365168"/>
  <node id="862957579" version="3" timestamp="2011-11-18T07:23:17Z" uid="76950" user="paulg" changeset="9861152" lat="-27.4151286" lon="153.0359881"/>
  <node id="862957580" version="1" timestamp="2010-08-16T09:07:51Z" uid="74617" user="JohnSmith" changeset="5507407" lat="-27.4175155" lon="153.036219"/>
  <node id="862957580" version="2" timestamp="2011-11-18T07:23:17Z" uid="76950" user="paulg" changeset="9861152" lat="-27.4174957" lon="153.036193"/>
  <node id="862957582" version="1" timestamp="2010-08-16T09:07:51Z" uid="74617" user="JohnSmith" changeset="5507407" lat="-27.4157266" lon="153.0365624"/>
  <node id="862957582" version="2" timestamp="2011-11-18T07:23:17Z" uid="76950" user="paulg" changeset="9861152" lat="-27.4156957" lon="153.0367086"/>
  <node id="862957585" version="1" timestamp="2010-08-16T09:07:51Z" uid="74617" user="JohnSmith" changeset="5507407" lat="-27.4155821" lon="153.0366895"/>
  <node id="862957585" version="2" timestamp="2011-11-18T07:23:34Z" uid="76950" user="paulg" changeset="9861152" lat="-27.4155821" lon="153.0366895"/>
  <node id="862957588" version="1" timestamp="2010-08-16T09:07:52Z" uid="74617" user="JohnSmith" changeset="5507407" lat="-27.417809" lon="153.0352992"/>
  <node id="862957588" version="2" timestamp="2011-08-14T10:46:37Z" uid="22094" user="Chadzopkyo" changeset="9014238" lat="-27.417809" lon="153.0352992"/>
  <node id="862957591" version="1" timestamp="2010-08-16T09:07:52Z" uid="74617" user="JohnSmith" changeset="5507407" lat="-27.4156576" lon="153.0365377"/>
  <node id="862957591" version="2" timestamp="2011-11-18T07:23:17Z" uid="76950" user="paulg" changeset="9861152" lat="-27.4155391" lon="153.0367102"/>
  <node id="862957591" version="3" timestamp="2011-12-13T01:35:11Z" uid="76950" user="paulg" changeset="10104505" lat="-27.4155268" lon="153.0367045">
    <tag k="highway" v="traffic signals"/>
  </node>
  <node id="862957591" version="4" timestamp="2011-12-13T18:48:30Z" uid="70696" user="xybot" changeset="10109765" lat="-27.4155268" lon="153.0367045">
    <tag k="highway" v="traffic_signals"/>
  </node>
  <node id="862957594" version="1" timestamp="2010-08-16T09:07:52Z" uid="74617" user="JohnSmith" changeset="5507407" lat="-27.4152785" lon="153.0357926"/>
  <node id="862957594" version="2" timestamp="2010-09-27T01:02:18Z" uid="76950" user="paulg" changeset="5887908" lat="-27.415185" lon="153.0360126"/>
  <node id="862957596" version="1" timestamp="2010-08-16T09:07:52Z" uid="74617" user="JohnSmith" changeset="5507407" lat="-27.4170848" lon="153.0364331"/>
  <node id="862957596" version="2" timestamp="2011-11-18T07:23:15Z" uid="76950" user="paulg" changeset="9861152" lat="-27.4170372" lon="153.0364007"/>
  <node id="862957599" version="1" timestamp="2010-08-16T09:07:52Z" uid="74617" user="JohnSmith" changeset="5507407" lat="-27.415545" lon="153.0363459">
    <tag k="highway" v="traffic_signals"/>
  </node>
  <node id="862957599" version="2" timestamp="2011-11-18T07:23:15Z" uid="76950" user="paulg" changeset="9861152" lat="-27.4155143" lon="153.0365782">
    <tag k="highway" v="traffic_signals"/>
  </node>
  <node id="862957602" version="1" timestamp="2010-08-16T09:07:53Z" uid="74617" user="JohnSmith" changeset="5507407" lat="-27.4156701" lon="153.0366102"/>
  <node id="862957602" version="2" timestamp="2011-11-18T07:23:34Z" uid="76950" user="paulg" changeset="9861152" lat="-27.4156701" lon="153.0366102"/>
  <node id="862957604" version="1" timestamp="2010-08-16T09:07:53Z" uid="74617" user="JohnSmith" changeset="5507407" lat="-27.4155161" lon="153.0367886"/>
  <node id="862957604" version="2" timestamp="2011-11-18T07:23:16Z" uid="76950" user="paulg" changeset="9861152" lat="-27.4155481" lon="153.036869"/>
  <node id="862957606" version="1" timestamp="2010-08-16T09:07:53Z" uid="74617" user="JohnSmith" changeset="5507407" lat="-27.4154787" lon="153.0365482">
    <tag k="highway" v="traffic_signals"/>
  </node>
  <node id="862957606" version="2" timestamp="2011-12-13T01:35:11Z" uid="76950" user="paulg" changeset="10104505" lat="-27.4154787" lon="153.0365482"/>
  <node id="862959749" version="1" timestamp="2010-08-16T09:10:17Z" uid="115477" user="wowik" changeset="5507432" lat="54.9429421" lon="20.1547407">
    <tag k="addr:city" v="Светлогорск"/>
    <tag k="amenity" v="restaurant"/>
  </node>
</osm>
