<?xml version='1.0' encoding='UTF-8'?>
<osm version="0.6" generator="libosmium/2.20.0">
  <node id="866933658" version="1" timestamp="2010-08-18T16:04:37Z" uid="20587" user="balrog-kun" changeset="5528047" lat="52.2291605" lon="21.0097499"/>
  <node id="866933658" version="2" timestamp="2011-06-19T00:13:39Z" uid="20587" user="balrog-kun" changeset="8479249" lat="52.229168" lon="21.0097463">
    <tag k="highway" v="crossing"/>
  </node>
  <node id="866933658" version="3" timestamp="2011-06-19T00:48:49Z" uid="20587" user="balrog-kun" changeset="8479249" lat="52.2291949" lon="21.0097278">
    <tag k="highway" v="crossing"/>
  </node>
  <node id="866933662" version="1" timestamp="2010-08-18T16:04:37Z" uid="20587" user="balrog-kun" changeset="5528047" lat="52.2433968" lon="21.0988616">
    <tag k="name" v="Centrum zdrowia Bella Vita"/>
    <tag k="shop" v="spa"/>
  </node>
  <node id="866933666" version="1" timestamp="2010-08-18T16:04:38Z" uid="20587" user="balrog-kun" changeset="5528047" lat="52.2192746" lon="21.015063">
    <tag k="name" v="Sklep Żeglarski"/>
    <tag k="shop" v="sailing"/>
  </node>
  <node id="866933687" version="1" timestamp="2010-08-18T16:04:38Z" uid="20587" user="balrog-kun" changeset="5528047" lat="52.2431832" lon="21.0998203">
    <tag k="addr:housenumber" v="144/146"/>
    <tag k="addr:street" v="Grochowska"/>
    <tag k="amenity" v="fast_food"/>
    <tag k="cuisine" v="asian"/>
    <tag k="name" v="An Kim"/>
  </node>
  <node id="866933687" version="2" timestamp="2010-11-04T13:53:57Z" uid="20587" user="balrog-kun" changeset="6288680" lat="52.2431832" lon="21.0998203">
    <tag k="addr:housenumber" v="144/146"/>
    <tag k="addr:street" v="Grochowska"/>
    <tag k="amenity" v="fast_food"/>
    <tag k="cuisine" v="asian"/>
    <tag k="name" v="An Tien"/>
    <tag k="old_name" v="An Kim"/>
    <tag k="opening_hours" v="10-21"/>
  </node>
  <node id="866933687" version="3" timestamp="2011-05-20T22:04:45Z" uid="20587" user="balrog-kun" changeset="8202706" lat="52.2431832" lon="21.0998203">
    <tag k="addr:housenumber" v="144/146"/>
    <tag k="addr:street" v="Grochowska"/>
    <tag k="addr:subaddress" v="10"/>
    <tag k="amenity" v="fast_food"/>
    <tag k="cuisine" v="pizza"/>
    <tag k="name" v="Kosmiczna Pizza"/>
    <tag k="old_cuisine" v="asian"/>
    <tag k="old_name" v="An Tien"/>
    <tag k="old_opening_hours" v="10-21"/>
    <tag k="opening_hours" v="0-4;11-24"/>
    <tag k="phone" v="+48226120023"/>
  </node>
  <node id="866933691" version="1" timestamp="2010-08-18T16:04:39Z" uid="20587" user="balrog-kun" changeset="5528047" lat="52.2229362" lon="21.0129949">
    <tag k="amenity" v="restaurant"/>
    <tag k="cuisine" v="japanese"/>
  </node>
  <node id="866933697" version="1" timestamp="2010-08-18T16:04:39Z" uid="20587" user="balrog-kun" changeset="5528047" lat="52.2434614" lon="21.0985479">
    <tag k="amenity" v="pharmacy"/>
    <tag k="name" v="Apteka Dla Każdego"/>
    <tag k="operator" v="CEFARM"/>
  </node>
  <node id="866933703" version="1" timestamp="2010-08-18T16:04:39Z" uid="20587" user="balrog-kun" changeset="5528047" lat="52.2229426" lon="21.0083843">
    <tag k="shop" v="hifi"/>
  </node>
  <node id="866933717" version="1" timestamp="2010-08-18T16:04:40Z" uid="20587" user="balrog-kun" changeset="5528047" lat="52.2286776" lon="21.0110141">
    <tag k="amenity" v="restaurant"/>
    <tag k="cuisine" v="french"/>
    <tag k="name" v="La Table"/>
  </node>
  <node id="866933727" version="1" timestamp="2010-08-18T16:04:40Z" uid="20587" user="balrog-kun" changeset="5528047" lat="52.2286305" lon="21.0102811">
    <tag k="amenity" v="restaurant"/>
    <tag k="cuisine" v="grill"/>
    <tag k="name" v="Vis-à-vis"/>
  </node>
  <node id="866933732" version="1" timestamp="2010-08-18T16:04:40Z" uid="20587" user="balrog-kun" changeset="5528047" lat="52.2191696" lon="21.0150566">
    <tag k="amenity" v="fast_food"/>
    <tag k="cuisine" v="asian"/>
  </node>
  <node id="866933734" version="1" timestamp="2010-08-18T16:04:40Z" uid="20587" user="balrog-kun" changeset="5528047" lat="52.2431986" lon="21.0997525">
    <tag k="layer" v="1"/>
    <tag k="shop" v="headshop"/>
  </node>
</osm>
