<?xml version='1.0' encoding='UTF-8'?>
<osm version="0.6" generator="libosmium/2.20.0">
  <node id="868354424" version="1" timestamp="2010-08-19T10:26:27Z" uid="7617" user="Franc" changeset="5534167" lat="-33.9055615" lon="151.1592569">
    <tag k="traffic_calming" v="hump"/>
  </node>
  <node id="868354424" version="2" timestamp="2012-02-28T02:51:36Z" uid="7523" user="inas" changeset="10815385" lat="-33.9055615" lon="151.1592569"/>
  <node id="868354429" version="1" timestamp="2010-08-19T10:26:27Z" uid="7617" user="Franc" changeset="5534167" lat="-33.90583" lon="151.159988">
    <tag k="addr:housenumber" v="1"/>
    <tag k="addr:street" v="Council Street"/>
    <tag k="source" v="survey"/>
  </node>
  <node id="868354429" version="2" timestamp="2012-02-13T05:25:12Z" uid="7523" user="inas" changeset="10670291" lat="-33.90583" lon="151.159988"/>
  <node id="868354430" version="1" timestamp="2010-08-19T10:26:27Z" uid="7617" user="Franc" changeset="5534167" lat="-33.9058565" lon="151.1606953">
    <tag k="addr:housenumber" v="105a"/>
    <tag k="addr:street" v="Illawarra Road"/>
    <tag k="source" v="survey"/>
  </node>
  <node id="868354430" version="2" timestamp="2012-02-13T05:25:23Z" uid="7523" user="inas" changeset="10670291" lat="-33.9058565" lon="151.1606953"/>
  <node id="868354431" version="1" timestamp="2010-08-19T10:26:28Z" uid="7617" user="Franc" changeset="5534167" lat="-33.9057291" lon="151.1607905">
    <tag k="addr:housenumber" v="105"/>
    <tag k="addr:street" v="Illawarra Road"/>
    <tag k="source" v="survey"/>
  </node>
  <node id="868354431" version="2" timestamp="2012-02-13T05:25:22Z" uid="7523" user="inas" changeset="10670291" lat="-33.9057291" lon="151.1607905"/>
  <node id="868354434" version="1" timestamp="2010-08-19T10:26:28Z" uid="7617" user="Franc" changeset="5534167" lat="-33.9050758" lon="151.1596508">
    <tag k="traffic_calming" v="hump"/>
  </node>
  <node id="868354434" version="2" timestamp="2012-02-28T02:51:36Z" uid="7523" user="inas" changeset="10815385" lat="-33.9050758" lon="151.1596508"/>
  <node id="868354439" version="1" timestamp="2010-08-19T10:26:28Z" uid="7617" user="Franc" changeset="5534167" lat="-33.9049596" lon="151.1608506">
    <tag k="addr:housenumber" v="9"/>
    <tag k="addr:street" v="Woodland Street"/>
    <tag k="source" v="survey"/>
  </node>
  <node id="868354439" version="2" timestamp="2011-04-03T07:50:09Z" uid="7617" user="Franc" changeset="7750988" lat="-33.9049481" lon="151.1608515">
    <tag k="addr:housenumber" v="9"/>
    <tag k="addr:street" v="Woodland Street"/>
    <tag k="source" v="survey"/>
  </node>
  <node id="868354439" version="3" timestamp="2012-02-13T05:28:16Z" uid="7523" user="inas" changeset="10670291" lat="-33.9049481" lon="151.1608515"/>
  <node id="868354440" version="1" timestamp="2010-08-19T10:26:28Z" uid="7617" user="Franc" changeset="5534167" lat="-33.9049987" lon="151.1606253">
    <tag k="addr:housenumber" v="2"/>
    <tag k="addr:street" v="Woodland Street"/>
    <tag k="source" v="survey"/>
  </node>
  <node id="868354440" version="2" timestamp="2011-04-03T07:50:08Z" uid="7617" user="Franc" changeset="7750988" lat="-33.9049901" lon="151.1606305">
    <tag k="addr:housenumber" v="2"/>
    <tag k="addr:street" v="Woodland Street"/>
    <tag k="source" v="survey"/>
  </node>
  <node id="868354440" version="3" timestamp="2012-02-13T05:26:10Z" uid="7523" user="inas" changeset="10670291" lat="-33.9049901" lon="151.1606305"/>
  <node id="868354441" version="1" timestamp="2010-08-19T10:26:28Z" uid="7617" user="Franc" changeset="5534167" lat="-33.9049546" lon="151.1605389">
    <tag k="addr:housenumber" v="4"/>
    <tag k="addr:street" v="Woodland Street"/>
    <tag k="source" v="extrapolation"/>
  </node>
  <node id="868354441" version="2" timestamp="2011-04-03T07:49:59Z" uid="7617" user="Franc" changeset="7750988" lat="-33.9049323" lon="151.1605346">
    <tag k="addr:housenumber" v="4"/>
    <tag k="addr:street" v="Woodland Street"/>
    <tag k="source" v="extrapolation"/>
  </node>
  <node id="868354441" version="3" timestamp="2012-02-13T05:27:09Z" uid="7523" user="inas" changeset="10670291" lat="-33.9049323" lon="151.1605346"/>
  <node id="868354442" version="1" timestamp="2010-08-19T10:26:28Z" uid="7617" user="Franc" changeset="5534167" lat="-33.9048954" lon="151.1604414">
    <tag k="addr:housenumber" v="6"/>
    <tag k="addr:street" v="Woodland Street"/>
    <tag k="source" v="extrapolation"/>
  </node>
  <node id="868354442" version="2" timestamp="2011-04-03T07:50:02Z" uid="7617" user="Franc" changeset="7750988" lat="-33.9048602" lon="151.1604224">
    <tag k="addr:housenumber" v="6"/>
    <tag k="addr:street" v="Woodland Street"/>
    <tag k="source" v="extrapolation"/>
  </node>
  <node id="868354442" version="3" timestamp="2012-02-13T05:27:44Z" uid="7523" user="inas" changeset="10670291" lat="-33.9048602" lon="151.1604224"/>
  <node id="868354448" version="1" timestamp="2010-08-19T10:26:29Z" uid="7617" user="Franc" changeset="5534167" lat="-33.9048459" lon="151.1603541">
    <tag k="addr:housenumber" v="8"/>
    <tag k="addr:street" v="Woodland Street"/>
    <tag k="source" v="extrapolation"/>
  </node>
  <node id="868354448" version="2" timestamp="2011-04-03T07:50:06Z" uid="7617" user="Franc" changeset="7750988" lat="-33.9048143" lon="151.1603385">
    <tag k="addr:housenumber" v="8"/>
    <tag k="addr:street" v="Woodland Street"/>
    <tag k="source" v="extrapolation"/>
  </node>
  <node id="868354448" version="3" timestamp="2012-02-13T05:28:07Z" uid="7523" user="inas" changeset="10670291" lat="-33.9048143" lon="151.1603385"/>
  <node id="868354449" version="1" timestamp="2010-08-19T10:26:29Z" uid="7617" user="Franc" changeset="5534167" lat="-33.9047939" lon="151.1602638">
    <tag k="addr:housenumber" v="10"/>
    <tag k="addr:street" v="Woodland Street"/>
    <tag k="source" v="extrapolation"/>
  </node>
  <node id="868354449" version="2" timestamp="2011-04-03T07:49:57Z" uid="7617" user="Franc" changeset="7750988" lat="-33.9047781" lon="151.1602647">
    <tag k="addr:housenumber" v="10"/>
    <tag k="addr:street" v="Woodland Street"/>
    <tag k="source" v="extrapolation"/>
  </node>
  <node id="868354449" version="3" timestamp="2012-02-13T05:25:19Z" uid="7523" user="inas" changeset="10670291" lat="-33.9047781" lon="151.1602647"/>
  <node id="868354451" version="1" timestamp="2010-08-19T10:26:29Z" uid="7617" user="Franc" changeset="5534167" lat="-33.9047432" lon="151.1601823">
    <tag k="addr:housenumber" v="12"/>
    <tag k="addr:street" v="Woodland Street"/>
    <tag k="source" v="extrapolation"/>
  </node>
  <node id="868354451" version="2" timestamp="2011-04-03T07:49:51Z" uid="7617" user="Franc" changeset="7750988" lat="-33.9047353" lon="151.160184">
    <tag k="addr:housenumber" v="12"/>
    <tag k="addr:street" v="Woodland Street"/>
    <tag k="source" v="extrapolation"/>
  </node>
  <node id="868354451" version="3" timestamp="2012-02-13T05:25:34Z" uid="7523" user="inas" changeset="10670291" lat="-33.9047353" lon="151.160184"/>
  <node id="868354454" version="1" timestamp="2010-08-19T10:26:29Z" uid="7617" user="Franc" changeset="5534167" lat="-33.9047009" lon="151.1601008">
    <tag k="addr:housenumber" v="14"/>
    <tag k="addr:street" v="Woodland Street"/>
    <tag k="source" v="extrapolation"/>
  </node>
  <node id="868354454" version="2" timestamp="2011-04-03T07:50:12Z" uid="7617" user="Franc" changeset="7750988" lat="-33.9046851" lon="151.1601008">
    <tag k="addr:housenumber" v="14"/>
    <tag k="addr:street" v="Woodland Street"/>
    <tag k="source" v="extrapolation"/>
  </node>
  <node id="868354454" version="3" timestamp="2012-02-13T05:25:44Z" uid="7523" user="inas" changeset="10670291" lat="-33.9046851" lon="151.1601008"/>
  <node id="868354457" version="1" timestamp="2010-08-19T10:26:29Z" uid="7617" user="Franc" changeset="5534167" lat="-33.9045946" lon="151.1599043">
    <tag k="addr:housenumber" v="16"/>
    <tag k="addr:street" v="Woodland Street"/>
    <tag k="source" v="extrapolation"/>
  </node>
  <node id="868354457" version="2" timestamp="2011-04-03T07:49:54Z" uid="7617" user="Franc" changeset="7750988" lat="-33.9045766" lon="151.1599104">
    <tag k="addr:housenumber" v="16"/>
    <tag k="addr:street" v="Woodland Street"/>
    <tag k="source" v="extrapolation"/>
  </node>
  <node id="868354457" version="3" timestamp="2012-02-13T05:25:52Z" uid="7523" user="inas" changeset="10670291" lat="-33.9045766" lon="151.1599104"/>
  <node id="868354458" version="1" timestamp="2010-08-19T10:26:29Z" uid="7617" user="Franc" changeset="5534167" lat="-33.9045366" lon="151.1598009">
    <tag k="addr:housenumber" v="18"/>
    <tag k="addr:street" v="Woodland Street"/>
    <tag k="source" v="extrapolation"/>
  </node>
  <node id="868354458" version="2" timestamp="2011-04-03T07:49:58Z" uid="7617" user="Franc" changeset="7750988" lat="-33.9045215" lon="151.1598113">
    <tag k="addr:housenumber" v="18"/>
    <tag k="addr:street" v="Woodland Street"/>
    <tag k="source" v="extrapolation"/>
  </node>
  <node id="868354458" version="3" timestamp="2012-02-13T05:25:59Z" uid="7523" user="inas" changeset="10670291" lat="-33.9045215" lon="151.1598113"/>
  <node id="868354459" version="1" timestamp="2010-08-19T10:26:30Z" uid="7617" user="Franc" changeset="5534167" lat="-33.9044294" lon="151.1599325">
    <tag k="addr:housenumber" v="33"/>
    <tag k="addr:street" v="Woodland Street"/>
    <tag k="source" v="survey"/>
  </node>
  <node id="868354459" version="2" timestamp="2012-02-13T05:26:53Z" uid="7523" user="inas" changeset="10670291" lat="-33.9044294" lon="151.1599325"/>
  <node id="868354464" version="1" timestamp="2010-08-19T10:26:30Z" uid="7617" user="Franc" changeset="5534167" lat="-33.9043813" lon="151.1598445">
    <tag k="addr:housenumber" v="35"/>
    <tag k="addr:street" v="Woodland Street"/>
    <tag k="source" v="survey"/>
  </node>
  <node id="868354464" version="2" timestamp="2011-04-03T07:50:01Z" uid="7617" user="Franc" changeset="7750988" lat="-33.904377" lon="151.1598419">
    <tag k="addr:housenumber" v="35"/>
    <tag k="addr:street" v="Woodland Street"/>
    <tag k="source" v="survey"/>
  </node>
  <node id="868354464" version="3" timestamp="2012-02-13T05:26:57Z" uid="7523" user="inas" changeset="10670291" lat="-33.904377" lon="151.1598419"/>
  <node id="868354466" version="1" timestamp="2010-08-19T10:26:30Z" uid="7617" user="Franc" changeset="5534167" lat="-33.904358" lon="151.1597982">
    <tag k="addr:housenumber" v="37"/>
    <tag k="addr:street" v="Woodland Street"/>
    <tag k="source" v="survey"/>
  </node>
  <node id="868354466" version="2" timestamp="2012-02-13T05:27:01Z" uid="7523" user="inas" changeset="10670291" lat="-33.904358" lon="151.1597982"/>
  <node id="868354467" version="1" timestamp="2010-08-19T10:26:30Z" uid="7617" user="Franc" changeset="5534167" lat="-33.9044887" lon="151.1597141">
    <tag k="addr:housenumber" v="20"/>
    <tag k="addr:street" v="Woodland Street"/>
    <tag k="source" v="survey"/>
  </node>
  <node id="868354467" version="2" timestamp="2011-04-03T07:50:10Z" uid="7617" user="Franc" changeset="7750988" lat="-33.9044779" lon="151.1597202">
    <tag k="addr:housenumber" v="20"/>
    <tag k="addr:street" v="Woodland Street"/>
    <tag k="source" v="survey"/>
  </node>
  <node id="868354467" version="3" timestamp="2012-02-13T05:26:12Z" uid="7523" user="inas" changeset="10670291" lat="-33.9044779" lon="151.1597202"/>
  <node id="868354468" version="1" timestamp="2010-08-19T10:26:30Z" uid="7617" user="Franc" changeset="5534167" lat="-33.9055138" lon="151.1609732">
    <tag k="addr:housenumber" v="99"/>
    <tag k="addr:street" v="Illawarra Road"/>
    <tag k="source" v="survey"/>
  </node>
  <node id="868354468" version="2" timestamp="2012-02-13T05:28:22Z" uid="7523" user="inas" changeset="10670291" lat="-33.9055138" lon="151.1609732"/>
  <node id="868354474" version="1" timestamp="2010-08-19T10:26:31Z" uid="7617" user="Franc" changeset="5534167" lat="-33.9054611" lon="151.1610102">
    <tag k="addr:housenumber" v="97"/>
    <tag k="addr:street" v="Illawarra Road"/>
    <tag k="source" v="survey"/>
  </node>
  <node id="868354474" version="2" timestamp="2012-02-13T05:28:20Z" uid="7523" user="inas" changeset="10670291" lat="-33.9054611" lon="151.1610102"/>
  <node id="868354476" version="1" timestamp="2010-08-19T10:26:31Z" uid="7617" user="Franc" changeset="5534167" lat="-33.904427" lon="151.161179">
    <tag k="addr:housenumber" v="2"/>
    <tag k="addr:street" v="Horton Street"/>
    <tag k="source" v="survey"/>
  </node>
  <node id="868354476" version="2" timestamp="2012-02-13T05:26:07Z" uid="7523" user="inas" changeset="10670291" lat="-33.904427" lon="151.161179"/>
  <node id="868354477" version="1" timestamp="2010-08-19T10:26:31Z" uid="7617" user="Franc" changeset="5534167" lat="-33.9050494" lon="151.1610264">
    <tag k="addr:housenumber" v="3"/>
    <tag k="addr:street" v="Woodland Street"/>
    <tag k="source" v="survey"/>
  </node>
  <node id="868354477" version="2" timestamp="2011-04-03T07:50:02Z" uid="7617" user="Franc" changeset="7750988" lat="-33.9050437" lon="151.1610195">
    <tag k="addr:housenumber" v="3"/>
    <tag k="addr:street" v="Woodland Street"/>
    <tag k="source" v="survey"/>
  </node>
  <node id="868354477" version="3" timestamp="2012-02-13T05:26:46Z" uid="7523" user="inas" changeset="10670291" lat="-33.9050437" lon="151.1610195"/>
  <node id="868354478" version="1" timestamp="2010-08-19T10:26:31Z" uid="7617" user="Franc" changeset="5534167" lat="-33.9050173" lon="151.1609743">
    <tag k="addr:housenumber" v="5"/>
    <tag k="addr:street" v="Woodland Street"/>
    <tag k="source" v="survey"/>
  </node>
  <node id="868354478" version="2" timestamp="2012-02-13T05:27:30Z" uid="7523" user="inas" changeset="10670291" lat="-33.9050173" lon="151.1609743"/>
  <node id="868354487" version="1" timestamp="2010-08-19T10:26:31Z" uid="7617" user="Franc" changeset="5534167" lat="-33.904986" lon="151.1609076">
    <tag k="addr:housenumber" v="7"/>
    <tag k="addr:street" v="Woodland Street"/>
    <tag k="source" v="survey"/>
  </node>
  <node id="868354487" version="2" timestamp="2011-04-03T07:49:55Z" uid="7617" user="Franc" changeset="7750988" lat="-33.9049767" lon="151.1609007">
    <tag k="addr:housenumber" v="7"/>
    <tag k="addr:street" v="Woodland Street"/>
    <tag k="source" v="survey"/>
  </node>
  <node id="868354487" version="3" timestamp="2012-02-13T05:27:56Z" uid="7523" user="inas" changeset="10670291" lat="-33.9049767" lon="151.1609007"/>
  <node id="868354489" version="1" timestamp="2010-08-19T10:26:31Z" uid="7617" user="Franc" changeset="5534167" lat="-33.9050887" lon="151.1610931">
    <tag k="addr:housenumber" v="1"/>
    <tag k="addr:street" v="Woodland Street"/>
    <tag k="source" v="extrapolation"/>
  </node>
  <node id="868354489" version="2" timestamp="2011-04-03T07:50:09Z" uid="7617" user="Franc" changeset="7750988" lat="-33.9050822" lon="151.1610922">
    <tag k="addr:housenumber" v="1"/>
    <tag k="addr:street" v="Woodland Street"/>
    <tag k="source" v="extrapolation"/>
  </node>
  <node id="868354489" version="3" timestamp="2012-02-13T05:25:16Z" uid="7523" user="inas" changeset="10670291" lat="-33.9050822" lon="151.1610922"/>
  <node id="868354491" version="1" timestamp="2010-08-19T10:26:31Z" uid="7617" user="Franc" changeset="5534167" lat="-33.9032516" lon="151.1586616"/>
  <node id="868354493" version="1" timestamp="2010-08-19T10:26:31Z" uid="7617" user="Franc" changeset="5534167" lat="-33.9031485" lon="151.1588461"/>
  <node id="868354493" version="2" timestamp="2012-02-28T03:27:22Z" uid="7523" user="inas" changeset="10815457" lat="-33.9031485" lon="151.1588461"/>
  <node id="868354495" version="1" timestamp="2010-08-19T10:26:31Z" uid="7617" user="Franc" changeset="5534167" lat="-33.9033928" lon="151.1587694"/>
  <node id="868354498" version="1" timestamp="2010-08-19T10:26:32Z" uid="7617" user="Franc" changeset="5534167" lat="-33.903091" lon="151.1589691"/>
  <node id="868354498" version="2" timestamp="2012-02-28T03:27:23Z" uid="7523" user="inas" changeset="10815457" lat="-33.903091" lon="151.1589691"/>
  <node id="868354500" version="1" timestamp="2010-08-19T10:26:32Z" uid="7617" user="Franc" changeset="5534167" lat="-33.9031122" lon="151.1589981"/>
  <node id="868354500" version="2" timestamp="2012-02-28T03:27:23Z" uid="7523" user="inas" changeset="10815457" lat="-33.9031122" lon="151.1589981"/>
  <node id="868354503" version="1" timestamp="2010-08-19T10:26:32Z" uid="7617" user="Franc" changeset="5534167" lat="-33.9028338" lon="151.1592279">
    <tag k="addr:housenumber" v="5"/>
    <tag k="addr:street" v="Amy Street"/>
    <tag k="source" v="survey"/>
  </node>
  <node id="868354503" version="2" timestamp="2012-02-13T05:27:26Z" uid="7523" user="inas" changeset="10670291" lat="-33.9028338" lon="151.1592279"/>
  <node id="868354507" version="1" timestamp="2010-08-19T10:26:32Z" uid="7617" user="Franc" changeset="5534167" lat="-33.9029415" lon="151.1591391">
    <tag k="addr:housenumber" v="9"/>
    <tag k="addr:street" v="Amy Street"/>
    <tag k="source" v="survey"/>
  </node>
  <node id="868354507" version="2" timestamp="2012-02-13T05:28:13Z" uid="7523" user="inas" changeset="10670291" lat="-33.9029415" lon="151.1591391"/>
  <node id="868354510" version="1" timestamp="2010-08-19T10:26:32Z" uid="7617" user="Franc" changeset="5534167" lat="-33.9028831" lon="151.159182">
    <tag k="addr:housenumber" v="7"/>
    <tag k="addr:street" v="Amy Street"/>
    <tag k="source" v="extrapolation"/>
  </node>
  <node id="868354510" version="2" timestamp="2012-02-13T05:27:53Z" uid="7523" user="inas" changeset="10670291" lat="-33.9028831" lon="151.159182"/>
  <node id="868354514" version="1" timestamp="2010-08-19T10:26:32Z" uid="7617" user="Franc" changeset="5534167" lat="-33.9027822" lon="151.1592657">
    <tag k="addr:housenumber" v="3"/>
    <tag k="addr:street" v="Amy Street"/>
    <tag k="source" v="extrapolation"/>
  </node>
  <node id="868354514" version="2" timestamp="2012-02-13T05:26:42Z" uid="7523" user="inas" changeset="10670291" lat="-33.9027822" lon="151.1592657"/>
  <node id="868354518" version="1" timestamp="2010-08-19T10:26:32Z" uid="7617" user="Franc" changeset="5534167" lat="-33.9027315" lon="151.1593089">
    <tag k="addr:housenumber" v="1"/>
    <tag k="addr:street" v="Amy Street"/>
    <tag k="source" v="extrapolation"/>
  </node>
  <node id="868354518" version="2" timestamp="2012-02-13T05:25:11Z" uid="7523" user="inas" changeset="10670291" lat="-33.9027315" lon="151.1593089"/>
  <node id="868354521" version="1" timestamp="2010-08-19T10:26:32Z" uid="7617" user="Franc" changeset="5534167" lat="-33.903645" lon="151.160324">
    <tag k="addr:housenumber" v="1"/>
    <tag k="addr:street" v="Horton Street"/>
    <tag k="source" v="survey"/>
  </node>
  <node id="868354521" version="2" timestamp="2012-02-13T05:25:13Z" uid="7523" user="inas" changeset="10670291" lat="-33.903645" lon="151.160324"/>
  <node id="868354523" version="1" timestamp="2010-08-19T10:26:32Z" uid="7617" user="Franc" changeset="5534167" lat="-33.903579" lon="151.1602046">
    <tag k="addr:housenumber" v="3"/>
    <tag k="addr:street" v="Horton Street"/>
    <tag k="source" v="survey"/>
  </node>
  <node id="868354523" version="2" timestamp="2012-02-13T05:26:43Z" uid="7523" user="inas" changeset="10670291" lat="-33.903579" lon="151.1602046"/>
</osm>
