<?xml version='1.0' encoding='UTF-8'?>
<osm version="0.6" generator="libosmium/2.20.0">
  <node id="873050144" version="1" timestamp="2010-08-22T01:22:47Z" uid="4467" user="Rosscoe" changeset="5557239" lat="-21.1284479" lon="149.1611915">
    <tag k="name" v="Harvey Norman"/>
    <tag k="shop" v="electronics"/>
    <tag k="source" v="nearmap;knowledge"/>
  </node>
  <node id="873050155" version="1" timestamp="2010-08-22T01:22:48Z" uid="4467" user="Rosscoe" changeset="5557239" lat="-21.1296479" lon="149.1618003">
    <tag k="addr:city" v="Mackay"/>
    <tag k="addr:country" v="AU"/>
    <tag k="addr:postcode" v="4740"/>
    <tag k="addr:state" v="Qld"/>
    <tag k="addr:street" v="Bruce Highway"/>
    <tag k="name" v="Super Cheap Auto"/>
    <tag k="opening_hours" v="Mo-Sa 08:30-17:30; Th 08:30-20:00; Su 08:30-16:30"/>
    <tag k="shop" v="car_repair"/>
    <tag k="source" v="nearmap;knowledge"/>
  </node>
  <node id="873050170" version="1" timestamp="2010-08-22T01:22:48Z" uid="4467" user="Rosscoe" changeset="5557239" lat="-21.1287766" lon="149.1616089">
    <tag k="addr:city" v="Mackay"/>
    <tag k="addr:country" v="AU"/>
    <tag k="addr:housenumber" v="8-10"/>
    <tag k="addr:postcode" v="4740"/>
    <tag k="addr:state" v="Qld"/>
    <tag k="addr:street" v="Windmill Crossing"/>
    <tag k="addr:suburb" v="Mount Pleasant"/>
    <tag k="name" v="Harvey Norman"/>
    <tag k="shop" v="furniture"/>
    <tag k="source" v="nearmap;knowledge"/>
  </node>
  <node id="873050181" version="1" timestamp="2010-08-22T01:22:49Z" uid="4467" user="Rosscoe" changeset="5557239" lat="-21.1286139" lon="149.1614107">
    <tag k="name" v="Harvey Norman"/>
    <tag k="shop" v="computer"/>
    <tag k="source" v="nearmap;knowledge"/>
  </node>
</osm>
