<?xml version='1.0' encoding='UTF-8'?>
<osm version="0.6" generator="libosmium/2.20.0">
  <node id="87372088" version="2" timestamp="2007-11-04T20:22:47Z" uid="8328" user="benpre" changeset="405847" lat="64.056592" lon="-21.9653779"/>
  <node id="87372088" version="3" timestamp="2008-01-21T21:18:08Z" uid="12671" user="sladen" changeset="680130" lat="64.0566001" lon="-21.9654998"/>
  <node id="87372088" version="4" timestamp="2008-01-21T21:18:22Z" uid="12671" user="sladen" changeset="680130" lat="64.0565813" lon="-21.965474"/>
  <node id="87372088" version="5" timestamp="2011-12-08T17:50:18Z" uid="500537" user="bergtor05" changeset="10067029" lat="64.056549" lon="-21.9654158"/>
  <node id="87372088" version="6" timestamp="2011-12-10T23:11:31Z" uid="500537" user="bergtor05" changeset="10085763" lat="64.056552" lon="-21.9654518"/>
  <node id="87372088" version="7" timestamp="2011-12-11T17:23:18Z" uid="500537" user="bergtor05" changeset="10091976" lat="64.0570468" lon="-21.9653339"/>
  <node id="87372093" version="2" timestamp="2007-11-04T20:23:01Z" uid="8328" user="benpre" changeset="405847" lat="64.056592" lon="-21.9653779"/>
  <node id="87372890" version="2" timestamp="2007-11-04T20:22:46Z" uid="8328" user="benpre" changeset="405847" lat="64.0546281" lon="-21.973446"/>
  <node id="87372891" version="2" timestamp="2007-11-04T20:23:01Z" uid="8328" user="benpre" changeset="405847" lat="64.0546281" lon="-21.973446"/>
  <node id="87377480" version="1" timestamp="2007-10-25T23:13:18Z" uid="8975" user="magkes" changeset="322489" lat="51.906521" lon="10.4440064">
    <tag k="created_by" v="JOSM"/>
    <tag k="leisure" v="water_park"/>
    <tag k="name" v="Aquantic"/>
  </node>
  <node id="87377480" version="2" timestamp="2008-06-15T21:18:53Z" uid="16256" user="patzi" changeset="186322" lat="51.9066593" lon="10.4447398">
    <tag k="created_by" v="JOSM"/>
    <tag k="leisure" v="water_park"/>
    <tag k="name" v="Aquantic"/>
  </node>
  <node id="87377480" version="3" timestamp="2010-03-29T17:06:01Z" uid="55521" user="Ebbe73" changeset="4269313" lat="51.9066593" lon="10.4447398">
    <tag k="created_by" v="JOSM"/>
    <tag k="leisure" v="water_park"/>
    <tag k="name" v="Aquantic"/>
  </node>
  <node id="87377578" version="1" timestamp="2007-10-25T23:13:28Z" uid="8975" user="magkes" changeset="322489" lat="51.9076509" lon="10.4391185">
    <tag k="amenity" v="fuel"/>
    <tag k="created_by" v="JOSM"/>
    <tag k="name" v="Aral"/>
  </node>
  <node id="87377578" version="2" timestamp="2010-09-06T12:43:33Z" uid="336460" user="robgeb" changeset="5697650" lat="51.907651" lon="10.4391185">
    <tag k="addr:city" v="Goslar"/>
    <tag k="addr:country" v="DE"/>
    <tag k="addr:housenumber" v="7"/>
    <tag k="addr:postcode" v="38640"/>
    <tag k="addr:street" v="Reiseckenweg"/>
    <tag k="amenity" v="fuel"/>
    <tag k="fuel:diesel" v="yes"/>
    <tag k="fuel:octane_95" v="yes"/>
    <tag k="fuel:octane_98" v="yes"/>
    <tag k="fuel_octane_91" v="yes"/>
    <tag k="name" v="Aral"/>
    <tag k="opening_hours" v="Mo-Fr 06:00-24:00; Sa 06:00-24:00; Su 08:30-24:00"/>
    <tag k="operator" v="Aral"/>
    <tag k="payment:cash" v="yes"/>
    <tag k="payment:credit_cards" v="mastercard;visa;american_express;diners_club"/>
    <tag k="payment:debit_cards" v="maestro"/>
    <tag k="payment:fuel_cards" v="uta;Aral;BP;IP;Statoil;OMV;Westfalen"/>
  </node>
  <node id="87377578" version="3" timestamp="2010-09-06T12:52:00Z" uid="336460" user="robgeb" changeset="5697650" lat="51.907651" lon="10.4391185">
    <tag k="addr:city" v="Goslar"/>
    <tag k="addr:country" v="DE"/>
    <tag k="addr:housenumber" v="7"/>
    <tag k="addr:postcode" v="38640"/>
    <tag k="addr:street" v="Reiseckenweg"/>
    <tag k="amenity" v="fuel"/>
    <tag k="fuel:diesel" v="yes"/>
    <tag k="fuel:octane_95" v="yes"/>
    <tag k="fuel:octane_98" v="yes"/>
    <tag k="fuel_octane_91" v="yes"/>
    <tag k="name" v="Aral"/>
    <tag k="opening_hours" v="Mo-Fr 06:00-24:00; Sa 06:00-24:00; Su 08:30-24:00"/>
    <tag k="operator" v="Aral"/>
    <tag k="payment:cash" v="yes"/>
    <tag k="payment:credit_cards" v="mastercard;visa;american_express;diners_club"/>
    <tag k="payment:debit_cards" v="maestro"/>
    <tag k="payment:fuel_cards" v="uta;aral;bp;ip;statoil;omv;westfalen"/>
  </node>
  <node id="87377578" version="4" timestamp="2010-09-09T09:42:57Z" uid="102899" user="stw1701" changeset="5731111" lat="51.907651" lon="10.4391185">
    <tag k="addr:city" v="Goslar"/>
    <tag k="addr:country" v="DE"/>
    <tag k="addr:housenumber" v="7"/>
    <tag k="addr:postcode" v="38640"/>
    <tag k="addr:street" v="Reiseckenweg"/>
    <tag k="amenity" v="fuel"/>
    <tag k="fuel:diesel" v="yes"/>
    <tag k="fuel:octane_91" v="yes"/>
    <tag k="fuel:octane_95" v="yes"/>
    <tag k="fuel:octane_98" v="yes"/>
    <tag k="name" v="Aral"/>
    <tag k="opening_hours" v="Mo-Fr 06:00-24:00; Sa 06:00-24:00; Su 08:30-24:00"/>
    <tag k="operator" v="Aral"/>
    <tag k="payment:cash" v="yes"/>
    <tag k="payment:credit_cards" v="mastercard;visa;american_express;diners_club"/>
    <tag k="payment:debit_cards" v="maestro"/>
    <tag k="payment:fuel_cards" v="uta;aral;bp;ip;statoil;omv;westfalen"/>
  </node>
  <node id="87377578" version="5" timestamp="2010-09-09T11:24:39Z" uid="26299" user="uboot" changeset="5731757" lat="51.907651" lon="10.4391185">
    <tag k="addr:city" v="Goslar"/>
    <tag k="addr:country" v="DE"/>
    <tag k="addr:housenumber" v="7"/>
    <tag k="addr:postcode" v="38640"/>
    <tag k="addr:street" v="Reiseckenweg"/>
    <tag k="amenity" v="fuel"/>
    <tag k="fuel:diesel" v="yes"/>
    <tag k="fuel:octane_91" v="yes"/>
    <tag k="fuel:octane_95" v="yes"/>
    <tag k="fuel:octane_98" v="yes"/>
    <tag k="name" v="Aral"/>
    <tag k="opening_hours" v="Mo-Sa 06:00-24:00; Su 08:30-24:00"/>
    <tag k="operator" v="Aral"/>
    <tag k="payment:cash" v="yes"/>
    <tag k="payment:credit_cards" v="mastercard;visa;american_express;diners_club"/>
    <tag k="payment:debit_cards" v="maestro"/>
    <tag k="payment:fuel_cards" v="uta;aral;bp;ip;statoil;omv;westfalen"/>
  </node>
  <node id="87377578" version="6" timestamp="2011-02-08T20:31:07Z" uid="336460" user="robgeb" changeset="7230474" lat="51.9074786" lon="10.4390075">
    <tag k="addr:city" v="Goslar"/>
    <tag k="addr:country" v="DE"/>
    <tag k="addr:housenumber" v="7"/>
    <tag k="addr:postcode" v="38640"/>
    <tag k="addr:street" v="Reiseckenweg"/>
    <tag k="amenity" v="fuel"/>
    <tag k="fuel:diesel" v="yes"/>
    <tag k="fuel:octane_91" v="yes"/>
    <tag k="fuel:octane_95" v="yes"/>
    <tag k="fuel:octane_98" v="yes"/>
    <tag k="name" v="Aral"/>
    <tag k="opening_hours" v="Mo-Sa 06:00-24:00; Su 08:30-24:00"/>
    <tag k="operator" v="Aral"/>
    <tag k="payment:cash" v="yes"/>
    <tag k="payment:credit_cards" v="mastercard;visa;american_express;diners_club"/>
    <tag k="payment:debit_cards" v="maestro"/>
    <tag k="payment:fuel_cards" v="uta;aral;bp;ip;statoil;omv;westfalen"/>
  </node>
  <node id="87377578" version="7" timestamp="2011-11-22T14:25:56Z" uid="463879" user="tumsi" changeset="9909569" lat="51.9074786" lon="10.4390075"/>
  <node id="87377582" version="1" timestamp="2007-10-25T23:13:29Z" uid="8975" user="magkes" changeset="322489" lat="51.9086315" lon="10.4395186">
    <tag k="created_by" v="JOSM"/>
  </node>
  <node id="87377582" version="2" timestamp="2008-06-22T23:40:51Z" uid="16256" user="patzi" changeset="267674" lat="51.9084956" lon="10.4393752">
    <tag k="created_by" v="JOSM"/>
  </node>
  <node id="87377582" version="3" timestamp="2009-03-24T15:48:07Z" uid="36745" user="Gluko" changeset="852828" lat="51.9084956" lon="10.4393752"/>
  <node id="87377582" version="4" timestamp="2011-11-22T14:26:01Z" uid="463879" user="tumsi" changeset="9909569" lat="51.9084956" lon="10.4393752"/>
  <node id="87377587" version="1" timestamp="2007-10-25T23:13:29Z" uid="8975" user="magkes" changeset="322489" lat="51.9082559" lon="10.4400448">
    <tag k="created_by" v="JOSM"/>
  </node>
  <node id="87377587" version="2" timestamp="2008-06-22T23:40:50Z" uid="16256" user="patzi" changeset="267674" lat="51.9083507" lon="10.4394404">
    <tag k="created_by" v="JOSM"/>
  </node>
  <node id="87377587" version="3" timestamp="2008-08-20T16:18:50Z" uid="16256" user="patzi" changeset="342682" lat="51.9083756" lon="10.4394646">
    <tag k="created_by" v="JOSM"/>
  </node>
  <node id="87377587" version="4" timestamp="2011-11-22T14:26:02Z" uid="463879" user="tumsi" changeset="9909569" lat="51.9083756" lon="10.4394646"/>
  <node id="87377591" version="1" timestamp="2007-10-25T23:13:29Z" uid="8975" user="magkes" changeset="322489" lat="51.9079712" lon="10.4404226">
    <tag k="created_by" v="JOSM"/>
  </node>
  <node id="87377591" version="2" timestamp="2008-06-22T23:40:50Z" uid="16256" user="patzi" changeset="267674" lat="51.9078764" lon="10.4399668">
    <tag k="created_by" v="JOSM"/>
  </node>
  <node id="87377591" version="3" timestamp="2008-08-20T16:18:50Z" uid="16256" user="patzi" changeset="342682" lat="51.9078988" lon="10.4400031">
    <tag k="created_by" v="JOSM"/>
  </node>
  <node id="87377591" version="4" timestamp="2011-11-22T14:26:02Z" uid="463879" user="tumsi" changeset="9909569" lat="51.9078988" lon="10.4400031"/>
  <node id="87377595" version="1" timestamp="2007-10-25T23:13:29Z" uid="8975" user="magkes" changeset="322489" lat="51.9071825" lon="10.4414743">
    <tag k="created_by" v="JOSM"/>
  </node>
  <node id="87377595" version="2" timestamp="2008-06-22T23:40:50Z" uid="16256" user="patzi" changeset="267674" lat="51.9069202" lon="10.441126">
    <tag k="created_by" v="JOSM"/>
  </node>
  <node id="87377595" version="3" timestamp="2008-08-20T16:18:50Z" uid="16256" user="patzi" changeset="342682" lat="51.9070942" lon="10.4409286">
    <tag k="created_by" v="JOSM"/>
  </node>
  <node id="87377595" version="4" timestamp="2011-11-22T14:26:02Z" uid="463879" user="tumsi" changeset="9909569" lat="51.9070942" lon="10.4409286"/>
  <node id="87377598" version="1" timestamp="2007-10-25T23:13:29Z" uid="8975" user="magkes" changeset="322489" lat="51.9070376" lon="10.4416408">
    <tag k="created_by" v="JOSM"/>
  </node>
  <node id="87377598" version="2" timestamp="2008-06-22T23:40:50Z" uid="16256" user="patzi" changeset="267674" lat="51.9064941" lon="10.4415947">
    <tag k="created_by" v="JOSM"/>
  </node>
  <node id="87377598" version="3" timestamp="2008-08-20T16:18:50Z" uid="16256" user="patzi" changeset="342682" lat="51.9065373" lon="10.441583">
    <tag k="created_by" v="JOSM"/>
  </node>
  <node id="87377598" version="4" timestamp="2011-11-22T14:26:02Z" uid="463879" user="tumsi" changeset="9909569" lat="51.9065373" lon="10.441583"/>
  <node id="87377603" version="1" timestamp="2007-10-25T23:13:30Z" uid="8975" user="magkes" changeset="322489" lat="51.9068591" lon="10.4418539">
    <tag k="created_by" v="JOSM"/>
  </node>
  <node id="87377603" version="2" timestamp="2008-06-22T23:40:49Z" uid="16256" user="patzi" changeset="267674" lat="51.9064104" lon="10.4417156">
    <tag k="created_by" v="JOSM"/>
  </node>
  <node id="87377603" version="3" timestamp="2008-07-03T10:20:07Z" uid="49471" user="grosses_s" changeset="385997" lat="51.9043363" lon="10.4441623">
    <tag k="created_by" v="JOSM"/>
  </node>
  <node id="87377603" version="4" timestamp="2008-08-20T16:18:50Z" uid="16256" user="patzi" changeset="342682" lat="51.906361" lon="10.4418012">
    <tag k="created_by" v="JOSM"/>
  </node>
  <node id="87377603" version="5" timestamp="2011-11-22T14:26:02Z" uid="463879" user="tumsi" changeset="9909569" lat="51.906361" lon="10.4418012"/>
  <node id="87377605" version="1" timestamp="2007-10-25T23:13:30Z" uid="8975" user="magkes" changeset="322489" lat="51.9066972" lon="10.442003">
    <tag k="created_by" v="JOSM"/>
  </node>
  <node id="87377605" version="2" timestamp="2008-06-22T23:40:49Z" uid="16256" user="patzi" changeset="267674" lat="51.9063717" lon="10.4418903">
    <tag k="created_by" v="JOSM"/>
  </node>
  <node id="87377605" version="3" timestamp="2008-07-03T10:20:07Z" uid="49471" user="grosses_s" changeset="385997" lat="51.9063062" lon="10.4418277">
    <tag k="created_by" v="JOSM"/>
  </node>
  <node id="87377605" version="4" timestamp="2008-07-03T10:21:08Z" uid="49471" user="grosses_s" changeset="385997" lat="51.906375" lon="10.4418019">
    <tag k="created_by" v="JOSM"/>
  </node>
  <node id="87377605" version="5" timestamp="2008-08-20T16:18:56Z" uid="16256" user="patzi" changeset="342682" lat="51.906375" lon="10.4418019">
    <tag k="created_by" v="JOSM"/>
  </node>
  <node id="87377609" version="1" timestamp="2007-10-25T23:13:30Z" uid="8975" user="magkes" changeset="322489" lat="51.9066134" lon="10.4420861">
    <tag k="created_by" v="JOSM"/>
  </node>
  <node id="87377609" version="2" timestamp="2008-01-06T12:56:47Z" uid="9168" user="Thomas Krüger" changeset="557586" lat="51.9065666" lon="10.442162">
    <tag k="created_by" v="JOSM"/>
  </node>
  <node id="87377609" version="3" timestamp="2008-06-22T23:40:50Z" uid="16256" user="patzi" changeset="267674" lat="51.9064813" lon="10.4422542">
    <tag k="created_by" v="JOSM"/>
  </node>
  <node id="87377609" version="4" timestamp="2008-07-03T10:21:08Z" uid="49471" user="grosses_s" changeset="385997" lat="51.9065392" lon="10.4421968">
    <tag k="created_by" v="JOSM"/>
  </node>
  <node id="87377609" version="5" timestamp="2008-07-04T14:17:14Z" uid="49471" user="grosses_s" changeset="394711" lat="51.9078639" lon="10.4451148">
    <tag k="created_by" v="JOSM"/>
  </node>
  <node id="87377609" version="6" timestamp="2008-08-20T16:18:56Z" uid="16256" user="patzi" changeset="342682" lat="51.9078639" lon="10.4451148">
    <tag k="created_by" v="JOSM"/>
  </node>
  <node id="87377615" version="1" timestamp="2007-10-25T23:13:30Z" uid="8975" user="magkes" changeset="322489" lat="51.9067659" lon="10.4425034">
    <tag k="created_by" v="JOSM"/>
  </node>
  <node id="87377615" version="2" timestamp="2008-01-06T12:57:04Z" uid="9168" user="Thomas Krüger" changeset="557586" lat="51.9067659" lon="10.4425034">
    <tag k="created_by" v="JOSM"/>
  </node>
  <node id="87377623" version="1" timestamp="2007-10-25T23:13:31Z" uid="8975" user="magkes" changeset="322489" lat="51.9070227" lon="10.4431736">
    <tag k="created_by" v="JOSM"/>
  </node>
  <node id="87377623" version="2" timestamp="2008-01-06T12:57:04Z" uid="9168" user="Thomas Krüger" changeset="557586" lat="51.9070227" lon="10.4431736">
    <tag k="created_by" v="JOSM"/>
  </node>
  <node id="87377630" version="1" timestamp="2007-10-25T23:13:31Z" uid="8975" user="magkes" changeset="322489" lat="51.907123" lon="10.4434384">
    <tag k="created_by" v="JOSM"/>
  </node>
  <node id="87377630" version="2" timestamp="2008-01-06T12:56:46Z" uid="9168" user="Thomas Krüger" changeset="557586" lat="51.9077163" lon="10.4452352">
    <tag k="created_by" v="JOSM"/>
  </node>
  <node id="87377630" version="3" timestamp="2008-06-22T23:40:49Z" uid="16256" user="patzi" changeset="267674" lat="51.9078478" lon="10.4450945">
    <tag k="created_by" v="JOSM"/>
  </node>
  <node id="87377630" version="4" timestamp="2011-11-22T14:26:02Z" uid="463879" user="tumsi" changeset="9909569" lat="51.9078478" lon="10.4450945"/>
</osm>
