<?xml version='1.0' encoding='UTF-8'?>
<osm version="0.6" generator="libosmium/2.20.0">
  <node id="874462859" version="1" timestamp="2010-08-22T21:19:09Z" uid="9581" user="Lobelt" changeset="5566018" lat="50.8004344" lon="11.5974234"/>
  <node id="874462867" version="1" timestamp="2010-08-22T21:19:09Z" uid="9581" user="Lobelt" changeset="5566018" lat="50.8007699" lon="11.5981165"/>
  <node id="874462869" version="1" timestamp="2010-08-22T21:19:09Z" uid="9581" user="Lobelt" changeset="5566018" lat="50.7995443" lon="11.5959415"/>
  <node id="874462870" version="1" timestamp="2010-08-22T21:19:09Z" uid="9581" user="Lobelt" changeset="5566018" lat="50.7975817" lon="11.5918396">
    <tag k="addr:city" v="Kahla"/>
    <tag k="addr:housenumber" v="18A"/>
    <tag k="addr:postcode" v="07768"/>
    <tag k="addr:street" v="Neustädter Straße"/>
    <tag k="name" v="Saalehotel"/>
    <tag k="tourism" v="hotel"/>
  </node>
  <node id="874462870" version="2" timestamp="2010-12-04T17:04:33Z" uid="64673" user="olanis2" changeset="6540358" lat="50.7975456" lon="11.5917128">
    <tag k="addr:city" v="Kahla"/>
    <tag k="addr:housenumber" v="18A"/>
    <tag k="addr:postcode" v="07768"/>
    <tag k="addr:street" v="Neustädter Straße"/>
    <tag k="name" v="Saalehotel"/>
    <tag k="tourism" v="hotel"/>
  </node>
  <node id="874462871" version="1" timestamp="2010-08-22T21:19:09Z" uid="9581" user="Lobelt" changeset="5566018" lat="50.7992088" lon="11.5955065"/>
  <node id="874462872" version="1" timestamp="2010-08-22T21:19:09Z" uid="9581" user="Lobelt" changeset="5566018" lat="50.8000616" lon="11.5969147"/>
  <node id="874462879" version="1" timestamp="2010-08-22T21:19:09Z" uid="9581" user="Lobelt" changeset="5566018" lat="50.7998239" lon="11.5965166"/>
  <node id="874462880" version="1" timestamp="2010-08-22T21:19:10Z" uid="9581" user="Lobelt" changeset="5566018" lat="50.8006487" lon="11.5978142"/>
  <node id="874462881" version="1" timestamp="2010-08-22T21:19:10Z" uid="9581" user="Lobelt" changeset="5566018" lat="50.7987278" lon="11.5947103"/>
  <node id="874462881" version="2" timestamp="2012-03-13T22:01:45Z" uid="192395" user="BBO" changeset="10972666" lat="50.7987278" lon="11.5947103"/>
  <node id="874464546" version="1" timestamp="2010-08-22T21:20:40Z" uid="16922" user="amai" changeset="5566034" lat="21.8611235" lon="96.1500654"/>
  <node id="874464547" version="1" timestamp="2010-08-22T21:20:40Z" uid="16922" user="amai" changeset="5566034" lat="21.8663847" lon="96.1631589"/>
  <node id="874464562" version="1" timestamp="2010-08-22T21:20:40Z" uid="16922" user="amai" changeset="5566034" lat="21.8609686" lon="96.1501492"/>
  <node id="874464565" version="1" timestamp="2010-08-22T21:20:40Z" uid="16922" user="amai" changeset="5566034" lat="21.8608292" lon="96.1502028"/>
  <node id="874464566" version="1" timestamp="2010-08-22T21:20:41Z" uid="16922" user="amai" changeset="5566034" lat="21.8605106" lon="96.1502028"/>
  <node id="874464567" version="1" timestamp="2010-08-22T21:20:41Z" uid="16922" user="amai" changeset="5566034" lat="21.8601222" lon="96.1501062"/>
  <node id="874464573" version="1" timestamp="2010-08-22T21:20:41Z" uid="16922" user="amai" changeset="5566034" lat="21.860162" lon="96.1515868"/>
  <node id="874464576" version="1" timestamp="2010-08-22T21:20:41Z" uid="16922" user="amai" changeset="5566034" lat="21.8598733" lon="96.1516941"/>
  <node id="874464577" version="1" timestamp="2010-08-22T21:20:41Z" uid="16922" user="amai" changeset="5566034" lat="21.8594451" lon="96.151737"/>
  <node id="874464580" version="1" timestamp="2010-08-22T21:20:41Z" uid="16922" user="amai" changeset="5566034" lat="21.8589472" lon="96.1518229"/>
  <node id="874464582" version="1" timestamp="2010-08-22T21:20:41Z" uid="16922" user="amai" changeset="5566034" lat="21.8588576" lon="96.1518229"/>
  <node id="874464584" version="1" timestamp="2010-08-22T21:20:41Z" uid="16922" user="amai" changeset="5566034" lat="21.8588477" lon="96.1522627"/>
  <node id="874464587" version="1" timestamp="2010-08-22T21:20:41Z" uid="16922" user="amai" changeset="5566034" lat="21.858778" lon="96.15237"/>
  <node id="874464588" version="1" timestamp="2010-08-22T21:20:42Z" uid="16922" user="amai" changeset="5566034" lat="21.8581108" lon="96.1526275"/>
  <node id="874464590" version="1" timestamp="2010-08-22T21:20:42Z" uid="16922" user="amai" changeset="5566034" lat="21.8577922" lon="96.1526275"/>
  <node id="874464593" version="1" timestamp="2010-08-22T21:20:42Z" uid="16922" user="amai" changeset="5566034" lat="21.8574138" lon="96.1525953"/>
  <node id="874464595" version="1" timestamp="2010-08-22T21:20:42Z" uid="16922" user="amai" changeset="5566034" lat="21.8571549" lon="96.1526275"/>
  <node id="874464597" version="1" timestamp="2010-08-22T21:20:42Z" uid="16922" user="amai" changeset="5566034" lat="21.8569956" lon="96.1527134"/>
  <node id="874464599" version="1" timestamp="2010-08-22T21:20:42Z" uid="16922" user="amai" changeset="5566034" lat="21.8565475" lon="96.1531318"/>
  <node id="874464601" version="1" timestamp="2010-08-22T21:20:42Z" uid="16922" user="amai" changeset="5566034" lat="21.856418" lon="96.1531532"/>
  <node id="874464602" version="1" timestamp="2010-08-22T21:20:42Z" uid="16922" user="amai" changeset="5566034" lat="21.8561193" lon="96.1532069"/>
  <node id="874464603" version="1" timestamp="2010-08-22T21:20:42Z" uid="16922" user="amai" changeset="5566034" lat="21.8559799" lon="96.1532605"/>
  <node id="874464604" version="1" timestamp="2010-08-22T21:20:42Z" uid="16922" user="amai" changeset="5566034" lat="21.85594" lon="96.1534107"/>
  <node id="874464606" version="1" timestamp="2010-08-22T21:20:42Z" uid="16922" user="amai" changeset="5566034" lat="21.8559699" lon="96.1536575"/>
  <node id="874464607" version="1" timestamp="2010-08-22T21:20:42Z" uid="16922" user="amai" changeset="5566034" lat="21.8560297" lon="96.1538399"/>
  <node id="874464609" version="1" timestamp="2010-08-22T21:20:42Z" uid="16922" user="amai" changeset="5566034" lat="21.8559301" lon="96.1544407"/>
  <node id="874464615" version="1" timestamp="2010-08-22T21:20:42Z" uid="16922" user="amai" changeset="5566034" lat="21.8556314" lon="96.1563397"/>
  <node id="874464617" version="1" timestamp="2010-08-22T21:20:42Z" uid="16922" user="amai" changeset="5566034" lat="21.855711" lon="96.1567152"/>
  <node id="874464623" version="1" timestamp="2010-08-22T21:20:43Z" uid="16922" user="amai" changeset="5566034" lat="21.855721" lon="96.1571014"/>
  <node id="874464624" version="1" timestamp="2010-08-22T21:20:43Z" uid="16922" user="amai" changeset="5566034" lat="21.8557608" lon="96.1574126"/>
  <node id="874464625" version="1" timestamp="2010-08-22T21:20:43Z" uid="16922" user="amai" changeset="5566034" lat="21.8557907" lon="96.1578739"/>
  <node id="874464627" version="1" timestamp="2010-08-22T21:20:43Z" uid="16922" user="amai" changeset="5566034" lat="21.8557608" lon="96.1583031"/>
  <node id="874464629" version="1" timestamp="2010-08-22T21:20:43Z" uid="16922" user="amai" changeset="5566034" lat="21.8558305" lon="96.1592579"/>
  <node id="874464632" version="1" timestamp="2010-08-22T21:20:43Z" uid="16922" user="amai" changeset="5566034" lat="21.8564379" lon="96.1594618"/>
  <node id="874464634" version="1" timestamp="2010-08-22T21:20:43Z" uid="16922" user="amai" changeset="5566034" lat="21.8575233" lon="96.1597193"/>
  <node id="874464635" version="1" timestamp="2010-08-22T21:20:43Z" uid="16922" user="amai" changeset="5566034" lat="21.8583797" lon="96.1598588"/>
  <node id="874464637" version="1" timestamp="2010-08-22T21:20:43Z" uid="16922" user="amai" changeset="5566034" lat="21.8596542" lon="96.1602128"/>
  <node id="874464638" version="1" timestamp="2010-08-22T21:20:43Z" uid="16922" user="amai" changeset="5566034" lat="21.862034" lon="96.1608673"/>
  <node id="874464639" version="1" timestamp="2010-08-22T21:20:43Z" uid="16922" user="amai" changeset="5566034" lat="21.8630596" lon="96.1612213"/>
  <node id="874464640" version="1" timestamp="2010-08-22T21:20:43Z" uid="16922" user="amai" changeset="5566034" lat="21.8644536" lon="96.1619616"/>
  <node id="874464642" version="1" timestamp="2010-08-22T21:20:43Z" uid="16922" user="amai" changeset="5566034" lat="21.8653597" lon="96.1625088"/>
  <node id="874464643" version="1" timestamp="2010-08-22T21:20:43Z" uid="16922" user="amai" changeset="5566034" lat="21.8661164" lon="96.1629701"/>
  <node id="874466641" version="1" timestamp="2010-08-22T21:21:57Z" uid="6269" user="Mueck" changeset="5565943" lat="53.5359379" lon="8.5996481">
    <tag k="addr:city" v="Bremerhaven"/>
    <tag k="addr:housenumber" v="26"/>
    <tag k="addr:postcode" v="27574"/>
    <tag k="addr:street" v="Hartwigstraße"/>
  </node>
  <node id="874466641" version="2" timestamp="2010-08-22T21:31:07Z" uid="6269" user="Mueck" changeset="5565943" lat="53.5359729" lon="8.6000075">
    <tag k="addr:city" v="Bremerhaven"/>
    <tag k="addr:housenumber" v="26"/>
    <tag k="addr:postcode" v="27574"/>
    <tag k="addr:street" v="Hartwigstraße"/>
  </node>
  <node id="874466641" version="3" timestamp="2010-08-22T21:32:20Z" uid="6269" user="Mueck" changeset="5565943" lat="53.5359921" lon="8.6001524">
    <tag k="addr:city" v="Bremerhaven"/>
    <tag k="addr:housenumber" v="26"/>
    <tag k="addr:postcode" v="27574"/>
    <tag k="addr:street" v="Hartwigstraße"/>
  </node>
  <node id="874466641" version="4" timestamp="2010-12-05T02:06:23Z" uid="6269" user="Mueck" changeset="6546367" lat="53.5359038" lon="8.6002104">
    <tag k="addr:city" v="Bremerhaven"/>
    <tag k="addr:housenumber" v="26"/>
    <tag k="addr:postcode" v="27574"/>
    <tag k="addr:street" v="Hartwigstraße"/>
  </node>
  <node id="874466641" version="5" timestamp="2011-02-24T18:32:26Z" uid="114813" user="Chrisuu" changeset="7384040" lat="53.5359038" lon="8.6002105">
    <tag k="addr:city" v="Bremerhaven"/>
    <tag k="addr:country" v="DE"/>
    <tag k="addr:housenumber" v="26"/>
    <tag k="addr:postcode" v="27574"/>
    <tag k="addr:street" v="Hartwigstraße"/>
  </node>
  <node id="874466978" version="1" timestamp="2010-08-22T21:22:13Z" uid="6269" user="Mueck" changeset="5565943" lat="53.5360144" lon="8.6003509">
    <tag k="addr:city" v="Bremerhaven"/>
    <tag k="addr:housenumber" v="25"/>
    <tag k="addr:postcode" v="27574"/>
    <tag k="addr:street" v="Hartwigstraße"/>
  </node>
  <node id="874466978" version="2" timestamp="2010-08-22T21:32:24Z" uid="6269" user="Mueck" changeset="5565943" lat="53.5360239" lon="8.6004367">
    <tag k="addr:city" v="Bremerhaven"/>
    <tag k="addr:housenumber" v="25"/>
    <tag k="addr:postcode" v="27574"/>
    <tag k="addr:street" v="Hartwigstraße"/>
  </node>
  <node id="874466978" version="3" timestamp="2010-12-05T02:06:18Z" uid="6269" user="Mueck" changeset="6546367" lat="53.5359246" lon="8.600477">
    <tag k="addr:city" v="Bremerhaven"/>
    <tag k="addr:housenumber" v="25"/>
    <tag k="addr:postcode" v="27574"/>
    <tag k="addr:street" v="Hartwigstraße"/>
  </node>
  <node id="874466978" version="4" timestamp="2011-02-24T18:32:26Z" uid="114813" user="Chrisuu" changeset="7384040" lat="53.5359246" lon="8.6004771">
    <tag k="addr:city" v="Bremerhaven"/>
    <tag k="addr:country" v="DE"/>
    <tag k="addr:housenumber" v="25"/>
    <tag k="addr:postcode" v="27574"/>
    <tag k="addr:street" v="Hartwigstraße"/>
  </node>
  <node id="874467275" version="1" timestamp="2010-08-22T21:22:22Z" uid="6269" user="Mueck" changeset="5565943" lat="53.5357816" lon="8.6004206">
    <tag k="addr:city" v="Bremerhaven"/>
    <tag k="addr:housenumber" v="23"/>
    <tag k="addr:postcode" v="27574"/>
    <tag k="addr:street" v="Hartwigstraße"/>
  </node>
  <node id="874467275" version="2" timestamp="2010-08-22T21:32:56Z" uid="6269" user="Mueck" changeset="5565943" lat="53.5357753" lon="8.6004957">
    <tag k="addr:city" v="Bremerhaven"/>
    <tag k="addr:housenumber" v="23"/>
    <tag k="addr:postcode" v="27574"/>
    <tag k="addr:street" v="Hartwigstraße"/>
  </node>
  <node id="874467275" version="3" timestamp="2010-12-05T02:06:23Z" uid="6269" user="Mueck" changeset="6546367" lat="53.5356723" lon="8.6005513">
    <tag k="addr:city" v="Bremerhaven"/>
    <tag k="addr:housenumber" v="23"/>
    <tag k="addr:postcode" v="27574"/>
    <tag k="addr:street" v="Hartwigstraße"/>
  </node>
  <node id="874467275" version="4" timestamp="2011-02-24T19:37:27Z" uid="114813" user="Chrisuu" changeset="7384040" lat="53.5356722" lon="8.6005514">
    <tag k="addr:city" v="Bremerhaven"/>
    <tag k="addr:country" v="DE"/>
    <tag k="addr:housenumber" v="23"/>
    <tag k="addr:postcode" v="27574"/>
    <tag k="addr:street" v="Hartwigstraße"/>
  </node>
  <node id="874467603" version="1" timestamp="2010-08-22T21:22:31Z" uid="6269" user="Mueck" changeset="5565943" lat="53.5357083" lon="8.5997018">
    <tag k="addr:city" v="Bremerhaven"/>
    <tag k="addr:housenumber" v="24"/>
    <tag k="addr:postcode" v="27574"/>
    <tag k="addr:street" v="Hartwigstraße"/>
  </node>
  <node id="874467603" version="2" timestamp="2010-08-22T21:31:22Z" uid="6269" user="Mueck" changeset="5565943" lat="53.5357402" lon="8.6000719">
    <tag k="addr:city" v="Bremerhaven"/>
    <tag k="addr:housenumber" v="24"/>
    <tag k="addr:postcode" v="27574"/>
    <tag k="addr:street" v="Hartwigstraße"/>
  </node>
  <node id="874467603" version="3" timestamp="2010-08-22T21:32:12Z" uid="6269" user="Mueck" changeset="5565943" lat="53.5357498" lon="8.6001953">
    <tag k="addr:city" v="Bremerhaven"/>
    <tag k="addr:housenumber" v="24"/>
    <tag k="addr:postcode" v="27574"/>
    <tag k="addr:street" v="Hartwigstraße"/>
  </node>
  <node id="874467603" version="4" timestamp="2010-12-05T02:06:22Z" uid="6269" user="Mueck" changeset="6546367" lat="53.5356553" lon="8.600254">
    <tag k="addr:city" v="Bremerhaven"/>
    <tag k="addr:housenumber" v="24"/>
    <tag k="addr:postcode" v="27574"/>
    <tag k="addr:street" v="Hartwigstraße"/>
  </node>
  <node id="874467603" version="5" timestamp="2011-02-24T19:37:28Z" uid="114813" user="Chrisuu" changeset="7384040" lat="53.5356553" lon="8.6002541">
    <tag k="addr:city" v="Bremerhaven"/>
    <tag k="addr:country" v="DE"/>
    <tag k="addr:housenumber" v="24"/>
    <tag k="addr:postcode" v="27574"/>
    <tag k="addr:street" v="Hartwigstraße"/>
  </node>
  <node id="874467917" version="1" timestamp="2010-08-22T21:22:45Z" uid="6269" user="Mueck" changeset="5565943" lat="53.5354309" lon="8.5997661">
    <tag k="addr:city" v="Bremerhaven"/>
    <tag k="addr:housenumber" v="22"/>
    <tag k="addr:postcode" v="27574"/>
    <tag k="addr:street" v="Hartwigstraße"/>
  </node>
  <node id="874467917" version="2" timestamp="2010-08-22T21:30:43Z" uid="6269" user="Mueck" changeset="5565943" lat="53.535466" lon="8.600147">
    <tag k="addr:city" v="Bremerhaven"/>
    <tag k="addr:housenumber" v="22"/>
    <tag k="addr:postcode" v="27574"/>
    <tag k="addr:street" v="Hartwigstraße"/>
  </node>
  <node id="874467917" version="3" timestamp="2010-08-22T21:31:58Z" uid="6269" user="Mueck" changeset="5565943" lat="53.5354788" lon="8.6002543">
    <tag k="addr:city" v="Bremerhaven"/>
    <tag k="addr:housenumber" v="22"/>
    <tag k="addr:postcode" v="27574"/>
    <tag k="addr:street" v="Hartwigstraße"/>
  </node>
  <node id="874467917" version="4" timestamp="2010-12-05T02:06:24Z" uid="6269" user="Mueck" changeset="6546367" lat="53.5354098" lon="8.6003355">
    <tag k="addr:city" v="Bremerhaven"/>
    <tag k="addr:housenumber" v="22"/>
    <tag k="addr:postcode" v="27574"/>
    <tag k="addr:street" v="Hartwigstraße"/>
  </node>
  <node id="874467917" version="5" timestamp="2011-02-24T19:37:28Z" uid="114813" user="Chrisuu" changeset="7384040" lat="53.5354098" lon="8.6003356">
    <tag k="addr:city" v="Bremerhaven"/>
    <tag k="addr:country" v="DE"/>
    <tag k="addr:housenumber" v="22"/>
    <tag k="addr:postcode" v="27574"/>
    <tag k="addr:street" v="Hartwigstraße"/>
  </node>
  <node id="874469658" version="1" timestamp="2010-08-22T21:23:55Z" uid="6269" user="Mueck" changeset="5565943" lat="53.5355043" lon="8.600485">
    <tag k="addr:city" v="Bremerhaven"/>
    <tag k="addr:housenumber" v="21"/>
    <tag k="addr:postcode" v="27574"/>
    <tag k="addr:street" v="Hartwigstraße"/>
  </node>
  <node id="874469658" version="2" timestamp="2010-08-22T21:30:47Z" uid="6269" user="Mueck" changeset="5565943" lat="53.5355043" lon="8.6005225">
    <tag k="addr:city" v="Bremerhaven"/>
    <tag k="addr:housenumber" v="21"/>
    <tag k="addr:postcode" v="27574"/>
    <tag k="addr:street" v="Hartwigstraße"/>
  </node>
  <node id="874469658" version="3" timestamp="2010-08-22T21:39:12Z" uid="6269" user="Mueck" changeset="5565943" lat="53.5355075" lon="8.6005708">
    <tag k="addr:city" v="Bremerhaven"/>
    <tag k="addr:housenumber" v="21"/>
    <tag k="addr:postcode" v="27574"/>
    <tag k="addr:street" v="Hartwigstraße"/>
  </node>
  <node id="874469658" version="4" timestamp="2010-12-05T02:06:19Z" uid="6269" user="Mueck" changeset="6546367" lat="53.5354271" lon="8.6006087">
    <tag k="addr:city" v="Bremerhaven"/>
    <tag k="addr:housenumber" v="21"/>
    <tag k="addr:postcode" v="27574"/>
    <tag k="addr:street" v="Hartwigstraße"/>
  </node>
  <node id="874469658" version="5" timestamp="2011-02-24T19:37:28Z" uid="114813" user="Chrisuu" changeset="7384040" lat="53.5354271" lon="8.6006088">
    <tag k="addr:city" v="Bremerhaven"/>
    <tag k="addr:country" v="DE"/>
    <tag k="addr:housenumber" v="21"/>
    <tag k="addr:postcode" v="27574"/>
    <tag k="addr:street" v="Hartwigstraße"/>
  </node>
</osm>
