<?xml version='1.0' encoding='UTF-8'?>
<osm version="0.6" generator="libosmium/2.20.0">
  <node id="874500934" version="1" timestamp="2010-08-22T21:54:28Z" uid="6269" user="Mueck" changeset="5565943" lat="53.532351" lon="8.601236">
    <tag k="addr:city" v="Bremerhaven"/>
    <tag k="addr:housenumber" v="8"/>
    <tag k="addr:postcode" v="27574"/>
    <tag k="addr:street" v="Hartwigstraße"/>
    <tag k="name" v="Seniorenheim Am Bürgerpark"/>
  </node>
  <node id="874500934" version="2" timestamp="2010-12-05T02:06:24Z" uid="6269" user="Mueck" changeset="6546367" lat="53.5325261" lon="8.6012805">
    <tag k="addr:city" v="Bremerhaven"/>
    <tag k="addr:housenumber" v="8"/>
    <tag k="addr:postcode" v="27574"/>
    <tag k="addr:street" v="Hartwigstraße"/>
    <tag k="name" v="Seniorenheim Am Bürgerpark"/>
  </node>
  <node id="874500934" version="3" timestamp="2011-02-24T19:37:30Z" uid="114813" user="Chrisuu" changeset="7384040" lat="53.5325262" lon="8.6012805">
    <tag k="addr:city" v="Bremerhaven"/>
    <tag k="addr:country" v="DE"/>
    <tag k="addr:housenumber" v="8"/>
    <tag k="addr:postcode" v="27574"/>
    <tag k="addr:street" v="Hartwigstraße"/>
    <tag k="name" v="Seniorenheim Am Bürgerpark"/>
  </node>
  <node id="874500934" version="4" timestamp="2011-03-16T21:03:06Z" uid="114813" user="Chrisuu" changeset="7579161" lat="53.5325262" lon="8.6012805">
    <tag k="addr:city" v="Bremerhaven"/>
    <tag k="addr:country" v="DE"/>
    <tag k="addr:housenumber" v="8"/>
    <tag k="addr:postcode" v="27574"/>
    <tag k="addr:street" v="Hartwigstraße"/>
  </node>
  <node id="874501880" version="1" timestamp="2010-08-22T21:55:10Z" uid="6269" user="Mueck" changeset="5565943" lat="53.5321693" lon="8.6009249">
    <tag k="amenity" v="parking"/>
  </node>
  <node id="874501880" version="2" timestamp="2011-02-14T19:04:55Z" uid="114813" user="Chrisuu" changeset="7288360" lat="53.5334229" lon="8.5995954">
    <tag k="amenity" v="parking"/>
  </node>
  <node id="874502541" version="1" timestamp="2010-08-22T21:55:48Z" uid="6269" user="Mueck" changeset="5565943" lat="53.5323797" lon="8.6035159">
    <tag k="amenity" v="parking"/>
  </node>
  <node id="874502541" version="2" timestamp="2010-12-05T13:18:58Z" uid="6269" user="Mueck" changeset="6549831" lat="53.5323064" lon="8.6036409">
    <tag k="amenity" v="parking"/>
  </node>
  <node id="874503214" version="1" timestamp="2010-08-22T21:56:45Z" uid="6269" user="Mueck" changeset="5565943" lat="53.5317038" lon="8.6012843">
    <tag k="addr:city" v="Bremerhaven"/>
    <tag k="addr:housenumber" v="11"/>
    <tag k="addr:postcode" v="27574"/>
    <tag k="addr:street" v="Hartwigstraße"/>
  </node>
  <node id="874503214" version="2" timestamp="2010-12-05T02:06:22Z" uid="6269" user="Mueck" changeset="6546367" lat="53.5317459" lon="8.601551">
    <tag k="addr:city" v="Bremerhaven"/>
    <tag k="addr:housenumber" v="11"/>
    <tag k="addr:postcode" v="27574"/>
    <tag k="addr:street" v="Hartwigstraße"/>
  </node>
  <node id="874503214" version="3" timestamp="2010-12-28T21:53:13Z" uid="6269" user="Mueck" changeset="6792964" lat="53.5319245" lon="8.6013061">
    <tag k="addr:city" v="Bremerhaven"/>
    <tag k="addr:housenumber" v="11"/>
    <tag k="addr:postcode" v="27574"/>
    <tag k="addr:street" v="Hartwigstraße"/>
  </node>
  <node id="874503214" version="4" timestamp="2010-12-28T21:57:17Z" uid="6269" user="Mueck" changeset="6792964" lat="53.5319245" lon="8.6013061">
    <tag k="addr:city" v="Bremerhaven"/>
    <tag k="addr:housenumber" v="11"/>
    <tag k="addr:postcode" v="27574"/>
    <tag k="addr:street" v="Hartwigstraße"/>
    <tag k="name" v="Detlef Mankowski Technische Dienstleistungen"/>
  </node>
  <node id="874503214" version="5" timestamp="2011-02-24T19:37:25Z" uid="114813" user="Chrisuu" changeset="7384040" lat="53.5319245" lon="8.6013062">
    <tag k="addr:city" v="Bremerhaven"/>
    <tag k="addr:country" v="DE"/>
    <tag k="addr:housenumber" v="11"/>
    <tag k="addr:postcode" v="27574"/>
    <tag k="addr:street" v="Hartwigstraße"/>
    <tag k="name" v="Detlef Mankowski Technische Dienstleistungen"/>
  </node>
  <node id="874503788" version="1" timestamp="2010-08-22T21:57:14Z" uid="6269" user="Mueck" changeset="5565943" lat="53.5362248" lon="8.6000236">
    <tag k="addr:city" v="Bremerhaven"/>
    <tag k="addr:housenumber" v="54"/>
    <tag k="addr:postcode" v="27574"/>
    <tag k="addr:street" v="Bismarckstraße"/>
  </node>
  <node id="874503788" version="2" timestamp="2010-12-05T02:06:20Z" uid="6269" user="Mueck" changeset="6546367" lat="53.5361489" lon="8.6000729">
    <tag k="addr:city" v="Bremerhaven"/>
    <tag k="addr:housenumber" v="54"/>
    <tag k="addr:postcode" v="27574"/>
    <tag k="addr:street" v="Bismarckstraße"/>
  </node>
  <node id="874503788" version="3" timestamp="2011-02-24T18:32:26Z" uid="114813" user="Chrisuu" changeset="7384040" lat="53.5361489" lon="8.600073">
    <tag k="addr:city" v="Bremerhaven"/>
    <tag k="addr:country" v="DE"/>
    <tag k="addr:housenumber" v="54"/>
    <tag k="addr:postcode" v="27574"/>
    <tag k="addr:street" v="Bismarckstraße"/>
  </node>
  <node id="874504610" version="1" timestamp="2010-08-22T21:58:00Z" uid="6269" user="Mueck" changeset="5565943" lat="53.5362471" lon="8.600324">
    <tag k="addr:city" v="Bremerhaven"/>
    <tag k="addr:housenumber" v="56"/>
    <tag k="addr:postcode" v="27574"/>
    <tag k="addr:street" v="Bismarckstraße"/>
  </node>
  <node id="874504610" version="2" timestamp="2010-12-05T02:06:25Z" uid="6269" user="Mueck" changeset="6546367" lat="53.5361726" lon="8.6003535">
    <tag k="addr:city" v="Bremerhaven"/>
    <tag k="addr:housenumber" v="56"/>
    <tag k="addr:postcode" v="27574"/>
    <tag k="addr:street" v="Bismarckstraße"/>
  </node>
  <node id="874504610" version="3" timestamp="2011-02-24T18:32:25Z" uid="114813" user="Chrisuu" changeset="7384040" lat="53.5361725" lon="8.6003536">
    <tag k="addr:city" v="Bremerhaven"/>
    <tag k="addr:country" v="DE"/>
    <tag k="addr:housenumber" v="56"/>
    <tag k="addr:postcode" v="27574"/>
    <tag k="addr:street" v="Bismarckstraße"/>
  </node>
  <node id="874506822" version="1" timestamp="2010-08-22T22:00:08Z" uid="6269" user="Mueck" changeset="5565943" lat="53.5362535" lon="8.6012735">
    <tag k="addr:city" v="Bremerhaven"/>
    <tag k="addr:housenumber" v="58"/>
    <tag k="addr:postcode" v="27574"/>
    <tag k="addr:street" v="Bismarckstraße"/>
  </node>
  <node id="874506822" version="2" timestamp="2010-12-05T02:06:21Z" uid="6269" user="Mueck" changeset="6546367" lat="53.5361663" lon="8.6015043">
    <tag k="addr:city" v="Bremerhaven"/>
    <tag k="addr:housenumber" v="58"/>
    <tag k="addr:postcode" v="27574"/>
    <tag k="addr:street" v="Bismarckstraße"/>
  </node>
  <node id="874506822" version="3" timestamp="2011-02-24T18:32:27Z" uid="114813" user="Chrisuu" changeset="7384040" lat="53.5361663" lon="8.6015044">
    <tag k="addr:city" v="Bremerhaven"/>
    <tag k="addr:country" v="DE"/>
    <tag k="addr:housenumber" v="58"/>
    <tag k="addr:postcode" v="27574"/>
    <tag k="addr:street" v="Bismarckstraße"/>
  </node>
  <node id="874507092" version="1" timestamp="2010-08-22T22:00:18Z" uid="6269" user="Mueck" changeset="5565943" lat="53.5365978" lon="8.6014774">
    <tag k="addr:city" v="Bremerhaven"/>
    <tag k="addr:housenumber" v="60"/>
    <tag k="addr:postcode" v="27574"/>
    <tag k="addr:street" v="Bismarckstraße"/>
  </node>
  <node id="874507092" version="2" timestamp="2010-12-05T02:06:19Z" uid="6269" user="Mueck" changeset="6546367" lat="53.5364712" lon="8.6015951">
    <tag k="addr:city" v="Bremerhaven"/>
    <tag k="addr:housenumber" v="60"/>
    <tag k="addr:postcode" v="27574"/>
    <tag k="addr:street" v="Bismarckstraße"/>
  </node>
  <node id="874507092" version="3" timestamp="2011-02-24T18:32:27Z" uid="114813" user="Chrisuu" changeset="7384040" lat="53.5364712" lon="8.6015952">
    <tag k="addr:city" v="Bremerhaven"/>
    <tag k="addr:country" v="DE"/>
    <tag k="addr:housenumber" v="60"/>
    <tag k="addr:postcode" v="27574"/>
    <tag k="addr:street" v="Bismarckstraße"/>
  </node>
  <node id="874507930" version="1" timestamp="2010-08-22T22:00:59Z" uid="6269" user="Mueck" changeset="5565943" lat="53.5368369" lon="8.6018261">
    <tag k="addr:city" v="Bremerhaven"/>
    <tag k="addr:housenumber" v="62"/>
    <tag k="addr:postcode" v="27574"/>
    <tag k="addr:street" v="Bismarckstraße"/>
  </node>
  <node id="874507930" version="2" timestamp="2010-12-05T02:06:22Z" uid="6269" user="Mueck" changeset="6546367" lat="53.5367994" lon="8.6020268">
    <tag k="addr:city" v="Bremerhaven"/>
    <tag k="addr:housenumber" v="62"/>
    <tag k="addr:postcode" v="27574"/>
    <tag k="addr:street" v="Bismarckstraße"/>
  </node>
  <node id="874507930" version="3" timestamp="2011-02-24T18:32:27Z" uid="114813" user="Chrisuu" changeset="7384040" lat="53.5367993" lon="8.6020269">
    <tag k="addr:city" v="Bremerhaven"/>
    <tag k="addr:country" v="DE"/>
    <tag k="addr:housenumber" v="62"/>
    <tag k="addr:postcode" v="27574"/>
    <tag k="addr:street" v="Bismarckstraße"/>
  </node>
  <node id="874508474" version="1" timestamp="2010-08-22T22:01:29Z" uid="6269" user="Mueck" changeset="5565943" lat="53.5369453" lon="8.6017242">
    <tag k="addr:city" v="Bremerhaven"/>
    <tag k="addr:housenumber" v="63"/>
    <tag k="addr:postcode" v="27570"/>
    <tag k="addr:street" v="Bismarckstraße"/>
  </node>
  <node id="874508474" version="2" timestamp="2010-12-05T02:06:21Z" uid="6269" user="Mueck" changeset="6546367" lat="53.5370798" lon="8.6017748">
    <tag k="addr:city" v="Bremerhaven"/>
    <tag k="addr:housenumber" v="63"/>
    <tag k="addr:postcode" v="27570"/>
    <tag k="addr:street" v="Bismarckstraße"/>
  </node>
  <node id="874508474" version="3" timestamp="2011-02-24T18:32:28Z" uid="114813" user="Chrisuu" changeset="7384040" lat="53.5370862" lon="8.6017788">
    <tag k="addr:city" v="Bremerhaven"/>
    <tag k="addr:country" v="DE"/>
    <tag k="addr:housenumber" v="63"/>
    <tag k="addr:postcode" v="27570"/>
    <tag k="addr:street" v="Bismarckstraße"/>
  </node>
  <node id="874509089" version="1" timestamp="2010-08-22T22:01:57Z" uid="6269" user="Mueck" changeset="5565943" lat="53.5368752" lon="8.6012038">
    <tag k="addr:city" v="Bremerhaven"/>
    <tag k="addr:housenumber" v="61"/>
    <tag k="addr:postcode" v="27570"/>
    <tag k="addr:street" v="Bismarckstraße"/>
    <tag k="building" v="yes"/>
    <tag k="name" v="Landvolkhaus Wesermünde"/>
  </node>
  <node id="874509089" version="2" timestamp="2011-02-24T18:32:27Z" uid="114813" user="Chrisuu" changeset="7384040" lat="53.5368751" lon="8.6012038">
    <tag k="addr:city" v="Bremerhaven"/>
    <tag k="addr:housenumber" v="61"/>
    <tag k="addr:postcode" v="27570"/>
    <tag k="addr:street" v="Bismarckstraße"/>
  </node>
  <node id="874509089" version="3" timestamp="2011-02-26T20:44:25Z" uid="114813" user="Chrisuu" changeset="7404007" lat="53.5368751" lon="8.6012038">
    <tag k="addr:city" v="Bremerhaven"/>
    <tag k="addr:country" v="DE"/>
    <tag k="addr:housenumber" v="61"/>
    <tag k="addr:postcode" v="27570"/>
    <tag k="addr:street" v="Bismarckstraße"/>
  </node>
</osm>
