<?xml version='1.0' encoding='UTF-8'?>
<osm version="0.6" generator="libosmium/2.20.0">
  <node id="87643094" version="4" timestamp="2008-10-01T01:43:43Z" uid="36809" user="pfoten_weg_!_" changeset="5644" lat="48.1015868" lon="11.5408137">
    <tag k="amenity" v="atm"/>
    <tag k="created_by" v="RambaZamba"/>
    <tag k="source" v="survey"/>
  </node>
  <node id="87643094" version="5" timestamp="2008-11-25T18:46:13Z" uid="59819" user="Fuss-im-Ohr" changeset="792006" lat="48.1015868" lon="11.5408137">
    <tag k="amenity" v="atm"/>
    <tag k="created_by" v="RambaZamba"/>
    <tag k="name" v="FIXME!!!"/>
    <tag k="source" v="survey"/>
  </node>
  <node id="87643094" version="6" timestamp="2008-12-11T08:17:21Z" uid="8748" user="ToniE" changeset="313369" lat="48.1015868" lon="11.5408137">
    <tag k="amenity" v="atm"/>
    <tag k="created_by" v="RambaZamba"/>
    <tag k="name" v="FIXME!!!"/>
    <tag k="source" v="survey"/>
  </node>
  <node id="87643859" version="8" timestamp="2009-09-04T21:08:00Z" uid="36809" user="pfoten_weg_!_" changeset="2374562" lat="48.1121958" lon="11.5391792">
    <tag k="amenity" v="fuel"/>
    <tag k="name" v="ARAL"/>
    <tag k="source" v="survey"/>
  </node>
  <node id="87643859" version="9" timestamp="2011-08-21T15:29:38Z" uid="124837" user="swus" changeset="9085286" lat="48.1121934" lon="11.5391709">
    <tag k="amenity" v="fuel"/>
    <tag k="name" v="ARAL"/>
    <tag k="source" v="survey"/>
  </node>
</osm>
