<?xml version='1.0' encoding='UTF-8'?>
<osm version="0.6" generator="libosmium/2.20.0">
  <node id="879390061" version="4" timestamp="2011-03-02T19:16:40Z" uid="9581" user="Lobelt" changeset="7440328" lat="49.4994374" lon="8.4715599">
    <tag k="denotation" v="cluster"/>
    <tag k="natural" v="tree"/>
  </node>
  <node id="879390113" version="3" timestamp="2011-03-02T19:16:02Z" uid="9581" user="Lobelt" changeset="7440328" lat="49.5062334" lon="8.470217">
    <tag k="amenity" v="fast_food"/>
    <tag k="cuisine" v="italian,pizza"/>
    <tag k="name" v="Azzurra"/>
  </node>
  <node id="879390113" version="4" timestamp="2011-05-08T10:50:02Z" uid="245137" user="maurice2010" changeset="8081281" lat="49.5062334" lon="8.4702599">
    <tag k="amenity" v="fast_food"/>
    <tag k="cuisine" v="italian,pizza"/>
    <tag k="name" v="Azzurra"/>
  </node>
  <node id="879390113" version="5" timestamp="2011-09-09T18:06:32Z" uid="64008" user="E-Malte" changeset="9256461" lat="49.5062334" lon="8.4702599">
    <tag k="amenity" v="fast_food"/>
    <tag k="cuisine" v="italian"/>
    <tag k="name" v="Azzurra"/>
  </node>
  <node id="879390129" version="5" timestamp="2011-03-02T19:16:42Z" uid="9581" user="Lobelt" changeset="7440328" lat="49.4995297" lon="8.4715283">
    <tag k="denotation" v="cluster"/>
    <tag k="natural" v="tree"/>
  </node>
  <node id="879399398" version="2" timestamp="2011-03-23T16:04:12Z" uid="43863" user="Rundling" changeset="7647645" lat="52.9484604" lon="10.5459723"/>
  <node id="879399446" version="2" timestamp="2011-03-23T16:04:13Z" uid="43863" user="Rundling" changeset="7647645" lat="52.9509225" lon="10.5483976"/>
</osm>
