<?xml version='1.0' encoding='UTF-8'?>
<osm version="0.6" generator="libosmium/2.20.0">
  <node id="88665661" version="2" timestamp="2008-07-03T16:08:36Z" uid="6975" user="ulfl" changeset="378199" lat="49.4704333" lon="11.0416074">
    <tag k="name" v="Bauer Sippel"/>
    <tag k="note" v="Hofladen"/>
    <tag k="shop" v="organic"/>
  </node>
  <node id="88665661" version="3" timestamp="2010-10-13T12:03:36Z" uid="80255" user="miriat" changeset="6028532" lat="49.4704668" lon="11.0416673">
    <tag k="addr:housenumber" v="3"/>
    <tag k="addr:street" v="Alte Parlerstraße"/>
    <tag k="name" v="Bauer Sippel"/>
    <tag k="note" v="Hofladen"/>
    <tag k="shop" v="organic"/>
  </node>
  <node id="88665661" version="4" timestamp="2010-11-08T00:26:19Z" uid="202858" user="kellerma" changeset="6317378" lat="49.4704668" lon="11.0416673">
    <tag k="addr:city" v="Nürnberg"/>
    <tag k="addr:country" v="DE"/>
    <tag k="addr:housenumber" v="3"/>
    <tag k="addr:street" v="Alte Parlerstraße"/>
    <tag k="name" v="Bauer Sippel"/>
    <tag k="note" v="Hofladen"/>
    <tag k="shop" v="organic"/>
  </node>
  <node id="88665661" version="5" timestamp="2011-11-29T21:42:07Z" uid="71557" user="Taroc" changeset="9992948" lat="49.4704668" lon="11.0416673"/>
  <node id="88666557" version="2" timestamp="2009-07-24T03:38:10Z" uid="74617" user="JohnSmith" changeset="1920970" lat="-26.652208" lon="153.1012676">
    <tag k="name" v="Cotton Tree"/>
    <tag k="place" v="suburb"/>
  </node>
</osm>
