<?xml version='1.0' encoding='UTF-8'?>
<osm version="0.6" generator="libosmium/2.20.0">
  <node id="902564331" version="1" timestamp="2010-09-08T10:39:25Z" uid="115477" user="wowik" changeset="5715736" lat="55.9202493" lon="37.522635">
    <tag k="name" v="Черенцово"/>
    <tag k="place" v="locality"/>
  </node>
  <node id="902564331" version="2" timestamp="2012-01-26T21:15:01Z" uid="384084" user="Kostik" changeset="10507299" lat="55.9202493" lon="37.522635">
    <tag k="name" v="Черенцово"/>
    <tag k="place" v="locality"/>
  </node>
  <node id="902564334" version="1" timestamp="2010-09-08T10:39:25Z" uid="115477" user="wowik" changeset="5715736" lat="55.9168344" lon="37.4916608">
    <tag k="name" v="Тарбеево"/>
    <tag k="place" v="locality"/>
  </node>
  <node id="902564334" version="2" timestamp="2010-09-08T11:25:24Z" uid="115477" user="wowik" changeset="5715736" lat="55.9168344" lon="37.4916608">
    <tag k="name" v="Тарбеево"/>
    <tag k="place" v="locality"/>
  </node>
  <node id="902564341" version="1" timestamp="2010-09-08T10:39:25Z" uid="115477" user="wowik" changeset="5715736" lat="55.9199307" lon="37.5212939"/>
  <node id="902564341" version="2" timestamp="2011-05-31T04:14:05Z" uid="440644" user="markhor" changeset="8298169" lat="55.91989" lon="37.5212855"/>
  <node id="902565316" version="2" timestamp="2011-01-20T14:51:30Z" uid="115477" user="wowik" changeset="7031231" lat="55.9769854" lon="37.162448">
    <tag k="barrier" v="gate"/>
  </node>
  <node id="902565316" version="3" timestamp="2012-02-26T10:22:20Z" uid="384084" user="Kostik" changeset="10796233" lat="55.9769854" lon="37.162448">
    <tag k="barrier" v="gate"/>
  </node>
  <node id="902565329" version="3" timestamp="2011-01-20T14:51:45Z" uid="115477" user="wowik" changeset="7031231" lat="55.9770112" lon="37.1624333"/>
  <node id="902565705" version="1" timestamp="2010-09-08T10:41:01Z" uid="115477" user="wowik" changeset="5715736" lat="55.9174236" lon="37.492326">
    <tag k="amenity" v="place_of_worship"/>
    <tag k="denomination" v="orthodox"/>
    <tag k="name" v="Церковь Троицы Живоначальной"/>
    <tag k="religion" v="christian"/>
  </node>
  <node id="902565705" version="2" timestamp="2010-09-08T10:43:06Z" uid="115477" user="wowik" changeset="5715736" lat="55.9174236" lon="37.492326">
    <tag k="addr:housenumber" v="85A"/>
    <tag k="amenity" v="place_of_worship"/>
    <tag k="denomination" v="orthodox"/>
    <tag k="name" v="Церковь Троицы Живоначальной"/>
    <tag k="religion" v="christian"/>
  </node>
  <node id="902565705" version="3" timestamp="2010-09-10T16:03:43Z" uid="115477" user="wowik" changeset="5742414" lat="55.9174572" lon="37.4923784">
    <tag k="addr:housenumber" v="85A"/>
    <tag k="amenity" v="place_of_worship"/>
    <tag k="denomination" v="orthodox"/>
    <tag k="name" v="Церковь Троицы Живоначальной"/>
    <tag k="religion" v="christian"/>
  </node>
  <node id="902565705" version="4" timestamp="2011-01-21T18:47:58Z" uid="70696" user="xybot" changeset="7043225" lat="55.9174572" lon="37.4923784">
    <tag k="addr:country" v="RU"/>
    <tag k="addr:housenumber" v="85А"/>
    <tag k="amenity" v="place_of_worship"/>
    <tag k="denomination" v="orthodox"/>
    <tag k="name" v="Церковь Троицы Живоначальной"/>
    <tag k="religion" v="christian"/>
  </node>
  <node id="902565719" version="1" timestamp="2010-09-08T10:41:02Z" uid="115477" user="wowik" changeset="5715736" lat="55.9169487" lon="37.4923367"/>
  <node id="902565719" version="2" timestamp="2010-09-08T10:43:06Z" uid="115477" user="wowik" changeset="5715736" lat="55.9169787" lon="37.4924869"/>
  <node id="902565955" version="2" timestamp="2011-01-20T14:51:22Z" uid="115477" user="wowik" changeset="7031231" lat="55.9768769" lon="37.1625741"/>
  <node id="902567051" version="1" timestamp="2010-09-08T10:43:06Z" uid="115477" user="wowik" changeset="5715736" lat="55.9173575" lon="37.492605"/>
  <node id="902567053" version="1" timestamp="2010-09-08T10:43:06Z" uid="115477" user="wowik" changeset="5715736" lat="55.9173936" lon="37.4917681"/>
  <node id="902567054" version="1" timestamp="2010-09-08T10:43:06Z" uid="115477" user="wowik" changeset="5715736" lat="55.9170268" lon="37.4917252"/>
</osm>
