<?xml version='1.0' encoding='UTF-8'?>
<osm version="0.6" generator="libosmium/2.20.0">
  <node id="903285000" version="1" timestamp="2010-09-08T18:49:31Z" uid="43967" user="railsnail" changeset="5726749" lat="46.0102397" lon="11.7902976">
    <tag k="name" v="Frassene"/>
    <tag k="place" v="village"/>
  </node>
  <node id="903285003" version="1" timestamp="2010-09-08T18:49:31Z" uid="43967" user="railsnail" changeset="5726749" lat="46.0035459" lon="11.8394872">
    <tag k="name" v="Santa Lucia"/>
    <tag k="place" v="village"/>
  </node>
  <node id="903285003" version="2" timestamp="2011-10-23T18:37:08Z" uid="90188" user="hypersciocco" changeset="9636802" lat="46.0035459" lon="11.8394872">
    <tag k="is_in" v="Seren del Grappa, Belluno, Veneto, Italy"/>
    <tag k="name" v="Santa Lucia"/>
    <tag k="place" v="village"/>
  </node>
  <node id="903285008" version="1" timestamp="2010-09-08T18:49:32Z" uid="43967" user="railsnail" changeset="5726749" lat="46.0137436" lon="11.8160921">
    <tag k="name" v="Fontanelle"/>
    <tag k="place" v="village"/>
  </node>
  <node id="903285013" version="1" timestamp="2010-09-08T18:49:32Z" uid="43967" user="railsnail" changeset="5726749" lat="46.0167607" lon="11.8022294">
    <tag k="name" v="Albergo St. Antonio"/>
    <tag k="tourism" v="hotel"/>
  </node>
  <node id="903285018" version="1" timestamp="2010-09-08T18:49:32Z" uid="43967" user="railsnail" changeset="5726749" lat="46.0181365" lon="11.8680117">
    <tag k="name" v="Crai"/>
    <tag k="shop" v="supermarket"/>
  </node>
  <node id="903285023" version="1" timestamp="2010-09-08T18:49:32Z" uid="43967" user="railsnail" changeset="5726749" lat="46.0184853" lon="11.8685882">
    <tag k="name" v="Mugnai"/>
    <tag k="place" v="village"/>
  </node>
  <node id="903285026" version="1" timestamp="2010-09-08T18:49:33Z" uid="43967" user="railsnail" changeset="5726749" lat="45.9810416" lon="11.765774">
    <tag k="name" v="B&amp;B"/>
    <tag k="tourism" v="guest_house"/>
  </node>
  <node id="903285031" version="1" timestamp="2010-09-08T18:49:33Z" uid="43967" user="railsnail" changeset="5726749" lat="45.9933785" lon="11.7826835">
    <tag k="name" v="Agana"/>
    <tag k="place" v="village"/>
  </node>
</osm>
