<?xml version='1.0' encoding='UTF-8'?>
<osm version="0.6" generator="libosmium/2.20.0">
  <node id="903442115" version="1" timestamp="2010-09-08T20:08:28Z" uid="6975" user="ulfl" changeset="5727552" lat="48.1707865" lon="8.0673601">
    <tag k="addr:city" v="Elzach"/>
    <tag k="addr:country" v="DE"/>
    <tag k="addr:housenumber" v="15a"/>
    <tag k="addr:postcode" v="79215"/>
    <tag k="addr:street" v="Freiburgerstraße"/>
    <tag k="amenity" v="restaurant"/>
    <tag k="cuisine" v="italian"/>
    <tag k="name" v="Conca D&apos;Oro"/>
    <tag k="phone" v="07682 7779"/>
  </node>
  <node id="903442115" version="2" timestamp="2011-08-19T08:25:36Z" uid="501185" user="Macster" changeset="9063379" lat="48.1707865" lon="8.0673601">
    <tag k="addr:city" v="Elzach"/>
    <tag k="addr:country" v="DE"/>
    <tag k="addr:housenumber" v="15a"/>
    <tag k="addr:postcode" v="79215"/>
    <tag k="addr:street" v="Freiburgerstraße"/>
    <tag k="amenity" v="restaurant"/>
    <tag k="cuisine" v="italian"/>
    <tag k="name" v="Pizzeria Conca D&apos;Oro"/>
    <tag k="phone" v="07682 7779"/>
    <tag k="wheelchair" v="no"/>
    <tag k="wheelchair:description" v="Der Großteil des Gastraums ist um eine Stufe erhöht und die herkömmliche Toillette nur darüber erreichbar. Der Wirt hat allerdings auch rollstuhlfahrende Gäste und hilft diesen bei Bedarf. Der Biergarten ist für Rollstuhlfahrer problemlos zu erreichen."/>
  </node>
  <node id="903442115" version="3" timestamp="2011-08-19T14:00:42Z" uid="501185" user="Macster" changeset="9063379" lat="48.170765" lon="8.0675371">
    <tag k="addr:city" v="Elzach"/>
    <tag k="addr:country" v="DE"/>
    <tag k="addr:housenumber" v="15a"/>
    <tag k="addr:postcode" v="79215"/>
    <tag k="addr:street" v="Freiburgerstraße"/>
    <tag k="amenity" v="restaurant"/>
    <tag k="cuisine" v="italian"/>
    <tag k="name" v="Pizzeria Conca D&apos;Oro"/>
    <tag k="phone" v="07682 7779"/>
    <tag k="wheelchair" v="no"/>
    <tag k="wheelchair:description" v="Der Großteil des Gastraums ist um eine Stufe erhöht und die herkömmliche Toillette nur darüber erreichbar. Der Wirt hat allerdings auch rollstuhlfahrende Gäste und hilft diesen bei Bedarf. Der Biergarten ist für Rollstuhlfahrer problemlos zu erreichen."/>
  </node>
  <node id="903442115" version="4" timestamp="2011-12-27T14:58:20Z" uid="11374" user="q_un_go" changeset="10216311" lat="48.170765" lon="8.0675371"/>
</osm>
