<?xml version='1.0' encoding='UTF-8'?>
<osm version="0.6" generator="libosmium/2.20.0">
  <node id="90450431" version="2" timestamp="2008-02-16T23:11:26Z" uid="6975" user="ulfl" changeset="141861" lat="47.9608819" lon="7.8850004">
    <tag k="name" v="Kybfelsen"/>
    <tag k="tourism" v="viewpoint"/>
  </node>
  <node id="90450431" version="3" timestamp="2009-04-05T17:36:50Z" uid="29283" user="Achim B" changeset="225327" lat="47.9608819" lon="7.8850004">
    <tag k="ele" v="766"/>
    <tag k="name" v="Kybfelsen"/>
    <tag k="tourism" v="viewpoint"/>
  </node>
  <node id="90450431" version="4" timestamp="2011-09-17T21:24:18Z" uid="59252" user="d003232" changeset="9327950" lat="47.9607965" lon="7.8849456">
    <tag k="ele" v="766"/>
    <tag k="name" v="Kybfelsen"/>
    <tag k="tourism" v="viewpoint"/>
  </node>
  <node id="90450431" version="5" timestamp="2012-01-13T10:46:23Z" uid="11374" user="q_un_go" changeset="10377270" lat="47.9607965" lon="7.8849456"/>
  <node id="90456725" version="4" timestamp="2008-08-14T23:58:58Z" uid="6975" user="ulfl" changeset="264731" lat="47.6890666" lon="12.3959644">
    <tag k="amenity" v="place_of_worship"/>
    <tag k="denomination" v="catholic"/>
    <tag k="name" v="Klobensteinkapelle"/>
    <tag k="religion" v="christian"/>
  </node>
  <node id="90456725" version="5" timestamp="2009-12-11T13:59:43Z" uid="154859" user="rodgauer" changeset="3349205" lat="47.6896247" lon="12.3964839">
    <tag k="amenity" v="place_of_worship"/>
    <tag k="denomination" v="catholic"/>
    <tag k="name" v="Klobensteinkapelle"/>
    <tag k="religion" v="christian"/>
  </node>
  <node id="90456725" version="6" timestamp="2009-12-11T14:00:01Z" uid="154859" user="rodgauer" changeset="3349205" lat="47.6893936" lon="12.3952823">
    <tag k="amenity" v="place_of_worship"/>
    <tag k="denomination" v="catholic"/>
    <tag k="name" v="Klobensteinkapelle"/>
    <tag k="religion" v="christian"/>
  </node>
  <node id="90456725" version="7" timestamp="2011-08-06T07:59:54Z" uid="56277" user="jklippel" changeset="8935522" lat="47.6890144" lon="12.3959108">
    <tag k="amenity" v="place_of_worship"/>
    <tag k="denomination" v="catholic"/>
    <tag k="name" v="Klobensteinkapelle"/>
    <tag k="religion" v="christian"/>
  </node>
  <node id="90456725" version="8" timestamp="2011-10-15T10:46:51Z" uid="78656" user="Walter SchlÃ¶gl" changeset="9562376" lat="47.6890144" lon="12.3959108">
    <tag k="amenity" v="place_of_worship"/>
    <tag k="denomination" v="catholic"/>
    <tag k="name" v="Klobensteinkapelle"/>
    <tag k="place_of_worship" v="chapel"/>
    <tag k="religion" v="christian"/>
  </node>
</osm>
