<?xml version='1.0' encoding='UTF-8'?>
<osm version="0.6" generator="libosmium/2.20.0">
  <node id="90651877" version="2" timestamp="2008-07-05T12:10:00Z" uid="6975" user="ulfl" changeset="398437" lat="50.8214279" lon="-0.1512749">
    <tag k="man_made" v="pier"/>
    <tag k="name" v="West Pier"/>
  </node>
  <node id="90651877" version="3" timestamp="2008-07-05T12:12:34Z" uid="6975" user="ulfl" changeset="398437" lat="50.8214279" lon="-0.1512749">
    <tag k="man_made" v="pier"/>
    <tag k="name" v="West Pier"/>
  </node>
  <node id="90651877" version="4" timestamp="2011-01-24T22:33:37Z" uid="393369" user="Rondon237" changeset="7078749" lat="50.8214279" lon="-0.1512749">
    <tag k="man_made" v="pier"/>
    <tag k="name" v="West Pier"/>
  </node>
  <node id="90653709" version="3" timestamp="2009-11-30T05:12:11Z" uid="110593" user="esetzer" changeset="3252973" lat="38.645009" lon="-121.383159">
    <tag k="railway" v="tram_stop"/>
  </node>
  <node id="90653709" version="4" timestamp="2011-09-15T22:07:53Z" uid="381909" user="sblanc" changeset="9312188" lat="38.645009" lon="-121.383159">
    <tag k="name" v="Watt Ave &amp; I-80"/>
    <tag k="railway" v="tram_stop"/>
  </node>
  <node id="90653709" version="5" timestamp="2011-09-29T22:27:26Z" uid="381909" user="sblanc" changeset="9431501" lat="38.645009" lon="-121.383159">
    <tag k="name" v="Watt Ave / I-80"/>
    <tag k="railway" v="tram_stop"/>
  </node>
</osm>
