<?xml version='1.0' encoding='UTF-8'?>
<osm version="0.6" generator="libosmium/2.20.0">
  <node id="90668585" version="4" timestamp="2008-07-11T13:14:20Z" uid="13367" user="nubok" changeset="459420" lat="52.1471876" lon="11.6395894"/>
  <node id="90668585" version="5" timestamp="2008-07-11T13:15:46Z" uid="13367" user="nubok" changeset="459420" lat="52.1472034" lon="11.639658"/>
  <node id="90668585" version="6" timestamp="2008-07-16T17:13:42Z" uid="13367" user="nubok" changeset="506835" lat="52.1472228" lon="11.639721"/>
  <node id="90668585" version="7" timestamp="2009-03-03T16:35:59Z" uid="42683" user="riechfield" changeset="729384" lat="52.1472479" lon="11.6398004"/>
  <node id="90668585" version="8" timestamp="2009-03-03T17:00:52Z" uid="42683" user="riechfield" changeset="729384" lat="52.1472877" lon="11.639795">
    <tag k="highway" v="traffic_signals"/>
  </node>
  <node id="90668585" version="9" timestamp="2009-08-05T07:49:28Z" uid="42683" user="riechfield" changeset="2043126" lat="52.1472362" lon="11.6397966">
    <tag k="crossing" v="traffic_signals"/>
    <tag k="highway" v="traffic_signals"/>
  </node>
  <node id="90668585" version="10" timestamp="2011-02-10T17:45:18Z" uid="41889" user="Kurt Krampmeier" changeset="7247503" lat="52.147215" lon="11.6398087">
    <tag k="crossing" v="traffic_signals"/>
    <tag k="highway" v="traffic_signals"/>
  </node>
  <node id="90668623" version="4" timestamp="2008-07-11T13:14:17Z" uid="13367" user="nubok" changeset="459420" lat="52.1471823" lon="11.6395293">
    <tag k="name" v="Bahnhof Neustadt"/>
    <tag k="railway" v="tram_stop"/>
  </node>
  <node id="90668623" version="5" timestamp="2008-07-11T13:15:56Z" uid="13367" user="nubok" changeset="459420" lat="52.1471928" lon="11.639555">
    <tag k="name" v="Bahnhof Neustadt"/>
    <tag k="railway" v="tram_stop"/>
  </node>
  <node id="90668623" version="6" timestamp="2008-07-16T17:13:42Z" uid="13367" user="nubok" changeset="506835" lat="52.1471702" lon="11.6396437">
    <tag k="name" v="Bahnhof Neustadt"/>
    <tag k="railway" v="tram_stop"/>
  </node>
  <node id="90668623" version="7" timestamp="2008-11-25T09:47:15Z" uid="42683" user="riechfield" changeset="793637" lat="52.1471702" lon="11.6396437">
    <tag k="name" v="Bahnhof Neustadt"/>
    <tag k="railway" v="tram_stop"/>
    <tag k="ref" v="1;8;9;10"/>
  </node>
  <node id="90668623" version="8" timestamp="2008-12-17T10:14:40Z" uid="42683" user="riechfield" changeset="434034" lat="52.1471702" lon="11.6396437">
    <tag k="electrified" v="contact_line"/>
    <tag k="name" v="Bahnhof Neustadt"/>
    <tag k="railway" v="tram_stop"/>
    <tag k="ref" v="1;8;9;10"/>
  </node>
  <node id="90668623" version="9" timestamp="2008-12-17T10:15:39Z" uid="42683" user="riechfield" changeset="434034" lat="52.1471702" lon="11.6396437">
    <tag k="name" v="Bahnhof Neustadt"/>
    <tag k="railway" v="tram_stop"/>
    <tag k="ref" v="1;8;9;10"/>
  </node>
  <node id="90668623" version="10" timestamp="2009-03-03T16:35:57Z" uid="42683" user="riechfield" changeset="729384" lat="52.1471732" lon="11.6396942">
    <tag k="name" v="Bahnhof Neustadt"/>
    <tag k="railway" v="tram_stop"/>
    <tag k="ref" v="1;8;9;10"/>
  </node>
  <node id="90668623" version="11" timestamp="2009-04-07T16:41:56Z" uid="42683" user="riechfield" changeset="301927" lat="52.1471732" lon="11.6396942">
    <tag k="name" v="Bahnhof Neustadt"/>
    <tag k="railway" v="tram_stop"/>
    <tag k="ref" v="1;8;9;10"/>
    <tag k="wheelchair" v="yes"/>
  </node>
  <node id="90668623" version="12" timestamp="2009-08-05T07:49:28Z" uid="42683" user="riechfield" changeset="2043126" lat="52.1470281" lon="11.6396942">
    <tag k="name" v="Bahnhof Neustadt"/>
    <tag k="public_transport" v="stop_position"/>
    <tag k="railway" v="tram_stop"/>
    <tag k="ref" v="1;8;9;10"/>
    <tag k="tram" v="yes"/>
    <tag k="wheelchair" v="yes"/>
  </node>
  <node id="90668623" version="13" timestamp="2012-03-10T18:02:40Z" uid="90262" user="ClickKlack" changeset="10934931" lat="52.1468053" lon="11.6396933">
    <tag k="name" v="Bahnhof Neustadt"/>
    <tag k="public_transport" v="stop_position"/>
    <tag k="railway" v="tram_stop"/>
    <tag k="ref" v="1;8;9;10"/>
    <tag k="tram" v="yes"/>
    <tag k="wheelchair" v="yes"/>
  </node>
  <node id="90668694" version="5" timestamp="2008-07-11T13:14:16Z" uid="13367" user="nubok" changeset="459420" lat="52.1471981" lon="11.6393662"/>
  <node id="90668694" version="6" timestamp="2008-07-11T13:15:45Z" uid="13367" user="nubok" changeset="459420" lat="52.1471876" lon="11.6394606"/>
  <node id="90668694" version="7" timestamp="2008-07-16T17:14:11Z" uid="13367" user="nubok" changeset="506835" lat="52.147186" lon="11.6395922"/>
  <node id="90668694" version="8" timestamp="2009-03-03T16:35:59Z" uid="42683" user="riechfield" changeset="729384" lat="52.1471919" lon="11.6396042"/>
  <node id="90668694" version="9" timestamp="2009-08-05T07:49:28Z" uid="42683" user="riechfield" changeset="2043126" lat="52.1472265" lon="11.6396037">
    <tag k="crossing" v="traffic_signals"/>
  </node>
  <node id="90668694" version="10" timestamp="2011-02-10T17:45:16Z" uid="41889" user="Kurt Krampmeier" changeset="7247503" lat="52.1472113" lon="11.639584">
    <tag k="crossing" v="traffic_signals"/>
  </node>
</osm>
