<?xml version='1.0' encoding='UTF-8'?>
<osm version="0.6" generator="libosmium/2.20.0">
  <node id="907093586" version="1" timestamp="2010-09-11T17:48:42Z" uid="6975" user="ulfl" changeset="5751950" lat="48.9022306" lon="11.6359323">
    <tag k="addr:city" v="Sollern"/>
    <tag k="addr:country" v="DE"/>
    <tag k="addr:housenumber" v="9"/>
    <tag k="addr:street" v="Marienstraße"/>
  </node>
  <node id="907093586" version="2" timestamp="2011-12-19T22:48:55Z" uid="92248" user="Findeschorse007" changeset="10159928" lat="48.9021532" lon="11.6359159">
    <tag k="addr:city" v="Sollern"/>
    <tag k="addr:country" v="DE"/>
    <tag k="addr:housenumber" v="9"/>
    <tag k="addr:street" v="Marienstraße"/>
  </node>
  <node id="907093601" version="1" timestamp="2010-09-11T17:48:42Z" uid="6975" user="ulfl" changeset="5751950" lat="48.9019222" lon="11.6350632">
    <tag k="addr:city" v="Sollern"/>
    <tag k="addr:country" v="DE"/>
    <tag k="addr:housenumber" v="4"/>
    <tag k="addr:street" v="Wiesenweg"/>
  </node>
  <node id="907093607" version="1" timestamp="2010-09-11T17:48:42Z" uid="6975" user="ulfl" changeset="5751950" lat="48.901761" lon="11.6349195">
    <tag k="addr:city" v="Sollern"/>
    <tag k="addr:country" v="DE"/>
    <tag k="addr:housenumber" v="3"/>
    <tag k="addr:street" v="Wiesenweg"/>
  </node>
  <node id="907093642" version="1" timestamp="2010-09-11T17:48:43Z" uid="6975" user="ulfl" changeset="5751950" lat="48.8949463" lon="11.6238771"/>
  <node id="907093642" version="2" timestamp="2010-09-11T22:08:03Z" uid="6975" user="ulfl" changeset="5754377" lat="48.8949926" lon="11.6238771"/>
  <node id="907093647" version="1" timestamp="2010-09-11T17:48:43Z" uid="6975" user="ulfl" changeset="5751950" lat="48.9026932" lon="11.6356379">
    <tag k="addr:city" v="Sollern"/>
    <tag k="addr:country" v="DE"/>
    <tag k="addr:housenumber" v="4"/>
    <tag k="addr:street" v="Marienstraße"/>
  </node>
  <node id="907093657" version="1" timestamp="2010-09-11T17:48:43Z" uid="6975" user="ulfl" changeset="5751950" lat="48.9019467" lon="11.6347022">
    <tag k="addr:city" v="Sollern"/>
    <tag k="addr:country" v="DE"/>
    <tag k="addr:housenumber" v="6"/>
    <tag k="addr:street" v="Wiesenweg"/>
  </node>
  <node id="907093664" version="1" timestamp="2010-09-11T17:48:44Z" uid="6975" user="ulfl" changeset="5751950" lat="48.9017294" lon="11.6340924">
    <tag k="addr:city" v="Sollern"/>
    <tag k="addr:country" v="DE"/>
    <tag k="addr:housenumber" v="7"/>
    <tag k="addr:street" v="Wiesenweg"/>
  </node>
  <node id="907093664" version="2" timestamp="2011-12-19T22:49:08Z" uid="92248" user="Findeschorse007" changeset="10159928" lat="48.9017294" lon="11.6340924"/>
  <node id="907093687" version="1" timestamp="2010-09-11T17:48:44Z" uid="6975" user="ulfl" changeset="5751950" lat="48.9012949" lon="11.6347933">
    <tag k="addr:city" v="Sollern"/>
    <tag k="addr:country" v="DE"/>
    <tag k="addr:housenumber" v="3"/>
    <tag k="addr:street" v="Liebfrauenweg"/>
  </node>
  <node id="907093695" version="1" timestamp="2010-09-11T17:48:45Z" uid="6975" user="ulfl" changeset="5751950" lat="48.9023147" lon="11.6359078">
    <tag k="addr:city" v="Sollern"/>
    <tag k="addr:country" v="DE"/>
    <tag k="addr:housenumber" v="7"/>
    <tag k="addr:street" v="Marienstraße"/>
  </node>
  <node id="907093710" version="1" timestamp="2010-09-11T17:48:45Z" uid="6975" user="ulfl" changeset="5751950" lat="48.9014946" lon="11.6352314">
    <tag k="addr:city" v="Sollern"/>
    <tag k="addr:country" v="DE"/>
    <tag k="addr:housenumber" v="2"/>
    <tag k="addr:street" v="Liebfrauenweg"/>
  </node>
  <node id="907093727" version="1" timestamp="2010-09-11T17:48:46Z" uid="6975" user="ulfl" changeset="5751950" lat="48.9014421" lon="11.6348599">
    <tag k="addr:city" v="Sollern"/>
    <tag k="addr:country" v="DE"/>
    <tag k="addr:housenumber" v="4"/>
    <tag k="addr:street" v="Liebfrauenweg"/>
  </node>
  <node id="907093727" version="2" timestamp="2011-12-19T22:49:05Z" uid="92248" user="Findeschorse007" changeset="10159928" lat="48.9014421" lon="11.6348599"/>
  <node id="907093737" version="1" timestamp="2010-09-11T17:48:46Z" uid="6975" user="ulfl" changeset="5751950" lat="48.8970444" lon="11.6420358">
    <tag k="name" v="Altmannstein"/>
    <tag k="traffic_sign" v="city_limit"/>
  </node>
  <node id="907093746" version="1" timestamp="2010-09-11T17:48:46Z" uid="6975" user="ulfl" changeset="5751950" lat="48.903545" lon="11.6386853">
    <tag k="name" v="Sollern"/>
    <tag k="traffic_sign" v="city_limit"/>
  </node>
  <node id="907093750" version="1" timestamp="2010-09-11T17:48:46Z" uid="6975" user="ulfl" changeset="5751950" lat="48.9031408" lon="11.6354806">
    <tag k="historic" v="wayside_shrine"/>
  </node>
  <node id="907093755" version="1" timestamp="2010-09-11T17:48:46Z" uid="6975" user="ulfl" changeset="5751950" lat="48.9012283" lon="11.6344744">
    <tag k="addr:city" v="Sollern"/>
    <tag k="addr:country" v="DE"/>
    <tag k="addr:housenumber" v="5"/>
    <tag k="addr:street" v="Liebfrauenweg"/>
  </node>
  <node id="907093755" version="2" timestamp="2011-12-19T22:49:07Z" uid="92248" user="Findeschorse007" changeset="10159928" lat="48.9012283" lon="11.6344744"/>
  <node id="907093772" version="1" timestamp="2010-09-11T17:48:47Z" uid="6975" user="ulfl" changeset="5751950" lat="48.9013439" lon="11.6344008">
    <tag k="addr:city" v="Sollern"/>
    <tag k="addr:country" v="DE"/>
    <tag k="addr:housenumber" v="6"/>
    <tag k="addr:street" v="Liebfrauenweg"/>
  </node>
  <node id="907093772" version="2" timestamp="2011-12-19T22:49:07Z" uid="92248" user="Findeschorse007" changeset="10159928" lat="48.9013439" lon="11.6344008"/>
  <node id="907093777" version="1" timestamp="2010-09-11T17:48:47Z" uid="6975" user="ulfl" changeset="5751950" lat="48.9027411" lon="11.634347">
    <tag k="name" v="Sollern"/>
    <tag k="traffic_sign" v="city_limit"/>
  </node>
  <node id="907093781" version="1" timestamp="2010-09-11T17:48:47Z" uid="6975" user="ulfl" changeset="5751950" lat="48.901747" lon="11.6352174">
    <tag k="addr:city" v="Sollern"/>
    <tag k="addr:country" v="DE"/>
    <tag k="addr:housenumber" v="1"/>
    <tag k="addr:street" v="Wiesenweg"/>
  </node>
  <node id="907093797" version="1" timestamp="2010-09-11T17:48:48Z" uid="6975" user="ulfl" changeset="5751950" lat="48.9018126" lon="11.6361114">
    <tag k="amenity" v="grave_yard"/>
    <tag k="denomination" v="catholic"/>
    <tag k="religion" v="christian"/>
  </node>
  <node id="907093797" version="2" timestamp="2011-07-06T12:34:03Z" uid="48185" user="Hans Loderer" changeset="8647999" lat="48.90193" lon="11.6365438">
    <tag k="amenity" v="grave_yard"/>
    <tag k="denomination" v="catholic"/>
    <tag k="religion" v="christian"/>
  </node>
</osm>
