<?xml version='1.0' encoding='UTF-8'?>
<osm version="0.6" generator="libosmium/2.20.0">
  <node id="907208908" version="1" timestamp="2010-09-11T20:06:03Z" uid="6975" user="ulfl" changeset="5753250" lat="48.8964822" lon="11.586224">
    <tag k="addr:city" v="Steinsdorf"/>
    <tag k="addr:country" v="DE"/>
    <tag k="addr:housenumber" v="34"/>
    <tag k="addr:street" v="Zur Froschau"/>
  </node>
  <node id="907208910" version="1" timestamp="2010-09-11T20:06:03Z" uid="6975" user="ulfl" changeset="5753250" lat="48.8897801" lon="11.6011569"/>
  <node id="907208918" version="1" timestamp="2010-09-11T20:06:03Z" uid="6975" user="ulfl" changeset="5753250" lat="48.8961447" lon="11.5866887">
    <tag k="addr:city" v="Steinsdorf"/>
    <tag k="addr:country" v="DE"/>
    <tag k="addr:housenumber" v="37"/>
    <tag k="addr:street" v="Zur Froschau"/>
  </node>
  <node id="907208919" version="1" timestamp="2010-09-11T20:06:03Z" uid="6975" user="ulfl" changeset="5753250" lat="48.8956864" lon="11.5890322"/>
  <node id="907208920" version="1" timestamp="2010-09-11T20:06:03Z" uid="6975" user="ulfl" changeset="5753250" lat="48.8929911" lon="11.5901467">
    <tag k="addr:city" v="Steinsdorf"/>
    <tag k="addr:country" v="DE"/>
    <tag k="addr:housenumber" v="2"/>
    <tag k="addr:street" v="Hollerstraße"/>
  </node>
  <node id="907208922" version="1" timestamp="2010-09-11T20:06:03Z" uid="6975" user="ulfl" changeset="5753250" lat="48.890973" lon="11.5919221"/>
  <node id="907208922" version="2" timestamp="2010-12-10T21:31:01Z" uid="162465" user="ckol" changeset="6610241" lat="48.8909581" lon="11.5918929"/>
  <node id="907208924" version="1" timestamp="2010-09-11T20:06:03Z" uid="6975" user="ulfl" changeset="5753250" lat="48.8944542" lon="11.5901647"/>
  <node id="907208931" version="1" timestamp="2010-09-11T20:06:04Z" uid="6975" user="ulfl" changeset="5753250" lat="48.8916882" lon="11.5937834"/>
  <node id="907208932" version="1" timestamp="2010-09-11T20:06:04Z" uid="6975" user="ulfl" changeset="5753250" lat="48.8962167" lon="11.5869322">
    <tag k="addr:city" v="Steinsdorf"/>
    <tag k="addr:country" v="DE"/>
    <tag k="addr:housenumber" v="17"/>
    <tag k="addr:street" v="Zur Froschau"/>
  </node>
  <node id="907208933" version="1" timestamp="2010-09-11T20:06:04Z" uid="6975" user="ulfl" changeset="5753250" lat="48.8965542" lon="11.58639">
    <tag k="addr:city" v="Steinsdorf"/>
    <tag k="addr:country" v="DE"/>
    <tag k="addr:housenumber" v="32"/>
    <tag k="addr:street" v="Zur Froschau"/>
  </node>
  <node id="907208934" version="1" timestamp="2010-09-11T20:06:04Z" uid="6975" user="ulfl" changeset="5753250" lat="48.8915708" lon="11.5956727"/>
  <node id="907208934" version="2" timestamp="2010-12-10T21:31:03Z" uid="162465" user="ckol" changeset="6610241" lat="48.8915274" lon="11.5956372"/>
  <node id="907208936" version="1" timestamp="2010-09-11T20:06:04Z" uid="6975" user="ulfl" changeset="5753250" lat="48.8964324" lon="11.5876736">
    <tag k="addr:city" v="Steinsdorf"/>
    <tag k="addr:country" v="DE"/>
    <tag k="addr:housenumber" v="22"/>
    <tag k="addr:street" v="Zur Froschau"/>
  </node>
  <node id="907208943" version="1" timestamp="2010-09-11T20:06:04Z" uid="6975" user="ulfl" changeset="5753250" lat="48.8961676" lon="11.5865207"/>
  <node id="907208944" version="1" timestamp="2010-09-11T20:06:04Z" uid="6975" user="ulfl" changeset="5753250" lat="48.8832379" lon="11.6168067"/>
  <node id="907208945" version="1" timestamp="2010-09-11T20:06:04Z" uid="6975" user="ulfl" changeset="5753250" lat="48.8915138" lon="11.5941635">
    <tag k="addr:city" v="Steinsdorf"/>
    <tag k="addr:country" v="DE"/>
    <tag k="addr:housenumber" v="8"/>
    <tag k="addr:street" v="Forststraße"/>
  </node>
  <node id="907208947" version="1" timestamp="2010-09-11T20:06:04Z" uid="6975" user="ulfl" changeset="5753250" lat="48.8919541" lon="11.5893824"/>
  <node id="907208947" version="2" timestamp="2010-12-10T21:31:06Z" uid="162465" user="ckol" changeset="6610241" lat="48.8919274" lon="11.5894281"/>
  <node id="907208948" version="1" timestamp="2010-09-11T20:06:04Z" uid="6975" user="ulfl" changeset="5753250" lat="48.896355" lon="11.5854549">
    <tag k="addr:city" v="Steinsdorf"/>
    <tag k="addr:country" v="DE"/>
    <tag k="addr:housenumber" v="56"/>
    <tag k="addr:street" v="Forststraße"/>
  </node>
  <node id="907208956" version="1" timestamp="2010-09-11T20:06:05Z" uid="6975" user="ulfl" changeset="5753250" lat="48.8922763" lon="11.5918239"/>
  <node id="907208956" version="2" timestamp="2010-12-10T21:31:03Z" uid="162465" user="ckol" changeset="6610241" lat="48.8922603" lon="11.5917914"/>
  <node id="907208957" version="1" timestamp="2010-09-11T20:06:05Z" uid="6975" user="ulfl" changeset="5753250" lat="48.895337" lon="11.5881107">
    <tag k="addr:city" v="Steinsdorf"/>
    <tag k="addr:country" v="DE"/>
    <tag k="addr:housenumber" v="27"/>
    <tag k="addr:street" v="Zur Froschau"/>
  </node>
  <node id="907208958" version="1" timestamp="2010-09-11T20:06:05Z" uid="6975" user="ulfl" changeset="5753250" lat="48.8959648" lon="11.5898074"/>
  <node id="907208959" version="1" timestamp="2010-09-11T20:06:05Z" uid="6975" user="ulfl" changeset="5753250" lat="48.8958017" lon="11.5896488">
    <tag k="addr:city" v="Steinsdorf"/>
    <tag k="addr:country" v="DE"/>
    <tag k="addr:housenumber" v="3"/>
    <tag k="addr:street" v="Zur Froschau"/>
  </node>
  <node id="907208967" version="1" timestamp="2010-09-11T20:06:05Z" uid="6975" user="ulfl" changeset="5753250" lat="48.8930543" lon="11.5879246"/>
  <node id="907208969" version="1" timestamp="2010-09-11T20:06:05Z" uid="6975" user="ulfl" changeset="5753250" lat="48.8931185" lon="11.5892541"/>
  <node id="907208970" version="1" timestamp="2010-09-11T20:06:05Z" uid="6975" user="ulfl" changeset="5753250" lat="48.8913764" lon="11.5860725"/>
  <node id="907208970" version="2" timestamp="2010-12-10T21:31:05Z" uid="162465" user="ckol" changeset="6610241" lat="48.8913027" lon="11.5860977"/>
  <node id="907208971" version="1" timestamp="2010-09-11T20:06:05Z" uid="6975" user="ulfl" changeset="5753250" lat="48.8962498" lon="11.5866967"/>
  <node id="907208972" version="1" timestamp="2010-09-11T20:06:05Z" uid="6975" user="ulfl" changeset="5753250" lat="48.8955306" lon="11.5865117">
    <tag k="addr:city" v="Steinsdorf"/>
    <tag k="addr:country" v="DE"/>
    <tag k="addr:housenumber" v="34"/>
    <tag k="addr:street" v="Forststraße"/>
  </node>
  <node id="907208973" version="1" timestamp="2010-09-11T20:06:05Z" uid="6975" user="ulfl" changeset="5753250" lat="48.8907255" lon="11.5865768"/>
  <node id="907208973" version="2" timestamp="2010-12-10T21:31:10Z" uid="162465" user="ckol" changeset="6610241" lat="48.8906614" lon="11.5866028"/>
  <node id="907208975" version="1" timestamp="2010-09-11T20:06:05Z" uid="6975" user="ulfl" changeset="5753250" lat="48.8934792" lon="11.5856703">
    <tag k="name" v="Steinsdorf"/>
    <tag k="traffic_sign" v="city_limit"/>
  </node>
  <node id="907208975" version="2" timestamp="2010-12-10T21:31:04Z" uid="162465" user="ckol" changeset="6610241" lat="48.8934956" lon="11.5856682">
    <tag k="name" v="Steinsdorf"/>
    <tag k="traffic_sign" v="city_limit"/>
  </node>
  <node id="907208978" version="1" timestamp="2010-09-11T20:06:05Z" uid="6975" user="ulfl" changeset="5753250" lat="48.8953757" lon="11.5877898">
    <tag k="addr:city" v="Steinsdorf"/>
    <tag k="addr:country" v="DE"/>
    <tag k="addr:housenumber" v="29"/>
    <tag k="addr:street" v="Zur Froschau"/>
  </node>
  <node id="907208980" version="1" timestamp="2010-09-11T20:06:06Z" uid="6975" user="ulfl" changeset="5753250" lat="48.886741" lon="11.5855097"/>
  <node id="907208982" version="1" timestamp="2010-09-11T20:06:06Z" uid="6975" user="ulfl" changeset="5753250" lat="48.8922108" lon="11.5897858"/>
  <node id="907208984" version="1" timestamp="2010-09-11T20:06:06Z" uid="6975" user="ulfl" changeset="5753250" lat="48.8893059" lon="11.5976932">
    <tag k="addr:city" v="Steinsdorf"/>
    <tag k="addr:country" v="DE"/>
    <tag k="addr:housenumber" v="22"/>
    <tag k="addr:street" v="Am Sand"/>
  </node>
  <node id="907208988" version="1" timestamp="2010-09-11T20:06:06Z" uid="6975" user="ulfl" changeset="5753250" lat="48.8892766" lon="11.596747">
    <tag k="addr:city" v="Steinsdorf"/>
    <tag k="addr:country" v="DE"/>
    <tag k="addr:housenumber" v="13"/>
    <tag k="addr:street" v="Am Sand"/>
  </node>
  <node id="907208992" version="1" timestamp="2010-09-11T20:06:06Z" uid="6975" user="ulfl" changeset="5753250" lat="48.8915858" lon="11.5938758">
    <tag k="addr:city" v="Steinsdorf"/>
    <tag k="addr:country" v="DE"/>
    <tag k="addr:housenumber" v="10"/>
    <tag k="addr:street" v="Forststraße"/>
  </node>
  <node id="907208995" version="1" timestamp="2010-09-11T20:06:06Z" uid="6975" user="ulfl" changeset="5753250" lat="48.8812868" lon="11.6185304"/>
  <node id="907208998" version="1" timestamp="2010-09-11T20:06:06Z" uid="6975" user="ulfl" changeset="5753250" lat="48.8954421" lon="11.5862849">
    <tag k="addr:city" v="Steinsdorf"/>
    <tag k="addr:country" v="DE"/>
    <tag k="addr:housenumber" v="31"/>
    <tag k="addr:street" v="Forststraße"/>
  </node>
  <node id="907209001" version="1" timestamp="2010-09-11T20:06:06Z" uid="6975" user="ulfl" changeset="5753250" lat="48.8906888" lon="11.5901526"/>
  <node id="907209001" version="2" timestamp="2010-12-10T21:31:10Z" uid="162465" user="ckol" changeset="6610241" lat="48.8906781" lon="11.5901039"/>
  <node id="907209004" version="1" timestamp="2010-09-11T20:06:07Z" uid="6975" user="ulfl" changeset="5753250" lat="48.8938013" lon="11.5867607">
    <tag k="addr:city" v="Steinsdorf"/>
    <tag k="addr:country" v="DE"/>
    <tag k="addr:housenumber" v="7"/>
    <tag k="addr:street" v="Metzstraße"/>
  </node>
  <node id="907209007" version="1" timestamp="2010-09-11T20:06:07Z" uid="6975" user="ulfl" changeset="5753250" lat="48.8956081" lon="11.586058">
    <tag k="addr:city" v="Steinsdorf"/>
    <tag k="addr:country" v="DE"/>
    <tag k="addr:housenumber" v="33"/>
    <tag k="addr:street" v="Forststraße"/>
  </node>
  <node id="907209012" version="1" timestamp="2010-09-11T20:06:07Z" uid="6975" user="ulfl" changeset="5753250" lat="48.8923714" lon="11.590368"/>
  <node id="907209014" version="1" timestamp="2010-09-11T20:06:07Z" uid="6975" user="ulfl" changeset="5753250" lat="48.8924859" lon="11.5894283"/>
  <node id="907209016" version="1" timestamp="2010-09-11T20:06:07Z" uid="6975" user="ulfl" changeset="5753250" lat="48.8911289" lon="11.5940309"/>
  <node id="907209017" version="1" timestamp="2010-09-11T20:06:07Z" uid="6975" user="ulfl" changeset="5753250" lat="48.8824898" lon="11.6167114"/>
  <node id="907209019" version="1" timestamp="2010-09-11T20:06:07Z" uid="6975" user="ulfl" changeset="5753250" lat="48.8959388" lon="11.5870723"/>
  <node id="907209021" version="1" timestamp="2010-09-11T20:06:07Z" uid="6975" user="ulfl" changeset="5753250" lat="48.8909547" lon="11.5836153"/>
  <node id="907209021" version="2" timestamp="2011-03-20T08:05:28Z" uid="118856" user="staehler" changeset="7613383" lat="48.8909547" lon="11.5836153"/>
  <node id="907209022" version="1" timestamp="2010-09-11T20:06:07Z" uid="6975" user="ulfl" changeset="5753250" lat="48.8899196" lon="11.5974779">
    <tag k="addr:city" v="Steinsdorf"/>
    <tag k="addr:country" v="DE"/>
    <tag k="addr:housenumber" v="14"/>
    <tag k="addr:street" v="Am Sand"/>
  </node>
  <node id="907209026" version="1" timestamp="2010-09-11T20:06:07Z" uid="6975" user="ulfl" changeset="5753250" lat="48.8963261" lon="11.5876356"/>
  <node id="907209028" version="1" timestamp="2010-09-11T20:06:07Z" uid="6975" user="ulfl" changeset="5753250" lat="48.8949386" lon="11.5871037">
    <tag k="addr:city" v="Steinsdorf"/>
    <tag k="addr:country" v="DE"/>
    <tag k="addr:housenumber" v="23"/>
    <tag k="addr:street" v="Forststraße"/>
  </node>
  <node id="907209031" version="1" timestamp="2010-09-11T20:06:07Z" uid="6975" user="ulfl" changeset="5753250" lat="48.8934382" lon="11.5859913">
    <tag k="addr:city" v="Steinsdorf"/>
    <tag k="addr:country" v="DE"/>
    <tag k="addr:housenumber" v="11"/>
    <tag k="addr:street" v="Metzstraße"/>
  </node>
  <node id="907209033" version="1" timestamp="2010-09-11T20:06:08Z" uid="6975" user="ulfl" changeset="5753250" lat="48.890235" lon="11.5976221">
    <tag k="addr:city" v="Steinsdorf"/>
    <tag k="addr:country" v="DE"/>
    <tag k="addr:housenumber" v="7"/>
    <tag k="addr:street" v="Am Sand"/>
  </node>
  <node id="907209037" version="1" timestamp="2010-09-11T20:06:08Z" uid="6975" user="ulfl" changeset="5753250" lat="48.8905004" lon="11.5896148">
    <tag k="addr:city" v="Steinsdorf"/>
    <tag k="addr:country" v="DE"/>
    <tag k="addr:housenumber" v="21"/>
    <tag k="addr:street" v="Salvatorweg"/>
  </node>
  <node id="907209037" version="2" timestamp="2010-12-10T21:31:06Z" uid="162465" user="ckol" changeset="6610241" lat="48.8904804" lon="11.5897924">
    <tag k="addr:city" v="Steinsdorf"/>
    <tag k="addr:country" v="DE"/>
    <tag k="addr:housenumber" v="21"/>
    <tag k="addr:street" v="Salvatorweg"/>
  </node>
  <node id="907209040" version="1" timestamp="2010-09-11T20:06:08Z" uid="6975" user="ulfl" changeset="5753250" lat="48.8929731" lon="11.5916918"/>
  <node id="907209040" version="2" timestamp="2010-12-10T21:31:01Z" uid="162465" user="ckol" changeset="6610241" lat="48.8929277" lon="11.5916877"/>
  <node id="907209043" version="1" timestamp="2010-09-11T20:06:08Z" uid="6975" user="ulfl" changeset="5753250" lat="48.8928984" lon="11.5872278"/>
  <node id="907209044" version="1" timestamp="2010-09-11T20:06:08Z" uid="6975" user="ulfl" changeset="5753250" lat="48.8923116" lon="11.5939943"/>
  <node id="907209046" version="1" timestamp="2010-09-11T20:06:08Z" uid="6975" user="ulfl" changeset="5753250" lat="48.8906707" lon="11.5976672">
    <tag k="addr:city" v="Steinsdorf"/>
    <tag k="addr:country" v="DE"/>
    <tag k="addr:housenumber" v="1"/>
    <tag k="addr:street" v="Am Sand"/>
  </node>
  <node id="907209050" version="1" timestamp="2010-09-11T20:06:08Z" uid="6975" user="ulfl" changeset="5753250" lat="48.8885713" lon="11.605007"/>
  <node id="907209052" version="1" timestamp="2010-09-11T20:06:08Z" uid="6975" user="ulfl" changeset="5753250" lat="48.8902008" lon="11.5966443">
    <tag k="addr:city" v="Steinsdorf"/>
    <tag k="addr:country" v="DE"/>
    <tag k="addr:housenumber" v="10"/>
    <tag k="addr:street" v="Ostenstraße"/>
  </node>
  <node id="907209055" version="1" timestamp="2010-09-11T20:06:08Z" uid="6975" user="ulfl" changeset="5753250" lat="48.8958449" lon="11.5894371"/>
  <node id="907209057" version="1" timestamp="2010-09-11T20:06:08Z" uid="6975" user="ulfl" changeset="5753250" lat="48.8890125" lon="11.5972825">
    <tag k="addr:city" v="Steinsdorf"/>
    <tag k="addr:country" v="DE"/>
    <tag k="addr:housenumber" v="20"/>
    <tag k="addr:street" v="Am Sand"/>
  </node>
  <node id="907209059" version="1" timestamp="2010-09-11T20:06:09Z" uid="6975" user="ulfl" changeset="5753250" lat="48.8907346" lon="11.5855958"/>
  <node id="907209059" version="2" timestamp="2010-12-10T21:31:05Z" uid="162465" user="ckol" changeset="6610241" lat="48.8906812" lon="11.5855893"/>
  <node id="907209061" version="1" timestamp="2010-09-11T20:06:09Z" uid="6975" user="ulfl" changeset="5753250" lat="48.8960221" lon="11.5899679"/>
  <node id="907209063" version="1" timestamp="2010-09-11T20:06:09Z" uid="6975" user="ulfl" changeset="5753250" lat="48.8937852" lon="11.5903173"/>
  <node id="907209065" version="1" timestamp="2010-09-11T20:06:09Z" uid="6975" user="ulfl" changeset="5753250" lat="48.8914773" lon="11.5937467"/>
  <node id="907209067" version="1" timestamp="2010-09-11T20:06:09Z" uid="6975" user="ulfl" changeset="5753250" lat="48.8906887" lon="11.5975711">
    <tag k="addr:city" v="Steinsdorf"/>
    <tag k="addr:country" v="DE"/>
    <tag k="addr:housenumber" v="3"/>
    <tag k="addr:street" v="Am Sand"/>
  </node>
  <node id="907209070" version="1" timestamp="2010-09-11T20:06:09Z" uid="6975" user="ulfl" changeset="5753250" lat="48.8906338" lon="11.5982027">
    <tag k="name" v="Steinsdorf"/>
    <tag k="traffic_sign" v="city_limit"/>
  </node>
  <node id="907209070" version="2" timestamp="2010-12-10T21:31:05Z" uid="162465" user="ckol" changeset="6610241" lat="48.8905904" lon="11.5982585">
    <tag k="name" v="Steinsdorf"/>
    <tag k="traffic_sign" v="city_limit"/>
  </node>
  <node id="907209076" version="1" timestamp="2010-09-11T20:06:09Z" uid="6975" user="ulfl" changeset="5753250" lat="48.8902668" lon="11.5955368">
    <tag k="addr:city" v="Steinsdorf"/>
    <tag k="addr:country" v="DE"/>
    <tag k="addr:housenumber" v="7"/>
    <tag k="addr:street" v="Mendorfer Straße"/>
  </node>
  <node id="907209079" version="1" timestamp="2010-09-11T20:06:09Z" uid="6975" user="ulfl" changeset="5753250" lat="48.8909419" lon="11.5959344">
    <tag k="addr:city" v="Steinsdorf"/>
    <tag k="addr:country" v="DE"/>
    <tag k="addr:housenumber" v="4"/>
    <tag k="addr:street" v="Am Sand"/>
  </node>
  <node id="907209083" version="1" timestamp="2010-09-11T20:06:09Z" uid="6975" user="ulfl" changeset="5753250" lat="48.8921224" lon="11.5938924">
    <tag k="addr:city" v="Steinsdorf"/>
    <tag k="addr:country" v="DE"/>
    <tag k="addr:housenumber" v="12a"/>
    <tag k="addr:street" v="Forststraße"/>
  </node>
  <node id="907209092" version="1" timestamp="2010-09-11T20:06:10Z" uid="6975" user="ulfl" changeset="5753250" lat="48.8926005" lon="11.5952474"/>
  <node id="907209092" version="2" timestamp="2010-12-10T21:31:06Z" uid="162465" user="ckol" changeset="6610241" lat="48.8925284" lon="11.5952149"/>
  <node id="907209096" version="1" timestamp="2010-09-11T20:06:10Z" uid="6975" user="ulfl" changeset="5753250" lat="48.887564" lon="11.6068202"/>
  <node id="907209096" version="2" timestamp="2010-12-10T21:31:09Z" uid="162465" user="ckol" changeset="6610241" lat="48.8874096" lon="11.6070634"/>
  <node id="907209099" version="1" timestamp="2010-09-11T20:06:10Z" uid="6975" user="ulfl" changeset="5753250" lat="48.8917524" lon="11.5886489"/>
  <node id="907209099" version="2" timestamp="2010-12-10T21:31:10Z" uid="162465" user="ckol" changeset="6610241" lat="48.8917157" lon="11.5886185"/>
  <node id="907209101" version="1" timestamp="2010-09-11T20:06:10Z" uid="6975" user="ulfl" changeset="5753250" lat="48.8905144" lon="11.5974148">
    <tag k="addr:city" v="Steinsdorf"/>
    <tag k="addr:country" v="DE"/>
    <tag k="addr:housenumber" v="8"/>
    <tag k="addr:street" v="Am Sand"/>
  </node>
  <node id="907209106" version="1" timestamp="2010-09-11T20:06:10Z" uid="6975" user="ulfl" changeset="5753250" lat="48.8923863" lon="11.5918899"/>
  <node id="907209106" version="2" timestamp="2010-12-10T21:31:07Z" uid="162465" user="ckol" changeset="6610241" lat="48.8923596" lon="11.5918655"/>
  <node id="907209109" version="1" timestamp="2010-09-11T20:06:10Z" uid="6975" user="ulfl" changeset="5753250" lat="48.8900187" lon="11.5973908">
    <tag k="addr:city" v="Steinsdorf"/>
    <tag k="addr:country" v="DE"/>
    <tag k="addr:housenumber" v="12"/>
    <tag k="addr:street" v="Am Sand"/>
  </node>
  <node id="907209116" version="1" timestamp="2010-09-11T20:06:10Z" uid="6975" user="ulfl" changeset="5753250" lat="48.892385" lon="11.58985"/>
  <node id="907209122" version="1" timestamp="2010-09-11T20:06:11Z" uid="6975" user="ulfl" changeset="5753250" lat="48.8911381" lon="11.592619"/>
  <node id="907209122" version="2" timestamp="2010-12-10T21:31:10Z" uid="162465" user="ckol" changeset="6610241" lat="48.8911039" lon="11.5926028"/>
  <node id="907209125" version="1" timestamp="2010-09-11T20:06:11Z" uid="6975" user="ulfl" changeset="5753250" lat="48.8946896" lon="11.5900195">
    <tag k="addr:city" v="Steinsdorf"/>
    <tag k="addr:country" v="DE"/>
    <tag k="addr:housenumber" v="9"/>
    <tag k="addr:street" v="Hollerstraße"/>
  </node>
  <node id="907209128" version="1" timestamp="2010-09-11T20:06:11Z" uid="6975" user="ulfl" changeset="5753250" lat="48.8928343" lon="11.5879338"/>
  <node id="907209130" version="1" timestamp="2010-09-11T20:06:11Z" uid="6975" user="ulfl" changeset="5753250" lat="48.8938764" lon="11.594755"/>
  <node id="907209141" version="1" timestamp="2010-09-11T20:06:11Z" uid="6975" user="ulfl" changeset="5753250" lat="48.8953989" lon="11.5879936"/>
  <node id="907209145" version="1" timestamp="2010-09-11T20:06:11Z" uid="6975" user="ulfl" changeset="5753250" lat="48.891028" lon="11.5784075"/>
  <node id="907209145" version="2" timestamp="2011-03-20T08:04:59Z" uid="118856" user="staehler" changeset="7613383" lat="48.8909749" lon="11.5784142"/>
  <node id="907209145" version="3" timestamp="2011-11-05T20:58:59Z" uid="46424" user="ozjoghurt" changeset="9750487" lat="48.8909789" lon="11.5782946"/>
  <node id="907209151" version="1" timestamp="2010-09-11T20:06:11Z" uid="6975" user="ulfl" changeset="5753250" lat="48.8963495" lon="11.5868258"/>
  <node id="907209153" version="1" timestamp="2010-09-11T20:06:11Z" uid="6975" user="ulfl" changeset="5753250" lat="48.8834286" lon="11.6166894">
    <tag k="name" v="Viehhausen"/>
    <tag k="place" v="hamlet"/>
  </node>
  <node id="907209153" version="2" timestamp="2012-03-21T08:51:48Z" uid="41431" user="Rosty" changeset="11049665" lat="48.8834286" lon="11.6166894"/>
  <node id="907209158" version="1" timestamp="2010-09-11T20:06:11Z" uid="6975" user="ulfl" changeset="5753250" lat="48.8907621" lon="11.5877779"/>
  <node id="907209158" version="2" timestamp="2010-12-10T21:31:06Z" uid="162465" user="ckol" changeset="6610241" lat="48.8907301" lon="11.5873493"/>
  <node id="907209162" version="1" timestamp="2010-09-11T20:06:12Z" uid="6975" user="ulfl" changeset="5753250" lat="48.8926473" lon="11.5893028">
    <tag k="amenity" v="post_box"/>
  </node>
  <node id="907209162" version="2" timestamp="2011-08-30T11:01:41Z" uid="162465" user="ckol" changeset="9165997" lat="48.8926473" lon="11.5893028">
    <tag k="amenity" v="post_box"/>
    <tag k="collection_times" v="fixme"/>
  </node>
  <node id="907209171" version="1" timestamp="2010-09-11T20:06:12Z" uid="6975" user="ulfl" changeset="5753250" lat="48.8945188" lon="11.5883513">
    <tag k="addr:city" v="Steinsdorf"/>
    <tag k="addr:country" v="DE"/>
    <tag k="addr:housenumber" v="1"/>
    <tag k="addr:street" v="Metzstraße"/>
  </node>
  <node id="907209173" version="1" timestamp="2010-09-11T20:06:12Z" uid="6975" user="ulfl" changeset="5753250" lat="48.8911819" lon="11.5946891">
    <tag k="addr:city" v="Steinsdorf"/>
    <tag k="addr:country" v="DE"/>
    <tag k="addr:housenumber" v="5"/>
    <tag k="addr:street" v="Forststraße"/>
  </node>
  <node id="907209175" version="1" timestamp="2010-09-11T20:06:12Z" uid="6975" user="ulfl" changeset="5753250" lat="48.8904516" lon="11.5989185"/>
  <node id="907209175" version="2" timestamp="2010-12-10T21:31:03Z" uid="162465" user="ckol" changeset="6610241" lat="48.8904383" lon="11.598883"/>
  <node id="907209176" version="1" timestamp="2010-09-11T20:06:12Z" uid="6975" user="ulfl" changeset="5753250" lat="48.8896864" lon="11.5860369"/>
  <node id="907209178" version="1" timestamp="2010-09-11T20:06:12Z" uid="6975" user="ulfl" changeset="5753250" lat="48.8964317" lon="11.5863564"/>
  <node id="907209185" version="1" timestamp="2010-09-11T20:06:12Z" uid="6975" user="ulfl" changeset="5753250" lat="48.8957451" lon="11.5886801"/>
  <node id="907209186" version="1" timestamp="2010-09-11T20:06:12Z" uid="6975" user="ulfl" changeset="5753250" lat="48.8813529" lon="11.6185891"/>
  <node id="907209187" version="1" timestamp="2010-09-11T20:06:12Z" uid="6975" user="ulfl" changeset="5753250" lat="48.8907346" lon="11.5909411"/>
  <node id="907209188" version="1" timestamp="2010-09-11T20:06:13Z" uid="6975" user="ulfl" changeset="5753250" lat="48.8919454" lon="11.5913252">
    <tag k="addr:city" v="Steinsdorf"/>
    <tag k="addr:country" v="DE"/>
    <tag k="addr:housenumber" v="20"/>
    <tag k="addr:street" v="Forststraße"/>
  </node>
  <node id="907209191" version="1" timestamp="2010-09-11T20:06:13Z" uid="6975" user="ulfl" changeset="5753250" lat="48.8958801" lon="11.5901236"/>
  <node id="907209193" version="1" timestamp="2010-09-11T20:06:13Z" uid="6975" user="ulfl" changeset="5753250" lat="48.8918716" lon="11.5940126"/>
  <node id="907209199" version="1" timestamp="2010-09-11T20:06:13Z" uid="6975" user="ulfl" changeset="5753250" lat="48.8910325" lon="11.5954969">
    <tag k="addr:city" v="Steinsdorf"/>
    <tag k="addr:country" v="DE"/>
    <tag k="addr:housenumber" v="1"/>
    <tag k="addr:street" v="Forststraße"/>
  </node>
  <node id="907209200" version="1" timestamp="2010-09-11T20:06:13Z" uid="6975" user="ulfl" changeset="5753250" lat="48.8918237" lon="11.5922381">
    <tag k="addr:city" v="Steinsdorf"/>
    <tag k="addr:country" v="DE"/>
    <tag k="addr:housenumber" v="16"/>
    <tag k="addr:street" v="Forststraße"/>
  </node>
  <node id="907209202" version="1" timestamp="2010-09-11T20:06:13Z" uid="6975" user="ulfl" changeset="5753250" lat="48.8927609" lon="11.5893091"/>
  <node id="907209204" version="1" timestamp="2010-09-11T20:06:13Z" uid="6975" user="ulfl" changeset="5753250" lat="48.8910989" lon="11.5951483">
    <tag k="addr:city" v="Steinsdorf"/>
    <tag k="addr:country" v="DE"/>
    <tag k="addr:housenumber" v="3"/>
    <tag k="addr:street" v="Forststraße"/>
  </node>
  <node id="907209211" version="1" timestamp="2010-09-11T20:06:13Z" uid="6975" user="ulfl" changeset="5753250" lat="48.8957807" lon="11.5859635"/>
  <node id="907209213" version="1" timestamp="2010-09-11T20:06:13Z" uid="6975" user="ulfl" changeset="5753250" lat="48.8826878" lon="11.6165573"/>
  <node id="907209215" version="1" timestamp="2010-09-11T20:06:13Z" uid="6975" user="ulfl" changeset="5753250" lat="48.8956855" lon="11.5902186">
    <tag k="addr:city" v="Steinsdorf"/>
    <tag k="addr:country" v="DE"/>
    <tag k="addr:housenumber" v="10"/>
    <tag k="addr:street" v="Hollerstraße"/>
  </node>
  <node id="907209218" version="1" timestamp="2010-09-11T20:06:14Z" uid="6975" user="ulfl" changeset="5753250" lat="48.892165" lon="11.5896116"/>
  <node id="907209221" version="1" timestamp="2010-09-11T20:06:14Z" uid="6975" user="ulfl" changeset="5753250" lat="48.8908877" lon="11.5893384">
    <tag k="addr:city" v="Steinsdorf"/>
    <tag k="addr:country" v="DE"/>
    <tag k="addr:housenumber" v="20"/>
    <tag k="addr:street" v="Salvatorweg"/>
  </node>
  <node id="907209224" version="1" timestamp="2010-09-11T20:06:14Z" uid="6975" user="ulfl" changeset="5753250" lat="48.8933041" lon="11.590241"/>
  <node id="907209226" version="1" timestamp="2010-09-11T20:06:14Z" uid="6975" user="ulfl" changeset="5753250" lat="48.8922829" lon="11.5903127">
    <tag k="addr:city" v="Steinsdorf"/>
    <tag k="addr:country" v="DE"/>
    <tag k="addr:housenumber" v="26"/>
    <tag k="addr:street" v="Forststraße"/>
  </node>
  <node id="907209229" version="1" timestamp="2010-09-11T20:06:14Z" uid="6975" user="ulfl" changeset="5753250" lat="48.8913036" lon="11.5951815">
    <tag k="addr:city" v="Steinsdorf"/>
    <tag k="addr:country" v="DE"/>
    <tag k="addr:housenumber" v="4"/>
    <tag k="addr:street" v="Forststraße"/>
  </node>
  <node id="907209232" version="1" timestamp="2010-09-11T20:06:14Z" uid="6975" user="ulfl" changeset="5753250" lat="48.8957058" lon="11.5897454"/>
  <node id="907209234" version="1" timestamp="2010-09-11T20:06:14Z" uid="6975" user="ulfl" changeset="5753250" lat="48.893091" lon="11.5872095"/>
  <node id="907209237" version="1" timestamp="2010-09-11T20:06:14Z" uid="6975" user="ulfl" changeset="5753250" lat="48.894579" lon="11.5902684">
    <tag k="addr:city" v="Steinsdorf"/>
    <tag k="addr:country" v="DE"/>
    <tag k="addr:housenumber" v="8"/>
    <tag k="addr:street" v="Hollerstraße"/>
  </node>
  <node id="907209241" version="1" timestamp="2010-09-11T20:06:14Z" uid="6975" user="ulfl" changeset="5753250" lat="48.8905971" lon="11.5860634"/>
  <node id="907209241" version="2" timestamp="2010-12-10T21:31:03Z" uid="162465" user="ckol" changeset="6610241" lat="48.8905437" lon="11.5860894"/>
  <node id="907209243" version="1" timestamp="2010-09-11T20:06:14Z" uid="6975" user="ulfl" changeset="5753250" lat="48.8905119" lon="11.5879759">
    <tag k="addr:city" v="Steinsdorf"/>
    <tag k="addr:country" v="DE"/>
    <tag k="addr:housenumber" v="29a"/>
    <tag k="addr:street" v="Salvatorweg"/>
  </node>
  <node id="907209246" version="1" timestamp="2010-09-11T20:06:14Z" uid="6975" user="ulfl" changeset="5753250" lat="48.8925097" lon="11.590191">
    <tag k="addr:city" v="Steinsdorf"/>
    <tag k="addr:country" v="DE"/>
    <tag k="addr:housenumber" v="28"/>
    <tag k="addr:street" v="Forststraße"/>
  </node>
  <node id="907209254" version="1" timestamp="2010-09-11T20:06:15Z" uid="6975" user="ulfl" changeset="5753250" lat="48.8903695" lon="11.5950013">
    <tag k="addr:city" v="Steinsdorf"/>
    <tag k="addr:country" v="DE"/>
    <tag k="addr:housenumber" v="4"/>
    <tag k="addr:street" v="Mendorfer Straße"/>
  </node>
  <node id="907209256" version="1" timestamp="2010-09-11T20:06:15Z" uid="6975" user="ulfl" changeset="5753250" lat="48.8912261" lon="11.5955301">
    <tag k="addr:city" v="Steinsdorf"/>
    <tag k="addr:country" v="DE"/>
    <tag k="addr:housenumber" v="2"/>
    <tag k="addr:street" v="Forststraße"/>
  </node>
  <node id="907209257" version="1" timestamp="2010-09-11T20:06:15Z" uid="6975" user="ulfl" changeset="5753250" lat="48.8849302" lon="11.5849367"/>
  <node id="907209258" version="1" timestamp="2010-09-11T20:06:15Z" uid="6975" user="ulfl" changeset="5753250" lat="48.893146" lon="11.5899973">
    <tag k="addr:city" v="Steinsdorf"/>
    <tag k="addr:country" v="DE"/>
    <tag k="addr:housenumber" v="3"/>
    <tag k="addr:street" v="Hollerstraße"/>
  </node>
  <node id="907209266" version="1" timestamp="2010-09-11T20:06:15Z" uid="6975" user="ulfl" changeset="5753250" lat="48.8902228" lon="11.5963656">
    <tag k="addr:city" v="Steinsdorf"/>
    <tag k="addr:country" v="DE"/>
    <tag k="addr:housenumber" v="5"/>
    <tag k="addr:street" v="Ostenstraße"/>
  </node>
  <node id="907209267" version="1" timestamp="2010-09-11T20:06:15Z" uid="6975" user="ulfl" changeset="5753250" lat="48.885818" lon="11.6094615"/>
  <node id="907209268" version="1" timestamp="2010-09-11T20:06:15Z" uid="6975" user="ulfl" changeset="5753250" lat="48.8907163" lon="11.5895841"/>
  <node id="907209268" version="2" timestamp="2010-12-10T21:31:05Z" uid="162465" user="ckol" changeset="6610241" lat="48.8906928" lon="11.5896101"/>
  <node id="907209269" version="1" timestamp="2010-09-11T20:06:15Z" uid="6975" user="ulfl" changeset="5753250" lat="48.8890199" lon="11.5967984">
    <tag k="addr:city" v="Steinsdorf"/>
    <tag k="addr:country" v="DE"/>
    <tag k="addr:housenumber" v="16"/>
    <tag k="addr:street" v="Am Sand"/>
  </node>
  <node id="907209278" version="1" timestamp="2010-09-11T20:06:16Z" uid="6975" user="ulfl" changeset="5753250" lat="48.8940478" lon="11.590119">
    <tag k="addr:city" v="Steinsdorf"/>
    <tag k="addr:country" v="DE"/>
    <tag k="addr:housenumber" v="5"/>
    <tag k="addr:street" v="Hollerstraße"/>
  </node>
  <node id="907209279" version="1" timestamp="2010-09-11T20:06:16Z" uid="6975" user="ulfl" changeset="5753250" lat="48.891514" lon="11.5882638"/>
  <node id="907209281" version="1" timestamp="2010-09-11T20:06:16Z" uid="6975" user="ulfl" changeset="5753250" lat="48.8921169" lon="11.5941082">
    <tag k="addr:city" v="Steinsdorf"/>
    <tag k="addr:country" v="DE"/>
    <tag k="addr:housenumber" v="10a"/>
    <tag k="addr:street" v="Forststraße"/>
  </node>
  <node id="907209284" version="1" timestamp="2010-09-11T20:06:16Z" uid="6975" user="ulfl" changeset="5753250" lat="48.8924303" lon="11.590885"/>
  <node id="907209289" version="1" timestamp="2010-09-11T20:06:16Z" uid="6975" user="ulfl" changeset="5753250" lat="48.8926083" lon="11.5875214">
    <tag k="leisure" v="pitch"/>
    <tag k="sport" v="soccer"/>
  </node>
  <node id="907209292" version="1" timestamp="2010-09-11T20:06:17Z" uid="6975" user="ulfl" changeset="5753250" lat="48.8924125" lon="11.5896483"/>
  <node id="907209294" version="1" timestamp="2010-09-11T20:06:17Z" uid="6975" user="ulfl" changeset="5753250" lat="48.891083" lon="11.593435"/>
  <node id="907209294" version="2" timestamp="2010-12-10T21:31:09Z" uid="162465" user="ckol" changeset="6610241" lat="48.8910595" lon="11.5934253"/>
  <node id="907209296" version="1" timestamp="2010-09-11T20:06:17Z" uid="6975" user="ulfl" changeset="5753250" lat="48.8899736" lon="11.5975741">
    <tag k="addr:city" v="Steinsdorf"/>
    <tag k="addr:country" v="DE"/>
    <tag k="addr:housenumber" v="9"/>
    <tag k="addr:street" v="Am Sand"/>
  </node>
  <node id="907209299" version="1" timestamp="2010-09-11T20:06:17Z" uid="6975" user="ulfl" changeset="5753250" lat="48.8814996" lon="11.618171"/>
  <node id="907209302" version="1" timestamp="2010-09-11T20:06:17Z" uid="6975" user="ulfl" changeset="5753250" lat="48.8902801" lon="11.5974869">
    <tag k="addr:city" v="Steinsdorf"/>
    <tag k="addr:country" v="DE"/>
    <tag k="addr:housenumber" v="10"/>
    <tag k="addr:street" v="Am Sand"/>
  </node>
  <node id="907209307" version="1" timestamp="2010-09-11T20:06:17Z" uid="6975" user="ulfl" changeset="5753250" lat="48.8916245" lon="11.5936655">
    <tag k="addr:city" v="Steinsdorf"/>
    <tag k="addr:country" v="DE"/>
    <tag k="addr:housenumber" v="12"/>
    <tag k="addr:street" v="Forststraße"/>
  </node>
  <node id="907209310" version="1" timestamp="2010-09-11T20:06:17Z" uid="6975" user="ulfl" changeset="5753250" lat="48.8970102" lon="11.5948445"/>
  <node id="907209310" version="2" timestamp="2011-03-20T08:05:20Z" uid="118856" user="staehler" changeset="7613383" lat="48.8969668" lon="11.5947597"/>
  <node id="907209313" version="1" timestamp="2010-09-11T20:06:17Z" uid="6975" user="ulfl" changeset="5753250" lat="48.8956395" lon="11.58753"/>
  <node id="907209314" version="1" timestamp="2010-09-11T20:06:17Z" uid="6975" user="ulfl" changeset="5753250" lat="48.8912022" lon="11.5808006"/>
  <node id="907209314" version="2" timestamp="2011-03-20T08:05:28Z" uid="118856" user="staehler" changeset="7613383" lat="48.8912022" lon="11.5808006"/>
  <node id="907209315" version="1" timestamp="2010-09-11T20:06:17Z" uid="6975" user="ulfl" changeset="5753250" lat="48.8963906" lon="11.5870488"/>
  <node id="907209322" version="1" timestamp="2010-09-11T20:06:18Z" uid="6975" user="ulfl" changeset="5753250" lat="48.8907062" lon="11.5972331">
    <tag k="addr:city" v="Steinsdorf"/>
    <tag k="addr:country" v="DE"/>
    <tag k="addr:housenumber" v="6"/>
    <tag k="addr:street" v="Am Sand"/>
  </node>
  <node id="907209325" version="1" timestamp="2010-09-11T20:06:18Z" uid="6975" user="ulfl" changeset="5753250" lat="48.8927074" lon="11.5892765">
    <tag k="highway" v="bus_stop"/>
  </node>
  <node id="907209326" version="1" timestamp="2010-09-11T20:06:18Z" uid="6975" user="ulfl" changeset="5753250" lat="48.8933863" lon="11.5872189"/>
  <node id="907209327" version="1" timestamp="2010-09-11T20:06:18Z" uid="6975" user="ulfl" changeset="5753250" lat="48.8904724" lon="11.59752">
    <tag k="addr:city" v="Steinsdorf"/>
    <tag k="addr:country" v="DE"/>
    <tag k="addr:housenumber" v="5"/>
    <tag k="addr:street" v="Am Sand"/>
  </node>
  <node id="907209336" version="1" timestamp="2010-09-11T20:06:18Z" uid="6975" user="ulfl" changeset="5753250" lat="48.8909474" lon="11.5941762">
    <tag k="addr:city" v="Steinsdorf"/>
    <tag k="addr:country" v="DE"/>
    <tag k="addr:housenumber" v="3"/>
    <tag k="addr:street" v="Salvatorweg"/>
  </node>
  <node id="907209337" version="1" timestamp="2010-09-11T20:06:18Z" uid="6975" user="ulfl" changeset="5753250" lat="48.892643" lon="11.5909363"/>
  <node id="907209338" version="1" timestamp="2010-09-11T20:06:18Z" uid="6975" user="ulfl" changeset="5753250" lat="48.8904431" lon="11.5864631">
    <tag k="addr:city" v="Steinsdorf"/>
    <tag k="addr:country" v="DE"/>
    <tag k="addr:housenumber" v="37"/>
    <tag k="addr:street" v="Salvatorweg"/>
  </node>
</osm>
