<?xml version='1.0' encoding='UTF-8'?>
<osm version="0.6" generator="libosmium/2.20.0">
  <node id="914440634" version="1" timestamp="2010-09-16T12:52:06Z" uid="115477" user="wowik" changeset="5795138" lat="54.6984209" lon="20.5172936"/>
  <node id="914440634" version="2" timestamp="2010-12-06T15:04:18Z" uid="176819" user="akashihi" changeset="6564363" lat="54.6985055" lon="20.5173522"/>
  <node id="914440634" version="3" timestamp="2011-12-14T03:13:47Z" uid="569199" user="Witaliy" changeset="10112712" lat="54.6984807" lon="20.5175024"/>
  <node id="914440634" version="4" timestamp="2011-12-14T11:10:13Z" uid="383137" user="ErshKUS" changeset="10115068" lat="54.6985055" lon="20.5173522"/>
  <node id="914440639" version="1" timestamp="2010-09-16T12:52:06Z" uid="115477" user="wowik" changeset="5795138" lat="54.6997073" lon="20.5181572"/>
  <node id="914440639" version="2" timestamp="2011-12-14T03:13:10Z" uid="569199" user="Witaliy" changeset="10112712" lat="54.6996825" lon="20.5183074"/>
  <node id="914440639" version="3" timestamp="2011-12-14T11:10:13Z" uid="383137" user="ErshKUS" changeset="10115068" lat="54.6997073" lon="20.5181572"/>
  <node id="914442343" version="1" timestamp="2010-09-16T12:52:57Z" uid="4467" user="Rosscoe" changeset="5795364" lat="-20.7337358" lon="116.8520491">
    <tag k="addr:city" v="Karratha"/>
    <tag k="addr:country" v="AU"/>
    <tag k="addr:housenumber" v="61"/>
    <tag k="addr:postcode" v="6714"/>
    <tag k="addr:state" v="WA"/>
    <tag k="addr:street" v="Padbury Way"/>
    <tag k="addr:suburb" v="Bulgarra"/>
  </node>
  <node id="914442343" version="2" timestamp="2010-09-17T12:08:37Z" uid="4467" user="Rosscoe" changeset="5803028" lat="-20.7337359" lon="116.852049">
    <tag k="addr:city" v="Karratha"/>
    <tag k="addr:country" v="AU"/>
    <tag k="addr:housenumber" v="61"/>
    <tag k="addr:postcode" v="6714"/>
    <tag k="addr:state" v="WA"/>
    <tag k="addr:street" v="Padbury Way"/>
    <tag k="addr:suburb" v="Bulgarra"/>
    <tag k="source" v="survey"/>
  </node>
  <node id="914442343" version="3" timestamp="2010-12-12T09:59:12Z" uid="4467" user="Rosscoe" changeset="6633812" lat="-20.7339697" lon="116.8520595">
    <tag k="addr:city" v="Karratha"/>
    <tag k="addr:country" v="AU"/>
    <tag k="addr:housenumber" v="61"/>
    <tag k="addr:postcode" v="6714"/>
    <tag k="addr:state" v="WA"/>
    <tag k="addr:street" v="Padbury Way"/>
    <tag k="addr:suburb" v="Bulgarra"/>
    <tag k="source" v="survey"/>
  </node>
  <node id="914443818" version="1" timestamp="2010-09-16T12:53:51Z" uid="115477" user="wowik" changeset="5795138" lat="54.7060771" lon="20.5045692">
    <tag k="name" v="Музейный сейнер"/>
    <tag k="tourism" v="museum"/>
  </node>
  <node id="914443818" version="2" timestamp="2010-09-28T07:41:24Z" uid="174822" user="Canabis" changeset="5901299" lat="54.7060771" lon="20.5045692">
    <tag k="name" v="Музейный сейнер"/>
    <tag k="tourism" v="museum"/>
  </node>
</osm>
