<?xml version='1.0' encoding='UTF-8'?>
<osm version="0.6" generator="libosmium/2.20.0">
  <node id="91590196" version="3" timestamp="2009-05-23T21:10:37Z" uid="20587" user="balrog-kun" changeset="1299396" lat="52.2410199" lon="20.945706"/>
  <node id="91590266" version="2" timestamp="2009-05-23T21:10:46Z" uid="20587" user="balrog-kun" changeset="1299396" lat="52.2417567" lon="20.9447265">
    <tag k="created_by" v="JOSM"/>
  </node>
  <node id="91590275" version="2" timestamp="2009-05-23T21:10:46Z" uid="20587" user="balrog-kun" changeset="1299396" lat="52.2419079" lon="20.9452407">
    <tag k="created_by" v="JOSM"/>
  </node>
  <node id="91598837" version="3" timestamp="2008-02-16T19:37:47Z" uid="6975" user="ulfl" changeset="141861" lat="52.3075797" lon="10.5129033">
    <tag k="highway" v="bus_stop"/>
    <tag k="name" v="Rüsterweg"/>
  </node>
  <node id="91598837" version="4" timestamp="2008-03-04T09:18:44Z" uid="8869" user="HeavenKiller" changeset="263691" lat="52.3075553" lon="10.512885">
    <tag k="highway" v="bus_stop"/>
    <tag k="name" v="Rüsterweg"/>
  </node>
  <node id="91598837" version="5" timestamp="2008-04-28T23:17:30Z" uid="36292" user="itschytoo" changeset="281987" lat="52.3075553" lon="10.512885">
    <tag k="highway" v="bus_stop"/>
    <tag k="name" v="Rüsterweg"/>
  </node>
  <node id="91598837" version="6" timestamp="2009-03-29T19:00:56Z" uid="8869" user="HeavenKiller" changeset="867720" lat="52.3075553" lon="10.512885">
    <tag k="highway" v="bus_stop"/>
    <tag k="name" v="Rüsterweg"/>
  </node>
  <node id="91598838" version="2" timestamp="2008-02-16T19:37:47Z" uid="6975" user="ulfl" changeset="141861" lat="52.3072681" lon="10.5133933">
    <tag k="highway" v="bus_stop"/>
    <tag k="name" v="Rüsterweg"/>
  </node>
  <node id="91598838" version="3" timestamp="2008-04-28T23:17:29Z" uid="36292" user="itschytoo" changeset="281987" lat="52.3072681" lon="10.5133933">
    <tag k="highway" v="bus_stop"/>
    <tag k="name" v="Rüsterweg"/>
  </node>
  <node id="91598838" version="4" timestamp="2008-08-26T10:04:25Z" uid="55696" user="MatzeM" changeset="410364" lat="52.3072681" lon="10.5133933">
    <tag k="highway" v="bus_stop"/>
    <tag k="name" v="Rüsterweg"/>
  </node>
  <node id="91598838" version="5" timestamp="2008-08-26T10:04:44Z" uid="55696" user="MatzeM" changeset="410364" lat="52.3072681" lon="10.5133933">
    <tag k="highway" v="bus_stop"/>
    <tag k="name" v="Rüsterweg"/>
  </node>
  <node id="91598838" version="6" timestamp="2009-03-26T21:35:58Z" uid="8869" user="HeavenKiller" changeset="861324" lat="52.3072353" lon="10.513516">
    <tag k="highway" v="bus_stop"/>
    <tag k="name" v="Rüsterweg"/>
  </node>
  <node id="91598838" version="7" timestamp="2009-03-29T19:01:26Z" uid="8869" user="HeavenKiller" changeset="867720" lat="52.3071744" lon="10.5138193"/>
  <node id="91598839" version="3" timestamp="2008-01-13T13:45:08Z" uid="13367" user="nubok" changeset="625796" lat="52.3103588" lon="10.5066022">
    <tag k="amenity" v="fuel"/>
    <tag k="created_by" v="Potlatch 0.6a"/>
    <tag k="name" v="Selgros"/>
  </node>
  <node id="91598839" version="4" timestamp="2009-04-07T13:14:36Z" uid="8869" user="HeavenKiller" changeset="293649" lat="52.3102071" lon="10.5068533">
    <tag k="amenity" v="fuel"/>
    <tag k="created_by" v="Potlatch 0.6a"/>
    <tag k="name" v="Selgros"/>
  </node>
  <node id="91598839" version="5" timestamp="2011-03-27T17:19:47Z" uid="134134" user="Geospatz" changeset="7688586" lat="52.310207" lon="10.506853">
    <tag k="addr:city" v="Braunschweig"/>
    <tag k="addr:country" v="DE"/>
    <tag k="addr:housenumber" v="83"/>
    <tag k="addr:postcode" v="38112"/>
    <tag k="addr:street" v="Hansestraße"/>
    <tag k="amenity" v="fuel"/>
    <tag k="created_by" v="Potlatch 0.6a"/>
    <tag k="name" v="Selgros"/>
    <tag k="opening_hours" v="Mo-Fr 07:00-22:00; Sa 07:00-19:30; Su off"/>
  </node>
  <node id="91598839" version="6" timestamp="2011-04-12T18:18:20Z" uid="134134" user="Geospatz" changeset="7845172" lat="52.310207" lon="10.506853">
    <tag k="addr:city" v="Braunschweig"/>
    <tag k="addr:country" v="DE"/>
    <tag k="addr:housenumber" v="83"/>
    <tag k="addr:postcode" v="38112"/>
    <tag k="addr:street" v="Hansestraße"/>
    <tag k="amenity" v="fuel"/>
    <tag k="fuel:diesel" v="yes"/>
    <tag k="fuel:e10" v="yes"/>
    <tag k="fuel:octane_98" v="yes"/>
    <tag k="name" v="Selgros"/>
    <tag k="opening_hours" v="Mo-Fr 07:00-22:00;Sa 07:00-19:30"/>
  </node>
</osm>
