<?xml version='1.0' encoding='UTF-8'?>
<osm version="0.6" generator="libosmium/2.20.0">
  <node id="924492970" version="2" timestamp="2010-10-03T19:43:58Z" uid="9581" user="Lobelt" changeset="5947942" lat="49.5447852" lon="8.775564">
    <tag k="name" v="Birkenau-Löhrbach"/>
    <tag k="traffic_sign" v="city_limit"/>
  </node>
  <node id="924492970" version="3" timestamp="2011-01-31T19:16:39Z" uid="367722" user="dornweg" changeset="7147955" lat="49.5448148" lon="8.7753524">
    <tag k="alt_name" v="Kreis Bergstraße"/>
    <tag k="name" v="Birkenau-Löhrbach"/>
    <tag k="traffic_sign" v="city_limit"/>
  </node>
  <node id="924492970" version="4" timestamp="2011-06-25T12:50:18Z" uid="60824" user="Carsten Güse" changeset="8542006" lat="49.5448215" lon="8.775361">
    <tag k="alt_name" v="Kreis Bergstraße"/>
    <tag k="name" v="Birkenau-Löhrbach"/>
    <tag k="traffic_sign" v="city_limit"/>
  </node>
  <node id="924492970" version="5" timestamp="2012-02-22T20:59:53Z" uid="60824" user="Carsten Güse" changeset="10763239" lat="49.5448292" lon="8.775364">
    <tag k="alt_name" v="Kreis Bergstraße"/>
    <tag k="name" v="Birkenau-Löhrbach"/>
    <tag k="traffic_sign" v="city_limit"/>
  </node>
</osm>
