<?xml version='1.0' encoding='UTF-8'?>
<osm version="0.6" generator="libosmium/2.20.0">
  <node id="92480650" version="3" timestamp="2008-09-03T17:06:29Z" uid="64432" user="teletexta" changeset="518339" lat="48.2544375" lon="16.3999895"/>
  <node id="92480650" version="4" timestamp="2011-03-21T21:15:21Z" uid="298560" user="evod" changeset="7631864" lat="48.2544652" lon="16.3999515"/>
  <node id="92480770" version="4" timestamp="2009-01-04T18:08:55Z" uid="58091" user="Andreas M" changeset="729261" lat="48.2561529" lon="16.39898">
    <tag k="place_numbers" v="11-12"/>
  </node>
  <node id="92480770" version="5" timestamp="2010-10-31T23:23:17Z" uid="103253" user="gormur" changeset="6249235" lat="48.2561529" lon="16.39898">
    <tag k="addr:housenumber" v="11-12"/>
  </node>
  <node id="92480771" version="8" timestamp="2009-01-04T18:08:56Z" uid="58091" user="Andreas M" changeset="729261" lat="48.2563194" lon="16.3986109"/>
  <node id="92480771" version="9" timestamp="2009-02-26T16:29:12Z" uid="97309" user="Kurt_Woloch" changeset="674022" lat="48.2563194" lon="16.3986109"/>
  <node id="92480771" version="10" timestamp="2009-04-06T12:28:09Z" uid="43577" user="dorni74" changeset="271378" lat="48.2563194" lon="16.3986109"/>
  <node id="92480771" version="11" timestamp="2011-02-26T07:31:06Z" uid="12295" user="mapper_07" changeset="7397102" lat="48.2563471" lon="16.3985352"/>
  <node id="92480771" version="12" timestamp="2012-01-18T14:25:01Z" uid="104947" user="My Friend" changeset="10427901" lat="48.2563518" lon="16.3985214"/>
  <node id="92480827" version="5" timestamp="2008-09-03T17:22:38Z" uid="64432" user="teletexta" changeset="518339" lat="48.2573819" lon="16.4044373"/>
  <node id="92480922" version="1" timestamp="2007-10-30T13:46:28Z" uid="16085" user="artus70" changeset="364208" lat="53.1474718" lon="8.2073025">
    <tag k="amenity" v="place_of_worship"/>
    <tag k="created_by" v="Potlatch 0.4b"/>
    <tag k="denomination" v="Pfingstgemeinde (Pentecostal)"/>
    <tag k="name" v="Freie Christengemeinde Oldenburg"/>
    <tag k="place" v="city"/>
    <tag k="religion" v="christian"/>
  </node>
  <node id="92480922" version="2" timestamp="2007-10-30T13:46:59Z" uid="16085" user="artus70" changeset="364208" lat="53.1474718" lon="8.2073025">
    <tag k="amenity" v="place_of_worship"/>
    <tag k="created_by" v="Potlatch 0.4b"/>
    <tag k="denomination" v="Pfingstgemeinde (Pentecostal)"/>
    <tag k="name" v="Freie Christengemeinde Oldenburg"/>
    <tag k="place" v="city"/>
    <tag k="religion" v="christian"/>
  </node>
  <node id="92480922" version="8" timestamp="2007-11-02T21:54:54Z" uid="8931" user="bluepup" changeset="387882" lat="53.1474274" lon="8.2072598">
    <tag k="amenity" v="place_of_worship"/>
    <tag k="created_by" v="Potlatch 0.4c"/>
    <tag k="name" v="Freie Christengemeinde Oldenburg"/>
    <tag k="religion" v="christian"/>
  </node>
  <node id="92480922" version="9" timestamp="2007-11-04T21:32:12Z" uid="17715" user="Chestal" changeset="404341" lat="53.1474317" lon="8.2072598">
    <tag k="amenity" v="place_of_worship"/>
    <tag k="created_by" v="Potlatch 0.4c"/>
    <tag k="name" v="Freie Christengemeinde Oldenburg"/>
    <tag k="religion" v="christian"/>
  </node>
  <node id="92480922" version="10" timestamp="2007-11-04T21:32:20Z" uid="17715" user="Chestal" changeset="404341" lat="53.1474317" lon="8.2072598">
    <tag k="amenity" v="place_of_worship"/>
    <tag k="created_by" v="Potlatch 0.4c"/>
    <tag k="name" v="Freie Christengemeinde Oldenburg"/>
    <tag k="religion" v="christian"/>
  </node>
  <node id="92480922" version="11" timestamp="2007-11-04T21:32:41Z" uid="17715" user="Chestal" changeset="404341" lat="53.1474317" lon="8.2072598">
    <tag k="amenity" v="place_of_worship"/>
    <tag k="created_by" v="Potlatch 0.4c"/>
    <tag k="name" v="Freie Christengemeinde Oldenburg"/>
    <tag k="religion" v="christian"/>
  </node>
  <node id="92480922" version="12" timestamp="2007-11-04T23:12:44Z" uid="16085" user="artus70" changeset="412406" lat="53.147432" lon="8.2072575">
    <tag k="amenity" v="place_of_worship"/>
    <tag k="created_by" v="Potlatch 0.4c"/>
    <tag k="name" v="Freie Christengemeinde Oldenburg"/>
    <tag k="religion" v="christian"/>
  </node>
  <node id="92480922" version="13" timestamp="2007-11-04T23:13:05Z" uid="16085" user="artus70" changeset="412406" lat="53.147432" lon="8.2072575">
    <tag k="amenity" v="place_of_worship"/>
    <tag k="created_by" v="Potlatch 0.4c"/>
    <tag k="name" v="Freie Christengemeinde Oldenburg"/>
    <tag k="religion" v="christian"/>
  </node>
  <node id="92480922" version="14" timestamp="2007-11-04T23:13:19Z" uid="16085" user="artus70" changeset="412406" lat="53.147432" lon="8.2072575">
    <tag k="amenity" v="place_of_worship"/>
    <tag k="created_by" v="Potlatch 0.4c"/>
    <tag k="name" v="Freie Christengemeinde Oldenburg"/>
    <tag k="religion" v="christian"/>
  </node>
  <node id="92480922" version="15" timestamp="2007-11-04T23:13:33Z" uid="16085" user="artus70" changeset="412406" lat="53.147432" lon="8.2072575">
    <tag k="amenity" v="place_of_worship"/>
    <tag k="created_by" v="Potlatch 0.4c"/>
    <tag k="name" v="Freie Christengemeinde Oldenburg"/>
    <tag k="religion" v="christian"/>
  </node>
  <node id="92480922" version="16" timestamp="2007-11-04T23:14:47Z" uid="16085" user="artus70" changeset="412406" lat="53.147432" lon="8.2072575">
    <tag k="amenity" v="place_of_worship"/>
    <tag k="created_by" v="Potlatch 0.4c"/>
    <tag k="denomination" v="Pfingsgemeinde/Pentecostal"/>
    <tag k="name" v="Freie Christengemeinde Oldenburg"/>
    <tag k="religion" v="christian"/>
  </node>
  <node id="92480922" version="17" timestamp="2007-11-04T23:14:52Z" uid="16085" user="artus70" changeset="412406" lat="53.147432" lon="8.2072575">
    <tag k="amenity" v="place_of_worship"/>
    <tag k="created_by" v="Potlatch 0.4c"/>
    <tag k="denomination" v="Pfingstgemeinde/Pentecostal"/>
    <tag k="name" v="Freie Christengemeinde Oldenburg"/>
    <tag k="religion" v="christian"/>
  </node>
  <node id="92480922" version="18" timestamp="2007-11-04T23:15:02Z" uid="16085" user="artus70" changeset="412406" lat="53.147432" lon="8.2072575">
    <tag k="amenity" v="place_of_worship"/>
    <tag k="created_by" v="Potlatch 0.4c"/>
    <tag k="denomination" v="Pfingstgemeinde/Pentecostal"/>
    <tag k="name" v="Freie Christengemeinde Oldenburg"/>
    <tag k="religion" v="christian"/>
  </node>
  <node id="92480922" version="19" timestamp="2007-11-05T12:16:20Z" uid="18092" user="hennejg" changeset="412125" lat="53.1474336" lon="8.2072554">
    <tag k="amenity" v="place_of_worship"/>
    <tag k="created_by" v="Potlatch 0.4c"/>
    <tag k="denomination" v="Pfingstgemeinde/Pentecostal"/>
    <tag k="name" v="Freie Christengemeinde Oldenburg"/>
    <tag k="religion" v="christian"/>
  </node>
  <node id="92480922" version="20" timestamp="2007-11-07T08:17:07Z" uid="13994" user="mab" changeset="432839" lat="53.1474344" lon="8.2072551">
    <tag k="amenity" v="place_of_worship"/>
    <tag k="created_by" v="Potlatch 0.4c"/>
    <tag k="denomination" v="Pfingstgemeinde/Pentecostal"/>
    <tag k="name" v="Freie Christengemeinde Oldenburg"/>
    <tag k="religion" v="christian"/>
  </node>
  <node id="92480922" version="21" timestamp="2007-11-09T07:18:08Z" uid="16756" user="Goetz" changeset="453254" lat="53.1474374" lon="8.2072535">
    <tag k="amenity" v="place_of_worship"/>
    <tag k="created_by" v="Potlatch 0.4c"/>
    <tag k="denomination" v="Pfingstgemeinde/Pentecostal"/>
    <tag k="name" v="Freie Christengemeinde Oldenburg"/>
    <tag k="religion" v="christian"/>
  </node>
  <node id="92480922" version="22" timestamp="2007-11-09T07:20:05Z" uid="16756" user="Goetz" changeset="453254" lat="53.147458" lon="8.207245">
    <tag k="amenity" v="place_of_worship"/>
    <tag k="created_by" v="Potlatch 0.4c"/>
    <tag k="denomination" v="Pfingstgemeinde/Pentecostal"/>
    <tag k="name" v="Freie Christengemeinde Oldenburg"/>
    <tag k="religion" v="christian"/>
  </node>
  <node id="92480922" version="23" timestamp="2007-11-12T12:03:32Z" uid="16085" user="artus70" changeset="488441" lat="53.1474577" lon="8.2072416">
    <tag k="amenity" v="place_of_worship"/>
    <tag k="created_by" v="Potlatch 0.5"/>
    <tag k="denomination" v="Pfingstgemeinde/Pentecostal"/>
    <tag k="name" v="Freie Christengemeinde Oldenburg"/>
    <tag k="religion" v="christian"/>
  </node>
  <node id="92480922" version="24" timestamp="2008-01-14T10:32:42Z" uid="16085" user="artus70" changeset="635098" lat="53.1474579" lon="8.2072394">
    <tag k="amenity" v="place_of_worship"/>
    <tag k="created_by" v="Potlatch 0.6a"/>
    <tag k="denomination" v="Pfingstgemeinde/Pentecostal"/>
    <tag k="name" v="Freie Christengemeinde Oldenburg"/>
    <tag k="religion" v="christian"/>
  </node>
  <node id="92480922" version="25" timestamp="2008-03-03T14:37:48Z" uid="16085" user="artus70" changeset="259781" lat="53.1473942" lon="8.2074164">
    <tag k="amenity" v="place_of_worship"/>
    <tag k="created_by" v="Potlatch 0.6a"/>
    <tag k="denomination" v="Pfingstgemeinde/Pentecostal"/>
    <tag k="name" v="Freie Christengemeinde Oldenburg"/>
    <tag k="religion" v="christian"/>
  </node>
  <node id="92480922" version="26" timestamp="2008-10-20T09:29:53Z" uid="70696" user="xybot" changeset="476074" lat="53.1473942" lon="8.2074164">
    <tag k="amenity" v="place_of_worship"/>
    <tag k="created_by" v="xybot"/>
    <tag k="denomination" v="pentecostal"/>
    <tag k="name" v="Freie Christengemeinde Oldenburg"/>
    <tag k="religion" v="christian"/>
  </node>
  <node id="92480922" version="27" timestamp="2008-11-04T22:18:11Z" uid="16085" user="artus70" changeset="678481" lat="53.1473942" lon="8.2074164">
    <tag k="addr:city" v="Oldenburg"/>
    <tag k="addr:housenumber" v="17"/>
    <tag k="addr:postcode" v="26121"/>
    <tag k="addr:street" v="Würzburger Straße"/>
    <tag k="amenity" v="place_of_worship"/>
    <tag k="created_by" v="xybot"/>
    <tag k="denomination" v="pentecostal"/>
    <tag k="name" v="Freie Christengemeinde Oldenburg"/>
    <tag k="religion" v="christian"/>
  </node>
  <node id="92480922" version="28" timestamp="2010-10-22T13:16:34Z" uid="290680" user="wheelmap_visitor" changeset="6133243" lat="53.1473942" lon="8.2074164">
    <tag k="addr:city" v="Oldenburg"/>
    <tag k="addr:housenumber" v="17"/>
    <tag k="addr:postcode" v="26121"/>
    <tag k="addr:street" v="Würzburger Straße"/>
    <tag k="amenity" v="place_of_worship"/>
    <tag k="created_by" v="xybot"/>
    <tag k="denomination" v="pentecostal"/>
    <tag k="name" v="Freie Christengemeinde Oldenburg"/>
    <tag k="religion" v="christian"/>
    <tag k="wheelchair" v="yes"/>
  </node>
  <node id="92480922" version="29" timestamp="2010-12-08T22:27:18Z" uid="16085" user="artus70" changeset="6590391" lat="53.1472352" lon="8.2074326">
    <tag k="addr:city" v="Oldenburg"/>
    <tag k="addr:housenumber" v="17"/>
    <tag k="addr:postcode" v="26121"/>
    <tag k="addr:street" v="Würzburger Straße"/>
    <tag k="amenity" v="place_of_worship"/>
    <tag k="denomination" v="pentecostal"/>
    <tag k="name" v="Freie Christengemeinde Oldenburg"/>
    <tag k="religion" v="christian"/>
    <tag k="wheelchair" v="yes"/>
  </node>
  <node id="92480922" version="30" timestamp="2012-02-11T18:41:40Z" uid="16085" user="artus70" changeset="10655893" lat="53.1472352" lon="8.2074326"/>
</osm>
