<?xml version='1.0' encoding='UTF-8'?>
<osm version="0.6" generator="libosmium/2.20.0">
  <node id="929005176" version="1" timestamp="2010-09-28T09:25:44Z" uid="85955" user="Gerd Höweler" changeset="5902090" lat="39.5939672" lon="3.3836183">
    <tag k="name" v="AP. Mercedes"/>
    <tag k="stars" v="3"/>
    <tag k="tourism" v="hotel"/>
  </node>
  <node id="929005211" version="1" timestamp="2010-09-28T09:25:45Z" uid="85955" user="Gerd Höweler" changeset="5902090" lat="39.5893004" lon="3.3841858">
    <tag k="name" v="Hipocampo Playa"/>
    <tag k="stars" v="4"/>
    <tag k="tourism" v="hotel"/>
  </node>
  <node id="929005219" version="1" timestamp="2010-09-28T09:25:46Z" uid="85955" user="Gerd Höweler" changeset="5902090" lat="39.5870092" lon="3.3849565">
    <tag k="name" v="Ap. Hipocampo Playa"/>
    <tag k="stars" v="4"/>
    <tag k="tourism" v="hotel"/>
  </node>
  <node id="929005219" version="2" timestamp="2011-10-20T21:05:14Z" uid="290680" user="wheelmap_visitor" changeset="9604904" lat="39.5870092" lon="3.3849565">
    <tag k="name" v="Ap. Hipocampo Playa"/>
    <tag k="stars" v="4"/>
    <tag k="tourism" v="hotel"/>
    <tag k="wheelchair" v="yes"/>
  </node>
  <node id="929005225" version="1" timestamp="2010-09-28T09:25:46Z" uid="85955" user="Gerd Höweler" changeset="5902090" lat="39.5867481" lon="3.3855664">
    <tag k="name" v="Be live La Callta"/>
    <tag k="tourism" v="hotel"/>
  </node>
  <node id="929005225" version="2" timestamp="2011-07-17T19:51:52Z" uid="332565" user="jo1907jo" changeset="8751884" lat="39.5867481" lon="3.3855664"/>
  <node id="929005230" version="1" timestamp="2010-09-28T09:25:46Z" uid="85955" user="Gerd Höweler" changeset="5902090" lat="39.5899727" lon="3.3840333">
    <tag k="name" v="Borneo"/>
    <tag k="stars" v="4"/>
    <tag k="tourism" v="hotel"/>
  </node>
  <node id="929005253" version="1" timestamp="2010-09-28T09:25:47Z" uid="85955" user="Gerd Höweler" changeset="5902090" lat="39.5865654" lon="3.3861085">
    <tag k="name" v="Marina Park"/>
    <tag k="tourism" v="hotel"/>
  </node>
  <node id="929005257" version="1" timestamp="2010-09-28T09:25:47Z" uid="85955" user="Gerd Höweler" changeset="5902090" lat="39.5924334" lon="3.3836267">
    <tag k="name" v="Flamenco"/>
    <tag k="stars" v="4"/>
    <tag k="tourism" v="hotel"/>
  </node>
  <node id="929005257" version="2" timestamp="2011-10-20T21:05:16Z" uid="290680" user="wheelmap_visitor" changeset="9604904" lat="39.5924334" lon="3.3836267">
    <tag k="name" v="Flamenco"/>
    <tag k="stars" v="4"/>
    <tag k="tourism" v="hotel"/>
    <tag k="wheelchair" v="yes"/>
  </node>
  <node id="929005261" version="1" timestamp="2010-09-28T09:25:47Z" uid="85955" user="Gerd Höweler" changeset="5902090" lat="39.5933341" lon="3.3838046">
    <tag k="name" v="Cala Millor"/>
    <tag k="stars" v="4"/>
    <tag k="tourism" v="hotel"/>
  </node>
  <node id="929005267" version="1" timestamp="2010-09-28T09:25:48Z" uid="85955" user="Gerd Höweler" changeset="5902090" lat="39.5884518" lon="3.384406">
    <tag k="name" v="AP. Dunas"/>
    <tag k="stars" v="3"/>
    <tag k="tourism" v="hotel"/>
  </node>
  <node id="929005267" version="2" timestamp="2011-10-20T21:05:14Z" uid="290680" user="wheelmap_visitor" changeset="9604904" lat="39.5884518" lon="3.384406">
    <tag k="name" v="AP. Dunas"/>
    <tag k="stars" v="3"/>
    <tag k="tourism" v="hotel"/>
    <tag k="wheelchair" v="yes"/>
  </node>
  <node id="929005286" version="1" timestamp="2010-09-28T09:25:48Z" uid="85955" user="Gerd Höweler" changeset="5902090" lat="39.5918003" lon="3.3842027">
    <tag k="name" v="AP.Cala Millor"/>
    <tag k="tourism" v="hotel"/>
  </node>
  <node id="929005291" version="1" timestamp="2010-09-28T09:25:49Z" uid="85955" user="Gerd Höweler" changeset="5902090" lat="39.5908212" lon="3.3838893">
    <tag k="name" v="Sumba"/>
    <tag k="stars" v="4"/>
    <tag k="tourism" v="hotel"/>
  </node>
  <node id="929007679" version="1" timestamp="2010-09-28T09:33:17Z" uid="49111" user="Markus B" changeset="5902143" lat="49.3822492" lon="11.3045284"/>
  <node id="929007681" version="1" timestamp="2010-09-28T09:33:17Z" uid="49111" user="Markus B" changeset="5902143" lat="49.3818095" lon="11.3027597"/>
  <node id="929007683" version="1" timestamp="2010-09-28T09:33:18Z" uid="49111" user="Markus B" changeset="5902143" lat="49.3820037" lon="11.303591"/>
  <node id="929007689" version="1" timestamp="2010-09-28T09:33:18Z" uid="49111" user="Markus B" changeset="5902143" lat="49.3827806" lon="11.3042612"/>
  <node id="929007690" version="1" timestamp="2010-09-28T09:33:19Z" uid="49111" user="Markus B" changeset="5902143" lat="49.3821798" lon="11.3034044"/>
  <node id="929007691" version="1" timestamp="2010-09-28T09:33:19Z" uid="49111" user="Markus B" changeset="5902143" lat="49.3821597" lon="11.3033113"/>
  <node id="929007692" version="1" timestamp="2010-09-28T09:33:19Z" uid="49111" user="Markus B" changeset="5902143" lat="49.382201" lon="11.3032935"/>
  <node id="929007693" version="1" timestamp="2010-09-28T09:33:19Z" uid="49111" user="Markus B" changeset="5902143" lat="49.3820705" lon="11.3039673"/>
  <node id="929007694" version="1" timestamp="2010-09-28T09:33:19Z" uid="49111" user="Markus B" changeset="5902143" lat="49.3823378" lon="11.3025167"/>
  <node id="929007695" version="1" timestamp="2010-09-28T09:33:19Z" uid="49111" user="Markus B" changeset="5902143" lat="49.3823962" lon="11.3039941"/>
  <node id="929007697" version="1" timestamp="2010-09-28T09:33:19Z" uid="49111" user="Markus B" changeset="5902143" lat="49.3823097" lon="11.3036023"/>
  <node id="929007709" version="1" timestamp="2010-09-28T09:33:20Z" uid="49111" user="Markus B" changeset="5902143" lat="49.3824467" lon="11.3042282"/>
</osm>
