<?xml version='1.0' encoding='UTF-8'?>
<osm version="0.6" generator="libosmium/2.20.0">
  <node id="92910378" version="1" timestamp="2007-10-30T21:05:16Z" uid="4667" user="MapZ" changeset="362108" lat="49.4888119" lon="8.5116765">
    <tag k="amenity" v="fuel"/>
    <tag k="created_by" v="JOSM"/>
  </node>
  <node id="92910378" version="2" timestamp="2008-10-19T21:04:34Z" uid="7562" user="LosHawlos" changeset="446084" lat="49.4887438" lon="8.511522">
    <tag k="amenity" v="fuel"/>
    <tag k="created_by" v="JOSM"/>
  </node>
  <node id="92910378" version="3" timestamp="2008-11-16T12:29:31Z" uid="7562" user="LosHawlos" changeset="756600" lat="49.4886482" lon="8.5116508">
    <tag k="amenity" v="fuel"/>
    <tag k="created_by" v="JOSM"/>
  </node>
  <node id="92910378" version="4" timestamp="2009-02-15T20:35:06Z" uid="7562" user="LosHawlos" changeset="459938" lat="49.4886482" lon="8.5116508">
    <tag k="amenity" v="fuel"/>
    <tag k="created_by" v="JOSM"/>
    <tag k="name" v="Esso"/>
  </node>
  <node id="92910378" version="5" timestamp="2011-07-15T20:05:19Z" uid="110838" user="Bernhard W" changeset="8734281" lat="49.4886413" lon="8.5118502">
    <tag k="amenity" v="fuel"/>
    <tag k="name" v="Esso"/>
  </node>
  <node id="92910378" version="6" timestamp="2011-10-02T19:41:56Z" uid="245137" user="maurice2010" changeset="9454468" lat="49.4886605" lon="8.5118556">
    <tag k="amenity" v="fuel"/>
    <tag k="name" v="Esso"/>
  </node>
  <node id="92910378" version="7" timestamp="2011-12-25T17:38:28Z" uid="165061" user="keinname" changeset="10201557" lat="49.4886605" lon="8.5118556">
    <tag k="addr:city" v="Mannheim"/>
    <tag k="addr:country" v="DE"/>
    <tag k="addr:street" v="Feudenheimer StraÃŸe"/>
    <tag k="amenity" v="fuel"/>
    <tag k="brand" v="Esso"/>
    <tag k="name" v="Esso"/>
  </node>
  <node id="92910378" version="8" timestamp="2012-03-02T23:35:16Z" uid="136321" user="Teddy73" changeset="10853300" lat="49.4886605" lon="8.5118556"/>
  <node id="92914514" version="2" timestamp="2008-02-16T19:37:59Z" uid="6975" user="ulfl" changeset="141861" lat="62.1361961" lon="25.6692377">
    <tag k="highway" v="bus_stop"/>
  </node>
  <node id="92914988" version="1" timestamp="2007-10-30T21:08:15Z" uid="4667" user="MapZ" changeset="362108" lat="49.4834951" lon="8.5194749">
    <tag k="created_by" v="JOSM"/>
  </node>
  <node id="92914988" version="2" timestamp="2009-12-20T21:20:16Z" uid="85078" user="querkalender" changeset="3417102" lat="49.4835019" lon="8.5195064"/>
  <node id="92914988" version="3" timestamp="2011-07-09T19:04:47Z" uid="110838" user="Bernhard W" changeset="8676815" lat="49.4834252" lon="8.5195915"/>
  <node id="92914990" version="1" timestamp="2007-10-30T21:08:15Z" uid="4667" user="MapZ" changeset="362108" lat="49.4838044" lon="8.5190645">
    <tag k="created_by" v="JOSM"/>
  </node>
  <node id="92914990" version="2" timestamp="2009-12-20T21:20:16Z" uid="85078" user="querkalender" changeset="3417102" lat="49.4838589" lon="8.519054"/>
  <node id="92914990" version="3" timestamp="2011-07-09T19:04:47Z" uid="110838" user="Bernhard W" changeset="8676815" lat="49.4838519" lon="8.5190436"/>
  <node id="92914992" version="1" timestamp="2007-10-30T21:08:15Z" uid="4667" user="MapZ" changeset="362108" lat="49.4841724" lon="8.5186376">
    <tag k="created_by" v="JOSM"/>
  </node>
  <node id="92914992" version="2" timestamp="2009-12-20T21:20:16Z" uid="85078" user="querkalender" changeset="3417102" lat="49.4841962" lon="8.5186586"/>
  <node id="92914996" version="1" timestamp="2007-10-30T21:08:15Z" uid="4667" user="MapZ" changeset="362108" lat="49.4847098" lon="8.5181159">
    <tag k="created_by" v="JOSM"/>
  </node>
  <node id="92914996" version="2" timestamp="2009-12-20T21:20:16Z" uid="85078" user="querkalender" changeset="3417102" lat="49.4845838" lon="8.518268"/>
  <node id="92914998" version="1" timestamp="2007-10-30T21:08:16Z" uid="4667" user="MapZ" changeset="362108" lat="49.4850628" lon="8.5178685">
    <tag k="created_by" v="JOSM"/>
  </node>
  <node id="92914998" version="2" timestamp="2009-12-20T21:20:16Z" uid="85078" user="querkalender" changeset="3417102" lat="49.4850356" lon="8.5179157"/>
  <node id="92915000" version="1" timestamp="2007-10-30T21:08:16Z" uid="4667" user="MapZ" changeset="362108" lat="49.4854787" lon="8.5176102">
    <tag k="created_by" v="JOSM"/>
  </node>
  <node id="92915000" version="2" timestamp="2009-12-20T21:20:16Z" uid="85078" user="querkalender" changeset="3417102" lat="49.4853731" lon="8.5176941"/>
  <node id="92915004" version="1" timestamp="2007-10-30T21:08:16Z" uid="4667" user="MapZ" changeset="362108" lat="49.48609" lon="8.473011">
    <tag k="amenity" v="parking"/>
    <tag k="created_by" v="JOSM"/>
  </node>
  <node id="92915004" version="2" timestamp="2008-01-03T10:25:56Z" uid="7562" user="LosHawlos" changeset="525356" lat="49.48609" lon="8.473011">
    <tag k="amenity" v="parking"/>
    <tag k="created_by" v="JOSM"/>
    <tag k="disabled_spaces" v="no"/>
    <tag k="fee" v="yes"/>
    <tag k="maxheight" v="2"/>
    <tag k="name" v="Q7"/>
  </node>
  <node id="92915004" version="3" timestamp="2008-01-03T10:28:19Z" uid="7562" user="LosHawlos" changeset="525356" lat="49.48609" lon="8.473011">
    <tag k="amenity" v="parking"/>
    <tag k="created_by" v="JOSM"/>
    <tag k="disabled_spaces" v="no"/>
    <tag k="fee" v="yes"/>
    <tag k="maxheight" v="2"/>
    <tag k="name" v="Q7"/>
    <tag k="parking" v="underground"/>
  </node>
  <node id="92915004" version="4" timestamp="2008-10-19T17:55:39Z" uid="7562" user="LosHawlos" changeset="442518" lat="49.48609" lon="8.473011">
    <tag k="amenity" v="parking"/>
    <tag k="created_by" v="JOSM"/>
    <tag k="disabled_spaces" v="no"/>
    <tag k="fee" v="yes"/>
    <tag k="maxheight" v="2"/>
    <tag k="name" v="Q7"/>
    <tag k="operator" v="Mannheimer Parkhausbetriebe GmbH"/>
    <tag k="parking" v="underground"/>
  </node>
  <node id="92915004" version="5" timestamp="2010-03-31T12:39:24Z" uid="165061" user="keinname" changeset="4284970" lat="49.4860899" lon="8.473011">
    <tag k="amenity" v="parking"/>
    <tag k="capacity" v="418"/>
    <tag k="capacity:women" v="20"/>
    <tag k="disabled_spaces" v="no"/>
    <tag k="fee" v="yes"/>
    <tag k="maxheight" v="2"/>
    <tag k="name" v="Parkhaus Q7"/>
    <tag k="operator" v="Mannheimer Parkhausbetriebe GmbH"/>
    <tag k="parking" v="underground"/>
    <tag k="website" v="http://www.parken-mannheim.de/parkhaus_Q7.php"/>
  </node>
  <node id="92915004" version="6" timestamp="2010-09-14T21:24:56Z" uid="70696" user="xybot" changeset="5781758" lat="49.4860899" lon="8.473011">
    <tag k="amenity" v="parking"/>
    <tag k="capacity" v="418"/>
    <tag k="capacity:disabled" v="no"/>
    <tag k="capacity:women" v="20"/>
    <tag k="fee" v="yes"/>
    <tag k="maxheight" v="2"/>
    <tag k="name" v="Parkhaus Q7"/>
    <tag k="operator" v="Mannheimer Parkhausbetriebe GmbH"/>
    <tag k="parking" v="underground"/>
    <tag k="website" v="http://www.parken-mannheim.de/parkhaus_Q7.php"/>
  </node>
  <node id="92915004" version="7" timestamp="2011-10-08T19:49:10Z" uid="290680" user="wheelmap_visitor" changeset="9499106" lat="49.4860899" lon="8.473011">
    <tag k="amenity" v="parking"/>
    <tag k="capacity" v="418"/>
    <tag k="capacity:disabled" v="no"/>
    <tag k="capacity:women" v="20"/>
    <tag k="fee" v="yes"/>
    <tag k="maxheight" v="2"/>
    <tag k="name" v="Parkhaus Q7"/>
    <tag k="operator" v="Mannheimer Parkhausbetriebe GmbH"/>
    <tag k="parking" v="underground"/>
    <tag k="website" v="http://www.parken-mannheim.de/parkhaus_Q7.php"/>
    <tag k="wheelchair" v="no"/>
  </node>
  <node id="92915004" version="8" timestamp="2012-02-17T21:50:07Z" uid="136321" user="Teddy73" changeset="10715550" lat="49.4860899" lon="8.473011"/>
  <node id="92915010" version="1" timestamp="2007-10-30T21:08:16Z" uid="4667" user="MapZ" changeset="362108" lat="49.4898925" lon="8.4653494">
    <tag k="amenity" v="parking"/>
    <tag k="created_by" v="JOSM"/>
  </node>
  <node id="92915010" version="2" timestamp="2008-01-13T11:07:32Z" uid="24108" user="Schnuffelchen" changeset="627862" lat="49.4898962" lon="8.4653437">
    <tag k="amenity" v="parking"/>
    <tag k="created_by" v="Potlatch 0.6a"/>
  </node>
  <node id="92915010" version="3" timestamp="2012-02-15T21:29:55Z" uid="136321" user="Teddy73" changeset="10695235" lat="49.4898962" lon="8.4653437"/>
</osm>
