<?xml version='1.0' encoding='UTF-8'?>
<osm version="0.6" generator="libosmium/2.20.0">
  <node id="92998619" version="3" timestamp="2008-07-06T09:01:07Z" uid="6975" user="ulfl" changeset="407266" lat="53.7126432" lon="-1.1268834">
    <tag k="name" v="Eggborough power station"/>
    <tag k="power" v="generator"/>
    <tag k="power_source" v="fossil"/>
  </node>
  <node id="92998619" version="4" timestamp="2011-06-03T23:10:30Z" uid="297482" user="don-vip" changeset="8335022" lat="53.7126432" lon="-1.1268834">
    <tag k="generator:source" v="fossil"/>
    <tag k="name" v="Eggborough power station"/>
    <tag k="power" v="generator"/>
  </node>
  <node id="92999572" version="4" timestamp="2008-07-06T09:01:06Z" uid="6975" user="ulfl" changeset="407266" lat="53.7354959" lon="-0.9978113">
    <tag k="name" v="Drax power station"/>
    <tag k="power" v="generator"/>
    <tag k="power_source" v="fossil"/>
  </node>
  <node id="92999572" version="5" timestamp="2010-04-07T20:43:45Z" uid="65692" user="MockCyclist" changeset="4359027" lat="53.7354959" lon="-0.9978113">
    <tag k="name" v="Drax power station"/>
    <tag k="power" v="generator"/>
    <tag k="power_source" v="fossil"/>
  </node>
</osm>
