<?xml version='1.0' encoding='UTF-8'?>
<osm version="0.6" generator="libosmium/2.20.0">
  <node id="938380129" version="1" timestamp="2010-10-05T10:57:42Z" uid="115477" user="wowik" changeset="5960276" lat="54.414167" lon="20.446389">
    <tag k="gns:modify_date" v="2004-05-05"/>
    <tag k="name" v="Пограничное"/>
    <tag k="place" v="hamlet"/>
    <tag k="source" v="GNS"/>
    <tag k="source:id" v="6844648"/>
  </node>
  <node id="938380129" version="2" timestamp="2010-10-06T07:03:45Z" uid="115477" user="wowik" changeset="5966560" lat="54.414167" lon="20.446389">
    <tag k="gns:modify_date" v="2004-05-05"/>
    <tag k="name" v="Пограничное"/>
    <tag k="place" v="hamlet"/>
    <tag k="source" v="GNS"/>
    <tag k="source:id" v="6844648"/>
  </node>
  <node id="938380134" version="1" timestamp="2010-10-05T10:57:42Z" uid="115477" user="wowik" changeset="5960276" lat="54.401111" lon="20.427778">
    <tag k="gns:modify_date" v="2004-05-05"/>
    <tag k="name" v="Богатово"/>
    <tag k="place" v="hamlet"/>
    <tag k="source" v="GNS"/>
    <tag k="source:id" v="6646827"/>
  </node>
  <node id="938380134" version="2" timestamp="2010-10-05T15:45:43Z" uid="115477" user="wowik" changeset="5961937" lat="54.4015605" lon="20.4285075">
    <tag k="gns:modify_date" v="2004-05-05"/>
    <tag k="name" v="Богатово"/>
    <tag k="place" v="hamlet"/>
    <tag k="source" v="GNS"/>
    <tag k="source:id" v="6646827"/>
  </node>
</osm>
