<?xml version='1.0' encoding='UTF-8'?>
<osm version="0.6" generator="libosmium/2.20.0">
  <node id="94053567" version="5" timestamp="2008-08-22T20:45:08Z" uid="3451" user="sascha_silbe" changeset="367125" lat="48.5128978" lon="9.073729">
    <tag k="amenity" v="fuel"/>
    <tag k="created_by" v="JOSM"/>
    <tag k="fuel_cng" v="yes"/>
    <tag k="name" v="Aral"/>
    <tag k="opening_hours" v="24/7"/>
  </node>
  <node id="94053567" version="6" timestamp="2009-06-01T13:58:16Z" uid="85761" user="klausis" changeset="1379895" lat="48.5128978" lon="9.073729">
    <tag k="amenity" v="fuel"/>
    <tag k="fuel_cng" v="yes"/>
    <tag k="name" v="Aral"/>
    <tag k="opening_hours" v="24/7"/>
  </node>
  <node id="94053567" version="7" timestamp="2009-08-02T10:39:37Z" uid="31231" user="Andre68" changeset="2012470" lat="48.5128978" lon="9.073729">
    <tag k="amenity" v="fuel"/>
    <tag k="fuel:cng" v="yes"/>
    <tag k="name" v="Aral"/>
    <tag k="opening_hours" v="24/7"/>
  </node>
  <node id="94053567" version="8" timestamp="2011-08-18T15:27:30Z" uid="290680" user="wheelmap_visitor" changeset="9054904" lat="48.5128978" lon="9.073729">
    <tag k="amenity" v="fuel"/>
    <tag k="fuel:cng" v="yes"/>
    <tag k="name" v="Aral"/>
    <tag k="opening_hours" v="24/7"/>
    <tag k="wheelchair" v="yes"/>
  </node>
  <node id="94056420" version="2" timestamp="2009-12-07T00:04:15Z" uid="200463" user="harmagedon" changeset="3311752" lat="48.2059398" lon="13.4805943">
    <tag k="amenity" v="fuel"/>
  </node>
  <node id="94056420" version="3" timestamp="2009-12-07T11:30:41Z" uid="200463" user="harmagedon" changeset="3314630" lat="48.2059398" lon="13.4805943">
    <tag k="amenity" v="fuel"/>
  </node>
  <node id="94056512" version="3" timestamp="2009-12-07T00:04:30Z" uid="200463" user="harmagedon" changeset="3311752" lat="48.2171056" lon="13.4946168">
    <tag k="amenity" v="fuel"/>
  </node>
  <node id="94056512" version="4" timestamp="2009-12-07T11:32:05Z" uid="200463" user="harmagedon" changeset="3314630" lat="48.2171056" lon="13.4946168">
    <tag k="amenity" v="fuel"/>
  </node>
  <node id="94056512" version="5" timestamp="2010-02-28T08:56:50Z" uid="191979" user="tekstlijn" changeset="3995507" lat="48.2171056" lon="13.4946168"/>
  <node id="94056512" version="6" timestamp="2011-01-29T18:31:22Z" uid="351554" user="hurricane" changeset="7125490" lat="48.2167441" lon="13.4940871"/>
  <node id="94056532" version="3" timestamp="2009-12-07T00:04:30Z" uid="200463" user="harmagedon" changeset="3311752" lat="48.2171502" lon="13.4941384">
    <tag k="amenity" v="fuel"/>
  </node>
  <node id="94056532" version="4" timestamp="2009-12-07T11:32:07Z" uid="200463" user="harmagedon" changeset="3314630" lat="48.2171502" lon="13.4941384">
    <tag k="amenity" v="fuel"/>
  </node>
  <node id="94056532" version="5" timestamp="2010-02-28T08:56:49Z" uid="191979" user="tekstlijn" changeset="3995507" lat="48.2171502" lon="13.4941383">
    <tag k="addr:city" v="Ried im Innkreis"/>
    <tag k="addr:country" v="AT"/>
    <tag k="addr:housenumber" v="35"/>
    <tag k="addr:street" v="Riedauer Straße"/>
    <tag k="amenity" v="fuel"/>
    <tag k="name" v="BP"/>
  </node>
  <node id="94056532" version="6" timestamp="2010-02-28T09:03:29Z" uid="191979" user="tekstlijn" changeset="3995507" lat="48.2171502" lon="13.4941383">
    <tag k="addr:city" v="Ried im Innkreis"/>
    <tag k="addr:country" v="AT"/>
    <tag k="addr:housenumber" v="35"/>
    <tag k="addr:postcode" v="4910"/>
    <tag k="addr:street" v="Riedauer Straße"/>
    <tag k="amenity" v="fuel"/>
    <tag k="name" v="BP"/>
  </node>
  <node id="94056532" version="7" timestamp="2010-02-28T09:06:44Z" uid="191979" user="tekstlijn" changeset="3995507" lat="48.2175551" lon="13.4943174">
    <tag k="addr:city" v="Ried im Innkreis"/>
    <tag k="addr:country" v="AT"/>
    <tag k="addr:housenumber" v="35"/>
    <tag k="addr:postcode" v="4910"/>
    <tag k="addr:street" v="Riedauer Straße"/>
    <tag k="amenity" v="fuel"/>
    <tag k="name" v="BP"/>
  </node>
  <node id="94056532" version="8" timestamp="2010-10-20T19:52:34Z" uid="35673" user="gzin" changeset="6119389" lat="48.217351" lon="13.4940766">
    <tag k="addr:city" v="Ried im Innkreis"/>
    <tag k="addr:country" v="AT"/>
    <tag k="addr:housenumber" v="35"/>
    <tag k="addr:postcode" v="4910"/>
    <tag k="addr:street" v="Riedauer Straße"/>
    <tag k="amenity" v="fuel"/>
    <tag k="name" v="BP"/>
  </node>
  <node id="94056532" version="9" timestamp="2011-01-30T07:37:46Z" uid="35673" user="gzin" changeset="7130751" lat="48.217351" lon="13.4940766">
    <tag k="addr:city" v="Ried im Innkreis"/>
    <tag k="addr:country" v="AT"/>
    <tag k="addr:housenumber" v="35"/>
    <tag k="addr:postcode" v="4910"/>
    <tag k="addr:street" v="Riedauer Straße"/>
    <tag k="amenity" v="fuel"/>
    <tag k="name" v="BP"/>
  </node>
  <node id="94059740" version="1" timestamp="2007-10-31T19:26:04Z" uid="6975" user="ulfl" changeset="370925" lat="49.431261" lon="11.1025175">
    <tag k="created_by" v="JOSM"/>
  </node>
  <node id="94059740" version="2" timestamp="2008-04-28T21:12:13Z" uid="17099" user="matmai" changeset="287038" lat="49.4312331" lon="11.1025121">
    <tag k="created_by" v="JOSM"/>
  </node>
  <node id="94059740" version="3" timestamp="2009-02-22T20:07:32Z" uid="84976" user="megavoid" changeset="620984" lat="49.4312648" lon="11.1025211">
    <tag k="created_by" v="JOSM"/>
  </node>
  <node id="94059740" version="4" timestamp="2009-06-07T19:39:24Z" uid="80526" user="frawe" changeset="1452869" lat="49.4312648" lon="11.1025211"/>
  <node id="94059740" version="5" timestamp="2009-07-20T15:52:38Z" uid="69127" user="GeoGrafiker" changeset="1886354" lat="49.4312618" lon="11.1025211"/>
  <node id="94059740" version="6" timestamp="2012-02-01T22:17:22Z" uid="71557" user="Taroc" changeset="10563180" lat="49.4312786" lon="11.1022367"/>
  <node id="94059742" version="1" timestamp="2007-10-31T19:26:04Z" uid="6975" user="ulfl" changeset="370925" lat="49.4311249" lon="11.1028493">
    <tag k="created_by" v="JOSM"/>
  </node>
  <node id="94059742" version="2" timestamp="2007-10-31T19:29:43Z" uid="6975" user="ulfl" changeset="370925" lat="49.4311631" lon="11.1029002">
    <tag k="created_by" v="JOSM"/>
  </node>
  <node id="94059742" version="3" timestamp="2007-11-10T15:32:53Z" uid="6975" user="ulfl" changeset="463518" lat="49.4311631" lon="11.1029002">
    <tag k="created_by" v="JOSM"/>
    <tag k="highway" v="traffic_signals"/>
  </node>
  <node id="94059742" version="4" timestamp="2008-04-28T21:12:15Z" uid="17099" user="matmai" changeset="287038" lat="49.431123" lon="11.1028573">
    <tag k="created_by" v="JOSM"/>
    <tag k="highway" v="traffic_signals"/>
  </node>
  <node id="94059742" version="5" timestamp="2009-01-04T17:46:55Z" uid="81175" user="robome" changeset="729556" lat="49.4311551" lon="11.1028547">
    <tag k="created_by" v="JOSM"/>
    <tag k="highway" v="traffic_signals"/>
  </node>
  <node id="94059742" version="6" timestamp="2010-02-07T16:05:39Z" uid="81175" user="robome" changeset="3815646" lat="49.4311618" lon="11.1028321">
    <tag k="highway" v="traffic_signals"/>
  </node>
  <node id="94059742" version="7" timestamp="2011-12-30T16:08:21Z" uid="71557" user="Taroc" changeset="10246604" lat="49.4311618" lon="11.1028321"/>
  <node id="94059744" version="1" timestamp="2007-10-31T19:26:04Z" uid="6975" user="ulfl" changeset="370925" lat="49.4307166" lon="11.1031386">
    <tag k="created_by" v="JOSM"/>
  </node>
  <node id="94059744" version="2" timestamp="2007-10-31T19:29:43Z" uid="6975" user="ulfl" changeset="370925" lat="49.4308981" lon="11.1031195">
    <tag k="created_by" v="JOSM"/>
  </node>
  <node id="94059744" version="3" timestamp="2008-04-01T13:10:23Z" uid="17889" user="rrissiek" changeset="4369" lat="49.4308981" lon="11.1031195">
    <tag k="created_by" v="JOSM"/>
    <tag k="ncn_ref" v="D11"/>
  </node>
  <node id="94059744" version="4" timestamp="2008-06-05T03:53:06Z" uid="3516" user="BiIbo" changeset="58435" lat="49.4308981" lon="11.1031195"/>
  <node id="94059744" version="5" timestamp="2009-01-04T17:46:55Z" uid="81175" user="robome" changeset="729556" lat="49.430888" lon="11.1031221"/>
  <node id="94059744" version="6" timestamp="2009-02-22T20:07:30Z" uid="84976" user="megavoid" changeset="620984" lat="49.4308833" lon="11.1031041"/>
  <node id="94059744" version="7" timestamp="2010-02-07T16:05:40Z" uid="81175" user="robome" changeset="3815646" lat="49.430882" lon="11.1030692"/>
</osm>
