<?xml version='1.0' encoding='UTF-8'?>
<osm version="0.6" generator="libosmium/2.20.0">
  <node id="94891390" version="5" timestamp="2008-07-26T22:03:20Z" uid="34428" user="usm78-gis" changeset="609513" lat="59.9289755" lon="30.4130874">
    <tag k="created_by" v="JOSM"/>
    <tag k="name" v="м. Новочеркасская"/>
    <tag k="railway" v="subway_entrance"/>
  </node>
  <node id="94891390" version="6" timestamp="2008-08-27T10:56:39Z" uid="62091" user="optmas" changeset="432974" lat="59.929001" lon="30.4119158">
    <tag k="created_by" v="JOSM"/>
    <tag k="name" v="м. Новочеркасская"/>
    <tag k="railway" v="station"/>
  </node>
  <node id="94891390" version="7" timestamp="2009-05-02T17:07:53Z" uid="81821" user="alexsaf" changeset="1051028" lat="59.929001" lon="30.4119158">
    <tag k="name" v="м. Новочеркасская"/>
    <tag k="railway" v="station"/>
  </node>
  <node id="94891390" version="8" timestamp="2010-07-28T18:23:15Z" uid="136198" user="tmprec" changeset="5340733" lat="59.929001" lon="30.4119158">
    <tag k="name" v="м. Новочеркасская"/>
    <tag k="railway" v="station"/>
    <tag k="station" v="subway"/>
  </node>
  <node id="94891390" version="9" timestamp="2010-09-24T13:24:46Z" uid="143266" user="Sergey Astakhov" changeset="5862795" lat="59.928948" lon="30.4119671">
    <tag k="name" v="м. Новочеркасская"/>
    <tag k="railway" v="station"/>
    <tag k="station" v="subway"/>
  </node>
  <node id="94891390" version="10" timestamp="2010-10-13T19:04:08Z" uid="290271" user="Zverik" changeset="6032414" lat="59.928948" lon="30.4119671">
    <tag k="name" v="Новочеркасская"/>
    <tag k="railway" v="station"/>
    <tag k="station" v="subway"/>
  </node>
  <node id="94891390" version="11" timestamp="2010-10-24T11:43:03Z" uid="13436" user="hkucharek" changeset="6155701" lat="59.928948" lon="30.4119671">
    <tag k="name" v="Новочеркасская"/>
    <tag k="name:de" v="Nowotscherkasskaja"/>
    <tag k="railway" v="station"/>
    <tag k="station" v="subway"/>
  </node>
  <node id="94891390" version="12" timestamp="2011-03-17T23:01:36Z" uid="75336" user="torovec" changeset="7590976" lat="59.929598" lon="30.4151991">
    <tag k="name" v="Новочеркасская"/>
    <tag k="name:de" v="Nowotscherkasskaja"/>
    <tag k="name:ru" v="Новочеркасская"/>
    <tag k="railway" v="station"/>
    <tag k="station" v="subway"/>
  </node>
  <node id="94891390" version="13" timestamp="2011-09-29T12:51:38Z" uid="29320" user="Komяpa" changeset="9427181" lat="59.929598" lon="30.4151991">
    <tag k="colour" v="orange"/>
    <tag k="name" v="Новочеркасская"/>
    <tag k="name:de" v="Nowotscherkasskaja"/>
    <tag k="name:ru" v="Новочеркасская"/>
    <tag k="operator" v="Петербургский метрополитен"/>
    <tag k="railway" v="station"/>
    <tag k="station" v="subway"/>
    <tag k="transport" v="subway"/>
  </node>
  <node id="94891390" version="14" timestamp="2012-01-04T22:51:07Z" uid="367643" user="AlexTheTux" changeset="10296327" lat="59.929598" lon="30.4151991">
    <tag k="colour" v="orange"/>
    <tag k="name" v="Новочеркасская"/>
    <tag k="name:de" v="Nowotscherkasskaja"/>
    <tag k="name:en" v="Novocherkasskaya"/>
    <tag k="name:ru" v="Новочеркасская"/>
    <tag k="operator" v="Петербургский метрополитен"/>
    <tag k="railway" v="station"/>
    <tag k="station" v="subway"/>
    <tag k="transport" v="subway"/>
  </node>
  <node id="94891390" version="15" timestamp="2012-01-30T18:03:53Z" uid="22706" user="lansion" changeset="10541705" lat="59.929598" lon="30.4151991">
    <tag k="colour" v="orange"/>
    <tag k="name" v="Новочеркасская"/>
    <tag k="name:de" v="Nowotscherkasskaja"/>
    <tag k="name:en" v="Novocherkasskaya"/>
    <tag k="name:fi" v="Novotšerkasskaja"/>
    <tag k="name:ru" v="Новочеркасская"/>
    <tag k="operator" v="Петербургский метрополитен"/>
    <tag k="railway" v="station"/>
    <tag k="station" v="subway"/>
    <tag k="transport" v="subway"/>
  </node>
  <node id="94894999" version="2" timestamp="2008-02-18T18:36:44Z" uid="8328" user="benpre" changeset="149812" lat="-19.9339253" lon="-44.0051766">
    <tag k="created_by" v="JOSM"/>
  </node>
  <node id="94894999" version="3" timestamp="2008-12-06T21:18:21Z" uid="72239" user="srcvale" changeset="211969" lat="-19.9339173" lon="-44.0051686">
    <tag k="created_by" v="Merkaartor 0.12"/>
  </node>
  <node id="94894999" version="4" timestamp="2009-02-18T18:35:35Z" uid="99926" user="Hellwar" changeset="547913" lat="-19.9339173" lon="-44.0051686"/>
  <node id="94895867" version="2" timestamp="2008-02-18T18:36:47Z" uid="8328" user="benpre" changeset="149812" lat="-19.9339253" lon="-44.0051766">
    <tag k="created_by" v="JOSM"/>
  </node>
  <node id="94897281" version="2" timestamp="2008-05-01T16:38:53Z" uid="20587" user="balrog-kun" changeset="299566" lat="52.2434035" lon="20.9680719">
    <tag k="created_by" v="JOSM"/>
  </node>
  <node id="94897281" version="3" timestamp="2010-11-20T19:50:59Z" uid="165509" user="koszatek" changeset="6417449" lat="52.2433743" lon="20.9681022"/>
  <node id="94897281" version="4" timestamp="2011-04-21T07:16:04Z" uid="98542" user="wajak" changeset="7922707" lat="52.2433743" lon="20.9681022"/>
  <node id="94897291" version="3" timestamp="2009-06-06T00:19:17Z" uid="20587" user="balrog-kun" changeset="1433919" lat="52.2420194" lon="20.9701039"/>
  <node id="94897291" version="4" timestamp="2011-06-30T19:15:06Z" uid="477744" user="hormel" changeset="8593405" lat="52.2420194" lon="20.97012"/>
  <node id="94897291" version="5" timestamp="2011-10-07T13:48:56Z" uid="373244" user="Tomekg" changeset="9493933" lat="52.2420179" lon="20.9700889"/>
  <node id="94897295" version="2" timestamp="2008-05-01T16:38:53Z" uid="20587" user="balrog-kun" changeset="299566" lat="52.240817" lon="20.9705369">
    <tag k="created_by" v="JOSM"/>
  </node>
  <node id="94897295" version="3" timestamp="2009-02-28T15:20:09Z" uid="99738" user="tyrystorPL" changeset="696930" lat="52.240817" lon="20.9705369"/>
  <node id="94897295" version="4" timestamp="2009-06-06T00:19:17Z" uid="20587" user="balrog-kun" changeset="1433919" lat="52.2408111" lon="20.9705659"/>
  <node id="94897295" version="5" timestamp="2011-06-30T19:15:06Z" uid="477744" user="hormel" changeset="8593405" lat="52.2408111" lon="20.970582"/>
  <node id="94897295" version="6" timestamp="2011-10-07T13:48:56Z" uid="373244" user="Tomekg" changeset="9493933" lat="52.2408182" lon="20.970552"/>
  <node id="94897299" version="2" timestamp="2008-05-01T16:38:54Z" uid="20587" user="balrog-kun" changeset="299566" lat="52.2385537" lon="20.9714749">
    <tag k="created_by" v="JOSM"/>
  </node>
  <node id="94897299" version="3" timestamp="2009-02-28T15:20:09Z" uid="99738" user="tyrystorPL" changeset="696930" lat="52.2385537" lon="20.9714749"/>
  <node id="94897299" version="4" timestamp="2011-06-30T19:15:06Z" uid="477744" user="hormel" changeset="8593405" lat="52.2385537" lon="20.971491"/>
  <node id="94897299" version="5" timestamp="2011-10-07T13:48:56Z" uid="373244" user="Tomekg" changeset="9493933" lat="52.2385363" lon="20.9714256"/>
  <node id="94897302" version="3" timestamp="2008-05-01T16:38:54Z" uid="20587" user="balrog-kun" changeset="299566" lat="52.2371766" lon="20.9720318">
    <tag k="created_by" v="JOSM"/>
  </node>
  <node id="94897302" version="4" timestamp="2009-02-28T15:20:09Z" uid="99738" user="tyrystorPL" changeset="696930" lat="52.2371766" lon="20.9720318"/>
  <node id="94897302" version="5" timestamp="2009-03-28T19:45:38Z" uid="59223" user="Briquollo" changeset="865867" lat="52.2371701" lon="20.9719511"/>
  <node id="94897302" version="6" timestamp="2009-05-26T13:33:31Z" uid="20587" user="balrog-kun" changeset="1325822" lat="52.237164" lon="20.9719387">
    <tag k="highway" v="traffic_signals"/>
  </node>
  <node id="94897302" version="7" timestamp="2009-08-05T06:58:55Z" uid="98542" user="wajak" changeset="2042610" lat="52.237164" lon="20.9719387">
    <tag k="highway" v="traffic_signals"/>
  </node>
  <node id="94897662" version="3" timestamp="2009-04-12T19:49:59Z" uid="6269" user="Mueck" changeset="446762" lat="49.0603125" lon="8.3763422"/>
  <node id="94897662" version="4" timestamp="2009-04-12T20:13:04Z" uid="6269" user="Mueck" changeset="446762" lat="49.0603125" lon="8.3763422"/>
  <node id="94897662" version="5" timestamp="2009-04-12T20:13:49Z" uid="6269" user="Mueck" changeset="446762" lat="49.0603125" lon="8.3763422"/>
  <node id="94897662" version="6" timestamp="2011-10-05T23:42:17Z" uid="212553" user="ARWIE" changeset="9482405" lat="49.0603125" lon="8.3763422"/>
</osm>
