<?xml version='1.0' encoding='UTF-8'?>
<osm version="0.6" generator="libosmium/2.20.0">
  <node id="95203600" version="3" timestamp="2008-09-30T11:46:39Z" uid="1066" user="pavel" changeset="720911" lat="50.2187043" lon="12.3501158">
    <tag k="is_in" v="Czech Republic, Europe"/>
    <tag k="name" v="Plesná"/>
    <tag k="place" v="town"/>
  </node>
  <node id="95203600" version="4" timestamp="2008-11-04T13:21:30Z" uid="308" user="MichaelCollinson" changeset="676656" lat="50.2187043" lon="12.3501158">
    <tag k="is_in" v="Czech Republic, Europe"/>
    <tag k="is_in:continent" v="Europe"/>
    <tag k="is_in:country_code" v="cz"/>
    <tag k="name" v="Plesná"/>
    <tag k="place" v="town"/>
  </node>
  <node id="95203600" version="5" timestamp="2009-04-06T09:34:25Z" uid="62775" user="hal9" changeset="273594" lat="50.218709" lon="12.3501141">
    <tag k="created_by" v="Potlatch 0.10f"/>
    <tag k="is_in" v="Czech Republic, Europe"/>
    <tag k="is_in:continent" v="Europe"/>
    <tag k="is_in:country_code" v="cz"/>
    <tag k="name" v="Plesná"/>
    <tag k="place" v="town"/>
  </node>
  <node id="95203600" version="6" timestamp="2009-06-23T11:56:31Z" uid="69628" user="vsandre" changeset="1601787" lat="50.218709" lon="12.3501141">
    <tag k="is_in" v="Czech Republic, Europe"/>
    <tag k="is_in:continent" v="Europe"/>
    <tag k="is_in:country_code" v="cz"/>
    <tag k="name" v="Plesná"/>
    <tag k="place" v="town"/>
  </node>
  <node id="95203600" version="7" timestamp="2010-07-27T11:32:15Z" uid="62775" user="hal9" changeset="5328404" lat="50.218709" lon="12.3501142">
    <tag k="is_in" v="Czech Republic, Europe"/>
    <tag k="is_in:continent" v="Europe"/>
    <tag k="is_in:country_code" v="cz"/>
    <tag k="name" v="Plesná"/>
    <tag k="name:de" v="Fleissen"/>
    <tag k="place" v="town"/>
  </node>
  <node id="95203600" version="8" timestamp="2010-08-05T15:58:08Z" uid="110514" user="softcake" changeset="5409490" lat="50.2187091" lon="12.3501142">
    <tag k="is_in" v="Czech Republic, Europe"/>
    <tag k="is_in:continent" v="Europe"/>
    <tag k="is_in:country_code" v="cz"/>
    <tag k="name" v="Plesná"/>
    <tag k="name:de" v="Plesná - Fleissen"/>
    <tag k="place" v="town"/>
  </node>
  <node id="95203600" version="9" timestamp="2010-09-12T01:15:05Z" uid="212553" user="ARWIE" changeset="5755233" lat="50.2187091" lon="12.3501142">
    <tag k="is_in" v="Czech Republic, Europe"/>
    <tag k="is_in:continent" v="Europe"/>
    <tag k="is_in:country_code" v="cz"/>
    <tag k="name" v="Plesná"/>
    <tag k="name:de" v="Fleißen"/>
    <tag k="place" v="town"/>
  </node>
  <node id="95203600" version="10" timestamp="2011-03-22T13:08:04Z" uid="62775" user="hal9" changeset="7636774" lat="50.2187091" lon="12.3501142">
    <tag k="alt_name" v="Fleissen"/>
    <tag k="is_in" v="Czech Republic, Europe"/>
    <tag k="is_in:continent" v="Europe"/>
    <tag k="is_in:country_code" v="cz"/>
    <tag k="name" v="Plesná"/>
    <tag k="name:de" v="Fleißen"/>
    <tag k="old_name" v="Fleissen"/>
    <tag k="place" v="town"/>
  </node>
  <node id="95203600" version="11" timestamp="2012-01-09T23:56:36Z" uid="229590" user="xificurk" changeset="10347560" lat="50.2187091" lon="12.3501142">
    <tag k="alt_name" v="Fleissen"/>
    <tag k="is_in" v="Czech Republic, Europe"/>
    <tag k="is_in:continent" v="Europe"/>
    <tag k="is_in:country_code" v="cz"/>
    <tag k="name" v="Plesná"/>
    <tag k="name:de" v="Fleißen"/>
    <tag k="old_name" v="Fleissen"/>
    <tag k="place" v="village"/>
  </node>
  <node id="95203600" version="12" timestamp="2012-01-23T01:21:51Z" uid="229590" user="xificurk" changeset="10471622" lat="50.2187091" lon="12.3501142"/>
</osm>
