<?xml version='1.0' encoding='UTF-8'?>
<osm version="0.6" generator="libosmium/2.20.0">
  <node id="955881185" version="1" timestamp="2010-10-18T10:26:39Z" uid="1066" user="pavel" changeset="6080208" lat="50.7742202" lon="14.0395232"/>
  <node id="955881185" version="2" timestamp="2010-10-31T13:14:30Z" uid="42123" user="Ropino" changeset="6238200" lat="50.7742202" lon="14.0395232"/>
  <node id="955883165" version="1" timestamp="2010-10-18T10:33:48Z" uid="49111" user="Markus B" changeset="6080284" lat="49.6926221" lon="11.5434217">
    <tag k="natural" v="cave_entrance"/>
  </node>
  <node id="955883165" version="2" timestamp="2011-06-18T13:55:29Z" uid="41113" user="cycling_zno" changeset="8473587" lat="49.6926221" lon="11.5434217">
    <tag k="cave:ref" v="???"/>
    <tag k="name" v="Höhle"/>
    <tag k="natural" v="cave_entrance"/>
  </node>
  <node id="955883170" version="1" timestamp="2010-10-18T10:33:48Z" uid="49111" user="Markus B" changeset="6080284" lat="49.7040607" lon="11.4961778">
    <tag k="name" v="Bärenloch"/>
    <tag k="natural" v="cave_entrance"/>
  </node>
  <node id="955883170" version="2" timestamp="2011-07-21T16:45:05Z" uid="41113" user="cycling_zno" changeset="8790344" lat="49.7040607" lon="11.4961778"/>
  <node id="955883171" version="1" timestamp="2010-10-18T10:33:48Z" uid="49111" user="Markus B" changeset="6080284" lat="49.6939631" lon="11.4937022">
    <tag k="natural" v="cave_entrance"/>
  </node>
  <node id="955883171" version="2" timestamp="2011-06-09T17:33:15Z" uid="41113" user="cycling_zno" changeset="8390434" lat="49.6939631" lon="11.4937022">
    <tag k="cave:ref" v="D197"/>
    <tag k="name" v="Plecher Ponor"/>
    <tag k="natural" v="cave_entrance"/>
  </node>
  <node id="955883172" version="1" timestamp="2010-10-18T10:33:48Z" uid="49111" user="Markus B" changeset="6080284" lat="49.6394062" lon="11.4002543">
    <tag k="alt:NHN" v="610"/>
    <tag k="ele" v="610"/>
    <tag k="name" v="Fuchsloch"/>
    <tag k="natural" v="cave_entrance"/>
  </node>
  <node id="955883172" version="2" timestamp="2011-06-10T18:23:02Z" uid="41113" user="cycling_zno" changeset="8399592" lat="49.6394062" lon="11.4002543">
    <tag k="alt:NHN" v="610"/>
    <tag k="cave:ref" v="D022"/>
    <tag k="ele" v="610"/>
    <tag k="name" v="Fuchsloch"/>
    <tag k="natural" v="cave_entrance"/>
  </node>
  <node id="955883173" version="1" timestamp="2010-10-18T10:33:49Z" uid="49111" user="Markus B" changeset="6080284" lat="49.674343" lon="11.5007133">
    <tag k="name" v="Wirrenloch"/>
    <tag k="natural" v="cave_entrance"/>
  </node>
  <node id="955883173" version="2" timestamp="2011-06-10T18:23:05Z" uid="41113" user="cycling_zno" changeset="8399592" lat="49.674343" lon="11.5007133">
    <tag k="cave:ref" v="D147"/>
    <tag k="name" v="Wirrenloch"/>
    <tag k="natural" v="cave_entrance"/>
  </node>
  <node id="955883173" version="3" timestamp="2012-02-14T20:49:59Z" uid="87723" user="Shiega" changeset="10687116" lat="49.6756524" lon="11.4986598">
    <tag k="cave:ref" v="D147"/>
    <tag k="name" v="Wirrenloch"/>
    <tag k="natural" v="cave_entrance"/>
  </node>
  <node id="955883174" version="1" timestamp="2010-10-18T10:33:49Z" uid="49111" user="Markus B" changeset="6080284" lat="49.6940398" lon="11.4146865">
    <tag k="name" v="Wassersteintor"/>
    <tag k="natural" v="cave_entrance"/>
  </node>
  <node id="955883174" version="2" timestamp="2011-06-06T18:13:47Z" uid="41113" user="cycling_zno" changeset="8362808" lat="49.6940398" lon="11.4146865">
    <tag k="cave:ref" v="D033"/>
    <tag k="name" v="Wassersteintor"/>
    <tag k="natural" v="cave_entrance"/>
  </node>
  <node id="955883174" version="3" timestamp="2012-03-12T13:30:03Z" uid="625747" user="Almawiki" changeset="10954777" lat="49.6938469" lon="11.4119281">
    <tag k="cave:ref" v="D033"/>
    <tag k="name" v="Wassersteintor"/>
    <tag k="natural" v="cave_entrance"/>
  </node>
  <node id="955883175" version="1" timestamp="2010-10-18T10:33:49Z" uid="49111" user="Markus B" changeset="6080284" lat="49.6647489" lon="11.5014459">
    <tag k="name" v="Dachsbau"/>
    <tag k="natural" v="cave_entrance"/>
  </node>
  <node id="955883175" version="2" timestamp="2011-06-10T18:23:05Z" uid="41113" user="cycling_zno" changeset="8399592" lat="49.6647489" lon="11.5014459">
    <tag k="cave:ref" v="D167"/>
    <tag k="name" v="Dachsbau"/>
    <tag k="natural" v="cave_entrance"/>
  </node>
  <node id="955883176" version="1" timestamp="2010-10-18T10:33:49Z" uid="49111" user="Markus B" changeset="6080284" lat="49.7040458" lon="11.4961283">
    <tag k="name" v="Bärenloch"/>
    <tag k="natural" v="cave_entrance"/>
  </node>
  <node id="955883176" version="2" timestamp="2011-06-09T17:33:15Z" uid="41113" user="cycling_zno" changeset="8390434" lat="49.7040458" lon="11.4961283">
    <tag k="cave:ref" v="D070"/>
    <tag k="name" v="Bärenloch"/>
    <tag k="natural" v="cave_entrance"/>
  </node>
  <node id="955883178" version="1" timestamp="2010-10-18T10:33:49Z" uid="49111" user="Markus B" changeset="6080284" lat="49.6990521" lon="11.5340029">
    <tag k="natural" v="cave_entrance"/>
  </node>
  <node id="955883178" version="2" timestamp="2011-06-18T13:55:29Z" uid="41113" user="cycling_zno" changeset="8473587" lat="49.6990521" lon="11.5340029">
    <tag k="cave:ref" v="???"/>
    <tag k="name" v="Höhle"/>
    <tag k="natural" v="cave_entrance"/>
  </node>
  <node id="955883179" version="1" timestamp="2010-10-18T10:33:49Z" uid="49111" user="Markus B" changeset="6080284" lat="49.6938299" lon="11.4136233">
    <tag k="ele" v="520"/>
    <tag k="name" v="Grosser Wasserstein"/>
    <tag k="natural" v="peak"/>
  </node>
  <node id="955883181" version="1" timestamp="2010-10-18T10:33:49Z" uid="49111" user="Markus B" changeset="6080284" lat="49.691766" lon="11.3556994">
    <tag k="alt:NHN" v="530"/>
    <tag k="ele" v="530"/>
    <tag k="natural" v="cave_entrance"/>
  </node>
  <node id="955883181" version="2" timestamp="2011-06-10T18:23:01Z" uid="41113" user="cycling_zno" changeset="8399592" lat="49.691766" lon="11.3556994">
    <tag k="alt:NHN" v="530"/>
    <tag k="cave:ref" v="D060"/>
    <tag k="ele" v="530"/>
    <tag k="name" v="Höllensteinhöhle"/>
    <tag k="natural" v="cave_entrance"/>
  </node>
</osm>
