<?xml version='1.0' encoding='UTF-8'?>
<osm version="0.6" generator="libosmium/2.20.0">
  <node id="961682561" version="1" timestamp="2010-10-23T15:33:11Z" uid="30632" user="antblant" changeset="6145966" lat="49.7091866" lon="20.0190182">
    <tag k="amenity" v="post_box"/>
  </node>
  <node id="961682563" version="1" timestamp="2010-10-23T15:33:11Z" uid="30632" user="antblant" changeset="6145966" lat="49.6760013" lon="20.063779">
    <tag k="amenity" v="fuel"/>
    <tag k="name" v="Lotank"/>
  </node>
  <node id="961682566" version="1" timestamp="2010-10-23T15:33:12Z" uid="30632" user="antblant" changeset="6145966" lat="49.71175" lon="20.0035208">
    <tag k="man_made" v="wastewater_plant"/>
    <tag k="name" v="Kasinka Mała"/>
  </node>
  <node id="961682568" version="1" timestamp="2010-10-23T15:33:12Z" uid="30632" user="antblant" changeset="6145966" lat="49.6845727" lon="20.0526732">
    <tag k="amenity" v="fuel"/>
    <tag k="name" v="Orlen"/>
    <tag k="operator" v="Orlen"/>
  </node>
  <node id="961682574" version="1" timestamp="2010-10-23T15:33:12Z" uid="30632" user="antblant" changeset="6145966" lat="49.6772537" lon="20.0661286">
    <tag k="amenity" v="place_of_worship"/>
    <tag k="denomination" v="catholic"/>
    <tag k="religion" v="christian"/>
  </node>
  <node id="961682584" version="1" timestamp="2010-10-23T15:33:12Z" uid="30632" user="antblant" changeset="6145966" lat="49.7187168" lon="19.9863122">
    <tag k="name" v="Lubień"/>
    <tag k="traffic_sign" v="PL:E-17a"/>
  </node>
  <node id="961682588" version="1" timestamp="2010-10-23T15:33:13Z" uid="30632" user="antblant" changeset="6145966" lat="49.6758279" lon="20.0632917">
    <tag k="name" v="Biedronka"/>
    <tag k="shop" v="supermarket"/>
  </node>
  <node id="961682591" version="1" timestamp="2010-10-23T15:33:13Z" uid="30632" user="antblant" changeset="6145966" lat="49.7100894" lon="20.0117087">
    <tag k="name" v="Kasinka Mała"/>
    <tag k="traffic_sign" v="PL:E-18a"/>
  </node>
  <node id="961682598" version="1" timestamp="2010-10-23T15:33:13Z" uid="30632" user="antblant" changeset="6145966" lat="49.6776555" lon="20.0706173"/>
  <node id="961682598" version="2" timestamp="2011-02-23T14:42:59Z" uid="163896" user="Zbigniew Czernik" changeset="7372892" lat="49.6776555" lon="20.0706173"/>
  <node id="961682601" version="1" timestamp="2010-10-23T15:33:13Z" uid="30632" user="antblant" changeset="6145966" lat="49.6758874" lon="20.0633961">
    <tag k="name" v="Centrum Handlowe &quot;Krakowska&quot;"/>
    <tag k="shop" v="mall"/>
  </node>
</osm>
