<?xml version='1.0' encoding='UTF-8'?>
<osm version="0.6" generator="libosmium/2.20.0">
  <node id="969992947" version="1" timestamp="2010-10-30T09:43:11Z" uid="61114" user="Trav" changeset="6225069" lat="-33.72195" lon="151.0985535">
    <tag k="addr:housenumber" v="7"/>
    <tag k="addr:street" v="Fraser Road"/>
    <tag k="source" v="extrapolation;nearmap"/>
  </node>
  <node id="969992952" version="1" timestamp="2010-10-30T09:43:12Z" uid="61114" user="Trav" changeset="6225069" lat="-33.7218716" lon="151.0983474">
    <tag k="addr:housenumber" v="5"/>
    <tag k="addr:street" v="Fraser Road"/>
    <tag k="source" v="extrapolation;nearmap"/>
  </node>
  <node id="969992954" version="1" timestamp="2010-10-30T09:43:12Z" uid="61114" user="Trav" changeset="6225069" lat="-33.7219732" lon="151.0980095">
    <tag k="addr:housenumber" v="1"/>
    <tag k="addr:street" v="Fraser Road"/>
    <tag k="source" v="extrapolation;nearmap"/>
  </node>
  <node id="969992959" version="1" timestamp="2010-10-30T09:43:12Z" uid="61114" user="Trav" changeset="6225069" lat="-33.7213998" lon="151.09966">
    <tag k="addr:housenumber" v="23a"/>
    <tag k="addr:street" v="Fraser Road"/>
    <tag k="source" v="extrapolation;nearmap"/>
  </node>
  <node id="969992964" version="1" timestamp="2010-10-30T09:43:12Z" uid="61114" user="Trav" changeset="6225069" lat="-33.722179" lon="151.0998928">
    <tag k="addr:housenumber" v="22"/>
    <tag k="addr:street" v="Fraser Road"/>
    <tag k="source" v="extrapolation;nearmap"/>
  </node>
  <node id="969992968" version="1" timestamp="2010-10-30T09:43:12Z" uid="61114" user="Trav" changeset="6225069" lat="-33.7222556" lon="151.0995446">
    <tag k="addr:housenumber" v="18"/>
    <tag k="addr:street" v="Fraser Road"/>
    <tag k="source" v="extrapolation;nearmap"/>
  </node>
  <node id="969993036" version="1" timestamp="2010-10-30T09:43:17Z" uid="61114" user="Trav" changeset="6225069" lat="-33.7209964" lon="151.103688">
    <tag k="name" v="Bowden Brae"/>
    <tag k="social_facility" v="assisted_living"/>
    <tag k="source" v="survey;nearmap"/>
  </node>
  <node id="969993036" version="2" timestamp="2010-10-30T09:46:37Z" uid="61114" user="Trav" changeset="6225093" lat="-33.7209964" lon="151.103688">
    <tag k="name" v="Bowden Brae"/>
    <tag k="operator" v="UnitingCare"/>
    <tag k="social_facility" v="assisted_living"/>
    <tag k="source" v="survey;nearmap"/>
  </node>
</osm>
