<?xml version='1.0' encoding='UTF-8'?>
<osm version="0.6" generator="libosmium/2.20.0">
  <node id="969976785" version="1" timestamp="2010-10-30T09:30:28Z" uid="61114" user="Trav" changeset="6224975" lat="-33.7219783" lon="151.0981842">
    <tag k="addr:housenumber" v="3"/>
    <tag k="addr:street" v="Fraser Road"/>
    <tag k="source" v="survey;nearmap"/>
  </node>
  <node id="969976789" version="1" timestamp="2010-10-30T09:30:29Z" uid="61114" user="Trav" changeset="6224975" lat="-33.7219149" lon="151.0983626">
    <tag k="addr:housenumber" v="5"/>
    <tag k="addr:street" v="Fraser Road"/>
    <tag k="source" v="survey;nearmap"/>
  </node>
  <node id="969976792" version="1" timestamp="2010-10-30T09:30:29Z" uid="61114" user="Trav" changeset="6224975" lat="-33.7219009" lon="151.0987327">
    <tag k="addr:housenumber" v="9"/>
    <tag k="addr:street" v="Fraser Road"/>
    <tag k="source" v="survey;nearmap"/>
  </node>
  <node id="969976799" version="1" timestamp="2010-10-30T09:30:29Z" uid="61114" user="Trav" changeset="6224975" lat="-33.7216473" lon="151.0984856">
    <tag k="addr:housenumber" v="7a"/>
    <tag k="addr:street" v="Fraser Road"/>
    <tag k="source" v="survey;nearmap"/>
  </node>
  <node id="969976800" version="1" timestamp="2010-10-30T09:30:29Z" uid="61114" user="Trav" changeset="6224975" lat="-33.7216034" lon="151.0986341">
    <tag k="addr:housenumber" v="9a"/>
    <tag k="addr:street" v="Fraser Road"/>
    <tag k="source" v="survey;nearmap"/>
  </node>
  <node id="969976803" version="1" timestamp="2010-10-30T09:30:29Z" uid="61114" user="Trav" changeset="6224975" lat="-33.7218795" lon="151.0989056">
    <tag k="addr:housenumber" v="11"/>
    <tag k="addr:street" v="Fraser Road"/>
    <tag k="source" v="survey;nearmap"/>
  </node>
  <node id="969976805" version="1" timestamp="2010-10-30T09:30:30Z" uid="61114" user="Trav" changeset="6224975" lat="-33.7214932" lon="151.0987891">
    <tag k="addr:housenumber" v="11a"/>
    <tag k="addr:street" v="Fraser Road"/>
    <tag k="source" v="survey;nearmap"/>
  </node>
  <node id="969976816" version="1" timestamp="2010-10-30T09:30:30Z" uid="61114" user="Trav" changeset="6224975" lat="-33.7214482" lon="151.099131">
    <tag k="addr:housenumber" v="17a"/>
    <tag k="addr:street" v="Fraser Road"/>
    <tag k="source" v="survey;nearmap"/>
  </node>
  <node id="969976817" version="1" timestamp="2010-10-30T09:30:30Z" uid="61114" user="Trav" changeset="6224975" lat="-33.7218153" lon="151.0992348">
    <tag k="addr:housenumber" v="17"/>
    <tag k="addr:street" v="Fraser Road"/>
    <tag k="source" v="survey;nearmap"/>
  </node>
  <node id="969976818" version="1" timestamp="2010-10-30T09:30:30Z" uid="61114" user="Trav" changeset="6224975" lat="-33.7218431" lon="151.0990619">
    <tag k="addr:housenumber" v="15"/>
    <tag k="addr:street" v="Fraser Road"/>
    <tag k="source" v="survey;nearmap"/>
  </node>
  <node id="969976819" version="1" timestamp="2010-10-30T09:30:30Z" uid="61114" user="Trav" changeset="6224975" lat="-33.721399" lon="151.0993142">
    <tag k="addr:housenumber" v="19a"/>
    <tag k="addr:street" v="Fraser Road"/>
    <tag k="source" v="survey;nearmap"/>
  </node>
  <node id="969976829" version="1" timestamp="2010-10-30T09:30:30Z" uid="61114" user="Trav" changeset="6224975" lat="-33.7217661" lon="151.0994218">
    <tag k="addr:housenumber" v="19"/>
    <tag k="addr:street" v="Fraser Road"/>
    <tag k="source" v="survey;nearmap"/>
  </node>
  <node id="969976834" version="1" timestamp="2010-10-30T09:30:31Z" uid="61114" user="Trav" changeset="6224975" lat="-33.7217329" lon="151.0995767">
    <tag k="addr:housenumber" v="21"/>
    <tag k="addr:street" v="Fraser Road"/>
    <tag k="source" v="survey;nearmap"/>
  </node>
  <node id="969976835" version="1" timestamp="2010-10-30T09:30:31Z" uid="61114" user="Trav" changeset="6224975" lat="-33.7213562" lon="151.0995076">
    <tag k="addr:housenumber" v="21a"/>
    <tag k="addr:street" v="Fraser Road"/>
    <tag k="source" v="survey;nearmap"/>
  </node>
  <node id="969976837" version="1" timestamp="2010-10-30T09:30:31Z" uid="61114" user="Trav" changeset="6224975" lat="-33.7216773" lon="151.099756">
    <tag k="addr:housenumber" v="23"/>
    <tag k="addr:street" v="Fraser Road"/>
    <tag k="source" v="survey;nearmap"/>
  </node>
  <node id="969976839" version="1" timestamp="2010-10-30T09:30:32Z" uid="61114" user="Trav" changeset="6224975" lat="-33.7216494" lon="151.0999123">
    <tag k="addr:housenumber" v="25"/>
    <tag k="addr:street" v="Fraser Road"/>
    <tag k="source" v="survey;nearmap"/>
  </node>
  <node id="969976843" version="1" timestamp="2010-10-30T09:30:33Z" uid="61114" user="Trav" changeset="6224975" lat="-33.7216056" lon="151.1000813">
    <tag k="addr:housenumber" v="27"/>
    <tag k="addr:street" v="Fraser Road"/>
    <tag k="source" v="survey;nearmap"/>
  </node>
  <node id="969976846" version="1" timestamp="2010-10-30T09:30:33Z" uid="61114" user="Trav" changeset="6224975" lat="-33.7212556" lon="151.0999802">
    <tag k="addr:housenumber" v="27a"/>
    <tag k="addr:street" v="Fraser Road"/>
    <tag k="source" v="survey;nearmap"/>
  </node>
  <node id="969976848" version="1" timestamp="2010-10-30T09:30:33Z" uid="61114" user="Trav" changeset="6224975" lat="-33.7221717" lon="151.1000634">
    <tag k="addr:housenumber" v="24"/>
    <tag k="addr:street" v="Fraser Road"/>
    <tag k="source" v="survey;nearmap"/>
  </node>
  <node id="969976854" version="1" timestamp="2010-10-30T09:30:33Z" uid="61114" user="Trav" changeset="6224975" lat="-33.7223365" lon="151.10013">
    <tag k="addr:housenumber" v="24a"/>
    <tag k="addr:street" v="Fraser Road"/>
    <tag k="source" v="survey;nearmap"/>
  </node>
  <node id="969976857" version="1" timestamp="2010-10-30T09:30:33Z" uid="61114" user="Trav" changeset="6224975" lat="-33.722511" lon="151.1001556">
    <tag k="addr:housenumber" v="26"/>
    <tag k="addr:street" v="Fraser Road"/>
    <tag k="source" v="survey;nearmap"/>
  </node>
  <node id="969976858" version="1" timestamp="2010-10-30T09:30:33Z" uid="61114" user="Trav" changeset="6224975" lat="-33.7227228" lon="151.1001979">
    <tag k="addr:housenumber" v="28"/>
    <tag k="addr:street" v="Fraser Road"/>
    <tag k="source" v="survey;nearmap"/>
  </node>
  <node id="969976861" version="1" timestamp="2010-10-30T09:30:33Z" uid="61114" user="Trav" changeset="6224975" lat="-33.7229433" lon="151.1002824">
    <tag k="addr:housenumber" v="30"/>
    <tag k="addr:street" v="Fraser Road"/>
    <tag k="source" v="survey;nearmap"/>
  </node>
  <node id="969976864" version="1" timestamp="2010-10-30T09:30:33Z" uid="61114" user="Trav" changeset="6224975" lat="-33.7231359" lon="151.1003618">
    <tag k="addr:housenumber" v="32"/>
    <tag k="addr:street" v="Fraser Road"/>
    <tag k="source" v="survey;nearmap"/>
  </node>
  <node id="969976874" version="1" timestamp="2010-10-30T09:30:34Z" uid="61114" user="Trav" changeset="6224975" lat="-33.7222109" lon="151.0997108">
    <tag k="addr:housenumber" v="20"/>
    <tag k="addr:street" v="Fraser Road"/>
    <tag k="source" v="survey;nearmap"/>
  </node>
  <node id="969976876" version="1" timestamp="2010-10-30T09:30:34Z" uid="61114" user="Trav" changeset="6224975" lat="-33.7222966" lon="151.0993744">
    <tag k="addr:housenumber" v="16"/>
    <tag k="addr:street" v="Fraser Road"/>
    <tag k="source" v="survey;nearmap"/>
  </node>
  <node id="969976878" version="1" timestamp="2010-10-30T09:30:34Z" uid="61114" user="Trav" changeset="6224975" lat="-33.7229743" lon="151.0990841">
    <tag k="addr:housenumber" v="14"/>
    <tag k="addr:street" v="Fraser Road"/>
    <tag k="source" v="survey;nearmap"/>
  </node>
  <node id="969976880" version="1" timestamp="2010-10-30T09:30:34Z" uid="61114" user="Trav" changeset="6224975" lat="-33.7204287" lon="151.1024277">
    <tag k="addr:housenumber" v="26"/>
    <tag k="addr:street" v="Frith Avenue"/>
    <tag k="source" v="survey;nearmap"/>
  </node>
  <node id="969976893" version="1" timestamp="2010-10-30T09:30:35Z" uid="61114" user="Trav" changeset="6224975" lat="-33.7202613" lon="151.1025792">
    <tag k="addr:housenumber" v="24"/>
    <tag k="addr:street" v="Frith Avenue"/>
    <tag k="source" v="survey;nearmap"/>
  </node>
  <node id="969976894" version="1" timestamp="2010-10-30T09:30:35Z" uid="61114" user="Trav" changeset="6224975" lat="-33.7207999" lon="151.1027371">
    <tag k="addr:housenumber" v="19"/>
    <tag k="addr:street" v="Frith Avenue"/>
    <tag k="source" v="survey;nearmap"/>
  </node>
  <node id="969976895" version="1" timestamp="2010-10-30T09:30:35Z" uid="61114" user="Trav" changeset="6224975" lat="-33.7206411" lon="151.1028681">
    <tag k="addr:housenumber" v="17"/>
    <tag k="addr:street" v="Frith Avenue"/>
    <tag k="source" v="survey;nearmap"/>
  </node>
  <node id="969976897" version="1" timestamp="2010-10-30T09:30:35Z" uid="61114" user="Trav" changeset="6224975" lat="-33.7204641" lon="151.1029901">
    <tag k="addr:housenumber" v="15"/>
    <tag k="addr:street" v="Frith Avenue"/>
    <tag k="source" v="survey;nearmap"/>
  </node>
  <node id="969976907" version="1" timestamp="2010-10-30T09:30:36Z" uid="61114" user="Trav" changeset="6224975" lat="-33.7203074" lon="151.1031339">
    <tag k="addr:housenumber" v="11"/>
    <tag k="addr:street" v="Frith Avenue"/>
    <tag k="source" v="survey;nearmap"/>
  </node>
  <node id="969976911" version="1" timestamp="2010-10-30T09:30:36Z" uid="61114" user="Trav" changeset="6224975" lat="-33.7201722" lon="151.103261">
    <tag k="addr:housenumber" v="9"/>
    <tag k="addr:street" v="Frith Avenue"/>
    <tag k="source" v="survey;nearmap"/>
  </node>
  <node id="969976913" version="1" timestamp="2010-10-30T09:30:36Z" uid="61114" user="Trav" changeset="6224975" lat="-33.720095" lon="151.1027294">
    <tag k="addr:housenumber" v="22"/>
    <tag k="addr:street" v="Frith Avenue"/>
    <tag k="source" v="survey;nearmap"/>
  </node>
  <node id="969976916" version="1" timestamp="2010-10-30T09:30:38Z" uid="61114" user="Trav" changeset="6224975" lat="-33.7199072" lon="151.1028822">
    <tag k="addr:housenumber" v="20"/>
    <tag k="addr:street" v="Frith Avenue"/>
    <tag k="source" v="survey;nearmap"/>
  </node>
  <node id="969976930" version="1" timestamp="2010-10-30T09:30:38Z" uid="61114" user="Trav" changeset="6224975" lat="-33.719771" lon="151.1030453">
    <tag k="addr:housenumber" v="18"/>
    <tag k="addr:street" v="Frith Avenue"/>
    <tag k="source" v="survey;nearmap"/>
  </node>
  <node id="969976933" version="1" timestamp="2010-10-30T09:30:38Z" uid="61114" user="Trav" changeset="6224975" lat="-33.7197828" lon="151.1033778">
    <tag k="addr:housenumber" v="14"/>
    <tag k="addr:street" v="Frith Avenue"/>
    <tag k="source" v="survey;nearmap"/>
  </node>
  <node id="969976935" version="1" timestamp="2010-10-30T09:30:38Z" uid="61114" user="Trav" changeset="6224975" lat="-33.7198772" lon="151.1035447">
    <tag k="addr:housenumber" v="12"/>
    <tag k="addr:street" v="Frith Avenue"/>
    <tag k="source" v="survey;nearmap"/>
  </node>
  <node id="969976938" version="1" timestamp="2010-10-30T09:30:38Z" uid="61114" user="Trav" changeset="6224975" lat="-33.7200016" lon="151.1038246">
    <tag k="addr:housenumber" v="10"/>
    <tag k="addr:street" v="Frith Avenue"/>
    <tag k="source" v="survey;nearmap"/>
  </node>
  <node id="969976940" version="1" timestamp="2010-10-30T09:30:38Z" uid="61114" user="Trav" changeset="6224975" lat="-33.7201347" lon="151.1040159">
    <tag k="addr:housenumber" v="8"/>
    <tag k="addr:street" v="Frith Avenue"/>
    <tag k="source" v="survey;nearmap"/>
  </node>
  <node id="969976952" version="1" timestamp="2010-10-30T09:30:39Z" uid="61114" user="Trav" changeset="6224975" lat="-33.7202398" lon="151.1042214">
    <tag k="addr:housenumber" v="6"/>
    <tag k="addr:street" v="Frith Avenue"/>
    <tag k="source" v="survey;nearmap"/>
  </node>
  <node id="969976956" version="1" timestamp="2010-10-30T09:30:39Z" uid="61114" user="Trav" changeset="6224975" lat="-33.7203739" lon="151.1044101">
    <tag k="addr:housenumber" v="4"/>
    <tag k="addr:street" v="Frith Avenue"/>
    <tag k="source" v="survey;nearmap"/>
  </node>
  <node id="969976957" version="1" timestamp="2010-10-30T09:30:39Z" uid="61114" user="Trav" changeset="6224975" lat="-33.720478" lon="151.1045911">
    <tag k="addr:housenumber" v="2"/>
    <tag k="addr:street" v="Frith Avenue"/>
    <tag k="source" v="survey;nearmap"/>
  </node>
  <node id="969976959" version="1" timestamp="2010-10-30T09:30:39Z" uid="61114" user="Trav" changeset="6224975" lat="-33.7206894" lon="151.1048287">
    <tag k="addr:housenumber" v="2a"/>
    <tag k="addr:street" v="Frith Avenue"/>
    <tag k="source" v="survey;nearmap"/>
  </node>
  <node id="969976971" version="1" timestamp="2010-10-30T09:30:39Z" uid="61114" user="Trav" changeset="6224975" lat="-33.7204887" lon="151.1049006">
    <tag k="addr:housenumber" v="2b"/>
    <tag k="addr:street" v="Frith Avenue"/>
    <tag k="source" v="survey;nearmap"/>
  </node>
  <node id="969976976" version="1" timestamp="2010-10-30T09:30:39Z" uid="61114" user="Trav" changeset="6224975" lat="-33.720595" lon="151.10502">
    <tag k="addr:housenumber" v="2c"/>
    <tag k="addr:street" v="Frith Avenue"/>
    <tag k="source" v="survey;nearmap"/>
  </node>
  <node id="969976978" version="1" timestamp="2010-10-30T09:30:39Z" uid="61114" user="Trav" changeset="6224975" lat="-33.7223937" lon="151.1032268">
    <tag k="addr:housenumber" v="47"/>
    <tag k="addr:street" v="Pennant Hills Road"/>
    <tag k="source" v="survey;nearmap"/>
  </node>
  <node id="969976979" version="1" timestamp="2010-10-30T09:30:39Z" uid="61114" user="Trav" changeset="6224975" lat="-33.7224038" lon="151.1030788">
    <tag k="addr:housenumber" v="49"/>
    <tag k="addr:street" v="Pennant Hills Road"/>
    <tag k="source" v="survey;nearmap"/>
  </node>
  <node id="969976986" version="1" timestamp="2010-10-30T09:30:40Z" uid="61114" user="Trav" changeset="6224975" lat="-33.722421" lon="151.1029635">
    <tag k="addr:housenumber" v="49a"/>
    <tag k="addr:street" v="Pennant Hills Road"/>
    <tag k="source" v="survey;nearmap"/>
  </node>
  <node id="969976991" version="1" timestamp="2010-10-30T09:30:40Z" uid="61114" user="Trav" changeset="6224975" lat="-33.7224426" lon="151.1028121">
    <tag k="addr:housenumber" v="51"/>
    <tag k="addr:street" v="Pennant Hills Road"/>
    <tag k="source" v="survey;nearmap"/>
  </node>
  <node id="969976993" version="1" timestamp="2010-10-30T09:30:40Z" uid="61114" user="Trav" changeset="6224975" lat="-33.722526" lon="151.1025712">
    <tag k="addr:housenumber" v="53"/>
    <tag k="addr:street" v="Pennant Hills Road"/>
    <tag k="source" v="survey;nearmap"/>
  </node>
  <node id="969976996" version="1" timestamp="2010-10-30T09:30:40Z" uid="61114" user="Trav" changeset="6224975" lat="-33.7226079" lon="151.1024198">
    <tag k="addr:housenumber" v="55"/>
    <tag k="addr:street" v="Pennant Hills Road"/>
    <tag k="source" v="survey;nearmap"/>
  </node>
  <node id="969977006" version="1" timestamp="2010-10-30T09:30:40Z" uid="61114" user="Trav" changeset="6224975" lat="-33.7227201" lon="151.1022271">
    <tag k="addr:housenumber" v="57"/>
    <tag k="addr:street" v="Pennant Hills Road"/>
    <tag k="source" v="survey;nearmap"/>
  </node>
  <node id="969977008" version="1" timestamp="2010-10-30T09:30:40Z" uid="61114" user="Trav" changeset="6224975" lat="-33.7229141" lon="151.1020293">
    <tag k="addr:housenumber" v="59"/>
    <tag k="addr:street" v="Pennant Hills Road"/>
    <tag k="source" v="survey;nearmap"/>
  </node>
  <node id="969977010" version="1" timestamp="2010-10-30T09:30:41Z" uid="61114" user="Trav" changeset="6224975" lat="-33.7230335" lon="151.1016559">
    <tag k="addr:housenumber" v="63"/>
    <tag k="addr:street" v="Pennant Hills Road"/>
    <tag k="source" v="survey;nearmap"/>
  </node>
  <node id="969977012" version="1" timestamp="2010-10-30T09:30:41Z" uid="61114" user="Trav" changeset="6224975" lat="-33.7232606" lon="151.1016129">
    <tag k="addr:housenumber" v="63a"/>
    <tag k="addr:street" v="Pennant Hills Road"/>
    <tag k="source" v="survey;nearmap"/>
  </node>
  <node id="969977022" version="1" timestamp="2010-10-30T09:30:41Z" uid="61114" user="Trav" changeset="6224975" lat="-33.7238788" lon="151.0998356">
    <tag k="addr:housenumber" v="81"/>
    <tag k="addr:street" v="Pennant Hills Road"/>
    <tag k="source" v="survey;nearmap"/>
  </node>
  <node id="969977023" version="1" timestamp="2010-10-30T09:30:41Z" uid="61114" user="Trav" changeset="6224975" lat="-33.7241649" lon="151.1000834">
    <tag k="addr:housenumber" v="79a"/>
    <tag k="addr:street" v="Pennant Hills Road"/>
    <tag k="source" v="survey;nearmap"/>
  </node>
  <node id="969977025" version="1" timestamp="2010-10-30T09:30:41Z" uid="61114" user="Trav" changeset="6224975" lat="-33.7238443" lon="151.1000111">
    <tag k="addr:housenumber" v="79"/>
    <tag k="addr:street" v="Pennant Hills Road"/>
    <tag k="source" v="survey;nearmap"/>
  </node>
  <node id="969977027" version="1" timestamp="2010-10-30T09:30:41Z" uid="61114" user="Trav" changeset="6224975" lat="-33.7236387" lon="151.1003948">
    <tag k="addr:housenumber" v="75"/>
    <tag k="addr:street" v="Pennant Hills Road"/>
    <tag k="source" v="survey;nearmap"/>
  </node>
  <node id="969977029" version="1" timestamp="2010-10-30T09:30:41Z" uid="61114" user="Trav" changeset="6224975" lat="-33.7235453" lon="151.1006133">
    <tag k="addr:housenumber" v="73"/>
    <tag k="addr:street" v="Pennant Hills Road"/>
    <tag k="source" v="survey;nearmap"/>
  </node>
  <node id="969977045" version="1" timestamp="2010-10-30T09:30:42Z" uid="61114" user="Trav" changeset="6224975" lat="-33.723482" lon="151.1008043">
    <tag k="addr:housenumber" v="71"/>
    <tag k="addr:street" v="Pennant Hills Road"/>
    <tag k="source" v="survey;nearmap"/>
  </node>
  <node id="969977048" version="1" timestamp="2010-10-30T09:30:42Z" uid="61114" user="Trav" changeset="6224975" lat="-33.723922" lon="151.100252">
    <tag k="addr:housenumber" v="77"/>
    <tag k="addr:street" v="Pennant Hills Road"/>
    <tag k="source" v="survey;nearmap"/>
  </node>
  <node id="969977048" version="2" timestamp="2010-11-01T10:17:19Z" uid="61114" user="Trav" changeset="6253122" lat="-33.7237851" lon="151.100233">
    <tag k="addr:housenumber" v="77"/>
    <tag k="addr:street" v="Pennant Hills Road"/>
    <tag k="note" v="Not clear whether 77a is the front or back, guessing the back"/>
    <tag k="source" v="survey;nearmap"/>
  </node>
  <node id="969977052" version="1" timestamp="2010-10-30T09:30:42Z" uid="61114" user="Trav" changeset="6224975" lat="-33.7243072" lon="151.0988085">
    <tag k="addr:housenumber" v="89"/>
    <tag k="addr:street" v="Pennant Hills Road"/>
    <tag k="source" v="survey;nearmap"/>
  </node>
  <node id="969977054" version="1" timestamp="2010-10-30T09:30:42Z" uid="61114" user="Trav" changeset="6224975" lat="-33.7239148" lon="151.098485">
    <tag k="addr:housenumber" v="96"/>
    <tag k="addr:street" v="Pennant Hills Road"/>
    <tag k="source" v="survey;nearmap"/>
  </node>
  <node id="969977071" version="1" timestamp="2010-10-30T09:30:42Z" uid="61114" user="Trav" changeset="6224975" lat="-33.723505" lon="151.099304">
    <tag k="addr:housenumber" v="88"/>
    <tag k="addr:street" v="Pennant Hills Road"/>
    <tag k="source" v="survey;nearmap"/>
  </node>
  <node id="969977075" version="1" timestamp="2010-10-30T09:30:42Z" uid="61114" user="Trav" changeset="6224975" lat="-33.7233685" lon="151.0995535">
    <tag k="addr:housenumber" v="84"/>
    <tag k="addr:street" v="Pennant Hills Road"/>
    <tag k="source" v="survey;nearmap"/>
  </node>
  <node id="969977079" version="1" timestamp="2010-10-30T09:30:43Z" uid="61114" user="Trav" changeset="6224975" lat="-33.7232779" lon="151.0997152">
    <tag k="addr:housenumber" v="82"/>
    <tag k="addr:street" v="Pennant Hills Road"/>
    <tag k="source" v="survey;nearmap"/>
  </node>
  <node id="969977080" version="1" timestamp="2010-10-30T09:30:43Z" uid="61114" user="Trav" changeset="6224975" lat="-33.7229702" lon="151.0998752">
    <tag k="addr:housenumber" v="80"/>
    <tag k="addr:street" v="Pennant Hills Road"/>
    <tag k="note" v="front/back ordering is a guess"/>
    <tag k="source" v="survey;nearmap"/>
  </node>
  <node id="969977099" version="1" timestamp="2010-10-30T09:30:43Z" uid="61114" user="Trav" changeset="6224975" lat="-33.7226841" lon="151.0997135">
    <tag k="addr:housenumber" v="78"/>
    <tag k="addr:street" v="Pennant Hills Road"/>
    <tag k="note" v="front/back ordering is a guess"/>
    <tag k="source" v="survey;nearmap"/>
  </node>
</osm>
