<?xml version='1.0' encoding='UTF-8'?>
<osm version="0.6" generator="libosmium/2.20.0">
  <node id="971468363" version="1" timestamp="2010-10-31T03:11:50Z" uid="7617" user="Franc" changeset="6234803" lat="-33.9259478" lon="151.1395556">
    <tag k="addr:housenumber" v="13"/>
    <tag k="addr:street" v="David Street"/>
    <tag k="source" v="exrapolation"/>
  </node>
  <node id="971468363" version="2" timestamp="2011-05-29T08:32:32Z" uid="7617" user="Franc" changeset="8278454" lat="-33.9259478" lon="151.1395556">
    <tag k="addr:housenumber" v="13"/>
    <tag k="addr:street" v="David Street"/>
    <tag k="source" v="extrapolation"/>
  </node>
  <node id="971468363" version="3" timestamp="2012-02-13T05:12:36Z" uid="7523" user="inas" changeset="10670260" lat="-33.9259478" lon="151.1395556"/>
  <node id="971468364" version="1" timestamp="2010-10-31T03:11:50Z" uid="7617" user="Franc" changeset="6234803" lat="-33.9414065" lon="151.1442328">
    <tag k="addr:housenumber" v="7"/>
    <tag k="addr:street" v="Hattersley Street"/>
    <tag k="source" v="survey"/>
  </node>
  <node id="971468364" version="2" timestamp="2012-02-16T02:51:34Z" uid="7523" user="inas" changeset="10698461" lat="-33.9414065" lon="151.1442328"/>
  <node id="971468365" version="1" timestamp="2010-10-31T03:11:50Z" uid="7617" user="Franc" changeset="6234803" lat="-33.9219992" lon="151.1360587">
    <tag k="addr:housenumber" v="2"/>
    <tag k="addr:street" v="Macquarie Road"/>
    <tag k="source" v="exrapolation"/>
  </node>
  <node id="971468365" version="2" timestamp="2011-05-29T08:32:03Z" uid="7617" user="Franc" changeset="8278454" lat="-33.9219992" lon="151.1360587">
    <tag k="addr:housenumber" v="2"/>
    <tag k="addr:street" v="Macquarie Road"/>
    <tag k="source" v="extrapolation"/>
  </node>
  <node id="971468365" version="3" timestamp="2012-02-13T04:45:01Z" uid="7523" user="inas" changeset="10670200" lat="-33.9219992" lon="151.1360587"/>
  <node id="971468367" version="1" timestamp="2010-10-31T03:11:50Z" uid="7617" user="Franc" changeset="6234803" lat="-33.9257361" lon="151.1405238">
    <tag k="addr:housenumber" v="67"/>
    <tag k="addr:street" v="Highcliff Road"/>
    <tag k="source" v="survey"/>
  </node>
  <node id="971468367" version="2" timestamp="2012-02-13T04:45:11Z" uid="7523" user="inas" changeset="10670200" lat="-33.9257361" lon="151.1405238"/>
  <node id="971468373" version="1" timestamp="2010-10-31T03:11:50Z" uid="7617" user="Franc" changeset="6234803" lat="-33.9381716" lon="151.1460316">
    <tag k="amenity" v="post_office"/>
    <tag k="source" v="survey"/>
  </node>
  <node id="971468373" version="2" timestamp="2012-03-07T22:52:28Z" uid="7523" user="inas" changeset="10904797" lat="-33.9381716" lon="151.1460316"/>
  <node id="971468375" version="1" timestamp="2010-10-31T03:11:50Z" uid="7617" user="Franc" changeset="6234803" lat="-33.9373564" lon="151.1444161"/>
  <node id="971468377" version="1" timestamp="2010-10-31T03:11:50Z" uid="7617" user="Franc" changeset="6234803" lat="-33.925096" lon="151.1416217">
    <tag k="addr:housenumber" v="102"/>
    <tag k="addr:street" v="Bayview Avenue"/>
    <tag k="source" v="survey"/>
  </node>
  <node id="971468377" version="2" timestamp="2012-02-13T04:44:56Z" uid="7523" user="inas" changeset="10670200" lat="-33.925096" lon="151.1416217"/>
  <node id="971468378" version="1" timestamp="2010-10-31T03:11:50Z" uid="7617" user="Franc" changeset="6234803" lat="-33.9252075" lon="151.1613194">
    <tag k="addr:housenumber" v="39"/>
    <tag k="addr:street" v="Wentworth Street"/>
    <tag k="source" v="exrapolation"/>
  </node>
  <node id="971468378" version="2" timestamp="2011-05-29T08:32:59Z" uid="7617" user="Franc" changeset="8278454" lat="-33.9252075" lon="151.1613194">
    <tag k="addr:housenumber" v="39"/>
    <tag k="addr:street" v="Wentworth Street"/>
    <tag k="source" v="extrapolation"/>
  </node>
  <node id="971468378" version="3" timestamp="2012-02-13T05:13:36Z" uid="7523" user="inas" changeset="10670260" lat="-33.9252075" lon="151.1613194"/>
  <node id="971468384" version="1" timestamp="2010-10-31T03:11:51Z" uid="7617" user="Franc" changeset="6234803" lat="-33.9250874" lon="151.1387545">
    <tag k="addr:housenumber" v="1"/>
    <tag k="addr:street" v="Wavell Parade"/>
    <tag k="source" v="survey"/>
  </node>
  <node id="971468384" version="2" timestamp="2012-02-13T05:12:21Z" uid="7523" user="inas" changeset="10670260" lat="-33.9250874" lon="151.1387545"/>
  <node id="971468385" version="1" timestamp="2010-10-31T03:11:51Z" uid="7617" user="Franc" changeset="6234803" lat="-33.9245811" lon="151.1616179">
    <tag k="addr:housenumber" v="65"/>
    <tag k="addr:street" v="Fanning Street"/>
    <tag k="source" v="survey"/>
  </node>
  <node id="971468385" version="2" timestamp="2012-02-13T05:14:00Z" uid="7523" user="inas" changeset="10670260" lat="-33.9245811" lon="151.1616179"/>
  <node id="971468387" version="1" timestamp="2010-10-31T03:11:51Z" uid="7617" user="Franc" changeset="6234803" lat="-33.9239445" lon="151.1333902">
    <tag k="addr:housenumber" v="49"/>
    <tag k="addr:street" v="Macquarie Road"/>
    <tag k="source" v="exrapolation"/>
  </node>
  <node id="971468387" version="2" timestamp="2011-05-29T08:32:36Z" uid="7617" user="Franc" changeset="8278454" lat="-33.9239445" lon="151.1333902">
    <tag k="addr:housenumber" v="49"/>
    <tag k="addr:street" v="Macquarie Road"/>
    <tag k="source" v="extrapolation"/>
  </node>
  <node id="971468387" version="3" timestamp="2012-02-13T05:13:48Z" uid="7523" user="inas" changeset="10670260" lat="-33.9239445" lon="151.1333902"/>
  <node id="971468389" version="1" timestamp="2010-10-31T03:11:51Z" uid="7617" user="Franc" changeset="6234803" lat="-33.9380126" lon="151.1460551"/>
  <node id="971468389" version="2" timestamp="2012-03-25T23:25:14Z" uid="7523" user="inas" changeset="11101029" lat="-33.9380126" lon="151.1460551"/>
  <node id="971468395" version="1" timestamp="2010-10-31T03:11:51Z" uid="7617" user="Franc" changeset="6234803" lat="-33.9257047" lon="151.1390993">
    <tag k="addr:housenumber" v="6"/>
    <tag k="addr:street" v="David Street"/>
    <tag k="source" v="survey"/>
  </node>
  <node id="971468395" version="2" timestamp="2012-02-13T05:13:56Z" uid="7523" user="inas" changeset="10670260" lat="-33.9257047" lon="151.1390993"/>
  <node id="971468397" version="1" timestamp="2010-10-31T03:11:51Z" uid="7617" user="Franc" changeset="6234803" lat="-33.9279508" lon="151.1365792">
    <tag k="leisure" v="playground"/>
  </node>
  <node id="971468398" version="1" timestamp="2010-10-31T03:11:51Z" uid="7617" user="Franc" changeset="6234803" lat="-33.9240831" lon="151.1335694">
    <tag k="addr:housenumber" v="46"/>
    <tag k="addr:street" v="Macquarie Road"/>
    <tag k="source" v="survey"/>
  </node>
  <node id="971468398" version="2" timestamp="2012-02-13T05:13:46Z" uid="7523" user="inas" changeset="10670260" lat="-33.9240831" lon="151.1335694"/>
  <node id="971468400" version="1" timestamp="2010-10-31T03:11:51Z" uid="7617" user="Franc" changeset="6234803" lat="-33.9267264" lon="151.1621167">
    <tag k="addr:housenumber" v="2"/>
    <tag k="addr:street" v="Hart Street"/>
    <tag k="source" v="survey"/>
  </node>
  <node id="971468400" version="2" timestamp="2012-02-13T05:12:57Z" uid="7523" user="inas" changeset="10670260" lat="-33.9267264" lon="151.1621167"/>
  <node id="971468402" version="1" timestamp="2010-10-31T03:11:51Z" uid="7617" user="Franc" changeset="6234803" lat="-33.9257225" lon="151.1392459">
    <tag k="addr:housenumber" v="8"/>
    <tag k="addr:street" v="David Street"/>
    <tag k="source" v="exrapolation"/>
  </node>
  <node id="971468402" version="2" timestamp="2011-05-29T08:33:02Z" uid="7617" user="Franc" changeset="8278454" lat="-33.9257225" lon="151.1392459">
    <tag k="addr:housenumber" v="8"/>
    <tag k="addr:street" v="David Street"/>
    <tag k="source" v="extrapolation"/>
  </node>
  <node id="971468402" version="3" timestamp="2012-02-13T05:14:06Z" uid="7523" user="inas" changeset="10670260" lat="-33.9257225" lon="151.1392459"/>
  <node id="971468405" version="1" timestamp="2010-10-31T03:11:52Z" uid="7617" user="Franc" changeset="6234803" lat="-33.9223521" lon="151.1349402"/>
  <node id="971468405" version="2" timestamp="2012-02-13T12:31:48Z" uid="7523" user="inas" changeset="10672719" lat="-33.9223521" lon="151.1349402"/>
  <node id="971468407" version="1" timestamp="2010-10-31T03:11:52Z" uid="7617" user="Franc" changeset="6234803" lat="-33.9383393" lon="151.114316"/>
  <node id="971468408" version="1" timestamp="2010-10-31T03:11:52Z" uid="7617" user="Franc" changeset="6234803" lat="-33.9257802" lon="151.1398893">
    <tag k="addr:housenumber" v="16"/>
    <tag k="addr:street" v="David Street"/>
    <tag k="source" v="exrapolation"/>
  </node>
  <node id="971468408" version="2" timestamp="2011-05-29T08:31:44Z" uid="7617" user="Franc" changeset="8278454" lat="-33.9257802" lon="151.1398893">
    <tag k="addr:housenumber" v="16"/>
    <tag k="addr:street" v="David Street"/>
    <tag k="source" v="extrapolation"/>
  </node>
  <node id="971468408" version="3" timestamp="2012-02-13T05:12:45Z" uid="7523" user="inas" changeset="10670260" lat="-33.9257802" lon="151.1398893"/>
  <node id="971468411" version="1" timestamp="2010-10-31T03:11:52Z" uid="7617" user="Franc" changeset="6234803" lat="-33.9387892" lon="151.1457769"/>
  <node id="971468412" version="1" timestamp="2010-10-31T03:11:52Z" uid="7617" user="Franc" changeset="6234803" lat="-33.9256271" lon="151.1404973">
    <tag k="addr:housenumber" v="69"/>
    <tag k="addr:street" v="Highcliff Road"/>
    <tag k="source" v="survey"/>
  </node>
  <node id="971468412" version="2" timestamp="2012-02-13T04:45:11Z" uid="7523" user="inas" changeset="10670200" lat="-33.9256271" lon="151.1404973"/>
  <node id="971468420" version="1" timestamp="2010-10-31T03:11:52Z" uid="7617" user="Franc" changeset="6234803" lat="-33.9257601" lon="151.1621079">
    <tag k="addr:housenumber" v="21"/>
    <tag k="addr:street" v="Wentworth Street"/>
    <tag k="source" v="exrapolation"/>
  </node>
  <node id="971468420" version="2" timestamp="2011-05-29T08:32:22Z" uid="7617" user="Franc" changeset="8278454" lat="-33.9257601" lon="151.1621079">
    <tag k="addr:housenumber" v="21"/>
    <tag k="addr:street" v="Wentworth Street"/>
    <tag k="source" v="extrapolation"/>
  </node>
  <node id="971468421" version="1" timestamp="2010-10-31T03:11:52Z" uid="7617" user="Franc" changeset="6234803" lat="-33.9372841" lon="151.1449197"/>
  <node id="971468423" version="1" timestamp="2010-10-31T03:11:52Z" uid="7617" user="Franc" changeset="6234803" lat="-33.9250855" lon="151.1417977">
    <tag k="addr:housenumber" v="100"/>
    <tag k="addr:street" v="Bayview Avenue"/>
    <tag k="source" v="survey"/>
  </node>
  <node id="971468423" version="2" timestamp="2012-02-13T04:44:56Z" uid="7523" user="inas" changeset="10670200" lat="-33.9250855" lon="151.1417977"/>
  <node id="971468426" version="1" timestamp="2010-10-31T03:11:52Z" uid="7617" user="Franc" changeset="6234803" lat="-33.9251023" lon="151.1611737">
    <tag k="addr:housenumber" v="43"/>
    <tag k="addr:street" v="Wentworth Street"/>
    <tag k="source" v="exrapolation"/>
  </node>
  <node id="971468426" version="2" timestamp="2011-05-29T08:31:49Z" uid="7617" user="Franc" changeset="8278454" lat="-33.9251023" lon="151.1611737">
    <tag k="addr:housenumber" v="43"/>
    <tag k="addr:street" v="Wentworth Street"/>
    <tag k="source" v="extrapolation"/>
  </node>
  <node id="971468426" version="3" timestamp="2012-02-13T05:13:44Z" uid="7523" user="inas" changeset="10670260" lat="-33.9251023" lon="151.1611737"/>
  <node id="971468428" version="1" timestamp="2010-10-31T03:11:52Z" uid="7617" user="Franc" changeset="6234803" lat="-33.910846" lon="151.1568125">
    <tag k="addr:housenumber" v="280"/>
    <tag k="addr:street" v="Marrickville Road"/>
    <tag k="source" v="survey"/>
  </node>
  <node id="971468428" version="2" timestamp="2012-02-13T05:26:38Z" uid="7523" user="inas" changeset="10670291" lat="-33.910846" lon="151.1568125"/>
  <node id="971468430" version="1" timestamp="2010-10-31T03:11:52Z" uid="7617" user="Franc" changeset="6234803" lat="-33.9251043" lon="151.1609979">
    <tag k="addr:housenumber" v="46"/>
    <tag k="addr:street" v="Wentworth Street"/>
    <tag k="source" v="exrapolation"/>
  </node>
  <node id="971468430" version="2" timestamp="2011-05-29T08:33:18Z" uid="7617" user="Franc" changeset="8278454" lat="-33.9251043" lon="151.1609979">
    <tag k="addr:housenumber" v="46"/>
    <tag k="addr:street" v="Wentworth Street"/>
    <tag k="source" v="extrapolation"/>
  </node>
  <node id="971468430" version="3" timestamp="2012-02-13T05:13:46Z" uid="7523" user="inas" changeset="10670260" lat="-33.9251043" lon="151.1609979"/>
  <node id="971468432" version="1" timestamp="2010-10-31T03:11:52Z" uid="7617" user="Franc" changeset="6234803" lat="-33.9248576" lon="151.1425151">
    <tag k="addr:housenumber" v="101a"/>
    <tag k="addr:street" v="Bayview Avenue"/>
    <tag k="source" v="survey"/>
  </node>
  <node id="971468432" version="2" timestamp="2012-02-13T04:44:56Z" uid="7523" user="inas" changeset="10670200" lat="-33.9248576" lon="151.1425151"/>
  <node id="971468434" version="1" timestamp="2010-10-31T03:11:52Z" uid="7617" user="Franc" changeset="6234803" lat="-33.9245564" lon="151.132266">
    <tag k="addr:housenumber" v="28"/>
    <tag k="addr:street" v="Wellington Road"/>
    <tag k="source" v="survey"/>
  </node>
  <node id="971468434" version="2" timestamp="2012-02-13T05:13:18Z" uid="7523" user="inas" changeset="10670260" lat="-33.9245564" lon="151.132266"/>
  <node id="971468440" version="1" timestamp="2010-10-31T03:11:53Z" uid="7617" user="Franc" changeset="6234803" lat="-33.9243431" lon="151.1344042">
    <tag k="addr:housenumber" v="3"/>
    <tag k="addr:street" v="Wellington Road"/>
    <tag k="source" v="exrapolation"/>
  </node>
  <node id="971468440" version="2" timestamp="2011-05-29T08:33:04Z" uid="7617" user="Franc" changeset="8278454" lat="-33.9243431" lon="151.1344042">
    <tag k="addr:housenumber" v="3"/>
    <tag k="addr:street" v="Wellington Road"/>
    <tag k="source" v="extrapolation"/>
  </node>
  <node id="971468440" version="3" timestamp="2012-02-13T05:13:25Z" uid="7523" user="inas" changeset="10670260" lat="-33.9243431" lon="151.1344042"/>
  <node id="971468443" version="1" timestamp="2010-10-31T03:11:53Z" uid="7617" user="Franc" changeset="6234803" lat="-33.9277605" lon="151.1361938"/>
  <node id="971468444" version="1" timestamp="2010-10-31T03:11:53Z" uid="7617" user="Franc" changeset="6234803" lat="-33.9258788" lon="151.1390753">
    <tag k="addr:housenumber" v="7"/>
    <tag k="addr:street" v="David Street"/>
    <tag k="source" v="survey"/>
  </node>
  <node id="971468444" version="2" timestamp="2012-02-13T05:14:02Z" uid="7523" user="inas" changeset="10670260" lat="-33.9258788" lon="151.1390753"/>
  <node id="971468447" version="1" timestamp="2010-10-31T03:11:53Z" uid="7617" user="Franc" changeset="6234803" lat="-33.9283501" lon="151.1360485"/>
  <node id="971468448" version="1" timestamp="2010-10-31T03:11:53Z" uid="7617" user="Franc" changeset="6234803" lat="-33.9259746" lon="151.1397288">
    <tag k="addr:housenumber" v="15"/>
    <tag k="addr:street" v="David Street"/>
    <tag k="source" v="exrapolation"/>
  </node>
  <node id="971468448" version="2" timestamp="2011-05-29T08:33:30Z" uid="7617" user="Franc" changeset="8278454" lat="-33.9259746" lon="151.1397288">
    <tag k="addr:housenumber" v="15"/>
    <tag k="addr:street" v="David Street"/>
    <tag k="source" v="extrapolation"/>
  </node>
  <node id="971468448" version="3" timestamp="2012-02-13T05:12:43Z" uid="7523" user="inas" changeset="10670260" lat="-33.9259746" lon="151.1397288"/>
  <node id="971468451" version="1" timestamp="2010-10-31T03:11:53Z" uid="7617" user="Franc" changeset="6234803" lat="-33.9227708" lon="151.1342522"/>
  <node id="971468451" version="2" timestamp="2012-02-13T12:31:48Z" uid="7523" user="inas" changeset="10672719" lat="-33.9227708" lon="151.1342522"/>
  <node id="971468454" version="1" timestamp="2010-10-31T03:11:53Z" uid="7617" user="Franc" changeset="6234803" lat="-33.9257424" lon="151.1394014">
    <tag k="addr:housenumber" v="10"/>
    <tag k="addr:street" v="David Street"/>
    <tag k="source" v="exrapolation"/>
  </node>
  <node id="971468454" version="2" timestamp="2011-05-29T08:33:22Z" uid="7617" user="Franc" changeset="8278454" lat="-33.9257424" lon="151.1394014">
    <tag k="addr:housenumber" v="10"/>
    <tag k="addr:street" v="David Street"/>
    <tag k="source" v="extrapolation"/>
  </node>
  <node id="971468454" version="3" timestamp="2012-02-13T05:12:22Z" uid="7523" user="inas" changeset="10670260" lat="-33.9257424" lon="151.1394014"/>
  <node id="971468456" version="1" timestamp="2010-10-31T03:11:53Z" uid="7617" user="Franc" changeset="6234803" lat="-33.9258657" lon="151.1622574">
    <tag k="addr:housenumber" v="15-17"/>
    <tag k="addr:street" v="Wentworth Street"/>
    <tag k="source" v="survey"/>
  </node>
  <node id="971468456" version="2" timestamp="2012-02-16T03:08:33Z" uid="7523" user="inas" changeset="10698492" lat="-33.9258657" lon="151.1622574"/>
  <node id="971468458" version="1" timestamp="2010-10-31T03:11:53Z" uid="7617" user="Franc" changeset="6234803" lat="-33.9258641" lon="151.1389148">
    <tag k="addr:housenumber" v="5"/>
    <tag k="addr:street" v="David Street"/>
    <tag k="source" v="exrapolation"/>
  </node>
  <node id="971468458" version="2" timestamp="2011-05-29T08:32:35Z" uid="7617" user="Franc" changeset="8278454" lat="-33.9258641" lon="151.1389148">
    <tag k="addr:housenumber" v="5"/>
    <tag k="addr:street" v="David Street"/>
    <tag k="source" v="extrapolation"/>
  </node>
  <node id="971468458" version="3" timestamp="2012-02-13T05:13:49Z" uid="7523" user="inas" changeset="10670260" lat="-33.9258641" lon="151.1389148"/>
  <node id="971468463" version="1" timestamp="2010-10-31T03:11:53Z" uid="7617" user="Franc" changeset="6234803" lat="-33.9383726" lon="151.1452849"/>
  <node id="971468464" version="1" timestamp="2010-10-31T03:11:54Z" uid="7617" user="Franc" changeset="6234803" lat="-33.9251537" lon="151.1612524">
    <tag k="addr:housenumber" v="41"/>
    <tag k="addr:street" v="Wentworth Street"/>
    <tag k="source" v="exrapolation"/>
  </node>
  <node id="971468464" version="2" timestamp="2011-05-29T08:33:08Z" uid="7617" user="Franc" changeset="8278454" lat="-33.9251537" lon="151.1612524">
    <tag k="addr:housenumber" v="41"/>
    <tag k="addr:street" v="Wentworth Street"/>
    <tag k="source" v="extrapolation"/>
  </node>
  <node id="971468464" version="3" timestamp="2012-02-13T05:13:41Z" uid="7523" user="inas" changeset="10670260" lat="-33.9251537" lon="151.1612524"/>
  <node id="971468466" version="1" timestamp="2010-10-31T03:11:54Z" uid="7617" user="Franc" changeset="6234803" lat="-33.9377335" lon="151.1428292"/>
  <node id="971468467" version="1" timestamp="2010-10-31T03:11:54Z" uid="7617" user="Franc" changeset="6234803" lat="-33.9108164" lon="151.1567565">
    <tag k="addr:housenumber" v="282"/>
    <tag k="addr:street" v="Marrickville Road"/>
    <tag k="source" v="survey"/>
  </node>
  <node id="971468467" version="2" timestamp="2012-02-13T05:26:38Z" uid="7523" user="inas" changeset="10670291" lat="-33.9108164" lon="151.1567565"/>
  <node id="971468468" version="1" timestamp="2010-10-31T03:11:54Z" uid="7617" user="Franc" changeset="6234803" lat="-33.9240242" lon="151.1333597">
    <tag k="addr:housenumber" v="51"/>
    <tag k="addr:street" v="Macquarie Road"/>
    <tag k="source" v="exrapolation"/>
  </node>
  <node id="971468468" version="2" timestamp="2011-05-29T08:32:46Z" uid="7617" user="Franc" changeset="8278454" lat="-33.9240242" lon="151.1333597">
    <tag k="addr:housenumber" v="51"/>
    <tag k="addr:street" v="Macquarie Road"/>
    <tag k="source" v="extrapolation"/>
  </node>
  <node id="971468468" version="3" timestamp="2012-02-13T05:13:53Z" uid="7523" user="inas" changeset="10670260" lat="-33.9240242" lon="151.1333597"/>
  <node id="971468471" version="1" timestamp="2010-10-31T03:11:54Z" uid="7617" user="Franc" changeset="6234803" lat="-33.9333381" lon="151.1577748"/>
  <node id="971468474" version="1" timestamp="2010-10-31T03:11:54Z" uid="7617" user="Franc" changeset="6234803" lat="-33.9226489" lon="151.1340779"/>
  <node id="971468475" version="1" timestamp="2010-10-31T03:11:54Z" uid="7617" user="Franc" changeset="6234803" lat="-33.925539" lon="151.1487358">
    <tag k="addr:housenumber" v="15"/>
    <tag k="addr:street" v="Bayview Avenue"/>
    <tag k="source" v="survey"/>
  </node>
  <node id="971468475" version="2" timestamp="2012-02-13T05:12:42Z" uid="7523" user="inas" changeset="10670260" lat="-33.925539" lon="151.1487358"/>
  <node id="971468478" version="1" timestamp="2010-10-31T03:11:54Z" uid="7617" user="Franc" changeset="6234803" lat="-33.9376581" lon="151.1452898"/>
  <node id="971468479" version="1" timestamp="2010-10-31T03:11:54Z" uid="7617" user="Franc" changeset="6234803" lat="-33.9256257" lon="151.1605472">
    <tag k="addr:housenumber" v="64"/>
    <tag k="addr:street" v="Hart Street"/>
    <tag k="source" v="survey"/>
  </node>
  <node id="971468479" version="2" timestamp="2012-02-13T05:14:00Z" uid="7523" user="inas" changeset="10670260" lat="-33.9256257" lon="151.1605472"/>
  <node id="971468486" version="1" timestamp="2010-10-31T03:11:54Z" uid="7617" user="Franc" changeset="6234803" lat="-33.9342898" lon="151.1560853"/>
  <node id="971468487" version="1" timestamp="2010-10-31T03:11:54Z" uid="7617" user="Franc" changeset="6234803" lat="-33.9416674" lon="151.1443532">
    <tag k="addr:housenumber" v="3"/>
    <tag k="addr:street" v="Hattersley Street"/>
    <tag k="source" v="survey"/>
  </node>
  <node id="971468487" version="2" timestamp="2012-02-16T02:51:14Z" uid="7523" user="inas" changeset="10698461" lat="-33.9416674" lon="151.1443532"/>
  <node id="971468490" version="1" timestamp="2010-10-31T03:11:54Z" uid="7617" user="Franc" changeset="6234803" lat="-33.9250433" lon="151.1610904">
    <tag k="addr:housenumber" v="45"/>
    <tag k="addr:street" v="Wentworth Street"/>
    <tag k="source" v="survey"/>
  </node>
  <node id="971468490" version="2" timestamp="2012-02-13T05:13:46Z" uid="7523" user="inas" changeset="10670260" lat="-33.9250433" lon="151.1610904"/>
  <node id="971468492" version="1" timestamp="2010-10-31T03:11:54Z" uid="7617" user="Franc" changeset="6234803" lat="-33.9257041" lon="151.1620319">
    <tag k="addr:housenumber" v="23"/>
    <tag k="addr:street" v="Wentworth Street"/>
    <tag k="source" v="exrapolation"/>
  </node>
  <node id="971468492" version="2" timestamp="2011-05-29T08:33:24Z" uid="7617" user="Franc" changeset="8278454" lat="-33.9257041" lon="151.1620319">
    <tag k="addr:housenumber" v="23"/>
    <tag k="addr:street" v="Wentworth Street"/>
    <tag k="source" v="extrapolation"/>
  </node>
  <node id="971468493" version="1" timestamp="2010-10-31T03:11:54Z" uid="7617" user="Franc" changeset="6234803" lat="-33.9212416" lon="151.1364424">
    <tag k="addr:housenumber" v="83"/>
    <tag k="addr:street" v="Riverview Road"/>
    <tag k="source" v="survey"/>
  </node>
  <node id="971468493" version="2" timestamp="2012-02-13T04:45:13Z" uid="7523" user="inas" changeset="10670200" lat="-33.9212416" lon="151.1364424"/>
  <node id="971468494" version="1" timestamp="2010-10-31T03:11:55Z" uid="7617" user="Franc" changeset="6234803" lat="-33.9326156" lon="151.1364796">
    <tag k="addr:housenumber" v="2"/>
    <tag k="addr:street" v="Mawson Street"/>
    <tag k="source" v="survey"/>
  </node>
  <node id="971468494" version="2" timestamp="2012-02-13T05:12:57Z" uid="7523" user="inas" changeset="10670260" lat="-33.9326156" lon="151.1364796"/>
  <node id="971468495" version="1" timestamp="2010-10-31T03:11:55Z" uid="7617" user="Franc" changeset="6234803" lat="-33.9237669" lon="151.1334901">
    <tag k="addr:housenumber" v="45"/>
    <tag k="addr:street" v="Macquarie Road"/>
    <tag k="source" v="survey"/>
  </node>
  <node id="971468495" version="2" timestamp="2012-02-13T05:13:46Z" uid="7523" user="inas" changeset="10670260" lat="-33.9237669" lon="151.1334901"/>
  <node id="971468497" version="1" timestamp="2010-10-31T03:11:55Z" uid="7617" user="Franc" changeset="6234803" lat="-33.9252044" lon="151.1386746">
    <tag k="addr:housenumber" v="3"/>
    <tag k="addr:street" v="Wavell Parade"/>
    <tag k="source" v="survey"/>
  </node>
  <node id="971468497" version="2" timestamp="2012-02-13T05:13:25Z" uid="7523" user="inas" changeset="10670260" lat="-33.9252044" lon="151.1386746"/>
  <node id="971468503" version="1" timestamp="2010-10-31T03:11:55Z" uid="7617" user="Franc" changeset="6234803" lat="-33.9250586" lon="151.1421644">
    <tag k="addr:housenumber" v="94"/>
    <tag k="addr:street" v="Bayview Avenue"/>
    <tag k="source" v="exrapolation"/>
  </node>
  <node id="971468503" version="2" timestamp="2011-05-29T08:33:27Z" uid="7617" user="Franc" changeset="8278454" lat="-33.9250586" lon="151.1421644">
    <tag k="addr:housenumber" v="94"/>
    <tag k="addr:street" v="Bayview Avenue"/>
    <tag k="source" v="extrapolation"/>
  </node>
  <node id="971468503" version="3" timestamp="2012-02-13T04:45:13Z" uid="7523" user="inas" changeset="10670200" lat="-33.9250586" lon="151.1421644"/>
  <node id="971468505" version="1" timestamp="2010-10-31T03:11:55Z" uid="7617" user="Franc" changeset="6234803" lat="-33.9255641" lon="151.1384269">
    <tag k="addr:housenumber" v="11"/>
    <tag k="addr:street" v="Wavell Parade"/>
    <tag k="source" v="survey"/>
  </node>
  <node id="971468505" version="2" timestamp="2012-02-13T05:12:29Z" uid="7523" user="inas" changeset="10670260" lat="-33.9255641" lon="151.1384269"/>
  <node id="971468508" version="1" timestamp="2010-10-31T03:11:55Z" uid="7617" user="Franc" changeset="6234803" lat="-33.9243724" lon="151.1327337">
    <tag k="addr:housenumber" v="17"/>
    <tag k="addr:street" v="Wellington Road"/>
    <tag k="source" v="survey"/>
  </node>
  <node id="971468508" version="2" timestamp="2012-02-13T05:12:49Z" uid="7523" user="inas" changeset="10670260" lat="-33.9243724" lon="151.1327337"/>
  <node id="971468510" version="1" timestamp="2010-10-31T03:11:55Z" uid="7617" user="Franc" changeset="6234803" lat="-33.9374987" lon="151.1455678"/>
  <node id="971468510" version="2" timestamp="2012-03-25T23:25:14Z" uid="7523" user="inas" changeset="11101029" lat="-33.9374987" lon="151.1455678"/>
  <node id="971468511" version="1" timestamp="2010-10-31T03:11:55Z" uid="7617" user="Franc" changeset="6234803" lat="-33.9243417" lon="151.1342421">
    <tag k="addr:housenumber" v="5"/>
    <tag k="addr:street" v="Wellington Road"/>
    <tag k="source" v="exrapolation"/>
  </node>
  <node id="971468511" version="2" timestamp="2011-05-29T08:32:21Z" uid="7617" user="Franc" changeset="8278454" lat="-33.9243417" lon="151.1342421">
    <tag k="addr:housenumber" v="5"/>
    <tag k="addr:street" v="Wellington Road"/>
    <tag k="source" v="extrapolation"/>
  </node>
  <node id="971468511" version="3" timestamp="2012-02-13T05:13:52Z" uid="7523" user="inas" changeset="10670260" lat="-33.9243417" lon="151.1342421"/>
  <node id="971468516" version="1" timestamp="2010-10-31T03:11:55Z" uid="7617" user="Franc" changeset="6234803" lat="-33.9248332" lon="151.1432232"/>
  <node id="971468516" version="2" timestamp="2012-02-13T04:45:49Z" uid="7523" user="inas" changeset="10670200" lat="-33.9248332" lon="151.1432232"/>
  <node id="971468518" version="1" timestamp="2010-10-31T03:11:55Z" uid="7617" user="Franc" changeset="6234803" lat="-33.9261832" lon="151.1627299">
    <tag k="addr:housenumber" v="5"/>
    <tag k="addr:street" v="Wentworth Street"/>
    <tag k="source" v="survey"/>
  </node>
  <node id="971468518" version="2" timestamp="2012-02-16T03:08:44Z" uid="7523" user="inas" changeset="10698492" lat="-33.9261832" lon="151.1627299"/>
  <node id="971468519" version="1" timestamp="2010-10-31T03:11:55Z" uid="7617" user="Franc" changeset="6234803" lat="-33.9476742" lon="151.1210949"/>
  <node id="971468521" version="1" timestamp="2010-10-31T03:11:56Z" uid="7617" user="Franc" changeset="6234803" lat="-33.9418373" lon="151.1444493">
    <tag k="addr:housenumber" v="1"/>
    <tag k="addr:street" v="Hattersley Street"/>
    <tag k="source" v="extrapolation"/>
  </node>
  <node id="971468521" version="2" timestamp="2012-02-16T02:50:52Z" uid="7523" user="inas" changeset="10698461" lat="-33.9418373" lon="151.1444493"/>
  <node id="971468526" version="1" timestamp="2010-10-31T03:11:56Z" uid="7617" user="Franc" changeset="6234803" lat="-33.9372305" lon="151.144907"/>
  <node id="971468527" version="1" timestamp="2010-10-31T03:11:56Z" uid="7617" user="Franc" changeset="6234803" lat="-33.9220556" lon="151.1355459">
    <tag k="addr:housenumber" v="6"/>
    <tag k="addr:street" v="Macquarie Road"/>
    <tag k="source" v="survey"/>
  </node>
  <node id="971468527" version="2" timestamp="2012-02-13T04:45:10Z" uid="7523" user="inas" changeset="10670200" lat="-33.9220556" lon="151.1355459"/>
  <node id="971468529" version="1" timestamp="2010-10-31T03:11:56Z" uid="7617" user="Franc" changeset="6234803" lat="-33.9255877" lon="151.1618671">
    <tag k="addr:housenumber" v="27"/>
    <tag k="addr:street" v="Wentworth Street"/>
    <tag k="source" v="exrapolation"/>
  </node>
  <node id="971468529" version="2" timestamp="2011-05-29T08:32:34Z" uid="7617" user="Franc" changeset="8278454" lat="-33.9255877" lon="151.1618671">
    <tag k="addr:housenumber" v="27"/>
    <tag k="addr:street" v="Wentworth Street"/>
    <tag k="source" v="extrapolation"/>
  </node>
  <node id="971468529" version="3" timestamp="2012-02-13T05:13:16Z" uid="7523" user="inas" changeset="10670260" lat="-33.9255877" lon="151.1618671"/>
  <node id="971468531" version="1" timestamp="2010-10-31T03:11:56Z" uid="7617" user="Franc" changeset="6234803" lat="-33.9243373" lon="151.1345606">
    <tag k="addr:housenumber" v="1"/>
    <tag k="addr:street" v="Wellington Road"/>
    <tag k="source" v="survey"/>
  </node>
  <node id="971468531" version="2" timestamp="2012-02-13T05:12:21Z" uid="7523" user="inas" changeset="10670260" lat="-33.9243373" lon="151.1345606"/>
  <node id="971468534" version="1" timestamp="2010-10-31T03:11:56Z" uid="7617" user="Franc" changeset="6234803" lat="-33.9241416" lon="151.1332903">
    <tag k="addr:housenumber" v="53"/>
    <tag k="addr:street" v="Macquarie Road"/>
    <tag k="source" v="exrapolation"/>
  </node>
  <node id="971468534" version="2" timestamp="2011-05-29T08:33:13Z" uid="7617" user="Franc" changeset="8278454" lat="-33.9241416" lon="151.1332903">
    <tag k="addr:housenumber" v="53"/>
    <tag k="addr:street" v="Macquarie Road"/>
    <tag k="source" v="extrapolation"/>
  </node>
  <node id="971468534" version="3" timestamp="2012-02-13T05:13:54Z" uid="7523" user="inas" changeset="10670260" lat="-33.9241416" lon="151.1332903"/>
  <node id="971468537" version="1" timestamp="2010-10-31T03:11:56Z" uid="7617" user="Franc" changeset="6234803" lat="-33.9250682" lon="151.1420889">
    <tag k="addr:housenumber" v="96"/>
    <tag k="addr:street" v="Bayview Avenue"/>
    <tag k="source" v="exrapolation"/>
  </node>
  <node id="971468537" version="2" timestamp="2011-05-29T08:33:19Z" uid="7617" user="Franc" changeset="8278454" lat="-33.9250682" lon="151.1420889">
    <tag k="addr:housenumber" v="96"/>
    <tag k="addr:street" v="Bayview Avenue"/>
    <tag k="source" v="extrapolation"/>
  </node>
  <node id="971468537" version="3" timestamp="2012-02-13T04:45:13Z" uid="7523" user="inas" changeset="10670200" lat="-33.9250682" lon="151.1420889"/>
  <node id="971468538" version="1" timestamp="2010-10-31T03:11:56Z" uid="7617" user="Franc" changeset="6234803" lat="-33.9243764" lon="151.1326118">
    <tag k="addr:housenumber" v="19"/>
    <tag k="addr:street" v="Wellington Road"/>
    <tag k="source" v="survey"/>
  </node>
  <node id="971468538" version="2" timestamp="2011-04-26T06:39:19Z" uid="7617" user="Franc" changeset="7971355" lat="-33.9243663" lon="151.1326069">
    <tag k="addr:housenumber" v="19"/>
    <tag k="addr:street" v="Wellington Road"/>
    <tag k="source" v="survey"/>
  </node>
  <node id="971468538" version="3" timestamp="2012-02-13T05:12:54Z" uid="7523" user="inas" changeset="10670260" lat="-33.9243663" lon="151.1326069"/>
  <node id="971468541" version="1" timestamp="2010-10-31T03:11:56Z" uid="7617" user="Franc" changeset="6234803" lat="-33.9376937" lon="151.1457634"/>
  <node id="971468541" version="2" timestamp="2012-03-25T23:25:14Z" uid="7523" user="inas" changeset="11101029" lat="-33.9376937" lon="151.1457634"/>
  <node id="971468542" version="1" timestamp="2010-10-31T03:11:56Z" uid="7617" user="Franc" changeset="6234803" lat="-33.923836" lon="151.1336994">
    <tag k="addr:housenumber" v="42"/>
    <tag k="addr:street" v="Macquarie Road"/>
    <tag k="source" v="survey"/>
  </node>
  <node id="971468542" version="2" timestamp="2012-02-13T05:13:42Z" uid="7523" user="inas" changeset="10670260" lat="-33.923836" lon="151.1336994"/>
  <node id="971468549" version="1" timestamp="2010-10-31T03:11:56Z" uid="7617" user="Franc" changeset="6234803" lat="-33.9250827" lon="151.145153"/>
  <node id="971468549" version="2" timestamp="2012-02-13T04:45:49Z" uid="7523" user="inas" changeset="10670200" lat="-33.9250827" lon="151.145153"/>
  <node id="971468550" version="1" timestamp="2010-10-31T03:11:56Z" uid="7617" user="Franc" changeset="6234803" lat="-33.9256837" lon="151.1389261">
    <tag k="addr:housenumber" v="4"/>
    <tag k="addr:street" v="David Street"/>
    <tag k="source" v="survey"/>
  </node>
  <node id="971468550" version="2" timestamp="2012-02-13T05:13:37Z" uid="7523" user="inas" changeset="10670260" lat="-33.9256837" lon="151.1389261"/>
  <node id="971468553" version="1" timestamp="2010-10-31T03:11:57Z" uid="7617" user="Franc" changeset="6234803" lat="-33.9220715" lon="151.1354474"/>
  <node id="971468553" version="2" timestamp="2012-02-13T12:31:48Z" uid="7523" user="inas" changeset="10672719" lat="-33.9220715" lon="151.1354474"/>
  <node id="971468555" version="1" timestamp="2010-10-31T03:11:57Z" uid="7617" user="Franc" changeset="6234803" lat="-33.9387247" lon="151.1143453"/>
  <node id="971468556" version="1" timestamp="2010-10-31T03:11:57Z" uid="7617" user="Franc" changeset="6234803" lat="-33.9256082" lon="151.1402685">
    <tag k="addr:housenumber" v="70"/>
    <tag k="addr:street" v="Highcliff Road"/>
    <tag k="source" v="survey"/>
  </node>
  <node id="971468556" version="2" timestamp="2012-02-13T05:14:05Z" uid="7523" user="inas" changeset="10670260" lat="-33.9256082" lon="151.1402685"/>
  <node id="971468559" version="1" timestamp="2010-10-31T03:11:57Z" uid="7617" user="Franc" changeset="6234803" lat="-33.9388388" lon="151.1457551"/>
  <node id="971468560" version="1" timestamp="2010-10-31T03:11:57Z" uid="7617" user="Franc" changeset="6234803" lat="-33.9242336" lon="151.1610254">
    <tag k="amenity" v="pub"/>
    <tag k="name" v="Stella"/>
  </node>
  <node id="971468560" version="2" timestamp="2012-02-28T03:26:42Z" uid="7523" user="inas" changeset="10815457" lat="-33.9242336" lon="151.1610254"/>
  <node id="971468561" version="1" timestamp="2010-10-31T03:11:57Z" uid="7617" user="Franc" changeset="6234803" lat="-33.9357928" lon="151.1470833">
    <tag k="addr:housenumber" v="5"/>
    <tag k="addr:street" v="Firth Street"/>
    <tag k="source" v="survey"/>
  </node>
  <node id="971468561" version="2" timestamp="2012-02-16T02:51:27Z" uid="7523" user="inas" changeset="10698461" lat="-33.9357928" lon="151.1470833"/>
  <node id="971468564" version="1" timestamp="2010-10-31T03:11:57Z" uid="7617" user="Franc" changeset="6234803" lat="-33.9256481" lon="151.1619532">
    <tag k="addr:housenumber" v="25"/>
    <tag k="addr:street" v="Wentworth Street"/>
    <tag k="source" v="exrapolation"/>
  </node>
  <node id="971468564" version="2" timestamp="2011-05-29T08:32:32Z" uid="7617" user="Franc" changeset="8278454" lat="-33.9256481" lon="151.1619532">
    <tag k="addr:housenumber" v="25"/>
    <tag k="addr:street" v="Wentworth Street"/>
    <tag k="source" v="extrapolation"/>
  </node>
  <node id="971468564" version="3" timestamp="2012-02-13T05:13:11Z" uid="7523" user="inas" changeset="10670260" lat="-33.9256481" lon="151.1619532"/>
  <node id="971468566" version="1" timestamp="2010-10-31T03:11:57Z" uid="7617" user="Franc" changeset="6234803" lat="-33.9217121" lon="151.1361172">
    <tag k="addr:housenumber" v="79"/>
    <tag k="addr:street" v="Riverview Road"/>
    <tag k="source" v="exrapolation"/>
  </node>
  <node id="971468566" version="2" timestamp="2011-05-29T08:32:42Z" uid="7617" user="Franc" changeset="8278454" lat="-33.9217121" lon="151.1361172">
    <tag k="addr:housenumber" v="79"/>
    <tag k="addr:street" v="Riverview Road"/>
    <tag k="source" v="extrapolation"/>
  </node>
  <node id="971468566" version="3" timestamp="2012-02-13T04:45:12Z" uid="7523" user="inas" changeset="10670200" lat="-33.9217121" lon="151.1361172"/>
  <node id="971468572" version="1" timestamp="2010-10-31T03:11:57Z" uid="7617" user="Franc" changeset="6234803" lat="-33.9226683" lon="151.1342119"/>
  <node id="971468574" version="1" timestamp="2010-10-31T03:11:57Z" uid="7617" user="Franc" changeset="6234803" lat="-33.9381087" lon="151.1461978"/>
  <node id="971468576" version="1" timestamp="2010-10-31T03:11:57Z" uid="7617" user="Franc" changeset="6234803" lat="-33.9245233" lon="151.1321281">
    <tag k="addr:housenumber" v="30"/>
    <tag k="addr:street" v="Wellington Road"/>
    <tag k="source" v="survey"/>
  </node>
  <node id="971468576" version="2" timestamp="2012-02-13T05:13:26Z" uid="7523" user="inas" changeset="10670260" lat="-33.9245233" lon="151.1321281"/>
  <node id="971468578" version="1" timestamp="2010-10-31T03:11:57Z" uid="7617" user="Franc" changeset="6234803" lat="-33.9243444" lon="151.1340608">
    <tag k="addr:housenumber" v="7"/>
    <tag k="addr:street" v="Wellington Road"/>
    <tag k="source" v="exrapolation"/>
  </node>
  <node id="971468578" version="2" timestamp="2011-05-29T08:32:24Z" uid="7617" user="Franc" changeset="8278454" lat="-33.9243444" lon="151.1340608">
    <tag k="addr:housenumber" v="7"/>
    <tag k="addr:street" v="Wellington Road"/>
    <tag k="source" v="extrapolation"/>
  </node>
  <node id="971468578" version="3" timestamp="2012-02-13T05:14:04Z" uid="7523" user="inas" changeset="10670260" lat="-33.9243444" lon="151.1340608"/>
  <node id="971468579" version="1" timestamp="2010-10-31T03:11:57Z" uid="7617" user="Franc" changeset="6234803" lat="-33.9258759" lon="151.1398364"/>
  <node id="971468582" version="1" timestamp="2010-10-31T03:11:58Z" uid="7617" user="Franc" changeset="6234803" lat="-33.9218934" lon="151.1353551">
    <tag k="addr:housenumber" v="9"/>
    <tag k="addr:street" v="Macquarie Road"/>
    <tag k="source" v="survey"/>
  </node>
  <node id="971468582" version="2" timestamp="2012-02-13T04:45:13Z" uid="7523" user="inas" changeset="10670200" lat="-33.9218934" lon="151.1353551"/>
  <node id="971468585" version="1" timestamp="2010-10-31T03:11:58Z" uid="7617" user="Franc" changeset="6234803" lat="-33.9256606" lon="151.138734">
    <tag k="addr:housenumber" v="2"/>
    <tag k="addr:street" v="David Street"/>
    <tag k="source" v="exrapolation"/>
  </node>
  <node id="971468585" version="2" timestamp="2011-05-29T08:32:09Z" uid="7617" user="Franc" changeset="8278454" lat="-33.9256606" lon="151.138734">
    <tag k="addr:housenumber" v="2"/>
    <tag k="addr:street" v="David Street"/>
    <tag k="source" v="extrapolation"/>
  </node>
  <node id="971468585" version="3" timestamp="2012-02-13T05:12:56Z" uid="7523" user="inas" changeset="10670260" lat="-33.9256606" lon="151.138734"/>
  <node id="971468587" version="1" timestamp="2010-10-31T03:11:58Z" uid="7617" user="Franc" changeset="6234803" lat="-33.9293746" lon="151.1378157"/>
  <node id="971468589" version="1" timestamp="2010-10-31T03:11:58Z" uid="7617" user="Franc" changeset="6234803" lat="-33.9239514" lon="151.133637">
    <tag k="addr:housenumber" v="44"/>
    <tag k="addr:street" v="Macquarie Road"/>
    <tag k="source" v="exrapolation"/>
  </node>
  <node id="971468589" version="2" timestamp="2011-05-29T08:31:45Z" uid="7617" user="Franc" changeset="8278454" lat="-33.9239514" lon="151.133637">
    <tag k="addr:housenumber" v="44"/>
    <tag k="addr:street" v="Macquarie Road"/>
    <tag k="source" v="extrapolation"/>
  </node>
  <node id="971468589" version="3" timestamp="2012-02-13T05:13:45Z" uid="7523" user="inas" changeset="10670260" lat="-33.9239514" lon="151.133637"/>
  <node id="971468591" version="1" timestamp="2010-10-31T03:11:58Z" uid="7617" user="Franc" changeset="6234803" lat="-33.9262614" lon="151.1626438">
    <tag k="addr:housenumber" v="6"/>
    <tag k="addr:street" v="Wentworth Street"/>
    <tag k="source" v="survey"/>
  </node>
  <node id="971468591" version="2" timestamp="2012-02-13T05:13:58Z" uid="7523" user="inas" changeset="10670260" lat="-33.9262614" lon="151.1626438"/>
  <node id="971468596" version="1" timestamp="2010-10-31T03:11:58Z" uid="7617" user="Franc" changeset="6234803" lat="-33.9257645" lon="151.1395821">
    <tag k="addr:housenumber" v="12"/>
    <tag k="addr:street" v="David Street"/>
    <tag k="source" v="exrapolation"/>
  </node>
  <node id="971468596" version="2" timestamp="2011-05-29T08:33:20Z" uid="7617" user="Franc" changeset="8278454" lat="-33.9257645" lon="151.1395821">
    <tag k="addr:housenumber" v="12"/>
    <tag k="addr:street" v="David Street"/>
    <tag k="source" v="extrapolation"/>
  </node>
  <node id="971468596" version="3" timestamp="2012-02-13T05:12:32Z" uid="7523" user="inas" changeset="10670260" lat="-33.9257645" lon="151.1395821"/>
  <node id="971468599" version="1" timestamp="2010-10-31T03:11:58Z" uid="7617" user="Franc" changeset="6234803" lat="-33.9258442" lon="151.1387593">
    <tag k="addr:housenumber" v="3"/>
    <tag k="addr:street" v="David Street"/>
    <tag k="source" v="exrapolation"/>
  </node>
  <node id="971468599" version="2" timestamp="2011-05-29T08:32:39Z" uid="7617" user="Franc" changeset="8278454" lat="-33.9258442" lon="151.1387593">
    <tag k="addr:housenumber" v="3"/>
    <tag k="addr:street" v="David Street"/>
    <tag k="source" v="extrapolation"/>
  </node>
  <node id="971468599" version="3" timestamp="2012-02-13T05:13:22Z" uid="7523" user="inas" changeset="10670260" lat="-33.9258442" lon="151.1387593"/>
  <node id="971468600" version="1" timestamp="2010-10-31T03:11:58Z" uid="7617" user="Franc" changeset="6234803" lat="-33.9386709" lon="151.1456037"/>
  <node id="971468602" version="1" timestamp="2010-10-31T03:11:58Z" uid="7617" user="Franc" changeset="6234803" lat="-33.9251652" lon="151.1610849">
    <tag k="addr:housenumber" v="44"/>
    <tag k="addr:street" v="Wentworth Street"/>
    <tag k="source" v="survey"/>
  </node>
  <node id="971468602" version="2" timestamp="2012-02-13T05:13:45Z" uid="7523" user="inas" changeset="10670260" lat="-33.9251652" lon="151.1610849"/>
  <node id="971468605" version="1" timestamp="2010-10-31T03:11:58Z" uid="7617" user="Franc" changeset="6234803" lat="-33.9394677" lon="151.1144498"/>
  <node id="971468607" version="1" timestamp="2010-10-31T03:11:58Z" uid="7617" user="Franc" changeset="6234803" lat="-33.9255324" lon="151.1617857">
    <tag k="addr:housenumber" v="29"/>
    <tag k="addr:street" v="Wentworth Street"/>
    <tag k="source" v="exrapolation"/>
  </node>
  <node id="971468607" version="2" timestamp="2011-05-29T08:33:24Z" uid="7617" user="Franc" changeset="8278454" lat="-33.9255324" lon="151.1617857">
    <tag k="addr:housenumber" v="29"/>
    <tag k="addr:street" v="Wentworth Street"/>
    <tag k="source" v="extrapolation"/>
  </node>
  <node id="971468607" version="3" timestamp="2012-02-13T05:13:20Z" uid="7523" user="inas" changeset="10670260" lat="-33.9255324" lon="151.1617857"/>
  <node id="971468608" version="1" timestamp="2010-10-31T03:11:58Z" uid="7617" user="Franc" changeset="6234803" lat="-33.9378895" lon="151.1449676"/>
  <node id="971468611" version="1" timestamp="2010-10-31T03:11:58Z" uid="7617" user="Franc" changeset="6234803" lat="-33.9213128" lon="151.1355853"/>
  <node id="971468612" version="1" timestamp="2010-10-31T03:11:58Z" uid="7617" user="Franc" changeset="6234803" lat="-33.9227233" lon="151.134152"/>
  <node id="971468613" version="1" timestamp="2010-10-31T03:11:59Z" uid="7617" user="Franc" changeset="6234803" lat="-33.9247004" lon="151.1616104">
    <tag k="addr:housenumber" v="68"/>
    <tag k="addr:street" v="Fanning Street"/>
    <tag k="source" v="survey"/>
  </node>
  <node id="971468613" version="2" timestamp="2012-02-13T05:14:01Z" uid="7523" user="inas" changeset="10670260" lat="-33.9247004" lon="151.1616104"/>
  <node id="971468620" version="1" timestamp="2010-10-31T03:11:59Z" uid="7617" user="Franc" changeset="6234803" lat="-33.9315979" lon="151.1350492"/>
  <node id="971468623" version="1" timestamp="2010-10-31T03:11:59Z" uid="7617" user="Franc" changeset="6234803" lat="-33.9107873" lon="151.156699">
    <tag k="addr:housenumber" v="284"/>
    <tag k="addr:street" v="Marrickville Road"/>
    <tag k="source" v="survey"/>
  </node>
  <node id="971468623" version="2" timestamp="2012-02-13T05:26:39Z" uid="7523" user="inas" changeset="10670291" lat="-33.9107873" lon="151.156699"/>
  <node id="971468624" version="1" timestamp="2010-10-31T03:11:59Z" uid="7617" user="Franc" changeset="6234803" lat="-33.9253156" lon="151.1385988">
    <tag k="addr:housenumber" v="5"/>
    <tag k="addr:street" v="Wavell Parade"/>
    <tag k="source" v="survey"/>
  </node>
  <node id="971468624" version="2" timestamp="2012-02-13T05:13:52Z" uid="7523" user="inas" changeset="10670260" lat="-33.9253156" lon="151.1385988"/>
  <node id="971468626" version="1" timestamp="2010-10-31T03:11:59Z" uid="7617" user="Franc" changeset="6234803" lat="-33.9377136" lon="151.1457411"/>
  <node id="971468626" version="2" timestamp="2012-03-25T23:25:15Z" uid="7523" user="inas" changeset="11101029" lat="-33.9377136" lon="151.1457411"/>
  <node id="971468627" version="1" timestamp="2010-10-31T03:11:59Z" uid="7617" user="Franc" changeset="6234803" lat="-33.9379642" lon="151.1460345"/>
  <node id="971468628" version="1" timestamp="2010-10-31T03:11:59Z" uid="7617" user="Franc" changeset="6234803" lat="-33.941712" lon="151.132041">
    <tag k="highway" v="crossing"/>
  </node>
  <node id="971468630" version="1" timestamp="2010-10-31T03:11:59Z" uid="7617" user="Franc" changeset="6234803" lat="-33.9341756" lon="151.1561529"/>
  <node id="971468631" version="1" timestamp="2010-10-31T03:11:59Z" uid="7617" user="Franc" changeset="6234803" lat="-33.9251769" lon="151.1389425">
    <tag k="addr:housenumber" v="2"/>
    <tag k="addr:street" v="Wavell Parade"/>
    <tag k="source" v="survey"/>
  </node>
  <node id="971468631" version="2" timestamp="2012-02-13T05:12:59Z" uid="7523" user="inas" changeset="10670260" lat="-33.9251769" lon="151.1389425"/>
  <node id="971468633" version="1" timestamp="2010-10-31T03:11:59Z" uid="7617" user="Franc" changeset="6234803" lat="-33.9341478" lon="151.158072"/>
  <node id="971468633" version="2" timestamp="2012-02-17T01:12:44Z" uid="7523" user="inas" changeset="10707292" lat="-33.9341478" lon="151.158072"/>
  <node id="971468635" version="1" timestamp="2010-10-31T03:11:59Z" uid="7617" user="Franc" changeset="6234803" lat="-33.9378701" lon="151.1450959"/>
  <node id="971468637" version="1" timestamp="2010-10-31T03:11:59Z" uid="7617" user="Franc" changeset="6234803" lat="-33.9218114" lon="151.1354955">
    <tag k="addr:housenumber" v="7"/>
    <tag k="addr:street" v="Macquarie Road"/>
    <tag k="source" v="survey"/>
  </node>
  <node id="971468637" version="2" timestamp="2012-02-13T04:45:11Z" uid="7523" user="inas" changeset="10670200" lat="-33.9218114" lon="151.1354955"/>
  <node id="971468643" version="1" timestamp="2010-10-31T03:12:00Z" uid="7617" user="Franc" changeset="6234803" lat="-33.942116" lon="151.144302">
    <tag k="addr:housenumber" v="251"/>
    <tag k="addr:street" v="Princes Highway"/>
    <tag k="source" v="survey"/>
  </node>
  <node id="971468643" version="2" timestamp="2011-04-26T13:35:11Z" uid="7617" user="Franc" changeset="7974869" lat="-33.9421038" lon="151.1442873">
    <tag k="addr:housenumber" v="251"/>
    <tag k="addr:street" v="Princes Highway"/>
    <tag k="source" v="survey"/>
  </node>
  <node id="971468643" version="3" timestamp="2012-03-07T22:51:53Z" uid="7523" user="inas" changeset="10904797" lat="-33.9421038" lon="151.1442873"/>
  <node id="971468646" version="1" timestamp="2010-10-31T03:12:00Z" uid="7617" user="Franc" changeset="6234803" lat="-33.9260847" lon="151.1625693">
    <tag k="addr:housenumber" v="9"/>
    <tag k="addr:street" v="Wentworth Street"/>
    <tag k="source" v="exrapolation"/>
  </node>
  <node id="971468646" version="2" timestamp="2011-05-29T08:32:20Z" uid="7617" user="Franc" changeset="8278454" lat="-33.9260847" lon="151.1625693">
    <tag k="addr:housenumber" v="9"/>
    <tag k="addr:street" v="Wentworth Street"/>
    <tag k="source" v="extrapolation"/>
  </node>
  <node id="971468648" version="1" timestamp="2010-10-31T03:12:00Z" uid="7617" user="Franc" changeset="6234803" lat="-33.9220434" lon="151.1367181"/>
  <node id="971468649" version="1" timestamp="2010-10-31T03:12:00Z" uid="7617" user="Franc" changeset="6234803" lat="-33.939442" lon="151.1145036"/>
  <node id="971468652" version="1" timestamp="2010-10-31T03:12:00Z" uid="7617" user="Franc" changeset="6234803" lat="-33.9332706" lon="151.1541594">
    <tag k="addr:housenumber" v="5"/>
    <tag k="addr:street" v="Gertrude Street"/>
    <tag k="source" v="survey"/>
  </node>
  <node id="971468652" version="2" timestamp="2012-02-13T05:13:50Z" uid="7523" user="inas" changeset="10670260" lat="-33.9332706" lon="151.1541594"/>
  <node id="971468655" version="1" timestamp="2010-10-31T03:12:00Z" uid="7617" user="Franc" changeset="6234803" lat="-33.9236709" lon="151.1335343">
    <tag k="addr:housenumber" v="43"/>
    <tag k="addr:street" v="Macquarie Road"/>
    <tag k="source" v="survey"/>
  </node>
  <node id="971468655" version="2" timestamp="2012-02-13T05:13:44Z" uid="7523" user="inas" changeset="10670260" lat="-33.9236709" lon="151.1335343"/>
  <node id="971468656" version="1" timestamp="2010-10-31T03:12:00Z" uid="7617" user="Franc" changeset="6234803" lat="-33.9107609" lon="151.1566415">
    <tag k="addr:housenumber" v="286"/>
    <tag k="addr:street" v="Marrickville Road"/>
    <tag k="source" v="survey"/>
  </node>
  <node id="971468656" version="2" timestamp="2012-02-13T05:26:39Z" uid="7523" user="inas" changeset="10670291" lat="-33.9107609" lon="151.1566415"/>
  <node id="971468658" version="1" timestamp="2010-10-31T03:12:00Z" uid="7617" user="Franc" changeset="6234803" lat="-33.9254288" lon="151.1385204">
    <tag k="addr:housenumber" v="7"/>
    <tag k="addr:street" v="Wavell Parade"/>
    <tag k="source" v="survey"/>
  </node>
  <node id="971468658" version="2" timestamp="2012-02-13T05:14:04Z" uid="7523" user="inas" changeset="10670260" lat="-33.9254288" lon="151.1385204"/>
  <node id="971468662" version="1" timestamp="2010-10-31T03:12:00Z" uid="7617" user="Franc" changeset="6234803" lat="-33.9255424" lon="151.1472228">
    <tag k="addr:housenumber" v="35"/>
    <tag k="addr:street" v="Bayview Avenue"/>
    <tag k="source" v="survey"/>
  </node>
  <node id="971468662" version="2" timestamp="2012-02-13T05:13:31Z" uid="7523" user="inas" changeset="10670260" lat="-33.9255424" lon="151.1472228"/>
  <node id="971468664" version="1" timestamp="2010-10-31T03:12:00Z" uid="7617" user="Franc" changeset="6234803" lat="-33.9259711" lon="151.1398779">
    <tag k="addr:housenumber" v="17"/>
    <tag k="addr:street" v="David Street"/>
    <tag k="source" v="survey"/>
  </node>
  <node id="971468664" version="2" timestamp="2012-02-13T05:12:47Z" uid="7523" user="inas" changeset="10670260" lat="-33.9259711" lon="151.1398779"/>
  <node id="971468667" version="1" timestamp="2010-10-31T03:12:00Z" uid="7617" user="Franc" changeset="6234803" lat="-33.9339478" lon="151.1577199"/>
  <node id="971468667" version="2" timestamp="2012-02-17T01:12:44Z" uid="7523" user="inas" changeset="10707292" lat="-33.9339478" lon="151.1577199"/>
  <node id="971468668" version="1" timestamp="2010-10-31T03:12:00Z" uid="7617" user="Franc" changeset="6234803" lat="-33.938457" lon="151.145889">
    <tag k="addr:housenumber" v="42"/>
    <tag k="addr:street" v="Firth Street"/>
    <tag k="source" v="survey"/>
  </node>
  <node id="971468668" version="2" timestamp="2012-02-16T02:51:24Z" uid="7523" user="inas" changeset="10698461" lat="-33.938457" lon="151.145889"/>
  <node id="971468670" version="1" timestamp="2010-10-31T03:12:00Z" uid="7617" user="Franc" changeset="6234803" lat="-33.9216217" lon="151.1360327">
    <tag k="addr:housenumber" v="81"/>
    <tag k="addr:street" v="Riverview Road"/>
    <tag k="source" v="survey"/>
  </node>
  <node id="971468670" version="2" timestamp="2012-02-13T04:45:13Z" uid="7523" user="inas" changeset="10670200" lat="-33.9216217" lon="151.1360327"/>
  <node id="971468673" version="1" timestamp="2010-10-31T03:12:01Z" uid="7617" user="Franc" changeset="6234803" lat="-33.9254562" lon="151.1616734">
    <tag k="addr:housenumber" v="31"/>
    <tag k="addr:street" v="Wentworth Street"/>
    <tag k="source" v="exrapolation"/>
  </node>
  <node id="971468673" version="2" timestamp="2011-05-29T08:33:00Z" uid="7617" user="Franc" changeset="8278454" lat="-33.9254562" lon="151.1616734">
    <tag k="addr:housenumber" v="31"/>
    <tag k="addr:street" v="Wentworth Street"/>
    <tag k="source" v="extrapolation"/>
  </node>
  <node id="971468673" version="3" timestamp="2012-02-13T05:13:27Z" uid="7523" user="inas" changeset="10670260" lat="-33.9254562" lon="151.1616734"/>
  <node id="971468675" version="1" timestamp="2010-10-31T03:12:01Z" uid="7617" user="Franc" changeset="6234803" lat="-33.9256668" lon="151.1385888"/>
  <node id="971468677" version="1" timestamp="2010-10-31T03:12:01Z" uid="7617" user="Franc" changeset="6234803" lat="-33.9239439" lon="151.1374055">
    <tag k="addr:housenumber" v="167"/>
    <tag k="addr:street" v="Bayview Avenue"/>
    <tag k="source" v="survey"/>
  </node>
  <node id="971468677" version="2" timestamp="2012-02-13T05:12:47Z" uid="7523" user="inas" changeset="10670260" lat="-33.9239439" lon="151.1374055"/>
  <node id="971468678" version="1" timestamp="2010-10-31T03:12:01Z" uid="7617" user="Franc" changeset="6234803" lat="-33.9250811" lon="151.1419687">
    <tag k="addr:housenumber" v="98"/>
    <tag k="addr:street" v="Bayview Avenue"/>
    <tag k="source" v="exrapolation"/>
  </node>
  <node id="971468678" version="2" timestamp="2011-05-29T08:31:50Z" uid="7617" user="Franc" changeset="8278454" lat="-33.9250811" lon="151.1419687">
    <tag k="addr:housenumber" v="98"/>
    <tag k="addr:street" v="Bayview Avenue"/>
    <tag k="source" v="extrapolation"/>
  </node>
  <node id="971468678" version="3" timestamp="2012-02-13T04:45:14Z" uid="7523" user="inas" changeset="10670200" lat="-33.9250811" lon="151.1419687"/>
  <node id="971468684" version="1" timestamp="2010-10-31T03:12:01Z" uid="7617" user="Franc" changeset="6234803" lat="-33.925799" lon="151.163178">
    <tag k="addr:housenumber" v="2"/>
    <tag k="addr:street" v="Fanning Street"/>
    <tag k="source" v="exrapolation"/>
  </node>
  <node id="971468684" version="2" timestamp="2011-05-29T08:32:21Z" uid="7617" user="Franc" changeset="8278454" lat="-33.925799" lon="151.163178">
    <tag k="addr:housenumber" v="2"/>
    <tag k="addr:street" v="Fanning Street"/>
    <tag k="source" v="extrapolation"/>
  </node>
  <node id="971468684" version="3" timestamp="2012-02-13T05:12:57Z" uid="7523" user="inas" changeset="10670260" lat="-33.925799" lon="151.163178"/>
  <node id="971468687" version="1" timestamp="2010-10-31T03:12:01Z" uid="7617" user="Franc" changeset="6234803" lat="-33.9255043" lon="151.1384673">
    <tag k="addr:housenumber" v="9"/>
    <tag k="addr:street" v="Wavell Parade"/>
    <tag k="source" v="survey"/>
  </node>
  <node id="971468687" version="2" timestamp="2012-02-13T05:14:13Z" uid="7523" user="inas" changeset="10670260" lat="-33.9255043" lon="151.1384673"/>
  <node id="971468689" version="1" timestamp="2010-10-31T03:12:01Z" uid="7617" user="Franc" changeset="6234803" lat="-33.9266595" lon="151.1621985">
    <tag k="addr:housenumber" v="1"/>
    <tag k="addr:street" v="Hart Street"/>
    <tag k="source" v="exrapolation"/>
  </node>
  <node id="971468689" version="2" timestamp="2011-05-29T08:32:36Z" uid="7617" user="Franc" changeset="8278454" lat="-33.9266595" lon="151.1621985">
    <tag k="addr:housenumber" v="1"/>
    <tag k="addr:street" v="Hart Street"/>
    <tag k="source" v="extrapolation"/>
  </node>
  <node id="971468690" version="1" timestamp="2010-10-31T03:12:01Z" uid="7617" user="Franc" changeset="6234803" lat="-33.9243564" lon="151.1338698">
    <tag k="addr:housenumber" v="9"/>
    <tag k="addr:street" v="Wellington Road"/>
    <tag k="source" v="survey"/>
  </node>
  <node id="971468690" version="2" timestamp="2012-02-13T05:14:13Z" uid="7523" user="inas" changeset="10670260" lat="-33.9243564" lon="151.1338698"/>
  <node id="971468692" version="1" timestamp="2010-10-31T03:12:01Z" uid="7617" user="Franc" changeset="6234803" lat="-33.9256367" lon="151.1484309">
    <tag k="addr:housenumber" v="19"/>
    <tag k="addr:street" v="Bayview Avenue"/>
    <tag k="source" v="exrapolation"/>
  </node>
  <node id="971468692" version="2" timestamp="2011-05-29T08:33:05Z" uid="7617" user="Franc" changeset="8278454" lat="-33.9256367" lon="151.1484309">
    <tag k="addr:housenumber" v="19"/>
    <tag k="addr:street" v="Bayview Avenue"/>
    <tag k="source" v="extrapolation"/>
  </node>
  <node id="971468692" version="3" timestamp="2012-02-13T05:12:53Z" uid="7523" user="inas" changeset="10670260" lat="-33.9256367" lon="151.1484309"/>
  <node id="971468693" version="1" timestamp="2010-10-31T03:12:01Z" uid="7617" user="Franc" changeset="6234803" lat="-33.9376467" lon="151.1458355"/>
  <node id="971468693" version="2" timestamp="2012-03-25T23:25:15Z" uid="7523" user="inas" changeset="11101029" lat="-33.9376467" lon="151.1458355"/>
  <node id="971468694" version="1" timestamp="2010-10-31T03:12:01Z" uid="7617" user="Franc" changeset="6234803" lat="-33.9257844" lon="151.1397111">
    <tag k="addr:housenumber" v="14"/>
    <tag k="addr:street" v="David Street"/>
    <tag k="source" v="survey"/>
  </node>
  <node id="971468694" version="2" timestamp="2012-02-13T05:12:39Z" uid="7523" user="inas" changeset="10670260" lat="-33.9257844" lon="151.1397111"/>
  <node id="971468695" version="1" timestamp="2010-10-31T03:12:01Z" uid="7617" user="Franc" changeset="6234803" lat="-33.9254452" lon="151.1464892"/>
  <node id="971468695" version="2" timestamp="2012-02-13T04:45:49Z" uid="7523" user="inas" changeset="10670200" lat="-33.9254452" lon="151.1464892"/>
  <node id="971468698" version="1" timestamp="2010-10-31T03:12:01Z" uid="7617" user="Franc" changeset="6234803" lat="-33.9330301" lon="151.1541395">
    <tag k="addr:housenumber" v="4"/>
    <tag k="addr:street" v="Gertrude Street"/>
    <tag k="source" v="survey"/>
  </node>
  <node id="971468698" version="2" timestamp="2012-02-13T05:13:38Z" uid="7523" user="inas" changeset="10670260" lat="-33.9330301" lon="151.1541395"/>
  <node id="971468701" version="1" timestamp="2010-10-31T03:12:02Z" uid="7617" user="Franc" changeset="6234803" lat="-33.926029" lon="151.1624923">
    <tag k="addr:housenumber" v="11"/>
    <tag k="addr:street" v="Wentworth Street"/>
    <tag k="source" v="survey"/>
  </node>
  <node id="971468701" version="2" timestamp="2012-02-16T03:08:27Z" uid="7523" user="inas" changeset="10698492" lat="-33.926029" lon="151.1624923"/>
  <node id="971468704" version="1" timestamp="2010-10-31T03:12:02Z" uid="7617" user="Franc" changeset="6234803" lat="-33.9386466" lon="151.1143355"/>
  <node id="971468705" version="1" timestamp="2010-10-31T03:12:02Z" uid="7617" user="Franc" changeset="6234803" lat="-33.9415456" lon="151.1442914">
    <tag k="addr:housenumber" v="5"/>
    <tag k="addr:street" v="Hattersley Street"/>
    <tag k="source" v="survey"/>
  </node>
  <node id="971468705" version="2" timestamp="2012-02-16T02:51:27Z" uid="7523" user="inas" changeset="10698461" lat="-33.9415456" lon="151.1442914"/>
  <node id="971468707" version="1" timestamp="2010-10-31T03:12:02Z" uid="7617" user="Franc" changeset="6234803" lat="-33.936945" lon="151.1448933"/>
  <node id="971468712" version="1" timestamp="2010-10-31T03:12:02Z" uid="7617" user="Franc" changeset="6234803" lat="-33.947779" lon="151.1225538"/>
  <node id="971468714" version="1" timestamp="2010-10-31T03:12:02Z" uid="7617" user="Franc" changeset="6234803" lat="-33.9257345" lon="151.1632551">
    <tag k="addr:housenumber" v="1"/>
    <tag k="addr:street" v="Fanning Street"/>
    <tag k="source" v="survey"/>
  </node>
  <node id="971468714" version="2" timestamp="2012-02-13T05:12:19Z" uid="7523" user="inas" changeset="10670260" lat="-33.9257345" lon="151.1632551"/>
  <node id="971468717" version="1" timestamp="2010-10-31T03:12:02Z" uid="7617" user="Franc" changeset="6234803" lat="-33.937515" lon="151.146591">
    <tag k="amenity" v="toilets"/>
  </node>
  <node id="971468717" version="2" timestamp="2012-03-07T22:52:28Z" uid="7523" user="inas" changeset="10904797" lat="-33.937515" lon="151.146591"/>
  <node id="971468718" version="1" timestamp="2010-10-31T03:12:02Z" uid="7617" user="Franc" changeset="6234803" lat="-33.9253149" lon="151.1614778">
    <tag k="addr:housenumber" v="35"/>
    <tag k="addr:street" v="Wentworth Street"/>
    <tag k="source" v="exrapolation"/>
  </node>
  <node id="971468718" version="2" timestamp="2011-05-29T08:33:20Z" uid="7617" user="Franc" changeset="8278454" lat="-33.9253149" lon="151.1614778">
    <tag k="addr:housenumber" v="35"/>
    <tag k="addr:street" v="Wentworth Street"/>
    <tag k="source" v="extrapolation"/>
  </node>
  <node id="971468718" version="3" timestamp="2012-02-13T05:13:32Z" uid="7523" user="inas" changeset="10670260" lat="-33.9253149" lon="151.1614778"/>
  <node id="971468720" version="1" timestamp="2010-10-31T03:12:02Z" uid="7617" user="Franc" changeset="6234803" lat="-33.9255826" lon="151.1485949">
    <tag k="addr:housenumber" v="17"/>
    <tag k="addr:street" v="Bayview Avenue"/>
    <tag k="source" v="exrapolation"/>
  </node>
  <node id="971468720" version="2" timestamp="2011-05-29T08:32:22Z" uid="7617" user="Franc" changeset="8278454" lat="-33.9255826" lon="151.1485949">
    <tag k="addr:housenumber" v="17"/>
    <tag k="addr:street" v="Bayview Avenue"/>
    <tag k="source" v="extrapolation"/>
  </node>
  <node id="971468720" version="3" timestamp="2012-02-13T05:12:47Z" uid="7523" user="inas" changeset="10670260" lat="-33.9255826" lon="151.1485949"/>
  <node id="971468723" version="1" timestamp="2010-10-31T03:12:02Z" uid="7617" user="Franc" changeset="6234803" lat="-33.9255098" lon="151.1605608">
    <tag k="addr:housenumber" v="67"/>
    <tag k="addr:street" v="Hart Street"/>
    <tag k="source" v="survey"/>
  </node>
  <node id="971468723" version="2" timestamp="2012-02-13T05:14:00Z" uid="7523" user="inas" changeset="10670260" lat="-33.9255098" lon="151.1605608"/>
  <node id="971468725" version="1" timestamp="2010-10-31T03:12:02Z" uid="7617" user="Franc" changeset="6234803" lat="-33.9265794" lon="151.1363922"/>
  <node id="971468727" version="1" timestamp="2010-10-31T03:12:02Z" uid="7617" user="Franc" changeset="6234803" lat="-33.9379257" lon="151.14611"/>
  <node id="971468727" version="2" timestamp="2012-03-25T23:25:15Z" uid="7523" user="inas" changeset="11101029" lat="-33.9379257" lon="151.14611"/>
  <node id="971468728" version="1" timestamp="2010-10-31T03:12:02Z" uid="7617" user="Franc" changeset="6234803" lat="-33.9258263" lon="151.1385912">
    <tag k="addr:housenumber" v="1"/>
    <tag k="addr:street" v="David Street"/>
    <tag k="source" v="exrapolation"/>
  </node>
  <node id="971468728" version="2" timestamp="2011-05-29T08:33:07Z" uid="7617" user="Franc" changeset="8278454" lat="-33.9258263" lon="151.1385912">
    <tag k="addr:housenumber" v="1"/>
    <tag k="addr:street" v="David Street"/>
    <tag k="source" v="extrapolation"/>
  </node>
  <node id="971468728" version="3" timestamp="2012-02-13T05:12:19Z" uid="7523" user="inas" changeset="10670260" lat="-33.9258263" lon="151.1385912"/>
  <node id="971468730" version="1" timestamp="2010-10-31T03:12:02Z" uid="7617" user="Franc" changeset="6234803" lat="-33.9383231" lon="151.1143416"/>
  <node id="971468736" version="1" timestamp="2010-10-31T03:12:03Z" uid="7617" user="Franc" changeset="6234803" lat="-33.9259741" lon="151.1624125">
    <tag k="addr:housenumber" v="13"/>
    <tag k="addr:street" v="Wentworth Street"/>
    <tag k="source" v="survey"/>
  </node>
  <node id="971468736" version="2" timestamp="2012-02-16T03:08:30Z" uid="7523" user="inas" changeset="10698492" lat="-33.9259741" lon="151.1624125"/>
  <node id="971468739" version="1" timestamp="2010-10-31T03:12:03Z" uid="7617" user="Franc" changeset="6234803" lat="-33.9383941" lon="151.1142964"/>
  <node id="971468740" version="1" timestamp="2010-10-31T03:12:03Z" uid="7617" user="Franc" changeset="6234803" lat="-33.9249186" lon="151.1415723">
    <tag k="addr:housenumber" v="113"/>
    <tag k="addr:street" v="Bayview Avenue"/>
    <tag k="source" v="survey"/>
  </node>
  <node id="971468740" version="2" timestamp="2012-02-13T04:44:57Z" uid="7523" user="inas" changeset="10670200" lat="-33.9249186" lon="151.1415723"/>
  <node id="971468742" version="1" timestamp="2010-10-31T03:12:03Z" uid="7617" user="Franc" changeset="6234803" lat="-33.9253761" lon="151.161562">
    <tag k="addr:housenumber" v="33"/>
    <tag k="addr:street" v="Wentworth Street"/>
    <tag k="source" v="exrapolation"/>
  </node>
  <node id="971468742" version="2" timestamp="2011-05-29T08:32:07Z" uid="7617" user="Franc" changeset="8278454" lat="-33.9253761" lon="151.161562">
    <tag k="addr:housenumber" v="33"/>
    <tag k="addr:street" v="Wentworth Street"/>
    <tag k="source" v="extrapolation"/>
  </node>
  <node id="971468742" version="3" timestamp="2012-02-13T05:13:29Z" uid="7523" user="inas" changeset="10670260" lat="-33.9253761" lon="151.161562"/>
  <node id="971468743" version="1" timestamp="2010-10-31T03:12:03Z" uid="7617" user="Franc" changeset="6234803" lat="-33.9243195" lon="151.1333184"/>
  <node id="971468749" version="1" timestamp="2010-10-31T03:12:03Z" uid="7617" user="Franc" changeset="6234803" lat="-33.9378887" lon="151.1454442"/>
  <node id="971468749" version="2" timestamp="2012-03-25T23:25:15Z" uid="7523" user="inas" changeset="11101029" lat="-33.9378887" lon="151.1454442"/>
  <node id="971468750" version="1" timestamp="2010-10-31T03:12:03Z" uid="7617" user="Franc" changeset="6234803" lat="-33.9378588" lon="151.1454408"/>
  <node id="971468752" version="1" timestamp="2010-10-31T03:12:03Z" uid="7617" user="Franc" changeset="6234803" lat="-33.9256558" lon="151.1482774">
    <tag k="addr:housenumber" v="21"/>
    <tag k="addr:street" v="Bayview Avenue"/>
    <tag k="source" v="exrapolation"/>
  </node>
  <node id="971468752" version="2" timestamp="2011-05-29T08:31:54Z" uid="7617" user="Franc" changeset="8278454" lat="-33.9256558" lon="151.1482774">
    <tag k="addr:housenumber" v="21"/>
    <tag k="addr:street" v="Bayview Avenue"/>
    <tag k="source" v="extrapolation"/>
  </node>
  <node id="971468752" version="3" timestamp="2012-02-13T05:13:02Z" uid="7523" user="inas" changeset="10670260" lat="-33.9256558" lon="151.1482774"/>
  <node id="971468753" version="1" timestamp="2010-10-31T03:12:03Z" uid="7617" user="Franc" changeset="6234803" lat="-33.9244778" lon="151.1318939"/>
  <node id="971468756" version="1" timestamp="2010-10-31T03:12:03Z" uid="7617" user="Franc" changeset="6234803" lat="-33.9376225" lon="151.1452555"/>
  <node id="971468756" version="2" timestamp="2012-03-25T23:25:15Z" uid="7523" user="inas" changeset="11101029" lat="-33.9376225" lon="151.1452555"/>
  <node id="971468757" version="1" timestamp="2010-10-31T03:12:03Z" uid="7617" user="Franc" changeset="6234803" lat="-33.924846" lon="151.1428223">
    <tag k="addr:housenumber" v="97"/>
    <tag k="addr:street" v="Bayview Avenue"/>
    <tag k="source" v="survey"/>
  </node>
  <node id="971468757" version="2" timestamp="2012-02-13T04:45:14Z" uid="7523" user="inas" changeset="10670200" lat="-33.924846" lon="151.1428223"/>
  <node id="971468761" version="1" timestamp="2010-10-31T03:12:03Z" uid="7617" user="Franc" changeset="6234803" lat="-33.9259209" lon="151.139409">
    <tag k="addr:housenumber" v="11"/>
    <tag k="addr:street" v="David Street"/>
    <tag k="source" v="exrapolation"/>
  </node>
  <node id="971468761" version="2" timestamp="2011-05-29T08:31:46Z" uid="7617" user="Franc" changeset="8278454" lat="-33.9259209" lon="151.139409">
    <tag k="addr:housenumber" v="11"/>
    <tag k="addr:street" v="David Street"/>
    <tag k="source" v="extrapolation"/>
  </node>
  <node id="971468761" version="3" timestamp="2012-02-13T05:12:28Z" uid="7523" user="inas" changeset="10670260" lat="-33.9259209" lon="151.139409"/>
  <node id="971468762" version="1" timestamp="2010-10-31T03:12:03Z" uid="7617" user="Franc" changeset="6234803" lat="-33.9390573" lon="151.1456488">
    <tag k="addr:housenumber" v="48"/>
    <tag k="addr:street" v="Firth Street"/>
    <tag k="source" v="survey"/>
  </node>
  <node id="971468762" version="2" timestamp="2012-02-16T02:51:26Z" uid="7523" user="inas" changeset="10698461" lat="-33.9390573" lon="151.1456488"/>
  <node id="971468764" version="1" timestamp="2010-10-31T03:12:04Z" uid="7617" user="Franc" changeset="6234803" lat="-33.9261328" lon="151.1626491">
    <tag k="addr:housenumber" v="7"/>
    <tag k="addr:street" v="Wentworth Street"/>
    <tag k="source" v="exrapolation"/>
  </node>
  <node id="971468764" version="2" timestamp="2011-05-29T08:32:15Z" uid="7617" user="Franc" changeset="8278454" lat="-33.9261328" lon="151.1626491">
    <tag k="addr:housenumber" v="7"/>
    <tag k="addr:street" v="Wentworth Street"/>
    <tag k="source" v="extrapolation"/>
  </node>
  <node id="971468765" version="1" timestamp="2010-10-31T03:12:04Z" uid="7617" user="Franc" changeset="6234803" lat="-33.9370768" lon="151.1453411"/>
  <node id="971468770" version="1" timestamp="2010-10-31T03:12:04Z" uid="7617" user="Franc" changeset="6234803" lat="-33.9220283" lon="151.1358103">
    <tag k="addr:housenumber" v="4"/>
    <tag k="addr:street" v="Macquarie Road"/>
    <tag k="source" v="exrapolation"/>
  </node>
  <node id="971468770" version="2" timestamp="2011-05-29T08:33:14Z" uid="7617" user="Franc" changeset="8278454" lat="-33.9220283" lon="151.1358103">
    <tag k="addr:housenumber" v="4"/>
    <tag k="addr:street" v="Macquarie Road"/>
    <tag k="source" v="extrapolation"/>
  </node>
  <node id="971468770" version="3" timestamp="2012-02-13T04:45:06Z" uid="7523" user="inas" changeset="10670200" lat="-33.9220283" lon="151.1358103"/>
  <node id="971468773" version="1" timestamp="2010-10-31T03:12:04Z" uid="7617" user="Franc" changeset="6234803" lat="-33.92581" lon="151.1621731">
    <tag k="addr:housenumber" v="19"/>
    <tag k="addr:street" v="Wentworth Street"/>
    <tag k="source" v="exrapolation"/>
  </node>
  <node id="971468773" version="2" timestamp="2011-05-29T08:31:52Z" uid="7617" user="Franc" changeset="8278454" lat="-33.92581" lon="151.1621731">
    <tag k="addr:housenumber" v="19"/>
    <tag k="addr:street" v="Wentworth Street"/>
    <tag k="source" v="extrapolation"/>
  </node>
  <node id="971468774" version="1" timestamp="2010-10-31T03:12:04Z" uid="7617" user="Franc" changeset="6234803" lat="-33.9394618" lon="151.1143842"/>
  <node id="971468777" version="1" timestamp="2010-10-31T03:12:04Z" uid="7617" user="Franc" changeset="6234803" lat="-33.9216376" lon="151.1364177">
    <tag k="addr:housenumber" v="79a"/>
    <tag k="addr:street" v="Riverview Road"/>
    <tag k="source" v="survey"/>
  </node>
  <node id="971468777" version="2" timestamp="2012-02-13T04:45:12Z" uid="7523" user="inas" changeset="10670200" lat="-33.9216376" lon="151.1364177"/>
  <node id="971468778" version="1" timestamp="2010-10-31T03:12:04Z" uid="7617" user="Franc" changeset="6234803" lat="-33.9252597" lon="151.1613972">
    <tag k="addr:housenumber" v="37"/>
    <tag k="addr:street" v="Wentworth Street"/>
    <tag k="source" v="exrapolation"/>
  </node>
  <node id="971468778" version="2" timestamp="2011-05-29T08:32:08Z" uid="7617" user="Franc" changeset="8278454" lat="-33.9252597" lon="151.1613972">
    <tag k="addr:housenumber" v="37"/>
    <tag k="addr:street" v="Wentworth Street"/>
    <tag k="source" v="extrapolation"/>
  </node>
  <node id="971468778" version="3" timestamp="2012-02-13T05:13:34Z" uid="7523" user="inas" changeset="10670260" lat="-33.9252597" lon="151.1613972"/>
  <node id="971468785" version="1" timestamp="2010-10-31T03:12:04Z" uid="7617" user="Franc" changeset="6234803" lat="-33.9331758" lon="151.1539946">
    <tag k="addr:housenumber" v="3"/>
    <tag k="addr:street" v="Gertrude Street"/>
    <tag k="source" v="survey"/>
  </node>
  <node id="971468785" version="2" timestamp="2012-02-13T05:13:23Z" uid="7523" user="inas" changeset="10670260" lat="-33.9331758" lon="151.1539946"/>
  <node id="971468787" version="1" timestamp="2010-10-31T03:12:04Z" uid="7617" user="Franc" changeset="6234803" lat="-33.9242353" lon="151.1332403">
    <tag k="addr:housenumber" v="55"/>
    <tag k="addr:street" v="Macquarie Road"/>
    <tag k="source" v="survey"/>
  </node>
  <node id="971468787" version="2" timestamp="2012-02-13T05:13:55Z" uid="7523" user="inas" changeset="10670260" lat="-33.9242353" lon="151.1332403"/>
  <node id="971468788" version="1" timestamp="2010-10-31T03:12:04Z" uid="7617" user="Franc" changeset="6234803" lat="-33.9246479" lon="151.1615353">
    <tag k="addr:housenumber" v="70"/>
    <tag k="addr:street" v="Fanning Street"/>
    <tag k="source" v="exrapolation"/>
  </node>
  <node id="971468788" version="2" timestamp="2011-05-29T08:32:18Z" uid="7617" user="Franc" changeset="8278454" lat="-33.9246479" lon="151.1615353">
    <tag k="addr:housenumber" v="70"/>
    <tag k="addr:street" v="Fanning Street"/>
    <tag k="source" v="extrapolation"/>
  </node>
  <node id="971468788" version="3" timestamp="2012-02-13T05:14:04Z" uid="7523" user="inas" changeset="10670260" lat="-33.9246479" lon="151.1615353"/>
  <node id="971468789" version="1" timestamp="2010-10-31T03:12:05Z" uid="7617" user="Franc" changeset="6234803" lat="-33.9238509" lon="151.1334414">
    <tag k="addr:housenumber" v="47"/>
    <tag k="addr:street" v="Macquarie Road"/>
    <tag k="source" v="exrapolation"/>
  </node>
  <node id="971468789" version="2" timestamp="2011-05-29T08:33:19Z" uid="7617" user="Franc" changeset="8278454" lat="-33.9238509" lon="151.1334414">
    <tag k="addr:housenumber" v="47"/>
    <tag k="addr:street" v="Macquarie Road"/>
    <tag k="source" v="extrapolation"/>
  </node>
  <node id="971468789" version="3" timestamp="2012-02-13T05:13:47Z" uid="7523" user="inas" changeset="10670260" lat="-33.9238509" lon="151.1334414"/>
  <node id="971468790" version="1" timestamp="2010-10-31T03:12:05Z" uid="7617" user="Franc" changeset="6234803" lat="-33.9377293" lon="151.1452829"/>
  <node id="971468790" version="2" timestamp="2012-03-25T23:25:15Z" uid="7523" user="inas" changeset="11101029" lat="-33.9377293" lon="151.1452829"/>
  <node id="971468792" version="1" timestamp="2010-10-31T03:12:05Z" uid="7617" user="Franc" changeset="6234803" lat="-33.9266001" lon="151.1621141">
    <tag k="addr:housenumber" v="3"/>
    <tag k="addr:street" v="Hart Street"/>
    <tag k="source" v="survey"/>
  </node>
  <node id="971468792" version="2" timestamp="2012-02-13T05:13:23Z" uid="7523" user="inas" changeset="10670260" lat="-33.9266001" lon="151.1621141"/>
  <node id="971468794" version="1" timestamp="2010-10-31T03:12:05Z" uid="7617" user="Franc" changeset="6234803" lat="-33.942985" lon="151.130319"/>
  <node id="971468796" version="1" timestamp="2010-10-31T03:12:05Z" uid="7617" user="Franc" changeset="6234803" lat="-33.9255693" lon="151.1604701">
    <tag k="addr:housenumber" v="66"/>
    <tag k="addr:street" v="Hart Street"/>
    <tag k="source" v="survey"/>
  </node>
  <node id="971468796" version="2" timestamp="2012-02-13T05:14:00Z" uid="7523" user="inas" changeset="10670260" lat="-33.9255693" lon="151.1604701"/>
  <node id="971468802" version="1" timestamp="2010-10-31T03:12:05Z" uid="7617" user="Franc" changeset="6234803" lat="-33.9242958" lon="151.1320334"/>
  <node id="971468803" version="1" timestamp="2010-10-31T03:12:05Z" uid="7617" user="Franc" changeset="6234803" lat="-33.9259046" lon="151.1392497">
    <tag k="addr:housenumber" v="9"/>
    <tag k="addr:street" v="David Street"/>
    <tag k="source" v="exrapolation"/>
  </node>
  <node id="971468803" version="2" timestamp="2011-05-29T08:33:17Z" uid="7617" user="Franc" changeset="8278454" lat="-33.9259046" lon="151.1392497">
    <tag k="addr:housenumber" v="9"/>
    <tag k="addr:street" v="David Street"/>
    <tag k="source" v="extrapolation"/>
  </node>
  <node id="971468803" version="3" timestamp="2012-02-13T05:14:11Z" uid="7523" user="inas" changeset="10670260" lat="-33.9259046" lon="151.1392497"/>
  <node id="971468806" version="1" timestamp="2010-10-31T03:12:05Z" uid="7617" user="Franc" changeset="6234803" lat="-33.9371839" lon="151.1453188"/>
  <node id="971468807" version="1" timestamp="2010-10-31T03:12:05Z" uid="7617" user="Franc" changeset="6234803" lat="-33.9324629" lon="151.1329892"/>
  <node id="971468809" version="1" timestamp="2010-10-31T03:12:05Z" uid="7617" user="Franc" changeset="6234803" lat="-33.937205" lon="151.1449155"/>
  <node id="971468811" version="1" timestamp="2010-10-31T03:12:05Z" uid="7617" user="Franc" changeset="6234803" lat="-33.931534" lon="151.135529">
    <tag k="addr:housenumber" v="40"/>
    <tag k="addr:street" v="Rickard Street"/>
    <tag k="source" v="survey"/>
  </node>
  <node id="971468811" version="2" timestamp="2012-02-13T05:13:41Z" uid="7523" user="inas" changeset="10670260" lat="-33.931534" lon="151.135529"/>
  <node id="971468815" version="1" timestamp="2010-10-31T03:12:05Z" uid="7617" user="Franc" changeset="6234803" lat="-33.9359035" lon="151.1470315">
    <tag k="addr:housenumber" v="7-10"/>
    <tag k="addr:street" v="Firth Street"/>
    <tag k="source" v="survey"/>
  </node>
  <node id="971468815" version="2" timestamp="2012-02-16T02:51:34Z" uid="7523" user="inas" changeset="10698461" lat="-33.9359035" lon="151.1470315"/>
  <node id="971468816" version="1" timestamp="2010-10-31T03:12:05Z" uid="7617" user="Franc" changeset="6234803" lat="-33.9256512" lon="151.1383687">
    <tag k="addr:housenumber" v="13"/>
    <tag k="addr:street" v="Wavell Parade"/>
    <tag k="source" v="survey"/>
  </node>
  <node id="971468816" version="2" timestamp="2012-02-13T05:12:37Z" uid="7523" user="inas" changeset="10670260" lat="-33.9256512" lon="151.1383687"/>
  <node id="971468819" version="1" timestamp="2010-10-31T03:12:05Z" uid="7617" user="Franc" changeset="6234803" lat="-33.9256436" lon="151.1479116">
    <tag k="addr:housenumber" v="25"/>
    <tag k="addr:street" v="Bayview Avenue"/>
    <tag k="source" v="survey"/>
  </node>
  <node id="971468819" version="2" timestamp="2012-02-13T05:13:11Z" uid="7523" user="inas" changeset="10670260" lat="-33.9256436" lon="151.1479116"/>
  <node id="971468821" version="1" timestamp="2010-10-31T03:12:05Z" uid="7617" user="Franc" changeset="6234803" lat="-33.9384341" lon="151.1460363"/>
  <node id="971468825" version="1" timestamp="2010-10-31T03:12:06Z" uid="7617" user="Franc" changeset="6234803" lat="-33.9258714" lon="151.1397502"/>
  <node id="971468826" version="1" timestamp="2010-10-31T03:12:06Z" uid="7617" user="Franc" changeset="6234803" lat="-33.9256471" lon="151.1480882">
    <tag k="addr:housenumber" v="23"/>
    <tag k="addr:street" v="Bayview Avenue"/>
    <tag k="source" v="exrapolation"/>
  </node>
  <node id="971468826" version="2" timestamp="2011-05-29T08:32:35Z" uid="7617" user="Franc" changeset="8278454" lat="-33.9256471" lon="151.1480882">
    <tag k="addr:housenumber" v="23"/>
    <tag k="addr:street" v="Bayview Avenue"/>
    <tag k="source" v="extrapolation"/>
  </node>
  <node id="971468826" version="3" timestamp="2012-02-13T05:13:06Z" uid="7523" user="inas" changeset="10670260" lat="-33.9256471" lon="151.1480882"/>
  <node id="971468828" version="1" timestamp="2010-10-31T03:12:06Z" uid="7617" user="Franc" changeset="6234803" lat="-33.9375969" lon="151.1454254"/>
  <node id="971468828" version="2" timestamp="2012-03-25T23:25:15Z" uid="7523" user="inas" changeset="11101029" lat="-33.9375969" lon="151.1454254"/>
</osm>
