<?xml version='1.0' encoding='UTF-8'?>
<osm version="0.6" generator="libosmium/2.20.0">
  <node id="977693156" version="2" timestamp="2011-05-05T15:22:48Z" uid="115477" user="wowik" changeset="8057723" lat="55.7694619" lon="37.6922495"/>
  <node id="977693156" version="3" timestamp="2011-05-16T05:54:54Z" uid="65083" user="deep125" changeset="8159157" lat="55.7694624" lon="37.6922569"/>
  <node id="977698577" version="4" timestamp="2011-05-27T19:12:02Z" uid="107674" user="GeoCounter" changeset="8265766" lat="49.8805062" lon="8.9799166">
    <tag k="operator" v="HEAG Südhessische Energie AG (HSE)"/>
    <tag k="power" v="generator"/>
    <tag k="power_source" v="wind"/>
    <tag k="url" v="http://www.hse.ag/geschaeftsfelder/erzeugung/windenergie/windpark-binselberg.html"/>
  </node>
  <node id="977698577" version="5" timestamp="2011-06-04T04:14:28Z" uid="297482" user="don-vip" changeset="8335705" lat="49.8805062" lon="8.9799166">
    <tag k="generator:source" v="wind"/>
    <tag k="operator" v="HEAG Südhessische Energie AG (HSE)"/>
    <tag k="power" v="generator"/>
    <tag k="power_source" v="wind"/>
    <tag k="url" v="http://www.hse.ag/geschaeftsfelder/erzeugung/windenergie/windpark-binselberg.html"/>
  </node>
  <node id="977698577" version="6" timestamp="2012-02-14T21:42:17Z" uid="590907" user="cbdavis" changeset="10686992" lat="49.8805062" lon="8.9799166">
    <tag k="generator:source" v="wind"/>
    <tag k="operator" v="HEAG Südhessische Energie AG (HSE)"/>
    <tag k="power" v="generator"/>
    <tag k="url" v="http://www.hse.ag/geschaeftsfelder/erzeugung/windenergie/windpark-binselberg.html"/>
  </node>
  <node id="977698577" version="7" timestamp="2012-02-15T12:29:46Z" uid="590907" user="cbdavis" changeset="10690119" lat="49.8805062" lon="8.9799166">
    <tag k="generator:source" v="wind"/>
    <tag k="operator" v="HEAG Südhessische Energie AG (HSE)"/>
    <tag k="power" v="generator"/>
    <tag k="power_source" v="wind"/>
    <tag k="url" v="http://www.hse.ag/geschaeftsfelder/erzeugung/windenergie/windpark-binselberg.html"/>
  </node>
  <node id="977698585" version="4" timestamp="2011-05-27T19:12:02Z" uid="107674" user="GeoCounter" changeset="8265766" lat="49.8782667" lon="8.9804463">
    <tag k="operator" v="HEAG Südhessische Energie AG (HSE)"/>
    <tag k="power" v="generator"/>
    <tag k="power_source" v="wind"/>
    <tag k="url" v="http://www.hse.ag/geschaeftsfelder/erzeugung/windenergie/windpark-binselberg.html"/>
  </node>
  <node id="977698585" version="5" timestamp="2011-06-04T04:14:28Z" uid="297482" user="don-vip" changeset="8335705" lat="49.8782667" lon="8.9804463">
    <tag k="generator:source" v="wind"/>
    <tag k="operator" v="HEAG Südhessische Energie AG (HSE)"/>
    <tag k="power" v="generator"/>
    <tag k="power_source" v="wind"/>
    <tag k="url" v="http://www.hse.ag/geschaeftsfelder/erzeugung/windenergie/windpark-binselberg.html"/>
  </node>
  <node id="977698585" version="6" timestamp="2012-02-14T21:42:18Z" uid="590907" user="cbdavis" changeset="10686992" lat="49.8782667" lon="8.9804463">
    <tag k="generator:source" v="wind"/>
    <tag k="operator" v="HEAG Südhessische Energie AG (HSE)"/>
    <tag k="power" v="generator"/>
    <tag k="url" v="http://www.hse.ag/geschaeftsfelder/erzeugung/windenergie/windpark-binselberg.html"/>
  </node>
  <node id="977698585" version="7" timestamp="2012-02-15T12:29:46Z" uid="590907" user="cbdavis" changeset="10690119" lat="49.8782667" lon="8.9804463">
    <tag k="generator:source" v="wind"/>
    <tag k="operator" v="HEAG Südhessische Energie AG (HSE)"/>
    <tag k="power" v="generator"/>
    <tag k="power_source" v="wind"/>
    <tag k="url" v="http://www.hse.ag/geschaeftsfelder/erzeugung/windenergie/windpark-binselberg.html"/>
  </node>
</osm>
