<?xml version='1.0' encoding='UTF-8'?>
<osm version="0.6" generator="libosmium/2.20.0">
  <node id="979594180" version="2" timestamp="2011-01-22T06:48:02Z" uid="30201" user="rrankin" changeset="7047289" lat="-33.8055452" lon="151.177818"/>
  <node id="979596058" version="1" timestamp="2010-11-06T20:19:15Z" uid="20587" user="balrog-kun" changeset="6305910" lat="52.2210221" lon="21.0167805">
    <tag k="amenity" v="restaurant"/>
    <tag k="name" v="Lanse"/>
  </node>
  <node id="979596063" version="1" timestamp="2010-11-06T20:19:15Z" uid="20587" user="balrog-kun" changeset="6305910" lat="52.2295433" lon="21.0215921">
    <tag k="amenity" v="fast_food"/>
    <tag k="cuisine" v="asian"/>
  </node>
  <node id="979596063" version="2" timestamp="2011-05-15T04:16:21Z" uid="20587" user="balrog-kun" changeset="8147591" lat="52.2295587" lon="21.0217365">
    <tag k="amenity" v="restaurant"/>
    <tag k="cuisine" v="asian"/>
  </node>
  <node id="979596063" version="3" timestamp="2011-06-10T17:00:41Z" uid="20587" user="balrog-kun" changeset="8398943" lat="52.2295587" lon="21.0217365">
    <tag k="amenity" v="restaurant"/>
    <tag k="cuisine" v="asian"/>
    <tag k="name" v="Qchnia"/>
  </node>
  <node id="979596064" version="1" timestamp="2010-11-06T20:19:15Z" uid="20587" user="balrog-kun" changeset="6305910" lat="52.2263984" lon="21.0248019">
    <tag k="addr:housenumber" v="13"/>
    <tag k="addr:street" v="Wiejska"/>
    <tag k="amenity" v="fast_food"/>
    <tag k="cuisine" v="pizza"/>
    <tag k="note" v="TODO"/>
  </node>
  <node id="979596072" version="1" timestamp="2010-11-06T20:19:15Z" uid="20587" user="balrog-kun" changeset="6305910" lat="52.2296083" lon="21.0227033"/>
  <node id="979596076" version="1" timestamp="2010-11-06T20:19:15Z" uid="20587" user="balrog-kun" changeset="6305910" lat="52.2201202" lon="21.0142062">
    <tag k="amenity" v="travel_agent"/>
    <tag k="name" v="Holiday Travel S.A."/>
  </node>
  <node id="979596076" version="2" timestamp="2012-03-24T09:24:24Z" uid="78656" user="Walter Schlögl" changeset="11082271" lat="52.2201202" lon="21.0142062">
    <tag k="name" v="Holiday Travel S.A."/>
    <tag k="office" v="travel_agent"/>
  </node>
  <node id="979596076" version="3" timestamp="2012-03-24T09:26:16Z" uid="78656" user="Walter Schlögl" changeset="11082293" lat="52.2201202" lon="21.0142062">
    <tag k="name" v="Holiday Travel S.A."/>
    <tag k="office" v="travel_agent"/>
    <tag k="shop" v="travel_agency"/>
  </node>
  <node id="979596081" version="1" timestamp="2010-11-06T20:19:15Z" uid="20587" user="balrog-kun" changeset="6305910" lat="52.2294973" lon="21.0227854"/>
  <node id="979596085" version="1" timestamp="2010-11-06T20:19:15Z" uid="20587" user="balrog-kun" changeset="6305910" lat="52.2295411" lon="21.0228052">
    <tag k="building" v="entrance"/>
    <tag k="name" v="Wejście A"/>
  </node>
  <node id="979596088" version="1" timestamp="2010-11-06T20:19:16Z" uid="20587" user="balrog-kun" changeset="6305910" lat="52.224422" lon="21.0285504">
    <tag k="amenity" v="pub"/>
    <tag k="name" v="Tawerna Sowa"/>
  </node>
</osm>
