<?xml version='1.0' encoding='UTF-8'?>
<osm version="0.6" generator="libosmium/2.20.0">
  <node id="98120549" version="2" timestamp="2008-06-14T04:46:44Z" uid="40373" user="Daguru" changeset="155121" lat="51.6416506" lon="7.2782668">
    <tag k="created_by" v="dk3qu"/>
    <tag k="name" v="??"/>
    <tag k="shop" v="bakery"/>
  </node>
  <node id="98120549" version="3" timestamp="2009-08-15T12:03:30Z" uid="109925" user="WanMil" changeset="2153260" lat="51.6416506" lon="7.2782668">
    <tag k="name" v="??"/>
    <tag k="shop" v="bakery"/>
  </node>
  <node id="98120549" version="4" timestamp="2010-03-25T10:12:40Z" uid="43972" user="chris66" changeset="4227858" lat="51.6416506" lon="7.2782668">
    <tag k="shop" v="bakery"/>
  </node>
  <node id="98120549" version="5" timestamp="2011-04-27T06:21:14Z" uid="31602" user="crazy-rat" changeset="7981741" lat="51.6415857" lon="7.2778736">
    <tag k="shop" v="bakery"/>
  </node>
  <node id="98120549" version="6" timestamp="2011-10-15T00:30:05Z" uid="290680" user="wheelmap_visitor" changeset="9552229" lat="51.6415857" lon="7.2778736">
    <tag k="shop" v="bakery"/>
    <tag k="wheelchair" v="limited"/>
  </node>
  <node id="98126945" version="2" timestamp="2008-02-16T19:24:15Z" uid="6975" user="ulfl" changeset="141861" lat="48.1386117" lon="-1.7667643">
    <tag k="name" v="Cora"/>
    <tag k="shop" v="supermarket"/>
  </node>
</osm>
