<?xml version='1.0' encoding='UTF-8'?>
<osm version="0.6" generator="libosmium/2.20.0">
  <node id="984893185" version="2" timestamp="2011-01-29T05:29:14Z" uid="4467" user="Rosscoe" changeset="7119274" lat="-33.9517825" lon="151.0170226">
    <tag k="amenity" v="bank"/>
    <tag k="atm" v="Yes"/>
    <tag k="bic" v="SGBLAU2SXXX"/>
    <tag k="name" v="St George Bank"/>
    <tag k="operator" v="Westpac Banking Corporation"/>
  </node>
  <node id="984893185" version="3" timestamp="2011-05-12T09:32:07Z" uid="49351" user="Dieter Schmeer" changeset="8120130" lat="-33.9517825" lon="151.0170226">
    <tag k="amenity" v="bank"/>
    <tag k="atm" v="yes"/>
    <tag k="bic" v="SGBLAU2SXXX"/>
    <tag k="name" v="St George Bank"/>
    <tag k="operator" v="Westpac Banking Corporation"/>
  </node>
  <node id="984893187" version="2" timestamp="2011-01-29T05:29:15Z" uid="4467" user="Rosscoe" changeset="7119274" lat="-33.9517469" lon="151.0168617">
    <tag k="amenity" v="bank"/>
    <tag k="atm" v="Yes"/>
    <tag k="bic" v="WPACAU2SXXX"/>
    <tag k="name" v="Westpac Bank"/>
    <tag k="operator" v="Westpac Banking Corporation"/>
  </node>
  <node id="984893187" version="3" timestamp="2011-05-12T09:31:54Z" uid="49351" user="Dieter Schmeer" changeset="8120130" lat="-33.9517469" lon="151.0168617">
    <tag k="amenity" v="bank"/>
    <tag k="atm" v="yes"/>
    <tag k="bic" v="WPACAU2SXXX"/>
    <tag k="name" v="Westpac Bank"/>
    <tag k="operator" v="Westpac Banking Corporation"/>
  </node>
  <node id="984893208" version="2" timestamp="2011-01-29T05:29:15Z" uid="4467" user="Rosscoe" changeset="7119274" lat="-33.9517647" lon="151.0152845">
    <tag k="amenity" v="bank"/>
    <tag k="atm" v="Yes"/>
    <tag k="bic" v="CTBAAU2SXXX"/>
    <tag k="name" v="Commonwealth Bank"/>
    <tag k="operator" v="Commonwealth Bank of Australia"/>
  </node>
  <node id="984893208" version="3" timestamp="2011-05-12T09:31:51Z" uid="49351" user="Dieter Schmeer" changeset="8120130" lat="-33.9517647" lon="151.0152845">
    <tag k="amenity" v="bank"/>
    <tag k="atm" v="yes"/>
    <tag k="bic" v="CTBAAU2SXXX"/>
    <tag k="name" v="Commonwealth Bank"/>
    <tag k="operator" v="Commonwealth Bank of Australia"/>
  </node>
</osm>
