<?xml version='1.0' encoding='UTF-8'?>
<osm version="0.6" generator="libosmium/2.20.0">
  <node id="987989558" version="1" timestamp="2010-11-13T18:11:56Z" uid="151899" user="Bikeman2000" changeset="6360572" lat="51.2265785" lon="6.7927493">
    <tag k="addr:city" v="Düsseldorf"/>
    <tag k="addr:country" v="DE"/>
    <tag k="addr:housenumber" v="48"/>
    <tag k="addr:postcode" v="40211"/>
    <tag k="addr:street" v="Leopoldstraße"/>
  </node>
  <node id="987989558" version="2" timestamp="2012-01-09T13:39:41Z" uid="12614" user="rabenkind" changeset="10341788" lat="51.2265785" lon="6.7927493"/>
  <node id="987989561" version="1" timestamp="2010-11-13T18:11:56Z" uid="151899" user="Bikeman2000" changeset="6360572" lat="51.2266169" lon="6.7931815">
    <tag k="addr:city" v="Düsseldorf"/>
    <tag k="addr:country" v="DE"/>
    <tag k="addr:housenumber" v="56"/>
    <tag k="addr:postcode" v="40211"/>
    <tag k="addr:street" v="Leopoldstraße"/>
  </node>
  <node id="987989561" version="2" timestamp="2010-11-13T23:12:46Z" uid="151899" user="Bikeman2000" changeset="6362953" lat="51.2266031" lon="6.7931668">
    <tag k="addr:city" v="Düsseldorf"/>
    <tag k="addr:country" v="DE"/>
    <tag k="addr:housenumber" v="56"/>
    <tag k="addr:postcode" v="40211"/>
    <tag k="addr:street" v="Leopoldstraße"/>
  </node>
  <node id="987989561" version="3" timestamp="2012-01-09T13:39:42Z" uid="12614" user="rabenkind" changeset="10341788" lat="51.2266031" lon="6.7931668"/>
  <node id="987989576" version="1" timestamp="2010-11-13T18:11:56Z" uid="151899" user="Bikeman2000" changeset="6360572" lat="51.2266084" lon="6.7930861">
    <tag k="addr:city" v="Düsseldorf"/>
    <tag k="addr:country" v="DE"/>
    <tag k="addr:housenumber" v="54"/>
    <tag k="addr:postcode" v="40211"/>
    <tag k="addr:street" v="Leopoldstraße"/>
  </node>
  <node id="987989576" version="2" timestamp="2012-01-09T13:39:42Z" uid="12614" user="rabenkind" changeset="10341788" lat="51.2266084" lon="6.7930861"/>
  <node id="987989579" version="1" timestamp="2010-11-13T18:11:56Z" uid="151899" user="Bikeman2000" changeset="6360572" lat="51.2263644" lon="6.7935273">
    <tag k="name" v="Hair Design"/>
    <tag k="shop" v="hairdresser"/>
  </node>
  <node id="987989579" version="2" timestamp="2011-12-13T19:45:46Z" uid="12614" user="rabenkind" changeset="10110303" lat="51.2263644" lon="6.7935273"/>
  <node id="987989580" version="1" timestamp="2010-11-13T18:11:56Z" uid="151899" user="Bikeman2000" changeset="6360572" lat="51.2265673" lon="6.7926229">
    <tag k="addr:city" v="Düsseldorf"/>
    <tag k="addr:country" v="DE"/>
    <tag k="addr:housenumber" v="46"/>
    <tag k="addr:postcode" v="40211"/>
    <tag k="addr:street" v="Leopoldstraße"/>
  </node>
  <node id="987989580" version="2" timestamp="2012-01-09T13:39:41Z" uid="12614" user="rabenkind" changeset="10341788" lat="51.2265673" lon="6.7926229"/>
  <node id="987989594" version="1" timestamp="2010-11-13T18:11:57Z" uid="151899" user="Bikeman2000" changeset="6360572" lat="51.2262064" lon="6.7936891">
    <tag k="name" v="Tak Supermarkt"/>
    <tag k="shop" v="supermarket"/>
  </node>
  <node id="987989594" version="2" timestamp="2012-01-09T15:30:44Z" uid="12614" user="rabenkind" changeset="10342790" lat="51.2262064" lon="6.7936891"/>
  <node id="987989598" version="1" timestamp="2010-11-13T18:11:57Z" uid="151899" user="Bikeman2000" changeset="6360572" lat="51.2265887" lon="6.7928633">
    <tag k="addr:city" v="Düsseldorf"/>
    <tag k="addr:country" v="DE"/>
    <tag k="addr:housenumber" v="50"/>
    <tag k="addr:postcode" v="40211"/>
    <tag k="addr:street" v="Leopoldstraße"/>
  </node>
  <node id="987989598" version="2" timestamp="2012-01-09T13:39:42Z" uid="12614" user="rabenkind" changeset="10341788" lat="51.2265887" lon="6.7928633"/>
  <node id="987989601" version="1" timestamp="2010-11-13T18:11:57Z" uid="151899" user="Bikeman2000" changeset="6360572" lat="51.2265514" lon="6.7924442">
    <tag k="addr:city" v="Düsseldorf"/>
    <tag k="addr:country" v="DE"/>
    <tag k="addr:housenumber" v="44"/>
    <tag k="addr:postcode" v="40211"/>
    <tag k="addr:street" v="Leopoldstraße"/>
  </node>
  <node id="987989601" version="2" timestamp="2012-01-09T13:39:41Z" uid="12614" user="rabenkind" changeset="10341788" lat="51.2265514" lon="6.7924442"/>
  <node id="987989621" version="1" timestamp="2010-11-13T18:11:57Z" uid="151899" user="Bikeman2000" changeset="6360572" lat="51.2265976" lon="6.7929643">
    <tag k="addr:city" v="Düsseldorf"/>
    <tag k="addr:country" v="DE"/>
    <tag k="addr:housenumber" v="52"/>
    <tag k="addr:postcode" v="40211"/>
    <tag k="addr:street" v="Leopoldstraße"/>
  </node>
  <node id="987989621" version="2" timestamp="2012-01-09T13:39:42Z" uid="12614" user="rabenkind" changeset="10341788" lat="51.2265976" lon="6.7929643"/>
  <node id="987989625" version="1" timestamp="2010-11-13T18:11:57Z" uid="151899" user="Bikeman2000" changeset="6360572" lat="51.2262894" lon="6.7936031">
    <tag k="name" v="Asia Markt"/>
    <tag k="shop" v="supermarket"/>
  </node>
  <node id="987989625" version="2" timestamp="2011-12-13T19:45:46Z" uid="12614" user="rabenkind" changeset="10110303" lat="51.2262894" lon="6.7936031"/>
</osm>
