<?xml version='1.0' encoding='UTF-8'?>
<osm version="0.6" generator="libosmium/2.20.0">
  <node id="990660191" version="1" timestamp="2010-11-16T01:40:01Z" uid="17602" user="B10xyz" changeset="6382237" lat="50.201351" lon="9.1924153">
    <tag k="addr:housenumber" v="12"/>
    <tag k="addr:postcode" v="63571"/>
    <tag k="email" v="info@grimmelshausen-hotel.de"/>
    <tag k="fax" v="06051 / 92 42 - 42"/>
    <tag k="internet_access" v="wlan"/>
    <tag k="name" v="Grimmelshausen Hotel"/>
    <tag k="phone" v="06051 / 92 42 - 0"/>
    <tag k="tourism" v="hotel"/>
    <tag k="website" v="http://www.grimmelshausen-hotel.de/"/>
    <tag k="wheelchair" v="no"/>
  </node>
  <node id="990660191" version="2" timestamp="2012-01-14T21:05:45Z" uid="302852" user="be-ju" changeset="10392426" lat="50.201351" lon="9.1924153"/>
  <node id="990660192" version="1" timestamp="2010-11-16T01:40:02Z" uid="17602" user="B10xyz" changeset="6382237" lat="50.1791464" lon="9.2345424"/>
  <node id="990660193" version="1" timestamp="2010-11-16T01:40:02Z" uid="17602" user="B10xyz" changeset="6382237" lat="50.1790683" lon="9.234555"/>
  <node id="990660830" version="1" timestamp="2010-11-16T01:43:31Z" uid="17602" user="B10xyz" changeset="6382237" lat="50.1791573" lon="9.2346371"/>
  <node id="990660831" version="1" timestamp="2010-11-16T01:43:31Z" uid="17602" user="B10xyz" changeset="6382237" lat="50.2081208" lon="9.1591451">
    <tag k="addr:housenumber" v="1A"/>
    <tag k="name" v="TV 1897 Roth e.V."/>
    <tag k="sport" v="gymnastics"/>
  </node>
  <node id="990660831" version="2" timestamp="2012-01-14T18:04:03Z" uid="302852" user="be-ju" changeset="10390495" lat="50.2081208" lon="9.1591451"/>
  <node id="990660834" version="1" timestamp="2010-11-16T01:43:32Z" uid="17602" user="B10xyz" changeset="6382237" lat="50.2012868" lon="9.1924998">
    <tag k="name" v="Geburtshaus von Grimmelshausen"/>
    <tag k="tourism" v="attraction"/>
    <tag k="wikipedia" v="http://de.wikipedia.org/wiki/Hans_Jakob_Christoffel_von_Grimmelshausen"/>
  </node>
  <node id="990660834" version="2" timestamp="2012-01-14T21:05:45Z" uid="302852" user="be-ju" changeset="10392426" lat="50.2012868" lon="9.1924998"/>
</osm>
