<?xml version='1.0' encoding='UTF-8'?>
<osm version="0.6" generator="libosmium/2.20.0">
  <node id="99202271" version="3" timestamp="2008-08-21T23:17:14Z" uid="36809" user="pfoten_weg_!_" changeset="363581" lat="48.120072" lon="11.5483403">
    <tag k="created_by" v="RambaZamba"/>
    <tag k="name" v="Implerstraße"/>
    <tag k="railway" v="station"/>
  </node>
  <node id="99202271" version="4" timestamp="2008-08-24T21:26:54Z" uid="8703" user="rolandg" changeset="401765" lat="48.120072" lon="11.5483403">
    <tag k="created_by" v="RambaZamba"/>
    <tag k="name" v="Implerstraße"/>
    <tag k="railway" v="station"/>
  </node>
  <node id="99202271" version="5" timestamp="2008-09-13T12:35:23Z" uid="36809" user="pfoten_weg_!_" changeset="620497" lat="48.1200721" lon="11.5483408">
    <tag k="created_by" v="RambaZamba"/>
    <tag k="name" v="Implerstraße"/>
    <tag k="railway" v="station"/>
  </node>
  <node id="99202271" version="6" timestamp="2008-09-20T03:47:22Z" uid="36809" user="pfoten_weg_!_" changeset="670006" lat="48.1200721" lon="11.5483409">
    <tag k="created_by" v="RambaZamba"/>
    <tag k="name" v="Implerstraße"/>
    <tag k="railway" v="station"/>
  </node>
  <node id="99202271" version="7" timestamp="2008-10-01T01:15:48Z" uid="36809" user="pfoten_weg_!_" changeset="5644" lat="48.1200721" lon="11.5483409">
    <tag k="created_by" v="RambaZamba"/>
    <tag k="name" v="Implerstraße"/>
    <tag k="railway" v="station"/>
  </node>
  <node id="99202271" version="8" timestamp="2009-01-06T02:42:39Z" uid="24920" user="Schusch" changeset="743620" lat="48.1200721" lon="11.5483409">
    <tag k="name" v="Implerstraße"/>
    <tag k="railway" v="station"/>
  </node>
  <node id="99202271" version="9" timestamp="2009-06-09T08:57:10Z" uid="36809" user="pfoten_weg_!_" changeset="1466365" lat="48.1200721" lon="11.5483409">
    <tag k="created_by" v="RambaZamba"/>
    <tag k="name" v="Implerstraße"/>
    <tag k="railway" v="station"/>
  </node>
  <node id="99202271" version="10" timestamp="2009-06-20T18:12:54Z" uid="85761" user="klausis" changeset="1577174" lat="48.1200721" lon="11.5483409">
    <tag k="name" v="Implerstraße"/>
    <tag k="railway" v="station"/>
  </node>
  <node id="99202271" version="11" timestamp="2009-07-17T14:18:08Z" uid="137160" user="xyzlr" changeset="1854881" lat="48.1200721" lon="11.5483409">
    <tag k="name" v="Implerstraße"/>
    <tag k="railway" v="station"/>
  </node>
  <node id="99202271" version="12" timestamp="2009-09-04T14:22:03Z" uid="8748" user="ToniE" changeset="2370312" lat="48.1200748" lon="11.548401">
    <tag k="name" v="Implerstraße"/>
    <tag k="railway" v="station"/>
  </node>
  <node id="99202271" version="13" timestamp="2009-10-02T16:59:56Z" uid="86259" user="hasse_osm_korinthenkacker" changeset="2714981" lat="48.1200748" lon="11.548401">
    <tag k="name" v="Implerstraße"/>
    <tag k="railway" v="station"/>
  </node>
  <node id="99202271" version="14" timestamp="2012-01-17T08:54:38Z" uid="290680" user="wheelmap_visitor" changeset="10415211" lat="48.1200748" lon="11.548401">
    <tag k="name" v="Implerstraße"/>
    <tag k="railway" v="station"/>
    <tag k="wheelchair" v="yes"/>
  </node>
  <node id="99209620" version="4" timestamp="2008-10-01T01:27:45Z" uid="36809" user="pfoten_weg_!_" changeset="5644" lat="48.1004123" lon="11.5401241">
    <tag k="amenity" v="pharmacy"/>
    <tag k="created_by" v="RambaZamba"/>
    <tag k="name" v="Franziskus-Apotheke"/>
  </node>
  <node id="99209620" version="5" timestamp="2009-02-15T13:03:06Z" uid="36809" user="pfoten_weg_!_" changeset="463903" lat="48.1004123" lon="11.5401241">
    <tag k="amenity" v="pharmacy"/>
    <tag k="created_by" v="RambaZamba"/>
    <tag k="name" v="Franziskus-Apotheke"/>
    <tag k="source" v="survey"/>
  </node>
  <node id="99209620" version="6" timestamp="2009-08-12T12:38:45Z" uid="156995" user="HampelZamba" changeset="2118306" lat="48.1004123" lon="11.5401241">
    <tag k="amenity" v="pharmacy"/>
    <tag k="name" v="Franziskus-Apotheke"/>
    <tag k="source" v="survey"/>
  </node>
  <node id="99209620" version="7" timestamp="2009-08-31T20:58:52Z" uid="36809" user="pfoten_weg_!_" changeset="2331411" lat="48.1004123" lon="11.5401241">
    <tag k="amenity" v="pharmacy"/>
    <tag k="name" v="Franziskus-Apotheke"/>
    <tag k="source" v="survey"/>
  </node>
  <node id="99209620" version="8" timestamp="2009-10-13T23:39:57Z" uid="36809" user="pfoten_weg_!_" changeset="2841273" lat="48.1004123" lon="11.5401241">
    <tag k="amenity" v="pharmacy"/>
    <tag k="name" v="Franziskus-Apotheke"/>
  </node>
  <node id="99209620" version="9" timestamp="2011-03-18T20:43:37Z" uid="290680" user="wheelmap_visitor" changeset="7598401" lat="48.1004123" lon="11.5401241">
    <tag k="amenity" v="pharmacy"/>
    <tag k="name" v="Franziskus-Apotheke"/>
    <tag k="shop" v="pharmacy"/>
    <tag k="wheelchair" v="yes"/>
  </node>
</osm>
