<?xml version='1.0' encoding='UTF-8'?>
<osm version="0.6" generator="libosmium/2.20.0">
  <node id="992683210" version="2" timestamp="2011-01-22T16:49:39Z" uid="6269" user="Mueck" changeset="7052506" lat="53.5974894" lon="8.5958822">
    <tag k="highway" v="bus_stop"/>
    <tag k="name" v="Südstellenweg"/>
    <tag k="public_transport" v="stop_position"/>
    <tag k="stop_ID" v="25101"/>
    <tag k="type" v="public_transport"/>
  </node>
  <node id="992683210" version="3" timestamp="2011-10-15T12:24:43Z" uid="290680" user="wheelmap_visitor" changeset="9560388" lat="53.5974894" lon="8.5958822">
    <tag k="highway" v="bus_stop"/>
    <tag k="name" v="Südstellenweg"/>
    <tag k="public_transport" v="stop_position"/>
    <tag k="stop_ID" v="25101"/>
    <tag k="type" v="public_transport"/>
    <tag k="wheelchair" v="yes"/>
  </node>
  <node id="992683210" version="4" timestamp="2012-03-03T01:30:09Z" uid="45882" user="smarties" changeset="10853996" lat="53.5974894" lon="8.5958822"/>
  <node id="992688798" version="2" timestamp="2011-01-04T00:35:47Z" uid="6269" user="Mueck" changeset="6856599" lat="53.5927918" lon="8.5978665">
    <tag k="highway" v="bus_stop"/>
    <tag k="name" v="Königsheide"/>
    <tag k="public_transport" v="stop_position"/>
    <tag k="stop_ID" v="16401"/>
    <tag k="type" v="public_transport"/>
  </node>
</osm>
