<?xml version='1.0' encoding='UTF-8'?>
<osm version="0.6" generator="libosmium/2.20.0">
  <node id="992823875" version="2" timestamp="2010-12-19T21:41:02Z" uid="6269" user="Mueck" changeset="6711092" lat="53.5048605" lon="8.5989844">
    <tag k="highway" v="bus_stop"/>
    <tag k="name" v="Wulsdorf Mitte"/>
    <tag k="public_transport" v="stop_position"/>
    <tag k="stop_ID" v="75401"/>
    <tag k="type" v="public_transport"/>
  </node>
  <node id="992826389" version="2" timestamp="2010-12-19T21:41:01Z" uid="6269" user="Mueck" changeset="6711092" lat="53.4958305" lon="8.6010221">
    <tag k="highway" v="bus_stop"/>
    <tag k="name" v="Deichhämme"/>
    <tag k="public_transport" v="stop_position"/>
    <tag k="stop_ID" v="75801"/>
    <tag k="type" v="public_transport"/>
  </node>
  <node id="992829489" version="2" timestamp="2010-12-19T21:40:48Z" uid="6269" user="Mueck" changeset="6711092" lat="53.4919642" lon="8.5994436">
    <tag k="highway" v="bus_stop"/>
    <tag k="name" v="Carsten-Börger-Straße"/>
    <tag k="public_transport" v="stop_position"/>
    <tag k="stop_ID" v="76701"/>
    <tag k="type" v="public_transport"/>
  </node>
</osm>
