<?xml version='1.0' encoding='UTF-8'?>
<osm version="0.6" generator="libosmium/2.20.0">
  <node id="995575994" version="1" timestamp="2010-11-20T01:26:36Z" uid="7617" user="Franc" changeset="6411501" lat="-33.8775979" lon="151.180991">
    <tag k="addr:housenumber" v="33"/>
    <tag k="addr:street" v="Toxteth Road"/>
    <tag k="source" v="exrapolation"/>
  </node>
  <node id="995575994" version="2" timestamp="2011-05-29T08:32:32Z" uid="7617" user="Franc" changeset="8278454" lat="-33.8775979" lon="151.180991">
    <tag k="addr:housenumber" v="33"/>
    <tag k="addr:street" v="Toxteth Road"/>
    <tag k="source" v="extrapolation"/>
  </node>
  <node id="995575998" version="1" timestamp="2010-11-20T01:26:37Z" uid="7617" user="Franc" changeset="6411501" lat="-33.8778129" lon="151.1809186">
    <tag k="addr:housenumber" v="46"/>
    <tag k="addr:street" v="Toxteth Road"/>
    <tag k="source" v="exrapolation"/>
  </node>
  <node id="995575998" version="2" timestamp="2011-05-29T08:32:12Z" uid="7617" user="Franc" changeset="8278454" lat="-33.8778129" lon="151.1809186">
    <tag k="addr:housenumber" v="46"/>
    <tag k="addr:street" v="Toxteth Road"/>
    <tag k="source" v="extrapolation"/>
  </node>
  <node id="995575999" version="1" timestamp="2010-11-20T01:26:37Z" uid="7617" user="Franc" changeset="6411501" lat="-33.918775" lon="151.1436332">
    <tag k="addr:housenumber" v="374"/>
    <tag k="addr:street" v="Livingstone Road"/>
    <tag k="source" v="survey"/>
  </node>
  <node id="995575999" version="2" timestamp="2012-02-13T04:37:30Z" uid="7523" user="inas" changeset="10670182" lat="-33.918775" lon="151.1436332"/>
  <node id="995576001" version="1" timestamp="2010-11-20T01:26:38Z" uid="7617" user="Franc" changeset="6411501" lat="-33.8772723" lon="151.1815542">
    <tag k="addr:housenumber" v="23"/>
    <tag k="addr:street" v="Toxteth Road"/>
    <tag k="source" v="exrapolation"/>
  </node>
  <node id="995576001" version="2" timestamp="2011-05-29T08:32:31Z" uid="7617" user="Franc" changeset="8278454" lat="-33.8772723" lon="151.1815542">
    <tag k="addr:housenumber" v="23"/>
    <tag k="addr:street" v="Toxteth Road"/>
    <tag k="source" v="extrapolation"/>
  </node>
  <node id="995576002" version="1" timestamp="2010-11-20T01:26:38Z" uid="7617" user="Franc" changeset="6411501" lat="-33.8770788" lon="151.1818839">
    <tag k="addr:housenumber" v="17"/>
    <tag k="addr:street" v="Toxteth Road"/>
    <tag k="source" v="exrapolation"/>
  </node>
  <node id="995576002" version="2" timestamp="2011-05-29T08:33:31Z" uid="7617" user="Franc" changeset="8278454" lat="-33.8770788" lon="151.1818839">
    <tag k="addr:housenumber" v="17"/>
    <tag k="addr:street" v="Toxteth Road"/>
    <tag k="source" v="extrapolation"/>
  </node>
  <node id="995576003" version="1" timestamp="2010-11-20T01:26:38Z" uid="7617" user="Franc" changeset="6411501" lat="-33.9030438" lon="151.161491"/>
  <node id="995576003" version="2" timestamp="2011-06-14T12:04:53Z" uid="7617" user="Franc" changeset="8436623" lat="-33.9029684" lon="151.1615486"/>
  <node id="995576003" version="3" timestamp="2012-02-28T03:27:25Z" uid="7523" user="inas" changeset="10815457" lat="-33.9029684" lon="151.1615486"/>
  <node id="995576004" version="1" timestamp="2010-11-20T01:26:38Z" uid="7617" user="Franc" changeset="6411501" lat="-33.878016" lon="151.1802764">
    <tag k="addr:housenumber" v="43"/>
    <tag k="addr:street" v="Toxteth Road"/>
    <tag k="source" v="exrapolation"/>
  </node>
  <node id="995576004" version="2" timestamp="2011-05-29T08:33:00Z" uid="7617" user="Franc" changeset="8278454" lat="-33.878016" lon="151.1802764">
    <tag k="addr:housenumber" v="43"/>
    <tag k="addr:street" v="Toxteth Road"/>
    <tag k="source" v="extrapolation"/>
  </node>
  <node id="995576006" version="1" timestamp="2010-11-20T01:26:38Z" uid="7617" user="Franc" changeset="6411501" lat="-33.918599" lon="151.1437634">
    <tag k="addr:housenumber" v="372"/>
    <tag k="addr:street" v="Livingstone Road"/>
    <tag k="source" v="exrapolation"/>
  </node>
  <node id="995576006" version="2" timestamp="2011-05-29T08:33:10Z" uid="7617" user="Franc" changeset="8278454" lat="-33.918599" lon="151.1437634">
    <tag k="addr:housenumber" v="372"/>
    <tag k="addr:street" v="Livingstone Road"/>
    <tag k="source" v="extrapolation"/>
  </node>
  <node id="995576006" version="3" timestamp="2012-02-13T04:37:29Z" uid="7523" user="inas" changeset="10670182" lat="-33.918599" lon="151.1437634"/>
  <node id="995576007" version="1" timestamp="2010-11-20T01:26:38Z" uid="7617" user="Franc" changeset="6411501" lat="-33.9149738" lon="151.1469418">
    <tag k="addr:housenumber" v="30"/>
    <tag k="addr:street" v="Harnett Avenue"/>
    <tag k="source" v="survey"/>
  </node>
  <node id="995576007" version="2" timestamp="2012-02-13T04:45:03Z" uid="7523" user="inas" changeset="10670200" lat="-33.9149738" lon="151.1469418"/>
  <node id="995576008" version="1" timestamp="2010-11-20T01:26:38Z" uid="7617" user="Franc" changeset="6411501" lat="-33.9088084" lon="151.1579043">
    <tag k="addr:housenumber" v="176"/>
    <tag k="addr:street" v="Illawarra Road"/>
    <tag k="source" v="extrapolation"/>
  </node>
  <node id="995576008" version="2" timestamp="2012-02-13T05:25:57Z" uid="7523" user="inas" changeset="10670291" lat="-33.9088084" lon="151.1579043"/>
  <node id="995576009" version="1" timestamp="2010-11-20T01:26:38Z" uid="7617" user="Franc" changeset="6411501" lat="-33.8782827" lon="151.179817">
    <tag k="addr:housenumber" v="53"/>
    <tag k="addr:street" v="Toxteth Road"/>
    <tag k="source" v="exrapolation"/>
  </node>
  <node id="995576009" version="2" timestamp="2011-05-29T08:33:16Z" uid="7617" user="Franc" changeset="8278454" lat="-33.8782827" lon="151.179817">
    <tag k="addr:housenumber" v="53"/>
    <tag k="addr:street" v="Toxteth Road"/>
    <tag k="source" v="extrapolation"/>
  </node>
  <node id="995576010" version="1" timestamp="2010-11-20T01:26:38Z" uid="7617" user="Franc" changeset="6411501" lat="-33.9154737" lon="151.1478201">
    <tag k="addr:housenumber" v="12"/>
    <tag k="addr:street" v="Harnett Avenue"/>
    <tag k="source" v="exrapolation"/>
  </node>
  <node id="995576010" version="2" timestamp="2011-05-29T06:04:45Z" uid="7617" user="Franc" changeset="8277649" lat="-33.9154737" lon="151.1478201">
    <tag k="addr:housenumber" v="12"/>
    <tag k="addr:street" v="Harnett Avenue"/>
    <tag k="source" v="extrapolation"/>
  </node>
  <node id="995576010" version="3" timestamp="2012-02-13T04:44:57Z" uid="7523" user="inas" changeset="10670200" lat="-33.9154737" lon="151.1478201"/>
  <node id="995576013" version="1" timestamp="2010-11-20T01:26:38Z" uid="7617" user="Franc" changeset="6411501" lat="-33.8778048" lon="151.1806358">
    <tag k="addr:housenumber" v="39"/>
    <tag k="addr:street" v="Toxteth Road"/>
    <tag k="source" v="exrapolation"/>
  </node>
  <node id="995576013" version="2" timestamp="2011-05-29T08:32:52Z" uid="7617" user="Franc" changeset="8278454" lat="-33.8778048" lon="151.1806358">
    <tag k="addr:housenumber" v="39"/>
    <tag k="addr:street" v="Toxteth Road"/>
    <tag k="source" v="extrapolation"/>
  </node>
  <node id="995576014" version="1" timestamp="2010-11-20T01:26:38Z" uid="7617" user="Franc" changeset="6411501" lat="-33.8783457" lon="151.1799954">
    <tag k="addr:housenumber" v="70"/>
    <tag k="addr:street" v="Toxteth Road"/>
    <tag k="source" v="survey"/>
  </node>
  <node id="995576014" version="2" timestamp="2012-02-16T06:00:00Z" uid="7523" user="inas" changeset="10698901" lat="-33.8783457" lon="151.1799954"/>
  <node id="995576015" version="1" timestamp="2010-11-20T01:26:39Z" uid="7617" user="Franc" changeset="6411501" lat="-33.914517" lon="151.146136">
    <tag k="addr:housenumber" v="50"/>
    <tag k="addr:street" v="Harnett Avenue"/>
    <tag k="source" v="survey"/>
  </node>
  <node id="995576015" version="2" timestamp="2012-02-13T04:45:08Z" uid="7523" user="inas" changeset="10670200" lat="-33.914517" lon="151.146136"/>
  <node id="995576016" version="1" timestamp="2010-11-20T01:26:39Z" uid="7617" user="Franc" changeset="6411501" lat="-33.8779185" lon="151.1807387">
    <tag k="addr:housenumber" v="52"/>
    <tag k="addr:street" v="Toxteth Road"/>
    <tag k="source" v="exrapolation"/>
  </node>
  <node id="995576016" version="2" timestamp="2011-05-29T08:32:58Z" uid="7617" user="Franc" changeset="8278454" lat="-33.8779185" lon="151.1807387">
    <tag k="addr:housenumber" v="52"/>
    <tag k="addr:street" v="Toxteth Road"/>
    <tag k="source" v="extrapolation"/>
  </node>
  <node id="995576018" version="1" timestamp="2010-11-20T01:26:39Z" uid="7617" user="Franc" changeset="6411501" lat="-33.9085953" lon="151.1581061">
    <tag k="addr:housenumber" v="166"/>
    <tag k="addr:street" v="Illawarra Road"/>
    <tag k="source" v="survey"/>
  </node>
  <node id="995576018" version="2" timestamp="2012-02-13T05:25:53Z" uid="7523" user="inas" changeset="10670291" lat="-33.9085953" lon="151.1581061"/>
  <node id="995576019" version="1" timestamp="2010-11-20T01:26:39Z" uid="7617" user="Franc" changeset="6411501" lat="-33.9193971" lon="151.1429096">
    <tag k="addr:housenumber" v="353"/>
    <tag k="addr:street" v="Livingstone Road"/>
    <tag k="source" v="survey"/>
  </node>
  <node id="995576019" version="2" timestamp="2012-02-13T04:37:29Z" uid="7523" user="inas" changeset="10670182" lat="-33.9193971" lon="151.1429096"/>
  <node id="995576020" version="1" timestamp="2010-11-20T01:26:39Z" uid="7617" user="Franc" changeset="6411501" lat="-33.9184015" lon="151.1438974">
    <tag k="addr:housenumber" v="368"/>
    <tag k="addr:street" v="Livingstone Road"/>
    <tag k="source" v="survey"/>
  </node>
  <node id="995576020" version="2" timestamp="2012-02-13T04:37:29Z" uid="7523" user="inas" changeset="10670182" lat="-33.9184015" lon="151.1438974"/>
  <node id="995576021" version="1" timestamp="2010-11-20T01:26:39Z" uid="7617" user="Franc" changeset="6411501" lat="-33.8762823" lon="151.1835565">
    <tag k="addr:housenumber" v="2"/>
    <tag k="addr:street" v="Toxteth Road"/>
    <tag k="source" v="exrapolation"/>
  </node>
  <node id="995576021" version="2" timestamp="2011-05-29T08:31:46Z" uid="7617" user="Franc" changeset="8278454" lat="-33.8762823" lon="151.1835565">
    <tag k="addr:housenumber" v="2"/>
    <tag k="addr:street" v="Toxteth Road"/>
    <tag k="source" v="extrapolation"/>
  </node>
  <node id="995576022" version="1" timestamp="2010-11-20T01:26:39Z" uid="7617" user="Franc" changeset="6411501" lat="-33.8774657" lon="151.1812246">
    <tag k="addr:housenumber" v="29"/>
    <tag k="addr:street" v="Toxteth Road"/>
    <tag k="source" v="exrapolation"/>
  </node>
  <node id="995576022" version="2" timestamp="2011-05-29T08:32:47Z" uid="7617" user="Franc" changeset="8278454" lat="-33.8774657" lon="151.1812246">
    <tag k="addr:housenumber" v="29"/>
    <tag k="addr:street" v="Toxteth Road"/>
    <tag k="source" v="extrapolation"/>
  </node>
  <node id="995576024" version="1" timestamp="2010-11-20T01:26:39Z" uid="7617" user="Franc" changeset="6411501" lat="-33.8989605" lon="151.1764953"/>
  <node id="995576025" version="1" timestamp="2010-11-20T01:26:39Z" uid="7617" user="Franc" changeset="6411501" lat="-33.8777449" lon="151.1810397">
    <tag k="addr:housenumber" v="42"/>
    <tag k="addr:street" v="Toxteth Road"/>
    <tag k="source" v="exrapolation"/>
  </node>
  <node id="995576025" version="2" timestamp="2011-05-29T08:32:50Z" uid="7617" user="Franc" changeset="8278454" lat="-33.8777449" lon="151.1810397">
    <tag k="addr:housenumber" v="42"/>
    <tag k="addr:street" v="Toxteth Road"/>
    <tag k="source" v="extrapolation"/>
  </node>
  <node id="995576026" version="1" timestamp="2010-11-20T01:26:39Z" uid="7617" user="Franc" changeset="6411501" lat="-33.8771331" lon="151.1817846">
    <tag k="addr:housenumber" v="19"/>
    <tag k="addr:street" v="Toxteth Road"/>
    <tag k="source" v="exrapolation"/>
  </node>
  <node id="995576026" version="2" timestamp="2011-05-29T08:32:04Z" uid="7617" user="Franc" changeset="8278454" lat="-33.8771331" lon="151.1817846">
    <tag k="addr:housenumber" v="19"/>
    <tag k="addr:street" v="Toxteth Road"/>
    <tag k="source" v="extrapolation"/>
  </node>
  <node id="995576028" version="1" timestamp="2010-11-20T01:26:40Z" uid="7617" user="Franc" changeset="6411501" lat="-33.878169" lon="151.180302">
    <tag k="addr:housenumber" v="64"/>
    <tag k="addr:street" v="Toxteth Road"/>
    <tag k="source" v="survey"/>
  </node>
  <node id="995576028" version="2" timestamp="2012-02-16T05:59:54Z" uid="7523" user="inas" changeset="10698901" lat="-33.878169" lon="151.180302"/>
  <node id="995576029" version="1" timestamp="2010-11-20T01:26:40Z" uid="7617" user="Franc" changeset="6411501" lat="-33.9146089" lon="151.1462994">
    <tag k="addr:housenumber" v="48"/>
    <tag k="addr:street" v="Harnett Avenue"/>
    <tag k="source" v="exrapolation"/>
  </node>
  <node id="995576029" version="2" timestamp="2011-05-29T08:32:30Z" uid="7617" user="Franc" changeset="8278454" lat="-33.9146089" lon="151.1462994">
    <tag k="addr:housenumber" v="48"/>
    <tag k="addr:street" v="Harnett Avenue"/>
    <tag k="source" v="extrapolation"/>
  </node>
  <node id="995576029" version="3" timestamp="2012-02-13T04:45:08Z" uid="7523" user="inas" changeset="10670200" lat="-33.9146089" lon="151.1462994"/>
  <node id="995576030" version="1" timestamp="2010-11-20T01:26:40Z" uid="7617" user="Franc" changeset="6411501" lat="-33.9085065" lon="151.1581916">
    <tag k="addr:housenumber" v="162"/>
    <tag k="addr:street" v="Illawarra Road"/>
    <tag k="source" v="extrapolation"/>
  </node>
  <node id="995576030" version="2" timestamp="2012-02-13T05:25:52Z" uid="7523" user="inas" changeset="10670291" lat="-33.9085065" lon="151.1581916"/>
  <node id="995576031" version="1" timestamp="2010-11-20T01:26:40Z" uid="7617" user="Franc" changeset="6411501" lat="-33.9152894" lon="151.1474996">
    <tag k="addr:housenumber" v="18"/>
    <tag k="addr:street" v="Harnett Avenue"/>
    <tag k="source" v="exrapolation"/>
  </node>
  <node id="995576031" version="2" timestamp="2011-05-29T06:04:44Z" uid="7617" user="Franc" changeset="8277649" lat="-33.9152894" lon="151.1474996">
    <tag k="addr:housenumber" v="18"/>
    <tag k="addr:street" v="Harnett Avenue"/>
    <tag k="source" v="extrapolation"/>
  </node>
  <node id="995576031" version="3" timestamp="2012-02-13T04:45:00Z" uid="7523" user="inas" changeset="10670200" lat="-33.9152894" lon="151.1474996"/>
  <node id="995576033" version="1" timestamp="2010-11-20T01:26:40Z" uid="7617" user="Franc" changeset="6411501" lat="-33.8764943" lon="151.1828925">
    <tag k="addr:housenumber" v="3"/>
    <tag k="addr:street" v="Toxteth Road"/>
    <tag k="source" v="exrapolation"/>
  </node>
  <node id="995576033" version="2" timestamp="2011-05-29T08:33:19Z" uid="7617" user="Franc" changeset="8278454" lat="-33.8764943" lon="151.1828925">
    <tag k="addr:housenumber" v="3"/>
    <tag k="addr:street" v="Toxteth Road"/>
    <tag k="source" v="extrapolation"/>
  </node>
  <node id="995576034" version="1" timestamp="2010-11-20T01:26:40Z" uid="7617" user="Franc" changeset="6411501" lat="-33.9147787" lon="151.1466056">
    <tag k="addr:housenumber" v="40"/>
    <tag k="addr:street" v="Harnett Avenue"/>
    <tag k="source" v="exrapolation"/>
  </node>
  <node id="995576034" version="2" timestamp="2011-05-29T06:04:45Z" uid="7617" user="Franc" changeset="8277649" lat="-33.9147787" lon="151.1466056">
    <tag k="addr:housenumber" v="40"/>
    <tag k="addr:street" v="Harnett Avenue"/>
    <tag k="source" v="extrapolation"/>
  </node>
  <node id="995576034" version="3" timestamp="2012-02-13T04:45:06Z" uid="7523" user="inas" changeset="10670200" lat="-33.9147787" lon="151.1466056"/>
  <node id="995576035" version="1" timestamp="2010-11-20T01:26:40Z" uid="7617" user="Franc" changeset="6411501" lat="-33.8769499" lon="151.1821036">
    <tag k="addr:housenumber" v="13"/>
    <tag k="addr:street" v="Toxteth Road"/>
    <tag k="source" v="exrapolation"/>
  </node>
  <node id="995576035" version="2" timestamp="2011-05-29T08:33:29Z" uid="7617" user="Franc" changeset="8278454" lat="-33.8769499" lon="151.1821036">
    <tag k="addr:housenumber" v="13"/>
    <tag k="addr:street" v="Toxteth Road"/>
    <tag k="source" v="extrapolation"/>
  </node>
  <node id="995576037" version="1" timestamp="2010-11-20T01:26:40Z" uid="7617" user="Franc" changeset="6411501" lat="-33.8780307" lon="151.1805449">
    <tag k="addr:housenumber" v="58"/>
    <tag k="addr:street" v="Toxteth Road"/>
    <tag k="source" v="exrapolation"/>
  </node>
  <node id="995576037" version="2" timestamp="2011-05-29T08:32:56Z" uid="7617" user="Franc" changeset="8278454" lat="-33.8780307" lon="151.1805449">
    <tag k="addr:housenumber" v="58"/>
    <tag k="addr:street" v="Toxteth Road"/>
    <tag k="source" v="extrapolation"/>
  </node>
  <node id="995576039" version="1" timestamp="2010-11-20T01:26:40Z" uid="7617" user="Franc" changeset="6411501" lat="-33.9029476" lon="151.161307"/>
  <node id="995576039" version="2" timestamp="2011-06-14T12:04:51Z" uid="7617" user="Franc" changeset="8436623" lat="-33.9028722" lon="151.1613646"/>
  <node id="995576039" version="3" timestamp="2012-02-28T03:27:25Z" uid="7523" user="inas" changeset="10815457" lat="-33.9028722" lon="151.1613646"/>
  <node id="995576040" version="1" timestamp="2010-11-20T01:26:40Z" uid="7617" user="Franc" changeset="6411501" lat="-33.9148872" lon="151.1467936">
    <tag k="addr:housenumber" v="34"/>
    <tag k="addr:street" v="Harnett Avenue"/>
    <tag k="source" v="exrapolation"/>
  </node>
  <node id="995576040" version="2" timestamp="2011-05-29T06:04:44Z" uid="7617" user="Franc" changeset="8277649" lat="-33.9148872" lon="151.1467936">
    <tag k="addr:housenumber" v="34"/>
    <tag k="addr:street" v="Harnett Avenue"/>
    <tag k="source" v="extrapolation"/>
  </node>
  <node id="995576040" version="3" timestamp="2012-02-13T04:45:05Z" uid="7523" user="inas" changeset="10670200" lat="-33.9148872" lon="151.1467936"/>
  <node id="995576041" version="1" timestamp="2010-11-20T01:26:40Z" uid="7617" user="Franc" changeset="6411501" lat="-33.9087231" lon="151.157985">
    <tag k="addr:housenumber" v="172"/>
    <tag k="addr:street" v="Illawarra Road"/>
    <tag k="source" v="extrapolation"/>
  </node>
  <node id="995576041" version="2" timestamp="2012-02-13T05:25:56Z" uid="7523" user="inas" changeset="10670291" lat="-33.9087231" lon="151.157985"/>
  <node id="995576042" version="1" timestamp="2010-11-20T01:26:40Z" uid="7617" user="Franc" changeset="6411501" lat="-33.8782315" lon="151.1798986">
    <tag k="addr:housenumber" v="51"/>
    <tag k="addr:street" v="Toxteth Road"/>
    <tag k="source" v="exrapolation"/>
  </node>
  <node id="995576042" version="2" timestamp="2011-05-29T08:33:12Z" uid="7617" user="Franc" changeset="8278454" lat="-33.8782315" lon="151.1798986">
    <tag k="addr:housenumber" v="51"/>
    <tag k="addr:street" v="Toxteth Road"/>
    <tag k="source" v="extrapolation"/>
  </node>
  <node id="995576043" version="1" timestamp="2010-11-20T01:26:40Z" uid="7617" user="Franc" changeset="6411501" lat="-33.8777341" lon="151.1807531">
    <tag k="addr:housenumber" v="37"/>
    <tag k="addr:street" v="Toxteth Road"/>
    <tag k="source" v="exrapolation"/>
  </node>
  <node id="995576043" version="2" timestamp="2011-05-29T08:32:22Z" uid="7617" user="Franc" changeset="8278454" lat="-33.8777341" lon="151.1807531">
    <tag k="addr:housenumber" v="37"/>
    <tag k="addr:street" v="Toxteth Road"/>
    <tag k="source" v="extrapolation"/>
  </node>
  <node id="995576045" version="1" timestamp="2010-11-20T01:26:41Z" uid="7617" user="Franc" changeset="6411501" lat="-33.9170198" lon="151.1440388">
    <tag k="addr:housenumber" v="301"/>
    <tag k="addr:street" v="Livingstone Road"/>
    <tag k="source" v="survey"/>
  </node>
  <node id="995576045" version="2" timestamp="2012-02-13T04:37:28Z" uid="7523" user="inas" changeset="10670182" lat="-33.9170198" lon="151.1440388"/>
  <node id="995576046" version="1" timestamp="2010-11-20T01:26:41Z" uid="7617" user="Franc" changeset="6411501" lat="-33.9194465" lon="151.1428798">
    <tag k="addr:housenumber" v="355"/>
    <tag k="addr:street" v="Livingstone Road"/>
    <tag k="source" v="survey"/>
  </node>
  <node id="995576046" version="2" timestamp="2012-02-13T04:37:29Z" uid="7523" user="inas" changeset="10670182" lat="-33.9194465" lon="151.1428798"/>
  <node id="995576048" version="1" timestamp="2010-11-20T01:26:41Z" uid="7617" user="Franc" changeset="6411501" lat="-33.8778775" lon="151.1805112">
    <tag k="addr:housenumber" v="41"/>
    <tag k="addr:street" v="Toxteth Road"/>
    <tag k="source" v="survey"/>
  </node>
  <node id="995576048" version="2" timestamp="2012-02-16T05:59:31Z" uid="7523" user="inas" changeset="10698901" lat="-33.8778775" lon="151.1805112"/>
  <node id="995576049" version="1" timestamp="2010-11-20T01:26:41Z" uid="7617" user="Franc" changeset="6411501" lat="-33.8778476" lon="151.1808607">
    <tag k="addr:housenumber" v="48"/>
    <tag k="addr:street" v="Toxteth Road"/>
    <tag k="source" v="exrapolation"/>
  </node>
  <node id="995576049" version="2" timestamp="2011-05-29T08:32:54Z" uid="7617" user="Franc" changeset="8278454" lat="-33.8778476" lon="151.1808607">
    <tag k="addr:housenumber" v="48"/>
    <tag k="addr:street" v="Toxteth Road"/>
    <tag k="source" v="extrapolation"/>
  </node>
  <node id="995576051" version="1" timestamp="2010-11-20T01:26:41Z" uid="7617" user="Franc" changeset="6411501" lat="-33.876623" lon="151.182963">
    <tag k="addr:housenumber" v="14"/>
    <tag k="addr:street" v="Toxteth Road"/>
    <tag k="source" v="exrapolation"/>
  </node>
  <node id="995576051" version="2" timestamp="2011-05-29T08:33:07Z" uid="7617" user="Franc" changeset="8278454" lat="-33.876623" lon="151.182963">
    <tag k="addr:housenumber" v="14"/>
    <tag k="addr:street" v="Toxteth Road"/>
    <tag k="source" v="extrapolation"/>
  </node>
  <node id="995576052" version="1" timestamp="2010-11-20T01:26:41Z" uid="7617" user="Franc" changeset="6411501" lat="-33.8773367" lon="151.1814443">
    <tag k="addr:housenumber" v="25"/>
    <tag k="addr:street" v="Toxteth Road"/>
    <tag k="source" v="exrapolation"/>
  </node>
  <node id="995576052" version="2" timestamp="2011-05-29T08:33:24Z" uid="7617" user="Franc" changeset="8278454" lat="-33.8773367" lon="151.1814443">
    <tag k="addr:housenumber" v="25"/>
    <tag k="addr:street" v="Toxteth Road"/>
    <tag k="source" v="extrapolation"/>
  </node>
  <node id="995576053" version="1" timestamp="2010-11-20T01:26:41Z" uid="7617" user="Franc" changeset="6411501" lat="-33.8780782" lon="151.1801601">
    <tag k="addr:housenumber" v="45"/>
    <tag k="addr:street" v="Toxteth Road"/>
    <tag k="source" v="survey"/>
  </node>
  <node id="995576053" version="2" timestamp="2012-02-16T05:59:35Z" uid="7523" user="inas" changeset="10698901" lat="-33.8780782" lon="151.1801601"/>
  <node id="995576054" version="1" timestamp="2010-11-20T01:26:41Z" uid="7617" user="Franc" changeset="6411501" lat="-33.9151451" lon="151.1472457">
    <tag k="addr:housenumber" v="22"/>
    <tag k="addr:street" v="Harnett Avenue"/>
    <tag k="source" v="survey"/>
  </node>
  <node id="995576054" version="2" timestamp="2012-02-13T04:45:02Z" uid="7523" user="inas" changeset="10670200" lat="-33.9151451" lon="151.1472457"/>
  <node id="995576056" version="1" timestamp="2010-11-20T01:26:41Z" uid="7617" user="Franc" changeset="6411501" lat="-33.8782286" lon="151.180206">
    <tag k="addr:housenumber" v="66"/>
    <tag k="addr:street" v="Toxteth Road"/>
    <tag k="source" v="exrapolation"/>
  </node>
  <node id="995576056" version="2" timestamp="2011-05-29T08:32:37Z" uid="7617" user="Franc" changeset="8278454" lat="-33.8782286" lon="151.180206">
    <tag k="addr:housenumber" v="66"/>
    <tag k="addr:street" v="Toxteth Road"/>
    <tag k="source" v="extrapolation"/>
  </node>
  <node id="995576057" version="1" timestamp="2010-11-20T01:26:41Z" uid="7617" user="Franc" changeset="6411501" lat="-33.8771279" lon="151.1820801">
    <tag k="addr:housenumber" v="20"/>
    <tag k="addr:street" v="Toxteth Road"/>
    <tag k="source" v="survey"/>
  </node>
  <node id="995576057" version="2" timestamp="2012-02-16T05:58:55Z" uid="7523" user="inas" changeset="10698901" lat="-33.8771279" lon="151.1820801"/>
  <node id="995576059" version="1" timestamp="2010-11-20T01:26:41Z" uid="7617" user="Franc" changeset="6411501" lat="-33.8764422" lon="151.1829926">
    <tag k="addr:housenumber" v="1"/>
    <tag k="addr:street" v="Toxteth Road"/>
    <tag k="source" v="survey"/>
  </node>
  <node id="995576059" version="2" timestamp="2012-02-16T05:58:18Z" uid="7523" user="inas" changeset="10698901" lat="-33.8764422" lon="151.1829926"/>
  <node id="995576060" version="1" timestamp="2010-11-20T01:26:41Z" uid="7617" user="Franc" changeset="6411501" lat="-33.8781261" lon="151.1803873">
    <tag k="addr:housenumber" v="62"/>
    <tag k="addr:street" v="Toxteth Road"/>
    <tag k="source" v="survey"/>
  </node>
  <node id="995576060" version="2" timestamp="2012-02-16T05:59:53Z" uid="7523" user="inas" changeset="10698901" lat="-33.8781261" lon="151.1803873"/>
  <node id="995576062" version="1" timestamp="2010-11-20T01:26:42Z" uid="7617" user="Franc" changeset="6411501" lat="-33.908851" lon="151.1578639">
    <tag k="addr:housenumber" v="178"/>
    <tag k="addr:street" v="Illawarra Road"/>
    <tag k="source" v="extrapolation"/>
  </node>
  <node id="995576062" version="2" timestamp="2012-02-13T05:25:57Z" uid="7523" user="inas" changeset="10670291" lat="-33.908851" lon="151.1578639"/>
  <node id="995576063" version="1" timestamp="2010-11-20T01:26:42Z" uid="7617" user="Franc" changeset="6411501" lat="-33.9154175" lon="151.1477271">
    <tag k="addr:housenumber" v="14"/>
    <tag k="addr:street" v="Harnett Avenue"/>
    <tag k="source" v="exrapolation"/>
  </node>
  <node id="995576063" version="2" timestamp="2011-05-29T06:04:45Z" uid="7617" user="Franc" changeset="8277649" lat="-33.9154175" lon="151.1477271">
    <tag k="addr:housenumber" v="14"/>
    <tag k="addr:street" v="Harnett Avenue"/>
    <tag k="source" v="extrapolation"/>
  </node>
  <node id="995576063" version="3" timestamp="2012-02-13T04:44:59Z" uid="7523" user="inas" changeset="10670200" lat="-33.9154175" lon="151.1477271"/>
  <node id="995576064" version="1" timestamp="2010-11-20T01:26:42Z" uid="7617" user="Franc" changeset="6411501" lat="-33.8765733" lon="151.1827604">
    <tag k="addr:housenumber" v="5"/>
    <tag k="addr:street" v="Toxteth Road"/>
    <tag k="source" v="exrapolation"/>
  </node>
  <node id="995576064" version="2" timestamp="2011-05-29T08:31:48Z" uid="7617" user="Franc" changeset="8278454" lat="-33.8765733" lon="151.1827604">
    <tag k="addr:housenumber" v="5"/>
    <tag k="addr:street" v="Toxteth Road"/>
    <tag k="source" v="extrapolation"/>
  </node>
  <node id="995576065" version="1" timestamp="2010-11-20T01:26:42Z" uid="7617" user="Franc" changeset="6411501" lat="-33.9148565" lon="151.1467419">
    <tag k="addr:housenumber" v="36"/>
    <tag k="addr:street" v="Harnett Avenue"/>
    <tag k="source" v="exrapolation"/>
  </node>
  <node id="995576065" version="2" timestamp="2011-05-29T06:04:45Z" uid="7617" user="Franc" changeset="8277649" lat="-33.9148565" lon="151.1467419">
    <tag k="addr:housenumber" v="36"/>
    <tag k="addr:street" v="Harnett Avenue"/>
    <tag k="source" v="extrapolation"/>
  </node>
  <node id="995576065" version="3" timestamp="2012-02-13T04:45:05Z" uid="7523" user="inas" changeset="10670200" lat="-33.9148565" lon="151.1467419"/>
  <node id="995576068" version="1" timestamp="2010-11-20T01:26:42Z" uid="7617" user="Franc" changeset="6411501" lat="-33.8779518" lon="151.1806816">
    <tag k="addr:housenumber" v="54"/>
    <tag k="addr:street" v="Toxteth Road"/>
    <tag k="source" v="exrapolation"/>
  </node>
  <node id="995576068" version="2" timestamp="2011-05-29T08:33:17Z" uid="7617" user="Franc" changeset="8278454" lat="-33.8779518" lon="151.1806816">
    <tag k="addr:housenumber" v="54"/>
    <tag k="addr:street" v="Toxteth Road"/>
    <tag k="source" v="extrapolation"/>
  </node>
  <node id="995576069" version="1" timestamp="2010-11-20T01:26:42Z" uid="7617" user="Franc" changeset="6411501" lat="-33.9180155" lon="151.1439271"/>
  <node id="995576070" version="1" timestamp="2010-11-20T01:26:42Z" uid="7617" user="Franc" changeset="6411501" lat="-33.8763554" lon="151.1834315">
    <tag k="addr:housenumber" v="6"/>
    <tag k="addr:street" v="Toxteth Road"/>
    <tag k="source" v="exrapolation"/>
  </node>
  <node id="995576070" version="2" timestamp="2011-05-29T08:33:27Z" uid="7617" user="Franc" changeset="8278454" lat="-33.8763554" lon="151.1834315">
    <tag k="addr:housenumber" v="6"/>
    <tag k="addr:street" v="Toxteth Road"/>
    <tag k="source" v="extrapolation"/>
  </node>
  <node id="995576071" version="1" timestamp="2010-11-20T01:26:42Z" uid="7617" user="Franc" changeset="6411501" lat="-33.8775302" lon="151.1811147">
    <tag k="addr:housenumber" v="31"/>
    <tag k="addr:street" v="Toxteth Road"/>
    <tag k="source" v="survey"/>
  </node>
  <node id="995576071" version="2" timestamp="2012-02-16T05:59:17Z" uid="7523" user="inas" changeset="10698901" lat="-33.8775302" lon="151.1811147"/>
  <node id="995576072" version="1" timestamp="2010-11-20T01:26:42Z" uid="7617" user="Franc" changeset="6411501" lat="-33.9086379" lon="151.1580657">
    <tag k="addr:housenumber" v="168"/>
    <tag k="addr:street" v="Illawarra Road"/>
    <tag k="source" v="extrapolation"/>
  </node>
  <node id="995576072" version="2" timestamp="2012-02-13T05:25:54Z" uid="7523" user="inas" changeset="10670291" lat="-33.9086379" lon="151.1580657"/>
  <node id="995576074" version="1" timestamp="2010-11-20T01:26:42Z" uid="7617" user="Franc" changeset="6411501" lat="-33.8781959" lon="151.1799569">
    <tag k="addr:housenumber" v="49"/>
    <tag k="addr:street" v="Toxteth Road"/>
    <tag k="source" v="survey"/>
  </node>
  <node id="995576074" version="2" timestamp="2012-02-16T05:59:39Z" uid="7523" user="inas" changeset="10698901" lat="-33.8781959" lon="151.1799569"/>
  <node id="995576075" version="1" timestamp="2010-11-20T01:26:42Z" uid="7617" user="Franc" changeset="6411501" lat="-33.9150802" lon="151.1471348">
    <tag k="addr:housenumber" v="24"/>
    <tag k="addr:street" v="Harnett Avenue"/>
    <tag k="source" v="exrapolation"/>
  </node>
  <node id="995576075" version="2" timestamp="2011-05-29T06:04:44Z" uid="7617" user="Franc" changeset="8277649" lat="-33.9150802" lon="151.1471348">
    <tag k="addr:housenumber" v="24"/>
    <tag k="addr:street" v="Harnett Avenue"/>
    <tag k="source" v="extrapolation"/>
  </node>
  <node id="995576075" version="3" timestamp="2012-02-13T04:45:02Z" uid="7523" user="inas" changeset="10670200" lat="-33.9150802" lon="151.1471348"/>
  <node id="995576077" version="1" timestamp="2010-11-20T01:26:43Z" uid="7617" user="Franc" changeset="6411501" lat="-33.8768854" lon="151.1822135">
    <tag k="addr:housenumber" v="11"/>
    <tag k="addr:street" v="Toxteth Road"/>
    <tag k="source" v="survey"/>
  </node>
  <node id="995576077" version="2" timestamp="2012-02-16T05:58:25Z" uid="7523" user="inas" changeset="10698901" lat="-33.8768854" lon="151.1822135"/>
  <node id="995576078" version="1" timestamp="2010-11-20T01:26:43Z" uid="7617" user="Franc" changeset="6411501" lat="-33.8777846" lon="151.1809722">
    <tag k="addr:housenumber" v="44"/>
    <tag k="addr:street" v="Toxteth Road"/>
    <tag k="source" v="exrapolation"/>
  </node>
  <node id="995576078" version="2" timestamp="2011-05-29T08:32:20Z" uid="7617" user="Franc" changeset="8278454" lat="-33.8777846" lon="151.1809722">
    <tag k="addr:housenumber" v="44"/>
    <tag k="addr:street" v="Toxteth Road"/>
    <tag k="source" v="extrapolation"/>
  </node>
  <node id="995576080" version="1" timestamp="2010-11-20T01:26:43Z" uid="7617" user="Franc" changeset="6411501" lat="-33.8765528" lon="151.1830863">
    <tag k="addr:housenumber" v="12"/>
    <tag k="addr:street" v="Toxteth Road"/>
    <tag k="source" v="exrapolation"/>
  </node>
  <node id="995576080" version="2" timestamp="2011-05-29T08:33:14Z" uid="7617" user="Franc" changeset="8278454" lat="-33.8765528" lon="151.1830863">
    <tag k="addr:housenumber" v="12"/>
    <tag k="addr:street" v="Toxteth Road"/>
    <tag k="source" v="extrapolation"/>
  </node>
  <node id="995576081" version="1" timestamp="2010-11-20T01:26:43Z" uid="7617" user="Franc" changeset="6411501" lat="-33.8767317" lon="151.1827846">
    <tag k="addr:housenumber" v="16"/>
    <tag k="addr:street" v="Toxteth Road"/>
    <tag k="source" v="survey"/>
  </node>
  <node id="995576081" version="2" timestamp="2012-02-16T05:58:40Z" uid="7523" user="inas" changeset="10698901" lat="-33.8767317" lon="151.1827846"/>
  <node id="995576082" version="1" timestamp="2010-11-20T01:26:43Z" uid="7617" user="Franc" changeset="6411501" lat="-33.9150011" lon="151.1469879">
    <tag k="addr:housenumber" v="28"/>
    <tag k="addr:street" v="Harnett Avenue"/>
    <tag k="source" v="survey"/>
  </node>
  <node id="995576082" version="2" timestamp="2012-02-13T04:45:02Z" uid="7523" user="inas" changeset="10670200" lat="-33.9150011" lon="151.1469879"/>
  <node id="995576083" version="1" timestamp="2010-11-20T01:26:43Z" uid="7617" user="Franc" changeset="6411501" lat="-33.8772078" lon="151.1816641">
    <tag k="addr:housenumber" v="21"/>
    <tag k="addr:street" v="Toxteth Road"/>
    <tag k="source" v="exrapolation"/>
  </node>
  <node id="995576083" version="2" timestamp="2011-05-29T08:32:35Z" uid="7617" user="Franc" changeset="8278454" lat="-33.8772078" lon="151.1816641">
    <tag k="addr:housenumber" v="21"/>
    <tag k="addr:street" v="Toxteth Road"/>
    <tag k="source" v="extrapolation"/>
  </node>
  <node id="995576085" version="1" timestamp="2010-11-20T01:26:43Z" uid="7617" user="Franc" changeset="6411501" lat="-33.903249" lon="151.1613352"/>
  <node id="995576085" version="2" timestamp="2012-02-28T03:27:26Z" uid="7523" user="inas" changeset="10815457" lat="-33.903249" lon="151.1613352"/>
  <node id="995576086" version="1" timestamp="2010-11-20T01:26:43Z" uid="7617" user="Franc" changeset="6411501" lat="-33.9152123" lon="151.1473639">
    <tag k="addr:housenumber" v="20"/>
    <tag k="addr:street" v="Harnett Avenue"/>
    <tag k="source" v="exrapolation"/>
  </node>
  <node id="995576086" version="2" timestamp="2011-05-29T06:04:44Z" uid="7617" user="Franc" changeset="8277649" lat="-33.9152123" lon="151.1473639">
    <tag k="addr:housenumber" v="20"/>
    <tag k="addr:street" v="Harnett Avenue"/>
    <tag k="source" v="extrapolation"/>
  </node>
  <node id="995576086" version="3" timestamp="2012-02-13T04:45:01Z" uid="7523" user="inas" changeset="10670200" lat="-33.9152123" lon="151.1473639"/>
  <node id="995576087" version="1" timestamp="2010-11-20T01:26:43Z" uid="7617" user="Franc" changeset="6411501" lat="-33.877081" lon="151.182145">
    <tag k="addr:housenumber" v="18"/>
    <tag k="addr:street" v="Toxteth Road"/>
    <tag k="source" v="survey"/>
  </node>
  <node id="995576087" version="2" timestamp="2012-02-16T05:58:45Z" uid="7523" user="inas" changeset="10698901" lat="-33.877081" lon="151.182145"/>
  <node id="995576088" version="1" timestamp="2010-11-20T01:26:43Z" uid="7617" user="Franc" changeset="6411501" lat="-33.9147362" lon="151.146532">
    <tag k="addr:housenumber" v="42"/>
    <tag k="addr:street" v="Harnett Avenue"/>
    <tag k="source" v="exrapolation"/>
  </node>
  <node id="995576088" version="2" timestamp="2011-05-29T06:04:44Z" uid="7617" user="Franc" changeset="8277649" lat="-33.9147362" lon="151.146532">
    <tag k="addr:housenumber" v="42"/>
    <tag k="addr:street" v="Harnett Avenue"/>
    <tag k="source" v="extrapolation"/>
  </node>
  <node id="995576088" version="3" timestamp="2012-02-13T04:45:06Z" uid="7523" user="inas" changeset="10670200" lat="-33.9147362" lon="151.146532"/>
  <node id="995576090" version="1" timestamp="2010-11-20T01:26:43Z" uid="7617" user="Franc" changeset="6411501" lat="-33.8769997" lon="151.1820219">
    <tag k="addr:housenumber" v="15"/>
    <tag k="addr:street" v="Toxteth Road"/>
    <tag k="source" v="exrapolation"/>
  </node>
  <node id="995576090" version="2" timestamp="2011-05-29T08:32:19Z" uid="7617" user="Franc" changeset="8278454" lat="-33.8769997" lon="151.1820219">
    <tag k="addr:housenumber" v="15"/>
    <tag k="addr:street" v="Toxteth Road"/>
    <tag k="source" v="extrapolation"/>
  </node>
  <node id="995576091" version="1" timestamp="2010-11-20T01:26:43Z" uid="7617" user="Franc" changeset="6411501" lat="-33.8780791" lon="151.1804626">
    <tag k="addr:housenumber" v="60"/>
    <tag k="addr:street" v="Toxteth Road"/>
    <tag k="source" v="exrapolation"/>
  </node>
  <node id="995576091" version="2" timestamp="2011-05-29T08:33:20Z" uid="7617" user="Franc" changeset="8278454" lat="-33.8780791" lon="151.1804626">
    <tag k="addr:housenumber" v="60"/>
    <tag k="addr:street" v="Toxteth Road"/>
    <tag k="source" v="extrapolation"/>
  </node>
  <node id="995576093" version="1" timestamp="2010-11-20T01:26:44Z" uid="7617" user="Franc" changeset="6411501" lat="-33.9084659" lon="151.1582304">
    <tag k="addr:housenumber" v="160"/>
    <tag k="addr:street" v="Illawarra Road"/>
    <tag k="source" v="survey"/>
  </node>
  <node id="995576093" version="2" timestamp="2012-02-13T05:25:52Z" uid="7523" user="inas" changeset="10670291" lat="-33.9084659" lon="151.1582304"/>
  <node id="995576094" version="1" timestamp="2010-11-20T01:26:44Z" uid="7617" user="Franc" changeset="6411501" lat="-33.9155906" lon="151.1487826"/>
  <node id="995576095" version="1" timestamp="2010-11-20T01:26:44Z" uid="7617" user="Franc" changeset="6411501" lat="-33.8775312" lon="151.1813684">
    <tag k="addr:housenumber" v="38"/>
    <tag k="addr:street" v="Toxteth Road"/>
    <tag k="source" v="survey"/>
  </node>
  <node id="995576095" version="2" timestamp="2012-02-16T05:59:25Z" uid="7523" user="inas" changeset="10698901" lat="-33.8775312" lon="151.1813684"/>
  <node id="995576096" version="1" timestamp="2010-11-20T01:26:44Z" uid="7617" user="Franc" changeset="6411501" lat="-33.9146644" lon="151.1464002">
    <tag k="addr:housenumber" v="46"/>
    <tag k="addr:street" v="Harnett Avenue"/>
    <tag k="source" v="exrapolation"/>
  </node>
  <node id="995576096" version="2" timestamp="2011-05-29T08:32:34Z" uid="7617" user="Franc" changeset="8278454" lat="-33.9146644" lon="151.1464002">
    <tag k="addr:housenumber" v="46"/>
    <tag k="addr:street" v="Harnett Avenue"/>
    <tag k="source" v="extrapolation"/>
  </node>
  <node id="995576096" version="3" timestamp="2012-02-13T04:45:07Z" uid="7523" user="inas" changeset="10670200" lat="-33.9146644" lon="151.1464002"/>
  <node id="995576097" version="1" timestamp="2010-11-20T01:26:44Z" uid="7617" user="Franc" changeset="6411501" lat="-33.8782458" lon="151.1817591"/>
  <node id="995576098" version="1" timestamp="2010-11-20T01:26:44Z" uid="7617" user="Franc" changeset="6411501" lat="-33.9091313" lon="151.1578192">
    <tag k="addr:housenumber" v="207"/>
    <tag k="addr:street" v="Illawarra Road"/>
  </node>
  <node id="995576098" version="2" timestamp="2012-02-13T05:26:14Z" uid="7523" user="inas" changeset="10670291" lat="-33.9091313" lon="151.1578192"/>
  <node id="995576099" version="1" timestamp="2010-11-20T01:26:44Z" uid="7617" user="Franc" changeset="6411501" lat="-33.9087658" lon="151.1579447">
    <tag k="addr:housenumber" v="174"/>
    <tag k="addr:street" v="Illawarra Road"/>
    <tag k="source" v="extrapolation"/>
  </node>
  <node id="995576099" version="2" timestamp="2012-02-13T05:25:57Z" uid="7523" user="inas" changeset="10670291" lat="-33.9087658" lon="151.1579447"/>
  <node id="995576101" version="1" timestamp="2010-11-20T01:26:44Z" uid="7617" user="Franc" changeset="6411501" lat="-33.9184941" lon="151.1438379">
    <tag k="addr:housenumber" v="370"/>
    <tag k="addr:street" v="Livingstone Road"/>
    <tag k="source" v="exrapolation"/>
  </node>
  <node id="995576101" version="2" timestamp="2011-05-29T08:33:13Z" uid="7617" user="Franc" changeset="8278454" lat="-33.9184941" lon="151.1438379">
    <tag k="addr:housenumber" v="370"/>
    <tag k="addr:street" v="Livingstone Road"/>
    <tag k="source" v="extrapolation"/>
  </node>
  <node id="995576101" version="3" timestamp="2012-02-13T04:37:29Z" uid="7523" user="inas" changeset="10670182" lat="-33.9184941" lon="151.1438379"/>
  <node id="995576103" version="1" timestamp="2010-11-20T01:26:44Z" uid="7617" user="Franc" changeset="6411501" lat="-33.8768175" lon="151.1823289">
    <tag k="addr:housenumber" v="9"/>
    <tag k="addr:street" v="Toxteth Road"/>
    <tag k="source" v="exrapolation"/>
  </node>
  <node id="995576103" version="2" timestamp="2011-05-29T08:33:25Z" uid="7617" user="Franc" changeset="8278454" lat="-33.8768175" lon="151.1823289">
    <tag k="addr:housenumber" v="9"/>
    <tag k="addr:street" v="Toxteth Road"/>
    <tag k="source" v="extrapolation"/>
  </node>
  <node id="995576104" version="1" timestamp="2010-11-20T01:26:44Z" uid="7617" user="Franc" changeset="6411501" lat="-33.8767882" lon="151.182536"/>
  <node id="995576105" version="1" timestamp="2010-11-20T01:26:44Z" uid="7617" user="Franc" changeset="6411501" lat="-33.8778816" lon="151.1808027">
    <tag k="addr:housenumber" v="50"/>
    <tag k="addr:street" v="Toxteth Road"/>
    <tag k="source" v="exrapolation"/>
  </node>
  <node id="995576105" version="2" timestamp="2011-05-29T08:32:28Z" uid="7617" user="Franc" changeset="8278454" lat="-33.8778816" lon="151.1808027">
    <tag k="addr:housenumber" v="50"/>
    <tag k="addr:street" v="Toxteth Road"/>
    <tag k="source" v="extrapolation"/>
  </node>
  <node id="995576106" version="1" timestamp="2010-11-20T01:26:44Z" uid="7617" user="Franc" changeset="6411501" lat="-33.9085513" lon="151.1581489">
    <tag k="addr:housenumber" v="164"/>
    <tag k="addr:street" v="Illawarra Road"/>
    <tag k="source" v="survey"/>
  </node>
  <node id="995576106" version="2" timestamp="2012-02-13T05:25:53Z" uid="7523" user="inas" changeset="10670291" lat="-33.9085513" lon="151.1581489"/>
  <node id="995576108" version="1" timestamp="2010-11-20T01:26:44Z" uid="7617" user="Franc" changeset="6411501" lat="-33.8763086" lon="151.1835125">
    <tag k="addr:housenumber" v="4"/>
    <tag k="addr:street" v="Toxteth Road"/>
    <tag k="source" v="exrapolation"/>
  </node>
  <node id="995576108" version="2" timestamp="2011-05-29T08:32:55Z" uid="7617" user="Franc" changeset="8278454" lat="-33.8763086" lon="151.1835125">
    <tag k="addr:housenumber" v="4"/>
    <tag k="addr:street" v="Toxteth Road"/>
    <tag k="source" v="extrapolation"/>
  </node>
  <node id="995576109" version="1" timestamp="2010-11-20T01:26:45Z" uid="7617" user="Franc" changeset="6411501" lat="-33.8776707" lon="151.1808677">
    <tag k="addr:housenumber" v="35"/>
    <tag k="addr:street" v="Toxteth Road"/>
    <tag k="source" v="exrapolation"/>
  </node>
  <node id="995576109" version="2" timestamp="2011-05-29T08:32:08Z" uid="7617" user="Franc" changeset="8278454" lat="-33.8776707" lon="151.1808677">
    <tag k="addr:housenumber" v="35"/>
    <tag k="addr:street" v="Toxteth Road"/>
    <tag k="source" v="extrapolation"/>
  </node>
  <node id="995576110" version="1" timestamp="2010-11-20T01:26:45Z" uid="7617" user="Franc" changeset="6411501" lat="-33.9086612" lon="151.1582517">
    <tag k="addr:housenumber" v="187"/>
    <tag k="addr:street" v="Illawarra Road"/>
    <tag k="source" v="survey"/>
  </node>
  <node id="995576110" version="2" timestamp="2012-02-13T05:26:01Z" uid="7523" user="inas" changeset="10670291" lat="-33.9086612" lon="151.1582517"/>
  <node id="995576111" version="1" timestamp="2010-11-20T01:26:45Z" uid="7617" user="Franc" changeset="6411501" lat="-33.8764252" lon="151.1833172">
    <tag k="addr:housenumber" v="8"/>
    <tag k="addr:street" v="Toxteth Road"/>
    <tag k="source" v="survey"/>
  </node>
  <node id="995576111" version="2" timestamp="2012-02-16T06:00:06Z" uid="7523" user="inas" changeset="10698901" lat="-33.8764252" lon="151.1833172"/>
  <node id="995576113" version="1" timestamp="2010-11-20T01:26:45Z" uid="7617" user="Franc" changeset="6411501" lat="-33.8774012" lon="151.1813345">
    <tag k="addr:housenumber" v="27"/>
    <tag k="addr:street" v="Toxteth Road"/>
    <tag k="source" v="exrapolation"/>
  </node>
  <node id="995576113" version="2" timestamp="2011-05-29T08:33:11Z" uid="7617" user="Franc" changeset="8278454" lat="-33.8774012" lon="151.1813345">
    <tag k="addr:housenumber" v="27"/>
    <tag k="addr:street" v="Toxteth Road"/>
    <tag k="source" v="extrapolation"/>
  </node>
  <node id="995576115" version="1" timestamp="2010-11-20T01:26:45Z" uid="7617" user="Franc" changeset="6411501" lat="-33.9181143" lon="151.1441225"/>
  <node id="995576116" version="1" timestamp="2010-11-20T01:26:45Z" uid="7617" user="Franc" changeset="6411501" lat="-33.8782748" lon="151.1801209">
    <tag k="addr:housenumber" v="68"/>
    <tag k="addr:street" v="Toxteth Road"/>
    <tag k="source" v="exrapolation"/>
  </node>
  <node id="995576116" version="2" timestamp="2011-05-29T08:31:50Z" uid="7617" user="Franc" changeset="8278454" lat="-33.8782748" lon="151.1801209">
    <tag k="addr:housenumber" v="68"/>
    <tag k="addr:street" v="Toxteth Road"/>
    <tag k="source" v="extrapolation"/>
  </node>
  <node id="995576117" version="1" timestamp="2010-11-20T01:26:45Z" uid="7617" user="Franc" changeset="6411501" lat="-33.878131" lon="151.1800657">
    <tag k="addr:housenumber" v="47"/>
    <tag k="addr:street" v="Toxteth Road"/>
    <tag k="source" v="survey"/>
  </node>
  <node id="995576117" version="2" timestamp="2012-02-16T05:59:37Z" uid="7523" user="inas" changeset="10698901" lat="-33.878131" lon="151.1800657"/>
  <node id="995576118" version="1" timestamp="2010-11-20T01:26:45Z" uid="7617" user="Franc" changeset="6411501" lat="-33.917395" lon="151.1442099">
    <tag k="addr:housenumber" v="350"/>
    <tag k="addr:street" v="Livingstone Road"/>
    <tag k="source" v="exrapolation"/>
  </node>
  <node id="995576118" version="2" timestamp="2011-05-29T08:32:03Z" uid="7617" user="Franc" changeset="8278454" lat="-33.917395" lon="151.1442099">
    <tag k="addr:housenumber" v="350"/>
    <tag k="addr:street" v="Livingstone Road"/>
    <tag k="source" v="extrapolation"/>
  </node>
  <node id="995576118" version="3" timestamp="2012-02-13T04:37:29Z" uid="7523" user="inas" changeset="10670182" lat="-33.917395" lon="151.1442099"/>
  <node id="995576120" version="1" timestamp="2010-11-20T01:26:45Z" uid="7617" user="Franc" changeset="6411501" lat="-33.8764914" lon="151.1831972">
    <tag k="addr:housenumber" v="10"/>
    <tag k="addr:street" v="Toxteth Road"/>
    <tag k="source" v="exrapolation"/>
  </node>
  <node id="995576120" version="2" timestamp="2011-05-29T08:32:54Z" uid="7617" user="Franc" changeset="8278454" lat="-33.8764914" lon="151.1831972">
    <tag k="addr:housenumber" v="10"/>
    <tag k="addr:street" v="Toxteth Road"/>
    <tag k="source" v="extrapolation"/>
  </node>
  <node id="995576121" version="1" timestamp="2010-11-20T01:26:45Z" uid="7617" user="Franc" changeset="6411501" lat="-33.8994399" lon="151.1757336"/>
  <node id="995576122" version="1" timestamp="2010-11-20T01:26:45Z" uid="7617" user="Franc" changeset="6411501" lat="-33.8763123" lon="151.1831263">
    <tag k="addr:housenumber" v="2"/>
    <tag k="addr:street" v="Allen Street"/>
    <tag k="source" v="survey"/>
  </node>
  <node id="995576122" version="2" timestamp="2012-02-16T05:58:49Z" uid="7523" user="inas" changeset="10698901" lat="-33.8763123" lon="151.1831263"/>
  <node id="995576123" version="1" timestamp="2010-11-20T01:26:45Z" uid="7617" user="Franc" changeset="6411501" lat="-33.8776885" lon="151.1811393">
    <tag k="addr:housenumber" v="40"/>
    <tag k="addr:street" v="Toxteth Road"/>
    <tag k="source" v="survey"/>
  </node>
  <node id="995576123" version="2" timestamp="2012-02-16T05:59:30Z" uid="7523" user="inas" changeset="10698901" lat="-33.8776885" lon="151.1811393"/>
  <node id="995576125" version="1" timestamp="2010-11-20T01:26:45Z" uid="7617" user="Franc" changeset="6411501" lat="-33.9153585" lon="151.1476188">
    <tag k="addr:housenumber" v="16"/>
    <tag k="addr:street" v="Harnett Avenue"/>
    <tag k="source" v="exrapolation"/>
  </node>
  <node id="995576125" version="2" timestamp="2011-05-29T06:04:45Z" uid="7617" user="Franc" changeset="8277649" lat="-33.9153585" lon="151.1476188">
    <tag k="addr:housenumber" v="16"/>
    <tag k="addr:street" v="Harnett Avenue"/>
    <tag k="source" v="extrapolation"/>
  </node>
  <node id="995576125" version="3" timestamp="2012-02-13T04:44:59Z" uid="7523" user="inas" changeset="10670200" lat="-33.9153585" lon="151.1476188"/>
  <node id="995576127" version="1" timestamp="2010-11-20T01:26:46Z" uid="7617" user="Franc" changeset="6411501" lat="-33.8765919" lon="151.1823434"/>
  <node id="995576128" version="1" timestamp="2010-11-20T01:26:46Z" uid="7617" user="Franc" changeset="6411501" lat="-33.9148176" lon="151.1466738">
    <tag k="addr:housenumber" v="38"/>
    <tag k="addr:street" v="Harnett Avenue"/>
    <tag k="source" v="exrapolation"/>
  </node>
  <node id="995576128" version="2" timestamp="2011-05-29T06:04:45Z" uid="7617" user="Franc" changeset="8277649" lat="-33.9148176" lon="151.1466738">
    <tag k="addr:housenumber" v="38"/>
    <tag k="addr:street" v="Harnett Avenue"/>
    <tag k="source" v="extrapolation"/>
  </node>
  <node id="995576128" version="3" timestamp="2012-02-13T04:45:05Z" uid="7523" user="inas" changeset="10670200" lat="-33.9148176" lon="151.1466738"/>
  <node id="995576129" version="1" timestamp="2010-11-20T01:26:46Z" uid="7617" user="Franc" changeset="6411501" lat="-33.8779837" lon="151.1806219">
    <tag k="addr:housenumber" v="56"/>
    <tag k="addr:street" v="Toxteth Road"/>
    <tag k="source" v="exrapolation"/>
  </node>
  <node id="995576129" version="2" timestamp="2011-05-29T08:33:05Z" uid="7617" user="Franc" changeset="8278454" lat="-33.8779837" lon="151.1806219">
    <tag k="addr:housenumber" v="56"/>
    <tag k="addr:street" v="Toxteth Road"/>
    <tag k="source" v="extrapolation"/>
  </node>
  <node id="995576130" version="1" timestamp="2010-11-20T01:26:46Z" uid="7617" user="Franc" changeset="6411501" lat="-33.9031528" lon="151.1611512"/>
  <node id="995576130" version="2" timestamp="2012-02-28T03:27:26Z" uid="7523" user="inas" changeset="10815457" lat="-33.9031528" lon="151.1611512"/>
  <node id="995576131" version="1" timestamp="2010-11-20T01:26:46Z" uid="7617" user="Franc" changeset="6411501" lat="-33.908613" lon="151.1583017">
    <tag k="addr:housenumber" v="185"/>
    <tag k="addr:street" v="Illawarra Road"/>
    <tag k="source" v="survey"/>
  </node>
  <node id="995576131" version="2" timestamp="2012-02-13T05:26:00Z" uid="7523" user="inas" changeset="10670291" lat="-33.908613" lon="151.1583017"/>
  <node id="995576133" version="1" timestamp="2010-11-20T01:26:46Z" uid="7617" user="Franc" changeset="6411501" lat="-33.8766432" lon="151.1826397">
    <tag k="addr:housenumber" v="7"/>
    <tag k="addr:street" v="Toxteth Road"/>
    <tag k="source" v="survey"/>
  </node>
  <node id="995576133" version="2" timestamp="2012-02-16T05:59:59Z" uid="7523" user="inas" changeset="10698901" lat="-33.8766432" lon="151.1826397"/>
  <node id="995576134" version="1" timestamp="2010-11-20T01:26:46Z" uid="7617" user="Franc" changeset="6411501" lat="-33.9033203" lon="151.1618386">
    <tag k="amenity" v="child_care"/>
    <tag k="name" v="Addison Road Childcare"/>
  </node>
  <node id="995576134" version="2" timestamp="2012-02-28T03:26:39Z" uid="7523" user="inas" changeset="10815457" lat="-33.9033203" lon="151.1618386"/>
  <node id="995576136" version="1" timestamp="2010-11-20T01:26:46Z" uid="7617" user="Franc" changeset="6411501" lat="-33.9149224" lon="151.146853">
    <tag k="addr:housenumber" v="32"/>
    <tag k="addr:street" v="Harnett Avenue"/>
    <tag k="source" v="exrapolation"/>
  </node>
  <node id="995576136" version="2" timestamp="2011-05-29T06:04:44Z" uid="7617" user="Franc" changeset="8277649" lat="-33.9149224" lon="151.146853">
    <tag k="addr:housenumber" v="32"/>
    <tag k="addr:street" v="Harnett Avenue"/>
    <tag k="source" v="extrapolation"/>
  </node>
  <node id="995576136" version="3" timestamp="2012-02-13T04:45:04Z" uid="7523" user="inas" changeset="10670200" lat="-33.9149224" lon="151.146853"/>
  <node id="995576137" version="1" timestamp="2010-11-20T01:26:46Z" uid="7617" user="Franc" changeset="6411501" lat="-33.878172" lon="151.1818156"/>
  <node id="995576138" version="1" timestamp="2010-11-20T01:26:46Z" uid="7617" user="Franc" changeset="6411501" lat="-33.9086805" lon="151.1580254">
    <tag k="addr:housenumber" v="170"/>
    <tag k="addr:street" v="Illawarra Road"/>
    <tag k="source" v="extrapolation"/>
  </node>
  <node id="995576138" version="2" timestamp="2012-02-13T05:25:56Z" uid="7523" user="inas" changeset="10670291" lat="-33.9086805" lon="151.1580254"/>
  <node id="995576140" version="1" timestamp="2010-11-20T01:26:46Z" uid="7617" user="Franc" changeset="6411501" lat="-33.9178409" lon="151.1474602">
    <tag k="addr:housenumber" v="464"/>
    <tag k="addr:street" v="Illawarra Road"/>
    <tag k="source" v="survey"/>
  </node>
  <node id="995576140" version="2" timestamp="2011-04-25T05:58:57Z" uid="7617" user="Franc" changeset="7959352" lat="-33.9178352" lon="151.1474506">
    <tag k="addr:housenumber" v="464"/>
    <tag k="addr:street" v="Illawarra Road"/>
    <tag k="source" v="survey"/>
  </node>
  <node id="995576140" version="3" timestamp="2012-02-13T05:13:47Z" uid="7523" user="inas" changeset="10670260" lat="-33.9178352" lon="151.1474506"/>
  <node id="995576141" version="1" timestamp="2010-11-20T01:26:46Z" uid="7617" user="Franc" changeset="6411501" lat="-33.9150493" lon="151.14708">
    <tag k="addr:housenumber" v="26"/>
    <tag k="addr:street" v="Harnett Avenue"/>
    <tag k="source" v="exrapolation"/>
  </node>
  <node id="995576141" version="2" timestamp="2011-05-29T06:04:44Z" uid="7617" user="Franc" changeset="8277649" lat="-33.9150493" lon="151.14708">
    <tag k="addr:housenumber" v="26"/>
    <tag k="addr:street" v="Harnett Avenue"/>
    <tag k="source" v="extrapolation"/>
  </node>
  <node id="995576141" version="3" timestamp="2012-02-13T04:45:02Z" uid="7523" user="inas" changeset="10670200" lat="-33.9150493" lon="151.14708"/>
</osm>
