<?xml version='1.0' encoding='UTF-8'?>
<osm version="0.6" generator="libosmium/2.20.0">
  <node id="997932494" version="3" timestamp="2011-01-10T12:37:20Z" uid="30632" user="antblant" changeset="6925832" lat="53.4951598" lon="14.7374735">
    <tag k="name" v="Iwno"/>
    <tag k="note" v="administrative in Lubczyna"/>
    <tag k="place" v="hamlet"/>
    <tag k="wikipedia" v="Pl:Iwno_(województwo_zachodniopomorskie)"/>
  </node>
  <node id="997932494" version="4" timestamp="2011-01-20T20:38:14Z" uid="373642" user="bartek janik" changeset="7034517" lat="53.4949713" lon="14.7376578">
    <tag k="name" v="Iwno"/>
    <tag k="note" v="administrative in Lubczyna"/>
    <tag k="place" v="hamlet"/>
    <tag k="wikipedia" v="Pl:Iwno_(województwo_zachodniopomorskie)"/>
  </node>
  <node id="997932494" version="5" timestamp="2011-10-09T17:55:00Z" uid="373642" user="bartek janik" changeset="9514731" lat="53.4954819" lon="14.736542">
    <tag k="name" v="Iwno"/>
    <tag k="note" v="administrative in Lubczyna"/>
    <tag k="place" v="hamlet"/>
    <tag k="wikipedia" v="Pl:Iwno_(województwo_zachodniopomorskie)"/>
  </node>
</osm>
