<?xml version='1.0' encoding='UTF-8'?>
<osm version="0.6" generator="libosmium/2.20.0">
  <node id="99873218" version="4" timestamp="2008-05-15T12:39:43Z" uid="36809" user="pfoten_weg_!_" changeset="450409" lat="48.0670804" lon="11.5395833">
    <tag k="amenity" v="restaurant"/>
    <tag k="created_by" v="Potlatch 0.9a"/>
    <tag k="name" v="Waldwirtschaft (WaWi)"/>
  </node>
  <node id="99873218" version="5" timestamp="2008-05-15T12:40:52Z" uid="36809" user="pfoten_weg_!_" changeset="450409" lat="48.0668854" lon="11.5396949">
    <tag k="amenity" v="restaurant"/>
    <tag k="created_by" v="Potlatch 0.9a"/>
    <tag k="name" v="Waldwirtschaft (WaWi)"/>
  </node>
  <node id="99873218" version="6" timestamp="2008-05-29T21:29:51Z" uid="36809" user="pfoten_weg_!_" changeset="550842" lat="48.0669051" lon="11.5396836">
    <tag k="amenity" v="restaurant"/>
    <tag k="created_by" v="Potlatch 0.9c"/>
    <tag k="name" v="Waldwirtschaft (WaWi)"/>
  </node>
  <node id="99873218" version="7" timestamp="2008-07-18T11:08:44Z" uid="36809" user="pfoten_weg_!_" changeset="527184" lat="48.0669083" lon="11.5396827">
    <tag k="amenity" v="restaurant"/>
    <tag k="created_by" v="Potlatch 0.9c"/>
    <tag k="name" v="Waldwirtschaft (WaWi)"/>
  </node>
  <node id="99873218" version="8" timestamp="2008-08-18T12:02:12Z" uid="36809" user="pfoten_weg_!_" changeset="306127" lat="48.0669083" lon="11.5396826">
    <tag k="amenity" v="restaurant"/>
    <tag k="created_by" v="RambaZamba"/>
    <tag k="name" v="Waldwirtschaft (WaWi)"/>
  </node>
  <node id="99873218" version="9" timestamp="2008-08-18T12:50:27Z" uid="36809" user="pfoten_weg_!_" changeset="306127" lat="48.0669083" lon="11.5396842">
    <tag k="amenity" v="restaurant"/>
    <tag k="created_by" v="RambaZamba"/>
    <tag k="name" v="Waldwirtschaft (WaWi)"/>
  </node>
  <node id="99873218" version="10" timestamp="2008-09-25T18:18:27Z" uid="36809" user="pfoten_weg_!_" changeset="696635" lat="48.0669083" lon="11.5396842">
    <tag k="amenity" v="restaurant"/>
    <tag k="created_by" v="RambaZamba"/>
    <tag k="name" v="Waldwirtschaft (WaWi)"/>
    <tag k="source" v="survey"/>
  </node>
  <node id="99873218" version="11" timestamp="2008-10-01T01:54:07Z" uid="36809" user="pfoten_weg_!_" changeset="5644" lat="48.0669083" lon="11.5396842">
    <tag k="amenity" v="restaurant"/>
    <tag k="created_by" v="RambaZamba"/>
    <tag k="name" v="Waldwirtschaft (WaWi)"/>
    <tag k="source" v="survey"/>
  </node>
  <node id="99873218" version="12" timestamp="2009-03-21T21:01:18Z" uid="17933" user="abunai" changeset="840140" lat="48.0669083" lon="11.5396842">
    <tag k="alt_name" v="WaWi"/>
    <tag k="amenity" v="restaurant"/>
    <tag k="created_by" v="RambaZamba"/>
    <tag k="name" v="Waldwirtschaft"/>
    <tag k="source" v="survey"/>
  </node>
  <node id="99873218" version="13" timestamp="2009-03-27T15:52:48Z" uid="8748" user="ToniE" changeset="862943" lat="48.0669083" lon="11.5396842">
    <tag k="alt_name" v="WaWi"/>
    <tag k="amenity" v="restaurant"/>
    <tag k="created_by" v="RambaZamba"/>
    <tag k="name" v="Waldwirtschaft (WaWi)"/>
    <tag k="source" v="survey"/>
  </node>
  <node id="99873218" version="14" timestamp="2009-03-30T21:05:58Z" uid="36809" user="pfoten_weg_!_" changeset="871597" lat="48.0669083" lon="11.5396842">
    <tag k="alt_name" v="WaWi"/>
    <tag k="amenity" v="restaurant"/>
    <tag k="created_by" v="RambaZamba"/>
    <tag k="name" v="Waldwirtschaft (WaWi)"/>
    <tag k="source" v="survey"/>
  </node>
  <node id="99873218" version="15" timestamp="2009-06-02T10:49:17Z" uid="36809" user="pfoten_weg_!_" changeset="1402951" lat="48.0669083" lon="11.5396842">
    <tag k="alt_name" v="WaWi"/>
    <tag k="amenity" v="restaurant"/>
    <tag k="created_by" v="RambaZamba"/>
    <tag k="name" v="Waldwirtschaft (WaWi)"/>
    <tag k="source" v="survey"/>
  </node>
  <node id="99873385" version="4" timestamp="2008-05-15T12:39:35Z" uid="36809" user="pfoten_weg_!_" changeset="450409" lat="48.0667937" lon="11.5395919">
    <tag k="amenity" v="biergarten"/>
    <tag k="created_by" v="Potlatch 0.9a"/>
    <tag k="name" v="Waldwirtschaft (WaWi)"/>
  </node>
  <node id="99873385" version="5" timestamp="2008-05-15T12:40:47Z" uid="36809" user="pfoten_weg_!_" changeset="450409" lat="48.0667076" lon="11.539609">
    <tag k="amenity" v="biergarten"/>
    <tag k="created_by" v="Potlatch 0.9a"/>
    <tag k="name" v="Waldwirtschaft (WaWi)"/>
  </node>
  <node id="99873385" version="6" timestamp="2008-05-15T12:40:57Z" uid="36809" user="pfoten_weg_!_" changeset="450409" lat="48.0666847" lon="11.5396262">
    <tag k="amenity" v="biergarten"/>
    <tag k="created_by" v="Potlatch 0.9a"/>
    <tag k="name" v="Waldwirtschaft (WaWi)"/>
  </node>
  <node id="99873385" version="7" timestamp="2008-05-15T12:42:08Z" uid="36809" user="pfoten_weg_!_" changeset="450409" lat="48.0667019" lon="11.5396262">
    <tag k="amenity" v="biergarten"/>
    <tag k="created_by" v="Potlatch 0.9a"/>
    <tag k="name" v="Waldwirtschaft (WaWi)"/>
  </node>
  <node id="99873385" version="8" timestamp="2008-05-29T21:29:54Z" uid="36809" user="pfoten_weg_!_" changeset="550842" lat="48.0666757" lon="11.5396407">
    <tag k="amenity" v="biergarten"/>
    <tag k="created_by" v="Potlatch 0.9c"/>
    <tag k="name" v="Waldwirtschaft (WaWi)"/>
  </node>
  <node id="99873385" version="9" timestamp="2008-07-18T11:21:42Z" uid="36809" user="pfoten_weg_!_" changeset="527184" lat="48.0666788" lon="11.5396397">
    <tag k="amenity" v="biergarten"/>
    <tag k="created_by" v="Potlatch 0.9c"/>
    <tag k="name" v="Waldwirtschaft (WaWi)"/>
  </node>
  <node id="99874725" version="5" timestamp="2008-08-23T23:46:51Z" uid="36809" user="pfoten_weg_!_" changeset="384601" lat="48.0995369" lon="11.5276296">
    <tag k="amenity" v="bank"/>
    <tag k="atm" v="yes"/>
    <tag k="created_by" v="RambaZamba"/>
    <tag k="name" v="Dresdner Bank"/>
    <tag k="source" v="survey"/>
  </node>
  <node id="99874725" version="6" timestamp="2008-10-01T01:54:42Z" uid="36809" user="pfoten_weg_!_" changeset="5644" lat="48.0995369" lon="11.5276296">
    <tag k="amenity" v="bank"/>
    <tag k="atm" v="yes"/>
    <tag k="created_by" v="RambaZamba"/>
    <tag k="name" v="Dresdner Bank"/>
    <tag k="source" v="survey"/>
  </node>
  <node id="99874725" version="7" timestamp="2009-04-25T19:29:04Z" uid="8748" user="ToniE" changeset="957074" lat="48.0995369" lon="11.5276296">
    <tag k="amenity" v="bank"/>
    <tag k="atm" v="yes"/>
    <tag k="created_by" v="RambaZamba"/>
    <tag k="name" v="Dresdner Bank"/>
    <tag k="operator" v="Dresdner Bank"/>
    <tag k="source" v="survey"/>
  </node>
  <node id="99874725" version="8" timestamp="2009-08-12T12:38:47Z" uid="156995" user="HampelZamba" changeset="2118306" lat="48.0995369" lon="11.5276296">
    <tag k="amenity" v="bank"/>
    <tag k="atm" v="yes"/>
    <tag k="name" v="Dresdner Bank"/>
    <tag k="operator" v="Dresdner Bank"/>
    <tag k="source" v="survey"/>
  </node>
  <node id="99874725" version="9" timestamp="2009-08-26T09:57:43Z" uid="36809" user="pfoten_weg_!_" changeset="2265457" lat="48.0995369" lon="11.5276296">
    <tag k="amenity" v="bank"/>
    <tag k="atm" v="yes"/>
    <tag k="name" v="Dresdner Bank"/>
    <tag k="operator" v="Dresdner Bank"/>
    <tag k="source" v="survey"/>
  </node>
  <node id="99874725" version="10" timestamp="2009-10-13T23:39:40Z" uid="36809" user="pfoten_weg_!_" changeset="2841273" lat="48.0995369" lon="11.5276296">
    <tag k="amenity" v="bank"/>
    <tag k="atm" v="yes"/>
    <tag k="name" v="Dresdner Bank"/>
    <tag k="operator" v="Dresdner Bank"/>
  </node>
  <node id="99874725" version="11" timestamp="2011-03-21T19:33:08Z" uid="423964" user="Gerhardt Hueck" changeset="7630927" lat="48.0995369" lon="11.5276296">
    <tag k="amenity" v="bank"/>
    <tag k="atm" v="yes"/>
    <tag k="name" v="Commerzbank"/>
    <tag k="operator" v="Dresdner Bank"/>
    <tag k="wheelchair" v="yes"/>
  </node>
</osm>
