<?xml version='1.0' encoding='UTF-8'?>
<osm version="0.6" generator="libosmium/2.20.0">
  <node id="1000096464" version="2" timestamp="2011-01-14T16:43:51Z" uid="115477" user="wowik" changeset="6968851" lat="55.982634" lon="37.1754042">
    <tag k="amenity" v="fast_food"/>
    <tag k="name" v="Макдональдс"/>
  </node>
  <node id="1000096464" version="3" timestamp="2011-09-04T03:05:33Z" uid="126304" user="TarzanASG" changeset="9205200" lat="55.982634" lon="37.1754042">
    <tag k="alt_name" v="Макдональдс"/>
    <tag k="amenity" v="fast_food"/>
    <tag k="cuisine" v="burger"/>
    <tag k="int_name" v="McDonald&apos;s"/>
    <tag k="name" v="Макдоналдс"/>
    <tag k="name:en" v="McDonald&apos;s"/>
    <tag k="name:ru" v="Макдоналдс"/>
    <tag k="operator" v="Макдоналдс"/>
    <tag k="operator:en" v="McDonald&apos;s"/>
    <tag k="operator:ru" v="Макдоналдс"/>
    <tag k="website" v="http://www.mcdonalds.ru/"/>
  </node>
  <node id="1000096464" version="4" timestamp="2011-09-06T01:03:55Z" uid="126304" user="TarzanASG" changeset="9223539" lat="55.982634" lon="37.1754042">
    <tag k="addr:country" v="RU"/>
    <tag k="alt_name" v="Макдональдс"/>
    <tag k="amenity" v="fast_food"/>
    <tag k="cuisine" v="burger"/>
    <tag k="int_name" v="McDonald&apos;s"/>
    <tag k="name" v="Макдоналдс"/>
    <tag k="name:de" v="McDonald&apos;s"/>
    <tag k="name:en" v="McDonald&apos;s"/>
    <tag k="name:ru" v="Макдоналдс"/>
    <tag k="operator" v="Макдоналдс"/>
    <tag k="operator:en" v="McDonald&apos;s"/>
    <tag k="operator:ru" v="Макдоналдс"/>
    <tag k="website" v="http://www.mcdonalds.ru/"/>
  </node>
  <node id="1000096464" version="5" timestamp="2012-03-27T11:56:55Z" uid="481934" user="iWowik" changeset="11115472" lat="55.982634" lon="37.1754042">
    <tag k="addr:city" v="Зеленоград"/>
    <tag k="addr:country" v="RU"/>
    <tag k="addr:region" v="Москва"/>
    <tag k="alt_name" v="Макдональдс"/>
    <tag k="amenity" v="fast_food"/>
    <tag k="cuisine" v="burger"/>
    <tag k="int_name" v="McDonald&apos;s"/>
    <tag k="name" v="Макдоналдс"/>
    <tag k="name:de" v="McDonald&apos;s"/>
    <tag k="name:en" v="McDonald&apos;s"/>
    <tag k="name:ru" v="Макдоналдс"/>
    <tag k="operator" v="Макдоналдс"/>
    <tag k="operator:en" v="McDonald&apos;s"/>
    <tag k="operator:ru" v="Макдоналдс"/>
    <tag k="website" v="http://www.mcdonalds.ru/"/>
  </node>
  <node id="1000096512" version="1" timestamp="2010-11-22T22:10:26Z" uid="273180" user="bopoh13" changeset="6435657" lat="55.9626463" lon="37.1694833"/>
  <node id="1000096512" version="2" timestamp="2010-11-26T14:20:32Z" uid="115477" user="wowik" changeset="6462263" lat="55.9628245" lon="37.1694196"/>
  <node id="1000096512" version="3" timestamp="2011-09-13T09:49:45Z" uid="266165" user="AlexSP" changeset="9288013" lat="55.9629106" lon="37.1694239"/>
  <node id="1000096513" version="1" timestamp="2010-11-22T22:10:26Z" uid="273180" user="bopoh13" changeset="6435657" lat="55.9625262" lon="37.1696067"/>
  <node id="1000096513" version="2" timestamp="2010-11-26T14:20:34Z" uid="115477" user="wowik" changeset="6462263" lat="55.9625796" lon="37.1694582"/>
  <node id="1000096513" version="3" timestamp="2011-09-13T09:49:45Z" uid="266165" user="AlexSP" changeset="9288013" lat="55.9625796" lon="37.1694881"/>
  <node id="1000096515" version="1" timestamp="2010-11-22T22:10:26Z" uid="273180" user="bopoh13" changeset="6435657" lat="55.9624962" lon="37.1699447"/>
  <node id="1000096515" version="2" timestamp="2010-11-26T14:20:53Z" uid="115477" user="wowik" changeset="6462263" lat="55.9624962" lon="37.1699447"/>
  <node id="1000096521" version="1" timestamp="2010-11-22T22:10:27Z" uid="273180" user="bopoh13" changeset="6435657" lat="55.9637362" lon="37.1737373"/>
  <node id="1000096521" version="2" timestamp="2010-11-26T13:22:51Z" uid="115477" user="wowik" changeset="6461873" lat="55.9637073" lon="37.1736547"/>
  <node id="1000096521" version="3" timestamp="2011-01-26T19:46:37Z" uid="115477" user="wowik" changeset="7097032" lat="55.9637229" lon="37.1736547"/>
  <node id="1000096464" version="6" timestamp="2012-07-20T23:52:59Z" uid="722137" user="OSMF Redaction Account" changeset="12396566" lat="55.9826447" lon="37.1754968">
    <tag k="addr:city" v="Зеленоград"/>
    <tag k="addr:country" v="RU"/>
    <tag k="addr:region" v="Москва"/>
    <tag k="alt_name" v="Макдональдс"/>
    <tag k="amenity" v="fast_food"/>
    <tag k="cuisine" v="burger"/>
    <tag k="int_name" v="McDonald&apos;s"/>
    <tag k="name" v="Макдоналдс"/>
    <tag k="name:de" v="McDonald&apos;s"/>
    <tag k="name:en" v="McDonald&apos;s"/>
    <tag k="name:ru" v="Макдоналдс"/>
    <tag k="operator" v="Макдоналдс"/>
    <tag k="operator:en" v="McDonald&apos;s"/>
    <tag k="operator:ru" v="Макдоналдс"/>
    <tag k="website" v="http://www.mcdonalds.ru/"/>
  </node>
  <node id="1000096521" version="5" timestamp="2012-08-31T09:44:57Z" uid="760215" user="pnorman redaction revert" changeset="12928566" lat="55.9637362" lon="37.1737373"/>
</osm>
