<?xml version='1.0' encoding='UTF-8'?>
<osm version="0.6" generator="libosmium/2.20.0">
  <node id="100209525" version="3" timestamp="2008-09-14T21:06:40Z" uid="6975" user="ulfl" changeset="640534" lat="52.8040732" lon="-1.6348036">
    <tag k="name" v="Sainsburys"/>
    <tag k="shop" v="superstore"/>
  </node>
  <node id="100209525" version="4" timestamp="2008-12-20T04:18:26Z" uid="12671" user="sladen" changeset="490945" lat="52.8037869" lon="-1.6353956">
    <tag k="name" v="Sainsburys"/>
    <tag k="shop" v="supermarket"/>
  </node>
  <node id="100209525" version="5" timestamp="2008-12-21T04:48:51Z" uid="12671" user="sladen" changeset="514223" lat="52.8040507" lon="-1.6350971">
    <tag k="name" v="Sainsburys"/>
    <tag k="shop" v="supermarket"/>
  </node>
  <node id="100209525" version="6" timestamp="2010-04-13T11:44:26Z" uid="82783" user="Paul The Archivist" changeset="4412932" lat="52.8040507" lon="-1.6350971">
    <tag k="name" v="Sainsburys"/>
    <tag k="shop" v="supermarket"/>
  </node>
</osm>
