<?xml version='1.0' encoding='UTF-8'?>
<osm version="0.6" generator="libosmium/2.20.0">
  <node id="100261480" version="4" timestamp="2008-07-27T11:03:25Z" uid="36809" user="pfoten_weg_!_" changeset="604546" lat="47.4396713" lon="11.687999"/>
  <node id="100261482" version="4" timestamp="2008-07-27T11:03:25Z" uid="36809" user="pfoten_weg_!_" changeset="604546" lat="47.4395784" lon="11.6875527"/>
  <node id="100261483" version="4" timestamp="2009-06-16T20:30:41Z" uid="36809" user="pfoten_weg_!_" changeset="1539486" lat="47.4399912" lon="11.6850131"/>
  <node id="100261483" version="5" timestamp="2010-08-15T16:26:51Z" uid="81244" user="rurseekatze" changeset="5501654" lat="47.4399715" lon="11.685018"/>
  <node id="100261483" version="6" timestamp="2011-08-26T17:07:00Z" uid="417684" user="Maler" changeset="9129734" lat="47.4399627" lon="11.6850221"/>
  <node id="100261483" version="7" timestamp="2011-09-03T09:07:39Z" uid="268988" user="Andreas Binder" changeset="9199003" lat="47.4401361" lon="11.6850221"/>
  <node id="100261483" version="8" timestamp="2011-09-04T20:00:16Z" uid="268988" user="Andreas Binder" changeset="9212047" lat="47.4399751" lon="11.6849972"/>
  <node id="100261483" version="9" timestamp="2012-02-03T19:22:23Z" uid="45481" user="borisC" changeset="10578231" lat="47.4399751" lon="11.6849972"/>
  <node id="100261484" version="4" timestamp="2009-06-16T20:30:41Z" uid="36809" user="pfoten_weg_!_" changeset="1539486" lat="47.4400501" lon="11.6841179"/>
  <node id="100261484" version="5" timestamp="2010-08-15T16:26:50Z" uid="81244" user="rurseekatze" changeset="5501654" lat="47.4400266" lon="11.6840883"/>
  <node id="100261484" version="6" timestamp="2010-10-31T16:28:58Z" uid="81244" user="rurseekatze" changeset="6242006" lat="47.4400266" lon="11.6840883">
    <tag k="barrier" v="cattle_grid"/>
  </node>
  <node id="100261484" version="7" timestamp="2011-08-26T17:07:00Z" uid="417684" user="Maler" changeset="9129734" lat="47.4400225" lon="11.6840914">
    <tag k="barrier" v="cattle_grid"/>
  </node>
  <node id="100261484" version="8" timestamp="2011-09-03T09:07:40Z" uid="268988" user="Andreas Binder" changeset="9199003" lat="47.4401959" lon="11.6840914">
    <tag k="barrier" v="cattle_grid"/>
  </node>
  <node id="100261484" version="9" timestamp="2011-09-04T20:00:16Z" uid="268988" user="Andreas Binder" changeset="9212047" lat="47.440044" lon="11.6840638">
    <tag k="barrier" v="cattle_grid"/>
  </node>
  <node id="100261484" version="10" timestamp="2012-01-20T18:07:05Z" uid="45481" user="borisC" changeset="10448922" lat="47.4400356" lon="11.6840611">
    <tag k="barrier" v="cattle_grid"/>
  </node>
  <node id="100261490" version="3" timestamp="2010-02-02T08:10:15Z" uid="74027" user="katzlbt" changeset="3773808" lat="47.4416411" lon="11.6743779"/>
  <node id="100261490" version="4" timestamp="2011-08-27T21:02:21Z" uid="417684" user="Maler" changeset="9136986" lat="47.4417843" lon="11.673897"/>
  <node id="100261491" version="3" timestamp="2010-02-02T08:10:15Z" uid="74027" user="katzlbt" changeset="3773808" lat="47.4420076" lon="11.6731172"/>
  <node id="100261491" version="4" timestamp="2011-08-27T21:02:21Z" uid="417684" user="Maler" changeset="9136986" lat="47.4420434" lon="11.6730482"/>
  <node id="100261492" version="3" timestamp="2010-02-02T08:10:15Z" uid="74027" user="katzlbt" changeset="3773808" lat="47.4422942" lon="11.6721892"/>
  <node id="100261492" version="4" timestamp="2010-12-12T20:25:50Z" uid="25342" user="Philipp Spitzer" changeset="6641326" lat="47.442294" lon="11.672189"/>
  <node id="100261495" version="2" timestamp="2010-02-02T08:10:15Z" uid="74027" user="katzlbt" changeset="3773808" lat="47.4446379" lon="11.6691529"/>
  <node id="100261495" version="3" timestamp="2010-08-22T15:44:15Z" uid="81244" user="rurseekatze" changeset="5562357" lat="47.4441728" lon="11.6689869"/>
  <node id="100261495" version="4" timestamp="2010-10-31T07:41:49Z" uid="81244" user="rurseekatze" changeset="6235577" lat="47.4443607" lon="11.6693266"/>
  <node id="100261495" version="5" timestamp="2010-10-31T12:02:00Z" uid="81244" user="rurseekatze" changeset="6237595" lat="47.4444283" lon="11.66926"/>
  <node id="100261495" version="6" timestamp="2011-08-26T17:26:57Z" uid="417684" user="Maler" changeset="9129734" lat="47.4444181" lon="11.6693279"/>
  <node id="100261507" version="2" timestamp="2010-02-02T08:10:15Z" uid="74027" user="katzlbt" changeset="3773808" lat="47.449111" lon="11.6630482"/>
  <node id="100261507" version="3" timestamp="2010-10-31T07:41:49Z" uid="81244" user="rurseekatze" changeset="6235577" lat="47.4490362" lon="11.66323"/>
  <node id="100261510" version="3" timestamp="2010-02-02T08:10:16Z" uid="74027" user="katzlbt" changeset="3773808" lat="47.4515306" lon="11.659969"/>
  <node id="100261510" version="4" timestamp="2010-08-22T15:44:15Z" uid="81244" user="rurseekatze" changeset="5562357" lat="47.4513101" lon="11.6599097"/>
  <node id="100261510" version="5" timestamp="2010-08-27T18:28:00Z" uid="81244" user="rurseekatze" changeset="5610211" lat="47.4514852" lon="11.6600311"/>
  <node id="100261510" version="6" timestamp="2010-10-31T16:29:22Z" uid="81244" user="rurseekatze" changeset="6242006" lat="47.4514483" lon="11.660042"/>
  <node id="100261510" version="7" timestamp="2010-11-13T11:05:58Z" uid="81244" user="rurseekatze" changeset="6357211" lat="47.4512617" lon="11.6601904"/>
  <node id="100261510" version="8" timestamp="2011-08-27T20:31:39Z" uid="417684" user="Maler" changeset="9136986" lat="47.451314" lon="11.6601131"/>
  <node id="100261848" version="5" timestamp="2008-05-04T05:27:39Z" uid="36809" user="pfoten_weg_!_" changeset="326538" lat="48.0747238" lon="11.5393867">
    <tag k="created_by" v="JOSM"/>
  </node>
  <node id="100261848" version="6" timestamp="2008-08-18T12:00:48Z" uid="36809" user="pfoten_weg_!_" changeset="306127" lat="48.0747238" lon="11.5393866">
    <tag k="created_by" v="RambaZamba"/>
  </node>
  <node id="100261848" version="7" timestamp="2008-08-18T12:48:44Z" uid="36809" user="pfoten_weg_!_" changeset="306127" lat="48.0747238" lon="11.5393882">
    <tag k="created_by" v="RambaZamba"/>
  </node>
  <node id="100261848" version="8" timestamp="2008-09-21T21:20:05Z" uid="36809" user="pfoten_weg_!_" changeset="676192" lat="48.0747238" lon="11.5393882">
    <tag k="created_by" v="RambaZamba"/>
    <tag k="source" v="survey"/>
  </node>
  <node id="100261848" version="9" timestamp="2008-09-25T19:16:41Z" uid="36809" user="pfoten_weg_!_" changeset="696635" lat="48.0747238" lon="11.5393882">
    <tag k="created_by" v="RambaZamba"/>
    <tag k="source" v="survey"/>
  </node>
  <node id="100261848" version="10" timestamp="2008-10-01T01:48:20Z" uid="36809" user="pfoten_weg_!_" changeset="5644" lat="48.0747238" lon="11.5393882">
    <tag k="created_by" v="RambaZamba"/>
    <tag k="source" v="survey"/>
  </node>
  <node id="100261848" version="11" timestamp="2009-06-07T22:48:44Z" uid="36809" user="pfoten_weg_!_" changeset="1454355" lat="48.0747238" lon="11.5393882">
    <tag k="created_by" v="RambaZamba"/>
    <tag k="source" v="survey"/>
  </node>
  <node id="100261848" version="12" timestamp="2009-08-12T12:39:23Z" uid="156995" user="HampelZamba" changeset="2118306" lat="48.0747238" lon="11.5393882">
    <tag k="source" v="survey"/>
  </node>
  <node id="100261848" version="13" timestamp="2009-08-26T00:27:17Z" uid="36809" user="pfoten_weg_!_" changeset="2262648" lat="48.0747238" lon="11.5393882">
    <tag k="source" v="survey"/>
  </node>
  <node id="100261848" version="14" timestamp="2009-08-26T01:28:50Z" uid="36809" user="pfoten_weg_!_" changeset="2262879" lat="48.0747238" lon="11.5393882">
    <tag k="source" v="survey"/>
  </node>
  <node id="100261848" version="15" timestamp="2009-10-13T23:31:02Z" uid="36809" user="pfoten_weg_!_" changeset="2841273" lat="48.0747238" lon="11.5393882"/>
  <node id="100261848" version="16" timestamp="2010-02-21T16:54:46Z" uid="8748" user="ToniE" changeset="3935721" lat="48.0747515" lon="11.5393828"/>
  <node id="100261848" version="17" timestamp="2011-11-20T19:47:29Z" uid="42393" user="mawi42" changeset="9889000" lat="48.0747403" lon="11.5393766"/>
  <node id="100261851" version="5" timestamp="2008-05-04T05:27:30Z" uid="36809" user="pfoten_weg_!_" changeset="326538" lat="48.0747811" lon="11.5399102">
    <tag k="created_by" v="JOSM"/>
  </node>
  <node id="100261851" version="6" timestamp="2008-05-04T05:28:08Z" uid="36809" user="pfoten_weg_!_" changeset="326538" lat="48.0747811" lon="11.5399102">
    <tag k="created_by" v="JOSM"/>
  </node>
  <node id="100263418" version="3" timestamp="2008-08-18T11:52:41Z" uid="36809" user="pfoten_weg_!_" changeset="306127" lat="48.0684087" lon="11.5412258">
    <tag k="created_by" v="RambaZamba"/>
  </node>
  <node id="100263418" version="4" timestamp="2008-08-18T12:40:04Z" uid="36809" user="pfoten_weg_!_" changeset="306127" lat="48.0684087" lon="11.5412274">
    <tag k="created_by" v="RambaZamba"/>
  </node>
  <node id="100263418" version="5" timestamp="2008-10-01T01:34:52Z" uid="36809" user="pfoten_weg_!_" changeset="5644" lat="48.0684087" lon="11.5412274">
    <tag k="created_by" v="RambaZamba"/>
  </node>
  <node id="100263418" version="6" timestamp="2009-02-14T01:12:34Z" uid="36809" user="pfoten_weg_!_" changeset="423851" lat="48.0684087" lon="11.5412274">
    <tag k="created_by" v="RambaZamba"/>
    <tag k="source" v="survey"/>
  </node>
  <node id="100263418" version="7" timestamp="2009-03-30T19:06:10Z" uid="36809" user="pfoten_weg_!_" changeset="871597" lat="48.0684087" lon="11.5412274">
    <tag k="created_by" v="RambaZamba"/>
    <tag k="source" v="survey"/>
  </node>
  <node id="100263418" version="8" timestamp="2009-03-31T08:54:55Z" uid="5164" user="woodpeck" changeset="871977" lat="48.0684087" lon="11.5412259">
    <tag k="created_by" v="JOSM"/>
  </node>
  <node id="100263418" version="9" timestamp="2009-04-22T13:09:34Z" uid="8748" user="ToniE" changeset="898398" lat="48.0684087" lon="11.5412259">
    <tag k="created_by" v="JOSM"/>
  </node>
  <node id="100266379" version="5" timestamp="2010-12-01T08:08:07Z" uid="23543" user="jkjk" changeset="6501025" lat="5.6544186" lon="-0.1804876"/>
  <node id="100266380" version="5" timestamp="2010-12-01T08:08:06Z" uid="23543" user="jkjk" changeset="6501025" lat="5.6552965" lon="-0.1802915"/>
  <node id="100266381" version="5" timestamp="2010-12-01T08:08:18Z" uid="23543" user="jkjk" changeset="6501025" lat="5.656079" lon="-0.1800374"/>
  <node id="100269010" version="5" timestamp="2008-10-01T01:31:14Z" uid="36809" user="pfoten_weg_!_" changeset="5644" lat="48.0817888" lon="11.5452778">
    <tag k="amenity" v="restaurant"/>
    <tag k="created_by" v="RambaZamba"/>
    <tag k="name" v="Gutshof Menterschwaige"/>
    <tag k="source" v="survey"/>
  </node>
  <node id="100269010" version="6" timestamp="2008-11-06T20:47:29Z" uid="8748" user="ToniE" changeset="695783" lat="48.0817888" lon="11.5452778">
    <tag k="amenity" v="restaurant"/>
    <tag k="created_by" v="RambaZamba"/>
    <tag k="name" v="Gutshof Menterschwaige"/>
    <tag k="operator" v="Isar Gastronomie GmbH"/>
    <tag k="source" v="survey"/>
  </node>
  <node id="100269010" version="7" timestamp="2009-06-08T11:57:15Z" uid="132988" user="ich-liebe-euch" changeset="1457959" lat="48.0817888" lon="11.5452778">
    <tag k="amenity" v="restaurant"/>
    <tag k="name" v="Gutshof Menterschwaige"/>
    <tag k="operator" v="Isar Gastronomie GmbH"/>
    <tag k="source" v="survey"/>
  </node>
  <node id="100269010" version="8" timestamp="2009-06-08T13:39:35Z" uid="36809" user="pfoten_weg_!_" changeset="1458869" lat="48.0817888" lon="11.5452778">
    <tag k="amenity" v="restaurant"/>
    <tag k="created_by" v="RambaZamba"/>
    <tag k="name" v="Gutshof Menterschwaige"/>
    <tag k="operator" v="Isar Gastronomie GmbH"/>
    <tag k="source" v="survey"/>
  </node>
  <node id="100269010" version="9" timestamp="2009-08-12T12:39:23Z" uid="156995" user="HampelZamba" changeset="2118306" lat="48.0817888" lon="11.5452778">
    <tag k="amenity" v="restaurant"/>
    <tag k="name" v="Gutshof Menterschwaige"/>
    <tag k="operator" v="Isar Gastronomie GmbH"/>
    <tag k="source" v="survey"/>
  </node>
  <node id="100269010" version="10" timestamp="2009-08-28T20:50:42Z" uid="36809" user="pfoten_weg_!_" changeset="2295155" lat="48.0817888" lon="11.5452778">
    <tag k="amenity" v="restaurant"/>
    <tag k="discovered_by" v="RambaZamba"/>
    <tag k="name" v="Gutshof Menterschwaige"/>
    <tag k="operator" v="Isar Gastronomie GmbH"/>
    <tag k="source" v="survey"/>
  </node>
  <node id="100269010" version="11" timestamp="2009-08-30T04:53:27Z" uid="156995" user="HampelZamba" changeset="2308696" lat="48.0817888" lon="11.5452778">
    <tag k="amenity" v="restaurant"/>
    <tag k="name" v="Gutshof Menterschwaige"/>
    <tag k="operator" v="Isar Gastronomie GmbH"/>
    <tag k="source" v="survey"/>
  </node>
  <node id="100269010" version="12" timestamp="2009-09-01T10:26:22Z" uid="36809" user="pfoten_weg_!_" changeset="2335754" lat="48.0817888" lon="11.5452778">
    <tag k="amenity" v="restaurant"/>
    <tag k="name" v="Gutshof Menterschwaige"/>
    <tag k="operator" v="Isar Gastronomie GmbH"/>
    <tag k="source" v="survey"/>
  </node>
  <node id="100269010" version="13" timestamp="2009-10-13T23:37:52Z" uid="36809" user="pfoten_weg_!_" changeset="2841273" lat="48.0817888" lon="11.5452778">
    <tag k="amenity" v="restaurant"/>
    <tag k="name" v="Gutshof Menterschwaige"/>
    <tag k="operator" v="Isar Gastronomie GmbH"/>
  </node>
  <node id="100269010" version="14" timestamp="2010-07-17T23:01:48Z" uid="30579" user="Tiramisu" changeset="5246899" lat="48.0817888" lon="11.5452778">
    <tag k="addr:city" v="München"/>
    <tag k="addr:housenumber" v="4"/>
    <tag k="addr:postcode" v="81545"/>
    <tag k="addr:street" v="Menterschwaigstraße"/>
    <tag k="amenity" v="restaurant"/>
    <tag k="cuisine" v="german"/>
    <tag k="name" v="Gutshof Menterschwaige"/>
    <tag k="operator" v="Isar Gastronomie GmbH"/>
    <tag k="website" v="http://www.menterschwaige.de/"/>
  </node>
  <node id="100269010" version="15" timestamp="2010-10-31T16:29:43Z" uid="65148" user="tixuwuoz" changeset="6242028" lat="48.0817888" lon="11.5452778">
    <tag k="addr:city" v="München"/>
    <tag k="addr:housenumber" v="4"/>
    <tag k="addr:postcode" v="81545"/>
    <tag k="addr:street" v="Menterschwaigstraße"/>
    <tag k="amenity" v="restaurant"/>
    <tag k="contact:phone" v="089/640732"/>
    <tag k="contact:website" v="http://www.menterschwaige.de/"/>
    <tag k="cuisine" v="german"/>
    <tag k="name" v="Gutshof Menterschwaige"/>
    <tag k="operator" v="Isar Gastronomie GmbH"/>
    <tag k="website" v="http://www.menterschwaige.de/"/>
  </node>
  <node id="100269010" version="16" timestamp="2012-02-03T18:14:38Z" uid="8748" user="ToniE" changeset="10577749" lat="48.0817888" lon="11.5451926">
    <tag k="addr:city" v="München"/>
    <tag k="addr:housenumber" v="4"/>
    <tag k="addr:postcode" v="81545"/>
    <tag k="addr:street" v="Menterschwaigstraße"/>
    <tag k="amenity" v="restaurant"/>
    <tag k="contact:phone" v="089/640732"/>
    <tag k="contact:website" v="http://www.menterschwaige.de/"/>
    <tag k="cuisine" v="german"/>
    <tag k="name" v="Gutshof Menterschwaige"/>
    <tag k="operator" v="Isar Gastronomie GmbH"/>
    <tag k="website" v="http://www.menterschwaige.de/"/>
  </node>
  <node id="100269014" version="5" timestamp="2008-10-01T01:31:15Z" uid="36809" user="pfoten_weg_!_" changeset="5644" lat="48.0820601" lon="11.5453755">
    <tag k="amenity" v="biergarten"/>
    <tag k="created_by" v="RambaZamba"/>
    <tag k="name" v="Gutshof Menterschwaige"/>
    <tag k="source" v="survey"/>
  </node>
  <node id="100269014" version="6" timestamp="2008-11-06T20:47:29Z" uid="8748" user="ToniE" changeset="695783" lat="48.0820601" lon="11.5453755">
    <tag k="amenity" v="biergarten"/>
    <tag k="created_by" v="RambaZamba"/>
    <tag k="name" v="Gutshof Menterschwaige"/>
    <tag k="operator" v="Isar Gastronomie GmbH"/>
    <tag k="source" v="survey"/>
  </node>
  <node id="100269014" version="7" timestamp="2009-06-08T11:57:15Z" uid="132988" user="ich-liebe-euch" changeset="1457959" lat="48.0820601" lon="11.5453755">
    <tag k="amenity" v="biergarten"/>
    <tag k="name" v="Gutshof Menterschwaige"/>
    <tag k="operator" v="Isar Gastronomie GmbH"/>
    <tag k="source" v="survey"/>
  </node>
  <node id="100269014" version="8" timestamp="2009-06-08T13:39:35Z" uid="36809" user="pfoten_weg_!_" changeset="1458869" lat="48.0820601" lon="11.5453755">
    <tag k="amenity" v="biergarten"/>
    <tag k="created_by" v="RambaZamba"/>
    <tag k="name" v="Gutshof Menterschwaige"/>
    <tag k="operator" v="Isar Gastronomie GmbH"/>
    <tag k="source" v="survey"/>
  </node>
  <node id="100269014" version="9" timestamp="2009-08-12T12:39:23Z" uid="156995" user="HampelZamba" changeset="2118306" lat="48.0820601" lon="11.5453755">
    <tag k="amenity" v="biergarten"/>
    <tag k="name" v="Gutshof Menterschwaige"/>
    <tag k="operator" v="Isar Gastronomie GmbH"/>
    <tag k="source" v="survey"/>
  </node>
  <node id="100269014" version="10" timestamp="2009-08-28T20:50:42Z" uid="36809" user="pfoten_weg_!_" changeset="2295155" lat="48.0820601" lon="11.5453755">
    <tag k="amenity" v="biergarten"/>
    <tag k="discovered_by" v="RambaZamba"/>
    <tag k="name" v="Gutshof Menterschwaige"/>
    <tag k="operator" v="Isar Gastronomie GmbH"/>
    <tag k="source" v="survey"/>
  </node>
  <node id="100269014" version="11" timestamp="2009-08-30T04:53:27Z" uid="156995" user="HampelZamba" changeset="2308696" lat="48.0820601" lon="11.5453755">
    <tag k="amenity" v="biergarten"/>
    <tag k="name" v="Gutshof Menterschwaige"/>
    <tag k="operator" v="Isar Gastronomie GmbH"/>
    <tag k="source" v="survey"/>
  </node>
  <node id="100269014" version="12" timestamp="2009-09-01T10:26:22Z" uid="36809" user="pfoten_weg_!_" changeset="2335754" lat="48.0820601" lon="11.5453755">
    <tag k="amenity" v="biergarten"/>
    <tag k="name" v="Gutshof Menterschwaige"/>
    <tag k="operator" v="Isar Gastronomie GmbH"/>
    <tag k="source" v="survey"/>
  </node>
  <node id="100269014" version="13" timestamp="2009-10-13T23:37:52Z" uid="36809" user="pfoten_weg_!_" changeset="2841273" lat="48.0820601" lon="11.5453755">
    <tag k="amenity" v="biergarten"/>
    <tag k="name" v="Gutshof Menterschwaige"/>
    <tag k="operator" v="Isar Gastronomie GmbH"/>
  </node>
  <node id="100269014" version="14" timestamp="2010-10-31T16:29:48Z" uid="65148" user="tixuwuoz" changeset="6242028" lat="48.0820601" lon="11.5453755">
    <tag k="addr:city" v="München"/>
    <tag k="addr:housenumber" v="4"/>
    <tag k="addr:postcode" v="81545"/>
    <tag k="addr:street" v="Menterschwaigstraße"/>
    <tag k="amenity" v="biergarten"/>
    <tag k="capacity" v="2000"/>
    <tag k="contact:phone" v="089/640732"/>
    <tag k="contact:website" v="http://www.menterschwaige.de/"/>
    <tag k="cuisine" v="german"/>
    <tag k="name" v="Gutshof Menterschwaige"/>
    <tag k="operator" v="Isar Gastronomie GmbH"/>
    <tag k="website" v="http://www.menterschwaige.de/"/>
  </node>
  <node id="100261848" version="18" timestamp="2012-07-01T15:57:12Z" uid="8748" user="ToniE" changeset="12077823" lat="48.0747179" lon="11.5393611"/>
  <node id="100266379" version="6" timestamp="2012-07-20T01:17:44Z" uid="722137" user="OSMF Redaction Account" changeset="12355027" lat="5.6544268" lon="-0.1804059"/>
  <node id="100266380" version="6" timestamp="2012-07-20T01:17:45Z" uid="722137" user="OSMF Redaction Account" changeset="12355027" lat="5.6552638" lon="-0.1802343"/>
  <node id="100266381" version="6" timestamp="2012-07-20T01:17:45Z" uid="722137" user="OSMF Redaction Account" changeset="12355027" lat="5.6559044" lon="-0.1800626"/>
</osm>
