<?xml version='1.0' encoding='UTF-8'?>
<osm version="0.6" generator="libosmium/2.20.0">
  <node id="1025672388" version="1" timestamp="2010-12-06T23:17:46Z" uid="6269" user="Mueck" changeset="6570151" lat="49.0047419" lon="8.3616419"/>
  <node id="1025672388" version="2" timestamp="2011-03-06T23:52:20Z" uid="6269" user="Mueck" changeset="7479604" lat="49.0047423" lon="8.3616591"/>
  <node id="1025672389" version="1" timestamp="2010-12-06T23:17:46Z" uid="6269" user="Mueck" changeset="6570151" lat="49.000093" lon="8.3660434"/>
  <node id="1025672391" version="1" timestamp="2010-12-06T23:17:46Z" uid="6269" user="Mueck" changeset="6570151" lat="48.9958045" lon="8.37089"/>
  <node id="1025672391" version="2" timestamp="2011-03-06T10:40:00Z" uid="6269" user="Mueck" changeset="7471610" lat="48.9957086" lon="8.37096"/>
  <node id="1025672393" version="1" timestamp="2010-12-06T23:17:46Z" uid="6269" user="Mueck" changeset="6570151" lat="49.0014534" lon="8.3556085"/>
  <node id="1025672394" version="1" timestamp="2010-12-06T23:17:46Z" uid="6269" user="Mueck" changeset="6570151" lat="49.0006799" lon="8.3550301"/>
  <node id="1025672394" version="2" timestamp="2011-03-07T11:20:55Z" uid="6269" user="Mueck" changeset="7483128" lat="49.0006804" lon="8.354999"/>
  <node id="1025672396" version="1" timestamp="2010-12-06T23:17:46Z" uid="6269" user="Mueck" changeset="6570151" lat="49.0023818" lon="8.3559399"/>
  <node id="1025672396" version="2" timestamp="2011-03-07T11:21:10Z" uid="6269" user="Mueck" changeset="7483128" lat="49.0023715" lon="8.3559591"/>
  <node id="1025672397" version="1" timestamp="2010-12-06T23:17:46Z" uid="6269" user="Mueck" changeset="6570151" lat="48.9999652" lon="8.3550604"/>
  <node id="1025672397" version="2" timestamp="2011-03-07T11:21:07Z" uid="6269" user="Mueck" changeset="7483128" lat="48.9999392" lon="8.3549235">
    <tag k="note" v="ehemalige Kleindrehscheibe"/>
  </node>
  <node id="1025672398" version="1" timestamp="2010-12-06T23:17:46Z" uid="6269" user="Mueck" changeset="6570151" lat="49.0023308" lon="8.3568926"/>
  <node id="1025672398" version="2" timestamp="2011-03-07T11:21:07Z" uid="6269" user="Mueck" changeset="7483128" lat="49.0022946" lon="8.3568952"/>
  <node id="1025672400" version="1" timestamp="2010-12-06T23:17:46Z" uid="6269" user="Mueck" changeset="6570151" lat="49.0022335" lon="8.35541"/>
  <node id="1025672400" version="2" timestamp="2011-03-07T11:21:06Z" uid="6269" user="Mueck" changeset="7483128" lat="49.0022221" lon="8.355428"/>
  <node id="1025672401" version="1" timestamp="2010-12-06T23:17:46Z" uid="6269" user="Mueck" changeset="6570151" lat="49.0000649" lon="8.3550103"/>
  <node id="1025672401" version="2" timestamp="2011-03-07T11:20:58Z" uid="6269" user="Mueck" changeset="7483128" lat="49.0000506" lon="8.3549114"/>
  <node id="1025672402" version="1" timestamp="2010-12-06T23:17:46Z" uid="6269" user="Mueck" changeset="6570151" lat="49.001206" lon="8.3553742"/>
  <node id="1025672403" version="1" timestamp="2010-12-06T23:17:46Z" uid="6269" user="Mueck" changeset="6570151" lat="48.9951991" lon="8.3715606"/>
  <node id="1025672403" version="2" timestamp="2011-03-06T10:39:59Z" uid="6269" user="Mueck" changeset="7471610" lat="48.9952563" lon="8.3714679"/>
  <node id="1025672404" version="1" timestamp="2010-12-06T23:17:47Z" uid="6269" user="Mueck" changeset="6570151" lat="49.0015677" lon="8.3558515"/>
  <node id="1025672404" version="2" timestamp="2011-03-07T11:21:07Z" uid="6269" user="Mueck" changeset="7483128" lat="49.0015254" lon="8.3557646"/>
  <node id="1025672406" version="1" timestamp="2010-12-06T23:17:47Z" uid="6269" user="Mueck" changeset="6570151" lat="49.005187" lon="8.3611188"/>
  <node id="1025672406" version="2" timestamp="2011-03-06T23:52:20Z" uid="6269" user="Mueck" changeset="7479604" lat="49.0051268" lon="8.3612163"/>
  <node id="1025672407" version="1" timestamp="2010-12-06T23:17:47Z" uid="6269" user="Mueck" changeset="6570151" lat="49.0027635" lon="8.3646124"/>
  <node id="1025672407" version="2" timestamp="2011-03-06T23:52:18Z" uid="6269" user="Mueck" changeset="7479604" lat="49.002754" lon="8.3646054"/>
  <node id="1025672408" version="1" timestamp="2010-12-06T23:17:47Z" uid="6269" user="Mueck" changeset="6570151" lat="49.0040795" lon="8.3623985"/>
  <node id="1025672408" version="2" timestamp="2011-03-06T23:52:19Z" uid="6269" user="Mueck" changeset="7479604" lat="49.0040986" lon="8.362378"/>
  <node id="1025672410" version="1" timestamp="2010-12-06T23:17:47Z" uid="6269" user="Mueck" changeset="6570151" lat="49.002333" lon="8.359024"/>
  <node id="1025672410" version="2" timestamp="2011-03-07T11:21:01Z" uid="6269" user="Mueck" changeset="7483128" lat="49.0023087" lon="8.3590223"/>
  <node id="1025672411" version="1" timestamp="2010-12-06T23:17:47Z" uid="6269" user="Mueck" changeset="6570151" lat="49.0022809" lon="8.3651251"/>
  <node id="1025672411" version="2" timestamp="2011-03-06T23:52:21Z" uid="6269" user="Mueck" changeset="7479604" lat="49.0022732" lon="8.3651417"/>
  <node id="1025672412" version="1" timestamp="2010-12-06T23:17:47Z" uid="6269" user="Mueck" changeset="6570151" lat="48.9998833" lon="8.3551749"/>
  <node id="1025672412" version="2" timestamp="2011-03-07T11:21:49Z" uid="6269" user="Mueck" changeset="7483128" lat="48.9998833" lon="8.3551749"/>
  <node id="1025672413" version="1" timestamp="2010-12-06T23:17:47Z" uid="6269" user="Mueck" changeset="6570151" lat="49.0008715" lon="8.3650543"/>
  <node id="1025672413" version="2" timestamp="2011-03-06T23:52:18Z" uid="6269" user="Mueck" changeset="7479604" lat="49.0009497" lon="8.3649604"/>
  <node id="1025672414" version="1" timestamp="2010-12-06T23:17:47Z" uid="6269" user="Mueck" changeset="6570151" lat="48.9949034" lon="8.3451785"/>
  <node id="1025672416" version="1" timestamp="2010-12-06T23:17:47Z" uid="6269" user="Mueck" changeset="6570151" lat="49.0010749" lon="8.3553199"/>
  <node id="1025672417" version="1" timestamp="2010-12-06T23:17:47Z" uid="6269" user="Mueck" changeset="6570151" lat="49.0028416" lon="8.3637989"/>
  <node id="1025672417" version="2" timestamp="2011-03-07T00:09:17Z" uid="6269" user="Mueck" changeset="7479604" lat="49.0027554" lon="8.3638742"/>
  <node id="1025672418" version="1" timestamp="2010-12-06T23:17:47Z" uid="6269" user="Mueck" changeset="6570151" lat="48.999735" lon="8.3560151"/>
  <node id="1025672418" version="2" timestamp="2011-03-07T11:21:06Z" uid="6269" user="Mueck" changeset="7483128" lat="48.9997482" lon="8.3559732"/>
  <node id="1025672419" version="1" timestamp="2010-12-06T23:17:47Z" uid="6269" user="Mueck" changeset="6570151" lat="48.994599" lon="8.3447922"/>
  <node id="1025672421" version="1" timestamp="2010-12-06T23:17:47Z" uid="6269" user="Mueck" changeset="6570151" lat="49.0004763" lon="8.3549826"/>
  <node id="1025672421" version="2" timestamp="2011-03-07T11:20:59Z" uid="6269" user="Mueck" changeset="7483128" lat="49.000475" lon="8.3549445"/>
  <node id="1025672422" version="1" timestamp="2010-12-06T23:17:47Z" uid="6269" user="Mueck" changeset="6570151" lat="49.0011858" lon="8.3554567"/>
  <node id="1025672422" version="2" timestamp="2011-03-07T11:20:56Z" uid="6269" user="Mueck" changeset="7483128" lat="49.001198" lon="8.3554516"/>
  <node id="1025672423" version="1" timestamp="2010-12-06T23:17:47Z" uid="6269" user="Mueck" changeset="6570151" lat="49.0023933" lon="8.3584774"/>
  <node id="1025672423" version="2" timestamp="2011-03-07T11:20:52Z" uid="6269" user="Mueck" changeset="7483128" lat="49.0023615" lon="8.3584911"/>
  <node id="1025672424" version="1" timestamp="2010-12-06T23:17:47Z" uid="6269" user="Mueck" changeset="6570151" lat="49.0007705" lon="8.3652441"/>
  <node id="1025672424" version="2" timestamp="2011-03-06T23:52:19Z" uid="6269" user="Mueck" changeset="7479604" lat="49.00065" lon="8.3653847"/>
  <node id="1025672685" version="1" timestamp="2010-12-06T23:18:17Z" uid="90980" user="talkat" changeset="6570146" lat="32.5664725" lon="35.3721645">
    <tag k="gns_ref" v="-779868"/>
    <tag k="name" v="גבע"/>
    <tag k="name:en" v="Geva"/>
    <tag k="name:he" v="גבע"/>
    <tag k="place" v="village"/>
    <tag k="source" v="GEOnet Names Server (gns)"/>
  </node>
  <node id="1025672685" version="2" timestamp="2010-12-08T21:10:56Z" uid="8619" user="cetest" changeset="6589524" lat="32.5664725" lon="35.3721645">
    <tag k="Note" v="Kibbutz"/>
    <tag k="gns_ref" v="-779868"/>
    <tag k="name" v="גבע"/>
    <tag k="name:en" v="Geva"/>
    <tag k="name:he" v="גבע"/>
    <tag k="place" v="village"/>
    <tag k="source" v="GEOnet Names Server (gns)"/>
  </node>
  <node id="1025672685" version="3" timestamp="2011-09-18T18:49:01Z" uid="519501" user="parukhin" changeset="9336127" lat="32.5664725" lon="35.3721645">
    <tag k="gns_ref" v="-779868"/>
    <tag k="name" v="גבע"/>
    <tag k="name:en" v="Geva"/>
    <tag k="name:he" v="גבע"/>
    <tag k="note" v="Kibbutz"/>
    <tag k="place" v="village"/>
    <tag k="source" v="GEOnet Names Server (gns)"/>
  </node>
  <node id="1025672685" version="4" timestamp="2012-02-15T09:46:39Z" uid="22684" user="Mr_Israel" changeset="10690450" lat="32.5664725" lon="35.3721645"/>
  <node id="1025676876" version="1" timestamp="2010-12-06T23:23:31Z" uid="30632" user="antblant" changeset="6570181" lat="53.403378" lon="14.690043">
    <tag k="highway" v="bus_stop"/>
    <tag k="name" v="Dąbie Osiedle"/>
    <tag k="operator" v="Zarząd Dróg i Transportu Miejskiego"/>
    <tag k="ref" v="71431"/>
    <tag k="source" v="zditm"/>
    <tag k="website" v="http://zditm.szczecin.pl/rozklady/index.html"/>
  </node>
  <node id="1025676887" version="1" timestamp="2010-12-06T23:23:31Z" uid="30632" user="antblant" changeset="6570181" lat="53.375702" lon="14.688914">
    <tag k="highway" v="bus_stop"/>
    <tag k="name" v="Kijewo"/>
    <tag k="operator" v="Zarząd Dróg i Transportu Miejskiego"/>
    <tag k="ref" v="86122"/>
    <tag k="source" v="zditm"/>
    <tag k="website" v="http://zditm.szczecin.pl/rozklady/index.html"/>
  </node>
  <node id="1025676890" version="1" timestamp="2010-12-06T23:23:32Z" uid="30632" user="antblant" changeset="6570181" lat="53.403416" lon="14.689976">
    <tag k="highway" v="bus_stop"/>
    <tag k="name" v="Dąbie Osiedle"/>
    <tag k="operator" v="Zarząd Dróg i Transportu Miejskiego"/>
    <tag k="ref" v="71432"/>
    <tag k="source" v="zditm"/>
    <tag k="website" v="http://zditm.szczecin.pl/rozklady/index.html"/>
  </node>
  <node id="1025676893" version="1" timestamp="2010-12-06T23:23:32Z" uid="30632" user="antblant" changeset="6570181" lat="53.3728538" lon="14.6816236">
    <tag k="highway" v="bus_stop"/>
    <tag k="name" v="Ciepłownia nż"/>
    <tag k="operator" v="Zarząd Dróg i Transportu Miejskiego"/>
    <tag k="ref" v="85911"/>
    <tag k="source" v="zditm"/>
    <tag k="website" v="http://zditm.szczecin.pl/rozklady/index.html"/>
  </node>
  <node id="1025676903" version="1" timestamp="2010-12-06T23:23:32Z" uid="30632" user="antblant" changeset="6570181" lat="53.392128" lon="14.670063">
    <tag k="highway" v="bus_stop"/>
    <tag k="name" v="Dąbie Dworzec"/>
    <tag k="operator" v="Zarząd Dróg i Transportu Miejskiego"/>
    <tag k="ref" v="71012"/>
    <tag k="source" v="zditm"/>
    <tag k="website" v="http://zditm.szczecin.pl/rozklady/index.html"/>
  </node>
  <node id="1025676904" version="1" timestamp="2010-12-06T23:23:32Z" uid="30632" user="antblant" changeset="6570181" lat="53.397072" lon="14.691864">
    <tag k="highway" v="bus_stop"/>
    <tag k="name" v="Słupska nż"/>
    <tag k="operator" v="Zarząd Dróg i Transportu Miejskiego"/>
    <tag k="ref" v="72711"/>
    <tag k="source" v="zditm"/>
    <tag k="website" v="http://zditm.szczecin.pl/rozklady/index.html"/>
  </node>
  <node id="1025676913" version="1" timestamp="2010-12-06T23:23:32Z" uid="30632" user="antblant" changeset="6570181" lat="53.3728086" lon="14.6817709">
    <tag k="highway" v="bus_stop"/>
    <tag k="name" v="Ciepłownia nż"/>
    <tag k="operator" v="Zarząd Dróg i Transportu Miejskiego"/>
    <tag k="ref" v="85912"/>
    <tag k="source" v="zditm"/>
    <tag k="website" v="http://zditm.szczecin.pl/rozklady/index.html"/>
  </node>
  <node id="1025676918" version="1" timestamp="2010-12-06T23:23:33Z" uid="30632" user="antblant" changeset="6570181" lat="53.401627" lon="14.687229">
    <tag k="highway" v="bus_stop"/>
    <tag k="name" v="Warmińska"/>
    <tag k="operator" v="Zarząd Dróg i Transportu Miejskiego"/>
    <tag k="ref" v="71311"/>
    <tag k="source" v="zditm"/>
    <tag k="website" v="http://zditm.szczecin.pl/rozklady/index.html"/>
  </node>
  <node id="1025676922" version="1" timestamp="2010-12-06T23:23:33Z" uid="30632" user="antblant" changeset="6570181" lat="53.376694" lon="14.691811">
    <tag k="highway" v="bus_stop"/>
    <tag k="name" v="Zwierzyniecka"/>
    <tag k="operator" v="Zarząd Dróg i Transportu Miejskiego"/>
    <tag k="ref" v="80812"/>
    <tag k="source" v="zditm"/>
    <tag k="website" v="http://zditm.szczecin.pl/rozklady/index.html"/>
  </node>
  <node id="1025676932" version="1" timestamp="2010-12-06T23:23:33Z" uid="30632" user="antblant" changeset="6570181" lat="53.401119" lon="14.686478">
    <tag k="highway" v="bus_stop"/>
    <tag k="name" v="Warmińska"/>
    <tag k="operator" v="Zarząd Dróg i Transportu Miejskiego"/>
    <tag k="ref" v="71312"/>
    <tag k="source" v="zditm"/>
    <tag k="website" v="http://zditm.szczecin.pl/rozklady/index.html"/>
  </node>
  <node id="1025676933" version="1" timestamp="2010-12-06T23:23:33Z" uid="30632" user="antblant" changeset="6570181" lat="53.372044" lon="14.675004">
    <tag k="highway" v="bus_stop"/>
    <tag k="name" v="Jachowicza nż"/>
    <tag k="operator" v="Zarząd Dróg i Transportu Miejskiego"/>
    <tag k="ref" v="85811"/>
    <tag k="source" v="zditm"/>
    <tag k="website" v="http://zditm.szczecin.pl/rozklady/index.html"/>
  </node>
  <node id="1025676947" version="1" timestamp="2010-12-06T23:23:33Z" uid="30632" user="antblant" changeset="6570181" lat="53.397591" lon="14.677477">
    <tag k="highway" v="bus_stop"/>
    <tag k="name" v="Tczewska"/>
    <tag k="operator" v="Zarząd Dróg i Transportu Miejskiego"/>
    <tag k="ref" v="72511"/>
    <tag k="source" v="zditm"/>
    <tag k="website" v="http://zditm.szczecin.pl/rozklady/index.html"/>
  </node>
  <node id="1025676953" version="1" timestamp="2010-12-06T23:23:34Z" uid="30632" user="antblant" changeset="6570181" lat="53.3951993" lon="14.6720162">
    <tag k="highway" v="bus_stop"/>
    <tag k="name" v="Plac Słowiański"/>
    <tag k="operator" v="Zarząd Dróg i Transportu Miejskiego"/>
    <tag k="ref" v="71111"/>
    <tag k="source" v="zditm"/>
    <tag k="website" v="http://zditm.szczecin.pl/rozklady/index.html"/>
  </node>
  <node id="1025676954" version="1" timestamp="2010-12-06T23:23:34Z" uid="30632" user="antblant" changeset="6570181" lat="53.3823234" lon="14.6812452">
    <tag k="highway" v="bus_stop"/>
    <tag k="name" v="Struga nż"/>
    <tag k="operator" v="Zarząd Dróg i Transportu Miejskiego"/>
    <tag k="ref" v="80711"/>
    <tag k="source" v="zditm"/>
    <tag k="website" v="http://zditm.szczecin.pl/rozklady/index.html"/>
  </node>
  <node id="1025676954" version="2" timestamp="2012-03-17T17:03:18Z" uid="603523" user="diverpl" changeset="11010072" lat="53.3823716" lon="14.6812567">
    <tag k="highway" v="bus_stop"/>
    <tag k="name" v="Struga nż"/>
    <tag k="operator" v="Zarząd Dróg i Transportu Miejskiego"/>
    <tag k="ref" v="80711"/>
    <tag k="source" v="zditm"/>
    <tag k="website" v="http://zditm.szczecin.pl/rozklady/index.html"/>
  </node>
  <node id="1025676954" version="3" timestamp="2012-03-17T18:03:52Z" uid="603523" user="diverpl" changeset="11010072" lat="53.3823487" lon="14.6812567">
    <tag k="highway" v="bus_stop"/>
    <tag k="name" v="Struga nż"/>
    <tag k="operator" v="Zarząd Dróg i Transportu Miejskiego"/>
    <tag k="ref" v="80711"/>
    <tag k="source" v="zditm"/>
    <tag k="website" v="http://zditm.szczecin.pl/rozklady/index.html"/>
  </node>
  <node id="1025676965" version="1" timestamp="2010-12-06T23:23:34Z" uid="30632" user="antblant" changeset="6570181" lat="53.3953253" lon="14.6723662">
    <tag k="highway" v="bus_stop"/>
    <tag k="name" v="Plac Słowiański"/>
    <tag k="operator" v="Zarząd Dróg i Transportu Miejskiego"/>
    <tag k="ref" v="71112"/>
    <tag k="source" v="zditm"/>
    <tag k="website" v="http://zditm.szczecin.pl/rozklady/index.html"/>
  </node>
  <node id="1025676970" version="1" timestamp="2010-12-06T23:23:34Z" uid="30632" user="antblant" changeset="6570181" lat="53.3751891" lon="14.6982795">
    <tag k="highway" v="bus_stop"/>
    <tag k="name" v="Kijewo Autostrada nż"/>
    <tag k="operator" v="Zarząd Dróg i Transportu Miejskiego"/>
    <tag k="ref" v="80911"/>
    <tag k="source" v="zditm"/>
    <tag k="website" v="http://zditm.szczecin.pl/rozklady/index.html"/>
  </node>
  <node id="1025676978" version="1" timestamp="2010-12-06T23:23:34Z" uid="30632" user="antblant" changeset="6570181" lat="53.403603" lon="14.691124">
    <tag k="highway" v="bus_stop"/>
    <tag k="name" v="Dąbie Osiedle"/>
    <tag k="operator" v="Zarząd Dróg i Transportu Miejskiego"/>
    <tag k="ref" v="71411"/>
    <tag k="source" v="zditm"/>
    <tag k="website" v="http://zditm.szczecin.pl/rozklady/index.html"/>
  </node>
  <node id="1025676982" version="1" timestamp="2010-12-06T23:23:34Z" uid="30632" user="antblant" changeset="6570181" lat="53.39698" lon="14.690866">
    <tag k="highway" v="bus_stop"/>
    <tag k="name" v="Słupska nż"/>
    <tag k="operator" v="Zarząd Dróg i Transportu Miejskiego"/>
    <tag k="ref" v="72712"/>
    <tag k="source" v="zditm"/>
    <tag k="website" v="http://zditm.szczecin.pl/rozklady/index.html"/>
  </node>
  <node id="1025676986" version="1" timestamp="2010-12-06T23:23:35Z" uid="30632" user="antblant" changeset="6570181" lat="53.381901" lon="14.679301">
    <tag k="highway" v="bus_stop"/>
    <tag k="name" v="Struga nż"/>
    <tag k="operator" v="Zarząd Dróg i Transportu Miejskiego"/>
    <tag k="ref" v="80712"/>
    <tag k="source" v="zditm"/>
    <tag k="website" v="http://zditm.szczecin.pl/rozklady/index.html"/>
  </node>
  <node id="1025676986" version="2" timestamp="2012-03-17T17:03:22Z" uid="603523" user="diverpl" changeset="11010072" lat="53.381901" lon="14.679301"/>
  <node id="1025676992" version="1" timestamp="2010-12-06T23:23:35Z" uid="30632" user="antblant" changeset="6570181" lat="53.399273" lon="14.681479">
    <tag k="highway" v="bus_stop"/>
    <tag k="name" v="Jugosłowiańska"/>
    <tag k="operator" v="Zarząd Dróg i Transportu Miejskiego"/>
    <tag k="ref" v="71211"/>
    <tag k="source" v="zditm"/>
    <tag k="website" v="http://zditm.szczecin.pl/rozklady/index.html"/>
  </node>
  <node id="1025676999" version="1" timestamp="2010-12-06T23:23:35Z" uid="30632" user="antblant" changeset="6570181" lat="53.381767" lon="14.67782">
    <tag k="highway" v="bus_stop"/>
    <tag k="name" v="Struga nż"/>
    <tag k="operator" v="Zarząd Dróg i Transportu Miejskiego"/>
    <tag k="ref" v="80713"/>
    <tag k="source" v="zditm"/>
    <tag k="website" v="http://zditm.szczecin.pl/rozklady/index.html"/>
  </node>
  <node id="1025676999" version="2" timestamp="2012-03-17T17:03:22Z" uid="603523" user="diverpl" changeset="11010072" lat="53.381767" lon="14.67782"/>
  <node id="1025677006" version="1" timestamp="2010-12-06T23:23:35Z" uid="30632" user="antblant" changeset="6570181" lat="53.39743" lon="14.677724">
    <tag k="highway" v="bus_stop"/>
    <tag k="name" v="Tczewska"/>
    <tag k="operator" v="Zarząd Dróg i Transportu Miejskiego"/>
    <tag k="ref" v="72512"/>
    <tag k="source" v="zditm"/>
    <tag k="website" v="http://zditm.szczecin.pl/rozklady/index.html"/>
  </node>
  <node id="1025677009" version="1" timestamp="2010-12-06T23:23:35Z" uid="30632" user="antblant" changeset="6570181" lat="53.376461" lon="14.690083">
    <tag k="highway" v="bus_stop"/>
    <tag k="name" v="Kijewo"/>
    <tag k="operator" v="Zarząd Dróg i Transportu Miejskiego"/>
    <tag k="ref" v="86121"/>
    <tag k="source" v="zditm"/>
    <tag k="website" v="http://zditm.szczecin.pl/rozklady/index.html"/>
  </node>
  <node id="1025677021" version="1" timestamp="2010-12-06T23:23:36Z" uid="30632" user="antblant" changeset="6570181" lat="53.384357" lon="14.680427">
    <tag k="highway" v="bus_stop"/>
    <tag k="name" v="Pomorska"/>
    <tag k="operator" v="Zarząd Dróg i Transportu Miejskiego"/>
    <tag k="ref" v="74711"/>
    <tag k="source" v="zditm"/>
    <tag k="website" v="http://zditm.szczecin.pl/rozklady/index.html"/>
  </node>
  <node id="1025677029" version="1" timestamp="2010-12-06T23:23:36Z" uid="30632" user="antblant" changeset="6570181" lat="53.392403" lon="14.669924">
    <tag k="highway" v="bus_stop"/>
    <tag k="name" v="Dąbie Dworzec"/>
    <tag k="operator" v="Zarząd Dróg i Transportu Miejskiego"/>
    <tag k="ref" v="71011"/>
    <tag k="source" v="zditm"/>
    <tag k="website" v="http://zditm.szczecin.pl/rozklady/index.html"/>
  </node>
  <node id="1025677033" version="1" timestamp="2010-12-06T23:23:36Z" uid="30632" user="antblant" changeset="6570181" lat="53.38406" lon="14.680996">
    <tag k="highway" v="bus_stop"/>
    <tag k="name" v="Pomorska"/>
    <tag k="operator" v="Zarząd Dróg i Transportu Miejskiego"/>
    <tag k="ref" v="74712"/>
    <tag k="source" v="zditm"/>
    <tag k="website" v="http://zditm.szczecin.pl/rozklady/index.html"/>
  </node>
  <node id="1025677040" version="1" timestamp="2010-12-06T23:23:36Z" uid="30632" user="antblant" changeset="6570181" lat="53.4032633" lon="14.6902408">
    <tag k="highway" v="bus_stop"/>
    <tag k="name" v="Dąbie Osiedle"/>
    <tag k="operator" v="Zarząd Dróg i Transportu Miejskiego"/>
    <tag k="ref" v="71421"/>
    <tag k="source" v="zditm"/>
    <tag k="website" v="http://zditm.szczecin.pl/rozklady/index.html"/>
  </node>
  <node id="1025677046" version="1" timestamp="2010-12-06T23:23:36Z" uid="30632" user="antblant" changeset="6570181" lat="53.377197" lon="14.691178">
    <tag k="highway" v="bus_stop"/>
    <tag k="name" v="Zwierzyniecka"/>
    <tag k="operator" v="Zarząd Dróg i Transportu Miejskiego"/>
    <tag k="ref" v="80811"/>
    <tag k="source" v="zditm"/>
    <tag k="website" v="http://zditm.szczecin.pl/rozklady/index.html"/>
  </node>
  <node id="1025677056" version="1" timestamp="2010-12-06T23:23:37Z" uid="30632" user="antblant" changeset="6570181" lat="53.3970211" lon="14.686961">
    <tag k="highway" v="bus_stop"/>
    <tag k="name" v="Elbląska"/>
    <tag k="operator" v="Zarząd Dróg i Transportu Miejskiego"/>
    <tag k="ref" v="72611"/>
    <tag k="source" v="zditm"/>
    <tag k="website" v="http://zditm.szczecin.pl/rozklady/index.html"/>
  </node>
  <node id="1025677063" version="1" timestamp="2010-12-06T23:23:37Z" uid="30632" user="antblant" changeset="6570181" lat="53.371891" lon="14.674687">
    <tag k="highway" v="bus_stop"/>
    <tag k="name" v="Jachowicza nż"/>
    <tag k="operator" v="Zarząd Dróg i Transportu Miejskiego"/>
    <tag k="ref" v="85812"/>
    <tag k="source" v="zditm"/>
    <tag k="website" v="http://zditm.szczecin.pl/rozklady/index.html"/>
  </node>
  <node id="1025677070" version="1" timestamp="2010-12-06T23:23:37Z" uid="30632" user="antblant" changeset="6570181" lat="53.39698" lon="14.68738">
    <tag k="highway" v="bus_stop"/>
    <tag k="name" v="Elbląska"/>
    <tag k="operator" v="Zarząd Dróg i Transportu Miejskiego"/>
    <tag k="ref" v="72612"/>
    <tag k="source" v="zditm"/>
    <tag k="website" v="http://zditm.szczecin.pl/rozklady/index.html"/>
  </node>
  <node id="1025677071" version="1" timestamp="2010-12-06T23:23:37Z" uid="30632" user="antblant" changeset="6570181" lat="53.374235" lon="14.6874711">
    <tag k="highway" v="bus_stop"/>
    <tag k="name" v="Jelenia"/>
    <tag k="operator" v="Zarząd Dróg i Transportu Miejskiego"/>
    <tag k="ref" v="86011"/>
    <tag k="source" v="zditm"/>
    <tag k="website" v="http://zditm.szczecin.pl/rozklady/index.html"/>
  </node>
  <node id="1025677072" version="1" timestamp="2010-12-06T23:23:37Z" uid="30632" user="antblant" changeset="6570181" lat="53.398781" lon="14.680374">
    <tag k="highway" v="bus_stop"/>
    <tag k="name" v="Jugosłowiańska"/>
    <tag k="operator" v="Zarząd Dróg i Transportu Miejskiego"/>
    <tag k="ref" v="71212"/>
    <tag k="source" v="zditm"/>
    <tag k="website" v="http://zditm.szczecin.pl/rozklady/index.html"/>
  </node>
  <node id="1025677082" version="1" timestamp="2010-12-06T23:23:38Z" uid="30632" user="antblant" changeset="6570181" lat="53.38689" lon="14.682591">
    <tag k="highway" v="bus_stop"/>
    <tag k="name" v="Zakłady Mięsne"/>
    <tag k="operator" v="Zarząd Dróg i Transportu Miejskiego"/>
    <tag k="ref" v="74811"/>
    <tag k="source" v="zditm"/>
    <tag k="website" v="http://zditm.szczecin.pl/rozklady/index.html"/>
  </node>
  <node id="1025677084" version="1" timestamp="2010-12-06T23:23:38Z" uid="30632" user="antblant" changeset="6570181" lat="53.3746529" lon="14.6882672">
    <tag k="highway" v="bus_stop"/>
    <tag k="name" v="Jelenia"/>
    <tag k="operator" v="Zarząd Dróg i Transportu Miejskiego"/>
    <tag k="ref" v="86012"/>
    <tag k="source" v="zditm"/>
    <tag k="website" v="http://zditm.szczecin.pl/rozklady/index.html"/>
  </node>
  <node id="1025672388" version="3" timestamp="2012-07-17T14:58:11Z" uid="722137" user="OSMF Redaction Account" changeset="12267834" lat="49.0047423" lon="8.3616591"/>
  <node id="1025672389" version="2" timestamp="2012-07-17T14:57:47Z" uid="722137" user="OSMF Redaction Account" changeset="12267834" lat="49.000093" lon="8.3660434"/>
  <node id="1025672391" version="3" timestamp="2012-07-19T19:52:04Z" uid="722137" user="OSMF Redaction Account" changeset="12345458" lat="48.9957086" lon="8.37096"/>
  <node id="1025672393" version="2" timestamp="2012-07-17T14:57:52Z" uid="722137" user="OSMF Redaction Account" changeset="12267834" lat="49.0014534" lon="8.3556085"/>
  <node id="1025672394" version="3" timestamp="2012-07-17T14:57:49Z" uid="722137" user="OSMF Redaction Account" changeset="12267834" lat="49.0006804" lon="8.354999"/>
  <node id="1025672396" version="3" timestamp="2012-07-17T14:58:00Z" uid="722137" user="OSMF Redaction Account" changeset="12267834" lat="49.0023715" lon="8.3559591"/>
  <node id="1025672397" version="3" timestamp="2012-07-19T19:52:10Z" uid="722137" user="OSMF Redaction Account" changeset="12345458" lat="48.9999392" lon="8.3549235"/>
  <node id="1025672398" version="3" timestamp="2012-07-17T14:57:59Z" uid="722137" user="OSMF Redaction Account" changeset="12267834" lat="49.0022946" lon="8.3568952"/>
  <node id="1025672400" version="3" timestamp="2012-07-17T14:57:59Z" uid="722137" user="OSMF Redaction Account" changeset="12267834" lat="49.0022221" lon="8.355428"/>
  <node id="1025672401" version="3" timestamp="2012-07-17T14:57:47Z" uid="722137" user="OSMF Redaction Account" changeset="12267834" lat="49.0000506" lon="8.3549114"/>
  <node id="1025672402" version="2" timestamp="2012-07-17T14:57:50Z" uid="722137" user="OSMF Redaction Account" changeset="12267834" lat="49.001206" lon="8.3553742"/>
  <node id="1025672403" version="3" timestamp="2012-07-19T19:52:04Z" uid="722137" user="OSMF Redaction Account" changeset="12345458" lat="48.9952563" lon="8.3714679"/>
  <node id="1025672404" version="3" timestamp="2012-07-17T14:57:53Z" uid="722137" user="OSMF Redaction Account" changeset="12267834" lat="49.0015254" lon="8.3557646"/>
  <node id="1025672406" version="3" timestamp="2012-07-17T14:58:12Z" uid="722137" user="OSMF Redaction Account" changeset="12267834" lat="49.0051268" lon="8.3612163"/>
  <node id="1025672407" version="3" timestamp="2012-07-17T14:58:02Z" uid="722137" user="OSMF Redaction Account" changeset="12267834" lat="49.002754" lon="8.3646054"/>
  <node id="1025672408" version="3" timestamp="2012-07-17T14:58:08Z" uid="722137" user="OSMF Redaction Account" changeset="12267834" lat="49.0040986" lon="8.362378"/>
  <node id="1025672410" version="3" timestamp="2012-07-17T14:57:59Z" uid="722137" user="OSMF Redaction Account" changeset="12267834" lat="49.0023087" lon="8.3590223"/>
  <node id="1025672411" version="3" timestamp="2012-07-17T14:57:59Z" uid="722137" user="OSMF Redaction Account" changeset="12267834" lat="49.0022732" lon="8.3651417"/>
  <node id="1025672413" version="3" timestamp="2012-07-17T14:57:50Z" uid="722137" user="OSMF Redaction Account" changeset="12267834" lat="49.0009497" lon="8.3649604"/>
  <node id="1025672414" version="2" timestamp="2012-07-19T19:52:03Z" uid="722137" user="OSMF Redaction Account" changeset="12345458" lat="48.9949034" lon="8.3451785"/>
  <node id="1025672416" version="2" timestamp="2012-07-17T14:57:50Z" uid="722137" user="OSMF Redaction Account" changeset="12267834" lat="49.0010749" lon="8.3553199"/>
  <node id="1025672417" version="3" timestamp="2012-07-17T14:58:02Z" uid="722137" user="OSMF Redaction Account" changeset="12267834" lat="49.0027554" lon="8.3638742"/>
  <node id="1025672418" version="3" timestamp="2012-07-19T19:52:10Z" uid="722137" user="OSMF Redaction Account" changeset="12345458" lat="48.9997482" lon="8.3559732"/>
  <node id="1025672419" version="2" timestamp="2012-07-19T19:52:03Z" uid="722137" user="OSMF Redaction Account" changeset="12345458" lat="48.994599" lon="8.3447922"/>
  <node id="1025672421" version="3" timestamp="2012-07-17T14:57:48Z" uid="722137" user="OSMF Redaction Account" changeset="12267834" lat="49.000475" lon="8.3549445"/>
  <node id="1025672422" version="3" timestamp="2012-07-17T14:57:50Z" uid="722137" user="OSMF Redaction Account" changeset="12267834" lat="49.001198" lon="8.3554516"/>
  <node id="1025672423" version="3" timestamp="2012-07-17T14:58:00Z" uid="722137" user="OSMF Redaction Account" changeset="12267834" lat="49.0023615" lon="8.3584911"/>
  <node id="1025672424" version="3" timestamp="2012-07-17T14:57:49Z" uid="722137" user="OSMF Redaction Account" changeset="12267834" lat="49.00065" lon="8.3653847"/>
  <node id="1025676876" version="2" timestamp="2012-04-24T21:12:17Z" uid="603523" user="diverpl" changeset="11409612" lat="53.4033395" lon="14.6901438">
    <tag k="highway" v="bus_stop"/>
    <tag k="name" v="Dąbie Osiedle"/>
    <tag k="operator" v="Zarząd Dróg i Transportu Miejskiego"/>
    <tag k="ref" v="71431"/>
    <tag k="source" v="zditm"/>
    <tag k="website" v="http://zditm.szczecin.pl/rozklady/index.html"/>
  </node>
  <node id="1025676890" version="2" timestamp="2012-04-24T21:12:17Z" uid="603523" user="diverpl" changeset="11409612" lat="53.403376" lon="14.6900846">
    <tag k="highway" v="bus_stop"/>
    <tag k="name" v="Dąbie Osiedle"/>
    <tag k="operator" v="Zarząd Dróg i Transportu Miejskiego"/>
    <tag k="ref" v="71432"/>
    <tag k="source" v="zditm"/>
    <tag k="website" v="http://zditm.szczecin.pl/rozklady/index.html"/>
  </node>
  <node id="1025676893" version="2" timestamp="2012-04-23T21:07:57Z" uid="603523" user="diverpl" changeset="11399940" lat="53.3728766" lon="14.6816236">
    <tag k="highway" v="bus_stop"/>
    <tag k="name" v="Ciepłownia nż"/>
    <tag k="operator" v="Zarząd Dróg i Transportu Miejskiego"/>
    <tag k="ref" v="85911"/>
    <tag k="source" v="zditm"/>
    <tag k="website" v="http://zditm.szczecin.pl/rozklady/index.html"/>
  </node>
  <node id="1025676903" version="2" timestamp="2012-04-24T21:37:42Z" uid="603523" user="diverpl" changeset="11409612" lat="53.3921059" lon="14.6699626">
    <tag k="highway" v="bus_stop"/>
    <tag k="name" v="Dąbie Dworzec"/>
    <tag k="operator" v="Zarząd Dróg i Transportu Miejskiego"/>
    <tag k="ref" v="71012"/>
    <tag k="source" v="zditm"/>
    <tag k="website" v="http://zditm.szczecin.pl/rozklady/index.html"/>
  </node>
  <node id="1025676904" version="2" timestamp="2012-04-26T19:28:51Z" uid="603523" user="diverpl" changeset="11426003" lat="53.3970581" lon="14.6918586">
    <tag k="highway" v="bus_stop"/>
    <tag k="name" v="Słupska nż"/>
    <tag k="operator" v="Zarząd Dróg i Transportu Miejskiego"/>
    <tag k="ref" v="72711"/>
    <tag k="source" v="zditm"/>
    <tag k="website" v="http://zditm.szczecin.pl/rozklady/index.html"/>
  </node>
  <node id="1025676918" version="2" timestamp="2012-04-24T21:12:25Z" uid="603523" user="diverpl" changeset="11409612" lat="53.4016499" lon="14.6872175">
    <tag k="highway" v="bus_stop"/>
    <tag k="name" v="Warmińska"/>
    <tag k="operator" v="Zarząd Dróg i Transportu Miejskiego"/>
    <tag k="ref" v="71311"/>
    <tag k="source" v="zditm"/>
    <tag k="website" v="http://zditm.szczecin.pl/rozklady/index.html"/>
  </node>
  <node id="1025676922" version="2" timestamp="2012-04-25T20:35:23Z" uid="603523" user="diverpl" changeset="11418509" lat="53.3767215" lon="14.6918429">
    <tag k="highway" v="bus_stop"/>
    <tag k="name" v="Zwierzyniecka"/>
    <tag k="operator" v="Zarząd Dróg i Transportu Miejskiego"/>
    <tag k="ref" v="80812"/>
    <tag k="source" v="zditm"/>
    <tag k="website" v="http://zditm.szczecin.pl/rozklady/index.html"/>
  </node>
  <node id="1025676932" version="2" timestamp="2012-04-24T21:12:25Z" uid="603523" user="diverpl" changeset="11409612" lat="53.4010717" lon="14.6865512">
    <tag k="highway" v="bus_stop"/>
    <tag k="name" v="Warmińska"/>
    <tag k="operator" v="Zarząd Dróg i Transportu Miejskiego"/>
    <tag k="ref" v="71312"/>
    <tag k="source" v="zditm"/>
    <tag k="website" v="http://zditm.szczecin.pl/rozklady/index.html"/>
  </node>
  <node id="1025676933" version="2" timestamp="2012-04-23T21:07:59Z" uid="603523" user="diverpl" changeset="11399940" lat="53.3720233" lon="14.6750179">
    <tag k="highway" v="bus_stop"/>
    <tag k="name" v="Jachowicza nż"/>
    <tag k="operator" v="Zarząd Dróg i Transportu Miejskiego"/>
    <tag k="ref" v="85811"/>
    <tag k="source" v="zditm"/>
    <tag k="website" v="http://zditm.szczecin.pl/rozklady/index.html"/>
  </node>
  <node id="1025676947" version="2" timestamp="2012-04-26T19:28:52Z" uid="603523" user="diverpl" changeset="11426003" lat="53.3975996" lon="14.6775004">
    <tag k="highway" v="bus_stop"/>
    <tag k="name" v="Tczewska"/>
    <tag k="operator" v="Zarząd Dróg i Transportu Miejskiego"/>
    <tag k="ref" v="72511"/>
    <tag k="source" v="zditm"/>
    <tag k="website" v="http://zditm.szczecin.pl/rozklady/index.html"/>
  </node>
  <node id="1025676953" version="2" timestamp="2012-04-24T21:12:23Z" uid="603523" user="diverpl" changeset="11409612" lat="53.395227" lon="14.6719883">
    <tag k="highway" v="bus_stop"/>
    <tag k="name" v="Plac Słowiański"/>
    <tag k="operator" v="Zarząd Dróg i Transportu Miejskiego"/>
    <tag k="ref" v="71111"/>
    <tag k="source" v="zditm"/>
    <tag k="website" v="http://zditm.szczecin.pl/rozklady/index.html"/>
  </node>
  <node id="1025676965" version="2" timestamp="2012-04-24T21:12:23Z" uid="603523" user="diverpl" changeset="11409612" lat="53.395317" lon="14.6724313">
    <tag k="highway" v="bus_stop"/>
    <tag k="name" v="Plac Słowiański"/>
    <tag k="operator" v="Zarząd Dróg i Transportu Miejskiego"/>
    <tag k="ref" v="71112"/>
    <tag k="source" v="zditm"/>
    <tag k="website" v="http://zditm.szczecin.pl/rozklady/index.html"/>
  </node>
  <node id="1025676970" version="2" timestamp="2012-04-25T20:35:20Z" uid="603523" user="diverpl" changeset="11418509" lat="53.3751906" lon="14.6982995">
    <tag k="highway" v="bus_stop"/>
    <tag k="name" v="Kijewo Autostrada nż"/>
    <tag k="operator" v="Zarząd Dróg i Transportu Miejskiego"/>
    <tag k="ref" v="80911"/>
    <tag k="source" v="zditm"/>
    <tag k="website" v="http://zditm.szczecin.pl/rozklady/index.html"/>
  </node>
  <node id="1025676978" version="2" timestamp="2012-04-24T21:12:18Z" uid="603523" user="diverpl" changeset="11409612" lat="53.4036176" lon="14.6910538">
    <tag k="highway" v="bus_stop"/>
    <tag k="name" v="Dąbie Osiedle"/>
    <tag k="operator" v="Zarząd Dróg i Transportu Miejskiego"/>
    <tag k="ref" v="71411"/>
    <tag k="source" v="zditm"/>
    <tag k="website" v="http://zditm.szczecin.pl/rozklady/index.html"/>
  </node>
  <node id="1025676982" version="2" timestamp="2012-04-26T19:28:51Z" uid="603523" user="diverpl" changeset="11426003" lat="53.397009" lon="14.6908912">
    <tag k="highway" v="bus_stop"/>
    <tag k="name" v="Słupska nż"/>
    <tag k="operator" v="Zarząd Dróg i Transportu Miejskiego"/>
    <tag k="ref" v="72712"/>
    <tag k="source" v="zditm"/>
    <tag k="website" v="http://zditm.szczecin.pl/rozklady/index.html"/>
  </node>
  <node id="1025676992" version="2" timestamp="2012-04-24T21:12:19Z" uid="603523" user="diverpl" changeset="11409612" lat="53.3992675" lon="14.6814186">
    <tag k="highway" v="bus_stop"/>
    <tag k="name" v="Jugosłowiańska"/>
    <tag k="operator" v="Zarząd Dróg i Transportu Miejskiego"/>
    <tag k="ref" v="71211"/>
    <tag k="source" v="zditm"/>
    <tag k="website" v="http://zditm.szczecin.pl/rozklady/index.html"/>
  </node>
  <node id="1025677006" version="2" timestamp="2012-04-26T19:28:52Z" uid="603523" user="diverpl" changeset="11426003" lat="53.3974418" lon="14.677742">
    <tag k="highway" v="bus_stop"/>
    <tag k="name" v="Tczewska"/>
    <tag k="operator" v="Zarząd Dróg i Transportu Miejskiego"/>
    <tag k="ref" v="72512"/>
    <tag k="source" v="zditm"/>
    <tag k="website" v="http://zditm.szczecin.pl/rozklady/index.html"/>
  </node>
  <node id="1025677021" version="2" timestamp="2012-04-26T18:56:10Z" uid="603523" user="diverpl" changeset="11426003" lat="53.3848151" lon="14.6795638">
    <tag k="highway" v="bus_stop"/>
    <tag k="name" v="Pomorska"/>
    <tag k="operator" v="Zarząd Dróg i Transportu Miejskiego"/>
    <tag k="ref" v="74711"/>
    <tag k="source" v="zditm"/>
    <tag k="website" v="http://zditm.szczecin.pl/rozklady/index.html"/>
  </node>
  <node id="1025677029" version="2" timestamp="2012-04-24T21:37:43Z" uid="603523" user="diverpl" changeset="11409612" lat="53.3923872" lon="14.6698078">
    <tag k="highway" v="bus_stop"/>
    <tag k="name" v="Dąbie Dworzec"/>
    <tag k="operator" v="Zarząd Dróg i Transportu Miejskiego"/>
    <tag k="ref" v="71011"/>
    <tag k="source" v="zditm"/>
    <tag k="website" v="http://zditm.szczecin.pl/rozklady/index.html"/>
  </node>
  <node id="1025677033" version="2" timestamp="2012-04-26T18:56:10Z" uid="603523" user="diverpl" changeset="11426003" lat="53.3851654" lon="14.6794092">
    <tag k="highway" v="bus_stop"/>
    <tag k="name" v="Pomorska"/>
    <tag k="operator" v="Zarząd Dróg i Transportu Miejskiego"/>
    <tag k="ref" v="74712"/>
    <tag k="source" v="zditm"/>
    <tag k="website" v="http://zditm.szczecin.pl/rozklady/index.html"/>
  </node>
  <node id="1025677040" version="2" timestamp="2012-04-24T21:12:16Z" uid="603523" user="diverpl" changeset="11409612" lat="53.4031731" lon="14.6899788">
    <tag k="highway" v="bus_stop"/>
    <tag k="name" v="Dąbie Osiedle"/>
    <tag k="operator" v="Zarząd Dróg i Transportu Miejskiego"/>
    <tag k="ref" v="71421"/>
    <tag k="source" v="zditm"/>
    <tag k="website" v="http://zditm.szczecin.pl/rozklady/index.html"/>
  </node>
  <node id="1025677046" version="2" timestamp="2012-04-25T20:35:23Z" uid="603523" user="diverpl" changeset="11418509" lat="53.3771991" lon="14.6911957">
    <tag k="highway" v="bus_stop"/>
    <tag k="name" v="Zwierzyniecka"/>
    <tag k="operator" v="Zarząd Dróg i Transportu Miejskiego"/>
    <tag k="ref" v="80811"/>
    <tag k="source" v="zditm"/>
    <tag k="website" v="http://zditm.szczecin.pl/rozklady/index.html"/>
  </node>
  <node id="1025677063" version="2" timestamp="2012-04-23T21:07:59Z" uid="603523" user="diverpl" changeset="11399940" lat="53.3718806" lon="14.6747113">
    <tag k="highway" v="bus_stop"/>
    <tag k="name" v="Jachowicza nż"/>
    <tag k="operator" v="Zarząd Dróg i Transportu Miejskiego"/>
    <tag k="ref" v="85812"/>
    <tag k="source" v="zditm"/>
    <tag k="website" v="http://zditm.szczecin.pl/rozklady/index.html"/>
  </node>
  <node id="1025677070" version="2" timestamp="2012-04-26T19:28:47Z" uid="603523" user="diverpl" changeset="11426003" lat="53.3969886" lon="14.6873782">
    <tag k="highway" v="bus_stop"/>
    <tag k="name" v="Elbląska"/>
    <tag k="operator" v="Zarząd Dróg i Transportu Miejskiego"/>
    <tag k="ref" v="72612"/>
    <tag k="source" v="zditm"/>
    <tag k="website" v="http://zditm.szczecin.pl/rozklady/index.html"/>
  </node>
  <node id="1025677071" version="2" timestamp="2012-04-23T21:08:00Z" uid="603523" user="diverpl" changeset="11399940" lat="53.3742369" lon="14.6874358">
    <tag k="highway" v="bus_stop"/>
    <tag k="name" v="Jelenia"/>
    <tag k="operator" v="Zarząd Dróg i Transportu Miejskiego"/>
    <tag k="ref" v="86011"/>
    <tag k="source" v="zditm"/>
    <tag k="website" v="http://zditm.szczecin.pl/rozklady/index.html"/>
  </node>
  <node id="1025677072" version="2" timestamp="2012-04-24T21:12:19Z" uid="603523" user="diverpl" changeset="11409612" lat="53.3987561" lon="14.6804065">
    <tag k="highway" v="bus_stop"/>
    <tag k="name" v="Jugosłowiańska"/>
    <tag k="operator" v="Zarząd Dróg i Transportu Miejskiego"/>
    <tag k="ref" v="71212"/>
    <tag k="source" v="zditm"/>
    <tag k="website" v="http://zditm.szczecin.pl/rozklady/index.html"/>
  </node>
  <node id="1025677082" version="2" timestamp="2012-04-26T18:56:11Z" uid="603523" user="diverpl" changeset="11426003" lat="53.3868786" lon="14.6825085">
    <tag k="highway" v="bus_stop"/>
    <tag k="name" v="Zakłady Mięsne"/>
    <tag k="operator" v="Zarząd Dróg i Transportu Miejskiego"/>
    <tag k="ref" v="74811"/>
    <tag k="source" v="zditm"/>
    <tag k="website" v="http://zditm.szczecin.pl/rozklady/index.html"/>
  </node>
  <node id="1025677084" version="2" timestamp="2012-04-23T21:08:00Z" uid="603523" user="diverpl" changeset="11399940" lat="53.3746433" lon="14.6882961">
    <tag k="highway" v="bus_stop"/>
    <tag k="name" v="Jelenia"/>
    <tag k="operator" v="Zarząd Dróg i Transportu Miejskiego"/>
    <tag k="ref" v="86012"/>
    <tag k="source" v="zditm"/>
    <tag k="website" v="http://zditm.szczecin.pl/rozklady/index.html"/>
  </node>
</osm>
