<?xml version='1.0' encoding='UTF-8'?>
<osm version="0.6" generator="libosmium/2.20.0">
  <node id="1026471163" version="1" timestamp="2010-12-07T13:52:47Z" uid="115477" user="wowik" changeset="6575027" lat="55.3042515" lon="28.2985032">
    <tag k="name" v="Кульгаи"/>
    <tag k="name:ru" v="Кульгаи"/>
    <tag k="railway" v="halt"/>
  </node>
  <node id="1026471163" version="2" timestamp="2011-08-08T09:53:35Z" uid="29431" user="jekhor" changeset="8955373" lat="55.3053807" lon="28.2950273">
    <tag k="name" v="Кульгаи"/>
    <tag k="name:ru" v="Кульгаи"/>
    <tag k="railway" v="halt"/>
  </node>
  <node id="1026478748" version="1" timestamp="2010-12-07T13:59:09Z" uid="30632" user="antblant" changeset="6575123" lat="53.431244" lon="14.538903">
    <tag k="highway" v="bus_stop"/>
    <tag k="name" v="Piastów"/>
    <tag k="operator" v="Zarząd Dróg i Transportu Miejskiego"/>
    <tag k="ref" v="11821"/>
    <tag k="source" v="zditm"/>
    <tag k="website" v="http://zditm.szczecin.pl/rozklady/index.html"/>
  </node>
  <node id="1026478758" version="1" timestamp="2010-12-07T13:59:10Z" uid="30632" user="antblant" changeset="6575123" lat="53.427135" lon="14.537712">
    <tag k="highway" v="bus_stop"/>
    <tag k="name" v="Plac Kościuszki"/>
    <tag k="operator" v="Zarząd Dróg i Transportu Miejskiego"/>
    <tag k="ref" v="10421"/>
    <tag k="source" v="zditm"/>
    <tag k="website" v="http://zditm.szczecin.pl/rozklady/index.html"/>
  </node>
  <node id="1026478758" version="2" timestamp="2012-02-26T17:02:36Z" uid="603523" user="diverpl" changeset="10800474" lat="53.427135" lon="14.537712"/>
  <node id="1026478762" version="1" timestamp="2010-12-07T13:59:10Z" uid="30632" user="antblant" changeset="6575123" lat="53.435403" lon="14.5536744">
    <tag k="name" v="Rayskiego"/>
    <tag k="operator" v="Zarząd Dróg i Transportu Miejskiego"/>
    <tag k="public_transport" v="platform"/>
    <tag k="rail" v="yes"/>
    <tag k="ref" v="12912"/>
    <tag k="source" v="zditm"/>
    <tag k="website" v="http://zditm.szczecin.pl/rozklady/index.html"/>
  </node>
  <node id="1026478762" version="2" timestamp="2012-02-28T21:11:02Z" uid="603523" user="diverpl" changeset="10821910" lat="53.435403" lon="14.5536744"/>
  <node id="1026478769" version="1" timestamp="2010-12-07T13:59:10Z" uid="30632" user="antblant" changeset="6575123" lat="53.424873" lon="14.551617">
    <tag k="name" v="Brama Portowa"/>
    <tag k="public_transport" v="stop_position"/>
    <tag k="rail" v="yes"/>
    <tag k="ref" v="10821"/>
  </node>
  <node id="1026478769" version="2" timestamp="2012-02-26T17:02:29Z" uid="603523" user="diverpl" changeset="10800474" lat="53.424873" lon="14.551617"/>
  <node id="1026478780" version="1" timestamp="2010-12-07T13:59:10Z" uid="30632" user="antblant" changeset="6575123" lat="53.428377" lon="14.5525632">
    <tag k="name" v="Plac Żołnierza Polskiego"/>
    <tag k="public_transport" v="stop_position"/>
    <tag k="rail" v="yes"/>
    <tag k="railway" v="tram_stop"/>
  </node>
  <node id="1026478780" version="2" timestamp="2011-09-19T06:07:06Z" uid="473784" user="antblant" changeset="9339361" lat="53.428368" lon="14.5525868">
    <tag k="name" v="Plac Żołnierza Polskiego"/>
    <tag k="public_transport" v="stop_position"/>
    <tag k="rail" v="yes"/>
    <tag k="railway" v="tram_stop"/>
  </node>
  <node id="1026478780" version="3" timestamp="2012-02-26T17:02:38Z" uid="603523" user="diverpl" changeset="10800474" lat="53.428368" lon="14.5525868"/>
  <node id="1026478787" version="1" timestamp="2010-12-07T13:59:11Z" uid="30632" user="antblant" changeset="6575123" lat="53.428127" lon="14.544373">
    <tag k="highway" v="bus_stop"/>
    <tag k="name" v="Plac Zgody"/>
    <tag k="operator" v="Zarząd Dróg i Transportu Miejskiego"/>
    <tag k="ref" v="12421"/>
    <tag k="source" v="zditm"/>
    <tag k="website" v="http://zditm.szczecin.pl/rozklady/index.html"/>
  </node>
  <node id="1026478794" version="1" timestamp="2010-12-07T13:59:11Z" uid="30632" user="antblant" changeset="6575123" lat="53.42931" lon="14.553183">
    <tag k="highway" v="bus_stop"/>
    <tag k="name" v="Plac Żołnierza Polskiego"/>
    <tag k="operator" v="Zarząd Dróg i Transportu Miejskiego"/>
    <tag k="ref" v="11311"/>
    <tag k="source" v="zditm"/>
    <tag k="website" v="http://zditm.szczecin.pl/rozklady/index.html"/>
  </node>
  <node id="1026478800" version="1" timestamp="2010-12-07T13:59:12Z" uid="30632" user="antblant" changeset="6575123" lat="53.414982" lon="14.537119">
    <tag k="highway" v="bus_stop"/>
    <tag k="name" v="Kusocińskiego"/>
    <tag k="operator" v="Zarząd Dróg i Transportu Miejskiego"/>
    <tag k="ref" v="23212"/>
    <tag k="source" v="zditm"/>
    <tag k="website" v="http://zditm.szczecin.pl/rozklady/index.html"/>
  </node>
  <node id="1026478810" version="1" timestamp="2010-12-07T13:59:12Z" uid="30632" user="antblant" changeset="6575123" lat="53.431992" lon="14.538335">
    <tag k="name" v="Piastów"/>
    <tag k="operator" v="Zarząd Dróg i Transportu Miejskiego"/>
    <tag k="public_transport" v="platform"/>
    <tag k="rail" v="yes"/>
    <tag k="ref" v="11831"/>
    <tag k="source" v="zditm"/>
    <tag k="website" v="http://zditm.szczecin.pl/rozklady/index.html"/>
  </node>
  <node id="1026478810" version="2" timestamp="2012-02-26T17:02:34Z" uid="603523" user="diverpl" changeset="10800474" lat="53.431992" lon="14.538335"/>
  <node id="1026478821" version="1" timestamp="2010-12-07T13:59:12Z" uid="30632" user="antblant" changeset="6575123" lat="53.433002" lon="14.541585">
    <tag k="name" v="Plac Szarych Szeregów"/>
    <tag k="old_name" v="Plac Sprzymierzonych"/>
    <tag k="operator" v="Zarząd Dróg i Transportu Miejskiego"/>
    <tag k="public_transport" v="platform"/>
    <tag k="rail" v="yes"/>
    <tag k="ref" v="11713"/>
    <tag k="source" v="zditm"/>
    <tag k="website" v="http://zditm.szczecin.pl/rozklady/index.html"/>
  </node>
  <node id="1026478821" version="2" timestamp="2012-02-26T17:02:37Z" uid="603523" user="diverpl" changeset="10800474" lat="53.433002" lon="14.541585"/>
  <node id="1026478825" version="1" timestamp="2010-12-07T13:59:13Z" uid="30632" user="antblant" changeset="6575123" lat="53.425423" lon="14.551102">
    <tag k="name" v="Brama Portowa"/>
    <tag k="public_transport" v="stop_position"/>
    <tag k="rail" v="yes"/>
    <tag k="ref" v="10812"/>
  </node>
  <node id="1026478825" version="2" timestamp="2012-02-26T17:02:30Z" uid="603523" user="diverpl" changeset="10800474" lat="53.425423" lon="14.551102"/>
  <node id="1026478830" version="1" timestamp="2010-12-07T13:59:13Z" uid="30632" user="antblant" changeset="6575123" lat="53.418633" lon="14.551853">
    <tag k="name" v="Dworzec Główny"/>
    <tag k="operator" v="Zarząd Dróg i Transportu Miejskiego"/>
    <tag k="public_transport" v="platform"/>
    <tag k="ref" v="22515"/>
    <tag k="source" v="zditm"/>
    <tag k="tram" v="yes"/>
    <tag k="website" v="http://zditm.szczecin.pl/rozklady/index.html"/>
  </node>
  <node id="1026478830" version="2" timestamp="2012-02-26T21:42:18Z" uid="603523" user="diverpl" changeset="10803690" lat="53.418633" lon="14.551853"/>
  <node id="1026478844" version="1" timestamp="2010-12-07T13:59:14Z" uid="30632" user="antblant" changeset="6575123" lat="53.42511" lon="14.5524">
    <tag k="highway" v="bus_stop"/>
    <tag k="name" v="Tkacka"/>
    <tag k="operator" v="Zarząd Dróg i Transportu Miejskiego"/>
    <tag k="ref" v="11112"/>
    <tag k="source" v="zditm"/>
    <tag k="website" v="http://zditm.szczecin.pl/rozklady/index.html"/>
  </node>
  <node id="1026478844" version="2" timestamp="2012-02-12T22:30:31Z" uid="603523" user="diverpl" changeset="10668950" lat="53.4250995" lon="14.5524351">
    <tag k="highway" v="bus_stop"/>
    <tag k="name" v="Tkacka"/>
    <tag k="operator" v="Zarząd Dróg i Transportu Miejskiego"/>
    <tag k="ref" v="11112"/>
    <tag k="source" v="zditm"/>
    <tag k="website" v="http://zditm.szczecin.pl/rozklady/index.html"/>
  </node>
  <node id="1026478848" version="1" timestamp="2010-12-07T13:59:14Z" uid="30632" user="antblant" changeset="6575123" lat="53.4143592" lon="14.5460189">
    <tag k="bus" v="yes"/>
    <tag k="name" v="Kolumba"/>
    <tag k="operator" v="Zarząd Dróg i Transportu Miejskiego"/>
    <tag k="public_transport" v="platform"/>
    <tag k="ref" v="22411"/>
    <tag k="source" v="zditm"/>
    <tag k="tram" v="yes"/>
    <tag k="website" v="http://zditm.szczecin.pl/rozklady/index.html"/>
  </node>
  <node id="1026478848" version="2" timestamp="2012-02-26T21:42:18Z" uid="603523" user="diverpl" changeset="10803690" lat="53.4143592" lon="14.5460189"/>
  <node id="1026478864" version="1" timestamp="2010-12-07T13:59:15Z" uid="30632" user="antblant" changeset="6575123" lat="53.419125" lon="14.548044">
    <tag k="highway" v="bus_stop"/>
    <tag k="name" v="Owocowa"/>
    <tag k="operator" v="Zarząd Dróg i Transportu Miejskiego"/>
    <tag k="ref" v="22911"/>
    <tag k="source" v="zditm"/>
    <tag k="website" v="http://zditm.szczecin.pl/rozklady/index.html"/>
  </node>
  <node id="1026478868" version="1" timestamp="2010-12-07T13:59:15Z" uid="30632" user="antblant" changeset="6575123" lat="53.415215" lon="14.543476">
    <tag k="name" v="Potulicka"/>
    <tag k="operator" v="Zarząd Dróg i Transportu Miejskiego"/>
    <tag k="public_transport" v="platform"/>
    <tag k="ref" v="23122"/>
    <tag k="source" v="zditm"/>
    <tag k="tram" v="yes"/>
    <tag k="website" v="http://zditm.szczecin.pl/rozklady/index.html"/>
  </node>
  <node id="1026478868" version="2" timestamp="2012-02-26T17:02:39Z" uid="603523" user="diverpl" changeset="10800474" lat="53.415215" lon="14.543476"/>
  <node id="1026478881" version="1" timestamp="2010-12-07T13:59:16Z" uid="30632" user="antblant" changeset="6575123" lat="53.425632" lon="14.536638">
    <tag k="highway" v="bus_stop"/>
    <tag k="name" v="Plac Kościuszki"/>
    <tag k="operator" v="Zarząd Dróg i Transportu Miejskiego"/>
    <tag k="ref" v="10433"/>
    <tag k="source" v="zditm"/>
    <tag k="website" v="http://zditm.szczecin.pl/rozklady/index.html"/>
  </node>
  <node id="1026478881" version="2" timestamp="2012-02-15T18:29:52Z" uid="603523" user="diverpl" changeset="10694968" lat="53.4256044" lon="14.5367483">
    <tag k="highway" v="bus_stop"/>
    <tag k="name" v="Plac Kościuszki"/>
    <tag k="operator" v="Zarząd Dróg i Transportu Miejskiego"/>
    <tag k="ref" v="10433"/>
    <tag k="source" v="zditm"/>
    <tag k="website" v="http://zditm.szczecin.pl/rozklady/index.html"/>
  </node>
  <node id="1026478881" version="3" timestamp="2012-02-15T21:32:10Z" uid="603523" user="diverpl" changeset="10696753" lat="53.425632" lon="14.536638">
    <tag k="highway" v="bus_stop"/>
    <tag k="name" v="Plac Kościuszki"/>
    <tag k="operator" v="Zarząd Dróg i Transportu Miejskiego"/>
    <tag k="ref" v="10433"/>
    <tag k="source" v="zditm"/>
    <tag k="website" v="http://zditm.szczecin.pl/rozklady/index.html"/>
  </node>
  <node id="1026478881" version="4" timestamp="2012-02-18T18:53:22Z" uid="603523" user="diverpl" changeset="10723216" lat="53.4256171" lon="14.5366854">
    <tag k="highway" v="bus_stop"/>
    <tag k="name" v="Plac Kościuszki"/>
    <tag k="operator" v="Zarząd Dróg i Transportu Miejskiego"/>
    <tag k="ref" v="10433"/>
    <tag k="source" v="zditm"/>
    <tag k="website" v="http://zditm.szczecin.pl/rozklady/index.html"/>
  </node>
  <node id="1026478891" version="1" timestamp="2010-12-07T13:59:16Z" uid="30632" user="antblant" changeset="6575123" lat="53.4244673" lon="14.5509088">
    <tag k="name" v="Brama Portowa"/>
    <tag k="public_transport" v="stop_position"/>
    <tag k="rail" v="yes"/>
    <tag k="ref" v="10832"/>
  </node>
  <node id="1026478891" version="2" timestamp="2012-02-26T17:02:29Z" uid="603523" user="diverpl" changeset="10800474" lat="53.4244673" lon="14.5509088"/>
  <node id="1026478895" version="1" timestamp="2010-12-07T13:59:16Z" uid="30632" user="antblant" changeset="6575123" lat="53.429226" lon="14.553698">
    <tag k="highway" v="bus_stop"/>
    <tag k="name" v="Plac Żołnierza Polskiego"/>
    <tag k="operator" v="Zarząd Dróg i Transportu Miejskiego"/>
    <tag k="ref" v="11313"/>
    <tag k="source" v="zditm"/>
    <tag k="website" v="http://zditm.szczecin.pl/rozklady/index.html"/>
  </node>
  <node id="1026478902" version="1" timestamp="2010-12-07T13:59:17Z" uid="30632" user="antblant" changeset="6575123" lat="53.430046" lon="14.554136">
    <tag k="highway" v="bus_stop"/>
    <tag k="name" v="Plac Rodła"/>
    <tag k="operator" v="Zarząd Dróg i Transportu Miejskiego"/>
    <tag k="ref" v="11533"/>
    <tag k="source" v="zditm"/>
    <tag k="website" v="http://zditm.szczecin.pl/rozklady/index.html"/>
  </node>
  <node id="1026478905" version="1" timestamp="2010-12-07T13:59:17Z" uid="30632" user="antblant" changeset="6575123" lat="53.409111" lon="14.538742">
    <tag k="name" v="Tama Pomorzańska"/>
    <tag k="operator" v="Zarząd Dróg i Transportu Miejskiego"/>
    <tag k="public_transport" v="platform"/>
    <tag k="rail" v="yes"/>
    <tag k="ref" v="22211"/>
    <tag k="source" v="zditm"/>
    <tag k="website" v="http://zditm.szczecin.pl/rozklady/index.html"/>
  </node>
  <node id="1026478905" version="2" timestamp="2012-02-26T21:42:19Z" uid="603523" user="diverpl" changeset="10803690" lat="53.409111" lon="14.538742"/>
  <node id="1026478925" version="1" timestamp="2010-12-07T13:59:17Z" uid="30632" user="antblant" changeset="6575123" lat="53.439228" lon="14.552357">
    <tag k="name" v="Odzieżowa"/>
    <tag k="operator" v="Zarząd Dróg i Transportu Miejskiego"/>
    <tag k="public_transport" v="platform"/>
    <tag k="rail" v="yes"/>
    <tag k="ref" v="12812"/>
    <tag k="source" v="zditm"/>
    <tag k="website" v="http://zditm.szczecin.pl/rozklady/index.html"/>
  </node>
  <node id="1026478925" version="2" timestamp="2012-02-28T21:11:02Z" uid="603523" user="diverpl" changeset="10821910" lat="53.439228" lon="14.552357"/>
  <node id="1026478932" version="1" timestamp="2010-12-07T13:59:18Z" uid="30632" user="antblant" changeset="6575123" lat="53.425648" lon="14.548448">
    <tag k="highway" v="bus_stop"/>
    <tag k="name" v="Plac Zwycięstwa"/>
    <tag k="operator" v="Zarząd Dróg i Transportu Miejskiego"/>
    <tag k="ref" v="10711"/>
    <tag k="source" v="zditm"/>
    <tag k="website" v="http://zditm.szczecin.pl/rozklady/index.html"/>
  </node>
  <node id="1026478932" version="2" timestamp="2012-02-15T18:29:55Z" uid="603523" user="diverpl" changeset="10694968" lat="53.4256759" lon="14.5484418">
    <tag k="highway" v="bus_stop"/>
    <tag k="name" v="Plac Zwycięstwa"/>
    <tag k="operator" v="Zarząd Dróg i Transportu Miejskiego"/>
    <tag k="ref" v="10711"/>
    <tag k="source" v="zditm"/>
    <tag k="website" v="http://zditm.szczecin.pl/rozklady/index.html"/>
  </node>
  <node id="1026478932" version="3" timestamp="2012-02-15T21:32:12Z" uid="603523" user="diverpl" changeset="10696753" lat="53.425648" lon="14.548448">
    <tag k="highway" v="bus_stop"/>
    <tag k="name" v="Plac Zwycięstwa"/>
    <tag k="operator" v="Zarząd Dróg i Transportu Miejskiego"/>
    <tag k="ref" v="10711"/>
    <tag k="source" v="zditm"/>
    <tag k="website" v="http://zditm.szczecin.pl/rozklady/index.html"/>
  </node>
  <node id="1026478932" version="4" timestamp="2012-02-18T18:53:23Z" uid="603523" user="diverpl" changeset="10723216" lat="53.4256796" lon="14.5484118">
    <tag k="highway" v="bus_stop"/>
    <tag k="name" v="Plac Zwycięstwa"/>
    <tag k="operator" v="Zarząd Dróg i Transportu Miejskiego"/>
    <tag k="ref" v="10711"/>
    <tag k="source" v="zditm"/>
    <tag k="website" v="http://zditm.szczecin.pl/rozklady/index.html"/>
  </node>
  <node id="1026478937" version="1" timestamp="2010-12-07T13:59:18Z" uid="30632" user="antblant" changeset="6575123" lat="53.4275575" lon="14.5371078">
    <tag k="name" v="Plac Kościuszki"/>
    <tag k="operator" v="Zarząd Dróg i Transportu Miejskiego"/>
    <tag k="public_transport" v="platform"/>
    <tag k="rail" v="yes"/>
    <tag k="ref" v="10412"/>
    <tag k="source" v="zditm"/>
    <tag k="website" v="http://zditm.szczecin.pl/rozklady/index.html"/>
  </node>
  <node id="1026478937" version="2" timestamp="2012-02-26T17:02:36Z" uid="603523" user="diverpl" changeset="10800474" lat="53.4275575" lon="14.5371078"/>
  <node id="1026478954" version="1" timestamp="2010-12-07T13:59:19Z" uid="30632" user="antblant" changeset="6575123" lat="53.425549" lon="14.551585">
    <tag k="highway" v="bus_stop"/>
    <tag k="name" v="Brama Portowa"/>
    <tag k="operator" v="Zarząd Dróg i Transportu Miejskiego"/>
    <tag k="ref" v="10814"/>
    <tag k="source" v="zditm"/>
    <tag k="website" v="http://zditm.szczecin.pl/rozklady/index.html"/>
  </node>
  <node id="1026478959" version="1" timestamp="2010-12-07T13:59:19Z" uid="30632" user="antblant" changeset="6575123" lat="53.415306" lon="14.554136">
    <tag k="highway" v="bus_stop"/>
    <tag k="name" v="Heyki"/>
    <tag k="operator" v="Zarząd Dróg i Transportu Miejskiego"/>
    <tag k="ref" v="60911"/>
    <tag k="source" v="zditm"/>
    <tag k="website" v="http://zditm.szczecin.pl/rozklady/index.html"/>
  </node>
  <node id="1026478959" version="2" timestamp="2012-02-20T21:45:51Z" uid="603523" user="diverpl" changeset="10745398" lat="53.415278" lon="14.5540945">
    <tag k="highway" v="bus_stop"/>
    <tag k="name" v="Heyki"/>
    <tag k="operator" v="Zarząd Dróg i Transportu Miejskiego"/>
    <tag k="ref" v="60911"/>
    <tag k="source" v="zditm"/>
    <tag k="website" v="http://zditm.szczecin.pl/rozklady/index.html"/>
  </node>
  <node id="1026478982" version="1" timestamp="2010-12-07T13:59:20Z" uid="30632" user="antblant" changeset="6575123" lat="53.43335" lon="14.547143">
    <tag k="highway" v="bus_stop"/>
    <tag k="name" v="Plac Grunwaldzki"/>
    <tag k="operator" v="Zarząd Dróg i Transportu Miejskiego"/>
    <tag k="ref" v="11621"/>
    <tag k="source" v="zditm"/>
    <tag k="website" v="http://zditm.szczecin.pl/rozklady/index.html"/>
  </node>
  <node id="1026478982" version="2" timestamp="2012-02-19T16:17:09Z" uid="603523" user="diverpl" changeset="10730939" lat="53.4333583" lon="14.5471458">
    <tag k="highway" v="bus_stop"/>
    <tag k="name" v="Plac Grunwaldzki"/>
    <tag k="operator" v="Zarząd Dróg i Transportu Miejskiego"/>
    <tag k="ref" v="11621"/>
    <tag k="source" v="zditm"/>
    <tag k="website" v="http://zditm.szczecin.pl/rozklady/index.html"/>
  </node>
  <node id="1026478986" version="1" timestamp="2010-12-07T13:59:20Z" uid="30632" user="antblant" changeset="6575123" lat="53.435673" lon="14.538206">
    <tag k="highway" v="bus_stop"/>
    <tag k="name" v="Felczaka"/>
    <tag k="operator" v="Zarząd Dróg i Transportu Miejskiego"/>
    <tag k="ref" v="12321"/>
    <tag k="source" v="zditm"/>
    <tag k="website" v="http://zditm.szczecin.pl/rozklady/index.html"/>
  </node>
  <node id="1026478986" version="2" timestamp="2012-02-26T17:02:31Z" uid="603523" user="diverpl" changeset="10800474" lat="53.435673" lon="14.538206"/>
  <node id="1026479001" version="1" timestamp="2010-12-07T13:59:20Z" uid="30632" user="antblant" changeset="6575123" lat="53.441216" lon="14.554771">
    <tag k="highway" v="bus_stop"/>
    <tag k="name" v="Ofiar Oświęcimia"/>
    <tag k="operator" v="Zarząd Dróg i Transportu Miejskiego"/>
    <tag k="ref" v="14211"/>
    <tag k="source" v="zditm"/>
    <tag k="website" v="http://zditm.szczecin.pl/rozklady/index.html"/>
  </node>
  <node id="1026479001" version="2" timestamp="2012-02-12T23:45:36Z" uid="603523" user="diverpl" changeset="10668950" lat="53.4413219" lon="14.5544633">
    <tag k="highway" v="bus_stop"/>
    <tag k="name" v="Ofiar Oświęcimia"/>
    <tag k="operator" v="Zarząd Dróg i Transportu Miejskiego"/>
    <tag k="ref" v="14211"/>
    <tag k="source" v="zditm"/>
    <tag k="website" v="http://zditm.szczecin.pl/rozklady/index.html"/>
  </node>
  <node id="1026479007" version="1" timestamp="2010-12-07T13:59:20Z" uid="30632" user="antblant" changeset="6575123" lat="53.4206527" lon="14.5490211">
    <tag k="highway" v="bus_stop"/>
    <tag k="name" v="Plac Zawiszy"/>
    <tag k="operator" v="Zarząd Dróg i Transportu Miejskiego"/>
    <tag k="ref" v="22811"/>
    <tag k="source" v="zditm"/>
    <tag k="website" v="http://zditm.szczecin.pl/rozklady/index.html"/>
  </node>
  <node id="1026479012" version="1" timestamp="2010-12-07T13:59:20Z" uid="30632" user="antblant" changeset="6575123" lat="53.4118776" lon="14.5431864">
    <tag k="bus" v="yes"/>
    <tag k="name" v="Nadodrzańska"/>
    <tag k="operator" v="Zarząd Dróg i Transportu Miejskiego"/>
    <tag k="public_transport" v="platform"/>
    <tag k="ref" v="22311"/>
    <tag k="source" v="zditm"/>
    <tag k="tram" v="yes"/>
    <tag k="website" v="http://zditm.szczecin.pl/rozklady/index.html"/>
  </node>
  <node id="1026479012" version="2" timestamp="2012-02-26T21:42:18Z" uid="603523" user="diverpl" changeset="10803690" lat="53.4118776" lon="14.5431864"/>
  <node id="1026479031" version="1" timestamp="2010-12-07T13:59:21Z" uid="30632" user="antblant" changeset="6575123" lat="53.433067" lon="14.54121">
    <tag k="name" v="Plac Szarych Szeregów"/>
    <tag k="old_name" v="Plac Sprzymierzonych"/>
    <tag k="operator" v="Zarząd Dróg i Transportu Miejskiego"/>
    <tag k="public_transport" v="platform"/>
    <tag k="rail" v="yes"/>
    <tag k="ref" v="11712"/>
    <tag k="source" v="zditm"/>
    <tag k="website" v="http://zditm.szczecin.pl/rozklady/index.html"/>
  </node>
  <node id="1026479031" version="2" timestamp="2012-02-26T17:02:37Z" uid="603523" user="diverpl" changeset="10800474" lat="53.433067" lon="14.54121"/>
  <node id="1026479037" version="1" timestamp="2010-12-07T13:59:21Z" uid="30632" user="antblant" changeset="6575123" lat="53.425121" lon="14.546231">
    <tag k="highway" v="bus_stop"/>
    <tag k="name" v="Plac Zwycięstwa"/>
    <tag k="operator" v="Zarząd Dróg i Transportu Miejskiego"/>
    <tag k="ref" v="10731"/>
    <tag k="shelter" v="yes"/>
    <tag k="source" v="zditm"/>
    <tag k="website" v="http://zditm.szczecin.pl/rozklady/index.html"/>
  </node>
  <node id="1026479037" version="2" timestamp="2012-02-15T18:29:54Z" uid="603523" user="diverpl" changeset="10694968" lat="53.4250801" lon="14.5463558">
    <tag k="highway" v="bus_stop"/>
    <tag k="name" v="Plac Zwycięstwa"/>
    <tag k="operator" v="Zarząd Dróg i Transportu Miejskiego"/>
    <tag k="ref" v="10731"/>
    <tag k="shelter" v="yes"/>
    <tag k="source" v="zditm"/>
    <tag k="website" v="http://zditm.szczecin.pl/rozklady/index.html"/>
  </node>
  <node id="1026479037" version="3" timestamp="2012-02-15T21:32:12Z" uid="603523" user="diverpl" changeset="10696753" lat="53.425121" lon="14.546231">
    <tag k="highway" v="bus_stop"/>
    <tag k="name" v="Plac Zwycięstwa"/>
    <tag k="operator" v="Zarząd Dróg i Transportu Miejskiego"/>
    <tag k="ref" v="10731"/>
    <tag k="shelter" v="yes"/>
    <tag k="source" v="zditm"/>
    <tag k="website" v="http://zditm.szczecin.pl/rozklady/index.html"/>
  </node>
  <node id="1026479037" version="4" timestamp="2012-02-18T18:53:23Z" uid="603523" user="diverpl" changeset="10723216" lat="53.4250612" lon="14.5463146">
    <tag k="highway" v="bus_stop"/>
    <tag k="name" v="Plac Zwycięstwa"/>
    <tag k="operator" v="Zarząd Dróg i Transportu Miejskiego"/>
    <tag k="ref" v="10731"/>
    <tag k="shelter" v="yes"/>
    <tag k="source" v="zditm"/>
    <tag k="website" v="http://zditm.szczecin.pl/rozklady/index.html"/>
  </node>
  <node id="1026479059" version="1" timestamp="2010-12-07T13:59:22Z" uid="30632" user="antblant" changeset="6575123" lat="53.427364" lon="14.536006">
    <tag k="name" v="Plac Kościuszki"/>
    <tag k="operator" v="Zarząd Dróg i Transportu Miejskiego"/>
    <tag k="public_transport" v="platform"/>
    <tag k="rail" v="yes"/>
    <tag k="ref" v="10451"/>
    <tag k="source" v="zditm"/>
    <tag k="website" v="http://zditm.szczecin.pl/rozklady/index.html"/>
  </node>
  <node id="1026479059" version="2" timestamp="2012-02-26T17:02:36Z" uid="603523" user="diverpl" changeset="10800474" lat="53.427364" lon="14.536006"/>
  <node id="1026479063" version="1" timestamp="2010-12-07T13:59:22Z" uid="30632" user="antblant" changeset="6575123" lat="53.418976" lon="14.552368">
    <tag k="name" v="Dworzec Główny"/>
    <tag k="operator" v="Zarząd Dróg i Transportu Miejskiego"/>
    <tag k="public_transport" v="platform"/>
    <tag k="ref" v="22514"/>
    <tag k="source" v="zditm"/>
    <tag k="tram" v="yes"/>
    <tag k="website" v="http://zditm.szczecin.pl/rozklady/index.html"/>
  </node>
  <node id="1026479063" version="2" timestamp="2012-02-26T21:42:18Z" uid="603523" user="diverpl" changeset="10803690" lat="53.418976" lon="14.552368"/>
  <node id="1026479079" version="1" timestamp="2010-12-07T13:59:23Z" uid="30632" user="antblant" changeset="6575123" lat="53.4283065" lon="14.5523154"/>
  <node id="1026479079" version="2" timestamp="2011-09-19T06:07:06Z" uid="473784" user="antblant" changeset="9339361" lat="53.4282963" lon="14.5523143"/>
  <node id="1026479079" version="3" timestamp="2012-02-26T17:02:42Z" uid="603523" user="diverpl" changeset="10800474" lat="53.4282963" lon="14.5523143"/>
  <node id="1026479083" version="1" timestamp="2010-12-07T13:59:23Z" uid="30632" user="antblant" changeset="6575123" lat="53.432163" lon="14.539118">
    <tag k="name" v="Piastów"/>
    <tag k="operator" v="Zarząd Dróg i Transportu Miejskiego"/>
    <tag k="public_transport" v="platform"/>
    <tag k="rail" v="yes"/>
    <tag k="ref" v="11812"/>
    <tag k="source" v="zditm"/>
    <tag k="website" v="http://zditm.szczecin.pl/rozklady/index.html"/>
  </node>
  <node id="1026479083" version="2" timestamp="2012-02-26T17:02:34Z" uid="603523" user="diverpl" changeset="10800474" lat="53.432163" lon="14.539118"/>
  <node id="1026479085" version="1" timestamp="2010-12-07T13:59:23Z" uid="30632" user="antblant" changeset="6575123" lat="53.421318" lon="14.553291">
    <tag k="name" v="Plac Tobrucki"/>
    <tag k="operator" v="Zarząd Dróg i Transportu Miejskiego"/>
    <tag k="public_transport" v="platform"/>
    <tag k="rail" v="yes"/>
    <tag k="ref" v="22612"/>
    <tag k="source" v="zditm"/>
    <tag k="website" v="http://zditm.szczecin.pl/rozklady/index.html"/>
  </node>
  <node id="1026479085" version="2" timestamp="2012-02-26T21:42:18Z" uid="603523" user="diverpl" changeset="10803690" lat="53.421318" lon="14.553291"/>
  <node id="1026479110" version="1" timestamp="2010-12-07T13:59:24Z" uid="30632" user="antblant" changeset="6575123" lat="53.432095" lon="14.553816">
    <tag k="highway" v="bus_stop"/>
    <tag k="name" v="Plac Rodła"/>
    <tag k="operator" v="Zarząd Dróg i Transportu Miejskiego"/>
    <tag k="ref" v="11543"/>
    <tag k="source" v="zditm"/>
    <tag k="website" v="http://zditm.szczecin.pl/rozklady/index.html"/>
  </node>
  <node id="1026479110" version="2" timestamp="2012-02-19T16:17:10Z" uid="603523" user="diverpl" changeset="10730939" lat="53.4320583" lon="14.5538076">
    <tag k="highway" v="bus_stop"/>
    <tag k="name" v="Plac Rodła"/>
    <tag k="operator" v="Zarząd Dróg i Transportu Miejskiego"/>
    <tag k="ref" v="11543"/>
    <tag k="source" v="zditm"/>
    <tag k="website" v="http://zditm.szczecin.pl/rozklady/index.html"/>
  </node>
  <node id="1026479112" version="1" timestamp="2010-12-07T13:59:24Z" uid="30632" user="antblant" changeset="6575123" lat="53.425926" lon="14.53738">
    <tag k="highway" v="bus_stop"/>
    <tag k="name" v="Plac Kościuszki"/>
    <tag k="operator" v="Zarząd Dróg i Transportu Miejskiego"/>
    <tag k="ref" v="10432"/>
    <tag k="source" v="zditm"/>
    <tag k="website" v="http://zditm.szczecin.pl/rozklady/index.html"/>
  </node>
  <node id="1026479112" version="2" timestamp="2012-02-15T18:29:53Z" uid="603523" user="diverpl" changeset="10694968" lat="53.4259273" lon="14.5374793">
    <tag k="highway" v="bus_stop"/>
    <tag k="name" v="Plac Kościuszki"/>
    <tag k="operator" v="Zarząd Dróg i Transportu Miejskiego"/>
    <tag k="ref" v="10432"/>
    <tag k="source" v="zditm"/>
    <tag k="website" v="http://zditm.szczecin.pl/rozklady/index.html"/>
  </node>
  <node id="1026479112" version="3" timestamp="2012-02-15T21:32:11Z" uid="603523" user="diverpl" changeset="10696753" lat="53.425926" lon="14.53738">
    <tag k="highway" v="bus_stop"/>
    <tag k="name" v="Plac Kościuszki"/>
    <tag k="operator" v="Zarząd Dróg i Transportu Miejskiego"/>
    <tag k="ref" v="10432"/>
    <tag k="source" v="zditm"/>
    <tag k="website" v="http://zditm.szczecin.pl/rozklady/index.html"/>
  </node>
  <node id="1026479134" version="1" timestamp="2010-12-07T13:59:25Z" uid="30632" user="antblant" changeset="6575123" lat="53.425186" lon="14.549761">
    <tag k="name" v="Brama Portowa"/>
    <tag k="public_transport" v="stop_position"/>
    <tag k="rail" v="yes"/>
    <tag k="ref" v="10843"/>
  </node>
  <node id="1026479134" version="2" timestamp="2012-02-26T17:02:30Z" uid="603523" user="diverpl" changeset="10800474" lat="53.425186" lon="14.549761"/>
  <node id="1026479138" version="1" timestamp="2010-12-07T13:59:25Z" uid="30632" user="antblant" changeset="6575123" lat="53.433189" lon="14.541403">
    <tag k="highway" v="bus_stop"/>
    <tag k="name" v="Plac Szarych Szeregów"/>
    <tag k="old_name" v="Plac Sprzymierzonych"/>
    <tag k="operator" v="Zarząd Dróg i Transportu Miejskiego"/>
    <tag k="ref" v="11711"/>
    <tag k="source" v="zditm"/>
    <tag k="website" v="http://zditm.szczecin.pl/rozklady/index.html"/>
  </node>
  <node id="1026479141" version="1" timestamp="2010-12-07T13:59:25Z" uid="30632" user="antblant" changeset="6575123" lat="53.4244758" lon="14.5507972">
    <tag k="name" v="Brama Portowa"/>
    <tag k="public_transport" v="stop_position"/>
    <tag k="rail" v="yes"/>
    <tag k="ref" v="10831"/>
  </node>
  <node id="1026479141" version="2" timestamp="2012-02-26T17:02:29Z" uid="603523" user="diverpl" changeset="10800474" lat="53.4244758" lon="14.5507972"/>
  <node id="1026479161" version="1" timestamp="2010-12-07T13:59:26Z" uid="30632" user="antblant" changeset="6575123" lat="53.418903" lon="14.55181">
    <tag k="highway" v="bus_stop"/>
    <tag k="name" v="Dworzec Główny"/>
    <tag k="operator" v="Zarząd Dróg i Transportu Miejskiego"/>
    <tag k="ref" v="22513"/>
    <tag k="source" v="zditm"/>
    <tag k="website" v="http://zditm.szczecin.pl/rozklady/index.html"/>
  </node>
  <node id="1026479161" version="2" timestamp="2012-02-15T18:29:48Z" uid="603523" user="diverpl" changeset="10694968" lat="53.4189866" lon="14.5519684">
    <tag k="highway" v="bus_stop"/>
    <tag k="name" v="Dworzec Główny"/>
    <tag k="operator" v="Zarząd Dróg i Transportu Miejskiego"/>
    <tag k="ref" v="22513"/>
    <tag k="source" v="zditm"/>
    <tag k="website" v="http://zditm.szczecin.pl/rozklady/index.html"/>
  </node>
  <node id="1026479161" version="3" timestamp="2012-02-15T21:32:07Z" uid="603523" user="diverpl" changeset="10696753" lat="53.418903" lon="14.55181">
    <tag k="highway" v="bus_stop"/>
    <tag k="name" v="Dworzec Główny"/>
    <tag k="operator" v="Zarząd Dróg i Transportu Miejskiego"/>
    <tag k="ref" v="22513"/>
    <tag k="source" v="zditm"/>
    <tag k="website" v="http://zditm.szczecin.pl/rozklady/index.html"/>
  </node>
  <node id="1026479161" version="4" timestamp="2012-02-18T18:53:20Z" uid="603523" user="diverpl" changeset="10723216" lat="53.418727" lon="14.5514709">
    <tag k="highway" v="bus_stop"/>
    <tag k="name" v="Dworzec Główny"/>
    <tag k="operator" v="Zarząd Dróg i Transportu Miejskiego"/>
    <tag k="ref" v="22513"/>
    <tag k="source" v="zditm"/>
    <tag k="website" v="http://zditm.szczecin.pl/rozklady/index.html"/>
  </node>
  <node id="1026479163" version="1" timestamp="2010-12-07T13:59:26Z" uid="30632" user="antblant" changeset="6575123" lat="53.4291952" lon="14.5533589">
    <tag k="name" v="Plac Żołnierza Polskiego"/>
    <tag k="operator" v="Zarząd Dróg i Transportu Miejskiego"/>
    <tag k="public_transport" v="platform"/>
    <tag k="rail" v="yes"/>
    <tag k="ref" v="11312"/>
    <tag k="source" v="zditm"/>
    <tag k="website" v="http://zditm.szczecin.pl/rozklady/index.html"/>
  </node>
  <node id="1026479163" version="2" timestamp="2012-02-26T17:02:38Z" uid="603523" user="diverpl" changeset="10800474" lat="53.4291952" lon="14.5533589"/>
  <node id="1026479173" version="1" timestamp="2010-12-07T13:59:26Z" uid="30632" user="antblant" changeset="6575123" lat="53.430267" lon="14.554245">
    <tag k="highway" v="bus_stop"/>
    <tag k="name" v="Plac Rodła"/>
    <tag k="operator" v="Zarząd Dróg i Transportu Miejskiego"/>
    <tag k="ref" v="11532"/>
    <tag k="source" v="zditm"/>
    <tag k="website" v="http://zditm.szczecin.pl/rozklady/index.html"/>
  </node>
  <node id="1026479180" version="1" timestamp="2010-12-07T13:59:26Z" uid="30632" user="antblant" changeset="6575123" lat="53.407429" lon="14.536146">
    <tag k="name" v="Św. Józefa"/>
    <tag k="operator" v="Zarząd Dróg i Transportu Miejskiego"/>
    <tag k="public_transport" v="platform"/>
    <tag k="ref" v="22112"/>
    <tag k="source" v="zditm"/>
    <tag k="website" v="http://zditm.szczecin.pl/rozklady/index.html"/>
  </node>
  <node id="1026479180" version="2" timestamp="2012-02-26T21:42:20Z" uid="603523" user="diverpl" changeset="10803690" lat="53.407429" lon="14.536146"/>
  <node id="1026479188" version="1" timestamp="2010-12-07T13:59:27Z" uid="30632" user="antblant" changeset="6575123" lat="53.4292354" lon="14.54317">
    <tag k="highway" v="bus_stop"/>
    <tag k="name" v="Plac Zgody"/>
    <tag k="operator" v="Zarząd Dróg i Transportu Miejskiego"/>
    <tag k="ref" v="12411"/>
    <tag k="source" v="zditm"/>
    <tag k="website" v="http://zditm.szczecin.pl/rozklady/index.html"/>
  </node>
  <node id="1026479202" version="1" timestamp="2010-12-07T13:59:27Z" uid="30632" user="antblant" changeset="6575123" lat="53.425224" lon="14.541875">
    <tag k="highway" v="bus_stop"/>
    <tag k="name" v="Łokietka"/>
    <tag k="operator" v="Zarząd Dróg i Transportu Miejskiego"/>
    <tag k="ref" v="10611"/>
    <tag k="source" v="zditm"/>
    <tag k="website" v="http://zditm.szczecin.pl/rozklady/index.html"/>
  </node>
  <node id="1026479202" version="2" timestamp="2012-02-15T18:30:00Z" uid="603523" user="diverpl" changeset="10694968" lat="53.425245" lon="14.5417912">
    <tag k="highway" v="bus_stop"/>
    <tag k="name" v="Łokietka"/>
    <tag k="operator" v="Zarząd Dróg i Transportu Miejskiego"/>
    <tag k="ref" v="10611"/>
    <tag k="source" v="zditm"/>
    <tag k="website" v="http://zditm.szczecin.pl/rozklady/index.html"/>
  </node>
  <node id="1026479202" version="3" timestamp="2012-02-15T21:32:17Z" uid="603523" user="diverpl" changeset="10696753" lat="53.425224" lon="14.541875">
    <tag k="highway" v="bus_stop"/>
    <tag k="name" v="Łokietka"/>
    <tag k="operator" v="Zarząd Dróg i Transportu Miejskiego"/>
    <tag k="ref" v="10611"/>
    <tag k="source" v="zditm"/>
    <tag k="website" v="http://zditm.szczecin.pl/rozklady/index.html"/>
  </node>
  <node id="1026479202" version="4" timestamp="2012-02-18T18:53:25Z" uid="603523" user="diverpl" changeset="10723216" lat="53.4252423" lon="14.541783">
    <tag k="highway" v="bus_stop"/>
    <tag k="name" v="Łokietka"/>
    <tag k="operator" v="Zarząd Dróg i Transportu Miejskiego"/>
    <tag k="ref" v="10611"/>
    <tag k="source" v="zditm"/>
    <tag k="website" v="http://zditm.szczecin.pl/rozklady/index.html"/>
  </node>
  <node id="1026479212" version="1" timestamp="2010-12-07T13:59:27Z" uid="30632" user="antblant" changeset="6575123" lat="53.426665" lon="14.5370787">
    <tag k="highway" v="bus_stop"/>
    <tag k="name" v="Plac Kościuszki"/>
    <tag k="operator" v="Zarząd Dróg i Transportu Miejskiego"/>
    <tag k="ref" v="10431"/>
    <tag k="source" v="zditm"/>
    <tag k="website" v="http://zditm.szczecin.pl/rozklady/index.html"/>
  </node>
  <node id="1026479212" version="2" timestamp="2012-02-15T18:29:53Z" uid="603523" user="diverpl" changeset="10694968" lat="53.4266611" lon="14.5371978">
    <tag k="highway" v="bus_stop"/>
    <tag k="name" v="Plac Kościuszki"/>
    <tag k="operator" v="Zarząd Dróg i Transportu Miejskiego"/>
    <tag k="ref" v="10431"/>
    <tag k="source" v="zditm"/>
    <tag k="website" v="http://zditm.szczecin.pl/rozklady/index.html"/>
  </node>
  <node id="1026479212" version="3" timestamp="2012-02-15T21:32:11Z" uid="603523" user="diverpl" changeset="10696753" lat="53.426665" lon="14.5370787">
    <tag k="highway" v="bus_stop"/>
    <tag k="name" v="Plac Kościuszki"/>
    <tag k="operator" v="Zarząd Dróg i Transportu Miejskiego"/>
    <tag k="ref" v="10431"/>
    <tag k="source" v="zditm"/>
    <tag k="website" v="http://zditm.szczecin.pl/rozklady/index.html"/>
  </node>
  <node id="1026479212" version="4" timestamp="2012-02-18T18:53:22Z" uid="603523" user="diverpl" changeset="10723216" lat="53.4266467" lon="14.5371205">
    <tag k="highway" v="bus_stop"/>
    <tag k="name" v="Plac Kościuszki"/>
    <tag k="operator" v="Zarząd Dróg i Transportu Miejskiego"/>
    <tag k="ref" v="10431"/>
    <tag k="source" v="zditm"/>
    <tag k="website" v="http://zditm.szczecin.pl/rozklady/index.html"/>
  </node>
  <node id="1026479223" version="1" timestamp="2010-12-07T13:59:28Z" uid="30632" user="antblant" changeset="6575123" lat="53.436127" lon="14.553827">
    <tag k="highway" v="bus_stop"/>
    <tag k="name" v="Rayskiego nż"/>
    <tag k="operator" v="Zarząd Dróg i Transportu Miejskiego"/>
    <tag k="ref" v="12914"/>
    <tag k="source" v="zditm"/>
    <tag k="website" v="http://zditm.szczecin.pl/rozklady/index.html"/>
  </node>
  <node id="1026479232" version="1" timestamp="2010-12-07T13:59:28Z" uid="30632" user="antblant" changeset="6575123" lat="53.424605" lon="14.552034">
    <tag k="highway" v="bus_stop"/>
    <tag k="name" v="Brama Portowa"/>
    <tag k="operator" v="Zarząd Dróg i Transportu Miejskiego"/>
    <tag k="ref" v="10823"/>
    <tag k="source" v="zditm"/>
    <tag k="website" v="http://zditm.szczecin.pl/rozklady/index.html"/>
  </node>
  <node id="1026479240" version="1" timestamp="2010-12-07T13:59:28Z" uid="30632" user="antblant" changeset="6575123" lat="53.4286781" lon="14.5529634"/>
  <node id="1026479240" version="2" timestamp="2011-09-18T20:41:07Z" uid="473784" user="antblant" changeset="9337340" lat="53.4286781" lon="14.5529634"/>
  <node id="1026479244" version="1" timestamp="2010-12-07T13:59:29Z" uid="30632" user="antblant" changeset="6575123" lat="53.430958" lon="14.554622">
    <tag k="highway" v="bus_stop"/>
    <tag k="name" v="Plac Rodła"/>
    <tag k="operator" v="Zarząd Dróg i Transportu Miejskiego"/>
    <tag k="ref" v="11531"/>
    <tag k="source" v="zditm"/>
    <tag k="website" v="http://zditm.szczecin.pl/rozklady/index.html"/>
  </node>
  <node id="1026479244" version="2" timestamp="2012-02-12T00:14:32Z" uid="603523" user="diverpl" changeset="10658797" lat="53.4310357" lon="14.5546915">
    <tag k="highway" v="bus_stop"/>
    <tag k="name" v="Plac Rodła"/>
    <tag k="operator" v="Zarząd Dróg i Transportu Miejskiego"/>
    <tag k="ref" v="11531"/>
    <tag k="source" v="zditm"/>
    <tag k="website" v="http://zditm.szczecin.pl/rozklady/index.html"/>
  </node>
  <node id="1026479252" version="1" timestamp="2010-12-07T13:59:29Z" uid="30632" user="antblant" changeset="6575123" lat="53.414654" lon="14.537283">
    <tag k="highway" v="bus_stop"/>
    <tag k="name" v="Kusocińskiego"/>
    <tag k="operator" v="Zarząd Dróg i Transportu Miejskiego"/>
    <tag k="ref" v="23211"/>
    <tag k="source" v="zditm"/>
    <tag k="website" v="http://zditm.szczecin.pl/rozklady/index.html"/>
  </node>
  <node id="1026479260" version="1" timestamp="2010-12-07T13:59:29Z" uid="30632" user="antblant" changeset="6575123" lat="53.432121" lon="14.548216">
    <tag k="highway" v="bus_stop"/>
    <tag k="name" v="Plac Grunwaldzki"/>
    <tag k="operator" v="Zarząd Dróg i Transportu Miejskiego"/>
    <tag k="ref" v="11631"/>
    <tag k="source" v="zditm"/>
    <tag k="website" v="http://zditm.szczecin.pl/rozklady/index.html"/>
  </node>
  <node id="1026479260" version="2" timestamp="2012-02-19T16:17:09Z" uid="603523" user="diverpl" changeset="10730939" lat="53.4321257" lon="14.5482041">
    <tag k="highway" v="bus_stop"/>
    <tag k="name" v="Plac Grunwaldzki"/>
    <tag k="operator" v="Zarząd Dróg i Transportu Miejskiego"/>
    <tag k="ref" v="11631"/>
    <tag k="source" v="zditm"/>
    <tag k="website" v="http://zditm.szczecin.pl/rozklady/index.html"/>
  </node>
  <node id="1026479269" version="1" timestamp="2010-12-07T13:59:30Z" uid="30632" user="antblant" changeset="6575123" lat="53.4256691" lon="14.5509047">
    <tag k="highway" v="bus_stop"/>
    <tag k="name" v="Brama Portowa"/>
    <tag k="operator" v="Zarząd Dróg i Transportu Miejskiego"/>
    <tag k="ref" v="10811"/>
    <tag k="source" v="zditm"/>
    <tag k="website" v="http://zditm.szczecin.pl/rozklady/index.html"/>
  </node>
  <node id="1026479269" version="2" timestamp="2012-02-26T17:01:17Z" uid="603523" user="diverpl" changeset="10800474" lat="53.4256726" lon="14.5508553">
    <tag k="highway" v="bus_stop"/>
    <tag k="name" v="Brama Portowa"/>
    <tag k="operator" v="Zarząd Dróg i Transportu Miejskiego"/>
    <tag k="ref" v="10811"/>
    <tag k="source" v="zditm"/>
    <tag k="website" v="http://zditm.szczecin.pl/rozklady/index.html"/>
  </node>
  <node id="1026479276" version="1" timestamp="2010-12-07T13:59:30Z" uid="30632" user="antblant" changeset="6575123" lat="53.4327471" lon="14.5477422">
    <tag k="name" v="Plac Grunwaldzki"/>
    <tag k="operator" v="Zarząd Dróg i Transportu Miejskiego"/>
    <tag k="public_transport" v="platform"/>
    <tag k="rail" v="yes"/>
    <tag k="ref" v="11612"/>
    <tag k="source" v="zditm"/>
    <tag k="website" v="http://zditm.szczecin.pl/rozklady/index.html"/>
  </node>
  <node id="1026479276" version="2" timestamp="2012-02-26T17:02:35Z" uid="603523" user="diverpl" changeset="10800474" lat="53.4327471" lon="14.5477422"/>
  <node id="1026479285" version="1" timestamp="2010-12-07T13:59:30Z" uid="30632" user="antblant" changeset="6575123" lat="53.4360229" lon="14.5380228">
    <tag k="highway" v="bus_stop"/>
    <tag k="name" v="Felczaka"/>
    <tag k="operator" v="Zarząd Dróg i Transportu Miejskiego"/>
    <tag k="ref" v="12311"/>
    <tag k="source" v="zditm"/>
    <tag k="website" v="http://zditm.szczecin.pl/rozklady/index.html"/>
  </node>
  <node id="1026479285" version="2" timestamp="2012-02-26T17:02:31Z" uid="603523" user="diverpl" changeset="10800474" lat="53.4360229" lon="14.5380228"/>
  <node id="1026479292" version="1" timestamp="2010-12-07T13:59:31Z" uid="30632" user="antblant" changeset="6575123" lat="53.425205" lon="14.552497">
    <tag k="highway" v="bus_stop"/>
    <tag k="name" v="Tkacka"/>
    <tag k="operator" v="Zarząd Dróg i Transportu Miejskiego"/>
    <tag k="ref" v="11111"/>
    <tag k="source" v="zditm"/>
    <tag k="website" v="http://zditm.szczecin.pl/rozklady/index.html"/>
  </node>
  <node id="1026479292" version="2" timestamp="2012-02-12T22:30:31Z" uid="603523" user="diverpl" changeset="10668950" lat="53.4251736" lon="14.5524845">
    <tag k="highway" v="bus_stop"/>
    <tag k="name" v="Tkacka"/>
    <tag k="operator" v="Zarząd Dróg i Transportu Miejskiego"/>
    <tag k="ref" v="11111"/>
    <tag k="source" v="zditm"/>
    <tag k="website" v="http://zditm.szczecin.pl/rozklady/index.html"/>
  </node>
  <node id="1026479310" version="1" timestamp="2010-12-07T13:59:31Z" uid="30632" user="antblant" changeset="6575123" lat="53.415161" lon="14.543415">
    <tag k="name" v="Potulicka"/>
    <tag k="operator" v="Zarząd Dróg i Transportu Miejskiego"/>
    <tag k="public_transport" v="platform"/>
    <tag k="ref" v="23121"/>
    <tag k="source" v="zditm"/>
    <tag k="tram" v="yes"/>
    <tag k="website" v="http://zditm.szczecin.pl/rozklady/index.html"/>
  </node>
  <node id="1026479310" version="2" timestamp="2012-02-26T17:02:39Z" uid="603523" user="diverpl" changeset="10800474" lat="53.415161" lon="14.543415"/>
  <node id="1026479317" version="1" timestamp="2010-12-07T13:59:31Z" uid="30632" user="antblant" changeset="6575123" lat="53.409443" lon="14.53945">
    <tag k="name" v="Tama Pomorzańska"/>
    <tag k="operator" v="Zarząd Dróg i Transportu Miejskiego"/>
    <tag k="public_transport" v="platform"/>
    <tag k="rail" v="yes"/>
    <tag k="ref" v="22212"/>
    <tag k="source" v="zditm"/>
    <tag k="website" v="http://zditm.szczecin.pl/rozklady/index.html"/>
  </node>
  <node id="1026479317" version="2" timestamp="2012-02-26T21:42:19Z" uid="603523" user="diverpl" changeset="10803690" lat="53.409443" lon="14.53945"/>
  <node id="1026479328" version="1" timestamp="2010-12-07T13:59:32Z" uid="30632" user="antblant" changeset="6575123" lat="53.432411" lon="14.540799">
    <tag k="highway" v="bus_stop"/>
    <tag k="name" v="Plac Szarych Szeregów"/>
    <tag k="old_name" v="Plac Sprzymierzonych"/>
    <tag k="operator" v="Zarząd Dróg i Transportu Miejskiego"/>
    <tag k="ref" v="11721"/>
    <tag k="source" v="zditm"/>
    <tag k="website" v="http://zditm.szczecin.pl/rozklady/index.html"/>
  </node>
  <node id="1026479345" version="1" timestamp="2010-12-07T13:59:32Z" uid="30632" user="antblant" changeset="6575123" lat="53.425224" lon="14.5473671">
    <tag k="highway" v="bus_stop"/>
    <tag k="name" v="Plac Zwycięstwa"/>
    <tag k="operator" v="Zarząd Dróg i Transportu Miejskiego"/>
    <tag k="ref" v="10721"/>
    <tag k="source" v="zditm"/>
    <tag k="website" v="http://zditm.szczecin.pl/rozklady/index.html"/>
  </node>
  <node id="1026479345" version="2" timestamp="2012-02-18T19:54:57Z" uid="603523" user="diverpl" changeset="10723216" lat="53.4252962" lon="14.5474214">
    <tag k="highway" v="bus_stop"/>
    <tag k="name" v="Plac Zwycięstwa"/>
    <tag k="operator" v="Zarząd Dróg i Transportu Miejskiego"/>
    <tag k="ref" v="10721"/>
    <tag k="source" v="zditm"/>
    <tag k="website" v="http://zditm.szczecin.pl/rozklady/index.html"/>
  </node>
  <node id="1026479351" version="1" timestamp="2010-12-07T13:59:32Z" uid="30632" user="antblant" changeset="6575123" lat="53.432777" lon="14.548509">
    <tag k="name" v="Plac Grunwaldzki"/>
    <tag k="operator" v="Zarząd Dróg i Transportu Miejskiego"/>
    <tag k="public_transport" v="platform"/>
    <tag k="rail" v="yes"/>
    <tag k="ref" v="11611"/>
    <tag k="source" v="zditm"/>
    <tag k="website" v="http://zditm.szczecin.pl/rozklady/index.html"/>
  </node>
  <node id="1026479351" version="2" timestamp="2012-02-26T17:02:35Z" uid="603523" user="diverpl" changeset="10800474" lat="53.432777" lon="14.548509"/>
  <node id="1026479367" version="1" timestamp="2010-12-07T13:59:33Z" uid="30632" user="antblant" changeset="6575123" lat="53.417847" lon="14.549686">
    <tag k="highway" v="bus_stop"/>
    <tag k="name" v="Dworzec Główny"/>
    <tag k="operator" v="Zarząd Dróg i Transportu Miejskiego"/>
    <tag k="ref" v="22522"/>
    <tag k="source" v="zditm"/>
    <tag k="website" v="http://zditm.szczecin.pl/rozklady/index.html"/>
  </node>
  <node id="1026479367" version="2" timestamp="2012-02-15T18:29:46Z" uid="603523" user="diverpl" changeset="10694968" lat="53.4178406" lon="14.5496392">
    <tag k="highway" v="bus_stop"/>
    <tag k="name" v="Dworzec Główny"/>
    <tag k="operator" v="Zarząd Dróg i Transportu Miejskiego"/>
    <tag k="ref" v="22522"/>
    <tag k="source" v="zditm"/>
    <tag k="website" v="http://zditm.szczecin.pl/rozklady/index.html"/>
  </node>
  <node id="1026479367" version="3" timestamp="2012-02-15T21:32:06Z" uid="603523" user="diverpl" changeset="10696753" lat="53.417847" lon="14.549686">
    <tag k="highway" v="bus_stop"/>
    <tag k="name" v="Dworzec Główny"/>
    <tag k="operator" v="Zarząd Dróg i Transportu Miejskiego"/>
    <tag k="ref" v="22522"/>
    <tag k="source" v="zditm"/>
    <tag k="website" v="http://zditm.szczecin.pl/rozklady/index.html"/>
  </node>
  <node id="1026479367" version="4" timestamp="2012-02-18T18:53:20Z" uid="603523" user="diverpl" changeset="10723216" lat="53.4178587" lon="14.5495772">
    <tag k="highway" v="bus_stop"/>
    <tag k="name" v="Dworzec Główny"/>
    <tag k="operator" v="Zarząd Dróg i Transportu Miejskiego"/>
    <tag k="ref" v="22522"/>
    <tag k="source" v="zditm"/>
    <tag k="website" v="http://zditm.szczecin.pl/rozklady/index.html"/>
  </node>
  <node id="1026479367" version="5" timestamp="2012-02-19T20:12:08Z" uid="603523" user="diverpl" changeset="10734366" lat="53.4178677" lon="14.5495951">
    <tag k="highway" v="bus_stop"/>
    <tag k="name" v="Dworzec Główny"/>
    <tag k="operator" v="Zarząd Dróg i Transportu Miejskiego"/>
    <tag k="ref" v="22522"/>
    <tag k="source" v="zditm"/>
    <tag k="website" v="http://zditm.szczecin.pl/rozklady/index.html"/>
  </node>
  <node id="1026479372" version="1" timestamp="2010-12-07T13:59:33Z" uid="30632" user="antblant" changeset="6575123" lat="53.428406" lon="14.552478">
    <tag k="name" v="Plac Żołnierza Polskiego"/>
    <tag k="operator" v="Zarząd Dróg i Transportu Miejskiego"/>
    <tag k="public_transport" v="platform"/>
    <tag k="rail" v="yes"/>
    <tag k="ref" v="11332"/>
    <tag k="source" v="zditm"/>
    <tag k="website" v="http://zditm.szczecin.pl/rozklady/index.html"/>
  </node>
  <node id="1026479372" version="2" timestamp="2012-02-26T17:02:38Z" uid="603523" user="diverpl" changeset="10800474" lat="53.428406" lon="14.552478"/>
  <node id="1026479375" version="1" timestamp="2010-12-07T13:59:34Z" uid="30632" user="antblant" changeset="6575123" lat="53.432491" lon="14.539139">
    <tag k="highway" v="bus_stop"/>
    <tag k="name" v="Piastów"/>
    <tag k="operator" v="Zarząd Dróg i Transportu Miejskiego"/>
    <tag k="ref" v="11811"/>
    <tag k="source" v="zditm"/>
    <tag k="website" v="http://zditm.szczecin.pl/rozklady/index.html"/>
  </node>
  <node id="1026479382" version="1" timestamp="2010-12-07T13:59:34Z" uid="30632" user="antblant" changeset="6575123" lat="53.4183373" lon="14.5442994">
    <tag k="bus" v="yes"/>
    <tag k="name" v="Sowińskiego"/>
    <tag k="operator" v="Zarząd Dróg i Transportu Miejskiego"/>
    <tag k="public_transport" v="platform"/>
    <tag k="ref" v="23011"/>
    <tag k="source" v="zditm"/>
    <tag k="tram" v="yes"/>
    <tag k="website" v="http://zditm.szczecin.pl/rozklady/index.html"/>
  </node>
  <node id="1026479382" version="2" timestamp="2012-02-26T17:02:39Z" uid="603523" user="diverpl" changeset="10800474" lat="53.4183373" lon="14.5442994"/>
  <node id="1026479394" version="1" timestamp="2010-12-07T13:59:34Z" uid="30632" user="antblant" changeset="6575123" lat="53.420902" lon="14.553795">
    <tag k="name" v="Plac Tobrucki"/>
    <tag k="operator" v="Zarząd Dróg i Transportu Miejskiego"/>
    <tag k="public_transport" v="platform"/>
    <tag k="rail" v="yes"/>
    <tag k="ref" v="22611"/>
    <tag k="source" v="zditm"/>
    <tag k="website" v="http://zditm.szczecin.pl/rozklady/index.html"/>
  </node>
  <node id="1026479394" version="2" timestamp="2012-02-26T21:42:18Z" uid="603523" user="diverpl" changeset="10803690" lat="53.420902" lon="14.553795"/>
  <node id="1026479399" version="1" timestamp="2010-12-07T13:59:34Z" uid="30632" user="antblant" changeset="6575123" lat="53.439751" lon="14.551606">
    <tag k="name" v="Odzieżowa"/>
    <tag k="operator" v="Zarząd Dróg i Transportu Miejskiego"/>
    <tag k="public_transport" v="platform"/>
    <tag k="rail" v="yes"/>
    <tag k="ref" v="12811"/>
    <tag k="source" v="zditm"/>
    <tag k="website" v="http://zditm.szczecin.pl/rozklady/index.html"/>
  </node>
  <node id="1026479399" version="2" timestamp="2012-02-28T21:11:02Z" uid="603523" user="diverpl" changeset="10821910" lat="53.439751" lon="14.551606"/>
  <node id="1026479404" version="1" timestamp="2010-12-07T13:59:35Z" uid="30632" user="antblant" changeset="6575123" lat="53.425945" lon="14.53635">
    <tag k="highway" v="bus_stop"/>
    <tag k="name" v="Plac Kościuszki"/>
    <tag k="operator" v="Zarząd Dróg i Transportu Miejskiego"/>
    <tag k="ref" v="10435"/>
    <tag k="source" v="zditm"/>
    <tag k="website" v="http://zditm.szczecin.pl/rozklady/index.html"/>
  </node>
  <node id="1026479404" version="2" timestamp="2012-02-15T18:30:40Z" uid="603523" user="diverpl" changeset="10694968" lat="53.425945" lon="14.53635"/>
  <node id="1026479404" version="3" timestamp="2012-02-15T21:31:13Z" uid="603523" user="diverpl" changeset="10696753" lat="53.425945" lon="14.53635">
    <tag k="highway" v="bus_stop"/>
    <tag k="name" v="Plac Kościuszki"/>
    <tag k="operator" v="Zarząd Dróg i Transportu Miejskiego"/>
    <tag k="ref" v="10435"/>
    <tag k="source" v="zditm"/>
    <tag k="website" v="http://zditm.szczecin.pl/rozklady/index.html"/>
  </node>
  <node id="1026479404" version="4" timestamp="2012-02-18T18:53:22Z" uid="603523" user="diverpl" changeset="10723216" lat="53.4258586" lon="14.5362664">
    <tag k="highway" v="bus_stop"/>
    <tag k="name" v="Plac Kościuszki"/>
    <tag k="operator" v="Zarząd Dróg i Transportu Miejskiego"/>
    <tag k="ref" v="10435"/>
    <tag k="source" v="zditm"/>
    <tag k="website" v="http://zditm.szczecin.pl/rozklady/index.html"/>
  </node>
  <node id="1026479416" version="1" timestamp="2010-12-07T13:59:35Z" uid="30632" user="antblant" changeset="6575123" lat="53.425148" lon="14.549702">
    <tag k="name" v="Brama Portowa"/>
    <tag k="public_transport" v="stop_position"/>
    <tag k="rail" v="yes"/>
    <tag k="ref" v="10842"/>
  </node>
  <node id="1026479416" version="2" timestamp="2012-02-26T17:02:29Z" uid="603523" user="diverpl" changeset="10800474" lat="53.425148" lon="14.549702"/>
  <node id="1026479419" version="1" timestamp="2010-12-07T13:59:36Z" uid="30632" user="antblant" changeset="6575123" lat="53.41901" lon="14.551987">
    <tag k="highway" v="bus_stop"/>
    <tag k="name" v="Dworzec Główny"/>
    <tag k="operator" v="Zarząd Dróg i Transportu Miejskiego"/>
    <tag k="ref" v="22512"/>
    <tag k="source" v="zditm"/>
    <tag k="website" v="http://zditm.szczecin.pl/rozklady/index.html"/>
  </node>
  <node id="1026479419" version="2" timestamp="2012-02-15T18:29:47Z" uid="603523" user="diverpl" changeset="10694968" lat="53.418737" lon="14.5515493">
    <tag k="highway" v="bus_stop"/>
    <tag k="name" v="Dworzec Główny"/>
    <tag k="operator" v="Zarząd Dróg i Transportu Miejskiego"/>
    <tag k="ref" v="22512"/>
    <tag k="source" v="zditm"/>
    <tag k="website" v="http://zditm.szczecin.pl/rozklady/index.html"/>
  </node>
  <node id="1026479419" version="3" timestamp="2012-02-15T21:32:07Z" uid="603523" user="diverpl" changeset="10696753" lat="53.41901" lon="14.551987">
    <tag k="highway" v="bus_stop"/>
    <tag k="name" v="Dworzec Główny"/>
    <tag k="operator" v="Zarząd Dróg i Transportu Miejskiego"/>
    <tag k="ref" v="22512"/>
    <tag k="source" v="zditm"/>
    <tag k="website" v="http://zditm.szczecin.pl/rozklady/index.html"/>
  </node>
  <node id="1026479419" version="4" timestamp="2012-02-18T18:53:21Z" uid="603523" user="diverpl" changeset="10723216" lat="53.41895" lon="14.5518689">
    <tag k="highway" v="bus_stop"/>
    <tag k="name" v="Dworzec Główny"/>
    <tag k="operator" v="Zarząd Dróg i Transportu Miejskiego"/>
    <tag k="ref" v="22512"/>
    <tag k="source" v="zditm"/>
    <tag k="website" v="http://zditm.szczecin.pl/rozklady/index.html"/>
  </node>
  <node id="1026479430" version="1" timestamp="2010-12-07T13:59:36Z" uid="30632" user="antblant" changeset="6575123" lat="53.428371" lon="14.552585">
    <tag k="name" v="Plac Żołnierza Polskiego"/>
    <tag k="operator" v="Zarząd Dróg i Transportu Miejskiego"/>
    <tag k="public_transport" v="platform"/>
    <tag k="rail" v="yes"/>
    <tag k="ref" v="11331"/>
    <tag k="source" v="zditm"/>
    <tag k="website" v="http://zditm.szczecin.pl/rozklady/index.html"/>
  </node>
  <node id="1026479430" version="2" timestamp="2012-02-26T17:02:38Z" uid="603523" user="diverpl" changeset="10800474" lat="53.428371" lon="14.552585"/>
  <node id="1026479433" version="1" timestamp="2010-12-07T13:59:36Z" uid="30632" user="antblant" changeset="6575123" lat="53.431339" lon="14.554288">
    <tag k="highway" v="bus_stop"/>
    <tag k="name" v="Plac Rodła LOT"/>
    <tag k="operator" v="Zarząd Dróg i Transportu Miejskiego"/>
    <tag k="ref" v="11535"/>
    <tag k="source" v="zditm"/>
    <tag k="website" v="http://zditm.szczecin.pl/rozklady/index.html"/>
  </node>
  <node id="1026479433" version="2" timestamp="2012-02-12T00:14:31Z" uid="603523" user="diverpl" changeset="10658797" lat="53.431173" lon="14.5541658">
    <tag k="highway" v="bus_stop"/>
    <tag k="name" v="Plac Rodła LOT"/>
    <tag k="operator" v="Zarząd Dróg i Transportu Miejskiego"/>
    <tag k="ref" v="11535"/>
    <tag k="source" v="zditm"/>
    <tag k="website" v="http://zditm.szczecin.pl/rozklady/index.html"/>
  </node>
  <node id="1026479438" version="1" timestamp="2010-12-07T13:59:36Z" uid="30632" user="antblant" changeset="6575123" lat="53.42691" lon="14.537841">
    <tag k="highway" v="bus_stop"/>
    <tag k="name" v="Plac Kościuszki"/>
    <tag k="operator" v="Zarząd Dróg i Transportu Miejskiego"/>
    <tag k="ref" v="10422"/>
    <tag k="source" v="zditm"/>
    <tag k="website" v="http://zditm.szczecin.pl/rozklady/index.html"/>
  </node>
  <node id="1026479438" version="2" timestamp="2012-02-15T18:29:54Z" uid="603523" user="diverpl" changeset="10694968" lat="53.4269008" lon="14.5380462">
    <tag k="highway" v="bus_stop"/>
    <tag k="name" v="Plac Kościuszki"/>
    <tag k="operator" v="Zarząd Dróg i Transportu Miejskiego"/>
    <tag k="ref" v="10422"/>
    <tag k="source" v="zditm"/>
    <tag k="website" v="http://zditm.szczecin.pl/rozklady/index.html"/>
  </node>
  <node id="1026479438" version="3" timestamp="2012-02-15T21:32:12Z" uid="603523" user="diverpl" changeset="10696753" lat="53.42691" lon="14.537841">
    <tag k="highway" v="bus_stop"/>
    <tag k="name" v="Plac Kościuszki"/>
    <tag k="operator" v="Zarząd Dróg i Transportu Miejskiego"/>
    <tag k="ref" v="10422"/>
    <tag k="source" v="zditm"/>
    <tag k="website" v="http://zditm.szczecin.pl/rozklady/index.html"/>
  </node>
  <node id="1026479438" version="4" timestamp="2012-02-18T18:53:22Z" uid="603523" user="diverpl" changeset="10723216" lat="53.4269017" lon="14.5380026">
    <tag k="highway" v="bus_stop"/>
    <tag k="name" v="Plac Kościuszki"/>
    <tag k="operator" v="Zarząd Dróg i Transportu Miejskiego"/>
    <tag k="ref" v="10422"/>
    <tag k="source" v="zditm"/>
    <tag k="website" v="http://zditm.szczecin.pl/rozklady/index.html"/>
  </node>
  <node id="1026479448" version="1" timestamp="2010-12-07T13:59:37Z" uid="30632" user="antblant" changeset="6575123" lat="53.424831" lon="14.551617">
    <tag k="name" v="Brama Portowa"/>
    <tag k="public_transport" v="stop_position"/>
    <tag k="rail" v="yes"/>
    <tag k="ref" v="10822"/>
  </node>
  <node id="1026479448" version="2" timestamp="2012-02-26T17:02:29Z" uid="603523" user="diverpl" changeset="10800474" lat="53.424831" lon="14.551617"/>
  <node id="1026479452" version="1" timestamp="2010-12-07T13:59:37Z" uid="30632" user="antblant" changeset="6575123" lat="53.4206136" lon="14.5494014">
    <tag k="highway" v="bus_stop"/>
    <tag k="name" v="Plac Zawiszy"/>
    <tag k="operator" v="Zarząd Dróg i Transportu Miejskiego"/>
    <tag k="ref" v="22814"/>
    <tag k="source" v="zditm"/>
    <tag k="website" v="http://zditm.szczecin.pl/rozklady/index.html"/>
  </node>
  <node id="1026479469" version="1" timestamp="2010-12-07T13:59:38Z" uid="30632" user="antblant" changeset="6575123" lat="53.4323754" lon="14.5545871">
    <tag k="name" v="Plac Rodła"/>
    <tag k="operator" v="Zarząd Dróg i Transportu Miejskiego"/>
    <tag k="public_transport" v="platform"/>
    <tag k="rail" v="yes"/>
    <tag k="ref" v="11511"/>
    <tag k="source" v="zditm"/>
    <tag k="website" v="http://zditm.szczecin.pl/rozklady/index.html"/>
  </node>
  <node id="1026479469" version="2" timestamp="2012-02-28T20:33:54Z" uid="603523" user="diverpl" changeset="10821910" lat="53.4323754" lon="14.5545871"/>
  <node id="1026479475" version="1" timestamp="2010-12-07T13:59:38Z" uid="30632" user="antblant" changeset="6575123" lat="53.415051" lon="14.543163">
    <tag k="highway" v="bus_stop"/>
    <tag k="name" v="Potulicka"/>
    <tag k="operator" v="Zarząd Dróg i Transportu Miejskiego"/>
    <tag k="ref" v="23112"/>
    <tag k="source" v="zditm"/>
    <tag k="website" v="http://zditm.szczecin.pl/rozklady/index.html"/>
  </node>
  <node id="1026479475" version="2" timestamp="2012-02-26T17:02:39Z" uid="603523" user="diverpl" changeset="10800474" lat="53.415051" lon="14.543163"/>
  <node id="1026479479" version="1" timestamp="2010-12-07T13:59:38Z" uid="30632" user="antblant" changeset="6575123" lat="53.435669" lon="14.5533597">
    <tag k="highway" v="bus_stop"/>
    <tag k="name" v="Rayskiego nż"/>
    <tag k="operator" v="Zarząd Dróg i Transportu Miejskiego"/>
    <tag k="ref" v="12911"/>
    <tag k="source" v="zditm"/>
    <tag k="website" v="http://zditm.szczecin.pl/rozklady/index.html"/>
  </node>
  <node id="1026479479" version="2" timestamp="2012-02-28T21:10:58Z" uid="603523" user="diverpl" changeset="10821910" lat="53.4356638" lon="14.5533317">
    <tag k="highway" v="bus_stop"/>
    <tag k="name" v="Rayskiego nż"/>
    <tag k="operator" v="Zarząd Dróg i Transportu Miejskiego"/>
    <tag k="ref" v="12911"/>
    <tag k="source" v="zditm"/>
    <tag k="website" v="http://zditm.szczecin.pl/rozklady/index.html"/>
  </node>
  <node id="1026479501" version="1" timestamp="2010-12-07T13:59:39Z" uid="30632" user="antblant" changeset="6575123" lat="53.4333922" lon="14.5479552">
    <tag k="highway" v="bus_stop"/>
    <tag k="name" v="Plac Grunwaldzki"/>
    <tag k="operator" v="Zarząd Dróg i Transportu Miejskiego"/>
    <tag k="ref" v="11623"/>
    <tag k="source" v="zditm"/>
    <tag k="website" v="http://zditm.szczecin.pl/rozklady/index.html"/>
  </node>
  <node id="1026479501" version="2" timestamp="2012-02-19T16:17:09Z" uid="603523" user="diverpl" changeset="10730939" lat="53.4334276" lon="14.5479077">
    <tag k="highway" v="bus_stop"/>
    <tag k="name" v="Plac Grunwaldzki"/>
    <tag k="operator" v="Zarząd Dróg i Transportu Miejskiego"/>
    <tag k="ref" v="11623"/>
    <tag k="source" v="zditm"/>
    <tag k="website" v="http://zditm.szczecin.pl/rozklady/index.html"/>
  </node>
  <node id="1026479505" version="1" timestamp="2010-12-07T13:59:39Z" uid="30632" user="antblant" changeset="6575123" lat="53.426899" lon="14.535813">
    <tag k="highway" v="bus_stop"/>
    <tag k="name" v="Plac Kościuszki"/>
    <tag k="operator" v="Zarząd Dróg i Transportu Miejskiego"/>
    <tag k="ref" v="10442"/>
    <tag k="source" v="zditm"/>
    <tag k="website" v="http://zditm.szczecin.pl/rozklady/index.html"/>
  </node>
  <node id="1026479519" version="1" timestamp="2010-12-07T13:59:40Z" uid="30632" user="antblant" changeset="6575123" lat="53.4360914" lon="14.5382017">
    <tag k="highway" v="bus_stop"/>
    <tag k="name" v="Felczaka"/>
    <tag k="operator" v="Zarząd Dróg i Transportu Miejskiego"/>
    <tag k="ref" v="12313"/>
    <tag k="source" v="zditm"/>
    <tag k="website" v="http://zditm.szczecin.pl/rozklady/index.html"/>
  </node>
  <node id="1026479519" version="2" timestamp="2012-02-26T17:02:31Z" uid="603523" user="diverpl" changeset="10800474" lat="53.4360914" lon="14.5382017"/>
  <node id="1026479523" version="1" timestamp="2010-12-07T13:59:40Z" uid="30632" user="antblant" changeset="6575123" lat="53.4140657" lon="14.5457169"/>
  <node id="1026479523" version="2" timestamp="2012-02-26T21:42:06Z" uid="603523" user="diverpl" changeset="10803690" lat="53.4140732" lon="14.5457187"/>
  <node id="1026479525" version="1" timestamp="2010-12-07T13:59:40Z" uid="30632" user="antblant" changeset="6575123" lat="53.420715" lon="14.549285">
    <tag k="name" v="Plac Zawiszy"/>
    <tag k="operator" v="Zarząd Dróg i Transportu Miejskiego"/>
    <tag k="public_transport" v="platform"/>
    <tag k="rail" v="yes"/>
    <tag k="ref" v="22813"/>
    <tag k="source" v="zditm"/>
    <tag k="website" v="http://zditm.szczecin.pl/rozklady/index.html"/>
  </node>
  <node id="1026479525" version="2" timestamp="2012-02-26T17:02:38Z" uid="603523" user="diverpl" changeset="10800474" lat="53.420715" lon="14.549285"/>
  <node id="1026479543" version="1" timestamp="2010-12-07T13:59:41Z" uid="30632" user="antblant" changeset="6575123" lat="53.431857" lon="14.5540352">
    <tag k="name" v="Plac Rodła"/>
    <tag k="operator" v="Zarząd Dróg i Transportu Miejskiego"/>
    <tag k="public_transport" v="platform"/>
    <tag k="rail" v="yes"/>
    <tag k="ref" v="11542"/>
    <tag k="source" v="zditm"/>
    <tag k="website" v="http://zditm.szczecin.pl/rozklady/index.html"/>
  </node>
  <node id="1026479543" version="2" timestamp="2012-02-26T17:02:37Z" uid="603523" user="diverpl" changeset="10800474" lat="53.431857" lon="14.5540352"/>
  <node id="1026479552" version="1" timestamp="2010-12-07T13:59:41Z" uid="30632" user="antblant" changeset="6575123" lat="53.414852" lon="14.542969">
    <tag k="bus" v="yes"/>
    <tag k="name" v="Potulicka"/>
    <tag k="operator" v="Zarząd Dróg i Transportu Miejskiego"/>
    <tag k="public_transport" v="platform"/>
    <tag k="ref" v="23111"/>
    <tag k="source" v="zditm"/>
    <tag k="tram" v="yes"/>
    <tag k="website" v="http://zditm.szczecin.pl/rozklady/index.html"/>
  </node>
  <node id="1026479552" version="2" timestamp="2012-02-26T17:02:39Z" uid="603523" user="diverpl" changeset="10800474" lat="53.414852" lon="14.542969"/>
  <node id="1026479581" version="1" timestamp="2010-12-07T13:59:42Z" uid="30632" user="antblant" changeset="6575123" lat="53.432888" lon="14.541371">
    <tag k="highway" v="bus_stop"/>
    <tag k="name" v="Plac Szarych Szeregów"/>
    <tag k="old_name" v="Plac Sprzymierzonych"/>
    <tag k="operator" v="Zarząd Dróg i Transportu Miejskiego"/>
    <tag k="ref" v="11714"/>
    <tag k="source" v="zditm"/>
    <tag k="website" v="http://zditm.szczecin.pl/rozklady/index.html"/>
  </node>
  <node id="1026479595" version="1" timestamp="2010-12-07T13:59:42Z" uid="30632" user="antblant" changeset="6575123" lat="53.417934" lon="14.549825">
    <tag k="highway" v="bus_stop"/>
    <tag k="name" v="Dworzec Główny"/>
    <tag k="operator" v="Zarząd Dróg i Transportu Miejskiego"/>
    <tag k="ref" v="22521"/>
    <tag k="source" v="zditm"/>
    <tag k="website" v="http://zditm.szczecin.pl/rozklady/index.html"/>
  </node>
  <node id="1026479595" version="2" timestamp="2012-02-15T18:29:46Z" uid="603523" user="diverpl" changeset="10694968" lat="53.4179994" lon="14.5499132">
    <tag k="highway" v="bus_stop"/>
    <tag k="name" v="Dworzec Główny"/>
    <tag k="operator" v="Zarząd Dróg i Transportu Miejskiego"/>
    <tag k="ref" v="22521"/>
    <tag k="source" v="zditm"/>
    <tag k="website" v="http://zditm.szczecin.pl/rozklady/index.html"/>
  </node>
  <node id="1026479595" version="3" timestamp="2012-02-15T21:32:07Z" uid="603523" user="diverpl" changeset="10696753" lat="53.417934" lon="14.549825">
    <tag k="highway" v="bus_stop"/>
    <tag k="name" v="Dworzec Główny"/>
    <tag k="operator" v="Zarząd Dróg i Transportu Miejskiego"/>
    <tag k="ref" v="22521"/>
    <tag k="source" v="zditm"/>
    <tag k="website" v="http://zditm.szczecin.pl/rozklady/index.html"/>
  </node>
  <node id="1026479595" version="4" timestamp="2012-02-18T18:53:20Z" uid="603523" user="diverpl" changeset="10723216" lat="53.4180605" lon="14.5499035">
    <tag k="highway" v="bus_stop"/>
    <tag k="name" v="Dworzec Główny"/>
    <tag k="operator" v="Zarząd Dróg i Transportu Miejskiego"/>
    <tag k="ref" v="22521"/>
    <tag k="source" v="zditm"/>
    <tag k="website" v="http://zditm.szczecin.pl/rozklady/index.html"/>
  </node>
  <node id="1026479621" version="1" timestamp="2010-12-07T13:59:43Z" uid="30632" user="antblant" changeset="6575123" lat="53.4279563" lon="14.5521619"/>
  <node id="1026479621" version="2" timestamp="2011-09-18T20:41:05Z" uid="473784" user="antblant" changeset="9337340" lat="53.4279489" lon="14.5521403"/>
  <node id="1026479621" version="3" timestamp="2011-09-19T06:07:06Z" uid="473784" user="antblant" changeset="9339361" lat="53.4279527" lon="14.5521027"/>
  <node id="1026479621" version="4" timestamp="2012-02-26T17:02:42Z" uid="603523" user="diverpl" changeset="10800474" lat="53.4279527" lon="14.5521027"/>
  <node id="1026479625" version="1" timestamp="2010-12-07T13:59:43Z" uid="30632" user="antblant" changeset="6575123" lat="53.414711" lon="14.546628">
    <tag k="bus" v="yes"/>
    <tag k="name" v="Kolumba"/>
    <tag k="operator" v="Zarząd Dróg i Transportu Miejskiego"/>
    <tag k="public_transport" v="platform"/>
    <tag k="ref" v="22412"/>
    <tag k="source" v="zditm"/>
    <tag k="tram" v="yes"/>
    <tag k="website" v="http://zditm.szczecin.pl/rozklady/index.html"/>
  </node>
  <node id="1026479625" version="2" timestamp="2012-02-26T21:42:18Z" uid="603523" user="diverpl" changeset="10803690" lat="53.414711" lon="14.546628"/>
  <node id="1026479633" version="1" timestamp="2010-12-07T13:59:43Z" uid="30632" user="antblant" changeset="6575123" lat="53.431641" lon="14.538883">
    <tag k="name" v="Piastów"/>
    <tag k="operator" v="Zarząd Dróg i Transportu Miejskiego"/>
    <tag k="public_transport" v="platform"/>
    <tag k="rail" v="yes"/>
    <tag k="ref" v="11822"/>
    <tag k="source" v="zditm"/>
    <tag k="website" v="http://zditm.szczecin.pl/rozklady/index.html"/>
  </node>
  <node id="1026479633" version="2" timestamp="2012-02-26T17:02:34Z" uid="603523" user="diverpl" changeset="10800474" lat="53.431641" lon="14.538883"/>
  <node id="1026479653" version="1" timestamp="2010-12-07T13:59:44Z" uid="30632" user="antblant" changeset="6575123" lat="53.419022" lon="14.548173">
    <tag k="highway" v="bus_stop"/>
    <tag k="name" v="Owocowa"/>
    <tag k="operator" v="Zarząd Dróg i Transportu Miejskiego"/>
    <tag k="ref" v="22912"/>
    <tag k="source" v="zditm"/>
    <tag k="website" v="http://zditm.szczecin.pl/rozklady/index.html"/>
  </node>
  <node id="1026479659" version="1" timestamp="2010-12-07T13:59:45Z" uid="30632" user="antblant" changeset="6575123" lat="53.426968" lon="14.539493">
    <tag k="highway" v="bus_stop"/>
    <tag k="name" v="Krzywoustego"/>
    <tag k="operator" v="Zarząd Dróg i Transportu Miejskiego"/>
    <tag k="ref" v="10511"/>
    <tag k="source" v="zditm"/>
    <tag k="website" v="http://zditm.szczecin.pl/rozklady/index.html"/>
  </node>
  <node id="1026479659" version="2" timestamp="2012-02-15T18:29:51Z" uid="603523" user="diverpl" changeset="10694968" lat="53.4269194" lon="14.5394731">
    <tag k="highway" v="bus_stop"/>
    <tag k="name" v="Krzywoustego"/>
    <tag k="operator" v="Zarząd Dróg i Transportu Miejskiego"/>
    <tag k="ref" v="10511"/>
    <tag k="source" v="zditm"/>
    <tag k="website" v="http://zditm.szczecin.pl/rozklady/index.html"/>
  </node>
  <node id="1026479659" version="3" timestamp="2012-02-15T21:32:10Z" uid="603523" user="diverpl" changeset="10696753" lat="53.426968" lon="14.539493">
    <tag k="highway" v="bus_stop"/>
    <tag k="name" v="Krzywoustego"/>
    <tag k="operator" v="Zarząd Dróg i Transportu Miejskiego"/>
    <tag k="ref" v="10511"/>
    <tag k="source" v="zditm"/>
    <tag k="website" v="http://zditm.szczecin.pl/rozklady/index.html"/>
  </node>
  <node id="1026479659" version="4" timestamp="2012-02-18T18:53:21Z" uid="603523" user="diverpl" changeset="10723216" lat="53.4269531" lon="14.5394094">
    <tag k="highway" v="bus_stop"/>
    <tag k="name" v="Krzywoustego"/>
    <tag k="operator" v="Zarząd Dróg i Transportu Miejskiego"/>
    <tag k="ref" v="10511"/>
    <tag k="source" v="zditm"/>
    <tag k="website" v="http://zditm.szczecin.pl/rozklady/index.html"/>
  </node>
  <node id="1026479664" version="1" timestamp="2010-12-07T13:59:45Z" uid="30632" user="antblant" changeset="6575123" lat="53.426716" lon="14.536865">
    <tag k="name" v="Plac Kościuszki"/>
    <tag k="operator" v="Zarząd Dróg i Transportu Miejskiego"/>
    <tag k="public_transport" v="platform"/>
    <tag k="ref" v="10434"/>
    <tag k="source" v="zditm"/>
    <tag k="tram" v="yes"/>
    <tag k="website" v="http://zditm.szczecin.pl/rozklady/index.html"/>
  </node>
  <node id="1026479664" version="2" timestamp="2012-02-26T17:02:35Z" uid="603523" user="diverpl" changeset="10800474" lat="53.426716" lon="14.536865"/>
  <node id="1026479684" version="1" timestamp="2010-12-07T13:59:46Z" uid="30632" user="antblant" changeset="6575123" lat="53.435482" lon="14.553763">
    <tag k="name" v="Rayskiego"/>
    <tag k="operator" v="Zarząd Dróg i Transportu Miejskiego"/>
    <tag k="public_transport" v="platform"/>
    <tag k="rail" v="yes"/>
    <tag k="ref" v="12913"/>
    <tag k="source" v="zditm"/>
    <tag k="website" v="http://zditm.szczecin.pl/rozklady/index.html"/>
  </node>
  <node id="1026479684" version="2" timestamp="2012-02-28T21:11:02Z" uid="603523" user="diverpl" changeset="10821910" lat="53.435482" lon="14.553763"/>
  <node id="1026479689" version="1" timestamp="2010-12-07T13:59:46Z" uid="30632" user="antblant" changeset="6575123" lat="53.424831" lon="14.5496">
    <tag k="highway" v="bus_stop"/>
    <tag k="name" v="Brama Portowa"/>
    <tag k="operator" v="Zarząd Dróg i Transportu Miejskiego"/>
    <tag k="ref" v="10841"/>
    <tag k="source" v="zditm"/>
    <tag k="website" v="http://zditm.szczecin.pl/rozklady/index.html"/>
  </node>
  <node id="1026479709" version="1" timestamp="2010-12-07T13:59:46Z" uid="30632" user="antblant" changeset="6575123" lat="53.4287073" lon="14.5538352">
    <tag k="name" v="Plac Żołnierza Polskiego"/>
    <tag k="operator" v="Zarząd Dróg i Transportu Miejskiego"/>
    <tag k="public_transport" v="platform"/>
    <tag k="rail" v="yes"/>
    <tag k="ref" v="11321"/>
    <tag k="source" v="zditm"/>
    <tag k="website" v="http://zditm.szczecin.pl/rozklady/index.html"/>
  </node>
  <node id="1026479709" version="2" timestamp="2012-02-26T17:02:38Z" uid="603523" user="diverpl" changeset="10800474" lat="53.4287073" lon="14.5538352"/>
  <node id="1026479712" version="1" timestamp="2010-12-07T13:59:47Z" uid="30632" user="antblant" changeset="6575123" lat="53.4313275" lon="14.5546164">
    <tag k="name" v="Plac Rodła"/>
    <tag k="operator" v="Zarząd Dróg i Transportu Miejskiego"/>
    <tag k="public_transport" v="platform"/>
    <tag k="rail" v="yes"/>
    <tag k="ref" v="11534"/>
    <tag k="shelter" v="yes"/>
    <tag k="source" v="zditm"/>
    <tag k="website" v="http://zditm.szczecin.pl/rozklady/index.html"/>
  </node>
  <node id="1026479712" version="2" timestamp="2012-02-26T17:02:36Z" uid="603523" user="diverpl" changeset="10800474" lat="53.4313275" lon="14.5546164"/>
  <node id="1026479724" version="1" timestamp="2010-12-07T13:59:47Z" uid="30632" user="antblant" changeset="6575123" lat="53.436996" lon="14.543914">
    <tag k="highway" v="bus_stop"/>
    <tag k="name" v="Urząd Miejski"/>
    <tag k="operator" v="Zarząd Dróg i Transportu Miejskiego"/>
    <tag k="ref" v="12511"/>
    <tag k="source" v="zditm"/>
    <tag k="website" v="http://zditm.szczecin.pl/rozklady/index.html"/>
  </node>
  <node id="1026479724" version="2" timestamp="2012-02-19T16:17:11Z" uid="603523" user="diverpl" changeset="10730939" lat="53.4373942" lon="14.5428315">
    <tag k="highway" v="bus_stop"/>
    <tag k="name" v="Urząd Miejski"/>
    <tag k="operator" v="Zarząd Dróg i Transportu Miejskiego"/>
    <tag k="ref" v="12511"/>
    <tag k="source" v="zditm"/>
    <tag k="website" v="http://zditm.szczecin.pl/rozklady/index.html"/>
  </node>
  <node id="1026479731" version="1" timestamp="2010-12-07T13:59:47Z" uid="30632" user="antblant" changeset="6575123" lat="53.4281606" lon="14.5523101"/>
  <node id="1026479731" version="2" timestamp="2011-09-18T20:41:06Z" uid="473784" user="antblant" changeset="9337340" lat="53.4281462" lon="14.5523366"/>
  <node id="1026479731" version="3" timestamp="2011-09-19T06:07:06Z" uid="473784" user="antblant" changeset="9339361" lat="53.428143" lon="14.5523807"/>
  <node id="1026479731" version="4" timestamp="2012-02-26T17:02:42Z" uid="603523" user="diverpl" changeset="10800474" lat="53.428143" lon="14.5523807"/>
  <node id="1026479733" version="1" timestamp="2010-12-07T13:59:47Z" uid="30632" user="antblant" changeset="6575123" lat="53.4276238" lon="14.5369632">
    <tag k="highway" v="bus_stop"/>
    <tag k="name" v="Plac Kościuszki"/>
    <tag k="operator" v="Zarząd Dróg i Transportu Miejskiego"/>
    <tag k="ref" v="10411"/>
    <tag k="source" v="zditm"/>
    <tag k="website" v="http://zditm.szczecin.pl/rozklady/index.html"/>
  </node>
  <node id="1026479733" version="2" timestamp="2012-02-18T18:53:23Z" uid="603523" user="diverpl" changeset="10723216" lat="53.4276371" lon="14.5369298">
    <tag k="highway" v="bus_stop"/>
    <tag k="name" v="Plac Kościuszki"/>
    <tag k="operator" v="Zarząd Dróg i Transportu Miejskiego"/>
    <tag k="ref" v="10411"/>
    <tag k="source" v="zditm"/>
    <tag k="website" v="http://zditm.szczecin.pl/rozklady/index.html"/>
  </node>
  <node id="1026479750" version="1" timestamp="2010-12-07T13:59:48Z" uid="30632" user="antblant" changeset="6575123" lat="53.417971" lon="14.5443938">
    <tag k="bus" v="yes"/>
    <tag k="name" v="Sowińskiego"/>
    <tag k="operator" v="Zarząd Dróg i Transportu Miejskiego"/>
    <tag k="public_transport" v="platform"/>
    <tag k="ref" v="23012"/>
    <tag k="source" v="zditm"/>
    <tag k="tram" v="yes"/>
    <tag k="website" v="http://zditm.szczecin.pl/rozklady/index.html"/>
  </node>
  <node id="1026479750" version="2" timestamp="2012-02-26T17:02:39Z" uid="603523" user="diverpl" changeset="10800474" lat="53.417971" lon="14.5443938"/>
  <node id="1026479757" version="1" timestamp="2010-12-07T13:59:48Z" uid="30632" user="antblant" changeset="6575123" lat="53.425415" lon="14.55122">
    <tag k="name" v="Brama Portowa"/>
    <tag k="public_transport" v="stop_position"/>
    <tag k="rail" v="yes"/>
    <tag k="ref" v="10813"/>
  </node>
  <node id="1026479757" version="2" timestamp="2012-02-26T17:02:30Z" uid="603523" user="diverpl" changeset="10800474" lat="53.425415" lon="14.55122"/>
  <node id="1026479769" version="1" timestamp="2010-12-07T13:59:49Z" uid="30632" user="antblant" changeset="6575123" lat="53.433491" lon="14.547658">
    <tag k="highway" v="bus_stop"/>
    <tag k="name" v="Plac Grunwaldzki"/>
    <tag k="operator" v="Zarząd Dróg i Transportu Miejskiego"/>
    <tag k="ref" v="11622"/>
    <tag k="source" v="zditm"/>
    <tag k="website" v="http://zditm.szczecin.pl/rozklady/index.html"/>
  </node>
  <node id="1026479769" version="2" timestamp="2012-02-19T16:17:10Z" uid="603523" user="diverpl" changeset="10730939" lat="53.4334877" lon="14.5475936">
    <tag k="highway" v="bus_stop"/>
    <tag k="name" v="Plac Grunwaldzki"/>
    <tag k="operator" v="Zarząd Dróg i Transportu Miejskiego"/>
    <tag k="ref" v="11622"/>
    <tag k="source" v="zditm"/>
    <tag k="website" v="http://zditm.szczecin.pl/rozklady/index.html"/>
  </node>
  <node id="1026479778" version="1" timestamp="2010-12-07T13:59:49Z" uid="30632" user="antblant" changeset="6575123" lat="53.42691" lon="14.5362">
    <tag k="name" v="Plac Kościuszki"/>
    <tag k="operator" v="Zarząd Dróg i Transportu Miejskiego"/>
    <tag k="public_transport" v="platform"/>
    <tag k="rail" v="yes"/>
    <tag k="ref" v="10441"/>
    <tag k="source" v="zditm"/>
    <tag k="website" v="http://zditm.szczecin.pl/rozklady/index.html"/>
  </node>
  <node id="1026479778" version="2" timestamp="2012-02-26T17:02:35Z" uid="603523" user="diverpl" changeset="10800474" lat="53.42691" lon="14.5362"/>
  <node id="1026479786" version="1" timestamp="2010-12-07T13:59:49Z" uid="30632" user="antblant" changeset="6575123" lat="53.436127" lon="14.538007">
    <tag k="name" v="Felczaka"/>
    <tag k="operator" v="Zarząd Dróg i Transportu Miejskiego"/>
    <tag k="public_transport" v="platform"/>
    <tag k="rail" v="yes"/>
    <tag k="ref" v="12312"/>
    <tag k="source" v="zditm"/>
    <tag k="website" v="http://zditm.szczecin.pl/rozklady/index.html"/>
  </node>
  <node id="1026479786" version="2" timestamp="2011-10-08T13:47:46Z" uid="473784" user="antblant" changeset="9502746" lat="53.4361347" lon="14.5380339">
    <tag k="name" v="Felczaka"/>
    <tag k="operator" v="Zarząd Dróg i Transportu Miejskiego"/>
    <tag k="public_transport" v="platform"/>
    <tag k="rail" v="yes"/>
    <tag k="ref" v="12312"/>
    <tag k="source" v="zditm"/>
    <tag k="website" v="http://zditm.szczecin.pl/rozklady/index.html"/>
  </node>
  <node id="1026479786" version="3" timestamp="2012-02-26T17:02:31Z" uid="603523" user="diverpl" changeset="10800474" lat="53.4361347" lon="14.5380339"/>
  <node id="1026479800" version="1" timestamp="2010-12-07T13:59:50Z" uid="30632" user="antblant" changeset="6575123" lat="53.42709" lon="14.552121">
    <tag k="highway" v="bus_stop"/>
    <tag k="name" v="Niepodległości"/>
    <tag k="operator" v="Zarząd Dróg i Transportu Miejskiego"/>
    <tag k="ref" v="11212"/>
    <tag k="shelter" v="yes"/>
    <tag k="source" v="zditm"/>
    <tag k="website" v="http://zditm.szczecin.pl/rozklady/index.html"/>
  </node>
  <node id="1026479804" version="1" timestamp="2010-12-07T13:59:50Z" uid="30632" user="antblant" changeset="6575123" lat="53.420628" lon="14.549203">
    <tag k="name" v="Plac Zawiszy"/>
    <tag k="operator" v="Zarząd Dróg i Transportu Miejskiego"/>
    <tag k="public_transport" v="platform"/>
    <tag k="rail" v="yes"/>
    <tag k="ref" v="22812"/>
    <tag k="source" v="zditm"/>
    <tag k="website" v="http://zditm.szczecin.pl/rozklady/index.html"/>
  </node>
  <node id="1026479804" version="2" timestamp="2012-02-26T17:02:37Z" uid="603523" user="diverpl" changeset="10800474" lat="53.420628" lon="14.549203"/>
  <node id="1026479817" version="1" timestamp="2010-12-07T13:59:50Z" uid="30632" user="antblant" changeset="6575123" lat="53.415253" lon="14.543552">
    <tag k="name" v="Potulicka"/>
    <tag k="operator" v="Zarząd Dróg i Transportu Miejskiego"/>
    <tag k="public_transport" v="platform"/>
    <tag k="ref" v="23123"/>
    <tag k="source" v="zditm"/>
    <tag k="tram" v="yes"/>
    <tag k="website" v="http://zditm.szczecin.pl/rozklady/index.html"/>
  </node>
  <node id="1026479817" version="2" timestamp="2012-02-26T17:02:39Z" uid="603523" user="diverpl" changeset="10800474" lat="53.415253" lon="14.543552"/>
  <node id="1026479823" version="1" timestamp="2010-12-07T13:59:51Z" uid="30632" user="antblant" changeset="6575123" lat="53.43182" lon="14.553512">
    <tag k="highway" v="bus_stop"/>
    <tag k="name" v="Plac Rodła"/>
    <tag k="operator" v="Zarząd Dróg i Transportu Miejskiego"/>
    <tag k="ref" v="11541"/>
    <tag k="source" v="zditm"/>
    <tag k="website" v="http://zditm.szczecin.pl/rozklady/index.html"/>
  </node>
  <node id="1026479823" version="2" timestamp="2012-02-12T00:14:31Z" uid="603523" user="diverpl" changeset="10658797" lat="53.4317867" lon="14.5534864">
    <tag k="highway" v="bus_stop"/>
    <tag k="name" v="Plac Rodła"/>
    <tag k="operator" v="Zarząd Dróg i Transportu Miejskiego"/>
    <tag k="ref" v="11541"/>
    <tag k="source" v="zditm"/>
    <tag k="website" v="http://zditm.szczecin.pl/rozklady/index.html"/>
  </node>
  <node id="1026479823" version="3" timestamp="2012-02-19T16:17:10Z" uid="603523" user="diverpl" changeset="10730939" lat="53.4318315" lon="14.5531536">
    <tag k="highway" v="bus_stop"/>
    <tag k="name" v="Plac Rodła"/>
    <tag k="operator" v="Zarząd Dróg i Transportu Miejskiego"/>
    <tag k="ref" v="11541"/>
    <tag k="source" v="zditm"/>
    <tag k="website" v="http://zditm.szczecin.pl/rozklady/index.html"/>
  </node>
  <node id="1026479833" version="1" timestamp="2010-12-07T13:59:51Z" uid="30632" user="antblant" changeset="6575123" lat="53.412094" lon="14.54386">
    <tag k="bus" v="yes"/>
    <tag k="name" v="Nadodrzańska"/>
    <tag k="operator" v="Zarząd Dróg i Transportu Miejskiego"/>
    <tag k="public_transport" v="platform"/>
    <tag k="ref" v="22312"/>
    <tag k="source" v="zditm"/>
    <tag k="tram" v="yes"/>
    <tag k="website" v="http://zditm.szczecin.pl/rozklady/index.html"/>
  </node>
  <node id="1026479833" version="2" timestamp="2012-02-26T21:42:18Z" uid="603523" user="diverpl" changeset="10803690" lat="53.412094" lon="14.54386"/>
  <node id="1026479839" version="1" timestamp="2010-12-07T13:59:51Z" uid="30632" user="antblant" changeset="6575123" lat="53.419098" lon="14.552143">
    <tag k="highway" v="bus_stop"/>
    <tag k="name" v="Dworzec Główny"/>
    <tag k="operator" v="Zarząd Dróg i Transportu Miejskiego"/>
    <tag k="ref" v="22511"/>
    <tag k="source" v="zditm"/>
    <tag k="website" v="http://zditm.szczecin.pl/rozklady/index.html"/>
  </node>
  <node id="1026479839" version="2" timestamp="2012-02-15T18:29:48Z" uid="603523" user="diverpl" changeset="10694968" lat="53.4190948" lon="14.5521592">
    <tag k="highway" v="bus_stop"/>
    <tag k="name" v="Dworzec Główny"/>
    <tag k="operator" v="Zarząd Dróg i Transportu Miejskiego"/>
    <tag k="ref" v="22511"/>
    <tag k="source" v="zditm"/>
    <tag k="website" v="http://zditm.szczecin.pl/rozklady/index.html"/>
  </node>
  <node id="1026479839" version="3" timestamp="2012-02-15T21:32:08Z" uid="603523" user="diverpl" changeset="10696753" lat="53.419098" lon="14.552143">
    <tag k="highway" v="bus_stop"/>
    <tag k="name" v="Dworzec Główny"/>
    <tag k="operator" v="Zarząd Dróg i Transportu Miejskiego"/>
    <tag k="ref" v="22511"/>
    <tag k="source" v="zditm"/>
    <tag k="website" v="http://zditm.szczecin.pl/rozklady/index.html"/>
  </node>
  <node id="1026479839" version="4" timestamp="2012-02-18T18:53:21Z" uid="603523" user="diverpl" changeset="10723216" lat="53.4190706" lon="14.5520839">
    <tag k="highway" v="bus_stop"/>
    <tag k="name" v="Dworzec Główny"/>
    <tag k="operator" v="Zarząd Dróg i Transportu Miejskiego"/>
    <tag k="ref" v="22511"/>
    <tag k="source" v="zditm"/>
    <tag k="website" v="http://zditm.szczecin.pl/rozklady/index.html"/>
  </node>
  <node id="1026471163" version="3" timestamp="2012-07-18T10:42:43Z" uid="722137" user="OSMF Redaction Account" changeset="12278755" lat="55.3053807" lon="28.2950273"/>
  <node id="1026478748" version="2" timestamp="2012-04-29T22:03:39Z" uid="603523" user="diverpl" changeset="11454934" lat="53.4312864" lon="14.5389233">
    <tag k="highway" v="bus_stop"/>
    <tag k="name" v="Piastów"/>
    <tag k="operator" v="Zarząd Dróg i Transportu Miejskiego"/>
    <tag k="ref" v="11821"/>
    <tag k="source" v="zditm"/>
    <tag k="website" v="http://zditm.szczecin.pl/rozklady/index.html"/>
  </node>
  <node id="1026478787" version="2" timestamp="2012-04-27T23:26:55Z" uid="603523" user="diverpl" changeset="11437128" lat="53.4280639" lon="14.544434">
    <tag k="highway" v="bus_stop"/>
    <tag k="name" v="Plac Zgody"/>
    <tag k="operator" v="Zarząd Dróg i Transportu Miejskiego"/>
    <tag k="ref" v="12421"/>
    <tag k="source" v="zditm"/>
    <tag k="website" v="http://zditm.szczecin.pl/rozklady/index.html"/>
  </node>
  <node id="1026478794" version="2" timestamp="2012-04-28T00:12:32Z" uid="603523" user="diverpl" changeset="11437128" lat="53.4293014" lon="14.5532444">
    <tag k="highway" v="bus_stop"/>
    <tag k="name" v="Plac Żołnierza Polskiego"/>
    <tag k="operator" v="Zarząd Dróg i Transportu Miejskiego"/>
    <tag k="ref" v="11311"/>
    <tag k="source" v="zditm"/>
    <tag k="website" v="http://zditm.szczecin.pl/rozklady/index.html"/>
  </node>
  <node id="1026478800" version="2" timestamp="2012-04-30T20:48:10Z" uid="603523" user="diverpl" changeset="11464417" lat="53.4149808" lon="14.5370956">
    <tag k="highway" v="bus_stop"/>
    <tag k="name" v="Kusocińskiego"/>
    <tag k="operator" v="Zarząd Dróg i Transportu Miejskiego"/>
    <tag k="ref" v="23212"/>
    <tag k="source" v="zditm"/>
    <tag k="website" v="http://zditm.szczecin.pl/rozklady/index.html"/>
  </node>
  <node id="1026478844" version="3" timestamp="2012-07-24T13:19:28Z" uid="722137" user="OSMF Redaction Account" changeset="12466405" lat="53.42511" lon="14.5524">
    <tag k="highway" v="bus_stop"/>
    <tag k="name" v="Tkacka"/>
    <tag k="operator" v="Zarząd Dróg i Transportu Miejskiego"/>
    <tag k="ref" v="11112"/>
    <tag k="source" v="zditm"/>
    <tag k="website" v="http://zditm.szczecin.pl/rozklady/index.html"/>
  </node>
  <node id="1026478844" version="4" timestamp="2012-08-14T23:57:53Z" uid="603523" user="diverpl" changeset="12733324" lat="53.4250949" lon="14.5524473">
    <tag k="highway" v="bus_stop"/>
    <tag k="name" v="Tkacka"/>
    <tag k="operator" v="Zarząd Dróg i Transportu Miejskiego"/>
    <tag k="ref" v="11112"/>
    <tag k="source" v="zditm"/>
    <tag k="website" v="http://zditm.szczecin.pl/rozklady/index.html"/>
  </node>
  <node id="1026478932" version="5" timestamp="2012-06-02T11:25:49Z" uid="686375" user="hajduczka" changeset="11776120" lat="53.4256732" lon="14.5484118">
    <tag k="highway" v="bus_stop"/>
    <tag k="name" v="Plac Zwycięstwa"/>
    <tag k="operator" v="Zarząd Dróg i Transportu Miejskiego"/>
    <tag k="ref" v="10711"/>
    <tag k="source" v="zditm"/>
    <tag k="website" v="http://zditm.szczecin.pl/rozklady/index.html"/>
  </node>
  <node id="1026479001" version="3" timestamp="2012-07-24T13:19:30Z" uid="722137" user="OSMF Redaction Account" changeset="12466405" lat="53.441216" lon="14.554771">
    <tag k="highway" v="bus_stop"/>
    <tag k="name" v="Ofiar Oświęcimia"/>
    <tag k="operator" v="Zarząd Dróg i Transportu Miejskiego"/>
    <tag k="ref" v="14211"/>
    <tag k="source" v="zditm"/>
    <tag k="website" v="http://zditm.szczecin.pl/rozklady/index.html"/>
  </node>
  <node id="1026479007" version="2" timestamp="2012-04-30T20:48:11Z" uid="603523" user="diverpl" changeset="11464417" lat="53.4207679" lon="14.5490418">
    <tag k="highway" v="bus_stop"/>
    <tag k="name" v="Plac Zawiszy"/>
    <tag k="operator" v="Zarząd Dróg i Transportu Miejskiego"/>
    <tag k="ref" v="22811"/>
    <tag k="source" v="zditm"/>
    <tag k="website" v="http://zditm.szczecin.pl/rozklady/index.html"/>
  </node>
  <node id="1026479138" version="2" timestamp="2012-04-29T22:03:42Z" uid="603523" user="diverpl" changeset="11454934" lat="53.4331708" lon="14.5415067">
    <tag k="highway" v="bus_stop"/>
    <tag k="name" v="Plac Szarych Szeregów"/>
    <tag k="old_name" v="Plac Sprzymierzonych"/>
    <tag k="operator" v="Zarząd Dróg i Transportu Miejskiego"/>
    <tag k="ref" v="11711"/>
    <tag k="source" v="zditm"/>
    <tag k="website" v="http://zditm.szczecin.pl/rozklady/index.html"/>
  </node>
  <node id="1026479188" version="2" timestamp="2012-04-27T23:26:55Z" uid="603523" user="diverpl" changeset="11437128" lat="53.4292756" lon="14.5430545">
    <tag k="highway" v="bus_stop"/>
    <tag k="name" v="Plac Zgody"/>
    <tag k="operator" v="Zarząd Dróg i Transportu Miejskiego"/>
    <tag k="ref" v="12411"/>
    <tag k="source" v="zditm"/>
    <tag k="website" v="http://zditm.szczecin.pl/rozklady/index.html"/>
  </node>
  <node id="1026479232" version="2" timestamp="2012-04-21T01:00:46Z" uid="603523" user="diverpl" changeset="11369814" lat="53.4246122" lon="14.5518444">
    <tag k="highway" v="bus_stop"/>
    <tag k="name" v="Brama Portowa"/>
    <tag k="operator" v="Zarząd Dróg i Transportu Miejskiego"/>
    <tag k="ref" v="10823"/>
    <tag k="source" v="zditm"/>
    <tag k="website" v="http://zditm.szczecin.pl/rozklady/index.html"/>
  </node>
  <node id="1026479232" version="3" timestamp="2012-08-14T23:57:53Z" uid="603523" user="diverpl" changeset="12733324" lat="53.4246258" lon="14.551727">
    <tag k="highway" v="bus_stop"/>
    <tag k="name" v="Brama Portowa"/>
    <tag k="operator" v="Zarząd Dróg i Transportu Miejskiego"/>
    <tag k="ref" v="10823"/>
    <tag k="source" v="zditm"/>
    <tag k="website" v="http://zditm.szczecin.pl/rozklady/index.html"/>
  </node>
  <node id="1026479292" version="3" timestamp="2012-07-24T13:19:28Z" uid="722137" user="OSMF Redaction Account" changeset="12466405" lat="53.425205" lon="14.552497">
    <tag k="highway" v="bus_stop"/>
    <tag k="name" v="Tkacka"/>
    <tag k="operator" v="Zarząd Dróg i Transportu Miejskiego"/>
    <tag k="ref" v="11111"/>
    <tag k="source" v="zditm"/>
    <tag k="website" v="http://zditm.szczecin.pl/rozklady/index.html"/>
  </node>
  <node id="1026479292" version="4" timestamp="2012-08-14T23:57:53Z" uid="603523" user="diverpl" changeset="12733324" lat="53.425201" lon="14.5525122">
    <tag k="highway" v="bus_stop"/>
    <tag k="name" v="Tkacka"/>
    <tag k="operator" v="Zarząd Dróg i Transportu Miejskiego"/>
    <tag k="ref" v="11111"/>
    <tag k="source" v="zditm"/>
    <tag k="website" v="http://zditm.szczecin.pl/rozklady/index.html"/>
  </node>
  <node id="1026479328" version="2" timestamp="2012-04-27T23:26:55Z" uid="603523" user="diverpl" changeset="11437128" lat="53.4323326" lon="14.5408857">
    <tag k="highway" v="bus_stop"/>
    <tag k="name" v="Plac Szarych Szeregów"/>
    <tag k="old_name" v="Plac Sprzymierzonych"/>
    <tag k="operator" v="Zarząd Dróg i Transportu Miejskiego"/>
    <tag k="ref" v="11721"/>
    <tag k="source" v="zditm"/>
    <tag k="website" v="http://zditm.szczecin.pl/rozklady/index.html"/>
  </node>
  <node id="1026479328" version="3" timestamp="2012-05-12T12:58:42Z" uid="473784" user="antblant" changeset="11576306" lat="53.4323473" lon="14.5409376">
    <tag k="highway" v="bus_stop"/>
    <tag k="name" v="Plac Szarych Szeregów"/>
    <tag k="old_name" v="Plac Sprzymierzonych"/>
    <tag k="operator" v="Zarząd Dróg i Transportu Miejskiego"/>
    <tag k="ref" v="11721"/>
    <tag k="source" v="zditm"/>
    <tag k="website" v="http://zditm.szczecin.pl/rozklady/index.html"/>
  </node>
  <node id="1026479375" version="2" timestamp="2012-04-29T22:03:39Z" uid="603523" user="diverpl" changeset="11454934" lat="53.4324898" lon="14.5391532">
    <tag k="highway" v="bus_stop"/>
    <tag k="name" v="Piastów"/>
    <tag k="operator" v="Zarząd Dróg i Transportu Miejskiego"/>
    <tag k="ref" v="11811"/>
    <tag k="source" v="zditm"/>
    <tag k="website" v="http://zditm.szczecin.pl/rozklady/index.html"/>
  </node>
  <node id="1026479452" version="2" timestamp="2012-04-30T20:48:11Z" uid="603523" user="diverpl" changeset="11464417" lat="53.4206959" lon="14.5494912">
    <tag k="highway" v="bus_stop"/>
    <tag k="name" v="Plac Zawiszy"/>
    <tag k="operator" v="Zarząd Dróg i Transportu Miejskiego"/>
    <tag k="ref" v="22814"/>
    <tag k="source" v="zditm"/>
    <tag k="website" v="http://zditm.szczecin.pl/rozklady/index.html"/>
  </node>
  <node id="1026479501" version="3" timestamp="2012-05-20T18:56:13Z" uid="603523" user="diverpl" changeset="11654190" lat="53.4333769" lon="14.5479198">
    <tag k="highway" v="bus_stop"/>
    <tag k="name" v="Plac Grunwaldzki"/>
    <tag k="operator" v="Zarząd Dróg i Transportu Miejskiego"/>
    <tag k="ref" v="11623"/>
    <tag k="source" v="zditm"/>
    <tag k="website" v="http://zditm.szczecin.pl/rozklady/index.html"/>
  </node>
  <node id="1026479505" version="2" timestamp="2012-05-02T23:57:52Z" uid="603523" user="diverpl" changeset="11484236" lat="53.4269061" lon="14.5357834">
    <tag k="highway" v="bus_stop"/>
    <tag k="name" v="Plac Kościuszki"/>
    <tag k="operator" v="Zarząd Dróg i Transportu Miejskiego"/>
    <tag k="ref" v="10442"/>
    <tag k="source" v="zditm"/>
    <tag k="website" v="http://zditm.szczecin.pl/rozklady/index.html"/>
  </node>
  <node id="1026479581" version="2" timestamp="2012-04-29T22:03:40Z" uid="603523" user="diverpl" changeset="11454934" lat="53.4328965" lon="14.5414747">
    <tag k="highway" v="bus_stop"/>
    <tag k="name" v="Plac Szarych Szeregów"/>
    <tag k="old_name" v="Plac Sprzymierzonych"/>
    <tag k="operator" v="Zarząd Dróg i Transportu Miejskiego"/>
    <tag k="ref" v="11714"/>
    <tag k="source" v="zditm"/>
    <tag k="website" v="http://zditm.szczecin.pl/rozklady/index.html"/>
  </node>
  <node id="1026479733" version="3" timestamp="2012-04-29T22:03:40Z" uid="603523" user="diverpl" changeset="11454934" lat="53.4276343" lon="14.5369439">
    <tag k="highway" v="bus_stop"/>
    <tag k="name" v="Plac Kościuszki"/>
    <tag k="operator" v="Zarząd Dróg i Transportu Miejskiego"/>
    <tag k="ref" v="10411"/>
    <tag k="source" v="zditm"/>
    <tag k="website" v="http://zditm.szczecin.pl/rozklady/index.html"/>
  </node>
  <node id="1026479800" version="2" timestamp="2012-04-28T00:12:32Z" uid="603523" user="diverpl" changeset="11437128" lat="53.4270946" lon="14.552167">
    <tag k="highway" v="bus_stop"/>
    <tag k="name" v="Niepodległości"/>
    <tag k="operator" v="Zarząd Dróg i Transportu Miejskiego"/>
    <tag k="ref" v="11212"/>
    <tag k="shelter" v="yes"/>
    <tag k="source" v="zditm"/>
    <tag k="website" v="http://zditm.szczecin.pl/rozklady/index.html"/>
  </node>
</osm>
