<?xml version='1.0' encoding='UTF-8'?>
<osm version="0.6" generator="libosmium/2.20.0">
  <node id="1026516880" version="1" timestamp="2010-12-07T14:35:15Z" uid="115477" user="wowik" changeset="6575498" lat="54.9314072" lon="30.1883761">
    <tag k="name" v="Лычковского"/>
    <tag k="name:ru" v="Лычковского"/>
    <tag k="railway" v="station"/>
  </node>
  <node id="1026516880" version="2" timestamp="2010-12-07T14:35:35Z" uid="115477" user="wowik" changeset="6575503" lat="54.9314072" lon="30.1883761">
    <tag k="name" v="Лычковского"/>
    <tag k="name:ru" v="Лычковского"/>
    <tag k="railway" v="halt"/>
  </node>
  <node id="1026516880" version="3" timestamp="2011-12-14T13:24:01Z" uid="29320" user="Komяpa" changeset="10115654" lat="54.9314072" lon="30.1883761">
    <tag k="int_name" v="Lyčkoŭskaha"/>
    <tag k="name" v="Лычковского"/>
    <tag k="name:be" v="Лычкоўскага"/>
    <tag k="name:ru" v="Лычковского"/>
    <tag k="railway" v="halt"/>
  </node>
  <node id="1026516880" version="4" timestamp="2012-06-15T09:22:34Z" uid="155088" user="mixdm" changeset="11902862" lat="54.9300624" lon="30.1899274">
    <tag k="int_name" v="Lyčkoŭskaha"/>
    <tag k="name" v="Лычковского"/>
    <tag k="name:be" v="Лычкоўскага"/>
    <tag k="name:ru" v="Лычковского"/>
    <tag k="railway" v="halt"/>
  </node>
  <node id="1026516880" version="5" timestamp="2012-07-18T10:41:47Z" uid="722137" user="OSMF Redaction Account" changeset="12278704" lat="54.9300624" lon="30.1899274">
    <tag k="int_name" v="Lyčkoŭskaha"/>
    <tag k="name:be" v="Лычкоўскага"/>
  </node>
  <node id="1026516880" version="6" timestamp="2012-08-17T08:04:50Z" uid="481934" user="iWowik" changeset="12759031" lat="54.9300624" lon="30.1899274">
    <tag k="int_name" v="Lyčkoŭskaha"/>
    <tag k="name" v="Лычковского"/>
    <tag k="name:be" v="Лычкоўскага"/>
    <tag k="name:ru" v="Лычковского"/>
    <tag k="railway" v="halt"/>
  </node>
</osm>
