<?xml version='1.0' encoding='UTF-8'?>
<osm version="0.6" generator="libosmium/2.20.0">
  <node id="1055052231" version="1" timestamp="2010-12-21T18:12:31Z" uid="34428" user="usm78-gis" changeset="6727868" lat="60.2732377" lon="29.5305102">
    <tag k="name" v="Мухино"/>
    <tag k="name:fi" v="Sahakylä"/>
    <tag k="place" v="hamlet"/>
  </node>
  <node id="1055052240" version="1" timestamp="2010-12-21T18:12:32Z" uid="34428" user="usm78-gis" changeset="6727868" lat="60.294464" lon="29.4892061">
    <tag k="name" v="Яковлево"/>
    <tag k="name:fi" v="Mustamäki"/>
    <tag k="old_name:ru" v="Мустамяки"/>
    <tag k="place" v="hamlet"/>
  </node>
  <node id="1055052240" version="2" timestamp="2011-12-04T15:22:29Z" uid="395588" user="Danidin9" changeset="10034118" lat="60.294464" lon="29.4892061"/>
  <node id="1055052257" version="1" timestamp="2010-12-21T18:12:32Z" uid="34428" user="usm78-gis" changeset="6727868" lat="60.2782016" lon="29.4646078">
    <tag k="name" v="Байково"/>
    <tag k="name:fi" v="Sykiälä"/>
    <tag k="place" v="hamlet"/>
  </node>
  <node id="1055052257" version="2" timestamp="2011-01-01T11:02:48Z" uid="95117" user="one_half_3544" changeset="6826659" lat="60.2782016" lon="29.4646078">
    <tag k="name" v="Бойково"/>
    <tag k="name:fi" v="Sykiälä"/>
    <tag k="place" v="hamlet"/>
    <tag k="wikipedia" v="ru:Бойково (Ленинградская область)"/>
  </node>
  <node id="1055052257" version="3" timestamp="2011-12-09T12:19:49Z" uid="395588" user="Danidin9" changeset="10072643" lat="60.2791443" lon="29.4569908">
    <tag k="name" v="Бойково"/>
    <tag k="name:fi" v="Sykiälä"/>
    <tag k="place" v="hamlet"/>
    <tag k="wikipedia" v="ru:Бойково (Ленинградская область)"/>
  </node>
  <node id="1055052263" version="1" timestamp="2010-12-21T18:12:32Z" uid="34428" user="usm78-gis" changeset="6727868" lat="60.2677407" lon="29.4362861">
    <tag k="name" v="Горьковское"/>
    <tag k="name:fi" v="Neuvola"/>
    <tag k="old_name:ru" v="Нейвола"/>
    <tag k="place" v="village"/>
  </node>
  <node id="1055052271" version="1" timestamp="2010-12-21T18:12:32Z" uid="34428" user="usm78-gis" changeset="6727868" lat="60.3966347" lon="29.5160071">
    <tag k="name" v="Нахимовское"/>
    <tag k="name:fi" v="Hyrilä"/>
    <tag k="old_name:ru" v="Хюриля"/>
    <tag k="place" v="hamlet"/>
  </node>
  <node id="1055052231" version="2" timestamp="2012-05-11T12:34:02Z" uid="95117" user="one_half_3544" changeset="11567523" lat="60.2732377" lon="29.5305102">
    <tag k="name" v="Мухино"/>
    <tag k="name:fi" v="Sahakylä"/>
    <tag k="place" v="hamlet"/>
    <tag k="wikipedia" v="ru:Мухино (Ленинградская область)"/>
  </node>
  <node id="1055052231" version="3" timestamp="2012-07-23T00:32:06Z" uid="722137" user="OSMF Redaction Account" changeset="12442573" lat="60.2732377" lon="29.5305102"/>
  <node id="1055052257" version="4" timestamp="2012-07-10T16:21:59Z" uid="697731" user="Эцелоп" changeset="12175644" lat="60.2791443" lon="29.4569908">
    <tag k="image" v="http://img-fotki.yandex.ru/get/6114/3316237.25/0_6f4d2_7aeed72e_orig"/>
    <tag k="name" v="Байково"/>
    <tag k="name:fi" v="Sykiälä"/>
    <tag k="place" v="hamlet"/>
    <tag k="wikipedia" v="ru:Бойково (Ленинградская область)"/>
  </node>
  <node id="1055052257" version="5" timestamp="2012-07-23T19:03:51Z" uid="722137" user="OSMF Redaction Account" changeset="12455192" lat="60.2791443" lon="29.4569908">
    <tag k="image" v="http://img-fotki.yandex.ru/get/6114/3316237.25/0_6f4d2_7aeed72e_orig"/>
    <tag k="wikipedia" v="ru:Бойково (Ленинградская область)"/>
  </node>
  <node id="1055052263" version="2" timestamp="2012-07-23T19:30:30Z" uid="722137" user="OSMF Redaction Account" changeset="12455606" lat="60.2677407" lon="29.4362861"/>
  <node id="1055052271" version="2" timestamp="2012-07-22T23:31:59Z" uid="722137" user="OSMF Redaction Account" changeset="12442086" lat="60.3966347" lon="29.5160071"/>
</osm>
