<?xml version='1.0' encoding='UTF-8'?>
<osm version="0.6" generator="libosmium/2.20.0">
  <node id="1075210057" version="2" timestamp="2011-01-21T19:28:00Z" uid="115477" user="wowik" changeset="7043561" lat="55.9837526" lon="37.1529458">
    <tag k="name" v="Мороженое"/>
    <tag k="shop" v="kiosk"/>
  </node>
  <node id="1075210057" version="3" timestamp="2012-02-24T16:54:00Z" uid="384084" user="Kostik" changeset="10780119" lat="55.9837526" lon="37.1529458">
    <tag k="name" v="Мороженое"/>
    <tag k="shop" v="kiosk"/>
  </node>
  <node id="1075210060" version="2" timestamp="2011-01-20T19:13:31Z" uid="115477" user="wowik" changeset="7033529" lat="55.9843787" lon="37.1526492">
    <tag k="name" v="Цветы"/>
    <tag k="shop" v="florist"/>
  </node>
  <node id="1075210060" version="3" timestamp="2011-02-02T11:22:37Z" uid="241531" user="dik_man" changeset="7163609" lat="55.9843841" lon="37.152436">
    <tag k="name" v="Цветы"/>
    <tag k="shop" v="florist"/>
  </node>
  <node id="1075210070" version="2" timestamp="2011-01-20T19:14:42Z" uid="115477" user="wowik" changeset="7033529" lat="55.9846113" lon="37.1509116">
    <tag k="name" v="Мороженое"/>
    <tag k="shop" v="kiosk"/>
  </node>
  <node id="1075210070" version="3" timestamp="2012-02-24T16:54:00Z" uid="384084" user="Kostik" changeset="10780119" lat="55.9846113" lon="37.1509116">
    <tag k="name" v="Мороженое"/>
    <tag k="shop" v="kiosk"/>
  </node>
  <node id="1075210073" version="2" timestamp="2011-01-21T19:29:04Z" uid="115477" user="wowik" changeset="7043561" lat="55.9819467" lon="37.1530017">
    <tag k="historic" v="monument"/>
  </node>
  <node id="1075210073" version="3" timestamp="2012-03-13T17:34:43Z" uid="384084" user="Kostik" changeset="10969428" lat="55.981947" lon="37.1530023">
    <tag k="historic" v="monument"/>
  </node>
  <node id="1075210057" version="4" timestamp="2012-07-20T23:53:15Z" uid="722137" user="OSMF Redaction Account" changeset="12396570" lat="55.9837921" lon="37.1530434">
    <tag k="name" v="Мороженое"/>
    <tag k="shop" v="kiosk"/>
  </node>
  <node id="1075210070" version="4" timestamp="2012-07-20T23:53:29Z" uid="722137" user="OSMF Redaction Account" changeset="12396576" lat="55.9845829" lon="37.1509116">
    <tag k="name" v="Мороженое"/>
    <tag k="shop" v="kiosk"/>
  </node>
  <node id="1075210070" version="5" timestamp="2012-07-30T07:20:47Z" uid="760861" user="croc_20000" changeset="12543769" lat="55.9846158" lon="37.1509502">
    <tag k="name" v="Мороженое"/>
    <tag k="shop" v="kiosk"/>
  </node>
</osm>
