<?xml version='1.0' encoding='UTF-8'?>
<osm version="0.6" generator="libosmium/2.20.0">
  <node id="107514568" version="4" timestamp="2008-09-19T19:12:41Z" uid="65847" user="LKK" changeset="666457" lat="50.2207987" lon="8.2697287">
    <tag k="amenity" v="place_of_worship"/>
    <tag k="denomination" v="evangelical"/>
    <tag k="name" v="Unionskirche"/>
    <tag k="religion" v="christian"/>
  </node>
  <node id="107514568" version="5" timestamp="2010-03-07T23:19:22Z" uid="180581" user="c2695469" changeset="4067713" lat="50.2207987" lon="8.2697287">
    <tag k="amenity" v="place_of_worship"/>
    <tag k="denomination" v="evangelical"/>
    <tag k="name" v="Unionskirche"/>
    <tag k="religion" v="christian"/>
  </node>
  <node id="107519118" version="2" timestamp="2009-09-30T12:53:57Z" uid="36809" user="pfoten_weg_!_" changeset="2687909" lat="48.1791428" lon="11.30059">
    <tag k="amenity" v="post_box"/>
  </node>
  <node id="107519118" version="3" timestamp="2010-07-31T21:10:46Z" uid="7596" user="ck3d" changeset="5366033" lat="48.1791428" lon="11.30059">
    <tag k="amenity" v="post_box"/>
    <tag k="collection_times" v="Mo-Sa 08:00"/>
    <tag k="operator" v="Deutsche Post"/>
  </node>
  <node id="107519118" version="4" timestamp="2011-09-19T18:05:16Z" uid="162465" user="ckol" changeset="9344982" lat="48.1791428" lon="11.30059">
    <tag k="amenity" v="post_box"/>
    <tag k="collection_times" v="Mo-Sa 08:00"/>
    <tag k="operator" v="Deutsche Post AG"/>
  </node>
</osm>
