<?xml version='1.0' encoding='UTF-8'?>
<osm version="0.6" generator="libosmium/2.20.0">
  <node id="107741869" version="3" timestamp="2008-02-16T20:43:18Z" uid="6975" user="ulfl" changeset="141861" lat="53.4020192" lon="-2.9834127">
    <tag k="amenity" v="restaurant"/>
    <tag k="name" v="May Flower Chinese Restraunt"/>
  </node>
  <node id="107742546" version="7" timestamp="2008-02-16T20:43:19Z" uid="6975" user="ulfl" changeset="141861" lat="53.401707" lon="-2.9830608">
    <tag k="amenity" v="restaurant"/>
    <tag k="name" v="Christakis Greek Tavern"/>
    <tag k="note" v="Greek"/>
  </node>
  <node id="107742546" version="8" timestamp="2009-02-19T19:14:54Z" uid="2330" user="LeedsTracker" changeset="558467" lat="53.4016909" lon="-2.9829414">
    <tag k="amenity" v="restaurant"/>
    <tag k="name" v="Christakis Greek Tavern"/>
    <tag k="note" v="Greek"/>
  </node>
  <node id="107742546" version="9" timestamp="2009-02-20T18:36:31Z" uid="2330" user="LeedsTracker" changeset="574900" lat="53.4017265" lon="-2.9829016">
    <tag k="amenity" v="restaurant"/>
    <tag k="name" v="Christakis Greek Tavern"/>
    <tag k="note" v="Greek"/>
  </node>
  <node id="107744775" version="3" timestamp="2008-02-16T20:43:19Z" uid="6975" user="ulfl" changeset="141861" lat="53.4016098" lon="-2.9831123">
    <tag k="amenity" v="restaurant"/>
    <tag k="name" v="Saint Petersburg Russian Restraunt"/>
  </node>
  <node id="107744775" version="4" timestamp="2009-02-19T19:14:55Z" uid="2330" user="LeedsTracker" changeset="558467" lat="53.4015868" lon="-2.9830276">
    <tag k="amenity" v="restaurant"/>
    <tag k="name" v="Saint Petersburg Russian Restraunt"/>
  </node>
  <node id="107744775" version="5" timestamp="2009-02-20T18:36:32Z" uid="2330" user="LeedsTracker" changeset="574900" lat="53.4016248" lon="-2.9829918">
    <tag k="amenity" v="restaurant"/>
    <tag k="name" v="Saint Petersburg Russian Restraunt"/>
  </node>
  <node id="107748607" version="4" timestamp="2008-02-16T20:43:19Z" uid="6975" user="ulfl" changeset="141861" lat="53.4008729" lon="-2.9787006">
    <tag k="amenity" v="restaurant"/>
    <tag k="name" v="New Star"/>
    <tag k="note" v="Chinese"/>
  </node>
  <node id="107748607" version="5" timestamp="2009-02-19T19:14:45Z" uid="2330" user="LeedsTracker" changeset="558467" lat="53.4009119" lon="-2.9786736">
    <tag k="amenity" v="restaurant"/>
    <tag k="name" v="New Star"/>
    <tag k="note" v="Chinese"/>
  </node>
  <node id="107741869" version="4" timestamp="2012-05-02T10:19:02Z" uid="290680" user="wheelmap_visitor" changeset="11477150" lat="53.4020192" lon="-2.9834127">
    <tag k="amenity" v="restaurant"/>
    <tag k="name" v="May Flower Chinese Restraunt"/>
    <tag k="wheelchair" v="no"/>
  </node>
</osm>
