<?xml version='1.0' encoding='UTF-8'?>
<osm version="0.6" generator="libosmium/2.20.0">
  <node id="1104042663" version="1" timestamp="2011-01-14T23:44:28Z" uid="20587" user="balrog-kun" changeset="6972717" lat="52.2472969" lon="21.0955596">
    <tag k="amenity" v="martial_arts"/>
    <tag k="name" v="Akademia Karate Tradycyjnego"/>
  </node>
  <node id="1104042664" version="1" timestamp="2011-01-14T23:44:29Z" uid="20587" user="balrog-kun" changeset="6972717" lat="52.2326086" lon="21.0386862">
    <tag k="amenity" v="nightclub"/>
    <tag k="name" v="1500 Metrów Kwadratowych do Wynajęcia"/>
    <tag k="note:pl" v="Tak się nazywa klub, nie jest to ogłoszenie."/>
  </node>
  <node id="1104042665" version="1" timestamp="2011-01-14T23:44:29Z" uid="20587" user="balrog-kun" changeset="6972717" lat="52.2333303" lon="21.0190926">
    <tag k="amenity" v="pub"/>
    <tag k="name" v="Flow"/>
    <tag k="note" v="TODO"/>
    <tag k="smoking" v="yes"/>
  </node>
  <node id="1104043429" version="1" timestamp="2011-01-14T23:45:26Z" uid="20587" user="balrog-kun" changeset="6972721" lat="52.2373223" lon="21.0269285">
    <tag k="name" v="Rossmann"/>
    <tag k="operator" v="Rossmann"/>
    <tag k="shop" v="chemist"/>
  </node>
  <node id="1104043429" version="2" timestamp="2011-01-24T01:19:01Z" uid="20587" user="balrog-kun" changeset="7069126" lat="52.2373913" lon="21.0268056">
    <tag k="name" v="Rossmann"/>
    <tag k="operator" v="Rossmann"/>
    <tag k="shop" v="chemist"/>
  </node>
  <node id="1104042663" version="2" timestamp="2012-09-06T19:50:50Z" uid="842685" user="ancymon" changeset="13014779" lat="52.2472969" lon="21.0955596">
    <tag k="addr:housenumber" v="82"/>
    <tag k="addr:street" v="Osowska"/>
    <tag k="amenity" v="martial_arts"/>
    <tag k="name" v="Akademia Karate Tradycyjnego"/>
  </node>
  <node id="1104042665" version="2" timestamp="2012-09-06T19:50:50Z" uid="842685" user="ancymon" changeset="13014779" lat="52.2333303" lon="21.0190926">
    <tag k="addr:housenumber" v="2"/>
    <tag k="addr:street" v="Chmielna"/>
    <tag k="amenity" v="pub"/>
    <tag k="name" v="Flow"/>
    <tag k="note" v="TODO"/>
    <tag k="smoking" v="yes"/>
  </node>
</osm>
