<?xml version='1.0' encoding='UTF-8'?>
<osm version="0.6" generator="libosmium/2.20.0">
  <node id="1116449567" version="2" timestamp="2011-03-09T12:58:26Z" uid="4467" user="Rosscoe" changeset="7503660" lat="-37.841608" lon="144.939089">
    <tag k="amenity" v="cafe"/>
    <tag k="name" v="Third Wave Cafe"/>
  </node>
  <node id="1116449567" version="3" timestamp="2011-08-28T11:10:52Z" uid="3007" user="Hotwheelz" changeset="9146084" lat="-37.841608" lon="144.939089">
    <tag k="addr:housenumber" v="189"/>
    <tag k="addr:postcode" v="3207"/>
    <tag k="addr:street" v="Rouse Street"/>
    <tag k="amenity" v="cafe"/>
    <tag k="name" v="Third Wave Cafe"/>
    <tag k="website" v="www.thirdwavecafe.com.au"/>
  </node>
  <node id="1116449567" version="4" timestamp="2011-08-29T07:07:18Z" uid="3007" user="Hotwheelz" changeset="9154245" lat="-37.841608" lon="144.939089">
    <tag k="addr:housenumber" v="189"/>
    <tag k="addr:postcode" v="3207"/>
    <tag k="addr:street" v="Rouse Street"/>
    <tag k="amenity" v="cafe"/>
    <tag k="name" v="Shoe Fetish"/>
    <tag k="shop" v="shoes"/>
    <tag k="website" v="www.thirdwavecafe.com.au"/>
  </node>
  <node id="1116449567" version="5" timestamp="2011-08-30T10:40:02Z" uid="3007" user="Hotwheelz" changeset="9165640" lat="-37.841608" lon="144.939089">
    <tag k="addr:housenumber" v="189"/>
    <tag k="addr:postcode" v="3207"/>
    <tag k="addr:street" v="Rouse Street"/>
    <tag k="amenity" v="cafe"/>
    <tag k="name" v="Third Wave Cafe,"/>
    <tag k="website" v="www.thirdwavecafe.com.au"/>
  </node>
  <node id="1116449567" version="6" timestamp="2011-08-31T08:55:01Z" uid="3007" user="Hotwheelz" changeset="9174310" lat="-37.841608" lon="144.939089">
    <tag k="addr:housenumber" v="189"/>
    <tag k="addr:postcode" v="3207"/>
    <tag k="addr:street" v="Rouse Street"/>
    <tag k="amenity" v="cafe"/>
    <tag k="name" v="Third Wave Cafe"/>
    <tag k="website" v="www.thirdwavecafe.com.au"/>
  </node>
  <node id="1116449567" version="7" timestamp="2011-11-28T09:40:21Z" uid="3007" user="Hotwheelz" changeset="9975962" lat="-37.841608" lon="144.939089">
    <tag k="addr:housenumber" v="189"/>
    <tag k="addr:postcode" v="3207"/>
    <tag k="addr:street" v="Rouse Street"/>
    <tag k="amenity" v="cafe"/>
    <tag k="name" v="Third Wave Cafe"/>
    <tag k="website" v="www.thirdwavecafe.com.au"/>
    <tag k="wifi" v="free"/>
  </node>
</osm>
