<?xml version='1.0' encoding='UTF-8'?>
<osm version="0.6" generator="libosmium/2.20.0">
  <node id="1120079259" version="1" timestamp="2011-01-25T17:30:05Z" uid="115477" user="wowik" changeset="7085695" lat="55.9839102" lon="37.1762193">
    <tag k="name" v="Billa"/>
    <tag k="shop" v="supermarket"/>
  </node>
  <node id="1120079259" version="2" timestamp="2011-01-25T17:30:16Z" uid="115477" user="wowik" changeset="7085695" lat="55.9839039" lon="37.1763411">
    <tag k="name" v="Billa"/>
    <tag k="shop" v="supermarket"/>
  </node>
  <node id="1120079259" version="3" timestamp="2011-02-20T17:41:32Z" uid="241531" user="dik_man" changeset="7345343" lat="55.9839189" lon="37.1763411">
    <tag k="name" v="Billa"/>
    <tag k="shop" v="supermarket"/>
  </node>
  <node id="1120079259" version="4" timestamp="2012-05-31T23:08:18Z" uid="25594" user="CupIvan" changeset="11762963" lat="55.9839189" lon="37.1763411">
    <tag k="name" v="Billa"/>
    <tag k="name:en" v="Billa"/>
    <tag k="name:ru" v="Билла"/>
    <tag k="operator" v="ООО &quot;Билла Россия&quot;"/>
    <tag k="shop" v="supermarket"/>
  </node>
  <node id="1120079259" version="5" timestamp="2012-07-20T23:53:18Z" uid="722137" user="OSMF Redaction Account" changeset="12396570" lat="55.9839189" lon="37.1763411">
    <tag k="name:en" v="Billa"/>
    <tag k="name:ru" v="Билла"/>
    <tag k="operator" v="ООО &quot;Билла Россия&quot;"/>
  </node>
</osm>
