<?xml version='1.0' encoding='UTF-8'?>
<osm version="0.6" generator="libosmium/2.20.0">
  <node id="1123362163" version="2" timestamp="2011-04-20T17:38:18Z" uid="115477" user="wowik" changeset="7918297" lat="55.7580964" lon="37.623524">
    <tag k="addr:city" v="Москва"/>
    <tag k="addr:country" v="RU"/>
    <tag k="addr:housenumber" v="17"/>
    <tag k="addr:street" v="Никольская улица"/>
    <tag k="amenity" v="theatre"/>
    <tag k="name" v="Камерный музыкальный театр оперы им. Б.А. Покровского"/>
    <tag k="phone" v="+7-495-6067008"/>
    <tag k="website" v="http://www.opera-pokrovsky.ru/"/>
  </node>
  <node id="1123362163" version="3" timestamp="2012-02-17T22:18:27Z" uid="384084" user="Kostik" changeset="10715762" lat="55.7580964" lon="37.623524">
    <tag k="addr:city" v="Москва"/>
    <tag k="addr:country" v="RU"/>
    <tag k="addr:housenumber" v="17"/>
    <tag k="addr:street" v="Никольская улица"/>
    <tag k="amenity" v="theatre"/>
    <tag k="name" v="Камерный музыкальный театр оперы им. Б.А. Покровского"/>
    <tag k="phone" v="+7-495-6067008"/>
    <tag k="website" v="http://www.opera-pokrovsky.ru/"/>
  </node>
  <node id="1123362187" version="3" timestamp="2011-04-20T17:38:47Z" uid="115477" user="wowik" changeset="7918297" lat="55.75779" lon="37.6231192">
    <tag k="addr:city" v="Москва"/>
    <tag k="addr:country" v="RU"/>
    <tag k="addr:housenumber" v="17"/>
    <tag k="addr:street" v="Никольская улица"/>
    <tag k="name" v="Линзмастер"/>
    <tag k="opening_hours" v="Mo-Sa 10:00-21:00; Su 11:00-20:00"/>
    <tag k="phone" v="Тел. +7-495-9701983"/>
    <tag k="shop" v="optician"/>
    <tag k="website" v="http://www.lensmaster.ru/"/>
  </node>
  <node id="1123362187" version="4" timestamp="2012-02-24T16:53:59Z" uid="384084" user="Kostik" changeset="10780119" lat="55.75779" lon="37.6231192">
    <tag k="addr:city" v="Москва"/>
    <tag k="addr:country" v="RU"/>
    <tag k="addr:housenumber" v="17"/>
    <tag k="addr:street" v="Никольская улица"/>
    <tag k="name" v="Линзмастер"/>
    <tag k="opening_hours" v="Mo-Sa 10:00-21:00; Su 11:00-20:00"/>
    <tag k="phone" v="Тел. +7-495-9701983"/>
    <tag k="shop" v="optician"/>
    <tag k="website" v="http://www.lensmaster.ru/"/>
  </node>
  <node id="1123362163" version="4" timestamp="2012-07-20T11:59:27Z" uid="722137" user="OSMF Redaction Account" changeset="12374607" lat="55.7580964" lon="37.623524">
    <tag k="addr:housenumber" v="17"/>
    <tag k="addr:street" v="Никольская улица"/>
    <tag k="amenity" v="theatre"/>
    <tag k="name" v="Камерный музыкальный театр оперы им. Б.А. Покровского"/>
    <tag k="phone" v="+7-495-6067008"/>
    <tag k="website" v="http://www.opera-pokrovsky.ru/"/>
  </node>
  <node id="1123362187" version="5" timestamp="2012-07-20T11:59:27Z" uid="722137" user="OSMF Redaction Account" changeset="12374607" lat="55.75779" lon="37.6231192">
    <tag k="addr:housenumber" v="17"/>
    <tag k="addr:street" v="Никольская улица"/>
    <tag k="name" v="Линзмастер"/>
    <tag k="opening_hours" v="Mo-Sa 10:00-21:00; Su 11:00-20:00"/>
    <tag k="phone" v="Тел. +7-495-9701983"/>
    <tag k="shop" v="optician"/>
    <tag k="website" v="http://www.lensmaster.ru/"/>
  </node>
</osm>
