<?xml version='1.0' encoding='UTF-8'?>
<osm version="0.6" generator="libosmium/2.20.0">
  <node id="11260235" version="1" timestamp="2007-10-06T16:45:52Z" uid="8328" user="benpre" changeset="48647" lat="43.4465326" lon="1.6368645">
    <tag k="created_by" v="JOSM"/>
  </node>
  <node id="11260235" version="2" timestamp="2011-12-17T00:24:05Z" uid="297482" user="don-vip" changeset="10135323" lat="43.4465326" lon="1.6368645"/>
  <node id="11267797" version="5" timestamp="2008-12-14T13:14:27Z" uid="6975" user="ulfl" changeset="366940" lat="58.38039" lon="26.7146085">
    <tag k="amenity" v="place_of_worship"/>
    <tag k="building" v="church"/>
    <tag k="name" v="Cathedral"/>
  </node>
  <node id="11267797" version="6" timestamp="2009-01-08T18:37:45Z" uid="12298" user="jaak" changeset="756897" lat="58.38039" lon="26.7146085">
    <tag k="amenity" v="place_of_worship"/>
    <tag k="building" v="yes"/>
    <tag k="name" v="Cathedral"/>
  </node>
  <node id="11267797" version="7" timestamp="2009-01-11T12:39:12Z" uid="12298" user="jaak" changeset="773128" lat="58.38039" lon="26.7146085">
    <tag k="amenity" v="place_of_worship"/>
    <tag k="building" v="yes"/>
    <tag k="historic" v="ruins"/>
    <tag k="name" v="Toomkirik Cathedral"/>
  </node>
  <node id="11267797" version="8" timestamp="2010-01-14T18:40:24Z" uid="49775" user="Flying Saucer" changeset="3618793" lat="58.3802447" lon="26.7149388">
    <tag k="amenity" v="place_of_worship"/>
    <tag k="building" v="yes"/>
    <tag k="historic" v="ruins"/>
    <tag k="name" v="Toomkirik Cathedral"/>
  </node>
  <node id="11267797" version="9" timestamp="2010-10-17T13:25:26Z" uid="153437" user="kanne" changeset="6067007" lat="58.3802447" lon="26.7149388">
    <tag k="amenity" v="place_of_worship"/>
    <tag k="building" v="yes"/>
    <tag k="historic" v="ruins"/>
    <tag k="name" v="Toomkirik"/>
  </node>
  <node id="11267849" version="5" timestamp="2008-12-14T13:18:14Z" uid="6975" user="ulfl" changeset="366940" lat="58.3789321" lon="26.7201219">
    <tag k="building" v="yes"/>
    <tag k="name" v="Tähetorn / Astronomic observatory"/>
  </node>
  <node id="11267849" version="6" timestamp="2009-01-12T12:54:17Z" uid="12298" user="jaak" changeset="778842" lat="58.3789321" lon="26.7201219">
    <tag k="building" v="yes"/>
    <tag k="name" v="Tähetorn / Astronomic observatory"/>
    <tag k="tourism" v="attraction"/>
  </node>
  <node id="11267849" version="7" timestamp="2009-01-12T12:56:34Z" uid="12298" user="jaak" changeset="778842" lat="58.3789321" lon="26.7201219">
    <tag k="building" v="yes"/>
    <tag k="name" v="Astronomic observatory"/>
    <tag k="name:et" v="Tähetorn"/>
    <tag k="tourism" v="attraction"/>
  </node>
  <node id="11267849" version="8" timestamp="2009-08-13T08:23:06Z" uid="49775" user="Flying Saucer" changeset="2128321" lat="58.3788228" lon="26.7200891">
    <tag k="building" v="yes"/>
    <tag k="name" v="Astronomic observatory"/>
    <tag k="name:et" v="Tähetorn"/>
    <tag k="tourism" v="attraction"/>
  </node>
  <node id="11267849" version="9" timestamp="2010-11-03T16:35:16Z" uid="12298" user="jaakl" changeset="6277500" lat="58.3788229" lon="26.720089">
    <tag k="building" v="yes"/>
    <tag k="name" v="Tähetorn"/>
    <tag k="name:en" v="Astronomic observatory"/>
    <tag k="tourism" v="attraction"/>
  </node>
  <node id="11267979" version="5" timestamp="2008-12-14T13:18:14Z" uid="6975" user="ulfl" changeset="366940" lat="58.3812871" lon="26.7201929">
    <tag k="building" v="yes"/>
    <tag k="name" v="Tartu Ülikooli peahoone"/>
    <tag k="tourism" v="attraction"/>
  </node>
  <node id="11267979" version="6" timestamp="2009-08-13T08:22:32Z" uid="49775" user="Flying Saucer" changeset="2128321" lat="58.3810862" lon="26.7198831">
    <tag k="building" v="yes"/>
    <tag k="name" v="Tartu Ülikooli peahoone"/>
    <tag k="tourism" v="attraction"/>
  </node>
  <node id="11267979" version="7" timestamp="2011-07-02T07:01:52Z" uid="13804" user="Martino" changeset="8605132" lat="58.3810862" lon="26.7198831">
    <tag k="building" v="yes"/>
    <tag k="int_name" v="University of Tartu main building"/>
    <tag k="name" v="Tartu Ülikooli peahoone"/>
    <tag k="tourism" v="attraction"/>
  </node>
  <node id="11267979" version="8" timestamp="2011-07-02T07:02:42Z" uid="13804" user="Martino" changeset="8605132" lat="58.3810862" lon="26.7198831">
    <tag k="amenity" v="university"/>
    <tag k="building" v="yes"/>
    <tag k="int_name" v="University of Tartu main building"/>
    <tag k="name" v="Tartu Ülikooli peahoone"/>
    <tag k="tourism" v="attraction"/>
  </node>
  <node id="11267797" version="10" timestamp="2012-07-20T05:05:57Z" uid="722137" user="OSMF Redaction Account" changeset="12361321" lat="58.38039" lon="26.7146085">
    <tag k="amenity" v="place_of_worship"/>
    <tag k="building" v="yes"/>
    <tag k="historic" v="ruins"/>
    <tag k="name" v="Toomkirik"/>
  </node>
  <node id="11267849" version="10" timestamp="2012-07-20T05:05:55Z" uid="722137" user="OSMF Redaction Account" changeset="12361321" lat="58.3789321" lon="26.7201219">
    <tag k="building" v="yes"/>
    <tag k="name" v="Tähetorn"/>
    <tag k="name:en" v="Astronomic observatory"/>
    <tag k="tourism" v="attraction"/>
  </node>
  <node id="11267979" version="9" timestamp="2012-07-20T05:05:57Z" uid="722137" user="OSMF Redaction Account" changeset="12361321" lat="58.3812871" lon="26.7201929">
    <tag k="amenity" v="university"/>
    <tag k="building" v="yes"/>
    <tag k="int_name" v="University of Tartu main building"/>
    <tag k="name" v="Tartu Ülikooli peahoone"/>
    <tag k="tourism" v="attraction"/>
  </node>
</osm>
