<?xml version='1.0' encoding='UTF-8'?>
<osm version="0.6" generator="libosmium/2.20.0">
  <node id="1144940824" version="1" timestamp="2011-02-10T01:20:54Z" uid="6269" user="Mueck" changeset="7241945" lat="49.0113816" lon="8.4234192">
    <tag k="name" v="Karl-Wilhelm-Platz"/>
    <tag k="public_transport" v="stop_position"/>
    <tag k="railway" v="tram_stop"/>
    <tag k="tram" v="yes"/>
  </node>
  <node id="1144940824" version="2" timestamp="2011-03-16T12:01:26Z" uid="6269" user="Mueck" changeset="7574951" lat="49.0113816" lon="8.4234192">
    <tag k="name" v="Karl-Wilhelm-Platz"/>
    <tag k="public_transport" v="stop_position"/>
    <tag k="railway" v="tram_stop"/>
    <tag k="tram" v="yes"/>
    <tag k="uic_ref" v="721387"/>
    <tag k="wheelchair" v="no"/>
  </node>
  <node id="1144940824" version="3" timestamp="2012-04-11T12:11:11Z" uid="442210" user="dwausr" changeset="11264249" lat="49.0113816" lon="8.4234192">
    <tag k="name" v="Karl-Wilhelm-Platz"/>
    <tag k="odbl" v="clean"/>
    <tag k="public_transport" v="stop_position"/>
    <tag k="railway" v="tram_stop"/>
    <tag k="tram" v="yes"/>
    <tag k="uic_ref" v="721387"/>
    <tag k="wheelchair" v="no"/>
  </node>
</osm>
