<?xml version='1.0' encoding='UTF-8'?>
<osm version="0.6" generator="libosmium/2.20.0">
  <node id="115811624" version="2" timestamp="2011-03-13T15:15:06Z" uid="49111" user="Markus B" changeset="7546018" lat="-53.7853294" lon="-70.9761771"/>
  <node id="115812095" version="4" timestamp="2008-07-14T21:34:21Z" uid="17602" user="B10xyz" changeset="498822" lat="52.5144741" lon="13.3501624">
    <tag k="created_by" v="Potlatch 0.5d"/>
    <tag k="historic" v="monument"/>
    <tag k="name" v="Siegessäule"/>
  </node>
  <node id="115812095" version="5" timestamp="2008-09-22T17:12:40Z" uid="6669" user="Elwood" changeset="680690" lat="52.5144894" lon="13.350142">
    <tag k="created_by" v="Potlatch 0.5d"/>
    <tag k="historic" v="monument"/>
    <tag k="name" v="Siegessäule"/>
  </node>
  <node id="115812095" version="6" timestamp="2009-05-20T08:59:10Z" uid="64255" user="look4book" changeset="1260020" lat="52.5144931" lon="13.3501374">
    <tag k="created_by" v="Potlatch 0.5d"/>
    <tag k="historic" v="monument"/>
    <tag k="name" v="Siegessäule"/>
    <tag k="name_alt" v="Goldelse"/>
  </node>
  <node id="115812095" version="7" timestamp="2009-07-08T21:01:41Z" uid="115651" user="Konrad Aust" changeset="1776622" lat="52.5144947" lon="13.3501298">
    <tag k="created_by" v="Potlatch 0.5d"/>
    <tag k="historic" v="monument"/>
    <tag k="loc_name" v="Goldelse"/>
    <tag k="name" v="Siegessäule"/>
  </node>
  <node id="115812095" version="8" timestamp="2009-09-02T13:36:40Z" uid="142426" user="S-Man42" changeset="2348893" lat="52.5144662" lon="13.3501758">
    <tag k="historic" v="monument"/>
    <tag k="loc_name" v="Goldelse"/>
    <tag k="name" v="Siegessäule"/>
    <tag k="tourism" v="attraction"/>
  </node>
  <node id="115812095" version="9" timestamp="2009-12-18T11:02:27Z" uid="170672" user="1248" changeset="3399637" lat="52.5144662" lon="13.3501758">
    <tag k="historic" v="monument"/>
    <tag k="loc_name" v="Goldelse"/>
    <tag k="name" v="Siegessäule"/>
    <tag k="tourism" v="attraction"/>
  </node>
  <node id="115817939" version="5" timestamp="2010-08-03T20:18:27Z" uid="9581" user="Lobelt" changeset="5393628" lat="49.3739475" lon="8.5398172"/>
  <node id="115817951" version="5" timestamp="2010-08-03T20:18:39Z" uid="9581" user="Lobelt" changeset="5393628" lat="49.3745199" lon="8.5411791"/>
  <node id="115811624" version="3" timestamp="2012-06-29T08:51:14Z" uid="167950" user="cimatosa" changeset="12054176" lat="-53.7854122" lon="-70.9763503"/>
  <node id="115817939" version="6" timestamp="2012-05-05T19:25:32Z" uid="12982" user="Michael Schulze" changeset="11511529" lat="49.3739533" lon="8.5398239"/>
  <node id="115817951" version="6" timestamp="2012-05-05T19:25:32Z" uid="12982" user="Michael Schulze" changeset="11511529" lat="49.3745039" lon="8.5411836"/>
</osm>
