<?xml version='1.0' encoding='UTF-8'?>
<osm version="0.6" generator="libosmium/2.20.0">
  <node id="117088422" version="2" timestamp="2008-02-10T18:02:05Z" uid="6269" user="Mueck" changeset="92451" lat="50.0995911" lon="8.7039171">
    <tag k="created_by" v="JOSM"/>
    <tag k="name" v="Lettigkautweg"/>
    <tag k="railway" v="halt"/>
  </node>
  <node id="117088422" version="3" timestamp="2009-07-22T18:24:51Z" uid="8464" user="MichaH" changeset="1907726" lat="50.0995911" lon="8.7039171">
    <tag k="name" v="Lettigkautweg"/>
    <tag k="railway" v="halt"/>
  </node>
  <node id="117088422" version="4" timestamp="2010-05-22T14:45:05Z" uid="263596" user="OberfÃ¶rster" changeset="4774949" lat="50.0995738" lon="8.7038868">
    <tag k="name" v="Lettigkautweg"/>
    <tag k="railway" v="halt"/>
  </node>
  <node id="117088422" version="5" timestamp="2010-06-01T09:32:09Z" uid="221387" user="baeuchle" changeset="4873060" lat="50.099562" lon="8.7038716">
    <tag k="name" v="Lettigkautweg"/>
    <tag k="railway" v="halt"/>
  </node>
  <node id="117088422" version="6" timestamp="2010-06-19T12:55:45Z" uid="57645" user="KartoGrapHiti" changeset="5023684" lat="50.099562" lon="8.7038716">
    <tag k="name" v="Lettigkautweg"/>
    <tag k="railway" v="tram_stop"/>
  </node>
  <node id="117088422" version="7" timestamp="2010-07-13T09:54:19Z" uid="221387" user="baeuchle" changeset="5206366" lat="50.0995659" lon="8.7038721">
    <tag k="name" v="Lettigkautweg"/>
    <tag k="railway" v="tram_stop"/>
  </node>
  <node id="117088422" version="8" timestamp="2011-05-07T12:52:41Z" uid="94353" user="Fips" changeset="8073152" lat="50.0995659" lon="8.7038721"/>
</osm>
