<?xml version='1.0' encoding='UTF-8'?>
<osm version="0.6" generator="libosmium/2.20.0">
  <node id="1173766486" version="1" timestamp="2011-02-26T02:09:21Z" uid="6269" user="Mueck" changeset="7396168" lat="49.0314775" lon="8.3870297"/>
  <node id="1173766486" version="2" timestamp="2011-02-26T02:10:23Z" uid="6269" user="Mueck" changeset="7396168" lat="49.0314775" lon="8.3870297">
    <tag k="bus" v="yes"/>
    <tag k="name" v="Heidehof"/>
    <tag k="public_transport" v="stop_position"/>
    <tag k="railway" v="tram_stop"/>
    <tag k="tram" v="yes"/>
    <tag k="wheelchair" v="yes"/>
  </node>
  <node id="1173766486" version="3" timestamp="2011-02-26T02:11:46Z" uid="6269" user="Mueck" changeset="7396168" lat="49.0314775" lon="8.3870297">
    <tag k="bus" v="yes"/>
    <tag k="name" v="Heidehof"/>
    <tag k="public_transport" v="stop_position"/>
    <tag k="wheelchair" v="unknown"/>
  </node>
  <node id="1173766486" version="4" timestamp="2011-02-26T02:12:17Z" uid="6269" user="Mueck" changeset="7396168" lat="49.0314775" lon="8.3870297">
    <tag k="bus" v="yes"/>
    <tag k="name" v="Heidehof"/>
    <tag k="public_transport" v="stop_position"/>
    <tag k="wheelchair" v="unknown"/>
  </node>
  <node id="1173766593" version="1" timestamp="2011-02-26T02:09:24Z" uid="6269" user="Mueck" changeset="7396168" lat="49.0314079" lon="8.3870705"/>
  <node id="1173766593" version="2" timestamp="2011-02-26T02:09:43Z" uid="6269" user="Mueck" changeset="7396168" lat="49.0314079" lon="8.3870705">
    <tag k="bus" v="yes"/>
    <tag k="name" v="Heidehof"/>
    <tag k="public_transport" v="stop_position"/>
    <tag k="railway" v="tram_stop"/>
    <tag k="tram" v="yes"/>
    <tag k="wheelchair" v="yes"/>
  </node>
  <node id="1173766593" version="3" timestamp="2011-02-26T02:11:09Z" uid="6269" user="Mueck" changeset="7396168" lat="49.0314079" lon="8.3870705">
    <tag k="name" v="Heidehof"/>
    <tag k="public_transport" v="stop_position"/>
    <tag k="railway" v="tram_stop"/>
    <tag k="tram" v="yes"/>
    <tag k="wheelchair" v="yes"/>
  </node>
  <node id="1173766593" version="4" timestamp="2011-03-16T14:12:41Z" uid="6269" user="Mueck" changeset="7576071" lat="49.0314079" lon="8.3870705">
    <tag k="name" v="Heidehof"/>
    <tag k="public_transport" v="stop_position"/>
    <tag k="railway" v="tram_stop"/>
    <tag k="tram" v="yes"/>
    <tag k="uic_ref" v="721288"/>
    <tag k="wheelchair" v="yes"/>
  </node>
  <node id="1173766486" version="5" timestamp="2012-04-28T17:36:18Z" uid="35468" user="Blunauer" changeset="11443004" lat="49.0314775" lon="8.3870297"/>
  <node id="1173766593" version="5" timestamp="2012-05-12T13:23:30Z" uid="35468" user="Blunauer" changeset="11576501" lat="49.0314079" lon="8.3870705"/>
</osm>
