<?xml version='1.0' encoding='UTF-8'?>
<osm version="0.6" generator="libosmium/2.20.0">
  <node id="1175789389" version="1" timestamp="2011-02-26T22:22:31Z" uid="20587" user="balrog-kun" changeset="7405140" lat="52.1754005" lon="20.9447673">
    <tag k="highway" v="bus_stop"/>
    <tag k="name" v="Okęcie"/>
  </node>
  <node id="1175789389" version="2" timestamp="2011-08-30T15:22:30Z" uid="477744" user="hormel" changeset="9168199" lat="52.1755293" lon="20.943471">
    <tag k="highway" v="bus_stop"/>
    <tag k="name" v="Okęcie"/>
  </node>
  <node id="1175789389" version="3" timestamp="2011-10-24T13:25:08Z" uid="475943" user="sir-mapalot" changeset="9643431" lat="52.1755293" lon="20.943471">
    <tag k="highway" v="bus_stop"/>
    <tag k="name" v="P+R Aleja Krakowska"/>
    <tag k="old_name" v="Okęcie"/>
  </node>
  <node id="1175789394" version="1" timestamp="2011-02-26T22:22:31Z" uid="20587" user="balrog-kun" changeset="7405140" lat="52.1760785" lon="20.9451457">
    <tag k="highway" v="bus_stop"/>
    <tag k="name" v="Okęcie"/>
  </node>
  <node id="1175789394" version="2" timestamp="2011-08-30T15:22:30Z" uid="477744" user="hormel" changeset="9168199" lat="52.1754832" lon="20.9441093">
    <tag k="highway" v="bus_stop"/>
    <tag k="name" v="Okęcie"/>
  </node>
  <node id="1175789394" version="3" timestamp="2011-10-24T13:25:08Z" uid="475943" user="sir-mapalot" changeset="9643431" lat="52.1754832" lon="20.9441093">
    <tag k="highway" v="bus_stop"/>
    <tag k="name" v="P+R Aleja Krakowska"/>
    <tag k="old_name" v="Okęcie"/>
  </node>
  <node id="1175789397" version="1" timestamp="2011-02-26T22:22:31Z" uid="20587" user="balrog-kun" changeset="7405140" lat="52.1746837" lon="20.9419826">
    <tag k="highway" v="crossing"/>
  </node>
  <node id="1175789397" version="2" timestamp="2011-05-25T18:55:47Z" uid="98542" user="wajak" changeset="8247526" lat="52.1746816" lon="20.9419815">
    <tag k="highway" v="crossing"/>
  </node>
  <node id="1175789397" version="3" timestamp="2011-11-21T07:50:23Z" uid="98542" user="wajak" changeset="9894103" lat="52.1747424" lon="20.9419044">
    <tag k="highway" v="crossing"/>
  </node>
  <node id="1175789400" version="1" timestamp="2011-02-26T22:22:31Z" uid="20587" user="balrog-kun" changeset="7405140" lat="52.1753301" lon="20.944491">
    <tag k="highway" v="bus_stop"/>
    <tag k="name" v="Okęcie"/>
  </node>
  <node id="1175789400" version="2" timestamp="2011-08-30T15:22:30Z" uid="477744" user="hormel" changeset="9168199" lat="52.175447" lon="20.9433851">
    <tag k="highway" v="bus_stop"/>
    <tag k="name" v="Okęcie"/>
  </node>
  <node id="1175789400" version="3" timestamp="2011-10-24T13:25:08Z" uid="475943" user="sir-mapalot" changeset="9643431" lat="52.175447" lon="20.9433851">
    <tag k="highway" v="bus_stop"/>
    <tag k="name" v="P+R Aleja Krakowska"/>
    <tag k="old_name" v="Okęcie"/>
  </node>
  <node id="1175789405" version="1" timestamp="2011-02-26T22:22:31Z" uid="20587" user="balrog-kun" changeset="7405140" lat="52.1744019" lon="20.9438872">
    <tag k="highway" v="bus_stop"/>
    <tag k="name" v="Okęcie"/>
  </node>
  <node id="1175789405" version="2" timestamp="2011-08-30T15:22:31Z" uid="477744" user="hormel" changeset="9168199" lat="52.1751214" lon="20.9440235">
    <tag k="highway" v="bus_stop"/>
    <tag k="name" v="Okęcie"/>
  </node>
  <node id="1175789405" version="3" timestamp="2011-10-24T13:25:07Z" uid="475943" user="sir-mapalot" changeset="9643431" lat="52.1751214" lon="20.9440235">
    <tag k="highway" v="bus_stop"/>
    <tag k="name" v="P+R Aleja Krakowska"/>
    <tag k="old_name" v="Okęcie"/>
  </node>
  <node id="1175789409" version="1" timestamp="2011-02-26T22:22:32Z" uid="20587" user="balrog-kun" changeset="7405140" lat="52.1744835" lon="20.9419589">
    <tag k="highway" v="crossing"/>
  </node>
  <node id="1175789409" version="2" timestamp="2011-11-21T07:50:23Z" uid="98542" user="wajak" changeset="9894103" lat="52.1745537" lon="20.9419457">
    <tag k="highway" v="crossing"/>
  </node>
  <node id="1175789412" version="1" timestamp="2011-02-26T22:22:32Z" uid="20587" user="balrog-kun" changeset="7405140" lat="52.1758151" lon="20.9450607">
    <tag k="highway" v="bus_stop"/>
    <tag k="name" v="Okęcie"/>
  </node>
  <node id="1175789412" version="2" timestamp="2011-08-30T15:22:31Z" uid="477744" user="hormel" changeset="9168199" lat="52.1754042" lon="20.9440449">
    <tag k="highway" v="bus_stop"/>
    <tag k="name" v="Okęcie"/>
  </node>
  <node id="1175789412" version="3" timestamp="2011-10-24T13:25:08Z" uid="475943" user="sir-mapalot" changeset="9643431" lat="52.1754042" lon="20.9440449">
    <tag k="highway" v="bus_stop"/>
    <tag k="name" v="P+R Aleja Krakowska"/>
    <tag k="old_name" v="Okęcie"/>
  </node>
  <node id="1175789418" version="1" timestamp="2011-02-26T22:22:32Z" uid="20587" user="balrog-kun" changeset="7405140" lat="52.1750981" lon="20.9444442">
    <tag k="highway" v="bus_stop"/>
    <tag k="name" v="Okęcie"/>
  </node>
  <node id="1175789418" version="2" timestamp="2011-08-30T15:22:31Z" uid="477744" user="hormel" changeset="9168199" lat="52.1753616" lon="20.9433153">
    <tag k="highway" v="bus_stop"/>
    <tag k="name" v="Okęcie"/>
  </node>
  <node id="1175789418" version="3" timestamp="2011-10-24T13:25:07Z" uid="475943" user="sir-mapalot" changeset="9643431" lat="52.1753616" lon="20.9433153">
    <tag k="highway" v="bus_stop"/>
    <tag k="name" v="P+R Aleja Krakowska"/>
    <tag k="old_name" v="Okęcie"/>
  </node>
  <node id="1175789418" version="4" timestamp="2011-11-17T14:21:51Z" uid="477744" user="hormel" changeset="9854355" lat="52.1753616" lon="20.9433153">
    <tag k="highway" v="bus_stop"/>
    <tag k="name" v="P+R Al. Krakowska 09"/>
    <tag k="old_name" v="Okęcie"/>
  </node>
  <node id="1175789394" version="4" timestamp="2012-08-27T10:16:19Z" uid="323284" user="Javnik" changeset="12876992" lat="52.1754832" lon="20.9441093">
    <tag k="highway" v="bus_stop"/>
    <tag k="name" v="P+R Aleja Krakowska 07"/>
    <tag k="old_name" v="Okęcie"/>
  </node>
  <node id="1175789397" version="4" timestamp="2012-07-02T13:32:04Z" uid="564141" user="Madmaks" changeset="12087334" lat="52.1747192" lon="20.9419857">
    <tag k="crossing" v="traffic_signals"/>
    <tag k="highway" v="crossing"/>
  </node>
  <node id="1175789409" version="3" timestamp="2012-07-02T13:32:04Z" uid="564141" user="Madmaks" changeset="12087334" lat="52.1745537" lon="20.9419457">
    <tag k="crossing" v="traffic_signals"/>
    <tag k="highway" v="crossing"/>
  </node>
  <node id="1175789412" version="4" timestamp="2012-08-27T10:16:19Z" uid="323284" user="Javnik" changeset="12876992" lat="52.1754042" lon="20.9440449">
    <tag k="highway" v="bus_stop"/>
    <tag k="name" v="P+R Aleja Krakowska 09"/>
    <tag k="old_name" v="Okęcie"/>
  </node>
</osm>
