<?xml version='1.0' encoding='UTF-8'?>
<osm version="0.6" generator="libosmium/2.20.0">
  <node id="1179345868" version="1" timestamp="2011-02-28T18:07:48Z" uid="115477" user="wowik" changeset="7422767" lat="43.4931564" lon="40.9534979">
    <tag k="name" v="поляна Седьмого поста"/>
    <tag k="place" v="locality"/>
  </node>
  <node id="1179345868" version="2" timestamp="2011-02-28T18:27:48Z" uid="115477" user="wowik" changeset="7422909" lat="43.4932704" lon="40.9545453">
    <tag k="name" v="поляна Седьмого поста"/>
    <tag k="place" v="locality"/>
  </node>
  <node id="1179345868" version="3" timestamp="2011-02-28T19:05:44Z" uid="115477" user="wowik" changeset="7423251" lat="43.4925707" lon="40.9545453">
    <tag k="ele" v="1570"/>
    <tag k="name" v="поляна Седьмого поста"/>
    <tag k="place" v="locality"/>
  </node>
  <node id="1179345868" version="4" timestamp="2012-04-10T05:33:05Z" uid="417178" user="Medoff" changeset="11247819" lat="43.4925707" lon="40.9545458">
    <tag k="ele" v="1570"/>
    <tag k="name" v="поляна Седьмого поста"/>
    <tag k="place" v="locality"/>
  </node>
  <node id="1179345868" version="5" timestamp="2012-07-20T10:47:33Z" uid="722137" user="OSMF Redaction Account" changeset="12371713" lat="43.4925707" lon="40.9545458"/>
</osm>
