<?xml version='1.0' encoding='UTF-8'?>
<osm version="0.6" generator="libosmium/2.20.0">
  <node id="119181909" version="2" timestamp="2007-12-02T15:48:11Z" uid="6975" user="ulfl" changeset="43778" lat="49.4612763" lon="11.0987388">
    <tag k="amenity" v="kindergarden"/>
    <tag k="created_by" v="JOSM"/>
  </node>
  <node id="119181909" version="3" timestamp="2008-03-10T18:59:56Z" uid="17099" user="matmai" changeset="298873" lat="49.4613271" lon="11.098981">
    <tag k="amenity" v="kindergarden"/>
    <tag k="created_by" v="JOSM"/>
  </node>
  <node id="119181909" version="4" timestamp="2008-07-13T00:25:53Z" uid="6975" user="ulfl" changeset="472938" lat="49.4613271" lon="11.098981">
    <tag k="amenity" v="kindergarten"/>
    <tag k="created_by" v="JOSM"/>
  </node>
  <node id="119181909" version="5" timestamp="2009-04-14T19:45:58Z" uid="17099" user="matmai" changeset="526725" lat="49.4613271" lon="11.098981">
    <tag k="addr:city" v="Nürnberg"/>
    <tag k="addr:country" v="DE"/>
    <tag k="addr:housenumber" v="6"/>
    <tag k="addr:postcode" v="90489"/>
    <tag k="addr:street" v="Fenitzerplatz"/>
    <tag k="amenity" v="kindergarten"/>
    <tag k="created_by" v="JOSM"/>
  </node>
  <node id="119181909" version="6" timestamp="2011-01-13T17:46:16Z" uid="238266" user="bangla" changeset="6959514" lat="49.4613271" lon="11.098981">
    <tag k="addr:city" v="Nürnberg"/>
    <tag k="addr:country" v="DE"/>
    <tag k="addr:housenumber" v="6"/>
    <tag k="addr:postcode" v="90489"/>
    <tag k="addr:street" v="Fenitzerplatz"/>
    <tag k="amenity" v="kindergarten"/>
  </node>
  <node id="119181909" version="7" timestamp="2011-10-30T09:42:20Z" uid="346758" user="kukuk" changeset="9691827" lat="49.4614052" lon="11.0989082">
    <tag k="addr:city" v="Nürnberg"/>
    <tag k="addr:country" v="DE"/>
    <tag k="addr:housenumber" v="6"/>
    <tag k="addr:postcode" v="90489"/>
    <tag k="addr:street" v="Fenitzerplatz"/>
    <tag k="amenity" v="kindergarten"/>
  </node>
  <node id="119181909" version="8" timestamp="2012-01-07T02:37:56Z" uid="71557" user="Taroc" changeset="10318022" lat="49.4614052" lon="11.0989082"/>
</osm>
