<?xml version='1.0' encoding='UTF-8'?>
<osm version="0.6" generator="libosmium/2.20.0">
  <node id="120134231" version="1" timestamp="2007-11-17T20:57:54Z" uid="8619" user="cetest" changeset="545824" lat="51.9899826" lon="4.3547304">
    <tag k="created_by" v="JOSM"/>
    <tag k="highway" v="bus_halt"/>
    <tag k="name" v="Voorhofdreef"/>
  </node>
  <node id="120134231" version="2" timestamp="2008-03-16T20:52:13Z" uid="8619" user="cetest" changeset="334768" lat="51.9899826" lon="4.3547304">
    <tag k="created_by" v="JOSM"/>
    <tag k="highway" v="bus_stop"/>
    <tag k="name" v="Voorhofdreef"/>
  </node>
  <node id="120134231" version="3" timestamp="2008-08-13T15:32:27Z" uid="8619" user="cetest" changeset="226374" lat="51.9899826" lon="4.3547304">
    <tag k="bicycle" v="no"/>
    <tag k="created_by" v="JOSM"/>
    <tag k="foot" v="no"/>
    <tag k="highway" v="bus_stop"/>
    <tag k="name" v="Voorhofdreef"/>
  </node>
  <node id="120134231" version="4" timestamp="2008-11-06T18:11:51Z" uid="8619" user="cetest" changeset="694620" lat="51.9899826" lon="4.3547304">
    <tag k="bicycle" v="no"/>
    <tag k="created_by" v="JOSM"/>
    <tag k="highway" v="bus_stop"/>
    <tag k="name" v="Voorhofdreef"/>
  </node>
  <node id="120134231" version="5" timestamp="2009-08-18T13:49:03Z" uid="2758" user="Stefan de Konink" changeset="2190060" lat="51.9899826" lon="4.3547304">
    <tag k="bicycle" v="no"/>
    <tag k="created_by" v="JOSM"/>
    <tag k="highway" v="bus_stop"/>
    <tag k="name" v="Voorhofdreef"/>
    <tag k="zone" v="5426"/>
  </node>
  <node id="120134231" version="6" timestamp="2009-12-13T21:27:42Z" uid="161542" user="textlijn" changeset="3367312" lat="51.9900233" lon="4.3547003">
    <tag k="bicycle" v="no"/>
    <tag k="highway" v="bus_stop"/>
    <tag k="name" v="Voorhofdreef"/>
    <tag k="zone" v="5426"/>
  </node>
  <node id="120134231" version="7" timestamp="2010-01-09T12:59:43Z" uid="26230" user="BugBlue" changeset="3577446" lat="51.9900233" lon="4.3547003"/>
  <node id="120134231" version="8" timestamp="2010-02-17T18:40:39Z" uid="161542" user="textlijn" changeset="3903137" lat="51.9900233" lon="4.3547003"/>
  <node id="120134233" version="1" timestamp="2007-11-17T20:57:54Z" uid="8619" user="cetest" changeset="545824" lat="51.9945513" lon="4.3549992">
    <tag k="created_by" v="JOSM"/>
    <tag k="highway" v="bus_halt"/>
    <tag k="name" v="Menno ter Braaklaan"/>
  </node>
  <node id="120134233" version="2" timestamp="2007-11-25T09:49:28Z" uid="8619" user="cetest" changeset="613686" lat="51.9945438" lon="4.3550029">
    <tag k="created_by" v="JOSM"/>
    <tag k="highway" v="bus_halt"/>
    <tag k="name" v="Menno ter Braaklaan"/>
  </node>
  <node id="120134233" version="3" timestamp="2008-03-16T20:52:13Z" uid="8619" user="cetest" changeset="334768" lat="51.9945438" lon="4.3550029">
    <tag k="created_by" v="JOSM"/>
    <tag k="highway" v="bus_stop"/>
    <tag k="name" v="Menno ter Braaklaan"/>
  </node>
  <node id="120134233" version="4" timestamp="2009-08-18T13:49:06Z" uid="2758" user="Stefan de Konink" changeset="2190060" lat="51.9945438" lon="4.3550029">
    <tag k="created_by" v="JOSM"/>
    <tag k="highway" v="bus_stop"/>
    <tag k="name" v="Menno ter Braaklaan"/>
    <tag k="zone" v="5426"/>
  </node>
  <node id="120134233" version="5" timestamp="2010-01-09T12:59:43Z" uid="26230" user="BugBlue" changeset="3577446" lat="51.9945438" lon="4.3550029"/>
  <node id="120134233" version="6" timestamp="2010-01-15T15:21:48Z" uid="161542" user="textlijn" changeset="3624969" lat="51.9945438" lon="4.3550029"/>
</osm>
