<?xml version='1.0' encoding='UTF-8'?>
<osm version="0.6" generator="libosmium/2.20.0">
  <node id="120159830" version="1" timestamp="2007-11-17T21:12:57Z" uid="18775" user="drlizau" changeset="547943" lat="-34.2880168" lon="146.0468233">
    <tag k="created_by" v="JOSM"/>
    <tag k="name" v="Griffith"/>
    <tag k="place" v="town"/>
  </node>
  <node id="120159830" version="2" timestamp="2007-11-21T06:55:01Z" uid="19626" user="Swamp" changeset="582687" lat="-34.2877679" lon="146.0468346">
    <tag k="created_by" v="JOSM"/>
    <tag k="name" v="Griffith"/>
    <tag k="place" v="town"/>
  </node>
  <node id="120159830" version="3" timestamp="2007-11-22T08:41:05Z" uid="18775" user="drlizau" changeset="591623" lat="-34.2877679" lon="146.0468346">
    <tag k="created_by" v="JOSM"/>
    <tag k="name" v="Griffith"/>
    <tag k="place" v="city"/>
  </node>
  <node id="120159830" version="4" timestamp="2008-01-16T04:46:16Z" uid="24090" user="Craigy_79" changeset="649930" lat="-34.2877638" lon="146.0468328">
    <tag k="created_by" v="Potlatch 0.6b"/>
    <tag k="name" v="Griffith"/>
    <tag k="place" v="city"/>
  </node>
  <node id="120159830" version="5" timestamp="2008-03-03T21:27:05Z" uid="18775" user="drlizau" changeset="263253" lat="-34.2877638" lon="146.0468328">
    <tag k="amenity" v="post_office"/>
    <tag k="created_by" v="Potlatch 0.6b"/>
    <tag k="name" v="Griffith"/>
    <tag k="place" v="city"/>
  </node>
  <node id="120159830" version="6" timestamp="2008-03-28T11:22:44Z" uid="19626" user="Swamp" changeset="413443" lat="-34.2877924" lon="146.0468471">
    <tag k="amenity" v="post_office"/>
    <tag k="created_by" v="Potlatch 0.6b"/>
    <tag k="name" v="Griffith"/>
    <tag k="place" v="city"/>
  </node>
  <node id="120159830" version="7" timestamp="2008-04-25T11:10:09Z" uid="19626" user="Swamp" changeset="254805" lat="-34.2877924" lon="146.0468471">
    <tag k="amenity" v="post_office"/>
    <tag k="created_by" v="Potlatch 0.6b"/>
    <tag k="name" v="Griffith"/>
    <tag k="place" v="city"/>
  </node>
  <node id="120159830" version="8" timestamp="2008-10-14T09:15:46Z" uid="308" user="MichaelCollinson" changeset="321487" lat="-34.2877924" lon="146.0468471">
    <tag k="amenity" v="post_office"/>
    <tag k="is_in:country" v="Australia"/>
    <tag k="is_in:country_code" v="au"/>
    <tag k="name" v="Griffith"/>
    <tag k="place" v="city"/>
  </node>
  <node id="120159830" version="9" timestamp="2008-11-05T18:08:12Z" uid="308" user="MichaelCollinson" changeset="685958" lat="-34.2877924" lon="146.0468471">
    <tag k="amenity" v="post_office"/>
    <tag k="is_in:continent" v="Australia"/>
    <tag k="is_in:country" v="Australia"/>
    <tag k="is_in:country_code" v="au"/>
    <tag k="name" v="Griffith"/>
    <tag k="place" v="city"/>
  </node>
  <node id="120159830" version="10" timestamp="2008-11-16T09:48:04Z" uid="18775" user="drlizau" changeset="756879" lat="-34.287878" lon="146.046836">
    <tag k="amenity" v="post_office"/>
    <tag k="is_in:continent" v="Australia"/>
    <tag k="is_in:country" v="Australia"/>
    <tag k="is_in:country_code" v="au"/>
    <tag k="name" v="Griffith"/>
    <tag k="place" v="city"/>
  </node>
  <node id="120159830" version="11" timestamp="2008-11-16T10:32:58Z" uid="18775" user="drlizau" changeset="756879" lat="-34.287878" lon="146.046836">
    <tag k="amenity" v="post_office"/>
    <tag k="is_in:continent" v="Australia"/>
    <tag k="is_in:country" v="Australia"/>
    <tag k="is_in:country_code" v="au"/>
    <tag k="name" v="Griffith"/>
    <tag k="place" v="city"/>
  </node>
  <node id="120159830" version="12" timestamp="2008-11-16T11:27:02Z" uid="18775" user="drlizau" changeset="756879" lat="-34.287878" lon="146.046836">
    <tag k="amenity" v="post_office"/>
    <tag k="is_in:continent" v="Australia"/>
    <tag k="is_in:country" v="Australia"/>
    <tag k="is_in:country_code" v="au"/>
    <tag k="name" v="Griffith"/>
    <tag k="place" v="city"/>
    <tag k="source" v="survey"/>
  </node>
  <node id="120159830" version="13" timestamp="2009-07-28T00:42:57Z" uid="18775" user="drlizau" changeset="1960754" lat="-34.287878" lon="146.046836">
    <tag k="is_in:continent" v="Australia"/>
    <tag k="is_in:country" v="Australia"/>
    <tag k="is_in:country_code" v="au"/>
    <tag k="name" v="Griffith"/>
    <tag k="place" v="city"/>
    <tag k="source" v="survey"/>
  </node>
  <node id="120159830" version="14" timestamp="2009-08-16T07:51:03Z" uid="18775" user="drlizau" changeset="2161156" lat="-34.2878405" lon="146.0468933">
    <tag k="is_in:continent" v="Australia"/>
    <tag k="is_in:country" v="Australia"/>
    <tag k="is_in:country_code" v="au"/>
    <tag k="name" v="Griffith"/>
    <tag k="place" v="city"/>
    <tag k="source" v="survey"/>
  </node>
  <node id="120159830" version="15" timestamp="2012-07-19T08:07:12Z" uid="722137" user="OSMF Redaction Account" changeset="12313195" lat="-34.2878405" lon="146.0468933"/>
</osm>
