<?xml version='1.0' encoding='UTF-8'?>
<osm version="0.6" generator="libosmium/2.20.0">
  <node id="1228699035" version="1" timestamp="2011-04-02T01:32:26Z" uid="7617" user="Franc" changeset="7740669" lat="-33.892926" lon="151.1591644">
    <tag k="addr:housenumber" v="106"/>
    <tag k="addr:street" v="Douglas Street"/>
    <tag k="source" v="survey"/>
  </node>
  <node id="1228699035" version="2" timestamp="2012-02-13T05:25:23Z" uid="7523" user="inas" changeset="10670291" lat="-33.892926" lon="151.1591644"/>
  <node id="1228699037" version="1" timestamp="2011-04-02T01:32:26Z" uid="7617" user="Franc" changeset="7740669" lat="-33.8923141" lon="151.1715849">
    <tag k="addr:housenumber" v="110"/>
    <tag k="addr:street" v="Cardigan Street"/>
    <tag k="source" v="exrapolation"/>
  </node>
  <node id="1228699037" version="2" timestamp="2011-05-06T10:28:56Z" uid="7617" user="Franc" changeset="8064166" lat="-33.8923141" lon="151.1715849">
    <tag k="addr:housenumber" v="110"/>
    <tag k="addr:street" v="Cardigan Street"/>
    <tag k="source" v="extrapolation"/>
  </node>
  <node id="1228699037" version="3" timestamp="2012-02-13T05:25:28Z" uid="7523" user="inas" changeset="10670291" lat="-33.8923141" lon="151.1715849"/>
  <node id="1228699038" version="1" timestamp="2011-04-02T01:32:26Z" uid="7617" user="Franc" changeset="7740669" lat="-33.8942019" lon="151.1709827">
    <tag k="addr:housenumber" v="151"/>
    <tag k="addr:street" v="Cardigan Street"/>
    <tag k="source" v="survey"/>
  </node>
  <node id="1228699038" version="2" timestamp="2012-02-13T05:25:48Z" uid="7523" user="inas" changeset="10670291" lat="-33.8942019" lon="151.1709827"/>
  <node id="1228699042" version="1" timestamp="2011-04-02T01:32:26Z" uid="7617" user="Franc" changeset="7740669" lat="-33.8952377" lon="151.173959"/>
  <node id="1228699043" version="1" timestamp="2011-04-02T01:32:27Z" uid="7617" user="Franc" changeset="7740669" lat="-33.9195029" lon="151.1448593">
    <tag k="addr:housenumber" v="512"/>
    <tag k="addr:street" v="Illawarra Road"/>
    <tag k="source" v="survey"/>
  </node>
  <node id="1228699043" version="2" timestamp="2012-02-13T05:13:53Z" uid="7523" user="inas" changeset="10670260" lat="-33.9195029" lon="151.1448593"/>
  <node id="1228699046" version="1" timestamp="2011-04-02T01:32:27Z" uid="7617" user="Franc" changeset="7740669" lat="-33.8933229" lon="151.1609344">
    <tag k="addr:housenumber" v="66"/>
    <tag k="addr:street" v="Douglas Street"/>
    <tag k="source" v="survey"/>
  </node>
  <node id="1228699046" version="2" timestamp="2012-02-13T05:27:50Z" uid="7523" user="inas" changeset="10670291" lat="-33.8933229" lon="151.1609344"/>
  <node id="1228699048" version="1" timestamp="2011-04-02T01:32:27Z" uid="7617" user="Franc" changeset="7740669" lat="-33.8932323" lon="151.1714218">
    <tag k="addr:housenumber" v="124a"/>
    <tag k="addr:street" v="Cardigan Street"/>
    <tag k="source" v="survey"/>
  </node>
  <node id="1228699048" version="2" timestamp="2012-02-13T05:25:36Z" uid="7523" user="inas" changeset="10670291" lat="-33.8932323" lon="151.1714218"/>
  <node id="1228699049" version="1" timestamp="2011-04-02T01:32:27Z" uid="7617" user="Franc" changeset="7740669" lat="-33.8940563" lon="151.17101">
    <tag k="addr:housenumber" v="147"/>
    <tag k="addr:street" v="Cardigan Street"/>
    <tag k="source" v="exrapolation"/>
  </node>
  <node id="1228699049" version="2" timestamp="2011-05-29T08:31:53Z" uid="7617" user="Franc" changeset="8278454" lat="-33.8940563" lon="151.17101">
    <tag k="addr:housenumber" v="147"/>
    <tag k="addr:street" v="Cardigan Street"/>
    <tag k="source" v="extrapolation"/>
  </node>
  <node id="1228699049" version="3" timestamp="2012-02-13T05:25:46Z" uid="7523" user="inas" changeset="10670291" lat="-33.8940563" lon="151.17101"/>
  <node id="1228699051" version="1" timestamp="2011-04-02T01:32:27Z" uid="7617" user="Franc" changeset="7740669" lat="-33.8942768" lon="151.1742686"/>
  <node id="1228699053" version="1" timestamp="2011-04-02T01:32:27Z" uid="7617" user="Franc" changeset="7740669" lat="-33.9171639" lon="151.1657157">
    <tag k="addr:housenumber" v="292"/>
    <tag k="addr:street" v="Unwins Bridge Road"/>
    <tag k="source" v="survey"/>
  </node>
  <node id="1228699053" version="2" timestamp="2012-02-16T03:08:40Z" uid="7523" user="inas" changeset="10698492" lat="-33.9171639" lon="151.1657157"/>
  <node id="1228699058" version="1" timestamp="2011-04-02T01:32:27Z" uid="7617" user="Franc" changeset="7740669" lat="-33.8954676" lon="151.1743271"/>
  <node id="1228699059" version="1" timestamp="2011-04-02T01:32:27Z" uid="7617" user="Franc" changeset="7740669" lat="-33.8920311" lon="151.1716453">
    <tag k="addr:housenumber" v="104"/>
    <tag k="addr:street" v="Cardigan Street"/>
    <tag k="source" v="exrapolation"/>
  </node>
  <node id="1228699059" version="2" timestamp="2011-05-06T10:29:01Z" uid="7617" user="Franc" changeset="8064166" lat="-33.8920311" lon="151.1716453">
    <tag k="addr:housenumber" v="104"/>
    <tag k="addr:street" v="Cardigan Street"/>
    <tag k="source" v="extrapolation"/>
  </node>
  <node id="1228699059" version="3" timestamp="2012-02-13T05:25:22Z" uid="7523" user="inas" changeset="10670291" lat="-33.8920311" lon="151.1716453"/>
  <node id="1228699060" version="1" timestamp="2011-04-02T01:32:27Z" uid="7617" user="Franc" changeset="7740669" lat="-33.8932007" lon="151.1603785">
    <tag k="addr:housenumber" v="80"/>
    <tag k="addr:street" v="Douglas Street"/>
    <tag k="source" v="survey"/>
  </node>
  <node id="1228699060" version="2" timestamp="2012-02-13T05:28:08Z" uid="7523" user="inas" changeset="10670291" lat="-33.8932007" lon="151.1603785"/>
  <node id="1228699062" version="1" timestamp="2011-04-02T01:32:27Z" uid="7617" user="Franc" changeset="7740669" lat="-33.8917153" lon="151.1724032">
    <tag k="addr:housenumber" v="3"/>
    <tag k="addr:street" v="Kingston Road"/>
    <tag k="source" v="exrapolation"/>
  </node>
  <node id="1228699062" version="2" timestamp="2011-05-06T10:29:00Z" uid="7617" user="Franc" changeset="8064166" lat="-33.8917153" lon="151.1724032">
    <tag k="addr:housenumber" v="3"/>
    <tag k="addr:street" v="Kingston Road"/>
    <tag k="source" v="extrapolation"/>
  </node>
  <node id="1228699063" version="1" timestamp="2011-04-02T01:32:27Z" uid="7617" user="Franc" changeset="7740669" lat="-33.8938054" lon="151.1710731">
    <tag k="addr:housenumber" v="141"/>
    <tag k="addr:street" v="Cardigan Street"/>
    <tag k="source" v="exrapolation"/>
  </node>
  <node id="1228699063" version="2" timestamp="2011-05-29T08:32:23Z" uid="7617" user="Franc" changeset="8278454" lat="-33.8938054" lon="151.1710731">
    <tag k="addr:housenumber" v="141"/>
    <tag k="addr:street" v="Cardigan Street"/>
    <tag k="source" v="extrapolation"/>
  </node>
  <node id="1228699063" version="3" timestamp="2012-02-13T05:25:44Z" uid="7523" user="inas" changeset="10670291" lat="-33.8938054" lon="151.1710731"/>
  <node id="1228699065" version="1" timestamp="2011-04-02T01:32:27Z" uid="7617" user="Franc" changeset="7740669" lat="-33.893265" lon="151.1711729">
    <tag k="addr:housenumber" v="127"/>
    <tag k="addr:street" v="Cardigan Street"/>
    <tag k="source" v="exrapolation"/>
  </node>
  <node id="1228699065" version="2" timestamp="2011-05-29T08:33:20Z" uid="7617" user="Franc" changeset="8278454" lat="-33.893265" lon="151.1711729">
    <tag k="addr:housenumber" v="127"/>
    <tag k="addr:street" v="Cardigan Street"/>
    <tag k="source" v="extrapolation"/>
  </node>
  <node id="1228699065" version="3" timestamp="2012-02-13T05:25:37Z" uid="7523" user="inas" changeset="10670291" lat="-33.893265" lon="151.1711729"/>
  <node id="1228699070" version="1" timestamp="2011-04-02T01:32:28Z" uid="7617" user="Franc" changeset="7740669" lat="-33.8935587" lon="151.1713431">
    <tag k="addr:housenumber" v="134"/>
    <tag k="addr:street" v="Cardigan Street"/>
    <tag k="source" v="exrapolation"/>
  </node>
  <node id="1228699070" version="2" timestamp="2011-05-29T08:32:09Z" uid="7617" user="Franc" changeset="8278454" lat="-33.8935587" lon="151.1713431">
    <tag k="addr:housenumber" v="134"/>
    <tag k="addr:street" v="Cardigan Street"/>
    <tag k="source" v="extrapolation"/>
  </node>
  <node id="1228699070" version="3" timestamp="2012-02-13T05:25:40Z" uid="7523" user="inas" changeset="10670291" lat="-33.8935587" lon="151.1713431"/>
  <node id="1228699072" version="1" timestamp="2011-04-02T01:32:28Z" uid="7617" user="Franc" changeset="7740669" lat="-33.8960478" lon="151.1742961"/>
  <node id="1228699074" version="1" timestamp="2011-04-02T01:32:28Z" uid="7617" user="Franc" changeset="7740669" lat="-33.8946015" lon="151.1712758">
    <tag k="addr:housenumber" v="2"/>
    <tag k="addr:street" v="Railway Avenue"/>
    <tag k="source" v="exrapolation"/>
  </node>
  <node id="1228699074" version="2" timestamp="2011-05-29T08:33:28Z" uid="7617" user="Franc" changeset="8278454" lat="-33.8946015" lon="151.1712758">
    <tag k="addr:housenumber" v="2"/>
    <tag k="addr:street" v="Railway Avenue"/>
    <tag k="source" v="extrapolation"/>
  </node>
  <node id="1228699074" version="3" timestamp="2012-02-13T05:26:09Z" uid="7523" user="inas" changeset="10670291" lat="-33.8946015" lon="151.1712758"/>
  <node id="1228699075" version="1" timestamp="2011-04-02T01:32:28Z" uid="7617" user="Franc" changeset="7740669" lat="-33.8929068" lon="151.1590866">
    <tag k="addr:housenumber" v="108"/>
    <tag k="addr:street" v="Douglas Street"/>
    <tag k="source" v="exrapolation"/>
  </node>
  <node id="1228699075" version="2" timestamp="2011-05-29T08:32:38Z" uid="7617" user="Franc" changeset="8278454" lat="-33.8929068" lon="151.1590866">
    <tag k="addr:housenumber" v="108"/>
    <tag k="addr:street" v="Douglas Street"/>
    <tag k="source" v="extrapolation"/>
  </node>
  <node id="1228699075" version="3" timestamp="2012-02-13T05:25:24Z" uid="7523" user="inas" changeset="10670291" lat="-33.8929068" lon="151.1590866"/>
  <node id="1228699077" version="1" timestamp="2011-04-02T01:32:28Z" uid="7617" user="Franc" changeset="7740669" lat="-33.8958167" lon="151.1742766"/>
  <node id="1228699078" version="1" timestamp="2011-04-02T01:32:28Z" uid="7617" user="Franc" changeset="7740669" lat="-33.8927644" lon="151.1714825">
    <tag k="addr:housenumber" v="120"/>
    <tag k="addr:street" v="Cardigan Street"/>
    <tag k="source" v="exrapolation"/>
  </node>
  <node id="1228699078" version="2" timestamp="2011-05-29T08:33:08Z" uid="7617" user="Franc" changeset="8278454" lat="-33.8927644" lon="151.1714825">
    <tag k="addr:housenumber" v="120"/>
    <tag k="addr:street" v="Cardigan Street"/>
    <tag k="source" v="extrapolation"/>
  </node>
  <node id="1228699078" version="3" timestamp="2012-02-13T05:25:34Z" uid="7523" user="inas" changeset="10670291" lat="-33.8927644" lon="151.1714825"/>
  <node id="1228699079" version="1" timestamp="2011-04-02T01:32:28Z" uid="7617" user="Franc" changeset="7740669" lat="-33.8946272" lon="151.171595">
    <tag k="addr:housenumber" v="5"/>
    <tag k="addr:street" v="Railway Avenue"/>
    <tag k="source" v="survey"/>
  </node>
  <node id="1228699079" version="2" timestamp="2012-02-13T05:27:29Z" uid="7523" user="inas" changeset="10670291" lat="-33.8946272" lon="151.171595"/>
  <node id="1228699083" version="1" timestamp="2011-04-02T01:32:28Z" uid="7617" user="Franc" changeset="7740669" lat="-33.9171142" lon="151.1657914">
    <tag k="amenity" v="cafe"/>
    <tag k="name" v="Rosa`s Kitchen"/>
  </node>
  <node id="1228699083" version="2" timestamp="2011-05-22T09:07:55Z" uid="7617" user="Franc" changeset="8213765" lat="-33.9171299" lon="151.1658115">
    <tag k="amenity" v="cafe"/>
    <tag k="name" v="Rosa`s Kitchen"/>
  </node>
  <node id="1228699085" version="1" timestamp="2011-04-02T01:32:28Z" uid="7617" user="Franc" changeset="7740669" lat="-33.8915581" lon="151.1714802">
    <tag k="addr:housenumber" v="89"/>
    <tag k="addr:street" v="Cardigan Street"/>
    <tag k="source" v="survey"/>
  </node>
  <node id="1228699085" version="2" timestamp="2011-05-30T10:35:50Z" uid="7617" user="Franc" changeset="8290686" lat="-33.8908749" lon="151.1717363">
    <tag k="addr:housenumber" v="83"/>
    <tag k="addr:street" v="Cardigan Street"/>
    <tag k="source" v="survey"/>
  </node>
  <node id="1228699085" version="3" timestamp="2012-02-13T05:28:10Z" uid="7523" user="inas" changeset="10670291" lat="-33.8908749" lon="151.1717363"/>
  <node id="1228699088" version="1" timestamp="2011-04-02T01:32:28Z" uid="7617" user="Franc" changeset="7740669" lat="-33.9202549" lon="151.1410655">
    <tag k="addr:housenumber" v="37"/>
    <tag k="addr:street" v="Wharf Street"/>
    <tag k="source" v="survey"/>
  </node>
  <node id="1228699088" version="2" timestamp="2012-02-13T05:13:34Z" uid="7523" user="inas" changeset="10670260" lat="-33.9202549" lon="151.1410655"/>
  <node id="1228699089" version="1" timestamp="2011-04-02T01:32:28Z" uid="7617" user="Franc" changeset="7740669" lat="-33.9195757" lon="151.1448092">
    <tag k="addr:housenumber" v="514"/>
    <tag k="addr:street" v="Illawarra Road"/>
    <tag k="source" v="survey"/>
  </node>
  <node id="1228699089" version="2" timestamp="2012-02-13T05:13:53Z" uid="7523" user="inas" changeset="10670260" lat="-33.9195757" lon="151.1448092"/>
  <node id="1228699091" version="1" timestamp="2011-04-02T01:32:28Z" uid="7617" user="Franc" changeset="7740669" lat="-33.8933091" lon="151.1608698">
    <tag k="addr:housenumber" v="68"/>
    <tag k="addr:street" v="Douglas Street"/>
    <tag k="source" v="survey"/>
  </node>
  <node id="1228699091" version="2" timestamp="2012-02-13T05:27:51Z" uid="7523" user="inas" changeset="10670291" lat="-33.8933091" lon="151.1608698"/>
  <node id="1228699093" version="1" timestamp="2011-04-02T01:32:28Z" uid="7617" user="Franc" changeset="7740669" lat="-33.8935311" lon="151.1711162">
    <tag k="addr:housenumber" v="135"/>
    <tag k="addr:street" v="Cardigan Street"/>
    <tag k="source" v="exrapolation"/>
  </node>
  <node id="1228699093" version="2" timestamp="2011-05-29T08:33:31Z" uid="7617" user="Franc" changeset="8278454" lat="-33.8935311" lon="151.1711162">
    <tag k="addr:housenumber" v="135"/>
    <tag k="addr:street" v="Cardigan Street"/>
    <tag k="source" v="extrapolation"/>
  </node>
  <node id="1228699093" version="3" timestamp="2012-02-13T05:25:41Z" uid="7523" user="inas" changeset="10670291" lat="-33.8935311" lon="151.1711162"/>
  <node id="1228699097" version="1" timestamp="2011-04-02T01:32:29Z" uid="7617" user="Franc" changeset="7740669" lat="-33.8947845" lon="151.1713002">
    <tag k="addr:housenumber" v="7"/>
    <tag k="addr:street" v="Railway Avenue"/>
    <tag k="source" v="survey"/>
  </node>
  <node id="1228699097" version="2" timestamp="2012-02-13T05:27:55Z" uid="7523" user="inas" changeset="10670291" lat="-33.8947845" lon="151.1713002"/>
  <node id="1228699098" version="1" timestamp="2011-04-02T01:32:29Z" uid="7617" user="Franc" changeset="7740669" lat="-33.8928505" lon="151.17125">
    <tag k="addr:housenumber" v="119"/>
    <tag k="addr:street" v="Cardigan Street"/>
    <tag k="source" v="survey"/>
  </node>
  <node id="1228699098" version="2" timestamp="2012-02-13T05:25:31Z" uid="7523" user="inas" changeset="10670291" lat="-33.8928505" lon="151.17125"/>
  <node id="1228699099" version="1" timestamp="2011-04-02T01:32:29Z" uid="7617" user="Franc" changeset="7740669" lat="-33.8939479" lon="151.1712815">
    <tag k="addr:housenumber" v="142"/>
    <tag k="addr:street" v="Cardigan Street"/>
    <tag k="source" v="exrapolation"/>
  </node>
  <node id="1228699099" version="2" timestamp="2011-05-29T08:32:59Z" uid="7617" user="Franc" changeset="8278454" lat="-33.8939479" lon="151.1712815">
    <tag k="addr:housenumber" v="142"/>
    <tag k="addr:street" v="Cardigan Street"/>
    <tag k="source" v="extrapolation"/>
  </node>
  <node id="1228699099" version="3" timestamp="2012-02-13T05:25:45Z" uid="7523" user="inas" changeset="10670291" lat="-33.8939479" lon="151.1712815"/>
  <node id="1228699100" version="1" timestamp="2011-04-02T01:32:29Z" uid="7617" user="Franc" changeset="7740669" lat="-33.8954226" lon="151.1743068"/>
  <node id="1228699101" version="1" timestamp="2011-04-02T01:32:29Z" uid="7617" user="Franc" changeset="7740669" lat="-33.8945089" lon="151.1702965"/>
  <node id="1228699103" version="1" timestamp="2011-04-02T01:32:29Z" uid="7617" user="Franc" changeset="7740669" lat="-33.9200811" lon="151.1444509">
    <tag k="addr:housenumber" v="524"/>
    <tag k="addr:street" v="Illawarra Road"/>
    <tag k="source" v="survey"/>
  </node>
  <node id="1228699103" version="2" timestamp="2011-04-23T12:54:10Z" uid="7617" user="Franc" changeset="7943317" lat="-33.9201437" lon="151.1444059">
    <tag k="addr:housenumber" v="526"/>
    <tag k="addr:street" v="Illawarra Road"/>
    <tag k="source" v="survey"/>
  </node>
  <node id="1228699103" version="3" timestamp="2012-02-13T04:45:09Z" uid="7523" user="inas" changeset="10670200" lat="-33.9201437" lon="151.1444059"/>
  <node id="1228699108" version="1" timestamp="2011-04-02T01:32:29Z" uid="7617" user="Franc" changeset="7740669" lat="-33.9167057" lon="151.1661612"/>
  <node id="1228699110" version="1" timestamp="2011-04-02T01:32:29Z" uid="7617" user="Franc" changeset="7740669" lat="-33.8940145" lon="151.1744941"/>
  <node id="1228699111" version="1" timestamp="2011-04-02T01:32:29Z" uid="7617" user="Franc" changeset="7740669" lat="-33.8925081" lon="151.1715364">
    <tag k="addr:housenumber" v="114"/>
    <tag k="addr:street" v="Cardigan Street"/>
    <tag k="source" v="exrapolation"/>
  </node>
  <node id="1228699111" version="2" timestamp="2011-05-29T08:33:04Z" uid="7617" user="Franc" changeset="8278454" lat="-33.8925081" lon="151.1715364">
    <tag k="addr:housenumber" v="114"/>
    <tag k="addr:street" v="Cardigan Street"/>
    <tag k="source" v="extrapolation"/>
  </node>
  <node id="1228699111" version="3" timestamp="2012-02-13T05:25:29Z" uid="7523" user="inas" changeset="10670291" lat="-33.8925081" lon="151.1715364"/>
  <node id="1228699113" version="1" timestamp="2011-04-02T01:32:29Z" uid="7617" user="Franc" changeset="7740669" lat="-33.8933805" lon="151.1711475">
    <tag k="addr:housenumber" v="131"/>
    <tag k="addr:street" v="Cardigan Street"/>
    <tag k="source" v="exrapolation"/>
  </node>
  <node id="1228699113" version="2" timestamp="2011-05-29T08:32:10Z" uid="7617" user="Franc" changeset="8278454" lat="-33.8933805" lon="151.1711475">
    <tag k="addr:housenumber" v="131"/>
    <tag k="addr:street" v="Cardigan Street"/>
    <tag k="source" v="extrapolation"/>
  </node>
  <node id="1228699113" version="3" timestamp="2012-02-13T05:25:40Z" uid="7523" user="inas" changeset="10670291" lat="-33.8933805" lon="151.1711475"/>
  <node id="1228699114" version="1" timestamp="2011-04-02T01:32:29Z" uid="7617" user="Franc" changeset="7740669" lat="-33.8937637" lon="151.1713123">
    <tag k="addr:housenumber" v="138"/>
    <tag k="addr:street" v="Cardigan Street"/>
    <tag k="source" v="exrapolation"/>
  </node>
  <node id="1228699114" version="2" timestamp="2011-05-29T08:33:09Z" uid="7617" user="Franc" changeset="8278454" lat="-33.8937637" lon="151.1713123">
    <tag k="addr:housenumber" v="138"/>
    <tag k="addr:street" v="Cardigan Street"/>
    <tag k="source" v="extrapolation"/>
  </node>
  <node id="1228699114" version="3" timestamp="2012-02-13T05:25:41Z" uid="7523" user="inas" changeset="10670291" lat="-33.8937637" lon="151.1713123"/>
  <node id="1228699117" version="1" timestamp="2011-04-02T01:32:29Z" uid="7617" user="Franc" changeset="7740669" lat="-33.8957967" lon="151.1749573"/>
  <node id="1228699118" version="1" timestamp="2011-04-02T01:32:29Z" uid="7617" user="Franc" changeset="7740669" lat="-33.8917756" lon="151.1723873">
    <tag k="addr:housenumber" v="5"/>
    <tag k="addr:street" v="Kingston Road"/>
    <tag k="source" v="survey"/>
  </node>
  <node id="1228699118" version="2" timestamp="2012-02-16T05:59:40Z" uid="7523" user="inas" changeset="10698901" lat="-33.8917756" lon="151.1723873"/>
  <node id="1228699121" version="1" timestamp="2011-04-02T01:32:29Z" uid="7617" user="Franc" changeset="7740669" lat="-33.8922233" lon="151.1716043">
    <tag k="addr:housenumber" v="108"/>
    <tag k="addr:street" v="Cardigan Street"/>
    <tag k="source" v="exrapolation"/>
  </node>
  <node id="1228699121" version="2" timestamp="2011-05-06T10:29:01Z" uid="7617" user="Franc" changeset="8064166" lat="-33.8922233" lon="151.1716043">
    <tag k="addr:housenumber" v="108"/>
    <tag k="addr:street" v="Cardigan Street"/>
    <tag k="source" v="extrapolation"/>
  </node>
  <node id="1228699121" version="3" timestamp="2012-02-13T05:25:24Z" uid="7523" user="inas" changeset="10670291" lat="-33.8922233" lon="151.1716043"/>
  <node id="1228699124" version="1" timestamp="2011-04-02T01:32:30Z" uid="7617" user="Franc" changeset="7740669" lat="-33.8929638" lon="151.1714394">
    <tag k="addr:housenumber" v="124"/>
    <tag k="addr:street" v="Cardigan Street"/>
    <tag k="source" v="survey"/>
  </node>
  <node id="1228699124" version="2" timestamp="2012-02-13T05:25:36Z" uid="7523" user="inas" changeset="10670291" lat="-33.8929638" lon="151.1714394"/>
  <node id="1228699125" version="1" timestamp="2011-04-02T01:32:30Z" uid="7617" user="Franc" changeset="7740669" lat="-33.8946456" lon="151.1716877">
    <tag k="addr:housenumber" v="3"/>
    <tag k="addr:street" v="Railway Avenue"/>
    <tag k="source" v="survey"/>
  </node>
  <node id="1228699125" version="2" timestamp="2012-02-13T05:26:45Z" uid="7523" user="inas" changeset="10670291" lat="-33.8946456" lon="151.1716877"/>
  <node id="1228699127" version="1" timestamp="2011-04-02T01:32:30Z" uid="7617" user="Franc" changeset="7740669" lat="-33.893986" lon="151.1710277">
    <tag k="addr:housenumber" v="145"/>
    <tag k="addr:street" v="Cardigan Street"/>
    <tag k="source" v="exrapolation"/>
  </node>
  <node id="1228699127" version="2" timestamp="2011-05-29T08:32:39Z" uid="7617" user="Franc" changeset="8278454" lat="-33.893986" lon="151.1710277">
    <tag k="addr:housenumber" v="145"/>
    <tag k="addr:street" v="Cardigan Street"/>
    <tag k="source" v="extrapolation"/>
  </node>
  <node id="1228699127" version="3" timestamp="2012-02-13T05:25:45Z" uid="7523" user="inas" changeset="10670291" lat="-33.893986" lon="151.1710277"/>
  <node id="1228699129" version="1" timestamp="2011-04-02T01:32:30Z" uid="7617" user="Franc" changeset="7740669" lat="-33.8955242" lon="151.1741448"/>
  <node id="1228699130" version="1" timestamp="2011-04-02T01:32:30Z" uid="7617" user="Franc" changeset="7740669" lat="-33.8919751" lon="151.1716539">
    <tag k="addr:housenumber" v="102"/>
    <tag k="addr:street" v="Cardigan Street"/>
    <tag k="source" v="exrapolation"/>
  </node>
  <node id="1228699130" version="2" timestamp="2011-05-06T10:28:59Z" uid="7617" user="Franc" changeset="8064166" lat="-33.8919751" lon="151.1716539">
    <tag k="addr:housenumber" v="102"/>
    <tag k="addr:street" v="Cardigan Street"/>
    <tag k="source" v="extrapolation"/>
  </node>
  <node id="1228699130" version="3" timestamp="2012-02-13T05:25:21Z" uid="7523" user="inas" changeset="10670291" lat="-33.8919751" lon="151.1716539"/>
  <node id="1228699133" version="1" timestamp="2011-04-02T01:32:30Z" uid="7617" user="Franc" changeset="7740669" lat="-33.9196624" lon="151.144749">
    <tag k="addr:housenumber" v="516"/>
    <tag k="addr:street" v="Illawarra Road"/>
    <tag k="source" v="survey"/>
  </node>
  <node id="1228699133" version="2" timestamp="2012-02-13T05:13:53Z" uid="7523" user="inas" changeset="10670260" lat="-33.9196624" lon="151.144749"/>
  <node id="1228699136" version="1" timestamp="2011-04-02T01:32:30Z" uid="7617" user="Franc" changeset="7740669" lat="-33.8933507" lon="151.1713976">
    <tag k="addr:housenumber" v="128"/>
    <tag k="addr:street" v="Cardigan Street"/>
    <tag k="source" v="survey"/>
  </node>
  <node id="1228699136" version="2" timestamp="2012-02-13T05:25:37Z" uid="7523" user="inas" changeset="10670291" lat="-33.8933507" lon="151.1713976"/>
  <node id="1228699137" version="1" timestamp="2011-04-02T01:32:30Z" uid="7617" user="Franc" changeset="7740669" lat="-33.8937218" lon="151.1710868">
    <tag k="addr:housenumber" v="139"/>
    <tag k="addr:street" v="Cardigan Street"/>
    <tag k="source" v="exrapolation"/>
  </node>
  <node id="1228699137" version="2" timestamp="2011-05-29T08:32:44Z" uid="7617" user="Franc" changeset="8278454" lat="-33.8937218" lon="151.1710868">
    <tag k="addr:housenumber" v="139"/>
    <tag k="addr:street" v="Cardigan Street"/>
    <tag k="source" v="extrapolation"/>
  </node>
  <node id="1228699137" version="3" timestamp="2012-02-13T05:25:42Z" uid="7523" user="inas" changeset="10670291" lat="-33.8937218" lon="151.1710868"/>
  <node id="1228699139" version="1" timestamp="2011-04-02T01:32:30Z" uid="7617" user="Franc" changeset="7740669" lat="-33.8955878" lon="151.1732595"/>
  <node id="1228699140" version="1" timestamp="2011-04-02T01:32:30Z" uid="7617" user="Franc" changeset="7740669" lat="-33.8927905" lon="151.1712648">
    <tag k="addr:housenumber" v="117"/>
    <tag k="addr:street" v="Cardigan Street"/>
    <tag k="source" v="survey"/>
  </node>
  <node id="1228699140" version="2" timestamp="2012-02-13T05:25:30Z" uid="7523" user="inas" changeset="10670291" lat="-33.8927905" lon="151.1712648"/>
  <node id="1228699142" version="1" timestamp="2011-04-02T01:32:30Z" uid="7617" user="Franc" changeset="7740669" lat="-33.8934631" lon="151.1713724">
    <tag k="addr:housenumber" v="132"/>
    <tag k="addr:street" v="Cardigan Street"/>
    <tag k="source" v="exrapolation"/>
  </node>
  <node id="1228699142" version="2" timestamp="2011-05-29T08:33:25Z" uid="7617" user="Franc" changeset="8278454" lat="-33.8934631" lon="151.1713724">
    <tag k="addr:housenumber" v="132"/>
    <tag k="addr:street" v="Cardigan Street"/>
    <tag k="source" v="extrapolation"/>
  </node>
  <node id="1228699142" version="3" timestamp="2012-02-13T05:25:40Z" uid="7523" user="inas" changeset="10670291" lat="-33.8934631" lon="151.1713724"/>
  <node id="1228699144" version="1" timestamp="2011-04-02T01:32:30Z" uid="7617" user="Franc" changeset="7740669" lat="-33.8916536" lon="151.1714714">
    <tag k="addr:housenumber" v="91"/>
    <tag k="addr:street" v="Cardigan Street"/>
    <tag k="source" v="exrapolation"/>
  </node>
  <node id="1228699144" version="2" timestamp="2011-05-29T08:32:27Z" uid="7617" user="Franc" changeset="8278454" lat="-33.8916536" lon="151.1714714">
    <tag k="addr:housenumber" v="91"/>
    <tag k="addr:street" v="Cardigan Street"/>
    <tag k="source" v="extrapolation"/>
  </node>
  <node id="1228699144" version="3" timestamp="2012-02-13T05:28:17Z" uid="7523" user="inas" changeset="10670291" lat="-33.8916536" lon="151.1714714"/>
  <node id="1228699149" version="1" timestamp="2011-04-02T01:32:31Z" uid="7617" user="Franc" changeset="7740669" lat="-33.8948807" lon="151.1722509"/>
  <node id="1228699150" version="1" timestamp="2011-04-02T01:32:31Z" uid="7617" user="Franc" changeset="7740669" lat="-33.9197429" lon="151.1446947">
    <tag k="addr:housenumber" v="518"/>
    <tag k="addr:street" v="Illawarra Road"/>
    <tag k="source" v="exrapolation"/>
  </node>
  <node id="1228699150" version="2" timestamp="2011-04-23T12:54:16Z" uid="7617" user="Franc" changeset="7943317" lat="-33.9197429" lon="151.1446947">
    <tag k="addr:housenumber" v="518"/>
    <tag k="addr:street" v="Illawarra Road"/>
    <tag k="source" v="extrapolation"/>
  </node>
  <node id="1228699150" version="3" timestamp="2012-02-13T05:13:53Z" uid="7523" user="inas" changeset="10670260" lat="-33.9197429" lon="151.1446947"/>
  <node id="1228699152" version="1" timestamp="2011-04-02T01:32:31Z" uid="7617" user="Franc" changeset="7740669" lat="-33.920035" lon="151.1444823">
    <tag k="addr:housenumber" v="522"/>
    <tag k="addr:street" v="Illawarra Road"/>
    <tag k="note" v="house at rear"/>
    <tag k="source" v="survey"/>
  </node>
  <node id="1228699152" version="2" timestamp="2012-02-13T05:13:54Z" uid="7523" user="inas" changeset="10670260" lat="-33.920035" lon="151.1444823"/>
  <node id="1228699153" version="1" timestamp="2011-04-02T01:32:31Z" uid="7617" user="Franc" changeset="7740669" lat="-33.9171388" lon="151.1657528">
    <tag k="addr:housenumber" v="290"/>
    <tag k="addr:street" v="Unwins Bridge Road"/>
    <tag k="source" v="survey"/>
  </node>
  <node id="1228699153" version="2" timestamp="2012-02-16T03:08:40Z" uid="7523" user="inas" changeset="10698492" lat="-33.9171388" lon="151.1657528"/>
  <node id="1228699155" version="1" timestamp="2011-04-02T01:32:31Z" uid="7617" user="Franc" changeset="7740669" lat="-33.9202968" lon="151.1411471">
    <tag k="addr:housenumber" v="35"/>
    <tag k="addr:street" v="Wharf Street"/>
    <tag k="source" v="survey"/>
  </node>
  <node id="1228699155" version="2" timestamp="2012-02-13T05:13:32Z" uid="7523" user="inas" changeset="10670260" lat="-33.9202968" lon="151.1411471"/>
  <node id="1228699157" version="1" timestamp="2011-04-02T01:32:31Z" uid="7617" user="Franc" changeset="7740669" lat="-33.8926888" lon="151.1714976">
    <tag k="addr:housenumber" v="118"/>
    <tag k="addr:street" v="Cardigan Street"/>
    <tag k="source" v="exrapolation"/>
  </node>
  <node id="1228699157" version="2" timestamp="2011-05-29T08:32:02Z" uid="7617" user="Franc" changeset="8278454" lat="-33.8926888" lon="151.1714976">
    <tag k="addr:housenumber" v="118"/>
    <tag k="addr:street" v="Cardigan Street"/>
    <tag k="source" v="extrapolation"/>
  </node>
  <node id="1228699157" version="3" timestamp="2012-02-13T05:25:31Z" uid="7523" user="inas" changeset="10670291" lat="-33.8926888" lon="151.1714976"/>
  <node id="1228699160" version="1" timestamp="2011-04-02T01:32:31Z" uid="7617" user="Franc" changeset="7740669" lat="-33.8932013" lon="151.1711865">
    <tag k="addr:housenumber" v="125"/>
    <tag k="addr:street" v="Cardigan Street"/>
    <tag k="source" v="survey"/>
  </node>
  <node id="1228699160" version="2" timestamp="2012-02-13T05:25:36Z" uid="7523" user="inas" changeset="10670291" lat="-33.8932013" lon="151.1711865"/>
  <node id="1228699162" version="1" timestamp="2011-04-02T01:32:31Z" uid="7617" user="Franc" changeset="7740669" lat="-33.8947912" lon="151.174514"/>
  <node id="1228699163" version="1" timestamp="2011-04-02T01:32:31Z" uid="7617" user="Franc" changeset="7740669" lat="-33.8953058" lon="151.174683"/>
  <node id="1228699164" version="1" timestamp="2011-04-02T01:32:31Z" uid="7617" user="Franc" changeset="7740669" lat="-33.8924281" lon="151.1715537">
    <tag k="addr:housenumber" v="112"/>
    <tag k="addr:street" v="Cardigan Street"/>
    <tag k="source" v="exrapolation"/>
  </node>
  <node id="1228699164" version="2" timestamp="2011-05-06T10:29:02Z" uid="7617" user="Franc" changeset="8064166" lat="-33.8924281" lon="151.1715537">
    <tag k="addr:housenumber" v="112"/>
    <tag k="addr:street" v="Cardigan Street"/>
    <tag k="source" v="extrapolation"/>
  </node>
  <node id="1228699164" version="3" timestamp="2012-02-13T05:25:29Z" uid="7523" user="inas" changeset="10670291" lat="-33.8924281" lon="151.1715537"/>
  <node id="1228699167" version="1" timestamp="2011-04-02T01:32:31Z" uid="7617" user="Franc" changeset="7740669" lat="-33.8941249" lon="151.1709984">
    <tag k="addr:housenumber" v="149"/>
    <tag k="addr:street" v="Cardigan Street"/>
    <tag k="source" v="exrapolation"/>
  </node>
  <node id="1228699167" version="2" timestamp="2011-05-29T08:32:53Z" uid="7617" user="Franc" changeset="8278454" lat="-33.8941249" lon="151.1709984">
    <tag k="addr:housenumber" v="149"/>
    <tag k="addr:street" v="Cardigan Street"/>
    <tag k="source" v="extrapolation"/>
  </node>
  <node id="1228699167" version="3" timestamp="2012-02-13T05:25:46Z" uid="7523" user="inas" changeset="10670291" lat="-33.8941249" lon="151.1709984"/>
  <node id="1228699169" version="1" timestamp="2011-04-02T01:32:31Z" uid="7617" user="Franc" changeset="7740669" lat="-33.8941839" lon="151.1745754"/>
  <node id="1228699170" version="1" timestamp="2011-04-02T01:32:31Z" uid="7617" user="Franc" changeset="7740669" lat="-33.893843" lon="151.1712996">
    <tag k="addr:housenumber" v="140"/>
    <tag k="addr:street" v="Cardigan Street"/>
    <tag k="source" v="exrapolation"/>
  </node>
  <node id="1228699170" version="2" timestamp="2011-05-29T08:32:41Z" uid="7617" user="Franc" changeset="8278454" lat="-33.893843" lon="151.1712996">
    <tag k="addr:housenumber" v="140"/>
    <tag k="addr:street" v="Cardigan Street"/>
    <tag k="source" v="extrapolation"/>
  </node>
  <node id="1228699170" version="3" timestamp="2012-02-13T05:25:44Z" uid="7523" user="inas" changeset="10670291" lat="-33.893843" lon="151.1712996"/>
  <node id="1228699175" version="1" timestamp="2011-04-02T01:32:31Z" uid="7617" user="Franc" changeset="7740669" lat="-33.8918417" lon="151.1716777">
    <tag k="addr:housenumber" v="98"/>
    <tag k="addr:street" v="Cardigan Street"/>
    <tag k="source" v="survey"/>
  </node>
  <node id="1228699175" version="2" timestamp="2012-02-13T05:28:21Z" uid="7523" user="inas" changeset="10670291" lat="-33.8918417" lon="151.1716777"/>
  <node id="1228699176" version="1" timestamp="2011-04-02T01:32:32Z" uid="7617" user="Franc" changeset="7740669" lat="-33.9193843" lon="151.1449596">
    <tag k="addr:housenumber" v="510"/>
    <tag k="addr:street" v="Illawarra Road"/>
    <tag k="source" v="survey"/>
  </node>
  <node id="1228699176" version="2" timestamp="2012-02-13T05:13:53Z" uid="7523" user="inas" changeset="10670260" lat="-33.9193843" lon="151.1449596"/>
  <node id="1228699177" version="1" timestamp="2011-04-02T01:32:32Z" uid="7617" user="Franc" changeset="7740669" lat="-33.8932907" lon="151.1714057">
    <tag k="addr:housenumber" v="126"/>
    <tag k="addr:street" v="Cardigan Street"/>
    <tag k="source" v="survey"/>
  </node>
  <node id="1228699177" version="2" timestamp="2012-02-13T05:25:36Z" uid="7523" user="inas" changeset="10670291" lat="-33.8932907" lon="151.1714057"/>
  <node id="1228699179" version="1" timestamp="2011-04-02T01:32:32Z" uid="7617" user="Franc" changeset="7740669" lat="-33.8916362" lon="151.1724188">
    <tag k="addr:housenumber" v="1"/>
    <tag k="addr:street" v="Kingston Road"/>
    <tag k="source" v="exrapolation"/>
  </node>
  <node id="1228699179" version="2" timestamp="2011-05-06T10:28:58Z" uid="7617" user="Franc" changeset="8064166" lat="-33.8916362" lon="151.1724188">
    <tag k="addr:housenumber" v="1"/>
    <tag k="addr:street" v="Kingston Road"/>
    <tag k="source" v="extrapolation"/>
  </node>
  <node id="1228699181" version="1" timestamp="2011-04-02T01:32:32Z" uid="7617" user="Franc" changeset="7740669" lat="-33.8940973" lon="151.1742655"/>
  <node id="1228699182" version="1" timestamp="2011-04-02T01:32:32Z" uid="7617" user="Franc" changeset="7740669" lat="-33.8933203" lon="151.1711592">
    <tag k="addr:housenumber" v="129"/>
    <tag k="addr:street" v="Cardigan Street"/>
    <tag k="source" v="exrapolation"/>
  </node>
  <node id="1228699182" version="2" timestamp="2011-05-29T08:33:04Z" uid="7617" user="Franc" changeset="8278454" lat="-33.8933203" lon="151.1711592">
    <tag k="addr:housenumber" v="129"/>
    <tag k="addr:street" v="Cardigan Street"/>
    <tag k="source" v="extrapolation"/>
  </node>
  <node id="1228699182" version="3" timestamp="2012-02-13T05:25:37Z" uid="7523" user="inas" changeset="10670291" lat="-33.8933203" lon="151.1711592"/>
  <node id="1228699188" version="1" timestamp="2011-04-02T01:32:32Z" uid="7617" user="Franc" changeset="7740669" lat="-33.8929707" lon="151.1712385">
    <tag k="addr:housenumber" v="123"/>
    <tag k="addr:street" v="Cardigan Street"/>
    <tag k="source" v="survey"/>
  </node>
  <node id="1228699188" version="2" timestamp="2012-02-13T05:25:36Z" uid="7523" user="inas" changeset="10670291" lat="-33.8929707" lon="151.1712385"/>
  <node id="1228699189" version="1" timestamp="2011-04-02T01:32:32Z" uid="7617" user="Franc" changeset="7740669" lat="-33.8946536" lon="151.1717666">
    <tag k="addr:housenumber" v="1"/>
    <tag k="addr:street" v="Railway Avenue"/>
    <tag k="source" v="exrapolation"/>
  </node>
  <node id="1228699189" version="2" timestamp="2011-05-29T08:32:46Z" uid="7617" user="Franc" changeset="8278454" lat="-33.8946536" lon="151.1717666">
    <tag k="addr:housenumber" v="1"/>
    <tag k="addr:street" v="Railway Avenue"/>
    <tag k="source" v="extrapolation"/>
  </node>
  <node id="1228699189" version="3" timestamp="2012-02-13T05:25:15Z" uid="7523" user="inas" changeset="10670291" lat="-33.8946536" lon="151.1717666"/>
  <node id="1228699191" version="1" timestamp="2011-04-02T01:32:32Z" uid="7617" user="Franc" changeset="7740669" lat="-33.8936704" lon="151.1713249">
    <tag k="addr:housenumber" v="136"/>
    <tag k="addr:street" v="Cardigan Street"/>
    <tag k="source" v="exrapolation"/>
  </node>
  <node id="1228699191" version="2" timestamp="2011-05-29T08:32:57Z" uid="7617" user="Franc" changeset="8278454" lat="-33.8936704" lon="151.1713249">
    <tag k="addr:housenumber" v="136"/>
    <tag k="addr:street" v="Cardigan Street"/>
    <tag k="source" v="extrapolation"/>
  </node>
  <node id="1228699191" version="3" timestamp="2012-02-13T05:25:41Z" uid="7523" user="inas" changeset="10670291" lat="-33.8936704" lon="151.1713249"/>
  <node id="1228699193" version="1" timestamp="2011-04-02T01:32:32Z" uid="7617" user="Franc" changeset="7740669" lat="-33.9206839" lon="151.1419022">
    <tag k="addr:housenumber" v="17"/>
    <tag k="addr:street" v="Wharf Street"/>
    <tag k="source" v="survey"/>
  </node>
  <node id="1228699193" version="2" timestamp="2012-02-13T04:53:56Z" uid="7523" user="inas" changeset="10670222" lat="-33.9206839" lon="151.1419022"/>
  <node id="1228699194" version="1" timestamp="2011-04-02T01:32:32Z" uid="7617" user="Franc" changeset="7740669" lat="-33.8960587" lon="151.1735745"/>
  <node id="1228699195" version="1" timestamp="2011-04-02T01:32:32Z" uid="7617" user="Franc" changeset="7740669" lat="-33.892129" lon="151.1716237">
    <tag k="addr:housenumber" v="106"/>
    <tag k="addr:street" v="Cardigan Street"/>
    <tag k="source" v="exrapolation"/>
  </node>
  <node id="1228699195" version="2" timestamp="2011-05-06T10:28:58Z" uid="7617" user="Franc" changeset="8064166" lat="-33.892129" lon="151.1716237">
    <tag k="addr:housenumber" v="106"/>
    <tag k="addr:street" v="Cardigan Street"/>
    <tag k="source" v="extrapolation"/>
  </node>
  <node id="1228699195" version="3" timestamp="2012-02-13T05:25:23Z" uid="7523" user="inas" changeset="10670291" lat="-33.892129" lon="151.1716237"/>
  <node id="1228699200" version="1" timestamp="2011-04-02T01:32:32Z" uid="7617" user="Franc" changeset="7740669" lat="-33.8934092" lon="151.171385">
    <tag k="addr:housenumber" v="130"/>
    <tag k="addr:street" v="Cardigan Street"/>
    <tag k="source" v="exrapolation"/>
  </node>
  <node id="1228699200" version="2" timestamp="2011-05-29T08:32:03Z" uid="7617" user="Franc" changeset="8278454" lat="-33.8934092" lon="151.171385">
    <tag k="addr:housenumber" v="130"/>
    <tag k="addr:street" v="Cardigan Street"/>
    <tag k="source" v="extrapolation"/>
  </node>
  <node id="1228699200" version="3" timestamp="2012-02-13T05:25:39Z" uid="7523" user="inas" changeset="10670291" lat="-33.8934092" lon="151.171385"/>
  <node id="1228699202" version="1" timestamp="2011-04-02T01:32:32Z" uid="7617" user="Franc" changeset="7740669" lat="-33.893904" lon="151.1710434">
    <tag k="addr:housenumber" v="143"/>
    <tag k="addr:street" v="Cardigan Street"/>
    <tag k="source" v="exrapolation"/>
  </node>
  <node id="1228699202" version="2" timestamp="2011-05-29T08:32:12Z" uid="7617" user="Franc" changeset="8278454" lat="-33.893904" lon="151.1710434">
    <tag k="addr:housenumber" v="143"/>
    <tag k="addr:street" v="Cardigan Street"/>
    <tag k="source" v="extrapolation"/>
  </node>
  <node id="1228699202" version="3" timestamp="2012-02-13T05:25:45Z" uid="7523" user="inas" changeset="10670291" lat="-33.893904" lon="151.1710434"/>
  <node id="1228699204" version="1" timestamp="2011-04-02T01:32:33Z" uid="7617" user="Franc" changeset="7740669" lat="-33.8942108" lon="151.1712339">
    <tag k="addr:housenumber" v="146"/>
    <tag k="addr:street" v="Cardigan Street"/>
    <tag k="source" v="survey"/>
  </node>
  <node id="1228699204" version="2" timestamp="2012-02-13T05:25:45Z" uid="7523" user="inas" changeset="10670291" lat="-33.8942108" lon="151.1712339"/>
  <node id="1228699206" version="1" timestamp="2011-04-02T01:32:33Z" uid="7617" user="Franc" changeset="7740669" lat="-33.8956434" lon="151.1748351"/>
  <node id="1228699207" version="1" timestamp="2011-04-02T01:32:33Z" uid="7617" user="Franc" changeset="7740669" lat="-33.8919146" lon="151.1716658">
    <tag k="addr:housenumber" v="100"/>
    <tag k="addr:street" v="Cardigan Street"/>
    <tag k="source" v="exrapolation"/>
  </node>
  <node id="1228699207" version="2" timestamp="2011-05-06T10:29:02Z" uid="7617" user="Franc" changeset="8064166" lat="-33.8919146" lon="151.1716658">
    <tag k="addr:housenumber" v="100"/>
    <tag k="addr:street" v="Cardigan Street"/>
    <tag k="source" v="extrapolation"/>
  </node>
  <node id="1228699207" version="3" timestamp="2012-02-13T05:25:19Z" uid="7523" user="inas" changeset="10670291" lat="-33.8919146" lon="151.1716658"/>
  <node id="1228699209" version="1" timestamp="2011-04-02T01:32:33Z" uid="7617" user="Franc" changeset="7740669" lat="-33.921435" lon="151.1433776">
    <tag k="addr:housenumber" v="568"/>
    <tag k="addr:street" v="Illawarra Road"/>
    <tag k="source" v="survey"/>
  </node>
  <node id="1228699209" version="2" timestamp="2012-02-13T04:54:10Z" uid="7523" user="inas" changeset="10670222" lat="-33.921435" lon="151.1433776"/>
  <node id="1228699213" version="1" timestamp="2011-04-02T01:32:33Z" uid="7617" user="Franc" changeset="7740669" lat="-33.8936264" lon="151.1710985">
    <tag k="addr:housenumber" v="137"/>
    <tag k="addr:street" v="Cardigan Street"/>
    <tag k="source" v="exrapolation"/>
  </node>
  <node id="1228699213" version="2" timestamp="2011-05-29T08:33:24Z" uid="7617" user="Franc" changeset="8278454" lat="-33.8936264" lon="151.1710985">
    <tag k="addr:housenumber" v="137"/>
    <tag k="addr:street" v="Cardigan Street"/>
    <tag k="source" v="extrapolation"/>
  </node>
  <node id="1228699213" version="3" timestamp="2012-02-13T05:25:41Z" uid="7523" user="inas" changeset="10670291" lat="-33.8936264" lon="151.1710985"/>
  <node id="1228699214" version="1" timestamp="2011-04-02T01:32:33Z" uid="7617" user="Franc" changeset="7740669" lat="-33.8942666" lon="151.1742195"/>
  <node id="1228699215" version="1" timestamp="2011-04-02T01:32:33Z" uid="7617" user="Franc" changeset="7740669" lat="-33.8928774" lon="151.1714577">
    <tag k="addr:housenumber" v="122"/>
    <tag k="addr:street" v="Cardigan Street"/>
    <tag k="source" v="exrapolation"/>
  </node>
  <node id="1228699215" version="2" timestamp="2011-05-29T08:31:42Z" uid="7617" user="Franc" changeset="8278454" lat="-33.8928774" lon="151.1714577">
    <tag k="addr:housenumber" v="122"/>
    <tag k="addr:street" v="Cardigan Street"/>
    <tag k="source" v="extrapolation"/>
  </node>
  <node id="1228699215" version="3" timestamp="2012-02-13T05:25:35Z" uid="7523" user="inas" changeset="10670291" lat="-33.8928774" lon="151.1714577"/>
  <node id="1228699216" version="1" timestamp="2011-04-02T01:32:33Z" uid="7617" user="Franc" changeset="7740669" lat="-33.8940828" lon="151.1712521">
    <tag k="addr:housenumber" v="144"/>
    <tag k="addr:street" v="Cardigan Street"/>
    <tag k="source" v="exrapolation"/>
  </node>
  <node id="1228699216" version="2" timestamp="2011-05-29T08:33:27Z" uid="7617" user="Franc" changeset="8278454" lat="-33.8940828" lon="151.1712521">
    <tag k="addr:housenumber" v="144"/>
    <tag k="addr:street" v="Cardigan Street"/>
    <tag k="source" v="extrapolation"/>
  </node>
  <node id="1228699216" version="3" timestamp="2012-02-13T05:25:45Z" uid="7523" user="inas" changeset="10670291" lat="-33.8940828" lon="151.1712521"/>
  <node id="1228699219" version="1" timestamp="2011-04-02T01:32:33Z" uid="7617" user="Franc" changeset="7740669" lat="-33.8966729" lon="151.1752917"/>
  <node id="1228699220" version="1" timestamp="2011-04-02T01:32:33Z" uid="7617" user="Franc" changeset="7740669" lat="-33.8946159" lon="151.1714528">
    <tag k="addr:housenumber" v="2a"/>
    <tag k="addr:street" v="Railway Avenue"/>
    <tag k="source" v="survey"/>
  </node>
  <node id="1228699220" version="2" timestamp="2012-02-13T05:26:41Z" uid="7523" user="inas" changeset="10670291" lat="-33.8946159" lon="151.1714528"/>
  <node id="1228699222" version="1" timestamp="2011-04-02T01:32:33Z" uid="7617" user="Franc" changeset="7740669" lat="-33.8925962" lon="151.171516">
    <tag k="addr:housenumber" v="116"/>
    <tag k="addr:street" v="Cardigan Street"/>
    <tag k="source" v="exrapolation"/>
  </node>
  <node id="1228699222" version="2" timestamp="2011-05-29T08:33:17Z" uid="7617" user="Franc" changeset="8278454" lat="-33.8925962" lon="151.171516">
    <tag k="addr:housenumber" v="116"/>
    <tag k="addr:street" v="Cardigan Street"/>
    <tag k="source" v="extrapolation"/>
  </node>
  <node id="1228699222" version="3" timestamp="2012-02-13T05:25:30Z" uid="7523" user="inas" changeset="10670291" lat="-33.8925962" lon="151.171516"/>
  <node id="1228699226" version="1" timestamp="2011-04-02T01:32:33Z" uid="7617" user="Franc" changeset="7740669" lat="-33.8934508" lon="151.1711298">
    <tag k="addr:housenumber" v="133"/>
    <tag k="addr:street" v="Cardigan Street"/>
    <tag k="source" v="exrapolation"/>
  </node>
  <node id="1228699226" version="2" timestamp="2011-05-29T08:32:31Z" uid="7617" user="Franc" changeset="8278454" lat="-33.8934508" lon="151.1711298">
    <tag k="addr:housenumber" v="133"/>
    <tag k="addr:street" v="Cardigan Street"/>
    <tag k="source" v="extrapolation"/>
  </node>
  <node id="1228699226" version="3" timestamp="2012-02-13T05:25:40Z" uid="7523" user="inas" changeset="10670291" lat="-33.8934508" lon="151.1711298"/>
  <node id="1228699228" version="1" timestamp="2011-04-02T01:32:33Z" uid="7617" user="Franc" changeset="7740669" lat="-33.8929105" lon="151.1712456">
    <tag k="addr:housenumber" v="121"/>
    <tag k="addr:street" v="Cardigan Street"/>
    <tag k="source" v="survey"/>
  </node>
  <node id="1228699228" version="2" timestamp="2012-02-13T05:25:35Z" uid="7523" user="inas" changeset="10670291" lat="-33.8929105" lon="151.1712456"/>
  <node id="1228699229" version="1" timestamp="2011-04-02T01:32:33Z" uid="7617" user="Franc" changeset="7740669" lat="-33.9206341" lon="151.1418026">
    <tag k="addr:housenumber" v="19"/>
    <tag k="addr:street" v="Wharf Street"/>
    <tag k="source" v="survey"/>
  </node>
  <node id="1228699229" version="2" timestamp="2012-02-13T04:53:56Z" uid="7523" user="inas" changeset="10670222" lat="-33.9206341" lon="151.1418026"/>
  <node id="1228699232" version="1" timestamp="2011-04-02T01:32:34Z" uid="7617" user="Franc" changeset="7740669" lat="-33.8917443" lon="151.1714507">
    <tag k="addr:housenumber" v="93"/>
    <tag k="addr:street" v="Cardigan Street"/>
    <tag k="source" v="survey"/>
  </node>
  <node id="1228699232" version="2" timestamp="2012-02-13T05:28:18Z" uid="7523" user="inas" changeset="10670291" lat="-33.8917443" lon="151.1714507"/>
  <node id="1228699233" version="1" timestamp="2011-04-02T01:32:34Z" uid="7617" user="Franc" changeset="7740669" lat="-33.8967493" lon="151.175557"/>
  <node id="1228699042" version="2" timestamp="2012-07-20T03:03:44Z" uid="722137" user="OSMF Redaction Account" changeset="12358978" lat="-33.8952377" lon="151.173959"/>
  <node id="1228699051" version="2" timestamp="2012-07-20T03:03:54Z" uid="722137" user="OSMF Redaction Account" changeset="12358978" lat="-33.8942768" lon="151.1742686"/>
  <node id="1228699058" version="2" timestamp="2012-07-20T03:03:41Z" uid="722137" user="OSMF Redaction Account" changeset="12358978" lat="-33.8954676" lon="151.1743271"/>
  <node id="1228699062" version="3" timestamp="2012-06-19T04:22:28Z" uid="7523" user="inas" changeset="11943873" lat="-33.8917153" lon="151.1724032"/>
  <node id="1228699072" version="2" timestamp="2012-07-20T03:03:34Z" uid="722137" user="OSMF Redaction Account" changeset="12358969" lat="-33.8960478" lon="151.1742961"/>
  <node id="1228699077" version="2" timestamp="2012-07-20T03:03:37Z" uid="722137" user="OSMF Redaction Account" changeset="12358969" lat="-33.8958167" lon="151.1742766"/>
  <node id="1228699083" version="3" timestamp="2012-06-26T02:28:18Z" uid="7523" user="inas" changeset="12018043" lat="-33.9171299" lon="151.1658115"/>
  <node id="1228699100" version="2" timestamp="2012-07-20T03:03:42Z" uid="722137" user="OSMF Redaction Account" changeset="12358978" lat="-33.8954226" lon="151.1743068"/>
  <node id="1228699101" version="2" timestamp="2012-06-24T07:26:35Z" uid="20949" user="Ebenezer" changeset="11996240" lat="-33.8945089" lon="151.1702965"/>
  <node id="1228699108" version="2" timestamp="2012-07-20T02:58:43Z" uid="722137" user="OSMF Redaction Account" changeset="12358882" lat="-33.9167057" lon="151.1661612"/>
  <node id="1228699110" version="2" timestamp="2012-07-20T03:03:57Z" uid="722137" user="OSMF Redaction Account" changeset="12358978" lat="-33.8940145" lon="151.1744941"/>
  <node id="1228699117" version="2" timestamp="2012-07-20T03:03:37Z" uid="722137" user="OSMF Redaction Account" changeset="12358969" lat="-33.8957967" lon="151.1749573"/>
  <node id="1228699129" version="2" timestamp="2012-07-20T03:03:41Z" uid="722137" user="OSMF Redaction Account" changeset="12358978" lat="-33.8955242" lon="151.1741448"/>
  <node id="1228699139" version="2" timestamp="2012-07-20T03:03:40Z" uid="722137" user="OSMF Redaction Account" changeset="12358978" lat="-33.8955878" lon="151.1732595"/>
  <node id="1228699149" version="2" timestamp="2012-07-09T23:14:51Z" uid="713671" user="auspod" changeset="12168047" lat="-33.8948807" lon="151.1722509"/>
  <node id="1228699162" version="2" timestamp="2012-07-20T03:03:49Z" uid="722137" user="OSMF Redaction Account" changeset="12358978" lat="-33.8947912" lon="151.174514"/>
  <node id="1228699163" version="2" timestamp="2012-07-20T03:03:43Z" uid="722137" user="OSMF Redaction Account" changeset="12358978" lat="-33.8953058" lon="151.174683"/>
  <node id="1228699169" version="2" timestamp="2012-07-20T03:03:55Z" uid="722137" user="OSMF Redaction Account" changeset="12358978" lat="-33.8941839" lon="151.1745754"/>
  <node id="1228699179" version="3" timestamp="2012-06-19T04:22:27Z" uid="7523" user="inas" changeset="11943873" lat="-33.8916362" lon="151.1724188"/>
  <node id="1228699181" version="2" timestamp="2012-07-20T03:03:55Z" uid="722137" user="OSMF Redaction Account" changeset="12358978" lat="-33.8940973" lon="151.1742655"/>
  <node id="1228699194" version="2" timestamp="2012-07-20T03:03:34Z" uid="722137" user="OSMF Redaction Account" changeset="12358969" lat="-33.8960587" lon="151.1735745"/>
  <node id="1228699206" version="2" timestamp="2012-07-20T03:03:38Z" uid="722137" user="OSMF Redaction Account" changeset="12358969" lat="-33.8956434" lon="151.1748351"/>
  <node id="1228699214" version="2" timestamp="2012-07-20T03:03:54Z" uid="722137" user="OSMF Redaction Account" changeset="12358978" lat="-33.8942666" lon="151.1742195"/>
  <node id="1228699219" version="2" timestamp="2012-07-20T03:03:26Z" uid="722137" user="OSMF Redaction Account" changeset="12358969" lat="-33.8966729" lon="151.1752917"/>
  <node id="1228699233" version="2" timestamp="2012-07-20T03:03:26Z" uid="722137" user="OSMF Redaction Account" changeset="12358969" lat="-33.8967493" lon="151.175557"/>
</osm>
