<?xml version='1.0' encoding='UTF-8'?>
<osm version="0.6" generator="libosmium/2.20.0">
  <node id="125399762" version="2" timestamp="2008-07-03T18:26:39Z" uid="6975" user="ulfl" changeset="379368" lat="48.7700111" lon="9.3099295">
    <tag k="amenity" v="drinking_water"/>
    <tag k="name" v="Katharinenquelle"/>
    <tag k="note" v="rework required (replace potable_water by Brunnen/Quelle)"/>
  </node>
  <node id="125399762" version="3" timestamp="2011-07-17T20:55:28Z" uid="135584" user="osmworker" changeset="8752279" lat="48.7697329" lon="9.3102672">
    <tag k="amenity" v="drinking_water"/>
    <tag k="name" v="Katharinenquelle"/>
    <tag k="note" v="rework required (replace potable_water by Brunnen/Quelle)"/>
  </node>
  <node id="125399762" version="4" timestamp="2011-07-19T23:26:26Z" uid="153109" user="pschaefer" changeset="8773879" lat="48.7700111" lon="9.3099295">
    <tag k="amenity" v="drinking_water"/>
    <tag k="name" v="Katharinenquelle"/>
    <tag k="note" v="rework required (replace potable_water by Brunnen/Quelle)"/>
  </node>
  <node id="125399795" version="2" timestamp="2008-07-03T18:26:37Z" uid="6975" user="ulfl" changeset="379368" lat="48.7573472" lon="9.3171913">
    <tag k="amenity" v="drinking_water"/>
    <tag k="name" v="Achtröhrenbrunnen"/>
    <tag k="note" v="rework required (replace potable_water by Brunnen)"/>
  </node>
  <node id="125399795" version="3" timestamp="2011-07-17T20:54:43Z" uid="135584" user="osmworker" changeset="8752279" lat="48.7570689" lon="9.317529">
    <tag k="amenity" v="drinking_water"/>
    <tag k="name" v="Achtröhrenbrunnen"/>
    <tag k="note" v="rework required (replace potable_water by Brunnen)"/>
  </node>
  <node id="125399795" version="4" timestamp="2011-07-20T19:21:51Z" uid="153109" user="pschaefer" changeset="8782016" lat="48.7573472" lon="9.3171913">
    <tag k="amenity" v="drinking_water"/>
    <tag k="name" v="Achtröhrenbrunnen"/>
    <tag k="note" v="rework required (replace potable_water by Brunnen)"/>
  </node>
</osm>
