<?xml version='1.0' encoding='UTF-8'?>
<osm version="0.6" generator="libosmium/2.20.0">
  <node id="125613611" version="4" timestamp="2008-07-10T00:08:01Z" uid="6975" user="ulfl" changeset="448234" lat="50.7770238" lon="6.0776798">
    <tag k="name" v="Frankenne"/>
    <tag k="shop" v="stationery"/>
  </node>
  <node id="125613611" version="5" timestamp="2009-05-01T08:29:39Z" uid="44217" user="kjon" changeset="1033944" lat="50.7769731" lon="6.0776218">
    <tag k="name" v="Frankenne"/>
    <tag k="shop" v="stationery"/>
  </node>
  <node id="125613611" version="6" timestamp="2009-05-01T08:29:55Z" uid="44217" user="kjon" changeset="1033944" lat="50.7769731" lon="6.0775789">
    <tag k="name" v="Frankenne"/>
    <tag k="shop" v="stationery"/>
  </node>
  <node id="125613611" version="7" timestamp="2010-06-06T15:17:03Z" uid="44217" user="kjon" changeset="4918863" lat="50.7769731" lon="6.0775789">
    <tag k="addr:housenumber" v="48"/>
    <tag k="addr:street" v="Karlsgraben"/>
    <tag k="name" v="Frankenne"/>
    <tag k="shop" v="stationary"/>
  </node>
  <node id="125613611" version="8" timestamp="2010-06-11T18:21:43Z" uid="293774" user="Oli-Wan" changeset="4964399" lat="50.776983" lon="6.077505">
    <tag k="addr:housenumber" v="48"/>
    <tag k="addr:street" v="Karlsgraben"/>
    <tag k="name" v="Frankenne"/>
    <tag k="shop" v="stationary"/>
  </node>
  <node id="125613611" version="9" timestamp="2010-06-21T18:45:31Z" uid="293774" user="Oli-Wan" changeset="5045191" lat="50.776983" lon="6.077505">
    <tag k="addr:housenumber" v="48"/>
    <tag k="addr:street" v="Karlsgraben"/>
    <tag k="name" v="Frankenne"/>
    <tag k="shop" v="stationery"/>
  </node>
  <node id="125613611" version="10" timestamp="2010-07-25T23:08:43Z" uid="67862" user="HolgerJeromin" changeset="5317465" lat="50.776983" lon="6.077505">
    <tag k="addr:housenumber" v="48"/>
    <tag k="addr:street" v="Templergraben"/>
    <tag k="name" v="Frankenne"/>
    <tag k="shop" v="stationery"/>
  </node>
  <node id="125613611" version="11" timestamp="2010-09-29T11:05:47Z" uid="67862" user="HolgerJeromin" changeset="5910503" lat="50.7769461" lon="6.0775633">
    <tag k="addr:housenumber" v="48"/>
    <tag k="addr:street" v="Templergraben"/>
    <tag k="name" v="Frankenne"/>
    <tag k="shop" v="stationery"/>
  </node>
  <node id="125613611" version="12" timestamp="2010-09-30T07:14:57Z" uid="67862" user="HolgerJeromin" changeset="5917516" lat="50.7769461" lon="6.0775633">
    <tag k="addr:housenumber" v="48"/>
    <tag k="addr:street" v="Templergraben"/>
    <tag k="name" v="Frankenne"/>
    <tag k="shop" v="stationery"/>
  </node>
  <node id="125613633" version="2" timestamp="2008-07-02T20:31:29Z" uid="6975" user="ulfl" changeset="369591" lat="50.7891069" lon="6.0665338">
    <tag k="name" v="OBI"/>
    <tag k="shop" v="doityourself"/>
  </node>
  <node id="125613633" version="3" timestamp="2008-07-08T21:12:46Z" uid="45715" user="carolus" changeset="447217" lat="50.7894937" lon="6.0666335">
    <tag k="name" v="OBI"/>
    <tag k="shop" v="doityourself"/>
  </node>
  <node id="125613633" version="4" timestamp="2010-10-04T16:42:17Z" uid="25504" user="Head" changeset="5955187" lat="50.7894937" lon="6.0666335">
    <tag k="name" v="OBI"/>
    <tag k="opening_hours" v="Mo-Fr 09:00-20:00; Sa 09:00-18:00"/>
    <tag k="shop" v="doityourself"/>
    <tag k="website" v="http://www.obi.de/de/markets/maerkte/Aachen/index.html"/>
  </node>
  <node id="125613633" version="5" timestamp="2010-12-03T09:24:56Z" uid="67862" user="HolgerJeromin" changeset="6523859" lat="50.7894937" lon="6.0666335">
    <tag k="name" v="OBI"/>
    <tag k="opening_hours" v="Mo-Fr 09:00-20:00; Sa 09:00-18:00"/>
    <tag k="shop" v="doityourself"/>
    <tag k="website" v="http://www.obi.de/de/markets/maerkte/Aachen/index.html"/>
  </node>
</osm>
