<?xml version='1.0' encoding='UTF-8'?>
<osm version="0.6" generator="libosmium/2.20.0">
  <node id="1272263061" version="1" timestamp="2011-05-04T17:57:23Z" uid="107674" user="GeoCounter" changeset="8050986" lat="50.0571144" lon="8.8047886">
    <tag k="historic" v="wayside_cross"/>
  </node>
  <node id="1272263061" version="2" timestamp="2011-05-04T19:04:10Z" uid="107674" user="GeoCounter" changeset="8051577" lat="50.0570185" lon="8.8047768">
    <tag k="historic" v="wayside_cross"/>
  </node>
  <node id="1272263061" version="3" timestamp="2011-06-17T16:05:22Z" uid="107674" user="GeoCounter" changeset="8466195" lat="50.0568376" lon="8.8048096">
    <tag k="historic" v="wayside_cross"/>
  </node>
  <node id="1272263061" version="4" timestamp="2012-01-03T12:15:57Z" uid="91490" user="Heinz_V" changeset="10280528" lat="50.0568376" lon="8.8048096">
    <tag k="historic" v="wayside_cross"/>
    <tag k="odbl" v="clean"/>
  </node>
  <node id="1272263062" version="1" timestamp="2011-05-04T17:57:23Z" uid="107674" user="GeoCounter" changeset="8050986" lat="50.0574841" lon="8.8019002">
    <tag k="amenity" v="restaurant"/>
    <tag k="cuisine" v="pizza"/>
    <tag k="name" v="Dolce e&apos; Vita"/>
  </node>
  <node id="1272263062" version="2" timestamp="2011-05-04T20:05:36Z" uid="107674" user="GeoCounter" changeset="8052231" lat="50.0574841" lon="8.8019002">
    <tag k="amenity" v="restaurant"/>
    <tag k="contact:website" v="http://www.dolce-e-vita.de"/>
    <tag k="cuisine" v="pizza"/>
    <tag k="name" v="Dolce é Vita"/>
    <tag k="opening_hours" v="Mo-Fr 11:00-23:00, Sa 14:00-23:00 &quot;Warme Küche 12:00-15:00 und 17:00-22:00 Uhr&quot;; Su off"/>
  </node>
  <node id="1272263062" version="3" timestamp="2011-05-04T21:06:59Z" uid="107674" user="GeoCounter" changeset="8052817" lat="50.0574841" lon="8.8019002">
    <tag k="amenity" v="restaurant"/>
    <tag k="contact:website" v="http://www.dolce-e-vita.de"/>
    <tag k="cuisine" v="pizza"/>
    <tag k="name" v="Dolce é Vita"/>
    <tag k="opening_hours" v="Mo-Fr 11:00-23:00 open &quot;Warme Küche 12:00-15:00 und 17:00-22:00 Uhr&quot;, Sa 14:00-23:00 open &quot;Warme Küche 12:00-15:00 und 17:00-22:00 Uhr&quot;; Su off"/>
  </node>
  <node id="1272263062" version="4" timestamp="2011-06-17T18:33:31Z" uid="107674" user="GeoCounter" changeset="8467212" lat="50.0574841" lon="8.8019002"/>
</osm>
