<?xml version='1.0' encoding='UTF-8'?>
<osm version="0.6" generator="libosmium/2.20.0">
  <node id="128292921" version="2" timestamp="2008-09-30T10:26:29Z" uid="1066" user="pavel" changeset="720911" lat="49.6936778" lon="16.9838877">
    <tag k="is_in" v="Czech Republic, Europe"/>
    <tag k="name" v="Hradecna"/>
    <tag k="place" v="village"/>
  </node>
  <node id="128292921" version="3" timestamp="2008-11-04T13:19:58Z" uid="308" user="MichaelCollinson" changeset="676656" lat="49.6936778" lon="16.9838877">
    <tag k="is_in" v="Czech Republic, Europe"/>
    <tag k="is_in:continent" v="Europe"/>
    <tag k="is_in:country_code" v="cz"/>
    <tag k="name" v="Hradecna"/>
    <tag k="place" v="village"/>
  </node>
  <node id="128292921" version="4" timestamp="2009-06-01T15:34:35Z" uid="11629" user="Stanislav Brabec" changeset="1384651" lat="49.6936825" lon="16.9838864">
    <tag k="is_in" v="Czech Republic, Europe"/>
    <tag k="is_in:continent" v="Europe"/>
    <tag k="is_in:country_code" v="cz"/>
    <tag k="name" v="Hradečná"/>
    <tag k="place" v="village"/>
  </node>
  <node id="128292921" version="5" timestamp="2012-01-20T22:39:23Z" uid="536216" user="uir-zsj" changeset="10451423" lat="49.6936825" lon="16.9838864"/>
</osm>
