<?xml version='1.0' encoding='UTF-8'?>
<osm version="0.6" generator="libosmium/2.20.0">
  <node id="1296996971" version="1" timestamp="2011-05-23T06:48:38Z" uid="30632" user="antblant" changeset="8223487" lat="53.4263182" lon="14.4828187">
    <tag k="amenity" v="telephone"/>
  </node>
  <node id="1296996976" version="1" timestamp="2011-05-23T06:48:38Z" uid="30632" user="antblant" changeset="8223487" lat="53.425555" lon="14.4837648">
    <tag k="amenity" v="taxi"/>
  </node>
  <node id="1296996978" version="1" timestamp="2011-05-23T06:48:39Z" uid="30632" user="antblant" changeset="8223487" lat="53.4255417" lon="14.4827393">
    <tag k="amenity" v="recycling"/>
  </node>
  <node id="1296996980" version="1" timestamp="2011-05-23T06:48:39Z" uid="30632" user="antblant" changeset="8223487" lat="53.4250883" lon="14.4827011">
    <tag k="amenity" v="post_box"/>
  </node>
  <node id="1296996983" version="1" timestamp="2011-05-23T06:48:39Z" uid="30632" user="antblant" changeset="8223487" lat="53.4466123" lon="14.5416416">
    <tag k="name" v="Kaśka"/>
    <tag k="opening_hours" v="Mo-Fr 06:00-21:00 Sa 06:00-20:00 Su 09:00-14:00"/>
    <tag k="operator" v="Społem"/>
    <tag k="shop" v="supermarket"/>
  </node>
  <node id="1296996983" version="2" timestamp="2011-06-29T16:47:50Z" uid="89943" user="Bengatzer" changeset="8582679" lat="53.4466123" lon="14.5416416">
    <tag k="name" v="Kaśka"/>
    <tag k="opening_hours" v="Mo-Fr 06:00-21:00; Sa 06:00-20:00; Su 09:00-14:00"/>
    <tag k="operator" v="Społem"/>
    <tag k="shop" v="supermarket"/>
  </node>
  <node id="1296996984" version="1" timestamp="2011-05-23T06:48:39Z" uid="30632" user="antblant" changeset="8223487" lat="53.4250415" lon="14.4825732">
    <tag k="shop" v="supermarket"/>
  </node>
  <node id="1296996985" version="1" timestamp="2011-05-23T06:48:39Z" uid="30632" user="antblant" changeset="8223487" lat="53.4259161" lon="14.4830469">
    <tag k="amenity" v="car_wash"/>
    <tag k="operator" v="Orlen"/>
  </node>
  <node id="1296996990" version="1" timestamp="2011-05-23T06:48:39Z" uid="30632" user="antblant" changeset="8223487" lat="53.4255778" lon="14.4833766">
    <tag k="name" v="Bogda"/>
    <tag k="shop" v="convenience"/>
  </node>
  <node id="1296996993" version="1" timestamp="2011-05-23T06:48:39Z" uid="30632" user="antblant" changeset="8223487" lat="53.4255117" lon="14.4836884">
    <tag k="amenity" v="recycling"/>
  </node>
</osm>
