<?xml version='1.0' encoding='UTF-8'?>
<osm version="0.6" generator="libosmium/2.20.0">
  <node id="129929392" version="3" timestamp="2008-07-03T00:13:11Z" uid="6975" user="ulfl" changeset="377243" lat="48.1740189" lon="12.8387419">
    <tag k="shop" v="hairdresser"/>
  </node>
  <node id="129929392" version="4" timestamp="2008-09-06T21:54:17Z" uid="18584" user="Adolf Winterer" changeset="552129" lat="48.1740189" lon="12.8387419">
    <tag k="name" v="Azzurro Haar Studio"/>
    <tag k="operator" v="Ute Jäckel"/>
    <tag k="shop" v="hairdresser"/>
  </node>
  <node id="129929392" version="5" timestamp="2009-08-06T12:46:35Z" uid="30703" user="cSonic" changeset="2055790" lat="48.17402" lon="12.838742">
    <tag k="name" v="Azzurro Haar Studio"/>
    <tag k="opening_hours" v="FIXME"/>
    <tag k="operator" v="Ute Jäckel"/>
    <tag k="shop" v="hairdresser"/>
  </node>
  <node id="129929392" version="6" timestamp="2011-01-15T17:11:35Z" uid="289334" user="Soldier Boy" changeset="6979454" lat="48.17402" lon="12.838742">
    <tag k="name" v="Azzurro Haar Studio"/>
    <tag k="operator" v="Ute Jäckel"/>
    <tag k="shop" v="hairdresser"/>
  </node>
  <node id="129929392" version="7" timestamp="2011-07-21T14:15:51Z" uid="30700" user="SpieleHolger" changeset="8788890" lat="48.1739927" lon="12.8388766">
    <tag k="name" v="Azzurro Haar Studio"/>
    <tag k="operator" v="Ute Jäckel"/>
    <tag k="shop" v="hairdresser"/>
  </node>
  <node id="129929392" version="8" timestamp="2011-12-23T12:42:41Z" uid="18584" user="Adolf Winterer" changeset="10186828" lat="48.1739927" lon="12.8388766">
    <tag k="name" v="Azzurro Haar Studio"/>
    <tag k="opening_hours" v="Mo:off; Di-Fr:09:00-18; Sa:08-13:00"/>
    <tag k="operator" v="Ute Jäckel"/>
    <tag k="shop" v="hairdresser"/>
  </node>
  <node id="129929392" version="9" timestamp="2011-12-24T09:44:03Z" uid="18584" user="Adolf Winterer" changeset="10192724" lat="48.1739927" lon="12.8388766">
    <tag k="addr:city" v="Burghausen"/>
    <tag k="addr:country" v="DE"/>
    <tag k="addr:housenumber" v="6"/>
    <tag k="addr:postcode" v="84489"/>
    <tag k="addr:street" v="Johannes-Hess-Straße"/>
    <tag k="name" v="Azzurro Haar Studio"/>
    <tag k="opening_hours" v="Mo off; Tu-Fr 09:00-18:00; Sa 08:00-13:00"/>
    <tag k="operator" v="Ute Jäckel"/>
    <tag k="phone" v="+49 8677 916388"/>
    <tag k="shop" v="hairdresser"/>
  </node>
</osm>
