<?xml version='1.0' encoding='UTF-8'?>
<osm version="0.6" generator="libosmium/2.20.0">
  <node id="129939532" version="5" timestamp="2008-02-16T19:15:41Z" uid="6975" user="ulfl" changeset="141861" lat="42.5194109" lon="14.1288645">
    <tag k="name" v="Centro commerciale Iper Pescara Nord"/>
    <tag k="shop" v="supermarket"/>
  </node>
  <node id="129939532" version="6" timestamp="2008-05-23T13:31:36Z" uid="15891" user="farlokko" changeset="505875" lat="42.519415" lon="14.1288561">
    <tag k="created_by" v="Potlatch 0.9a"/>
    <tag k="name" v="Iper"/>
    <tag k="shop" v="supermarket"/>
  </node>
  <node id="129939532" version="7" timestamp="2008-12-02T19:53:21Z" uid="15891" user="farlokko" changeset="45416" lat="42.519415" lon="14.1288561">
    <tag k="created_by" v="Potlatch 0.9a"/>
    <tag k="name" v="Iper Pescara Nord"/>
    <tag k="shop" v="mall"/>
  </node>
  <node id="129939532" version="8" timestamp="2009-06-16T18:44:09Z" uid="15891" user="farlokko" changeset="1538098" lat="42.5194175" lon="14.1288567">
    <tag k="addr:housenumber" v="140"/>
    <tag k="addr:street" v="Via Leonardo Petruzzi"/>
    <tag k="created_by" v="Potlatch 0.9a"/>
    <tag k="name" v="Iper Pescara Nord"/>
    <tag k="shop" v="mall"/>
  </node>
  <node id="129939532" version="9" timestamp="2009-09-22T11:26:49Z" uid="15891" user="farlokko" changeset="2568603" lat="42.5194179" lon="14.1288492">
    <tag k="addr:city" v="Città Sant&apos;Angelo"/>
    <tag k="addr:country" v="IT"/>
    <tag k="addr:housenumber" v="140"/>
    <tag k="addr:postcode" v="65013"/>
    <tag k="addr:street" v="Via Leonardo Petruzzi"/>
    <tag k="created_by" v="Potlatch 0.9a"/>
    <tag k="name" v="Iper Pescara Nord"/>
    <tag k="shop" v="mall"/>
  </node>
  <node id="129939532" version="10" timestamp="2010-02-05T13:54:39Z" uid="15891" user="farlokko" changeset="3797920" lat="42.519418" lon="14.1288491">
    <tag k="addr:city" v="Città Sant&apos;Angelo"/>
    <tag k="addr:country" v="IT"/>
    <tag k="addr:housenumber" v="140"/>
    <tag k="addr:postcode" v="65013"/>
    <tag k="addr:street" v="Via Leonardo Petruzzi"/>
    <tag k="name" v="Centro commerciale Pescara Nord"/>
    <tag k="shop" v="mall"/>
  </node>
  <node id="129939532" version="11" timestamp="2010-02-05T13:59:07Z" uid="15891" user="farlokko" changeset="3797920" lat="42.5200216" lon="14.1288664">
    <tag k="addr:city" v="Città Sant&apos;Angelo"/>
    <tag k="addr:country" v="IT"/>
    <tag k="addr:housenumber" v="140"/>
    <tag k="addr:postcode" v="65013"/>
    <tag k="addr:street" v="Via Leonardo Petruzzi"/>
    <tag k="name" v="Centro commerciale Pescara Nord"/>
    <tag k="shop" v="mall"/>
  </node>
  <node id="129939532" version="12" timestamp="2010-02-05T14:05:02Z" uid="15891" user="farlokko" changeset="3797920" lat="42.5199583" lon="14.1291131">
    <tag k="addr:city" v="Città Sant&apos;Angelo"/>
    <tag k="addr:country" v="IT"/>
    <tag k="addr:housenumber" v="140"/>
    <tag k="addr:postcode" v="65013"/>
    <tag k="addr:street" v="Via Leonardo Petruzzi"/>
    <tag k="name" v="Centro commerciale Pescara Nord"/>
    <tag k="shop" v="mall"/>
  </node>
  <node id="129939532" version="13" timestamp="2010-05-02T11:58:14Z" uid="15891" user="farlokko" changeset="4583517" lat="42.5198763" lon="14.1291599">
    <tag k="addr:city" v="Città Sant&apos;Angelo"/>
    <tag k="addr:country" v="IT"/>
    <tag k="addr:housenumber" v="140"/>
    <tag k="addr:postcode" v="65013"/>
    <tag k="addr:street" v="Via Leonardo Petruzzi"/>
    <tag k="name" v="Centro commerciale Pescara Nord"/>
    <tag k="shop" v="mall"/>
  </node>
  <node id="129939532" version="14" timestamp="2012-06-05T12:57:08Z" uid="15891" user="farlokko" changeset="11805898" lat="42.5198763" lon="14.1291599">
    <tag k="addr:city" v="Città Sant&apos;Angelo"/>
    <tag k="addr:country" v="IT"/>
    <tag k="addr:housenumber" v="140"/>
    <tag k="addr:postcode" v="65013"/>
    <tag k="addr:street" v="Via Leonardo Petruzzi"/>
    <tag k="name" v="Centro commerciale Pescara Nord"/>
    <tag k="opening_hours" v="Mo 09:00-21:00; Tu-Sa 09:00-21:00; Su 09:00-21:00"/>
    <tag k="shop" v="mall"/>
  </node>
</osm>
