<?xml version='1.0' encoding='UTF-8'?>
<osm version="0.6" generator="libosmium/2.20.0">
  <node id="1302282109" version="1" timestamp="2011-05-27T18:02:13Z" uid="107674" user="GeoCounter" changeset="8265175" lat="50.0495116" lon="8.7948673">
    <tag k="amenity" v="recycling"/>
    <tag k="recycling:clothes" v="yes"/>
    <tag k="recycling:glass" v="yes"/>
    <tag k="recycling:shoes" v="yes"/>
  </node>
  <node id="1302282109" version="2" timestamp="2011-12-31T17:41:53Z" uid="65364" user="Harry99" changeset="10256709" lat="50.0495116" lon="8.7948673"/>
  <node id="1302282116" version="1" timestamp="2011-05-27T18:02:13Z" uid="107674" user="GeoCounter" changeset="8265175" lat="50.0517661" lon="8.8015523">
    <tag k="addr:city" v="Heusenstamm"/>
    <tag k="addr:housenumber" v="1"/>
    <tag k="addr:postcode" v="63150"/>
    <tag k="addr:street" v="Industriestraße"/>
  </node>
  <node id="1302282116" version="2" timestamp="2011-12-31T23:18:37Z" uid="65364" user="Harry99" changeset="10258527" lat="50.0517661" lon="8.8015523"/>
  <node id="1302282155" version="1" timestamp="2011-05-27T18:02:14Z" uid="107674" user="GeoCounter" changeset="8265175" lat="50.0514729" lon="8.7937011"/>
  <node id="1302282155" version="2" timestamp="2012-01-01T14:04:45Z" uid="65364" user="Harry99" changeset="10260767" lat="50.0514729" lon="8.7937011"/>
  <node id="1302282158" version="1" timestamp="2011-05-27T18:02:14Z" uid="107674" user="GeoCounter" changeset="8265175" lat="50.0556474" lon="8.8007834">
    <tag k="addr:city" v="Heusenstamm"/>
    <tag k="addr:housenumber" v="7"/>
    <tag k="addr:postcode" v="63150"/>
    <tag k="addr:street" v="Friedenstraße"/>
  </node>
  <node id="1302282158" version="2" timestamp="2012-01-03T12:17:27Z" uid="91490" user="Heinz_V" changeset="10280528" lat="50.0556474" lon="8.8007834">
    <tag k="addr:city" v="Heusenstamm"/>
    <tag k="addr:housenumber" v="7"/>
    <tag k="addr:postcode" v="63150"/>
    <tag k="addr:street" v="Friedenstraße"/>
    <tag k="odbl" v="clean"/>
  </node>
  <node id="1302282158" version="3" timestamp="2012-01-05T22:49:09Z" uid="65364" user="Harry99" changeset="10305824" lat="50.0555619" lon="8.8007496">
    <tag k="addr:city" v="Heusenstamm"/>
    <tag k="addr:housenumber" v="7"/>
    <tag k="addr:postcode" v="63150"/>
    <tag k="addr:street" v="Friedenstraße"/>
    <tag k="odbl" v="clean"/>
  </node>
  <node id="1302282165" version="1" timestamp="2011-05-27T18:02:14Z" uid="107674" user="GeoCounter" changeset="8265175" lat="50.0483637" lon="8.7981557">
    <tag k="amenity" v="recycling"/>
    <tag k="operator" v="Deutsches Rotes Kreuz"/>
    <tag k="recycling:clothes" v="yes"/>
    <tag k="recycling:shoes" v="yes"/>
  </node>
  <node id="1302282165" version="2" timestamp="2011-12-31T23:18:37Z" uid="65364" user="Harry99" changeset="10258527" lat="50.0483637" lon="8.7981557"/>
  <node id="1302282171" version="1" timestamp="2011-05-27T18:02:14Z" uid="107674" user="GeoCounter" changeset="8265175" lat="50.05559" lon="8.8004018"/>
  <node id="1302282171" version="2" timestamp="2012-01-03T11:26:10Z" uid="65364" user="Harry99" changeset="10280032" lat="50.05559" lon="8.8004018"/>
  <node id="1302282173" version="1" timestamp="2011-05-27T18:02:14Z" uid="107674" user="GeoCounter" changeset="8265175" lat="50.0457522" lon="8.7905763">
    <tag k="addr:city" v="Heusenstamm"/>
    <tag k="addr:housenumber" v="47"/>
    <tag k="addr:postcode" v="63150"/>
    <tag k="addr:street" v="Industriestraße"/>
  </node>
  <node id="1302282173" version="2" timestamp="2011-12-31T20:29:51Z" uid="65364" user="Harry99" changeset="10256709" lat="50.0457522" lon="8.7905763"/>
  <node id="1302282190" version="1" timestamp="2011-05-27T18:02:14Z" uid="107674" user="GeoCounter" changeset="8265175" lat="50.0555983" lon="8.8005617">
    <tag k="addr:city" v="Heusenstamm"/>
    <tag k="addr:housenumber" v="9"/>
    <tag k="addr:postcode" v="63150"/>
    <tag k="addr:street" v="Friedenstraße"/>
  </node>
  <node id="1302282190" version="2" timestamp="2012-01-03T12:12:36Z" uid="91490" user="Heinz_V" changeset="10280528" lat="50.0555983" lon="8.8005617">
    <tag k="addr:city" v="Heusenstamm"/>
    <tag k="addr:housenumber" v="9"/>
    <tag k="addr:postcode" v="63150"/>
    <tag k="addr:street" v="Friedenstraße"/>
    <tag k="odbl" v="clean"/>
  </node>
  <node id="1302282190" version="3" timestamp="2012-01-05T22:49:09Z" uid="65364" user="Harry99" changeset="10305824" lat="50.055523" lon="8.8005637">
    <tag k="addr:city" v="Heusenstamm"/>
    <tag k="addr:housenumber" v="9"/>
    <tag k="addr:postcode" v="63150"/>
    <tag k="addr:street" v="Friedenstraße"/>
    <tag k="odbl" v="clean"/>
  </node>
  <node id="1302282195" version="1" timestamp="2011-05-27T18:02:15Z" uid="107674" user="GeoCounter" changeset="8265175" lat="50.0553526" lon="8.8005876"/>
  <node id="1302282195" version="2" timestamp="2012-01-03T11:26:10Z" uid="65364" user="Harry99" changeset="10280032" lat="50.0553526" lon="8.8005876"/>
  <node id="1302282196" version="1" timestamp="2011-05-27T18:02:15Z" uid="107674" user="GeoCounter" changeset="8265175" lat="50.0512835" lon="8.7931735"/>
  <node id="1302282196" version="2" timestamp="2012-01-01T14:04:45Z" uid="65364" user="Harry99" changeset="10260767" lat="50.0512835" lon="8.7931735"/>
  <node id="1302282197" version="1" timestamp="2011-05-27T18:02:15Z" uid="107674" user="GeoCounter" changeset="8265175" lat="50.0557003" lon="8.8007834"/>
  <node id="1302282197" version="2" timestamp="2012-01-03T11:26:10Z" uid="65364" user="Harry99" changeset="10280032" lat="50.0557003" lon="8.8007834"/>
  <node id="1302282202" version="1" timestamp="2011-05-27T18:02:15Z" uid="107674" user="GeoCounter" changeset="8265175" lat="50.0554826" lon="8.8007897">
    <tag k="amenity" v="vending_machine"/>
    <tag k="vending" v="excrement_bags"/>
  </node>
  <node id="1302282202" version="2" timestamp="2012-01-03T12:11:43Z" uid="91490" user="Heinz_V" changeset="10280528" lat="50.0554826" lon="8.8007897">
    <tag k="amenity" v="vending_machine"/>
    <tag k="odbl" v="clean"/>
    <tag k="vending" v="excrement_bags"/>
  </node>
</osm>
