<?xml version='1.0' encoding='UTF-8'?>
<osm version="0.6" generator="libosmium/2.20.0">
  <node id="131900000" version="1" timestamp="2007-11-25T09:09:45Z" uid="4467" user="Rosscoe" changeset="615428" lat="-33.744047" lon="120.981943">
    <tag k="created_by" v="JOSM"/>
    <tag k="highway" v="trunk"/>
    <tag k="name" v="South Coast Hwy"/>
    <tag k="surface" v="paved"/>
  </node>
  <node id="131900024" version="1" timestamp="2007-11-25T09:09:46Z" uid="4467" user="Rosscoe" changeset="615428" lat="-33.743975" lon="120.981608">
    <tag k="created_by" v="JOSM"/>
    <tag k="highway" v="trunk"/>
    <tag k="name" v="South Coast Hwy"/>
    <tag k="surface" v="paved"/>
  </node>
  <node id="131900049" version="1" timestamp="2007-11-25T09:09:46Z" uid="4467" user="Rosscoe" changeset="615428" lat="-33.74419" lon="120.982607">
    <tag k="created_by" v="JOSM"/>
    <tag k="highway" v="trunk"/>
    <tag k="name" v="South Coast Hwy"/>
    <tag k="surface" v="paved"/>
  </node>
  <node id="131900070" version="1" timestamp="2007-11-25T09:09:47Z" uid="4467" user="Rosscoe" changeset="615428" lat="-33.744118" lon="120.982278">
    <tag k="created_by" v="JOSM"/>
    <tag k="highway" v="trunk"/>
    <tag k="name" v="South Coast Hwy"/>
    <tag k="surface" v="paved"/>
  </node>
  <node id="131900093" version="1" timestamp="2007-11-25T09:09:48Z" uid="4467" user="Rosscoe" changeset="615428" lat="-33.743767" lon="120.980603">
    <tag k="created_by" v="JOSM"/>
    <tag k="highway" v="trunk"/>
    <tag k="name" v="South Coast Hwy"/>
    <tag k="surface" v="paved"/>
  </node>
  <node id="131900115" version="1" timestamp="2007-11-25T09:09:49Z" uid="4467" user="Rosscoe" changeset="615428" lat="-33.743697" lon="120.980268">
    <tag k="created_by" v="JOSM"/>
    <tag k="highway" v="trunk"/>
    <tag k="name" v="South Coast Hwy"/>
    <tag k="surface" v="paved"/>
  </node>
  <node id="131900134" version="1" timestamp="2007-11-25T09:09:50Z" uid="4467" user="Rosscoe" changeset="615428" lat="-33.743907" lon="120.981277">
    <tag k="created_by" v="JOSM"/>
    <tag k="highway" v="trunk"/>
    <tag k="name" v="South Coast Hwy"/>
    <tag k="surface" v="paved"/>
  </node>
  <node id="131900153" version="1" timestamp="2007-11-25T09:09:50Z" uid="4467" user="Rosscoe" changeset="615428" lat="-33.743837" lon="120.980937">
    <tag k="created_by" v="JOSM"/>
    <tag k="highway" v="trunk"/>
    <tag k="name" v="South Coast Hwy"/>
    <tag k="surface" v="paved"/>
  </node>
  <node id="131900157" version="1" timestamp="2007-11-25T09:09:51Z" uid="4467" user="Rosscoe" changeset="615428" lat="-33.744608" lon="120.984605">
    <tag k="created_by" v="JOSM"/>
    <tag k="highway" v="trunk"/>
    <tag k="name" v="South Coast Hwy"/>
    <tag k="surface" v="paved"/>
  </node>
  <node id="131900168" version="1" timestamp="2007-11-25T09:09:52Z" uid="4467" user="Rosscoe" changeset="615428" lat="-33.744542" lon="120.984277">
    <tag k="created_by" v="JOSM"/>
    <tag k="highway" v="trunk"/>
    <tag k="name" v="South Coast Hwy"/>
    <tag k="surface" v="paved"/>
  </node>
  <node id="131900186" version="1" timestamp="2007-11-25T09:09:53Z" uid="4467" user="Rosscoe" changeset="615428" lat="-33.744748" lon="120.985275">
    <tag k="created_by" v="JOSM"/>
    <tag k="highway" v="trunk"/>
    <tag k="name" v="South Coast Hwy"/>
    <tag k="surface" v="paved"/>
  </node>
  <node id="131900202" version="1" timestamp="2007-11-25T09:09:54Z" uid="4467" user="Rosscoe" changeset="615428" lat="-33.744678" lon="120.98494">
    <tag k="created_by" v="JOSM"/>
    <tag k="highway" v="trunk"/>
    <tag k="name" v="South Coast Hwy"/>
    <tag k="surface" v="paved"/>
  </node>
  <node id="131900225" version="1" timestamp="2007-11-25T09:09:54Z" uid="4467" user="Rosscoe" changeset="615428" lat="-33.744333" lon="120.983282">
    <tag k="created_by" v="JOSM"/>
    <tag k="highway" v="trunk"/>
    <tag k="name" v="South Coast Hwy"/>
    <tag k="surface" v="paved"/>
  </node>
  <node id="131900226" version="1" timestamp="2007-11-25T09:09:55Z" uid="4467" user="Rosscoe" changeset="615428" lat="-33.744262" lon="120.982947">
    <tag k="created_by" v="JOSM"/>
    <tag k="highway" v="trunk"/>
    <tag k="name" v="South Coast Hwy"/>
    <tag k="surface" v="paved"/>
  </node>
  <node id="131900248" version="1" timestamp="2007-11-25T09:09:56Z" uid="4467" user="Rosscoe" changeset="615428" lat="-33.744473" lon="120.983945">
    <tag k="created_by" v="JOSM"/>
    <tag k="highway" v="trunk"/>
    <tag k="name" v="South Coast Hwy"/>
    <tag k="surface" v="paved"/>
  </node>
  <node id="131900261" version="1" timestamp="2007-11-25T09:09:57Z" uid="4467" user="Rosscoe" changeset="615428" lat="-33.744403" lon="120.983612">
    <tag k="created_by" v="JOSM"/>
    <tag k="highway" v="trunk"/>
    <tag k="name" v="South Coast Hwy"/>
    <tag k="surface" v="paved"/>
  </node>
  <node id="131900261" version="3" timestamp="2011-11-17T11:08:57Z" uid="338866" user="tiger" changeset="9852982" lat="-33.744403" lon="120.983612"/>
  <node id="131900278" version="1" timestamp="2007-11-25T09:09:57Z" uid="4467" user="Rosscoe" changeset="615428" lat="-33.745093" lon="120.986927">
    <tag k="created_by" v="JOSM"/>
    <tag k="highway" v="trunk"/>
    <tag k="name" v="South Coast Hwy"/>
    <tag k="surface" v="paved"/>
  </node>
  <node id="131900299" version="1" timestamp="2007-11-25T09:09:58Z" uid="4467" user="Rosscoe" changeset="615428" lat="-33.745162" lon="120.987265">
    <tag k="created_by" v="JOSM"/>
    <tag k="highway" v="trunk"/>
    <tag k="name" v="South Coast Hwy"/>
    <tag k="surface" v="paved"/>
  </node>
  <node id="131900309" version="4" timestamp="2010-02-15T06:31:40Z" uid="74617" user="JohnSmith" changeset="3880421" lat="-27.6204085" lon="152.970141">
    <tag k="name" v="Greentree Pocket"/>
    <tag k="place" v="hamlet"/>
  </node>
  <node id="131900322" version="1" timestamp="2007-11-25T09:09:59Z" uid="4467" user="Rosscoe" changeset="615428" lat="-33.74523" lon="120.987598">
    <tag k="created_by" v="JOSM"/>
    <tag k="highway" v="trunk"/>
    <tag k="name" v="South Coast Hwy"/>
    <tag k="surface" v="paved"/>
  </node>
  <node id="131900339" version="1" timestamp="2007-11-25T09:10:00Z" uid="4467" user="Rosscoe" changeset="615428" lat="-33.7453" lon="120.987933">
    <tag k="created_by" v="JOSM"/>
    <tag k="highway" v="trunk"/>
    <tag k="name" v="South Coast Hwy"/>
    <tag k="surface" v="paved"/>
  </node>
  <node id="131900366" version="1" timestamp="2007-11-25T09:10:01Z" uid="4467" user="Rosscoe" changeset="615428" lat="-33.744815" lon="120.98559">
    <tag k="created_by" v="JOSM"/>
    <tag k="highway" v="trunk"/>
    <tag k="name" v="South Coast Hwy"/>
    <tag k="surface" v="paved"/>
  </node>
  <node id="131900379" version="1" timestamp="2007-11-25T09:10:01Z" uid="4467" user="Rosscoe" changeset="615428" lat="-33.744885" lon="120.98593">
    <tag k="created_by" v="JOSM"/>
    <tag k="highway" v="trunk"/>
    <tag k="name" v="South Coast Hwy"/>
    <tag k="surface" v="paved"/>
  </node>
  <node id="131900393" version="1" timestamp="2007-11-25T09:10:02Z" uid="4467" user="Rosscoe" changeset="615428" lat="-33.744953" lon="120.986257">
    <tag k="created_by" v="JOSM"/>
    <tag k="highway" v="trunk"/>
    <tag k="name" v="South Coast Hwy"/>
    <tag k="surface" v="paved"/>
  </node>
  <node id="131900410" version="1" timestamp="2007-11-25T09:10:03Z" uid="4467" user="Rosscoe" changeset="615428" lat="-33.745025" lon="120.986592">
    <tag k="created_by" v="JOSM"/>
    <tag k="highway" v="trunk"/>
    <tag k="name" v="South Coast Hwy"/>
    <tag k="surface" v="paved"/>
  </node>
  <node id="131900436" version="1" timestamp="2007-11-25T09:10:04Z" uid="4467" user="Rosscoe" changeset="615428" lat="-33.74565" lon="120.989598">
    <tag k="created_by" v="JOSM"/>
    <tag k="highway" v="trunk"/>
    <tag k="name" v="South Coast Hwy"/>
    <tag k="surface" v="paved"/>
  </node>
  <node id="131900455" version="1" timestamp="2007-11-25T09:10:05Z" uid="4467" user="Rosscoe" changeset="615428" lat="-33.74572" lon="120.989932">
    <tag k="created_by" v="JOSM"/>
    <tag k="highway" v="trunk"/>
    <tag k="name" v="South Coast Hwy"/>
    <tag k="surface" v="paved"/>
  </node>
  <node id="131900478" version="1" timestamp="2007-11-25T09:10:05Z" uid="4467" user="Rosscoe" changeset="615428" lat="-33.745788" lon="120.990265">
    <tag k="created_by" v="JOSM"/>
    <tag k="highway" v="trunk"/>
    <tag k="name" v="South Coast Hwy"/>
    <tag k="surface" v="paved"/>
  </node>
  <node id="131900503" version="1" timestamp="2007-11-25T09:10:06Z" uid="4467" user="Rosscoe" changeset="615428" lat="-33.745857" lon="120.990598">
    <tag k="created_by" v="JOSM"/>
    <tag k="highway" v="trunk"/>
    <tag k="name" v="South Coast Hwy"/>
    <tag k="surface" v="paved"/>
  </node>
  <node id="131900529" version="1" timestamp="2007-11-25T09:10:07Z" uid="4467" user="Rosscoe" changeset="615428" lat="-33.74537" lon="120.98827">
    <tag k="created_by" v="JOSM"/>
    <tag k="highway" v="trunk"/>
    <tag k="name" v="South Coast Hwy"/>
    <tag k="surface" v="paved"/>
  </node>
  <node id="131900548" version="1" timestamp="2007-11-25T09:10:08Z" uid="4467" user="Rosscoe" changeset="615428" lat="-33.74544" lon="120.988603">
    <tag k="created_by" v="JOSM"/>
    <tag k="highway" v="trunk"/>
    <tag k="name" v="South Coast Hwy"/>
    <tag k="surface" v="paved"/>
  </node>
  <node id="131900574" version="1" timestamp="2007-11-25T09:10:08Z" uid="4467" user="Rosscoe" changeset="615428" lat="-33.74551" lon="120.988935">
    <tag k="created_by" v="JOSM"/>
    <tag k="highway" v="trunk"/>
    <tag k="name" v="South Coast Hwy"/>
    <tag k="surface" v="paved"/>
  </node>
  <node id="131900594" version="1" timestamp="2007-11-25T09:10:09Z" uid="4467" user="Rosscoe" changeset="615428" lat="-33.74558" lon="120.98927">
    <tag k="created_by" v="JOSM"/>
    <tag k="highway" v="trunk"/>
    <tag k="name" v="South Coast Hwy"/>
    <tag k="surface" v="paved"/>
  </node>
  <node id="131900612" version="1" timestamp="2007-11-25T09:10:10Z" uid="4467" user="Rosscoe" changeset="615428" lat="-33.74641" lon="120.993258">
    <tag k="created_by" v="JOSM"/>
    <tag k="highway" v="trunk"/>
    <tag k="name" v="South Coast Hwy"/>
    <tag k="surface" v="paved"/>
  </node>
  <node id="131900631" version="1" timestamp="2007-11-25T09:10:11Z" uid="4467" user="Rosscoe" changeset="615428" lat="-33.746342" lon="120.992922">
    <tag k="created_by" v="JOSM"/>
    <tag k="highway" v="trunk"/>
    <tag k="name" v="South Coast Hwy"/>
    <tag k="surface" v="paved"/>
  </node>
  <node id="131900631" version="3" timestamp="2011-12-20T12:59:12Z" uid="338866" user="tiger" changeset="10163339" lat="-33.746342" lon="120.992922"/>
  <node id="131900659" version="1" timestamp="2007-11-25T09:10:12Z" uid="4467" user="Rosscoe" changeset="615428" lat="-33.746273" lon="120.992587">
    <tag k="created_by" v="JOSM"/>
    <tag k="highway" v="trunk"/>
    <tag k="name" v="South Coast Hwy"/>
    <tag k="surface" v="paved"/>
  </node>
  <node id="131900686" version="1" timestamp="2007-11-25T09:10:12Z" uid="4467" user="Rosscoe" changeset="615428" lat="-33.746205" lon="120.992258">
    <tag k="created_by" v="JOSM"/>
    <tag k="highway" v="trunk"/>
    <tag k="name" v="South Coast Hwy"/>
    <tag k="surface" v="paved"/>
  </node>
  <node id="131900712" version="1" timestamp="2007-11-25T09:10:13Z" uid="4467" user="Rosscoe" changeset="615428" lat="-33.746135" lon="120.991925">
    <tag k="created_by" v="JOSM"/>
    <tag k="highway" v="trunk"/>
    <tag k="name" v="South Coast Hwy"/>
    <tag k="surface" v="paved"/>
  </node>
  <node id="131900735" version="1" timestamp="2007-11-25T09:10:14Z" uid="4467" user="Rosscoe" changeset="615428" lat="-33.746065" lon="120.991593">
    <tag k="created_by" v="JOSM"/>
    <tag k="highway" v="trunk"/>
    <tag k="name" v="South Coast Hwy"/>
    <tag k="surface" v="paved"/>
  </node>
  <node id="131900758" version="1" timestamp="2007-11-25T09:10:15Z" uid="4467" user="Rosscoe" changeset="615428" lat="-33.745997" lon="120.991267">
    <tag k="created_by" v="JOSM"/>
    <tag k="highway" v="trunk"/>
    <tag k="name" v="South Coast Hwy"/>
    <tag k="surface" v="paved"/>
  </node>
  <node id="131900783" version="1" timestamp="2007-11-25T09:10:15Z" uid="4467" user="Rosscoe" changeset="615428" lat="-33.745927" lon="120.99093">
    <tag k="created_by" v="JOSM"/>
    <tag k="highway" v="trunk"/>
    <tag k="name" v="South Coast Hwy"/>
    <tag k="surface" v="paved"/>
  </node>
  <node id="131900805" version="1" timestamp="2007-11-25T09:10:16Z" uid="4467" user="Rosscoe" changeset="615428" lat="-33.747097" lon="120.996608">
    <tag k="created_by" v="JOSM"/>
    <tag k="highway" v="trunk"/>
    <tag k="name" v="South Coast Hwy"/>
    <tag k="surface" v="paved"/>
  </node>
  <node id="131900828" version="1" timestamp="2007-11-25T09:10:17Z" uid="4467" user="Rosscoe" changeset="615428" lat="-33.747027" lon="120.99627">
    <tag k="created_by" v="JOSM"/>
    <tag k="highway" v="trunk"/>
    <tag k="name" v="South Coast Hwy"/>
    <tag k="surface" v="paved"/>
  </node>
  <node id="131900853" version="1" timestamp="2007-11-25T09:10:18Z" uid="4467" user="Rosscoe" changeset="615428" lat="-33.74689" lon="120.995598">
    <tag k="created_by" v="JOSM"/>
    <tag k="highway" v="trunk"/>
    <tag k="name" v="South Coast Hwy"/>
    <tag k="surface" v="paved"/>
  </node>
  <node id="131900876" version="1" timestamp="2007-11-25T09:10:19Z" uid="4467" user="Rosscoe" changeset="615428" lat="-33.746822" lon="120.995267">
    <tag k="created_by" v="JOSM"/>
    <tag k="highway" v="trunk"/>
    <tag k="name" v="South Coast Hwy"/>
    <tag k="surface" v="paved"/>
  </node>
  <node id="131900904" version="1" timestamp="2007-11-25T09:10:19Z" uid="4467" user="Rosscoe" changeset="615428" lat="-33.746752" lon="120.994928">
    <tag k="created_by" v="JOSM"/>
    <tag k="highway" v="trunk"/>
    <tag k="name" v="South Coast Hwy"/>
    <tag k="surface" v="paved"/>
  </node>
  <node id="131900920" version="1" timestamp="2007-11-25T09:10:20Z" uid="4467" user="Rosscoe" changeset="615428" lat="-33.746613" lon="120.994257">
    <tag k="created_by" v="JOSM"/>
    <tag k="highway" v="trunk"/>
    <tag k="name" v="South Coast Hwy"/>
    <tag k="surface" v="paved"/>
  </node>
  <node id="131900924" version="1" timestamp="2007-11-25T09:10:21Z" uid="4467" user="Rosscoe" changeset="615428" lat="-33.746545" lon="120.993922">
    <tag k="created_by" v="JOSM"/>
    <tag k="highway" v="trunk"/>
    <tag k="name" v="South Coast Hwy"/>
    <tag k="surface" v="paved"/>
  </node>
  <node id="131900948" version="1" timestamp="2007-11-25T09:10:22Z" uid="4467" user="Rosscoe" changeset="615428" lat="-33.746475" lon="120.993588">
    <tag k="created_by" v="JOSM"/>
    <tag k="highway" v="trunk"/>
    <tag k="name" v="South Coast Hwy"/>
    <tag k="surface" v="paved"/>
  </node>
  <node id="131900977" version="1" timestamp="2007-11-25T09:10:22Z" uid="4467" user="Rosscoe" changeset="615428" lat="-33.747578" lon="120.998965">
    <tag k="created_by" v="JOSM"/>
    <tag k="highway" v="trunk"/>
    <tag k="name" v="South Coast Hwy"/>
    <tag k="surface" v="paved"/>
  </node>
  <node id="131900995" version="1" timestamp="2007-11-25T09:10:23Z" uid="4467" user="Rosscoe" changeset="615428" lat="-33.747715" lon="120.999633">
    <tag k="created_by" v="JOSM"/>
    <tag k="highway" v="trunk"/>
    <tag k="name" v="South Coast Hwy"/>
    <tag k="surface" v="paved"/>
  </node>
  <node id="131901019" version="1" timestamp="2007-11-25T09:10:24Z" uid="4467" user="Rosscoe" changeset="615428" lat="-33.74744" lon="120.998292">
    <tag k="created_by" v="JOSM"/>
    <tag k="highway" v="trunk"/>
    <tag k="name" v="South Coast Hwy"/>
    <tag k="surface" v="paved"/>
  </node>
  <node id="131901038" version="1" timestamp="2007-11-25T09:10:25Z" uid="4467" user="Rosscoe" changeset="615428" lat="-33.747508" lon="120.99863">
    <tag k="created_by" v="JOSM"/>
    <tag k="highway" v="trunk"/>
    <tag k="name" v="South Coast Hwy"/>
    <tag k="surface" v="paved"/>
  </node>
  <node id="131901061" version="1" timestamp="2007-11-25T09:10:26Z" uid="4467" user="Rosscoe" changeset="615428" lat="-33.747302" lon="120.997617">
    <tag k="created_by" v="JOSM"/>
    <tag k="highway" v="trunk"/>
    <tag k="name" v="South Coast Hwy"/>
    <tag k="surface" v="paved"/>
  </node>
  <node id="131901087" version="1" timestamp="2007-11-25T09:10:27Z" uid="4467" user="Rosscoe" changeset="615428" lat="-33.747372" lon="120.997955">
    <tag k="created_by" v="JOSM"/>
    <tag k="highway" v="trunk"/>
    <tag k="name" v="South Coast Hwy"/>
    <tag k="surface" v="paved"/>
  </node>
  <node id="131901104" version="1" timestamp="2007-11-25T09:10:27Z" uid="4467" user="Rosscoe" changeset="615428" lat="-33.747165" lon="120.996945">
    <tag k="created_by" v="JOSM"/>
    <tag k="highway" v="trunk"/>
    <tag k="name" v="South Coast Hwy"/>
    <tag k="surface" v="paved"/>
  </node>
  <node id="131901120" version="1" timestamp="2007-11-25T09:10:28Z" uid="4467" user="Rosscoe" changeset="615428" lat="-33.747233" lon="120.997287">
    <tag k="created_by" v="JOSM"/>
    <tag k="highway" v="trunk"/>
    <tag k="name" v="South Coast Hwy"/>
    <tag k="surface" v="paved"/>
  </node>
  <node id="131901135" version="1" timestamp="2007-11-25T09:10:29Z" uid="4467" user="Rosscoe" changeset="615428" lat="-33.748263" lon="121.002303">
    <tag k="created_by" v="JOSM"/>
    <tag k="highway" v="trunk"/>
    <tag k="name" v="South Coast Hwy"/>
    <tag k="surface" v="paved"/>
  </node>
  <node id="131901147" version="1" timestamp="2007-11-25T09:10:30Z" uid="4467" user="Rosscoe" changeset="615428" lat="-33.74833" lon="121.002632">
    <tag k="created_by" v="JOSM"/>
    <tag k="highway" v="trunk"/>
    <tag k="name" v="South Coast Hwy"/>
    <tag k="surface" v="paved"/>
  </node>
  <node id="131901173" version="1" timestamp="2007-11-25T09:10:30Z" uid="4467" user="Rosscoe" changeset="615428" lat="-33.748128" lon="121.001637">
    <tag k="created_by" v="JOSM"/>
    <tag k="highway" v="trunk"/>
    <tag k="name" v="South Coast Hwy"/>
    <tag k="surface" v="paved"/>
  </node>
  <node id="131901200" version="1" timestamp="2007-11-25T09:10:31Z" uid="4467" user="Rosscoe" changeset="615428" lat="-33.748197" lon="121.001968">
    <tag k="created_by" v="JOSM"/>
    <tag k="highway" v="trunk"/>
    <tag k="name" v="South Coast Hwy"/>
    <tag k="surface" v="paved"/>
  </node>
  <node id="131901200" version="3" timestamp="2011-11-17T11:08:57Z" uid="338866" user="tiger" changeset="9852982" lat="-33.748197" lon="121.001968"/>
  <node id="131901219" version="1" timestamp="2007-11-25T09:10:32Z" uid="4467" user="Rosscoe" changeset="615428" lat="-33.747923" lon="121.00064">
    <tag k="created_by" v="JOSM"/>
    <tag k="highway" v="trunk"/>
    <tag k="name" v="South Coast Hwy"/>
    <tag k="surface" v="paved"/>
  </node>
  <node id="131901241" version="1" timestamp="2007-11-25T09:10:33Z" uid="4467" user="Rosscoe" changeset="615428" lat="-33.748062" lon="121.00131">
    <tag k="created_by" v="JOSM"/>
    <tag k="highway" v="trunk"/>
    <tag k="name" v="South Coast Hwy"/>
    <tag k="surface" v="paved"/>
  </node>
  <node id="131901259" version="3" timestamp="2010-02-15T06:31:42Z" uid="74617" user="JohnSmith" changeset="3880421" lat="-27.6266801" lon="152.974107">
    <tag k="name" v="College Park"/>
    <tag k="place" v="hamlet"/>
  </node>
  <node id="131901262" version="1" timestamp="2007-11-25T09:10:34Z" uid="4467" user="Rosscoe" changeset="615428" lat="-33.747783" lon="120.999968">
    <tag k="created_by" v="JOSM"/>
    <tag k="highway" v="trunk"/>
    <tag k="name" v="South Coast Hwy"/>
    <tag k="surface" v="paved"/>
  </node>
  <node id="131901291" version="1" timestamp="2007-11-25T09:10:35Z" uid="4467" user="Rosscoe" changeset="615428" lat="-33.747853" lon="121.000307">
    <tag k="created_by" v="JOSM"/>
    <tag k="highway" v="trunk"/>
    <tag k="name" v="South Coast Hwy"/>
    <tag k="surface" v="paved"/>
  </node>
  <node id="131901309" version="1" timestamp="2007-11-25T09:10:35Z" uid="4467" user="Rosscoe" changeset="615428" lat="-33.764335" lon="121.050193">
    <tag k="created_by" v="JOSM"/>
    <tag k="highway" v="trunk"/>
    <tag k="name" v="South Coast Hwy"/>
    <tag k="surface" v="paved"/>
  </node>
  <node id="131901329" version="1" timestamp="2007-11-25T09:10:36Z" uid="4467" user="Rosscoe" changeset="615428" lat="-33.764437" lon="121.050517">
    <tag k="created_by" v="JOSM"/>
    <tag k="highway" v="trunk"/>
    <tag k="name" v="South Coast Hwy"/>
    <tag k="surface" v="paved"/>
  </node>
  <node id="131901351" version="1" timestamp="2007-11-25T09:10:37Z" uid="4467" user="Rosscoe" changeset="615428" lat="-33.764538" lon="121.050843">
    <tag k="created_by" v="JOSM"/>
    <tag k="highway" v="trunk"/>
    <tag k="name" v="South Coast Hwy"/>
    <tag k="surface" v="paved"/>
  </node>
  <node id="131901368" version="1" timestamp="2007-11-25T09:10:38Z" uid="4467" user="Rosscoe" changeset="615428" lat="-33.764638" lon="121.051157">
    <tag k="created_by" v="JOSM"/>
    <tag k="highway" v="trunk"/>
    <tag k="name" v="South Coast Hwy"/>
    <tag k="surface" v="paved"/>
  </node>
  <node id="131901395" version="1" timestamp="2007-11-25T09:10:38Z" uid="4467" user="Rosscoe" changeset="615428" lat="-33.764843" lon="121.051803">
    <tag k="created_by" v="JOSM"/>
    <tag k="highway" v="trunk"/>
    <tag k="name" v="South Coast Hwy"/>
    <tag k="surface" v="paved"/>
  </node>
  <node id="131901416" version="1" timestamp="2007-11-25T09:10:39Z" uid="4467" user="Rosscoe" changeset="615428" lat="-33.764943" lon="121.052118">
    <tag k="created_by" v="JOSM"/>
    <tag k="highway" v="trunk"/>
    <tag k="name" v="South Coast Hwy"/>
    <tag k="surface" v="paved"/>
  </node>
  <node id="131901441" version="1" timestamp="2007-11-25T09:10:40Z" uid="4467" user="Rosscoe" changeset="615428" lat="-33.765047" lon="121.052438">
    <tag k="created_by" v="JOSM"/>
    <tag k="highway" v="trunk"/>
    <tag k="name" v="South Coast Hwy"/>
    <tag k="surface" v="paved"/>
  </node>
  <node id="131901466" version="1" timestamp="2007-11-25T09:10:41Z" uid="4467" user="Rosscoe" changeset="615428" lat="-33.76525" lon="121.053075">
    <tag k="created_by" v="JOSM"/>
    <tag k="highway" v="trunk"/>
    <tag k="name" v="South Coast Hwy"/>
    <tag k="surface" v="paved"/>
  </node>
  <node id="131901485" version="1" timestamp="2007-11-25T09:10:42Z" uid="4467" user="Rosscoe" changeset="615428" lat="-33.763502" lon="121.047632">
    <tag k="created_by" v="JOSM"/>
    <tag k="highway" v="trunk"/>
    <tag k="name" v="South Coast Hwy"/>
    <tag k="surface" v="paved"/>
  </node>
  <node id="131901500" version="1" timestamp="2007-11-25T09:10:43Z" uid="4467" user="Rosscoe" changeset="615428" lat="-33.763608" lon="121.047952">
    <tag k="created_by" v="JOSM"/>
    <tag k="highway" v="trunk"/>
    <tag k="name" v="South Coast Hwy"/>
    <tag k="surface" v="paved"/>
  </node>
  <node id="131901519" version="1" timestamp="2007-11-25T09:10:43Z" uid="4467" user="Rosscoe" changeset="615428" lat="-33.763715" lon="121.048272">
    <tag k="created_by" v="JOSM"/>
    <tag k="highway" v="trunk"/>
    <tag k="name" v="South Coast Hwy"/>
    <tag k="surface" v="paved"/>
  </node>
  <node id="131901535" version="1" timestamp="2007-11-25T09:10:44Z" uid="4467" user="Rosscoe" changeset="615428" lat="-33.763822" lon="121.048595">
    <tag k="created_by" v="JOSM"/>
    <tag k="highway" v="trunk"/>
    <tag k="name" v="South Coast Hwy"/>
    <tag k="surface" v="paved"/>
  </node>
  <node id="131901548" version="1" timestamp="2007-11-25T09:10:45Z" uid="4467" user="Rosscoe" changeset="615428" lat="-33.763928" lon="121.048922">
    <tag k="created_by" v="JOSM"/>
    <tag k="highway" v="trunk"/>
    <tag k="name" v="South Coast Hwy"/>
    <tag k="surface" v="paved"/>
  </node>
  <node id="131901565" version="1" timestamp="2007-11-25T09:10:46Z" uid="4467" user="Rosscoe" changeset="615428" lat="-33.764032" lon="121.04924">
    <tag k="created_by" v="JOSM"/>
    <tag k="highway" v="trunk"/>
    <tag k="name" v="South Coast Hwy"/>
    <tag k="surface" v="paved"/>
  </node>
  <node id="131901582" version="1" timestamp="2007-11-25T09:10:47Z" uid="4467" user="Rosscoe" changeset="615428" lat="-33.764135" lon="121.04956">
    <tag k="created_by" v="JOSM"/>
    <tag k="highway" v="trunk"/>
    <tag k="name" v="South Coast Hwy"/>
    <tag k="surface" v="paved"/>
  </node>
  <node id="131901582" version="3" timestamp="2011-12-20T12:59:12Z" uid="338866" user="tiger" changeset="10163339" lat="-33.764135" lon="121.04956"/>
  <node id="131901595" version="1" timestamp="2007-11-25T09:10:48Z" uid="4467" user="Rosscoe" changeset="615428" lat="-33.764237" lon="121.049882">
    <tag k="created_by" v="JOSM"/>
    <tag k="highway" v="trunk"/>
    <tag k="name" v="South Coast Hwy"/>
    <tag k="surface" v="paved"/>
  </node>
  <node id="131901619" version="1" timestamp="2007-11-25T09:10:48Z" uid="4467" user="Rosscoe" changeset="615428" lat="-33.766587" lon="121.057265">
    <tag k="created_by" v="JOSM"/>
    <tag k="highway" v="trunk"/>
    <tag k="name" v="South Coast Hwy"/>
    <tag k="surface" v="paved"/>
  </node>
  <node id="131901642" version="1" timestamp="2007-11-25T09:10:49Z" uid="4467" user="Rosscoe" changeset="615428" lat="-33.766487" lon="121.05695">
    <tag k="created_by" v="JOSM"/>
    <tag k="highway" v="trunk"/>
    <tag k="name" v="South Coast Hwy"/>
    <tag k="surface" v="paved"/>
  </node>
  <node id="131901667" version="1" timestamp="2007-11-25T09:10:50Z" uid="4467" user="Rosscoe" changeset="615428" lat="-33.766795" lon="121.057918">
    <tag k="created_by" v="JOSM"/>
    <tag k="highway" v="trunk"/>
    <tag k="name" v="South Coast Hwy"/>
    <tag k="surface" v="paved"/>
  </node>
  <node id="131901687" version="1" timestamp="2007-11-25T09:10:51Z" uid="4467" user="Rosscoe" changeset="615428" lat="-33.766692" lon="121.057595">
    <tag k="created_by" v="JOSM"/>
    <tag k="highway" v="trunk"/>
    <tag k="name" v="South Coast Hwy"/>
    <tag k="surface" v="paved"/>
  </node>
  <node id="131901708" version="1" timestamp="2007-11-25T09:10:52Z" uid="4467" user="Rosscoe" changeset="615428" lat="-33.767002" lon="121.058572">
    <tag k="created_by" v="JOSM"/>
    <tag k="highway" v="trunk"/>
    <tag k="name" v="South Coast Hwy"/>
    <tag k="surface" v="paved"/>
  </node>
  <node id="131901723" version="1" timestamp="2007-11-25T09:10:52Z" uid="4467" user="Rosscoe" changeset="615428" lat="-33.766897" lon="121.058243">
    <tag k="created_by" v="JOSM"/>
    <tag k="highway" v="trunk"/>
    <tag k="name" v="South Coast Hwy"/>
    <tag k="surface" v="paved"/>
  </node>
  <node id="131901739" version="1" timestamp="2007-11-25T09:10:53Z" uid="4467" user="Rosscoe" changeset="615428" lat="-33.76721" lon="121.059215">
    <tag k="created_by" v="JOSM"/>
    <tag k="highway" v="trunk"/>
    <tag k="name" v="South Coast Hwy"/>
    <tag k="surface" v="paved"/>
  </node>
  <node id="131901774" version="1" timestamp="2007-11-25T09:10:54Z" uid="4467" user="Rosscoe" changeset="615428" lat="-33.767105" lon="121.058892">
    <tag k="created_by" v="JOSM"/>
    <tag k="highway" v="trunk"/>
    <tag k="name" v="South Coast Hwy"/>
    <tag k="surface" v="paved"/>
  </node>
  <node id="131901789" version="1" timestamp="2007-11-25T09:10:55Z" uid="4467" user="Rosscoe" changeset="615428" lat="-33.765557" lon="121.054047">
    <tag k="created_by" v="JOSM"/>
    <tag k="highway" v="trunk"/>
    <tag k="name" v="South Coast Hwy"/>
    <tag k="surface" v="paved"/>
  </node>
  <node id="131901818" version="1" timestamp="2007-11-25T09:10:55Z" uid="4467" user="Rosscoe" changeset="615428" lat="-33.765353" lon="121.053397">
    <tag k="created_by" v="JOSM"/>
    <tag k="highway" v="trunk"/>
    <tag k="name" v="South Coast Hwy"/>
    <tag k="surface" v="paved"/>
  </node>
  <node id="131901842" version="1" timestamp="2007-11-25T09:10:56Z" uid="4467" user="Rosscoe" changeset="615428" lat="-33.76587" lon="121.055017">
    <tag k="created_by" v="JOSM"/>
    <tag k="highway" v="trunk"/>
    <tag k="name" v="South Coast Hwy"/>
    <tag k="surface" v="paved"/>
  </node>
  <node id="131901866" version="1" timestamp="2007-11-25T09:10:57Z" uid="4467" user="Rosscoe" changeset="615428" lat="-33.765765" lon="121.054695">
    <tag k="created_by" v="JOSM"/>
    <tag k="highway" v="trunk"/>
    <tag k="name" v="South Coast Hwy"/>
    <tag k="surface" v="paved"/>
  </node>
  <node id="131901885" version="1" timestamp="2007-11-25T09:10:58Z" uid="4467" user="Rosscoe" changeset="615428" lat="-33.76618" lon="121.055987">
    <tag k="created_by" v="JOSM"/>
    <tag k="highway" v="trunk"/>
    <tag k="name" v="South Coast Hwy"/>
    <tag k="surface" v="paved"/>
  </node>
  <node id="131901900" version="1" timestamp="2007-11-25T09:10:59Z" uid="4467" user="Rosscoe" changeset="615428" lat="-33.766078" lon="121.055665">
    <tag k="created_by" v="JOSM"/>
    <tag k="highway" v="trunk"/>
    <tag k="name" v="South Coast Hwy"/>
    <tag k="surface" v="paved"/>
  </node>
  <node id="131901918" version="1" timestamp="2007-11-25T09:10:59Z" uid="4467" user="Rosscoe" changeset="615428" lat="-33.766385" lon="121.056635">
    <tag k="created_by" v="JOSM"/>
    <tag k="highway" v="trunk"/>
    <tag k="name" v="South Coast Hwy"/>
    <tag k="surface" v="paved"/>
  </node>
  <node id="131901934" version="1" timestamp="2007-11-25T09:11:00Z" uid="4467" user="Rosscoe" changeset="615428" lat="-33.766282" lon="121.056308">
    <tag k="created_by" v="JOSM"/>
    <tag k="highway" v="trunk"/>
    <tag k="name" v="South Coast Hwy"/>
    <tag k="surface" v="paved"/>
  </node>
  <node id="131901957" version="1" timestamp="2007-11-25T09:11:01Z" uid="4467" user="Rosscoe" changeset="615428" lat="-33.768098" lon="121.062832">
    <tag k="created_by" v="JOSM"/>
    <tag k="highway" v="trunk"/>
    <tag k="name" v="South Coast Hwy"/>
    <tag k="surface" v="paved"/>
  </node>
  <node id="131901957" version="3" timestamp="2011-12-20T12:59:13Z" uid="338866" user="tiger" changeset="10163339" lat="-33.768098" lon="121.062832"/>
  <node id="131901972" version="1" timestamp="2007-11-25T09:11:02Z" uid="4467" user="Rosscoe" changeset="615428" lat="-33.768115" lon="121.063515">
    <tag k="created_by" v="JOSM"/>
    <tag k="highway" v="trunk"/>
    <tag k="name" v="South Coast Hwy"/>
    <tag k="surface" v="paved"/>
  </node>
  <node id="131901972" version="3" timestamp="2011-12-20T12:59:13Z" uid="338866" user="tiger" changeset="10163339" lat="-33.768115" lon="121.063515"/>
  <node id="131901997" version="1" timestamp="2007-11-25T09:11:03Z" uid="4467" user="Rosscoe" changeset="615428" lat="-33.76803" lon="121.062153">
    <tag k="created_by" v="JOSM"/>
    <tag k="highway" v="trunk"/>
    <tag k="name" v="South Coast Hwy"/>
    <tag k="surface" v="paved"/>
  </node>
  <node id="131901997" version="3" timestamp="2011-12-20T12:59:13Z" uid="338866" user="tiger" changeset="10163339" lat="-33.76803" lon="121.062153"/>
  <node id="131902010" version="1" timestamp="2007-11-25T09:11:03Z" uid="4467" user="Rosscoe" changeset="615428" lat="-33.768072" lon="121.062495">
    <tag k="created_by" v="JOSM"/>
    <tag k="highway" v="trunk"/>
    <tag k="name" v="South Coast Hwy"/>
    <tag k="surface" v="paved"/>
  </node>
  <node id="131902025" version="1" timestamp="2007-11-25T09:11:04Z" uid="4467" user="Rosscoe" changeset="615428" lat="-33.768112" lon="121.064887">
    <tag k="created_by" v="JOSM"/>
    <tag k="highway" v="trunk"/>
    <tag k="name" v="South Coast Hwy"/>
    <tag k="surface" v="paved"/>
  </node>
  <node id="131902038" version="1" timestamp="2007-11-25T09:11:05Z" uid="4467" user="Rosscoe" changeset="615428" lat="-33.768113" lon="121.065232">
    <tag k="created_by" v="JOSM"/>
    <tag k="highway" v="trunk"/>
    <tag k="name" v="South Coast Hwy"/>
    <tag k="surface" v="paved"/>
  </node>
  <node id="131902048" version="1" timestamp="2007-11-25T09:11:06Z" uid="4467" user="Rosscoe" changeset="615428" lat="-33.768113" lon="121.063853">
    <tag k="created_by" v="JOSM"/>
    <tag k="highway" v="trunk"/>
    <tag k="name" v="South Coast Hwy"/>
    <tag k="surface" v="paved"/>
  </node>
  <node id="131902065" version="1" timestamp="2007-11-25T09:11:06Z" uid="4467" user="Rosscoe" changeset="615428" lat="-33.768112" lon="121.064548">
    <tag k="created_by" v="JOSM"/>
    <tag k="highway" v="trunk"/>
    <tag k="name" v="South Coast Hwy"/>
    <tag k="surface" v="paved"/>
  </node>
  <node id="131902081" version="1" timestamp="2007-11-25T09:11:07Z" uid="4467" user="Rosscoe" changeset="615428" lat="-33.767522" lon="121.06019">
    <tag k="created_by" v="JOSM"/>
    <tag k="highway" v="trunk"/>
    <tag k="name" v="South Coast Hwy"/>
    <tag k="surface" v="paved"/>
  </node>
  <node id="131902094" version="1" timestamp="2007-11-25T09:11:08Z" uid="4467" user="Rosscoe" changeset="615428" lat="-33.767625" lon="121.060517">
    <tag k="created_by" v="JOSM"/>
    <tag k="highway" v="trunk"/>
    <tag k="name" v="South Coast Hwy"/>
    <tag k="surface" v="paved"/>
  </node>
  <node id="131902106" version="1" timestamp="2007-11-25T09:11:09Z" uid="4467" user="Rosscoe" changeset="615428" lat="-33.767315" lon="121.059542">
    <tag k="created_by" v="JOSM"/>
    <tag k="highway" v="trunk"/>
    <tag k="name" v="South Coast Hwy"/>
    <tag k="surface" v="paved"/>
  </node>
  <node id="131902129" version="1" timestamp="2007-11-25T09:11:10Z" uid="4467" user="Rosscoe" changeset="615428" lat="-33.767418" lon="121.059863">
    <tag k="created_by" v="JOSM"/>
    <tag k="highway" v="trunk"/>
    <tag k="name" v="South Coast Hwy"/>
    <tag k="surface" v="paved"/>
  </node>
  <node id="131902129" version="3" timestamp="2011-11-17T11:08:57Z" uid="338866" user="tiger" changeset="9852982" lat="-33.767418" lon="121.059863"/>
  <node id="131902150" version="1" timestamp="2007-11-25T09:11:10Z" uid="4467" user="Rosscoe" changeset="615428" lat="-33.7679" lon="121.061487">
    <tag k="created_by" v="JOSM"/>
    <tag k="highway" v="trunk"/>
    <tag k="name" v="South Coast Hwy"/>
    <tag k="surface" v="paved"/>
  </node>
  <node id="131902150" version="3" timestamp="2011-12-20T12:59:13Z" uid="338866" user="tiger" changeset="10163339" lat="-33.7679" lon="121.061487"/>
  <node id="131902171" version="1" timestamp="2007-11-25T09:11:11Z" uid="4467" user="Rosscoe" changeset="615428" lat="-33.767973" lon="121.061815">
    <tag k="created_by" v="JOSM"/>
    <tag k="highway" v="trunk"/>
    <tag k="name" v="South Coast Hwy"/>
    <tag k="surface" v="paved"/>
  </node>
  <node id="131902171" version="3" timestamp="2011-12-20T12:59:13Z" uid="338866" user="tiger" changeset="10163339" lat="-33.767973" lon="121.061815"/>
  <node id="131902175" version="1" timestamp="2007-11-25T09:11:12Z" uid="4467" user="Rosscoe" changeset="615428" lat="-33.767723" lon="121.060837">
    <tag k="created_by" v="JOSM"/>
    <tag k="highway" v="trunk"/>
    <tag k="name" v="South Coast Hwy"/>
    <tag k="surface" v="paved"/>
  </node>
  <node id="131902175" version="3" timestamp="2011-12-20T12:59:13Z" uid="338866" user="tiger" changeset="10163339" lat="-33.767723" lon="121.060837"/>
  <node id="131902193" version="1" timestamp="2007-11-25T09:11:13Z" uid="4467" user="Rosscoe" changeset="615428" lat="-33.767815" lon="121.06116">
    <tag k="created_by" v="JOSM"/>
    <tag k="highway" v="trunk"/>
    <tag k="name" v="South Coast Hwy"/>
    <tag k="surface" v="paved"/>
  </node>
  <node id="131902214" version="1" timestamp="2007-11-25T09:11:14Z" uid="4467" user="Rosscoe" changeset="615428" lat="-33.769115" lon="121.06986">
    <tag k="created_by" v="JOSM"/>
    <tag k="highway" v="trunk"/>
    <tag k="name" v="South Coast Hwy"/>
    <tag k="surface" v="paved"/>
  </node>
  <node id="131902233" version="1" timestamp="2007-11-25T09:11:14Z" uid="4467" user="Rosscoe" changeset="615428" lat="-33.769002" lon="121.069547">
    <tag k="created_by" v="JOSM"/>
    <tag k="highway" v="trunk"/>
    <tag k="name" v="South Coast Hwy"/>
    <tag k="surface" v="paved"/>
  </node>
  <node id="131902251" version="1" timestamp="2007-11-25T09:11:15Z" uid="4467" user="Rosscoe" changeset="615428" lat="-33.768885" lon="121.06923">
    <tag k="created_by" v="JOSM"/>
    <tag k="highway" v="trunk"/>
    <tag k="name" v="South Coast Hwy"/>
    <tag k="surface" v="paved"/>
  </node>
  <node id="131902263" version="1" timestamp="2007-11-25T09:11:16Z" uid="4467" user="Rosscoe" changeset="615428" lat="-33.76877" lon="121.06891">
    <tag k="created_by" v="JOSM"/>
    <tag k="highway" v="trunk"/>
    <tag k="name" v="South Coast Hwy"/>
    <tag k="surface" v="paved"/>
  </node>
  <node id="131902289" version="1" timestamp="2007-11-25T09:11:17Z" uid="4467" user="Rosscoe" changeset="615428" lat="-33.769535" lon="121.071143">
    <tag k="created_by" v="JOSM"/>
    <tag k="highway" v="trunk"/>
    <tag k="name" v="South Coast Hwy"/>
    <tag k="surface" v="paved"/>
  </node>
  <node id="131902289" version="3" timestamp="2011-12-20T12:59:13Z" uid="338866" user="tiger" changeset="10163339" lat="-33.769535" lon="121.071143"/>
  <node id="131902313" version="1" timestamp="2007-11-25T09:11:18Z" uid="4467" user="Rosscoe" changeset="615428" lat="-33.769435" lon="121.070822">
    <tag k="created_by" v="JOSM"/>
    <tag k="highway" v="trunk"/>
    <tag k="name" v="South Coast Hwy"/>
    <tag k="surface" v="paved"/>
  </node>
  <node id="131902336" version="1" timestamp="2007-11-25T09:11:18Z" uid="4467" user="Rosscoe" changeset="615428" lat="-33.769335" lon="121.070503">
    <tag k="created_by" v="JOSM"/>
    <tag k="highway" v="trunk"/>
    <tag k="name" v="South Coast Hwy"/>
    <tag k="surface" v="paved"/>
  </node>
  <node id="131902357" version="1" timestamp="2007-11-25T09:11:19Z" uid="4467" user="Rosscoe" changeset="615428" lat="-33.769228" lon="121.070182">
    <tag k="created_by" v="JOSM"/>
    <tag k="highway" v="trunk"/>
    <tag k="name" v="South Coast Hwy"/>
    <tag k="surface" v="paved"/>
  </node>
  <node id="131902357" version="3" timestamp="2011-12-20T12:59:13Z" uid="338866" user="tiger" changeset="10163339" lat="-33.769228" lon="121.070182"/>
  <node id="131902382" version="1" timestamp="2007-11-25T09:11:20Z" uid="4467" user="Rosscoe" changeset="615428" lat="-33.768273" lon="121.06728">
    <tag k="created_by" v="JOSM"/>
    <tag k="highway" v="trunk"/>
    <tag k="name" v="South Coast Hwy"/>
    <tag k="surface" v="paved"/>
  </node>
  <node id="131902382" version="3" timestamp="2011-12-20T12:59:13Z" uid="338866" user="tiger" changeset="10163339" lat="-33.768273" lon="121.06728"/>
  <node id="131902402" version="1" timestamp="2007-11-25T09:11:21Z" uid="4467" user="Rosscoe" changeset="615428" lat="-33.768177" lon="121.066608">
    <tag k="created_by" v="JOSM"/>
    <tag k="highway" v="trunk"/>
    <tag k="name" v="South Coast Hwy"/>
    <tag k="surface" v="paved"/>
  </node>
  <node id="131902402" version="3" timestamp="2011-12-20T12:59:13Z" uid="338866" user="tiger" changeset="10163339" lat="-33.768177" lon="121.066608"/>
  <node id="131902422" version="1" timestamp="2007-11-25T09:11:22Z" uid="4467" user="Rosscoe" changeset="615428" lat="-33.768147" lon="121.066262">
    <tag k="created_by" v="JOSM"/>
    <tag k="highway" v="trunk"/>
    <tag k="name" v="South Coast Hwy"/>
    <tag k="surface" v="paved"/>
  </node>
  <node id="131902422" version="3" timestamp="2011-12-20T12:59:14Z" uid="338866" user="tiger" changeset="10163339" lat="-33.768147" lon="121.066262"/>
  <node id="131902440" version="1" timestamp="2007-11-25T09:11:22Z" uid="4467" user="Rosscoe" changeset="615428" lat="-33.768118" lon="121.065575">
    <tag k="created_by" v="JOSM"/>
    <tag k="highway" v="trunk"/>
    <tag k="name" v="South Coast Hwy"/>
    <tag k="surface" v="paved"/>
  </node>
  <node id="131902440" version="3" timestamp="2011-12-20T12:59:14Z" uid="338866" user="tiger" changeset="10163339" lat="-33.768118" lon="121.065575"/>
  <node id="131902456" version="1" timestamp="2007-11-25T09:11:23Z" uid="4467" user="Rosscoe" changeset="615428" lat="-33.768653" lon="121.068593">
    <tag k="created_by" v="JOSM"/>
    <tag k="highway" v="trunk"/>
    <tag k="name" v="South Coast Hwy"/>
    <tag k="surface" v="paved"/>
  </node>
  <node id="131902473" version="1" timestamp="2007-11-25T09:11:24Z" uid="4467" user="Rosscoe" changeset="615428" lat="-33.76854" lon="121.06827">
    <tag k="created_by" v="JOSM"/>
    <tag k="highway" v="trunk"/>
    <tag k="name" v="South Coast Hwy"/>
    <tag k="surface" v="paved"/>
  </node>
  <node id="131902473" version="3" timestamp="2011-12-20T12:59:14Z" uid="338866" user="tiger" changeset="10163339" lat="-33.76854" lon="121.06827"/>
  <node id="131902487" version="1" timestamp="2007-11-25T09:11:25Z" uid="4467" user="Rosscoe" changeset="615428" lat="-33.768438" lon="121.067945">
    <tag k="created_by" v="JOSM"/>
    <tag k="highway" v="trunk"/>
    <tag k="name" v="South Coast Hwy"/>
    <tag k="surface" v="paved"/>
  </node>
  <node id="131902513" version="1" timestamp="2007-11-25T09:11:25Z" uid="4467" user="Rosscoe" changeset="615428" lat="-33.768348" lon="121.067613">
    <tag k="created_by" v="JOSM"/>
    <tag k="highway" v="trunk"/>
    <tag k="name" v="South Coast Hwy"/>
    <tag k="surface" v="paved"/>
  </node>
  <node id="131902513" version="3" timestamp="2011-12-20T12:59:14Z" uid="338866" user="tiger" changeset="10163339" lat="-33.768348" lon="121.067613"/>
  <node id="131902539" version="1" timestamp="2007-11-25T09:11:26Z" uid="4467" user="Rosscoe" changeset="615428" lat="-33.757072" lon="121.03002">
    <tag k="created_by" v="JOSM"/>
    <tag k="highway" v="trunk"/>
    <tag k="name" v="South Coast Hwy"/>
    <tag k="surface" v="paved"/>
  </node>
  <node id="131902542" version="1" timestamp="2007-11-25T09:11:27Z" uid="4467" user="Rosscoe" changeset="615428" lat="-33.757212" lon="121.030315">
    <tag k="created_by" v="JOSM"/>
    <tag k="highway" v="trunk"/>
    <tag k="name" v="South Coast Hwy"/>
    <tag k="surface" v="paved"/>
  </node>
  <node id="131902551" version="1" timestamp="2007-11-25T09:11:28Z" uid="4467" user="Rosscoe" changeset="615428" lat="-33.757352" lon="121.030613">
    <tag k="created_by" v="JOSM"/>
    <tag k="highway" v="trunk"/>
    <tag k="name" v="South Coast Hwy"/>
    <tag k="surface" v="paved"/>
  </node>
  <node id="131902559" version="1" timestamp="2007-11-25T09:11:29Z" uid="4467" user="Rosscoe" changeset="615428" lat="-33.757495" lon="121.030912">
    <tag k="created_by" v="JOSM"/>
    <tag k="highway" v="trunk"/>
    <tag k="name" v="South Coast Hwy"/>
    <tag k="surface" v="paved"/>
  </node>
  <node id="131902571" version="1" timestamp="2007-11-25T09:11:29Z" uid="4467" user="Rosscoe" changeset="615428" lat="-33.7565" lon="121.028813">
    <tag k="created_by" v="JOSM"/>
    <tag k="highway" v="trunk"/>
    <tag k="name" v="South Coast Hwy"/>
    <tag k="surface" v="paved"/>
  </node>
  <node id="131902586" version="1" timestamp="2007-11-25T09:11:30Z" uid="4467" user="Rosscoe" changeset="615428" lat="-33.756642" lon="121.029117">
    <tag k="created_by" v="JOSM"/>
    <tag k="highway" v="trunk"/>
    <tag k="name" v="South Coast Hwy"/>
    <tag k="surface" v="paved"/>
  </node>
  <node id="131902601" version="1" timestamp="2007-11-25T09:11:31Z" uid="4467" user="Rosscoe" changeset="615428" lat="-33.756783" lon="121.029415">
    <tag k="created_by" v="JOSM"/>
    <tag k="highway" v="trunk"/>
    <tag k="name" v="South Coast Hwy"/>
    <tag k="surface" v="paved"/>
  </node>
  <node id="131902613" version="1" timestamp="2007-11-25T09:11:32Z" uid="4467" user="Rosscoe" changeset="615428" lat="-33.756927" lon="121.029713">
    <tag k="created_by" v="JOSM"/>
    <tag k="highway" v="trunk"/>
    <tag k="name" v="South Coast Hwy"/>
    <tag k="surface" v="paved"/>
  </node>
  <node id="131902631" version="1" timestamp="2007-11-25T09:11:33Z" uid="4467" user="Rosscoe" changeset="615428" lat="-33.755938" lon="121.02762">
    <tag k="created_by" v="JOSM"/>
    <tag k="highway" v="trunk"/>
    <tag k="name" v="South Coast Hwy"/>
    <tag k="surface" v="paved"/>
  </node>
  <node id="131902649" version="1" timestamp="2007-11-25T09:11:33Z" uid="4467" user="Rosscoe" changeset="615428" lat="-33.75608" lon="121.027917">
    <tag k="created_by" v="JOSM"/>
    <tag k="highway" v="trunk"/>
    <tag k="name" v="South Coast Hwy"/>
    <tag k="surface" v="paved"/>
  </node>
  <node id="131902662" version="1" timestamp="2007-11-25T09:11:34Z" uid="4467" user="Rosscoe" changeset="615428" lat="-33.756222" lon="121.028217">
    <tag k="created_by" v="JOSM"/>
    <tag k="highway" v="trunk"/>
    <tag k="name" v="South Coast Hwy"/>
    <tag k="surface" v="paved"/>
  </node>
  <node id="131902679" version="1" timestamp="2007-11-25T09:11:35Z" uid="4467" user="Rosscoe" changeset="615428" lat="-33.756362" lon="121.028513">
    <tag k="created_by" v="JOSM"/>
    <tag k="highway" v="trunk"/>
    <tag k="name" v="South Coast Hwy"/>
    <tag k="surface" v="paved"/>
  </node>
  <node id="131902694" version="1" timestamp="2007-11-25T09:11:36Z" uid="4467" user="Rosscoe" changeset="615428" lat="-33.755372" lon="121.026425">
    <tag k="created_by" v="JOSM"/>
    <tag k="highway" v="trunk"/>
    <tag k="name" v="South Coast Hwy"/>
    <tag k="surface" v="paved"/>
  </node>
  <node id="131902720" version="1" timestamp="2007-11-25T09:11:36Z" uid="4467" user="Rosscoe" changeset="615428" lat="-33.755512" lon="121.026718">
    <tag k="created_by" v="JOSM"/>
    <tag k="highway" v="trunk"/>
    <tag k="name" v="South Coast Hwy"/>
    <tag k="surface" v="paved"/>
  </node>
  <node id="131902743" version="1" timestamp="2007-11-25T09:11:37Z" uid="4467" user="Rosscoe" changeset="615428" lat="-33.75565" lon="121.027018">
    <tag k="created_by" v="JOSM"/>
    <tag k="highway" v="trunk"/>
    <tag k="name" v="South Coast Hwy"/>
    <tag k="surface" v="paved"/>
  </node>
  <node id="131902764" version="1" timestamp="2007-11-25T09:11:38Z" uid="4467" user="Rosscoe" changeset="615428" lat="-33.755795" lon="121.02732">
    <tag k="created_by" v="JOSM"/>
    <tag k="highway" v="trunk"/>
    <tag k="name" v="South Coast Hwy"/>
    <tag k="surface" v="paved"/>
  </node>
  <node id="131902789" version="1" timestamp="2007-11-25T09:11:39Z" uid="4467" user="Rosscoe" changeset="615428" lat="-33.7596" lon="121.035417">
    <tag k="created_by" v="JOSM"/>
    <tag k="highway" v="trunk"/>
    <tag k="name" v="South Coast Hwy"/>
    <tag k="surface" v="paved"/>
  </node>
  <node id="131902789" version="3" timestamp="2011-12-20T12:59:14Z" uid="338866" user="tiger" changeset="10163339" lat="-33.7596" lon="121.035417"/>
  <node id="131902808" version="1" timestamp="2007-11-25T09:11:40Z" uid="4467" user="Rosscoe" changeset="615428" lat="-33.759477" lon="121.035105">
    <tag k="created_by" v="JOSM"/>
    <tag k="highway" v="trunk"/>
    <tag k="name" v="South Coast Hwy"/>
    <tag k="surface" v="paved"/>
  </node>
  <node id="131902816" version="5" timestamp="2010-02-15T06:31:41Z" uid="74617" user="JohnSmith" changeset="3880421" lat="-27.6309941" lon="152.97524">
    <tag k="name" v="Creekwood"/>
    <tag k="place" v="hamlet"/>
  </node>
  <node id="131902834" version="1" timestamp="2007-11-25T09:11:40Z" uid="4467" user="Rosscoe" changeset="615428" lat="-33.759827" lon="121.036045">
    <tag k="created_by" v="JOSM"/>
    <tag k="highway" v="trunk"/>
    <tag k="name" v="South Coast Hwy"/>
    <tag k="surface" v="paved"/>
  </node>
  <node id="131902834" version="3" timestamp="2011-12-20T12:59:14Z" uid="338866" user="tiger" changeset="10163339" lat="-33.759827" lon="121.036045"/>
  <node id="131902861" version="1" timestamp="2007-11-25T09:11:41Z" uid="4467" user="Rosscoe" changeset="615428" lat="-33.759715" lon="121.035728">
    <tag k="created_by" v="JOSM"/>
    <tag k="highway" v="trunk"/>
    <tag k="name" v="South Coast Hwy"/>
    <tag k="surface" v="paved"/>
  </node>
  <node id="131902882" version="1" timestamp="2007-11-25T09:11:42Z" uid="4467" user="Rosscoe" changeset="615428" lat="-33.759072" lon="121.034193">
    <tag k="created_by" v="JOSM"/>
    <tag k="highway" v="trunk"/>
    <tag k="name" v="South Coast Hwy"/>
    <tag k="surface" v="paved"/>
  </node>
  <node id="131902896" version="1" timestamp="2007-11-25T09:11:43Z" uid="4467" user="Rosscoe" changeset="615428" lat="-33.75893" lon="121.033892">
    <tag k="created_by" v="JOSM"/>
    <tag k="highway" v="trunk"/>
    <tag k="name" v="South Coast Hwy"/>
    <tag k="surface" v="paved"/>
  </node>
  <node id="131902914" version="1" timestamp="2007-11-25T09:11:43Z" uid="4467" user="Rosscoe" changeset="615428" lat="-33.759347" lon="121.034798">
    <tag k="created_by" v="JOSM"/>
    <tag k="highway" v="trunk"/>
    <tag k="name" v="South Coast Hwy"/>
    <tag k="surface" v="paved"/>
  </node>
  <node id="131902914" version="3" timestamp="2011-12-20T12:59:14Z" uid="338866" user="tiger" changeset="10163339" lat="-33.759347" lon="121.034798"/>
  <node id="131902922" version="1" timestamp="2007-11-25T09:11:44Z" uid="4467" user="Rosscoe" changeset="615428" lat="-33.759212" lon="121.034497">
    <tag k="created_by" v="JOSM"/>
    <tag k="highway" v="trunk"/>
    <tag k="name" v="South Coast Hwy"/>
    <tag k="surface" v="paved"/>
  </node>
  <node id="131902949" version="1" timestamp="2007-11-25T09:11:45Z" uid="4467" user="Rosscoe" changeset="615428" lat="-33.758502" lon="121.032993">
    <tag k="created_by" v="JOSM"/>
    <tag k="highway" v="trunk"/>
    <tag k="name" v="South Coast Hwy"/>
    <tag k="surface" v="paved"/>
  </node>
  <node id="131902974" version="1" timestamp="2007-11-25T09:11:46Z" uid="4467" user="Rosscoe" changeset="615428" lat="-33.75836" lon="121.032697">
    <tag k="created_by" v="JOSM"/>
    <tag k="highway" v="trunk"/>
    <tag k="name" v="South Coast Hwy"/>
    <tag k="surface" v="paved"/>
  </node>
  <node id="131902999" version="1" timestamp="2007-11-25T09:11:47Z" uid="4467" user="Rosscoe" changeset="615428" lat="-33.75879" lon="121.033595">
    <tag k="created_by" v="JOSM"/>
    <tag k="highway" v="trunk"/>
    <tag k="name" v="South Coast Hwy"/>
    <tag k="surface" v="paved"/>
  </node>
  <node id="131902999" version="3" timestamp="2011-12-20T12:59:14Z" uid="338866" user="tiger" changeset="10163339" lat="-33.75879" lon="121.033595"/>
  <node id="131903022" version="1" timestamp="2007-11-25T09:11:47Z" uid="4467" user="Rosscoe" changeset="615428" lat="-33.758645" lon="121.033293">
    <tag k="created_by" v="JOSM"/>
    <tag k="highway" v="trunk"/>
    <tag k="name" v="South Coast Hwy"/>
    <tag k="surface" v="paved"/>
  </node>
  <node id="131903043" version="1" timestamp="2007-11-25T09:11:48Z" uid="4467" user="Rosscoe" changeset="615428" lat="-33.757932" lon="121.031812">
    <tag k="created_by" v="JOSM"/>
    <tag k="highway" v="trunk"/>
    <tag k="name" v="South Coast Hwy"/>
    <tag k="surface" v="paved"/>
  </node>
  <node id="131903066" version="1" timestamp="2007-11-25T09:11:49Z" uid="4467" user="Rosscoe" changeset="615428" lat="-33.757638" lon="121.031208">
    <tag k="created_by" v="JOSM"/>
    <tag k="highway" v="trunk"/>
    <tag k="name" v="South Coast Hwy"/>
    <tag k="surface" v="paved"/>
  </node>
  <node id="131903089" version="1" timestamp="2007-11-25T09:11:50Z" uid="4467" user="Rosscoe" changeset="615428" lat="-33.758217" lon="121.0324">
    <tag k="created_by" v="JOSM"/>
    <tag k="highway" v="trunk"/>
    <tag k="name" v="South Coast Hwy"/>
    <tag k="surface" v="paved"/>
  </node>
  <node id="131903118" version="1" timestamp="2007-11-25T09:11:50Z" uid="4467" user="Rosscoe" changeset="615428" lat="-33.758073" lon="121.032105">
    <tag k="created_by" v="JOSM"/>
    <tag k="highway" v="trunk"/>
    <tag k="name" v="South Coast Hwy"/>
    <tag k="surface" v="paved"/>
  </node>
  <node id="131903143" version="1" timestamp="2007-11-25T09:11:51Z" uid="4467" user="Rosscoe" changeset="615428" lat="-33.76146" lon="121.04121">
    <tag k="created_by" v="JOSM"/>
    <tag k="highway" v="trunk"/>
    <tag k="name" v="South Coast Hwy"/>
    <tag k="surface" v="paved"/>
  </node>
  <node id="131903166" version="1" timestamp="2007-11-25T09:11:52Z" uid="4467" user="Rosscoe" changeset="615428" lat="-33.76166" lon="121.041838">
    <tag k="created_by" v="JOSM"/>
    <tag k="highway" v="trunk"/>
    <tag k="name" v="South Coast Hwy"/>
    <tag k="surface" v="paved"/>
  </node>
  <node id="131903196" version="1" timestamp="2007-11-25T09:11:53Z" uid="4467" user="Rosscoe" changeset="615428" lat="-33.761255" lon="121.040557">
    <tag k="created_by" v="JOSM"/>
    <tag k="highway" v="trunk"/>
    <tag k="name" v="South Coast Hwy"/>
    <tag k="surface" v="paved"/>
  </node>
  <node id="131903220" version="1" timestamp="2007-11-25T09:11:54Z" uid="4467" user="Rosscoe" changeset="615428" lat="-33.761358" lon="121.040883">
    <tag k="created_by" v="JOSM"/>
    <tag k="highway" v="trunk"/>
    <tag k="name" v="South Coast Hwy"/>
    <tag k="surface" v="paved"/>
  </node>
  <node id="131903238" version="1" timestamp="2007-11-25T09:11:54Z" uid="4467" user="Rosscoe" changeset="615428" lat="-33.760952" lon="121.03959">
    <tag k="created_by" v="JOSM"/>
    <tag k="highway" v="trunk"/>
    <tag k="name" v="South Coast Hwy"/>
    <tag k="surface" v="paved"/>
  </node>
  <node id="131903260" version="1" timestamp="2007-11-25T09:11:55Z" uid="4467" user="Rosscoe" changeset="615428" lat="-33.761153" lon="121.040238">
    <tag k="created_by" v="JOSM"/>
    <tag k="highway" v="trunk"/>
    <tag k="name" v="South Coast Hwy"/>
    <tag k="surface" v="paved"/>
  </node>
  <node id="131903287" version="1" timestamp="2007-11-25T09:11:56Z" uid="4467" user="Rosscoe" changeset="615428" lat="-33.760748" lon="121.038943">
    <tag k="created_by" v="JOSM"/>
    <tag k="highway" v="trunk"/>
    <tag k="name" v="South Coast Hwy"/>
    <tag k="surface" v="paved"/>
  </node>
  <node id="131903316" version="1" timestamp="2007-11-25T09:11:57Z" uid="4467" user="Rosscoe" changeset="615428" lat="-33.760852" lon="121.039268">
    <tag k="created_by" v="JOSM"/>
    <tag k="highway" v="trunk"/>
    <tag k="name" v="South Coast Hwy"/>
    <tag k="surface" v="paved"/>
  </node>
  <node id="131903344" version="1" timestamp="2007-11-25T09:11:57Z" uid="4467" user="Rosscoe" changeset="615428" lat="-33.760543" lon="121.038297">
    <tag k="created_by" v="JOSM"/>
    <tag k="highway" v="trunk"/>
    <tag k="name" v="South Coast Hwy"/>
    <tag k="surface" v="paved"/>
  </node>
  <node id="131903366" version="1" timestamp="2007-11-25T09:11:58Z" uid="4467" user="Rosscoe" changeset="615428" lat="-33.760647" lon="121.038622">
    <tag k="created_by" v="JOSM"/>
    <tag k="highway" v="trunk"/>
    <tag k="name" v="South Coast Hwy"/>
    <tag k="surface" v="paved"/>
  </node>
  <node id="131903366" version="3" timestamp="2011-11-17T11:08:57Z" uid="338866" user="tiger" changeset="9852982" lat="-33.760647" lon="121.038622"/>
  <node id="131903393" version="1" timestamp="2007-11-25T09:11:59Z" uid="4467" user="Rosscoe" changeset="615428" lat="-33.760338" lon="121.037655">
    <tag k="created_by" v="JOSM"/>
    <tag k="highway" v="trunk"/>
    <tag k="name" v="South Coast Hwy"/>
    <tag k="surface" v="paved"/>
  </node>
  <node id="131903421" version="1" timestamp="2007-11-25T09:12:00Z" uid="4467" user="Rosscoe" changeset="615428" lat="-33.760442" lon="121.037978">
    <tag k="created_by" v="JOSM"/>
    <tag k="highway" v="trunk"/>
    <tag k="name" v="South Coast Hwy"/>
    <tag k="surface" v="paved"/>
  </node>
  <node id="131903441" version="1" timestamp="2007-11-25T09:12:01Z" uid="4467" user="Rosscoe" changeset="615428" lat="-33.760132" lon="121.037008">
    <tag k="created_by" v="JOSM"/>
    <tag k="highway" v="trunk"/>
    <tag k="name" v="South Coast Hwy"/>
    <tag k="surface" v="paved"/>
  </node>
  <node id="131903463" version="1" timestamp="2007-11-25T09:12:01Z" uid="4467" user="Rosscoe" changeset="615428" lat="-33.760237" lon="121.037337">
    <tag k="created_by" v="JOSM"/>
    <tag k="highway" v="trunk"/>
    <tag k="name" v="South Coast Hwy"/>
    <tag k="surface" v="paved"/>
  </node>
  <node id="131903477" version="1" timestamp="2007-11-25T09:12:02Z" uid="4467" user="Rosscoe" changeset="615428" lat="-33.75993" lon="121.036363">
    <tag k="created_by" v="JOSM"/>
    <tag k="highway" v="trunk"/>
    <tag k="name" v="South Coast Hwy"/>
    <tag k="surface" v="paved"/>
  </node>
  <node id="131903499" version="1" timestamp="2007-11-25T09:12:03Z" uid="4467" user="Rosscoe" changeset="615428" lat="-33.760032" lon="121.036685">
    <tag k="created_by" v="JOSM"/>
    <tag k="highway" v="trunk"/>
    <tag k="name" v="South Coast Hwy"/>
    <tag k="surface" v="paved"/>
  </node>
  <node id="131903518" version="1" timestamp="2007-11-25T09:12:04Z" uid="4467" user="Rosscoe" changeset="615428" lat="-33.763395" lon="121.047312">
    <tag k="created_by" v="JOSM"/>
    <tag k="highway" v="trunk"/>
    <tag k="name" v="South Coast Hwy"/>
    <tag k="surface" v="paved"/>
  </node>
  <node id="131903540" version="1" timestamp="2007-11-25T09:12:04Z" uid="4467" user="Rosscoe" changeset="615428" lat="-33.763293" lon="121.046992">
    <tag k="created_by" v="JOSM"/>
    <tag k="highway" v="trunk"/>
    <tag k="name" v="South Coast Hwy"/>
    <tag k="surface" v="paved"/>
  </node>
  <node id="131903562" version="1" timestamp="2007-11-25T09:12:05Z" uid="4467" user="Rosscoe" changeset="615428" lat="-33.763188" lon="121.046665">
    <tag k="created_by" v="JOSM"/>
    <tag k="highway" v="trunk"/>
    <tag k="name" v="South Coast Hwy"/>
    <tag k="surface" v="paved"/>
  </node>
  <node id="131903590" version="1" timestamp="2007-11-25T09:12:06Z" uid="4467" user="Rosscoe" changeset="615428" lat="-33.763085" lon="121.04634">
    <tag k="created_by" v="JOSM"/>
    <tag k="highway" v="trunk"/>
    <tag k="name" v="South Coast Hwy"/>
    <tag k="surface" v="paved"/>
  </node>
  <node id="131903613" version="1" timestamp="2007-11-25T09:12:07Z" uid="4467" user="Rosscoe" changeset="615428" lat="-33.762982" lon="121.046017">
    <tag k="created_by" v="JOSM"/>
    <tag k="highway" v="trunk"/>
    <tag k="name" v="South Coast Hwy"/>
    <tag k="surface" v="paved"/>
  </node>
  <node id="131903637" version="1" timestamp="2007-11-25T09:12:08Z" uid="4467" user="Rosscoe" changeset="615428" lat="-33.762877" lon="121.045695">
    <tag k="created_by" v="JOSM"/>
    <tag k="highway" v="trunk"/>
    <tag k="name" v="South Coast Hwy"/>
    <tag k="surface" v="paved"/>
  </node>
  <node id="131903656" version="1" timestamp="2007-11-25T09:12:08Z" uid="4467" user="Rosscoe" changeset="615428" lat="-33.762773" lon="121.045372">
    <tag k="created_by" v="JOSM"/>
    <tag k="highway" v="trunk"/>
    <tag k="name" v="South Coast Hwy"/>
    <tag k="surface" v="paved"/>
  </node>
  <node id="131903656" version="3" timestamp="2011-12-20T12:59:15Z" uid="338866" user="tiger" changeset="10163339" lat="-33.762773" lon="121.045372"/>
  <node id="131903670" version="1" timestamp="2007-11-25T09:12:09Z" uid="4467" user="Rosscoe" changeset="615428" lat="-33.762675" lon="121.045053">
    <tag k="created_by" v="JOSM"/>
    <tag k="highway" v="trunk"/>
    <tag k="name" v="South Coast Hwy"/>
    <tag k="surface" v="paved"/>
  </node>
  <node id="131903690" version="1" timestamp="2007-11-25T09:12:10Z" uid="4467" user="Rosscoe" changeset="615428" lat="-33.762573" lon="121.044727">
    <tag k="created_by" v="JOSM"/>
    <tag k="highway" v="trunk"/>
    <tag k="name" v="South Coast Hwy"/>
    <tag k="surface" v="paved"/>
  </node>
  <node id="131903715" version="1" timestamp="2007-11-25T09:12:11Z" uid="4467" user="Rosscoe" changeset="615428" lat="-33.762473" lon="121.044407">
    <tag k="created_by" v="JOSM"/>
    <tag k="highway" v="trunk"/>
    <tag k="name" v="South Coast Hwy"/>
    <tag k="surface" v="paved"/>
  </node>
  <node id="131903743" version="1" timestamp="2007-11-25T09:12:11Z" uid="4467" user="Rosscoe" changeset="615428" lat="-33.762373" lon="121.044087">
    <tag k="created_by" v="JOSM"/>
    <tag k="highway" v="trunk"/>
    <tag k="name" v="South Coast Hwy"/>
    <tag k="surface" v="paved"/>
  </node>
  <node id="131903766" version="1" timestamp="2007-11-25T09:12:12Z" uid="4467" user="Rosscoe" changeset="615428" lat="-33.762272" lon="121.043768">
    <tag k="created_by" v="JOSM"/>
    <tag k="highway" v="trunk"/>
    <tag k="name" v="South Coast Hwy"/>
    <tag k="surface" v="paved"/>
  </node>
  <node id="131903807" version="1" timestamp="2007-11-25T09:12:13Z" uid="4467" user="Rosscoe" changeset="615428" lat="-33.762172" lon="121.043448">
    <tag k="created_by" v="JOSM"/>
    <tag k="highway" v="trunk"/>
    <tag k="name" v="South Coast Hwy"/>
    <tag k="surface" v="paved"/>
  </node>
  <node id="131903834" version="1" timestamp="2007-11-25T09:12:14Z" uid="4467" user="Rosscoe" changeset="615428" lat="-33.762073" lon="121.043132">
    <tag k="created_by" v="JOSM"/>
    <tag k="highway" v="trunk"/>
    <tag k="name" v="South Coast Hwy"/>
    <tag k="surface" v="paved"/>
  </node>
  <node id="131903834" version="3" timestamp="2011-11-17T11:08:57Z" uid="338866" user="tiger" changeset="9852982" lat="-33.762073" lon="121.043132"/>
  <node id="131903861" version="1" timestamp="2007-11-25T09:12:15Z" uid="4467" user="Rosscoe" changeset="615428" lat="-33.76197" lon="121.042808">
    <tag k="created_by" v="JOSM"/>
    <tag k="highway" v="trunk"/>
    <tag k="name" v="South Coast Hwy"/>
    <tag k="surface" v="paved"/>
  </node>
  <node id="131903880" version="1" timestamp="2007-11-25T09:12:15Z" uid="4467" user="Rosscoe" changeset="615428" lat="-33.761765" lon="121.042168">
    <tag k="created_by" v="JOSM"/>
    <tag k="highway" v="trunk"/>
    <tag k="name" v="South Coast Hwy"/>
    <tag k="surface" v="paved"/>
  </node>
  <node id="131903886" version="1" timestamp="2007-11-25T09:12:16Z" uid="4467" user="Rosscoe" changeset="615428" lat="-33.721817" lon="120.921588">
    <tag k="created_by" v="JOSM"/>
    <tag k="highway" v="trunk"/>
    <tag k="name" v="South Coast Hwy"/>
    <tag k="surface" v="paved"/>
  </node>
  <node id="131903906" version="1" timestamp="2007-11-25T09:12:17Z" uid="4467" user="Rosscoe" changeset="615428" lat="-33.721903" lon="120.921922">
    <tag k="created_by" v="JOSM"/>
    <tag k="highway" v="trunk"/>
    <tag k="name" v="South Coast Hwy"/>
    <tag k="surface" v="paved"/>
  </node>
  <node id="131903929" version="1" timestamp="2007-11-25T09:12:18Z" uid="4467" user="Rosscoe" changeset="615428" lat="-33.721558" lon="120.9206">
    <tag k="created_by" v="JOSM"/>
    <tag k="highway" v="trunk"/>
    <tag k="name" v="South Coast Hwy"/>
    <tag k="surface" v="paved"/>
  </node>
  <node id="131903955" version="1" timestamp="2007-11-25T09:12:19Z" uid="4467" user="Rosscoe" changeset="615428" lat="-33.72173" lon="120.92126">
    <tag k="created_by" v="JOSM"/>
    <tag k="highway" v="trunk"/>
    <tag k="name" v="South Coast Hwy"/>
    <tag k="surface" v="paved"/>
  </node>
  <node id="131903974" version="1" timestamp="2007-11-25T09:12:19Z" uid="4467" user="Rosscoe" changeset="615428" lat="-33.722345" lon="120.923548">
    <tag k="created_by" v="JOSM"/>
    <tag k="highway" v="trunk"/>
    <tag k="name" v="South Coast Hwy"/>
    <tag k="surface" v="paved"/>
  </node>
  <node id="131903996" version="1" timestamp="2007-11-25T09:12:20Z" uid="4467" user="Rosscoe" changeset="615428" lat="-33.72243" lon="120.923882">
    <tag k="created_by" v="JOSM"/>
    <tag k="highway" v="trunk"/>
    <tag k="name" v="South Coast Hwy"/>
    <tag k="surface" v="paved"/>
  </node>
  <node id="131904019" version="1" timestamp="2007-11-25T09:12:21Z" uid="4467" user="Rosscoe" changeset="615428" lat="-33.72199" lon="120.922245">
    <tag k="created_by" v="JOSM"/>
    <tag k="highway" v="trunk"/>
    <tag k="name" v="South Coast Hwy"/>
    <tag k="surface" v="paved"/>
  </node>
  <node id="131904040" version="1" timestamp="2007-11-25T09:12:22Z" uid="4467" user="Rosscoe" changeset="615428" lat="-33.722165" lon="120.922902">
    <tag k="created_by" v="JOSM"/>
    <tag k="highway" v="trunk"/>
    <tag k="name" v="South Coast Hwy"/>
    <tag k="surface" v="paved"/>
  </node>
  <node id="131904065" version="1" timestamp="2007-11-25T09:12:23Z" uid="4467" user="Rosscoe" changeset="615428" lat="-33.722693" lon="120.924857">
    <tag k="created_by" v="JOSM"/>
    <tag k="highway" v="trunk"/>
    <tag k="name" v="South Coast Hwy"/>
    <tag k="surface" v="paved"/>
  </node>
  <node id="131904088" version="1" timestamp="2007-11-25T09:12:23Z" uid="4467" user="Rosscoe" changeset="615428" lat="-33.722783" lon="120.925177">
    <tag k="created_by" v="JOSM"/>
    <tag k="highway" v="trunk"/>
    <tag k="name" v="South Coast Hwy"/>
    <tag k="surface" v="paved"/>
  </node>
  <node id="131904113" version="1" timestamp="2007-11-25T09:12:24Z" uid="4467" user="Rosscoe" changeset="615428" lat="-33.722517" lon="120.924207">
    <tag k="created_by" v="JOSM"/>
    <tag k="highway" v="trunk"/>
    <tag k="name" v="South Coast Hwy"/>
    <tag k="surface" v="paved"/>
  </node>
  <node id="131904144" version="1" timestamp="2007-11-25T09:12:25Z" uid="4467" user="Rosscoe" changeset="615428" lat="-33.722603" lon="120.924533">
    <tag k="created_by" v="JOSM"/>
    <tag k="highway" v="trunk"/>
    <tag k="name" v="South Coast Hwy"/>
    <tag k="surface" v="paved"/>
  </node>
  <node id="131904167" version="1" timestamp="2007-11-25T09:12:26Z" uid="4467" user="Rosscoe" changeset="615428" lat="-33.723047" lon="120.926153">
    <tag k="created_by" v="JOSM"/>
    <tag k="highway" v="trunk"/>
    <tag k="name" v="South Coast Hwy"/>
    <tag k="surface" v="paved"/>
  </node>
  <node id="131904188" version="1" timestamp="2007-11-25T09:12:26Z" uid="4467" user="Rosscoe" changeset="615428" lat="-33.723133" lon="120.926482">
    <tag k="created_by" v="JOSM"/>
    <tag k="highway" v="trunk"/>
    <tag k="name" v="South Coast Hwy"/>
    <tag k="surface" v="paved"/>
  </node>
  <node id="131904209" version="1" timestamp="2007-11-25T09:12:27Z" uid="4467" user="Rosscoe" changeset="615428" lat="-33.722872" lon="120.925503">
    <tag k="created_by" v="JOSM"/>
    <tag k="highway" v="trunk"/>
    <tag k="name" v="South Coast Hwy"/>
    <tag k="surface" v="paved"/>
  </node>
  <node id="131904232" version="1" timestamp="2007-11-25T09:12:28Z" uid="4467" user="Rosscoe" changeset="615428" lat="-33.722958" lon="120.925832">
    <tag k="created_by" v="JOSM"/>
    <tag k="highway" v="trunk"/>
    <tag k="name" v="South Coast Hwy"/>
    <tag k="surface" v="paved"/>
  </node>
  <node id="131904255" version="1" timestamp="2007-11-25T09:12:29Z" uid="4467" user="Rosscoe" changeset="615428" lat="-33.720258" lon="120.915698">
    <tag k="created_by" v="JOSM"/>
    <tag k="highway" v="trunk"/>
    <tag k="name" v="South Coast Hwy"/>
    <tag k="surface" v="paved"/>
  </node>
  <node id="131904282" version="1" timestamp="2007-11-25T09:12:30Z" uid="4467" user="Rosscoe" changeset="615428" lat="-33.720173" lon="120.915377">
    <tag k="created_by" v="JOSM"/>
    <tag k="highway" v="trunk"/>
    <tag k="name" v="South Coast Hwy"/>
    <tag k="surface" v="paved"/>
  </node>
  <node id="131904299" version="1" timestamp="2007-11-25T09:12:30Z" uid="4467" user="Rosscoe" changeset="615428" lat="-33.720088" lon="120.91505">
    <tag k="created_by" v="JOSM"/>
    <tag k="highway" v="trunk"/>
    <tag k="name" v="South Coast Hwy"/>
    <tag k="surface" v="paved"/>
  </node>
  <node id="131904315" version="1" timestamp="2007-11-25T09:12:31Z" uid="4467" user="Rosscoe" changeset="615428" lat="-33.720003" lon="120.91472">
    <tag k="created_by" v="JOSM"/>
    <tag k="highway" v="trunk"/>
    <tag k="name" v="South Coast Hwy"/>
    <tag k="surface" v="paved"/>
  </node>
  <node id="131904326" version="1" timestamp="2007-11-25T09:12:32Z" uid="4467" user="Rosscoe" changeset="615428" lat="-33.72069" lon="120.917328">
    <tag k="created_by" v="JOSM"/>
    <tag k="highway" v="trunk"/>
    <tag k="name" v="South Coast Hwy"/>
    <tag k="surface" v="paved"/>
  </node>
  <node id="131904345" version="1" timestamp="2007-11-25T09:12:33Z" uid="4467" user="Rosscoe" changeset="615428" lat="-33.720517" lon="120.916678">
    <tag k="created_by" v="JOSM"/>
    <tag k="highway" v="trunk"/>
    <tag k="name" v="South Coast Hwy"/>
    <tag k="surface" v="paved"/>
  </node>
  <node id="131904366" version="1" timestamp="2007-11-25T09:12:33Z" uid="4467" user="Rosscoe" changeset="615428" lat="-33.720432" lon="120.916352">
    <tag k="created_by" v="JOSM"/>
    <tag k="highway" v="trunk"/>
    <tag k="name" v="South Coast Hwy"/>
    <tag k="surface" v="paved"/>
  </node>
  <node id="131904389" version="1" timestamp="2007-11-25T09:12:34Z" uid="4467" user="Rosscoe" changeset="615428" lat="-33.720347" lon="120.91603">
    <tag k="created_by" v="JOSM"/>
    <tag k="highway" v="trunk"/>
    <tag k="name" v="South Coast Hwy"/>
    <tag k="surface" v="paved"/>
  </node>
  <node id="131904414" version="1" timestamp="2007-11-25T09:12:35Z" uid="4467" user="Rosscoe" changeset="615428" lat="-33.721035" lon="120.918638">
    <tag k="created_by" v="JOSM"/>
    <tag k="highway" v="trunk"/>
    <tag k="name" v="South Coast Hwy"/>
    <tag k="surface" v="paved"/>
  </node>
  <node id="131904436" version="1" timestamp="2007-11-25T09:12:36Z" uid="4467" user="Rosscoe" changeset="615428" lat="-33.720948" lon="120.91831">
    <tag k="created_by" v="JOSM"/>
    <tag k="highway" v="trunk"/>
    <tag k="name" v="South Coast Hwy"/>
    <tag k="surface" v="paved"/>
  </node>
  <node id="131904453" version="1" timestamp="2007-11-25T09:12:37Z" uid="4467" user="Rosscoe" changeset="615428" lat="-33.720863" lon="120.917988">
    <tag k="created_by" v="JOSM"/>
    <tag k="highway" v="trunk"/>
    <tag k="name" v="South Coast Hwy"/>
    <tag k="surface" v="paved"/>
  </node>
  <node id="131904473" version="1" timestamp="2007-11-25T09:12:37Z" uid="4467" user="Rosscoe" changeset="615428" lat="-33.720777" lon="120.917658">
    <tag k="created_by" v="JOSM"/>
    <tag k="highway" v="trunk"/>
    <tag k="name" v="South Coast Hwy"/>
    <tag k="surface" v="paved"/>
  </node>
  <node id="131904496" version="1" timestamp="2007-11-25T09:12:38Z" uid="4467" user="Rosscoe" changeset="615428" lat="-33.721473" lon="120.920272">
    <tag k="created_by" v="JOSM"/>
    <tag k="highway" v="trunk"/>
    <tag k="name" v="South Coast Hwy"/>
    <tag k="surface" v="paved"/>
  </node>
  <node id="131904513" version="1" timestamp="2007-11-25T09:12:39Z" uid="4467" user="Rosscoe" changeset="615428" lat="-33.721388" lon="120.919947">
    <tag k="created_by" v="JOSM"/>
    <tag k="highway" v="trunk"/>
    <tag k="name" v="South Coast Hwy"/>
    <tag k="surface" v="paved"/>
  </node>
  <node id="131904513" version="3" timestamp="2011-11-17T11:08:57Z" uid="338866" user="tiger" changeset="9852982" lat="-33.721388" lon="120.919947"/>
  <node id="131904533" version="1" timestamp="2007-11-25T09:12:40Z" uid="4467" user="Rosscoe" changeset="615428" lat="-33.721298" lon="120.919615">
    <tag k="created_by" v="JOSM"/>
    <tag k="highway" v="trunk"/>
    <tag k="name" v="South Coast Hwy"/>
    <tag k="surface" v="paved"/>
  </node>
  <node id="131904556" version="1" timestamp="2007-11-25T09:12:40Z" uid="4467" user="Rosscoe" changeset="615428" lat="-33.721123" lon="120.918965">
    <tag k="created_by" v="JOSM"/>
    <tag k="highway" v="trunk"/>
    <tag k="name" v="South Coast Hwy"/>
    <tag k="surface" v="paved"/>
  </node>
  <node id="131904578" version="1" timestamp="2007-11-25T09:12:41Z" uid="4467" user="Rosscoe" changeset="615428" lat="-33.724957" lon="120.933347">
    <tag k="created_by" v="JOSM"/>
    <tag k="highway" v="trunk"/>
    <tag k="name" v="South Coast Hwy"/>
    <tag k="surface" v="paved"/>
  </node>
  <node id="131904604" version="1" timestamp="2007-11-25T09:12:42Z" uid="4467" user="Rosscoe" changeset="615428" lat="-33.725045" lon="120.933677">
    <tag k="created_by" v="JOSM"/>
    <tag k="highway" v="trunk"/>
    <tag k="name" v="South Coast Hwy"/>
    <tag k="surface" v="paved"/>
  </node>
  <node id="131904621" version="1" timestamp="2007-11-25T09:12:43Z" uid="4467" user="Rosscoe" changeset="615428" lat="-33.72513" lon="120.934">
    <tag k="created_by" v="JOSM"/>
    <tag k="highway" v="trunk"/>
    <tag k="name" v="South Coast Hwy"/>
    <tag k="surface" v="paved"/>
  </node>
  <node id="131904647" version="1" timestamp="2007-11-25T09:12:43Z" uid="4467" user="Rosscoe" changeset="615428" lat="-33.725213" lon="120.934313">
    <tag k="created_by" v="JOSM"/>
    <tag k="highway" v="trunk"/>
    <tag k="name" v="South Coast Hwy"/>
    <tag k="surface" v="paved"/>
  </node>
  <node id="131904673" version="1" timestamp="2007-11-25T09:12:44Z" uid="4467" user="Rosscoe" changeset="615428" lat="-33.725303" lon="120.934653">
    <tag k="created_by" v="JOSM"/>
    <tag k="highway" v="trunk"/>
    <tag k="name" v="South Coast Hwy"/>
    <tag k="surface" v="paved"/>
  </node>
  <node id="131904699" version="1" timestamp="2007-11-25T09:12:45Z" uid="4467" user="Rosscoe" changeset="615428" lat="-33.725392" lon="120.934983">
    <tag k="created_by" v="JOSM"/>
    <tag k="highway" v="trunk"/>
    <tag k="name" v="South Coast Hwy"/>
    <tag k="surface" v="paved"/>
  </node>
  <node id="131904708" version="1" timestamp="2007-11-25T09:12:46Z" uid="4467" user="Rosscoe" changeset="615428" lat="-33.725565" lon="120.935647">
    <tag k="created_by" v="JOSM"/>
    <tag k="highway" v="trunk"/>
    <tag k="name" v="South Coast Hwy"/>
    <tag k="surface" v="paved"/>
  </node>
  <node id="131904729" version="1" timestamp="2007-11-25T09:12:47Z" uid="4467" user="Rosscoe" changeset="615428" lat="-33.725652" lon="120.935972">
    <tag k="created_by" v="JOSM"/>
    <tag k="highway" v="trunk"/>
    <tag k="name" v="South Coast Hwy"/>
    <tag k="surface" v="paved"/>
  </node>
  <node id="131904752" version="1" timestamp="2007-11-25T09:12:47Z" uid="4467" user="Rosscoe" changeset="615428" lat="-33.725738" lon="120.9363">
    <tag k="created_by" v="JOSM"/>
    <tag k="highway" v="trunk"/>
    <tag k="name" v="South Coast Hwy"/>
    <tag k="surface" v="paved"/>
  </node>
  <node id="131904770" version="1" timestamp="2007-11-25T09:12:48Z" uid="4467" user="Rosscoe" changeset="615428" lat="-33.725827" lon="120.93663">
    <tag k="created_by" v="JOSM"/>
    <tag k="highway" v="trunk"/>
    <tag k="name" v="South Coast Hwy"/>
    <tag k="surface" v="paved"/>
  </node>
  <node id="131904770" version="3" timestamp="2011-12-20T12:59:15Z" uid="338866" user="tiger" changeset="10163339" lat="-33.725827" lon="120.93663"/>
  <node id="131904782" version="1" timestamp="2007-11-25T09:12:49Z" uid="4467" user="Rosscoe" changeset="615428" lat="-33.725913" lon="120.936957">
    <tag k="created_by" v="JOSM"/>
    <tag k="highway" v="trunk"/>
    <tag k="name" v="South Coast Hwy"/>
    <tag k="surface" v="paved"/>
  </node>
  <node id="131904801" version="1" timestamp="2007-11-25T09:12:50Z" uid="4467" user="Rosscoe" changeset="615428" lat="-33.726" lon="120.93729">
    <tag k="created_by" v="JOSM"/>
    <tag k="highway" v="trunk"/>
    <tag k="name" v="South Coast Hwy"/>
    <tag k="surface" v="paved"/>
  </node>
  <node id="131904819" version="1" timestamp="2007-11-25T09:12:51Z" uid="4467" user="Rosscoe" changeset="615428" lat="-33.726085" lon="120.937628">
    <tag k="created_by" v="JOSM"/>
    <tag k="highway" v="trunk"/>
    <tag k="name" v="South Coast Hwy"/>
    <tag k="surface" v="paved"/>
  </node>
  <node id="131904840" version="1" timestamp="2007-11-25T09:12:51Z" uid="4467" user="Rosscoe" changeset="615428" lat="-33.726167" lon="120.937957">
    <tag k="created_by" v="JOSM"/>
    <tag k="highway" v="trunk"/>
    <tag k="name" v="South Coast Hwy"/>
    <tag k="surface" v="paved"/>
  </node>
  <node id="131904865" version="1" timestamp="2007-11-25T09:12:52Z" uid="4467" user="Rosscoe" changeset="615428" lat="-33.726252" lon="120.938285">
    <tag k="created_by" v="JOSM"/>
    <tag k="highway" v="trunk"/>
    <tag k="name" v="South Coast Hwy"/>
    <tag k="surface" v="paved"/>
  </node>
  <node id="131904882" version="1" timestamp="2007-11-25T09:12:53Z" uid="4467" user="Rosscoe" changeset="615428" lat="-33.726338" lon="120.938615">
    <tag k="created_by" v="JOSM"/>
    <tag k="highway" v="trunk"/>
    <tag k="name" v="South Coast Hwy"/>
    <tag k="surface" v="paved"/>
  </node>
  <node id="131904904" version="1" timestamp="2007-11-25T09:12:54Z" uid="4467" user="Rosscoe" changeset="615428" lat="-33.723307" lon="120.927135">
    <tag k="created_by" v="JOSM"/>
    <tag k="highway" v="trunk"/>
    <tag k="name" v="South Coast Hwy"/>
    <tag k="surface" v="paved"/>
  </node>
  <node id="131904929" version="1" timestamp="2007-11-25T09:12:54Z" uid="4467" user="Rosscoe" changeset="615428" lat="-33.72322" lon="120.926808">
    <tag k="created_by" v="JOSM"/>
    <tag k="highway" v="trunk"/>
    <tag k="name" v="South Coast Hwy"/>
    <tag k="surface" v="paved"/>
  </node>
  <node id="131904956" version="1" timestamp="2007-11-25T09:12:55Z" uid="4467" user="Rosscoe" changeset="615428" lat="-33.723482" lon="120.927792">
    <tag k="created_by" v="JOSM"/>
    <tag k="highway" v="trunk"/>
    <tag k="name" v="South Coast Hwy"/>
    <tag k="surface" v="paved"/>
  </node>
  <node id="131904956" version="3" timestamp="2011-11-17T11:08:57Z" uid="338866" user="tiger" changeset="9852982" lat="-33.723482" lon="120.927792"/>
  <node id="131904977" version="1" timestamp="2007-11-25T09:12:56Z" uid="4467" user="Rosscoe" changeset="615428" lat="-33.723395" lon="120.927467">
    <tag k="created_by" v="JOSM"/>
    <tag k="highway" v="trunk"/>
    <tag k="name" v="South Coast Hwy"/>
    <tag k="surface" v="paved"/>
  </node>
  <node id="131904998" version="1" timestamp="2007-11-25T09:12:57Z" uid="4467" user="Rosscoe" changeset="615428" lat="-33.723655" lon="120.928452">
    <tag k="created_by" v="JOSM"/>
    <tag k="highway" v="trunk"/>
    <tag k="name" v="South Coast Hwy"/>
    <tag k="surface" v="paved"/>
  </node>
  <node id="131905018" version="1" timestamp="2007-11-25T09:12:58Z" uid="4467" user="Rosscoe" changeset="615428" lat="-33.723568" lon="120.928123">
    <tag k="created_by" v="JOSM"/>
    <tag k="highway" v="trunk"/>
    <tag k="name" v="South Coast Hwy"/>
    <tag k="surface" v="paved"/>
  </node>
  <node id="131905042" version="1" timestamp="2007-11-25T09:12:58Z" uid="4467" user="Rosscoe" changeset="615428" lat="-33.723827" lon="120.929105">
    <tag k="created_by" v="JOSM"/>
    <tag k="highway" v="trunk"/>
    <tag k="name" v="South Coast Hwy"/>
    <tag k="surface" v="paved"/>
  </node>
  <node id="131905052" version="1" timestamp="2007-11-25T09:12:59Z" uid="4467" user="Rosscoe" changeset="615428" lat="-33.723742" lon="120.92878">
    <tag k="created_by" v="JOSM"/>
    <tag k="highway" v="trunk"/>
    <tag k="name" v="South Coast Hwy"/>
    <tag k="surface" v="paved"/>
  </node>
  <node id="131905054" version="6" timestamp="2010-02-15T06:31:40Z" uid="74617" user="JohnSmith" changeset="3880421" lat="-27.6266019" lon="152.95262">
    <tag k="name" v="Greentree Pocket"/>
    <tag k="place" v="hamlet"/>
  </node>
  <node id="131905074" version="1" timestamp="2007-11-25T09:13:00Z" uid="4467" user="Rosscoe" changeset="615428" lat="-33.724002" lon="120.929765">
    <tag k="created_by" v="JOSM"/>
    <tag k="highway" v="trunk"/>
    <tag k="name" v="South Coast Hwy"/>
    <tag k="surface" v="paved"/>
  </node>
  <node id="131905097" version="1" timestamp="2007-11-25T09:13:01Z" uid="4467" user="Rosscoe" changeset="615428" lat="-33.723913" lon="120.929437">
    <tag k="created_by" v="JOSM"/>
    <tag k="highway" v="trunk"/>
    <tag k="name" v="South Coast Hwy"/>
    <tag k="surface" v="paved"/>
  </node>
  <node id="131905118" version="1" timestamp="2007-11-25T09:13:02Z" uid="4467" user="Rosscoe" changeset="615428" lat="-33.724262" lon="120.930742">
    <tag k="created_by" v="JOSM"/>
    <tag k="highway" v="trunk"/>
    <tag k="name" v="South Coast Hwy"/>
    <tag k="surface" v="paved"/>
  </node>
  <node id="131905144" version="1" timestamp="2007-11-25T09:13:03Z" uid="4467" user="Rosscoe" changeset="615428" lat="-33.724088" lon="120.93009">
    <tag k="created_by" v="JOSM"/>
    <tag k="highway" v="trunk"/>
    <tag k="name" v="South Coast Hwy"/>
    <tag k="surface" v="paved"/>
  </node>
  <node id="131905165" version="1" timestamp="2007-11-25T09:13:03Z" uid="4467" user="Rosscoe" changeset="615428" lat="-33.724523" lon="120.931723">
    <tag k="created_by" v="JOSM"/>
    <tag k="highway" v="trunk"/>
    <tag k="name" v="South Coast Hwy"/>
    <tag k="surface" v="paved"/>
  </node>
  <node id="131905185" version="1" timestamp="2007-11-25T09:13:04Z" uid="4467" user="Rosscoe" changeset="615428" lat="-33.724348" lon="120.931068">
    <tag k="created_by" v="JOSM"/>
    <tag k="highway" v="trunk"/>
    <tag k="name" v="South Coast Hwy"/>
    <tag k="surface" v="paved"/>
  </node>
  <node id="131905206" version="1" timestamp="2007-11-25T09:13:05Z" uid="4467" user="Rosscoe" changeset="615428" lat="-33.72487" lon="120.933022">
    <tag k="created_by" v="JOSM"/>
    <tag k="highway" v="trunk"/>
    <tag k="name" v="South Coast Hwy"/>
    <tag k="surface" v="paved"/>
  </node>
  <node id="131905233" version="1" timestamp="2007-11-25T09:13:06Z" uid="4467" user="Rosscoe" changeset="615428" lat="-33.724697" lon="120.93237">
    <tag k="created_by" v="JOSM"/>
    <tag k="highway" v="trunk"/>
    <tag k="name" v="South Coast Hwy"/>
    <tag k="surface" v="paved"/>
  </node>
  <node id="131905252" version="1" timestamp="2007-11-25T09:13:07Z" uid="4467" user="Rosscoe" changeset="615428" lat="-33.71599" lon="120.899628">
    <tag k="created_by" v="JOSM"/>
    <tag k="highway" v="trunk"/>
    <tag k="name" v="South Coast Hwy"/>
    <tag k="surface" v="paved"/>
  </node>
  <node id="131905274" version="1" timestamp="2007-11-25T09:13:07Z" uid="4467" user="Rosscoe" changeset="615428" lat="-33.716077" lon="120.899953">
    <tag k="created_by" v="JOSM"/>
    <tag k="highway" v="trunk"/>
    <tag k="name" v="South Coast Hwy"/>
    <tag k="surface" v="paved"/>
  </node>
  <node id="131905301" version="1" timestamp="2007-11-25T09:13:08Z" uid="4467" user="Rosscoe" changeset="615428" lat="-33.715818" lon="120.898982">
    <tag k="created_by" v="JOSM"/>
    <tag k="highway" v="trunk"/>
    <tag k="name" v="South Coast Hwy"/>
    <tag k="surface" v="paved"/>
  </node>
  <node id="131905322" version="1" timestamp="2007-11-25T09:13:09Z" uid="4467" user="Rosscoe" changeset="615428" lat="-33.715905" lon="120.899307">
    <tag k="created_by" v="JOSM"/>
    <tag k="highway" v="trunk"/>
    <tag k="name" v="South Coast Hwy"/>
    <tag k="surface" v="paved"/>
  </node>
  <node id="131905340" version="1" timestamp="2007-11-25T09:13:10Z" uid="4467" user="Rosscoe" changeset="615428" lat="-33.715645" lon="120.898332">
    <tag k="created_by" v="JOSM"/>
    <tag k="highway" v="trunk"/>
    <tag k="name" v="South Coast Hwy"/>
    <tag k="surface" v="paved"/>
  </node>
  <node id="131905366" version="1" timestamp="2007-11-25T09:13:10Z" uid="4467" user="Rosscoe" changeset="615428" lat="-33.715732" lon="120.898655">
    <tag k="created_by" v="JOSM"/>
    <tag k="highway" v="trunk"/>
    <tag k="name" v="South Coast Hwy"/>
    <tag k="surface" v="paved"/>
  </node>
  <node id="131905380" version="1" timestamp="2007-11-25T09:13:11Z" uid="4467" user="Rosscoe" changeset="615428" lat="-33.71547" lon="120.897667">
    <tag k="created_by" v="JOSM"/>
    <tag k="highway" v="trunk"/>
    <tag k="name" v="South Coast Hwy"/>
    <tag k="surface" v="paved"/>
  </node>
  <node id="131905398" version="1" timestamp="2007-11-25T09:13:12Z" uid="4467" user="Rosscoe" changeset="615428" lat="-33.715557" lon="120.898">
    <tag k="created_by" v="JOSM"/>
    <tag k="highway" v="trunk"/>
    <tag k="name" v="South Coast Hwy"/>
    <tag k="surface" v="paved"/>
  </node>
  <node id="131905425" version="1" timestamp="2007-11-25T09:13:13Z" uid="4467" user="Rosscoe" changeset="615428" lat="-33.716773" lon="120.902562">
    <tag k="created_by" v="JOSM"/>
    <tag k="highway" v="trunk"/>
    <tag k="name" v="South Coast Hwy"/>
    <tag k="surface" v="paved"/>
  </node>
  <node id="131905439" version="1" timestamp="2007-11-25T09:13:13Z" uid="4467" user="Rosscoe" changeset="615428" lat="-33.71695" lon="120.903225">
    <tag k="created_by" v="JOSM"/>
    <tag k="highway" v="trunk"/>
    <tag k="name" v="South Coast Hwy"/>
    <tag k="surface" v="paved"/>
  </node>
  <node id="131905457" version="1" timestamp="2007-11-25T09:13:14Z" uid="4467" user="Rosscoe" changeset="615428" lat="-33.716593" lon="120.901905">
    <tag k="created_by" v="JOSM"/>
    <tag k="highway" v="trunk"/>
    <tag k="name" v="South Coast Hwy"/>
    <tag k="surface" v="paved"/>
  </node>
  <node id="131905479" version="1" timestamp="2007-11-25T09:13:15Z" uid="4467" user="Rosscoe" changeset="615428" lat="-33.716685" lon="120.902237">
    <tag k="created_by" v="JOSM"/>
    <tag k="highway" v="trunk"/>
    <tag k="name" v="South Coast Hwy"/>
    <tag k="surface" v="paved"/>
  </node>
  <node id="131905502" version="1" timestamp="2007-11-25T09:13:16Z" uid="4467" user="Rosscoe" changeset="615428" lat="-33.716332" lon="120.900927">
    <tag k="created_by" v="JOSM"/>
    <tag k="highway" v="trunk"/>
    <tag k="name" v="South Coast Hwy"/>
    <tag k="surface" v="paved"/>
  </node>
  <node id="131905525" version="1" timestamp="2007-11-25T09:13:17Z" uid="4467" user="Rosscoe" changeset="615428" lat="-33.716505" lon="120.901578">
    <tag k="created_by" v="JOSM"/>
    <tag k="highway" v="trunk"/>
    <tag k="name" v="South Coast Hwy"/>
    <tag k="surface" v="paved"/>
  </node>
  <node id="131905553" version="1" timestamp="2007-11-25T09:13:17Z" uid="4467" user="Rosscoe" changeset="615428" lat="-33.716165" lon="120.900282">
    <tag k="created_by" v="JOSM"/>
    <tag k="highway" v="trunk"/>
    <tag k="name" v="South Coast Hwy"/>
    <tag k="surface" v="paved"/>
  </node>
  <node id="131905579" version="1" timestamp="2007-11-25T09:13:18Z" uid="4467" user="Rosscoe" changeset="615428" lat="-33.716248" lon="120.900603">
    <tag k="created_by" v="JOSM"/>
    <tag k="highway" v="trunk"/>
    <tag k="name" v="South Coast Hwy"/>
    <tag k="surface" v="paved"/>
  </node>
  <node id="131905603" version="1" timestamp="2007-11-25T09:13:19Z" uid="4467" user="Rosscoe" changeset="615428" lat="-33.714713" lon="120.894698">
    <tag k="created_by" v="JOSM"/>
    <tag k="highway" v="trunk"/>
    <tag k="name" v="South Coast Hwy"/>
    <tag k="surface" v="paved"/>
  </node>
  <node id="131905603" version="3" timestamp="2011-12-20T12:59:15Z" uid="338866" user="tiger" changeset="10163339" lat="-33.714713" lon="120.894698"/>
  <node id="131905630" version="1" timestamp="2007-11-25T09:13:20Z" uid="4467" user="Rosscoe" changeset="615428" lat="-33.714647" lon="120.894365">
    <tag k="created_by" v="JOSM"/>
    <tag k="highway" v="trunk"/>
    <tag k="name" v="South Coast Hwy"/>
    <tag k="surface" v="paved"/>
  </node>
  <node id="131905655" version="1" timestamp="2007-11-25T09:13:20Z" uid="4467" user="Rosscoe" changeset="615428" lat="-33.714587" lon="120.894022">
    <tag k="created_by" v="JOSM"/>
    <tag k="highway" v="trunk"/>
    <tag k="name" v="South Coast Hwy"/>
    <tag k="surface" v="paved"/>
  </node>
  <node id="131905655" version="3" timestamp="2011-12-20T12:59:15Z" uid="338866" user="tiger" changeset="10163339" lat="-33.714587" lon="120.894022"/>
  <node id="131905678" version="1" timestamp="2007-11-25T09:13:21Z" uid="4467" user="Rosscoe" changeset="615428" lat="-33.71454" lon="120.893682">
    <tag k="created_by" v="JOSM"/>
    <tag k="highway" v="trunk"/>
    <tag k="name" v="South Coast Hwy"/>
    <tag k="surface" v="paved"/>
  </node>
  <node id="131905678" version="3" timestamp="2011-11-17T11:08:57Z" uid="338866" user="tiger" changeset="9852982" lat="-33.71454" lon="120.893682"/>
  <node id="131905703" version="1" timestamp="2007-11-25T09:13:22Z" uid="4467" user="Rosscoe" changeset="615428" lat="-33.714503" lon="120.893338">
    <tag k="created_by" v="JOSM"/>
    <tag k="highway" v="trunk"/>
    <tag k="name" v="South Coast Hwy"/>
    <tag k="surface" v="paved"/>
  </node>
  <node id="131905731" version="1" timestamp="2007-11-25T09:13:23Z" uid="4467" user="Rosscoe" changeset="615428" lat="-33.71447" lon="120.892995">
    <tag k="created_by" v="JOSM"/>
    <tag k="highway" v="trunk"/>
    <tag k="name" v="South Coast Hwy"/>
    <tag k="surface" v="paved"/>
  </node>
  <node id="131905731" version="3" timestamp="2011-12-20T12:59:15Z" uid="338866" user="tiger" changeset="10163339" lat="-33.71447" lon="120.892995"/>
  <node id="131905760" version="1" timestamp="2007-11-25T09:13:24Z" uid="4467" user="Rosscoe" changeset="615428" lat="-33.714445" lon="120.89265">
    <tag k="created_by" v="JOSM"/>
    <tag k="highway" v="trunk"/>
    <tag k="name" v="South Coast Hwy"/>
    <tag k="surface" v="paved"/>
  </node>
  <node id="131905788" version="1" timestamp="2007-11-25T09:13:24Z" uid="4467" user="Rosscoe" changeset="615428" lat="-33.714428" lon="120.89231">
    <tag k="created_by" v="JOSM"/>
    <tag k="highway" v="trunk"/>
    <tag k="name" v="South Coast Hwy"/>
    <tag k="surface" v="paved"/>
  </node>
  <node id="131905788" version="3" timestamp="2011-12-20T12:59:15Z" uid="338866" user="tiger" changeset="10163339" lat="-33.714428" lon="120.89231"/>
  <node id="131905893" version="1" timestamp="2007-11-25T09:13:28Z" uid="4467" user="Rosscoe" changeset="615428" lat="-33.715383" lon="120.89734">
    <tag k="created_by" v="JOSM"/>
    <tag k="highway" v="trunk"/>
    <tag k="name" v="South Coast Hwy"/>
    <tag k="surface" v="paved"/>
  </node>
  <node id="131905917" version="1" timestamp="2007-11-25T09:13:29Z" uid="4467" user="Rosscoe" changeset="615428" lat="-33.715297" lon="120.897013">
    <tag k="created_by" v="JOSM"/>
    <tag k="highway" v="trunk"/>
    <tag k="name" v="South Coast Hwy"/>
    <tag k="surface" v="paved"/>
  </node>
  <node id="131905934" version="1" timestamp="2007-11-25T09:13:30Z" uid="4467" user="Rosscoe" changeset="615428" lat="-33.715208" lon="120.896685">
    <tag k="created_by" v="JOSM"/>
    <tag k="highway" v="trunk"/>
    <tag k="name" v="South Coast Hwy"/>
    <tag k="surface" v="paved"/>
  </node>
  <node id="131905960" version="1" timestamp="2007-11-25T09:13:30Z" uid="4467" user="Rosscoe" changeset="615428" lat="-33.715123" lon="120.89636">
    <tag k="created_by" v="JOSM"/>
    <tag k="highway" v="trunk"/>
    <tag k="name" v="South Coast Hwy"/>
    <tag k="surface" v="paved"/>
  </node>
  <node id="131905984" version="1" timestamp="2007-11-25T09:13:31Z" uid="4467" user="Rosscoe" changeset="615428" lat="-33.715035" lon="120.896025">
    <tag k="created_by" v="JOSM"/>
    <tag k="highway" v="trunk"/>
    <tag k="name" v="South Coast Hwy"/>
    <tag k="surface" v="paved"/>
  </node>
  <node id="131905984" version="3" timestamp="2011-12-20T12:59:15Z" uid="338866" user="tiger" changeset="10163339" lat="-33.715035" lon="120.896025"/>
  <node id="131906008" version="1" timestamp="2007-11-25T09:13:32Z" uid="4467" user="Rosscoe" changeset="615428" lat="-33.71495" lon="120.895695">
    <tag k="created_by" v="JOSM"/>
    <tag k="highway" v="trunk"/>
    <tag k="name" v="South Coast Hwy"/>
    <tag k="surface" v="paved"/>
  </node>
  <node id="131906017" version="1" timestamp="2007-11-25T09:13:33Z" uid="4467" user="Rosscoe" changeset="615428" lat="-33.714865" lon="120.895363">
    <tag k="created_by" v="JOSM"/>
    <tag k="highway" v="trunk"/>
    <tag k="name" v="South Coast Hwy"/>
    <tag k="surface" v="paved"/>
  </node>
  <node id="131906017" version="3" timestamp="2011-12-20T12:59:16Z" uid="338866" user="tiger" changeset="10163339" lat="-33.714865" lon="120.895363"/>
  <node id="131906039" version="1" timestamp="2007-11-25T09:13:34Z" uid="4467" user="Rosscoe" changeset="615428" lat="-33.714787" lon="120.89503">
    <tag k="created_by" v="JOSM"/>
    <tag k="highway" v="trunk"/>
    <tag k="name" v="South Coast Hwy"/>
    <tag k="surface" v="paved"/>
  </node>
  <node id="131906070" version="1" timestamp="2007-11-25T09:13:34Z" uid="4467" user="Rosscoe" changeset="615428" lat="-33.718955" lon="120.910777">
    <tag k="created_by" v="JOSM"/>
    <tag k="highway" v="trunk"/>
    <tag k="name" v="South Coast Hwy"/>
    <tag k="surface" v="paved"/>
  </node>
  <node id="131906091" version="1" timestamp="2007-11-25T09:13:35Z" uid="4467" user="Rosscoe" changeset="615428" lat="-33.719042" lon="120.911107">
    <tag k="created_by" v="JOSM"/>
    <tag k="highway" v="trunk"/>
    <tag k="name" v="South Coast Hwy"/>
    <tag k="surface" v="paved"/>
  </node>
  <node id="131906103" version="1" timestamp="2007-11-25T09:13:36Z" uid="4467" user="Rosscoe" changeset="615428" lat="-33.71913" lon="120.911435">
    <tag k="created_by" v="JOSM"/>
    <tag k="highway" v="trunk"/>
    <tag k="name" v="South Coast Hwy"/>
    <tag k="surface" v="paved"/>
  </node>
  <node id="131906120" version="1" timestamp="2007-11-25T09:13:37Z" uid="4467" user="Rosscoe" changeset="615428" lat="-33.719218" lon="120.911767">
    <tag k="created_by" v="JOSM"/>
    <tag k="highway" v="trunk"/>
    <tag k="name" v="South Coast Hwy"/>
    <tag k="surface" v="paved"/>
  </node>
  <node id="131906146" version="1" timestamp="2007-11-25T09:13:37Z" uid="4467" user="Rosscoe" changeset="615428" lat="-33.718605" lon="120.909442">
    <tag k="created_by" v="JOSM"/>
    <tag k="highway" v="trunk"/>
    <tag k="name" v="South Coast Hwy"/>
    <tag k="surface" v="paved"/>
  </node>
  <node id="131906164" version="1" timestamp="2007-11-25T09:13:38Z" uid="4467" user="Rosscoe" changeset="615428" lat="-33.718693" lon="120.909778">
    <tag k="created_by" v="JOSM"/>
    <tag k="highway" v="trunk"/>
    <tag k="name" v="South Coast Hwy"/>
    <tag k="surface" v="paved"/>
  </node>
  <node id="131906185" version="1" timestamp="2007-11-25T09:13:39Z" uid="4467" user="Rosscoe" changeset="615428" lat="-33.718782" lon="120.910117">
    <tag k="created_by" v="JOSM"/>
    <tag k="highway" v="trunk"/>
    <tag k="name" v="South Coast Hwy"/>
    <tag k="surface" v="paved"/>
  </node>
  <node id="131906207" version="1" timestamp="2007-11-25T09:13:40Z" uid="4467" user="Rosscoe" changeset="615428" lat="-33.718867" lon="120.910445">
    <tag k="created_by" v="JOSM"/>
    <tag k="highway" v="trunk"/>
    <tag k="name" v="South Coast Hwy"/>
    <tag k="surface" v="paved"/>
  </node>
  <node id="131906235" version="1" timestamp="2007-11-25T09:13:41Z" uid="4467" user="Rosscoe" changeset="615428" lat="-33.719658" lon="120.91341">
    <tag k="created_by" v="JOSM"/>
    <tag k="highway" v="trunk"/>
    <tag k="name" v="South Coast Hwy"/>
    <tag k="surface" v="paved"/>
  </node>
  <node id="131906254" version="1" timestamp="2007-11-25T09:13:41Z" uid="4467" user="Rosscoe" changeset="615428" lat="-33.719745" lon="120.913738">
    <tag k="created_by" v="JOSM"/>
    <tag k="highway" v="trunk"/>
    <tag k="name" v="South Coast Hwy"/>
    <tag k="surface" v="paved"/>
  </node>
  <node id="131906271" version="1" timestamp="2007-11-25T09:13:42Z" uid="4467" user="Rosscoe" changeset="615428" lat="-33.719833" lon="120.91407">
    <tag k="created_by" v="JOSM"/>
    <tag k="highway" v="trunk"/>
    <tag k="name" v="South Coast Hwy"/>
    <tag k="surface" v="paved"/>
  </node>
  <node id="131906285" version="1" timestamp="2007-11-25T09:13:43Z" uid="4467" user="Rosscoe" changeset="615428" lat="-33.719918" lon="120.914393">
    <tag k="created_by" v="JOSM"/>
    <tag k="highway" v="trunk"/>
    <tag k="name" v="South Coast Hwy"/>
    <tag k="surface" v="paved"/>
  </node>
  <node id="131906314" version="1" timestamp="2007-11-25T09:13:44Z" uid="4467" user="Rosscoe" changeset="615428" lat="-33.719307" lon="120.9121">
    <tag k="created_by" v="JOSM"/>
    <tag k="highway" v="trunk"/>
    <tag k="name" v="South Coast Hwy"/>
    <tag k="surface" v="paved"/>
  </node>
  <node id="131906341" version="1" timestamp="2007-11-25T09:13:44Z" uid="4467" user="Rosscoe" changeset="615428" lat="-33.719395" lon="120.912425">
    <tag k="created_by" v="JOSM"/>
    <tag k="highway" v="trunk"/>
    <tag k="name" v="South Coast Hwy"/>
    <tag k="surface" v="paved"/>
  </node>
  <node id="131906365" version="1" timestamp="2007-11-25T09:13:45Z" uid="4467" user="Rosscoe" changeset="615428" lat="-33.719483" lon="120.912753">
    <tag k="created_by" v="JOSM"/>
    <tag k="highway" v="trunk"/>
    <tag k="name" v="South Coast Hwy"/>
    <tag k="surface" v="paved"/>
  </node>
  <node id="131906388" version="1" timestamp="2007-11-25T09:13:46Z" uid="4467" user="Rosscoe" changeset="615428" lat="-33.719572" lon="120.913082">
    <tag k="created_by" v="JOSM"/>
    <tag k="highway" v="trunk"/>
    <tag k="name" v="South Coast Hwy"/>
    <tag k="surface" v="paved"/>
  </node>
  <node id="131906388" version="3" timestamp="2011-11-17T11:08:57Z" uid="338866" user="tiger" changeset="9852982" lat="-33.719572" lon="120.913082"/>
  <node id="131906409" version="1" timestamp="2007-11-25T09:13:47Z" uid="4467" user="Rosscoe" changeset="615428" lat="-33.717563" lon="120.905533">
    <tag k="created_by" v="JOSM"/>
    <tag k="highway" v="trunk"/>
    <tag k="name" v="South Coast Hwy"/>
    <tag k="surface" v="paved"/>
  </node>
  <node id="131906435" version="1" timestamp="2007-11-25T09:13:48Z" uid="4467" user="Rosscoe" changeset="615428" lat="-33.717475" lon="120.905207">
    <tag k="created_by" v="JOSM"/>
    <tag k="highway" v="trunk"/>
    <tag k="name" v="South Coast Hwy"/>
    <tag k="surface" v="paved"/>
  </node>
  <node id="131906457" version="1" timestamp="2007-11-25T09:13:48Z" uid="4467" user="Rosscoe" changeset="615428" lat="-33.717738" lon="120.906192">
    <tag k="created_by" v="JOSM"/>
    <tag k="highway" v="trunk"/>
    <tag k="name" v="South Coast Hwy"/>
    <tag k="surface" v="paved"/>
  </node>
  <node id="131906483" version="1" timestamp="2007-11-25T09:13:49Z" uid="4467" user="Rosscoe" changeset="615428" lat="-33.71765" lon="120.90586">
    <tag k="created_by" v="JOSM"/>
    <tag k="highway" v="trunk"/>
    <tag k="name" v="South Coast Hwy"/>
    <tag k="surface" v="paved"/>
  </node>
  <node id="131906508" version="1" timestamp="2007-11-25T09:13:50Z" uid="4467" user="Rosscoe" changeset="615428" lat="-33.717125" lon="120.903885">
    <tag k="created_by" v="JOSM"/>
    <tag k="highway" v="trunk"/>
    <tag k="name" v="South Coast Hwy"/>
    <tag k="surface" v="paved"/>
  </node>
  <node id="131906532" version="1" timestamp="2007-11-25T09:13:51Z" uid="4467" user="Rosscoe" changeset="615428" lat="-33.717037" lon="120.903553">
    <tag k="created_by" v="JOSM"/>
    <tag k="highway" v="trunk"/>
    <tag k="name" v="South Coast Hwy"/>
    <tag k="surface" v="paved"/>
  </node>
  <node id="131906532" version="3" timestamp="2011-11-17T11:08:57Z" uid="338866" user="tiger" changeset="9852982" lat="-33.717037" lon="120.903553"/>
  <node id="131906559" version="1" timestamp="2007-11-25T09:13:51Z" uid="4467" user="Rosscoe" changeset="615428" lat="-33.717387" lon="120.904878">
    <tag k="created_by" v="JOSM"/>
    <tag k="highway" v="trunk"/>
    <tag k="name" v="South Coast Hwy"/>
    <tag k="surface" v="paved"/>
  </node>
  <node id="131906586" version="1" timestamp="2007-11-25T09:13:52Z" uid="4467" user="Rosscoe" changeset="615428" lat="-33.717212" lon="120.904223">
    <tag k="created_by" v="JOSM"/>
    <tag k="highway" v="trunk"/>
    <tag k="name" v="South Coast Hwy"/>
    <tag k="surface" v="paved"/>
  </node>
  <node id="131906610" version="1" timestamp="2007-11-25T09:13:53Z" uid="4467" user="Rosscoe" changeset="615428" lat="-33.718343" lon="120.908462">
    <tag k="created_by" v="JOSM"/>
    <tag k="highway" v="trunk"/>
    <tag k="name" v="South Coast Hwy"/>
    <tag k="surface" v="paved"/>
  </node>
  <node id="131906630" version="1" timestamp="2007-11-25T09:13:54Z" uid="4467" user="Rosscoe" changeset="615428" lat="-33.718258" lon="120.908142">
    <tag k="created_by" v="JOSM"/>
    <tag k="highway" v="trunk"/>
    <tag k="name" v="South Coast Hwy"/>
    <tag k="surface" v="paved"/>
  </node>
  <node id="131906657" version="1" timestamp="2007-11-25T09:13:55Z" uid="4467" user="Rosscoe" changeset="615428" lat="-33.718517" lon="120.909118">
    <tag k="created_by" v="JOSM"/>
    <tag k="highway" v="trunk"/>
    <tag k="name" v="South Coast Hwy"/>
    <tag k="surface" v="paved"/>
  </node>
  <node id="131906687" version="1" timestamp="2007-11-25T09:13:55Z" uid="4467" user="Rosscoe" changeset="615428" lat="-33.71843" lon="120.908788">
    <tag k="created_by" v="JOSM"/>
    <tag k="highway" v="trunk"/>
    <tag k="name" v="South Coast Hwy"/>
    <tag k="surface" v="paved"/>
  </node>
  <node id="131906708" version="1" timestamp="2007-11-25T09:13:56Z" uid="4467" user="Rosscoe" changeset="615428" lat="-33.717995" lon="120.907167">
    <tag k="created_by" v="JOSM"/>
    <tag k="highway" v="trunk"/>
    <tag k="name" v="South Coast Hwy"/>
    <tag k="surface" v="paved"/>
  </node>
  <node id="131906731" version="1" timestamp="2007-11-25T09:13:57Z" uid="4467" user="Rosscoe" changeset="615428" lat="-33.717823" lon="120.906513">
    <tag k="created_by" v="JOSM"/>
    <tag k="highway" v="trunk"/>
    <tag k="name" v="South Coast Hwy"/>
    <tag k="surface" v="paved"/>
  </node>
  <node id="131906756" version="1" timestamp="2007-11-25T09:13:58Z" uid="4467" user="Rosscoe" changeset="615428" lat="-33.71817" lon="120.907813">
    <tag k="created_by" v="JOSM"/>
    <tag k="highway" v="trunk"/>
    <tag k="name" v="South Coast Hwy"/>
    <tag k="surface" v="paved"/>
  </node>
  <node id="131906781" version="1" timestamp="2007-11-25T09:13:59Z" uid="4467" user="Rosscoe" changeset="615428" lat="-33.71808" lon="120.907488">
    <tag k="created_by" v="JOSM"/>
    <tag k="highway" v="trunk"/>
    <tag k="name" v="South Coast Hwy"/>
    <tag k="surface" v="paved"/>
  </node>
  <node id="131906802" version="1" timestamp="2007-11-25T09:13:59Z" uid="4467" user="Rosscoe" changeset="615428" lat="-33.73772" lon="120.968878">
    <tag k="created_by" v="JOSM"/>
    <tag k="highway" v="trunk"/>
    <tag k="name" v="South Coast Hwy"/>
    <tag k="surface" v="paved"/>
  </node>
  <node id="131906817" version="1" timestamp="2007-11-25T09:14:00Z" uid="4467" user="Rosscoe" changeset="615428" lat="-33.737527" lon="120.968628">
    <tag k="created_by" v="JOSM"/>
    <tag k="highway" v="trunk"/>
    <tag k="name" v="South Coast Hwy"/>
    <tag k="surface" v="paved"/>
  </node>
  <node id="131906829" version="1" timestamp="2007-11-25T09:14:01Z" uid="4467" user="Rosscoe" changeset="615428" lat="-33.73733" lon="120.968377">
    <tag k="created_by" v="JOSM"/>
    <tag k="highway" v="trunk"/>
    <tag k="name" v="South Coast Hwy"/>
    <tag k="surface" v="paved"/>
  </node>
  <node id="131906850" version="1" timestamp="2007-11-25T09:14:02Z" uid="4467" user="Rosscoe" changeset="615428" lat="-33.737135" lon="120.968125">
    <tag k="created_by" v="JOSM"/>
    <tag k="highway" v="trunk"/>
    <tag k="name" v="South Coast Hwy"/>
    <tag k="surface" v="paved"/>
  </node>
  <node id="131906877" version="1" timestamp="2007-11-25T09:14:02Z" uid="4467" user="Rosscoe" changeset="615428" lat="-33.738498" lon="120.96988">
    <tag k="created_by" v="JOSM"/>
    <tag k="highway" v="trunk"/>
    <tag k="name" v="South Coast Hwy"/>
    <tag k="surface" v="paved"/>
  </node>
  <node id="131906893" version="1" timestamp="2007-11-25T09:14:03Z" uid="4467" user="Rosscoe" changeset="615428" lat="-33.738302" lon="120.969628">
    <tag k="created_by" v="JOSM"/>
    <tag k="highway" v="trunk"/>
    <tag k="name" v="South Coast Hwy"/>
    <tag k="surface" v="paved"/>
  </node>
  <node id="131906913" version="1" timestamp="2007-11-25T09:14:04Z" uid="4467" user="Rosscoe" changeset="615428" lat="-33.738107" lon="120.96938">
    <tag k="created_by" v="JOSM"/>
    <tag k="highway" v="trunk"/>
    <tag k="name" v="South Coast Hwy"/>
    <tag k="surface" v="paved"/>
  </node>
  <node id="131906938" version="1" timestamp="2007-11-25T09:14:05Z" uid="4467" user="Rosscoe" changeset="615428" lat="-33.737913" lon="120.969132">
    <tag k="created_by" v="JOSM"/>
    <tag k="highway" v="trunk"/>
    <tag k="name" v="South Coast Hwy"/>
    <tag k="surface" v="paved"/>
  </node>
  <node id="131906961" version="1" timestamp="2007-11-25T09:14:06Z" uid="4467" user="Rosscoe" changeset="615428" lat="-33.73615" lon="120.966858">
    <tag k="created_by" v="JOSM"/>
    <tag k="highway" v="trunk"/>
    <tag k="name" v="South Coast Hwy"/>
    <tag k="surface" v="paved"/>
  </node>
  <node id="131906984" version="1" timestamp="2007-11-25T09:14:06Z" uid="4467" user="Rosscoe" changeset="615428" lat="-33.735952" lon="120.966603">
    <tag k="created_by" v="JOSM"/>
    <tag k="highway" v="trunk"/>
    <tag k="name" v="South Coast Hwy"/>
    <tag k="surface" v="paved"/>
  </node>
  <node id="131907008" version="1" timestamp="2007-11-25T09:14:07Z" uid="4467" user="Rosscoe" changeset="615428" lat="-33.735755" lon="120.966347">
    <tag k="created_by" v="JOSM"/>
    <tag k="highway" v="trunk"/>
    <tag k="name" v="South Coast Hwy"/>
    <tag k="surface" v="paved"/>
  </node>
  <node id="131907042" version="1" timestamp="2007-11-25T09:14:08Z" uid="4467" user="Rosscoe" changeset="615428" lat="-33.735558" lon="120.96609">
    <tag k="created_by" v="JOSM"/>
    <tag k="highway" v="trunk"/>
    <tag k="name" v="South Coast Hwy"/>
    <tag k="surface" v="paved"/>
  </node>
  <node id="131907042" version="3" timestamp="2011-12-20T12:59:16Z" uid="338866" user="tiger" changeset="10163339" lat="-33.735558" lon="120.96609"/>
  <node id="131907094" version="1" timestamp="2007-11-25T09:14:10Z" uid="4467" user="Rosscoe" changeset="615428" lat="-33.736938" lon="120.967872">
    <tag k="created_by" v="JOSM"/>
    <tag k="highway" v="trunk"/>
    <tag k="name" v="South Coast Hwy"/>
    <tag k="surface" v="paved"/>
  </node>
  <node id="131907136" version="1" timestamp="2007-11-25T09:14:11Z" uid="4467" user="Rosscoe" changeset="615428" lat="-33.736745" lon="120.967622">
    <tag k="created_by" v="JOSM"/>
    <tag k="highway" v="trunk"/>
    <tag k="name" v="South Coast Hwy"/>
    <tag k="surface" v="paved"/>
  </node>
  <node id="131907160" version="1" timestamp="2007-11-25T09:14:12Z" uid="4467" user="Rosscoe" changeset="615428" lat="-33.736543" lon="120.967363">
    <tag k="created_by" v="JOSM"/>
    <tag k="highway" v="trunk"/>
    <tag k="name" v="South Coast Hwy"/>
    <tag k="surface" v="paved"/>
  </node>
  <node id="131907185" version="1" timestamp="2007-11-25T09:14:13Z" uid="4467" user="Rosscoe" changeset="615428" lat="-33.736345" lon="120.96711">
    <tag k="created_by" v="JOSM"/>
    <tag k="highway" v="trunk"/>
    <tag k="name" v="South Coast Hwy"/>
    <tag k="surface" v="paved"/>
  </node>
  <node id="131907218" version="1" timestamp="2007-11-25T09:14:14Z" uid="4467" user="Rosscoe" changeset="615428" lat="-33.734397" lon="120.964563">
    <tag k="created_by" v="JOSM"/>
    <tag k="highway" v="trunk"/>
    <tag k="name" v="South Coast Hwy"/>
    <tag k="surface" v="paved"/>
  </node>
  <node id="131907281" version="1" timestamp="2007-11-25T09:14:16Z" uid="4467" user="Rosscoe" changeset="615428" lat="-33.734588" lon="120.964813">
    <tag k="created_by" v="JOSM"/>
    <tag k="highway" v="trunk"/>
    <tag k="name" v="South Coast Hwy"/>
    <tag k="surface" v="paved"/>
  </node>
  <node id="131907327" version="1" timestamp="2007-11-25T09:14:17Z" uid="4467" user="Rosscoe" changeset="615428" lat="-33.734008" lon="120.964058">
    <tag k="created_by" v="JOSM"/>
    <tag k="highway" v="trunk"/>
    <tag k="name" v="South Coast Hwy"/>
    <tag k="surface" v="paved"/>
  </node>
  <node id="131907390" version="1" timestamp="2007-11-25T09:14:19Z" uid="4467" user="Rosscoe" changeset="615428" lat="-33.734202" lon="120.96431">
    <tag k="created_by" v="JOSM"/>
    <tag k="highway" v="trunk"/>
    <tag k="name" v="South Coast Hwy"/>
    <tag k="surface" v="paved"/>
  </node>
  <node id="131907442" version="1" timestamp="2007-11-25T09:14:22Z" uid="4467" user="Rosscoe" changeset="615428" lat="-33.735167" lon="120.96557">
    <tag k="created_by" v="JOSM"/>
    <tag k="highway" v="trunk"/>
    <tag k="name" v="South Coast Hwy"/>
    <tag k="surface" v="paved"/>
  </node>
  <node id="131907484" version="1" timestamp="2007-11-25T09:14:23Z" uid="4467" user="Rosscoe" changeset="615428" lat="-33.735363" lon="120.96583">
    <tag k="created_by" v="JOSM"/>
    <tag k="highway" v="trunk"/>
    <tag k="name" v="South Coast Hwy"/>
    <tag k="surface" v="paved"/>
  </node>
  <node id="131907513" version="1" timestamp="2007-11-25T09:14:24Z" uid="4467" user="Rosscoe" changeset="615428" lat="-33.734782" lon="120.965065">
    <tag k="created_by" v="JOSM"/>
    <tag k="highway" v="trunk"/>
    <tag k="name" v="South Coast Hwy"/>
    <tag k="surface" v="paved"/>
  </node>
  <node id="131907543" version="1" timestamp="2007-11-25T09:14:26Z" uid="4467" user="Rosscoe" changeset="615428" lat="-33.734975" lon="120.965318">
    <tag k="created_by" v="JOSM"/>
    <tag k="highway" v="trunk"/>
    <tag k="name" v="South Coast Hwy"/>
    <tag k="surface" v="paved"/>
  </node>
  <node id="131907579" version="1" timestamp="2007-11-25T09:14:27Z" uid="4467" user="Rosscoe" changeset="615428" lat="-33.73294" lon="120.96245">
    <tag k="created_by" v="JOSM"/>
    <tag k="highway" v="trunk"/>
    <tag k="name" v="South Coast Hwy"/>
    <tag k="surface" v="paved"/>
  </node>
  <node id="131907579" version="3" timestamp="2011-12-20T12:59:16Z" uid="338866" user="tiger" changeset="10163339" lat="-33.73294" lon="120.96245"/>
  <node id="131907614" version="1" timestamp="2007-11-25T09:14:28Z" uid="4467" user="Rosscoe" changeset="615428" lat="-33.733102" lon="120.962735">
    <tag k="created_by" v="JOSM"/>
    <tag k="highway" v="trunk"/>
    <tag k="name" v="South Coast Hwy"/>
    <tag k="surface" v="paved"/>
  </node>
  <node id="131907614" version="3" timestamp="2011-11-17T11:08:58Z" uid="338866" user="tiger" changeset="9852982" lat="-33.733102" lon="120.962735"/>
  <node id="131907660" version="1" timestamp="2007-11-25T09:14:30Z" uid="4467" user="Rosscoe" changeset="615428" lat="-33.732638" lon="120.961863">
    <tag k="created_by" v="JOSM"/>
    <tag k="highway" v="trunk"/>
    <tag k="name" v="South Coast Hwy"/>
    <tag k="surface" v="paved"/>
  </node>
  <node id="131907660" version="3" timestamp="2011-12-20T12:59:16Z" uid="338866" user="tiger" changeset="10163339" lat="-33.732638" lon="120.961863"/>
  <node id="131907702" version="1" timestamp="2007-11-25T09:14:31Z" uid="4467" user="Rosscoe" changeset="615428" lat="-33.732785" lon="120.962158">
    <tag k="created_by" v="JOSM"/>
    <tag k="highway" v="trunk"/>
    <tag k="name" v="South Coast Hwy"/>
    <tag k="surface" v="paved"/>
  </node>
  <node id="131907744" version="1" timestamp="2007-11-25T09:14:33Z" uid="4467" user="Rosscoe" changeset="615428" lat="-33.733628" lon="120.963548">
    <tag k="created_by" v="JOSM"/>
    <tag k="highway" v="trunk"/>
    <tag k="name" v="South Coast Hwy"/>
    <tag k="surface" v="paved"/>
  </node>
  <node id="131907766" version="1" timestamp="2007-11-25T09:14:33Z" uid="4467" user="Rosscoe" changeset="615428" lat="-33.733817" lon="120.963805">
    <tag k="created_by" v="JOSM"/>
    <tag k="highway" v="trunk"/>
    <tag k="name" v="South Coast Hwy"/>
    <tag k="surface" v="paved"/>
  </node>
  <node id="131907766" version="3" timestamp="2011-12-20T12:59:16Z" uid="338866" user="tiger" changeset="10163339" lat="-33.733817" lon="120.963805"/>
  <node id="131907792" version="1" timestamp="2007-11-25T09:14:34Z" uid="4467" user="Rosscoe" changeset="615428" lat="-33.733273" lon="120.963017">
    <tag k="created_by" v="JOSM"/>
    <tag k="highway" v="trunk"/>
    <tag k="name" v="South Coast Hwy"/>
    <tag k="surface" v="paved"/>
  </node>
  <node id="131907818" version="1" timestamp="2007-11-25T09:14:35Z" uid="4467" user="Rosscoe" changeset="615428" lat="-33.733447" lon="120.963285">
    <tag k="created_by" v="JOSM"/>
    <tag k="highway" v="trunk"/>
    <tag k="name" v="South Coast Hwy"/>
    <tag k="surface" v="paved"/>
  </node>
  <node id="131907818" version="3" timestamp="2011-12-20T12:59:16Z" uid="338866" user="tiger" changeset="10163339" lat="-33.733447" lon="120.963285"/>
  <node id="131907844" version="1" timestamp="2007-11-25T09:14:36Z" uid="4467" user="Rosscoe" changeset="615428" lat="-33.743208" lon="120.97792">
    <tag k="created_by" v="JOSM"/>
    <tag k="highway" v="trunk"/>
    <tag k="name" v="South Coast Hwy"/>
    <tag k="surface" v="paved"/>
  </node>
  <node id="131907872" version="1" timestamp="2007-11-25T09:14:36Z" uid="4467" user="Rosscoe" changeset="615428" lat="-33.743137" lon="120.977585">
    <tag k="created_by" v="JOSM"/>
    <tag k="highway" v="trunk"/>
    <tag k="name" v="South Coast Hwy"/>
    <tag k="surface" v="paved"/>
  </node>
  <node id="131907872" version="3" timestamp="2011-12-20T12:59:16Z" uid="338866" user="tiger" changeset="10163339" lat="-33.743137" lon="120.977585"/>
  <node id="131907897" version="1" timestamp="2007-11-25T09:14:37Z" uid="4467" user="Rosscoe" changeset="615428" lat="-33.743347" lon="120.978593">
    <tag k="created_by" v="JOSM"/>
    <tag k="highway" v="trunk"/>
    <tag k="name" v="South Coast Hwy"/>
    <tag k="surface" v="paved"/>
  </node>
  <node id="131907918" version="1" timestamp="2007-11-25T09:14:38Z" uid="4467" user="Rosscoe" changeset="615428" lat="-33.743278" lon="120.978257">
    <tag k="created_by" v="JOSM"/>
    <tag k="highway" v="trunk"/>
    <tag k="name" v="South Coast Hwy"/>
    <tag k="surface" v="paved"/>
  </node>
  <node id="131907942" version="1" timestamp="2007-11-25T09:14:39Z" uid="4467" user="Rosscoe" changeset="615428" lat="-33.743485" lon="120.97927">
    <tag k="created_by" v="JOSM"/>
    <tag k="highway" v="trunk"/>
    <tag k="name" v="South Coast Hwy"/>
    <tag k="surface" v="paved"/>
  </node>
  <node id="131907965" version="1" timestamp="2007-11-25T09:14:40Z" uid="4467" user="Rosscoe" changeset="615428" lat="-33.743415" lon="120.978928">
    <tag k="created_by" v="JOSM"/>
    <tag k="highway" v="trunk"/>
    <tag k="name" v="South Coast Hwy"/>
    <tag k="surface" v="paved"/>
  </node>
  <node id="131907989" version="1" timestamp="2007-11-25T09:14:40Z" uid="4467" user="Rosscoe" changeset="615428" lat="-33.743627" lon="120.979935">
    <tag k="created_by" v="JOSM"/>
    <tag k="highway" v="trunk"/>
    <tag k="name" v="South Coast Hwy"/>
    <tag k="surface" v="paved"/>
  </node>
  <node id="131908014" version="1" timestamp="2007-11-25T09:14:41Z" uid="4467" user="Rosscoe" changeset="615428" lat="-33.743555" lon="120.9796">
    <tag k="created_by" v="JOSM"/>
    <tag k="highway" v="trunk"/>
    <tag k="name" v="South Coast Hwy"/>
    <tag k="surface" v="paved"/>
  </node>
  <node id="131908034" version="1" timestamp="2007-11-25T09:14:42Z" uid="4467" user="Rosscoe" changeset="615428" lat="-33.742458" lon="120.975318">
    <tag k="created_by" v="JOSM"/>
    <tag k="highway" v="trunk"/>
    <tag k="name" v="South Coast Hwy"/>
    <tag k="surface" v="paved"/>
  </node>
  <node id="131908056" version="1" timestamp="2007-11-25T09:14:43Z" uid="4467" user="Rosscoe" changeset="615428" lat="-33.742312" lon="120.975018">
    <tag k="created_by" v="JOSM"/>
    <tag k="highway" v="trunk"/>
    <tag k="name" v="South Coast Hwy"/>
    <tag k="surface" v="paved"/>
  </node>
  <node id="131908056" version="3" timestamp="2011-12-20T12:59:16Z" uid="338866" user="tiger" changeset="10163339" lat="-33.742312" lon="120.975018"/>
  <node id="131908078" version="1" timestamp="2007-11-25T09:14:43Z" uid="4467" user="Rosscoe" changeset="615428" lat="-33.74271" lon="120.975935">
    <tag k="created_by" v="JOSM"/>
    <tag k="highway" v="trunk"/>
    <tag k="name" v="South Coast Hwy"/>
    <tag k="surface" v="paved"/>
  </node>
  <node id="131908100" version="1" timestamp="2007-11-25T09:14:44Z" uid="4467" user="Rosscoe" changeset="615428" lat="-33.74259" lon="120.97562">
    <tag k="created_by" v="JOSM"/>
    <tag k="highway" v="trunk"/>
    <tag k="name" v="South Coast Hwy"/>
    <tag k="surface" v="paved"/>
  </node>
  <node id="131908100" version="3" timestamp="2011-12-20T12:59:17Z" uid="338866" user="tiger" changeset="10163339" lat="-33.74259" lon="120.97562"/>
  <node id="131908120" version="1" timestamp="2007-11-25T09:14:45Z" uid="4467" user="Rosscoe" changeset="615428" lat="-33.742908" lon="120.976582">
    <tag k="created_by" v="JOSM"/>
    <tag k="highway" v="trunk"/>
    <tag k="name" v="South Coast Hwy"/>
    <tag k="surface" v="paved"/>
  </node>
  <node id="131908143" version="1" timestamp="2007-11-25T09:14:46Z" uid="4467" user="Rosscoe" changeset="615428" lat="-33.742815" lon="120.976253">
    <tag k="created_by" v="JOSM"/>
    <tag k="highway" v="trunk"/>
    <tag k="name" v="South Coast Hwy"/>
    <tag k="surface" v="paved"/>
  </node>
  <node id="131908143" version="3" timestamp="2011-12-20T12:59:17Z" uid="338866" user="tiger" changeset="10163339" lat="-33.742815" lon="120.976253"/>
  <node id="131908167" version="1" timestamp="2007-11-25T09:14:47Z" uid="4467" user="Rosscoe" changeset="615428" lat="-33.743065" lon="120.977253">
    <tag k="created_by" v="JOSM"/>
    <tag k="highway" v="trunk"/>
    <tag k="name" v="South Coast Hwy"/>
    <tag k="surface" v="paved"/>
  </node>
  <node id="131908189" version="1" timestamp="2007-11-25T09:14:47Z" uid="4467" user="Rosscoe" changeset="615428" lat="-33.74299" lon="120.976913">
    <tag k="created_by" v="JOSM"/>
    <tag k="highway" v="trunk"/>
    <tag k="name" v="South Coast Hwy"/>
    <tag k="surface" v="paved"/>
  </node>
  <node id="131908189" version="3" timestamp="2011-12-20T12:59:17Z" uid="338866" user="tiger" changeset="10163339" lat="-33.74299" lon="120.976913"/>
  <node id="131908213" version="1" timestamp="2007-11-25T09:14:48Z" uid="4467" user="Rosscoe" changeset="615428" lat="-33.74046" lon="120.9724">
    <tag k="created_by" v="JOSM"/>
    <tag k="highway" v="trunk"/>
    <tag k="name" v="South Coast Hwy"/>
    <tag k="surface" v="paved"/>
  </node>
  <node id="131908240" version="1" timestamp="2007-11-25T09:14:49Z" uid="4467" user="Rosscoe" changeset="615428" lat="-33.740658" lon="120.97265">
    <tag k="created_by" v="JOSM"/>
    <tag k="highway" v="trunk"/>
    <tag k="name" v="South Coast Hwy"/>
    <tag k="surface" v="paved"/>
  </node>
  <node id="131908240" version="3" timestamp="2011-11-17T11:08:58Z" uid="338866" user="tiger" changeset="9852982" lat="-33.740658" lon="120.97265"/>
  <node id="131908260" version="1" timestamp="2007-11-25T09:14:50Z" uid="4467" user="Rosscoe" changeset="615428" lat="-33.740853" lon="120.972902">
    <tag k="created_by" v="JOSM"/>
    <tag k="highway" v="trunk"/>
    <tag k="name" v="South Coast Hwy"/>
    <tag k="surface" v="paved"/>
  </node>
  <node id="131908288" version="1" timestamp="2007-11-25T09:14:50Z" uid="4467" user="Rosscoe" changeset="615428" lat="-33.741243" lon="120.973403">
    <tag k="created_by" v="JOSM"/>
    <tag k="highway" v="trunk"/>
    <tag k="name" v="South Coast Hwy"/>
    <tag k="surface" v="paved"/>
  </node>
  <node id="131908314" version="1" timestamp="2007-11-25T09:14:51Z" uid="4467" user="Rosscoe" changeset="615428" lat="-33.741627" lon="120.973915">
    <tag k="created_by" v="JOSM"/>
    <tag k="highway" v="trunk"/>
    <tag k="name" v="South Coast Hwy"/>
    <tag k="surface" v="paved"/>
  </node>
  <node id="131908314" version="3" timestamp="2011-12-20T12:59:17Z" uid="338866" user="tiger" changeset="10163339" lat="-33.741627" lon="120.973915"/>
  <node id="131908336" version="1" timestamp="2007-11-25T09:14:52Z" uid="4467" user="Rosscoe" changeset="615428" lat="-33.741813" lon="120.97418">
    <tag k="created_by" v="JOSM"/>
    <tag k="highway" v="trunk"/>
    <tag k="name" v="South Coast Hwy"/>
    <tag k="surface" v="paved"/>
  </node>
  <node id="131908359" version="1" timestamp="2007-11-25T09:14:53Z" uid="4467" user="Rosscoe" changeset="615428" lat="-33.741992" lon="120.97445">
    <tag k="created_by" v="JOSM"/>
    <tag k="highway" v="trunk"/>
    <tag k="name" v="South Coast Hwy"/>
    <tag k="surface" v="paved"/>
  </node>
  <node id="131908359" version="3" timestamp="2011-12-20T12:59:17Z" uid="338866" user="tiger" changeset="10163339" lat="-33.741992" lon="120.97445"/>
  <node id="131908377" version="1" timestamp="2007-11-25T09:14:54Z" uid="4467" user="Rosscoe" changeset="615428" lat="-33.742157" lon="120.974725">
    <tag k="created_by" v="JOSM"/>
    <tag k="highway" v="trunk"/>
    <tag k="name" v="South Coast Hwy"/>
    <tag k="surface" v="paved"/>
  </node>
  <node id="131908407" version="1" timestamp="2007-11-25T09:14:54Z" uid="4467" user="Rosscoe" changeset="615428" lat="-33.738693" lon="120.970132">
    <tag k="created_by" v="JOSM"/>
    <tag k="highway" v="trunk"/>
    <tag k="name" v="South Coast Hwy"/>
    <tag k="surface" v="paved"/>
  </node>
  <node id="131908433" version="1" timestamp="2007-11-25T09:14:55Z" uid="4467" user="Rosscoe" changeset="615428" lat="-33.738887" lon="120.970387">
    <tag k="created_by" v="JOSM"/>
    <tag k="highway" v="trunk"/>
    <tag k="name" v="South Coast Hwy"/>
    <tag k="surface" v="paved"/>
  </node>
  <node id="131908453" version="1" timestamp="2007-11-25T09:14:56Z" uid="4467" user="Rosscoe" changeset="615428" lat="-33.739085" lon="120.970643">
    <tag k="created_by" v="JOSM"/>
    <tag k="highway" v="trunk"/>
    <tag k="name" v="South Coast Hwy"/>
    <tag k="surface" v="paved"/>
  </node>
  <node id="131908475" version="1" timestamp="2007-11-25T09:14:57Z" uid="4467" user="Rosscoe" changeset="615428" lat="-33.73928" lon="120.970892">
    <tag k="created_by" v="JOSM"/>
    <tag k="highway" v="trunk"/>
    <tag k="name" v="South Coast Hwy"/>
    <tag k="surface" v="paved"/>
  </node>
  <node id="131908503" version="1" timestamp="2007-11-25T09:14:57Z" uid="4467" user="Rosscoe" changeset="615428" lat="-33.739478" lon="120.971143">
    <tag k="created_by" v="JOSM"/>
    <tag k="highway" v="trunk"/>
    <tag k="name" v="South Coast Hwy"/>
    <tag k="surface" v="paved"/>
  </node>
  <node id="131908529" version="1" timestamp="2007-11-25T09:14:58Z" uid="4467" user="Rosscoe" changeset="615428" lat="-33.739675" lon="120.971395">
    <tag k="created_by" v="JOSM"/>
    <tag k="highway" v="trunk"/>
    <tag k="name" v="South Coast Hwy"/>
    <tag k="surface" v="paved"/>
  </node>
  <node id="131908552" version="1" timestamp="2007-11-25T09:14:59Z" uid="4467" user="Rosscoe" changeset="615428" lat="-33.740068" lon="120.971898">
    <tag k="created_by" v="JOSM"/>
    <tag k="highway" v="trunk"/>
    <tag k="name" v="South Coast Hwy"/>
    <tag k="surface" v="paved"/>
  </node>
  <node id="131908576" version="1" timestamp="2007-11-25T09:15:00Z" uid="4467" user="Rosscoe" changeset="615428" lat="-33.740267" lon="120.97215">
    <tag k="created_by" v="JOSM"/>
    <tag k="highway" v="trunk"/>
    <tag k="name" v="South Coast Hwy"/>
    <tag k="surface" v="paved"/>
  </node>
  <node id="131908604" version="1" timestamp="2007-11-25T09:15:01Z" uid="4467" user="Rosscoe" changeset="615428" lat="-33.729285" lon="120.949805">
    <tag k="created_by" v="JOSM"/>
    <tag k="highway" v="trunk"/>
    <tag k="name" v="South Coast Hwy"/>
    <tag k="surface" v="paved"/>
  </node>
  <node id="131908642" version="1" timestamp="2007-11-25T09:15:01Z" uid="4467" user="Rosscoe" changeset="615428" lat="-33.7292" lon="120.94948">
    <tag k="created_by" v="JOSM"/>
    <tag k="highway" v="trunk"/>
    <tag k="name" v="South Coast Hwy"/>
    <tag k="surface" v="paved"/>
  </node>
  <node id="131908664" version="1" timestamp="2007-11-25T09:15:02Z" uid="4467" user="Rosscoe" changeset="615428" lat="-33.729112" lon="120.949147">
    <tag k="created_by" v="JOSM"/>
    <tag k="highway" v="trunk"/>
    <tag k="name" v="South Coast Hwy"/>
    <tag k="surface" v="paved"/>
  </node>
  <node id="131908686" version="1" timestamp="2007-11-25T09:15:03Z" uid="4467" user="Rosscoe" changeset="615428" lat="-33.729025" lon="120.948815">
    <tag k="created_by" v="JOSM"/>
    <tag k="highway" v="trunk"/>
    <tag k="name" v="South Coast Hwy"/>
    <tag k="surface" v="paved"/>
  </node>
  <node id="131908710" version="1" timestamp="2007-11-25T09:15:04Z" uid="4467" user="Rosscoe" changeset="615428" lat="-33.728938" lon="120.948488">
    <tag k="created_by" v="JOSM"/>
    <tag k="highway" v="trunk"/>
    <tag k="name" v="South Coast Hwy"/>
    <tag k="surface" v="paved"/>
  </node>
  <node id="131908734" version="1" timestamp="2007-11-25T09:15:04Z" uid="4467" user="Rosscoe" changeset="615428" lat="-33.728853" lon="120.948158">
    <tag k="created_by" v="JOSM"/>
    <tag k="highway" v="trunk"/>
    <tag k="name" v="South Coast Hwy"/>
    <tag k="surface" v="paved"/>
  </node>
  <node id="131908755" version="1" timestamp="2007-11-25T09:15:05Z" uid="4467" user="Rosscoe" changeset="615428" lat="-33.728767" lon="120.947828">
    <tag k="created_by" v="JOSM"/>
    <tag k="highway" v="trunk"/>
    <tag k="name" v="South Coast Hwy"/>
    <tag k="surface" v="paved"/>
  </node>
  <node id="131908780" version="1" timestamp="2007-11-25T09:15:06Z" uid="4467" user="Rosscoe" changeset="615428" lat="-33.728682" lon="120.947503">
    <tag k="created_by" v="JOSM"/>
    <tag k="highway" v="trunk"/>
    <tag k="name" v="South Coast Hwy"/>
    <tag k="surface" v="paved"/>
  </node>
  <node id="131908805" version="1" timestamp="2007-11-25T09:15:07Z" uid="4467" user="Rosscoe" changeset="615428" lat="-33.728593" lon="120.947172">
    <tag k="created_by" v="JOSM"/>
    <tag k="highway" v="trunk"/>
    <tag k="name" v="South Coast Hwy"/>
    <tag k="surface" v="paved"/>
  </node>
  <node id="131908831" version="1" timestamp="2007-11-25T09:15:08Z" uid="4467" user="Rosscoe" changeset="615428" lat="-33.728505" lon="120.946838">
    <tag k="created_by" v="JOSM"/>
    <tag k="highway" v="trunk"/>
    <tag k="name" v="South Coast Hwy"/>
    <tag k="surface" v="paved"/>
  </node>
  <node id="131908856" version="1" timestamp="2007-11-25T09:15:08Z" uid="4467" user="Rosscoe" changeset="615428" lat="-33.728418" lon="120.946517">
    <tag k="created_by" v="JOSM"/>
    <tag k="highway" v="trunk"/>
    <tag k="name" v="South Coast Hwy"/>
    <tag k="surface" v="paved"/>
  </node>
  <node id="131908879" version="1" timestamp="2007-11-25T09:15:09Z" uid="4467" user="Rosscoe" changeset="615428" lat="-33.728333" lon="120.946188">
    <tag k="created_by" v="JOSM"/>
    <tag k="highway" v="trunk"/>
    <tag k="name" v="South Coast Hwy"/>
    <tag k="surface" v="paved"/>
  </node>
  <node id="131908898" version="1" timestamp="2007-11-25T09:15:10Z" uid="4467" user="Rosscoe" changeset="615428" lat="-33.728247" lon="120.94586">
    <tag k="created_by" v="JOSM"/>
    <tag k="highway" v="trunk"/>
    <tag k="name" v="South Coast Hwy"/>
    <tag k="surface" v="paved"/>
  </node>
  <node id="131908922" version="1" timestamp="2007-11-25T09:15:11Z" uid="4467" user="Rosscoe" changeset="615428" lat="-33.728163" lon="120.945535">
    <tag k="created_by" v="JOSM"/>
    <tag k="highway" v="trunk"/>
    <tag k="name" v="South Coast Hwy"/>
    <tag k="surface" v="paved"/>
  </node>
  <node id="131908945" version="1" timestamp="2007-11-25T09:15:11Z" uid="4467" user="Rosscoe" changeset="615428" lat="-33.728078" lon="120.945203">
    <tag k="created_by" v="JOSM"/>
    <tag k="highway" v="trunk"/>
    <tag k="name" v="South Coast Hwy"/>
    <tag k="surface" v="paved"/>
  </node>
  <node id="131908945" version="3" timestamp="2011-11-17T11:08:58Z" uid="338866" user="tiger" changeset="9852982" lat="-33.728078" lon="120.945203"/>
  <node id="131908954" version="1" timestamp="2007-11-25T09:15:12Z" uid="4467" user="Rosscoe" changeset="615428" lat="-33.72799" lon="120.944875">
    <tag k="created_by" v="JOSM"/>
    <tag k="highway" v="trunk"/>
    <tag k="name" v="South Coast Hwy"/>
    <tag k="surface" v="paved"/>
  </node>
  <node id="131908962" version="1" timestamp="2007-11-25T09:15:13Z" uid="4467" user="Rosscoe" changeset="615428" lat="-33.727728" lon="120.943892">
    <tag k="created_by" v="JOSM"/>
    <tag k="highway" v="trunk"/>
    <tag k="name" v="South Coast Hwy"/>
    <tag k="surface" v="paved"/>
  </node>
  <node id="131908982" version="1" timestamp="2007-11-25T09:15:14Z" uid="4467" user="Rosscoe" changeset="615428" lat="-33.727903" lon="120.944548">
    <tag k="created_by" v="JOSM"/>
    <tag k="highway" v="trunk"/>
    <tag k="name" v="South Coast Hwy"/>
    <tag k="surface" v="paved"/>
  </node>
  <node id="131909008" version="1" timestamp="2007-11-25T09:15:14Z" uid="4467" user="Rosscoe" changeset="615428" lat="-33.727465" lon="120.942903">
    <tag k="created_by" v="JOSM"/>
    <tag k="highway" v="trunk"/>
    <tag k="name" v="South Coast Hwy"/>
    <tag k="surface" v="paved"/>
  </node>
  <node id="131909036" version="1" timestamp="2007-11-25T09:15:15Z" uid="4467" user="Rosscoe" changeset="615428" lat="-33.727553" lon="120.943232">
    <tag k="created_by" v="JOSM"/>
    <tag k="highway" v="trunk"/>
    <tag k="name" v="South Coast Hwy"/>
    <tag k="surface" v="paved"/>
  </node>
  <node id="131909058" version="1" timestamp="2007-11-25T09:15:16Z" uid="4467" user="Rosscoe" changeset="615428" lat="-33.727292" lon="120.942243">
    <tag k="created_by" v="JOSM"/>
    <tag k="highway" v="trunk"/>
    <tag k="name" v="South Coast Hwy"/>
    <tag k="surface" v="paved"/>
  </node>
  <node id="131909083" version="1" timestamp="2007-11-25T09:15:17Z" uid="4467" user="Rosscoe" changeset="615428" lat="-33.727377" lon="120.942568">
    <tag k="created_by" v="JOSM"/>
    <tag k="highway" v="trunk"/>
    <tag k="name" v="South Coast Hwy"/>
    <tag k="surface" v="paved"/>
  </node>
  <node id="131909112" version="1" timestamp="2007-11-25T09:15:18Z" uid="4467" user="Rosscoe" changeset="615428" lat="-33.727118" lon="120.941588">
    <tag k="created_by" v="JOSM"/>
    <tag k="highway" v="trunk"/>
    <tag k="name" v="South Coast Hwy"/>
    <tag k="surface" v="paved"/>
  </node>
  <node id="131909136" version="1" timestamp="2007-11-25T09:15:18Z" uid="4467" user="Rosscoe" changeset="615428" lat="-33.727203" lon="120.941913">
    <tag k="created_by" v="JOSM"/>
    <tag k="highway" v="trunk"/>
    <tag k="name" v="South Coast Hwy"/>
    <tag k="surface" v="paved"/>
  </node>
  <node id="131909161" version="1" timestamp="2007-11-25T09:15:19Z" uid="4467" user="Rosscoe" changeset="615428" lat="-33.726945" lon="120.940923">
    <tag k="created_by" v="JOSM"/>
    <tag k="highway" v="trunk"/>
    <tag k="name" v="South Coast Hwy"/>
    <tag k="surface" v="paved"/>
  </node>
  <node id="131909184" version="1" timestamp="2007-11-25T09:15:20Z" uid="4467" user="Rosscoe" changeset="615428" lat="-33.727032" lon="120.941252">
    <tag k="created_by" v="JOSM"/>
    <tag k="highway" v="trunk"/>
    <tag k="name" v="South Coast Hwy"/>
    <tag k="surface" v="paved"/>
  </node>
  <node id="131909210" version="1" timestamp="2007-11-25T09:15:21Z" uid="4467" user="Rosscoe" changeset="615428" lat="-33.72677" lon="120.940265">
    <tag k="created_by" v="JOSM"/>
    <tag k="highway" v="trunk"/>
    <tag k="name" v="South Coast Hwy"/>
    <tag k="surface" v="paved"/>
  </node>
  <node id="131909237" version="1" timestamp="2007-11-25T09:15:21Z" uid="4467" user="Rosscoe" changeset="615428" lat="-33.726857" lon="120.940595">
    <tag k="created_by" v="JOSM"/>
    <tag k="highway" v="trunk"/>
    <tag k="name" v="South Coast Hwy"/>
    <tag k="surface" v="paved"/>
  </node>
  <node id="131909260" version="1" timestamp="2007-11-25T09:15:22Z" uid="4467" user="Rosscoe" changeset="615428" lat="-33.726597" lon="120.939605">
    <tag k="created_by" v="JOSM"/>
    <tag k="highway" v="trunk"/>
    <tag k="name" v="South Coast Hwy"/>
    <tag k="surface" v="paved"/>
  </node>
  <node id="131909278" version="1" timestamp="2007-11-25T09:15:23Z" uid="4467" user="Rosscoe" changeset="615428" lat="-33.726683" lon="120.939935">
    <tag k="created_by" v="JOSM"/>
    <tag k="highway" v="trunk"/>
    <tag k="name" v="South Coast Hwy"/>
    <tag k="surface" v="paved"/>
  </node>
  <node id="131909300" version="1" timestamp="2007-11-25T09:15:24Z" uid="4467" user="Rosscoe" changeset="615428" lat="-33.726423" lon="120.93894">
    <tag k="created_by" v="JOSM"/>
    <tag k="highway" v="trunk"/>
    <tag k="name" v="South Coast Hwy"/>
    <tag k="surface" v="paved"/>
  </node>
  <node id="131909323" version="1" timestamp="2007-11-25T09:15:25Z" uid="4467" user="Rosscoe" changeset="615428" lat="-33.72651" lon="120.939268">
    <tag k="created_by" v="JOSM"/>
    <tag k="highway" v="trunk"/>
    <tag k="name" v="South Coast Hwy"/>
    <tag k="surface" v="paved"/>
  </node>
  <node id="131909343" version="1" timestamp="2007-11-25T09:15:25Z" uid="4467" user="Rosscoe" changeset="615428" lat="-33.73225" lon="120.960942">
    <tag k="created_by" v="JOSM"/>
    <tag k="highway" v="trunk"/>
    <tag k="name" v="South Coast Hwy"/>
    <tag k="surface" v="paved"/>
  </node>
  <node id="131909363" version="1" timestamp="2007-11-25T09:15:26Z" uid="4467" user="Rosscoe" changeset="615428" lat="-33.732138" lon="120.960628">
    <tag k="created_by" v="JOSM"/>
    <tag k="highway" v="trunk"/>
    <tag k="name" v="South Coast Hwy"/>
    <tag k="surface" v="paved"/>
  </node>
  <node id="131909363" version="3" timestamp="2011-12-20T12:59:17Z" uid="338866" user="tiger" changeset="10163339" lat="-33.732138" lon="120.960628"/>
  <node id="131909387" version="1" timestamp="2007-11-25T09:15:27Z" uid="4467" user="Rosscoe" changeset="615428" lat="-33.7325" lon="120.961562">
    <tag k="created_by" v="JOSM"/>
    <tag k="highway" v="trunk"/>
    <tag k="name" v="South Coast Hwy"/>
    <tag k="surface" v="paved"/>
  </node>
  <node id="131909411" version="1" timestamp="2007-11-25T09:15:28Z" uid="4467" user="Rosscoe" changeset="615428" lat="-33.732372" lon="120.961257">
    <tag k="created_by" v="JOSM"/>
    <tag k="highway" v="trunk"/>
    <tag k="name" v="South Coast Hwy"/>
    <tag k="surface" v="paved"/>
  </node>
  <node id="131909411" version="3" timestamp="2011-12-20T12:59:17Z" uid="338866" user="tiger" changeset="10163339" lat="-33.732372" lon="120.961257"/>
  <node id="131909443" version="1" timestamp="2007-11-25T09:15:29Z" uid="4467" user="Rosscoe" changeset="615428" lat="-33.731675" lon="120.959005">
    <tag k="created_by" v="JOSM"/>
    <tag k="highway" v="trunk"/>
    <tag k="name" v="South Coast Hwy"/>
    <tag k="surface" v="paved"/>
  </node>
  <node id="131909443" version="3" timestamp="2011-12-20T12:59:17Z" uid="338866" user="tiger" changeset="10163339" lat="-33.731675" lon="120.959005"/>
  <node id="131909462" version="1" timestamp="2007-11-25T09:15:29Z" uid="4467" user="Rosscoe" changeset="615428" lat="-33.731502" lon="120.958347">
    <tag k="created_by" v="JOSM"/>
    <tag k="highway" v="trunk"/>
    <tag k="name" v="South Coast Hwy"/>
    <tag k="surface" v="paved"/>
  </node>
  <node id="131909489" version="1" timestamp="2007-11-25T09:15:30Z" uid="4467" user="Rosscoe" changeset="615428" lat="-33.731943" lon="120.959985">
    <tag k="created_by" v="JOSM"/>
    <tag k="highway" v="trunk"/>
    <tag k="name" v="South Coast Hwy"/>
    <tag k="surface" v="paved"/>
  </node>
  <node id="131909489" version="3" timestamp="2011-12-20T12:59:17Z" uid="338866" user="tiger" changeset="10163339" lat="-33.731943" lon="120.959985"/>
  <node id="131909512" version="1" timestamp="2007-11-25T09:15:31Z" uid="4467" user="Rosscoe" changeset="615428" lat="-33.731765" lon="120.959337">
    <tag k="created_by" v="JOSM"/>
    <tag k="highway" v="trunk"/>
    <tag k="name" v="South Coast Hwy"/>
    <tag k="surface" v="paved"/>
  </node>
  <node id="131909536" version="1" timestamp="2007-11-25T09:15:32Z" uid="4467" user="Rosscoe" changeset="615428" lat="-33.731162" lon="120.957025">
    <tag k="created_by" v="JOSM"/>
    <tag k="highway" v="trunk"/>
    <tag k="name" v="South Coast Hwy"/>
    <tag k="surface" v="paved"/>
  </node>
  <node id="131909561" version="1" timestamp="2007-11-25T09:15:32Z" uid="4467" user="Rosscoe" changeset="615428" lat="-33.731073" lon="120.95669">
    <tag k="created_by" v="JOSM"/>
    <tag k="highway" v="trunk"/>
    <tag k="name" v="South Coast Hwy"/>
    <tag k="surface" v="paved"/>
  </node>
  <node id="131909581" version="1" timestamp="2007-11-25T09:15:33Z" uid="4467" user="Rosscoe" changeset="615428" lat="-33.731332" lon="120.957687">
    <tag k="created_by" v="JOSM"/>
    <tag k="highway" v="trunk"/>
    <tag k="name" v="South Coast Hwy"/>
    <tag k="surface" v="paved"/>
  </node>
  <node id="131909620" version="1" timestamp="2007-11-25T09:15:34Z" uid="4467" user="Rosscoe" changeset="615428" lat="-33.731247" lon="120.95736">
    <tag k="created_by" v="JOSM"/>
    <tag k="highway" v="trunk"/>
    <tag k="name" v="South Coast Hwy"/>
    <tag k="surface" v="paved"/>
  </node>
  <node id="131909667" version="1" timestamp="2007-11-25T09:15:35Z" uid="4467" user="Rosscoe" changeset="615428" lat="-33.730817" lon="120.95571">
    <tag k="created_by" v="JOSM"/>
    <tag k="highway" v="trunk"/>
    <tag k="name" v="South Coast Hwy"/>
    <tag k="surface" v="paved"/>
  </node>
  <node id="131909691" version="1" timestamp="2007-11-25T09:15:36Z" uid="4467" user="Rosscoe" changeset="615428" lat="-33.730733" lon="120.955385">
    <tag k="created_by" v="JOSM"/>
    <tag k="highway" v="trunk"/>
    <tag k="name" v="South Coast Hwy"/>
    <tag k="surface" v="paved"/>
  </node>
  <node id="131909706" version="1" timestamp="2007-11-25T09:15:36Z" uid="4467" user="Rosscoe" changeset="615428" lat="-33.730988" lon="120.956367">
    <tag k="created_by" v="JOSM"/>
    <tag k="highway" v="trunk"/>
    <tag k="name" v="South Coast Hwy"/>
    <tag k="surface" v="paved"/>
  </node>
  <node id="131909726" version="1" timestamp="2007-11-25T09:15:37Z" uid="4467" user="Rosscoe" changeset="615428" lat="-33.730902" lon="120.956038">
    <tag k="created_by" v="JOSM"/>
    <tag k="highway" v="trunk"/>
    <tag k="name" v="South Coast Hwy"/>
    <tag k="surface" v="paved"/>
  </node>
  <node id="131909739" version="1" timestamp="2007-11-25T09:15:38Z" uid="4467" user="Rosscoe" changeset="615428" lat="-33.730393" lon="120.95406">
    <tag k="created_by" v="JOSM"/>
    <tag k="highway" v="trunk"/>
    <tag k="name" v="South Coast Hwy"/>
    <tag k="surface" v="paved"/>
  </node>
  <node id="131909759" version="1" timestamp="2007-11-25T09:15:39Z" uid="4467" user="Rosscoe" changeset="615428" lat="-33.730477" lon="120.95439">
    <tag k="created_by" v="JOSM"/>
    <tag k="highway" v="trunk"/>
    <tag k="name" v="South Coast Hwy"/>
    <tag k="surface" v="paved"/>
  </node>
  <node id="131909783" version="1" timestamp="2007-11-25T09:15:39Z" uid="4467" user="Rosscoe" changeset="615428" lat="-33.730562" lon="120.95472">
    <tag k="created_by" v="JOSM"/>
    <tag k="highway" v="trunk"/>
    <tag k="name" v="South Coast Hwy"/>
    <tag k="surface" v="paved"/>
  </node>
  <node id="131909807" version="1" timestamp="2007-11-25T09:15:40Z" uid="4467" user="Rosscoe" changeset="615428" lat="-33.730647" lon="120.95505">
    <tag k="created_by" v="JOSM"/>
    <tag k="highway" v="trunk"/>
    <tag k="name" v="South Coast Hwy"/>
    <tag k="surface" v="paved"/>
  </node>
  <node id="131909827" version="1" timestamp="2007-11-25T09:15:41Z" uid="4467" user="Rosscoe" changeset="615428" lat="-33.730048" lon="120.952752">
    <tag k="created_by" v="JOSM"/>
    <tag k="highway" v="trunk"/>
    <tag k="name" v="South Coast Hwy"/>
    <tag k="surface" v="paved"/>
  </node>
  <node id="131909850" version="1" timestamp="2007-11-25T09:15:42Z" uid="4467" user="Rosscoe" changeset="615428" lat="-33.730133" lon="120.95308">
    <tag k="created_by" v="JOSM"/>
    <tag k="highway" v="trunk"/>
    <tag k="name" v="South Coast Hwy"/>
    <tag k="surface" v="paved"/>
  </node>
  <node id="131909870" version="1" timestamp="2007-11-25T09:15:43Z" uid="4467" user="Rosscoe" changeset="615428" lat="-33.730223" lon="120.953408">
    <tag k="created_by" v="JOSM"/>
    <tag k="highway" v="trunk"/>
    <tag k="name" v="South Coast Hwy"/>
    <tag k="surface" v="paved"/>
  </node>
  <node id="131909890" version="1" timestamp="2007-11-25T09:15:43Z" uid="4467" user="Rosscoe" changeset="615428" lat="-33.730307" lon="120.953733">
    <tag k="created_by" v="JOSM"/>
    <tag k="highway" v="trunk"/>
    <tag k="name" v="South Coast Hwy"/>
    <tag k="surface" v="paved"/>
  </node>
  <node id="131909911" version="1" timestamp="2007-11-25T09:15:44Z" uid="4467" user="Rosscoe" changeset="615428" lat="-33.72971" lon="120.95145">
    <tag k="created_by" v="JOSM"/>
    <tag k="highway" v="trunk"/>
    <tag k="name" v="South Coast Hwy"/>
    <tag k="surface" v="paved"/>
  </node>
  <node id="131909934" version="1" timestamp="2007-11-25T09:15:45Z" uid="4467" user="Rosscoe" changeset="615428" lat="-33.729792" lon="120.951773">
    <tag k="created_by" v="JOSM"/>
    <tag k="highway" v="trunk"/>
    <tag k="name" v="South Coast Hwy"/>
    <tag k="surface" v="paved"/>
  </node>
  <node id="131909949" version="1" timestamp="2007-11-25T09:15:46Z" uid="4467" user="Rosscoe" changeset="615428" lat="-33.729877" lon="120.9521">
    <tag k="created_by" v="JOSM"/>
    <tag k="highway" v="trunk"/>
    <tag k="name" v="South Coast Hwy"/>
    <tag k="surface" v="paved"/>
  </node>
  <node id="131909971" version="1" timestamp="2007-11-25T09:15:47Z" uid="4467" user="Rosscoe" changeset="615428" lat="-33.729963" lon="120.952422">
    <tag k="created_by" v="JOSM"/>
    <tag k="highway" v="trunk"/>
    <tag k="name" v="South Coast Hwy"/>
    <tag k="surface" v="paved"/>
  </node>
  <node id="131909992" version="1" timestamp="2007-11-25T09:15:47Z" uid="4467" user="Rosscoe" changeset="615428" lat="-33.72937" lon="120.95013">
    <tag k="created_by" v="JOSM"/>
    <tag k="highway" v="trunk"/>
    <tag k="name" v="South Coast Hwy"/>
    <tag k="surface" v="paved"/>
  </node>
  <node id="131900309" version="5" timestamp="2012-07-19T20:43:37Z" uid="722137" user="OSMF Redaction Account" changeset="12346739" lat="-27.6204085" lon="152.9701414">
    <tag k="name" v="Greentree Pocket"/>
    <tag k="place" v="hamlet"/>
  </node>
  <node id="131902816" version="6" timestamp="2012-07-19T21:15:50Z" uid="722137" user="OSMF Redaction Account" changeset="12347697" lat="-27.6309941" lon="152.9752398">
    <tag k="name" v="Creekwood"/>
    <tag k="place" v="hamlet"/>
  </node>
  <node id="131905054" version="7" timestamp="2012-07-19T21:15:54Z" uid="722137" user="OSMF Redaction Account" changeset="12347697" lat="-27.6266019" lon="152.9526196">
    <tag k="name" v="Greentree Pocket"/>
    <tag k="place" v="hamlet"/>
  </node>
</osm>
