<?xml version='1.0' encoding='UTF-8'?>
<osm version="0.6" generator="libosmium/2.20.0">
  <node id="133432565" version="3" timestamp="2008-07-02T21:46:47Z" uid="6975" user="ulfl" changeset="369591" lat="55.7702776" lon="12.9850775">
    <tag k="name" v="Bauhaus"/>
    <tag k="shop" v="doityourself"/>
  </node>
  <node id="133432821" version="2" timestamp="2009-10-22T22:00:31Z" uid="99207" user="Lar Kiesel" changeset="2925871" lat="41.178556" lon="-103.128439">
    <tag k="highway" v="motorway_junction"/>
    <tag k="name" v="L-17C"/>
    <tag k="ref" v="48"/>
    <tag k="source" v="tiger_import_dch_v0.6_20070813"/>
    <tag k="tiger:county" v="Cheyenne, NE"/>
    <tag k="tiger:tlid" v="135929550:135929405:135923858"/>
    <tag k="tiger:upload_uuid" v="bulk_upload.pl-447d98a2-9875-459b-89d0-3ab9f2508af9"/>
  </node>
  <node id="133432821" version="3" timestamp="2009-11-14T09:47:19Z" uid="147510" user="woodpeck_fixbot" changeset="3111552" lat="41.178556" lon="-103.128439">
    <tag k="highway" v="motorway_junction"/>
    <tag k="name" v="L-17C"/>
    <tag k="ref" v="48"/>
  </node>
  <node id="133432821" version="4" timestamp="2010-12-19T10:36:12Z" uid="262151" user="ToeBee" changeset="6704140" lat="41.1783244" lon="-103.1279061">
    <tag k="highway" v="motorway_junction"/>
    <tag k="name" v="L-17C"/>
    <tag k="ref" v="48"/>
  </node>
  <node id="133432821" version="5" timestamp="2011-04-06T18:32:36Z" uid="207745" user="NE2" changeset="7787398" lat="41.1783244" lon="-103.1279061">
    <tag k="exit_to" v="L-17C"/>
    <tag k="highway" v="motorway_junction"/>
    <tag k="ref" v="48"/>
  </node>
  <node id="133434871" version="2" timestamp="2009-10-22T22:47:59Z" uid="99207" user="Lar Kiesel" changeset="2926023" lat="41.112874" lon="-102.954464">
    <tag k="highway" v="motorway_junction"/>
    <tag k="name" v="L-17J; to US 385; Sidney; Bridgeport"/>
    <tag k="ref" v="59"/>
    <tag k="source" v="tiger_import_dch_v0.6_20070813"/>
    <tag k="tiger:county" v="Cheyenne, NE"/>
    <tag k="tiger:tlid" v="135921908:135923788:135924935"/>
    <tag k="tiger:upload_uuid" v="bulk_upload.pl-447d98a2-9875-459b-89d0-3ab9f2508af9"/>
  </node>
  <node id="133434871" version="3" timestamp="2009-11-14T09:47:43Z" uid="147510" user="woodpeck_fixbot" changeset="3111552" lat="41.112874" lon="-102.954464">
    <tag k="highway" v="motorway_junction"/>
    <tag k="name" v="L-17J; to US 385; Sidney; Bridgeport"/>
    <tag k="ref" v="59"/>
  </node>
  <node id="133434871" version="4" timestamp="2010-12-19T10:36:11Z" uid="262151" user="ToeBee" changeset="6704140" lat="41.1129181" lon="-102.9554826">
    <tag k="highway" v="motorway_junction"/>
    <tag k="name" v="L-17J; to US 385; Sidney; Bridgeport"/>
    <tag k="ref" v="59"/>
  </node>
  <node id="133434871" version="5" timestamp="2011-04-06T18:32:36Z" uid="207745" user="NE2" changeset="7787398" lat="41.1129181" lon="-102.9554826">
    <tag k="exit_to" v="L-17J; to US 385; Sidney; Bridgeport"/>
    <tag k="highway" v="motorway_junction"/>
    <tag k="ref" v="59"/>
  </node>
  <node id="133432821" version="6" timestamp="2012-07-18T18:54:42Z" uid="722137" user="OSMF Redaction Account" changeset="12293524" lat="41.1783244" lon="-103.1279061">
    <tag k="exit_to" v="L-17C"/>
  </node>
  <node id="133432821" version="7" timestamp="2012-09-04T07:22:20Z" uid="207745" user="NE2" changeset="12977613" lat="41.1783244" lon="-103.1279061">
    <tag k="exit_to" v="L-17C"/>
    <tag k="highway" v="motorway_junction"/>
  </node>
  <node id="133432821" version="8" timestamp="2012-09-10T04:23:13Z" uid="207745" user="NE2" changeset="13052115" lat="41.1783244" lon="-103.1279061">
    <tag k="exit_to" v="L-17C"/>
    <tag k="highway" v="motorway_junction"/>
    <tag k="ref" v="48"/>
  </node>
  <node id="133434871" version="6" timestamp="2012-07-18T18:58:52Z" uid="722137" user="OSMF Redaction Account" changeset="12293685" lat="41.1129181" lon="-102.9554826">
    <tag k="exit_to" v="L-17J; to US 385; Sidney; Bridgeport"/>
  </node>
  <node id="133434871" version="7" timestamp="2012-09-04T07:22:20Z" uid="207745" user="NE2" changeset="12977613" lat="41.1129181" lon="-102.9554826">
    <tag k="exit_to" v="L-17J; to US 385; Sidney; Bridgeport"/>
    <tag k="highway" v="motorway_junction"/>
  </node>
  <node id="133434871" version="8" timestamp="2012-09-10T04:23:13Z" uid="207745" user="NE2" changeset="13052115" lat="41.1129181" lon="-102.9554826">
    <tag k="exit_to" v="L-17J; to US 385; Sidney; Bridgeport"/>
    <tag k="highway" v="motorway_junction"/>
    <tag k="ref" v="59"/>
  </node>
</osm>
