<?xml version='1.0' encoding='UTF-8'?>
<osm version="0.6" generator="libosmium/2.20.0">
  <node id="13354976" version="2" timestamp="2007-10-07T21:30:51Z" uid="8328" user="benpre" changeset="59573" lat="48.7734869" lon="9.259561">
    <tag k="created_by" v="JOSM"/>
  </node>
  <node id="13354976" version="3" timestamp="2007-10-29T23:43:02Z" changeset="364361" lat="48.7732112" lon="9.2591816">
    <tag k="created_by" v="JOSM"/>
  </node>
  <node id="13354976" version="4" timestamp="2008-10-17T14:38:39Z" uid="16319" user="ipodolsk" changeset="398518" lat="48.7732085" lon="9.2591968">
    <tag k="created_by" v="Merkaartor 0.12"/>
  </node>
  <node id="13354976" version="5" timestamp="2009-07-02T10:33:53Z" uid="85761" user="klausis" changeset="1708902" lat="48.7732085" lon="9.2591968"/>
  <node id="13354976" version="6" timestamp="2010-01-15T00:02:31Z" uid="45948" user="Thilo87" changeset="3621160" lat="48.7734443" lon="9.2589415"/>
  <node id="13354976" version="7" timestamp="2010-12-31T10:55:15Z" uid="45948" user="Thilo87" changeset="6818258" lat="48.7734396" lon="9.2589372"/>
  <node id="13354978" version="1" timestamp="2007-06-14T11:57:33Z" uid="8328" user="benpre" changeset="95336" lat="48.7812643" lon="9.2499053">
    <tag k="created_by" v="JOSM"/>
    <tag k="name" v="Untertuerkheim"/>
    <tag k="railway" v="station"/>
  </node>
  <node id="13354978" version="2" timestamp="2007-11-24T03:33:10Z" uid="5735" user="ColinMarquardt" changeset="605666" lat="48.7812643" lon="9.2499053">
    <tag k="created_by" v="JOSM"/>
    <tag k="name" v="Untertürkheim"/>
    <tag k="railway" v="station"/>
  </node>
  <node id="13354978" version="3" timestamp="2007-11-27T13:16:06Z" uid="11693" user="BerndR" changeset="631484" lat="48.780697" lon="9.2497462">
    <tag k="created_by" v="JOSM"/>
    <tag k="name" v="Untertürkheim"/>
    <tag k="railway" v="station"/>
  </node>
  <node id="13354978" version="4" timestamp="2008-01-26T18:59:11Z" uid="11693" user="BerndR" changeset="695615" lat="48.7796632" lon="9.2505424">
    <tag k="created_by" v="JOSM"/>
    <tag k="name" v="Untertürkheim"/>
    <tag k="railway" v="station"/>
  </node>
  <node id="13354978" version="5" timestamp="2008-02-23T09:56:53Z" uid="25345" user="vobs" changeset="183628" lat="48.7796632" lon="9.2505424">
    <tag k="created_by" v="JOSM"/>
    <tag k="name" v="Untertürkheim"/>
    <tag k="railway" v="station"/>
  </node>
  <node id="13354978" version="6" timestamp="2008-05-10T14:34:12Z" uid="6893" user="[HEK]the_other" changeset="391300" lat="48.7797438" lon="9.2505703">
    <tag k="created_by" v="JOSM"/>
    <tag k="name" v="Untertürkheim"/>
    <tag k="railway" v="station"/>
  </node>
  <node id="13354978" version="7" timestamp="2008-05-10T14:48:11Z" uid="6893" user="[HEK]the_other" changeset="391300" lat="48.7797438" lon="9.2505703">
    <tag k="created_by" v="JOSM"/>
    <tag k="name" v="Stuttgart-Untertürkheim"/>
    <tag k="railway" v="station"/>
  </node>
  <node id="13354978" version="8" timestamp="2008-09-09T08:30:29Z" uid="28556" user="cycleP" changeset="587557" lat="48.7797438" lon="9.250531">
    <tag k="created_by" v="JOSM"/>
    <tag k="name" v="Stuttgart-Untertürkheim"/>
    <tag k="railway" v="station"/>
  </node>
  <node id="13354978" version="9" timestamp="2008-10-08T21:40:35Z" uid="16319" user="ipodolsk" changeset="183106" lat="48.7797437" lon="9.250531">
    <tag k="created_by" v="Merkaartor 0.12"/>
    <tag k="name" v="Stuttgart-Untertürkheim"/>
    <tag k="railway" v="station"/>
  </node>
  <node id="13354978" version="10" timestamp="2008-10-16T12:57:55Z" uid="16319" user="ipodolsk" changeset="373315" lat="48.7797421" lon="9.2505633">
    <tag k="created_by" v="Merkaartor 0.12"/>
    <tag k="name" v="Stuttgart-Untertürkheim"/>
    <tag k="railway" v="station"/>
  </node>
  <node id="13354978" version="11" timestamp="2008-10-16T13:46:18Z" uid="16319" user="ipodolsk" changeset="373315" lat="48.7797562" lon="9.2505687">
    <tag k="created_by" v="Merkaartor 0.12"/>
    <tag k="name" v="Stuttgart-Untertürkheim"/>
    <tag k="railway" v="station"/>
  </node>
  <node id="13354978" version="12" timestamp="2008-10-16T21:05:19Z" uid="16319" user="ipodolsk" changeset="387094" lat="48.7797561" lon="9.2505687">
    <tag k="created_by" v="Merkaartor 0.12"/>
    <tag k="name" v="Stuttgart-Untertürkheim"/>
    <tag k="railway" v="station"/>
  </node>
  <node id="13354978" version="13" timestamp="2009-07-02T10:33:52Z" uid="85761" user="klausis" changeset="1708902" lat="48.7797561" lon="9.2505687">
    <tag k="name" v="Stuttgart-Untertürkheim"/>
    <tag k="railway" v="station"/>
  </node>
  <node id="13354978" version="14" timestamp="2009-12-19T19:08:35Z" uid="196920" user="findus05" changeset="3409107" lat="48.7797561" lon="9.2505687">
    <tag k="amenity" v="railway_station"/>
    <tag k="fee_zone" v="20"/>
    <tag k="name" v="Untertürkheim Bahnhof"/>
    <tag k="railway" v="station"/>
    <tag k="uic_ref" v="561474"/>
  </node>
  <node id="13354978" version="15" timestamp="2009-12-22T19:28:50Z" uid="196920" user="findus05" changeset="3429714" lat="48.7797561" lon="9.2505687">
    <tag k="amenity" v="railway_station"/>
    <tag k="fee_zone" v="20"/>
    <tag k="name" v="Untertürkheim Bahnhof"/>
    <tag k="public_transport" v="stop_position"/>
    <tag k="uic_ref" v="561474"/>
  </node>
  <node id="13354978" version="16" timestamp="2010-09-17T10:38:32Z" uid="5211" user="emvee" changeset="5802444" lat="48.7797561" lon="9.2505687">
    <tag k="fee_zone" v="20"/>
    <tag k="name" v="Untertürkheim Bahnhof"/>
    <tag k="public_transport" v="stop_position"/>
    <tag k="railway" v="station"/>
    <tag k="uic_ref" v="561474"/>
  </node>
  <node id="13354978" version="17" timestamp="2012-01-28T22:43:24Z" uid="290680" user="wheelmap_visitor" changeset="10525709" lat="48.7797561" lon="9.2505687">
    <tag k="fee_zone" v="20"/>
    <tag k="name" v="Untertürkheim Bahnhof"/>
    <tag k="public_transport" v="stop_position"/>
    <tag k="railway" v="station"/>
    <tag k="uic_ref" v="561474"/>
    <tag k="wheelchair" v="limited"/>
  </node>
  <node id="13354978" version="18" timestamp="2012-02-18T10:12:19Z" uid="131968" user="changchun_1" changeset="10718400" lat="48.7797561" lon="9.2505687"/>
  <node id="13354978" version="19" timestamp="2012-02-22T14:47:50Z" uid="147510" user="woodpeck_fixbot" changeset="10759598" lat="48.7797561" lon="9.2505687">
    <tag k="fee_zone" v="20"/>
    <tag k="name" v="Untertürkheim Bahnhof"/>
    <tag k="public_transport" v="stop_position"/>
    <tag k="railway" v="station"/>
    <tag k="uic_ref" v="561474"/>
    <tag k="wheelchair" v="limited"/>
  </node>
  <node id="13354985" version="1" timestamp="2007-06-14T11:57:33Z" uid="8328" user="benpre" changeset="95336" lat="48.8014984" lon="9.2163555">
    <tag k="created_by" v="JOSM"/>
    <tag k="name" v="Bad Cannstatt"/>
    <tag k="railway" v="station"/>
  </node>
  <node id="13354985" version="2" timestamp="2007-10-27T06:22:44Z" uid="7399" user="Uwe" changeset="330767" lat="48.8014984" lon="9.2163555">
    <tag k="created_by" v="JOSM"/>
    <tag k="name" v="Bad Cannstatt"/>
    <tag k="railway" v="station"/>
  </node>
  <node id="13359733" version="3" timestamp="2008-09-13T23:21:00Z" uid="6975" user="ulfl" changeset="628567" lat="51.4139898" lon="-0.4430536">
    <tag k="highway" v="speed_camera"/>
  </node>
  <node id="13354978" version="20" timestamp="2012-07-18T13:12:56Z" uid="722137" user="OSMF Redaction Account" changeset="12282946" lat="48.7797561" lon="9.2505687">
    <tag k="fee_zone" v="20"/>
    <tag k="name" v="Untertürkheim Bahnhof"/>
    <tag k="public_transport" v="stop_position"/>
    <tag k="uic_ref" v="561474"/>
    <tag k="wheelchair" v="limited"/>
  </node>
  <node id="13359733" version="4" timestamp="2012-07-16T00:08:31Z" uid="722137" user="OSMF Redaction Account" changeset="12237808" lat="51.4140655" lon="-0.4430941">
    <tag k="highway" v="speed_camera"/>
  </node>
</osm>
