<?xml version='1.0' encoding='UTF-8'?>
<osm version="0.6" generator="libosmium/2.20.0">
  <node id="135220373" version="3" timestamp="2009-10-18T11:54:37Z" uid="36809" user="pfoten_weg_!_" changeset="2882318" lat="47.7664296" lon="11.6888803">
    <tag k="name" v="Hauserdörfl"/>
    <tag k="place" v="village"/>
  </node>
  <node id="135220373" version="4" timestamp="2009-11-10T08:53:26Z" uid="152289" user="cgu66" changeset="3080542" lat="47.7664296" lon="11.6888803">
    <tag k="is_in" v="Waakirchen,Miesbach,Oberbayern,Bayern,Bundesrepublik Deutschland,Europe"/>
    <tag k="name" v="Hauserdörfl"/>
    <tag k="place" v="village"/>
  </node>
  <node id="135220373" version="5" timestamp="2009-12-02T10:55:22Z" uid="42393" user="mawi42" changeset="3270741" lat="47.7664297" lon="11.6888802">
    <tag k="is_in" v="Waakirchen,Miesbach,Oberbayern,Bayern,Bundesrepublik Deutschland,Europe"/>
    <tag k="name" v="Hauserdörfl"/>
    <tag k="place" v="village"/>
    <tag k="postal_code" v="83666"/>
  </node>
  <node id="135221628" version="4" timestamp="2009-10-01T16:24:19Z" uid="86259" user="hasse_osm_korinthenkacker" changeset="2702067" lat="47.753219" lon="11.7212416">
    <tag k="is_in" v="Gmund a.Tegernsee,Miesbach"/>
    <tag k="name" v="Finsterwald"/>
    <tag k="place" v="hamlet"/>
  </node>
  <node id="135221628" version="5" timestamp="2009-11-10T14:12:38Z" uid="152289" user="cgu66" changeset="3082327" lat="47.753219" lon="11.7212416">
    <tag k="is_in" v="Gmund,Miesbach,Oberbayern,Bayern,Bundesrepublik Deutschland,Europe"/>
    <tag k="name" v="Finsterwald"/>
    <tag k="place" v="hamlet"/>
  </node>
  <node id="135221628" version="6" timestamp="2010-11-28T05:54:28Z" uid="140803" user="ThomasStr" changeset="6475407" lat="47.753219" lon="11.7212416">
    <tag k="is_in" v="Gmund am Tegernsee,Miesbach,Oberbayern,Bayern,Bundesrepublik Deutschland,Europe"/>
    <tag k="name" v="Finsterwald"/>
    <tag k="place" v="village"/>
  </node>
  <node id="135221628" version="7" timestamp="2011-04-07T21:18:15Z" uid="418282" user="Norbert18" changeset="7798866" lat="47.7524473" lon="11.7216392">
    <tag k="is_in" v="Gmund am Tegernsee,Miesbach,Oberbayern,Bayern,Bundesrepublik Deutschland,Europe"/>
    <tag k="name" v="Finsterwald"/>
    <tag k="place" v="village"/>
  </node>
  <node id="135221628" version="8" timestamp="2011-06-08T21:15:02Z" uid="42393" user="mawi42" changeset="8383803" lat="47.7524474" lon="11.7216391">
    <tag k="is_in" v="Gmund am Tegernsee,Miesbach,Oberbayern,Bayern,Bundesrepublik Deutschland,Europe"/>
    <tag k="name" v="Finsterwald"/>
    <tag k="place" v="village"/>
    <tag k="postal_code" v="83703"/>
  </node>
</osm>
