<?xml version='1.0' encoding='UTF-8'?>
<osm version="0.6" generator="libosmium/2.20.0">
  <node id="135730306" version="1" timestamp="2007-11-26T22:16:31Z" uid="18775" user="drlizau" changeset="629077" lat="-35.3290555" lon="140.5183351">
    <tag k="created_by" v="JOSM"/>
    <tag k="name" v="Lameroo"/>
    <tag k="place" v="town"/>
  </node>
  <node id="135730306" version="2" timestamp="2008-03-02T07:45:05Z" uid="18775" user="drlizau" changeset="255475" lat="-35.3290555" lon="140.5183351">
    <tag k="amenity" v="post_office"/>
    <tag k="created_by" v="JOSM"/>
    <tag k="name" v="Lameroo"/>
    <tag k="place" v="town"/>
  </node>
  <node id="135730306" version="3" timestamp="2008-10-14T10:36:21Z" uid="308" user="MichaelCollinson" changeset="321487" lat="-35.3290555" lon="140.5183351">
    <tag k="amenity" v="post_office"/>
    <tag k="is_in:country" v="Australia"/>
    <tag k="is_in:country_code" v="au"/>
    <tag k="name" v="Lameroo"/>
    <tag k="place" v="town"/>
  </node>
  <node id="135730306" version="4" timestamp="2009-07-28T02:32:08Z" uid="18775" user="drlizau" changeset="1960964" lat="-35.3288672" lon="140.5186583">
    <tag k="is_in:country" v="Australia"/>
    <tag k="is_in:country_code" v="au"/>
    <tag k="name" v="Lameroo"/>
    <tag k="place" v="town"/>
  </node>
  <node id="135733874" version="2" timestamp="2008-08-18T12:04:00Z" uid="36809" user="pfoten_weg_!_" changeset="306127" lat="48.0391355" lon="11.5491537">
    <tag k="amenity" v="restaurant"/>
    <tag k="created_by" v="RambaZamba"/>
    <tag k="name" v="Forsthaus Wörnbrunn"/>
  </node>
  <node id="135733874" version="3" timestamp="2008-08-18T12:51:44Z" uid="36809" user="pfoten_weg_!_" changeset="306127" lat="48.0391355" lon="11.5491553">
    <tag k="amenity" v="restaurant"/>
    <tag k="created_by" v="RambaZamba"/>
    <tag k="name" v="Forsthaus Wörnbrunn"/>
  </node>
  <node id="135733874" version="4" timestamp="2008-10-01T01:55:51Z" uid="36809" user="pfoten_weg_!_" changeset="5644" lat="48.0391355" lon="11.5491553">
    <tag k="amenity" v="restaurant"/>
    <tag k="created_by" v="RambaZamba"/>
    <tag k="name" v="Forsthaus Wörnbrunn"/>
  </node>
  <node id="135733874" version="5" timestamp="2009-02-15T13:08:12Z" uid="36809" user="pfoten_weg_!_" changeset="463903" lat="48.0391355" lon="11.5491553">
    <tag k="amenity" v="restaurant"/>
    <tag k="created_by" v="RambaZamba"/>
    <tag k="name" v="Forsthaus Wörnbrunn"/>
    <tag k="source" v="survey"/>
  </node>
  <node id="135733874" version="6" timestamp="2009-03-28T16:16:51Z" uid="8748" user="ToniE" changeset="864973" lat="48.0392813" lon="11.5491296">
    <tag k="amenity" v="restaurant"/>
    <tag k="created_by" v="RambaZamba"/>
    <tag k="name" v="Forsthaus Wörnbrunn"/>
    <tag k="source" v="survey"/>
  </node>
  <node id="135733874" version="7" timestamp="2009-08-12T12:39:33Z" uid="156995" user="HampelZamba" changeset="2118306" lat="48.0392813" lon="11.5491296">
    <tag k="amenity" v="restaurant"/>
    <tag k="name" v="Forsthaus Wörnbrunn"/>
    <tag k="source" v="survey"/>
  </node>
  <node id="135733874" version="8" timestamp="2009-08-28T20:54:06Z" uid="36809" user="pfoten_weg_!_" changeset="2295155" lat="48.0392813" lon="11.5491296">
    <tag k="amenity" v="restaurant"/>
    <tag k="discovered_by" v="RambaZamba"/>
    <tag k="name" v="Forsthaus Wörnbrunn"/>
    <tag k="source" v="survey"/>
  </node>
  <node id="135733874" version="9" timestamp="2009-08-30T04:53:29Z" uid="156995" user="HampelZamba" changeset="2308696" lat="48.0392813" lon="11.5491296">
    <tag k="amenity" v="restaurant"/>
    <tag k="name" v="Forsthaus Wörnbrunn"/>
    <tag k="source" v="survey"/>
  </node>
  <node id="135733874" version="10" timestamp="2009-08-31T21:01:36Z" uid="36809" user="pfoten_weg_!_" changeset="2331411" lat="48.0392813" lon="11.5491296">
    <tag k="amenity" v="restaurant"/>
    <tag k="name" v="Forsthaus Wörnbrunn"/>
    <tag k="source" v="survey"/>
  </node>
  <node id="135734837" version="2" timestamp="2008-08-18T12:02:10Z" uid="36809" user="pfoten_weg_!_" changeset="306127" lat="48.0390824" lon="11.5492331">
    <tag k="amenity" v="biergarten"/>
    <tag k="created_by" v="RambaZamba"/>
    <tag k="name" v="Forsthaus Wörnbrunn"/>
  </node>
  <node id="135734837" version="3" timestamp="2008-08-18T12:50:25Z" uid="36809" user="pfoten_weg_!_" changeset="306127" lat="48.0390824" lon="11.5492347">
    <tag k="amenity" v="biergarten"/>
    <tag k="created_by" v="RambaZamba"/>
    <tag k="name" v="Forsthaus Wörnbrunn"/>
  </node>
  <node id="135734837" version="4" timestamp="2008-10-01T01:54:02Z" uid="36809" user="pfoten_weg_!_" changeset="5644" lat="48.0390824" lon="11.5492347">
    <tag k="amenity" v="biergarten"/>
    <tag k="created_by" v="RambaZamba"/>
    <tag k="name" v="Forsthaus Wörnbrunn"/>
  </node>
  <node id="135734837" version="5" timestamp="2009-02-15T13:07:57Z" uid="36809" user="pfoten_weg_!_" changeset="463903" lat="48.0390824" lon="11.5492347">
    <tag k="amenity" v="biergarten"/>
    <tag k="created_by" v="RambaZamba"/>
    <tag k="name" v="Forsthaus Wörnbrunn"/>
    <tag k="source" v="survey"/>
  </node>
  <node id="135734837" version="6" timestamp="2009-03-28T16:16:51Z" uid="8748" user="ToniE" changeset="864973" lat="48.0391189" lon="11.5491866">
    <tag k="amenity" v="biergarten"/>
    <tag k="created_by" v="RambaZamba"/>
    <tag k="name" v="Forsthaus Wörnbrunn"/>
    <tag k="source" v="survey"/>
  </node>
  <node id="135734837" version="7" timestamp="2009-06-10T21:12:14Z" uid="17979" user="rudison" changeset="1482004" lat="48.0391189" lon="11.5491866">
    <tag k="amenity" v="biergarten"/>
    <tag k="created_by" v="RambaZamba"/>
    <tag k="name" v="Forsthaus Wörnbrunn"/>
    <tag k="source" v="survey"/>
  </node>
  <node id="135736117" version="1" timestamp="2007-11-26T22:19:36Z" uid="18775" user="drlizau" changeset="629077" lat="-35.2633644" lon="139.4568441">
    <tag k="amenity" v="fuel"/>
    <tag k="created_by" v="JOSM"/>
  </node>
  <node id="135736117" version="2" timestamp="2010-03-29T07:16:35Z" uid="18775" user="drlizau" changeset="4264618" lat="-35.2633644" lon="139.456844">
    <tag k="amenity" v="fuel"/>
    <tag k="fuel:biodiesel" v="yes"/>
    <tag k="fuel:diesel" v="yes"/>
    <tag k="fuel:lpg" v="yes"/>
    <tag k="fuel:octane_91" v="yes"/>
    <tag k="operator" v="Mogas Regional"/>
  </node>
  <node id="135730306" version="5" timestamp="2012-07-19T08:14:07Z" uid="722137" user="OSMF Redaction Account" changeset="12313427" lat="-35.3288672" lon="140.5186583"/>
  <node id="135733874" version="11" timestamp="2012-07-17T20:25:26Z" uid="722137" user="OSMF Redaction Account" changeset="12271843" lat="48.0392813" lon="11.5491296">
    <tag k="amenity" v="restaurant"/>
    <tag k="name" v="Forsthaus Wörnbrunn"/>
  </node>
  <node id="135736117" version="3" timestamp="2012-07-19T07:24:55Z" uid="722137" user="OSMF Redaction Account" changeset="12311822" lat="-35.2633644" lon="139.456844"/>
</osm>
