<?xml version='1.0' encoding='UTF-8'?>
<osm version="0.6" generator="libosmium/2.20.0">
  <node id="136720688" version="3" timestamp="2010-02-17T20:36:57Z" uid="171838" user="argrath" changeset="3904184" lat="25.7457501" lon="123.4922199"/>
  <node id="136721446" version="1" timestamp="2007-11-27T08:02:31Z" uid="4467" user="Rosscoe" changeset="633390" lat="-33.259777" lon="115.72543">
    <tag k="created_by" v="JOSM"/>
    <tag k="highway" v="trunk"/>
    <tag k="name" v="Old Coast Road"/>
    <tag k="surface" v="paved"/>
  </node>
  <node id="136721446" version="2" timestamp="2007-11-27T08:17:26Z" uid="4467" user="Rosscoe" changeset="633390" lat="-33.259777" lon="115.72543">
    <tag k="created_by" v="JOSM"/>
    <tag k="highway" v="trunk"/>
    <tag k="name" v="Old Coast Road"/>
    <tag k="surface" v="paved"/>
  </node>
  <node id="136721475" version="1" timestamp="2007-11-27T08:02:32Z" uid="4467" user="Rosscoe" changeset="633390" lat="-33.259625" lon="115.725438">
    <tag k="created_by" v="JOSM"/>
    <tag k="highway" v="trunk"/>
    <tag k="name" v="Old Coast Road"/>
    <tag k="surface" v="paved"/>
  </node>
  <node id="136721475" version="2" timestamp="2007-11-27T08:17:28Z" uid="4467" user="Rosscoe" changeset="633390" lat="-33.259625" lon="115.725438">
    <tag k="created_by" v="JOSM"/>
    <tag k="highway" v="trunk"/>
    <tag k="name" v="Old Coast Road"/>
    <tag k="surface" v="paved"/>
  </node>
  <node id="136721508" version="1" timestamp="2007-11-27T08:02:33Z" uid="4467" user="Rosscoe" changeset="633390" lat="-33.259463" lon="115.725442">
    <tag k="created_by" v="JOSM"/>
    <tag k="highway" v="trunk"/>
    <tag k="name" v="Old Coast Road"/>
    <tag k="surface" v="paved"/>
  </node>
  <node id="136721508" version="2" timestamp="2007-11-27T08:17:31Z" uid="4467" user="Rosscoe" changeset="633390" lat="-33.259463" lon="115.725442">
    <tag k="created_by" v="JOSM"/>
    <tag k="highway" v="trunk"/>
    <tag k="name" v="Old Coast Road"/>
    <tag k="surface" v="paved"/>
  </node>
  <node id="136721534" version="1" timestamp="2007-11-27T08:02:34Z" uid="4467" user="Rosscoe" changeset="633390" lat="-33.259298" lon="115.725443">
    <tag k="created_by" v="JOSM"/>
    <tag k="highway" v="trunk"/>
    <tag k="name" v="Old Coast Road"/>
    <tag k="surface" v="paved"/>
  </node>
  <node id="136721534" version="2" timestamp="2007-11-27T08:17:30Z" uid="4467" user="Rosscoe" changeset="633390" lat="-33.259298" lon="115.725443">
    <tag k="created_by" v="JOSM"/>
    <tag k="highway" v="trunk"/>
    <tag k="name" v="Old Coast Road"/>
    <tag k="surface" v="paved"/>
  </node>
  <node id="136721560" version="1" timestamp="2007-11-27T08:02:35Z" uid="4467" user="Rosscoe" changeset="633390" lat="-33.25912" lon="115.725443">
    <tag k="created_by" v="JOSM"/>
    <tag k="highway" v="trunk"/>
    <tag k="name" v="Old Coast Road"/>
    <tag k="surface" v="paved"/>
  </node>
  <node id="136721560" version="2" timestamp="2007-11-27T08:17:33Z" uid="4467" user="Rosscoe" changeset="633390" lat="-33.25912" lon="115.725443">
    <tag k="created_by" v="JOSM"/>
    <tag k="highway" v="trunk"/>
    <tag k="name" v="Old Coast Road"/>
    <tag k="surface" v="paved"/>
  </node>
  <node id="136721578" version="1" timestamp="2007-11-27T08:02:35Z" uid="4467" user="Rosscoe" changeset="633390" lat="-33.258935" lon="115.725443">
    <tag k="created_by" v="JOSM"/>
    <tag k="highway" v="trunk"/>
    <tag k="name" v="Old Coast Road"/>
    <tag k="surface" v="paved"/>
  </node>
  <node id="136721578" version="2" timestamp="2007-11-27T08:17:36Z" uid="4467" user="Rosscoe" changeset="633390" lat="-33.258935" lon="115.725443">
    <tag k="created_by" v="JOSM"/>
    <tag k="highway" v="trunk"/>
    <tag k="name" v="Old Coast Road"/>
    <tag k="surface" v="paved"/>
  </node>
  <node id="136721610" version="1" timestamp="2007-11-27T08:02:36Z" uid="4467" user="Rosscoe" changeset="633390" lat="-33.258743" lon="115.725443">
    <tag k="created_by" v="JOSM"/>
    <tag k="highway" v="trunk"/>
    <tag k="name" v="Old Coast Road"/>
    <tag k="surface" v="paved"/>
  </node>
  <node id="136721610" version="2" timestamp="2007-11-27T08:17:38Z" uid="4467" user="Rosscoe" changeset="633390" lat="-33.258743" lon="115.725443">
    <tag k="created_by" v="JOSM"/>
    <tag k="highway" v="trunk"/>
    <tag k="name" v="Old Coast Road"/>
    <tag k="surface" v="paved"/>
  </node>
  <node id="136721642" version="1" timestamp="2007-11-27T08:02:37Z" uid="4467" user="Rosscoe" changeset="633390" lat="-33.258545" lon="115.725442">
    <tag k="created_by" v="JOSM"/>
    <tag k="highway" v="trunk"/>
    <tag k="name" v="Old Coast Road"/>
    <tag k="surface" v="paved"/>
  </node>
  <node id="136721642" version="2" timestamp="2007-11-27T08:17:41Z" uid="4467" user="Rosscoe" changeset="633390" lat="-33.258545" lon="115.725442">
    <tag k="created_by" v="JOSM"/>
    <tag k="highway" v="trunk"/>
    <tag k="name" v="Old Coast Road"/>
    <tag k="surface" v="paved"/>
  </node>
  <node id="136721665" version="1" timestamp="2007-11-27T08:02:38Z" uid="4467" user="Rosscoe" changeset="633390" lat="-33.258347" lon="115.725438">
    <tag k="created_by" v="JOSM"/>
    <tag k="highway" v="trunk"/>
    <tag k="name" v="Old Coast Road"/>
    <tag k="surface" v="paved"/>
  </node>
  <node id="136721665" version="2" timestamp="2007-11-27T08:17:03Z" uid="4467" user="Rosscoe" changeset="633390" lat="-33.258347" lon="115.725438">
    <tag k="created_by" v="JOSM"/>
    <tag k="highway" v="trunk"/>
    <tag k="name" v="Old Coast Road"/>
    <tag k="surface" v="paved"/>
  </node>
  <node id="136721692" version="1" timestamp="2007-11-27T08:02:39Z" uid="4467" user="Rosscoe" changeset="633390" lat="-33.258147" lon="115.725437">
    <tag k="created_by" v="JOSM"/>
    <tag k="highway" v="trunk"/>
    <tag k="name" v="Old Coast Road"/>
    <tag k="surface" v="paved"/>
  </node>
  <node id="136721692" version="2" timestamp="2007-11-27T08:17:04Z" uid="4467" user="Rosscoe" changeset="633390" lat="-33.258147" lon="115.725437">
    <tag k="created_by" v="JOSM"/>
    <tag k="highway" v="trunk"/>
    <tag k="name" v="Old Coast Road"/>
    <tag k="surface" v="paved"/>
  </node>
  <node id="136721722" version="1" timestamp="2007-11-27T08:02:39Z" uid="4467" user="Rosscoe" changeset="633390" lat="-33.25794" lon="115.725435">
    <tag k="created_by" v="JOSM"/>
    <tag k="highway" v="trunk"/>
    <tag k="name" v="Old Coast Road"/>
    <tag k="surface" v="paved"/>
  </node>
  <node id="136721722" version="2" timestamp="2007-11-27T08:17:07Z" uid="4467" user="Rosscoe" changeset="633390" lat="-33.25794" lon="115.725435">
    <tag k="created_by" v="JOSM"/>
    <tag k="highway" v="trunk"/>
    <tag k="name" v="Old Coast Road"/>
    <tag k="surface" v="paved"/>
  </node>
  <node id="136721758" version="1" timestamp="2007-11-27T08:02:40Z" uid="4467" user="Rosscoe" changeset="633390" lat="-33.257735" lon="115.725433">
    <tag k="created_by" v="JOSM"/>
    <tag k="highway" v="trunk"/>
    <tag k="name" v="Old Coast Road"/>
    <tag k="surface" v="paved"/>
  </node>
  <node id="136721758" version="2" timestamp="2007-11-27T08:17:10Z" uid="4467" user="Rosscoe" changeset="633390" lat="-33.257735" lon="115.725433">
    <tag k="created_by" v="JOSM"/>
    <tag k="highway" v="trunk"/>
    <tag k="name" v="Old Coast Road"/>
    <tag k="surface" v="paved"/>
  </node>
  <node id="136721791" version="1" timestamp="2007-11-27T08:02:41Z" uid="4467" user="Rosscoe" changeset="633390" lat="-33.257537" lon="115.725433">
    <tag k="created_by" v="JOSM"/>
    <tag k="highway" v="trunk"/>
    <tag k="name" v="Old Coast Road"/>
    <tag k="surface" v="paved"/>
  </node>
  <node id="136721791" version="2" timestamp="2007-11-27T08:17:13Z" uid="4467" user="Rosscoe" changeset="633390" lat="-33.257537" lon="115.725433">
    <tag k="created_by" v="JOSM"/>
    <tag k="highway" v="trunk"/>
    <tag k="name" v="Old Coast Road"/>
    <tag k="surface" v="paved"/>
  </node>
  <node id="136721819" version="1" timestamp="2007-11-27T08:02:42Z" uid="4467" user="Rosscoe" changeset="633390" lat="-33.257335" lon="115.725432">
    <tag k="created_by" v="JOSM"/>
    <tag k="highway" v="trunk"/>
    <tag k="name" v="Old Coast Road"/>
    <tag k="surface" v="paved"/>
  </node>
  <node id="136721819" version="2" timestamp="2007-11-27T08:17:15Z" uid="4467" user="Rosscoe" changeset="633390" lat="-33.257335" lon="115.725432">
    <tag k="created_by" v="JOSM"/>
    <tag k="highway" v="trunk"/>
    <tag k="name" v="Old Coast Road"/>
    <tag k="surface" v="paved"/>
  </node>
  <node id="136721844" version="1" timestamp="2007-11-27T08:02:42Z" uid="4467" user="Rosscoe" changeset="633390" lat="-33.257133" lon="115.72543">
    <tag k="created_by" v="JOSM"/>
    <tag k="highway" v="trunk"/>
    <tag k="name" v="Old Coast Road"/>
    <tag k="surface" v="paved"/>
  </node>
  <node id="136721844" version="2" timestamp="2007-11-27T08:17:17Z" uid="4467" user="Rosscoe" changeset="633390" lat="-33.257133" lon="115.72543">
    <tag k="created_by" v="JOSM"/>
    <tag k="highway" v="trunk"/>
    <tag k="name" v="Old Coast Road"/>
    <tag k="surface" v="paved"/>
  </node>
  <node id="136721870" version="1" timestamp="2007-11-27T08:02:43Z" uid="4467" user="Rosscoe" changeset="633390" lat="-33.256935" lon="115.725427">
    <tag k="created_by" v="JOSM"/>
    <tag k="highway" v="trunk"/>
    <tag k="name" v="Old Coast Road"/>
    <tag k="surface" v="paved"/>
  </node>
  <node id="136721870" version="2" timestamp="2007-11-27T08:17:19Z" uid="4467" user="Rosscoe" changeset="633390" lat="-33.256935" lon="115.725427">
    <tag k="created_by" v="JOSM"/>
    <tag k="highway" v="trunk"/>
    <tag k="name" v="Old Coast Road"/>
    <tag k="surface" v="paved"/>
  </node>
  <node id="136721895" version="1" timestamp="2007-11-27T08:02:44Z" uid="4467" user="Rosscoe" changeset="633390" lat="-33.256732" lon="115.725423">
    <tag k="created_by" v="JOSM"/>
    <tag k="highway" v="trunk"/>
    <tag k="name" v="Old Coast Road"/>
    <tag k="surface" v="paved"/>
  </node>
  <node id="136721895" version="2" timestamp="2007-11-27T08:17:21Z" uid="4467" user="Rosscoe" changeset="633390" lat="-33.256732" lon="115.725423">
    <tag k="created_by" v="JOSM"/>
    <tag k="highway" v="trunk"/>
    <tag k="name" v="Old Coast Road"/>
    <tag k="surface" v="paved"/>
  </node>
  <node id="136721921" version="1" timestamp="2007-11-27T08:02:45Z" uid="4467" user="Rosscoe" changeset="633390" lat="-33.256532" lon="115.725422">
    <tag k="created_by" v="JOSM"/>
    <tag k="highway" v="trunk"/>
    <tag k="name" v="Old Coast Road"/>
    <tag k="surface" v="paved"/>
  </node>
  <node id="136721921" version="2" timestamp="2007-11-27T08:16:44Z" uid="4467" user="Rosscoe" changeset="633390" lat="-33.256532" lon="115.725422">
    <tag k="created_by" v="JOSM"/>
    <tag k="highway" v="trunk"/>
    <tag k="name" v="Old Coast Road"/>
    <tag k="surface" v="paved"/>
  </node>
  <node id="136721956" version="1" timestamp="2007-11-27T08:02:45Z" uid="4467" user="Rosscoe" changeset="633390" lat="-33.256335" lon="115.725415">
    <tag k="created_by" v="JOSM"/>
    <tag k="highway" v="trunk"/>
    <tag k="name" v="Old Coast Road"/>
    <tag k="surface" v="paved"/>
  </node>
  <node id="136721956" version="2" timestamp="2007-11-27T08:16:43Z" uid="4467" user="Rosscoe" changeset="633390" lat="-33.256335" lon="115.725415">
    <tag k="created_by" v="JOSM"/>
    <tag k="highway" v="trunk"/>
    <tag k="name" v="Old Coast Road"/>
    <tag k="surface" v="paved"/>
  </node>
  <node id="136721977" version="1" timestamp="2007-11-27T08:02:46Z" uid="4467" user="Rosscoe" changeset="633390" lat="-33.256138" lon="115.725412">
    <tag k="created_by" v="JOSM"/>
    <tag k="highway" v="trunk"/>
    <tag k="name" v="Old Coast Road"/>
    <tag k="surface" v="paved"/>
  </node>
  <node id="136721977" version="2" timestamp="2007-11-27T08:16:40Z" uid="4467" user="Rosscoe" changeset="633390" lat="-33.256138" lon="115.725412">
    <tag k="created_by" v="JOSM"/>
    <tag k="highway" v="trunk"/>
    <tag k="name" v="Old Coast Road"/>
    <tag k="surface" v="paved"/>
  </node>
  <node id="136722008" version="1" timestamp="2007-11-27T08:02:47Z" uid="4467" user="Rosscoe" changeset="633390" lat="-33.25594" lon="115.725412">
    <tag k="created_by" v="JOSM"/>
    <tag k="highway" v="trunk"/>
    <tag k="name" v="Old Coast Road"/>
    <tag k="surface" v="paved"/>
  </node>
  <node id="136722008" version="2" timestamp="2007-11-27T08:16:50Z" uid="4467" user="Rosscoe" changeset="633390" lat="-33.25594" lon="115.725412">
    <tag k="created_by" v="JOSM"/>
    <tag k="highway" v="trunk"/>
    <tag k="name" v="Old Coast Road"/>
    <tag k="surface" v="paved"/>
  </node>
  <node id="136722029" version="1" timestamp="2007-11-27T08:02:48Z" uid="4467" user="Rosscoe" changeset="633390" lat="-33.255745" lon="115.725413">
    <tag k="created_by" v="JOSM"/>
    <tag k="highway" v="trunk"/>
    <tag k="name" v="Old Coast Road"/>
    <tag k="surface" v="paved"/>
  </node>
  <node id="136722029" version="2" timestamp="2007-11-27T08:16:47Z" uid="4467" user="Rosscoe" changeset="633390" lat="-33.255745" lon="115.725413">
    <tag k="created_by" v="JOSM"/>
    <tag k="highway" v="trunk"/>
    <tag k="name" v="Old Coast Road"/>
    <tag k="surface" v="paved"/>
  </node>
  <node id="136722054" version="1" timestamp="2007-11-27T08:02:49Z" uid="4467" user="Rosscoe" changeset="633390" lat="-33.255542" lon="115.725413">
    <tag k="created_by" v="JOSM"/>
    <tag k="highway" v="trunk"/>
    <tag k="name" v="Old Coast Road"/>
    <tag k="surface" v="paved"/>
  </node>
  <node id="136722054" version="2" timestamp="2007-11-27T08:16:55Z" uid="4467" user="Rosscoe" changeset="633390" lat="-33.255542" lon="115.725413">
    <tag k="created_by" v="JOSM"/>
    <tag k="highway" v="trunk"/>
    <tag k="name" v="Old Coast Road"/>
    <tag k="surface" v="paved"/>
  </node>
  <node id="136722089" version="1" timestamp="2007-11-27T08:02:49Z" uid="4467" user="Rosscoe" changeset="633390" lat="-33.255342" lon="115.725413">
    <tag k="created_by" v="JOSM"/>
    <tag k="highway" v="trunk"/>
    <tag k="name" v="Old Coast Road"/>
    <tag k="surface" v="paved"/>
  </node>
  <node id="136722089" version="2" timestamp="2007-11-27T08:16:53Z" uid="4467" user="Rosscoe" changeset="633390" lat="-33.255342" lon="115.725413">
    <tag k="created_by" v="JOSM"/>
    <tag k="highway" v="trunk"/>
    <tag k="name" v="Old Coast Road"/>
    <tag k="surface" v="paved"/>
  </node>
  <node id="136722120" version="1" timestamp="2007-11-27T08:02:50Z" uid="4467" user="Rosscoe" changeset="633390" lat="-33.255142" lon="115.725412">
    <tag k="created_by" v="JOSM"/>
    <tag k="highway" v="trunk"/>
    <tag k="name" v="Old Coast Road"/>
    <tag k="surface" v="paved"/>
  </node>
  <node id="136722120" version="2" timestamp="2007-11-27T08:17:00Z" uid="4467" user="Rosscoe" changeset="633390" lat="-33.255142" lon="115.725412">
    <tag k="created_by" v="JOSM"/>
    <tag k="highway" v="trunk"/>
    <tag k="name" v="Old Coast Road"/>
    <tag k="surface" v="paved"/>
  </node>
  <node id="136722153" version="1" timestamp="2007-11-27T08:02:51Z" uid="4467" user="Rosscoe" changeset="633390" lat="-33.254942" lon="115.725412">
    <tag k="created_by" v="JOSM"/>
    <tag k="highway" v="trunk"/>
    <tag k="name" v="Old Coast Road"/>
    <tag k="surface" v="paved"/>
  </node>
  <node id="136722153" version="2" timestamp="2007-11-27T08:16:58Z" uid="4467" user="Rosscoe" changeset="633390" lat="-33.254942" lon="115.725412">
    <tag k="created_by" v="JOSM"/>
    <tag k="highway" v="trunk"/>
    <tag k="name" v="Old Coast Road"/>
    <tag k="surface" v="paved"/>
  </node>
  <node id="136722180" version="1" timestamp="2007-11-27T08:02:52Z" uid="4467" user="Rosscoe" changeset="633390" lat="-33.25474" lon="115.725412">
    <tag k="created_by" v="JOSM"/>
    <tag k="highway" v="trunk"/>
    <tag k="name" v="Old Coast Road"/>
    <tag k="surface" v="paved"/>
  </node>
  <node id="136722180" version="2" timestamp="2007-11-27T08:16:22Z" uid="4467" user="Rosscoe" changeset="633390" lat="-33.25474" lon="115.725412">
    <tag k="created_by" v="JOSM"/>
    <tag k="highway" v="trunk"/>
    <tag k="name" v="Old Coast Road"/>
    <tag k="surface" v="paved"/>
  </node>
  <node id="136722207" version="1" timestamp="2007-11-27T08:02:53Z" uid="4467" user="Rosscoe" changeset="633390" lat="-33.254542" lon="115.725413">
    <tag k="created_by" v="JOSM"/>
    <tag k="highway" v="trunk"/>
    <tag k="name" v="Old Coast Road"/>
    <tag k="surface" v="paved"/>
  </node>
  <node id="136722207" version="2" timestamp="2007-11-27T08:16:24Z" uid="4467" user="Rosscoe" changeset="633390" lat="-33.254542" lon="115.725413">
    <tag k="created_by" v="JOSM"/>
    <tag k="highway" v="trunk"/>
    <tag k="name" v="Old Coast Road"/>
    <tag k="surface" v="paved"/>
  </node>
  <node id="136722234" version="1" timestamp="2007-11-27T08:02:53Z" uid="4467" user="Rosscoe" changeset="633390" lat="-33.25434" lon="115.725415">
    <tag k="created_by" v="JOSM"/>
    <tag k="highway" v="trunk"/>
    <tag k="name" v="Old Coast Road"/>
    <tag k="surface" v="paved"/>
  </node>
  <node id="136722234" version="2" timestamp="2007-11-27T08:16:20Z" uid="4467" user="Rosscoe" changeset="633390" lat="-33.25434" lon="115.725415">
    <tag k="created_by" v="JOSM"/>
    <tag k="highway" v="trunk"/>
    <tag k="name" v="Old Coast Road"/>
    <tag k="surface" v="paved"/>
  </node>
  <node id="136722262" version="1" timestamp="2007-11-27T08:02:54Z" uid="4467" user="Rosscoe" changeset="633390" lat="-33.25414" lon="115.725413">
    <tag k="created_by" v="JOSM"/>
    <tag k="highway" v="trunk"/>
    <tag k="name" v="Old Coast Road"/>
    <tag k="surface" v="paved"/>
  </node>
  <node id="136722262" version="2" timestamp="2007-11-27T08:16:30Z" uid="4467" user="Rosscoe" changeset="633390" lat="-33.25414" lon="115.725413">
    <tag k="created_by" v="JOSM"/>
    <tag k="highway" v="trunk"/>
    <tag k="name" v="Old Coast Road"/>
    <tag k="surface" v="paved"/>
  </node>
  <node id="136722293" version="1" timestamp="2007-11-27T08:02:55Z" uid="4467" user="Rosscoe" changeset="633390" lat="-33.253942" lon="115.725415">
    <tag k="created_by" v="JOSM"/>
    <tag k="highway" v="trunk"/>
    <tag k="name" v="Old Coast Road"/>
    <tag k="surface" v="paved"/>
  </node>
  <node id="136722293" version="2" timestamp="2007-11-27T08:16:27Z" uid="4467" user="Rosscoe" changeset="633390" lat="-33.253942" lon="115.725415">
    <tag k="created_by" v="JOSM"/>
    <tag k="highway" v="trunk"/>
    <tag k="name" v="Old Coast Road"/>
    <tag k="surface" v="paved"/>
  </node>
  <node id="136722322" version="1" timestamp="2007-11-27T08:02:56Z" uid="4467" user="Rosscoe" changeset="633390" lat="-33.253747" lon="115.725412">
    <tag k="created_by" v="JOSM"/>
    <tag k="highway" v="trunk"/>
    <tag k="name" v="Old Coast Road"/>
    <tag k="surface" v="paved"/>
  </node>
  <node id="136722322" version="2" timestamp="2007-11-27T08:16:35Z" uid="4467" user="Rosscoe" changeset="633390" lat="-33.253747" lon="115.725412">
    <tag k="created_by" v="JOSM"/>
    <tag k="highway" v="trunk"/>
    <tag k="name" v="Old Coast Road"/>
    <tag k="surface" v="paved"/>
  </node>
  <node id="136722353" version="1" timestamp="2007-11-27T08:02:56Z" uid="4467" user="Rosscoe" changeset="633390" lat="-33.253552" lon="115.72541">
    <tag k="created_by" v="JOSM"/>
    <tag k="highway" v="trunk"/>
    <tag k="name" v="Old Coast Road"/>
    <tag k="surface" v="paved"/>
  </node>
  <node id="136722353" version="2" timestamp="2007-11-27T08:16:33Z" uid="4467" user="Rosscoe" changeset="633390" lat="-33.253552" lon="115.72541">
    <tag k="created_by" v="JOSM"/>
    <tag k="highway" v="trunk"/>
    <tag k="name" v="Old Coast Road"/>
    <tag k="surface" v="paved"/>
  </node>
  <node id="136722375" version="1" timestamp="2007-11-27T08:02:57Z" uid="4467" user="Rosscoe" changeset="633390" lat="-33.253363" lon="115.725408">
    <tag k="created_by" v="JOSM"/>
    <tag k="highway" v="trunk"/>
    <tag k="name" v="Old Coast Road"/>
    <tag k="surface" v="paved"/>
  </node>
  <node id="136722375" version="2" timestamp="2007-11-27T08:16:38Z" uid="4467" user="Rosscoe" changeset="633390" lat="-33.253363" lon="115.725408">
    <tag k="created_by" v="JOSM"/>
    <tag k="highway" v="trunk"/>
    <tag k="name" v="Old Coast Road"/>
    <tag k="surface" v="paved"/>
  </node>
  <node id="136722402" version="1" timestamp="2007-11-27T08:02:58Z" uid="4467" user="Rosscoe" changeset="633390" lat="-33.253172" lon="115.725405">
    <tag k="created_by" v="JOSM"/>
    <tag k="highway" v="trunk"/>
    <tag k="name" v="Old Coast Road"/>
    <tag k="surface" v="paved"/>
  </node>
  <node id="136722402" version="2" timestamp="2007-11-27T08:16:36Z" uid="4467" user="Rosscoe" changeset="633390" lat="-33.253172" lon="115.725405">
    <tag k="created_by" v="JOSM"/>
    <tag k="highway" v="trunk"/>
    <tag k="name" v="Old Coast Road"/>
    <tag k="surface" v="paved"/>
  </node>
  <node id="136722434" version="1" timestamp="2007-11-27T08:02:59Z" uid="4467" user="Rosscoe" changeset="633390" lat="-33.252983" lon="115.725398">
    <tag k="created_by" v="JOSM"/>
    <tag k="highway" v="trunk"/>
    <tag k="name" v="Old Coast Road"/>
    <tag k="surface" v="paved"/>
  </node>
  <node id="136722434" version="2" timestamp="2007-11-27T08:16:19Z" uid="4467" user="Rosscoe" changeset="633390" lat="-33.252983" lon="115.725398">
    <tag k="created_by" v="JOSM"/>
    <tag k="highway" v="trunk"/>
    <tag k="name" v="Old Coast Road"/>
    <tag k="surface" v="paved"/>
  </node>
  <node id="136722466" version="1" timestamp="2007-11-27T08:03:00Z" uid="4467" user="Rosscoe" changeset="633390" lat="-33.252795" lon="115.725395">
    <tag k="created_by" v="JOSM"/>
    <tag k="highway" v="trunk"/>
    <tag k="name" v="Old Coast Road"/>
    <tag k="surface" v="paved"/>
  </node>
  <node id="136722466" version="2" timestamp="2007-11-27T08:16:19Z" uid="4467" user="Rosscoe" changeset="633390" lat="-33.252795" lon="115.725395">
    <tag k="created_by" v="JOSM"/>
    <tag k="highway" v="trunk"/>
    <tag k="name" v="Old Coast Road"/>
    <tag k="surface" v="paved"/>
  </node>
  <node id="136722503" version="1" timestamp="2007-11-27T08:03:00Z" uid="4467" user="Rosscoe" changeset="633390" lat="-33.252605" lon="115.725393">
    <tag k="created_by" v="JOSM"/>
    <tag k="highway" v="trunk"/>
    <tag k="name" v="Old Coast Road"/>
    <tag k="surface" v="paved"/>
  </node>
  <node id="136722503" version="2" timestamp="2007-11-27T08:16:16Z" uid="4467" user="Rosscoe" changeset="633390" lat="-33.252605" lon="115.725393">
    <tag k="created_by" v="JOSM"/>
    <tag k="highway" v="trunk"/>
    <tag k="name" v="Old Coast Road"/>
    <tag k="surface" v="paved"/>
  </node>
  <node id="136722533" version="1" timestamp="2007-11-27T08:03:01Z" uid="4467" user="Rosscoe" changeset="633390" lat="-33.252415" lon="115.72539">
    <tag k="created_by" v="JOSM"/>
    <tag k="highway" v="trunk"/>
    <tag k="name" v="Old Coast Road"/>
    <tag k="surface" v="paved"/>
  </node>
  <node id="136722533" version="2" timestamp="2007-11-27T08:16:17Z" uid="4467" user="Rosscoe" changeset="633390" lat="-33.252415" lon="115.72539">
    <tag k="created_by" v="JOSM"/>
    <tag k="highway" v="trunk"/>
    <tag k="name" v="Old Coast Road"/>
    <tag k="surface" v="paved"/>
  </node>
  <node id="136722556" version="1" timestamp="2007-11-27T08:03:02Z" uid="4467" user="Rosscoe" changeset="633390" lat="-33.252232" lon="115.72539">
    <tag k="created_by" v="JOSM"/>
    <tag k="highway" v="trunk"/>
    <tag k="name" v="Old Coast Road"/>
    <tag k="surface" v="paved"/>
  </node>
  <node id="136722556" version="2" timestamp="2007-11-27T08:16:18Z" uid="4467" user="Rosscoe" changeset="633390" lat="-33.252232" lon="115.72539">
    <tag k="created_by" v="JOSM"/>
    <tag k="highway" v="trunk"/>
    <tag k="name" v="Old Coast Road"/>
    <tag k="surface" v="paved"/>
  </node>
  <node id="136722690" version="1" timestamp="2007-11-27T08:03:06Z" uid="4467" user="Rosscoe" changeset="633390" lat="-33.252047" lon="115.725388">
    <tag k="created_by" v="JOSM"/>
    <tag k="highway" v="trunk"/>
    <tag k="name" v="Old Coast Road"/>
    <tag k="surface" v="paved"/>
  </node>
  <node id="136722690" version="2" timestamp="2007-11-27T08:16:14Z" uid="4467" user="Rosscoe" changeset="633390" lat="-33.252047" lon="115.725388">
    <tag k="created_by" v="JOSM"/>
    <tag k="highway" v="trunk"/>
    <tag k="name" v="Old Coast Road"/>
    <tag k="surface" v="paved"/>
  </node>
  <node id="136722722" version="1" timestamp="2007-11-27T08:03:07Z" uid="4467" user="Rosscoe" changeset="633390" lat="-33.251863" lon="115.725385">
    <tag k="created_by" v="JOSM"/>
    <tag k="highway" v="trunk"/>
    <tag k="name" v="Old Coast Road"/>
    <tag k="surface" v="paved"/>
  </node>
  <node id="136722722" version="2" timestamp="2007-11-27T08:16:15Z" uid="4467" user="Rosscoe" changeset="633390" lat="-33.251863" lon="115.725385">
    <tag k="created_by" v="JOSM"/>
    <tag k="highway" v="trunk"/>
    <tag k="name" v="Old Coast Road"/>
    <tag k="surface" v="paved"/>
  </node>
  <node id="136722743" version="1" timestamp="2007-11-27T08:03:07Z" uid="4467" user="Rosscoe" changeset="633390" lat="-33.251687" lon="115.72538">
    <tag k="created_by" v="JOSM"/>
    <tag k="highway" v="trunk"/>
    <tag k="name" v="Old Coast Road"/>
    <tag k="surface" v="paved"/>
  </node>
  <node id="136722743" version="2" timestamp="2007-11-27T08:16:15Z" uid="4467" user="Rosscoe" changeset="633390" lat="-33.251687" lon="115.72538">
    <tag k="created_by" v="JOSM"/>
    <tag k="highway" v="trunk"/>
    <tag k="name" v="Old Coast Road"/>
    <tag k="surface" v="paved"/>
  </node>
  <node id="136722771" version="1" timestamp="2007-11-27T08:03:08Z" uid="4467" user="Rosscoe" changeset="633390" lat="-33.251508" lon="115.72538">
    <tag k="created_by" v="JOSM"/>
    <tag k="highway" v="trunk"/>
    <tag k="name" v="Old Coast Road"/>
    <tag k="surface" v="paved"/>
  </node>
  <node id="136722771" version="2" timestamp="2007-11-27T08:16:12Z" uid="4467" user="Rosscoe" changeset="633390" lat="-33.251508" lon="115.72538">
    <tag k="created_by" v="JOSM"/>
    <tag k="highway" v="trunk"/>
    <tag k="name" v="Old Coast Road"/>
    <tag k="surface" v="paved"/>
  </node>
  <node id="136722798" version="1" timestamp="2007-11-27T08:03:09Z" uid="4467" user="Rosscoe" changeset="633390" lat="-33.25133" lon="115.725382">
    <tag k="created_by" v="JOSM"/>
    <tag k="highway" v="trunk"/>
    <tag k="name" v="Old Coast Road"/>
    <tag k="surface" v="paved"/>
  </node>
  <node id="136722798" version="2" timestamp="2007-11-27T08:16:13Z" uid="4467" user="Rosscoe" changeset="633390" lat="-33.25133" lon="115.725382">
    <tag k="created_by" v="JOSM"/>
    <tag k="highway" v="trunk"/>
    <tag k="name" v="Old Coast Road"/>
    <tag k="surface" v="paved"/>
  </node>
  <node id="136722829" version="1" timestamp="2007-11-27T08:03:10Z" uid="4467" user="Rosscoe" changeset="633390" lat="-33.251157" lon="115.725382">
    <tag k="created_by" v="JOSM"/>
    <tag k="highway" v="trunk"/>
    <tag k="name" v="Old Coast Road"/>
    <tag k="surface" v="paved"/>
  </node>
  <node id="136722829" version="2" timestamp="2007-11-27T08:16:11Z" uid="4467" user="Rosscoe" changeset="633390" lat="-33.251157" lon="115.725382">
    <tag k="created_by" v="JOSM"/>
    <tag k="highway" v="trunk"/>
    <tag k="name" v="Old Coast Road"/>
    <tag k="surface" v="paved"/>
  </node>
  <node id="136722831" version="2" timestamp="2010-03-23T12:13:12Z" uid="171838" user="argrath" changeset="4211529" lat="25.7221099" lon="123.55576"/>
  <node id="136722863" version="1" timestamp="2007-11-27T08:03:10Z" uid="4467" user="Rosscoe" changeset="633390" lat="-33.250978" lon="115.725382">
    <tag k="created_by" v="JOSM"/>
    <tag k="highway" v="trunk"/>
    <tag k="name" v="Old Coast Road"/>
    <tag k="surface" v="paved"/>
  </node>
  <node id="136722863" version="2" timestamp="2007-11-27T08:16:12Z" uid="4467" user="Rosscoe" changeset="633390" lat="-33.250978" lon="115.725382">
    <tag k="created_by" v="JOSM"/>
    <tag k="highway" v="trunk"/>
    <tag k="name" v="Old Coast Road"/>
    <tag k="surface" v="paved"/>
  </node>
  <node id="136722892" version="1" timestamp="2007-11-27T08:03:11Z" uid="4467" user="Rosscoe" changeset="633390" lat="-33.250802" lon="115.725382">
    <tag k="created_by" v="JOSM"/>
    <tag k="highway" v="trunk"/>
    <tag k="name" v="Old Coast Road"/>
    <tag k="surface" v="paved"/>
  </node>
  <node id="136722892" version="2" timestamp="2007-11-27T08:16:09Z" uid="4467" user="Rosscoe" changeset="633390" lat="-33.250802" lon="115.725382">
    <tag k="created_by" v="JOSM"/>
    <tag k="highway" v="trunk"/>
    <tag k="name" v="Old Coast Road"/>
    <tag k="surface" v="paved"/>
  </node>
  <node id="136722919" version="1" timestamp="2007-11-27T08:03:12Z" uid="4467" user="Rosscoe" changeset="633390" lat="-33.250628" lon="115.725382">
    <tag k="created_by" v="JOSM"/>
    <tag k="highway" v="trunk"/>
    <tag k="name" v="Old Coast Road"/>
    <tag k="surface" v="paved"/>
  </node>
  <node id="136722919" version="2" timestamp="2007-11-27T08:16:10Z" uid="4467" user="Rosscoe" changeset="633390" lat="-33.250628" lon="115.725382">
    <tag k="created_by" v="JOSM"/>
    <tag k="highway" v="trunk"/>
    <tag k="name" v="Old Coast Road"/>
    <tag k="surface" v="paved"/>
  </node>
  <node id="136722949" version="1" timestamp="2007-11-27T08:03:13Z" uid="4467" user="Rosscoe" changeset="633390" lat="-33.250447" lon="115.725382">
    <tag k="created_by" v="JOSM"/>
    <tag k="highway" v="trunk"/>
    <tag k="name" v="Old Coast Road"/>
    <tag k="surface" v="paved"/>
  </node>
  <node id="136722949" version="2" timestamp="2007-11-27T08:16:07Z" uid="4467" user="Rosscoe" changeset="633390" lat="-33.250447" lon="115.725382">
    <tag k="created_by" v="JOSM"/>
    <tag k="highway" v="trunk"/>
    <tag k="name" v="Old Coast Road"/>
    <tag k="surface" v="paved"/>
  </node>
  <node id="136722971" version="1" timestamp="2007-11-27T08:03:13Z" uid="4467" user="Rosscoe" changeset="633390" lat="-33.25026" lon="115.725383">
    <tag k="created_by" v="JOSM"/>
    <tag k="highway" v="trunk"/>
    <tag k="name" v="Old Coast Road"/>
    <tag k="surface" v="paved"/>
  </node>
  <node id="136722971" version="2" timestamp="2007-11-27T08:16:08Z" uid="4467" user="Rosscoe" changeset="633390" lat="-33.25026" lon="115.725383">
    <tag k="created_by" v="JOSM"/>
    <tag k="highway" v="trunk"/>
    <tag k="name" v="Old Coast Road"/>
    <tag k="surface" v="paved"/>
  </node>
  <node id="136722987" version="1" timestamp="2007-11-27T08:03:14Z" uid="4467" user="Rosscoe" changeset="633390" lat="-33.250073" lon="115.725385">
    <tag k="created_by" v="JOSM"/>
    <tag k="highway" v="trunk"/>
    <tag k="name" v="Old Coast Road"/>
    <tag k="surface" v="paved"/>
  </node>
  <node id="136722987" version="2" timestamp="2007-11-27T08:16:06Z" uid="4467" user="Rosscoe" changeset="633390" lat="-33.250073" lon="115.725385">
    <tag k="created_by" v="JOSM"/>
    <tag k="highway" v="trunk"/>
    <tag k="name" v="Old Coast Road"/>
    <tag k="surface" v="paved"/>
  </node>
  <node id="136723013" version="1" timestamp="2007-11-27T08:03:15Z" uid="4467" user="Rosscoe" changeset="633390" lat="-33.249877" lon="115.725387">
    <tag k="created_by" v="JOSM"/>
    <tag k="highway" v="trunk"/>
    <tag k="name" v="Old Coast Road"/>
    <tag k="surface" v="paved"/>
  </node>
  <node id="136723013" version="2" timestamp="2007-11-27T08:16:04Z" uid="4467" user="Rosscoe" changeset="633390" lat="-33.249877" lon="115.725387">
    <tag k="created_by" v="JOSM"/>
    <tag k="highway" v="trunk"/>
    <tag k="name" v="Old Coast Road"/>
    <tag k="surface" v="paved"/>
  </node>
  <node id="136723042" version="1" timestamp="2007-11-27T08:03:16Z" uid="4467" user="Rosscoe" changeset="633390" lat="-33.249682" lon="115.725388">
    <tag k="created_by" v="JOSM"/>
    <tag k="highway" v="trunk"/>
    <tag k="name" v="Old Coast Road"/>
    <tag k="surface" v="paved"/>
  </node>
  <node id="136723042" version="2" timestamp="2007-11-27T08:16:02Z" uid="4467" user="Rosscoe" changeset="633390" lat="-33.249682" lon="115.725388">
    <tag k="created_by" v="JOSM"/>
    <tag k="highway" v="trunk"/>
    <tag k="name" v="Old Coast Road"/>
    <tag k="surface" v="paved"/>
  </node>
  <node id="136723072" version="1" timestamp="2007-11-27T08:03:17Z" uid="4467" user="Rosscoe" changeset="633390" lat="-33.249485" lon="115.725388">
    <tag k="created_by" v="JOSM"/>
    <tag k="highway" v="trunk"/>
    <tag k="name" v="Old Coast Road"/>
    <tag k="surface" v="paved"/>
  </node>
  <node id="136723072" version="2" timestamp="2007-11-27T08:16:00Z" uid="4467" user="Rosscoe" changeset="633390" lat="-33.249485" lon="115.725388">
    <tag k="created_by" v="JOSM"/>
    <tag k="highway" v="trunk"/>
    <tag k="name" v="Old Coast Road"/>
    <tag k="surface" v="paved"/>
  </node>
  <node id="136723097" version="1" timestamp="2007-11-27T08:03:17Z" uid="4467" user="Rosscoe" changeset="633390" lat="-33.24929" lon="115.72539">
    <tag k="created_by" v="JOSM"/>
    <tag k="highway" v="trunk"/>
    <tag k="name" v="Old Coast Road"/>
    <tag k="surface" v="paved"/>
  </node>
  <node id="136723097" version="2" timestamp="2007-11-27T08:16:00Z" uid="4467" user="Rosscoe" changeset="633390" lat="-33.24929" lon="115.72539">
    <tag k="created_by" v="JOSM"/>
    <tag k="highway" v="trunk"/>
    <tag k="name" v="Old Coast Road"/>
    <tag k="surface" v="paved"/>
  </node>
  <node id="136723127" version="1" timestamp="2007-11-27T08:03:18Z" uid="4467" user="Rosscoe" changeset="633390" lat="-33.249098" lon="115.725388">
    <tag k="created_by" v="JOSM"/>
    <tag k="highway" v="trunk"/>
    <tag k="name" v="Old Coast Road"/>
    <tag k="surface" v="paved"/>
  </node>
  <node id="136723127" version="2" timestamp="2007-11-27T08:15:59Z" uid="4467" user="Rosscoe" changeset="633390" lat="-33.249098" lon="115.725388">
    <tag k="created_by" v="JOSM"/>
    <tag k="highway" v="trunk"/>
    <tag k="name" v="Old Coast Road"/>
    <tag k="surface" v="paved"/>
  </node>
  <node id="136723160" version="1" timestamp="2007-11-27T08:03:19Z" uid="4467" user="Rosscoe" changeset="633390" lat="-33.248907" lon="115.725392">
    <tag k="created_by" v="JOSM"/>
    <tag k="highway" v="trunk"/>
    <tag k="name" v="Old Coast Road"/>
    <tag k="surface" v="paved"/>
  </node>
  <node id="136723160" version="2" timestamp="2007-11-27T08:15:58Z" uid="4467" user="Rosscoe" changeset="633390" lat="-33.248907" lon="115.725392">
    <tag k="created_by" v="JOSM"/>
    <tag k="highway" v="trunk"/>
    <tag k="name" v="Old Coast Road"/>
    <tag k="surface" v="paved"/>
  </node>
  <node id="136723193" version="1" timestamp="2007-11-27T08:03:20Z" uid="4467" user="Rosscoe" changeset="633390" lat="-33.248717" lon="115.7254">
    <tag k="created_by" v="JOSM"/>
    <tag k="highway" v="trunk"/>
    <tag k="name" v="Old Coast Road"/>
    <tag k="surface" v="paved"/>
  </node>
  <node id="136723193" version="2" timestamp="2007-11-27T08:15:57Z" uid="4467" user="Rosscoe" changeset="633390" lat="-33.248717" lon="115.7254">
    <tag k="created_by" v="JOSM"/>
    <tag k="highway" v="trunk"/>
    <tag k="name" v="Old Coast Road"/>
    <tag k="surface" v="paved"/>
  </node>
  <node id="136723226" version="1" timestamp="2007-11-27T08:03:20Z" uid="4467" user="Rosscoe" changeset="633390" lat="-33.248523" lon="115.725402">
    <tag k="created_by" v="JOSM"/>
    <tag k="highway" v="trunk"/>
    <tag k="name" v="Old Coast Road"/>
    <tag k="surface" v="paved"/>
  </node>
  <node id="136723226" version="2" timestamp="2007-11-27T08:15:56Z" uid="4467" user="Rosscoe" changeset="633390" lat="-33.248523" lon="115.725402">
    <tag k="created_by" v="JOSM"/>
    <tag k="highway" v="trunk"/>
    <tag k="name" v="Old Coast Road"/>
    <tag k="surface" v="paved"/>
  </node>
  <node id="136723254" version="1" timestamp="2007-11-27T08:03:21Z" uid="4467" user="Rosscoe" changeset="633390" lat="-33.248328" lon="115.725398">
    <tag k="created_by" v="JOSM"/>
    <tag k="highway" v="trunk"/>
    <tag k="name" v="Old Coast Road"/>
    <tag k="surface" v="paved"/>
  </node>
  <node id="136723254" version="2" timestamp="2007-11-27T08:15:54Z" uid="4467" user="Rosscoe" changeset="633390" lat="-33.248328" lon="115.725398">
    <tag k="created_by" v="JOSM"/>
    <tag k="highway" v="trunk"/>
    <tag k="name" v="Old Coast Road"/>
    <tag k="surface" v="paved"/>
  </node>
  <node id="136723284" version="1" timestamp="2007-11-27T08:03:22Z" uid="4467" user="Rosscoe" changeset="633390" lat="-33.248133" lon="115.725392">
    <tag k="created_by" v="JOSM"/>
    <tag k="highway" v="trunk"/>
    <tag k="name" v="Old Coast Road"/>
    <tag k="surface" v="paved"/>
  </node>
  <node id="136723284" version="2" timestamp="2007-11-27T08:15:52Z" uid="4467" user="Rosscoe" changeset="633390" lat="-33.248133" lon="115.725392">
    <tag k="created_by" v="JOSM"/>
    <tag k="highway" v="trunk"/>
    <tag k="name" v="Old Coast Road"/>
    <tag k="surface" v="paved"/>
  </node>
  <node id="136723315" version="1" timestamp="2007-11-27T08:03:23Z" uid="4467" user="Rosscoe" changeset="633390" lat="-33.24794" lon="115.72539">
    <tag k="created_by" v="JOSM"/>
    <tag k="highway" v="trunk"/>
    <tag k="name" v="Old Coast Road"/>
    <tag k="surface" v="paved"/>
  </node>
  <node id="136723315" version="2" timestamp="2007-11-27T08:15:51Z" uid="4467" user="Rosscoe" changeset="633390" lat="-33.24794" lon="115.72539">
    <tag k="created_by" v="JOSM"/>
    <tag k="highway" v="trunk"/>
    <tag k="name" v="Old Coast Road"/>
    <tag k="surface" v="paved"/>
  </node>
  <node id="136723344" version="1" timestamp="2007-11-27T08:03:23Z" uid="4467" user="Rosscoe" changeset="633390" lat="-33.247747" lon="115.72539">
    <tag k="created_by" v="JOSM"/>
    <tag k="highway" v="trunk"/>
    <tag k="name" v="Old Coast Road"/>
    <tag k="surface" v="paved"/>
  </node>
  <node id="136723344" version="2" timestamp="2007-11-27T08:15:49Z" uid="4467" user="Rosscoe" changeset="633390" lat="-33.247747" lon="115.72539">
    <tag k="created_by" v="JOSM"/>
    <tag k="highway" v="trunk"/>
    <tag k="name" v="Old Coast Road"/>
    <tag k="surface" v="paved"/>
  </node>
  <node id="136723373" version="1" timestamp="2007-11-27T08:03:24Z" uid="4467" user="Rosscoe" changeset="633390" lat="-33.247552" lon="115.725393">
    <tag k="created_by" v="JOSM"/>
    <tag k="highway" v="trunk"/>
    <tag k="name" v="Old Coast Road"/>
    <tag k="surface" v="paved"/>
  </node>
  <node id="136723373" version="2" timestamp="2007-11-27T08:15:48Z" uid="4467" user="Rosscoe" changeset="633390" lat="-33.247552" lon="115.725393">
    <tag k="created_by" v="JOSM"/>
    <tag k="highway" v="trunk"/>
    <tag k="name" v="Old Coast Road"/>
    <tag k="surface" v="paved"/>
  </node>
  <node id="136723400" version="1" timestamp="2007-11-27T08:03:25Z" uid="4467" user="Rosscoe" changeset="633390" lat="-33.247367" lon="115.7254">
    <tag k="created_by" v="JOSM"/>
    <tag k="highway" v="trunk"/>
    <tag k="name" v="Old Coast Road"/>
    <tag k="surface" v="paved"/>
  </node>
  <node id="136723400" version="2" timestamp="2007-11-27T08:15:46Z" uid="4467" user="Rosscoe" changeset="633390" lat="-33.247367" lon="115.7254">
    <tag k="created_by" v="JOSM"/>
    <tag k="highway" v="trunk"/>
    <tag k="name" v="Old Coast Road"/>
    <tag k="surface" v="paved"/>
  </node>
  <node id="136723422" version="1" timestamp="2007-11-27T08:03:26Z" uid="4467" user="Rosscoe" changeset="633390" lat="-33.247188" lon="115.725407">
    <tag k="created_by" v="JOSM"/>
    <tag k="highway" v="trunk"/>
    <tag k="name" v="Old Coast Road"/>
    <tag k="surface" v="paved"/>
  </node>
  <node id="136723422" version="2" timestamp="2007-11-27T08:15:44Z" uid="4467" user="Rosscoe" changeset="633390" lat="-33.247188" lon="115.725407">
    <tag k="created_by" v="JOSM"/>
    <tag k="highway" v="trunk"/>
    <tag k="name" v="Old Coast Road"/>
    <tag k="surface" v="paved"/>
  </node>
  <node id="136723452" version="1" timestamp="2007-11-27T08:03:27Z" uid="4467" user="Rosscoe" changeset="633390" lat="-33.247017" lon="115.72542">
    <tag k="created_by" v="JOSM"/>
    <tag k="highway" v="trunk"/>
    <tag k="name" v="Old Coast Road"/>
    <tag k="surface" v="paved"/>
  </node>
  <node id="136723452" version="2" timestamp="2007-11-27T08:15:43Z" uid="4467" user="Rosscoe" changeset="633390" lat="-33.247017" lon="115.72542">
    <tag k="created_by" v="JOSM"/>
    <tag k="highway" v="trunk"/>
    <tag k="name" v="Old Coast Road"/>
    <tag k="surface" v="paved"/>
  </node>
  <node id="136723477" version="3" timestamp="2010-02-17T20:36:58Z" uid="171838" user="argrath" changeset="3904184" lat="25.74905" lon="123.4682199"/>
  <node id="136723482" version="1" timestamp="2007-11-27T08:03:27Z" uid="4467" user="Rosscoe" changeset="633390" lat="-33.246852" lon="115.725433">
    <tag k="created_by" v="JOSM"/>
    <tag k="highway" v="trunk"/>
    <tag k="name" v="Old Coast Road"/>
    <tag k="surface" v="paved"/>
  </node>
  <node id="136723482" version="2" timestamp="2007-11-27T08:17:34Z" uid="4467" user="Rosscoe" changeset="633390" lat="-33.246852" lon="115.725433">
    <tag k="created_by" v="JOSM"/>
    <tag k="highway" v="trunk"/>
    <tag k="name" v="Old Coast Road"/>
    <tag k="surface" v="paved"/>
  </node>
  <node id="136723514" version="1" timestamp="2007-11-27T08:03:28Z" uid="4467" user="Rosscoe" changeset="633390" lat="-33.246697" lon="115.725452">
    <tag k="created_by" v="JOSM"/>
    <tag k="highway" v="trunk"/>
    <tag k="name" v="Old Coast Road"/>
    <tag k="surface" v="paved"/>
  </node>
  <node id="136723514" version="2" timestamp="2007-11-27T08:17:35Z" uid="4467" user="Rosscoe" changeset="633390" lat="-33.246697" lon="115.725452">
    <tag k="created_by" v="JOSM"/>
    <tag k="highway" v="trunk"/>
    <tag k="name" v="Old Coast Road"/>
    <tag k="surface" v="paved"/>
  </node>
  <node id="136723540" version="1" timestamp="2007-11-27T08:03:29Z" uid="4467" user="Rosscoe" changeset="633390" lat="-33.246543" lon="115.725475">
    <tag k="created_by" v="JOSM"/>
    <tag k="highway" v="trunk"/>
    <tag k="name" v="Old Coast Road"/>
    <tag k="surface" v="paved"/>
  </node>
  <node id="136723540" version="2" timestamp="2007-11-27T08:17:39Z" uid="4467" user="Rosscoe" changeset="633390" lat="-33.246543" lon="115.725475">
    <tag k="created_by" v="JOSM"/>
    <tag k="highway" v="trunk"/>
    <tag k="name" v="Old Coast Road"/>
    <tag k="surface" v="paved"/>
  </node>
  <node id="136723570" version="1" timestamp="2007-11-27T08:03:30Z" uid="4467" user="Rosscoe" changeset="633390" lat="-33.24639" lon="115.725505">
    <tag k="created_by" v="JOSM"/>
    <tag k="highway" v="trunk"/>
    <tag k="name" v="Old Coast Road"/>
    <tag k="surface" v="paved"/>
  </node>
  <node id="136723570" version="2" timestamp="2007-11-27T08:17:41Z" uid="4467" user="Rosscoe" changeset="633390" lat="-33.24639" lon="115.725505">
    <tag k="created_by" v="JOSM"/>
    <tag k="highway" v="trunk"/>
    <tag k="name" v="Old Coast Road"/>
    <tag k="surface" v="paved"/>
  </node>
  <node id="136723602" version="1" timestamp="2007-11-27T08:03:30Z" uid="4467" user="Rosscoe" changeset="633390" lat="-33.246242" lon="115.725538">
    <tag k="created_by" v="JOSM"/>
    <tag k="highway" v="trunk"/>
    <tag k="name" v="Old Coast Road"/>
    <tag k="surface" v="paved"/>
  </node>
  <node id="136723602" version="2" timestamp="2007-11-27T08:17:24Z" uid="4467" user="Rosscoe" changeset="633390" lat="-33.246242" lon="115.725538">
    <tag k="created_by" v="JOSM"/>
    <tag k="highway" v="trunk"/>
    <tag k="name" v="Old Coast Road"/>
    <tag k="surface" v="paved"/>
  </node>
  <node id="136723622" version="1" timestamp="2007-11-27T08:03:31Z" uid="4467" user="Rosscoe" changeset="633390" lat="-33.246083" lon="115.725578">
    <tag k="created_by" v="JOSM"/>
    <tag k="highway" v="trunk"/>
    <tag k="name" v="Old Coast Road"/>
    <tag k="surface" v="paved"/>
  </node>
  <node id="136723622" version="2" timestamp="2007-11-27T08:17:24Z" uid="4467" user="Rosscoe" changeset="633390" lat="-33.246083" lon="115.725578">
    <tag k="created_by" v="JOSM"/>
    <tag k="highway" v="trunk"/>
    <tag k="name" v="Old Coast Road"/>
    <tag k="surface" v="paved"/>
  </node>
  <node id="136723651" version="1" timestamp="2007-11-27T08:03:32Z" uid="4467" user="Rosscoe" changeset="633390" lat="-33.24592" lon="115.725625">
    <tag k="created_by" v="JOSM"/>
    <tag k="highway" v="trunk"/>
    <tag k="name" v="Old Coast Road"/>
    <tag k="surface" v="paved"/>
  </node>
  <node id="136723651" version="2" timestamp="2007-11-27T08:17:27Z" uid="4467" user="Rosscoe" changeset="633390" lat="-33.24592" lon="115.725625">
    <tag k="created_by" v="JOSM"/>
    <tag k="highway" v="trunk"/>
    <tag k="name" v="Old Coast Road"/>
    <tag k="surface" v="paved"/>
  </node>
  <node id="136723656" version="3" timestamp="2010-02-17T20:36:58Z" uid="171838" user="argrath" changeset="3904184" lat="25.75069" lon="123.4793101"/>
  <node id="136723680" version="2" timestamp="2010-02-16T20:03:29Z" uid="171838" user="argrath" changeset="3895627" lat="24.4379489" lon="123.0137892"/>
  <node id="136723683" version="1" timestamp="2007-11-27T08:03:33Z" uid="4467" user="Rosscoe" changeset="633390" lat="-33.245753" lon="115.725673">
    <tag k="created_by" v="JOSM"/>
    <tag k="highway" v="trunk"/>
    <tag k="name" v="Old Coast Road"/>
    <tag k="surface" v="paved"/>
  </node>
  <node id="136723683" version="2" timestamp="2007-11-27T08:17:29Z" uid="4467" user="Rosscoe" changeset="633390" lat="-33.245753" lon="115.725673">
    <tag k="created_by" v="JOSM"/>
    <tag k="highway" v="trunk"/>
    <tag k="name" v="Old Coast Road"/>
    <tag k="surface" v="paved"/>
  </node>
  <node id="136723709" version="2" timestamp="2010-02-16T20:02:42Z" uid="171838" user="argrath" changeset="3895627" lat="24.4393467" lon="123.0156859"/>
  <node id="136723718" version="1" timestamp="2007-11-27T08:03:34Z" uid="4467" user="Rosscoe" changeset="633390" lat="-33.24558" lon="115.725722">
    <tag k="created_by" v="JOSM"/>
    <tag k="highway" v="trunk"/>
    <tag k="name" v="Old Coast Road"/>
    <tag k="surface" v="paved"/>
  </node>
  <node id="136723718" version="2" timestamp="2007-11-27T08:17:14Z" uid="4467" user="Rosscoe" changeset="633390" lat="-33.24558" lon="115.725722">
    <tag k="created_by" v="JOSM"/>
    <tag k="highway" v="trunk"/>
    <tag k="name" v="Old Coast Road"/>
    <tag k="surface" v="paved"/>
  </node>
  <node id="136723736" version="2" timestamp="2010-02-16T20:04:15Z" uid="171838" user="argrath" changeset="3895627" lat="24.4428823" lon="123.0191179"/>
  <node id="136723754" version="1" timestamp="2007-11-27T08:03:34Z" uid="4467" user="Rosscoe" changeset="633390" lat="-33.24541" lon="115.725772">
    <tag k="created_by" v="JOSM"/>
    <tag k="highway" v="trunk"/>
    <tag k="name" v="Old Coast Road"/>
    <tag k="surface" v="paved"/>
  </node>
  <node id="136723754" version="2" timestamp="2007-11-27T08:17:17Z" uid="4467" user="Rosscoe" changeset="633390" lat="-33.24541" lon="115.725772">
    <tag k="created_by" v="JOSM"/>
    <tag k="highway" v="trunk"/>
    <tag k="name" v="Old Coast Road"/>
    <tag k="surface" v="paved"/>
  </node>
  <node id="136723763" version="2" timestamp="2010-02-16T20:02:13Z" uid="171838" user="argrath" changeset="3895627" lat="24.4451844" lon="123.020292"/>
  <node id="136723783" version="1" timestamp="2007-11-27T08:03:35Z" uid="4467" user="Rosscoe" changeset="633390" lat="-33.245238" lon="115.72582">
    <tag k="created_by" v="JOSM"/>
    <tag k="highway" v="trunk"/>
    <tag k="name" v="Old Coast Road"/>
    <tag k="surface" v="paved"/>
  </node>
  <node id="136723783" version="2" timestamp="2007-11-27T08:17:20Z" uid="4467" user="Rosscoe" changeset="633390" lat="-33.245238" lon="115.72582">
    <tag k="created_by" v="JOSM"/>
    <tag k="highway" v="trunk"/>
    <tag k="name" v="Old Coast Road"/>
    <tag k="surface" v="paved"/>
  </node>
  <node id="136723811" version="1" timestamp="2007-11-27T08:03:36Z" uid="4467" user="Rosscoe" changeset="633390" lat="-33.245065" lon="115.725867">
    <tag k="created_by" v="JOSM"/>
    <tag k="highway" v="trunk"/>
    <tag k="name" v="Old Coast Road"/>
    <tag k="surface" v="paved"/>
  </node>
  <node id="136723811" version="2" timestamp="2007-11-27T08:17:21Z" uid="4467" user="Rosscoe" changeset="633390" lat="-33.245065" lon="115.725867">
    <tag k="created_by" v="JOSM"/>
    <tag k="highway" v="trunk"/>
    <tag k="name" v="Old Coast Road"/>
    <tag k="surface" v="paved"/>
  </node>
  <node id="136723815" version="2" timestamp="2010-02-16T20:04:02Z" uid="171838" user="argrath" changeset="3895627" lat="24.447651" lon="123.0222789"/>
  <node id="136723839" version="2" timestamp="2010-02-16T20:02:04Z" uid="171838" user="argrath" changeset="3895627" lat="24.448802" lon="123.0235433"/>
  <node id="136723840" version="1" timestamp="2007-11-27T08:03:37Z" uid="4467" user="Rosscoe" changeset="633390" lat="-33.244888" lon="115.725915">
    <tag k="created_by" v="JOSM"/>
    <tag k="highway" v="trunk"/>
    <tag k="name" v="Old Coast Road"/>
    <tag k="surface" v="paved"/>
  </node>
  <node id="136723840" version="2" timestamp="2007-11-27T08:17:04Z" uid="4467" user="Rosscoe" changeset="633390" lat="-33.244888" lon="115.725915">
    <tag k="created_by" v="JOSM"/>
    <tag k="highway" v="trunk"/>
    <tag k="name" v="Old Coast Road"/>
    <tag k="surface" v="paved"/>
  </node>
  <node id="136723866" version="1" timestamp="2007-11-27T08:03:37Z" uid="4467" user="Rosscoe" changeset="633390" lat="-33.244713" lon="115.725965">
    <tag k="created_by" v="JOSM"/>
    <tag k="highway" v="trunk"/>
    <tag k="name" v="Old Coast Road"/>
    <tag k="surface" v="paved"/>
  </node>
  <node id="136723866" version="2" timestamp="2007-11-27T08:17:02Z" uid="4467" user="Rosscoe" changeset="633390" lat="-33.244713" lon="115.725965">
    <tag k="created_by" v="JOSM"/>
    <tag k="highway" v="trunk"/>
    <tag k="name" v="Old Coast Road"/>
    <tag k="surface" v="paved"/>
  </node>
  <node id="136723877" version="1" timestamp="2007-11-27T08:03:38Z" uid="4467" user="Rosscoe" changeset="633390" lat="-33.24453" lon="115.726017">
    <tag k="created_by" v="JOSM"/>
    <tag k="highway" v="trunk"/>
    <tag k="name" v="Old Coast Road"/>
    <tag k="surface" v="paved"/>
  </node>
  <node id="136723877" version="2" timestamp="2007-11-27T08:17:07Z" uid="4467" user="Rosscoe" changeset="633390" lat="-33.24453" lon="115.726017">
    <tag k="created_by" v="JOSM"/>
    <tag k="highway" v="trunk"/>
    <tag k="name" v="Old Coast Road"/>
    <tag k="surface" v="paved"/>
  </node>
  <node id="136723900" version="1" timestamp="2007-11-27T08:03:39Z" uid="4467" user="Rosscoe" changeset="633390" lat="-33.244348" lon="115.726063">
    <tag k="created_by" v="JOSM"/>
    <tag k="highway" v="trunk"/>
    <tag k="name" v="Old Coast Road"/>
    <tag k="surface" v="paved"/>
  </node>
  <node id="136723900" version="2" timestamp="2007-11-27T08:17:06Z" uid="4467" user="Rosscoe" changeset="633390" lat="-33.244348" lon="115.726063">
    <tag k="created_by" v="JOSM"/>
    <tag k="highway" v="trunk"/>
    <tag k="name" v="Old Coast Road"/>
    <tag k="surface" v="paved"/>
  </node>
  <node id="136723930" version="1" timestamp="2007-11-27T08:03:40Z" uid="4467" user="Rosscoe" changeset="633390" lat="-33.244162" lon="115.726112">
    <tag k="created_by" v="JOSM"/>
    <tag k="highway" v="trunk"/>
    <tag k="name" v="Old Coast Road"/>
    <tag k="surface" v="paved"/>
  </node>
  <node id="136723930" version="2" timestamp="2007-11-27T08:17:10Z" uid="4467" user="Rosscoe" changeset="633390" lat="-33.244162" lon="115.726112">
    <tag k="created_by" v="JOSM"/>
    <tag k="highway" v="trunk"/>
    <tag k="name" v="Old Coast Road"/>
    <tag k="surface" v="paved"/>
  </node>
  <node id="136723942" version="2" timestamp="2010-02-16T20:02:03Z" uid="171838" user="argrath" changeset="3895627" lat="24.45782" lon="123.0390822"/>
  <node id="136723955" version="1" timestamp="2007-11-27T08:03:41Z" uid="4467" user="Rosscoe" changeset="633390" lat="-33.24397" lon="115.726162">
    <tag k="created_by" v="JOSM"/>
    <tag k="highway" v="trunk"/>
    <tag k="name" v="Old Coast Road"/>
    <tag k="surface" v="paved"/>
  </node>
  <node id="136723955" version="2" timestamp="2007-11-27T08:17:12Z" uid="4467" user="Rosscoe" changeset="633390" lat="-33.24397" lon="115.726162">
    <tag k="created_by" v="JOSM"/>
    <tag k="highway" v="trunk"/>
    <tag k="name" v="Old Coast Road"/>
    <tag k="surface" v="paved"/>
  </node>
  <node id="136723959" version="2" timestamp="2010-02-16T20:02:04Z" uid="171838" user="argrath" changeset="3895627" lat="24.4597505" lon="123.0418658"/>
  <node id="136723989" version="1" timestamp="2007-11-27T08:03:42Z" uid="4467" user="Rosscoe" changeset="633390" lat="-33.243773" lon="115.726213">
    <tag k="created_by" v="JOSM"/>
    <tag k="highway" v="trunk"/>
    <tag k="name" v="Old Coast Road"/>
    <tag k="surface" v="paved"/>
  </node>
  <node id="136723989" version="2" timestamp="2007-11-27T08:16:56Z" uid="4467" user="Rosscoe" changeset="633390" lat="-33.243773" lon="115.726213">
    <tag k="created_by" v="JOSM"/>
    <tag k="highway" v="trunk"/>
    <tag k="name" v="Old Coast Road"/>
    <tag k="surface" v="paved"/>
  </node>
  <node id="136723991" version="2" timestamp="2010-02-16T20:03:35Z" uid="171838" user="argrath" changeset="3895627" lat="24.4615604" lon="123.0439866"/>
  <node id="136724019" version="2" timestamp="2010-02-16T20:01:50Z" uid="171838" user="argrath" changeset="3895627" lat="24.4628876" lon="123.0438541"/>
  <node id="136724025" version="1" timestamp="2007-11-27T08:03:42Z" uid="4467" user="Rosscoe" changeset="633390" lat="-33.243577" lon="115.726268">
    <tag k="created_by" v="JOSM"/>
    <tag k="highway" v="trunk"/>
    <tag k="name" v="Old Coast Road"/>
    <tag k="surface" v="paved"/>
  </node>
  <node id="136724025" version="2" timestamp="2007-11-27T08:16:52Z" uid="4467" user="Rosscoe" changeset="633390" lat="-33.243577" lon="115.726268">
    <tag k="created_by" v="JOSM"/>
    <tag k="highway" v="trunk"/>
    <tag k="name" v="Old Coast Road"/>
    <tag k="surface" v="paved"/>
  </node>
  <node id="136724040" version="2" timestamp="2010-02-16T20:01:25Z" uid="171838" user="argrath" changeset="3895627" lat="24.4719143" lon="123.0185074"/>
  <node id="136724050" version="1" timestamp="2007-11-27T08:03:43Z" uid="4467" user="Rosscoe" changeset="633390" lat="-33.243373" lon="115.726323">
    <tag k="created_by" v="JOSM"/>
    <tag k="highway" v="trunk"/>
    <tag k="name" v="Old Coast Road"/>
    <tag k="surface" v="paved"/>
  </node>
  <node id="136724050" version="2" timestamp="2007-11-27T08:17:01Z" uid="4467" user="Rosscoe" changeset="633390" lat="-33.243373" lon="115.726323">
    <tag k="created_by" v="JOSM"/>
    <tag k="highway" v="trunk"/>
    <tag k="name" v="Old Coast Road"/>
    <tag k="surface" v="paved"/>
  </node>
  <node id="136724062" version="2" timestamp="2010-02-16T20:03:24Z" uid="171838" user="argrath" changeset="3895627" lat="24.472898" lon="123.0133196"/>
  <node id="136724074" version="1" timestamp="2007-11-27T08:03:44Z" uid="4467" user="Rosscoe" changeset="633390" lat="-33.24317" lon="115.72638">
    <tag k="created_by" v="JOSM"/>
    <tag k="highway" v="trunk"/>
    <tag k="name" v="Old Coast Road"/>
    <tag k="surface" v="paved"/>
  </node>
  <node id="136724074" version="2" timestamp="2007-11-27T08:16:56Z" uid="4467" user="Rosscoe" changeset="633390" lat="-33.24317" lon="115.72638">
    <tag k="created_by" v="JOSM"/>
    <tag k="highway" v="trunk"/>
    <tag k="name" v="Old Coast Road"/>
    <tag k="surface" v="paved"/>
  </node>
  <node id="136724081" version="2" timestamp="2010-02-16T20:03:41Z" uid="171838" user="argrath" changeset="3895627" lat="24.472898" lon="123.0109418"/>
  <node id="136724101" version="1" timestamp="2007-11-27T08:03:45Z" uid="4467" user="Rosscoe" changeset="633390" lat="-33.242963" lon="115.726437">
    <tag k="created_by" v="JOSM"/>
    <tag k="highway" v="trunk"/>
    <tag k="name" v="Old Coast Road"/>
    <tag k="surface" v="paved"/>
  </node>
  <node id="136724101" version="2" timestamp="2007-11-27T08:16:43Z" uid="4467" user="Rosscoe" changeset="633390" lat="-33.242963" lon="115.726437">
    <tag k="created_by" v="JOSM"/>
    <tag k="highway" v="trunk"/>
    <tag k="name" v="Old Coast Road"/>
    <tag k="surface" v="paved"/>
  </node>
  <node id="136724103" version="2" timestamp="2010-02-16T20:01:52Z" uid="171838" user="argrath" changeset="3895627" lat="24.4724061" lon="123.005862"/>
  <node id="136724133" version="2" timestamp="2010-02-16T20:02:43Z" uid="171838" user="argrath" changeset="3895627" lat="24.4720126" lon="123.0013226"/>
  <node id="136724137" version="1" timestamp="2007-11-27T08:03:45Z" uid="4467" user="Rosscoe" changeset="633390" lat="-33.242753" lon="115.726495">
    <tag k="created_by" v="JOSM"/>
    <tag k="highway" v="trunk"/>
    <tag k="name" v="Old Coast Road"/>
    <tag k="surface" v="paved"/>
  </node>
  <node id="136724137" version="2" timestamp="2007-11-27T08:16:41Z" uid="4467" user="Rosscoe" changeset="633390" lat="-33.242753" lon="115.726495">
    <tag k="created_by" v="JOSM"/>
    <tag k="highway" v="trunk"/>
    <tag k="name" v="Old Coast Road"/>
    <tag k="surface" v="paved"/>
  </node>
  <node id="136724158" version="2" timestamp="2010-02-16T20:02:49Z" uid="171838" user="argrath" changeset="3895627" lat="24.4711223" lon="123.0002648"/>
  <node id="136724164" version="1" timestamp="2007-11-27T08:03:46Z" uid="4467" user="Rosscoe" changeset="633390" lat="-33.242542" lon="115.726557">
    <tag k="created_by" v="JOSM"/>
    <tag k="highway" v="trunk"/>
    <tag k="name" v="Old Coast Road"/>
    <tag k="surface" v="paved"/>
  </node>
  <node id="136724164" version="2" timestamp="2007-11-27T08:16:49Z" uid="4467" user="Rosscoe" changeset="633390" lat="-33.242542" lon="115.726557">
    <tag k="created_by" v="JOSM"/>
    <tag k="highway" v="trunk"/>
    <tag k="name" v="Old Coast Road"/>
    <tag k="surface" v="paved"/>
  </node>
  <node id="136724189" version="1" timestamp="2007-11-27T08:03:47Z" uid="4467" user="Rosscoe" changeset="633390" lat="-33.242335" lon="115.726622">
    <tag k="created_by" v="JOSM"/>
    <tag k="highway" v="trunk"/>
    <tag k="name" v="Old Coast Road"/>
    <tag k="surface" v="paved"/>
  </node>
  <node id="136724189" version="2" timestamp="2007-11-27T08:16:50Z" uid="4467" user="Rosscoe" changeset="633390" lat="-33.242335" lon="115.726622">
    <tag k="created_by" v="JOSM"/>
    <tag k="highway" v="trunk"/>
    <tag k="name" v="Old Coast Road"/>
    <tag k="surface" v="paved"/>
  </node>
  <node id="136724216" version="1" timestamp="2007-11-27T08:03:48Z" uid="4467" user="Rosscoe" changeset="633390" lat="-33.242122" lon="115.726683">
    <tag k="created_by" v="JOSM"/>
    <tag k="highway" v="trunk"/>
    <tag k="name" v="Old Coast Road"/>
    <tag k="surface" v="paved"/>
  </node>
  <node id="136724216" version="2" timestamp="2007-11-27T08:16:48Z" uid="4467" user="Rosscoe" changeset="633390" lat="-33.242122" lon="115.726683">
    <tag k="created_by" v="JOSM"/>
    <tag k="highway" v="trunk"/>
    <tag k="name" v="Old Coast Road"/>
    <tag k="surface" v="paved"/>
  </node>
  <node id="136724248" version="1" timestamp="2007-11-27T08:03:48Z" uid="4467" user="Rosscoe" changeset="633390" lat="-33.241915" lon="115.726745">
    <tag k="created_by" v="JOSM"/>
    <tag k="highway" v="trunk"/>
    <tag k="name" v="Old Coast Road"/>
    <tag k="surface" v="paved"/>
  </node>
  <node id="136724248" version="2" timestamp="2007-11-27T08:16:34Z" uid="4467" user="Rosscoe" changeset="633390" lat="-33.241915" lon="115.726745">
    <tag k="created_by" v="JOSM"/>
    <tag k="highway" v="trunk"/>
    <tag k="name" v="Old Coast Road"/>
    <tag k="surface" v="paved"/>
  </node>
  <node id="136724283" version="1" timestamp="2007-11-27T08:03:49Z" uid="4467" user="Rosscoe" changeset="633390" lat="-33.241707" lon="115.726803">
    <tag k="created_by" v="JOSM"/>
    <tag k="highway" v="trunk"/>
    <tag k="name" v="Old Coast Road"/>
    <tag k="surface" v="paved"/>
  </node>
  <node id="136724283" version="2" timestamp="2007-11-27T08:16:31Z" uid="4467" user="Rosscoe" changeset="633390" lat="-33.241707" lon="115.726803">
    <tag k="created_by" v="JOSM"/>
    <tag k="highway" v="trunk"/>
    <tag k="name" v="Old Coast Road"/>
    <tag k="surface" v="paved"/>
  </node>
  <node id="136724306" version="1" timestamp="2007-11-27T08:03:50Z" uid="4467" user="Rosscoe" changeset="633390" lat="-33.241498" lon="115.726865">
    <tag k="created_by" v="JOSM"/>
    <tag k="highway" v="trunk"/>
    <tag k="name" v="Old Coast Road"/>
    <tag k="surface" v="paved"/>
  </node>
  <node id="136724306" version="2" timestamp="2007-11-27T08:16:40Z" uid="4467" user="Rosscoe" changeset="633390" lat="-33.241498" lon="115.726865">
    <tag k="created_by" v="JOSM"/>
    <tag k="highway" v="trunk"/>
    <tag k="name" v="Old Coast Road"/>
    <tag k="surface" v="paved"/>
  </node>
  <node id="136724335" version="1" timestamp="2007-11-27T08:03:51Z" uid="4467" user="Rosscoe" changeset="633390" lat="-33.241288" lon="115.726928">
    <tag k="created_by" v="JOSM"/>
    <tag k="highway" v="trunk"/>
    <tag k="name" v="Old Coast Road"/>
    <tag k="surface" v="paved"/>
  </node>
  <node id="136724335" version="2" timestamp="2007-11-27T08:16:37Z" uid="4467" user="Rosscoe" changeset="633390" lat="-33.241288" lon="115.726928">
    <tag k="created_by" v="JOSM"/>
    <tag k="highway" v="trunk"/>
    <tag k="name" v="Old Coast Road"/>
    <tag k="surface" v="paved"/>
  </node>
  <node id="136724365" version="1" timestamp="2007-11-27T08:03:52Z" uid="4467" user="Rosscoe" changeset="633390" lat="-33.241082" lon="115.726992">
    <tag k="created_by" v="JOSM"/>
    <tag k="highway" v="trunk"/>
    <tag k="name" v="Old Coast Road"/>
    <tag k="surface" v="paved"/>
  </node>
  <node id="136724365" version="2" timestamp="2007-11-27T08:16:25Z" uid="4467" user="Rosscoe" changeset="633390" lat="-33.241082" lon="115.726992">
    <tag k="created_by" v="JOSM"/>
    <tag k="highway" v="trunk"/>
    <tag k="name" v="Old Coast Road"/>
    <tag k="surface" v="paved"/>
  </node>
  <node id="136724396" version="1" timestamp="2007-11-27T08:03:52Z" uid="4467" user="Rosscoe" changeset="633390" lat="-33.240867" lon="115.727053">
    <tag k="created_by" v="JOSM"/>
    <tag k="highway" v="trunk"/>
    <tag k="name" v="Old Coast Road"/>
    <tag k="surface" v="paved"/>
  </node>
  <node id="136724396" version="2" timestamp="2007-11-27T08:16:22Z" uid="4467" user="Rosscoe" changeset="633390" lat="-33.240867" lon="115.727053">
    <tag k="created_by" v="JOSM"/>
    <tag k="highway" v="trunk"/>
    <tag k="name" v="Old Coast Road"/>
    <tag k="surface" v="paved"/>
  </node>
  <node id="136724418" version="1" timestamp="2007-11-27T08:03:53Z" uid="4467" user="Rosscoe" changeset="633390" lat="-33.24065" lon="115.727117">
    <tag k="created_by" v="JOSM"/>
    <tag k="highway" v="trunk"/>
    <tag k="name" v="Old Coast Road"/>
    <tag k="surface" v="paved"/>
  </node>
  <node id="136724418" version="2" timestamp="2007-11-27T08:16:29Z" uid="4467" user="Rosscoe" changeset="633390" lat="-33.24065" lon="115.727117">
    <tag k="created_by" v="JOSM"/>
    <tag k="highway" v="trunk"/>
    <tag k="name" v="Old Coast Road"/>
    <tag k="surface" v="paved"/>
  </node>
  <node id="136724447" version="1" timestamp="2007-11-27T08:03:54Z" uid="4467" user="Rosscoe" changeset="633390" lat="-33.240437" lon="115.727178">
    <tag k="created_by" v="JOSM"/>
    <tag k="highway" v="trunk"/>
    <tag k="name" v="Old Coast Road"/>
    <tag k="surface" v="paved"/>
  </node>
  <node id="136724447" version="2" timestamp="2007-11-27T08:16:28Z" uid="4467" user="Rosscoe" changeset="633390" lat="-33.240437" lon="115.727178">
    <tag k="created_by" v="JOSM"/>
    <tag k="highway" v="trunk"/>
    <tag k="name" v="Old Coast Road"/>
    <tag k="surface" v="paved"/>
  </node>
  <node id="136724479" version="1" timestamp="2007-11-27T08:03:55Z" uid="4467" user="Rosscoe" changeset="633390" lat="-33.24022" lon="115.727237">
    <tag k="created_by" v="JOSM"/>
    <tag k="highway" v="trunk"/>
    <tag k="name" v="Old Coast Road"/>
    <tag k="surface" v="paved"/>
  </node>
  <node id="136724479" version="2" timestamp="2007-11-27T08:16:25Z" uid="4467" user="Rosscoe" changeset="633390" lat="-33.24022" lon="115.727237">
    <tag k="created_by" v="JOSM"/>
    <tag k="highway" v="trunk"/>
    <tag k="name" v="Old Coast Road"/>
    <tag k="surface" v="paved"/>
  </node>
  <node id="136724514" version="1" timestamp="2007-11-27T08:03:56Z" uid="4467" user="Rosscoe" changeset="633390" lat="-33.240003" lon="115.727292">
    <tag k="created_by" v="JOSM"/>
    <tag k="highway" v="trunk"/>
    <tag k="name" v="Old Coast Road"/>
    <tag k="surface" v="paved"/>
  </node>
  <node id="136724514" version="2" timestamp="2007-11-27T08:16:33Z" uid="4467" user="Rosscoe" changeset="633390" lat="-33.240003" lon="115.727292">
    <tag k="created_by" v="JOSM"/>
    <tag k="highway" v="trunk"/>
    <tag k="name" v="Old Coast Road"/>
    <tag k="surface" v="paved"/>
  </node>
  <node id="136724541" version="1" timestamp="2007-11-27T08:03:56Z" uid="4467" user="Rosscoe" changeset="633390" lat="-33.239792" lon="115.727353">
    <tag k="created_by" v="JOSM"/>
    <tag k="highway" v="trunk"/>
    <tag k="name" v="Old Coast Road"/>
    <tag k="surface" v="paved"/>
  </node>
  <node id="136724541" version="2" timestamp="2007-11-27T08:16:32Z" uid="4467" user="Rosscoe" changeset="633390" lat="-33.239792" lon="115.727353">
    <tag k="created_by" v="JOSM"/>
    <tag k="highway" v="trunk"/>
    <tag k="name" v="Old Coast Road"/>
    <tag k="surface" v="paved"/>
  </node>
  <node id="136724561" version="1" timestamp="2007-11-27T08:03:57Z" uid="4467" user="Rosscoe" changeset="633390" lat="-33.239572" lon="115.727422">
    <tag k="created_by" v="JOSM"/>
    <tag k="highway" v="trunk"/>
    <tag k="name" v="Old Coast Road"/>
    <tag k="surface" v="paved"/>
  </node>
  <node id="136724561" version="2" timestamp="2007-11-27T08:16:39Z" uid="4467" user="Rosscoe" changeset="633390" lat="-33.239572" lon="115.727422">
    <tag k="created_by" v="JOSM"/>
    <tag k="highway" v="trunk"/>
    <tag k="name" v="Old Coast Road"/>
    <tag k="surface" v="paved"/>
  </node>
  <node id="136724592" version="1" timestamp="2007-11-27T08:03:58Z" uid="4467" user="Rosscoe" changeset="633390" lat="-33.239352" lon="115.72748">
    <tag k="created_by" v="JOSM"/>
    <tag k="highway" v="trunk"/>
    <tag k="name" v="Old Coast Road"/>
    <tag k="surface" v="paved"/>
  </node>
  <node id="136724592" version="2" timestamp="2007-11-27T08:16:36Z" uid="4467" user="Rosscoe" changeset="633390" lat="-33.239352" lon="115.72748">
    <tag k="created_by" v="JOSM"/>
    <tag k="highway" v="trunk"/>
    <tag k="name" v="Old Coast Road"/>
    <tag k="surface" v="paved"/>
  </node>
  <node id="136724617" version="1" timestamp="2007-11-27T08:03:59Z" uid="4467" user="Rosscoe" changeset="633390" lat="-33.239135" lon="115.727532">
    <tag k="created_by" v="JOSM"/>
    <tag k="highway" v="trunk"/>
    <tag k="name" v="Old Coast Road"/>
    <tag k="surface" v="paved"/>
  </node>
  <node id="136724617" version="2" timestamp="2007-11-27T08:16:23Z" uid="4467" user="Rosscoe" changeset="633390" lat="-33.239135" lon="115.727532">
    <tag k="created_by" v="JOSM"/>
    <tag k="highway" v="trunk"/>
    <tag k="name" v="Old Coast Road"/>
    <tag k="surface" v="paved"/>
  </node>
  <node id="136724653" version="1" timestamp="2007-11-27T08:03:59Z" uid="4467" user="Rosscoe" changeset="633390" lat="-33.238913" lon="115.727597">
    <tag k="created_by" v="JOSM"/>
    <tag k="highway" v="trunk"/>
    <tag k="name" v="Old Coast Road"/>
    <tag k="surface" v="paved"/>
  </node>
  <node id="136724653" version="2" timestamp="2007-11-27T08:16:21Z" uid="4467" user="Rosscoe" changeset="633390" lat="-33.238913" lon="115.727597">
    <tag k="created_by" v="JOSM"/>
    <tag k="highway" v="trunk"/>
    <tag k="name" v="Old Coast Road"/>
    <tag k="surface" v="paved"/>
  </node>
  <node id="136724684" version="1" timestamp="2007-11-27T08:04:00Z" uid="4467" user="Rosscoe" changeset="633390" lat="-33.238692" lon="115.727643">
    <tag k="created_by" v="JOSM"/>
    <tag k="highway" v="trunk"/>
    <tag k="name" v="Old Coast Road"/>
    <tag k="surface" v="paved"/>
  </node>
  <node id="136724684" version="2" timestamp="2007-11-27T08:16:29Z" uid="4467" user="Rosscoe" changeset="633390" lat="-33.238692" lon="115.727643">
    <tag k="created_by" v="JOSM"/>
    <tag k="highway" v="trunk"/>
    <tag k="name" v="Old Coast Road"/>
    <tag k="surface" v="paved"/>
  </node>
  <node id="136724715" version="1" timestamp="2007-11-27T08:04:01Z" uid="4467" user="Rosscoe" changeset="633390" lat="-33.23847" lon="115.72769">
    <tag k="created_by" v="JOSM"/>
    <tag k="highway" v="trunk"/>
    <tag k="name" v="Old Coast Road"/>
    <tag k="surface" v="paved"/>
  </node>
  <node id="136724715" version="2" timestamp="2007-11-27T08:16:26Z" uid="4467" user="Rosscoe" changeset="633390" lat="-33.23847" lon="115.72769">
    <tag k="created_by" v="JOSM"/>
    <tag k="highway" v="trunk"/>
    <tag k="name" v="Old Coast Road"/>
    <tag k="surface" v="paved"/>
  </node>
  <node id="136724748" version="1" timestamp="2007-11-27T08:04:02Z" uid="4467" user="Rosscoe" changeset="633390" lat="-33.238237" lon="115.727745">
    <tag k="created_by" v="JOSM"/>
    <tag k="highway" v="trunk"/>
    <tag k="name" v="Old Coast Road"/>
    <tag k="surface" v="paved"/>
  </node>
  <node id="136724748" version="2" timestamp="2007-11-27T08:16:54Z" uid="4467" user="Rosscoe" changeset="633390" lat="-33.238237" lon="115.727745">
    <tag k="created_by" v="JOSM"/>
    <tag k="highway" v="trunk"/>
    <tag k="name" v="Old Coast Road"/>
    <tag k="surface" v="paved"/>
  </node>
  <node id="136724784" version="1" timestamp="2007-11-27T08:04:03Z" uid="4467" user="Rosscoe" changeset="633390" lat="-33.238005" lon="115.72778">
    <tag k="created_by" v="JOSM"/>
    <tag k="highway" v="trunk"/>
    <tag k="name" v="Old Coast Road"/>
    <tag k="surface" v="paved"/>
  </node>
  <node id="136724784" version="2" timestamp="2007-11-27T08:16:53Z" uid="4467" user="Rosscoe" changeset="633390" lat="-33.238005" lon="115.72778">
    <tag k="created_by" v="JOSM"/>
    <tag k="highway" v="trunk"/>
    <tag k="name" v="Old Coast Road"/>
    <tag k="surface" v="paved"/>
  </node>
  <node id="136724804" version="1" timestamp="2007-11-27T08:04:03Z" uid="4467" user="Rosscoe" changeset="633390" lat="-33.237775" lon="115.727803">
    <tag k="created_by" v="JOSM"/>
    <tag k="highway" v="trunk"/>
    <tag k="name" v="Old Coast Road"/>
    <tag k="surface" v="paved"/>
  </node>
  <node id="136724804" version="2" timestamp="2007-11-27T08:16:59Z" uid="4467" user="Rosscoe" changeset="633390" lat="-33.237775" lon="115.727803">
    <tag k="created_by" v="JOSM"/>
    <tag k="highway" v="trunk"/>
    <tag k="name" v="Old Coast Road"/>
    <tag k="surface" v="paved"/>
  </node>
  <node id="136724831" version="1" timestamp="2007-11-27T08:04:04Z" uid="4467" user="Rosscoe" changeset="633390" lat="-33.237545" lon="115.727815">
    <tag k="created_by" v="JOSM"/>
    <tag k="highway" v="trunk"/>
    <tag k="name" v="Old Coast Road"/>
    <tag k="surface" v="paved"/>
  </node>
  <node id="136724831" version="2" timestamp="2007-11-27T08:17:00Z" uid="4467" user="Rosscoe" changeset="633390" lat="-33.237545" lon="115.727815">
    <tag k="created_by" v="JOSM"/>
    <tag k="highway" v="trunk"/>
    <tag k="name" v="Old Coast Road"/>
    <tag k="surface" v="paved"/>
  </node>
  <node id="136724862" version="1" timestamp="2007-11-27T08:04:05Z" uid="4467" user="Rosscoe" changeset="633390" lat="-33.237315" lon="115.727818">
    <tag k="created_by" v="JOSM"/>
    <tag k="highway" v="trunk"/>
    <tag k="name" v="Old Coast Road"/>
    <tag k="surface" v="paved"/>
  </node>
  <node id="136724862" version="2" timestamp="2007-11-27T08:16:57Z" uid="4467" user="Rosscoe" changeset="633390" lat="-33.237315" lon="115.727818">
    <tag k="created_by" v="JOSM"/>
    <tag k="highway" v="trunk"/>
    <tag k="name" v="Old Coast Road"/>
    <tag k="surface" v="paved"/>
  </node>
  <node id="136724887" version="1" timestamp="2007-11-27T08:04:06Z" uid="4467" user="Rosscoe" changeset="633390" lat="-33.237088" lon="115.727812">
    <tag k="created_by" v="JOSM"/>
    <tag k="highway" v="trunk"/>
    <tag k="name" v="Old Coast Road"/>
    <tag k="surface" v="paved"/>
  </node>
  <node id="136724887" version="2" timestamp="2007-11-27T08:16:45Z" uid="4467" user="Rosscoe" changeset="633390" lat="-33.237088" lon="115.727812">
    <tag k="created_by" v="JOSM"/>
    <tag k="highway" v="trunk"/>
    <tag k="name" v="Old Coast Road"/>
    <tag k="surface" v="paved"/>
  </node>
  <node id="136724923" version="1" timestamp="2007-11-27T08:04:06Z" uid="4467" user="Rosscoe" changeset="633390" lat="-33.236857" lon="115.727802">
    <tag k="created_by" v="JOSM"/>
    <tag k="highway" v="trunk"/>
    <tag k="name" v="Old Coast Road"/>
    <tag k="surface" v="paved"/>
  </node>
  <node id="136724923" version="2" timestamp="2007-11-27T08:16:42Z" uid="4467" user="Rosscoe" changeset="633390" lat="-33.236857" lon="115.727802">
    <tag k="created_by" v="JOSM"/>
    <tag k="highway" v="trunk"/>
    <tag k="name" v="Old Coast Road"/>
    <tag k="surface" v="paved"/>
  </node>
  <node id="136724947" version="1" timestamp="2007-11-27T08:04:07Z" uid="4467" user="Rosscoe" changeset="633390" lat="-33.236628" lon="115.727787">
    <tag k="created_by" v="JOSM"/>
    <tag k="highway" v="trunk"/>
    <tag k="name" v="Old Coast Road"/>
    <tag k="surface" v="paved"/>
  </node>
  <node id="136724947" version="2" timestamp="2007-11-27T08:16:51Z" uid="4467" user="Rosscoe" changeset="633390" lat="-33.236628" lon="115.727787">
    <tag k="created_by" v="JOSM"/>
    <tag k="highway" v="trunk"/>
    <tag k="name" v="Old Coast Road"/>
    <tag k="surface" v="paved"/>
  </node>
  <node id="136724965" version="1" timestamp="2007-11-27T08:04:08Z" uid="4467" user="Rosscoe" changeset="633390" lat="-33.2364" lon="115.72778">
    <tag k="created_by" v="JOSM"/>
    <tag k="highway" v="trunk"/>
    <tag k="name" v="Old Coast Road"/>
    <tag k="surface" v="paved"/>
  </node>
  <node id="136724965" version="2" timestamp="2007-11-27T08:16:46Z" uid="4467" user="Rosscoe" changeset="633390" lat="-33.2364" lon="115.72778">
    <tag k="created_by" v="JOSM"/>
    <tag k="highway" v="trunk"/>
    <tag k="name" v="Old Coast Road"/>
    <tag k="surface" v="paved"/>
  </node>
  <node id="136724990" version="1" timestamp="2007-11-27T08:04:09Z" uid="4467" user="Rosscoe" changeset="633390" lat="-33.23617" lon="115.727767">
    <tag k="created_by" v="JOSM"/>
    <tag k="highway" v="trunk"/>
    <tag k="name" v="Old Coast Road"/>
    <tag k="surface" v="paved"/>
  </node>
  <node id="136724990" version="2" timestamp="2007-11-27T08:16:46Z" uid="4467" user="Rosscoe" changeset="633390" lat="-33.23617" lon="115.727767">
    <tag k="created_by" v="JOSM"/>
    <tag k="highway" v="trunk"/>
    <tag k="name" v="Old Coast Road"/>
    <tag k="surface" v="paved"/>
  </node>
  <node id="136725016" version="1" timestamp="2007-11-27T08:04:10Z" uid="4467" user="Rosscoe" changeset="633390" lat="-33.235942" lon="115.727753">
    <tag k="created_by" v="JOSM"/>
    <tag k="highway" v="trunk"/>
    <tag k="name" v="Old Coast Road"/>
    <tag k="surface" v="paved"/>
  </node>
  <node id="136725016" version="2" timestamp="2007-11-27T08:17:14Z" uid="4467" user="Rosscoe" changeset="633390" lat="-33.235942" lon="115.727753">
    <tag k="created_by" v="JOSM"/>
    <tag k="highway" v="trunk"/>
    <tag k="name" v="Old Coast Road"/>
    <tag k="surface" v="paved"/>
  </node>
  <node id="136725050" version="1" timestamp="2007-11-27T08:04:10Z" uid="4467" user="Rosscoe" changeset="633390" lat="-33.23571" lon="115.727737">
    <tag k="created_by" v="JOSM"/>
    <tag k="highway" v="trunk"/>
    <tag k="name" v="Old Coast Road"/>
    <tag k="surface" v="paved"/>
  </node>
  <node id="136725050" version="2" timestamp="2007-11-27T08:17:16Z" uid="4467" user="Rosscoe" changeset="633390" lat="-33.23571" lon="115.727737">
    <tag k="created_by" v="JOSM"/>
    <tag k="highway" v="trunk"/>
    <tag k="name" v="Old Coast Road"/>
    <tag k="surface" v="paved"/>
  </node>
  <node id="136725079" version="1" timestamp="2007-11-27T08:04:11Z" uid="4467" user="Rosscoe" changeset="633390" lat="-33.235473" lon="115.727723">
    <tag k="created_by" v="JOSM"/>
    <tag k="highway" v="trunk"/>
    <tag k="name" v="Old Coast Road"/>
    <tag k="surface" v="paved"/>
  </node>
  <node id="136725079" version="2" timestamp="2007-11-27T08:17:18Z" uid="4467" user="Rosscoe" changeset="633390" lat="-33.235473" lon="115.727723">
    <tag k="created_by" v="JOSM"/>
    <tag k="highway" v="trunk"/>
    <tag k="name" v="Old Coast Road"/>
    <tag k="surface" v="paved"/>
  </node>
  <node id="136725100" version="1" timestamp="2007-11-27T08:04:12Z" uid="4467" user="Rosscoe" changeset="633390" lat="-33.235247" lon="115.727712">
    <tag k="created_by" v="JOSM"/>
    <tag k="highway" v="trunk"/>
    <tag k="name" v="Old Coast Road"/>
    <tag k="surface" v="paved"/>
  </node>
  <node id="136725100" version="2" timestamp="2007-11-27T08:17:22Z" uid="4467" user="Rosscoe" changeset="633390" lat="-33.235247" lon="115.727712">
    <tag k="created_by" v="JOSM"/>
    <tag k="highway" v="trunk"/>
    <tag k="name" v="Old Coast Road"/>
    <tag k="surface" v="paved"/>
  </node>
  <node id="136725124" version="1" timestamp="2007-11-27T08:04:13Z" uid="4467" user="Rosscoe" changeset="633390" lat="-33.235025" lon="115.7277">
    <tag k="created_by" v="JOSM"/>
    <tag k="highway" v="trunk"/>
    <tag k="name" v="Old Coast Road"/>
    <tag k="surface" v="paved"/>
  </node>
  <node id="136725124" version="2" timestamp="2007-11-27T08:17:05Z" uid="4467" user="Rosscoe" changeset="633390" lat="-33.235025" lon="115.7277">
    <tag k="created_by" v="JOSM"/>
    <tag k="highway" v="trunk"/>
    <tag k="name" v="Old Coast Road"/>
    <tag k="surface" v="paved"/>
  </node>
  <node id="136725158" version="1" timestamp="2007-11-27T08:04:14Z" uid="4467" user="Rosscoe" changeset="633390" lat="-33.234807" lon="115.727685">
    <tag k="created_by" v="JOSM"/>
    <tag k="highway" v="trunk"/>
    <tag k="name" v="Old Coast Road"/>
    <tag k="surface" v="paved"/>
  </node>
  <node id="136725158" version="2" timestamp="2007-11-27T08:17:08Z" uid="4467" user="Rosscoe" changeset="633390" lat="-33.234807" lon="115.727685">
    <tag k="created_by" v="JOSM"/>
    <tag k="highway" v="trunk"/>
    <tag k="name" v="Old Coast Road"/>
    <tag k="surface" v="paved"/>
  </node>
  <node id="136725184" version="1" timestamp="2007-11-27T08:04:14Z" uid="4467" user="Rosscoe" changeset="633390" lat="-33.234593" lon="115.727672">
    <tag k="created_by" v="JOSM"/>
    <tag k="highway" v="trunk"/>
    <tag k="name" v="Old Coast Road"/>
    <tag k="surface" v="paved"/>
  </node>
  <node id="136725184" version="2" timestamp="2007-11-27T08:17:11Z" uid="4467" user="Rosscoe" changeset="633390" lat="-33.234593" lon="115.727672">
    <tag k="created_by" v="JOSM"/>
    <tag k="highway" v="trunk"/>
    <tag k="name" v="Old Coast Road"/>
    <tag k="surface" v="paved"/>
  </node>
  <node id="136725215" version="1" timestamp="2007-11-27T08:04:15Z" uid="4467" user="Rosscoe" changeset="633390" lat="-33.23439" lon="115.727657">
    <tag k="created_by" v="JOSM"/>
    <tag k="highway" v="trunk"/>
    <tag k="name" v="Old Coast Road"/>
    <tag k="surface" v="paved"/>
  </node>
  <node id="136725215" version="2" timestamp="2007-11-27T08:17:09Z" uid="4467" user="Rosscoe" changeset="633390" lat="-33.23439" lon="115.727657">
    <tag k="created_by" v="JOSM"/>
    <tag k="highway" v="trunk"/>
    <tag k="name" v="Old Coast Road"/>
    <tag k="surface" v="paved"/>
  </node>
  <node id="136725250" version="1" timestamp="2007-11-27T08:04:16Z" uid="4467" user="Rosscoe" changeset="633390" lat="-33.234183" lon="115.72764">
    <tag k="created_by" v="JOSM"/>
    <tag k="highway" v="trunk"/>
    <tag k="name" v="Old Coast Road"/>
    <tag k="surface" v="paved"/>
  </node>
  <node id="136725250" version="2" timestamp="2007-11-27T08:17:32Z" uid="4467" user="Rosscoe" changeset="633390" lat="-33.234183" lon="115.72764">
    <tag k="created_by" v="JOSM"/>
    <tag k="highway" v="trunk"/>
    <tag k="name" v="Old Coast Road"/>
    <tag k="surface" v="paved"/>
  </node>
  <node id="136725279" version="1" timestamp="2007-11-27T08:04:17Z" uid="4467" user="Rosscoe" changeset="633390" lat="-33.233982" lon="115.727627">
    <tag k="created_by" v="JOSM"/>
    <tag k="highway" v="trunk"/>
    <tag k="name" v="Old Coast Road"/>
    <tag k="surface" v="paved"/>
  </node>
  <node id="136725279" version="2" timestamp="2007-11-27T08:17:34Z" uid="4467" user="Rosscoe" changeset="633390" lat="-33.233982" lon="115.727627">
    <tag k="created_by" v="JOSM"/>
    <tag k="highway" v="trunk"/>
    <tag k="name" v="Old Coast Road"/>
    <tag k="surface" v="paved"/>
  </node>
  <node id="136725305" version="1" timestamp="2007-11-27T08:04:18Z" uid="4467" user="Rosscoe" changeset="633390" lat="-33.233792" lon="115.727613">
    <tag k="created_by" v="JOSM"/>
    <tag k="highway" v="trunk"/>
    <tag k="name" v="Old Coast Road"/>
    <tag k="surface" v="paved"/>
  </node>
  <node id="136725305" version="2" timestamp="2007-11-27T08:17:37Z" uid="4467" user="Rosscoe" changeset="633390" lat="-33.233792" lon="115.727613">
    <tag k="created_by" v="JOSM"/>
    <tag k="highway" v="trunk"/>
    <tag k="name" v="Old Coast Road"/>
    <tag k="surface" v="paved"/>
  </node>
  <node id="136725325" version="1" timestamp="2007-11-27T08:04:18Z" uid="4467" user="Rosscoe" changeset="633390" lat="-33.233607" lon="115.727603">
    <tag k="created_by" v="JOSM"/>
    <tag k="highway" v="trunk"/>
    <tag k="name" v="Old Coast Road"/>
    <tag k="surface" v="paved"/>
  </node>
  <node id="136725325" version="2" timestamp="2007-11-27T08:17:37Z" uid="4467" user="Rosscoe" changeset="633390" lat="-33.233607" lon="115.727603">
    <tag k="created_by" v="JOSM"/>
    <tag k="highway" v="trunk"/>
    <tag k="name" v="Old Coast Road"/>
    <tag k="surface" v="paved"/>
  </node>
  <node id="136725353" version="1" timestamp="2007-11-27T08:04:19Z" uid="4467" user="Rosscoe" changeset="633390" lat="-33.233427" lon="115.727592">
    <tag k="created_by" v="JOSM"/>
    <tag k="highway" v="trunk"/>
    <tag k="name" v="Old Coast Road"/>
    <tag k="surface" v="paved"/>
  </node>
  <node id="136725353" version="2" timestamp="2007-11-27T08:17:40Z" uid="4467" user="Rosscoe" changeset="633390" lat="-33.233427" lon="115.727592">
    <tag k="created_by" v="JOSM"/>
    <tag k="highway" v="trunk"/>
    <tag k="name" v="Old Coast Road"/>
    <tag k="surface" v="paved"/>
  </node>
  <node id="136725377" version="1" timestamp="2007-11-27T08:04:20Z" uid="4467" user="Rosscoe" changeset="633390" lat="-33.23325" lon="115.727582">
    <tag k="created_by" v="JOSM"/>
    <tag k="highway" v="trunk"/>
    <tag k="name" v="Old Coast Road"/>
    <tag k="surface" v="paved"/>
  </node>
  <node id="136725377" version="2" timestamp="2007-11-27T08:17:23Z" uid="4467" user="Rosscoe" changeset="633390" lat="-33.23325" lon="115.727582">
    <tag k="created_by" v="JOSM"/>
    <tag k="highway" v="trunk"/>
    <tag k="name" v="Old Coast Road"/>
    <tag k="surface" v="paved"/>
  </node>
  <node id="136725409" version="1" timestamp="2007-11-27T08:04:21Z" uid="4467" user="Rosscoe" changeset="633390" lat="-33.233072" lon="115.727582">
    <tag k="created_by" v="JOSM"/>
    <tag k="highway" v="trunk"/>
    <tag k="name" v="Old Coast Road"/>
    <tag k="surface" v="paved"/>
  </node>
  <node id="136725409" version="2" timestamp="2007-11-27T08:17:25Z" uid="4467" user="Rosscoe" changeset="633390" lat="-33.233072" lon="115.727582">
    <tag k="created_by" v="JOSM"/>
    <tag k="highway" v="trunk"/>
    <tag k="name" v="Old Coast Road"/>
    <tag k="surface" v="paved"/>
  </node>
  <node id="136725442" version="1" timestamp="2007-11-27T08:04:21Z" uid="4467" user="Rosscoe" changeset="633390" lat="-33.232903" lon="115.727593">
    <tag k="created_by" v="JOSM"/>
    <tag k="highway" v="trunk"/>
    <tag k="name" v="Old Coast Road"/>
    <tag k="surface" v="paved"/>
  </node>
  <node id="136725442" version="2" timestamp="2007-11-27T08:17:28Z" uid="4467" user="Rosscoe" changeset="633390" lat="-33.232903" lon="115.727593">
    <tag k="created_by" v="JOSM"/>
    <tag k="highway" v="trunk"/>
    <tag k="name" v="Old Coast Road"/>
    <tag k="surface" v="paved"/>
  </node>
  <node id="136725475" version="1" timestamp="2007-11-27T08:04:22Z" uid="4467" user="Rosscoe" changeset="633390" lat="-33.232738" lon="115.727618">
    <tag k="created_by" v="JOSM"/>
    <tag k="highway" v="trunk"/>
    <tag k="name" v="Old Coast Road"/>
    <tag k="surface" v="paved"/>
  </node>
  <node id="136725475" version="2" timestamp="2007-11-27T08:17:31Z" uid="4467" user="Rosscoe" changeset="633390" lat="-33.232738" lon="115.727618">
    <tag k="created_by" v="JOSM"/>
    <tag k="highway" v="trunk"/>
    <tag k="name" v="Old Coast Road"/>
    <tag k="surface" v="paved"/>
  </node>
  <node id="136725506" version="1" timestamp="2007-11-27T08:04:23Z" uid="4467" user="Rosscoe" changeset="633390" lat="-33.232577" lon="115.727655">
    <tag k="created_by" v="JOSM"/>
    <tag k="highway" v="trunk"/>
    <tag k="name" v="Old Coast Road"/>
    <tag k="surface" v="paved"/>
  </node>
  <node id="136725506" version="2" timestamp="2007-11-27T08:15:57Z" uid="4467" user="Rosscoe" changeset="633390" lat="-33.232577" lon="115.727655">
    <tag k="created_by" v="JOSM"/>
    <tag k="highway" v="trunk"/>
    <tag k="name" v="Old Coast Road"/>
    <tag k="surface" v="paved"/>
  </node>
  <node id="136725534" version="1" timestamp="2007-11-27T08:04:24Z" uid="4467" user="Rosscoe" changeset="633390" lat="-33.232423" lon="115.727707">
    <tag k="created_by" v="JOSM"/>
    <tag k="highway" v="trunk"/>
    <tag k="name" v="Old Coast Road"/>
    <tag k="surface" v="paved"/>
  </node>
  <node id="136725534" version="2" timestamp="2007-11-27T08:15:55Z" uid="4467" user="Rosscoe" changeset="633390" lat="-33.232423" lon="115.727707">
    <tag k="created_by" v="JOSM"/>
    <tag k="highway" v="trunk"/>
    <tag k="name" v="Old Coast Road"/>
    <tag k="surface" v="paved"/>
  </node>
  <node id="136725551" version="1" timestamp="2007-11-27T08:04:25Z" uid="4467" user="Rosscoe" changeset="633390" lat="-33.232275" lon="115.727773">
    <tag k="created_by" v="JOSM"/>
    <tag k="highway" v="trunk"/>
    <tag k="name" v="Old Coast Road"/>
    <tag k="surface" v="paved"/>
  </node>
  <node id="136725551" version="2" timestamp="2007-11-27T08:15:54Z" uid="4467" user="Rosscoe" changeset="633390" lat="-33.232275" lon="115.727773">
    <tag k="created_by" v="JOSM"/>
    <tag k="highway" v="trunk"/>
    <tag k="name" v="Old Coast Road"/>
    <tag k="surface" v="paved"/>
  </node>
  <node id="136725580" version="1" timestamp="2007-11-27T08:04:25Z" uid="4467" user="Rosscoe" changeset="633390" lat="-33.23213" lon="115.727853">
    <tag k="created_by" v="JOSM"/>
    <tag k="highway" v="trunk"/>
    <tag k="name" v="Old Coast Road"/>
    <tag k="surface" v="paved"/>
  </node>
  <node id="136725580" version="2" timestamp="2007-11-27T08:15:53Z" uid="4467" user="Rosscoe" changeset="633390" lat="-33.23213" lon="115.727853">
    <tag k="created_by" v="JOSM"/>
    <tag k="highway" v="trunk"/>
    <tag k="name" v="Old Coast Road"/>
    <tag k="surface" v="paved"/>
  </node>
  <node id="136725606" version="1" timestamp="2007-11-27T08:04:26Z" uid="4467" user="Rosscoe" changeset="633390" lat="-33.231998" lon="115.727932">
    <tag k="created_by" v="JOSM"/>
    <tag k="highway" v="trunk"/>
    <tag k="name" v="Old Coast Road"/>
    <tag k="surface" v="paved"/>
  </node>
  <node id="136725606" version="2" timestamp="2007-11-27T08:15:51Z" uid="4467" user="Rosscoe" changeset="633390" lat="-33.231998" lon="115.727932">
    <tag k="created_by" v="JOSM"/>
    <tag k="highway" v="trunk"/>
    <tag k="name" v="Old Coast Road"/>
    <tag k="surface" v="paved"/>
  </node>
  <node id="136725629" version="1" timestamp="2007-11-27T08:04:27Z" uid="4467" user="Rosscoe" changeset="633390" lat="-33.231873" lon="115.728032">
    <tag k="created_by" v="JOSM"/>
    <tag k="highway" v="trunk"/>
    <tag k="name" v="Old Coast Road"/>
    <tag k="surface" v="paved"/>
  </node>
  <node id="136725629" version="2" timestamp="2007-11-27T08:15:50Z" uid="4467" user="Rosscoe" changeset="633390" lat="-33.231873" lon="115.728032">
    <tag k="created_by" v="JOSM"/>
    <tag k="highway" v="trunk"/>
    <tag k="name" v="Old Coast Road"/>
    <tag k="surface" v="paved"/>
  </node>
  <node id="136725664" version="1" timestamp="2007-11-27T08:04:28Z" uid="4467" user="Rosscoe" changeset="633390" lat="-33.231758" lon="115.728137">
    <tag k="created_by" v="JOSM"/>
    <tag k="highway" v="trunk"/>
    <tag k="name" v="Old Coast Road"/>
    <tag k="surface" v="paved"/>
  </node>
  <node id="136725664" version="2" timestamp="2007-11-27T08:15:47Z" uid="4467" user="Rosscoe" changeset="633390" lat="-33.231758" lon="115.728137">
    <tag k="created_by" v="JOSM"/>
    <tag k="highway" v="trunk"/>
    <tag k="name" v="Old Coast Road"/>
    <tag k="surface" v="paved"/>
  </node>
  <node id="136725691" version="1" timestamp="2007-11-27T08:04:29Z" uid="4467" user="Rosscoe" changeset="633390" lat="-33.231662" lon="115.728232">
    <tag k="created_by" v="JOSM"/>
    <tag k="highway" v="trunk"/>
    <tag k="name" v="Old Coast Road"/>
    <tag k="surface" v="paved"/>
  </node>
  <node id="136725691" version="2" timestamp="2007-11-27T08:15:47Z" uid="4467" user="Rosscoe" changeset="633390" lat="-33.231662" lon="115.728232">
    <tag k="created_by" v="JOSM"/>
    <tag k="highway" v="trunk"/>
    <tag k="name" v="Old Coast Road"/>
    <tag k="surface" v="paved"/>
  </node>
  <node id="136725720" version="1" timestamp="2007-11-27T08:04:29Z" uid="4467" user="Rosscoe" changeset="633390" lat="-33.231587" lon="115.728308">
    <tag k="created_by" v="JOSM"/>
    <tag k="highway" v="trunk"/>
    <tag k="name" v="Old Coast Road"/>
    <tag k="surface" v="paved"/>
  </node>
  <node id="136725720" version="2" timestamp="2007-11-27T08:15:45Z" uid="4467" user="Rosscoe" changeset="633390" lat="-33.231587" lon="115.728308">
    <tag k="created_by" v="JOSM"/>
    <tag k="highway" v="trunk"/>
    <tag k="name" v="Old Coast Road"/>
    <tag k="surface" v="paved"/>
  </node>
  <node id="136725745" version="1" timestamp="2007-11-27T08:04:30Z" uid="4467" user="Rosscoe" changeset="633390" lat="-33.231535" lon="115.728365">
    <tag k="created_by" v="JOSM"/>
    <tag k="highway" v="trunk"/>
    <tag k="name" v="Old Coast Road"/>
    <tag k="surface" v="paved"/>
  </node>
  <node id="136725745" version="2" timestamp="2007-11-27T08:15:43Z" uid="4467" user="Rosscoe" changeset="633390" lat="-33.231535" lon="115.728365">
    <tag k="created_by" v="JOSM"/>
    <tag k="highway" v="trunk"/>
    <tag k="name" v="Old Coast Road"/>
    <tag k="surface" v="paved"/>
  </node>
  <node id="136725780" version="1" timestamp="2007-11-27T08:04:31Z" uid="4467" user="Rosscoe" changeset="633390" lat="-33.231505" lon="115.728393">
    <tag k="created_by" v="JOSM"/>
    <tag k="highway" v="trunk"/>
    <tag k="name" v="Old Coast Road"/>
    <tag k="surface" v="paved"/>
  </node>
  <node id="136725780" version="2" timestamp="2007-11-27T08:16:09Z" uid="4467" user="Rosscoe" changeset="633390" lat="-33.231505" lon="115.728393">
    <tag k="created_by" v="JOSM"/>
    <tag k="highway" v="trunk"/>
    <tag k="name" v="Old Coast Road"/>
    <tag k="surface" v="paved"/>
  </node>
  <node id="136725807" version="1" timestamp="2007-11-27T08:04:32Z" uid="4467" user="Rosscoe" changeset="633390" lat="-33.231477" lon="115.728413">
    <tag k="created_by" v="JOSM"/>
    <tag k="highway" v="trunk"/>
    <tag k="name" v="Old Coast Road"/>
    <tag k="surface" v="paved"/>
  </node>
  <node id="136725807" version="2" timestamp="2007-11-27T08:16:05Z" uid="4467" user="Rosscoe" changeset="633390" lat="-33.231477" lon="115.728413">
    <tag k="created_by" v="JOSM"/>
    <tag k="highway" v="trunk"/>
    <tag k="name" v="Old Coast Road"/>
    <tag k="surface" v="paved"/>
  </node>
  <node id="136725844" version="1" timestamp="2007-11-27T08:04:32Z" uid="4467" user="Rosscoe" changeset="633390" lat="-33.231433" lon="115.72844">
    <tag k="created_by" v="JOSM"/>
    <tag k="highway" v="trunk"/>
    <tag k="name" v="Old Coast Road"/>
    <tag k="surface" v="paved"/>
  </node>
  <node id="136725844" version="2" timestamp="2007-11-27T08:16:04Z" uid="4467" user="Rosscoe" changeset="633390" lat="-33.231433" lon="115.72844">
    <tag k="created_by" v="JOSM"/>
    <tag k="highway" v="trunk"/>
    <tag k="name" v="Old Coast Road"/>
    <tag k="surface" v="paved"/>
  </node>
  <node id="136725878" version="1" timestamp="2007-11-27T08:04:33Z" uid="4467" user="Rosscoe" changeset="633390" lat="-33.2600512" lon="115.7254327">
    <tag k="created_by" v="JOSM"/>
    <tag k="highway" v="trunk"/>
    <tag k="junction" v="roundabout"/>
    <tag k="name" v="Old Coast Road"/>
    <tag k="surface" v="paved"/>
  </node>
  <node id="136725878" version="2" timestamp="2007-11-27T08:16:03Z" uid="4467" user="Rosscoe" changeset="633390" lat="-33.2600512" lon="115.7254327">
    <tag k="created_by" v="JOSM"/>
    <tag k="highway" v="trunk"/>
    <tag k="junction" v="roundabout"/>
    <tag k="name" v="Old Coast Road"/>
    <tag k="surface" v="paved"/>
  </node>
  <node id="136725906" version="1" timestamp="2007-11-27T08:04:34Z" uid="4467" user="Rosscoe" changeset="633390" lat="-33.2603554" lon="115.7254476">
    <tag k="created_by" v="JOSM"/>
    <tag k="highway" v="trunk"/>
    <tag k="name" v="Old Coast Road"/>
    <tag k="surface" v="paved"/>
  </node>
  <node id="136725906" version="2" timestamp="2007-11-27T08:16:01Z" uid="4467" user="Rosscoe" changeset="633390" lat="-33.2603554" lon="115.7254476">
    <tag k="created_by" v="JOSM"/>
    <tag k="highway" v="trunk"/>
    <tag k="name" v="Old Coast Road"/>
    <tag k="surface" v="paved"/>
  </node>
</osm>
