<?xml version='1.0' encoding='UTF-8'?>
<osm version="0.6" generator="libosmium/2.20.0">
  <node id="137281688" version="3" timestamp="2008-07-10T00:06:26Z" uid="6975" user="ulfl" changeset="448234" lat="53.3415896" lon="-2.9750419">
    <tag k="amenity" v="restaurant"/>
    <tag k="name" v="Subway"/>
  </node>
  <node id="137281688" version="4" timestamp="2011-12-29T20:23:55Z" uid="214310" user="rww100" changeset="10237985" lat="53.3415896" lon="-2.9750419">
    <tag k="amenity" v="restaurant"/>
    <tag k="cuisine" v="sandwich"/>
    <tag k="name" v="Subway"/>
  </node>
  <node id="137282477" version="4" timestamp="2008-11-25T22:23:35Z" uid="6975" user="ulfl" changeset="792732" lat="53.34153" lon="-2.9774994">
    <tag k="name" v="Argos"/>
    <tag k="shop" v="general"/>
  </node>
  <node id="137282477" version="5" timestamp="2011-12-29T20:07:49Z" uid="214310" user="rww100" changeset="10237985" lat="53.34153" lon="-2.9774994"/>
  <node id="137284336" version="4" timestamp="2008-07-10T00:06:25Z" uid="6975" user="ulfl" changeset="448234" lat="53.3408768" lon="-2.9756742">
    <tag k="amenity" v="restaurant"/>
    <tag k="name" v="Frankie and Bennys"/>
  </node>
  <node id="137285049" version="2" timestamp="2008-07-10T00:06:25Z" uid="6975" user="ulfl" changeset="448234" lat="53.3405545" lon="-2.9754367">
    <tag k="amenity" v="restaurant"/>
    <tag k="name" v="American"/>
  </node>
  <node id="137285049" version="3" timestamp="2009-02-11T19:27:44Z" uid="7390" user="mgbsheep" changeset="375392" lat="53.3405528" lon="-2.9754382">
    <tag k="amenity" v="restaurant"/>
    <tag k="created_by" v="Potlatch 0.10f"/>
    <tag k="name" v="Pizza Hut"/>
  </node>
  <node id="137285290" version="3" timestamp="2008-07-02T23:49:28Z" uid="6975" user="ulfl" changeset="377243" lat="48.7299503" lon="2.2403862">
    <tag k="amenity" v="fast_food"/>
    <tag k="name" v="Pizzeria"/>
  </node>
</osm>
