<?xml version='1.0' encoding='UTF-8'?>
<osm version="0.6" generator="libosmium/2.20.0">
  <node id="137273969" version="3" timestamp="2008-07-02T23:49:28Z" uid="6975" user="ulfl" changeset="377243" lat="48.7298598" lon="2.2409527">
    <tag k="amenity" v="fast_food"/>
    <tag k="name" v="Mc Donald&amp;apos;s"/>
  </node>
  <node id="137273969" version="4" timestamp="2008-08-04T21:33:52Z" uid="11699" user="wagner51" changeset="56775" lat="48.7298381" lon="2.2409042">
    <tag k="amenity" v="fast_food"/>
    <tag k="name" v="Mc Donald&amp;apos;s"/>
  </node>
  <node id="137273969" version="5" timestamp="2009-02-28T12:02:38Z" uid="11699" user="wagner51" changeset="694820" lat="48.7298381" lon="2.2409042">
    <tag k="amenity" v="fast_food"/>
    <tag k="name" v="Mc Donald&apos;s"/>
  </node>
  <node id="137273969" version="6" timestamp="2010-01-07T22:19:28Z" uid="179778" user="JulienBalas" changeset="3565838" lat="48.7298381" lon="2.2409042">
    <tag k="amenity" v="fast_food"/>
    <tag k="name" v="McDonald&apos;s"/>
  </node>
  <node id="137273969" version="7" timestamp="2010-08-06T16:57:54Z" uid="207745" user="NE2" changeset="5418228" lat="48.7298381" lon="2.2409042">
    <tag k="amenity" v="fast_food"/>
    <tag k="cuisine" v="burger"/>
    <tag k="name" v="McDonald&apos;s"/>
  </node>
  <node id="137273969" version="8" timestamp="2011-01-24T13:14:16Z" uid="101412" user="siriak" changeset="7072777" lat="48.7298381" lon="2.2409042">
    <tag k="amenity" v="fast_food"/>
    <tag k="cuisine" v="burger"/>
    <tag k="name" v="McDonald&apos;s"/>
  </node>
  <node id="137277940" version="2" timestamp="2009-06-08T09:23:03Z" uid="74617" user="JohnSmith" changeset="1456730" lat="-30.5772295" lon="150.6964349">
    <tag k="created_by" v="JOSM"/>
  </node>
</osm>
