<?xml version='1.0' encoding='UTF-8'?>
<osm version="0.6" generator="libosmium/2.20.0">
  <node id="137700139" version="4" timestamp="2008-07-06T23:59:21Z" uid="6975" user="ulfl" changeset="415781" lat="40.7845503" lon="22.0882653">
    <tag k="is_in" v="Greece"/>
    <tag k="name" v="Rizario"/>
    <tag k="place" v="village"/>
    <tag k="prefecture" v="Pella"/>
  </node>
  <node id="137700139" version="5" timestamp="2008-08-12T20:05:03Z" uid="14235" user="AiNikolas" changeset="204711" lat="40.7845456" lon="22.088264">
    <tag k="created_by" v="Potlatch 0.10b"/>
    <tag k="is_in:periphery" v="Pella,Kendriki Makedonia,Greece"/>
    <tag k="name" v="Rizario"/>
    <tag k="place" v="village"/>
  </node>
  <node id="137700139" version="6" timestamp="2008-09-13T01:23:47Z" uid="14235" user="AiNikolas" changeset="618732" lat="40.784549" lon="22.0882629">
    <tag k="created_by" v="Potlatch 0.10b"/>
    <tag k="is_in:periphery" v="Edessa,Pella,Kendriki Makedonia,Greece"/>
    <tag k="name:de" v="Rizario"/>
    <tag k="name:en" v="Rizario"/>
    <tag k="name:fr" v="Rizario"/>
    <tag k="place" v="village"/>
  </node>
  <node id="137700139" version="7" timestamp="2008-10-03T21:43:45Z" uid="14235" user="AiNikolas" changeset="53031" lat="40.7845461" lon="22.0882596">
    <tag k="created_by" v="Potlatch 0.10c"/>
    <tag k="is_in" v="Edessa municipality,Pella prefecture,Kendriki Makedonia,Greece"/>
    <tag k="name:de" v="Rizario"/>
    <tag k="name:en" v="Rizario"/>
    <tag k="name:fr" v="Rizario"/>
    <tag k="place" v="village"/>
    <tag k="population" v="1192"/>
  </node>
  <node id="137700139" version="8" timestamp="2008-10-03T21:44:25Z" uid="14235" user="AiNikolas" changeset="53031" lat="40.7845461" lon="22.0882596">
    <tag k="created_by" v="Potlatch 0.10c"/>
    <tag k="is_in" v="Edessa municipality,Pella prefecture,Kendriki Makedonia,Greece"/>
    <tag k="name" v="Ριζάριο"/>
    <tag k="name:de" v="Rizario"/>
    <tag k="name:el" v="Ριζάριο"/>
    <tag k="name:en" v="Rizario"/>
    <tag k="name:fr" v="Rizario"/>
    <tag k="place" v="village"/>
    <tag k="population" v="1129"/>
  </node>
  <node id="137700139" version="9" timestamp="2008-10-18T04:07:42Z" uid="14235" user="AiNikolas" changeset="408485" lat="40.7845477" lon="22.0882582">
    <tag k="created_by" v="Potlatch 0.10e"/>
    <tag k="ele" v="67"/>
    <tag k="is_in" v="Edessa municipality,Pella prefecture,Kendriki Makedonia,Greece"/>
    <tag k="name" v="Ριζάριο"/>
    <tag k="name:de" v="Rizario"/>
    <tag k="name:el" v="Ριζάριο"/>
    <tag k="name:en" v="Rizario"/>
    <tag k="name:fr" v="Rizario"/>
    <tag k="place" v="village"/>
    <tag k="population" v="1129"/>
  </node>
  <node id="137700139" version="10" timestamp="2009-05-28T03:59:44Z" uid="14235" user="AiNikolas" changeset="1339264" lat="40.7845467" lon="22.088256">
    <tag k="created_by" v="Potlatch 0.10e"/>
    <tag k="ele" v="67"/>
    <tag k="is_in" v="Edessa municipality,Pella prefecture,Kendriki Makedonia,Greece"/>
    <tag k="name" v="Ριζάριο (Rizario)"/>
    <tag k="name:de" v="Rizario"/>
    <tag k="name:el" v="Ριζάριο"/>
    <tag k="name:en" v="Rizario"/>
    <tag k="name:fr" v="Rizario"/>
    <tag k="place" v="village"/>
    <tag k="population" v="1129"/>
  </node>
  <node id="137700139" version="11" timestamp="2009-12-22T19:48:54Z" uid="194504" user="fidusa" changeset="3429810" lat="40.7845467" lon="22.088256">
    <tag k="ele" v="67"/>
    <tag k="is_in" v="Edessa municipality,Pella prefecture,Kendriki Makedonia,Greece"/>
    <tag k="name" v="Ριζάριο"/>
    <tag k="name:en" v="Rizario"/>
    <tag k="name:fr" v="Rizario"/>
    <tag k="place" v="village"/>
    <tag k="population" v="1129"/>
  </node>
  <node id="137701457" version="6" timestamp="2010-07-18T14:52:42Z" uid="4467" user="Rosscoe" changeset="5251803" lat="-34.9041682" lon="138.6575228">
    <tag k="highway" v="traffic_signals"/>
  </node>
  <node id="137701473" version="4" timestamp="2008-07-06T23:59:18Z" uid="6975" user="ulfl" changeset="415781" lat="40.7496832" lon="23.0642923">
    <tag k="is_in" v="Thessaloniki prefecture, Greece"/>
    <tag k="name" v="Langadas"/>
    <tag k="place" v="village"/>
  </node>
  <node id="137701473" version="5" timestamp="2008-10-10T22:54:11Z" uid="14235" user="AiNikolas" changeset="242924" lat="40.7496803" lon="23.0642865">
    <tag k="created_by" v="Potlatch 0.10d"/>
    <tag k="ele" v="99"/>
    <tag k="is_in" v="Langadas municipality,Thessaloniki prefecture,Kendriki Makedonia,Greece"/>
    <tag k="name" v="Λαγκαδάς"/>
    <tag k="name:de" v="Langadas"/>
    <tag k="name:el" v="Λαγκαδάς"/>
    <tag k="name:en" v="Langadas"/>
    <tag k="name:fr" v="Langadas"/>
    <tag k="place" v="village"/>
    <tag k="population" v="7215"/>
  </node>
  <node id="137701473" version="6" timestamp="2009-06-10T10:35:10Z" uid="14235" user="AiNikolas" changeset="1476349" lat="40.7496751" lon="23.0642866">
    <tag k="created_by" v="Potlatch 0.10d"/>
    <tag k="ele" v="99"/>
    <tag k="is_in" v="Langadas municipality,Thessaloniki prefecture,Kendriki Makedonia,Greece"/>
    <tag k="name" v="Λαγκαδάς (Langadas)"/>
    <tag k="name:de" v="Langadas"/>
    <tag k="name:el" v="Λαγκαδάς"/>
    <tag k="name:en" v="Langadas"/>
    <tag k="name:fr" v="Langadas"/>
    <tag k="place" v="village"/>
    <tag k="population" v="7215"/>
  </node>
  <node id="137701473" version="7" timestamp="2009-12-19T23:49:13Z" uid="194504" user="fidusa" changeset="3410719" lat="40.7496751" lon="23.0642866">
    <tag k="is_in" v="Langadas municipality,Thessaloniki prefecture,Kendriki Makedonia,Greece"/>
    <tag k="name" v="Λαγκαδάς"/>
    <tag k="name:en" v="Langadas"/>
    <tag k="place" v="town"/>
    <tag k="population" v="7215"/>
  </node>
  <node id="137701473" version="8" timestamp="2009-12-22T09:41:38Z" uid="194504" user="fidusa" changeset="3425683" lat="40.7505632" lon="23.0644327">
    <tag k="is_in" v="Langadas municipality,Thessaloniki prefecture,Kendriki Makedonia,Greece"/>
    <tag k="name" v="Λαγκαδάς"/>
    <tag k="name:en" v="Langadas"/>
    <tag k="place" v="town"/>
    <tag k="population" v="7215"/>
  </node>
  <node id="137702629" version="5" timestamp="2008-07-06T23:59:18Z" uid="6975" user="ulfl" changeset="415781" lat="40.075048" lon="23.4471831">
    <tag k="is_in" v="Greece"/>
    <tag k="name" v="Kallithea"/>
    <tag k="name:el" v="Καλλιθέα"/>
    <tag k="place" v="village"/>
  </node>
  <node id="137702629" version="6" timestamp="2008-09-13T14:08:23Z" uid="14235" user="AiNikolas" changeset="622552" lat="40.075054" lon="23.4471826">
    <tag k="created_by" v="Potlatch 0.10b"/>
    <tag k="is_in" v="Kassandra,Chalkidiki,Kendriki_Makedonia,Greece"/>
    <tag k="name" v="Καλλιθέα"/>
    <tag k="name:de" v="Kallithea"/>
    <tag k="name:el" v="Καλλιθέα"/>
    <tag k="name:en" v="Kallithea"/>
    <tag k="name:fr" v="Kallithea"/>
    <tag k="place" v="hamlet"/>
  </node>
  <node id="137702629" version="7" timestamp="2008-09-17T10:21:08Z" uid="14235" user="AiNikolas" changeset="652401" lat="40.0757238" lon="23.4485677">
    <tag k="created_by" v="Potlatch 0.10b"/>
    <tag k="is_in" v="Kassandra,Chalkidiki,Kendriki_Makedonia,Greece"/>
    <tag k="name" v="Καλλιθέα"/>
    <tag k="name:de" v="Kallithea"/>
    <tag k="name:el" v="Καλλιθέα"/>
    <tag k="name:en" v="Kallithea"/>
    <tag k="name:fr" v="Kallithea"/>
    <tag k="place" v="hamlet"/>
  </node>
  <node id="137702629" version="8" timestamp="2008-10-15T22:28:01Z" uid="70208" user="jumigraf" changeset="383982" lat="40.0754341" lon="23.446637">
    <tag k="created_by" v="Potlatch 0.10e"/>
    <tag k="is_in" v="Kassandra,Chalkidiki,Kendriki_Makedonia,Greece"/>
    <tag k="name" v="Καλλιθέα"/>
    <tag k="name:de" v="Kallithea"/>
    <tag k="name:el" v="Καλλιθέα"/>
    <tag k="name:en" v="Kallithea"/>
    <tag k="name:fr" v="Kallithea"/>
    <tag k="place" v="hamlet"/>
  </node>
  <node id="137702629" version="9" timestamp="2009-06-10T08:48:32Z" uid="14235" user="AiNikolas" changeset="1475010" lat="40.0754395" lon="23.4466338">
    <tag k="created_by" v="Potlatch 0.10e"/>
    <tag k="is_in" v="Kassandra municipality,Chalkidiki,Kendriki_Makedonia,Greece"/>
    <tag k="name" v="Καλλιθέα (Kallithea)"/>
    <tag k="name:de" v="Kallithea"/>
    <tag k="name:el" v="Καλλιθέα"/>
    <tag k="name:en" v="Kallithea"/>
    <tag k="name:fr" v="Kallithea"/>
    <tag k="place" v="hamlet"/>
  </node>
  <node id="137702629" version="10" timestamp="2010-01-13T16:35:54Z" uid="23785" user="Simon Kokolakis" changeset="3611122" lat="40.0754395" lon="23.4466338">
    <tag k="is_in" v="Kassandra municipality,Chalkidiki,Kendriki_Makedonia,Greece"/>
    <tag k="name" v="Καλλιθέα"/>
    <tag k="name:de" v="Kallithea"/>
    <tag k="name:el" v="Καλλιθέα"/>
    <tag k="name:en" v="Kallithea"/>
    <tag k="name:fr" v="Kallithea"/>
    <tag k="place" v="hamlet"/>
  </node>
  <node id="137703709" version="4" timestamp="2008-07-06T23:59:16Z" uid="6975" user="ulfl" changeset="415781" lat="40.3947848" lon="23.7955979">
    <tag k="is_in" v="Greece"/>
    <tag k="name" v="Gomati"/>
    <tag k="place" v="village"/>
    <tag k="prefecture" v="Chalkidiki"/>
  </node>
  <node id="137703709" version="5" timestamp="2008-09-12T22:16:13Z" uid="14235" user="AiNikolas" changeset="618459" lat="40.3947815" lon="23.7955965">
    <tag k="created_by" v="Potlatch 0.10b"/>
    <tag k="is_in" v="Panagia,Chalkidiki,Kendriki Makedonia,Greece"/>
    <tag k="name" v="Gomati"/>
    <tag k="place" v="hamlet"/>
    <tag k="prefecture" v="Chalkidiki"/>
  </node>
  <node id="137703709" version="6" timestamp="2008-09-12T22:16:26Z" uid="14235" user="AiNikolas" changeset="618459" lat="40.3947815" lon="23.7955965">
    <tag k="created_by" v="Potlatch 0.10b"/>
    <tag k="is_in" v="Panagia,Chalkidiki,Kendriki Makedonia,Greece"/>
    <tag k="name" v="Gomati"/>
    <tag k="place" v="hamlet"/>
  </node>
  <node id="137703709" version="7" timestamp="2008-09-13T14:40:40Z" uid="14235" user="AiNikolas" changeset="622552" lat="40.3947874" lon="23.7955951">
    <tag k="created_by" v="Potlatch 0.10b"/>
    <tag k="is_in" v="Panagia,Chalkidiki,Kendriki_Makedonia,Greece"/>
    <tag k="name" v="Γομάτι "/>
    <tag k="name:de" v="Gomati"/>
    <tag k="name:el" v="Γομάτι "/>
    <tag k="name:en" v="Gomati"/>
    <tag k="name:fr" v="Gomati"/>
    <tag k="place" v="village"/>
    <tag k="population" v="541"/>
  </node>
  <node id="137703709" version="8" timestamp="2008-09-13T14:41:07Z" uid="14235" user="AiNikolas" changeset="622552" lat="40.3947874" lon="23.7955951">
    <tag k="created_by" v="Potlatch 0.10b"/>
    <tag k="is_in" v="Panagia,Chalkidiki,Kendriki_Makedonia,Greece"/>
    <tag k="name" v="Γομάτι "/>
    <tag k="name:de" v="Gomati"/>
    <tag k="name:el" v="Γομάτι "/>
    <tag k="name:en" v="Gomati"/>
    <tag k="name:fr" v="Gomati"/>
    <tag k="place" v="hamlet"/>
    <tag k="population" v="541"/>
  </node>
  <node id="137703709" version="9" timestamp="2008-09-17T15:42:59Z" uid="14235" user="AiNikolas" changeset="653068" lat="40.3947834" lon="23.7955909">
    <tag k="created_by" v="Potlatch 0.10b"/>
    <tag k="is_in" v="Panagia municipality,Chalkidiki prefecture,Kendriki Makedonia,Greece"/>
    <tag k="name" v="Γομάτι"/>
    <tag k="name:de" v="Gomati"/>
    <tag k="name:el" v="Γομάτι"/>
    <tag k="name:en" v="Gomati"/>
    <tag k="name:fr" v="Gomati"/>
    <tag k="place" v="hamlet"/>
    <tag k="population" v="541"/>
  </node>
  <node id="137703709" version="10" timestamp="2009-06-10T08:37:17Z" uid="14235" user="AiNikolas" changeset="1475010" lat="40.3947854" lon="23.7955871">
    <tag k="created_by" v="Potlatch 0.10b"/>
    <tag k="is_in" v="Panagia municipality,Chalkidiki prefecture,Kendriki Makedonia,Greece"/>
    <tag k="name" v="Γομάτι (Gomati)"/>
    <tag k="name:de" v="Gomati"/>
    <tag k="name:el" v="Γομάτι"/>
    <tag k="name:en" v="Gomati"/>
    <tag k="name:fr" v="Gomati"/>
    <tag k="place" v="hamlet"/>
    <tag k="population" v="541"/>
  </node>
  <node id="137703709" version="11" timestamp="2010-01-13T16:36:23Z" uid="23785" user="Simon Kokolakis" changeset="3611122" lat="40.3947854" lon="23.7955871">
    <tag k="is_in" v="Panagia municipality,Chalkidiki prefecture,Kendriki Makedonia,Greece"/>
    <tag k="name" v="Γομάτι"/>
    <tag k="name:de" v="Gomati"/>
    <tag k="name:el" v="Γομάτι"/>
    <tag k="name:en" v="Gomati"/>
    <tag k="name:fr" v="Gomati"/>
    <tag k="place" v="hamlet"/>
    <tag k="population" v="541"/>
  </node>
  <node id="137700139" version="12" timestamp="2012-07-20T05:56:18Z" uid="722137" user="OSMF Redaction Account" changeset="12362882" lat="40.7845467" lon="22.088256">
    <tag k="ele" v="67"/>
    <tag k="is_in" v="Edessa municipality,Pella prefecture,Kendriki Makedonia,Greece"/>
    <tag k="name" v="Ριζάριο (Rizario)"/>
    <tag k="name:en" v="Rizario"/>
    <tag k="name:fr" v="Rizario"/>
    <tag k="place" v="village"/>
    <tag k="population" v="1129"/>
  </node>
  <node id="137700139" version="13" timestamp="2012-07-22T19:47:57Z" uid="653" user="aitolos" changeset="12438974" lat="40.7840129" lon="22.0873329">
    <tag k="addr:postcode" v="58200"/>
    <tag k="ele" v="67"/>
    <tag k="name" v="Ριζάρι"/>
    <tag k="name:en" v="Rizari"/>
    <tag k="name:fr" v="Rizari"/>
    <tag k="place" v="village"/>
    <tag k="population" v="1129"/>
  </node>
  <node id="137701457" version="7" timestamp="2012-07-19T18:34:42Z" uid="722137" user="OSMF Redaction Account" changeset="12343338" lat="-34.9041575" lon="138.6575933"/>
  <node id="137701457" version="8" timestamp="2012-07-25T12:50:01Z" uid="136969" user="auspak" changeset="12486403" lat="-34.9041575" lon="138.6575933"/>
  <node id="137701473" version="9" timestamp="2012-07-20T08:35:46Z" uid="722137" user="OSMF Redaction Account" changeset="12368509" lat="40.7496751" lon="23.0642866">
    <tag k="is_in" v="Langadas municipality,Thessaloniki prefecture,Kendriki Makedonia,Greece"/>
    <tag k="name" v="Λαγκαδάς (Langadas)"/>
    <tag k="name:en" v="Langadas"/>
    <tag k="place" v="village"/>
    <tag k="population" v="7215"/>
  </node>
  <node id="137701473" version="10" timestamp="2012-07-21T17:18:12Z" uid="653" user="aitolos" changeset="12415837" lat="40.7506401" lon="23.0648607">
    <tag k="addr:postcode" v="57200"/>
    <tag k="is_in" v="Langadas municipality,Thessaloniki prefecture,Kendriki Makedonia,Greece"/>
    <tag k="name" v="Λαγκαδάς"/>
    <tag k="name:en" v="Langadas"/>
    <tag k="place" v="town"/>
    <tag k="population" v="7215"/>
  </node>
  <node id="137701473" version="11" timestamp="2012-08-15T06:53:18Z" uid="16821" user="geraki" changeset="12735060" lat="40.7499952" lon="23.0667613">
    <tag k="addr:postcode" v="57200"/>
    <tag k="is_in" v="Langadas municipality,Thessaloniki prefecture,Kendriki Makedonia,Greece"/>
    <tag k="name" v="Λαγκαδάς"/>
    <tag k="name:en" v="Langadas"/>
    <tag k="place" v="town"/>
    <tag k="population" v="7215"/>
  </node>
  <node id="137702629" version="11" timestamp="2012-06-29T01:20:03Z" uid="14235" user="AiNikolas" changeset="12052362" lat="40.0749846" lon="23.4460447">
    <tag k="is_in" v="Kassandra municipality,Chalkidiki,Kendriki_Makedonia,Greece"/>
    <tag k="name" v="Καλλιθέα"/>
    <tag k="name:de" v="Kallithea"/>
    <tag k="name:el" v="Καλλιθέα"/>
    <tag k="name:en" v="Kallithea"/>
    <tag k="name:fr" v="Kallithea"/>
    <tag k="place" v="hamlet"/>
  </node>
  <node id="137702629" version="12" timestamp="2012-07-08T17:26:37Z" uid="653" user="aitolos" changeset="12152719" lat="40.0756601" lon="23.4452378">
    <tag k="addr:postcode" v="63077"/>
    <tag k="is_in" v="Kassandra municipality,Chalkidiki,Kendriki_Makedonia,Greece"/>
    <tag k="name" v="Καλλιθέα"/>
    <tag k="name:de" v="Kallithea"/>
    <tag k="name:el" v="Καλλιθέα"/>
    <tag k="name:en" v="Kallithea"/>
    <tag k="name:fr" v="Kallithea"/>
    <tag k="place" v="village"/>
  </node>
  <node id="137703709" version="12" timestamp="2012-07-15T17:48:43Z" uid="653" user="aitolos" changeset="12233284" lat="40.3954296" lon="23.7949756">
    <tag k="addr:postcode" v="63075"/>
    <tag k="is_in" v="Panagia municipality,Chalkidiki prefecture,Kendriki Makedonia,Greece"/>
    <tag k="name" v="Γομάτι"/>
    <tag k="name:de" v="Gomati"/>
    <tag k="name:el" v="Γομάτι"/>
    <tag k="name:en" v="Gomati"/>
    <tag k="name:fr" v="Gomati"/>
    <tag k="place" v="village"/>
    <tag k="population" v="541"/>
  </node>
</osm>
