<?xml version='1.0' encoding='UTF-8'?>
<osm version="0.6" generator="libosmium/2.20.0">
  <node id="140161096" version="5" timestamp="2008-07-07T00:22:33Z" uid="6975" user="ulfl" changeset="415781" lat="40.6238987" lon="22.9550445">
    <tag k="loc_name" v="Musio Byzantinou Politismou"/>
    <tag k="name" v="Museum of Byzantine History and Art"/>
    <tag k="tourism" v="museum"/>
  </node>
  <node id="140161096" version="6" timestamp="2010-08-11T11:00:48Z" uid="52508" user="logictheo" changeset="5461722" lat="40.6238987" lon="22.9550445">
    <tag k="loc_name" v="Musio Byzantinou Politismou"/>
    <tag k="name" v="Museum of Byzantine History and Art"/>
    <tag k="tourism" v="museum"/>
  </node>
  <node id="140162609" version="4" timestamp="2009-06-10T04:03:17Z" uid="20587" user="balrog-kun" changeset="1473633" lat="50.4810445" lon="19.4230704">
    <tag k="created_by" v="JOSM"/>
    <tag k="name" v="Zawiercie"/>
    <tag k="railway" v="station"/>
  </node>
  <node id="140162609" version="5" timestamp="2012-07-21T10:08:01Z" uid="157655" user="sep" changeset="12405518" lat="50.4810162" lon="19.4229975">
    <tag k="name" v="Zawiercie"/>
    <tag k="railway" v="station"/>
  </node>
</osm>
