<?xml version='1.0' encoding='UTF-8'?>
<osm version="0.6" generator="libosmium/2.20.0">
  <node id="140763568" version="1" timestamp="2007-11-29T00:58:10Z" uid="4467" user="Rosscoe" changeset="643237" lat="-31.08762" lon="150.925442">
    <tag k="created_by" v="JOSM"/>
    <tag k="highway" v="residential"/>
    <tag k="name" v="Darling Street"/>
    <tag k="source" v="gpsdrivetrack"/>
    <tag k="surface" v="paved"/>
  </node>
  <node id="140763568" version="2" timestamp="2007-12-02T08:04:04Z" uid="4467" user="Rosscoe" changeset="40805" lat="-31.08762" lon="150.925442"/>
  <node id="140763587" version="1" timestamp="2007-11-29T00:58:11Z" uid="4467" user="Rosscoe" changeset="643237" lat="-31.08754" lon="150.925447">
    <tag k="created_by" v="JOSM"/>
    <tag k="highway" v="residential"/>
    <tag k="name" v="Darling Street"/>
    <tag k="source" v="gpsdrivetrack"/>
    <tag k="surface" v="paved"/>
  </node>
  <node id="140763587" version="2" timestamp="2007-12-02T08:04:05Z" uid="4467" user="Rosscoe" changeset="40805" lat="-31.08754" lon="150.925447"/>
  <node id="140763606" version="1" timestamp="2007-11-29T00:58:13Z" uid="4467" user="Rosscoe" changeset="643237" lat="-31.087463" lon="150.925488">
    <tag k="created_by" v="JOSM"/>
    <tag k="highway" v="residential"/>
    <tag k="name" v="Darling Street"/>
    <tag k="source" v="gpsdrivetrack"/>
    <tag k="surface" v="paved"/>
  </node>
  <node id="140763606" version="2" timestamp="2007-12-02T08:04:06Z" uid="4467" user="Rosscoe" changeset="40805" lat="-31.087463" lon="150.925488"/>
  <node id="140763621" version="1" timestamp="2007-11-29T00:58:14Z" uid="4467" user="Rosscoe" changeset="643237" lat="-31.08739" lon="150.925557">
    <tag k="created_by" v="JOSM"/>
    <tag k="highway" v="residential"/>
    <tag k="name" v="Darling Street"/>
    <tag k="source" v="gpsdrivetrack"/>
    <tag k="surface" v="paved"/>
  </node>
  <node id="140763621" version="2" timestamp="2007-12-02T08:04:06Z" uid="4467" user="Rosscoe" changeset="40805" lat="-31.08739" lon="150.925557"/>
  <node id="140763646" version="1" timestamp="2007-11-29T00:58:15Z" uid="4467" user="Rosscoe" changeset="643237" lat="-31.087317" lon="150.925638">
    <tag k="created_by" v="JOSM"/>
    <tag k="highway" v="residential"/>
    <tag k="name" v="Darling Street"/>
    <tag k="source" v="gpsdrivetrack"/>
    <tag k="surface" v="paved"/>
  </node>
  <node id="140763646" version="2" timestamp="2007-12-02T08:04:13Z" uid="4467" user="Rosscoe" changeset="40805" lat="-31.087317" lon="150.925638">
    <tag k="created_by" v="JOSM"/>
    <tag k="highway" v="residential"/>
    <tag k="name" v="Darling Street"/>
    <tag k="source" v="gpsdrivetrack"/>
    <tag k="surface" v="paved"/>
  </node>
  <node id="140763680" version="1" timestamp="2007-11-29T00:58:16Z" uid="4467" user="Rosscoe" changeset="643237" lat="-31.08724" lon="150.925733">
    <tag k="created_by" v="JOSM"/>
    <tag k="highway" v="residential"/>
    <tag k="name" v="Darling Street"/>
    <tag k="source" v="gpsdrivetrack"/>
    <tag k="surface" v="paved"/>
  </node>
  <node id="140763680" version="2" timestamp="2007-12-02T08:02:40Z" uid="4467" user="Rosscoe" changeset="40805" lat="-31.08724" lon="150.925733"/>
  <node id="140763709" version="1" timestamp="2007-11-29T00:58:18Z" uid="4467" user="Rosscoe" changeset="643237" lat="-31.087167" lon="150.925828">
    <tag k="created_by" v="JOSM"/>
    <tag k="highway" v="residential"/>
    <tag k="name" v="Darling Street"/>
    <tag k="source" v="gpsdrivetrack"/>
    <tag k="surface" v="paved"/>
  </node>
  <node id="140763709" version="2" timestamp="2007-12-02T08:05:22Z" uid="4467" user="Rosscoe" changeset="40805" lat="-31.087167" lon="150.925828">
    <tag k="created_by" v="JOSM"/>
    <tag k="highway" v="residential"/>
    <tag k="name" v="Darling Street"/>
    <tag k="source" v="gpsdrivetrack"/>
    <tag k="surface" v="paved"/>
  </node>
  <node id="140763738" version="1" timestamp="2007-11-29T00:58:19Z" uid="4467" user="Rosscoe" changeset="643237" lat="-31.087103" lon="150.92592">
    <tag k="created_by" v="JOSM"/>
    <tag k="highway" v="residential"/>
    <tag k="name" v="Darling Street"/>
    <tag k="source" v="gpsdrivetrack"/>
    <tag k="surface" v="paved"/>
  </node>
  <node id="140763738" version="2" timestamp="2007-12-02T08:05:13Z" uid="4467" user="Rosscoe" changeset="40805" lat="-31.087103" lon="150.92592">
    <tag k="created_by" v="JOSM"/>
    <tag k="highway" v="residential"/>
    <tag k="name" v="Darling Street"/>
    <tag k="source" v="gpsdrivetrack"/>
    <tag k="surface" v="paved"/>
  </node>
  <node id="140763778" version="1" timestamp="2007-11-29T00:58:20Z" uid="4467" user="Rosscoe" changeset="643237" lat="-31.087047" lon="150.926">
    <tag k="created_by" v="JOSM"/>
    <tag k="highway" v="residential"/>
    <tag k="name" v="Darling Street"/>
    <tag k="source" v="gpsdrivetrack"/>
    <tag k="surface" v="paved"/>
  </node>
  <node id="140763778" version="2" timestamp="2007-12-02T08:05:07Z" uid="4467" user="Rosscoe" changeset="40805" lat="-31.087047" lon="150.926">
    <tag k="created_by" v="JOSM"/>
    <tag k="highway" v="residential"/>
    <tag k="name" v="Darling Street"/>
    <tag k="source" v="gpsdrivetrack"/>
    <tag k="surface" v="paved"/>
  </node>
  <node id="140763814" version="1" timestamp="2007-11-29T00:58:21Z" uid="4467" user="Rosscoe" changeset="643237" lat="-31.086997" lon="150.926063">
    <tag k="created_by" v="JOSM"/>
    <tag k="highway" v="residential"/>
    <tag k="name" v="Darling Street"/>
    <tag k="source" v="gpsdrivetrack"/>
    <tag k="surface" v="paved"/>
  </node>
  <node id="140763814" version="2" timestamp="2007-12-02T08:02:41Z" uid="4467" user="Rosscoe" changeset="40805" lat="-31.086997" lon="150.926063"/>
  <node id="140763814" version="3" timestamp="2009-06-13T01:36:35Z" uid="74617" user="JohnSmith" changeset="1501057" lat="-31.0870292" lon="150.926157"/>
  <node id="140763814" version="4" timestamp="2011-01-07T08:25:25Z" uid="4467" user="Rosscoe" changeset="6890142" lat="-31.0870275" lon="150.926159"/>
  <node id="140763851" version="1" timestamp="2007-11-29T00:58:23Z" uid="4467" user="Rosscoe" changeset="643237" lat="-31.08695" lon="150.926112">
    <tag k="created_by" v="JOSM"/>
    <tag k="highway" v="residential"/>
    <tag k="name" v="Darling Street"/>
    <tag k="source" v="gpsdrivetrack"/>
    <tag k="surface" v="paved"/>
  </node>
  <node id="140763851" version="2" timestamp="2007-12-02T08:05:01Z" uid="4467" user="Rosscoe" changeset="40805" lat="-31.08695" lon="150.926112">
    <tag k="created_by" v="JOSM"/>
    <tag k="highway" v="residential"/>
    <tag k="name" v="Darling Street"/>
    <tag k="source" v="gpsdrivetrack"/>
    <tag k="surface" v="paved"/>
  </node>
  <node id="140763878" version="1" timestamp="2007-11-29T00:58:24Z" uid="4467" user="Rosscoe" changeset="643237" lat="-31.086895" lon="150.926142">
    <tag k="created_by" v="JOSM"/>
    <tag k="highway" v="residential"/>
    <tag k="name" v="Darling Street"/>
    <tag k="source" v="gpsdrivetrack"/>
    <tag k="surface" v="paved"/>
  </node>
  <node id="140763878" version="2" timestamp="2007-11-29T01:07:17Z" uid="4467" user="Rosscoe" changeset="643237" lat="-31.0868262" lon="150.9262317">
    <tag k="created_by" v="JOSM"/>
    <tag k="highway" v="residential"/>
    <tag k="junction" v="roundabout"/>
    <tag k="name" v="Darling Street"/>
    <tag k="source" v="gpsdrivetrack"/>
    <tag k="surface" v="paved"/>
  </node>
  <node id="140763878" version="3" timestamp="2007-12-02T08:02:42Z" uid="4467" user="Rosscoe" changeset="40805" lat="-31.0868262" lon="150.9262317">
    <tag k="junction" v="roundabout"/>
  </node>
  <node id="140763878" version="4" timestamp="2008-01-15T23:17:16Z" uid="1218" user="macAlba" changeset="644433" lat="-31.0868233" lon="150.9262363">
    <tag k="junction" v="roundabout"/>
  </node>
  <node id="140763878" version="5" timestamp="2009-04-10T13:35:46Z" changeset="381233" lat="-31.0868233" lon="150.9262363">
    <tag k="direction" v="clockwise"/>
    <tag k="highway" v="mini_roundabout"/>
  </node>
  <node id="140763878" version="6" timestamp="2009-06-13T01:29:55Z" uid="74617" user="JohnSmith" changeset="1501047" lat="-31.0868233" lon="150.9262363">
    <tag k="direction" v="clockwise"/>
    <tag k="highway" v="mini_roundabout"/>
  </node>
  <node id="140763878" version="7" timestamp="2009-06-13T01:36:36Z" uid="74617" user="JohnSmith" changeset="1501057" lat="-31.0868233" lon="150.9262363">
    <tag k="direction" v="clockwise"/>
    <tag k="highway" v="mini_roundabout"/>
  </node>
  <node id="140764467" version="1" timestamp="2007-11-29T00:58:47Z" uid="4467" user="Rosscoe" changeset="643237" lat="-31.090665" lon="150.92804">
    <tag k="created_by" v="JOSM"/>
    <tag k="highway" v="residential"/>
    <tag k="name" v="Kable Avenue"/>
    <tag k="source" v="gpsdrivetrack"/>
    <tag k="surface" v="paved"/>
  </node>
  <node id="140764467" version="2" timestamp="2007-11-29T01:07:28Z" uid="4467" user="Rosscoe" changeset="643237" lat="-31.0908045" lon="150.9281621">
    <tag k="created_by" v="JOSM"/>
    <tag k="highway" v="residential"/>
    <tag k="name" v="Kable Avenue"/>
    <tag k="source" v="gpsdrivetrack"/>
    <tag k="surface" v="paved"/>
  </node>
  <node id="140764467" version="3" timestamp="2007-12-02T08:02:38Z" uid="4467" user="Rosscoe" changeset="40805" lat="-31.0908045" lon="150.9281621"/>
  <node id="140764467" version="4" timestamp="2008-01-15T23:17:16Z" uid="1218" user="macAlba" changeset="644433" lat="-31.0908055" lon="150.9281633"/>
  <node id="140764467" version="5" timestamp="2008-11-20T13:32:54Z" uid="16385" user="morb_au" changeset="772745" lat="-31.0908055" lon="150.9281633"/>
  <node id="140764467" version="6" timestamp="2009-05-02T03:39:43Z" uid="20949" user="Ebenezer" changeset="1043714" lat="-31.0908055" lon="150.9281633">
    <tag k="highway" v="traffic_signals"/>
  </node>
  <node id="140764467" version="7" timestamp="2009-12-24T07:13:37Z" uid="67896" user="mrpulley" changeset="3440140" lat="-31.0908055" lon="150.9281633">
    <tag k="highway" v="traffic_signals"/>
  </node>
  <node id="140764467" version="8" timestamp="2011-05-11T04:42:15Z" uid="74617" user="JohnSmith" changeset="8108429" lat="-31.0907668" lon="150.9282038">
    <tag k="highway" v="traffic_signals"/>
  </node>
  <node id="140764494" version="1" timestamp="2007-11-29T00:58:48Z" uid="4467" user="Rosscoe" changeset="643237" lat="-31.090583" lon="150.927975">
    <tag k="created_by" v="JOSM"/>
    <tag k="highway" v="residential"/>
    <tag k="name" v="Kable Avenue"/>
    <tag k="source" v="gpsdrivetrack"/>
    <tag k="surface" v="paved"/>
  </node>
  <node id="140764494" version="2" timestamp="2007-12-02T08:05:38Z" uid="4467" user="Rosscoe" changeset="40805" lat="-31.090583" lon="150.927975">
    <tag k="created_by" v="JOSM"/>
    <tag k="highway" v="residential"/>
    <tag k="name" v="Kable Avenue"/>
    <tag k="source" v="gpsdrivetrack"/>
    <tag k="surface" v="paved"/>
  </node>
  <node id="140764525" version="1" timestamp="2007-11-29T00:58:49Z" uid="4467" user="Rosscoe" changeset="643237" lat="-31.090493" lon="150.927898">
    <tag k="created_by" v="JOSM"/>
    <tag k="highway" v="residential"/>
    <tag k="name" v="Kable Avenue"/>
    <tag k="source" v="gpsdrivetrack"/>
    <tag k="surface" v="paved"/>
  </node>
  <node id="140764525" version="2" timestamp="2007-12-02T08:05:36Z" uid="4467" user="Rosscoe" changeset="40805" lat="-31.090493" lon="150.927898">
    <tag k="created_by" v="JOSM"/>
    <tag k="highway" v="residential"/>
    <tag k="name" v="Kable Avenue"/>
    <tag k="source" v="gpsdrivetrack"/>
    <tag k="surface" v="paved"/>
  </node>
  <node id="140764550" version="1" timestamp="2007-11-29T00:58:50Z" uid="4467" user="Rosscoe" changeset="643237" lat="-31.090397" lon="150.927815">
    <tag k="created_by" v="JOSM"/>
    <tag k="highway" v="residential"/>
    <tag k="name" v="Kable Avenue"/>
    <tag k="source" v="gpsdrivetrack"/>
    <tag k="surface" v="paved"/>
  </node>
  <node id="140764550" version="2" timestamp="2007-12-02T08:05:27Z" uid="4467" user="Rosscoe" changeset="40805" lat="-31.090397" lon="150.927815">
    <tag k="created_by" v="JOSM"/>
    <tag k="highway" v="residential"/>
    <tag k="name" v="Kable Avenue"/>
    <tag k="source" v="gpsdrivetrack"/>
    <tag k="surface" v="paved"/>
  </node>
  <node id="140764585" version="1" timestamp="2007-11-29T00:58:52Z" uid="4467" user="Rosscoe" changeset="643237" lat="-31.090293" lon="150.927722">
    <tag k="created_by" v="JOSM"/>
    <tag k="highway" v="residential"/>
    <tag k="name" v="Kable Avenue"/>
    <tag k="source" v="gpsdrivetrack"/>
    <tag k="surface" v="paved"/>
  </node>
  <node id="140764585" version="2" timestamp="2007-12-02T08:02:39Z" uid="4467" user="Rosscoe" changeset="40805" lat="-31.090293" lon="150.927722"/>
  <node id="140764618" version="1" timestamp="2007-11-29T00:58:53Z" uid="4467" user="Rosscoe" changeset="643237" lat="-31.090188" lon="150.927625">
    <tag k="created_by" v="JOSM"/>
    <tag k="highway" v="residential"/>
    <tag k="name" v="Kable Avenue"/>
    <tag k="source" v="gpsdrivetrack"/>
    <tag k="surface" v="paved"/>
  </node>
  <node id="140764618" version="2" timestamp="2007-12-02T08:05:33Z" uid="4467" user="Rosscoe" changeset="40805" lat="-31.090188" lon="150.927625">
    <tag k="created_by" v="JOSM"/>
    <tag k="highway" v="residential"/>
    <tag k="name" v="Kable Avenue"/>
    <tag k="source" v="gpsdrivetrack"/>
    <tag k="surface" v="paved"/>
  </node>
  <node id="140764646" version="1" timestamp="2007-11-29T00:58:54Z" uid="4467" user="Rosscoe" changeset="643237" lat="-31.090085" lon="150.927528">
    <tag k="created_by" v="JOSM"/>
    <tag k="highway" v="residential"/>
    <tag k="name" v="Kable Avenue"/>
    <tag k="source" v="gpsdrivetrack"/>
    <tag k="surface" v="paved"/>
  </node>
  <node id="140764646" version="2" timestamp="2007-12-02T08:05:29Z" uid="4467" user="Rosscoe" changeset="40805" lat="-31.090085" lon="150.927528">
    <tag k="created_by" v="JOSM"/>
    <tag k="highway" v="residential"/>
    <tag k="name" v="Kable Avenue"/>
    <tag k="source" v="gpsdrivetrack"/>
    <tag k="surface" v="paved"/>
  </node>
  <node id="140764675" version="1" timestamp="2007-11-29T00:58:55Z" uid="4467" user="Rosscoe" changeset="643237" lat="-31.089977" lon="150.927433">
    <tag k="created_by" v="JOSM"/>
    <tag k="highway" v="residential"/>
    <tag k="name" v="Kable Avenue"/>
    <tag k="source" v="gpsdrivetrack"/>
    <tag k="surface" v="paved"/>
  </node>
  <node id="140764675" version="2" timestamp="2007-12-02T08:06:21Z" uid="4467" user="Rosscoe" changeset="40805" lat="-31.089977" lon="150.927433">
    <tag k="created_by" v="JOSM"/>
    <tag k="highway" v="residential"/>
    <tag k="name" v="Kable Avenue"/>
    <tag k="source" v="gpsdrivetrack"/>
    <tag k="surface" v="paved"/>
  </node>
  <node id="140764709" version="1" timestamp="2007-11-29T00:58:57Z" uid="4467" user="Rosscoe" changeset="643237" lat="-31.089868" lon="150.927333">
    <tag k="created_by" v="JOSM"/>
    <tag k="highway" v="residential"/>
    <tag k="name" v="Kable Avenue"/>
    <tag k="source" v="gpsdrivetrack"/>
    <tag k="surface" v="paved"/>
  </node>
  <node id="140764709" version="2" timestamp="2007-12-02T08:06:24Z" uid="4467" user="Rosscoe" changeset="40805" lat="-31.089868" lon="150.927333">
    <tag k="created_by" v="JOSM"/>
    <tag k="highway" v="residential"/>
    <tag k="name" v="Kable Avenue"/>
    <tag k="source" v="gpsdrivetrack"/>
    <tag k="surface" v="paved"/>
  </node>
  <node id="140764738" version="1" timestamp="2007-11-29T00:58:58Z" uid="4467" user="Rosscoe" changeset="643237" lat="-31.089763" lon="150.927232">
    <tag k="created_by" v="JOSM"/>
    <tag k="highway" v="residential"/>
    <tag k="name" v="Kable Avenue"/>
    <tag k="source" v="gpsdrivetrack"/>
    <tag k="surface" v="paved"/>
  </node>
  <node id="140764738" version="2" timestamp="2007-12-02T08:06:27Z" uid="4467" user="Rosscoe" changeset="40805" lat="-31.089763" lon="150.927232">
    <tag k="created_by" v="JOSM"/>
    <tag k="highway" v="residential"/>
    <tag k="name" v="Kable Avenue"/>
    <tag k="source" v="gpsdrivetrack"/>
    <tag k="surface" v="paved"/>
  </node>
  <node id="140764774" version="1" timestamp="2007-11-29T00:58:59Z" uid="4467" user="Rosscoe" changeset="643237" lat="-31.08965" lon="150.92713">
    <tag k="created_by" v="JOSM"/>
    <tag k="highway" v="residential"/>
    <tag k="name" v="Kable Avenue"/>
    <tag k="source" v="gpsdrivetrack"/>
    <tag k="surface" v="paved"/>
  </node>
  <node id="140764774" version="2" timestamp="2007-12-02T08:06:30Z" uid="4467" user="Rosscoe" changeset="40805" lat="-31.08965" lon="150.92713">
    <tag k="created_by" v="JOSM"/>
    <tag k="highway" v="residential"/>
    <tag k="name" v="Kable Avenue"/>
    <tag k="source" v="gpsdrivetrack"/>
    <tag k="surface" v="paved"/>
  </node>
  <node id="140764807" version="1" timestamp="2007-11-29T00:59:00Z" uid="4467" user="Rosscoe" changeset="643237" lat="-31.08954" lon="150.927028">
    <tag k="created_by" v="JOSM"/>
    <tag k="highway" v="residential"/>
    <tag k="name" v="Kable Avenue"/>
    <tag k="source" v="gpsdrivetrack"/>
    <tag k="surface" v="paved"/>
  </node>
  <node id="140764807" version="2" timestamp="2007-12-02T08:06:11Z" uid="4467" user="Rosscoe" changeset="40805" lat="-31.08954" lon="150.927028">
    <tag k="created_by" v="JOSM"/>
    <tag k="highway" v="residential"/>
    <tag k="name" v="Kable Avenue"/>
    <tag k="source" v="gpsdrivetrack"/>
    <tag k="surface" v="paved"/>
  </node>
  <node id="140764838" version="1" timestamp="2007-11-29T00:59:01Z" uid="4467" user="Rosscoe" changeset="643237" lat="-31.089428" lon="150.926925">
    <tag k="created_by" v="JOSM"/>
    <tag k="highway" v="residential"/>
    <tag k="name" v="Kable Avenue"/>
    <tag k="source" v="gpsdrivetrack"/>
    <tag k="surface" v="paved"/>
  </node>
  <node id="140764838" version="2" timestamp="2007-12-02T08:02:27Z" uid="4467" user="Rosscoe" changeset="40805" lat="-31.089428" lon="150.926925"/>
  <node id="140764868" version="1" timestamp="2007-11-29T00:59:02Z" uid="4467" user="Rosscoe" changeset="643237" lat="-31.089317" lon="150.926832">
    <tag k="created_by" v="JOSM"/>
    <tag k="highway" v="residential"/>
    <tag k="name" v="Kable Avenue"/>
    <tag k="source" v="gpsdrivetrack"/>
    <tag k="surface" v="paved"/>
  </node>
  <node id="140764868" version="2" timestamp="2007-12-02T08:06:14Z" uid="4467" user="Rosscoe" changeset="40805" lat="-31.089317" lon="150.926832">
    <tag k="created_by" v="JOSM"/>
    <tag k="highway" v="residential"/>
    <tag k="name" v="Kable Avenue"/>
    <tag k="source" v="gpsdrivetrack"/>
    <tag k="surface" v="paved"/>
  </node>
  <node id="140764903" version="1" timestamp="2007-11-29T00:59:04Z" uid="4467" user="Rosscoe" changeset="643237" lat="-31.089203" lon="150.926737">
    <tag k="created_by" v="JOSM"/>
    <tag k="highway" v="residential"/>
    <tag k="name" v="Kable Avenue"/>
    <tag k="source" v="gpsdrivetrack"/>
    <tag k="surface" v="paved"/>
  </node>
  <node id="140764903" version="2" timestamp="2007-12-02T08:06:17Z" uid="4467" user="Rosscoe" changeset="40805" lat="-31.089203" lon="150.926737">
    <tag k="created_by" v="JOSM"/>
    <tag k="highway" v="residential"/>
    <tag k="name" v="Kable Avenue"/>
    <tag k="source" v="gpsdrivetrack"/>
    <tag k="surface" v="paved"/>
  </node>
  <node id="140764926" version="1" timestamp="2007-11-29T00:59:05Z" uid="4467" user="Rosscoe" changeset="643237" lat="-31.089092" lon="150.926643">
    <tag k="created_by" v="JOSM"/>
    <tag k="highway" v="residential"/>
    <tag k="name" v="Kable Avenue"/>
    <tag k="source" v="gpsdrivetrack"/>
    <tag k="surface" v="paved"/>
  </node>
  <node id="140764926" version="2" timestamp="2007-12-02T08:06:19Z" uid="4467" user="Rosscoe" changeset="40805" lat="-31.089092" lon="150.926643">
    <tag k="created_by" v="JOSM"/>
    <tag k="highway" v="residential"/>
    <tag k="name" v="Kable Avenue"/>
    <tag k="source" v="gpsdrivetrack"/>
    <tag k="surface" v="paved"/>
  </node>
  <node id="140764959" version="1" timestamp="2007-11-29T00:59:06Z" uid="4467" user="Rosscoe" changeset="643237" lat="-31.08886" lon="150.926453">
    <tag k="created_by" v="JOSM"/>
    <tag k="highway" v="residential"/>
    <tag k="name" v="Kable Avenue"/>
    <tag k="source" v="gpsdrivetrack"/>
    <tag k="surface" v="paved"/>
  </node>
  <node id="140764959" version="2" timestamp="2007-12-02T08:06:00Z" uid="4467" user="Rosscoe" changeset="40805" lat="-31.08886" lon="150.926453">
    <tag k="created_by" v="JOSM"/>
    <tag k="highway" v="residential"/>
    <tag k="name" v="Kable Avenue"/>
    <tag k="source" v="gpsdrivetrack"/>
    <tag k="surface" v="paved"/>
  </node>
  <node id="140764987" version="1" timestamp="2007-11-29T00:59:07Z" uid="4467" user="Rosscoe" changeset="643237" lat="-31.088977" lon="150.926548">
    <tag k="created_by" v="JOSM"/>
    <tag k="highway" v="residential"/>
    <tag k="name" v="Kable Avenue"/>
    <tag k="source" v="gpsdrivetrack"/>
    <tag k="surface" v="paved"/>
  </node>
  <node id="140764987" version="2" timestamp="2007-12-02T08:06:02Z" uid="4467" user="Rosscoe" changeset="40805" lat="-31.088977" lon="150.926548">
    <tag k="created_by" v="JOSM"/>
    <tag k="highway" v="residential"/>
    <tag k="name" v="Kable Avenue"/>
    <tag k="source" v="gpsdrivetrack"/>
    <tag k="surface" v="paved"/>
  </node>
  <node id="140765025" version="1" timestamp="2007-11-29T00:59:08Z" uid="4467" user="Rosscoe" changeset="643237" lat="-31.088627" lon="150.926258">
    <tag k="created_by" v="JOSM"/>
    <tag k="highway" v="residential"/>
    <tag k="name" v="Kable Avenue"/>
    <tag k="source" v="gpsdrivetrack"/>
    <tag k="surface" v="paved"/>
  </node>
  <node id="140765025" version="2" timestamp="2007-12-02T08:06:09Z" uid="4467" user="Rosscoe" changeset="40805" lat="-31.088627" lon="150.926258">
    <tag k="created_by" v="JOSM"/>
    <tag k="highway" v="residential"/>
    <tag k="name" v="Kable Avenue"/>
    <tag k="source" v="gpsdrivetrack"/>
    <tag k="surface" v="paved"/>
  </node>
  <node id="140765057" version="1" timestamp="2007-11-29T00:59:10Z" uid="4467" user="Rosscoe" changeset="643237" lat="-31.088743" lon="150.926358">
    <tag k="created_by" v="JOSM"/>
    <tag k="highway" v="residential"/>
    <tag k="name" v="Kable Avenue"/>
    <tag k="source" v="gpsdrivetrack"/>
    <tag k="surface" v="paved"/>
  </node>
  <node id="140765057" version="2" timestamp="2007-12-02T08:05:51Z" uid="4467" user="Rosscoe" changeset="40805" lat="-31.088743" lon="150.926358">
    <tag k="created_by" v="JOSM"/>
    <tag k="highway" v="residential"/>
    <tag k="name" v="Kable Avenue"/>
    <tag k="source" v="gpsdrivetrack"/>
    <tag k="surface" v="paved"/>
  </node>
  <node id="140765090" version="1" timestamp="2007-11-29T00:59:11Z" uid="4467" user="Rosscoe" changeset="643237" lat="-31.088403" lon="150.926065">
    <tag k="created_by" v="JOSM"/>
    <tag k="highway" v="residential"/>
    <tag k="name" v="Kable Avenue"/>
    <tag k="source" v="gpsdrivetrack"/>
    <tag k="surface" v="paved"/>
  </node>
  <node id="140765090" version="2" timestamp="2007-12-02T08:05:53Z" uid="4467" user="Rosscoe" changeset="40805" lat="-31.088403" lon="150.926065">
    <tag k="created_by" v="JOSM"/>
    <tag k="highway" v="residential"/>
    <tag k="name" v="Kable Avenue"/>
    <tag k="source" v="gpsdrivetrack"/>
    <tag k="surface" v="paved"/>
  </node>
  <node id="140765127" version="1" timestamp="2007-11-29T00:59:12Z" uid="4467" user="Rosscoe" changeset="643237" lat="-31.088515" lon="150.926163">
    <tag k="created_by" v="JOSM"/>
    <tag k="highway" v="residential"/>
    <tag k="name" v="Kable Avenue"/>
    <tag k="source" v="gpsdrivetrack"/>
    <tag k="surface" v="paved"/>
  </node>
  <node id="140765127" version="2" timestamp="2007-12-02T08:02:31Z" uid="4467" user="Rosscoe" changeset="40805" lat="-31.088515" lon="150.926163"/>
  <node id="140765153" version="1" timestamp="2007-11-29T00:59:13Z" uid="4467" user="Rosscoe" changeset="643237" lat="-31.088178" lon="150.925865">
    <tag k="created_by" v="JOSM"/>
    <tag k="highway" v="residential"/>
    <tag k="name" v="Kable Avenue"/>
    <tag k="source" v="gpsdrivetrack"/>
    <tag k="surface" v="paved"/>
  </node>
  <node id="140765153" version="2" timestamp="2007-12-02T08:05:57Z" uid="4467" user="Rosscoe" changeset="40805" lat="-31.088178" lon="150.925865">
    <tag k="created_by" v="JOSM"/>
    <tag k="highway" v="residential"/>
    <tag k="name" v="Kable Avenue"/>
    <tag k="source" v="gpsdrivetrack"/>
    <tag k="surface" v="paved"/>
  </node>
  <node id="140765165" version="1" timestamp="2007-11-29T00:59:14Z" uid="4467" user="Rosscoe" changeset="643237" lat="-31.088288" lon="150.925963">
    <tag k="created_by" v="JOSM"/>
    <tag k="highway" v="residential"/>
    <tag k="name" v="Kable Avenue"/>
    <tag k="source" v="gpsdrivetrack"/>
    <tag k="surface" v="paved"/>
  </node>
  <node id="140765165" version="2" timestamp="2007-12-02T08:05:58Z" uid="4467" user="Rosscoe" changeset="40805" lat="-31.088288" lon="150.925963">
    <tag k="created_by" v="JOSM"/>
    <tag k="highway" v="residential"/>
    <tag k="name" v="Kable Avenue"/>
    <tag k="source" v="gpsdrivetrack"/>
    <tag k="surface" v="paved"/>
  </node>
  <node id="140765188" version="1" timestamp="2007-11-29T00:59:16Z" uid="4467" user="Rosscoe" changeset="643237" lat="-31.087973" lon="150.925678">
    <tag k="created_by" v="JOSM"/>
    <tag k="highway" v="residential"/>
    <tag k="name" v="Kable Avenue"/>
    <tag k="source" v="gpsdrivetrack"/>
    <tag k="surface" v="paved"/>
  </node>
  <node id="140765188" version="2" timestamp="2007-12-02T08:02:48Z" uid="4467" user="Rosscoe" changeset="40805" lat="-31.087973" lon="150.925678"/>
  <node id="140765217" version="1" timestamp="2007-11-29T00:59:17Z" uid="4467" user="Rosscoe" changeset="643237" lat="-31.088073" lon="150.925768">
    <tag k="created_by" v="JOSM"/>
    <tag k="highway" v="residential"/>
    <tag k="name" v="Kable Avenue"/>
    <tag k="source" v="gpsdrivetrack"/>
    <tag k="surface" v="paved"/>
  </node>
  <node id="140765217" version="2" timestamp="2007-12-02T08:04:31Z" uid="4467" user="Rosscoe" changeset="40805" lat="-31.088073" lon="150.925768">
    <tag k="created_by" v="JOSM"/>
    <tag k="highway" v="residential"/>
    <tag k="name" v="Kable Avenue"/>
    <tag k="source" v="gpsdrivetrack"/>
    <tag k="surface" v="paved"/>
  </node>
  <node id="140765244" version="1" timestamp="2007-11-29T00:59:18Z" uid="4467" user="Rosscoe" changeset="643237" lat="-31.087793" lon="150.925528">
    <tag k="created_by" v="JOSM"/>
    <tag k="highway" v="residential"/>
    <tag k="name" v="Kable Avenue"/>
    <tag k="source" v="gpsdrivetrack"/>
    <tag k="surface" v="paved"/>
  </node>
  <node id="140765244" version="2" timestamp="2007-12-02T08:02:51Z" uid="4467" user="Rosscoe" changeset="40805" lat="-31.087793" lon="150.925528"/>
  <node id="140765269" version="1" timestamp="2007-11-29T00:59:19Z" uid="4467" user="Rosscoe" changeset="643237" lat="-31.08788" lon="150.9256">
    <tag k="created_by" v="JOSM"/>
    <tag k="highway" v="residential"/>
    <tag k="name" v="Kable Avenue"/>
    <tag k="source" v="gpsdrivetrack"/>
    <tag k="surface" v="paved"/>
  </node>
  <node id="140765269" version="2" timestamp="2007-12-02T08:04:28Z" uid="4467" user="Rosscoe" changeset="40805" lat="-31.08788" lon="150.9256">
    <tag k="created_by" v="JOSM"/>
    <tag k="highway" v="residential"/>
    <tag k="name" v="Kable Avenue"/>
    <tag k="source" v="gpsdrivetrack"/>
    <tag k="surface" v="paved"/>
  </node>
  <node id="140765297" version="1" timestamp="2007-11-29T00:59:21Z" uid="4467" user="Rosscoe" changeset="643237" lat="-31.08762" lon="150.925442">
    <tag k="created_by" v="JOSM"/>
    <tag k="highway" v="residential"/>
    <tag k="name" v="Kable Avenue"/>
    <tag k="source" v="gpsdrivetrack"/>
    <tag k="surface" v="paved"/>
  </node>
  <node id="140765297" version="2" timestamp="2007-12-02T08:03:58Z" uid="4467" user="Rosscoe" changeset="40805" lat="-31.08762" lon="150.9254412"/>
  <node id="140765297" version="3" timestamp="2009-06-04T09:53:42Z" uid="74617" user="JohnSmith" changeset="1419813" lat="-31.08762" lon="150.9254412"/>
  <node id="140765324" version="1" timestamp="2007-11-29T00:59:22Z" uid="4467" user="Rosscoe" changeset="643237" lat="-31.087708" lon="150.925473">
    <tag k="created_by" v="JOSM"/>
    <tag k="highway" v="residential"/>
    <tag k="name" v="Kable Avenue"/>
    <tag k="source" v="gpsdrivetrack"/>
    <tag k="surface" v="paved"/>
  </node>
  <node id="140765324" version="2" timestamp="2007-12-02T08:02:44Z" uid="4467" user="Rosscoe" changeset="40805" lat="-31.087708" lon="150.925473"/>
  <node id="140763568" version="3" timestamp="2012-04-11T09:35:05Z" uid="88085" user="bacco007" changeset="11262761" lat="-31.08762" lon="150.9254636"/>
  <node id="140763587" version="3" timestamp="2012-04-11T09:35:05Z" uid="88085" user="bacco007" changeset="11262761" lat="-31.0875482" lon="150.9254614"/>
  <node id="140763587" version="4" timestamp="2012-07-04T02:29:41Z" uid="20949" user="Ebenezer" changeset="12106125" lat="-31.0875482" lon="150.9254614"/>
  <node id="140763606" version="3" timestamp="2012-04-11T09:35:05Z" uid="88085" user="bacco007" changeset="11262761" lat="-31.0874856" lon="150.9255024"/>
  <node id="140763606" version="4" timestamp="2012-07-04T02:29:41Z" uid="20949" user="Ebenezer" changeset="12106125" lat="-31.0874856" lon="150.9255024"/>
  <node id="140763621" version="3" timestamp="2012-04-11T09:35:05Z" uid="88085" user="bacco007" changeset="11262761" lat="-31.0874085" lon="150.9255786"/>
  <node id="140763621" version="4" timestamp="2012-07-04T02:29:41Z" uid="20949" user="Ebenezer" changeset="12106125" lat="-31.0874085" lon="150.9255786"/>
  <node id="140763680" version="3" timestamp="2012-04-11T09:35:06Z" uid="88085" user="bacco007" changeset="11262761" lat="-31.0872646" lon="150.9257738"/>
  <node id="140763680" version="4" timestamp="2012-07-04T02:29:41Z" uid="20949" user="Ebenezer" changeset="12106125" lat="-31.0872646" lon="150.9257738"/>
  <node id="140763814" version="5" timestamp="2012-04-11T09:35:06Z" uid="88085" user="bacco007" changeset="11262761" lat="-31.086943" lon="150.9262361"/>
  <node id="140763814" version="6" timestamp="2012-07-04T02:29:41Z" uid="20949" user="Ebenezer" changeset="12106125" lat="-31.086943" lon="150.9262361"/>
  <node id="140764467" version="9" timestamp="2012-07-04T03:27:38Z" uid="20949" user="Ebenezer" changeset="12106243" lat="-31.0907668" lon="150.9282038"/>
  <node id="140764585" version="3" timestamp="2012-07-04T03:27:38Z" uid="20949" user="Ebenezer" changeset="12106243" lat="-31.090293" lon="150.927722"/>
  <node id="140764838" version="3" timestamp="2012-07-04T02:51:47Z" uid="20949" user="Ebenezer" changeset="12106125" lat="-31.089395" lon="150.9269641"/>
  <node id="140764838" version="4" timestamp="2012-07-04T03:27:38Z" uid="20949" user="Ebenezer" changeset="12106243" lat="-31.089395" lon="150.9269641"/>
  <node id="140765127" version="3" timestamp="2012-04-11T09:35:06Z" uid="88085" user="bacco007" changeset="11262761" lat="-31.0885047" lon="150.9262062"/>
  <node id="140765127" version="4" timestamp="2012-07-04T03:27:38Z" uid="20949" user="Ebenezer" changeset="12106243" lat="-31.0885047" lon="150.9262062"/>
  <node id="140765188" version="3" timestamp="2012-04-11T09:35:06Z" uid="88085" user="bacco007" changeset="11262761" lat="-31.0879504" lon="150.9257331"/>
  <node id="140765188" version="4" timestamp="2012-07-04T03:27:38Z" uid="20949" user="Ebenezer" changeset="12106243" lat="-31.0879504" lon="150.9257331"/>
  <node id="140765244" version="3" timestamp="2012-04-11T09:35:06Z" uid="88085" user="bacco007" changeset="11262761" lat="-31.0877971" lon="150.9255879"/>
  <node id="140765244" version="4" timestamp="2012-07-04T03:27:38Z" uid="20949" user="Ebenezer" changeset="12106243" lat="-31.0877971" lon="150.9255879"/>
  <node id="140765324" version="3" timestamp="2012-04-11T09:35:06Z" uid="88085" user="bacco007" changeset="11262761" lat="-31.0877018" lon="150.9255162"/>
  <node id="140765324" version="4" timestamp="2012-07-04T03:27:38Z" uid="20949" user="Ebenezer" changeset="12106243" lat="-31.0877018" lon="150.9255162"/>
</osm>
