<?xml version='1.0' encoding='UTF-8'?>
<osm version="0.6" generator="libosmium/2.20.0">
  <node id="144606681" version="3" timestamp="2008-07-03T14:35:32Z" uid="6975" user="ulfl" changeset="378199" lat="48.1657032" lon="16.3469732">
    <tag k="amenity" v="fuel"/>
  </node>
  <node id="144606681" version="4" timestamp="2008-08-12T11:38:28Z" uid="58402" user="fdemmer" changeset="202895" lat="48.1657063" lon="16.3469723">
    <tag k="amenity" v="fuel"/>
    <tag k="created_by" v="Potlatch 0.10b"/>
    <tag k="name" v="Aral"/>
  </node>
  <node id="144606681" version="5" timestamp="2008-08-12T11:44:49Z" uid="58402" user="fdemmer" changeset="202895" lat="48.1657407" lon="16.3467835">
    <tag k="amenity" v="fuel"/>
    <tag k="created_by" v="Potlatch 0.10b"/>
    <tag k="name" v="Aral"/>
  </node>
  <node id="144606681" version="6" timestamp="2008-08-31T08:33:05Z" uid="58402" user="fdemmer" changeset="471541" lat="48.1656292" lon="16.3468504">
    <tag k="amenity" v="fuel"/>
    <tag k="created_by" v="Potlatch 0.10b"/>
    <tag k="name" v="Aral"/>
  </node>
  <node id="144606681" version="7" timestamp="2008-10-12T22:44:10Z" uid="58402" user="fdemmer" changeset="301090" lat="48.1656743" lon="16.3466546">
    <tag k="amenity" v="fuel"/>
    <tag k="created_by" v="Potlatch 0.10b"/>
    <tag k="name" v="Aral"/>
  </node>
  <node id="144606681" version="8" timestamp="2008-12-14T13:00:46Z" uid="54806" user="_al" changeset="369338" lat="48.1655778" lon="16.3467975">
    <tag k="amenity" v="fuel"/>
    <tag k="created_by" v="Potlatch 0.10f"/>
    <tag k="name" v="Aral"/>
  </node>
  <node id="144606681" version="9" timestamp="2009-01-06T02:44:47Z" uid="54806" user="_al" changeset="742984" lat="48.1655813" lon="16.3468006">
    <tag k="amenity" v="fuel"/>
    <tag k="created_by" v="Potlatch 0.10f"/>
    <tag k="name" v="BP"/>
  </node>
  <node id="144606681" version="10" timestamp="2009-01-10T21:18:09Z" uid="58402" user="fdemmer" changeset="768358" lat="48.1655813" lon="16.3468006">
    <tag k="amenity" v="fuel"/>
    <tag k="building" v="yes"/>
    <tag k="created_by" v="Potlatch 0.10f"/>
    <tag k="name" v="BP"/>
  </node>
  <node id="144606681" version="11" timestamp="2009-05-11T19:04:55Z" uid="43577" user="dorni74" changeset="1156273" lat="48.1655818" lon="16.3468078">
    <tag k="amenity" v="fuel"/>
    <tag k="created_by" v="Potlatch 0.10f"/>
    <tag k="name" v="BP"/>
  </node>
  <node id="144606681" version="12" timestamp="2009-06-08T17:04:32Z" uid="58091" user="Andreas M" changeset="1460785" lat="48.1655818" lon="16.3468078">
    <tag k="amenity" v="fuel"/>
    <tag k="created_by" v="Potlatch 0.10f"/>
    <tag k="name" v="BP"/>
  </node>
</osm>
