<?xml version='1.0' encoding='UTF-8'?>
<osm version="0.6" generator="libosmium/2.20.0">
  <node id="144847888" version="17" timestamp="2009-07-22T20:51:20Z" uid="123700" user="Mala" changeset="1909234" lat="24.0001945" lon="53.9995319">
    <tag k="country_code_fips" v="AE"/>
    <tag k="country_code_iso3166_1_alpha_2" v="AE"/>
    <tag k="int_name" v="United Arab Emirates"/>
    <tag k="is_in:continent" v="Asia"/>
    <tag k="name" v="United Arab Emirates"/>
    <tag k="name:ar" v="الإمارات العربيّة المتّحدة"/>
    <tag k="name:cy" v="Yr Emiradau Arabaidd Unedig"/>
    <tag k="name:da" v="Forenede Arabiske Emirater"/>
    <tag k="name:de" v="Vereinigte Arabische Emirate"/>
    <tag k="name:en" v="United Arab Emirates"/>
    <tag k="name:eo" v="Unuiĝintaj Arabaj Emirlandoj"/>
    <tag k="name:fi" v="Yhdistyneet arabiemiirikunnat"/>
    <tag k="name:he" v="איחוד האמירויות הערביות"/>
    <tag k="name:hu" v="Egyesült Arab Emírségek"/>
    <tag k="name:nl" v="Verenigde Arabische Emiraten"/>
    <tag k="name:pl" v="Zjednoczone Emiraty Arabskie"/>
    <tag k="name:sl" v="Združeni arabski emirati"/>
    <tag k="name:zh" v="阿拉伯联合酋长国"/>
    <tag k="name:zh_py" v="Alabo Lianhe Qiuchangguo"/>
    <tag k="name:zh_pyt" v="Ālābó Liánhé Qiúchángguó"/>
    <tag k="place" v="country"/>
  </node>
  <node id="144848937" version="15" timestamp="2009-07-22T20:51:21Z" uid="123700" user="Mala" changeset="1909234" lat="20.9999816" lon="57.0037413">
    <tag k="capital_city" v="Muscat"/>
    <tag k="country_code_fips" v="MU"/>
    <tag k="country_code_iso3166_1_alpha_2" v="OM"/>
    <tag k="is_in:continent" v="Asia"/>
    <tag k="name" v="سلطنة عُمان Oman"/>
    <tag k="name:ar" v="سلطنة عُمان"/>
    <tag k="name:cy" v="Oman"/>
    <tag k="name:da" v="Oman"/>
    <tag k="name:de" v="Oman"/>
    <tag k="name:en" v="Oman"/>
    <tag k="name:eo" v="Omano"/>
    <tag k="name:fi" v="Oman"/>
    <tag k="name:he" v="עומן"/>
    <tag k="name:hu" v="Omán"/>
    <tag k="name:zh" v="阿曼"/>
    <tag k="name:zh_py" v="Aman"/>
    <tag k="name:zh_pyt" v="Āmàn"/>
    <tag k="off_name" v="Sultanate of Oman"/>
    <tag k="official_name" v="Sultanate of Oman"/>
    <tag k="place" v="country"/>
    <tag k="population" v="2577000"/>
  </node>
</osm>
