<?xml version='1.0' encoding='UTF-8'?>
<osm version="0.6" generator="libosmium/2.20.0">
  <node id="145124958" version="10" timestamp="2008-12-04T20:27:08Z" uid="6975" user="ulfl" changeset="107048" lat="57.6996217" lon="12.0099769">
    <tag k="name" v="Ekmanska"/>
    <tag k="railway" v="tram_stop"/>
  </node>
  <node id="145124958" version="11" timestamp="2011-01-01T14:29:32Z" uid="4992" user="johnrobot" changeset="6828154" lat="57.699638" lon="12.0096302">
    <tag k="name" v="Ekmanska"/>
    <tag k="railway" v="tram_stop"/>
  </node>
  <node id="145124958" version="12" timestamp="2011-06-05T20:39:22Z" uid="25408" user="Zawaq" changeset="8353679" lat="57.6996698" lon="12.0096269">
    <tag k="name" v="Ekmanska"/>
    <tag k="railway" v="tram_stop"/>
  </node>
  <node id="145124980" version="8" timestamp="2008-12-04T20:27:09Z" uid="6975" user="ulfl" changeset="107048" lat="57.7024651" lon="12.022594">
    <tag k="name" v="Töpelsgatan"/>
    <tag k="railway" v="tram_stop"/>
  </node>
  <node id="145124980" version="9" timestamp="2011-01-01T14:25:21Z" uid="4992" user="johnrobot" changeset="6828154" lat="57.7025109" lon="12.0225569">
    <tag k="name" v="Töpelsgatan"/>
    <tag k="railway" v="tram_stop"/>
  </node>
  <node id="145124980" version="10" timestamp="2011-06-05T20:39:22Z" uid="25408" user="Zawaq" changeset="8353679" lat="57.7023341" lon="12.02215">
    <tag k="name" v="Töpelsgatan"/>
    <tag k="railway" v="tram_stop"/>
  </node>
  <node id="145125002" version="16" timestamp="2008-12-04T20:27:09Z" uid="6975" user="ulfl" changeset="107048" lat="57.7099442" lon="12.0234008">
    <tag k="name" v="Torp"/>
    <tag k="railway" v="tram_stop"/>
  </node>
  <node id="145125002" version="17" timestamp="2010-03-06T17:24:03Z" uid="25408" user="Zawaq" changeset="4052592" lat="57.7099442" lon="12.0234008">
    <tag k="name" v="Torp;Kålltorp"/>
    <tag k="railway" v="tram_stop"/>
  </node>
  <node id="145125002" version="18" timestamp="2010-12-31T10:37:43Z" uid="4992" user="johnrobot" changeset="6818074" lat="57.7099508" lon="12.0233873">
    <tag k="name" v="Torp;Kålltorp"/>
    <tag k="railway" v="tram_stop"/>
  </node>
  <node id="145125002" version="19" timestamp="2011-06-05T20:04:18Z" uid="25408" user="Zawaq" changeset="8353679" lat="57.709816" lon="12.0234444">
    <tag k="name" v="Torp"/>
    <tag k="railway" v="tram_stop"/>
  </node>
  <node id="145125002" version="20" timestamp="2011-06-05T20:09:33Z" uid="25408" user="Zawaq" changeset="8353679" lat="57.709816" lon="12.0234444">
    <tag k="name" v="Torp"/>
    <tag k="railway" v="tram_stop"/>
    <tag k="ref" v="C"/>
  </node>
  <node id="145125002" version="21" timestamp="2011-06-05T20:17:59Z" uid="25408" user="Zawaq" changeset="8353679" lat="57.709816" lon="12.0234444"/>
  <node id="145124958" version="13" timestamp="2012-05-13T21:19:47Z" uid="351532" user="tothod" changeset="11590872" lat="57.6996698" lon="12.0096269">
    <tag k="name" v="Ekmanska"/>
    <tag k="public_transport" v="stop_position"/>
    <tag k="railway" v="tram_stop"/>
  </node>
  <node id="145124980" version="11" timestamp="2012-05-15T14:13:13Z" uid="351532" user="tothod" changeset="11605356" lat="57.7023341" lon="12.02215">
    <tag k="name" v="Töpelsgatan"/>
    <tag k="public_transport" v="stop_position"/>
    <tag k="railway" v="tram_stop"/>
  </node>
</osm>
