<?xml version='1.0' encoding='UTF-8'?>
<osm version="0.6" generator="libosmium/2.20.0">
  <node id="145265683" version="6" timestamp="2009-12-14T17:06:18Z" uid="74617" user="JohnSmith" changeset="3373323" lat="-37.8996187" lon="145.2339228">
    <tag k="amenity" v="fuel"/>
    <tag k="operator" v="Shell"/>
  </node>
  <node id="145265683" version="7" timestamp="2010-03-07T10:37:13Z" uid="6513" user="Glen" changeset="4058554" lat="-37.8996186" lon="145.2339228">
    <tag k="amenity" v="fuel"/>
    <tag k="fuel:discount" v="coles"/>
    <tag k="name" v="Coles Express Knoxfield Stud Rd"/>
    <tag k="operator" v="Shell"/>
    <tag k="source" v="colesexpress.com.au"/>
  </node>
  <node id="145266568" version="3" timestamp="2009-12-15T07:53:56Z" uid="74617" user="JohnSmith" changeset="3377391" lat="-37.8764462" lon="145.2324501">
    <tag k="amenity" v="fuel"/>
    <tag k="created_by" v="Potlatch 0.5d"/>
    <tag k="name" v="BP"/>
  </node>
  <node id="145265683" version="8" timestamp="2012-07-19T23:15:13Z" uid="722137" user="OSMF Redaction Account" changeset="12351417" lat="-37.8996187" lon="145.2339228">
    <tag k="amenity" v="fuel"/>
    <tag k="fuel:discount" v="coles"/>
    <tag k="name" v="Coles Express Knoxfield Stud Rd"/>
    <tag k="source" v="colesexpress.com.au"/>
  </node>
</osm>
