<?xml version='1.0' encoding='UTF-8'?>
<osm version="0.6" generator="libosmium/2.20.0">
  <node id="145821195" version="6" timestamp="2009-05-01T20:02:11Z" uid="20587" user="balrog-kun" changeset="1041684" lat="50.6359119" lon="18.842439">
    <tag k="addr:postcode" v="42-286"/>
    <tag k="created_by" v="JOSM"/>
    <tag k="is_in" v="gmina Koszęcin, powiat lubliniecki, województwo śląskie, Poland"/>
    <tag k="is_in:country" v="Poland"/>
    <tag k="is_in:county" v="powiat lubliniecki"/>
    <tag k="is_in:municipality" v="gmina Koszęcin"/>
    <tag k="is_in:province" v="województwo śląskie"/>
    <tag k="name" v="Koszęcin"/>
    <tag k="place" v="village"/>
    <tag k="population" v="4471"/>
    <tag k="source:population" v="wikipedia"/>
    <tag k="teryt:rm" v="01"/>
    <tag k="teryt:simc" v="0135450"/>
    <tag k="teryt:stan_na" v="2009-01-01"/>
    <tag k="teryt:terc" v="2407062"/>
    <tag k="teryt:updated_by" v="teryt2osm combine.py v. 43"/>
    <tag k="wikipedia" v="Koszęcin"/>
  </node>
  <node id="145821195" version="7" timestamp="2010-03-19T20:09:40Z" uid="91056" user="Yarl" changeset="4173723" lat="50.6369162" lon="18.8434797">
    <tag k="addr:postcode" v="42-286"/>
    <tag k="is_in" v="gmina Koszęcin, powiat lubliniecki, województwo śląskie, Poland"/>
    <tag k="is_in:country" v="Poland"/>
    <tag k="is_in:county" v="powiat lubliniecki"/>
    <tag k="is_in:municipality" v="gmina Koszęcin"/>
    <tag k="is_in:province" v="województwo śląskie"/>
    <tag k="name" v="Koszęcin"/>
    <tag k="place" v="village"/>
    <tag k="population" v="4471"/>
    <tag k="source:population" v="wikipedia"/>
    <tag k="teryt:rm" v="01"/>
    <tag k="teryt:simc" v="0135450"/>
    <tag k="teryt:stan_na" v="2009-01-01"/>
    <tag k="teryt:terc" v="2407062"/>
    <tag k="teryt:updated_by" v="teryt2osm combine.py v. 43"/>
    <tag k="wikipedia" v="Koszęcin"/>
  </node>
  <node id="145821195" version="8" timestamp="2010-03-24T13:28:25Z" uid="251528" user="Maschatoshi" changeset="4221181" lat="50.6355805" lon="18.8414859">
    <tag k="addr:postcode" v="42-286"/>
    <tag k="is_in" v="gmina Koszęcin, powiat lubliniecki, województwo śląskie, Poland"/>
    <tag k="is_in:country" v="Poland"/>
    <tag k="is_in:county" v="powiat lubliniecki"/>
    <tag k="is_in:municipality" v="gmina Koszęcin"/>
    <tag k="is_in:province" v="województwo śląskie"/>
    <tag k="name" v="Koszęcin"/>
    <tag k="place" v="village"/>
    <tag k="population" v="4471"/>
    <tag k="source:population" v="wikipedia"/>
    <tag k="teryt:rm" v="01"/>
    <tag k="teryt:simc" v="0135450"/>
    <tag k="teryt:stan_na" v="2009-01-01"/>
    <tag k="teryt:terc" v="2407062"/>
    <tag k="teryt:updated_by" v="teryt2osm combine.py v. 43"/>
    <tag k="wikipedia" v="Koszęcin"/>
  </node>
  <node id="145821195" version="9" timestamp="2010-04-11T04:37:39Z" uid="20587" user="balrog-kun" changeset="4389130" lat="50.6358294" lon="18.8414421">
    <tag k="addr:postcode" v="42-286"/>
    <tag k="is_in" v="gmina Koszęcin, powiat lubliniecki, województwo śląskie, Poland"/>
    <tag k="is_in:country" v="Poland"/>
    <tag k="is_in:county" v="powiat lubliniecki"/>
    <tag k="is_in:municipality" v="gmina Koszęcin"/>
    <tag k="is_in:province" v="województwo śląskie"/>
    <tag k="name" v="Koszęcin"/>
    <tag k="place" v="village"/>
    <tag k="population" v="4471"/>
    <tag k="source:population" v="wikipedia"/>
    <tag k="teryt:rm" v="01"/>
    <tag k="teryt:simc" v="0135450"/>
    <tag k="teryt:stan_na" v="2009-01-01"/>
    <tag k="teryt:terc" v="2407062"/>
    <tag k="teryt:updated_by" v="teryt2osm combine.py v. 43"/>
    <tag k="wikipedia" v="Koszęcin"/>
  </node>
  <node id="145821195" version="10" timestamp="2010-04-12T12:33:53Z" uid="251528" user="Maschatoshi" changeset="4403871" lat="50.6358295" lon="18.841442">
    <tag k="addr:postcode" v="42-286"/>
    <tag k="is_in" v="gmina Koszęcin, powiat lubliniecki, województwo śląskie, Poland"/>
    <tag k="is_in:country" v="Poland"/>
    <tag k="is_in:county" v="powiat lubliniecki"/>
    <tag k="is_in:municipality" v="gmina Koszęcin"/>
    <tag k="is_in:province" v="województwo śląskie"/>
    <tag k="name" v="Koszęcin www.koszecin.info"/>
    <tag k="place" v="village"/>
    <tag k="population" v="4471"/>
    <tag k="source:population" v="wikipedia"/>
    <tag k="teryt:rm" v="01"/>
    <tag k="teryt:simc" v="0135450"/>
    <tag k="teryt:stan_na" v="2009-01-01"/>
    <tag k="teryt:terc" v="2407062"/>
    <tag k="teryt:updated_by" v="teryt2osm combine.py v. 43"/>
    <tag k="wikipedia" v="Koszęcin"/>
  </node>
  <node id="145821195" version="11" timestamp="2010-07-28T18:21:33Z" uid="91056" user="Yarl" changeset="5340706" lat="50.6358295" lon="18.841442">
    <tag k="addr:postcode" v="42-286"/>
    <tag k="is_in" v="gmina Koszęcin, powiat lubliniecki, województwo śląskie, Poland"/>
    <tag k="is_in:country" v="Poland"/>
    <tag k="is_in:county" v="powiat lubliniecki"/>
    <tag k="is_in:municipality" v="gmina Koszęcin"/>
    <tag k="is_in:province" v="województwo śląskie"/>
    <tag k="name" v="Koszęcin"/>
    <tag k="place" v="village"/>
    <tag k="population" v="4471"/>
    <tag k="source:population" v="wikipedia"/>
    <tag k="teryt:rm" v="01"/>
    <tag k="teryt:simc" v="0135450"/>
    <tag k="teryt:stan_na" v="2009-01-01"/>
    <tag k="teryt:terc" v="2407062"/>
    <tag k="teryt:updated_by" v="teryt2osm combine.py v. 43"/>
    <tag k="wikipedia" v="Koszęcin"/>
  </node>
  <node id="145821199" version="6" timestamp="2009-05-01T20:03:49Z" uid="20587" user="balrog-kun" changeset="1041684" lat="50.6753659" lon="18.9083319">
    <tag k="addr:postcode" v="42-283"/>
    <tag k="created_by" v="JOSM"/>
    <tag k="is_in" v="gmina Boronów, powiat lubliniecki, województwo śląskie, Poland"/>
    <tag k="is_in:country" v="Poland"/>
    <tag k="is_in:county" v="powiat lubliniecki"/>
    <tag k="is_in:municipality" v="gmina Boronów"/>
    <tag k="is_in:province" v="województwo śląskie"/>
    <tag k="name" v="Boronów"/>
    <tag k="place" v="village"/>
    <tag k="population" v="2793"/>
    <tag k="source:population" v="wikipedia"/>
    <tag k="teryt:rm" v="01"/>
    <tag k="teryt:simc" v="0132196"/>
    <tag k="teryt:stan_na" v="2009-01-01"/>
    <tag k="teryt:terc" v="2407022"/>
    <tag k="teryt:updated_by" v="teryt2osm combine.py v. 43"/>
    <tag k="wikipedia" v="Boronów"/>
  </node>
  <node id="145821199" version="7" timestamp="2010-03-18T18:58:46Z" uid="91056" user="Yarl" changeset="4163327" lat="50.6755748" lon="18.9034287">
    <tag k="addr:postcode" v="42-283"/>
    <tag k="is_in" v="gmina Boronów, powiat lubliniecki, województwo śląskie, Poland"/>
    <tag k="is_in:country" v="Poland"/>
    <tag k="is_in:county" v="powiat lubliniecki"/>
    <tag k="is_in:municipality" v="gmina Boronów"/>
    <tag k="is_in:province" v="województwo śląskie"/>
    <tag k="name" v="Boronów"/>
    <tag k="place" v="village"/>
    <tag k="population" v="2793"/>
    <tag k="source:population" v="wikipedia"/>
    <tag k="teryt:rm" v="01"/>
    <tag k="teryt:simc" v="0132196"/>
    <tag k="teryt:stan_na" v="2009-01-01"/>
    <tag k="teryt:terc" v="2407022"/>
    <tag k="teryt:updated_by" v="teryt2osm combine.py v. 43"/>
    <tag k="wikipedia" v="Boronów"/>
  </node>
  <node id="145821199" version="8" timestamp="2010-03-18T21:32:14Z" uid="91056" user="Yarl" changeset="4165579" lat="50.6740738" lon="18.9022887">
    <tag k="addr:postcode" v="42-283"/>
    <tag k="is_in" v="gmina Boronów, powiat lubliniecki, województwo śląskie, Poland"/>
    <tag k="is_in:country" v="Poland"/>
    <tag k="is_in:county" v="powiat lubliniecki"/>
    <tag k="is_in:municipality" v="gmina Boronów"/>
    <tag k="is_in:province" v="województwo śląskie"/>
    <tag k="name" v="Boronów"/>
    <tag k="place" v="village"/>
    <tag k="population" v="2793"/>
    <tag k="source:population" v="wikipedia"/>
    <tag k="teryt:rm" v="01"/>
    <tag k="teryt:simc" v="0132196"/>
    <tag k="teryt:stan_na" v="2009-01-01"/>
    <tag k="teryt:terc" v="2407022"/>
    <tag k="teryt:updated_by" v="teryt2osm combine.py v. 43"/>
    <tag k="wikipedia" v="Boronów"/>
  </node>
  <node id="145821199" version="9" timestamp="2010-04-11T04:37:39Z" uid="20587" user="balrog-kun" changeset="4389130" lat="50.6738627" lon="18.9038311">
    <tag k="addr:postcode" v="42-283"/>
    <tag k="is_in" v="gmina Boronów, powiat lubliniecki, województwo śląskie, Poland"/>
    <tag k="is_in:country" v="Poland"/>
    <tag k="is_in:county" v="powiat lubliniecki"/>
    <tag k="is_in:municipality" v="gmina Boronów"/>
    <tag k="is_in:province" v="województwo śląskie"/>
    <tag k="name" v="Boronów"/>
    <tag k="place" v="village"/>
    <tag k="population" v="2793"/>
    <tag k="source:population" v="wikipedia"/>
    <tag k="teryt:rm" v="01"/>
    <tag k="teryt:simc" v="0132196"/>
    <tag k="teryt:stan_na" v="2009-01-01"/>
    <tag k="teryt:terc" v="2407022"/>
    <tag k="teryt:updated_by" v="teryt2osm combine.py v. 43"/>
    <tag k="wikipedia" v="Boronów"/>
  </node>
  <node id="145821204" version="6" timestamp="2009-05-01T20:03:01Z" uid="20587" user="balrog-kun" changeset="1041684" lat="50.71656" lon="18.8926634">
    <tag k="addr:postcode" v="42-284"/>
    <tag k="created_by" v="JOSM"/>
    <tag k="is_in" v="gmina Herby, powiat lubliniecki, województwo śląskie, Poland"/>
    <tag k="is_in:country" v="Poland"/>
    <tag k="is_in:county" v="powiat lubliniecki"/>
    <tag k="is_in:municipality" v="gmina Herby"/>
    <tag k="is_in:province" v="województwo śląskie"/>
    <tag k="name" v="Olszyna"/>
    <tag k="place" v="village"/>
    <tag k="population" v="773"/>
    <tag k="source:population" v="wikipedia"/>
    <tag k="teryt:rm" v="01"/>
    <tag k="teryt:simc" v="0132492"/>
    <tag k="teryt:stan_na" v="2009-01-01"/>
    <tag k="teryt:terc" v="2407042"/>
    <tag k="teryt:updated_by" v="teryt2osm combine.py v. 43"/>
    <tag k="wikipedia" v="Olszyna, Silesian Voivodeship"/>
  </node>
  <node id="145821204" version="7" timestamp="2010-04-11T04:37:39Z" uid="20587" user="balrog-kun" changeset="4389130" lat="50.716632" lon="18.8922394">
    <tag k="addr:postcode" v="42-284"/>
    <tag k="is_in" v="gmina Herby, powiat lubliniecki, województwo śląskie, Poland"/>
    <tag k="is_in:country" v="Poland"/>
    <tag k="is_in:county" v="powiat lubliniecki"/>
    <tag k="is_in:municipality" v="gmina Herby"/>
    <tag k="is_in:province" v="województwo śląskie"/>
    <tag k="name" v="Olszyna"/>
    <tag k="place" v="village"/>
    <tag k="population" v="773"/>
    <tag k="source:population" v="wikipedia"/>
    <tag k="teryt:rm" v="01"/>
    <tag k="teryt:simc" v="0132492"/>
    <tag k="teryt:stan_na" v="2009-01-01"/>
    <tag k="teryt:terc" v="2407042"/>
    <tag k="teryt:updated_by" v="teryt2osm combine.py v. 43"/>
    <tag k="wikipedia" v="Olszyna, Silesian Voivodeship"/>
  </node>
  <node id="145821209" version="6" timestamp="2009-05-01T20:03:05Z" uid="20587" user="balrog-kun" changeset="1041684" lat="50.728664" lon="18.8858499">
    <tag k="created_by" v="JOSM"/>
    <tag k="is_in" v="gmina Herby, powiat lubliniecki, województwo śląskie, Poland"/>
    <tag k="is_in:country" v="Poland"/>
    <tag k="is_in:county" v="powiat lubliniecki"/>
    <tag k="is_in:municipality" v="gmina Herby"/>
    <tag k="is_in:province" v="województwo śląskie"/>
    <tag k="name" v="Kalina"/>
    <tag k="place" v="village"/>
    <tag k="population" v="381"/>
    <tag k="source:population" v="wikipedia"/>
    <tag k="teryt:rm" v="01"/>
    <tag k="teryt:simc" v="0132368"/>
    <tag k="teryt:stan_na" v="2009-01-01"/>
    <tag k="teryt:terc" v="2407042"/>
    <tag k="teryt:updated_by" v="teryt2osm combine.py v. 43"/>
    <tag k="wikipedia" v="Kalina, Silesian Voivodeship"/>
  </node>
  <node id="145821209" version="7" timestamp="2010-03-18T18:58:46Z" uid="91056" user="Yarl" changeset="4163327" lat="50.7293097" lon="18.8847894">
    <tag k="is_in" v="gmina Herby, powiat lubliniecki, województwo śląskie, Poland"/>
    <tag k="is_in:country" v="Poland"/>
    <tag k="is_in:county" v="powiat lubliniecki"/>
    <tag k="is_in:municipality" v="gmina Herby"/>
    <tag k="is_in:province" v="województwo śląskie"/>
    <tag k="name" v="Kalina"/>
    <tag k="place" v="village"/>
    <tag k="population" v="381"/>
    <tag k="source:population" v="wikipedia"/>
    <tag k="teryt:rm" v="01"/>
    <tag k="teryt:simc" v="0132368"/>
    <tag k="teryt:stan_na" v="2009-01-01"/>
    <tag k="teryt:terc" v="2407042"/>
    <tag k="teryt:updated_by" v="teryt2osm combine.py v. 43"/>
    <tag k="wikipedia" v="Kalina, Silesian Voivodeship"/>
  </node>
  <node id="145825929" version="3" timestamp="2009-12-27T14:59:43Z" uid="4467" user="Rosscoe" changeset="3463569" lat="-28.0888745" lon="153.4527862"/>
  <node id="145825933" version="3" timestamp="2009-12-27T14:59:42Z" uid="4467" user="Rosscoe" changeset="3463569" lat="-28.0894678" lon="153.4530128"/>
  <node id="145825935" version="3" timestamp="2009-12-27T14:59:43Z" uid="4467" user="Rosscoe" changeset="3463569" lat="-28.0897231" lon="153.4529809"/>
  <node id="145821195" version="12" timestamp="2012-08-06T11:30:41Z" uid="251528" user="Maschatoshi" changeset="12630992" lat="50.635918" lon="18.8413347">
    <tag k="addr:postcode" v="42-286"/>
    <tag k="is_in" v="gmina Koszęcin, powiat lubliniecki, województwo śląskie, Poland"/>
    <tag k="is_in:country" v="Poland"/>
    <tag k="is_in:county" v="powiat lubliniecki"/>
    <tag k="is_in:municipality" v="gmina Koszęcin"/>
    <tag k="is_in:province" v="województwo śląskie"/>
    <tag k="name" v="Koszęcin"/>
    <tag k="place" v="village"/>
    <tag k="population" v="4471"/>
    <tag k="source:population" v="wikipedia"/>
    <tag k="teryt:rm" v="01"/>
    <tag k="teryt:simc" v="0135450"/>
    <tag k="teryt:stan_na" v="2009-01-01"/>
    <tag k="teryt:terc" v="2407062"/>
    <tag k="teryt:updated_by" v="teryt2osm combine.py v. 43"/>
    <tag k="wikipedia" v="Koszęcin"/>
  </node>
  <node id="145825929" version="4" timestamp="2012-07-19T14:02:07Z" uid="722137" user="OSMF Redaction Account" changeset="12330797" lat="-28.0888641" lon="153.452805"/>
  <node id="145825933" version="4" timestamp="2012-07-19T14:02:07Z" uid="722137" user="OSMF Redaction Account" changeset="12330797" lat="-28.0894699" lon="153.4530024"/>
  <node id="145825933" version="5" timestamp="2012-08-29T05:06:25Z" uid="38548" user="PesceVerde" changeset="12900609" lat="-28.0894665" lon="153.45301"/>
  <node id="145825935" version="4" timestamp="2012-07-19T14:02:06Z" uid="722137" user="OSMF Redaction Account" changeset="12330797" lat="-28.0897273" lon="153.4529767"/>
  <node id="145825935" version="5" timestamp="2012-08-29T05:06:25Z" uid="38548" user="PesceVerde" changeset="12900609" lat="-28.0897273" lon="153.4529958"/>
</osm>
