<?xml version='1.0' encoding='UTF-8'?>
<osm version="0.6" generator="libosmium/2.20.0">
  <node id="146158824" version="1" timestamp="2007-12-01T13:39:22Z" uid="20090" user="pimple" changeset="26271" lat="50.9082367" lon="12.0665056">
    <tag k="amenity" v="fast_food"/>
    <tag k="created_by" v="JOSM"/>
    <tag k="name" v="McDonalds"/>
  </node>
  <node id="146158824" version="2" timestamp="2007-12-02T12:17:13Z" uid="9581" user="Lobelt" changeset="44251" lat="50.9082246" lon="12.0665056">
    <tag k="amenity" v="fast_food"/>
    <tag k="created_by" v="JOSM"/>
    <tag k="name" v="McDonalds"/>
  </node>
  <node id="146158824" version="3" timestamp="2007-12-23T18:44:43Z" uid="20090" user="pimple" changeset="402687" lat="50.9083925" lon="12.0661013">
    <tag k="amenity" v="fast_food"/>
    <tag k="created_by" v="JOSM"/>
    <tag k="name" v="McDonalds"/>
  </node>
  <node id="146158824" version="4" timestamp="2008-08-14T21:30:16Z" uid="36694" user="neufeind" changeset="268587" lat="50.9083925" lon="12.0661013">
    <tag k="amenity" v="fast_food"/>
    <tag k="name" v="McDonald&apos;s"/>
  </node>
  <node id="146158824" version="5" timestamp="2010-08-06T16:44:49Z" uid="207745" user="NE2" changeset="5418228" lat="50.9083925" lon="12.0661013">
    <tag k="amenity" v="fast_food"/>
    <tag k="cuisine" v="burger"/>
    <tag k="name" v="McDonald&apos;s"/>
  </node>
  <node id="146158824" version="6" timestamp="2011-02-16T14:10:28Z" uid="31911" user="Mathias Klein" changeset="7304198" lat="50.90832" lon="12.0661112">
    <tag k="amenity" v="fast_food"/>
    <tag k="cuisine" v="burger"/>
    <tag k="name" v="McDonald&apos;s"/>
  </node>
  <node id="146158824" version="7" timestamp="2011-11-07T16:24:53Z" uid="128287" user="cMartin" changeset="9766229" lat="50.90832" lon="12.0661112"/>
  <node id="146159342" version="4" timestamp="2011-03-31T14:02:44Z" uid="4467" user="Rosscoe" changeset="7726289" lat="-35.2015839" lon="138.4827395"/>
  <node id="146159342" version="5" timestamp="2012-07-19T09:53:15Z" uid="722137" user="OSMF Redaction Account" changeset="12316990" lat="-35.2015996" lon="138.482865"/>
</osm>
