<?xml version='1.0' encoding='UTF-8'?>
<osm version="0.6" generator="libosmium/2.20.0">
  <node id="146297746" version="2" timestamp="2010-02-14T03:35:53Z" uid="23543" user="jkjk" changeset="3870354" lat="39.5688214" lon="36.9923961"/>
  <node id="146297747" version="2" timestamp="2010-02-14T03:35:52Z" uid="23543" user="jkjk" changeset="3870354" lat="39.5691969" lon="36.995874"/>
  <node id="146297748" version="2" timestamp="2010-02-14T03:35:52Z" uid="23543" user="jkjk" changeset="3870354" lat="39.5698521" lon="36.9987028"/>
  <node id="146298879" version="3" timestamp="2008-07-14T08:49:45Z" uid="6975" user="ulfl" changeset="486169" lat="50.9841863" lon="11.0240886">
    <tag k="amenity" v="kindergarten"/>
  </node>
  <node id="146298879" version="4" timestamp="2009-02-03T12:35:44Z" uid="79637" user="-O-O-" changeset="111661" lat="50.9842156" lon="11.02422">
    <tag k="amenity" v="kindergarten"/>
    <tag k="created_by" v="Potlatch 0.10f"/>
  </node>
  <node id="146298879" version="5" timestamp="2011-03-26T20:01:04Z" uid="11511" user="StephanJ" changeset="7679500" lat="50.9842156" lon="11.02422">
    <tag k="addr:city" v="Erfurt"/>
    <tag k="addr:country" v="DE"/>
    <tag k="addr:housenumber" v="8a"/>
    <tag k="addr:postcode" v="99089"/>
    <tag k="addr:street" v="Schlüterstraße"/>
    <tag k="amenity" v="kindergarten"/>
    <tag k="name" v="Kita &quot;Kinderhaus an der Schmalen Gera&quot;"/>
    <tag k="operator" v="AWO AJS gGmbH"/>
  </node>
  <node id="146298879" version="6" timestamp="2011-08-22T11:49:09Z" uid="509178" user="geographos" changeset="9093319" lat="50.9841586" lon="11.0242803">
    <tag k="addr:city" v="Erfurt"/>
    <tag k="addr:country" v="DE"/>
    <tag k="addr:housenumber" v="8a"/>
    <tag k="addr:postcode" v="99084"/>
    <tag k="addr:street" v="Schlüterstraße"/>
    <tag k="amenity" v="kindergarten"/>
    <tag k="name" v="Kita &quot;Kinderhaus an der Schmalen Gera&quot;"/>
    <tag k="operator" v="AWO AJS gGmbH"/>
  </node>
  <node id="146297746" version="3" timestamp="2012-07-20T13:53:26Z" uid="722137" user="OSMF Redaction Account" changeset="12378513" lat="39.5685977" lon="36.992411"/>
  <node id="146297747" version="3" timestamp="2012-07-20T13:53:26Z" uid="722137" user="OSMF Redaction Account" changeset="12378513" lat="39.5689285" lon="36.9958442"/>
  <node id="146297748" version="3" timestamp="2012-07-20T13:53:26Z" uid="722137" user="OSMF Redaction Account" changeset="12378513" lat="39.569524" lon="36.9987625"/>
</osm>
