<?xml version='1.0' encoding='UTF-8'?>
<osm version="0.6" generator="libosmium/2.20.0">
  <node id="147053166" version="6" timestamp="2010-03-21T00:14:07Z" uid="30632" user="antblant" changeset="4186394" lat="52.4024386" lon="16.9437274"/>
  <node id="147054745" version="2" timestamp="2008-09-30T10:31:16Z" uid="1066" user="pavel" changeset="720911" lat="49.3617967" lon="16.6438088">
    <tag k="is_in" v="Czech Republic, Europe"/>
    <tag k="name" v="Blansko"/>
    <tag k="place" v="town"/>
    <tag k="source" v="UHUL:ortofoto"/>
  </node>
  <node id="147054745" version="3" timestamp="2008-11-04T13:10:09Z" uid="308" user="MichaelCollinson" changeset="676656" lat="49.3617967" lon="16.6438088">
    <tag k="is_in" v="Czech Republic, Europe"/>
    <tag k="is_in:continent" v="Europe"/>
    <tag k="is_in:country_code" v="cz"/>
    <tag k="name" v="Blansko"/>
    <tag k="place" v="town"/>
    <tag k="source" v="UHUL:ortofoto"/>
  </node>
  <node id="147054745" version="4" timestamp="2008-11-20T18:58:14Z" uid="27052" user="onovy" changeset="773075" lat="49.3617967" lon="16.6438088">
    <tag k="is_in" v="Czech Republic, Europe"/>
    <tag k="is_in:continent" v="Europe"/>
    <tag k="is_in:country_code" v="cz"/>
    <tag k="name" v="Blansko"/>
    <tag k="place" v="town"/>
    <tag k="source" v="uhul:ortofoto"/>
  </node>
  <node id="147054745" version="5" timestamp="2010-10-24T06:48:18Z" uid="127170" user="Ilis" changeset="6153635" lat="49.3617967" lon="16.6438088">
    <tag k="is_in" v="Czech Republic, Europe"/>
    <tag k="is_in:continent" v="Europe"/>
    <tag k="is_in:country_code" v="cz"/>
    <tag k="name" v="Blansko"/>
    <tag k="name:ru" v="Бланско"/>
    <tag k="place" v="town"/>
    <tag k="source" v="uhul:ortofoto"/>
  </node>
  <node id="147054745" version="6" timestamp="2011-07-15T12:41:41Z" uid="102554" user="Jezevec" changeset="8730937" lat="49.3617967" lon="16.6438088">
    <tag k="is_in" v="Czech Republic, Europe"/>
    <tag k="is_in:continent" v="Europe"/>
    <tag k="is_in:country_code" v="cz"/>
    <tag k="lau1" v="CZ0641"/>
    <tag k="lau2" v="581283"/>
    <tag k="name" v="Blansko"/>
    <tag k="name:ru" v="Бланско"/>
    <tag k="place" v="town"/>
    <tag k="population" v="21103"/>
    <tag k="source" v="uhul:ortofoto"/>
  </node>
  <node id="147054745" version="7" timestamp="2012-01-23T00:49:30Z" uid="229590" user="xificurk" changeset="10471521" lat="49.3617967" lon="16.6438088"/>
  <node id="147058712" version="5" timestamp="2009-05-09T13:34:26Z" uid="20587" user="balrog-kun" changeset="1127620" lat="52.4024095" lon="16.9182263">
    <tag k="highway" v="traffic_signals"/>
  </node>
  <node id="147058712" version="6" timestamp="2009-06-23T13:32:52Z" uid="88909" user="miko101" changeset="1602369" lat="52.4024095" lon="16.9182263"/>
</osm>
