<?xml version='1.0' encoding='UTF-8'?>
<osm version="0.6" generator="libosmium/2.20.0">
  <node id="148262217" version="2" timestamp="2009-05-23T13:24:38Z" uid="123517" user="Qichina" changeset="1294983" lat="51.7167543" lon="0.2387952"/>
  <node id="148262217" version="3" timestamp="2012-01-25T17:07:05Z" uid="57884" user="EdLoach" changeset="10495477" lat="51.7167543" lon="0.2387952"/>
  <node id="148262574" version="2" timestamp="2009-05-23T13:24:38Z" uid="123517" user="Qichina" changeset="1294983" lat="51.7159939" lon="0.2378596"/>
  <node id="148262574" version="3" timestamp="2012-01-25T17:07:05Z" uid="57884" user="EdLoach" changeset="10495477" lat="51.7159939" lon="0.2378596"/>
  <node id="148263964" version="19" timestamp="2011-05-05T17:56:55Z" uid="115477" user="wowik" changeset="8058974" lat="55.5715738" lon="37.6643713"/>
  <node id="148263964" version="20" timestamp="2011-08-21T10:54:09Z" uid="347929" user="hint" changeset="9082456" lat="55.5716175" lon="37.6642908">
    <tag k="note" v="Точка отсутствует в описании границ соответствующих муниципальных образований Московской области и добавлена исключительно для разграничения муниципальных образований города Москвы"/>
  </node>
  <node id="148263964" version="21" timestamp="2011-12-31T19:10:01Z" uid="382604" user="MosKartograf" changeset="10257602" lat="55.571623" lon="37.6643563">
    <tag k="note" v="Точка отсутствует в описании границ соответствующих муниципальных образований Московской области и добавлена исключительно для разграничения муниципальных образований города Москвы"/>
  </node>
  <node id="148263965" version="19" timestamp="2011-05-05T17:56:53Z" uid="115477" user="wowik" changeset="8058974" lat="55.5723734" lon="37.6641643"/>
  <node id="148263965" version="20" timestamp="2011-12-31T19:10:01Z" uid="382604" user="MosKartograf" changeset="10257602" lat="55.5723762" lon="37.6641352"/>
  <node id="148264036" version="5" timestamp="2011-04-04T19:36:35Z" uid="115477" user="wowik" changeset="7768600" lat="55.6889199" lon="37.6175371"/>
  <node id="148264036" version="6" timestamp="2012-03-26T07:07:15Z" uid="336354" user="esaulenka" changeset="11102679" lat="55.6889459" lon="37.6175156"/>
  <node id="148264053" version="4" timestamp="2009-09-24T10:09:00Z" uid="115477" user="wowik" changeset="2604045" lat="55.7092102" lon="37.630974"/>
  <node id="148264053" version="5" timestamp="2010-09-27T16:46:46Z" uid="200618" user="gps-Max" changeset="5893500" lat="55.7092569" lon="37.6309132"/>
  <node id="148264083" version="2" timestamp="2010-03-03T11:30:31Z" uid="115477" user="wowik" changeset="4023899" lat="55.7294295" lon="37.6406692">
    <tag k="name" v="Павелецкий вокзал"/>
    <tag k="railway" v="station"/>
  </node>
  <node id="148264083" version="3" timestamp="2010-06-20T23:11:59Z" uid="42429" user="FK270673" changeset="5038476" lat="55.7294295" lon="37.6406692">
    <tag k="name" v="Павелецкий вокзал"/>
    <tag k="name:be" v="Павялецкі вакзал"/>
    <tag k="name:de" v="Pawelezer Bahnhof"/>
    <tag k="name:en" v="Paveletsky Rail Terminal"/>
    <tag k="name:fr" v="Gare de Paveliets"/>
    <tag k="name:pl" v="Dworzec Pawelecki"/>
    <tag k="name:ru" v="Павелецкий вокзал"/>
    <tag k="railway" v="station"/>
  </node>
  <node id="148264083" version="4" timestamp="2010-09-17T19:30:15Z" uid="266092" user="luch86" changeset="5806507" lat="55.7294295" lon="37.6406692">
    <tag k="alt_name" v="Москва-Павелецкая"/>
    <tag k="esr:user" v="193519"/>
    <tag k="name" v="Павелецкий вокзал"/>
    <tag k="name:be" v="Павялецкі вакзал"/>
    <tag k="name:de" v="Pawelezer Bahnhof"/>
    <tag k="name:en" v="Paveletsky Rail Terminal"/>
    <tag k="name:fr" v="Gare de Paveliets"/>
    <tag k="name:pl" v="Dworzec Pawelecki"/>
    <tag k="name:ru" v="Павелецкий вокзал"/>
    <tag k="official_name" v="Москва-Пассажирская-Павелецкая"/>
    <tag k="railway" v="station"/>
  </node>
  <node id="148264083" version="5" timestamp="2010-12-24T18:32:27Z" uid="266092" user="luch86" changeset="6755383" lat="55.7294295" lon="37.6406692">
    <tag k="alt_name" v="Москва-Павелецкая"/>
    <tag k="esr:user" v="193519"/>
    <tag k="name" v="Павелецкий вокзал"/>
    <tag k="name:be" v="Павялецкі вакзал"/>
    <tag k="name:de" v="Pawelezer Bahnhof"/>
    <tag k="name:en" v="Paveletsky Rail Terminal"/>
    <tag k="name:fr" v="Gare de Paveliets"/>
    <tag k="name:pl" v="Dworzec Pawelecki"/>
    <tag k="name:ru" v="Павелецкий вокзал"/>
    <tag k="official_name" v="Москва-Пассажирская-Павелецкая"/>
    <tag k="public_transport" v="stop_position"/>
    <tag k="railway" v="station"/>
    <tag k="train" v="yes"/>
  </node>
  <node id="148264083" version="6" timestamp="2011-04-09T21:39:33Z" uid="266092" user="luch86" changeset="7817805" lat="55.7294295" lon="37.6406692">
    <tag k="esr:user" v="193519"/>
    <tag k="loc_name" v="Павелецкий вокзал"/>
    <tag k="name" v="Москва-Павелецкая"/>
    <tag k="nat_name" v="Москва"/>
    <tag k="official_name" v="Москва-Пассажирская-Павелецкая"/>
    <tag k="public_transport" v="stop_position"/>
    <tag k="railway" v="station"/>
    <tag k="train" v="yes"/>
  </node>
  <node id="148264083" version="7" timestamp="2012-01-02T17:30:18Z" uid="398908" user="tomankt" changeset="10273126" lat="55.7293913" lon="37.6406757">
    <tag k="esr:user" v="193519"/>
    <tag k="loc_name" v="Павелецкий вокзал"/>
    <tag k="name" v="Москва-Павелецкая"/>
    <tag k="nat_name" v="Москва"/>
    <tag k="official_name" v="Москва-Пассажирская-Павелецкая"/>
    <tag k="public_transport" v="stop_position"/>
    <tag k="railway" v="station"/>
    <tag k="train" v="yes"/>
  </node>
  <node id="148264083" version="8" timestamp="2012-01-16T17:10:02Z" uid="382604" user="MosKartograf" changeset="10409669" lat="55.7293913" lon="37.6406757">
    <tag k="esr:user" v="193519"/>
    <tag k="loc_name" v="Павелецкий вокзал"/>
    <tag k="name" v="Москва-Павелецкая"/>
    <tag k="nat_name" v="Москва"/>
    <tag k="note" v="Начало первого главного пути Павелецкого направления МЖД"/>
    <tag k="official_name" v="Москва-Пассажирская-Павелецкая"/>
    <tag k="public_transport" v="stop_position"/>
    <tag k="railway" v="buffer_stop"/>
    <tag k="train" v="yes"/>
  </node>
  <node id="148264309" version="3" timestamp="2009-07-04T10:23:41Z" uid="123517" user="Qichina" changeset="1728450" lat="51.7141268" lon="0.2377647"/>
  <node id="148265747" version="4" timestamp="2009-05-23T13:24:39Z" uid="123517" user="Qichina" changeset="1294983" lat="51.7135607" lon="0.2378306"/>
  <node id="148265747" version="5" timestamp="2012-01-25T17:07:07Z" uid="57884" user="EdLoach" changeset="10495477" lat="51.7135607" lon="0.2378306"/>
  <node id="148265748" version="3" timestamp="2009-07-04T10:23:41Z" uid="123517" user="Qichina" changeset="1728450" lat="51.7134621" lon="0.2378162"/>
</osm>
