<?xml version='1.0' encoding='UTF-8'?>
<osm version="0.6" generator="libosmium/2.20.0">
  <node id="148742340" version="4" timestamp="2008-07-03T17:45:21Z" uid="6975" user="ulfl" changeset="379368" lat="51.5240249" lon="-0.0487665">
    <tag k="name" v="Globe International Autos"/>
    <tag k="shop" v="car_repair"/>
  </node>
  <node id="148745155" version="1" timestamp="2007-12-02T22:46:31Z" uid="17602" user="B10xyz" changeset="53383" lat="52.4816107" lon="13.3078571">
    <tag k="created_by" v="Potlatch 0.5d"/>
    <tag k="foot" v="yes"/>
    <tag k="highway" v="footway"/>
  </node>
  <node id="148745155" version="2" timestamp="2007-12-04T23:18:24Z" uid="17602" user="B10xyz" changeset="79249" lat="52.4814517" lon="13.3080431">
    <tag k="created_by" v="Potlatch 0.5d"/>
    <tag k="foot" v="yes"/>
    <tag k="highway" v="footway"/>
  </node>
  <node id="148745155" version="3" timestamp="2007-12-04T23:18:56Z" uid="17602" user="B10xyz" changeset="79249" lat="52.4811903" lon="13.307777">
    <tag k="created_by" v="Potlatch 0.5d"/>
    <tag k="foot" v="yes"/>
    <tag k="highway" v="footway"/>
  </node>
  <node id="148745155" version="4" timestamp="2008-01-18T16:39:04Z" uid="6669" user="Elwood" changeset="660530" lat="52.4811903" lon="13.307777">
    <tag k="created_by" v="Potlatch 0.5d"/>
    <tag k="foot" v="yes"/>
    <tag k="highway" v="footway"/>
  </node>
  <node id="148745165" version="1" timestamp="2007-12-02T22:46:32Z" uid="17602" user="B10xyz" changeset="53383" lat="52.4816368" lon="13.3078571">
    <tag k="created_by" v="Potlatch 0.5d"/>
    <tag k="man_made" v="power_fossil"/>
  </node>
  <node id="148745165" version="2" timestamp="2007-12-04T23:18:40Z" uid="17602" user="B10xyz" changeset="79249" lat="52.4816399" lon="13.3078628">
    <tag k="created_by" v="Potlatch 0.5d"/>
    <tag k="man_made" v="power_fossil"/>
  </node>
  <node id="148745165" version="3" timestamp="2007-12-04T23:19:05Z" uid="17602" user="B10xyz" changeset="79249" lat="52.4816346" lon="13.3081718">
    <tag k="created_by" v="Potlatch 0.5d"/>
    <tag k="man_made" v="power_fossil"/>
  </node>
  <node id="148745165" version="4" timestamp="2008-07-06T09:01:11Z" uid="6975" user="ulfl" changeset="407266" lat="52.4816346" lon="13.3081718">
    <tag k="power" v="generator"/>
    <tag k="power_source" v="fossil"/>
  </node>
  <node id="148745165" version="5" timestamp="2009-03-23T22:45:47Z" uid="6669" user="Elwood" changeset="848937" lat="52.4816346" lon="13.3081718">
    <tag k="power" v="generator"/>
    <tag k="power_source" v="fossil"/>
  </node>
  <node id="148745261" version="1" timestamp="2007-12-02T22:46:39Z" uid="17602" user="B10xyz" changeset="53383" lat="52.4572712" lon="13.320603">
    <tag k="amenity" v="townhall"/>
    <tag k="created_by" v="Potlatch 0.5d"/>
  </node>
  <node id="148745261" version="2" timestamp="2008-09-29T13:28:13Z" uid="35830" user="DarkAngel" changeset="718335" lat="52.4572712" lon="13.320603">
    <tag k="amenity" v="townhall"/>
  </node>
  <node id="148745261" version="3" timestamp="2010-02-10T09:54:36Z" uid="66391" user="geozeisig" changeset="3838158" lat="52.4572239" lon="13.3207067">
    <tag k="amenity" v="townhall"/>
    <tag k="wikipedia:de" v="Rathaus_Steglitz"/>
  </node>
  <node id="148745261" version="4" timestamp="2011-06-30T09:07:04Z" uid="290680" user="wheelmap_visitor" changeset="8588151" lat="52.4572239" lon="13.3207067">
    <tag k="amenity" v="townhall"/>
    <tag k="wheelchair" v="yes"/>
    <tag k="wikipedia:de" v="Rathaus_Steglitz"/>
  </node>
  <node id="148745261" version="5" timestamp="2011-06-30T09:08:05Z" uid="475485" user="Riddle" changeset="8588441" lat="52.4572239" lon="13.3207067">
    <tag k="amenity" v="townhall"/>
    <tag k="name" v="Rathaus Steglitz"/>
    <tag k="wheelchair" v="yes"/>
    <tag k="wheelchair:description" v="Aufzug vorhanden"/>
    <tag k="wikipedia:de" v="Rathaus_Steglitz"/>
  </node>
  <node id="148746271" version="2" timestamp="2010-03-12T16:32:40Z" uid="6975" user="ulfl" changeset="4107799" lat="49.8060981" lon="9.9137017">
    <tag k="amenity" v="restaurant"/>
    <tag k="name" v="Schloß Steinburg"/>
    <tag k="tourism" v="hotel"/>
  </node>
  <node id="148746271" version="3" timestamp="2010-05-05T12:30:16Z" uid="52915" user="Dwi Secundus" changeset="4612451" lat="49.8060981" lon="9.9137017">
    <tag k="addr:city" v="Würzburg"/>
    <tag k="addr:country" v="DE"/>
    <tag k="addr:housename" v="Schloss Steinburg"/>
    <tag k="addr:postcode" v="97080"/>
    <tag k="addr:street" v="Auf dem Steinberg"/>
    <tag k="amenity" v="restaurant"/>
    <tag k="email" v="hotel@steinburg.com"/>
    <tag k="fax" v="+49 931 97121"/>
    <tag k="name" v="Schloss Steinburg"/>
    <tag k="phone" v="+49 931 97020"/>
    <tag k="tourism" v="hotel"/>
    <tag k="website" v="http://www.steinburg.com/"/>
  </node>
  <node id="148746271" version="4" timestamp="2011-04-05T11:27:03Z" uid="290680" user="wheelmap_visitor" changeset="7771250" lat="49.8060981" lon="9.9137017">
    <tag k="addr:city" v="Würzburg"/>
    <tag k="addr:country" v="DE"/>
    <tag k="addr:housename" v="Schloss Steinburg"/>
    <tag k="addr:postcode" v="97080"/>
    <tag k="addr:street" v="Auf dem Steinberg"/>
    <tag k="amenity" v="restaurant"/>
    <tag k="email" v="hotel@steinburg.com"/>
    <tag k="fax" v="+49 931 97121"/>
    <tag k="name" v="Schloss Steinburg"/>
    <tag k="phone" v="+49 931 97020"/>
    <tag k="tourism" v="hotel"/>
    <tag k="website" v="http://www.steinburg.com/"/>
    <tag k="wheelchair" v="no"/>
  </node>
  <node id="148745261" version="6" timestamp="2012-07-18T14:47:20Z" uid="722137" user="OSMF Redaction Account" changeset="12285612" lat="52.4572239" lon="13.3207067">
    <tag k="name" v="Rathaus Steglitz"/>
    <tag k="wheelchair" v="yes"/>
    <tag k="wheelchair:description" v="Aufzug vorhanden"/>
    <tag k="wikipedia:de" v="Rathaus_Steglitz"/>
  </node>
  <node id="148746271" version="5" timestamp="2012-07-19T23:25:23Z" uid="722137" user="OSMF Redaction Account" changeset="12351552" lat="49.8060981" lon="9.9137017">
    <tag k="addr:city" v="Würzburg"/>
    <tag k="addr:country" v="DE"/>
    <tag k="addr:housename" v="Schloss Steinburg"/>
    <tag k="addr:postcode" v="97080"/>
    <tag k="addr:street" v="Auf dem Steinberg"/>
    <tag k="amenity" v="restaurant"/>
    <tag k="email" v="hotel@steinburg.com"/>
    <tag k="fax" v="+49 931 97121"/>
    <tag k="name" v="Schloss Steinburg"/>
    <tag k="phone" v="+49 931 97020"/>
    <tag k="website" v="http://www.steinburg.com/"/>
    <tag k="wheelchair" v="no"/>
  </node>
</osm>
