<?xml version='1.0' encoding='UTF-8'?>
<osm version="0.6" generator="libosmium/2.20.0">
  <node id="154794955" version="6" timestamp="2009-10-03T14:03:13Z" uid="179968" user="Ich_hasse_doitsche_OSM-Korinthenkacker" changeset="2724228" lat="51.7101231" lon="10.5173784">
    <tag k="is_in" v="Goslar,Niedersachsen,Bundesrepublik Deutschland,Europe"/>
    <tag k="name" v="Sankt Andreasberg"/>
    <tag k="openGeoDB:auto_update" v="population"/>
    <tag k="openGeoDB:community_identification_number" v="03153010"/>
    <tag k="openGeoDB:is_in" v="Goslar,Niedersachsen,Bundesrepublik Deutschland,Europe"/>
    <tag k="openGeoDB:is_in_loc_id" v="569"/>
    <tag k="openGeoDB:layer" v="6"/>
    <tag k="openGeoDB:license_plate_code" v="GS"/>
    <tag k="openGeoDB:loc_id" v="23524"/>
    <tag k="openGeoDB:name" v="Sankt Andreasberg"/>
    <tag k="openGeoDB:population" v="2194"/>
    <tag k="openGeoDB:postal_codes" v="37444"/>
    <tag k="openGeoDB:sort_name" v="ST. ANDREASBERG"/>
    <tag k="openGeoDB:telephone_area_code" v="05582"/>
    <tag k="openGeoDB:type" v="Bergstadt"/>
    <tag k="openGeoDB:version" v="0.2.6.11 / 2007-12-04 / http://fa-technik.adfc.de/code/opengeodb/dump/"/>
    <tag k="opengeodb:lat" v="51.7101231"/>
    <tag k="opengeodb:lon" v="10.5173784"/>
    <tag k="place" v="town"/>
    <tag k="population" v="2194"/>
  </node>
  <node id="154794955" version="7" timestamp="2010-08-17T10:41:46Z" uid="81983" user="Ogmios" changeset="5516309" lat="51.710123" lon="10.5173784">
    <tag k="is_in" v="Goslar,Niedersachsen,Bundesrepublik Deutschland,Europe"/>
    <tag k="name" v="Sankt Andreasberg"/>
    <tag k="openGeoDB:auto_update" v="population"/>
    <tag k="openGeoDB:community_identification_number" v="03153010"/>
    <tag k="openGeoDB:is_in" v="Goslar,Niedersachsen,Bundesrepublik Deutschland,Europe"/>
    <tag k="openGeoDB:is_in_loc_id" v="569"/>
    <tag k="openGeoDB:layer" v="6"/>
    <tag k="openGeoDB:license_plate_code" v="GS"/>
    <tag k="openGeoDB:loc_id" v="23524"/>
    <tag k="openGeoDB:name" v="Sankt Andreasberg"/>
    <tag k="openGeoDB:population" v="2194"/>
    <tag k="openGeoDB:postal_codes" v="37444"/>
    <tag k="openGeoDB:sort_name" v="ST. ANDREASBERG"/>
    <tag k="openGeoDB:telephone_area_code" v="05582"/>
    <tag k="openGeoDB:type" v="Bergstadt"/>
    <tag k="openGeoDB:version" v="0.2.6.11 / 2007-12-04 / http://fa-technik.adfc.de/code/opengeodb/dump/"/>
    <tag k="opengeodb:lat" v="51.7101231"/>
    <tag k="opengeodb:lon" v="10.5173784"/>
    <tag k="place" v="town"/>
    <tag k="population" v="2194"/>
    <tag k="wikipedia" v="de:Sankt Andreasberg"/>
  </node>
  <node id="154794955" version="8" timestamp="2011-06-23T16:48:04Z" uid="81983" user="Ogmios" changeset="8524044" lat="51.710123" lon="10.5173784">
    <tag k="alt_name" v="Bergstadt Sankt Andreasberg"/>
    <tag k="is_in" v="Goslar,Niedersachsen,Bundesrepublik Deutschland,Europe"/>
    <tag k="name" v="Sankt Andreasberg"/>
    <tag k="openGeoDB:auto_update" v="population"/>
    <tag k="openGeoDB:community_identification_number" v="03153010"/>
    <tag k="openGeoDB:is_in" v="Goslar,Niedersachsen,Bundesrepublik Deutschland,Europe"/>
    <tag k="openGeoDB:is_in_loc_id" v="569"/>
    <tag k="openGeoDB:layer" v="6"/>
    <tag k="openGeoDB:license_plate_code" v="GS"/>
    <tag k="openGeoDB:loc_id" v="23524"/>
    <tag k="openGeoDB:name" v="Sankt Andreasberg"/>
    <tag k="openGeoDB:population" v="2194"/>
    <tag k="openGeoDB:postal_codes" v="37444"/>
    <tag k="openGeoDB:sort_name" v="ST. ANDREASBERG"/>
    <tag k="openGeoDB:telephone_area_code" v="05582"/>
    <tag k="openGeoDB:type" v="Bergstadt"/>
    <tag k="openGeoDB:version" v="0.2.6.11 / 2007-12-04 / http://fa-technik.adfc.de/code/opengeodb/dump/"/>
    <tag k="opengeodb:lat" v="51.7101231"/>
    <tag k="opengeodb:lon" v="10.5173784"/>
    <tag k="place" v="town"/>
    <tag k="population" v="2194"/>
    <tag k="wikipedia" v="de:Sankt Andreasberg"/>
  </node>
  <node id="154794955" version="9" timestamp="2011-07-27T13:27:19Z" uid="478800" user="baum9076" changeset="8845074" lat="51.710123" lon="10.5173784">
    <tag k="alt_name" v="Bergstadt Sankt Andreasberg"/>
    <tag k="is_in" v="Goslar,Niedersachsen,Bundesrepublik Deutschland,Europe"/>
    <tag k="loc_name" v="Annerschbarrich"/>
    <tag k="name" v="Sankt Andreasberg"/>
    <tag k="openGeoDB:auto_update" v="population"/>
    <tag k="openGeoDB:community_identification_number" v="03153010"/>
    <tag k="openGeoDB:is_in" v="Goslar,Niedersachsen,Bundesrepublik Deutschland,Europe"/>
    <tag k="openGeoDB:is_in_loc_id" v="569"/>
    <tag k="openGeoDB:layer" v="6"/>
    <tag k="openGeoDB:license_plate_code" v="GS"/>
    <tag k="openGeoDB:loc_id" v="23524"/>
    <tag k="openGeoDB:name" v="Sankt Andreasberg"/>
    <tag k="openGeoDB:population" v="2194"/>
    <tag k="openGeoDB:postal_codes" v="37444"/>
    <tag k="openGeoDB:sort_name" v="ST. ANDREASBERG"/>
    <tag k="openGeoDB:telephone_area_code" v="05582"/>
    <tag k="openGeoDB:type" v="Bergstadt"/>
    <tag k="openGeoDB:version" v="0.2.6.11 / 2007-12-04 / http://fa-technik.adfc.de/code/opengeodb/dump/"/>
    <tag k="opengeodb:lat" v="51.7101231"/>
    <tag k="opengeodb:lon" v="10.5173784"/>
    <tag k="place" v="town"/>
    <tag k="population" v="2194"/>
    <tag k="wikipedia" v="de:Sankt Andreasberg"/>
  </node>
  <node id="154794955" version="10" timestamp="2011-08-18T18:08:51Z" uid="81983" user="Ogmios" changeset="9059128" lat="51.7101244" lon="10.5178871">
    <tag k="alt_name" v="Bergstadt Sankt Andreasberg"/>
    <tag k="is_in" v="Goslar,Niedersachsen,Bundesrepublik Deutschland,Europe"/>
    <tag k="loc_name" v="Annerschbarrich"/>
    <tag k="name" v="Sankt Andreasberg"/>
    <tag k="openGeoDB:auto_update" v="population"/>
    <tag k="openGeoDB:community_identification_number" v="03153010"/>
    <tag k="openGeoDB:is_in" v="Goslar,Niedersachsen,Bundesrepublik Deutschland,Europe"/>
    <tag k="openGeoDB:is_in_loc_id" v="569"/>
    <tag k="openGeoDB:layer" v="6"/>
    <tag k="openGeoDB:license_plate_code" v="GS"/>
    <tag k="openGeoDB:loc_id" v="23524"/>
    <tag k="openGeoDB:name" v="Sankt Andreasberg"/>
    <tag k="openGeoDB:population" v="2194"/>
    <tag k="openGeoDB:postal_codes" v="37444"/>
    <tag k="openGeoDB:sort_name" v="ST. ANDREASBERG"/>
    <tag k="openGeoDB:telephone_area_code" v="05582"/>
    <tag k="openGeoDB:type" v="Bergstadt"/>
    <tag k="openGeoDB:version" v="0.2.6.11 / 2007-12-04 / http://fa-technik.adfc.de/code/opengeodb/dump/"/>
    <tag k="opengeodb:lat" v="51.7101231"/>
    <tag k="opengeodb:lon" v="10.5173784"/>
    <tag k="place" v="town"/>
    <tag k="population" v="2194"/>
    <tag k="wikipedia" v="de:Sankt Andreasberg"/>
  </node>
  <node id="154794955" version="11" timestamp="2012-02-22T11:13:39Z" uid="174822" user="Canabis" changeset="10758138" lat="51.7101244" lon="10.5178871">
    <tag k="alt_name" v="Bergstadt Sankt Andreasberg"/>
    <tag k="is_in" v="Goslar,Niedersachsen,Bundesrepublik Deutschland,Europe"/>
    <tag k="loc_name" v="Annerschbarrich"/>
    <tag k="name" v="Sankt Andreasberg"/>
    <tag k="name:ru" v="Санкт-Андреасберг"/>
    <tag k="openGeoDB:auto_update" v="population"/>
    <tag k="openGeoDB:community_identification_number" v="03153010"/>
    <tag k="openGeoDB:is_in" v="Goslar,Niedersachsen,Bundesrepublik Deutschland,Europe"/>
    <tag k="openGeoDB:is_in_loc_id" v="569"/>
    <tag k="openGeoDB:layer" v="6"/>
    <tag k="openGeoDB:license_plate_code" v="GS"/>
    <tag k="openGeoDB:loc_id" v="23524"/>
    <tag k="openGeoDB:name" v="Sankt Andreasberg"/>
    <tag k="openGeoDB:population" v="2194"/>
    <tag k="openGeoDB:postal_codes" v="37444"/>
    <tag k="openGeoDB:sort_name" v="ST. ANDREASBERG"/>
    <tag k="openGeoDB:telephone_area_code" v="05582"/>
    <tag k="openGeoDB:type" v="Bergstadt"/>
    <tag k="openGeoDB:version" v="0.2.6.11 / 2007-12-04 / http://fa-technik.adfc.de/code/opengeodb/dump/"/>
    <tag k="opengeodb:lat" v="51.7101231"/>
    <tag k="opengeodb:lon" v="10.5173784"/>
    <tag k="place" v="town"/>
    <tag k="population" v="2194"/>
    <tag k="wikipedia" v="de:Sankt Andreasberg"/>
  </node>
  <node id="154794955" version="12" timestamp="2012-03-20T17:18:18Z" uid="210173" user="osmmaker" changeset="11042738" lat="51.7101244" lon="10.5178871">
    <tag k="alt_name" v="Bergstadt Sankt Andreasberg"/>
    <tag k="is_in" v="Goslar,Niedersachsen,Bundesrepublik Deutschland,Europe"/>
    <tag k="loc_name" v="Annerschbarrich"/>
    <tag k="name" v="Sankt Andreasberg"/>
    <tag k="name:fr" v="Saint-Andréasberg"/>
    <tag k="name:ru" v="Санкт-Андреасберг"/>
    <tag k="openGeoDB:auto_update" v="population"/>
    <tag k="openGeoDB:community_identification_number" v="03153010"/>
    <tag k="openGeoDB:is_in" v="Goslar,Niedersachsen,Bundesrepublik Deutschland,Europe"/>
    <tag k="openGeoDB:is_in_loc_id" v="569"/>
    <tag k="openGeoDB:layer" v="6"/>
    <tag k="openGeoDB:license_plate_code" v="GS"/>
    <tag k="openGeoDB:loc_id" v="23524"/>
    <tag k="openGeoDB:name" v="Sankt Andreasberg"/>
    <tag k="openGeoDB:population" v="2194"/>
    <tag k="openGeoDB:postal_codes" v="37444"/>
    <tag k="openGeoDB:sort_name" v="ST. ANDREASBERG"/>
    <tag k="openGeoDB:telephone_area_code" v="05582"/>
    <tag k="openGeoDB:type" v="Bergstadt"/>
    <tag k="openGeoDB:version" v="0.2.6.11 / 2007-12-04 / http://fa-technik.adfc.de/code/opengeodb/dump/"/>
    <tag k="opengeodb:lat" v="51.7101231"/>
    <tag k="opengeodb:lon" v="10.5173784"/>
    <tag k="place" v="town"/>
    <tag k="population" v="2194"/>
    <tag k="wikipedia" v="de:Sankt Andreasberg"/>
  </node>
  <node id="154798721" version="2" timestamp="2008-07-03T18:22:46Z" uid="6975" user="ulfl" changeset="379368" lat="52.3651843" lon="4.8637895">
    <tag k="amenity" v="bank"/>
    <tag k="atm" v="yes"/>
    <tag k="name" v="Rabobank"/>
  </node>
  <node id="154798721" version="3" timestamp="2009-02-27T21:31:49Z" uid="9176" user="Maarten Deen" changeset="685692" lat="52.3651843" lon="4.8637895">
    <tag k="addr:country" v="NL"/>
    <tag k="amenity" v="bank"/>
    <tag k="atm" v="yes"/>
    <tag k="name" v="Rabobank"/>
  </node>
  <node id="154798721" version="4" timestamp="2009-02-28T11:39:01Z" uid="9176" user="Maarten Deen" changeset="693757" lat="52.3651843" lon="4.8637895">
    <tag k="addr:city" v="Amsterdam"/>
    <tag k="addr:country" v="NL"/>
    <tag k="addr:housenumber" v="288-292"/>
    <tag k="addr:postcode" v="1053GB"/>
    <tag k="addr:street" v="Kinkerstraat"/>
    <tag k="amenity" v="bank"/>
    <tag k="atm" v="yes"/>
    <tag k="name" v="Rabobank"/>
  </node>
  <node id="154798721" version="5" timestamp="2009-05-23T14:06:44Z" uid="48213" user="Rejo Zenger" changeset="1295265" lat="52.3652268" lon="4.8640373">
    <tag k="addr:city" v="Amsterdam"/>
    <tag k="addr:country" v="NL"/>
    <tag k="addr:housenumber" v="288-292"/>
    <tag k="addr:postcode" v="1053GB"/>
    <tag k="addr:street" v="Kinkerstraat"/>
    <tag k="amenity" v="bank"/>
    <tag k="atm" v="yes"/>
    <tag k="name" v="Rabobank"/>
  </node>
  <node id="154798721" version="6" timestamp="2009-07-08T13:05:32Z" uid="6168" user="LHCarsten" changeset="1772441" lat="52.3652268" lon="4.8640373">
    <tag k="addr:city" v="Amsterdam"/>
    <tag k="addr:country" v="NL"/>
    <tag k="addr:housenumber" v="288-292"/>
    <tag k="addr:postcode" v="1053GB"/>
    <tag k="addr:street" v="Kinkerstraat"/>
    <tag k="amenity" v="bank"/>
    <tag k="atm" v="yes"/>
    <tag k="name" v="Rabobank"/>
    <tag k="operator" v="Rabobank"/>
  </node>
  <node id="154798721" version="7" timestamp="2009-08-06T17:48:47Z" uid="9176" user="Maarten Deen" changeset="2058398" lat="52.3652268" lon="4.8640373">
    <tag k="addr:city" v="Amsterdam"/>
    <tag k="addr:country" v="NL"/>
    <tag k="addr:housenumber" v="288-292"/>
    <tag k="addr:postcode" v="1053GB"/>
    <tag k="addr:street" v="Kinkerstraat"/>
    <tag k="amenity" v="bank"/>
    <tag k="atm" v="yes"/>
    <tag k="name" v="Rabobank"/>
    <tag k="operator" v="Rabobank Amsterdam"/>
  </node>
</osm>
