<?xml version='1.0' encoding='UTF-8'?>
<osm version="0.6" generator="libosmium/2.20.0">
  <node id="157390991" version="3" timestamp="2009-09-29T00:59:04Z" uid="36809" user="pfoten_weg_!_" changeset="2671973" lat="48.0709246" lon="11.3775789">
    <tag k="amenity" v="bank"/>
    <tag k="name" v="Volks- und Raiffeisenbank"/>
  </node>
  <node id="157390991" version="4" timestamp="2011-07-18T09:16:07Z" uid="482628" user="gumul" changeset="8756042" lat="48.0709246" lon="11.3775789">
    <tag k="amenity" v="bank"/>
    <tag k="atm" v="yes"/>
    <tag k="name" v="Volks- und Raiffeisenbank"/>
  </node>
  <node id="157390991" version="5" timestamp="2011-07-25T13:21:51Z" uid="482628" user="gumul" changeset="8826194" lat="48.0709246" lon="11.3775789"/>
  <node id="157391222" version="5" timestamp="2009-10-12T21:56:13Z" uid="36809" user="pfoten_weg_!_" changeset="2831291" lat="48.0695914" lon="11.3775291">
    <tag k="amenity" v="bank"/>
    <tag k="atm" v="yes"/>
    <tag k="name" v="HypoVereinsbank"/>
  </node>
  <node id="157391222" version="6" timestamp="2010-12-06T16:15:43Z" uid="290680" user="wheelmap_visitor" changeset="6564572" lat="48.0695914" lon="11.3775291">
    <tag k="amenity" v="bank"/>
    <tag k="atm" v="yes"/>
    <tag k="name" v="HypoVereinsbank"/>
    <tag k="wheelchair" v="limited"/>
  </node>
  <node id="157391222" version="7" timestamp="2011-07-26T09:04:52Z" uid="482628" user="gumul" changeset="8833533" lat="48.0696025" lon="11.3774371">
    <tag k="amenity" v="bank"/>
    <tag k="atm" v="yes"/>
    <tag k="name" v="HypoVereinsbank UniCredit Bank AG"/>
    <tag k="wheelchair" v="limited"/>
  </node>
  <node id="157391222" version="8" timestamp="2011-07-26T09:24:33Z" uid="482628" user="gumul" changeset="8833675" lat="48.069638" lon="11.3774612">
    <tag k="amenity" v="bank"/>
    <tag k="atm" v="yes"/>
    <tag k="name" v="HypoVereinsbank UniCredit Bank AG"/>
    <tag k="wheelchair" v="limited"/>
  </node>
  <node id="157391222" version="9" timestamp="2011-10-31T16:46:26Z" uid="290680" user="wheelmap_visitor" changeset="9700443" lat="48.069638" lon="11.3774612">
    <tag k="amenity" v="bank"/>
    <tag k="atm" v="yes"/>
    <tag k="name" v="HypoVereinsbank UniCredit Bank AG"/>
    <tag k="wheelchair" v="no"/>
  </node>
  <node id="157392875" version="2" timestamp="2009-09-29T00:59:05Z" uid="36809" user="pfoten_weg_!_" changeset="2671973" lat="48.070812" lon="11.3785677"/>
  <node id="157392875" version="3" timestamp="2011-11-28T09:35:31Z" uid="482628" user="gumul" changeset="9975889" lat="48.0708572" lon="11.3786049"/>
  <node id="157399793" version="2" timestamp="2009-09-29T00:58:30Z" uid="36809" user="pfoten_weg_!_" changeset="2671973" lat="48.0693381" lon="11.3774175"/>
  <node id="157399795" version="2" timestamp="2009-09-29T00:58:47Z" uid="36809" user="pfoten_weg_!_" changeset="2671973" lat="48.0701353" lon="11.3780699"/>
  <node id="157391222" version="10" timestamp="2012-04-12T13:08:37Z" uid="290680" user="wheelmap_visitor" changeset="11272511" lat="48.069638" lon="11.3774612">
    <tag k="amenity" v="bank"/>
    <tag k="atm" v="yes"/>
    <tag k="name" v="HypoVereinsbank UniCredit Bank AG"/>
    <tag k="wheelchair" v="limited"/>
  </node>
  <node id="157399795" version="3" timestamp="2012-07-01T09:21:12Z" uid="8703" user="rolandg" changeset="12073304" lat="48.07016" lon="11.3780577"/>
</osm>
