<?xml version='1.0' encoding='UTF-8'?>
<osm version="0.6" generator="libosmium/2.20.0">
  <node id="15870071" version="5" timestamp="2011-04-12T01:12:53Z" uid="6975" user="ulfl" changeset="7838796" lat="50.8128147" lon="12.8108503">
    <tag k="addr:city" v="Chemnitz"/>
    <tag k="addr:country" v="DE"/>
    <tag k="addr:postcode" v="09224"/>
    <tag k="addr:street" v="An der Wiesenmühle"/>
    <tag k="amenity" v="fuel"/>
    <tag k="brand" v="Esso"/>
    <tag k="operator" v="Gerd Weissflog"/>
    <tag k="phone" v="0371 856520"/>
  </node>
  <node id="15870071" version="6" timestamp="2011-05-10T07:28:08Z" uid="448050" user="Peter Hacke" changeset="8099663" lat="50.8128147" lon="12.8108503">
    <tag k="addr:city" v="Chemnitz"/>
    <tag k="addr:country" v="DE"/>
    <tag k="addr:postcode" v="09224"/>
    <tag k="addr:street" v="An der Wiesenmühle"/>
    <tag k="amenity" v="fuel"/>
    <tag k="brand" v="Esso"/>
    <tag k="operator" v="Esso Gerd Weissflog"/>
    <tag k="phone" v="0371 856520"/>
  </node>
  <node id="15870289" version="2" timestamp="2008-07-08T21:13:00Z" uid="6975" user="ulfl" changeset="431192" lat="43.4350229" lon="-80.3276103">
    <tag k="highway" v="traffic_signals"/>
  </node>
  <node id="15870289" version="3" timestamp="2011-11-23T03:27:22Z" uid="19492" user="rw__" changeset="9916455" lat="43.4350229" lon="-80.3276103"/>
  <node id="15870355" version="2" timestamp="2008-07-08T21:12:53Z" uid="6975" user="ulfl" changeset="431192" lat="43.4350079" lon="-80.3274865">
    <tag k="highway" v="traffic_signals"/>
  </node>
  <node id="15870355" version="3" timestamp="2011-11-23T03:27:23Z" uid="19492" user="rw__" changeset="9916455" lat="43.4350079" lon="-80.3274865"/>
  <node id="15872535" version="3" timestamp="2008-01-27T15:16:26Z" uid="25449" user="CrispinF" changeset="702519" lat="51.3395238" lon="-0.0844289">
    <tag k="created_by" v="JOSM"/>
  </node>
  <node id="15872535" version="4" timestamp="2008-01-27T15:19:33Z" uid="25449" user="CrispinF" changeset="702519" lat="51.3395291" lon="-0.0844375"/>
  <node id="15872535" version="5" timestamp="2008-01-27T15:19:33Z" uid="25449" user="CrispinF" changeset="702519" lat="51.3395291" lon="-0.0844375"/>
  <node id="15875911" version="2" timestamp="2008-07-08T21:12:51Z" uid="6975" user="ulfl" changeset="431192" lat="43.4343116" lon="-80.3365141">
    <tag k="highway" v="traffic_signals"/>
  </node>
  <node id="15875911" version="3" timestamp="2011-11-23T03:27:23Z" uid="19492" user="rw__" changeset="9916455" lat="43.4343116" lon="-80.3365141"/>
  <node id="15870071" version="7" timestamp="2012-07-19T04:23:44Z" uid="722137" user="OSMF Redaction Account" changeset="12308035" lat="50.8128147" lon="12.8108503">
    <tag k="amenity" v="fuel"/>
    <tag k="operator" v="Esso Gerd Weissflog"/>
  </node>
  <node id="15872535" version="6" timestamp="2012-04-20T23:18:31Z" uid="577089" user="JodaStephen" changeset="11369367" lat="51.3395291" lon="-0.0844375"/>
</osm>
