<?xml version='1.0' encoding='UTF-8'?>
<osm version="0.6" generator="libosmium/2.20.0">
  <node id="168222295" version="4" timestamp="2008-07-06T09:04:51Z" uid="6975" user="ulfl" changeset="407266" lat="63.6833624" lon="17.0090997">
    <tag k="power" v="generator"/>
    <tag k="power_source" v="hydro"/>
  </node>
  <node id="168222295" version="5" timestamp="2011-06-04T01:50:53Z" uid="297482" user="don-vip" changeset="8335577" lat="63.6833624" lon="17.0090997">
    <tag k="generator:source" v="hydro"/>
    <tag k="power" v="generator"/>
    <tag k="power_source" v="hydro"/>
  </node>
  <node id="168223075" version="3" timestamp="2009-10-12T21:56:14Z" uid="36809" user="pfoten_weg_!_" changeset="2831291" lat="48.0706665" lon="11.3767635">
    <tag k="amenity" v="restaurant"/>
    <tag k="cuisine" v="italian"/>
    <tag k="name" v="Pizzeria La Stazione"/>
  </node>
  <node id="168223075" version="4" timestamp="2011-07-21T07:21:09Z" uid="482628" user="gumul" changeset="8785608" lat="48.0707473" lon="11.3767914">
    <tag k="amenity" v="restaurant"/>
    <tag k="cuisine" v="italian"/>
    <tag k="name" v="Pizzeria La Stazione"/>
  </node>
  <node id="168223075" version="5" timestamp="2011-07-25T10:57:57Z" uid="482628" user="gumul" changeset="8825012" lat="48.0710681" lon="11.3771605">
    <tag k="amenity" v="restaurant"/>
    <tag k="cuisine" v="italian"/>
    <tag k="name" v="Pizzeria La Stazione"/>
  </node>
  <node id="168223075" version="6" timestamp="2011-07-25T13:38:21Z" uid="482628" user="gumul" changeset="8826324" lat="48.0706881" lon="11.3767635">
    <tag k="amenity" v="restaurant"/>
    <tag k="cuisine" v="italian"/>
    <tag k="name" v="Pizzeria La Stazione"/>
  </node>
</osm>
