<?xml version='1.0' encoding='UTF-8'?>
<osm version="0.6" generator="libosmium/2.20.0">
  <node id="169605313" version="1" timestamp="2007-12-14T23:41:53Z" uid="4667" user="MapZ" changeset="310342" lat="49.5271478" lon="8.5724906">
    <tag k="created_by" v="JOSM"/>
  </node>
  <node id="169605313" version="2" timestamp="2010-08-05T15:01:21Z" uid="245137" user="maurice2010" changeset="5408942" lat="49.5271478" lon="8.5724906">
    <tag k="created_by" v="JOSM"/>
  </node>
  <node id="169605322" version="1" timestamp="2007-12-14T23:41:53Z" uid="4667" user="MapZ" changeset="310342" lat="49.5273978" lon="8.5731354">
    <tag k="amenity" v="parking"/>
    <tag k="created_by" v="JOSM"/>
  </node>
  <node id="169605322" version="2" timestamp="2010-08-05T15:01:33Z" uid="245137" user="maurice2010" changeset="5408942" lat="49.5273978" lon="8.5731354">
    <tag k="amenity" v="parking"/>
    <tag k="created_by" v="JOSM"/>
  </node>
  <node id="169605334" version="1" timestamp="2007-12-14T23:41:53Z" uid="4667" user="MapZ" changeset="310342" lat="49.5270031" lon="8.5721184">
    <tag k="amenity" v="parking"/>
    <tag k="created_by" v="JOSM"/>
  </node>
  <node id="169605334" version="2" timestamp="2010-08-05T15:01:29Z" uid="245137" user="maurice2010" changeset="5408942" lat="49.5270031" lon="8.5721184">
    <tag k="amenity" v="parking"/>
    <tag k="created_by" v="JOSM"/>
  </node>
  <node id="169605343" version="1" timestamp="2007-12-14T23:41:53Z" uid="4667" user="MapZ" changeset="310342" lat="49.527656" lon="8.57304">
    <tag k="amenity" v="fast_food"/>
    <tag k="created_by" v="JOSM"/>
    <tag k="name" v="McDonald&apos;s"/>
  </node>
  <node id="169605343" version="2" timestamp="2008-11-05T13:28:33Z" uid="7562" user="LosHawlos" changeset="686739" lat="49.527656" lon="8.57304">
    <tag k="addr:city" v="Viernheim"/>
    <tag k="addr:postcode" v="68519"/>
    <tag k="amenity" v="fast_food"/>
    <tag k="created_by" v="JOSM"/>
    <tag k="name" v="McDonald&apos;s"/>
  </node>
  <node id="169605343" version="3" timestamp="2010-08-05T15:00:54Z" uid="245137" user="maurice2010" changeset="5408942" lat="49.5276004" lon="8.5732217">
    <tag k="addr:city" v="Viernheim"/>
    <tag k="addr:postcode" v="68519"/>
    <tag k="amenity" v="fast_food"/>
    <tag k="name" v="McDonald&apos;s"/>
  </node>
  <node id="169605343" version="4" timestamp="2010-08-06T16:53:36Z" uid="207745" user="NE2" changeset="5418228" lat="49.5276004" lon="8.5732217">
    <tag k="addr:city" v="Viernheim"/>
    <tag k="addr:postcode" v="68519"/>
    <tag k="amenity" v="fast_food"/>
    <tag k="cuisine" v="burger"/>
    <tag k="name" v="McDonald&apos;s"/>
  </node>
  <node id="169605343" version="5" timestamp="2010-10-17T17:42:26Z" uid="9581" user="Lobelt" changeset="6069677" lat="49.5275481" lon="8.5729442">
    <tag k="addr:city" v="Viernheim"/>
    <tag k="addr:postcode" v="68519"/>
    <tag k="amenity" v="fast_food"/>
    <tag k="cuisine" v="burger"/>
    <tag k="name" v="McDonald&apos;s"/>
  </node>
  <node id="169605343" version="6" timestamp="2011-02-20T15:58:28Z" uid="290680" user="wheelmap_visitor" changeset="7340866" lat="49.5275481" lon="8.5729442">
    <tag k="addr:city" v="Viernheim"/>
    <tag k="addr:postcode" v="68519"/>
    <tag k="amenity" v="fast_food"/>
    <tag k="cuisine" v="burger"/>
    <tag k="name" v="McDonald&apos;s"/>
    <tag k="wheelchair" v="limited"/>
  </node>
  <node id="169605343" version="7" timestamp="2012-02-16T20:34:41Z" uid="165061" user="keinname" changeset="10704437" lat="49.5275481" lon="8.5729442">
    <tag k="addr:city" v="Viernheim"/>
    <tag k="addr:postcode" v="68519"/>
    <tag k="amenity" v="fast_food"/>
    <tag k="brand" v="McDonald&apos;s"/>
    <tag k="cuisine" v="burger"/>
    <tag k="name" v="McDonald&apos;s"/>
    <tag k="smoking" v="no"/>
    <tag k="website" v="http://www.mcdonalds.de"/>
    <tag k="wheelchair" v="limited"/>
  </node>
  <node id="169605343" version="8" timestamp="2012-03-28T23:33:10Z" uid="110838" user="Bernhard W" changeset="11132371" lat="49.5275481" lon="8.5729442">
    <tag k="addr:city" v="Viernheim"/>
    <tag k="addr:postcode" v="68519"/>
    <tag k="amenity" v="fast_food"/>
    <tag k="brand" v="McDonald&apos;s"/>
    <tag k="cuisine" v="burger"/>
    <tag k="name" v="McDonald&apos;s"/>
    <tag k="odbl" v="clean"/>
    <tag k="smoking" v="no"/>
    <tag k="website" v="http://www.mcdonalds.de"/>
    <tag k="wheelchair" v="limited"/>
  </node>
  <node id="169605343" version="9" timestamp="2012-03-30T21:48:31Z" uid="110838" user="Bernhard W" changeset="11160475" lat="49.5275481" lon="8.5729442">
    <tag k="addr:city" v="Viernheim"/>
    <tag k="addr:postcode" v="68519"/>
    <tag k="amenity" v="fast_food"/>
    <tag k="brand" v="McDonald&apos;s"/>
    <tag k="cuisine" v="burger"/>
    <tag k="name" v="McDonald&apos;s"/>
    <tag k="smoking" v="no"/>
    <tag k="website" v="http://www.mcdonalds.de"/>
    <tag k="wheelchair" v="limited"/>
  </node>
  <node id="169606802" version="2" timestamp="2009-09-08T01:02:34Z" uid="99207" user="Lar Kiesel" changeset="2409300" lat="35.519119" lon="-82.605687">
    <tag k="source" v="tiger_import_dch_v0.6_20070829"/>
    <tag k="tiger:county" v="Buncombe, NC"/>
    <tag k="tiger:tlid" v="36847170:36863527:36875203"/>
    <tag k="tiger:upload_uuid" v="bulk_upload.pl-8ce0f50b-a930-4e72-a7fc-6d619c0c0951"/>
  </node>
  <node id="169606802" version="3" timestamp="2009-12-15T02:30:42Z" uid="147510" user="woodpeck_fixbot" changeset="3376664" lat="35.519119" lon="-82.605687"/>
  <node id="169607827" version="2" timestamp="2009-09-08T01:02:49Z" uid="99207" user="Lar Kiesel" changeset="2409300" lat="35.477632" lon="-82.581189">
    <tag k="source" v="tiger_import_dch_v0.6_20070829"/>
    <tag k="tiger:county" v="Buncombe, NC"/>
    <tag k="tiger:tlid" v="36903046:36903047:36903048:36875698:36866987:36847563"/>
    <tag k="tiger:upload_uuid" v="bulk_upload.pl-8ce0f50b-a930-4e72-a7fc-6d619c0c0951"/>
  </node>
  <node id="169607827" version="3" timestamp="2009-09-28T00:08:47Z" uid="147510" user="woodpeck_fixbot" changeset="2659648" lat="35.477632" lon="-82.581189"/>
  <node id="169605343" version="10" timestamp="2012-04-04T08:40:37Z" uid="165061" user="mapper999" changeset="11174194" lat="49.5275481" lon="8.5729442">
    <tag k="addr:city" v="Viernheim"/>
    <tag k="addr:country" v="DE"/>
    <tag k="addr:postcode" v="68519"/>
    <tag k="addr:street" v="Heidelberger Straße"/>
    <tag k="amenity" v="fast_food"/>
    <tag k="brand" v="McDonald&apos;s"/>
    <tag k="cuisine" v="burger"/>
    <tag k="name" v="McDonald&apos;s"/>
    <tag k="smoking" v="no"/>
    <tag k="website" v="http://www.mcdonalds.de"/>
    <tag k="wheelchair" v="limited"/>
  </node>
  <node id="169605343" version="11" timestamp="2012-07-17T03:55:49Z" uid="722137" user="OSMF Redaction Account" changeset="12256432" lat="49.5276004" lon="8.5732217">
    <tag k="addr:city" v="Viernheim"/>
    <tag k="addr:country" v="DE"/>
    <tag k="addr:postcode" v="68519"/>
    <tag k="addr:street" v="Heidelberger Straße"/>
    <tag k="brand" v="McDonald&apos;s"/>
    <tag k="cuisine" v="burger"/>
    <tag k="smoking" v="no"/>
    <tag k="website" v="http://www.mcdonalds.de"/>
    <tag k="wheelchair" v="limited"/>
  </node>
</osm>
