<?xml version='1.0' encoding='UTF-8'?>
<osm version="0.6" generator="libosmium/2.20.0">
  <node id="170570420" version="3" timestamp="2010-02-15T05:19:47Z" uid="74617" user="JohnSmith" changeset="3880269" lat="-27.3932407" lon="152.974834">
    <tag k="name" v="Everton Hills"/>
    <tag k="place" v="suburb"/>
  </node>
  <node id="170570459" version="3" timestamp="2010-02-15T05:19:47Z" uid="74617" user="JohnSmith" changeset="3880269" lat="-27.395057" lon="152.939579">
    <tag k="name" v="Ferny Hills"/>
    <tag k="place" v="suburb"/>
  </node>
  <node id="170572458" version="10" timestamp="2010-05-20T02:13:05Z" uid="4467" user="Rosscoe" changeset="4753514" lat="-33.3503715" lon="116.1516754">
    <tag k="highway" v="mini_roundabout"/>
  </node>
  <node id="170570420" version="4" timestamp="2012-07-19T19:53:52Z" uid="722137" user="OSMF Redaction Account" changeset="12345482" lat="-27.3932407" lon="152.9748342">
    <tag k="name" v="Everton Hills"/>
    <tag k="place" v="suburb"/>
  </node>
  <node id="170570459" version="4" timestamp="2012-07-19T19:53:50Z" uid="722137" user="OSMF Redaction Account" changeset="12345482" lat="-27.395057" lon="152.9395794">
    <tag k="name" v="Ferny Hills"/>
    <tag k="place" v="suburb"/>
  </node>
</osm>
