<?xml version='1.0' encoding='UTF-8'?>
<osm version="0.6" generator="libosmium/2.20.0">
  <node id="17401490" version="5" timestamp="2009-07-26T01:48:37Z" uid="123700" user="Mala" changeset="1939972" lat="51.062188" lon="3.710209">
    <tag k="is_in" v="Oost-Vlaanderen, Belgium, Europe"/>
    <tag k="is_in:continent" v="Europe"/>
    <tag k="name" v="Gent"/>
    <tag k="name:es" v="Gante"/>
    <tag k="name:fr" v="Gand"/>
    <tag k="name:it" v="Gand"/>
    <tag k="name:la" v="Gandavum"/>
    <tag k="name:lt" v="Gentas"/>
    <tag k="name:lv" v="Ģente"/>
    <tag k="name:pl" v="Gandawa"/>
    <tag k="name:pt" v="Gante"/>
    <tag k="openGeoDB:auto_update" v="population"/>
    <tag k="openGeoDB:is_in" v="Gent,Gent,Gent,Gent,Oost-Vlaanderen,Oost-Vlaanderen,Vlaanderen,Vlaanderen,Belgique,Belgique,Europe"/>
    <tag k="openGeoDB:is_in_loc_id" v="35283"/>
    <tag k="openGeoDB:layer" v="7"/>
    <tag k="openGeoDB:loc_id" v="33172"/>
    <tag k="openGeoDB:name" v="Gent,Gent"/>
    <tag k="openGeoDB:postal_codes" v="9000"/>
    <tag k="openGeoDB:sort_name" v="GENT"/>
    <tag k="openGeoDB:type" v="100600000"/>
    <tag k="openGeoDB:version" v="0.2.6.11 / 2007-12-04 / http://fa-technik.adfc.de/code/opengeodb/dump/"/>
    <tag k="opengeodb:lat" v="51.062188"/>
    <tag k="opengeodb:lon" v="3.710209"/>
    <tag k="place" v="city"/>
    <tag k="wikipedia" v="Ghent"/>
  </node>
  <node id="17401490" version="6" timestamp="2009-11-27T16:14:38Z" uid="166445" user="GranD" changeset="3229309" lat="51.0621881" lon="3.7102089">
    <tag k="is_in" v="Oost-Vlaanderen, Belgium, Europe"/>
    <tag k="is_in:continent" v="Europe"/>
    <tag k="name" v="Gent"/>
    <tag k="name:es" v="Gante"/>
    <tag k="name:fr" v="Gand"/>
    <tag k="name:it" v="Gand"/>
    <tag k="name:la" v="Gandavum"/>
    <tag k="name:lt" v="Gentas"/>
    <tag k="name:lv" v="Ģente"/>
    <tag k="name:pl" v="Gandawa"/>
    <tag k="name:pt" v="Gante"/>
    <tag k="name:ru" v="Гент"/>
    <tag k="openGeoDB:auto_update" v="population"/>
    <tag k="openGeoDB:is_in" v="Gent,Gent,Gent,Gent,Oost-Vlaanderen,Oost-Vlaanderen,Vlaanderen,Vlaanderen,Belgique,Belgique,Europe"/>
    <tag k="openGeoDB:is_in_loc_id" v="35283"/>
    <tag k="openGeoDB:layer" v="7"/>
    <tag k="openGeoDB:loc_id" v="33172"/>
    <tag k="openGeoDB:name" v="Gent,Gent"/>
    <tag k="openGeoDB:postal_codes" v="9000"/>
    <tag k="openGeoDB:sort_name" v="GENT"/>
    <tag k="openGeoDB:type" v="100600000"/>
    <tag k="openGeoDB:version" v="0.2.6.11 / 2007-12-04 / http://fa-technik.adfc.de/code/opengeodb/dump/"/>
    <tag k="opengeodb:lat" v="51.062188"/>
    <tag k="opengeodb:lon" v="3.710209"/>
    <tag k="place" v="city"/>
    <tag k="wikipedia" v="Ghent"/>
  </node>
  <node id="17401490" version="7" timestamp="2010-05-09T07:27:56Z" uid="42033" user="Tbj" changeset="4645178" lat="51.0621881" lon="3.7102089">
    <tag k="is_in" v="Oost-Vlaanderen, Belgium, Europe"/>
    <tag k="is_in:continent" v="Europe"/>
    <tag k="name" v="Gent"/>
    <tag k="name:es" v="Gante"/>
    <tag k="name:fr" v="Gand"/>
    <tag k="name:it" v="Gand"/>
    <tag k="name:la" v="Gandavum"/>
    <tag k="name:lt" v="Gentas"/>
    <tag k="name:lv" v="Ģente"/>
    <tag k="name:pl" v="Gandawa"/>
    <tag k="name:pt" v="Gante"/>
    <tag k="name:ru" v="Гент"/>
    <tag k="openGeoDB:auto_update" v="population"/>
    <tag k="openGeoDB:is_in" v="Gent,Gent,Gent,Gent,Oost-Vlaanderen,Oost-Vlaanderen,Vlaanderen,Vlaanderen,Belgique,Belgique,Europe"/>
    <tag k="openGeoDB:is_in_loc_id" v="35283"/>
    <tag k="openGeoDB:layer" v="7"/>
    <tag k="openGeoDB:loc_id" v="33172"/>
    <tag k="openGeoDB:name" v="Gent,Gent"/>
    <tag k="openGeoDB:postal_codes" v="9000"/>
    <tag k="openGeoDB:sort_name" v="GENT"/>
    <tag k="openGeoDB:type" v="100600000"/>
    <tag k="openGeoDB:version" v="0.2.6.11 / 2007-12-04 / http://fa-technik.adfc.de/code/opengeodb/dump/"/>
    <tag k="opengeodb:lat" v="51.062188"/>
    <tag k="opengeodb:lon" v="3.710209"/>
    <tag k="place" v="city"/>
    <tag k="population" v="237000"/>
    <tag k="wikipedia" v="Ghent"/>
  </node>
  <node id="17401490" version="8" timestamp="2010-05-09T07:30:19Z" uid="42033" user="Tbj" changeset="4645178" lat="51.0621881" lon="3.7102089">
    <tag k="is_in" v="Oost-Vlaanderen, Belgium, Europe"/>
    <tag k="is_in:continent" v="Europe"/>
    <tag k="name" v="Gent"/>
    <tag k="name:es" v="Gante"/>
    <tag k="name:fr" v="Gand"/>
    <tag k="name:it" v="Gand"/>
    <tag k="name:la" v="Gandavum"/>
    <tag k="name:lt" v="Gentas"/>
    <tag k="name:lv" v="Ģente"/>
    <tag k="name:nl" v="Gent"/>
    <tag k="name:pl" v="Gandawa"/>
    <tag k="name:pt" v="Gante"/>
    <tag k="name:ru" v="Гент"/>
    <tag k="openGeoDB:auto_update" v="population"/>
    <tag k="openGeoDB:is_in" v="Gent,Gent,Gent,Gent,Oost-Vlaanderen,Oost-Vlaanderen,Vlaanderen,Vlaanderen,Belgique,Belgique,Europe"/>
    <tag k="openGeoDB:is_in_loc_id" v="35283"/>
    <tag k="openGeoDB:layer" v="7"/>
    <tag k="openGeoDB:loc_id" v="33172"/>
    <tag k="openGeoDB:name" v="Gent,Gent"/>
    <tag k="openGeoDB:postal_codes" v="9000"/>
    <tag k="openGeoDB:sort_name" v="GENT"/>
    <tag k="openGeoDB:type" v="100600000"/>
    <tag k="openGeoDB:version" v="0.2.6.11 / 2007-12-04 / http://fa-technik.adfc.de/code/opengeodb/dump/"/>
    <tag k="opengeodb:lat" v="51.062188"/>
    <tag k="opengeodb:lon" v="3.710209"/>
    <tag k="place" v="city"/>
    <tag k="population" v="237000"/>
    <tag k="wikipedia" v="Ghent"/>
  </node>
  <node id="17401490" version="9" timestamp="2011-10-01T20:33:42Z" uid="212207" user="SunCobalt" changeset="9445807" lat="51.0621881" lon="3.7102089">
    <tag k="is_in" v="Oost-Vlaanderen, Belgium, Europe"/>
    <tag k="is_in:continent" v="Europe"/>
    <tag k="name" v="Gent"/>
    <tag k="name:es" v="Gante"/>
    <tag k="name:fr" v="Gand"/>
    <tag k="name:it" v="Gand"/>
    <tag k="name:la" v="Gandavum"/>
    <tag k="name:lt" v="Gentas"/>
    <tag k="name:lv" v="Ģente"/>
    <tag k="name:nl" v="Gent"/>
    <tag k="name:pl" v="Gandawa"/>
    <tag k="name:pt" v="Gante"/>
    <tag k="name:ru" v="Гент"/>
    <tag k="name:sr" v="Гент"/>
    <tag k="openGeoDB:auto_update" v="population"/>
    <tag k="openGeoDB:is_in" v="Gent,Gent,Gent,Gent,Oost-Vlaanderen,Oost-Vlaanderen,Vlaanderen,Vlaanderen,Belgique,Belgique,Europe"/>
    <tag k="openGeoDB:is_in_loc_id" v="35283"/>
    <tag k="openGeoDB:layer" v="7"/>
    <tag k="openGeoDB:loc_id" v="33172"/>
    <tag k="openGeoDB:name" v="Gent,Gent"/>
    <tag k="openGeoDB:postal_codes" v="9000"/>
    <tag k="openGeoDB:sort_name" v="GENT"/>
    <tag k="openGeoDB:type" v="100600000"/>
    <tag k="openGeoDB:version" v="0.2.6.11 / 2007-12-04 / http://fa-technik.adfc.de/code/opengeodb/dump/"/>
    <tag k="opengeodb:lat" v="51.062188"/>
    <tag k="opengeodb:lon" v="3.710209"/>
    <tag k="place" v="city"/>
    <tag k="population" v="237000"/>
    <tag k="wikipedia" v="Ghent"/>
  </node>
  <node id="17401490" version="10" timestamp="2011-11-06T11:50:00Z" uid="464447" user="erferfref" changeset="9754389" lat="51.0557833" lon="3.7238989">
    <tag k="is_in" v="Oost-Vlaanderen, Belgium, Europe"/>
    <tag k="is_in:continent" v="Europe"/>
    <tag k="name" v="Gent"/>
    <tag k="name:es" v="Gante"/>
    <tag k="name:fr" v="Gand"/>
    <tag k="name:it" v="Gand"/>
    <tag k="name:la" v="Gandavum"/>
    <tag k="name:lt" v="Gentas"/>
    <tag k="name:lv" v="Ģente"/>
    <tag k="name:nl" v="Gent"/>
    <tag k="name:pl" v="Gandawa"/>
    <tag k="name:pt" v="Gante"/>
    <tag k="name:ru" v="Гент"/>
    <tag k="name:sr" v="Гент"/>
    <tag k="openGeoDB:auto_update" v="population"/>
    <tag k="openGeoDB:is_in" v="Gent,Gent,Gent,Gent,Oost-Vlaanderen,Oost-Vlaanderen,Vlaanderen,Vlaanderen,Belgique,Belgique,Europe"/>
    <tag k="openGeoDB:is_in_loc_id" v="35283"/>
    <tag k="openGeoDB:layer" v="7"/>
    <tag k="openGeoDB:loc_id" v="33172"/>
    <tag k="openGeoDB:name" v="Gent,Gent"/>
    <tag k="openGeoDB:postal_codes" v="9000"/>
    <tag k="openGeoDB:sort_name" v="GENT"/>
    <tag k="openGeoDB:type" v="100600000"/>
    <tag k="openGeoDB:version" v="0.2.6.11 / 2007-12-04 / http://fa-technik.adfc.de/code/opengeodb/dump/"/>
    <tag k="opengeodb:lat" v="51.062188"/>
    <tag k="opengeodb:lon" v="3.710209"/>
    <tag k="place" v="city"/>
    <tag k="population" v="237000"/>
    <tag k="wikipedia" v="Ghent"/>
  </node>
  <node id="17401490" version="11" timestamp="2012-03-08T14:40:10Z" uid="7045" user="Xuacu" changeset="10909736" lat="51.0557833" lon="3.7238989">
    <tag k="is_in" v="Oost-Vlaanderen, Belgium, Europe"/>
    <tag k="is_in:continent" v="Europe"/>
    <tag k="name" v="Gent"/>
    <tag k="name:ast" v="Gante"/>
    <tag k="name:es" v="Gante"/>
    <tag k="name:fr" v="Gand"/>
    <tag k="name:it" v="Gand"/>
    <tag k="name:la" v="Gandavum"/>
    <tag k="name:lt" v="Gentas"/>
    <tag k="name:lv" v="Ģente"/>
    <tag k="name:nl" v="Gent"/>
    <tag k="name:pl" v="Gandawa"/>
    <tag k="name:pt" v="Gante"/>
    <tag k="name:ru" v="Гент"/>
    <tag k="name:sr" v="Гент"/>
    <tag k="openGeoDB:auto_update" v="population"/>
    <tag k="openGeoDB:is_in" v="Gent,Gent,Gent,Gent,Oost-Vlaanderen,Oost-Vlaanderen,Vlaanderen,Vlaanderen,Belgique,Belgique,Europe"/>
    <tag k="openGeoDB:is_in_loc_id" v="35283"/>
    <tag k="openGeoDB:layer" v="7"/>
    <tag k="openGeoDB:loc_id" v="33172"/>
    <tag k="openGeoDB:name" v="Gent,Gent"/>
    <tag k="openGeoDB:postal_codes" v="9000"/>
    <tag k="openGeoDB:sort_name" v="GENT"/>
    <tag k="openGeoDB:type" v="100600000"/>
    <tag k="openGeoDB:version" v="0.2.6.11 / 2007-12-04 / http://fa-technik.adfc.de/code/opengeodb/dump/"/>
    <tag k="opengeodb:lat" v="51.062188"/>
    <tag k="opengeodb:lon" v="3.710209"/>
    <tag k="place" v="city"/>
    <tag k="population" v="237000"/>
    <tag k="wikipedia" v="Ghent"/>
  </node>
  <node id="17401490" version="12" timestamp="2012-03-10T13:15:14Z" uid="6072" user="Eimai" changeset="10931510" lat="51.0557833" lon="3.7238989"/>
  <node id="17401554" version="22" timestamp="2009-07-26T01:48:37Z" uid="123700" user="Mala" changeset="1939972" lat="50.8465295" lon="4.3518256">
    <tag k="capital" v="yes"/>
    <tag k="is_in" v="Belgium, Europe"/>
    <tag k="is_in:continent" v="Europe"/>
    <tag k="name" v="Brussel - Bruxelles"/>
    <tag k="name:cs" v="Brusel"/>
    <tag k="name:de" v="Brüssel"/>
    <tag k="name:en" v="Brussels"/>
    <tag k="name:es" v="Bruselas"/>
    <tag k="name:fi" v="Bryssel"/>
    <tag k="name:fr" v="Bruxelles"/>
    <tag k="name:he" v="בריסל"/>
    <tag k="name:it" v="Bruxelles"/>
    <tag k="name:la" v="Bruxellae"/>
    <tag k="name:lt" v="Briuselis"/>
    <tag k="name:lv" v="Brisele"/>
    <tag k="name:nl" v="Brussel"/>
    <tag k="name:pl" v="Bruksela"/>
    <tag k="name:pt" v="Bruxelas"/>
    <tag k="name:sv" v="Bryssel"/>
    <tag k="name:tr" v="Brüksel"/>
    <tag k="place" v="city"/>
    <tag k="population" v="148000"/>
    <tag k="wikipedia" v="Brussels"/>
  </node>
  <node id="17401554" version="23" timestamp="2009-07-29T05:48:55Z" uid="150511" user="Beruco" changeset="1972078" lat="50.8465325" lon="4.3518219">
    <tag k="capital" v="yes"/>
    <tag k="is_in" v="Belgium, Europe"/>
    <tag k="is_in:continent" v="Europe"/>
    <tag k="name" v="Bruxelles - Brussel - Brüssel"/>
    <tag k="name:cs" v="Brusel"/>
    <tag k="name:de" v="Brüssel"/>
    <tag k="name:en" v="Brussels"/>
    <tag k="name:es" v="Bruselas"/>
    <tag k="name:fi" v="Bryssel"/>
    <tag k="name:fr" v="Bruxelles"/>
    <tag k="name:he" v="בריסל"/>
    <tag k="name:it" v="Bruxelles"/>
    <tag k="name:la" v="Bruxellae"/>
    <tag k="name:lt" v="Briuselis"/>
    <tag k="name:lv" v="Brisele"/>
    <tag k="name:nl" v="Brussel"/>
    <tag k="name:pl" v="Bruksela"/>
    <tag k="name:pt" v="Bruxelas"/>
    <tag k="name:sv" v="Bryssel"/>
    <tag k="name:tr" v="Brüksel"/>
    <tag k="place" v="city"/>
    <tag k="population" v="148000"/>
    <tag k="wikipedia" v="Brussels"/>
  </node>
  <node id="17401554" version="24" timestamp="2009-08-04T11:23:27Z" uid="6072" user="Eimai" changeset="2034637" lat="50.8465367" lon="4.3518212">
    <tag k="capital" v="yes"/>
    <tag k="is_in" v="Belgium, Europe"/>
    <tag k="is_in:continent" v="Europe"/>
    <tag k="name" v="Bruxelles - Brussel"/>
    <tag k="name:cs" v="Brusel"/>
    <tag k="name:de" v="Brüssel"/>
    <tag k="name:en" v="Brussels"/>
    <tag k="name:es" v="Bruselas"/>
    <tag k="name:fi" v="Bryssel"/>
    <tag k="name:fr" v="Bruxelles"/>
    <tag k="name:he" v="בריסל"/>
    <tag k="name:it" v="Bruxelles"/>
    <tag k="name:la" v="Bruxellae"/>
    <tag k="name:lt" v="Briuselis"/>
    <tag k="name:lv" v="Brisele"/>
    <tag k="name:nl" v="Brussel"/>
    <tag k="name:pl" v="Bruksela"/>
    <tag k="name:pt" v="Bruxelas"/>
    <tag k="name:sv" v="Bryssel"/>
    <tag k="name:tr" v="Brüksel"/>
    <tag k="place" v="city"/>
    <tag k="population" v="148000"/>
    <tag k="wikipedia" v="Brussels"/>
  </node>
  <node id="17401554" version="25" timestamp="2009-08-05T08:01:14Z" uid="9804" user="Lithion" changeset="2043227" lat="50.8465385" lon="4.3518154">
    <tag k="capital" v="yes"/>
    <tag k="is_in" v="Belgium, Europe"/>
    <tag k="is_in:continent" v="Europe"/>
    <tag k="name" v="Brussel - Bruxelles"/>
    <tag k="name:cs" v="Brusel"/>
    <tag k="name:de" v="Brüssel"/>
    <tag k="name:en" v="Brussels"/>
    <tag k="name:es" v="Bruselas"/>
    <tag k="name:fi" v="Bryssel"/>
    <tag k="name:fr" v="Bruxelles"/>
    <tag k="name:he" v="בריסל"/>
    <tag k="name:it" v="Bruxelles"/>
    <tag k="name:la" v="Bruxellae"/>
    <tag k="name:lt" v="Briuselis"/>
    <tag k="name:lv" v="Brisele"/>
    <tag k="name:nl" v="Brussel"/>
    <tag k="name:pl" v="Bruksela"/>
    <tag k="name:pt" v="Bruxelas"/>
    <tag k="name:sv" v="Bryssel"/>
    <tag k="name:tr" v="Brüksel"/>
    <tag k="place" v="city"/>
    <tag k="population" v="148000"/>
    <tag k="wikipedia" v="Brussels"/>
  </node>
  <node id="17401554" version="26" timestamp="2009-08-16T10:40:11Z" uid="33377" user="Victor LP" changeset="2163565" lat="50.8465385" lon="4.3518154">
    <tag k="capital" v="yes"/>
    <tag k="is_in" v="Belgium, Europe"/>
    <tag k="is_in:continent" v="Europe"/>
    <tag k="name" v="Brussel - Bruxelles"/>
    <tag k="name:cs" v="Brusel"/>
    <tag k="name:de" v="Brüssel"/>
    <tag k="name:el" v="Βρυξέλλες"/>
    <tag k="name:en" v="Brussels"/>
    <tag k="name:es" v="Bruselas"/>
    <tag k="name:fi" v="Bryssel"/>
    <tag k="name:fr" v="Bruxelles"/>
    <tag k="name:he" v="בריסל"/>
    <tag k="name:it" v="Bruxelles"/>
    <tag k="name:la" v="Bruxellae"/>
    <tag k="name:lt" v="Briuselis"/>
    <tag k="name:lv" v="Brisele"/>
    <tag k="name:nl" v="Brussel"/>
    <tag k="name:pl" v="Bruksela"/>
    <tag k="name:pt" v="Bruxelas"/>
    <tag k="name:sv" v="Bryssel"/>
    <tag k="name:tr" v="Brüksel"/>
    <tag k="place" v="city"/>
    <tag k="population" v="148000"/>
    <tag k="wikipedia" v="Brussels"/>
  </node>
  <node id="17401554" version="27" timestamp="2009-08-28T16:27:42Z" uid="24965" user="Ævar Arnfjörð Bjarmason" changeset="2292252" lat="50.8465385" lon="4.3518154">
    <tag k="capital" v="yes"/>
    <tag k="is_in" v="Belgium, Europe"/>
    <tag k="is_in:continent" v="Europe"/>
    <tag k="name" v="Brussel - Bruxelles"/>
    <tag k="name:cs" v="Brusel"/>
    <tag k="name:de" v="Brüssel"/>
    <tag k="name:el" v="Βρυξέλλες"/>
    <tag k="name:en" v="Brussels"/>
    <tag k="name:es" v="Bruselas"/>
    <tag k="name:fi" v="Bryssel"/>
    <tag k="name:fr" v="Bruxelles"/>
    <tag k="name:he" v="בריסל"/>
    <tag k="name:is" v="Brussel"/>
    <tag k="name:it" v="Bruxelles"/>
    <tag k="name:la" v="Bruxellae"/>
    <tag k="name:lt" v="Briuselis"/>
    <tag k="name:lv" v="Brisele"/>
    <tag k="name:nl" v="Brussel"/>
    <tag k="name:pl" v="Bruksela"/>
    <tag k="name:pt" v="Bruxelas"/>
    <tag k="name:sv" v="Bryssel"/>
    <tag k="name:tr" v="Brüksel"/>
    <tag k="place" v="city"/>
    <tag k="population" v="148000"/>
    <tag k="wikipedia" v="Brussels"/>
  </node>
  <node id="17401554" version="28" timestamp="2009-09-02T07:54:52Z" uid="115468" user="platlas23" changeset="2345941" lat="50.8465385" lon="4.3518154">
    <tag k="capital" v="yes"/>
    <tag k="is_in" v="Belgium, Europe"/>
    <tag k="is_in:continent" v="Europe"/>
    <tag k="name" v="Brussel - Bruxelles"/>
    <tag k="name:cs" v="Brusel"/>
    <tag k="name:de" v="Brüssel"/>
    <tag k="name:el" v="Βρυξέλλες"/>
    <tag k="name:en" v="Brussels"/>
    <tag k="name:es" v="Bruselas"/>
    <tag k="name:fi" v="Bryssel"/>
    <tag k="name:fr" v="Bruxelles"/>
    <tag k="name:he" v="בריסל"/>
    <tag k="name:is" v="Brussel"/>
    <tag k="name:it" v="Bruxelles"/>
    <tag k="name:la" v="Bruxellae"/>
    <tag k="name:lt" v="Briuselis"/>
    <tag k="name:lv" v="Brisele"/>
    <tag k="name:nl" v="Brussel"/>
    <tag k="name:pl" v="Bruksela"/>
    <tag k="name:pt" v="Bruxelas"/>
    <tag k="name:sk" v="Brusel"/>
    <tag k="name:sv" v="Bryssel"/>
    <tag k="name:tr" v="Brüksel"/>
    <tag k="place" v="city"/>
    <tag k="population" v="148000"/>
    <tag k="wikipedia" v="Brussels"/>
  </node>
  <node id="17401554" version="29" timestamp="2009-09-04T04:36:41Z" uid="148025" user="mvrban" changeset="2366075" lat="50.8465385" lon="4.3518154">
    <tag k="capital" v="yes"/>
    <tag k="is_in" v="Belgium, Europe"/>
    <tag k="is_in:continent" v="Europe"/>
    <tag k="name" v="Brussel - Bruxelles"/>
    <tag k="name:cs" v="Brusel"/>
    <tag k="name:de" v="Brüssel"/>
    <tag k="name:el" v="Βρυξέλλες"/>
    <tag k="name:en" v="Brussels"/>
    <tag k="name:es" v="Bruselas"/>
    <tag k="name:fi" v="Bryssel"/>
    <tag k="name:fr" v="Bruxelles"/>
    <tag k="name:he" v="בריסל"/>
    <tag k="name:hr" v="Brisel"/>
    <tag k="name:is" v="Brussel"/>
    <tag k="name:it" v="Bruxelles"/>
    <tag k="name:la" v="Bruxellae"/>
    <tag k="name:lt" v="Briuselis"/>
    <tag k="name:lv" v="Brisele"/>
    <tag k="name:nl" v="Brussel"/>
    <tag k="name:pl" v="Bruksela"/>
    <tag k="name:pt" v="Bruxelas"/>
    <tag k="name:sk" v="Brusel"/>
    <tag k="name:sv" v="Bryssel"/>
    <tag k="name:tr" v="Brüksel"/>
    <tag k="place" v="city"/>
    <tag k="population" v="148000"/>
    <tag k="wikipedia" v="Brussels"/>
  </node>
  <node id="17401554" version="30" timestamp="2009-09-14T11:45:36Z" uid="246" user="moyogo" changeset="2480960" lat="50.8465415" lon="4.3518133">
    <tag k="capital" v="yes"/>
    <tag k="is_in" v="Belgium, Europe"/>
    <tag k="is_in:continent" v="Europe"/>
    <tag k="name" v="Bruxelles - Brussel"/>
    <tag k="name:cs" v="Brusel"/>
    <tag k="name:de" v="Brüssel"/>
    <tag k="name:el" v="Βρυξέλλες"/>
    <tag k="name:en" v="Brussels"/>
    <tag k="name:es" v="Bruselas"/>
    <tag k="name:fi" v="Bryssel"/>
    <tag k="name:fr" v="Bruxelles"/>
    <tag k="name:he" v="בריסל"/>
    <tag k="name:hr" v="Brisel"/>
    <tag k="name:is" v="Brussel"/>
    <tag k="name:it" v="Bruxelles"/>
    <tag k="name:la" v="Bruxellae"/>
    <tag k="name:lt" v="Briuselis"/>
    <tag k="name:lv" v="Brisele"/>
    <tag k="name:nl" v="Brussel"/>
    <tag k="name:pl" v="Bruksela"/>
    <tag k="name:pt" v="Bruxelas"/>
    <tag k="name:sk" v="Brusel"/>
    <tag k="name:sv" v="Bryssel"/>
    <tag k="name:tr" v="Brüksel"/>
    <tag k="place" v="city"/>
    <tag k="population" v="148000"/>
    <tag k="wikipedia" v="Brussels"/>
  </node>
  <node id="17401554" version="31" timestamp="2009-09-24T16:58:35Z" uid="22108" user="afonin" changeset="2607794" lat="50.8465415" lon="4.3518133">
    <tag k="capital" v="yes"/>
    <tag k="is_in" v="Belgium, Europe"/>
    <tag k="is_in:continent" v="Europe"/>
    <tag k="name" v="Bruxelles - Brussel"/>
    <tag k="name:cs" v="Brusel"/>
    <tag k="name:de" v="Brüssel"/>
    <tag k="name:el" v="Βρυξέλλες"/>
    <tag k="name:en" v="Brussels"/>
    <tag k="name:es" v="Bruselas"/>
    <tag k="name:fi" v="Bryssel"/>
    <tag k="name:fr" v="Bruxelles"/>
    <tag k="name:he" v="בריסל"/>
    <tag k="name:hr" v="Brisel"/>
    <tag k="name:is" v="Brussel"/>
    <tag k="name:it" v="Bruxelles"/>
    <tag k="name:la" v="Bruxellae"/>
    <tag k="name:lt" v="Briuselis"/>
    <tag k="name:lv" v="Brisele"/>
    <tag k="name:nl" v="Brussel"/>
    <tag k="name:pl" v="Bruksela"/>
    <tag k="name:pt" v="Bruxelas"/>
    <tag k="name:ru" v="Брюссель"/>
    <tag k="name:sk" v="Brusel"/>
    <tag k="name:sv" v="Bryssel"/>
    <tag k="name:tr" v="Brüksel"/>
    <tag k="place" v="city"/>
    <tag k="population" v="148000"/>
    <tag k="wikipedia" v="Brussels"/>
  </node>
  <node id="17401554" version="32" timestamp="2010-01-20T19:15:42Z" uid="209650" user="s-m" changeset="3669474" lat="50.8465416" lon="4.3518132">
    <tag k="capital" v="yes"/>
    <tag k="is_in" v="Belgium, Europe"/>
    <tag k="is_in:continent" v="Europe"/>
    <tag k="name" v="Bruxelles - Brüssel - Brussel"/>
    <tag k="name:cs" v="Brusel"/>
    <tag k="name:de" v="Brüssel"/>
    <tag k="name:el" v="Βρυξέλλες"/>
    <tag k="name:en" v="Brussels"/>
    <tag k="name:es" v="Bruselas"/>
    <tag k="name:fi" v="Bryssel"/>
    <tag k="name:fr" v="Bruxelles"/>
    <tag k="name:he" v="בריסל"/>
    <tag k="name:hr" v="Brisel"/>
    <tag k="name:is" v="Brussel"/>
    <tag k="name:it" v="Bruxelles"/>
    <tag k="name:la" v="Bruxellae"/>
    <tag k="name:lt" v="Briuselis"/>
    <tag k="name:lv" v="Brisele"/>
    <tag k="name:nl" v="Brussel"/>
    <tag k="name:pl" v="Bruksela"/>
    <tag k="name:pt" v="Bruxelas"/>
    <tag k="name:ru" v="Брюссель"/>
    <tag k="name:sk" v="Brusel"/>
    <tag k="name:sv" v="Bryssel"/>
    <tag k="name:tr" v="Brüksel"/>
    <tag k="place" v="city"/>
    <tag k="population" v="148000"/>
    <tag k="wikipedia" v="Brussels"/>
  </node>
  <node id="17401554" version="33" timestamp="2010-01-25T18:47:52Z" uid="6072" user="Eimai" changeset="3713302" lat="50.8465417" lon="4.3518131">
    <tag k="capital" v="yes"/>
    <tag k="is_in" v="Belgium, Europe"/>
    <tag k="is_in:continent" v="Europe"/>
    <tag k="name" v="Bruxelles - Brussel"/>
    <tag k="name:cs" v="Brusel"/>
    <tag k="name:de" v="Brüssel"/>
    <tag k="name:el" v="Βρυξέλλες"/>
    <tag k="name:en" v="Brussels"/>
    <tag k="name:es" v="Bruselas"/>
    <tag k="name:fi" v="Bryssel"/>
    <tag k="name:fr" v="Bruxelles"/>
    <tag k="name:he" v="בריסל"/>
    <tag k="name:hr" v="Brisel"/>
    <tag k="name:is" v="Brussel"/>
    <tag k="name:it" v="Bruxelles"/>
    <tag k="name:la" v="Bruxellae"/>
    <tag k="name:lt" v="Briuselis"/>
    <tag k="name:lv" v="Brisele"/>
    <tag k="name:nl" v="Brussel"/>
    <tag k="name:pl" v="Bruksela"/>
    <tag k="name:pt" v="Bruxelas"/>
    <tag k="name:ru" v="Брюссель"/>
    <tag k="name:sk" v="Brusel"/>
    <tag k="name:sv" v="Bryssel"/>
    <tag k="name:tr" v="Brüksel"/>
    <tag k="place" v="city"/>
    <tag k="population" v="148000"/>
    <tag k="wikipedia" v="Brussels"/>
  </node>
  <node id="17401554" version="34" timestamp="2010-03-08T13:17:44Z" uid="221997" user="EuskalMapa" changeset="4071719" lat="50.8465417" lon="4.3518131">
    <tag k="capital" v="yes"/>
    <tag k="is_in" v="Belgium, Europe"/>
    <tag k="is_in:continent" v="Europe"/>
    <tag k="name" v="Bruxelles - Brussel"/>
    <tag k="name:cs" v="Brusel"/>
    <tag k="name:de" v="Brüssel"/>
    <tag k="name:el" v="Βρυξέλλες"/>
    <tag k="name:en" v="Brussels"/>
    <tag k="name:es" v="Bruselas"/>
    <tag k="name:eu" v="Brusela"/>
    <tag k="name:fi" v="Bryssel"/>
    <tag k="name:fr" v="Bruxelles"/>
    <tag k="name:he" v="בריסל"/>
    <tag k="name:hr" v="Brisel"/>
    <tag k="name:is" v="Brussel"/>
    <tag k="name:it" v="Bruxelles"/>
    <tag k="name:la" v="Bruxellae"/>
    <tag k="name:lt" v="Briuselis"/>
    <tag k="name:lv" v="Brisele"/>
    <tag k="name:nl" v="Brussel"/>
    <tag k="name:pl" v="Bruksela"/>
    <tag k="name:pt" v="Bruxelas"/>
    <tag k="name:ru" v="Брюссель"/>
    <tag k="name:sk" v="Brusel"/>
    <tag k="name:sv" v="Bryssel"/>
    <tag k="name:tr" v="Brüksel"/>
    <tag k="place" v="city"/>
    <tag k="population" v="148000"/>
    <tag k="wikipedia" v="Brussels"/>
  </node>
  <node id="17401554" version="35" timestamp="2010-05-12T13:11:19Z" uid="118927" user="DSem" changeset="4677070" lat="50.8465417" lon="4.3518131">
    <tag k="capital" v="yes"/>
    <tag k="is_in" v="Belgium, Europe"/>
    <tag k="is_in:continent" v="Europe"/>
    <tag k="name" v="Bruxelles - Brussel"/>
    <tag k="name:cs" v="Brusel"/>
    <tag k="name:de" v="Brüssel"/>
    <tag k="name:el" v="Βρυξέλλες"/>
    <tag k="name:en" v="Brussels"/>
    <tag k="name:es" v="Bruselas"/>
    <tag k="name:eu" v="Brusela"/>
    <tag k="name:fi" v="Bryssel"/>
    <tag k="name:fr" v="Bruxelles"/>
    <tag k="name:he" v="בריסל"/>
    <tag k="name:hr" v="Brisel"/>
    <tag k="name:is" v="Brussel"/>
    <tag k="name:it" v="Bruxelles"/>
    <tag k="name:la" v="Bruxellae"/>
    <tag k="name:lt" v="Briuselis"/>
    <tag k="name:lv" v="Brisele"/>
    <tag k="name:nl" v="Brussel"/>
    <tag k="name:pl" v="Bruksela"/>
    <tag k="name:pt" v="Bruxelas"/>
    <tag k="name:ru" v="Брюссель"/>
    <tag k="name:sk" v="Brusel"/>
    <tag k="name:sv" v="Bryssel"/>
    <tag k="name:tr" v="Brüksel"/>
    <tag k="name:uk" v="Брюссель"/>
    <tag k="place" v="city"/>
    <tag k="population" v="148000"/>
    <tag k="wikipedia" v="Brussels"/>
  </node>
  <node id="17401554" version="36" timestamp="2010-07-14T15:12:46Z" uid="314684" user="krattbot" changeset="5217669" lat="50.8465417" lon="4.3518131">
    <tag k="capital" v="yes"/>
    <tag k="is_in" v="Belgium, Europe"/>
    <tag k="is_in:continent" v="Europe"/>
    <tag k="name" v="Bruxelles - Brussel"/>
    <tag k="name:cs" v="Brusel"/>
    <tag k="name:de" v="Brüssel"/>
    <tag k="name:el" v="Βρυξέλλες"/>
    <tag k="name:en" v="Brussels"/>
    <tag k="name:es" v="Bruselas"/>
    <tag k="name:et" v="Brüssel"/>
    <tag k="name:eu" v="Brusela"/>
    <tag k="name:fi" v="Bryssel"/>
    <tag k="name:fr" v="Bruxelles"/>
    <tag k="name:he" v="בריסל"/>
    <tag k="name:hr" v="Brisel"/>
    <tag k="name:is" v="Brussel"/>
    <tag k="name:it" v="Bruxelles"/>
    <tag k="name:la" v="Bruxellae"/>
    <tag k="name:lt" v="Briuselis"/>
    <tag k="name:lv" v="Brisele"/>
    <tag k="name:nl" v="Brussel"/>
    <tag k="name:pl" v="Bruksela"/>
    <tag k="name:pt" v="Bruxelas"/>
    <tag k="name:ru" v="Брюссель"/>
    <tag k="name:sk" v="Brusel"/>
    <tag k="name:sv" v="Bryssel"/>
    <tag k="name:tr" v="Brüksel"/>
    <tag k="name:uk" v="Брюссель"/>
    <tag k="place" v="city"/>
    <tag k="population" v="148000"/>
    <tag k="wikipedia" v="Brussels"/>
  </node>
  <node id="17401554" version="37" timestamp="2010-08-02T15:02:42Z" uid="327403" user="Cacastar" changeset="5381538" lat="50.8465417" lon="4.3518131">
    <tag k="capital" v="yes"/>
    <tag k="is_in" v="Belgium, Europe"/>
    <tag k="is_in:continent" v="Europe"/>
    <tag k="name" v="Bruxelles - Brussel"/>
    <tag k="name:cs" v="Brusel"/>
    <tag k="name:de" v="Brüssel"/>
    <tag k="name:el" v="Βρυξέλλες"/>
    <tag k="name:en" v="Brussels"/>
    <tag k="name:es" v="Bruselas"/>
    <tag k="name:et" v="Brüssel"/>
    <tag k="name:eu" v="Brusela"/>
    <tag k="name:fi" v="Bryssel"/>
    <tag k="name:fr" v="Bruxelles"/>
    <tag k="name:he" v="בריסל"/>
    <tag k="name:hr" v="Brisel"/>
    <tag k="name:is" v="Brussel"/>
    <tag k="name:it" v="Bruxelles"/>
    <tag k="name:la" v="Bruxellae"/>
    <tag k="name:lt" v="Briuselis"/>
    <tag k="name:lv" v="Brisele"/>
    <tag k="name:nl" v="Brussel"/>
    <tag k="name:pl" v="Bruksela"/>
    <tag k="name:pt" v="Bruxelas"/>
    <tag k="name:ru" v="Брюссель"/>
    <tag k="name:sk" v="Brusel"/>
    <tag k="name:sv" v="Bryssel"/>
    <tag k="name:tr" v="Brüksel"/>
    <tag k="name:uk" v="Брюссель"/>
    <tag k="place" v="city"/>
    <tag k="population" v="148000"/>
    <tag k="wikipedia" v="Brussels"/>
  </node>
  <node id="17401554" version="38" timestamp="2010-10-06T10:11:35Z" uid="355347" user="kcsaba" changeset="5967666" lat="50.8465417" lon="4.3518131">
    <tag k="capital" v="yes"/>
    <tag k="is_in" v="Belgium, Europe"/>
    <tag k="is_in:continent" v="Europe"/>
    <tag k="name" v="Bruxelles - Brussel"/>
    <tag k="name:cs" v="Brusel"/>
    <tag k="name:de" v="Brüssel"/>
    <tag k="name:el" v="Βρυξέλλες"/>
    <tag k="name:en" v="Brussels"/>
    <tag k="name:es" v="Bruselas"/>
    <tag k="name:et" v="Brüssel"/>
    <tag k="name:eu" v="Brusela"/>
    <tag k="name:fi" v="Bryssel"/>
    <tag k="name:fr" v="Bruxelles"/>
    <tag k="name:he" v="בריסל"/>
    <tag k="name:hr" v="Brisel"/>
    <tag k="name:hu" v="Brüsszel"/>
    <tag k="name:is" v="Brussel"/>
    <tag k="name:it" v="Bruxelles"/>
    <tag k="name:la" v="Bruxellae"/>
    <tag k="name:lt" v="Briuselis"/>
    <tag k="name:lv" v="Brisele"/>
    <tag k="name:nl" v="Brussel"/>
    <tag k="name:pl" v="Bruksela"/>
    <tag k="name:pt" v="Bruxelas"/>
    <tag k="name:ru" v="Брюссель"/>
    <tag k="name:sk" v="Brusel"/>
    <tag k="name:sv" v="Bryssel"/>
    <tag k="name:tr" v="Brüksel"/>
    <tag k="name:uk" v="Брюссель"/>
    <tag k="place" v="city"/>
    <tag k="population" v="148000"/>
    <tag k="wikipedia" v="Brussels"/>
  </node>
  <node id="17401554" version="39" timestamp="2010-12-03T08:51:33Z" uid="8323" user="Toi" changeset="6523562" lat="50.8465142" lon="4.351733">
    <tag k="capital" v="yes"/>
    <tag k="is_in" v="Belgium, Europe"/>
    <tag k="is_in:continent" v="Europe"/>
    <tag k="name" v="Bruxelles - Brussel"/>
    <tag k="name:cs" v="Brusel"/>
    <tag k="name:de" v="Brüssel"/>
    <tag k="name:el" v="Βρυξέλλες"/>
    <tag k="name:en" v="Brussels"/>
    <tag k="name:es" v="Bruselas"/>
    <tag k="name:et" v="Brüssel"/>
    <tag k="name:eu" v="Brusela"/>
    <tag k="name:fi" v="Bryssel"/>
    <tag k="name:fr" v="Bruxelles"/>
    <tag k="name:he" v="בריסל"/>
    <tag k="name:hr" v="Brisel"/>
    <tag k="name:hu" v="Brüsszel"/>
    <tag k="name:is" v="Brussel"/>
    <tag k="name:it" v="Bruxelles"/>
    <tag k="name:la" v="Bruxellae"/>
    <tag k="name:lt" v="Briuselis"/>
    <tag k="name:lv" v="Brisele"/>
    <tag k="name:nl" v="Brussel"/>
    <tag k="name:pl" v="Bruksela"/>
    <tag k="name:pt" v="Bruxelas"/>
    <tag k="name:ru" v="Брюссель"/>
    <tag k="name:sk" v="Brusel"/>
    <tag k="name:sv" v="Bryssel"/>
    <tag k="name:tr" v="Brüksel"/>
    <tag k="name:uk" v="Брюссель"/>
    <tag k="place" v="city"/>
    <tag k="population" v="148000"/>
    <tag k="wikipedia" v="Brussels"/>
  </node>
  <node id="17401554" version="40" timestamp="2011-02-02T10:38:00Z" uid="393666" user="etrumap" changeset="7163286" lat="50.8465142" lon="4.351733">
    <tag k="capital" v="yes"/>
    <tag k="is_in" v="Belgium, Europe"/>
    <tag k="is_in:continent" v="Europe"/>
    <tag k="name" v="Bruxelles - Brussel"/>
    <tag k="name:cs" v="Brusel"/>
    <tag k="name:de" v="Brüssel"/>
    <tag k="name:el" v="Βρυξέλλες"/>
    <tag k="name:en" v="Brussels"/>
    <tag k="name:es" v="Bruselas"/>
    <tag k="name:et" v="Brüssel"/>
    <tag k="name:eu" v="Brusela"/>
    <tag k="name:fi" v="Bryssel"/>
    <tag k="name:fr" v="Bruxelles"/>
    <tag k="name:he" v="בריסל"/>
    <tag k="name:hr" v="Brisel"/>
    <tag k="name:hu" v="Brüsszel"/>
    <tag k="name:is" v="Brussel"/>
    <tag k="name:it" v="Bruxelles"/>
    <tag k="name:la" v="Bruxellae"/>
    <tag k="name:lt" v="Briuselis"/>
    <tag k="name:lv" v="Brisele"/>
    <tag k="name:nl" v="Brussel"/>
    <tag k="name:pl" v="Bruksela"/>
    <tag k="name:pt" v="Bruxelas"/>
    <tag k="name:ru" v="Брюссель"/>
    <tag k="name:sk" v="Brusel"/>
    <tag k="name:sv" v="Bryssel"/>
    <tag k="name:tr" v="Brüksel"/>
    <tag k="name:uk" v="Брюссель"/>
    <tag k="place" v="city"/>
    <tag k="population" v="148000"/>
    <tag k="rank" v="0"/>
    <tag k="wikipedia" v="Brussels"/>
  </node>
  <node id="17401554" version="41" timestamp="2011-04-06T15:09:45Z" uid="7045" user="Xuacu" changeset="7785879" lat="50.8465142" lon="4.351733">
    <tag k="capital" v="yes"/>
    <tag k="is_in" v="Belgium, Europe"/>
    <tag k="is_in:continent" v="Europe"/>
    <tag k="name" v="Bruxelles - Brussel"/>
    <tag k="name:ast" v="Bruxeles"/>
    <tag k="name:cs" v="Brusel"/>
    <tag k="name:de" v="Brüssel"/>
    <tag k="name:el" v="Βρυξέλλες"/>
    <tag k="name:en" v="Brussels"/>
    <tag k="name:es" v="Bruselas"/>
    <tag k="name:et" v="Brüssel"/>
    <tag k="name:eu" v="Brusela"/>
    <tag k="name:fi" v="Bryssel"/>
    <tag k="name:fr" v="Bruxelles"/>
    <tag k="name:he" v="בריסל"/>
    <tag k="name:hr" v="Brisel"/>
    <tag k="name:hu" v="Brüsszel"/>
    <tag k="name:is" v="Brussel"/>
    <tag k="name:it" v="Bruxelles"/>
    <tag k="name:la" v="Bruxellae"/>
    <tag k="name:lt" v="Briuselis"/>
    <tag k="name:lv" v="Brisele"/>
    <tag k="name:nl" v="Brussel"/>
    <tag k="name:pl" v="Bruksela"/>
    <tag k="name:pt" v="Bruxelas"/>
    <tag k="name:ru" v="Брюссель"/>
    <tag k="name:sk" v="Brusel"/>
    <tag k="name:sv" v="Bryssel"/>
    <tag k="name:tr" v="Brüksel"/>
    <tag k="name:uk" v="Брюссель"/>
    <tag k="place" v="city"/>
    <tag k="population" v="148000"/>
    <tag k="rank" v="0"/>
    <tag k="wikipedia" v="Brussels"/>
  </node>
  <node id="17401554" version="42" timestamp="2011-07-18T16:03:22Z" uid="385466" user="RoRay" changeset="8759902" lat="50.8465142" lon="4.351733">
    <tag k="capital" v="yes"/>
    <tag k="is_in" v="Belgium, Europe"/>
    <tag k="is_in:continent" v="Europe"/>
    <tag k="name" v="Brussel - Bruxelles"/>
    <tag k="name:ast" v="Bruxeles"/>
    <tag k="name:cs" v="Brusel"/>
    <tag k="name:de" v="Brüssel"/>
    <tag k="name:el" v="Βρυξέλλες"/>
    <tag k="name:en" v="Brussels"/>
    <tag k="name:es" v="Bruselas"/>
    <tag k="name:et" v="Brüssel"/>
    <tag k="name:eu" v="Brusela"/>
    <tag k="name:fi" v="Bryssel"/>
    <tag k="name:fr" v="Bruxelles"/>
    <tag k="name:he" v="בריסל"/>
    <tag k="name:hr" v="Brisel"/>
    <tag k="name:hu" v="Brüsszel"/>
    <tag k="name:is" v="Brussel"/>
    <tag k="name:it" v="Bruxelles"/>
    <tag k="name:la" v="Bruxellae"/>
    <tag k="name:lt" v="Briuselis"/>
    <tag k="name:lv" v="Brisele"/>
    <tag k="name:nl" v="Brussel"/>
    <tag k="name:pl" v="Bruksela"/>
    <tag k="name:pt" v="Bruxelas"/>
    <tag k="name:ru" v="Брюссель"/>
    <tag k="name:sk" v="Brusel"/>
    <tag k="name:sv" v="Bryssel"/>
    <tag k="name:tr" v="Brüksel"/>
    <tag k="name:uk" v="Брюссель"/>
    <tag k="place" v="city"/>
    <tag k="population" v="148000"/>
    <tag k="rank" v="0"/>
    <tag k="wikipedia" v="Brussels"/>
  </node>
  <node id="17401554" version="43" timestamp="2011-08-03T15:13:21Z" uid="39966" user="free_as_a_bird" changeset="8910974" lat="50.8465142" lon="4.351733">
    <tag k="capital" v="yes"/>
    <tag k="is_in" v="Belgium, Europe"/>
    <tag k="is_in:continent" v="Europe"/>
    <tag k="name" v="Brussel - Bruxelles"/>
    <tag k="name:ast" v="Bruxeles"/>
    <tag k="name:cs" v="Brusel"/>
    <tag k="name:de" v="Brüssel"/>
    <tag k="name:el" v="Βρυξέλλες"/>
    <tag k="name:en" v="Brussels"/>
    <tag k="name:es" v="Bruselas"/>
    <tag k="name:et" v="Brüssel"/>
    <tag k="name:eu" v="Brusela"/>
    <tag k="name:fi" v="Bryssel"/>
    <tag k="name:fr" v="Bruxelles"/>
    <tag k="name:he" v="בריסל"/>
    <tag k="name:hr" v="Brisel"/>
    <tag k="name:hu" v="Brüsszel"/>
    <tag k="name:is" v="Brussel"/>
    <tag k="name:it" v="Bruxelles"/>
    <tag k="name:la" v="Bruxellae"/>
    <tag k="name:lt" v="Briuselis"/>
    <tag k="name:lv" v="Brisele"/>
    <tag k="name:nl" v="Brussel"/>
    <tag k="name:pl" v="Bruksela"/>
    <tag k="name:pt" v="Bruxelas"/>
    <tag k="name:ru" v="Брюссель"/>
    <tag k="name:sk" v="Brusel"/>
    <tag k="name:sv" v="Bryssel"/>
    <tag k="name:tr" v="Brüksel"/>
    <tag k="name:uk" v="Брюссель"/>
    <tag k="name:zh" v="布鲁塞尔"/>
    <tag k="place" v="city"/>
    <tag k="population" v="148000"/>
    <tag k="rank" v="0"/>
    <tag k="wikipedia" v="Brussels"/>
  </node>
  <node id="17401554" version="44" timestamp="2011-08-28T17:17:58Z" uid="101145" user="BenoitL" changeset="9149409" lat="50.8465142" lon="4.351733">
    <tag k="capital" v="yes"/>
    <tag k="is_in" v="Belgium, Europe"/>
    <tag k="is_in:continent" v="Europe"/>
    <tag k="name" v="Bruxelles - Brussel"/>
    <tag k="name:ast" v="Bruxeles"/>
    <tag k="name:cs" v="Brusel"/>
    <tag k="name:de" v="Brüssel"/>
    <tag k="name:el" v="Βρυξέλλες"/>
    <tag k="name:en" v="Brussels"/>
    <tag k="name:es" v="Bruselas"/>
    <tag k="name:et" v="Brüssel"/>
    <tag k="name:eu" v="Brusela"/>
    <tag k="name:fi" v="Bryssel"/>
    <tag k="name:fr" v="Bruxelles"/>
    <tag k="name:he" v="בריסל"/>
    <tag k="name:hr" v="Brisel"/>
    <tag k="name:hu" v="Brüsszel"/>
    <tag k="name:is" v="Brussel"/>
    <tag k="name:it" v="Bruxelles"/>
    <tag k="name:la" v="Bruxellae"/>
    <tag k="name:lt" v="Briuselis"/>
    <tag k="name:lv" v="Brisele"/>
    <tag k="name:nl" v="Brussel"/>
    <tag k="name:pl" v="Bruksela"/>
    <tag k="name:pt" v="Bruxelas"/>
    <tag k="name:ru" v="Брюссель"/>
    <tag k="name:sk" v="Brusel"/>
    <tag k="name:sv" v="Bryssel"/>
    <tag k="name:tr" v="Brüksel"/>
    <tag k="name:uk" v="Брюссель"/>
    <tag k="name:zh" v="布鲁塞尔"/>
    <tag k="place" v="city"/>
    <tag k="population" v="148000"/>
    <tag k="rank" v="0"/>
    <tag k="wikipedia" v="Brussels"/>
  </node>
  <node id="17401554" version="45" timestamp="2011-09-09T18:05:34Z" uid="212207" user="SunCobalt" changeset="9256456" lat="50.8465142" lon="4.351733">
    <tag k="capital" v="yes"/>
    <tag k="is_in" v="Belgium, Europe"/>
    <tag k="is_in:continent" v="Europe"/>
    <tag k="name" v="Bruxelles - Brussel"/>
    <tag k="name:ast" v="Bruxeles"/>
    <tag k="name:cs" v="Brusel"/>
    <tag k="name:de" v="Brüssel"/>
    <tag k="name:el" v="Βρυξέλλες"/>
    <tag k="name:en" v="Brussels"/>
    <tag k="name:es" v="Bruselas"/>
    <tag k="name:et" v="Brüssel"/>
    <tag k="name:eu" v="Brusela"/>
    <tag k="name:fi" v="Bryssel"/>
    <tag k="name:fr" v="Bruxelles"/>
    <tag k="name:he" v="בריסל"/>
    <tag k="name:hr" v="Brisel"/>
    <tag k="name:hu" v="Brüsszel"/>
    <tag k="name:is" v="Brussel"/>
    <tag k="name:it" v="Bruxelles"/>
    <tag k="name:la" v="Bruxellae"/>
    <tag k="name:lt" v="Briuselis"/>
    <tag k="name:lv" v="Brisele"/>
    <tag k="name:nl" v="Brussel"/>
    <tag k="name:pl" v="Bruksela"/>
    <tag k="name:pt" v="Bruxelas"/>
    <tag k="name:ru" v="Брюссель"/>
    <tag k="name:sk" v="Brusel"/>
    <tag k="name:sr" v="Брисел"/>
    <tag k="name:sv" v="Bryssel"/>
    <tag k="name:tr" v="Brüksel"/>
    <tag k="name:uk" v="Брюссель"/>
    <tag k="name:zh" v="布鲁塞尔"/>
    <tag k="place" v="city"/>
    <tag k="population" v="148000"/>
    <tag k="rank" v="0"/>
    <tag k="wikipedia" v="Brussels"/>
  </node>
  <node id="17401554" version="46" timestamp="2012-01-25T20:59:18Z" uid="23966" user="Thomas Petillon" changeset="10497536" lat="50.8465142" lon="4.351733">
    <tag k="capital" v="yes"/>
    <tag k="is_in" v="Belgium, Europe"/>
    <tag k="is_in:continent" v="Europe"/>
    <tag k="name" v="Bruxelles - Brussel"/>
    <tag k="name:ast" v="Bruxeles"/>
    <tag k="name:br" v="Brusel"/>
    <tag k="name:cs" v="Brusel"/>
    <tag k="name:de" v="Brüssel"/>
    <tag k="name:el" v="Βρυξέλλες"/>
    <tag k="name:en" v="Brussels"/>
    <tag k="name:es" v="Bruselas"/>
    <tag k="name:et" v="Brüssel"/>
    <tag k="name:eu" v="Brusela"/>
    <tag k="name:fi" v="Bryssel"/>
    <tag k="name:fr" v="Bruxelles"/>
    <tag k="name:he" v="בריסל"/>
    <tag k="name:hr" v="Brisel"/>
    <tag k="name:hu" v="Brüsszel"/>
    <tag k="name:is" v="Brussel"/>
    <tag k="name:it" v="Bruxelles"/>
    <tag k="name:la" v="Bruxellae"/>
    <tag k="name:lt" v="Briuselis"/>
    <tag k="name:lv" v="Brisele"/>
    <tag k="name:nl" v="Brussel"/>
    <tag k="name:pl" v="Bruksela"/>
    <tag k="name:pt" v="Bruxelas"/>
    <tag k="name:ru" v="Брюссель"/>
    <tag k="name:sk" v="Brusel"/>
    <tag k="name:sr" v="Брисел"/>
    <tag k="name:sv" v="Bryssel"/>
    <tag k="name:tr" v="Brüksel"/>
    <tag k="name:uk" v="Брюссель"/>
    <tag k="name:zh" v="布鲁塞尔"/>
    <tag k="place" v="city"/>
    <tag k="population" v="148000"/>
    <tag k="rank" v="0"/>
    <tag k="wikipedia" v="Brussels"/>
  </node>
  <node id="17401554" version="47" timestamp="2012-02-16T20:18:20Z" uid="6072" user="Eimai" changeset="10705375" lat="50.8465142" lon="4.351733"/>
  <node id="17401575" version="7" timestamp="2009-07-26T01:48:36Z" uid="123700" user="Mala" changeset="1939972" lat="51.2082895" lon="3.2260111">
    <tag k="is_in" v="West-Vlaanderen, Belgium, Europe"/>
    <tag k="is_in:continent" v="Europe"/>
    <tag k="name" v="Brugge"/>
    <tag k="name:cs" v="Bruggy"/>
    <tag k="name:es" v="Brujas"/>
    <tag k="name:fr" v="Bruges"/>
    <tag k="name:it" v="Bruges"/>
    <tag k="name:la" v="Brugae"/>
    <tag k="name:lt" v="Briugė"/>
    <tag k="name:lv" v="Brige"/>
    <tag k="name:pl" v="Brugia"/>
    <tag k="name:pt" v="Bruges"/>
    <tag k="name:sv" v="Brygge"/>
    <tag k="name:tr" v="Brüj"/>
    <tag k="openGeoDB:auto_update" v="population"/>
    <tag k="openGeoDB:is_in" v="Brugge,Brugge,Brugge,Brugge,West-Vlaanderen,West-Vlaanderen,Vlaanderen,Vlaanderen,Belgique,Belgique,Europe"/>
    <tag k="openGeoDB:is_in_loc_id" v="35379"/>
    <tag k="openGeoDB:layer" v="7"/>
    <tag k="openGeoDB:loc_id" v="32752"/>
    <tag k="openGeoDB:name" v="Brugge,Brugge"/>
    <tag k="openGeoDB:postal_codes" v="8000"/>
    <tag k="openGeoDB:sort_name" v="BRUGGE"/>
    <tag k="openGeoDB:type" v="100600000"/>
    <tag k="openGeoDB:version" v="0.2.6.11 / 2007-12-04 / http://fa-technik.adfc.de/code/opengeodb/dump/"/>
    <tag k="opengeodb:lat" v="51.2082895"/>
    <tag k="opengeodb:lon" v="3.2260111"/>
    <tag k="place" v="city"/>
    <tag k="wikipedia" v="Bruges"/>
  </node>
  <node id="17401575" version="8" timestamp="2009-11-17T16:41:06Z" uid="29717" user="eumiro" changeset="3142565" lat="51.2082895" lon="3.2260111">
    <tag k="is_in" v="West-Vlaanderen, Belgium, Europe"/>
    <tag k="is_in:continent" v="Europe"/>
    <tag k="name" v="Brugge"/>
    <tag k="name:cs" v="Bruggy"/>
    <tag k="name:es" v="Brujas"/>
    <tag k="name:fr" v="Bruges"/>
    <tag k="name:it" v="Bruges"/>
    <tag k="name:la" v="Brugae"/>
    <tag k="name:lt" v="Briugė"/>
    <tag k="name:lv" v="Brige"/>
    <tag k="name:pl" v="Brugia"/>
    <tag k="name:pt" v="Bruges"/>
    <tag k="name:sk" v="Bruggy"/>
    <tag k="name:sv" v="Brygge"/>
    <tag k="name:tr" v="Brüj"/>
    <tag k="openGeoDB:auto_update" v="population"/>
    <tag k="openGeoDB:is_in" v="Brugge,Brugge,Brugge,Brugge,West-Vlaanderen,West-Vlaanderen,Vlaanderen,Vlaanderen,Belgique,Belgique,Europe"/>
    <tag k="openGeoDB:is_in_loc_id" v="35379"/>
    <tag k="openGeoDB:layer" v="7"/>
    <tag k="openGeoDB:loc_id" v="32752"/>
    <tag k="openGeoDB:name" v="Brugge,Brugge"/>
    <tag k="openGeoDB:postal_codes" v="8000"/>
    <tag k="openGeoDB:sort_name" v="BRUGGE"/>
    <tag k="openGeoDB:type" v="100600000"/>
    <tag k="openGeoDB:version" v="0.2.6.11 / 2007-12-04 / http://fa-technik.adfc.de/code/opengeodb/dump/"/>
    <tag k="opengeodb:lat" v="51.2082895"/>
    <tag k="opengeodb:lon" v="3.2260111"/>
    <tag k="place" v="city"/>
    <tag k="wikipedia" v="Bruges"/>
  </node>
  <node id="17401575" version="9" timestamp="2009-11-27T14:56:07Z" uid="166445" user="GranD" changeset="3228650" lat="51.2082896" lon="3.226011">
    <tag k="is_in" v="West-Vlaanderen, Belgium, Europe"/>
    <tag k="is_in:continent" v="Europe"/>
    <tag k="name" v="Brugge"/>
    <tag k="name:cs" v="Bruggy"/>
    <tag k="name:es" v="Brujas"/>
    <tag k="name:fr" v="Bruges"/>
    <tag k="name:it" v="Bruges"/>
    <tag k="name:la" v="Brugae"/>
    <tag k="name:lt" v="Briugė"/>
    <tag k="name:lv" v="Brige"/>
    <tag k="name:pl" v="Brugia"/>
    <tag k="name:pt" v="Bruges"/>
    <tag k="name:ru" v="Брюгге"/>
    <tag k="name:sk" v="Bruggy"/>
    <tag k="name:sv" v="Brygge"/>
    <tag k="name:tr" v="Brüj"/>
    <tag k="openGeoDB:auto_update" v="population"/>
    <tag k="openGeoDB:is_in" v="Brugge,Brugge,Brugge,Brugge,West-Vlaanderen,West-Vlaanderen,Vlaanderen,Vlaanderen,Belgique,Belgique,Europe"/>
    <tag k="openGeoDB:is_in_loc_id" v="35379"/>
    <tag k="openGeoDB:layer" v="7"/>
    <tag k="openGeoDB:loc_id" v="32752"/>
    <tag k="openGeoDB:name" v="Brugge,Brugge"/>
    <tag k="openGeoDB:postal_codes" v="8000"/>
    <tag k="openGeoDB:sort_name" v="BRUGGE"/>
    <tag k="openGeoDB:type" v="100600000"/>
    <tag k="openGeoDB:version" v="0.2.6.11 / 2007-12-04 / http://fa-technik.adfc.de/code/opengeodb/dump/"/>
    <tag k="opengeodb:lat" v="51.2082895"/>
    <tag k="opengeodb:lon" v="3.2260111"/>
    <tag k="place" v="city"/>
    <tag k="wikipedia" v="Bruges"/>
  </node>
  <node id="17401575" version="10" timestamp="2010-04-02T15:58:45Z" uid="152074" user="beweta" changeset="4304965" lat="51.2082896" lon="3.226011">
    <tag k="is_in" v="West-Vlaanderen, Belgium, Europe"/>
    <tag k="is_in:continent" v="Europe"/>
    <tag k="name" v="Brugge"/>
    <tag k="name:cs" v="Bruggy"/>
    <tag k="name:de" v="Brügge"/>
    <tag k="name:es" v="Brujas"/>
    <tag k="name:fr" v="Bruges"/>
    <tag k="name:it" v="Bruges"/>
    <tag k="name:la" v="Brugae"/>
    <tag k="name:lt" v="Briugė"/>
    <tag k="name:lv" v="Brige"/>
    <tag k="name:pl" v="Brugia"/>
    <tag k="name:pt" v="Bruges"/>
    <tag k="name:ru" v="Брюгге"/>
    <tag k="name:sk" v="Bruggy"/>
    <tag k="name:sv" v="Brygge"/>
    <tag k="name:tr" v="Brüj"/>
    <tag k="openGeoDB:auto_update" v="population"/>
    <tag k="openGeoDB:is_in" v="Brugge,Brugge,Brugge,Brugge,West-Vlaanderen,West-Vlaanderen,Vlaanderen,Vlaanderen,Belgique,Belgique,Europe"/>
    <tag k="openGeoDB:is_in_loc_id" v="35379"/>
    <tag k="openGeoDB:layer" v="7"/>
    <tag k="openGeoDB:loc_id" v="32752"/>
    <tag k="openGeoDB:name" v="Brugge,Brugge"/>
    <tag k="openGeoDB:postal_codes" v="8000"/>
    <tag k="openGeoDB:sort_name" v="BRUGGE"/>
    <tag k="openGeoDB:type" v="100600000"/>
    <tag k="openGeoDB:version" v="0.2.6.11 / 2007-12-04 / http://fa-technik.adfc.de/code/opengeodb/dump/"/>
    <tag k="opengeodb:lat" v="51.2082895"/>
    <tag k="opengeodb:lon" v="3.2260111"/>
    <tag k="place" v="city"/>
    <tag k="wikipedia" v="Bruges"/>
  </node>
  <node id="17401575" version="11" timestamp="2010-04-04T14:57:39Z" uid="31118" user="Lulu-Ann" changeset="4323370" lat="51.2082896" lon="3.2260109">
    <tag k="game:patrizier2:getreide" v="1"/>
    <tag k="game:patrizier2:hanf" v="2"/>
    <tag k="game:patrizier2:honig" v="1"/>
    <tag k="game:patrizier2:keramik" v="2"/>
    <tag k="game:patrizier2:salz" v="2"/>
    <tag k="game:patrizier2:wolle" v="2"/>
    <tag k="game:patrizier2:ziegel" v="1"/>
    <tag k="is_in" v="West-Vlaanderen, Belgium, Europe"/>
    <tag k="is_in:continent" v="Europe"/>
    <tag k="name" v="Brugge"/>
    <tag k="name:cs" v="Bruggy"/>
    <tag k="name:de" v="Brügge"/>
    <tag k="name:es" v="Brujas"/>
    <tag k="name:fr" v="Bruges"/>
    <tag k="name:it" v="Bruges"/>
    <tag k="name:la" v="Brugae"/>
    <tag k="name:lt" v="Briugė"/>
    <tag k="name:lv" v="Brige"/>
    <tag k="name:pl" v="Brugia"/>
    <tag k="name:pt" v="Bruges"/>
    <tag k="name:ru" v="Брюгге"/>
    <tag k="name:sk" v="Bruggy"/>
    <tag k="name:sv" v="Brygge"/>
    <tag k="name:tr" v="Brüj"/>
    <tag k="openGeoDB:auto_update" v="population"/>
    <tag k="openGeoDB:is_in" v="Brugge,Brugge,Brugge,Brugge,West-Vlaanderen,West-Vlaanderen,Vlaanderen,Vlaanderen,Belgique,Belgique,Europe"/>
    <tag k="openGeoDB:is_in_loc_id" v="35379"/>
    <tag k="openGeoDB:layer" v="7"/>
    <tag k="openGeoDB:loc_id" v="32752"/>
    <tag k="openGeoDB:name" v="Brugge,Brugge"/>
    <tag k="openGeoDB:postal_codes" v="8000"/>
    <tag k="openGeoDB:sort_name" v="BRUGGE"/>
    <tag k="openGeoDB:type" v="100600000"/>
    <tag k="openGeoDB:version" v="0.2.6.11 / 2007-12-04 / http://fa-technik.adfc.de/code/opengeodb/dump/"/>
    <tag k="opengeodb:lat" v="51.2082895"/>
    <tag k="opengeodb:lon" v="3.2260111"/>
    <tag k="place" v="city"/>
    <tag k="wikipedia" v="Bruges"/>
  </node>
  <node id="17401575" version="12" timestamp="2010-05-09T07:30:19Z" uid="42033" user="Tbj" changeset="4645178" lat="51.2082896" lon="3.2260109">
    <tag k="game:patrizier2:getreide" v="1"/>
    <tag k="game:patrizier2:hanf" v="2"/>
    <tag k="game:patrizier2:honig" v="1"/>
    <tag k="game:patrizier2:keramik" v="2"/>
    <tag k="game:patrizier2:salz" v="2"/>
    <tag k="game:patrizier2:wolle" v="2"/>
    <tag k="game:patrizier2:ziegel" v="1"/>
    <tag k="is_in" v="West-Vlaanderen, Belgium, Europe"/>
    <tag k="is_in:continent" v="Europe"/>
    <tag k="name" v="Brugge"/>
    <tag k="name:cs" v="Bruggy"/>
    <tag k="name:de" v="Brügge"/>
    <tag k="name:es" v="Brujas"/>
    <tag k="name:fr" v="Bruges"/>
    <tag k="name:it" v="Bruges"/>
    <tag k="name:la" v="Brugae"/>
    <tag k="name:lt" v="Briugė"/>
    <tag k="name:lv" v="Brige"/>
    <tag k="name:nl" v="Brugge"/>
    <tag k="name:pl" v="Brugia"/>
    <tag k="name:pt" v="Bruges"/>
    <tag k="name:ru" v="Брюгге"/>
    <tag k="name:sk" v="Bruggy"/>
    <tag k="name:sv" v="Brygge"/>
    <tag k="name:tr" v="Brüj"/>
    <tag k="openGeoDB:auto_update" v="population"/>
    <tag k="openGeoDB:is_in" v="Brugge,Brugge,Brugge,Brugge,West-Vlaanderen,West-Vlaanderen,Vlaanderen,Vlaanderen,Belgique,Belgique,Europe"/>
    <tag k="openGeoDB:is_in_loc_id" v="35379"/>
    <tag k="openGeoDB:layer" v="7"/>
    <tag k="openGeoDB:loc_id" v="32752"/>
    <tag k="openGeoDB:name" v="Brugge,Brugge"/>
    <tag k="openGeoDB:postal_codes" v="8000"/>
    <tag k="openGeoDB:sort_name" v="BRUGGE"/>
    <tag k="openGeoDB:type" v="100600000"/>
    <tag k="openGeoDB:version" v="0.2.6.11 / 2007-12-04 / http://fa-technik.adfc.de/code/opengeodb/dump/"/>
    <tag k="opengeodb:lat" v="51.2082895"/>
    <tag k="opengeodb:lon" v="3.2260111"/>
    <tag k="place" v="city"/>
    <tag k="population" v="117000"/>
    <tag k="wikipedia" v="Bruges"/>
  </node>
  <node id="17401575" version="13" timestamp="2010-06-09T19:38:36Z" uid="115102" user="errt" changeset="4948426" lat="51.2082896" lon="3.2260109">
    <tag k="is_in" v="West-Vlaanderen, Belgium, Europe"/>
    <tag k="is_in:continent" v="Europe"/>
    <tag k="name" v="Brugge"/>
    <tag k="name:cs" v="Bruggy"/>
    <tag k="name:de" v="Brügge"/>
    <tag k="name:es" v="Brujas"/>
    <tag k="name:fr" v="Bruges"/>
    <tag k="name:it" v="Bruges"/>
    <tag k="name:la" v="Brugae"/>
    <tag k="name:lt" v="Briugė"/>
    <tag k="name:lv" v="Brige"/>
    <tag k="name:nl" v="Brugge"/>
    <tag k="name:pl" v="Brugia"/>
    <tag k="name:pt" v="Bruges"/>
    <tag k="name:ru" v="Брюгге"/>
    <tag k="name:sk" v="Bruggy"/>
    <tag k="name:sv" v="Brygge"/>
    <tag k="name:tr" v="Brüj"/>
    <tag k="openGeoDB:auto_update" v="population"/>
    <tag k="openGeoDB:is_in" v="Brugge,Brugge,Brugge,Brugge,West-Vlaanderen,West-Vlaanderen,Vlaanderen,Vlaanderen,Belgique,Belgique,Europe"/>
    <tag k="openGeoDB:is_in_loc_id" v="35379"/>
    <tag k="openGeoDB:layer" v="7"/>
    <tag k="openGeoDB:loc_id" v="32752"/>
    <tag k="openGeoDB:name" v="Brugge,Brugge"/>
    <tag k="openGeoDB:postal_codes" v="8000"/>
    <tag k="openGeoDB:sort_name" v="BRUGGE"/>
    <tag k="openGeoDB:type" v="100600000"/>
    <tag k="openGeoDB:version" v="0.2.6.11 / 2007-12-04 / http://fa-technik.adfc.de/code/opengeodb/dump/"/>
    <tag k="opengeodb:lat" v="51.2082895"/>
    <tag k="opengeodb:lon" v="3.2260111"/>
    <tag k="place" v="city"/>
    <tag k="population" v="117000"/>
    <tag k="wikipedia" v="Bruges"/>
  </node>
  <node id="17401575" version="14" timestamp="2011-06-12T15:48:07Z" uid="233248" user="zors1843" changeset="8416629" lat="51.2081316" lon="3.2269389">
    <tag k="is_in" v="West-Vlaanderen, Belgium, Europe"/>
    <tag k="is_in:continent" v="Europe"/>
    <tag k="name" v="Brugge"/>
    <tag k="name:cs" v="Bruggy"/>
    <tag k="name:de" v="Brügge"/>
    <tag k="name:es" v="Brujas"/>
    <tag k="name:fr" v="Bruges"/>
    <tag k="name:it" v="Bruges"/>
    <tag k="name:la" v="Brugae"/>
    <tag k="name:lt" v="Briugė"/>
    <tag k="name:lv" v="Brige"/>
    <tag k="name:nl" v="Brugge"/>
    <tag k="name:pl" v="Brugia"/>
    <tag k="name:pt" v="Bruges"/>
    <tag k="name:ru" v="Брюгге"/>
    <tag k="name:sk" v="Bruggy"/>
    <tag k="name:sv" v="Brygge"/>
    <tag k="name:tr" v="Brüj"/>
    <tag k="openGeoDB:auto_update" v="population"/>
    <tag k="openGeoDB:is_in" v="Brugge,Brugge,Brugge,Brugge,West-Vlaanderen,West-Vlaanderen,Vlaanderen,Vlaanderen,Belgique,Belgique,Europe"/>
    <tag k="openGeoDB:is_in_loc_id" v="35379"/>
    <tag k="openGeoDB:layer" v="7"/>
    <tag k="openGeoDB:loc_id" v="32752"/>
    <tag k="openGeoDB:name" v="Brugge,Brugge"/>
    <tag k="openGeoDB:postal_codes" v="8000"/>
    <tag k="openGeoDB:sort_name" v="BRUGGE"/>
    <tag k="openGeoDB:type" v="100600000"/>
    <tag k="openGeoDB:version" v="0.2.6.11 / 2007-12-04 / http://fa-technik.adfc.de/code/opengeodb/dump/"/>
    <tag k="opengeodb:lat" v="51.2082895"/>
    <tag k="opengeodb:lon" v="3.2260111"/>
    <tag k="place" v="city"/>
    <tag k="population" v="117000"/>
    <tag k="wikipedia" v="Bruges"/>
  </node>
  <node id="17401575" version="15" timestamp="2011-08-12T15:48:13Z" uid="121389" user="Rastatter" changeset="8997169" lat="51.2082547" lon="3.2261479">
    <tag k="is_in" v="West-Vlaanderen, Belgium, Europe"/>
    <tag k="is_in:continent" v="Europe"/>
    <tag k="name" v="Brugge"/>
    <tag k="name:cs" v="Bruggy"/>
    <tag k="name:de" v="Brügge"/>
    <tag k="name:es" v="Brujas"/>
    <tag k="name:fr" v="Bruges"/>
    <tag k="name:it" v="Bruges"/>
    <tag k="name:la" v="Brugae"/>
    <tag k="name:lt" v="Briugė"/>
    <tag k="name:lv" v="Brige"/>
    <tag k="name:nl" v="Brugge"/>
    <tag k="name:pl" v="Brugia"/>
    <tag k="name:pt" v="Bruges"/>
    <tag k="name:ru" v="Брюгге"/>
    <tag k="name:sk" v="Bruggy"/>
    <tag k="name:sv" v="Brygge"/>
    <tag k="name:tr" v="Brüj"/>
    <tag k="openGeoDB:auto_update" v="population"/>
    <tag k="openGeoDB:is_in" v="Brugge,Brugge,Brugge,Brugge,West-Vlaanderen,West-Vlaanderen,Vlaanderen,Vlaanderen,Belgique,Belgique,Europe"/>
    <tag k="openGeoDB:is_in_loc_id" v="35379"/>
    <tag k="openGeoDB:layer" v="7"/>
    <tag k="openGeoDB:loc_id" v="32752"/>
    <tag k="openGeoDB:name" v="Brugge,Brugge"/>
    <tag k="openGeoDB:postal_codes" v="8000"/>
    <tag k="openGeoDB:sort_name" v="BRUGGE"/>
    <tag k="openGeoDB:type" v="100600000"/>
    <tag k="openGeoDB:version" v="0.2.6.11 / 2007-12-04 / http://fa-technik.adfc.de/code/opengeodb/dump/"/>
    <tag k="opengeodb:lat" v="51.2082895"/>
    <tag k="opengeodb:lon" v="3.2260111"/>
    <tag k="place" v="city"/>
    <tag k="population" v="117000"/>
    <tag k="wikipedia" v="Bruges"/>
  </node>
  <node id="17401575" version="16" timestamp="2011-10-01T20:33:34Z" uid="212207" user="SunCobalt" changeset="9445807" lat="51.2082547" lon="3.2261479">
    <tag k="is_in" v="West-Vlaanderen, Belgium, Europe"/>
    <tag k="is_in:continent" v="Europe"/>
    <tag k="name" v="Brugge"/>
    <tag k="name:cs" v="Bruggy"/>
    <tag k="name:de" v="Brügge"/>
    <tag k="name:es" v="Brujas"/>
    <tag k="name:fr" v="Bruges"/>
    <tag k="name:it" v="Bruges"/>
    <tag k="name:la" v="Brugae"/>
    <tag k="name:lt" v="Briugė"/>
    <tag k="name:lv" v="Brige"/>
    <tag k="name:nl" v="Brugge"/>
    <tag k="name:pl" v="Brugia"/>
    <tag k="name:pt" v="Bruges"/>
    <tag k="name:ru" v="Брюгге"/>
    <tag k="name:sk" v="Bruggy"/>
    <tag k="name:sr" v="Бриж"/>
    <tag k="name:sv" v="Brygge"/>
    <tag k="name:tr" v="Brüj"/>
    <tag k="openGeoDB:auto_update" v="population"/>
    <tag k="openGeoDB:is_in" v="Brugge,Brugge,Brugge,Brugge,West-Vlaanderen,West-Vlaanderen,Vlaanderen,Vlaanderen,Belgique,Belgique,Europe"/>
    <tag k="openGeoDB:is_in_loc_id" v="35379"/>
    <tag k="openGeoDB:layer" v="7"/>
    <tag k="openGeoDB:loc_id" v="32752"/>
    <tag k="openGeoDB:name" v="Brugge,Brugge"/>
    <tag k="openGeoDB:postal_codes" v="8000"/>
    <tag k="openGeoDB:sort_name" v="BRUGGE"/>
    <tag k="openGeoDB:type" v="100600000"/>
    <tag k="openGeoDB:version" v="0.2.6.11 / 2007-12-04 / http://fa-technik.adfc.de/code/opengeodb/dump/"/>
    <tag k="opengeodb:lat" v="51.2082895"/>
    <tag k="opengeodb:lon" v="3.2260111"/>
    <tag k="place" v="city"/>
    <tag k="population" v="117000"/>
    <tag k="wikipedia" v="Bruges"/>
  </node>
  <node id="17401575" version="17" timestamp="2012-02-28T14:59:35Z" uid="6072" user="Eimai" changeset="10819438" lat="51.2082547" lon="3.2261479"/>
  <node id="17401813" version="12" timestamp="2008-12-14T02:17:14Z" uid="6975" user="ulfl" changeset="365670" lat="50.6389788" lon="3.0763163">
    <tag k="name" v="Gare Lille Europe"/>
    <tag k="railway" v="station"/>
  </node>
  <node id="17401813" version="13" timestamp="2009-05-19T18:27:30Z" uid="20793" user="Thomas Clavier" changeset="1252843" lat="50.6390187" lon="3.07565">
    <tag k="name" v="Gare Lille Europe"/>
    <tag k="railway" v="station"/>
  </node>
  <node id="17401813" version="14" timestamp="2009-12-18T09:02:47Z" uid="90394" user="petrovsk" changeset="3399012" lat="50.6390187" lon="3.07565">
    <tag k="name" v="Gare Lille Europe"/>
    <tag k="railway" v="station"/>
    <tag k="uic_ref" v="8722326"/>
  </node>
  <node id="17401813" version="15" timestamp="2010-03-11T11:23:09Z" uid="153037" user="Shnoulle" changeset="4096871" lat="50.6390187" lon="3.07565">
    <tag k="name" v="Gare Lille Europe"/>
    <tag k="railway" v="subway_entrance"/>
    <tag k="uic_ref" v="8722326"/>
  </node>
  <node id="17401813" version="16" timestamp="2010-08-28T11:37:16Z" uid="52672" user="corentt" changeset="5615275" lat="50.6390187" lon="3.07565">
    <tag k="name" v="Gare Lille Europe"/>
    <tag k="railway" v="station"/>
    <tag k="uic_ref" v="8722326"/>
  </node>
  <node id="17401936" version="2" timestamp="2008-02-16T19:31:00Z" uid="6975" user="ulfl" changeset="141861" lat="51.7505365" lon="-0.3302561">
    <tag k="name" v="Iceland"/>
    <tag k="shop" v="supermarket"/>
  </node>
  <node id="17401936" version="3" timestamp="2011-12-04T18:29:34Z" uid="1611" user="Harry Wood" changeset="10036142" lat="51.7505013" lon="-0.3302954">
    <tag k="name" v="Iceland"/>
    <tag k="shop" v="supermarket"/>
  </node>
  <node id="17402712" version="1" timestamp="2007-09-18T21:47:54Z" uid="8328" user="benpre" changeset="469653" lat="48.7892454" lon="8.0687617">
    <tag k="created_by" v="JOSM"/>
  </node>
  <node id="17406419" version="2" timestamp="2010-05-13T17:42:27Z" uid="49111" user="Markus B" changeset="4688772" lat="39.1849948" lon="23.5071201">
    <tag k="source" v="Landsat photo"/>
  </node>
  <node id="17406420" version="2" timestamp="2010-05-13T17:42:27Z" uid="49111" user="Markus B" changeset="4688772" lat="39.1702076" lon="23.5006178">
    <tag k="source" v="Landsat photo"/>
  </node>
  <node id="17408412" version="2" timestamp="2009-12-16T18:24:55Z" uid="9581" user="Lobelt" changeset="3388581" lat="49.5473847" lon="8.6576611"/>
  <node id="17408418" version="2" timestamp="2009-12-14T19:45:07Z" uid="9581" user="Lobelt" changeset="3374487" lat="49.5464862" lon="8.6577914"/>
  <node id="17408418" version="3" timestamp="2011-02-26T12:03:10Z" uid="406370" user="maptin" changeset="7399086" lat="49.5464755" lon="8.6578461"/>
  <node id="17408419" version="2" timestamp="2009-12-14T19:45:07Z" uid="9581" user="Lobelt" changeset="3374487" lat="49.5465652" lon="8.657401"/>
  <node id="17408420" version="2" timestamp="2009-12-14T19:45:05Z" uid="9581" user="Lobelt" changeset="3374487" lat="49.5466876" lon="8.6565942"/>
  <node id="17408421" version="3" timestamp="2009-12-14T19:45:05Z" uid="9581" user="Lobelt" changeset="3374487" lat="49.546744" lon="8.6557859"/>
  <node id="17408422" version="3" timestamp="2009-12-14T19:45:05Z" uid="9581" user="Lobelt" changeset="3374487" lat="49.5473383" lon="8.6556863"/>
  <node id="17408422" version="4" timestamp="2009-12-17T18:31:25Z" uid="9581" user="Lobelt" changeset="3395897" lat="49.5473114" lon="8.6556835"/>
  <node id="17408422" version="5" timestamp="2010-06-24T10:06:08Z" uid="195605" user="EM311" changeset="5064887" lat="49.5473114" lon="8.6556835"/>
  <node id="17408425" version="3" timestamp="2009-12-20T21:00:01Z" uid="9581" user="Lobelt" changeset="3416925" lat="49.542275" lon="8.648695"/>
  <node id="17408425" version="4" timestamp="2010-06-25T16:07:06Z" uid="195605" user="EM311" changeset="5074935" lat="49.542275" lon="8.6487848"/>
  <node id="17408425" version="5" timestamp="2011-12-29T16:19:54Z" uid="406370" user="maptin" changeset="10236888" lat="49.5422948" lon="8.6487904"/>
  <node id="17408426" version="3" timestamp="2009-12-20T21:00:02Z" uid="9581" user="Lobelt" changeset="3416925" lat="49.5428295" lon="8.6486711"/>
  <node id="17408426" version="4" timestamp="2010-06-25T16:07:07Z" uid="195605" user="EM311" changeset="5074935" lat="49.5428586" lon="8.6487908"/>
  <node id="17408431" version="3" timestamp="2009-12-18T21:11:47Z" uid="9581" user="Lobelt" changeset="3403439" lat="49.5457793" lon="8.6506334"/>
  <node id="17408431" version="4" timestamp="2010-06-25T16:07:08Z" uid="195605" user="EM311" changeset="5074935" lat="49.5457744" lon="8.6506858"/>
  <node id="17408431" version="5" timestamp="2011-11-19T14:11:09Z" uid="406370" user="maptin" changeset="9873417" lat="49.5457665" lon="8.650745"/>
  <node id="17408434" version="4" timestamp="2010-07-27T21:08:37Z" uid="9581" user="Lobelt" changeset="5333529" lat="49.5473133" lon="8.6533451"/>
  <node id="17408434" version="5" timestamp="2011-11-12T17:41:45Z" uid="406370" user="maptin" changeset="9806675" lat="49.5472803" lon="8.6532942"/>
  <node id="17408434" version="6" timestamp="2011-11-13T16:22:50Z" uid="406370" user="maptin" changeset="9815753" lat="49.5473048" lon="8.6533817">
    <tag k="highway" v="traffic_signals"/>
  </node>
  <node id="17408440" version="4" timestamp="2010-08-17T18:51:58Z" uid="9581" user="Lobelt" changeset="5520531" lat="49.5517668" lon="8.6571293"/>
  <node id="17408462" version="3" timestamp="2010-10-03T20:16:45Z" uid="9581" user="Lobelt" changeset="5948350" lat="49.5457178" lon="8.6672326"/>
  <node id="17408462" version="4" timestamp="2011-03-25T08:17:58Z" uid="297419" user="Dresl" changeset="7663219" lat="49.5457294" lon="8.6672433"/>
  <node id="17408463" version="5" timestamp="2010-10-03T20:16:39Z" uid="9581" user="Lobelt" changeset="5948350" lat="49.5449768" lon="8.6665756"/>
  <node id="17408464" version="3" timestamp="2010-10-03T20:16:44Z" uid="9581" user="Lobelt" changeset="5948350" lat="49.5443304" lon="8.6658179"/>
  <node id="17408465" version="3" timestamp="2010-10-03T20:16:38Z" uid="9581" user="Lobelt" changeset="5948350" lat="49.5441622" lon="8.6657011"/>
  <node id="17408465" version="4" timestamp="2011-01-03T10:48:27Z" uid="297419" user="Dresl" changeset="6848000" lat="49.5441692" lon="8.6657143"/>
  <node id="17408466" version="3" timestamp="2010-10-03T20:16:50Z" uid="9581" user="Lobelt" changeset="5948350" lat="49.5440481" lon="8.6656938"/>
  <node id="17408466" version="4" timestamp="2011-01-03T10:48:28Z" uid="297419" user="Dresl" changeset="6848000" lat="49.5439347" lon="8.6656543"/>
  <node id="17408467" version="18" timestamp="2010-10-03T20:16:45Z" uid="9581" user="Lobelt" changeset="5948350" lat="49.5426259" lon="8.6653295"/>
  <node id="17408467" version="19" timestamp="2011-01-03T10:48:28Z" uid="297419" user="Dresl" changeset="6848000" lat="49.5426407" lon="8.6653175"/>
  <node id="17408468" version="2" timestamp="2010-10-03T20:16:48Z" uid="9581" user="Lobelt" changeset="5948350" lat="49.5470491" lon="8.6685978"/>
  <node id="17408471" version="2" timestamp="2008-07-03T21:18:52Z" uid="4667" user="MapZ" changeset="390188" lat="49.5408529" lon="8.6623251">
    <tag k="created_by" v="JOSM"/>
  </node>
  <node id="17408471" version="3" timestamp="2008-12-26T15:56:02Z" uid="87358" user="jabl" changeset="610795" lat="49.5408529" lon="8.6623251"/>
  <node id="17408471" version="4" timestamp="2008-12-26T16:00:46Z" uid="87358" user="jabl" changeset="610795" lat="49.5408529" lon="8.6623251"/>
  <node id="17408471" version="5" timestamp="2008-12-26T16:01:30Z" uid="87358" user="jabl" changeset="610795" lat="49.5408529" lon="8.6623251"/>
  <node id="17408471" version="6" timestamp="2008-12-26T16:10:25Z" uid="87358" user="jabl" changeset="610795" lat="49.5408529" lon="8.6623251"/>
  <node id="17408471" version="7" timestamp="2008-12-26T16:12:09Z" uid="87358" user="jabl" changeset="610795" lat="49.5408529" lon="8.6623251"/>
  <node id="17408471" version="8" timestamp="2008-12-26T17:32:58Z" uid="87358" user="jabl" changeset="610795" lat="49.5408529" lon="8.6623251"/>
  <node id="17408471" version="9" timestamp="2008-12-26T17:35:47Z" uid="87358" user="jabl" changeset="610795" lat="49.5408529" lon="8.6623251"/>
  <node id="17408471" version="10" timestamp="2008-12-28T16:36:24Z" uid="87358" user="jabl" changeset="646949" lat="49.5408635" lon="8.6624156"/>
  <node id="17408471" version="11" timestamp="2008-12-28T16:39:47Z" uid="87358" user="jabl" changeset="646949" lat="49.5408635" lon="8.6624156"/>
  <node id="17408471" version="12" timestamp="2008-12-28T16:54:07Z" uid="87358" user="jabl" changeset="646949" lat="49.5408635" lon="8.6624156"/>
  <node id="17408471" version="13" timestamp="2008-12-28T16:57:02Z" uid="87358" user="jabl" changeset="646949" lat="49.5408635" lon="8.6624156"/>
  <node id="17408471" version="14" timestamp="2008-12-28T16:57:53Z" uid="87358" user="jabl" changeset="646949" lat="49.5408635" lon="8.6624156"/>
  <node id="17408471" version="15" timestamp="2008-12-28T16:58:00Z" uid="87358" user="jabl" changeset="646949" lat="49.5408635" lon="8.6624156"/>
  <node id="17408471" version="16" timestamp="2010-06-08T18:38:23Z" uid="297419" user="Dresl" changeset="4939434" lat="49.5408635" lon="8.6624156"/>
  <node id="17408472" version="2" timestamp="2008-07-03T21:18:51Z" uid="4667" user="MapZ" changeset="390188" lat="49.5406409" lon="8.6620841">
    <tag k="created_by" v="JOSM"/>
  </node>
  <node id="17408472" version="3" timestamp="2008-12-26T15:56:02Z" uid="87358" user="jabl" changeset="610795" lat="49.5406409" lon="8.6620841"/>
  <node id="17408472" version="4" timestamp="2008-12-26T16:00:46Z" uid="87358" user="jabl" changeset="610795" lat="49.5406409" lon="8.6620841"/>
  <node id="17408472" version="5" timestamp="2008-12-26T16:01:30Z" uid="87358" user="jabl" changeset="610795" lat="49.5406409" lon="8.6620841"/>
  <node id="17408472" version="6" timestamp="2008-12-26T16:10:25Z" uid="87358" user="jabl" changeset="610795" lat="49.5406409" lon="8.6620841"/>
  <node id="17408472" version="7" timestamp="2008-12-26T16:12:09Z" uid="87358" user="jabl" changeset="610795" lat="49.5406409" lon="8.6620841"/>
  <node id="17408472" version="8" timestamp="2008-12-26T17:32:58Z" uid="87358" user="jabl" changeset="610795" lat="49.5406409" lon="8.6620841"/>
  <node id="17408472" version="9" timestamp="2008-12-26T17:35:47Z" uid="87358" user="jabl" changeset="610795" lat="49.5406409" lon="8.6620841"/>
  <node id="17408472" version="10" timestamp="2008-12-28T16:36:25Z" uid="87358" user="jabl" changeset="646949" lat="49.5406352" lon="8.662141"/>
  <node id="17408472" version="11" timestamp="2008-12-28T16:39:47Z" uid="87358" user="jabl" changeset="646949" lat="49.5406352" lon="8.662141"/>
  <node id="17408472" version="12" timestamp="2011-01-03T10:48:28Z" uid="297419" user="Dresl" changeset="6848000" lat="49.5406461" lon="8.6620769"/>
  <node id="17408473" version="15" timestamp="2009-12-14T19:45:06Z" uid="9581" user="Lobelt" changeset="3374487" lat="49.5404085" lon="8.661835"/>
  <node id="17408473" version="16" timestamp="2011-01-03T10:48:28Z" uid="297419" user="Dresl" changeset="6848000" lat="49.5404268" lon="8.6618055"/>
  <node id="17408478" version="11" timestamp="2009-12-14T19:45:06Z" uid="9581" user="Lobelt" changeset="3374487" lat="49.53971" lon="8.660435"/>
  <node id="17408479" version="11" timestamp="2009-06-20T17:03:55Z" uid="9581" user="Lobelt" changeset="1576547" lat="49.5389021" lon="8.6598796"/>
  <node id="17408480" version="17" timestamp="2009-06-20T17:03:54Z" uid="9581" user="Lobelt" changeset="1576547" lat="49.538528" lon="8.6598241"/>
  <node id="17408480" version="18" timestamp="2009-12-14T19:45:05Z" uid="9581" user="Lobelt" changeset="3374487" lat="49.538505" lon="8.6598217"/>
  <node id="17408481" version="11" timestamp="2009-06-20T17:03:54Z" uid="9581" user="Lobelt" changeset="1576547" lat="49.5384118" lon="8.6598631"/>
  <node id="17408481" version="12" timestamp="2010-09-08T18:55:10Z" uid="9581" user="Lobelt" changeset="5726799" lat="49.5384118" lon="8.6598221"/>
  <node id="17408482" version="11" timestamp="2009-06-20T17:03:54Z" uid="9581" user="Lobelt" changeset="1576547" lat="49.538197" lon="8.6599349">
    <tag k="name" v="Weinheim"/>
    <tag k="traffic_sign" v="city_limit"/>
  </node>
  <node id="17408482" version="12" timestamp="2010-09-08T18:55:09Z" uid="9581" user="Lobelt" changeset="5726799" lat="49.538197" lon="8.6598803">
    <tag k="name" v="Weinheim"/>
    <tag k="traffic_sign" v="city_limit"/>
  </node>
  <node id="17408483" version="11" timestamp="2009-06-20T17:03:54Z" uid="9581" user="Lobelt" changeset="1576547" lat="49.5379554" lon="8.6600071"/>
  <node id="17408483" version="12" timestamp="2010-09-08T18:55:05Z" uid="9581" user="Lobelt" changeset="5726799" lat="49.5379554" lon="8.6599661"/>
  <node id="17408484" version="2" timestamp="2008-07-03T21:18:51Z" uid="4667" user="MapZ" changeset="390188" lat="49.5377457" lon="8.6597792">
    <tag k="created_by" v="JOSM"/>
  </node>
  <node id="17408484" version="3" timestamp="2008-12-26T15:56:02Z" uid="87358" user="jabl" changeset="610795" lat="49.5377457" lon="8.6597792"/>
  <node id="17408484" version="4" timestamp="2008-12-26T16:01:31Z" uid="87358" user="jabl" changeset="610795" lat="49.5377457" lon="8.6597792"/>
  <node id="17408484" version="5" timestamp="2008-12-26T16:10:26Z" uid="87358" user="jabl" changeset="610795" lat="49.5377457" lon="8.6597792"/>
  <node id="17408484" version="6" timestamp="2008-12-26T16:12:10Z" uid="87358" user="jabl" changeset="610795" lat="49.5377457" lon="8.6597792"/>
  <node id="17408484" version="7" timestamp="2008-12-26T17:32:58Z" uid="87358" user="jabl" changeset="610795" lat="49.5377457" lon="8.6597792"/>
  <node id="17408484" version="8" timestamp="2008-12-26T17:35:47Z" uid="87358" user="jabl" changeset="610795" lat="49.5377457" lon="8.6597792"/>
  <node id="17408484" version="9" timestamp="2008-12-28T16:36:25Z" uid="87358" user="jabl" changeset="646949" lat="49.5377457" lon="8.6597792"/>
  <node id="17408484" version="10" timestamp="2008-12-28T16:39:48Z" uid="87358" user="jabl" changeset="646949" lat="49.5377457" lon="8.6597792"/>
  <node id="17408484" version="11" timestamp="2010-10-03T20:16:43Z" uid="9581" user="Lobelt" changeset="5948350" lat="49.5377537" lon="8.6598242"/>
  <node id="17401813" version="17" timestamp="2012-07-17T04:05:40Z" uid="722137" user="OSMF Redaction Account" changeset="12256565" lat="50.6390187" lon="3.07565">
    <tag k="name" v="Lile (Europe)"/>
    <tag k="railway" v="station"/>
    <tag k="uic_ref" v="8722326"/>
  </node>
  <node id="17401813" version="18" timestamp="2012-08-04T08:29:18Z" uid="54947" user="BadWolf" changeset="12606509" lat="50.6390187" lon="3.07565">
    <tag k="name" v="Lille Europe"/>
    <tag k="railway" v="station"/>
    <tag k="uic_ref" v="8722326"/>
  </node>
  <node id="17408412" version="3" timestamp="2012-07-17T02:18:27Z" uid="722137" user="OSMF Redaction Account" changeset="12255290" lat="49.5474997" lon="8.6573887"/>
  <node id="17408412" version="4" timestamp="2012-08-03T20:20:57Z" uid="604523" user="673a" changeset="12602685" lat="49.5474997" lon="8.6573887"/>
  <node id="17408419" version="3" timestamp="2012-07-17T02:18:25Z" uid="722137" user="OSMF Redaction Account" changeset="12255290" lat="49.5464843" lon="8.6573964"/>
  <node id="17408419" version="4" timestamp="2012-08-03T20:22:02Z" uid="604523" user="673a" changeset="12602685" lat="49.5464843" lon="8.6573964"/>
  <node id="17408420" version="3" timestamp="2012-07-17T02:18:25Z" uid="722137" user="OSMF Redaction Account" changeset="12255290" lat="49.5466577" lon="8.6563588"/>
  <node id="17408420" version="4" timestamp="2012-08-03T20:20:55Z" uid="604523" user="673a" changeset="12602685" lat="49.5467065" lon="8.656702"/>
  <node id="17408421" version="4" timestamp="2012-07-17T02:18:25Z" uid="722137" user="OSMF Redaction Account" changeset="12255290" lat="49.5466721" lon="8.6557397"/>
  <node id="17408421" version="5" timestamp="2012-08-03T20:20:55Z" uid="604523" user="673a" changeset="12602685" lat="49.5467483" lon="8.6557342"/>
  <node id="17408440" version="5" timestamp="2012-07-17T02:18:39Z" uid="722137" user="OSMF Redaction Account" changeset="12255290" lat="49.5517428" lon="8.6571293"/>
  <node id="17408462" version="5" timestamp="2012-04-26T11:18:20Z" uid="42918" user="sco" changeset="11423024" lat="49.5457294" lon="8.6672433"/>
  <node id="17408463" version="6" timestamp="2012-07-17T02:18:20Z" uid="722137" user="OSMF Redaction Account" changeset="12255290" lat="49.5450049" lon="8.6665602"/>
  <node id="17408464" version="4" timestamp="2012-04-26T11:18:21Z" uid="42918" user="sco" changeset="11423024" lat="49.5443304" lon="8.6658179"/>
  <node id="17408465" version="5" timestamp="2012-04-26T11:18:21Z" uid="42918" user="sco" changeset="11423024" lat="49.5441692" lon="8.6657143"/>
  <node id="17408466" version="5" timestamp="2012-04-26T11:18:21Z" uid="42918" user="sco" changeset="11423024" lat="49.5439347" lon="8.6656543"/>
  <node id="17408468" version="3" timestamp="2012-07-17T02:18:26Z" uid="722137" user="OSMF Redaction Account" changeset="12255290" lat="49.5470204" lon="8.6685442"/>
  <node id="17408468" version="4" timestamp="2012-08-01T13:54:06Z" uid="604523" user="673a" changeset="12574214" lat="49.5470516" lon="8.6685984"/>
  <node id="17408478" version="12" timestamp="2012-07-17T02:18:09Z" uid="722137" user="OSMF Redaction Account" changeset="12255286" lat="49.539722" lon="8.6604165"/>
  <node id="17408479" version="12" timestamp="2012-04-30T02:25:34Z" uid="328555" user="peb12345" changeset="11455876" lat="49.5389021" lon="8.6598796"/>
  <node id="17408480" version="19" timestamp="2012-07-17T02:18:08Z" uid="722137" user="OSMF Redaction Account" changeset="12255286" lat="49.5385694" lon="8.659714"/>
  <node id="17408481" version="13" timestamp="2012-04-30T02:25:34Z" uid="328555" user="peb12345" changeset="11455876" lat="49.5384118" lon="8.6598221"/>
  <node id="17408482" version="13" timestamp="2012-07-17T02:18:07Z" uid="722137" user="OSMF Redaction Account" changeset="12255286" lat="49.5379112" lon="8.6598596"/>
  <node id="17408483" version="13" timestamp="2012-04-24T13:50:43Z" uid="42918" user="sco" changeset="11405470" lat="49.5379554" lon="8.6599661"/>
  <node id="17408484" version="12" timestamp="2012-04-24T13:50:43Z" uid="42918" user="sco" changeset="11405470" lat="49.5377537" lon="8.6598242"/>
</osm>
