<?xml version='1.0' encoding='UTF-8'?>
<osm version="0.6" generator="libosmium/2.20.0">
  <node id="174581652" version="2" timestamp="2008-07-06T09:01:14Z" uid="6975" user="ulfl" changeset="407266" lat="43.2922502" lon="-6.3931155">
    <tag k="name" v="Central Térmica de Soto de la Barca"/>
    <tag k="power" v="generator"/>
    <tag k="power_source" v="fossil"/>
  </node>
  <node id="174581652" version="3" timestamp="2011-06-03T23:09:26Z" uid="297482" user="don-vip" changeset="8335007" lat="43.2922502" lon="-6.3931155">
    <tag k="generator:source" v="fossil"/>
    <tag k="name" v="Central Térmica de Soto de la Barca"/>
    <tag k="power" v="generator"/>
  </node>
  <node id="174581652" version="4" timestamp="2012-01-17T21:02:10Z" uid="72235" user="Basstoelpel" changeset="10422121" lat="43.2922502" lon="-6.3931155">
    <tag k="generator:source" v="coal"/>
    <tag k="name" v="Central Térmica de Soto de la Barca"/>
    <tag k="power" v="generator"/>
  </node>
  <node id="174581652" version="5" timestamp="2012-04-28T15:29:07Z" uid="229489" user="jasonez" changeset="11441932" lat="43.2922502" lon="-6.3941893">
    <tag k="generator:source" v="coal"/>
    <tag k="name" v="Central Térmica de Soto de la Barca"/>
    <tag k="power" v="generator"/>
  </node>
  <node id="174581652" version="6" timestamp="2012-07-15T18:28:35Z" uid="722137" user="OSMF Redaction Account" changeset="12233810" lat="43.2922502" lon="-6.3941893">
    <tag k="generator:source" v="coal"/>
    <tag k="power" v="generator"/>
  </node>
  <node id="174581652" version="7" timestamp="2012-09-06T05:10:34Z" uid="7045" user="Xuacu" changeset="13005161" lat="43.2922502" lon="-6.3941893">
    <tag k="generator:method" v="combustion"/>
    <tag k="generator:output:electricity" v="586 MW"/>
    <tag k="generator:source" v="coal"/>
    <tag k="name" v="Central térmica del Narcea"/>
    <tag k="power" v="generator"/>
  </node>
</osm>
