<?xml version='1.0' encoding='UTF-8'?>
<osm version="0.6" generator="libosmium/2.20.0">
  <node id="175615532" version="4" timestamp="2009-08-02T21:55:20Z" uid="20587" user="balrog-kun" changeset="2020184" lat="52.4043934" lon="16.9368766">
    <tag k="layer" v="2"/>
    <tag k="name" v="Pl. Bernardyński"/>
    <tag k="railway" v="tram_stop"/>
  </node>
  <node id="175615532" version="5" timestamp="2010-05-06T21:20:41Z" uid="88909" user="miko101" changeset="4625681" lat="52.4043934" lon="16.9368766">
    <tag k="layer" v="2"/>
    <tag k="name" v="Pl. Bernardyński"/>
    <tag k="railway" v="tram_stop"/>
  </node>
  <node id="175615532" version="6" timestamp="2011-09-08T18:08:10Z" uid="91056" user="Yarl" changeset="9247651" lat="52.4043663" lon="16.9368766">
    <tag k="layer" v="2"/>
    <tag k="name" v="Plac Bernardyński"/>
    <tag k="railway" v="tram_stop"/>
  </node>
  <node id="175615532" version="7" timestamp="2011-12-15T00:20:35Z" uid="88909" user="miko101" changeset="10120485" lat="52.4043663" lon="16.9368766"/>
  <node id="175617745" version="12" timestamp="2010-03-14T20:18:38Z" uid="163746" user="anti_bot-nonsense" changeset="4128666" lat="52.3702427" lon="16.9004826">
    <tag k="highway" v="traffic_signals"/>
  </node>
</osm>
