<?xml version='1.0' encoding='UTF-8'?>
<osm version="0.6" generator="libosmium/2.20.0">
  <node id="175923770" version="2" timestamp="2008-07-03T01:19:07Z" uid="6975" user="ulfl" changeset="377243" lat="44.2344102" lon="-76.495203">
    <tag k="name" v="Kingston Computer Planet"/>
    <tag k="shop" v="computer"/>
  </node>
  <node id="175923770" version="3" timestamp="2010-06-24T20:21:28Z" uid="1679" user="andrewpmk" changeset="5069141" lat="44.2344775" lon="-76.4951436">
    <tag k="addr:city" v="Kingston"/>
    <tag k="addr:country" v="CA"/>
    <tag k="addr:housenumber" v="477"/>
    <tag k="addr:state" v="ON"/>
    <tag k="addr:street" v="Princess Street"/>
    <tag k="name" v="Kingston Computer Planet"/>
    <tag k="phone" v="613-544-2798"/>
    <tag k="shop" v="computer"/>
    <tag k="website" v="www.kingstoncomputerplanet.com/"/>
  </node>
  <node id="175923781" version="2" timestamp="2008-07-03T01:19:08Z" uid="6975" user="ulfl" changeset="377243" lat="44.2324993" lon="-76.4888851">
    <tag k="name" v="Canada Computers"/>
    <tag k="shop" v="computer"/>
  </node>
  <node id="175923781" version="3" timestamp="2009-01-05T04:38:34Z" uid="1679" user="andrewpmk" changeset="736706" lat="44.2324332" lon="-76.4888436">
    <tag k="name" v="Canada Computers"/>
    <tag k="shop" v="computer"/>
  </node>
  <node id="175923781" version="4" timestamp="2009-08-30T11:56:15Z" uid="1679" user="andrewpmk" changeset="2312479" lat="44.2324332" lon="-76.4888436">
    <tag k="addr:housenumber" v="298"/>
    <tag k="addr:street" v="Princess Street"/>
    <tag k="name" v="Canada Computers"/>
    <tag k="shop" v="computer"/>
  </node>
  <node id="175923781" version="5" timestamp="2010-06-29T23:35:47Z" uid="1679" user="andrewpmk" changeset="5110154" lat="44.2324332" lon="-76.4888436">
    <tag k="addr:city" v="Kingston"/>
    <tag k="addr:country" v="CA"/>
    <tag k="addr:housenumber" v="298"/>
    <tag k="addr:state" v="ON"/>
    <tag k="addr:street" v="Princess Street"/>
    <tag k="name" v="Canada Computers"/>
    <tag k="shop" v="computer"/>
  </node>
  <node id="175923781" version="6" timestamp="2010-06-30T02:14:29Z" uid="1679" user="andrewpmk" changeset="5110438" lat="44.2324332" lon="-76.4888436">
    <tag k="addr:city" v="Kingston"/>
    <tag k="addr:country" v="CA"/>
    <tag k="addr:housenumber" v="298"/>
    <tag k="addr:state" v="ON"/>
    <tag k="addr:street" v="Princess Street"/>
    <tag k="name" v="Canada Computers"/>
    <tag k="note" v="For lease, will close soon (as of June 2010)"/>
    <tag k="shop" v="computer"/>
  </node>
  <node id="175923781" version="7" timestamp="2011-02-22T21:43:30Z" uid="1679" user="andrewpmk" changeset="7367564" lat="44.2324332" lon="-76.4888436">
    <tag k="addr:city" v="Kingston"/>
    <tag k="addr:country" v="CA"/>
    <tag k="addr:housenumber" v="298"/>
    <tag k="addr:state" v="ON"/>
    <tag k="addr:street" v="Princess Street"/>
    <tag k="name" v="Canada Computers"/>
    <tag k="note" v="Vacant"/>
    <tag k="shop" v="computer"/>
  </node>
  <node id="175923781" version="8" timestamp="2012-01-01T01:03:46Z" uid="1679" user="andrewpmk" changeset="10258782" lat="44.2324332" lon="-76.4888436"/>
</osm>
