<?xml version='1.0' encoding='UTF-8'?>
<osm version="0.6" generator="libosmium/2.20.0">
  <node id="178880038" version="4" timestamp="2010-06-12T09:19:06Z" uid="43863" user="Rundling" changeset="4968656" lat="53.2023104" lon="10.4504274"/>
  <node id="178880038" version="5" timestamp="2011-07-13T21:13:31Z" uid="237334" user="Skow" changeset="8716971" lat="53.2015278" lon="10.4509568"/>
  <node id="178887099" version="2" timestamp="2008-05-07T17:24:06Z" uid="3451" user="sascha_silbe" changeset="357199" lat="48.5147579" lon="9.0699917">
    <tag k="amenity" v="fast_food"/>
    <tag k="created_by" v="JOSM"/>
    <tag k="cuisine" v="sandwich"/>
    <tag k="name" v="Subway"/>
    <tag k="source" v="knowledge"/>
  </node>
  <node id="178887099" version="3" timestamp="2009-06-01T13:58:00Z" uid="85761" user="klausis" changeset="1379895" lat="48.5147579" lon="9.0699917">
    <tag k="amenity" v="fast_food"/>
    <tag k="cuisine" v="sandwich"/>
    <tag k="name" v="Subway"/>
    <tag k="source" v="knowledge"/>
  </node>
  <node id="178887099" version="4" timestamp="2010-04-12T18:13:18Z" uid="125684" user="tesche" changeset="4406990" lat="48.5147579" lon="9.0699917">
    <tag k="amenity" v="fast_food"/>
    <tag k="cuisine" v="sandwich"/>
    <tag k="name" v="Subway"/>
    <tag k="source" v="knowledge"/>
  </node>
  <node id="178887103" version="4" timestamp="2008-07-03T17:49:47Z" uid="6975" user="ulfl" changeset="379368" lat="48.5151658" lon="9.0689285">
    <tag k="name" v="Hair Express"/>
    <tag k="shop" v="hairdresser"/>
    <tag k="source" v="knowledge"/>
  </node>
  <node id="178887103" version="5" timestamp="2011-07-05T10:16:20Z" uid="290680" user="wheelmap_visitor" changeset="8636072" lat="48.5151658" lon="9.0689285">
    <tag k="name" v="Hair Express"/>
    <tag k="shop" v="hairdresser"/>
    <tag k="source" v="knowledge"/>
    <tag k="wheelchair" v="limited"/>
  </node>
  <node id="178887105" version="2" timestamp="2008-08-21T22:15:32Z" uid="3451" user="sascha_silbe" changeset="365032" lat="48.5152307" lon="9.0695161">
    <tag k="addr:housenumber" v="28"/>
    <tag k="addr:street" v="Eisenbahnstraße"/>
    <tag k="created_by" v="JOSM"/>
    <tag k="name" v="Plus"/>
    <tag k="shop" v="supermarket"/>
    <tag k="source" v="knowledge"/>
    <tag k="source:addr" v="survey"/>
  </node>
  <node id="178887105" version="3" timestamp="2008-08-21T23:54:14Z" uid="3451" user="sascha_silbe" changeset="365032" lat="48.5152307" lon="9.0695161">
    <tag k="addr:housenumber" v="28"/>
    <tag k="addr:street" v="Eisenbahnstraße"/>
    <tag k="created_by" v="JOSM"/>
    <tag k="name" v="Plus"/>
    <tag k="shop" v="supermarket"/>
    <tag k="source" v="knowledge"/>
    <tag k="source:addr" v="Kassenbon"/>
  </node>
  <node id="178887105" version="4" timestamp="2009-06-01T13:58:00Z" uid="85761" user="klausis" changeset="1379895" lat="48.5152307" lon="9.0695161">
    <tag k="addr:housenumber" v="28"/>
    <tag k="addr:street" v="Eisenbahnstraße"/>
    <tag k="name" v="Plus"/>
    <tag k="shop" v="supermarket"/>
    <tag k="source" v="knowledge"/>
    <tag k="source:addr" v="Kassenbon"/>
  </node>
  <node id="178887105" version="5" timestamp="2010-06-15T17:10:46Z" uid="293774" user="Oli-Wan" changeset="4993223" lat="48.5152307" lon="9.0695161">
    <tag k="FIXME" v="Plus wurde zum 1.1.2009 durch Netto übernommen. Die bisherigen Plus-Filialen werden entweder in Netto umbenannt oder (wenige) an andere Handelsketten verkauft. Bitte überprüfen, unter welchem Namen diese Filiale jetzt läuft."/>
    <tag k="addr:housenumber" v="28"/>
    <tag k="addr:street" v="Eisenbahnstraße"/>
    <tag k="name" v="Plus"/>
    <tag k="shop" v="supermarket"/>
    <tag k="source" v="knowledge"/>
    <tag k="source:addr" v="Kassenbon"/>
  </node>
  <node id="178887105" version="6" timestamp="2010-06-26T17:27:53Z" uid="263359" user="Velosoph" changeset="5082708" lat="48.5152307" lon="9.069516">
    <tag k="addr:housenumber" v="28"/>
    <tag k="addr:street" v="Eisenbahnstraße"/>
    <tag k="name" v="Netto"/>
    <tag k="shop" v="supermarket"/>
    <tag k="source" v="knowledge"/>
    <tag k="source:addr" v="Kassenbon"/>
  </node>
  <node id="178887105" version="7" timestamp="2011-07-05T10:16:19Z" uid="290680" user="wheelmap_visitor" changeset="8636072" lat="48.5152307" lon="9.069516">
    <tag k="addr:housenumber" v="28"/>
    <tag k="addr:street" v="Eisenbahnstraße"/>
    <tag k="name" v="Netto"/>
    <tag k="shop" v="supermarket"/>
    <tag k="source" v="knowledge"/>
    <tag k="source:addr" v="Kassenbon"/>
    <tag k="wheelchair" v="yes"/>
  </node>
  <node id="178887105" version="8" timestamp="2012-01-04T14:22:32Z" uid="5359" user="user_5359" changeset="10291347" lat="48.5152307" lon="9.069516">
    <tag k="addr:city" v="Tübingen"/>
    <tag k="addr:country" v="DE"/>
    <tag k="addr:housenumber" v="28"/>
    <tag k="addr:postcode" v="72072"/>
    <tag k="addr:street" v="Eisenbahnstraße"/>
    <tag k="name" v="Netto"/>
    <tag k="shop" v="supermarket"/>
    <tag k="source" v="knowledge"/>
    <tag k="source:addr" v="Kassenbon"/>
    <tag k="wheelchair" v="yes"/>
  </node>
  <node id="178887105" version="9" timestamp="2012-03-30T23:04:50Z" uid="90689" user="HansJ" changeset="11161013" lat="48.5152307" lon="9.069516"/>
</osm>
