<?xml version='1.0' encoding='UTF-8'?>
<osm version="0.6" generator="libosmium/2.20.0">
  <node id="183562821" version="2" timestamp="2008-07-03T18:22:56Z" uid="6975" user="ulfl" changeset="379368" lat="48.5025463" lon="8.9635392">
    <tag k="amenity" v="bank"/>
    <tag k="atm" v="yes"/>
  </node>
  <node id="183562821" version="3" timestamp="2009-04-15T20:21:58Z" uid="40234" user="Bernd Rosenau" changeset="563222" lat="48.5025463" lon="8.9635392">
    <tag k="amenity" v="bank"/>
    <tag k="atm" v="yes"/>
    <tag k="name" v="KSK Tübingen"/>
  </node>
  <node id="183562821" version="4" timestamp="2010-06-23T20:51:14Z" uid="263359" user="Velosoph" changeset="5061934" lat="48.5025463" lon="8.9635393">
    <tag k="amenity" v="bank"/>
    <tag k="atm" v="yes"/>
    <tag k="name" v="Kreissparkasse Tübingen"/>
  </node>
  <node id="183562828" version="2" timestamp="2008-07-03T18:22:57Z" uid="6975" user="ulfl" changeset="379368" lat="48.5024784" lon="8.9639561">
    <tag k="amenity" v="bank"/>
    <tag k="atm" v="yes"/>
  </node>
  <node id="183562828" version="3" timestamp="2009-04-15T20:22:00Z" uid="40234" user="Bernd Rosenau" changeset="563222" lat="48.5024784" lon="8.9639561">
    <tag k="amenity" v="bank"/>
    <tag k="atm" v="yes"/>
    <tag k="name" v="Volksbank"/>
  </node>
  <node id="183562828" version="4" timestamp="2010-06-23T20:51:14Z" uid="263359" user="Velosoph" changeset="5061934" lat="48.5024784" lon="8.9639561">
    <tag k="amenity" v="bank"/>
    <tag k="atm" v="yes"/>
    <tag k="name" v="Volksbank Herrenberg-Rottenburg"/>
  </node>
  <node id="183563563" version="2" timestamp="2008-02-16T19:25:11Z" uid="6975" user="ulfl" changeset="141861" lat="45.7884096" lon="4.7755294">
    <tag k="name" v="Centre Commercial d&apos;Écully"/>
    <tag k="shop" v="supermarket"/>
  </node>
  <node id="183563563" version="3" timestamp="2010-06-12T19:44:19Z" uid="155710" user="_FrnchFrgg_" changeset="4973264" lat="45.7879412" lon="4.7745738">
    <tag k="name" v="Carrefour"/>
    <tag k="opening_hours" v="Mo-Fr 08:30-22:00 ;Sa 08:30-20:00"/>
    <tag k="shop" v="supermarket"/>
  </node>
  <node id="183563563" version="4" timestamp="2010-06-13T08:36:14Z" uid="155710" user="_FrnchFrgg_" changeset="4976374" lat="45.7882398" lon="4.7748329">
    <tag k="name" v="Carrefour"/>
    <tag k="opening_hours" v="Mo-Fr 08:30-22:00 ;Sa 08:30-20:00"/>
    <tag k="shop" v="supermarket"/>
  </node>
  <node id="183563563" version="5" timestamp="2011-02-24T12:51:21Z" uid="290680" user="wheelmap_visitor" changeset="7378004" lat="45.7882398" lon="4.7748329">
    <tag k="name" v="Carrefour"/>
    <tag k="opening_hours" v="Mo-Fr 08:30-22:00 ;Sa 08:30-20:00"/>
    <tag k="shop" v="supermarket"/>
    <tag k="wheelchair" v="yes"/>
  </node>
  <node id="183564481" version="2" timestamp="2010-06-29T20:46:10Z" uid="74617" user="JohnSmith" changeset="5109183" lat="55.5360978" lon="-4.6248217">
    <tag k="fixme" v="sport=rugby is ambiguous, see http://wiki.osm.org/wiki/Tag:sport%3Drugby for more details"/>
    <tag k="name" v="Marr Rugby Football Club"/>
    <tag k="sport" v="rugby"/>
  </node>
  <node id="183569823" version="6" timestamp="2009-10-09T15:58:25Z" uid="9581" user="Lobelt" changeset="2795571" lat="50.9104187" lon="11.8418708"/>
  <node id="183569823" version="7" timestamp="2010-10-17T12:45:11Z" uid="67020" user="Nibbler" changeset="6066625" lat="50.9082476" lon="11.8421979"/>
  <node id="183564481" version="3" timestamp="2012-07-13T21:43:11Z" uid="722137" user="OSMF Redaction Account" changeset="12211666" lat="55.5360978" lon="-4.6248217">
    <tag k="name" v="Marr Rugby Football Club"/>
    <tag k="sport" v="rugby"/>
  </node>
</osm>
