<?xml version='1.0' encoding='UTF-8'?>
<osm version="0.6" generator="libosmium/2.20.0">
  <node id="189282089" version="1" timestamp="2007-12-25T20:57:50Z" uid="3451" user="sascha_silbe" changeset="422048" lat="50.5774515" lon="8.6340174">
    <tag k="created_by" v="JOSM"/>
    <tag k="name" v="Roller, Nimm-Mit"/>
    <tag k="shop" v="furniture"/>
    <tag k="source" v="survey"/>
  </node>
  <node id="189282089" version="2" timestamp="2009-08-30T00:28:20Z" uid="42683" user="riechfield" changeset="2308056" lat="50.5774515" lon="8.6340174">
    <tag k="name" v="Roller, Nimm-Mit"/>
    <tag k="operator" v="Tessner Gruppe"/>
    <tag k="shop" v="furniture"/>
    <tag k="source" v="survey"/>
  </node>
  <node id="189282089" version="3" timestamp="2009-10-18T19:30:34Z" uid="57645" user="KartoGrapHiti" changeset="2888051" lat="50.5774515" lon="8.6340174">
    <tag k="name" v="Roller, Nimm-Mit"/>
    <tag k="operator" v="Tessner Gruppe"/>
    <tag k="shop" v="furniture"/>
    <tag k="source" v="survey"/>
  </node>
</osm>
