<?xml version='1.0' encoding='UTF-8'?>
<osm version="0.6" generator="libosmium/2.20.0">
  <node id="190170259" version="2" timestamp="2008-07-05T13:36:40Z" uid="6975" user="ulfl" changeset="398437" lat="-33.846848" lon="151.0811359">
    <tag k="leisure" v="playground"/>
  </node>
  <node id="190171132" version="2" timestamp="2010-05-22T13:55:43Z" uid="4467" user="Rosscoe" changeset="4774570" lat="-33.8453581" lon="151.065137">
    <tag k="created_by" v="Potlatch 0.6"/>
    <tag k="leisure" v="playground"/>
  </node>
  <node id="190172519" version="6" timestamp="2009-07-26T10:56:43Z" uid="74617" user="JohnSmith" changeset="1943247" lat="-33.8482958" lon="151.0673863">
    <tag k="amenity" v="fast_food"/>
    <tag k="cuisine" v="burger"/>
    <tag k="name" v="McDonalds"/>
  </node>
  <node id="190172519" version="7" timestamp="2010-08-06T16:55:35Z" uid="207745" user="NE2" changeset="5418228" lat="-33.8482958" lon="151.0673863">
    <tag k="amenity" v="fast_food"/>
    <tag k="cuisine" v="burger"/>
    <tag k="name" v="McDonald&apos;s"/>
  </node>
  <node id="190172519" version="8" timestamp="2012-07-20T05:27:05Z" uid="722137" user="OSMF Redaction Account" changeset="12362004" lat="-33.8482958" lon="151.0673863">
    <tag k="amenity" v="fast_food"/>
  </node>
</osm>
