<?xml version='1.0' encoding='UTF-8'?>
<osm version="0.6" generator="libosmium/2.20.0">
  <node id="190292129" version="4" timestamp="2010-02-12T20:51:21Z" uid="20587" user="balrog-kun" changeset="3860201" lat="52.3999214" lon="16.9719123">
    <tag k="name" v="Hotel Park"/>
    <tag k="operator" v="Lech"/>
    <tag k="tourism" v="hotel"/>
  </node>
  <node id="190292129" version="5" timestamp="2010-02-14T17:16:06Z" uid="123700" user="Mala" changeset="3876075" lat="52.39998" lon="16.9720358">
    <tag k="name" v="Hotel Park"/>
    <tag k="operator" v="Lech"/>
    <tag k="tourism" v="hotel"/>
  </node>
  <node id="190298347" version="2" timestamp="2008-02-02T04:23:56Z" uid="18775" user="drlizau" changeset="10991" lat="-34.6789007" lon="148.6392074">
    <tag k="created_by" v="JOSM"/>
  </node>
  <node id="190298347" version="3" timestamp="2008-05-10T07:02:25Z" uid="12434" user="nm7s9" changeset="379634" lat="-34.6788287" lon="148.6389049">
    <tag k="created_by" v="JOSM"/>
  </node>
</osm>
