<?xml version='1.0' encoding='UTF-8'?>
<osm version="0.6" generator="libosmium/2.20.0">
  <node id="190630506" version="4" timestamp="2009-05-01T19:18:30Z" uid="20587" user="balrog-kun" changeset="1041038" lat="50.908808" lon="14.9550485">
    <tag k="addr:postcode" v="59-920"/>
    <tag k="created_by" v="Potlatch 0.6"/>
    <tag k="is_in" v="powiat zgorzelecki, województwo dolnośląskie, Poland"/>
    <tag k="is_in:country" v="Poland"/>
    <tag k="is_in:county" v="powiat zgorzelecki"/>
    <tag k="is_in:municipality" v="gmina Bogatynia"/>
    <tag k="is_in:province" v="województwo dolnośląskie"/>
    <tag k="name" v="Bogatynia"/>
    <tag k="place" v="town"/>
    <tag k="population" v="18798"/>
    <tag k="source:population" v="wikipedia"/>
    <tag k="teryt:rm" v="96"/>
    <tag k="teryt:simc" v="0935908"/>
    <tag k="teryt:stan_na" v="2009-01-01"/>
    <tag k="teryt:terc" v="0225034"/>
    <tag k="teryt:updated_by" v="teryt2osm combine.py v. 36M"/>
    <tag k="wikipedia" v="Bogatynia"/>
  </node>
  <node id="190630506" version="5" timestamp="2009-05-07T18:39:54Z" uid="115021" user="Jajcuś" changeset="1110348" lat="50.908808" lon="14.9550485">
    <tag k="addr:postcode" v="59-920"/>
    <tag k="created_by" v="Potlatch 0.6"/>
    <tag k="is_in" v="powiat zgorzelecki, województwo dolnośląskie, Poland"/>
    <tag k="is_in:country" v="Poland"/>
    <tag k="is_in:county" v="powiat zgorzelecki"/>
    <tag k="is_in:province" v="województwo dolnośląskie"/>
    <tag k="name" v="Bogatynia"/>
    <tag k="place" v="town"/>
    <tag k="population" v="18798"/>
    <tag k="source:population" v="wikipedia"/>
    <tag k="teryt:rm" v="96"/>
    <tag k="teryt:simc" v="0935908"/>
    <tag k="teryt:stan_na" v="2009-01-01"/>
    <tag k="teryt:terc" v="0225034"/>
    <tag k="teryt:updated_by" v="teryt2osm combine.py v. 47M"/>
    <tag k="wikipedia" v="Bogatynia"/>
  </node>
  <node id="190630506" version="6" timestamp="2009-05-08T18:34:49Z" uid="115021" user="Jajcuś" changeset="1120417" lat="50.908808" lon="14.9550485">
    <tag k="addr:postcode" v="59-920"/>
    <tag k="created_by" v="Potlatch 0.6"/>
    <tag k="is_in" v="powiat zgorzelecki, województwo dolnośląskie, Poland"/>
    <tag k="is_in:country" v="Poland"/>
    <tag k="is_in:county" v="powiat zgorzelecki"/>
    <tag k="is_in:municipality" v="gmina Bogatynia"/>
    <tag k="is_in:province" v="województwo dolnośląskie"/>
    <tag k="name" v="Bogatynia"/>
    <tag k="place" v="town"/>
    <tag k="population" v="18798"/>
    <tag k="source:population" v="wikipedia"/>
    <tag k="teryt:rm" v="96"/>
    <tag k="teryt:simc" v="0935908"/>
    <tag k="teryt:stan_na" v="2009-01-01"/>
    <tag k="teryt:terc" v="0225034"/>
    <tag k="teryt:updated_by" v="teryt2osm combine.py v. 49"/>
    <tag k="wikipedia" v="Bogatynia"/>
  </node>
  <node id="190630506" version="7" timestamp="2009-11-08T11:43:43Z" uid="35618" user="schorsch" changeset="3062839" lat="50.9088088" lon="14.9550409">
    <tag k="addr:postcode" v="59-920"/>
    <tag k="is_in" v="powiat zgorzelecki, województwo dolnośląskie, Poland"/>
    <tag k="is_in:country" v="Poland"/>
    <tag k="is_in:county" v="powiat zgorzelecki"/>
    <tag k="is_in:municipality" v="gmina Bogatynia"/>
    <tag k="is_in:province" v="województwo dolnośląskie"/>
    <tag k="name" v="Bogatynia"/>
    <tag k="name:de" v="Reichenau"/>
    <tag k="place" v="town"/>
    <tag k="population" v="18798"/>
    <tag k="source:population" v="wikipedia"/>
    <tag k="teryt:rm" v="96"/>
    <tag k="teryt:simc" v="0935908"/>
    <tag k="teryt:stan_na" v="2009-01-01"/>
    <tag k="teryt:terc" v="0225034"/>
    <tag k="teryt:updated_by" v="teryt2osm combine.py v. 49"/>
    <tag k="wikipedia" v="Bogatynia"/>
  </node>
  <node id="190630506" version="8" timestamp="2009-12-10T00:01:07Z" uid="200463" user="harmagedon" changeset="3338481" lat="50.9088088" lon="14.9550409">
    <tag k="addr:postcode" v="59-920"/>
    <tag k="is_in" v="powiat zgorzelecki, województwo dolnośląskie, Poland"/>
    <tag k="is_in:country" v="Poland"/>
    <tag k="is_in:county" v="powiat zgorzelecki"/>
    <tag k="is_in:municipality" v="gmina Bogatynia"/>
    <tag k="is_in:province" v="województwo dolnośląskie"/>
    <tag k="name" v="Bogatynia"/>
    <tag k="name:de" v="Reichenau"/>
    <tag k="place" v="town"/>
    <tag k="population" v="18798"/>
    <tag k="source:population" v="wikipedia"/>
    <tag k="teryt:rm" v="96"/>
    <tag k="teryt:simc" v="0935908"/>
    <tag k="teryt:stan_na" v="2009-01-01"/>
    <tag k="teryt:terc" v="0225034"/>
    <tag k="wikipedia" v="Bogatynia"/>
  </node>
  <node id="190630506" version="9" timestamp="2010-01-31T12:40:41Z" uid="163437" user="r-michael" changeset="3758624" lat="50.9088088" lon="14.9550409">
    <tag k="addr:postcode" v="59-920"/>
    <tag k="is_in" v="powiat zgorzelecki, województwo dolnośląskie, Poland"/>
    <tag k="is_in:country" v="Poland"/>
    <tag k="is_in:county" v="powiat zgorzelecki"/>
    <tag k="is_in:municipality" v="gmina Bogatynia"/>
    <tag k="is_in:province" v="województwo dolnośląskie"/>
    <tag k="name" v="Bogatynia"/>
    <tag k="place" v="town"/>
    <tag k="population" v="18798"/>
    <tag k="source:population" v="wikipedia"/>
    <tag k="teryt:rm" v="96"/>
    <tag k="teryt:simc" v="0935908"/>
    <tag k="teryt:stan_na" v="2009-01-01"/>
    <tag k="teryt:terc" v="0225034"/>
    <tag k="wikipedia" v="Bogatynia"/>
  </node>
  <node id="190630506" version="10" timestamp="2010-04-11T04:37:43Z" uid="20587" user="balrog-kun" changeset="4389130" lat="50.9088302" lon="14.9557516">
    <tag k="addr:postcode" v="59-920"/>
    <tag k="is_in" v="powiat zgorzelecki, województwo dolnośląskie, Poland"/>
    <tag k="is_in:country" v="Poland"/>
    <tag k="is_in:county" v="powiat zgorzelecki"/>
    <tag k="is_in:municipality" v="gmina Bogatynia"/>
    <tag k="is_in:province" v="województwo dolnośląskie"/>
    <tag k="name" v="Bogatynia"/>
    <tag k="place" v="town"/>
    <tag k="population" v="18798"/>
    <tag k="source:population" v="wikipedia"/>
    <tag k="teryt:rm" v="96"/>
    <tag k="teryt:simc" v="0935908"/>
    <tag k="teryt:stan_na" v="2009-01-01"/>
    <tag k="teryt:terc" v="0225034"/>
    <tag k="wikipedia" v="Bogatynia"/>
  </node>
  <node id="190630506" version="11" timestamp="2010-09-02T14:37:46Z" uid="147674" user="fireball2" changeset="5662822" lat="50.9088302" lon="14.9557515">
    <tag k="addr:postcode" v="59-920"/>
    <tag k="is_in" v="powiat zgorzelecki, województwo dolnośląskie, Poland"/>
    <tag k="is_in:country" v="Poland"/>
    <tag k="is_in:county" v="powiat zgorzelecki"/>
    <tag k="is_in:municipality" v="gmina Bogatynia"/>
    <tag k="is_in:province" v="województwo dolnośląskie"/>
    <tag k="name" v="Bogatynia"/>
    <tag k="name:de" v="Reichenau"/>
    <tag k="place" v="town"/>
    <tag k="population" v="18798"/>
    <tag k="source:population" v="wikipedia"/>
    <tag k="teryt:rm" v="96"/>
    <tag k="teryt:simc" v="0935908"/>
    <tag k="teryt:stan_na" v="2009-01-01"/>
    <tag k="teryt:terc" v="0225034"/>
    <tag k="wikipedia" v="Bogatynia"/>
  </node>
  <node id="190630506" version="12" timestamp="2010-09-12T01:04:19Z" uid="212553" user="ARWIE" changeset="5755208" lat="50.9088302" lon="14.9557515">
    <tag k="addr:postcode" v="59-920"/>
    <tag k="is_in" v="powiat zgorzelecki, województwo dolnośląskie, Poland"/>
    <tag k="is_in:country" v="Poland"/>
    <tag k="is_in:county" v="powiat zgorzelecki"/>
    <tag k="is_in:municipality" v="gmina Bogatynia"/>
    <tag k="is_in:province" v="województwo dolnośląskie"/>
    <tag k="name" v="Bogatynia"/>
    <tag k="name:de" v="Reichenau in Sachsen"/>
    <tag k="place" v="town"/>
    <tag k="population" v="18798"/>
    <tag k="source:population" v="wikipedia"/>
    <tag k="teryt:rm" v="96"/>
    <tag k="teryt:simc" v="0935908"/>
    <tag k="teryt:stan_na" v="2009-01-01"/>
    <tag k="teryt:terc" v="0225034"/>
    <tag k="wikipedia" v="Bogatynia"/>
  </node>
  <node id="190630506" version="13" timestamp="2010-10-29T16:03:36Z" uid="152074" user="beweta" changeset="6219870" lat="50.9088302" lon="14.9557515">
    <tag k="addr:postcode" v="59-920"/>
    <tag k="is_in" v="powiat zgorzelecki, województwo dolnośląskie, Poland"/>
    <tag k="is_in:country" v="Poland"/>
    <tag k="is_in:county" v="powiat zgorzelecki"/>
    <tag k="is_in:municipality" v="gmina Bogatynia"/>
    <tag k="is_in:province" v="województwo dolnośląskie"/>
    <tag k="name" v="Bogatynia"/>
    <tag k="name:de" v="Reichenau in Sachsen"/>
    <tag k="name:lv" v="Bogatinja"/>
    <tag k="place" v="town"/>
    <tag k="population" v="18798"/>
    <tag k="source:population" v="wikipedia"/>
    <tag k="teryt:rm" v="96"/>
    <tag k="teryt:simc" v="0935908"/>
    <tag k="teryt:stan_na" v="2009-01-01"/>
    <tag k="teryt:terc" v="0225034"/>
    <tag k="wikipedia" v="Bogatynia"/>
  </node>
  <node id="190631805" version="2" timestamp="2008-12-15T13:28:36Z" uid="9581" user="Lobelt" changeset="391313" lat="50.68506" lon="11.2596178">
    <tag k="created_by" v="JOSM"/>
  </node>
  <node id="190631805" version="3" timestamp="2009-09-10T17:16:00Z" uid="118134" user="scai" changeset="2438544" lat="50.6850538" lon="11.2596803"/>
  <node id="190631805" version="4" timestamp="2011-08-07T11:28:52Z" uid="118134" user="scai" changeset="8945965" lat="50.6850538" lon="11.2596803"/>
  <node id="190630506" version="14" timestamp="2012-05-19T10:16:40Z" uid="351106" user="Dundee77" changeset="11641068" lat="50.9088302" lon="14.9557515">
    <tag k="addr:postcode" v="59-920"/>
    <tag k="is_in" v="powiat zgorzelecki, województwo dolnośląskie, Poland"/>
    <tag k="is_in:country" v="Poland"/>
    <tag k="is_in:county" v="powiat zgorzelecki"/>
    <tag k="is_in:municipality" v="gmina Bogatynia"/>
    <tag k="is_in:province" v="województwo dolnośląskie"/>
    <tag k="name" v="Bogatynia"/>
    <tag k="name:de" v="Reichenau"/>
    <tag k="name:lv" v="Bogatinja"/>
    <tag k="place" v="town"/>
    <tag k="population" v="18798"/>
    <tag k="source:population" v="wikipedia"/>
    <tag k="teryt:rm" v="96"/>
    <tag k="teryt:simc" v="0935908"/>
    <tag k="teryt:stan_na" v="2009-01-01"/>
    <tag k="teryt:terc" v="0225034"/>
    <tag k="wikipedia" v="Bogatynia"/>
  </node>
</osm>
