<?xml version='1.0' encoding='UTF-8'?>
<osm version="0.6" generator="libosmium/2.20.0">
  <node id="191679115" version="7" timestamp="2009-07-23T12:54:38Z" uid="20587" user="balrog-kun" changeset="1915349" lat="-29.0335895" lon="167.9499828">
    <tag k="name" v="Norfolk Island"/>
    <tag k="name:pl" v="Wyspa Norfolk"/>
    <tag k="place" v="region"/>
  </node>
  <node id="191679115" version="8" timestamp="2009-08-17T03:44:15Z" uid="24459" user="RRover" changeset="2173000" lat="-29.0335886" lon="167.9499806">
    <tag k="name" v="Norfolk Island"/>
    <tag k="name:pl" v="Wyspa Norfolk"/>
    <tag k="place" v="island"/>
  </node>
  <node id="191679115" version="9" timestamp="2009-08-17T03:48:56Z" uid="24459" user="RRover" changeset="2173026" lat="-29.0352255" lon="167.9490801">
    <tag k="name" v="Norfolk Island"/>
    <tag k="place" v="island"/>
  </node>
  <node id="191679115" version="10" timestamp="2011-04-08T03:39:35Z" uid="134872" user="Crux4" changeset="7800464" lat="-29.0352255" lon="167.9490801">
    <tag k="name" v="Norfolk Island"/>
    <tag k="place" v="island"/>
  </node>
</osm>
