<?xml version='1.0' encoding='UTF-8'?>
<osm version="0.6" generator="libosmium/2.20.0">
  <node id="193860463" version="2" timestamp="2008-03-25T14:45:54Z" uid="31796" user="bjt" changeset="396318" lat="49.9607774" lon="7.1273913">
    <tag k="amenity" v="school"/>
    <tag k="created_by" v="JOSM"/>
    <tag k="name" v="Haupt- und Realschule"/>
  </node>
  <node id="193860463" version="3" timestamp="2011-08-04T19:39:05Z" uid="410263" user="Supernova1" changeset="8922677" lat="49.9607774" lon="7.1273913">
    <tag k="amenity" v="school"/>
    <tag k="name" v="Realschule +"/>
  </node>
  <node id="193860463" version="4" timestamp="2012-07-09T08:38:20Z" uid="290680" user="wheelmap_visitor" changeset="12158883" lat="49.9607774" lon="7.1273913">
    <tag k="amenity" v="school"/>
    <tag k="name" v="Realschule +"/>
    <tag k="wheelchair" v="limited"/>
  </node>
  <node id="193860463" version="5" timestamp="2012-07-18T18:47:56Z" uid="722137" user="OSMF Redaction Account" changeset="12293309" lat="49.9592228" lon="7.1268482">
    <tag k="amenity" v="school"/>
    <tag k="name" v="Realschule +"/>
    <tag k="wheelchair" v="limited"/>
  </node>
</osm>
