<?xml version='1.0' encoding='UTF-8'?>
<osm version="0.6" generator="libosmium/2.20.0">
  <node id="196012279" version="10" timestamp="2009-08-02T21:55:23Z" uid="20587" user="balrog-kun" changeset="2020184" lat="52.3840933" lon="16.9178452">
    <tag k="layer" v="1"/>
    <tag k="name" v="Rolna"/>
    <tag k="railway" v="tram_stop"/>
  </node>
  <node id="196012279" version="11" timestamp="2010-08-24T12:56:14Z" uid="19417" user="xjr" changeset="5579584" lat="52.3840441" lon="16.9181452">
    <tag k="layer" v="1"/>
    <tag k="name" v="Rolna"/>
    <tag k="railway" v="tram_stop"/>
  </node>
  <node id="196012279" version="12" timestamp="2011-03-12T09:07:06Z" uid="88909" user="miko101" changeset="7530883" lat="52.3840441" lon="16.9181452">
    <tag k="name" v="Rolna"/>
    <tag k="railway" v="tram_stop"/>
  </node>
  <node id="196012279" version="13" timestamp="2011-12-15T02:53:02Z" uid="88909" user="miko101" changeset="10120933" lat="52.3840441" lon="16.9181452"/>
  <node id="196016771" version="2" timestamp="2008-07-05T18:05:15Z" uid="6975" user="ulfl" changeset="398437" lat="52.4682393" lon="13.417503">
    <tag k="leisure" v="sports_centre"/>
    <tag k="name" v="Werner-Seelenbinder Sportpark"/>
  </node>
  <node id="196016771" version="3" timestamp="2009-11-30T16:43:51Z" uid="46823" user="Tovok7" changeset="3257374" lat="52.4682811" lon="13.4179377">
    <tag k="leisure" v="sports_centre"/>
    <tag k="name" v="Werner-Seelenbinder Sportpark"/>
  </node>
  <node id="196016771" version="4" timestamp="2010-01-28T13:59:03Z" uid="66391" user="geozeisig" changeset="3735339" lat="52.4682811" lon="13.4179377">
    <tag k="leisure" v="sports_centre"/>
    <tag k="name" v="Werner-Seelenbinder Sportpark"/>
  </node>
</osm>
