<?xml version='1.0' encoding='UTF-8'?>
<osm version="0.6" generator="libosmium/2.20.0">
  <node id="197127299" version="1" timestamp="2007-12-30T09:22:39Z" uid="7617" user="Franc" changeset="472727" lat="-33.8662113" lon="151.1735585">
    <tag k="amenity" v="pub"/>
    <tag k="created_by" v="JOSM"/>
    <tag k="name" v="Merton Estate Hotel"/>
  </node>
  <node id="197127299" version="2" timestamp="2010-02-10T10:14:39Z" uid="7617" user="Franc" changeset="3838915" lat="-33.8662166" lon="151.1735152">
    <tag k="amenity" v="pub"/>
    <tag k="name" v="Merton Estate Hotel"/>
  </node>
  <node id="197127317" version="1" timestamp="2007-12-30T09:22:40Z" uid="7617" user="Franc" changeset="472727" lat="-33.8659856" lon="151.172746">
    <tag k="amenity" v="pub"/>
    <tag k="created_by" v="JOSM"/>
    <tag k="name" v="Tattersalls Hotels"/>
  </node>
  <node id="197127317" version="2" timestamp="2008-04-03T04:38:14Z" uid="7617" user="Franc" changeset="20654" lat="-33.8659127" lon="151.1725963">
    <tag k="amenity" v="pub"/>
    <tag k="created_by" v="JOSM"/>
    <tag k="name" v="Tattersalls Hotels"/>
  </node>
  <node id="197127299" version="3" timestamp="2012-07-19T23:19:21Z" uid="722137" user="OSMF Redaction Account" changeset="12351480" lat="-33.8662166" lon="151.1735152"/>
  <node id="197127317" version="3" timestamp="2012-05-04T06:45:30Z" uid="155457" user="LeighK" changeset="11494915" lat="-33.8659127" lon="151.1725963">
    <tag k="amenity" v="pub"/>
    <tag k="name" v="Ruby Hotel"/>
  </node>
  <node id="197127317" version="4" timestamp="2012-07-19T23:19:24Z" uid="722137" user="OSMF Redaction Account" changeset="12351480" lat="-33.8659127" lon="151.1725963"/>
</osm>
