<?xml version='1.0' encoding='UTF-8'?>
<osm version="0.6" generator="libosmium/2.20.0">
  <node id="201234436" version="10" timestamp="2008-06-22T21:03:09Z" uid="27600" user="Islanit" changeset="261806" lat="53.7869121" lon="9.7009892"/>
  <node id="201235676" version="6" timestamp="2009-10-12T21:48:39Z" uid="36809" user="pfoten_weg_!_" changeset="2831247" lat="47.9980315" lon="11.3416412">
    <tag k="amenity" v="place_of_worship"/>
    <tag k="denomination" v="catholic"/>
    <tag k="name" v="St. Maria"/>
    <tag k="religion" v="christian"/>
  </node>
  <node id="201235676" version="7" timestamp="2010-12-01T18:09:35Z" uid="378328" user="krz9000" changeset="6506578" lat="47.9980009" lon="11.3416656">
    <tag k="amenity" v="place_of_worship"/>
    <tag k="denomination" v="catholic"/>
    <tag k="name" v="St. Maria"/>
    <tag k="religion" v="christian"/>
  </node>
  <node id="201235676" version="8" timestamp="2010-12-01T21:32:38Z" uid="378328" user="krz9000" changeset="6508921" lat="47.9980009" lon="11.3416656">
    <tag k="amenity" v="place_of_worship"/>
    <tag k="denomination" v="catholic"/>
    <tag k="name" v="St. Maria"/>
    <tag k="religion" v="christian"/>
  </node>
</osm>
