<?xml version='1.0' encoding='UTF-8'?>
<osm version="0.6" generator="libosmium/2.20.0">
  <node id="205069487" version="3" timestamp="2008-02-16T20:15:43Z" uid="6975" user="ulfl" changeset="141861" lat="51.1432761" lon="0.8978283">
    <tag k="amenity" v="hospital"/>
    <tag k="name" v="Lenworth Clinic"/>
    <tag k="operator" v="NHS"/>
  </node>
  <node id="205069487" version="4" timestamp="2008-05-04T08:16:08Z" uid="6809" user="TimSC" changeset="326128" lat="51.1432761" lon="0.8978283">
    <tag k="amenity" v="hospital"/>
    <tag k="name" v="Lenworth Clinic"/>
    <tag k="operator" v="NHS"/>
    <tag k="postal_code" v="TN24 0QE"/>
  </node>
  <node id="205069487" version="5" timestamp="2011-01-06T19:53:04Z" uid="6809" user="TimSC" changeset="6886307" lat="51.1432761" lon="0.8978283">
    <tag k="amenity" v="doctors"/>
    <tag k="name" v="Lenworth Clinic"/>
    <tag k="operator" v="NHS"/>
    <tag k="postal_code" v="TN24 0QE"/>
  </node>
  <node id="205069487" version="6" timestamp="2011-03-03T17:05:34Z" uid="6809" user="TimSC" changeset="7447454" lat="51.1432796" lon="0.8974065">
    <tag k="amenity" v="doctors"/>
    <tag k="name" v="Lenworth Clinic"/>
    <tag k="operator" v="NHS"/>
    <tag k="postal_code" v="TN24 0QE"/>
  </node>
</osm>
