<?xml version='1.0' encoding='UTF-8'?>
<osm version="0.6" generator="libosmium/2.20.0">
  <node id="208925006" version="2" timestamp="2008-02-18T22:23:27Z" uid="6269" user="Mueck" changeset="149542" lat="50.0602486" lon="8.8022889">
    <tag k="amenity" v="restaurant"/>
    <tag k="created_by" v="Potlatch 0.7b"/>
    <tag k="name" v="Alter Bahnhof"/>
  </node>
  <node id="208925006" version="3" timestamp="2008-02-18T22:23:43Z" uid="6269" user="Mueck" changeset="149542" lat="50.0602541" lon="8.8023403">
    <tag k="amenity" v="restaurant"/>
    <tag k="created_by" v="Potlatch 0.7b"/>
    <tag k="name" v="Alter Bahnhof"/>
  </node>
  <node id="208925006" version="4" timestamp="2009-07-30T19:27:09Z" uid="107674" user="GeoCounter" changeset="1988344" lat="50.0602541" lon="8.8023403">
    <tag k="addr:city" v="Heusenstamm"/>
    <tag k="addr:country" v="DE"/>
    <tag k="addr:housenumber" v="1"/>
    <tag k="addr:postcode" v="63150"/>
    <tag k="addr:street" v="Bahnhofstraße"/>
    <tag k="amenity" v="restaurant"/>
    <tag k="created_by" v="Potlatch 0.7b"/>
    <tag k="name" v="Alter Bahnhof"/>
  </node>
  <node id="208925006" version="5" timestamp="2010-07-09T15:28:37Z" uid="107674" user="GeoCounter" changeset="5174474" lat="50.0602541" lon="8.8023403">
    <tag k="addr:city" v="Heusenstamm"/>
    <tag k="addr:country" v="DE"/>
    <tag k="addr:housenumber" v="1"/>
    <tag k="addr:postcode" v="63150"/>
    <tag k="addr:street" v="Bahnhofstraße"/>
    <tag k="amenity" v="restaurant"/>
    <tag k="contact:phone" v="+49 6104 802510"/>
    <tag k="contact:website" v="http://www.alter-bahnhof.eu/"/>
    <tag k="name" v="Alter Bahnhof"/>
    <tag k="opening_hours" v="Mo-Su 09:00+"/>
  </node>
  <node id="208925006" version="6" timestamp="2010-12-05T00:21:06Z" uid="107674" user="GeoCounter" changeset="6545840" lat="50.0602225" lon="8.8024704">
    <tag k="addr:city" v="Heusenstamm"/>
    <tag k="addr:country" v="DE"/>
    <tag k="addr:housenumber" v="1"/>
    <tag k="addr:postcode" v="63150"/>
    <tag k="addr:street" v="Bahnhofstraße"/>
    <tag k="amenity" v="restaurant"/>
    <tag k="contact:phone" v="+49 6104 802510"/>
    <tag k="contact:website" v="http://www.alter-bahnhof.eu/"/>
    <tag k="name" v="Alter Bahnhof"/>
    <tag k="opening_hours" v="Mo-Su 09:00+"/>
  </node>
  <node id="208925006" version="7" timestamp="2011-10-02T15:30:17Z" uid="290680" user="wheelmap_visitor" changeset="9447804" lat="50.0602225" lon="8.8024704">
    <tag k="addr:city" v="Heusenstamm"/>
    <tag k="addr:country" v="DE"/>
    <tag k="addr:housenumber" v="1"/>
    <tag k="addr:postcode" v="63150"/>
    <tag k="addr:street" v="Bahnhofstraße"/>
    <tag k="amenity" v="restaurant"/>
    <tag k="contact:phone" v="+49 6104 802510"/>
    <tag k="contact:website" v="http://www.alter-bahnhof.eu/"/>
    <tag k="name" v="Alter Bahnhof"/>
    <tag k="opening_hours" v="Mo-Su 09:00+"/>
    <tag k="wheelchair" v="no"/>
  </node>
  <node id="208925006" version="8" timestamp="2011-12-05T18:24:22Z" uid="290680" user="wheelmap_visitor" changeset="10041344" lat="50.0602225" lon="8.8024704">
    <tag k="addr:city" v="Heusenstamm"/>
    <tag k="addr:country" v="DE"/>
    <tag k="addr:housenumber" v="1"/>
    <tag k="addr:postcode" v="63150"/>
    <tag k="addr:street" v="Bahnhofstraße"/>
    <tag k="amenity" v="restaurant"/>
    <tag k="contact:phone" v="+49 6104 802510"/>
    <tag k="contact:website" v="http://www.alter-bahnhof.eu/"/>
    <tag k="name" v="Alter Bahnhof"/>
    <tag k="opening_hours" v="Mo-Su 09:00+"/>
    <tag k="wheelchair" v="yes"/>
  </node>
  <node id="208925006" version="9" timestamp="2012-01-06T21:57:08Z" uid="65364" user="Harry99" changeset="10314021" lat="50.0602027" lon="8.8023898">
    <tag k="addr:city" v="Heusenstamm"/>
    <tag k="addr:country" v="DE"/>
    <tag k="addr:housenumber" v="1"/>
    <tag k="addr:postcode" v="63150"/>
    <tag k="addr:street" v="Bahnhofstraße"/>
    <tag k="amenity" v="restaurant"/>
    <tag k="contact:phone" v="+49 6104 802510"/>
    <tag k="contact:website" v="http://www.alter-bahnhof.eu/"/>
    <tag k="name" v="Alter Bahnhof"/>
    <tag k="opening_hours" v="Mo-Su 09:00+"/>
    <tag k="wheelchair" v="yes"/>
  </node>
  <node id="208925006" version="10" timestamp="2012-07-19T04:53:58Z" uid="722137" user="OSMF Redaction Account" changeset="12308583" lat="50.0602027" lon="8.8023898">
    <tag k="amenity" v="restaurant"/>
    <tag k="name" v="Alter Bahnhof"/>
    <tag k="wheelchair" v="yes"/>
  </node>
</osm>
