<?xml version='1.0' encoding='UTF-8'?>
<osm version="0.6" generator="libosmium/2.20.0">
  <node id="213105148" version="3" timestamp="2008-07-07T02:05:42Z" uid="6975" user="ulfl" changeset="415781" lat="55.914358" lon="-3.5259268">
    <tag k="amenity" v="fuel"/>
    <tag k="name" v="BP Deer Park"/>
  </node>
  <node id="213105892" version="5" timestamp="2008-09-14T20:02:47Z" uid="6975" user="ulfl" changeset="640534" lat="52.5483508" lon="13.4504143">
    <tag k="amenity" v="bank"/>
    <tag k="atm" v="yes"/>
    <tag k="name" v="Berliner Sparkasse"/>
    <tag k="surveillance" v="indoor"/>
  </node>
  <node id="213105892" version="6" timestamp="2009-11-10T22:57:55Z" uid="90528" user="Peter Maiwald" changeset="3086256" lat="52.5483522" lon="13.450409">
    <tag k="amenity" v="bank"/>
    <tag k="atm" v="yes"/>
    <tag k="name" v="Berliner Sparkasse"/>
    <tag k="operator" v="Berliner Sparkasse"/>
    <tag k="surveillance" v="indoor"/>
  </node>
  <node id="213105892" version="7" timestamp="2010-10-12T00:50:38Z" uid="290680" user="wheelmap_visitor" changeset="6017193" lat="52.5483522" lon="13.450409">
    <tag k="amenity" v="bank"/>
    <tag k="atm" v="yes"/>
    <tag k="name" v="Berliner Sparkasse"/>
    <tag k="operator" v="Berliner Sparkasse"/>
    <tag k="surveillance" v="indoor"/>
    <tag k="wheelchair" v="limited"/>
  </node>
  <node id="213105892" version="8" timestamp="2011-05-30T18:03:18Z" uid="90528" user="Peter Maiwald" changeset="8294483" lat="52.5483718" lon="13.4505485">
    <tag k="amenity" v="bank"/>
    <tag k="atm" v="yes"/>
    <tag k="name" v="Berliner Sparkasse"/>
    <tag k="operator" v="Berliner Sparkasse"/>
    <tag k="surveillance" v="indoor"/>
    <tag k="wheelchair" v="limited"/>
  </node>
  <node id="213105892" version="9" timestamp="2011-12-14T16:34:28Z" uid="90528" user="Peter Maiwald" changeset="10117333" lat="52.5483718" lon="13.4505485"/>
  <node id="213106623" version="4" timestamp="2008-09-14T20:01:51Z" uid="6975" user="ulfl" changeset="640534" lat="52.5421707" lon="13.4411531">
    <tag k="amenity" v="bank"/>
    <tag k="atm" v="yes"/>
    <tag k="name" v="Berliner Sparkasse"/>
    <tag k="surveillance" v="indoor"/>
  </node>
  <node id="213106623" version="5" timestamp="2010-02-25T12:46:30Z" uid="117007" user="shony" changeset="3971287" lat="52.5421194" lon="13.4411864">
    <tag k="amenity" v="bank"/>
    <tag k="atm" v="yes"/>
    <tag k="name" v="Berliner Sparkasse"/>
    <tag k="surveillance" v="indoor"/>
  </node>
  <node id="213106623" version="6" timestamp="2010-03-06T12:01:00Z" uid="115651" user="Konrad Aust" changeset="4049316" lat="52.5420579" lon="13.4412112">
    <tag k="amenity" v="bank"/>
    <tag k="atm" v="yes"/>
    <tag k="name" v="Sparkasse"/>
    <tag k="operator" v="Berliner Landesbank"/>
    <tag k="surveillance" v="indoor"/>
  </node>
  <node id="213106623" version="7" timestamp="2011-05-19T20:26:42Z" uid="290680" user="wheelmap_visitor" changeset="8192290" lat="52.5420579" lon="13.4412112">
    <tag k="amenity" v="bank"/>
    <tag k="atm" v="yes"/>
    <tag k="name" v="Sparkasse"/>
    <tag k="operator" v="Berliner Landesbank"/>
    <tag k="surveillance" v="indoor"/>
    <tag k="wheelchair" v="yes"/>
  </node>
</osm>
