<?xml version='1.0' encoding='UTF-8'?>
<osm version="0.6" generator="libosmium/2.20.0">
  <node id="213834006" version="2" timestamp="2008-02-16T19:38:36Z" uid="6975" user="ulfl" changeset="141861" lat="51.7292871" lon="10.2486479">
    <tag k="highway" v="bus_stop"/>
    <tag k="name" v="Dielenplan"/>
  </node>
  <node id="213834006" version="3" timestamp="2008-05-31T11:21:04Z" uid="40411" user="MrTux" changeset="564848" lat="51.7292871" lon="10.2486479">
    <tag k="amenity" v="bus_station"/>
    <tag k="name" v="Dielenplan"/>
  </node>
  <node id="213834012" version="2" timestamp="2008-02-16T19:38:36Z" uid="6975" user="ulfl" changeset="141861" lat="51.726579" lon="10.2467641">
    <tag k="highway" v="bus_stop"/>
    <tag k="name" v="Mitte/Stadthalle"/>
  </node>
  <node id="213834012" version="3" timestamp="2009-07-12T19:28:17Z" uid="40411" user="MrTux" changeset="1811006" lat="51.726579" lon="10.2467641">
    <tag k="highway" v="bus_stop"/>
    <tag k="name" v="Mitte/Stadthalle"/>
    <tag k="shelter" v="no"/>
  </node>
  <node id="213834012" version="4" timestamp="2009-09-14T15:28:20Z" uid="7068" user="YitLu" changeset="2483055" lat="51.726579" lon="10.2467641">
    <tag k="highway" v="bus_stop"/>
    <tag k="name" v="Mitte/Stadthalle, Osterode am Harz"/>
    <tag k="shelter" v="no"/>
  </node>
  <node id="213834012" version="5" timestamp="2010-04-20T03:17:14Z" uid="9168" user="Thomas KrÃ¼ger" changeset="4474043" lat="51.7265484" lon="10.2467463">
    <tag k="highway" v="bus_stop"/>
    <tag k="name" v="Mitte/Stadthalle"/>
    <tag k="shelter" v="no"/>
  </node>
</osm>
