<?xml version='1.0' encoding='UTF-8'?>
<osm version="0.6" generator="libosmium/2.20.0">
  <node id="215485634" version="3" timestamp="2008-02-16T19:37:36Z" uid="6975" user="ulfl" changeset="141861" lat="48.8161591" lon="2.1944416">
    <tag k="highway" v="bus_stop"/>
    <tag k="name" v="Guilleminot"/>
  </node>
  <node id="215485634" version="4" timestamp="2010-01-05T10:12:12Z" uid="215489" user="LostProphet91" changeset="3543919" lat="48.8161591" lon="2.1944415">
    <tag k="highway" v="bus_stop"/>
    <tag k="ligne" v="171"/>
    <tag k="name" v="Guilleminot"/>
  </node>
  <node id="215485634" version="5" timestamp="2010-01-16T22:46:36Z" uid="107257" user="FrViPofm" changeset="3636493" lat="48.8161591" lon="2.1944415">
    <tag k="highway" v="bus_stop"/>
    <tag k="line" v="171"/>
    <tag k="name" v="Guilleminot"/>
  </node>
  <node id="215485634" version="6" timestamp="2012-07-16T22:13:49Z" uid="2983" user="mobip" changeset="12252616" lat="48.8161591" lon="2.1944415">
    <tag k="fixme" v="resurvey"/>
    <tag k="highway" v="bus_stop"/>
    <tag k="line" v="171"/>
    <tag k="name" v="Guilleminot"/>
  </node>
  <node id="215485634" version="7" timestamp="2012-07-18T09:24:02Z" uid="2983" user="mobip" changeset="12276447" lat="48.8161591" lon="2.1944415">
    <tag k="highway" v="bus_stop"/>
    <tag k="line" v="171"/>
    <tag k="name" v="Guilleminot"/>
    <tag k="shelter" v="yes"/>
    <tag k="source" v="survey"/>
  </node>
</osm>
