<?xml version='1.0' encoding='UTF-8'?>
<osm version="0.6" generator="libosmium/2.20.0">
  <node id="215548683" version="2" timestamp="2008-02-16T19:49:19Z" uid="6975" user="ulfl" changeset="141861" lat="51.3449078" lon="12.3708093">
    <tag k="name" v="Naturkundemuseum"/>
    <tag k="tourism" v="museum"/>
  </node>
  <node id="215548683" version="3" timestamp="2010-03-01T14:13:43Z" uid="53936" user="elsaxo" changeset="4008927" lat="51.3449078" lon="12.3708093">
    <tag k="name" v="Naturkundemuseum"/>
    <tag k="tourism" v="museum"/>
  </node>
  <node id="215549886" version="2" timestamp="2008-02-16T19:49:20Z" uid="6975" user="ulfl" changeset="141861" lat="51.3422486" lon="12.3757188">
    <tag k="name" v="Bildermuseum"/>
    <tag k="tourism" v="museum"/>
  </node>
  <node id="215549886" version="3" timestamp="2008-04-12T08:53:51Z" uid="23057" user="prolineserver" changeset="123906" lat="51.3422491" lon="12.3757159">
    <tag k="created_by" v="Potlatch 0.8a"/>
    <tag k="name" v="Museum der Bildenden Künste"/>
    <tag k="tourism" v="museum"/>
  </node>
  <node id="215549886" version="4" timestamp="2008-10-12T19:14:42Z" uid="72822" user="medifighter" changeset="294600" lat="51.342266" lon="12.3757011">
    <tag k="created_by" v="Potlatch 0.10d"/>
    <tag k="name" v="Museum der Bildenden Künste"/>
    <tag k="tourism" v="museum"/>
  </node>
  <node id="215549886" version="5" timestamp="2009-05-29T08:34:41Z" uid="53936" user="elsaxo" changeset="1348969" lat="51.342266" lon="12.3757011">
    <tag k="created_by" v="Potlatch 0.10d"/>
    <tag k="name" v="Museum der Bildenden Künste"/>
    <tag k="tourism" v="museum"/>
  </node>
</osm>
