<?xml version='1.0' encoding='UTF-8'?>
<osm version="0.6" generator="libosmium/2.20.0">
  <node id="217873111" version="2" timestamp="2009-09-08T20:16:46Z" uid="99207" user="Lar Kiesel" changeset="2418911" lat="37.028902" lon="-80.728986">
    <tag k="highway" v="motorway_junction"/>
    <tag k="name" v="VA 99; Pulaski"/>
    <tag k="ref" v="94"/>
    <tag k="source" v="tiger_import_dch_v0.6_20070830"/>
    <tag k="tiger:county" v="Pulaski, VA"/>
    <tag k="tiger:tlid" v="47019344:47009961:47009964:47030225:47030226"/>
    <tag k="tiger:upload_uuid" v="bulk_upload.pl-06389453-9bff-44ed-abbb-9ce010c98d97"/>
  </node>
  <node id="217873111" version="3" timestamp="2009-12-09T07:06:01Z" uid="147510" user="woodpeck_fixbot" changeset="3331311" lat="37.028902" lon="-80.728986">
    <tag k="highway" v="motorway_junction"/>
    <tag k="name" v="VA 99; Pulaski"/>
    <tag k="ref" v="94"/>
  </node>
  <node id="217873111" version="4" timestamp="2011-04-06T21:18:36Z" uid="207745" user="NE2" changeset="7788882" lat="37.028902" lon="-80.728986">
    <tag k="exit_to" v="VA 99; Pulaski"/>
    <tag k="highway" v="motorway_junction"/>
    <tag k="ref" v="94"/>
  </node>
  <node id="217873111" version="5" timestamp="2012-07-18T17:08:14Z" uid="722137" user="OSMF Redaction Account" changeset="12290023" lat="37.028902" lon="-80.728986">
    <tag k="exit_to" v="VA 99; Pulaski"/>
  </node>
  <node id="217873111" version="6" timestamp="2012-07-20T04:58:30Z" uid="36121" user="Chris Lawrence" changeset="12361174" lat="37.028902" lon="-80.728986">
    <tag k="exit_to" v="VA 99; Pulaski"/>
    <tag k="highway" v="motorway_junction"/>
    <tag k="ref" v="90"/>
  </node>
  <node id="217873111" version="7" timestamp="2012-07-20T05:54:14Z" uid="36121" user="Chris Lawrence" changeset="12362827" lat="37.028902" lon="-80.728986">
    <tag k="exit_to" v="VA 99; Pulaski"/>
    <tag k="highway" v="motorway_junction"/>
    <tag k="ref" v="94"/>
  </node>
</osm>
