<?xml version='1.0' encoding='UTF-8'?>
<osm version="0.6" generator="libosmium/2.20.0">
  <node id="218121946" version="3" timestamp="2010-02-20T14:14:20Z" uid="103576" user="DiverCTH" changeset="3923881" lat="37.082384" lon="-80.653332">
    <tag k="highway" v="motorway_junction"/>
    <tag k="name" v="SR-660;Claytor Lake State Park"/>
    <tag k="ref" v="101"/>
  </node>
  <node id="218121946" version="4" timestamp="2011-04-06T18:26:34Z" uid="207745" user="NE2" changeset="7787398" lat="37.082384" lon="-80.653332">
    <tag k="exit_to" v="SR-660;Claytor Lake State Park"/>
    <tag k="highway" v="motorway_junction"/>
    <tag k="ref" v="101"/>
  </node>
  <node id="218122831" version="2" timestamp="2009-11-21T03:46:09Z" uid="7617" user="Franc" changeset="3173303" lat="-33.7812348" lon="151.1180769">
    <tag k="created_by" v="JOSM"/>
  </node>
  <node id="218122864" version="2" timestamp="2009-11-21T03:46:09Z" uid="7617" user="Franc" changeset="3173303" lat="-33.7810948" lon="151.1178968">
    <tag k="created_by" v="JOSM"/>
  </node>
  <node id="218122895" version="2" timestamp="2009-11-21T03:46:09Z" uid="7617" user="Franc" changeset="3173303" lat="-33.7809789" lon="151.1177283">
    <tag k="created_by" v="JOSM"/>
  </node>
  <node id="218122925" version="2" timestamp="2009-11-21T03:46:09Z" uid="7617" user="Franc" changeset="3173303" lat="-33.7807568" lon="151.117769">
    <tag k="created_by" v="JOSM"/>
  </node>
  <node id="218122946" version="2" timestamp="2009-11-21T03:46:09Z" uid="7617" user="Franc" changeset="3173303" lat="-33.7806458" lon="151.1179723">
    <tag k="created_by" v="JOSM"/>
  </node>
  <node id="218122973" version="2" timestamp="2009-11-21T03:46:09Z" uid="7617" user="Franc" changeset="3173303" lat="-33.7806313" lon="151.1181466">
    <tag k="created_by" v="JOSM"/>
  </node>
  <node id="218123001" version="2" timestamp="2009-11-21T03:46:09Z" uid="7617" user="Franc" changeset="3173303" lat="-33.7806313" lon="151.1183383">
    <tag k="created_by" v="JOSM"/>
  </node>
  <node id="218123144" version="2" timestamp="2010-08-07T07:47:02Z" uid="7617" user="Franc" changeset="5422510" lat="-33.7843826" lon="151.1165897"/>
  <node id="218127645" version="3" timestamp="2010-02-20T14:14:20Z" uid="103576" user="DiverCTH" changeset="3923881" lat="37.020406" lon="-80.732281">
    <tag k="highway" v="motorway_junction"/>
    <tag k="name" v="Service Road"/>
    <tag k="ref" v="94A"/>
  </node>
  <node id="218127645" version="4" timestamp="2011-04-06T18:24:30Z" uid="207745" user="NE2" changeset="7787398" lat="37.020406" lon="-80.732281">
    <tag k="exit_to" v="Service Road"/>
    <tag k="highway" v="motorway_junction"/>
    <tag k="ref" v="94A"/>
  </node>
  <node id="218121946" version="5" timestamp="2012-07-18T17:07:59Z" uid="722137" user="OSMF Redaction Account" changeset="12290018" lat="37.082384" lon="-80.653332">
    <tag k="exit_to" v="SR-660;Claytor Lake State Park"/>
  </node>
  <node id="218121946" version="6" timestamp="2012-08-18T20:15:01Z" uid="207745" user="NE2" changeset="12776831" lat="37.082384" lon="-80.653332">
    <tag k="exit_to" v="SR-660;Claytor Lake State Park"/>
    <tag k="highway" v="motorway_junction"/>
    <tag k="ref" v="101"/>
  </node>
  <node id="218123144" version="3" timestamp="2012-07-20T05:29:03Z" uid="722137" user="OSMF Redaction Account" changeset="12362074" lat="-33.7844574" lon="151.1166189"/>
  <node id="218127645" version="5" timestamp="2012-07-18T17:08:14Z" uid="722137" user="OSMF Redaction Account" changeset="12290023" lat="37.020406" lon="-80.732281">
    <tag k="exit_to" v="Service Road"/>
  </node>
  <node id="218127645" version="6" timestamp="2012-07-20T04:58:30Z" uid="36121" user="Chris Lawrence" changeset="12361174" lat="37.020406" lon="-80.732281">
    <tag k="exit_to" v="Service Road"/>
    <tag k="highway" v="motorway_junction"/>
    <tag k="ref" v="90A"/>
  </node>
  <node id="218127645" version="7" timestamp="2012-07-20T05:54:14Z" uid="36121" user="Chris Lawrence" changeset="12362827" lat="37.020406" lon="-80.732281">
    <tag k="exit_to" v="Service Road"/>
    <tag k="highway" v="motorway_junction"/>
    <tag k="ref" v="94A"/>
  </node>
</osm>
