<?xml version='1.0' encoding='UTF-8'?>
<osm version="0.6" generator="libosmium/2.20.0">
  <node id="218112024" version="2" timestamp="2009-09-08T20:02:28Z" uid="99207" user="Lar Kiesel" changeset="2418653" lat="36.9936774" lon="-80.7924492">
    <tag k="highway" v="motorway_junction"/>
    <tag k="name" v="US 11 North"/>
    <tag k="ref" v="898"/>
    <tag k="source" v="tiger_import_dch_v0.6_20070830"/>
    <tag k="tiger:county" v="Pulaski, VA"/>
    <tag k="tiger:tlid" v="47021501:47004133:47004134"/>
    <tag k="tiger:upload_uuid" v="bulk_upload.pl-06389453-9bff-44ed-abbb-9ce010c98d97"/>
  </node>
  <node id="218112024" version="3" timestamp="2009-09-19T06:48:38Z" uid="147510" user="woodpeck_fixbot" changeset="2530610" lat="36.9936774" lon="-80.7924492">
    <tag k="highway" v="motorway_junction"/>
    <tag k="name" v="US 11 North"/>
    <tag k="ref" v="898"/>
  </node>
  <node id="218112024" version="4" timestamp="2010-02-12T05:22:54Z" uid="160651" user="dcat" changeset="3853741" lat="36.9936774" lon="-80.7924492">
    <tag k="highway" v="motorway_junction"/>
    <tag k="name" v="US 11 North"/>
    <tag k="ref" v="89"/>
  </node>
  <node id="218112024" version="5" timestamp="2010-05-09T19:22:55Z" uid="207745" user="NE2" changeset="4653016" lat="36.9936774" lon="-80.7924492">
    <tag k="highway" v="motorway_junction"/>
    <tag k="name" v="US 11 North"/>
    <tag k="ref" v="89"/>
  </node>
  <node id="218112024" version="6" timestamp="2011-04-06T18:16:42Z" uid="207745" user="NE2" changeset="7787398" lat="36.9936774" lon="-80.7924492">
    <tag k="exit_to" v="US 11 North"/>
    <tag k="highway" v="motorway_junction"/>
    <tag k="ref" v="89"/>
  </node>
  <node id="218112585" version="2" timestamp="2009-09-08T20:02:49Z" uid="99207" user="Lar Kiesel" changeset="2418653" lat="36.99245" lon="-80.796254">
    <tag k="highway" v="motorway_junction"/>
    <tag k="name" v="SR 100 South"/>
    <tag k="ref" v="89"/>
    <tag k="source" v="tiger_import_dch_v0.6_20070830"/>
    <tag k="tiger:county" v="Pulaski, VA"/>
    <tag k="tiger:tlid" v="47021505:47021549:47037893"/>
    <tag k="tiger:upload_uuid" v="bulk_upload.pl-06389453-9bff-44ed-abbb-9ce010c98d97"/>
  </node>
  <node id="218112585" version="3" timestamp="2009-09-19T06:48:42Z" uid="147510" user="woodpeck_fixbot" changeset="2530610" lat="36.99245" lon="-80.796254">
    <tag k="highway" v="motorway_junction"/>
    <tag k="name" v="SR 100 South"/>
    <tag k="ref" v="89"/>
  </node>
  <node id="218112585" version="4" timestamp="2010-02-20T14:14:20Z" uid="103576" user="DiverCTH" changeset="3923881" lat="36.99245" lon="-80.796254">
    <tag k="highway" v="motorway_junction"/>
    <tag k="name" v="SR-100 South;Hillsville"/>
    <tag k="ref" v="89A"/>
  </node>
  <node id="218112585" version="5" timestamp="2010-05-09T19:21:39Z" uid="207745" user="NE2" changeset="4653016" lat="36.99245" lon="-80.796254">
    <tag k="highway" v="motorway_junction"/>
    <tag k="name" v="SR-100 South;Hillsville"/>
    <tag k="ref" v="89A"/>
  </node>
  <node id="218112585" version="6" timestamp="2011-04-06T22:11:49Z" uid="207745" user="NE2" changeset="7788882" lat="36.99245" lon="-80.796254">
    <tag k="exit_to" v="SR-100 South;Hillsville"/>
    <tag k="highway" v="motorway_junction"/>
    <tag k="ref" v="89A"/>
  </node>
  <node id="218112024" version="7" timestamp="2012-07-18T16:44:12Z" uid="722137" user="OSMF Redaction Account" changeset="12289336" lat="36.993704" lon="-80.792363">
    <tag k="exit_to" v="US 11 North"/>
    <tag k="ref" v="89"/>
  </node>
  <node id="218112024" version="8" timestamp="2012-07-20T04:39:33Z" uid="36121" user="Chris Lawrence" changeset="12360779" lat="36.993704" lon="-80.792363">
    <tag k="exit_to" v="US 11 North"/>
    <tag k="highway" v="motorway_junction"/>
    <tag k="ref" v="89B"/>
  </node>
  <node id="218112585" version="7" timestamp="2012-07-18T16:44:11Z" uid="722137" user="OSMF Redaction Account" changeset="12289336" lat="36.99245" lon="-80.796254">
    <tag k="exit_to" v="SR-100 South;Hillsville"/>
  </node>
  <node id="218112585" version="8" timestamp="2012-07-20T04:39:33Z" uid="36121" user="Chris Lawrence" changeset="12360779" lat="36.99245" lon="-80.796254">
    <tag k="exit_to" v="SR-100 South;Hillsville"/>
    <tag k="highway" v="motorway_junction"/>
    <tag k="ref" v="89A"/>
  </node>
</osm>
