<?xml version='1.0' encoding='UTF-8'?>
<osm version="0.6" generator="libosmium/2.20.0">
  <node id="223871185" version="4" timestamp="2010-03-06T22:42:18Z" uid="6975" user="ulfl" changeset="4055844" lat="44.5389308" lon="6.7027266">
    <tag k="ele" v="2108"/>
    <tag k="mountain_pass" v="yes"/>
    <tag k="name" v="Col de Vars"/>
    <tag k="wikipedia" v="http://de.wikipedia.org/wiki/Col_de_Vars"/>
  </node>
  <node id="223871185" version="5" timestamp="2010-04-22T11:39:38Z" uid="196894" user="etiennerando" changeset="4494574" lat="44.5389129" lon="6.7028265">
    <tag k="ele" v="2108"/>
    <tag k="mountain_pass" v="yes"/>
    <tag k="name" v="Col de Vars"/>
    <tag k="wikipedia" v="http://de.wikipedia.org/wiki/Col_de_Vars"/>
  </node>
  <node id="223871185" version="6" timestamp="2010-08-02T12:42:25Z" uid="196894" user="etiennerando" changeset="5380269" lat="44.5388006" lon="6.7029122">
    <tag k="ele" v="2108"/>
    <tag k="mountain_pass" v="yes"/>
    <tag k="name" v="Col de Vars"/>
    <tag k="wikipedia" v="http://de.wikipedia.org/wiki/Col_de_Vars"/>
  </node>
  <node id="223871185" version="7" timestamp="2011-09-10T20:33:29Z" uid="8834" user="Jocelyn" changeset="9265618" lat="44.5388006" lon="6.7029122">
    <tag k="ele" v="2108"/>
    <tag k="mountain_pass" v="yes"/>
    <tag k="name" v="Col de Vars"/>
    <tag k="wikipedia" v="fr:Col_de_Vars"/>
  </node>
  <node id="223871185" version="8" timestamp="2012-04-30T13:07:53Z" uid="411998" user="sergio7826" changeset="11459995" lat="44.5387871" lon="6.7028427">
    <tag k="ele" v="2108"/>
    <tag k="mountain_pass" v="yes"/>
    <tag k="name" v="Col de Vars"/>
    <tag k="wikipedia" v="fr:Col de Vars"/>
  </node>
  <node id="223871185" version="9" timestamp="2012-08-13T19:38:25Z" uid="792996" user="Carl Friedrich" changeset="12718617" lat="44.5387871" lon="6.7028427"/>
</osm>
