<?xml version='1.0' encoding='UTF-8'?>
<osm version="0.6" generator="libosmium/2.20.0">
  <node id="229986874" version="2" timestamp="2009-07-25T09:32:00Z" uid="74617" user="JohnSmith" changeset="1932373" lat="40.065511" lon="-83.096876"/>
  <node id="229986880" version="2" timestamp="2009-07-25T09:32:00Z" uid="74617" user="JohnSmith" changeset="1932373" lat="40.066298" lon="-83.097672"/>
  <node id="229986887" version="2" timestamp="2009-07-25T09:32:00Z" uid="74617" user="JohnSmith" changeset="1932373" lat="40.066965" lon="-83.098172"/>
  <node id="229986888" version="2" timestamp="2009-07-25T09:32:00Z" uid="74617" user="JohnSmith" changeset="1932373" lat="40.067267" lon="-83.098454"/>
  <node id="229986892" version="2" timestamp="2009-07-25T09:32:00Z" uid="74617" user="JohnSmith" changeset="1932373" lat="40.067403" lon="-83.098622"/>
  <node id="229986899" version="2" timestamp="2009-07-25T09:32:01Z" uid="74617" user="JohnSmith" changeset="1932373" lat="40.067735" lon="-83.099178"/>
  <node id="229987043" version="6" timestamp="2009-05-01T18:53:26Z" uid="20587" user="balrog-kun" changeset="1040664" lat="52.7937917" lon="18.2556506">
    <tag k="addr:postcode" v="88-100"/>
    <tag k="created_by" v="Potlatch 0.10f"/>
    <tag k="is_in" v="Inowrocław, Kuyavia-Pomerania, Poland, EU"/>
    <tag k="is_in:continent" v="Europe"/>
    <tag k="is_in:county" v="powiat inowrocławski"/>
    <tag k="is_in:municipality" v="gmina Inowrocław"/>
    <tag k="is_in:province" v="województwo kujawsko-pomorskie"/>
    <tag k="name" v="Inowrocław"/>
    <tag k="name:de" v="Inowrazlaw/Hohensalza"/>
    <tag k="name:lv" v="Inovroclava"/>
    <tag k="name:ru" v="Иновроцлав"/>
    <tag k="place" v="town"/>
    <tag k="population" v="76666"/>
    <tag k="teryt:terc" v="0407011"/>
    <tag k="wikipedia" v="Inowrocław"/>
  </node>
  <node id="229987043" version="7" timestamp="2009-12-24T11:04:00Z" uid="203293" user="mard91" changeset="3441245" lat="52.7937917" lon="18.2556505">
    <tag k="addr:postcode" v="88-100"/>
    <tag k="is_in" v="Inowrocław, Kuyavia-Pomerania, Poland, EU"/>
    <tag k="is_in:continent" v="Europe"/>
    <tag k="is_in:county" v="powiat inowrocławski"/>
    <tag k="is_in:municipality" v="gmina Inowrocław"/>
    <tag k="is_in:province" v="województwo kujawsko-pomorskie"/>
    <tag k="name" v="Inowrocław"/>
    <tag k="name:de" v="Inowrazlaw/Hohensalza"/>
    <tag k="name:lv" v="Inovroclava"/>
    <tag k="name:ru" v="Иновроцлав"/>
    <tag k="place" v="city"/>
    <tag k="population" v="76666"/>
    <tag k="teryt:terc" v="0407011"/>
    <tag k="wikipedia" v="Inowrocław"/>
  </node>
  <node id="229987043" version="8" timestamp="2010-04-11T04:37:46Z" uid="20587" user="balrog-kun" changeset="4389130" lat="52.7937917" lon="18.2556505">
    <tag k="addr:postcode" v="88-100"/>
    <tag k="is_in" v="Inowrocław, Kuyavia-Pomerania, Poland, EU"/>
    <tag k="is_in:continent" v="Europe"/>
    <tag k="is_in:county" v="powiat inowrocławski"/>
    <tag k="is_in:municipality" v="gmina Inowrocław"/>
    <tag k="is_in:province" v="województwo kujawsko-pomorskie"/>
    <tag k="name" v="Inowrocław"/>
    <tag k="name:de" v="Inowrazlaw/Hohensalza"/>
    <tag k="name:lv" v="Inovroclava"/>
    <tag k="name:ru" v="Иновроцлав"/>
    <tag k="place" v="city"/>
    <tag k="population" v="76666"/>
    <tag k="teryt:terc" v="0407011"/>
    <tag k="wikipedia" v="Inowrocław"/>
  </node>
  <node id="229987043" version="9" timestamp="2010-04-27T04:09:27Z" uid="30632" user="antblant" changeset="4537879" lat="52.7937917" lon="18.2556505">
    <tag k="addr:postcode" v="88-100"/>
    <tag k="is_in" v="Inowrocław, Kuyavia-Pomerania, Poland, EU"/>
    <tag k="is_in:continent" v="Europe"/>
    <tag k="is_in:county" v="powiat inowrocławski"/>
    <tag k="is_in:municipality" v="gmina Inowrocław"/>
    <tag k="is_in:province" v="województwo kujawsko-pomorskie"/>
    <tag k="name" v="Inowrocław"/>
    <tag k="name:de" v="Inowrazlaw/Hohensalza"/>
    <tag k="name:lv" v="Inovroclava"/>
    <tag k="name:ru" v="Иновроцлав"/>
    <tag k="place" v="city"/>
    <tag k="population" v="76666"/>
    <tag k="teryt:simc" v="0928989"/>
    <tag k="teryt:terc" v="0407011"/>
    <tag k="wikipedia" v="Inowrocław"/>
  </node>
  <node id="229987043" version="10" timestamp="2010-12-05T15:34:58Z" uid="91056" user="Yarl" changeset="6552034" lat="52.7952408" lon="18.2595624">
    <tag k="addr:postcode" v="88-100"/>
    <tag k="is_in" v="Inowrocław, Kuyavia-Pomerania, Poland, EU"/>
    <tag k="is_in:continent" v="Europe"/>
    <tag k="is_in:county" v="powiat inowrocławski"/>
    <tag k="is_in:municipality" v="gmina Inowrocław"/>
    <tag k="is_in:province" v="województwo kujawsko-pomorskie"/>
    <tag k="name" v="Inowrocław"/>
    <tag k="name:de" v="Inowrazlaw/Hohensalza"/>
    <tag k="name:lv" v="Inovroclava"/>
    <tag k="name:ru" v="Иновроцлав"/>
    <tag k="place" v="city"/>
    <tag k="population" v="76666"/>
    <tag k="teryt:simc" v="0928989"/>
    <tag k="teryt:terc" v="0407011"/>
    <tag k="wikipedia" v="Inowrocław"/>
  </node>
  <node id="229987043" version="11" timestamp="2011-07-21T13:20:27Z" uid="306326" user="Yaro" changeset="8788549" lat="52.7952408" lon="18.2595624">
    <tag k="addr:postcode" v="88-100"/>
    <tag k="is_in" v="województwo kujawsko-pomorskie, Poland"/>
    <tag k="is_in:continent" v="Europe"/>
    <tag k="is_in:county" v="powiat inowrocławski"/>
    <tag k="is_in:municipality" v="gmina Inowrocław"/>
    <tag k="is_in:province" v="województwo kujawsko-pomorskie"/>
    <tag k="name" v="Inowrocław"/>
    <tag k="name:de" v="Inowrazlaw/Hohensalza"/>
    <tag k="name:lv" v="Inovroclava"/>
    <tag k="name:ru" v="Иновроцлав"/>
    <tag k="place" v="city"/>
    <tag k="population" v="76666"/>
    <tag k="teryt:simc" v="0928989"/>
    <tag k="teryt:terc" v="0407011"/>
    <tag k="wikipedia" v="Inowrocław"/>
  </node>
  <node id="229987068" version="2" timestamp="2010-03-19T05:52:19Z" uid="30632" user="antblant" changeset="4167351" lat="52.8017521" lon="18.2404418">
    <tag k="created_by" v="JOSM"/>
  </node>
  <node id="229987125" version="3" timestamp="2010-04-05T15:57:26Z" uid="163746" user="anti_bot-nonsense" changeset="4334877" lat="52.7687427" lon="18.2458891"/>
  <node id="229987131" version="2" timestamp="2010-04-05T16:33:34Z" uid="163746" user="anti_bot-nonsense" changeset="4334877" lat="52.7785413" lon="18.2046554"/>
  <node id="229987135" version="2" timestamp="2010-04-05T16:12:24Z" uid="163746" user="anti_bot-nonsense" changeset="4334877" lat="52.7764503" lon="18.2137662"/>
  <node id="229987043" version="12" timestamp="2012-05-18T21:33:40Z" uid="152074" user="beweta" changeset="11637793" lat="52.7952408" lon="18.2595624">
    <tag k="addr:postcode" v="88-100"/>
    <tag k="alt_name:de" v="Jungbreslau"/>
    <tag k="is_in" v="województwo kujawsko-pomorskie, Poland"/>
    <tag k="is_in:continent" v="Europe"/>
    <tag k="is_in:county" v="powiat inowrocławski"/>
    <tag k="is_in:municipality" v="gmina Inowrocław"/>
    <tag k="is_in:province" v="województwo kujawsko-pomorskie"/>
    <tag k="name" v="Inowrocław"/>
    <tag k="name:de" v="Hohensalza"/>
    <tag k="name:lv" v="Inovroclava"/>
    <tag k="name:ru" v="Иновроцлав"/>
    <tag k="old_name:de" v="Inowrazlaw"/>
    <tag k="place" v="city"/>
    <tag k="population" v="76666"/>
    <tag k="teryt:simc" v="0928989"/>
    <tag k="teryt:terc" v="0407011"/>
    <tag k="wikipedia" v="Inowrocław"/>
  </node>
</osm>
