<?xml version='1.0' encoding='UTF-8'?>
<osm version="0.6" generator="libosmium/2.20.0">
  <node id="231422361" version="2" timestamp="2009-12-09T20:09:31Z" uid="200463" user="harmagedon" changeset="3336536" lat="50.8938373" lon="14.6620808">
    <tag k="sport" v="soccer"/>
  </node>
  <node id="231422361" version="3" timestamp="2011-08-07T18:14:27Z" uid="35618" user="schorsch" changeset="8950182" lat="50.8938373" lon="14.6620808"/>
  <node id="231422637" version="4" timestamp="2010-08-21T19:43:42Z" uid="6269" user="Mueck" changeset="5554953" lat="53.4988085" lon="8.9729169">
    <tag k="name" v="Heinschenwalde"/>
    <tag k="railway" v="station"/>
    <tag k="uic_name" v="Heinschenwalde"/>
    <tag k="uic_ref" v="8007807"/>
  </node>
  <node id="231422637" version="5" timestamp="2010-08-21T19:43:49Z" uid="6269" user="Mueck" changeset="5554953" lat="53.4986553" lon="8.9727452">
    <tag k="name" v="Heinschenwalde"/>
    <tag k="railway" v="station"/>
    <tag k="uic_name" v="Heinschenwalde"/>
    <tag k="uic_ref" v="8007807"/>
  </node>
  <node id="231422637" version="6" timestamp="2011-12-28T18:08:09Z" uid="290680" user="wheelmap_visitor" changeset="10222046" lat="53.4986553" lon="8.9727452">
    <tag k="name" v="Heinschenwalde"/>
    <tag k="railway" v="station"/>
    <tag k="uic_name" v="Heinschenwalde"/>
    <tag k="uic_ref" v="8007807"/>
    <tag k="wheelchair" v="yes"/>
  </node>
  <node id="231422637" version="7" timestamp="2012-06-06T16:12:38Z" uid="206185" user="SiegiB" changeset="11817139" lat="53.4987317" lon="8.9728094">
    <tag k="name" v="Heinschenwalde"/>
    <tag k="railway" v="station"/>
    <tag k="uic_name" v="Heinschenwalde"/>
    <tag k="uic_ref" v="8007807"/>
    <tag k="wheelchair" v="yes"/>
  </node>
</osm>
