<?xml version='1.0' encoding='UTF-8'?>
<osm version="0.6" generator="libosmium/2.20.0">
  <node id="232336985" version="2" timestamp="2008-02-16T19:31:23Z" uid="6975" user="ulfl" changeset="141861" lat="51.5428421" lon="-0.1502253">
    <tag k="name" v="Morrissons"/>
    <tag k="shop" v="supermarket"/>
  </node>
  <node id="232336985" version="3" timestamp="2008-07-28T11:33:25Z" uid="54840" user="grantk" changeset="617950" lat="51.5428764" lon="-0.1500564">
    <tag k="created_by" v="Potlatch 0.10"/>
    <tag k="name" v="Morrissons"/>
    <tag k="shop" v="supermarket"/>
  </node>
  <node id="232336985" version="4" timestamp="2008-07-28T11:34:18Z" uid="54840" user="grantk" changeset="617950" lat="51.5428764" lon="-0.1500564">
    <tag k="created_by" v="Potlatch 0.10"/>
    <tag k="name" v="Morrisons"/>
    <tag k="shop" v="petrol station"/>
  </node>
  <node id="232336985" version="5" timestamp="2008-09-06T02:50:11Z" uid="1185" user="dankarran" changeset="550917" lat="51.5428783" lon="-0.1500598">
    <tag k="amenity" v="fuel"/>
    <tag k="created_by" v="Potlatch 0.10b"/>
    <tag k="name" v="Morrisons"/>
    <tag k="shop" v="petrol station"/>
  </node>
  <node id="232336985" version="6" timestamp="2008-10-23T06:00:11Z" uid="6975" user="ulfl" changeset="525020" lat="51.5428783" lon="-0.1500598">
    <tag k="amenity" v="fuel"/>
    <tag k="name" v="Morrisons"/>
  </node>
  <node id="232336985" version="7" timestamp="2010-09-18T19:57:36Z" uid="299971" user="woollypigs" changeset="5814589" lat="51.5428404" lon="-0.1497551">
    <tag k="amenity" v="fuel"/>
    <tag k="name" v="Morrisons"/>
  </node>
  <node id="232336985" version="8" timestamp="2012-03-14T23:02:53Z" uid="165061" user="mapper999" changeset="10983453" lat="51.5428404" lon="-0.1497551">
    <tag k="amenity" v="fuel"/>
    <tag k="brand" v="Independent"/>
    <tag k="name" v="Morrisons"/>
  </node>
  <node id="232336985" version="9" timestamp="2012-08-12T22:45:03Z" uid="290680" user="wheelmap_visitor" changeset="12707912" lat="51.5428404" lon="-0.1497551">
    <tag k="amenity" v="fuel"/>
    <tag k="brand" v="Independent"/>
    <tag k="name" v="Morrisons"/>
    <tag k="wheelchair" v="yes"/>
  </node>
</osm>
