<?xml version='1.0' encoding='UTF-8'?>
<osm version="0.6" generator="libosmium/2.20.0">
  <node id="233308921" version="2" timestamp="2008-09-14T20:01:05Z" uid="6975" user="ulfl" changeset="640534" lat="50.9587485" lon="6.9183731">
    <tag k="amenity" v="bank"/>
    <tag k="atm" v="yes"/>
    <tag k="name" v="Sparkasse"/>
    <tag k="source" v="survey"/>
  </node>
  <node id="233308921" version="3" timestamp="2009-06-26T09:39:11Z" uid="16478" user="Raymond" changeset="1638702" lat="50.9587534" lon="6.9185349">
    <tag k="amenity" v="bank"/>
    <tag k="atm" v="yes"/>
    <tag k="name" v="Sparkasse"/>
    <tag k="source" v="survey"/>
  </node>
  <node id="233308921" version="4" timestamp="2010-11-01T08:31:16Z" uid="290680" user="wheelmap_visitor" changeset="6251487" lat="50.9587534" lon="6.9185349">
    <tag k="amenity" v="bank"/>
    <tag k="atm" v="yes"/>
    <tag k="name" v="Sparkasse"/>
    <tag k="source" v="survey"/>
    <tag k="wheelchair" v="yes"/>
  </node>
  <node id="233308921" version="5" timestamp="2012-04-10T11:24:27Z" uid="655012" user="Namii" changeset="11250600" lat="50.9587534" lon="6.9185349">
    <tag k="amenity" v="atm"/>
    <tag k="atm" v="yes"/>
    <tag k="name" v="Sparkasse"/>
    <tag k="source" v="survey"/>
    <tag k="wheelchair" v="yes"/>
  </node>
</osm>
