<?xml version='1.0' encoding='UTF-8'?>
<osm version="0.6" generator="libosmium/2.20.0">
  <node id="234331464" version="3" timestamp="2009-10-07T16:16:06Z" uid="86259" user="hasse_osm_korinthenkacker" changeset="2773292" lat="54.7833674" lon="9.4202521">
    <tag k="amenity" v="school"/>
    <tag k="name" v="Städtische Handelslehranstalt"/>
  </node>
  <node id="234331464" version="4" timestamp="2009-11-28T12:54:16Z" uid="65128" user="alfa91" changeset="3235586" lat="54.7833673" lon="9.420252">
    <tag k="addr:housenumber" v="5"/>
    <tag k="addr:postcode" v="24937"/>
    <tag k="addr:street" v="Marienallee"/>
    <tag k="amenity" v="school"/>
    <tag k="name" v="Städtische Handelslehranstalt"/>
  </node>
  <node id="234331464" version="5" timestamp="2012-06-14T17:28:01Z" uid="40397" user="Zartbitter" changeset="11897241" lat="54.7828893" lon="9.4210379">
    <tag k="addr:housenumber" v="5"/>
    <tag k="addr:postcode" v="24937"/>
    <tag k="addr:street" v="Marienallee"/>
    <tag k="amenity" v="school"/>
    <tag k="name" v="Städtische Handelslehranstalt"/>
  </node>
  <node id="234331464" version="6" timestamp="2012-06-16T09:09:57Z" uid="40397" user="Zartbitter" changeset="11912412" lat="54.7828893" lon="9.4210379">
    <tag k="addr:city" v="Flensburg"/>
    <tag k="addr:country" v="DE"/>
    <tag k="addr:housenumber" v="5"/>
    <tag k="addr:postcode" v="24937"/>
    <tag k="addr:street" v="Marienallee"/>
    <tag k="amenity" v="school"/>
    <tag k="loc_name" v="HLA"/>
    <tag k="name" v="RBZ HLA – Die Flensburger Wirtschaftsschule"/>
    <tag k="old_name" v="Städtische Handelslehranstalt"/>
  </node>
</osm>
