<?xml version='1.0' encoding='UTF-8'?>
<osm version="0.6" generator="libosmium/2.20.0">
  <node id="235384018" version="3" timestamp="2008-09-14T20:02:03Z" uid="6975" user="ulfl" changeset="640534" lat="43.383921" lon="-3.7377561">
    <tag k="amenity" v="bank"/>
    <tag k="atm" v="yes"/>
    <tag k="name" v="La Caixa"/>
  </node>
  <node id="235384023" version="3" timestamp="2008-09-14T20:02:01Z" uid="6975" user="ulfl" changeset="640534" lat="43.3841037" lon="-3.7373924">
    <tag k="amenity" v="bank"/>
    <tag k="atm" v="yes"/>
    <tag k="name" v="Banco Santander"/>
  </node>
  <node id="235384040" version="2" timestamp="2008-09-14T20:02:10Z" uid="6975" user="ulfl" changeset="640534" lat="43.3835533" lon="-3.7368553">
    <tag k="amenity" v="bank"/>
    <tag k="atm" v="yes"/>
  </node>
  <node id="235384040" version="3" timestamp="2008-11-29T12:14:34Z" uid="6389" user="Jesús Gómez" changeset="809170" lat="43.3836322" lon="-3.7369172">
    <tag k="amenity" v="bank"/>
    <tag k="atm" v="yes"/>
  </node>
  <node id="235384040" version="4" timestamp="2009-08-06T15:36:02Z" uid="6389" user="Jesús Gómez" changeset="2057265" lat="43.3836322" lon="-3.7369172">
    <tag k="amenity" v="bank"/>
    <tag k="atm" v="yes"/>
    <tag k="name" v="BBVA"/>
  </node>
  <node id="235384244" version="2" timestamp="2008-09-14T20:03:21Z" uid="6975" user="ulfl" changeset="640534" lat="43.3835851" lon="-3.7370431">
    <tag k="amenity" v="bank"/>
    <tag k="atm" v="yes"/>
  </node>
  <node id="235384244" version="3" timestamp="2009-08-06T15:36:02Z" uid="6389" user="Jesús Gómez" changeset="2057265" lat="43.3835851" lon="-3.7370431">
    <tag k="amenity" v="bank"/>
    <tag k="atm" v="yes"/>
    <tag k="name" v="Caja Cantabria"/>
  </node>
  <node id="235384023" version="4" timestamp="2012-06-13T15:06:05Z" uid="6389" user="Jesús Gómez" changeset="11886036" lat="43.3841265" lon="-3.7373522">
    <tag k="amenity" v="bank"/>
    <tag k="atm" v="yes"/>
    <tag k="name" v="Banco Santander"/>
  </node>
</osm>
