<?xml version='1.0' encoding='UTF-8'?>
<osm version="0.6" generator="libosmium/2.20.0">
  <node id="23652865" version="4" timestamp="2010-03-05T20:07:50Z" uid="9581" user="Lobelt" changeset="4044097" lat="49.5091425" lon="8.6363372"/>
  <node id="23652865" version="5" timestamp="2012-01-03T00:56:12Z" uid="136321" user="Teddy73" changeset="10275967" lat="49.5091425" lon="8.6363374"/>
  <node id="23652870" version="4" timestamp="2010-03-05T20:07:50Z" uid="9581" user="Lobelt" changeset="4044097" lat="49.5090567" lon="8.636411"/>
  <node id="23652870" version="5" timestamp="2012-01-03T00:56:12Z" uid="136321" user="Teddy73" changeset="10275967" lat="49.5090562" lon="8.6364103"/>
  <node id="23652873" version="4" timestamp="2010-03-05T20:07:49Z" uid="9581" user="Lobelt" changeset="4044097" lat="49.5090322" lon="8.6364811"/>
  <node id="23652873" version="5" timestamp="2012-01-03T00:56:12Z" uid="136321" user="Teddy73" changeset="10275967" lat="49.5090319" lon="8.636481"/>
  <node id="23652876" version="4" timestamp="2010-03-05T20:07:49Z" uid="9581" user="Lobelt" changeset="4044097" lat="49.5090282" lon="8.6365711"/>
  <node id="23652876" version="5" timestamp="2012-01-03T00:56:12Z" uid="136321" user="Teddy73" changeset="10275967" lat="49.5090283" lon="8.6365711"/>
  <node id="23652879" version="4" timestamp="2010-03-05T20:07:50Z" uid="9581" user="Lobelt" changeset="4044097" lat="49.5090726" lon="8.6366905"/>
  <node id="23652879" version="5" timestamp="2012-01-03T00:56:12Z" uid="136321" user="Teddy73" changeset="10275967" lat="49.5090721" lon="8.6366915"/>
  <node id="23652943" version="2" timestamp="2007-12-14T23:01:11Z" uid="4667" user="MapZ" changeset="310342" lat="49.5107416" lon="8.6392904">
    <tag k="created_by" v="JOSM"/>
    <tag k="highway" v="motorway_junction"/>
    <tag k="name" v="Hirschberg"/>
  </node>
  <node id="23652943" version="3" timestamp="2008-05-17T13:51:12Z" uid="28378" user="PHerison" changeset="464974" lat="49.5107416" lon="8.6392904">
    <tag k="created_by" v="JOSM"/>
    <tag k="highway" v="motorway_junction"/>
    <tag k="name" v="Hirschberg"/>
    <tag k="ref" v="34"/>
  </node>
  <node id="23652943" version="4" timestamp="2010-01-29T21:25:08Z" uid="35560" user="HeikoE" changeset="3746575" lat="49.51111" lon="8.6392951">
    <tag k="highway" v="motorway_junction"/>
    <tag k="name" v="Hirschberg"/>
    <tag k="ref" v="34"/>
  </node>
  <node id="23652943" version="5" timestamp="2012-01-03T00:56:19Z" uid="136321" user="Teddy73" changeset="10275967" lat="49.51111" lon="8.6392951"/>
  <node id="23654979" version="2" timestamp="2009-10-03T14:03:45Z" uid="179968" user="Ich_hasse_doitsche_OSM-Korinthenkacker" changeset="2724228" lat="51.7953891" lon="10.4465712">
    <tag k="name" v="JH Altenau"/>
    <tag k="tourism" v="hostel"/>
  </node>
  <node id="23654979" version="3" timestamp="2010-07-08T16:33:23Z" uid="31130" user="Praetorius" changeset="5167531" lat="51.7956396" lon="10.4469391">
    <tag k="name" v="JH Altenau"/>
    <tag k="tourism" v="hostel"/>
  </node>
  <node id="23654979" version="4" timestamp="2011-06-24T16:48:53Z" uid="290680" user="wheelmap_visitor" changeset="8528990" lat="51.7956396" lon="10.4469391">
    <tag k="name" v="JH Altenau"/>
    <tag k="tourism" v="hostel"/>
    <tag k="wheelchair" v="limited"/>
  </node>
  <node id="23654979" version="5" timestamp="2012-01-30T13:08:04Z" uid="96752" user="alicula" changeset="10539629" lat="51.7958658" lon="10.4470787">
    <tag k="addr:city" v="Altenau"/>
    <tag k="addr:country" v="DE"/>
    <tag k="addr:housenumber" v="11"/>
    <tag k="addr:postcode" v="38707"/>
    <tag k="addr:street" v="Auf der Rose"/>
    <tag k="contact:website" v="http://www.3baeren.de"/>
    <tag k="name" v="Jugendhotel &quot;Drei Bären&quot;"/>
    <tag k="tourism" v="hostel"/>
    <tag k="wheelchair" v="limited"/>
  </node>
  <node id="23655268" version="3" timestamp="2008-12-17T22:07:50Z" uid="65847" user="LKK" changeset="448079" lat="51.0503946" lon="8.3894596">
    <tag k="created_by" v="Potlatch 0.4c"/>
    <tag k="name" v="(0)2751-7340"/>
    <tag k="tourism" v="hostel"/>
  </node>
  <node id="23655268" version="4" timestamp="2011-03-23T21:40:08Z" uid="105638" user="TAltemeier" changeset="7650779" lat="51.0503946" lon="8.3894596">
    <tag k="tourism" v="hostel"/>
  </node>
  <node id="23655268" version="5" timestamp="2011-10-17T13:09:26Z" uid="290680" user="wheelmap_visitor" changeset="9578325" lat="51.0503946" lon="8.3894596">
    <tag k="tourism" v="hostel"/>
    <tag k="wheelchair" v="limited"/>
  </node>
  <node id="23655384" version="4" timestamp="2007-10-28T10:47:12Z" uid="8975" user="magkes" changeset="342247" lat="51.8718355" lon="10.5554767">
    <tag k="created_by" v="Potlatch 0.4a"/>
    <tag k="name" v="-23.12."/>
    <tag k="tourism" v="hostel"/>
  </node>
  <node id="23655736" version="3" timestamp="2009-10-07T16:50:07Z" uid="86259" user="hasse_osm_korinthenkacker" changeset="2773624" lat="47.6265624" lon="12.9867997">
    <tag k="name" v="1."/>
    <tag k="tourism" v="hostel"/>
  </node>
  <node id="23655736" version="4" timestamp="2009-10-08T18:57:46Z" uid="86259" user="hasse_osm_korinthenkacker" changeset="2785814" lat="47.6265624" lon="12.9867997">
    <tag k="name" v="1."/>
    <tag k="tourism" v="hostel"/>
  </node>
  <node id="23656031" version="5" timestamp="2007-12-12T14:29:22Z" uid="5871" user="Banny" changeset="271580" lat="50.9670309" lon="7.6917426">
    <tag k="created_by" v="JOSM"/>
    <tag k="name" v="A4"/>
    <tag k="tourism" v="hostel"/>
  </node>
  <node id="23656031" version="6" timestamp="2010-04-12T14:55:07Z" uid="32786" user="Netzwolf" changeset="4405117" lat="50.9670309" lon="7.6917426">
    <tag k="FIXME" v="Hier ist freies Feld?"/>
    <tag k="name" v="A4"/>
    <tag k="tourism" v="hostel"/>
  </node>
  <node id="23656109" version="4" timestamp="2009-12-09T15:22:12Z" uid="200463" user="harmagedon" changeset="3334003" lat="49.0793225" lon="13.1099469">
    <tag k="name" v="1. und 27.12.-31.12."/>
    <tag k="tourism" v="hostel"/>
  </node>
  <node id="23656380" version="2" timestamp="2007-10-24T14:10:12Z" uid="9581" user="Lobelt" changeset="305513" lat="52.165627" lon="14.5683534">
    <tag k="created_by" v="Potlatch 0.4a"/>
    <tag k="name" v=" in der Zeit vom 01.11.-28.02."/>
    <tag k="tourism" v="hostel"/>
  </node>
  <node id="23656380" version="3" timestamp="2007-10-31T10:59:57Z" uid="9581" user="Lobelt" changeset="371313" lat="52.1656233" lon="14.5683477">
    <tag k="created_by" v="Potlatch 0.4b"/>
    <tag k="name" v=" in der Zeit vom 01.11.-28.02."/>
    <tag k="tourism" v="hostel"/>
  </node>
  <node id="23656380" version="4" timestamp="2008-08-17T12:51:53Z" uid="31231" user="Andre68" changeset="292980" lat="52.1656233" lon="14.5683477">
    <tag k="created_by" v="Potlatch 0.4b"/>
    <tag k="name" v="in der Zeit vom 01.11.-28.02."/>
    <tag k="tourism" v="hostel"/>
  </node>
  <node id="23656380" version="5" timestamp="2009-09-08T15:14:01Z" uid="163437" user="r-michael" changeset="2415112" lat="52.1656233" lon="14.5683477">
    <tag k="created_by" v="Potlatch 0.4b"/>
    <tag k="name" v="in der Zeit vom 01.11.-28.02."/>
    <tag k="tourism" v="hostel"/>
  </node>
  <node id="23656708" version="1" timestamp="2007-07-19T14:57:49Z" uid="9581" user="Lobelt" changeset="154433" lat="51.76199" lon="14.33371">
    <tag k="created_by" v="JOSM"/>
    <tag k="name" v="Jugendherberge am Klosterplatz"/>
    <tag k="tourism" v="hostel"/>
  </node>
  <node id="23656708" version="2" timestamp="2007-11-28T19:25:45Z" uid="19651" user="velofreak" changeset="642570" lat="51.7619924" lon="14.3337078">
    <tag k="created_by" v="Potlatch 0.5d"/>
    <tag k="name" v="Jugendherberge am Klosterplatz"/>
    <tag k="tourism" v="hostel"/>
  </node>
  <node id="23656708" version="3" timestamp="2007-11-28T19:25:56Z" uid="19651" user="velofreak" changeset="642570" lat="51.7619924" lon="14.3337078">
    <tag k="created_by" v="Potlatch 0.5d"/>
    <tag k="name" v="Jugendherberge am Klosterplatz"/>
    <tag k="tourism" v="hostel"/>
  </node>
  <node id="23656708" version="4" timestamp="2007-12-13T11:31:05Z" uid="9581" user="Lobelt" changeset="282237" lat="51.7620536" lon="14.3333741">
    <tag k="created_by" v="Potlatch 0.5d"/>
    <tag k="name" v="Jugendherberge am Klosterplatz"/>
    <tag k="tourism" v="hostel"/>
  </node>
  <node id="23656708" version="5" timestamp="2011-09-12T23:50:37Z" uid="28234" user="derandi" changeset="9285052" lat="51.7620536" lon="14.3333741"/>
  <node id="23657285" version="4" timestamp="2009-10-17T23:41:28Z" uid="36809" user="pfoten_weg_!_" changeset="2879001" lat="47.7087443" lon="11.4072028">
    <tag k="name" v="JH für Mädchen"/>
    <tag k="tourism" v="hostel"/>
  </node>
  <node id="23657285" version="5" timestamp="2009-11-26T14:16:09Z" uid="64756" user="alegria6208" changeset="3220560" lat="47.708655" lon="11.4069227">
    <tag k="name" v="JH für Mädchen"/>
    <tag k="tourism" v="hostel"/>
  </node>
  <node id="23657285" version="6" timestamp="2010-06-25T10:01:07Z" uid="309496" user="jwilli" changeset="5072356" lat="47.7108316" lon="11.3935048">
    <tag k="name" v="Erlebnisbiotope"/>
    <tag k="tourism" v="path"/>
  </node>
  <node id="23657285" version="7" timestamp="2011-03-07T17:56:16Z" uid="417684" user="Maler" changeset="7486556" lat="47.710369" lon="11.3943844">
    <tag k="name" v="Erlebnisbiotope"/>
    <tag k="tourism" v="path"/>
  </node>
  <node id="23657293" version="1" timestamp="2007-04-15T21:28:28Z" uid="4667" user="MapZ" changeset="15533" lat="47.57263" lon="10.65237">
    <tag k="created_by" v="JOSM"/>
    <tag k="name" v="JGH Füssen"/>
    <tag k="tourism" v="hostel"/>
  </node>
  <node id="23657348" version="6" timestamp="2009-12-09T15:20:40Z" uid="200463" user="harmagedon" changeset="3334003" lat="48.986522" lon="13.2994044">
    <tag k="name" v="Hauptstraße 29a"/>
    <tag k="tourism" v="hostel"/>
  </node>
  <node id="23657656" version="4" timestamp="2008-07-10T22:12:36Z" uid="6975" user="ulfl" changeset="457552" lat="51.8989577" lon="10.4186225">
    <tag k="name" v="Jugendherberge Goslar Rammelsberger Straße 25 38644 goslar"/>
    <tag k="tourism" v="youth_hostel"/>
  </node>
  <node id="23657656" version="5" timestamp="2008-07-10T22:12:43Z" uid="6975" user="ulfl" changeset="457552" lat="51.8989577" lon="10.4186225">
    <tag k="name" v="Jugendherberge Goslar Rammelsberger Straße 25 38644 goslar"/>
    <tag k="tourism" v="hostel"/>
  </node>
  <node id="23657656" version="6" timestamp="2008-07-10T22:13:13Z" uid="6975" user="ulfl" changeset="457552" lat="51.8989577" lon="10.4186225">
    <tag k="address" v="Rammelsberger Straße 25 38644 Goslar"/>
    <tag k="name" v="Jugendherberge Goslar"/>
    <tag k="tourism" v="hostel"/>
  </node>
  <node id="23657656" version="7" timestamp="2008-10-23T10:20:55Z" uid="8732" user="xylome2" changeset="531614" lat="51.8989577" lon="10.4186225">
    <tag k="addr:city" v="Goslar"/>
    <tag k="addr:housenumber" v="25"/>
    <tag k="addr:postcode" v="38644"/>
    <tag k="addr:street" v="Rammelsberger Straße"/>
    <tag k="name" v="Jugendherberge Goslar"/>
    <tag k="tourism" v="hostel"/>
  </node>
  <node id="23657656" version="8" timestamp="2008-10-26T18:28:24Z" uid="34682" user="Florian_A" changeset="585819" lat="51.8989409" lon="10.419145">
    <tag k="addr:city" v="Goslar"/>
    <tag k="addr:housenumber" v="25"/>
    <tag k="addr:postcode" v="38644"/>
    <tag k="addr:street" v="Rammelsberger Straße"/>
    <tag k="name" v="Jugendherberge Goslar"/>
    <tag k="tourism" v="hostel"/>
  </node>
  <node id="23657656" version="9" timestamp="2009-01-06T17:06:40Z" uid="16256" user="patzi" changeset="747484" lat="51.8989409" lon="10.419145">
    <tag k="addr:city" v="Goslar"/>
    <tag k="addr:country" v="DE"/>
    <tag k="addr:housenumber" v="25"/>
    <tag k="addr:postcode" v="38644"/>
    <tag k="addr:street" v="Rammelsberger Straße"/>
    <tag k="name" v="Jugendherberge Goslar"/>
    <tag k="tourism" v="hostel"/>
  </node>
  <node id="23657656" version="10" timestamp="2010-10-30T10:49:46Z" uid="290680" user="wheelmap_visitor" changeset="6224930" lat="51.8989409" lon="10.419145">
    <tag k="addr:city" v="Goslar"/>
    <tag k="addr:country" v="DE"/>
    <tag k="addr:housenumber" v="25"/>
    <tag k="addr:postcode" v="38644"/>
    <tag k="addr:street" v="Rammelsberger Straße"/>
    <tag k="name" v="Jugendherberge Goslar"/>
    <tag k="tourism" v="hostel"/>
    <tag k="wheelchair" v="yes"/>
  </node>
  <node id="23657656" version="11" timestamp="2011-03-14T17:12:08Z" uid="336460" user="robgeb" changeset="7558289" lat="51.8989725" lon="10.4191053">
    <tag k="addr:city" v="Goslar"/>
    <tag k="addr:country" v="DE"/>
    <tag k="addr:housenumber" v="25"/>
    <tag k="addr:postcode" v="38644"/>
    <tag k="addr:street" v="Rammelsberger Straße"/>
    <tag k="name" v="Jugendherberge Goslar"/>
    <tag k="tourism" v="hostel"/>
    <tag k="wheelchair" v="yes"/>
  </node>
  <node id="23657720" version="9" timestamp="2009-10-08T22:47:50Z" uid="179968" user="Ich_hasse_doitsche_OSM-Korinthenkacker" changeset="2788677" lat="53.4974527" lon="7.0808862">
    <tag k="name" v="Kleinbahnstraße 15"/>
    <tag k="tourism" v="hostel"/>
  </node>
  <node id="23657720" version="10" timestamp="2010-09-11T08:55:08Z" uid="194703" user="gulp21" changeset="5747902" lat="53.4974527" lon="7.0808862">
    <tag k="name" v="Kleinbahnstraße 15"/>
    <tag k="tourism" v="hostel"/>
  </node>
  <node id="23657831" version="1" timestamp="2007-07-15T20:37:26Z" uid="8975" user="magkes" changeset="145348" lat="51.84716" lon="10.33108">
    <tag k="created_by" v="JOSM"/>
    <tag k="name" v="5325-2256"/>
    <tag k="tourism" v="hostel"/>
  </node>
  <node id="23657847" version="1" timestamp="2007-09-19T20:30:49Z" uid="6454" user="B10xxx" changeset="472092" lat="50.0721154" lon="8.2548934">
    <tag k="created_by" v="JOSM"/>
  </node>
  <node id="23657847" version="2" timestamp="2009-08-21T07:43:59Z" uid="8464" user="MichaH" changeset="2220078" lat="50.0721154" lon="8.2548934"/>
  <node id="23657847" version="3" timestamp="2011-07-04T10:19:49Z" uid="205449" user="plettman" changeset="8627881" lat="50.0721296" lon="8.2548806"/>
  <node id="23657870" version="1" timestamp="2007-09-19T20:30:34Z" uid="6454" user="B10xxx" changeset="472092" lat="50.0718499" lon="8.2504247">
    <tag k="created_by" v="JOSM"/>
  </node>
  <node id="23657870" version="2" timestamp="2009-08-21T07:43:59Z" uid="8464" user="MichaH" changeset="2220078" lat="50.0718499" lon="8.2504247"/>
  <node id="23657870" version="3" timestamp="2010-09-17T08:42:49Z" uid="40023" user="ALE!" changeset="5801745" lat="50.0718499" lon="8.2504247">
    <tag k="highway" v="traffic_signals"/>
  </node>
  <node id="23657870" version="4" timestamp="2011-07-04T10:19:49Z" uid="205449" user="plettman" changeset="8627881" lat="50.0718747" lon="8.250429">
    <tag k="highway" v="traffic_signals"/>
  </node>
  <node id="23657884" version="2" timestamp="2008-01-18T01:37:03Z" uid="6454" user="B10xxx" changeset="658570" lat="50.063055" lon="8.2508654">
    <tag k="created_by" v="JOSM"/>
  </node>
  <node id="23657884" version="3" timestamp="2008-05-18T17:27:51Z" uid="28378" user="PHerison" changeset="472082" lat="50.063055" lon="8.2508654">
    <tag k="created_by" v="JOSM"/>
  </node>
  <node id="23657916" version="7" timestamp="2011-06-15T16:42:53Z" uid="33382" user="de_muur" changeset="8448646" lat="51.4273494" lon="9.63704"/>
  <node id="23657928" version="3" timestamp="2007-12-09T21:23:10Z" uid="13367" user="nubok" changeset="221297" lat="52.3991228" lon="9.855494">
    <tag k="created_by" v="Potlatch 0.5d"/>
    <tag k="name" v="049-(0)511-580537"/>
    <tag k="tourism" v="hostel"/>
  </node>
  <node id="23657928" version="4" timestamp="2011-03-03T06:31:21Z" uid="275044" user="kphklaus" changeset="7443233" lat="52.3991228" lon="9.855494">
    <tag k="created_by" v="Potlatch 0.5d"/>
    <tag k="name" v="049-(0)511-580537"/>
    <tag k="tourism" v="hostel"/>
  </node>
  <node id="23658259" version="4" timestamp="2008-11-11T15:57:32Z" uid="43863" user="Rundling" changeset="735418" lat="53.1575112" lon="10.9836525">
    <tag k="created_by" v="Potlatch 0.4a"/>
    <tag k="name" v="Wolfsschlucht 2"/>
    <tag k="tourism" v="hostel"/>
  </node>
  <node id="23658259" version="5" timestamp="2011-01-04T19:58:19Z" uid="43863" user="Rundling" changeset="6864979" lat="53.1575112" lon="10.9836525">
    <tag k="name" v="Wolfsschlucht 2"/>
    <tag k="tourism" v="hostel"/>
  </node>
  <node id="23658259" version="6" timestamp="2011-10-26T12:42:48Z" uid="54407" user="gis_jam" changeset="9659862" lat="53.1575112" lon="10.9836525"/>
  <node id="23658634" version="2" timestamp="2007-10-24T13:44:19Z" uid="9581" user="Lobelt" changeset="305513" lat="52.0782897" lon="13.80634">
    <tag k="created_by" v="Potlatch 0.4a"/>
    <tag k="name" v="ee"/>
    <tag k="tourism" v="hostel"/>
  </node>
  <node id="23658634" version="3" timestamp="2008-06-11T23:09:39Z" uid="41835" user="Martinus" changeset="145441" lat="52.0777456" lon="13.8079931">
    <tag k="created_by" v="Potlatch 0.9c"/>
    <tag k="name" v="ee"/>
    <tag k="tourism" v="hostel"/>
  </node>
  <node id="23658634" version="4" timestamp="2010-08-01T06:06:25Z" uid="66391" user="geozeisig" changeset="5367646" lat="52.0777456" lon="13.8079931">
    <tag k="name" v="Jugendherberge Köthener See"/>
    <tag k="tourism" v="hostel"/>
  </node>
  <node id="23658703" version="2" timestamp="2007-11-02T16:23:02Z" uid="9581" user="Lobelt" changeset="385488" lat="50.5528422" lon="11.0523107">
    <tag k="created_by" v="Potlatch 0.4c"/>
    <tag k="name" v="Bahnhofstr. 82"/>
    <tag k="tourism" v="hostel"/>
  </node>
  <node id="23658703" version="3" timestamp="2007-11-19T16:03:13Z" uid="9581" user="Lobelt" changeset="569136" lat="50.5531203" lon="11.0526712">
    <tag k="created_by" v="Potlatch 0.5a"/>
    <tag k="name" v="Bahnhofstr. 82"/>
    <tag k="tourism" v="hostel"/>
  </node>
  <node id="23658703" version="4" timestamp="2007-12-10T01:32:32Z" uid="5735" user="ColinMarquardt" changeset="234318" lat="50.554234" lon="11.0526063">
    <tag k="created_by" v="Potlatch 0.5a"/>
    <tag k="name" v="Bahnhofstr. 82"/>
    <tag k="tourism" v="hostel"/>
  </node>
  <node id="23658703" version="5" timestamp="2008-01-20T23:53:01Z" uid="5735" user="ColinMarquardt" changeset="677827" lat="50.554234" lon="11.0526063">
    <tag k="address" v="Bahnhofstr. 82"/>
    <tag k="created_by" v="Potlatch 0.5a"/>
    <tag k="name" v="Jugendherberge Katzhütte"/>
    <tag k="tourism" v="hostel"/>
  </node>
  <node id="23658703" version="6" timestamp="2008-10-15T12:45:38Z" uid="8732" user="xylome2" changeset="349221" lat="50.554234" lon="11.0526063">
    <tag k="addr:housenumber" v="82"/>
    <tag k="addr:street" v="Bahnhofstraße"/>
    <tag k="name" v="Jugendherberge Katzhütte"/>
    <tag k="tourism" v="hostel"/>
  </node>
  <node id="23658703" version="7" timestamp="2009-07-09T16:16:53Z" uid="2680" user="xylome" changeset="1781992" lat="50.554234" lon="11.0526063">
    <tag k="addr:housenumber" v="82"/>
    <tag k="addr:street" v="Bahnhofstraße"/>
    <tag k="name" v="Jugendherberge Katzhütte"/>
    <tag k="tourism" v="hostel"/>
  </node>
  <node id="23658703" version="8" timestamp="2010-01-05T20:56:04Z" uid="121448" user="JoeJoker" changeset="3548936" lat="50.554234" lon="11.0526063">
    <tag k="addr:housenumber" v="82"/>
    <tag k="addr:street" v="Bahnhofstraße"/>
    <tag k="name" v="Jugendherberge Katzhütte"/>
    <tag k="tourism" v="hostel"/>
  </node>
  <node id="23658888" version="2" timestamp="2007-10-24T11:56:23Z" uid="9581" user="Lobelt" changeset="305513" lat="51.925297" lon="13.8958985">
    <tag k="created_by" v="Potlatch 0.4a"/>
    <tag k="name" v="Gruppen erwünscht in der Zeit vom 01.11.-28.02."/>
    <tag k="tourism" v="hostel"/>
  </node>
  <node id="23658888" version="3" timestamp="2007-10-31T10:50:27Z" uid="9581" user="Lobelt" changeset="371313" lat="51.9252917" lon="13.8958985">
    <tag k="created_by" v="Potlatch 0.4b"/>
    <tag k="name" v="Gruppen erwünscht in der Zeit vom 01.11.-28.02."/>
    <tag k="tourism" v="hostel"/>
  </node>
  <node id="23658888" version="4" timestamp="2007-11-28T19:45:34Z" uid="16019" user="Thommse" changeset="641997" lat="51.9252877" lon="13.8958935">
    <tag k="created_by" v="Potlatch 0.5d"/>
    <tag k="name" v="Gruppen erwünscht in der Zeit vom 01.11.-28.02."/>
    <tag k="tourism" v="hostel"/>
  </node>
  <node id="23658888" version="5" timestamp="2009-05-09T23:46:11Z" uid="64433" user="green525" changeset="1134089" lat="51.9252877" lon="13.8958935">
    <tag k="created_by" v="Potlatch 0.5d"/>
    <tag k="name" v="Gruppen erwünscht in der Zeit vom 01.11.-28.02."/>
    <tag k="tourism" v="hostel"/>
  </node>
  <node id="23658956" version="4" timestamp="2007-11-19T15:42:10Z" uid="9581" user="Lobelt" changeset="569136" lat="50.6595477" lon="12.0908534">
    <tag k="created_by" v="Potlatch 0.5a"/>
    <tag k="name" v="12.-22.12."/>
    <tag k="tourism" v="hostel"/>
  </node>
  <node id="23658956" version="5" timestamp="2007-11-29T08:51:28Z" uid="18861" user="Kranich71" changeset="643874" lat="50.6595505" lon="12.0908618">
    <tag k="created_by" v="Potlatch 0.5d"/>
    <tag k="name" v="12.-22.12."/>
    <tag k="tourism" v="hostel"/>
  </node>
  <node id="23658956" version="6" timestamp="2007-11-30T16:55:29Z" uid="18861" user="Kranich71" changeset="650245" lat="50.6595505" lon="12.0908704">
    <tag k="created_by" v="Potlatch 0.5d"/>
    <tag k="name" v="12.-22.12."/>
    <tag k="tourism" v="hostel"/>
  </node>
  <node id="23658956" version="7" timestamp="2008-09-13T09:32:54Z" uid="50733" user="Jürgen Kanis" changeset="625376" lat="50.6595505" lon="12.0908704">
    <tag k="created_by" v="Potlatch 0.5d"/>
    <tag k="name" v="12.-22.12."/>
    <tag k="tourism" v="hostel"/>
  </node>
  <node id="23659197" version="1" timestamp="2007-08-11T18:12:01Z" uid="5871" user="Banny" changeset="204592" lat="51.01661" lon="7.38287">
    <tag k="created_by" v="JOSM"/>
    <tag k="name" v="2."/>
    <tag k="tourism" v="hostel"/>
  </node>
  <node id="23659221" version="3" timestamp="2009-09-14T08:03:44Z" uid="6975" user="ulfl" changeset="2478781" lat="48.21717" lon="8.85404">
    <tag k="name" v="J.H.-Lochen"/>
    <tag k="telephone" v="0049-(0)7433-37383"/>
    <tag k="tourism" v="hostel"/>
  </node>
  <node id="23659221" version="4" timestamp="2010-02-15T20:56:45Z" uid="78656" user="Walter Schlögl" changeset="3886854" lat="48.21717" lon="8.85404">
    <tag k="name" v="J.H.-Lochen"/>
    <tag k="phone" v="0049-(0)7433-37383"/>
    <tag k="tourism" v="hostel"/>
  </node>
  <node id="23659221" version="5" timestamp="2012-03-28T20:42:30Z" uid="90689" user="HansJ" changeset="11131100" lat="48.21717" lon="8.85404"/>
  <node id="23659367" version="4" timestamp="2008-02-16T23:17:00Z" uid="6975" user="ulfl" changeset="141861" lat="48.099591" lon="11.5436328">
    <tag k="name" v="rn.de"/>
    <tag k="tourism" v="hostel"/>
  </node>
  <node id="23659367" version="5" timestamp="2008-06-27T12:48:44Z" uid="37850" user="mawis" changeset="310325" lat="48.099591" lon="11.5436328">
    <tag k="name" v="Jugendherberge München-Park"/>
    <tag k="tourism" v="hostel"/>
  </node>
  <node id="23659367" version="6" timestamp="2008-07-20T19:29:16Z" uid="8748" user="ToniE" changeset="551045" lat="48.0993365" lon="11.5435456">
    <tag k="name" v="Jugendherberge München-Park"/>
    <tag k="tourism" v="hostel"/>
  </node>
  <node id="23659367" version="7" timestamp="2008-10-01T01:37:53Z" uid="36809" user="pfoten_weg_!_" changeset="5644" lat="48.0993365" lon="11.5435456">
    <tag k="name" v="Jugendherberge München-Park"/>
    <tag k="tourism" v="hostel"/>
  </node>
  <node id="23659367" version="8" timestamp="2009-02-15T12:48:17Z" uid="36809" user="pfoten_weg_!_" changeset="463903" lat="48.0993365" lon="11.5435456">
    <tag k="created_by" v="RambaZamba"/>
    <tag k="name" v="Jugendherberge München-Park"/>
    <tag k="source" v="survey"/>
    <tag k="tourism" v="hostel"/>
  </node>
  <node id="23659367" version="9" timestamp="2009-03-10T19:09:28Z" uid="8748" user="ToniE" changeset="777543" lat="48.0993365" lon="11.5435456">
    <tag k="created_by" v="RambaZamba"/>
    <tag k="name" v="Jugendherberge München-Thalkirchen"/>
    <tag k="source" v="survey"/>
    <tag k="tourism" v="hostel"/>
  </node>
  <node id="23659367" version="10" timestamp="2009-08-12T12:35:27Z" uid="156995" user="HampelZamba" changeset="2118306" lat="48.0993365" lon="11.5435456">
    <tag k="name" v="Jugendherberge München-Thalkirchen"/>
    <tag k="source" v="survey"/>
    <tag k="tourism" v="hostel"/>
  </node>
  <node id="23659367" version="11" timestamp="2009-08-31T21:09:14Z" uid="36809" user="pfoten_weg_!_" changeset="2331411" lat="48.0993365" lon="11.5435456">
    <tag k="name" v="Jugendherberge München-Thalkirchen"/>
    <tag k="source" v="survey"/>
    <tag k="tourism" v="hostel"/>
  </node>
  <node id="23659367" version="12" timestamp="2009-10-13T23:40:02Z" uid="36809" user="pfoten_weg_!_" changeset="2841273" lat="48.0993365" lon="11.5435456">
    <tag k="name" v="Jugendherberge München-Thalkirchen"/>
    <tag k="tourism" v="hostel"/>
  </node>
  <node id="23652865" version="6" timestamp="2012-07-23T08:32:29Z" uid="6390" user="grenzdebil_bonn" changeset="12446081" lat="49.5091423" lon="8.6363341"/>
  <node id="23652870" version="6" timestamp="2012-07-23T08:32:29Z" uid="6390" user="grenzdebil_bonn" changeset="12446081" lat="49.5090516" lon="8.6364041"/>
  <node id="23652873" version="6" timestamp="2012-07-23T08:32:29Z" uid="6390" user="grenzdebil_bonn" changeset="12446081" lat="49.5090247" lon="8.6364774"/>
  <node id="23652876" version="6" timestamp="2012-07-17T02:17:35Z" uid="722137" user="OSMF Redaction Account" changeset="12255273" lat="49.5090014" lon="8.6365668"/>
  <node id="23652876" version="7" timestamp="2012-07-23T08:32:29Z" uid="6390" user="grenzdebil_bonn" changeset="12446081" lat="49.5090192" lon="8.6365637"/>
  <node id="23652879" version="6" timestamp="2012-07-23T08:32:29Z" uid="6390" user="grenzdebil_bonn" changeset="12446081" lat="49.5090674" lon="8.6367003"/>
  <node id="23655268" version="6" timestamp="2012-07-17T03:55:21Z" uid="722137" user="OSMF Redaction Account" changeset="12256436" lat="51.0504047" lon="8.3894275">
    <tag k="tourism" v="hostel"/>
    <tag k="wheelchair" v="limited"/>
  </node>
  <node id="23656031" version="7" timestamp="2012-08-13T18:02:04Z" uid="766084" user="nordensüdenostenwesten" changeset="12717347" lat="50.9670309" lon="7.6917426"/>
  <node id="23656109" version="5" timestamp="2012-07-15T17:19:05Z" uid="94213" user="gps-newcomer" changeset="12232827" lat="49.0793225" lon="13.1099469"/>
  <node id="23657656" version="12" timestamp="2012-07-19T09:47:11Z" uid="722137" user="OSMF Redaction Account" changeset="12316790" lat="51.8989725" lon="10.4191053">
    <tag k="addr:city" v="Goslar"/>
    <tag k="addr:country" v="DE"/>
    <tag k="addr:housenumber" v="25"/>
    <tag k="addr:postcode" v="38644"/>
    <tag k="addr:street" v="Rammelsberger Straße"/>
    <tag k="tourism" v="hostel"/>
    <tag k="wheelchair" v="yes"/>
  </node>
  <node id="23657656" version="13" timestamp="2012-08-03T23:35:33Z" uid="633253" user="a3nm" changeset="12604092" lat="51.8989725" lon="10.4191053">
    <tag k="addr:city" v="Goslar"/>
    <tag k="addr:country" v="DE"/>
    <tag k="addr:housenumber" v="25"/>
    <tag k="addr:postcode" v="38644"/>
    <tag k="addr:street" v="Rammelsberger Straße"/>
    <tag k="internet_access" v="wlan,terminal"/>
    <tag k="tourism" v="hostel"/>
    <tag k="wheelchair" v="yes"/>
  </node>
  <node id="23657656" version="14" timestamp="2012-09-02T13:58:42Z" uid="290680" user="wheelmap_visitor" changeset="12950045" lat="51.8989725" lon="10.4191053">
    <tag k="addr:city" v="Goslar"/>
    <tag k="addr:country" v="DE"/>
    <tag k="addr:housenumber" v="25"/>
    <tag k="addr:postcode" v="38644"/>
    <tag k="addr:street" v="Rammelsberger Straße"/>
    <tag k="internet_access" v="wlan,terminal"/>
    <tag k="tourism" v="hostel"/>
    <tag k="wheelchair" v="yes"/>
  </node>
  <node id="23657847" version="4" timestamp="2012-04-05T22:16:02Z" uid="205449" user="plettman" changeset="11195296" lat="50.0721194" lon="8.2548821"/>
  <node id="23657870" version="5" timestamp="2012-04-05T22:16:02Z" uid="205449" user="plettman" changeset="11195296" lat="50.0718667" lon="8.2504304">
    <tag k="highway" v="traffic_signals"/>
  </node>
</osm>
