<?xml version='1.0' encoding='UTF-8'?>
<osm version="0.6" generator="libosmium/2.20.0">
  <node id="23703985" version="2" timestamp="2008-02-13T14:41:46Z" uid="6269" user="Mueck" changeset="113724" lat="48.981182" lon="8.4038422">
    <tag k="created_by" v="JOSM"/>
    <tag k="name" v="Schloß Rüppurr"/>
    <tag k="railway" v="halt"/>
  </node>
  <node id="23703985" version="3" timestamp="2009-02-19T21:55:21Z" uid="64482" user="Claas Augner" changeset="563747" lat="48.981182" lon="8.4038422">
    <tag k="created_by" v="JOSM"/>
    <tag k="name" v="Schloss Rüppurr"/>
    <tag k="railway" v="halt"/>
    <tag k="uic_ref" v="721435"/>
  </node>
  <node id="23703985" version="4" timestamp="2009-07-20T05:21:49Z" uid="16330" user="aluka" changeset="1880819" lat="48.981182" lon="8.4038422">
    <tag k="light_rail" v="yes"/>
    <tag k="name" v="Schloss Rüppurr"/>
    <tag k="public_transport" v="stop_position"/>
    <tag k="railway" v="halt"/>
    <tag k="uic_ref" v="721435"/>
  </node>
  <node id="23703985" version="5" timestamp="2011-01-26T16:07:18Z" uid="6269" user="Mueck" changeset="7094659" lat="48.9812233" lon="8.4038017">
    <tag k="light_rail" v="yes"/>
    <tag k="name" v="Schloss Rüppurr"/>
    <tag k="public_transport" v="stop_position"/>
    <tag k="railway" v="halt"/>
    <tag k="uic_ref" v="721435"/>
  </node>
  <node id="23703985" version="6" timestamp="2011-03-30T17:47:05Z" uid="290680" user="wheelmap_visitor" changeset="7718241" lat="48.9812233" lon="8.4038017">
    <tag k="light_rail" v="yes"/>
    <tag k="name" v="Schloss Rüppurr"/>
    <tag k="public_transport" v="stop_position"/>
    <tag k="railway" v="halt"/>
    <tag k="uic_ref" v="721435"/>
    <tag k="wheelchair" v="no"/>
  </node>
  <node id="23703989" version="3" timestamp="2011-01-26T16:07:53Z" uid="6269" user="Mueck" changeset="7094659" lat="48.9809521" lon="8.4038971"/>
  <node id="23703994" version="3" timestamp="2011-01-26T16:07:54Z" uid="6269" user="Mueck" changeset="7094659" lat="48.9819494" lon="8.4037148"/>
  <node id="23707296" version="2" timestamp="2008-02-13T14:41:46Z" uid="6269" user="Mueck" changeset="113724" lat="48.9847996" lon="8.403577">
    <tag k="created_by" v="JOSM"/>
    <tag k="name" v="Dammerstock"/>
    <tag k="railway" v="halt"/>
  </node>
  <node id="23707296" version="3" timestamp="2009-02-19T21:55:20Z" uid="64482" user="Claas Augner" changeset="563747" lat="48.9847996" lon="8.403577">
    <tag k="created_by" v="JOSM"/>
    <tag k="name" v="Dammerstock"/>
    <tag k="railway" v="halt"/>
    <tag k="uic_ref" v="723865"/>
  </node>
  <node id="23707296" version="4" timestamp="2009-07-20T05:21:49Z" uid="16330" user="aluka" changeset="1880819" lat="48.9847996" lon="8.403577">
    <tag k="light_rail" v="yes"/>
    <tag k="name" v="Dammerstock"/>
    <tag k="public_transport" v="stop_position"/>
    <tag k="railway" v="halt"/>
    <tag k="uic_ref" v="723865"/>
  </node>
  <node id="23707296" version="5" timestamp="2011-01-26T13:43:22Z" uid="6269" user="Mueck" changeset="7092640" lat="48.9847154" lon="8.403633">
    <tag k="light_rail" v="yes"/>
    <tag k="name" v="Dammerstock"/>
    <tag k="public_transport" v="stop_position"/>
    <tag k="railway" v="halt"/>
    <tag k="uic_ref" v="723865"/>
  </node>
  <node id="23707296" version="6" timestamp="2011-03-30T17:47:02Z" uid="290680" user="wheelmap_visitor" changeset="7718241" lat="48.9847154" lon="8.403633">
    <tag k="light_rail" v="yes"/>
    <tag k="name" v="Dammerstock"/>
    <tag k="public_transport" v="stop_position"/>
    <tag k="railway" v="halt"/>
    <tag k="uic_ref" v="723865"/>
    <tag k="wheelchair" v="no"/>
  </node>
  <node id="23707296" version="7" timestamp="2012-02-17T20:35:58Z" uid="60137" user="michael2402" changeset="10714902" lat="48.9847023" lon="8.4036383">
    <tag k="light_rail" v="yes"/>
    <tag k="name" v="Dammerstock"/>
    <tag k="public_transport" v="stop_position"/>
    <tag k="railway" v="halt"/>
    <tag k="uic_ref" v="723865"/>
    <tag k="wheelchair" v="no"/>
  </node>
  <node id="23707302" version="3" timestamp="2011-01-26T13:43:23Z" uid="6269" user="Mueck" changeset="7092640" lat="48.9832116" lon="8.40364"/>
  <node id="23707302" version="4" timestamp="2011-01-26T15:55:00Z" uid="6269" user="Mueck" changeset="7094659" lat="48.9832116" lon="8.40364"/>
  <node id="23707337" version="3" timestamp="2011-01-26T15:54:56Z" uid="6269" user="Mueck" changeset="7094659" lat="48.9823316" lon="8.4036541"/>
  <node id="23707337" version="4" timestamp="2011-01-26T16:07:54Z" uid="6269" user="Mueck" changeset="7094659" lat="48.9823316" lon="8.4036541"/>
  <node id="23707423" version="3" timestamp="2011-01-26T13:19:16Z" uid="6269" user="Mueck" changeset="7092640" lat="48.9855168" lon="8.4035694"/>
  <node id="23707423" version="4" timestamp="2011-01-26T13:43:56Z" uid="6269" user="Mueck" changeset="7092640" lat="48.9855168" lon="8.4035694"/>
  <node id="23707427" version="4" timestamp="2011-01-26T13:19:28Z" uid="6269" user="Mueck" changeset="7092640" lat="48.988018" lon="8.4032811"/>
  <node id="23703985" version="7" timestamp="2012-07-20T09:35:55Z" uid="722137" user="OSMF Redaction Account" changeset="12370034" lat="48.981182" lon="8.4038422">
    <tag k="light_rail" v="yes"/>
    <tag k="name" v="Schloss Rüppurr"/>
    <tag k="public_transport" v="stop_position"/>
    <tag k="railway" v="halt"/>
    <tag k="uic_ref" v="721435"/>
    <tag k="wheelchair" v="no"/>
  </node>
  <node id="23703985" version="8" timestamp="2012-07-23T11:50:58Z" uid="165061" user="mapper999" changeset="12447223" lat="48.9814659" lon="8.4037889">
    <tag k="light_rail" v="yes"/>
    <tag k="name" v="Schloss Rüppurr"/>
    <tag k="public_transport" v="stop_position"/>
    <tag k="railway" v="halt"/>
    <tag k="uic_ref" v="721435"/>
    <tag k="wheelchair" v="no"/>
  </node>
</osm>
