<?xml version='1.0' encoding='UTF-8'?>
<osm version="0.6" generator="libosmium/2.20.0">
  <node id="239974112" version="2" timestamp="2008-08-13T22:22:50Z" uid="6975" user="ulfl" changeset="242232" lat="48.1789101" lon="11.5749989">
    <tag k="created_by" v="JOSM"/>
  </node>
  <node id="239974112" version="3" timestamp="2009-09-02T13:41:52Z" uid="85761" user="klausis" changeset="2348916" lat="48.1789101" lon="11.5749989"/>
  <node id="239974112" version="4" timestamp="2010-05-17T06:08:58Z" uid="8748" user="ToniE" changeset="4725864" lat="48.1789065" lon="11.5750233"/>
  <node id="239974112" version="5" timestamp="2010-12-17T16:26:23Z" uid="29061" user="KPG" changeset="6688214" lat="48.1789438" lon="11.5749926"/>
  <node id="239974124" version="2" timestamp="2008-07-10T00:08:20Z" uid="6975" user="ulfl" changeset="448234" lat="48.1864175" lon="11.5728925">
    <tag k="shop" v="stationery"/>
  </node>
  <node id="239974124" version="3" timestamp="2009-04-06T17:04:10Z" uid="59819" user="Fuss-im-Ohr" changeset="273323" lat="48.1864175" lon="11.5728925">
    <tag k="addr:city" v="München"/>
    <tag k="addr:country" v="DE"/>
    <tag k="addr:email" v="fernsehservice-alberton@gmx.de"/>
    <tag k="addr:housenumber" v="21"/>
    <tag k="addr:postcode" v="80807"/>
    <tag k="addr:street" v="Illungshofstraße"/>
    <tag k="name" v="Fernseh-Service"/>
    <tag k="opening_hours" v="Mo-Sa:0900-1200;Mo-Fr:1400-1830"/>
    <tag k="phone" v="+49 89 352119"/>
    <tag k="shop" v="electronics"/>
    <tag k="website" v="http://www.profielectronic.de"/>
  </node>
  <node id="239974124" version="4" timestamp="2009-04-09T18:56:54Z" uid="72235" user="Basstoelpel" changeset="348148" lat="48.1863962" lon="11.5730298">
    <tag k="addr:city" v="München"/>
    <tag k="addr:country" v="DE"/>
    <tag k="addr:email" v="fernsehservice-alberton@gmx.de"/>
    <tag k="addr:housenumber" v="21"/>
    <tag k="addr:postcode" v="80807"/>
    <tag k="addr:street" v="Illungshofstraße"/>
    <tag k="name" v="Fernseh-Service"/>
    <tag k="opening_hours" v="Mo-Sa:0900-1200;Mo-Fr:1400-1830"/>
    <tag k="phone" v="+49 89 352119"/>
    <tag k="shop" v="electronics"/>
    <tag k="website" v="http://www.profielectronic.de"/>
  </node>
  <node id="239974124" version="5" timestamp="2009-07-29T04:03:02Z" uid="38907" user="hongakonga" changeset="1971652" lat="48.186386" lon="11.5728726">
    <tag k="addr:city" v="München"/>
    <tag k="addr:country" v="DE"/>
    <tag k="addr:email" v="fernsehservice-alberton@gmx.de"/>
    <tag k="addr:housenumber" v="21"/>
    <tag k="addr:postcode" v="80807"/>
    <tag k="addr:street" v="Illungshofstraße"/>
    <tag k="name" v="Fernseh-Service"/>
    <tag k="opening_hours" v="Mo-Sa:0900-1200;Mo-Fr:1400-1830"/>
    <tag k="phone" v="+49 89 352119"/>
    <tag k="shop" v="electronics"/>
    <tag k="website" v="http://www.profielectronic.de"/>
  </node>
  <node id="239974124" version="6" timestamp="2009-08-07T10:46:09Z" uid="31231" user="Andre68" changeset="2064435" lat="48.186386" lon="11.5728726">
    <tag k="addr:city" v="München"/>
    <tag k="addr:country" v="DE"/>
    <tag k="addr:email" v="fernsehservice-alberton@gmx.de"/>
    <tag k="addr:housenumber" v="21"/>
    <tag k="addr:postcode" v="80807"/>
    <tag k="addr:street" v="Illungshofstraße"/>
    <tag k="name" v="Fernseh-Service"/>
    <tag k="opening_hours" v="Mo-Fr 09:00-12:00,14:00-18:30; Sa 09:00-12:00"/>
    <tag k="phone" v="+49 89 352119"/>
    <tag k="shop" v="electronics"/>
    <tag k="website" v="http://www.profielectronic.de"/>
  </node>
  <node id="239974124" version="7" timestamp="2010-04-15T14:57:03Z" uid="70696" user="xybot" changeset="4431179" lat="48.186386" lon="11.5728726">
    <tag k="addr:city" v="München"/>
    <tag k="addr:country" v="DE"/>
    <tag k="addr:housenumber" v="21"/>
    <tag k="addr:postcode" v="80807"/>
    <tag k="addr:street" v="Illungshofstraße"/>
    <tag k="email" v="fernsehservice-alberton@gmx.de"/>
    <tag k="name" v="Fernseh-Service"/>
    <tag k="opening_hours" v="Mo-Fr 09:00-12:00,14:00-18:30; Sa 09:00-12:00"/>
    <tag k="phone" v="+49 89 352119"/>
    <tag k="shop" v="electronics"/>
    <tag k="website" v="http://www.profielectronic.de"/>
  </node>
  <node id="239974124" version="8" timestamp="2010-12-08T22:13:33Z" uid="342705" user="KLMB" changeset="6590175" lat="48.186662" lon="11.5729888">
    <tag k="addr:city" v="München"/>
    <tag k="addr:country" v="DE"/>
    <tag k="addr:housenumber" v="21"/>
    <tag k="addr:postcode" v="80807"/>
    <tag k="addr:street" v="Illungshofstraße"/>
    <tag k="email" v="fernsehservice-alberton@gmx.de"/>
    <tag k="name" v="Fernseh-Service"/>
    <tag k="opening_hours" v="Mo-Fr 09:00-12:00,14:00-18:30; Sa 09:00-12:00"/>
    <tag k="phone" v="+49 89 352119"/>
    <tag k="shop" v="electronics"/>
    <tag k="website" v="http://www.profielectronic.de"/>
  </node>
  <node id="239974124" version="9" timestamp="2011-10-07T11:48:36Z" uid="290680" user="wheelmap_visitor" changeset="9490517" lat="48.186662" lon="11.5729888">
    <tag k="addr:city" v="München"/>
    <tag k="addr:country" v="DE"/>
    <tag k="addr:housenumber" v="21"/>
    <tag k="addr:postcode" v="80807"/>
    <tag k="addr:street" v="Illungshofstraße"/>
    <tag k="email" v="fernsehservice-alberton@gmx.de"/>
    <tag k="name" v="Fernseh-Service"/>
    <tag k="opening_hours" v="Mo-Fr 09:00-12:00,14:00-18:30; Sa 09:00-12:00"/>
    <tag k="phone" v="+49 89 352119"/>
    <tag k="shop" v="electronics"/>
    <tag k="website" v="http://www.profielectronic.de"/>
    <tag k="wheelchair" v="limited"/>
  </node>
  <node id="239978340" version="9" timestamp="2011-01-22T11:08:47Z" uid="4467" user="Rosscoe" changeset="7049002" lat="-34.9418004" lon="138.5769475"/>
  <node id="239978367" version="4" timestamp="2011-01-22T11:08:39Z" uid="4467" user="Rosscoe" changeset="7049002" lat="-34.9417455" lon="138.5772011"/>
  <node id="239978381" version="4" timestamp="2011-01-22T11:08:52Z" uid="4467" user="Rosscoe" changeset="7049002" lat="-34.9417157" lon="138.5776258"/>
  <node id="239978394" version="4" timestamp="2011-01-22T11:08:48Z" uid="4467" user="Rosscoe" changeset="7049002" lat="-34.9416987" lon="138.5779307">
    <tag k="highway" v="traffic_signals"/>
  </node>
  <node id="239978409" version="4" timestamp="2011-01-22T11:08:37Z" uid="4467" user="Rosscoe" changeset="7049002" lat="-34.9416943" lon="138.5779978">
    <tag k="highway" v="traffic_signals"/>
  </node>
  <node id="239978427" version="6" timestamp="2011-01-22T11:08:37Z" uid="4467" user="Rosscoe" changeset="7049002" lat="-34.9416408" lon="138.5792682"/>
  <node id="239978445" version="6" timestamp="2011-01-22T11:08:39Z" uid="4467" user="Rosscoe" changeset="7049002" lat="-34.9415724" lon="138.5804373"/>
  <node id="239978458" version="7" timestamp="2011-01-22T11:08:37Z" uid="4467" user="Rosscoe" changeset="7049002" lat="-34.9417177" lon="138.579272"/>
  <node id="239978472" version="7" timestamp="2011-03-18T12:20:48Z" uid="4467" user="Rosscoe" changeset="7594760" lat="-34.9418558" lon="138.5757623"/>
  <node id="239978486" version="5" timestamp="2011-03-18T15:40:55Z" uid="4467" user="Rosscoe" changeset="7596453" lat="-34.9419797" lon="138.5734702"/>
  <node id="239978501" version="6" timestamp="2011-03-18T12:20:25Z" uid="4467" user="Rosscoe" changeset="7594760" lat="-34.9420381" lon="138.5722987"/>
  <node id="239978515" version="5" timestamp="2011-03-18T15:41:57Z" uid="4467" user="Rosscoe" changeset="7596453" lat="-34.9420866" lon="138.5720605"/>
  <node id="239978529" version="5" timestamp="2011-03-18T15:42:49Z" uid="4467" user="Rosscoe" changeset="7596453" lat="-34.9421112" lon="138.5713808"/>
  <node id="239978544" version="5" timestamp="2011-03-18T15:39:57Z" uid="4467" user="Rosscoe" changeset="7596453" lat="-34.9419982" lon="138.5720567"/>
  <node id="239978556" version="7" timestamp="2011-03-18T15:43:49Z" uid="4467" user="Rosscoe" changeset="7596453" lat="-34.9420259" lon="138.5714182"/>
  <node id="239978340" version="10" timestamp="2012-07-19T22:55:08Z" uid="722137" user="OSMF Redaction Account" changeset="12351094" lat="-34.9417829" lon="138.5769971"/>
  <node id="239978340" version="11" timestamp="2012-09-08T08:49:16Z" uid="418724" user="wintersportler" changeset="13031315" lat="-34.9417989" lon="138.5769502"/>
  <node id="239978367" version="5" timestamp="2012-07-19T22:55:09Z" uid="722137" user="OSMF Redaction Account" changeset="12351094" lat="-34.9417289" lon="138.5772127"/>
  <node id="239978367" version="6" timestamp="2012-09-08T08:49:16Z" uid="418724" user="wintersportler" changeset="13031315" lat="-34.9417361" lon="138.5771658"/>
  <node id="239978381" version="5" timestamp="2012-07-19T22:55:09Z" uid="722137" user="OSMF Redaction Account" changeset="12351094" lat="-34.9417062" lon="138.5776142"/>
  <node id="239978381" version="6" timestamp="2012-09-08T08:50:08Z" uid="418724" user="wintersportler" changeset="13031315" lat="-34.9417062" lon="138.5776142"/>
  <node id="239978394" version="5" timestamp="2012-07-19T22:55:09Z" uid="722137" user="OSMF Redaction Account" changeset="12351094" lat="-34.9416788" lon="138.5779644">
    <tag k="highway" v="traffic_signals"/>
  </node>
  <node id="239978394" version="6" timestamp="2012-09-08T08:49:16Z" uid="418724" user="wintersportler" changeset="13031315" lat="-34.9416884" lon="138.5779664">
    <tag k="highway" v="traffic_signals"/>
  </node>
  <node id="239978409" version="5" timestamp="2012-07-19T22:55:09Z" uid="722137" user="OSMF Redaction Account" changeset="12351094" lat="-34.941672" lon="138.5780488">
    <tag k="highway" v="traffic_signals"/>
  </node>
  <node id="239978409" version="6" timestamp="2012-09-08T08:49:17Z" uid="418724" user="wintersportler" changeset="13031315" lat="-34.9416864" lon="138.5780508">
    <tag k="highway" v="traffic_signals"/>
  </node>
  <node id="239978427" version="7" timestamp="2012-07-19T22:55:09Z" uid="722137" user="OSMF Redaction Account" changeset="12351094" lat="-34.9416352" lon="138.5793327"/>
  <node id="239978445" version="7" timestamp="2012-07-19T22:55:10Z" uid="722137" user="OSMF Redaction Account" changeset="12351094" lat="-34.9415666" lon="138.5804057"/>
  <node id="239978458" version="8" timestamp="2012-07-19T22:55:09Z" uid="722137" user="OSMF Redaction Account" changeset="12351094" lat="-34.9417221" lon="138.5793419"/>
  <node id="239978458" version="9" timestamp="2012-09-05T10:11:29Z" uid="171576" user="Conquest" changeset="12993804" lat="-34.9417251" lon="138.5792793"/>
  <node id="239978472" version="8" timestamp="2012-07-19T22:55:08Z" uid="722137" user="OSMF Redaction Account" changeset="12351094" lat="-34.9418297" lon="138.5758435"/>
  <node id="239978472" version="9" timestamp="2012-09-08T08:50:08Z" uid="418724" user="wintersportler" changeset="13031315" lat="-34.9418297" lon="138.5758435"/>
  <node id="239978486" version="6" timestamp="2012-07-19T22:55:08Z" uid="722137" user="OSMF Redaction Account" changeset="12351094" lat="-34.9419603" lon="138.5734649"/>
  <node id="239978486" version="7" timestamp="2012-09-05T10:11:29Z" uid="171576" user="Conquest" changeset="12993804" lat="-34.9419909" lon="138.5734667"/>
  <node id="239978501" version="7" timestamp="2012-07-19T22:55:08Z" uid="722137" user="OSMF Redaction Account" changeset="12351094" lat="-34.9420314" lon="138.5723334"/>
  <node id="239978501" version="8" timestamp="2012-09-08T12:38:05Z" uid="171576" user="Conquest" changeset="13033082" lat="-34.9420412" lon="138.5723023"/>
  <node id="239978529" version="6" timestamp="2012-09-08T08:50:08Z" uid="418724" user="wintersportler" changeset="13031315" lat="-34.9421112" lon="138.5713808"/>
  <node id="239978556" version="8" timestamp="2012-07-19T22:55:08Z" uid="722137" user="OSMF Redaction Account" changeset="12351094" lat="-34.9420092" lon="138.5713867"/>
</osm>
