<?xml version='1.0' encoding='UTF-8'?>
<osm version="0.6" generator="libosmium/2.20.0">
  <node id="240480229" version="2" timestamp="2011-04-21T00:55:36Z" uid="4467" user="Rosscoe" changeset="7921455" lat="-33.3604208" lon="115.6460208"/>
  <node id="240484228" version="2" timestamp="2008-09-30T11:45:18Z" uid="1066" user="pavel" changeset="720911" lat="50.4485874" lon="13.2111281">
    <tag k="is_in" v="Czech Republic, Europe"/>
    <tag k="name" v="Volyně"/>
    <tag k="place" v="village"/>
  </node>
  <node id="240484228" version="3" timestamp="2008-11-04T13:14:15Z" uid="308" user="MichaelCollinson" changeset="676656" lat="50.4485874" lon="13.2111281">
    <tag k="is_in" v="Czech Republic, Europe"/>
    <tag k="is_in:continent" v="Europe"/>
    <tag k="is_in:country_code" v="cz"/>
    <tag k="name" v="Volyně"/>
    <tag k="place" v="village"/>
  </node>
  <node id="240484228" version="4" timestamp="2010-09-29T17:25:42Z" uid="147674" user="fireball2" changeset="5913592" lat="50.4485874" lon="13.2111281">
    <tag k="is_in" v="Czech Republic, Europe"/>
    <tag k="is_in:continent" v="Europe"/>
    <tag k="is_in:country_code" v="cz"/>
    <tag k="name" v="Volyně"/>
    <tag k="name:de" v="Wolin"/>
    <tag k="place" v="village"/>
    <tag k="wikipedia" v="Volyně"/>
  </node>
  <node id="240484228" version="5" timestamp="2012-01-24T12:31:08Z" uid="229590" user="xificurk" changeset="10483988" lat="50.4485874" lon="13.2111281"/>
  <node id="240485494" version="2" timestamp="2008-09-30T10:37:44Z" uid="1066" user="pavel" changeset="720911" lat="50.309547" lon="13.2291368">
    <tag k="is_in" v="Czech Republic, Europe"/>
    <tag k="name" v="Kojetín"/>
    <tag k="place" v="village"/>
  </node>
  <node id="240485494" version="3" timestamp="2008-11-04T13:10:33Z" uid="308" user="MichaelCollinson" changeset="676656" lat="50.309547" lon="13.2291368">
    <tag k="is_in" v="Czech Republic, Europe"/>
    <tag k="is_in:continent" v="Europe"/>
    <tag k="is_in:country_code" v="cz"/>
    <tag k="name" v="Kojetín"/>
    <tag k="place" v="village"/>
  </node>
  <node id="240485494" version="4" timestamp="2012-01-20T02:36:31Z" uid="536216" user="uir-zsj" changeset="10442919" lat="50.309547" lon="13.2291368"/>
  <node id="240485589" version="3" timestamp="2008-07-14T08:53:52Z" uid="6975" user="ulfl" changeset="486169" lat="52.5213254" lon="13.2353626">
    <tag k="highway" v="turning_circle"/>
  </node>
  <node id="240485589" version="4" timestamp="2010-11-19T22:29:50Z" uid="6669" user="Elwood" changeset="6410817" lat="52.5213864" lon="13.2353539">
    <tag k="highway" v="turning_circle"/>
  </node>
  <node id="240485589" version="5" timestamp="2011-07-07T22:39:54Z" uid="447997" user="Berliner Igel" changeset="8661962" lat="52.5213723" lon="13.2353858">
    <tag k="highway" v="turning_circle"/>
  </node>
  <node id="240487882" version="3" timestamp="2008-10-15T06:59:46Z" uid="27600" user="Islanit" changeset="344177" lat="53.5437698" lon="10.0859001"/>
  <node id="240487882" version="4" timestamp="2012-03-03T18:15:26Z" uid="161619" user="FvGordon" changeset="10860571" lat="53.5438724" lon="10.0857038"/>
  <node id="240489841" version="2" timestamp="2008-09-30T10:40:51Z" uid="1066" user="pavel" changeset="720911" lat="50.1069298" lon="13.2450166">
    <tag k="is_in" v="Czech Republic, Europe"/>
    <tag k="name" v="Chyše"/>
    <tag k="place" v="village"/>
  </node>
  <node id="240489841" version="3" timestamp="2008-11-04T13:05:29Z" uid="308" user="MichaelCollinson" changeset="676656" lat="50.1069298" lon="13.2450166">
    <tag k="is_in" v="Czech Republic, Europe"/>
    <tag k="is_in:continent" v="Europe"/>
    <tag k="is_in:country_code" v="cz"/>
    <tag k="name" v="Chyše"/>
    <tag k="place" v="village"/>
  </node>
  <node id="240489841" version="4" timestamp="2009-11-01T22:04:52Z" uid="17615" user="Petr Dlouhý" changeset="3011983" lat="50.1069298" lon="13.2450166">
    <tag k="is_in" v="Czech Republic, Europe"/>
    <tag k="is_in:continent" v="Europe"/>
    <tag k="is_in:country_code" v="cz"/>
    <tag k="name" v="Chyše"/>
    <tag k="place" v="village"/>
  </node>
  <node id="240480229" version="3" timestamp="2012-05-27T09:01:11Z" uid="261730" user="Davoz" changeset="11712658" lat="-33.3604201" lon="115.6460634"/>
</osm>
