<?xml version='1.0' encoding='UTF-8'?>
<osm version="0.6" generator="libosmium/2.20.0">
  <node id="240559520" version="2" timestamp="2008-02-16T19:55:00Z" uid="6975" user="ulfl" changeset="141861" lat="51.5068702" lon="-0.0929679">
    <tag k="name" v="Premier travel inn"/>
    <tag k="tourism" v="hotel"/>
  </node>
  <node id="240559520" version="3" timestamp="2008-08-11T20:59:42Z" uid="8131" user="nevado" changeset="188586" lat="51.5068746" lon="-0.092969">
    <tag k="created_by" v="Potlatch 0.10b"/>
    <tag k="name" v="Premier Travel Inn"/>
    <tag k="tourism" v="hotel"/>
  </node>
  <node id="240559520" version="4" timestamp="2009-12-20T15:52:47Z" uid="1185" user="dankarran" changeset="3414416" lat="51.5068746" lon="-0.092969">
    <tag k="created_by" v="Potlatch 0.10b"/>
    <tag k="name" v="Premier Inn"/>
    <tag k="tourism" v="hotel"/>
  </node>
  <node id="240559520" version="5" timestamp="2010-10-24T15:25:01Z" uid="346" user="Tom Chance" changeset="6157944" lat="51.5068746" lon="-0.092969">
    <tag k="created_by" v="Potlatch 0.10b"/>
    <tag k="name" v="Premier Inn"/>
    <tag k="tourism" v="hotel"/>
  </node>
</osm>
