<?xml version='1.0' encoding='UTF-8'?>
<osm version="0.6" generator="libosmium/2.20.0">
  <node id="241660959" version="4" timestamp="2008-07-06T09:01:01Z" uid="6975" user="ulfl" changeset="407266" lat="60.9750243" lon="24.5062347">
    <tag k="name" v="Vanajan voimalaitos"/>
    <tag k="power" v="generator"/>
    <tag k="power_source" v="fossil"/>
  </node>
  <node id="241660959" version="5" timestamp="2011-02-20T12:13:21Z" uid="18769" user="boozeman" changeset="7341535" lat="60.9746661" lon="24.5054575">
    <tag k="name" v="Vanajan voimalaitos"/>
    <tag k="power" v="generator"/>
    <tag k="power_source" v="fossil"/>
  </node>
  <node id="241660959" version="6" timestamp="2011-06-03T23:13:34Z" uid="297482" user="don-vip" changeset="8335047" lat="60.9746661" lon="24.5054575">
    <tag k="generator:source" v="fossil"/>
    <tag k="name" v="Vanajan voimalaitos"/>
    <tag k="power" v="generator"/>
  </node>
  <node id="241662720" version="2" timestamp="2008-06-20T18:02:43Z" uid="27600" user="Islanit" changeset="233682" lat="51.3180871" lon="9.5027971">
    <tag k="created_by" v="JOSM"/>
  </node>
  <node id="241669672" version="3" timestamp="2008-02-16T20:45:56Z" uid="6975" user="ulfl" changeset="141861" lat="54.0413693" lon="-2.7866409">
    <tag k="amenity" v="university"/>
    <tag k="description" v="University of Cumbria"/>
  </node>
  <node id="241669672" version="4" timestamp="2008-05-18T21:55:59Z" uid="36670" user="Roger Browne" changeset="476238" lat="54.0413737" lon="-2.7866426">
    <tag k="amenity" v="university"/>
    <tag k="created_by" v="Potlatch 0.9a"/>
    <tag k="name" v="University of Cumbria"/>
  </node>
  <node id="241669672" version="5" timestamp="2008-06-04T15:15:57Z" uid="36670" user="Roger Browne" changeset="50693" lat="54.0413785" lon="-2.7866461">
    <tag k="amenity" v="university"/>
    <tag k="created_by" v="Potlatch 0.9a"/>
    <tag k="name" v="University of Cumbria"/>
  </node>
</osm>
