<?xml version='1.0' encoding='UTF-8'?>
<osm version="0.6" generator="libosmium/2.20.0">
  <node id="243026995" version="3" timestamp="2010-10-05T08:49:20Z" uid="115477" user="wowik" changeset="5959534" lat="54.8361397" lon="29.1451923">
    <tag k="name" v="Варки"/>
    <tag k="place" v="hamlet"/>
  </node>
  <node id="243026995" version="4" timestamp="2011-10-23T18:23:43Z" uid="86479" user="osm-belarus" changeset="9636394" lat="54.8361397" lon="29.1451923">
    <tag k="addr:country" v="BY"/>
    <tag k="addr:district" v="Чашникский район"/>
    <tag k="addr:region" v="Витебская область"/>
    <tag k="name" v="Варки"/>
    <tag k="name:ru" v="Варки"/>
    <tag k="place" v="hamlet"/>
  </node>
  <node id="243026995" version="5" timestamp="2012-01-06T16:16:36Z" uid="159783" user="andrejczyk" changeset="10313105" lat="54.8361397" lon="29.1451923">
    <tag k="addr:country" v="BY"/>
    <tag k="addr:district" v="Чашникский район"/>
    <tag k="addr:region" v="Витебская область"/>
    <tag k="name" v="Варки"/>
    <tag k="name:be" v="Варкі"/>
    <tag k="name:ru" v="Варки"/>
    <tag k="place" v="hamlet"/>
  </node>
  <node id="243027017" version="3" timestamp="2010-09-15T14:30:32Z" uid="115477" user="wowik" changeset="5787740" lat="54.8807497" lon="29.1619915">
    <tag k="name" v="Коптевичи"/>
    <tag k="place" v="hamlet"/>
  </node>
  <node id="243027017" version="4" timestamp="2011-01-03T16:50:40Z" uid="155088" user="mixdm" changeset="6851734" lat="54.883424" lon="29.1591678">
    <tag k="name" v="Коптевичи"/>
    <tag k="place" v="hamlet"/>
  </node>
  <node id="243027017" version="5" timestamp="2011-10-23T18:44:25Z" uid="86479" user="osm-belarus" changeset="9636394" lat="54.883424" lon="29.1591678">
    <tag k="addr:country" v="BY"/>
    <tag k="addr:district" v="Чашникский район"/>
    <tag k="addr:region" v="Витебская область"/>
    <tag k="name" v="Коптевичи"/>
    <tag k="name:ru" v="Коптевичи"/>
    <tag k="place" v="hamlet"/>
  </node>
  <node id="243027017" version="6" timestamp="2011-11-27T21:16:07Z" uid="86479" user="osm-belarus" changeset="9969899" lat="54.883424" lon="29.1591678">
    <tag k="addr:country" v="BY"/>
    <tag k="addr:district" v="Чашникский район"/>
    <tag k="addr:region" v="Витебская область"/>
    <tag k="name" v="Коптевичи"/>
    <tag k="name:be" v="Копцевічы"/>
    <tag k="name:ru" v="Коптевичи"/>
    <tag k="place" v="hamlet"/>
  </node>
  <node id="243027022" version="3" timestamp="2010-09-15T14:30:31Z" uid="115477" user="wowik" changeset="5787740" lat="54.884749" lon="29.1697592">
    <tag k="name" v="Казановка"/>
    <tag k="place" v="hamlet"/>
  </node>
  <node id="243027022" version="4" timestamp="2011-01-03T16:51:39Z" uid="155088" user="mixdm" changeset="6851734" lat="54.8845509" lon="29.1682526">
    <tag k="name" v="Казановка"/>
    <tag k="place" v="hamlet"/>
  </node>
  <node id="243027022" version="5" timestamp="2011-10-23T18:40:38Z" uid="86479" user="osm-belarus" changeset="9636394" lat="54.8845509" lon="29.1682526">
    <tag k="addr:country" v="BY"/>
    <tag k="addr:district" v="Чашникский район"/>
    <tag k="addr:region" v="Витебская область"/>
    <tag k="name" v="Казановка"/>
    <tag k="name:ru" v="Казановка"/>
    <tag k="place" v="hamlet"/>
  </node>
  <node id="243027022" version="6" timestamp="2011-12-14T13:22:29Z" uid="29320" user="Komяpa" changeset="10115654" lat="54.8845509" lon="29.1682526">
    <tag k="addr:country" v="BY"/>
    <tag k="addr:district" v="Чашникский район"/>
    <tag k="addr:region" v="Витебская область"/>
    <tag k="int_name" v="Kazanoŭka"/>
    <tag k="name" v="Казановка"/>
    <tag k="name:be" v="Казаноўка"/>
    <tag k="name:ru" v="Казановка"/>
    <tag k="place" v="hamlet"/>
  </node>
  <node id="243027030" version="3" timestamp="2010-09-16T04:38:28Z" uid="115477" user="wowik" changeset="5792341" lat="54.9084409" lon="29.1120644">
    <tag k="name" v="Пристои"/>
    <tag k="place" v="hamlet"/>
  </node>
  <node id="243027030" version="4" timestamp="2011-10-23T19:07:34Z" uid="86479" user="osm-belarus" changeset="9636394" lat="54.9084409" lon="29.1120644">
    <tag k="addr:country" v="BY"/>
    <tag k="addr:district" v="Чашникский район"/>
    <tag k="addr:region" v="Витебская область"/>
    <tag k="name" v="Пристои"/>
    <tag k="name:ru" v="Пристои"/>
    <tag k="place" v="hamlet"/>
  </node>
  <node id="243027030" version="5" timestamp="2011-12-14T13:28:21Z" uid="29320" user="Komяpa" changeset="10115654" lat="54.9084409" lon="29.1120644">
    <tag k="addr:country" v="BY"/>
    <tag k="addr:district" v="Чашникский район"/>
    <tag k="addr:region" v="Витебская область"/>
    <tag k="int_name" v="Prystoi"/>
    <tag k="name" v="Пристои"/>
    <tag k="name:be" v="Прыстоі"/>
    <tag k="name:ru" v="Пристои"/>
    <tag k="place" v="hamlet"/>
  </node>
  <node id="243027107" version="3" timestamp="2010-09-15T14:38:33Z" uid="115477" user="wowik" changeset="5787740" lat="54.9171979" lon="29.2440027">
    <tag k="name" v="Вежовка"/>
    <tag k="place" v="hamlet"/>
  </node>
  <node id="243027107" version="4" timestamp="2011-10-23T18:24:01Z" uid="86479" user="osm-belarus" changeset="9636394" lat="54.9171979" lon="29.2440027">
    <tag k="addr:country" v="BY"/>
    <tag k="addr:district" v="Чашникский район"/>
    <tag k="addr:region" v="Витебская область"/>
    <tag k="name" v="Вежовка"/>
    <tag k="name:ru" v="Вежовка"/>
    <tag k="place" v="hamlet"/>
  </node>
  <node id="243027107" version="5" timestamp="2011-12-14T13:19:44Z" uid="29320" user="Komяpa" changeset="10115654" lat="54.9171979" lon="29.2440027">
    <tag k="addr:country" v="BY"/>
    <tag k="addr:district" v="Чашникский район"/>
    <tag k="addr:region" v="Витебская область"/>
    <tag k="int_name" v="Viažoŭka"/>
    <tag k="name" v="Вежовка"/>
    <tag k="name:be" v="Вяжоўка"/>
    <tag k="name:ru" v="Вежовка"/>
    <tag k="place" v="hamlet"/>
  </node>
  <node id="243027331" version="4" timestamp="2008-07-03T15:12:30Z" uid="6975" user="ulfl" changeset="378199" lat="-26.1296851" lon="28.0680898">
    <tag k="amenity" v="restaurant"/>
    <tag k="name" v="Nandos"/>
  </node>
  <node id="243027367" version="3" timestamp="2010-09-15T14:30:32Z" uid="115477" user="wowik" changeset="5787740" lat="54.764374" lon="29.2123741">
    <tag k="name" v="Колмаки"/>
    <tag k="place" v="hamlet"/>
  </node>
  <node id="243027367" version="4" timestamp="2011-01-01T16:56:08Z" uid="155088" user="mixdm" changeset="6829712" lat="54.7640964" lon="29.2123741">
    <tag k="name" v="Колмаки"/>
    <tag k="place" v="hamlet"/>
  </node>
  <node id="243027367" version="5" timestamp="2011-10-23T18:43:36Z" uid="86479" user="osm-belarus" changeset="9636394" lat="54.7640964" lon="29.2123741">
    <tag k="addr:country" v="BY"/>
    <tag k="addr:district" v="Чашникский район"/>
    <tag k="addr:region" v="Витебская область"/>
    <tag k="name" v="Колмаки"/>
    <tag k="name:ru" v="Колмаки"/>
    <tag k="place" v="hamlet"/>
  </node>
  <node id="243027367" version="6" timestamp="2012-01-05T17:00:59Z" uid="159783" user="andrejczyk" changeset="10303009" lat="54.7640964" lon="29.2123741">
    <tag k="addr:country" v="BY"/>
    <tag k="addr:district" v="Чашникский район"/>
    <tag k="addr:region" v="Витебская область"/>
    <tag k="name" v="Колмаки"/>
    <tag k="name:be" v="Колмаки"/>
    <tag k="name:ru" v="Колмаки"/>
    <tag k="place" v="hamlet"/>
  </node>
  <node id="243027367" version="7" timestamp="2012-01-05T17:04:19Z" uid="159783" user="andrejczyk" changeset="10303041" lat="54.7640964" lon="29.2123741">
    <tag k="addr:country" v="BY"/>
    <tag k="addr:district" v="Чашникский район"/>
    <tag k="addr:region" v="Витебская область"/>
    <tag k="name" v="Колмаки"/>
    <tag k="name:be" v="Колмаки"/>
    <tag k="name:ru" v="Колмаки"/>
    <tag k="place" v="hamlet"/>
  </node>
  <node id="243027992" version="3" timestamp="2008-07-03T15:12:29Z" uid="6975" user="ulfl" changeset="378199" lat="-26.1293383" lon="28.068167">
    <tag k="amenity" v="restaurant"/>
    <tag k="name" v="Mivamis"/>
  </node>
  <node id="243028505" version="4" timestamp="2010-12-07T14:08:47Z" uid="115477" user="wowik" changeset="6575231" lat="55.6044444" lon="29.0329079">
    <tag k="name" v="Новая Полота"/>
    <tag k="place" v="hamlet"/>
  </node>
  <node id="243028505" version="5" timestamp="2011-10-23T18:57:52Z" uid="86479" user="osm-belarus" changeset="9636394" lat="55.6044444" lon="29.0329079">
    <tag k="addr:country" v="BY"/>
    <tag k="addr:district" v="Полоцкий район"/>
    <tag k="addr:region" v="Витебская область"/>
    <tag k="name" v="Новая Полота"/>
    <tag k="name:ru" v="Новая Полота"/>
    <tag k="place" v="hamlet"/>
  </node>
  <node id="243026995" version="6" timestamp="2012-07-18T10:38:23Z" uid="722137" user="OSMF Redaction Account" changeset="12278550" lat="54.83602" lon="29.14415">
    <tag k="addr:country" v="BY"/>
    <tag k="addr:district" v="Чашникский район"/>
    <tag k="addr:region" v="Витебская область"/>
    <tag k="name" v="Варки"/>
    <tag k="name:be" v="Варкі"/>
    <tag k="name:ru" v="Варки"/>
    <tag k="place" v="hamlet"/>
  </node>
  <node id="243026995" version="7" timestamp="2012-08-15T13:07:03Z" uid="481934" user="iWowik" changeset="12738832" lat="54.83602" lon="29.14415">
    <tag k="addr:country" v="BY"/>
    <tag k="addr:district" v="Чашникский район"/>
    <tag k="addr:region" v="Витебская область"/>
    <tag k="name" v="Варки"/>
    <tag k="name:be" v="Варкі"/>
    <tag k="name:ru" v="Варки"/>
    <tag k="old_name:ru" v="Ворки"/>
    <tag k="place" v="hamlet"/>
  </node>
  <node id="243026995" version="8" timestamp="2012-08-16T17:27:55Z" uid="481934" user="iWowik" changeset="12750369" lat="54.8381932" lon="29.1407479">
    <tag k="addr:country" v="BY"/>
    <tag k="addr:district" v="Чашникский район"/>
    <tag k="addr:region" v="Витебская область"/>
    <tag k="name" v="Варки"/>
    <tag k="name:be" v="Варкі"/>
    <tag k="name:ru" v="Варки"/>
    <tag k="old_name:ru" v="Ворки"/>
    <tag k="place" v="hamlet"/>
  </node>
  <node id="243026995" version="9" timestamp="2012-08-21T16:12:34Z" uid="481934" user="iWowik" changeset="12810388" lat="54.8381932" lon="29.1407479">
    <tag k="addr:country" v="BY"/>
    <tag k="addr:district" v="Чашникский район"/>
    <tag k="addr:region" v="Витебская область"/>
    <tag k="name" v="Варки"/>
    <tag k="name:be" v="Варкі"/>
    <tag k="name:pl" v="Worki"/>
    <tag k="name:ru" v="Варки"/>
    <tag k="old_name:ru" v="Ворки"/>
    <tag k="place" v="hamlet"/>
  </node>
  <node id="243027030" version="6" timestamp="2012-07-18T10:40:50Z" uid="722137" user="OSMF Redaction Account" changeset="12278644" lat="54.90838" lon="29.11059">
    <tag k="addr:country" v="BY"/>
    <tag k="addr:district" v="Чашникский район"/>
    <tag k="addr:region" v="Витебская область"/>
    <tag k="int_name" v="Prystoi"/>
    <tag k="name" v="Пристои"/>
    <tag k="name:be" v="Прыстоі"/>
    <tag k="name:ru" v="Пристои"/>
    <tag k="place" v="hamlet"/>
  </node>
  <node id="243027030" version="7" timestamp="2012-08-16T16:46:21Z" uid="481934" user="iWowik" changeset="12750369" lat="54.9086133" lon="29.1122134">
    <tag k="addr:country" v="BY"/>
    <tag k="addr:district" v="Чашникский район"/>
    <tag k="addr:region" v="Витебская область"/>
    <tag k="int_name" v="Prystoi"/>
    <tag k="name" v="Пристои"/>
    <tag k="name:be" v="Прыстоі"/>
    <tag k="name:ru" v="Пристои"/>
    <tag k="place" v="hamlet"/>
  </node>
  <node id="243027107" version="6" timestamp="2012-07-18T10:37:14Z" uid="722137" user="OSMF Redaction Account" changeset="12278519" lat="54.91696" lon="29.24234">
    <tag k="addr:country" v="BY"/>
    <tag k="addr:district" v="Чашникский район"/>
    <tag k="addr:region" v="Витебская область"/>
    <tag k="int_name" v="Viažoŭka"/>
    <tag k="name" v="Вежовка"/>
    <tag k="name:be" v="Вяжоўка"/>
    <tag k="name:ru" v="Вежовка"/>
    <tag k="place" v="hamlet"/>
  </node>
  <node id="243027331" version="5" timestamp="2012-05-10T10:12:11Z" uid="587237" user="CharlizeFerreira" changeset="11557216" lat="-26.129549" lon="28.0680594">
    <tag k="amenity" v="restaurant"/>
    <tag k="name" v="Nandos"/>
  </node>
  <node id="243027992" version="4" timestamp="2012-05-10T10:12:10Z" uid="587237" user="CharlizeFerreira" changeset="11557216" lat="-26.1292552" lon="28.0681076">
    <tag k="amenity" v="restaurant"/>
    <tag k="name" v="Mivamis"/>
  </node>
  <node id="243028505" version="6" timestamp="2012-06-04T09:14:56Z" uid="159783" user="andrejczyk" changeset="11794501" lat="55.6044444" lon="29.0329079">
    <tag k="addr:country" v="BY"/>
    <tag k="addr:district" v="Полоцкий район"/>
    <tag k="addr:region" v="Витебская область"/>
    <tag k="name" v="Новая Полота"/>
    <tag k="name:be" v="Новая Палата"/>
    <tag k="name:ru" v="Новая Полота"/>
    <tag k="place" v="hamlet"/>
  </node>
  <node id="243028505" version="7" timestamp="2012-07-18T10:43:19Z" uid="722137" user="OSMF Redaction Account" changeset="12278774" lat="55.60558" lon="29.03172">
    <tag k="addr:country" v="BY"/>
    <tag k="addr:district" v="Полоцкий район"/>
    <tag k="addr:region" v="Витебская область"/>
    <tag k="name" v="Новая Полота"/>
    <tag k="name:be" v="Новая Палата"/>
    <tag k="name:ru" v="Новая Полота"/>
    <tag k="place" v="hamlet"/>
  </node>
</osm>
