<?xml version='1.0' encoding='UTF-8'?>
<osm version="0.6" generator="libosmium/2.20.0">
  <node id="243272840" version="1" timestamp="2008-01-25T17:48:50Z" uid="3451" user="sascha_silbe" changeset="692235" lat="50.4819" lon="8.6991492">
    <tag k="amenity" v="parking"/>
    <tag k="created_by" v="JOSM"/>
    <tag k="name" v="Pfahlgraben"/>
    <tag k="source" v="survey"/>
  </node>
  <node id="243272840" version="2" timestamp="2009-12-29T14:02:16Z" uid="16514" user="jaybe" changeset="3481321" lat="50.4829143" lon="8.6971206">
    <tag k="amenity" v="parking"/>
    <tag k="name" v="Pfahlgraben"/>
    <tag k="source" v="survey"/>
  </node>
  <node id="243272840" version="3" timestamp="2012-04-29T16:45:22Z" uid="212111" user="okilimu" changeset="11451721" lat="50.4829429" lon="8.6969893">
    <tag k="amenity" v="parking"/>
    <tag k="name" v="Pfahlgraben"/>
    <tag k="source" v="survey"/>
  </node>
  <node id="243272840" version="4" timestamp="2012-07-19T05:28:33Z" uid="722137" user="OSMF Redaction Account" changeset="12309218" lat="50.4829429" lon="8.6969893"/>
</osm>
