<?xml version='1.0' encoding='UTF-8'?>
<osm version="0.6" generator="libosmium/2.20.0">
  <node id="244000023" version="2" timestamp="2008-02-16T19:24:54Z" uid="6975" user="ulfl" changeset="141861" lat="45.7453434" lon="4.8648646">
    <tag k="name" v="Ed"/>
    <tag k="shop" v="supermarket"/>
  </node>
  <node id="244000790" version="7" timestamp="2008-10-16T18:11:55Z" uid="49111" user="Markus B" changeset="380014" lat="49.3169727" lon="10.8241748"/>
  <node id="244000791" version="7" timestamp="2008-10-16T18:11:55Z" uid="49111" user="Markus B" changeset="380014" lat="49.3165212" lon="10.8237516"/>
  <node id="244000792" version="7" timestamp="2008-10-16T18:11:55Z" uid="49111" user="Markus B" changeset="380014" lat="49.3162984" lon="10.8234258"/>
  <node id="244001158" version="5" timestamp="2009-03-25T22:32:03Z" uid="20587" user="balrog-kun" changeset="857772" lat="37.3863913" lon="-5.9984789"/>
  <node id="244001158" version="6" timestamp="2010-06-28T11:18:00Z" uid="291857" user="nonopp" changeset="5096491" lat="37.3863928" lon="-5.9984684"/>
  <node id="244001840" version="2" timestamp="2008-02-16T19:38:42Z" uid="6975" user="ulfl" changeset="141861" lat="48.5863719" lon="17.8316888">
    <tag k="highway" v="bus_stop"/>
  </node>
  <node id="244001840" version="3" timestamp="2009-07-13T15:31:36Z" uid="29762" user="Jose Riha" changeset="1818220" lat="48.5863719" lon="17.8316888">
    <tag k="highway" v="bus_stop"/>
    <tag k="shelter" v="no"/>
  </node>
  <node id="244001840" version="4" timestamp="2009-07-24T19:47:23Z" uid="6475" user="Lubos Petrovic" changeset="1928755" lat="48.5779831" lon="17.8145358">
    <tag k="highway" v="bus_stop"/>
    <tag k="shelter" v="no"/>
  </node>
  <node id="244001840" version="5" timestamp="2009-09-14T06:20:17Z" uid="52833" user="Lukar" changeset="2478053" lat="48.5779831" lon="17.8145358">
    <tag k="highway" v="bus_stop"/>
    <tag k="shelter" v="no"/>
  </node>
  <node id="244001843" version="2" timestamp="2008-02-16T19:38:42Z" uid="6975" user="ulfl" changeset="141861" lat="48.5619129" lon="17.8386822">
    <tag k="highway" v="bus_stop"/>
  </node>
  <node id="244001876" version="2" timestamp="2008-02-16T19:38:44Z" uid="6975" user="ulfl" changeset="141861" lat="48.5553603" lon="17.8383787">
    <tag k="highway" v="bus_stop"/>
  </node>
  <node id="244001877" version="2" timestamp="2008-02-16T19:38:44Z" uid="6975" user="ulfl" changeset="141861" lat="48.5364327" lon="17.8430681">
    <tag k="highway" v="bus_stop"/>
  </node>
  <node id="244001877" version="3" timestamp="2010-05-07T07:35:25Z" uid="52833" user="Lukar" changeset="4627652" lat="48.536423" lon="17.8430567">
    <tag k="highway" v="bus_stop"/>
  </node>
  <node id="244001882" version="2" timestamp="2008-02-16T19:38:45Z" uid="6975" user="ulfl" changeset="141861" lat="48.5076719" lon="17.8284907">
    <tag k="highway" v="bus_stop"/>
  </node>
  <node id="244001882" version="3" timestamp="2009-08-21T12:53:57Z" uid="52833" user="Lukar" changeset="2223738" lat="48.5077488" lon="17.8285818">
    <tag k="highway" v="bus_stop"/>
  </node>
  <node id="244001886" version="2" timestamp="2008-02-16T19:38:45Z" uid="6975" user="ulfl" changeset="141861" lat="48.4430892" lon="17.8099951">
    <tag k="highway" v="bus_stop"/>
  </node>
  <node id="244001901" version="5" timestamp="2008-10-16T18:11:56Z" uid="49111" user="Markus B" changeset="380014" lat="49.3204201" lon="10.8202584"/>
  <node id="244001904" version="5" timestamp="2008-10-16T18:11:56Z" uid="49111" user="Markus B" changeset="380014" lat="49.3203641" lon="10.8166964"/>
  <node id="244001906" version="5" timestamp="2008-10-16T18:11:56Z" uid="49111" user="Markus B" changeset="380014" lat="49.3197347" lon="10.8168305"/>
  <node id="244001919" version="5" timestamp="2008-10-16T18:11:56Z" uid="49111" user="Markus B" changeset="380014" lat="49.3203012" lon="10.8191748"/>
  <node id="244001919" version="6" timestamp="2011-07-09T18:19:39Z" uid="280053" user="Hannes1977" changeset="8676890" lat="49.3203012" lon="10.8191748"/>
  <node id="244002036" version="5" timestamp="2008-10-16T18:11:35Z" uid="49111" user="Markus B" changeset="380014" lat="49.3215915" lon="10.8165623"/>
  <node id="244002037" version="5" timestamp="2008-10-16T18:11:35Z" uid="49111" user="Markus B" changeset="380014" lat="49.3208502" lon="10.8167554"/>
  <node id="244002038" version="5" timestamp="2008-10-16T18:11:35Z" uid="49111" user="Markus B" changeset="380014" lat="49.3210495" lon="10.8179624"/>
  <node id="244002038" version="6" timestamp="2008-10-16T18:11:56Z" uid="49111" user="Markus B" changeset="380014" lat="49.3210495" lon="10.8179624"/>
  <node id="244002046" version="6" timestamp="2008-10-16T18:11:36Z" uid="49111" user="Markus B" changeset="380014" lat="49.3218612" lon="10.8145153"/>
  <node id="244002047" version="6" timestamp="2008-10-16T18:11:36Z" uid="49111" user="Markus B" changeset="380014" lat="49.3216435" lon="10.8142806"/>
  <node id="244002107" version="4" timestamp="2009-05-01T20:51:50Z" uid="20587" user="balrog-kun" changeset="1042242" lat="52.6731123" lon="17.1558147">
    <tag k="addr:postcode" v="62-085"/>
    <tag k="created_by" v="Potlatch 0.6c"/>
    <tag k="is_in" v="powiat wągrowiecki, województwo wielkopolskie, Poland"/>
    <tag k="is_in:country" v="Poland"/>
    <tag k="is_in:county" v="powiat wągrowiecki"/>
    <tag k="is_in:municipality" v="gmina Skoki"/>
    <tag k="is_in:province" v="województwo wielkopolskie"/>
    <tag k="name" v="Skoki"/>
    <tag k="place" v="town"/>
    <tag k="population" v="3779"/>
    <tag k="source:population" v="wikipedia"/>
    <tag k="teryt:rm" v="96"/>
    <tag k="teryt:simc" v="0971459"/>
    <tag k="teryt:stan_na" v="2009-01-01"/>
    <tag k="teryt:terc" v="3028054"/>
    <tag k="teryt:updated_by" v="teryt2osm combine.py v. 36M"/>
    <tag k="wikipedia" v="Skoki"/>
  </node>
  <node id="244002107" version="5" timestamp="2009-05-07T18:43:56Z" uid="115021" user="Jajcuś" changeset="1110413" lat="52.6731123" lon="17.1558147">
    <tag k="addr:postcode" v="62-085"/>
    <tag k="created_by" v="Potlatch 0.6c"/>
    <tag k="is_in" v="powiat wągrowiecki, województwo wielkopolskie, Poland"/>
    <tag k="is_in:country" v="Poland"/>
    <tag k="is_in:county" v="powiat wągrowiecki"/>
    <tag k="is_in:province" v="województwo wielkopolskie"/>
    <tag k="name" v="Skoki"/>
    <tag k="place" v="town"/>
    <tag k="population" v="3779"/>
    <tag k="source:population" v="wikipedia"/>
    <tag k="teryt:rm" v="96"/>
    <tag k="teryt:simc" v="0971459"/>
    <tag k="teryt:stan_na" v="2009-01-01"/>
    <tag k="teryt:terc" v="3028054"/>
    <tag k="teryt:updated_by" v="teryt2osm combine.py v. 47M"/>
    <tag k="wikipedia" v="Skoki"/>
  </node>
  <node id="244002107" version="6" timestamp="2009-05-08T18:41:24Z" uid="115021" user="Jajcuś" changeset="1120496" lat="52.6731123" lon="17.1558147">
    <tag k="addr:postcode" v="62-085"/>
    <tag k="created_by" v="Potlatch 0.6c"/>
    <tag k="is_in" v="powiat wągrowiecki, województwo wielkopolskie, Poland"/>
    <tag k="is_in:country" v="Poland"/>
    <tag k="is_in:county" v="powiat wągrowiecki"/>
    <tag k="is_in:municipality" v="gmina Skoki"/>
    <tag k="is_in:province" v="województwo wielkopolskie"/>
    <tag k="name" v="Skoki"/>
    <tag k="place" v="town"/>
    <tag k="population" v="3779"/>
    <tag k="source:population" v="wikipedia"/>
    <tag k="teryt:rm" v="96"/>
    <tag k="teryt:simc" v="0971459"/>
    <tag k="teryt:stan_na" v="2009-01-01"/>
    <tag k="teryt:terc" v="3028054"/>
    <tag k="teryt:updated_by" v="teryt2osm combine.py v. 49"/>
    <tag k="wikipedia" v="Skoki"/>
  </node>
  <node id="244002107" version="7" timestamp="2010-04-11T04:37:48Z" uid="20587" user="balrog-kun" changeset="4389130" lat="52.6725926" lon="17.1531343">
    <tag k="addr:postcode" v="62-085"/>
    <tag k="is_in" v="powiat wągrowiecki, województwo wielkopolskie, Poland"/>
    <tag k="is_in:country" v="Poland"/>
    <tag k="is_in:county" v="powiat wągrowiecki"/>
    <tag k="is_in:municipality" v="gmina Skoki"/>
    <tag k="is_in:province" v="województwo wielkopolskie"/>
    <tag k="name" v="Skoki"/>
    <tag k="place" v="town"/>
    <tag k="population" v="3779"/>
    <tag k="source:population" v="wikipedia"/>
    <tag k="teryt:rm" v="96"/>
    <tag k="teryt:simc" v="0971459"/>
    <tag k="teryt:stan_na" v="2009-01-01"/>
    <tag k="teryt:terc" v="3028054"/>
    <tag k="teryt:updated_by" v="teryt2osm combine.py v. 49"/>
    <tag k="wikipedia" v="Skoki"/>
  </node>
  <node id="244002157" version="5" timestamp="2009-05-01T20:50:46Z" uid="20587" user="balrog-kun" changeset="1042242" lat="52.7884204" lon="17.168861">
    <tag k="addr:postcode" v="62-100"/>
    <tag k="created_by" v="Potlatch 0.6c"/>
    <tag k="is_in" v="gmina Wągrowiec, powiat wągrowiecki, województwo wielkopolskie, Poland"/>
    <tag k="is_in:country" v="Poland"/>
    <tag k="is_in:county" v="powiat wągrowiecki"/>
    <tag k="is_in:municipality" v="gmina Wągrowiec"/>
    <tag k="is_in:province" v="województwo wielkopolskie"/>
    <tag k="name" v="Łęgowo"/>
    <tag k="place" v="village"/>
    <tag k="teryt:rm" v="01"/>
    <tag k="teryt:simc" v="0531921"/>
    <tag k="teryt:stan_na" v="2009-01-01"/>
    <tag k="teryt:terc" v="3028072"/>
    <tag k="teryt:updated_by" v="teryt2osm combine.py v. 43"/>
    <tag k="wikipedia" v="Łęgowo, Greater Poland Voivodeship"/>
  </node>
  <node id="244002157" version="6" timestamp="2010-04-11T04:37:48Z" uid="20587" user="balrog-kun" changeset="4389130" lat="52.7886213" lon="17.1693377">
    <tag k="addr:postcode" v="62-100"/>
    <tag k="is_in" v="gmina Wągrowiec, powiat wągrowiecki, województwo wielkopolskie, Poland"/>
    <tag k="is_in:country" v="Poland"/>
    <tag k="is_in:county" v="powiat wągrowiecki"/>
    <tag k="is_in:municipality" v="gmina Wągrowiec"/>
    <tag k="is_in:province" v="województwo wielkopolskie"/>
    <tag k="name" v="Łęgowo"/>
    <tag k="place" v="village"/>
    <tag k="teryt:rm" v="01"/>
    <tag k="teryt:simc" v="0531921"/>
    <tag k="teryt:stan_na" v="2009-01-01"/>
    <tag k="teryt:terc" v="3028072"/>
    <tag k="teryt:updated_by" v="teryt2osm combine.py v. 43"/>
    <tag k="wikipedia" v="Łęgowo, Greater Poland Voivodeship"/>
  </node>
  <node id="244002239" version="2" timestamp="2008-06-23T14:46:19Z" uid="27600" user="Islanit" changeset="270634" lat="54.1077253" lon="12.1521475">
    <tag k="created_by" v="JOSM"/>
  </node>
  <node id="244002242" version="2" timestamp="2008-06-23T14:46:19Z" uid="27600" user="Islanit" changeset="270634" lat="54.1082991" lon="12.1521346">
    <tag k="created_by" v="JOSM"/>
  </node>
  <node id="244002244" version="2" timestamp="2008-06-23T14:46:19Z" uid="27600" user="Islanit" changeset="270634" lat="54.1086658" lon="12.1521907">
    <tag k="created_by" v="JOSM"/>
  </node>
  <node id="244002287" version="6" timestamp="2008-10-16T18:11:36Z" uid="49111" user="Markus B" changeset="380014" lat="49.3209572" lon="10.8127307"/>
  <node id="244002288" version="7" timestamp="2008-10-16T18:11:36Z" uid="49111" user="Markus B" changeset="380014" lat="49.320548" lon="10.8117089"/>
  <node id="244004959" version="3" timestamp="2010-02-23T08:58:19Z" uid="27600" user="Islanit" changeset="3950580" lat="53.4231545" lon="9.9739293">
    <tag k="addr:housenumber" v="1"/>
    <tag k="addr:street" v="Beckedorfer Straße"/>
    <tag k="amenity" v="fire_station"/>
    <tag k="name" v="Frewillige Feuerwehr Sinstorf"/>
    <tag k="ref" v="F3915"/>
  </node>
  <node id="244004959" version="4" timestamp="2011-01-26T09:46:27Z" uid="40595" user="friesede" changeset="7091533" lat="53.4231326" lon="9.973872">
    <tag k="addr:housenumber" v="1"/>
    <tag k="addr:street" v="Beckedorfer Straße"/>
    <tag k="amenity" v="fire_station"/>
    <tag k="name" v="Frewillige Feuerwehr Sinstorf"/>
    <tag k="ref" v="F3915"/>
  </node>
  <node id="244004959" version="5" timestamp="2012-03-04T08:00:10Z" uid="63375" user="Divjo" changeset="10865391" lat="53.4231326" lon="9.973872"/>
  <node id="244005584" version="3" timestamp="2009-09-01T11:16:45Z" uid="36809" user="pfoten_weg_!_" changeset="2336357" lat="48.1206878" lon="11.5149238"/>
  <node id="244007986" version="2" timestamp="2008-02-16T19:38:16Z" uid="6975" user="ulfl" changeset="141861" lat="48.5655596" lon="17.8772376">
    <tag k="highway" v="bus_stop"/>
  </node>
  <node id="244007986" version="3" timestamp="2009-07-13T09:25:33Z" uid="29762" user="Jose Riha" changeset="1814975" lat="48.5655596" lon="17.8772376">
    <tag k="highway" v="bus_stop"/>
    <tag k="shelter" v="no"/>
  </node>
  <node id="244007986" version="4" timestamp="2009-08-02T10:45:28Z" uid="52833" user="Lukar" changeset="2012537" lat="48.5655821" lon="17.8770642">
    <tag k="highway" v="bus_stop"/>
    <tag k="shelter" v="no"/>
  </node>
  <node id="244008757" version="2" timestamp="2008-09-14T21:16:10Z" uid="6975" user="ulfl" changeset="640534" lat="52.5114406" lon="-1.8783508">
    <tag k="amenity" v="veterinary_hospital"/>
    <tag k="name" v="pdsa petAid Hospital"/>
  </node>
</osm>
