<?xml version='1.0' encoding='UTF-8'?>
<osm version="0.6" generator="libosmium/2.20.0">
  <node id="245187405" version="4" timestamp="2008-09-16T22:39:03Z" uid="6975" user="ulfl" changeset="654624" lat="44.822998" lon="0.5131571">
    <tag k="aeroway" v="airport"/>
    <tag k="name" v="Bergerac Roumanières"/>
  </node>
  <node id="245187405" version="5" timestamp="2008-09-30T15:28:22Z" uid="53048" user="jfnif" changeset="723468" lat="44.8229985" lon="0.5131486">
    <tag k="aeroway" v="airport"/>
    <tag k="created_by" v="Potlatch 0.10c"/>
    <tag k="name" v="Aéroport de Bergerac Roumanières"/>
  </node>
  <node id="245187405" version="6" timestamp="2008-10-19T14:03:22Z" uid="3085" user="mat" changeset="438972" lat="44.8229985" lon="0.5131486">
    <tag k="aeroway" v="aerodrome"/>
    <tag k="created_by" v="Potlatch 0.10c"/>
    <tag k="iata" v="EGC"/>
    <tag k="icao" v="LFBE"/>
    <tag k="name" v="Aéroport de Bergerac Roumanières"/>
  </node>
  <node id="245187405" version="7" timestamp="2011-04-27T15:56:37Z" uid="238521" user="Benz" changeset="7986410" lat="44.8229985" lon="0.5131486">
    <tag k="aeroway" v="aerodrome"/>
    <tag k="iata" v="EGC"/>
    <tag k="icao" v="LFBE"/>
    <tag k="int_name" v="Aéroport de Bergerac Roumanières"/>
    <tag k="name" v="Aéroport de Bergerac Roumanières"/>
  </node>
  <node id="245187437" version="2" timestamp="2008-07-03T17:48:28Z" uid="6975" user="ulfl" changeset="379368" lat="52.5226423" lon="5.4397612">
    <tag k="name" v="Bataviastad"/>
    <tag k="shop" v="mall"/>
  </node>
  <node id="245187437" version="3" timestamp="2009-11-01T16:12:05Z" uid="10927" user="Skywave" changeset="3007873" lat="52.5226423" lon="5.4397612">
    <tag k="name" v="Bataviastad"/>
    <tag k="shop" v="mall"/>
  </node>
</osm>
