<?xml version='1.0' encoding='UTF-8'?>
<osm version="0.6" generator="libosmium/2.20.0">
  <node id="246099524" version="2" timestamp="2008-02-16T19:15:52Z" uid="6975" user="ulfl" changeset="141861" lat="60.9983114" lon="24.4790487">
    <tag k="name" v="Valintatalo"/>
    <tag k="shop" v="supermarket"/>
  </node>
  <node id="246099524" version="3" timestamp="2009-06-28T10:26:24Z" uid="18769" user="boozeman" changeset="1661105" lat="60.9983114" lon="24.4790487">
    <tag k="addr:city" v="Hämeenlinna"/>
    <tag k="addr:country" v="FI"/>
    <tag k="name" v="Valintatalo"/>
    <tag k="shop" v="supermarket"/>
  </node>
  <node id="246099524" version="4" timestamp="2010-01-31T09:21:33Z" uid="18769" user="boozeman" changeset="3757207" lat="60.9982858" lon="24.4790017">
    <tag k="addr:city" v="Hämeenlinna"/>
    <tag k="addr:country" v="FI"/>
    <tag k="name" v="Valintatalo"/>
    <tag k="shop" v="supermarket"/>
  </node>
  <node id="246099524" version="5" timestamp="2011-06-21T08:00:23Z" uid="18769" user="boozeman" changeset="8502113" lat="60.9982858" lon="24.4790017"/>
  <node id="246099576" version="5" timestamp="2010-12-17T00:43:13Z" uid="6269" user="Mueck" changeset="6683028" lat="53.5831606" lon="8.5816081"/>
  <node id="246099576" version="6" timestamp="2012-01-05T21:56:11Z" uid="192065" user="Pedie" changeset="10306111" lat="53.5831632" lon="8.581587"/>
</osm>
