<?xml version='1.0' encoding='UTF-8'?>
<osm version="0.6" generator="libosmium/2.20.0">
  <node id="24680277" version="1" timestamp="2007-01-04T23:40:56Z" uid="1066" user="pavel" changeset="188101" lat="50.56412" lon="14.0408">
    <tag k="created_by" v="JOSM"/>
    <tag k="name" v="Libochovany"/>
    <tag k="railway" v="station"/>
  </node>
  <node id="24680277" version="2" timestamp="2008-01-10T01:37:46Z" uid="10817" user="NoOne" changeset="591195" lat="50.5641001" lon="14.0408104">
    <tag k="created_by" v="JOSM"/>
    <tag k="name" v="Libochovany"/>
    <tag k="railway" v="station"/>
  </node>
  <node id="24680277" version="3" timestamp="2010-06-22T22:15:39Z" uid="8007" user="vrabcak" changeset="5055396" lat="50.5641001" lon="14.0408104">
    <tag k="name" v="Libochovany"/>
    <tag k="railway" v="halt"/>
  </node>
  <node id="24680295" version="3" timestamp="2010-06-14T10:32:43Z" uid="38528" user="acrosscanadatrails" changeset="4986814" lat="44.6590863" lon="-63.633413"/>
  <node id="24680299" version="2" timestamp="2010-06-14T10:32:46Z" uid="38528" user="acrosscanadatrails" changeset="4986814" lat="44.658981" lon="-63.6336181"/>
  <node id="24680316" version="1" timestamp="2007-01-04T23:42:51Z" uid="1066" user="pavel" changeset="188101" lat="50.12757" lon="15.18339">
    <tag k="created_by" v="JOSM"/>
    <tag k="name" v="Libice n.Cidlinou"/>
    <tag k="railway" v="station"/>
  </node>
  <node id="24680316" version="2" timestamp="2008-02-25T23:47:45Z" uid="8007" user="vrabcak" changeset="207318" lat="50.1275023" lon="15.1833372">
    <tag k="created_by" v="JOSM"/>
    <tag k="name" v="Libice n.Cidlinou"/>
    <tag k="railway" v="station"/>
  </node>
  <node id="24680316" version="3" timestamp="2008-10-30T22:27:22Z" uid="8007" user="vrabcak" changeset="637998" lat="50.1275023" lon="15.1833372">
    <tag k="created_by" v="JOSM"/>
    <tag k="name" v="Libice nad Cidlinou"/>
    <tag k="railway" v="station"/>
  </node>
  <node id="24680316" version="4" timestamp="2008-11-03T07:22:14Z" uid="8007" user="vrabcak" changeset="663680" lat="50.1275329" lon="15.1833253">
    <tag k="created_by" v="JOSM"/>
    <tag k="name" v="Libice nad Cidlinou"/>
    <tag k="railway" v="station"/>
  </node>
  <node id="24680631" version="1" timestamp="2007-01-07T16:55:40Z" uid="1066" user="pavel" changeset="189654" lat="50.03615" lon="15.52695">
    <tag k="created_by" v="JOSM"/>
    <tag k="name" v="Lhota p.Prelouci"/>
    <tag k="railway" v="station"/>
  </node>
  <node id="24680871" version="1" timestamp="2007-01-04T23:50:19Z" uid="1066" user="pavel" changeset="188101" lat="50.03124" lon="16.50787">
    <tag k="created_by" v="JOSM"/>
    <tag k="name" v="Letohrad"/>
    <tag k="railway" v="station"/>
  </node>
  <node id="24680871" version="2" timestamp="2007-12-21T22:22:38Z" uid="1066" user="pavel" changeset="382744" lat="50.0313657" lon="16.5079454">
    <tag k="created_by" v="JOSM"/>
    <tag k="name" v="Letohrad"/>
    <tag k="railway" v="station"/>
  </node>
  <node id="24681341" version="1" timestamp="2007-09-25T17:51:50Z" uid="1066" user="pavel" changeset="515158" lat="50.1682468" lon="14.7122238">
    <tag k="created_by" v="JOSM"/>
    <tag k="name" v="Lazne Tousen"/>
    <tag k="railway" v="station"/>
  </node>
  <node id="24681341" version="2" timestamp="2007-11-17T03:10:49Z" uid="3516" user="BiIbo" changeset="543612" lat="50.1682468" lon="14.7122238">
    <tag k="created_by" v="JOSM"/>
    <tag k="name" v="Lázně Toušeň"/>
    <tag k="railway" v="station"/>
  </node>
  <node id="24681341" version="3" timestamp="2010-04-24T07:08:20Z" uid="84326" user="Mike Crash" changeset="4509387" lat="50.1682468" lon="14.7122238">
    <tag k="name" v="Lázně Toušeň"/>
    <tag k="railway" v="station"/>
  </node>
  <node id="24681379" version="1" timestamp="2007-01-04T23:53:56Z" uid="1066" user="pavel" changeset="188101" lat="49.99323" lon="12.61471">
    <tag k="created_by" v="JOSM"/>
    <tag k="name" v="Lazne Kynzvart"/>
    <tag k="railway" v="station"/>
  </node>
  <node id="24681379" version="2" timestamp="2008-07-31T18:15:45Z" uid="25693" user="Jiří Jakeš" changeset="637318" lat="49.99323" lon="12.61471">
    <tag k="created_by" v="JOSM"/>
    <tag k="name" v="Lázně Kynžvart"/>
    <tag k="railway" v="station"/>
  </node>
  <node id="24681379" version="3" timestamp="2010-08-19T12:52:56Z" uid="162287" user="zby-cz" changeset="5535045" lat="49.9933417" lon="12.6139482">
    <tag k="name" v="Lázně Kynžvart"/>
    <tag k="railway" v="station"/>
  </node>
  <node id="24681787" version="4" timestamp="2011-02-18T02:17:51Z" uid="6269" user="Mueck" changeset="7319061" lat="49.0308672" lon="8.3409947"/>
  <node id="24681787" version="5" timestamp="2012-02-22T23:03:49Z" uid="165061" user="keinname" changeset="10763567" lat="49.0308672" lon="8.3409947">
    <tag k="highway" v="traffic_signals"/>
  </node>
  <node id="24681805" version="3" timestamp="2011-02-18T02:17:50Z" uid="6269" user="Mueck" changeset="7319061" lat="49.0290178" lon="8.3428354"/>
  <node id="24681846" version="3" timestamp="2011-02-19T01:25:36Z" uid="6269" user="Mueck" changeset="7328146" lat="49.0326501" lon="8.3392269"/>
  <node id="24681861" version="4" timestamp="2011-02-18T02:17:51Z" uid="6269" user="Mueck" changeset="7319061" lat="49.0310063" lon="8.3412984"/>
  <node id="24681865" version="3" timestamp="2011-02-18T02:17:51Z" uid="6269" user="Mueck" changeset="7319061" lat="49.0295641" lon="8.3426844"/>
  <node id="24681870" version="2" timestamp="2008-07-03T12:49:31Z" uid="6269" user="Mueck" changeset="377650" lat="49.036867" lon="8.3415277"/>
  <node id="24681870" version="3" timestamp="2011-09-04T17:32:44Z" uid="212553" user="ARWIE" changeset="9210873" lat="49.0368612" lon="8.3415655"/>
  <node id="24681870" version="4" timestamp="2012-02-10T19:47:06Z" uid="16330" user="aluka" changeset="10646700" lat="49.0368602" lon="8.341532"/>
  <node id="24681931" version="1" timestamp="2007-01-05T21:14:28Z" uid="1066" user="pavel" changeset="188621" lat="49.30107" lon="16.53391">
    <tag k="created_by" v="JOSM"/>
    <tag k="name" v="Kurim"/>
    <tag k="railway" v="station"/>
  </node>
  <node id="24682071" version="2" timestamp="2008-07-03T18:00:31Z" uid="6975" user="ulfl" changeset="379368" lat="52.6407252" lon="0.6893627">
    <tag k="landuse" v="cemetery"/>
    <tag k="name" v="Cemetery"/>
  </node>
  <node id="24682071" version="3" timestamp="2011-10-17T14:49:14Z" uid="735" user="blackadder" changeset="9582784" lat="52.6407252" lon="0.6893627"/>
  <node id="24683571" version="1" timestamp="2007-01-07T16:55:26Z" uid="1066" user="pavel" changeset="189654" lat="50.01279" lon="15.89726">
    <tag k="created_by" v="JOSM"/>
    <tag k="name" v="Kostenice"/>
    <tag k="railway" v="station"/>
  </node>
  <node id="24684037" version="1" timestamp="2007-01-05T00:13:37Z" uid="1066" user="pavel" changeset="188101" lat="50.03875" lon="15.20931">
    <tag k="created_by" v="JOSM"/>
    <tag k="name" v="Kolin-Zalabi"/>
    <tag k="railway" v="station"/>
  </node>
  <node id="24684037" version="2" timestamp="2008-02-21T06:47:46Z" uid="8007" user="vrabcak" changeset="169175" lat="50.03875" lon="15.20931">
    <tag k="created_by" v="JOSM"/>
    <tag k="name" v="Kolín-Zálabí"/>
    <tag k="railway" v="halt"/>
  </node>
  <node id="24684037" version="3" timestamp="2008-11-03T07:22:14Z" uid="8007" user="vrabcak" changeset="663680" lat="50.0387807" lon="15.2092981">
    <tag k="created_by" v="JOSM"/>
    <tag k="name" v="Kolín-Zálabí"/>
    <tag k="railway" v="halt"/>
  </node>
  <node id="24684037" version="4" timestamp="2009-07-21T05:16:23Z" uid="8007" user="vrabcak" changeset="1891176" lat="50.0376719" lon="15.2099981">
    <tag k="name" v="Kolín-Zálabí"/>
    <tag k="railway" v="halt"/>
  </node>
  <node id="24684037" version="5" timestamp="2012-02-28T13:11:30Z" uid="101128" user="LuKo" changeset="10818527" lat="50.0373573" lon="15.2101547">
    <tag k="name" v="Kolín-Zálabí"/>
    <tag k="railway" v="halt"/>
  </node>
  <node id="24684037" version="6" timestamp="2012-02-28T13:51:51Z" uid="101128" user="LuKo" changeset="10818843" lat="50.0373612" lon="15.2101821">
    <tag k="name" v="Kolín-Zálabí"/>
    <tag k="railway" v="halt"/>
  </node>
  <node id="24684050" version="1" timestamp="2007-01-07T16:54:02Z" uid="1066" user="pavel" changeset="189654" lat="50.02995" lon="15.19546">
    <tag k="created_by" v="JOSM"/>
    <tag k="name" v="Kolin zast."/>
    <tag k="railway" v="station"/>
  </node>
  <node id="24684151" version="1" timestamp="2007-01-07T16:54:40Z" uid="1066" user="pavel" changeset="189654" lat="50.04047" lon="15.39774">
    <tag k="created_by" v="JOSM"/>
    <tag k="name" v="Kojice"/>
    <tag k="railway" v="station"/>
  </node>
  <node id="24684167" version="1" timestamp="2007-01-05T21:14:49Z" uid="1066" user="pavel" changeset="188621" lat="49.34542" lon="17.3048">
    <tag k="created_by" v="JOSM"/>
    <tag k="name" v="Kojetin"/>
    <tag k="railway" v="station"/>
  </node>
  <node id="24684376" version="1" timestamp="2007-01-07T16:55:41Z" uid="1066" user="pavel" changeset="189654" lat="50.09351" lon="14.90392">
    <tag k="created_by" v="JOSM"/>
    <tag k="name" v="Klucov"/>
    <tag k="railway" v="station"/>
  </node>
  <node id="24684592" version="1" timestamp="2007-01-05T00:17:22Z" uid="1066" user="pavel" changeset="188101" lat="50.13057" lon="14.06727">
    <tag k="created_by" v="JOSM"/>
    <tag k="name" v="Kladno-Rozdelov"/>
    <tag k="railway" v="station"/>
  </node>
  <node id="24684592" version="2" timestamp="2008-01-27T18:59:56Z" uid="3516" user="BiIbo" changeset="699812" lat="50.1313169" lon="14.0673396">
    <tag k="created_by" v="JOSM"/>
    <tag k="name" v="Kladno-Rozdělov"/>
    <tag k="railway" v="station"/>
  </node>
  <node id="24684592" version="3" timestamp="2008-06-02T08:04:35Z" uid="8007" user="vrabcak" changeset="19024" lat="50.1313169" lon="14.0673396">
    <tag k="created_by" v="JOSM"/>
    <tag k="name" v="Kladno-Rozdělov"/>
    <tag k="railway" v="station"/>
  </node>
  <node id="24684592" version="4" timestamp="2010-06-20T13:12:29Z" uid="17615" user="Petr Dlouhý" changeset="5032841" lat="50.1313356" lon="14.0673818">
    <tag k="name" v="Kladno-Rozdělov"/>
    <tag k="railway" v="station"/>
  </node>
  <node id="24684692" version="1" timestamp="2007-01-05T00:17:34Z" uid="1066" user="pavel" changeset="188101" lat="50.12744" lon="14.11347">
    <tag k="created_by" v="JOSM"/>
    <tag k="name" v="Kladno"/>
    <tag k="railway" v="station"/>
  </node>
  <node id="24684692" version="2" timestamp="2008-06-02T08:03:44Z" uid="8007" user="vrabcak" changeset="19024" lat="50.1277631" lon="14.113573">
    <tag k="created_by" v="JOSM"/>
    <tag k="name" v="Kladno"/>
    <tag k="railway" v="station"/>
  </node>
  <node id="24684692" version="3" timestamp="2009-03-14T22:11:44Z" uid="3516" user="BiIbo" changeset="807112" lat="50.1276778" lon="14.1136143">
    <tag k="created_by" v="JOSM"/>
    <tag k="name" v="Kladno"/>
    <tag k="railway" v="station"/>
  </node>
  <node id="24685430" version="1" timestamp="2007-01-05T00:24:55Z" uid="1066" user="pavel" changeset="188101" lat="50.13987" lon="14.03872">
    <tag k="created_by" v="JOSM"/>
    <tag k="name" v="Kamenne zehrovice"/>
    <tag k="railway" v="station"/>
  </node>
  <node id="24685430" version="2" timestamp="2008-01-27T18:59:56Z" uid="3516" user="BiIbo" changeset="699812" lat="50.1401911" lon="14.0380921">
    <tag k="created_by" v="JOSM"/>
    <tag k="name" v="Kamenné Žehrovice"/>
    <tag k="railway" v="station"/>
  </node>
  <node id="24685657" version="1" timestamp="2007-01-05T00:25:51Z" uid="1066" user="pavel" changeset="188101" lat="50.15568" lon="13.99486">
    <tag k="created_by" v="JOSM"/>
    <tag k="name" v="Kacice"/>
    <tag k="railway" v="station"/>
  </node>
  <node id="24685657" version="2" timestamp="2007-12-24T21:27:58Z" uid="5748" user="fatbozz" changeset="413522" lat="50.1563617" lon="13.9949026">
    <tag k="created_by" v="JOSM"/>
    <tag k="name" v="Kacice"/>
    <tag k="railway" v="station"/>
  </node>
  <node id="24685657" version="3" timestamp="2009-02-23T09:57:20Z" uid="3516" user="BiIbo" changeset="630842" lat="50.1563617" lon="13.9949026">
    <tag k="created_by" v="JOSM"/>
    <tag k="name" v="Kačice"/>
    <tag k="railway" v="station"/>
  </node>
  <node id="24685657" version="4" timestamp="2009-02-23T09:58:57Z" uid="3516" user="BiIbo" changeset="630842" lat="50.1563482" lon="13.9949587">
    <tag k="created_by" v="JOSM"/>
    <tag k="name" v="Kačice"/>
    <tag k="railway" v="station"/>
  </node>
  <node id="24686566" version="1" timestamp="2007-01-05T10:23:34Z" uid="1066" user="pavel" changeset="188555" lat="49.87728" lon="14.50082">
    <tag k="created_by" v="JOSM"/>
    <tag k="name" v="Jilove u Prahy"/>
    <tag k="railway" v="station"/>
  </node>
  <node id="24686793" version="1" timestamp="2007-01-05T00:33:44Z" uid="1066" user="pavel" changeset="188101" lat="49.57653" lon="14.60777">
    <tag k="created_by" v="JOSM"/>
    <tag k="name" v="Jesetice"/>
    <tag k="railway" v="station"/>
  </node>
  <node id="24686793" version="2" timestamp="2008-06-29T20:22:45Z" uid="1066" user="pavel" changeset="335651" lat="49.5768543" lon="14.6071949">
    <tag k="created_by" v="JOSM"/>
    <tag k="name" v="Jesetice"/>
    <tag k="railway" v="station"/>
  </node>
  <node id="24686793" version="3" timestamp="2008-06-29T21:00:22Z" uid="1066" user="pavel" changeset="335651" lat="49.5768468" lon="14.6072525">
    <tag k="created_by" v="JOSM"/>
    <tag k="name" v="Jesetice"/>
    <tag k="railway" v="station"/>
  </node>
  <node id="24686793" version="4" timestamp="2009-05-27T07:44:12Z" uid="11629" user="Stanislav Brabec" changeset="1331863" lat="49.5768468" lon="14.6072525">
    <tag k="created_by" v="JOSM"/>
    <tag k="name" v="Ješetice"/>
    <tag k="railway" v="station"/>
  </node>
  <node id="24686965" version="1" timestamp="2007-01-05T00:34:27Z" uid="1066" user="pavel" changeset="188101" lat="50.09485" lon="14.21365">
    <tag k="created_by" v="JOSM"/>
    <tag k="name" v="Jenec zastavka"/>
    <tag k="railway" v="station"/>
  </node>
  <node id="24686965" version="2" timestamp="2009-04-04T21:24:46Z" uid="17615" user="Petr Dlouhý" changeset="179774" lat="50.09485" lon="14.21365">
    <tag k="created_by" v="JOSM"/>
    <tag k="name" v="Jeneč zastávka"/>
    <tag k="railway" v="station"/>
  </node>
  <node id="24686965" version="3" timestamp="2009-10-05T18:23:22Z" uid="3516" user="BiIbo" changeset="2751327" lat="50.0946221" lon="14.2137289">
    <tag k="name" v="Jeneč zastávka"/>
    <tag k="railway" v="station"/>
  </node>
  <node id="24686965" version="4" timestamp="2011-10-05T14:35:59Z" uid="248441" user="Jandrs" changeset="9478568" lat="50.0946083" lon="14.213705">
    <tag k="name" v="Jeneč zastávka"/>
    <tag k="railway" v="station"/>
  </node>
  <node id="24686980" version="1" timestamp="2007-09-12T15:05:35Z" uid="1066" user="pavel" changeset="415600" lat="50.0948769" lon="14.2095384">
    <tag k="created_by" v="JOSM"/>
    <tag k="name" v="Jenec (nadrazi cD)"/>
    <tag k="railway" v="station"/>
  </node>
  <node id="24686980" version="2" timestamp="2008-06-02T08:03:44Z" uid="8007" user="vrabcak" changeset="19024" lat="50.0948769" lon="14.2095384">
    <tag k="created_by" v="JOSM"/>
    <tag k="name" v="Jenec (nadrazi cD)"/>
    <tag k="railway" v="station"/>
  </node>
  <node id="24686980" version="3" timestamp="2008-06-02T08:12:29Z" uid="8007" user="vrabcak" changeset="19024" lat="50.0948769" lon="14.2095384"/>
  <node id="24687991" version="1" timestamp="2007-01-07T20:10:01Z" uid="1066" user="pavel" changeset="190086" lat="50.45968" lon="14.2294658">
    <tag k="created_by" v="JOSM"/>
    <tag k="name" v="Hrobce"/>
    <tag k="railway" v="station"/>
  </node>
  <node id="24687991" version="2" timestamp="2008-06-06T21:29:00Z" uid="3516" user="BiIbo" changeset="79005" lat="50.459701" lon="14.2292455">
    <tag k="created_by" v="JOSM"/>
    <tag k="name" v="Hrobce"/>
    <tag k="railway" v="station"/>
  </node>
  <node id="24687991" version="3" timestamp="2008-07-11T13:29:49Z" uid="3516" user="BiIbo" changeset="459198" lat="50.459701" lon="14.2291358">
    <tag k="created_by" v="JOSM"/>
    <tag k="name" v="Hrobce"/>
    <tag k="railway" v="station"/>
  </node>
  <node id="24688102" version="1" timestamp="2007-01-05T00:38:26Z" uid="1066" user="pavel" changeset="188101" lat="50.48421" lon="14.17691">
    <tag k="created_by" v="JOSM"/>
    <tag k="name" v="Hrdly"/>
    <tag k="railway" v="station"/>
  </node>
  <node id="24688402" version="1" timestamp="2007-01-05T21:14:39Z" uid="1066" user="pavel" changeset="188621" lat="49.33353" lon="16.43957">
    <tag k="created_by" v="JOSM"/>
    <tag k="name" v="Hradcany"/>
    <tag k="railway" v="station"/>
  </node>
  <node id="24688462" version="1" timestamp="2007-02-11T23:12:51Z" uid="1066" user="pavel" changeset="214599" lat="50.1011119" lon="14.2024617"/>
  <node id="24688468" version="1" timestamp="2007-02-15T11:59:16Z" uid="1066" user="pavel" changeset="216597" lat="50.0704703" lon="14.2237693"/>
  <node id="24688476" version="1" timestamp="2007-04-29T16:47:40Z" uid="1066" user="pavel" changeset="32048" lat="50.0840901" lon="14.2583915"/>
  <node id="24688476" version="2" timestamp="2008-06-02T08:18:51Z" uid="8007" user="vrabcak" changeset="19024" lat="50.0840901" lon="14.2583915">
    <tag k="name" v="Hostivice"/>
    <tag k="railway" v="station"/>
  </node>
  <node id="24688476" version="3" timestamp="2011-02-06T00:53:20Z" uid="3516" user="BiIbo" changeset="7197794" lat="50.0841363" lon="14.25841">
    <tag k="name" v="Hostivice"/>
    <tag k="railway" v="station"/>
  </node>
  <node id="24688947" version="1" timestamp="2007-01-05T00:42:48Z" uid="1066" user="pavel" changeset="188101" lat="50.42239" lon="14.38648">
    <tag k="created_by" v="JOSM"/>
    <tag k="name" v="Horni Pocaply"/>
    <tag k="railway" v="station"/>
  </node>
  <node id="24688947" version="2" timestamp="2008-09-04T06:12:17Z" uid="8007" user="vrabcak" changeset="523685" lat="50.4229806" lon="14.3859618">
    <tag k="created_by" v="JOSM"/>
    <tag k="name" v="Horní Počaply"/>
    <tag k="railway" v="halt"/>
  </node>
  <node id="24689885" version="1" timestamp="2007-01-05T00:46:30Z" uid="1066" user="pavel" changeset="188101" lat="50.45223" lon="14.362">
    <tag k="created_by" v="JOSM"/>
    <tag k="name" v="Hnevice"/>
    <tag k="railway" v="station"/>
  </node>
  <node id="24689885" version="2" timestamp="2008-08-24T16:03:58Z" uid="12615" user="Nenik" changeset="390342" lat="50.4521919" lon="14.3619237">
    <tag k="created_by" v="JOSM"/>
    <tag k="name" v="Hnevice"/>
    <tag k="railway" v="station"/>
  </node>
  <node id="24689885" version="3" timestamp="2009-09-15T21:21:43Z" uid="17615" user="Petr Dlouhý" changeset="2497344" lat="50.4521919" lon="14.3619237">
    <tag k="name" v="Hněvice"/>
    <tag k="railway" v="station"/>
  </node>
  <node id="24689920" version="1" timestamp="2007-01-05T00:46:34Z" uid="1066" user="pavel" changeset="188101" lat="50.00075" lon="16.46067">
    <tag k="created_by" v="JOSM"/>
    <tag k="name" v="Hnatnice"/>
    <tag k="railway" v="station"/>
  </node>
  <node id="24689920" version="2" timestamp="2008-02-02T15:19:25Z" uid="3516" user="BiIbo" changeset="14677" lat="50.0015922" lon="16.4612954">
    <tag k="created_by" v="JOSM"/>
    <tag k="name" v="Hnatnice"/>
    <tag k="railway" v="station"/>
  </node>
  <node id="24689920" version="3" timestamp="2008-10-30T06:57:55Z" uid="8007" user="vrabcak" changeset="630816" lat="50.0015922" lon="16.4612954">
    <tag k="created_by" v="JOSM"/>
    <tag k="name" v="Hnátnice"/>
    <tag k="railway" v="halt"/>
  </node>
  <node id="24680277" version="4" timestamp="2012-07-24T12:05:57Z" uid="722137" user="OSMF Redaction Account" changeset="12464954" lat="50.5641001" lon="14.0408104">
    <tag k="railway" v="halt"/>
  </node>
  <node id="24680277" version="5" timestamp="2012-09-01T21:00:08Z" uid="8007" user="vrabcak" changeset="12947099" lat="50.5641001" lon="14.0408104">
    <tag k="name" v="Libochovany"/>
    <tag k="railway" v="halt"/>
  </node>
  <node id="24680295" version="4" timestamp="2012-05-12T16:47:41Z" uid="28895" user="PurpleMustang" changeset="11578423" lat="44.6590863" lon="-63.633413"/>
  <node id="24680299" version="3" timestamp="2012-05-12T16:47:41Z" uid="28895" user="PurpleMustang" changeset="11578423" lat="44.658981" lon="-63.6336181"/>
  <node id="24680316" version="5" timestamp="2012-07-17T03:19:35Z" uid="722137" user="OSMF Redaction Account" changeset="12255995" lat="50.1275329" lon="15.1833253">
    <tag k="name" v="Libice nad Cidlinou"/>
  </node>
  <node id="24680316" version="6" timestamp="2012-07-20T22:43:52Z" uid="101128" user="LuKo" changeset="12395151" lat="50.1275329" lon="15.1833253">
    <tag k="name" v="Libice nad Cidlinou"/>
    <tag k="railway" v="station"/>
  </node>
  <node id="24680871" version="3" timestamp="2012-07-17T01:09:51Z" uid="722137" user="OSMF Redaction Account" changeset="12254566" lat="50.0313657" lon="16.5079454"/>
  <node id="24680871" version="4" timestamp="2012-09-01T20:56:30Z" uid="8007" user="vrabcak" changeset="12947055" lat="50.0314767" lon="16.5076403">
    <tag k="name" v="Letohrad"/>
    <tag k="railway" v="station"/>
  </node>
  <node id="24681379" version="4" timestamp="2012-07-16T23:20:49Z" uid="722137" user="OSMF Redaction Account" changeset="12253345" lat="49.9933417" lon="12.6139482">
    <tag k="name" v="Lázně Kynžvart"/>
  </node>
  <node id="24681379" version="5" timestamp="2012-09-01T21:19:27Z" uid="8007" user="vrabcak" changeset="12947292" lat="49.9933417" lon="12.6139482">
    <tag k="name" v="Lázně Kynžvart"/>
    <tag k="railway" v="station"/>
  </node>
  <node id="24681787" version="6" timestamp="2012-07-17T14:57:04Z" uid="722137" user="OSMF Redaction Account" changeset="12267828" lat="49.0308235" lon="8.3410595">
    <tag k="highway" v="traffic_signals"/>
  </node>
  <node id="24681787" version="7" timestamp="2012-07-17T20:08:25Z" uid="32952" user="DennisL" changeset="12271627" lat="49.0308632" lon="8.3410004">
    <tag k="highway" v="traffic_signals"/>
  </node>
  <node id="24681805" version="4" timestamp="2012-07-17T14:57:02Z" uid="722137" user="OSMF Redaction Account" changeset="12267821" lat="49.0290084" lon="8.3428462"/>
  <node id="24681846" version="4" timestamp="2012-07-17T14:57:05Z" uid="722137" user="OSMF Redaction Account" changeset="12267828" lat="49.0322533" lon="8.3396701"/>
  <node id="24681861" version="5" timestamp="2012-07-17T14:57:04Z" uid="722137" user="OSMF Redaction Account" changeset="12267828" lat="49.0309616" lon="8.3413709"/>
  <node id="24681861" version="6" timestamp="2012-07-17T20:08:25Z" uid="32952" user="DennisL" changeset="12271627" lat="49.0309994" lon="8.3413148"/>
  <node id="24681865" version="4" timestamp="2012-07-17T14:57:02Z" uid="722137" user="OSMF Redaction Account" changeset="12267821" lat="49.0295781" lon="8.342721"/>
  <node id="24684037" version="7" timestamp="2012-04-13T10:36:04Z" uid="101128" user="LuKo" changeset="11285998" lat="50.0373389" lon="15.2100941">
    <tag k="name" v="Kolín-Zálabí"/>
    <tag k="railway" v="halt"/>
  </node>
  <node id="24684037" version="8" timestamp="2012-04-16T06:02:42Z" uid="101128" user="LuKo" changeset="11318249" lat="50.0373478" lon="15.2101183">
    <tag k="name" v="Kolín-Zálabí"/>
    <tag k="railway" v="halt"/>
  </node>
  <node id="24684037" version="9" timestamp="2012-07-17T03:20:33Z" uid="722137" user="OSMF Redaction Account" changeset="12256010" lat="50.0373478" lon="15.2101183">
    <tag k="railway" v="halt"/>
  </node>
  <node id="24684037" version="10" timestamp="2012-07-17T15:31:41Z" uid="101128" user="LuKo" changeset="12268174" lat="50.0373478" lon="15.2101183">
    <tag k="name" v="Kolín-Zálabí"/>
    <tag k="railway" v="halt"/>
  </node>
  <node id="24684592" version="5" timestamp="2012-07-24T14:40:51Z" uid="722137" user="OSMF Redaction Account" changeset="12468171" lat="50.1313356" lon="14.0673818"/>
  <node id="24684692" version="4" timestamp="2012-07-24T14:40:51Z" uid="722137" user="OSMF Redaction Account" changeset="12468171" lat="50.1276778" lon="14.1136143"/>
  <node id="24685430" version="3" timestamp="2012-07-24T14:41:15Z" uid="722137" user="OSMF Redaction Account" changeset="12468182" lat="50.1401911" lon="14.0380921">
    <tag k="name" v="Kamenné Žehrovice"/>
  </node>
  <node id="24685430" version="4" timestamp="2012-09-01T20:39:05Z" uid="8007" user="vrabcak" changeset="12946866" lat="50.1401911" lon="14.0380921">
    <tag k="name" v="Kamenné Žehrovice"/>
    <tag k="railway" v="station"/>
  </node>
  <node id="24685657" version="5" timestamp="2012-07-18T10:03:52Z" uid="722137" user="OSMF Redaction Account" changeset="12277117" lat="50.1563482" lon="13.9949587">
    <tag k="name" v="Kačice"/>
  </node>
  <node id="24685657" version="6" timestamp="2012-09-01T20:39:05Z" uid="8007" user="vrabcak" changeset="12946866" lat="50.1563931" lon="13.9951926">
    <tag k="name" v="Kačice"/>
    <tag k="railway" v="halt"/>
  </node>
  <node id="24686793" version="5" timestamp="2012-07-17T00:43:58Z" uid="722137" user="OSMF Redaction Account" changeset="12254324" lat="49.5768468" lon="14.6072525">
    <tag k="name" v="Ješetice"/>
  </node>
  <node id="24686793" version="6" timestamp="2012-09-01T19:49:52Z" uid="8007" user="vrabcak" changeset="12946323" lat="49.5768468" lon="14.6072525">
    <tag k="name" v="Ješetice"/>
    <tag k="railway" v="station"/>
  </node>
  <node id="24686965" version="5" timestamp="2012-07-24T14:37:41Z" uid="722137" user="OSMF Redaction Account" changeset="12468085" lat="50.0946083" lon="14.213705">
    <tag k="name" v="Jeneč zastávka"/>
  </node>
  <node id="24686965" version="6" timestamp="2012-09-09T21:44:42Z" uid="8007" user="vrabcak" changeset="13050529" lat="50.0946433" lon="14.2132899">
    <tag k="name" v="Jeneč zastávka"/>
    <tag k="railway" v="halt"/>
  </node>
  <node id="24688102" version="2" timestamp="2012-07-24T14:34:07Z" uid="722137" user="OSMF Redaction Account" changeset="12468015" lat="50.48421" lon="14.17691"/>
  <node id="24688947" version="3" timestamp="2012-06-03T20:57:10Z" uid="507276" user="FuckOSMFandODbL" changeset="11790998" lat="50.4229769" lon="14.3859414">
    <tag k="name" v="Horní Počaply"/>
    <tag k="railway" v="halt"/>
  </node>
  <node id="24689885" version="4" timestamp="2012-07-24T12:13:11Z" uid="722137" user="OSMF Redaction Account" changeset="12465115" lat="50.4521919" lon="14.3619237"/>
  <node id="24689920" version="4" timestamp="2012-07-17T02:05:57Z" uid="722137" user="OSMF Redaction Account" changeset="12255136" lat="50.0015922" lon="16.4612954">
    <tag k="railway" v="halt"/>
  </node>
  <node id="24689920" version="5" timestamp="2012-09-01T19:27:48Z" uid="8007" user="vrabcak" changeset="12946101" lat="50.0015922" lon="16.4612954">
    <tag k="name" v="Hnátnice"/>
    <tag k="railway" v="halt"/>
  </node>
</osm>
