<?xml version='1.0' encoding='UTF-8'?>
<osm version="0.6" generator="libosmium/2.20.0">
  <node id="246944507" version="3" timestamp="2008-07-03T20:39:44Z" uid="6975" user="ulfl" changeset="386611" lat="54.0743858" lon="12.0874726">
    <tag k="highway" v="bus_stop"/>
    <tag k="name" v="Neuer Friedhof"/>
  </node>
  <node id="246944507" version="4" timestamp="2008-12-10T16:27:16Z" uid="55988" user="Masch" changeset="305574" lat="54.0743858" lon="12.0874726">
    <tag k="highway" v="bus_stop"/>
    <tag k="name" v="Neuer Friedhof"/>
  </node>
  <node id="246945474" version="2" timestamp="2008-07-03T20:39:36Z" uid="6975" user="ulfl" changeset="386611" lat="54.0802244" lon="12.0862868">
    <tag k="highway" v="bus_stop"/>
    <tag k="name" v="Zoo"/>
  </node>
  <node id="246945474" version="3" timestamp="2008-07-28T08:52:29Z" uid="29017" user="FrankT" changeset="615553" lat="54.0802244" lon="12.0862868">
    <tag k="highway" v="bus_stop"/>
    <tag k="name" v="Zoo"/>
  </node>
  <node id="246945474" version="4" timestamp="2008-12-10T16:42:38Z" uid="55988" user="Masch" changeset="305574" lat="54.0802244" lon="12.0862868">
    <tag k="highway" v="bus_stop"/>
    <tag k="name" v="Zoo"/>
  </node>
</osm>
