<?xml version='1.0' encoding='UTF-8'?>
<osm version="0.6" generator="libosmium/2.20.0">
  <node id="250180949" version="2" timestamp="2008-07-05T18:05:12Z" uid="6975" user="ulfl" changeset="398437" lat="44.0104429" lon="-79.4214869">
    <tag k="leisure" v="sports_centre"/>
    <tag k="name" v="Aurora Recreational Complex"/>
  </node>
  <node id="250180949" version="3" timestamp="2011-04-25T07:01:49Z" uid="1679" user="andrewpmk" changeset="7959746" lat="44.0107708" lon="-79.4226076">
    <tag k="leisure" v="sports_centre"/>
    <tag k="name" v="Aurora Recreational Complex"/>
  </node>
  <node id="250180949" version="4" timestamp="2011-04-25T07:03:48Z" uid="1679" user="andrewpmk" changeset="7959767" lat="44.0107708" lon="-79.4226076">
    <tag k="leisure" v="sports_centre"/>
    <tag k="name" v="Aurora Recreational Complex"/>
  </node>
  <node id="250181628" version="2" timestamp="2010-11-15T20:13:38Z" uid="8619" user="cetest" changeset="6380249" lat="51.921953" lon="4.4107037">
    <tag k="amenity" v="parking"/>
  </node>
  <node id="250181628" version="3" timestamp="2011-08-30T08:38:59Z" uid="203114" user="Jeroen Muris" changeset="9164865" lat="51.9222454" lon="4.4094823">
    <tag k="amenity" v="parking"/>
    <tag k="name" v="P+R Schiedam"/>
    <tag k="park_ride" v="yes"/>
    <tag k="parking" v="surface"/>
  </node>
</osm>
