<?xml version='1.0' encoding='UTF-8'?>
<osm version="0.6" generator="libosmium/2.20.0">
  <node id="251164000" version="6" timestamp="2010-03-06T22:37:45Z" uid="6975" user="ulfl" changeset="4055789" lat="42.7956939" lon="-0.5251112">
    <tag k="barrier" v="border_control"/>
    <tag k="ele" v="1632"/>
    <tag k="mountain_pass" v="yes"/>
    <tag k="name" v="Somport"/>
    <tag k="name:es" v="Somport"/>
    <tag k="name:fr" v="Col du Somport"/>
    <tag k="place" v="locality"/>
    <tag k="ref" v="A 63"/>
    <tag k="wikipedia" v="http://de.wikipedia.org/wiki/Somport"/>
  </node>
  <node id="251164000" version="7" timestamp="2010-05-14T09:40:32Z" uid="10610" user="RedFox" changeset="4693917" lat="42.7956939" lon="-0.5251112"/>
  <node id="251164000" version="8" timestamp="2012-02-12T16:19:10Z" uid="9065" user="brianboru" changeset="10664585" lat="42.7956863" lon="-0.5251421"/>
  <node id="251165060" version="5" timestamp="2008-07-07T00:00:24Z" uid="6975" user="ulfl" changeset="415781" lat="51.4953919" lon="7.3700731">
    <tag k="is_in" v="Europe, Germany, Deutschland, Dortmund"/>
    <tag k="name" v="Real"/>
    <tag k="shop" v="supermarket"/>
  </node>
  <node id="251165060" version="6" timestamp="2008-11-19T15:04:22Z" uid="11359" user="fnolz" changeset="768538" lat="51.4946066" lon="7.3709394">
    <tag k="is_in" v="Europe, Germany, Deutschland, Dortmund"/>
    <tag k="name" v="Real"/>
    <tag k="shop" v="supermarket"/>
  </node>
  <node id="251165060" version="7" timestamp="2009-02-12T19:19:09Z" uid="56401" user="GandalfTheWhite" changeset="381086" lat="51.494607" lon="7.3709369">
    <tag k="addr:street" v="Wulfshofstraße"/>
    <tag k="created_by" v="Potlatch 0.10f"/>
    <tag k="is_in" v="Europe, Germany, Deutschland, Dortmund"/>
    <tag k="name" v="Real"/>
    <tag k="shop" v="supermarket"/>
  </node>
  <node id="251165060" version="8" timestamp="2009-02-12T19:19:18Z" uid="56401" user="GandalfTheWhite" changeset="381086" lat="51.494607" lon="7.3709369">
    <tag k="addr:housenumber" v="6-8"/>
    <tag k="addr:street" v="Wulfshofstraße"/>
    <tag k="created_by" v="Potlatch 0.10f"/>
    <tag k="is_in" v="Europe, Germany, Deutschland, Dortmund"/>
    <tag k="name" v="Real"/>
    <tag k="shop" v="supermarket"/>
  </node>
  <node id="251165060" version="9" timestamp="2010-03-19T15:34:02Z" uid="11359" user="fnolz" changeset="4171070" lat="51.494607" lon="7.3709369">
    <tag k="addr:housenumber" v="6-8"/>
    <tag k="addr:street" v="Wulfshofstraße"/>
    <tag k="is_in" v="Europe, Germany, Deutschland, Dortmund"/>
    <tag k="name" v="real"/>
    <tag k="shop" v="supermarket"/>
  </node>
  <node id="251165060" version="10" timestamp="2010-03-19T16:08:31Z" uid="11359" user="fnolz" changeset="4171362" lat="51.494607" lon="7.3709369">
    <tag k="addr:housenumber" v="6-8"/>
    <tag k="addr:street" v="Wulfshofstraße"/>
    <tag k="is_in" v="Europe, Germany, Deutschland, Dortmund"/>
    <tag k="name" v="real"/>
    <tag k="shop" v="supermarket"/>
  </node>
  <node id="251165283" version="3" timestamp="2008-07-03T01:19:07Z" uid="6975" user="ulfl" changeset="377243" lat="51.4917006" lon="7.3727146">
    <tag k="name" v="Atelco"/>
    <tag k="shop" v="computer"/>
  </node>
  <node id="251165283" version="4" timestamp="2010-03-19T15:34:00Z" uid="11359" user="fnolz" changeset="4171070" lat="51.4916698" lon="7.3726981">
    <tag k="name" v="Atelco"/>
    <tag k="shop" v="computer"/>
  </node>
  <node id="251165283" version="5" timestamp="2010-05-02T08:20:52Z" uid="42123" user="Ropino" changeset="4582064" lat="51.4916698" lon="7.3726981">
    <tag k="name" v="Atelco"/>
    <tag k="shop" v="computer"/>
  </node>
  <node id="251165761" version="3" timestamp="2008-10-23T05:04:12Z" uid="6975" user="ulfl" changeset="525020" lat="51.4945863" lon="7.375032">
    <tag k="name" v="Toys&apos;r&apos;us"/>
    <tag k="shop" v="toys"/>
  </node>
  <node id="251165761" version="4" timestamp="2009-06-27T19:43:35Z" uid="38778" user="DavidP" changeset="1653450" lat="51.4947041" lon="7.3752434">
    <tag k="name" v="Toys&apos;r&apos;us"/>
    <tag k="shop" v="toys"/>
  </node>
  <node id="251165761" version="5" timestamp="2010-05-02T08:07:31Z" uid="42123" user="Ropino" changeset="4581955" lat="51.4947041" lon="7.3752434">
    <tag k="name" v="Toys&apos;r&apos;us"/>
    <tag k="shop" v="toys"/>
  </node>
  <node id="251165872" version="2" timestamp="2008-07-03T16:01:00Z" uid="6975" user="ulfl" changeset="378199" lat="51.4953077" lon="7.3744312">
    <tag k="name" v="ProMarkt"/>
    <tag k="shop" v="electronics"/>
  </node>
  <node id="251165872" version="3" timestamp="2010-05-02T08:07:31Z" uid="42123" user="Ropino" changeset="4581955" lat="51.4953077" lon="7.3744312">
    <tag k="name" v="ProMarkt"/>
    <tag k="shop" v="electronics"/>
  </node>
</osm>
