<?xml version='1.0' encoding='UTF-8'?>
<osm version="0.6" generator="libosmium/2.20.0">
  <node id="251421484" version="4" timestamp="2009-11-29T15:29:03Z" uid="88880" user="firsttimelinux" changeset="3246564" lat="48.8963794" lon="9.196066"/>
  <node id="251421484" version="5" timestamp="2010-01-25T07:28:57Z" uid="45952" user="plexi32" changeset="3708574" lat="48.8963794" lon="9.196066"/>
  <node id="251426123" version="2" timestamp="2008-08-15T00:27:15Z" uid="6975" user="ulfl" changeset="264731" lat="54.9981471" lon="-1.5910451">
    <tag k="amenity" v="place_of_worship"/>
    <tag k="denomination" v="united_reformed"/>
    <tag k="name" v="St Georges"/>
    <tag k="religion" v="christian"/>
  </node>
  <node id="251427416" version="2" timestamp="2008-07-06T00:08:18Z" uid="6975" user="ulfl" changeset="404092" lat="48.6408898" lon="8.0377315">
    <tag k="amenity" v="fuel"/>
    <tag k="name" v="Shell"/>
    <tag k="operator" v="Shell"/>
  </node>
  <node id="251427416" version="3" timestamp="2008-08-26T13:45:12Z" uid="61148" user="Freier Radikaler" changeset="411985" lat="48.6410316" lon="8.0377518">
    <tag k="amenity" v="fuel"/>
    <tag k="name" v="Shell"/>
    <tag k="operator" v="Shell"/>
  </node>
  <node id="251427416" version="4" timestamp="2010-04-04T12:19:57Z" uid="61148" user="Freier Radikaler" changeset="4322214" lat="48.6409261" lon="8.0376682">
    <tag k="amenity" v="fuel"/>
    <tag k="name" v="Shell"/>
    <tag k="operator" v="Shell"/>
  </node>
  <node id="251427416" version="5" timestamp="2011-07-20T16:04:35Z" uid="37055" user="MapperOG" changeset="8779999" lat="48.6409261" lon="8.0376682">
    <tag k="amenity" v="fuel"/>
    <tag k="fax" v="+49 7841 629170"/>
    <tag k="fuel:cng" v="yes"/>
    <tag k="fuel:lpg" v="yes"/>
    <tag k="name" v="Shell"/>
    <tag k="opening_hours" v="24/7"/>
    <tag k="operator" v="Shell"/>
    <tag k="phone" v="+49 7841 629163"/>
  </node>
  <node id="251427416" version="6" timestamp="2012-02-11T22:45:30Z" uid="165061" user="keinname" changeset="10658390" lat="48.6409261" lon="8.0376682">
    <tag k="addr:city" v="Achern"/>
    <tag k="addr:country" v="DE"/>
    <tag k="addr:postcode" v="77855"/>
    <tag k="addr:street" v="Am Achernsee"/>
    <tag k="amenity" v="fuel"/>
    <tag k="brand" v="Shell"/>
    <tag k="contact:website" v="http://www.eurorastpark-achern.de"/>
    <tag k="fax" v="+49 7841 629170"/>
    <tag k="fuel:cng" v="yes"/>
    <tag k="fuel:lpg" v="yes"/>
    <tag k="name" v="Autohof Achern (Shell)"/>
    <tag k="opening_hours" v="24/7"/>
    <tag k="operator" v="Eurorastpark Achern"/>
    <tag k="phone" v="+49 7841 629163"/>
  </node>
  <node id="251427416" version="7" timestamp="2012-05-17T21:01:16Z" uid="228995" user="Wuzzy" changeset="11627771" lat="48.6409261" lon="8.0376682">
    <tag k="addr:city" v="Achern"/>
    <tag k="addr:country" v="DE"/>
    <tag k="addr:housenumber" v="1"/>
    <tag k="addr:postcode" v="77855"/>
    <tag k="addr:street" v="Am Achernsee"/>
    <tag k="amenity" v="fuel"/>
    <tag k="brand" v="Shell"/>
    <tag k="contact:email" v="info@eurorastpark-achern.de"/>
    <tag k="contact:fax" v="+49 7841 629170"/>
    <tag k="contact:phone" v="+49 7841 629163"/>
    <tag k="contact:website" v="http://www.eurorastpark-achern.de/"/>
    <tag k="fuel:adblue" v="yes"/>
    <tag k="fuel:cng" v="yes"/>
    <tag k="fuel:diesel" v="yes"/>
    <tag k="fuel:e10" v="yes"/>
    <tag k="fuel:GTL_diesel" v="yes"/>
    <tag k="fuel:lpg" v="yes"/>
    <tag k="fuel:octane_95" v="yes"/>
    <tag k="name" v="Autohof Achern"/>
    <tag k="opening_hours" v="24/7"/>
    <tag k="operator" v="Eurorastpark Achern"/>
  </node>
</osm>
