<?xml version='1.0' encoding='UTF-8'?>
<osm version="0.6" generator="libosmium/2.20.0">
  <node id="255610215" version="8" timestamp="2011-02-06T16:10:48Z" uid="4467" user="Rosscoe" changeset="7205491" lat="-38.0518609" lon="145.2949367"/>
  <node id="255610216" version="7" timestamp="2011-02-06T16:10:40Z" uid="4467" user="Rosscoe" changeset="7205491" lat="-38.0518203" lon="145.2948509"/>
  <node id="255610217" version="7" timestamp="2011-02-06T16:10:05Z" uid="4467" user="Rosscoe" changeset="7205491" lat="-38.051773" lon="145.2948251"/>
  <node id="255610218" version="7" timestamp="2011-02-06T16:10:47Z" uid="4467" user="Rosscoe" changeset="7205491" lat="-38.0512946" lon="145.2947841"/>
  <node id="255610473" version="7" timestamp="2011-02-06T16:10:30Z" uid="4467" user="Rosscoe" changeset="7205491" lat="-38.0519014" lon="145.2949624"/>
  <node id="255613443" version="2" timestamp="2008-07-03T17:41:05Z" uid="6975" user="ulfl" changeset="379368" lat="45.5613205" lon="11.5635556">
    <tag k="shop" v="newsagent"/>
  </node>
  <node id="255613443" version="3" timestamp="2010-05-13T01:33:29Z" uid="285992" user="GarBozzy" changeset="4682208" lat="45.5612695" lon="11.5636731">
    <tag k="shop" v="newsagent"/>
  </node>
  <node id="255613443" version="4" timestamp="2011-10-10T05:46:46Z" uid="30049" user="lcm" changeset="9518866" lat="45.5611844" lon="11.5635615">
    <tag k="shop" v="newsagent"/>
  </node>
  <node id="255615814" version="3" timestamp="2009-06-27T06:13:06Z" uid="33382" user="de_muur" changeset="1646246" lat="51.6936797" lon="7.4165424">
    <tag k="created_by" v="JOSM"/>
    <tag k="historic" v="castle"/>
    <tag k="name" v="Haus Sandfort"/>
  </node>
  <node id="255615814" version="4" timestamp="2010-08-06T20:17:36Z" uid="43972" user="chris66" changeset="5420023" lat="51.6936797" lon="7.4165424">
    <tag k="addr:city" v="Olfen"/>
    <tag k="addr:country" v="DE"/>
    <tag k="addr:housenumber" v="1"/>
    <tag k="addr:postcode" v="59399"/>
    <tag k="addr:street" v="Haus Sandfort"/>
    <tag k="historic" v="castle"/>
    <tag k="name" v="Haus Sandfort"/>
  </node>
  <node id="255615814" version="5" timestamp="2010-10-17T14:23:34Z" uid="205449" user="plettman" changeset="6067547" lat="51.6936797" lon="7.4165423">
    <tag k="addr:city" v="Olfen"/>
    <tag k="addr:country" v="DE"/>
    <tag k="addr:housenumber" v="1"/>
    <tag k="addr:postcode" v="59399"/>
    <tag k="addr:street" v="Haus Sandfort"/>
    <tag k="name" v="Haus Sandfort"/>
  </node>
  <node id="255615814" version="6" timestamp="2010-11-30T20:39:24Z" uid="43972" user="chris66" changeset="6497664" lat="51.6936797" lon="7.4165423">
    <tag k="addr:city" v="Olfen"/>
    <tag k="addr:country" v="DE"/>
    <tag k="addr:housenumber" v="1"/>
    <tag k="addr:postcode" v="59399"/>
    <tag k="addr:street" v="Haus Sandfort"/>
    <tag k="name" v="Haus Sandfort"/>
  </node>
  <node id="255617179" version="26" timestamp="2010-07-24T17:41:19Z" uid="9581" user="Lobelt" changeset="5305758" lat="49.6757821" lon="8.0094253"/>
  <node id="255617180" version="23" timestamp="2010-07-24T17:41:21Z" uid="9581" user="Lobelt" changeset="5305758" lat="49.6757939" lon="8.0103407"/>
  <node id="255617180" version="24" timestamp="2012-03-22T21:58:18Z" uid="123364" user="Tronikon" changeset="11068341" lat="49.6757698" lon="8.0103655"/>
  <node id="255617362" version="4" timestamp="2009-04-27T08:55:31Z" uid="1066" user="pavel" changeset="987365" lat="50.0860242" lon="14.4352142">
    <tag k="created_by" v="JOSM"/>
    <tag k="name" v="Hlavní nádraží"/>
    <tag k="railway" v="tram_stop"/>
  </node>
  <node id="255617362" version="5" timestamp="2012-02-13T20:33:04Z" uid="595326" user="viduka" changeset="10677217" lat="50.086008" lon="14.4351981">
    <tag k="name" v="Hlavní nádraží"/>
    <tag k="public_transport" v="stop_position"/>
    <tag k="railway" v="tram_stop"/>
    <tag k="tram" v="yes"/>
  </node>
  <node id="255617362" version="6" timestamp="2012-03-18T10:17:30Z" uid="595326" user="viduka" changeset="11016816" lat="50.0860149" lon="14.4352039">
    <tag k="name" v="Hlavní nádraží"/>
    <tag k="public_transport" v="stop_position"/>
    <tag k="railway" v="tram_stop"/>
    <tag k="tram" v="yes"/>
  </node>
  <node id="255617362" version="7" timestamp="2012-03-18T10:34:55Z" uid="595326" user="viduka" changeset="11017013" lat="50.0860149" lon="14.4352039">
    <tag k="name" v="Hlavní nádraží"/>
    <tag k="public_transport" v="stop_position"/>
    <tag k="railway" v="tram_stop"/>
    <tag k="source" v="Bing,cuzk"/>
    <tag k="tram" v="yes"/>
  </node>
  <node id="255617364" version="2" timestamp="2009-04-27T08:55:31Z" uid="1066" user="pavel" changeset="987365" lat="50.0877275" lon="14.4325391">
    <tag k="created_by" v="JOSM"/>
    <tag k="name" v="Masarykovo nádraží"/>
    <tag k="railway" v="tram_stop"/>
  </node>
  <node id="255617364" version="3" timestamp="2011-03-19T14:30:09Z" uid="229590" user="xificurk" changeset="7605591" lat="50.0877269" lon="14.4325337">
    <tag k="name" v="Masarykovo nádraží"/>
    <tag k="railway" v="tram_stop"/>
  </node>
  <node id="255617364" version="4" timestamp="2012-02-13T20:33:06Z" uid="595326" user="viduka" changeset="10677217" lat="50.0877269" lon="14.4325337">
    <tag k="name" v="Masarykovo nádraží"/>
    <tag k="public_transport" v="stop_position"/>
    <tag k="railway" v="tram_stop"/>
    <tag k="tram" v="yes"/>
  </node>
  <node id="255618161" version="6" timestamp="2009-02-11T00:57:57Z" uid="20587" user="balrog-kun" changeset="349418" lat="55.7371297" lon="-3.9648363"/>
  <node id="255610215" version="9" timestamp="2012-07-19T08:04:11Z" uid="722137" user="OSMF Redaction Account" changeset="12313102" lat="-38.0518584" lon="145.2949939"/>
  <node id="255610216" version="8" timestamp="2012-07-19T08:04:11Z" uid="722137" user="OSMF Redaction Account" changeset="12313102" lat="-38.0518178" lon="145.2949081"/>
  <node id="255610217" version="8" timestamp="2012-07-19T08:04:12Z" uid="722137" user="OSMF Redaction Account" changeset="12313102" lat="-38.0517705" lon="145.2948823"/>
  <node id="255610218" version="8" timestamp="2012-07-19T08:04:12Z" uid="722137" user="OSMF Redaction Account" changeset="12313102" lat="-38.0512771" lon="145.2948222"/>
  <node id="255610473" version="8" timestamp="2012-07-19T08:04:11Z" uid="722137" user="OSMF Redaction Account" changeset="12313102" lat="-38.0518989" lon="145.2950196"/>
  <node id="255617179" version="27" timestamp="2012-07-17T11:16:53Z" uid="722137" user="OSMF Redaction Account" changeset="12263927" lat="49.6758156" lon="8.0094253"/>
  <node id="255617362" version="8" timestamp="2012-07-01T10:26:10Z" uid="527259" user="Vratislav Filler" changeset="12074087" lat="50.0860041" lon="14.435195">
    <tag k="name" v="Hlavní nádraží"/>
    <tag k="public_transport" v="stop_position"/>
    <tag k="railway" v="tram_stop"/>
    <tag k="source" v="Bing,cuzk"/>
    <tag k="tram" v="yes"/>
  </node>
  <node id="255617362" version="9" timestamp="2012-08-31T21:40:51Z" uid="595326" user="viduka" changeset="12936609" lat="50.0859062" lon="14.4355281">
    <tag k="name" v="Hlavní nádraží"/>
    <tag k="public_transport" v="stop_position"/>
    <tag k="railway" v="tram_stop"/>
    <tag k="source" v="Bing;cuzk"/>
    <tag k="tram" v="yes"/>
  </node>
  <node id="255617364" version="5" timestamp="2012-08-31T21:40:52Z" uid="595326" user="viduka" changeset="12936609" lat="50.0877274" lon="14.4325533">
    <tag k="name" v="Masarykovo nádraží"/>
    <tag k="public_transport" v="stop_position"/>
    <tag k="railway" v="crossing"/>
    <tag k="source" v="Bing;cuzk"/>
    <tag k="tram" v="yes"/>
  </node>
  <node id="255617364" version="6" timestamp="2012-09-03T18:39:46Z" uid="595326" user="viduka" changeset="12971449" lat="50.0877274" lon="14.4325533">
    <tag k="name" v="Masarykovo nádraží"/>
    <tag k="public_transport" v="stop_position"/>
    <tag k="railway" v="tram_stop"/>
    <tag k="source" v="Bing"/>
    <tag k="tram" v="yes"/>
  </node>
</osm>
