<?xml version='1.0' encoding='UTF-8'?>
<osm version="0.6" generator="libosmium/2.20.0">
  <node id="256152380" version="9" timestamp="2008-07-07T19:18:29Z" uid="6975" user="ulfl" changeset="420350" lat="51.8333346" lon="-0.5271173">
    <tag k="amenity" v="place_of_worship"/>
    <tag k="religion" v="christian"/>
    <tag k="tower" v="yes"/>
  </node>
  <node id="256153571" version="2" timestamp="2009-09-30T11:56:26Z" uid="36809" user="pfoten_weg_!_" changeset="2687494" lat="48.1084061" lon="11.2871458">
    <tag k="leisure" v="sports_centre"/>
    <tag k="name" v="Aktivpark Gilching"/>
  </node>
  <node id="256153571" version="3" timestamp="2010-05-16T13:54:20Z" uid="288012" user="MichaOG" changeset="4716728" lat="48.1084061" lon="11.2871459">
    <tag k="leisure" v="sports_centre"/>
    <tag k="name" v="Aktivpark Gilching"/>
    <tag k="website" v="http://www.aktivpark.com/"/>
  </node>
  <node id="256153612" version="3" timestamp="2009-09-30T11:56:24Z" uid="36809" user="pfoten_weg_!_" changeset="2687494" lat="48.1045207" lon="11.2867867">
    <tag k="amenity" v="school"/>
    <tag k="name" v="Arnoldus-Grundschule"/>
  </node>
  <node id="256153612" version="4" timestamp="2010-11-16T22:49:52Z" uid="172952" user="cambodia" changeset="6389265" lat="48.1045207" lon="11.2867867">
    <tag k="amenity" v="school"/>
    <tag k="name" v="Arnoldus-Grundschule"/>
  </node>
  <node id="256153674" version="3" timestamp="2009-09-30T11:56:24Z" uid="36809" user="pfoten_weg_!_" changeset="2687494" lat="48.1049704" lon="11.2857654">
    <tag k="amenity" v="school"/>
    <tag k="name" v="Christoph-Probst-Gymnasium"/>
  </node>
  <node id="256153674" version="4" timestamp="2010-11-16T22:49:52Z" uid="172952" user="cambodia" changeset="6389265" lat="48.1049704" lon="11.2857654">
    <tag k="amenity" v="school"/>
    <tag k="name" v="Christoph-Probst-Gymnasium"/>
  </node>
  <node id="256154086" version="3" timestamp="2008-09-14T20:03:17Z" uid="6975" user="ulfl" changeset="640534" lat="48.1085322" lon="11.2991364">
    <tag k="amenity" v="bank"/>
    <tag k="atm" v="yes"/>
    <tag k="name" v="Deutsche Bank"/>
  </node>
  <node id="256154086" version="4" timestamp="2011-12-23T20:46:49Z" uid="290680" user="wheelmap_visitor" changeset="10185228" lat="48.1085322" lon="11.2991364">
    <tag k="amenity" v="bank"/>
    <tag k="atm" v="yes"/>
    <tag k="name" v="Deutsche Bank"/>
    <tag k="wheelchair" v="yes"/>
  </node>
  <node id="256159528" version="2" timestamp="2009-02-01T18:39:19Z" uid="49111" user="Markus B" changeset="24377" lat="47.3588065" lon="8.5296899"/>
  <node id="256159528" version="3" timestamp="2012-02-11T11:30:39Z" uid="26726" user="lonvia" changeset="10651629" lat="47.3589824" lon="8.5296569"/>
  <node id="256159665" version="2" timestamp="2011-01-02T16:24:14Z" uid="49111" user="Markus B" changeset="6839975" lat="47.3581987" lon="8.5302671"/>
  <node id="256159665" version="3" timestamp="2012-02-04T17:52:12Z" uid="8296" user="kuede" changeset="10586880" lat="47.3581987" lon="8.5302671"/>
  <node id="256159528" version="4" timestamp="2012-04-24T09:40:35Z" uid="565471" user="bebbi" changeset="11403160" lat="47.3589824" lon="8.5296569"/>
</osm>
