<?xml version='1.0' encoding='UTF-8'?>
<osm version="0.6" generator="libosmium/2.20.0">
  <node id="256911432" version="1" timestamp="2008-04-11T17:46:07Z" uid="30632" user="antblant" changeset="116010" lat="53.5555942" lon="14.8195126"/>
  <node id="256911432" version="2" timestamp="2008-04-11T17:46:24Z" uid="30632" user="antblant" changeset="116010" lat="53.5555942" lon="14.8195126"/>
  <node id="256912559" version="3" timestamp="2009-10-13T23:49:08Z" uid="36809" user="pfoten_weg_!_" changeset="2841284" lat="46.6712466" lon="11.1748337">
    <tag k="is_in" v="Meran"/>
    <tag k="name" v="Obermais - Maia Alta"/>
    <tag k="place" v="suburb"/>
  </node>
  <node id="256912559" version="4" timestamp="2011-02-15T00:49:07Z" uid="334153" user="Alexander Roalter" changeset="7291232" lat="46.6712466" lon="11.1748337">
    <tag k="is_in" v="Meran"/>
    <tag k="name" v="Obermais - Maia Alta"/>
    <tag k="place" v="village"/>
  </node>
  <node id="256912559" version="5" timestamp="2011-09-07T10:35:39Z" uid="84001" user="eedfre" changeset="9235493" lat="46.6712466" lon="11.1748337">
    <tag k="is_in" v="Meran"/>
    <tag k="name" v="Obermais - Maia Alta"/>
    <tag k="name:de" v="Obermais"/>
    <tag k="name:it" v="Maia Alta"/>
    <tag k="place" v="village"/>
  </node>
  <node id="256913720" version="2" timestamp="2008-07-04T23:41:23Z" uid="6975" user="ulfl" changeset="395915" lat="53.7115485" lon="-1.4824709">
    <tag k="power" v="sub_station"/>
  </node>
  <node id="256913720" version="3" timestamp="2010-08-25T14:34:01Z" uid="592" user="JonS" changeset="5590306" lat="53.7114558" lon="-1.4824829">
    <tag k="power" v="sub_station"/>
  </node>
  <node id="256913720" version="4" timestamp="2011-12-30T21:32:14Z" uid="592" user="JonS" changeset="10249946" lat="53.7114558" lon="-1.4824829">
    <tag k="odbl" v="clean"/>
    <tag k="power" v="sub_station"/>
  </node>
</osm>
