<?xml version='1.0' encoding='UTF-8'?>
<osm version="0.6" generator="libosmium/2.20.0">
  <node id="259956038" version="3" timestamp="2008-08-14T18:58:31Z" uid="6975" user="ulfl" changeset="264731" lat="18.794149" lon="98.9940576">
    <tag k="amenity" v="place_of_worship"/>
    <tag k="name" v="Wat Sri Phoon"/>
    <tag k="religion" v="buddhist"/>
  </node>
  <node id="259956038" version="4" timestamp="2011-04-30T22:45:42Z" uid="61891" user="stephankn" changeset="8016659" lat="18.794149" lon="98.9940576">
    <tag k="amenity" v="place_of_worship"/>
    <tag k="name" v="Wat Sri Phoon"/>
    <tag k="religion" v="buddhist"/>
  </node>
  <node id="259959425" version="9" timestamp="2010-02-12T08:51:23Z" uid="171838" user="argrath" changeset="3854480" lat="37.4046192" lon="138.637669">
    <tag k="highway" v="traffic_signals"/>
    <tag k="name:ja" v="曽地"/>
  </node>
  <node id="259959425" version="10" timestamp="2012-07-21T11:47:21Z" uid="722137" user="OSMF Redaction Account" changeset="12407555" lat="37.4046192" lon="138.6376693">
    <tag k="highway" v="traffic_signals"/>
    <tag k="name:ja" v="曽地"/>
  </node>
</osm>
