<?xml version='1.0' encoding='UTF-8'?>
<osm version="0.6" generator="libosmium/2.20.0">
  <node id="260440345" version="3" timestamp="2008-06-06T00:12:11Z" uid="34428" user="usm78-gis" changeset="75903" lat="59.9742625" lon="30.4101346"/>
  <node id="260440445" version="2" timestamp="2008-06-06T00:12:01Z" uid="34428" user="usm78-gis" changeset="75903" lat="59.9746275" lon="30.4086326"/>
  <node id="260441240" version="3" timestamp="2010-02-28T20:16:39Z" uid="9581" user="Lobelt" changeset="4002298" lat="50.711175" lon="9.6647378"/>
  <node id="260441240" version="4" timestamp="2012-01-10T20:52:52Z" uid="120989" user="aromatiker" changeset="10355313" lat="50.711175" lon="9.6647378"/>
  <node id="260442530" version="2" timestamp="2009-04-10T07:08:45Z" uid="33382" user="de_muur" changeset="384569" lat="52.5722813" lon="8.8151007">
    <tag k="created_by" v="JOSM"/>
  </node>
  <node id="260442530" version="3" timestamp="2010-03-12T14:07:43Z" uid="244972" user="Braindigital" changeset="4106571" lat="52.572239" lon="8.8151107"/>
  <node id="260442530" version="4" timestamp="2010-03-14T19:57:41Z" uid="220273" user="hoger" changeset="4128943" lat="52.572239" lon="8.8151107"/>
  <node id="260442531" version="2" timestamp="2009-04-10T07:08:44Z" uid="33382" user="de_muur" changeset="384569" lat="52.5724077" lon="8.8157715">
    <tag k="created_by" v="JOSM"/>
  </node>
  <node id="260442531" version="3" timestamp="2010-03-12T14:07:43Z" uid="244972" user="Braindigital" changeset="4106571" lat="52.5724077" lon="8.8157715"/>
  <node id="260442531" version="4" timestamp="2011-04-17T20:27:13Z" uid="114430" user="Chenshi" changeset="7891604" lat="52.5723355" lon="8.8157567"/>
  <node id="260442531" version="5" timestamp="2011-07-19T14:34:35Z" uid="114430" user="Chenshi" changeset="8769023" lat="52.5723355" lon="8.8157567"/>
  <node id="260442532" version="2" timestamp="2009-04-10T07:08:59Z" uid="33382" user="de_muur" changeset="384569" lat="52.5725032" lon="8.8161605">
    <tag k="created_by" v="JOSM"/>
  </node>
  <node id="260442659" version="2" timestamp="2008-08-20T20:36:41Z" uid="8619" user="cetest" changeset="338113" lat="52.0381054" lon="4.3109199"/>
  <node id="260442659" version="3" timestamp="2011-01-31T22:02:51Z" uid="36080" user="polderrunner" changeset="7149218" lat="52.0381054" lon="4.3109199"/>
  <node id="260443218" version="4" timestamp="2008-07-03T01:01:24Z" uid="6975" user="ulfl" changeset="377243" lat="51.516924" lon="6.8530324">
    <tag k="name" v="Siemes Schuh-Center"/>
    <tag k="shop" v="shoes"/>
  </node>
  <node id="260443218" version="5" timestamp="2011-10-05T15:15:42Z" uid="290680" user="wheelmap_visitor" changeset="9474855" lat="51.516924" lon="6.8530324">
    <tag k="name" v="Siemes Schuh-Center"/>
    <tag k="shop" v="shoes"/>
    <tag k="wheelchair" v="yes"/>
  </node>
  <node id="260443655" version="6" timestamp="2009-03-29T20:45:05Z" uid="34428" user="usm78-gis" changeset="867546" lat="59.9874605" lon="30.2777039"/>
  <node id="260443656" version="3" timestamp="2009-03-29T20:45:04Z" uid="34428" user="usm78-gis" changeset="867546" lat="59.9874463" lon="30.2763047"/>
  <node id="260443656" version="4" timestamp="2012-01-28T13:50:07Z" uid="288925" user="BoomEngine" changeset="10521041" lat="59.9874599" lon="30.2758853"/>
  <node id="260443656" version="5" timestamp="2012-02-25T05:14:30Z" uid="395588" user="Danidin9" changeset="10784641" lat="59.9874817" lon="30.2759055"/>
  <node id="260443666" version="2" timestamp="2008-07-03T00:03:41Z" uid="6975" user="ulfl" changeset="377243" lat="51.5168278" lon="6.8523115">
    <tag k="name" v="Adler"/>
    <tag k="shop" v="clothes"/>
  </node>
  <node id="260443666" version="3" timestamp="2011-10-05T15:15:43Z" uid="290680" user="wheelmap_visitor" changeset="9474855" lat="51.5168278" lon="6.8523115">
    <tag k="name" v="Adler"/>
    <tag k="shop" v="clothes"/>
    <tag k="wheelchair" v="yes"/>
  </node>
  <node id="260444679" version="2" timestamp="2008-07-03T18:18:03Z" uid="6975" user="ulfl" changeset="379368" lat="47.0651504" lon="15.4229812">
    <tag k="name" v="Jugendgästehaus"/>
    <tag k="tourism" v="hostel"/>
  </node>
  <node id="260444679" version="3" timestamp="2010-08-27T09:02:57Z" uid="321042" user="species" changeset="5605700" lat="47.0651504" lon="15.4229812">
    <tag k="addr:city" v="Graz"/>
    <tag k="addr:country" v="AT"/>
    <tag k="addr:housenumber" v="74"/>
    <tag k="addr:postcode" v="8020"/>
    <tag k="addr:street" v="Idlhofgasse"/>
    <tag k="capacity" v="250"/>
    <tag k="contact:email" v="graz@jufa.at"/>
    <tag k="contact:fax" v="+43 (05)/7083-211"/>
    <tag k="contact:name" v="Kadir Barutcu"/>
    <tag k="contact:phone" v="+43 (05)/7083-210"/>
    <tag k="dog" v="no"/>
    <tag k="internet_access" v="wlan"/>
    <tag k="name" v="Jugendgästehaus"/>
    <tag k="operator" v="Jugend &amp; Familiengästehäuser Holding GmbH"/>
    <tag k="pet" v="no"/>
    <tag k="smokefree" v="yes"/>
    <tag k="smoking" v="no"/>
    <tag k="source" v="survey"/>
    <tag k="tourism" v="hostel"/>
    <tag k="website" v="http://www.jufa.at/graz/"/>
  </node>
  <node id="260444679" version="4" timestamp="2010-11-23T19:43:01Z" uid="321042" user="species" changeset="6441900" lat="47.0649455" lon="15.4223767">
    <tag k="addr:city" v="Graz"/>
    <tag k="addr:country" v="AT"/>
    <tag k="addr:housenumber" v="74"/>
    <tag k="addr:postcode" v="8020"/>
    <tag k="addr:street" v="Idlhofgasse"/>
    <tag k="capacity" v="250"/>
    <tag k="contact:email" v="graz@jufa.at"/>
    <tag k="contact:fax" v="+43 (05)/7083-211"/>
    <tag k="contact:name" v="Kadir Barutcu"/>
    <tag k="contact:phone" v="+43 (05)/7083-210"/>
    <tag k="dog" v="no"/>
    <tag k="internet_access" v="wlan"/>
    <tag k="name" v="Jugendgästehaus"/>
    <tag k="operator" v="Jugend &amp; Familiengästehäuser Holding GmbH"/>
    <tag k="pet" v="no"/>
    <tag k="smokefree" v="yes"/>
    <tag k="smoking" v="no"/>
    <tag k="source" v="survey"/>
    <tag k="tourism" v="hostel"/>
    <tag k="website" v="http://www.jufa.at/graz/"/>
  </node>
  <node id="260444679" version="5" timestamp="2011-10-02T18:43:51Z" uid="290680" user="wheelmap_visitor" changeset="9447804" lat="47.0649455" lon="15.4223767">
    <tag k="addr:city" v="Graz"/>
    <tag k="addr:country" v="AT"/>
    <tag k="addr:housenumber" v="74"/>
    <tag k="addr:postcode" v="8020"/>
    <tag k="addr:street" v="Idlhofgasse"/>
    <tag k="capacity" v="250"/>
    <tag k="contact:email" v="graz@jufa.at"/>
    <tag k="contact:fax" v="+43 (05)/7083-211"/>
    <tag k="contact:name" v="Kadir Barutcu"/>
    <tag k="contact:phone" v="+43 (05)/7083-210"/>
    <tag k="dog" v="no"/>
    <tag k="internet_access" v="wlan"/>
    <tag k="name" v="Jugendgästehaus"/>
    <tag k="operator" v="Jugend &amp; Familiengästehäuser Holding GmbH"/>
    <tag k="pet" v="no"/>
    <tag k="smokefree" v="yes"/>
    <tag k="smoking" v="no"/>
    <tag k="source" v="survey"/>
    <tag k="tourism" v="hostel"/>
    <tag k="website" v="http://www.jufa.at/graz/"/>
    <tag k="wheelchair" v="yes"/>
  </node>
  <node id="260445160" version="1" timestamp="2008-04-28T18:45:37Z" uid="16922" user="amai" changeset="275607" lat="49.8987625" lon="8.839935">
    <tag k="created_by" v="Potlatch 0.8b"/>
  </node>
  <node id="260445160" version="2" timestamp="2008-04-28T18:45:51Z" uid="16922" user="amai" changeset="275607" lat="49.8987403" lon="8.839935">
    <tag k="created_by" v="Potlatch 0.8b"/>
    <tag k="name" v="Pfarrkirche"/>
  </node>
  <node id="260445160" version="3" timestamp="2008-04-28T18:47:34Z" uid="16922" user="amai" changeset="275607" lat="49.8987403" lon="8.839935">
    <tag k="amenity" v="place_of_worship"/>
    <tag k="created_by" v="Potlatch 0.8b"/>
    <tag k="denomination" v="catholic"/>
    <tag k="name" v="Pfarrkirche St. Peter und Paul"/>
    <tag k="religion" v="christian"/>
  </node>
  <node id="260445160" version="4" timestamp="2011-03-08T20:33:13Z" uid="16922" user="amai" changeset="7498087" lat="49.8987403" lon="8.839935">
    <tag k="amenity" v="place_of_worship"/>
    <tag k="created_by" v="Potlatch 0.8b"/>
    <tag k="denomination" v="catholic"/>
    <tag k="name" v="Pfarrkirche St. Peter und Paul"/>
    <tag k="religion" v="christian"/>
  </node>
  <node id="260445539" version="1" timestamp="2008-04-28T18:47:46Z" uid="16922" user="amai" changeset="275607" lat="49.8938914" lon="8.8507239">
    <tag k="created_by" v="Potlatch 0.8b"/>
  </node>
  <node id="260445539" version="2" timestamp="2008-04-28T18:48:06Z" uid="16922" user="amai" changeset="275607" lat="49.8938914" lon="8.8507239">
    <tag k="created_by" v="Potlatch 0.8b"/>
  </node>
  <node id="260447231" version="2" timestamp="2008-05-24T07:28:49Z" uid="27600" user="Islanit" changeset="508045" lat="53.5423882" lon="10.134506"/>
  <node id="260447531" version="3" timestamp="2010-05-03T21:31:38Z" uid="55964" user="Evan Sebire" changeset="4599623" lat="46.6544325" lon="7.7735367"/>
  <node id="260447531" version="4" timestamp="2010-06-03T19:18:52Z" uid="298208" user="Bimbo" changeset="4895370" lat="46.6544192" lon="7.7735438"/>
  <node id="260447531" version="5" timestamp="2010-06-04T17:23:06Z" uid="298208" user="Bimbo" changeset="4902766" lat="46.654436" lon="7.7734914"/>
  <node id="260447980" version="2" timestamp="2008-05-19T14:29:39Z" uid="27600" user="Islanit" changeset="481777" lat="53.5357114" lon="10.1452177"/>
  <node id="260447998" version="6" timestamp="2011-05-24T07:18:21Z" uid="27600" user="Islanit" changeset="8232620" lat="53.5360838" lon="10.154496"/>
</osm>
