<?xml version='1.0' encoding='UTF-8'?>
<osm version="0.6" generator="libosmium/2.20.0">
  <node id="261030373" version="3" timestamp="2009-11-06T11:11:37Z" uid="36809" user="pfoten_weg_!_" changeset="3047170" lat="47.9023394" lon="11.4365165"/>
  <node id="261030373" version="4" timestamp="2011-01-21T18:08:59Z" uid="8748" user="ToniE" changeset="7042894" lat="47.902317" lon="11.4364429"/>
  <node id="261030513" version="2" timestamp="2009-10-03T14:04:37Z" uid="179968" user="Ich_hasse_doitsche_OSM-Korinthenkacker" changeset="2724228" lat="51.7754178" lon="10.5522012">
    <tag k="amenity" v="parking"/>
  </node>
  <node id="261030513" version="3" timestamp="2011-11-30T08:59:04Z" uid="199227" user="WDMap" changeset="9996339" lat="51.775285" lon="10.5521797">
    <tag k="amenity" v="parking"/>
  </node>
  <node id="261030662" version="1" timestamp="2008-05-01T15:53:27Z" uid="20587" user="balrog-kun" changeset="299566" lat="52.2494637" lon="21.000382">
    <tag k="created_by" v="JOSM"/>
  </node>
  <node id="261030662" version="2" timestamp="2008-07-30T03:16:42Z" uid="20587" user="balrog-kun" changeset="629518" lat="52.2494265" lon="21.000382">
    <tag k="created_by" v="JOSM"/>
  </node>
  <node id="261030664" version="1" timestamp="2008-05-01T15:53:27Z" uid="20587" user="balrog-kun" changeset="299566" lat="52.2530804" lon="20.9996425">
    <tag k="created_by" v="JOSM"/>
  </node>
  <node id="261030664" version="2" timestamp="2009-04-03T18:10:53Z" uid="20587" user="balrog-kun" changeset="134852" lat="52.2526889" lon="20.9996351">
    <tag k="created_by" v="JOSM"/>
  </node>
  <node id="261030665" version="1" timestamp="2008-05-01T15:53:27Z" uid="20587" user="balrog-kun" changeset="299566" lat="52.2494101" lon="20.9987103">
    <tag k="created_by" v="JOSM"/>
  </node>
  <node id="261030665" version="2" timestamp="2011-02-16T16:24:43Z" uid="165509" user="koszatek" changeset="7305226" lat="52.2494101" lon="20.9987103">
    <tag k="created_by" v="JOSM"/>
  </node>
  <node id="261030666" version="1" timestamp="2008-05-01T15:53:28Z" uid="20587" user="balrog-kun" changeset="299566" lat="52.249284" lon="20.9972759">
    <tag k="created_by" v="JOSM"/>
  </node>
  <node id="261030666" version="2" timestamp="2009-09-29T20:09:56Z" uid="166129" user="BugBuster" changeset="2681685" lat="52.249284" lon="20.9972759"/>
  <node id="261030666" version="3" timestamp="2011-02-16T16:24:30Z" uid="165509" user="koszatek" changeset="7305226" lat="52.249308" lon="20.9972563"/>
  <node id="261030667" version="1" timestamp="2008-05-01T15:53:28Z" uid="20587" user="balrog-kun" changeset="299566" lat="52.2487874" lon="20.9939205">
    <tag k="created_by" v="JOSM"/>
  </node>
  <node id="261030667" version="2" timestamp="2009-05-14T12:32:22Z" uid="20587" user="balrog-kun" changeset="1187604" lat="52.2487919" lon="20.9939178">
    <tag k="created_by" v="JOSM"/>
  </node>
  <node id="261030667" version="3" timestamp="2009-09-29T20:09:56Z" uid="166129" user="BugBuster" changeset="2681685" lat="52.2487919" lon="20.9939178"/>
  <node id="261030667" version="4" timestamp="2010-09-27T00:27:32Z" uid="59223" user="Briquollo" changeset="5887558" lat="52.2487841" lon="20.9939321"/>
  <node id="261030667" version="5" timestamp="2011-01-11T01:25:13Z" uid="165509" user="koszatek" changeset="6932961" lat="52.2487892" lon="20.9939421"/>
  <node id="261030668" version="1" timestamp="2008-05-01T15:53:28Z" uid="20587" user="balrog-kun" changeset="299566" lat="52.2483197" lon="20.9916204">
    <tag k="created_by" v="JOSM"/>
  </node>
  <node id="261030668" version="2" timestamp="2009-05-14T12:33:39Z" uid="20587" user="balrog-kun" changeset="1187614" lat="52.2483268" lon="20.9915446">
    <tag k="created_by" v="JOSM"/>
    <tag k="highway" v="crossing"/>
  </node>
  <node id="261030670" version="1" timestamp="2008-05-01T15:53:28Z" uid="20587" user="balrog-kun" changeset="299566" lat="52.2485473" lon="20.9926659">
    <tag k="created_by" v="JOSM"/>
  </node>
  <node id="261030670" version="2" timestamp="2009-09-29T20:09:56Z" uid="166129" user="BugBuster" changeset="2681685" lat="52.2485473" lon="20.9926659"/>
  <node id="261030671" version="1" timestamp="2008-05-01T15:53:28Z" uid="20587" user="balrog-kun" changeset="299566" lat="52.2486006" lon="20.9925655">
    <tag k="created_by" v="JOSM"/>
  </node>
  <node id="261030672" version="1" timestamp="2008-05-01T15:53:29Z" uid="20587" user="balrog-kun" changeset="299566" lat="52.2492465" lon="20.9919258">
    <tag k="created_by" v="JOSM"/>
  </node>
  <node id="261030673" version="1" timestamp="2008-05-01T15:53:29Z" uid="20587" user="balrog-kun" changeset="299566" lat="52.2492752" lon="20.9918488">
    <tag k="created_by" v="JOSM"/>
  </node>
  <node id="261030674" version="1" timestamp="2008-05-01T15:53:29Z" uid="20587" user="balrog-kun" changeset="299566" lat="52.2493264" lon="20.9910082">
    <tag k="created_by" v="JOSM"/>
  </node>
  <node id="261030674" version="2" timestamp="2008-09-11T09:31:39Z" uid="66998" user="Pawesta" changeset="608863" lat="52.2493419" lon="20.9908417">
    <tag k="created_by" v="JOSM"/>
  </node>
  <node id="261030677" version="1" timestamp="2008-05-01T15:53:29Z" uid="20587" user="balrog-kun" changeset="299566" lat="52.2493162" lon="20.9909345">
    <tag k="created_by" v="JOSM"/>
  </node>
  <node id="261030677" version="2" timestamp="2008-09-11T09:31:40Z" uid="66998" user="Pawesta" changeset="608863" lat="52.2493162" lon="20.9909345">
    <tag k="created_by" v="JOSM"/>
  </node>
  <node id="261030708" version="2" timestamp="2008-07-03T18:10:03Z" uid="6975" user="ulfl" changeset="379368" lat="48.1405883" lon="11.578592">
    <tag k="name" v="Residenzmuseum und Schatzkammer"/>
    <tag k="tourism" v="museum"/>
  </node>
  <node id="261030708" version="3" timestamp="2008-07-12T11:43:27Z" uid="17085" user="3247" changeset="464931" lat="48.1408682" lon="11.579155">
    <tag k="name" v="Residenzmuseum und Schatzkammer"/>
    <tag k="tourism" v="museum"/>
  </node>
  <node id="261030708" version="4" timestamp="2009-03-26T21:48:48Z" uid="59819" user="Fuss-im-Ohr" changeset="861770" lat="48.1408682" lon="11.579155">
    <tag k="addr:city" v="München"/>
    <tag k="addr:country" v="DE"/>
    <tag k="addr:postcode" v="80539"/>
    <tag k="name" v="Residenzmuseum und Schatzkammer"/>
    <tag k="tourism" v="museum"/>
  </node>
  <node id="261030708" version="5" timestamp="2009-03-26T22:25:03Z" uid="59819" user="Fuss-im-Ohr" changeset="861770" lat="48.1408682" lon="11.579155">
    <tag k="addr:city" v="München"/>
    <tag k="addr:country" v="DE"/>
    <tag k="addr:email" v="residenzmuenchen@bsv.bayern.de"/>
    <tag k="addr:housename" v="Residenzmuseum"/>
    <tag k="addr:housenumber" v="1"/>
    <tag k="addr:postcode" v="80539"/>
    <tag k="addr:street" v="Residenzstraße"/>
    <tag k="name" v="Residenzmuseum und Schatzkammer"/>
    <tag k="phone" v="+49 89 29067-1"/>
    <tag k="tourism" v="museum"/>
    <tag k="website" v="http://www.residenz-muenchen.de"/>
    <tag k="wheelchair" v="no"/>
  </node>
  <node id="261030708" version="6" timestamp="2009-12-18T21:21:39Z" uid="9402" user="ludwich" changeset="3403501" lat="48.1408799" lon="11.5791244">
    <tag k="addr:city" v="München"/>
    <tag k="addr:country" v="DE"/>
    <tag k="addr:email" v="residenzmuenchen@bsv.bayern.de"/>
    <tag k="addr:housename" v="Residenzmuseum"/>
    <tag k="addr:housenumber" v="1"/>
    <tag k="addr:postcode" v="80539"/>
    <tag k="addr:street" v="Residenzstraße"/>
    <tag k="name" v="Residenzmuseum und Schatzkammer"/>
    <tag k="phone" v="+49 89 29067-1"/>
    <tag k="tourism" v="museum"/>
    <tag k="website" v="http://www.residenz-muenchen.de"/>
    <tag k="wheelchair" v="no"/>
  </node>
  <node id="261030708" version="7" timestamp="2009-12-19T09:41:16Z" uid="9402" user="ludwich" changeset="3405540" lat="48.1404392" lon="11.5781461">
    <tag k="addr:city" v="München"/>
    <tag k="addr:country" v="DE"/>
    <tag k="addr:email" v="residenzmuenchen@bsv.bayern.de"/>
    <tag k="addr:housename" v="Residenzmuseum"/>
    <tag k="addr:housenumber" v="1"/>
    <tag k="addr:postcode" v="80539"/>
    <tag k="addr:street" v="Residenzstraße"/>
    <tag k="name" v="Residenzmuseum und Schatzkammer"/>
    <tag k="phone" v="+49 89 29067-1"/>
    <tag k="tourism" v="museum"/>
    <tag k="website" v="http://www.residenz-muenchen.de"/>
    <tag k="wheelchair" v="no"/>
  </node>
  <node id="261030708" version="8" timestamp="2010-04-15T15:03:39Z" uid="70696" user="xybot" changeset="4431179" lat="48.1404392" lon="11.5781461">
    <tag k="addr:city" v="München"/>
    <tag k="addr:country" v="DE"/>
    <tag k="addr:housename" v="Residenzmuseum"/>
    <tag k="addr:housenumber" v="1"/>
    <tag k="addr:postcode" v="80539"/>
    <tag k="addr:street" v="Residenzstraße"/>
    <tag k="email" v="residenzmuenchen@bsv.bayern.de"/>
    <tag k="name" v="Residenzmuseum und Schatzkammer"/>
    <tag k="phone" v="+49 89 29067-1"/>
    <tag k="tourism" v="museum"/>
    <tag k="website" v="http://www.residenz-muenchen.de"/>
    <tag k="wheelchair" v="no"/>
  </node>
  <node id="261030708" version="9" timestamp="2010-06-27T13:08:51Z" uid="65148" user="Pirat Michi" changeset="5089430" lat="48.1404392" lon="11.578146">
    <tag k="addr:city" v="München"/>
    <tag k="addr:country" v="DE"/>
    <tag k="addr:housename" v="Residenzmuseum"/>
    <tag k="addr:housenumber" v="1"/>
    <tag k="addr:postcode" v="80539"/>
    <tag k="addr:street" v="Residenzstraße"/>
    <tag k="email" v="residenzmuenchen@bsv.bayern.de"/>
    <tag k="name" v="Residenzmuseum und Schatzkammer"/>
    <tag k="note" v="letzter Einlass ist eine Stunde früher"/>
    <tag k="opening hours" v="Apr 01-Okt 15 09:00-18:00; Okt 16-Mar 31 10:00-17:00"/>
    <tag k="phone" v="+49 89 29067-1"/>
    <tag k="tourism" v="museum"/>
    <tag k="website" v="http://www.residenz-muenchen.de"/>
    <tag k="wheelchair" v="no"/>
  </node>
  <node id="261030708" version="10" timestamp="2010-06-30T20:29:26Z" uid="296748" user="klepo" changeset="5116460" lat="48.1404392" lon="11.578146">
    <tag k="addr:city" v="München"/>
    <tag k="addr:country" v="DE"/>
    <tag k="addr:housename" v="Residenzmuseum"/>
    <tag k="addr:housenumber" v="1"/>
    <tag k="addr:postcode" v="80539"/>
    <tag k="addr:street" v="Residenzstraße"/>
    <tag k="email" v="residenzmuenchen@bsv.bayern.de"/>
    <tag k="name" v="Residenzmuseum und Schatzkammer"/>
    <tag k="note" v="letzter Einlass ist eine Stunde früher"/>
    <tag k="opening_hours" v="Apr 01-Okt 15 09:00-18:00; Okt 16-Mar 31 10:00-17:00"/>
    <tag k="phone" v="+49 89 29067-1"/>
    <tag k="tourism" v="museum"/>
    <tag k="website" v="http://www.residenz-muenchen.de"/>
    <tag k="wheelchair" v="no"/>
  </node>
  <node id="261030708" version="11" timestamp="2010-11-24T06:44:27Z" uid="212111" user="okilimu" changeset="6444539" lat="48.1404392" lon="11.578146">
    <tag k="addr:city" v="München"/>
    <tag k="addr:country" v="DE"/>
    <tag k="addr:housename" v="Residenzmuseum"/>
    <tag k="addr:housenumber" v="1"/>
    <tag k="addr:postcode" v="80539"/>
    <tag k="addr:street" v="Residenzstraße"/>
    <tag k="email" v="residenzmuenchen@bsv.bayern.de"/>
    <tag k="name" v="Residenzmuseum und Schatzkammer"/>
    <tag k="note" v="letzter Einlass ist eine Stunde früher"/>
    <tag k="opening_hours" v="Apr 01-Oct 15 09:00-18:00; Okt 16-Mar 31 10:00-17:00"/>
    <tag k="phone" v="+49 89 29067-1"/>
    <tag k="tourism" v="museum"/>
    <tag k="website" v="http://www.residenz-muenchen.de"/>
    <tag k="wheelchair" v="no"/>
  </node>
  <node id="261030708" version="12" timestamp="2010-11-24T15:46:22Z" uid="212111" user="okilimu" changeset="6447789" lat="48.1404392" lon="11.578146">
    <tag k="addr:city" v="München"/>
    <tag k="addr:country" v="DE"/>
    <tag k="addr:housename" v="Residenzmuseum"/>
    <tag k="addr:housenumber" v="1"/>
    <tag k="addr:postcode" v="80539"/>
    <tag k="addr:street" v="Residenzstraße"/>
    <tag k="email" v="residenzmuenchen@bsv.bayern.de"/>
    <tag k="name" v="Residenzmuseum und Schatzkammer"/>
    <tag k="note" v="letzter Einlass ist eine Stunde früher"/>
    <tag k="opening_hours" v="Apr-Oct 09:00-18:00; Oct 1-15 09:00-18:00; Oct 16-31 10:00-17:00; Nov-Mar 10:00-17:00"/>
    <tag k="phone" v="+49 89 29067-1"/>
    <tag k="tourism" v="museum"/>
    <tag k="website" v="http://www.residenz-muenchen.de"/>
    <tag k="wheelchair" v="no"/>
  </node>
  <node id="261030708" version="13" timestamp="2010-12-06T01:46:12Z" uid="32786" user="Netzwolf" changeset="6559009" lat="48.1404392" lon="11.578146">
    <tag k="addr:city" v="München"/>
    <tag k="addr:country" v="DE"/>
    <tag k="addr:housename" v="Residenzmuseum"/>
    <tag k="addr:housenumber" v="1"/>
    <tag k="addr:postcode" v="80539"/>
    <tag k="addr:street" v="Residenzstraße"/>
    <tag k="email" v="residenzmuenchen@bsv.bayern.de"/>
    <tag k="name" v="Residenzmuseum und Schatzkammer"/>
    <tag k="note" v="letzter Einlass ist eine Stunde früher"/>
    <tag k="opening_hours" v="Apr-Oct: 09:00-18:00; Oct 1-15: 09:00-18:00; Oct 16-31: 10:00-17:00; Nov-Mar: 10:00-17:00"/>
    <tag k="phone" v="+49 89 29067-1"/>
    <tag k="tourism" v="museum"/>
    <tag k="website" v="http://www.residenz-muenchen.de"/>
    <tag k="wheelchair" v="no"/>
  </node>
  <node id="261031526" version="2" timestamp="2008-07-06T09:06:10Z" uid="6975" user="ulfl" changeset="407266" lat="48.516158" lon="3.5171442">
    <tag k="power" v="generator"/>
    <tag k="power_source" v="nuclear"/>
  </node>
  <node id="261031526" version="3" timestamp="2011-03-26T19:45:54Z" uid="28269" user="Pierre-Alain Dorange" changeset="7679307" lat="48.516158" lon="3.5171442">
    <tag k="power" v="generator"/>
    <tag k="power_source" v="nuclear"/>
  </node>
  <node id="261032118" version="2" timestamp="2010-01-30T20:43:19Z" uid="171838" user="argrath" changeset="3754541" lat="34.4603827" lon="134.3037858">
    <tag k="created_by" v="JOSM"/>
  </node>
  <node id="261032119" version="2" timestamp="2010-01-30T20:43:20Z" uid="171838" user="argrath" changeset="3754541" lat="34.459898" lon="134.3014124">
    <tag k="created_by" v="JOSM"/>
  </node>
  <node id="261032120" version="2" timestamp="2010-01-30T20:43:20Z" uid="171838" user="argrath" changeset="3754541" lat="34.4580009" lon="134.3035085">
    <tag k="created_by" v="JOSM"/>
  </node>
  <node id="261032121" version="2" timestamp="2010-01-30T20:43:31Z" uid="171838" user="argrath" changeset="3754541" lat="34.4558285" lon="134.3103375">
    <tag k="created_by" v="JOSM"/>
  </node>
  <node id="261032123" version="2" timestamp="2010-01-30T20:43:32Z" uid="171838" user="argrath" changeset="3754541" lat="34.456844" lon="134.3166612">
    <tag k="created_by" v="JOSM"/>
  </node>
  <node id="261032124" version="2" timestamp="2010-01-30T20:43:32Z" uid="171838" user="argrath" changeset="3754541" lat="34.4626212" lon="134.3169535">
    <tag k="created_by" v="JOSM"/>
  </node>
  <node id="261032125" version="2" timestamp="2010-01-30T20:43:32Z" uid="171838" user="argrath" changeset="3754541" lat="34.459179" lon="134.3153999">
    <tag k="created_by" v="JOSM"/>
  </node>
  <node id="261032126" version="2" timestamp="2010-01-30T20:43:34Z" uid="171838" user="argrath" changeset="3754541" lat="34.4602326" lon="134.3137802">
    <tag k="created_by" v="JOSM"/>
  </node>
  <node id="261032127" version="2" timestamp="2010-01-30T20:43:34Z" uid="171838" user="argrath" changeset="3754541" lat="34.4595628" lon="134.3149684">
    <tag k="created_by" v="JOSM"/>
  </node>
  <node id="261032128" version="2" timestamp="2010-01-30T20:35:53Z" uid="171838" user="argrath" changeset="3754541" lat="34.4644428" lon="134.1510403">
    <tag k="created_by" v="JOSM"/>
  </node>
  <node id="261032129" version="2" timestamp="2010-01-30T20:37:30Z" uid="171838" user="argrath" changeset="3754541" lat="34.4624972" lon="134.1518439">
    <tag k="created_by" v="JOSM"/>
  </node>
  <node id="261032264" version="5" timestamp="2009-10-02T16:58:00Z" uid="86259" user="hasse_osm_korinthenkacker" changeset="2714981" lat="47.916361" lon="11.4450038"/>
  <node id="261032265" version="4" timestamp="2009-10-02T16:57:59Z" uid="86259" user="hasse_osm_korinthenkacker" changeset="2714981" lat="47.916532" lon="11.4449281"/>
  <node id="261032266" version="13" timestamp="2009-10-02T16:58:01Z" uid="86259" user="hasse_osm_korinthenkacker" changeset="2714981" lat="47.9167218" lon="11.4451255"/>
  <node id="261032267" version="4" timestamp="2009-10-02T16:58:01Z" uid="86259" user="hasse_osm_korinthenkacker" changeset="2714981" lat="47.9166643" lon="11.4455032"/>
  <node id="261032268" version="4" timestamp="2009-10-02T16:58:02Z" uid="86259" user="hasse_osm_korinthenkacker" changeset="2714981" lat="47.9164169" lon="11.4455718"/>
  <node id="261037675" version="2" timestamp="2008-07-03T18:28:26Z" uid="6975" user="ulfl" changeset="379368" lat="40.0252741" lon="-3.6120987">
    <tag k="amenity" v="fire_station"/>
  </node>
  <node id="261038206" version="2" timestamp="2009-10-18T00:52:11Z" uid="36809" user="pfoten_weg_!_" changeset="2879254" lat="47.7495105" lon="11.4740699"/>
  <node id="261038206" version="3" timestamp="2011-01-02T08:15:53Z" uid="42393" user="mawi42" changeset="6835727" lat="47.7494943" lon="11.4739239"/>
  <node id="261038207" version="2" timestamp="2009-10-18T00:52:13Z" uid="36809" user="pfoten_weg_!_" changeset="2879254" lat="47.749507" lon="11.4741709"/>
  <node id="261038207" version="3" timestamp="2011-01-02T08:15:53Z" uid="42393" user="mawi42" changeset="6835727" lat="47.7500173" lon="11.474986"/>
  <node id="261038210" version="2" timestamp="2009-10-18T00:52:11Z" uid="36809" user="pfoten_weg_!_" changeset="2879254" lat="47.7495469" lon="11.4740922"/>
  <node id="261038210" version="3" timestamp="2011-01-02T08:15:53Z" uid="42393" user="mawi42" changeset="6835727" lat="47.7498738" lon="11.4740698"/>
  <node id="261038213" version="2" timestamp="2009-10-18T00:52:11Z" uid="36809" user="pfoten_weg_!_" changeset="2879254" lat="47.7494929" lon="11.4741733"/>
  <node id="261038213" version="3" timestamp="2011-01-02T08:15:53Z" uid="42393" user="mawi42" changeset="6835727" lat="47.7496036" lon="11.4749522"/>
  <node id="261039193" version="1" timestamp="2008-05-01T16:20:14Z" uid="20587" user="balrog-kun" changeset="299566" lat="52.2513729" lon="20.9805272">
    <tag k="created_by" v="JOSM"/>
  </node>
  <node id="261039193" version="2" timestamp="2009-08-06T01:31:48Z" uid="20587" user="balrog-kun" changeset="2051615" lat="52.2514139" lon="20.9805036"/>
  <node id="261039193" version="3" timestamp="2011-02-11T21:50:11Z" uid="98542" user="wajak" changeset="7259659" lat="52.2514347" lon="20.9803585"/>
  <node id="261039194" version="1" timestamp="2008-05-01T16:20:14Z" uid="20587" user="balrog-kun" changeset="299566" lat="52.2500837" lon="20.9798428">
    <tag k="created_by" v="JOSM"/>
  </node>
  <node id="261039194" version="2" timestamp="2009-08-06T01:31:48Z" uid="20587" user="balrog-kun" changeset="2051615" lat="52.250168" lon="20.9798389"/>
  <node id="261039194" version="3" timestamp="2011-02-11T21:49:55Z" uid="98542" user="wajak" changeset="7259659" lat="52.2501625" lon="20.9797248"/>
  <node id="261039194" version="4" timestamp="2011-10-06T15:08:24Z" uid="477744" user="hormel" changeset="9486327" lat="52.2501625" lon="20.9797248"/>
  <node id="261039196" version="1" timestamp="2008-05-01T16:20:15Z" uid="20587" user="balrog-kun" changeset="299566" lat="52.2494121" lon="20.9795006">
    <tag k="created_by" v="JOSM"/>
  </node>
  <node id="261039196" version="2" timestamp="2009-05-28T11:38:42Z" uid="128018" user="Tomek" changeset="1342013" lat="52.2487493" lon="20.9792819">
    <tag k="name" v="NISKA 03"/>
    <tag k="railway" v="tram_stop"/>
  </node>
  <node id="261039196" version="3" timestamp="2009-08-06T01:31:48Z" uid="20587" user="balrog-kun" changeset="2051615" lat="52.2487493" lon="20.9792819">
    <tag k="name" v="Niska 03"/>
    <tag k="railway" v="tram_stop"/>
  </node>
  <node id="261039196" version="4" timestamp="2010-01-12T13:53:29Z" uid="20587" user="balrog-kun" changeset="3603234" lat="52.2487493" lon="20.9792819">
    <tag k="name" v="Niska 03"/>
    <tag k="railway" v="tram_stop"/>
    <tag k="tactile_paving" v="yes"/>
    <tag k="tactile_paving:slab_size" v="40x40"/>
    <tag k="ztm:ciąg_ulicy" v="Okopowa"/>
  </node>
  <node id="261039196" version="5" timestamp="2011-02-11T21:49:40Z" uid="98542" user="wajak" changeset="7259659" lat="52.248851" lon="20.9792244">
    <tag k="name" v="Niska 03"/>
    <tag k="railway" v="tram_stop"/>
    <tag k="tactile_paving" v="yes"/>
    <tag k="tactile_paving:slab_size" v="40x40"/>
    <tag k="ztm:ciąg_ulicy" v="Okopowa"/>
  </node>
  <node id="261039196" version="6" timestamp="2011-10-06T15:08:07Z" uid="477744" user="hormel" changeset="9486327" lat="52.2488253" lon="20.9792029">
    <tag k="name" v="Niska 03"/>
    <tag k="railway" v="tram_stop"/>
    <tag k="tactile_paving" v="yes"/>
    <tag k="tactile_paving:slab_size" v="40x40"/>
    <tag k="ztm:ciąg_ulicy" v="Okopowa"/>
  </node>
  <node id="261039197" version="1" timestamp="2008-05-01T16:20:15Z" uid="20587" user="balrog-kun" changeset="299566" lat="52.248284" lon="20.9791057">
    <tag k="created_by" v="JOSM"/>
  </node>
  <node id="261039197" version="2" timestamp="2009-05-28T11:38:42Z" uid="128018" user="Tomek" changeset="1342013" lat="52.2483762" lon="20.9791446">
    <tag k="name" v="NISKA 04"/>
    <tag k="railway" v="tram_stop"/>
  </node>
  <node id="261039197" version="3" timestamp="2009-05-28T12:01:19Z" uid="128018" user="Tomek" changeset="1342160" lat="52.2483762" lon="20.9791446">
    <tag k="name" v="Niska 04"/>
    <tag k="railway" v="tram_stop"/>
  </node>
  <node id="261039197" version="4" timestamp="2009-08-06T01:31:48Z" uid="20587" user="balrog-kun" changeset="2051615" lat="52.2483617" lon="20.9791328">
    <tag k="name" v="Niska 04"/>
    <tag k="railway" v="tram_stop"/>
  </node>
  <node id="261039197" version="5" timestamp="2010-01-12T13:53:29Z" uid="20587" user="balrog-kun" changeset="3603234" lat="52.2483617" lon="20.9791328">
    <tag k="name" v="Niska 04"/>
    <tag k="railway" v="tram_stop"/>
    <tag k="tactile_paving" v="yes"/>
    <tag k="tactile_paving:slab_size" v="40x40"/>
    <tag k="ztm:ciąg_ulicy" v="Okopowa"/>
  </node>
  <node id="261039197" version="6" timestamp="2011-02-11T21:50:21Z" uid="98542" user="wajak" changeset="7259659" lat="52.2483773" lon="20.9790504"/>
  <node id="261039198" version="1" timestamp="2008-05-01T16:20:15Z" uid="20587" user="balrog-kun" changeset="299566" lat="52.2471504" lon="20.978237">
    <tag k="created_by" v="JOSM"/>
  </node>
  <node id="261039198" version="2" timestamp="2010-12-28T21:26:43Z" uid="165509" user="koszatek" changeset="6792685" lat="52.2471637" lon="20.9781893"/>
  <node id="261039198" version="3" timestamp="2011-02-11T21:50:08Z" uid="98542" user="wajak" changeset="7259659" lat="52.2471654" lon="20.9781727"/>
  <node id="261039199" version="1" timestamp="2008-05-01T16:20:15Z" uid="20587" user="balrog-kun" changeset="299566" lat="52.2466024" lon="20.9777105">
    <tag k="created_by" v="JOSM"/>
  </node>
  <node id="261039199" version="2" timestamp="2010-12-28T21:26:49Z" uid="165509" user="koszatek" changeset="6792685" lat="52.2466289" lon="20.9776152"/>
  <node id="261039199" version="3" timestamp="2011-02-11T21:49:53Z" uid="98542" user="wajak" changeset="7259659" lat="52.2466388" lon="20.9775856"/>
  <node id="261039201" version="1" timestamp="2008-05-01T16:20:15Z" uid="20587" user="balrog-kun" changeset="299566" lat="52.2459953" lon="20.977263">
    <tag k="created_by" v="JOSM"/>
  </node>
  <node id="261039201" version="2" timestamp="2010-12-28T21:26:46Z" uid="165509" user="koszatek" changeset="6792685" lat="52.2460112" lon="20.9771807"/>
  <node id="261039201" version="3" timestamp="2011-10-06T15:08:07Z" uid="477744" user="hormel" changeset="9486327" lat="52.246015" lon="20.9771705"/>
  <node id="261039202" version="1" timestamp="2008-05-01T16:20:16Z" uid="20587" user="balrog-kun" changeset="299566" lat="52.2455548" lon="20.9771402">
    <tag k="created_by" v="JOSM"/>
  </node>
  <node id="261039202" version="2" timestamp="2011-02-11T21:49:26Z" uid="98542" user="wajak" changeset="7259659" lat="52.2455596" lon="20.9770827"/>
  <node id="261039203" version="1" timestamp="2008-05-01T16:20:16Z" uid="20587" user="balrog-kun" changeset="299566" lat="52.245313" lon="20.9771489">
    <tag k="created_by" v="JOSM"/>
  </node>
  <node id="261039203" version="2" timestamp="2009-05-28T12:13:45Z" uid="128018" user="Tomek" changeset="1342236" lat="52.245254" lon="20.9771039"/>
  <node id="261039203" version="3" timestamp="2011-02-11T21:50:12Z" uid="98542" user="wajak" changeset="7259659" lat="52.2452524" lon="20.9770856"/>
  <node id="261039204" version="1" timestamp="2008-05-01T16:20:16Z" uid="20587" user="balrog-kun" changeset="299566" lat="52.2443404" lon="20.9772283">
    <tag k="created_by" v="JOSM"/>
  </node>
  <node id="261039204" version="2" timestamp="2009-05-28T12:04:32Z" uid="128018" user="Tomek" changeset="1342178" lat="52.2443405" lon="20.9772187">
    <tag k="name" v="CM.ŻYDOWSKI 04"/>
    <tag k="railway" v="tram_stop"/>
  </node>
  <node id="261039204" version="3" timestamp="2009-08-08T15:03:49Z" uid="20587" user="balrog-kun" changeset="2076575" lat="52.2443405" lon="20.9772187">
    <tag k="name" v="Cmentarz Żydowski 04"/>
    <tag k="railway" v="tram_stop"/>
  </node>
  <node id="261039204" version="4" timestamp="2010-01-12T13:53:29Z" uid="20587" user="balrog-kun" changeset="3603234" lat="52.2443405" lon="20.9772187">
    <tag k="name" v="Cmentarz Żydowski 04"/>
    <tag k="railway" v="tram_stop"/>
    <tag k="tactile_paving" v="yes"/>
    <tag k="tactile_paving:slab_size" v="40x40"/>
    <tag k="ztm:ciąg_ulicy" v="Okopowa"/>
  </node>
  <node id="261039204" version="5" timestamp="2010-11-26T14:33:06Z" uid="98542" user="wajak" changeset="6462475" lat="52.2443405" lon="20.9771868">
    <tag k="name" v="Cmentarz Żydowski 04"/>
    <tag k="railway" v="tram_stop"/>
    <tag k="tactile_paving" v="yes"/>
    <tag k="tactile_paving:slab_size" v="40x40"/>
    <tag k="ztm:ciąg_ulicy" v="Okopowa"/>
  </node>
  <node id="261039204" version="6" timestamp="2011-02-11T21:50:15Z" uid="98542" user="wajak" changeset="7259659" lat="52.2443716" lon="20.9772021">
    <tag k="name" v="Cmentarz Żydowski 04"/>
    <tag k="railway" v="tram_stop"/>
    <tag k="tactile_paving" v="yes"/>
    <tag k="tactile_paving:slab_size" v="40x40"/>
    <tag k="ztm:ciąg_ulicy" v="Okopowa"/>
  </node>
  <node id="261039204" version="7" timestamp="2011-05-20T06:23:11Z" uid="98542" user="wajak" changeset="8195573" lat="52.2443716" lon="20.9772021"/>
  <node id="261039204" version="8" timestamp="2011-10-05T22:44:32Z" uid="477744" user="hormel" changeset="9482238" lat="52.2443716" lon="20.9772021"/>
  <node id="261039205" version="1" timestamp="2008-05-01T16:20:16Z" uid="20587" user="balrog-kun" changeset="299566" lat="52.244174" lon="20.9772893">
    <tag k="created_by" v="JOSM"/>
  </node>
  <node id="261039205" version="2" timestamp="2010-11-26T14:33:06Z" uid="98542" user="wajak" changeset="6462475" lat="52.244174" lon="20.9772574"/>
  <node id="261039205" version="3" timestamp="2010-11-30T17:42:28Z" uid="165509" user="koszatek" changeset="6496183" lat="52.2442439" lon="20.977232"/>
  <node id="261039205" version="4" timestamp="2010-12-24T13:11:20Z" uid="98542" user="wajak" changeset="6754445" lat="52.2442439" lon="20.977232"/>
  <node id="261039206" version="1" timestamp="2008-05-01T16:20:16Z" uid="20587" user="balrog-kun" changeset="299566" lat="52.2425138" lon="20.9779474">
    <tag k="created_by" v="JOSM"/>
    <tag k="railway" v="tram_stop"/>
  </node>
  <node id="261039206" version="2" timestamp="2009-05-28T12:13:45Z" uid="128018" user="Tomek" changeset="1342236" lat="52.2425138" lon="20.9779474">
    <tag k="name" v="Dzielna 02"/>
    <tag k="railway" v="tram_stop"/>
  </node>
  <node id="261039206" version="3" timestamp="2010-01-12T13:53:29Z" uid="20587" user="balrog-kun" changeset="3603234" lat="52.2425138" lon="20.9779474">
    <tag k="name" v="Dzielna 02"/>
    <tag k="railway" v="tram_stop"/>
    <tag k="tactile_paving" v="yes"/>
    <tag k="tactile_paving:slab_size" v="40x40"/>
    <tag k="ztm:ciąg_ulicy" v="Okopowa"/>
  </node>
  <node id="261039206" version="4" timestamp="2010-11-26T14:33:06Z" uid="98542" user="wajak" changeset="6462475" lat="52.2415797" lon="20.9778076">
    <tag k="name" v="Dzielna 02"/>
    <tag k="railway" v="tram_stop"/>
    <tag k="tactile_paving" v="yes"/>
    <tag k="tactile_paving:slab_size" v="40x40"/>
    <tag k="ztm:ciąg_ulicy" v="Okopowa"/>
  </node>
  <node id="261039206" version="5" timestamp="2011-02-11T21:49:46Z" uid="98542" user="wajak" changeset="7259659" lat="52.2415768" lon="20.9777884"/>
  <node id="261039208" version="1" timestamp="2008-05-01T16:20:17Z" uid="20587" user="balrog-kun" changeset="299566" lat="52.2419657" lon="20.9779738">
    <tag k="created_by" v="JOSM"/>
  </node>
  <node id="261039208" version="2" timestamp="2010-11-26T14:33:07Z" uid="98542" user="wajak" changeset="6462475" lat="52.2419657" lon="20.9779738">
    <tag k="created_by" v="JOSM"/>
  </node>
  <node id="261039209" version="1" timestamp="2008-05-01T16:20:17Z" uid="20587" user="balrog-kun" changeset="299566" lat="52.2410416" lon="20.9777456">
    <tag k="created_by" v="JOSM"/>
  </node>
  <node id="261039209" version="2" timestamp="2009-06-23T06:47:09Z" uid="98542" user="wajak" changeset="1599442" lat="52.2410952" lon="20.9776747"/>
  <node id="261039209" version="3" timestamp="2010-11-26T14:33:06Z" uid="98542" user="wajak" changeset="6462475" lat="52.2410952" lon="20.9776428"/>
  <node id="261039209" version="4" timestamp="2011-02-11T21:50:13Z" uid="98542" user="wajak" changeset="7259659" lat="52.2410909" lon="20.9776241"/>
  <node id="261039210" version="1" timestamp="2008-05-01T16:20:17Z" uid="20587" user="balrog-kun" changeset="299566" lat="52.2404935" lon="20.9777544">
    <tag k="created_by" v="JOSM"/>
  </node>
  <node id="261039210" version="2" timestamp="2009-06-23T06:47:09Z" uid="98542" user="wajak" changeset="1599442" lat="52.2405203" lon="20.977621"/>
  <node id="261039210" version="3" timestamp="2010-11-26T14:33:06Z" uid="98542" user="wajak" changeset="6462475" lat="52.2405203" lon="20.9775891"/>
  <node id="261039210" version="4" timestamp="2011-02-11T21:50:04Z" uid="98542" user="wajak" changeset="7259659" lat="52.2405189" lon="20.9775755"/>
  <node id="261039211" version="1" timestamp="2008-05-01T16:20:17Z" uid="20587" user="balrog-kun" changeset="299566" lat="52.2395917" lon="20.9778783">
    <tag k="created_by" v="JOSM"/>
  </node>
  <node id="261039211" version="2" timestamp="2009-06-23T06:47:09Z" uid="98542" user="wajak" changeset="1599442" lat="52.2395907" lon="20.9777015"/>
  <node id="261039211" version="3" timestamp="2010-11-26T14:33:06Z" uid="98542" user="wajak" changeset="6462475" lat="52.2395907" lon="20.9776696"/>
  <node id="261039211" version="4" timestamp="2011-01-12T20:04:51Z" uid="165509" user="koszatek" changeset="6950971" lat="52.2396237" lon="20.9776721"/>
  <node id="261039212" version="1" timestamp="2008-05-01T16:20:17Z" uid="20587" user="balrog-kun" changeset="299566" lat="52.2390966" lon="20.978112">
    <tag k="created_by" v="JOSM"/>
  </node>
  <node id="261039212" version="2" timestamp="2009-06-23T06:47:10Z" uid="98542" user="wajak" changeset="1599442" lat="52.2390848" lon="20.9779161"/>
  <node id="261039212" version="3" timestamp="2010-11-26T14:33:07Z" uid="98542" user="wajak" changeset="6462475" lat="52.2390848" lon="20.9778842"/>
  <node id="261039212" version="4" timestamp="2011-01-24T14:39:57Z" uid="20587" user="balrog-kun" changeset="7073235" lat="52.2390974" lon="20.9779429"/>
  <node id="261039213" version="1" timestamp="2008-05-01T16:20:18Z" uid="20587" user="balrog-kun" changeset="299566" lat="52.2383542" lon="20.9787228">
    <tag k="created_by" v="JOSM"/>
  </node>
  <node id="261039213" version="2" timestamp="2008-07-15T21:21:18Z" uid="52191" user="mpwt" changeset="502183" lat="52.2383173" lon="20.9787352">
    <tag k="created_by" v="JOSM"/>
  </node>
  <node id="261039213" version="3" timestamp="2009-06-23T06:47:10Z" uid="98542" user="wajak" changeset="1599442" lat="52.2383128" lon="20.9786134"/>
  <node id="261039213" version="4" timestamp="2009-08-05T06:58:45Z" uid="98542" user="wajak" changeset="2042610" lat="52.2382734" lon="20.978651"/>
  <node id="261039213" version="5" timestamp="2010-11-26T14:33:05Z" uid="98542" user="wajak" changeset="6462475" lat="52.2382734" lon="20.9786191"/>
  <node id="261039213" version="6" timestamp="2011-01-24T14:40:18Z" uid="20587" user="balrog-kun" changeset="7073235" lat="52.2382364" lon="20.9785587"/>
  <node id="261039213" version="7" timestamp="2011-07-05T11:27:01Z" uid="477744" user="hormel" changeset="8638101" lat="52.2382285" lon="20.9785207"/>
  <node id="261039214" version="1" timestamp="2008-05-01T16:20:18Z" uid="20587" user="balrog-kun" changeset="299566" lat="52.2382203" lon="20.9788413">
    <tag k="created_by" v="JOSM"/>
  </node>
  <node id="261039214" version="2" timestamp="2008-07-15T21:20:55Z" uid="52191" user="mpwt" changeset="502183" lat="52.238173" lon="20.9788241">
    <tag k="created_by" v="JOSM"/>
  </node>
  <node id="261039214" version="3" timestamp="2009-06-23T06:47:10Z" uid="98542" user="wajak" changeset="1599442" lat="52.2381452" lon="20.9787851"/>
  <node id="261039214" version="4" timestamp="2009-08-05T06:58:44Z" uid="98542" user="wajak" changeset="2042610" lat="52.2381485" lon="20.9788012"/>
  <node id="261039214" version="5" timestamp="2010-11-26T14:33:05Z" uid="98542" user="wajak" changeset="6462475" lat="52.2381485" lon="20.9787693"/>
  <node id="261039214" version="6" timestamp="2011-01-24T14:40:04Z" uid="20587" user="balrog-kun" changeset="7073235" lat="52.2380941" lon="20.9787124"/>
  <node id="261039214" version="7" timestamp="2011-07-05T11:27:02Z" uid="477744" user="hormel" changeset="8638101" lat="52.2380824" lon="20.978657"/>
  <node id="261039215" version="1" timestamp="2008-05-01T16:20:18Z" uid="20587" user="balrog-kun" changeset="299566" lat="52.2417183" lon="20.9777289">
    <tag k="created_by" v="JOSM"/>
  </node>
  <node id="261039215" version="2" timestamp="2010-11-19T00:44:20Z" uid="20587" user="balrog-kun" changeset="6404193" lat="52.2417183" lon="20.9777289">
    <tag k="highway" v="traffic_signals"/>
  </node>
  <node id="261039215" version="3" timestamp="2011-02-11T21:49:55Z" uid="98542" user="wajak" changeset="7259659" lat="52.2419906" lon="20.9778045">
    <tag k="highway" v="traffic_signals"/>
  </node>
  <node id="261039216" version="1" timestamp="2008-05-01T16:20:18Z" uid="20587" user="balrog-kun" changeset="299566" lat="52.241735" lon="20.9769609">
    <tag k="created_by" v="JOSM"/>
  </node>
  <node id="261039216" version="2" timestamp="2011-12-21T08:47:37Z" uid="544936" user="CYL" changeset="10169686" lat="52.2417601" lon="20.9769528"/>
  <node id="261039217" version="1" timestamp="2008-05-01T16:20:18Z" uid="20587" user="balrog-kun" changeset="299566" lat="52.2413962" lon="20.974551">
    <tag k="created_by" v="JOSM"/>
  </node>
  <node id="261039217" version="2" timestamp="2011-12-21T08:47:38Z" uid="544936" user="CYL" changeset="10169686" lat="52.2414217" lon="20.9745319"/>
  <node id="261039219" version="1" timestamp="2008-05-01T16:20:18Z" uid="20587" user="balrog-kun" changeset="299566" lat="52.2412757" lon="20.9744034">
    <tag k="created_by" v="JOSM"/>
  </node>
  <node id="261039219" version="2" timestamp="2011-12-21T08:47:37Z" uid="544936" user="CYL" changeset="10169686" lat="52.2412815" lon="20.9744538"/>
  <node id="261039220" version="1" timestamp="2008-05-01T16:20:19Z" uid="20587" user="balrog-kun" changeset="299566" lat="52.2435075" lon="20.974877">
    <tag k="created_by" v="JOSM"/>
  </node>
  <node id="261039221" version="1" timestamp="2008-05-01T16:20:19Z" uid="20587" user="balrog-kun" changeset="299566" lat="52.2425391" lon="20.9752666">
    <tag k="created_by" v="JOSM"/>
  </node>
  <node id="261039221" version="2" timestamp="2010-10-10T20:34:09Z" uid="20587" user="balrog-kun" changeset="6006462" lat="52.2425391" lon="20.9752666">
    <tag k="traffic_calming" v="hump"/>
  </node>
  <node id="261039222" version="1" timestamp="2008-05-01T16:20:19Z" uid="20587" user="balrog-kun" changeset="299566" lat="52.2421488" lon="20.9753492">
    <tag k="created_by" v="JOSM"/>
  </node>
  <node id="261039223" version="1" timestamp="2008-05-01T16:20:19Z" uid="20587" user="balrog-kun" changeset="299566" lat="52.2415561" lon="20.9756089">
    <tag k="created_by" v="JOSM"/>
  </node>
  <node id="261039223" version="2" timestamp="2011-12-21T08:47:38Z" uid="544936" user="CYL" changeset="10169686" lat="52.2415732" lon="20.9755825"/>
  <node id="261039224" version="1" timestamp="2008-05-01T16:20:19Z" uid="20587" user="balrog-kun" changeset="299566" lat="52.2393299" lon="20.9764351">
    <tag k="created_by" v="JOSM"/>
  </node>
  <node id="261039224" version="2" timestamp="2011-01-12T20:04:41Z" uid="165509" user="koszatek" changeset="6950971" lat="52.2393929" lon="20.976413"/>
  <node id="261039225" version="1" timestamp="2008-05-01T16:20:20Z" uid="20587" user="balrog-kun" changeset="299566" lat="52.2392293" lon="20.9752535">
    <tag k="created_by" v="JOSM"/>
  </node>
  <node id="261039225" version="2" timestamp="2011-01-12T20:04:34Z" uid="165509" user="koszatek" changeset="6950971" lat="52.2392353" lon="20.9753025"/>
  <node id="261039227" version="1" timestamp="2008-05-01T16:20:20Z" uid="20587" user="balrog-kun" changeset="299566" lat="52.2407952" lon="20.9758783">
    <tag k="created_by" v="JOSM"/>
  </node>
  <node id="261039228" version="1" timestamp="2008-05-01T16:20:20Z" uid="20587" user="balrog-kun" changeset="299566" lat="52.2405912" lon="20.9746762">
    <tag k="created_by" v="JOSM"/>
  </node>
  <node id="261030513" version="4" timestamp="2012-07-10T05:05:16Z" uid="31231" user="Andre68" changeset="12169076" lat="51.775285" lon="10.5521797"/>
  <node id="261030662" version="3" timestamp="2012-04-20T14:33:28Z" uid="550476" user="fishcrosser" changeset="11364823" lat="52.2494228" lon="21.0003499"/>
  <node id="261030664" version="3" timestamp="2012-04-20T14:33:28Z" uid="550476" user="fishcrosser" changeset="11364823" lat="52.2526852" lon="20.999603"/>
  <node id="261032264" version="6" timestamp="2012-06-08T17:32:52Z" uid="8748" user="ToniE" changeset="11837431" lat="47.91633" lon="11.4450279"/>
  <node id="261032266" version="14" timestamp="2012-06-08T17:32:52Z" uid="8748" user="ToniE" changeset="11837431" lat="47.9166935" lon="11.4451939"/>
  <node id="261032267" version="5" timestamp="2012-06-08T17:32:52Z" uid="8748" user="ToniE" changeset="11837431" lat="47.9167169" lon="11.445471"/>
  <node id="261032268" version="5" timestamp="2012-06-08T17:32:52Z" uid="8748" user="ToniE" changeset="11837431" lat="47.9164102" lon="11.4455658"/>
  <node id="261032268" version="6" timestamp="2012-06-09T13:38:36Z" uid="8748" user="ToniE" changeset="11844993" lat="47.9164435" lon="11.4456175"/>
  <node id="261039196" version="7" timestamp="2012-07-24T21:46:10Z" uid="722137" user="OSMF Redaction Account" changeset="12477247" lat="52.2488253" lon="20.9792029">
    <tag k="tactile_paving" v="yes"/>
    <tag k="tactile_paving:slab_size" v="40x40"/>
    <tag k="ztm:ciąg_ulicy" v="Okopowa"/>
  </node>
  <node id="261039215" version="4" timestamp="2012-07-19T10:30:08Z" uid="407593" user="Polanin" changeset="12318244" lat="52.2419906" lon="20.9778045">
    <tag k="highway" v="traffic_signals"/>
  </node>
  <node id="261039217" version="3" timestamp="2012-04-06T17:18:23Z" uid="99386" user="masti" changeset="11204601" lat="52.2414421" lon="20.9745306"/>
  <node id="261039219" version="3" timestamp="2012-04-06T17:18:23Z" uid="99386" user="masti" changeset="11204601" lat="52.2413213" lon="20.9744665"/>
  <node id="261039223" version="3" timestamp="2012-04-06T17:18:24Z" uid="99386" user="masti" changeset="11204601" lat="52.2415816" lon="20.9755733"/>
  <node id="261039225" version="3" timestamp="2012-04-06T17:18:24Z" uid="99386" user="masti" changeset="11204601" lat="52.2392431" lon="20.9752931"/>
  <node id="261039228" version="2" timestamp="2012-04-06T17:18:24Z" uid="99386" user="masti" changeset="11204601" lat="52.240611" lon="20.9747424"/>
</osm>
