<?xml version='1.0' encoding='UTF-8'?>
<osm version="0.6" generator="libosmium/2.20.0">
  <node id="26150422" version="18" timestamp="2009-07-22T19:59:00Z" uid="20587" user="balrog-kun" changeset="1908820" lat="50.4499782" lon="30.5235084">
    <tag k="alt_name:en" v="Kiev"/>
    <tag k="capital" v="yes"/>
    <tag k="int_name" v="Kyiv"/>
    <tag k="name" v="Київ"/>
    <tag k="name:ar" v="كييف"/>
    <tag k="name:de" v="Kiew"/>
    <tag k="name:en" v="Kyiv"/>
    <tag k="name:es" v="Kiev"/>
    <tag k="name:he" v="קייב"/>
    <tag k="name:hu" v="Kijev"/>
    <tag k="name:no" v="Kiev"/>
    <tag k="name:pl" v="Kijów"/>
    <tag k="name:ru" v="Киев"/>
    <tag k="name:sv" v="Kiev"/>
    <tag k="place" v="city"/>
    <tag k="population" v="2819566"/>
    <tag k="wikipedia" v="Kiev"/>
  </node>
  <node id="26150422" version="19" timestamp="2009-08-13T06:08:00Z" uid="38239" user="Daeron" changeset="2127039" lat="50.4499782" lon="30.5235084">
    <tag k="alt_name:en" v="Kiev"/>
    <tag k="capital" v="yes"/>
    <tag k="int_name" v="Kyiv"/>
    <tag k="name" v="Київ"/>
    <tag k="name:ar" v="كييف"/>
    <tag k="name:de" v="Kiew"/>
    <tag k="name:en" v="Kyiv"/>
    <tag k="name:es" v="Kiev"/>
    <tag k="name:fi" v="Kiova"/>
    <tag k="name:he" v="קייב"/>
    <tag k="name:hu" v="Kijev"/>
    <tag k="name:no" v="Kiev"/>
    <tag k="name:pl" v="Kijów"/>
    <tag k="name:ru" v="Киев"/>
    <tag k="name:sv" v="Kiev"/>
    <tag k="place" v="city"/>
    <tag k="population" v="2819566"/>
    <tag k="wikipedia" v="Kiev"/>
  </node>
  <node id="26150422" version="20" timestamp="2009-08-16T10:40:18Z" uid="33377" user="Victor LP" changeset="2163565" lat="50.4499782" lon="30.5235084">
    <tag k="alt_name:en" v="Kiev"/>
    <tag k="capital" v="yes"/>
    <tag k="int_name" v="Kyiv"/>
    <tag k="name" v="Київ"/>
    <tag k="name:ar" v="كييف"/>
    <tag k="name:de" v="Kiew"/>
    <tag k="name:el" v="Κίεβο"/>
    <tag k="name:en" v="Kyiv"/>
    <tag k="name:es" v="Kiev"/>
    <tag k="name:fi" v="Kiova"/>
    <tag k="name:he" v="קייב"/>
    <tag k="name:hu" v="Kijev"/>
    <tag k="name:nl" v="Kiev"/>
    <tag k="name:no" v="Kiev"/>
    <tag k="name:pl" v="Kijów"/>
    <tag k="name:ru" v="Киев"/>
    <tag k="name:sv" v="Kiev"/>
    <tag k="place" v="city"/>
    <tag k="population" v="2819566"/>
    <tag k="wikipedia" v="Kiev"/>
  </node>
  <node id="26150422" version="21" timestamp="2009-09-07T22:43:30Z" uid="24965" user="Ævar Arnfjörð Bjarmason" changeset="2408705" lat="50.4499782" lon="30.5235084">
    <tag k="alt_name:en" v="Kiev"/>
    <tag k="capital" v="yes"/>
    <tag k="int_name" v="Kyiv"/>
    <tag k="name" v="Київ"/>
    <tag k="name:ar" v="كييف"/>
    <tag k="name:de" v="Kiew"/>
    <tag k="name:el" v="Κίεβο"/>
    <tag k="name:en" v="Kyiv"/>
    <tag k="name:es" v="Kiev"/>
    <tag k="name:fi" v="Kiova"/>
    <tag k="name:he" v="קייב"/>
    <tag k="name:hu" v="Kijev"/>
    <tag k="name:is" v="Kíev"/>
    <tag k="name:nl" v="Kiev"/>
    <tag k="name:no" v="Kiev"/>
    <tag k="name:pl" v="Kijów"/>
    <tag k="name:ru" v="Киев"/>
    <tag k="name:sv" v="Kiev"/>
    <tag k="place" v="city"/>
    <tag k="population" v="2819566"/>
    <tag k="wikipedia" v="Kiev"/>
  </node>
  <node id="26150422" version="22" timestamp="2009-09-08T03:19:39Z" uid="69716" user="Circeus" changeset="2409676" lat="50.4499799" lon="30.5235009">
    <tag k="alt_name:en" v="Kiev"/>
    <tag k="capital" v="yes"/>
    <tag k="int_name" v="Kyiv"/>
    <tag k="name" v="Київ"/>
    <tag k="name:ar" v="كييف"/>
    <tag k="name:de" v="Kiew"/>
    <tag k="name:el" v="Κίεβο"/>
    <tag k="name:en" v="Kyiv"/>
    <tag k="name:es" v="Kiev"/>
    <tag k="name:fi" v="Kiova"/>
    <tag k="name:fr" v="Kiev"/>
    <tag k="name:he" v="קייב"/>
    <tag k="name:hu" v="Kijev"/>
    <tag k="name:is" v="Kíev"/>
    <tag k="name:nl" v="Kiev"/>
    <tag k="name:no" v="Kiev"/>
    <tag k="name:pl" v="Kijów"/>
    <tag k="name:ru" v="Киев"/>
    <tag k="name:sv" v="Kiev"/>
    <tag k="place" v="city"/>
    <tag k="population" v="2819566"/>
    <tag k="wikipedia" v="Kiev"/>
  </node>
  <node id="26150422" version="23" timestamp="2009-09-30T10:33:39Z" uid="29717" user="eumiro" changeset="2686580" lat="50.4499799" lon="30.5235009">
    <tag k="alt_name:en" v="Kiev"/>
    <tag k="capital" v="yes"/>
    <tag k="int_name" v="Kyiv"/>
    <tag k="name" v="Київ"/>
    <tag k="name:ar" v="كييف"/>
    <tag k="name:cs" v="Kyjev"/>
    <tag k="name:de" v="Kiew"/>
    <tag k="name:el" v="Κίεβο"/>
    <tag k="name:en" v="Kyiv"/>
    <tag k="name:es" v="Kiev"/>
    <tag k="name:fi" v="Kiova"/>
    <tag k="name:fr" v="Kiev"/>
    <tag k="name:he" v="קייב"/>
    <tag k="name:hu" v="Kijev"/>
    <tag k="name:is" v="Kíev"/>
    <tag k="name:nl" v="Kiev"/>
    <tag k="name:no" v="Kiev"/>
    <tag k="name:pl" v="Kijów"/>
    <tag k="name:ru" v="Киев"/>
    <tag k="name:sk" v="Kyjev"/>
    <tag k="name:sv" v="Kiev"/>
    <tag k="place" v="city"/>
    <tag k="population" v="2819566"/>
    <tag k="wikipedia" v="Kiev"/>
  </node>
  <node id="26150422" version="24" timestamp="2009-10-26T14:38:44Z" uid="33981" user="romanm" changeset="2956745" lat="50.4499799" lon="30.5235009">
    <tag k="alt_name:en" v="Kiev"/>
    <tag k="capital" v="yes"/>
    <tag k="int_name" v="Kyiv"/>
    <tag k="name" v="Київ"/>
    <tag k="name:ar" v="كييف"/>
    <tag k="name:cs" v="Kyjev"/>
    <tag k="name:de" v="Kiew"/>
    <tag k="name:el" v="Κίεβο"/>
    <tag k="name:en" v="Kyiv"/>
    <tag k="name:es" v="Kiev"/>
    <tag k="name:fi" v="Kiova"/>
    <tag k="name:fr" v="Kiev"/>
    <tag k="name:he" v="קייב"/>
    <tag k="name:hu" v="Kijev"/>
    <tag k="name:is" v="Kíev"/>
    <tag k="name:nl" v="Kiev"/>
    <tag k="name:no" v="Kiev"/>
    <tag k="name:pl" v="Kijów"/>
    <tag k="name:ru" v="Киев"/>
    <tag k="name:sk" v="Kyjev"/>
    <tag k="name:sl" v="Kijev"/>
    <tag k="name:sv" v="Kiev"/>
    <tag k="place" v="city"/>
    <tag k="population" v="2819566"/>
    <tag k="wikipedia" v="Kiev"/>
  </node>
  <node id="26150422" version="25" timestamp="2009-11-10T13:36:01Z" uid="148025" user="mvrban" changeset="3082082" lat="50.4499799" lon="30.5235009">
    <tag k="alt_name:en" v="Kiev"/>
    <tag k="capital" v="yes"/>
    <tag k="int_name" v="Kyiv"/>
    <tag k="name" v="Київ"/>
    <tag k="name:ar" v="كييف"/>
    <tag k="name:cs" v="Kyjev"/>
    <tag k="name:de" v="Kiew"/>
    <tag k="name:el" v="Κίεβο"/>
    <tag k="name:en" v="Kyiv"/>
    <tag k="name:es" v="Kiev"/>
    <tag k="name:fi" v="Kiova"/>
    <tag k="name:fr" v="Kiev"/>
    <tag k="name:he" v="קייב"/>
    <tag k="name:hr" v="Kijev"/>
    <tag k="name:hu" v="Kijev"/>
    <tag k="name:is" v="Kíev"/>
    <tag k="name:nl" v="Kiev"/>
    <tag k="name:no" v="Kiev"/>
    <tag k="name:pl" v="Kijów"/>
    <tag k="name:ru" v="Киев"/>
    <tag k="name:sk" v="Kyjev"/>
    <tag k="name:sl" v="Kijev"/>
    <tag k="name:sv" v="Kiev"/>
    <tag k="place" v="city"/>
    <tag k="population" v="2819566"/>
    <tag k="wikipedia" v="Kiev"/>
  </node>
  <node id="26150422" version="26" timestamp="2009-11-11T17:39:14Z" uid="18069" user="Claudius Henrichs" changeset="3091999" lat="50.4499799" lon="30.5235009">
    <tag k="alt_name:en" v="Kiev"/>
    <tag k="capital" v="yes"/>
    <tag k="int_name" v="Kyiv"/>
    <tag k="name" v="Київ"/>
    <tag k="name:ar" v="كييف"/>
    <tag k="name:cs" v="Kyjev"/>
    <tag k="name:de" v="Kiew"/>
    <tag k="name:el" v="Κίεβο"/>
    <tag k="name:en" v="Kyiv"/>
    <tag k="name:es" v="Kiev"/>
    <tag k="name:fa" v="کیف"/>
    <tag k="name:fi" v="Kiova"/>
    <tag k="name:fr" v="Kiev"/>
    <tag k="name:he" v="קייב"/>
    <tag k="name:hr" v="Kijev"/>
    <tag k="name:hu" v="Kijev"/>
    <tag k="name:is" v="Kíev"/>
    <tag k="name:nl" v="Kiev"/>
    <tag k="name:no" v="Kiev"/>
    <tag k="name:pl" v="Kijów"/>
    <tag k="name:ru" v="Киев"/>
    <tag k="name:sk" v="Kyjev"/>
    <tag k="name:sl" v="Kijev"/>
    <tag k="name:sv" v="Kiev"/>
    <tag k="place" v="city"/>
    <tag k="population" v="2819566"/>
    <tag k="wikipedia" v="Kiev"/>
  </node>
  <node id="26150422" version="27" timestamp="2009-11-25T18:56:34Z" uid="47892" user="richlv" changeset="3214991" lat="50.4499799" lon="30.5235009">
    <tag k="alt_name:en" v="Kiev"/>
    <tag k="capital" v="yes"/>
    <tag k="int_name" v="Kyiv"/>
    <tag k="name" v="Київ"/>
    <tag k="name:ar" v="كييف"/>
    <tag k="name:cs" v="Kyjev"/>
    <tag k="name:de" v="Kiew"/>
    <tag k="name:el" v="Κίεβο"/>
    <tag k="name:en" v="Kyiv"/>
    <tag k="name:es" v="Kiev"/>
    <tag k="name:fa" v="کیف"/>
    <tag k="name:fi" v="Kiova"/>
    <tag k="name:fr" v="Kiev"/>
    <tag k="name:he" v="קייב"/>
    <tag k="name:hr" v="Kijev"/>
    <tag k="name:hu" v="Kijev"/>
    <tag k="name:is" v="Kíev"/>
    <tag k="name:lv" v="Kijeva"/>
    <tag k="name:nl" v="Kiev"/>
    <tag k="name:no" v="Kiev"/>
    <tag k="name:pl" v="Kijów"/>
    <tag k="name:ru" v="Киев"/>
    <tag k="name:sk" v="Kyjev"/>
    <tag k="name:sl" v="Kijev"/>
    <tag k="name:sv" v="Kiev"/>
    <tag k="place" v="city"/>
    <tag k="population" v="2819566"/>
    <tag k="wikipedia" v="Kiev"/>
  </node>
  <node id="26150422" version="28" timestamp="2010-02-13T10:11:01Z" uid="211459" user="Dmytro Ovdiienko" changeset="3863059" lat="50.4499799" lon="30.5235008">
    <tag k="alt_name:en" v="Kiev"/>
    <tag k="capital" v="yes"/>
    <tag k="int_name" v="Kyiv"/>
    <tag k="name" v="Київ"/>
    <tag k="name:ar" v="كييف"/>
    <tag k="name:cs" v="Kyjev"/>
    <tag k="name:de" v="Kiew"/>
    <tag k="name:el" v="Κίεβο"/>
    <tag k="name:en" v="Kyiv"/>
    <tag k="name:es" v="Kiev"/>
    <tag k="name:fa" v="کیف"/>
    <tag k="name:fi" v="Kiova"/>
    <tag k="name:fr" v="Kiev"/>
    <tag k="name:he" v="קייב"/>
    <tag k="name:hr" v="Kijev"/>
    <tag k="name:hu" v="Kijev"/>
    <tag k="name:is" v="Kíev"/>
    <tag k="name:lv" v="Kijeva"/>
    <tag k="name:nl" v="Kiev"/>
    <tag k="name:no" v="Kiev"/>
    <tag k="name:pl" v="Kijów"/>
    <tag k="name:ru" v="Киев"/>
    <tag k="name:sk" v="Kyjev"/>
    <tag k="name:sl" v="Kijev"/>
    <tag k="name:sv" v="Kiev"/>
    <tag k="name:uk" v="Київ"/>
    <tag k="place" v="city"/>
    <tag k="population" v="2819566"/>
    <tag k="wikipedia" v="Kiev"/>
  </node>
  <node id="26150422" version="29" timestamp="2010-03-08T11:52:12Z" uid="221997" user="EuskalMapa" changeset="4070979" lat="50.4499799" lon="30.5235008">
    <tag k="alt_name:en" v="Kiev"/>
    <tag k="capital" v="yes"/>
    <tag k="int_name" v="Kyiv"/>
    <tag k="name" v="Київ"/>
    <tag k="name:ar" v="كييف"/>
    <tag k="name:cs" v="Kyjev"/>
    <tag k="name:de" v="Kiew"/>
    <tag k="name:el" v="Κίεβο"/>
    <tag k="name:en" v="Kyiv"/>
    <tag k="name:es" v="Kiev"/>
    <tag k="name:eu" v="Kiev"/>
    <tag k="name:fa" v="کیف"/>
    <tag k="name:fi" v="Kiova"/>
    <tag k="name:fr" v="Kiev"/>
    <tag k="name:he" v="קייב"/>
    <tag k="name:hr" v="Kijev"/>
    <tag k="name:hu" v="Kijev"/>
    <tag k="name:is" v="Kíev"/>
    <tag k="name:lv" v="Kijeva"/>
    <tag k="name:nl" v="Kiev"/>
    <tag k="name:no" v="Kiev"/>
    <tag k="name:pl" v="Kijów"/>
    <tag k="name:ru" v="Киев"/>
    <tag k="name:sk" v="Kyjev"/>
    <tag k="name:sl" v="Kijev"/>
    <tag k="name:sv" v="Kiev"/>
    <tag k="name:uk" v="Київ"/>
    <tag k="place" v="city"/>
    <tag k="population" v="2819566"/>
    <tag k="wikipedia" v="Kiev"/>
  </node>
  <node id="26150422" version="30" timestamp="2010-07-14T09:32:05Z" uid="314684" user="krattbot" changeset="5215291" lat="50.4499799" lon="30.5235008">
    <tag k="alt_name:en" v="Kiev"/>
    <tag k="capital" v="yes"/>
    <tag k="int_name" v="Kyiv"/>
    <tag k="name" v="Київ"/>
    <tag k="name:ar" v="كييف"/>
    <tag k="name:cs" v="Kyjev"/>
    <tag k="name:de" v="Kiew"/>
    <tag k="name:el" v="Κίεβο"/>
    <tag k="name:en" v="Kyiv"/>
    <tag k="name:es" v="Kiev"/>
    <tag k="name:et" v="Kiiev"/>
    <tag k="name:eu" v="Kiev"/>
    <tag k="name:fa" v="کیف"/>
    <tag k="name:fi" v="Kiova"/>
    <tag k="name:fr" v="Kiev"/>
    <tag k="name:he" v="קייב"/>
    <tag k="name:hr" v="Kijev"/>
    <tag k="name:hu" v="Kijev"/>
    <tag k="name:is" v="Kíev"/>
    <tag k="name:lv" v="Kijeva"/>
    <tag k="name:nl" v="Kiev"/>
    <tag k="name:no" v="Kiev"/>
    <tag k="name:pl" v="Kijów"/>
    <tag k="name:ru" v="Киев"/>
    <tag k="name:sk" v="Kyjev"/>
    <tag k="name:sl" v="Kijev"/>
    <tag k="name:sv" v="Kiev"/>
    <tag k="name:uk" v="Київ"/>
    <tag k="place" v="city"/>
    <tag k="population" v="2819566"/>
    <tag k="wikipedia" v="Kiev"/>
  </node>
  <node id="26150422" version="31" timestamp="2010-11-25T17:40:24Z" uid="29320" user="Komяpa" changeset="6456211" lat="50.4499799" lon="30.5235008">
    <tag k="admin_level" v="2"/>
    <tag k="alt_name:en" v="Kiev"/>
    <tag k="capital" v="yes"/>
    <tag k="int_name" v="Kyiv"/>
    <tag k="name" v="Київ"/>
    <tag k="name:ar" v="كييف"/>
    <tag k="name:cs" v="Kyjev"/>
    <tag k="name:de" v="Kiew"/>
    <tag k="name:el" v="Κίεβο"/>
    <tag k="name:en" v="Kyiv"/>
    <tag k="name:es" v="Kiev"/>
    <tag k="name:et" v="Kiiev"/>
    <tag k="name:eu" v="Kiev"/>
    <tag k="name:fa" v="کیف"/>
    <tag k="name:fi" v="Kiova"/>
    <tag k="name:fr" v="Kiev"/>
    <tag k="name:he" v="קייב"/>
    <tag k="name:hr" v="Kijev"/>
    <tag k="name:hu" v="Kijev"/>
    <tag k="name:is" v="Kíev"/>
    <tag k="name:lv" v="Kijeva"/>
    <tag k="name:nl" v="Kiev"/>
    <tag k="name:no" v="Kiev"/>
    <tag k="name:pl" v="Kijów"/>
    <tag k="name:ru" v="Киев"/>
    <tag k="name:sk" v="Kyjev"/>
    <tag k="name:sl" v="Kijev"/>
    <tag k="name:sv" v="Kiev"/>
    <tag k="name:uk" v="Київ"/>
    <tag k="place" v="city"/>
    <tag k="population" v="2819566"/>
    <tag k="wikipedia" v="Kiev"/>
  </node>
  <node id="26150422" version="32" timestamp="2011-02-02T11:00:31Z" uid="393666" user="etrumap" changeset="7163465" lat="50.4499799" lon="30.5235008">
    <tag k="admin_level" v="2"/>
    <tag k="alt_name:en" v="Kiev"/>
    <tag k="capital" v="yes"/>
    <tag k="int_name" v="Kyiv"/>
    <tag k="name" v="Київ"/>
    <tag k="name:ar" v="كييف"/>
    <tag k="name:cs" v="Kyjev"/>
    <tag k="name:de" v="Kiew"/>
    <tag k="name:el" v="Κίεβο"/>
    <tag k="name:en" v="Kyiv"/>
    <tag k="name:es" v="Kiev"/>
    <tag k="name:et" v="Kiiev"/>
    <tag k="name:eu" v="Kiev"/>
    <tag k="name:fa" v="کیف"/>
    <tag k="name:fi" v="Kiova"/>
    <tag k="name:fr" v="Kiev"/>
    <tag k="name:he" v="קייב"/>
    <tag k="name:hr" v="Kijev"/>
    <tag k="name:hu" v="Kijev"/>
    <tag k="name:is" v="Kíev"/>
    <tag k="name:lv" v="Kijeva"/>
    <tag k="name:nl" v="Kiev"/>
    <tag k="name:no" v="Kiev"/>
    <tag k="name:pl" v="Kijów"/>
    <tag k="name:ru" v="Киев"/>
    <tag k="name:sk" v="Kyjev"/>
    <tag k="name:sl" v="Kijev"/>
    <tag k="name:sv" v="Kiev"/>
    <tag k="name:uk" v="Київ"/>
    <tag k="place" v="city"/>
    <tag k="population" v="2819566"/>
    <tag k="rank" v="10"/>
    <tag k="wikipedia" v="Kiev"/>
  </node>
  <node id="26150422" version="33" timestamp="2011-04-06T16:55:37Z" uid="7045" user="Xuacu" changeset="7786794" lat="50.4499799" lon="30.5235008">
    <tag k="admin_level" v="2"/>
    <tag k="alt_name:en" v="Kiev"/>
    <tag k="capital" v="yes"/>
    <tag k="int_name" v="Kyiv"/>
    <tag k="name" v="Київ"/>
    <tag k="name:ar" v="كييف"/>
    <tag k="name:ast" v="Kiev"/>
    <tag k="name:cs" v="Kyjev"/>
    <tag k="name:de" v="Kiew"/>
    <tag k="name:el" v="Κίεβο"/>
    <tag k="name:en" v="Kyiv"/>
    <tag k="name:es" v="Kiev"/>
    <tag k="name:et" v="Kiiev"/>
    <tag k="name:eu" v="Kiev"/>
    <tag k="name:fa" v="کیف"/>
    <tag k="name:fi" v="Kiova"/>
    <tag k="name:fr" v="Kiev"/>
    <tag k="name:he" v="קייב"/>
    <tag k="name:hr" v="Kijev"/>
    <tag k="name:hu" v="Kijev"/>
    <tag k="name:is" v="Kíev"/>
    <tag k="name:lv" v="Kijeva"/>
    <tag k="name:nl" v="Kiev"/>
    <tag k="name:no" v="Kiev"/>
    <tag k="name:pl" v="Kijów"/>
    <tag k="name:ru" v="Киев"/>
    <tag k="name:sk" v="Kyjev"/>
    <tag k="name:sl" v="Kijev"/>
    <tag k="name:sv" v="Kiev"/>
    <tag k="name:uk" v="Київ"/>
    <tag k="place" v="city"/>
    <tag k="population" v="2819566"/>
    <tag k="rank" v="10"/>
    <tag k="wikipedia" v="Kiev"/>
  </node>
  <node id="26150422" version="34" timestamp="2011-05-15T11:28:17Z" uid="93026" user="mpele" changeset="8150606" lat="50.4499799" lon="30.5235008">
    <tag k="admin_level" v="2"/>
    <tag k="alt_name:en" v="Kiev"/>
    <tag k="capital" v="yes"/>
    <tag k="int_name" v="Kyiv"/>
    <tag k="name" v="Київ"/>
    <tag k="name:ar" v="كييف"/>
    <tag k="name:ast" v="Kiev"/>
    <tag k="name:cs" v="Kyjev"/>
    <tag k="name:de" v="Kiew"/>
    <tag k="name:el" v="Κίεβο"/>
    <tag k="name:en" v="Kyiv"/>
    <tag k="name:es" v="Kiev"/>
    <tag k="name:et" v="Kiiev"/>
    <tag k="name:eu" v="Kiev"/>
    <tag k="name:fa" v="کیف"/>
    <tag k="name:fi" v="Kiova"/>
    <tag k="name:fr" v="Kiev"/>
    <tag k="name:he" v="קייב"/>
    <tag k="name:hr" v="Kijev"/>
    <tag k="name:hu" v="Kijev"/>
    <tag k="name:is" v="Kíev"/>
    <tag k="name:lv" v="Kijeva"/>
    <tag k="name:nl" v="Kiev"/>
    <tag k="name:no" v="Kiev"/>
    <tag k="name:pl" v="Kijów"/>
    <tag k="name:ru" v="Киев"/>
    <tag k="name:sk" v="Kyjev"/>
    <tag k="name:sl" v="Kijev"/>
    <tag k="name:sr" v="Кијев"/>
    <tag k="name:sv" v="Kiev"/>
    <tag k="name:uk" v="Київ"/>
    <tag k="place" v="city"/>
    <tag k="population" v="2819566"/>
    <tag k="rank" v="10"/>
    <tag k="wikipedia" v="Kiev"/>
  </node>
  <node id="26150422" version="35" timestamp="2011-09-08T11:18:06Z" uid="356014" user="_sev" changeset="9244709" lat="50.4499799" lon="30.5235008">
    <tag k="admin_level" v="2"/>
    <tag k="alt_name:en" v="Kiev"/>
    <tag k="capital" v="yes"/>
    <tag k="name" v="Київ"/>
    <tag k="name:ar" v="كييف"/>
    <tag k="name:ast" v="Kiev"/>
    <tag k="name:cs" v="Kyjev"/>
    <tag k="name:de" v="Kiew"/>
    <tag k="name:el" v="Κίεβο"/>
    <tag k="name:en" v="Kyiv"/>
    <tag k="name:es" v="Kiev"/>
    <tag k="name:et" v="Kiiev"/>
    <tag k="name:eu" v="Kiev"/>
    <tag k="name:fa" v="کیف"/>
    <tag k="name:fi" v="Kiova"/>
    <tag k="name:fr" v="Kiev"/>
    <tag k="name:he" v="קייב"/>
    <tag k="name:hr" v="Kijev"/>
    <tag k="name:hu" v="Kijev"/>
    <tag k="name:is" v="Kíev"/>
    <tag k="name:lv" v="Kijeva"/>
    <tag k="name:nl" v="Kiev"/>
    <tag k="name:no" v="Kiev"/>
    <tag k="name:pl" v="Kijów"/>
    <tag k="name:ru" v="Киев"/>
    <tag k="name:sk" v="Kyjev"/>
    <tag k="name:sl" v="Kijev"/>
    <tag k="name:sr" v="Кијев"/>
    <tag k="name:sv" v="Kiev"/>
    <tag k="name:uk" v="Київ"/>
    <tag k="place" v="city"/>
    <tag k="population" v="2819566"/>
    <tag k="rank" v="10"/>
    <tag k="wikipedia" v="Kiev"/>
  </node>
  <node id="26150422" version="36" timestamp="2011-09-14T15:48:02Z" uid="356014" user="_sev" changeset="9300554" lat="50.4499799" lon="30.5235008">
    <tag k="alt_name:en" v="Kiev"/>
    <tag k="capital" v="yes"/>
    <tag k="name" v="Київ"/>
    <tag k="name:ar" v="كييف"/>
    <tag k="name:ast" v="Kiev"/>
    <tag k="name:cs" v="Kyjev"/>
    <tag k="name:de" v="Kiew"/>
    <tag k="name:el" v="Κίεβο"/>
    <tag k="name:en" v="Kyiv"/>
    <tag k="name:es" v="Kiev"/>
    <tag k="name:et" v="Kiiev"/>
    <tag k="name:eu" v="Kiev"/>
    <tag k="name:fa" v="کیف"/>
    <tag k="name:fi" v="Kiova"/>
    <tag k="name:fr" v="Kiev"/>
    <tag k="name:he" v="קייב"/>
    <tag k="name:hr" v="Kijev"/>
    <tag k="name:hu" v="Kijev"/>
    <tag k="name:is" v="Kíev"/>
    <tag k="name:lv" v="Kijeva"/>
    <tag k="name:nl" v="Kiev"/>
    <tag k="name:no" v="Kiev"/>
    <tag k="name:pl" v="Kijów"/>
    <tag k="name:ru" v="Киев"/>
    <tag k="name:sk" v="Kyjev"/>
    <tag k="name:sl" v="Kijev"/>
    <tag k="name:sr" v="Кијев"/>
    <tag k="name:sv" v="Kiev"/>
    <tag k="name:uk" v="Київ"/>
    <tag k="place" v="city"/>
    <tag k="population" v="2819566"/>
    <tag k="rank" v="10"/>
    <tag k="wikipedia" v="Kiev"/>
  </node>
  <node id="26150422" version="37" timestamp="2011-11-02T17:26:45Z" uid="24126" user="dforsi" changeset="9723934" lat="50.4499799" lon="30.5235008">
    <tag k="alt_name:en" v="Kiev"/>
    <tag k="capital" v="yes"/>
    <tag k="name" v="Київ"/>
    <tag k="name:ar" v="كييف"/>
    <tag k="name:ast" v="Kiev"/>
    <tag k="name:cs" v="Kyjev"/>
    <tag k="name:de" v="Kiew"/>
    <tag k="name:el" v="Κίεβο"/>
    <tag k="name:en" v="Kyiv"/>
    <tag k="name:es" v="Kiev"/>
    <tag k="name:et" v="Kiiev"/>
    <tag k="name:eu" v="Kiev"/>
    <tag k="name:fa" v="کیف"/>
    <tag k="name:fi" v="Kiova"/>
    <tag k="name:fr" v="Kiev"/>
    <tag k="name:he" v="קייב"/>
    <tag k="name:hr" v="Kijev"/>
    <tag k="name:hu" v="Kijev"/>
    <tag k="name:is" v="Kíev"/>
    <tag k="name:it" v="Kiev"/>
    <tag k="name:lv" v="Kijeva"/>
    <tag k="name:nl" v="Kiev"/>
    <tag k="name:no" v="Kiev"/>
    <tag k="name:pl" v="Kijów"/>
    <tag k="name:ru" v="Киев"/>
    <tag k="name:sk" v="Kyjev"/>
    <tag k="name:sl" v="Kijev"/>
    <tag k="name:sr" v="Кијев"/>
    <tag k="name:sv" v="Kiev"/>
    <tag k="name:uk" v="Київ"/>
    <tag k="place" v="city"/>
    <tag k="population" v="2819566"/>
    <tag k="rank" v="10"/>
    <tag k="wikipedia" v="Kiev"/>
  </node>
  <node id="26150422" version="38" timestamp="2011-12-21T16:03:40Z" uid="29320" user="Komяpa" changeset="10172443" lat="50.4499799" lon="30.5235008">
    <tag k="alt_name:en" v="Kiev"/>
    <tag k="capital" v="yes"/>
    <tag k="name" v="Київ"/>
    <tag k="name:ar" v="كييف"/>
    <tag k="name:ast" v="Kiev"/>
    <tag k="name:be" v="Кіеў"/>
    <tag k="name:cs" v="Kyjev"/>
    <tag k="name:de" v="Kiew"/>
    <tag k="name:el" v="Κίεβο"/>
    <tag k="name:en" v="Kyiv"/>
    <tag k="name:es" v="Kiev"/>
    <tag k="name:et" v="Kiiev"/>
    <tag k="name:eu" v="Kiev"/>
    <tag k="name:fa" v="کیف"/>
    <tag k="name:fi" v="Kiova"/>
    <tag k="name:fr" v="Kiev"/>
    <tag k="name:he" v="קייב"/>
    <tag k="name:hr" v="Kijev"/>
    <tag k="name:hu" v="Kijev"/>
    <tag k="name:is" v="Kíev"/>
    <tag k="name:it" v="Kiev"/>
    <tag k="name:lv" v="Kijeva"/>
    <tag k="name:nl" v="Kiev"/>
    <tag k="name:no" v="Kiev"/>
    <tag k="name:pl" v="Kijów"/>
    <tag k="name:ru" v="Киев"/>
    <tag k="name:sk" v="Kyjev"/>
    <tag k="name:sl" v="Kijev"/>
    <tag k="name:sr" v="Кијев"/>
    <tag k="name:sv" v="Kiev"/>
    <tag k="name:uk" v="Київ"/>
    <tag k="place" v="city"/>
    <tag k="population" v="2819566"/>
    <tag k="rank" v="10"/>
    <tag k="wikipedia" v="Kiev"/>
  </node>
  <node id="26150422" version="39" timestamp="2012-01-25T20:01:17Z" uid="440812" user="dudka" changeset="10496981" lat="50.4499875" lon="30.5234937">
    <tag k="alt_name:en" v="Kiev"/>
    <tag k="capital" v="yes"/>
    <tag k="name" v="Київ"/>
    <tag k="name:ar" v="كييف"/>
    <tag k="name:ast" v="Kiev"/>
    <tag k="name:be" v="Кіеў"/>
    <tag k="name:cs" v="Kyjev"/>
    <tag k="name:de" v="Kiew"/>
    <tag k="name:el" v="Κίεβο"/>
    <tag k="name:en" v="Kyiv"/>
    <tag k="name:es" v="Kiev"/>
    <tag k="name:et" v="Kiiev"/>
    <tag k="name:eu" v="Kiev"/>
    <tag k="name:fa" v="کیف"/>
    <tag k="name:fi" v="Kiova"/>
    <tag k="name:fr" v="Kiev"/>
    <tag k="name:he" v="קייב"/>
    <tag k="name:hr" v="Kijev"/>
    <tag k="name:hu" v="Kijev"/>
    <tag k="name:is" v="Kíev"/>
    <tag k="name:it" v="Kiev"/>
    <tag k="name:lv" v="Kijeva"/>
    <tag k="name:nl" v="Kiev"/>
    <tag k="name:no" v="Kiev"/>
    <tag k="name:pl" v="Kijów"/>
    <tag k="name:ru" v="Киев"/>
    <tag k="name:sk" v="Kyjev"/>
    <tag k="name:sl" v="Kijev"/>
    <tag k="name:sr" v="Кијев"/>
    <tag k="name:sv" v="Kiev"/>
    <tag k="name:uk" v="Київ"/>
    <tag k="place" v="city"/>
    <tag k="population" v="2819566"/>
    <tag k="rank" v="10"/>
    <tag k="wikipedia" v="Kiev"/>
  </node>
  <node id="26151762" version="1" timestamp="2007-03-13T19:18:00Z" uid="5871" user="Banny" changeset="235475" lat="50.973805" lon="7.5275743">
    <tag k="created_by" v="JOSM"/>
  </node>
  <node id="26151762" version="2" timestamp="2012-01-09T01:46:35Z" uid="6390" user="grenzdebil_bonn" changeset="10338555" lat="50.973805" lon="7.5275743"/>
  <node id="26151763" version="1" timestamp="2007-02-25T12:23:25Z" uid="5871" user="Banny" changeset="224018" lat="50.9739345" lon="7.5273124">
    <tag k="created_by" v="JOSM"/>
  </node>
  <node id="26151763" version="2" timestamp="2012-01-03T13:18:10Z" uid="53152" user="Nils2501" changeset="10281149" lat="50.9738269" lon="7.5272521"/>
  <node id="26151763" version="3" timestamp="2012-01-09T01:46:35Z" uid="6390" user="grenzdebil_bonn" changeset="10338555" lat="50.9738269" lon="7.5272521"/>
  <node id="26151764" version="1" timestamp="2007-02-25T12:23:25Z" uid="5871" user="Banny" changeset="224018" lat="50.974664" lon="7.5286687">
    <tag k="created_by" v="JOSM"/>
  </node>
  <node id="26151764" version="2" timestamp="2012-01-09T01:46:35Z" uid="6390" user="grenzdebil_bonn" changeset="10338555" lat="50.974664" lon="7.5286687"/>
  <node id="26151765" version="1" timestamp="2007-02-25T12:23:25Z" uid="5871" user="Banny" changeset="224018" lat="50.9748167" lon="7.5285043">
    <tag k="created_by" v="JOSM"/>
  </node>
  <node id="26151765" version="2" timestamp="2012-01-09T01:46:35Z" uid="6390" user="grenzdebil_bonn" changeset="10338555" lat="50.9748167" lon="7.5285043"/>
  <node id="26151766" version="1" timestamp="2007-02-25T12:23:25Z" uid="5871" user="Banny" changeset="224018" lat="50.975392" lon="7.5297843">
    <tag k="created_by" v="JOSM"/>
  </node>
  <node id="26151766" version="2" timestamp="2012-01-09T01:46:35Z" uid="6390" user="grenzdebil_bonn" changeset="10338555" lat="50.975392" lon="7.5297843"/>
  <node id="26151767" version="1" timestamp="2007-02-25T12:23:25Z" uid="5871" user="Banny" changeset="224018" lat="50.9755917" lon="7.5296903">
    <tag k="created_by" v="JOSM"/>
  </node>
  <node id="26151767" version="2" timestamp="2012-01-03T13:18:10Z" uid="53152" user="Nils2501" changeset="10281149" lat="50.9755601" lon="7.5297406"/>
  <node id="26151767" version="3" timestamp="2012-01-09T01:46:19Z" uid="6390" user="grenzdebil_bonn" changeset="10338555" lat="50.9753981" lon="7.5295728"/>
  <node id="26151768" version="1" timestamp="2007-02-25T12:23:26Z" uid="5871" user="Banny" changeset="224018" lat="50.9759674" lon="7.5310994">
    <tag k="created_by" v="JOSM"/>
  </node>
  <node id="26151768" version="2" timestamp="2012-01-09T01:46:35Z" uid="6390" user="grenzdebil_bonn" changeset="10338555" lat="50.9759674" lon="7.5310994"/>
  <node id="26151769" version="1" timestamp="2007-02-25T12:23:26Z" uid="5871" user="Banny" changeset="224018" lat="50.9761788" lon="7.531029">
    <tag k="created_by" v="JOSM"/>
  </node>
  <node id="26151769" version="2" timestamp="2012-01-03T13:18:10Z" uid="53152" user="Nils2501" changeset="10281149" lat="50.9761345" lon="7.5310994"/>
  <node id="26151769" version="3" timestamp="2012-01-09T01:46:20Z" uid="6390" user="grenzdebil_bonn" changeset="10338555" lat="50.975902" lon="7.5305959"/>
  <node id="26151770" version="1" timestamp="2007-02-25T12:23:26Z" uid="5871" user="Banny" changeset="224018" lat="50.9762727" lon="7.5326964">
    <tag k="created_by" v="JOSM"/>
  </node>
  <node id="26151770" version="2" timestamp="2012-01-03T13:18:10Z" uid="53152" user="Nils2501" changeset="10281149" lat="50.976336" lon="7.5326361"/>
  <node id="26151771" version="1" timestamp="2007-02-25T12:23:26Z" uid="5871" user="Banny" changeset="224018" lat="50.9765076" lon="7.5326612">
    <tag k="created_by" v="JOSM"/>
  </node>
  <node id="26151771" version="2" timestamp="2012-01-03T13:18:10Z" uid="53152" user="Nils2501" changeset="10281149" lat="50.9764475" lon="7.5326612"/>
  <node id="26151772" version="1" timestamp="2007-02-25T12:23:26Z" uid="5871" user="Banny" changeset="224018" lat="50.9763197" lon="7.5341995">
    <tag k="created_by" v="JOSM"/>
  </node>
  <node id="26151772" version="2" timestamp="2012-01-03T13:18:10Z" uid="53152" user="Nils2501" changeset="10281149" lat="50.9763735" lon="7.5341191"/>
  <node id="26151773" version="1" timestamp="2007-02-25T12:23:26Z" uid="5871" user="Banny" changeset="224018" lat="50.9765311" lon="7.5341995">
    <tag k="created_by" v="JOSM"/>
  </node>
  <node id="26151773" version="2" timestamp="2012-01-03T13:18:10Z" uid="53152" user="Nils2501" changeset="10281149" lat="50.976452" lon="7.53429"/>
  <node id="26151774" version="1" timestamp="2007-02-25T12:23:26Z" uid="5871" user="Banny" changeset="224018" lat="50.9761083" lon="7.5357025">
    <tag k="created_by" v="JOSM"/>
  </node>
  <node id="26151774" version="2" timestamp="2012-01-03T13:18:10Z" uid="53152" user="Nils2501" changeset="10281149" lat="50.9761843" lon="7.5356422"/>
  <node id="26151775" version="1" timestamp="2007-02-25T12:23:26Z" uid="5871" user="Banny" changeset="224018" lat="50.9763667" lon="7.5357495">
    <tag k="created_by" v="JOSM"/>
  </node>
  <node id="26151775" version="2" timestamp="2012-01-03T13:18:11Z" uid="53152" user="Nils2501" changeset="10281149" lat="50.9762844" lon="7.5356741"/>
  <node id="26151776" version="1" timestamp="2007-07-04T17:30:39Z" uid="5871" user="Banny" changeset="126514" lat="50.9760365" lon="7.5374091">
    <tag k="created_by" v="JOSM"/>
  </node>
  <node id="26151776" version="2" timestamp="2008-03-08T16:08:15Z" uid="5871" user="Banny" changeset="286573" lat="50.9760365" lon="7.5374091">
    <tag k="created_by" v="JOSM"/>
    <tag k="highway" v="traffic_signals"/>
  </node>
  <node id="26151776" version="3" timestamp="2008-05-31T06:24:09Z" uid="29203" user="dc6iq" changeset="558127" lat="50.9760452" lon="7.5373588">
    <tag k="created_by" v="JOSM"/>
    <tag k="highway" v="traffic_signals"/>
  </node>
  <node id="26151776" version="4" timestamp="2008-11-23T22:06:06Z" uid="16478" user="Raymond" changeset="784541" lat="50.9760369" lon="7.5374052">
    <tag k="created_by" v="JOSM"/>
    <tag k="highway" v="traffic_signals"/>
  </node>
  <node id="26151776" version="5" timestamp="2012-01-03T13:18:11Z" uid="53152" user="Nils2501" changeset="10281149" lat="50.9759787" lon="7.5373057">
    <tag k="highway" v="traffic_signals"/>
  </node>
  <node id="26151776" version="6" timestamp="2012-01-09T01:46:20Z" uid="6390" user="grenzdebil_bonn" changeset="10338555" lat="50.9759687" lon="7.537365">
    <tag k="highway" v="traffic_signals"/>
  </node>
  <node id="26151777" version="1" timestamp="2007-07-04T17:30:39Z" uid="5871" user="Banny" changeset="126514" lat="50.975826" lon="7.5373554">
    <tag k="created_by" v="JOSM"/>
  </node>
  <node id="26151777" version="2" timestamp="2008-03-08T16:08:15Z" uid="5871" user="Banny" changeset="286573" lat="50.975826" lon="7.5373554">
    <tag k="created_by" v="JOSM"/>
    <tag k="highway" v="traffic_signals"/>
  </node>
  <node id="26151777" version="3" timestamp="2008-05-31T06:24:29Z" uid="29203" user="dc6iq" changeset="558127" lat="50.9758399" lon="7.5372987">
    <tag k="created_by" v="JOSM"/>
    <tag k="highway" v="traffic_signals"/>
  </node>
  <node id="26151777" version="4" timestamp="2012-01-03T13:18:11Z" uid="53152" user="Nils2501" changeset="10281149" lat="50.9758712" lon="7.5372987">
    <tag k="highway" v="traffic_signals"/>
  </node>
  <node id="26151778" version="1" timestamp="2007-08-22T12:09:08Z" uid="5871" user="Banny" changeset="242895" lat="50.9758551" lon="7.5391314">
    <tag k="created_by" v="JOSM"/>
  </node>
  <node id="26151778" version="2" timestamp="2012-01-03T13:18:11Z" uid="53152" user="Nils2501" changeset="10281149" lat="50.9757791" lon="7.53886"/>
  <node id="26151778" version="3" timestamp="2012-01-09T01:46:20Z" uid="6390" user="grenzdebil_bonn" changeset="10338555" lat="50.9757791" lon="7.5391092"/>
  <node id="26151779" version="1" timestamp="2007-08-22T12:09:08Z" uid="5871" user="Banny" changeset="242895" lat="50.9756733" lon="7.5391906">
    <tag k="created_by" v="JOSM"/>
  </node>
  <node id="26151779" version="2" timestamp="2012-01-03T13:18:11Z" uid="53152" user="Nils2501" changeset="10281149" lat="50.9757018" lon="7.5390951"/>
  <node id="26151781" version="1" timestamp="2007-02-25T12:23:27Z" uid="5871" user="Banny" changeset="224018" lat="50.9759717" lon="7.5409387">
    <tag k="created_by" v="JOSM"/>
  </node>
  <node id="26151781" version="2" timestamp="2012-01-03T13:18:15Z" uid="53152" user="Nils2501" changeset="10281149" lat="50.9759717" lon="7.5409387"/>
  <node id="26151782" version="1" timestamp="2007-08-22T12:09:07Z" uid="5871" user="Banny" changeset="242895" lat="50.975813" lon="7.5410965">
    <tag k="created_by" v="JOSM"/>
  </node>
  <node id="26151782" version="2" timestamp="2012-01-03T13:18:11Z" uid="53152" user="Nils2501" changeset="10281149" lat="50.9758984" lon="7.5411367"/>
  <node id="26151783" version="1" timestamp="2007-02-25T12:23:27Z" uid="5871" user="Banny" changeset="224018" lat="50.9764389" lon="7.5422808">
    <tag k="created_by" v="JOSM"/>
  </node>
  <node id="26151783" version="2" timestamp="2009-05-13T04:19:29Z" uid="61341" user="Bürste" changeset="1171094" lat="50.9763338" lon="7.5423004">
    <tag k="created_by" v="JOSM"/>
  </node>
  <node id="26151783" version="3" timestamp="2012-01-03T13:18:11Z" uid="53152" user="Nils2501" changeset="10281149" lat="50.9763686" lon="7.5422099"/>
  <node id="26151784" version="1" timestamp="2007-02-25T12:23:27Z" uid="5871" user="Banny" changeset="224018" lat="50.976252" lon="7.5423827">
    <tag k="created_by" v="JOSM"/>
  </node>
  <node id="26151784" version="2" timestamp="2012-01-03T13:18:11Z" uid="53152" user="Nils2501" changeset="10281149" lat="50.9762931" lon="7.5423475"/>
  <node id="26151785" version="1" timestamp="2007-02-25T12:23:27Z" uid="5871" user="Banny" changeset="224018" lat="50.9771466" lon="7.5433688">
    <tag k="created_by" v="JOSM"/>
  </node>
  <node id="26151785" version="2" timestamp="2009-05-13T04:19:29Z" uid="61341" user="Bürste" changeset="1171094" lat="50.9770476" lon="7.5434179">
    <tag k="created_by" v="JOSM"/>
  </node>
  <node id="26151785" version="3" timestamp="2012-01-03T13:18:11Z" uid="53152" user="Nils2501" changeset="10281149" lat="50.9770476" lon="7.5433224"/>
  <node id="26151786" version="1" timestamp="2007-02-25T12:23:27Z" uid="5871" user="Banny" changeset="224018" lat="50.9769832" lon="7.5435688">
    <tag k="created_by" v="JOSM"/>
  </node>
  <node id="26151786" version="2" timestamp="2012-01-03T13:18:11Z" uid="53152" user="Nils2501" changeset="10281149" lat="50.9770275" lon="7.5435386"/>
  <node id="26151787" version="1" timestamp="2007-02-25T12:23:28Z" uid="5871" user="Banny" changeset="224018" lat="50.9783507" lon="7.5441489">
    <tag k="created_by" v="JOSM"/>
  </node>
  <node id="26151787" version="2" timestamp="2009-05-13T04:19:29Z" uid="61341" user="Bürste" changeset="1171094" lat="50.9782765" lon="7.544257">
    <tag k="created_by" v="JOSM"/>
  </node>
  <node id="26151787" version="3" timestamp="2012-01-03T13:18:11Z" uid="53152" user="Nils2501" changeset="10281149" lat="50.978267" lon="7.5441364"/>
  <node id="26151788" version="1" timestamp="2007-02-25T12:23:28Z" uid="5871" user="Banny" changeset="224018" lat="50.9782647" lon="7.5443972">
    <tag k="created_by" v="JOSM"/>
  </node>
  <node id="26151789" version="1" timestamp="2007-02-25T12:23:28Z" uid="5871" user="Banny" changeset="224018" lat="50.9790947" lon="7.5441625">
    <tag k="created_by" v="JOSM"/>
  </node>
  <node id="26151789" version="2" timestamp="2009-05-13T04:19:29Z" uid="61341" user="Bürste" changeset="1171094" lat="50.9791194" lon="7.5443">
    <tag k="created_by" v="JOSM"/>
  </node>
  <node id="26151789" version="3" timestamp="2012-01-03T13:18:12Z" uid="53152" user="Nils2501" changeset="10281149" lat="50.9791257" lon="7.5442146"/>
  <node id="26151790" version="1" timestamp="2007-02-25T12:23:28Z" uid="5871" user="Banny" changeset="224018" lat="50.9791353" lon="7.5444601">
    <tag k="created_by" v="JOSM"/>
  </node>
  <node id="26151791" version="1" timestamp="2007-02-25T12:23:28Z" uid="5871" user="Banny" changeset="224018" lat="50.9798252" lon="7.5439696">
    <tag k="created_by" v="JOSM"/>
  </node>
  <node id="26151791" version="2" timestamp="2009-05-13T04:19:29Z" uid="61341" user="Bürste" changeset="1171094" lat="50.9799242" lon="7.5440777">
    <tag k="created_by" v="JOSM"/>
  </node>
  <node id="26151791" version="3" timestamp="2012-01-03T13:18:12Z" uid="53152" user="Nils2501" changeset="10281149" lat="50.9799179" lon="7.543952"/>
  <node id="26151792" version="1" timestamp="2007-02-25T12:23:28Z" uid="5871" user="Banny" changeset="224018" lat="50.9799832" lon="7.544217">
    <tag k="created_by" v="JOSM"/>
  </node>
  <node id="26151793" version="1" timestamp="2007-02-25T12:23:28Z" uid="5871" user="Banny" changeset="224018" lat="50.9806935" lon="7.5436039">
    <tag k="created_by" v="JOSM"/>
  </node>
  <node id="26151793" version="2" timestamp="2009-05-13T04:19:29Z" uid="61341" user="Bürste" changeset="1171094" lat="50.9807244" lon="7.5436923">
    <tag k="created_by" v="JOSM"/>
  </node>
  <node id="26151794" version="1" timestamp="2007-02-25T12:23:28Z" uid="5871" user="Banny" changeset="224018" lat="50.9807298" lon="7.5438644">
    <tag k="created_by" v="JOSM"/>
  </node>
  <node id="26151794" version="2" timestamp="2012-01-03T13:18:12Z" uid="53152" user="Nils2501" changeset="10281149" lat="50.980733" lon="7.5438946"/>
  <node id="26151795" version="1" timestamp="2007-02-25T12:23:28Z" uid="5871" user="Banny" changeset="224018" lat="50.9817644" lon="7.5436659">
    <tag k="created_by" v="JOSM"/>
  </node>
  <node id="26151795" version="2" timestamp="2009-05-13T04:19:29Z" uid="61341" user="Bürste" changeset="1171094" lat="50.9816593" lon="7.543715">
    <tag k="created_by" v="JOSM"/>
  </node>
  <node id="26151796" version="1" timestamp="2007-02-25T12:23:29Z" uid="5871" user="Banny" changeset="224018" lat="50.9816374" lon="7.5438915">
    <tag k="created_by" v="JOSM"/>
  </node>
  <node id="26151797" version="1" timestamp="2007-02-25T12:23:29Z" uid="5871" user="Banny" changeset="224018" lat="50.9828283" lon="7.5443248">
    <tag k="created_by" v="JOSM"/>
  </node>
  <node id="26151797" version="2" timestamp="2012-01-03T13:18:12Z" uid="53152" user="Nils2501" changeset="10281149" lat="50.9827429" lon="7.544355"/>
  <node id="26151798" version="1" timestamp="2007-02-25T12:23:29Z" uid="5871" user="Banny" changeset="224018" lat="50.982666" lon="7.5444871">
    <tag k="created_by" v="JOSM"/>
  </node>
  <node id="26151799" version="1" timestamp="2007-02-25T12:23:29Z" uid="5871" user="Banny" changeset="224018" lat="50.9837887" lon="7.5456775">
    <tag k="created_by" v="JOSM"/>
  </node>
  <node id="26151800" version="1" timestamp="2007-02-25T12:23:29Z" uid="5871" user="Banny" changeset="224018" lat="50.9835993" lon="7.5458128">
    <tag k="created_by" v="JOSM"/>
  </node>
  <node id="26151800" version="2" timestamp="2008-08-01T11:21:46Z" uid="18106" user="geltmar" changeset="6049" lat="50.9835993" lon="7.5457871">
    <tag k="created_by" v="JOSM"/>
  </node>
  <node id="26151800" version="3" timestamp="2011-02-15T14:09:19Z" uid="120715" user="ruhri2010" changeset="7295178" lat="50.9835993" lon="7.5457871">
    <tag k="TMC:cid_58:tabcd_1:LocationCode" v="55833"/>
  </node>
  <node id="26151800" version="4" timestamp="2011-02-15T19:17:31Z" uid="218283" user="TMCbot" changeset="7297877" lat="50.9835993" lon="7.5457871">
    <tag k="TMC:cid_58:tabcd_1:Class" v="Point"/>
    <tag k="TMC:cid_58:tabcd_1:LCLversion" v="9.00"/>
    <tag k="TMC:cid_58:tabcd_1:LocationCode" v="55833"/>
    <tag k="TMC:cid_58:tabcd_1:NextLocationCode" v="39738"/>
    <tag k="TMC:cid_58:tabcd_1:PrevLocationCode" v="39737"/>
  </node>
  <node id="26151800" version="5" timestamp="2012-01-03T13:18:12Z" uid="53152" user="Nils2501" changeset="10281149" lat="50.9837227" lon="7.5458725">
    <tag k="TMC:cid_58:tabcd_1:Class" v="Point"/>
    <tag k="TMC:cid_58:tabcd_1:LCLversion" v="9.00"/>
    <tag k="TMC:cid_58:tabcd_1:LocationCode" v="55833"/>
    <tag k="TMC:cid_58:tabcd_1:NextLocationCode" v="39738"/>
    <tag k="TMC:cid_58:tabcd_1:PrevLocationCode" v="39737"/>
  </node>
  <node id="26151801" version="1" timestamp="2007-02-25T12:23:29Z" uid="5871" user="Banny" changeset="224018" lat="50.9846728" lon="7.5470119">
    <tag k="created_by" v="JOSM"/>
  </node>
  <node id="26151801" version="2" timestamp="2008-08-01T11:20:54Z" uid="18106" user="geltmar" changeset="6049" lat="50.9847488" lon="7.5470725">
    <tag k="created_by" v="JOSM"/>
  </node>
  <node id="26151802" version="1" timestamp="2007-02-25T12:23:29Z" uid="5871" user="Banny" changeset="224018" lat="50.9845327" lon="7.5471747">
    <tag k="created_by" v="JOSM"/>
  </node>
  <node id="26151802" version="2" timestamp="2008-08-01T11:20:44Z" uid="18106" user="geltmar" changeset="6049" lat="50.9845543" lon="7.547124">
    <tag k="created_by" v="JOSM"/>
  </node>
  <node id="26151802" version="3" timestamp="2008-08-01T11:21:46Z" uid="18106" user="geltmar" changeset="6049" lat="50.9845543" lon="7.5470983">
    <tag k="created_by" v="JOSM"/>
  </node>
  <node id="26151803" version="1" timestamp="2007-02-25T12:23:29Z" uid="5871" user="Banny" changeset="224018" lat="50.9857502" lon="7.547896">
    <tag k="created_by" v="JOSM"/>
  </node>
  <node id="26151804" version="1" timestamp="2007-02-25T12:23:29Z" uid="5871" user="Banny" changeset="224018" lat="50.9857096" lon="7.5481395">
    <tag k="created_by" v="JOSM"/>
  </node>
  <node id="26151804" version="2" timestamp="2008-08-01T11:21:46Z" uid="18106" user="geltmar" changeset="6049" lat="50.9857096" lon="7.5481138">
    <tag k="created_by" v="JOSM"/>
  </node>
  <node id="26151805" version="1" timestamp="2007-02-25T12:23:30Z" uid="5871" user="Banny" changeset="224018" lat="50.9866295" lon="7.5482482">
    <tag k="created_by" v="JOSM"/>
  </node>
  <node id="26151806" version="1" timestamp="2007-02-25T12:23:30Z" uid="5871" user="Banny" changeset="224018" lat="50.9866478" lon="7.5484917">
    <tag k="created_by" v="JOSM"/>
  </node>
  <node id="26151806" version="2" timestamp="2008-08-01T11:21:46Z" uid="18106" user="geltmar" changeset="6049" lat="50.9866478" lon="7.548466">
    <tag k="created_by" v="JOSM"/>
  </node>
  <node id="26151807" version="1" timestamp="2007-02-25T12:23:30Z" uid="5871" user="Banny" changeset="224018" lat="50.9844265" lon="7.5471911">
    <tag k="created_by" v="JOSM"/>
  </node>
  <node id="26151807" version="2" timestamp="2008-08-01T11:21:16Z" uid="18106" user="geltmar" changeset="6049" lat="50.9844841" lon="7.5472957">
    <tag k="created_by" v="JOSM"/>
  </node>
  <node id="26151808" version="1" timestamp="2007-02-25T12:23:30Z" uid="5871" user="Banny" changeset="224018" lat="50.9850872" lon="7.5478996">
    <tag k="created_by" v="JOSM"/>
  </node>
  <node id="26151809" version="1" timestamp="2007-02-25T12:23:30Z" uid="5871" user="Banny" changeset="224018" lat="50.9857191" lon="7.5483304">
    <tag k="created_by" v="JOSM"/>
  </node>
  <node id="26151810" version="1" timestamp="2007-02-25T12:23:30Z" uid="5871" user="Banny" changeset="224018" lat="50.9866095" lon="7.5485985">
    <tag k="created_by" v="JOSM"/>
  </node>
  <node id="26151810" version="2" timestamp="2008-08-01T11:21:27Z" uid="18106" user="geltmar" changeset="6049" lat="50.9866021" lon="7.5486432">
    <tag k="created_by" v="JOSM"/>
  </node>
  <node id="26151811" version="1" timestamp="2007-02-25T12:23:30Z" uid="5871" user="Banny" changeset="224018" lat="50.9864372" lon="7.5480049">
    <tag k="created_by" v="JOSM"/>
  </node>
  <node id="26151811" version="2" timestamp="2008-08-01T11:21:41Z" uid="18106" user="geltmar" changeset="6049" lat="50.9864508" lon="7.5479566">
    <tag k="created_by" v="JOSM"/>
  </node>
  <node id="26151812" version="1" timestamp="2007-02-25T12:23:30Z" uid="5871" user="Banny" changeset="224018" lat="50.9857957" lon="7.5476602">
    <tag k="created_by" v="JOSM"/>
  </node>
  <node id="26151813" version="1" timestamp="2007-02-25T12:23:30Z" uid="5871" user="Banny" changeset="224018" lat="50.9850393" lon="7.5471432">
    <tag k="created_by" v="JOSM"/>
  </node>
  <node id="26151813" version="2" timestamp="2008-08-01T11:21:04Z" uid="18106" user="geltmar" changeset="6049" lat="50.9850622" lon="7.5471155">
    <tag k="created_by" v="JOSM"/>
  </node>
  <node id="26151814" version="1" timestamp="2007-02-25T12:23:30Z" uid="5871" user="Banny" changeset="224018" lat="50.9844361" lon="7.5465208">
    <tag k="created_by" v="JOSM"/>
  </node>
  <node id="26151815" version="1" timestamp="2007-08-12T08:03:54Z" uid="5871" user="Banny" changeset="205835" lat="50.987875" lon="7.5483217">
    <tag k="created_by" v="JOSM"/>
  </node>
  <node id="26151816" version="1" timestamp="2007-02-25T12:23:31Z" uid="5871" user="Banny" changeset="224018" lat="50.9878542" lon="7.5485794">
    <tag k="created_by" v="JOSM"/>
  </node>
  <node id="26151816" version="2" timestamp="2008-08-01T11:21:46Z" uid="18106" user="geltmar" changeset="6049" lat="50.9878542" lon="7.5485537">
    <tag k="created_by" v="JOSM"/>
  </node>
  <node id="26151817" version="1" timestamp="2007-02-25T12:23:31Z" uid="5871" user="Banny" changeset="224018" lat="50.988783" lon="7.5485602">
    <tag k="created_by" v="JOSM"/>
  </node>
  <node id="26151818" version="1" timestamp="2007-02-25T12:23:31Z" uid="5871" user="Banny" changeset="224018" lat="50.9886968" lon="7.5487326">
    <tag k="created_by" v="JOSM"/>
  </node>
  <node id="26151818" version="2" timestamp="2008-08-01T11:21:46Z" uid="18106" user="geltmar" changeset="6049" lat="50.9886968" lon="7.5487069">
    <tag k="created_by" v="JOSM"/>
  </node>
  <node id="26151818" version="3" timestamp="2008-08-01T11:22:19Z" uid="18106" user="geltmar" changeset="6049" lat="50.9887039" lon="7.5487119">
    <tag k="created_by" v="JOSM"/>
  </node>
  <node id="26151819" version="1" timestamp="2007-02-25T12:23:31Z" uid="5871" user="Banny" changeset="224018" lat="50.9895489" lon="7.5491443">
    <tag k="created_by" v="JOSM"/>
  </node>
  <node id="26151820" version="1" timestamp="2007-02-25T12:23:31Z" uid="5871" user="Banny" changeset="224018" lat="50.9894436" lon="7.5492687">
    <tag k="created_by" v="JOSM"/>
  </node>
  <node id="26151820" version="2" timestamp="2008-08-01T11:21:46Z" uid="18106" user="geltmar" changeset="6049" lat="50.9894436" lon="7.549243">
    <tag k="created_by" v="JOSM"/>
  </node>
  <node id="26151821" version="1" timestamp="2007-02-25T12:23:31Z" uid="5871" user="Banny" changeset="224018" lat="50.9905447" lon="7.5503411">
    <tag k="created_by" v="JOSM"/>
  </node>
  <node id="26151822" version="1" timestamp="2007-02-25T12:23:31Z" uid="5871" user="Banny" changeset="224018" lat="50.9904011" lon="7.550456">
    <tag k="created_by" v="JOSM"/>
  </node>
  <node id="26151823" version="1" timestamp="2007-02-25T12:23:32Z" uid="5871" user="Banny" changeset="224018" lat="50.991617" lon="7.5511062">
    <tag k="created_by" v="JOSM"/>
  </node>
  <node id="26151824" version="1" timestamp="2007-02-25T12:23:32Z" uid="5871" user="Banny" changeset="224018" lat="50.9915337" lon="7.5513336">
    <tag k="created_by" v="JOSM"/>
  </node>
  <node id="26151825" version="1" timestamp="2007-02-25T12:23:32Z" uid="5871" user="Banny" changeset="224018" lat="50.9926032" lon="7.5511637">
    <tag k="created_by" v="JOSM"/>
  </node>
  <node id="26151826" version="1" timestamp="2007-02-25T12:23:32Z" uid="5871" user="Banny" changeset="224018" lat="50.9926415" lon="7.5514118">
    <tag k="created_by" v="JOSM"/>
  </node>
  <node id="26151827" version="1" timestamp="2007-02-25T12:23:32Z" uid="5871" user="Banny" changeset="224018" lat="50.9940777" lon="7.5506188">
    <tag k="created_by" v="JOSM"/>
  </node>
  <node id="26151828" version="1" timestamp="2007-02-25T12:23:32Z" uid="5871" user="Banny" changeset="224018" lat="50.9941543" lon="7.5508964">
    <tag k="created_by" v="JOSM"/>
  </node>
  <node id="26151828" version="2" timestamp="2008-03-08T16:08:15Z" uid="5871" user="Banny" changeset="286573" lat="50.9941543" lon="7.5508964">
    <tag k="created_by" v="JOSM"/>
    <tag k="highway" v="traffic_signals"/>
  </node>
  <node id="26151828" version="3" timestamp="2009-10-14T12:18:45Z" uid="53152" user="Nils2501" changeset="2844998" lat="50.9941543" lon="7.5508964">
    <tag k="highway" v="traffic_signals"/>
  </node>
  <node id="26151828" version="4" timestamp="2011-02-15T14:07:38Z" uid="120715" user="ruhri2010" changeset="7295164" lat="50.9941543" lon="7.5508964">
    <tag k="TMC:cid_58:tabcd_1:LocationCode" v="39738"/>
    <tag k="highway" v="traffic_signals"/>
  </node>
  <node id="26151828" version="5" timestamp="2011-02-15T19:17:32Z" uid="218283" user="TMCbot" changeset="7297877" lat="50.9941543" lon="7.5508964">
    <tag k="TMC:cid_58:tabcd_1:Class" v="Point"/>
    <tag k="TMC:cid_58:tabcd_1:LCLversion" v="9.00"/>
    <tag k="TMC:cid_58:tabcd_1:LocationCode" v="39738"/>
    <tag k="TMC:cid_58:tabcd_1:PrevLocationCode" v="55833"/>
    <tag k="highway" v="traffic_signals"/>
  </node>
  <node id="26151829" version="1" timestamp="2007-02-25T12:23:32Z" uid="5871" user="Banny" changeset="224018" lat="50.9931585" lon="7.5510113">
    <tag k="created_by" v="JOSM"/>
  </node>
  <node id="26151830" version="1" timestamp="2007-02-25T12:23:32Z" uid="5871" user="Banny" changeset="224018" lat="50.9932926" lon="7.5512507">
    <tag k="created_by" v="JOSM"/>
  </node>
  <node id="26151831" version="1" timestamp="2007-02-25T12:23:33Z" uid="5871" user="Banny" changeset="224018" lat="50.994575" lon="7.5503843">
    <tag k="created_by" v="JOSM"/>
  </node>
  <node id="26151831" version="2" timestamp="2008-03-08T16:08:15Z" uid="5871" user="Banny" changeset="286573" lat="50.994575" lon="7.5503843">
    <tag k="created_by" v="JOSM"/>
    <tag k="highway" v="traffic_signals"/>
  </node>
  <node id="26151831" version="3" timestamp="2011-02-15T14:07:38Z" uid="120715" user="ruhri2010" changeset="7295164" lat="50.994575" lon="7.5503843">
    <tag k="TMC:cid_58:tabcd_1:LocationCode" v="39767"/>
    <tag k="highway" v="traffic_signals"/>
  </node>
  <node id="26151831" version="4" timestamp="2011-02-15T19:17:32Z" uid="218283" user="TMCbot" changeset="7297877" lat="50.994575" lon="7.5503843">
    <tag k="TMC:cid_58:tabcd_1:Class" v="Point"/>
    <tag k="TMC:cid_58:tabcd_1:LCLversion" v="9.00"/>
    <tag k="TMC:cid_58:tabcd_1:LocationCode" v="39767"/>
    <tag k="TMC:cid_58:tabcd_1:NextLocationCode" v="55773"/>
    <tag k="TMC:cid_58:tabcd_1:PrevLocationCode" v="22195"/>
    <tag k="highway" v="traffic_signals"/>
  </node>
  <node id="26151832" version="1" timestamp="2007-02-25T12:23:33Z" uid="5871" user="Banny" changeset="224018" lat="50.9946537" lon="7.5506562">
    <tag k="created_by" v="JOSM"/>
  </node>
  <node id="26151833" version="1" timestamp="2007-02-25T12:23:33Z" uid="5871" user="Banny" changeset="224018" lat="50.9939525" lon="7.5512072">
    <tag k="created_by" v="JOSM"/>
  </node>
  <node id="26151834" version="1" timestamp="2007-02-25T12:23:33Z" uid="5871" user="Banny" changeset="224018" lat="50.9934731" lon="7.5515363">
    <tag k="created_by" v="JOSM"/>
  </node>
  <node id="26151835" version="1" timestamp="2007-02-25T12:23:33Z" uid="5871" user="Banny" changeset="224018" lat="50.9928864" lon="7.5517581">
    <tag k="created_by" v="JOSM"/>
  </node>
  <node id="26151836" version="1" timestamp="2007-02-25T12:23:33Z" uid="5871" user="Banny" changeset="224018" lat="50.9950115" lon="7.550184">
    <tag k="created_by" v="JOSM"/>
  </node>
  <node id="26151837" version="1" timestamp="2007-02-25T12:23:33Z" uid="5871" user="Banny" changeset="224018" lat="50.995083" lon="7.5504702">
    <tag k="created_by" v="JOSM"/>
  </node>
  <node id="26151838" version="1" timestamp="2007-02-25T12:23:33Z" uid="5871" user="Banny" changeset="224018" lat="50.9956912" lon="7.5500337">
    <tag k="created_by" v="JOSM"/>
  </node>
  <node id="26151839" version="1" timestamp="2007-02-25T12:23:33Z" uid="5871" user="Banny" changeset="224018" lat="50.9957198" lon="7.5502555">
    <tag k="created_by" v="JOSM"/>
  </node>
  <node id="26151840" version="1" timestamp="2007-08-22T12:09:07Z" uid="5871" user="Banny" changeset="242895" lat="50.9961702" lon="7.5500079">
    <tag k="created_by" v="JOSM"/>
  </node>
  <node id="26151840" version="2" timestamp="2008-03-10T15:21:55Z" uid="5871" user="Banny" changeset="300092" lat="50.9960912" lon="7.5500256">
    <tag k="created_by" v="JOSM"/>
  </node>
  <node id="26151841" version="1" timestamp="2007-08-22T12:09:07Z" uid="5871" user="Banny" changeset="242895" lat="50.9962482" lon="7.5501578">
    <tag k="created_by" v="JOSM"/>
  </node>
  <node id="26151841" version="2" timestamp="2008-03-10T15:21:55Z" uid="5871" user="Banny" changeset="300092" lat="50.9959554" lon="7.550191">
    <tag k="created_by" v="JOSM"/>
  </node>
  <node id="26151842" version="1" timestamp="2007-08-22T12:09:06Z" uid="5871" user="Banny" changeset="242895" lat="50.996588" lon="7.5501105">
    <tag k="created_by" v="JOSM"/>
  </node>
  <node id="26151842" version="2" timestamp="2008-03-10T15:21:55Z" uid="5871" user="Banny" changeset="300092" lat="50.9963126" lon="7.5500717">
    <tag k="created_by" v="JOSM"/>
  </node>
  <node id="26151843" version="1" timestamp="2007-02-25T12:23:34Z" uid="5871" user="Banny" changeset="224018" lat="50.997825" lon="7.5507026">
    <tag k="created_by" v="JOSM"/>
  </node>
  <node id="26151844" version="1" timestamp="2007-02-25T12:23:34Z" uid="5871" user="Banny" changeset="224018" lat="50.9988835" lon="7.5516402">
    <tag k="created_by" v="JOSM"/>
  </node>
  <node id="26151844" version="2" timestamp="2008-08-09T23:55:48Z" uid="29203" user="dc6iq" changeset="174596" lat="50.9987572" lon="7.5513876">
    <tag k="created_by" v="JOSM"/>
  </node>
  <node id="26151844" version="3" timestamp="2009-11-16T20:48:11Z" uid="134479" user="gbachheinz" changeset="3135881" lat="50.9986996" lon="7.5514196"/>
  <node id="26151845" version="1" timestamp="2007-02-25T12:23:34Z" uid="5871" user="Banny" changeset="224018" lat="50.9997909" lon="7.5523812">
    <tag k="created_by" v="JOSM"/>
  </node>
  <node id="26151845" version="2" timestamp="2008-06-29T09:02:19Z" uid="5871" user="Banny" changeset="336062" lat="50.9997572" lon="7.552399">
    <tag k="created_by" v="JOSM"/>
  </node>
  <node id="26151845" version="3" timestamp="2008-08-09T23:55:49Z" uid="29203" user="dc6iq" changeset="174596" lat="50.9995588" lon="7.5521104">
    <tag k="created_by" v="JOSM"/>
  </node>
  <node id="26151846" version="1" timestamp="2007-02-25T12:23:34Z" uid="5871" user="Banny" changeset="224018" lat="51.0004563" lon="7.5535607">
    <tag k="created_by" v="JOSM"/>
  </node>
  <node id="26151846" version="2" timestamp="2008-08-09T23:55:48Z" uid="29203" user="dc6iq" changeset="174596" lat="51.0004924" lon="7.5535066">
    <tag k="created_by" v="JOSM"/>
  </node>
  <node id="26151847" version="1" timestamp="2007-02-25T12:23:34Z" uid="5871" user="Banny" changeset="224018" lat="51.0012577" lon="7.5545286">
    <tag k="created_by" v="JOSM"/>
  </node>
  <node id="26151847" version="2" timestamp="2008-08-09T23:55:48Z" uid="29203" user="dc6iq" changeset="174596" lat="51.0012577" lon="7.5543843">
    <tag k="created_by" v="JOSM"/>
  </node>
  <node id="26151847" version="3" timestamp="2008-11-23T22:06:09Z" uid="16478" user="Raymond" changeset="784541" lat="51.0012298" lon="7.5545174">
    <tag k="created_by" v="JOSM"/>
  </node>
  <node id="26151847" version="4" timestamp="2009-11-09T20:04:28Z" uid="134479" user="gbachheinz" changeset="3077048" lat="51.0011501" lon="7.5544169"/>
  <node id="26151847" version="5" timestamp="2009-11-28T18:43:53Z" uid="134479" user="gbachheinz" changeset="3238988" lat="51.0013407" lon="7.5545151"/>
  <node id="26151847" version="6" timestamp="2010-01-13T12:07:03Z" uid="53152" user="Nils2501" changeset="3609387" lat="51.0013266" lon="7.5545658"/>
  <node id="26151847" version="7" timestamp="2010-04-10T20:07:57Z" uid="32786" user="Netzwolf" changeset="4386705" lat="51.0011676" lon="7.5544545"/>
  <node id="26151847" version="8" timestamp="2010-04-10T20:11:18Z" uid="32786" user="Netzwolf" changeset="4386752" lat="51.0011676" lon="7.5544545"/>
  <node id="26151848" version="1" timestamp="2007-02-25T12:23:34Z" uid="5871" user="Banny" changeset="224018" lat="51.0023768" lon="7.5549369">
    <tag k="created_by" v="JOSM"/>
  </node>
  <node id="26151848" version="2" timestamp="2008-08-09T23:55:47Z" uid="29203" user="dc6iq" changeset="174596" lat="51.0023768" lon="7.5548106">
    <tag k="created_by" v="JOSM"/>
  </node>
  <node id="26151848" version="3" timestamp="2008-11-23T22:06:08Z" uid="16478" user="Raymond" changeset="784541" lat="51.0016239" lon="7.5546615">
    <tag k="created_by" v="JOSM"/>
  </node>
  <node id="26151848" version="4" timestamp="2010-01-13T12:07:03Z" uid="53152" user="Nils2501" changeset="3609387" lat="51.0018296" lon="7.5547696"/>
  <node id="26151849" version="1" timestamp="2007-02-25T12:23:35Z" uid="5871" user="Banny" changeset="224018" lat="51.0028909" lon="7.5555417">
    <tag k="created_by" v="JOSM"/>
  </node>
  <node id="26151849" version="2" timestamp="2008-08-09T23:55:48Z" uid="29203" user="dc6iq" changeset="174596" lat="51.0028729" lon="7.5553974">
    <tag k="created_by" v="JOSM"/>
  </node>
  <node id="26151849" version="3" timestamp="2008-11-23T22:06:09Z" uid="16478" user="Raymond" changeset="784541" lat="51.0027053" lon="7.5552643">
    <tag k="created_by" v="JOSM"/>
  </node>
  <node id="26151850" version="1" timestamp="2007-02-25T12:23:35Z" uid="5871" user="Banny" changeset="224018" lat="51.0036319" lon="7.5571447">
    <tag k="created_by" v="JOSM"/>
  </node>
  <node id="26151850" version="2" timestamp="2008-11-23T22:06:08Z" uid="16478" user="Raymond" changeset="784541" lat="51.003623" lon="7.5571021">
    <tag k="created_by" v="JOSM"/>
  </node>
  <node id="26151851" version="1" timestamp="2007-02-25T12:23:35Z" uid="5871" user="Banny" changeset="224018" lat="51.0041461" lon="7.5576891">
    <tag k="created_by" v="JOSM"/>
  </node>
  <node id="26151851" version="2" timestamp="2008-06-29T09:02:19Z" uid="5871" user="Banny" changeset="336062" lat="51.0041267" lon="7.5577816">
    <tag k="created_by" v="JOSM"/>
  </node>
  <node id="26151851" version="3" timestamp="2008-06-29T09:05:04Z" uid="5871" user="Banny" changeset="336062" lat="51.0042103" lon="7.5577816">
    <tag k="created_by" v="JOSM"/>
  </node>
  <node id="26151851" version="4" timestamp="2008-11-23T22:06:08Z" uid="16478" user="Raymond" changeset="784541" lat="51.0039869" lon="7.5575686">
    <tag k="created_by" v="JOSM"/>
  </node>
  <node id="26151852" version="1" timestamp="2007-02-25T12:23:35Z" uid="5871" user="Banny" changeset="224018" lat="51.0051895" lon="7.5581579">
    <tag k="created_by" v="JOSM"/>
  </node>
  <node id="26151852" version="2" timestamp="2008-06-29T09:02:19Z" uid="5871" user="Banny" changeset="336062" lat="51.0051895" lon="7.5582658">
    <tag k="created_by" v="JOSM"/>
  </node>
  <node id="26151852" version="3" timestamp="2008-06-29T09:05:05Z" uid="5871" user="Banny" changeset="336062" lat="51.0052194" lon="7.5582279">
    <tag k="created_by" v="JOSM"/>
  </node>
  <node id="26151852" version="4" timestamp="2009-11-16T20:48:12Z" uid="134479" user="gbachheinz" changeset="3135881" lat="51.00545" lon="7.5581767"/>
  <node id="26151852" version="5" timestamp="2010-01-13T12:07:03Z" uid="53152" user="Nils2501" changeset="3609387" lat="51.0054551" lon="7.5582297"/>
  <node id="26151853" version="1" timestamp="2007-02-25T12:23:35Z" uid="5871" user="Banny" changeset="224018" lat="51.0063388" lon="7.5582335">
    <tag k="created_by" v="JOSM"/>
  </node>
  <node id="26151853" version="2" timestamp="2009-11-09T20:04:29Z" uid="134479" user="gbachheinz" changeset="3077048" lat="51.006519" lon="7.5580845"/>
  <node id="26151854" version="1" timestamp="2007-02-25T12:23:35Z" uid="5871" user="Banny" changeset="224018" lat="51.0074427" lon="7.557795">
    <tag k="created_by" v="JOSM"/>
  </node>
  <node id="26151854" version="2" timestamp="2009-11-16T20:48:12Z" uid="134479" user="gbachheinz" changeset="3135881" lat="51.0070264" lon="7.5579487"/>
  <node id="26151855" version="1" timestamp="2007-02-25T12:23:35Z" uid="5871" user="Banny" changeset="224018" lat="51.0093633" lon="7.5568423">
    <tag k="created_by" v="JOSM"/>
  </node>
  <node id="26151856" version="1" timestamp="2007-02-25T12:23:35Z" uid="5871" user="Banny" changeset="224018" lat="51.0100891" lon="7.5567213">
    <tag k="created_by" v="JOSM"/>
  </node>
  <node id="26151857" version="1" timestamp="2007-07-04T17:32:24Z" uid="5871" user="Banny" changeset="126514" lat="51.0123207" lon="7.5570993">
    <tag k="created_by" v="JOSM"/>
  </node>
  <node id="26151858" version="1" timestamp="2007-02-25T12:23:36Z" uid="5871" user="Banny" changeset="224018" lat="51.012055" lon="7.5570237">
    <tag k="created_by" v="JOSM"/>
  </node>
  <node id="26151859" version="1" timestamp="2007-02-25T12:23:36Z" uid="5871" user="Banny" changeset="224018" lat="51.0122516" lon="7.5574623">
    <tag k="created_by" v="JOSM"/>
  </node>
  <node id="26151860" version="1" timestamp="2007-02-25T12:23:36Z" uid="5871" user="Banny" changeset="224018" lat="51.0125087" lon="7.5571447">
    <tag k="created_by" v="JOSM"/>
  </node>
  <node id="26151861" version="1" timestamp="2007-02-25T12:23:36Z" uid="5871" user="Banny" changeset="224018" lat="51.0121867" lon="7.5577273">
    <tag k="created_by" v="JOSM"/>
  </node>
  <node id="26151862" version="1" timestamp="2007-02-25T12:23:36Z" uid="5871" user="Banny" changeset="224018" lat="51.011908" lon="7.5580928">
    <tag k="created_by" v="JOSM"/>
  </node>
  <node id="26151863" version="1" timestamp="2007-02-25T12:23:36Z" uid="5871" user="Banny" changeset="224018" lat="51.011462" lon="7.558545">
    <tag k="created_by" v="JOSM"/>
  </node>
  <node id="26151864" version="1" timestamp="2007-02-25T12:23:36Z" uid="5871" user="Banny" changeset="224018" lat="51.0112576" lon="7.5591767">
    <tag k="created_by" v="JOSM"/>
  </node>
  <node id="26151865" version="1" timestamp="2007-02-25T12:23:36Z" uid="5871" user="Banny" changeset="224018" lat="51.0112886" lon="7.5598271">
    <tag k="created_by" v="JOSM"/>
  </node>
  <node id="26151865" version="2" timestamp="2011-12-28T12:22:34Z" uid="53152" user="Nils2501" changeset="10225289" lat="51.0112886" lon="7.5598271">
    <tag k="name" v="Gummersbach"/>
    <tag k="traffic_sign" v="city_limit"/>
  </node>
  <node id="26151866" version="1" timestamp="2007-02-27T18:05:54Z" uid="5871" user="Banny" changeset="225581" lat="51.0115411" lon="7.5603144">
    <tag k="created_by" v="JOSM"/>
  </node>
  <node id="26151867" version="1" timestamp="2007-02-25T12:23:37Z" uid="5871" user="Banny" changeset="224018" lat="51.01127" lon="7.560812">
    <tag k="created_by" v="JOSM"/>
  </node>
  <node id="26151868" version="1" timestamp="2007-02-25T12:23:37Z" uid="5871" user="Banny" changeset="224018" lat="51.0111151" lon="7.5612951">
    <tag k="created_by" v="JOSM"/>
  </node>
  <node id="26151869" version="1" timestamp="2007-08-22T12:14:38Z" uid="5871" user="Banny" changeset="242895" lat="51.0110913" lon="7.5616028">
    <tag k="created_by" v="JOSM"/>
  </node>
  <node id="26151870" version="1" timestamp="2007-08-22T12:14:38Z" uid="5871" user="Banny" changeset="242895" lat="51.0112122" lon="7.5619161">
    <tag k="created_by" v="JOSM"/>
  </node>
  <node id="26151872" version="1" timestamp="2007-08-22T12:14:37Z" uid="5871" user="Banny" changeset="242895" lat="51.0113167" lon="7.5620047">
    <tag k="created_by" v="JOSM"/>
  </node>
  <node id="26151873" version="1" timestamp="2007-08-22T12:14:37Z" uid="5871" user="Banny" changeset="242895" lat="51.0114219" lon="7.5622956">
    <tag k="created_by" v="JOSM"/>
  </node>
  <node id="26151874" version="1" timestamp="2007-02-25T12:23:37Z" uid="5871" user="Banny" changeset="224018" lat="51.0119575" lon="7.5622986">
    <tag k="created_by" v="JOSM"/>
  </node>
  <node id="26151875" version="1" timestamp="2007-02-25T12:23:37Z" uid="5871" user="Banny" changeset="224018" lat="51.0123478" lon="7.5615119">
    <tag k="created_by" v="JOSM"/>
  </node>
  <node id="26151876" version="1" timestamp="2007-02-25T12:23:38Z" uid="5871" user="Banny" changeset="224018" lat="51.0126017" lon="7.5612703">
    <tag k="created_by" v="JOSM"/>
  </node>
  <node id="26151877" version="1" timestamp="2007-02-25T12:23:38Z" uid="5871" user="Banny" changeset="224018" lat="51.0110098" lon="7.5621313">
    <tag k="created_by" v="JOSM"/>
  </node>
  <node id="26151878" version="1" timestamp="2007-02-25T12:23:38Z" uid="5871" user="Banny" changeset="224018" lat="51.0106815" lon="7.5621375">
    <tag k="created_by" v="JOSM"/>
  </node>
  <node id="26151879" version="1" timestamp="2007-08-22T12:14:37Z" uid="5871" user="Banny" changeset="242895" lat="51.0106738" lon="7.5626061">
    <tag k="created_by" v="JOSM"/>
  </node>
  <node id="26151880" version="1" timestamp="2007-02-25T12:23:38Z" uid="5871" user="Banny" changeset="224018" lat="51.0105515" lon="7.5621004">
    <tag k="created_by" v="JOSM"/>
  </node>
  <node id="26151881" version="1" timestamp="2007-02-25T12:23:38Z" uid="5871" user="Banny" changeset="224018" lat="51.0105701" lon="7.5604837">
    <tag k="created_by" v="JOSM"/>
  </node>
  <node id="26151882" version="1" timestamp="2007-02-25T12:23:38Z" uid="5871" user="Banny" changeset="224018" lat="51.010186" lon="7.560428">
    <tag k="created_by" v="JOSM"/>
  </node>
  <node id="26151883" version="1" timestamp="2007-02-25T12:23:39Z" uid="5871" user="Banny" changeset="224018" lat="51.0101303" lon="7.5620942">
    <tag k="created_by" v="JOSM"/>
  </node>
  <node id="26151884" version="1" timestamp="2007-02-27T18:05:54Z" uid="5871" user="Banny" changeset="225581" lat="51.012307" lon="7.560439">
    <tag k="created_by" v="JOSM"/>
  </node>
  <node id="26151885" version="1" timestamp="2007-02-27T18:05:54Z" uid="5871" user="Banny" changeset="225581" lat="51.0126437" lon="7.5605743">
    <tag k="created_by" v="JOSM"/>
  </node>
  <node id="26151886" version="1" timestamp="2007-02-25T12:23:39Z" uid="5871" user="Banny" changeset="224018" lat="51.0130959" lon="7.5611472">
    <tag k="created_by" v="JOSM"/>
  </node>
  <node id="26151887" version="1" timestamp="2007-02-25T12:23:39Z" uid="5871" user="Banny" changeset="224018" lat="51.0133455" lon="7.562176">
    <tag k="created_by" v="JOSM"/>
  </node>
  <node id="26151888" version="1" timestamp="2007-02-27T18:05:54Z" uid="5871" user="Banny" changeset="225581" lat="51.0136563" lon="7.5627354">
    <tag k="created_by" v="JOSM"/>
  </node>
  <node id="26151889" version="1" timestamp="2007-02-27T18:05:53Z" uid="5871" user="Banny" changeset="225581" lat="51.014085" lon="7.5636356">
    <tag k="created_by" v="JOSM"/>
  </node>
  <node id="26151890" version="1" timestamp="2007-03-13T19:17:59Z" uid="5871" user="Banny" changeset="235475" lat="51.0143158" lon="7.5650802">
    <tag k="created_by" v="JOSM"/>
  </node>
  <node id="26151890" version="2" timestamp="2008-01-21T16:48:26Z" uid="21425" user="kirby27b" changeset="678888" lat="51.0143158" lon="7.565075">
    <tag k="created_by" v="JOSM"/>
  </node>
  <node id="26151891" version="1" timestamp="2007-07-04T17:32:21Z" uid="5871" user="Banny" changeset="126514" lat="51.0143263" lon="7.5658249">
    <tag k="created_by" v="JOSM"/>
  </node>
  <node id="26151891" version="2" timestamp="2008-01-21T16:48:25Z" uid="21425" user="kirby27b" changeset="678888" lat="51.0143263" lon="7.5658145">
    <tag k="created_by" v="JOSM"/>
  </node>
  <node id="26151891" version="3" timestamp="2008-01-25T18:21:29Z" uid="5871" user="Banny" changeset="692538" lat="51.0143244" lon="7.5658381">
    <tag k="created_by" v="JOSM"/>
  </node>
  <node id="26151892" version="1" timestamp="2007-02-25T12:23:40Z" uid="5871" user="Banny" changeset="224018" lat="51.0138267" lon="7.5658389">
    <tag k="created_by" v="JOSM"/>
  </node>
  <node id="26151893" version="1" timestamp="2007-02-25T12:23:40Z" uid="5871" user="Banny" changeset="224018" lat="51.0136329" lon="7.5656651">
    <tag k="created_by" v="JOSM"/>
  </node>
  <node id="26151894" version="1" timestamp="2007-02-25T12:23:40Z" uid="5871" user="Banny" changeset="224018" lat="51.0134658" lon="7.5652841">
    <tag k="created_by" v="JOSM"/>
  </node>
  <node id="26151895" version="1" timestamp="2007-02-25T12:23:40Z" uid="5871" user="Banny" changeset="224018" lat="51.0129511" lon="7.5634861">
    <tag k="created_by" v="JOSM"/>
  </node>
  <node id="26151896" version="1" timestamp="2007-02-25T12:23:40Z" uid="5871" user="Banny" changeset="224018" lat="51.0127305" lon="7.5632521">
    <tag k="created_by" v="JOSM"/>
  </node>
  <node id="26151897" version="1" timestamp="2007-08-22T12:14:37Z" uid="5871" user="Banny" changeset="242895" lat="51.0124932" lon="7.5633282">
    <tag k="created_by" v="JOSM"/>
  </node>
  <node id="26151898" version="1" timestamp="2007-08-22T12:14:37Z" uid="5871" user="Banny" changeset="242895" lat="51.0119854" lon="7.5639139">
    <tag k="created_by" v="JOSM"/>
  </node>
  <node id="26151899" version="1" timestamp="2007-02-25T12:23:41Z" uid="5871" user="Banny" changeset="224018" lat="51.0117012" lon="7.5640409">
    <tag k="created_by" v="JOSM"/>
  </node>
  <node id="26151900" version="1" timestamp="2007-02-25T12:23:41Z" uid="5871" user="Banny" changeset="224018" lat="51.0114271" lon="7.5640275">
    <tag k="created_by" v="JOSM"/>
  </node>
  <node id="26151901" version="1" timestamp="2007-02-25T12:23:41Z" uid="5871" user="Banny" changeset="224018" lat="51.0115073" lon="7.5645622">
    <tag k="created_by" v="JOSM"/>
  </node>
  <node id="26151902" version="1" timestamp="2007-02-25T12:23:41Z" uid="5871" user="Banny" changeset="224018" lat="51.0121958" lon="7.5648697">
    <tag k="created_by" v="JOSM"/>
  </node>
  <node id="26151903" version="1" timestamp="2007-02-25T12:23:41Z" uid="5871" user="Banny" changeset="224018" lat="51.012403" lon="7.5652039">
    <tag k="created_by" v="JOSM"/>
  </node>
  <node id="26151904" version="1" timestamp="2007-02-25T12:23:41Z" uid="5871" user="Banny" changeset="224018" lat="51.0127439" lon="7.5659659">
    <tag k="created_by" v="JOSM"/>
  </node>
  <node id="26151905" version="1" timestamp="2007-02-25T12:23:41Z" uid="5871" user="Banny" changeset="224018" lat="51.0127773" lon="7.5663469">
    <tag k="created_by" v="JOSM"/>
  </node>
  <node id="26151906" version="1" timestamp="2007-08-22T12:14:37Z" uid="5871" user="Banny" changeset="242895" lat="51.0123798" lon="7.5669432">
    <tag k="created_by" v="JOSM"/>
  </node>
  <node id="26151907" version="1" timestamp="2007-02-25T12:23:42Z" uid="5871" user="Banny" changeset="224018" lat="51.0109474" lon="7.5639492">
    <tag k="created_by" v="JOSM"/>
  </node>
  <node id="26151908" version="1" timestamp="2007-02-25T12:23:42Z" uid="5871" user="Banny" changeset="224018" lat="51.0107166" lon="7.5638243">
    <tag k="created_by" v="JOSM"/>
  </node>
  <node id="26151909" version="1" timestamp="2007-02-25T12:23:42Z" uid="5871" user="Banny" changeset="224018" lat="51.0104176" lon="7.5635443">
    <tag k="created_by" v="JOSM"/>
  </node>
  <node id="26151910" version="1" timestamp="2007-02-25T12:23:42Z" uid="5871" user="Banny" changeset="224018" lat="51.0102125" lon="7.5635838">
    <tag k="created_by" v="JOSM"/>
  </node>
  <node id="26151911" version="1" timestamp="2007-08-22T12:14:37Z" uid="5871" user="Banny" changeset="242895" lat="51.0099391" lon="7.564214">
    <tag k="created_by" v="JOSM"/>
  </node>
  <node id="26151912" version="1" timestamp="2007-02-25T12:23:42Z" uid="5871" user="Banny" changeset="224018" lat="51.0095388" lon="7.5643293">
    <tag k="created_by" v="JOSM"/>
  </node>
  <node id="26151913" version="1" timestamp="2007-02-25T12:23:42Z" uid="5871" user="Banny" changeset="224018" lat="51.0091072" lon="7.5645386">
    <tag k="created_by" v="JOSM"/>
  </node>
  <node id="26151914" version="1" timestamp="2007-08-22T12:14:36Z" uid="5871" user="Banny" changeset="242895" lat="51.0096663" lon="7.5650646">
    <tag k="created_by" v="JOSM"/>
  </node>
  <node id="26151915" version="1" timestamp="2007-03-28T12:03:26Z" uid="5871" user="Banny" changeset="247241" lat="51.0096268" lon="7.565323">
    <tag k="created_by" v="JOSM"/>
  </node>
  <node id="26151916" version="1" timestamp="2007-08-22T12:14:36Z" uid="5871" user="Banny" changeset="242895" lat="51.0097555" lon="7.5654114">
    <tag k="created_by" v="JOSM"/>
  </node>
  <node id="26151917" version="1" timestamp="2007-08-22T12:14:36Z" uid="5871" user="Banny" changeset="242895" lat="51.0097946" lon="7.5651751">
    <tag k="created_by" v="JOSM"/>
  </node>
  <node id="26151918" version="1" timestamp="2007-02-25T12:23:43Z" uid="5871" user="Banny" changeset="224018" lat="51.010134" lon="7.5651403">
    <tag k="created_by" v="JOSM"/>
  </node>
  <node id="26151919" version="1" timestamp="2007-02-25T12:23:43Z" uid="5871" user="Banny" changeset="224018" lat="51.0104021" lon="7.5652188">
    <tag k="created_by" v="JOSM"/>
  </node>
  <node id="26151920" version="1" timestamp="2007-02-25T12:23:43Z" uid="5871" user="Banny" changeset="224018" lat="51.0106506" lon="7.5646302">
    <tag k="created_by" v="JOSM"/>
  </node>
  <node id="26151921" version="1" timestamp="2007-08-22T12:14:36Z" uid="5871" user="Banny" changeset="242895" lat="51.0091265" lon="7.5655002">
    <tag k="created_by" v="JOSM"/>
  </node>
  <node id="26151922" version="1" timestamp="2007-02-25T12:23:43Z" uid="5871" user="Banny" changeset="224018" lat="51.0109646" lon="7.5657027">
    <tag k="created_by" v="JOSM"/>
  </node>
  <node id="26151923" version="1" timestamp="2007-02-25T12:23:43Z" uid="5871" user="Banny" changeset="224018" lat="51.0098126" lon="7.5660749">
    <tag k="created_by" v="JOSM"/>
  </node>
  <node id="26151924" version="1" timestamp="2007-02-25T12:23:43Z" uid="5871" user="Banny" changeset="224018" lat="51.0097109" lon="7.5668434">
    <tag k="created_by" v="JOSM"/>
  </node>
  <node id="26151925" version="1" timestamp="2007-02-25T12:23:44Z" uid="5871" user="Banny" changeset="224018" lat="51.0098917" lon="7.5673067">
    <tag k="created_by" v="JOSM"/>
  </node>
  <node id="26151926" version="1" timestamp="2007-02-25T12:23:44Z" uid="5871" user="Banny" changeset="224018" lat="51.0108975" lon="7.5671937">
    <tag k="created_by" v="JOSM"/>
  </node>
  <node id="26151927" version="1" timestamp="2007-02-25T12:23:44Z" uid="5871" user="Banny" changeset="224018" lat="51.0094509" lon="7.5678718">
    <tag k="created_by" v="JOSM"/>
  </node>
  <node id="26151928" version="1" timestamp="2007-02-25T12:23:44Z" uid="5871" user="Banny" changeset="224018" lat="51.0092396" lon="7.5673872">
    <tag k="created_by" v="JOSM"/>
  </node>
  <node id="26151929" version="1" timestamp="2007-02-25T12:23:44Z" uid="5871" user="Banny" changeset="224018" lat="51.0090371" lon="7.5673698">
    <tag k="created_by" v="JOSM"/>
  </node>
  <node id="26151930" version="1" timestamp="2007-08-22T12:14:36Z" uid="5871" user="Banny" changeset="242895" lat="51.0089794" lon="7.5666011">
    <tag k="created_by" v="JOSM"/>
  </node>
  <node id="26151931" version="1" timestamp="2007-02-25T12:23:44Z" uid="5871" user="Banny" changeset="224018" lat="51.0124935" lon="7.5656497">
    <tag k="created_by" v="JOSM"/>
  </node>
  <node id="26151932" version="1" timestamp="2007-02-25T12:23:44Z" uid="5871" user="Banny" changeset="224018" lat="51.0139155" lon="7.5627167">
    <tag k="created_by" v="JOSM"/>
  </node>
  <node id="26151934" version="1" timestamp="2007-02-25T12:23:44Z" uid="5871" user="Banny" changeset="224018" lat="51.0147744" lon="7.5635072">
    <tag k="created_by" v="JOSM"/>
  </node>
  <node id="26151935" version="1" timestamp="2007-08-22T12:14:36Z" uid="5871" user="Banny" changeset="242895" lat="51.0148968" lon="7.5637458">
    <tag k="created_by" v="JOSM"/>
  </node>
  <node id="26151936" version="1" timestamp="2007-02-25T12:23:45Z" uid="5871" user="Banny" changeset="224018" lat="51.0151089" lon="7.564769">
    <tag k="created_by" v="JOSM"/>
  </node>
  <node id="26151937" version="1" timestamp="2007-08-22T12:14:35Z" uid="5871" user="Banny" changeset="242895" lat="51.0149443" lon="7.5652832">
    <tag k="created_by" v="JOSM"/>
  </node>
  <node id="26151938" version="1" timestamp="2007-02-25T12:23:45Z" uid="5871" user="Banny" changeset="224018" lat="51.0144704" lon="7.5642825">
    <tag k="created_by" v="JOSM"/>
  </node>
  <node id="26151939" version="1" timestamp="2007-02-27T18:05:54Z" uid="5871" user="Banny" changeset="225581" lat="51.0154205" lon="7.5649863">
    <tag k="created_by" v="JOSM"/>
  </node>
  <node id="26151940" version="1" timestamp="2007-02-25T12:23:45Z" uid="5871" user="Banny" changeset="224018" lat="51.0157625" lon="7.5649286">
    <tag k="created_by" v="JOSM"/>
  </node>
  <node id="26151941" version="1" timestamp="2007-02-25T12:23:45Z" uid="5871" user="Banny" changeset="224018" lat="51.0160286" lon="7.5643966">
    <tag k="created_by" v="JOSM"/>
  </node>
  <node id="26151942" version="1" timestamp="2007-02-25T12:23:45Z" uid="5871" user="Banny" changeset="224018" lat="51.0165454" lon="7.5648982">
    <tag k="created_by" v="JOSM"/>
  </node>
  <node id="26151942" version="2" timestamp="2009-03-13T18:27:49Z" uid="87143" user="bkaldewey" changeset="802978" lat="51.0170844" lon="7.5640135">
    <tag k="created_by" v="JOSM"/>
  </node>
  <node id="26151942" version="3" timestamp="2009-03-13T18:33:30Z" uid="87143" user="bkaldewey" changeset="802978" lat="51.0170844" lon="7.5640135"/>
  <node id="26151942" version="4" timestamp="2009-03-15T12:42:42Z" uid="87143" user="bkaldewey" changeset="812662" lat="51.0170844" lon="7.5640135"/>
  <node id="26151942" version="5" timestamp="2009-03-15T12:43:13Z" uid="87143" user="bkaldewey" changeset="812662" lat="51.0170844" lon="7.5640135"/>
  <node id="26151942" version="6" timestamp="2009-08-13T15:59:21Z" uid="36894" user="rab" changeset="2133287" lat="51.0170844" lon="7.5640135"/>
  <node id="26151943" version="1" timestamp="2007-02-25T12:23:45Z" uid="5871" user="Banny" changeset="224018" lat="51.0161502" lon="7.5660308">
    <tag k="created_by" v="JOSM"/>
  </node>
  <node id="26151944" version="1" timestamp="2007-02-25T12:23:45Z" uid="5871" user="Banny" changeset="224018" lat="51.0159146" lon="7.5660992">
    <tag k="created_by" v="JOSM"/>
  </node>
  <node id="26151944" version="2" timestamp="2011-10-15T22:15:35Z" uid="124414" user="Hardo66" changeset="9568061" lat="51.0159146" lon="7.5660992"/>
  <node id="26151945" version="1" timestamp="2007-02-25T12:23:46Z" uid="5871" user="Banny" changeset="224018" lat="51.0148808" lon="7.5658255">
    <tag k="created_by" v="JOSM"/>
  </node>
  <node id="26151946" version="1" timestamp="2007-02-25T12:23:46Z" uid="5871" user="Banny" changeset="224018" lat="50.9924184" lon="7.552055">
    <tag k="created_by" v="JOSM"/>
  </node>
  <node id="26151947" version="1" timestamp="2007-02-25T12:23:46Z" uid="5871" user="Banny" changeset="224018" lat="50.9908146" lon="7.5533042">
    <tag k="created_by" v="JOSM"/>
  </node>
  <node id="26151948" version="1" timestamp="2007-02-25T12:23:46Z" uid="5871" user="Banny" changeset="224018" lat="50.9903519" lon="7.5535355">
    <tag k="created_by" v="JOSM"/>
  </node>
  <node id="26151950" version="1" timestamp="2007-02-25T12:23:46Z" uid="5871" user="Banny" changeset="224018" lat="50.989843" lon="7.5535046">
    <tag k="created_by" v="JOSM"/>
  </node>
  <node id="26151951" version="1" timestamp="2007-02-25T12:23:46Z" uid="5871" user="Banny" changeset="224018" lat="51.0130113" lon="7.557361">
    <tag k="created_by" v="JOSM"/>
  </node>
  <node id="26151952" version="1" timestamp="2007-02-27T18:05:54Z" uid="5871" user="Banny" changeset="225581" lat="51.0137776" lon="7.5580359">
    <tag k="created_by" v="JOSM"/>
  </node>
  <node id="26151952" version="2" timestamp="2008-10-22T05:18:31Z" uid="53152" user="Nils2501" changeset="500079" lat="51.0137776" lon="7.5580359"/>
  <node id="26151952" version="3" timestamp="2008-10-22T05:19:05Z" uid="53152" user="Nils2501" changeset="500079" lat="51.0137776" lon="7.5580359"/>
  <node id="26151952" version="4" timestamp="2008-10-22T05:20:35Z" uid="53152" user="Nils2501" changeset="500079" lat="51.0137776" lon="7.5580359"/>
  <node id="26151952" version="5" timestamp="2008-10-22T05:21:43Z" uid="53152" user="Nils2501" changeset="500079" lat="51.0137776" lon="7.5580359"/>
  <node id="26151952" version="6" timestamp="2008-12-02T15:52:17Z" uid="53152" user="Nils2501" changeset="54659" lat="51.0137776" lon="7.5580359"/>
  <node id="26151952" version="7" timestamp="2009-10-14T12:38:21Z" uid="53152" user="Nils2501" changeset="2845236" lat="51.0137776" lon="7.5580359">
    <tag k="highway" v="stop"/>
  </node>
  <node id="26151953" version="1" timestamp="2007-02-27T18:05:54Z" uid="5871" user="Banny" changeset="225581" lat="51.0143699" lon="7.5582626">
    <tag k="created_by" v="JOSM"/>
  </node>
  <node id="26151954" version="1" timestamp="2007-02-25T12:23:46Z" uid="5871" user="Banny" changeset="224018" lat="51.0151767" lon="7.558173">
    <tag k="created_by" v="JOSM"/>
  </node>
  <node id="26151955" version="1" timestamp="2007-02-25T12:23:47Z" uid="5871" user="Banny" changeset="224018" lat="51.0169853" lon="7.5570534">
    <tag k="created_by" v="JOSM"/>
  </node>
  <node id="26151956" version="1" timestamp="2007-02-25T12:23:47Z" uid="5871" user="Banny" changeset="224018" lat="51.0187078" lon="7.5561429">
    <tag k="created_by" v="JOSM"/>
  </node>
  <node id="26151957" version="1" timestamp="2007-02-25T12:23:47Z" uid="5871" user="Banny" changeset="224018" lat="51.0196674" lon="7.5558969">
    <tag k="created_by" v="JOSM"/>
  </node>
  <node id="26151958" version="1" timestamp="2007-02-25T12:23:47Z" uid="5871" user="Banny" changeset="224018" lat="51.0208363" lon="7.5558599">
    <tag k="created_by" v="JOSM"/>
  </node>
  <node id="26151959" version="1" timestamp="2007-02-25T12:23:47Z" uid="5871" user="Banny" changeset="224018" lat="51.0218205" lon="7.5556385">
    <tag k="created_by" v="JOSM"/>
  </node>
  <node id="26151960" version="1" timestamp="2007-02-25T12:23:47Z" uid="5871" user="Banny" changeset="224018" lat="51.0227925" lon="7.5547649">
    <tag k="created_by" v="JOSM"/>
  </node>
  <node id="26152282" version="2" timestamp="2008-07-03T18:39:05Z" uid="6975" user="ulfl" changeset="379368" lat="53.3580279" lon="-2.8926662">
    <tag k="amenity" v="pharmacy"/>
    <tag k="dispensing" v="yes"/>
  </node>
  <node id="26152707" version="1" timestamp="2007-08-15T20:21:49Z" uid="8328" user="benpre" changeset="218301" lat="51.4325795" lon="-2.6210006">
    <tag k="created_by" v="JOSM"/>
  </node>
  <node id="26152707" version="2" timestamp="2011-04-06T14:53:49Z" uid="3937" user="southglos" changeset="7785731" lat="51.4325795" lon="-2.6210006">
    <tag k="created_by" v="JOSM"/>
  </node>
  <node id="26152708" version="1" timestamp="2007-08-15T20:22:34Z" uid="8328" user="benpre" changeset="218301" lat="51.4325795" lon="-2.6210006">
    <tag k="created_by" v="JOSM"/>
  </node>
  <node id="26153112" version="3" timestamp="2008-06-27T08:23:23Z" uid="6975" user="ulfl" changeset="310140" lat="49.6044149" lon="11.0004419">
    <tag k="created_by" v="Potlatch 0.4a"/>
    <tag k="name" v="Jacques Wein-Depot"/>
    <tag k="shop" v="beverages"/>
  </node>
  <node id="26153112" version="4" timestamp="2009-11-25T11:13:04Z" uid="56597" user="Oberaffe" changeset="3211204" lat="49.6044149" lon="11.0004419">
    <tag k="name" v="Jacques Wein-Depot"/>
    <tag k="shop" v="beverages"/>
  </node>
  <node id="26153112" version="5" timestamp="2010-04-06T18:53:02Z" uid="118856" user="staehler" changeset="4347421" lat="49.6044376" lon="11.0004575">
    <tag k="addr:city" v="Erlangen"/>
    <tag k="addr:country" v="DE"/>
    <tag k="addr:housenumber" v="5"/>
    <tag k="addr:street" v="Jahnstraße"/>
    <tag k="name" v="Jacques Wein-Depot"/>
    <tag k="shop" v="alcohol"/>
  </node>
  <node id="26153112" version="6" timestamp="2011-03-20T13:00:43Z" uid="421647" user="schiriki87" changeset="7616212" lat="49.6044376" lon="11.0004575">
    <tag k="addr:city" v="Erlangen"/>
    <tag k="addr:country" v="DE"/>
    <tag k="addr:housenumber" v="5"/>
    <tag k="addr:postcode" v="91054"/>
    <tag k="addr:street" v="Jahnstraße"/>
    <tag k="name" v="Jacques Wein-Depot"/>
    <tag k="opening_hours" v="Mo-Th 15:00-19:00; Fr 13:00-19:00; Sa 09:30-16:00"/>
    <tag k="phone" v="09131/27245"/>
    <tag k="shop" v="alcohol"/>
    <tag k="website" v="www.jacques.de"/>
  </node>
  <node id="26153112" version="7" timestamp="2012-02-11T13:46:02Z" uid="56597" user="Oberaffe" changeset="10652812" lat="49.6044376" lon="11.0004575"/>
  <node id="26155459" version="3" timestamp="2009-09-30T12:36:39Z" uid="36809" user="pfoten_weg_!_" changeset="2687909" lat="48.1778297" lon="11.2247811"/>
  <node id="26155459" version="4" timestamp="2011-03-02T20:43:54Z" uid="7596" user="ck3d" changeset="7441041" lat="48.1778041" lon="11.2248757"/>
  <node id="26155512" version="3" timestamp="2009-09-30T12:38:47Z" uid="36809" user="pfoten_weg_!_" changeset="2687909" lat="48.1762294" lon="11.2477361"/>
  <node id="26155513" version="4" timestamp="2009-09-30T12:41:59Z" uid="36809" user="pfoten_weg_!_" changeset="2687909" lat="48.1764031" lon="11.2510341"/>
  <node id="26155513" version="5" timestamp="2009-12-31T14:23:38Z" uid="7596" user="ck3d" changeset="3501195" lat="48.176317" lon="11.2508635"/>
  <node id="26155515" version="3" timestamp="2009-09-30T12:42:00Z" uid="36809" user="pfoten_weg_!_" changeset="2687909" lat="48.1762892" lon="11.2506378"/>
  <node id="26155515" version="4" timestamp="2009-12-31T14:23:37Z" uid="7596" user="ck3d" changeset="3501195" lat="48.1762133" lon="11.2505016"/>
  <node id="26155516" version="4" timestamp="2009-09-30T12:38:51Z" uid="36809" user="pfoten_weg_!_" changeset="2687909" lat="48.1761204" lon="11.2498797">
    <tag k="crossing" v="uncontrolled"/>
    <tag k="highway" v="crossing"/>
  </node>
  <node id="26155516" version="5" timestamp="2009-12-31T14:23:37Z" uid="7596" user="ck3d" changeset="3501195" lat="48.176098" lon="11.249889">
    <tag k="crossing" v="uncontrolled"/>
    <tag k="highway" v="crossing"/>
  </node>
  <node id="26155518" version="4" timestamp="2009-09-30T12:38:47Z" uid="36809" user="pfoten_weg_!_" changeset="2687909" lat="48.1761912" lon="11.2474146"/>
  <node id="26159286" version="1" timestamp="2007-08-15T20:21:38Z" uid="8328" user="benpre" changeset="218301" lat="51.4802517" lon="-2.5890435">
    <tag k="created_by" v="JOSM"/>
  </node>
  <node id="26159286" version="2" timestamp="2007-12-09T09:49:00Z" uid="20864" user="Bclay" changeset="201720" lat="51.4802221" lon="-2.588951">
    <tag k="created_by" v="JOSM"/>
  </node>
  <node id="26159286" version="3" timestamp="2007-12-09T09:49:14Z" uid="20864" user="Bclay" changeset="201720" lat="51.4802221" lon="-2.588951">
    <tag k="created_by" v="JOSM"/>
  </node>
  <node id="26159286" version="4" timestamp="2007-12-09T09:52:15Z" uid="20864" user="Bclay" changeset="201720" lat="51.4802221" lon="-2.588951">
    <tag k="created_by" v="JOSM"/>
  </node>
  <node id="26159286" version="5" timestamp="2007-12-09T09:55:06Z" uid="20864" user="Bclay" changeset="201720" lat="51.4802221" lon="-2.588951">
    <tag k="created_by" v="JOSM"/>
  </node>
  <node id="26159286" version="6" timestamp="2007-12-09T09:56:47Z" uid="20864" user="Bclay" changeset="201720" lat="51.4802221" lon="-2.588951">
    <tag k="created_by" v="JOSM"/>
  </node>
  <node id="26159286" version="7" timestamp="2009-04-03T08:42:00Z" uid="53014" user="ams501" changeset="139407" lat="51.4802221" lon="-2.588951"/>
  <node id="26159286" version="8" timestamp="2010-11-08T19:38:10Z" uid="142710" user="tiiiim" changeset="6323209" lat="51.4802756" lon="-2.5890154"/>
  <node id="26159568" version="1" timestamp="2007-08-15T20:21:38Z" uid="8328" user="benpre" changeset="218301" lat="51.5122062" lon="-2.5700324">
    <tag k="created_by" v="JOSM"/>
  </node>
  <node id="26159568" version="2" timestamp="2008-01-26T16:36:23Z" uid="5121" user="user_5121" changeset="696398" lat="51.5122062" lon="-2.5700324">
    <tag k="created_by" v="JOSM"/>
  </node>
  <node id="26159568" version="3" timestamp="2010-12-02T14:05:58Z" uid="115894" user="DaveF" changeset="6515063" lat="51.5122195" lon="-2.5700451"/>
  <node id="26159878" version="2" timestamp="2008-07-03T18:00:27Z" uid="6975" user="ulfl" changeset="379368" lat="46.2102939" lon="5.9507598">
    <tag k="landuse" v="cemetery"/>
  </node>
  <node id="26159935" version="2" timestamp="2008-02-16T19:25:00Z" uid="6975" user="ulfl" changeset="141861" lat="51.863019" lon="-2.2370956">
    <tag k="name" v="Asda"/>
    <tag k="shop" v="supermarket"/>
  </node>
  <node id="26159935" version="3" timestamp="2009-10-28T05:43:48Z" uid="24614" user="Alex McKee" changeset="2970939" lat="51.863019" lon="-2.2370956">
    <tag k="name" v="Asda"/>
    <tag k="shop" v="supermarket"/>
  </node>
  <node id="26150422" version="42" timestamp="2012-04-16T09:06:28Z" uid="356014" user="_sev" changeset="11319492" lat="50.4499875" lon="30.5234937">
    <tag k="addr:postcode" v="01000-06999"/>
    <tag k="alt_name:en" v="Kiev"/>
    <tag k="capital" v="yes"/>
    <tag k="koatuu" v="8000000000"/>
    <tag k="name" v="Київ"/>
    <tag k="name:ar" v="كييف"/>
    <tag k="name:ast" v="Kiev"/>
    <tag k="name:be" v="Кіеў"/>
    <tag k="name:cs" v="Kyjev"/>
    <tag k="name:de" v="Kiew"/>
    <tag k="name:el" v="Κίεβο"/>
    <tag k="name:en" v="Kyiv"/>
    <tag k="name:es" v="Kiev"/>
    <tag k="name:et" v="Kiiev"/>
    <tag k="name:eu" v="Kiev"/>
    <tag k="name:fa" v="کیف"/>
    <tag k="name:fi" v="Kiova"/>
    <tag k="name:fr" v="Kiev"/>
    <tag k="name:he" v="קייב"/>
    <tag k="name:hr" v="Kijev"/>
    <tag k="name:hu" v="Kijev"/>
    <tag k="name:is" v="Kíev"/>
    <tag k="name:it" v="Kiev"/>
    <tag k="name:ku" v="Kîev"/>
    <tag k="name:lv" v="Kijeva"/>
    <tag k="name:nl" v="Kiev"/>
    <tag k="name:no" v="Kiev"/>
    <tag k="name:pl" v="Kijów"/>
    <tag k="name:ru" v="Киев"/>
    <tag k="name:sk" v="Kyjev"/>
    <tag k="name:sl" v="Kijev"/>
    <tag k="name:sr" v="Кијев"/>
    <tag k="name:sv" v="Kiev"/>
    <tag k="name:uk" v="Київ"/>
    <tag k="place" v="city"/>
    <tag k="population" v="2814600"/>
    <tag k="rank" v="10"/>
    <tag k="wikipedia" v="uk:Київ"/>
    <tag k="wikipedia:ru" v="Киев"/>
  </node>
  <node id="26150422" version="43" timestamp="2012-05-07T05:51:24Z" uid="33757" user="Minh Nguyen" changeset="11525171" lat="50.4499875" lon="30.5234937">
    <tag k="addr:postcode" v="01000-06999"/>
    <tag k="alt_name:en" v="Kiev"/>
    <tag k="alt_name:vi" v="Kyiv"/>
    <tag k="capital" v="yes"/>
    <tag k="koatuu" v="8000000000"/>
    <tag k="name" v="Київ"/>
    <tag k="name:ar" v="كييف"/>
    <tag k="name:ast" v="Kiev"/>
    <tag k="name:be" v="Кіеў"/>
    <tag k="name:cs" v="Kyjev"/>
    <tag k="name:de" v="Kiew"/>
    <tag k="name:el" v="Κίεβο"/>
    <tag k="name:en" v="Kyiv"/>
    <tag k="name:es" v="Kiev"/>
    <tag k="name:et" v="Kiiev"/>
    <tag k="name:eu" v="Kiev"/>
    <tag k="name:fa" v="کیف"/>
    <tag k="name:fi" v="Kiova"/>
    <tag k="name:fr" v="Kiev"/>
    <tag k="name:he" v="קייב"/>
    <tag k="name:hr" v="Kijev"/>
    <tag k="name:hu" v="Kijev"/>
    <tag k="name:is" v="Kíev"/>
    <tag k="name:it" v="Kiev"/>
    <tag k="name:ku" v="Kîev"/>
    <tag k="name:lv" v="Kijeva"/>
    <tag k="name:nl" v="Kiev"/>
    <tag k="name:no" v="Kiev"/>
    <tag k="name:pl" v="Kijów"/>
    <tag k="name:ru" v="Киев"/>
    <tag k="name:sk" v="Kyjev"/>
    <tag k="name:sl" v="Kijev"/>
    <tag k="name:sr" v="Кијев"/>
    <tag k="name:sv" v="Kiev"/>
    <tag k="name:uk" v="Київ"/>
    <tag k="name:vi" v="Kiev"/>
    <tag k="place" v="city"/>
    <tag k="population" v="2814600"/>
    <tag k="rank" v="10"/>
    <tag k="wikipedia" v="uk:Київ"/>
    <tag k="wikipedia:ru" v="Киев"/>
  </node>
  <node id="26150422" version="44" timestamp="2012-05-18T10:30:46Z" uid="356014" user="_sev" changeset="11631622" lat="50.4499875" lon="30.5234937">
    <tag k="addr:postcode" v="01000-06999"/>
    <tag k="alt_name:en" v="Kiev"/>
    <tag k="alt_name:vi" v="Kyiv"/>
    <tag k="capital" v="yes"/>
    <tag k="koatuu" v="8000000000"/>
    <tag k="name" v="Київ"/>
    <tag k="name:ar" v="كييف"/>
    <tag k="name:ast" v="Kiev"/>
    <tag k="name:be" v="Кіеў"/>
    <tag k="name:cs" v="Kyjev"/>
    <tag k="name:de" v="Kiew"/>
    <tag k="name:el" v="Κίεβο"/>
    <tag k="name:en" v="Kyiv"/>
    <tag k="name:es" v="Kiev"/>
    <tag k="name:et" v="Kiiev"/>
    <tag k="name:eu" v="Kiev"/>
    <tag k="name:fa" v="کیف"/>
    <tag k="name:fi" v="Kiova"/>
    <tag k="name:fr" v="Kiev"/>
    <tag k="name:he" v="קייב"/>
    <tag k="name:hr" v="Kijev"/>
    <tag k="name:hu" v="Kijev"/>
    <tag k="name:is" v="Kíev"/>
    <tag k="name:it" v="Kiev"/>
    <tag k="name:ku" v="Kîev"/>
    <tag k="name:lv" v="Kijeva"/>
    <tag k="name:nl" v="Kiev"/>
    <tag k="name:no" v="Kiev"/>
    <tag k="name:pl" v="Kijów"/>
    <tag k="name:ru" v="Киев"/>
    <tag k="name:sk" v="Kyjev"/>
    <tag k="name:sl" v="Kijev"/>
    <tag k="name:sr" v="Кијев"/>
    <tag k="name:sv" v="Kiev"/>
    <tag k="name:uk" v="Київ"/>
    <tag k="name:vi" v="Kiev"/>
    <tag k="place" v="city"/>
    <tag k="population" v="2815900"/>
    <tag k="rank" v="10"/>
    <tag k="wikipedia" v="uk:Київ"/>
    <tag k="wikipedia:ru" v="Киев"/>
  </node>
  <node id="26150422" version="45" timestamp="2012-05-20T01:11:53Z" uid="663598" user="and1969" changeset="11647721" lat="50.4499875" lon="30.5234937">
    <tag k="addr:postcode" v="01000-06999"/>
    <tag k="alt_name:en" v="Kiev"/>
    <tag k="alt_name:vi" v="Kyiv"/>
    <tag k="capital" v="yes"/>
    <tag k="koatuu" v="8000000000"/>
    <tag k="name" v="Київ"/>
    <tag k="name:ar" v="كييف"/>
    <tag k="name:ast" v="Kiev"/>
    <tag k="name:be" v="Кіеў"/>
    <tag k="name:cs" v="Kyjev"/>
    <tag k="name:de" v="Kiew"/>
    <tag k="name:el" v="Κίεβο"/>
    <tag k="name:en" v="Kyiv"/>
    <tag k="name:eo" v="Kievo"/>
    <tag k="name:es" v="Kiev"/>
    <tag k="name:et" v="Kiiev"/>
    <tag k="name:eu" v="Kiev"/>
    <tag k="name:fa" v="کیف"/>
    <tag k="name:fi" v="Kiova"/>
    <tag k="name:fr" v="Kiev"/>
    <tag k="name:he" v="קייב"/>
    <tag k="name:hr" v="Kijev"/>
    <tag k="name:hu" v="Kijev"/>
    <tag k="name:is" v="Kíev"/>
    <tag k="name:it" v="Kiev"/>
    <tag k="name:ku" v="Kîev"/>
    <tag k="name:lv" v="Kijeva"/>
    <tag k="name:nl" v="Kiev"/>
    <tag k="name:no" v="Kiev"/>
    <tag k="name:pl" v="Kijów"/>
    <tag k="name:ru" v="Киев"/>
    <tag k="name:sk" v="Kyjev"/>
    <tag k="name:sl" v="Kijev"/>
    <tag k="name:sr" v="Кијев"/>
    <tag k="name:sv" v="Kiev"/>
    <tag k="name:uk" v="Київ"/>
    <tag k="name:vi" v="Kiev"/>
    <tag k="place" v="city"/>
    <tag k="population" v="2815900"/>
    <tag k="rank" v="10"/>
    <tag k="wikipedia" v="uk:Київ"/>
    <tag k="wikipedia:ru" v="Киев"/>
  </node>
  <node id="26150422" version="46" timestamp="2012-07-20T06:42:11Z" uid="722137" user="OSMF Redaction Account" changeset="12364370" lat="50.4499875" lon="30.5234937">
    <tag k="addr:postcode" v="01000-06999"/>
    <tag k="alt_name:en" v="Kiev"/>
    <tag k="alt_name:vi" v="Kyiv"/>
    <tag k="capital" v="yes"/>
    <tag k="koatuu" v="8000000000"/>
    <tag k="name" v="Київ"/>
    <tag k="name:ar" v="كييف"/>
    <tag k="name:ast" v="Kiev"/>
    <tag k="name:be" v="Кіеў"/>
    <tag k="name:cs" v="Kyjev"/>
    <tag k="name:de" v="Kiew"/>
    <tag k="name:el" v="Κίεβο"/>
    <tag k="name:en" v="Kyiv"/>
    <tag k="name:eo" v="Kievo"/>
    <tag k="name:es" v="Kiev"/>
    <tag k="name:et" v="Kiiev"/>
    <tag k="name:fa" v="کیف"/>
    <tag k="name:fi" v="Kiova"/>
    <tag k="name:fr" v="Kiev"/>
    <tag k="name:he" v="קייב"/>
    <tag k="name:hr" v="Kijev"/>
    <tag k="name:hu" v="Kijev"/>
    <tag k="name:is" v="Kíev"/>
    <tag k="name:it" v="Kiev"/>
    <tag k="name:ku" v="Kîev"/>
    <tag k="name:lv" v="Kijeva"/>
    <tag k="name:nl" v="Kiev"/>
    <tag k="name:no" v="Kiev"/>
    <tag k="name:pl" v="Kijów"/>
    <tag k="name:ru" v="Киев"/>
    <tag k="name:sk" v="Kyjev"/>
    <tag k="name:sl" v="Kijev"/>
    <tag k="name:sr" v="Кијев"/>
    <tag k="name:sv" v="Kiev"/>
    <tag k="name:uk" v="Київ"/>
    <tag k="name:vi" v="Kiev"/>
    <tag k="place" v="city"/>
    <tag k="population" v="2815900"/>
    <tag k="rank" v="10"/>
    <tag k="wikipedia" v="uk:Київ"/>
    <tag k="wikipedia:ru" v="Киев"/>
  </node>
  <node id="26150422" version="47" timestamp="2012-08-30T13:05:49Z" uid="166969" user="occcy" changeset="12917802" lat="50.4499875" lon="30.5234937">
    <tag k="addr:postcode" v="01000-06999"/>
    <tag k="admin_level" v="2"/>
    <tag k="alt_name:en" v="Kiev"/>
    <tag k="alt_name:vi" v="Kyiv"/>
    <tag k="capital" v="yes"/>
    <tag k="koatuu" v="8000000000"/>
    <tag k="name" v="Київ"/>
    <tag k="name:ar" v="كييف"/>
    <tag k="name:ast" v="Kiev"/>
    <tag k="name:be" v="Кіеў"/>
    <tag k="name:cs" v="Kyjev"/>
    <tag k="name:de" v="Kiew"/>
    <tag k="name:el" v="Κίεβο"/>
    <tag k="name:en" v="Kyiv"/>
    <tag k="name:eo" v="Kievo"/>
    <tag k="name:es" v="Kiev"/>
    <tag k="name:et" v="Kiiev"/>
    <tag k="name:fa" v="کیف"/>
    <tag k="name:fi" v="Kiova"/>
    <tag k="name:fr" v="Kiev"/>
    <tag k="name:he" v="קייב"/>
    <tag k="name:hr" v="Kijev"/>
    <tag k="name:hu" v="Kijev"/>
    <tag k="name:is" v="Kíev"/>
    <tag k="name:it" v="Kiev"/>
    <tag k="name:ku" v="Kîev"/>
    <tag k="name:lv" v="Kijeva"/>
    <tag k="name:nl" v="Kiev"/>
    <tag k="name:no" v="Kiev"/>
    <tag k="name:pl" v="Kijów"/>
    <tag k="name:ru" v="Киев"/>
    <tag k="name:sk" v="Kyjev"/>
    <tag k="name:sl" v="Kijev"/>
    <tag k="name:sr" v="Кијев"/>
    <tag k="name:sv" v="Kiev"/>
    <tag k="name:uk" v="Київ"/>
    <tag k="name:vi" v="Kiev"/>
    <tag k="place" v="city"/>
    <tag k="population" v="2815900"/>
    <tag k="rank" v="10"/>
    <tag k="wikipedia" v="uk:Київ"/>
    <tag k="wikipedia:ru" v="Киев"/>
  </node>
  <node id="26151767" version="4" timestamp="2012-04-06T13:25:48Z" uid="6390" user="grenzdebil_bonn" changeset="11201698" lat="50.9754435" lon="7.529488"/>
  <node id="26151769" version="4" timestamp="2012-04-06T13:25:48Z" uid="6390" user="grenzdebil_bonn" changeset="11201698" lat="50.9759581" lon="7.5305365"/>
  <node id="26151776" version="7" timestamp="2012-07-18T10:24:30Z" uid="722137" user="OSMF Redaction Account" changeset="12277869" lat="50.9759687" lon="7.537365"/>
  <node id="26151777" version="5" timestamp="2012-07-18T10:24:29Z" uid="722137" user="OSMF Redaction Account" changeset="12277869" lat="50.9758712" lon="7.5372987"/>
  <node id="26151788" version="2" timestamp="2012-04-06T13:25:55Z" uid="6390" user="grenzdebil_bonn" changeset="11201698" lat="50.9782647" lon="7.5443972"/>
  <node id="26151790" version="2" timestamp="2012-04-06T13:25:55Z" uid="6390" user="grenzdebil_bonn" changeset="11201698" lat="50.9791353" lon="7.5444601"/>
  <node id="26151792" version="2" timestamp="2012-04-06T13:25:56Z" uid="6390" user="grenzdebil_bonn" changeset="11201698" lat="50.9799832" lon="7.544217"/>
  <node id="26151793" version="3" timestamp="2012-04-06T13:25:48Z" uid="6390" user="grenzdebil_bonn" changeset="11201698" lat="50.9807244" lon="7.5436563"/>
  <node id="26151796" version="2" timestamp="2012-04-06T13:25:56Z" uid="6390" user="grenzdebil_bonn" changeset="11201698" lat="50.9816374" lon="7.5438915"/>
  <node id="26151797" version="3" timestamp="2012-04-06T13:25:48Z" uid="6390" user="grenzdebil_bonn" changeset="11201698" lat="50.9826636" lon="7.5442891"/>
  <node id="26151798" version="2" timestamp="2012-04-06T13:25:56Z" uid="6390" user="grenzdebil_bonn" changeset="11201698" lat="50.982666" lon="7.5444871"/>
  <node id="26151799" version="2" timestamp="2012-04-06T13:25:56Z" uid="6390" user="grenzdebil_bonn" changeset="11201698" lat="50.9837887" lon="7.5456775"/>
  <node id="26151800" version="6" timestamp="2012-07-16T13:53:14Z" uid="244289" user="Win32netsky" changeset="12245440" lat="50.9837227" lon="7.5458725">
    <tag k="highway" v="motorway_junction"/>
    <tag k="name" v="Ausfahrt zur Vollmerhauser Straße"/>
    <tag k="TMC:cid_58:tabcd_1:Class" v="Point"/>
    <tag k="TMC:cid_58:tabcd_1:LCLversion" v="9.00"/>
    <tag k="TMC:cid_58:tabcd_1:LocationCode" v="55833"/>
    <tag k="TMC:cid_58:tabcd_1:NextLocationCode" v="39738"/>
    <tag k="TMC:cid_58:tabcd_1:PrevLocationCode" v="39737"/>
  </node>
  <node id="26151802" version="4" timestamp="2012-04-06T13:25:56Z" uid="6390" user="grenzdebil_bonn" changeset="11201698" lat="50.9845543" lon="7.5470983"/>
  <node id="26151803" version="2" timestamp="2012-04-06T13:25:56Z" uid="6390" user="grenzdebil_bonn" changeset="11201698" lat="50.9857502" lon="7.547896"/>
  <node id="26151804" version="3" timestamp="2012-04-06T13:25:56Z" uid="6390" user="grenzdebil_bonn" changeset="11201698" lat="50.9857096" lon="7.5481138"/>
  <node id="26151805" version="2" timestamp="2012-04-06T13:25:57Z" uid="6390" user="grenzdebil_bonn" changeset="11201698" lat="50.9866295" lon="7.5482482"/>
  <node id="26151806" version="3" timestamp="2012-04-06T13:25:57Z" uid="6390" user="grenzdebil_bonn" changeset="11201698" lat="50.9866478" lon="7.548466"/>
  <node id="26151807" version="3" timestamp="2012-07-16T13:53:15Z" uid="244289" user="Win32netsky" changeset="12245440" lat="50.9845293" lon="7.5472494"/>
  <node id="26151808" version="2" timestamp="2012-04-06T13:25:57Z" uid="6390" user="grenzdebil_bonn" changeset="11201698" lat="50.9850872" lon="7.5478996"/>
  <node id="26151809" version="2" timestamp="2012-04-06T13:25:57Z" uid="6390" user="grenzdebil_bonn" changeset="11201698" lat="50.9857191" lon="7.5483304"/>
  <node id="26151811" version="3" timestamp="2012-04-06T13:25:48Z" uid="6390" user="grenzdebil_bonn" changeset="11201698" lat="50.9864903" lon="7.5481325"/>
  <node id="26151812" version="2" timestamp="2012-04-06T13:25:57Z" uid="6390" user="grenzdebil_bonn" changeset="11201698" lat="50.9857957" lon="7.5476602"/>
  <node id="26151813" version="3" timestamp="2012-04-06T13:25:48Z" uid="6390" user="grenzdebil_bonn" changeset="11201698" lat="50.9850609" lon="7.5472257"/>
  <node id="26151814" version="2" timestamp="2012-04-06T13:25:57Z" uid="6390" user="grenzdebil_bonn" changeset="11201698" lat="50.9844361" lon="7.5465208"/>
  <node id="26151815" version="2" timestamp="2012-04-06T13:25:58Z" uid="6390" user="grenzdebil_bonn" changeset="11201698" lat="50.987875" lon="7.5483217"/>
  <node id="26151816" version="3" timestamp="2012-04-06T13:25:58Z" uid="6390" user="grenzdebil_bonn" changeset="11201698" lat="50.9878542" lon="7.5485537"/>
  <node id="26151817" version="2" timestamp="2012-04-06T13:25:58Z" uid="6390" user="grenzdebil_bonn" changeset="11201698" lat="50.988783" lon="7.5485602"/>
  <node id="26151819" version="2" timestamp="2012-04-06T13:25:58Z" uid="6390" user="grenzdebil_bonn" changeset="11201698" lat="50.9895489" lon="7.5491443"/>
  <node id="26151820" version="3" timestamp="2012-04-06T13:25:48Z" uid="6390" user="grenzdebil_bonn" changeset="11201698" lat="50.9891394" lon="7.5489632"/>
  <node id="26151821" version="2" timestamp="2012-04-06T13:25:59Z" uid="6390" user="grenzdebil_bonn" changeset="11201698" lat="50.9905447" lon="7.5503411"/>
  <node id="26151822" version="2" timestamp="2012-04-06T13:25:59Z" uid="6390" user="grenzdebil_bonn" changeset="11201698" lat="50.9904011" lon="7.550456"/>
  <node id="26151823" version="2" timestamp="2012-04-06T13:25:59Z" uid="6390" user="grenzdebil_bonn" changeset="11201698" lat="50.991617" lon="7.5511062"/>
  <node id="26151824" version="2" timestamp="2012-04-06T13:26:00Z" uid="6390" user="grenzdebil_bonn" changeset="11201698" lat="50.9915337" lon="7.5513336"/>
  <node id="26151825" version="2" timestamp="2012-04-06T13:26:00Z" uid="6390" user="grenzdebil_bonn" changeset="11201698" lat="50.9926032" lon="7.5511637"/>
  <node id="26151826" version="2" timestamp="2012-04-06T13:26:00Z" uid="6390" user="grenzdebil_bonn" changeset="11201698" lat="50.9926415" lon="7.5514118"/>
  <node id="26151827" version="2" timestamp="2012-04-06T13:26:00Z" uid="6390" user="grenzdebil_bonn" changeset="11201698" lat="50.9940777" lon="7.5506188"/>
  <node id="26151828" version="6" timestamp="2012-04-06T13:26:00Z" uid="6390" user="grenzdebil_bonn" changeset="11201698" lat="50.9941543" lon="7.5508964"/>
  <node id="26151829" version="2" timestamp="2012-04-06T13:26:00Z" uid="6390" user="grenzdebil_bonn" changeset="11201698" lat="50.9931585" lon="7.5510113"/>
  <node id="26151830" version="2" timestamp="2012-04-06T13:26:00Z" uid="6390" user="grenzdebil_bonn" changeset="11201698" lat="50.9932926" lon="7.5512507"/>
  <node id="26151831" version="5" timestamp="2012-04-06T13:26:01Z" uid="6390" user="grenzdebil_bonn" changeset="11201698" lat="50.994575" lon="7.5503843"/>
  <node id="26151832" version="2" timestamp="2012-04-06T13:26:01Z" uid="6390" user="grenzdebil_bonn" changeset="11201698" lat="50.9946537" lon="7.5506562"/>
  <node id="26151833" version="2" timestamp="2012-04-06T13:26:01Z" uid="6390" user="grenzdebil_bonn" changeset="11201698" lat="50.9939525" lon="7.5512072"/>
  <node id="26151834" version="2" timestamp="2012-04-06T13:26:01Z" uid="6390" user="grenzdebil_bonn" changeset="11201698" lat="50.9934731" lon="7.5515363"/>
  <node id="26151835" version="2" timestamp="2012-04-06T13:26:01Z" uid="6390" user="grenzdebil_bonn" changeset="11201698" lat="50.9928864" lon="7.5517581"/>
  <node id="26151836" version="2" timestamp="2012-04-06T13:26:02Z" uid="6390" user="grenzdebil_bonn" changeset="11201698" lat="50.9950115" lon="7.550184"/>
  <node id="26151837" version="2" timestamp="2012-04-06T13:26:02Z" uid="6390" user="grenzdebil_bonn" changeset="11201698" lat="50.995083" lon="7.5504702"/>
  <node id="26151838" version="2" timestamp="2012-04-06T13:26:02Z" uid="6390" user="grenzdebil_bonn" changeset="11201698" lat="50.9956912" lon="7.5500337"/>
  <node id="26151839" version="2" timestamp="2012-04-06T13:26:02Z" uid="6390" user="grenzdebil_bonn" changeset="11201698" lat="50.9957198" lon="7.5502555"/>
  <node id="26151840" version="3" timestamp="2012-04-06T13:26:02Z" uid="6390" user="grenzdebil_bonn" changeset="11201698" lat="50.9960912" lon="7.5500256"/>
  <node id="26151841" version="3" timestamp="2012-04-06T13:26:02Z" uid="6390" user="grenzdebil_bonn" changeset="11201698" lat="50.9959554" lon="7.550191"/>
  <node id="26151842" version="3" timestamp="2012-04-06T13:26:03Z" uid="6390" user="grenzdebil_bonn" changeset="11201698" lat="50.9963126" lon="7.5500717"/>
  <node id="26151843" version="2" timestamp="2012-04-06T13:26:03Z" uid="6390" user="grenzdebil_bonn" changeset="11201698" lat="50.997825" lon="7.5507026"/>
  <node id="26151844" version="4" timestamp="2012-04-06T13:25:48Z" uid="6390" user="grenzdebil_bonn" changeset="11201698" lat="50.9987059" lon="7.5514664"/>
  <node id="26151845" version="4" timestamp="2012-04-06T13:25:49Z" uid="6390" user="grenzdebil_bonn" changeset="11201698" lat="50.999533" lon="7.5521702"/>
  <node id="26151853" version="3" timestamp="2012-04-06T13:25:49Z" uid="6390" user="grenzdebil_bonn" changeset="11201698" lat="51.006601" lon="7.5581437"/>
  <node id="26151854" version="3" timestamp="2012-04-06T13:25:49Z" uid="6390" user="grenzdebil_bonn" changeset="11201698" lat="51.0070388" lon="7.5579803"/>
  <node id="26151855" version="2" timestamp="2012-04-06T13:26:03Z" uid="6390" user="grenzdebil_bonn" changeset="11201698" lat="51.0093633" lon="7.5568423"/>
  <node id="26151856" version="2" timestamp="2012-04-06T13:26:03Z" uid="6390" user="grenzdebil_bonn" changeset="11201698" lat="51.0100891" lon="7.5567213"/>
  <node id="26151858" version="2" timestamp="2012-04-06T13:26:03Z" uid="6390" user="grenzdebil_bonn" changeset="11201698" lat="51.012055" lon="7.5570237"/>
  <node id="26151859" version="2" timestamp="2012-07-18T18:42:18Z" uid="722137" user="OSMF Redaction Account" changeset="12293116" lat="51.0122516" lon="7.5574623"/>
  <node id="26151860" version="2" timestamp="2012-04-06T13:26:03Z" uid="6390" user="grenzdebil_bonn" changeset="11201698" lat="51.0125087" lon="7.5571447"/>
  <node id="26151861" version="2" timestamp="2012-07-18T18:42:17Z" uid="722137" user="OSMF Redaction Account" changeset="12293116" lat="51.0121867" lon="7.5577273"/>
  <node id="26151862" version="2" timestamp="2012-07-18T18:42:17Z" uid="722137" user="OSMF Redaction Account" changeset="12293116" lat="51.011908" lon="7.5580928"/>
  <node id="26151863" version="2" timestamp="2012-07-18T18:42:17Z" uid="722137" user="OSMF Redaction Account" changeset="12293116" lat="51.011462" lon="7.558545"/>
  <node id="26151864" version="2" timestamp="2012-07-18T18:42:17Z" uid="722137" user="OSMF Redaction Account" changeset="12293116" lat="51.0112576" lon="7.5591767"/>
  <node id="26151865" version="3" timestamp="2012-07-18T18:42:17Z" uid="722137" user="OSMF Redaction Account" changeset="12293116" lat="51.0112886" lon="7.5598271"/>
  <node id="26151866" version="2" timestamp="2012-07-18T18:42:17Z" uid="722137" user="OSMF Redaction Account" changeset="12293116" lat="51.0115411" lon="7.5603144"/>
  <node id="26151867" version="2" timestamp="2012-07-18T18:42:17Z" uid="722137" user="OSMF Redaction Account" changeset="12293116" lat="51.01127" lon="7.560812"/>
  <node id="26151868" version="2" timestamp="2012-07-18T18:42:16Z" uid="722137" user="OSMF Redaction Account" changeset="12293116" lat="51.0111151" lon="7.5612951"/>
  <node id="26151869" version="2" timestamp="2012-07-18T18:42:16Z" uid="722137" user="OSMF Redaction Account" changeset="12293116" lat="51.0110913" lon="7.5616028"/>
  <node id="26151870" version="2" timestamp="2012-07-18T18:42:17Z" uid="722137" user="OSMF Redaction Account" changeset="12293116" lat="51.0112122" lon="7.5619161"/>
  <node id="26151872" version="2" timestamp="2012-07-18T18:42:17Z" uid="722137" user="OSMF Redaction Account" changeset="12293116" lat="51.0113167" lon="7.5620047"/>
  <node id="26151873" version="2" timestamp="2012-07-18T18:42:17Z" uid="722137" user="OSMF Redaction Account" changeset="12293116" lat="51.0114219" lon="7.5622956"/>
  <node id="26151874" version="2" timestamp="2012-07-18T18:42:17Z" uid="722137" user="OSMF Redaction Account" changeset="12293116" lat="51.0119575" lon="7.5622986"/>
  <node id="26151875" version="2" timestamp="2012-07-18T18:42:18Z" uid="722137" user="OSMF Redaction Account" changeset="12293116" lat="51.0123478" lon="7.5615119"/>
  <node id="26151876" version="2" timestamp="2012-07-18T18:42:18Z" uid="722137" user="OSMF Redaction Account" changeset="12293116" lat="51.0126017" lon="7.5612703"/>
  <node id="26151877" version="2" timestamp="2012-07-18T18:42:16Z" uid="722137" user="OSMF Redaction Account" changeset="12293116" lat="51.0110098" lon="7.5621313"/>
  <node id="26151878" version="2" timestamp="2012-07-18T18:42:16Z" uid="722137" user="OSMF Redaction Account" changeset="12293116" lat="51.0106815" lon="7.5621375"/>
  <node id="26151879" version="2" timestamp="2012-07-18T18:38:18Z" uid="722137" user="OSMF Redaction Account" changeset="12292931" lat="51.0106738" lon="7.5626061"/>
  <node id="26151880" version="2" timestamp="2012-07-18T18:42:16Z" uid="722137" user="OSMF Redaction Account" changeset="12293116" lat="51.0105515" lon="7.5621004"/>
  <node id="26151881" version="2" timestamp="2012-07-18T18:42:16Z" uid="722137" user="OSMF Redaction Account" changeset="12293116" lat="51.0105701" lon="7.5604837"/>
  <node id="26151882" version="2" timestamp="2012-07-18T18:42:16Z" uid="722137" user="OSMF Redaction Account" changeset="12293116" lat="51.010186" lon="7.560428"/>
  <node id="26151883" version="2" timestamp="2012-07-18T18:42:16Z" uid="722137" user="OSMF Redaction Account" changeset="12293116" lat="51.0101303" lon="7.5620942"/>
  <node id="26151884" version="2" timestamp="2012-07-18T18:42:18Z" uid="722137" user="OSMF Redaction Account" changeset="12293116" lat="51.012307" lon="7.560439"/>
  <node id="26151885" version="2" timestamp="2012-07-18T18:42:18Z" uid="722137" user="OSMF Redaction Account" changeset="12293116" lat="51.0126437" lon="7.5605743"/>
  <node id="26151886" version="2" timestamp="2012-07-18T18:42:18Z" uid="722137" user="OSMF Redaction Account" changeset="12293116" lat="51.0130959" lon="7.5611472"/>
  <node id="26151887" version="2" timestamp="2012-07-18T18:42:18Z" uid="722137" user="OSMF Redaction Account" changeset="12293116" lat="51.0133455" lon="7.562176"/>
  <node id="26151888" version="2" timestamp="2012-07-18T18:38:20Z" uid="722137" user="OSMF Redaction Account" changeset="12292931" lat="51.0136563" lon="7.5627354"/>
  <node id="26151889" version="2" timestamp="2012-07-18T18:38:21Z" uid="722137" user="OSMF Redaction Account" changeset="12292931" lat="51.014085" lon="7.5636356"/>
  <node id="26151891" version="4" timestamp="2012-07-18T18:38:11Z" uid="722137" user="OSMF Redaction Account" changeset="12292931" lat="51.0143263" lon="7.5658145"/>
  <node id="26151891" version="5" timestamp="2012-07-22T13:44:15Z" uid="238898" user="BlueG" changeset="12433170" lat="51.0143383" lon="7.5658251"/>
  <node id="26151892" version="2" timestamp="2012-07-18T18:38:20Z" uid="722137" user="OSMF Redaction Account" changeset="12292931" lat="51.0138267" lon="7.5658389"/>
  <node id="26151893" version="2" timestamp="2012-07-18T18:38:20Z" uid="722137" user="OSMF Redaction Account" changeset="12292931" lat="51.0136329" lon="7.5656651"/>
  <node id="26151894" version="2" timestamp="2012-07-18T18:38:20Z" uid="722137" user="OSMF Redaction Account" changeset="12292931" lat="51.0134658" lon="7.5652841"/>
  <node id="26151895" version="2" timestamp="2012-07-18T18:38:20Z" uid="722137" user="OSMF Redaction Account" changeset="12292931" lat="51.0129511" lon="7.5634861"/>
  <node id="26151896" version="2" timestamp="2012-07-18T18:38:20Z" uid="722137" user="OSMF Redaction Account" changeset="12292931" lat="51.0127305" lon="7.5632521"/>
  <node id="26151897" version="2" timestamp="2012-07-18T18:38:20Z" uid="722137" user="OSMF Redaction Account" changeset="12292931" lat="51.0124932" lon="7.5633282"/>
  <node id="26151898" version="2" timestamp="2012-07-18T18:38:19Z" uid="722137" user="OSMF Redaction Account" changeset="12292931" lat="51.0119854" lon="7.5639139"/>
  <node id="26151899" version="2" timestamp="2012-07-18T18:38:19Z" uid="722137" user="OSMF Redaction Account" changeset="12292931" lat="51.0117012" lon="7.5640409"/>
  <node id="26151900" version="2" timestamp="2012-07-18T18:38:19Z" uid="722137" user="OSMF Redaction Account" changeset="12292931" lat="51.0114271" lon="7.5640275"/>
  <node id="26151901" version="2" timestamp="2012-07-18T18:38:19Z" uid="722137" user="OSMF Redaction Account" changeset="12292931" lat="51.0115073" lon="7.5645622"/>
  <node id="26151902" version="2" timestamp="2012-07-18T18:38:19Z" uid="722137" user="OSMF Redaction Account" changeset="12292931" lat="51.0121958" lon="7.5648697"/>
  <node id="26151903" version="2" timestamp="2012-07-18T18:38:19Z" uid="722137" user="OSMF Redaction Account" changeset="12292931" lat="51.012403" lon="7.5652039"/>
  <node id="26151904" version="2" timestamp="2012-07-18T18:38:20Z" uid="722137" user="OSMF Redaction Account" changeset="12292931" lat="51.0127439" lon="7.5659659"/>
  <node id="26151905" version="2" timestamp="2012-07-18T18:38:20Z" uid="722137" user="OSMF Redaction Account" changeset="12292931" lat="51.0127773" lon="7.5663469"/>
  <node id="26151906" version="2" timestamp="2012-07-18T18:38:19Z" uid="722137" user="OSMF Redaction Account" changeset="12292931" lat="51.0123798" lon="7.5669432"/>
  <node id="26151907" version="2" timestamp="2012-07-18T18:38:18Z" uid="722137" user="OSMF Redaction Account" changeset="12292931" lat="51.0109474" lon="7.5639492"/>
  <node id="26151908" version="2" timestamp="2012-07-18T18:38:18Z" uid="722137" user="OSMF Redaction Account" changeset="12292931" lat="51.0107166" lon="7.5638243"/>
  <node id="26151909" version="2" timestamp="2012-07-18T18:38:18Z" uid="722137" user="OSMF Redaction Account" changeset="12292931" lat="51.0104176" lon="7.5635443"/>
  <node id="26151910" version="2" timestamp="2012-07-18T18:38:17Z" uid="722137" user="OSMF Redaction Account" changeset="12292931" lat="51.0102125" lon="7.5635838"/>
  <node id="26151911" version="2" timestamp="2012-07-18T18:38:17Z" uid="722137" user="OSMF Redaction Account" changeset="12292931" lat="51.0099391" lon="7.564214"/>
  <node id="26151912" version="2" timestamp="2012-07-18T18:38:16Z" uid="722137" user="OSMF Redaction Account" changeset="12292931" lat="51.0095388" lon="7.5643293"/>
  <node id="26151913" version="2" timestamp="2012-07-18T18:38:16Z" uid="722137" user="OSMF Redaction Account" changeset="12292931" lat="51.0091072" lon="7.5645386"/>
  <node id="26151914" version="2" timestamp="2012-07-18T18:38:17Z" uid="722137" user="OSMF Redaction Account" changeset="12292931" lat="51.0096663" lon="7.5650646"/>
  <node id="26151915" version="2" timestamp="2012-07-18T18:38:17Z" uid="722137" user="OSMF Redaction Account" changeset="12292931" lat="51.0096268" lon="7.565323"/>
  <node id="26151916" version="2" timestamp="2012-07-18T18:38:17Z" uid="722137" user="OSMF Redaction Account" changeset="12292931" lat="51.0097555" lon="7.5654114"/>
  <node id="26151917" version="2" timestamp="2012-07-18T18:38:17Z" uid="722137" user="OSMF Redaction Account" changeset="12292931" lat="51.0097946" lon="7.5651751"/>
  <node id="26151918" version="2" timestamp="2012-07-18T18:38:17Z" uid="722137" user="OSMF Redaction Account" changeset="12292931" lat="51.010134" lon="7.5651403"/>
  <node id="26151919" version="2" timestamp="2012-07-18T18:38:17Z" uid="722137" user="OSMF Redaction Account" changeset="12292931" lat="51.0104021" lon="7.5652188"/>
  <node id="26151920" version="2" timestamp="2012-07-18T18:38:18Z" uid="722137" user="OSMF Redaction Account" changeset="12292931" lat="51.0106506" lon="7.5646302"/>
  <node id="26151921" version="2" timestamp="2012-07-18T18:38:16Z" uid="722137" user="OSMF Redaction Account" changeset="12292931" lat="51.0091265" lon="7.5655002"/>
  <node id="26151922" version="2" timestamp="2012-07-18T18:38:18Z" uid="722137" user="OSMF Redaction Account" changeset="12292931" lat="51.0109646" lon="7.5657027"/>
  <node id="26151923" version="2" timestamp="2012-07-18T18:38:17Z" uid="722137" user="OSMF Redaction Account" changeset="12292931" lat="51.0098126" lon="7.5660749"/>
  <node id="26151924" version="2" timestamp="2012-07-18T18:38:17Z" uid="722137" user="OSMF Redaction Account" changeset="12292931" lat="51.0097109" lon="7.5668434"/>
  <node id="26151925" version="2" timestamp="2012-07-18T18:38:17Z" uid="722137" user="OSMF Redaction Account" changeset="12292931" lat="51.0098917" lon="7.5673067"/>
  <node id="26151926" version="2" timestamp="2012-07-18T18:38:18Z" uid="722137" user="OSMF Redaction Account" changeset="12292931" lat="51.0108975" lon="7.5671937"/>
  <node id="26151927" version="2" timestamp="2012-07-18T18:38:16Z" uid="722137" user="OSMF Redaction Account" changeset="12292931" lat="51.0094509" lon="7.5678718"/>
  <node id="26151928" version="2" timestamp="2012-07-18T18:38:16Z" uid="722137" user="OSMF Redaction Account" changeset="12292931" lat="51.0092396" lon="7.5673872"/>
  <node id="26151929" version="2" timestamp="2012-07-18T18:38:16Z" uid="722137" user="OSMF Redaction Account" changeset="12292931" lat="51.0090371" lon="7.5673698"/>
  <node id="26151930" version="2" timestamp="2012-07-18T18:38:16Z" uid="722137" user="OSMF Redaction Account" changeset="12292931" lat="51.0089794" lon="7.5666011"/>
  <node id="26151931" version="2" timestamp="2012-07-18T18:38:20Z" uid="722137" user="OSMF Redaction Account" changeset="12292931" lat="51.0124935" lon="7.5656497"/>
  <node id="26151932" version="2" timestamp="2012-07-18T18:38:20Z" uid="722137" user="OSMF Redaction Account" changeset="12292931" lat="51.0139155" lon="7.5627167"/>
  <node id="26151934" version="2" timestamp="2012-07-18T18:38:23Z" uid="722137" user="OSMF Redaction Account" changeset="12292931" lat="51.0147744" lon="7.5635072"/>
  <node id="26151935" version="2" timestamp="2012-07-18T18:38:23Z" uid="722137" user="OSMF Redaction Account" changeset="12292931" lat="51.0148968" lon="7.5637458"/>
  <node id="26151936" version="2" timestamp="2012-07-18T18:38:23Z" uid="722137" user="OSMF Redaction Account" changeset="12292931" lat="51.0151089" lon="7.564769"/>
  <node id="26151937" version="2" timestamp="2012-07-18T18:38:23Z" uid="722137" user="OSMF Redaction Account" changeset="12292931" lat="51.0149443" lon="7.5652832"/>
  <node id="26151938" version="2" timestamp="2012-07-18T18:38:22Z" uid="722137" user="OSMF Redaction Account" changeset="12292931" lat="51.0144704" lon="7.5642825"/>
  <node id="26151939" version="2" timestamp="2012-07-18T18:38:23Z" uid="722137" user="OSMF Redaction Account" changeset="12292931" lat="51.0154205" lon="7.5649863"/>
  <node id="26151940" version="2" timestamp="2012-07-18T18:38:24Z" uid="722137" user="OSMF Redaction Account" changeset="12292931" lat="51.0157625" lon="7.5649286"/>
  <node id="26151941" version="2" timestamp="2012-07-18T18:38:24Z" uid="722137" user="OSMF Redaction Account" changeset="12292931" lat="51.0160286" lon="7.5643966"/>
  <node id="26151943" version="2" timestamp="2012-07-18T18:38:24Z" uid="722137" user="OSMF Redaction Account" changeset="12292931" lat="51.0161502" lon="7.5660308"/>
  <node id="26151944" version="3" timestamp="2012-07-18T18:38:24Z" uid="722137" user="OSMF Redaction Account" changeset="12292931" lat="51.0159146" lon="7.5660992"/>
  <node id="26151945" version="2" timestamp="2012-07-18T18:38:23Z" uid="722137" user="OSMF Redaction Account" changeset="12292931" lat="51.0148808" lon="7.5658255"/>
  <node id="26151946" version="2" timestamp="2012-04-06T13:26:04Z" uid="6390" user="grenzdebil_bonn" changeset="11201698" lat="50.9924184" lon="7.552055"/>
  <node id="26151947" version="2" timestamp="2012-04-06T13:26:04Z" uid="6390" user="grenzdebil_bonn" changeset="11201698" lat="50.9908146" lon="7.5533042"/>
  <node id="26151948" version="2" timestamp="2012-07-16T13:53:15Z" uid="244289" user="Win32netsky" changeset="12245440" lat="50.9903222" lon="7.5535703"/>
  <node id="26151950" version="2" timestamp="2012-07-16T13:53:15Z" uid="244289" user="Win32netsky" changeset="12245440" lat="50.9898602" lon="7.5535394"/>
  <node id="26151951" version="2" timestamp="2012-04-06T13:26:04Z" uid="6390" user="grenzdebil_bonn" changeset="11201698" lat="51.0130113" lon="7.557361"/>
  <node id="26151952" version="8" timestamp="2012-04-06T13:26:05Z" uid="6390" user="grenzdebil_bonn" changeset="11201698" lat="51.0137776" lon="7.5580359"/>
  <node id="26151953" version="2" timestamp="2012-04-06T13:26:05Z" uid="6390" user="grenzdebil_bonn" changeset="11201698" lat="51.0143699" lon="7.5582626"/>
  <node id="26151954" version="2" timestamp="2012-04-06T13:26:05Z" uid="6390" user="grenzdebil_bonn" changeset="11201698" lat="51.0151767" lon="7.558173"/>
  <node id="26151955" version="2" timestamp="2012-04-06T13:26:05Z" uid="6390" user="grenzdebil_bonn" changeset="11201698" lat="51.0169853" lon="7.5570534"/>
  <node id="26151956" version="2" timestamp="2012-07-18T18:42:18Z" uid="722137" user="OSMF Redaction Account" changeset="12293116" lat="51.0187078" lon="7.5561429"/>
  <node id="26151957" version="2" timestamp="2012-07-18T18:42:18Z" uid="722137" user="OSMF Redaction Account" changeset="12293116" lat="51.0196674" lon="7.5558969"/>
  <node id="26151958" version="2" timestamp="2012-07-18T18:42:19Z" uid="722137" user="OSMF Redaction Account" changeset="12293116" lat="51.0208363" lon="7.5558599"/>
  <node id="26151959" version="2" timestamp="2012-07-18T18:42:19Z" uid="722137" user="OSMF Redaction Account" changeset="12293116" lat="51.0218205" lon="7.5556385"/>
  <node id="26151960" version="2" timestamp="2012-07-18T18:42:19Z" uid="722137" user="OSMF Redaction Account" changeset="12293116" lat="51.0227925" lon="7.5547649"/>
</osm>
