<?xml version='1.0' encoding='UTF-8'?>
<osm version="0.6" generator="libosmium/2.20.0">
  <node id="261830457" version="1" timestamp="2008-05-03T17:45:13Z" uid="36809" user="pfoten_weg_!_" changeset="323953" lat="48.074513" lon="11.4867561"/>
  <node id="261830457" version="2" timestamp="2008-05-05T12:51:28Z" uid="36809" user="pfoten_weg_!_" changeset="339708" lat="48.0746339" lon="11.4868459"/>
  <node id="261830457" version="3" timestamp="2008-05-05T12:51:28Z" uid="36809" user="pfoten_weg_!_" changeset="339708" lat="48.0746339" lon="11.4868459"/>
  <node id="261830457" version="4" timestamp="2008-05-05T12:51:28Z" uid="36809" user="pfoten_weg_!_" changeset="339708" lat="48.0746339" lon="11.4868459"/>
  <node id="261830457" version="5" timestamp="2008-05-05T12:51:28Z" uid="36809" user="pfoten_weg_!_" changeset="339708" lat="48.0746339" lon="11.4868459"/>
  <node id="261830457" version="6" timestamp="2008-05-05T12:51:28Z" uid="36809" user="pfoten_weg_!_" changeset="339708" lat="48.0746339" lon="11.4868459"/>
  <node id="261830457" version="7" timestamp="2008-05-05T12:51:28Z" uid="36809" user="pfoten_weg_!_" changeset="339708" lat="48.0746339" lon="11.4868459"/>
  <node id="261830457" version="8" timestamp="2008-05-05T12:51:28Z" uid="36809" user="pfoten_weg_!_" changeset="339708" lat="48.0746339" lon="11.4868459"/>
  <node id="261830457" version="9" timestamp="2008-09-13T12:34:19Z" uid="36809" user="pfoten_weg_!_" changeset="620497" lat="48.074634" lon="11.4868464"/>
  <node id="261830457" version="10" timestamp="2008-09-20T03:24:45Z" uid="36809" user="pfoten_weg_!_" changeset="670006" lat="48.074634" lon="11.4868465">
    <tag k="created_by" v="RambaZamba"/>
  </node>
  <node id="261830457" version="11" timestamp="2008-10-01T01:27:50Z" uid="36809" user="pfoten_weg_!_" changeset="5644" lat="48.074634" lon="11.4868465">
    <tag k="created_by" v="RambaZamba"/>
  </node>
  <node id="261830457" version="12" timestamp="2009-02-15T12:44:47Z" uid="36809" user="pfoten_weg_!_" changeset="463903" lat="48.074634" lon="11.4868465">
    <tag k="created_by" v="RambaZamba"/>
    <tag k="source" v="survey"/>
  </node>
  <node id="261830457" version="13" timestamp="2009-08-12T12:41:59Z" uid="156995" user="HampelZamba" changeset="2118306" lat="48.074634" lon="11.4868465">
    <tag k="source" v="survey"/>
  </node>
  <node id="261830457" version="14" timestamp="2009-08-17T16:38:47Z" uid="36809" user="pfoten_weg_!_" changeset="2180099" lat="48.074634" lon="11.4868465">
    <tag k="source" v="survey"/>
  </node>
  <node id="261830458" version="1" timestamp="2008-05-03T17:45:13Z" uid="36809" user="pfoten_weg_!_" changeset="323953" lat="48.0751495" lon="11.4872195"/>
  <node id="261830458" version="2" timestamp="2008-06-04T10:45:10Z" uid="36809" user="pfoten_weg_!_" changeset="43130" lat="48.0751563" lon="11.4872124"/>
  <node id="261830458" version="3" timestamp="2008-09-13T12:34:19Z" uid="36809" user="pfoten_weg_!_" changeset="620497" lat="48.0751564" lon="11.4872129"/>
  <node id="261830458" version="4" timestamp="2008-09-20T03:24:45Z" uid="36809" user="pfoten_weg_!_" changeset="670006" lat="48.0751564" lon="11.487213">
    <tag k="created_by" v="RambaZamba"/>
  </node>
  <node id="261830458" version="5" timestamp="2008-10-01T01:27:50Z" uid="36809" user="pfoten_weg_!_" changeset="5644" lat="48.0751564" lon="11.487213">
    <tag k="created_by" v="RambaZamba"/>
  </node>
  <node id="261830458" version="6" timestamp="2008-11-08T12:38:05Z" uid="36809" user="pfoten_weg_!_" changeset="717157" lat="48.0751634" lon="11.4872173">
    <tag k="created_by" v="RambaZamba"/>
  </node>
  <node id="261830458" version="7" timestamp="2009-02-15T12:44:47Z" uid="36809" user="pfoten_weg_!_" changeset="463903" lat="48.0751634" lon="11.4872173">
    <tag k="created_by" v="RambaZamba"/>
    <tag k="source" v="survey"/>
  </node>
  <node id="261830458" version="8" timestamp="2009-08-12T12:41:59Z" uid="156995" user="HampelZamba" changeset="2118306" lat="48.0751634" lon="11.4872173">
    <tag k="source" v="survey"/>
  </node>
  <node id="261830458" version="9" timestamp="2009-08-17T16:38:33Z" uid="36809" user="pfoten_weg_!_" changeset="2180099" lat="48.0751634" lon="11.4872173">
    <tag k="source" v="survey"/>
  </node>
  <node id="261830458" version="10" timestamp="2009-10-02T17:35:06Z" uid="86259" user="hasse_osm_korinthenkacker" changeset="2715119" lat="48.0751634" lon="11.4872173"/>
  <node id="261839053" version="5" timestamp="2009-05-01T20:04:16Z" uid="20587" user="balrog-kun" changeset="1041684" lat="50.2231023" lon="18.6670854">
    <tag k="addr:postcode" v="44-190"/>
    <tag k="created_by" v="JOSM"/>
    <tag k="is_in" v="powiat gliwicki, województwo śląskie, Poland"/>
    <tag k="is_in:country" v="Poland"/>
    <tag k="is_in:county" v="powiat gliwicki"/>
    <tag k="is_in:municipality" v="gmina Knurów"/>
    <tag k="is_in:province" v="województwo śląskie"/>
    <tag k="name" v="Knurów"/>
    <tag k="place" v="town"/>
    <tag k="population" v="39328"/>
    <tag k="source:population" v="wikipedia"/>
    <tag k="teryt:rm" v="96"/>
    <tag k="teryt:simc" v="0940849"/>
    <tag k="teryt:stan_na" v="2009-01-01"/>
    <tag k="teryt:terc" v="2405011"/>
    <tag k="teryt:updated_by" v="teryt2osm combine.py v. 36M"/>
    <tag k="wikipedia" v="Knurów"/>
  </node>
  <node id="261839053" version="6" timestamp="2009-05-07T18:45:32Z" uid="115021" user="Jajcuś" changeset="1110433" lat="50.2231023" lon="18.6670854">
    <tag k="addr:postcode" v="44-190"/>
    <tag k="created_by" v="JOSM"/>
    <tag k="is_in" v="powiat gliwicki, województwo śląskie, Poland"/>
    <tag k="is_in:country" v="Poland"/>
    <tag k="is_in:county" v="powiat gliwicki"/>
    <tag k="is_in:province" v="województwo śląskie"/>
    <tag k="name" v="Knurów"/>
    <tag k="place" v="town"/>
    <tag k="population" v="39328"/>
    <tag k="source:population" v="wikipedia"/>
    <tag k="teryt:rm" v="96"/>
    <tag k="teryt:simc" v="0940849"/>
    <tag k="teryt:stan_na" v="2009-01-01"/>
    <tag k="teryt:terc" v="2405011"/>
    <tag k="teryt:updated_by" v="teryt2osm combine.py v. 47M"/>
    <tag k="wikipedia" v="Knurów"/>
  </node>
  <node id="261839053" version="7" timestamp="2009-05-08T18:42:07Z" uid="115021" user="Jajcuś" changeset="1120509" lat="50.2231023" lon="18.6670854">
    <tag k="addr:postcode" v="44-190"/>
    <tag k="created_by" v="JOSM"/>
    <tag k="is_in" v="powiat gliwicki, województwo śląskie, Poland"/>
    <tag k="is_in:country" v="Poland"/>
    <tag k="is_in:county" v="powiat gliwicki"/>
    <tag k="is_in:municipality" v="gmina Knurów"/>
    <tag k="is_in:province" v="województwo śląskie"/>
    <tag k="name" v="Knurów"/>
    <tag k="place" v="town"/>
    <tag k="population" v="39328"/>
    <tag k="source:population" v="wikipedia"/>
    <tag k="teryt:rm" v="96"/>
    <tag k="teryt:simc" v="0940849"/>
    <tag k="teryt:stan_na" v="2009-01-01"/>
    <tag k="teryt:terc" v="2405011"/>
    <tag k="teryt:updated_by" v="teryt2osm combine.py v. 49"/>
    <tag k="wikipedia" v="Knurów"/>
  </node>
  <node id="261839053" version="8" timestamp="2010-04-11T04:38:06Z" uid="20587" user="balrog-kun" changeset="4389130" lat="50.2219676" lon="18.6629588">
    <tag k="addr:postcode" v="44-190"/>
    <tag k="is_in" v="powiat gliwicki, województwo śląskie, Poland"/>
    <tag k="is_in:country" v="Poland"/>
    <tag k="is_in:county" v="powiat gliwicki"/>
    <tag k="is_in:municipality" v="gmina Knurów"/>
    <tag k="is_in:province" v="województwo śląskie"/>
    <tag k="name" v="Knurów"/>
    <tag k="place" v="town"/>
    <tag k="population" v="39328"/>
    <tag k="source:population" v="wikipedia"/>
    <tag k="teryt:rm" v="96"/>
    <tag k="teryt:simc" v="0940849"/>
    <tag k="teryt:stan_na" v="2009-01-01"/>
    <tag k="teryt:terc" v="2405011"/>
    <tag k="teryt:updated_by" v="teryt2osm combine.py v. 49"/>
    <tag k="wikipedia" v="Knurów"/>
  </node>
  <node id="261839053" version="9" timestamp="2012-02-28T15:17:20Z" uid="612000" user="0x1fff" changeset="10819037" lat="50.2216654" lon="18.6707656">
    <tag k="addr:postcode" v="44-190"/>
    <tag k="is_in" v="powiat gliwicki, województwo śląskie, Poland"/>
    <tag k="is_in:country" v="Poland"/>
    <tag k="is_in:county" v="powiat gliwicki"/>
    <tag k="is_in:municipality" v="gmina Knurów"/>
    <tag k="is_in:province" v="województwo śląskie"/>
    <tag k="name" v="Knurów"/>
    <tag k="place" v="town"/>
    <tag k="population" v="39328"/>
    <tag k="source:population" v="wikipedia"/>
    <tag k="teryt:rm" v="96"/>
    <tag k="teryt:simc" v="0940849"/>
    <tag k="teryt:stan_na" v="2009-01-01"/>
    <tag k="teryt:terc" v="2405011"/>
    <tag k="teryt:updated_by" v="teryt2osm combine.py v. 49"/>
    <tag k="wikipedia" v="Knurów"/>
  </node>
  <node id="261839053" version="10" timestamp="2012-02-28T16:39:35Z" uid="467703" user="Zbigniew Czernik" changeset="10820339" lat="50.2216536" lon="18.6706574">
    <tag k="addr:postcode" v="44-190"/>
    <tag k="is_in" v="powiat gliwicki, województwo śląskie, Poland"/>
    <tag k="is_in:country" v="Poland"/>
    <tag k="is_in:county" v="powiat gliwicki"/>
    <tag k="is_in:municipality" v="gmina Knurów"/>
    <tag k="is_in:province" v="województwo śląskie"/>
    <tag k="name" v="Knurów"/>
    <tag k="place" v="town"/>
    <tag k="population" v="39328"/>
    <tag k="source:population" v="wikipedia"/>
    <tag k="teryt:rm" v="96"/>
    <tag k="teryt:simc" v="0940849"/>
    <tag k="teryt:stan_na" v="2009-01-01"/>
    <tag k="teryt:terc" v="2405011"/>
    <tag k="teryt:updated_by" v="teryt2osm combine.py v. 49"/>
    <tag k="wikipedia" v="Knurów"/>
  </node>
  <node id="261830458" version="11" timestamp="2012-06-04T20:14:44Z" uid="8703" user="rolandg" changeset="11800431" lat="48.0751553" lon="11.4871982"/>
  <node id="261839053" version="11" timestamp="2012-04-25T11:29:54Z" uid="115021" user="Jajcuś" changeset="11413740" lat="50.2216536" lon="18.6706574">
    <tag k="addr:postcode" v="44-190"/>
    <tag k="is_in" v="powiat gliwicki, województwo śląskie, Poland"/>
    <tag k="is_in:country" v="Poland"/>
    <tag k="is_in:county" v="powiat gliwicki"/>
    <tag k="is_in:municipality" v="gmina Knurów"/>
    <tag k="is_in:province" v="województwo śląskie"/>
    <tag k="name" v="Knurów"/>
    <tag k="name:szl" v="Knurůw‎"/>
    <tag k="place" v="town"/>
    <tag k="population" v="39328"/>
    <tag k="source:population" v="wikipedia"/>
    <tag k="teryt:rm" v="96"/>
    <tag k="teryt:simc" v="0940849"/>
    <tag k="teryt:stan_na" v="2009-01-01"/>
    <tag k="teryt:terc" v="2405011"/>
    <tag k="teryt:updated_by" v="teryt2osm combine.py v. 49"/>
    <tag k="wikipedia" v="Knurów"/>
  </node>
</osm>
