<?xml version='1.0' encoding='UTF-8'?>
<osm version="0.6" generator="libosmium/2.20.0">
  <node id="264680685" version="11" timestamp="2009-09-01T12:12:08Z" uid="36809" user="pfoten_weg_!_" changeset="2336869" lat="48.1294554" lon="11.6021813">
    <tag k="addr:city" v="München"/>
    <tag k="addr:country" v="DE"/>
    <tag k="addr:email" v="johannes-apo@web.de"/>
    <tag k="addr:housenumber" v="43"/>
    <tag k="addr:postcode" v="81667"/>
    <tag k="addr:street" v="Wörthstraße"/>
    <tag k="amenity" v="pharmacy"/>
    <tag k="name" v="St. Johannes-Apotheke"/>
    <tag k="opening_hours" v="Mo-Fr 08:30-13:00,14:30-18:30; Sa 08:30-12:30"/>
    <tag k="phone" v="+49 89 7916699"/>
    <tag k="website" v="http://www.apotheken.de/clubarea/index.php?fkt=1&amp;idc=18399"/>
  </node>
  <node id="264680685" version="12" timestamp="2010-03-29T09:36:05Z" uid="42393" user="mawi42" changeset="4265613" lat="48.1295021" lon="11.6020909">
    <tag k="addr:city" v="München"/>
    <tag k="addr:country" v="DE"/>
    <tag k="addr:email" v="johannes-apo@web.de"/>
    <tag k="addr:housenumber" v="43"/>
    <tag k="addr:postcode" v="81667"/>
    <tag k="addr:street" v="Wörthstraße"/>
    <tag k="amenity" v="pharmacy"/>
    <tag k="name" v="St. Johannes-Apotheke"/>
    <tag k="opening_hours" v="Mo-Fr 08:30-13:00,14:30-18:30; Sa 08:30-12:30"/>
    <tag k="phone" v="+49 89 7916699"/>
    <tag k="website" v="http://www.apotheken.de/clubarea/index.php?fkt=1&amp;idc=18399"/>
  </node>
  <node id="264680685" version="13" timestamp="2010-03-29T09:46:39Z" uid="42393" user="mawi42" changeset="4265613" lat="48.1295129" lon="11.6021257">
    <tag k="addr:city" v="München"/>
    <tag k="addr:country" v="DE"/>
    <tag k="addr:email" v="johannes-apo@web.de"/>
    <tag k="addr:housenumber" v="43"/>
    <tag k="addr:postcode" v="81667"/>
    <tag k="addr:street" v="Wörthstraße"/>
    <tag k="amenity" v="pharmacy"/>
    <tag k="name" v="St. Johannes-Apotheke"/>
    <tag k="opening_hours" v="Mo-Fr 08:30-13:00,14:30-18:30; Sa 08:30-12:30"/>
    <tag k="phone" v="+49 89 7916699"/>
    <tag k="website" v="http://www.apotheken.de/clubarea/index.php?fkt=1&amp;idc=18399"/>
  </node>
  <node id="264680685" version="14" timestamp="2010-04-15T15:04:58Z" uid="70696" user="xybot" changeset="4431179" lat="48.1295129" lon="11.6021257">
    <tag k="addr:city" v="München"/>
    <tag k="addr:country" v="DE"/>
    <tag k="addr:housenumber" v="43"/>
    <tag k="addr:postcode" v="81667"/>
    <tag k="addr:street" v="Wörthstraße"/>
    <tag k="amenity" v="pharmacy"/>
    <tag k="email" v="johannes-apo@web.de"/>
    <tag k="name" v="St. Johannes-Apotheke"/>
    <tag k="opening_hours" v="Mo-Fr 08:30-13:00,14:30-18:30; Sa 08:30-12:30"/>
    <tag k="phone" v="+49 89 7916699"/>
    <tag k="website" v="http://www.apotheken.de/clubarea/index.php?fkt=1&amp;idc=18399"/>
  </node>
  <node id="264680685" version="15" timestamp="2011-06-24T07:50:37Z" uid="64164" user="osmkurt" changeset="8529659" lat="48.1295129" lon="11.6021257">
    <tag k="addr:city" v="München"/>
    <tag k="addr:country" v="DE"/>
    <tag k="addr:housenumber" v="43"/>
    <tag k="addr:postcode" v="81667"/>
    <tag k="addr:street" v="Wörthstraße"/>
    <tag k="amenity" v="pharmacy"/>
    <tag k="email" v="johannes-apo@web.de"/>
    <tag k="name" v="St. Johannis-Apotheke"/>
    <tag k="opening_hours" v="Mo-Fr 08:30-13:00,14:30-18:30; Sa 08:30-12:30"/>
    <tag k="phone" v="+49 89 7916699"/>
    <tag k="website" v="http://www.apotheken.de/clubarea/index.php?fkt=1&amp;idc=18399"/>
  </node>
  <node id="264680685" version="16" timestamp="2011-11-01T00:32:56Z" uid="64164" user="osmkurt" changeset="9709199" lat="48.1295129" lon="11.6021257">
    <tag k="addr:city" v="München"/>
    <tag k="addr:country" v="DE"/>
    <tag k="addr:housenumber" v="43"/>
    <tag k="addr:postcode" v="81667"/>
    <tag k="addr:street" v="Wörthstraße"/>
    <tag k="amenity" v="pharmacy"/>
    <tag k="email" v="johannes-apo@web.de"/>
    <tag k="name" v="St. Johannis-Apotheke"/>
    <tag k="opening_hours" v="Mo-Fr 08:30-13:00,14:30-18:30; Sa 08:30-12:30"/>
    <tag k="phone" v="+49 89 7916699"/>
  </node>
  <node id="264684313" version="2" timestamp="2009-10-09T18:39:30Z" uid="9581" user="Lobelt" changeset="2797073" lat="50.5287756" lon="11.9646431"/>
  <node id="264684314" version="2" timestamp="2009-10-09T18:39:29Z" uid="9581" user="Lobelt" changeset="2797073" lat="50.5288652" lon="11.964678"/>
  <node id="264684323" version="2" timestamp="2009-10-09T18:39:30Z" uid="9581" user="Lobelt" changeset="2797073" lat="50.5290149" lon="11.9611709"/>
  <node id="264684323" version="3" timestamp="2011-02-21T17:31:28Z" uid="110187" user="socke" changeset="7356028" lat="50.5290064" lon="11.9611977"/>
  <node id="264684324" version="2" timestamp="2009-10-09T18:39:30Z" uid="9581" user="Lobelt" changeset="2797073" lat="50.5289012" lon="11.9605746"/>
  <node id="264684324" version="3" timestamp="2011-02-21T17:31:30Z" uid="110187" user="socke" changeset="7356028" lat="50.5289055" lon="11.9607353"/>
  <node id="264684325" version="2" timestamp="2009-10-09T18:39:30Z" uid="9581" user="Lobelt" changeset="2797073" lat="50.5288012" lon="11.959719"/>
  <node id="264684358" version="2" timestamp="2008-09-14T20:00:33Z" uid="6975" user="ulfl" changeset="640534" lat="50.5414524" lon="11.9307717">
    <tag k="amenity" v="bank"/>
    <tag k="atm" v="yes"/>
  </node>
  <node id="264684512" version="3" timestamp="2008-10-16T18:11:53Z" uid="49111" user="Markus B" changeset="380014" lat="49.313535" lon="10.8018046"/>
  <node id="264684513" version="3" timestamp="2008-10-16T18:11:53Z" uid="49111" user="Markus B" changeset="380014" lat="49.3141999" lon="10.8014946"/>
  <node id="264684514" version="3" timestamp="2008-10-16T18:11:53Z" uid="49111" user="Markus B" changeset="380014" lat="49.3148795" lon="10.8008837"/>
  <node id="264684515" version="3" timestamp="2008-10-16T18:11:53Z" uid="49111" user="Markus B" changeset="380014" lat="49.3157393" lon="10.7990243"/>
  <node id="264684517" version="3" timestamp="2008-10-16T18:11:53Z" uid="49111" user="Markus B" changeset="380014" lat="49.3161301" lon="10.7980256"/>
  <node id="264684518" version="3" timestamp="2008-10-16T18:11:53Z" uid="49111" user="Markus B" changeset="380014" lat="49.3159839" lon="10.7967168"/>
  <node id="264684519" version="4" timestamp="2008-10-16T18:11:53Z" uid="49111" user="Markus B" changeset="380014" lat="49.3160831" lon="10.7950062"/>
  <node id="264688485" version="2" timestamp="2008-08-14T18:53:07Z" uid="6975" user="ulfl" changeset="264731" lat="28.8281391" lon="98.46506">
    <tag k="amenity" v="place_of_worship"/>
    <tag k="name:en" v="Bitu Temple"/>
    <tag k="name:zh" v="碧土寺"/>
    <tag k="religion" v="buddhist"/>
  </node>
  <node id="264689827" version="2" timestamp="2008-10-16T18:11:51Z" uid="49111" user="Markus B" changeset="380014" lat="49.3180291" lon="10.7893659"/>
  <node id="264689829" version="2" timestamp="2008-10-16T18:11:51Z" uid="49111" user="Markus B" changeset="380014" lat="49.3174679" lon="10.7899261"/>
  <node id="264689830" version="2" timestamp="2008-10-16T18:11:51Z" uid="49111" user="Markus B" changeset="380014" lat="49.3167809" lon="10.7902439"/>
  <node id="264689837" version="2" timestamp="2008-10-16T18:11:51Z" uid="49111" user="Markus B" changeset="380014" lat="49.3147967" lon="10.7928157"/>
  <node id="264689839" version="2" timestamp="2008-10-16T18:11:52Z" uid="49111" user="Markus B" changeset="380014" lat="49.3143677" lon="10.7927311"/>
  <node id="264689841" version="2" timestamp="2008-10-16T18:11:52Z" uid="49111" user="Markus B" changeset="380014" lat="49.3143901" lon="10.7930959"/>
  <node id="264689843" version="2" timestamp="2008-10-16T18:11:52Z" uid="49111" user="Markus B" changeset="380014" lat="49.3150568" lon="10.7931515"/>
  <node id="264689845" version="2" timestamp="2008-10-16T18:11:52Z" uid="49111" user="Markus B" changeset="380014" lat="49.316072" lon="10.7929784"/>
  <node id="264689847" version="4" timestamp="2008-10-16T18:11:53Z" uid="49111" user="Markus B" changeset="380014" lat="49.3172861" lon="10.7928389"/>
  <node id="264689862" version="3" timestamp="2008-10-16T18:11:52Z" uid="49111" user="Markus B" changeset="380014" lat="49.3160691" lon="10.7928067"/>
  <node id="264680685" version="17" timestamp="2012-06-15T09:39:23Z" uid="290680" user="wheelmap_visitor" changeset="11901222" lat="48.1295129" lon="11.6021257">
    <tag k="addr:city" v="München"/>
    <tag k="addr:country" v="DE"/>
    <tag k="addr:housenumber" v="43"/>
    <tag k="addr:postcode" v="81667"/>
    <tag k="addr:street" v="Wörthstraße"/>
    <tag k="amenity" v="pharmacy"/>
    <tag k="email" v="johannes-apo@web.de"/>
    <tag k="name" v="St. Johannis-Apotheke"/>
    <tag k="opening_hours" v="Mo-Fr 08:30-13:00,14:30-18:30; Sa 08:30-12:30"/>
    <tag k="phone" v="+49 89 7916699"/>
    <tag k="wheelchair" v="no"/>
  </node>
  <node id="264680685" version="18" timestamp="2012-07-17T18:29:20Z" uid="722137" user="OSMF Redaction Account" changeset="12270238" lat="48.1295129" lon="11.6021257">
    <tag k="addr:city" v="München"/>
    <tag k="addr:country" v="DE"/>
    <tag k="addr:housenumber" v="30"/>
    <tag k="addr:postcode" v="81479"/>
    <tag k="addr:street" v="Grünbauerstraße"/>
    <tag k="amenity" v="pharmacy"/>
    <tag k="email" v="johannes-apo@web.de"/>
    <tag k="name" v="St. Johannis-Apotheke"/>
    <tag k="opening_hours" v="Mo-Fr 08:30-13:00,14:30-18:30; Sa 08:30-12:30"/>
    <tag k="phone" v="+49 89 7916699"/>
    <tag k="wheelchair" v="no"/>
  </node>
  <node id="264680685" version="19" timestamp="2012-08-01T00:13:48Z" uid="440651" user="schmu" changeset="12568751" lat="48.1295129" lon="11.6021257">
    <tag k="old_name" v="Johannis Apotheke"/>
    <tag k="shop" v="vacant"/>
    <tag k="wheelchair" v="no"/>
  </node>
  <node id="264684313" version="3" timestamp="2012-07-18T11:33:50Z" uid="722137" user="OSMF Redaction Account" changeset="12280442" lat="50.5287756" lon="11.9648447"/>
  <node id="264684314" version="3" timestamp="2012-07-18T11:33:50Z" uid="722137" user="OSMF Redaction Account" changeset="12280442" lat="50.5288652" lon="11.9647551"/>
  <node id="264684325" version="3" timestamp="2012-07-18T11:33:50Z" uid="722137" user="OSMF Redaction Account" changeset="12280442" lat="50.5287756" lon="11.9598328"/>
  <node id="264684358" version="3" timestamp="2012-08-27T17:59:56Z" uid="126183" user="Nicky" changeset="12882582" lat="50.5414548" lon="11.9308052">
    <tag k="amenity" v="bank"/>
    <tag k="atm" v="yes"/>
  </node>
</osm>
