<?xml version='1.0' encoding='UTF-8'?>
<osm version="0.6" generator="libosmium/2.20.0">
  <node id="264980526" version="3" timestamp="2010-01-05T15:05:13Z" uid="23543" user="jkjk" changeset="3546145" lat="25.2510125" lon="55.3287764"/>
  <node id="264980526" version="4" timestamp="2010-02-14T08:03:23Z" uid="23663" user="GRagib" changeset="3870955" lat="25.2510125" lon="55.3287764"/>
  <node id="264980563" version="3" timestamp="2010-01-05T15:05:11Z" uid="23543" user="jkjk" changeset="3546145" lat="25.251168" lon="55.3285637"/>
  <node id="264980563" version="4" timestamp="2010-02-14T08:03:23Z" uid="23663" user="GRagib" changeset="3870955" lat="25.251168" lon="55.3285637"/>
  <node id="264987302" version="4" timestamp="2011-01-30T12:34:26Z" uid="6269" user="Mueck" changeset="7133406" lat="49.0052083" lon="8.3788563"/>
  <node id="264987304" version="4" timestamp="2011-01-30T12:34:26Z" uid="6269" user="Mueck" changeset="7133406" lat="49.0052917" lon="8.378906"/>
  <node id="264987304" version="5" timestamp="2011-02-02T22:07:36Z" uid="6269" user="Mueck" changeset="7169437" lat="49.0052889" lon="8.378913"/>
  <node id="264987611" version="1" timestamp="2008-05-16T21:45:06Z" uid="36809" user="pfoten_weg_!_" changeset="463459" lat="48.0795212" lon="11.5032358">
    <tag k="created_by" v="Potlatch 0.9a"/>
    <tag k="is_in" v="München"/>
    <tag k="name" v="Parkstadt Solln"/>
    <tag k="place" v="suburb"/>
  </node>
  <node id="264987611" version="2" timestamp="2008-05-16T22:05:11Z" uid="36809" user="pfoten_weg_!_" changeset="463459" lat="48.0821761" lon="11.5050211">
    <tag k="created_by" v="Potlatch 0.9a"/>
    <tag k="is_in" v="München"/>
    <tag k="name" v="Parkstadt Solln"/>
    <tag k="place" v="suburb"/>
  </node>
  <node id="264987611" version="3" timestamp="2008-05-31T17:54:12Z" uid="36809" user="pfoten_weg_!_" changeset="560735" lat="48.0819451" lon="11.5057808">
    <tag k="created_by" v="Potlatch 0.9c"/>
    <tag k="is_in" v="München"/>
    <tag k="name" v="Parkstadt Solln"/>
    <tag k="place" v="suburb"/>
  </node>
  <node id="264987611" version="4" timestamp="2008-06-02T06:43:14Z" uid="36809" user="pfoten_weg_!_" changeset="18580" lat="48.0819754" lon="11.5055976">
    <tag k="created_by" v="Potlatch 0.9c"/>
    <tag k="is_in" v="München"/>
    <tag k="name" v="Parkstadt Solln"/>
    <tag k="place" v="suburb"/>
  </node>
  <node id="264987611" version="5" timestamp="2008-06-02T06:43:58Z" uid="36809" user="pfoten_weg_!_" changeset="18580" lat="48.0818607" lon="11.5055289">
    <tag k="created_by" v="Potlatch 0.9c"/>
    <tag k="is_in" v="München"/>
    <tag k="name" v="Parkstadt Solln"/>
    <tag k="place" v="suburb"/>
  </node>
  <node id="264987611" version="6" timestamp="2008-07-10T00:39:26Z" uid="36809" user="pfoten_weg_!_" changeset="450005" lat="48.0818607" lon="11.5055289">
    <tag k="created_by" v="RambaZamba"/>
    <tag k="is_in" v="München"/>
    <tag k="name" v="Parkstadt Solln"/>
    <tag k="place" v="suburb"/>
  </node>
  <node id="264987611" version="7" timestamp="2008-09-13T12:38:19Z" uid="36809" user="pfoten_weg_!_" changeset="620497" lat="48.0818608" lon="11.5055294">
    <tag k="created_by" v="RambaZamba"/>
    <tag k="is_in" v="München"/>
    <tag k="name" v="Parkstadt Solln"/>
    <tag k="place" v="suburb"/>
  </node>
  <node id="264987611" version="8" timestamp="2008-09-15T12:50:27Z" uid="36809" user="pfoten_weg_!_" changeset="638986" lat="48.0818608" lon="11.5055294">
    <tag k="created_by" v="RambaZamba"/>
    <tag k="is_in" v="München"/>
    <tag k="name" v="Parkstadt Solln"/>
    <tag k="place" v="suburb"/>
    <tag k="source" v="survey "/>
  </node>
  <node id="264987611" version="9" timestamp="2008-09-20T03:50:53Z" uid="36809" user="pfoten_weg_!_" changeset="670006" lat="48.0818608" lon="11.5055295">
    <tag k="created_by" v="RambaZamba"/>
    <tag k="is_in" v="München"/>
    <tag k="name" v="Parkstadt Solln"/>
    <tag k="place" v="suburb"/>
    <tag k="source" v="survey"/>
  </node>
  <node id="264987611" version="10" timestamp="2008-09-22T15:23:21Z" uid="36809" user="pfoten_weg_!_" changeset="680151" lat="48.0818608" lon="11.5055295">
    <tag k="created_by" v="RambaZamba"/>
    <tag k="is_in" v="München"/>
    <tag k="name" v="Parkstadt Solln"/>
    <tag k="place" v="suburb"/>
    <tag k="source" v="survey"/>
  </node>
  <node id="264987840" version="1" timestamp="2008-05-16T21:47:17Z" uid="36809" user="pfoten_weg_!_" changeset="463459" lat="48.0806222" lon="11.5009527">
    <tag k="created_by" v="Potlatch 0.9a"/>
    <tag k="name" v="Schönstatt-Zentrum Patres"/>
  </node>
  <node id="264987840" version="2" timestamp="2008-05-23T19:58:50Z" uid="36809" user="pfoten_weg_!_" changeset="504411" lat="48.0806253" lon="11.5009503">
    <tag k="amenity" v="school"/>
    <tag k="created_by" v="Potlatch 0.9a"/>
    <tag k="name" v="Schönstatt-Zentrum Patres"/>
  </node>
  <node id="264987840" version="3" timestamp="2008-05-23T20:03:22Z" uid="36809" user="pfoten_weg_!_" changeset="504411" lat="48.0806253" lon="11.5009503">
    <tag k="amenity" v="place_of_worship"/>
    <tag k="created_by" v="Potlatch 0.9a"/>
    <tag k="name" v="Schönstatt-Zentrum Patres"/>
  </node>
  <node id="264987840" version="4" timestamp="2008-05-23T20:04:53Z" uid="36809" user="pfoten_weg_!_" changeset="504411" lat="48.0806253" lon="11.5009503">
    <tag k="amenity" v="place_of_worship"/>
    <tag k="created_by" v="Potlatch 0.9a"/>
    <tag k="key" v="school"/>
    <tag k="name" v="Schönstatt-Zentrum Patres"/>
  </node>
  <node id="264987840" version="5" timestamp="2008-05-23T20:05:54Z" uid="36809" user="pfoten_weg_!_" changeset="504411" lat="48.0806253" lon="11.5009503">
    <tag k="amenity" v="place_of_worship"/>
    <tag k="created_by" v="Potlatch 0.9a"/>
    <tag k="key" v="school"/>
    <tag k="name" v="Klein-Schönstatt Patres"/>
  </node>
  <node id="264987840" version="6" timestamp="2008-05-23T20:10:09Z" uid="36809" user="pfoten_weg_!_" changeset="504411" lat="48.0806253" lon="11.5009503">
    <tag k="amenity" v="place_of_worship"/>
    <tag k="created_by" v="Potlatch 0.9a"/>
    <tag k="name" v="Klein-Schönstatt Patres"/>
    <tag k="tourism" v="guest_house"/>
  </node>
  <node id="264987840" version="7" timestamp="2008-05-27T12:52:52Z" uid="36809" user="pfoten_weg_!_" changeset="533292" lat="48.0806309" lon="11.500945">
    <tag k="amenity" v="place_of_worship"/>
    <tag k="created_by" v="Potlatch 0.9b"/>
    <tag k="name" v="Klein-Schönstatt Patres"/>
    <tag k="tourism" v="guest_house"/>
  </node>
  <node id="264987840" version="8" timestamp="2008-05-27T23:29:47Z" uid="36809" user="pfoten_weg_!_" changeset="538077" lat="48.0806316" lon="11.5009447">
    <tag k="amenity" v="place_of_worship"/>
    <tag k="created_by" v="Potlatch 0.9b"/>
    <tag k="name" v="Klein-Schönstatt Patres"/>
    <tag k="religion" v="christian"/>
    <tag k="tourism" v="guest_house"/>
  </node>
  <node id="264987840" version="9" timestamp="2008-05-27T23:30:27Z" uid="36809" user="pfoten_weg_!_" changeset="538077" lat="48.0806316" lon="11.5009447">
    <tag k="amenity" v="place_of_worship"/>
    <tag k="created_by" v="Potlatch 0.9b"/>
    <tag k="denomination" v="catholic"/>
    <tag k="name" v="Klein-Schönstatt Patres"/>
    <tag k="religion" v="christian"/>
    <tag k="tourism" v="guest_house"/>
  </node>
  <node id="264987840" version="10" timestamp="2008-06-03T17:29:15Z" uid="36809" user="pfoten_weg_!_" changeset="38104" lat="48.0806056" lon="11.5011486">
    <tag k="amenity" v="place_of_worship"/>
    <tag k="created_by" v="Potlatch 0.9c"/>
    <tag k="denomination" v="catholic"/>
    <tag k="name" v="Klein-Schönstatt Patres"/>
    <tag k="religion" v="christian"/>
    <tag k="tourism" v="guest_house"/>
  </node>
  <node id="264987840" version="11" timestamp="2008-06-03T17:49:13Z" uid="36809" user="pfoten_weg_!_" changeset="38104" lat="48.0810185" lon="11.5009856">
    <tag k="amenity" v="place_of_worship"/>
    <tag k="created_by" v="Potlatch 0.9c"/>
    <tag k="denomination" v="catholic"/>
    <tag k="name" v="Klein-Schönstatt Patres"/>
    <tag k="religion" v="christian"/>
    <tag k="tourism" v="guest_house"/>
  </node>
  <node id="264987840" version="12" timestamp="2008-06-03T17:58:54Z" uid="36809" user="pfoten_weg_!_" changeset="38104" lat="48.0810185" lon="11.5009856">
    <tag k="amenity" v="place_of_worship"/>
    <tag k="created_by" v="Potlatch 0.9c"/>
    <tag k="denomination" v="catholic"/>
    <tag k="name" v="Klein-Schönstatt"/>
    <tag k="religion" v="christian"/>
  </node>
  <node id="264987840" version="13" timestamp="2008-06-03T17:59:28Z" uid="36809" user="pfoten_weg_!_" changeset="38104" lat="48.0810185" lon="11.5009856">
    <tag k="amenity" v="place_of_worship"/>
    <tag k="created_by" v="Potlatch 0.9c"/>
    <tag k="denomination" v="catholic"/>
    <tag k="name" v="Gnadenkapelle"/>
    <tag k="religion" v="christian"/>
  </node>
  <node id="264987840" version="14" timestamp="2008-08-07T23:22:57Z" uid="36809" user="pfoten_weg_!_" changeset="131966" lat="48.0810185" lon="11.5009856">
    <tag k="amenity" v="place_of_worship"/>
    <tag k="created_by" v="RambaZamba"/>
    <tag k="denomination" v="catholic"/>
    <tag k="name" v="Gnadenkapelle"/>
    <tag k="religion" v="christian"/>
  </node>
  <node id="264987840" version="15" timestamp="2008-09-13T12:42:03Z" uid="36809" user="pfoten_weg_!_" changeset="620497" lat="48.0810186" lon="11.5009861">
    <tag k="amenity" v="place_of_worship"/>
    <tag k="created_by" v="RambaZamba"/>
    <tag k="denomination" v="catholic"/>
    <tag k="name" v="Gnadenkapelle"/>
    <tag k="religion" v="christian"/>
  </node>
  <node id="264987840" version="16" timestamp="2008-09-15T12:54:08Z" uid="36809" user="pfoten_weg_!_" changeset="638986" lat="48.0810186" lon="11.5009861">
    <tag k="amenity" v="place_of_worship"/>
    <tag k="created_by" v="RambaZamba"/>
    <tag k="denomination" v="catholic"/>
    <tag k="name" v="Gnadenkapelle"/>
    <tag k="religion" v="christian"/>
    <tag k="source" v="survey "/>
  </node>
  <node id="264987840" version="17" timestamp="2008-09-20T03:53:15Z" uid="36809" user="pfoten_weg_!_" changeset="670006" lat="48.0810186" lon="11.5009862">
    <tag k="amenity" v="place_of_worship"/>
    <tag k="created_by" v="RambaZamba"/>
    <tag k="denomination" v="catholic"/>
    <tag k="name" v="Gnadenkapelle"/>
    <tag k="religion" v="christian"/>
    <tag k="source" v="survey"/>
  </node>
  <node id="264987840" version="18" timestamp="2008-09-22T15:22:17Z" uid="36809" user="pfoten_weg_!_" changeset="680151" lat="48.0810186" lon="11.5009862">
    <tag k="amenity" v="place_of_worship"/>
    <tag k="created_by" v="RambaZamba"/>
    <tag k="denomination" v="catholic"/>
    <tag k="name" v="Gnadenkapelle"/>
    <tag k="religion" v="christian"/>
    <tag k="source" v="survey"/>
  </node>
  <node id="264987871" version="1" timestamp="2008-05-16T21:48:11Z" uid="36809" user="pfoten_weg_!_" changeset="463459" lat="48.0830534" lon="11.5049782">
    <tag k="created_by" v="Potlatch 0.9a"/>
    <tag k="name" v="Katholischer Pfarramt St. Ansgar"/>
  </node>
  <node id="264987871" version="2" timestamp="2008-05-23T06:52:17Z" uid="36809" user="pfoten_weg_!_" changeset="503394" lat="48.0830559" lon="11.5049734">
    <tag k="created_by" v="Potlatch 0.9a"/>
    <tag k="name" v="Katholischer Pfarramt St. Ansgar"/>
  </node>
  <node id="264987871" version="3" timestamp="2008-05-23T20:15:30Z" uid="36809" user="pfoten_weg_!_" changeset="504411" lat="48.0830565" lon="11.5049672">
    <tag k="amenity" v="place_of_worship"/>
    <tag k="created_by" v="Potlatch 0.9a"/>
    <tag k="name" v="Katholischer Pfarramt St. Ansgar"/>
  </node>
  <node id="264987871" version="4" timestamp="2008-05-27T13:40:45Z" uid="36809" user="pfoten_weg_!_" changeset="533292" lat="48.0830583" lon="11.5049671">
    <tag k="amenity" v="place_of_worship"/>
    <tag k="created_by" v="Potlatch 0.9b"/>
    <tag k="name" v="Katholischer Pfarramt St. Ansgar"/>
  </node>
  <node id="264987871" version="5" timestamp="2008-05-27T23:31:38Z" uid="36809" user="pfoten_weg_!_" changeset="538077" lat="48.0830629" lon="11.5049615">
    <tag k="amenity" v="place_of_worship"/>
    <tag k="created_by" v="Potlatch 0.9b"/>
    <tag k="denomination" v="catholic"/>
    <tag k="name" v="Katholischer Pfarramt St. Ansgar"/>
    <tag k="religion" v="christian"/>
  </node>
  <node id="264987871" version="6" timestamp="2008-05-31T17:49:50Z" uid="36809" user="pfoten_weg_!_" changeset="560735" lat="48.0830747" lon="11.5049998">
    <tag k="amenity" v="place_of_worship"/>
    <tag k="created_by" v="Potlatch 0.9c"/>
    <tag k="denomination" v="catholic"/>
    <tag k="name" v="Katholischer Pfarramt St. Ansgar"/>
    <tag k="religion" v="christian"/>
  </node>
  <node id="264987871" version="7" timestamp="2008-05-31T17:53:56Z" uid="36809" user="pfoten_weg_!_" changeset="560735" lat="48.0829543" lon="11.5047852">
    <tag k="amenity" v="place_of_worship"/>
    <tag k="created_by" v="Potlatch 0.9c"/>
    <tag k="denomination" v="catholic"/>
    <tag k="name" v="Katholischer Pfarramt St. Ansgar"/>
    <tag k="religion" v="christian"/>
  </node>
  <node id="264987871" version="8" timestamp="2008-05-31T19:28:50Z" uid="36809" user="pfoten_weg_!_" changeset="560735" lat="48.0828928" lon="11.5050405">
    <tag k="amenity" v="place_of_worship"/>
    <tag k="created_by" v="Potlatch 0.9c"/>
    <tag k="denomination" v="catholic"/>
    <tag k="name" v="Katholischer Pfarramt St. Ansgar"/>
    <tag k="religion" v="christian"/>
  </node>
  <node id="264987980" version="2" timestamp="2008-08-09T15:23:33Z" uid="58091" user="Andreas M" changeset="150552" lat="48.2362383" lon="16.3554751"/>
  <node id="264987980" version="3" timestamp="2008-10-26T22:39:44Z" uid="51552" user="kfg" changeset="587704" lat="48.2362331" lon="16.3554633"/>
  <node id="264987980" version="4" timestamp="2010-12-10T07:18:48Z" uid="54806" user="_al" changeset="6602466" lat="48.2362891" lon="16.3554968"/>
  <node id="264987302" version="5" timestamp="2012-07-17T13:34:23Z" uid="722137" user="OSMF Redaction Account" changeset="12266646" lat="49.0052134" lon="8.3788784"/>
  <node id="264987302" version="6" timestamp="2012-08-12T20:58:40Z" uid="659944" user="Pandabärchen" changeset="12705979" lat="49.0052351" lon="8.3788191"/>
  <node id="264987302" version="7" timestamp="2012-08-15T11:08:30Z" uid="659944" user="Pandabärchen" changeset="12737506" lat="49.0051901" lon="8.3789594"/>
  <node id="264987302" version="8" timestamp="2012-08-15T11:14:58Z" uid="659944" user="Pandabärchen" changeset="12737506" lat="49.0051839" lon="8.3789573"/>
  <node id="264987304" version="6" timestamp="2012-04-14T15:56:45Z" uid="35468" user="Blunauer" changeset="11300389" lat="49.0052889" lon="8.378913"/>
  <node id="264987980" version="5" timestamp="2012-07-23T19:35:23Z" uid="298560" user="evod" changeset="12455683" lat="48.2363259" lon="16.3554465"/>
</osm>
