<?xml version='1.0' encoding='UTF-8'?>
<osm version="0.6" generator="libosmium/2.20.0">
  <node id="265000444" version="2" timestamp="2008-09-24T05:03:43Z" uid="6975" user="ulfl" changeset="687743" lat="48.1873468" lon="16.2846972">
    <tag k="name" v="Eisbären"/>
    <tag k="shop" v="chemist"/>
  </node>
  <node id="265000444" version="3" timestamp="2009-01-02T16:54:02Z" uid="54806" user="_al" changeset="708842" lat="48.1873472" lon="16.2846927">
    <tag k="addr:city" v="Wien"/>
    <tag k="addr:housenumber" v="72"/>
    <tag k="addr:postcode" v="1130"/>
    <tag k="addr:street" v="Hietzinger Hauptstraße"/>
    <tag k="amenity" v="fuel"/>
    <tag k="created_by" v="Potlatch 0.10f"/>
    <tag k="name" v="Eisbären Drogerie"/>
    <tag k="shop" v="chemist"/>
  </node>
  <node id="265000444" version="4" timestamp="2009-01-25T09:09:20Z" uid="54806" user="_al" changeset="833529" lat="48.187348" lon="16.2846907">
    <tag k="addr:city" v="Wien"/>
    <tag k="addr:housenumber" v="72"/>
    <tag k="addr:postcode" v="1130"/>
    <tag k="addr:street" v="Hietzinger Hauptstraße"/>
    <tag k="created_by" v="Potlatch 0.10f"/>
    <tag k="name" v="Eisbären Drogerie"/>
    <tag k="shop" v="chemist"/>
  </node>
  <node id="265000444" version="5" timestamp="2009-02-07T18:57:14Z" uid="66904" user="OSchlüter" changeset="248893" lat="48.187348" lon="16.2846907">
    <tag k="addr:city" v="Wien"/>
    <tag k="addr:country" v="AT"/>
    <tag k="addr:housenumber" v="72"/>
    <tag k="addr:postcode" v="1130"/>
    <tag k="addr:street" v="Hietzinger Hauptstraße"/>
    <tag k="created_by" v="Potlatch 0.10f"/>
    <tag k="name" v="Eisbären Drogerie"/>
    <tag k="shop" v="chemist"/>
  </node>
  <node id="265000444" version="6" timestamp="2010-08-15T21:49:21Z" uid="54806" user="_al" changeset="5504784" lat="48.1873688" lon="16.2846265">
    <tag k="addr:city" v="Wien"/>
    <tag k="addr:country" v="AT"/>
    <tag k="addr:housenumber" v="72"/>
    <tag k="addr:postcode" v="1130"/>
    <tag k="addr:street" v="Hietzinger Hauptstraße"/>
    <tag k="name" v="Eisbären Drogerie"/>
    <tag k="shop" v="chemist"/>
  </node>
  <node id="265000543" version="2" timestamp="2009-09-23T08:18:37Z" uid="43863" user="Rundling" changeset="2591894" lat="47.4221025" lon="9.6701572">
    <tag k="created_by" v="JOSM"/>
  </node>
  <node id="265000735" version="4" timestamp="2008-07-14T23:26:21Z" uid="6975" user="ulfl" changeset="496348" lat="52.6772652" lon="9.6201933">
    <tag k="highway" v="bus_stop"/>
    <tag k="name" v="Café Vatter"/>
  </node>
  <node id="265007134" version="3" timestamp="2008-07-03T18:48:27Z" uid="6975" user="ulfl" changeset="379368" lat="48.1883367" lon="16.2663638">
    <tag k="amenity" v="place_of_worship"/>
    <tag k="name" v="Pfarre Ober Sankt Veit"/>
  </node>
  <node id="265007134" version="4" timestamp="2008-08-16T06:13:47Z" uid="54806" user="_al" changeset="284290" lat="48.1882934" lon="16.2662021">
    <tag k="amenity" v="place_of_worship"/>
    <tag k="created_by" v="Potlatch 0.10b"/>
    <tag k="name" v="Pfarre Ober Sankt Veit"/>
  </node>
  <node id="265007134" version="5" timestamp="2008-08-16T06:17:33Z" uid="54806" user="_al" changeset="284290" lat="48.1884422" lon="16.2663394">
    <tag k="amenity" v="place_of_worship"/>
    <tag k="created_by" v="Potlatch 0.10b"/>
    <tag k="denomination" v="catholic"/>
    <tag k="description" v="Maria Zuflucht der Sünder"/>
    <tag k="name" v="Pfarre Ober Sankt Veit"/>
    <tag k="religion" v="christian"/>
  </node>
  <node id="265007134" version="6" timestamp="2010-11-23T22:10:38Z" uid="41463" user="digitalhippie" changeset="6443095" lat="48.1884422" lon="16.2663394">
    <tag k="amenity" v="place_of_worship"/>
    <tag k="building" v="church"/>
    <tag k="denomination" v="catholic"/>
    <tag k="description" v="Maria Zuflucht der Sünder"/>
    <tag k="name" v="Pfarre Ober Sankt Veit"/>
    <tag k="religion" v="christian"/>
  </node>
  <node id="265007134" version="7" timestamp="2011-09-19T22:09:57Z" uid="99692" user="that" changeset="9347273" lat="48.1884612" lon="16.2662448">
    <tag k="amenity" v="place_of_worship"/>
    <tag k="building" v="church"/>
    <tag k="denomination" v="catholic"/>
    <tag k="description" v="Maria Zuflucht der Sünder"/>
    <tag k="name" v="Pfarre Ober Sankt Veit"/>
    <tag k="religion" v="christian"/>
  </node>
  <node id="265007134" version="8" timestamp="2012-03-07T22:35:51Z" uid="38341" user="atadxart" changeset="10904602" lat="48.1884612" lon="16.2662448"/>
  <node id="265007709" version="8" timestamp="2011-02-24T08:44:07Z" uid="4467" user="Rosscoe" changeset="7379520" lat="-27.3831754" lon="153.0372899">
    <tag k="highway" v="turning_circle"/>
  </node>
  <node id="265008351" version="2" timestamp="2011-02-24T08:43:55Z" uid="4467" user="Rosscoe" changeset="7379520" lat="-27.3852193" lon="153.0359485"/>
  <node id="265009057" version="4" timestamp="2011-02-24T08:44:13Z" uid="4467" user="Rosscoe" changeset="7379520" lat="-27.3856282" lon="153.0347831">
    <tag k="highway" v="traffic_signals"/>
  </node>
  <node id="265009183" version="2" timestamp="2011-02-24T08:44:13Z" uid="4467" user="Rosscoe" changeset="7379520" lat="-27.383181" lon="153.0372716"/>
  <node id="265009868" version="6" timestamp="2011-02-24T08:44:04Z" uid="4467" user="Rosscoe" changeset="7379520" lat="-27.3815165" lon="153.0384441"/>
  <node id="265009889" version="2" timestamp="2008-10-23T06:06:30Z" uid="6975" user="ulfl" changeset="525020" lat="48.1878103" lon="16.2674367">
    <tag k="shop" v="stationery"/>
  </node>
  <node id="265009889" version="3" timestamp="2009-06-28T17:29:50Z" uid="38341" user="atadxart" changeset="1666329" lat="48.1878874" lon="16.2674628">
    <tag k="shop" v="stationery"/>
  </node>
  <node id="265009889" version="4" timestamp="2011-09-19T22:09:58Z" uid="99692" user="that" changeset="9347273" lat="48.1878739" lon="16.2673195">
    <tag k="shop" v="stationery"/>
  </node>
  <node id="265000444" version="7" timestamp="2012-07-23T12:19:27Z" uid="137798" user="HellSpawn" changeset="12449631" lat="48.1873835" lon="16.2846928">
    <tag k="addr:city" v="Wien"/>
    <tag k="addr:country" v="AT"/>
    <tag k="addr:housenumber" v="72"/>
    <tag k="addr:postcode" v="1130"/>
    <tag k="addr:street" v="Hietzinger Hauptstraße"/>
    <tag k="name" v="Eisbären Drogerie"/>
    <tag k="shop" v="chemist"/>
  </node>
  <node id="265007709" version="9" timestamp="2012-07-20T03:41:30Z" uid="722137" user="OSMF Redaction Account" changeset="12359654" lat="-27.3832038" lon="153.0373059">
    <tag k="highway" v="turning_circle"/>
  </node>
  <node id="265008351" version="3" timestamp="2012-07-20T03:41:29Z" uid="722137" user="OSMF Redaction Account" changeset="12359654" lat="-27.3852387" lon="153.0359584"/>
  <node id="265009057" version="5" timestamp="2012-07-20T03:41:29Z" uid="722137" user="OSMF Redaction Account" changeset="12359654" lat="-27.3856425" lon="153.0347863">
    <tag k="highway" v="traffic_signals"/>
  </node>
  <node id="265009868" version="7" timestamp="2012-07-20T03:41:33Z" uid="722137" user="OSMF Redaction Account" changeset="12359654" lat="-27.381545" lon="153.0384248"/>
</osm>
