<?xml version='1.0' encoding='UTF-8'?>
<osm version="0.6" generator="libosmium/2.20.0">
  <node id="266200969" version="4" timestamp="2008-07-07T19:18:54Z" uid="6975" user="ulfl" changeset="420350" lat="54.9497072" lon="9.6932802">
    <tag k="amenity" v="place_of_worship"/>
    <tag k="denomination" v="lutheran"/>
    <tag k="name" v="Vester Sottrup Kirke"/>
    <tag k="religion" v="christian"/>
  </node>
  <node id="266200969" version="5" timestamp="2008-11-23T17:31:49Z" uid="29632" user="ablansinger" changeset="783691" lat="54.9488919" lon="9.6929326">
    <tag k="amenity" v="place_of_worship"/>
    <tag k="created_by" v="Potlatch 0.10f"/>
    <tag k="denomination" v="lutheran"/>
    <tag k="name" v="Vester Sottrup Kirke"/>
    <tag k="religion" v="christian"/>
  </node>
  <node id="266201021" version="4" timestamp="2008-07-07T19:18:54Z" uid="6975" user="ulfl" changeset="420350" lat="54.9656254" lon="9.662467">
    <tag k="amenity" v="place_of_worship"/>
    <tag k="denomination" v="lutheran"/>
    <tag k="name" v="Ullerup Kirke"/>
    <tag k="religion" v="christian"/>
  </node>
  <node id="266201021" version="5" timestamp="2008-09-04T19:01:15Z" uid="29632" user="ablansinger" changeset="527895" lat="54.9657593" lon="9.6623355">
    <tag k="amenity" v="place_of_worship"/>
    <tag k="created_by" v="Potlatch 0.10b"/>
    <tag k="denomination" v="lutheran"/>
    <tag k="name" v="Ullerup Kirke"/>
    <tag k="religion" v="christian"/>
  </node>
  <node id="266201021" version="6" timestamp="2011-05-07T23:53:11Z" uid="207581" user="Hjart" changeset="8078137" lat="54.9656792" lon="9.6624243">
    <tag k="amenity" v="place_of_worship"/>
    <tag k="denomination" v="lutheran"/>
    <tag k="name" v="Ullerup Kirke"/>
    <tag k="religion" v="christian"/>
  </node>
  <node id="266201148" version="4" timestamp="2010-08-05T19:27:24Z" uid="9581" user="Lobelt" changeset="5411281" lat="49.3299929" lon="8.1539505">
    <tag k="railway" v="level_crossing"/>
  </node>
  <node id="266201148" version="5" timestamp="2011-03-04T16:16:44Z" uid="24920" user="Schusch" changeset="7455618" lat="49.3300173" lon="8.1539318">
    <tag k="railway" v="level_crossing"/>
  </node>
  <node id="266201148" version="6" timestamp="2011-03-09T22:43:05Z" uid="24920" user="Schusch" changeset="7509576" lat="49.3300183" lon="8.1538775">
    <tag k="railway" v="level_crossing"/>
  </node>
  <node id="266201148" version="7" timestamp="2011-04-06T11:20:09Z" uid="24920" user="Schusch" changeset="7783840" lat="49.3300202" lon="8.1539713">
    <tag k="railway" v="level_crossing"/>
  </node>
  <node id="266201148" version="8" timestamp="2011-09-20T11:45:42Z" uid="226994" user="Wegabschneider" changeset="9350625" lat="49.3300202" lon="8.1539719">
    <tag k="railway" v="level_crossing"/>
  </node>
  <node id="266201557" version="2" timestamp="2008-09-14T19:22:47Z" uid="6975" user="ulfl" changeset="640534" lat="51.5787064" lon="-1.2623533">
    <tag k="amenity" v="townhall"/>
    <tag k="name" v="Upton Village Hall"/>
  </node>
  <node id="266201557" version="3" timestamp="2009-02-08T11:22:06Z" uid="97886" user="Jewellery" changeset="287980" lat="51.5787098" lon="-1.2623599">
    <tag k="created_by" v="Potlatch 0.10f"/>
    <tag k="is_in" v="OXFORDSHIRE"/>
    <tag k="name" v="UPTON"/>
    <tag k="place" v="town"/>
  </node>
  <node id="266201557" version="4" timestamp="2009-02-09T12:06:25Z" uid="8821" user="norky" changeset="302415" lat="51.5787145" lon="-1.2623615">
    <tag k="created_by" v="Potlatch 0.10f"/>
    <tag k="is_in" v="Oxfordshire"/>
    <tag k="name" v="Upton"/>
    <tag k="place" v="town"/>
  </node>
  <node id="266201557" version="5" timestamp="2009-02-09T12:08:12Z" uid="8821" user="norky" changeset="302415" lat="51.5787153" lon="-1.2623658">
    <tag k="created_by" v="Potlatch 0.10f"/>
    <tag k="is_in" v="Oxfordshire"/>
    <tag k="name" v="Upton"/>
    <tag k="place" v="town"/>
  </node>
  <node id="266203041" version="3" timestamp="2008-09-30T11:33:48Z" uid="1066" user="pavel" changeset="720911" lat="50.2066911" lon="12.207851">
    <tag k="is_in" v="Czech Republic, Europe"/>
    <tag k="name" v="Mokřiny"/>
    <tag k="place" v="village"/>
  </node>
  <node id="266203041" version="4" timestamp="2008-11-04T13:20:27Z" uid="308" user="MichaelCollinson" changeset="676656" lat="50.2066911" lon="12.207851">
    <tag k="is_in" v="Czech Republic, Europe"/>
    <tag k="is_in:continent" v="Europe"/>
    <tag k="is_in:country_code" v="cz"/>
    <tag k="name" v="Mokřiny"/>
    <tag k="place" v="village"/>
  </node>
  <node id="266203041" version="5" timestamp="2010-04-08T10:18:22Z" uid="110514" user="softcake" changeset="4362702" lat="50.2066912" lon="12.207851">
    <tag k="is_in" v="Czech Republic, Europe"/>
    <tag k="is_in:continent" v="Europe"/>
    <tag k="is_in:country_code" v="cz"/>
    <tag k="name" v="Mokřiny"/>
    <tag k="name:de" v="Nassengrub"/>
    <tag k="place" v="village"/>
  </node>
  <node id="266203041" version="6" timestamp="2010-08-05T15:53:33Z" uid="110514" user="softcake" changeset="5409457" lat="50.2066913" lon="12.2078509">
    <tag k="is_in" v="Czech Republic, Europe"/>
    <tag k="is_in:continent" v="Europe"/>
    <tag k="is_in:country_code" v="cz"/>
    <tag k="name" v="Mokřiny"/>
    <tag k="name:de" v="Mokřiny - Nassengrub"/>
    <tag k="place" v="village"/>
  </node>
  <node id="266203041" version="7" timestamp="2010-10-31T10:26:50Z" uid="152074" user="beweta" changeset="6236747" lat="50.2066913" lon="12.2078509">
    <tag k="is_in" v="Aš"/>
    <tag k="is_in:continent" v="Europe"/>
    <tag k="is_in:country_code" v="cz"/>
    <tag k="name" v="Mokřiny"/>
    <tag k="name:de" v="Nassengrub"/>
    <tag k="place" v="suburb"/>
  </node>
  <node id="266203041" version="8" timestamp="2012-01-20T17:18:41Z" uid="536216" user="uir-zsj" changeset="10448481" lat="50.2091472" lon="12.2130277">
    <tag k="is_in" v="Aš"/>
    <tag k="is_in:continent" v="Europe"/>
    <tag k="is_in:country_code" v="cz"/>
    <tag k="name" v="Mokřiny"/>
    <tag k="name:de" v="Nassengrub"/>
    <tag k="place" v="village"/>
    <tag k="population" v="530"/>
    <tag k="ref:cobe" v="098272"/>
    <tag k="ref:zsj" v="098272"/>
    <tag k="source" v="csu:uir-zsj"/>
  </node>
  <node id="266204222" version="7" timestamp="2008-07-14T09:08:41Z" uid="6975" user="ulfl" changeset="486169" lat="36.3624648" lon="6.6156862">
    <tag k="highway" v="mini_roundabout"/>
    <tag k="junction" v="roundabout"/>
    <tag k="lanes" v="2"/>
    <tag k="surface" v="paved"/>
  </node>
  <node id="266204222" version="8" timestamp="2008-08-28T18:12:36Z" uid="62161" user="timpou" changeset="445378" lat="36.3624648" lon="6.6156862">
    <tag k="highway" v="mini_roundabout"/>
    <tag k="junction" v="roundabout"/>
    <tag k="lanes" v="2"/>
    <tag k="surface" v="paved"/>
  </node>
  <node id="266204610" version="3" timestamp="2008-07-05T09:07:23Z" uid="6975" user="ulfl" changeset="396365" lat="47.2410839" lon="39.757409">
    <tag k="highway" v="bus_stop"/>
    <tag k="name:ru" v="20-я линия"/>
  </node>
  <node id="266204610" version="4" timestamp="2008-09-19T09:06:39Z" uid="34198" user="SoNick_RND" changeset="665181" lat="47.241066" lon="39.7575979">
    <tag k="created_by" v="Potlatch 0.10b"/>
    <tag k="highway" v="bus_stop"/>
    <tag k="name:ru" v="20-я линия"/>
  </node>
  <node id="266204610" version="5" timestamp="2010-06-05T17:03:41Z" uid="211300" user="yashka" changeset="4910491" lat="47.241066" lon="39.7575979">
    <tag k="highway" v="bus_stop"/>
    <tag k="name" v="20-я линия"/>
    <tag k="name:ru" v="20-я линия"/>
  </node>
  <node id="266204610" version="6" timestamp="2011-12-26T15:04:29Z" uid="211300" user="yashka" changeset="10207811" lat="47.2408091" lon="39.7569765">
    <tag k="bench" v="yes"/>
    <tag k="highway" v="bus_stop"/>
    <tag k="name" v="20-я линия"/>
    <tag k="name:ru" v="20-я линия"/>
    <tag k="shelter" v="yes"/>
  </node>
  <node id="266204610" version="7" timestamp="2011-12-26T18:02:34Z" uid="211300" user="yashka" changeset="10209458" lat="47.2408091" lon="39.7569765">
    <tag k="bench" v="yes"/>
    <tag k="highway" v="bus_stop"/>
    <tag k="name" v="20-я Линия"/>
    <tag k="name:ru" v="20-я Линия"/>
    <tag k="shelter" v="yes"/>
  </node>
  <node id="266204610" version="8" timestamp="2011-12-30T16:59:52Z" uid="211300" user="yashka" changeset="10247245" lat="47.2408091" lon="39.7569765">
    <tag k="bench" v="yes"/>
    <tag k="bus" v="yes"/>
    <tag k="highway" v="bus_stop"/>
    <tag k="name" v="20-я Линия"/>
    <tag k="name:ru" v="20-я Линия"/>
    <tag k="public_transport" v="platform"/>
    <tag k="share_taxi" v="yes"/>
    <tag k="shelter" v="yes"/>
    <tag k="trolleybus" v="yes"/>
  </node>
  <node id="266205111" version="3" timestamp="2008-07-05T09:07:12Z" uid="6975" user="ulfl" changeset="396365" lat="47.2404462" lon="39.7581183">
    <tag k="highway" v="bus_stop"/>
    <tag k="name:ru" v="Шолохова пр-т. им."/>
  </node>
  <node id="266205111" version="4" timestamp="2010-06-05T17:03:41Z" uid="211300" user="yashka" changeset="4910491" lat="47.2404462" lon="39.7581183">
    <tag k="highway" v="bus_stop"/>
    <tag k="name" v="проспект Шолохова"/>
    <tag k="name:ru" v="Шолохова пр-т. им."/>
  </node>
  <node id="266205111" version="5" timestamp="2010-06-06T07:56:42Z" uid="211300" user="yashka" changeset="4915115" lat="47.2404462" lon="39.7581183">
    <tag k="highway" v="bus_stop"/>
    <tag k="name" v="проспект Шолохова"/>
    <tag k="name:ru" v="проспект Шолохова"/>
  </node>
  <node id="266205111" version="6" timestamp="2011-12-26T15:04:26Z" uid="211300" user="yashka" changeset="10207811" lat="47.2404335" lon="39.7579788">
    <tag k="highway" v="bus_stop"/>
    <tag k="name" v="проспект Шолохова"/>
    <tag k="name:ru" v="проспект Шолохова"/>
  </node>
  <node id="266205111" version="7" timestamp="2011-12-30T16:59:49Z" uid="211300" user="yashka" changeset="10247245" lat="47.2404335" lon="39.7579788">
    <tag k="bus" v="yes"/>
    <tag k="highway" v="bus_stop"/>
    <tag k="name" v="проспект Шолохова"/>
    <tag k="name:ru" v="проспект Шолохова"/>
    <tag k="public_transport" v="platform"/>
    <tag k="share_taxi" v="yes"/>
    <tag k="trolleybus" v="yes"/>
  </node>
  <node id="266205719" version="4" timestamp="2008-08-23T23:46:40Z" uid="36809" user="pfoten_weg_!_" changeset="384601" lat="48.0998399" lon="11.5320768">
    <tag k="amenity" v="fast_food"/>
    <tag k="created_by" v="RambaZamba"/>
    <tag k="name" v="Bavarians Diner"/>
  </node>
  <node id="266205719" version="5" timestamp="2008-10-01T01:50:27Z" uid="36809" user="pfoten_weg_!_" changeset="5644" lat="48.0998399" lon="11.5320768">
    <tag k="amenity" v="fast_food"/>
    <tag k="created_by" v="RambaZamba"/>
    <tag k="name" v="Bavarians Diner"/>
  </node>
  <node id="266205719" version="6" timestamp="2009-02-15T12:51:00Z" uid="36809" user="pfoten_weg_!_" changeset="463903" lat="48.0998399" lon="11.5320768">
    <tag k="amenity" v="fast_food"/>
    <tag k="created_by" v="RambaZamba"/>
    <tag k="name" v="Bavarians Diner"/>
    <tag k="source" v="survey"/>
  </node>
  <node id="266205719" version="7" timestamp="2009-03-05T23:37:34Z" uid="71041" user="TomRadfahrer" changeset="744281" lat="48.0998395" lon="11.5321251">
    <tag k="amenity" v="fast_food"/>
    <tag k="created_by" v="Potlatch 0.10f"/>
    <tag k="name" v="Bavarians Diner"/>
    <tag k="source" v="survey"/>
  </node>
  <node id="266205719" version="8" timestamp="2009-09-04T18:26:59Z" uid="85761" user="klausis" changeset="2372876" lat="48.0998395" lon="11.5321251">
    <tag k="amenity" v="fast_food"/>
    <tag k="name" v="Bavarians Diner"/>
    <tag k="source" v="survey"/>
  </node>
  <node id="266205719" version="9" timestamp="2009-09-04T21:03:58Z" uid="36809" user="pfoten_weg_!_" changeset="2374562" lat="48.0998395" lon="11.5321251">
    <tag k="amenity" v="fast_food"/>
    <tag k="name" v="Bavarians Diner"/>
    <tag k="source" v="survey"/>
  </node>
  <node id="266205719" version="10" timestamp="2009-10-13T23:39:45Z" uid="36809" user="pfoten_weg_!_" changeset="2841273" lat="48.0998395" lon="11.5321251">
    <tag k="amenity" v="fast_food"/>
    <tag k="name" v="Bavarians Diner"/>
  </node>
  <node id="266205719" version="11" timestamp="2009-11-11T16:11:00Z" uid="2936" user="Tschäfer" changeset="3091235" lat="48.0998411" lon="11.532117">
    <tag k="addr:housenumber" v="51b"/>
    <tag k="amenity" v="fast_food"/>
    <tag k="name" v="Bavarians Diner"/>
  </node>
  <node id="266205719" version="12" timestamp="2010-08-10T19:48:20Z" uid="224490" user="Geo-Tobi" changeset="5457116" lat="48.0998411" lon="11.532117">
    <tag k="addr:city" v="München"/>
    <tag k="addr:country" v="DE"/>
    <tag k="addr:housenumber" v="51b"/>
    <tag k="addr:postcode" v="81379"/>
    <tag k="addr:street" v="Boschetsrieder Straße"/>
    <tag k="amenity" v="fast_food"/>
    <tag k="name" v="Bavarians Diner"/>
  </node>
  <node id="266205719" version="13" timestamp="2011-03-21T19:34:06Z" uid="290680" user="wheelmap_visitor" changeset="7630745" lat="48.0998411" lon="11.532117">
    <tag k="addr:city" v="München"/>
    <tag k="addr:country" v="DE"/>
    <tag k="addr:housenumber" v="51b"/>
    <tag k="addr:postcode" v="81379"/>
    <tag k="addr:street" v="Boschetsrieder Straße"/>
    <tag k="amenity" v="fast_food"/>
    <tag k="name" v="Bavarians Diner"/>
    <tag k="wheelchair" v="no"/>
  </node>
  <node id="266205719" version="14" timestamp="2011-04-25T08:23:43Z" uid="71041" user="TomRadfahrer" changeset="7960322" lat="48.0998081" lon="11.5321351">
    <tag k="addr:city" v="München"/>
    <tag k="addr:country" v="DE"/>
    <tag k="addr:housenumber" v="51b"/>
    <tag k="addr:postcode" v="81379"/>
    <tag k="addr:street" v="Boschetsrieder Straße"/>
    <tag k="amenity" v="fast_food"/>
    <tag k="name" v="Bavarians Diner"/>
    <tag k="wheelchair" v="no"/>
  </node>
  <node id="266205890" version="5" timestamp="2008-08-23T23:46:40Z" uid="36809" user="pfoten_weg_!_" changeset="384601" lat="48.0998421" lon="11.532354">
    <tag k="amenity" v="restaurant"/>
    <tag k="created_by" v="RambaZamba"/>
    <tag k="name" v="China-Restaurant Fuh-Guei"/>
  </node>
  <node id="266205890" version="6" timestamp="2008-10-01T01:50:38Z" uid="36809" user="pfoten_weg_!_" changeset="5644" lat="48.0998421" lon="11.532354">
    <tag k="amenity" v="restaurant"/>
    <tag k="created_by" v="RambaZamba"/>
    <tag k="name" v="China-Restaurant Fuh-Guei"/>
  </node>
  <node id="266205890" version="7" timestamp="2009-02-15T12:51:06Z" uid="36809" user="pfoten_weg_!_" changeset="463903" lat="48.0998421" lon="11.532354">
    <tag k="amenity" v="restaurant"/>
    <tag k="created_by" v="RambaZamba"/>
    <tag k="name" v="China-Restaurant Fuh-Guei"/>
    <tag k="source" v="survey"/>
  </node>
  <node id="266205890" version="8" timestamp="2009-03-05T23:35:14Z" uid="71041" user="TomRadfahrer" changeset="744281" lat="48.0998567" lon="11.5324083">
    <tag k="amenity" v="restaurant"/>
    <tag k="created_by" v="Potlatch 0.10f"/>
    <tag k="name" v="China-Restaurant Fuh-Guei"/>
    <tag k="source" v="survey"/>
  </node>
  <node id="266205890" version="9" timestamp="2009-09-04T18:26:59Z" uid="85761" user="klausis" changeset="2372876" lat="48.0998567" lon="11.5324083">
    <tag k="amenity" v="restaurant"/>
    <tag k="name" v="China-Restaurant Fuh-Guei"/>
    <tag k="source" v="survey"/>
  </node>
  <node id="266205890" version="10" timestamp="2009-09-04T21:04:00Z" uid="36809" user="pfoten_weg_!_" changeset="2374562" lat="48.0998567" lon="11.5324083">
    <tag k="amenity" v="restaurant"/>
    <tag k="name" v="China-Restaurant Fuh-Guei"/>
    <tag k="source" v="survey"/>
  </node>
  <node id="266205890" version="11" timestamp="2009-10-13T23:39:45Z" uid="36809" user="pfoten_weg_!_" changeset="2841273" lat="48.0998567" lon="11.5324083">
    <tag k="amenity" v="restaurant"/>
    <tag k="name" v="China-Restaurant Fuh-Guei"/>
  </node>
  <node id="266205890" version="12" timestamp="2010-07-16T14:44:22Z" uid="30579" user="Tiramisu" changeset="5235334" lat="48.0998568" lon="11.5324083">
    <tag k="amenity" v="restaurant"/>
    <tag k="cuisine" v="chinese"/>
    <tag k="name" v="China-Restaurant Fuh-Guei"/>
  </node>
  <node id="266205890" version="13" timestamp="2011-03-21T19:34:08Z" uid="290680" user="wheelmap_visitor" changeset="7630745" lat="48.0998568" lon="11.5324083">
    <tag k="amenity" v="restaurant"/>
    <tag k="cuisine" v="chinese"/>
    <tag k="name" v="China-Restaurant Fuh-Guei"/>
    <tag k="wheelchair" v="no"/>
  </node>
  <node id="266205890" version="14" timestamp="2011-04-25T08:23:43Z" uid="71041" user="TomRadfahrer" changeset="7960322" lat="48.0998135" lon="11.5324087">
    <tag k="amenity" v="restaurant"/>
    <tag k="cuisine" v="chinese"/>
    <tag k="name" v="China-Restaurant Fuh-Guei"/>
    <tag k="wheelchair" v="no"/>
  </node>
  <node id="266204222" version="9" timestamp="2012-06-20T12:32:12Z" uid="56658" user="Sandervalya" changeset="11958281" lat="36.3624648" lon="6.6156862"/>
  <node id="266205719" version="15" timestamp="2012-05-25T20:51:06Z" uid="254713" user="Fraeggl" changeset="11701908" lat="48.0998081" lon="11.5321351"/>
</osm>
