<?xml version='1.0' encoding='UTF-8'?>
<osm version="0.6" generator="libosmium/2.20.0">
  <node id="266690809" version="4" timestamp="2008-06-23T23:56:51Z" uid="34428" user="usm78-gis" changeset="282764" lat="58.5387249" lon="31.2552688">
    <tag k="name" v="Менделеевская"/>
    <tag k="railway" v="station"/>
  </node>
  <node id="266690809" version="5" timestamp="2008-07-09T18:56:12Z" uid="40563" user="gorch" changeset="446763" lat="58.5387249" lon="31.2552688">
    <tag k="name" v="Менделеевская"/>
    <tag k="railway" v="station"/>
  </node>
  <node id="266690809" version="6" timestamp="2008-09-09T09:54:03Z" uid="30701" user="codenet" changeset="587810" lat="58.5387249" lon="31.2552688">
    <tag k="name" v="Менделеевская"/>
    <tag k="railway" v="station"/>
  </node>
  <node id="266690809" version="7" timestamp="2011-05-06T20:39:58Z" uid="30701" user="codenet" changeset="8068771" lat="58.5382975" lon="31.2553559">
    <tag k="name" v="Менделеевская"/>
    <tag k="railway" v="station"/>
  </node>
  <node id="266690824" version="2" timestamp="2008-06-23T23:55:22Z" uid="34428" user="usm78-gis" changeset="282764" lat="58.5276357" lon="31.2507979"/>
  <node id="266690824" version="3" timestamp="2008-07-09T18:56:11Z" uid="40563" user="gorch" changeset="446763" lat="58.5276357" lon="31.2507979"/>
  <node id="266690824" version="4" timestamp="2008-11-11T09:08:41Z" uid="52583" user="Bedouin" changeset="735612" lat="58.5276357" lon="31.2507979"/>
  <node id="266690824" version="5" timestamp="2008-11-11T09:09:14Z" uid="52583" user="Bedouin" changeset="735612" lat="58.5276357" lon="31.2507979"/>
  <node id="266690824" version="6" timestamp="2008-11-11T09:09:35Z" uid="52583" user="Bedouin" changeset="735612" lat="58.5276357" lon="31.2507979"/>
  <node id="266690824" version="7" timestamp="2008-11-11T09:10:12Z" uid="52583" user="Bedouin" changeset="735612" lat="58.5276357" lon="31.2507979"/>
  <node id="266690824" version="8" timestamp="2008-11-11T09:10:48Z" uid="52583" user="Bedouin" changeset="735612" lat="58.5276357" lon="31.2507979"/>
  <node id="266690824" version="9" timestamp="2008-11-13T05:32:01Z" uid="52583" user="Bedouin" changeset="741776" lat="58.5276357" lon="31.2507979"/>
  <node id="266690824" version="10" timestamp="2009-02-10T10:53:39Z" uid="52583" user="Bedouin" changeset="333311" lat="58.5276357" lon="31.2507979"/>
  <node id="266690824" version="11" timestamp="2009-02-10T10:54:35Z" uid="52583" user="Bedouin" changeset="333311" lat="58.5276357" lon="31.2507979"/>
  <node id="266690824" version="12" timestamp="2009-02-10T10:57:55Z" uid="52583" user="Bedouin" changeset="333311" lat="58.5276357" lon="31.2507979"/>
  <node id="266695289" version="2" timestamp="2010-05-28T00:54:14Z" uid="20587" user="balrog-kun" changeset="4827116" lat="50.0623581" lon="19.9276915"/>
  <node id="266695289" version="3" timestamp="2011-02-24T09:44:05Z" uid="9475" user="Slawek Maderak" changeset="7379861" lat="50.0623273" lon="19.9277756"/>
  <node id="266695289" version="4" timestamp="2011-08-07T21:51:54Z" uid="56921" user="wojtekka" changeset="8952366" lat="50.0623384" lon="19.9277323"/>
  <node id="266695290" version="2" timestamp="2010-05-28T00:54:20Z" uid="20587" user="balrog-kun" changeset="4827116" lat="50.06332" lon="19.9276731"/>
  <node id="266695290" version="3" timestamp="2011-05-30T13:31:36Z" uid="9475" user="Slawek Maderak" changeset="8292185" lat="50.0633036" lon="19.9276816"/>
  <node id="266695291" version="3" timestamp="2010-05-28T00:54:10Z" uid="20587" user="balrog-kun" changeset="4827116" lat="50.0604755" lon="19.9273439"/>
  <node id="266695291" version="4" timestamp="2011-02-24T10:06:35Z" uid="9475" user="Slawek Maderak" changeset="7379998" lat="50.0604638" lon="19.9274353"/>
  <node id="266695291" version="5" timestamp="2011-08-28T10:02:28Z" uid="56921" user="wojtekka" changeset="9145168" lat="50.0604621" lon="19.9274045"/>
  <node id="266695293" version="4" timestamp="2010-05-28T00:54:07Z" uid="20587" user="balrog-kun" changeset="4827116" lat="50.0599311" lon="19.9279062"/>
  <node id="266695293" version="5" timestamp="2011-02-24T10:06:31Z" uid="9475" user="Slawek Maderak" changeset="7379998" lat="50.0598617" lon="19.9278864"/>
  <node id="266696120" version="3" timestamp="2010-11-01T00:09:01Z" uid="34428" user="usm78-gis" changeset="6249816" lat="59.9904721" lon="30.4447148"/>
  <node id="266696121" version="3" timestamp="2010-11-01T00:08:50Z" uid="34428" user="usm78-gis" changeset="6249816" lat="59.9898134" lon="30.4442348"/>
  <node id="266696122" version="3" timestamp="2010-11-01T00:08:46Z" uid="34428" user="usm78-gis" changeset="6249816" lat="59.9896733" lon="30.4443428"/>
  <node id="266696123" version="3" timestamp="2010-11-01T00:09:05Z" uid="34428" user="usm78-gis" changeset="6249816" lat="59.9904175" lon="30.4444702"/>
  <node id="266696260" version="2" timestamp="2009-09-03T05:20:35Z" uid="20587" user="balrog-kun" changeset="2355667" lat="51.238359" lon="22.5100752">
    <tag k="created_by" v="JOSM"/>
  </node>
  <node id="266696681" version="3" timestamp="2008-07-10T22:57:47Z" uid="6975" user="ulfl" changeset="457552" lat="52.6171541" lon="-8.6533471">
    <tag k="amenity" v="restaurant"/>
    <tag k="name" v="Franz"/>
  </node>
  <node id="266696681" version="4" timestamp="2011-09-27T14:21:56Z" uid="6367" user="mackerski" changeset="9411024" lat="52.6171541" lon="-8.6533471"/>
  <node id="266696720" version="6" timestamp="2010-05-28T00:54:11Z" uid="20587" user="balrog-kun" changeset="4827116" lat="50.0639084" lon="19.9277484"/>
  <node id="266696720" version="7" timestamp="2011-02-23T10:54:25Z" uid="9475" user="Slawek Maderak" changeset="7371290" lat="50.0639022" lon="19.927787"/>
  <node id="266697098" version="2" timestamp="2008-09-14T20:04:51Z" uid="6975" user="ulfl" changeset="640534" lat="49.0450574" lon="8.0372089">
    <tag k="historic" v="ruins"/>
    <tag k="military" v="bunker"/>
    <tag k="name" v="Bunker aus dem dritten Reich"/>
    <tag k="note" v="ww2"/>
  </node>
  <node id="266697098" version="3" timestamp="2010-02-14T18:17:48Z" uid="3585" user="SlowRider" changeset="3876803" lat="49.0450574" lon="8.0372089">
    <tag k="military" v="bunker"/>
    <tag k="name" v="Westwallbunker"/>
    <tag k="ruins" v="yes"/>
  </node>
  <node id="266697098" version="4" timestamp="2010-04-17T19:56:53Z" uid="3585" user="SlowRider" changeset="4451584" lat="49.0450574" lon="8.0372089">
    <tag k="disused" v="yes"/>
    <tag k="military" v="bunker"/>
    <tag k="name" v="Westwallbunker"/>
    <tag k="note" v="ww2 remains"/>
    <tag k="ruins" v="yes"/>
  </node>
  <node id="266697272" version="1" timestamp="2008-05-24T21:15:52Z" uid="11985" user="nikkinikki" changeset="511201" lat="50.9719541" lon="7.0440854"/>
  <node id="266697272" version="2" timestamp="2008-05-24T21:26:39Z" uid="11985" user="nikkinikki" changeset="511201" lat="50.9719709" lon="7.0440661"/>
  <node id="266697272" version="3" timestamp="2008-05-28T07:22:39Z" uid="5871" user="Banny" changeset="539898" lat="50.9719646" lon="7.0440694"/>
  <node id="266697272" version="4" timestamp="2008-09-05T17:17:55Z" uid="35271" user="Shepard" changeset="537778" lat="50.971929" lon="7.0440902"/>
  <node id="266697272" version="5" timestamp="2009-01-06T16:45:28Z" uid="31605" user="hatzfeld" changeset="747834" lat="50.9719399" lon="7.0441421"/>
  <node id="266697272" version="6" timestamp="2009-01-22T09:46:32Z" uid="31605" user="hatzfeld" changeset="823867" lat="50.9719399" lon="7.0441421"/>
  <node id="266697275" version="2" timestamp="2009-09-03T05:20:33Z" uid="20587" user="balrog-kun" changeset="2355667" lat="51.2413129" lon="22.5182522">
    <tag k="created_by" v="JOSM"/>
  </node>
  <node id="266697276" version="2" timestamp="2009-09-03T05:20:34Z" uid="20587" user="balrog-kun" changeset="2355667" lat="51.2410354" lon="22.5181918">
    <tag k="created_by" v="JOSM"/>
  </node>
  <node id="266697277" version="2" timestamp="2009-09-03T05:20:34Z" uid="20587" user="balrog-kun" changeset="2355667" lat="51.2408063" lon="22.5181439">
    <tag k="created_by" v="JOSM"/>
  </node>
  <node id="266697278" version="2" timestamp="2009-09-03T05:20:34Z" uid="20587" user="balrog-kun" changeset="2355667" lat="51.2406388" lon="22.5180721">
    <tag k="created_by" v="JOSM"/>
  </node>
  <node id="266697284" version="2" timestamp="2009-01-11T19:45:39Z" uid="6975" user="ulfl" changeset="772611" lat="49.4838864" lon="11.0108783">
    <tag k="barrier" v="bollard"/>
    <tag k="created_by" v="JOSM"/>
  </node>
  <node id="266697284" version="3" timestamp="2009-04-21T18:44:32Z" uid="109941" user="HorstFuerth" changeset="885527" lat="49.4838864" lon="11.0108783">
    <tag k="barrier" v="bollard"/>
    <tag k="created_by" v="JOSM"/>
  </node>
  <node id="266697370" version="3" timestamp="2008-10-13T06:13:31Z" uid="27600" user="Islanit" changeset="296666" lat="53.5752361" lon="10.1292364"/>
  <node id="266697370" version="4" timestamp="2009-03-24T11:04:24Z" uid="63375" user="Divjo" changeset="852013" lat="53.5752361" lon="10.1292364"/>
  <node id="266697370" version="5" timestamp="2009-04-02T08:41:30Z" uid="112934" user="PFMLB" changeset="52440" lat="53.5752361" lon="10.1292364"/>
  <node id="266697370" version="6" timestamp="2009-04-02T08:41:38Z" uid="112934" user="PFMLB" changeset="52440" lat="53.5752361" lon="10.1292364"/>
  <node id="266697370" version="7" timestamp="2010-05-15T18:15:50Z" uid="149203" user="uebi64" changeset="4709042" lat="53.5751815" lon="10.1291961"/>
  <node id="266698031" version="3" timestamp="2009-05-02T23:23:48Z" uid="6269" user="Mueck" changeset="1055022" lat="49.009013" lon="8.4869159"/>
  <node id="266698031" version="4" timestamp="2011-06-05T11:22:08Z" uid="7009" user="giggls" changeset="8348000" lat="49.009013" lon="8.4869159"/>
  <node id="266698032" version="3" timestamp="2009-05-02T23:23:32Z" uid="6269" user="Mueck" changeset="1055022" lat="49.0087033" lon="8.4870446"/>
  <node id="266698032" version="4" timestamp="2011-06-05T11:22:07Z" uid="7009" user="giggls" changeset="8348000" lat="49.0087118" lon="8.4869608"/>
  <node id="266698032" version="5" timestamp="2011-09-30T08:39:26Z" uid="442210" user="dwausr" changeset="9433372" lat="49.0087118" lon="8.4869608"/>
  <node id="266698100" version="7" timestamp="2009-09-01T12:09:12Z" uid="36809" user="pfoten_weg_!_" changeset="2336869" lat="48.1318725" lon="11.5983613">
    <tag k="addr:city" v="München"/>
    <tag k="addr:country" v="DE"/>
    <tag k="addr:email" v="apotheke@preysing-apotheke.de"/>
    <tag k="addr:housenumber" v="3"/>
    <tag k="addr:postcode" v="81667"/>
    <tag k="addr:street" v="Wörthstraße"/>
    <tag k="amenity" v="pharmacy"/>
    <tag k="name" v="Preysing-Apotheke"/>
    <tag k="opening_hours" v="Mo-Fr 08:00-18:15; Sa 08:00-12:30"/>
    <tag k="phone" v="+49 89 4484107"/>
    <tag k="website" v="http://www.preysing-apotheke.de"/>
  </node>
  <node id="266698100" version="8" timestamp="2010-04-15T15:05:42Z" uid="70696" user="xybot" changeset="4431179" lat="48.1318725" lon="11.5983613">
    <tag k="addr:city" v="München"/>
    <tag k="addr:country" v="DE"/>
    <tag k="addr:housenumber" v="3"/>
    <tag k="addr:postcode" v="81667"/>
    <tag k="addr:street" v="Wörthstraße"/>
    <tag k="amenity" v="pharmacy"/>
    <tag k="email" v="apotheke@preysing-apotheke.de"/>
    <tag k="name" v="Preysing-Apotheke"/>
    <tag k="opening_hours" v="Mo-Fr 08:00-18:15; Sa 08:00-12:30"/>
    <tag k="phone" v="+49 89 4484107"/>
    <tag k="website" v="http://www.preysing-apotheke.de"/>
  </node>
  <node id="266698100" version="9" timestamp="2010-12-30T12:50:57Z" uid="29061" user="KPG" changeset="6808259" lat="48.1318821" lon="11.5983987">
    <tag k="addr:city" v="München"/>
    <tag k="addr:country" v="DE"/>
    <tag k="addr:housenumber" v="3"/>
    <tag k="addr:postcode" v="81667"/>
    <tag k="addr:street" v="Wörthstraße"/>
    <tag k="amenity" v="pharmacy"/>
    <tag k="email" v="apotheke@preysing-apotheke.de"/>
    <tag k="name" v="Preysing-Apotheke"/>
    <tag k="opening_hours" v="Mo-Fr 08:00-18:15; Sa 08:00-12:30"/>
    <tag k="phone" v="+49 89 4484107"/>
    <tag k="website" v="http://www.preysing-apotheke.de"/>
  </node>
  <node id="266698100" version="10" timestamp="2011-03-12T16:31:29Z" uid="290680" user="wheelmap_visitor" changeset="7535029" lat="48.1318821" lon="11.5983987">
    <tag k="addr:city" v="München"/>
    <tag k="addr:country" v="DE"/>
    <tag k="addr:housenumber" v="3"/>
    <tag k="addr:postcode" v="81667"/>
    <tag k="addr:street" v="Wörthstraße"/>
    <tag k="amenity" v="pharmacy"/>
    <tag k="email" v="apotheke@preysing-apotheke.de"/>
    <tag k="name" v="Preysing-Apotheke"/>
    <tag k="opening_hours" v="Mo-Fr 08:00-18:15; Sa 08:00-12:30"/>
    <tag k="phone" v="+49 89 4484107"/>
    <tag k="shop" v="pharmacy"/>
    <tag k="website" v="http://www.preysing-apotheke.de"/>
    <tag k="wheelchair" v="no"/>
  </node>
  <node id="266698100" version="11" timestamp="2011-06-14T04:36:18Z" uid="64164" user="osmkurt" changeset="8433530" lat="48.1318959" lon="11.5984726">
    <tag k="addr:city" v="München"/>
    <tag k="addr:country" v="DE"/>
    <tag k="addr:housenumber" v="3"/>
    <tag k="addr:postcode" v="81667"/>
    <tag k="addr:street" v="Wörthstraße"/>
    <tag k="amenity" v="pharmacy"/>
    <tag k="email" v="apotheke@preysing-apotheke.de"/>
    <tag k="name" v="Preysing-Apotheke"/>
    <tag k="opening_hours" v="Mo-Fr 08:00-18:15; Sa 08:00-12:30"/>
    <tag k="phone" v="+49 89 4484107"/>
    <tag k="shop" v="pharmacy"/>
    <tag k="website" v="http://www.preysing-apotheke.de"/>
    <tag k="wheelchair" v="no"/>
  </node>
  <node id="266698100" version="12" timestamp="2011-06-14T22:58:15Z" uid="64164" user="osmkurt" changeset="8442965" lat="48.1318959" lon="11.5984726">
    <tag k="addr:city" v="München"/>
    <tag k="addr:country" v="DE"/>
    <tag k="addr:housenumber" v="3"/>
    <tag k="addr:postcode" v="81667"/>
    <tag k="addr:street" v="Wörthstraße"/>
    <tag k="amenity" v="pharmacy"/>
    <tag k="dispensing" v="yes"/>
    <tag k="email" v="apotheke@preysing-apotheke.de"/>
    <tag k="name" v="Preysing-Apotheke"/>
    <tag k="opening_hours" v="Mo-Fr 08:00-18:15; Sa 08:00-12:30"/>
    <tag k="phone" v="+49 89 4484107"/>
    <tag k="shop" v="pharmacy"/>
    <tag k="website" v="http://www.preysing-apotheke.de"/>
    <tag k="wheelchair" v="no"/>
  </node>
  <node id="266698100" version="13" timestamp="2011-06-23T22:18:30Z" uid="64164" user="osmkurt" changeset="8526256" lat="48.1319382" lon="11.5983912">
    <tag k="addr:city" v="München"/>
    <tag k="addr:country" v="DE"/>
    <tag k="addr:housenumber" v="3"/>
    <tag k="addr:postcode" v="81667"/>
    <tag k="addr:street" v="Wörthstraße"/>
    <tag k="amenity" v="pharmacy"/>
    <tag k="dispensing" v="yes"/>
    <tag k="email" v="apotheke@preysing-apotheke.de"/>
    <tag k="name" v="Preysing-Apotheke"/>
    <tag k="opening_hours" v="Mo-Fr 08:00-18:15; Sa 08:00-12:30"/>
    <tag k="phone" v="+49 89 4484107"/>
    <tag k="shop" v="pharmacy"/>
    <tag k="website" v="http://www.preysing-apotheke.de"/>
    <tag k="wheelchair" v="no"/>
  </node>
  <node id="266698106" version="2" timestamp="2008-06-27T14:44:33Z" uid="6975" user="ulfl" changeset="313873" lat="48.134827" lon="11.5983122">
    <tag k="created_by" v="JOSM"/>
    <tag k="name" v="Schlecker"/>
    <tag k="shop" v="chemist"/>
  </node>
  <node id="266698106" version="3" timestamp="2009-06-08T16:26:39Z" uid="85761" user="klausis" changeset="1460315" lat="48.134827" lon="11.5983122">
    <tag k="name" v="Schlecker"/>
    <tag k="shop" v="chemist"/>
  </node>
  <node id="266698106" version="4" timestamp="2011-06-22T22:40:34Z" uid="64164" user="osmkurt" changeset="8519132" lat="48.1349508" lon="11.5981682">
    <tag k="name" v="Schlecker"/>
    <tag k="shop" v="chemist"/>
  </node>
  <node id="266698115" version="7" timestamp="2009-04-16T22:46:53Z" uid="6975" user="ulfl" changeset="598814" lat="48.1306785" lon="11.597357">
    <tag k="addr:city" v="München"/>
    <tag k="addr:country" v="DE"/>
    <tag k="addr:email" v="info@sedan-sieben.de"/>
    <tag k="addr:housenumber" v="7"/>
    <tag k="addr:postcode" v="81667"/>
    <tag k="addr:street" v="Sedanstraße"/>
    <tag k="name" v="Fotolabor Sedan Sieben"/>
    <tag k="phone" v="+49 89 4489471"/>
    <tag k="shop" v="photography"/>
    <tag k="website" v="http://www.sedan-sieben.de"/>
  </node>
  <node id="266698115" version="8" timestamp="2009-09-21T21:11:49Z" uid="15891" user="farlokko" changeset="2562918" lat="48.1306785" lon="11.597357">
    <tag k="addr:city" v="München"/>
    <tag k="addr:country" v="DE"/>
    <tag k="addr:email" v="info@sedan-sieben.de"/>
    <tag k="addr:housenumber" v="7"/>
    <tag k="addr:postcode" v="81667"/>
    <tag k="addr:street" v="Sedanstraße"/>
    <tag k="name" v="Fotolabor Sedan Sieben"/>
    <tag k="phone" v="+49 89 4489471"/>
    <tag k="shop" v="photo"/>
    <tag k="website" v="http://www.sedan-sieben.de"/>
  </node>
  <node id="266698115" version="9" timestamp="2010-04-15T15:05:43Z" uid="70696" user="xybot" changeset="4431179" lat="48.1306785" lon="11.597357">
    <tag k="addr:city" v="München"/>
    <tag k="addr:country" v="DE"/>
    <tag k="addr:housenumber" v="7"/>
    <tag k="addr:postcode" v="81667"/>
    <tag k="addr:street" v="Sedanstraße"/>
    <tag k="email" v="info@sedan-sieben.de"/>
    <tag k="name" v="Fotolabor Sedan Sieben"/>
    <tag k="phone" v="+49 89 4489471"/>
    <tag k="shop" v="photo"/>
    <tag k="website" v="http://www.sedan-sieben.de"/>
  </node>
  <node id="266698115" version="10" timestamp="2011-06-09T07:11:09Z" uid="64164" user="osmkurt" changeset="8385735" lat="48.1307717" lon="11.597271">
    <tag k="addr:city" v="München"/>
    <tag k="addr:country" v="DE"/>
    <tag k="addr:housenumber" v="7"/>
    <tag k="addr:postcode" v="81667"/>
    <tag k="addr:street" v="Sedanstraße"/>
    <tag k="email" v="info@sedan-sieben.de"/>
    <tag k="name" v="Fotolabor Sedan Sieben"/>
    <tag k="phone" v="+49 89 4489471"/>
    <tag k="shop" v="photo"/>
    <tag k="website" v="http://www.sedan-sieben.de"/>
  </node>
  <node id="266698115" version="11" timestamp="2011-06-09T07:44:58Z" uid="64164" user="osmkurt" changeset="8385932" lat="48.1307717" lon="11.5972039">
    <tag k="addr:city" v="München"/>
    <tag k="addr:country" v="DE"/>
    <tag k="addr:housenumber" v="7"/>
    <tag k="addr:postcode" v="81667"/>
    <tag k="addr:street" v="Sedanstraße"/>
    <tag k="email" v="info@sedan-sieben.de"/>
    <tag k="name" v="Fotolabor Sedan Sieben"/>
    <tag k="phone" v="+49 89 4489471"/>
    <tag k="shop" v="photo"/>
    <tag k="website" v="http://www.sedan-sieben.de"/>
  </node>
  <node id="266698115" version="12" timestamp="2011-06-09T07:45:19Z" uid="64164" user="osmkurt" changeset="8385932" lat="48.1307717" lon="11.5972039">
    <tag k="email" v="info@sedan-sieben.de"/>
    <tag k="name" v="Fotolabor Sedan Sieben"/>
    <tag k="phone" v="+49 89 4489471"/>
    <tag k="shop" v="photo"/>
    <tag k="website" v="http://www.sedan-sieben.de"/>
  </node>
  <node id="266698115" version="13" timestamp="2011-06-24T02:54:10Z" uid="64164" user="osmkurt" changeset="8528212" lat="48.1307717" lon="11.5972039">
    <tag k="email" v="info@sedan-sieben.de"/>
    <tag k="name" v="Fotolabor Sedan Sieben"/>
    <tag k="phone" v="+49 89 4489471"/>
    <tag k="shop" v="photograhic_lab"/>
    <tag k="website" v="http://www.sedan-sieben.de"/>
  </node>
  <node id="266698115" version="14" timestamp="2011-06-24T02:54:21Z" uid="64164" user="osmkurt" changeset="8528212" lat="48.1307717" lon="11.5972039">
    <tag k="email" v="info@sedan-sieben.de"/>
    <tag k="name" v="Fotolabor Sedan Sieben"/>
    <tag k="phone" v="+49 89 4489471"/>
    <tag k="shop" v="photographic_lab"/>
    <tag k="website" v="http://www.sedan-sieben.de"/>
  </node>
  <node id="266698126" version="2" timestamp="2008-06-27T14:37:07Z" uid="6975" user="ulfl" changeset="313873" lat="48.1318094" lon="11.5934202">
    <tag k="created_by" v="JOSM"/>
    <tag k="name" v="Getränkemarkt Schwabe"/>
    <tag k="shop" v="beverages"/>
  </node>
  <node id="266698126" version="3" timestamp="2009-06-08T16:26:20Z" uid="85761" user="klausis" changeset="1460315" lat="48.1318094" lon="11.5934202">
    <tag k="name" v="Getränkemarkt Schwabe"/>
    <tag k="shop" v="beverages"/>
  </node>
  <node id="266698126" version="4" timestamp="2010-11-25T17:45:11Z" uid="290680" user="wheelmap_visitor" changeset="6452840" lat="48.1318094" lon="11.5934202">
    <tag k="name" v="Getränkemarkt Schwabe"/>
    <tag k="shop" v="beverages"/>
    <tag k="wheelchair" v="no"/>
  </node>
  <node id="266698126" version="5" timestamp="2011-06-25T22:45:17Z" uid="64164" user="osmkurt" changeset="8547409" lat="48.1317749" lon="11.5934364">
    <tag k="name" v="Getränkemarkt Schwabe"/>
    <tag k="shop" v="beverages"/>
    <tag k="wheelchair" v="no"/>
  </node>
  <node id="266698667" version="3" timestamp="2008-07-07T20:31:48Z" uid="5871" user="Banny" changeset="420239" lat="50.9648825" lon="7.0424547"/>
  <node id="266698667" version="4" timestamp="2008-12-03T17:41:21Z" uid="39890" user="AJoNee" changeset="82445" lat="50.9648825" lon="7.0424547"/>
  <node id="266698667" version="5" timestamp="2010-09-14T16:18:57Z" uid="39890" user="AJoNee" changeset="5779766" lat="50.9648825" lon="7.0424547"/>
  <node id="266698667" version="6" timestamp="2012-02-20T14:08:52Z" uid="39890" user="AJoNee" changeset="10740815" lat="50.9648712" lon="7.0424354"/>
  <node id="266698667" version="7" timestamp="2012-02-20T14:55:36Z" uid="39890" user="AJoNee" changeset="10741298" lat="50.9648712" lon="7.0424354"/>
  <node id="266699279" version="2" timestamp="2009-12-09T15:36:21Z" uid="200463" user="harmagedon" changeset="3334003" lat="49.1905183" lon="13.3090037"/>
  <node id="266699279" version="3" timestamp="2012-01-23T08:19:10Z" uid="248441" user="Jandrs" changeset="10473016" lat="49.1905431" lon="13.3089608"/>
  <node id="266699280" version="2" timestamp="2009-12-09T15:36:11Z" uid="200463" user="harmagedon" changeset="3334003" lat="49.1886698" lon="13.3034739"/>
  <node id="266699280" version="3" timestamp="2012-01-23T08:19:10Z" uid="248441" user="Jandrs" changeset="10473016" lat="49.1887111" lon="13.3035775"/>
  <node id="266699281" version="2" timestamp="2009-12-09T15:32:40Z" uid="200463" user="harmagedon" changeset="3334003" lat="49.1494119" lon="13.2560969"/>
  <node id="266699282" version="2" timestamp="2009-12-09T15:32:35Z" uid="200463" user="harmagedon" changeset="3334003" lat="49.1465922" lon="13.2521864"/>
  <node id="266699284" version="3" timestamp="2009-12-09T15:31:41Z" uid="200463" user="harmagedon" changeset="3334003" lat="49.1375367" lon="13.2310465"/>
  <node id="266699285" version="2" timestamp="2009-12-09T15:32:01Z" uid="200463" user="harmagedon" changeset="3334003" lat="49.1424012" lon="13.2289394"/>
  <node id="266696120" version="4" timestamp="2012-06-14T06:43:27Z" uid="392109" user="GaM" changeset="11891771" lat="59.9904576" lon="30.4449172"/>
  <node id="266696121" version="4" timestamp="2012-06-14T06:43:27Z" uid="392109" user="GaM" changeset="11891771" lat="59.989889" lon="30.444206"/>
  <node id="266696122" version="4" timestamp="2012-06-14T06:43:27Z" uid="392109" user="GaM" changeset="11891771" lat="59.9896841" lon="30.4443572"/>
  <node id="266696123" version="4" timestamp="2012-06-14T06:43:28Z" uid="392109" user="GaM" changeset="11891771" lat="59.9904468" lon="30.4446864"/>
  <node id="266698126" version="6" timestamp="2012-07-17T18:29:23Z" uid="722137" user="OSMF Redaction Account" changeset="12270238" lat="48.1317749" lon="11.5934364">
    <tag k="name" v="Getränkemarkt Schwabe"/>
    <tag k="shop" v="beverage"/>
    <tag k="wheelchair" v="no"/>
  </node>
</osm>
