<?xml version='1.0' encoding='UTF-8'?>
<osm version="0.6" generator="libosmium/2.20.0">
  <node id="269041326" version="2" timestamp="2010-03-12T23:17:23Z" uid="30632" user="antblant" changeset="4110635" lat="51.1075122" lon="15.893105"/>
  <node id="269041410" version="2" timestamp="2008-07-03T17:50:44Z" uid="6975" user="ulfl" changeset="379368" lat="50.6843068" lon="6.365428">
    <tag k="name" v="Luysberg"/>
    <tag k="shop" v="butcher"/>
  </node>
  <node id="269041410" version="3" timestamp="2011-12-23T12:58:51Z" uid="290680" user="wheelmap_visitor" changeset="10185228" lat="50.6843068" lon="6.365428">
    <tag k="name" v="Luysberg"/>
    <tag k="shop" v="butcher"/>
    <tag k="wheelchair" v="no"/>
  </node>
  <node id="269041413" version="2" timestamp="2008-07-03T17:52:48Z" uid="6975" user="ulfl" changeset="379368" lat="50.684473" lon="6.366818">
    <tag k="name" v="Wirth"/>
    <tag k="shop" v="bakery"/>
  </node>
  <node id="269041413" version="3" timestamp="2011-12-23T12:57:49Z" uid="290680" user="wheelmap_visitor" changeset="10185228" lat="50.684473" lon="6.366818">
    <tag k="name" v="Wirth"/>
    <tag k="shop" v="bakery"/>
    <tag k="wheelchair" v="no"/>
  </node>
  <node id="269041950" version="2" timestamp="2008-07-03T17:36:11Z" uid="6975" user="ulfl" changeset="379368" lat="50.2360849" lon="8.5593565">
    <tag k="highway" v="bus_stop"/>
    <tag k="name" v="Hirschgarten"/>
  </node>
  <node id="269041950" version="3" timestamp="2008-07-19T19:57:00Z" uid="9254" user="Lenny222" changeset="540640" lat="50.2360849" lon="8.5593565">
    <tag k="highway" v="bus_stop"/>
    <tag k="name" v="Hirschgarten"/>
  </node>
  <node id="269041950" version="4" timestamp="2009-04-05T18:44:09Z" uid="39636" user="telegnom" changeset="228209" lat="50.2360849" lon="8.5593565">
    <tag k="highway" v="bus_stop"/>
    <tag k="name" v="Hirschgarten"/>
  </node>
  <node id="269041955" version="2" timestamp="2008-07-03T17:36:11Z" uid="6975" user="ulfl" changeset="379368" lat="50.2367265" lon="8.5550302">
    <tag k="highway" v="bus_stop"/>
    <tag k="name" v="Stadtranderholung"/>
  </node>
  <node id="269041955" version="3" timestamp="2008-07-19T19:57:00Z" uid="9254" user="Lenny222" changeset="540640" lat="50.2367265" lon="8.5550302">
    <tag k="highway" v="bus_stop"/>
    <tag k="name" v="Stadtranderholung"/>
  </node>
  <node id="269041955" version="4" timestamp="2008-09-09T21:40:32Z" uid="28378" user="PHerison" changeset="585536" lat="50.2367639" lon="8.5550653">
    <tag k="highway" v="bus_stop"/>
    <tag k="name" v="Stadtranderholung"/>
  </node>
  <node id="269041955" version="5" timestamp="2009-04-05T18:44:42Z" uid="39636" user="telegnom" changeset="228209" lat="50.2367639" lon="8.5550653">
    <tag k="highway" v="bus_stop"/>
    <tag k="name" v="Stadtranderholung"/>
  </node>
  <node id="269045916" version="2" timestamp="2008-07-03T17:39:12Z" uid="6975" user="ulfl" changeset="379368" lat="48.12366" lon="-1.6113551">
    <tag k="highway" v="bus_stop"/>
    <tag k="name" v="Boulais"/>
  </node>
  <node id="269045916" version="3" timestamp="2010-02-04T09:39:23Z" uid="66675" user="Pymouss" changeset="3788895" lat="48.12366" lon="-1.6113551"/>
  <node id="269045930" version="2" timestamp="2008-07-03T17:39:07Z" uid="6975" user="ulfl" changeset="379368" lat="48.1235143" lon="-1.6112469">
    <tag k="highway" v="bus_stop"/>
    <tag k="name" v="Boulais"/>
  </node>
  <node id="269045930" version="3" timestamp="2010-02-04T09:39:23Z" uid="66675" user="Pymouss" changeset="3788895" lat="48.1235143" lon="-1.6112469"/>
  <node id="269048282" version="2" timestamp="2008-07-03T00:18:42Z" uid="6975" user="ulfl" changeset="377243" lat="48.1140105" lon="-1.6245143">
    <tag k="name" v="Rennes Motos"/>
    <tag k="shop" v="motorcycle"/>
  </node>
  <node id="269048282" version="3" timestamp="2010-12-02T17:29:29Z" uid="378841" user="goulven999" changeset="6517109" lat="48.1140106" lon="-1.6245144"/>
  <node id="269048282" version="4" timestamp="2010-12-02T17:34:04Z" uid="378841" user="goulven999" changeset="6517109" lat="48.1140106" lon="-1.6245144"/>
  <node id="269048299" version="2" timestamp="2008-07-03T00:18:42Z" uid="6975" user="ulfl" changeset="377243" lat="48.1139934" lon="-1.6253502">
    <tag k="name" v="Le Yam"/>
    <tag k="shop" v="motorcycle"/>
  </node>
  <node id="269048299" version="3" timestamp="2010-12-02T17:29:29Z" uid="378841" user="goulven999" changeset="6517109" lat="48.1139935" lon="-1.6253502"/>
  <node id="269048299" version="4" timestamp="2010-12-02T17:34:04Z" uid="378841" user="goulven999" changeset="6517109" lat="48.1139935" lon="-1.6253502"/>
  <node id="269041413" version="4" timestamp="2012-06-10T15:41:24Z" uid="323189" user="Vossironni" changeset="11855658" lat="50.684473" lon="6.366818">
    <tag k="name" v="BÃ¤ckerei Wirth"/>
    <tag k="shop" v="bakery"/>
    <tag k="wheelchair" v="no"/>
  </node>
</osm>
