<?xml version='1.0' encoding='UTF-8'?>
<osm version="0.6" generator="libosmium/2.20.0">
  <node id="269110780" version="3" timestamp="2011-06-09T22:52:21Z" uid="23543" user="jkjk" changeset="8393155" lat="27.9629805" lon="120.7393878"/>
  <node id="269110780" version="4" timestamp="2011-06-11T10:04:41Z" uid="155277" user="uk1967" changeset="8404471" lat="27.9629549" lon="120.7392961"/>
  <node id="269110781" version="3" timestamp="2011-06-09T22:52:13Z" uid="23543" user="jkjk" changeset="8393155" lat="27.9603664" lon="120.7361163"/>
  <node id="269110781" version="4" timestamp="2011-06-11T10:01:58Z" uid="155277" user="uk1967" changeset="8404456" lat="27.9604048" lon="120.736068"/>
  <node id="269111107" version="2" timestamp="2008-06-27T18:48:27Z" uid="6975" user="ulfl" changeset="313873" lat="49.3846772" lon="11.3546793">
    <tag k="created_by" v="Potlatch 0.9c"/>
  </node>
  <node id="269111126" version="2" timestamp="2008-08-14T18:58:30Z" uid="6975" user="ulfl" changeset="264731" lat="16.4080671" lon="102.8343889">
    <tag k="amenity" v="place_of_worship"/>
    <tag k="name" v="Wat Nong Waeng"/>
    <tag k="religion" v="buddhist"/>
  </node>
  <node id="269111126" version="3" timestamp="2010-05-16T09:08:46Z" uid="287183" user="thep" changeset="4714590" lat="16.4080671" lon="102.834389">
    <tag k="amenity" v="place_of_worship"/>
    <tag k="name" v="วัดหนองแวง"/>
    <tag k="name:en" v="Wat Nong Waeng"/>
    <tag k="name:th" v="วัดหนองแวง"/>
    <tag k="religion" v="buddhist"/>
  </node>
  <node id="269111126" version="4" timestamp="2011-04-12T14:37:27Z" uid="287183" user="thep" changeset="7843268" lat="16.4087494" lon="102.8341752">
    <tag k="amenity" v="place_of_worship"/>
    <tag k="name" v="วัดหนองแวง"/>
    <tag k="name:en" v="Wat Nong Waeng"/>
    <tag k="name:th" v="วัดหนองแวง"/>
    <tag k="religion" v="buddhist"/>
  </node>
  <node id="269111126" version="5" timestamp="2011-08-03T14:52:02Z" uid="104414" user="Willi2006" changeset="8909156" lat="16.4087494" lon="102.8341752"/>
  <node id="269111151" version="5" timestamp="2011-03-13T01:15:34Z" uid="6269" user="Mueck" changeset="7540152" lat="49.0282628" lon="8.4558831">
    <tag k="highway" v="bus_stop"/>
    <tag k="name" v="Oberdorfstraße"/>
  </node>
  <node id="269111151" version="6" timestamp="2012-03-25T09:59:10Z" uid="35468" user="Blunauer" changeset="11093144" lat="49.0282628" lon="8.4558831"/>
  <node id="269111548" version="2" timestamp="2008-08-14T18:58:32Z" uid="6975" user="ulfl" changeset="264731" lat="16.4056794" lon="102.8394529">
    <tag k="amenity" v="place_of_worship"/>
    <tag k="name" v="Wat Sri That"/>
    <tag k="religion" v="buddhist"/>
  </node>
  <node id="269111548" version="3" timestamp="2011-04-12T14:44:14Z" uid="287183" user="thep" changeset="7843332" lat="16.4056794" lon="102.8394529">
    <tag k="amenity" v="place_of_worship"/>
    <tag k="name" v="วัดศรีธาตุ"/>
    <tag k="name:en" v="Sri That Temple"/>
    <tag k="name:th" v="วัดศรีธาตุ"/>
    <tag k="religion" v="buddhist"/>
  </node>
  <node id="269111548" version="4" timestamp="2011-08-03T14:48:44Z" uid="104414" user="Willi2006" changeset="8909156" lat="16.4056794" lon="102.8394529"/>
  <node id="269112208" version="2" timestamp="2011-03-20T17:51:38Z" uid="6269" user="Mueck" changeset="7619399" lat="49.0188986" lon="8.4669605">
    <tag k="highway" v="bus_stop"/>
    <tag k="name" v="Storrenacker Süd"/>
  </node>
  <node id="269112208" version="3" timestamp="2012-03-19T19:29:32Z" uid="35468" user="Blunauer" changeset="11033784" lat="49.0188986" lon="8.4669605"/>
  <node id="269113650" version="5" timestamp="2010-11-23T21:50:40Z" uid="9581" user="Lobelt" changeset="6442910" lat="49.7435104" lon="8.4929767"/>
  <node id="269113650" version="6" timestamp="2011-11-24T05:55:22Z" uid="161619" user="FvGordon" changeset="9929803" lat="49.7435104" lon="8.4929767"/>
  <node id="269115358" version="3" timestamp="2008-07-06T09:27:45Z" uid="6975" user="ulfl" changeset="407266" lat="53.1299562" lon="8.6673746">
    <tag k="power" v="generator"/>
    <tag k="power_source" v="wind"/>
  </node>
  <node id="269115358" version="4" timestamp="2011-06-04T03:28:06Z" uid="297482" user="don-vip" changeset="8335705" lat="53.1299562" lon="8.6673746">
    <tag k="generator:source" v="wind"/>
    <tag k="power" v="generator"/>
    <tag k="power_source" v="wind"/>
  </node>
  <node id="269115358" version="5" timestamp="2012-02-14T21:07:56Z" uid="590907" user="cbdavis" changeset="10686992" lat="53.1299562" lon="8.6673746">
    <tag k="generator:source" v="wind"/>
    <tag k="power" v="generator"/>
  </node>
  <node id="269115358" version="6" timestamp="2012-02-15T10:39:46Z" uid="590907" user="cbdavis" changeset="10690119" lat="53.1299562" lon="8.6673746">
    <tag k="generator:source" v="wind"/>
    <tag k="power" v="generator"/>
    <tag k="power_source" v="wind"/>
  </node>
  <node id="269119656" version="5" timestamp="2008-07-07T01:42:48Z" uid="6975" user="ulfl" changeset="415781" lat="52.1662544" lon="9.1047815">
    <tag k="museum" v="Industriemuseeum Unterer Eisenhammer"/>
  </node>
  <node id="269119656" version="6" timestamp="2008-12-13T19:48:45Z" uid="6975" user="ulfl" changeset="352865" lat="52.1662544" lon="9.1047815">
    <tag k="name" v="Industriemuseeum Unterer Eisenhammer"/>
    <tag k="tourism" v="museum"/>
  </node>
  <node id="269115358" version="7" timestamp="2012-09-11T21:22:06Z" uid="31231" user="Andre68" changeset="13075722" lat="53.1299562" lon="8.6673746">
    <tag k="generator:source" v="wind"/>
    <tag k="power" v="generator"/>
  </node>
</osm>
