<?xml version='1.0' encoding='UTF-8'?>
<osm version="0.6" generator="libosmium/2.20.0">
  <node id="271430156" version="4" timestamp="2009-10-21T22:52:46Z" uid="36809" user="pfoten_weg_!_" changeset="2917503" lat="48.0169118" lon="11.7201072">
    <tag k="historic" v="wayside_cross"/>
    <tag k="name" v="Feldkreuz"/>
  </node>
  <node id="271430250" version="1" timestamp="2008-06-20T20:48:13Z" uid="34428" user="usm78-gis" changeset="250112" lat="59.9545977" lon="30.3739231"/>
  <node id="271430250" version="2" timestamp="2009-03-24T22:03:02Z" uid="29918" user="Mirt" changeset="853843" lat="59.9545977" lon="30.3739231"/>
  <node id="271430251" version="1" timestamp="2008-06-20T20:48:13Z" uid="34428" user="usm78-gis" changeset="250112" lat="59.9534803" lon="30.36952"/>
  <node id="271430251" version="2" timestamp="2009-03-24T22:02:13Z" uid="29918" user="Mirt" changeset="853843" lat="59.953451" lon="30.3687388"/>
  <node id="271430763" version="5" timestamp="2009-10-21T22:52:12Z" uid="36809" user="pfoten_weg_!_" changeset="2917503" lat="48.0162834" lon="11.712216">
    <tag k="amenity" v="bank"/>
    <tag k="atm" v="yes"/>
    <tag k="name" v="Kreissparkasse München Starnberg"/>
    <tag k="operator" v="Kreissparkasse München Starnberg"/>
  </node>
  <node id="271430763" version="6" timestamp="2010-09-29T11:34:02Z" uid="85609" user="AndiFr" changeset="5910784" lat="48.0163461" lon="11.7121779">
    <tag k="amenity" v="bank"/>
    <tag k="atm" v="yes"/>
    <tag k="name" v="Kreissparkasse München Starnberg"/>
    <tag k="operator" v="Kreissparkasse München Starnberg"/>
  </node>
  <node id="271430763" version="7" timestamp="2011-06-19T19:56:49Z" uid="469504" user="Skymaster" changeset="8488457" lat="48.0163461" lon="11.7121779">
    <tag k="amenity" v="bank"/>
    <tag k="atm" v="yes"/>
    <tag k="name" v="Kreissparkasse München Starnberg"/>
    <tag k="operator" v="Kreissparkasse München Starnberg"/>
    <tag k="wheelchair" v="yes"/>
  </node>
  <node id="271430763" version="8" timestamp="2011-07-10T16:44:50Z" uid="8748" user="ToniE" changeset="8685565" lat="48.0163216" lon="11.7122366">
    <tag k="amenity" v="bank"/>
    <tag k="atm" v="yes"/>
    <tag k="name" v="Kreissparkasse München Starnberg"/>
    <tag k="operator" v="Kreissparkasse München Starnberg"/>
    <tag k="wheelchair" v="yes"/>
  </node>
  <node id="271430763" version="9" timestamp="2012-02-17T08:37:16Z" uid="8748" user="ToniE" changeset="10708916" lat="48.0163216" lon="11.7122366">
    <tag k="amenity" v="bank"/>
    <tag k="name" v="Kreissparkasse München Starnberg Ebersberg"/>
    <tag k="operator" v="Kreissparkasse München Starnberg Ebersberg"/>
    <tag k="wheelchair" v="yes"/>
  </node>
  <node id="271430924" version="2" timestamp="2010-01-19T00:09:57Z" uid="216873" user="Goonie" changeset="3655307" lat="52.5174067" lon="13.4086291">
    <tag k="highway" v="bus_stop"/>
    <tag k="key" v="107317"/>
    <tag k="name" v="Berliner Rathaus"/>
  </node>
  <node id="271430924" version="3" timestamp="2011-09-24T15:24:51Z" uid="519501" user="parukhin" changeset="9385129" lat="52.5174067" lon="13.4086291">
    <tag k="highway" v="bus_stop"/>
    <tag k="name" v="Berliner Rathaus"/>
    <tag k="ref" v="107317"/>
  </node>
  <node id="271431413" version="3" timestamp="2009-10-21T22:52:18Z" uid="36809" user="pfoten_weg_!_" changeset="2917503" lat="48.0184554" lon="11.7124892">
    <tag k="amenity" v="place_of_worship"/>
    <tag k="denomination" v="catholic"/>
    <tag k="name" v="Mariä Geburt"/>
    <tag k="religion" v="christian"/>
  </node>
  <node id="271431413" version="4" timestamp="2010-09-09T18:30:43Z" uid="85609" user="AndiFr" changeset="5735059" lat="48.0185873" lon="11.7124487">
    <tag k="amenity" v="place_of_worship"/>
    <tag k="denomination" v="catholic"/>
    <tag k="name" v="Mariä Geburt"/>
    <tag k="religion" v="christian"/>
  </node>
  <node id="271431413" version="5" timestamp="2011-06-19T20:01:55Z" uid="469504" user="Skymaster" changeset="8488457" lat="48.0185873" lon="11.7124487">
    <tag k="amenity" v="place_of_worship"/>
    <tag k="denomination" v="catholic"/>
    <tag k="name" v="Mariä Geburt"/>
    <tag k="religion" v="christian"/>
    <tag k="wheelchair" v="no"/>
  </node>
  <node id="271431446" version="2" timestamp="2008-09-14T22:05:16Z" uid="6975" user="ulfl" changeset="640534" lat="53.0868771" lon="-2.9675395">
    <tag k="barrier" v="bollard"/>
  </node>
  <node id="271432179" version="6" timestamp="2009-10-21T22:52:21Z" uid="36809" user="pfoten_weg_!_" changeset="2917503" lat="48.0164701" lon="11.7158652">
    <tag k="amenity" v="place_of_worship"/>
    <tag k="denomination" v="lutheran"/>
    <tag k="name" v="Kreuz-Christi"/>
    <tag k="religion" v="christian"/>
  </node>
  <node id="271432179" version="7" timestamp="2010-10-25T09:00:54Z" uid="85609" user="AndiFr" changeset="6169649" lat="48.0164923" lon="11.7158738">
    <tag k="amenity" v="place_of_worship"/>
    <tag k="denomination" v="lutheran"/>
    <tag k="name" v="Kreuz-Christi"/>
    <tag k="religion" v="christian"/>
  </node>
  <node id="271432179" version="8" timestamp="2011-06-14T20:03:15Z" uid="469504" user="Skymaster" changeset="8440769" lat="48.0164923" lon="11.7158738">
    <tag k="addr:city" v="Höhenkirchen-Siegertsbrunn"/>
    <tag k="addr:housenumber" v="10"/>
    <tag k="addr:postcode" v="85635"/>
    <tag k="addr:street" v="Esterwagnerstr"/>
    <tag k="amenity" v="place_of_worship"/>
    <tag k="denomination" v="lutheran"/>
    <tag k="name" v="Kreuz-Christi evang. Kirche"/>
    <tag k="phone" v="+49 8102 780858"/>
    <tag k="religion" v="christian"/>
    <tag k="wheelchair" v="yes"/>
    <tag k="wheelchair:description" v="Zugang von der Gartenstr"/>
  </node>
  <node id="271432179" version="9" timestamp="2011-08-26T08:28:17Z" uid="42393" user="mawi42" changeset="9127392" lat="48.0164923" lon="11.7158738">
    <tag k="addr:city" v="Höhenkirchen-Siegertsbrunn"/>
    <tag k="addr:housenumber" v="10"/>
    <tag k="addr:postcode" v="85635"/>
    <tag k="addr:street" v="Esterwagnerstraße"/>
    <tag k="amenity" v="place_of_worship"/>
    <tag k="denomination" v="lutheran"/>
    <tag k="name" v="Kreuz-Christi evang. Kirche"/>
    <tag k="phone" v="+49 8102 780858"/>
    <tag k="religion" v="christian"/>
    <tag k="wheelchair" v="yes"/>
    <tag k="wheelchair:description" v="Zugang von der Gartenstr"/>
  </node>
  <node id="271432491" version="1" timestamp="2008-06-20T20:53:59Z" uid="34428" user="usm78-gis" changeset="250112" lat="59.9743602" lon="30.4362883"/>
  <node id="271432491" version="2" timestamp="2008-06-20T20:55:19Z" uid="34428" user="usm78-gis" changeset="250112" lat="59.9743602" lon="30.4362883"/>
  <node id="271432559" version="3" timestamp="2009-10-21T22:52:57Z" uid="36809" user="pfoten_weg_!_" changeset="2917503" lat="48.0194552" lon="11.7193929">
    <tag k="amenity" v="telephone"/>
    <tag k="operator" v="Deutsche Telekom AG"/>
  </node>
  <node id="271432562" version="3" timestamp="2009-10-21T22:52:57Z" uid="36809" user="pfoten_weg_!_" changeset="2917503" lat="48.0194694" lon="11.7195749">
    <tag k="amenity" v="post_box"/>
    <tag k="operator" v="Deutsche Post"/>
  </node>
  <node id="271432562" version="4" timestamp="2009-12-01T22:44:06Z" uid="8748" user="ToniE" changeset="3268294" lat="48.0194694" lon="11.7195749">
    <tag k="amenity" v="post_box"/>
    <tag k="collection_times" v="fixme"/>
    <tag k="operator" v="Deutsche Post"/>
    <tag k="postal_code" v="fixme"/>
    <tag k="ref" v="fixme"/>
  </node>
  <node id="271432562" version="5" timestamp="2010-04-18T15:02:12Z" uid="8748" user="ToniE" changeset="4458800" lat="48.0194694" lon="11.7195749">
    <tag k="amenity" v="post_box"/>
    <tag k="collection_times" v="Mo-Fr 16:30; Sa 10:00"/>
    <tag k="operator" v="Deutsche Post"/>
    <tag k="postal_code" v="85635"/>
    <tag k="ref" v="Bahnhof, 85635 Höhenkirchen-Siegertsbrunn"/>
  </node>
  <node id="271432562" version="6" timestamp="2011-07-10T16:44:52Z" uid="8748" user="ToniE" changeset="8685565" lat="48.0194694" lon="11.7195749">
    <tag k="amenity" v="post_box"/>
    <tag k="collection_times" v="Mo-Fr 16:30; Sa 10:00"/>
    <tag k="operator" v="Deutsche Post AG"/>
    <tag k="postal_code" v="85635"/>
    <tag k="ref" v="Bahnhof, 85635 Höhenkirchen-Siegertsbrunn"/>
  </node>
  <node id="271432734" version="6" timestamp="2009-10-21T22:52:53Z" uid="36809" user="pfoten_weg_!_" changeset="2917503" lat="48.0186915" lon="11.7190637">
    <tag k="bus_lines" v="216"/>
    <tag k="highway" v="bus_stop"/>
    <tag k="name" v="Höhenkirchen-Siegertsbrunn (S)"/>
    <tag k="operator" v="MVG"/>
    <tag k="shelter" v="yes"/>
    <tag k="website:official" v="http://www.mvv-muenchen.de"/>
  </node>
  <node id="271432734" version="7" timestamp="2009-10-30T16:56:44Z" uid="8748" user="ToniE" changeset="2990626" lat="48.0186915" lon="11.7190637">
    <tag k="bench" v="yes"/>
    <tag k="bin" v="yes"/>
    <tag k="bus_lines" v="216"/>
    <tag k="bus_routes" v="216"/>
    <tag k="highway" v="bus_stop"/>
    <tag k="name" v="Höhenkirchen-Siegertsbrunn (S)"/>
    <tag k="network" v="MVV"/>
    <tag k="operator" v="MVG"/>
    <tag k="ref" v="216"/>
    <tag k="shelter" v="yes"/>
    <tag k="website" v="http://www.mvv-muenchen.de"/>
  </node>
  <node id="271432734" version="8" timestamp="2010-04-28T19:12:12Z" uid="8748" user="ToniE" changeset="4552557" lat="48.0186915" lon="11.7190637">
    <tag k="bench" v="yes"/>
    <tag k="bin" v="yes"/>
    <tag k="bus" v="yes"/>
    <tag k="bus_lines" v="216"/>
    <tag k="bus_routes" v="216"/>
    <tag k="highway" v="bus_stop"/>
    <tag k="name" v="Höhenkirchen-Siegertsbrunn (S)"/>
    <tag k="network" v="MVV"/>
    <tag k="operator" v="MVG"/>
    <tag k="public_transport" v="platform"/>
    <tag k="ref" v="216"/>
    <tag k="shelter" v="yes"/>
    <tag k="website" v="http://www.mvv-muenchen.de"/>
  </node>
  <node id="271432734" version="9" timestamp="2011-09-15T18:13:56Z" uid="290680" user="wheelmap_visitor" changeset="9309514" lat="48.0186915" lon="11.7190637">
    <tag k="bench" v="yes"/>
    <tag k="bin" v="yes"/>
    <tag k="bus" v="yes"/>
    <tag k="bus_lines" v="216"/>
    <tag k="bus_routes" v="216"/>
    <tag k="highway" v="bus_stop"/>
    <tag k="name" v="Höhenkirchen-Siegertsbrunn (S)"/>
    <tag k="network" v="MVV"/>
    <tag k="operator" v="MVG"/>
    <tag k="public_transport" v="platform"/>
    <tag k="ref" v="216"/>
    <tag k="shelter" v="yes"/>
    <tag k="website" v="http://www.mvv-muenchen.de"/>
    <tag k="wheelchair" v="limited"/>
  </node>
  <node id="271433893" version="3" timestamp="2009-01-05T12:18:03Z" uid="58091" user="Andreas M" changeset="735917" lat="48.1708291" lon="16.2912915">
    <tag k="name" v="Wattmanngasse"/>
    <tag k="railway" v="tram_stop"/>
  </node>
  <node id="271433893" version="4" timestamp="2011-04-21T19:20:39Z" uid="99800" user="wolfbert" changeset="7928413" lat="48.1708451" lon="16.2912084">
    <tag k="name" v="Wattmanngasse"/>
    <tag k="railway" v="tram_stop"/>
  </node>
  <node id="271433893" version="5" timestamp="2011-08-05T09:22:33Z" uid="494207" user="ckschwoedi" changeset="8927259" lat="48.1709145" lon="16.290872">
    <tag k="name" v="Wattmanngasse"/>
    <tag k="railway" v="tram_stop"/>
  </node>
  <node id="271433893" version="6" timestamp="2011-10-08T13:25:17Z" uid="189469" user="geojosef" changeset="9502573" lat="48.1709093" lon="16.2908683">
    <tag k="name" v="Wattmanngasse"/>
    <tag k="railway" v="tram_stop"/>
  </node>
  <node id="271433893" version="7" timestamp="2011-10-21T22:16:15Z" uid="129531" user="almich" changeset="9620380" lat="48.1709093" lon="16.2908683">
    <tag k="name" v="Wattmanngasse"/>
    <tag k="public_transport" v="stop_position"/>
    <tag k="railway" v="tram_stop"/>
  </node>
  <node id="271434062" version="3" timestamp="2009-10-21T22:53:32Z" uid="36809" user="pfoten_weg_!_" changeset="2917503" lat="48.0170563" lon="11.7315545"/>
  <node id="271434065" version="2" timestamp="2009-10-21T22:53:31Z" uid="36809" user="pfoten_weg_!_" changeset="2917503" lat="48.0163971" lon="11.7317758"/>
  <node id="271434067" version="3" timestamp="2009-10-21T22:53:31Z" uid="36809" user="pfoten_weg_!_" changeset="2917503" lat="48.016441" lon="11.7316624"/>
  <node id="271434069" version="3" timestamp="2009-10-21T22:53:34Z" uid="36809" user="pfoten_weg_!_" changeset="2917503" lat="48.0171247" lon="11.7314881"/>
  <node id="271434072" version="3" timestamp="2009-10-21T22:53:35Z" uid="36809" user="pfoten_weg_!_" changeset="2917503" lat="48.0171494" lon="11.731609"/>
  <node id="271434074" version="3" timestamp="2009-10-21T22:53:34Z" uid="36809" user="pfoten_weg_!_" changeset="2917503" lat="48.0170738" lon="11.7317645"/>
  <node id="271434076" version="3" timestamp="2009-10-21T22:53:33Z" uid="36809" user="pfoten_weg_!_" changeset="2917503" lat="48.0165777" lon="11.7323627"/>
  <node id="271434078" version="3" timestamp="2009-10-21T22:53:33Z" uid="36809" user="pfoten_weg_!_" changeset="2917503" lat="48.0164431" lon="11.7322805"/>
  <node id="271434369" version="2" timestamp="2009-10-21T22:53:13Z" uid="36809" user="pfoten_weg_!_" changeset="2917503" lat="48.0145496" lon="11.7282526"/>
  <node id="271434371" version="2" timestamp="2009-10-21T22:53:12Z" uid="36809" user="pfoten_weg_!_" changeset="2917503" lat="48.0145681" lon="11.7287172"/>
  <node id="271434373" version="3" timestamp="2009-10-21T22:53:12Z" uid="36809" user="pfoten_weg_!_" changeset="2917503" lat="48.0138734" lon="11.7287882"/>
  <node id="271434375" version="3" timestamp="2009-10-21T22:53:13Z" uid="36809" user="pfoten_weg_!_" changeset="2917503" lat="48.0138383" lon="11.7283155"/>
  <node id="271436093" version="3" timestamp="2009-08-31T20:51:17Z" uid="36809" user="pfoten_weg_!_" changeset="2331411" lat="48.1273199" lon="11.5392525"/>
  <node id="271436093" version="4" timestamp="2010-04-22T01:55:07Z" uid="46472" user="sendelhorst" changeset="4492128" lat="48.12735" lon="11.5392439"/>
  <node id="271436093" version="5" timestamp="2010-04-24T18:14:50Z" uid="46472" user="sendelhorst" changeset="4514254" lat="48.1273789" lon="11.5393035"/>
  <node id="271436093" version="6" timestamp="2011-03-06T23:33:55Z" uid="46472" user="sendelhorst" changeset="7479836" lat="48.127332" lon="11.5392302"/>
  <node id="271436094" version="3" timestamp="2009-08-31T20:51:17Z" uid="36809" user="pfoten_weg_!_" changeset="2331411" lat="48.1277381" lon="11.5389951"/>
  <node id="271436094" version="4" timestamp="2010-04-24T18:14:48Z" uid="46472" user="sendelhorst" changeset="4514254" lat="48.1277453" lon="11.539033"/>
  <node id="271436094" version="5" timestamp="2010-05-29T02:42:09Z" uid="46472" user="sendelhorst" changeset="4839273" lat="48.1277453" lon="11.539033">
    <tag k="barrier" v="bollard"/>
    <tag k="bicycle" v="yes"/>
    <tag k="foot" v="yes"/>
  </node>
  <node id="271436094" version="6" timestamp="2010-05-31T23:29:54Z" uid="46472" user="sendelhorst" changeset="4869521" lat="48.1278135" lon="11.5390059">
    <tag k="barrier" v="bollard"/>
    <tag k="bicycle" v="yes"/>
    <tag k="foot" v="yes"/>
  </node>
  <node id="271436094" version="7" timestamp="2011-03-06T23:33:56Z" uid="46472" user="sendelhorst" changeset="7479836" lat="48.1278451" lon="11.5389647">
    <tag k="barrier" v="bollard"/>
    <tag k="bicycle" v="yes"/>
    <tag k="foot" v="yes"/>
  </node>
  <node id="271436095" version="6" timestamp="2009-08-31T20:51:17Z" uid="36809" user="pfoten_weg_!_" changeset="2331411" lat="48.1278183" lon="11.5391839"/>
  <node id="271436095" version="7" timestamp="2010-05-31T23:29:54Z" uid="46472" user="sendelhorst" changeset="4869521" lat="48.1278825" lon="11.5391448"/>
  <node id="271436095" version="8" timestamp="2011-03-06T23:33:58Z" uid="46472" user="sendelhorst" changeset="7479836" lat="48.1278907" lon="11.5391341"/>
  <node id="271437665" version="1" timestamp="2008-06-20T21:08:11Z" uid="34428" user="usm78-gis" changeset="250112" lat="59.9032854" lon="30.2731751"/>
  <node id="271437665" version="2" timestamp="2009-03-25T21:20:54Z" uid="13502" user="Alexander Leschinsky" changeset="857677" lat="59.9032854" lon="30.2731751"/>
  <node id="271437665" version="3" timestamp="2009-03-25T21:23:00Z" uid="13502" user="Alexander Leschinsky" changeset="857677" lat="59.9032854" lon="30.2731751"/>
  <node id="271438116" version="2" timestamp="2008-10-07T12:04:03Z" uid="9581" user="Lobelt" changeset="137401" lat="51.5173403" lon="13.9867094"/>
  <node id="271438116" version="3" timestamp="2012-03-11T00:40:35Z" uid="28234" user="derandi" changeset="10938238" lat="51.5173403" lon="13.9867094"/>
  <node id="271438148" version="1" timestamp="2008-06-20T21:08:51Z" uid="34132" user="Christian Gohlke" changeset="233990" lat="51.5171875" lon="13.9899459"/>
  <node id="271438148" version="2" timestamp="2008-06-23T08:04:39Z" uid="9581" user="Lobelt" changeset="267307" lat="51.5172654" lon="13.9901074"/>
  <node id="271438148" version="3" timestamp="2011-01-31T15:23:52Z" uid="352869" user="Hans Wurst" changeset="7145899" lat="51.5171136" lon="13.9897961"/>
  <node id="271438148" version="4" timestamp="2012-03-11T00:40:22Z" uid="28234" user="derandi" changeset="10938238" lat="51.5171157" lon="13.9898713"/>
  <node id="271439106" version="4" timestamp="2008-07-07T19:11:11Z" uid="6975" user="ulfl" changeset="420350" lat="49.0852661" lon="11.8756113">
    <tag k="name" v="Ried"/>
    <tag k="place" v="village"/>
    <tag k="population" v="100"/>
  </node>
  <node id="271439106" version="5" timestamp="2008-08-23T18:22:21Z" uid="59828" user="Noodle" changeset="378076" lat="49.0852661" lon="11.8756113">
    <tag k="name" v="Ried"/>
    <tag k="place" v="village"/>
    <tag k="population" v="86"/>
  </node>
  <node id="271439106" version="6" timestamp="2008-12-19T00:29:06Z" uid="42429" user="FK270673" changeset="473539" lat="49.0852685" lon="11.8756079">
    <tag k="created_by" v="Potlatch 0.10f"/>
    <tag k="is_in" v="Laaber"/>
    <tag k="name" v="Ried"/>
    <tag k="place" v="hamlet"/>
    <tag k="population" v="86"/>
    <tag k="source" v="www.vg-laaber.de"/>
  </node>
  <node id="271439106" version="7" timestamp="2012-03-16T00:15:46Z" uid="479256" user="geodreieck4711" changeset="10994248" lat="49.0852685" lon="11.8756079">
    <tag k="is_in" v="Laaber"/>
    <tag k="name" v="Ried"/>
    <tag k="place" v="hamlet"/>
    <tag k="population" v="86"/>
    <tag k="source" v="www.vg-laaber.de"/>
  </node>
  <node id="271439598" version="5" timestamp="2010-04-26T19:24:47Z" uid="33382" user="de_muur" changeset="4535132" lat="52.9612628" lon="9.1491618"/>
  <node id="271439598" version="6" timestamp="2010-12-06T21:32:57Z" uid="57645" user="KartoGrapHiti" changeset="6569150" lat="52.961222" lon="9.1491167"/>
  <node id="271439598" version="7" timestamp="2011-08-22T16:43:13Z" uid="57645" user="KartoGrapHiti" changeset="9095851" lat="52.9612121" lon="9.1491456"/>
  <node id="271439601" version="5" timestamp="2010-04-26T19:24:48Z" uid="33382" user="de_muur" changeset="4535132" lat="52.9613472" lon="9.146056"/>
  <node id="271439601" version="6" timestamp="2010-12-06T21:32:16Z" uid="57645" user="KartoGrapHiti" changeset="6569150" lat="52.9612566" lon="9.1465973"/>
  <node id="271432559" version="4" timestamp="2012-06-17T18:51:15Z" uid="8748" user="ToniE" changeset="11929139" lat="48.0194167" lon="11.7193408">
    <tag k="amenity" v="telephone"/>
    <tag k="operator" v="Deutsche Telekom AG"/>
  </node>
  <node id="271432562" version="7" timestamp="2012-06-17T18:51:15Z" uid="8748" user="ToniE" changeset="11929139" lat="48.0194566" lon="11.7195475">
    <tag k="amenity" v="post_box"/>
    <tag k="collection_times" v="Mo-Fr 16:30; Sa 10:00"/>
    <tag k="operator" v="Deutsche Post AG"/>
    <tag k="postal_code" v="85635"/>
    <tag k="ref" v="Bahnhof, 85635 Höhenkirchen-Siegertsbrunn"/>
  </node>
  <node id="271432734" version="10" timestamp="2012-04-21T14:29:52Z" uid="8748" user="ToniE" changeset="11374303" lat="48.0186915" lon="11.7190637">
    <tag k="bench" v="yes"/>
    <tag k="bin" v="yes"/>
    <tag k="bus" v="yes"/>
    <tag k="bus_lines" v="216"/>
    <tag k="bus_routes" v="216"/>
    <tag k="name" v="Höhenkirchen-Siegertsbrunn (S)"/>
    <tag k="network" v="MVV"/>
    <tag k="operator" v="MVG"/>
    <tag k="public_transport" v="platform"/>
    <tag k="ref" v="216"/>
    <tag k="shelter" v="yes"/>
    <tag k="website" v="http://www.mvv-muenchen.de"/>
    <tag k="wheelchair" v="limited"/>
  </node>
  <node id="271432734" version="11" timestamp="2012-06-17T18:51:07Z" uid="8748" user="ToniE" changeset="11929139" lat="48.0186892" lon="11.7190503">
    <tag k="bench" v="yes"/>
    <tag k="bin" v="yes"/>
    <tag k="bus" v="yes"/>
    <tag k="bus_lines" v="216"/>
    <tag k="bus_routes" v="216"/>
    <tag k="name" v="Höhenkirchen-Siegertsbrunn (S)"/>
    <tag k="network" v="MVV"/>
    <tag k="operator" v="MVG"/>
    <tag k="public_transport" v="platform"/>
    <tag k="ref" v="216"/>
    <tag k="shelter" v="yes"/>
    <tag k="website" v="http://www.mvv-muenchen.de"/>
    <tag k="wheelchair" v="limited"/>
  </node>
  <node id="271433893" version="8" timestamp="2012-07-17T01:03:40Z" uid="722137" user="OSMF Redaction Account" changeset="12254505" lat="48.1709093" lon="16.2908683">
    <tag k="public_transport" v="stop_position"/>
  </node>
  <node id="271436095" version="9" timestamp="2012-08-04T18:08:14Z" uid="64536" user="Michael Forster" changeset="12612448" lat="48.1278907" lon="11.5391172"/>
  <node id="271437665" version="4" timestamp="2012-07-17T11:36:16Z" uid="384084" user="Kostik" changeset="12264288" lat="59.9032854" lon="30.2731749"/>
  <node id="271437665" version="5" timestamp="2012-08-31T04:44:33Z" uid="760215" user="pnorman redaction revert" changeset="12926070" lat="59.9032854" lon="30.2731749"/>
</osm>
