<?xml version='1.0' encoding='UTF-8'?>
<osm version="0.6" generator="libosmium/2.20.0">
  <node id="272120232" version="2" timestamp="2009-10-19T19:05:00Z" uid="36809" user="pfoten_weg_!_" changeset="2897478" lat="47.7902782" lon="11.6863618">
    <tag k="amenity" v="place_of_worship"/>
    <tag k="denomination" v="catholic"/>
    <tag k="name" v="Heilig Kreuz Schaftlach"/>
    <tag k="religion" v="christian"/>
  </node>
  <node id="272120232" version="3" timestamp="2012-02-28T00:39:25Z" uid="133704" user="bobus" changeset="10815066" lat="47.7902782" lon="11.6863618"/>
  <node id="272120360" version="3" timestamp="2009-10-01T16:26:41Z" uid="86259" user="hasse_osm_korinthenkacker" changeset="2702067" lat="47.7930756" lon="11.694843">
    <tag k="railway" v="level_crossing"/>
  </node>
  <node id="272120393" version="2" timestamp="2009-06-06T12:47:02Z" uid="70800" user="Cellpaq" changeset="1437888" lat="47.7940333" lon="11.6970964">
    <tag k="created_by" v="JOSM"/>
    <tag k="leisure" v="pitch"/>
    <tag k="name" v="TSV Schaftlach"/>
    <tag k="sport" v="soccer"/>
  </node>
  <node id="272120393" version="3" timestamp="2009-10-19T19:05:54Z" uid="36809" user="pfoten_weg_!_" changeset="2897478" lat="47.7940333" lon="11.6970964">
    <tag k="leisure" v="pitch"/>
    <tag k="name" v="TSV Schaftlach"/>
    <tag k="sport" v="soccer"/>
  </node>
  <node id="272120393" version="4" timestamp="2010-12-29T23:19:51Z" uid="149876" user="dbusse" changeset="6804664" lat="47.7940333" lon="11.6970964">
    <tag k="leisure" v="pitch"/>
    <tag k="name" v="TSV Schaftlach"/>
    <tag k="sport" v="soccer"/>
  </node>
  <node id="272126803" version="1" timestamp="2008-06-23T01:27:46Z" uid="30201" user="rrankin" changeset="266043" lat="-33.7229989" lon="150.6691776"/>
  <node id="272126803" version="2" timestamp="2010-01-06T03:47:22Z" uid="7617" user="Franc" changeset="3550784" lat="-33.7229135" lon="150.6691306"/>
  <node id="272126808" version="1" timestamp="2008-06-23T01:27:46Z" uid="30201" user="rrankin" changeset="266043" lat="-33.7229112" lon="150.6691159"/>
  <node id="272126813" version="1" timestamp="2008-06-23T01:27:47Z" uid="30201" user="rrankin" changeset="266043" lat="-33.7227261" lon="150.6699886"/>
  <node id="272126813" version="2" timestamp="2010-01-06T03:47:23Z" uid="7617" user="Franc" changeset="3550784" lat="-33.7226298" lon="150.6700214">
    <tag k="highway" v="crossing"/>
  </node>
  <node id="272126817" version="1" timestamp="2008-06-23T01:27:48Z" uid="30201" user="rrankin" changeset="266043" lat="-33.7226466" lon="150.6710014"/>
  <node id="272126817" version="2" timestamp="2010-01-06T03:47:23Z" uid="7617" user="Franc" changeset="3550784" lat="-33.7225712" lon="150.670938">
    <tag k="highway" v="crossing"/>
  </node>
  <node id="272126822" version="1" timestamp="2008-06-23T01:27:49Z" uid="30201" user="rrankin" changeset="266043" lat="-33.7225503" lon="150.67219"/>
  <node id="272126822" version="2" timestamp="2010-01-06T03:47:23Z" uid="7617" user="Franc" changeset="3550784" lat="-33.7224876" lon="150.6721245"/>
  <node id="272126827" version="1" timestamp="2008-06-23T01:27:49Z" uid="30201" user="rrankin" changeset="266043" lat="-33.7258212" lon="150.6699728"/>
  <node id="272126827" version="2" timestamp="2010-01-06T03:47:22Z" uid="7617" user="Franc" changeset="3550784" lat="-33.7256804" lon="150.6697106"/>
  <node id="272126831" version="1" timestamp="2008-06-23T01:27:50Z" uid="30201" user="rrankin" changeset="266043" lat="-33.7277148" lon="150.6771494"/>
  <node id="272126831" version="2" timestamp="2011-07-19T11:31:38Z" uid="441958" user="Pete_C" changeset="8767400" lat="-33.7276665" lon="150.6770982"/>
  <node id="272126835" version="1" timestamp="2008-06-23T01:27:51Z" uid="30201" user="rrankin" changeset="266043" lat="-33.7271875" lon="150.6734121"/>
  <node id="272126835" version="2" timestamp="2010-01-06T03:47:23Z" uid="7617" user="Franc" changeset="3550784" lat="-33.7271358" lon="150.6733714"/>
  <node id="272129747" version="2" timestamp="2008-07-06T09:27:16Z" uid="6975" user="ulfl" changeset="407266" lat="54.453092" lon="9.203962">
    <tag k="name" v="WEA NM-17283 1500kW"/>
    <tag k="note" v="WEA NM-17283 1500kW"/>
    <tag k="power" v="generator"/>
    <tag k="power_source" v="wind"/>
  </node>
  <node id="272129747" version="3" timestamp="2008-09-15T00:39:40Z" uid="24920" user="Schusch" changeset="639367" lat="54.453092" lon="9.203962">
    <tag k="name" v="WEA NM-17283 1500 kW"/>
    <tag k="note" v="WEA NM-17283 1500 kW"/>
    <tag k="power" v="generator"/>
    <tag k="power_source" v="wind"/>
  </node>
  <node id="272129747" version="4" timestamp="2010-06-04T05:05:55Z" uid="24920" user="Schusch" changeset="4898021" lat="54.453092" lon="9.203962">
    <tag k="note" v="WEA NM-17283 1500 kW"/>
    <tag k="power" v="generator"/>
    <tag k="power_rating" v="1500 kW"/>
    <tag k="power_source" v="wind"/>
    <tag k="ref" v="NM-17283"/>
  </node>
  <node id="272129747" version="5" timestamp="2011-06-04T03:31:53Z" uid="297482" user="don-vip" changeset="8335705" lat="54.453092" lon="9.203962">
    <tag k="generator:source" v="wind"/>
    <tag k="note" v="WEA NM-17283 1500 kW"/>
    <tag k="power" v="generator"/>
    <tag k="power_rating" v="1500 kW"/>
    <tag k="power_source" v="wind"/>
    <tag k="ref" v="NM-17283"/>
  </node>
  <node id="272129747" version="6" timestamp="2011-06-04T23:03:42Z" uid="297482" user="don-vip" changeset="8344122" lat="54.453092" lon="9.203962">
    <tag k="generator:output:electricity" v="1500 kW"/>
    <tag k="generator:source" v="wind"/>
    <tag k="note" v="WEA NM-17283 1500 kW"/>
    <tag k="power" v="generator"/>
    <tag k="power_rating" v="1500 kW"/>
    <tag k="power_source" v="wind"/>
    <tag k="ref" v="NM-17283"/>
  </node>
  <node id="272129747" version="7" timestamp="2011-06-04T23:39:46Z" uid="297482" user="don-vip" changeset="8344266" lat="54.453092" lon="9.203962">
    <tag k="generator:output:electricity" v="1.5 MW"/>
    <tag k="generator:source" v="wind"/>
    <tag k="note" v="WEA NM-17283 1500 kW"/>
    <tag k="power" v="generator"/>
    <tag k="power_rating" v="1500 kW"/>
    <tag k="power_source" v="wind"/>
    <tag k="ref" v="NM-17283"/>
  </node>
  <node id="272129747" version="8" timestamp="2012-02-14T21:14:42Z" uid="590907" user="cbdavis" changeset="10686992" lat="54.453092" lon="9.203962">
    <tag k="generator:output:electricity" v="1.5 MW"/>
    <tag k="generator:source" v="wind"/>
    <tag k="note" v="WEA NM-17283 1500 kW"/>
    <tag k="power" v="generator"/>
    <tag k="power_rating" v="1500 kW"/>
    <tag k="ref" v="NM-17283"/>
  </node>
  <node id="272129747" version="9" timestamp="2012-02-15T10:47:57Z" uid="590907" user="cbdavis" changeset="10690119" lat="54.453092" lon="9.203962">
    <tag k="generator:output:electricity" v="1.5 MW"/>
    <tag k="generator:source" v="wind"/>
    <tag k="note" v="WEA NM-17283 1500 kW"/>
    <tag k="power" v="generator"/>
    <tag k="power_rating" v="1500 kW"/>
    <tag k="power_source" v="wind"/>
    <tag k="ref" v="NM-17283"/>
  </node>
  <node id="272129749" version="2" timestamp="2008-07-06T09:27:16Z" uid="6975" user="ulfl" changeset="407266" lat="54.461854" lon="9.199084">
    <tag k="name" v="WEA NM-17284 1500kW"/>
    <tag k="note" v="WEA NM-17284 1500kW"/>
    <tag k="power" v="generator"/>
    <tag k="power_source" v="wind"/>
  </node>
  <node id="272129749" version="3" timestamp="2008-09-10T18:55:41Z" uid="52888" user="Timminf" changeset="598997" lat="54.4612876" lon="9.198887">
    <tag k="created_by" v="Potlatch 0.10b"/>
    <tag k="name" v="WEA NM-17284 1500kW"/>
    <tag k="note" v="WEA NM-17284 1500kW"/>
    <tag k="power" v="generator"/>
    <tag k="power_source" v="wind"/>
  </node>
  <node id="272129749" version="4" timestamp="2008-09-15T00:39:40Z" uid="24920" user="Schusch" changeset="639367" lat="54.4612876" lon="9.198887">
    <tag k="created_by" v="Potlatch 0.10b"/>
    <tag k="name" v="WEA NM-17284 1500 kW"/>
    <tag k="note" v="WEA NM-17284 1500 kW"/>
    <tag k="power" v="generator"/>
    <tag k="power_source" v="wind"/>
  </node>
  <node id="272129749" version="5" timestamp="2010-06-04T05:07:41Z" uid="24920" user="Schusch" changeset="4898025" lat="54.4612876" lon="9.198887">
    <tag k="note" v="WEA NM-17284 1500 kW"/>
    <tag k="power" v="generator"/>
    <tag k="power_rating" v="1500 kW"/>
    <tag k="power_source" v="wind"/>
    <tag k="ref" v="NM-17284"/>
  </node>
  <node id="272129749" version="6" timestamp="2011-06-04T03:31:53Z" uid="297482" user="don-vip" changeset="8335705" lat="54.4612876" lon="9.198887">
    <tag k="generator:source" v="wind"/>
    <tag k="note" v="WEA NM-17284 1500 kW"/>
    <tag k="power" v="generator"/>
    <tag k="power_rating" v="1500 kW"/>
    <tag k="power_source" v="wind"/>
    <tag k="ref" v="NM-17284"/>
  </node>
  <node id="272129749" version="7" timestamp="2011-06-04T23:03:43Z" uid="297482" user="don-vip" changeset="8344122" lat="54.4612876" lon="9.198887">
    <tag k="generator:output:electricity" v="1500 kW"/>
    <tag k="generator:source" v="wind"/>
    <tag k="note" v="WEA NM-17284 1500 kW"/>
    <tag k="power" v="generator"/>
    <tag k="power_rating" v="1500 kW"/>
    <tag k="power_source" v="wind"/>
    <tag k="ref" v="NM-17284"/>
  </node>
  <node id="272129749" version="8" timestamp="2011-06-04T23:39:46Z" uid="297482" user="don-vip" changeset="8344266" lat="54.4612876" lon="9.198887">
    <tag k="generator:output:electricity" v="1.5 MW"/>
    <tag k="generator:source" v="wind"/>
    <tag k="note" v="WEA NM-17284 1500 kW"/>
    <tag k="power" v="generator"/>
    <tag k="power_rating" v="1500 kW"/>
    <tag k="power_source" v="wind"/>
    <tag k="ref" v="NM-17284"/>
  </node>
  <node id="272129749" version="9" timestamp="2012-02-14T21:14:42Z" uid="590907" user="cbdavis" changeset="10686992" lat="54.4612876" lon="9.198887">
    <tag k="generator:output:electricity" v="1.5 MW"/>
    <tag k="generator:source" v="wind"/>
    <tag k="note" v="WEA NM-17284 1500 kW"/>
    <tag k="power" v="generator"/>
    <tag k="power_rating" v="1500 kW"/>
    <tag k="ref" v="NM-17284"/>
  </node>
  <node id="272129749" version="10" timestamp="2012-02-15T10:47:58Z" uid="590907" user="cbdavis" changeset="10690119" lat="54.4612876" lon="9.198887">
    <tag k="generator:output:electricity" v="1.5 MW"/>
    <tag k="generator:source" v="wind"/>
    <tag k="note" v="WEA NM-17284 1500 kW"/>
    <tag k="power" v="generator"/>
    <tag k="power_rating" v="1500 kW"/>
    <tag k="power_source" v="wind"/>
    <tag k="ref" v="NM-17284"/>
  </node>
  <node id="272129750" version="2" timestamp="2008-07-06T09:27:16Z" uid="6975" user="ulfl" changeset="407266" lat="54.450438" lon="9.205954">
    <tag k="name" v="WEA NM-17285 1500kW"/>
    <tag k="note" v="WEA NM-17285 1500kW"/>
    <tag k="power" v="generator"/>
    <tag k="power_source" v="wind"/>
  </node>
  <node id="272129750" version="3" timestamp="2008-09-15T00:39:40Z" uid="24920" user="Schusch" changeset="639367" lat="54.450438" lon="9.205954">
    <tag k="name" v="WEA NM-17285 1500 kW"/>
    <tag k="note" v="WEA NM-17285 1500 kW"/>
    <tag k="power" v="generator"/>
    <tag k="power_source" v="wind"/>
  </node>
  <node id="272129750" version="4" timestamp="2010-06-04T05:06:01Z" uid="24920" user="Schusch" changeset="4898021" lat="54.450438" lon="9.205954">
    <tag k="note" v="WEA NM-17285 1500 kW"/>
    <tag k="power" v="generator"/>
    <tag k="power_rating" v="1500 kW"/>
    <tag k="power_source" v="wind"/>
    <tag k="ref" v="NM-17285"/>
  </node>
  <node id="272129750" version="5" timestamp="2011-06-04T03:31:53Z" uid="297482" user="don-vip" changeset="8335705" lat="54.450438" lon="9.205954">
    <tag k="generator:source" v="wind"/>
    <tag k="note" v="WEA NM-17285 1500 kW"/>
    <tag k="power" v="generator"/>
    <tag k="power_rating" v="1500 kW"/>
    <tag k="power_source" v="wind"/>
    <tag k="ref" v="NM-17285"/>
  </node>
  <node id="272129750" version="6" timestamp="2011-06-04T23:03:43Z" uid="297482" user="don-vip" changeset="8344122" lat="54.450438" lon="9.205954">
    <tag k="generator:output:electricity" v="1500 kW"/>
    <tag k="generator:source" v="wind"/>
    <tag k="note" v="WEA NM-17285 1500 kW"/>
    <tag k="power" v="generator"/>
    <tag k="power_rating" v="1500 kW"/>
    <tag k="power_source" v="wind"/>
    <tag k="ref" v="NM-17285"/>
  </node>
  <node id="272129750" version="7" timestamp="2011-06-04T23:39:46Z" uid="297482" user="don-vip" changeset="8344266" lat="54.450438" lon="9.205954">
    <tag k="generator:output:electricity" v="1.5 MW"/>
    <tag k="generator:source" v="wind"/>
    <tag k="note" v="WEA NM-17285 1500 kW"/>
    <tag k="power" v="generator"/>
    <tag k="power_rating" v="1500 kW"/>
    <tag k="power_source" v="wind"/>
    <tag k="ref" v="NM-17285"/>
  </node>
  <node id="272129750" version="8" timestamp="2012-02-14T21:14:42Z" uid="590907" user="cbdavis" changeset="10686992" lat="54.450438" lon="9.205954">
    <tag k="generator:output:electricity" v="1.5 MW"/>
    <tag k="generator:source" v="wind"/>
    <tag k="note" v="WEA NM-17285 1500 kW"/>
    <tag k="power" v="generator"/>
    <tag k="power_rating" v="1500 kW"/>
    <tag k="ref" v="NM-17285"/>
  </node>
  <node id="272129750" version="9" timestamp="2012-02-15T10:47:58Z" uid="590907" user="cbdavis" changeset="10690119" lat="54.450438" lon="9.205954">
    <tag k="generator:output:electricity" v="1.5 MW"/>
    <tag k="generator:source" v="wind"/>
    <tag k="note" v="WEA NM-17285 1500 kW"/>
    <tag k="power" v="generator"/>
    <tag k="power_rating" v="1500 kW"/>
    <tag k="power_source" v="wind"/>
    <tag k="ref" v="NM-17285"/>
  </node>
  <node id="272129752" version="2" timestamp="2008-07-06T09:27:15Z" uid="6975" user="ulfl" changeset="407266" lat="53.141453" lon="8.426242">
    <tag k="name" v="WEA NM-17659 750kW"/>
    <tag k="note" v="WEA NM-17659 750kW"/>
    <tag k="power" v="generator"/>
    <tag k="power_source" v="wind"/>
  </node>
  <node id="272129752" version="3" timestamp="2009-08-07T12:27:31Z" uid="23107" user="Pferdo" changeset="2065540" lat="53.1448793" lon="8.4281103">
    <tag k="name" v="WEA NM-17659 750kW"/>
    <tag k="note" v="WEA NM-17659 750kW"/>
    <tag k="power" v="generator"/>
    <tag k="power_source" v="wind"/>
  </node>
  <node id="272129752" version="4" timestamp="2010-07-26T23:12:18Z" uid="24920" user="Schusch" changeset="5325340" lat="53.1448793" lon="8.4281103">
    <tag k="note" v="WEA NM-17659 750 kW"/>
    <tag k="power" v="generator"/>
    <tag k="power_rating" v="750 kW"/>
    <tag k="power_source" v="wind"/>
    <tag k="ref" v="NM-17659"/>
  </node>
  <node id="272129752" version="5" timestamp="2011-06-04T03:31:53Z" uid="297482" user="don-vip" changeset="8335705" lat="53.1448793" lon="8.4281103">
    <tag k="generator:source" v="wind"/>
    <tag k="note" v="WEA NM-17659 750 kW"/>
    <tag k="power" v="generator"/>
    <tag k="power_rating" v="750 kW"/>
    <tag k="power_source" v="wind"/>
    <tag k="ref" v="NM-17659"/>
  </node>
  <node id="272129752" version="6" timestamp="2011-06-04T23:39:46Z" uid="297482" user="don-vip" changeset="8344266" lat="53.1448793" lon="8.4281103">
    <tag k="generator:output:electricity" v="750 kW"/>
    <tag k="generator:source" v="wind"/>
    <tag k="note" v="WEA NM-17659 750 kW"/>
    <tag k="power" v="generator"/>
    <tag k="power_rating" v="750 kW"/>
    <tag k="power_source" v="wind"/>
    <tag k="ref" v="NM-17659"/>
  </node>
  <node id="272129752" version="7" timestamp="2012-02-14T21:14:43Z" uid="590907" user="cbdavis" changeset="10686992" lat="53.1448793" lon="8.4281103">
    <tag k="generator:output:electricity" v="750 kW"/>
    <tag k="generator:source" v="wind"/>
    <tag k="note" v="WEA NM-17659 750 kW"/>
    <tag k="power" v="generator"/>
    <tag k="power_rating" v="750 kW"/>
    <tag k="ref" v="NM-17659"/>
  </node>
  <node id="272129752" version="8" timestamp="2012-02-15T10:47:58Z" uid="590907" user="cbdavis" changeset="10690119" lat="53.1448793" lon="8.4281103">
    <tag k="generator:output:electricity" v="750 kW"/>
    <tag k="generator:source" v="wind"/>
    <tag k="note" v="WEA NM-17659 750 kW"/>
    <tag k="power" v="generator"/>
    <tag k="power_rating" v="750 kW"/>
    <tag k="power_source" v="wind"/>
    <tag k="ref" v="NM-17659"/>
  </node>
  <node id="272129753" version="2" timestamp="2008-07-06T09:27:15Z" uid="6975" user="ulfl" changeset="407266" lat="52.928544" lon="7.413419">
    <tag k="name" v="WEA NX-100 150kW"/>
    <tag k="note" v="WEA NX-100 150kW"/>
    <tag k="power" v="generator"/>
    <tag k="power_source" v="wind"/>
  </node>
  <node id="272129753" version="3" timestamp="2010-06-04T06:06:27Z" uid="24920" user="Schusch" changeset="4898185" lat="52.928544" lon="7.413419">
    <tag k="manufacturer" v="Nordex"/>
    <tag k="note" v="WEA NX-100 150kW"/>
    <tag k="power" v="generator"/>
    <tag k="power_rating" v="150 kW"/>
    <tag k="power_source" v="wind"/>
    <tag k="ref" v="NX-100"/>
  </node>
  <node id="272129753" version="4" timestamp="2010-06-04T06:11:03Z" uid="24920" user="Schusch" changeset="4898208" lat="52.928544" lon="7.413419">
    <tag k="manufacturer" v="Nordex"/>
    <tag k="note" v="WEA NX-100 150 kW"/>
    <tag k="power" v="generator"/>
    <tag k="power_rating" v="150 kW"/>
    <tag k="power_source" v="wind"/>
    <tag k="ref" v="NX-100"/>
  </node>
  <node id="272129753" version="5" timestamp="2011-06-04T03:31:53Z" uid="297482" user="don-vip" changeset="8335705" lat="52.928544" lon="7.413419">
    <tag k="generator:source" v="wind"/>
    <tag k="manufacturer" v="Nordex"/>
    <tag k="note" v="WEA NX-100 150 kW"/>
    <tag k="power" v="generator"/>
    <tag k="power_rating" v="150 kW"/>
    <tag k="power_source" v="wind"/>
    <tag k="ref" v="NX-100"/>
  </node>
  <node id="272129753" version="6" timestamp="2011-06-04T23:39:47Z" uid="297482" user="don-vip" changeset="8344266" lat="52.928544" lon="7.413419">
    <tag k="generator:output:electricity" v="150 kW"/>
    <tag k="generator:source" v="wind"/>
    <tag k="manufacturer" v="Nordex"/>
    <tag k="note" v="WEA NX-100 150 kW"/>
    <tag k="power" v="generator"/>
    <tag k="power_rating" v="150 kW"/>
    <tag k="power_source" v="wind"/>
    <tag k="ref" v="NX-100"/>
  </node>
  <node id="272129753" version="7" timestamp="2012-02-14T21:14:43Z" uid="590907" user="cbdavis" changeset="10686992" lat="52.928544" lon="7.413419">
    <tag k="generator:output:electricity" v="150 kW"/>
    <tag k="generator:source" v="wind"/>
    <tag k="manufacturer" v="Nordex"/>
    <tag k="note" v="WEA NX-100 150 kW"/>
    <tag k="power" v="generator"/>
    <tag k="power_rating" v="150 kW"/>
    <tag k="ref" v="NX-100"/>
  </node>
  <node id="272129753" version="8" timestamp="2012-02-15T10:47:59Z" uid="590907" user="cbdavis" changeset="10690119" lat="52.928544" lon="7.413419">
    <tag k="generator:output:electricity" v="150 kW"/>
    <tag k="generator:source" v="wind"/>
    <tag k="manufacturer" v="Nordex"/>
    <tag k="note" v="WEA NX-100 150 kW"/>
    <tag k="power" v="generator"/>
    <tag k="power_rating" v="150 kW"/>
    <tag k="power_source" v="wind"/>
    <tag k="ref" v="NX-100"/>
  </node>
  <node id="272129755" version="2" timestamp="2008-07-06T09:27:15Z" uid="6975" user="ulfl" changeset="407266" lat="53.612467" lon="8.064151">
    <tag k="name" v="WEA NX-1001 1300kW"/>
    <tag k="note" v="WEA NX-1001 1300kW"/>
    <tag k="power" v="generator"/>
    <tag k="power_source" v="wind"/>
  </node>
  <node id="272129755" version="3" timestamp="2008-09-15T21:23:41Z" uid="24920" user="Schusch" changeset="645469" lat="53.612467" lon="8.064151">
    <tag k="name" v="WEA NX-1001 1300 kW"/>
    <tag k="note" v="WEA NX-1001 1300 kW"/>
    <tag k="power" v="generator"/>
    <tag k="power_source" v="wind"/>
  </node>
  <node id="272129755" version="4" timestamp="2010-06-04T06:11:03Z" uid="24920" user="Schusch" changeset="4898208" lat="53.612467" lon="8.064151">
    <tag k="manufacturer" v="Nordex"/>
    <tag k="note" v="WEA NX-1001 1300 kW"/>
    <tag k="power" v="generator"/>
    <tag k="power_rating" v="1300 kW"/>
    <tag k="power_source" v="wind"/>
    <tag k="ref" v="NX-1001"/>
  </node>
  <node id="272129755" version="5" timestamp="2010-12-23T13:11:24Z" uid="2318" user="Latze" changeset="6745067" lat="53.612358" lon="8.0642123">
    <tag k="manufacturer" v="Nordex"/>
    <tag k="note" v="WEA NX-1001 1300 kW"/>
    <tag k="power" v="generator"/>
    <tag k="power_rating" v="1300 kW"/>
    <tag k="power_source" v="wind"/>
    <tag k="ref" v="NX-1001"/>
  </node>
  <node id="272129755" version="6" timestamp="2011-06-04T03:31:53Z" uid="297482" user="don-vip" changeset="8335705" lat="53.612358" lon="8.0642123">
    <tag k="generator:source" v="wind"/>
    <tag k="manufacturer" v="Nordex"/>
    <tag k="note" v="WEA NX-1001 1300 kW"/>
    <tag k="power" v="generator"/>
    <tag k="power_rating" v="1300 kW"/>
    <tag k="power_source" v="wind"/>
    <tag k="ref" v="NX-1001"/>
  </node>
  <node id="272129755" version="7" timestamp="2011-06-04T23:13:27Z" uid="297482" user="don-vip" changeset="8344176" lat="53.612358" lon="8.0642123">
    <tag k="generator:output:electricity" v="1.3 MW"/>
    <tag k="generator:source" v="wind"/>
    <tag k="manufacturer" v="Nordex"/>
    <tag k="note" v="WEA NX-1001 1300 kW"/>
    <tag k="power" v="generator"/>
    <tag k="power_rating" v="1300 kW"/>
    <tag k="power_source" v="wind"/>
    <tag k="ref" v="NX-1001"/>
  </node>
  <node id="272129755" version="8" timestamp="2012-02-14T21:14:43Z" uid="590907" user="cbdavis" changeset="10686992" lat="53.612358" lon="8.0642123">
    <tag k="generator:output:electricity" v="1.3 MW"/>
    <tag k="generator:source" v="wind"/>
    <tag k="manufacturer" v="Nordex"/>
    <tag k="note" v="WEA NX-1001 1300 kW"/>
    <tag k="power" v="generator"/>
    <tag k="power_rating" v="1300 kW"/>
    <tag k="ref" v="NX-1001"/>
  </node>
  <node id="272129755" version="9" timestamp="2012-02-15T10:47:59Z" uid="590907" user="cbdavis" changeset="10690119" lat="53.612358" lon="8.0642123">
    <tag k="generator:output:electricity" v="1.3 MW"/>
    <tag k="generator:source" v="wind"/>
    <tag k="manufacturer" v="Nordex"/>
    <tag k="note" v="WEA NX-1001 1300 kW"/>
    <tag k="power" v="generator"/>
    <tag k="power_rating" v="1300 kW"/>
    <tag k="power_source" v="wind"/>
    <tag k="ref" v="NX-1001"/>
  </node>
  <node id="272129759" version="2" timestamp="2008-07-06T09:27:16Z" uid="6975" user="ulfl" changeset="407266" lat="53.813442" lon="8.756129">
    <tag k="name" v="WEA NX-1007 1300kW"/>
    <tag k="note" v="WEA NX-1007 1300kW"/>
    <tag k="power" v="generator"/>
    <tag k="power_source" v="wind"/>
  </node>
  <node id="272129759" version="3" timestamp="2010-06-04T06:34:49Z" uid="24920" user="Schusch" changeset="4898328" lat="53.813442" lon="8.756129">
    <tag k="manufacturer" v="Nordex"/>
    <tag k="note" v="WEA NX-1007 1300 kW"/>
    <tag k="power" v="generator"/>
    <tag k="power_rating" v="1300 kW"/>
    <tag k="power_source" v="wind"/>
    <tag k="ref" v="NX-1007"/>
  </node>
  <node id="272129759" version="4" timestamp="2011-06-04T03:31:54Z" uid="297482" user="don-vip" changeset="8335705" lat="53.813442" lon="8.756129">
    <tag k="generator:source" v="wind"/>
    <tag k="manufacturer" v="Nordex"/>
    <tag k="note" v="WEA NX-1007 1300 kW"/>
    <tag k="power" v="generator"/>
    <tag k="power_rating" v="1300 kW"/>
    <tag k="power_source" v="wind"/>
    <tag k="ref" v="NX-1007"/>
  </node>
  <node id="272129759" version="5" timestamp="2011-06-04T23:13:27Z" uid="297482" user="don-vip" changeset="8344176" lat="53.813442" lon="8.756129">
    <tag k="generator:output:electricity" v="1.3 MW"/>
    <tag k="generator:source" v="wind"/>
    <tag k="manufacturer" v="Nordex"/>
    <tag k="note" v="WEA NX-1007 1300 kW"/>
    <tag k="power" v="generator"/>
    <tag k="power_rating" v="1300 kW"/>
    <tag k="power_source" v="wind"/>
    <tag k="ref" v="NX-1007"/>
  </node>
  <node id="272129759" version="6" timestamp="2012-02-14T21:14:44Z" uid="590907" user="cbdavis" changeset="10686992" lat="53.813442" lon="8.756129">
    <tag k="generator:output:electricity" v="1.3 MW"/>
    <tag k="generator:source" v="wind"/>
    <tag k="manufacturer" v="Nordex"/>
    <tag k="note" v="WEA NX-1007 1300 kW"/>
    <tag k="power" v="generator"/>
    <tag k="power_rating" v="1300 kW"/>
    <tag k="ref" v="NX-1007"/>
  </node>
  <node id="272129759" version="7" timestamp="2012-02-15T10:48:00Z" uid="590907" user="cbdavis" changeset="10690119" lat="53.813442" lon="8.756129">
    <tag k="generator:output:electricity" v="1.3 MW"/>
    <tag k="generator:source" v="wind"/>
    <tag k="manufacturer" v="Nordex"/>
    <tag k="note" v="WEA NX-1007 1300 kW"/>
    <tag k="power" v="generator"/>
    <tag k="power_rating" v="1300 kW"/>
    <tag k="power_source" v="wind"/>
    <tag k="ref" v="NX-1007"/>
  </node>
  <node id="272129761" version="2" timestamp="2008-07-06T09:27:14Z" uid="6975" user="ulfl" changeset="407266" lat="53.810453" lon="8.745015">
    <tag k="name" v="WEA NX-1008 1300kW"/>
    <tag k="note" v="WEA NX-1008 1300kW"/>
    <tag k="power" v="generator"/>
    <tag k="power_source" v="wind"/>
  </node>
  <node id="272129761" version="3" timestamp="2010-06-04T06:34:49Z" uid="24920" user="Schusch" changeset="4898328" lat="53.810453" lon="8.745015">
    <tag k="manufacturer" v="Nordex"/>
    <tag k="note" v="WEA NX-1008 1300 kW"/>
    <tag k="power" v="generator"/>
    <tag k="power_rating" v="1300 kW"/>
    <tag k="power_source" v="wind"/>
    <tag k="ref" v="NX-1008"/>
  </node>
  <node id="272129761" version="4" timestamp="2011-06-04T03:31:54Z" uid="297482" user="don-vip" changeset="8335705" lat="53.810453" lon="8.745015">
    <tag k="generator:source" v="wind"/>
    <tag k="manufacturer" v="Nordex"/>
    <tag k="note" v="WEA NX-1008 1300 kW"/>
    <tag k="power" v="generator"/>
    <tag k="power_rating" v="1300 kW"/>
    <tag k="power_source" v="wind"/>
    <tag k="ref" v="NX-1008"/>
  </node>
  <node id="272129761" version="5" timestamp="2011-06-04T23:13:27Z" uid="297482" user="don-vip" changeset="8344176" lat="53.810453" lon="8.745015">
    <tag k="generator:output:electricity" v="1.3 MW"/>
    <tag k="generator:source" v="wind"/>
    <tag k="manufacturer" v="Nordex"/>
    <tag k="note" v="WEA NX-1008 1300 kW"/>
    <tag k="power" v="generator"/>
    <tag k="power_rating" v="1300 kW"/>
    <tag k="power_source" v="wind"/>
    <tag k="ref" v="NX-1008"/>
  </node>
  <node id="272129761" version="6" timestamp="2012-02-14T21:14:44Z" uid="590907" user="cbdavis" changeset="10686992" lat="53.810453" lon="8.745015">
    <tag k="generator:output:electricity" v="1.3 MW"/>
    <tag k="generator:source" v="wind"/>
    <tag k="manufacturer" v="Nordex"/>
    <tag k="note" v="WEA NX-1008 1300 kW"/>
    <tag k="power" v="generator"/>
    <tag k="power_rating" v="1300 kW"/>
    <tag k="ref" v="NX-1008"/>
  </node>
  <node id="272129761" version="7" timestamp="2012-02-15T10:48:00Z" uid="590907" user="cbdavis" changeset="10690119" lat="53.810453" lon="8.745015">
    <tag k="generator:output:electricity" v="1.3 MW"/>
    <tag k="generator:source" v="wind"/>
    <tag k="manufacturer" v="Nordex"/>
    <tag k="note" v="WEA NX-1008 1300 kW"/>
    <tag k="power" v="generator"/>
    <tag k="power_rating" v="1300 kW"/>
    <tag k="power_source" v="wind"/>
    <tag k="ref" v="NX-1008"/>
  </node>
  <node id="272129762" version="2" timestamp="2008-07-06T09:27:14Z" uid="6975" user="ulfl" changeset="407266" lat="53.818362" lon="8.744815">
    <tag k="name" v="WEA NX-1009 1300kW"/>
    <tag k="note" v="WEA NX-1009 1300kW"/>
    <tag k="power" v="generator"/>
    <tag k="power_source" v="wind"/>
  </node>
  <node id="272129762" version="3" timestamp="2010-06-04T06:34:49Z" uid="24920" user="Schusch" changeset="4898328" lat="53.818362" lon="8.744815">
    <tag k="manufacturer" v="Nordex"/>
    <tag k="note" v="WEA NX-1009 1300 kW"/>
    <tag k="power" v="generator"/>
    <tag k="power_rating" v="1300 kW"/>
    <tag k="power_source" v="wind"/>
    <tag k="ref" v="NX-1009"/>
  </node>
  <node id="272129762" version="4" timestamp="2011-06-04T03:31:54Z" uid="297482" user="don-vip" changeset="8335705" lat="53.818362" lon="8.744815">
    <tag k="generator:source" v="wind"/>
    <tag k="manufacturer" v="Nordex"/>
    <tag k="note" v="WEA NX-1009 1300 kW"/>
    <tag k="power" v="generator"/>
    <tag k="power_rating" v="1300 kW"/>
    <tag k="power_source" v="wind"/>
    <tag k="ref" v="NX-1009"/>
  </node>
  <node id="272129762" version="5" timestamp="2011-06-04T23:13:28Z" uid="297482" user="don-vip" changeset="8344176" lat="53.818362" lon="8.744815">
    <tag k="generator:output:electricity" v="1.3 MW"/>
    <tag k="generator:source" v="wind"/>
    <tag k="manufacturer" v="Nordex"/>
    <tag k="note" v="WEA NX-1009 1300 kW"/>
    <tag k="power" v="generator"/>
    <tag k="power_rating" v="1300 kW"/>
    <tag k="power_source" v="wind"/>
    <tag k="ref" v="NX-1009"/>
  </node>
  <node id="272129762" version="6" timestamp="2012-02-07T11:52:59Z" uid="92248" user="Findeschorse007" changeset="10611345" lat="53.8184649" lon="8.7446594">
    <tag k="generator:output:electricity" v="1.3 MW"/>
    <tag k="generator:source" v="wind"/>
    <tag k="manufacturer" v="Nordex"/>
    <tag k="note" v="WEA NX-1009 1300 kW"/>
    <tag k="power" v="generator"/>
    <tag k="power_rating" v="1300 kW"/>
    <tag k="power_source" v="wind"/>
    <tag k="ref" v="NX-1009"/>
    <tag k="source" v="Hi-res aerial imagery (Aerowest)"/>
  </node>
  <node id="272129762" version="7" timestamp="2012-02-14T21:14:45Z" uid="590907" user="cbdavis" changeset="10686992" lat="53.8184649" lon="8.7446594">
    <tag k="generator:output:electricity" v="1.3 MW"/>
    <tag k="generator:source" v="wind"/>
    <tag k="manufacturer" v="Nordex"/>
    <tag k="note" v="WEA NX-1009 1300 kW"/>
    <tag k="power" v="generator"/>
    <tag k="power_rating" v="1300 kW"/>
    <tag k="ref" v="NX-1009"/>
    <tag k="source" v="Hi-res aerial imagery (Aerowest)"/>
  </node>
  <node id="272129762" version="8" timestamp="2012-02-15T10:48:01Z" uid="590907" user="cbdavis" changeset="10690119" lat="53.8184649" lon="8.7446594">
    <tag k="generator:output:electricity" v="1.3 MW"/>
    <tag k="generator:source" v="wind"/>
    <tag k="manufacturer" v="Nordex"/>
    <tag k="note" v="WEA NX-1009 1300 kW"/>
    <tag k="power" v="generator"/>
    <tag k="power_rating" v="1300 kW"/>
    <tag k="power_source" v="wind"/>
    <tag k="ref" v="NX-1009"/>
    <tag k="source" v="Hi-res aerial imagery (Aerowest)"/>
  </node>
  <node id="272129764" version="2" timestamp="2008-07-06T09:27:15Z" uid="6975" user="ulfl" changeset="407266" lat="52.649657" lon="9.394607">
    <tag k="name" v="WEA NX-101 150kW"/>
    <tag k="note" v="WEA NX-101 150kW"/>
    <tag k="power" v="generator"/>
    <tag k="power_source" v="wind"/>
  </node>
  <node id="272129764" version="3" timestamp="2008-07-09T20:07:02Z" uid="16379" user="sherlok" changeset="448731" lat="52.649657" lon="9.394607">
    <tag k="name" v="WEA NX-101 150kW"/>
    <tag k="note" v="WEA NX-101 150kW"/>
    <tag k="power" v="generator"/>
    <tag k="power_source" v="wind"/>
  </node>
  <node id="272129765" version="2" timestamp="2008-07-06T09:27:15Z" uid="6975" user="ulfl" changeset="407266" lat="53.822725" lon="8.726452">
    <tag k="name" v="WEA NX-1010 1300kW"/>
    <tag k="note" v="WEA NX-1010 1300kW"/>
    <tag k="power" v="generator"/>
    <tag k="power_source" v="wind"/>
  </node>
  <node id="272129765" version="3" timestamp="2010-06-04T06:34:48Z" uid="24920" user="Schusch" changeset="4898328" lat="53.822725" lon="8.726452">
    <tag k="note" v="WEA NX-1010 1300 kW"/>
    <tag k="power" v="generator"/>
    <tag k="power_rating" v="1300 kW"/>
    <tag k="power_source" v="wind"/>
    <tag k="ref" v="NX-1010"/>
  </node>
  <node id="272129765" version="4" timestamp="2011-06-04T03:31:54Z" uid="297482" user="don-vip" changeset="8335705" lat="53.822725" lon="8.726452">
    <tag k="generator:source" v="wind"/>
    <tag k="note" v="WEA NX-1010 1300 kW"/>
    <tag k="power" v="generator"/>
    <tag k="power_rating" v="1300 kW"/>
    <tag k="power_source" v="wind"/>
    <tag k="ref" v="NX-1010"/>
  </node>
  <node id="272129765" version="5" timestamp="2011-06-04T23:13:28Z" uid="297482" user="don-vip" changeset="8344176" lat="53.822725" lon="8.726452">
    <tag k="generator:output:electricity" v="1.3 MW"/>
    <tag k="generator:source" v="wind"/>
    <tag k="note" v="WEA NX-1010 1300 kW"/>
    <tag k="power" v="generator"/>
    <tag k="power_rating" v="1300 kW"/>
    <tag k="power_source" v="wind"/>
    <tag k="ref" v="NX-1010"/>
  </node>
  <node id="272129765" version="6" timestamp="2012-02-14T21:14:45Z" uid="590907" user="cbdavis" changeset="10686992" lat="53.822725" lon="8.726452">
    <tag k="generator:output:electricity" v="1.3 MW"/>
    <tag k="generator:source" v="wind"/>
    <tag k="note" v="WEA NX-1010 1300 kW"/>
    <tag k="power" v="generator"/>
    <tag k="power_rating" v="1300 kW"/>
    <tag k="ref" v="NX-1010"/>
  </node>
  <node id="272129765" version="7" timestamp="2012-02-15T10:48:01Z" uid="590907" user="cbdavis" changeset="10690119" lat="53.822725" lon="8.726452">
    <tag k="generator:output:electricity" v="1.3 MW"/>
    <tag k="generator:source" v="wind"/>
    <tag k="note" v="WEA NX-1010 1300 kW"/>
    <tag k="power" v="generator"/>
    <tag k="power_rating" v="1300 kW"/>
    <tag k="power_source" v="wind"/>
    <tag k="ref" v="NX-1010"/>
  </node>
  <node id="272129767" version="2" timestamp="2008-07-06T09:27:15Z" uid="6975" user="ulfl" changeset="407266" lat="53.816557" lon="8.750081">
    <tag k="name" v="WEA NX-1011 1300kW"/>
    <tag k="note" v="WEA NX-1011 1300kW"/>
    <tag k="power" v="generator"/>
    <tag k="power_source" v="wind"/>
  </node>
  <node id="272129767" version="3" timestamp="2010-06-04T06:34:49Z" uid="24920" user="Schusch" changeset="4898328" lat="53.816557" lon="8.750081">
    <tag k="manufacturer" v="Nordex"/>
    <tag k="note" v="WEA NX-1011 1300 kW"/>
    <tag k="power" v="generator"/>
    <tag k="power_rating" v="1300 kW"/>
    <tag k="power_source" v="wind"/>
    <tag k="ref" v="NX-1011"/>
  </node>
  <node id="272129767" version="4" timestamp="2011-06-04T03:31:54Z" uid="297482" user="don-vip" changeset="8335705" lat="53.816557" lon="8.750081">
    <tag k="generator:source" v="wind"/>
    <tag k="manufacturer" v="Nordex"/>
    <tag k="note" v="WEA NX-1011 1300 kW"/>
    <tag k="power" v="generator"/>
    <tag k="power_rating" v="1300 kW"/>
    <tag k="power_source" v="wind"/>
    <tag k="ref" v="NX-1011"/>
  </node>
  <node id="272129767" version="5" timestamp="2011-06-04T23:13:28Z" uid="297482" user="don-vip" changeset="8344176" lat="53.816557" lon="8.750081">
    <tag k="generator:output:electricity" v="1.3 MW"/>
    <tag k="generator:source" v="wind"/>
    <tag k="manufacturer" v="Nordex"/>
    <tag k="note" v="WEA NX-1011 1300 kW"/>
    <tag k="power" v="generator"/>
    <tag k="power_rating" v="1300 kW"/>
    <tag k="power_source" v="wind"/>
    <tag k="ref" v="NX-1011"/>
  </node>
  <node id="272129767" version="6" timestamp="2012-02-14T21:14:45Z" uid="590907" user="cbdavis" changeset="10686992" lat="53.816557" lon="8.750081">
    <tag k="generator:output:electricity" v="1.3 MW"/>
    <tag k="generator:source" v="wind"/>
    <tag k="manufacturer" v="Nordex"/>
    <tag k="note" v="WEA NX-1011 1300 kW"/>
    <tag k="power" v="generator"/>
    <tag k="power_rating" v="1300 kW"/>
    <tag k="ref" v="NX-1011"/>
  </node>
  <node id="272129767" version="7" timestamp="2012-02-15T10:48:01Z" uid="590907" user="cbdavis" changeset="10690119" lat="53.816557" lon="8.750081">
    <tag k="generator:output:electricity" v="1.3 MW"/>
    <tag k="generator:source" v="wind"/>
    <tag k="manufacturer" v="Nordex"/>
    <tag k="note" v="WEA NX-1011 1300 kW"/>
    <tag k="power" v="generator"/>
    <tag k="power_rating" v="1300 kW"/>
    <tag k="power_source" v="wind"/>
    <tag k="ref" v="NX-1011"/>
  </node>
  <node id="272129768" version="2" timestamp="2008-07-06T09:27:13Z" uid="6975" user="ulfl" changeset="407266" lat="53.813175" lon="8.740305">
    <tag k="name" v="WEA NX-1012 1300kW"/>
    <tag k="note" v="WEA NX-1012 1300kW"/>
    <tag k="power" v="generator"/>
    <tag k="power_source" v="wind"/>
  </node>
  <node id="272129768" version="3" timestamp="2010-06-04T06:34:49Z" uid="24920" user="Schusch" changeset="4898328" lat="53.813175" lon="8.740305">
    <tag k="manufacturer" v="Nordex"/>
    <tag k="note" v="WEA NX-1012 1300 kW"/>
    <tag k="power" v="generator"/>
    <tag k="power_rating" v="1300 kW"/>
    <tag k="power_source" v="wind"/>
    <tag k="ref" v="NX-1012"/>
  </node>
  <node id="272129768" version="4" timestamp="2011-06-04T03:31:55Z" uid="297482" user="don-vip" changeset="8335705" lat="53.813175" lon="8.740305">
    <tag k="generator:source" v="wind"/>
    <tag k="manufacturer" v="Nordex"/>
    <tag k="note" v="WEA NX-1012 1300 kW"/>
    <tag k="power" v="generator"/>
    <tag k="power_rating" v="1300 kW"/>
    <tag k="power_source" v="wind"/>
    <tag k="ref" v="NX-1012"/>
  </node>
  <node id="272129768" version="5" timestamp="2011-06-04T23:13:28Z" uid="297482" user="don-vip" changeset="8344176" lat="53.813175" lon="8.740305">
    <tag k="generator:output:electricity" v="1.3 MW"/>
    <tag k="generator:source" v="wind"/>
    <tag k="manufacturer" v="Nordex"/>
    <tag k="note" v="WEA NX-1012 1300 kW"/>
    <tag k="power" v="generator"/>
    <tag k="power_rating" v="1300 kW"/>
    <tag k="power_source" v="wind"/>
    <tag k="ref" v="NX-1012"/>
  </node>
  <node id="272129768" version="6" timestamp="2012-02-07T11:53:00Z" uid="92248" user="Findeschorse007" changeset="10611345" lat="53.8131238" lon="8.7404894">
    <tag k="generator:output:electricity" v="1.3 MW"/>
    <tag k="generator:source" v="wind"/>
    <tag k="manufacturer" v="Nordex"/>
    <tag k="note" v="WEA NX-1012 1300 kW"/>
    <tag k="power" v="generator"/>
    <tag k="power_rating" v="1300 kW"/>
    <tag k="power_source" v="wind"/>
    <tag k="ref" v="NX-1012"/>
    <tag k="source" v="Hi-res aerial imagery (Aerowest)"/>
  </node>
  <node id="272129768" version="7" timestamp="2012-02-14T21:14:45Z" uid="590907" user="cbdavis" changeset="10686992" lat="53.8131238" lon="8.7404894">
    <tag k="generator:output:electricity" v="1.3 MW"/>
    <tag k="generator:source" v="wind"/>
    <tag k="manufacturer" v="Nordex"/>
    <tag k="note" v="WEA NX-1012 1300 kW"/>
    <tag k="power" v="generator"/>
    <tag k="power_rating" v="1300 kW"/>
    <tag k="ref" v="NX-1012"/>
    <tag k="source" v="Hi-res aerial imagery (Aerowest)"/>
  </node>
  <node id="272129768" version="8" timestamp="2012-02-15T10:48:02Z" uid="590907" user="cbdavis" changeset="10690119" lat="53.8131238" lon="8.7404894">
    <tag k="generator:output:electricity" v="1.3 MW"/>
    <tag k="generator:source" v="wind"/>
    <tag k="manufacturer" v="Nordex"/>
    <tag k="note" v="WEA NX-1012 1300 kW"/>
    <tag k="power" v="generator"/>
    <tag k="power_rating" v="1300 kW"/>
    <tag k="power_source" v="wind"/>
    <tag k="ref" v="NX-1012"/>
    <tag k="source" v="Hi-res aerial imagery (Aerowest)"/>
  </node>
  <node id="272129770" version="2" timestamp="2008-07-06T09:27:13Z" uid="6975" user="ulfl" changeset="407266" lat="53.815199" lon="8.737057">
    <tag k="name" v="WEA NX-1013 1300kW"/>
    <tag k="note" v="WEA NX-1013 1300kW"/>
    <tag k="power" v="generator"/>
    <tag k="power_source" v="wind"/>
  </node>
  <node id="272129770" version="3" timestamp="2010-06-04T06:34:48Z" uid="24920" user="Schusch" changeset="4898328" lat="53.815199" lon="8.737057">
    <tag k="manufacturer" v="Nordex"/>
    <tag k="note" v="WEA NX-1013 1300 kW"/>
    <tag k="power" v="generator"/>
    <tag k="power_rating" v="1300 kW"/>
    <tag k="power_source" v="wind"/>
    <tag k="ref" v="NX-1013"/>
  </node>
  <node id="272129770" version="4" timestamp="2011-06-04T03:31:55Z" uid="297482" user="don-vip" changeset="8335705" lat="53.815199" lon="8.737057">
    <tag k="generator:source" v="wind"/>
    <tag k="manufacturer" v="Nordex"/>
    <tag k="note" v="WEA NX-1013 1300 kW"/>
    <tag k="power" v="generator"/>
    <tag k="power_rating" v="1300 kW"/>
    <tag k="power_source" v="wind"/>
    <tag k="ref" v="NX-1013"/>
  </node>
  <node id="272129770" version="5" timestamp="2011-06-04T23:13:28Z" uid="297482" user="don-vip" changeset="8344176" lat="53.815199" lon="8.737057">
    <tag k="generator:output:electricity" v="1.3 MW"/>
    <tag k="generator:source" v="wind"/>
    <tag k="manufacturer" v="Nordex"/>
    <tag k="note" v="WEA NX-1013 1300 kW"/>
    <tag k="power" v="generator"/>
    <tag k="power_rating" v="1300 kW"/>
    <tag k="power_source" v="wind"/>
    <tag k="ref" v="NX-1013"/>
  </node>
  <node id="272129770" version="6" timestamp="2012-02-07T11:53:01Z" uid="92248" user="Findeschorse007" changeset="10611345" lat="53.8152049" lon="8.7371248">
    <tag k="generator:output:electricity" v="1.3 MW"/>
    <tag k="generator:source" v="wind"/>
    <tag k="manufacturer" v="Nordex"/>
    <tag k="note" v="WEA NX-1013 1300 kW"/>
    <tag k="power" v="generator"/>
    <tag k="power_rating" v="1300 kW"/>
    <tag k="power_source" v="wind"/>
    <tag k="ref" v="NX-1013"/>
    <tag k="source" v="Hi-res aerial imagery (Aerowest)"/>
  </node>
  <node id="272129770" version="7" timestamp="2012-02-14T21:14:46Z" uid="590907" user="cbdavis" changeset="10686992" lat="53.8152049" lon="8.7371248">
    <tag k="generator:output:electricity" v="1.3 MW"/>
    <tag k="generator:source" v="wind"/>
    <tag k="manufacturer" v="Nordex"/>
    <tag k="note" v="WEA NX-1013 1300 kW"/>
    <tag k="power" v="generator"/>
    <tag k="power_rating" v="1300 kW"/>
    <tag k="ref" v="NX-1013"/>
    <tag k="source" v="Hi-res aerial imagery (Aerowest)"/>
  </node>
  <node id="272129770" version="8" timestamp="2012-02-15T10:48:02Z" uid="590907" user="cbdavis" changeset="10690119" lat="53.8152049" lon="8.7371248">
    <tag k="generator:output:electricity" v="1.3 MW"/>
    <tag k="generator:source" v="wind"/>
    <tag k="manufacturer" v="Nordex"/>
    <tag k="note" v="WEA NX-1013 1300 kW"/>
    <tag k="power" v="generator"/>
    <tag k="power_rating" v="1300 kW"/>
    <tag k="power_source" v="wind"/>
    <tag k="ref" v="NX-1013"/>
    <tag k="source" v="Hi-res aerial imagery (Aerowest)"/>
  </node>
  <node id="272129771" version="2" timestamp="2008-07-06T09:27:14Z" uid="6975" user="ulfl" changeset="407266" lat="53.818879" lon="8.722938">
    <tag k="name" v="WEA NX-1015 1300kW"/>
    <tag k="note" v="WEA NX-1015 1300kW"/>
    <tag k="power" v="generator"/>
    <tag k="power_source" v="wind"/>
  </node>
  <node id="272129771" version="3" timestamp="2010-06-04T06:34:49Z" uid="24920" user="Schusch" changeset="4898328" lat="53.818879" lon="8.722938">
    <tag k="manufacturer" v="Nordex"/>
    <tag k="note" v="WEA NX-1015 1300 kW"/>
    <tag k="power" v="generator"/>
    <tag k="power_rating" v="1300 kW"/>
    <tag k="power_source" v="wind"/>
    <tag k="ref" v="NX-1015"/>
  </node>
  <node id="272129771" version="4" timestamp="2011-06-04T03:31:55Z" uid="297482" user="don-vip" changeset="8335705" lat="53.818879" lon="8.722938">
    <tag k="generator:source" v="wind"/>
    <tag k="manufacturer" v="Nordex"/>
    <tag k="note" v="WEA NX-1015 1300 kW"/>
    <tag k="power" v="generator"/>
    <tag k="power_rating" v="1300 kW"/>
    <tag k="power_source" v="wind"/>
    <tag k="ref" v="NX-1015"/>
  </node>
  <node id="272129771" version="5" timestamp="2011-06-04T23:13:28Z" uid="297482" user="don-vip" changeset="8344176" lat="53.818879" lon="8.722938">
    <tag k="generator:output:electricity" v="1.3 MW"/>
    <tag k="generator:source" v="wind"/>
    <tag k="manufacturer" v="Nordex"/>
    <tag k="note" v="WEA NX-1015 1300 kW"/>
    <tag k="power" v="generator"/>
    <tag k="power_rating" v="1300 kW"/>
    <tag k="power_source" v="wind"/>
    <tag k="ref" v="NX-1015"/>
  </node>
  <node id="272129771" version="6" timestamp="2012-02-14T21:14:46Z" uid="590907" user="cbdavis" changeset="10686992" lat="53.818879" lon="8.722938">
    <tag k="generator:output:electricity" v="1.3 MW"/>
    <tag k="generator:source" v="wind"/>
    <tag k="manufacturer" v="Nordex"/>
    <tag k="note" v="WEA NX-1015 1300 kW"/>
    <tag k="power" v="generator"/>
    <tag k="power_rating" v="1300 kW"/>
    <tag k="ref" v="NX-1015"/>
  </node>
  <node id="272129771" version="7" timestamp="2012-02-15T10:48:03Z" uid="590907" user="cbdavis" changeset="10690119" lat="53.818879" lon="8.722938">
    <tag k="generator:output:electricity" v="1.3 MW"/>
    <tag k="generator:source" v="wind"/>
    <tag k="manufacturer" v="Nordex"/>
    <tag k="note" v="WEA NX-1015 1300 kW"/>
    <tag k="power" v="generator"/>
    <tag k="power_rating" v="1300 kW"/>
    <tag k="power_source" v="wind"/>
    <tag k="ref" v="NX-1015"/>
  </node>
  <node id="272129773" version="2" timestamp="2008-07-06T09:27:14Z" uid="6975" user="ulfl" changeset="407266" lat="53.813454" lon="8.732299">
    <tag k="name" v="WEA NX-1014 1300kW"/>
    <tag k="note" v="WEA NX-1014 1300kW"/>
    <tag k="power" v="generator"/>
    <tag k="power_source" v="wind"/>
  </node>
  <node id="272129773" version="3" timestamp="2010-06-04T06:34:49Z" uid="24920" user="Schusch" changeset="4898328" lat="53.813454" lon="8.732299">
    <tag k="manufacturer" v="Nordex"/>
    <tag k="note" v="WEA NX-1014 1300 kW"/>
    <tag k="power" v="generator"/>
    <tag k="power_rating" v="1300 kW"/>
    <tag k="power_source" v="wind"/>
    <tag k="ref" v="NX-1014"/>
  </node>
  <node id="272129773" version="4" timestamp="2011-06-04T03:31:55Z" uid="297482" user="don-vip" changeset="8335705" lat="53.813454" lon="8.732299">
    <tag k="generator:source" v="wind"/>
    <tag k="manufacturer" v="Nordex"/>
    <tag k="note" v="WEA NX-1014 1300 kW"/>
    <tag k="power" v="generator"/>
    <tag k="power_rating" v="1300 kW"/>
    <tag k="power_source" v="wind"/>
    <tag k="ref" v="NX-1014"/>
  </node>
  <node id="272129773" version="5" timestamp="2011-06-04T23:13:29Z" uid="297482" user="don-vip" changeset="8344176" lat="53.813454" lon="8.732299">
    <tag k="generator:output:electricity" v="1.3 MW"/>
    <tag k="generator:source" v="wind"/>
    <tag k="manufacturer" v="Nordex"/>
    <tag k="note" v="WEA NX-1014 1300 kW"/>
    <tag k="power" v="generator"/>
    <tag k="power_rating" v="1300 kW"/>
    <tag k="power_source" v="wind"/>
    <tag k="ref" v="NX-1014"/>
  </node>
  <node id="272129773" version="6" timestamp="2012-02-14T21:14:47Z" uid="590907" user="cbdavis" changeset="10686992" lat="53.813454" lon="8.732299">
    <tag k="generator:output:electricity" v="1.3 MW"/>
    <tag k="generator:source" v="wind"/>
    <tag k="manufacturer" v="Nordex"/>
    <tag k="note" v="WEA NX-1014 1300 kW"/>
    <tag k="power" v="generator"/>
    <tag k="power_rating" v="1300 kW"/>
    <tag k="ref" v="NX-1014"/>
  </node>
  <node id="272129773" version="7" timestamp="2012-02-15T10:48:03Z" uid="590907" user="cbdavis" changeset="10690119" lat="53.813454" lon="8.732299">
    <tag k="generator:output:electricity" v="1.3 MW"/>
    <tag k="generator:source" v="wind"/>
    <tag k="manufacturer" v="Nordex"/>
    <tag k="note" v="WEA NX-1014 1300 kW"/>
    <tag k="power" v="generator"/>
    <tag k="power_rating" v="1300 kW"/>
    <tag k="power_source" v="wind"/>
    <tag k="ref" v="NX-1014"/>
  </node>
  <node id="272129774" version="2" timestamp="2008-07-06T09:27:14Z" uid="6975" user="ulfl" changeset="407266" lat="53.814586" lon="8.728176">
    <tag k="name" v="WEA NX-1017 1300kW"/>
    <tag k="note" v="WEA NX-1017 1300kW"/>
    <tag k="power" v="generator"/>
    <tag k="power_source" v="wind"/>
  </node>
  <node id="272129774" version="3" timestamp="2010-06-04T06:34:48Z" uid="24920" user="Schusch" changeset="4898328" lat="53.814586" lon="8.728176">
    <tag k="manufacturer" v="Nordex"/>
    <tag k="note" v="WEA NX-1017 1300 kW"/>
    <tag k="power" v="generator"/>
    <tag k="power_rating" v="1300 kW"/>
    <tag k="power_source" v="wind"/>
    <tag k="ref" v="NX-1017"/>
  </node>
  <node id="272129774" version="4" timestamp="2011-06-04T03:31:55Z" uid="297482" user="don-vip" changeset="8335705" lat="53.814586" lon="8.728176">
    <tag k="generator:source" v="wind"/>
    <tag k="manufacturer" v="Nordex"/>
    <tag k="note" v="WEA NX-1017 1300 kW"/>
    <tag k="power" v="generator"/>
    <tag k="power_rating" v="1300 kW"/>
    <tag k="power_source" v="wind"/>
    <tag k="ref" v="NX-1017"/>
  </node>
  <node id="272129774" version="5" timestamp="2011-06-04T23:13:29Z" uid="297482" user="don-vip" changeset="8344176" lat="53.814586" lon="8.728176">
    <tag k="generator:output:electricity" v="1.3 MW"/>
    <tag k="generator:source" v="wind"/>
    <tag k="manufacturer" v="Nordex"/>
    <tag k="note" v="WEA NX-1017 1300 kW"/>
    <tag k="power" v="generator"/>
    <tag k="power_rating" v="1300 kW"/>
    <tag k="power_source" v="wind"/>
    <tag k="ref" v="NX-1017"/>
  </node>
  <node id="272129774" version="6" timestamp="2012-02-14T21:14:47Z" uid="590907" user="cbdavis" changeset="10686992" lat="53.814586" lon="8.728176">
    <tag k="generator:output:electricity" v="1.3 MW"/>
    <tag k="generator:source" v="wind"/>
    <tag k="manufacturer" v="Nordex"/>
    <tag k="note" v="WEA NX-1017 1300 kW"/>
    <tag k="power" v="generator"/>
    <tag k="power_rating" v="1300 kW"/>
    <tag k="ref" v="NX-1017"/>
  </node>
  <node id="272129774" version="7" timestamp="2012-02-15T10:48:04Z" uid="590907" user="cbdavis" changeset="10690119" lat="53.814586" lon="8.728176">
    <tag k="generator:output:electricity" v="1.3 MW"/>
    <tag k="generator:source" v="wind"/>
    <tag k="manufacturer" v="Nordex"/>
    <tag k="note" v="WEA NX-1017 1300 kW"/>
    <tag k="power" v="generator"/>
    <tag k="power_rating" v="1300 kW"/>
    <tag k="power_source" v="wind"/>
    <tag k="ref" v="NX-1017"/>
  </node>
  <node id="272129776" version="2" timestamp="2008-07-06T09:27:12Z" uid="6975" user="ulfl" changeset="407266" lat="53.821649" lon="8.719441">
    <tag k="name" v="WEA NX-1016 1300kW"/>
    <tag k="note" v="WEA NX-1016 1300kW"/>
    <tag k="power" v="generator"/>
    <tag k="power_source" v="wind"/>
  </node>
  <node id="272129776" version="3" timestamp="2010-06-04T06:34:48Z" uid="24920" user="Schusch" changeset="4898328" lat="53.821649" lon="8.719441">
    <tag k="manufacturer" v="Nordex"/>
    <tag k="note" v="WEA NX-1016 1300 kW"/>
    <tag k="power" v="generator"/>
    <tag k="power_rating" v="1300 kW"/>
    <tag k="power_source" v="wind"/>
    <tag k="ref" v="NX-1016"/>
  </node>
  <node id="272129776" version="4" timestamp="2011-06-04T03:31:55Z" uid="297482" user="don-vip" changeset="8335705" lat="53.821649" lon="8.719441">
    <tag k="generator:source" v="wind"/>
    <tag k="manufacturer" v="Nordex"/>
    <tag k="note" v="WEA NX-1016 1300 kW"/>
    <tag k="power" v="generator"/>
    <tag k="power_rating" v="1300 kW"/>
    <tag k="power_source" v="wind"/>
    <tag k="ref" v="NX-1016"/>
  </node>
  <node id="272129776" version="5" timestamp="2011-06-04T23:13:29Z" uid="297482" user="don-vip" changeset="8344176" lat="53.821649" lon="8.719441">
    <tag k="generator:output:electricity" v="1.3 MW"/>
    <tag k="generator:source" v="wind"/>
    <tag k="manufacturer" v="Nordex"/>
    <tag k="note" v="WEA NX-1016 1300 kW"/>
    <tag k="power" v="generator"/>
    <tag k="power_rating" v="1300 kW"/>
    <tag k="power_source" v="wind"/>
    <tag k="ref" v="NX-1016"/>
  </node>
  <node id="272129776" version="6" timestamp="2012-02-14T21:14:47Z" uid="590907" user="cbdavis" changeset="10686992" lat="53.821649" lon="8.719441">
    <tag k="generator:output:electricity" v="1.3 MW"/>
    <tag k="generator:source" v="wind"/>
    <tag k="manufacturer" v="Nordex"/>
    <tag k="note" v="WEA NX-1016 1300 kW"/>
    <tag k="power" v="generator"/>
    <tag k="power_rating" v="1300 kW"/>
    <tag k="ref" v="NX-1016"/>
  </node>
  <node id="272129776" version="7" timestamp="2012-02-15T10:48:04Z" uid="590907" user="cbdavis" changeset="10690119" lat="53.821649" lon="8.719441">
    <tag k="generator:output:electricity" v="1.3 MW"/>
    <tag k="generator:source" v="wind"/>
    <tag k="manufacturer" v="Nordex"/>
    <tag k="note" v="WEA NX-1016 1300 kW"/>
    <tag k="power" v="generator"/>
    <tag k="power_rating" v="1300 kW"/>
    <tag k="power_source" v="wind"/>
    <tag k="ref" v="NX-1016"/>
  </node>
  <node id="272129777" version="2" timestamp="2008-07-06T09:27:12Z" uid="6975" user="ulfl" changeset="407266" lat="53.815624" lon="8.74231">
    <tag k="name" v="WEA NX-1019 1300kW"/>
    <tag k="note" v="WEA NX-1019 1300kW"/>
    <tag k="power" v="generator"/>
    <tag k="power_source" v="wind"/>
  </node>
  <node id="272129777" version="3" timestamp="2010-06-04T06:34:49Z" uid="24920" user="Schusch" changeset="4898328" lat="53.815624" lon="8.74231">
    <tag k="manufacturer" v="Nordex"/>
    <tag k="note" v="WEA NX-1019 1300 kW"/>
    <tag k="power" v="generator"/>
    <tag k="power_rating" v="1300 kW"/>
    <tag k="power_source" v="wind"/>
    <tag k="ref" v="NX-1019"/>
  </node>
  <node id="272129777" version="4" timestamp="2011-06-04T03:31:56Z" uid="297482" user="don-vip" changeset="8335705" lat="53.815624" lon="8.74231">
    <tag k="generator:source" v="wind"/>
    <tag k="manufacturer" v="Nordex"/>
    <tag k="note" v="WEA NX-1019 1300 kW"/>
    <tag k="power" v="generator"/>
    <tag k="power_rating" v="1300 kW"/>
    <tag k="power_source" v="wind"/>
    <tag k="ref" v="NX-1019"/>
  </node>
  <node id="272129777" version="5" timestamp="2011-06-04T23:13:29Z" uid="297482" user="don-vip" changeset="8344176" lat="53.815624" lon="8.74231">
    <tag k="generator:output:electricity" v="1.3 MW"/>
    <tag k="generator:source" v="wind"/>
    <tag k="manufacturer" v="Nordex"/>
    <tag k="note" v="WEA NX-1019 1300 kW"/>
    <tag k="power" v="generator"/>
    <tag k="power_rating" v="1300 kW"/>
    <tag k="power_source" v="wind"/>
    <tag k="ref" v="NX-1019"/>
  </node>
  <node id="272129777" version="6" timestamp="2012-02-14T21:14:47Z" uid="590907" user="cbdavis" changeset="10686992" lat="53.815624" lon="8.74231">
    <tag k="generator:output:electricity" v="1.3 MW"/>
    <tag k="generator:source" v="wind"/>
    <tag k="manufacturer" v="Nordex"/>
    <tag k="note" v="WEA NX-1019 1300 kW"/>
    <tag k="power" v="generator"/>
    <tag k="power_rating" v="1300 kW"/>
    <tag k="ref" v="NX-1019"/>
  </node>
  <node id="272129777" version="7" timestamp="2012-02-15T10:48:04Z" uid="590907" user="cbdavis" changeset="10690119" lat="53.815624" lon="8.74231">
    <tag k="generator:output:electricity" v="1.3 MW"/>
    <tag k="generator:source" v="wind"/>
    <tag k="manufacturer" v="Nordex"/>
    <tag k="note" v="WEA NX-1019 1300 kW"/>
    <tag k="power" v="generator"/>
    <tag k="power_rating" v="1300 kW"/>
    <tag k="power_source" v="wind"/>
    <tag k="ref" v="NX-1019"/>
  </node>
  <node id="272129779" version="2" timestamp="2008-07-06T09:27:13Z" uid="6975" user="ulfl" changeset="407266" lat="53.820967" lon="8.731644">
    <tag k="name" v="WEA NX-1018 1300kW"/>
    <tag k="note" v="WEA NX-1018 1300kW"/>
    <tag k="power" v="generator"/>
    <tag k="power_source" v="wind"/>
  </node>
  <node id="272129779" version="3" timestamp="2010-06-04T06:34:48Z" uid="24920" user="Schusch" changeset="4898328" lat="53.820967" lon="8.731644">
    <tag k="manufacturer" v="Nordex"/>
    <tag k="note" v="WEA NX-1018 1300 kW"/>
    <tag k="power" v="generator"/>
    <tag k="power_rating" v="1300 kW"/>
    <tag k="power_source" v="wind"/>
    <tag k="ref" v="NX-1018"/>
  </node>
  <node id="272129779" version="4" timestamp="2011-06-04T03:31:56Z" uid="297482" user="don-vip" changeset="8335705" lat="53.820967" lon="8.731644">
    <tag k="generator:source" v="wind"/>
    <tag k="manufacturer" v="Nordex"/>
    <tag k="note" v="WEA NX-1018 1300 kW"/>
    <tag k="power" v="generator"/>
    <tag k="power_rating" v="1300 kW"/>
    <tag k="power_source" v="wind"/>
    <tag k="ref" v="NX-1018"/>
  </node>
  <node id="272129779" version="5" timestamp="2011-06-04T23:13:29Z" uid="297482" user="don-vip" changeset="8344176" lat="53.820967" lon="8.731644">
    <tag k="generator:output:electricity" v="1.3 MW"/>
    <tag k="generator:source" v="wind"/>
    <tag k="manufacturer" v="Nordex"/>
    <tag k="note" v="WEA NX-1018 1300 kW"/>
    <tag k="power" v="generator"/>
    <tag k="power_rating" v="1300 kW"/>
    <tag k="power_source" v="wind"/>
    <tag k="ref" v="NX-1018"/>
  </node>
  <node id="272129779" version="6" timestamp="2012-02-14T21:14:48Z" uid="590907" user="cbdavis" changeset="10686992" lat="53.820967" lon="8.731644">
    <tag k="generator:output:electricity" v="1.3 MW"/>
    <tag k="generator:source" v="wind"/>
    <tag k="manufacturer" v="Nordex"/>
    <tag k="note" v="WEA NX-1018 1300 kW"/>
    <tag k="power" v="generator"/>
    <tag k="power_rating" v="1300 kW"/>
    <tag k="ref" v="NX-1018"/>
  </node>
  <node id="272129779" version="7" timestamp="2012-02-15T10:48:05Z" uid="590907" user="cbdavis" changeset="10690119" lat="53.820967" lon="8.731644">
    <tag k="generator:output:electricity" v="1.3 MW"/>
    <tag k="generator:source" v="wind"/>
    <tag k="manufacturer" v="Nordex"/>
    <tag k="note" v="WEA NX-1018 1300 kW"/>
    <tag k="power" v="generator"/>
    <tag k="power_rating" v="1300 kW"/>
    <tag k="power_source" v="wind"/>
    <tag k="ref" v="NX-1018"/>
  </node>
  <node id="272129780" version="2" timestamp="2008-07-06T09:27:13Z" uid="6975" user="ulfl" changeset="407266" lat="53.816084" lon="8.723048">
    <tag k="name" v="WEA NX-1020 1300kW"/>
    <tag k="note" v="WEA NX-1020 1300kW"/>
    <tag k="power" v="generator"/>
    <tag k="power_source" v="wind"/>
  </node>
  <node id="272129780" version="3" timestamp="2010-06-04T06:34:49Z" uid="24920" user="Schusch" changeset="4898328" lat="53.816084" lon="8.723048">
    <tag k="manufacturer" v="Nordex"/>
    <tag k="note" v="WEA NX-1020 1300 kW"/>
    <tag k="power" v="generator"/>
    <tag k="power_rating" v="1300 kW"/>
    <tag k="power_source" v="wind"/>
    <tag k="ref" v="NX-1020"/>
  </node>
  <node id="272129780" version="4" timestamp="2011-06-04T03:31:56Z" uid="297482" user="don-vip" changeset="8335705" lat="53.816084" lon="8.723048">
    <tag k="generator:source" v="wind"/>
    <tag k="manufacturer" v="Nordex"/>
    <tag k="note" v="WEA NX-1020 1300 kW"/>
    <tag k="power" v="generator"/>
    <tag k="power_rating" v="1300 kW"/>
    <tag k="power_source" v="wind"/>
    <tag k="ref" v="NX-1020"/>
  </node>
  <node id="272129780" version="5" timestamp="2011-06-04T23:13:30Z" uid="297482" user="don-vip" changeset="8344176" lat="53.816084" lon="8.723048">
    <tag k="generator:output:electricity" v="1.3 MW"/>
    <tag k="generator:source" v="wind"/>
    <tag k="manufacturer" v="Nordex"/>
    <tag k="note" v="WEA NX-1020 1300 kW"/>
    <tag k="power" v="generator"/>
    <tag k="power_rating" v="1300 kW"/>
    <tag k="power_source" v="wind"/>
    <tag k="ref" v="NX-1020"/>
  </node>
  <node id="272129780" version="6" timestamp="2012-02-14T21:14:48Z" uid="590907" user="cbdavis" changeset="10686992" lat="53.816084" lon="8.723048">
    <tag k="generator:output:electricity" v="1.3 MW"/>
    <tag k="generator:source" v="wind"/>
    <tag k="manufacturer" v="Nordex"/>
    <tag k="note" v="WEA NX-1020 1300 kW"/>
    <tag k="power" v="generator"/>
    <tag k="power_rating" v="1300 kW"/>
    <tag k="ref" v="NX-1020"/>
  </node>
  <node id="272129780" version="7" timestamp="2012-02-15T10:48:05Z" uid="590907" user="cbdavis" changeset="10690119" lat="53.816084" lon="8.723048">
    <tag k="generator:output:electricity" v="1.3 MW"/>
    <tag k="generator:source" v="wind"/>
    <tag k="manufacturer" v="Nordex"/>
    <tag k="note" v="WEA NX-1020 1300 kW"/>
    <tag k="power" v="generator"/>
    <tag k="power_rating" v="1300 kW"/>
    <tag k="power_source" v="wind"/>
    <tag k="ref" v="NX-1020"/>
  </node>
  <node id="272129781" version="2" timestamp="2008-07-06T09:27:13Z" uid="6975" user="ulfl" changeset="407266" lat="52.601087" lon="9.322101">
    <tag k="name" v="WEA NX-102 150kW"/>
    <tag k="note" v="WEA NX-102 150kW"/>
    <tag k="power" v="generator"/>
    <tag k="power_source" v="wind"/>
  </node>
  <node id="272129781" version="3" timestamp="2008-07-09T20:06:30Z" uid="16379" user="sherlok" changeset="448731" lat="52.601087" lon="9.322101">
    <tag k="name" v="WEA NX-102 150kW"/>
    <tag k="note" v="WEA NX-102 150kW"/>
    <tag k="power" v="generator"/>
    <tag k="power_source" v="wind"/>
  </node>
  <node id="272129783" version="2" timestamp="2008-07-06T09:27:13Z" uid="6975" user="ulfl" changeset="407266" lat="52.598263" lon="9.50749">
    <tag k="name" v="WEA NX-1023 1300kW"/>
    <tag k="note" v="WEA NX-1023 1300kW"/>
    <tag k="power" v="generator"/>
    <tag k="power_source" v="wind"/>
  </node>
  <node id="272129783" version="3" timestamp="2008-07-09T20:07:02Z" uid="16379" user="sherlok" changeset="448731" lat="52.598263" lon="9.50749">
    <tag k="name" v="WEA NX-1023 1300kW"/>
    <tag k="note" v="WEA NX-1023 1300kW"/>
    <tag k="power" v="generator"/>
    <tag k="power_source" v="wind"/>
  </node>
  <node id="272129788" version="2" timestamp="2008-07-06T09:27:12Z" uid="6975" user="ulfl" changeset="407266" lat="52.622955" lon="9.464521">
    <tag k="name" v="WEA NX-1025 1300kW"/>
    <tag k="note" v="WEA NX-1025 1300kW"/>
    <tag k="power" v="generator"/>
    <tag k="power_source" v="wind"/>
  </node>
  <node id="272129788" version="3" timestamp="2008-07-09T20:07:03Z" uid="16379" user="sherlok" changeset="448731" lat="52.622955" lon="9.464521">
    <tag k="name" v="WEA NX-1025 1300kW"/>
    <tag k="note" v="WEA NX-1025 1300kW"/>
    <tag k="power" v="generator"/>
    <tag k="power_source" v="wind"/>
  </node>
  <node id="272129789" version="2" timestamp="2008-07-06T09:27:11Z" uid="6975" user="ulfl" changeset="407266" lat="52.598089" lon="9.50393">
    <tag k="name" v="WEA NX-1028 1300kW"/>
    <tag k="note" v="WEA NX-1028 1300kW"/>
    <tag k="power" v="generator"/>
    <tag k="power_source" v="wind"/>
  </node>
  <node id="272129789" version="3" timestamp="2008-07-09T20:06:30Z" uid="16379" user="sherlok" changeset="448731" lat="52.598089" lon="9.50393">
    <tag k="name" v="WEA NX-1028 1300kW"/>
    <tag k="note" v="WEA NX-1028 1300kW"/>
    <tag k="power" v="generator"/>
    <tag k="power_source" v="wind"/>
  </node>
  <node id="272129791" version="3" timestamp="2008-07-06T09:27:12Z" uid="6975" user="ulfl" changeset="407266" lat="53.8238014" lon="8.7156828">
    <tag k="name" v="WEA NX-1027 1300kW"/>
    <tag k="note" v="WEA NX-1027 1300kW"/>
    <tag k="power" v="generator"/>
    <tag k="power_source" v="wind"/>
    <tag k="ref" v="NX-1027"/>
  </node>
  <node id="272129791" version="4" timestamp="2010-06-04T06:34:48Z" uid="24920" user="Schusch" changeset="4898328" lat="53.8238014" lon="8.7156828">
    <tag k="manufacturer" v="Nordex"/>
    <tag k="note" v="WEA NX-1027 1300 kW"/>
    <tag k="power" v="generator"/>
    <tag k="power_rating" v="1300 kW"/>
    <tag k="power_source" v="wind"/>
    <tag k="ref" v="NX-1027"/>
  </node>
  <node id="272129791" version="5" timestamp="2011-06-04T03:31:56Z" uid="297482" user="don-vip" changeset="8335705" lat="53.8238014" lon="8.7156828">
    <tag k="generator:source" v="wind"/>
    <tag k="manufacturer" v="Nordex"/>
    <tag k="note" v="WEA NX-1027 1300 kW"/>
    <tag k="power" v="generator"/>
    <tag k="power_rating" v="1300 kW"/>
    <tag k="power_source" v="wind"/>
    <tag k="ref" v="NX-1027"/>
  </node>
  <node id="272129791" version="6" timestamp="2011-06-04T23:13:30Z" uid="297482" user="don-vip" changeset="8344176" lat="53.8238014" lon="8.7156828">
    <tag k="generator:output:electricity" v="1.3 MW"/>
    <tag k="generator:source" v="wind"/>
    <tag k="manufacturer" v="Nordex"/>
    <tag k="note" v="WEA NX-1027 1300 kW"/>
    <tag k="power" v="generator"/>
    <tag k="power_rating" v="1300 kW"/>
    <tag k="power_source" v="wind"/>
    <tag k="ref" v="NX-1027"/>
  </node>
  <node id="272129791" version="7" timestamp="2012-02-14T21:14:48Z" uid="590907" user="cbdavis" changeset="10686992" lat="53.8238014" lon="8.7156828">
    <tag k="generator:output:electricity" v="1.3 MW"/>
    <tag k="generator:source" v="wind"/>
    <tag k="manufacturer" v="Nordex"/>
    <tag k="note" v="WEA NX-1027 1300 kW"/>
    <tag k="power" v="generator"/>
    <tag k="power_rating" v="1300 kW"/>
    <tag k="ref" v="NX-1027"/>
  </node>
  <node id="272129791" version="8" timestamp="2012-02-15T10:48:06Z" uid="590907" user="cbdavis" changeset="10690119" lat="53.8238014" lon="8.7156828">
    <tag k="generator:output:electricity" v="1.3 MW"/>
    <tag k="generator:source" v="wind"/>
    <tag k="manufacturer" v="Nordex"/>
    <tag k="note" v="WEA NX-1027 1300 kW"/>
    <tag k="power" v="generator"/>
    <tag k="power_rating" v="1300 kW"/>
    <tag k="power_source" v="wind"/>
    <tag k="ref" v="NX-1027"/>
  </node>
  <node id="272129793" version="3" timestamp="2008-07-06T09:27:08Z" uid="6975" user="ulfl" changeset="407266" lat="53.8215469" lon="8.714198">
    <tag k="name" v="WEA NX-1029 1300kW"/>
    <tag k="note" v="WEA NX-1029 1300kW"/>
    <tag k="power" v="generator"/>
    <tag k="power_source" v="wind"/>
    <tag k="ref" v="NX-1029"/>
  </node>
  <node id="272129793" version="4" timestamp="2010-06-04T06:34:49Z" uid="24920" user="Schusch" changeset="4898328" lat="53.8215469" lon="8.714198">
    <tag k="manufacturer" v="Nordex"/>
    <tag k="note" v="WEA NX-1029 1300 kW"/>
    <tag k="power" v="generator"/>
    <tag k="power_rating" v="1300 kW"/>
    <tag k="power_source" v="wind"/>
    <tag k="ref" v="NX-1029"/>
  </node>
  <node id="272129793" version="5" timestamp="2011-06-04T03:31:56Z" uid="297482" user="don-vip" changeset="8335705" lat="53.8215469" lon="8.714198">
    <tag k="generator:source" v="wind"/>
    <tag k="manufacturer" v="Nordex"/>
    <tag k="note" v="WEA NX-1029 1300 kW"/>
    <tag k="power" v="generator"/>
    <tag k="power_rating" v="1300 kW"/>
    <tag k="power_source" v="wind"/>
    <tag k="ref" v="NX-1029"/>
  </node>
  <node id="272129793" version="6" timestamp="2011-06-04T23:13:30Z" uid="297482" user="don-vip" changeset="8344176" lat="53.8215469" lon="8.714198">
    <tag k="generator:output:electricity" v="1.3 MW"/>
    <tag k="generator:source" v="wind"/>
    <tag k="manufacturer" v="Nordex"/>
    <tag k="note" v="WEA NX-1029 1300 kW"/>
    <tag k="power" v="generator"/>
    <tag k="power_rating" v="1300 kW"/>
    <tag k="power_source" v="wind"/>
    <tag k="ref" v="NX-1029"/>
  </node>
  <node id="272129793" version="7" timestamp="2012-02-14T21:14:49Z" uid="590907" user="cbdavis" changeset="10686992" lat="53.8215469" lon="8.714198">
    <tag k="generator:output:electricity" v="1.3 MW"/>
    <tag k="generator:source" v="wind"/>
    <tag k="manufacturer" v="Nordex"/>
    <tag k="note" v="WEA NX-1029 1300 kW"/>
    <tag k="power" v="generator"/>
    <tag k="power_rating" v="1300 kW"/>
    <tag k="ref" v="NX-1029"/>
  </node>
  <node id="272129793" version="8" timestamp="2012-02-15T10:48:06Z" uid="590907" user="cbdavis" changeset="10690119" lat="53.8215469" lon="8.714198">
    <tag k="generator:output:electricity" v="1.3 MW"/>
    <tag k="generator:source" v="wind"/>
    <tag k="manufacturer" v="Nordex"/>
    <tag k="note" v="WEA NX-1029 1300 kW"/>
    <tag k="power" v="generator"/>
    <tag k="power_rating" v="1300 kW"/>
    <tag k="power_source" v="wind"/>
    <tag k="ref" v="NX-1029"/>
  </node>
  <node id="272129795" version="2" timestamp="2008-07-06T09:27:09Z" uid="6975" user="ulfl" changeset="407266" lat="52.601793" lon="9.524614">
    <tag k="name" v="WEA NX-1032 1300kW"/>
    <tag k="note" v="WEA NX-1032 1300kW"/>
    <tag k="power" v="generator"/>
    <tag k="power_source" v="wind"/>
  </node>
  <node id="272129795" version="3" timestamp="2008-07-09T20:06:31Z" uid="16379" user="sherlok" changeset="448731" lat="52.601793" lon="9.524614">
    <tag k="name" v="WEA NX-1032 1300kW"/>
    <tag k="note" v="WEA NX-1032 1300kW"/>
    <tag k="power" v="generator"/>
    <tag k="power_source" v="wind"/>
  </node>
  <node id="272129796" version="2" timestamp="2008-07-06T09:27:08Z" uid="6975" user="ulfl" changeset="407266" lat="52.59922" lon="9.495911">
    <tag k="name" v="WEA NX-1033 1300kW"/>
    <tag k="note" v="WEA NX-1033 1300kW"/>
    <tag k="power" v="generator"/>
    <tag k="power_source" v="wind"/>
  </node>
  <node id="272129796" version="3" timestamp="2008-07-09T20:06:32Z" uid="16379" user="sherlok" changeset="448731" lat="52.59922" lon="9.495911">
    <tag k="name" v="WEA NX-1033 1300kW"/>
    <tag k="note" v="WEA NX-1033 1300kW"/>
    <tag k="power" v="generator"/>
    <tag k="power_source" v="wind"/>
  </node>
  <node id="272129801" version="2" timestamp="2008-07-06T09:27:09Z" uid="6975" user="ulfl" changeset="407266" lat="52.629879" lon="9.454799">
    <tag k="name" v="WEA NX-1042 1300kW"/>
    <tag k="note" v="WEA NX-1042 1300kW"/>
    <tag k="power" v="generator"/>
    <tag k="power_source" v="wind"/>
  </node>
  <node id="272129801" version="3" timestamp="2008-07-09T20:07:00Z" uid="16379" user="sherlok" changeset="448731" lat="52.629879" lon="9.454799">
    <tag k="name" v="WEA NX-1042 1300kW"/>
    <tag k="note" v="WEA NX-1042 1300kW"/>
    <tag k="power" v="generator"/>
    <tag k="power_source" v="wind"/>
  </node>
  <node id="272129805" version="2" timestamp="2008-07-06T09:27:09Z" uid="6975" user="ulfl" changeset="407266" lat="52.125297" lon="11.132443">
    <tag k="name" v="WEA NX-1039 1300kW"/>
    <tag k="note" v="WEA NX-1039 1300kW"/>
    <tag k="power" v="generator"/>
    <tag k="power_source" v="wind"/>
  </node>
  <node id="272129805" version="3" timestamp="2010-07-28T09:41:38Z" uid="24920" user="Schusch" changeset="5336343" lat="52.125297" lon="11.132443">
    <tag k="note" v="WEA NX-1039 1300 kW"/>
    <tag k="power" v="generator"/>
    <tag k="power_rating" v="1300 kW"/>
    <tag k="power_source" v="wind"/>
    <tag k="ref" v="NX-1039"/>
  </node>
  <node id="272129805" version="4" timestamp="2011-06-04T03:31:57Z" uid="297482" user="don-vip" changeset="8335705" lat="52.125297" lon="11.132443">
    <tag k="generator:source" v="wind"/>
    <tag k="note" v="WEA NX-1039 1300 kW"/>
    <tag k="power" v="generator"/>
    <tag k="power_rating" v="1300 kW"/>
    <tag k="power_source" v="wind"/>
    <tag k="ref" v="NX-1039"/>
  </node>
  <node id="272129805" version="5" timestamp="2011-06-04T23:13:30Z" uid="297482" user="don-vip" changeset="8344176" lat="52.125297" lon="11.132443">
    <tag k="generator:output:electricity" v="1.3 MW"/>
    <tag k="generator:source" v="wind"/>
    <tag k="note" v="WEA NX-1039 1300 kW"/>
    <tag k="power" v="generator"/>
    <tag k="power_rating" v="1300 kW"/>
    <tag k="power_source" v="wind"/>
    <tag k="ref" v="NX-1039"/>
  </node>
  <node id="272129805" version="6" timestamp="2012-02-14T21:14:49Z" uid="590907" user="cbdavis" changeset="10686992" lat="52.125297" lon="11.132443">
    <tag k="generator:output:electricity" v="1.3 MW"/>
    <tag k="generator:source" v="wind"/>
    <tag k="note" v="WEA NX-1039 1300 kW"/>
    <tag k="power" v="generator"/>
    <tag k="power_rating" v="1300 kW"/>
    <tag k="ref" v="NX-1039"/>
  </node>
  <node id="272129805" version="7" timestamp="2012-02-15T10:48:07Z" uid="590907" user="cbdavis" changeset="10690119" lat="52.125297" lon="11.132443">
    <tag k="generator:output:electricity" v="1.3 MW"/>
    <tag k="generator:source" v="wind"/>
    <tag k="note" v="WEA NX-1039 1300 kW"/>
    <tag k="power" v="generator"/>
    <tag k="power_rating" v="1300 kW"/>
    <tag k="power_source" v="wind"/>
    <tag k="ref" v="NX-1039"/>
  </node>
  <node id="272129809" version="2" timestamp="2008-07-06T09:27:10Z" uid="6975" user="ulfl" changeset="407266" lat="52.624118" lon="9.449775">
    <tag k="name" v="WEA NX-1044 1300kW"/>
    <tag k="note" v="WEA NX-1044 1300kW"/>
    <tag k="power" v="generator"/>
    <tag k="power_source" v="wind"/>
  </node>
  <node id="272129809" version="3" timestamp="2008-07-09T20:07:03Z" uid="16379" user="sherlok" changeset="448731" lat="52.624118" lon="9.449775">
    <tag k="name" v="WEA NX-1044 1300kW"/>
    <tag k="note" v="WEA NX-1044 1300kW"/>
    <tag k="power" v="generator"/>
    <tag k="power_source" v="wind"/>
  </node>
  <node id="272129812" version="2" timestamp="2008-07-06T09:27:09Z" uid="6975" user="ulfl" changeset="407266" lat="52.622551" lon="9.459642">
    <tag k="name" v="WEA NX-1051 1300kW"/>
    <tag k="note" v="WEA NX-1051 1300kW"/>
    <tag k="power" v="generator"/>
    <tag k="power_source" v="wind"/>
  </node>
  <node id="272129812" version="3" timestamp="2008-07-09T20:07:01Z" uid="16379" user="sherlok" changeset="448731" lat="52.622551" lon="9.459642">
    <tag k="name" v="WEA NX-1051 1300kW"/>
    <tag k="note" v="WEA NX-1051 1300kW"/>
    <tag k="power" v="generator"/>
    <tag k="power_source" v="wind"/>
  </node>
  <node id="272129814" version="2" timestamp="2008-07-06T09:27:10Z" uid="6975" user="ulfl" changeset="407266" lat="52.624214" lon="9.459866">
    <tag k="name" v="WEA NX-1052 1300kW"/>
    <tag k="note" v="WEA NX-1052 1300kW"/>
    <tag k="power" v="generator"/>
    <tag k="power_source" v="wind"/>
  </node>
  <node id="272129814" version="3" timestamp="2008-07-09T20:07:00Z" uid="16379" user="sherlok" changeset="448731" lat="52.624214" lon="9.459866">
    <tag k="name" v="WEA NX-1052 1300kW"/>
    <tag k="note" v="WEA NX-1052 1300kW"/>
    <tag k="power" v="generator"/>
    <tag k="power_source" v="wind"/>
  </node>
  <node id="272129815" version="2" timestamp="2008-07-06T09:27:10Z" uid="6975" user="ulfl" changeset="407266" lat="52.127567" lon="11.13223">
    <tag k="name" v="WEA NX-1049 1300kW"/>
    <tag k="note" v="WEA NX-1049 1300kW"/>
    <tag k="power" v="generator"/>
    <tag k="power_source" v="wind"/>
  </node>
  <node id="272129815" version="3" timestamp="2010-02-24T19:07:04Z" uid="110263" user="werner2101" changeset="3965631" lat="52.127567" lon="11.13223">
    <tag k="name" v="WEA NX-1049 1300kW"/>
    <tag k="note" v="WEA NX-1049 1300kW"/>
    <tag k="power" v="generator"/>
    <tag k="power_source" v="wind"/>
  </node>
  <node id="272129817" version="2" timestamp="2008-07-06T09:27:11Z" uid="6975" user="ulfl" changeset="407266" lat="52.129744" lon="11.13172">
    <tag k="name" v="WEA NX-1050 1300kW"/>
    <tag k="note" v="WEA NX-1050 1300kW"/>
    <tag k="power" v="generator"/>
    <tag k="power_source" v="wind"/>
  </node>
  <node id="272129817" version="3" timestamp="2010-07-28T09:41:37Z" uid="24920" user="Schusch" changeset="5336343" lat="52.129744" lon="11.13172">
    <tag k="note" v="WEA NX-1050 1300 kW"/>
    <tag k="power" v="generator"/>
    <tag k="power_rating" v="1300 kW"/>
    <tag k="power_source" v="wind"/>
    <tag k="ref" v="NX-1050"/>
  </node>
  <node id="272129817" version="4" timestamp="2011-06-04T03:31:57Z" uid="297482" user="don-vip" changeset="8335705" lat="52.129744" lon="11.13172">
    <tag k="generator:source" v="wind"/>
    <tag k="note" v="WEA NX-1050 1300 kW"/>
    <tag k="power" v="generator"/>
    <tag k="power_rating" v="1300 kW"/>
    <tag k="power_source" v="wind"/>
    <tag k="ref" v="NX-1050"/>
  </node>
  <node id="272129817" version="5" timestamp="2011-06-04T23:13:30Z" uid="297482" user="don-vip" changeset="8344176" lat="52.129744" lon="11.13172">
    <tag k="generator:output:electricity" v="1.3 MW"/>
    <tag k="generator:source" v="wind"/>
    <tag k="note" v="WEA NX-1050 1300 kW"/>
    <tag k="power" v="generator"/>
    <tag k="power_rating" v="1300 kW"/>
    <tag k="power_source" v="wind"/>
    <tag k="ref" v="NX-1050"/>
  </node>
  <node id="272129817" version="6" timestamp="2012-02-14T21:14:49Z" uid="590907" user="cbdavis" changeset="10686992" lat="52.129744" lon="11.13172">
    <tag k="generator:output:electricity" v="1.3 MW"/>
    <tag k="generator:source" v="wind"/>
    <tag k="note" v="WEA NX-1050 1300 kW"/>
    <tag k="power" v="generator"/>
    <tag k="power_rating" v="1300 kW"/>
    <tag k="ref" v="NX-1050"/>
  </node>
  <node id="272129817" version="7" timestamp="2012-02-15T10:48:07Z" uid="590907" user="cbdavis" changeset="10690119" lat="52.129744" lon="11.13172">
    <tag k="generator:output:electricity" v="1.3 MW"/>
    <tag k="generator:source" v="wind"/>
    <tag k="note" v="WEA NX-1050 1300 kW"/>
    <tag k="power" v="generator"/>
    <tag k="power_rating" v="1300 kW"/>
    <tag k="power_source" v="wind"/>
    <tag k="ref" v="NX-1050"/>
  </node>
  <node id="272129820" version="2" timestamp="2008-07-06T09:27:10Z" uid="6975" user="ulfl" changeset="407266" lat="52.629443" lon="9.460645">
    <tag k="name" v="WEA NX-1056 1300kW"/>
    <tag k="note" v="WEA NX-1056 1300kW"/>
    <tag k="power" v="generator"/>
    <tag k="power_source" v="wind"/>
  </node>
  <node id="272129820" version="3" timestamp="2008-07-09T20:06:31Z" uid="16379" user="sherlok" changeset="448731" lat="52.629443" lon="9.460645">
    <tag k="name" v="WEA NX-1056 1300kW"/>
    <tag k="note" v="WEA NX-1056 1300kW"/>
    <tag k="power" v="generator"/>
    <tag k="power_source" v="wind"/>
  </node>
  <node id="272129821" version="2" timestamp="2008-07-06T09:27:11Z" uid="6975" user="ulfl" changeset="407266" lat="52.628576" lon="9.466221">
    <tag k="name" v="WEA NX-1055 1300kW"/>
    <tag k="note" v="WEA NX-1055 1300kW"/>
    <tag k="power" v="generator"/>
    <tag k="power_source" v="wind"/>
  </node>
  <node id="272129821" version="3" timestamp="2008-07-09T20:06:32Z" uid="16379" user="sherlok" changeset="448731" lat="52.628576" lon="9.466221">
    <tag k="name" v="WEA NX-1055 1300kW"/>
    <tag k="note" v="WEA NX-1055 1300kW"/>
    <tag k="power" v="generator"/>
    <tag k="power_source" v="wind"/>
  </node>
  <node id="272129822" version="2" timestamp="2008-07-06T09:27:11Z" uid="6975" user="ulfl" changeset="407266" lat="52.625105" lon="9.46645">
    <tag k="name" v="WEA NX-1053 1300kW"/>
    <tag k="note" v="WEA NX-1053 1300kW"/>
    <tag k="power" v="generator"/>
    <tag k="power_source" v="wind"/>
  </node>
  <node id="272129822" version="3" timestamp="2008-07-09T20:07:21Z" uid="16379" user="sherlok" changeset="448731" lat="52.625105" lon="9.46645">
    <tag k="name" v="WEA NX-1053 1300kW"/>
    <tag k="note" v="WEA NX-1053 1300kW"/>
    <tag k="power" v="generator"/>
    <tag k="power_source" v="wind"/>
  </node>
  <node id="272129824" version="2" timestamp="2008-07-06T09:27:06Z" uid="6975" user="ulfl" changeset="407266" lat="52.622756" lon="9.453174">
    <tag k="name" v="WEA NX-1081 1300kW"/>
    <tag k="note" v="WEA NX-1081 1300kW"/>
    <tag k="power" v="generator"/>
    <tag k="power_source" v="wind"/>
  </node>
  <node id="272129824" version="3" timestamp="2008-07-09T20:06:31Z" uid="16379" user="sherlok" changeset="448731" lat="52.622756" lon="9.453174">
    <tag k="name" v="WEA NX-1081 1300kW"/>
    <tag k="note" v="WEA NX-1081 1300kW"/>
    <tag k="power" v="generator"/>
    <tag k="power_source" v="wind"/>
  </node>
  <node id="272129825" version="2" timestamp="2008-07-06T09:27:06Z" uid="6975" user="ulfl" changeset="407266" lat="52.627396" lon="9.457492">
    <tag k="name" v="WEA NX-1080 1300kW"/>
    <tag k="note" v="WEA NX-1080 1300kW"/>
    <tag k="power" v="generator"/>
    <tag k="power_source" v="wind"/>
  </node>
  <node id="272129825" version="3" timestamp="2008-07-09T20:07:02Z" uid="16379" user="sherlok" changeset="448731" lat="52.627396" lon="9.457492">
    <tag k="name" v="WEA NX-1080 1300kW"/>
    <tag k="note" v="WEA NX-1080 1300kW"/>
    <tag k="power" v="generator"/>
    <tag k="power_source" v="wind"/>
  </node>
  <node id="272129827" version="2" timestamp="2008-07-06T09:27:06Z" uid="6975" user="ulfl" changeset="407266" lat="52.625766" lon="9.451329">
    <tag k="name" v="WEA NX-1079 1300kW"/>
    <tag k="note" v="WEA NX-1079 1300kW"/>
    <tag k="power" v="generator"/>
    <tag k="power_source" v="wind"/>
  </node>
  <node id="272129827" version="3" timestamp="2008-07-09T20:07:00Z" uid="16379" user="sherlok" changeset="448731" lat="52.625766" lon="9.451329">
    <tag k="name" v="WEA NX-1079 1300kW"/>
    <tag k="note" v="WEA NX-1079 1300kW"/>
    <tag k="power" v="generator"/>
    <tag k="power_source" v="wind"/>
  </node>
  <node id="272129828" version="2" timestamp="2008-07-06T09:27:05Z" uid="6975" user="ulfl" changeset="407266" lat="52.628036" lon="9.452416">
    <tag k="name" v="WEA NX-1077 1300kW"/>
    <tag k="note" v="WEA NX-1077 1300kW"/>
    <tag k="power" v="generator"/>
    <tag k="power_source" v="wind"/>
  </node>
  <node id="272129828" version="3" timestamp="2008-07-09T20:06:31Z" uid="16379" user="sherlok" changeset="448731" lat="52.628036" lon="9.452416">
    <tag k="name" v="WEA NX-1077 1300kW"/>
    <tag k="note" v="WEA NX-1077 1300kW"/>
    <tag k="power" v="generator"/>
    <tag k="power_source" v="wind"/>
  </node>
  <node id="272129830" version="2" timestamp="2008-07-06T09:27:05Z" uid="6975" user="ulfl" changeset="407266" lat="52.160027" lon="11.232475">
    <tag k="name" v="WEA NX-1109 1300kW"/>
    <tag k="note" v="WEA NX-1109 1300kW"/>
    <tag k="power" v="generator"/>
    <tag k="power_source" v="wind"/>
  </node>
  <node id="272129830" version="3" timestamp="2009-04-24T22:07:04Z" uid="24920" user="Schusch" changeset="934534" lat="52.160027" lon="11.232475">
    <tag k="name" v="WEA NX-1109 1300kW"/>
    <tag k="note" v="WEA NX-1109 1300kW"/>
    <tag k="power" v="generator"/>
    <tag k="power_source" v="wind"/>
  </node>
  <node id="272129831" version="2" timestamp="2008-07-06T09:27:05Z" uid="6975" user="ulfl" changeset="407266" lat="52.146383" lon="11.261348">
    <tag k="name" v="WEA NX-1108 1300kW"/>
    <tag k="note" v="WEA NX-1108 1300kW"/>
    <tag k="power" v="generator"/>
    <tag k="power_source" v="wind"/>
  </node>
  <node id="272129831" version="3" timestamp="2009-04-24T22:07:04Z" uid="24920" user="Schusch" changeset="934534" lat="52.146383" lon="11.261348">
    <tag k="name" v="WEA NX-1108 1300kW"/>
    <tag k="note" v="WEA NX-1108 1300kW"/>
    <tag k="power" v="generator"/>
    <tag k="power_source" v="wind"/>
  </node>
  <node id="272129836" version="2" timestamp="2008-07-06T09:27:06Z" uid="6975" user="ulfl" changeset="407266" lat="52.152354" lon="11.249151">
    <tag k="name" v="WEA NX-1114 1300kW"/>
    <tag k="note" v="WEA NX-1114 1300kW"/>
    <tag k="power" v="generator"/>
    <tag k="power_source" v="wind"/>
  </node>
  <node id="272129836" version="3" timestamp="2009-04-24T22:07:04Z" uid="24920" user="Schusch" changeset="934534" lat="52.152354" lon="11.249151">
    <tag k="name" v="WEA NX-1114 1300kW"/>
    <tag k="note" v="WEA NX-1114 1300kW"/>
    <tag k="power" v="generator"/>
    <tag k="power_source" v="wind"/>
  </node>
  <node id="272129837" version="2" timestamp="2008-07-06T09:27:06Z" uid="6975" user="ulfl" changeset="407266" lat="52.155955" lon="11.241365">
    <tag k="name" v="WEA NX-1112 1300kW"/>
    <tag k="note" v="WEA NX-1112 1300kW"/>
    <tag k="power" v="generator"/>
    <tag k="power_source" v="wind"/>
  </node>
  <node id="272129837" version="3" timestamp="2009-04-24T22:07:04Z" uid="24920" user="Schusch" changeset="934534" lat="52.155955" lon="11.241365">
    <tag k="name" v="WEA NX-1112 1300kW"/>
    <tag k="note" v="WEA NX-1112 1300kW"/>
    <tag k="power" v="generator"/>
    <tag k="power_source" v="wind"/>
  </node>
  <node id="272129839" version="2" timestamp="2008-07-06T09:27:06Z" uid="6975" user="ulfl" changeset="407266" lat="52.157991" lon="11.236935">
    <tag k="name" v="WEA NX-1111 1300kW"/>
    <tag k="note" v="WEA NX-1111 1300kW"/>
    <tag k="power" v="generator"/>
    <tag k="power_source" v="wind"/>
  </node>
  <node id="272129839" version="3" timestamp="2009-04-24T22:07:04Z" uid="24920" user="Schusch" changeset="934534" lat="52.157991" lon="11.236935">
    <tag k="name" v="WEA NX-1111 1300kW"/>
    <tag k="note" v="WEA NX-1111 1300kW"/>
    <tag k="power" v="generator"/>
    <tag k="power_source" v="wind"/>
  </node>
  <node id="272129840" version="2" timestamp="2008-07-06T09:27:07Z" uid="6975" user="ulfl" changeset="407266" lat="52.154163" lon="11.245281">
    <tag k="name" v="WEA NX-1110 1300kW"/>
    <tag k="note" v="WEA NX-1110 1300kW"/>
    <tag k="power" v="generator"/>
    <tag k="power_source" v="wind"/>
  </node>
  <node id="272129840" version="3" timestamp="2009-04-24T22:07:04Z" uid="24920" user="Schusch" changeset="934534" lat="52.154163" lon="11.245281">
    <tag k="name" v="WEA NX-1110 1300kW"/>
    <tag k="note" v="WEA NX-1110 1300kW"/>
    <tag k="power" v="generator"/>
    <tag k="power_source" v="wind"/>
  </node>
  <node id="272129842" version="2" timestamp="2008-07-06T09:27:07Z" uid="6975" user="ulfl" changeset="407266" lat="52.146843" lon="11.250481">
    <tag k="name" v="WEA NX-1126 1300kW"/>
    <tag k="note" v="WEA NX-1126 1300kW"/>
    <tag k="power" v="generator"/>
    <tag k="power_source" v="wind"/>
  </node>
  <node id="272129842" version="3" timestamp="2009-04-24T22:07:04Z" uid="24920" user="Schusch" changeset="934534" lat="52.146843" lon="11.250481">
    <tag k="name" v="WEA NX-1126 1300kW"/>
    <tag k="note" v="WEA NX-1126 1300kW"/>
    <tag k="power" v="generator"/>
    <tag k="power_source" v="wind"/>
  </node>
  <node id="272129848" version="2" timestamp="2008-07-06T09:27:08Z" uid="6975" user="ulfl" changeset="407266" lat="52.151926" lon="11.241879">
    <tag k="name" v="WEA NX-1117 1300kW"/>
    <tag k="note" v="WEA NX-1117 1300kW"/>
    <tag k="power" v="generator"/>
    <tag k="power_source" v="wind"/>
  </node>
  <node id="272129848" version="3" timestamp="2009-04-24T22:07:04Z" uid="24920" user="Schusch" changeset="934534" lat="52.151926" lon="11.241879">
    <tag k="name" v="WEA NX-1117 1300kW"/>
    <tag k="note" v="WEA NX-1117 1300kW"/>
    <tag k="power" v="generator"/>
    <tag k="power_source" v="wind"/>
  </node>
  <node id="272129849" version="2" timestamp="2008-07-06T09:27:08Z" uid="6975" user="ulfl" changeset="407266" lat="52.150873" lon="11.253228">
    <tag k="name" v="WEA NX-1118 1300kW"/>
    <tag k="note" v="WEA NX-1118 1300kW"/>
    <tag k="power" v="generator"/>
    <tag k="power_source" v="wind"/>
  </node>
  <node id="272129849" version="3" timestamp="2009-04-24T22:07:04Z" uid="24920" user="Schusch" changeset="934534" lat="52.150873" lon="11.253228">
    <tag k="name" v="WEA NX-1118 1300kW"/>
    <tag k="note" v="WEA NX-1118 1300kW"/>
    <tag k="power" v="generator"/>
    <tag k="power_source" v="wind"/>
  </node>
  <node id="272129851" version="2" timestamp="2008-07-06T09:27:08Z" uid="6975" user="ulfl" changeset="407266" lat="52.149751" lon="11.25877">
    <tag k="name" v="WEA NX-1121 1300kW"/>
    <tag k="note" v="WEA NX-1121 1300kW"/>
    <tag k="power" v="generator"/>
    <tag k="power_source" v="wind"/>
  </node>
  <node id="272129851" version="3" timestamp="2009-04-24T22:07:04Z" uid="24920" user="Schusch" changeset="934534" lat="52.149751" lon="11.25877">
    <tag k="name" v="WEA NX-1121 1300kW"/>
    <tag k="note" v="WEA NX-1121 1300kW"/>
    <tag k="power" v="generator"/>
    <tag k="power_source" v="wind"/>
  </node>
  <node id="272129852" version="2" timestamp="2008-07-06T09:27:07Z" uid="6975" user="ulfl" changeset="407266" lat="52.145967" lon="11.25586">
    <tag k="name" v="WEA NX-1125 1300kW"/>
    <tag k="note" v="WEA NX-1125 1300kW"/>
    <tag k="power" v="generator"/>
    <tag k="power_source" v="wind"/>
  </node>
  <node id="272129852" version="3" timestamp="2009-04-24T22:07:04Z" uid="24920" user="Schusch" changeset="934534" lat="52.145967" lon="11.25586">
    <tag k="name" v="WEA NX-1125 1300kW"/>
    <tag k="note" v="WEA NX-1125 1300kW"/>
    <tag k="power" v="generator"/>
    <tag k="power_source" v="wind"/>
  </node>
  <node id="272129854" version="2" timestamp="2008-07-06T09:27:07Z" uid="6975" user="ulfl" changeset="407266" lat="52.152082" lon="11.23696">
    <tag k="name" v="WEA NX-1138 1300kW"/>
    <tag k="note" v="WEA NX-1138 1300kW"/>
    <tag k="power" v="generator"/>
    <tag k="power_source" v="wind"/>
  </node>
  <node id="272129854" version="3" timestamp="2009-04-24T22:07:04Z" uid="24920" user="Schusch" changeset="934534" lat="52.152082" lon="11.23696">
    <tag k="name" v="WEA NX-1138 1300kW"/>
    <tag k="note" v="WEA NX-1138 1300kW"/>
    <tag k="power" v="generator"/>
    <tag k="power_source" v="wind"/>
  </node>
  <node id="272129857" version="2" timestamp="2008-07-06T09:27:02Z" uid="6975" user="ulfl" changeset="407266" lat="52.152188" lon="11.231834">
    <tag k="name" v="WEA NX-1140 1300kW"/>
    <tag k="note" v="WEA NX-1140 1300kW"/>
    <tag k="power" v="generator"/>
    <tag k="power_source" v="wind"/>
  </node>
  <node id="272129857" version="3" timestamp="2009-04-24T22:07:04Z" uid="24920" user="Schusch" changeset="934534" lat="52.152188" lon="11.231834">
    <tag k="name" v="WEA NX-1140 1300kW"/>
    <tag k="note" v="WEA NX-1140 1300kW"/>
    <tag k="power" v="generator"/>
    <tag k="power_source" v="wind"/>
  </node>
  <node id="272129858" version="2" timestamp="2008-07-06T09:27:02Z" uid="6975" user="ulfl" changeset="407266" lat="52.612704" lon="9.406326">
    <tag k="name" v="WEA NX-1143 1300kW"/>
    <tag k="note" v="WEA NX-1143 1300kW"/>
    <tag k="power" v="generator"/>
    <tag k="power_source" v="wind"/>
  </node>
  <node id="272129858" version="3" timestamp="2008-07-09T20:06:32Z" uid="16379" user="sherlok" changeset="448731" lat="52.612704" lon="9.406326">
    <tag k="name" v="WEA NX-1143 1300kW"/>
    <tag k="note" v="WEA NX-1143 1300kW"/>
    <tag k="power" v="generator"/>
    <tag k="power_source" v="wind"/>
  </node>
  <node id="272129860" version="2" timestamp="2008-07-06T09:27:03Z" uid="6975" user="ulfl" changeset="407266" lat="52.614927" lon="9.408193">
    <tag k="name" v="WEA NX-1132 1300kW"/>
    <tag k="note" v="WEA NX-1132 1300kW"/>
    <tag k="power" v="generator"/>
    <tag k="power_source" v="wind"/>
  </node>
  <node id="272129860" version="3" timestamp="2008-07-09T20:07:00Z" uid="16379" user="sherlok" changeset="448731" lat="52.614927" lon="9.408193">
    <tag k="name" v="WEA NX-1132 1300kW"/>
    <tag k="note" v="WEA NX-1132 1300kW"/>
    <tag k="power" v="generator"/>
    <tag k="power_source" v="wind"/>
  </node>
  <node id="272129861" version="2" timestamp="2008-07-06T09:27:03Z" uid="6975" user="ulfl" changeset="407266" lat="52.609692" lon="9.406608">
    <tag k="name" v="WEA NX-1133 1300kW"/>
    <tag k="note" v="WEA NX-1133 1300kW"/>
    <tag k="power" v="generator"/>
    <tag k="power_source" v="wind"/>
  </node>
  <node id="272129861" version="3" timestamp="2008-07-09T20:07:04Z" uid="16379" user="sherlok" changeset="448731" lat="52.609692" lon="9.406608">
    <tag k="name" v="WEA NX-1133 1300kW"/>
    <tag k="note" v="WEA NX-1133 1300kW"/>
    <tag k="power" v="generator"/>
    <tag k="power_source" v="wind"/>
  </node>
  <node id="272129863" version="2" timestamp="2008-07-06T09:27:03Z" uid="6975" user="ulfl" changeset="407266" lat="52.616909" lon="9.401875">
    <tag k="name" v="WEA NX-1134 1300kW"/>
    <tag k="note" v="WEA NX-1134 1300kW"/>
    <tag k="power" v="generator"/>
    <tag k="power_source" v="wind"/>
  </node>
  <node id="272129863" version="3" timestamp="2008-07-09T20:07:01Z" uid="16379" user="sherlok" changeset="448731" lat="52.616909" lon="9.401875">
    <tag k="name" v="WEA NX-1134 1300kW"/>
    <tag k="note" v="WEA NX-1134 1300kW"/>
    <tag k="power" v="generator"/>
    <tag k="power_source" v="wind"/>
  </node>
  <node id="272129867" version="2" timestamp="2008-07-06T09:27:03Z" uid="6975" user="ulfl" changeset="407266" lat="52.618297" lon="9.569775">
    <tag k="name" v="WEA NX-1156 1300kW"/>
    <tag k="note" v="WEA NX-1156 1300kW"/>
    <tag k="power" v="generator"/>
    <tag k="power_source" v="wind"/>
  </node>
  <node id="272129867" version="3" timestamp="2010-08-29T10:01:47Z" uid="24920" user="Schusch" changeset="5623787" lat="52.618297" lon="9.569775">
    <tag k="power" v="generator"/>
    <tag k="power_rating" v="1300 kW"/>
    <tag k="power_source" v="wind"/>
    <tag k="ref" v="NX-1156"/>
  </node>
  <node id="272129867" version="4" timestamp="2011-06-04T03:31:57Z" uid="297482" user="don-vip" changeset="8335705" lat="52.618297" lon="9.569775">
    <tag k="generator:source" v="wind"/>
    <tag k="power" v="generator"/>
    <tag k="power_rating" v="1300 kW"/>
    <tag k="power_source" v="wind"/>
    <tag k="ref" v="NX-1156"/>
  </node>
  <node id="272129867" version="5" timestamp="2011-06-04T23:13:30Z" uid="297482" user="don-vip" changeset="8344176" lat="52.618297" lon="9.569775">
    <tag k="generator:output:electricity" v="1.3 MW"/>
    <tag k="generator:source" v="wind"/>
    <tag k="power" v="generator"/>
    <tag k="power_rating" v="1300 kW"/>
    <tag k="power_source" v="wind"/>
    <tag k="ref" v="NX-1156"/>
  </node>
  <node id="272129867" version="6" timestamp="2012-02-14T21:14:50Z" uid="590907" user="cbdavis" changeset="10686992" lat="52.618297" lon="9.569775">
    <tag k="generator:output:electricity" v="1.3 MW"/>
    <tag k="generator:source" v="wind"/>
    <tag k="power" v="generator"/>
    <tag k="power_rating" v="1300 kW"/>
    <tag k="ref" v="NX-1156"/>
  </node>
  <node id="272129867" version="7" timestamp="2012-02-15T10:48:07Z" uid="590907" user="cbdavis" changeset="10690119" lat="52.618297" lon="9.569775">
    <tag k="generator:output:electricity" v="1.3 MW"/>
    <tag k="generator:source" v="wind"/>
    <tag k="power" v="generator"/>
    <tag k="power_rating" v="1300 kW"/>
    <tag k="power_source" v="wind"/>
    <tag k="ref" v="NX-1156"/>
  </node>
  <node id="272129869" version="2" timestamp="2008-07-06T09:27:03Z" uid="6975" user="ulfl" changeset="407266" lat="52.614825" lon="9.401279">
    <tag k="name" v="WEA NX-1160 1300kW"/>
    <tag k="note" v="WEA NX-1160 1300kW"/>
    <tag k="power" v="generator"/>
    <tag k="power_source" v="wind"/>
  </node>
  <node id="272129869" version="3" timestamp="2008-07-09T20:06:30Z" uid="16379" user="sherlok" changeset="448731" lat="52.614825" lon="9.401279">
    <tag k="name" v="WEA NX-1160 1300kW"/>
    <tag k="note" v="WEA NX-1160 1300kW"/>
    <tag k="power" v="generator"/>
    <tag k="power_source" v="wind"/>
  </node>
  <node id="272129870" version="2" timestamp="2008-07-06T09:27:04Z" uid="6975" user="ulfl" changeset="407266" lat="51.496753" lon="9.980741">
    <tag k="name" v="WEA NX-116 150kW"/>
    <tag k="note" v="WEA NX-116 150kW"/>
    <tag k="power" v="generator"/>
    <tag k="power_source" v="wind"/>
  </node>
  <node id="272129870" version="3" timestamp="2008-07-08T15:51:50Z" uid="16256" user="patzi" changeset="430111" lat="51.496753" lon="9.980741">
    <tag k="name" v="WEA NX-116 150kW"/>
    <tag k="note" v="WEA NX-116 150kW"/>
    <tag k="power" v="generator"/>
    <tag k="power_source" v="wind"/>
  </node>
  <node id="272129872" version="2" timestamp="2008-07-06T09:27:04Z" uid="6975" user="ulfl" changeset="407266" lat="51.534819" lon="8.558115">
    <tag k="name" v="WEA NX-115 150kW"/>
    <tag k="note" v="WEA NX-115 150kW"/>
    <tag k="power" v="generator"/>
    <tag k="power_source" v="wind"/>
  </node>
  <node id="272129872" version="3" timestamp="2010-08-29T10:04:36Z" uid="24920" user="Schusch" changeset="5623823" lat="51.534819" lon="8.558115">
    <tag k="power" v="generator"/>
    <tag k="power_rating" v="150 kW"/>
    <tag k="power_source" v="wind"/>
    <tag k="ref" v="NX-115"/>
  </node>
  <node id="272129872" version="4" timestamp="2011-06-04T03:31:57Z" uid="297482" user="don-vip" changeset="8335705" lat="51.534819" lon="8.558115">
    <tag k="generator:source" v="wind"/>
    <tag k="power" v="generator"/>
    <tag k="power_rating" v="150 kW"/>
    <tag k="power_source" v="wind"/>
    <tag k="ref" v="NX-115"/>
  </node>
  <node id="272129872" version="5" timestamp="2011-06-04T23:39:47Z" uid="297482" user="don-vip" changeset="8344266" lat="51.534819" lon="8.558115">
    <tag k="generator:output:electricity" v="150 kW"/>
    <tag k="generator:source" v="wind"/>
    <tag k="power" v="generator"/>
    <tag k="power_rating" v="150 kW"/>
    <tag k="power_source" v="wind"/>
    <tag k="ref" v="NX-115"/>
  </node>
  <node id="272129872" version="6" timestamp="2012-02-14T21:14:50Z" uid="590907" user="cbdavis" changeset="10686992" lat="51.534819" lon="8.558115">
    <tag k="generator:output:electricity" v="150 kW"/>
    <tag k="generator:source" v="wind"/>
    <tag k="power" v="generator"/>
    <tag k="power_rating" v="150 kW"/>
    <tag k="ref" v="NX-115"/>
  </node>
  <node id="272129872" version="7" timestamp="2012-02-15T10:48:07Z" uid="590907" user="cbdavis" changeset="10690119" lat="51.534819" lon="8.558115">
    <tag k="generator:output:electricity" v="150 kW"/>
    <tag k="generator:source" v="wind"/>
    <tag k="power" v="generator"/>
    <tag k="power_rating" v="150 kW"/>
    <tag k="power_source" v="wind"/>
    <tag k="ref" v="NX-115"/>
  </node>
  <node id="272129875" version="2" timestamp="2008-07-06T09:27:04Z" uid="6975" user="ulfl" changeset="407266" lat="51.606003" lon="8.800914">
    <tag k="name" v="WEA NX-1155 1300kW"/>
    <tag k="note" v="WEA NX-1155 1300kW"/>
    <tag k="power" v="generator"/>
    <tag k="power_source" v="wind"/>
  </node>
  <node id="272129875" version="3" timestamp="2008-07-14T12:57:30Z" uid="24920" user="Schusch" changeset="484788" lat="51.606003" lon="8.8009068">
    <tag k="created_by" v="Potlatch 0.9c"/>
    <tag k="name" v="WEA NX-1155 1300 kW"/>
    <tag k="note" v="WEA NX-1155 1300 kW"/>
    <tag k="power" v="generator"/>
    <tag k="power_source" v="wind"/>
  </node>
  <node id="272129875" version="4" timestamp="2009-05-17T17:20:22Z" uid="8931" user="bluepup" changeset="1225620" lat="51.606047" lon="8.8008402">
    <tag k="created_by" v="Potlatch 0.9c"/>
    <tag k="name" v="WEA NX-1155 1300 kW"/>
    <tag k="note" v="WEA NX-1155 1300 kW"/>
    <tag k="power" v="generator"/>
    <tag k="power_source" v="wind"/>
  </node>
  <node id="272129875" version="5" timestamp="2010-07-25T20:05:27Z" uid="24920" user="Schusch" changeset="5316082" lat="51.606047" lon="8.8008402">
    <tag k="note" v="WEA NX-1155 1300 kW"/>
    <tag k="power" v="generator"/>
    <tag k="power_rating" v="1300 kW"/>
    <tag k="power_source" v="wind"/>
    <tag k="ref" v="NX-1155"/>
  </node>
  <node id="272129875" version="6" timestamp="2011-06-04T03:31:57Z" uid="297482" user="don-vip" changeset="8335705" lat="51.606047" lon="8.8008402">
    <tag k="generator:source" v="wind"/>
    <tag k="note" v="WEA NX-1155 1300 kW"/>
    <tag k="power" v="generator"/>
    <tag k="power_rating" v="1300 kW"/>
    <tag k="power_source" v="wind"/>
    <tag k="ref" v="NX-1155"/>
  </node>
  <node id="272129875" version="7" timestamp="2011-06-04T23:13:31Z" uid="297482" user="don-vip" changeset="8344176" lat="51.606047" lon="8.8008402">
    <tag k="generator:output:electricity" v="1.3 MW"/>
    <tag k="generator:source" v="wind"/>
    <tag k="note" v="WEA NX-1155 1300 kW"/>
    <tag k="power" v="generator"/>
    <tag k="power_rating" v="1300 kW"/>
    <tag k="power_source" v="wind"/>
    <tag k="ref" v="NX-1155"/>
  </node>
  <node id="272129875" version="8" timestamp="2012-02-14T21:14:51Z" uid="590907" user="cbdavis" changeset="10686992" lat="51.606047" lon="8.8008402">
    <tag k="generator:output:electricity" v="1.3 MW"/>
    <tag k="generator:source" v="wind"/>
    <tag k="note" v="WEA NX-1155 1300 kW"/>
    <tag k="power" v="generator"/>
    <tag k="power_rating" v="1300 kW"/>
    <tag k="ref" v="NX-1155"/>
  </node>
  <node id="272129875" version="9" timestamp="2012-02-15T10:48:08Z" uid="590907" user="cbdavis" changeset="10690119" lat="51.606047" lon="8.8008402">
    <tag k="generator:output:electricity" v="1.3 MW"/>
    <tag k="generator:source" v="wind"/>
    <tag k="note" v="WEA NX-1155 1300 kW"/>
    <tag k="power" v="generator"/>
    <tag k="power_rating" v="1300 kW"/>
    <tag k="power_source" v="wind"/>
    <tag k="ref" v="NX-1155"/>
  </node>
  <node id="272129876" version="2" timestamp="2008-07-06T09:27:04Z" uid="6975" user="ulfl" changeset="407266" lat="51.605711" lon="8.793046">
    <tag k="name" v="WEA NX-1153 1300kW"/>
    <tag k="note" v="WEA NX-1153 1300kW"/>
    <tag k="power" v="generator"/>
    <tag k="power_source" v="wind"/>
  </node>
  <node id="272129876" version="3" timestamp="2008-07-14T12:57:37Z" uid="24920" user="Schusch" changeset="484788" lat="51.6057152" lon="8.7930447">
    <tag k="created_by" v="Potlatch 0.9c"/>
    <tag k="name" v="WEA NX-1153 1300 kW"/>
    <tag k="note" v="WEA NX-1153 1300 kW"/>
    <tag k="power" v="generator"/>
    <tag k="power_source" v="wind"/>
  </node>
  <node id="272129876" version="4" timestamp="2009-05-17T17:20:24Z" uid="8931" user="bluepup" changeset="1225620" lat="51.6057109" lon="8.7931667">
    <tag k="created_by" v="Potlatch 0.9c"/>
    <tag k="name" v="WEA NX-1153 1300 kW"/>
    <tag k="note" v="WEA NX-1153 1300 kW"/>
    <tag k="power" v="generator"/>
    <tag k="power_source" v="wind"/>
  </node>
  <node id="272129876" version="5" timestamp="2010-07-25T20:05:24Z" uid="24920" user="Schusch" changeset="5316082" lat="51.6057109" lon="8.7931667">
    <tag k="note" v="WEA NX-1153 1300 kW"/>
    <tag k="power" v="generator"/>
    <tag k="power_rating" v="1300 kW"/>
    <tag k="power_source" v="wind"/>
    <tag k="ref" v="NX-1153"/>
  </node>
  <node id="272129876" version="6" timestamp="2011-06-04T03:31:57Z" uid="297482" user="don-vip" changeset="8335705" lat="51.6057109" lon="8.7931667">
    <tag k="generator:source" v="wind"/>
    <tag k="note" v="WEA NX-1153 1300 kW"/>
    <tag k="power" v="generator"/>
    <tag k="power_rating" v="1300 kW"/>
    <tag k="power_source" v="wind"/>
    <tag k="ref" v="NX-1153"/>
  </node>
  <node id="272129876" version="7" timestamp="2011-06-04T23:13:31Z" uid="297482" user="don-vip" changeset="8344176" lat="51.6057109" lon="8.7931667">
    <tag k="generator:output:electricity" v="1.3 MW"/>
    <tag k="generator:source" v="wind"/>
    <tag k="note" v="WEA NX-1153 1300 kW"/>
    <tag k="power" v="generator"/>
    <tag k="power_rating" v="1300 kW"/>
    <tag k="power_source" v="wind"/>
    <tag k="ref" v="NX-1153"/>
  </node>
  <node id="272129876" version="8" timestamp="2012-02-14T21:14:51Z" uid="590907" user="cbdavis" changeset="10686992" lat="51.6057109" lon="8.7931667">
    <tag k="generator:output:electricity" v="1.3 MW"/>
    <tag k="generator:source" v="wind"/>
    <tag k="note" v="WEA NX-1153 1300 kW"/>
    <tag k="power" v="generator"/>
    <tag k="power_rating" v="1300 kW"/>
    <tag k="ref" v="NX-1153"/>
  </node>
  <node id="272129876" version="9" timestamp="2012-02-15T10:48:08Z" uid="590907" user="cbdavis" changeset="10690119" lat="51.6057109" lon="8.7931667">
    <tag k="generator:output:electricity" v="1.3 MW"/>
    <tag k="generator:source" v="wind"/>
    <tag k="note" v="WEA NX-1153 1300 kW"/>
    <tag k="power" v="generator"/>
    <tag k="power_rating" v="1300 kW"/>
    <tag k="power_source" v="wind"/>
    <tag k="ref" v="NX-1153"/>
  </node>
  <node id="272129878" version="2" timestamp="2008-07-06T09:27:04Z" uid="6975" user="ulfl" changeset="407266" lat="52.610369" lon="9.556233">
    <tag k="name" v="WEA NX-1173 1300kW"/>
    <tag k="note" v="WEA NX-1173 1300kW"/>
    <tag k="power" v="generator"/>
    <tag k="power_source" v="wind"/>
  </node>
  <node id="272129878" version="3" timestamp="2010-08-29T10:01:47Z" uid="24920" user="Schusch" changeset="5623787" lat="52.610369" lon="9.556233">
    <tag k="power" v="generator"/>
    <tag k="power_rating" v="1300 kW"/>
    <tag k="power_source" v="wind"/>
    <tag k="ref" v="NX-1173"/>
  </node>
  <node id="272129878" version="4" timestamp="2011-06-04T03:31:57Z" uid="297482" user="don-vip" changeset="8335705" lat="52.610369" lon="9.556233">
    <tag k="generator:source" v="wind"/>
    <tag k="power" v="generator"/>
    <tag k="power_rating" v="1300 kW"/>
    <tag k="power_source" v="wind"/>
    <tag k="ref" v="NX-1173"/>
  </node>
  <node id="272129878" version="5" timestamp="2011-06-04T23:13:31Z" uid="297482" user="don-vip" changeset="8344176" lat="52.610369" lon="9.556233">
    <tag k="generator:output:electricity" v="1.3 MW"/>
    <tag k="generator:source" v="wind"/>
    <tag k="power" v="generator"/>
    <tag k="power_rating" v="1300 kW"/>
    <tag k="power_source" v="wind"/>
    <tag k="ref" v="NX-1173"/>
  </node>
  <node id="272129878" version="6" timestamp="2012-02-14T21:14:51Z" uid="590907" user="cbdavis" changeset="10686992" lat="52.610369" lon="9.556233">
    <tag k="generator:output:electricity" v="1.3 MW"/>
    <tag k="generator:source" v="wind"/>
    <tag k="power" v="generator"/>
    <tag k="power_rating" v="1300 kW"/>
    <tag k="ref" v="NX-1173"/>
  </node>
  <node id="272129878" version="7" timestamp="2012-02-15T10:48:08Z" uid="590907" user="cbdavis" changeset="10690119" lat="52.610369" lon="9.556233">
    <tag k="generator:output:electricity" v="1.3 MW"/>
    <tag k="generator:source" v="wind"/>
    <tag k="power" v="generator"/>
    <tag k="power_rating" v="1300 kW"/>
    <tag k="power_source" v="wind"/>
    <tag k="ref" v="NX-1173"/>
  </node>
  <node id="272129881" version="2" timestamp="2008-07-06T09:27:05Z" uid="6975" user="ulfl" changeset="407266" lat="52.612086" lon="9.556269">
    <tag k="name" v="WEA NX-1175 1300kW"/>
    <tag k="note" v="WEA NX-1175 1300kW"/>
    <tag k="power" v="generator"/>
    <tag k="power_source" v="wind"/>
  </node>
  <node id="272129881" version="3" timestamp="2010-08-29T10:01:46Z" uid="24920" user="Schusch" changeset="5623787" lat="52.612086" lon="9.556269">
    <tag k="power" v="generator"/>
    <tag k="power_rating" v="1300 kW"/>
    <tag k="power_source" v="wind"/>
    <tag k="ref" v="NX-1175"/>
  </node>
  <node id="272129881" version="4" timestamp="2011-06-04T03:31:58Z" uid="297482" user="don-vip" changeset="8335705" lat="52.612086" lon="9.556269">
    <tag k="generator:source" v="wind"/>
    <tag k="power" v="generator"/>
    <tag k="power_rating" v="1300 kW"/>
    <tag k="power_source" v="wind"/>
    <tag k="ref" v="NX-1175"/>
  </node>
  <node id="272129881" version="5" timestamp="2011-06-04T23:13:31Z" uid="297482" user="don-vip" changeset="8344176" lat="52.612086" lon="9.556269">
    <tag k="generator:output:electricity" v="1.3 MW"/>
    <tag k="generator:source" v="wind"/>
    <tag k="power" v="generator"/>
    <tag k="power_rating" v="1300 kW"/>
    <tag k="power_source" v="wind"/>
    <tag k="ref" v="NX-1175"/>
  </node>
  <node id="272129881" version="6" timestamp="2012-02-14T21:14:51Z" uid="590907" user="cbdavis" changeset="10686992" lat="52.612086" lon="9.556269">
    <tag k="generator:output:electricity" v="1.3 MW"/>
    <tag k="generator:source" v="wind"/>
    <tag k="power" v="generator"/>
    <tag k="power_rating" v="1300 kW"/>
    <tag k="ref" v="NX-1175"/>
  </node>
  <node id="272129881" version="7" timestamp="2012-02-15T10:48:09Z" uid="590907" user="cbdavis" changeset="10690119" lat="52.612086" lon="9.556269">
    <tag k="generator:output:electricity" v="1.3 MW"/>
    <tag k="generator:source" v="wind"/>
    <tag k="power" v="generator"/>
    <tag k="power_rating" v="1300 kW"/>
    <tag k="power_source" v="wind"/>
    <tag k="ref" v="NX-1175"/>
  </node>
  <node id="272129882" version="2" timestamp="2008-07-06T09:27:05Z" uid="6975" user="ulfl" changeset="407266" lat="52.613793" lon="9.556483">
    <tag k="name" v="WEA NX-1174 1300kW"/>
    <tag k="note" v="WEA NX-1174 1300kW"/>
    <tag k="power" v="generator"/>
    <tag k="power_source" v="wind"/>
  </node>
  <node id="272129882" version="3" timestamp="2010-08-29T10:01:47Z" uid="24920" user="Schusch" changeset="5623787" lat="52.613793" lon="9.556483">
    <tag k="power" v="generator"/>
    <tag k="power_rating" v="1300 kW"/>
    <tag k="power_source" v="wind"/>
    <tag k="ref" v="NX-1174"/>
  </node>
  <node id="272129882" version="4" timestamp="2011-06-04T03:31:58Z" uid="297482" user="don-vip" changeset="8335705" lat="52.613793" lon="9.556483">
    <tag k="generator:source" v="wind"/>
    <tag k="power" v="generator"/>
    <tag k="power_rating" v="1300 kW"/>
    <tag k="power_source" v="wind"/>
    <tag k="ref" v="NX-1174"/>
  </node>
  <node id="272129882" version="5" timestamp="2011-06-04T23:13:31Z" uid="297482" user="don-vip" changeset="8344176" lat="52.613793" lon="9.556483">
    <tag k="generator:output:electricity" v="1.3 MW"/>
    <tag k="generator:source" v="wind"/>
    <tag k="power" v="generator"/>
    <tag k="power_rating" v="1300 kW"/>
    <tag k="power_source" v="wind"/>
    <tag k="ref" v="NX-1174"/>
  </node>
  <node id="272129882" version="6" timestamp="2012-02-14T21:14:52Z" uid="590907" user="cbdavis" changeset="10686992" lat="52.613793" lon="9.556483">
    <tag k="generator:output:electricity" v="1.3 MW"/>
    <tag k="generator:source" v="wind"/>
    <tag k="power" v="generator"/>
    <tag k="power_rating" v="1300 kW"/>
    <tag k="ref" v="NX-1174"/>
  </node>
  <node id="272129882" version="7" timestamp="2012-02-15T10:48:09Z" uid="590907" user="cbdavis" changeset="10690119" lat="52.613793" lon="9.556483">
    <tag k="generator:output:electricity" v="1.3 MW"/>
    <tag k="generator:source" v="wind"/>
    <tag k="power" v="generator"/>
    <tag k="power_rating" v="1300 kW"/>
    <tag k="power_source" v="wind"/>
    <tag k="ref" v="NX-1174"/>
  </node>
  <node id="272129889" version="2" timestamp="2008-07-06T09:26:59Z" uid="6975" user="ulfl" changeset="407266" lat="52.831374" lon="8.850679">
    <tag k="name" v="WEA NX-120 150kW"/>
    <tag k="note" v="WEA NX-120 150kW"/>
    <tag k="power" v="generator"/>
    <tag k="power_source" v="wind"/>
  </node>
  <node id="272129889" version="3" timestamp="2008-09-01T13:10:31Z" uid="4473" user="EtricCeline" changeset="483698" lat="52.831374" lon="8.850679">
    <tag k="name" v="WEA NX-120 150kW"/>
    <tag k="note" v="WEA NX-120 150kW"/>
    <tag k="power" v="generator"/>
    <tag k="power_source" v="wind"/>
  </node>
  <node id="272129891" version="2" timestamp="2008-07-06T09:26:59Z" uid="6975" user="ulfl" changeset="407266" lat="52.616058" lon="9.556733">
    <tag k="name" v="WEA NX-1203 1300kW"/>
    <tag k="note" v="WEA NX-1203 1300kW"/>
    <tag k="power" v="generator"/>
    <tag k="power_source" v="wind"/>
  </node>
  <node id="272129891" version="3" timestamp="2010-08-29T10:01:47Z" uid="24920" user="Schusch" changeset="5623787" lat="52.616058" lon="9.556733">
    <tag k="power" v="generator"/>
    <tag k="power_rating" v="1300 kW"/>
    <tag k="power_source" v="wind"/>
    <tag k="ref" v="NX-1203"/>
  </node>
  <node id="272129891" version="4" timestamp="2011-06-04T03:31:58Z" uid="297482" user="don-vip" changeset="8335705" lat="52.616058" lon="9.556733">
    <tag k="generator:source" v="wind"/>
    <tag k="power" v="generator"/>
    <tag k="power_rating" v="1300 kW"/>
    <tag k="power_source" v="wind"/>
    <tag k="ref" v="NX-1203"/>
  </node>
  <node id="272129891" version="5" timestamp="2011-06-04T23:13:31Z" uid="297482" user="don-vip" changeset="8344176" lat="52.616058" lon="9.556733">
    <tag k="generator:output:electricity" v="1.3 MW"/>
    <tag k="generator:source" v="wind"/>
    <tag k="power" v="generator"/>
    <tag k="power_rating" v="1300 kW"/>
    <tag k="power_source" v="wind"/>
    <tag k="ref" v="NX-1203"/>
  </node>
  <node id="272129891" version="6" timestamp="2012-02-14T21:14:52Z" uid="590907" user="cbdavis" changeset="10686992" lat="52.616058" lon="9.556733">
    <tag k="generator:output:electricity" v="1.3 MW"/>
    <tag k="generator:source" v="wind"/>
    <tag k="power" v="generator"/>
    <tag k="power_rating" v="1300 kW"/>
    <tag k="ref" v="NX-1203"/>
  </node>
  <node id="272129891" version="7" timestamp="2012-02-15T10:48:10Z" uid="590907" user="cbdavis" changeset="10690119" lat="52.616058" lon="9.556733">
    <tag k="generator:output:electricity" v="1.3 MW"/>
    <tag k="generator:source" v="wind"/>
    <tag k="power" v="generator"/>
    <tag k="power_rating" v="1300 kW"/>
    <tag k="power_source" v="wind"/>
    <tag k="ref" v="NX-1203"/>
  </node>
  <node id="272129892" version="2" timestamp="2008-07-06T09:27:00Z" uid="6975" user="ulfl" changeset="407266" lat="52.617467" lon="9.564786">
    <tag k="name" v="WEA NX-1180 1300kW"/>
    <tag k="note" v="WEA NX-1180 1300kW"/>
    <tag k="power" v="generator"/>
    <tag k="power_source" v="wind"/>
  </node>
  <node id="272129892" version="3" timestamp="2010-08-29T10:01:46Z" uid="24920" user="Schusch" changeset="5623787" lat="52.617467" lon="9.564786">
    <tag k="power" v="generator"/>
    <tag k="power_rating" v="1300 kW"/>
    <tag k="power_source" v="wind"/>
    <tag k="ref" v="NX-1180"/>
  </node>
  <node id="272129892" version="4" timestamp="2011-06-04T03:31:58Z" uid="297482" user="don-vip" changeset="8335705" lat="52.617467" lon="9.564786">
    <tag k="generator:source" v="wind"/>
    <tag k="power" v="generator"/>
    <tag k="power_rating" v="1300 kW"/>
    <tag k="power_source" v="wind"/>
    <tag k="ref" v="NX-1180"/>
  </node>
  <node id="272129892" version="5" timestamp="2011-06-04T23:13:32Z" uid="297482" user="don-vip" changeset="8344176" lat="52.617467" lon="9.564786">
    <tag k="generator:output:electricity" v="1.3 MW"/>
    <tag k="generator:source" v="wind"/>
    <tag k="power" v="generator"/>
    <tag k="power_rating" v="1300 kW"/>
    <tag k="power_source" v="wind"/>
    <tag k="ref" v="NX-1180"/>
  </node>
  <node id="272129892" version="6" timestamp="2012-02-14T21:14:52Z" uid="590907" user="cbdavis" changeset="10686992" lat="52.617467" lon="9.564786">
    <tag k="generator:output:electricity" v="1.3 MW"/>
    <tag k="generator:source" v="wind"/>
    <tag k="power" v="generator"/>
    <tag k="power_rating" v="1300 kW"/>
    <tag k="ref" v="NX-1180"/>
  </node>
  <node id="272129892" version="7" timestamp="2012-02-15T10:48:10Z" uid="590907" user="cbdavis" changeset="10690119" lat="52.617467" lon="9.564786">
    <tag k="generator:output:electricity" v="1.3 MW"/>
    <tag k="generator:source" v="wind"/>
    <tag k="power" v="generator"/>
    <tag k="power_rating" v="1300 kW"/>
    <tag k="power_source" v="wind"/>
    <tag k="ref" v="NX-1180"/>
  </node>
  <node id="272129894" version="2" timestamp="2008-07-06T09:27:00Z" uid="6975" user="ulfl" changeset="407266" lat="51.611172" lon="8.789728">
    <tag k="name" v="WEA NX-1198 1300kW"/>
    <tag k="note" v="WEA NX-1198 1300kW"/>
    <tag k="power" v="generator"/>
    <tag k="power_source" v="wind"/>
  </node>
  <node id="272129894" version="3" timestamp="2008-07-14T12:48:12Z" uid="24920" user="Schusch" changeset="484788" lat="51.6111735" lon="8.789723">
    <tag k="created_by" v="Potlatch 0.9c"/>
    <tag k="name" v="WEA NX-1198 1300 kW"/>
    <tag k="note" v="WEA NX-1198 1300 kW"/>
    <tag k="power" v="generator"/>
    <tag k="power_source" v="wind"/>
  </node>
  <node id="272129894" version="4" timestamp="2010-07-25T20:05:23Z" uid="24920" user="Schusch" changeset="5316082" lat="51.6111735" lon="8.789723">
    <tag k="note" v="WEA NX-1198 1300 kW"/>
    <tag k="power" v="generator"/>
    <tag k="power_rating" v="1300 kW"/>
    <tag k="power_source" v="wind"/>
    <tag k="ref" v="NX-1198"/>
  </node>
  <node id="272129894" version="5" timestamp="2011-06-04T03:31:58Z" uid="297482" user="don-vip" changeset="8335705" lat="51.6111735" lon="8.789723">
    <tag k="generator:source" v="wind"/>
    <tag k="note" v="WEA NX-1198 1300 kW"/>
    <tag k="power" v="generator"/>
    <tag k="power_rating" v="1300 kW"/>
    <tag k="power_source" v="wind"/>
    <tag k="ref" v="NX-1198"/>
  </node>
  <node id="272129894" version="6" timestamp="2011-06-04T23:13:32Z" uid="297482" user="don-vip" changeset="8344176" lat="51.6111735" lon="8.789723">
    <tag k="generator:output:electricity" v="1.3 MW"/>
    <tag k="generator:source" v="wind"/>
    <tag k="note" v="WEA NX-1198 1300 kW"/>
    <tag k="power" v="generator"/>
    <tag k="power_rating" v="1300 kW"/>
    <tag k="power_source" v="wind"/>
    <tag k="ref" v="NX-1198"/>
  </node>
  <node id="272129894" version="7" timestamp="2012-02-14T21:14:53Z" uid="590907" user="cbdavis" changeset="10686992" lat="51.6111735" lon="8.789723">
    <tag k="generator:output:electricity" v="1.3 MW"/>
    <tag k="generator:source" v="wind"/>
    <tag k="note" v="WEA NX-1198 1300 kW"/>
    <tag k="power" v="generator"/>
    <tag k="power_rating" v="1300 kW"/>
    <tag k="ref" v="NX-1198"/>
  </node>
  <node id="272129894" version="8" timestamp="2012-02-15T10:48:11Z" uid="590907" user="cbdavis" changeset="10690119" lat="51.6111735" lon="8.789723">
    <tag k="generator:output:electricity" v="1.3 MW"/>
    <tag k="generator:source" v="wind"/>
    <tag k="note" v="WEA NX-1198 1300 kW"/>
    <tag k="power" v="generator"/>
    <tag k="power_rating" v="1300 kW"/>
    <tag k="power_source" v="wind"/>
    <tag k="ref" v="NX-1198"/>
  </node>
  <node id="272129895" version="2" timestamp="2008-07-06T09:27:00Z" uid="6975" user="ulfl" changeset="407266" lat="52.619195" lon="9.56243">
    <tag k="name" v="WEA NX-1179 1300kW"/>
    <tag k="note" v="WEA NX-1179 1300kW"/>
    <tag k="power" v="generator"/>
    <tag k="power_source" v="wind"/>
  </node>
  <node id="272129895" version="3" timestamp="2010-08-29T10:01:47Z" uid="24920" user="Schusch" changeset="5623787" lat="52.619195" lon="9.56243">
    <tag k="power" v="generator"/>
    <tag k="power_rating" v="1300 kW"/>
    <tag k="power_source" v="wind"/>
    <tag k="ref" v="NX-1179"/>
  </node>
  <node id="272129895" version="4" timestamp="2011-06-04T03:31:59Z" uid="297482" user="don-vip" changeset="8335705" lat="52.619195" lon="9.56243">
    <tag k="generator:source" v="wind"/>
    <tag k="power" v="generator"/>
    <tag k="power_rating" v="1300 kW"/>
    <tag k="power_source" v="wind"/>
    <tag k="ref" v="NX-1179"/>
  </node>
  <node id="272129895" version="5" timestamp="2011-06-04T23:13:32Z" uid="297482" user="don-vip" changeset="8344176" lat="52.619195" lon="9.56243">
    <tag k="generator:output:electricity" v="1.3 MW"/>
    <tag k="generator:source" v="wind"/>
    <tag k="power" v="generator"/>
    <tag k="power_rating" v="1300 kW"/>
    <tag k="power_source" v="wind"/>
    <tag k="ref" v="NX-1179"/>
  </node>
  <node id="272129895" version="6" timestamp="2012-02-14T21:14:53Z" uid="590907" user="cbdavis" changeset="10686992" lat="52.619195" lon="9.56243">
    <tag k="generator:output:electricity" v="1.3 MW"/>
    <tag k="generator:source" v="wind"/>
    <tag k="power" v="generator"/>
    <tag k="power_rating" v="1300 kW"/>
    <tag k="ref" v="NX-1179"/>
  </node>
  <node id="272129895" version="7" timestamp="2012-02-15T10:48:11Z" uid="590907" user="cbdavis" changeset="10690119" lat="52.619195" lon="9.56243">
    <tag k="generator:output:electricity" v="1.3 MW"/>
    <tag k="generator:source" v="wind"/>
    <tag k="power" v="generator"/>
    <tag k="power_rating" v="1300 kW"/>
    <tag k="power_source" v="wind"/>
    <tag k="ref" v="NX-1179"/>
  </node>
  <node id="272129897" version="2" timestamp="2008-07-06T09:27:00Z" uid="6975" user="ulfl" changeset="407266" lat="52.651983" lon="9.398042">
    <tag k="name" v="WEA NX-118 150kW"/>
    <tag k="note" v="WEA NX-118 150kW"/>
    <tag k="power" v="generator"/>
    <tag k="power_source" v="wind"/>
  </node>
  <node id="272129897" version="3" timestamp="2008-07-09T20:07:01Z" uid="16379" user="sherlok" changeset="448731" lat="52.651983" lon="9.398042">
    <tag k="name" v="WEA NX-118 150kW"/>
    <tag k="note" v="WEA NX-118 150kW"/>
    <tag k="power" v="generator"/>
    <tag k="power_source" v="wind"/>
  </node>
  <node id="272129898" version="2" timestamp="2008-07-06T09:27:00Z" uid="6975" user="ulfl" changeset="407266" lat="52.61798" lon="9.557082">
    <tag k="name" v="WEA NX-1177 1300kW"/>
    <tag k="note" v="WEA NX-1177 1300kW"/>
    <tag k="power" v="generator"/>
    <tag k="power_source" v="wind"/>
  </node>
  <node id="272129898" version="3" timestamp="2010-08-29T10:01:47Z" uid="24920" user="Schusch" changeset="5623787" lat="52.61798" lon="9.557082">
    <tag k="power" v="generator"/>
    <tag k="power_rating" v="1300 kW"/>
    <tag k="power_source" v="wind"/>
    <tag k="ref" v="NX-1177"/>
  </node>
  <node id="272129898" version="4" timestamp="2011-06-04T03:31:59Z" uid="297482" user="don-vip" changeset="8335705" lat="52.61798" lon="9.557082">
    <tag k="generator:source" v="wind"/>
    <tag k="power" v="generator"/>
    <tag k="power_rating" v="1300 kW"/>
    <tag k="power_source" v="wind"/>
    <tag k="ref" v="NX-1177"/>
  </node>
  <node id="272129898" version="5" timestamp="2011-06-04T23:13:32Z" uid="297482" user="don-vip" changeset="8344176" lat="52.61798" lon="9.557082">
    <tag k="generator:output:electricity" v="1.3 MW"/>
    <tag k="generator:source" v="wind"/>
    <tag k="power" v="generator"/>
    <tag k="power_rating" v="1300 kW"/>
    <tag k="power_source" v="wind"/>
    <tag k="ref" v="NX-1177"/>
  </node>
  <node id="272129898" version="6" timestamp="2012-02-14T21:14:54Z" uid="590907" user="cbdavis" changeset="10686992" lat="52.61798" lon="9.557082">
    <tag k="generator:output:electricity" v="1.3 MW"/>
    <tag k="generator:source" v="wind"/>
    <tag k="power" v="generator"/>
    <tag k="power_rating" v="1300 kW"/>
    <tag k="ref" v="NX-1177"/>
  </node>
  <node id="272129898" version="7" timestamp="2012-02-15T10:48:11Z" uid="590907" user="cbdavis" changeset="10690119" lat="52.61798" lon="9.557082">
    <tag k="generator:output:electricity" v="1.3 MW"/>
    <tag k="generator:source" v="wind"/>
    <tag k="power" v="generator"/>
    <tag k="power_rating" v="1300 kW"/>
    <tag k="power_source" v="wind"/>
    <tag k="ref" v="NX-1177"/>
  </node>
  <node id="272129900" version="2" timestamp="2008-07-06T09:27:01Z" uid="6975" user="ulfl" changeset="407266" lat="52.621276" lon="9.561674">
    <tag k="name" v="WEA NX-1178 1300kW"/>
    <tag k="note" v="WEA NX-1178 1300kW"/>
    <tag k="power" v="generator"/>
    <tag k="power_source" v="wind"/>
  </node>
  <node id="272129900" version="3" timestamp="2010-08-29T10:01:47Z" uid="24920" user="Schusch" changeset="5623787" lat="52.621276" lon="9.561674">
    <tag k="power" v="generator"/>
    <tag k="power_rating" v="1300 kW"/>
    <tag k="power_source" v="wind"/>
    <tag k="ref" v="NX-1178"/>
  </node>
  <node id="272129900" version="4" timestamp="2011-06-04T03:31:59Z" uid="297482" user="don-vip" changeset="8335705" lat="52.621276" lon="9.561674">
    <tag k="generator:source" v="wind"/>
    <tag k="power" v="generator"/>
    <tag k="power_rating" v="1300 kW"/>
    <tag k="power_source" v="wind"/>
    <tag k="ref" v="NX-1178"/>
  </node>
  <node id="272129900" version="5" timestamp="2011-06-04T23:13:32Z" uid="297482" user="don-vip" changeset="8344176" lat="52.621276" lon="9.561674">
    <tag k="generator:output:electricity" v="1.3 MW"/>
    <tag k="generator:source" v="wind"/>
    <tag k="power" v="generator"/>
    <tag k="power_rating" v="1300 kW"/>
    <tag k="power_source" v="wind"/>
    <tag k="ref" v="NX-1178"/>
  </node>
  <node id="272129900" version="6" timestamp="2012-02-14T21:14:54Z" uid="590907" user="cbdavis" changeset="10686992" lat="52.621276" lon="9.561674">
    <tag k="generator:output:electricity" v="1.3 MW"/>
    <tag k="generator:source" v="wind"/>
    <tag k="power" v="generator"/>
    <tag k="power_rating" v="1300 kW"/>
    <tag k="ref" v="NX-1178"/>
  </node>
  <node id="272129900" version="7" timestamp="2012-02-15T10:48:12Z" uid="590907" user="cbdavis" changeset="10690119" lat="52.621276" lon="9.561674">
    <tag k="generator:output:electricity" v="1.3 MW"/>
    <tag k="generator:source" v="wind"/>
    <tag k="power" v="generator"/>
    <tag k="power_rating" v="1300 kW"/>
    <tag k="power_source" v="wind"/>
    <tag k="ref" v="NX-1178"/>
  </node>
  <node id="272129903" version="2" timestamp="2008-07-06T09:27:01Z" uid="6975" user="ulfl" changeset="407266" lat="51.617851" lon="8.798869">
    <tag k="name" v="WEA NX-1213 1300kW"/>
    <tag k="note" v="WEA NX-1213 1300kW"/>
    <tag k="power" v="generator"/>
    <tag k="power_source" v="wind"/>
  </node>
  <node id="272129903" version="3" timestamp="2008-07-14T12:49:50Z" uid="24920" user="Schusch" changeset="484788" lat="51.6178515" lon="8.798864">
    <tag k="created_by" v="Potlatch 0.9c"/>
    <tag k="name" v="WEA NX-1213 1300 kW"/>
    <tag k="note" v="WEA NX-1213 1300 kW"/>
    <tag k="power" v="generator"/>
    <tag k="power_source" v="wind"/>
  </node>
  <node id="272129903" version="4" timestamp="2010-07-25T20:05:24Z" uid="24920" user="Schusch" changeset="5316082" lat="51.6178515" lon="8.798864">
    <tag k="note" v="WEA NX-1213 1300 kW"/>
    <tag k="power" v="generator"/>
    <tag k="power_rating" v="1300 kW"/>
    <tag k="power_source" v="wind"/>
    <tag k="ref" v="NX-1213"/>
  </node>
  <node id="272129903" version="5" timestamp="2011-06-04T03:31:59Z" uid="297482" user="don-vip" changeset="8335705" lat="51.6178515" lon="8.798864">
    <tag k="generator:source" v="wind"/>
    <tag k="note" v="WEA NX-1213 1300 kW"/>
    <tag k="power" v="generator"/>
    <tag k="power_rating" v="1300 kW"/>
    <tag k="power_source" v="wind"/>
    <tag k="ref" v="NX-1213"/>
  </node>
  <node id="272129903" version="6" timestamp="2011-06-04T23:13:33Z" uid="297482" user="don-vip" changeset="8344176" lat="51.6178515" lon="8.798864">
    <tag k="generator:output:electricity" v="1.3 MW"/>
    <tag k="generator:source" v="wind"/>
    <tag k="note" v="WEA NX-1213 1300 kW"/>
    <tag k="power" v="generator"/>
    <tag k="power_rating" v="1300 kW"/>
    <tag k="power_source" v="wind"/>
    <tag k="ref" v="NX-1213"/>
  </node>
  <node id="272129903" version="7" timestamp="2012-02-14T21:14:54Z" uid="590907" user="cbdavis" changeset="10686992" lat="51.6178515" lon="8.798864">
    <tag k="generator:output:electricity" v="1.3 MW"/>
    <tag k="generator:source" v="wind"/>
    <tag k="note" v="WEA NX-1213 1300 kW"/>
    <tag k="power" v="generator"/>
    <tag k="power_rating" v="1300 kW"/>
    <tag k="ref" v="NX-1213"/>
  </node>
  <node id="272129903" version="8" timestamp="2012-02-15T10:48:12Z" uid="590907" user="cbdavis" changeset="10690119" lat="51.6178515" lon="8.798864">
    <tag k="generator:output:electricity" v="1.3 MW"/>
    <tag k="generator:source" v="wind"/>
    <tag k="note" v="WEA NX-1213 1300 kW"/>
    <tag k="power" v="generator"/>
    <tag k="power_rating" v="1300 kW"/>
    <tag k="power_source" v="wind"/>
    <tag k="ref" v="NX-1213"/>
  </node>
  <node id="272129909" version="2" timestamp="2008-07-06T09:27:01Z" uid="6975" user="ulfl" changeset="407266" lat="52.937285" lon="8.773805">
    <tag k="name" v="WEA NX-121 150kW"/>
    <tag k="note" v="WEA NX-121 150kW"/>
    <tag k="power" v="generator"/>
    <tag k="power_source" v="wind"/>
  </node>
  <node id="272129909" version="3" timestamp="2008-07-14T17:11:51Z" uid="4473" user="EtricCeline" changeset="486282" lat="52.9373406" lon="8.7739253">
    <tag k="name" v="WEA NX-121 150kW"/>
    <tag k="note" v="WEA NX-121 150kW"/>
    <tag k="power" v="generator"/>
    <tag k="power_source" v="wind"/>
  </node>
  <node id="272129909" version="4" timestamp="2010-07-28T17:24:31Z" uid="24920" user="Schusch" changeset="5339940" lat="52.9373406" lon="8.7739253">
    <tag k="note" v="WEA NX-121 150 kW"/>
    <tag k="power" v="generator"/>
    <tag k="power_rating" v="150 kW"/>
    <tag k="power_source" v="wind"/>
    <tag k="ref" v="NX-121"/>
  </node>
  <node id="272129909" version="5" timestamp="2011-06-04T03:31:59Z" uid="297482" user="don-vip" changeset="8335705" lat="52.9373406" lon="8.7739253">
    <tag k="generator:source" v="wind"/>
    <tag k="note" v="WEA NX-121 150 kW"/>
    <tag k="power" v="generator"/>
    <tag k="power_rating" v="150 kW"/>
    <tag k="power_source" v="wind"/>
    <tag k="ref" v="NX-121"/>
  </node>
  <node id="272129909" version="6" timestamp="2011-06-04T23:39:47Z" uid="297482" user="don-vip" changeset="8344266" lat="52.9373406" lon="8.7739253">
    <tag k="generator:output:electricity" v="150 kW"/>
    <tag k="generator:source" v="wind"/>
    <tag k="note" v="WEA NX-121 150 kW"/>
    <tag k="power" v="generator"/>
    <tag k="power_rating" v="150 kW"/>
    <tag k="power_source" v="wind"/>
    <tag k="ref" v="NX-121"/>
  </node>
  <node id="272129909" version="7" timestamp="2012-02-14T21:14:55Z" uid="590907" user="cbdavis" changeset="10686992" lat="52.9373406" lon="8.7739253">
    <tag k="generator:output:electricity" v="150 kW"/>
    <tag k="generator:source" v="wind"/>
    <tag k="note" v="WEA NX-121 150 kW"/>
    <tag k="power" v="generator"/>
    <tag k="power_rating" v="150 kW"/>
    <tag k="ref" v="NX-121"/>
  </node>
  <node id="272129909" version="8" timestamp="2012-02-15T10:48:12Z" uid="590907" user="cbdavis" changeset="10690119" lat="52.9373406" lon="8.7739253">
    <tag k="generator:output:electricity" v="150 kW"/>
    <tag k="generator:source" v="wind"/>
    <tag k="note" v="WEA NX-121 150 kW"/>
    <tag k="power" v="generator"/>
    <tag k="power_rating" v="150 kW"/>
    <tag k="power_source" v="wind"/>
    <tag k="ref" v="NX-121"/>
  </node>
  <node id="272129915" version="2" timestamp="2008-07-06T09:27:02Z" uid="6975" user="ulfl" changeset="407266" lat="51.870513" lon="11.672984">
    <tag k="name" v="WEA NX-1236 1300kW"/>
    <tag k="note" v="WEA NX-1236 1300kW"/>
    <tag k="power" v="generator"/>
    <tag k="power_source" v="wind"/>
  </node>
  <node id="272129915" version="3" timestamp="2008-08-02T18:57:47Z" uid="43868" user="MaWo" changeset="28915" lat="51.870513" lon="11.672984">
    <tag k="name" v="WEA NX-1236 1300kW"/>
    <tag k="note" v="WEA NX-1236 1300kW"/>
    <tag k="power" v="generator"/>
    <tag k="power_source" v="wind"/>
  </node>
  <node id="272129917" version="2" timestamp="2008-07-06T09:27:02Z" uid="6975" user="ulfl" changeset="407266" lat="51.874042" lon="11.65618">
    <tag k="name" v="WEA NX-1235 1300kW"/>
    <tag k="note" v="WEA NX-1235 1300kW"/>
    <tag k="power" v="generator"/>
    <tag k="power_source" v="wind"/>
  </node>
  <node id="272129917" version="3" timestamp="2008-08-02T18:57:47Z" uid="43868" user="MaWo" changeset="28915" lat="51.874042" lon="11.65618">
    <tag k="name" v="WEA NX-1235 1300kW"/>
    <tag k="note" v="WEA NX-1235 1300kW"/>
    <tag k="power" v="generator"/>
    <tag k="power_source" v="wind"/>
  </node>
  <node id="272129918" version="2" timestamp="2008-07-06T09:27:02Z" uid="6975" user="ulfl" changeset="407266" lat="51.620451" lon="8.810905">
    <tag k="name" v="WEA NX-1230 1300kW"/>
    <tag k="note" v="WEA NX-1230 1300kW"/>
    <tag k="power" v="generator"/>
    <tag k="power_source" v="wind"/>
  </node>
  <node id="272129918" version="3" timestamp="2008-07-14T12:50:55Z" uid="24920" user="Schusch" changeset="484788" lat="51.6204521" lon="8.8108975">
    <tag k="created_by" v="Potlatch 0.9c"/>
    <tag k="name" v="WEA NX-1230 1300 kW"/>
    <tag k="note" v="WEA NX-1230 1300 kW"/>
    <tag k="power" v="generator"/>
    <tag k="power_source" v="wind"/>
  </node>
  <node id="272129918" version="4" timestamp="2010-07-25T20:05:26Z" uid="24920" user="Schusch" changeset="5316082" lat="51.6204521" lon="8.8108975">
    <tag k="note" v="WEA NX-1230 1300 kW"/>
    <tag k="power" v="generator"/>
    <tag k="power_rating" v="1300 kW"/>
    <tag k="power_source" v="wind"/>
    <tag k="ref" v="NX-1230"/>
  </node>
  <node id="272129918" version="5" timestamp="2011-06-04T03:31:59Z" uid="297482" user="don-vip" changeset="8335705" lat="51.6204521" lon="8.8108975">
    <tag k="generator:source" v="wind"/>
    <tag k="note" v="WEA NX-1230 1300 kW"/>
    <tag k="power" v="generator"/>
    <tag k="power_rating" v="1300 kW"/>
    <tag k="power_source" v="wind"/>
    <tag k="ref" v="NX-1230"/>
  </node>
  <node id="272129918" version="6" timestamp="2011-06-04T23:13:33Z" uid="297482" user="don-vip" changeset="8344176" lat="51.6204521" lon="8.8108975">
    <tag k="generator:output:electricity" v="1.3 MW"/>
    <tag k="generator:source" v="wind"/>
    <tag k="note" v="WEA NX-1230 1300 kW"/>
    <tag k="power" v="generator"/>
    <tag k="power_rating" v="1300 kW"/>
    <tag k="power_source" v="wind"/>
    <tag k="ref" v="NX-1230"/>
  </node>
  <node id="272129918" version="7" timestamp="2012-02-14T21:14:55Z" uid="590907" user="cbdavis" changeset="10686992" lat="51.6204521" lon="8.8108975">
    <tag k="generator:output:electricity" v="1.3 MW"/>
    <tag k="generator:source" v="wind"/>
    <tag k="note" v="WEA NX-1230 1300 kW"/>
    <tag k="power" v="generator"/>
    <tag k="power_rating" v="1300 kW"/>
    <tag k="ref" v="NX-1230"/>
  </node>
  <node id="272129918" version="8" timestamp="2012-02-15T10:48:13Z" uid="590907" user="cbdavis" changeset="10690119" lat="51.6204521" lon="8.8108975">
    <tag k="generator:output:electricity" v="1.3 MW"/>
    <tag k="generator:source" v="wind"/>
    <tag k="note" v="WEA NX-1230 1300 kW"/>
    <tag k="power" v="generator"/>
    <tag k="power_rating" v="1300 kW"/>
    <tag k="power_source" v="wind"/>
    <tag k="ref" v="NX-1230"/>
  </node>
  <node id="272129920" version="2" timestamp="2008-07-06T09:26:58Z" uid="6975" user="ulfl" changeset="407266" lat="51.616706" lon="8.813404">
    <tag k="name" v="WEA NX-1229 1300kW"/>
    <tag k="note" v="WEA NX-1229 1300kW"/>
    <tag k="power" v="generator"/>
    <tag k="power_source" v="wind"/>
  </node>
  <node id="272129920" version="3" timestamp="2008-07-14T12:51:10Z" uid="24920" user="Schusch" changeset="484788" lat="51.616711" lon="8.8134037">
    <tag k="created_by" v="Potlatch 0.9c"/>
    <tag k="name" v="WEA NX-1229 1300 kW"/>
    <tag k="note" v="WEA NX-1229 1300 kW"/>
    <tag k="power" v="generator"/>
    <tag k="power_source" v="wind"/>
  </node>
  <node id="272129920" version="4" timestamp="2010-07-25T20:05:23Z" uid="24920" user="Schusch" changeset="5316082" lat="51.616711" lon="8.8134037">
    <tag k="note" v="WEA NX-1229 1300 kW"/>
    <tag k="power" v="generator"/>
    <tag k="power_rating" v="1300 kW"/>
    <tag k="power_source" v="wind"/>
    <tag k="ref" v="NX-1229"/>
  </node>
  <node id="272129920" version="5" timestamp="2011-06-04T03:31:59Z" uid="297482" user="don-vip" changeset="8335705" lat="51.616711" lon="8.8134037">
    <tag k="generator:source" v="wind"/>
    <tag k="note" v="WEA NX-1229 1300 kW"/>
    <tag k="power" v="generator"/>
    <tag k="power_rating" v="1300 kW"/>
    <tag k="power_source" v="wind"/>
    <tag k="ref" v="NX-1229"/>
  </node>
  <node id="272129920" version="6" timestamp="2011-06-04T23:13:33Z" uid="297482" user="don-vip" changeset="8344176" lat="51.616711" lon="8.8134037">
    <tag k="generator:output:electricity" v="1.3 MW"/>
    <tag k="generator:source" v="wind"/>
    <tag k="note" v="WEA NX-1229 1300 kW"/>
    <tag k="power" v="generator"/>
    <tag k="power_rating" v="1300 kW"/>
    <tag k="power_source" v="wind"/>
    <tag k="ref" v="NX-1229"/>
  </node>
  <node id="272129920" version="7" timestamp="2012-02-14T21:14:56Z" uid="590907" user="cbdavis" changeset="10686992" lat="51.616711" lon="8.8134037">
    <tag k="generator:output:electricity" v="1.3 MW"/>
    <tag k="generator:source" v="wind"/>
    <tag k="note" v="WEA NX-1229 1300 kW"/>
    <tag k="power" v="generator"/>
    <tag k="power_rating" v="1300 kW"/>
    <tag k="ref" v="NX-1229"/>
  </node>
  <node id="272129920" version="8" timestamp="2012-02-15T10:48:13Z" uid="590907" user="cbdavis" changeset="10690119" lat="51.616711" lon="8.8134037">
    <tag k="generator:output:electricity" v="1.3 MW"/>
    <tag k="generator:source" v="wind"/>
    <tag k="note" v="WEA NX-1229 1300 kW"/>
    <tag k="power" v="generator"/>
    <tag k="power_rating" v="1300 kW"/>
    <tag k="power_source" v="wind"/>
    <tag k="ref" v="NX-1229"/>
  </node>
  <node id="272129921" version="2" timestamp="2008-07-06T09:26:59Z" uid="6975" user="ulfl" changeset="407266" lat="52.937958" lon="8.773102">
    <tag k="name" v="WEA NX-122 150kW"/>
    <tag k="note" v="WEA NX-122 150kW"/>
    <tag k="power" v="generator"/>
    <tag k="power_source" v="wind"/>
  </node>
  <node id="272129921" version="3" timestamp="2008-07-14T17:11:51Z" uid="4473" user="EtricCeline" changeset="486282" lat="52.9380595" lon="8.7730178">
    <tag k="name" v="WEA NX-122 150kW"/>
    <tag k="note" v="WEA NX-122 150kW"/>
    <tag k="power" v="generator"/>
    <tag k="power_source" v="wind"/>
  </node>
  <node id="272129921" version="4" timestamp="2010-07-28T17:24:33Z" uid="24920" user="Schusch" changeset="5339940" lat="52.9380595" lon="8.7730178">
    <tag k="note" v="WEA NX-122 150 kW"/>
    <tag k="power" v="generator"/>
    <tag k="power_rating" v="150 kW"/>
    <tag k="power_source" v="wind"/>
    <tag k="ref" v="NX-122"/>
  </node>
  <node id="272129921" version="5" timestamp="2011-06-04T03:32:00Z" uid="297482" user="don-vip" changeset="8335705" lat="52.9380595" lon="8.7730178">
    <tag k="generator:source" v="wind"/>
    <tag k="note" v="WEA NX-122 150 kW"/>
    <tag k="power" v="generator"/>
    <tag k="power_rating" v="150 kW"/>
    <tag k="power_source" v="wind"/>
    <tag k="ref" v="NX-122"/>
  </node>
  <node id="272129921" version="6" timestamp="2011-06-04T23:39:47Z" uid="297482" user="don-vip" changeset="8344266" lat="52.9380595" lon="8.7730178">
    <tag k="generator:output:electricity" v="150 kW"/>
    <tag k="generator:source" v="wind"/>
    <tag k="note" v="WEA NX-122 150 kW"/>
    <tag k="power" v="generator"/>
    <tag k="power_rating" v="150 kW"/>
    <tag k="power_source" v="wind"/>
    <tag k="ref" v="NX-122"/>
  </node>
  <node id="272129921" version="7" timestamp="2012-02-14T21:14:56Z" uid="590907" user="cbdavis" changeset="10686992" lat="52.9380595" lon="8.7730178">
    <tag k="generator:output:electricity" v="150 kW"/>
    <tag k="generator:source" v="wind"/>
    <tag k="note" v="WEA NX-122 150 kW"/>
    <tag k="power" v="generator"/>
    <tag k="power_rating" v="150 kW"/>
    <tag k="ref" v="NX-122"/>
  </node>
  <node id="272129921" version="8" timestamp="2012-02-15T10:48:13Z" uid="590907" user="cbdavis" changeset="10690119" lat="52.9380595" lon="8.7730178">
    <tag k="generator:output:electricity" v="150 kW"/>
    <tag k="generator:source" v="wind"/>
    <tag k="note" v="WEA NX-122 150 kW"/>
    <tag k="power" v="generator"/>
    <tag k="power_rating" v="150 kW"/>
    <tag k="power_source" v="wind"/>
    <tag k="ref" v="NX-122"/>
  </node>
  <node id="272129923" version="2" timestamp="2008-07-06T09:26:59Z" uid="6975" user="ulfl" changeset="407266" lat="51.620159" lon="8.792229">
    <tag k="name" v="WEA NX-1215 1300kW"/>
    <tag k="note" v="WEA NX-1215 1300kW"/>
    <tag k="power" v="generator"/>
    <tag k="power_source" v="wind"/>
  </node>
  <node id="272129923" version="3" timestamp="2008-07-14T12:50:12Z" uid="24920" user="Schusch" changeset="484788" lat="51.620159" lon="8.7922207">
    <tag k="created_by" v="Potlatch 0.9c"/>
    <tag k="name" v="WEA NX-1215 1300 kW"/>
    <tag k="note" v="WEA NX-1215 1300 kW"/>
    <tag k="power" v="generator"/>
    <tag k="power_source" v="wind"/>
  </node>
  <node id="272129923" version="4" timestamp="2010-07-25T20:05:25Z" uid="24920" user="Schusch" changeset="5316082" lat="51.620159" lon="8.7922207">
    <tag k="note" v="WEA NX-1215 1300 kW"/>
    <tag k="power" v="generator"/>
    <tag k="power_rating" v="1300 kW"/>
    <tag k="power_source" v="wind"/>
    <tag k="ref" v="NX-1215"/>
  </node>
  <node id="272129923" version="5" timestamp="2011-06-04T03:32:00Z" uid="297482" user="don-vip" changeset="8335705" lat="51.620159" lon="8.7922207">
    <tag k="generator:source" v="wind"/>
    <tag k="note" v="WEA NX-1215 1300 kW"/>
    <tag k="power" v="generator"/>
    <tag k="power_rating" v="1300 kW"/>
    <tag k="power_source" v="wind"/>
    <tag k="ref" v="NX-1215"/>
  </node>
  <node id="272129923" version="6" timestamp="2011-06-04T23:13:33Z" uid="297482" user="don-vip" changeset="8344176" lat="51.620159" lon="8.7922207">
    <tag k="generator:output:electricity" v="1.3 MW"/>
    <tag k="generator:source" v="wind"/>
    <tag k="note" v="WEA NX-1215 1300 kW"/>
    <tag k="power" v="generator"/>
    <tag k="power_rating" v="1300 kW"/>
    <tag k="power_source" v="wind"/>
    <tag k="ref" v="NX-1215"/>
  </node>
  <node id="272129923" version="7" timestamp="2012-02-14T21:14:56Z" uid="590907" user="cbdavis" changeset="10686992" lat="51.620159" lon="8.7922207">
    <tag k="generator:output:electricity" v="1.3 MW"/>
    <tag k="generator:source" v="wind"/>
    <tag k="note" v="WEA NX-1215 1300 kW"/>
    <tag k="power" v="generator"/>
    <tag k="power_rating" v="1300 kW"/>
    <tag k="ref" v="NX-1215"/>
  </node>
  <node id="272129923" version="8" timestamp="2012-02-15T10:48:14Z" uid="590907" user="cbdavis" changeset="10690119" lat="51.620159" lon="8.7922207">
    <tag k="generator:output:electricity" v="1.3 MW"/>
    <tag k="generator:source" v="wind"/>
    <tag k="note" v="WEA NX-1215 1300 kW"/>
    <tag k="power" v="generator"/>
    <tag k="power_rating" v="1300 kW"/>
    <tag k="power_source" v="wind"/>
    <tag k="ref" v="NX-1215"/>
  </node>
  <node id="272129932" version="2" timestamp="2008-07-06T09:26:58Z" uid="6975" user="ulfl" changeset="407266" lat="51.350283" lon="8.853877">
    <tag k="name" v="WEA NX-126 150kW"/>
    <tag k="note" v="WEA NX-126 150kW"/>
    <tag k="power" v="generator"/>
    <tag k="power_source" v="wind"/>
  </node>
  <node id="272129932" version="3" timestamp="2009-09-17T17:16:17Z" uid="74815" user="Adme" changeset="2514569" lat="51.350283" lon="8.853877">
    <tag k="name" v="WEA NX-126 150kW"/>
    <tag k="note" v="WEA NX-126 150kW"/>
    <tag k="power" v="generator"/>
    <tag k="power_source" v="wind"/>
  </node>
  <node id="272129944" version="2" timestamp="2008-06-23T15:08:24Z" uid="27600" user="Islanit" changeset="270634" lat="54.021305" lon="12.175469">
    <tag k="created_by" v="GPSBabel-1.3.5"/>
    <tag k="man_made" v="power_wind"/>
    <tag k="name" v="WEA NX-1280 1300kW"/>
    <tag k="note" v="WEA NX-1280 1300kW"/>
    <tag k="power" v="generator"/>
    <tag k="power_source" v="wind"/>
  </node>
  <node id="272129945" version="2" timestamp="2008-07-06T09:26:59Z" uid="6975" user="ulfl" changeset="407266" lat="51.348346" lon="8.850509">
    <tag k="name" v="WEA NX-128 150kW"/>
    <tag k="note" v="WEA NX-128 150kW"/>
    <tag k="power" v="generator"/>
    <tag k="power_source" v="wind"/>
  </node>
  <node id="272129945" version="3" timestamp="2009-09-17T17:16:16Z" uid="74815" user="Adme" changeset="2514569" lat="51.348346" lon="8.850509">
    <tag k="name" v="WEA NX-128 150kW"/>
    <tag k="note" v="WEA NX-128 150kW"/>
    <tag k="power" v="generator"/>
    <tag k="power_source" v="wind"/>
  </node>
  <node id="272129947" version="2" timestamp="2008-06-23T15:08:23Z" uid="27600" user="Islanit" changeset="270634" lat="54.019111" lon="12.167067">
    <tag k="created_by" v="GPSBabel-1.3.5"/>
    <tag k="man_made" v="power_wind"/>
    <tag k="name" v="WEA NX-1283 1300kW"/>
    <tag k="note" v="WEA NX-1283 1300kW"/>
    <tag k="power" v="generator"/>
    <tag k="power_source" v="wind"/>
  </node>
  <node id="272129948" version="2" timestamp="2008-06-23T15:08:24Z" uid="27600" user="Islanit" changeset="270634" lat="54.019536" lon="12.170245">
    <tag k="created_by" v="GPSBabel-1.3.5"/>
    <tag k="man_made" v="power_wind"/>
    <tag k="name" v="WEA NX-1281 1300kW"/>
    <tag k="note" v="WEA NX-1281 1300kW"/>
    <tag k="power" v="generator"/>
    <tag k="power_source" v="wind"/>
  </node>
  <node id="272129950" version="2" timestamp="2008-07-06T09:26:59Z" uid="6975" user="ulfl" changeset="407266" lat="52.136251" lon="8.928699">
    <tag k="name" v="WEA NX-1287 1300kW"/>
    <tag k="note" v="WEA NX-1287 1300kW"/>
    <tag k="power" v="generator"/>
    <tag k="power_source" v="wind"/>
  </node>
  <node id="272129950" version="3" timestamp="2008-07-09T11:34:10Z" uid="16379" user="sherlok" changeset="442490" lat="52.136251" lon="8.928699">
    <tag k="name" v="WEA NX-1287 1300kW"/>
    <tag k="note" v="WEA NX-1287 1300kW"/>
    <tag k="power" v="generator"/>
    <tag k="power_source" v="wind"/>
  </node>
  <node id="272129952" version="2" timestamp="2008-07-06T09:26:56Z" uid="6975" user="ulfl" changeset="407266" lat="52.134094" lon="8.930251">
    <tag k="name" v="WEA NX-1286 1300kW"/>
    <tag k="note" v="WEA NX-1286 1300kW"/>
    <tag k="power" v="generator"/>
    <tag k="power_source" v="wind"/>
  </node>
  <node id="272129952" version="3" timestamp="2008-07-09T11:34:11Z" uid="16379" user="sherlok" changeset="442490" lat="52.134094" lon="8.930251">
    <tag k="name" v="WEA NX-1286 1300kW"/>
    <tag k="note" v="WEA NX-1286 1300kW"/>
    <tag k="power" v="generator"/>
    <tag k="power_source" v="wind"/>
  </node>
  <node id="272129954" version="2" timestamp="2008-07-06T09:26:56Z" uid="6975" user="ulfl" changeset="407266" lat="52.133044" lon="8.933262">
    <tag k="name" v="WEA NX-1289 1300kW"/>
    <tag k="note" v="WEA NX-1289 1300kW"/>
    <tag k="power" v="generator"/>
    <tag k="power_source" v="wind"/>
  </node>
  <node id="272129954" version="3" timestamp="2008-07-09T11:34:10Z" uid="16379" user="sherlok" changeset="442490" lat="52.133044" lon="8.933262">
    <tag k="name" v="WEA NX-1289 1300kW"/>
    <tag k="note" v="WEA NX-1289 1300kW"/>
    <tag k="power" v="generator"/>
    <tag k="power_source" v="wind"/>
  </node>
  <node id="272129955" version="2" timestamp="2008-07-06T09:26:56Z" uid="6975" user="ulfl" changeset="407266" lat="52.132281" lon="8.93636">
    <tag k="name" v="WEA NX-1288 1300kW"/>
    <tag k="note" v="WEA NX-1288 1300kW"/>
    <tag k="power" v="generator"/>
    <tag k="power_source" v="wind"/>
  </node>
  <node id="272129955" version="3" timestamp="2008-07-09T11:33:39Z" uid="16379" user="sherlok" changeset="442490" lat="52.132281" lon="8.93636">
    <tag k="name" v="WEA NX-1288 1300kW"/>
    <tag k="note" v="WEA NX-1288 1300kW"/>
    <tag k="power" v="generator"/>
    <tag k="power_source" v="wind"/>
  </node>
  <node id="272129963" version="2" timestamp="2008-07-06T09:26:56Z" uid="6975" user="ulfl" changeset="407266" lat="51.513181" lon="7.933707">
    <tag k="name" v="WEA NX-127 150kW"/>
    <tag k="note" v="WEA NX-127 150kW"/>
    <tag k="power" v="generator"/>
    <tag k="power_source" v="wind"/>
  </node>
  <node id="272129963" version="3" timestamp="2008-07-21T12:11:36Z" uid="42123" user="Ropino" changeset="558567" lat="51.513181" lon="7.933707">
    <tag k="name" v="WEA NX-127 150kW"/>
    <tag k="note" v="WEA NX-127 150kW"/>
    <tag k="power" v="generator"/>
    <tag k="power_source" v="wind"/>
  </node>
  <node id="272129964" version="2" timestamp="2008-07-06T09:26:56Z" uid="6975" user="ulfl" changeset="407266" lat="51.613815" lon="8.789846">
    <tag k="name" v="WEA NX-1269 1300kW"/>
    <tag k="note" v="WEA NX-1269 1300kW"/>
    <tag k="power" v="generator"/>
    <tag k="power_source" v="wind"/>
  </node>
  <node id="272129964" version="3" timestamp="2008-07-14T12:48:21Z" uid="24920" user="Schusch" changeset="484788" lat="51.6138171" lon="8.7898432">
    <tag k="created_by" v="Potlatch 0.9c"/>
    <tag k="name" v="WEA NX-1269 1300 kW"/>
    <tag k="note" v="WEA NX-1269 1300 kW"/>
    <tag k="power" v="generator"/>
    <tag k="power_source" v="wind"/>
  </node>
  <node id="272129964" version="4" timestamp="2010-07-25T20:05:27Z" uid="24920" user="Schusch" changeset="5316082" lat="51.6138171" lon="8.7898432">
    <tag k="note" v="WEA NX-1269 1300 kW"/>
    <tag k="power" v="generator"/>
    <tag k="power_rating" v="1300 kW"/>
    <tag k="power_source" v="wind"/>
    <tag k="ref" v="NX-1269"/>
  </node>
  <node id="272129964" version="5" timestamp="2011-06-04T03:32:00Z" uid="297482" user="don-vip" changeset="8335705" lat="51.6138171" lon="8.7898432">
    <tag k="generator:source" v="wind"/>
    <tag k="note" v="WEA NX-1269 1300 kW"/>
    <tag k="power" v="generator"/>
    <tag k="power_rating" v="1300 kW"/>
    <tag k="power_source" v="wind"/>
    <tag k="ref" v="NX-1269"/>
  </node>
  <node id="272129964" version="6" timestamp="2011-06-04T23:13:33Z" uid="297482" user="don-vip" changeset="8344176" lat="51.6138171" lon="8.7898432">
    <tag k="generator:output:electricity" v="1.3 MW"/>
    <tag k="generator:source" v="wind"/>
    <tag k="note" v="WEA NX-1269 1300 kW"/>
    <tag k="power" v="generator"/>
    <tag k="power_rating" v="1300 kW"/>
    <tag k="power_source" v="wind"/>
    <tag k="ref" v="NX-1269"/>
  </node>
  <node id="272129964" version="7" timestamp="2012-02-14T21:14:57Z" uid="590907" user="cbdavis" changeset="10686992" lat="51.6138171" lon="8.7898432">
    <tag k="generator:output:electricity" v="1.3 MW"/>
    <tag k="generator:source" v="wind"/>
    <tag k="note" v="WEA NX-1269 1300 kW"/>
    <tag k="power" v="generator"/>
    <tag k="power_rating" v="1300 kW"/>
    <tag k="ref" v="NX-1269"/>
  </node>
  <node id="272129964" version="8" timestamp="2012-02-15T10:48:14Z" uid="590907" user="cbdavis" changeset="10690119" lat="51.6138171" lon="8.7898432">
    <tag k="generator:output:electricity" v="1.3 MW"/>
    <tag k="generator:source" v="wind"/>
    <tag k="note" v="WEA NX-1269 1300 kW"/>
    <tag k="power" v="generator"/>
    <tag k="power_rating" v="1300 kW"/>
    <tag k="power_source" v="wind"/>
    <tag k="ref" v="NX-1269"/>
  </node>
  <node id="272129966" version="2" timestamp="2008-06-23T15:08:24Z" uid="27600" user="Islanit" changeset="270634" lat="54.023181" lon="12.18032">
    <tag k="created_by" v="GPSBabel-1.3.5"/>
    <tag k="man_made" v="power_wind"/>
    <tag k="name" v="WEA NX-1279 1300kW"/>
    <tag k="note" v="WEA NX-1279 1300kW"/>
    <tag k="power" v="generator"/>
    <tag k="power_source" v="wind"/>
  </node>
  <node id="272129967" version="2" timestamp="2008-07-06T09:26:56Z" uid="6975" user="ulfl" changeset="407266" lat="51.62041" lon="8.797067">
    <tag k="name" v="WEA NX-1270 1300kW"/>
    <tag k="note" v="WEA NX-1270 1300kW"/>
    <tag k="power" v="generator"/>
    <tag k="power_source" v="wind"/>
  </node>
  <node id="272129967" version="3" timestamp="2008-07-14T12:49:58Z" uid="24920" user="Schusch" changeset="484788" lat="51.6204148" lon="8.7970616">
    <tag k="created_by" v="Potlatch 0.9c"/>
    <tag k="name" v="WEA NX-1270 1300 kW"/>
    <tag k="note" v="WEA NX-1270 1300 kW"/>
    <tag k="power" v="generator"/>
    <tag k="power_source" v="wind"/>
  </node>
  <node id="272129967" version="4" timestamp="2010-07-25T20:05:21Z" uid="24920" user="Schusch" changeset="5316082" lat="51.6204148" lon="8.7970616">
    <tag k="note" v="WEA NX-1270 1300 kW"/>
    <tag k="power" v="generator"/>
    <tag k="power_rating" v="1300 kW"/>
    <tag k="power_source" v="wind"/>
    <tag k="ref" v="NX-1270"/>
  </node>
  <node id="272129967" version="5" timestamp="2011-06-04T03:32:00Z" uid="297482" user="don-vip" changeset="8335705" lat="51.6204148" lon="8.7970616">
    <tag k="generator:source" v="wind"/>
    <tag k="note" v="WEA NX-1270 1300 kW"/>
    <tag k="power" v="generator"/>
    <tag k="power_rating" v="1300 kW"/>
    <tag k="power_source" v="wind"/>
    <tag k="ref" v="NX-1270"/>
  </node>
  <node id="272129967" version="6" timestamp="2011-06-04T23:13:33Z" uid="297482" user="don-vip" changeset="8344176" lat="51.6204148" lon="8.7970616">
    <tag k="generator:output:electricity" v="1.3 MW"/>
    <tag k="generator:source" v="wind"/>
    <tag k="note" v="WEA NX-1270 1300 kW"/>
    <tag k="power" v="generator"/>
    <tag k="power_rating" v="1300 kW"/>
    <tag k="power_source" v="wind"/>
    <tag k="ref" v="NX-1270"/>
  </node>
  <node id="272129967" version="7" timestamp="2012-02-14T21:14:57Z" uid="590907" user="cbdavis" changeset="10686992" lat="51.6204148" lon="8.7970616">
    <tag k="generator:output:electricity" v="1.3 MW"/>
    <tag k="generator:source" v="wind"/>
    <tag k="note" v="WEA NX-1270 1300 kW"/>
    <tag k="power" v="generator"/>
    <tag k="power_rating" v="1300 kW"/>
    <tag k="ref" v="NX-1270"/>
  </node>
  <node id="272129967" version="8" timestamp="2012-02-15T10:48:15Z" uid="590907" user="cbdavis" changeset="10690119" lat="51.6204148" lon="8.7970616">
    <tag k="generator:output:electricity" v="1.3 MW"/>
    <tag k="generator:source" v="wind"/>
    <tag k="note" v="WEA NX-1270 1300 kW"/>
    <tag k="power" v="generator"/>
    <tag k="power_rating" v="1300 kW"/>
    <tag k="power_source" v="wind"/>
    <tag k="ref" v="NX-1270"/>
  </node>
  <node id="272129968" version="2" timestamp="2008-07-06T09:26:58Z" uid="6975" user="ulfl" changeset="407266" lat="52.16571" lon="11.279467">
    <tag k="name" v="WEA NX-1297 1300kW"/>
    <tag k="note" v="WEA NX-1297 1300kW"/>
    <tag k="power" v="generator"/>
    <tag k="power_source" v="wind"/>
  </node>
  <node id="272129968" version="3" timestamp="2009-04-24T22:07:04Z" uid="24920" user="Schusch" changeset="934534" lat="52.16571" lon="11.279467">
    <tag k="name" v="WEA NX-1297 1300kW"/>
    <tag k="note" v="WEA NX-1297 1300kW"/>
    <tag k="power" v="generator"/>
    <tag k="power_source" v="wind"/>
  </node>
  <node id="272129970" version="2" timestamp="2008-07-06T09:26:58Z" uid="6975" user="ulfl" changeset="407266" lat="52.16525" lon="11.274413">
    <tag k="name" v="WEA NX-1298 1300kW"/>
    <tag k="note" v="WEA NX-1298 1300kW"/>
    <tag k="power" v="generator"/>
    <tag k="power_source" v="wind"/>
  </node>
  <node id="272129970" version="3" timestamp="2009-04-24T22:07:04Z" uid="24920" user="Schusch" changeset="934534" lat="52.16525" lon="11.274413">
    <tag k="name" v="WEA NX-1298 1300kW"/>
    <tag k="note" v="WEA NX-1298 1300kW"/>
    <tag k="power" v="generator"/>
    <tag k="power_source" v="wind"/>
  </node>
  <node id="272129971" version="2" timestamp="2008-07-06T09:26:58Z" uid="6975" user="ulfl" changeset="407266" lat="51.350584" lon="8.849841">
    <tag k="name" v="WEA NX-130 150kW"/>
    <tag k="note" v="WEA NX-130 150kW"/>
    <tag k="power" v="generator"/>
    <tag k="power_source" v="wind"/>
  </node>
  <node id="272129971" version="3" timestamp="2009-09-17T17:16:16Z" uid="74815" user="Adme" changeset="2514569" lat="51.350584" lon="8.849841">
    <tag k="name" v="WEA NX-130 150kW"/>
    <tag k="note" v="WEA NX-130 150kW"/>
    <tag k="power" v="generator"/>
    <tag k="power_source" v="wind"/>
  </node>
  <node id="272129973" version="2" timestamp="2008-07-06T09:26:57Z" uid="6975" user="ulfl" changeset="407266" lat="51.414284" lon="8.537349">
    <tag k="name" v="WEA NX-131 150kW"/>
    <tag k="note" v="WEA NX-131 150kW"/>
    <tag k="power" v="generator"/>
    <tag k="power_source" v="wind"/>
  </node>
  <node id="272129973" version="3" timestamp="2010-08-29T10:10:24Z" uid="24920" user="Schusch" changeset="5623890" lat="51.414284" lon="8.537349">
    <tag k="power" v="generator"/>
    <tag k="power_rating" v="150 kW"/>
    <tag k="power_source" v="wind"/>
    <tag k="ref" v="NX-131"/>
  </node>
  <node id="272129973" version="4" timestamp="2011-06-04T03:32:00Z" uid="297482" user="don-vip" changeset="8335705" lat="51.414284" lon="8.537349">
    <tag k="generator:source" v="wind"/>
    <tag k="power" v="generator"/>
    <tag k="power_rating" v="150 kW"/>
    <tag k="power_source" v="wind"/>
    <tag k="ref" v="NX-131"/>
  </node>
  <node id="272129973" version="5" timestamp="2011-06-04T23:39:47Z" uid="297482" user="don-vip" changeset="8344266" lat="51.414284" lon="8.537349">
    <tag k="generator:output:electricity" v="150 kW"/>
    <tag k="generator:source" v="wind"/>
    <tag k="power" v="generator"/>
    <tag k="power_rating" v="150 kW"/>
    <tag k="power_source" v="wind"/>
    <tag k="ref" v="NX-131"/>
  </node>
  <node id="272129973" version="6" timestamp="2011-12-31T12:09:35Z" uid="155936" user="palimpadum" changeset="10253991" lat="51.414284" lon="8.537349">
    <tag k="generator:output:electricity" v="150 kW"/>
    <tag k="generator:source" v="wind"/>
    <tag k="odbl" v="clean"/>
    <tag k="power" v="generator"/>
    <tag k="ref" v="NX-131"/>
  </node>
  <node id="272129973" version="7" timestamp="2012-02-15T10:48:15Z" uid="590907" user="cbdavis" changeset="10690119" lat="51.414284" lon="8.537349">
    <tag k="generator:output:electricity" v="150 kW"/>
    <tag k="generator:source" v="wind"/>
    <tag k="odbl" v="clean"/>
    <tag k="power" v="generator"/>
    <tag k="power_source" v="wind"/>
    <tag k="ref" v="NX-131"/>
  </node>
  <node id="272129974" version="2" timestamp="2008-07-06T09:26:57Z" uid="6975" user="ulfl" changeset="407266" lat="50.591037" lon="9.245293">
    <tag k="name" v="WEA NX-1314 1300kW"/>
    <tag k="note" v="WEA NX-1314 1300kW"/>
    <tag k="power" v="generator"/>
    <tag k="power_source" v="wind"/>
  </node>
  <node id="272129974" version="3" timestamp="2008-08-22T22:33:01Z" uid="46169" user="wolter" changeset="381888" lat="50.591037" lon="9.245293">
    <tag k="name" v="WEA NX-1314 1300kW"/>
    <tag k="note" v="WEA NX-1314 1300kW"/>
    <tag k="power" v="generator"/>
    <tag k="power_source" v="wind"/>
  </node>
  <node id="272129976" version="2" timestamp="2008-07-06T09:26:57Z" uid="6975" user="ulfl" changeset="407266" lat="51.348448" lon="8.846502">
    <tag k="name" v="WEA NX-133 150kW"/>
    <tag k="note" v="WEA NX-133 150kW"/>
    <tag k="power" v="generator"/>
    <tag k="power_source" v="wind"/>
  </node>
  <node id="272129976" version="3" timestamp="2009-09-17T17:16:16Z" uid="74815" user="Adme" changeset="2514569" lat="51.348448" lon="8.846502">
    <tag k="name" v="WEA NX-133 150kW"/>
    <tag k="note" v="WEA NX-133 150kW"/>
    <tag k="power" v="generator"/>
    <tag k="power_source" v="wind"/>
  </node>
  <node id="272129978" version="2" timestamp="2008-07-06T09:26:57Z" uid="6975" user="ulfl" changeset="407266" lat="50.677068" lon="9.054263">
    <tag k="name" v="WEA NX-1330 1300kW"/>
    <tag k="note" v="WEA NX-1330 1300kW"/>
    <tag k="power" v="generator"/>
    <tag k="power_source" v="wind"/>
  </node>
  <node id="272129978" version="3" timestamp="2010-07-28T12:57:46Z" uid="24920" user="Schusch" changeset="5337840" lat="50.677068" lon="9.054263">
    <tag k="note" v="WEA NX-1330 1300 kW"/>
    <tag k="power" v="generator"/>
    <tag k="power_rating" v="1300 kW"/>
    <tag k="power_source" v="wind"/>
    <tag k="ref" v="NX-1330"/>
  </node>
  <node id="272129978" version="4" timestamp="2011-06-04T03:32:00Z" uid="297482" user="don-vip" changeset="8335705" lat="50.677068" lon="9.054263">
    <tag k="generator:source" v="wind"/>
    <tag k="note" v="WEA NX-1330 1300 kW"/>
    <tag k="power" v="generator"/>
    <tag k="power_rating" v="1300 kW"/>
    <tag k="power_source" v="wind"/>
    <tag k="ref" v="NX-1330"/>
  </node>
  <node id="272129978" version="5" timestamp="2011-06-04T23:13:34Z" uid="297482" user="don-vip" changeset="8344176" lat="50.677068" lon="9.054263">
    <tag k="generator:output:electricity" v="1.3 MW"/>
    <tag k="generator:source" v="wind"/>
    <tag k="note" v="WEA NX-1330 1300 kW"/>
    <tag k="power" v="generator"/>
    <tag k="power_rating" v="1300 kW"/>
    <tag k="power_source" v="wind"/>
    <tag k="ref" v="NX-1330"/>
  </node>
  <node id="272129978" version="6" timestamp="2011-12-27T11:52:07Z" uid="302852" user="be-ju" changeset="10214975" lat="50.677068" lon="9.054263"/>
  <node id="272129979" version="2" timestamp="2008-07-06T09:26:57Z" uid="6975" user="ulfl" changeset="407266" lat="50.67399" lon="9.058152">
    <tag k="name" v="WEA NX-1331 1300kW"/>
    <tag k="note" v="WEA NX-1331 1300kW"/>
    <tag k="power" v="generator"/>
    <tag k="power_source" v="wind"/>
  </node>
  <node id="272129979" version="3" timestamp="2010-07-28T12:57:46Z" uid="24920" user="Schusch" changeset="5337840" lat="50.67399" lon="9.058152">
    <tag k="note" v="WEA NX-1331 1300 kW"/>
    <tag k="power" v="generator"/>
    <tag k="power_rating" v="1300 kW"/>
    <tag k="power_source" v="wind"/>
    <tag k="ref" v="NX-1331"/>
  </node>
  <node id="272129979" version="4" timestamp="2011-01-01T20:41:24Z" uid="65432" user="bmog" changeset="6832161" lat="50.6740818" lon="9.058288">
    <tag k="note" v="WEA NX-1331 1300 kW"/>
    <tag k="power" v="generator"/>
    <tag k="power_rating" v="1300 kW"/>
    <tag k="power_source" v="wind"/>
    <tag k="ref" v="NX-1331"/>
  </node>
  <node id="272129979" version="5" timestamp="2011-06-04T03:32:00Z" uid="297482" user="don-vip" changeset="8335705" lat="50.6740818" lon="9.058288">
    <tag k="generator:source" v="wind"/>
    <tag k="note" v="WEA NX-1331 1300 kW"/>
    <tag k="power" v="generator"/>
    <tag k="power_rating" v="1300 kW"/>
    <tag k="power_source" v="wind"/>
    <tag k="ref" v="NX-1331"/>
  </node>
  <node id="272129979" version="6" timestamp="2011-06-04T23:13:34Z" uid="297482" user="don-vip" changeset="8344176" lat="50.6740818" lon="9.058288">
    <tag k="generator:output:electricity" v="1.3 MW"/>
    <tag k="generator:source" v="wind"/>
    <tag k="note" v="WEA NX-1331 1300 kW"/>
    <tag k="power" v="generator"/>
    <tag k="power_rating" v="1300 kW"/>
    <tag k="power_source" v="wind"/>
    <tag k="ref" v="NX-1331"/>
  </node>
  <node id="272129979" version="7" timestamp="2012-02-14T21:14:57Z" uid="590907" user="cbdavis" changeset="10686992" lat="50.6740818" lon="9.058288">
    <tag k="generator:output:electricity" v="1.3 MW"/>
    <tag k="generator:source" v="wind"/>
    <tag k="note" v="WEA NX-1331 1300 kW"/>
    <tag k="power" v="generator"/>
    <tag k="power_rating" v="1300 kW"/>
    <tag k="ref" v="NX-1331"/>
  </node>
  <node id="272129979" version="8" timestamp="2012-02-15T10:48:15Z" uid="590907" user="cbdavis" changeset="10690119" lat="50.6740818" lon="9.058288">
    <tag k="generator:output:electricity" v="1.3 MW"/>
    <tag k="generator:source" v="wind"/>
    <tag k="note" v="WEA NX-1331 1300 kW"/>
    <tag k="power" v="generator"/>
    <tag k="power_rating" v="1300 kW"/>
    <tag k="power_source" v="wind"/>
    <tag k="ref" v="NX-1331"/>
  </node>
  <node id="272129981" version="2" timestamp="2008-07-06T09:26:57Z" uid="6975" user="ulfl" changeset="407266" lat="51.347092" lon="8.847785">
    <tag k="name" v="WEA NX-129 150kW"/>
    <tag k="note" v="WEA NX-129 150kW"/>
    <tag k="power" v="generator"/>
    <tag k="power_source" v="wind"/>
  </node>
  <node id="272129981" version="3" timestamp="2009-09-17T17:16:16Z" uid="74815" user="Adme" changeset="2514569" lat="51.347092" lon="8.847785">
    <tag k="name" v="WEA NX-129 150kW"/>
    <tag k="note" v="WEA NX-129 150kW"/>
    <tag k="power" v="generator"/>
    <tag k="power_source" v="wind"/>
  </node>
  <node id="272129987" version="2" timestamp="2008-07-06T09:26:53Z" uid="6975" user="ulfl" changeset="407266" lat="52.171447" lon="11.271058">
    <tag k="name" v="WEA NX-1293 1300kW"/>
    <tag k="note" v="WEA NX-1293 1300kW"/>
    <tag k="power" v="generator"/>
    <tag k="power_source" v="wind"/>
  </node>
  <node id="272129987" version="3" timestamp="2009-04-24T22:07:04Z" uid="24920" user="Schusch" changeset="934534" lat="52.171447" lon="11.271058">
    <tag k="name" v="WEA NX-1293 1300kW"/>
    <tag k="note" v="WEA NX-1293 1300kW"/>
    <tag k="power" v="generator"/>
    <tag k="power_source" v="wind"/>
  </node>
  <node id="272129989" version="2" timestamp="2008-07-06T09:26:53Z" uid="6975" user="ulfl" changeset="407266" lat="52.171205" lon="11.276618">
    <tag k="name" v="WEA NX-1294 1300kW"/>
    <tag k="note" v="WEA NX-1294 1300kW"/>
    <tag k="power" v="generator"/>
    <tag k="power_source" v="wind"/>
  </node>
  <node id="272129989" version="3" timestamp="2009-04-24T22:07:04Z" uid="24920" user="Schusch" changeset="934534" lat="52.171205" lon="11.276618">
    <tag k="name" v="WEA NX-1294 1300kW"/>
    <tag k="note" v="WEA NX-1294 1300kW"/>
    <tag k="power" v="generator"/>
    <tag k="power_source" v="wind"/>
  </node>
  <node id="272129990" version="2" timestamp="2008-07-06T09:26:53Z" uid="6975" user="ulfl" changeset="407266" lat="52.170361" lon="11.284472">
    <tag k="name" v="WEA NX-1295 1300kW"/>
    <tag k="note" v="WEA NX-1295 1300kW"/>
    <tag k="power" v="generator"/>
    <tag k="power_source" v="wind"/>
  </node>
  <node id="272129990" version="3" timestamp="2009-04-24T22:07:04Z" uid="24920" user="Schusch" changeset="934534" lat="52.170361" lon="11.284472">
    <tag k="name" v="WEA NX-1295 1300kW"/>
    <tag k="note" v="WEA NX-1295 1300kW"/>
    <tag k="power" v="generator"/>
    <tag k="power_source" v="wind"/>
  </node>
  <node id="272129992" version="2" timestamp="2008-07-06T09:26:52Z" uid="6975" user="ulfl" changeset="407266" lat="52.166295" lon="11.285463">
    <tag k="name" v="WEA NX-1296 1300kW"/>
    <tag k="note" v="WEA NX-1296 1300kW"/>
    <tag k="power" v="generator"/>
    <tag k="power_source" v="wind"/>
  </node>
  <node id="272129992" version="3" timestamp="2009-04-24T22:08:03Z" uid="24920" user="Schusch" changeset="934543" lat="52.166295" lon="11.285463">
    <tag k="name" v="WEA NX-1296 1300kW"/>
    <tag k="note" v="WEA NX-1296 1300kW"/>
    <tag k="power" v="generator"/>
    <tag k="power_source" v="wind"/>
  </node>
  <node id="272129993" version="2" timestamp="2008-07-06T09:26:52Z" uid="6975" user="ulfl" changeset="407266" lat="51.962582" lon="11.354522">
    <tag k="name" v="WEA NX-1373 1300kW"/>
    <tag k="note" v="WEA NX-1373 1300kW"/>
    <tag k="power" v="generator"/>
    <tag k="power_source" v="wind"/>
  </node>
  <node id="272129993" version="3" timestamp="2008-07-10T11:33:59Z" uid="16379" user="sherlok" changeset="453490" lat="51.962582" lon="11.354522">
    <tag k="name" v="WEA NX-1373 1300kW"/>
    <tag k="note" v="WEA NX-1373 1300kW"/>
    <tag k="power" v="generator"/>
    <tag k="power_source" v="wind"/>
  </node>
  <node id="272129995" version="2" timestamp="2008-07-06T09:26:52Z" uid="6975" user="ulfl" changeset="407266" lat="51.960578" lon="11.358522">
    <tag k="name" v="WEA NX-1372 1300kW"/>
    <tag k="note" v="WEA NX-1372 1300kW"/>
    <tag k="power" v="generator"/>
    <tag k="power_source" v="wind"/>
  </node>
  <node id="272129995" version="3" timestamp="2008-07-10T11:34:00Z" uid="16379" user="sherlok" changeset="453490" lat="51.960578" lon="11.358522">
    <tag k="name" v="WEA NX-1372 1300kW"/>
    <tag k="note" v="WEA NX-1372 1300kW"/>
    <tag k="power" v="generator"/>
    <tag k="power_source" v="wind"/>
  </node>
  <node id="272129996" version="2" timestamp="2008-07-06T09:26:53Z" uid="6975" user="ulfl" changeset="407266" lat="51.565118" lon="7.852563">
    <tag k="name" v="WEA NX-137 250kW"/>
    <tag k="note" v="WEA NX-137 250kW"/>
    <tag k="power" v="generator"/>
    <tag k="power_source" v="wind"/>
  </node>
  <node id="272129996" version="3" timestamp="2008-10-06T20:37:34Z" uid="42123" user="Ropino" changeset="111465" lat="51.565118" lon="7.852563">
    <tag k="name" v="WEA NX-137 250kW"/>
    <tag k="note" v="WEA NX-137 250kW"/>
    <tag k="power" v="generator"/>
    <tag k="power_source" v="wind"/>
  </node>
  <node id="272129998" version="2" timestamp="2008-07-06T09:26:53Z" uid="6975" user="ulfl" changeset="407266" lat="51.686908" lon="8.817007">
    <tag k="name" v="WEA NX-1362 1300kW"/>
    <tag k="note" v="WEA NX-1362 1300kW"/>
    <tag k="power" v="generator"/>
    <tag k="power_source" v="wind"/>
  </node>
  <node id="272129998" version="3" timestamp="2010-08-29T10:23:30Z" uid="24920" user="Schusch" changeset="5624012" lat="51.686908" lon="8.817007">
    <tag k="power" v="generator"/>
    <tag k="power_rating" v="1300 kW"/>
    <tag k="power_source" v="wind"/>
    <tag k="ref" v="NX-1362"/>
  </node>
  <node id="272129998" version="4" timestamp="2011-06-04T03:32:01Z" uid="297482" user="don-vip" changeset="8335705" lat="51.686908" lon="8.817007">
    <tag k="generator:source" v="wind"/>
    <tag k="power" v="generator"/>
    <tag k="power_rating" v="1300 kW"/>
    <tag k="power_source" v="wind"/>
    <tag k="ref" v="NX-1362"/>
  </node>
  <node id="272129998" version="5" timestamp="2011-06-04T23:13:34Z" uid="297482" user="don-vip" changeset="8344176" lat="51.686908" lon="8.817007">
    <tag k="generator:output:electricity" v="1.3 MW"/>
    <tag k="generator:source" v="wind"/>
    <tag k="power" v="generator"/>
    <tag k="power_rating" v="1300 kW"/>
    <tag k="power_source" v="wind"/>
    <tag k="ref" v="NX-1362"/>
  </node>
  <node id="272129998" version="6" timestamp="2012-02-14T21:14:58Z" uid="590907" user="cbdavis" changeset="10686992" lat="51.686908" lon="8.817007">
    <tag k="generator:output:electricity" v="1.3 MW"/>
    <tag k="generator:source" v="wind"/>
    <tag k="power" v="generator"/>
    <tag k="power_rating" v="1300 kW"/>
    <tag k="ref" v="NX-1362"/>
  </node>
  <node id="272129998" version="7" timestamp="2012-02-15T10:48:16Z" uid="590907" user="cbdavis" changeset="10690119" lat="51.686908" lon="8.817007">
    <tag k="generator:output:electricity" v="1.3 MW"/>
    <tag k="generator:source" v="wind"/>
    <tag k="power" v="generator"/>
    <tag k="power_rating" v="1300 kW"/>
    <tag k="power_source" v="wind"/>
    <tag k="ref" v="NX-1362"/>
  </node>
  <node id="272129999" version="2" timestamp="2008-07-06T09:26:53Z" uid="6975" user="ulfl" changeset="407266" lat="54.152899" lon="10.869369">
    <tag k="name" v="WEA NX-1377 1300kW"/>
    <tag k="note" v="WEA NX-1377 1300kW"/>
    <tag k="power" v="generator"/>
    <tag k="power_source" v="wind"/>
  </node>
  <node id="272129999" version="3" timestamp="2010-08-29T14:06:30Z" uid="24920" user="Schusch" changeset="5626091" lat="54.152899" lon="10.869369">
    <tag k="power" v="generator"/>
    <tag k="power_rating" v="1300 kW"/>
    <tag k="power_source" v="wind"/>
    <tag k="ref" v="NX-1377"/>
  </node>
  <node id="272129999" version="4" timestamp="2011-06-04T03:32:01Z" uid="297482" user="don-vip" changeset="8335705" lat="54.152899" lon="10.869369">
    <tag k="generator:source" v="wind"/>
    <tag k="power" v="generator"/>
    <tag k="power_rating" v="1300 kW"/>
    <tag k="power_source" v="wind"/>
    <tag k="ref" v="NX-1377"/>
  </node>
  <node id="272129999" version="5" timestamp="2011-06-04T23:13:34Z" uid="297482" user="don-vip" changeset="8344176" lat="54.152899" lon="10.869369">
    <tag k="generator:output:electricity" v="1.3 MW"/>
    <tag k="generator:source" v="wind"/>
    <tag k="power" v="generator"/>
    <tag k="power_rating" v="1300 kW"/>
    <tag k="power_source" v="wind"/>
    <tag k="ref" v="NX-1377"/>
  </node>
  <node id="272129999" version="6" timestamp="2011-07-04T12:27:05Z" uid="72151" user="GeorgFausB" changeset="8628900" lat="54.1528014" lon="10.8695218">
    <tag k="generator:output:electricity" v="1.3 MW"/>
    <tag k="generator:source" v="wind"/>
    <tag k="power" v="generator"/>
    <tag k="power_rating" v="1300 kW"/>
    <tag k="power_source" v="wind"/>
    <tag k="ref" v="NX-1377"/>
  </node>
  <node id="272129999" version="7" timestamp="2012-02-14T21:14:58Z" uid="590907" user="cbdavis" changeset="10686992" lat="54.1528014" lon="10.8695218">
    <tag k="generator:output:electricity" v="1.3 MW"/>
    <tag k="generator:source" v="wind"/>
    <tag k="power" v="generator"/>
    <tag k="power_rating" v="1300 kW"/>
    <tag k="ref" v="NX-1377"/>
  </node>
  <node id="272129999" version="8" timestamp="2012-02-15T10:48:16Z" uid="590907" user="cbdavis" changeset="10690119" lat="54.1528014" lon="10.8695218">
    <tag k="generator:output:electricity" v="1.3 MW"/>
    <tag k="generator:source" v="wind"/>
    <tag k="power" v="generator"/>
    <tag k="power_rating" v="1300 kW"/>
    <tag k="power_source" v="wind"/>
    <tag k="ref" v="NX-1377"/>
  </node>
  <node id="272126803" version="3" timestamp="2012-07-22T08:08:20Z" uid="722137" user="OSMF Redaction Account" changeset="12427605" lat="-33.7229135" lon="150.6691306"/>
  <node id="272126808" version="2" timestamp="2012-07-22T08:08:20Z" uid="722137" user="OSMF Redaction Account" changeset="12427605" lat="-33.7229112" lon="150.6691159"/>
  <node id="272126813" version="3" timestamp="2012-07-22T08:08:20Z" uid="722137" user="OSMF Redaction Account" changeset="12427605" lat="-33.7226298" lon="150.6700214"/>
  <node id="272126817" version="3" timestamp="2012-07-22T08:08:20Z" uid="722137" user="OSMF Redaction Account" changeset="12427605" lat="-33.7225712" lon="150.670938"/>
  <node id="272126822" version="3" timestamp="2012-07-22T08:08:20Z" uid="722137" user="OSMF Redaction Account" changeset="12427605" lat="-33.7224876" lon="150.6721245"/>
  <node id="272126827" version="3" timestamp="2012-07-22T08:08:17Z" uid="722137" user="OSMF Redaction Account" changeset="12427605" lat="-33.7256804" lon="150.6697106"/>
  <node id="272126831" version="3" timestamp="2012-07-24T11:34:35Z" uid="47167" user="MCH" changeset="12464415" lat="-33.7276665" lon="150.6770982"/>
  <node id="272126835" version="3" timestamp="2012-07-22T08:08:16Z" uid="722137" user="OSMF Redaction Account" changeset="12427605" lat="-33.7271358" lon="150.6733714"/>
  <node id="272129752" version="9" timestamp="2012-09-11T06:15:23Z" uid="31231" user="Andre68" changeset="13065048" lat="53.1448793" lon="8.4281103">
    <tag k="generator:output:electricity" v="750 kW"/>
    <tag k="generator:source" v="wind"/>
    <tag k="note" v="WEA NM-17659 750 kW"/>
    <tag k="power" v="generator"/>
    <tag k="power_rating" v="750 kW"/>
    <tag k="ref" v="NM-17659"/>
  </node>
  <node id="272129752" version="10" timestamp="2012-09-11T06:40:00Z" uid="31231" user="Andre68" changeset="13065048" lat="53.1448793" lon="8.4281103">
    <tag k="generator:output:electricity" v="750 kW"/>
    <tag k="generator:source" v="wind"/>
    <tag k="note" v="WEA NM-17659 750 kW"/>
    <tag k="power" v="generator"/>
    <tag k="ref" v="NM-17659"/>
  </node>
  <node id="272129753" version="9" timestamp="2012-09-11T08:35:06Z" uid="31231" user="Andre68" changeset="13066107" lat="52.928544" lon="7.413419">
    <tag k="generator:output:electricity" v="150 kW"/>
    <tag k="generator:source" v="wind"/>
    <tag k="manufacturer" v="Nordex"/>
    <tag k="note" v="WEA NX-100 150 kW"/>
    <tag k="power" v="generator"/>
    <tag k="power_rating" v="150 kW"/>
    <tag k="ref" v="NX-100"/>
  </node>
  <node id="272129753" version="10" timestamp="2012-09-11T08:40:12Z" uid="31231" user="Andre68" changeset="13066107" lat="52.928544" lon="7.413419">
    <tag k="generator:output:electricity" v="150 kW"/>
    <tag k="generator:source" v="wind"/>
    <tag k="manufacturer" v="Nordex"/>
    <tag k="note" v="WEA NX-100 150 kW"/>
    <tag k="power" v="generator"/>
    <tag k="ref" v="NX-100"/>
  </node>
  <node id="272129755" version="10" timestamp="2012-09-11T06:15:23Z" uid="31231" user="Andre68" changeset="13065048" lat="53.612358" lon="8.0642123">
    <tag k="generator:output:electricity" v="1.3 MW"/>
    <tag k="generator:source" v="wind"/>
    <tag k="manufacturer" v="Nordex"/>
    <tag k="note" v="WEA NX-1001 1300 kW"/>
    <tag k="power" v="generator"/>
    <tag k="power_rating" v="1300 kW"/>
    <tag k="ref" v="NX-1001"/>
  </node>
  <node id="272129755" version="11" timestamp="2012-09-11T06:40:01Z" uid="31231" user="Andre68" changeset="13065048" lat="53.612358" lon="8.0642123">
    <tag k="generator:output:electricity" v="1.3 MW"/>
    <tag k="generator:source" v="wind"/>
    <tag k="manufacturer" v="Nordex"/>
    <tag k="note" v="WEA NX-1001 1300 kW"/>
    <tag k="power" v="generator"/>
    <tag k="ref" v="NX-1001"/>
  </node>
  <node id="272129759" version="8" timestamp="2012-09-11T21:22:30Z" uid="31231" user="Andre68" changeset="13075722" lat="53.813442" lon="8.756129">
    <tag k="generator:output:electricity" v="1.3 MW"/>
    <tag k="generator:source" v="wind"/>
    <tag k="manufacturer" v="Nordex"/>
    <tag k="note" v="WEA NX-1007 1300 kW"/>
    <tag k="power" v="generator"/>
    <tag k="ref" v="NX-1007"/>
  </node>
  <node id="272129761" version="8" timestamp="2012-09-11T21:22:30Z" uid="31231" user="Andre68" changeset="13075722" lat="53.810453" lon="8.745015">
    <tag k="generator:output:electricity" v="1.3 MW"/>
    <tag k="generator:source" v="wind"/>
    <tag k="manufacturer" v="Nordex"/>
    <tag k="note" v="WEA NX-1008 1300 kW"/>
    <tag k="power" v="generator"/>
    <tag k="ref" v="NX-1008"/>
  </node>
  <node id="272129762" version="9" timestamp="2012-09-11T21:22:30Z" uid="31231" user="Andre68" changeset="13075722" lat="53.8184649" lon="8.7446594">
    <tag k="generator:output:electricity" v="1.3 MW"/>
    <tag k="generator:source" v="wind"/>
    <tag k="manufacturer" v="Nordex"/>
    <tag k="note" v="WEA NX-1009 1300 kW"/>
    <tag k="power" v="generator"/>
    <tag k="ref" v="NX-1009"/>
    <tag k="source" v="Hi-res aerial imagery (Aerowest)"/>
  </node>
  <node id="272129765" version="8" timestamp="2012-09-11T21:22:31Z" uid="31231" user="Andre68" changeset="13075722" lat="53.822725" lon="8.726452">
    <tag k="generator:output:electricity" v="1.3 MW"/>
    <tag k="generator:source" v="wind"/>
    <tag k="note" v="WEA NX-1010 1300 kW"/>
    <tag k="power" v="generator"/>
    <tag k="ref" v="NX-1010"/>
  </node>
  <node id="272129767" version="8" timestamp="2012-09-11T21:22:31Z" uid="31231" user="Andre68" changeset="13075722" lat="53.816557" lon="8.750081">
    <tag k="generator:output:electricity" v="1.3 MW"/>
    <tag k="generator:source" v="wind"/>
    <tag k="manufacturer" v="Nordex"/>
    <tag k="note" v="WEA NX-1011 1300 kW"/>
    <tag k="power" v="generator"/>
    <tag k="ref" v="NX-1011"/>
  </node>
  <node id="272129768" version="9" timestamp="2012-09-11T21:22:31Z" uid="31231" user="Andre68" changeset="13075722" lat="53.8131238" lon="8.7404894">
    <tag k="generator:output:electricity" v="1.3 MW"/>
    <tag k="generator:source" v="wind"/>
    <tag k="manufacturer" v="Nordex"/>
    <tag k="note" v="WEA NX-1012 1300 kW"/>
    <tag k="power" v="generator"/>
    <tag k="ref" v="NX-1012"/>
    <tag k="source" v="Hi-res aerial imagery (Aerowest)"/>
  </node>
  <node id="272129770" version="9" timestamp="2012-09-11T21:22:31Z" uid="31231" user="Andre68" changeset="13075722" lat="53.8152049" lon="8.7371248">
    <tag k="generator:output:electricity" v="1.3 MW"/>
    <tag k="generator:source" v="wind"/>
    <tag k="manufacturer" v="Nordex"/>
    <tag k="note" v="WEA NX-1013 1300 kW"/>
    <tag k="power" v="generator"/>
    <tag k="ref" v="NX-1013"/>
    <tag k="source" v="Hi-res aerial imagery (Aerowest)"/>
  </node>
  <node id="272129771" version="8" timestamp="2012-09-11T21:22:31Z" uid="31231" user="Andre68" changeset="13075722" lat="53.818879" lon="8.722938">
    <tag k="generator:output:electricity" v="1.3 MW"/>
    <tag k="generator:source" v="wind"/>
    <tag k="manufacturer" v="Nordex"/>
    <tag k="note" v="WEA NX-1015 1300 kW"/>
    <tag k="power" v="generator"/>
    <tag k="ref" v="NX-1015"/>
  </node>
  <node id="272129773" version="8" timestamp="2012-09-11T21:22:32Z" uid="31231" user="Andre68" changeset="13075722" lat="53.813454" lon="8.732299">
    <tag k="generator:output:electricity" v="1.3 MW"/>
    <tag k="generator:source" v="wind"/>
    <tag k="manufacturer" v="Nordex"/>
    <tag k="note" v="WEA NX-1014 1300 kW"/>
    <tag k="power" v="generator"/>
    <tag k="ref" v="NX-1014"/>
  </node>
  <node id="272129774" version="8" timestamp="2012-09-11T21:22:32Z" uid="31231" user="Andre68" changeset="13075722" lat="53.814586" lon="8.728176">
    <tag k="generator:output:electricity" v="1.3 MW"/>
    <tag k="generator:source" v="wind"/>
    <tag k="manufacturer" v="Nordex"/>
    <tag k="note" v="WEA NX-1017 1300 kW"/>
    <tag k="power" v="generator"/>
    <tag k="ref" v="NX-1017"/>
  </node>
  <node id="272129776" version="8" timestamp="2012-09-11T21:22:32Z" uid="31231" user="Andre68" changeset="13075722" lat="53.821649" lon="8.719441">
    <tag k="generator:output:electricity" v="1.3 MW"/>
    <tag k="generator:source" v="wind"/>
    <tag k="manufacturer" v="Nordex"/>
    <tag k="note" v="WEA NX-1016 1300 kW"/>
    <tag k="power" v="generator"/>
    <tag k="ref" v="NX-1016"/>
  </node>
  <node id="272129777" version="8" timestamp="2012-09-11T21:22:32Z" uid="31231" user="Andre68" changeset="13075722" lat="53.815624" lon="8.74231">
    <tag k="generator:output:electricity" v="1.3 MW"/>
    <tag k="generator:source" v="wind"/>
    <tag k="manufacturer" v="Nordex"/>
    <tag k="note" v="WEA NX-1019 1300 kW"/>
    <tag k="power" v="generator"/>
    <tag k="ref" v="NX-1019"/>
  </node>
  <node id="272129779" version="8" timestamp="2012-09-11T21:22:33Z" uid="31231" user="Andre68" changeset="13075722" lat="53.820967" lon="8.731644">
    <tag k="generator:output:electricity" v="1.3 MW"/>
    <tag k="generator:source" v="wind"/>
    <tag k="manufacturer" v="Nordex"/>
    <tag k="note" v="WEA NX-1018 1300 kW"/>
    <tag k="power" v="generator"/>
    <tag k="ref" v="NX-1018"/>
  </node>
  <node id="272129780" version="8" timestamp="2012-09-11T21:22:33Z" uid="31231" user="Andre68" changeset="13075722" lat="53.816084" lon="8.723048">
    <tag k="generator:output:electricity" v="1.3 MW"/>
    <tag k="generator:source" v="wind"/>
    <tag k="manufacturer" v="Nordex"/>
    <tag k="note" v="WEA NX-1020 1300 kW"/>
    <tag k="power" v="generator"/>
    <tag k="ref" v="NX-1020"/>
  </node>
  <node id="272129791" version="9" timestamp="2012-09-11T21:22:33Z" uid="31231" user="Andre68" changeset="13075722" lat="53.8238014" lon="8.7156828">
    <tag k="generator:output:electricity" v="1.3 MW"/>
    <tag k="generator:source" v="wind"/>
    <tag k="manufacturer" v="Nordex"/>
    <tag k="note" v="WEA NX-1027 1300 kW"/>
    <tag k="power" v="generator"/>
    <tag k="ref" v="NX-1027"/>
  </node>
  <node id="272129793" version="9" timestamp="2012-09-11T21:22:33Z" uid="31231" user="Andre68" changeset="13075722" lat="53.8215469" lon="8.714198">
    <tag k="generator:output:electricity" v="1.3 MW"/>
    <tag k="generator:source" v="wind"/>
    <tag k="manufacturer" v="Nordex"/>
    <tag k="note" v="WEA NX-1029 1300 kW"/>
    <tag k="power" v="generator"/>
    <tag k="ref" v="NX-1029"/>
  </node>
  <node id="272129872" version="8" timestamp="2012-09-11T21:22:33Z" uid="31231" user="Andre68" changeset="13075722" lat="51.534819" lon="8.558115">
    <tag k="generator:output:electricity" v="150 kW"/>
    <tag k="generator:source" v="wind"/>
    <tag k="power" v="generator"/>
    <tag k="ref" v="NX-115"/>
  </node>
  <node id="272129875" version="10" timestamp="2012-07-17T01:07:15Z" uid="722137" user="OSMF Redaction Account" changeset="12254539" lat="51.606003" lon="8.8009068">
    <tag k="generator:output:electricity" v="1.3 MW"/>
    <tag k="generator:source" v="wind"/>
    <tag k="note" v="WEA NX-1155 1300 kW"/>
    <tag k="power" v="generator"/>
    <tag k="power_rating" v="1300 kW"/>
    <tag k="power_source" v="wind"/>
    <tag k="ref" v="NX-1155"/>
  </node>
  <node id="272129875" version="11" timestamp="2012-09-11T21:22:34Z" uid="31231" user="Andre68" changeset="13075722" lat="51.606003" lon="8.8009068">
    <tag k="generator:output:electricity" v="1.3 MW"/>
    <tag k="generator:source" v="wind"/>
    <tag k="note" v="WEA NX-1155 1300 kW"/>
    <tag k="power" v="generator"/>
    <tag k="ref" v="NX-1155"/>
  </node>
  <node id="272129876" version="10" timestamp="2012-07-17T01:07:14Z" uid="722137" user="OSMF Redaction Account" changeset="12254539" lat="51.6057152" lon="8.7930447">
    <tag k="generator:output:electricity" v="1.3 MW"/>
    <tag k="generator:source" v="wind"/>
    <tag k="note" v="WEA NX-1153 1300 kW"/>
    <tag k="power" v="generator"/>
    <tag k="power_rating" v="1300 kW"/>
    <tag k="power_source" v="wind"/>
    <tag k="ref" v="NX-1153"/>
  </node>
  <node id="272129876" version="11" timestamp="2012-09-11T21:22:34Z" uid="31231" user="Andre68" changeset="13075722" lat="51.6057152" lon="8.7930447">
    <tag k="generator:output:electricity" v="1.3 MW"/>
    <tag k="generator:source" v="wind"/>
    <tag k="note" v="WEA NX-1153 1300 kW"/>
    <tag k="power" v="generator"/>
    <tag k="ref" v="NX-1153"/>
  </node>
  <node id="272129894" version="9" timestamp="2012-09-11T21:22:34Z" uid="31231" user="Andre68" changeset="13075722" lat="51.6111735" lon="8.789723">
    <tag k="generator:output:electricity" v="1.3 MW"/>
    <tag k="generator:source" v="wind"/>
    <tag k="note" v="WEA NX-1198 1300 kW"/>
    <tag k="power" v="generator"/>
    <tag k="ref" v="NX-1198"/>
  </node>
  <node id="272129903" version="9" timestamp="2012-09-11T21:22:34Z" uid="31231" user="Andre68" changeset="13075722" lat="51.6178515" lon="8.798864">
    <tag k="generator:output:electricity" v="1.3 MW"/>
    <tag k="generator:source" v="wind"/>
    <tag k="note" v="WEA NX-1213 1300 kW"/>
    <tag k="power" v="generator"/>
    <tag k="ref" v="NX-1213"/>
  </node>
  <node id="272129909" version="9" timestamp="2012-07-24T12:01:54Z" uid="114430" user="Chenshi" changeset="12464839" lat="52.9373406" lon="8.7739253">
    <tag k="generator:output:electricity" v="150 kW"/>
    <tag k="generator:source" v="wind"/>
    <tag k="note" v="WEA NX-121 150 kW"/>
    <tag k="power" v="generator"/>
    <tag k="ref" v="NX-121"/>
  </node>
  <node id="272129918" version="9" timestamp="2012-09-11T21:22:34Z" uid="31231" user="Andre68" changeset="13075722" lat="51.6204521" lon="8.8108975">
    <tag k="generator:output:electricity" v="1.3 MW"/>
    <tag k="generator:source" v="wind"/>
    <tag k="note" v="WEA NX-1230 1300 kW"/>
    <tag k="power" v="generator"/>
    <tag k="ref" v="NX-1230"/>
  </node>
  <node id="272129920" version="9" timestamp="2012-09-11T21:22:34Z" uid="31231" user="Andre68" changeset="13075722" lat="51.616711" lon="8.8134037">
    <tag k="generator:output:electricity" v="1.3 MW"/>
    <tag k="generator:source" v="wind"/>
    <tag k="note" v="WEA NX-1229 1300 kW"/>
    <tag k="power" v="generator"/>
    <tag k="ref" v="NX-1229"/>
  </node>
  <node id="272129921" version="9" timestamp="2012-07-24T12:01:54Z" uid="114430" user="Chenshi" changeset="12464839" lat="52.9380595" lon="8.7730178">
    <tag k="generator:output:electricity" v="150 kW"/>
    <tag k="generator:source" v="wind"/>
    <tag k="note" v="WEA NX-122 150 kW"/>
    <tag k="power" v="generator"/>
    <tag k="ref" v="NX-122"/>
  </node>
  <node id="272129923" version="9" timestamp="2012-09-11T21:22:35Z" uid="31231" user="Andre68" changeset="13075722" lat="51.620159" lon="8.7922207">
    <tag k="generator:output:electricity" v="1.3 MW"/>
    <tag k="generator:source" v="wind"/>
    <tag k="note" v="WEA NX-1215 1300 kW"/>
    <tag k="power" v="generator"/>
    <tag k="ref" v="NX-1215"/>
  </node>
  <node id="272129964" version="9" timestamp="2012-09-11T21:22:35Z" uid="31231" user="Andre68" changeset="13075722" lat="51.6138171" lon="8.7898432">
    <tag k="generator:output:electricity" v="1.3 MW"/>
    <tag k="generator:source" v="wind"/>
    <tag k="note" v="WEA NX-1269 1300 kW"/>
    <tag k="power" v="generator"/>
    <tag k="ref" v="NX-1269"/>
  </node>
  <node id="272129967" version="9" timestamp="2012-09-11T21:22:35Z" uid="31231" user="Andre68" changeset="13075722" lat="51.6204148" lon="8.7970616">
    <tag k="generator:output:electricity" v="1.3 MW"/>
    <tag k="generator:source" v="wind"/>
    <tag k="note" v="WEA NX-1270 1300 kW"/>
    <tag k="power" v="generator"/>
    <tag k="ref" v="NX-1270"/>
  </node>
  <node id="272129973" version="8" timestamp="2012-04-16T09:21:23Z" uid="139465" user="SteveK" changeset="11319631" lat="51.4142368" lon="8.537228">
    <tag k="generator:output:electricity" v="150 kW"/>
    <tag k="generator:source" v="wind"/>
    <tag k="odbl" v="clean"/>
    <tag k="power" v="generator"/>
    <tag k="ref" v="NX-131"/>
  </node>
  <node id="272129998" version="8" timestamp="2012-09-11T21:22:35Z" uid="31231" user="Andre68" changeset="13075722" lat="51.686908" lon="8.817007">
    <tag k="generator:output:electricity" v="1.3 MW"/>
    <tag k="generator:source" v="wind"/>
    <tag k="power" v="generator"/>
    <tag k="ref" v="NX-1362"/>
  </node>
</osm>
