<?xml version='1.0' encoding='UTF-8'?>
<osm version="0.6" generator="libosmium/2.20.0">
  <node id="274193074" version="3" timestamp="2008-07-03T01:08:15Z" uid="6975" user="ulfl" changeset="377243" lat="32.8225236" lon="-117.1814495">
    <tag k="shop" v="garden_centre"/>
  </node>
  <node id="274193074" version="4" timestamp="2009-10-14T19:25:47Z" uid="186198" user="zambone" changeset="2849319" lat="32.8225261" lon="-117.1814548">
    <tag k="shop" v="Home Depot"/>
  </node>
  <node id="274193074" version="5" timestamp="2009-10-14T19:29:32Z" uid="186198" user="zambone" changeset="2849393" lat="32.8226921" lon="-117.1814764">
    <tag k="shop" v="Home Depot"/>
  </node>
  <node id="274193074" version="6" timestamp="2010-02-26T06:42:58Z" uid="48060" user="Sat" changeset="3977881" lat="32.8225673" lon="-117.1813926">
    <tag k="name" v="Home Depot"/>
    <tag k="shop" v="doityourself"/>
  </node>
  <node id="274193224" version="3" timestamp="2008-07-06T09:43:22Z" uid="6975" user="ulfl" changeset="407266" lat="47.551485" lon="7.5950497">
    <tag k="name" v="Aeschenplatz"/>
    <tag k="railway" v="tram_stop"/>
  </node>
  <node id="274193224" version="4" timestamp="2010-11-10T07:16:24Z" uid="368211" user="DidokImportCH" changeset="6333593" lat="47.551485" lon="7.59505">
    <tag k="ele" v="275"/>
    <tag k="name" v="Aeschenplatz"/>
    <tag k="operator" v="BLT"/>
    <tag k="railway" v="tram_stop"/>
    <tag k="uic_name" v="Basel Aeschenplatz"/>
    <tag k="uic_ref" v="8500073"/>
  </node>
  <node id="274193224" version="5" timestamp="2011-10-09T19:39:31Z" uid="178186" user="mdk" changeset="9516388" lat="47.551485" lon="7.59505"/>
  <node id="274193415" version="2" timestamp="2008-07-03T01:08:14Z" uid="6975" user="ulfl" changeset="377243" lat="32.8217446" lon="-117.1791407">
    <tag k="name" v="Target"/>
    <tag k="shop" v="garden_centre"/>
  </node>
  <node id="274193415" version="3" timestamp="2010-02-26T06:43:02Z" uid="48060" user="Sat" changeset="3977881" lat="32.8217447" lon="-117.1791408">
    <tag k="name" v="Target"/>
    <tag k="shop" v="department_store"/>
  </node>
  <node id="274198243" version="6" timestamp="2010-09-02T21:56:10Z" uid="6975" user="ulfl" changeset="5666525" lat="42.0256318" lon="43.4959388">
    <tag k="ele" v="920"/>
    <tag k="mountain_pass" v="yes"/>
    <tag k="name" v="Surami pass"/>
    <tag k="wikipedia" v="http://en.wikipedia.org/wiki/Surami_Pass"/>
  </node>
  <node id="274193074" version="7" timestamp="2012-08-20T05:14:53Z" uid="48060" user="Sat" changeset="12791463" lat="32.8225673" lon="-117.1813926">
    <tag k="addr:housenumber" v="4255"/>
    <tag k="addr:postcode" v="92117"/>
    <tag k="addr:street" v="Genesee Avenue"/>
    <tag k="name" v="Home Depot"/>
    <tag k="shop" v="doityourself"/>
    <tag k="website" v="http://www.homedepot.com"/>
  </node>
  <node id="274198243" version="7" timestamp="2012-07-20T11:07:37Z" uid="722137" user="OSMF Redaction Account" changeset="12372403" lat="42.0256318" lon="43.4959388">
    <tag k="ele" v="920"/>
    <tag k="mountain_pass" v="yes"/>
    <tag k="name" v="Surami pass"/>
  </node>
</osm>
