<?xml version='1.0' encoding='UTF-8'?>
<osm version="0.6" generator="libosmium/2.20.0">
  <node id="275130492" version="6" timestamp="2009-05-01T17:52:38Z" uid="20587" user="balrog-kun" changeset="1039873" lat="51.7868612" lon="14.7727494">
    <tag k="addr:postcode" v="68-343"/>
    <tag k="created_by" v="Potlatch 0.9c"/>
    <tag k="is_in" v="gmina Brody, powiat żarski, województwo lubuskie, Poland"/>
    <tag k="is_in:country" v="Poland"/>
    <tag k="is_in:county" v="powiat żarski"/>
    <tag k="is_in:municipality" v="gmina Brody"/>
    <tag k="is_in:province" v="województwo lubuskie"/>
    <tag k="name" v="Brody"/>
    <tag k="place" v="village"/>
    <tag k="population" v="1070"/>
    <tag k="source:population" v="wikipedia"/>
    <tag k="teryt:rm" v="01"/>
    <tag k="teryt:simc" v="0908030"/>
    <tag k="teryt:stan_na" v="2009-01-01"/>
    <tag k="teryt:terc" v="0811032"/>
    <tag k="teryt:updated_by" v="teryt2osm combine.py v. 43"/>
    <tag k="wikipedia" v="Brody, Żary County"/>
  </node>
  <node id="275130492" version="7" timestamp="2010-04-11T04:38:19Z" uid="20587" user="balrog-kun" changeset="4389130" lat="51.7874728" lon="14.7728786">
    <tag k="addr:postcode" v="68-343"/>
    <tag k="is_in" v="gmina Brody, powiat żarski, województwo lubuskie, Poland"/>
    <tag k="is_in:country" v="Poland"/>
    <tag k="is_in:county" v="powiat żarski"/>
    <tag k="is_in:municipality" v="gmina Brody"/>
    <tag k="is_in:province" v="województwo lubuskie"/>
    <tag k="name" v="Brody"/>
    <tag k="place" v="village"/>
    <tag k="population" v="1070"/>
    <tag k="source:population" v="wikipedia"/>
    <tag k="teryt:rm" v="01"/>
    <tag k="teryt:simc" v="0908030"/>
    <tag k="teryt:stan_na" v="2009-01-01"/>
    <tag k="teryt:terc" v="0811032"/>
    <tag k="teryt:updated_by" v="teryt2osm combine.py v. 43"/>
    <tag k="wikipedia" v="Brody, Żary County"/>
  </node>
  <node id="275130492" version="8" timestamp="2010-11-02T20:02:25Z" uid="235372" user="miraculixOSM" changeset="6270903" lat="51.7874728" lon="14.7728786">
    <tag k="addr:postcode" v="68-343"/>
    <tag k="is_in" v="gmina Brody, powiat żarski, województwo lubuskie, Poland"/>
    <tag k="is_in:country" v="Poland"/>
    <tag k="is_in:county" v="powiat żarski"/>
    <tag k="is_in:municipality" v="gmina Brody"/>
    <tag k="is_in:province" v="województwo lubuskie"/>
    <tag k="name" v="Brody"/>
    <tag k="name:de" v="Pförten"/>
    <tag k="place" v="village"/>
    <tag k="population" v="1070"/>
    <tag k="source:population" v="wikipedia"/>
    <tag k="teryt:rm" v="01"/>
    <tag k="teryt:simc" v="0908030"/>
    <tag k="teryt:stan_na" v="2009-01-01"/>
    <tag k="teryt:terc" v="0811032"/>
    <tag k="teryt:updated_by" v="teryt2osm combine.py v. 43"/>
    <tag k="wikipedia" v="Brody, Żary County"/>
  </node>
  <node id="275130683" version="5" timestamp="2009-05-01T17:52:37Z" uid="20587" user="balrog-kun" changeset="1039873" lat="51.7971555" lon="14.7538657">
    <tag k="created_by" v="Potlatch 0.9c"/>
    <tag k="is_in" v="gmina Brody, powiat żarski, województwo lubuskie, Poland"/>
    <tag k="is_in:country" v="Poland"/>
    <tag k="is_in:county" v="powiat żarski"/>
    <tag k="is_in:municipality" v="gmina Brody"/>
    <tag k="is_in:province" v="województwo lubuskie"/>
    <tag k="name" v="Jeziory Dolne"/>
    <tag k="place" v="village"/>
    <tag k="population" v="165"/>
    <tag k="source:population" v="wikipedia"/>
    <tag k="teryt:rm" v="01"/>
    <tag k="teryt:simc" v="0908113"/>
    <tag k="teryt:stan_na" v="2009-01-01"/>
    <tag k="teryt:terc" v="0811032"/>
    <tag k="teryt:updated_by" v="teryt2osm combine.py v. 43"/>
    <tag k="wikipedia" v="Jeziory Dolne"/>
  </node>
  <node id="275130683" version="6" timestamp="2010-04-11T04:38:19Z" uid="20587" user="balrog-kun" changeset="4389130" lat="51.7966649" lon="14.754446">
    <tag k="is_in" v="gmina Brody, powiat żarski, województwo lubuskie, Poland"/>
    <tag k="is_in:country" v="Poland"/>
    <tag k="is_in:county" v="powiat żarski"/>
    <tag k="is_in:municipality" v="gmina Brody"/>
    <tag k="is_in:province" v="województwo lubuskie"/>
    <tag k="name" v="Jeziory Dolne"/>
    <tag k="place" v="village"/>
    <tag k="population" v="165"/>
    <tag k="source:population" v="wikipedia"/>
    <tag k="teryt:rm" v="01"/>
    <tag k="teryt:simc" v="0908113"/>
    <tag k="teryt:stan_na" v="2009-01-01"/>
    <tag k="teryt:terc" v="0811032"/>
    <tag k="teryt:updated_by" v="teryt2osm combine.py v. 43"/>
    <tag k="wikipedia" v="Jeziory Dolne"/>
  </node>
  <node id="275130683" version="7" timestamp="2010-11-10T23:40:52Z" uid="235372" user="miraculixOSM" changeset="6340592" lat="51.7966649" lon="14.754446">
    <tag k="is_in" v="gmina Brody, powiat żarski, województwo lubuskie, Poland"/>
    <tag k="is_in:country" v="Poland"/>
    <tag k="is_in:county" v="powiat żarski"/>
    <tag k="is_in:municipality" v="gmina Brody"/>
    <tag k="is_in:province" v="województwo lubuskie"/>
    <tag k="name" v="Jeziory Dolne"/>
    <tag k="name:de" v="Nieder Jeser"/>
    <tag k="place" v="village"/>
    <tag k="population" v="165"/>
    <tag k="source:population" v="wikipedia"/>
    <tag k="teryt:rm" v="01"/>
    <tag k="teryt:simc" v="0908113"/>
    <tag k="teryt:stan_na" v="2009-01-01"/>
    <tag k="teryt:terc" v="0811032"/>
    <tag k="teryt:updated_by" v="teryt2osm combine.py v. 43"/>
    <tag k="wikipedia" v="Jeziory Dolne"/>
  </node>
  <node id="275130704" version="1" timestamp="2008-07-01T07:02:42Z" uid="9581" user="Lobelt" changeset="353524" lat="51.7876603" lon="14.3433385">
    <tag k="railway" v="tram_stop"/>
  </node>
  <node id="275130704" version="2" timestamp="2008-12-03T14:06:50Z" uid="77025" user="tecs" changeset="89327" lat="51.7876603" lon="14.3433384">
    <tag k="created_by" v="Merkaartor 0.12"/>
    <tag k="name" v="Neu Schmellwitz"/>
    <tag k="railway" v="tram_stop"/>
  </node>
  <node id="275130704" version="3" timestamp="2011-03-23T19:49:34Z" uid="290680" user="wheelmap_visitor" changeset="7648876" lat="51.7876603" lon="14.3433384">
    <tag k="created_by" v="Merkaartor 0.12"/>
    <tag k="name" v="Neu Schmellwitz"/>
    <tag k="railway" v="tram_stop"/>
    <tag k="wheelchair" v="yes"/>
  </node>
  <node id="275130704" version="4" timestamp="2011-06-13T21:34:33Z" uid="28234" user="derandi" changeset="8431974" lat="51.7876625" lon="14.3433589">
    <tag k="name" v="Neu Schmellwitz"/>
    <tag k="railway" v="tram_stop"/>
    <tag k="wheelchair" v="yes"/>
  </node>
  <node id="275130704" version="5" timestamp="2011-06-17T00:55:50Z" uid="28234" user="derandi" changeset="8461219" lat="51.7876834" lon="14.3433567">
    <tag k="name" v="Neu Schmellwitz, Cottbus"/>
    <tag k="public_transport" v="stop_position"/>
    <tag k="railway" v="tram_stop"/>
    <tag k="tram" v="yes"/>
    <tag k="wheelchair" v="yes"/>
  </node>
  <node id="275130704" version="6" timestamp="2011-09-05T18:06:33Z" uid="28234" user="derandi" changeset="9220283" lat="51.7876834" lon="14.3433567"/>
  <node id="275130706" version="1" timestamp="2008-07-01T07:02:42Z" uid="9581" user="Lobelt" changeset="353524" lat="51.7849376" lon="14.3441561">
    <tag k="railway" v="tram_stop"/>
  </node>
  <node id="275130706" version="2" timestamp="2008-12-03T14:06:50Z" uid="77025" user="tecs" changeset="89327" lat="51.7849376" lon="14.3441561">
    <tag k="created_by" v="Merkaartor 0.12"/>
    <tag k="name" v="Zuschka"/>
    <tag k="railway" v="tram_stop"/>
  </node>
  <node id="275130706" version="3" timestamp="2011-03-23T19:49:33Z" uid="290680" user="wheelmap_visitor" changeset="7648876" lat="51.7849376" lon="14.3441561">
    <tag k="created_by" v="Merkaartor 0.12"/>
    <tag k="name" v="Zuschka"/>
    <tag k="railway" v="tram_stop"/>
    <tag k="wheelchair" v="yes"/>
  </node>
  <node id="275130706" version="4" timestamp="2011-06-17T00:55:50Z" uid="28234" user="derandi" changeset="8461219" lat="51.7849376" lon="14.3441561"/>
  <node id="275130707" version="1" timestamp="2008-07-01T07:02:42Z" uid="9581" user="Lobelt" changeset="353524" lat="51.774028" lon="14.3351174">
    <tag k="railway" v="tram_stop"/>
  </node>
  <node id="275130707" version="2" timestamp="2008-12-03T14:24:01Z" uid="77025" user="tecs" changeset="89327" lat="51.7740279" lon="14.3351174">
    <tag k="created_by" v="Merkaartor 0.12"/>
    <tag k="name" v="Nordfriedhof"/>
    <tag k="railway" v="tram_stop"/>
  </node>
  <node id="275130707" version="3" timestamp="2011-03-23T19:48:32Z" uid="290680" user="wheelmap_visitor" changeset="7648876" lat="51.7740279" lon="14.3351174">
    <tag k="created_by" v="Merkaartor 0.12"/>
    <tag k="name" v="Nordfriedhof"/>
    <tag k="railway" v="tram_stop"/>
    <tag k="wheelchair" v="yes"/>
  </node>
  <node id="275130707" version="4" timestamp="2011-06-24T19:24:27Z" uid="28234" user="derandi" changeset="8536098" lat="51.7740261" lon="14.3351834">
    <tag k="bus" v="yes"/>
    <tag k="highway" v="bus_stop"/>
    <tag k="name" v="Nordfriedhof, Cottbus"/>
    <tag k="public_transport" v="stop_position"/>
    <tag k="railway" v="tram_stop"/>
    <tag k="tram" v="yes"/>
    <tag k="wheelchair" v="yes"/>
  </node>
  <node id="275130707" version="5" timestamp="2011-08-31T14:38:47Z" uid="28234" user="derandi" changeset="9176843" lat="51.7740261" lon="14.3351834"/>
  <node id="275130708" version="1" timestamp="2008-07-01T07:02:42Z" uid="9581" user="Lobelt" changeset="353524" lat="51.7715601" lon="14.3410506">
    <tag k="railway" v="tram_stop"/>
  </node>
  <node id="275130708" version="2" timestamp="2008-12-03T14:06:51Z" uid="77025" user="tecs" changeset="89327" lat="51.7715601" lon="14.3410506">
    <tag k="created_by" v="Merkaartor 0.12"/>
    <tag k="name" v="Nordring"/>
    <tag k="railway" v="tram_stop"/>
  </node>
  <node id="275130708" version="3" timestamp="2011-03-23T19:50:36Z" uid="290680" user="wheelmap_visitor" changeset="7648876" lat="51.7715601" lon="14.3410506">
    <tag k="created_by" v="Merkaartor 0.12"/>
    <tag k="name" v="Nordring"/>
    <tag k="railway" v="tram_stop"/>
    <tag k="wheelchair" v="yes"/>
  </node>
  <node id="275130708" version="4" timestamp="2011-06-17T00:21:59Z" uid="28234" user="derandi" changeset="8461171" lat="51.7715421" lon="14.3412273">
    <tag k="name" v="Nordring, Cottbus"/>
    <tag k="public_transport" v="stop_position"/>
    <tag k="railway" v="tram_stop"/>
    <tag k="tram" v="yes"/>
    <tag k="wheelchair" v="yes"/>
  </node>
  <node id="275130708" version="5" timestamp="2011-08-31T14:38:39Z" uid="28234" user="derandi" changeset="9176843" lat="51.7715329" lon="14.3412125">
    <tag k="name" v="Nordring, Cottbus"/>
    <tag k="public_transport" v="stop_position"/>
    <tag k="railway" v="tram_stop"/>
    <tag k="tram" v="yes"/>
    <tag k="wheelchair" v="yes"/>
  </node>
  <node id="275130708" version="6" timestamp="2012-02-14T13:27:45Z" uid="15720" user="J budissin" changeset="10682781" lat="51.7715329" lon="14.3412125">
    <tag k="name" v="Nordring, Cottbus"/>
    <tag k="name:hsb" v="Połnocna wokolica"/>
    <tag k="public_transport" v="stop_position"/>
    <tag k="railway" v="tram_stop"/>
    <tag k="tram" v="yes"/>
    <tag k="wheelchair" v="yes"/>
  </node>
  <node id="275130708" version="7" timestamp="2012-02-26T13:36:49Z" uid="28234" user="derandi" changeset="10798235" lat="51.7715329" lon="14.3412125"/>
  <node id="275130716" version="1" timestamp="2008-07-01T07:02:43Z" uid="9581" user="Lobelt" changeset="353524" lat="51.7710457" lon="14.3349818">
    <tag k="railway" v="tram_stop"/>
  </node>
  <node id="275130716" version="2" timestamp="2008-12-03T14:24:01Z" uid="77025" user="tecs" changeset="89327" lat="51.7710457" lon="14.3349818">
    <tag k="created_by" v="Merkaartor 0.12"/>
    <tag k="name" v="Beuchstraße"/>
    <tag k="railway" v="tram_stop"/>
  </node>
  <node id="275130716" version="3" timestamp="2011-03-23T19:48:32Z" uid="290680" user="wheelmap_visitor" changeset="7648876" lat="51.7710457" lon="14.3349818">
    <tag k="created_by" v="Merkaartor 0.12"/>
    <tag k="name" v="Beuchstraße"/>
    <tag k="railway" v="tram_stop"/>
    <tag k="wheelchair" v="yes"/>
  </node>
  <node id="275130716" version="4" timestamp="2011-06-24T19:24:27Z" uid="28234" user="derandi" changeset="8536098" lat="51.7710423" lon="14.3350233">
    <tag k="bus" v="yes"/>
    <tag k="highway" v="bus_stop"/>
    <tag k="name" v="Beuchstr., Cottbus"/>
    <tag k="public_transport" v="stop_position"/>
    <tag k="railway" v="tram_stop"/>
    <tag k="tram" v="yes"/>
    <tag k="wheelchair" v="yes"/>
  </node>
  <node id="275130716" version="5" timestamp="2011-08-31T14:38:47Z" uid="28234" user="derandi" changeset="9176843" lat="51.7710423" lon="14.3350233"/>
  <node id="275130717" version="1" timestamp="2008-07-01T07:02:43Z" uid="9581" user="Lobelt" changeset="353524" lat="51.7654919" lon="14.3329745">
    <tag k="railway" v="tram_stop"/>
  </node>
  <node id="275130717" version="2" timestamp="2008-12-03T14:06:51Z" uid="77025" user="tecs" changeset="89327" lat="51.7654919" lon="14.3329745">
    <tag k="created_by" v="Merkaartor 0.12"/>
    <tag k="name" v="Zimmerstraße"/>
    <tag k="railway" v="tram_stop"/>
  </node>
  <node id="275130717" version="3" timestamp="2011-03-14T08:35:21Z" uid="290680" user="wheelmap_visitor" changeset="7553775" lat="51.7654919" lon="14.3329745">
    <tag k="created_by" v="Merkaartor 0.12"/>
    <tag k="name" v="Zimmerstraße"/>
    <tag k="railway" v="tram_stop"/>
    <tag k="wheelchair" v="yes"/>
  </node>
  <node id="275130717" version="4" timestamp="2011-06-15T01:25:09Z" uid="28234" user="derandi" changeset="8443478" lat="51.7654878" lon="14.3329922">
    <tag k="name" v="Zimmerstraße"/>
    <tag k="railway" v="tram_stop"/>
    <tag k="wheelchair" v="yes"/>
  </node>
  <node id="275130717" version="5" timestamp="2011-06-17T00:21:59Z" uid="28234" user="derandi" changeset="8461171" lat="51.7654878" lon="14.333011">
    <tag k="bus" v="yes"/>
    <tag k="highway" v="bus_stop"/>
    <tag k="name" v="Zimmerstr., Cottbus"/>
    <tag k="public_transport" v="stop_position"/>
    <tag k="railway" v="tram_stop"/>
    <tag k="tram" v="yes"/>
    <tag k="wheelchair" v="yes"/>
  </node>
  <node id="275130717" version="6" timestamp="2011-09-06T19:11:05Z" uid="28234" user="derandi" changeset="9230524" lat="51.7654878" lon="14.333011"/>
  <node id="275130719" version="1" timestamp="2008-07-01T07:02:43Z" uid="9581" user="Lobelt" changeset="353524" lat="51.7626565" lon="14.3454115">
    <tag k="railway" v="tram_stop"/>
  </node>
  <node id="275130719" version="2" timestamp="2008-12-03T14:06:51Z" uid="77025" user="tecs" changeset="89327" lat="51.7626565" lon="14.3454115">
    <tag k="created_by" v="Merkaartor 0.12"/>
    <tag k="name" v="Am Doll"/>
    <tag k="railway" v="tram_stop"/>
  </node>
  <node id="275130719" version="3" timestamp="2010-07-15T15:17:47Z" uid="163437" user="r-michael" changeset="5227595" lat="51.7626565" lon="14.3454115">
    <tag k="name" v="Am Doll"/>
    <tag k="railway" v="tram_stop"/>
  </node>
  <node id="275130719" version="4" timestamp="2011-03-23T19:47:32Z" uid="290680" user="wheelmap_visitor" changeset="7648876" lat="51.7626565" lon="14.3454115">
    <tag k="name" v="Am Doll"/>
    <tag k="railway" v="tram_stop"/>
    <tag k="wheelchair" v="yes"/>
  </node>
  <node id="275130719" version="5" timestamp="2011-06-14T18:16:16Z" uid="28234" user="derandi" changeset="8440106" lat="51.76265" lon="14.3454413">
    <tag k="name" v="Am Doll"/>
    <tag k="public_transport" v="stop_position"/>
    <tag k="railway" v="tram_stop"/>
    <tag k="tram" v="yes"/>
    <tag k="wheelchair" v="yes"/>
  </node>
  <node id="275130719" version="6" timestamp="2011-06-15T01:25:09Z" uid="28234" user="derandi" changeset="8443478" lat="51.7626403" lon="14.3453631">
    <tag k="name" v="Am Doll"/>
    <tag k="public_transport" v="stop_position"/>
    <tag k="railway" v="tram_stop"/>
    <tag k="tram" v="yes"/>
    <tag k="wheelchair" v="yes"/>
  </node>
  <node id="275130719" version="7" timestamp="2011-09-21T22:11:49Z" uid="28234" user="derandi" changeset="9364593" lat="51.7626403" lon="14.3453631"/>
  <node id="275130720" version="1" timestamp="2008-07-01T07:02:44Z" uid="9581" user="Lobelt" changeset="353524" lat="51.7626248" lon="14.3467143"/>
  <node id="275130720" version="2" timestamp="2011-06-14T18:16:18Z" uid="28234" user="derandi" changeset="8440106" lat="51.7626171" lon="14.3466541"/>
  <node id="275130720" version="3" timestamp="2011-09-13T22:58:09Z" uid="28234" user="derandi" changeset="9294720" lat="51.7626171" lon="14.3466541"/>
  <node id="275130722" version="1" timestamp="2008-07-01T07:02:44Z" uid="9581" user="Lobelt" changeset="353524" lat="51.7566262" lon="14.35364">
    <tag k="railway" v="tram_stop"/>
  </node>
  <node id="275130722" version="2" timestamp="2008-12-03T14:06:51Z" uid="77025" user="tecs" changeset="89327" lat="51.7566262" lon="14.35364">
    <tag k="created_by" v="Merkaartor 0.12"/>
    <tag k="name" v="Sandow"/>
    <tag k="railway" v="tram_stop"/>
  </node>
  <node id="275130722" version="3" timestamp="2010-07-15T15:17:51Z" uid="163437" user="r-michael" changeset="5227595" lat="51.7566262" lon="14.35364">
    <tag k="name" v="Sandow"/>
    <tag k="railway" v="tram_stop"/>
  </node>
  <node id="275130722" version="4" timestamp="2011-03-23T19:47:29Z" uid="290680" user="wheelmap_visitor" changeset="7648876" lat="51.7566262" lon="14.35364">
    <tag k="name" v="Sandow"/>
    <tag k="railway" v="tram_stop"/>
    <tag k="wheelchair" v="yes"/>
  </node>
  <node id="275130722" version="5" timestamp="2011-06-14T18:16:17Z" uid="28234" user="derandi" changeset="8440106" lat="51.7566063" lon="14.3536883">
    <tag k="name" v="Sandow"/>
    <tag k="network" v="VBB"/>
    <tag k="operator" v="Cottbusverkehr GmbH"/>
    <tag k="public_transport" v="stop_position"/>
    <tag k="railway" v="tram_stop"/>
    <tag k="tram" v="yes"/>
    <tag k="uic_name" v="Sandow, Cottbus"/>
    <tag k="uic_ref" v="742937"/>
    <tag k="wheelchair" v="yes"/>
  </node>
  <node id="275130722" version="6" timestamp="2011-09-21T22:11:49Z" uid="28234" user="derandi" changeset="9364593" lat="51.7566063" lon="14.3536883"/>
  <node id="275130723" version="1" timestamp="2008-07-01T07:02:44Z" uid="9581" user="Lobelt" changeset="353524" lat="51.7612567" lon="14.3252807">
    <tag k="railway" v="tram_stop"/>
  </node>
  <node id="275130723" version="2" timestamp="2008-07-29T11:30:20Z" uid="9581" user="Lobelt" changeset="621887" lat="51.7612707" lon="14.3252671">
    <tag k="railway" v="tram_stop"/>
  </node>
  <node id="275130723" version="3" timestamp="2008-12-03T14:24:01Z" uid="77025" user="tecs" changeset="89327" lat="51.7612707" lon="14.3252671">
    <tag k="created_by" v="Merkaartor 0.12"/>
    <tag k="name" v="Schillerstraße"/>
    <tag k="railway" v="tram_stop"/>
  </node>
  <node id="275130723" version="4" timestamp="2009-06-27T12:54:18Z" uid="69628" user="vsandre" changeset="1649815" lat="51.7612707" lon="14.3252671">
    <tag k="name" v="Schillerstraße"/>
    <tag k="railway" v="tram_stop"/>
  </node>
  <node id="275130723" version="5" timestamp="2010-01-25T15:58:16Z" uid="14029" user="MartinDornfelder" changeset="3712018" lat="51.7612707" lon="14.3252671">
    <tag k="name" v="Schillerstraße"/>
    <tag k="railway" v="tram_stop"/>
  </node>
  <node id="275130723" version="6" timestamp="2010-02-10T20:12:27Z" uid="230236" user="sekru" changeset="3843193" lat="51.7612711" lon="14.3250706">
    <tag k="name" v="Schillerstraße"/>
    <tag k="railway" v="tram_stop"/>
  </node>
  <node id="275130723" version="7" timestamp="2011-03-14T08:33:21Z" uid="290680" user="wheelmap_visitor" changeset="7553775" lat="51.7612711" lon="14.3250706">
    <tag k="name" v="Schillerstraße"/>
    <tag k="railway" v="tram_stop"/>
    <tag k="wheelchair" v="yes"/>
  </node>
  <node id="275130723" version="8" timestamp="2011-06-17T01:34:05Z" uid="28234" user="derandi" changeset="8461268" lat="51.761244" lon="14.3250365">
    <tag k="bus" v="yes"/>
    <tag k="highway" v="bus_stop"/>
    <tag k="name" v="Schillerstr., Cottbus"/>
    <tag k="public_transport" v="stop_position"/>
    <tag k="railway" v="tram_stop"/>
    <tag k="tram" v="yes"/>
    <tag k="wheelchair" v="yes"/>
  </node>
  <node id="275130723" version="9" timestamp="2011-08-21T01:21:22Z" uid="28234" user="derandi" changeset="9080115" lat="51.761244" lon="14.3250365">
    <tag k="bus" v="yes"/>
    <tag k="highway" v="bus_stop"/>
    <tag k="name" v="Schillerstraße"/>
    <tag k="public_transport" v="stop_position"/>
    <tag k="railway" v="tram_stop"/>
    <tag k="tram" v="yes"/>
    <tag k="wheelchair" v="yes"/>
  </node>
  <node id="275130723" version="10" timestamp="2012-02-14T13:58:43Z" uid="15720" user="J budissin" changeset="10682781" lat="51.761244" lon="14.3250365">
    <tag k="bus" v="yes"/>
    <tag k="highway" v="bus_stop"/>
    <tag k="name" v="Schillerstraße"/>
    <tag k="name:hsb" v="Schillerowa droga"/>
    <tag k="public_transport" v="stop_position"/>
    <tag k="railway" v="tram_stop"/>
    <tag k="tram" v="yes"/>
    <tag k="wheelchair" v="yes"/>
  </node>
  <node id="275130723" version="11" timestamp="2012-02-26T13:28:37Z" uid="28234" user="derandi" changeset="10798130" lat="51.761244" lon="14.3250365"/>
  <node id="275130726" version="1" timestamp="2008-07-01T07:02:44Z" uid="9581" user="Lobelt" changeset="353524" lat="51.7603977" lon="14.3195881">
    <tag k="railway" v="tram_stop"/>
  </node>
  <node id="275130726" version="2" timestamp="2008-12-03T14:24:01Z" uid="77025" user="tecs" changeset="89327" lat="51.7603976" lon="14.3195881">
    <tag k="created_by" v="Merkaartor 0.12"/>
    <tag k="name" v="Ströbitzer Weg"/>
    <tag k="railway" v="tram_stop"/>
  </node>
  <node id="275130726" version="3" timestamp="2011-03-14T08:47:29Z" uid="290680" user="wheelmap_visitor" changeset="7553775" lat="51.7603976" lon="14.3195881">
    <tag k="created_by" v="Merkaartor 0.12"/>
    <tag k="name" v="Ströbitzer Weg"/>
    <tag k="railway" v="tram_stop"/>
    <tag k="wheelchair" v="yes"/>
  </node>
  <node id="275130726" version="4" timestamp="2011-06-17T01:34:05Z" uid="28234" user="derandi" changeset="8461268" lat="51.7603757" lon="14.3196519">
    <tag k="bus" v="yes"/>
    <tag k="highway" v="bus_stop"/>
    <tag k="name" v="Ströbitzer Weg, Cottbus"/>
    <tag k="public_transport" v="stop_position"/>
    <tag k="railway" v="tram_stop"/>
    <tag k="tram" v="yes"/>
    <tag k="wheelchair" v="yes"/>
  </node>
  <node id="275130726" version="5" timestamp="2011-08-19T22:07:51Z" uid="28234" user="derandi" changeset="9069889" lat="51.7603757" lon="14.3196519">
    <tag k="bus" v="yes"/>
    <tag k="highway" v="bus_stop"/>
    <tag k="name" v="Ströbitzer Weg"/>
    <tag k="public_transport" v="stop_position"/>
    <tag k="railway" v="tram_stop"/>
    <tag k="tram" v="yes"/>
    <tag k="wheelchair" v="yes"/>
  </node>
  <node id="275130726" version="6" timestamp="2012-02-14T13:58:45Z" uid="15720" user="J budissin" changeset="10682781" lat="51.7603757" lon="14.3196519">
    <tag k="bus" v="yes"/>
    <tag k="highway" v="bus_stop"/>
    <tag k="name" v="Ströbitzer Weg"/>
    <tag k="name:hsb" v="Strobicański puś"/>
    <tag k="public_transport" v="stop_position"/>
    <tag k="railway" v="tram_stop"/>
    <tag k="tram" v="yes"/>
    <tag k="wheelchair" v="yes"/>
  </node>
  <node id="275130726" version="7" timestamp="2012-02-26T13:20:01Z" uid="28234" user="derandi" changeset="10798030" lat="51.7603757" lon="14.3196519"/>
  <node id="275130727" version="1" timestamp="2008-07-01T07:02:44Z" uid="9581" user="Lobelt" changeset="353524" lat="51.7588817" lon="14.3148813">
    <tag k="railway" v="tram_stop"/>
  </node>
  <node id="275130727" version="2" timestamp="2008-12-03T14:24:01Z" uid="77025" user="tecs" changeset="89327" lat="51.7588817" lon="14.3148813">
    <tag k="created_by" v="Merkaartor 0.12"/>
    <tag k="name" v="Waisenstraße"/>
    <tag k="railway" v="tram_stop"/>
  </node>
  <node id="275130727" version="3" timestamp="2011-03-14T08:32:16Z" uid="290680" user="wheelmap_visitor" changeset="7553775" lat="51.7588817" lon="14.3148813">
    <tag k="created_by" v="Merkaartor 0.12"/>
    <tag k="name" v="Waisenstraße"/>
    <tag k="railway" v="tram_stop"/>
    <tag k="wheelchair" v="yes"/>
  </node>
  <node id="275130727" version="4" timestamp="2011-06-17T01:34:05Z" uid="28234" user="derandi" changeset="8461268" lat="51.7588616" lon="14.3149056">
    <tag k="bus" v="yes"/>
    <tag k="highway" v="bus_stop"/>
    <tag k="name" v="Waisenstr., Cottbus"/>
    <tag k="public_transport" v="stop_position"/>
    <tag k="railway" v="tram_stop"/>
    <tag k="tram" v="yes"/>
    <tag k="wheelchair" v="yes"/>
  </node>
  <node id="275130727" version="5" timestamp="2011-08-19T22:07:51Z" uid="28234" user="derandi" changeset="9069889" lat="51.7588616" lon="14.3149056">
    <tag k="bus" v="yes"/>
    <tag k="highway" v="bus_stop"/>
    <tag k="name" v="Waisenstraße"/>
    <tag k="public_transport" v="stop_position"/>
    <tag k="railway" v="tram_stop"/>
    <tag k="tram" v="yes"/>
    <tag k="wheelchair" v="yes"/>
  </node>
  <node id="275130727" version="6" timestamp="2011-09-02T12:38:29Z" uid="28234" user="derandi" changeset="9192800" lat="51.7588616" lon="14.3149056"/>
  <node id="275130730" version="1" timestamp="2008-07-01T07:02:44Z" uid="9581" user="Lobelt" changeset="353524" lat="51.7569864" lon="14.3098473">
    <tag k="railway" v="tram_stop"/>
  </node>
  <node id="275130730" version="2" timestamp="2008-12-03T14:24:01Z" uid="77025" user="tecs" changeset="89327" lat="51.7569864" lon="14.3098473">
    <tag k="created_by" v="Merkaartor 0.12"/>
    <tag k="name" v="E.-Müller-Straße"/>
    <tag k="railway" v="tram_stop"/>
  </node>
  <node id="275130730" version="3" timestamp="2011-03-14T08:32:14Z" uid="290680" user="wheelmap_visitor" changeset="7553775" lat="51.7569864" lon="14.3098473">
    <tag k="created_by" v="Merkaartor 0.12"/>
    <tag k="name" v="E.-Müller-Straße"/>
    <tag k="railway" v="tram_stop"/>
    <tag k="wheelchair" v="yes"/>
  </node>
  <node id="275130730" version="4" timestamp="2011-06-17T01:34:05Z" uid="28234" user="derandi" changeset="8461268" lat="51.7569715" lon="14.3098743">
    <tag k="bus" v="yes"/>
    <tag k="highway" v="bus_stop"/>
    <tag k="name" v="Ewald-Müller-Str., Cottbus"/>
    <tag k="public_transport" v="stop_position"/>
    <tag k="railway" v="tram_stop"/>
    <tag k="tram" v="yes"/>
    <tag k="wheelchair" v="yes"/>
  </node>
  <node id="275130730" version="5" timestamp="2011-08-19T22:07:50Z" uid="28234" user="derandi" changeset="9069889" lat="51.7569715" lon="14.3098743">
    <tag k="bus" v="yes"/>
    <tag k="highway" v="bus_stop"/>
    <tag k="name" v="Ewald-Müller-Straße"/>
    <tag k="public_transport" v="stop_position"/>
    <tag k="railway" v="tram_stop"/>
    <tag k="tram" v="yes"/>
    <tag k="wheelchair" v="yes"/>
  </node>
  <node id="275130730" version="6" timestamp="2012-02-19T13:11:24Z" uid="15720" user="J budissin" changeset="10728807" lat="51.7569715" lon="14.3098743">
    <tag k="bus" v="yes"/>
    <tag k="highway" v="bus_stop"/>
    <tag k="name" v="Ewald-Müller-Straße"/>
    <tag k="name:hsb" v="E. Müllerowa droga"/>
    <tag k="public_transport" v="stop_position"/>
    <tag k="railway" v="tram_stop"/>
    <tag k="tram" v="yes"/>
    <tag k="wheelchair" v="yes"/>
  </node>
  <node id="275130730" version="7" timestamp="2012-02-26T13:14:15Z" uid="28234" user="derandi" changeset="10797973" lat="51.7569715" lon="14.3098743"/>
  <node id="275130734" version="1" timestamp="2008-07-01T07:02:44Z" uid="9581" user="Lobelt" changeset="353524" lat="51.7551819" lon="14.3044435">
    <tag k="railway" v="tram_stop"/>
  </node>
  <node id="275130734" version="2" timestamp="2008-12-03T14:24:01Z" uid="77025" user="tecs" changeset="89327" lat="51.7551818" lon="14.3044435">
    <tag k="created_by" v="Merkaartor 0.12"/>
    <tag k="name" v="Ströbitz, H.-Sachs-Straße"/>
    <tag k="railway" v="tram_stop"/>
  </node>
  <node id="275130734" version="3" timestamp="2011-03-14T08:32:15Z" uid="290680" user="wheelmap_visitor" changeset="7553775" lat="51.7551818" lon="14.3044435">
    <tag k="created_by" v="Merkaartor 0.12"/>
    <tag k="name" v="Ströbitz, H.-Sachs-Straße"/>
    <tag k="railway" v="tram_stop"/>
    <tag k="wheelchair" v="yes"/>
  </node>
  <node id="275130734" version="4" timestamp="2011-06-17T01:34:05Z" uid="28234" user="derandi" changeset="8461268" lat="51.7551734" lon="14.3044866">
    <tag k="name" v="Ewald-Müller-Str., Cottbus"/>
    <tag k="public_transport" v="stop_position"/>
    <tag k="railway" v="tram_stop"/>
    <tag k="tram" v="yes"/>
    <tag k="wheelchair" v="yes"/>
  </node>
  <node id="275130734" version="5" timestamp="2011-08-19T22:07:51Z" uid="28234" user="derandi" changeset="9069889" lat="51.7551734" lon="14.3044866">
    <tag k="name" v="Ströbitz"/>
    <tag k="public_transport" v="stop_position"/>
    <tag k="railway" v="tram_stop"/>
    <tag k="tram" v="yes"/>
    <tag k="wheelchair" v="yes"/>
  </node>
  <node id="275130734" version="6" timestamp="2011-09-02T10:13:03Z" uid="28234" user="derandi" changeset="9191814" lat="51.7551734" lon="14.3044866"/>
  <node id="275130735" version="1" timestamp="2008-07-01T07:02:44Z" uid="9581" user="Lobelt" changeset="353524" lat="51.747526" lon="14.3066677">
    <tag k="railway" v="tram_stop"/>
  </node>
  <node id="275130735" version="2" timestamp="2008-12-03T14:24:02Z" uid="77025" user="tecs" changeset="89327" lat="51.747526" lon="14.3066677">
    <tag k="created_by" v="Merkaartor 0.12"/>
    <tag k="name" v="Jessener Straße"/>
    <tag k="railway" v="tram_stop"/>
  </node>
  <node id="275130735" version="3" timestamp="2010-07-15T15:16:41Z" uid="163437" user="r-michael" changeset="5227595" lat="51.747526" lon="14.3066677">
    <tag k="name" v="Jessener Straße"/>
    <tag k="railway" v="tram_stop"/>
  </node>
  <node id="275130735" version="4" timestamp="2011-03-23T19:33:18Z" uid="290680" user="wheelmap_visitor" changeset="7648876" lat="51.747526" lon="14.3066677">
    <tag k="name" v="Jessener Straße"/>
    <tag k="railway" v="tram_stop"/>
    <tag k="wheelchair" v="yes"/>
  </node>
  <node id="275130735" version="5" timestamp="2011-06-14T11:51:09Z" uid="28234" user="derandi" changeset="8436499" lat="51.7475252" lon="14.3067984">
    <tag k="name" v="Jessener Straße"/>
    <tag k="railway" v="tram_stop"/>
    <tag k="wheelchair" v="yes"/>
  </node>
  <node id="275130735" version="6" timestamp="2011-06-15T02:00:49Z" uid="28234" user="derandi" changeset="8443554" lat="51.7475252" lon="14.3067984">
    <tag k="bus" v="yes"/>
    <tag k="highway" v="bus_stop"/>
    <tag k="name" v="Friedrich-List-Str."/>
    <tag k="public_transport" v="stop_position"/>
    <tag k="railway" v="tram_stop"/>
    <tag k="tram" v="yes"/>
    <tag k="wheelchair" v="limited"/>
  </node>
  <node id="275130735" version="7" timestamp="2011-06-16T23:43:27Z" uid="28234" user="derandi" changeset="8461097" lat="51.7475252" lon="14.3067984">
    <tag k="bus" v="yes"/>
    <tag k="highway" v="bus_stop"/>
    <tag k="name" v="Jessener Str."/>
    <tag k="public_transport" v="stop_position"/>
    <tag k="railway" v="tram_stop"/>
    <tag k="tram" v="yes"/>
    <tag k="wheelchair" v="limited"/>
  </node>
  <node id="275130735" version="8" timestamp="2011-09-09T21:12:46Z" uid="28234" user="derandi" changeset="9258053" lat="51.7475252" lon="14.3067984"/>
  <node id="275130736" version="1" timestamp="2008-07-01T07:02:45Z" uid="9581" user="Lobelt" changeset="353524" lat="51.7474264" lon="14.3072161"/>
  <node id="275130736" version="2" timestamp="2010-08-02T09:07:53Z" uid="116044" user="berndw" changeset="5378358" lat="51.7474101" lon="14.3074077"/>
  <node id="275130736" version="3" timestamp="2011-06-14T11:51:10Z" uid="28234" user="derandi" changeset="8436499" lat="51.7474608" lon="14.3072175"/>
  <node id="275130736" version="4" timestamp="2011-09-09T21:13:00Z" uid="28234" user="derandi" changeset="9258053" lat="51.7474608" lon="14.3072175"/>
  <node id="275130738" version="1" timestamp="2008-07-01T07:02:45Z" uid="9581" user="Lobelt" changeset="353524" lat="51.7474437" lon="14.3119344"/>
  <node id="275130738" version="2" timestamp="2011-06-15T02:00:50Z" uid="28234" user="derandi" changeset="8443554" lat="51.7474497" lon="14.3119634"/>
  <node id="275130738" version="3" timestamp="2011-09-09T21:13:00Z" uid="28234" user="derandi" changeset="9258053" lat="51.7474497" lon="14.3119634"/>
  <node id="275130740" version="1" timestamp="2008-07-01T07:02:45Z" uid="9581" user="Lobelt" changeset="353524" lat="51.7477357" lon="14.3141161"/>
  <node id="275130740" version="2" timestamp="2011-09-09T21:13:00Z" uid="28234" user="derandi" changeset="9258053" lat="51.7477357" lon="14.3141161"/>
  <node id="275130741" version="1" timestamp="2008-07-01T07:02:45Z" uid="9581" user="Lobelt" changeset="353524" lat="51.7495326" lon="14.3235903"/>
  <node id="275130741" version="2" timestamp="2011-06-05T23:16:42Z" uid="28234" user="derandi" changeset="8355440" lat="51.7495432" lon="14.3236398"/>
  <node id="275130741" version="3" timestamp="2011-06-14T11:51:10Z" uid="28234" user="derandi" changeset="8436499" lat="51.7495253" lon="14.3236501"/>
  <node id="275130741" version="4" timestamp="2011-09-09T21:13:00Z" uid="28234" user="derandi" changeset="9258053" lat="51.7495253" lon="14.3236501"/>
  <node id="275130743" version="1" timestamp="2008-07-01T07:02:45Z" uid="9581" user="Lobelt" changeset="353524" lat="51.7496632" lon="14.3247176"/>
  <node id="275130743" version="2" timestamp="2011-06-05T23:16:46Z" uid="28234" user="derandi" changeset="8355440" lat="51.7496801" lon="14.3247347"/>
  <node id="275130743" version="3" timestamp="2011-06-06T18:03:23Z" uid="28234" user="derandi" changeset="8362693" lat="51.7496626" lon="14.3246721"/>
  <node id="275130743" version="4" timestamp="2011-09-09T21:13:00Z" uid="28234" user="derandi" changeset="9258053" lat="51.7496626" lon="14.3246721"/>
  <node id="275130749" version="1" timestamp="2008-07-01T07:02:46Z" uid="9581" user="Lobelt" changeset="353524" lat="51.7450986" lon="14.3313724">
    <tag k="railway" v="tram_stop"/>
  </node>
  <node id="275130749" version="2" timestamp="2008-07-08T08:54:17Z" uid="9581" user="Lobelt" changeset="427893" lat="51.7450986" lon="14.3313724">
    <tag k="name" v="Ottilienstraße"/>
    <tag k="railway" v="tram_stop"/>
  </node>
  <node id="275130749" version="3" timestamp="2011-03-23T19:50:37Z" uid="290680" user="wheelmap_visitor" changeset="7648876" lat="51.7450986" lon="14.3313724">
    <tag k="name" v="Ottilienstraße"/>
    <tag k="railway" v="tram_stop"/>
    <tag k="wheelchair" v="yes"/>
  </node>
  <node id="275130749" version="4" timestamp="2011-06-14T09:12:04Z" uid="28234" user="derandi" changeset="8435107" lat="51.7449506" lon="14.3314372">
    <tag k="name" v="Ottilienstraße"/>
    <tag k="railway" v="tram_stop"/>
    <tag k="wheelchair" v="yes"/>
  </node>
  <node id="275130749" version="5" timestamp="2011-06-17T02:41:59Z" uid="28234" user="derandi" changeset="8461329" lat="51.7449377" lon="14.3314415">
    <tag k="bus" v="yes"/>
    <tag k="highway" v="bus_stop"/>
    <tag k="name" v="Ottilienstr., Cottbus"/>
    <tag k="public_transport" v="stop_position"/>
    <tag k="railway" v="tram_stop"/>
    <tag k="tram" v="yes"/>
    <tag k="wheelchair" v="yes"/>
  </node>
  <node id="275130749" version="6" timestamp="2011-10-03T21:27:26Z" uid="142426" user="S-Man42" changeset="9465018" lat="51.7449377" lon="14.3314415">
    <tag k="bus" v="yes"/>
    <tag k="highway" v="bus_stop"/>
    <tag k="name" v="Ottilienstraße, Cottbus"/>
    <tag k="public_transport" v="stop_position"/>
    <tag k="railway" v="tram_stop"/>
    <tag k="tram" v="yes"/>
    <tag k="wheelchair" v="yes"/>
  </node>
  <node id="275130749" version="7" timestamp="2012-02-14T00:21:04Z" uid="235372" user="miraculixOSM" changeset="10679221" lat="51.7449377" lon="14.3314415"/>
  <node id="275130751" version="1" timestamp="2008-07-01T07:02:46Z" uid="9581" user="Lobelt" changeset="353524" lat="51.7404746" lon="14.3341908">
    <tag k="railway" v="tram_stop"/>
  </node>
  <node id="275130751" version="2" timestamp="2008-07-08T08:54:18Z" uid="9581" user="Lobelt" changeset="427893" lat="51.7404746" lon="14.3341908">
    <tag k="name" v="Sportzentrum"/>
    <tag k="railway" v="tram_stop"/>
  </node>
  <node id="275130751" version="3" timestamp="2009-07-31T21:40:51Z" uid="51552" user="kfg" changeset="1998894" lat="51.7404746" lon="14.3341908">
    <tag k="name" v="Sportzentrum"/>
    <tag k="railway" v="tram_stop"/>
  </node>
  <node id="275130751" version="4" timestamp="2010-07-17T21:56:42Z" uid="235372" user="miraculixOSM" changeset="5246461" lat="51.7404746" lon="14.3341908">
    <tag k="name" v="Sportzentrum"/>
    <tag k="railway" v="tram_stop"/>
    <tag k="shelter" v="yes"/>
  </node>
  <node id="275130751" version="5" timestamp="2011-03-23T19:51:37Z" uid="290680" user="wheelmap_visitor" changeset="7648876" lat="51.7404746" lon="14.3341908">
    <tag k="name" v="Sportzentrum"/>
    <tag k="railway" v="tram_stop"/>
    <tag k="shelter" v="yes"/>
    <tag k="wheelchair" v="yes"/>
  </node>
  <node id="275130751" version="6" timestamp="2011-06-17T02:42:00Z" uid="28234" user="derandi" changeset="8461329" lat="51.7405471" lon="14.3341857">
    <tag k="name" v="Sportzentrum, Cottbus"/>
    <tag k="public_transport" v="stop_position"/>
    <tag k="railway" v="tram_stop"/>
    <tag k="tram" v="yes"/>
    <tag k="wheelchair" v="yes"/>
  </node>
  <node id="275130751" version="7" timestamp="2011-08-20T00:08:53Z" uid="28234" user="derandi" changeset="9070412" lat="51.7405471" lon="14.3341857">
    <tag k="name" v="Sportzentrum"/>
    <tag k="public_transport" v="stop_position"/>
    <tag k="railway" v="tram_stop"/>
    <tag k="tram" v="yes"/>
    <tag k="wheelchair" v="yes"/>
  </node>
  <node id="275130751" version="8" timestamp="2012-01-19T00:03:38Z" uid="235372" user="miraculixOSM" changeset="10433039" lat="51.7405471" lon="14.3341857"/>
  <node id="275130753" version="1" timestamp="2008-07-01T07:02:46Z" uid="9581" user="Lobelt" changeset="353524" lat="51.7376439" lon="14.3358276"/>
  <node id="275130753" version="2" timestamp="2011-03-05T02:04:11Z" uid="235372" user="miraculixOSM" changeset="7459715" lat="51.7376224" lon="14.3358485"/>
  <node id="275130753" version="3" timestamp="2011-06-14T09:12:05Z" uid="28234" user="derandi" changeset="8435107" lat="51.7376996" lon="14.3358392"/>
  <node id="275130753" version="4" timestamp="2011-09-24T23:54:21Z" uid="28234" user="derandi" changeset="9388854" lat="51.7376996" lon="14.3358392"/>
  <node id="275130755" version="1" timestamp="2008-07-01T07:02:46Z" uid="9581" user="Lobelt" changeset="353524" lat="51.7379166" lon="14.3356695"/>
  <node id="275130755" version="2" timestamp="2011-06-14T08:56:24Z" uid="28234" user="derandi" changeset="8434959" lat="51.7379199" lon="14.3357081"/>
  <node id="275130755" version="3" timestamp="2011-06-14T09:12:05Z" uid="28234" user="derandi" changeset="8435107" lat="51.7378467" lon="14.3357644"/>
  <node id="275130755" version="4" timestamp="2011-06-14T09:13:00Z" uid="28234" user="derandi" changeset="8435118" lat="51.7378467" lon="14.3357644">
    <tag k="crossing" v="traffic_signals"/>
    <tag k="highway" v="traffic_signals"/>
  </node>
  <node id="275130755" version="5" timestamp="2011-06-16T22:51:02Z" uid="28234" user="derandi" changeset="8460937" lat="51.7378467" lon="14.3357644"/>
  <node id="275130755" version="6" timestamp="2011-09-24T23:54:21Z" uid="28234" user="derandi" changeset="9388854" lat="51.7378467" lon="14.3357644"/>
  <node id="275130757" version="1" timestamp="2008-07-01T07:02:47Z" uid="9581" user="Lobelt" changeset="353524" lat="51.7315991" lon="14.3394793"/>
  <node id="275130757" version="2" timestamp="2011-06-16T22:57:15Z" uid="28234" user="derandi" changeset="8460951" lat="51.731611" lon="14.3395275">
    <tag k="highway" v="traffic_signals"/>
  </node>
  <node id="275130757" version="3" timestamp="2011-12-02T19:06:42Z" uid="28234" user="derandi" changeset="10019290" lat="51.731611" lon="14.3395275"/>
  <node id="275130759" version="1" timestamp="2008-07-01T07:02:47Z" uid="9581" user="Lobelt" changeset="353524" lat="51.7249694" lon="14.3432344"/>
  <node id="275130759" version="2" timestamp="2008-11-05T09:57:33Z" uid="9581" user="Lobelt" changeset="684166" lat="51.7249937" lon="14.3433433"/>
  <node id="275130759" version="3" timestamp="2011-12-04T20:26:51Z" uid="28234" user="derandi" changeset="10037216" lat="51.7249937" lon="14.3433433"/>
  <node id="275130760" version="1" timestamp="2008-07-01T07:02:47Z" uid="9581" user="Lobelt" changeset="353524" lat="51.7369224" lon="14.3241637"/>
  <node id="275130760" version="2" timestamp="2008-11-30T20:33:30Z" uid="30526" user="MontyM" changeset="815094" lat="51.7369224" lon="14.3241637"/>
  <node id="275130760" version="3" timestamp="2011-06-14T22:44:21Z" uid="28234" user="derandi" changeset="8442896" lat="51.7369161" lon="14.3241435"/>
  <node id="275130760" version="4" timestamp="2011-06-14T23:04:07Z" uid="28234" user="derandi" changeset="8442989" lat="51.7369085" lon="14.3241449"/>
  <node id="275130760" version="5" timestamp="2011-09-28T23:33:33Z" uid="28234" user="derandi" changeset="9423915" lat="51.7369085" lon="14.3241449"/>
  <node id="275130762" version="1" timestamp="2008-07-01T07:02:47Z" uid="9581" user="Lobelt" changeset="353524" lat="51.7346636" lon="14.3260082"/>
  <node id="275130762" version="2" timestamp="2008-12-14T19:46:34Z" uid="30526" user="MontyM" changeset="374231" lat="51.7346636" lon="14.3260082"/>
  <node id="275130762" version="3" timestamp="2011-06-14T23:04:07Z" uid="28234" user="derandi" changeset="8442989" lat="51.7346752" lon="14.326021"/>
  <node id="275130762" version="4" timestamp="2011-10-02T15:04:49Z" uid="28234" user="derandi" changeset="9451668" lat="51.7346752" lon="14.326021"/>
  <node id="275130764" version="1" timestamp="2008-07-01T07:02:47Z" uid="9581" user="Lobelt" changeset="353524" lat="51.7274187" lon="14.3264569"/>
  <node id="275130764" version="2" timestamp="2011-12-12T18:57:33Z" uid="28234" user="derandi" changeset="10101722" lat="51.7274187" lon="14.3264569"/>
  <node id="275130766" version="1" timestamp="2008-07-01T07:02:47Z" uid="9581" user="Lobelt" changeset="353524" lat="51.7245132" lon="14.3259405"/>
  <node id="275130766" version="2" timestamp="2011-06-13T13:41:05Z" uid="46793" user="pruritus" changeset="8426522" lat="51.7244854" lon="14.3259427"/>
  <node id="275130766" version="3" timestamp="2011-06-15T00:06:55Z" uid="28234" user="derandi" changeset="8443238" lat="51.7245025" lon="14.3259758"/>
  <node id="275130766" version="4" timestamp="2011-12-12T23:16:17Z" uid="235372" user="miraculixOSM" changeset="10104065" lat="51.7245025" lon="14.3259758"/>
  <node id="275130767" version="1" timestamp="2008-07-01T07:02:47Z" uid="9581" user="Lobelt" changeset="353524" lat="51.724221" lon="14.3259562">
    <tag k="railway" v="tram_stop"/>
  </node>
  <node id="275130767" version="2" timestamp="2008-07-08T08:54:18Z" uid="9581" user="Lobelt" changeset="427893" lat="51.724221" lon="14.3259562">
    <tag k="name" v="Schwarzheider Straße"/>
    <tag k="railway" v="tram_stop"/>
  </node>
  <node id="275130767" version="3" timestamp="2011-03-23T19:42:28Z" uid="290680" user="wheelmap_visitor" changeset="7648876" lat="51.724221" lon="14.3259562">
    <tag k="name" v="Schwarzheider Straße"/>
    <tag k="railway" v="tram_stop"/>
    <tag k="wheelchair" v="yes"/>
  </node>
  <node id="275130767" version="4" timestamp="2011-06-15T00:06:54Z" uid="28234" user="derandi" changeset="8443238" lat="51.7242275" lon="14.3259845">
    <tag k="name" v="Schwarzheider Str."/>
    <tag k="public_transport" v="stop_position"/>
    <tag k="railway" v="tram_stop"/>
    <tag k="ref" v="Schwarzheider Str., Cottbus"/>
    <tag k="tram" v="yes"/>
    <tag k="wheelchair" v="yes"/>
  </node>
  <node id="275130767" version="5" timestamp="2012-01-03T12:22:13Z" uid="70696" user="xybot" changeset="10280647" lat="51.7242275" lon="14.3259845">
    <tag k="name" v="Schwarzheider Straße"/>
    <tag k="public_transport" v="stop_position"/>
    <tag k="railway" v="tram_stop"/>
    <tag k="ref" v="Schwarzheider Str., Cottbus"/>
    <tag k="tram" v="yes"/>
    <tag k="wheelchair" v="yes"/>
  </node>
  <node id="275130767" version="6" timestamp="2012-02-12T01:36:49Z" uid="235372" user="miraculixOSM" changeset="10659228" lat="51.7242017" lon="14.3260059">
    <tag k="name" v="Schwarzheider Straße"/>
    <tag k="public_transport" v="stop_position"/>
    <tag k="railway" v="tram_stop"/>
    <tag k="ref" v="Schwarzheider Str., Cottbus"/>
    <tag k="tram" v="yes"/>
    <tag k="wheelchair" v="yes"/>
  </node>
  <node id="275130767" version="7" timestamp="2012-02-13T20:25:51Z" uid="15720" user="J budissin" changeset="10676724" lat="51.7242017" lon="14.3260059">
    <tag k="name" v="Schwarzheider Straße"/>
    <tag k="name:hsb" v="Carnogozdźańska droga"/>
    <tag k="public_transport" v="stop_position"/>
    <tag k="railway" v="tram_stop"/>
    <tag k="ref" v="Schwarzheider Str., Cottbus"/>
    <tag k="tram" v="yes"/>
    <tag k="wheelchair" v="yes"/>
  </node>
  <node id="275130767" version="8" timestamp="2012-02-22T01:36:54Z" uid="235372" user="miraculixOSM" changeset="10755495" lat="51.7242017" lon="14.3260059"/>
  <node id="275130768" version="1" timestamp="2008-07-01T07:02:47Z" uid="9581" user="Lobelt" changeset="353524" lat="51.721324" lon="14.3258898">
    <tag k="railway" v="tram_stop"/>
  </node>
  <node id="275130768" version="2" timestamp="2008-07-08T08:54:17Z" uid="9581" user="Lobelt" changeset="427893" lat="51.721324" lon="14.3258898">
    <tag k="name" v="Sachsendorf"/>
    <tag k="railway" v="tram_stop"/>
  </node>
  <node id="275130768" version="3" timestamp="2011-03-23T19:42:28Z" uid="290680" user="wheelmap_visitor" changeset="7648876" lat="51.721324" lon="14.3258898">
    <tag k="name" v="Sachsendorf"/>
    <tag k="railway" v="tram_stop"/>
    <tag k="wheelchair" v="yes"/>
  </node>
  <node id="275130768" version="4" timestamp="2011-06-15T00:06:54Z" uid="28234" user="derandi" changeset="8443238" lat="51.721264" lon="14.3258834">
    <tag k="name" v="Sachsendorf"/>
    <tag k="public_transport" v="stop_position"/>
    <tag k="railway" v="tram_stop"/>
    <tag k="ref" v="Sachsendorf, Cottbus"/>
    <tag k="tram" v="yes"/>
    <tag k="wheelchair" v="yes"/>
  </node>
  <node id="275130768" version="5" timestamp="2012-02-12T01:36:50Z" uid="235372" user="miraculixOSM" changeset="10659228" lat="51.721264" lon="14.3258834"/>
  <node id="275131220" version="5" timestamp="2009-05-01T17:52:27Z" uid="20587" user="balrog-kun" changeset="1039873" lat="51.6974641" lon="14.8548026">
    <tag k="created_by" v="Potlatch 0.9c"/>
    <tag k="is_in" v="gmina Tuplice, powiat żarski, województwo lubuskie, Poland"/>
    <tag k="is_in:country" v="Poland"/>
    <tag k="is_in:county" v="powiat żarski"/>
    <tag k="is_in:municipality" v="gmina Tuplice"/>
    <tag k="is_in:province" v="województwo lubuskie"/>
    <tag k="name" v="Łazy"/>
    <tag k="place" v="village"/>
    <tag k="teryt:rm" v="01"/>
    <tag k="teryt:simc" v="0916176"/>
    <tag k="teryt:stan_na" v="2009-01-01"/>
    <tag k="teryt:terc" v="0811092"/>
    <tag k="teryt:updated_by" v="teryt2osm combine.py v. 43"/>
    <tag k="wikipedia" v="Łazy, Żary County"/>
  </node>
  <node id="275131220" version="6" timestamp="2010-04-11T04:38:19Z" uid="20587" user="balrog-kun" changeset="4389130" lat="51.6969199" lon="14.8543008">
    <tag k="is_in" v="gmina Tuplice, powiat żarski, województwo lubuskie, Poland"/>
    <tag k="is_in:country" v="Poland"/>
    <tag k="is_in:county" v="powiat żarski"/>
    <tag k="is_in:municipality" v="gmina Tuplice"/>
    <tag k="is_in:province" v="województwo lubuskie"/>
    <tag k="name" v="Łazy"/>
    <tag k="place" v="village"/>
    <tag k="teryt:rm" v="01"/>
    <tag k="teryt:simc" v="0916176"/>
    <tag k="teryt:stan_na" v="2009-01-01"/>
    <tag k="teryt:terc" v="0811092"/>
    <tag k="teryt:updated_by" v="teryt2osm combine.py v. 43"/>
    <tag k="wikipedia" v="Łazy, Żary County"/>
  </node>
  <node id="275131882" version="4" timestamp="2011-01-11T04:24:29Z" uid="4467" user="Rosscoe" changeset="6933385" lat="-38.4288263" lon="146.5659969"/>
  <node id="275131885" version="11" timestamp="2009-02-24T09:57:01Z" uid="49111" user="Markus B" changeset="649769" lat="48.7208058" lon="13.2813757"/>
  <node id="275131885" version="12" timestamp="2011-03-02T06:08:42Z" uid="149876" user="dbusse" changeset="7435422" lat="48.7209235" lon="13.2814861"/>
  <node id="275131885" version="13" timestamp="2011-05-16T20:25:36Z" uid="149876" user="dbusse" changeset="8166291" lat="48.7205336" lon="13.2810837"/>
  <node id="275132254" version="2" timestamp="2009-02-24T09:57:00Z" uid="49111" user="Markus B" changeset="649769" lat="48.7225989" lon="13.2785622"/>
  <node id="275132254" version="3" timestamp="2011-05-16T19:39:54Z" uid="149876" user="dbusse" changeset="8165810" lat="48.7226763" lon="13.2783711"/>
  <node id="275132255" version="2" timestamp="2009-02-24T09:57:00Z" uid="49111" user="Markus B" changeset="649769" lat="48.7234102" lon="13.2751028"/>
  <node id="275132255" version="3" timestamp="2010-01-30T12:57:29Z" uid="33223" user="k127" changeset="3750687" lat="48.723187" lon="13.2746799"/>
  <node id="275132255" version="4" timestamp="2011-05-11T17:30:48Z" uid="149876" user="dbusse" changeset="8114343" lat="48.7232203" lon="13.2745368"/>
  <node id="275132256" version="2" timestamp="2009-02-24T09:57:00Z" uid="49111" user="Markus B" changeset="649769" lat="48.7244124" lon="13.2756865"/>
  <node id="275132256" version="3" timestamp="2010-01-30T12:57:29Z" uid="33223" user="k127" changeset="3750687" lat="48.724101" lon="13.2758942"/>
  <node id="275132256" version="4" timestamp="2011-05-16T19:39:50Z" uid="149876" user="dbusse" changeset="8165810" lat="48.7238112" lon="13.2756762"/>
  <node id="275132681" version="12" timestamp="2009-02-24T09:57:01Z" uid="49111" user="Markus B" changeset="649769" lat="48.7216493" lon="13.2822438"/>
  <node id="275132681" version="13" timestamp="2011-05-16T20:25:36Z" uid="149876" user="dbusse" changeset="8166291" lat="48.7215221" lon="13.2823067"/>
  <node id="275132682" version="12" timestamp="2009-02-24T09:57:01Z" uid="49111" user="Markus B" changeset="649769" lat="48.7209359" lon="13.2848187"/>
  <node id="275132682" version="13" timestamp="2011-05-16T20:25:41Z" uid="149876" user="dbusse" changeset="8166291" lat="48.7212152" lon="13.2831547"/>
  <node id="275132684" version="3" timestamp="2009-02-24T09:57:01Z" uid="49111" user="Markus B" changeset="649769" lat="48.7213268" lon="13.2855385"/>
  <node id="275132684" version="4" timestamp="2011-05-16T20:25:33Z" uid="149876" user="dbusse" changeset="8166291" lat="48.721324" lon="13.2851697"/>
  <node id="275132685" version="5" timestamp="2009-02-24T09:57:01Z" uid="49111" user="Markus B" changeset="649769" lat="48.7218192" lon="13.2884065"/>
  <node id="275132685" version="6" timestamp="2011-05-16T20:25:40Z" uid="149876" user="dbusse" changeset="8166291" lat="48.7221261" lon="13.2875892"/>
  <node id="275132686" version="9" timestamp="2009-02-24T09:57:01Z" uid="49111" user="Markus B" changeset="649769" lat="48.7242936" lon="13.2906552"/>
  <node id="275132686" version="10" timestamp="2010-01-30T12:57:29Z" uid="33223" user="k127" changeset="3750687" lat="48.7242107" lon="13.2903265"/>
  <node id="275132686" version="11" timestamp="2011-05-16T20:25:36Z" uid="149876" user="dbusse" changeset="8166291" lat="48.7241888" lon="13.2902485"/>
  <node id="275133201" version="7" timestamp="2009-02-24T09:57:01Z" uid="49111" user="Markus B" changeset="649769" lat="48.7252675" lon="13.2873422"/>
  <node id="275133201" version="8" timestamp="2010-01-30T12:57:48Z" uid="33223" user="k127" changeset="3750687" lat="48.7252675" lon="13.2873422"/>
  <node id="275133202" version="4" timestamp="2009-02-24T09:57:01Z" uid="49111" user="Markus B" changeset="649769" lat="48.7254996" lon="13.2820121"/>
  <node id="275133202" version="5" timestamp="2010-01-30T12:57:30Z" uid="33223" user="k127" changeset="3750687" lat="48.7261819" lon="13.2817704"/>
  <node id="275133365" version="4" timestamp="2009-02-24T09:57:01Z" uid="49111" user="Markus B" changeset="649769" lat="48.7260318" lon="13.2818833"/>
  <node id="275133365" version="5" timestamp="2010-01-30T12:57:29Z" uid="33223" user="k127" changeset="3750687" lat="48.7267651" lon="13.2817576"/>
  <node id="275133365" version="6" timestamp="2011-05-16T19:19:01Z" uid="149876" user="dbusse" changeset="8165551" lat="48.7267806" lon="13.2816771"/>
  <node id="275133366" version="6" timestamp="2009-02-24T09:57:01Z" uid="49111" user="Markus B" changeset="649769" lat="48.7260488" lon="13.2866898"/>
  <node id="275133366" version="7" timestamp="2011-05-16T19:19:06Z" uid="149876" user="dbusse" changeset="8165551" lat="48.7261373" lon="13.2866791"/>
  <node id="275133367" version="4" timestamp="2009-02-24T09:57:01Z" uid="49111" user="Markus B" changeset="649769" lat="48.7274926" lon="13.2871362"/>
  <node id="275133367" version="5" timestamp="2011-05-16T19:39:52Z" uid="149876" user="dbusse" changeset="8165810" lat="48.7276308" lon="13.2870901"/>
  <node id="275133368" version="4" timestamp="2009-02-24T09:57:02Z" uid="49111" user="Markus B" changeset="649769" lat="48.7279738" lon="13.2863894"/>
  <node id="275133368" version="5" timestamp="2011-05-16T19:39:54Z" uid="149876" user="dbusse" changeset="8165810" lat="48.7282392" lon="13.2866493"/>
  <node id="275133369" version="4" timestamp="2009-02-24T09:57:02Z" uid="49111" user="Markus B" changeset="649769" lat="48.7286234" lon="13.2848492"/>
  <node id="275133369" version="5" timestamp="2010-01-30T12:57:31Z" uid="33223" user="k127" changeset="3750687" lat="48.7289932" lon="13.2844335"/>
  <node id="275133369" version="6" timestamp="2011-05-16T19:39:51Z" uid="149876" user="dbusse" changeset="8165810" lat="48.7291314" lon="13.2844838"/>
  <node id="275133370" version="4" timestamp="2009-02-24T09:57:02Z" uid="49111" user="Markus B" changeset="649769" lat="48.728397" lon="13.282446"/>
  <node id="275133370" version="5" timestamp="2010-01-30T12:57:30Z" uid="33223" user="k127" changeset="3750687" lat="48.7289581" lon="13.281663"/>
  <node id="275133732" version="5" timestamp="2009-05-01T17:53:17Z" uid="20587" user="balrog-kun" changeset="1039873" lat="51.7870688" lon="15.1215644">
    <tag k="created_by" v="Potlatch 0.9c"/>
    <tag k="is_in" v="gmina Jasień, powiat żarski, województwo lubuskie, Poland"/>
    <tag k="is_in:country" v="Poland"/>
    <tag k="is_in:county" v="powiat żarski"/>
    <tag k="is_in:municipality" v="gmina Jasień"/>
    <tag k="is_in:province" v="województwo lubuskie"/>
    <tag k="name" v="Zabłocie"/>
    <tag k="place" v="village"/>
    <tag k="teryt:rm" v="01"/>
    <tag k="teryt:simc" v="0909963"/>
    <tag k="teryt:stan_na" v="2009-01-01"/>
    <tag k="teryt:terc" v="0811045"/>
    <tag k="teryt:updated_by" v="teryt2osm combine.py v. 43"/>
    <tag k="wikipedia" v="Zabłocie, Lubusz Voivodeship"/>
  </node>
  <node id="275133732" version="6" timestamp="2010-04-11T04:38:20Z" uid="20587" user="balrog-kun" changeset="4389130" lat="51.7870272" lon="15.1215001">
    <tag k="is_in" v="gmina Jasień, powiat żarski, województwo lubuskie, Poland"/>
    <tag k="is_in:country" v="Poland"/>
    <tag k="is_in:county" v="powiat żarski"/>
    <tag k="is_in:municipality" v="gmina Jasień"/>
    <tag k="is_in:province" v="województwo lubuskie"/>
    <tag k="name" v="Zabłocie"/>
    <tag k="place" v="village"/>
    <tag k="teryt:rm" v="01"/>
    <tag k="teryt:simc" v="0909963"/>
    <tag k="teryt:stan_na" v="2009-01-01"/>
    <tag k="teryt:terc" v="0811045"/>
    <tag k="teryt:updated_by" v="teryt2osm combine.py v. 43"/>
    <tag k="wikipedia" v="Zabłocie, Lubusz Voivodeship"/>
  </node>
  <node id="275133732" version="7" timestamp="2010-06-06T14:15:55Z" uid="48534" user="stsa" changeset="4918044" lat="51.7869555" lon="15.1247434">
    <tag k="is_in" v="gmina Jasień, powiat żarski, województwo lubuskie, Poland"/>
    <tag k="is_in:country" v="Poland"/>
    <tag k="is_in:county" v="powiat żarski"/>
    <tag k="is_in:municipality" v="gmina Jasień"/>
    <tag k="is_in:province" v="województwo lubuskie"/>
    <tag k="name" v="Zabłocie"/>
    <tag k="place" v="village"/>
    <tag k="teryt:rm" v="01"/>
    <tag k="teryt:simc" v="0909963"/>
    <tag k="teryt:stan_na" v="2009-01-01"/>
    <tag k="teryt:terc" v="0811045"/>
    <tag k="teryt:updated_by" v="teryt2osm combine.py v. 43"/>
    <tag k="wikipedia" v="Zabłocie, Lubusz Voivodeship"/>
  </node>
  <node id="275133732" version="8" timestamp="2010-12-12T21:37:35Z" uid="235372" user="miraculixOSM" changeset="6642295" lat="51.7869555" lon="15.1247434">
    <tag k="is_in" v="gmina Jasień, powiat żarski, województwo lubuskie, Poland"/>
    <tag k="is_in:country" v="Poland"/>
    <tag k="is_in:county" v="powiat żarski"/>
    <tag k="is_in:municipality" v="gmina Jasień"/>
    <tag k="is_in:province" v="województwo lubuskie"/>
    <tag k="name" v="Zabłocie"/>
    <tag k="name:de" v="Raudenberg"/>
    <tag k="place" v="village"/>
    <tag k="teryt:rm" v="01"/>
    <tag k="teryt:simc" v="0909963"/>
    <tag k="teryt:stan_na" v="2009-01-01"/>
    <tag k="teryt:terc" v="0811045"/>
    <tag k="teryt:updated_by" v="teryt2osm combine.py v. 43"/>
    <tag k="wikipedia" v="Zabłocie, Lubusz Voivodeship"/>
  </node>
  <node id="275133740" version="1" timestamp="2008-07-01T07:12:11Z" uid="43863" user="Rundling" changeset="352415" lat="52.9938783" lon="10.7666825"/>
  <node id="275133754" version="1" timestamp="2008-07-01T07:12:15Z" uid="43863" user="Rundling" changeset="352415" lat="52.9938019" lon="10.7666716"/>
  <node id="275133949" version="4" timestamp="2009-02-24T09:57:02Z" uid="49111" user="Markus B" changeset="649769" lat="48.7297558" lon="13.2827893"/>
  <node id="275133949" version="5" timestamp="2010-01-30T12:57:30Z" uid="33223" user="k127" changeset="3750687" lat="48.7298259" lon="13.2821513"/>
  <node id="275133949" version="6" timestamp="2011-05-16T19:39:54Z" uid="149876" user="dbusse" changeset="8165810" lat="48.7297236" lon="13.2822184"/>
  <node id="275133952" version="2" timestamp="2009-02-24T09:56:59Z" uid="49111" user="Markus B" changeset="649769" lat="48.7288512" lon="13.2764332"/>
  <node id="275133952" version="3" timestamp="2009-02-24T09:57:02Z" uid="49111" user="Markus B" changeset="649769" lat="48.7288512" lon="13.2764332"/>
  <node id="275133952" version="4" timestamp="2011-05-11T17:30:50Z" uid="149876" user="dbusse" changeset="8114343" lat="48.7286579" lon="13.276578"/>
  <node id="275133953" version="2" timestamp="2009-02-24T09:56:59Z" uid="49111" user="Markus B" changeset="649769" lat="48.727198" lon="13.2767336"/>
  <node id="275133953" version="3" timestamp="2011-05-11T17:30:51Z" uid="149876" user="dbusse" changeset="8114343" lat="48.7272655" lon="13.2767444"/>
  <node id="275133954" version="2" timestamp="2009-02-24T09:57:00Z" uid="49111" user="Markus B" changeset="649769" lat="48.7260996" lon="13.2766649"/>
  <node id="275133954" version="3" timestamp="2011-05-11T17:30:52Z" uid="149876" user="dbusse" changeset="8114343" lat="48.7265128" lon="13.2767659"/>
  <node id="275133955" version="2" timestamp="2009-02-24T09:57:00Z" uid="49111" user="Markus B" changeset="649769" lat="48.7255165" lon="13.2766564"/>
  <node id="275133955" version="3" timestamp="2010-01-30T12:57:29Z" uid="33223" user="k127" changeset="3750687" lat="48.7255165" lon="13.2761655"/>
  <node id="275133955" version="4" timestamp="2011-05-11T17:30:53Z" uid="149876" user="dbusse" changeset="8114343" lat="48.7255898" lon="13.2761554"/>
  <node id="275133956" version="2" timestamp="2009-02-24T09:57:00Z" uid="49111" user="Markus B" changeset="649769" lat="48.724905" lon="13.2764418"/>
  <node id="275133956" version="3" timestamp="2010-01-30T12:57:29Z" uid="33223" user="k127" changeset="3750687" lat="48.724905" lon="13.2762719"/>
  <node id="275133956" version="4" timestamp="2011-05-16T19:39:50Z" uid="149876" user="dbusse" changeset="8165810" lat="48.7251749" lon="13.276235"/>
  <node id="275133958" version="2" timestamp="2009-02-24T09:57:00Z" uid="49111" user="Markus B" changeset="649769" lat="48.724401" lon="13.2760899"/>
  <node id="275133958" version="3" timestamp="2011-05-16T19:39:51Z" uid="149876" user="dbusse" changeset="8165810" lat="48.7244475" lon="13.2759994"/>
  <node id="275134074" version="1" timestamp="2008-07-01T07:13:30Z" uid="43863" user="Rundling" changeset="352415" lat="52.9940539" lon="10.7665881"/>
  <node id="275134075" version="1" timestamp="2008-07-01T07:13:30Z" uid="43863" user="Rundling" changeset="352415" lat="52.9944259" lon="10.7666567"/>
  <node id="275134076" version="1" timestamp="2008-07-01T07:13:30Z" uid="43863" user="Rundling" changeset="352415" lat="52.9946687" lon="10.767103"/>
  <node id="275134077" version="1" timestamp="2008-07-01T07:13:30Z" uid="43863" user="Rundling" changeset="352415" lat="52.9947875" lon="10.767309"/>
  <node id="275134078" version="1" timestamp="2008-07-01T07:13:30Z" uid="43863" user="Rundling" changeset="352415" lat="52.9948908" lon="10.7680558"/>
  <node id="275134079" version="1" timestamp="2008-07-01T07:13:30Z" uid="43863" user="Rundling" changeset="352415" lat="52.9949735" lon="10.7683562"/>
  <node id="275134080" version="1" timestamp="2008-07-01T07:13:30Z" uid="43863" user="Rundling" changeset="352415" lat="52.9950148" lon="10.7684678"/>
  <node id="275134081" version="1" timestamp="2008-07-01T07:13:30Z" uid="43863" user="Rundling" changeset="352415" lat="52.9954229" lon="10.7688025"/>
  <node id="275134082" version="1" timestamp="2008-07-01T07:13:30Z" uid="43863" user="Rundling" changeset="352415" lat="52.9955366" lon="10.7690428"/>
  <node id="275134083" version="1" timestamp="2008-07-01T07:13:30Z" uid="43863" user="Rundling" changeset="352415" lat="52.9955624" lon="10.7694205"/>
  <node id="275134084" version="1" timestamp="2008-07-01T07:13:30Z" uid="43863" user="Rundling" changeset="352415" lat="52.9952421" lon="10.770974"/>
  <node id="275134085" version="1" timestamp="2008-07-01T07:13:30Z" uid="43863" user="Rundling" changeset="352415" lat="52.9951853" lon="10.7713088"/>
  <node id="275134086" version="1" timestamp="2008-07-01T07:13:30Z" uid="43863" user="Rundling" changeset="352415" lat="52.9946119" lon="10.7717894"/>
  <node id="275134087" version="1" timestamp="2008-07-01T07:13:30Z" uid="43863" user="Rundling" changeset="352415" lat="52.994524" lon="10.7718323"/>
  <node id="275134088" version="1" timestamp="2008-07-01T07:13:30Z" uid="43863" user="Rundling" changeset="352415" lat="52.9943794" lon="10.7718323"/>
  <node id="275134090" version="1" timestamp="2008-07-01T07:13:30Z" uid="43863" user="Rundling" changeset="352415" lat="52.9943536" lon="10.7718323"/>
  <node id="275134091" version="1" timestamp="2008-07-01T07:13:30Z" uid="43863" user="Rundling" changeset="352415" lat="52.9941882" lon="10.7712744"/>
  <node id="275134092" version="1" timestamp="2008-07-01T07:13:30Z" uid="43863" user="Rundling" changeset="352415" lat="52.9938938" lon="10.7695063"/>
  <node id="275134093" version="1" timestamp="2008-07-01T07:13:30Z" uid="43863" user="Rundling" changeset="352415" lat="52.9935838" lon="10.7680815"/>
  <node id="275134094" version="1" timestamp="2008-07-01T07:13:30Z" uid="43863" user="Rundling" changeset="352415" lat="52.9935838" lon="10.7677811"/>
  <node id="275134095" version="1" timestamp="2008-07-01T07:13:30Z" uid="43863" user="Rundling" changeset="352415" lat="52.9936494" lon="10.7674197"/>
  <node id="275134095" version="2" timestamp="2008-09-15T13:28:35Z" uid="31231" user="Andre68" changeset="638953" lat="52.9936494" lon="10.7674197"/>
  <node id="275134245" version="3" timestamp="2009-05-01T17:52:31Z" uid="20587" user="balrog-kun" changeset="1039873" lat="51.7085813" lon="14.8784919">
    <tag k="addr:postcode" v="68-219"/>
    <tag k="created_by" v="Potlatch 0.9c"/>
    <tag k="is_in" v="gmina Tuplice, powiat żarski, województwo lubuskie, Poland"/>
    <tag k="is_in:county" v="powiat żarski"/>
    <tag k="is_in:municipality" v="gmina Tuplice"/>
    <tag k="is_in:province" v="województwo lubuskie"/>
    <tag k="name" v="Grabówek"/>
    <tag k="place" v="village"/>
    <tag k="wikipedia" v="Grabówek, Lubusz Voivodeship"/>
  </node>
  <node id="275134245" version="4" timestamp="2010-07-26T20:12:04Z" uid="48534" user="stsa" changeset="5324166" lat="51.7091462" lon="14.8770562">
    <tag k="addr:postcode" v="68-219"/>
    <tag k="is_in" v="gmina Tuplice, powiat żarski, województwo lubuskie, Poland"/>
    <tag k="is_in:county" v="powiat żarski"/>
    <tag k="is_in:municipality" v="gmina Tuplice"/>
    <tag k="is_in:province" v="województwo lubuskie"/>
    <tag k="name" v="Grabówek"/>
    <tag k="place" v="village"/>
    <tag k="wikipedia" v="Grabówek, Lubusz Voivodeship"/>
  </node>
  <node id="275134245" version="5" timestamp="2010-08-09T10:30:07Z" uid="48534" user="stsa" changeset="5442224" lat="51.7099761" lon="14.8745389">
    <tag k="addr:postcode" v="68-219"/>
    <tag k="is_in" v="gmina Tuplice, powiat żarski, województwo lubuskie, Poland"/>
    <tag k="is_in:county" v="powiat żarski"/>
    <tag k="is_in:municipality" v="gmina Tuplice"/>
    <tag k="is_in:province" v="województwo lubuskie"/>
    <tag k="name" v="Grabówek"/>
    <tag k="place" v="village"/>
    <tag k="wikipedia" v="Grabówek, Lubusz Voivodeship"/>
  </node>
  <node id="275134790" version="5" timestamp="2009-05-01T17:52:18Z" uid="20587" user="balrog-kun" changeset="1039873" lat="51.770713" lon="14.9349685">
    <tag k="created_by" v="Potlatch 0.9c"/>
    <tag k="is_in" v="gmina Lubsko, powiat żarski, województwo lubuskie, Poland"/>
    <tag k="is_in:country" v="Poland"/>
    <tag k="is_in:county" v="powiat żarski"/>
    <tag k="is_in:municipality" v="gmina Lubsko"/>
    <tag k="is_in:province" v="województwo lubuskie"/>
    <tag k="name" v="Dłużek"/>
    <tag k="place" v="village"/>
    <tag k="population" v="347"/>
    <tag k="source:population" v="wikipedia"/>
    <tag k="teryt:rm" v="01"/>
    <tag k="teryt:simc" v="0911121"/>
    <tag k="teryt:stan_na" v="2009-01-01"/>
    <tag k="teryt:terc" v="0811065"/>
    <tag k="teryt:updated_by" v="teryt2osm combine.py v. 43"/>
    <tag k="wikipedia" v="Dłużek, Lubusz Voivodeship"/>
  </node>
  <node id="275134790" version="6" timestamp="2010-04-11T04:38:20Z" uid="20587" user="balrog-kun" changeset="4389130" lat="51.7707631" lon="14.934672">
    <tag k="is_in" v="gmina Lubsko, powiat żarski, województwo lubuskie, Poland"/>
    <tag k="is_in:country" v="Poland"/>
    <tag k="is_in:county" v="powiat żarski"/>
    <tag k="is_in:municipality" v="gmina Lubsko"/>
    <tag k="is_in:province" v="województwo lubuskie"/>
    <tag k="name" v="Dłużek"/>
    <tag k="place" v="village"/>
    <tag k="population" v="347"/>
    <tag k="source:population" v="wikipedia"/>
    <tag k="teryt:rm" v="01"/>
    <tag k="teryt:simc" v="0911121"/>
    <tag k="teryt:stan_na" v="2009-01-01"/>
    <tag k="teryt:terc" v="0811065"/>
    <tag k="teryt:updated_by" v="teryt2osm combine.py v. 43"/>
    <tag k="wikipedia" v="Dłużek, Lubusz Voivodeship"/>
  </node>
  <node id="275134790" version="7" timestamp="2010-08-26T09:12:55Z" uid="48534" user="stsa" changeset="5597263" lat="51.7712805" lon="14.9349725">
    <tag k="is_in" v="gmina Lubsko, powiat żarski, województwo lubuskie, Poland"/>
    <tag k="is_in:country" v="Poland"/>
    <tag k="is_in:county" v="powiat żarski"/>
    <tag k="is_in:municipality" v="gmina Lubsko"/>
    <tag k="is_in:province" v="województwo lubuskie"/>
    <tag k="name" v="Dłużek"/>
    <tag k="place" v="village"/>
    <tag k="population" v="347"/>
    <tag k="source:population" v="wikipedia"/>
    <tag k="teryt:rm" v="01"/>
    <tag k="teryt:simc" v="0911121"/>
    <tag k="teryt:stan_na" v="2009-01-01"/>
    <tag k="teryt:terc" v="0811065"/>
    <tag k="teryt:updated_by" v="teryt2osm combine.py v. 43"/>
    <tag k="wikipedia" v="Dłużek, Lubusz Voivodeship"/>
  </node>
  <node id="275137281" version="3" timestamp="2009-02-24T09:56:37Z" uid="49111" user="Markus B" changeset="649769" lat="48.7144291" lon="13.2619278"/>
  <node id="275138026" version="4" timestamp="2009-02-24T09:56:37Z" uid="49111" user="Markus B" changeset="649769" lat="48.7133248" lon="13.2617733"/>
  <node id="275138026" version="5" timestamp="2009-02-24T09:56:37Z" uid="49111" user="Markus B" changeset="649769" lat="48.7133248" lon="13.2617733"/>
  <node id="275138027" version="2" timestamp="2009-02-24T09:56:37Z" uid="49111" user="Markus B" changeset="649769" lat="48.713489" lon="13.2589667"/>
  <node id="275138027" version="3" timestamp="2011-02-27T16:26:19Z" uid="149876" user="dbusse" changeset="7412473" lat="48.7135373" lon="13.2593109"/>
  <node id="275138028" version="2" timestamp="2009-02-24T09:56:37Z" uid="49111" user="Markus B" changeset="649769" lat="48.7130982" lon="13.2589838"/>
  <node id="275138028" version="3" timestamp="2011-02-27T16:26:20Z" uid="149876" user="dbusse" changeset="7412473" lat="48.7130499" lon="13.2590483"/>
  <node id="275138029" version="2" timestamp="2009-02-24T09:56:37Z" uid="49111" user="Markus B" changeset="649769" lat="48.7130928" lon="13.2582912"/>
  <node id="275138029" version="3" timestamp="2011-02-27T16:26:17Z" uid="149876" user="dbusse" changeset="7412473" lat="48.7127202" lon="13.2584741"/>
  <node id="275138030" version="2" timestamp="2009-02-24T09:56:37Z" uid="49111" user="Markus B" changeset="649769" lat="48.7147797" lon="13.2586478"/>
  <node id="275138030" version="3" timestamp="2011-02-27T16:26:28Z" uid="149876" user="dbusse" changeset="7412473" lat="48.7147797" lon="13.2586478"/>
  <node id="275138031" version="2" timestamp="2009-02-24T09:56:37Z" uid="49111" user="Markus B" changeset="649769" lat="48.7154817" lon="13.2587551"/>
  <node id="275138031" version="3" timestamp="2011-02-27T16:26:25Z" uid="149876" user="dbusse" changeset="7412473" lat="48.7150239" lon="13.2588196"/>
  <node id="275138032" version="2" timestamp="2009-02-24T09:56:37Z" uid="49111" user="Markus B" changeset="649769" lat="48.7154655" lon="13.2597735"/>
  <node id="275138032" version="3" timestamp="2011-02-27T16:26:18Z" uid="149876" user="dbusse" changeset="7412473" lat="48.7152348" lon="13.2600155"/>
  <node id="275138033" version="2" timestamp="2009-02-24T09:56:37Z" uid="49111" user="Markus B" changeset="649769" lat="48.7145933" lon="13.2598936"/>
  <node id="275138033" version="3" timestamp="2011-02-27T16:26:22Z" uid="149876" user="dbusse" changeset="7412473" lat="48.7144159" lon="13.260383"/>
  <node id="275138961" version="2" timestamp="2008-07-08T08:41:24Z" uid="9581" user="Lobelt" changeset="427893" lat="51.7624515" lon="14.3902023"/>
  <node id="275138962" version="2" timestamp="2008-07-08T08:41:26Z" uid="9581" user="Lobelt" changeset="427893" lat="51.7626215" lon="14.3900479"/>
  <node id="275138963" version="2" timestamp="2008-07-08T08:41:25Z" uid="9581" user="Lobelt" changeset="427893" lat="51.7626428" lon="14.3900479"/>
  <node id="275138964" version="2" timestamp="2008-07-08T08:41:25Z" uid="9581" user="Lobelt" changeset="427893" lat="51.7626906" lon="14.3902195"/>
  <node id="275138965" version="2" timestamp="2008-07-08T08:41:25Z" uid="9581" user="Lobelt" changeset="427893" lat="51.762494" lon="14.3903654"/>
  <node id="275138999" version="2" timestamp="2008-12-20T13:12:29Z" uid="6975" user="ulfl" changeset="499085" lat="48.7302569" lon="9.154941">
    <tag k="amenity" v="driving_school"/>
    <tag k="name" v="Lucas der pfiffiger Fahrlehrer"/>
  </node>
  <node id="275138999" version="3" timestamp="2012-02-26T19:39:16Z" uid="173791" user="bubeck" changeset="10802305" lat="48.7302189" lon="9.1549782">
    <tag k="amenity" v="driving_school"/>
    <tag k="name" v="Lucas der pfiffiger Fahrlehrer"/>
  </node>
  <node id="275139281" version="1" timestamp="2008-07-01T07:35:40Z" uid="9581" user="Lobelt" changeset="353524" lat="51.8209067" lon="14.012476"/>
  <node id="275139281" version="2" timestamp="2011-12-30T01:34:52Z" uid="235372" user="miraculixOSM" changeset="10241632" lat="51.8209067" lon="14.012476"/>
  <node id="275139285" version="1" timestamp="2008-07-01T07:35:40Z" uid="9581" user="Lobelt" changeset="353524" lat="51.8208362" lon="14.0123791"/>
  <node id="275139285" version="2" timestamp="2011-12-24T22:40:18Z" uid="235372" user="miraculixOSM" changeset="10196681" lat="51.8208362" lon="14.0123791"/>
  <node id="275139560" version="5" timestamp="2010-09-01T21:46:57Z" uid="6975" user="ulfl" changeset="5657849" lat="47.4382954" lon="8.3154617">
    <tag k="ele" v="640"/>
    <tag k="mountain_pass" v="yes"/>
    <tag k="name" v="Rüsler"/>
    <tag k="tourism" v="viewpoint"/>
    <tag k="website" v="http://rüsler.ch/"/>
    <tag k="wikipedia" v="http://de.wikipedia.org/wiki/R%C3%BCsler"/>
  </node>
  <node id="275139560" version="6" timestamp="2011-10-17T17:12:34Z" uid="290680" user="wheelmap_visitor" changeset="9578325" lat="47.4382954" lon="8.3154617">
    <tag k="ele" v="640"/>
    <tag k="mountain_pass" v="yes"/>
    <tag k="name" v="Rüsler"/>
    <tag k="tourism" v="viewpoint"/>
    <tag k="website" v="http://rüsler.ch/"/>
    <tag k="wheelchair" v="limited"/>
    <tag k="wikipedia" v="http://de.wikipedia.org/wiki/R%C3%BCsler"/>
  </node>
  <node id="275139560" version="7" timestamp="2012-02-24T22:43:08Z" uid="178186" user="mdk" changeset="10783409" lat="47.4382954" lon="8.3154617"/>
  <node id="275130683" version="8" timestamp="2012-07-22T21:20:04Z" uid="15720" user="J budissin" changeset="12439567" lat="51.7966649" lon="14.754446">
    <tag k="is_in" v="gmina Brody, powiat żarski, województwo lubuskie, Poland"/>
    <tag k="is_in:country" v="Poland"/>
    <tag k="is_in:county" v="powiat żarski"/>
    <tag k="is_in:municipality" v="gmina Brody"/>
    <tag k="is_in:province" v="województwo lubuskie"/>
    <tag k="name" v="Jeziory Dolne"/>
    <tag k="name:de" v="Nieder Jeser"/>
    <tag k="name:dsb" v="Dolny Jazorc"/>
    <tag k="name:hsb" v="Dolny Jazorc"/>
    <tag k="place" v="village"/>
    <tag k="population" v="165"/>
    <tag k="source:population" v="wikipedia"/>
    <tag k="teryt:rm" v="01"/>
    <tag k="teryt:simc" v="0908113"/>
    <tag k="teryt:stan_na" v="2009-01-01"/>
    <tag k="teryt:terc" v="0811032"/>
    <tag k="teryt:updated_by" v="teryt2osm combine.py v. 43"/>
    <tag k="wikipedia" v="Jeziory Dolne"/>
  </node>
  <node id="275130683" version="9" timestamp="2012-07-23T06:53:25Z" uid="163437" user="r-michael" changeset="12445220" lat="51.7966649" lon="14.754446">
    <tag k="is_in" v="gmina Brody, powiat żarski, województwo lubuskie, Poland"/>
    <tag k="is_in:country" v="Poland"/>
    <tag k="is_in:county" v="powiat żarski"/>
    <tag k="is_in:municipality" v="gmina Brody"/>
    <tag k="is_in:province" v="województwo lubuskie"/>
    <tag k="name" v="Jeziory Dolne"/>
    <tag k="name:dsb" v="Dolny Jazorc"/>
    <tag k="name:hsb" v="Dolny Jazorc"/>
    <tag k="old_name" v="Nieder Jeser"/>
    <tag k="place" v="village"/>
    <tag k="population" v="165"/>
    <tag k="source:population" v="wikipedia"/>
    <tag k="teryt:rm" v="01"/>
    <tag k="teryt:simc" v="0908113"/>
    <tag k="teryt:stan_na" v="2009-01-01"/>
    <tag k="teryt:terc" v="0811032"/>
    <tag k="teryt:updated_by" v="teryt2osm combine.py v. 43"/>
    <tag k="wikipedia" v="Jeziory Dolne"/>
  </node>
  <node id="275133740" version="2" timestamp="2012-07-18T15:45:46Z" uid="722137" user="OSMF Redaction Account" changeset="12287604" lat="52.9938783" lon="10.7666825"/>
  <node id="275133754" version="2" timestamp="2012-07-18T15:45:46Z" uid="722137" user="OSMF Redaction Account" changeset="12287604" lat="52.9938019" lon="10.7666716"/>
  <node id="275134074" version="2" timestamp="2012-07-18T15:45:47Z" uid="722137" user="OSMF Redaction Account" changeset="12287604" lat="52.9940539" lon="10.7665881"/>
  <node id="275134075" version="2" timestamp="2012-07-18T15:45:49Z" uid="722137" user="OSMF Redaction Account" changeset="12287604" lat="52.9944259" lon="10.7666567"/>
  <node id="275134076" version="2" timestamp="2012-07-18T15:45:49Z" uid="722137" user="OSMF Redaction Account" changeset="12287604" lat="52.9946687" lon="10.767103"/>
  <node id="275134077" version="2" timestamp="2012-07-18T15:45:50Z" uid="722137" user="OSMF Redaction Account" changeset="12287604" lat="52.9947875" lon="10.767309"/>
  <node id="275134078" version="2" timestamp="2012-07-18T15:45:50Z" uid="722137" user="OSMF Redaction Account" changeset="12287604" lat="52.9948908" lon="10.7680558"/>
  <node id="275134079" version="2" timestamp="2012-07-18T15:45:50Z" uid="722137" user="OSMF Redaction Account" changeset="12287604" lat="52.9949735" lon="10.7683562"/>
  <node id="275134080" version="2" timestamp="2012-07-18T15:45:50Z" uid="722137" user="OSMF Redaction Account" changeset="12287604" lat="52.9950148" lon="10.7684678"/>
  <node id="275134081" version="2" timestamp="2012-07-18T15:45:52Z" uid="722137" user="OSMF Redaction Account" changeset="12287604" lat="52.9954229" lon="10.7688025"/>
  <node id="275134082" version="2" timestamp="2012-07-18T15:45:52Z" uid="722137" user="OSMF Redaction Account" changeset="12287604" lat="52.9955366" lon="10.7690428"/>
  <node id="275134083" version="2" timestamp="2012-07-18T15:45:52Z" uid="722137" user="OSMF Redaction Account" changeset="12287604" lat="52.9955624" lon="10.7694205"/>
  <node id="275134084" version="2" timestamp="2012-07-18T15:45:51Z" uid="722137" user="OSMF Redaction Account" changeset="12287604" lat="52.9952421" lon="10.770974"/>
  <node id="275134085" version="2" timestamp="2012-07-18T15:45:51Z" uid="722137" user="OSMF Redaction Account" changeset="12287604" lat="52.9951853" lon="10.7713088"/>
  <node id="275134086" version="2" timestamp="2012-07-18T15:45:49Z" uid="722137" user="OSMF Redaction Account" changeset="12287604" lat="52.9946119" lon="10.7717894"/>
  <node id="275134087" version="2" timestamp="2012-07-18T15:45:49Z" uid="722137" user="OSMF Redaction Account" changeset="12287604" lat="52.994524" lon="10.7718323"/>
  <node id="275134088" version="2" timestamp="2012-07-18T15:45:48Z" uid="722137" user="OSMF Redaction Account" changeset="12287604" lat="52.9943794" lon="10.7718323"/>
  <node id="275134090" version="2" timestamp="2012-07-18T15:45:48Z" uid="722137" user="OSMF Redaction Account" changeset="12287604" lat="52.9943536" lon="10.7718323"/>
  <node id="275134091" version="2" timestamp="2012-07-18T15:45:48Z" uid="722137" user="OSMF Redaction Account" changeset="12287604" lat="52.9941882" lon="10.7712744"/>
  <node id="275134092" version="2" timestamp="2012-07-18T15:45:47Z" uid="722137" user="OSMF Redaction Account" changeset="12287604" lat="52.9938938" lon="10.7695063"/>
  <node id="275134093" version="2" timestamp="2012-07-18T15:45:46Z" uid="722137" user="OSMF Redaction Account" changeset="12287604" lat="52.9935838" lon="10.7680815"/>
  <node id="275134094" version="2" timestamp="2012-07-18T15:45:46Z" uid="722137" user="OSMF Redaction Account" changeset="12287604" lat="52.9935838" lon="10.7677811"/>
  <node id="275134095" version="3" timestamp="2012-07-18T15:45:46Z" uid="722137" user="OSMF Redaction Account" changeset="12287604" lat="52.9936494" lon="10.7674197"/>
  <node id="275134790" version="8" timestamp="2012-07-24T20:41:26Z" uid="15720" user="J budissin" changeset="12476049" lat="51.7712805" lon="14.9349725">
    <tag k="is_in" v="gmina Lubsko, powiat żarski, województwo lubuskie, Poland"/>
    <tag k="is_in:country" v="Poland"/>
    <tag k="is_in:county" v="powiat żarski"/>
    <tag k="is_in:municipality" v="gmina Lubsko"/>
    <tag k="is_in:province" v="województwo lubuskie"/>
    <tag k="name" v="Dłużek"/>
    <tag k="name:de" v="Dolzig"/>
    <tag k="name:dsb" v="Dłuzk"/>
    <tag k="name:hsb" v="Dłuzk"/>
    <tag k="place" v="village"/>
    <tag k="population" v="347"/>
    <tag k="source:population" v="wikipedia"/>
    <tag k="teryt:rm" v="01"/>
    <tag k="teryt:simc" v="0911121"/>
    <tag k="teryt:stan_na" v="2009-01-01"/>
    <tag k="teryt:terc" v="0811065"/>
    <tag k="teryt:updated_by" v="teryt2osm combine.py v. 43"/>
    <tag k="wikipedia" v="Dłużek, Lubusz Voivodeship"/>
  </node>
</osm>
