<?xml version='1.0' encoding='UTF-8'?>
<osm version="0.6" generator="libosmium/2.20.0">
  <node id="275120104" version="2" timestamp="2010-08-01T12:45:02Z" uid="9581" user="Lobelt" changeset="5370641" lat="42.17345" lon="26.04517"/>
  <node id="275120269" version="2" timestamp="2010-08-01T12:45:08Z" uid="9581" user="Lobelt" changeset="5370641" lat="42.17473" lon="26.02586"/>
  <node id="275120480" version="2" timestamp="2010-08-01T12:45:07Z" uid="9581" user="Lobelt" changeset="5370641" lat="42.16641" lon="26.01633"/>
  <node id="275120980" version="6" timestamp="2009-05-11T20:47:57Z" uid="49111" user="Markus B" changeset="1158489" lat="49.6811682" lon="11.4172972"/>
  <node id="275120980" version="7" timestamp="2009-09-05T19:47:14Z" uid="87723" user="Shiega" changeset="2384619" lat="49.6812184" lon="11.4173254"/>
  <node id="275121368" version="2" timestamp="2010-08-01T12:45:06Z" uid="9581" user="Lobelt" changeset="5370641" lat="42.17563" lon="26.0235"/>
  <node id="275121404" version="2" timestamp="2010-07-05T20:09:29Z" uid="9581" user="Lobelt" changeset="5145209" lat="43.5236051" lon="24.0625167"/>
  <node id="275121404" version="3" timestamp="2012-03-29T22:42:26Z" uid="544370" user="atari_matari" changeset="11145579" lat="43.5236051" lon="24.0625167"/>
  <node id="275121426" version="2" timestamp="2010-08-01T12:45:07Z" uid="9581" user="Lobelt" changeset="5370641" lat="42.16786" lon="26.05084"/>
  <node id="275121931" version="2" timestamp="2010-08-01T12:45:07Z" uid="9581" user="Lobelt" changeset="5370641" lat="42.16469" lon="26.01792"/>
  <node id="275121971" version="2" timestamp="2010-08-01T12:45:02Z" uid="9581" user="Lobelt" changeset="5370641" lat="42.18627" lon="25.98033"/>
  <node id="275122442" version="2" timestamp="2010-08-01T12:45:06Z" uid="9581" user="Lobelt" changeset="5370641" lat="42.16469" lon="25.98543"/>
  <node id="275122510" version="2" timestamp="2010-08-01T12:45:09Z" uid="9581" user="Lobelt" changeset="5370641" lat="42.16512" lon="26.01397"/>
  <node id="275123175" version="2" timestamp="2010-07-05T20:09:40Z" uid="9581" user="Lobelt" changeset="5145209" lat="43.5242821" lon="24.0622069"/>
  <node id="275123175" version="3" timestamp="2012-03-29T22:42:26Z" uid="544370" user="atari_matari" changeset="11145579" lat="43.5242821" lon="24.0622069"/>
  <node id="275123214" version="2" timestamp="2010-08-01T12:45:04Z" uid="9581" user="Lobelt" changeset="5370641" lat="42.1646" lon="25.98702"/>
  <node id="275123276" version="2" timestamp="2009-02-24T09:57:00Z" uid="49111" user="Markus B" changeset="649769" lat="48.7234102" lon="13.2757208"/>
  <node id="275123276" version="3" timestamp="2010-01-30T12:57:29Z" uid="33223" user="k127" changeset="3750687" lat="48.7231711" lon="13.2755033"/>
  <node id="275123276" version="4" timestamp="2011-05-11T17:30:56Z" uid="149876" user="dbusse" changeset="8114343" lat="48.7231711" lon="13.2755033"/>
  <node id="275123277" version="2" timestamp="2009-02-24T09:57:00Z" uid="49111" user="Markus B" changeset="649769" lat="48.7239877" lon="13.2757036"/>
  <node id="275123277" version="3" timestamp="2010-01-30T12:57:29Z" uid="33223" user="k127" changeset="3750687" lat="48.7236768" lon="13.2754257"/>
  <node id="275123277" version="4" timestamp="2011-05-11T17:30:50Z" uid="149876" user="dbusse" changeset="8114343" lat="48.7236627" lon="13.2754553"/>
  <node id="275123277" version="5" timestamp="2011-05-16T19:39:54Z" uid="149876" user="dbusse" changeset="8165810" lat="48.7236738" lon="13.275462"/>
  <node id="275123522" version="2" timestamp="2010-08-01T12:45:09Z" uid="9581" user="Lobelt" changeset="5370641" lat="42.16679" lon="26.01475"/>
  <node id="275123655" version="2" timestamp="2010-08-01T12:45:06Z" uid="9581" user="Lobelt" changeset="5370641" lat="42.16834" lon="26.04792"/>
  <node id="275123793" version="2" timestamp="2010-07-20T20:32:43Z" uid="9581" user="Lobelt" changeset="5274095" lat="42.1439052" lon="25.3976536"/>
  <node id="275123793" version="3" timestamp="2012-03-26T11:03:07Z" uid="544370" user="atari_matari" changeset="11104636" lat="42.1439052" lon="25.3976536"/>
  <node id="275124065" version="6" timestamp="2009-05-01T17:53:10Z" uid="20587" user="balrog-kun" changeset="1039873" lat="51.815013" lon="15.009186">
    <tag k="created_by" v="Potlatch 0.9c"/>
    <tag k="is_in" v="gmina Lubsko, powiat żarski, województwo lubuskie, Poland"/>
    <tag k="is_in:country" v="Poland"/>
    <tag k="is_in:county" v="powiat żarski"/>
    <tag k="is_in:municipality" v="gmina Lubsko"/>
    <tag k="is_in:province" v="województwo lubuskie"/>
    <tag k="name" v="Lutol"/>
    <tag k="place" v="village"/>
    <tag k="population" v="259"/>
    <tag k="source:population" v="wikipedia"/>
    <tag k="teryt:rm" v="01"/>
    <tag k="teryt:simc" v="0911173"/>
    <tag k="teryt:stan_na" v="2009-01-01"/>
    <tag k="teryt:terc" v="0811065"/>
    <tag k="teryt:updated_by" v="teryt2osm combine.py v. 43"/>
    <tag k="wikipedia" v="Lutol"/>
  </node>
  <node id="275124065" version="7" timestamp="2010-04-11T04:38:18Z" uid="20587" user="balrog-kun" changeset="4389130" lat="51.8148291" lon="15.0092982">
    <tag k="is_in" v="gmina Lubsko, powiat żarski, województwo lubuskie, Poland"/>
    <tag k="is_in:country" v="Poland"/>
    <tag k="is_in:county" v="powiat żarski"/>
    <tag k="is_in:municipality" v="gmina Lubsko"/>
    <tag k="is_in:province" v="województwo lubuskie"/>
    <tag k="name" v="Lutol"/>
    <tag k="place" v="village"/>
    <tag k="population" v="259"/>
    <tag k="source:population" v="wikipedia"/>
    <tag k="teryt:rm" v="01"/>
    <tag k="teryt:simc" v="0911173"/>
    <tag k="teryt:stan_na" v="2009-01-01"/>
    <tag k="teryt:terc" v="0811065"/>
    <tag k="teryt:updated_by" v="teryt2osm combine.py v. 43"/>
    <tag k="wikipedia" v="Lutol"/>
  </node>
  <node id="275124065" version="8" timestamp="2010-12-12T21:28:59Z" uid="235372" user="miraculixOSM" changeset="6642166" lat="51.8148291" lon="15.0092982">
    <tag k="is_in" v="gmina Lubsko, powiat żarski, województwo lubuskie, Poland"/>
    <tag k="is_in:country" v="Poland"/>
    <tag k="is_in:county" v="powiat żarski"/>
    <tag k="is_in:municipality" v="gmina Lubsko"/>
    <tag k="is_in:province" v="województwo lubuskie"/>
    <tag k="name" v="Lutol"/>
    <tag k="name:de" v="Leuthen"/>
    <tag k="place" v="village"/>
    <tag k="population" v="259"/>
    <tag k="source:population" v="wikipedia"/>
    <tag k="teryt:rm" v="01"/>
    <tag k="teryt:simc" v="0911173"/>
    <tag k="teryt:stan_na" v="2009-01-01"/>
    <tag k="teryt:terc" v="0811065"/>
    <tag k="teryt:updated_by" v="teryt2osm combine.py v. 43"/>
    <tag k="wikipedia" v="Lutol"/>
  </node>
  <node id="275124065" version="9" timestamp="2011-08-14T10:52:32Z" uid="163437" user="r-michael" changeset="9014257" lat="51.8148291" lon="15.0092982"/>
  <node id="275124158" version="2" timestamp="2010-08-01T12:45:08Z" uid="9581" user="Lobelt" changeset="5370641" lat="42.16469" lon="26.05612"/>
  <node id="275124359" version="7" timestamp="2009-05-01T17:52:11Z" uid="20587" user="balrog-kun" changeset="1039873" lat="51.8085841" lon="15.0458432">
    <tag k="created_by" v="Potlatch 0.9c"/>
    <tag k="is_in" v="gmina Lubsko, powiat żarski, województwo lubuskie, Poland"/>
    <tag k="is_in:country" v="Poland"/>
    <tag k="is_in:county" v="powiat żarski"/>
    <tag k="is_in:municipality" v="gmina Lubsko"/>
    <tag k="is_in:province" v="województwo lubuskie"/>
    <tag k="name" v="Stara Woda"/>
    <tag k="place" v="village"/>
    <tag k="population" v="177"/>
    <tag k="source:population" v="wikipedia"/>
    <tag k="teryt:rm" v="01"/>
    <tag k="teryt:simc" v="0911256"/>
    <tag k="teryt:stan_na" v="2009-01-01"/>
    <tag k="teryt:terc" v="0811065"/>
    <tag k="teryt:updated_by" v="teryt2osm combine.py v. 43"/>
    <tag k="wikipedia" v="Stara Woda"/>
  </node>
  <node id="275124359" version="8" timestamp="2010-04-11T04:38:18Z" uid="20587" user="balrog-kun" changeset="4389130" lat="51.8084989" lon="15.0461692">
    <tag k="is_in" v="gmina Lubsko, powiat żarski, województwo lubuskie, Poland"/>
    <tag k="is_in:country" v="Poland"/>
    <tag k="is_in:county" v="powiat żarski"/>
    <tag k="is_in:municipality" v="gmina Lubsko"/>
    <tag k="is_in:province" v="województwo lubuskie"/>
    <tag k="name" v="Stara Woda"/>
    <tag k="place" v="village"/>
    <tag k="population" v="177"/>
    <tag k="source:population" v="wikipedia"/>
    <tag k="teryt:rm" v="01"/>
    <tag k="teryt:simc" v="0911256"/>
    <tag k="teryt:stan_na" v="2009-01-01"/>
    <tag k="teryt:terc" v="0811065"/>
    <tag k="teryt:updated_by" v="teryt2osm combine.py v. 43"/>
    <tag k="wikipedia" v="Stara Woda"/>
  </node>
  <node id="275124359" version="9" timestamp="2010-12-12T21:20:23Z" uid="235372" user="miraculixOSM" changeset="6642053" lat="51.8084989" lon="15.0461692">
    <tag k="is_in" v="gmina Lubsko, powiat żarski, województwo lubuskie, Poland"/>
    <tag k="is_in:country" v="Poland"/>
    <tag k="is_in:county" v="powiat żarski"/>
    <tag k="is_in:municipality" v="gmina Lubsko"/>
    <tag k="is_in:province" v="województwo lubuskie"/>
    <tag k="name" v="Stara Woda"/>
    <tag k="name:de" v="Altwasser"/>
    <tag k="place" v="village"/>
    <tag k="population" v="177"/>
    <tag k="source:population" v="wikipedia"/>
    <tag k="teryt:rm" v="01"/>
    <tag k="teryt:simc" v="0911256"/>
    <tag k="teryt:stan_na" v="2009-01-01"/>
    <tag k="teryt:terc" v="0811065"/>
    <tag k="teryt:updated_by" v="teryt2osm combine.py v. 43"/>
    <tag k="wikipedia" v="Stara Woda"/>
  </node>
  <node id="275124359" version="10" timestamp="2011-08-14T10:52:29Z" uid="163437" user="r-michael" changeset="9014257" lat="51.8084989" lon="15.0461692"/>
  <node id="275124550" version="2" timestamp="2010-07-05T17:59:40Z" uid="9581" user="Lobelt" changeset="5144056" lat="42.453657" lon="25.0638817"/>
  <node id="275124550" version="3" timestamp="2012-02-17T16:17:25Z" uid="85761" user="klausis" changeset="10712592" lat="42.453657" lon="25.0638817"/>
  <node id="275124868" version="2" timestamp="2010-08-01T12:45:09Z" uid="9581" user="Lobelt" changeset="5370641" lat="42.18713" lon="25.97977"/>
  <node id="275124879" version="2" timestamp="2010-08-01T12:45:07Z" uid="9581" user="Lobelt" changeset="5370641" lat="42.16452" lon="26.0147"/>
  <node id="275124952" version="5" timestamp="2009-05-01T17:52:55Z" uid="20587" user="balrog-kun" changeset="1039873" lat="51.8233702" lon="15.0513549">
    <tag k="created_by" v="Potlatch 0.9c"/>
    <tag k="is_in" v="gmina Lubsko, powiat żarski, województwo lubuskie, Poland"/>
    <tag k="is_in:country" v="Poland"/>
    <tag k="is_in:county" v="powiat żarski"/>
    <tag k="is_in:municipality" v="gmina Lubsko"/>
    <tag k="is_in:province" v="województwo lubuskie"/>
    <tag k="name" v="Mokra"/>
    <tag k="place" v="village"/>
    <tag k="population" v="81"/>
    <tag k="source:population" v="wikipedia"/>
    <tag k="teryt:rm" v="01"/>
    <tag k="teryt:simc" v="0911227"/>
    <tag k="teryt:stan_na" v="2009-01-01"/>
    <tag k="teryt:terc" v="0811065"/>
    <tag k="teryt:updated_by" v="teryt2osm combine.py v. 43"/>
    <tag k="wikipedia" v="Mokra, Lubusz Voivodeship"/>
  </node>
  <node id="275124952" version="6" timestamp="2010-04-11T04:38:18Z" uid="20587" user="balrog-kun" changeset="4389130" lat="51.8235741" lon="15.0511224">
    <tag k="is_in" v="gmina Lubsko, powiat żarski, województwo lubuskie, Poland"/>
    <tag k="is_in:country" v="Poland"/>
    <tag k="is_in:county" v="powiat żarski"/>
    <tag k="is_in:municipality" v="gmina Lubsko"/>
    <tag k="is_in:province" v="województwo lubuskie"/>
    <tag k="name" v="Mokra"/>
    <tag k="place" v="village"/>
    <tag k="population" v="81"/>
    <tag k="source:population" v="wikipedia"/>
    <tag k="teryt:rm" v="01"/>
    <tag k="teryt:simc" v="0911227"/>
    <tag k="teryt:stan_na" v="2009-01-01"/>
    <tag k="teryt:terc" v="0811065"/>
    <tag k="teryt:updated_by" v="teryt2osm combine.py v. 43"/>
    <tag k="wikipedia" v="Mokra, Lubusz Voivodeship"/>
  </node>
  <node id="275124952" version="7" timestamp="2010-12-12T21:28:58Z" uid="235372" user="miraculixOSM" changeset="6642166" lat="51.8235741" lon="15.0511224">
    <tag k="is_in" v="gmina Lubsko, powiat żarski, województwo lubuskie, Poland"/>
    <tag k="is_in:country" v="Poland"/>
    <tag k="is_in:county" v="powiat żarski"/>
    <tag k="is_in:municipality" v="gmina Lubsko"/>
    <tag k="is_in:province" v="województwo lubuskie"/>
    <tag k="name" v="Mokra"/>
    <tag k="name:de" v="Muckrow"/>
    <tag k="place" v="village"/>
    <tag k="population" v="81"/>
    <tag k="source:population" v="wikipedia"/>
    <tag k="teryt:rm" v="01"/>
    <tag k="teryt:simc" v="0911227"/>
    <tag k="teryt:stan_na" v="2009-01-01"/>
    <tag k="teryt:terc" v="0811065"/>
    <tag k="teryt:updated_by" v="teryt2osm combine.py v. 43"/>
    <tag k="wikipedia" v="Mokra, Lubusz Voivodeship"/>
  </node>
  <node id="275124952" version="8" timestamp="2011-08-14T10:52:32Z" uid="163437" user="r-michael" changeset="9014257" lat="51.8235741" lon="15.0511224"/>
  <node id="275125092" version="2" timestamp="2010-07-05T20:09:29Z" uid="9581" user="Lobelt" changeset="5145209" lat="43.5229921" lon="24.07776"/>
  <node id="275125092" version="3" timestamp="2012-03-29T22:42:27Z" uid="544370" user="atari_matari" changeset="11145579" lat="43.5229921" lon="24.07776"/>
  <node id="275125114" version="2" timestamp="2010-08-01T12:45:03Z" uid="9581" user="Lobelt" changeset="5370641" lat="42.17387" lon="26.02136"/>
  <node id="275125275" version="8" timestamp="2009-05-01T17:53:08Z" uid="20587" user="balrog-kun" changeset="1039873" lat="51.7723586" lon="14.9938263">
    <tag k="created_by" v="Potlatch 0.9c"/>
    <tag k="is_in" v="gmina Jasień, powiat żarski, województwo lubuskie, Poland"/>
    <tag k="is_in:country" v="Poland"/>
    <tag k="is_in:county" v="powiat żarski"/>
    <tag k="is_in:municipality" v="gmina Jasień"/>
    <tag k="is_in:province" v="województwo lubuskie"/>
    <tag k="name" v="Budziechów"/>
    <tag k="place" v="village"/>
    <tag k="teryt:rm" v="01"/>
    <tag k="teryt:simc" v="0909816"/>
    <tag k="teryt:stan_na" v="2009-01-01"/>
    <tag k="teryt:terc" v="0811045"/>
    <tag k="teryt:updated_by" v="teryt2osm combine.py v. 43"/>
    <tag k="wikipedia" v="Budziechów"/>
  </node>
  <node id="275125275" version="9" timestamp="2010-04-11T04:38:18Z" uid="20587" user="balrog-kun" changeset="4389130" lat="51.772224" lon="14.9947484">
    <tag k="is_in" v="gmina Jasień, powiat żarski, województwo lubuskie, Poland"/>
    <tag k="is_in:country" v="Poland"/>
    <tag k="is_in:county" v="powiat żarski"/>
    <tag k="is_in:municipality" v="gmina Jasień"/>
    <tag k="is_in:province" v="województwo lubuskie"/>
    <tag k="name" v="Budziechów"/>
    <tag k="place" v="village"/>
    <tag k="teryt:rm" v="01"/>
    <tag k="teryt:simc" v="0909816"/>
    <tag k="teryt:stan_na" v="2009-01-01"/>
    <tag k="teryt:terc" v="0811045"/>
    <tag k="teryt:updated_by" v="teryt2osm combine.py v. 43"/>
    <tag k="wikipedia" v="Budziechów"/>
  </node>
  <node id="275125498" version="2" timestamp="2010-08-01T12:45:08Z" uid="9581" user="Lobelt" changeset="5370641" lat="42.16593" lon="25.98677"/>
  <node id="275125653" version="7" timestamp="2009-05-01T17:52:19Z" uid="20587" user="balrog-kun" changeset="1039873" lat="51.7809961" lon="15.023387">
    <tag k="created_by" v="Potlatch 0.10b"/>
    <tag k="is_in" v="gmina Lubsko, powiat żarski, województwo lubuskie, Poland"/>
    <tag k="is_in:country" v="Poland"/>
    <tag k="is_in:county" v="powiat żarski"/>
    <tag k="is_in:municipality" v="gmina Lubsko"/>
    <tag k="is_in:province" v="województwo lubuskie"/>
    <tag k="name" v="Białków"/>
    <tag k="place" v="village"/>
    <tag k="population" v="345"/>
    <tag k="source:population" v="wikipedia"/>
    <tag k="teryt:rm" v="01"/>
    <tag k="teryt:simc" v="0911061"/>
    <tag k="teryt:stan_na" v="2009-01-01"/>
    <tag k="teryt:terc" v="0811065"/>
    <tag k="teryt:updated_by" v="teryt2osm combine.py v. 43"/>
    <tag k="wikipedia" v="Białków, Żary County"/>
  </node>
  <node id="275125653" version="8" timestamp="2010-04-11T04:38:18Z" uid="20587" user="balrog-kun" changeset="4389130" lat="51.7809493" lon="15.0234599">
    <tag k="is_in" v="gmina Lubsko, powiat żarski, województwo lubuskie, Poland"/>
    <tag k="is_in:country" v="Poland"/>
    <tag k="is_in:county" v="powiat żarski"/>
    <tag k="is_in:municipality" v="gmina Lubsko"/>
    <tag k="is_in:province" v="województwo lubuskie"/>
    <tag k="name" v="Białków"/>
    <tag k="place" v="village"/>
    <tag k="population" v="345"/>
    <tag k="source:population" v="wikipedia"/>
    <tag k="teryt:rm" v="01"/>
    <tag k="teryt:simc" v="0911061"/>
    <tag k="teryt:stan_na" v="2009-01-01"/>
    <tag k="teryt:terc" v="0811065"/>
    <tag k="teryt:updated_by" v="teryt2osm combine.py v. 43"/>
    <tag k="wikipedia" v="Białków, Żary County"/>
  </node>
  <node id="275125653" version="9" timestamp="2010-07-03T13:53:59Z" uid="48534" user="stsa" changeset="5125035" lat="51.7809135" lon="15.0224032">
    <tag k="is_in" v="gmina Lubsko, powiat żarski, województwo lubuskie, Poland"/>
    <tag k="is_in:country" v="Poland"/>
    <tag k="is_in:county" v="powiat żarski"/>
    <tag k="is_in:municipality" v="gmina Lubsko"/>
    <tag k="is_in:province" v="województwo lubuskie"/>
    <tag k="name" v="Białków"/>
    <tag k="place" v="village"/>
    <tag k="population" v="345"/>
    <tag k="source:population" v="wikipedia"/>
    <tag k="teryt:rm" v="01"/>
    <tag k="teryt:simc" v="0911061"/>
    <tag k="teryt:stan_na" v="2009-01-01"/>
    <tag k="teryt:terc" v="0811065"/>
    <tag k="teryt:updated_by" v="teryt2osm combine.py v. 43"/>
    <tag k="wikipedia" v="Białków, Żary County"/>
  </node>
  <node id="275125653" version="10" timestamp="2010-12-12T21:28:58Z" uid="235372" user="miraculixOSM" changeset="6642166" lat="51.7809135" lon="15.0224032">
    <tag k="is_in" v="gmina Lubsko, powiat żarski, województwo lubuskie, Poland"/>
    <tag k="is_in:country" v="Poland"/>
    <tag k="is_in:county" v="powiat żarski"/>
    <tag k="is_in:municipality" v="gmina Lubsko"/>
    <tag k="is_in:province" v="województwo lubuskie"/>
    <tag k="name" v="Białków"/>
    <tag k="name:de" v="Belkau"/>
    <tag k="place" v="village"/>
    <tag k="population" v="345"/>
    <tag k="source:population" v="wikipedia"/>
    <tag k="teryt:rm" v="01"/>
    <tag k="teryt:simc" v="0911061"/>
    <tag k="teryt:stan_na" v="2009-01-01"/>
    <tag k="teryt:terc" v="0811065"/>
    <tag k="teryt:updated_by" v="teryt2osm combine.py v. 43"/>
    <tag k="wikipedia" v="Białków, Żary County"/>
  </node>
  <node id="275125788" version="2" timestamp="2010-08-01T12:45:04Z" uid="9581" user="Lobelt" changeset="5370641" lat="42.16246" lon="26.01646"/>
  <node id="275125831" version="2" timestamp="2010-07-20T20:32:43Z" uid="9581" user="Lobelt" changeset="5274095" lat="42.145265" lon="25.3973324"/>
  <node id="275125831" version="3" timestamp="2012-03-26T11:03:07Z" uid="544370" user="atari_matari" changeset="11104636" lat="42.145265" lon="25.3973324"/>
  <node id="275126108" version="2" timestamp="2010-08-01T12:45:04Z" uid="9581" user="Lobelt" changeset="5370641" lat="42.17151" lon="26.02698"/>
  <node id="275126129" version="2" timestamp="2010-08-01T12:45:02Z" uid="9581" user="Lobelt" changeset="5370641" lat="42.16817" lon="26.05337"/>
  <node id="275126209" version="2" timestamp="2010-08-01T12:45:03Z" uid="9581" user="Lobelt" changeset="5370641" lat="42.16164" lon="26.02037"/>
  <node id="275126354" version="2" timestamp="2010-07-05T17:59:40Z" uid="9581" user="Lobelt" changeset="5144056" lat="42.4561699" lon="25.0633911"/>
  <node id="275126354" version="3" timestamp="2012-02-17T16:17:25Z" uid="85761" user="klausis" changeset="10712592" lat="42.4561699" lon="25.0633911"/>
  <node id="275126512" version="2" timestamp="2010-08-01T12:45:04Z" uid="9581" user="Lobelt" changeset="5370641" lat="42.17229" lon="26.02822"/>
  <node id="275126539" version="2" timestamp="2010-07-20T20:32:43Z" uid="9581" user="Lobelt" changeset="5274095" lat="42.1443421" lon="25.3990341"/>
  <node id="275126539" version="3" timestamp="2012-03-26T11:03:07Z" uid="544370" user="atari_matari" changeset="11104636" lat="42.1443421" lon="25.3990341"/>
  <node id="275126945" version="6" timestamp="2009-05-01T17:52:14Z" uid="20587" user="balrog-kun" changeset="1039873" lat="51.7994331" lon="14.8997362">
    <tag k="created_by" v="Potlatch 0.9c"/>
    <tag k="is_in" v="gmina Lubsko, powiat żarski, województwo lubuskie, Poland"/>
    <tag k="is_in:country" v="Poland"/>
    <tag k="is_in:county" v="powiat żarski"/>
    <tag k="is_in:municipality" v="gmina Lubsko"/>
    <tag k="is_in:province" v="województwo lubuskie"/>
    <tag k="name" v="Ziębikowo"/>
    <tag k="place" v="village"/>
    <tag k="population" v="102"/>
    <tag k="source:population" v="wikipedia"/>
    <tag k="teryt:rm" v="01"/>
    <tag k="teryt:simc" v="0911291"/>
    <tag k="teryt:stan_na" v="2009-01-01"/>
    <tag k="teryt:terc" v="0811065"/>
    <tag k="teryt:updated_by" v="teryt2osm combine.py v. 43"/>
    <tag k="wikipedia" v="Ziębikowo"/>
  </node>
  <node id="275126945" version="7" timestamp="2010-12-12T21:20:22Z" uid="235372" user="miraculixOSM" changeset="6642053" lat="51.7994331" lon="14.8997362">
    <tag k="is_in" v="gmina Lubsko, powiat żarski, województwo lubuskie, Poland"/>
    <tag k="is_in:country" v="Poland"/>
    <tag k="is_in:county" v="powiat żarski"/>
    <tag k="is_in:municipality" v="gmina Lubsko"/>
    <tag k="is_in:province" v="województwo lubuskie"/>
    <tag k="name" v="Ziębikowo"/>
    <tag k="name:de" v="Seebigau"/>
    <tag k="place" v="village"/>
    <tag k="population" v="102"/>
    <tag k="source:population" v="wikipedia"/>
    <tag k="teryt:rm" v="01"/>
    <tag k="teryt:simc" v="0911291"/>
    <tag k="teryt:stan_na" v="2009-01-01"/>
    <tag k="teryt:terc" v="0811065"/>
    <tag k="teryt:updated_by" v="teryt2osm combine.py v. 43"/>
    <tag k="wikipedia" v="Ziębikowo"/>
  </node>
  <node id="275126945" version="8" timestamp="2011-08-14T10:52:00Z" uid="163437" user="r-michael" changeset="9014257" lat="51.7991681" lon="14.8999699">
    <tag k="is_in" v="gmina Lubsko, powiat żarski, województwo lubuskie, Poland"/>
    <tag k="is_in:country" v="Poland"/>
    <tag k="is_in:county" v="powiat żarski"/>
    <tag k="is_in:municipality" v="gmina Lubsko"/>
    <tag k="is_in:province" v="województwo lubuskie"/>
    <tag k="name" v="Ziębikowo"/>
    <tag k="place" v="village"/>
    <tag k="population" v="102"/>
    <tag k="source:population" v="wikipedia"/>
    <tag k="teryt:rm" v="01"/>
    <tag k="teryt:simc" v="0911291"/>
    <tag k="teryt:stan_na" v="2009-01-01"/>
    <tag k="teryt:terc" v="0811065"/>
    <tag k="teryt:updated_by" v="teryt2osm combine.py v. 43"/>
    <tag k="wikipedia" v="Ziębikowo"/>
  </node>
  <node id="275127084" version="2" timestamp="2010-07-05T20:09:15Z" uid="9581" user="Lobelt" changeset="5145209" lat="43.5224066" lon="24.070631"/>
  <node id="275127084" version="3" timestamp="2012-03-29T22:42:27Z" uid="544370" user="atari_matari" changeset="11145579" lat="43.5224066" lon="24.070631"/>
  <node id="275127141" version="2" timestamp="2010-08-01T12:45:07Z" uid="9581" user="Lobelt" changeset="5370641" lat="42.17087" lon="26.04959"/>
  <node id="275127254" version="2" timestamp="2010-07-05T17:59:43Z" uid="9581" user="Lobelt" changeset="5144056" lat="42.4558198" lon="25.0641714"/>
  <node id="275127254" version="3" timestamp="2012-02-17T16:17:25Z" uid="85761" user="klausis" changeset="10712592" lat="42.4558198" lon="25.0641714"/>
  <node id="275127740" version="2" timestamp="2010-08-01T12:45:07Z" uid="9581" user="Lobelt" changeset="5370641" lat="42.16842" lon="25.98586"/>
  <node id="275127848" version="5" timestamp="2009-05-01T17:52:47Z" uid="20587" user="balrog-kun" changeset="1039873" lat="51.8639889" lon="14.9353118">
    <tag k="addr:postcode" v="68-300"/>
    <tag k="created_by" v="Potlatch 0.9c"/>
    <tag k="is_in" v="gmina Lubsko, powiat żarski, województwo lubuskie, Poland"/>
    <tag k="is_in:country" v="Poland"/>
    <tag k="is_in:county" v="powiat żarski"/>
    <tag k="is_in:municipality" v="gmina Lubsko"/>
    <tag k="is_in:province" v="województwo lubuskie"/>
    <tag k="name" v="Dąbrowa"/>
    <tag k="place" v="village"/>
    <tag k="population" v="160"/>
    <tag k="source:population" v="wikipedia"/>
    <tag k="teryt:rm" v="01"/>
    <tag k="teryt:simc" v="0911115"/>
    <tag k="teryt:stan_na" v="2009-01-01"/>
    <tag k="teryt:terc" v="0811065"/>
    <tag k="teryt:updated_by" v="teryt2osm combine.py v. 43"/>
    <tag k="wikipedia" v="Dąbrowa, Żary County"/>
  </node>
  <node id="275127848" version="6" timestamp="2010-04-11T04:38:19Z" uid="20587" user="balrog-kun" changeset="4389130" lat="51.8637102" lon="14.9365023">
    <tag k="addr:postcode" v="68-300"/>
    <tag k="is_in" v="gmina Lubsko, powiat żarski, województwo lubuskie, Poland"/>
    <tag k="is_in:country" v="Poland"/>
    <tag k="is_in:county" v="powiat żarski"/>
    <tag k="is_in:municipality" v="gmina Lubsko"/>
    <tag k="is_in:province" v="województwo lubuskie"/>
    <tag k="name" v="Dąbrowa"/>
    <tag k="place" v="village"/>
    <tag k="population" v="160"/>
    <tag k="source:population" v="wikipedia"/>
    <tag k="teryt:rm" v="01"/>
    <tag k="teryt:simc" v="0911115"/>
    <tag k="teryt:stan_na" v="2009-01-01"/>
    <tag k="teryt:terc" v="0811065"/>
    <tag k="teryt:updated_by" v="teryt2osm combine.py v. 43"/>
    <tag k="wikipedia" v="Dąbrowa, Żary County"/>
  </node>
  <node id="275127848" version="7" timestamp="2010-07-24T16:37:44Z" uid="48534" user="stsa" changeset="5305331" lat="51.8651857" lon="14.9354123">
    <tag k="addr:postcode" v="68-300"/>
    <tag k="is_in" v="gmina Lubsko, powiat żarski, województwo lubuskie, Poland"/>
    <tag k="is_in:country" v="Poland"/>
    <tag k="is_in:county" v="powiat żarski"/>
    <tag k="is_in:municipality" v="gmina Lubsko"/>
    <tag k="is_in:province" v="województwo lubuskie"/>
    <tag k="name" v="Dąbrowa"/>
    <tag k="place" v="village"/>
    <tag k="population" v="160"/>
    <tag k="source:population" v="wikipedia"/>
    <tag k="teryt:rm" v="01"/>
    <tag k="teryt:simc" v="0911115"/>
    <tag k="teryt:stan_na" v="2009-01-01"/>
    <tag k="teryt:terc" v="0811065"/>
    <tag k="teryt:updated_by" v="teryt2osm combine.py v. 43"/>
    <tag k="wikipedia" v="Dąbrowa, Żary County"/>
  </node>
  <node id="275127848" version="8" timestamp="2010-08-26T09:30:41Z" uid="48534" user="stsa" changeset="5597407" lat="51.8634733" lon="14.9374626">
    <tag k="addr:postcode" v="68-300"/>
    <tag k="is_in" v="gmina Lubsko, powiat żarski, województwo lubuskie, Poland"/>
    <tag k="is_in:country" v="Poland"/>
    <tag k="is_in:county" v="powiat żarski"/>
    <tag k="is_in:municipality" v="gmina Lubsko"/>
    <tag k="is_in:province" v="województwo lubuskie"/>
    <tag k="name" v="Dąbrowa"/>
    <tag k="place" v="village"/>
    <tag k="population" v="160"/>
    <tag k="source:population" v="wikipedia"/>
    <tag k="teryt:rm" v="01"/>
    <tag k="teryt:simc" v="0911115"/>
    <tag k="teryt:stan_na" v="2009-01-01"/>
    <tag k="teryt:terc" v="0811065"/>
    <tag k="teryt:updated_by" v="teryt2osm combine.py v. 43"/>
    <tag k="wikipedia" v="Dąbrowa, Żary County"/>
  </node>
  <node id="275127848" version="9" timestamp="2011-08-14T10:52:30Z" uid="163437" user="r-michael" changeset="9014257" lat="51.8634733" lon="14.9374626"/>
  <node id="275128187" version="5" timestamp="2009-05-01T17:52:25Z" uid="20587" user="balrog-kun" changeset="1039873" lat="51.8643069" lon="14.9639792">
    <tag k="created_by" v="Potlatch 0.9c"/>
    <tag k="is_in" v="gmina Lubsko, powiat żarski, województwo lubuskie, Poland"/>
    <tag k="is_in:country" v="Poland"/>
    <tag k="is_in:county" v="powiat żarski"/>
    <tag k="is_in:municipality" v="gmina Lubsko"/>
    <tag k="is_in:province" v="województwo lubuskie"/>
    <tag k="name" v="Tymienice"/>
    <tag k="place" v="village"/>
    <tag k="population" v="102"/>
    <tag k="source:population" v="wikipedia"/>
    <tag k="teryt:rm" v="01"/>
    <tag k="teryt:simc" v="0911285"/>
    <tag k="teryt:stan_na" v="2009-01-01"/>
    <tag k="teryt:terc" v="0811065"/>
    <tag k="teryt:updated_by" v="teryt2osm combine.py v. 43"/>
    <tag k="wikipedia" v="Tymienice, Lubusz Voivodeship"/>
  </node>
  <node id="275128187" version="6" timestamp="2010-04-11T04:38:19Z" uid="20587" user="balrog-kun" changeset="4389130" lat="51.8652738" lon="14.9657554">
    <tag k="is_in" v="gmina Lubsko, powiat żarski, województwo lubuskie, Poland"/>
    <tag k="is_in:country" v="Poland"/>
    <tag k="is_in:county" v="powiat żarski"/>
    <tag k="is_in:municipality" v="gmina Lubsko"/>
    <tag k="is_in:province" v="województwo lubuskie"/>
    <tag k="name" v="Tymienice"/>
    <tag k="place" v="village"/>
    <tag k="population" v="102"/>
    <tag k="source:population" v="wikipedia"/>
    <tag k="teryt:rm" v="01"/>
    <tag k="teryt:simc" v="0911285"/>
    <tag k="teryt:stan_na" v="2009-01-01"/>
    <tag k="teryt:terc" v="0811065"/>
    <tag k="teryt:updated_by" v="teryt2osm combine.py v. 43"/>
    <tag k="wikipedia" v="Tymienice, Lubusz Voivodeship"/>
  </node>
  <node id="275128404" version="5" timestamp="2009-05-01T17:52:32Z" uid="20587" user="balrog-kun" changeset="1039873" lat="51.8773437" lon="14.9543662">
    <tag k="created_by" v="Potlatch 0.9c"/>
    <tag k="is_in" v="gmina Lubsko, powiat żarski, województwo lubuskie, Poland"/>
    <tag k="is_in:country" v="Poland"/>
    <tag k="is_in:county" v="powiat żarski"/>
    <tag k="is_in:municipality" v="gmina Lubsko"/>
    <tag k="is_in:province" v="województwo lubuskie"/>
    <tag k="name" v="Kałek"/>
    <tag k="place" v="village"/>
    <tag k="population" v="60"/>
    <tag k="source:population" v="wikipedia"/>
    <tag k="teryt:rm" v="01"/>
    <tag k="teryt:simc" v="0911167"/>
    <tag k="teryt:stan_na" v="2009-01-01"/>
    <tag k="teryt:terc" v="0811065"/>
    <tag k="teryt:updated_by" v="teryt2osm combine.py v. 43"/>
    <tag k="wikipedia" v="Kałek, Lubusz Voivodeship"/>
  </node>
  <node id="275128404" version="6" timestamp="2010-04-11T04:38:19Z" uid="20587" user="balrog-kun" changeset="4389130" lat="51.8770006" lon="14.9551263">
    <tag k="is_in" v="gmina Lubsko, powiat żarski, województwo lubuskie, Poland"/>
    <tag k="is_in:country" v="Poland"/>
    <tag k="is_in:county" v="powiat żarski"/>
    <tag k="is_in:municipality" v="gmina Lubsko"/>
    <tag k="is_in:province" v="województwo lubuskie"/>
    <tag k="name" v="Kałek"/>
    <tag k="place" v="village"/>
    <tag k="population" v="60"/>
    <tag k="source:population" v="wikipedia"/>
    <tag k="teryt:rm" v="01"/>
    <tag k="teryt:simc" v="0911167"/>
    <tag k="teryt:stan_na" v="2009-01-01"/>
    <tag k="teryt:terc" v="0811065"/>
    <tag k="teryt:updated_by" v="teryt2osm combine.py v. 43"/>
    <tag k="wikipedia" v="Kałek, Lubusz Voivodeship"/>
  </node>
  <node id="275128404" version="7" timestamp="2011-08-14T10:52:31Z" uid="163437" user="r-michael" changeset="9014257" lat="51.8770006" lon="14.9551263"/>
  <node id="275128790" version="3" timestamp="2008-10-23T17:55:21Z" uid="6975" user="ulfl" changeset="530870" lat="31.5775409" lon="74.3544226">
    <tag k="amenity" v="university"/>
    <tag k="name" v="U.E.T Lhr"/>
  </node>
  <node id="275129046" version="2" timestamp="2008-12-20T13:39:08Z" uid="6975" user="ulfl" changeset="499085" lat="48.7676402" lon="9.1707597">
    <tag k="name" v="Der gute Ton"/>
    <tag k="shop" v="musical_instruments"/>
  </node>
  <node id="275129046" version="3" timestamp="2009-11-16T21:34:38Z" uid="12982" user="Michael Schulze" changeset="3136423" lat="48.7676741" lon="9.1708737">
    <tag k="name" v="Der gute Ton"/>
    <tag k="shop" v="musical_instruments"/>
  </node>
  <node id="275125275" version="10" timestamp="2012-06-15T07:58:58Z" uid="48534" user="stsa" changeset="11902189" lat="51.7723729" lon="14.994903">
    <tag k="is_in" v="gmina Jasień, powiat żarski, województwo lubuskie, Poland"/>
    <tag k="is_in:country" v="Poland"/>
    <tag k="is_in:county" v="powiat żarski"/>
    <tag k="is_in:municipality" v="gmina Jasień"/>
    <tag k="is_in:province" v="województwo lubuskie"/>
    <tag k="name" v="Budziechów"/>
    <tag k="place" v="village"/>
    <tag k="teryt:rm" v="01"/>
    <tag k="teryt:simc" v="0909816"/>
    <tag k="teryt:stan_na" v="2009-01-01"/>
    <tag k="teryt:terc" v="0811045"/>
    <tag k="teryt:updated_by" v="teryt2osm combine.py v. 43"/>
    <tag k="wikipedia" v="Budziechów"/>
  </node>
  <node id="275125275" version="11" timestamp="2012-07-24T20:41:25Z" uid="15720" user="J budissin" changeset="12476049" lat="51.7723729" lon="14.994903">
    <tag k="is_in" v="gmina Jasień, powiat żarski, województwo lubuskie, Poland"/>
    <tag k="is_in:country" v="Poland"/>
    <tag k="is_in:county" v="powiat żarski"/>
    <tag k="is_in:municipality" v="gmina Jasień"/>
    <tag k="is_in:province" v="województwo lubuskie"/>
    <tag k="name" v="Budziechów"/>
    <tag k="name:de" v="Baudach"/>
    <tag k="name:dsb" v="Budych"/>
    <tag k="name:hsb" v="Budych"/>
    <tag k="place" v="village"/>
    <tag k="teryt:rm" v="01"/>
    <tag k="teryt:simc" v="0909816"/>
    <tag k="teryt:stan_na" v="2009-01-01"/>
    <tag k="teryt:terc" v="0811045"/>
    <tag k="teryt:updated_by" v="teryt2osm combine.py v. 43"/>
    <tag k="wikipedia" v="Budziechów"/>
  </node>
  <node id="275125653" version="11" timestamp="2012-07-24T20:41:24Z" uid="15720" user="J budissin" changeset="12476049" lat="51.7809135" lon="15.0224032">
    <tag k="is_in" v="gmina Lubsko, powiat żarski, województwo lubuskie, Poland"/>
    <tag k="is_in:country" v="Poland"/>
    <tag k="is_in:county" v="powiat żarski"/>
    <tag k="is_in:municipality" v="gmina Lubsko"/>
    <tag k="is_in:province" v="województwo lubuskie"/>
    <tag k="name" v="Białków"/>
    <tag k="name:de" v="Belkau"/>
    <tag k="name:dsb" v="Belkow"/>
    <tag k="name:hsb" v="Belkow"/>
    <tag k="place" v="village"/>
    <tag k="population" v="345"/>
    <tag k="source:population" v="wikipedia"/>
    <tag k="teryt:rm" v="01"/>
    <tag k="teryt:simc" v="0911061"/>
    <tag k="teryt:stan_na" v="2009-01-01"/>
    <tag k="teryt:terc" v="0811065"/>
    <tag k="teryt:updated_by" v="teryt2osm combine.py v. 43"/>
    <tag k="wikipedia" v="Białków, Żary County"/>
  </node>
  <node id="275126945" version="9" timestamp="2012-07-22T21:20:03Z" uid="15720" user="J budissin" changeset="12439567" lat="51.7991681" lon="14.8999699">
    <tag k="is_in" v="gmina Lubsko, powiat żarski, województwo lubuskie, Poland"/>
    <tag k="is_in:country" v="Poland"/>
    <tag k="is_in:county" v="powiat żarski"/>
    <tag k="is_in:municipality" v="gmina Lubsko"/>
    <tag k="is_in:province" v="województwo lubuskie"/>
    <tag k="name" v="Ziębikowo"/>
    <tag k="name:de" v="Seebigau"/>
    <tag k="name:dsb" v="Zebikow"/>
    <tag k="name:hsb" v="Zebikow"/>
    <tag k="place" v="village"/>
    <tag k="population" v="102"/>
    <tag k="source:population" v="wikipedia"/>
    <tag k="teryt:rm" v="01"/>
    <tag k="teryt:simc" v="0911291"/>
    <tag k="teryt:stan_na" v="2009-01-01"/>
    <tag k="teryt:terc" v="0811065"/>
    <tag k="teryt:updated_by" v="teryt2osm combine.py v. 43"/>
    <tag k="wikipedia" v="Ziębikowo"/>
  </node>
  <node id="275126945" version="10" timestamp="2012-07-23T06:53:33Z" uid="163437" user="r-michael" changeset="12445220" lat="51.7991681" lon="14.8999699">
    <tag k="is_in" v="gmina Lubsko, powiat żarski, województwo lubuskie, Poland"/>
    <tag k="is_in:country" v="Poland"/>
    <tag k="is_in:county" v="powiat żarski"/>
    <tag k="is_in:municipality" v="gmina Lubsko"/>
    <tag k="is_in:province" v="województwo lubuskie"/>
    <tag k="name" v="Ziębikowo"/>
    <tag k="name:dsb" v="Zebikow"/>
    <tag k="name:hsb" v="Zebikow"/>
    <tag k="old_name" v="Seebigau"/>
    <tag k="place" v="village"/>
    <tag k="population" v="102"/>
    <tag k="source:population" v="wikipedia"/>
    <tag k="teryt:rm" v="01"/>
    <tag k="teryt:simc" v="0911291"/>
    <tag k="teryt:stan_na" v="2009-01-01"/>
    <tag k="teryt:terc" v="0811065"/>
    <tag k="teryt:updated_by" v="teryt2osm combine.py v. 43"/>
    <tag k="wikipedia" v="Ziębikowo"/>
  </node>
</osm>
