<?xml version='1.0' encoding='UTF-8'?>
<osm version="0.6" generator="libosmium/2.20.0">
  <node id="275390664" version="2" timestamp="2008-11-09T14:35:31Z" uid="3451" user="sascha_silbe" changeset="722251" lat="48.5082805" lon="9.0779105"/>
  <node id="275390666" version="2" timestamp="2008-11-09T14:35:00Z" uid="3451" user="sascha_silbe" changeset="722251" lat="48.5094728" lon="9.0791026"/>
  <node id="275390670" version="2" timestamp="2008-11-09T14:37:20Z" uid="3451" user="sascha_silbe" changeset="722251" lat="48.5114606" lon="9.0806833"/>
  <node id="275390670" version="3" timestamp="2012-03-04T16:47:51Z" uid="569579" user="judisa" changeset="10870740" lat="48.5113995" lon="9.0808807"/>
  <node id="275394207" version="3" timestamp="2008-09-14T13:18:19Z" uid="6975" user="ulfl" changeset="640534" lat="52.1331975" lon="9.9286716">
    <tag k="highway" v="bus_stop"/>
    <tag k="name" v="Goldene Perle"/>
  </node>
  <node id="275394207" version="4" timestamp="2009-02-10T03:30:16Z" uid="53339" user="eisbaer73" changeset="320936" lat="52.132407" lon="9.9276699">
    <tag k="highway" v="bus_stop"/>
    <tag k="name" v="Goldene Perle"/>
  </node>
  <node id="275394207" version="5" timestamp="2009-02-10T04:57:45Z" uid="53339" user="eisbaer73" changeset="320936" lat="52.1324722" lon="9.9279383">
    <tag k="highway" v="bus_stop"/>
    <tag k="name" v="Goldene Perle"/>
  </node>
  <node id="275394208" version="3" timestamp="2008-09-14T13:18:11Z" uid="6975" user="ulfl" changeset="640534" lat="52.1330521" lon="9.9288169">
    <tag k="highway" v="bus_stop"/>
    <tag k="name" v="Goldene Perle"/>
  </node>
  <node id="275394208" version="4" timestamp="2008-12-25T10:00:47Z" uid="28783" user="mey2008" changeset="594250" lat="52.1330416" lon="9.9287789">
    <tag k="highway" v="bus_stop"/>
    <tag k="name" v="Goldene Perle"/>
  </node>
  <node id="275394208" version="5" timestamp="2009-02-10T03:30:16Z" uid="53339" user="eisbaer73" changeset="320936" lat="52.1322511" lon="9.9278617">
    <tag k="highway" v="bus_stop"/>
    <tag k="name" v="Goldene Perle"/>
  </node>
  <node id="275394208" version="6" timestamp="2009-02-10T04:57:45Z" uid="53339" user="eisbaer73" changeset="320936" lat="52.1324056" lon="9.9279729">
    <tag k="highway" v="bus_stop"/>
    <tag k="name" v="Goldene Perle"/>
  </node>
  <node id="275394208" version="7" timestamp="2009-05-04T19:34:50Z" uid="64866" user="JoergN" changeset="1079427" lat="52.1323735" lon="9.9279687">
    <tag k="highway" v="bus_stop"/>
    <tag k="name" v="Goldene Perle"/>
  </node>
  <node id="275395761" version="2" timestamp="2009-05-03T18:14:30Z" uid="9581" user="Lobelt" changeset="1065639" lat="50.6856928" lon="11.2670467">
    <tag k="created_by" v="Merkaartor 0.11"/>
  </node>
  <node id="275395761" version="3" timestamp="2011-08-07T10:23:09Z" uid="118134" user="scai" changeset="8945414" lat="50.6856928" lon="11.2670467"/>
  <node id="275397117" version="5" timestamp="2008-09-24T20:40:56Z" uid="6975" user="ulfl" changeset="690442" lat="53.327508" lon="9.8777037">
    <tag k="amenity" v="bank"/>
    <tag k="atm" v="yes"/>
    <tag k="name" v="deutsche Bank"/>
  </node>
  <node id="275397117" version="6" timestamp="2008-10-28T18:39:27Z" uid="54253" user="JDPP" changeset="615099" lat="53.3274153" lon="9.8772666">
    <tag k="amenity" v="bank"/>
    <tag k="atm" v="yes"/>
    <tag k="name" v="deutsche Bank"/>
  </node>
  <node id="275397117" version="7" timestamp="2009-09-04T11:41:04Z" uid="42350" user="EgoMulle" changeset="2368809" lat="53.3274201" lon="9.87726">
    <tag k="addr:city" v="Buchholz"/>
    <tag k="addr:housenumber" v="6"/>
    <tag k="addr:postcode" v="21244"/>
    <tag k="addr:street" v="Breite Straße"/>
    <tag k="amenity" v="bank"/>
    <tag k="atm" v="yes"/>
    <tag k="name" v="deutsche Bank"/>
  </node>
  <node id="275397117" version="8" timestamp="2011-12-31T17:58:01Z" uid="175579" user="thal1982" changeset="10257147" lat="53.3273966" lon="9.8773869">
    <tag k="addr:city" v="Buchholz"/>
    <tag k="addr:housenumber" v="6"/>
    <tag k="addr:postcode" v="21244"/>
    <tag k="addr:street" v="Breite Straße"/>
    <tag k="amenity" v="bank"/>
    <tag k="atm" v="yes"/>
    <tag k="name" v="deutsche Bank"/>
  </node>
  <node id="275397117" version="9" timestamp="2012-01-10T20:40:10Z" uid="290680" user="wheelmap_visitor" changeset="10349079" lat="53.3273966" lon="9.8773869">
    <tag k="addr:city" v="Buchholz"/>
    <tag k="addr:housenumber" v="6"/>
    <tag k="addr:postcode" v="21244"/>
    <tag k="addr:street" v="Breite Straße"/>
    <tag k="amenity" v="bank"/>
    <tag k="atm" v="yes"/>
    <tag k="name" v="deutsche Bank"/>
    <tag k="wheelchair" v="yes"/>
  </node>
  <node id="275397117" version="10" timestamp="2012-01-16T10:01:13Z" uid="175579" user="thal1982" changeset="10406920" lat="53.3272774" lon="9.8774245">
    <tag k="addr:city" v="Buchholz"/>
    <tag k="addr:housenumber" v="6"/>
    <tag k="addr:postcode" v="21244"/>
    <tag k="addr:street" v="Breite Straße"/>
    <tag k="amenity" v="bank"/>
    <tag k="atm" v="yes"/>
    <tag k="name" v="deutsche Bank"/>
    <tag k="wheelchair" v="yes"/>
  </node>
  <node id="275397117" version="11" timestamp="2012-02-29T14:26:30Z" uid="290680" user="wheelmap_visitor" changeset="10825785" lat="53.3272774" lon="9.8774245">
    <tag k="addr:city" v="Buchholz"/>
    <tag k="addr:housenumber" v="6"/>
    <tag k="addr:postcode" v="21244"/>
    <tag k="addr:street" v="Breite Straße"/>
    <tag k="amenity" v="bank"/>
    <tag k="atm" v="yes"/>
    <tag k="name" v="deutsche Bank"/>
    <tag k="wheelchair" v="limited"/>
  </node>
  <node id="275398643" version="6" timestamp="2009-05-21T05:15:35Z" uid="43863" user="Rundling" changeset="1271161" lat="53.3657265" lon="10.500642"/>
  <node id="275399513" version="2" timestamp="2009-02-11T16:07:28Z" uid="9581" user="Lobelt" changeset="352640" lat="50.9508324" lon="13.0656141"/>
  <node id="275399521" version="2" timestamp="2009-02-11T16:07:28Z" uid="9581" user="Lobelt" changeset="352640" lat="50.951055" lon="13.0666341"/>
  <node id="275399531" version="4" timestamp="2009-02-11T16:07:28Z" uid="9581" user="Lobelt" changeset="352640" lat="50.9513282" lon="13.067906"/>
  <node id="275399533" version="3" timestamp="2009-02-11T16:07:28Z" uid="9581" user="Lobelt" changeset="352640" lat="50.9515253" lon="13.0687898"/>
  <node id="275399533" version="4" timestamp="2012-02-11T19:09:52Z" uid="344598" user="PeterSchum" changeset="10656223" lat="50.9515361" lon="13.0687683"/>
  <node id="275399998" version="14" timestamp="2008-12-30T16:25:10Z" uid="43863" user="Rundling" changeset="671125" lat="53.1861311" lon="10.6511517"/>
  <node id="275390664" version="3" timestamp="2012-07-19T20:08:07Z" uid="722137" user="OSMF Redaction Account" changeset="12345764" lat="48.5083575" lon="9.0778778"/>
  <node id="275399513" version="3" timestamp="2012-07-18T10:56:46Z" uid="722137" user="OSMF Redaction Account" changeset="12279156" lat="50.9508069" lon="13.0657659"/>
  <node id="275399521" version="3" timestamp="2012-07-18T10:56:46Z" uid="722137" user="OSMF Redaction Account" changeset="12279156" lat="50.9511092" lon="13.0668821"/>
  <node id="275399531" version="5" timestamp="2012-07-18T10:56:46Z" uid="722137" user="OSMF Redaction Account" changeset="12279156" lat="50.9512777" lon="13.0678412"/>
  <node id="275399998" version="15" timestamp="2012-07-17T07:56:05Z" uid="722137" user="OSMF Redaction Account" changeset="12259900" lat="53.1861304" lon="10.6511517"/>
</osm>
