<?xml version='1.0' encoding='UTF-8'?>
<osm version="0.6" generator="libosmium/2.20.0">
  <node id="275680133" version="1" timestamp="2008-07-02T20:24:36Z" uid="4667" user="MapZ" changeset="374787" lat="32.7362101" lon="-16.9656057">
    <tag k="is_in" v=",,Portugal"/>
    <tag k="name" v="Madeira"/>
    <tag k="place" v="island"/>
  </node>
  <node id="275680133" version="2" timestamp="2010-02-23T20:11:31Z" uid="102755" user="Erik Streb" changeset="3957830" lat="32.7362102" lon="-16.9656057">
    <tag k="is_in" v="Portugal"/>
    <tag k="name" v="Madeira"/>
    <tag k="place" v="island"/>
  </node>
  <node id="275680133" version="3" timestamp="2011-08-07T19:35:39Z" uid="15075" user="Reddig" changeset="8950933" lat="32.7362102" lon="-16.9656057">
    <tag k="is_in" v="Portugal"/>
    <tag k="name" v="Madeira"/>
    <tag k="place" v="island"/>
    <tag k="wikipedia" v="Região Autónoma da Madeira"/>
    <tag k="wikipedia:de" v="Madeira"/>
  </node>
  <node id="275680133" version="4" timestamp="2012-03-07T12:23:18Z" uid="174822" user="Canabis" changeset="10899037" lat="32.7362102" lon="-16.9656057">
    <tag k="is_in" v="Portugal"/>
    <tag k="name" v="Madeira"/>
    <tag k="name:ru" v="Мадейра"/>
    <tag k="place" v="island"/>
    <tag k="wikipedia" v="Região Autónoma da Madeira"/>
    <tag k="wikipedia:de" v="Madeira"/>
  </node>
  <node id="275680133" version="5" timestamp="2012-03-20T17:33:45Z" uid="210173" user="osmmaker" changeset="11042930" lat="32.7362102" lon="-16.9656057">
    <tag k="is_in" v="Portugal"/>
    <tag k="name" v="Madeira"/>
    <tag k="name:fr" v="Madère"/>
    <tag k="name:ru" v="Мадейра"/>
    <tag k="place" v="island"/>
    <tag k="wikipedia" v="Região Autónoma da Madeira"/>
    <tag k="wikipedia:de" v="Madeira"/>
  </node>
  <node id="275681642" version="1" timestamp="2008-07-02T20:31:31Z" uid="4667" user="MapZ" changeset="374787" lat="32.7355065" lon="-16.9287656">
    <tag k="ele" v="1818"/>
    <tag k="name" v="Pico do Arieiro"/>
    <tag k="natural" v="peak"/>
    <tag k="source" v="wikipedia"/>
  </node>
  <node id="275681642" version="2" timestamp="2008-08-20T17:41:13Z" uid="35483" user="FraFie" changeset="344362" lat="32.7356581" lon="-16.9286747">
    <tag k="ele" v="1818"/>
    <tag k="name" v="Pico do Arieiro"/>
    <tag k="natural" v="peak"/>
    <tag k="source" v="wikipedia"/>
  </node>
  <node id="275681642" version="3" timestamp="2010-10-31T09:37:47Z" uid="364960" user="castro" changeset="6236330" lat="32.7357267" lon="-16.9286819">
    <tag k="ele" v="1818"/>
    <tag k="name" v="Pico do Arieiro"/>
    <tag k="natural" v="peak"/>
    <tag k="source" v="wikipedia"/>
  </node>
  <node id="275681642" version="4" timestamp="2010-10-31T12:25:22Z" uid="351455" user="MiBo01" changeset="6237702" lat="32.7357266" lon="-16.928682">
    <tag k="ele" v="1818"/>
    <tag k="name" v="Pico do Arieiro"/>
    <tag k="natural" v="peak"/>
    <tag k="source" v="wikipedia"/>
  </node>
  <node id="275681642" version="5" timestamp="2010-11-14T19:31:59Z" uid="364960" user="castro" changeset="6370109" lat="32.7356925" lon="-16.9286993">
    <tag k="ele" v="1818"/>
    <tag k="name" v="Pico do Arieiro"/>
    <tag k="natural" v="peak"/>
    <tag k="source" v="wikipedia"/>
  </node>
  <node id="275681647" version="1" timestamp="2008-07-02T20:31:31Z" uid="4667" user="MapZ" changeset="374787" lat="32.7586361" lon="-16.9422012">
    <tag k="ele" v="1862"/>
    <tag k="name" v="Pico Ruivo"/>
    <tag k="natural" v="peak"/>
    <tag k="source" v="wikipedia"/>
  </node>
  <node id="275681647" version="2" timestamp="2008-08-18T17:16:31Z" uid="35483" user="FraFie" changeset="313647" lat="32.7587886" lon="-16.9426317">
    <tag k="ele" v="1862"/>
    <tag k="name" v="Pico Ruivo"/>
    <tag k="natural" v="peak"/>
    <tag k="source" v="wikipedia"/>
  </node>
  <node id="275681647" version="3" timestamp="2011-08-16T15:38:15Z" uid="487279" user="Lokalfuerst" changeset="9038131" lat="32.7587886" lon="-16.9426317">
    <tag k="ele" v="1862"/>
    <tag k="name" v="Pico Ruivo"/>
    <tag k="natural" v="peak"/>
    <tag k="tourism" v="viewpoing"/>
  </node>
  <node id="275681647" version="4" timestamp="2011-09-21T21:30:26Z" uid="179581" user="Geofreund1" changeset="9364365" lat="32.7587886" lon="-16.9426317">
    <tag k="ele" v="1862"/>
    <tag k="name" v="Pico Ruivo"/>
    <tag k="natural" v="peak"/>
    <tag k="tourism" v="viewpoint"/>
  </node>
  <node id="275685977" version="1" timestamp="2008-07-02T20:44:39Z" uid="43954" user="jensflorian" changeset="373280" lat="48.8044378" lon="9.208304">
    <tag k="created_by" v="Potlatch 0.9c"/>
  </node>
  <node id="275685977" version="2" timestamp="2008-07-02T21:15:56Z" uid="43954" user="jensflorian" changeset="373280" lat="48.8044378" lon="9.208304">
    <tag k="amenity" v="kiosk"/>
    <tag k="created_by" v="Potlatch 0.9c"/>
  </node>
  <node id="275685977" version="3" timestamp="2008-07-03T17:54:03Z" uid="6975" user="ulfl" changeset="379368" lat="48.8044378" lon="9.208304">
    <tag k="shop" v="kiosk"/>
  </node>
  <node id="275685977" version="4" timestamp="2008-07-17T08:57:07Z" uid="44971" user="LayBack" changeset="512608" lat="48.8042406" lon="9.2080859">
    <tag k="shop" v="kiosk"/>
  </node>
  <node id="275685977" version="5" timestamp="2010-03-10T11:52:00Z" uid="126242" user="webmeister" changeset="4088664" lat="48.8044014" lon="9.2080636">
    <tag k="name" v="Wilhelma-Shop"/>
    <tag k="shop" v="kiosk"/>
  </node>
  <node id="275685977" version="6" timestamp="2010-11-08T20:45:21Z" uid="290680" user="wheelmap_visitor" changeset="6318289" lat="48.8044014" lon="9.2080636">
    <tag k="name" v="Wilhelma-Shop"/>
    <tag k="shop" v="kiosk"/>
    <tag k="wheelchair" v="limited"/>
  </node>
  <node id="275685977" version="7" timestamp="2011-11-16T18:12:35Z" uid="89943" user="Bengatzer" changeset="9847172" lat="48.8044413" lon="9.2080495"/>
  <node id="275687725" version="2" timestamp="2010-06-14T12:23:00Z" uid="23543" user="jkjk" changeset="4987436" lat="49.673737" lon="14.0610192"/>
  <node id="275687726" version="2" timestamp="2010-06-14T12:22:59Z" uid="23543" user="jkjk" changeset="4987436" lat="49.6767363" lon="14.0629074"/>
  <node id="275687728" version="2" timestamp="2010-06-14T12:22:59Z" uid="23543" user="jkjk" changeset="4987436" lat="49.6781804" lon="14.0649674"/>
  <node id="275687729" version="2" timestamp="2010-06-14T12:22:59Z" uid="23543" user="jkjk" changeset="4987436" lat="49.6800687" lon="14.0665123"/>
  <node id="275687731" version="2" timestamp="2010-06-14T12:23:00Z" uid="23543" user="jkjk" changeset="4987436" lat="49.6802908" lon="14.0708039"/>
  <node id="275687732" version="2" timestamp="2010-06-14T12:22:59Z" uid="23543" user="jkjk" changeset="4987436" lat="49.6791801" lon="14.0726921"/>
  <node id="275687733" version="2" timestamp="2010-06-14T12:23:00Z" uid="23543" user="jkjk" changeset="4987436" lat="49.6768474" lon="14.0732071"/>
  <node id="275687734" version="2" timestamp="2010-06-14T12:23:00Z" uid="23543" user="jkjk" changeset="4987436" lat="49.6754033" lon="14.0725205"/>
  <node id="275687736" version="2" timestamp="2010-06-14T12:23:00Z" uid="23543" user="jkjk" changeset="4987436" lat="49.6732927" lon="14.0684006"/>
  <node id="275687738" version="2" timestamp="2010-06-14T12:22:59Z" uid="23543" user="jkjk" changeset="4987436" lat="49.6734037" lon="14.066169"/>
  <node id="275687739" version="2" timestamp="2010-06-14T12:23:00Z" uid="23543" user="jkjk" changeset="4987436" lat="49.6734037" lon="14.0637657"/>
  <node id="275688026" version="2" timestamp="2008-09-29T22:49:57Z" uid="1066" user="pavel" changeset="720263" lat="49.3261144" lon="14.5583294">
    <tag k="is_in" v="Czech Republic, Europe"/>
    <tag k="name" v="Všechlapy"/>
    <tag k="place" v="village"/>
  </node>
  <node id="275688026" version="3" timestamp="2008-11-04T13:04:24Z" uid="308" user="MichaelCollinson" changeset="676656" lat="49.3261144" lon="14.5583294">
    <tag k="is_in" v="Czech Republic, Europe"/>
    <tag k="is_in:continent" v="Europe"/>
    <tag k="is_in:country_code" v="cz"/>
    <tag k="name" v="Všechlapy"/>
    <tag k="place" v="village"/>
  </node>
  <node id="275688026" version="4" timestamp="2012-01-20T21:57:52Z" uid="536216" user="uir-zsj" changeset="10451080" lat="49.3261144" lon="14.5583294"/>
  <node id="275688074" version="2" timestamp="2008-09-29T23:55:56Z" uid="1066" user="pavel" changeset="720263" lat="49.3090005" lon="14.5485088">
    <tag k="is_in" v="Czech Republic, Europe"/>
    <tag k="name" v="Bechyňská Smoleč"/>
    <tag k="place" v="village"/>
  </node>
  <node id="275688074" version="3" timestamp="2008-11-04T13:04:31Z" uid="308" user="MichaelCollinson" changeset="676656" lat="49.3090005" lon="14.5485088">
    <tag k="is_in" v="Czech Republic, Europe"/>
    <tag k="is_in:continent" v="Europe"/>
    <tag k="is_in:country_code" v="cz"/>
    <tag k="name" v="Bechyňská Smoleč"/>
    <tag k="place" v="village"/>
  </node>
  <node id="275688074" version="4" timestamp="2010-03-10T11:48:15Z" uid="19173" user="wopixe" changeset="4088635" lat="49.3100032" lon="14.5471554">
    <tag k="is_in" v="Czech Republic, Europe"/>
    <tag k="is_in:continent" v="Europe"/>
    <tag k="is_in:country_code" v="cz"/>
    <tag k="name" v="Bechyňská Smoleč"/>
    <tag k="place" v="village"/>
  </node>
  <node id="275688074" version="5" timestamp="2012-01-20T21:58:05Z" uid="536216" user="uir-zsj" changeset="10451080" lat="49.3100032" lon="14.5471554"/>
  <node id="275688097" version="2" timestamp="2008-09-29T23:07:32Z" uid="1066" user="pavel" changeset="720263" lat="49.2904164" lon="14.5393144">
    <tag k="is_in" v="Czech Republic, Europe"/>
    <tag k="name" v="Sudoměřice u Bechyně"/>
    <tag k="place" v="village"/>
  </node>
  <node id="275688097" version="3" timestamp="2008-11-04T13:04:30Z" uid="308" user="MichaelCollinson" changeset="676656" lat="49.2904164" lon="14.5393144">
    <tag k="is_in" v="Czech Republic, Europe"/>
    <tag k="is_in:continent" v="Europe"/>
    <tag k="is_in:country_code" v="cz"/>
    <tag k="name" v="Sudoměřice u Bechyně"/>
    <tag k="place" v="village"/>
  </node>
  <node id="275688097" version="4" timestamp="2009-03-09T07:27:44Z" uid="19173" user="wopixe" changeset="766357" lat="49.2893748" lon="14.5378668">
    <tag k="is_in" v="Czech Republic, Europe"/>
    <tag k="is_in:continent" v="Europe"/>
    <tag k="is_in:country_code" v="cz"/>
    <tag k="name" v="Sudoměřice u Bechyně"/>
    <tag k="place" v="village"/>
  </node>
  <node id="275688097" version="5" timestamp="2012-01-20T21:57:58Z" uid="536216" user="uir-zsj" changeset="10451080" lat="49.2893748" lon="14.5378668"/>
  <node id="275680133" version="6" timestamp="2012-07-20T00:57:18Z" uid="722137" user="OSMF Redaction Account" changeset="12353702" lat="32.7362102" lon="-16.9656057"/>
  <node id="275681642" version="6" timestamp="2012-07-20T00:52:21Z" uid="722137" user="OSMF Redaction Account" changeset="12353368" lat="32.7356925" lon="-16.9286993"/>
  <node id="275681647" version="5" timestamp="2012-07-20T00:47:58Z" uid="722137" user="OSMF Redaction Account" changeset="12353033" lat="32.7587886" lon="-16.9426317">
    <tag k="tourism" v="viewpoint"/>
  </node>
  <node id="275681647" version="6" timestamp="2012-07-21T06:53:34Z" uid="655766" user="NunoCaldeira" changeset="12401826" lat="32.7589447" lon="-16.9427232">
    <tag k="tourism" v="viewpoint"/>
  </node>
  <node id="275681647" version="7" timestamp="2012-08-05T18:04:42Z" uid="65992" user="pseudo-freak" changeset="12624087" lat="32.7588812" lon="-16.9427105">
    <tag k="tourism" v="viewpoint"/>
  </node>
  <node id="275685977" version="8" timestamp="2012-08-06T21:24:43Z" uid="668573" user="Mammi71" changeset="12639107" lat="48.8044298" lon="9.2081285"/>
</osm>
