<?xml version='1.0' encoding='UTF-8'?>
<osm version="0.6" generator="libosmium/2.20.0">
  <node id="276000738" version="1" timestamp="2008-07-03T17:14:28Z" uid="43566" user="anbr" changeset="384817" lat="52.5263336" lon="13.4992502">
    <tag k="name" v="Herzbergstraße/ Siegfriedstraße"/>
  </node>
  <node id="276000738" version="2" timestamp="2008-07-03T17:15:17Z" uid="43566" user="anbr" changeset="384817" lat="52.5263336" lon="13.4992502">
    <tag k="name" v="Herzbergstraße/ Siegfriedstraße"/>
    <tag k="railway" v="tram stop"/>
  </node>
  <node id="276000738" version="3" timestamp="2008-07-04T22:09:51Z" uid="6975" user="ulfl" changeset="395915" lat="52.5263336" lon="13.4992502">
    <tag k="name" v="Herzbergstraße/ Siegfriedstraße"/>
    <tag k="railway" v="tram_stop"/>
  </node>
  <node id="276000738" version="4" timestamp="2008-07-17T18:48:13Z" uid="50252" user="Lewis Carroll" changeset="522733" lat="52.5263336" lon="13.4992502">
    <tag k="name" v="Herzbergstraße/ Siegfriedstraße"/>
    <tag k="railway" v="tram_stop"/>
  </node>
  <node id="276000738" version="5" timestamp="2009-09-10T06:58:05Z" uid="13203" user="bahnpirat" changeset="2432880" lat="52.5263336" lon="13.4992502">
    <tag k="name" v="Herzbergstraße/ Siegfriedstraße"/>
    <tag k="railway" v="tram_stop"/>
    <tag k="tactile_paving" v="no"/>
    <tag k="wheelchair" v="no"/>
  </node>
  <node id="276000738" version="6" timestamp="2010-02-07T14:03:20Z" uid="115651" user="Konrad Aust" changeset="3814463" lat="52.5263336" lon="13.4992502">
    <tag k="name" v="Herzbergstraße/Siegfriedstraße"/>
    <tag k="railway" v="tram_stop"/>
    <tag k="tactile_paving" v="no"/>
    <tag k="wheelchair" v="no"/>
  </node>
  <node id="276000738" version="7" timestamp="2010-02-08T18:54:04Z" uid="115651" user="Konrad Aust" changeset="3825862" lat="52.5263411" lon="13.4992506">
    <tag k="name" v="Herzbergstraße/Siegfriedstraße"/>
    <tag k="railway" v="tram_stop"/>
    <tag k="tactile_paving" v="no"/>
    <tag k="wheelchair" v="no"/>
  </node>
  <node id="276000738" version="8" timestamp="2011-04-30T20:50:44Z" uid="43566" user="anbr" changeset="8015771" lat="52.526374" lon="13.4992614">
    <tag k="name" v="Herzbergstraße/Siegfriedstraße"/>
    <tag k="railway" v="tram_stop"/>
    <tag k="tactile_paving" v="no"/>
    <tag k="wheelchair" v="no"/>
  </node>
  <node id="276000738" version="9" timestamp="2011-11-19T15:45:22Z" uid="290680" user="wheelmap_visitor" changeset="9869031" lat="52.526374" lon="13.4992614">
    <tag k="name" v="Herzbergstraße/Siegfriedstraße"/>
    <tag k="railway" v="tram_stop"/>
    <tag k="tactile_paving" v="no"/>
    <tag k="wheelchair" v="limited"/>
  </node>
  <node id="276002421" version="1" timestamp="2008-07-03T17:17:58Z" uid="43566" user="anbr" changeset="384817" lat="52.5267319" lon="13.4822391">
    <tag k="name" v="Bernhard-Bästlein-Straße"/>
    <tag k="railway" v="tram stop"/>
  </node>
  <node id="276002421" version="2" timestamp="2008-07-04T22:09:49Z" uid="6975" user="ulfl" changeset="395915" lat="52.5267319" lon="13.4822391">
    <tag k="name" v="Bernhard-Bästlein-Straße"/>
    <tag k="railway" v="tram_stop"/>
  </node>
  <node id="276002421" version="3" timestamp="2008-07-17T18:48:13Z" uid="50252" user="Lewis Carroll" changeset="522733" lat="52.5267319" lon="13.4822391">
    <tag k="name" v="Bernhard-Bästlein-Straße"/>
    <tag k="railway" v="tram_stop"/>
  </node>
  <node id="276002421" version="4" timestamp="2009-09-10T06:58:06Z" uid="13203" user="bahnpirat" changeset="2432880" lat="52.5267319" lon="13.4822391">
    <tag k="name" v="Bernhard-Bästlein-Straße"/>
    <tag k="railway" v="tram_stop"/>
    <tag k="shelter" v="yes"/>
    <tag k="tactile_paving" v="no"/>
    <tag k="wheelchair" v="no"/>
  </node>
  <node id="276002421" version="5" timestamp="2011-09-10T08:22:37Z" uid="43566" user="anbr" changeset="9260064" lat="52.5267489" lon="13.4822461">
    <tag k="name" v="Bernhard-Bästlein-Straße"/>
    <tag k="railway" v="tram_stop"/>
    <tag k="shelter" v="yes"/>
    <tag k="tactile_paving" v="no"/>
    <tag k="wheelchair" v="no"/>
  </node>
  <node id="276003546" version="1" timestamp="2008-07-03T17:23:34Z" uid="36809" user="pfoten_weg_!_" changeset="380211" lat="53.54003" lon="14.5638435"/>
  <node id="276003546" version="2" timestamp="2008-07-03T17:52:36Z" uid="36809" user="pfoten_weg_!_" changeset="380211" lat="53.54003" lon="14.5638435"/>
  <node id="276004783" version="1" timestamp="2008-07-03T17:26:09Z" uid="43566" user="anbr" changeset="384817" lat="52.5140869" lon="13.498215">
    <tag k="name" v="Fanningerstraße"/>
    <tag k="railway" v="tram stop"/>
  </node>
  <node id="276004783" version="2" timestamp="2008-07-04T22:09:51Z" uid="6975" user="ulfl" changeset="395915" lat="52.5140869" lon="13.498215">
    <tag k="name" v="Fanningerstraße"/>
    <tag k="railway" v="tram_stop"/>
  </node>
  <node id="276004783" version="3" timestamp="2008-07-25T20:27:24Z" uid="43566" user="anbr" changeset="593689" lat="52.5140869" lon="13.498215">
    <tag k="name" v="Fanningerstraße"/>
    <tag k="railway" v="tram_stop"/>
  </node>
  <node id="276004783" version="4" timestamp="2009-02-21T14:04:06Z" uid="13203" user="bahnpirat" changeset="594925" lat="52.5140869" lon="13.498215">
    <tag k="highway" v="bus_stop"/>
    <tag k="name" v="Fanningerstraße"/>
    <tag k="operator" v="BVG"/>
    <tag k="railway" v="tram_stop"/>
    <tag k="shelter" v="no"/>
  </node>
  <node id="276004857" version="1" timestamp="2008-07-03T17:26:17Z" uid="43566" user="anbr" changeset="384817" lat="52.5136105" lon="13.5015087"/>
  <node id="276004857" version="2" timestamp="2008-07-03T17:26:49Z" uid="43566" user="anbr" changeset="384817" lat="52.5136105" lon="13.5015087">
    <tag k="name" v="Guntherstraße"/>
    <tag k="railway" v="tram stop"/>
  </node>
  <node id="276004857" version="3" timestamp="2008-07-04T22:09:50Z" uid="6975" user="ulfl" changeset="395915" lat="52.5136105" lon="13.5015087">
    <tag k="name" v="Guntherstraße"/>
    <tag k="railway" v="tram_stop"/>
  </node>
  <node id="276004857" version="4" timestamp="2008-07-28T17:42:15Z" uid="13203" user="bahnpirat" changeset="613165" lat="52.5136105" lon="13.5015087">
    <tag k="name" v="Guntherstraße"/>
    <tag k="railway" v="tram_stop"/>
  </node>
  <node id="276004857" version="5" timestamp="2009-02-21T13:57:24Z" uid="13203" user="bahnpirat" changeset="594925" lat="52.5136105" lon="13.5015087">
    <tag k="highway" v="bus_stop"/>
    <tag k="name" v="Guntherstraße"/>
    <tag k="railway" v="tram_stop"/>
  </node>
  <node id="276004857" version="6" timestamp="2009-02-21T13:58:16Z" uid="13203" user="bahnpirat" changeset="594925" lat="52.5136105" lon="13.5015087">
    <tag k="highway" v="bus_stop"/>
    <tag k="name" v="Guntherstraße"/>
    <tag k="operator" v="BVG"/>
    <tag k="railway" v="tram_stop"/>
  </node>
  <node id="276004857" version="7" timestamp="2009-12-22T18:12:34Z" uid="43566" user="anbr" changeset="3429247" lat="52.5136108" lon="13.5015088">
    <tag k="highway" v="bus_stop"/>
    <tag k="name" v="Guntherstraße"/>
    <tag k="operator" v="BVG"/>
    <tag k="railway" v="tram_stop"/>
  </node>
  <node id="276004857" version="8" timestamp="2010-03-08T19:44:05Z" uid="43566" user="anbr" changeset="4075016" lat="52.5135644" lon="13.5020201">
    <tag k="highway" v="bus_stop"/>
    <tag k="name" v="Guntherstraße"/>
    <tag k="operator" v="BVG"/>
    <tag k="railway" v="tram_stop"/>
  </node>
  <node id="276005136" version="1" timestamp="2008-07-03T17:26:36Z" uid="4652" user="Deelkar" changeset="381028" lat="53.5976528" lon="8.5379637">
    <tag k="created_by" v="JOSM"/>
    <tag k="power" v="tower"/>
  </node>
  <node id="276005136" version="2" timestamp="2008-07-03T17:26:48Z" uid="4652" user="Deelkar" changeset="381028" lat="53.5976528" lon="8.5379637">
    <tag k="created_by" v="JOSM"/>
    <tag k="power" v="substation"/>
  </node>
  <node id="276005136" version="3" timestamp="2008-07-04T23:41:31Z" uid="6975" user="ulfl" changeset="395915" lat="53.5976528" lon="8.5379637">
    <tag k="power" v="sub_station"/>
  </node>
  <node id="276005136" version="4" timestamp="2012-03-29T16:59:43Z" uid="544675" user="Obelixx" changeset="11140983" lat="53.5976528" lon="8.5379637"/>
  <node id="276005416" version="1" timestamp="2008-07-03T17:27:18Z" uid="43566" user="anbr" changeset="384817" lat="52.5121712" lon="13.4995977"/>
  <node id="276005416" version="2" timestamp="2008-07-03T17:27:51Z" uid="43566" user="anbr" changeset="384817" lat="52.5121712" lon="13.4995977">
    <tag k="name" v="S+U Lichtenberg/ Gudrunstraße"/>
    <tag k="railway" v="tram stop"/>
  </node>
  <node id="276005416" version="3" timestamp="2008-07-04T22:09:52Z" uid="6975" user="ulfl" changeset="395915" lat="52.5121712" lon="13.4995977">
    <tag k="name" v="S+U Lichtenberg/ Gudrunstraße"/>
    <tag k="railway" v="tram_stop"/>
  </node>
  <node id="276005416" version="4" timestamp="2008-07-21T11:59:10Z" uid="13203" user="bahnpirat" changeset="557952" lat="52.5121712" lon="13.4995977">
    <tag k="name" v="S+U Lichtenberg/ Gudrunstraße"/>
    <tag k="railway" v="tram_stop"/>
  </node>
  <node id="276005416" version="5" timestamp="2010-02-13T15:07:57Z" uid="115651" user="Konrad Aust" changeset="3865523" lat="52.5121712" lon="13.4995977">
    <tag k="name" v="S+U Lichtenberg/Gudrunstraße"/>
    <tag k="railway" v="tram_stop"/>
  </node>
  <node id="276005416" version="6" timestamp="2010-12-31T12:33:34Z" uid="13203" user="bahnpirat" changeset="6819109" lat="52.5121712" lon="13.4995977">
    <tag k="name" v="S+U Lichtenberg/Gudrunstraße"/>
    <tag k="railway" v="tram_stop"/>
    <tag k="shelter" v="no"/>
    <tag k="tactile_paving" v="no"/>
    <tag k="wheelchair" v="no"/>
  </node>
  <node id="276006109" version="1" timestamp="2008-07-03T17:28:42Z" uid="43566" user="anbr" changeset="384817" lat="52.5154872" lon="13.4985706">
    <tag k="name" v="Freiaplatz"/>
    <tag k="railway" v="tram stop"/>
  </node>
  <node id="276006109" version="2" timestamp="2008-07-04T22:09:50Z" uid="6975" user="ulfl" changeset="395915" lat="52.5154872" lon="13.4985706">
    <tag k="name" v="Freiaplatz"/>
    <tag k="railway" v="tram_stop"/>
  </node>
  <node id="276006109" version="3" timestamp="2008-07-25T20:27:24Z" uid="43566" user="anbr" changeset="593689" lat="52.5154872" lon="13.4985706">
    <tag k="name" v="Freiaplatz"/>
    <tag k="railway" v="tram_stop"/>
  </node>
  <node id="276006109" version="4" timestamp="2008-08-05T09:31:41Z" uid="13203" user="bahnpirat" changeset="76173" lat="52.5154872" lon="13.4985706">
    <tag k="name" v="Freiaplatz"/>
    <tag k="railway" v="tram_stop"/>
    <tag k="ref" v="309094"/>
  </node>
  <node id="276006109" version="5" timestamp="2009-09-10T06:58:01Z" uid="13203" user="bahnpirat" changeset="2432880" lat="52.5154872" lon="13.4985706">
    <tag k="name" v="Freiaplatz"/>
    <tag k="railway" v="tram_stop"/>
    <tag k="ref" v="309094"/>
    <tag k="shelter" v="no"/>
    <tag k="tactile_paving" v="no"/>
    <tag k="wheelchair" v="no"/>
  </node>
  <node id="276006237" version="1" timestamp="2008-07-03T17:28:58Z" uid="43566" user="anbr" changeset="384817" lat="52.5205997" lon="13.4994242"/>
  <node id="276006237" version="2" timestamp="2008-07-03T17:29:29Z" uid="43566" user="anbr" changeset="384817" lat="52.5205997" lon="13.4994242">
    <tag k="name" v="Betriebshof Lichtenberg"/>
    <tag k="railway" v="tram stop"/>
  </node>
  <node id="276006237" version="3" timestamp="2008-07-04T22:09:50Z" uid="6975" user="ulfl" changeset="395915" lat="52.5205997" lon="13.4994242">
    <tag k="name" v="Betriebshof Lichtenberg"/>
    <tag k="railway" v="tram_stop"/>
  </node>
  <node id="276006237" version="4" timestamp="2008-07-25T20:27:24Z" uid="43566" user="anbr" changeset="593689" lat="52.5205997" lon="13.4994242">
    <tag k="name" v="Betriebshof Lichtenberg"/>
    <tag k="railway" v="tram_stop"/>
  </node>
  <node id="276006237" version="5" timestamp="2009-09-10T06:58:06Z" uid="13203" user="bahnpirat" changeset="2432880" lat="52.5205997" lon="13.4994242">
    <tag k="name" v="Betriebshof Lichtenberg"/>
    <tag k="railway" v="tram_stop"/>
    <tag k="shelter" v="yes"/>
    <tag k="tactile_paving" v="no"/>
    <tag k="wheelchair" v="no"/>
  </node>
  <node id="276006237" version="6" timestamp="2010-03-18T18:19:58Z" uid="115651" user="Konrad Aust" changeset="4163620" lat="52.5205953" lon="13.4994298">
    <tag k="name" v="Betriebshof Lichtenberg"/>
    <tag k="railway" v="tram_stop"/>
    <tag k="shelter" v="yes"/>
    <tag k="tactile_paving" v="no"/>
    <tag k="wheelchair" v="no"/>
  </node>
  <node id="276006237" version="7" timestamp="2010-03-18T18:20:05Z" uid="115651" user="Konrad Aust" changeset="4163620" lat="52.5205947" lon="13.4994558">
    <tag k="name" v="Betriebshof Lichtenberg"/>
    <tag k="railway" v="tram_stop"/>
    <tag k="shelter" v="yes"/>
    <tag k="tactile_paving" v="no"/>
    <tag k="wheelchair" v="no"/>
  </node>
  <node id="276006518" version="1" timestamp="2008-07-03T17:30:08Z" uid="43566" user="anbr" changeset="384817" lat="52.5231377" lon="13.4996008">
    <tag k="name" v="Siegfriedstraße/ Josef-Orlopp-Straße"/>
    <tag k="railway" v="tram stop"/>
  </node>
  <node id="276006518" version="2" timestamp="2008-07-04T22:09:50Z" uid="6975" user="ulfl" changeset="395915" lat="52.5231377" lon="13.4996008">
    <tag k="name" v="Siegfriedstraße/ Josef-Orlopp-Straße"/>
    <tag k="railway" v="tram_stop"/>
  </node>
  <node id="276006518" version="3" timestamp="2008-07-29T21:21:52Z" uid="13203" user="bahnpirat" changeset="622094" lat="52.5231377" lon="13.4996008">
    <tag k="name" v="Siegfriedstraße/ Josef-Orlopp-Straße"/>
    <tag k="railway" v="tram_stop"/>
  </node>
  <node id="276006518" version="4" timestamp="2009-09-29T13:41:49Z" uid="115651" user="Konrad Aust" changeset="2677309" lat="52.5231377" lon="13.4996008">
    <tag k="name" v="Siegfriedstraße/Josef-Orlopp-Straße"/>
    <tag k="railway" v="tram_stop"/>
  </node>
  <node id="276008129" version="1" timestamp="2008-07-03T17:39:31Z" uid="4652" user="Deelkar" changeset="381028" lat="53.8480063" lon="8.7096707">
    <tag k="created_by" v="JOSM"/>
    <tag k="power" v="substation"/>
  </node>
  <node id="276008129" version="2" timestamp="2008-07-04T23:41:29Z" uid="6975" user="ulfl" changeset="395915" lat="53.8480063" lon="8.7096707">
    <tag k="power" v="sub_station"/>
  </node>
  <node id="276008129" version="3" timestamp="2009-09-07T18:38:17Z" uid="119197" user="hjm" changeset="2406066" lat="53.8480063" lon="8.7096707">
    <tag k="power" v="sub_station"/>
  </node>
  <node id="276008129" version="4" timestamp="2010-03-08T17:14:22Z" uid="13203" user="bahnpirat" changeset="4073652" lat="53.8480063" lon="8.7096707">
    <tag k="fixme" v="name"/>
    <tag k="frequency" v="50"/>
    <tag k="operator" v="EWE"/>
    <tag k="power" v="station"/>
    <tag k="voltage" v="110000"/>
  </node>
  <node id="276008129" version="5" timestamp="2011-02-02T14:28:35Z" uid="206185" user="SiegiB" changeset="7165238" lat="52.4178053" lon="7.5176177">
    <tag k="fixme" v="name"/>
    <tag k="frequency" v="50"/>
    <tag k="operator" v="EWE"/>
    <tag k="power" v="station"/>
    <tag k="voltage" v="110000"/>
  </node>
  <node id="276008129" version="6" timestamp="2011-03-09T09:45:56Z" uid="42429" user="FK270673" changeset="7502214" lat="53.8480063" lon="8.7096707">
    <tag k="fixme" v="name"/>
    <tag k="frequency" v="50"/>
    <tag k="operator" v="EWE"/>
    <tag k="power" v="station"/>
    <tag k="voltage" v="110000"/>
  </node>
  <node id="276008129" version="7" timestamp="2011-05-06T11:50:23Z" uid="13203" user="bahnpirat" changeset="8064681" lat="53.8480621" lon="8.7095322"/>
  <node id="276009803" version="2" timestamp="2010-09-12T17:17:50Z" uid="9581" user="Lobelt" changeset="5761904" lat="49.360463" lon="8.287803"/>
  <node id="276009894" version="2" timestamp="2010-09-12T17:17:50Z" uid="9581" user="Lobelt" changeset="5761904" lat="49.3622443" lon="8.2946089"/>
  <node id="276000738" version="10" timestamp="2012-07-18T23:07:10Z" uid="209498" user="nurinfo" changeset="12301301" lat="52.526374" lon="13.4992614"/>
  <node id="276002421" version="6" timestamp="2012-08-12T17:59:49Z" uid="43566" user="anbr" changeset="12704770" lat="52.526766" lon="13.4821912">
    <tag k="name" v="Bernhard-Bästlein-Straße"/>
    <tag k="railway" v="tram_stop"/>
    <tag k="shelter" v="yes"/>
    <tag k="tactile_paving" v="no"/>
    <tag k="wheelchair" v="no"/>
  </node>
  <node id="276004783" version="5" timestamp="2012-08-13T17:59:11Z" uid="209498" user="nurinfo" changeset="12717293" lat="52.5141703" lon="13.4982159">
    <tag k="highway" v="bus_stop"/>
    <tag k="name" v="Fanningerstraße"/>
    <tag k="operator" v="BVG"/>
    <tag k="shelter" v="no"/>
  </node>
  <node id="276004857" version="9" timestamp="2012-08-14T06:03:52Z" uid="209498" user="nurinfo" changeset="12722361" lat="52.5135644" lon="13.5020201">
    <tag k="highway" v="bus_stop"/>
    <tag k="name" v="Guntherstraße"/>
    <tag k="operator" v="BVG"/>
  </node>
  <node id="276005416" version="7" timestamp="2012-08-13T17:59:21Z" uid="209498" user="nurinfo" changeset="12717293" lat="52.5121712" lon="13.4995977"/>
  <node id="276006109" version="6" timestamp="2012-08-13T17:59:21Z" uid="209498" user="nurinfo" changeset="12717293" lat="52.5154872" lon="13.4985706"/>
  <node id="276006237" version="8" timestamp="2012-08-13T12:04:29Z" uid="209498" user="nurinfo" changeset="12713066" lat="52.5205947" lon="13.4994558"/>
  <node id="276006518" version="5" timestamp="2012-08-13T12:04:21Z" uid="209498" user="nurinfo" changeset="12713066" lat="52.5231365" lon="13.4995779"/>
  <node id="276009803" version="3" timestamp="2012-07-17T12:13:14Z" uid="722137" user="OSMF Redaction Account" changeset="12264913" lat="49.3604763" lon="8.287786"/>
  <node id="276009894" version="3" timestamp="2012-07-17T12:13:15Z" uid="722137" user="OSMF Redaction Account" changeset="12264913" lat="49.3622288" lon="8.2946259"/>
</osm>
