<?xml version='1.0' encoding='UTF-8'?>
<osm version="0.6" generator="libosmium/2.20.0">
  <node id="276900151" version="2" timestamp="2009-11-07T20:10:18Z" uid="74617" user="JohnSmith" changeset="3058713" lat="-27.2249043" lon="153.017114"/>
  <node id="276900152" version="2" timestamp="2009-11-07T20:10:18Z" uid="74617" user="JohnSmith" changeset="3058713" lat="-27.2249221" lon="153.0173074"/>
  <node id="276900153" version="2" timestamp="2009-11-07T20:10:18Z" uid="74617" user="JohnSmith" changeset="3058713" lat="-27.2249107" lon="153.0175494"/>
  <node id="276900154" version="3" timestamp="2009-11-07T20:10:19Z" uid="74617" user="JohnSmith" changeset="3058713" lat="-27.2248724" lon="153.0176864"/>
  <node id="276900155" version="2" timestamp="2009-11-07T20:10:19Z" uid="74617" user="JohnSmith" changeset="3058713" lat="-27.2248903" lon="153.017784"/>
  <node id="276900156" version="3" timestamp="2009-11-07T20:10:19Z" uid="74617" user="JohnSmith" changeset="3058713" lat="-27.2248654" lon="153.018089"/>
  <node id="276900158" version="2" timestamp="2009-11-07T20:10:20Z" uid="74617" user="JohnSmith" changeset="3058713" lat="-27.2248381" lon="153.0185392"/>
  <node id="276900159" version="3" timestamp="2009-11-07T20:10:20Z" uid="74617" user="JohnSmith" changeset="3058713" lat="-27.2247896" lon="153.0186848"/>
  <node id="276900160" version="2" timestamp="2009-11-07T20:10:20Z" uid="74617" user="JohnSmith" changeset="3058713" lat="-27.2248103" lon="153.0187992"/>
  <node id="276900161" version="2" timestamp="2009-11-07T20:10:20Z" uid="74617" user="JohnSmith" changeset="3058713" lat="-27.2248152" lon="153.0189925"/>
  <node id="276900162" version="2" timestamp="2009-11-07T20:10:20Z" uid="74617" user="JohnSmith" changeset="3058713" lat="-27.224833" lon="153.0191833"/>
  <node id="276900163" version="2" timestamp="2009-11-07T20:10:20Z" uid="74617" user="JohnSmith" changeset="3058713" lat="-27.2248807" lon="153.0193173"/>
  <node id="276900164" version="2" timestamp="2009-11-07T20:10:20Z" uid="74617" user="JohnSmith" changeset="3058713" lat="-27.2249218" lon="153.019361"/>
  <node id="276900166" version="2" timestamp="2009-11-07T20:10:20Z" uid="74617" user="JohnSmith" changeset="3058713" lat="-27.224996" lon="153.0193868"/>
  <node id="276900168" version="2" timestamp="2009-11-07T20:10:20Z" uid="74617" user="JohnSmith" changeset="3058713" lat="-27.2250919" lon="153.0193721"/>
  <node id="276900168" version="3" timestamp="2011-07-06T10:22:32Z" uid="476245" user="Thorsten Engler" changeset="8646968" lat="-27.2250919" lon="153.0193721"/>
  <node id="276900170" version="4" timestamp="2010-07-15T00:39:21Z" uid="74617" user="JohnSmith" changeset="5222078" lat="-27.2252642" lon="153.0193711"/>
  <node id="276900400" version="2" timestamp="2009-11-07T19:54:08Z" uid="74617" user="JohnSmith" changeset="3058596" lat="-27.2250823" lon="153.0212114"/>
  <node id="276900400" version="3" timestamp="2010-05-26T06:50:20Z" uid="4467" user="Rosscoe" changeset="4810271" lat="-27.2250519" lon="153.0212231"/>
  <node id="276900401" version="2" timestamp="2009-11-07T19:54:08Z" uid="74617" user="JohnSmith" changeset="3058596" lat="-27.2249755" lon="153.0213916"/>
  <node id="276900401" version="3" timestamp="2010-05-26T06:50:23Z" uid="4467" user="Rosscoe" changeset="4810271" lat="-27.2249506" lon="153.0214089"/>
  <node id="276900402" version="2" timestamp="2009-11-07T19:54:08Z" uid="74617" user="JohnSmith" changeset="3058596" lat="-27.2250289" lon="153.0214861"/>
  <node id="276900402" version="3" timestamp="2010-05-26T06:50:29Z" uid="4467" user="Rosscoe" changeset="4810271" lat="-27.2250145" lon="153.0214937"/>
  <node id="276900403" version="3" timestamp="2009-11-07T19:54:08Z" uid="74617" user="JohnSmith" changeset="3058596" lat="-27.2250976" lon="153.0215118"/>
  <node id="276900403" version="4" timestamp="2010-05-26T06:50:17Z" uid="4467" user="Rosscoe" changeset="4810271" lat="-27.2250906" lon="153.0215168"/>
  <node id="276900405" version="2" timestamp="2009-11-07T19:54:08Z" uid="74617" user="JohnSmith" changeset="3058596" lat="-27.2252044" lon="153.0214689"/>
  <node id="276900405" version="3" timestamp="2010-05-26T06:50:26Z" uid="4467" user="Rosscoe" changeset="4810271" lat="-27.2251954" lon="153.0214779"/>
  <node id="276900406" version="2" timestamp="2009-11-07T19:54:08Z" uid="74617" user="JohnSmith" changeset="3058596" lat="-27.225235" lon="153.0213487"/>
  <node id="276900406" version="3" timestamp="2010-05-26T06:50:31Z" uid="4467" user="Rosscoe" changeset="4810271" lat="-27.2252443" lon="153.0213589"/>
  <node id="276900592" version="2" timestamp="2010-05-26T06:50:28Z" uid="4467" user="Rosscoe" changeset="4810271" lat="-27.2253855" lon="153.0213786"/>
  <node id="276900592" version="3" timestamp="2010-07-13T03:09:03Z" uid="74617" user="JohnSmith" changeset="5204244" lat="-27.2253855" lon="153.0213786"/>
  <node id="276900940" version="3" timestamp="2009-11-07T20:10:19Z" uid="74617" user="JohnSmith" changeset="3058713" lat="-27.2254585" lon="153.0183761"/>
  <node id="276900941" version="2" timestamp="2009-11-07T20:10:20Z" uid="74617" user="JohnSmith" changeset="3058713" lat="-27.2254101" lon="153.0184283"/>
  <node id="276900941" version="3" timestamp="2010-05-26T05:54:57Z" uid="4467" user="Rosscoe" changeset="4809993" lat="-27.2253925" lon="153.0184467"/>
  <node id="276900942" version="2" timestamp="2009-11-07T20:10:20Z" uid="74617" user="JohnSmith" changeset="3058713" lat="-27.225398" lon="153.0185483"/>
  <node id="276900942" version="3" timestamp="2010-05-26T05:55:54Z" uid="4467" user="Rosscoe" changeset="4809993" lat="-27.2253947" lon="153.0186756"/>
  <node id="276900945" version="4" timestamp="2009-11-07T20:10:19Z" uid="74617" user="JohnSmith" changeset="3058713" lat="-27.2255651" lon="153.019149"/>
  <node id="276900945" version="5" timestamp="2010-05-26T05:55:54Z" uid="4467" user="Rosscoe" changeset="4809993" lat="-27.2255475" lon="153.0191545"/>
  <node id="276902651" version="4" timestamp="2010-04-30T18:49:52Z" uid="9581" user="Lobelt" changeset="4568850" lat="49.9453593" lon="9.0975251"/>
  <node id="276904569" version="1" timestamp="2008-07-07T11:31:17Z" uid="35302" user="hlmapper" changeset="423966" lat="51.7973364" lon="10.4331298">
    <tag k="amenity" v="hostel"/>
    <tag k="created_by" v="Potlatch 0.9c"/>
    <tag k="name" v="EC-Tagungsstätte"/>
  </node>
  <node id="276904569" version="2" timestamp="2008-07-08T01:42:58Z" uid="6975" user="ulfl" changeset="429882" lat="51.7973364" lon="10.4331298">
    <tag k="name" v="EC-Tagungsstätte"/>
    <tag k="tourism" v="hostel"/>
  </node>
  <node id="276904569" version="3" timestamp="2010-06-07T08:36:42Z" uid="13437" user="Duetzer" changeset="4925894" lat="51.7987979" lon="10.436882">
    <tag k="name" v="EC-Tagungsstätte"/>
    <tag k="tourism" v="hostel"/>
  </node>
  <node id="276904569" version="4" timestamp="2011-04-26T23:02:49Z" uid="13437" user="Duetzer" changeset="7980572" lat="51.7986254" lon="10.4370537">
    <tag k="name" v="EC-Tagungsstätte"/>
    <tag k="tourism" v="hostel"/>
  </node>
  <node id="276904569" version="5" timestamp="2011-10-15T12:36:01Z" uid="290680" user="wheelmap_visitor" changeset="9560388" lat="51.7986254" lon="10.4370537">
    <tag k="name" v="EC-Tagungsstätte"/>
    <tag k="tourism" v="hostel"/>
    <tag k="wheelchair" v="limited"/>
  </node>
  <node id="276904640" version="1" timestamp="2008-07-07T11:32:45Z" uid="47028" user="jbb" changeset="425360" lat="51.8194844" lon="12.1773662">
    <tag k="amenity" v="supermarket"/>
    <tag k="created_by" v="Potlatch 0.9c"/>
  </node>
  <node id="276904640" version="2" timestamp="2008-07-08T19:46:02Z" uid="6975" user="ulfl" changeset="431192" lat="51.8194844" lon="12.1773662">
    <tag k="shop" v="supermarket"/>
  </node>
  <node id="276904640" version="3" timestamp="2008-07-19T17:29:52Z" uid="47028" user="jbb" changeset="544181" lat="51.8183817" lon="12.1805923">
    <tag k="created_by" v="Potlatch 0.10"/>
    <tag k="shop" v="supermarket"/>
  </node>
  <node id="276904640" version="4" timestamp="2008-07-26T17:44:18Z" uid="47028" user="jbb" changeset="602042" lat="51.8183713" lon="12.1804742">
    <tag k="created_by" v="Potlatch 0.10"/>
    <tag k="shop" v="supermarket"/>
  </node>
  <node id="276904640" version="5" timestamp="2008-07-26T17:44:30Z" uid="47028" user="jbb" changeset="602042" lat="51.8183713" lon="12.1804742">
    <tag k="created_by" v="Potlatch 0.10"/>
    <tag k="name" v="EDEKA"/>
    <tag k="shop" v="supermarket"/>
  </node>
  <node id="276904640" version="6" timestamp="2011-04-12T19:22:46Z" uid="42537" user="XBear" changeset="7845817" lat="51.8183713" lon="12.1804742">
    <tag k="created_by" v="Potlatch 0.10"/>
    <tag k="name" v="EDEKA"/>
    <tag k="shop" v="supermarket"/>
  </node>
  <node id="276904749" version="2" timestamp="2009-04-15T20:47:36Z" uid="39740" user="livestream" changeset="563191" lat="49.6034444" lon="6.9911277"/>
  <node id="276904749" version="3" timestamp="2009-10-18T20:12:34Z" uid="81477" user="Dueppi" changeset="2888592" lat="49.603485" lon="6.9911366"/>
  <node id="276904749" version="4" timestamp="2010-03-15T18:46:37Z" uid="16112" user="Barthwo" changeset="4137082" lat="49.6034819" lon="6.9910576"/>
  <node id="276904749" version="5" timestamp="2010-03-15T22:45:23Z" uid="16112" user="Barthwo" changeset="4139525" lat="49.6034854" lon="6.9909905"/>
  <node id="276904920" version="2" timestamp="2009-03-15T01:23:11Z" uid="34428" user="usm78-gis" changeset="811766" lat="60.0046775" lon="30.6432764"/>
  <node id="276904921" version="2" timestamp="2009-03-15T01:23:11Z" uid="34428" user="usm78-gis" changeset="811766" lat="60.0064504" lon="30.6426551"/>
  <node id="276904921" version="3" timestamp="2010-11-04T06:19:14Z" uid="81821" user="alexsaf" changeset="6285465" lat="60.0064625" lon="30.6426582"/>
  <node id="276904921" version="4" timestamp="2011-05-30T20:39:51Z" uid="136198" user="tmprec" changeset="8296226" lat="60.0065505" lon="30.6426582"/>
  <node id="276904922" version="2" timestamp="2009-03-15T01:23:11Z" uid="34428" user="usm78-gis" changeset="811766" lat="60.0046775" lon="30.6432764"/>
  <node id="276904922" version="3" timestamp="2009-03-15T01:23:13Z" uid="34428" user="usm78-gis" changeset="811766" lat="60.0046775" lon="30.6432764"/>
  <node id="276904922" version="4" timestamp="2009-03-15T01:23:13Z" uid="34428" user="usm78-gis" changeset="811766" lat="60.0046775" lon="30.6432764"/>
  <node id="276904922" version="5" timestamp="2010-11-04T06:19:14Z" uid="81821" user="alexsaf" changeset="6285465" lat="60.0047408" lon="30.6432912"/>
  <node id="276904922" version="6" timestamp="2011-05-30T20:38:33Z" uid="136198" user="tmprec" changeset="8296226" lat="60.0047649" lon="30.6432494"/>
  <node id="276904922" version="7" timestamp="2012-01-24T15:22:47Z" uid="205886" user="Diomas" changeset="10485432" lat="60.0047348" lon="30.6432544"/>
  <node id="276904948" version="2" timestamp="2008-07-12T07:05:17Z" uid="27600" user="Islanit" changeset="469615" lat="53.5209352" lon="10.120734"/>
  <node id="276905690" version="2" timestamp="2008-07-13T19:27:36Z" uid="5871" user="Banny" changeset="478344" lat="50.9917188" lon="7.1402402"/>
  <node id="276905762" version="2" timestamp="2008-07-13T19:27:36Z" uid="5871" user="Banny" changeset="478344" lat="50.9898561" lon="7.1389888"/>
  <node id="276905795" version="2" timestamp="2008-07-09T11:06:18Z" uid="5871" user="Banny" changeset="444232" lat="50.9855031" lon="7.1381977"/>
  <node id="276905796" version="2" timestamp="2008-07-09T11:06:22Z" uid="5871" user="Banny" changeset="444232" lat="50.9855223" lon="7.1381972"/>
  <node id="276906129" version="8" timestamp="2011-06-10T11:59:18Z" uid="115477" user="wowik" changeset="8396257" lat="56.2316095" lon="36.8233146">
    <tag k="addr:country" v="RU"/>
    <tag k="addr:district" v="Клинский район"/>
    <tag k="addr:postcode" v="141661"/>
    <tag k="addr:region" v="Московская область"/>
    <tag k="cladr:code" v="5001100016800"/>
    <tag k="cladr:name" v="Покровка"/>
    <tag k="cladr:suffix" v="Деревня"/>
    <tag k="name" v="Покровка"/>
    <tag k="place" v="village"/>
  </node>
  <node id="276906129" version="9" timestamp="2011-08-07T16:38:33Z" uid="297358" user="patashnik" changeset="8949086" lat="56.2316095" lon="36.8233146">
    <tag k="addr:country" v="RU"/>
    <tag k="addr:district" v="Клинский район"/>
    <tag k="addr:region" v="Московская область"/>
    <tag k="cladr:code" v="5001100016800"/>
    <tag k="name" v="Покровка"/>
    <tag k="place" v="village"/>
  </node>
  <node id="276906841" version="5" timestamp="2009-10-02T17:05:55Z" uid="115477" user="wowik" changeset="2715023" lat="55.8563431" lon="37.3137517">
    <tag k="addr:country" v="RU"/>
    <tag k="addr:district" v="Красногорский район"/>
    <tag k="addr:postcode" v="143441"/>
    <tag k="addr:region" v="Московская область"/>
    <tag k="cladr:code" v="5001300004800"/>
    <tag k="cladr:name" v="Росинка"/>
    <tag k="cladr:suffix" v="Поселок"/>
    <tag k="name" v="Росинка"/>
    <tag k="name:en" v="Rosinka"/>
    <tag k="place" v="village"/>
  </node>
  <node id="276906841" version="6" timestamp="2010-06-04T18:59:34Z" uid="94786" user="glebius" changeset="4903090" lat="55.8563431" lon="37.3137517">
    <tag k="addr:country" v="RU"/>
    <tag k="addr:district" v="Красногорский район"/>
    <tag k="addr:postcode" v="143441"/>
    <tag k="addr:region" v="Московская область"/>
    <tag k="cladr:code" v="5001300004800"/>
    <tag k="cladr:name" v="Росинка"/>
    <tag k="cladr:suffix" v="Поселок"/>
    <tag k="name" v="Росинка"/>
    <tag k="name:en" v="Rosinka"/>
    <tag k="name:ru" v="Росинка"/>
    <tag k="place" v="village"/>
  </node>
  <node id="276906841" version="7" timestamp="2011-08-07T16:38:34Z" uid="297358" user="patashnik" changeset="8949086" lat="55.8563431" lon="37.3137517">
    <tag k="addr:country" v="RU"/>
    <tag k="addr:district" v="Красногорский район"/>
    <tag k="addr:region" v="Московская область"/>
    <tag k="cladr:code" v="5001300004800"/>
    <tag k="name" v="Росинка"/>
    <tag k="name:en" v="Rosinka"/>
    <tag k="name:ru" v="Росинка"/>
    <tag k="place" v="village"/>
  </node>
  <node id="276906841" version="8" timestamp="2011-10-03T11:28:18Z" uid="117498" user="Tararan" changeset="9459220" lat="55.8563431" lon="37.3137517">
    <tag k="addr:country" v="RU"/>
    <tag k="addr:district" v="Красногорский район"/>
    <tag k="addr:region" v="Московская область"/>
    <tag k="cladr:code" v="5001300004800"/>
    <tag k="name" v="Росинка"/>
    <tag k="name:en" v="Rosinka"/>
    <tag k="name:eo" v="Rosinka"/>
    <tag k="name:ru" v="Росинка"/>
    <tag k="place" v="village"/>
  </node>
  <node id="276906848" version="6" timestamp="2010-04-15T11:14:58Z" uid="115477" user="wowik" changeset="4429999" lat="55.8599457" lon="37.312741">
    <tag k="addr:country" v="RU"/>
    <tag k="addr:district" v="Красногорский район"/>
    <tag k="addr:postcode" v="143442"/>
    <tag k="addr:region" v="Московская область"/>
    <tag k="cladr:code" v="5001300000300"/>
    <tag k="cladr:name" v="Ангелово"/>
    <tag k="cladr:suffix" v="Деревня"/>
    <tag k="name" v="Ангелово"/>
    <tag k="place" v="village"/>
  </node>
  <node id="276906848" version="7" timestamp="2011-08-07T16:38:34Z" uid="297358" user="patashnik" changeset="8949086" lat="55.8599457" lon="37.312741">
    <tag k="addr:country" v="RU"/>
    <tag k="addr:district" v="Красногорский район"/>
    <tag k="addr:region" v="Московская область"/>
    <tag k="cladr:code" v="5001300000300"/>
    <tag k="name" v="Ангелово"/>
    <tag k="place" v="village"/>
  </node>
  <node id="276906848" version="8" timestamp="2011-10-03T11:28:19Z" uid="117498" user="Tararan" changeset="9459220" lat="55.8599457" lon="37.312741">
    <tag k="addr:country" v="RU"/>
    <tag k="addr:district" v="Красногорский район"/>
    <tag k="addr:region" v="Московская область"/>
    <tag k="cladr:code" v="5001300000300"/>
    <tag k="name" v="Ангелово"/>
    <tag k="name:eo" v="Angelovo"/>
    <tag k="place" v="village"/>
  </node>
  <node id="276906885" version="4" timestamp="2009-10-02T16:53:33Z" uid="115477" user="wowik" changeset="2714756" lat="55.8744722" lon="37.3142824">
    <tag k="addr:country" v="RU"/>
    <tag k="addr:district" v="Красногорский район"/>
    <tag k="addr:postcode" v="143442"/>
    <tag k="addr:region" v="Московская область"/>
    <tag k="cladr:code" v="5001300003400"/>
    <tag k="cladr:name" v="Отрадное"/>
    <tag k="cladr:suffix" v="Поселок"/>
    <tag k="created_by" v="Potlatch 0.9c"/>
    <tag k="name" v="Отрадное"/>
    <tag k="place" v="town"/>
  </node>
  <node id="276906885" version="5" timestamp="2009-10-05T07:24:37Z" uid="11132" user="liosha" changeset="2746505" lat="55.8744722" lon="37.3142824">
    <tag k="addr:country" v="RU"/>
    <tag k="addr:district" v="Красногорский район"/>
    <tag k="addr:postcode" v="143442"/>
    <tag k="addr:region" v="Московская область"/>
    <tag k="cladr:code" v="5001300003400"/>
    <tag k="cladr:name" v="Отрадное"/>
    <tag k="cladr:suffix" v="Поселок"/>
    <tag k="name" v="Отрадное"/>
    <tag k="place" v="town"/>
  </node>
  <node id="276906885" version="6" timestamp="2010-02-11T13:52:12Z" uid="69700" user="unwrecker" changeset="3848518" lat="55.8744722" lon="37.3142824">
    <tag k="addr:country" v="RU"/>
    <tag k="addr:district" v="Красногорский район"/>
    <tag k="addr:postcode" v="143442"/>
    <tag k="addr:region" v="Московская область"/>
    <tag k="cladr:code" v="5001300003400"/>
    <tag k="cladr:name" v="Отрадное"/>
    <tag k="cladr:suffix" v="Поселок"/>
    <tag k="name" v="Отрадное"/>
    <tag k="place" v="village"/>
  </node>
  <node id="276906885" version="7" timestamp="2011-08-07T16:38:34Z" uid="297358" user="patashnik" changeset="8949086" lat="55.8744722" lon="37.3142824">
    <tag k="addr:country" v="RU"/>
    <tag k="addr:district" v="Красногорский район"/>
    <tag k="addr:region" v="Московская область"/>
    <tag k="cladr:code" v="5001300003400"/>
    <tag k="name" v="Отрадное"/>
    <tag k="place" v="village"/>
  </node>
  <node id="276906885" version="8" timestamp="2011-10-03T11:28:17Z" uid="117498" user="Tararan" changeset="9459220" lat="55.8744722" lon="37.3142824">
    <tag k="addr:country" v="RU"/>
    <tag k="addr:district" v="Красногорский район"/>
    <tag k="addr:region" v="Московская область"/>
    <tag k="cladr:code" v="5001300003400"/>
    <tag k="name" v="Отрадное"/>
    <tag k="name:eo" v="Otradnoje"/>
    <tag k="place" v="village"/>
  </node>
  <node id="276906885" version="9" timestamp="2012-01-10T08:40:48Z" uid="321862" user="DanX" changeset="10349313" lat="55.8746768" lon="37.3119628">
    <tag k="addr:country" v="RU"/>
    <tag k="addr:district" v="Красногорский район"/>
    <tag k="addr:region" v="Московская область"/>
    <tag k="cladr:code" v="5001300003400"/>
    <tag k="name" v="Отрадное"/>
    <tag k="name:eo" v="Otradnoje"/>
    <tag k="place" v="village"/>
  </node>
  <node id="276906885" version="10" timestamp="2012-03-08T20:14:15Z" uid="556272" user="Chet1223" changeset="10913077" lat="55.875505" lon="37.3130614">
    <tag k="addr:country" v="RU"/>
    <tag k="addr:district" v="Красногорский район"/>
    <tag k="addr:region" v="Московская область"/>
    <tag k="cladr:code" v="5001300003400"/>
    <tag k="name" v="Отрадное"/>
    <tag k="name:eo" v="Otradnoje"/>
    <tag k="place" v="village"/>
  </node>
  <node id="276907570" version="4" timestamp="2008-12-30T00:29:49Z" uid="65847" user="LKK" changeset="668372" lat="49.1661701" lon="7.6577525"/>
  <node id="276907571" version="6" timestamp="2008-12-30T00:29:52Z" uid="65847" user="LKK" changeset="668372" lat="49.1650476" lon="7.6599841"/>
  <node id="276907572" version="4" timestamp="2008-12-30T00:30:25Z" uid="65847" user="LKK" changeset="668372" lat="49.1634761" lon="7.6608424"/>
  <node id="276907573" version="6" timestamp="2008-12-30T00:30:33Z" uid="65847" user="LKK" changeset="668372" lat="49.1624659" lon="7.6613573"/>
  <node id="276907574" version="4" timestamp="2008-12-30T00:30:46Z" uid="65847" user="LKK" changeset="668372" lat="49.1614556" lon="7.6632456"/>
  <node id="276907575" version="4" timestamp="2008-12-30T00:30:55Z" uid="65847" user="LKK" changeset="668372" lat="49.1610066" lon="7.6659922"/>
  <node id="276907576" version="4" timestamp="2008-12-30T00:30:10Z" uid="65847" user="LKK" changeset="668372" lat="49.1611188" lon="7.6683955"/>
  <node id="276907577" version="4" timestamp="2008-12-30T00:30:15Z" uid="65847" user="LKK" changeset="668372" lat="49.1616801" lon="7.6713137"/>
  <node id="276907578" version="4" timestamp="2008-12-30T00:30:18Z" uid="65847" user="LKK" changeset="668372" lat="49.1621291" lon="7.6747469"/>
  <node id="276907579" version="4" timestamp="2008-12-30T00:30:22Z" uid="65847" user="LKK" changeset="668372" lat="49.1605576" lon="7.6762919"/>
  <node id="276907580" version="4" timestamp="2008-12-30T00:29:56Z" uid="65847" user="LKK" changeset="668372" lat="49.1601085" lon="7.6773219"/>
  <node id="276907581" version="4" timestamp="2008-12-30T00:29:58Z" uid="65847" user="LKK" changeset="668372" lat="49.1599963" lon="7.6807551"/>
  <node id="276907582" version="4" timestamp="2008-12-30T00:30:01Z" uid="65847" user="LKK" changeset="668372" lat="49.1607821" lon="7.6865916"/>
  <node id="276907583" version="4" timestamp="2008-12-30T00:30:06Z" uid="65847" user="LKK" changeset="668372" lat="49.1611188" lon="7.6889948"/>
  <node id="276907584" version="4" timestamp="2008-12-30T00:29:44Z" uid="65847" user="LKK" changeset="668372" lat="49.1623536" lon="7.6925997"/>
  <node id="276907585" version="4" timestamp="2008-12-30T00:30:53Z" uid="65847" user="LKK" changeset="668372" lat="49.1626904" lon="7.6960329"/>
  <node id="276907586" version="4" timestamp="2008-12-30T00:30:59Z" uid="65847" user="LKK" changeset="668372" lat="49.1620169" lon="7.6980929"/>
  <node id="276907587" version="6" timestamp="2008-12-30T00:29:44Z" uid="65847" user="LKK" changeset="668372" lat="49.1639251" lon="7.7008395"/>
  <node id="276907588" version="4" timestamp="2008-12-30T00:30:00Z" uid="65847" user="LKK" changeset="668372" lat="49.1642619" lon="7.7049593"/>
  <node id="276907589" version="4" timestamp="2008-12-30T00:29:57Z" uid="65847" user="LKK" changeset="668372" lat="49.1639251" lon="7.7092509"/>
  <node id="276907590" version="4" timestamp="2008-12-30T00:29:55Z" uid="65847" user="LKK" changeset="668372" lat="49.1652721" lon="7.7130274"/>
  <node id="276907591" version="4" timestamp="2008-12-30T00:29:54Z" uid="65847" user="LKK" changeset="668372" lat="49.1669558" lon="7.716804"/>
  <node id="276907592" version="4" timestamp="2008-12-30T00:30:21Z" uid="65847" user="LKK" changeset="668372" lat="49.1683026" lon="7.7176623"/>
  <node id="276907593" version="4" timestamp="2008-12-30T00:30:14Z" uid="65847" user="LKK" changeset="668372" lat="49.169874" lon="7.7169756"/>
  <node id="276907594" version="4" timestamp="2008-12-30T00:30:08Z" uid="65847" user="LKK" changeset="668372" lat="49.174251" lon="7.7180056"/>
  <node id="276907595" version="4" timestamp="2008-12-30T00:30:04Z" uid="65847" user="LKK" changeset="668372" lat="49.1808718" lon="7.7164606"/>
  <node id="276907596" version="4" timestamp="2008-12-30T00:30:44Z" uid="65847" user="LKK" changeset="668372" lat="49.184238" lon="7.7214388"/>
  <node id="276907597" version="4" timestamp="2008-12-30T00:30:38Z" uid="65847" user="LKK" changeset="668372" lat="49.186482" lon="7.7210955"/>
  <node id="276907598" version="4" timestamp="2008-12-30T00:30:28Z" uid="65847" user="LKK" changeset="668372" lat="49.1908575" lon="7.7260737"/>
  <node id="276907599" version="4" timestamp="2008-12-30T00:30:23Z" uid="65847" user="LKK" changeset="668372" lat="49.1937743" lon="7.7296786"/>
  <node id="276907600" version="4" timestamp="2008-12-30T00:29:48Z" uid="65847" user="LKK" changeset="668372" lat="49.1944474" lon="7.7341418"/>
  <node id="276907601" version="4" timestamp="2008-12-30T00:29:50Z" uid="65847" user="LKK" changeset="668372" lat="49.194784" lon="7.7374033"/>
  <node id="276907602" version="4" timestamp="2008-12-30T00:29:45Z" uid="65847" user="LKK" changeset="668372" lat="49.195457" lon="7.7387766"/>
  <node id="276908933" version="3" timestamp="2010-01-06T05:46:19Z" uid="7617" user="Franc" changeset="3551041" lat="-33.8125622" lon="151.0402865"/>
  <node id="276908937" version="4" timestamp="2010-01-06T05:46:19Z" uid="7617" user="Franc" changeset="3551041" lat="-33.8137321" lon="151.0413293"/>
  <node id="276909047" version="4" timestamp="2009-12-07T04:27:11Z" uid="30201" user="rrankin" changeset="3312476" lat="-33.8124252" lon="151.041652"/>
  <node id="276909047" version="5" timestamp="2010-01-06T05:46:20Z" uid="7617" user="Franc" changeset="3551041" lat="-33.8124216" lon="151.041627"/>
  <node id="276909048" version="3" timestamp="2009-12-07T04:27:11Z" uid="30201" user="rrankin" changeset="3312476" lat="-33.8127967" lon="151.0415493"/>
  <node id="276909051" version="3" timestamp="2010-01-06T05:46:19Z" uid="7617" user="Franc" changeset="3551041" lat="-33.8137517" lon="151.0413151"/>
  <node id="276909052" version="3" timestamp="2010-01-06T05:46:19Z" uid="7617" user="Franc" changeset="3551041" lat="-33.8152335" lon="151.0410295"/>
  <node id="276909053" version="3" timestamp="2010-01-06T05:46:19Z" uid="7617" user="Franc" changeset="3551041" lat="-33.8149787" lon="151.039008"/>
  <node id="276909371" version="3" timestamp="2009-10-29T19:33:03Z" uid="36809" user="pfoten_weg_!_" changeset="2983914" lat="52.0852312" lon="8.7653338"/>
  <node id="276909371" version="4" timestamp="2009-11-06T08:12:25Z" uid="6808" user="wwwFrank" changeset="3046259" lat="52.0852312" lon="8.7653338"/>
  <node id="276909371" version="5" timestamp="2009-11-08T16:57:15Z" uid="130269" user="Ole3358" changeset="3065710" lat="52.085238" lon="8.7653463"/>
  <node id="276909372" version="3" timestamp="2009-10-29T19:35:12Z" uid="36809" user="pfoten_weg_!_" changeset="2983914" lat="52.0830809" lon="8.7686703">
    <tag k="leisure" v="playground"/>
  </node>
  <node id="276909400" version="3" timestamp="2009-10-29T19:33:06Z" uid="36809" user="pfoten_weg_!_" changeset="2983914" lat="52.0865481" lon="8.7514775"/>
  <node id="276909400" version="4" timestamp="2009-11-06T08:12:25Z" uid="6808" user="wwwFrank" changeset="3046259" lat="52.0865481" lon="8.7514775"/>
  <node id="276909400" version="5" timestamp="2010-03-27T19:36:09Z" uid="6808" user="wwwFrank" changeset="4250140" lat="52.0865682" lon="8.7514787"/>
  <node id="276909418" version="2" timestamp="2009-10-29T19:34:26Z" uid="36809" user="pfoten_weg_!_" changeset="2983914" lat="52.0869809" lon="8.7638477"/>
  <node id="276909418" version="3" timestamp="2009-11-06T08:12:31Z" uid="6808" user="wwwFrank" changeset="3046259" lat="52.0869809" lon="8.7638477"/>
  <node id="276909419" version="2" timestamp="2009-10-29T19:34:25Z" uid="36809" user="pfoten_weg_!_" changeset="2983914" lat="52.0868028" lon="8.7636207"/>
  <node id="276909419" version="3" timestamp="2009-11-06T08:12:31Z" uid="6808" user="wwwFrank" changeset="3046259" lat="52.0868028" lon="8.7636207"/>
  <node id="276909421" version="3" timestamp="2009-10-29T19:34:24Z" uid="36809" user="pfoten_weg_!_" changeset="2983914" lat="52.0865526" lon="8.7634142"/>
  <node id="276909421" version="4" timestamp="2009-11-06T08:12:31Z" uid="6808" user="wwwFrank" changeset="3046259" lat="52.0865526" lon="8.7634142"/>
  <node id="276909422" version="3" timestamp="2009-10-29T19:34:24Z" uid="36809" user="pfoten_weg_!_" changeset="2983914" lat="52.0863782" lon="8.763311"/>
  <node id="276909422" version="4" timestamp="2009-11-06T08:12:31Z" uid="6808" user="wwwFrank" changeset="3046259" lat="52.0863782" lon="8.763311"/>
  <node id="276909424" version="3" timestamp="2009-10-29T19:33:02Z" uid="36809" user="pfoten_weg_!_" changeset="2983914" lat="52.0860625" lon="8.7633899"/>
  <node id="276909424" version="4" timestamp="2009-11-06T08:12:24Z" uid="6808" user="wwwFrank" changeset="3046259" lat="52.0860625" lon="8.7633899"/>
  <node id="276909425" version="3" timestamp="2009-10-29T19:34:26Z" uid="36809" user="pfoten_weg_!_" changeset="2983914" lat="52.0871969" lon="8.7639269"/>
  <node id="276909425" version="4" timestamp="2009-11-06T08:12:31Z" uid="6808" user="wwwFrank" changeset="3046259" lat="52.0871969" lon="8.7639269"/>
  <node id="276909426" version="4" timestamp="2009-10-29T19:34:27Z" uid="36809" user="pfoten_weg_!_" changeset="2983914" lat="52.0875741" lon="8.7639336"/>
  <node id="276909426" version="5" timestamp="2009-11-06T08:12:32Z" uid="6808" user="wwwFrank" changeset="3046259" lat="52.0875741" lon="8.7639336"/>
  <node id="276909426" version="6" timestamp="2009-11-08T16:57:11Z" uid="130269" user="Ole3358" changeset="3065710" lat="52.0875586" lon="8.7640073"/>
  <node id="276909427" version="3" timestamp="2009-10-29T19:34:27Z" uid="36809" user="pfoten_weg_!_" changeset="2983914" lat="52.0877287" lon="8.7640525">
    <tag k="amenity" v="hospital"/>
    <tag k="name" v="Blau-Kreuz-Haus"/>
  </node>
  <node id="276909427" version="4" timestamp="2009-11-06T08:12:32Z" uid="6808" user="wwwFrank" changeset="3046259" lat="52.0877287" lon="8.7640525">
    <tag k="amenity" v="hospital"/>
    <tag k="name" v="Blau-Kreuz-Haus"/>
  </node>
  <node id="276909428" version="4" timestamp="2009-10-29T19:34:23Z" uid="36809" user="pfoten_weg_!_" changeset="2983914" lat="52.0864731" lon="8.7630717"/>
  <node id="276909428" version="5" timestamp="2009-11-06T08:12:31Z" uid="6808" user="wwwFrank" changeset="3046259" lat="52.0864731" lon="8.7630717"/>
  <node id="276909430" version="3" timestamp="2009-10-29T19:34:20Z" uid="36809" user="pfoten_weg_!_" changeset="2983914" lat="52.0863786" lon="8.7624726"/>
  <node id="276909430" version="4" timestamp="2009-11-06T08:12:31Z" uid="6808" user="wwwFrank" changeset="3046259" lat="52.0863786" lon="8.7624726"/>
  <node id="276909431" version="3" timestamp="2009-10-29T19:34:20Z" uid="36809" user="pfoten_weg_!_" changeset="2983914" lat="52.0864615" lon="8.762033"/>
  <node id="276909431" version="4" timestamp="2009-11-06T08:12:31Z" uid="6808" user="wwwFrank" changeset="3046259" lat="52.0864615" lon="8.762033"/>
  <node id="276909432" version="3" timestamp="2009-10-29T19:34:19Z" uid="36809" user="pfoten_weg_!_" changeset="2983914" lat="52.0864834" lon="8.7616778"/>
  <node id="276909432" version="4" timestamp="2009-11-06T08:12:31Z" uid="6808" user="wwwFrank" changeset="3046259" lat="52.0864834" lon="8.7616778"/>
  <node id="276909434" version="2" timestamp="2009-10-29T19:32:52Z" uid="36809" user="pfoten_weg_!_" changeset="2983914" lat="52.0861485" lon="8.7604246"/>
  <node id="276909434" version="3" timestamp="2009-11-06T08:12:24Z" uid="6808" user="wwwFrank" changeset="3046259" lat="52.0861485" lon="8.7604246"/>
  <node id="276909438" version="2" timestamp="2009-10-29T19:32:51Z" uid="36809" user="pfoten_weg_!_" changeset="2983914" lat="52.0858591" lon="8.7584259"/>
  <node id="276909438" version="3" timestamp="2009-11-06T08:12:24Z" uid="6808" user="wwwFrank" changeset="3046259" lat="52.0858591" lon="8.7584259"/>
  <node id="276909439" version="3" timestamp="2009-10-29T19:32:51Z" uid="36809" user="pfoten_weg_!_" changeset="2983914" lat="52.0859432" lon="8.7582661"/>
  <node id="276909439" version="4" timestamp="2009-11-06T08:12:24Z" uid="6808" user="wwwFrank" changeset="3046259" lat="52.0859432" lon="8.7582661"/>
  <node id="276909440" version="3" timestamp="2009-10-29T19:34:25Z" uid="36809" user="pfoten_weg_!_" changeset="2983914" lat="52.086834" lon="8.7637809">
    <tag k="leisure" v="playground"/>
  </node>
  <node id="276909440" version="4" timestamp="2009-11-06T08:12:31Z" uid="6808" user="wwwFrank" changeset="3046259" lat="52.086834" lon="8.7637809">
    <tag k="leisure" v="playground"/>
  </node>
  <node id="276909446" version="2" timestamp="2009-10-29T19:35:20Z" uid="36809" user="pfoten_weg_!_" changeset="2983914" lat="52.0979069" lon="8.7547091"/>
  <node id="276909446" version="3" timestamp="2009-11-06T08:12:35Z" uid="6808" user="wwwFrank" changeset="3046259" lat="52.0979069" lon="8.7547091"/>
  <node id="276909447" version="3" timestamp="2009-10-29T19:35:20Z" uid="36809" user="pfoten_weg_!_" changeset="2983914" lat="52.0978287" lon="8.7538002"/>
  <node id="276909447" version="4" timestamp="2009-11-06T08:12:35Z" uid="6808" user="wwwFrank" changeset="3046259" lat="52.0978287" lon="8.7538002"/>
  <node id="276909447" version="5" timestamp="2009-12-30T19:22:03Z" uid="213209" user="gero_08" changeset="3492947" lat="52.0977994" lon="8.7539168"/>
  <node id="276909447" version="6" timestamp="2010-05-02T11:51:47Z" uid="6808" user="wwwFrank" changeset="4584043" lat="52.0977629" lon="8.7538438"/>
  <node id="276909448" version="3" timestamp="2009-10-29T19:35:33Z" uid="36809" user="pfoten_weg_!_" changeset="2983914" lat="52.1034022" lon="8.7586077"/>
  <node id="276909448" version="4" timestamp="2009-11-06T08:12:36Z" uid="6808" user="wwwFrank" changeset="3046259" lat="52.1034022" lon="8.7586077"/>
  <node id="276909448" version="5" timestamp="2009-12-31T16:03:35Z" uid="213209" user="gero_08" changeset="3502255" lat="52.1034091" lon="8.7586725"/>
  <node id="276909449" version="3" timestamp="2009-10-29T19:35:33Z" uid="36809" user="pfoten_weg_!_" changeset="2983914" lat="52.1040897" lon="8.7579897"/>
  <node id="276909449" version="4" timestamp="2009-11-06T08:12:36Z" uid="6808" user="wwwFrank" changeset="3046259" lat="52.1040897" lon="8.7579897"/>
  <node id="276909450" version="2" timestamp="2009-10-29T19:35:32Z" uid="36809" user="pfoten_weg_!_" changeset="2983914" lat="52.1039404" lon="8.7587356"/>
  <node id="276909450" version="3" timestamp="2009-11-06T08:12:36Z" uid="6808" user="wwwFrank" changeset="3046259" lat="52.1039404" lon="8.7587356"/>
  <node id="276909450" version="4" timestamp="2009-12-31T16:03:34Z" uid="213209" user="gero_08" changeset="3502255" lat="52.1039561" lon="8.7587905"/>
  <node id="276909694" version="6" timestamp="2009-02-01T19:17:51Z" uid="6975" user="ulfl" changeset="27333" lat="53.052559" lon="8.6392527">
    <tag k="is_in" v="Delmenhorst"/>
    <tag k="name" v="Siemers Pet-Shop"/>
    <tag k="shop" v="pet"/>
  </node>
  <node id="276900151" version="3" timestamp="2012-07-20T01:04:55Z" uid="722137" user="OSMF Redaction Account" changeset="12354190" lat="-27.2249584" lon="153.0170829"/>
  <node id="276900151" version="4" timestamp="2012-08-16T10:25:04Z" uid="38548" user="PesceVerde" changeset="12748828" lat="-27.224906" lon="153.0170362"/>
  <node id="276900152" version="3" timestamp="2012-07-20T01:04:55Z" uid="722137" user="OSMF Redaction Account" changeset="12354190" lat="-27.2249737" lon="153.017306"/>
  <node id="276900152" version="4" timestamp="2012-08-16T10:25:04Z" uid="38548" user="PesceVerde" changeset="12748828" lat="-27.2249257" lon="153.0172913"/>
  <node id="276900153" version="3" timestamp="2012-07-20T01:04:55Z" uid="722137" user="OSMF Redaction Account" changeset="12354190" lat="-27.224966" lon="153.0175635"/>
  <node id="276900153" version="4" timestamp="2012-08-16T10:25:04Z" uid="38548" user="PesceVerde" changeset="12748828" lat="-27.2249223" lon="153.0175414"/>
  <node id="276900154" version="4" timestamp="2012-07-20T01:04:55Z" uid="722137" user="OSMF Redaction Account" changeset="12354190" lat="-27.2249202" lon="153.0176751"/>
  <node id="276900154" version="5" timestamp="2012-08-16T10:25:04Z" uid="38548" user="PesceVerde" changeset="12748828" lat="-27.2248569" lon="153.0177095"/>
  <node id="276900155" version="3" timestamp="2012-07-20T01:04:55Z" uid="722137" user="OSMF Redaction Account" changeset="12354190" lat="-27.2249431" lon="153.0177953"/>
  <node id="276900155" version="4" timestamp="2012-08-16T10:25:04Z" uid="38548" user="PesceVerde" changeset="12748828" lat="-27.2249082" lon="153.0177953"/>
  <node id="276900156" version="4" timestamp="2012-07-20T01:04:56Z" uid="722137" user="OSMF Redaction Account" changeset="12354190" lat="-27.2249194" lon="153.0180945"/>
  <node id="276900156" version="5" timestamp="2012-08-16T10:25:04Z" uid="38548" user="PesceVerde" changeset="12748828" lat="-27.2249063" lon="153.0180945"/>
  <node id="276900158" version="3" timestamp="2012-07-20T01:04:56Z" uid="722137" user="OSMF Redaction Account" changeset="12354190" lat="-27.2248897" lon="153.018542"/>
  <node id="276900158" version="4" timestamp="2012-08-16T10:25:04Z" uid="38548" user="PesceVerde" changeset="12748828" lat="-27.2248635" lon="153.0185715"/>
  <node id="276900159" version="4" timestamp="2012-07-20T01:04:56Z" uid="722137" user="OSMF Redaction Account" changeset="12354190" lat="-27.2248363" lon="153.0186793"/>
  <node id="276900159" version="5" timestamp="2012-08-16T10:25:04Z" uid="38548" user="PesceVerde" changeset="12748828" lat="-27.2248232" lon="153.0186842"/>
  <node id="276900160" version="3" timestamp="2012-07-20T01:04:56Z" uid="722137" user="OSMF Redaction Account" changeset="12354190" lat="-27.2248668" lon="153.0187909"/>
  <node id="276900161" version="3" timestamp="2012-07-20T01:04:56Z" uid="722137" user="OSMF Redaction Account" changeset="12354190" lat="-27.2248668" lon="153.0190312"/>
  <node id="276900162" version="3" timestamp="2012-07-20T01:04:56Z" uid="722137" user="OSMF Redaction Account" changeset="12354190" lat="-27.2248821" lon="153.0191943"/>
  <node id="276900163" version="3" timestamp="2012-07-20T01:04:55Z" uid="722137" user="OSMF Redaction Account" changeset="12354190" lat="-27.2249126" lon="153.0193145"/>
  <node id="276900164" version="3" timestamp="2012-07-20T01:04:55Z" uid="722137" user="OSMF Redaction Account" changeset="12354190" lat="-27.224966" lon="153.0193831"/>
  <node id="276900166" version="3" timestamp="2012-07-20T01:04:54Z" uid="722137" user="OSMF Redaction Account" changeset="12354190" lat="-27.22505" lon="153.0194089"/>
  <node id="276900168" version="4" timestamp="2012-07-20T01:04:54Z" uid="722137" user="OSMF Redaction Account" changeset="12354190" lat="-27.2251263" lon="153.0193831"/>
  <node id="276900168" version="5" timestamp="2012-08-16T10:25:04Z" uid="38548" user="PesceVerde" changeset="12748828" lat="-27.2251329" lon="153.0193856"/>
  <node id="276900170" version="5" timestamp="2012-07-20T01:04:52Z" uid="722137" user="OSMF Redaction Account" changeset="12354190" lat="-27.2252942" lon="153.0193745"/>
  <node id="276900170" version="6" timestamp="2012-08-16T10:25:04Z" uid="38548" user="PesceVerde" changeset="12748828" lat="-27.225268" lon="153.0194015"/>
  <node id="276900400" version="4" timestamp="2012-07-20T01:04:54Z" uid="722137" user="OSMF Redaction Account" changeset="12354190" lat="-27.2251263" lon="153.0212199"/>
  <node id="276900400" version="5" timestamp="2012-08-16T05:14:17Z" uid="38548" user="PesceVerde" changeset="12746403" lat="-27.2250728" lon="153.0212323"/>
  <node id="276900401" version="4" timestamp="2012-07-20T01:04:55Z" uid="722137" user="OSMF Redaction Account" changeset="12354190" lat="-27.2250195" lon="153.0214001"/>
  <node id="276900401" version="5" timestamp="2012-08-16T05:14:17Z" uid="38548" user="PesceVerde" changeset="12746403" lat="-27.2249688" lon="153.021403"/>
  <node id="276900402" version="4" timestamp="2012-07-20T01:04:54Z" uid="722137" user="OSMF Redaction Account" changeset="12354190" lat="-27.2250729" lon="153.0214946"/>
  <node id="276900402" version="5" timestamp="2012-08-16T05:14:17Z" uid="38548" user="PesceVerde" changeset="12746403" lat="-27.2250211" lon="153.0214936"/>
  <node id="276900403" version="5" timestamp="2012-07-20T01:04:54Z" uid="722137" user="OSMF Redaction Account" changeset="12354190" lat="-27.2251416" lon="153.0215203"/>
  <node id="276900403" version="6" timestamp="2012-08-16T05:14:17Z" uid="38548" user="PesceVerde" changeset="12746403" lat="-27.225087" lon="153.0215196"/>
  <node id="276900405" version="4" timestamp="2012-07-20T01:04:53Z" uid="722137" user="OSMF Redaction Account" changeset="12354190" lat="-27.2252484" lon="153.0214774"/>
  <node id="276900405" version="5" timestamp="2012-08-16T05:14:17Z" uid="38548" user="PesceVerde" changeset="12746403" lat="-27.2251881" lon="153.0214754"/>
  <node id="276900406" version="4" timestamp="2012-07-20T01:04:52Z" uid="722137" user="OSMF Redaction Account" changeset="12354190" lat="-27.225279" lon="153.0213572"/>
  <node id="276900406" version="5" timestamp="2012-08-16T05:14:17Z" uid="38548" user="PesceVerde" changeset="12746403" lat="-27.2252234" lon="153.0213611"/>
  <node id="276900940" version="4" timestamp="2012-07-20T01:04:51Z" uid="722137" user="OSMF Redaction Account" changeset="12354190" lat="-27.2255003" lon="153.0183789"/>
  <node id="276900940" version="5" timestamp="2012-08-16T10:25:04Z" uid="38548" user="PesceVerde" changeset="12748828" lat="-27.2254763" lon="153.0183789"/>
  <node id="276900941" version="4" timestamp="2012-07-20T01:04:51Z" uid="722137" user="OSMF Redaction Account" changeset="12354190" lat="-27.2254469" lon="153.0184476"/>
  <node id="276900941" version="5" timestamp="2012-08-16T10:25:04Z" uid="38548" user="PesceVerde" changeset="12748828" lat="-27.2254425" lon="153.018455"/>
  <node id="276900942" version="4" timestamp="2012-07-20T01:04:51Z" uid="722137" user="OSMF Redaction Account" changeset="12354190" lat="-27.2254545" lon="153.018645"/>
  <node id="276900942" version="5" timestamp="2012-08-16T10:25:04Z" uid="38548" user="PesceVerde" changeset="12748828" lat="-27.2254414" lon="153.0186499"/>
  <node id="276900945" version="6" timestamp="2012-07-20T01:04:50Z" uid="722137" user="OSMF Redaction Account" changeset="12354190" lat="-27.2255995" lon="153.01916"/>
  <node id="276900945" version="7" timestamp="2012-08-16T10:25:04Z" uid="38548" user="PesceVerde" changeset="12748828" lat="-27.2255689" lon="153.0191305"/>
  <node id="276902651" version="5" timestamp="2012-07-20T01:06:08Z" uid="722137" user="OSMF Redaction Account" changeset="12354256" lat="49.9454001" lon="9.0975815"/>
  <node id="276904921" version="5" timestamp="2012-07-30T16:58:11Z" uid="700550" user="EIjas" changeset="12550638" lat="60.0065233" lon="30.6426504"/>
  <node id="276904921" version="6" timestamp="2012-08-01T22:26:21Z" uid="700550" user="EIjas" changeset="12579741" lat="60.0065087" lon="30.6426455"/>
  <node id="276905690" version="3" timestamp="2012-07-18T12:15:47Z" uid="722137" user="OSMF Redaction Account" changeset="12281434" lat="50.9917749" lon="7.1402645"/>
  <node id="276905690" version="4" timestamp="2012-07-21T14:19:47Z" uid="116044" user="berndw" changeset="12411596" lat="50.9916693" lon="7.140216"/>
  <node id="276905762" version="3" timestamp="2012-07-18T12:15:46Z" uid="722137" user="OSMF Redaction Account" changeset="12281434" lat="50.9898529" lon="7.1390141"/>
  <node id="276905795" version="3" timestamp="2012-07-18T12:15:46Z" uid="722137" user="OSMF Redaction Account" changeset="12281434" lat="50.9854946" lon="7.1381834"/>
  <node id="276906129" version="10" timestamp="2012-07-20T10:18:06Z" uid="722137" user="OSMF Redaction Account" changeset="12370996" lat="56.2338175" lon="36.8280344">
    <tag k="addr:country" v="RU"/>
    <tag k="addr:district" v="Клинский район"/>
    <tag k="addr:region" v="Московская область"/>
    <tag k="cladr:code" v="5001100016800"/>
    <tag k="name" v="Покровка"/>
    <tag k="place" v="village"/>
  </node>
  <node id="276906841" version="9" timestamp="2012-07-20T21:14:57Z" uid="722137" user="OSMF Redaction Account" changeset="12392319" lat="55.8576431" lon="37.3142653">
    <tag k="addr:country" v="RU"/>
    <tag k="addr:district" v="Красногорский район"/>
    <tag k="addr:region" v="Московская область"/>
    <tag k="cladr:code" v="5001300004800"/>
    <tag k="name" v="Росинка"/>
    <tag k="name:en" v="Rosinka"/>
    <tag k="name:eo" v="Rosinka"/>
    <tag k="name:ru" v="Росинка"/>
    <tag k="place" v="village"/>
  </node>
  <node id="276906848" version="9" timestamp="2012-07-20T21:14:57Z" uid="722137" user="OSMF Redaction Account" changeset="12392319" lat="55.8625082" lon="37.3147803">
    <tag k="addr:country" v="RU"/>
    <tag k="addr:district" v="Красногорский район"/>
    <tag k="addr:region" v="Московская область"/>
    <tag k="cladr:code" v="5001300000300"/>
    <tag k="name" v="Ангелово"/>
    <tag k="name:eo" v="Angelovo"/>
    <tag k="place" v="village"/>
  </node>
  <node id="276908933" version="4" timestamp="2012-05-24T00:11:45Z" uid="7523" user="inas" changeset="11685862" lat="-33.8127161" lon="151.0404227"/>
  <node id="276908937" version="5" timestamp="2012-05-24T00:11:45Z" uid="7523" user="inas" changeset="11685862" lat="-33.8138268" lon="151.0413027"/>
  <node id="276909047" version="6" timestamp="2012-05-24T00:11:45Z" uid="7523" user="inas" changeset="11685862" lat="-33.8124682" lon="151.0416164"/>
  <node id="276909048" version="4" timestamp="2012-05-24T00:11:45Z" uid="7523" user="inas" changeset="11685862" lat="-33.8127927" lon="151.0415508"/>
  <node id="276909051" version="4" timestamp="2012-05-24T00:11:46Z" uid="7523" user="inas" changeset="11685862" lat="-33.8139283" lon="151.041304"/>
  <node id="276909052" version="4" timestamp="2012-05-24T00:11:46Z" uid="7523" user="inas" changeset="11685862" lat="-33.8152828" lon="151.0410184"/>
  <node id="276909053" version="4" timestamp="2012-05-24T00:11:46Z" uid="7523" user="inas" changeset="11685862" lat="-33.8149984" lon="151.0389554"/>
  <node id="276909430" version="5" timestamp="2012-04-20T16:06:39Z" uid="287678" user="jaboo" changeset="11365685" lat="52.0863786" lon="8.7624726"/>
  <node id="276909431" version="5" timestamp="2012-04-20T16:06:39Z" uid="287678" user="jaboo" changeset="11365685" lat="52.0864615" lon="8.762033"/>
  <node id="276909432" version="5" timestamp="2012-04-20T16:06:39Z" uid="287678" user="jaboo" changeset="11365685" lat="52.0864834" lon="8.7616778"/>
  <node id="276909434" version="4" timestamp="2012-04-20T16:06:39Z" uid="287678" user="jaboo" changeset="11365685" lat="52.0861485" lon="8.7604246"/>
  <node id="276909438" version="4" timestamp="2012-04-20T16:06:39Z" uid="287678" user="jaboo" changeset="11365685" lat="52.0858591" lon="8.7584259"/>
</osm>
