<?xml version='1.0' encoding='UTF-8'?>
<osm version="0.6" generator="libosmium/2.20.0">
  <node id="277971934" version="25" timestamp="2009-10-24T12:49:18Z" uid="58091" user="Andreas M" changeset="2937393" lat="48.1943256" lon="16.3354805"/>
  <node id="277971934" version="26" timestamp="2011-03-10T11:26:47Z" uid="99800" user="wolfbert" changeset="7513026" lat="48.1943412" lon="16.335457"/>
  <node id="277971947" version="2" timestamp="2008-09-14T20:02:40Z" uid="6975" user="ulfl" changeset="640534" lat="42.6644186" lon="23.4116426">
    <tag k="amenity" v="bank"/>
    <tag k="atm" v="yes"/>
  </node>
  <node id="277971998" version="11" timestamp="2009-01-05T11:21:13Z" uid="58091" user="Andreas M" changeset="735917" lat="48.1940507" lon="16.3348972">
    <tag k="name" v="Staglgasse"/>
    <tag k="railway" v="tram_stop"/>
  </node>
  <node id="277971998" version="12" timestamp="2009-07-15T10:20:47Z" uid="144412" user="sandman56" changeset="1834940" lat="48.1940507" lon="16.3348972">
    <tag k="name" v="Staglgasse"/>
    <tag k="railway" v="tram_stop"/>
  </node>
  <node id="277971998" version="13" timestamp="2009-07-15T10:27:51Z" uid="144412" user="sandman56" changeset="1834940" lat="48.1940507" lon="16.3348972">
    <tag k="name" v="Staglgasse"/>
    <tag k="railway" v="tram_stop"/>
  </node>
  <node id="277971998" version="14" timestamp="2010-07-27T20:34:14Z" uid="324854" user="christophwagner" changeset="5333278" lat="48.1940507" lon="16.3348972">
    <tag k="name" v="Staglgasse"/>
    <tag k="railway" v="tram_stop"/>
  </node>
  <node id="277971998" version="15" timestamp="2010-11-23T23:26:35Z" uid="41463" user="digitalhippie" changeset="6443602" lat="48.1940294" lon="16.3349621">
    <tag k="name" v="Staglgasse"/>
    <tag k="railway" v="tram_stop"/>
  </node>
  <node id="277971998" version="16" timestamp="2011-03-10T11:26:52Z" uid="99800" user="wolfbert" changeset="7513026" lat="48.19402" lon="16.3349533">
    <tag k="name" v="Staglgasse"/>
    <tag k="railway" v="tram_stop"/>
  </node>
  <node id="277975481" version="1" timestamp="2008-07-12T17:54:20Z" uid="51680" user="Salkunh" changeset="475189" lat="53.369867" lon="-2.7245199">
    <tag k="created_by" v="Potlatch 0.9c"/>
    <tag k="highway " v="stop"/>
  </node>
  <node id="277975481" version="2" timestamp="2008-07-12T17:54:33Z" uid="51680" user="Salkunh" changeset="475189" lat="53.3698055" lon="-2.724743">
    <tag k="created_by" v="Potlatch 0.9c"/>
    <tag k="highway " v="stop"/>
  </node>
  <node id="277975481" version="3" timestamp="2008-07-13T15:11:07Z" uid="6975" user="ulfl" changeset="475845" lat="53.3698055" lon="-2.724743">
    <tag k="highway" v="stop"/>
  </node>
  <node id="277975481" version="4" timestamp="2008-08-05T21:14:51Z" uid="15404" user="Nik_Doof" changeset="76762" lat="53.3698055" lon="-2.724743">
    <tag k="highway" v="stop"/>
  </node>
  <node id="277975536" version="1" timestamp="2008-07-12T17:54:45Z" uid="51680" user="Salkunh" changeset="475189" lat="53.3699233" lon="-2.7238332">
    <tag k="created_by" v="Potlatch 0.9c"/>
    <tag k="highway " v="bus_stop"/>
  </node>
  <node id="277975536" version="2" timestamp="2008-07-12T17:59:42Z" uid="51680" user="Salkunh" changeset="475189" lat="53.3708912" lon="-2.7232925">
    <tag k="created_by" v="Potlatch 0.9c"/>
    <tag k="highway " v="bus_stop"/>
    <tag k="note" v="routes 61, 62, 110, 33A"/>
  </node>
  <node id="277975536" version="3" timestamp="2008-07-13T15:11:08Z" uid="6975" user="ulfl" changeset="475845" lat="53.3708912" lon="-2.7232925">
    <tag k="highway" v="bus_stop"/>
    <tag k="note" v="routes 61, 62, 110, 33A"/>
  </node>
  <node id="277975715" version="1" timestamp="2008-07-12T17:56:16Z" uid="44857" user="Maximilian T" changeset="467797" lat="51.8654979" lon="7.2261101">
    <tag k="highway" v="turning_circle"/>
    <tag k="name" v="Welte"/>
    <tag k="tracktype" v="track2"/>
  </node>
  <node id="277975715" version="2" timestamp="2008-07-12T23:20:38Z" uid="44857" user="Maximilian T" changeset="472226" lat="51.8655137" lon="7.2260932">
    <tag k="highway" v="track1"/>
    <tag k="name" v="Welte"/>
    <tag k="tracktype" v="track2"/>
  </node>
  <node id="277975715" version="3" timestamp="2008-07-14T19:14:16Z" uid="6975" user="ulfl" changeset="488136" lat="51.8655137" lon="7.2260932">
    <tag k="highway" v="track1"/>
    <tag k="name" v="Welte"/>
  </node>
  <node id="277975715" version="4" timestamp="2009-02-28T19:08:27Z" uid="43566" user="anbr" changeset="701622" lat="51.8655137" lon="7.2260932"/>
  <node id="277975716" version="1" timestamp="2008-07-12T17:56:16Z" uid="44857" user="Maximilian T" changeset="467797" lat="51.8655008" lon="7.2261931">
    <tag k="highway" v="turning_circle"/>
    <tag k="name" v="Welte"/>
    <tag k="tracktype" v="track2"/>
  </node>
  <node id="277975716" version="2" timestamp="2008-07-12T23:20:38Z" uid="44857" user="Maximilian T" changeset="472226" lat="51.8655139" lon="7.2261972">
    <tag k="hgv" v="no"/>
    <tag k="highway" v="track"/>
    <tag k="name" v="Welte"/>
    <tag k="tracktype" v="track1"/>
  </node>
  <node id="277975716" version="3" timestamp="2008-07-14T19:13:39Z" uid="6975" user="ulfl" changeset="488136" lat="51.8655139" lon="7.2261972"/>
  <node id="277975721" version="1" timestamp="2008-07-12T17:56:17Z" uid="44857" user="Maximilian T" changeset="467797" lat="51.8655431" lon="7.2262973">
    <tag k="highway" v="turning_circle"/>
    <tag k="name" v="Welte"/>
    <tag k="tracktype" v="track2"/>
  </node>
  <node id="277975721" version="2" timestamp="2008-07-12T23:20:38Z" uid="44857" user="Maximilian T" changeset="472226" lat="51.8656004" lon="7.2262593">
    <tag k="highway" v="track1"/>
    <tag k="name" v="Welte"/>
    <tag k="tracktype" v="track2"/>
  </node>
  <node id="277975721" version="3" timestamp="2008-07-14T19:14:15Z" uid="6975" user="ulfl" changeset="488136" lat="51.8656004" lon="7.2262593">
    <tag k="highway" v="track1"/>
    <tag k="name" v="Welte"/>
  </node>
  <node id="277975721" version="4" timestamp="2009-02-28T19:08:27Z" uid="43566" user="anbr" changeset="701622" lat="51.8656004" lon="7.2262593"/>
  <node id="277975726" version="1" timestamp="2008-07-12T17:56:17Z" uid="44857" user="Maximilian T" changeset="467797" lat="51.8656687" lon="7.2263251">
    <tag k="highway" v="turning_circle"/>
    <tag k="name" v="Welte"/>
    <tag k="tracktype" v="track2"/>
  </node>
  <node id="277975726" version="2" timestamp="2008-07-12T23:20:37Z" uid="44857" user="Maximilian T" changeset="472226" lat="51.8656391" lon="7.2262155">
    <tag k="highway" v="turning_circle"/>
    <tag k="name" v="Welte"/>
    <tag k="tracktype" v="track2"/>
  </node>
  <node id="277975726" version="3" timestamp="2008-07-14T19:14:15Z" uid="6975" user="ulfl" changeset="488136" lat="51.8656391" lon="7.2262155">
    <tag k="highway" v="turning_circle"/>
    <tag k="name" v="Welte"/>
  </node>
  <node id="277975727" version="1" timestamp="2008-07-12T17:56:17Z" uid="44857" user="Maximilian T" changeset="467797" lat="51.865738" lon="7.2262032">
    <tag k="highway" v="turning_circle"/>
    <tag k="name" v="Welte"/>
    <tag k="tracktype" v="track2"/>
  </node>
  <node id="277975727" version="2" timestamp="2008-07-12T23:20:37Z" uid="44857" user="Maximilian T" changeset="472226" lat="51.8656523" lon="7.2261662">
    <tag k="highway" v="track1"/>
    <tag k="name" v="Welte"/>
    <tag k="tracktype" v="track2"/>
  </node>
  <node id="277975727" version="3" timestamp="2008-07-14T19:14:15Z" uid="6975" user="ulfl" changeset="488136" lat="51.8656523" lon="7.2261662">
    <tag k="highway" v="track1"/>
    <tag k="name" v="Welte"/>
  </node>
  <node id="277975727" version="4" timestamp="2009-02-28T19:08:27Z" uid="43566" user="anbr" changeset="701622" lat="51.8656523" lon="7.2261662"/>
  <node id="277975728" version="1" timestamp="2008-07-12T17:56:17Z" uid="44857" user="Maximilian T" changeset="467797" lat="51.8657441" lon="7.2261372">
    <tag k="highway" v="turning_circle"/>
    <tag k="name" v="Welte"/>
    <tag k="tracktype" v="track2"/>
  </node>
  <node id="277975728" version="2" timestamp="2008-07-12T23:20:39Z" uid="44857" user="Maximilian T" changeset="472226" lat="51.8656524" lon="7.2261244">
    <tag k="highway" v="track1"/>
    <tag k="name" v="Welte"/>
    <tag k="tracktype" v="track2"/>
  </node>
  <node id="277975728" version="3" timestamp="2008-07-14T19:14:16Z" uid="6975" user="ulfl" changeset="488136" lat="51.8656524" lon="7.2261244">
    <tag k="highway" v="track1"/>
    <tag k="name" v="Welte"/>
  </node>
  <node id="277975728" version="4" timestamp="2009-02-28T19:08:29Z" uid="43566" user="anbr" changeset="701622" lat="51.8656524" lon="7.2261244"/>
  <node id="277975729" version="1" timestamp="2008-07-12T17:56:17Z" uid="44857" user="Maximilian T" changeset="467797" lat="51.8657359" lon="7.2260684">
    <tag k="highway" v="turning_circle"/>
    <tag k="name" v="Welte"/>
    <tag k="tracktype" v="track2"/>
  </node>
  <node id="277975729" version="2" timestamp="2008-07-12T23:20:39Z" uid="44857" user="Maximilian T" changeset="472226" lat="51.8656412" lon="7.2260791">
    <tag k="highway" v="track1"/>
    <tag k="name" v="Welte"/>
    <tag k="tracktype" v="track2"/>
  </node>
  <node id="277975729" version="3" timestamp="2008-07-14T19:14:16Z" uid="6975" user="ulfl" changeset="488136" lat="51.8656412" lon="7.2260791">
    <tag k="highway" v="track1"/>
    <tag k="name" v="Welte"/>
  </node>
  <node id="277975729" version="4" timestamp="2009-02-28T19:08:28Z" uid="43566" user="anbr" changeset="701622" lat="51.8656412" lon="7.2260791"/>
  <node id="277975730" version="1" timestamp="2008-07-12T17:56:17Z" uid="44857" user="Maximilian T" changeset="467797" lat="51.8657057" lon="7.2259953">
    <tag k="highway" v="turning_circle"/>
    <tag k="name" v="Welte"/>
    <tag k="tracktype" v="track2"/>
  </node>
  <node id="277975730" version="2" timestamp="2008-07-12T23:20:39Z" uid="44857" user="Maximilian T" changeset="472226" lat="51.8656103" lon="7.2260365">
    <tag k="highway" v="track1"/>
    <tag k="name" v="Welte"/>
    <tag k="tracktype" v="track2"/>
  </node>
  <node id="277975730" version="3" timestamp="2008-07-14T19:14:16Z" uid="6975" user="ulfl" changeset="488136" lat="51.8656103" lon="7.2260365">
    <tag k="highway" v="track1"/>
    <tag k="name" v="Welte"/>
  </node>
  <node id="277975730" version="4" timestamp="2009-02-28T19:08:28Z" uid="43566" user="anbr" changeset="701622" lat="51.8656103" lon="7.2260365"/>
  <node id="277975731" version="1" timestamp="2008-07-12T17:56:18Z" uid="44857" user="Maximilian T" changeset="467797" lat="51.8656002" lon="7.2259426">
    <tag k="highway" v="turning_circle"/>
    <tag k="name" v="Welte"/>
    <tag k="tracktype" v="track2"/>
  </node>
  <node id="277975731" version="2" timestamp="2008-07-12T23:20:38Z" uid="44857" user="Maximilian T" changeset="472226" lat="51.8655548" lon="7.2260331">
    <tag k="highway" v="track1"/>
    <tag k="name" v="Welte"/>
    <tag k="tracktype" v="track2"/>
  </node>
  <node id="277975731" version="3" timestamp="2008-07-14T19:14:16Z" uid="6975" user="ulfl" changeset="488136" lat="51.8655548" lon="7.2260331">
    <tag k="highway" v="track1"/>
    <tag k="name" v="Welte"/>
  </node>
  <node id="277975731" version="4" timestamp="2009-02-28T19:08:28Z" uid="43566" user="anbr" changeset="701622" lat="51.8655548" lon="7.2260331"/>
  <node id="277975732" version="1" timestamp="2008-07-12T17:56:18Z" uid="44857" user="Maximilian T" changeset="467797" lat="51.8655274" lon="7.2260079">
    <tag k="highway" v="turning_circle"/>
    <tag k="name" v="Welte"/>
    <tag k="tracktype" v="track2"/>
  </node>
  <node id="277975732" version="2" timestamp="2008-07-12T23:20:38Z" uid="44857" user="Maximilian T" changeset="472226" lat="51.86553" lon="7.2260576">
    <tag k="highway" v="track1"/>
    <tag k="name" v="Welte"/>
    <tag k="tracktype" v="track2"/>
  </node>
  <node id="277975732" version="3" timestamp="2008-07-14T19:14:15Z" uid="6975" user="ulfl" changeset="488136" lat="51.86553" lon="7.2260576">
    <tag k="highway" v="track1"/>
    <tag k="name" v="Welte"/>
  </node>
  <node id="277975732" version="4" timestamp="2009-02-28T19:08:28Z" uid="43566" user="anbr" changeset="701622" lat="51.86553" lon="7.2260576"/>
  <node id="277975764" version="1" timestamp="2008-07-12T17:56:23Z" uid="44857" user="Maximilian T" changeset="467797" lat="51.8716879" lon="7.2320772">
    <tag k="Highway" v="bus_stop"/>
    <tag k="name" v="Rüskamp"/>
  </node>
  <node id="277975764" version="2" timestamp="2008-07-13T15:11:45Z" uid="6975" user="ulfl" changeset="475845" lat="51.8716879" lon="7.2320772">
    <tag k="highway" v="bus_stop"/>
    <tag k="name" v="Rüskamp"/>
  </node>
  <node id="277975771" version="1" timestamp="2008-07-12T17:56:23Z" uid="44857" user="Maximilian T" changeset="467797" lat="51.8682282" lon="7.2288213">
    <tag k="Highway" v="bus_stop"/>
    <tag k="name" v="Dreyer"/>
  </node>
  <node id="277975771" version="2" timestamp="2008-07-13T15:11:44Z" uid="6975" user="ulfl" changeset="475845" lat="51.8682282" lon="7.2288213">
    <tag k="highway" v="bus_stop"/>
    <tag k="name" v="Dreyer"/>
  </node>
  <node id="277975783" version="1" timestamp="2008-07-12T17:56:25Z" uid="44857" user="Maximilian T" changeset="467797" lat="51.8697539" lon="7.2202852"/>
  <node id="277975783" version="2" timestamp="2008-07-12T22:53:50Z" uid="44857" user="Maximilian T" changeset="472226" lat="51.8697694" lon="7.2198664"/>
  <node id="277975783" version="3" timestamp="2008-07-12T23:21:55Z" uid="44857" user="Maximilian T" changeset="472226" lat="51.8697694" lon="7.2198664">
    <tag k="highway" v="turning_circle"/>
  </node>
  <node id="277975783" version="4" timestamp="2008-07-12T23:22:44Z" uid="44857" user="Maximilian T" changeset="472226" lat="51.8697694" lon="7.2198664">
    <tag k="highway" v="turning_circle"/>
    <tag k="name" v="Welte"/>
    <tag k="tracktype" v="track1"/>
  </node>
  <node id="277975783" version="5" timestamp="2008-07-14T19:13:40Z" uid="6975" user="ulfl" changeset="488136" lat="51.8697694" lon="7.2198664">
    <tag k="highway" v="turning_circle"/>
    <tag k="name" v="Welte"/>
  </node>
  <node id="277975783" version="6" timestamp="2009-02-28T19:51:07Z" uid="77522" user="tante ju" changeset="703406" lat="51.8697161" lon="7.2198348"/>
  <node id="277975785" version="1" timestamp="2008-07-12T17:56:26Z" uid="44857" user="Maximilian T" changeset="467797" lat="51.8697606" lon="7.2196255">
    <tag k="Highway" v="turning_point"/>
  </node>
  <node id="277975785" version="2" timestamp="2008-07-13T15:11:45Z" uid="6975" user="ulfl" changeset="475845" lat="51.8697606" lon="7.2196255">
    <tag k="highway" v="turning_circle"/>
  </node>
  <node id="277975785" version="3" timestamp="2009-02-28T19:51:06Z" uid="77522" user="tante ju" changeset="703406" lat="51.8697073" lon="7.2195939"/>
  <node id="277975785" version="4" timestamp="2009-08-24T21:46:52Z" uid="55666" user="DerMarvin" changeset="2250546" lat="51.8697073" lon="7.2195939"/>
  <node id="277976228" version="5" timestamp="2008-08-23T19:36:16Z" uid="36809" user="pfoten_weg_!_" changeset="380911" lat="48.0965967" lon="11.5203531">
    <tag k="addr:city" v="Muenchen"/>
    <tag k="addr:housenumber" v="15"/>
    <tag k="addr:postcode" v="81379"/>
    <tag k="addr:street" v="Geisenhausenerstrasse"/>
    <tag k="created_by" v="RambaZamba"/>
    <tag k="leisure" v="sports_centre"/>
    <tag k="name" v="Kieser Training 81379 Muenchen"/>
    <tag k="operator" v="Kieser Training"/>
    <tag k="postal_code" v="81379"/>
  </node>
  <node id="277976228" version="6" timestamp="2008-09-15T14:47:49Z" uid="8732" user="xylome2" changeset="641650" lat="48.0965967" lon="11.5203531">
    <tag k="addr:city" v="Muenchen"/>
    <tag k="addr:housenumber" v="15"/>
    <tag k="addr:postcode" v="81379"/>
    <tag k="addr:street" v="Geisenhausenerstraße"/>
    <tag k="created_by" v="fixbot"/>
    <tag k="leisure" v="sports_centre"/>
    <tag k="name" v="Kieser Training 81379 Muenchen"/>
    <tag k="operator" v="Kieser Training"/>
    <tag k="postal_code" v="81379"/>
  </node>
  <node id="277976228" version="7" timestamp="2008-09-21T21:16:38Z" uid="36809" user="pfoten_weg_!_" changeset="676192" lat="48.0965967" lon="11.5203531">
    <tag k="addr:city" v="Muenchen"/>
    <tag k="addr:housenumber" v="15"/>
    <tag k="addr:postcode" v="81379"/>
    <tag k="addr:street" v="Geisenhausenerstraße"/>
    <tag k="created_by" v="fixbot"/>
    <tag k="leisure" v="sports_centre"/>
    <tag k="name" v="Kieser Training 81379 Muenchen"/>
    <tag k="operator" v="Kieser Training"/>
    <tag k="postal_code" v="81379"/>
    <tag k="source" v="survey"/>
  </node>
  <node id="277976228" version="8" timestamp="2008-10-01T01:21:16Z" uid="36809" user="pfoten_weg_!_" changeset="5644" lat="48.0965967" lon="11.5203531">
    <tag k="addr:city" v="Muenchen"/>
    <tag k="addr:housenumber" v="15"/>
    <tag k="addr:postcode" v="81379"/>
    <tag k="addr:street" v="Geisenhausenerstraße"/>
    <tag k="created_by" v="fixbot"/>
    <tag k="leisure" v="sports_centre"/>
    <tag k="name" v="Kieser Training 81379 Muenchen"/>
    <tag k="operator" v="Kieser Training"/>
    <tag k="postal_code" v="81379"/>
    <tag k="source" v="survey"/>
  </node>
  <node id="277976228" version="9" timestamp="2008-11-07T07:38:38Z" uid="8748" user="ToniE" changeset="703931" lat="48.0965967" lon="11.5203531">
    <tag k="addr:city" v="München"/>
    <tag k="addr:housenumber" v="15"/>
    <tag k="addr:postcode" v="81379"/>
    <tag k="addr:street" v="Geisenhausenerstraße"/>
    <tag k="created_by" v="fixbot"/>
    <tag k="leisure" v="sports_centre"/>
    <tag k="name" v="Kieser Training 81379 Muenchen"/>
    <tag k="operator" v="Kieser Training"/>
    <tag k="postal_code" v="81379"/>
    <tag k="source" v="survey"/>
  </node>
  <node id="277976228" version="10" timestamp="2008-11-17T15:28:29Z" uid="8748" user="ToniE" changeset="761001" lat="48.0965967" lon="11.5203531">
    <tag k="addr:city" v="München"/>
    <tag k="addr:country" v="de"/>
    <tag k="addr:housenumber" v="15"/>
    <tag k="addr:postcode" v="81379"/>
    <tag k="addr:street" v="Geisenhausenerstraße"/>
    <tag k="created_by" v="fixbot"/>
    <tag k="leisure" v="sports_centre"/>
    <tag k="name" v="Kieser Training 81379 Muenchen"/>
    <tag k="operator" v="Kieser Training"/>
    <tag k="postal_code" v="81379"/>
    <tag k="source" v="survey"/>
  </node>
  <node id="277976228" version="11" timestamp="2008-11-20T12:03:45Z" uid="59819" user="Fuss-im-Ohr" changeset="774153" lat="48.0965967" lon="11.5203531">
    <tag k="addr:city" v="München"/>
    <tag k="addr:country" v="de"/>
    <tag k="addr:housenumber" v="15"/>
    <tag k="addr:postcode" v="81379"/>
    <tag k="addr:street" v="Geisenhausenerstraße"/>
    <tag k="created_by" v="fixbot"/>
    <tag k="leisure" v="sports_centre"/>
    <tag k="name" v="Kieser Training"/>
    <tag k="operator" v="Kieser Training"/>
    <tag k="postal_code" v="81379"/>
    <tag k="source" v="survey"/>
  </node>
  <node id="277976228" version="12" timestamp="2008-11-20T12:06:20Z" uid="59819" user="Fuss-im-Ohr" changeset="774153" lat="48.0965967" lon="11.5203531">
    <tag k="addr:city" v="München"/>
    <tag k="addr:country" v="de"/>
    <tag k="addr:housenumber" v="15"/>
    <tag k="addr:postcode" v="81379"/>
    <tag k="addr:street" v="Geisenhausenerstraße"/>
    <tag k="created_by" v="fixbot"/>
    <tag k="leisure" v="sports_centre"/>
    <tag k="name" v="Kieser Training"/>
    <tag k="operator" v="Kieser Training"/>
    <tag k="phone" v="+49 89 78064444"/>
    <tag k="postal_code" v="81379"/>
    <tag k="source" v="survey"/>
  </node>
  <node id="277976228" version="13" timestamp="2008-11-20T12:07:26Z" uid="59819" user="Fuss-im-Ohr" changeset="774153" lat="48.0965967" lon="11.5203531">
    <tag k="addr:city" v="München"/>
    <tag k="addr:country" v="de"/>
    <tag k="addr:housenumber" v="15"/>
    <tag k="addr:postcode" v="81379"/>
    <tag k="addr:street" v="Geisenhausenerstraße"/>
    <tag k="created_by" v="fixbot"/>
    <tag k="leisure" v="sports_centre"/>
    <tag k="name" v="Kieser Training"/>
    <tag k="operator" v="Kieser Training"/>
    <tag k="phone" v="+49 89 78064444"/>
    <tag k="postal_code" v="81379"/>
    <tag k="source" v="survey"/>
    <tag k="website" v="http://www.kieser-training.com"/>
  </node>
  <node id="277976228" version="14" timestamp="2009-01-18T17:23:05Z" uid="37850" user="mawis" changeset="807244" lat="48.0965967" lon="11.5203531">
    <tag k="addr:city" v="München"/>
    <tag k="addr:country" v="DE"/>
    <tag k="addr:housenumber" v="15"/>
    <tag k="addr:postcode" v="81379"/>
    <tag k="addr:street" v="Geisenhausenerstraße"/>
    <tag k="created_by" v="fixbot"/>
    <tag k="leisure" v="sports_centre"/>
    <tag k="name" v="Kieser Training"/>
    <tag k="operator" v="Kieser Training"/>
    <tag k="phone" v="+49 89 78064444"/>
    <tag k="postal_code" v="81379"/>
    <tag k="source" v="survey"/>
    <tag k="website" v="http://www.kieser-training.com"/>
  </node>
  <node id="277976228" version="15" timestamp="2009-04-04T01:14:37Z" uid="46472" user="sendelhorst" changeset="183681" lat="48.0965406" lon="11.5205442">
    <tag k="addr:city" v="München"/>
    <tag k="addr:country" v="DE"/>
    <tag k="addr:housenumber" v="15"/>
    <tag k="addr:postcode" v="81379"/>
    <tag k="addr:street" v="Geisenhausenerstraße"/>
    <tag k="created_by" v="Potlatch 0.10f"/>
    <tag k="leisure" v="sports_centre"/>
    <tag k="name" v="Kieser Training"/>
    <tag k="operator" v="Kieser Training"/>
    <tag k="phone" v="+49 89 78064444"/>
    <tag k="postal_code" v="81379"/>
    <tag k="source" v="survey"/>
    <tag k="website" v="http://www.kieser-training.com"/>
  </node>
  <node id="277976228" version="16" timestamp="2009-09-04T18:26:37Z" uid="85761" user="klausis" changeset="2372876" lat="48.0965406" lon="11.5205442">
    <tag k="addr:city" v="München"/>
    <tag k="addr:country" v="DE"/>
    <tag k="addr:housenumber" v="15"/>
    <tag k="addr:postcode" v="81379"/>
    <tag k="addr:street" v="Geisenhausenerstraße"/>
    <tag k="leisure" v="sports_centre"/>
    <tag k="name" v="Kieser Training"/>
    <tag k="operator" v="Kieser Training"/>
    <tag k="phone" v="+49 89 78064444"/>
    <tag k="postal_code" v="81379"/>
    <tag k="source" v="survey"/>
    <tag k="website" v="http://www.kieser-training.com"/>
  </node>
  <node id="277976228" version="17" timestamp="2009-09-04T21:06:56Z" uid="36809" user="pfoten_weg_!_" changeset="2374562" lat="48.0965406" lon="11.5205442">
    <tag k="addr:city" v="München"/>
    <tag k="addr:country" v="DE"/>
    <tag k="addr:housenumber" v="15"/>
    <tag k="addr:postcode" v="81379"/>
    <tag k="addr:street" v="Geisenhausenerstraße"/>
    <tag k="leisure" v="sports_centre"/>
    <tag k="name" v="Kieser Training"/>
    <tag k="operator" v="Kieser Training"/>
    <tag k="phone" v="+49 89 78064444"/>
    <tag k="postal_code" v="81379"/>
    <tag k="source" v="survey"/>
    <tag k="website" v="http://www.kieser-training.com"/>
  </node>
  <node id="277976228" version="18" timestamp="2009-10-13T23:07:14Z" uid="36809" user="pfoten_weg_!_" changeset="2841175" lat="48.0965406" lon="11.5205442">
    <tag k="addr:city" v="München"/>
    <tag k="addr:country" v="DE"/>
    <tag k="addr:housenumber" v="15"/>
    <tag k="addr:postcode" v="81379"/>
    <tag k="addr:street" v="Geisenhausenerstraße"/>
    <tag k="leisure" v="sports_centre"/>
    <tag k="name" v="Kieser Training"/>
    <tag k="operator" v="Kieser Training"/>
    <tag k="phone" v="+49 89 78064444"/>
    <tag k="postal_code" v="81379"/>
    <tag k="website" v="http://www.kieser-training.com"/>
  </node>
  <node id="277976228" version="19" timestamp="2010-04-24T09:20:04Z" uid="8703" user="rolandg" changeset="4509772" lat="48.0967736" lon="11.5210129">
    <tag k="addr:city" v="München"/>
    <tag k="addr:country" v="DE"/>
    <tag k="addr:housenumber" v="15"/>
    <tag k="addr:postcode" v="81379"/>
    <tag k="addr:street" v="Geisenhausenerstraße"/>
    <tag k="leisure" v="sports_centre"/>
    <tag k="name" v="Kieser Training"/>
    <tag k="operator" v="Kieser Training"/>
    <tag k="phone" v="+49 89 78064444"/>
    <tag k="postal_code" v="81379"/>
    <tag k="website" v="http://www.kieser-training.com"/>
  </node>
  <node id="277976232" version="7" timestamp="2009-12-06T23:29:39Z" uid="200463" user="harmagedon" changeset="3311555" lat="48.5563736" lon="13.4148317">
    <tag k="addr:city" v="Passau"/>
    <tag k="addr:housenumber" v="7"/>
    <tag k="addr:postcode" v="94036"/>
    <tag k="addr:street" v="Dr.-Emil-Brichta-Straße"/>
    <tag k="leisure" v="sports_centre"/>
    <tag k="name" v="Kieser Training 94036 Passau"/>
    <tag k="operator" v="Kieser Training"/>
    <tag k="postal_code" v="94036"/>
  </node>
  <node id="277978838" version="1" timestamp="2008-07-12T18:10:47Z" uid="38524" user="Kuddy" changeset="467714" lat="36.387168" lon="28.239621"/>
  <node id="277978842" version="1" timestamp="2008-07-12T18:10:47Z" uid="38524" user="Kuddy" changeset="467714" lat="36.3874021" lon="28.2397463"/>
  <node id="277978846" version="1" timestamp="2008-07-12T18:10:48Z" uid="38524" user="Kuddy" changeset="467714" lat="36.3875604" lon="28.2399046"/>
  <node id="277978850" version="1" timestamp="2008-07-12T18:10:48Z" uid="38524" user="Kuddy" changeset="467714" lat="36.3876065" lon="28.2401255"/>
  <node id="277978854" version="1" timestamp="2008-07-12T18:10:49Z" uid="38524" user="Kuddy" changeset="467714" lat="36.3876164" lon="28.2403366"/>
  <node id="277978855" version="1" timestamp="2008-07-12T18:10:49Z" uid="38524" user="Kuddy" changeset="467714" lat="36.3875406" lon="28.24063"/>
  <node id="277978856" version="1" timestamp="2008-07-12T18:10:50Z" uid="38524" user="Kuddy" changeset="467714" lat="36.3874615" lon="28.2408444"/>
  <node id="277978859" version="1" timestamp="2008-07-12T18:10:50Z" uid="38524" user="Kuddy" changeset="467714" lat="36.3873526" lon="28.2409861"/>
  <node id="277978860" version="1" timestamp="2008-07-12T18:10:51Z" uid="38524" user="Kuddy" changeset="467714" lat="36.3872306" lon="28.2411675"/>
  <node id="277978861" version="1" timestamp="2008-07-12T18:10:51Z" uid="38524" user="Kuddy" changeset="467714" lat="36.3871713" lon="28.241273"/>
  <node id="277978876" version="1" timestamp="2008-07-12T18:10:51Z" uid="38524" user="Kuddy" changeset="467714" lat="36.3871548" lon="28.2413884"/>
  <node id="277978890" version="1" timestamp="2008-07-12T18:10:52Z" uid="38524" user="Kuddy" changeset="467714" lat="36.3870526" lon="28.2415533"/>
  <node id="277978892" version="1" timestamp="2008-07-12T18:10:52Z" uid="38524" user="Kuddy" changeset="467714" lat="36.3868745" lon="28.2415269"/>
  <node id="277978896" version="1" timestamp="2008-07-12T18:10:53Z" uid="38524" user="Kuddy" changeset="467714" lat="36.386769" lon="28.2415368"/>
  <node id="277978903" version="1" timestamp="2008-07-12T18:10:53Z" uid="38524" user="Kuddy" changeset="467714" lat="36.3865843" lon="28.2414841"/>
  <node id="277978911" version="1" timestamp="2008-07-12T18:10:54Z" uid="38524" user="Kuddy" changeset="467714" lat="36.3866569" lon="28.2413126"/>
  <node id="277978918" version="1" timestamp="2008-07-12T18:10:54Z" uid="38524" user="Kuddy" changeset="467714" lat="36.3868185" lon="28.2410983"/>
  <node id="277978925" version="1" timestamp="2008-07-12T18:10:55Z" uid="38524" user="Kuddy" changeset="467714" lat="36.3867558" lon="28.2408773"/>
  <node id="277978940" version="1" timestamp="2008-07-12T18:10:56Z" uid="38524" user="Kuddy" changeset="467714" lat="36.3867426" lon="28.2405509"/>
  <node id="277978947" version="1" timestamp="2008-07-12T18:10:56Z" uid="38524" user="Kuddy" changeset="467714" lat="36.3868217" lon="28.2405113"/>
  <node id="277978948" version="1" timestamp="2008-07-12T18:10:57Z" uid="38524" user="Kuddy" changeset="467714" lat="36.3868119" lon="28.2404025"/>
  <node id="277978950" version="1" timestamp="2008-07-12T18:10:57Z" uid="38524" user="Kuddy" changeset="467714" lat="36.3868217" lon="28.2402145"/>
  <node id="277978951" version="1" timestamp="2008-07-12T18:10:58Z" uid="38524" user="Kuddy" changeset="467714" lat="36.3868481" lon="28.2401354"/>
  <node id="277978952" version="1" timestamp="2008-07-12T18:10:58Z" uid="38524" user="Kuddy" changeset="467714" lat="36.3871198" lon="28.2396985"/>
  <node id="277978953" version="1" timestamp="2008-07-12T18:10:59Z" uid="38524" user="Kuddy" changeset="467714" lat="36.3870725" lon="28.2396512"/>
  <node id="277978954" version="1" timestamp="2008-07-12T18:10:59Z" uid="38524" user="Kuddy" changeset="467714" lat="36.3870563" lon="28.2395513"/>
  <node id="277978955" version="1" timestamp="2008-07-12T18:10:59Z" uid="38524" user="Kuddy" changeset="467714" lat="36.3870604" lon="28.2394554"/>
  <node id="277978956" version="1" timestamp="2008-07-12T18:11:00Z" uid="38524" user="Kuddy" changeset="467714" lat="36.3871049" lon="28.2393257"/>
  <node id="277978957" version="1" timestamp="2008-07-12T18:11:00Z" uid="38524" user="Kuddy" changeset="467714" lat="36.3871455" lon="28.2392379"/>
  <node id="277978958" version="1" timestamp="2008-07-12T18:11:01Z" uid="38524" user="Kuddy" changeset="467714" lat="36.3871644" lon="28.239142"/>
  <node id="277978959" version="1" timestamp="2008-07-12T18:11:01Z" uid="38524" user="Kuddy" changeset="467714" lat="36.3871865" lon="28.2390902">
    <tag k="amenity" v="bus_station"/>
    <tag k="created_by" v="JOSM"/>
    <tag k="name" v="Bus Stop"/>
  </node>
  <node id="277978959" version="2" timestamp="2012-03-28T20:32:53Z" uid="35673" user="gzin" changeset="11131031" lat="36.3871865" lon="28.2390902">
    <tag k="amenity" v="bus_station"/>
    <tag k="name" v="Bus Stop"/>
  </node>
  <node id="277978960" version="1" timestamp="2008-07-12T18:11:02Z" uid="38524" user="Kuddy" changeset="467714" lat="36.3867609" lon="28.2411787"/>
  <node id="277978966" version="1" timestamp="2008-07-12T18:11:03Z" uid="38524" user="Kuddy" changeset="467714" lat="36.3866017" lon="28.2413207"/>
  <node id="277978967" version="1" timestamp="2008-07-12T18:11:03Z" uid="38524" user="Kuddy" changeset="467714" lat="36.3864447" lon="28.2413056"/>
  <node id="277978968" version="1" timestamp="2008-07-12T18:11:04Z" uid="38524" user="Kuddy" changeset="467714" lat="36.3863457" lon="28.241211"/>
  <node id="277978969" version="1" timestamp="2008-07-12T18:11:04Z" uid="38524" user="Kuddy" changeset="467714" lat="36.3862661" lon="28.2411464"/>
  <node id="277978970" version="1" timestamp="2008-07-12T18:11:05Z" uid="38524" user="Kuddy" changeset="467714" lat="36.3862683" lon="28.2410518"/>
  <node id="277978971" version="1" timestamp="2008-07-12T18:11:05Z" uid="38524" user="Kuddy" changeset="467714" lat="36.386236" lon="28.2409959"/>
  <node id="277978976" version="1" timestamp="2008-07-12T18:11:06Z" uid="38524" user="Kuddy" changeset="467714" lat="36.3861801" lon="28.2409507"/>
  <node id="277978977" version="1" timestamp="2008-07-12T18:11:06Z" uid="38524" user="Kuddy" changeset="467714" lat="36.3861113" lon="28.2410002"/>
  <node id="277978978" version="1" timestamp="2008-07-12T18:11:07Z" uid="38524" user="Kuddy" changeset="467714" lat="36.386064" lon="28.241069"/>
  <node id="277978979" version="1" timestamp="2008-07-12T18:11:07Z" uid="38524" user="Kuddy" changeset="467714" lat="36.3860511" lon="28.2411551"/>
  <node id="277978980" version="1" timestamp="2008-07-12T18:11:08Z" uid="38524" user="Kuddy" changeset="467714" lat="36.3860145" lon="28.2413658"/>
  <node id="277978981" version="1" timestamp="2008-07-12T18:11:08Z" uid="38524" user="Kuddy" changeset="467714" lat="36.3858682" lon="28.241497"/>
  <node id="277978983" version="1" timestamp="2008-07-12T18:11:09Z" uid="38524" user="Kuddy" changeset="467714" lat="36.3858188" lon="28.2415831"/>
  <node id="277978987" version="1" timestamp="2008-07-12T18:11:10Z" uid="38524" user="Kuddy" changeset="467714" lat="36.3857327" lon="28.2418068"/>
  <node id="277978991" version="1" timestamp="2008-07-12T18:11:10Z" uid="38524" user="Kuddy" changeset="467714" lat="36.3856983" lon="28.2418476"/>
  <node id="277978995" version="1" timestamp="2008-07-12T18:11:10Z" uid="38524" user="Kuddy" changeset="467714" lat="36.3856875" lon="28.2418003"/>
  <node id="277978999" version="1" timestamp="2008-07-12T18:11:11Z" uid="38524" user="Kuddy" changeset="467714" lat="36.3856037" lon="28.2417207"/>
  <node id="277979003" version="1" timestamp="2008-07-12T18:11:11Z" uid="38524" user="Kuddy" changeset="467714" lat="36.3855069" lon="28.2416648"/>
  <node id="277979007" version="1" timestamp="2008-07-12T18:11:12Z" uid="38524" user="Kuddy" changeset="467714" lat="36.3854423" lon="28.2417014"/>
  <node id="277979012" version="1" timestamp="2008-07-12T18:11:12Z" uid="38524" user="Kuddy" changeset="467714" lat="36.3853606" lon="28.2417745"/>
  <node id="277979018" version="1" timestamp="2008-07-12T18:11:13Z" uid="38524" user="Kuddy" changeset="467714" lat="36.38521" lon="28.2419014"/>
  <node id="277979022" version="1" timestamp="2008-07-12T18:11:13Z" uid="38524" user="Kuddy" changeset="467714" lat="36.3851348" lon="28.2419767"/>
  <node id="277979026" version="1" timestamp="2008-07-12T18:11:14Z" uid="38524" user="Kuddy" changeset="467714" lat="36.3850638" lon="28.2420778"/>
  <node id="277979040" version="1" timestamp="2008-07-12T18:11:15Z" uid="38524" user="Kuddy" changeset="467714" lat="36.384939" lon="28.2422606"/>
  <node id="277979065" version="1" timestamp="2008-07-12T18:11:16Z" uid="38524" user="Kuddy" changeset="467714" lat="36.3848659" lon="28.2423832"/>
  <node id="277979069" version="1" timestamp="2008-07-12T18:11:16Z" uid="38524" user="Kuddy" changeset="467714" lat="36.3848229" lon="28.2424671"/>
  <node id="277979072" version="1" timestamp="2008-07-12T18:11:16Z" uid="38524" user="Kuddy" changeset="467714" lat="36.3847949" lon="28.2425488"/>
  <node id="277979076" version="1" timestamp="2008-07-12T18:11:17Z" uid="38524" user="Kuddy" changeset="467714" lat="36.3847476" lon="28.2425617"/>
  <node id="277979081" version="1" timestamp="2008-07-12T18:11:17Z" uid="38524" user="Kuddy" changeset="467714" lat="36.3847863" lon="28.2424155"/>
  <node id="277979084" version="1" timestamp="2008-07-12T18:11:18Z" uid="38524" user="Kuddy" changeset="467714" lat="36.3848186" lon="28.2423101"/>
  <node id="277979089" version="1" timestamp="2008-07-12T18:11:19Z" uid="38524" user="Kuddy" changeset="467714" lat="36.3848272" lon="28.2421122"/>
  <node id="277979098" version="1" timestamp="2008-07-12T18:11:19Z" uid="38524" user="Kuddy" changeset="467714" lat="36.3848422" lon="28.2419961"/>
  <node id="277979102" version="1" timestamp="2008-07-12T18:11:20Z" uid="38524" user="Kuddy" changeset="467714" lat="36.3848379" lon="28.2418885"/>
  <node id="277979106" version="1" timestamp="2008-07-12T18:11:20Z" uid="38524" user="Kuddy" changeset="467714" lat="36.3848207" lon="28.2417917"/>
  <node id="277979109" version="1" timestamp="2008-07-12T18:11:21Z" uid="38524" user="Kuddy" changeset="467714" lat="36.3848121" lon="28.2417358"/>
  <node id="277979113" version="1" timestamp="2008-07-12T18:11:21Z" uid="38524" user="Kuddy" changeset="467714" lat="36.3848014" lon="28.2416455"/>
  <node id="277979117" version="1" timestamp="2008-07-12T18:11:21Z" uid="38524" user="Kuddy" changeset="467714" lat="36.3848616" lon="28.2414992"/>
  <node id="277979121" version="1" timestamp="2008-07-12T18:11:22Z" uid="38524" user="Kuddy" changeset="467714" lat="36.3847971" lon="28.2415164"/>
  <node id="277979124" version="1" timestamp="2008-07-12T18:11:22Z" uid="38524" user="Kuddy" changeset="467714" lat="36.3847799" lon="28.2414325"/>
  <node id="277979128" version="1" timestamp="2008-07-12T18:11:23Z" uid="38524" user="Kuddy" changeset="467714" lat="36.3846745" lon="28.2412067"/>
  <node id="277979132" version="1" timestamp="2008-07-12T18:11:23Z" uid="38524" user="Kuddy" changeset="467714" lat="36.3846035" lon="28.2411271"/>
  <node id="277979133" version="1" timestamp="2008-07-12T18:11:24Z" uid="38524" user="Kuddy" changeset="467714" lat="36.3844959" lon="28.2411034"/>
  <node id="277979134" version="1" timestamp="2008-07-12T18:11:24Z" uid="38524" user="Kuddy" changeset="467714" lat="36.3844443" lon="28.2410475"/>
  <node id="277979135" version="1" timestamp="2008-07-12T18:11:25Z" uid="38524" user="Kuddy" changeset="467714" lat="36.3844164" lon="28.2409593"/>
  <node id="277979136" version="1" timestamp="2008-07-12T18:11:25Z" uid="38524" user="Kuddy" changeset="467714" lat="36.3843217" lon="28.2408475"/>
  <node id="277979137" version="1" timestamp="2008-07-12T18:11:25Z" uid="38524" user="Kuddy" changeset="467714" lat="36.3849046" lon="28.241482">
    <tag k="amenity" v="restaurant"/>
    <tag k="created_by" v="JOSM"/>
    <tag k="name" v="Roc"/>
  </node>
  <node id="277979137" version="2" timestamp="2012-03-28T20:32:58Z" uid="35673" user="gzin" changeset="11131031" lat="36.3849046" lon="28.241482">
    <tag k="amenity" v="restaurant"/>
    <tag k="name" v="Roc"/>
  </node>
  <node id="277979138" version="1" timestamp="2008-07-12T18:11:26Z" uid="38524" user="Kuddy" changeset="467714" lat="36.3857521" lon="28.2412282">
    <tag k="amenity" v="restaurant"/>
    <tag k="created_by" v="JOSM"/>
    <tag k="name" v="Mythos Poolbar"/>
  </node>
  <node id="277979138" version="2" timestamp="2012-03-28T20:32:57Z" uid="35673" user="gzin" changeset="11131031" lat="36.3857521" lon="28.2412282">
    <tag k="amenity" v="restaurant"/>
    <tag k="name" v="Mythos Poolbar"/>
  </node>
  <node id="277979139" version="1" timestamp="2008-07-12T18:11:26Z" uid="38524" user="Kuddy" changeset="467714" lat="36.386178" lon="28.241282"/>
  <node id="277979141" version="1" timestamp="2008-07-12T18:11:27Z" uid="38524" user="Kuddy" changeset="467714" lat="36.386122" lon="28.2413422"/>
  <node id="277979142" version="1" timestamp="2008-07-12T18:11:27Z" uid="38524" user="Kuddy" changeset="467714" lat="36.3860661" lon="28.2414411"/>
  <node id="277979143" version="1" timestamp="2008-07-12T18:11:28Z" uid="38524" user="Kuddy" changeset="467714" lat="36.3860102" lon="28.2415723"/>
  <node id="277979144" version="1" timestamp="2008-07-12T18:11:28Z" uid="38524" user="Kuddy" changeset="467714" lat="36.3859951" lon="28.2416777"/>
  <node id="277979145" version="1" timestamp="2008-07-12T18:11:29Z" uid="38524" user="Kuddy" changeset="467714" lat="36.3860059" lon="28.2418261"/>
  <node id="277979146" version="1" timestamp="2008-07-12T18:11:29Z" uid="38524" user="Kuddy" changeset="467714" lat="36.3860704" lon="28.2418907"/>
  <node id="277979147" version="1" timestamp="2008-07-12T18:11:30Z" uid="38524" user="Kuddy" changeset="467714" lat="36.3861113" lon="28.2419573"/>
  <node id="277979148" version="1" timestamp="2008-07-12T18:11:30Z" uid="38524" user="Kuddy" changeset="467714" lat="36.3861134" lon="28.2420477"/>
  <node id="277979149" version="1" timestamp="2008-07-12T18:11:31Z" uid="38524" user="Kuddy" changeset="467714" lat="36.3861285" lon="28.2421595"/>
  <node id="277979150" version="1" timestamp="2008-07-12T18:11:31Z" uid="38524" user="Kuddy" changeset="467714" lat="36.3861156" lon="28.2422348"/>
  <node id="277979151" version="1" timestamp="2008-07-12T18:11:32Z" uid="38524" user="Kuddy" changeset="467714" lat="36.3860511" lon="28.2424456"/>
  <node id="277979153" version="1" timestamp="2008-07-12T18:11:32Z" uid="38524" user="Kuddy" changeset="467714" lat="36.3859973" lon="28.2426349"/>
  <node id="277979154" version="1" timestamp="2008-07-12T18:11:33Z" uid="38524" user="Kuddy" changeset="467714" lat="36.3859865" lon="28.2427962"/>
  <node id="277979155" version="1" timestamp="2008-07-12T18:11:33Z" uid="38524" user="Kuddy" changeset="467714" lat="36.3860274" lon="28.2428908"/>
  <node id="277979156" version="1" timestamp="2008-07-12T18:11:33Z" uid="38524" user="Kuddy" changeset="467714" lat="36.3860618" lon="28.242936"/>
  <node id="277979158" version="1" timestamp="2008-07-12T18:11:34Z" uid="38524" user="Kuddy" changeset="467714" lat="36.3860661" lon="28.2430242"/>
  <node id="277979159" version="1" timestamp="2008-07-12T18:11:34Z" uid="38524" user="Kuddy" changeset="467714" lat="36.3860424" lon="28.2431403"/>
  <node id="277979160" version="1" timestamp="2008-07-12T18:11:35Z" uid="38524" user="Kuddy" changeset="467714" lat="36.3860231" lon="28.2432522"/>
  <node id="277979162" version="1" timestamp="2008-07-12T18:11:36Z" uid="38524" user="Kuddy" changeset="467714" lat="36.3861199" lon="28.243392"/>
  <node id="277979163" version="1" timestamp="2008-07-12T18:11:36Z" uid="38524" user="Kuddy" changeset="467714" lat="36.3862102" lon="28.2435877"/>
  <node id="277979164" version="1" timestamp="2008-07-12T18:11:37Z" uid="38524" user="Kuddy" changeset="467714" lat="36.3862532" lon="28.2437017"/>
  <node id="277979165" version="1" timestamp="2008-07-12T18:11:37Z" uid="38524" user="Kuddy" changeset="467714" lat="36.3862834" lon="28.243848"/>
  <node id="277979166" version="1" timestamp="2008-07-12T18:11:38Z" uid="38524" user="Kuddy" changeset="467714" lat="36.386279" lon="28.244005"/>
  <node id="277979167" version="1" timestamp="2008-07-12T18:11:38Z" uid="38524" user="Kuddy" changeset="467714" lat="36.3862446" lon="28.2441212"/>
  <node id="277979169" version="1" timestamp="2008-07-12T18:11:39Z" uid="38524" user="Kuddy" changeset="467714" lat="36.3861306" lon="28.2441986"/>
  <node id="277979170" version="1" timestamp="2008-07-12T18:11:40Z" uid="38524" user="Kuddy" changeset="467714" lat="36.3860059" lon="28.2442997"/>
  <node id="277979171" version="1" timestamp="2008-07-12T18:11:40Z" uid="38524" user="Kuddy" changeset="467714" lat="36.386178" lon="28.2445492"/>
  <node id="277979172" version="1" timestamp="2008-07-12T18:11:41Z" uid="38524" user="Kuddy" changeset="467714" lat="36.3862382" lon="28.2447277"/>
  <node id="277979173" version="1" timestamp="2008-07-12T18:11:41Z" uid="38524" user="Kuddy" changeset="467714" lat="36.3862597" lon="28.2449363"/>
  <node id="277979174" version="1" timestamp="2008-07-12T18:11:42Z" uid="38524" user="Kuddy" changeset="467714" lat="36.3862145" lon="28.2452762"/>
  <node id="277979175" version="1" timestamp="2008-07-12T18:11:42Z" uid="38524" user="Kuddy" changeset="467714" lat="36.3861328" lon="28.2452568">
    <tag k="amenity" v="restaurant"/>
    <tag k="created_by" v="JOSM"/>
    <tag k="name" v="Athena Restaurant"/>
  </node>
  <node id="277979175" version="2" timestamp="2012-03-28T20:32:53Z" uid="35673" user="gzin" changeset="11131031" lat="36.3861328" lon="28.2452568">
    <tag k="amenity" v="restaurant"/>
    <tag k="name" v="Athena Restaurant"/>
  </node>
  <node id="277979176" version="1" timestamp="2008-07-12T18:11:42Z" uid="38524" user="Kuddy" changeset="467714" lat="36.3863242" lon="28.2423402"/>
  <node id="277979177" version="1" timestamp="2008-07-12T18:11:43Z" uid="38524" user="Kuddy" changeset="467714" lat="36.386464" lon="28.2424693"/>
  <node id="277979178" version="1" timestamp="2008-07-12T18:11:43Z" uid="38524" user="Kuddy" changeset="467714" lat="36.3866576" lon="28.2424822"/>
  <node id="277979179" version="1" timestamp="2008-07-12T18:11:44Z" uid="38524" user="Kuddy" changeset="467714" lat="36.38692" lon="28.242437"/>
  <node id="277979179" version="2" timestamp="2012-03-28T20:40:52Z" uid="35673" user="gzin" changeset="11131031" lat="36.3869548" lon="28.2424154"/>
  <node id="277979180" version="1" timestamp="2008-07-12T18:11:44Z" uid="38524" user="Kuddy" changeset="467714" lat="36.3870856" lon="28.2423402"/>
  <node id="277979182" version="1" timestamp="2008-07-12T18:11:45Z" uid="38524" user="Kuddy" changeset="467714" lat="36.3871846" lon="28.2422413"/>
  <node id="277979183" version="1" timestamp="2008-07-12T18:11:45Z" uid="38524" user="Kuddy" changeset="467714" lat="36.387247" lon="28.242138"/>
  <node id="277979184" version="1" timestamp="2008-07-12T18:11:46Z" uid="38524" user="Kuddy" changeset="467714" lat="36.3872857" lon="28.2419724"/>
  <node id="277979185" version="1" timestamp="2008-07-12T18:11:46Z" uid="38524" user="Kuddy" changeset="467714" lat="36.3873244" lon="28.2417057"/>
  <node id="277979186" version="1" timestamp="2008-07-12T18:11:46Z" uid="38524" user="Kuddy" changeset="467714" lat="36.3873631" lon="28.2414347"/>
  <node id="277979187" version="1" timestamp="2008-07-12T18:11:47Z" uid="38524" user="Kuddy" changeset="467714" lat="36.3873545" lon="28.2412217"/>
  <node id="277979188" version="1" timestamp="2008-07-12T18:11:47Z" uid="38524" user="Kuddy" changeset="467714" lat="36.387333" lon="28.2410733"/>
  <node id="277979189" version="1" timestamp="2008-07-12T18:11:48Z" uid="38524" user="Kuddy" changeset="467714" lat="36.3865587" lon="28.241525">
    <tag k="amenity" v="restaurant"/>
    <tag k="created_by" v="JOSM"/>
    <tag k="name" v="Thelassa Restaurant"/>
  </node>
  <node id="277979189" version="2" timestamp="2012-03-28T20:32:58Z" uid="35673" user="gzin" changeset="11131031" lat="36.3865587" lon="28.241525">
    <tag k="amenity" v="restaurant"/>
    <tag k="name" v="Thelassa Restaurant"/>
  </node>
  <node id="277979190" version="1" timestamp="2008-07-12T18:11:48Z" uid="38524" user="Kuddy" changeset="467714" lat="36.3860468" lon="28.242779"/>
  <node id="277979191" version="2" timestamp="2008-10-03T20:34:22Z" uid="33382" user="de_muur" changeset="47569" lat="53.5296444" lon="10.3108895"/>
  <node id="277979192" version="2" timestamp="2008-11-04T21:00:12Z" uid="33382" user="de_muur" changeset="679506" lat="53.5293896" lon="10.310914"/>
  <node id="277979193" version="1" timestamp="2008-07-12T18:11:49Z" uid="38524" user="Kuddy" changeset="467714" lat="36.3861543" lon="28.242665"/>
  <node id="277979194" version="1" timestamp="2008-07-12T18:11:49Z" uid="38524" user="Kuddy" changeset="467714" lat="36.3863178" lon="28.2424908"/>
  <node id="277979195" version="1" timestamp="2008-07-12T18:11:50Z" uid="38524" user="Kuddy" changeset="467714" lat="36.3863737" lon="28.2424499"/>
  <node id="277979196" version="1" timestamp="2008-07-12T18:11:50Z" uid="38524" user="Kuddy" changeset="467714" lat="36.386991" lon="28.242508"/>
  <node id="277979196" version="2" timestamp="2012-03-28T20:41:29Z" uid="35673" user="gzin" changeset="11131031" lat="36.386991" lon="28.242508"/>
  <node id="277979199" version="1" timestamp="2008-07-12T18:11:51Z" uid="38524" user="Kuddy" changeset="467714" lat="36.387019" lon="28.242579"/>
  <node id="277979199" version="2" timestamp="2012-03-28T20:41:29Z" uid="35673" user="gzin" changeset="11131031" lat="36.387019" lon="28.242579"/>
  <node id="277979200" version="1" timestamp="2008-07-12T18:11:52Z" uid="38524" user="Kuddy" changeset="467714" lat="36.3870233" lon="28.2427231"/>
  <node id="277979200" version="2" timestamp="2012-03-28T20:41:29Z" uid="35673" user="gzin" changeset="11131031" lat="36.3870233" lon="28.2427231"/>
  <node id="277979201" version="1" timestamp="2008-07-12T18:11:52Z" uid="38524" user="Kuddy" changeset="467714" lat="36.3870426" lon="28.2428414"/>
  <node id="277979201" version="2" timestamp="2012-03-28T20:41:29Z" uid="35673" user="gzin" changeset="11131031" lat="36.3870426" lon="28.2428414"/>
  <node id="277979202" version="1" timestamp="2008-07-12T18:11:53Z" uid="38524" user="Kuddy" changeset="467714" lat="36.3870168" lon="28.2430113"/>
  <node id="277979202" version="2" timestamp="2012-03-28T20:41:30Z" uid="35673" user="gzin" changeset="11131031" lat="36.3870168" lon="28.2430113"/>
  <node id="277979203" version="1" timestamp="2008-07-12T18:11:53Z" uid="38524" user="Kuddy" changeset="467714" lat="36.3870555" lon="28.2431253"/>
  <node id="277979203" version="2" timestamp="2012-03-28T20:41:30Z" uid="35673" user="gzin" changeset="11131031" lat="36.3870555" lon="28.2431253"/>
  <node id="277979204" version="1" timestamp="2008-07-12T18:11:54Z" uid="38524" user="Kuddy" changeset="467714" lat="36.3871158" lon="28.2432651"/>
  <node id="277979204" version="2" timestamp="2012-03-28T20:41:30Z" uid="35673" user="gzin" changeset="11131031" lat="36.3871158" lon="28.2432651"/>
  <node id="277979205" version="1" timestamp="2008-07-12T18:11:54Z" uid="38524" user="Kuddy" changeset="467714" lat="36.3871222" lon="28.2433834"/>
  <node id="277979205" version="2" timestamp="2012-03-28T20:41:30Z" uid="35673" user="gzin" changeset="11131031" lat="36.3871222" lon="28.2433834"/>
  <node id="277979206" version="1" timestamp="2008-07-12T18:11:55Z" uid="38524" user="Kuddy" changeset="467714" lat="36.3871093" lon="28.2434651"/>
  <node id="277979206" version="2" timestamp="2012-03-28T20:41:31Z" uid="35673" user="gzin" changeset="11131031" lat="36.3871093" lon="28.2434651"/>
  <node id="277979207" version="1" timestamp="2008-07-12T18:11:55Z" uid="38524" user="Kuddy" changeset="467714" lat="36.386806" lon="28.2438673"/>
  <node id="277979207" version="2" timestamp="2012-03-28T20:41:31Z" uid="35673" user="gzin" changeset="11131031" lat="36.386806" lon="28.2438673"/>
  <node id="277979208" version="1" timestamp="2008-07-12T18:11:56Z" uid="38524" user="Kuddy" changeset="467714" lat="36.3867415" lon="28.2439383"/>
  <node id="277979208" version="2" timestamp="2012-03-28T20:41:31Z" uid="35673" user="gzin" changeset="11131031" lat="36.3867415" lon="28.2439383"/>
  <node id="277979209" version="1" timestamp="2008-07-12T18:11:57Z" uid="38524" user="Kuddy" changeset="467714" lat="36.3866339" lon="28.2439706"/>
  <node id="277979211" version="1" timestamp="2008-07-12T18:11:57Z" uid="38524" user="Kuddy" changeset="467714" lat="36.3865393" lon="28.2439512"/>
  <node id="277979211" version="2" timestamp="2012-03-28T20:41:31Z" uid="35673" user="gzin" changeset="11131031" lat="36.3865393" lon="28.2439512"/>
  <node id="277979212" version="1" timestamp="2008-07-12T18:11:58Z" uid="38524" user="Kuddy" changeset="467714" lat="36.3863973" lon="28.2438716"/>
  <node id="277979212" version="2" timestamp="2012-03-28T20:41:31Z" uid="35673" user="gzin" changeset="11131031" lat="36.3863973" lon="28.2438716"/>
  <node id="277979213" version="1" timestamp="2008-07-12T18:11:58Z" uid="38524" user="Kuddy" changeset="467714" lat="36.3861586" lon="28.2456461"/>
  <node id="277979213" version="2" timestamp="2012-03-28T20:41:31Z" uid="35673" user="gzin" changeset="11131031" lat="36.3861586" lon="28.2456461"/>
  <node id="277979214" version="1" timestamp="2008-07-12T18:11:58Z" uid="38524" user="Kuddy" changeset="467714" lat="36.386393" lon="28.2454461"/>
  <node id="277979215" version="1" timestamp="2008-07-12T18:11:59Z" uid="38524" user="Kuddy" changeset="467714" lat="36.3865243" lon="28.2453192"/>
  <node id="277979216" version="1" timestamp="2008-07-12T18:11:59Z" uid="38524" user="Kuddy" changeset="467714" lat="36.3866146" lon="28.2452848"/>
  <node id="277979218" version="1" timestamp="2008-07-12T18:12:00Z" uid="38524" user="Kuddy" changeset="467714" lat="36.3867264" lon="28.2452719"/>
  <node id="277979219" version="1" timestamp="2008-07-12T18:12:00Z" uid="38524" user="Kuddy" changeset="467714" lat="36.3868275" lon="28.2452203"/>
  <node id="277979221" version="1" timestamp="2008-07-12T18:12:01Z" uid="38524" user="Kuddy" changeset="467714" lat="36.3869437" lon="28.2450912"/>
  <node id="277979222" version="1" timestamp="2008-07-12T18:12:01Z" uid="38524" user="Kuddy" changeset="467714" lat="36.3870598" lon="28.2448826"/>
  <node id="277979223" version="1" timestamp="2008-07-12T18:12:02Z" uid="38524" user="Kuddy" changeset="467714" lat="36.387219" lon="28.2446051"/>
  <node id="277979226" version="1" timestamp="2008-07-12T18:12:02Z" uid="38524" user="Kuddy" changeset="467714" lat="36.3873588" lon="28.2443233"/>
  <node id="277979230" version="1" timestamp="2008-07-12T18:12:03Z" uid="38524" user="Kuddy" changeset="467714" lat="36.3873739" lon="28.2441792"/>
  <node id="277979237" version="1" timestamp="2008-07-12T18:12:03Z" uid="38524" user="Kuddy" changeset="467714" lat="36.3873072" lon="28.2440631"/>
  <node id="277979244" version="1" timestamp="2008-07-12T18:12:03Z" uid="38524" user="Kuddy" changeset="467714" lat="36.3871889" lon="28.2441126"/>
  <node id="277979262" version="1" timestamp="2008-07-12T18:12:04Z" uid="38524" user="Kuddy" changeset="467714" lat="36.3871244" lon="28.2441642"/>
  <node id="277979267" version="1" timestamp="2008-07-12T18:12:04Z" uid="38524" user="Kuddy" changeset="467714" lat="36.3870168" lon="28.2442846"/>
  <node id="277979268" version="1" timestamp="2008-07-12T18:12:05Z" uid="38524" user="Kuddy" changeset="467714" lat="36.3869458" lon="28.2442975"/>
  <node id="277979269" version="1" timestamp="2008-07-12T18:12:05Z" uid="38524" user="Kuddy" changeset="467714" lat="36.386877" lon="28.2442846"/>
  <node id="277979270" version="1" timestamp="2008-07-12T18:12:06Z" uid="38524" user="Kuddy" changeset="467714" lat="36.3867824" lon="28.2442007"/>
  <node id="277979271" version="1" timestamp="2008-07-12T18:12:06Z" uid="38524" user="Kuddy" changeset="467714" lat="36.3867566" lon="28.2441039"/>
  <node id="277979272" version="1" timestamp="2008-07-12T18:12:07Z" uid="38524" user="Kuddy" changeset="467714" lat="36.3867931" lon="28.244005">
    <tag k="amenity" v="biergarten"/>
    <tag k="created_by" v="JOSM"/>
    <tag k="name" v="Safari"/>
  </node>
  <node id="277979272" version="2" timestamp="2012-03-28T20:41:29Z" uid="35673" user="gzin" changeset="11131031" lat="36.3867931" lon="28.244005"/>
  <node id="277979274" version="1" timestamp="2008-07-12T18:12:07Z" uid="38524" user="Kuddy" changeset="467714" lat="36.3874405" lon="28.2438889"/>
  <node id="277979275" version="1" timestamp="2008-07-12T18:12:08Z" uid="38524" user="Kuddy" changeset="467714" lat="36.3875352" lon="28.2436867"/>
  <node id="277979276" version="1" timestamp="2008-07-12T18:12:09Z" uid="38524" user="Kuddy" changeset="467714" lat="36.3874965" lon="28.243534"/>
  <node id="277979278" version="1" timestamp="2008-07-12T18:12:10Z" uid="38524" user="Kuddy" changeset="467714" lat="36.3873115" lon="28.2432178"/>
  <node id="277979279" version="1" timestamp="2008-07-12T18:12:10Z" uid="38524" user="Kuddy" changeset="467714" lat="36.3872319" lon="28.2430866"/>
  <node id="277979280" version="1" timestamp="2008-07-12T18:12:11Z" uid="38524" user="Kuddy" changeset="467714" lat="36.3872556" lon="28.2429037"/>
  <node id="277979282" version="1" timestamp="2008-07-12T18:12:11Z" uid="38524" user="Kuddy" changeset="467714" lat="36.3873889" lon="28.2424628"/>
  <node id="277979283" version="1" timestamp="2008-07-12T18:12:12Z" uid="38524" user="Kuddy" changeset="467714" lat="36.3874707" lon="28.2421638"/>
  <node id="277979284" version="1" timestamp="2008-07-12T18:12:12Z" uid="38524" user="Kuddy" changeset="467714" lat="36.3875545" lon="28.2416433"/>
  <node id="277979285" version="1" timestamp="2008-07-12T18:12:13Z" uid="38524" user="Kuddy" changeset="467714" lat="36.3876234" lon="28.24151"/>
  <node id="277979287" version="1" timestamp="2008-07-12T18:12:13Z" uid="38524" user="Kuddy" changeset="467714" lat="36.3876384" lon="28.2414476"/>
  <node id="277979288" version="1" timestamp="2008-07-12T18:12:13Z" uid="38524" user="Kuddy" changeset="467714" lat="36.3876255" lon="28.2412604"/>
  <node id="277979289" version="1" timestamp="2008-07-12T18:12:14Z" uid="38524" user="Kuddy" changeset="467714" lat="36.3875631" lon="28.2411529"/>
  <node id="277979293" version="1" timestamp="2008-07-12T18:12:15Z" uid="38524" user="Kuddy" changeset="467714" lat="36.3874534" lon="28.2410561"/>
  <node id="277979294" version="1" timestamp="2008-07-12T18:12:16Z" uid="38524" user="Kuddy" changeset="467714" lat="36.3873954" lon="28.2409314"/>
  <node id="277979295" version="1" timestamp="2008-07-12T18:12:16Z" uid="38524" user="Kuddy" changeset="467714" lat="36.3868168" lon="28.2405334"/>
  <node id="277979296" version="1" timestamp="2008-07-12T18:12:16Z" uid="38524" user="Kuddy" changeset="467714" lat="36.3868212" lon="28.2405273">
    <tag k="created_by" v="JOSM"/>
    <tag k="name" v="Kalithea Hotel"/>
    <tag k="tourism" v="hotel"/>
  </node>
  <node id="277979296" version="2" timestamp="2008-09-22T10:57:50Z" uid="20873" user="richard_k" changeset="681209" lat="36.3868212" lon="28.2405273">
    <tag k="created_by" v="JOSM"/>
    <tag k="name" v="Kalithea Horizon Hotel"/>
    <tag k="tourism" v="hotel"/>
  </node>
  <node id="277979296" version="3" timestamp="2012-03-28T20:32:55Z" uid="35673" user="gzin" changeset="11131031" lat="36.3868212" lon="28.2405273">
    <tag k="name" v="Kalithea Horizon Hotel"/>
    <tag k="tourism" v="hotel"/>
  </node>
  <node id="277979300" version="1" timestamp="2008-07-12T18:12:17Z" uid="38524" user="Kuddy" changeset="467714" lat="36.3856917" lon="28.2442701"/>
  <node id="277979307" version="1" timestamp="2008-07-12T18:12:17Z" uid="38524" user="Kuddy" changeset="467714" lat="36.3858285" lon="28.244677"/>
  <node id="277979308" version="1" timestamp="2008-07-12T18:12:18Z" uid="38524" user="Kuddy" changeset="467714" lat="36.3859373" lon="28.2449664"/>
  <node id="277979315" version="1" timestamp="2008-07-12T18:12:18Z" uid="38524" user="Kuddy" changeset="467714" lat="36.3860214" lon="28.2452329"/>
  <node id="277979316" version="1" timestamp="2008-07-12T18:12:19Z" uid="38524" user="Kuddy" changeset="467714" lat="36.3860197" lon="28.2452961"/>
  <node id="277979319" version="1" timestamp="2008-07-12T18:12:19Z" uid="38524" user="Kuddy" changeset="467714" lat="36.3861249" lon="28.2455521"/>
  <node id="277979321" version="1" timestamp="2008-07-12T18:12:20Z" uid="38524" user="Kuddy" changeset="467714" lat="36.3858829" lon="28.2446279"/>
  <node id="277979323" version="1" timestamp="2008-07-12T18:12:20Z" uid="38524" user="Kuddy" changeset="467714" lat="36.3858373" lon="28.2444823"/>
  <node id="277979324" version="1" timestamp="2008-07-12T18:12:21Z" uid="38524" user="Kuddy" changeset="467714" lat="36.3858285" lon="28.2443736"/>
  <node id="277979327" version="1" timestamp="2008-07-12T18:12:21Z" uid="38524" user="Kuddy" changeset="467714" lat="36.3858426" lon="28.2442754"/>
  <node id="277979329" version="1" timestamp="2008-07-12T18:12:21Z" uid="38524" user="Kuddy" changeset="467714" lat="36.3858759" lon="28.2442508"/>
  <node id="277979331" version="1" timestamp="2008-07-12T18:12:22Z" uid="38524" user="Kuddy" changeset="467714" lat="36.3858864" lon="28.2442175"/>
  <node id="277979334" version="1" timestamp="2008-07-12T18:12:22Z" uid="38524" user="Kuddy" changeset="467714" lat="36.3858478" lon="28.244114"/>
  <node id="277979336" version="1" timestamp="2008-07-12T18:12:23Z" uid="38524" user="Kuddy" changeset="467714" lat="36.3858706" lon="28.2440877"/>
  <node id="277979339" version="1" timestamp="2008-07-12T18:12:23Z" uid="38524" user="Kuddy" changeset="467714" lat="36.3859566" lon="28.2442175"/>
  <node id="277979341" version="1" timestamp="2008-07-12T18:12:24Z" uid="38524" user="Kuddy" changeset="467714" lat="36.3848965" lon="28.2398713"/>
  <node id="277979341" version="2" timestamp="2010-06-30T23:12:38Z" uid="103253" user="gormur" changeset="5117401" lat="36.384952" lon="28.2399058"/>
  <node id="277979344" version="1" timestamp="2008-07-12T18:12:24Z" uid="38524" user="Kuddy" changeset="467714" lat="36.3849502" lon="28.2399361"/>
  <node id="277979347" version="1" timestamp="2008-07-12T18:12:24Z" uid="38524" user="Kuddy" changeset="467714" lat="36.3850351" lon="28.2401127"/>
  <node id="277979349" version="1" timestamp="2008-07-12T18:12:25Z" uid="38524" user="Kuddy" changeset="467714" lat="36.3851177" lon="28.240202"/>
  <node id="277979352" version="1" timestamp="2008-07-12T18:12:25Z" uid="38524" user="Kuddy" changeset="467714" lat="36.3854439" lon="28.2403964"/>
  <node id="277979354" version="1" timestamp="2008-07-12T18:12:26Z" uid="38524" user="Kuddy" changeset="467714" lat="36.3858707" lon="28.2406065"/>
  <node id="277979357" version="1" timestamp="2008-07-12T18:12:26Z" uid="38524" user="Kuddy" changeset="467714" lat="36.3859735" lon="28.2408232"/>
  <node id="277979359" version="1" timestamp="2008-07-12T18:12:27Z" uid="38524" user="Kuddy" changeset="467714" lat="36.3860092" lon="28.2408902"/>
  <node id="277979362" version="1" timestamp="2008-07-12T18:12:27Z" uid="38524" user="Kuddy" changeset="467714" lat="36.3860785" lon="28.2409394"/>
  <node id="277979365" version="1" timestamp="2008-07-12T18:12:28Z" uid="38524" user="Kuddy" changeset="467714" lat="36.3860048" lon="28.2407941">
    <tag k="amenity" v="parking"/>
    <tag k="created_by" v="JOSM"/>
    <tag k="name" v="Parking"/>
  </node>
  <node id="277979365" version="2" timestamp="2010-08-07T12:24:36Z" uid="207745" user="NE2" changeset="5424127" lat="36.3860048" lon="28.2407941">
    <tag k="amenity" v="parking"/>
  </node>
  <node id="277971934" version="27" timestamp="2012-08-15T17:17:27Z" uid="758899" user="belosm2012" changeset="12741613" lat="48.1943174" lon="16.3354796"/>
  <node id="277971934" version="28" timestamp="2012-08-18T08:28:06Z" uid="758899" user="belosm2012" changeset="12770360" lat="48.1943174" lon="16.3354796">
    <tag k="highway" v="traffic_signals"/>
  </node>
  <node id="277971998" version="17" timestamp="2012-07-17T00:22:38Z" uid="722137" user="OSMF Redaction Account" changeset="12254115" lat="48.19402" lon="16.3349533"/>
  <node id="277971998" version="18" timestamp="2012-08-18T08:28:06Z" uid="758899" user="belosm2012" changeset="12770360" lat="48.19402" lon="16.3349533">
    <tag k="highway" v="traffic_signals"/>
  </node>
  <node id="277975536" version="4" timestamp="2012-07-13T21:12:34Z" uid="722137" user="OSMF Redaction Account" changeset="12211338" lat="53.3708912" lon="-2.7232925"/>
  <node id="277975716" version="4" timestamp="2012-05-18T13:16:39Z" uid="147584" user="gas06" changeset="11633051" lat="51.8655139" lon="7.2261972"/>
  <node id="277975721" version="5" timestamp="2012-05-18T13:16:40Z" uid="147584" user="gas06" changeset="11633051" lat="51.8656004" lon="7.2262593"/>
  <node id="277975726" version="4" timestamp="2012-05-18T13:16:39Z" uid="147584" user="gas06" changeset="11633051" lat="51.8656421" lon="7.2262288">
    <tag k="highway" v="turning_circle"/>
    <tag k="name" v="Welte"/>
  </node>
  <node id="277975727" version="5" timestamp="2012-05-18T13:16:40Z" uid="147584" user="gas06" changeset="11633051" lat="51.8656523" lon="7.2261662"/>
  <node id="277975728" version="5" timestamp="2012-05-18T13:16:40Z" uid="147584" user="gas06" changeset="11633051" lat="51.8656524" lon="7.2261244"/>
  <node id="277975729" version="5" timestamp="2012-05-18T13:16:40Z" uid="147584" user="gas06" changeset="11633051" lat="51.8656412" lon="7.2260791"/>
  <node id="277975730" version="5" timestamp="2012-05-18T13:16:39Z" uid="147584" user="gas06" changeset="11633051" lat="51.8656103" lon="7.2260365"/>
  <node id="277975731" version="5" timestamp="2012-05-18T13:16:40Z" uid="147584" user="gas06" changeset="11633051" lat="51.8655548" lon="7.2260331"/>
  <node id="277975732" version="5" timestamp="2012-05-18T13:16:40Z" uid="147584" user="gas06" changeset="11633051" lat="51.86553" lon="7.2260576"/>
  <node id="277976228" version="20" timestamp="2012-06-15T08:36:20Z" uid="290680" user="wheelmap_visitor" changeset="11901222" lat="48.0967736" lon="11.5210129">
    <tag k="addr:city" v="München"/>
    <tag k="addr:country" v="DE"/>
    <tag k="addr:housenumber" v="15"/>
    <tag k="addr:postcode" v="81379"/>
    <tag k="addr:street" v="Geisenhausenerstraße"/>
    <tag k="leisure" v="sports_centre"/>
    <tag k="name" v="Kieser Training"/>
    <tag k="operator" v="Kieser Training"/>
    <tag k="phone" v="+49 89 78064444"/>
    <tag k="postal_code" v="81379"/>
    <tag k="website" v="http://www.kieser-training.com"/>
    <tag k="wheelchair" v="limited"/>
  </node>
  <node id="277976228" version="21" timestamp="2012-06-15T08:36:24Z" uid="704666" user="cosmicadi" changeset="11902061" lat="48.0967736" lon="11.5210129">
    <tag k="addr:city" v="München"/>
    <tag k="addr:country" v="DE"/>
    <tag k="addr:housenumber" v="15"/>
    <tag k="addr:postcode" v="81379"/>
    <tag k="addr:street" v="Geisenhausenerstraße"/>
    <tag k="leisure" v="sports_centre"/>
    <tag k="name" v="Kieser Training"/>
    <tag k="operator" v="Kieser Training"/>
    <tag k="phone" v="+49 89 78064444"/>
    <tag k="postal_code" v="81379"/>
    <tag k="website" v="http://www.kieser-training.com"/>
    <tag k="wheelchair" v="unknown"/>
    <tag k="wheelchair:description" v="Keine Angebote für Behinderte"/>
  </node>
  <node id="277976228" version="22" timestamp="2012-06-15T08:37:30Z" uid="290680" user="wheelmap_visitor" changeset="11901222" lat="48.0967736" lon="11.5210129">
    <tag k="addr:city" v="München"/>
    <tag k="addr:country" v="DE"/>
    <tag k="addr:housenumber" v="15"/>
    <tag k="addr:postcode" v="81379"/>
    <tag k="addr:street" v="Geisenhausenerstraße"/>
    <tag k="leisure" v="sports_centre"/>
    <tag k="name" v="Kieser Training"/>
    <tag k="operator" v="Kieser Training"/>
    <tag k="phone" v="+49 89 78064444"/>
    <tag k="postal_code" v="81379"/>
    <tag k="website" v="http://www.kieser-training.com"/>
    <tag k="wheelchair" v="limited"/>
    <tag k="wheelchair:description" v="Keine Angebote für Behinderte"/>
  </node>
  <node id="277978838" version="2" timestamp="2012-07-20T05:45:03Z" uid="722137" user="OSMF Redaction Account" changeset="12362651" lat="36.387168" lon="28.239621"/>
  <node id="277978842" version="2" timestamp="2012-07-20T05:45:04Z" uid="722137" user="OSMF Redaction Account" changeset="12362651" lat="36.3874021" lon="28.2397463"/>
  <node id="277978846" version="2" timestamp="2012-07-20T05:45:05Z" uid="722137" user="OSMF Redaction Account" changeset="12362651" lat="36.3875604" lon="28.2399046"/>
  <node id="277978850" version="2" timestamp="2012-07-20T05:45:05Z" uid="722137" user="OSMF Redaction Account" changeset="12362651" lat="36.3876065" lon="28.2401255"/>
  <node id="277978854" version="2" timestamp="2012-07-20T05:45:05Z" uid="722137" user="OSMF Redaction Account" changeset="12362651" lat="36.3876164" lon="28.2403366"/>
  <node id="277978855" version="2" timestamp="2012-07-20T05:45:05Z" uid="722137" user="OSMF Redaction Account" changeset="12362651" lat="36.3875406" lon="28.24063"/>
  <node id="277978856" version="2" timestamp="2012-07-20T05:45:05Z" uid="722137" user="OSMF Redaction Account" changeset="12362651" lat="36.3874615" lon="28.2408444"/>
  <node id="277978859" version="2" timestamp="2012-07-20T05:45:04Z" uid="722137" user="OSMF Redaction Account" changeset="12362651" lat="36.3873526" lon="28.2409861"/>
  <node id="277978860" version="2" timestamp="2012-07-20T05:45:03Z" uid="722137" user="OSMF Redaction Account" changeset="12362651" lat="36.3872306" lon="28.2411675"/>
  <node id="277978861" version="2" timestamp="2012-07-20T05:45:03Z" uid="722137" user="OSMF Redaction Account" changeset="12362651" lat="36.3871713" lon="28.241273"/>
  <node id="277978876" version="2" timestamp="2012-07-20T05:45:03Z" uid="722137" user="OSMF Redaction Account" changeset="12362651" lat="36.3871548" lon="28.2413884"/>
  <node id="277978890" version="2" timestamp="2012-07-20T05:45:02Z" uid="722137" user="OSMF Redaction Account" changeset="12362651" lat="36.3870526" lon="28.2415533"/>
  <node id="277978892" version="2" timestamp="2012-07-20T05:45:01Z" uid="722137" user="OSMF Redaction Account" changeset="12362651" lat="36.3868745" lon="28.2415269"/>
  <node id="277978896" version="2" timestamp="2012-07-20T05:45:01Z" uid="722137" user="OSMF Redaction Account" changeset="12362651" lat="36.386769" lon="28.2415368"/>
  <node id="277978903" version="2" timestamp="2012-07-20T05:45:00Z" uid="722137" user="OSMF Redaction Account" changeset="12362651" lat="36.3865843" lon="28.2414841"/>
  <node id="277978911" version="2" timestamp="2012-07-20T05:45:00Z" uid="722137" user="OSMF Redaction Account" changeset="12362651" lat="36.3866569" lon="28.2413126"/>
  <node id="277978918" version="2" timestamp="2012-07-20T05:45:01Z" uid="722137" user="OSMF Redaction Account" changeset="12362651" lat="36.3868185" lon="28.2410983"/>
  <node id="277978925" version="2" timestamp="2012-07-20T05:45:00Z" uid="722137" user="OSMF Redaction Account" changeset="12362651" lat="36.3867558" lon="28.2408773"/>
  <node id="277978940" version="2" timestamp="2012-07-20T05:45:00Z" uid="722137" user="OSMF Redaction Account" changeset="12362651" lat="36.3867426" lon="28.2405509"/>
  <node id="277978947" version="2" timestamp="2012-07-20T05:45:01Z" uid="722137" user="OSMF Redaction Account" changeset="12362651" lat="36.3868217" lon="28.2405113"/>
  <node id="277978948" version="2" timestamp="2012-07-20T05:45:01Z" uid="722137" user="OSMF Redaction Account" changeset="12362651" lat="36.3868119" lon="28.2404025"/>
  <node id="277978950" version="2" timestamp="2012-07-20T05:45:01Z" uid="722137" user="OSMF Redaction Account" changeset="12362651" lat="36.3868217" lon="28.2402145"/>
  <node id="277978951" version="2" timestamp="2012-07-20T05:45:01Z" uid="722137" user="OSMF Redaction Account" changeset="12362651" lat="36.3868481" lon="28.2401354"/>
  <node id="277978952" version="2" timestamp="2012-07-20T05:45:03Z" uid="722137" user="OSMF Redaction Account" changeset="12362651" lat="36.3871198" lon="28.2396985"/>
  <node id="277978953" version="2" timestamp="2012-07-20T05:45:02Z" uid="722137" user="OSMF Redaction Account" changeset="12362651" lat="36.3870725" lon="28.2396512"/>
  <node id="277978954" version="2" timestamp="2012-07-20T05:45:02Z" uid="722137" user="OSMF Redaction Account" changeset="12362651" lat="36.3870563" lon="28.2395513"/>
  <node id="277978955" version="2" timestamp="2012-07-20T05:45:02Z" uid="722137" user="OSMF Redaction Account" changeset="12362651" lat="36.3870604" lon="28.2394554"/>
  <node id="277978956" version="2" timestamp="2012-07-20T05:45:03Z" uid="722137" user="OSMF Redaction Account" changeset="12362651" lat="36.3871049" lon="28.2393257"/>
  <node id="277978957" version="2" timestamp="2012-07-20T05:45:03Z" uid="722137" user="OSMF Redaction Account" changeset="12362651" lat="36.3871455" lon="28.2392379"/>
  <node id="277978958" version="2" timestamp="2012-07-20T05:45:03Z" uid="722137" user="OSMF Redaction Account" changeset="12362651" lat="36.3871644" lon="28.239142"/>
  <node id="277978959" version="3" timestamp="2012-07-13T20:12:52Z" uid="69238" user="my-STR" changeset="12210371" lat="36.3871865" lon="28.2390902"/>
  <node id="277978960" version="2" timestamp="2012-07-20T05:45:01Z" uid="722137" user="OSMF Redaction Account" changeset="12362651" lat="36.3867609" lon="28.2411787"/>
  <node id="277978966" version="2" timestamp="2012-07-20T05:45:00Z" uid="722137" user="OSMF Redaction Account" changeset="12362651" lat="36.3866017" lon="28.2413207"/>
  <node id="277978967" version="2" timestamp="2012-07-20T05:44:59Z" uid="722137" user="OSMF Redaction Account" changeset="12362651" lat="36.3864447" lon="28.2413056"/>
  <node id="277978968" version="2" timestamp="2012-07-20T05:44:59Z" uid="722137" user="OSMF Redaction Account" changeset="12362651" lat="36.3863457" lon="28.241211"/>
  <node id="277978969" version="2" timestamp="2012-07-20T05:44:59Z" uid="722137" user="OSMF Redaction Account" changeset="12362651" lat="36.3862661" lon="28.2411464"/>
  <node id="277978970" version="2" timestamp="2012-07-20T05:44:59Z" uid="722137" user="OSMF Redaction Account" changeset="12362651" lat="36.3862683" lon="28.2410518"/>
  <node id="277978971" version="2" timestamp="2012-07-20T05:44:58Z" uid="722137" user="OSMF Redaction Account" changeset="12362651" lat="36.386236" lon="28.2409959"/>
  <node id="277978976" version="2" timestamp="2012-07-20T05:44:58Z" uid="722137" user="OSMF Redaction Account" changeset="12362651" lat="36.3861801" lon="28.2409507"/>
  <node id="277978977" version="2" timestamp="2012-07-20T05:44:57Z" uid="722137" user="OSMF Redaction Account" changeset="12362651" lat="36.3861113" lon="28.2410002"/>
  <node id="277978978" version="2" timestamp="2012-07-20T05:44:57Z" uid="722137" user="OSMF Redaction Account" changeset="12362651" lat="36.386064" lon="28.241069"/>
  <node id="277978979" version="2" timestamp="2012-07-20T05:44:57Z" uid="722137" user="OSMF Redaction Account" changeset="12362651" lat="36.3860511" lon="28.2411551"/>
  <node id="277978980" version="2" timestamp="2012-07-20T05:44:56Z" uid="722137" user="OSMF Redaction Account" changeset="12362651" lat="36.3860145" lon="28.2413658"/>
  <node id="277978981" version="2" timestamp="2012-07-20T05:44:55Z" uid="722137" user="OSMF Redaction Account" changeset="12362651" lat="36.3858682" lon="28.241497"/>
  <node id="277978983" version="2" timestamp="2012-07-20T05:44:54Z" uid="722137" user="OSMF Redaction Account" changeset="12362651" lat="36.3858188" lon="28.2415831"/>
  <node id="277978987" version="2" timestamp="2012-07-20T05:44:54Z" uid="722137" user="OSMF Redaction Account" changeset="12362651" lat="36.3857327" lon="28.2418068"/>
  <node id="277978991" version="2" timestamp="2012-07-20T05:44:54Z" uid="722137" user="OSMF Redaction Account" changeset="12362651" lat="36.3856983" lon="28.2418476"/>
  <node id="277978995" version="2" timestamp="2012-07-20T05:44:54Z" uid="722137" user="OSMF Redaction Account" changeset="12362651" lat="36.3856875" lon="28.2418003"/>
  <node id="277978999" version="2" timestamp="2012-07-20T05:44:54Z" uid="722137" user="OSMF Redaction Account" changeset="12362651" lat="36.3856037" lon="28.2417207"/>
  <node id="277979003" version="2" timestamp="2012-07-20T05:44:53Z" uid="722137" user="OSMF Redaction Account" changeset="12362651" lat="36.3855069" lon="28.2416648"/>
  <node id="277979007" version="2" timestamp="2012-07-20T05:44:53Z" uid="722137" user="OSMF Redaction Account" changeset="12362651" lat="36.3854423" lon="28.2417014"/>
  <node id="277979012" version="2" timestamp="2012-07-20T05:44:53Z" uid="722137" user="OSMF Redaction Account" changeset="12362651" lat="36.3853606" lon="28.2417745"/>
  <node id="277979018" version="2" timestamp="2012-07-20T05:44:53Z" uid="722137" user="OSMF Redaction Account" changeset="12362651" lat="36.38521" lon="28.2419014"/>
  <node id="277979022" version="2" timestamp="2012-07-20T05:44:53Z" uid="722137" user="OSMF Redaction Account" changeset="12362651" lat="36.3851348" lon="28.2419767"/>
  <node id="277979026" version="2" timestamp="2012-07-20T05:44:53Z" uid="722137" user="OSMF Redaction Account" changeset="12362651" lat="36.3850638" lon="28.2420778"/>
  <node id="277979040" version="2" timestamp="2012-07-20T05:44:52Z" uid="722137" user="OSMF Redaction Account" changeset="12362651" lat="36.384939" lon="28.2422606"/>
  <node id="277979065" version="2" timestamp="2012-07-20T05:44:52Z" uid="722137" user="OSMF Redaction Account" changeset="12362651" lat="36.3848659" lon="28.2423832"/>
  <node id="277979069" version="2" timestamp="2012-07-20T05:44:51Z" uid="722137" user="OSMF Redaction Account" changeset="12362651" lat="36.3848229" lon="28.2424671"/>
  <node id="277979072" version="2" timestamp="2012-07-20T05:44:51Z" uid="722137" user="OSMF Redaction Account" changeset="12362651" lat="36.3847949" lon="28.2425488"/>
  <node id="277979076" version="2" timestamp="2012-07-20T05:44:51Z" uid="722137" user="OSMF Redaction Account" changeset="12362651" lat="36.3847476" lon="28.2425617"/>
  <node id="277979081" version="2" timestamp="2012-07-20T05:44:51Z" uid="722137" user="OSMF Redaction Account" changeset="12362651" lat="36.3847863" lon="28.2424155"/>
  <node id="277979084" version="2" timestamp="2012-07-20T05:44:51Z" uid="722137" user="OSMF Redaction Account" changeset="12362651" lat="36.3848186" lon="28.2423101"/>
  <node id="277979089" version="2" timestamp="2012-07-20T05:44:51Z" uid="722137" user="OSMF Redaction Account" changeset="12362651" lat="36.3848272" lon="28.2421122"/>
  <node id="277979098" version="2" timestamp="2012-07-20T05:44:52Z" uid="722137" user="OSMF Redaction Account" changeset="12362651" lat="36.3848422" lon="28.2419961"/>
  <node id="277979102" version="2" timestamp="2012-07-20T05:44:52Z" uid="722137" user="OSMF Redaction Account" changeset="12362651" lat="36.3848379" lon="28.2418885"/>
  <node id="277979106" version="2" timestamp="2012-07-20T05:44:51Z" uid="722137" user="OSMF Redaction Account" changeset="12362651" lat="36.3848207" lon="28.2417917"/>
  <node id="277979109" version="2" timestamp="2012-07-20T05:44:51Z" uid="722137" user="OSMF Redaction Account" changeset="12362651" lat="36.3848121" lon="28.2417358"/>
  <node id="277979113" version="2" timestamp="2012-07-20T05:44:51Z" uid="722137" user="OSMF Redaction Account" changeset="12362651" lat="36.3848014" lon="28.2416455"/>
  <node id="277979117" version="2" timestamp="2012-07-20T05:44:52Z" uid="722137" user="OSMF Redaction Account" changeset="12362651" lat="36.3848616" lon="28.2414992"/>
  <node id="277979121" version="2" timestamp="2012-07-20T05:44:51Z" uid="722137" user="OSMF Redaction Account" changeset="12362651" lat="36.3847971" lon="28.2415164"/>
  <node id="277979124" version="2" timestamp="2012-07-20T05:44:51Z" uid="722137" user="OSMF Redaction Account" changeset="12362651" lat="36.3847799" lon="28.2414325"/>
  <node id="277979128" version="2" timestamp="2012-07-20T05:44:51Z" uid="722137" user="OSMF Redaction Account" changeset="12362651" lat="36.3846745" lon="28.2412067"/>
  <node id="277979132" version="2" timestamp="2012-07-20T05:44:51Z" uid="722137" user="OSMF Redaction Account" changeset="12362651" lat="36.3846035" lon="28.2411271"/>
  <node id="277979133" version="2" timestamp="2012-07-20T05:44:51Z" uid="722137" user="OSMF Redaction Account" changeset="12362651" lat="36.3844959" lon="28.2411034"/>
  <node id="277979134" version="2" timestamp="2012-07-20T05:44:50Z" uid="722137" user="OSMF Redaction Account" changeset="12362651" lat="36.3844443" lon="28.2410475"/>
  <node id="277979135" version="2" timestamp="2012-07-20T05:44:50Z" uid="722137" user="OSMF Redaction Account" changeset="12362651" lat="36.3844164" lon="28.2409593"/>
  <node id="277979136" version="2" timestamp="2012-07-20T05:44:50Z" uid="722137" user="OSMF Redaction Account" changeset="12362651" lat="36.3843217" lon="28.2408475"/>
  <node id="277979137" version="3" timestamp="2012-07-20T05:44:52Z" uid="722137" user="OSMF Redaction Account" changeset="12362651" lat="36.3849046" lon="28.241482"/>
  <node id="277979138" version="3" timestamp="2012-07-20T05:44:54Z" uid="722137" user="OSMF Redaction Account" changeset="12362651" lat="36.3857521" lon="28.2412282"/>
  <node id="277979139" version="2" timestamp="2012-07-20T05:44:58Z" uid="722137" user="OSMF Redaction Account" changeset="12362651" lat="36.386178" lon="28.241282"/>
  <node id="277979141" version="2" timestamp="2012-07-20T05:44:57Z" uid="722137" user="OSMF Redaction Account" changeset="12362651" lat="36.386122" lon="28.2413422"/>
  <node id="277979142" version="2" timestamp="2012-07-20T05:44:57Z" uid="722137" user="OSMF Redaction Account" changeset="12362651" lat="36.3860661" lon="28.2414411"/>
  <node id="277979143" version="2" timestamp="2012-07-20T05:44:56Z" uid="722137" user="OSMF Redaction Account" changeset="12362651" lat="36.3860102" lon="28.2415723"/>
  <node id="277979144" version="2" timestamp="2012-07-20T05:44:56Z" uid="722137" user="OSMF Redaction Account" changeset="12362651" lat="36.3859951" lon="28.2416777"/>
  <node id="277979145" version="2" timestamp="2012-07-20T05:44:56Z" uid="722137" user="OSMF Redaction Account" changeset="12362651" lat="36.3860059" lon="28.2418261"/>
  <node id="277979146" version="2" timestamp="2012-07-20T05:44:57Z" uid="722137" user="OSMF Redaction Account" changeset="12362651" lat="36.3860704" lon="28.2418907"/>
  <node id="277979147" version="2" timestamp="2012-07-20T05:44:57Z" uid="722137" user="OSMF Redaction Account" changeset="12362651" lat="36.3861113" lon="28.2419573"/>
  <node id="277979148" version="2" timestamp="2012-07-20T05:44:57Z" uid="722137" user="OSMF Redaction Account" changeset="12362651" lat="36.3861134" lon="28.2420477"/>
  <node id="277979149" version="2" timestamp="2012-07-20T05:44:58Z" uid="722137" user="OSMF Redaction Account" changeset="12362651" lat="36.3861285" lon="28.2421595"/>
  <node id="277979150" version="2" timestamp="2012-07-20T05:44:57Z" uid="722137" user="OSMF Redaction Account" changeset="12362651" lat="36.3861156" lon="28.2422348"/>
  <node id="277979151" version="2" timestamp="2012-07-20T05:44:57Z" uid="722137" user="OSMF Redaction Account" changeset="12362651" lat="36.3860511" lon="28.2424456"/>
  <node id="277979153" version="2" timestamp="2012-07-20T05:44:56Z" uid="722137" user="OSMF Redaction Account" changeset="12362651" lat="36.3859973" lon="28.2426349"/>
  <node id="277979154" version="2" timestamp="2012-07-20T05:44:55Z" uid="722137" user="OSMF Redaction Account" changeset="12362651" lat="36.3859865" lon="28.2427962"/>
  <node id="277979155" version="2" timestamp="2012-07-20T05:44:56Z" uid="722137" user="OSMF Redaction Account" changeset="12362651" lat="36.3860274" lon="28.2428908"/>
  <node id="277979156" version="2" timestamp="2012-07-20T05:44:57Z" uid="722137" user="OSMF Redaction Account" changeset="12362651" lat="36.3860618" lon="28.242936"/>
  <node id="277979158" version="2" timestamp="2012-07-20T05:44:57Z" uid="722137" user="OSMF Redaction Account" changeset="12362651" lat="36.3860661" lon="28.2430242"/>
  <node id="277979159" version="2" timestamp="2012-07-20T05:44:56Z" uid="722137" user="OSMF Redaction Account" changeset="12362651" lat="36.3860424" lon="28.2431403"/>
  <node id="277979160" version="2" timestamp="2012-07-20T05:44:56Z" uid="722137" user="OSMF Redaction Account" changeset="12362651" lat="36.3860231" lon="28.2432522"/>
  <node id="277979162" version="2" timestamp="2012-07-20T05:44:57Z" uid="722137" user="OSMF Redaction Account" changeset="12362651" lat="36.3861199" lon="28.243392"/>
  <node id="277979163" version="2" timestamp="2012-07-20T05:44:58Z" uid="722137" user="OSMF Redaction Account" changeset="12362651" lat="36.3862102" lon="28.2435877"/>
  <node id="277979164" version="2" timestamp="2012-07-20T05:44:58Z" uid="722137" user="OSMF Redaction Account" changeset="12362651" lat="36.3862532" lon="28.2437017"/>
  <node id="277979165" version="2" timestamp="2012-07-20T05:44:59Z" uid="722137" user="OSMF Redaction Account" changeset="12362651" lat="36.3862834" lon="28.243848"/>
  <node id="277979166" version="2" timestamp="2012-07-20T05:44:59Z" uid="722137" user="OSMF Redaction Account" changeset="12362651" lat="36.386279" lon="28.244005"/>
  <node id="277979167" version="2" timestamp="2012-07-20T05:44:58Z" uid="722137" user="OSMF Redaction Account" changeset="12362651" lat="36.3862446" lon="28.2441212"/>
  <node id="277979169" version="2" timestamp="2012-07-20T05:44:58Z" uid="722137" user="OSMF Redaction Account" changeset="12362651" lat="36.3861306" lon="28.2441986"/>
  <node id="277979170" version="2" timestamp="2012-07-20T05:44:56Z" uid="722137" user="OSMF Redaction Account" changeset="12362651" lat="36.3860059" lon="28.2442997"/>
  <node id="277979171" version="2" timestamp="2012-07-20T05:44:58Z" uid="722137" user="OSMF Redaction Account" changeset="12362651" lat="36.386178" lon="28.2445492"/>
  <node id="277979172" version="2" timestamp="2012-07-20T05:44:58Z" uid="722137" user="OSMF Redaction Account" changeset="12362651" lat="36.3862382" lon="28.2447277"/>
  <node id="277979173" version="2" timestamp="2012-07-20T05:44:58Z" uid="722137" user="OSMF Redaction Account" changeset="12362651" lat="36.3862597" lon="28.2449363"/>
  <node id="277979174" version="2" timestamp="2012-07-20T05:44:58Z" uid="722137" user="OSMF Redaction Account" changeset="12362651" lat="36.3862145" lon="28.2452762"/>
  <node id="277979175" version="3" timestamp="2012-07-20T05:44:58Z" uid="722137" user="OSMF Redaction Account" changeset="12362651" lat="36.3861328" lon="28.2452568"/>
  <node id="277979176" version="2" timestamp="2012-07-20T05:44:59Z" uid="722137" user="OSMF Redaction Account" changeset="12362651" lat="36.3863242" lon="28.2423402"/>
  <node id="277979177" version="2" timestamp="2012-07-20T05:45:00Z" uid="722137" user="OSMF Redaction Account" changeset="12362651" lat="36.386464" lon="28.2424693"/>
  <node id="277979178" version="2" timestamp="2012-07-20T05:45:00Z" uid="722137" user="OSMF Redaction Account" changeset="12362651" lat="36.3866576" lon="28.2424822"/>
  <node id="277979180" version="2" timestamp="2012-07-20T05:45:03Z" uid="722137" user="OSMF Redaction Account" changeset="12362651" lat="36.3870856" lon="28.2423402"/>
  <node id="277979182" version="2" timestamp="2012-07-20T05:45:03Z" uid="722137" user="OSMF Redaction Account" changeset="12362651" lat="36.3871846" lon="28.2422413"/>
  <node id="277979183" version="2" timestamp="2012-07-20T05:45:03Z" uid="722137" user="OSMF Redaction Account" changeset="12362651" lat="36.387247" lon="28.242138"/>
  <node id="277979184" version="2" timestamp="2012-07-20T05:45:03Z" uid="722137" user="OSMF Redaction Account" changeset="12362651" lat="36.3872857" lon="28.2419724"/>
  <node id="277979185" version="2" timestamp="2012-07-20T05:45:04Z" uid="722137" user="OSMF Redaction Account" changeset="12362651" lat="36.3873244" lon="28.2417057"/>
  <node id="277979186" version="2" timestamp="2012-07-20T05:45:04Z" uid="722137" user="OSMF Redaction Account" changeset="12362651" lat="36.3873631" lon="28.2414347"/>
  <node id="277979187" version="2" timestamp="2012-07-20T05:45:04Z" uid="722137" user="OSMF Redaction Account" changeset="12362651" lat="36.3873545" lon="28.2412217"/>
  <node id="277979188" version="2" timestamp="2012-07-20T05:45:04Z" uid="722137" user="OSMF Redaction Account" changeset="12362651" lat="36.387333" lon="28.2410733"/>
  <node id="277979189" version="3" timestamp="2012-07-20T05:45:00Z" uid="722137" user="OSMF Redaction Account" changeset="12362651" lat="36.3865587" lon="28.241525"/>
  <node id="277979190" version="2" timestamp="2012-07-20T05:44:57Z" uid="722137" user="OSMF Redaction Account" changeset="12362651" lat="36.3860468" lon="28.242779"/>
  <node id="277979193" version="2" timestamp="2012-07-20T05:44:58Z" uid="722137" user="OSMF Redaction Account" changeset="12362651" lat="36.3861543" lon="28.242665"/>
  <node id="277979194" version="2" timestamp="2012-07-20T05:44:59Z" uid="722137" user="OSMF Redaction Account" changeset="12362651" lat="36.3863178" lon="28.2424908"/>
  <node id="277979195" version="2" timestamp="2012-07-20T05:44:59Z" uid="722137" user="OSMF Redaction Account" changeset="12362651" lat="36.3863737" lon="28.2424499"/>
  <node id="277979209" version="2" timestamp="2012-07-20T05:45:00Z" uid="722137" user="OSMF Redaction Account" changeset="12362651" lat="36.3866339" lon="28.2439706"/>
  <node id="277979214" version="2" timestamp="2012-07-20T05:44:59Z" uid="722137" user="OSMF Redaction Account" changeset="12362651" lat="36.386393" lon="28.2454461"/>
  <node id="277979215" version="2" timestamp="2012-07-20T05:45:00Z" uid="722137" user="OSMF Redaction Account" changeset="12362651" lat="36.3865243" lon="28.2453192"/>
  <node id="277979216" version="2" timestamp="2012-07-20T05:45:00Z" uid="722137" user="OSMF Redaction Account" changeset="12362651" lat="36.3866146" lon="28.2452848"/>
  <node id="277979218" version="2" timestamp="2012-07-20T05:45:00Z" uid="722137" user="OSMF Redaction Account" changeset="12362651" lat="36.3867264" lon="28.2452719"/>
  <node id="277979219" version="2" timestamp="2012-07-20T05:45:01Z" uid="722137" user="OSMF Redaction Account" changeset="12362651" lat="36.3868275" lon="28.2452203"/>
  <node id="277979221" version="2" timestamp="2012-07-20T05:45:02Z" uid="722137" user="OSMF Redaction Account" changeset="12362651" lat="36.3869437" lon="28.2450912"/>
  <node id="277979222" version="2" timestamp="2012-07-20T05:45:02Z" uid="722137" user="OSMF Redaction Account" changeset="12362651" lat="36.3870598" lon="28.2448826"/>
  <node id="277979223" version="2" timestamp="2012-07-20T05:45:03Z" uid="722137" user="OSMF Redaction Account" changeset="12362651" lat="36.387219" lon="28.2446051"/>
  <node id="277979226" version="2" timestamp="2012-07-20T05:45:04Z" uid="722137" user="OSMF Redaction Account" changeset="12362651" lat="36.3873588" lon="28.2443233"/>
  <node id="277979230" version="2" timestamp="2012-07-20T05:45:04Z" uid="722137" user="OSMF Redaction Account" changeset="12362651" lat="36.3873739" lon="28.2441792"/>
  <node id="277979237" version="2" timestamp="2012-07-20T05:45:03Z" uid="722137" user="OSMF Redaction Account" changeset="12362651" lat="36.3873072" lon="28.2440631"/>
  <node id="277979244" version="2" timestamp="2012-07-20T05:45:03Z" uid="722137" user="OSMF Redaction Account" changeset="12362651" lat="36.3871889" lon="28.2441126"/>
  <node id="277979262" version="2" timestamp="2012-07-20T05:45:03Z" uid="722137" user="OSMF Redaction Account" changeset="12362651" lat="36.3871244" lon="28.2441642"/>
  <node id="277979267" version="2" timestamp="2012-07-20T05:45:02Z" uid="722137" user="OSMF Redaction Account" changeset="12362651" lat="36.3870168" lon="28.2442846"/>
  <node id="277979268" version="2" timestamp="2012-07-20T05:45:02Z" uid="722137" user="OSMF Redaction Account" changeset="12362651" lat="36.3869458" lon="28.2442975"/>
  <node id="277979269" version="2" timestamp="2012-07-20T05:45:02Z" uid="722137" user="OSMF Redaction Account" changeset="12362651" lat="36.386877" lon="28.2442846"/>
  <node id="277979270" version="2" timestamp="2012-07-20T05:45:01Z" uid="722137" user="OSMF Redaction Account" changeset="12362651" lat="36.3867824" lon="28.2442007"/>
  <node id="277979271" version="2" timestamp="2012-07-20T05:45:01Z" uid="722137" user="OSMF Redaction Account" changeset="12362651" lat="36.3867566" lon="28.2441039"/>
  <node id="277979274" version="2" timestamp="2012-07-20T05:45:04Z" uid="722137" user="OSMF Redaction Account" changeset="12362651" lat="36.3874405" lon="28.2438889"/>
  <node id="277979275" version="2" timestamp="2012-07-20T05:45:05Z" uid="722137" user="OSMF Redaction Account" changeset="12362651" lat="36.3875352" lon="28.2436867"/>
  <node id="277979276" version="2" timestamp="2012-07-20T05:45:05Z" uid="722137" user="OSMF Redaction Account" changeset="12362651" lat="36.3874965" lon="28.243534"/>
  <node id="277979278" version="2" timestamp="2012-07-20T05:45:03Z" uid="722137" user="OSMF Redaction Account" changeset="12362651" lat="36.3873115" lon="28.2432178"/>
  <node id="277979279" version="2" timestamp="2012-07-20T05:45:03Z" uid="722137" user="OSMF Redaction Account" changeset="12362651" lat="36.3872319" lon="28.2430866"/>
  <node id="277979280" version="2" timestamp="2012-07-20T05:45:03Z" uid="722137" user="OSMF Redaction Account" changeset="12362651" lat="36.3872556" lon="28.2429037"/>
  <node id="277979282" version="2" timestamp="2012-07-20T05:45:04Z" uid="722137" user="OSMF Redaction Account" changeset="12362651" lat="36.3873889" lon="28.2424628"/>
  <node id="277979283" version="2" timestamp="2012-07-20T05:45:05Z" uid="722137" user="OSMF Redaction Account" changeset="12362651" lat="36.3874707" lon="28.2421638"/>
  <node id="277979284" version="2" timestamp="2012-07-20T05:45:05Z" uid="722137" user="OSMF Redaction Account" changeset="12362651" lat="36.3875545" lon="28.2416433"/>
  <node id="277979285" version="2" timestamp="2012-07-20T05:45:06Z" uid="722137" user="OSMF Redaction Account" changeset="12362651" lat="36.3876234" lon="28.24151"/>
  <node id="277979287" version="2" timestamp="2012-07-20T05:45:06Z" uid="722137" user="OSMF Redaction Account" changeset="12362651" lat="36.3876384" lon="28.2414476"/>
  <node id="277979288" version="2" timestamp="2012-07-20T05:45:06Z" uid="722137" user="OSMF Redaction Account" changeset="12362651" lat="36.3876255" lon="28.2412604"/>
  <node id="277979289" version="2" timestamp="2012-07-20T05:45:05Z" uid="722137" user="OSMF Redaction Account" changeset="12362651" lat="36.3875631" lon="28.2411529"/>
  <node id="277979293" version="2" timestamp="2012-07-20T05:45:04Z" uid="722137" user="OSMF Redaction Account" changeset="12362651" lat="36.3874534" lon="28.2410561"/>
  <node id="277979294" version="2" timestamp="2012-07-20T05:45:04Z" uid="722137" user="OSMF Redaction Account" changeset="12362651" lat="36.3873954" lon="28.2409314"/>
  <node id="277979295" version="2" timestamp="2012-07-20T05:45:01Z" uid="722137" user="OSMF Redaction Account" changeset="12362651" lat="36.3868168" lon="28.2405334"/>
  <node id="277979296" version="4" timestamp="2012-07-20T05:45:01Z" uid="722137" user="OSMF Redaction Account" changeset="12362651" lat="36.3868212" lon="28.2405273"/>
  <node id="277979300" version="2" timestamp="2012-07-20T05:44:54Z" uid="722137" user="OSMF Redaction Account" changeset="12362651" lat="36.3856917" lon="28.2442701"/>
  <node id="277979307" version="2" timestamp="2012-07-20T05:44:54Z" uid="722137" user="OSMF Redaction Account" changeset="12362651" lat="36.3858285" lon="28.244677"/>
  <node id="277979308" version="2" timestamp="2012-07-20T05:44:55Z" uid="722137" user="OSMF Redaction Account" changeset="12362651" lat="36.3859373" lon="28.2449664"/>
  <node id="277979315" version="2" timestamp="2012-07-20T05:44:56Z" uid="722137" user="OSMF Redaction Account" changeset="12362651" lat="36.3860214" lon="28.2452329"/>
  <node id="277979316" version="2" timestamp="2012-07-20T05:44:56Z" uid="722137" user="OSMF Redaction Account" changeset="12362651" lat="36.3860197" lon="28.2452961"/>
  <node id="277979319" version="2" timestamp="2012-07-20T05:44:58Z" uid="722137" user="OSMF Redaction Account" changeset="12362651" lat="36.3861249" lon="28.2455521"/>
  <node id="277979321" version="2" timestamp="2012-07-20T05:44:55Z" uid="722137" user="OSMF Redaction Account" changeset="12362651" lat="36.3858829" lon="28.2446279"/>
  <node id="277979323" version="2" timestamp="2012-07-20T05:44:54Z" uid="722137" user="OSMF Redaction Account" changeset="12362651" lat="36.3858373" lon="28.2444823"/>
  <node id="277979324" version="2" timestamp="2012-07-20T05:44:54Z" uid="722137" user="OSMF Redaction Account" changeset="12362651" lat="36.3858285" lon="28.2443736"/>
  <node id="277979327" version="2" timestamp="2012-07-20T05:44:55Z" uid="722137" user="OSMF Redaction Account" changeset="12362651" lat="36.3858426" lon="28.2442754"/>
  <node id="277979329" version="2" timestamp="2012-07-20T05:44:55Z" uid="722137" user="OSMF Redaction Account" changeset="12362651" lat="36.3858759" lon="28.2442508"/>
  <node id="277979331" version="2" timestamp="2012-07-20T05:44:55Z" uid="722137" user="OSMF Redaction Account" changeset="12362651" lat="36.3858864" lon="28.2442175"/>
  <node id="277979334" version="2" timestamp="2012-07-20T05:44:55Z" uid="722137" user="OSMF Redaction Account" changeset="12362651" lat="36.3858478" lon="28.244114"/>
  <node id="277979336" version="2" timestamp="2012-07-20T05:44:55Z" uid="722137" user="OSMF Redaction Account" changeset="12362651" lat="36.3858706" lon="28.2440877"/>
  <node id="277979339" version="2" timestamp="2012-07-20T05:44:55Z" uid="722137" user="OSMF Redaction Account" changeset="12362651" lat="36.3859566" lon="28.2442175"/>
  <node id="277979344" version="2" timestamp="2012-07-20T05:44:52Z" uid="722137" user="OSMF Redaction Account" changeset="12362651" lat="36.3849502" lon="28.2399361"/>
  <node id="277979347" version="2" timestamp="2012-07-20T05:44:52Z" uid="722137" user="OSMF Redaction Account" changeset="12362651" lat="36.3850351" lon="28.2401127"/>
  <node id="277979349" version="2" timestamp="2012-07-20T05:44:53Z" uid="722137" user="OSMF Redaction Account" changeset="12362651" lat="36.3851177" lon="28.240202"/>
  <node id="277979352" version="2" timestamp="2012-07-20T05:44:53Z" uid="722137" user="OSMF Redaction Account" changeset="12362651" lat="36.3854439" lon="28.2403964"/>
  <node id="277979354" version="2" timestamp="2012-07-20T05:44:55Z" uid="722137" user="OSMF Redaction Account" changeset="12362651" lat="36.3858707" lon="28.2406065"/>
  <node id="277979357" version="2" timestamp="2012-07-20T05:44:55Z" uid="722137" user="OSMF Redaction Account" changeset="12362651" lat="36.3859735" lon="28.2408232"/>
  <node id="277979359" version="2" timestamp="2012-07-20T05:44:56Z" uid="722137" user="OSMF Redaction Account" changeset="12362651" lat="36.3860092" lon="28.2408902"/>
  <node id="277979362" version="2" timestamp="2012-07-20T05:44:57Z" uid="722137" user="OSMF Redaction Account" changeset="12362651" lat="36.3860785" lon="28.2409394"/>
  <node id="277979365" version="3" timestamp="2012-07-20T05:44:56Z" uid="722137" user="OSMF Redaction Account" changeset="12362651" lat="36.3860048" lon="28.2407941"/>
</osm>
