<?xml version='1.0' encoding='UTF-8'?>
<osm version="0.6" generator="libosmium/2.20.0">
  <node id="283691061" version="2" timestamp="2008-08-14T20:55:15Z" uid="6975" user="ulfl" changeset="264731" lat="54.5544846" lon="13.5243435">
    <tag k="highway" v="bus_stop"/>
    <tag k="name" v="Bobbin"/>
  </node>
  <node id="283691061" version="3" timestamp="2009-02-17T21:18:37Z" uid="35560" user="HeikoE" changeset="516151" lat="54.5544725" lon="13.5244392">
    <tag k="highway" v="bus_stop"/>
    <tag k="name" v="Bobbin"/>
  </node>
  <node id="283691061" version="4" timestamp="2009-12-12T12:26:21Z" uid="76587" user="circusfreunde" changeset="3355328" lat="54.5544725" lon="13.5244393">
    <tag k="highway" v="bus_stop"/>
    <tag k="name" v="Bobbin"/>
    <tag k="operator" v="RPNV"/>
    <tag k="route_ref" v="12;13;14"/>
  </node>
  <node id="283691806" version="5" timestamp="2008-08-14T20:19:28Z" uid="6975" user="ulfl" changeset="264731" lat="45.5951342" lon="5.7704482">
    <tag k="code departement" v="73"/>
    <tag k="code_INSEE" v="73191"/>
    <tag k="is_in" v="Europe,France,Savoie"/>
    <tag k="name" v="Novalaise"/>
    <tag k="place" v="hamlet"/>
    <tag k="population" v="1200"/>
    <tag k="postal_code" v="73470"/>
  </node>
  <node id="283691806" version="6" timestamp="2008-09-12T12:16:06Z" uid="29084" user="stoecker" changeset="615147" lat="45.5951342" lon="5.7704482">
    <tag k="code_INSEE" v="73191"/>
    <tag k="code_departement" v="73"/>
    <tag k="is_in" v="Europe,France,Savoie"/>
    <tag k="name" v="Novalaise"/>
    <tag k="place" v="hamlet"/>
    <tag k="population" v="1200"/>
    <tag k="postal_code" v="73470"/>
  </node>
  <node id="283691806" version="7" timestamp="2009-02-15T17:40:32Z" uid="10927" user="Skywave" changeset="452960" lat="45.5951342" lon="5.7704482">
    <tag k="code_INSEE" v="73191"/>
    <tag k="code_departement" v="73"/>
    <tag k="is_in" v="Europe,France,Savoie"/>
    <tag k="name" v="Novalaise"/>
    <tag k="place" v="village"/>
    <tag k="population" v="1200"/>
    <tag k="postal_code" v="73470"/>
  </node>
  <node id="283691806" version="8" timestamp="2009-11-24T12:21:58Z" uid="183561" user="EtienneChoveBot" changeset="3203604" lat="45.5951342" lon="5.7704482">
    <tag k="code_departement" v="73"/>
    <tag k="is_in" v="Europe,France,Savoie"/>
    <tag k="name" v="Novalaise"/>
    <tag k="place" v="village"/>
    <tag k="population" v="1200"/>
    <tag k="postal_code" v="73470"/>
    <tag k="ref:INSEE" v="73191"/>
  </node>
  <node id="283691806" version="9" timestamp="2011-01-22T01:18:24Z" uid="79386" user="philippekerla" changeset="7046402" lat="45.5951342" lon="5.7704482">
    <tag k="code_departement" v="73"/>
    <tag k="is_in" v="Europe,France,Savoie"/>
    <tag k="name" v="Novalaise"/>
    <tag k="place" v="village"/>
    <tag k="population" v="1200"/>
    <tag k="postal_code" v="73470"/>
    <tag k="ref:INSEE" v="73191"/>
    <tag k="ref:SIREN" v="217301910"/>
  </node>
  <node id="283691837" version="2" timestamp="2008-08-14T20:19:28Z" uid="6975" user="ulfl" changeset="264731" lat="45.5951383" lon="5.7704549">
    <tag k="code INSEE" v="73191"/>
    <tag k="code departement" v="73"/>
    <tag k="is_in" v="Europe,France,Savoie"/>
    <tag k="name" v="Novalaise"/>
    <tag k="place" v="hamlet"/>
  </node>
  <node id="283691837" version="3" timestamp="2008-08-15T17:13:05Z" uid="29084" user="stoecker" changeset="267935" lat="45.5951383" lon="5.7704549">
    <tag k="code_INSEE" v="73191"/>
    <tag k="code_departement" v="73"/>
    <tag k="is_in" v="Europe,France,Savoie"/>
    <tag k="name" v="Novalaise"/>
    <tag k="place" v="hamlet"/>
  </node>
  <node id="283691837" version="4" timestamp="2008-09-12T12:16:07Z" uid="29084" user="stoecker" changeset="615147" lat="45.5951383" lon="5.7704549">
    <tag k="code_INSEE" v="73191"/>
    <tag k="code_departement" v="73"/>
    <tag k="is_in" v="Europe,France,Savoie"/>
    <tag k="name" v="Novalaise"/>
    <tag k="place" v="hamlet"/>
  </node>
  <node id="283692121" version="3" timestamp="2008-08-14T20:19:28Z" uid="6975" user="ulfl" changeset="264731" lat="45.5951383" lon="5.7704549">
    <tag k="code departement" v="73"/>
    <tag k="code_INSEE" v="73191"/>
    <tag k="is_in" v="Europe,France,Savoie"/>
    <tag k="name" v="Novalaise"/>
    <tag k="place" v="hamlet"/>
    <tag k="population" v="1200"/>
    <tag k="postal_code" v="73470"/>
  </node>
  <node id="283692121" version="4" timestamp="2008-09-12T12:16:07Z" uid="29084" user="stoecker" changeset="615147" lat="45.5951383" lon="5.7704549">
    <tag k="code departement" v="73"/>
    <tag k="code_INSEE" v="73191"/>
    <tag k="is_in" v="Europe,France,Savoie"/>
    <tag k="name" v="Novalaise"/>
    <tag k="place" v="hamlet"/>
    <tag k="population" v="1200"/>
    <tag k="postal_code" v="73470"/>
  </node>
  <node id="283692317" version="2" timestamp="2009-01-06T08:03:36Z" uid="27600" user="Islanit" changeset="743487" lat="53.5267064" lon="10.110025"/>
  <node id="283692317" version="3" timestamp="2009-02-21T20:52:19Z" uid="41512" user="Kuddl Klien" changeset="597604" lat="53.5267064" lon="10.110025"/>
  <node id="283692317" version="4" timestamp="2009-02-21T20:52:47Z" uid="41512" user="Kuddl Klien" changeset="597604" lat="53.5267064" lon="10.110025"/>
  <node id="283692322" version="2" timestamp="2009-01-06T08:03:36Z" uid="27600" user="Islanit" changeset="743487" lat="53.526839" lon="10.1090874"/>
  <node id="283692322" version="3" timestamp="2010-04-07T19:12:54Z" uid="41512" user="Kuddl Klien" changeset="4357871" lat="53.526839" lon="10.1090874"/>
  <node id="283692494" version="2" timestamp="2009-01-06T08:04:30Z" uid="27600" user="Islanit" changeset="743487" lat="53.5267064" lon="10.110025"/>
  <node id="283692630" version="3" timestamp="2008-09-14T14:42:52Z" uid="6975" user="ulfl" changeset="640534" lat="46.8952945" lon="10.1494892">
    <tag k="mountain_pass" v="yes"/>
    <tag k="name" v="Getschnerscharte"/>
  </node>
  <node id="283692845" version="2" timestamp="2009-01-06T08:04:30Z" uid="27600" user="Islanit" changeset="743487" lat="53.526839" lon="10.1090874"/>
  <node id="283696239" version="2" timestamp="2008-09-14T13:17:57Z" uid="6975" user="ulfl" changeset="640534" lat="41.788909" lon="12.2626837">
    <tag k="highway" v="bus_stop"/>
  </node>
  <node id="283696239" version="3" timestamp="2008-11-12T22:52:40Z" uid="15891" user="farlokko" changeset="743507" lat="41.7889392" lon="12.2627002">
    <tag k="created_by" v="Potlatch 0.10f"/>
    <tag k="highway" v="bus_stop"/>
  </node>
  <node id="283696242" version="2" timestamp="2008-09-14T13:17:54Z" uid="6975" user="ulfl" changeset="640534" lat="41.7888902" lon="12.2626775">
    <tag k="highway" v="bus_stop"/>
  </node>
  <node id="283696242" version="3" timestamp="2008-11-12T22:52:43Z" uid="15891" user="farlokko" changeset="743507" lat="41.788856" lon="12.2626487">
    <tag k="created_by" v="Potlatch 0.10f"/>
    <tag k="highway" v="bus_stop"/>
  </node>
  <node id="283699025" version="2" timestamp="2008-10-19T20:19:22Z" uid="49111" user="Markus B" changeset="452407" lat="49.3687937" lon="11.9049311"/>
  <node id="283699025" version="3" timestamp="2009-01-22T16:54:55Z" uid="67281" user="Dolph" changeset="825848" lat="49.3687937" lon="11.9049311"/>
  <node id="283699025" version="4" timestamp="2009-01-22T16:55:01Z" uid="67281" user="Dolph" changeset="825848" lat="49.3687937" lon="11.9049311"/>
  <node id="283699025" version="5" timestamp="2009-01-22T16:55:08Z" uid="67281" user="Dolph" changeset="825848" lat="49.3687937" lon="11.9049311"/>
  <node id="283699025" version="6" timestamp="2009-01-22T16:55:39Z" uid="67281" user="Dolph" changeset="825848" lat="49.3687937" lon="11.9049311"/>
  <node id="283699025" version="7" timestamp="2011-05-21T17:49:52Z" uid="457230" user="chris3511" changeset="8209060" lat="49.3688461" lon="11.9045419"/>
  <node id="283699037" version="2" timestamp="2008-09-14T17:07:18Z" uid="6975" user="ulfl" changeset="640534" lat="51.0508119" lon="12.1260267">
    <tag k="historic" v="castle"/>
    <tag k="name" v="Schloss Moritzburg"/>
  </node>
  <node id="283699037" version="3" timestamp="2008-11-18T05:04:19Z" uid="11081" user="soeren" changeset="764197" lat="51.0508119" lon="12.1260267">
    <tag k="historic" v="castle"/>
    <tag k="name" v="Schloss Moritzburg"/>
  </node>
  <node id="283699037" version="4" timestamp="2008-11-20T16:57:45Z" uid="70696" user="xybot" changeset="774433" lat="51.0508119" lon="12.1260267">
    <tag k="created_by" v="xybot"/>
    <tag k="historic" v="castle"/>
    <tag k="name" v="Schloss Moritzburg"/>
  </node>
  <node id="283699037" version="5" timestamp="2009-12-11T20:16:58Z" uid="60345" user="Mirko Küster" changeset="3351684" lat="51.0508119" lon="12.1260267">
    <tag k="created_by" v="xybot"/>
    <tag k="historic" v="castle"/>
    <tag k="name" v="Schloss Moritzburg"/>
  </node>
  <node id="283699391" version="4" timestamp="2010-02-07T20:49:46Z" uid="49111" user="Markus B" changeset="3818837" lat="46.8660004" lon="10.2147876">
    <tag k="mountain_pass" v="yes"/>
    <tag k="name" v="Futschölpass"/>
  </node>
  <node id="283699391" version="5" timestamp="2010-03-15T18:41:16Z" uid="149704" user="Thomas_Schmitt" changeset="4137013" lat="46.8660004" lon="10.2147876">
    <tag k="ele" v="2768"/>
    <tag k="mountain_pass" v="yes"/>
    <tag k="name" v="Futschölpass"/>
  </node>
  <node id="283699513" version="2" timestamp="2010-02-07T19:30:23Z" uid="49111" user="Markus B" changeset="3818007" lat="46.8715376" lon="10.2325651">
    <tag k="mountain_pass" v="yes"/>
    <tag k="name" v="Kronenjoch"/>
  </node>
  <node id="283699513" version="3" timestamp="2010-03-15T18:41:16Z" uid="149704" user="Thomas_Schmitt" changeset="4137013" lat="46.8715376" lon="10.2325651">
    <tag k="ele" v="2980"/>
    <tag k="mountain_pass" v="yes"/>
    <tag k="name" v="Kronenjoch"/>
  </node>
</osm>
