<?xml version='1.0' encoding='UTF-8'?>
<osm version="0.6" generator="libosmium/2.20.0">
  <node id="285990229" version="2" timestamp="2009-03-09T20:54:10Z" uid="43863" user="Rundling" changeset="771986" lat="52.7001014" lon="11.0899663"/>
  <node id="285990536" version="2" timestamp="2011-03-05T20:23:31Z" uid="16922" user="amai" changeset="7467408" lat="17.1893084" lon="102.6590605"/>
  <node id="285990536" version="3" timestamp="2011-08-07T14:31:39Z" uid="104414" user="Willi2006" changeset="8947676" lat="17.1893084" lon="102.6590605"/>
  <node id="285993716" version="3" timestamp="2008-11-15T14:04:36Z" uid="9581" user="Lobelt" changeset="751591" lat="51.5274531" lon="13.4231088">
    <tag k="power" v="tower"/>
  </node>
  <node id="285993716" version="4" timestamp="2011-12-05T21:05:16Z" uid="110838" user="Bernhard W" changeset="10045545" lat="51.5283473" lon="13.4228779">
    <tag k="power" v="tower"/>
  </node>
  <node id="285997258" version="3" timestamp="2008-09-30T10:27:18Z" uid="1066" user="pavel" changeset="720911" lat="49.4866758" lon="16.7329267">
    <tag k="is_in" v="Czech Republic, Europe"/>
    <tag k="name" v="Velenov"/>
    <tag k="place" v="village"/>
  </node>
  <node id="285997258" version="4" timestamp="2008-11-04T13:06:25Z" uid="308" user="MichaelCollinson" changeset="676656" lat="49.4866758" lon="16.7329267">
    <tag k="is_in" v="Czech Republic, Europe"/>
    <tag k="is_in:continent" v="Europe"/>
    <tag k="is_in:country_code" v="cz"/>
    <tag k="name" v="Velenov"/>
    <tag k="place" v="village"/>
  </node>
  <node id="285997258" version="5" timestamp="2012-01-22T18:59:43Z" uid="536216" user="uir-zsj" changeset="10468398" lat="49.4866758" lon="16.7329267"/>
  <node id="285997729" version="6" timestamp="2009-07-25T23:07:41Z" uid="123700" user="Mala" changeset="1939477" lat="44.8410862" lon="-0.5800536">
    <tag k="code_INSEE" v="33063"/>
    <tag k="code_departement" v="33"/>
    <tag k="is_in" v="Europe,France,Gironde"/>
    <tag k="is_in:continent" v="Europe"/>
    <tag k="name" v="Bordeaux"/>
    <tag k="name:ca" v="Bordeus"/>
    <tag k="name:es" v="Burdeos"/>
    <tag k="name:fr" v="Bordeaux"/>
    <tag k="name:oc" v="Bordèu"/>
    <tag k="name:pt" v="Bordéus"/>
    <tag k="place" v="city"/>
    <tag k="population" v="232260"/>
    <tag k="postal_code" v="33000, 33100, 33200, 33300, 33800"/>
    <tag k="source_ref" v="http://fr.wikipedia.org/wiki/Bordeaux"/>
    <tag k="wikipedia" v="Bordeaux"/>
  </node>
  <node id="285997729" version="7" timestamp="2009-09-09T15:20:12Z" uid="57478" user="paddiloo" changeset="2426517" lat="44.8410862" lon="-0.5800536">
    <tag k="code_INSEE" v="33063"/>
    <tag k="code_departement" v="33"/>
    <tag k="is_in" v="Europe,France,Aquitaine (préfecture),Gironde"/>
    <tag k="is_in:continent" v="Europe"/>
    <tag k="name" v="Bordeaux"/>
    <tag k="name:ca" v="Bordeus"/>
    <tag k="name:es" v="Burdeos"/>
    <tag k="name:fr" v="Bordeaux"/>
    <tag k="name:oc" v="Bordèu"/>
    <tag k="name:pt" v="Bordéus"/>
    <tag k="place" v="city"/>
    <tag k="population" v="232260"/>
    <tag k="postal_code" v="33000, 33100, 33200, 33300, 33800"/>
    <tag k="source_ref" v="http://fr.wikipedia.org/wiki/Bordeaux"/>
    <tag k="wikipedia" v="Bordeaux"/>
    <tag k="wikipedia:fr" v="Bordeaux"/>
  </node>
  <node id="285997729" version="8" timestamp="2009-09-09T21:28:16Z" uid="57478" user="paddiloo" changeset="2430616" lat="44.8410862" lon="-0.5800536">
    <tag k="code_INSEE" v="33063"/>
    <tag k="code_departement" v="33"/>
    <tag k="is_in" v="Europe,France,Gironde"/>
    <tag k="is_in:continent" v="Europe"/>
    <tag k="name" v="Bordeaux"/>
    <tag k="name:ca" v="Bordeus"/>
    <tag k="name:es" v="Burdeos"/>
    <tag k="name:fr" v="Bordeaux"/>
    <tag k="name:oc" v="Bordèu"/>
    <tag k="name:pt" v="Bordéus"/>
    <tag k="place" v="city"/>
    <tag k="population" v="232260"/>
    <tag k="postal_code" v="33000, 33100, 33200, 33300, 33800"/>
    <tag k="source_ref" v="http://fr.wikipedia.org/wiki/Bordeaux"/>
    <tag k="wikipedia" v="Bordeaux"/>
  </node>
  <node id="285997729" version="9" timestamp="2009-09-10T17:34:22Z" uid="57478" user="paddiloo" changeset="2438571" lat="44.8410862" lon="-0.5800536">
    <tag k="code_INSEE" v="33063"/>
    <tag k="code_departement" v="33"/>
    <tag k="is_in" v="Europe,France,Gironde"/>
    <tag k="is_in:continent" v="Europe"/>
    <tag k="name" v="Bordeaux"/>
    <tag k="name:ca" v="Bordeus"/>
    <tag k="name:es" v="Burdeos"/>
    <tag k="name:fr" v="Bordeaux"/>
    <tag k="name:oc" v="Bordèu"/>
    <tag k="name:pt" v="Bordéus"/>
    <tag k="place" v="city"/>
    <tag k="population" v="232260"/>
    <tag k="postal_code" v="33000, 33100, 33200, 33300, 33800"/>
    <tag k="source_ref" v="http://fr.wikipedia.org/wiki/Bordeaux"/>
    <tag k="wikipedia" v="Bordeaux"/>
  </node>
  <node id="285997729" version="10" timestamp="2009-11-01T19:47:56Z" uid="47892" user="richlv" changeset="3010373" lat="44.8410862" lon="-0.5800536">
    <tag k="code_INSEE" v="33063"/>
    <tag k="code_departement" v="33"/>
    <tag k="is_in" v="Europe,France,Gironde"/>
    <tag k="is_in:continent" v="Europe"/>
    <tag k="name" v="Bordeaux"/>
    <tag k="name:ca" v="Bordeus"/>
    <tag k="name:es" v="Burdeos"/>
    <tag k="name:fr" v="Bordeaux"/>
    <tag k="name:lv" v="Bordo"/>
    <tag k="name:oc" v="Bordèu"/>
    <tag k="name:pt" v="Bordéus"/>
    <tag k="place" v="city"/>
    <tag k="population" v="232260"/>
    <tag k="postal_code" v="33000, 33100, 33200, 33300, 33800"/>
    <tag k="source_ref" v="http://fr.wikipedia.org/wiki/Bordeaux"/>
    <tag k="wikipedia" v="Bordeaux"/>
  </node>
  <node id="285997729" version="11" timestamp="2009-11-24T12:23:56Z" uid="183561" user="EtienneChoveBot" changeset="3203604" lat="44.8410862" lon="-0.5800536">
    <tag k="code_departement" v="33"/>
    <tag k="is_in" v="Europe,France,Gironde"/>
    <tag k="is_in:continent" v="Europe"/>
    <tag k="name" v="Bordeaux"/>
    <tag k="name:ca" v="Bordeus"/>
    <tag k="name:es" v="Burdeos"/>
    <tag k="name:fr" v="Bordeaux"/>
    <tag k="name:lv" v="Bordo"/>
    <tag k="name:oc" v="Bordèu"/>
    <tag k="name:pt" v="Bordéus"/>
    <tag k="place" v="city"/>
    <tag k="population" v="232260"/>
    <tag k="postal_code" v="33000, 33100, 33200, 33300, 33800"/>
    <tag k="ref:INSEE" v="33063"/>
    <tag k="source_ref" v="http://fr.wikipedia.org/wiki/Bordeaux"/>
    <tag k="wikipedia" v="Bordeaux"/>
  </node>
  <node id="285997729" version="12" timestamp="2009-12-02T11:16:53Z" uid="129607" user="Mage Whopper" changeset="3270857" lat="44.8410862" lon="-0.5800537">
    <tag k="code_departement" v="33"/>
    <tag k="is_in" v="Europe,France,Gironde"/>
    <tag k="is_in:continent" v="Europe"/>
    <tag k="name" v="Bordeaux"/>
    <tag k="name:ca" v="Bordeus"/>
    <tag k="name:es" v="Burdeos"/>
    <tag k="name:fr" v="Bordeaux"/>
    <tag k="name:ja" v="ボルドー"/>
    <tag k="name:lv" v="Bordo"/>
    <tag k="name:oc" v="Bordèu"/>
    <tag k="name:pt" v="Bordéus"/>
    <tag k="place" v="city"/>
    <tag k="population" v="232260"/>
    <tag k="postal_code" v="33000, 33100, 33200, 33300, 33800"/>
    <tag k="ref:INSEE" v="33063"/>
    <tag k="source_ref" v="http://fr.wikipedia.org/wiki/Bordeaux"/>
    <tag k="wikipedia" v="Bordeaux"/>
  </node>
  <node id="285997729" version="13" timestamp="2010-02-10T14:31:35Z" uid="166445" user="GranD" changeset="3840617" lat="44.8410862" lon="-0.5800537">
    <tag k="code_departement" v="33"/>
    <tag k="is_in" v="Europe,France,Gironde"/>
    <tag k="is_in:continent" v="Europe"/>
    <tag k="name" v="Bordeaux"/>
    <tag k="name:ca" v="Bordeus"/>
    <tag k="name:es" v="Burdeos"/>
    <tag k="name:fr" v="Bordeaux"/>
    <tag k="name:ja" v="ボルドー"/>
    <tag k="name:lv" v="Bordo"/>
    <tag k="name:oc" v="Bordèu"/>
    <tag k="name:pt" v="Bordéus"/>
    <tag k="name:ru" v="Бордо"/>
    <tag k="place" v="city"/>
    <tag k="population" v="232260"/>
    <tag k="postal_code" v="33000, 33100, 33200, 33300, 33800"/>
    <tag k="ref:INSEE" v="33063"/>
    <tag k="source_ref" v="http://fr.wikipedia.org/wiki/Bordeaux"/>
    <tag k="wikipedia" v="Bordeaux"/>
  </node>
  <node id="285997729" version="14" timestamp="2010-02-20T10:20:58Z" uid="28269" user="Pierre-Alain Dorange" changeset="3921997" lat="44.8410862" lon="-0.5800537">
    <tag k="code_departement" v="33"/>
    <tag k="is_in" v="Europe, France, Aquitaine, Gironde"/>
    <tag k="is_in:continent" v="Europe"/>
    <tag k="is_in:country" v="France"/>
    <tag k="name" v="Bordeaux"/>
    <tag k="name:ca" v="Bordeus"/>
    <tag k="name:es" v="Burdeos"/>
    <tag k="name:fr" v="Bordeaux"/>
    <tag k="name:ja" v="ボルドー"/>
    <tag k="name:lv" v="Bordo"/>
    <tag k="name:oc" v="Bordèu"/>
    <tag k="name:pt" v="Bordéus"/>
    <tag k="name:ru" v="Бордо"/>
    <tag k="place" v="city"/>
    <tag k="population" v="232260"/>
    <tag k="postal_code" v="33000, 33100, 33200, 33300, 33800"/>
    <tag k="ref:INSEE" v="33063"/>
    <tag k="source_ref" v="http://fr.wikipedia.org/wiki/Bordeaux"/>
    <tag k="wikipedia" v="Bordeaux"/>
  </node>
  <node id="285997729" version="15" timestamp="2010-02-20T11:35:12Z" uid="28269" user="Pierre-Alain Dorange" changeset="3922542" lat="44.8410862" lon="-0.5800537">
    <tag k="code_departement" v="33"/>
    <tag k="is_in" v="Europe, France, Aquitaine, Gironde"/>
    <tag k="is_in:continent" v="Europe"/>
    <tag k="is_in:country" v="France"/>
    <tag k="name" v="Bordeaux"/>
    <tag k="name:ca" v="Bordeus"/>
    <tag k="name:es" v="Burdeos"/>
    <tag k="name:fr" v="Bordeaux"/>
    <tag k="name:ja" v="ボルドー"/>
    <tag k="name:lv" v="Bordo"/>
    <tag k="name:oc" v="Bordèu"/>
    <tag k="name:pt" v="Bordéus"/>
    <tag k="name:ru" v="Бордо"/>
    <tag k="place" v="city"/>
    <tag k="population" v="235178"/>
    <tag k="postal_code" v="33000, 33100, 33200, 33300, 33800"/>
    <tag k="ref:INSEE" v="33063"/>
    <tag k="source:population" v="INSEE 2007"/>
    <tag k="source_ref" v="http://fr.wikipedia.org/wiki/Bordeaux"/>
    <tag k="wikipedia" v="Bordeaux"/>
  </node>
  <node id="285997729" version="16" timestamp="2010-03-08T13:06:00Z" uid="221997" user="EuskalMapa" changeset="4071613" lat="44.8410862" lon="-0.5800537">
    <tag k="code_departement" v="33"/>
    <tag k="is_in" v="Europe, France, Aquitaine, Gironde"/>
    <tag k="is_in:continent" v="Europe"/>
    <tag k="is_in:country" v="France"/>
    <tag k="name" v="Bordeaux"/>
    <tag k="name:ca" v="Bordeus"/>
    <tag k="name:es" v="Burdeos"/>
    <tag k="name:eu" v="Bordele"/>
    <tag k="name:fr" v="Bordeaux"/>
    <tag k="name:ja" v="ボルドー"/>
    <tag k="name:lv" v="Bordo"/>
    <tag k="name:oc" v="Bordèu"/>
    <tag k="name:pt" v="Bordéus"/>
    <tag k="name:ru" v="Бордо"/>
    <tag k="place" v="city"/>
    <tag k="population" v="235178"/>
    <tag k="postal_code" v="33000, 33100, 33200, 33300, 33800"/>
    <tag k="ref:INSEE" v="33063"/>
    <tag k="source:population" v="INSEE 2007"/>
    <tag k="source_ref" v="http://fr.wikipedia.org/wiki/Bordeaux"/>
    <tag k="wikipedia" v="Bordeaux"/>
  </node>
  <node id="285997729" version="17" timestamp="2011-01-12T22:02:16Z" uid="225695" user="Karto" changeset="6952341" lat="44.8410862" lon="-0.5800537">
    <tag k="code_departement" v="33"/>
    <tag k="is_in" v="Europe, France, Aquitaine, Gironde"/>
    <tag k="is_in:continent" v="Europe"/>
    <tag k="is_in:country" v="France"/>
    <tag k="name" v="Bordeaux"/>
    <tag k="name:ca" v="Bordeus"/>
    <tag k="name:es" v="Burdeos"/>
    <tag k="name:eu" v="Bordele"/>
    <tag k="name:fr" v="Bordeaux"/>
    <tag k="name:ja" v="ボルドー"/>
    <tag k="name:lv" v="Bordo"/>
    <tag k="name:oc" v="Bordèu"/>
    <tag k="name:pt" v="Bordéus"/>
    <tag k="name:ru" v="Бордо"/>
    <tag k="old_name" v="Burdigala"/>
    <tag k="place" v="city"/>
    <tag k="population" v="235178"/>
    <tag k="postal_code" v="33000, 33100, 33200, 33300, 33800"/>
    <tag k="ref:INSEE" v="33063"/>
    <tag k="source:population" v="INSEE 2007"/>
    <tag k="source_ref" v="http://fr.wikipedia.org/wiki/Bordeaux"/>
    <tag k="wikipedia" v="Bordeaux"/>
  </node>
  <node id="285997729" version="18" timestamp="2011-01-22T01:21:16Z" uid="79386" user="philippekerla" changeset="7046402" lat="44.8410862" lon="-0.5800537">
    <tag k="code_departement" v="33"/>
    <tag k="is_in" v="Europe, France, Aquitaine, Gironde"/>
    <tag k="is_in:continent" v="Europe"/>
    <tag k="is_in:country" v="France"/>
    <tag k="name" v="Bordeaux"/>
    <tag k="name:ca" v="Bordeus"/>
    <tag k="name:es" v="Burdeos"/>
    <tag k="name:eu" v="Bordele"/>
    <tag k="name:fr" v="Bordeaux"/>
    <tag k="name:ja" v="ボルドー"/>
    <tag k="name:lv" v="Bordo"/>
    <tag k="name:oc" v="Bordèu"/>
    <tag k="name:pt" v="Bordéus"/>
    <tag k="name:ru" v="Бордо"/>
    <tag k="old_name" v="Burdigala"/>
    <tag k="place" v="city"/>
    <tag k="population" v="235178"/>
    <tag k="postal_code" v="33000, 33100, 33200, 33300, 33800"/>
    <tag k="ref:INSEE" v="33063"/>
    <tag k="ref:SIREN" v="213300635"/>
    <tag k="source:population" v="INSEE 2007"/>
    <tag k="source_ref" v="http://fr.wikipedia.org/wiki/Bordeaux"/>
    <tag k="wikipedia" v="Bordeaux"/>
  </node>
  <node id="285997729" version="19" timestamp="2011-10-01T20:33:32Z" uid="212207" user="SunCobalt" changeset="9445807" lat="44.8410862" lon="-0.5800537">
    <tag k="code_departement" v="33"/>
    <tag k="is_in" v="Europe, France, Aquitaine, Gironde"/>
    <tag k="is_in:continent" v="Europe"/>
    <tag k="is_in:country" v="France"/>
    <tag k="name" v="Bordeaux"/>
    <tag k="name:ca" v="Bordeus"/>
    <tag k="name:es" v="Burdeos"/>
    <tag k="name:eu" v="Bordele"/>
    <tag k="name:fr" v="Bordeaux"/>
    <tag k="name:ja" v="ボルドー"/>
    <tag k="name:lv" v="Bordo"/>
    <tag k="name:oc" v="Bordèu"/>
    <tag k="name:pt" v="Bordéus"/>
    <tag k="name:ru" v="Бордо"/>
    <tag k="name:sr" v="Бордо"/>
    <tag k="old_name" v="Burdigala"/>
    <tag k="place" v="city"/>
    <tag k="population" v="235178"/>
    <tag k="postal_code" v="33000, 33100, 33200, 33300, 33800"/>
    <tag k="ref:INSEE" v="33063"/>
    <tag k="ref:SIREN" v="213300635"/>
    <tag k="source:population" v="INSEE 2007"/>
    <tag k="source_ref" v="http://fr.wikipedia.org/wiki/Bordeaux"/>
    <tag k="wikipedia" v="Bordeaux"/>
  </node>
  <node id="285997729" version="20" timestamp="2012-01-25T20:59:17Z" uid="23966" user="Thomas Petillon" changeset="10497536" lat="44.8410862" lon="-0.5800537">
    <tag k="code_departement" v="33"/>
    <tag k="is_in" v="Europe, France, Aquitaine, Gironde"/>
    <tag k="is_in:continent" v="Europe"/>
    <tag k="is_in:country" v="France"/>
    <tag k="name" v="Bordeaux"/>
    <tag k="name:br" v="Bourdel"/>
    <tag k="name:ca" v="Bordeus"/>
    <tag k="name:es" v="Burdeos"/>
    <tag k="name:eu" v="Bordele"/>
    <tag k="name:fr" v="Bordeaux"/>
    <tag k="name:ja" v="ボルドー"/>
    <tag k="name:lv" v="Bordo"/>
    <tag k="name:oc" v="Bordèu"/>
    <tag k="name:pt" v="Bordéus"/>
    <tag k="name:ru" v="Бордо"/>
    <tag k="name:sr" v="Бордо"/>
    <tag k="old_name" v="Burdigala"/>
    <tag k="place" v="city"/>
    <tag k="population" v="235178"/>
    <tag k="postal_code" v="33000, 33100, 33200, 33300, 33800"/>
    <tag k="ref:INSEE" v="33063"/>
    <tag k="ref:SIREN" v="213300635"/>
    <tag k="source:population" v="INSEE 2007"/>
    <tag k="source_ref" v="http://fr.wikipedia.org/wiki/Bordeaux"/>
    <tag k="wikipedia" v="Bordeaux"/>
  </node>
  <node id="285997729" version="21" timestamp="2012-01-28T12:45:48Z" uid="90780" user="Verdy_p" changeset="10520551" lat="44.8378705" lon="-0.5799969">
    <tag k="addr:postcode" v="33000, 33100, 33200, 33300, 33800"/>
    <tag k="code_departement" v="33"/>
    <tag k="is_in" v="Europe, France, Aquitaine, Gironde"/>
    <tag k="is_in:continent" v="Europe"/>
    <tag k="is_in:country" v="France"/>
    <tag k="name" v="Bordeaux"/>
    <tag k="name:be" v="Бардо"/>
    <tag k="name:bg" v="Бордо"/>
    <tag k="name:br" v="Bourdel"/>
    <tag k="name:ca" v="Bordeus"/>
    <tag k="name:es" v="Burdeos"/>
    <tag k="name:eu" v="Bordele"/>
    <tag k="name:fr" v="Bordeaux"/>
    <tag k="name:ja" v="ボルドー"/>
    <tag k="name:la" v="Burdigala"/>
    <tag k="name:lt" v="Bordo"/>
    <tag k="name:lv" v="Bordo"/>
    <tag k="name:mk" v="Бордо"/>
    <tag k="name:oc" v="Bordèu"/>
    <tag k="name:pt" v="Bordéus"/>
    <tag k="name:ru" v="Бордо"/>
    <tag k="name:sr" v="Бордо"/>
    <tag k="name:tl" v="Burdeos"/>
    <tag k="name:uk" v="Бордо"/>
    <tag k="old_name" v="Burdigala"/>
    <tag k="place" v="city"/>
    <tag k="population" v="235891"/>
    <tag k="population:date" v="2008"/>
    <tag k="postal_code" v="33000, 33100, 33200, 33300, 33800"/>
    <tag k="ref:INSEE" v="33063"/>
    <tag k="ref:SIREN" v="213300635"/>
    <tag k="source:population" v="INSEE"/>
    <tag k="source_ref" v="http://fr.wikipedia.org/wiki/Bordeaux"/>
    <tag k="website" v="http://www.bordeaux.fr/"/>
    <tag k="wikipedia" v="fr:Bordeaux"/>
  </node>
  <node id="285997729" version="22" timestamp="2012-03-08T14:38:09Z" uid="7045" user="Xuacu" changeset="10909736" lat="44.8378705" lon="-0.5799969">
    <tag k="addr:postcode" v="33000, 33100, 33200, 33300, 33800"/>
    <tag k="code_departement" v="33"/>
    <tag k="is_in" v="Europe, France, Aquitaine, Gironde"/>
    <tag k="is_in:continent" v="Europe"/>
    <tag k="is_in:country" v="France"/>
    <tag k="name" v="Bordeaux"/>
    <tag k="name:ast" v="Bordeos"/>
    <tag k="name:be" v="Бардо"/>
    <tag k="name:bg" v="Бордо"/>
    <tag k="name:br" v="Bourdel"/>
    <tag k="name:ca" v="Bordeus"/>
    <tag k="name:es" v="Burdeos"/>
    <tag k="name:eu" v="Bordele"/>
    <tag k="name:fr" v="Bordeaux"/>
    <tag k="name:ja" v="ボルドー"/>
    <tag k="name:la" v="Burdigala"/>
    <tag k="name:lt" v="Bordo"/>
    <tag k="name:lv" v="Bordo"/>
    <tag k="name:mk" v="Бордо"/>
    <tag k="name:oc" v="Bordèu"/>
    <tag k="name:pt" v="Bordéus"/>
    <tag k="name:ru" v="Бордо"/>
    <tag k="name:sr" v="Бордо"/>
    <tag k="name:tl" v="Burdeos"/>
    <tag k="name:uk" v="Бордо"/>
    <tag k="old_name" v="Burdigala"/>
    <tag k="place" v="city"/>
    <tag k="population" v="235891"/>
    <tag k="population:date" v="2008"/>
    <tag k="postal_code" v="33000, 33100, 33200, 33300, 33800"/>
    <tag k="ref:INSEE" v="33063"/>
    <tag k="ref:SIREN" v="213300635"/>
    <tag k="source:population" v="INSEE"/>
    <tag k="source_ref" v="http://fr.wikipedia.org/wiki/Bordeaux"/>
    <tag k="website" v="http://www.bordeaux.fr/"/>
    <tag k="wikipedia" v="fr:Bordeaux"/>
  </node>
  <node id="285997729" version="23" timestamp="2012-03-26T08:48:05Z" uid="24247" user="Vlad" changeset="11103494" lat="44.8378705" lon="-0.5799969"/>
  <node id="285998248" version="5" timestamp="2008-08-14T23:44:24Z" uid="6975" user="ulfl" changeset="264731" lat="50.3791629" lon="7.4163144">
    <tag k="amenity" v="fast_food"/>
    <tag k="cuisine" v="kebab"/>
    <tag k="name" v="Kebap Point"/>
  </node>
  <node id="285998248" version="6" timestamp="2008-12-19T18:25:54Z" uid="56751" user="adlerweb" changeset="483984" lat="50.379124" lon="7.4163433">
    <tag k="amenity" v="fast_food"/>
    <tag k="cuisine" v="kebab"/>
    <tag k="name" v="Kebap Point"/>
  </node>
  <node id="285998248" version="7" timestamp="2009-12-10T18:35:56Z" uid="56751" user="adlerweb" changeset="3343944" lat="50.3790875" lon="7.4164068">
    <tag k="addr:city" v="Saffig"/>
    <tag k="addr:country" v="DE"/>
    <tag k="addr:housenumber" v="9"/>
    <tag k="addr:postcode" v="56648"/>
    <tag k="addr:street" v="Hauptstraße"/>
    <tag k="amenity" v="fast_food"/>
    <tag k="cuisine" v="kebab"/>
    <tag k="name" v="Kebap Point"/>
  </node>
  <node id="285998248" version="8" timestamp="2010-11-03T08:16:41Z" uid="56751" user="adlerweb" changeset="6273971" lat="50.3790875" lon="7.4164068">
    <tag k="addr:city" v="Saffig"/>
    <tag k="addr:country" v="DE"/>
    <tag k="addr:housenumber" v="9"/>
    <tag k="addr:postcode" v="56648"/>
    <tag k="addr:street" v="Hauptstraße"/>
  </node>
  <node id="285998248" version="9" timestamp="2011-02-21T14:50:25Z" uid="56751" user="adlerweb" changeset="7354503" lat="50.3790413" lon="7.416408">
    <tag k="addr:city" v="Saffig"/>
    <tag k="addr:country" v="DE"/>
    <tag k="addr:housenumber" v="9"/>
    <tag k="addr:postcode" v="56648"/>
    <tag k="addr:street" v="Hauptstraße"/>
  </node>
  <node id="285998674" version="2" timestamp="2009-05-22T20:27:03Z" uid="87590" user="Alois_Paul" changeset="1290196" lat="48.159055" lon="8.7552646">
    <tag k="created_by" v="JOSM"/>
  </node>
  <node id="285998675" version="2" timestamp="2009-05-22T20:27:03Z" uid="87590" user="Alois_Paul" changeset="1290196" lat="48.1589324" lon="8.7552998">
    <tag k="created_by" v="JOSM"/>
  </node>
  <node id="285998676" version="2" timestamp="2009-05-22T20:27:04Z" uid="87590" user="Alois_Paul" changeset="1290196" lat="48.1588317" lon="8.7553777">
    <tag k="created_by" v="JOSM"/>
  </node>
  <node id="285998678" version="2" timestamp="2009-05-22T20:27:04Z" uid="87590" user="Alois_Paul" changeset="1290196" lat="48.1586359" lon="8.7554671">
    <tag k="created_by" v="JOSM"/>
  </node>
  <node id="285998679" version="2" timestamp="2009-05-22T20:27:04Z" uid="87590" user="Alois_Paul" changeset="1290196" lat="48.1581921" lon="8.7554899">
    <tag k="created_by" v="JOSM"/>
  </node>
  <node id="285998680" version="2" timestamp="2009-05-22T20:27:04Z" uid="87590" user="Alois_Paul" changeset="1290196" lat="48.1578053" lon="8.7554623">
    <tag k="created_by" v="JOSM"/>
  </node>
  <node id="285998681" version="2" timestamp="2009-05-22T20:27:04Z" uid="87590" user="Alois_Paul" changeset="1290196" lat="48.1576313" lon="8.7555346">
    <tag k="created_by" v="JOSM"/>
  </node>
  <node id="285998682" version="3" timestamp="2009-05-22T20:27:03Z" uid="87590" user="Alois_Paul" changeset="1290196" lat="48.1575665" lon="8.75561">
    <tag k="created_by" v="JOSM"/>
  </node>
  <node id="285998683" version="3" timestamp="2009-05-22T20:27:03Z" uid="87590" user="Alois_Paul" changeset="1290196" lat="48.1574359" lon="8.7556572">
    <tag k="created_by" v="JOSM"/>
  </node>
  <node id="285998684" version="3" timestamp="2009-05-22T20:27:03Z" uid="87590" user="Alois_Paul" changeset="1290196" lat="48.1573303" lon="8.7556983">
    <tag k="created_by" v="JOSM"/>
  </node>
  <node id="285998685" version="3" timestamp="2009-05-22T20:27:03Z" uid="87590" user="Alois_Paul" changeset="1290196" lat="48.1572445" lon="8.7557454">
    <tag k="created_by" v="JOSM"/>
  </node>
  <node id="285998694" version="3" timestamp="2009-05-22T20:27:03Z" uid="87590" user="Alois_Paul" changeset="1290196" lat="48.1571468" lon="8.7557872">
    <tag k="created_by" v="JOSM"/>
  </node>
  <node id="285998696" version="3" timestamp="2009-05-22T20:27:03Z" uid="87590" user="Alois_Paul" changeset="1290196" lat="48.1570426" lon="8.7558161">
    <tag k="created_by" v="JOSM"/>
  </node>
  <node id="285998697" version="3" timestamp="2009-05-22T20:27:03Z" uid="87590" user="Alois_Paul" changeset="1290196" lat="48.1568135" lon="8.7560182">
    <tag k="created_by" v="JOSM"/>
    <tag k="tourism" v="viewpoint"/>
  </node>
  <node id="285998698" version="3" timestamp="2009-05-22T20:27:04Z" uid="87590" user="Alois_Paul" changeset="1290196" lat="48.1566114" lon="8.7561308">
    <tag k="created_by" v="JOSM"/>
  </node>
  <node id="285998699" version="3" timestamp="2009-05-22T20:27:04Z" uid="87590" user="Alois_Paul" changeset="1290196" lat="48.1563532" lon="8.7564306">
    <tag k="created_by" v="JOSM"/>
  </node>
  <node id="285998700" version="3" timestamp="2009-05-22T20:27:04Z" uid="87590" user="Alois_Paul" changeset="1290196" lat="48.156158" lon="8.756656">
    <tag k="created_by" v="JOSM"/>
  </node>
  <node id="285998701" version="2" timestamp="2009-05-22T20:29:38Z" uid="87590" user="Alois_Paul" changeset="1290196" lat="48.1562568" lon="8.7566609"/>
  <node id="285998701" version="3" timestamp="2009-07-03T18:28:55Z" uid="131825" user="KlausARoth" changeset="1723554" lat="48.1562568" lon="8.7566609"/>
  <node id="285993716" version="5" timestamp="2012-07-17T05:32:33Z" uid="722137" user="OSMF Redaction Account" changeset="12257809" lat="51.5283473" lon="13.4228779"/>
  <node id="285993716" version="6" timestamp="2012-07-21T09:39:52Z" uid="2956" user="Christopher" changeset="12404399" lat="51.5283473" lon="13.4228779">
    <tag k="power" v="tower"/>
  </node>
</osm>
