<?xml version='1.0' encoding='UTF-8'?>
<osm version="0.6" generator="libosmium/2.20.0">
  <node id="286430425" version="2" timestamp="2009-05-16T21:49:59Z" uid="18775" user="drlizau" changeset="1216086" lat="-16.9142872" lon="145.7710615"/>
  <node id="286430425" version="3" timestamp="2009-05-25T23:44:12Z" uid="18775" user="drlizau" changeset="1321839" lat="-16.9143096" lon="145.7709759"/>
  <node id="286430425" version="4" timestamp="2011-11-13T06:10:05Z" uid="35673" user="gzin" changeset="9810739" lat="-16.9143548" lon="145.7708857"/>
  <node id="286430546" version="2" timestamp="2008-09-14T13:42:35Z" uid="6975" user="ulfl" changeset="640534" lat="50.9746615" lon="11.088424">
    <tag k="name" v="Metro"/>
    <tag k="note" v="FIMXE supermarket?"/>
    <tag k="shop" v="supermarket"/>
  </node>
  <node id="286430546" version="3" timestamp="2010-12-12T12:35:36Z" uid="195713" user="_torsten_" changeset="6635368" lat="50.9742746" lon="11.0884742">
    <tag k="name" v="Metro"/>
    <tag k="shop" v="supermarket"/>
  </node>
  <node id="286430630" version="2" timestamp="2009-06-19T22:52:12Z" uid="61114" user="Trav" changeset="1569986" lat="-27.5860757" lon="153.0927876">
    <tag k="highway" v="turning_circle"/>
  </node>
  <node id="286430630" version="3" timestamp="2011-01-12T07:01:04Z" uid="22094" user="Chadzopkyo" changeset="6944426" lat="-27.5860908" lon="153.092781">
    <tag k="highway" v="turning_circle"/>
  </node>
  <node id="286430646" version="4" timestamp="2011-02-16T10:58:34Z" uid="4467" user="Rosscoe" changeset="7302704" lat="-27.5843654" lon="153.0997627"/>
  <node id="286430646" version="5" timestamp="2011-06-13T06:51:26Z" uid="22094" user="Chadzopkyo" changeset="8422325" lat="-27.5843672" lon="153.0998408"/>
  <node id="286430646" version="6" timestamp="2012-02-08T09:05:32Z" uid="22094" user="Chadzopkyo" changeset="10621977" lat="-27.5843562" lon="153.0998484"/>
  <node id="286430767" version="2" timestamp="2011-05-01T16:10:09Z" uid="9581" user="Lobelt" changeset="8022707" lat="50.8915909" lon="11.7413925"/>
  <node id="286430767" version="3" timestamp="2012-03-12T20:13:08Z" uid="125832" user="tijuca" changeset="10959814" lat="50.8915909" lon="11.7413925"/>
  <node id="286430769" version="2" timestamp="2011-05-01T16:11:01Z" uid="9581" user="Lobelt" changeset="8022707" lat="50.8919974" lon="11.7426409"/>
  <node id="286430769" version="3" timestamp="2012-01-07T21:40:34Z" uid="125832" user="tijuca" changeset="10326090" lat="50.8919974" lon="11.7426409"/>
  <node id="286432119" version="2" timestamp="2009-12-24T03:44:48Z" uid="6975" user="ulfl" changeset="3439774" lat="-37.046613" lon="143.8185696">
    <tag k="amenity" v="bbq"/>
  </node>
  <node id="286433905" version="2" timestamp="2008-12-27T10:19:39Z" uid="65847" user="LKK" changeset="624261" lat="50.0473129" lon="8.145659"/>
  <node id="286433905" version="3" timestamp="2011-03-29T19:12:05Z" uid="104912" user="Sir Lancelot" changeset="7709757" lat="50.0472555" lon="8.146019"/>
  <node id="286434061" version="2" timestamp="2008-12-27T10:19:36Z" uid="65847" user="LKK" changeset="624261" lat="50.0470461" lon="8.14935"/>
  <node id="286434061" version="3" timestamp="2011-03-29T19:11:51Z" uid="104912" user="Sir Lancelot" changeset="7709757" lat="50.0469821" lon="8.1491898"/>
  <node id="286434822" version="3" timestamp="2010-05-21T05:30:38Z" uid="244897" user="M526244" changeset="4762913" lat="-27.5932798" lon="153.0962515">
    <tag k="power" v="tower"/>
  </node>
  <node id="286434854" version="1" timestamp="2008-08-09T11:31:01Z" uid="58091" user="Andreas M" changeset="150552" lat="48.2404136" lon="16.3536445">
    <tag k="amenity" v="post_office"/>
    <tag k="created_by" v="JOSM"/>
  </node>
  <node id="286434854" version="2" timestamp="2009-01-12T14:22:24Z" uid="54806" user="_al" changeset="776809" lat="48.2403667" lon="16.3536779">
    <tag k="addr:city" v="Wien"/>
    <tag k="addr:housenumber" v="6"/>
    <tag k="addr:postcode" v="1190"/>
    <tag k="addr:street" v="Würthgasse"/>
    <tag k="amenity" v="post_office"/>
    <tag k="created_by" v="Potlatch 0.10f"/>
    <tag k="name" v="Postamt 1190"/>
    <tag k="postal_code" v="1190"/>
    <tag k="ref" v="1190"/>
  </node>
  <node id="286434854" version="3" timestamp="2009-01-18T11:21:52Z" uid="38255" user="BearT" changeset="805541" lat="48.2403667" lon="16.3536778">
    <tag k="addr:city" v="Wien"/>
    <tag k="addr:country" v="at"/>
    <tag k="addr:housenumber" v="6"/>
    <tag k="addr:postcode" v="1190"/>
    <tag k="addr:street" v="Würthgasse"/>
    <tag k="amenity" v="post_office"/>
    <tag k="created_by" v="Merkaartor 0.13"/>
    <tag k="name" v="Postamt 1190"/>
    <tag k="postal_code" v="1190"/>
    <tag k="ref" v="1190"/>
  </node>
  <node id="286434854" version="4" timestamp="2009-01-21T20:03:51Z" uid="70696" user="xybot" changeset="822919" lat="48.2403667" lon="16.3536778">
    <tag k="addr:city" v="Wien"/>
    <tag k="addr:country" v="AT"/>
    <tag k="addr:housenumber" v="6"/>
    <tag k="addr:postcode" v="1190"/>
    <tag k="addr:street" v="Würthgasse"/>
    <tag k="amenity" v="post_office"/>
    <tag k="created_by" v="xybot"/>
    <tag k="name" v="Postamt 1190"/>
    <tag k="postal_code" v="1190"/>
    <tag k="ref" v="1190"/>
  </node>
  <node id="286434854" version="5" timestamp="2009-01-30T17:03:07Z" uid="79699" user="paul_w_" changeset="856719" lat="48.2403667" lon="16.3536778">
    <tag k="addr:city" v="Wien"/>
    <tag k="addr:country" v="AT"/>
    <tag k="addr:housenumber" v="6"/>
    <tag k="addr:postcode" v="1190"/>
    <tag k="addr:street" v="Würthgasse"/>
    <tag k="amenity" v="post_office"/>
    <tag k="name" v="Postamt 1190"/>
    <tag k="postal_code" v="1190"/>
    <tag k="ref" v="1190"/>
    <tag k="type" v="Postfiliale"/>
  </node>
  <node id="286434854" version="6" timestamp="2010-04-28T16:26:00Z" uid="33565" user="pky19" changeset="4550854" lat="48.2405135" lon="16.3538868">
    <tag k="addr:city" v="Wien"/>
    <tag k="addr:country" v="AT"/>
    <tag k="addr:housenumber" v="6"/>
    <tag k="addr:postcode" v="1190"/>
    <tag k="addr:street" v="Würthgasse"/>
    <tag k="amenity" v="post_office"/>
    <tag k="name" v="Postamt 1190"/>
    <tag k="postal_code" v="1190"/>
    <tag k="ref" v="1190"/>
    <tag k="type" v="Postfiliale"/>
  </node>
  <node id="286434854" version="7" timestamp="2010-11-10T21:09:41Z" uid="290680" user="wheelmap_visitor" changeset="6337136" lat="48.2405135" lon="16.3538868">
    <tag k="addr:city" v="Wien"/>
    <tag k="addr:country" v="AT"/>
    <tag k="addr:housenumber" v="6"/>
    <tag k="addr:postcode" v="1190"/>
    <tag k="addr:street" v="Würthgasse"/>
    <tag k="amenity" v="post_office"/>
    <tag k="name" v="Postamt 1190"/>
    <tag k="postal_code" v="1190"/>
    <tag k="ref" v="1190"/>
    <tag k="type" v="Postfiliale"/>
    <tag k="wheelchair" v="yes"/>
  </node>
  <node id="286434854" version="8" timestamp="2011-02-22T08:36:00Z" uid="412211" user="tschuls0505" changeset="7361179" lat="48.2405135" lon="16.3538868">
    <tag k="addr:city" v="Wien"/>
    <tag k="addr:country" v="AT"/>
    <tag k="addr:housenumber" v="6"/>
    <tag k="addr:postcode" v="1190"/>
    <tag k="addr:street" v="Würthgasse"/>
    <tag k="amenity" v="post_office"/>
    <tag k="name" v="Postamt 1190"/>
    <tag k="postal_code" v="1190"/>
    <tag k="ref" v="1190"/>
    <tag k="type" v="Postfiliale"/>
    <tag k="wheelchair" v="yes"/>
  </node>
  <node id="286434855" version="1" timestamp="2008-08-09T11:31:01Z" uid="58091" user="Andreas M" changeset="150552" lat="48.2405849" lon="16.3537102">
    <tag k="amenity" v="post_office"/>
    <tag k="created_by" v="JOSM"/>
  </node>
  <node id="286434855" version="2" timestamp="2009-01-12T14:20:36Z" uid="54806" user="_al" changeset="776809" lat="48.2405896" lon="16.3537037">
    <tag k="created_by" v="Potlatch 0.10f"/>
    <tag k="err_amenity" v="post_office"/>
    <tag k="fixme" v="yes"/>
    <tag k="note" v="?? /al"/>
  </node>
  <node id="286434855" version="3" timestamp="2009-01-12T16:09:29Z" uid="54806" user="_al" changeset="777754" lat="48.2405767" lon="16.3537785">
    <tag k="created_by" v="Potlatch 0.10f"/>
    <tag k="err_amenity" v="post_office"/>
    <tag k="fixme" v="yes"/>
    <tag k="note" v="?? /al"/>
  </node>
  <node id="286434855" version="4" timestamp="2009-01-12T16:09:50Z" uid="54806" user="_al" changeset="777754" lat="48.2405653" lon="16.3538214">
    <tag k="amenity" v="post_office"/>
    <tag k="created_by" v="Potlatch 0.10f"/>
  </node>
  <node id="286434855" version="5" timestamp="2009-01-30T17:03:07Z" uid="79699" user="paul_w_" changeset="856719" lat="48.2405653" lon="16.3538214">
    <tag k="amenity" v="post_office"/>
    <tag k="created_by" v="Potlatch 0.10f"/>
  </node>
  <node id="286434883" version="2" timestamp="2008-12-27T10:00:26Z" uid="65847" user="LKK" changeset="624261" lat="50.0411463" lon="8.1367873"/>
  <node id="286434890" version="1" timestamp="2008-08-09T11:31:13Z" uid="58091" user="Andreas M" changeset="150552" lat="48.2410469" lon="16.3553294">
    <tag k="amenity" v="bank"/>
    <tag k="created_by" v="JOSM"/>
    <tag k="name" v="Bank Austria"/>
  </node>
  <node id="286434890" version="2" timestamp="2008-08-11T15:32:51Z" uid="58091" user="Andreas M" changeset="195903" lat="48.2410469" lon="16.3553294">
    <tag k="amenity" v="bank"/>
    <tag k="atm" v="yes"/>
    <tag k="created_by" v="JOSM"/>
    <tag k="name" v="Bank Austria"/>
  </node>
  <node id="286434890" version="3" timestamp="2008-09-13T13:50:25Z" uid="58091" user="Andreas M" changeset="625815" lat="48.2410023" lon="16.3554833">
    <tag k="amenity" v="bank"/>
    <tag k="atm" v="yes"/>
    <tag k="created_by" v="JOSM"/>
    <tag k="name" v="Bank Austria"/>
  </node>
  <node id="286434890" version="4" timestamp="2009-05-25T17:56:43Z" uid="43577" user="dorni74" changeset="1318958" lat="48.2410048" lon="16.3554758">
    <tag k="amenity" v="bank"/>
    <tag k="atm" v="yes"/>
    <tag k="created_by" v="JOSM"/>
    <tag k="name" v="Bank Austria"/>
    <tag k="operator" v="Bank Austria"/>
  </node>
  <node id="286434890" version="5" timestamp="2009-05-25T17:58:56Z" uid="43577" user="dorni74" changeset="1318958" lat="48.2410048" lon="16.3554758">
    <tag k="amenity" v="bank"/>
    <tag k="atm" v="yes"/>
    <tag k="created_by" v="JOSM"/>
    <tag k="name" v="Filiale Döblinger Hauptstraße"/>
    <tag k="operator" v="Bank Austria"/>
  </node>
  <node id="286434890" version="6" timestamp="2011-02-22T09:52:28Z" uid="412211" user="tschuls0505" changeset="7361179" lat="48.2410048" lon="16.3554758">
    <tag k="amenity" v="bank"/>
    <tag k="atm" v="yes"/>
    <tag k="name" v="Bank Austria"/>
    <tag k="operator" v="Bank Austria"/>
  </node>
  <node id="286434891" version="1" timestamp="2008-08-09T11:31:13Z" uid="58091" user="Andreas M" changeset="150552" lat="48.2418731" lon="16.3556812">
    <tag k="amenity" v="restaurant"/>
    <tag k="created_by" v="JOSM"/>
    <tag k="cuisine" v="chinese"/>
    <tag k="name" v="China Restaurant Sun"/>
  </node>
  <node id="286434891" version="2" timestamp="2008-09-07T17:50:33Z" uid="58091" user="Andreas M" changeset="567784" lat="48.2418898" lon="16.3558068">
    <tag k="amenity" v="restaurant"/>
    <tag k="created_by" v="JOSM"/>
    <tag k="cuisine" v="chinese"/>
    <tag k="name" v="China Restaurant Sun"/>
  </node>
  <node id="286434891" version="3" timestamp="2008-09-08T14:17:23Z" uid="58091" user="Andreas M" changeset="571377" lat="48.2418723" lon="16.3558529">
    <tag k="amenity" v="restaurant"/>
    <tag k="created_by" v="JOSM"/>
    <tag k="cuisine" v="chinese"/>
    <tag k="name" v="China Restaurant Sun"/>
  </node>
  <node id="286434891" version="4" timestamp="2012-03-04T19:56:11Z" uid="390669" user="KrilleOSM" changeset="10873178" lat="48.2418723" lon="16.3558529">
    <tag k="amenity" v="restaurant"/>
    <tag k="cuisine" v="chinese"/>
    <tag k="name" v="Sun"/>
  </node>
  <node id="286434892" version="1" timestamp="2008-08-09T11:31:13Z" uid="58091" user="Andreas M" changeset="150552" lat="48.2406825" lon="16.3555323">
    <tag k="created_by" v="JOSM"/>
    <tag k="name" v="Spar Gourmet"/>
    <tag k="shop" v="supermarket"/>
  </node>
  <node id="286434892" version="2" timestamp="2008-09-12T17:09:36Z" uid="58091" user="Andreas M" changeset="617127" lat="48.2406374" lon="16.3557744">
    <tag k="created_by" v="JOSM"/>
    <tag k="name" v="Spar Gourmet"/>
    <tag k="shop" v="supermarket"/>
  </node>
  <node id="286434892" version="3" timestamp="2010-11-10T21:09:40Z" uid="290680" user="wheelmap_visitor" changeset="6337136" lat="48.2406374" lon="16.3557744">
    <tag k="created_by" v="JOSM"/>
    <tag k="name" v="Spar Gourmet"/>
    <tag k="shop" v="supermarket"/>
    <tag k="wheelchair" v="yes"/>
  </node>
  <node id="286434892" version="4" timestamp="2011-02-22T09:52:28Z" uid="412211" user="tschuls0505" changeset="7361179" lat="48.2407451" lon="16.3557167">
    <tag k="name" v="Spar Gourmet"/>
    <tag k="shop" v="supermarket"/>
    <tag k="wheelchair" v="yes"/>
  </node>
  <node id="286434893" version="1" timestamp="2008-08-09T11:31:13Z" uid="58091" user="Andreas M" changeset="150552" lat="48.2377313" lon="16.3539998">
    <tag k="amenity" v="bank"/>
    <tag k="created_by" v="JOSM"/>
    <tag k="name" v="BAWAG"/>
  </node>
  <node id="286434893" version="2" timestamp="2008-08-11T15:32:51Z" uid="58091" user="Andreas M" changeset="195903" lat="48.2377313" lon="16.3539998">
    <tag k="amenity" v="bank"/>
    <tag k="atm" v="yes"/>
    <tag k="created_by" v="JOSM"/>
    <tag k="name" v="BAWAG"/>
  </node>
  <node id="286434893" version="3" timestamp="2010-02-16T16:40:39Z" uid="78656" user="Walter Schlögl" changeset="3893708" lat="48.2377313" lon="16.3539998">
    <tag k="amenity" v="bank"/>
    <tag k="atm" v="yes"/>
    <tag k="name" v="BAWAG"/>
    <tag k="operator" v="BAWAG"/>
  </node>
  <node id="286434893" version="4" timestamp="2011-02-22T08:46:56Z" uid="412474" user="openme" changeset="7361056" lat="48.2377599" lon="16.3540374">
    <tag k="amenity" v="bank"/>
    <tag k="atm" v="yes"/>
    <tag k="name" v="BAWAG"/>
    <tag k="operator" v="BAWAG"/>
  </node>
  <node id="286434893" version="5" timestamp="2011-02-22T08:50:42Z" uid="412474" user="openme" changeset="7361056" lat="48.2377372" lon="16.3540285">
    <tag k="amenity" v="bank"/>
    <tag k="atm" v="yes"/>
    <tag k="name" v="BAWAG"/>
    <tag k="operator" v="BAWAG"/>
  </node>
  <node id="286434893" version="6" timestamp="2011-02-22T10:12:49Z" uid="412474" user="openme" changeset="7361056" lat="48.2377372" lon="16.3540285">
    <tag k="amenity" v="bank"/>
    <tag k="atm" v="yes"/>
    <tag k="name" v="BAWAG"/>
    <tag k="operator" v="BAWAG"/>
  </node>
  <node id="286434894" version="1" timestamp="2008-08-09T11:31:14Z" uid="58091" user="Andreas M" changeset="150552" lat="48.2396569" lon="16.3553183">
    <tag k="created_by" v="JOSM"/>
    <tag k="name" v="Billa"/>
    <tag k="shop" v="supermarket"/>
  </node>
  <node id="286434894" version="2" timestamp="2008-09-07T16:16:25Z" uid="58091" user="Andreas M" changeset="560379" lat="48.2396112" lon="16.3553085">
    <tag k="created_by" v="JOSM"/>
    <tag k="name" v="Billa"/>
    <tag k="shop" v="supermarket"/>
  </node>
  <node id="286434894" version="3" timestamp="2010-11-10T21:10:49Z" uid="290680" user="wheelmap_visitor" changeset="6337136" lat="48.2396112" lon="16.3553085">
    <tag k="created_by" v="JOSM"/>
    <tag k="name" v="Billa"/>
    <tag k="shop" v="supermarket"/>
    <tag k="wheelchair" v="no"/>
  </node>
  <node id="286434894" version="4" timestamp="2010-12-10T07:18:52Z" uid="54806" user="_al" changeset="6602466" lat="48.2387262" lon="16.354951">
    <tag k="name" v="Billa"/>
    <tag k="shop" v="supermarket"/>
    <tag k="wheelchair" v="no"/>
  </node>
  <node id="286434894" version="5" timestamp="2011-01-10T21:07:09Z" uid="123544" user="fabver" changeset="6931194" lat="48.2395266" lon="16.3551524">
    <tag k="name" v="Billa"/>
    <tag k="shop" v="supermarket"/>
    <tag k="wheelchair" v="no"/>
  </node>
  <node id="286434894" version="6" timestamp="2011-02-22T09:43:41Z" uid="412211" user="tschuls0505" changeset="7361179" lat="48.2397181" lon="16.3552366">
    <tag k="name" v="Billa"/>
    <tag k="shop" v="supermarket"/>
    <tag k="wheelchair" v="no"/>
  </node>
  <node id="286435250" version="2" timestamp="2008-12-27T10:00:16Z" uid="65847" user="LKK" changeset="624261" lat="50.0426919" lon="8.1350085"/>
  <node id="286435250" version="3" timestamp="2011-08-22T14:08:24Z" uid="201359" user="wambacher" changeset="9094551" lat="50.0426919" lon="8.1350085"/>
  <node id="286435288" version="3" timestamp="2010-05-21T05:30:37Z" uid="244897" user="M526244" changeset="4762913" lat="-27.5971668" lon="153.0946808">
    <tag k="power" v="tower"/>
  </node>
  <node id="286435679" version="1" timestamp="2008-08-09T11:34:11Z" uid="58091" user="Andreas M" changeset="150552" lat="48.2405589" lon="16.3555168">
    <tag k="amenity" v="recycling"/>
    <tag k="created_by" v="JOSM"/>
  </node>
  <node id="286435679" version="2" timestamp="2008-09-20T14:48:53Z" uid="58091" user="Andreas M" changeset="670910" lat="48.2405601" lon="16.3555593">
    <tag k="amenity" v="recycling"/>
    <tag k="created_by" v="JOSM"/>
  </node>
  <node id="286435679" version="3" timestamp="2008-12-13T15:48:50Z" uid="58091" user="Andreas M" changeset="358771" lat="48.2405589" lon="16.3555168">
    <tag k="amenity" v="recycling"/>
    <tag k="recycling:clothes" v="yes"/>
    <tag k="recycling:glass" v="yes"/>
    <tag k="recycling:green_waste" v="yes"/>
    <tag k="recycling:paper" v="yes"/>
    <tag k="recycling:plastic_bottles" v="yes"/>
    <tag k="recycling:scrap_metal" v="yes"/>
  </node>
  <node id="286436330" version="2" timestamp="2008-12-29T15:24:52Z" uid="65847" user="LKK" changeset="658143" lat="50.0406641" lon="8.135931"/>
  <node id="286436330" version="3" timestamp="2012-02-11T21:34:34Z" uid="336641" user="Der Harry" changeset="10657757" lat="50.0406641" lon="8.135931"/>
  <node id="286436361" version="2" timestamp="2008-12-27T10:00:15Z" uid="65847" user="LKK" changeset="624261" lat="50.0374235" lon="8.1351504"/>
  <node id="286436361" version="3" timestamp="2012-02-11T21:34:34Z" uid="336641" user="Der Harry" changeset="10657757" lat="50.0374235" lon="8.1351504"/>
  <node id="286438484" version="2" timestamp="2008-09-14T14:14:19Z" uid="6975" user="ulfl" changeset="640534" lat="50.261312" lon="3.414975">
    <tag k="amenity" v="place_of_worship"/>
  </node>
  <node id="286438484" version="3" timestamp="2009-07-31T17:28:25Z" uid="47035" user="france-59-valenciennes" changeset="1996548" lat="50.2613164" lon="3.4149675">
    <tag k="amenity" v="place_of_worship"/>
    <tag k="name" v="Chapelle Notre Dame de Grâces"/>
  </node>
  <node id="286438484" version="4" timestamp="2009-07-31T17:31:43Z" uid="47035" user="france-59-valenciennes" changeset="1996548" lat="50.2613164" lon="3.4149675">
    <tag k="amenity" v="place_of_worship"/>
    <tag k="name" v="Chapelle Notre Dame de Grâces"/>
  </node>
  <node id="286438484" version="5" timestamp="2009-08-09T09:19:43Z" uid="10613" user="ivom" changeset="2083053" lat="50.2613164" lon="3.4149675">
    <tag k="amenity" v="place_of_worship"/>
    <tag k="denomination" v="catholic"/>
    <tag k="name" v="Chapelle Notre Dame de Grâces"/>
    <tag k="religion" v="christian"/>
  </node>
  <node id="286438765" version="4" timestamp="2011-02-16T10:59:26Z" uid="4467" user="Rosscoe" changeset="7302704" lat="-27.5849016" lon="153.1005658"/>
  <node id="286438765" version="5" timestamp="2011-06-13T06:51:41Z" uid="22094" user="Chadzopkyo" changeset="8422325" lat="-27.5849016" lon="153.1005658"/>
  <node id="286438767" version="5" timestamp="2011-02-16T10:59:06Z" uid="4467" user="Rosscoe" changeset="7302704" lat="-27.5854625" lon="153.1014058"/>
  <node id="286438767" version="6" timestamp="2011-06-13T06:51:27Z" uid="22094" user="Chadzopkyo" changeset="8422325" lat="-27.5852004" lon="153.1010686"/>
  <node id="286438767" version="7" timestamp="2012-02-08T09:05:34Z" uid="22094" user="Chadzopkyo" changeset="10621977" lat="-27.5851924" lon="153.1010569"/>
  <node id="286439394" version="5" timestamp="2008-11-10T12:28:35Z" uid="27600" user="Islanit" changeset="730119" lat="54.3440305" lon="9.5832773"/>
  <node id="286439809" version="2" timestamp="2008-11-10T12:28:40Z" uid="27600" user="Islanit" changeset="730119" lat="54.3460868" lon="9.5819985"/>
  <node id="286439809" version="4" timestamp="2008-12-09T11:10:15Z" uid="60409" user="lworch" changeset="275731" lat="54.3460835" lon="9.581998"/>
  <node id="286439809" version="5" timestamp="2008-12-09T11:20:01Z" uid="60409" user="lworch" changeset="275731" lat="54.3460835" lon="9.581998"/>
  <node id="286439810" version="2" timestamp="2008-12-27T10:00:27Z" uid="65847" user="LKK" changeset="624261" lat="50.0378976" lon="8.1415207"/>
  <node id="286430630" version="4" timestamp="2012-07-20T07:25:59Z" uid="722137" user="OSMF Redaction Account" changeset="12366064" lat="-27.5860908" lon="153.092781"/>
  <node id="286430630" version="5" timestamp="2012-07-30T10:10:34Z" uid="349913" user="Peter W34" changeset="12545821" lat="-27.5860908" lon="153.092781">
    <tag k="highway" v="turning_circle"/>
    <tag k="source" v="Bing"/>
  </node>
  <node id="286434890" version="7" timestamp="2012-07-17T00:23:26Z" uid="722137" user="OSMF Redaction Account" changeset="12254125" lat="48.2410048" lon="16.3554758">
    <tag k="operator" v="Bank Austria"/>
  </node>
  <node id="286434891" version="5" timestamp="2012-07-17T00:24:53Z" uid="722137" user="OSMF Redaction Account" changeset="12254146" lat="48.2418723" lon="16.3558529"/>
  <node id="286434892" version="5" timestamp="2012-07-17T00:23:25Z" uid="722137" user="OSMF Redaction Account" changeset="12254125" lat="48.2407451" lon="16.3557167">
    <tag k="wheelchair" v="yes"/>
  </node>
  <node id="286434894" version="7" timestamp="2012-07-17T00:23:25Z" uid="722137" user="OSMF Redaction Account" changeset="12254125" lat="48.2397181" lon="16.3552366">
    <tag k="wheelchair" v="no"/>
  </node>
  <node id="286435679" version="4" timestamp="2012-07-17T00:24:47Z" uid="722137" user="OSMF Redaction Account" changeset="12254146" lat="48.2405589" lon="16.3555168"/>
  <node id="286438484" version="6" timestamp="2012-07-17T04:12:33Z" uid="722137" user="OSMF Redaction Account" changeset="12256625" lat="50.2613164" lon="3.4149675"/>
</osm>
