<?xml version='1.0' encoding='UTF-8'?>
<osm version="0.6" generator="libosmium/2.20.0">
  <node id="288640835" version="3" timestamp="2010-03-15T04:46:54Z" uid="74617" user="JohnSmith" changeset="4131862" lat="-34.4424128" lon="138.5695443"/>
  <node id="288649109" version="2" timestamp="2008-09-14T15:53:23Z" uid="6975" user="ulfl" changeset="640534" lat="9.8338377" lon="-83.6849489">
    <tag k="name" v="Central Hidroelectrica La Joya"/>
    <tag k="power" v="generator"/>
    <tag k="power_source" v="hydro"/>
  </node>
  <node id="288649109" version="3" timestamp="2010-12-15T00:14:03Z" uid="376335" user="mirage1981" changeset="6663941" lat="9.8563798" lon="-83.6917998">
    <tag k="name" v="Central Hidroelectrica La Joya"/>
    <tag k="power" v="generator"/>
    <tag k="power_source" v="hydro"/>
  </node>
  <node id="288649109" version="4" timestamp="2011-06-04T01:25:17Z" uid="297482" user="don-vip" changeset="8335490" lat="9.8563798" lon="-83.6917998">
    <tag k="generator:source" v="hydro"/>
    <tag k="name" v="Central Hidroelectrica La Joya"/>
    <tag k="power" v="generator"/>
  </node>
</osm>
