<?xml version='1.0' encoding='UTF-8'?>
<osm version="0.6" generator="libosmium/2.20.0">
  <node id="288880904" version="6" timestamp="2009-05-01T20:51:58Z" uid="20587" user="balrog-kun" changeset="1042242" lat="52.4973295" lon="16.609959">
    <tag k="created_by" v="Potlatch 0.10b"/>
    <tag k="is_in" v="gmina Tarnowo Podgórne, powiat poznański, województwo wielkopolskie, Poland"/>
    <tag k="is_in:country" v="Poland"/>
    <tag k="is_in:county" v="powiat poznański"/>
    <tag k="is_in:municipality" v="gmina Tarnowo Podgórne"/>
    <tag k="is_in:province" v="województwo wielkopolskie"/>
    <tag k="name" v="Góra"/>
    <tag k="place" v="hamlet"/>
    <tag k="teryt:rm" v="01"/>
    <tag k="teryt:simc" v="0597328"/>
    <tag k="teryt:stan_na" v="2009-01-01"/>
    <tag k="teryt:terc" v="3021172"/>
    <tag k="teryt:updated_by" v="teryt2osm combine.py v. 43"/>
    <tag k="wikipedia" v="Góra, Gmina Tarnowo Podgórne"/>
  </node>
  <node id="288880904" version="7" timestamp="2010-04-11T04:38:32Z" uid="20587" user="balrog-kun" changeset="4389130" lat="52.4921187" lon="16.6178643">
    <tag k="is_in" v="gmina Tarnowo Podgórne, powiat poznański, województwo wielkopolskie, Poland"/>
    <tag k="is_in:country" v="Poland"/>
    <tag k="is_in:county" v="powiat poznański"/>
    <tag k="is_in:municipality" v="gmina Tarnowo Podgórne"/>
    <tag k="is_in:province" v="województwo wielkopolskie"/>
    <tag k="name" v="Góra"/>
    <tag k="place" v="hamlet"/>
    <tag k="teryt:rm" v="01"/>
    <tag k="teryt:simc" v="0597328"/>
    <tag k="teryt:stan_na" v="2009-01-01"/>
    <tag k="teryt:terc" v="3021172"/>
    <tag k="teryt:updated_by" v="teryt2osm combine.py v. 43"/>
    <tag k="wikipedia" v="Góra, Gmina Tarnowo Podgórne"/>
  </node>
  <node id="288883030" version="5" timestamp="2009-05-01T20:51:39Z" uid="20587" user="balrog-kun" changeset="1042242" lat="52.5130512" lon="16.5843164">
    <tag k="addr:postcode" v="64-530"/>
    <tag k="created_by" v="Potlatch 0.10b"/>
    <tag k="is_in" v="gmina Kaźmierz, powiat szamotulski, województwo wielkopolskie, Poland"/>
    <tag k="is_in:country" v="Poland"/>
    <tag k="is_in:county" v="powiat szamotulski"/>
    <tag k="is_in:municipality" v="gmina Kaźmierz"/>
    <tag k="is_in:province" v="województwo wielkopolskie"/>
    <tag k="name" v="Kaźmierz"/>
    <tag k="place" v="hamlet"/>
    <tag k="population" v="1536"/>
    <tag k="source:population" v="wikipedia"/>
    <tag k="teryt:rm" v="01"/>
    <tag k="teryt:simc" v="0584567"/>
    <tag k="teryt:stan_na" v="2009-01-01"/>
    <tag k="teryt:terc" v="3024032"/>
    <tag k="teryt:updated_by" v="teryt2osm combine.py v. 43"/>
    <tag k="wikipedia" v="Kaźmierz"/>
  </node>
  <node id="288883030" version="6" timestamp="2010-04-11T04:38:33Z" uid="20587" user="balrog-kun" changeset="4389130" lat="52.5129308" lon="16.5841435">
    <tag k="addr:postcode" v="64-530"/>
    <tag k="is_in" v="gmina Kaźmierz, powiat szamotulski, województwo wielkopolskie, Poland"/>
    <tag k="is_in:country" v="Poland"/>
    <tag k="is_in:county" v="powiat szamotulski"/>
    <tag k="is_in:municipality" v="gmina Kaźmierz"/>
    <tag k="is_in:province" v="województwo wielkopolskie"/>
    <tag k="name" v="Kaźmierz"/>
    <tag k="place" v="hamlet"/>
    <tag k="population" v="1536"/>
    <tag k="source:population" v="wikipedia"/>
    <tag k="teryt:rm" v="01"/>
    <tag k="teryt:simc" v="0584567"/>
    <tag k="teryt:stan_na" v="2009-01-01"/>
    <tag k="teryt:terc" v="3024032"/>
    <tag k="teryt:updated_by" v="teryt2osm combine.py v. 43"/>
    <tag k="wikipedia" v="Kaźmierz"/>
  </node>
  <node id="288883030" version="7" timestamp="2011-07-20T10:03:08Z" uid="345946" user="sasza" changeset="8776821" lat="52.5134218" lon="16.5844662">
    <tag k="addr:postcode" v="64-530"/>
    <tag k="is_in" v="gmina Kaźmierz, powiat szamotulski, województwo wielkopolskie, Poland"/>
    <tag k="is_in:country" v="Poland"/>
    <tag k="is_in:county" v="powiat szamotulski"/>
    <tag k="is_in:municipality" v="gmina Kaźmierz"/>
    <tag k="is_in:province" v="województwo wielkopolskie"/>
    <tag k="name" v="Kaźmierz"/>
    <tag k="place" v="hamlet"/>
    <tag k="population" v="3200"/>
    <tag k="source:population" v="wikipedia"/>
    <tag k="teryt:rm" v="01"/>
    <tag k="teryt:simc" v="0584567"/>
    <tag k="teryt:stan_na" v="2009-01-01"/>
    <tag k="teryt:terc" v="3024032"/>
    <tag k="teryt:updated_by" v="teryt2osm combine.py v. 43"/>
    <tag k="wikipedia" v="Kaźmierz"/>
  </node>
  <node id="288885069" version="5" timestamp="2009-05-01T20:53:26Z" uid="20587" user="balrog-kun" changeset="1042242" lat="52.5333051" lon="16.4990233">
    <tag k="addr:postcode" v="64-530"/>
    <tag k="created_by" v="Potlatch 0.10b"/>
    <tag k="is_in" v="gmina Kaźmierz, powiat szamotulski, województwo wielkopolskie, Poland"/>
    <tag k="is_in:country" v="Poland"/>
    <tag k="is_in:county" v="powiat szamotulski"/>
    <tag k="is_in:municipality" v="gmina Kaźmierz"/>
    <tag k="is_in:province" v="województwo wielkopolskie"/>
    <tag k="name" v="Sokolniki Wielkie"/>
    <tag k="place" v="hamlet"/>
    <tag k="teryt:rm" v="01"/>
    <tag k="teryt:simc" v="0584751"/>
    <tag k="teryt:stan_na" v="2009-01-01"/>
    <tag k="teryt:terc" v="3024032"/>
    <tag k="teryt:updated_by" v="teryt2osm combine.py v. 43"/>
    <tag k="wikipedia" v="pl:Sokolniki Wielkie"/>
  </node>
  <node id="288885069" version="6" timestamp="2010-04-11T04:38:33Z" uid="20587" user="balrog-kun" changeset="4389130" lat="52.5334146" lon="16.5000303">
    <tag k="addr:postcode" v="64-530"/>
    <tag k="is_in" v="gmina Kaźmierz, powiat szamotulski, województwo wielkopolskie, Poland"/>
    <tag k="is_in:country" v="Poland"/>
    <tag k="is_in:county" v="powiat szamotulski"/>
    <tag k="is_in:municipality" v="gmina Kaźmierz"/>
    <tag k="is_in:province" v="województwo wielkopolskie"/>
    <tag k="name" v="Sokolniki Wielkie"/>
    <tag k="place" v="hamlet"/>
    <tag k="teryt:rm" v="01"/>
    <tag k="teryt:simc" v="0584751"/>
    <tag k="teryt:stan_na" v="2009-01-01"/>
    <tag k="teryt:terc" v="3024032"/>
    <tag k="teryt:updated_by" v="teryt2osm combine.py v. 43"/>
    <tag k="wikipedia" v="pl:Sokolniki Wielkie"/>
  </node>
  <node id="288885295" version="5" timestamp="2009-05-01T20:53:46Z" uid="20587" user="balrog-kun" changeset="1042242" lat="52.5363332" lon="16.4664076">
    <tag k="addr:postcode" v="64-530"/>
    <tag k="created_by" v="Potlatch 0.10b"/>
    <tag k="is_in" v="gmina Kaźmierz, powiat szamotulski, województwo wielkopolskie, Poland"/>
    <tag k="is_in:country" v="Poland"/>
    <tag k="is_in:county" v="powiat szamotulski"/>
    <tag k="is_in:municipality" v="gmina Kaźmierz"/>
    <tag k="is_in:province" v="województwo wielkopolskie"/>
    <tag k="name" v="Wierzchaczewo"/>
    <tag k="place" v="hamlet"/>
    <tag k="teryt:rm" v="01"/>
    <tag k="teryt:simc" v="0584774"/>
    <tag k="teryt:stan_na" v="2009-01-01"/>
    <tag k="teryt:terc" v="3024032"/>
    <tag k="teryt:updated_by" v="teryt2osm combine.py v. 43"/>
    <tag k="wikipedia" v="pl:Wierzchaczewo"/>
  </node>
  <node id="288885295" version="6" timestamp="2010-04-11T04:38:33Z" uid="20587" user="balrog-kun" changeset="4389130" lat="52.5358522" lon="16.4706803">
    <tag k="addr:postcode" v="64-530"/>
    <tag k="is_in" v="gmina Kaźmierz, powiat szamotulski, województwo wielkopolskie, Poland"/>
    <tag k="is_in:country" v="Poland"/>
    <tag k="is_in:county" v="powiat szamotulski"/>
    <tag k="is_in:municipality" v="gmina Kaźmierz"/>
    <tag k="is_in:province" v="województwo wielkopolskie"/>
    <tag k="name" v="Wierzchaczewo"/>
    <tag k="place" v="hamlet"/>
    <tag k="teryt:rm" v="01"/>
    <tag k="teryt:simc" v="0584774"/>
    <tag k="teryt:stan_na" v="2009-01-01"/>
    <tag k="teryt:terc" v="3024032"/>
    <tag k="teryt:updated_by" v="teryt2osm combine.py v. 43"/>
    <tag k="wikipedia" v="pl:Wierzchaczewo"/>
  </node>
  <node id="288885394" version="2" timestamp="2008-09-14T14:29:35Z" uid="6975" user="ulfl" changeset="640534" lat="54.8001394" lon="9.3908598">
    <tag k="amenity" v="townhall"/>
  </node>
  <node id="288885900" version="1" timestamp="2008-08-17T18:53:18Z" uid="16579" user="bjk" changeset="296795" lat="50.9349575" lon="7.0707058"/>
  <node id="288885900" version="2" timestamp="2012-01-15T15:01:50Z" uid="116044" user="berndw" changeset="10398863" lat="50.9349575" lon="7.0707058"/>
  <node id="288885902" version="1" timestamp="2008-08-17T18:53:18Z" uid="16579" user="bjk" changeset="296795" lat="50.9351644" lon="7.0710576"/>
  <node id="288885902" version="2" timestamp="2012-01-15T15:01:50Z" uid="116044" user="berndw" changeset="10398863" lat="50.9351644" lon="7.0710576"/>
  <node id="288885905" version="1" timestamp="2008-08-17T18:53:18Z" uid="16579" user="bjk" changeset="296795" lat="50.9358784" lon="7.0716371"/>
  <node id="288885905" version="2" timestamp="2012-01-15T15:01:50Z" uid="116044" user="berndw" changeset="10398863" lat="50.9358784" lon="7.0716371"/>
  <node id="288885907" version="1" timestamp="2008-08-17T18:53:19Z" uid="16579" user="bjk" changeset="296795" lat="50.9367828" lon="7.0725105"/>
  <node id="288885907" version="2" timestamp="2012-01-15T15:01:50Z" uid="116044" user="berndw" changeset="10398863" lat="50.9367828" lon="7.0725105"/>
  <node id="288885910" version="1" timestamp="2008-08-17T18:53:19Z" uid="16579" user="bjk" changeset="296795" lat="50.9384755" lon="7.0732202"/>
  <node id="288885910" version="2" timestamp="2012-01-15T15:01:50Z" uid="116044" user="berndw" changeset="10398863" lat="50.9384755" lon="7.0732202"/>
  <node id="288885912" version="1" timestamp="2008-08-17T18:53:19Z" uid="16579" user="bjk" changeset="296795" lat="50.9390239" lon="7.0735616"/>
  <node id="288885912" version="2" timestamp="2012-01-15T15:01:50Z" uid="116044" user="berndw" changeset="10398863" lat="50.9390239" lon="7.0735616"/>
  <node id="288885914" version="1" timestamp="2008-08-17T18:53:19Z" uid="16579" user="bjk" changeset="296795" lat="50.9400513" lon="7.0741847"/>
  <node id="288885914" version="2" timestamp="2012-01-15T15:01:24Z" uid="116044" user="berndw" changeset="10398863" lat="50.9400468" lon="7.0741817"/>
  <node id="288885916" version="1" timestamp="2008-08-17T18:53:19Z" uid="16579" user="bjk" changeset="296795" lat="50.9403465" lon="7.0742682"/>
  <node id="288885916" version="2" timestamp="2012-01-15T15:01:24Z" uid="116044" user="berndw" changeset="10398863" lat="50.940342" lon="7.0742652"/>
  <node id="288885919" version="1" timestamp="2008-08-17T18:53:20Z" uid="16579" user="bjk" changeset="296795" lat="50.9407703" lon="7.0743277"/>
  <node id="288885919" version="2" timestamp="2012-01-15T15:01:50Z" uid="116044" user="berndw" changeset="10398863" lat="50.9407703" lon="7.0743277"/>
  <node id="288885922" version="1" timestamp="2008-08-17T18:53:20Z" uid="16579" user="bjk" changeset="296795" lat="50.9410766" lon="7.0743595"/>
  <node id="288885922" version="2" timestamp="2012-01-15T15:01:50Z" uid="116044" user="berndw" changeset="10398863" lat="50.9410766" lon="7.0743595"/>
  <node id="288885924" version="1" timestamp="2008-08-17T18:53:20Z" uid="16579" user="bjk" changeset="296795" lat="50.9411521" lon="7.0743684"/>
  <node id="288885924" version="2" timestamp="2012-01-15T15:01:50Z" uid="116044" user="berndw" changeset="10398863" lat="50.9411521" lon="7.0743684"/>
  <node id="288885927" version="1" timestamp="2008-08-17T18:53:20Z" uid="16579" user="bjk" changeset="296795" lat="50.9411743" lon="7.0743684"/>
  <node id="288885927" version="2" timestamp="2012-01-15T15:01:50Z" uid="116044" user="berndw" changeset="10398863" lat="50.9411743" lon="7.0743684"/>
  <node id="288885930" version="1" timestamp="2008-08-17T18:53:20Z" uid="16579" user="bjk" changeset="296795" lat="50.9395764" lon="7.0739185"/>
  <node id="288885930" version="2" timestamp="2012-01-15T15:01:24Z" uid="116044" user="berndw" changeset="10398863" lat="50.9395719" lon="7.0739155"/>
  <node id="288885931" version="1" timestamp="2008-08-17T18:53:20Z" uid="16579" user="bjk" changeset="296795" lat="50.9332436" lon="7.0641418"/>
  <node id="288885931" version="2" timestamp="2012-01-21T17:33:00Z" uid="116044" user="berndw" changeset="10457785" lat="50.9332436" lon="7.0641418"/>
  <node id="288885935" version="1" timestamp="2008-08-17T18:53:20Z" uid="16579" user="bjk" changeset="296795" lat="50.933585" lon="7.0652604"/>
  <node id="288885935" version="2" timestamp="2012-01-21T17:33:01Z" uid="116044" user="berndw" changeset="10457785" lat="50.933585" lon="7.0652604"/>
  <node id="288885936" version="1" timestamp="2008-08-17T18:53:20Z" uid="16579" user="bjk" changeset="296795" lat="50.9339554" lon="7.0666622"/>
  <node id="288885936" version="2" timestamp="2012-01-21T17:33:01Z" uid="116044" user="berndw" changeset="10457785" lat="50.9339554" lon="7.0666622"/>
  <node id="288885939" version="1" timestamp="2008-08-17T18:53:21Z" uid="16579" user="bjk" changeset="296795" lat="50.9342532" lon="7.067955"/>
  <node id="288885939" version="2" timestamp="2012-01-21T17:33:01Z" uid="116044" user="berndw" changeset="10457785" lat="50.9342532" lon="7.067955"/>
  <node id="288885941" version="1" timestamp="2008-08-17T18:53:21Z" uid="16579" user="bjk" changeset="296795" lat="50.9345002" lon="7.069168"/>
  <node id="288885941" version="2" timestamp="2012-01-21T17:33:01Z" uid="116044" user="berndw" changeset="10457785" lat="50.9345002" lon="7.069168"/>
  <node id="288885945" version="1" timestamp="2008-08-17T18:53:21Z" uid="16579" user="bjk" changeset="296795" lat="50.9346018" lon="7.0698145"/>
  <node id="288885945" version="2" timestamp="2012-01-15T15:01:24Z" uid="116044" user="berndw" changeset="10398863" lat="50.9346477" lon="7.0697674"/>
  <node id="288885946" version="1" timestamp="2008-08-17T18:53:21Z" uid="16579" user="bjk" changeset="296795" lat="50.9347398" lon="7.0702212"/>
  <node id="288885946" version="2" timestamp="2012-01-15T15:01:24Z" uid="116044" user="berndw" changeset="10398863" lat="50.9347877" lon="7.0701859"/>
  <node id="288885949" version="1" timestamp="2008-08-17T18:53:21Z" uid="16579" user="bjk" changeset="296795" lat="50.934827" lon="7.0703737"/>
  <node id="288885949" version="2" timestamp="2009-06-24T20:19:25Z" uid="45059" user="donDH" changeset="1616873" lat="50.9348391" lon="7.0704192"/>
  <node id="288885949" version="3" timestamp="2012-01-15T15:01:24Z" uid="116044" user="berndw" changeset="10398863" lat="50.9348547" lon="7.0703831"/>
  <node id="288886632" version="1" timestamp="2008-08-17T18:55:02Z" uid="8619" user="cetest" changeset="295799" lat="51.7980033" lon="4.5230251">
    <tag k="name" v="-"/>
    <tag k="tourism" v="picnic_site"/>
  </node>
  <node id="288886637" version="1" timestamp="2008-08-17T18:55:03Z" uid="8619" user="cetest" changeset="295799" lat="51.7970491" lon="4.531769">
    <tag k="amenity" v="place_of_worship"/>
    <tag k="name" v="St Anthoniepolder"/>
  </node>
  <node id="288886637" version="2" timestamp="2010-09-05T06:24:08Z" uid="51045" user="Geogast" changeset="5684568" lat="51.7970491" lon="4.531769">
    <tag k="amenity" v="place_of_worship"/>
    <tag k="name" v="St Anthoniepolder"/>
    <tag k="religion" v="christian"/>
  </node>
  <node id="288886637" version="3" timestamp="2011-05-11T16:54:07Z" uid="334075" user="eggie" changeset="8114020" lat="51.7970491" lon="4.531769">
    <tag k="amenity" v="place_of_worship"/>
    <tag k="name" v="Herv. Kerk"/>
    <tag k="religion" v="christian"/>
  </node>
  <node id="288886637" version="4" timestamp="2012-02-01T10:34:44Z" uid="334075" user="eggie" changeset="10557380" lat="51.7970491" lon="4.531769"/>
  <node id="288886639" version="1" timestamp="2008-08-17T18:55:04Z" uid="8619" user="cetest" changeset="295799" lat="51.7873321" lon="4.5570434">
    <tag k="name" v="Leeuwenburg"/>
    <tag k="shop" v="bicycle"/>
  </node>
  <node id="288886639" version="2" timestamp="2011-01-10T22:55:09Z" uid="334075" user="eggie" changeset="6931902" lat="51.7873223" lon="4.556877">
    <tag k="name" v="Leeuwenburg"/>
    <tag k="shop" v="bicycle"/>
  </node>
  <node id="288886639" version="3" timestamp="2011-05-11T22:39:53Z" uid="334075" user="eggie" changeset="8117315" lat="51.7872775" lon="4.5570668">
    <tag k="name" v="Leeuwenburg"/>
    <tag k="shop" v="bicycle"/>
  </node>
  <node id="288886641" version="1" timestamp="2008-08-17T18:55:04Z" uid="8619" user="cetest" changeset="295799" lat="51.7874128" lon="4.556185">
    <tag k="amenity" v="restaurant"/>
    <tag k="name" v="de Hoogt"/>
  </node>
  <node id="288886641" version="2" timestamp="2008-08-22T19:29:19Z" uid="8619" user="cetest" changeset="366522" lat="51.7874128" lon="4.556185">
    <tag k="amenity" v="cafe"/>
    <tag k="name" v="de Hoogt"/>
  </node>
  <node id="288889974" version="3" timestamp="2009-10-08T22:49:41Z" uid="179968" user="Ich_hasse_doitsche_OSM-Korinthenkacker" changeset="2788677" lat="53.0662549" lon="14.2722052">
    <tag k="amenity" v="restaurant"/>
    <tag k="name" v="Burger King"/>
  </node>
  <node id="288889974" version="4" timestamp="2010-04-23T23:46:55Z" uid="59991" user="mpeter89" changeset="4508524" lat="53.0661726" lon="14.2719444">
    <tag k="amenity" v="restaurant"/>
    <tag k="name" v="Burger King"/>
  </node>
  <node id="288889974" version="5" timestamp="2010-10-21T18:04:46Z" uid="290680" user="wheelmap_visitor" changeset="6121669" lat="53.0661726" lon="14.2719444">
    <tag k="amenity" v="restaurant"/>
    <tag k="name" v="Burger King"/>
    <tag k="wheelchair" v="yes"/>
  </node>
  <node id="288880904" version="8" timestamp="2012-06-26T20:43:34Z" uid="641600" user="piottr" changeset="12030755" lat="52.4789952" lon="16.6338623">
    <tag k="is_in" v="gmina Tarnowo Podgórne, powiat poznański, województwo wielkopolskie, Poland"/>
    <tag k="is_in:country" v="Poland"/>
    <tag k="is_in:county" v="powiat poznański"/>
    <tag k="is_in:municipality" v="gmina Tarnowo Podgórne"/>
    <tag k="is_in:province" v="województwo wielkopolskie"/>
    <tag k="name" v="Góra"/>
    <tag k="place" v="hamlet"/>
    <tag k="teryt:rm" v="01"/>
    <tag k="teryt:simc" v="0597328"/>
    <tag k="teryt:stan_na" v="2009-01-01"/>
    <tag k="teryt:terc" v="3021172"/>
    <tag k="teryt:updated_by" v="teryt2osm combine.py v. 43"/>
    <tag k="wikipedia" v="Góra, Gmina Tarnowo Podgórne"/>
  </node>
  <node id="288880904" version="9" timestamp="2012-06-28T14:37:36Z" uid="641600" user="piottr" changeset="12047492" lat="52.4789952" lon="16.6338623">
    <tag k="is_in" v="gmina Tarnowo Podgórne, powiat poznański, województwo wielkopolskie, Poland"/>
    <tag k="is_in:country" v="Poland"/>
    <tag k="is_in:county" v="powiat poznański"/>
    <tag k="is_in:municipality" v="gmina Tarnowo Podgórne"/>
    <tag k="is_in:province" v="województwo wielkopolskie"/>
    <tag k="name" v="Góra"/>
    <tag k="place" v="village"/>
    <tag k="teryt:rm" v="01"/>
    <tag k="teryt:simc" v="0597328"/>
    <tag k="teryt:stan_na" v="2009-01-01"/>
    <tag k="teryt:terc" v="3021172"/>
    <tag k="teryt:updated_by" v="teryt2osm combine.py v. 43"/>
    <tag k="wikipedia" v="Góra, Gmina Tarnowo Podgórne"/>
  </node>
  <node id="288886632" version="2" timestamp="2012-07-17T07:39:22Z" uid="722137" user="OSMF Redaction Account" changeset="12259646" lat="51.7980033" lon="4.5230251"/>
  <node id="288886639" version="4" timestamp="2012-07-17T07:39:12Z" uid="722137" user="OSMF Redaction Account" changeset="12259646" lat="51.7872775" lon="4.5570668"/>
  <node id="288886641" version="3" timestamp="2012-07-17T07:39:22Z" uid="722137" user="OSMF Redaction Account" changeset="12259646" lat="51.7874128" lon="4.556185"/>
  <node id="288889974" version="6" timestamp="2012-05-26T16:53:48Z" uid="689561" user="ctrl7osm" changeset="11708166" lat="53.0661726" lon="14.2719444">
    <tag k="amenity" v="fast_food"/>
    <tag k="name" v="Burger King"/>
    <tag k="wheelchair" v="yes"/>
  </node>
  <node id="288889974" version="7" timestamp="2012-05-26T17:20:41Z" uid="689561" user="ctrl7osm" changeset="11708332" lat="53.0661726" lon="14.2719444">
    <tag k="amenity" v="fast_food"/>
    <tag k="cuisine" v="burger"/>
    <tag k="name" v="Burger King"/>
    <tag k="wheelchair" v="yes"/>
  </node>
</osm>
