<?xml version='1.0' encoding='UTF-8'?>
<osm version="0.6" generator="libosmium/2.20.0">
  <node id="288980689" version="2" timestamp="2008-09-14T14:38:08Z" uid="6975" user="ulfl" changeset="640534" lat="51.5033682" lon="-0.2798649">
    <tag k="amenity" v="bicycle_parking"/>
    <tag k="capacity" v="4"/>
  </node>
  <node id="288981292" version="3" timestamp="2008-09-14T16:57:26Z" uid="6975" user="ulfl" changeset="640534" lat="51.1944454" lon="6.6670078">
    <tag k="FIXME" v="only rough\s drawn from memory only"/>
    <tag k="addr:city" v="Neuss"/>
    <tag k="addr:housenumber" v="81"/>
    <tag k="addr:postcode" v="41464"/>
    <tag k="fax" v="+49-2131-81377"/>
    <tag k="name" v="Blumen Küsters-Schlangen"/>
    <tag k="phone" v="+49-2131-83197"/>
    <tag k="shop" v="florist"/>
    <tag k="url:official" v="http://www.kuesters-schlangen.de/"/>
  </node>
  <node id="288981292" version="4" timestamp="2009-02-02T11:19:18Z" uid="70696" user="xybot" changeset="50224" lat="51.1944454" lon="6.6670078">
    <tag k="FIXME" v="only rough; drawn from memory only"/>
    <tag k="addr:city" v="Neuss"/>
    <tag k="addr:housenumber" v="81"/>
    <tag k="addr:postcode" v="41464"/>
    <tag k="fax" v="+49-2131-81377"/>
    <tag k="name" v="Blumen Küsters-Schlangen"/>
    <tag k="phone" v="+49-2131-83197"/>
    <tag k="shop" v="florist"/>
    <tag k="url:official" v="http://www.kuesters-schlangen.de/"/>
  </node>
  <node id="288981292" version="5" timestamp="2009-04-04T18:41:50Z" uid="81244" user="rurseekatze" changeset="173591" lat="51.1944463" lon="6.667004">
    <tag k="FIXME" v="only rough; drawn from memory only"/>
    <tag k="addr:city" v="Neuss"/>
    <tag k="addr:housenumber" v="81"/>
    <tag k="addr:postcode" v="41464"/>
    <tag k="created_by" v="Potlatch 0.10f"/>
    <tag k="fax" v="+49-2131-81377"/>
    <tag k="name" v="Blumen Küsters-Schlangen"/>
    <tag k="phone" v="+49-2131-83197"/>
    <tag k="shop" v="florist"/>
    <tag k="url:official" v="http://www.kuesters-schlangen.de/"/>
  </node>
  <node id="288981292" version="6" timestamp="2009-04-04T18:42:42Z" uid="81244" user="rurseekatze" changeset="173591" lat="51.1944463" lon="6.667004">
    <tag k="FIXME" v="only rough; drawn from memory only"/>
    <tag k="addr:city" v="Neuss"/>
    <tag k="addr:country" v="DE"/>
    <tag k="addr:housenumber" v="81"/>
    <tag k="addr:postcode" v="41464"/>
    <tag k="addr:street" v="Glehner Weg"/>
    <tag k="created_by" v="Potlatch 0.10f"/>
    <tag k="fax" v="+49-2131-81377"/>
    <tag k="name" v="Blumen Küsters-Schlangen"/>
    <tag k="phone" v="+49-2131-83197"/>
    <tag k="shop" v="florist"/>
    <tag k="url:official" v="http://www.kuesters-schlangen.de/"/>
  </node>
  <node id="288981292" version="7" timestamp="2009-04-06T19:07:42Z" uid="81244" user="rurseekatze" changeset="276046" lat="51.1945632" lon="6.6671709">
    <tag k="FIXME" v="only rough; drawn from memory only"/>
    <tag k="addr:city" v="Neuss"/>
    <tag k="addr:country" v="DE"/>
    <tag k="addr:housenumber" v="81"/>
    <tag k="addr:postcode" v="41464"/>
    <tag k="addr:street" v="Glehner Weg"/>
    <tag k="created_by" v="Potlatch 0.10f"/>
    <tag k="fax" v="+49-2131-81377"/>
    <tag k="name" v="Blumen Küsters-Schlangen"/>
    <tag k="phone" v="+49-2131-83197"/>
    <tag k="shop" v="florist"/>
    <tag k="url:official" v="http://www.kuesters-schlangen.de/"/>
  </node>
  <node id="288981292" version="8" timestamp="2009-08-03T20:31:33Z" uid="109925" user="WanMil" changeset="2030062" lat="51.1945632" lon="6.6671709">
    <tag k="FIXME" v="only rough; drawn from memory only"/>
    <tag k="addr:city" v="Neuss"/>
    <tag k="addr:country" v="DE"/>
    <tag k="addr:housenumber" v="81"/>
    <tag k="addr:postcode" v="41464"/>
    <tag k="addr:street" v="Glehner Weg"/>
    <tag k="fax" v="+49-2131-81377"/>
    <tag k="name" v="Blumen Küsters-Schlangen"/>
    <tag k="phone" v="+49-2131-83197"/>
    <tag k="shop" v="florist"/>
    <tag k="url:official" v="http://www.kuesters-schlangen.de/"/>
  </node>
  <node id="288981292" version="9" timestamp="2009-08-04T15:38:04Z" uid="81244" user="rurseekatze" changeset="2036823" lat="51.1945282" lon="6.6672044">
    <tag k="FIXME" v="only rough; drawn from memory only"/>
    <tag k="addr:city" v="Neuss"/>
    <tag k="addr:country" v="DE"/>
    <tag k="addr:housenumber" v="81"/>
    <tag k="addr:postcode" v="41464"/>
    <tag k="addr:street" v="Glehner Weg"/>
    <tag k="fax" v="+49-2131-81377"/>
    <tag k="name" v="Blumen Küsters-Schlangen"/>
    <tag k="phone" v="+49-2131-83197"/>
    <tag k="shop" v="florist"/>
    <tag k="url:official" v="http://www.kuesters-schlangen.de/"/>
  </node>
  <node id="288981292" version="10" timestamp="2009-10-05T13:07:43Z" uid="81244" user="rurseekatze" changeset="2749772" lat="51.1945282" lon="6.6672044">
    <tag k="FIXME" v="only rough; drawn from memory only"/>
    <tag k="addr:city" v="Neuss"/>
    <tag k="addr:country" v="DE"/>
    <tag k="addr:housenumber" v="81"/>
    <tag k="addr:postcode" v="41464"/>
    <tag k="addr:street" v="Glehner Weg"/>
    <tag k="fax" v="+49-2131-81377"/>
    <tag k="name" v="Blumen Küsters-Schlangen"/>
    <tag k="phone" v="+49-2131-83197"/>
    <tag k="shop" v="florist"/>
    <tag k="url" v="http://www.kuesters-schlangen.de/"/>
  </node>
  <node id="288981292" version="11" timestamp="2010-09-20T14:59:48Z" uid="65148" user="Pirat Michi" changeset="5829678" lat="51.1945282" lon="6.6672044">
    <tag k="FIXME" v="only rough; drawn from memory only"/>
    <tag k="addr:city" v="Neuss"/>
    <tag k="addr:country" v="DE"/>
    <tag k="addr:housenumber" v="81"/>
    <tag k="addr:postcode" v="41464"/>
    <tag k="addr:street" v="Glehner Weg"/>
    <tag k="fax" v="+49-2131-81377"/>
    <tag k="name" v="Blumen Küsters-Schlangen"/>
    <tag k="phone" v="+49-2131-83197"/>
    <tag k="shop" v="florist"/>
    <tag k="website" v="http://www.kuesters-schlangen.de/"/>
  </node>
  <node id="288981332" version="2" timestamp="2008-10-05T21:54:49Z" uid="1066" user="pavel" changeset="104383" lat="50.0954375" lon="14.3243052">
    <tag k="created_by" v="JOSM"/>
  </node>
  <node id="288981333" version="2" timestamp="2008-10-05T21:54:43Z" uid="1066" user="pavel" changeset="104383" lat="50.0970602" lon="14.324881">
    <tag k="created_by" v="JOSM"/>
  </node>
  <node id="288981334" version="2" timestamp="2008-10-05T21:54:51Z" uid="1066" user="pavel" changeset="104383" lat="50.0978653" lon="14.3250978">
    <tag k="created_by" v="JOSM"/>
  </node>
  <node id="288981334" version="3" timestamp="2011-05-12T07:58:08Z" uid="248441" user="Jandrs" changeset="8119420" lat="50.0978672" lon="14.325069"/>
  <node id="288981335" version="2" timestamp="2008-10-05T21:54:39Z" uid="1066" user="pavel" changeset="104383" lat="50.0999223" lon="14.3276094">
    <tag k="created_by" v="JOSM"/>
  </node>
  <node id="288981336" version="2" timestamp="2008-10-05T21:54:51Z" uid="1066" user="pavel" changeset="104383" lat="50.0987942" lon="14.3258107">
    <tag k="created_by" v="JOSM"/>
  </node>
  <node id="288981337" version="2" timestamp="2008-10-05T21:54:52Z" uid="1066" user="pavel" changeset="104383" lat="50.0985789" lon="14.3255527">
    <tag k="created_by" v="JOSM"/>
  </node>
  <node id="288981433" version="2" timestamp="2008-09-14T16:57:25Z" uid="6975" user="ulfl" changeset="640534" lat="51.1912654" lon="6.6771974">
    <tag k="FIXME" v="only rough\s drawn from memory only"/>
    <tag k="shop" v="florist"/>
  </node>
  <node id="288981433" version="3" timestamp="2009-01-08T15:24:33Z" uid="85245" user="Nobird" changeset="759076" lat="51.1912857" lon="6.6773769">
    <tag k="FIXME" v="only rough\s drawn from memory only"/>
    <tag k="shop" v="florist"/>
  </node>
  <node id="288981433" version="4" timestamp="2009-02-02T11:19:18Z" uid="70696" user="xybot" changeset="50224" lat="51.1912857" lon="6.6773769">
    <tag k="FIXME" v="only rough; drawn from memory only"/>
    <tag k="shop" v="florist"/>
  </node>
  <node id="288981433" version="5" timestamp="2009-04-05T08:04:40Z" uid="81244" user="rurseekatze" changeset="205635" lat="51.1912858" lon="6.6773844">
    <tag k="FIXME" v="only rough; drawn from memory only"/>
    <tag k="created_by" v="Potlatch 0.10f"/>
    <tag k="shop" v="florist"/>
  </node>
  <node id="288981433" version="6" timestamp="2009-08-03T20:31:33Z" uid="109925" user="WanMil" changeset="2030062" lat="51.1912858" lon="6.6773844">
    <tag k="FIXME" v="only rough; drawn from memory only"/>
    <tag k="shop" v="florist"/>
  </node>
  <node id="288981433" version="7" timestamp="2010-12-21T09:54:01Z" uid="141931" user="Sharlin" changeset="6723478" lat="51.1912497" lon="6.6774337">
    <tag k="FIXME" v="only rough; drawn from memory only"/>
    <tag k="shop" v="florist"/>
  </node>
  <node id="288981435" version="7" timestamp="2011-03-08T11:49:01Z" uid="4467" user="Rosscoe" changeset="7493210" lat="-38.0812286" lon="145.2986617"/>
  <node id="288981437" version="6" timestamp="2011-03-08T11:49:12Z" uid="4467" user="Rosscoe" changeset="7493210" lat="-38.0813801" lon="145.2987768"/>
  <node id="288981439" version="5" timestamp="2011-03-08T11:49:00Z" uid="4467" user="Rosscoe" changeset="7493210" lat="-38.0812419" lon="145.2988083"/>
  <node id="288981441" version="7" timestamp="2011-03-08T11:49:04Z" uid="4467" user="Rosscoe" changeset="7493210" lat="-38.081361" lon="145.2986423"/>
  <node id="288981453" version="4" timestamp="2011-03-08T11:49:07Z" uid="4467" user="Rosscoe" changeset="7493210" lat="-38.0809172" lon="145.2961205"/>
  <node id="288981455" version="4" timestamp="2011-03-08T11:49:18Z" uid="4467" user="Rosscoe" changeset="7493210" lat="-38.0810314" lon="145.2960896"/>
  <node id="288981618" version="2" timestamp="2008-09-14T16:30:53Z" uid="6975" user="ulfl" changeset="640534" lat="51.1840491" lon="6.6774256">
    <tag k="FIXME" v="only rough\s drawn from memory only"/>
    <tag k="shop" v="car"/>
  </node>
  <node id="288981618" version="3" timestamp="2008-11-22T05:49:27Z" uid="29765" user="Glg11" changeset="780575" lat="51.1840491" lon="6.6775714">
    <tag k="name" v="Mazda"/>
    <tag k="shop" v="car"/>
  </node>
  <node id="288981618" version="4" timestamp="2010-06-02T22:40:54Z" uid="141931" user="Sharlin" changeset="4888440" lat="51.1840686" lon="6.6774688">
    <tag k="addr:city" v="Neuss"/>
    <tag k="addr:country" v="DE"/>
    <tag k="addr:housenumber" v="188"/>
    <tag k="addr:postcode" v="41464"/>
    <tag k="addr:street" v="Jülicher Landstraße"/>
    <tag k="brand" v="Mazda"/>
    <tag k="fax" v="+49 2131 9414-16"/>
    <tag k="name" v="Mazda"/>
    <tag k="operator" v="K.H. Moors Automobile GmbH"/>
    <tag k="phone" v="+49 2131 9414-0"/>
    <tag k="shop" v="car"/>
    <tag k="website" v="http://www.moors-automobile.de/"/>
  </node>
  <node id="288981618" version="5" timestamp="2010-12-02T13:02:08Z" uid="81244" user="rurseekatze" changeset="6514396" lat="51.1840686" lon="6.6774688">
    <tag k="addr:city" v="Neuss"/>
    <tag k="addr:country" v="DE"/>
    <tag k="addr:housenumber" v="188"/>
    <tag k="addr:postcode" v="41464"/>
    <tag k="addr:street" v="Jülicher Landstraße"/>
    <tag k="brand" v="Mazda"/>
    <tag k="fax" v="+49 2131 9414-16"/>
    <tag k="name" v="Mazda"/>
    <tag k="operator" v="K.H. Moors Automobile GmbH"/>
    <tag k="phone" v="+49 2131 9414-0"/>
    <tag k="shop" v="car"/>
    <tag k="website" v="http://www.moors-automobile.de/"/>
  </node>
  <node id="288981822" version="3" timestamp="2008-09-29T23:47:26Z" uid="1066" user="pavel" changeset="720263" lat="50.1167343" lon="14.3273911">
    <tag k="is_in" v="Czech Republic, Europe"/>
  </node>
  <node id="288981822" version="4" timestamp="2008-10-19T01:40:43Z" uid="3516" user="BiIbo" changeset="431565" lat="50.1167343" lon="14.3273911"/>
  <node id="288981822" version="5" timestamp="2010-03-05T07:48:33Z" uid="84326" user="Mike Crash" changeset="4038552" lat="50.1167343" lon="14.3273911"/>
  <node id="288981823" version="3" timestamp="2008-09-30T00:10:19Z" uid="1066" user="pavel" changeset="720263" lat="50.1163514" lon="14.3261746">
    <tag k="is_in" v="Czech Republic, Europe"/>
  </node>
  <node id="288981823" version="4" timestamp="2008-10-19T01:40:42Z" uid="3516" user="BiIbo" changeset="431565" lat="50.1163514" lon="14.3261746"/>
  <node id="288981823" version="5" timestamp="2010-03-05T07:48:41Z" uid="84326" user="Mike Crash" changeset="4038552" lat="50.1163514" lon="14.3261746"/>
  <node id="288981824" version="3" timestamp="2008-09-29T22:58:43Z" uid="1066" user="pavel" changeset="720263" lat="50.1160527" lon="14.324452">
    <tag k="is_in" v="Czech Republic, Europe"/>
  </node>
  <node id="288981824" version="4" timestamp="2008-10-19T01:40:45Z" uid="3516" user="BiIbo" changeset="431565" lat="50.1160527" lon="14.324452"/>
  <node id="288981824" version="5" timestamp="2010-03-05T07:48:45Z" uid="84326" user="Mike Crash" changeset="4038552" lat="50.1160527" lon="14.324452"/>
  <node id="288981825" version="3" timestamp="2008-09-29T23:30:03Z" uid="1066" user="pavel" changeset="720263" lat="50.1153815" lon="14.3215532">
    <tag k="is_in" v="Czech Republic, Europe"/>
  </node>
  <node id="288981825" version="4" timestamp="2008-10-19T01:40:45Z" uid="3516" user="BiIbo" changeset="431565" lat="50.1153815" lon="14.3215532"/>
  <node id="288981825" version="5" timestamp="2010-03-05T07:48:42Z" uid="84326" user="Mike Crash" changeset="4038552" lat="50.1153815" lon="14.3215532"/>
  <node id="288981826" version="3" timestamp="2008-09-29T23:18:17Z" uid="1066" user="pavel" changeset="720263" lat="50.1151904" lon="14.3204465">
    <tag k="is_in" v="Czech Republic, Europe"/>
  </node>
  <node id="288981826" version="4" timestamp="2008-10-19T01:40:45Z" uid="3516" user="BiIbo" changeset="431565" lat="50.1151904" lon="14.3204465"/>
  <node id="288981826" version="5" timestamp="2010-03-05T07:48:43Z" uid="84326" user="Mike Crash" changeset="4038552" lat="50.1151904" lon="14.3204465"/>
  <node id="288981827" version="3" timestamp="2008-09-30T00:09:37Z" uid="1066" user="pavel" changeset="720263" lat="50.1154486" lon="14.3206755">
    <tag k="is_in" v="Czech Republic, Europe"/>
  </node>
  <node id="288981827" version="4" timestamp="2008-10-19T01:40:45Z" uid="3516" user="BiIbo" changeset="431565" lat="50.1154486" lon="14.3206755"/>
  <node id="288981827" version="5" timestamp="2010-03-05T07:46:11Z" uid="84326" user="Mike Crash" changeset="4038552" lat="50.1154486" lon="14.3206755"/>
  <node id="288981828" version="3" timestamp="2008-09-29T22:52:10Z" uid="1066" user="pavel" changeset="720263" lat="50.1167924" lon="14.3202861">
    <tag k="is_in" v="Czech Republic, Europe"/>
  </node>
  <node id="288981828" version="4" timestamp="2008-10-19T01:40:44Z" uid="3516" user="BiIbo" changeset="431565" lat="50.1167924" lon="14.3202861"/>
  <node id="288981828" version="5" timestamp="2010-03-05T07:48:07Z" uid="84326" user="Mike Crash" changeset="4038552" lat="50.1167924" lon="14.3202861"/>
  <node id="288981829" version="3" timestamp="2008-09-29T23:14:17Z" uid="1066" user="pavel" changeset="720263" lat="50.1183902" lon="14.3183698">
    <tag k="is_in" v="Czech Republic, Europe"/>
  </node>
  <node id="288981829" version="4" timestamp="2008-10-19T01:40:44Z" uid="3516" user="BiIbo" changeset="431565" lat="50.1183902" lon="14.3183698"/>
  <node id="288981829" version="5" timestamp="2010-03-05T07:48:06Z" uid="84326" user="Mike Crash" changeset="4038552" lat="50.1183902" lon="14.3183698"/>
  <node id="288981847" version="3" timestamp="2008-09-29T23:21:38Z" uid="1066" user="pavel" changeset="720263" lat="50.1161763" lon="14.3524942">
    <tag k="is_in" v="Czech Republic, Europe"/>
  </node>
  <node id="288981847" version="4" timestamp="2008-10-19T01:40:43Z" uid="3516" user="BiIbo" changeset="431565" lat="50.1161763" lon="14.3524942"/>
  <node id="288981847" version="5" timestamp="2010-03-05T07:48:45Z" uid="84326" user="Mike Crash" changeset="4038552" lat="50.1161763" lon="14.3524942"/>
  <node id="288981848" version="3" timestamp="2008-09-29T23:48:39Z" uid="1066" user="pavel" changeset="720263" lat="50.1164448" lon="14.3501956">
    <tag k="is_in" v="Czech Republic, Europe"/>
  </node>
  <node id="288981848" version="4" timestamp="2008-10-19T01:40:44Z" uid="3516" user="BiIbo" changeset="431565" lat="50.1164448" lon="14.3501956"/>
  <node id="288981848" version="5" timestamp="2010-03-05T07:48:46Z" uid="84326" user="Mike Crash" changeset="4038552" lat="50.1164448" lon="14.3501956"/>
  <node id="288981849" version="3" timestamp="2008-09-30T00:12:52Z" uid="1066" user="pavel" changeset="720263" lat="50.1164901" lon="14.3490415">
    <tag k="is_in" v="Czech Republic, Europe"/>
  </node>
  <node id="288981849" version="4" timestamp="2008-10-19T01:40:44Z" uid="3516" user="BiIbo" changeset="431565" lat="50.1164901" lon="14.3490415"/>
  <node id="288981849" version="5" timestamp="2010-03-05T07:48:33Z" uid="84326" user="Mike Crash" changeset="4038552" lat="50.1164901" lon="14.3490415"/>
  <node id="288981850" version="3" timestamp="2008-09-29T22:41:07Z" uid="1066" user="pavel" changeset="720263" lat="50.1164225" lon="14.3483092">
    <tag k="is_in" v="Czech Republic, Europe"/>
  </node>
  <node id="288981850" version="4" timestamp="2008-10-19T01:40:44Z" uid="3516" user="BiIbo" changeset="431565" lat="50.1164225" lon="14.3483092"/>
  <node id="288981850" version="5" timestamp="2010-03-05T07:48:06Z" uid="84326" user="Mike Crash" changeset="4038552" lat="50.1164225" lon="14.3483092"/>
  <node id="288981851" version="3" timestamp="2008-09-29T23:28:35Z" uid="1066" user="pavel" changeset="720263" lat="50.1164768" lon="14.3464023">
    <tag k="is_in" v="Czech Republic, Europe"/>
  </node>
  <node id="288981851" version="4" timestamp="2008-10-19T01:40:44Z" uid="3516" user="BiIbo" changeset="431565" lat="50.1164768" lon="14.3464023"/>
  <node id="288981851" version="5" timestamp="2010-03-05T07:48:08Z" uid="84326" user="Mike Crash" changeset="4038552" lat="50.1164768" lon="14.3464023"/>
  <node id="288981852" version="3" timestamp="2008-09-29T23:55:34Z" uid="1066" user="pavel" changeset="720263" lat="50.1167364" lon="14.3431636">
    <tag k="is_in" v="Czech Republic, Europe"/>
  </node>
  <node id="288981852" version="4" timestamp="2008-10-19T01:40:43Z" uid="3516" user="BiIbo" changeset="431565" lat="50.1167364" lon="14.3431636"/>
  <node id="288981852" version="5" timestamp="2010-03-05T07:46:07Z" uid="84326" user="Mike Crash" changeset="4038552" lat="50.1167364" lon="14.3431636"/>
  <node id="288981853" version="3" timestamp="2008-09-30T00:18:16Z" uid="1066" user="pavel" changeset="720263" lat="50.1165319" lon="14.3411337">
    <tag k="is_in" v="Czech Republic, Europe"/>
  </node>
  <node id="288981853" version="4" timestamp="2008-10-19T01:40:43Z" uid="3516" user="BiIbo" changeset="431565" lat="50.1165319" lon="14.3411337"/>
  <node id="288981853" version="5" timestamp="2010-03-05T07:48:40Z" uid="84326" user="Mike Crash" changeset="4038552" lat="50.1165319" lon="14.3411337"/>
  <node id="288981856" version="3" timestamp="2008-09-29T23:35:23Z" uid="1066" user="pavel" changeset="720263" lat="50.1165035" lon="14.3331482">
    <tag k="is_in" v="Czech Republic, Europe"/>
  </node>
  <node id="288981856" version="4" timestamp="2008-10-19T01:40:43Z" uid="3516" user="BiIbo" changeset="431565" lat="50.1165035" lon="14.3331482"/>
  <node id="288981856" version="5" timestamp="2010-03-05T07:48:06Z" uid="84326" user="Mike Crash" changeset="4038552" lat="50.1165035" lon="14.3331482"/>
  <node id="288982442" version="3" timestamp="2010-02-23T07:30:48Z" uid="9719" user="dvaey" changeset="3949850" lat="-35.3801833" lon="149.0545688"/>
  <node id="288982443" version="3" timestamp="2010-02-23T07:30:48Z" uid="9719" user="dvaey" changeset="3949850" lat="-35.3801349" lon="149.0545125"/>
  <node id="288982444" version="3" timestamp="2010-02-23T07:30:47Z" uid="9719" user="dvaey" changeset="3949850" lat="-35.3801221" lon="149.0545507"/>
  <node id="288982449" version="3" timestamp="2010-02-23T07:30:47Z" uid="9719" user="dvaey" changeset="3949850" lat="-35.3800663" lon="149.0545091"/>
  <node id="288982450" version="3" timestamp="2010-02-23T07:30:47Z" uid="9719" user="dvaey" changeset="3949850" lat="-35.3799909" lon="149.0544823"/>
  <node id="288982451" version="3" timestamp="2010-02-23T07:30:47Z" uid="9719" user="dvaey" changeset="3949850" lat="-35.3799253" lon="149.0544997"/>
  <node id="288982452" version="3" timestamp="2010-02-23T07:30:47Z" uid="9719" user="dvaey" changeset="3949850" lat="-35.3798542" lon="149.0545574"/>
  <node id="288982453" version="3" timestamp="2010-02-23T07:30:47Z" uid="9719" user="dvaey" changeset="3949850" lat="-35.3797372" lon="149.0546271"/>
  <node id="288982738" version="2" timestamp="2009-06-29T09:29:51Z" uid="74617" user="JohnSmith" changeset="1674932" lat="-26.3469968" lon="152.6765105"/>
  <node id="288982739" version="2" timestamp="2009-06-29T09:29:51Z" uid="74617" user="JohnSmith" changeset="1674932" lat="-26.3469987" lon="152.6760649"/>
  <node id="288983013" version="2" timestamp="2010-02-22T19:01:41Z" uid="9719" user="dvaey" changeset="3945949" lat="-35.3832551" lon="149.0511385">
    <tag k="amenity" v="hospital"/>
    <tag k="name" v="Child Health Centre"/>
  </node>
  <node id="288983017" version="2" timestamp="2010-02-25T09:08:29Z" uid="9719" user="dvaey" changeset="3969771" lat="-35.3798346" lon="149.0581946">
    <tag k="amenity" v="pub"/>
    <tag k="name" v="Kambah Inn"/>
  </node>
  <node id="288983019" version="3" timestamp="2009-12-19T09:30:02Z" uid="9719" user="dvaey" changeset="3405490" lat="-35.3797939" lon="149.0584143">
    <tag k="amenity" v="toilets"/>
    <tag k="created_by" v="JOSM"/>
  </node>
  <node id="288983446" version="2" timestamp="2009-05-12T10:44:55Z" uid="99207" user="Lar Kiesel" changeset="1162619" lat="33.5180038" lon="-82.0373359"/>
  <node id="288983446" version="3" timestamp="2009-05-12T10:58:42Z" uid="99207" user="Lar Kiesel" changeset="1162619" lat="33.5180038" lon="-82.0373359"/>
  <node id="288983448" version="2" timestamp="2009-05-12T10:44:56Z" uid="99207" user="Lar Kiesel" changeset="1162619" lat="33.5199359" lon="-82.0347266"/>
  <node id="288983448" version="3" timestamp="2009-05-12T10:58:42Z" uid="99207" user="Lar Kiesel" changeset="1162619" lat="33.5199359" lon="-82.0347266"/>
  <node id="288983450" version="2" timestamp="2009-05-12T10:46:03Z" uid="99207" user="Lar Kiesel" changeset="1162619" lat="33.5209162" lon="-82.0330443"/>
  <node id="288983450" version="3" timestamp="2009-05-12T10:58:42Z" uid="99207" user="Lar Kiesel" changeset="1162619" lat="33.5209162" lon="-82.0330443"/>
  <node id="288984246" version="2" timestamp="2009-05-23T21:17:39Z" uid="99207" user="Lar Kiesel" changeset="1299474" lat="33.5117656" lon="-82.0421936"/>
  <node id="288984247" version="2" timestamp="2009-05-23T21:17:39Z" uid="99207" user="Lar Kiesel" changeset="1299474" lat="33.5115366" lon="-82.041979"/>
  <node id="288984248" version="2" timestamp="2009-05-23T21:17:39Z" uid="99207" user="Lar Kiesel" changeset="1299474" lat="33.5113577" lon="-82.0419189"/>
  <node id="288984249" version="2" timestamp="2009-05-23T21:17:39Z" uid="99207" user="Lar Kiesel" changeset="1299474" lat="33.5111859" lon="-82.0419103"/>
  <node id="288984250" version="2" timestamp="2009-05-23T21:17:39Z" uid="99207" user="Lar Kiesel" changeset="1299474" lat="33.5109855" lon="-82.0419532"/>
  <node id="288984251" version="2" timestamp="2009-05-23T21:17:39Z" uid="99207" user="Lar Kiesel" changeset="1299474" lat="33.5108281" lon="-82.0420562"/>
  <node id="288984253" version="2" timestamp="2009-05-23T21:17:39Z" uid="99207" user="Lar Kiesel" changeset="1299474" lat="33.5105848" lon="-82.0424167"/>
  <node id="288984263" version="2" timestamp="2009-05-12T10:53:11Z" uid="99207" user="Lar Kiesel" changeset="1162619" lat="33.5116636" lon="-82.0431809"/>
  <node id="288984263" version="3" timestamp="2009-05-16T10:02:24Z" uid="99207" user="Lar Kiesel" changeset="1208271" lat="33.5117566" lon="-82.0430773"/>
  <node id="288984263" version="4" timestamp="2009-08-21T13:51:40Z" uid="135163" user="MikeN" changeset="2224365" lat="33.5117701" lon="-82.0431314"/>
  <node id="288984265" version="2" timestamp="2009-05-12T10:45:30Z" uid="99207" user="Lar Kiesel" changeset="1162619" lat="33.5139249" lon="-82.0409751"/>
  <node id="288984265" version="3" timestamp="2009-05-12T10:54:14Z" uid="99207" user="Lar Kiesel" changeset="1162619" lat="33.5139392" lon="-82.0410094"/>
  <node id="288984265" version="4" timestamp="2009-05-12T10:55:03Z" uid="99207" user="Lar Kiesel" changeset="1162619" lat="33.5139392" lon="-82.0410094"/>
  <node id="288984266" version="2" timestamp="2009-05-12T10:45:30Z" uid="99207" user="Lar Kiesel" changeset="1162619" lat="33.5160002" lon="-82.0389667"/>
  <node id="288984266" version="3" timestamp="2009-05-12T10:54:14Z" uid="99207" user="Lar Kiesel" changeset="1162619" lat="33.5160002" lon="-82.0389667"/>
  <node id="288984266" version="4" timestamp="2009-05-12T10:55:03Z" uid="99207" user="Lar Kiesel" changeset="1162619" lat="33.5160002" lon="-82.0389667"/>
  <node id="288984268" version="2" timestamp="2009-05-12T10:44:33Z" uid="99207" user="Lar Kiesel" changeset="1162619" lat="33.5171594" lon="-82.0382113"/>
  <node id="288984268" version="3" timestamp="2009-05-12T10:58:42Z" uid="99207" user="Lar Kiesel" changeset="1162619" lat="33.5171594" lon="-82.0382113"/>
  <node id="288984270" version="2" timestamp="2009-05-12T10:44:55Z" uid="99207" user="Lar Kiesel" changeset="1162619" lat="33.5193634" lon="-82.0356021"/>
  <node id="288984270" version="3" timestamp="2009-05-12T10:58:42Z" uid="99207" user="Lar Kiesel" changeset="1162619" lat="33.5193634" lon="-82.0356021"/>
  <node id="288984277" version="2" timestamp="2009-05-12T10:54:14Z" uid="99207" user="Lar Kiesel" changeset="1162619" lat="33.5114608" lon="-82.0432516"/>
  <node id="288984277" version="3" timestamp="2009-05-17T12:55:12Z" uid="99207" user="Lar Kiesel" changeset="1221761" lat="33.5114704" lon="-82.0432661"/>
  <node id="288984277" version="4" timestamp="2009-08-21T13:51:40Z" uid="135163" user="MikeN" changeset="2224365" lat="33.5114524" lon="-82.0432228"/>
  <node id="288984286" version="2" timestamp="2009-05-23T21:17:39Z" uid="99207" user="Lar Kiesel" changeset="1299474" lat="33.5106062" lon="-82.0430004"/>
  <node id="288984287" version="2" timestamp="2009-05-12T10:54:14Z" uid="99207" user="Lar Kiesel" changeset="1162619" lat="33.5129946" lon="-82.0419192"/>
  <node id="288984287" version="3" timestamp="2009-05-12T10:55:03Z" uid="99207" user="Lar Kiesel" changeset="1162619" lat="33.5129946" lon="-82.0419192"/>
  <node id="288986817" version="5" timestamp="2010-07-22T03:24:47Z" uid="4467" user="Rosscoe" changeset="5283817" lat="-30.3307434" lon="152.7124547"/>
  <node id="288986835" version="2" timestamp="2009-06-04T09:56:25Z" uid="74617" user="JohnSmith" changeset="1419837" lat="-30.480562" lon="151.624697">
    <tag k="railway" v="level_crossing"/>
  </node>
  <node id="288986836" version="2" timestamp="2009-06-04T09:58:45Z" uid="74617" user="JohnSmith" changeset="1419852" lat="-30.5197924" lon="151.6561183">
    <tag k="railway" v="level_crossing"/>
  </node>
  <node id="288986836" version="3" timestamp="2011-02-01T14:39:14Z" uid="4467" user="Rosscoe" changeset="7155308" lat="-30.5198264" lon="151.6561057">
    <tag k="railway" v="level_crossing"/>
  </node>
  <node id="288986837" version="2" timestamp="2009-06-04T09:58:12Z" uid="74617" user="JohnSmith" changeset="1419847" lat="-30.5457436" lon="151.664097">
    <tag k="railway" v="level_crossing"/>
  </node>
  <node id="288986837" version="3" timestamp="2010-11-03T13:06:40Z" uid="67896" user="mrpulley" changeset="6275817" lat="-30.5449955" lon="151.6649245">
    <tag k="railway" v="level_crossing"/>
  </node>
  <node id="288986837" version="4" timestamp="2011-02-14T11:00:46Z" uid="22094" user="Chadzopkyo" changeset="7284736" lat="-30.545016" lon="151.6649484">
    <tag k="railway" v="level_crossing"/>
  </node>
  <node id="288986838" version="2" timestamp="2009-06-04T11:46:21Z" uid="74617" user="JohnSmith" changeset="1420334" lat="-30.5655636" lon="151.6523391">
    <tag k="railway" v="level_crossing"/>
  </node>
  <node id="288986838" version="3" timestamp="2010-11-03T13:06:40Z" uid="67896" user="mrpulley" changeset="6275817" lat="-30.5657832" lon="151.6523047">
    <tag k="railway" v="level_crossing"/>
    <tag k="source" v="survey"/>
  </node>
  <node id="288986839" version="2" timestamp="2009-06-04T09:57:32Z" uid="74617" user="JohnSmith" changeset="1419837" lat="-30.4907292" lon="151.6275369">
    <tag k="railway" v="level_crossing"/>
  </node>
  <node id="288986839" version="3" timestamp="2009-06-04T11:14:31Z" uid="74617" user="JohnSmith" changeset="1420092" lat="-30.4907292" lon="151.6275369">
    <tag k="railway" v="level_crossing"/>
  </node>
  <node id="288986851" version="2" timestamp="2011-02-01T10:46:06Z" uid="4467" user="Rosscoe" changeset="7153417" lat="-30.5139955" lon="151.6655711"/>
  <node id="288987091" version="2" timestamp="2009-05-12T10:46:03Z" uid="99207" user="Lar Kiesel" changeset="1162619" lat="33.5206085" lon="-82.0336366"/>
  <node id="288987091" version="3" timestamp="2009-05-12T10:58:42Z" uid="99207" user="Lar Kiesel" changeset="1162619" lat="33.5206085" lon="-82.0336366"/>
  <node id="288987092" version="2" timestamp="2009-05-12T10:46:32Z" uid="99207" user="Lar Kiesel" changeset="1162619" lat="33.5235494" lon="-82.0270877"/>
  <node id="288987092" version="3" timestamp="2009-05-12T10:58:42Z" uid="99207" user="Lar Kiesel" changeset="1162619" lat="33.5235494" lon="-82.0270877"/>
  <node id="288987095" version="2" timestamp="2009-05-12T10:44:33Z" uid="99207" user="Lar Kiesel" changeset="1162619" lat="33.5173383" lon="-82.0380225"/>
  <node id="288987095" version="3" timestamp="2009-05-12T10:58:42Z" uid="99207" user="Lar Kiesel" changeset="1162619" lat="33.5173383" lon="-82.0380225"/>
  <node id="288987096" version="2" timestamp="2009-05-12T10:46:33Z" uid="99207" user="Lar Kiesel" changeset="1162619" lat="33.5249876" lon="-82.0240836"/>
  <node id="288987096" version="3" timestamp="2009-05-12T10:46:53Z" uid="99207" user="Lar Kiesel" changeset="1162619" lat="33.5250377" lon="-82.0240664"/>
  <node id="288987096" version="4" timestamp="2009-05-12T10:58:42Z" uid="99207" user="Lar Kiesel" changeset="1162619" lat="33.5250377" lon="-82.0240664"/>
  <node id="288987295" version="2" timestamp="2009-05-12T10:45:30Z" uid="99207" user="Lar Kiesel" changeset="1162619" lat="33.5165798" lon="-82.038383"/>
  <node id="288987295" version="3" timestamp="2009-05-12T10:54:14Z" uid="99207" user="Lar Kiesel" changeset="1162619" lat="33.5165798" lon="-82.038383"/>
  <node id="288987295" version="4" timestamp="2009-05-12T10:55:03Z" uid="99207" user="Lar Kiesel" changeset="1162619" lat="33.5165798" lon="-82.038383"/>
  <node id="288981435" version="8" timestamp="2012-07-19T08:03:28Z" uid="722137" user="OSMF Redaction Account" changeset="12313058" lat="-38.0812431" lon="145.2986584"/>
  <node id="288981437" version="7" timestamp="2012-07-19T08:03:27Z" uid="722137" user="OSMF Redaction Account" changeset="12313058" lat="-38.0813946" lon="145.2987735"/>
  <node id="288981439" version="6" timestamp="2012-07-19T08:03:28Z" uid="722137" user="OSMF Redaction Account" changeset="12313058" lat="-38.0812564" lon="145.298805"/>
  <node id="288981441" version="8" timestamp="2012-07-19T08:03:27Z" uid="722137" user="OSMF Redaction Account" changeset="12313058" lat="-38.0813755" lon="145.298639"/>
  <node id="288981453" version="5" timestamp="2012-07-19T08:03:28Z" uid="722137" user="OSMF Redaction Account" changeset="12313058" lat="-38.0809213" lon="145.2961414"/>
  <node id="288981455" version="5" timestamp="2012-07-19T08:03:28Z" uid="722137" user="OSMF Redaction Account" changeset="12313058" lat="-38.0810355" lon="145.2961105"/>
  <node id="288982444" version="4" timestamp="2012-07-19T11:50:17Z" uid="722137" user="OSMF Redaction Account" changeset="12322854" lat="-35.3800707" lon="149.0544687"/>
  <node id="288982449" version="4" timestamp="2012-07-19T11:50:18Z" uid="722137" user="OSMF Redaction Account" changeset="12322854" lat="-35.3800009" lon="149.054452"/>
  <node id="288982450" version="4" timestamp="2012-07-19T11:50:18Z" uid="722137" user="OSMF Redaction Account" changeset="12322854" lat="-35.3799321" lon="149.0544651"/>
  <node id="288982451" version="4" timestamp="2012-07-19T11:50:18Z" uid="722137" user="OSMF Redaction Account" changeset="12322854" lat="-35.3798781" lon="149.0544855"/>
  <node id="288982452" version="4" timestamp="2012-07-19T11:50:18Z" uid="722137" user="OSMF Redaction Account" changeset="12322854" lat="-35.3798361" lon="149.0545308"/>
  <node id="288982453" version="4" timestamp="2012-07-19T11:50:19Z" uid="722137" user="OSMF Redaction Account" changeset="12322854" lat="-35.379774" lon="149.0545737"/>
  <node id="288982738" version="3" timestamp="2012-07-19T13:50:56Z" uid="722137" user="OSMF Redaction Account" changeset="12330465" lat="-26.3470332" lon="152.6764202"/>
  <node id="288982738" version="4" timestamp="2012-07-29T12:05:54Z" uid="349913" user="Peter W34" changeset="12534116" lat="-26.3469531" lon="152.6766287"/>
  <node id="288982739" version="3" timestamp="2012-07-19T13:50:56Z" uid="722137" user="OSMF Redaction Account" changeset="12330465" lat="-26.3470392" lon="152.6762094"/>
  <node id="288982739" version="4" timestamp="2012-07-29T12:06:07Z" uid="349913" user="Peter W34" changeset="12534116" lat="-26.3470392" lon="152.6762094"/>
  <node id="288983013" version="3" timestamp="2012-07-19T11:50:15Z" uid="722137" user="OSMF Redaction Account" changeset="12322854" lat="-35.3825392" lon="149.0518456">
    <tag k="amenity" v="hospital"/>
    <tag k="name" v="Child Health Centre"/>
  </node>
  <node id="288983017" version="3" timestamp="2012-07-19T11:50:19Z" uid="722137" user="OSMF Redaction Account" changeset="12322854" lat="-35.3797839" lon="149.0580999">
    <tag k="amenity" v="pub"/>
    <tag k="name" v="Kambah Inn"/>
  </node>
  <node id="288983446" version="4" timestamp="2012-07-18T14:06:34Z" uid="722137" user="OSMF Redaction Account" changeset="12284440" lat="33.5179013" lon="-82.0372692"/>
  <node id="288983446" version="5" timestamp="2012-07-24T16:44:22Z" uid="587790" user="JaggedMind" changeset="12470767" lat="33.5179082" lon="-82.0374101"/>
  <node id="288983448" version="4" timestamp="2012-07-18T14:06:34Z" uid="722137" user="OSMF Redaction Account" changeset="12284440" lat="33.5198334" lon="-82.0346599"/>
  <node id="288983448" version="5" timestamp="2012-07-24T16:44:22Z" uid="587790" user="JaggedMind" changeset="12470767" lat="33.5195549" lon="-82.0353047"/>
  <node id="288983450" version="4" timestamp="2012-07-18T14:06:35Z" uid="722137" user="OSMF Redaction Account" changeset="12284440" lat="33.5207851" lon="-82.0329777"/>
  <node id="288983450" version="5" timestamp="2012-07-24T16:44:22Z" uid="587790" user="JaggedMind" changeset="12470767" lat="33.5208802" lon="-82.0329801"/>
  <node id="288984248" version="3" timestamp="2012-07-18T14:06:33Z" uid="722137" user="OSMF Redaction Account" changeset="12284440" lat="33.5113964" lon="-82.041947"/>
  <node id="288984249" version="3" timestamp="2012-07-18T14:06:33Z" uid="722137" user="OSMF Redaction Account" changeset="12284440" lat="33.5112032" lon="-82.0419212"/>
  <node id="288984250" version="3" timestamp="2012-07-18T14:06:33Z" uid="722137" user="OSMF Redaction Account" changeset="12284440" lat="33.5109885" lon="-82.0419813"/>
  <node id="288984251" version="3" timestamp="2012-07-18T14:06:33Z" uid="722137" user="OSMF Redaction Account" changeset="12284440" lat="33.5108382" lon="-82.0420843"/>
  <node id="288984253" version="3" timestamp="2012-07-18T14:06:33Z" uid="722137" user="OSMF Redaction Account" changeset="12284440" lat="33.5105949" lon="-82.0424362"/>
  <node id="288984263" version="5" timestamp="2012-07-24T16:44:22Z" uid="587790" user="JaggedMind" changeset="12470767" lat="33.5117425" lon="-82.0432502"/>
  <node id="288984265" version="5" timestamp="2012-07-18T14:06:34Z" uid="722137" user="OSMF Redaction Account" changeset="12284440" lat="33.5138653" lon="-82.0408398"/>
  <node id="288984265" version="6" timestamp="2012-07-24T16:44:22Z" uid="587790" user="JaggedMind" changeset="12470767" lat="33.5142325" lon="-82.040783"/>
  <node id="288984266" version="5" timestamp="2012-07-18T14:06:34Z" uid="722137" user="OSMF Redaction Account" changeset="12284440" lat="33.5159835" lon="-82.0388142"/>
  <node id="288984266" version="6" timestamp="2012-07-24T16:44:22Z" uid="587790" user="JaggedMind" changeset="12470767" lat="33.5161209" lon="-82.0388881"/>
  <node id="288984268" version="4" timestamp="2012-07-18T14:06:34Z" uid="722137" user="OSMF Redaction Account" changeset="12284440" lat="33.5171129" lon="-82.0380761"/>
  <node id="288984268" version="5" timestamp="2012-07-24T16:44:22Z" uid="587790" user="JaggedMind" changeset="12470767" lat="33.5168676" lon="-82.0384491"/>
  <node id="288984270" version="4" timestamp="2012-07-18T14:06:34Z" uid="722137" user="OSMF Redaction Account" changeset="12284440" lat="33.5192681" lon="-82.0355011"/>
  <node id="288984270" version="5" timestamp="2012-07-24T16:44:22Z" uid="587790" user="JaggedMind" changeset="12470767" lat="33.5191557" lon="-82.0358938"/>
  <node id="288984286" version="3" timestamp="2012-07-18T14:06:33Z" uid="722137" user="OSMF Redaction Account" changeset="12284440" lat="33.5106235" lon="-82.043037"/>
  <node id="288984287" version="4" timestamp="2012-07-18T14:06:34Z" uid="722137" user="OSMF Redaction Account" changeset="12284440" lat="33.5129207" lon="-82.0417753"/>
  <node id="288984287" version="5" timestamp="2012-07-24T16:44:22Z" uid="587790" user="JaggedMind" changeset="12470767" lat="33.5135864" lon="-82.0414116"/>
  <node id="288986835" version="3" timestamp="2012-07-19T16:42:06Z" uid="722137" user="OSMF Redaction Account" changeset="12340180" lat="-30.480562" lon="151.624697"/>
  <node id="288986835" version="4" timestamp="2012-08-07T20:35:36Z" uid="3560" user="Firefishy" changeset="12650556" lat="-30.4806555" lon="151.6251492"/>
  <node id="288986836" version="4" timestamp="2012-07-19T16:59:49Z" uid="722137" user="OSMF Redaction Account" changeset="12341039" lat="-30.5197924" lon="151.6561183"/>
  <node id="288986836" version="5" timestamp="2012-07-21T14:31:20Z" uid="67896" user="mrpulley" changeset="12411461" lat="-30.5198037" lon="151.6561346">
    <tag k="railway" v="level_crossing"/>
  </node>
  <node id="288986837" version="5" timestamp="2012-07-19T16:59:49Z" uid="722137" user="OSMF Redaction Account" changeset="12341039" lat="-30.545016" lon="151.6649484"/>
  <node id="288986838" version="4" timestamp="2012-07-19T16:59:48Z" uid="722137" user="OSMF Redaction Account" changeset="12341039" lat="-30.5657832" lon="151.6523047">
    <tag k="source" v="survey"/>
  </node>
  <node id="288986839" version="4" timestamp="2012-07-19T16:40:33Z" uid="722137" user="OSMF Redaction Account" changeset="12340070" lat="-30.4907292" lon="151.6275369"/>
  <node id="288986851" version="3" timestamp="2012-07-19T16:59:52Z" uid="722137" user="OSMF Redaction Account" changeset="12341039" lat="-30.5140019" lon="151.6656266"/>
  <node id="288987091" version="4" timestamp="2012-07-18T14:06:34Z" uid="722137" user="OSMF Redaction Account" changeset="12284440" lat="33.5204845" lon="-82.0335356"/>
  <node id="288987091" version="5" timestamp="2012-07-24T16:44:23Z" uid="587790" user="JaggedMind" changeset="12470767" lat="33.5202597" lon="-82.0342097"/>
  <node id="288987092" version="4" timestamp="2012-07-18T14:06:35Z" uid="722137" user="OSMF Redaction Account" changeset="12284440" lat="33.5234111" lon="-82.0269781"/>
  <node id="288987092" version="5" timestamp="2012-07-24T16:44:23Z" uid="587790" user="JaggedMind" changeset="12470767" lat="33.523575" lon="-82.0269931"/>
  <node id="288987095" version="4" timestamp="2012-07-18T14:06:34Z" uid="722137" user="OSMF Redaction Account" changeset="12284440" lat="33.5172716" lon="-82.0379215"/>
  <node id="288987095" version="5" timestamp="2012-07-24T16:44:23Z" uid="587790" user="JaggedMind" changeset="12470767" lat="33.5173027" lon="-82.0380293"/>
  <node id="288987096" version="5" timestamp="2012-07-18T14:06:35Z" uid="722137" user="OSMF Redaction Account" changeset="12284440" lat="33.5248636" lon="-82.023974"/>
  <node id="288987096" version="6" timestamp="2012-07-24T16:44:23Z" uid="587790" user="JaggedMind" changeset="12470767" lat="33.5249193" lon="-82.0241655"/>
  <node id="288987295" version="5" timestamp="2012-07-18T14:06:34Z" uid="722137" user="OSMF Redaction Account" changeset="12284440" lat="33.5165274" lon="-82.0383163"/>
  <node id="288987295" version="6" timestamp="2012-07-24T16:44:23Z" uid="587790" user="JaggedMind" changeset="12470767" lat="33.5170503" lon="-82.0379969"/>
</osm>
