<?xml version='1.0' encoding='UTF-8'?>
<osm version="0.6" generator="libosmium/2.20.0">
  <node id="292401624" version="2" timestamp="2008-09-13T23:59:46Z" uid="6975" user="ulfl" changeset="628567" lat="52.3721965" lon="-1.2523871">
    <tag k="name" v="Grosvenor Hotel"/>
    <tag k="tourism" v="hotel"/>
  </node>
  <node id="292401624" version="3" timestamp="2008-11-07T19:13:53Z" uid="76371" user="timmy45" changeset="704818" lat="52.372199" lon="-1.252392">
    <tag k="name" v="Grosvenor Hotel"/>
    <tag k="tourism" v="hotel"/>
  </node>
  <node id="292403365" version="3" timestamp="2009-04-10T21:51:44Z" uid="49111" user="Markus B" changeset="386726" lat="49.3239318" lon="11.3624671"/>
  <node id="292403365" version="4" timestamp="2010-05-25T18:34:55Z" uid="83876" user="BurnyB" changeset="4806458" lat="49.3239766" lon="11.3625064"/>
  <node id="292403365" version="5" timestamp="2011-05-01T18:16:08Z" uid="255086" user="mapgazer" changeset="8024211" lat="49.3239872" lon="11.3625442"/>
  <node id="292403365" version="6" timestamp="2011-05-03T19:17:38Z" uid="255086" user="mapgazer" changeset="8042768" lat="49.3240215" lon="11.3624087"/>
  <node id="292403406" version="2" timestamp="2009-04-10T21:51:45Z" uid="49111" user="Markus B" changeset="386726" lat="49.3234854" lon="11.3618257"/>
  <node id="292403407" version="2" timestamp="2009-04-10T21:51:45Z" uid="49111" user="Markus B" changeset="386726" lat="49.3236588" lon="11.362212"/>
  <node id="292403541" version="7" timestamp="2011-01-28T21:44:04Z" uid="6269" user="Mueck" changeset="7117417" lat="49.009676" lon="8.4046031">
    <tag k="addr:city" v="Karlsruhe"/>
    <tag k="addr:country" v="DE"/>
    <tag k="addr:housenumber" v="66a"/>
    <tag k="addr:postcode" v="76133"/>
    <tag k="addr:street" v="Kaiserstraße"/>
    <tag k="amenity" v="fast_food"/>
    <tag k="name" v="Kofflers Wiener Beisel"/>
  </node>
  <node id="292403541" version="8" timestamp="2011-05-06T18:15:36Z" uid="165061" user="keinname" changeset="8067404" lat="49.009701" lon="8.4046056">
    <tag k="addr:city" v="Karlsruhe"/>
    <tag k="addr:country" v="DE"/>
    <tag k="addr:housenumber" v="66a"/>
    <tag k="addr:postcode" v="76133"/>
    <tag k="addr:street" v="Kaiserstraße"/>
    <tag k="amenity" v="fast_food"/>
    <tag k="name" v="Kofflers Wiener Beisel"/>
  </node>
  <node id="292403541" version="9" timestamp="2011-05-30T15:22:59Z" uid="165061" user="keinname" changeset="8293135" lat="49.0096857" lon="8.4049643">
    <tag k="addr:city" v="Karlsruhe"/>
    <tag k="addr:country" v="DE"/>
    <tag k="addr:housenumber" v="66a"/>
    <tag k="addr:postcode" v="76133"/>
    <tag k="addr:street" v="Kaiserstraße"/>
    <tag k="amenity" v="fast_food"/>
    <tag k="name" v="Kofflers Wiener Beisel"/>
  </node>
  <node id="292403541" version="10" timestamp="2011-10-14T17:06:57Z" uid="290680" user="wheelmap_visitor" changeset="9552229" lat="49.0096857" lon="8.4049643">
    <tag k="addr:city" v="Karlsruhe"/>
    <tag k="addr:country" v="DE"/>
    <tag k="addr:housenumber" v="66a"/>
    <tag k="addr:postcode" v="76133"/>
    <tag k="addr:street" v="Kaiserstraße"/>
    <tag k="amenity" v="fast_food"/>
    <tag k="name" v="Kofflers Wiener Beisel"/>
    <tag k="wheelchair" v="limited"/>
  </node>
  <node id="292403730" version="4" timestamp="2008-09-14T14:28:53Z" uid="6975" user="ulfl" changeset="640534" lat="49.3511304" lon="11.3151252">
    <tag k="amenity" v="townhall"/>
  </node>
  <node id="292403730" version="5" timestamp="2010-05-24T11:27:35Z" uid="81175" user="robome" changeset="4792306" lat="49.3511304" lon="11.3151252">
    <tag k="amenity" v="townhall"/>
  </node>
  <node id="292404631" version="3" timestamp="2008-10-23T05:11:21Z" uid="6975" user="ulfl" changeset="525020" lat="52.481041" lon="10.3636544">
    <tag k="name" v="D&amp;G"/>
    <tag k="shop" v="car_repair"/>
  </node>
  <node id="292405084" version="2" timestamp="2008-09-13T20:46:09Z" uid="36809" user="pfoten_weg_!_" changeset="629750" lat="47.9879934" lon="11.4546448">
    <tag k="barrier" v="bollards"/>
    <tag k="highway" v="gate"/>
  </node>
  <node id="292405084" version="3" timestamp="2008-09-13T21:19:41Z" uid="36809" user="pfoten_weg_!_" changeset="629750" lat="47.9879934" lon="11.4546448">
    <tag k="barrier" v="bollards"/>
    <tag k="highway" v="gate"/>
  </node>
  <node id="292405084" version="4" timestamp="2008-09-13T21:55:40Z" uid="36809" user="pfoten_weg_!_" changeset="629750" lat="47.9879934" lon="11.4546448">
    <tag k="barrier" v="bollards"/>
    <tag k="highway" v="gate"/>
  </node>
  <node id="292405084" version="5" timestamp="2008-09-14T14:32:49Z" uid="6975" user="ulfl" changeset="640534" lat="47.9879934" lon="11.4546448">
    <tag k="barrier" v="bollard"/>
    <tag k="highway" v="gate"/>
  </node>
  <node id="292405084" version="6" timestamp="2009-04-03T06:45:28Z" uid="36809" user="pfoten_weg_!_" changeset="111830" lat="47.9879934" lon="11.4546448">
    <tag k="barrier" v="bollard"/>
    <tag k="created_by" v="RambaZamba"/>
    <tag k="highway" v="gate"/>
    <tag k="source" v="survey"/>
  </node>
  <node id="292405084" version="7" timestamp="2009-04-04T08:53:48Z" uid="7596" user="ck3d" changeset="160917" lat="47.9879934" lon="11.4546448">
    <tag k="barrier" v="bollard"/>
    <tag k="source" v="survey"/>
  </node>
  <node id="292405084" version="8" timestamp="2009-07-18T20:57:06Z" uid="36809" user="pfoten_weg_!_" changeset="1867610" lat="47.9879934" lon="11.4546448">
    <tag k="barrier" v="bollard"/>
    <tag k="source" v="survey"/>
  </node>
  <node id="292405351" version="2" timestamp="2008-10-07T01:38:43Z" uid="7617" user="Franc" changeset="121226" lat="-34.051759" lon="151.0523909"/>
  <node id="292405351" version="3" timestamp="2009-04-14T05:05:43Z" uid="7523" user="inas" changeset="513775" lat="-34.051759" lon="151.0523909"/>
  <node id="292405351" version="4" timestamp="2009-04-14T05:07:12Z" uid="7523" user="inas" changeset="513775" lat="-34.051759" lon="151.0523909"/>
  <node id="292405732" version="2" timestamp="2008-10-07T01:40:01Z" uid="7617" user="Franc" changeset="121226" lat="-34.051759" lon="151.0523909"/>
  <node id="292406531" version="2" timestamp="2008-09-14T14:11:15Z" uid="6975" user="ulfl" changeset="640534" lat="50.1547723" lon="8.6921391">
    <tag k="amenity" v="ice_cream"/>
  </node>
  <node id="292406531" version="3" timestamp="2009-05-07T17:47:34Z" uid="64197" user="Lothar Schiborr_1" changeset="1109717" lat="50.1548565" lon="8.6921391">
    <tag k="amenity" v="ice_cream"/>
  </node>
  <node id="292406531" version="4" timestamp="2009-07-06T17:15:48Z" uid="15110" user="vt100" changeset="1755004" lat="50.1548623" lon="8.6920842">
    <tag k="amenity" v="ice_cream"/>
  </node>
  <node id="292406531" version="5" timestamp="2011-03-06T20:31:19Z" uid="8464" user="MichaH" changeset="7477850" lat="50.1548502" lon="8.6920087">
    <tag k="addr:city" v="Frankfurt am Main"/>
    <tag k="addr:housenumber" v="3"/>
    <tag k="addr:postcode" v="60435"/>
    <tag k="addr:street" v="Weilbrunnstraße"/>
    <tag k="amenity" v="ice_cream"/>
  </node>
  <node id="292406531" version="6" timestamp="2012-01-29T21:12:18Z" uid="291419" user="TorstenRo" changeset="10534805" lat="50.1548502" lon="8.6920087">
    <tag k="addr:city" v="Frankfurt am Main"/>
    <tag k="addr:housenumber" v="3"/>
    <tag k="addr:postcode" v="60435"/>
    <tag k="addr:street" v="Weilbrunnstraße"/>
    <tag k="amenity" v="cafe"/>
    <tag k="cuisine" v="ice_cream"/>
    <tag k="name" v="Dell&apos;Antone"/>
  </node>
  <node id="292406531" version="7" timestamp="2012-01-29T21:18:59Z" uid="291419" user="TorstenRo" changeset="10534857" lat="50.1548502" lon="8.6920087">
    <tag k="addr:city" v="Frankfurt am Main"/>
    <tag k="addr:housenumber" v="3"/>
    <tag k="addr:postcode" v="60435"/>
    <tag k="addr:street" v="Weilbrunnstraße"/>
    <tag k="amenity" v="cafe"/>
    <tag k="cuisine" v="ice_cream"/>
    <tag k="name" v="Dell&apos;Antone"/>
    <tag k="phone" v="+49 69 541440"/>
  </node>
  <node id="292406549" version="2" timestamp="2008-09-14T16:56:59Z" uid="6975" user="ulfl" changeset="640534" lat="50.1319185" lon="8.6842631">
    <tag k="shop" v="florist"/>
  </node>
  <node id="292406549" version="3" timestamp="2009-01-14T15:42:20Z" uid="64197" user="Lothar Schiborr_1" changeset="786698" lat="50.1320004" lon="8.6844661">
    <tag k="shop" v="florist"/>
  </node>
  <node id="292406549" version="4" timestamp="2010-10-15T16:26:10Z" uid="8464" user="MichaH" changeset="6050474" lat="50.1320004" lon="8.6844661">
    <tag k="name" v="Blumen Zwingel"/>
    <tag k="shop" v="florist"/>
  </node>
  <node id="292406549" version="5" timestamp="2011-11-26T20:13:30Z" uid="65364" user="Harry99" changeset="9960235" lat="50.1320435" lon="8.6844356">
    <tag k="name" v="Blumen Zwingel"/>
    <tag k="shop" v="florist"/>
  </node>
  <node id="292406550" version="2" timestamp="2008-09-14T16:56:59Z" uid="6975" user="ulfl" changeset="640534" lat="50.1415817" lon="8.6840776">
    <tag k="name" v="Blumen Bock"/>
    <tag k="shop" v="florist"/>
  </node>
  <node id="292406550" version="3" timestamp="2008-12-06T16:38:26Z" uid="8464" user="MichaH" changeset="202439" lat="50.1415834" lon="8.684161">
    <tag k="name" v="Blumen Bock"/>
    <tag k="shop" v="florist"/>
  </node>
  <node id="292406550" version="4" timestamp="2010-02-24T12:29:34Z" uid="236307" user="jakobgerd" changeset="3962335" lat="50.1415835" lon="8.6841609">
    <tag k="name" v="Blumen Bock"/>
    <tag k="shop" v="garden_centre"/>
  </node>
  <node id="292406550" version="5" timestamp="2010-02-24T12:34:50Z" uid="236307" user="jakobgerd" changeset="3962377" lat="50.1415949" lon="8.6842133">
    <tag k="name" v="Blumen Bock"/>
  </node>
  <node id="292406550" version="6" timestamp="2010-02-24T12:36:39Z" uid="236307" user="jakobgerd" changeset="3962385" lat="50.141595" lon="8.6842132">
    <tag k="name" v="Blumen Bock"/>
    <tag k="shop" v="florist"/>
  </node>
  <node id="292406550" version="7" timestamp="2011-12-23T11:09:40Z" uid="290680" user="wheelmap_visitor" changeset="10185228" lat="50.141595" lon="8.6842132">
    <tag k="name" v="Blumen Bock"/>
    <tag k="shop" v="florist"/>
    <tag k="wheelchair" v="yes"/>
  </node>
  <node id="292406944" version="3" timestamp="2009-10-02T16:55:50Z" uid="86259" user="hasse_osm_korinthenkacker" changeset="2714981" lat="47.9120551" lon="11.4218604">
    <tag k="amenity" v="school"/>
    <tag k="name" v="Realschule Wolfratshausen"/>
  </node>
  <node id="292406944" version="4" timestamp="2011-01-08T16:34:52Z" uid="100010" user="Thomas Martin" changeset="6905472" lat="47.9120997" lon="11.421833">
    <tag k="amenity" v="school"/>
    <tag k="name" v="Realschule Wolfratshausen"/>
  </node>
  <node id="292406944" version="5" timestamp="2011-12-08T07:57:05Z" uid="75483" user="Lala-Rob" changeset="10063140" lat="47.9120997" lon="11.421833"/>
  <node id="292406961" version="4" timestamp="2009-10-02T16:55:50Z" uid="86259" user="hasse_osm_korinthenkacker" changeset="2714981" lat="47.911428" lon="11.4227445">
    <tag k="amenity" v="school"/>
    <tag k="name" v="Berufsschule Wolfratshausen"/>
  </node>
  <node id="292406961" version="5" timestamp="2011-12-08T07:57:05Z" uid="75483" user="Lala-Rob" changeset="10063140" lat="47.911428" lon="11.4227445"/>
  <node id="292407248" version="2" timestamp="2009-05-01T22:55:11Z" uid="7617" user="Franc" changeset="1043126" lat="-34.0416629" lon="151.0561703"/>
  <node id="292407248" version="3" timestamp="2011-03-16T03:34:56Z" uid="181013" user="Zhent" changeset="7572282" lat="-34.0416632" lon="151.0561625"/>
  <node id="292407249" version="2" timestamp="2009-05-01T22:55:11Z" uid="7617" user="Franc" changeset="1043126" lat="-34.0406743" lon="151.0564192"/>
  <node id="292407249" version="3" timestamp="2011-03-16T03:35:00Z" uid="181013" user="Zhent" changeset="7572282" lat="-34.040758" lon="151.0563617"/>
  <node id="292407250" version="2" timestamp="2009-05-01T22:55:11Z" uid="7617" user="Franc" changeset="1043126" lat="-34.040525" lon="151.0554493"/>
  <node id="292407250" version="3" timestamp="2011-03-16T03:34:58Z" uid="181013" user="Zhent" changeset="7572282" lat="-34.0406499" lon="151.0556463"/>
  <node id="292407251" version="2" timestamp="2009-05-01T22:55:11Z" uid="7617" user="Franc" changeset="1043126" lat="-34.0415278" lon="151.0551661"/>
  <node id="292407251" version="3" timestamp="2011-03-16T03:35:00Z" uid="181013" user="Zhent" changeset="7572282" lat="-34.0415552" lon="151.0554471"/>
  <node id="292407255" version="3" timestamp="2009-02-26T08:39:47Z" uid="64977" user="CLoeser" changeset="678242" lat="54.0336454" lon="13.3695669">
    <tag k="created_by" v="Potlatch 0.10f"/>
    <tag k="is_in" v="Weitenhagen; Ostvorpommern"/>
    <tag k="name" v="Grubenhagen"/>
    <tag k="place" v="hamlet"/>
  </node>
  <node id="292407255" version="4" timestamp="2010-10-13T06:49:04Z" uid="92274" user="adjuva" changeset="6026758" lat="54.0336454" lon="13.3695669">
    <tag k="is_in" v="Weitenhagen,Ostvorpommern,Mecklenburg-Vorpommern,Bundesrepublik Deutschland,Europe"/>
    <tag k="name" v="Grubenhagen"/>
    <tag k="place" v="hamlet"/>
  </node>
  <node id="292407359" version="2" timestamp="2009-02-26T22:27:22Z" uid="68769" user="david lynch" changeset="678460" lat="29.5998707" lon="-98.3575304"/>
  <node id="292407359" version="3" timestamp="2009-02-26T22:27:59Z" uid="68769" user="david lynch" changeset="678460" lat="29.5998707" lon="-98.3575304"/>
  <node id="292407362" version="3" timestamp="2009-02-26T08:40:22Z" uid="64977" user="CLoeser" changeset="678242" lat="54.0605552" lon="13.4185762">
    <tag k="created_by" v="Potlatch 0.10f"/>
    <tag k="is_in" v="Weitenhagen, Ostvorpommern"/>
    <tag k="name" v="Klein Schönwalde"/>
    <tag k="place" v="hamlet"/>
  </node>
  <node id="292407362" version="4" timestamp="2009-05-02T17:33:58Z" uid="64977" user="CLoeser" changeset="1051296" lat="54.0602909" lon="13.4188926">
    <tag k="created_by" v="Potlatch 0.10f"/>
    <tag k="is_in" v="Weitenhagen, Ostvorpommern"/>
    <tag k="name" v="Klein Schönwalde"/>
    <tag k="place" v="hamlet"/>
  </node>
  <node id="292407362" version="5" timestamp="2010-10-13T06:48:49Z" uid="92274" user="adjuva" changeset="6026758" lat="54.0602909" lon="13.4188926">
    <tag k="is_in" v="Weitenhagen, Ostvorpommern,Mecklenburg-Vorpommern,Bundesrepublik Deutschland,Europe"/>
    <tag k="name" v="Klein Schönwalde"/>
    <tag k="place" v="hamlet"/>
  </node>
  <node id="292407362" version="6" timestamp="2012-03-22T16:45:50Z" uid="92408" user="kilt" changeset="11064983" lat="54.0602909" lon="13.4188926"/>
  <node id="292408464" version="2" timestamp="2008-10-23T05:16:15Z" uid="6975" user="ulfl" changeset="525020" lat="52.4743443" lon="10.3675769">
    <tag k="name" v="Hol ab!"/>
    <tag k="shop" v="beverages"/>
  </node>
  <node id="292408464" version="3" timestamp="2011-12-28T17:02:22Z" uid="290680" user="wheelmap_visitor" changeset="10222046" lat="52.4743443" lon="10.3675769">
    <tag k="name" v="Hol ab!"/>
    <tag k="shop" v="beverages"/>
    <tag k="wheelchair" v="yes"/>
  </node>
  <node id="292409565" version="2" timestamp="2009-02-26T22:27:43Z" uid="68769" user="david lynch" changeset="678460" lat="29.6006475" lon="-98.4184401"/>
  <node id="292409565" version="3" timestamp="2011-06-19T00:52:13Z" uid="5926" user="c2r" changeset="8479356" lat="29.6006271" lon="-98.4186653"/>
  <node id="292409698" version="2" timestamp="2009-02-26T22:27:46Z" uid="68769" user="david lynch" changeset="678460" lat="29.6008639" lon="-98.4184659"/>
  <node id="292409698" version="3" timestamp="2011-06-19T00:52:13Z" uid="5926" user="c2r" changeset="8479356" lat="29.6008528" lon="-98.4187136"/>
  <node id="292409963" version="3" timestamp="2009-02-26T22:27:42Z" uid="68769" user="david lynch" changeset="678460" lat="29.6003117" lon="-98.4231866"/>
  <node id="292403541" version="11" timestamp="2012-08-22T13:34:05Z" uid="165061" user="mapper999" changeset="12821034" lat="49.0096857" lon="8.4049643">
    <tag k="addr:city" v="Karlsruhe"/>
    <tag k="addr:country" v="DE"/>
    <tag k="addr:housenumber" v="66a"/>
    <tag k="addr:postcode" v="76133"/>
    <tag k="addr:street" v="Kaiserstraße"/>
    <tag k="amenity" v="fast_food"/>
    <tag k="name" v="Kofflers Wiener Beisel"/>
    <tag k="opening_hours" v="Mo-Sa 09:00-05:00; Su,Ph 10:00-18:00"/>
    <tag k="wheelchair" v="limited"/>
  </node>
  <node id="292407255" version="5" timestamp="2012-07-18T14:17:50Z" uid="722137" user="OSMF Redaction Account" changeset="12284782" lat="54.0336425" lon="13.3695694">
    <tag k="is_in" v="Weitenhagen,Ostvorpommern,Mecklenburg-Vorpommern,Bundesrepublik Deutschland,Europe"/>
    <tag k="name" v="Grubenhagen"/>
    <tag k="place" v="hamlet"/>
  </node>
</osm>
