<?xml version='1.0' encoding='UTF-8'?>
<osm version="0.6" generator="libosmium/2.20.0">
  <node id="293430040" version="1" timestamp="2008-09-03T16:49:29Z" uid="43863" user="Rundling" changeset="516074" lat="52.9669045" lon="10.5610135">
    <tag k="amenity" v="place_of_worship"/>
    <tag k="created_by" v="Merkaartor 0.11"/>
    <tag k="name" v="Heiligen-Geist-Kapelle"/>
  </node>
  <node id="293430040" version="2" timestamp="2008-09-03T16:55:11Z" uid="43863" user="Rundling" changeset="516074" lat="52.9670261" lon="10.5610996">
    <tag k="amenity" v="place_of_worship"/>
    <tag k="created_by" v="Merkaartor 0.11"/>
    <tag k="name" v="Heiligen-Geist-Kapelle"/>
  </node>
  <node id="293430040" version="3" timestamp="2008-09-10T10:19:33Z" uid="43863" user="Rundling" changeset="593466" lat="52.966887" lon="10.561045">
    <tag k="amenity" v="place_of_worship"/>
    <tag k="created_by" v="Potlatch 0.10b"/>
    <tag k="name" v="Heiligen-Geist-Kapelle"/>
  </node>
  <node id="293430040" version="4" timestamp="2009-03-08T08:14:50Z" uid="43863" user="Rundling" changeset="754864" lat="52.966887" lon="10.561045">
    <tag k="amenity" v="place_of_worship"/>
    <tag k="created_by" v="Potlatch 0.10b"/>
    <tag k="name" v="Heiligen-Geist-Kapelle"/>
    <tag k="religion" v="christian"/>
  </node>
  <node id="293430040" version="5" timestamp="2009-07-10T08:06:05Z" uid="43863" user="Rundling" changeset="1786827" lat="52.966887" lon="10.561045">
    <tag k="historic" v="church"/>
    <tag k="name" v="Heiligen-Geist-Kapelle"/>
    <tag k="religion" v="christian"/>
  </node>
  <node id="293430040" version="6" timestamp="2010-12-22T16:43:54Z" uid="45044" user="MrJones" changeset="6737345" lat="52.966887" lon="10.561045">
    <tag k="amenity" v="place_of_worship"/>
    <tag k="building" v="church"/>
    <tag k="name" v="Heiligen-Geist-Kapelle"/>
    <tag k="religion" v="christian"/>
  </node>
  <node id="293430256" version="1" timestamp="2008-09-03T16:51:26Z" uid="43863" user="Rundling" changeset="516074" lat="52.9653206" lon="10.5573904">
    <tag k="amenity" v="restaurant"/>
    <tag k="created_by" v="Merkaartor 0.11"/>
    <tag k="name" v="Italia"/>
  </node>
  <node id="293430256" version="2" timestamp="2009-06-05T13:32:54Z" uid="43863" user="Rundling" changeset="1429394" lat="52.9653206" lon="10.5573904">
    <tag k="amenity" v="restaurant"/>
    <tag k="cuisine" v="italian"/>
    <tag k="name" v="Italia"/>
  </node>
  <node id="293430256" version="3" timestamp="2009-07-07T18:48:05Z" uid="43863" user="Rundling" changeset="1765433" lat="52.9653206" lon="10.5573904">
    <tag k="amenity" v="restaurant"/>
    <tag k="cuisine" v="italian"/>
    <tag k="name" v="Italia"/>
  </node>
  <node id="293430420" version="2" timestamp="2008-09-14T16:57:23Z" uid="6975" user="ulfl" changeset="640534" lat="50.9708885" lon="7.0491376">
    <tag k="shop" v="florist"/>
  </node>
  <node id="293430420" version="3" timestamp="2011-10-07T22:22:08Z" uid="39890" user="AJoNee" changeset="9498225" lat="50.9708885" lon="7.0491376"/>
  <node id="293430465" version="1" timestamp="2008-09-03T16:52:38Z" uid="43863" user="Rundling" changeset="516074" lat="52.9670161" lon="10.5604502">
    <tag k="amenity" v="parking"/>
    <tag k="created_by" v="Merkaartor 0.11"/>
  </node>
  <node id="293430465" version="2" timestamp="2008-09-11T16:30:13Z" uid="43863" user="Rundling" changeset="607335" lat="52.9670161" lon="10.5604502">
    <tag k="amenity" v="parking"/>
    <tag k="created_by" v="Merkaartor 0.11"/>
  </node>
  <node id="293430988" version="1" timestamp="2008-09-03T16:57:58Z" uid="43863" user="Rundling" changeset="516074" lat="52.9664898" lon="10.561391">
    <tag k="amenity" v="fountain"/>
    <tag k="created_by" v="Merkaartor 0.11"/>
  </node>
  <node id="293430988" version="2" timestamp="2008-09-09T14:35:47Z" uid="43863" user="Rundling" changeset="582421" lat="52.9662866" lon="10.5620259">
    <tag k="amenity" v="fountain"/>
    <tag k="created_by" v="Potlatch 0.10b"/>
  </node>
  <node id="293430988" version="3" timestamp="2008-09-10T10:29:47Z" uid="43863" user="Rundling" changeset="593466" lat="52.9662201" lon="10.5619978">
    <tag k="amenity" v="fountain"/>
    <tag k="created_by" v="Potlatch 0.10b"/>
  </node>
  <node id="293430988" version="4" timestamp="2008-09-11T06:50:57Z" uid="43863" user="Rundling" changeset="602373" lat="52.966246" lon="10.5620578">
    <tag k="amenity" v="fountain"/>
    <tag k="created_by" v="Potlatch 0.10b"/>
  </node>
  <node id="293431122" version="1" timestamp="2008-09-03T17:00:06Z" uid="43863" user="Rundling" changeset="516074" lat="52.9649258" lon="10.5630395">
    <tag k="amenity" v="bank;atm"/>
    <tag k="created_by" v="Merkaartor 0.11"/>
    <tag k="name" v="Volksbank"/>
  </node>
  <node id="293431122" version="2" timestamp="2008-09-24T20:41:03Z" uid="6975" user="ulfl" changeset="690442" lat="52.9649258" lon="10.5630395">
    <tag k="amenity" v="bank"/>
    <tag k="atm" v="yes"/>
    <tag k="name" v="Volksbank"/>
  </node>
  <node id="293431122" version="3" timestamp="2009-07-07T21:09:48Z" uid="43863" user="Rundling" changeset="1766866" lat="52.9649008" lon="10.5630441">
    <tag k="amenity" v="bank"/>
    <tag k="atm" v="yes"/>
    <tag k="name" v="Volksbank"/>
  </node>
  <node id="293431122" version="4" timestamp="2009-07-09T05:24:06Z" uid="43863" user="Rundling" changeset="1777917" lat="52.9649008" lon="10.5630441">
    <tag k="addr:city" v="Uelzen"/>
    <tag k="addr:country" v="DE"/>
    <tag k="addr:housename" v="Volksbank"/>
    <tag k="addr:housenumber" v="25"/>
    <tag k="addr:postcode" v="29525"/>
    <tag k="addr:street" v="Gudesstraße"/>
    <tag k="amenity" v="bank"/>
    <tag k="atm" v="yes"/>
    <tag k="name" v="Volksbank"/>
  </node>
  <node id="293431122" version="5" timestamp="2011-10-06T18:53:48Z" uid="290680" user="wheelmap_visitor" changeset="9482892" lat="52.9649008" lon="10.5630441">
    <tag k="addr:city" v="Uelzen"/>
    <tag k="addr:country" v="DE"/>
    <tag k="addr:housename" v="Volksbank"/>
    <tag k="addr:housenumber" v="25"/>
    <tag k="addr:postcode" v="29525"/>
    <tag k="addr:street" v="Gudesstraße"/>
    <tag k="amenity" v="bank"/>
    <tag k="atm" v="yes"/>
    <tag k="name" v="Volksbank"/>
    <tag k="wheelchair" v="yes"/>
  </node>
  <node id="293431124" version="1" timestamp="2008-09-03T17:00:06Z" uid="43863" user="Rundling" changeset="516074" lat="52.9647268" lon="10.5627159">
    <tag k="amenity" v="bank;atm"/>
    <tag k="created_by" v="Merkaartor 0.11"/>
  </node>
  <node id="293431124" version="2" timestamp="2008-09-24T20:41:05Z" uid="6975" user="ulfl" changeset="690442" lat="52.9647268" lon="10.5627159">
    <tag k="amenity" v="bank"/>
    <tag k="atm" v="yes"/>
  </node>
  <node id="293431124" version="3" timestamp="2008-10-17T15:47:52Z" uid="43863" user="Rundling" changeset="393177" lat="52.9647268" lon="10.5627159">
    <tag k="amenity" v="bank"/>
    <tag k="atm" v="yes"/>
    <tag k="name" v="Sparda-Bank"/>
  </node>
  <node id="293431124" version="4" timestamp="2009-07-07T17:22:07Z" uid="43863" user="Rundling" changeset="1764425" lat="52.9647927" lon="10.5627443">
    <tag k="amenity" v="bank"/>
    <tag k="atm" v="yes"/>
    <tag k="name" v="Sparda-Bank"/>
  </node>
  <node id="293431124" version="5" timestamp="2009-07-09T05:24:06Z" uid="43863" user="Rundling" changeset="1777917" lat="52.9647927" lon="10.5627443">
    <tag k="addr:city" v="Uelzen"/>
    <tag k="addr:country" v="DE"/>
    <tag k="addr:housename" v="Sparda-Bank"/>
    <tag k="addr:housenumber" v="10"/>
    <tag k="addr:postcode" v="29525"/>
    <tag k="addr:street" v="Gudesstraße"/>
    <tag k="amenity" v="bank"/>
    <tag k="atm" v="yes"/>
    <tag k="name" v="Sparda-Bank"/>
  </node>
  <node id="293431124" version="6" timestamp="2011-10-05T21:44:31Z" uid="290680" user="wheelmap_visitor" changeset="9474855" lat="52.9647927" lon="10.5627443">
    <tag k="addr:city" v="Uelzen"/>
    <tag k="addr:country" v="DE"/>
    <tag k="addr:housename" v="Sparda-Bank"/>
    <tag k="addr:housenumber" v="10"/>
    <tag k="addr:postcode" v="29525"/>
    <tag k="addr:street" v="Gudesstraße"/>
    <tag k="amenity" v="bank"/>
    <tag k="atm" v="yes"/>
    <tag k="name" v="Sparda-Bank"/>
    <tag k="wheelchair" v="yes"/>
  </node>
  <node id="293431126" version="1" timestamp="2008-09-03T17:00:06Z" uid="43863" user="Rundling" changeset="516074" lat="52.9647268" lon="10.5627159">
    <tag k="created_by" v="Merkaartor 0.11"/>
  </node>
  <node id="293431126" version="2" timestamp="2008-09-11T06:37:20Z" uid="43863" user="Rundling" changeset="602373" lat="52.9647268" lon="10.5627159">
    <tag k="created_by" v="Merkaartor 0.11"/>
  </node>
  <node id="293432543" version="1" timestamp="2008-09-03T17:07:16Z" uid="43863" user="Rundling" changeset="516074" lat="52.9654238" lon="10.5570725">
    <tag k="amenity" v="pharmacy"/>
    <tag k="created_by" v="Merkaartor 0.11"/>
    <tag k="name" v="Rosen-Apotheke"/>
  </node>
  <node id="293432543" version="2" timestamp="2009-07-09T05:24:06Z" uid="43863" user="Rundling" changeset="1777917" lat="52.9654238" lon="10.5570725">
    <tag k="addr:city" v="Uelzen"/>
    <tag k="addr:country" v="DE"/>
    <tag k="addr:housename" v="Rosen-Apotheke"/>
    <tag k="addr:housenumber" v="31A"/>
    <tag k="addr:postcode" v="29525"/>
    <tag k="addr:street" v="Bahnhofstraße"/>
    <tag k="amenity" v="pharmacy"/>
    <tag k="name" v="Rosen-Apotheke"/>
  </node>
  <node id="293432543" version="3" timestamp="2011-09-23T12:24:26Z" uid="290680" user="wheelmap_visitor" changeset="9373820" lat="52.9654238" lon="10.5570725">
    <tag k="addr:city" v="Uelzen"/>
    <tag k="addr:country" v="DE"/>
    <tag k="addr:housename" v="Rosen-Apotheke"/>
    <tag k="addr:housenumber" v="31A"/>
    <tag k="addr:postcode" v="29525"/>
    <tag k="addr:street" v="Bahnhofstraße"/>
    <tag k="amenity" v="pharmacy"/>
    <tag k="name" v="Rosen-Apotheke"/>
    <tag k="wheelchair" v="yes"/>
  </node>
  <node id="293432544" version="1" timestamp="2008-09-03T17:07:16Z" uid="43863" user="Rundling" changeset="516074" lat="52.9655052" lon="10.5572894">
    <tag k="created_by" v="Merkaartor 0.11"/>
  </node>
  <node id="293432544" version="2" timestamp="2008-11-18T16:02:53Z" uid="43863" user="Rundling" changeset="764449" lat="52.965494" lon="10.5573183">
    <tag k="created_by" v="Merkaartor 0.11"/>
  </node>
  <node id="293432544" version="3" timestamp="2008-11-18T18:06:57Z" uid="43863" user="Rundling" changeset="765826" lat="52.9654951" lon="10.5573148">
    <tag k="created_by" v="Merkaartor 0.11"/>
  </node>
  <node id="293432544" version="4" timestamp="2008-11-18T19:07:06Z" uid="43863" user="Rundling" changeset="765826" lat="52.9654951" lon="10.5573148"/>
  <node id="293432544" version="5" timestamp="2008-11-18T19:07:16Z" uid="43863" user="Rundling" changeset="765826" lat="52.9655468" lon="10.5574865"/>
  <node id="293432544" version="6" timestamp="2008-11-18T19:48:53Z" uid="43863" user="Rundling" changeset="765826" lat="52.9654783" lon="10.5572848"/>
  <node id="293432544" version="7" timestamp="2009-01-15T14:09:51Z" uid="43863" user="Rundling" changeset="790642" lat="52.9654783" lon="10.5572848"/>
  <node id="293432996" version="1" timestamp="2008-09-03T17:08:36Z" uid="43863" user="Rundling" changeset="516074" lat="52.9679646" lon="10.5611707">
    <tag k="amenity" v="police"/>
    <tag k="created_by" v="Merkaartor 0.11"/>
  </node>
  <node id="293432996" version="2" timestamp="2008-12-28T21:57:53Z" uid="43863" user="Rundling" changeset="655201" lat="52.9679165" lon="10.5611593">
    <tag k="amenity" v="police"/>
    <tag k="created_by" v="Merkaartor 0.11"/>
    <tag k="name" v="Uelzen"/>
  </node>
  <node id="293432996" version="3" timestamp="2008-12-29T10:45:50Z" uid="43863" user="Rundling" changeset="657837" lat="52.9679256" lon="10.5610606">
    <tag k="amenity" v="police"/>
    <tag k="name" v="Uelzen"/>
  </node>
  <node id="293432996" version="4" timestamp="2009-07-10T08:07:59Z" uid="43863" user="Rundling" changeset="1786836" lat="52.9679256" lon="10.5610606">
    <tag k="addr:city" v="Uelzen"/>
    <tag k="addr:country" v="DE"/>
    <tag k="addr:housenumber" v="44"/>
    <tag k="addr:postcode" v="29525"/>
    <tag k="addr:street" v="Lüneburger Straße"/>
    <tag k="amenity" v="police"/>
    <tag k="name" v="PK Uelzen"/>
  </node>
  <node id="293433385" version="3" timestamp="2009-05-11T16:16:35Z" uid="38524" user="Kuddy" changeset="1154321" lat="50.1539151" lon="6.7202527">
    <tag k="created_by" v="JOSM"/>
    <tag k="name" v="Schwefelquelle Wallender Born"/>
    <tag k="tourism" v="attraction"/>
    <tag k="url" v="http://www.wallenborn-eifel.de"/>
  </node>
  <node id="293433385" version="4" timestamp="2009-10-29T13:47:44Z" uid="138686" user="ralfi" changeset="2981268" lat="50.1539151" lon="6.7202527">
    <tag k="name" v="Kaltwassergeysir Wallender Born"/>
    <tag k="note" v="Bisheriger Name &quot;Schwefelquelle&quot; war falsch. Es handelt sich hier um eine Kohlenstoffdioxydquelle."/>
    <tag k="tourism" v="attraction"/>
    <tag k="url" v="http://www.wallenborn-eifel.de"/>
  </node>
  <node id="293433385" version="5" timestamp="2010-09-20T16:55:41Z" uid="65148" user="Pirat Michi" changeset="5830607" lat="50.1539151" lon="6.7202527">
    <tag k="name" v="Kaltwassergeysir Wallender Born"/>
    <tag k="note" v="Bisheriger Name &quot;Schwefelquelle&quot; war falsch. Es handelt sich hier um eine Kohlenstoffdioxydquelle."/>
    <tag k="tourism" v="attraction"/>
    <tag k="website" v="http://www.wallenborn-eifel.de"/>
  </node>
  <node id="293433800" version="3" timestamp="2008-09-14T14:42:53Z" uid="6975" user="ulfl" changeset="640534" lat="46.8481681" lon="10.1260484">
    <tag k="mountain_pass" v="yes"/>
    <tag k="name" v="Vermuntjoch"/>
  </node>
  <node id="293433800" version="4" timestamp="2011-07-19T20:00:39Z" uid="155204" user="FranzF" changeset="8772238" lat="46.8480411" lon="10.125758">
    <tag k="mountain_pass" v="yes"/>
    <tag k="name" v="Vermuntjoch"/>
  </node>
  <node id="293435540" version="2" timestamp="2008-09-26T20:19:24Z" uid="20587" user="balrog-kun" changeset="701054" lat="52.1594154" lon="21.0356974"/>
  <node id="293437040" version="3" timestamp="2010-07-06T08:42:31Z" uid="6975" user="ulfl" changeset="5148384" lat="48.1219798" lon="10.1127408">
    <tag k="highway" v="services"/>
    <tag k="name" v="Illertal-Ost"/>
  </node>
  <node id="293437040" version="4" timestamp="2011-04-04T20:56:51Z" uid="391611" user="Syncronius" changeset="7769593" lat="48.1229622" lon="10.1120771">
    <tag k="highway" v="services"/>
    <tag k="name" v="Illertal-Ost"/>
  </node>
  <node id="293437046" version="2" timestamp="2010-07-06T08:38:13Z" uid="6975" user="ulfl" changeset="5148349" lat="48.1227648" lon="10.1126549">
    <tag k="addr:city" v="Dettingen an der Iller"/>
    <tag k="addr:country" v="DE"/>
    <tag k="addr:postcode" v="88451"/>
    <tag k="amenity" v="fuel"/>
    <tag k="name" v="Tankstelle Illertal - Ost"/>
    <tag k="operator" v="Shell"/>
    <tag k="phone" v="07354 576"/>
  </node>
  <node id="293437047" version="3" timestamp="2010-07-06T08:38:14Z" uid="6975" user="ulfl" changeset="5148349" lat="48.1241635" lon="10.1124553">
    <tag k="addr:city" v="Dettingen/Iller"/>
    <tag k="addr:country" v="DE"/>
    <tag k="addr:postcode" v="88451"/>
    <tag k="amenity" v="restaurant"/>
    <tag k="name" v="Kunst-Raststätte Illertal (Ost)"/>
    <tag k="phone" v="07354 93220"/>
  </node>
  <node id="293430040" version="7" timestamp="2012-07-18T18:24:01Z" uid="722137" user="OSMF Redaction Account" changeset="12292256" lat="52.966887" lon="10.561045"/>
  <node id="293430988" version="5" timestamp="2012-07-18T18:23:45Z" uid="722137" user="OSMF Redaction Account" changeset="12292222" lat="52.966246" lon="10.5620578"/>
  <node id="293431122" version="6" timestamp="2012-06-05T13:24:52Z" uid="51324" user="OPerivar" changeset="11805995" lat="52.9649008" lon="10.5630441">
    <tag k="addr:city" v="Uelzen"/>
    <tag k="addr:country" v="DE"/>
    <tag k="addr:housenumber" v="25"/>
    <tag k="addr:postcode" v="29525"/>
    <tag k="addr:street" v="Gudesstraße"/>
    <tag k="amenity" v="bank"/>
    <tag k="atm" v="yes"/>
    <tag k="name" v="Volksbank"/>
    <tag k="wheelchair" v="yes"/>
  </node>
  <node id="293431122" version="7" timestamp="2012-07-18T17:21:02Z" uid="722137" user="OSMF Redaction Account" changeset="12290353" lat="52.9649008" lon="10.5630441"/>
  <node id="293431124" version="7" timestamp="2012-07-18T17:21:00Z" uid="722137" user="OSMF Redaction Account" changeset="12290353" lat="52.9647927" lon="10.5627443"/>
  <node id="293432543" version="4" timestamp="2012-07-18T18:23:25Z" uid="722137" user="OSMF Redaction Account" changeset="12292222" lat="52.9654238" lon="10.5570725"/>
  <node id="293432996" version="5" timestamp="2012-07-18T18:24:30Z" uid="722137" user="OSMF Redaction Account" changeset="12292282" lat="52.9679256" lon="10.5610606"/>
  <node id="293437040" version="5" timestamp="2012-06-30T07:55:20Z" uid="328577" user="minkus" changeset="12063335" lat="48.1229621" lon="10.1120459"/>
  <node id="293437046" version="3" timestamp="2012-06-30T07:55:18Z" uid="328577" user="minkus" changeset="12063335" lat="48.1227648" lon="10.1126549">
    <tag k="addr:city" v="Dettingen an der Iller"/>
    <tag k="addr:country" v="DE"/>
    <tag k="addr:postcode" v="88451"/>
    <tag k="amenity" v="fuel"/>
    <tag k="name" v="Tankstelle Illertal-Ost"/>
    <tag k="operator" v="Shell"/>
    <tag k="phone" v="07354 576"/>
  </node>
  <node id="293437046" version="4" timestamp="2012-07-17T07:13:04Z" uid="722137" user="OSMF Redaction Account" changeset="12259247" lat="48.1227648" lon="10.1126549">
    <tag k="amenity" v="fuel"/>
    <tag k="name" v="Shell"/>
  </node>
  <node id="293437047" version="4" timestamp="2012-06-30T07:55:21Z" uid="328577" user="minkus" changeset="12063335" lat="48.1241635" lon="10.1124553"/>
</osm>
