<?xml version='1.0' encoding='UTF-8'?>
<osm version="0.6" generator="libosmium/2.20.0">
  <node id="29350174" version="2" timestamp="2008-02-16T19:38:04Z" uid="6975" user="ulfl" changeset="141861" lat="51.2633881" lon="1.1009087">
    <tag k="highway" v="bus_stop"/>
  </node>
  <node id="29350174" version="3" timestamp="2011-04-04T22:12:31Z" uid="6809" user="TimSC" changeset="7770280" lat="51.2633881" lon="1.1009087">
    <tag k="alt_name" v="Old Dover Road Gate Inn"/>
    <tag k="highway" v="bus_stop"/>
    <tag k="name" v="St Anselm&apos;s School"/>
    <tag k="naptan:AltCommonName" v="Old Dover Road Gate Inn"/>
    <tag k="naptan:AltStreet" v="Not Specified"/>
    <tag k="naptan:AtcoCode" v="240096695"/>
    <tag k="naptan:Bearing" v="SE"/>
    <tag k="naptan:CommonName" v="St Anselm&apos;s School"/>
    <tag k="naptan:Indicator" v="opp"/>
    <tag k="naptan:Landmark" v="St Anselm&apos;s School"/>
    <tag k="naptan:NaptanCode" v="kntgmama"/>
    <tag k="naptan:PlusbusZoneRef" v="CNTBE"/>
    <tag k="naptan:Street" v="Old Dover Road"/>
    <tag k="naptan:verified" v="no"/>
    <tag k="source" v="naptan_import"/>
  </node>
  <node id="29350174" version="4" timestamp="2012-01-22T15:36:20Z" uid="7037" user="Gregory Williams" changeset="10465882" lat="51.2633881" lon="1.1009087"/>
  <node id="29350175" version="2" timestamp="2008-02-16T19:38:05Z" uid="6975" user="ulfl" changeset="141861" lat="51.2631208" lon="1.1012009">
    <tag k="highway" v="bus_stop"/>
  </node>
  <node id="29350175" version="3" timestamp="2011-04-04T22:12:31Z" uid="6809" user="TimSC" changeset="7770280" lat="51.2631208" lon="1.1012009">
    <tag k="alt_name" v="Old Dover Road Gate Inn"/>
    <tag k="highway" v="bus_stop"/>
    <tag k="name" v="St Anselm&apos;s School"/>
    <tag k="naptan:AltCommonName" v="Old Dover Road Gate Inn"/>
    <tag k="naptan:AltStreet" v="Not Specified"/>
    <tag k="naptan:AtcoCode" v="2400A039660A"/>
    <tag k="naptan:Bearing" v="NW"/>
    <tag k="naptan:CommonName" v="St Anselm&apos;s School"/>
    <tag k="naptan:Indicator" v="adj"/>
    <tag k="naptan:Landmark" v="St Anselm&apos;s School"/>
    <tag k="naptan:NaptanCode" v="kntdpmtj"/>
    <tag k="naptan:PlusbusZoneRef" v="CNTBE"/>
    <tag k="naptan:Street" v="Old Dover Road"/>
    <tag k="naptan:verified" v="no"/>
    <tag k="source" v="naptan_import"/>
  </node>
  <node id="29350175" version="4" timestamp="2012-01-22T15:36:20Z" uid="7037" user="Gregory Williams" changeset="10465882" lat="51.2631208" lon="1.1012009"/>
  <node id="29350181" version="2" timestamp="2008-02-16T19:38:06Z" uid="6975" user="ulfl" changeset="141861" lat="51.2655454" lon="1.0973898">
    <tag k="highway" v="bus_stop"/>
  </node>
  <node id="29350181" version="3" timestamp="2012-01-22T15:36:22Z" uid="7037" user="Gregory Williams" changeset="10465882" lat="51.2655454" lon="1.0973898"/>
  <node id="29350184" version="2" timestamp="2008-02-16T19:38:06Z" uid="6975" user="ulfl" changeset="141861" lat="51.265303" lon="1.097623">
    <tag k="highway" v="bus_stop"/>
  </node>
  <node id="29350184" version="3" timestamp="2012-01-22T15:36:23Z" uid="7037" user="Gregory Williams" changeset="10465882" lat="51.265303" lon="1.097623"/>
  <node id="29357976" version="1" timestamp="2007-05-19T17:09:03Z" uid="6454" user="B10xxx" changeset="58120" lat="42.8775124" lon="-8.5452941">
    <tag k="created_by" v="JOSM"/>
    <tag k="name" v="Santiago de Compostela"/>
    <tag k="place" v="city"/>
  </node>
  <node id="29357976" version="2" timestamp="2008-09-21T13:03:15Z" uid="35787" user="Randbewohner" changeset="672712" lat="42.8775157" lon="-8.5453004">
    <tag k="created_by" v="Potlatch 0.10b"/>
    <tag k="is_in" v="A Coruña, Galicia, Spain, EU"/>
    <tag k="name" v="Santiago de Compostela"/>
    <tag k="name:bg" v="Сантяго де Компостела"/>
    <tag k="name:ca" v="Santiago de Compostel·la"/>
    <tag k="name:eu" v="Compostelako Donejakue"/>
    <tag k="name:fa" v="سانتیاگو د کامپوستلا"/>
    <tag k="name:fr" v="Saint-Jacques-de-Compostelle"/>
    <tag k="name:he" v="סנטיאגו דה קומפוסטלה"/>
    <tag k="name:it" v="Santiago di Compostela"/>
    <tag k="name:ja" v="サンティアゴ・デ・コンポステーラ"/>
    <tag k="name:la" v="Compostella"/>
    <tag k="name:lt" v="Santjago de Kompostela"/>
    <tag k="name:nl" v="Santiago de Compostella"/>
    <tag k="name:oc" v="Compostèla"/>
    <tag k="name:ru" v="Сантьяго-де-Компостела"/>
    <tag k="name:sr" v="Сантијаго де Компостела"/>
    <tag k="name:th" v="ซานเตียโกเดกอมโปสเตลา"/>
    <tag k="name:uk" v="Сантьяґо-де-Компостела"/>
    <tag k="name:zh" v="孔波斯特拉的聖地牙哥"/>
    <tag k="place" v="town"/>
    <tag k="population" v="93712"/>
  </node>
  <node id="29357976" version="3" timestamp="2009-09-13T19:42:19Z" uid="143685" user="Rodrigo Cota" changeset="2474853" lat="42.8775195" lon="-8.5453017">
    <tag k="created_by" v="Potlatch 0.10b"/>
    <tag k="is_in" v="A Coruña, Galicia, Spain, EU"/>
    <tag k="name" v="Santiago de Compostela"/>
    <tag k="name:bg" v="Сантяго де Компостела"/>
    <tag k="name:ca" v="Santiago de Compostel·la"/>
    <tag k="name:eu" v="Compostelako Donejakue"/>
    <tag k="name:fa" v="سانتیاگو د کامپوستلا"/>
    <tag k="name:fr" v="Saint-Jacques-de-Compostelle"/>
    <tag k="name:he" v="סנטיאגו דה קומפוסטלה"/>
    <tag k="name:it" v="Santiago di Compostela"/>
    <tag k="name:ja" v="サンティアゴ・デ・コンポステーラ"/>
    <tag k="name:la" v="Compostella"/>
    <tag k="name:lt" v="Santjago de Kompostela"/>
    <tag k="name:nl" v="Santiago de Compostella"/>
    <tag k="name:oc" v="Compostèla"/>
    <tag k="name:ru" v="Сантьяго-де-Компостела"/>
    <tag k="name:sr" v="Сантијаго де Компостела"/>
    <tag k="name:th" v="ซานเตียโกเดกอมโปสเตลา"/>
    <tag k="name:uk" v="Сантьяґо-де-Компостела"/>
    <tag k="name:zh" v="孔波斯特拉的聖地牙哥"/>
    <tag k="place" v="city"/>
    <tag k="population" v="93712"/>
  </node>
  <node id="29357976" version="4" timestamp="2009-10-23T22:07:38Z" uid="26599" user="cdavila" changeset="2933726" lat="42.8775195" lon="-8.5453017">
    <tag k="is_in" v="A Coruña;Galicia;España;Europe"/>
    <tag k="name" v="Santiago de Compostela"/>
    <tag k="name:bg" v="Сантяго де Компостела"/>
    <tag k="name:ca" v="Santiago de Compostel·la"/>
    <tag k="name:eu" v="Compostelako Donejakue"/>
    <tag k="name:fa" v="سانتیاگو د کامپوستلا"/>
    <tag k="name:fr" v="Saint-Jacques-de-Compostelle"/>
    <tag k="name:he" v="סנטיאגו דה קומפוסטלה"/>
    <tag k="name:it" v="Santiago di Compostela"/>
    <tag k="name:ja" v="サンティアゴ・デ・コンポステーラ"/>
    <tag k="name:la" v="Compostella"/>
    <tag k="name:lt" v="Santjago de Kompostela"/>
    <tag k="name:nl" v="Santiago de Compostella"/>
    <tag k="name:oc" v="Compostèla"/>
    <tag k="name:ru" v="Сантьяго-де-Компостела"/>
    <tag k="name:sr" v="Сантијаго де Компостела"/>
    <tag k="name:th" v="ซานเตียโกเดกอมโปสเตลา"/>
    <tag k="name:uk" v="Сантьяґо-де-Компостела"/>
    <tag k="name:zh" v="孔波斯特拉的聖地牙哥"/>
    <tag k="place" v="city"/>
    <tag k="population" v="93712"/>
  </node>
  <node id="29357976" version="5" timestamp="2010-06-10T17:11:56Z" uid="26599" user="cdavila" changeset="4955762" lat="42.8775195" lon="-8.5453017">
    <tag k="is_in" v="A Coruña;Galicia;España;Europe"/>
    <tag k="name" v="Santiago de Compostela"/>
    <tag k="name:bg" v="Сантяго де Компостела"/>
    <tag k="name:ca" v="Santiago de Compostel·la"/>
    <tag k="name:eu" v="Compostelako Donejakue"/>
    <tag k="name:fa" v="سانتیاگو د کامپوستلا"/>
    <tag k="name:fr" v="Saint-Jacques-de-Compostelle"/>
    <tag k="name:he" v="סנטיאגו דה קומפוסטלה"/>
    <tag k="name:it" v="Santiago di Compostela"/>
    <tag k="name:ja" v="サンティアゴ・デ・コンポステーラ"/>
    <tag k="name:la" v="Compostella"/>
    <tag k="name:lt" v="Santjago de Kompostela"/>
    <tag k="name:nl" v="Santiago de Compostella"/>
    <tag k="name:oc" v="Compostèla"/>
    <tag k="name:ru" v="Сантьяго-де-Компостела"/>
    <tag k="name:sr" v="Сантијаго де Компостела"/>
    <tag k="name:th" v="ซานเตียโกเดกอมโปสเตลา"/>
    <tag k="name:uk" v="Сантьяґо-де-Компостела"/>
    <tag k="name:zh" v="孔波斯特拉的聖地牙哥"/>
    <tag k="place" v="city"/>
    <tag k="population" v="93712"/>
  </node>
  <node id="29358118" version="2" timestamp="2010-06-29T19:01:06Z" uid="74617" user="JohnSmith" changeset="5108182" lat="43.6701974" lon="1.4616009"/>
  <node id="29358119" version="3" timestamp="2010-06-29T19:02:13Z" uid="74617" user="JohnSmith" changeset="5108182" lat="43.6684934" lon="1.4619752"/>
  <node id="29358121" version="3" timestamp="2010-06-29T19:02:03Z" uid="74617" user="JohnSmith" changeset="5108182" lat="43.6683454" lon="1.458988"/>
  <node id="29358122" version="3" timestamp="2010-06-29T19:01:21Z" uid="74617" user="JohnSmith" changeset="5108182" lat="43.6699036" lon="1.4585791"/>
  <node id="29358970" version="1" timestamp="2007-05-19T17:19:33Z" uid="6454" user="B10xxx" changeset="58120" lat="43.3145873" lon="-1.4001852">
    <tag k="created_by" v="JOSM"/>
    <tag k="name" v="Pas de Roland"/>
    <tag k="tourism" v="attraction"/>
  </node>
  <node id="29358970" version="2" timestamp="2009-09-12T13:46:50Z" uid="17602" user="B10xyz" changeset="2458140" lat="43.3143775" lon="-1.4005199">
    <tag k="name" v="Pas de Roland"/>
    <tag k="tourism" v="attraction"/>
  </node>
  <node id="29359148" version="1" timestamp="2007-05-19T17:23:33Z" uid="6454" user="B10xxx" changeset="58120" lat="43.312806" lon="-1.4003123">
    <tag k="created_by" v="JOSM"/>
    <tag k="name" v="Hotel-Restaurant du Pas de Roland"/>
    <tag k="tourism" v="hotel"/>
  </node>
  <node id="29359148" version="2" timestamp="2009-09-12T13:46:49Z" uid="17602" user="B10xyz" changeset="2458140" lat="43.3126656" lon="-1.4009564">
    <tag k="name" v="Hotel-Restaurant du Pas de Roland"/>
    <tag k="tourism" v="hotel"/>
  </node>
  <node id="29359148" version="3" timestamp="2010-09-27T20:37:58Z" uid="10610" user="RedFox" changeset="5895633" lat="43.3126656" lon="-1.4009564">
    <tag k="name" v="Hotel-Restaurant du Pas de Roland"/>
    <tag k="tourism" v="hotel"/>
  </node>
  <node id="29358970" version="3" timestamp="2012-07-15T19:17:26Z" uid="722137" user="OSMF Redaction Account" changeset="12234575" lat="43.3143775" lon="-1.4005199"/>
</osm>
