<?xml version='1.0' encoding='UTF-8'?>
<osm version="0.6" generator="libosmium/2.20.0">
  <node id="294510452" version="1" timestamp="2008-09-07T08:02:15Z" uid="19626" user="Swamp" changeset="564130" lat="-33.9171302" lon="147.2116881"/>
  <node id="294510458" version="1" timestamp="2008-09-07T08:02:15Z" uid="19626" user="Swamp" changeset="564130" lat="-33.9169662" lon="147.2107882"/>
  <node id="294510465" version="1" timestamp="2008-09-07T08:02:16Z" uid="19626" user="Swamp" changeset="564130" lat="-33.9173484" lon="147.2119438">
    <tag k="name" v="West Wyalong small Bore &amp; Air Rifle Club"/>
    <tag k="sport" v="shooting"/>
  </node>
  <node id="294510758" version="5" timestamp="2009-12-09T02:21:22Z" uid="200463" user="harmagedon" changeset="3330572" lat="48.6132103" lon="13.9064799">
    <tag k="addr:housenumber" v="10"/>
    <tag k="addr:postcode" v="4153"/>
    <tag k="addr:street" v="Rinnm端hle"/>
    <tag k="amenity" v="restaurant"/>
    <tag k="name" v="Fuchs-Eisner - Hubertushof"/>
  </node>
  <node id="294510758" version="6" timestamp="2010-10-23T09:55:59Z" uid="211966" user="Hetzi" changeset="6143374" lat="48.6131498" lon="13.906829">
    <tag k="addr:housenumber" v="10"/>
    <tag k="addr:postcode" v="4153"/>
    <tag k="addr:street" v="Rinnm端hle"/>
    <tag k="amenity" v="restaurant"/>
    <tag k="name" v="Fuchs-Eisner - Hubertushof"/>
  </node>
  <node id="294510452" version="2" timestamp="2012-07-19T11:11:33Z" uid="722137" user="OSMF Redaction Account" changeset="12320821" lat="-33.9171302" lon="147.2116881"/>
  <node id="294510458" version="2" timestamp="2012-07-19T11:11:33Z" uid="722137" user="OSMF Redaction Account" changeset="12320821" lat="-33.9169662" lon="147.2107882"/>
  <node id="294510465" version="2" timestamp="2012-07-19T11:11:33Z" uid="722137" user="OSMF Redaction Account" changeset="12320821" lat="-33.9173484" lon="147.2119438"/>
  <node id="294510758" version="7" timestamp="2012-06-17T07:02:28Z" uid="696248" user="Markuskoblbauer" changeset="11922081" lat="48.6131498" lon="13.906829">
    <tag k="addr:housenumber" v="10"/>
    <tag k="addr:postcode" v="4153"/>
    <tag k="addr:street" v="Rinnm端hle"/>
    <tag k="amenity" v="restaurant"/>
    <tag k="name" v="Fuchs-Eisner - Hubertushof"/>
    <tag k="wheelchair" v="limited"/>
    <tag k="wheelchair:description" v="WC erreichbar aber T端r zu eng."/>
  </node>
</osm>
