<?xml version='1.0' encoding='UTF-8'?>
<osm version="0.6" generator="libosmium/2.20.0">
  <node id="294660354" version="1" timestamp="2008-09-07T13:09:46Z" uid="64486" user="Sebastian Schmidt" changeset="568564" lat="48.0968566" lon="11.5027475"/>
  <node id="294660354" version="2" timestamp="2008-09-13T02:53:32Z" uid="36809" user="pfoten_weg_!_" changeset="619441" lat="48.0968566" lon="11.5027475"/>
  <node id="294661078" version="1" timestamp="2008-09-07T13:11:18Z" uid="43967" user="railsnail" changeset="566310" lat="46.724236" lon="12.2300631"/>
  <node id="294661078" version="2" timestamp="2009-01-11T15:34:09Z" uid="43967" user="railsnail" changeset="774181" lat="46.724236" lon="12.2300631"/>
  <node id="294661078" version="3" timestamp="2009-03-10T20:40:09Z" uid="43967" user="railsnail" changeset="778596" lat="46.724236" lon="12.2300631"/>
  <node id="294661078" version="4" timestamp="2009-03-10T20:41:39Z" uid="43967" user="railsnail" changeset="778596" lat="46.724236" lon="12.2300631"/>
  <node id="294661078" version="5" timestamp="2009-03-10T20:42:29Z" uid="43967" user="railsnail" changeset="778596" lat="46.724236" lon="12.2300631"/>
  <node id="294661078" version="6" timestamp="2010-04-07T14:57:48Z" uid="43967" user="railsnail" changeset="4355506" lat="46.724236" lon="12.2300631"/>
  <node id="294661078" version="7" timestamp="2011-10-01T19:25:21Z" uid="334153" user="Alexander Roalter" changeset="9445215" lat="46.7242764" lon="12.2300097"/>
  <node id="294661079" version="1" timestamp="2008-09-07T13:11:18Z" uid="43967" user="railsnail" changeset="566310" lat="46.7241948" lon="12.2313506"/>
  <node id="294661079" version="2" timestamp="2009-01-11T15:34:09Z" uid="43967" user="railsnail" changeset="774181" lat="46.7241948" lon="12.2313506"/>
  <node id="294661079" version="3" timestamp="2009-03-10T20:40:09Z" uid="43967" user="railsnail" changeset="778596" lat="46.7241948" lon="12.2313506"/>
  <node id="294661079" version="4" timestamp="2009-03-10T20:41:39Z" uid="43967" user="railsnail" changeset="778596" lat="46.7241948" lon="12.2313506"/>
  <node id="294661079" version="5" timestamp="2009-03-10T20:42:29Z" uid="43967" user="railsnail" changeset="778596" lat="46.7241948" lon="12.2313506"/>
  <node id="294661079" version="6" timestamp="2010-03-21T02:56:56Z" uid="29765" user="Glg11" changeset="4186993" lat="46.7241948" lon="12.2315951"/>
  <node id="294661079" version="7" timestamp="2010-04-07T14:57:49Z" uid="43967" user="railsnail" changeset="4355506" lat="46.7241948" lon="12.2315951"/>
  <node id="294661079" version="8" timestamp="2011-10-01T19:25:21Z" uid="334153" user="Alexander Roalter" changeset="9445215" lat="46.7242333" lon="12.2317159"/>
  <node id="294661080" version="1" timestamp="2008-09-07T13:11:18Z" uid="43967" user="railsnail" changeset="566310" lat="46.7251951" lon="12.2371613"/>
  <node id="294661080" version="2" timestamp="2009-01-11T15:34:09Z" uid="43967" user="railsnail" changeset="774181" lat="46.7251951" lon="12.2371613"/>
  <node id="294661080" version="3" timestamp="2009-03-10T20:40:09Z" uid="43967" user="railsnail" changeset="778596" lat="46.7251951" lon="12.2371613"/>
  <node id="294661080" version="4" timestamp="2009-03-10T20:41:40Z" uid="43967" user="railsnail" changeset="778596" lat="46.7251951" lon="12.2371613"/>
  <node id="294661080" version="5" timestamp="2009-03-10T20:42:30Z" uid="43967" user="railsnail" changeset="778596" lat="46.7251951" lon="12.2371613"/>
  <node id="294661080" version="6" timestamp="2010-03-21T02:57:13Z" uid="29765" user="Glg11" changeset="4186993" lat="46.7251951" lon="12.2371613"/>
  <node id="294663604" version="6" timestamp="2009-06-21T16:50:24Z" uid="85955" user="Gerd Höweler" changeset="1585389" lat="52.053792" lon="8.5961669"/>
  <node id="294665892" version="2" timestamp="2008-10-29T00:07:39Z" uid="67142" user="zottel" changeset="618553" lat="48.8897377" lon="8.7009215">
    <tag k="addr:city" v="Pforzheim"/>
    <tag k="addr:housenumber" v="5"/>
    <tag k="addr:postcode" v="75172"/>
    <tag k="addr:street" v="Am Waisenhausplatz"/>
    <tag k="amenity" v="theatre"/>
    <tag k="fax" v="+49 7231 391485"/>
    <tag k="name" v="Theater Pforzheim"/>
    <tag k="phone" v="+49 7231 391488"/>
    <tag k="phone:reservation" v="+49 7231 392440"/>
    <tag k="url" v="http://www.theater-pforzheim.de/"/>
  </node>
  <node id="294665892" version="3" timestamp="2008-11-24T12:05:43Z" uid="67142" user="zottel" changeset="786896" lat="48.8897377" lon="8.7009215">
    <tag k="addr:city" v="Pforzheim"/>
    <tag k="addr:housenumber" v="5"/>
    <tag k="addr:postcode" v="75172"/>
    <tag k="addr:street" v="Am Waisenhausplatz"/>
    <tag k="amenity" v="theatre"/>
    <tag k="fax" v="+49 7231 391485"/>
    <tag k="name" v="Theater Pforzheim"/>
    <tag k="phone" v="+49 7231 391488"/>
    <tag k="phone:reservation" v="+49 7231 392440"/>
    <tag k="url" v="http://www.theater-pforzheim.de/"/>
  </node>
  <node id="294665897" version="2" timestamp="2008-10-28T15:42:56Z" uid="67142" user="zottel" changeset="610348" lat="48.8893698" lon="8.7031804">
    <tag k="addr:city" v="Pforzheim"/>
    <tag k="addr:housenumber" v="32-36"/>
    <tag k="addr:postcode" v="75175"/>
    <tag k="addr:street" v="Deimlingstrasse"/>
    <tag k="fax" v="+49 7231 161690"/>
    <tag k="name" v="Parkhotel"/>
    <tag k="phone" v="+49 7231 1610"/>
    <tag k="tourism" v="hotel"/>
    <tag k="url" v="http://www.parkhotel-pforzheim.de/"/>
  </node>
  <node id="294665897" version="3" timestamp="2008-10-31T21:48:06Z" uid="67142" user="zottel" changeset="646537" lat="48.8893698" lon="8.7031804">
    <tag k="addr:city" v="Pforzheim"/>
    <tag k="addr:housenumber" v="32-36"/>
    <tag k="addr:postcode" v="75175"/>
    <tag k="addr:street" v="Deimlingstraße"/>
    <tag k="fax" v="+49 7231 161690"/>
    <tag k="name" v="Parkhotel"/>
    <tag k="phone" v="+49 7231 1610"/>
    <tag k="tourism" v="hotel"/>
    <tag k="url" v="http://www.parkhotel-pforzheim.de/"/>
  </node>
  <node id="294665897" version="4" timestamp="2009-08-31T18:33:27Z" uid="64482" user="Claas Augner" changeset="2329754" lat="48.8891859" lon="8.7028268">
    <tag k="addr:city" v="Pforzheim"/>
    <tag k="addr:housenumber" v="32-36"/>
    <tag k="addr:postcode" v="75175"/>
    <tag k="addr:street" v="Deimlingstraße"/>
    <tag k="fax" v="+49 7231 161690"/>
    <tag k="name" v="Parkhotel"/>
    <tag k="phone" v="+49 7231 1610"/>
    <tag k="tourism" v="hotel"/>
    <tag k="url" v="http://www.parkhotel-pforzheim.de/"/>
  </node>
  <node id="294665897" version="5" timestamp="2010-09-19T15:36:16Z" uid="65148" user="Pirat Michi" changeset="5820767" lat="48.8891859" lon="8.7028268">
    <tag k="addr:city" v="Pforzheim"/>
    <tag k="addr:housenumber" v="32-36"/>
    <tag k="addr:postcode" v="75175"/>
    <tag k="addr:street" v="Deimlingstraße"/>
    <tag k="fax" v="+49 7231 161690"/>
    <tag k="name" v="Parkhotel"/>
    <tag k="phone" v="+49 7231 1610"/>
    <tag k="tourism" v="hotel"/>
    <tag k="website" v="http://www.parkhotel-pforzheim.de/"/>
  </node>
  <node id="294665897" version="6" timestamp="2011-08-14T09:22:02Z" uid="290680" user="wheelmap_visitor" changeset="9012631" lat="48.8891859" lon="8.7028268">
    <tag k="addr:city" v="Pforzheim"/>
    <tag k="addr:housenumber" v="32-36"/>
    <tag k="addr:postcode" v="75175"/>
    <tag k="addr:street" v="Deimlingstraße"/>
    <tag k="fax" v="+49 7231 161690"/>
    <tag k="name" v="Parkhotel"/>
    <tag k="phone" v="+49 7231 1610"/>
    <tag k="tourism" v="hotel"/>
    <tag k="website" v="http://www.parkhotel-pforzheim.de/"/>
    <tag k="wheelchair" v="yes"/>
  </node>
  <node id="294665897" version="7" timestamp="2012-01-09T12:58:57Z" uid="442210" user="dwausr" changeset="10341428" lat="48.8891859" lon="8.7028268"/>
  <node id="294666549" version="3" timestamp="2009-12-28T02:32:58Z" uid="30201" user="rrankin" changeset="3468533" lat="-33.7274036" lon="150.9883661"/>
  <node id="294666569" version="2" timestamp="2009-12-14T19:43:42Z" uid="74617" user="JohnSmith" changeset="3374481" lat="-33.7321129" lon="151.0073383">
    <tag k="amenity" v="fuel"/>
    <tag k="operator" v="Mobil"/>
  </node>
  <node id="294666569" version="3" timestamp="2010-06-20T07:53:15Z" uid="299678" user="peteramjet" changeset="5030354" lat="-33.7321129" lon="151.0073383">
    <tag k="amenity" v="fuel"/>
    <tag k="operator" v="Mobil"/>
  </node>
  <node id="294666575" version="2" timestamp="2011-01-22T14:59:10Z" uid="4467" user="Rosscoe" changeset="7051194" lat="-33.7314169" lon="151.0125304">
    <tag k="crossing" v="traffic_signals"/>
    <tag k="highway" v="crossing"/>
  </node>
  <node id="294668920" version="1" timestamp="2008-09-07T13:28:40Z" uid="18713" user="Diego" changeset="564033" lat="-33.7399563" lon="151.0385358">
    <tag k="amenity" v="speed_camera"/>
    <tag k="name" v="speed camera"/>
  </node>
  <node id="294668920" version="2" timestamp="2008-09-13T23:21:44Z" uid="6975" user="ulfl" changeset="628567" lat="-33.7399563" lon="151.0385358">
    <tag k="highway" v="speed_camera"/>
    <tag k="name" v="speed camera"/>
  </node>
  <node id="294668920" version="3" timestamp="2009-01-15T23:28:38Z" uid="17425" user="jackb" changeset="795973" lat="-33.7400108" lon="151.0385124">
    <tag k="highway" v="speed_camera"/>
    <tag k="name" v="speed camera"/>
  </node>
  <node id="294668920" version="4" timestamp="2011-11-08T14:03:51Z" uid="551209" user="Alanl" changeset="9773447" lat="-33.7400108" lon="151.0385124">
    <tag k="enforcement" v="maxspeed"/>
    <tag k="maxspeed" v="60"/>
  </node>
  <node id="294666549" version="4" timestamp="2012-07-21T22:18:42Z" uid="722137" user="OSMF Redaction Account" changeset="12421572" lat="-33.7273647" lon="150.9884514"/>
  <node id="294666575" version="3" timestamp="2012-07-19T20:50:11Z" uid="722137" user="OSMF Redaction Account" changeset="12346935" lat="-33.7314467" lon="151.0125627">
    <tag k="highway" v="traffic_signals"/>
  </node>
</osm>
