<?xml version='1.0' encoding='UTF-8'?>
<osm version="0.6" generator="libosmium/2.20.0">
  <node id="296170442" version="2" timestamp="2009-04-26T08:17:17Z" uid="7617" user="Franc" changeset="969890" lat="-33.9664792" lon="150.8024603"/>
  <node id="296170442" version="3" timestamp="2010-01-30T03:42:21Z" uid="7617" user="Franc" changeset="3748173" lat="-33.9664578" lon="150.8024394"/>
  <node id="296172128" version="1" timestamp="2008-09-12T18:50:59Z" uid="50321" user="rrr" changeset="616452" lat="53.1697184" lon="8.1409185">
    <tag k="barrier" v="bollards"/>
  </node>
  <node id="296172128" version="2" timestamp="2008-09-14T14:32:52Z" uid="6975" user="ulfl" changeset="640534" lat="53.1697184" lon="8.1409185">
    <tag k="barrier" v="bollard"/>
  </node>
  <node id="296172142" version="1" timestamp="2008-09-12T18:51:02Z" uid="50321" user="rrr" changeset="616452" lat="53.1705361" lon="8.1401972">
    <tag k="barrier" v="bollards"/>
    <tag k="bicycle" v="yes"/>
    <tag k="foot" v="yes"/>
  </node>
  <node id="296172142" version="2" timestamp="2008-09-14T14:32:51Z" uid="6975" user="ulfl" changeset="640534" lat="53.1705361" lon="8.1401972">
    <tag k="barrier" v="bollard"/>
    <tag k="bicycle" v="yes"/>
    <tag k="foot" v="yes"/>
  </node>
  <node id="296172142" version="3" timestamp="2009-12-02T14:24:31Z" uid="6326" user="mike_hd" changeset="3272601" lat="53.1705361" lon="8.1401972">
    <tag k="barrier" v="bollard"/>
    <tag k="bicycle" v="yes"/>
    <tag k="foot" v="yes"/>
  </node>
  <node id="296172142" version="4" timestamp="2009-12-02T14:24:51Z" uid="6326" user="mike_hd" changeset="3272601" lat="53.1705535" lon="8.140182">
    <tag k="barrier" v="bollard"/>
    <tag k="bicycle" v="yes"/>
    <tag k="foot" v="yes"/>
  </node>
  <node id="296172478" version="1" timestamp="2008-09-12T18:53:58Z" uid="66674" user="GunnarSchmidt" changeset="618173" lat="51.8832962" lon="8.2340423">
    <tag k="created_by" v="JOSM"/>
  </node>
  <node id="296172478" version="2" timestamp="2011-05-16T21:42:37Z" uid="107703" user="herisusa" changeset="8167064" lat="51.8832962" lon="8.2339839"/>
  <node id="296172479" version="1" timestamp="2008-09-12T18:53:59Z" uid="66674" user="GunnarSchmidt" changeset="618173" lat="51.8835192" lon="8.2339849">
    <tag k="created_by" v="JOSM"/>
  </node>
  <node id="296172479" version="2" timestamp="2011-05-16T21:42:37Z" uid="107703" user="herisusa" changeset="8167064" lat="51.8834652" lon="8.2338941"/>
  <node id="296172480" version="1" timestamp="2008-09-12T18:53:59Z" uid="66674" user="GunnarSchmidt" changeset="618173" lat="51.8837423" lon="8.2338256">
    <tag k="created_by" v="JOSM"/>
  </node>
  <node id="296172480" version="2" timestamp="2011-05-16T21:42:38Z" uid="107703" user="herisusa" changeset="8167064" lat="51.883725" lon="8.2337543"/>
  <node id="296172481" version="1" timestamp="2008-09-12T18:53:59Z" uid="66674" user="GunnarSchmidt" changeset="618173" lat="51.8839961" lon="8.2337694">
    <tag k="created_by" v="JOSM"/>
  </node>
  <node id="296172481" version="2" timestamp="2011-05-16T21:42:38Z" uid="107703" user="herisusa" changeset="8167064" lat="51.8840026" lon="8.2337413"/>
  <node id="296172482" version="1" timestamp="2008-09-12T18:53:59Z" uid="66674" user="GunnarSchmidt" changeset="618173" lat="51.8852851" lon="8.2345048">
    <tag k="created_by" v="JOSM"/>
  </node>
  <node id="296172482" version="2" timestamp="2011-05-16T21:42:37Z" uid="107703" user="herisusa" changeset="8167064" lat="51.8852548" lon="8.2344572"/>
  <node id="296172482" version="3" timestamp="2012-03-17T22:36:13Z" uid="107703" user="herisusa" changeset="11013396" lat="51.8852936" lon="8.2344506"/>
  <node id="296172483" version="1" timestamp="2008-09-12T18:53:59Z" uid="66674" user="GunnarSchmidt" changeset="618173" lat="51.8867406" lon="8.2346566">
    <tag k="created_by" v="JOSM"/>
  </node>
  <node id="296172483" version="2" timestamp="2011-09-28T20:56:01Z" uid="107703" user="herisusa" changeset="9423104" lat="51.8867831" lon="8.234596"/>
  <node id="296172484" version="1" timestamp="2008-09-12T18:53:59Z" uid="66674" user="GunnarSchmidt" changeset="618173" lat="51.8869707" lon="8.2345511">
    <tag k="created_by" v="JOSM"/>
  </node>
  <node id="296172484" version="2" timestamp="2011-09-28T20:56:01Z" uid="107703" user="herisusa" changeset="9423104" lat="51.8869639" lon="8.234463"/>
  <node id="296172485" version="1" timestamp="2008-09-12T18:53:59Z" uid="66674" user="GunnarSchmidt" changeset="618173" lat="51.8876368" lon="8.2337105">
    <tag k="created_by" v="JOSM"/>
  </node>
  <node id="296172485" version="2" timestamp="2011-09-28T20:56:01Z" uid="107703" user="herisusa" changeset="9423104" lat="51.8876152" lon="8.2336805"/>
  <node id="296172486" version="1" timestamp="2008-09-12T18:53:59Z" uid="66674" user="GunnarSchmidt" changeset="618173" lat="51.8901584" lon="8.2321405">
    <tag k="amenity" v="telephone"/>
    <tag k="created_by" v="JOSM"/>
  </node>
  <node id="296172486" version="2" timestamp="2011-09-28T20:56:01Z" uid="107703" user="herisusa" changeset="9423104" lat="51.8901462" lon="8.232063">
    <tag k="amenity" v="telephone"/>
  </node>
  <node id="296172487" version="1" timestamp="2008-09-12T18:54:00Z" uid="66674" user="GunnarSchmidt" changeset="618173" lat="51.8847416" lon="8.234415">
    <tag k="amenity" v="nursing_home"/>
    <tag k="created_by" v="JOSM"/>
  </node>
  <node id="296172488" version="1" timestamp="2008-09-12T18:54:00Z" uid="66674" user="GunnarSchmidt" changeset="618173" lat="51.8902314" lon="8.2329405">
    <tag k="created_by" v="JOSM"/>
  </node>
  <node id="296172488" version="2" timestamp="2011-09-28T20:56:02Z" uid="107703" user="herisusa" changeset="9423104" lat="51.8902548" lon="8.2329333"/>
  <node id="296172489" version="1" timestamp="2008-09-12T18:54:00Z" uid="66674" user="GunnarSchmidt" changeset="618173" lat="51.8904597" lon="8.2346284">
    <tag k="created_by" v="JOSM"/>
  </node>
  <node id="296172490" version="1" timestamp="2008-09-12T18:54:00Z" uid="66674" user="GunnarSchmidt" changeset="618173" lat="51.8914129" lon="8.2366935">
    <tag k="created_by" v="JOSM"/>
  </node>
  <node id="296175784" version="1" timestamp="2008-09-12T19:00:21Z" uid="38524" user="Kuddy" changeset="612809" lat="49.8619134" lon="7.1779656">
    <tag k="created_by" v="JOSM"/>
    <tag k="name" v="Menhir"/>
    <tag k="tourism" v="attraction"/>
  </node>
  <node id="296175784" version="2" timestamp="2009-02-19T19:14:02Z" uid="38524" user="Kuddy" changeset="561678" lat="49.8619134" lon="7.1779656">
    <tag k="created_by" v="JOSM"/>
    <tag k="historic" v="archaeological_site"/>
    <tag k="megalith_type" v="menhir"/>
    <tag k="name" v="Menhir"/>
    <tag k="site_type" v="megalith"/>
  </node>
  <node id="296175785" version="1" timestamp="2008-09-12T19:00:22Z" uid="38524" user="Kuddy" changeset="612809" lat="49.8613765" lon="7.1775246">
    <tag k="created_by" v="JOSM"/>
    <tag k="name" v="Menhirgruppe"/>
    <tag k="tourism" v="attraction"/>
  </node>
  <node id="296175785" version="2" timestamp="2009-02-19T19:14:02Z" uid="38524" user="Kuddy" changeset="561678" lat="49.8613765" lon="7.1775246">
    <tag k="created_by" v="JOSM"/>
    <tag k="historic" v="archaeological_site"/>
    <tag k="megalith_type" v="menhir"/>
    <tag k="name" v="Menhirgruppe"/>
    <tag k="site_type" v="megalith"/>
  </node>
  <node id="296175786" version="1" timestamp="2008-09-12T19:00:23Z" uid="38524" user="Kuddy" changeset="612809" lat="49.8634665" lon="7.1804583">
    <tag k="created_by" v="JOSM"/>
    <tag k="historic" v="archaeological_site"/>
    <tag k="name" v="Hügelgräber"/>
  </node>
  <node id="296175786" version="2" timestamp="2009-02-19T19:14:02Z" uid="38524" user="Kuddy" changeset="561678" lat="49.8634665" lon="7.1804583">
    <tag k="created_by" v="JOSM"/>
    <tag k="field" v="yes"/>
    <tag k="historic" v="archaeological_site"/>
    <tag k="name" v="Hügelgräber"/>
    <tag k="site_type" v="tumulus"/>
  </node>
  <node id="296175787" version="1" timestamp="2008-09-12T19:00:23Z" uid="38524" user="Kuddy" changeset="612809" lat="49.8566869" lon="7.1700933">
    <tag k="created_by" v="JOSM"/>
    <tag k="historic" v="ruins"/>
    <tag k="name" v="Stumpfer Turm"/>
  </node>
  <node id="296175787" version="2" timestamp="2009-02-19T19:14:02Z" uid="38524" user="Kuddy" changeset="561678" lat="49.8566869" lon="7.1700933">
    <tag k="created_by" v="JOSM"/>
    <tag k="historic" v="castle"/>
    <tag k="name" v="Stumpfer Turm"/>
    <tag k="ruins" v="yes"/>
  </node>
  <node id="296175788" version="1" timestamp="2008-09-12T19:00:24Z" uid="38524" user="Kuddy" changeset="612809" lat="49.8739169" lon="7.1972719">
    <tag k="created_by" v="JOSM"/>
    <tag k="historic" v="archaeological_site"/>
    <tag k="name" v="Hügelgräber"/>
  </node>
  <node id="296175788" version="2" timestamp="2009-02-19T19:14:01Z" uid="38524" user="Kuddy" changeset="561678" lat="49.8739169" lon="7.1972719">
    <tag k="created_by" v="JOSM"/>
    <tag k="field" v="yes"/>
    <tag k="historic" v="archaeological_site"/>
    <tag k="name" v="Hügelgräber"/>
    <tag k="site_type" v="tumulus"/>
  </node>
  <node id="296175789" version="1" timestamp="2008-09-12T19:00:24Z" uid="38524" user="Kuddy" changeset="612809" lat="49.8722088" lon="7.2088875">
    <tag k="created_by" v="JOSM"/>
    <tag k="historic" v="archaeological_site"/>
    <tag k="name" v="Spuren einer Römerstraße"/>
  </node>
  <node id="296175790" version="1" timestamp="2008-09-12T19:00:25Z" uid="38524" user="Kuddy" changeset="612809" lat="49.8645561" lon="7.2326654">
    <tag k="created_by" v="JOSM"/>
    <tag k="name" v="Sirona-Tempel"/>
    <tag k="tourism" v="attraction"/>
  </node>
  <node id="296175791" version="1" timestamp="2008-09-12T19:00:25Z" uid="38524" user="Kuddy" changeset="612809" lat="49.9084905" lon="7.2092291">
    <tag k="created_by" v="JOSM"/>
    <tag k="historic" v="archaeological_site"/>
    <tag k="name" v="Römergrab"/>
  </node>
  <node id="296175791" version="2" timestamp="2009-02-19T19:14:01Z" uid="38524" user="Kuddy" changeset="561678" lat="49.9084905" lon="7.2092291">
    <tag k="created_by" v="JOSM"/>
    <tag k="historic" v="archaeological_site"/>
    <tag k="name" v="Römergrab"/>
    <tag k="site_type" v="tumulus"/>
  </node>
  <node id="296175792" version="1" timestamp="2008-09-12T19:00:26Z" uid="38524" user="Kuddy" changeset="612809" lat="49.881526" lon="7.2160702">
    <tag k="created_by" v="JOSM"/>
    <tag k="historic" v="archaeological_site"/>
    <tag k="name" v="Adelsgräber"/>
  </node>
  <node id="296175792" version="2" timestamp="2009-11-13T20:40:58Z" uid="157412" user="Leopold" changeset="3108621" lat="49.8815313" lon="7.2160676">
    <tag k="historic" v="archaeological_site"/>
    <tag k="name" v="Adelsgräber"/>
  </node>
  <node id="296175793" version="1" timestamp="2008-09-12T19:00:26Z" uid="38524" user="Kuddy" changeset="612809" lat="49.8352748" lon="7.1648098">
    <tag k="created_by" v="JOSM"/>
    <tag k="historic" v="castle"/>
    <tag k="name" v="Burgruine Baldenau"/>
  </node>
  <node id="296175793" version="2" timestamp="2008-11-14T21:29:11Z" uid="38524" user="Kuddy" changeset="752359" lat="49.8352748" lon="7.1648098">
    <tag k="created_by" v="JOSM"/>
    <tag k="name" v="Burgruine Baldenau (Wasserburg)"/>
    <tag k="tourism" v="attraction"/>
  </node>
  <node id="296175793" version="3" timestamp="2009-02-07T17:36:22Z" uid="38524" user="Kuddy" changeset="232930" lat="49.8352748" lon="7.1648098">
    <tag k="created_by" v="JOSM"/>
    <tag k="historic" v="ruins"/>
    <tag k="name" v="Burgruine Baldenau (Wasserburg)"/>
    <tag k="tourism" v="attraction"/>
  </node>
  <node id="296175793" version="4" timestamp="2009-02-19T19:14:01Z" uid="38524" user="Kuddy" changeset="561678" lat="49.8352748" lon="7.1648098">
    <tag k="castle_type" v="Burg"/>
    <tag k="created_by" v="JOSM"/>
    <tag k="historic" v="castle"/>
    <tag k="name" v="Burgruine Baldenau (Wasserburg)"/>
    <tag k="ruins" v="yes"/>
  </node>
  <node id="296175793" version="5" timestamp="2009-03-28T21:04:01Z" uid="38524" user="Kuddy" changeset="865665" lat="49.8351625" lon="7.1647365">
    <tag k="castle_type" v="Burg"/>
    <tag k="created_by" v="JOSM"/>
    <tag k="historic" v="castle"/>
    <tag k="name" v="Burgruine Baldenau (Wasserburg)"/>
    <tag k="ruins" v="yes"/>
  </node>
  <node id="296175793" version="6" timestamp="2010-08-26T14:28:34Z" uid="14228" user="KK-O" changeset="5599546" lat="49.8351657" lon="7.1647374">
    <tag k="castle_type" v="defensive"/>
    <tag k="historic" v="castle"/>
    <tag k="name" v="Burgruine Baldenau (Wasserburg)"/>
    <tag k="ruins" v="yes"/>
  </node>
  <node id="296175793" version="7" timestamp="2010-08-26T14:29:35Z" uid="14228" user="KK-O" changeset="5599546" lat="49.8351657" lon="7.1647374">
    <tag k="castle_type" v="defensive"/>
    <tag k="castle_type:de" v="Burg"/>
    <tag k="historic" v="castle"/>
    <tag k="name" v="Burgruine Baldenau (Wasserburg)"/>
    <tag k="ruins" v="yes"/>
  </node>
  <node id="296175793" version="8" timestamp="2011-06-25T13:18:07Z" uid="78656" user="Walter Schlögl" changeset="8542336" lat="49.8351657" lon="7.1647374"/>
  <node id="296175794" version="1" timestamp="2008-09-12T19:00:27Z" uid="38524" user="Kuddy" changeset="612809" lat="49.8547439" lon="7.1498024">
    <tag k="created_by" v="JOSM"/>
    <tag k="historic" v="archaeological_site"/>
    <tag k="name" v="Römergrab"/>
  </node>
  <node id="296175795" version="1" timestamp="2008-09-12T19:00:27Z" uid="38524" user="Kuddy" changeset="612809" lat="49.8579115" lon="7.1469741">
    <tag k="created_by" v="JOSM"/>
    <tag k="historic" v="archaeological_site"/>
    <tag k="name" v="Grabhügel"/>
  </node>
  <node id="296175795" version="2" timestamp="2009-02-19T19:14:01Z" uid="38524" user="Kuddy" changeset="561678" lat="49.8579115" lon="7.1469741">
    <tag k="created_by" v="JOSM"/>
    <tag k="historic" v="archaeological_site"/>
    <tag k="name" v="Grabhügel"/>
    <tag k="site_type" v="tumulus"/>
  </node>
  <node id="296175817" version="1" timestamp="2008-09-12T19:00:28Z" uid="38524" user="Kuddy" changeset="612809" lat="49.8586155" lon="7.1440956">
    <tag k="created_by" v="JOSM"/>
    <tag k="historic" v="archaeological_site"/>
    <tag k="name" v="Grabhügel"/>
  </node>
  <node id="296175817" version="2" timestamp="2009-02-19T19:14:01Z" uid="38524" user="Kuddy" changeset="561678" lat="49.8586155" lon="7.1440956">
    <tag k="created_by" v="JOSM"/>
    <tag k="historic" v="archaeological_site"/>
    <tag k="name" v="Grabhügel"/>
    <tag k="site_type" v="tumulus"/>
  </node>
  <node id="296175818" version="1" timestamp="2008-09-12T19:00:28Z" uid="38524" user="Kuddy" changeset="612809" lat="49.8698574" lon="7.1313002">
    <tag k="created_by" v="JOSM"/>
    <tag k="historic" v="archaeological_site"/>
    <tag k="name" v="Hügelgräber"/>
  </node>
  <node id="296175818" version="2" timestamp="2009-02-19T19:23:21Z" uid="38524" user="Kuddy" changeset="561678" lat="49.8698574" lon="7.1313002">
    <tag k="created_by" v="JOSM"/>
    <tag k="field" v="yes"/>
    <tag k="historic" v="archaeological_site"/>
    <tag k="name" v="Hügelgräber"/>
    <tag k="site_type" v="tumulus"/>
  </node>
  <node id="296175820" version="1" timestamp="2008-09-12T19:00:29Z" uid="38524" user="Kuddy" changeset="612809" lat="49.9011168" lon="7.1267412">
    <tag k="created_by" v="JOSM"/>
    <tag k="name" v="Aussichtspunkt Bammes-Berg"/>
    <tag k="tourism" v="viewpoint"/>
  </node>
  <node id="296175828" version="1" timestamp="2008-09-12T19:00:29Z" uid="38524" user="Kuddy" changeset="612809" lat="49.8895171" lon="7.1401929">
    <tag k="created_by" v="JOSM"/>
    <tag k="name" v="Felsengrat"/>
    <tag k="tourism" v="attraction"/>
  </node>
  <node id="296176361" version="1" timestamp="2008-09-12T19:03:37Z" uid="31231" user="Andre68" changeset="615414" lat="52.2175162" lon="10.6411217">
    <tag k="name" v="Frisuren Herrmann"/>
    <tag k="shop" v="barber"/>
  </node>
  <node id="296176361" version="2" timestamp="2008-09-12T19:39:57Z" uid="31231" user="Andre68" changeset="615414" lat="52.2175162" lon="10.6411217">
    <tag k="name" v="Frisuren Herrmann"/>
    <tag k="opening_hours" v="Di-Fr: 8:30-18 Uhr; Sa: 8-13 Uhr; Su,Mo: off"/>
    <tag k="shop" v="barber"/>
  </node>
  <node id="296176361" version="3" timestamp="2008-09-14T16:27:54Z" uid="6975" user="ulfl" changeset="640534" lat="52.2175162" lon="10.6411217">
    <tag k="name" v="Frisuren Herrmann"/>
    <tag k="opening_hours" v="Di-Fr: 8:30-18 Uhr\s Sa: 8-13 Uhr\s Su,Mo: off"/>
    <tag k="shop" v="hairdresser"/>
  </node>
  <node id="296176361" version="4" timestamp="2008-11-19T22:56:34Z" uid="31231" user="Andre68" changeset="770675" lat="52.2175162" lon="10.6411217">
    <tag k="addr:housenumber" v="11"/>
    <tag k="name" v="Frisuren Herrmann"/>
    <tag k="opening_hours" v="Di-Fr: 8:30-18 Uhr\s Sa: 8-13 Uhr\s Su,Mo: off"/>
    <tag k="shop" v="hairdresser"/>
  </node>
  <node id="296176361" version="5" timestamp="2008-11-19T23:04:59Z" uid="31231" user="Andre68" changeset="770675" lat="52.2175488" lon="10.6411458">
    <tag k="addr:housenumber" v="11"/>
    <tag k="name" v="Frisuren Herrmann"/>
    <tag k="opening_hours" v="Di-Fr: 8:30-18 Uhr\s Sa: 8-13 Uhr\s Su,Mo: off"/>
    <tag k="shop" v="hairdresser"/>
  </node>
  <node id="296176361" version="6" timestamp="2009-02-02T11:22:59Z" uid="70696" user="xybot" changeset="50224" lat="52.2175488" lon="10.6411458">
    <tag k="addr:housenumber" v="11"/>
    <tag k="name" v="Frisuren Herrmann"/>
    <tag k="opening_hours" v="Di-Fr: 8:30-18 Uhr; Sa: 8-13 Uhr; Su,Mo: off"/>
    <tag k="shop" v="hairdresser"/>
  </node>
  <node id="296176361" version="7" timestamp="2009-04-25T16:32:54Z" uid="31231" user="Andre68" changeset="954295" lat="52.2175488" lon="10.6411458">
    <tag k="addr:housenumber" v="11"/>
    <tag k="name" v="Frisuren Herrmann"/>
    <tag k="opening_hours" v="Tu-Fr 8:30-18:00; Sa 8:00-13:00"/>
    <tag k="shop" v="hairdresser"/>
  </node>
  <node id="296176361" version="8" timestamp="2009-06-18T11:00:15Z" uid="131670" user="Ana Luisa" changeset="1553151" lat="52.2175484" lon="10.641144">
    <tag k="addr:housenumber" v="11"/>
    <tag k="addr:street" v="Tiefe Straße"/>
    <tag k="name" v="Frisuren Herrmann"/>
    <tag k="opening_hours" v="Tu-Fr 8:30-18:00; Sa 8:00-13:00"/>
    <tag k="shop" v="hairdresser"/>
  </node>
  <node id="296176361" version="9" timestamp="2009-08-03T18:07:11Z" uid="31231" user="Andre68" changeset="2028308" lat="52.2175484" lon="10.641144">
    <tag k="addr:housenumber" v="11"/>
    <tag k="addr:street" v="Tiefe Straße"/>
    <tag k="name" v="Frisuren Herrmann"/>
    <tag k="opening_hours" v="Mo off; Tu-Fr 08:30-18:00; Sa 08:00-13:00"/>
    <tag k="shop" v="hairdresser"/>
  </node>
  <node id="296176361" version="10" timestamp="2010-12-29T06:36:04Z" uid="31231" user="Andre68" changeset="6795117" lat="52.2175484" lon="10.641144">
    <tag k="addr:housenumber" v="11"/>
    <tag k="addr:street" v="Tiefe Straße"/>
    <tag k="name" v="Frisuren Herrmann"/>
    <tag k="opening_hours" v="Mo off; Tu-Fr 08:30-18:00; Sa 08:00-13:00"/>
    <tag k="shop" v="hairdresser"/>
  </node>
  <node id="296176553" version="2" timestamp="2008-10-12T21:10:16Z" uid="6975" user="ulfl" changeset="307621" lat="49.1730246" lon="13.106301">
    <tag k="created_by" v="Potlatch 0.10b"/>
    <tag k="name" v="Lohberg"/>
    <tag k="tourism" v="information"/>
  </node>
  <node id="296176553" version="3" timestamp="2009-10-04T07:04:13Z" uid="140029" user="Hans-M-D-F-J-4" changeset="2732021" lat="49.1729804" lon="13.1063957">
    <tag k="created_by" v="Potlatch 0.10b"/>
    <tag k="name" v="Lohberg"/>
    <tag k="tourism" v="information"/>
  </node>
  <node id="296176553" version="4" timestamp="2011-02-25T18:14:05Z" uid="168210" user="iknopf" changeset="7392840" lat="49.1730386" lon="13.1061839">
    <tag k="bicycle" v="no"/>
    <tag k="hiking" v="no"/>
    <tag k="horse" v="no"/>
    <tag k="information" v="map"/>
    <tag k="map_size" v="site"/>
    <tag k="map_type" v="scheme"/>
    <tag k="mtb" v="no"/>
    <tag k="name" v="Lohberg"/>
    <tag k="ski" v="no"/>
    <tag k="tourism" v="information"/>
  </node>
  <node id="296176553" version="5" timestamp="2012-03-18T21:28:32Z" uid="168210" user="iknopf" changeset="11024328" lat="49.1730386" lon="13.1061839"/>
  <node id="296176846" version="2" timestamp="2008-12-14T02:02:07Z" uid="6975" user="ulfl" changeset="365670" lat="51.3982523" lon="-1.0557151">
    <tag k="highway" v="turning_circle"/>
    <tag k="name" v="Tarragon Way"/>
    <tag k="surface" v="paved"/>
  </node>
  <node id="296179030" version="1" timestamp="2008-09-12T19:12:44Z" uid="43882" user="katze_sonne" changeset="616084" lat="53.0532466" lon="8.6470074">
    <tag k="created_by" v="Potlatch 0.10b"/>
  </node>
  <node id="296179030" version="2" timestamp="2008-09-12T19:13:24Z" uid="43882" user="katze_sonne" changeset="616084" lat="53.0532466" lon="8.6470074">
    <tag k="created_by" v="Potlatch 0.10b"/>
    <tag k="name" v="Löwen-Apotheke"/>
    <tag k="shop" v="pharmacy"/>
  </node>
  <node id="296179030" version="3" timestamp="2008-09-14T16:22:48Z" uid="6975" user="ulfl" changeset="640534" lat="53.0532466" lon="8.6470074">
    <tag k="amenity" v="pharmacy"/>
    <tag k="name" v="Löwen-Apotheke"/>
  </node>
  <node id="296179030" version="4" timestamp="2008-09-17T13:33:44Z" uid="43882" user="katze_sonne" changeset="656043" lat="53.0532514" lon="8.6470043">
    <tag k="amenity" v="pharmacy"/>
    <tag k="name" v="Löwen-Apotheke"/>
  </node>
  <node id="296179030" version="5" timestamp="2008-09-17T13:34:14Z" uid="43882" user="katze_sonne" changeset="656043" lat="53.0532256" lon="8.6470215">
    <tag k="amenity" v="pharmacy"/>
    <tag k="name" v="Löwen-Apotheke"/>
  </node>
  <node id="296179030" version="6" timestamp="2008-09-17T13:35:15Z" uid="43882" user="katze_sonne" changeset="656043" lat="53.0532256" lon="8.6470215"/>
  <node id="296179030" version="7" timestamp="2008-12-04T12:21:38Z" uid="53559" user="Miple" changeset="97619" lat="53.0532256" lon="8.6470215"/>
  <node id="296179030" version="8" timestamp="2009-02-18T16:41:56Z" uid="43882" user="katze_sonne" changeset="542641" lat="53.0532256" lon="8.6470215"/>
  <node id="296179030" version="9" timestamp="2009-05-16T08:36:33Z" uid="31231" user="Andre68" changeset="1207573" lat="53.0532196" lon="8.6470215"/>
  <node id="296170442" version="4" timestamp="2012-07-22T07:13:24Z" uid="722137" user="OSMF Redaction Account" changeset="12426952" lat="-33.9665214" lon="150.8024916"/>
  <node id="296170442" version="5" timestamp="2012-07-25T12:19:57Z" uid="47167" user="MCH" changeset="12485817" lat="-33.9665044" lon="150.8024677"/>
  <node id="296172486" version="3" timestamp="2012-07-17T02:54:35Z" uid="722137" user="OSMF Redaction Account" changeset="12255705" lat="51.8901462" lon="8.232063"/>
  <node id="296172487" version="2" timestamp="2012-07-17T02:55:43Z" uid="722137" user="OSMF Redaction Account" changeset="12255725" lat="51.8847416" lon="8.234415"/>
  <node id="296172489" version="2" timestamp="2012-07-17T02:55:59Z" uid="722137" user="OSMF Redaction Account" changeset="12255725" lat="51.8904597" lon="8.2346284"/>
  <node id="296172490" version="2" timestamp="2012-07-17T02:56:02Z" uid="722137" user="OSMF Redaction Account" changeset="12255725" lat="51.8914129" lon="8.2366935"/>
  <node id="296175784" version="3" timestamp="2012-07-18T18:51:35Z" uid="722137" user="OSMF Redaction Account" changeset="12293426" lat="49.8619134" lon="7.1779656"/>
  <node id="296175785" version="3" timestamp="2012-07-18T18:51:35Z" uid="722137" user="OSMF Redaction Account" changeset="12293426" lat="49.8613765" lon="7.1775246"/>
  <node id="296175786" version="3" timestamp="2012-07-18T18:51:35Z" uid="722137" user="OSMF Redaction Account" changeset="12293426" lat="49.8634665" lon="7.1804583"/>
  <node id="296175787" version="3" timestamp="2012-07-18T18:51:34Z" uid="722137" user="OSMF Redaction Account" changeset="12293426" lat="49.8566869" lon="7.1700933"/>
  <node id="296175788" version="3" timestamp="2012-07-18T18:49:50Z" uid="722137" user="OSMF Redaction Account" changeset="12293379" lat="49.8739169" lon="7.1972719"/>
  <node id="296175789" version="2" timestamp="2012-07-18T18:49:50Z" uid="722137" user="OSMF Redaction Account" changeset="12293379" lat="49.8722088" lon="7.2088875"/>
  <node id="296175790" version="2" timestamp="2012-07-18T18:49:50Z" uid="722137" user="OSMF Redaction Account" changeset="12293379" lat="49.8645561" lon="7.2326654"/>
  <node id="296175791" version="3" timestamp="2012-07-18T18:46:16Z" uid="722137" user="OSMF Redaction Account" changeset="12293254" lat="49.9084905" lon="7.2092291"/>
  <node id="296175792" version="3" timestamp="2012-07-18T18:46:15Z" uid="722137" user="OSMF Redaction Account" changeset="12293254" lat="49.8815313" lon="7.2160676"/>
  <node id="296175794" version="2" timestamp="2012-07-18T18:51:34Z" uid="722137" user="OSMF Redaction Account" changeset="12293426" lat="49.8547439" lon="7.1498024"/>
  <node id="296175795" version="3" timestamp="2012-07-18T18:51:34Z" uid="722137" user="OSMF Redaction Account" changeset="12293426" lat="49.8579115" lon="7.1469741"/>
  <node id="296175817" version="3" timestamp="2012-07-18T18:51:34Z" uid="722137" user="OSMF Redaction Account" changeset="12293426" lat="49.8586155" lon="7.1440956"/>
  <node id="296175818" version="3" timestamp="2012-07-18T18:51:35Z" uid="722137" user="OSMF Redaction Account" changeset="12293426" lat="49.8698574" lon="7.1313002"/>
  <node id="296175820" version="2" timestamp="2012-07-18T18:47:57Z" uid="722137" user="OSMF Redaction Account" changeset="12293309" lat="49.9011168" lon="7.1267412"/>
  <node id="296175828" version="2" timestamp="2012-07-18T18:47:57Z" uid="722137" user="OSMF Redaction Account" changeset="12293309" lat="49.8895171" lon="7.1401929"/>
</osm>
