<?xml version='1.0' encoding='UTF-8'?>
<osm version="0.6" generator="libosmium/2.20.0">
  <node id="297341608" version="4" timestamp="2009-09-30T12:43:19Z" uid="36809" user="pfoten_weg_!_" changeset="2687909" lat="48.1819674" lon="11.2543532">
    <tag k="addr:city" v="Fürstenfeldbruck"/>
    <tag k="addr:housenumber" v="14"/>
    <tag k="addr:postcode" v="82256"/>
    <tag k="addr:street" v="Augsburger Straße"/>
    <tag k="amenity" v="restaurant"/>
    <tag k="name" v="parkcafe"/>
  </node>
  <node id="297341608" version="5" timestamp="2010-11-23T10:59:36Z" uid="1860" user="wget" changeset="6438542" lat="48.1819674" lon="11.2543531">
    <tag k="addr:city" v="Fürstenfeldbruck"/>
    <tag k="addr:housenumber" v="14"/>
    <tag k="addr:postcode" v="82256"/>
    <tag k="addr:street" v="Augsburger Straße"/>
    <tag k="amenity" v="restaurant"/>
    <tag k="name" v="parkcafe"/>
    <tag k="opening_hours" v="Mo-Sa 9:30-14:30,18:00-24:00;Su 9:30-24:00"/>
  </node>
  <node id="297341608" version="6" timestamp="2011-12-24T15:33:41Z" uid="290680" user="wheelmap_visitor" changeset="10192116" lat="48.1819674" lon="11.2543531">
    <tag k="addr:city" v="Fürstenfeldbruck"/>
    <tag k="addr:housenumber" v="14"/>
    <tag k="addr:postcode" v="82256"/>
    <tag k="addr:street" v="Augsburger Straße"/>
    <tag k="amenity" v="restaurant"/>
    <tag k="name" v="parkcafe"/>
    <tag k="opening_hours" v="Mo-Sa 9:30-14:30,18:00-24:00;Su 9:30-24:00"/>
    <tag k="wheelchair" v="yes"/>
  </node>
  <node id="297341978" version="2" timestamp="2010-08-29T11:26:22Z" uid="33382" user="de_muur" changeset="5624577" lat="53.6237914" lon="10.2999976"/>
  <node id="297341978" version="3" timestamp="2011-01-30T20:19:38Z" uid="4902" user="mbuege" changeset="7139110" lat="53.6238207" lon="10.2999927"/>
  <node id="297342167" version="2" timestamp="2008-09-24T04:09:33Z" uid="6975" user="ulfl" changeset="687743" lat="48.8954964" lon="11.1837292">
    <tag k="amenity" v="monastery"/>
    <tag k="name" v="Benediktinerinnenabtei Sankt Walburg"/>
  </node>
  <node id="297342167" version="3" timestamp="2011-08-15T18:39:55Z" uid="45263" user="Noframe" changeset="9030020" lat="48.8956244" lon="11.1835726">
    <tag k="amenity" v="monastery"/>
    <tag k="name" v="Benediktinerinnenabtei Sankt Walburg"/>
  </node>
  <node id="297342500" version="1" timestamp="2008-09-15T21:03:50Z" uid="59758" user="rendle" changeset="647390" lat="51.0479863" lon="3.9785447">
    <tag k="created_by" v="Potlatch 0.10b"/>
    <tag k="ele" v="51.000000"/>
    <tag k="leisure" v="casino"/>
    <tag k="name" v="Riviera"/>
  </node>
  <node id="297342500" version="2" timestamp="2011-12-27T08:59:33Z" uid="78656" user="Walter Schlögl" changeset="10213673" lat="51.0479863" lon="3.9785447">
    <tag k="amenity" v="casino"/>
    <tag k="ele" v="51.000000"/>
    <tag k="leisure" v="casino"/>
    <tag k="name" v="Riviera"/>
  </node>
  <node id="297342500" version="3" timestamp="2012-02-08T23:28:46Z" uid="138772" user="lodde1949" changeset="10629857" lat="51.0479863" lon="3.9785447"/>
  <node id="297342621" version="1" timestamp="2008-09-15T21:04:11Z" uid="59758" user="rendle" changeset="647390" lat="51.0478568" lon="3.9789223">
    <tag k="amenity" v="restaurant"/>
    <tag k="created_by" v="Potlatch 0.10b"/>
    <tag k="ele" v="50.000000"/>
    <tag k="name" v="&apos;t Zoetemeer"/>
  </node>
  <node id="297342621" version="2" timestamp="2012-02-08T18:30:13Z" uid="138772" user="lodde1949" changeset="10627155" lat="51.0478568" lon="3.9789223"/>
  <node id="297344128" version="2" timestamp="2009-05-20T05:44:04Z" uid="27600" user="Islanit" changeset="1258231" lat="53.4703457" lon="10.2749281"/>
  <node id="297345292" version="14" timestamp="2011-03-06T09:45:11Z" uid="33382" user="de_muur" changeset="7471158" lat="53.6575998" lon="10.513167"/>
  <node id="297345293" version="14" timestamp="2011-03-06T09:45:09Z" uid="33382" user="de_muur" changeset="7471158" lat="53.657562" lon="10.5131653"/>
  <node id="297348081" version="2" timestamp="2008-10-23T05:20:47Z" uid="6975" user="ulfl" changeset="525020" lat="48.8937397" lon="11.1816719">
    <tag k="shop" v="boat_rental"/>
  </node>
  <node id="297348081" version="3" timestamp="2009-01-09T21:43:05Z" uid="59819" user="Fuss-im-Ohr" changeset="761885" lat="48.8937397" lon="11.1816719">
    <tag k="name" v="FIXME!!!"/>
    <tag k="shop" v="boat_rental"/>
  </node>
  <node id="297348081" version="4" timestamp="2009-03-16T21:13:49Z" uid="18069" user="Claudius Henrichs" changeset="819948" lat="48.8937397" lon="11.1816719">
    <tag k="note" v="FIXME!!!"/>
    <tag k="shop" v="boat_rental"/>
  </node>
  <node id="297348081" version="5" timestamp="2011-08-27T20:12:56Z" uid="497849" user="pyram" changeset="9141165" lat="48.8937397" lon="11.1816719">
    <tag k="name" v="Haifischbar"/>
    <tag k="shop" v="boat_rental"/>
  </node>
  <node id="297348086" version="2" timestamp="2008-09-24T04:12:21Z" uid="6975" user="ulfl" changeset="687743" lat="48.8909195" lon="11.1840291">
    <tag k="amenity" v="theatre"/>
    <tag k="name" v="Altes Stadttheater"/>
  </node>
  <node id="297348086" version="3" timestamp="2009-01-02T18:12:32Z" uid="88670" user="homerjay" changeset="717241" lat="48.8927527" lon="11.1840522">
    <tag k="amenity" v="theatre"/>
    <tag k="created_by" v="Potlatch 0.10f"/>
    <tag k="name" v="Altes Stadttheater"/>
  </node>
  <node id="297348086" version="4" timestamp="2011-10-31T14:21:42Z" uid="546359" user="WaldiWuff" changeset="9703873" lat="48.8927527" lon="11.1840522"/>
  <node id="297348111" version="2" timestamp="2008-09-24T04:09:32Z" uid="6975" user="ulfl" changeset="687743" lat="48.8901796" lon="11.1910059">
    <tag k="amenity" v="monastery"/>
    <tag k="name" v="Kapuzinerkloster"/>
  </node>
  <node id="297348111" version="3" timestamp="2008-12-20T12:08:48Z" uid="15035" user="grungelborz" changeset="500222" lat="48.8899885" lon="11.1908467">
    <tag k="amenity" v="monastery"/>
    <tag k="name" v="Kapuzinerkloster"/>
  </node>
  <node id="297348111" version="4" timestamp="2011-10-31T18:04:33Z" uid="546359" user="WaldiWuff" changeset="9705322" lat="48.8899317" lon="11.1908569">
    <tag k="addr:housenumber" v="2"/>
    <tag k="addr:postcode" v="85072"/>
    <tag k="addr:street" v="Kapuzinergasse"/>
    <tag k="building" v="church"/>
    <tag k="denomination" v="roman_catholic"/>
    <tag k="name" v="Kapuzinerkirche Hl. Kreuz"/>
  </node>
  <node id="297348111" version="5" timestamp="2011-11-01T18:33:03Z" uid="70696" user="xybot" changeset="9715237" lat="48.8899317" lon="11.1908569">
    <tag k="addr:housenumber" v="2"/>
    <tag k="addr:postcode" v="85072"/>
    <tag k="addr:street" v="Kapuzinergasse"/>
    <tag k="building" v="church"/>
    <tag k="denomination" v="roman_catholic"/>
    <tag k="name" v="Kapuzinerkirche Hl. Kreuz"/>
    <tag k="religion" v="christian"/>
  </node>
  <node id="297348176" version="2" timestamp="2008-11-11T21:39:06Z" uid="33382" user="de_muur" changeset="735137" lat="53.5183718" lon="10.2853494"/>
  <node id="297349242" version="2" timestamp="2009-04-10T03:50:32Z" uid="113393" user="Anjer" changeset="393422" lat="12.1046291" lon="-68.9316189">
    <tag k="amenity" v="fast_food"/>
    <tag k="created_by" v="Potlatch 0.10b"/>
    <tag k="name" v="McDonald&apos;s"/>
  </node>
  <node id="297349242" version="3" timestamp="2010-08-06T16:44:59Z" uid="207745" user="NE2" changeset="5418228" lat="12.1046291" lon="-68.9316189">
    <tag k="amenity" v="fast_food"/>
    <tag k="cuisine" v="burger"/>
    <tag k="name" v="McDonald&apos;s"/>
  </node>
  <node id="297342167" version="4" timestamp="2012-08-24T13:17:16Z" uid="546359" user="WaldiWuff" changeset="12844980" lat="48.8956244" lon="11.1835726"/>
  <node id="297348081" version="6" timestamp="2012-04-10T06:30:01Z" uid="483940" user="tommtb" changeset="11248160" lat="48.8937397" lon="11.1816719"/>
  <node id="297348111" version="6" timestamp="2012-08-20T15:51:11Z" uid="546359" user="WaldiWuff" changeset="12797740" lat="48.8899317" lon="11.1908569"/>
  <node id="297349242" version="4" timestamp="2012-07-19T21:13:49Z" uid="722137" user="OSMF Redaction Account" changeset="12347672" lat="12.1046291" lon="-68.9316189">
    <tag k="amenity" v="fast_food"/>
    <tag k="cuisine" v="burger"/>
    <tag k="name" v="MacDonald"/>
  </node>
</osm>
