<?xml version='1.0' encoding='UTF-8'?>
<osm version="0.6" generator="libosmium/2.20.0">
  <node id="298191406" version="2" timestamp="2009-07-12T17:48:12Z" uid="58091" user="Andreas M" changeset="1809812" lat="48.1691048" lon="15.7527981"/>
  <node id="298191826" version="1" timestamp="2008-09-19T18:04:37Z" uid="58091" user="Andreas M" changeset="666044" lat="48.2083778" lon="16.3742518">
    <tag k="amenity" v="bicycle_rental"/>
    <tag k="name" v="Stephansplatz"/>
    <tag k="network" v="Citybike Wien"/>
    <tag k="ref" v="101"/>
    <tag k="spaces" v="18"/>
  </node>
  <node id="298191826" version="2" timestamp="2008-12-06T16:46:32Z" uid="58091" user="Andreas M" changeset="209642" lat="48.2083778" lon="16.3742518">
    <tag k="amenity" v="bicycle_rental"/>
    <tag k="name" v="Stephansplatz"/>
    <tag k="network" v="Citybike Wien"/>
    <tag k="ref" v="101"/>
    <tag k="spaces" v="18"/>
    <tag k="url" v="http://www.citybikewien.at/"/>
  </node>
  <node id="298191826" version="3" timestamp="2009-10-03T20:41:13Z" uid="114161" user="Polarbear" changeset="2729160" lat="48.2083778" lon="16.3742518">
    <tag k="amenity" v="bicycle_rental"/>
    <tag k="capacity" v="18"/>
    <tag k="name" v="Stephansplatz"/>
    <tag k="network" v="Citybike Wien"/>
    <tag k="ref" v="101"/>
    <tag k="url" v="http://www.citybikewien.at/"/>
  </node>
  <node id="298191826" version="4" timestamp="2010-09-20T12:48:34Z" uid="65148" user="Pirat Michi" changeset="5828900" lat="48.2083778" lon="16.3742518">
    <tag k="amenity" v="bicycle_rental"/>
    <tag k="capacity" v="18"/>
    <tag k="name" v="Stephansplatz"/>
    <tag k="network" v="Citybike Wien"/>
    <tag k="ref" v="101"/>
    <tag k="website" v="http://www.citybikewien.at/"/>
  </node>
  <node id="298191826" version="5" timestamp="2010-12-24T00:22:52Z" uid="49642" user="realadry" changeset="6750965" lat="48.2084095" lon="16.3741484">
    <tag k="amenity" v="bicycle_rental"/>
    <tag k="capacity" v="18"/>
    <tag k="name" v="Stephansplatz"/>
    <tag k="network" v="Citybike Wien"/>
    <tag k="ref" v="101"/>
    <tag k="website" v="http://www.citybikewien.at/"/>
  </node>
  <node id="298191826" version="6" timestamp="2011-05-08T16:41:22Z" uid="298560" user="evod" changeset="8084597" lat="48.2085351" lon="16.3740813">
    <tag k="amenity" v="bicycle_rental"/>
    <tag k="capacity" v="18"/>
    <tag k="name" v="Stephansplatz"/>
    <tag k="network" v="Citybike Wien"/>
    <tag k="ref" v="101"/>
    <tag k="website" v="http://www.citybikewien.at/"/>
  </node>
  <node id="298191826" version="7" timestamp="2011-07-16T11:11:52Z" uid="71631" user="andrew_shadoura" changeset="8738661" lat="48.2085351" lon="16.3740813">
    <tag k="amenity" v="bicycle_rental"/>
    <tag k="capacity" v="18"/>
    <tag k="name" v="Stephansplatz"/>
    <tag k="name:be" v="плошча Святога Штэфана"/>
    <tag k="network" v="Citybike Wien"/>
    <tag k="ref" v="101"/>
    <tag k="website" v="http://www.citybikewien.at/"/>
  </node>
  <node id="298191827" version="1" timestamp="2008-09-19T18:04:37Z" uid="58091" user="Andreas M" changeset="666044" lat="48.2095176" lon="16.366071">
    <tag k="amenity" v="bicycle_rental"/>
    <tag k="name" v="Fahnengasse - U3"/>
    <tag k="network" v="Citybike Wien"/>
    <tag k="ref" v="102"/>
    <tag k="spaces" v="10"/>
  </node>
  <node id="298191827" version="2" timestamp="2008-09-21T10:07:05Z" uid="58091" user="Andreas M" changeset="677051" lat="48.2095176" lon="16.366071">
    <tag k="amenity" v="bicycle_rental"/>
    <tag k="name" v="Fahnengasse U3"/>
    <tag k="network" v="Citybike Wien"/>
    <tag k="ref" v="102"/>
    <tag k="spaces" v="10"/>
  </node>
  <node id="298191827" version="3" timestamp="2008-12-06T16:46:31Z" uid="58091" user="Andreas M" changeset="209642" lat="48.2095176" lon="16.366071">
    <tag k="amenity" v="bicycle_rental"/>
    <tag k="name" v="Fahnengasse U3"/>
    <tag k="network" v="Citybike Wien"/>
    <tag k="ref" v="102"/>
    <tag k="spaces" v="10"/>
    <tag k="url" v="http://www.citybikewien.at/"/>
  </node>
  <node id="298191827" version="4" timestamp="2009-09-17T04:40:14Z" uid="58091" user="Andreas M" changeset="2508425" lat="48.2095176" lon="16.366071">
    <tag k="amenity" v="bicycle_rental"/>
    <tag k="name" v="Fahnengasse U3"/>
    <tag k="network" v="Citybike Wien"/>
    <tag k="ref" v="102"/>
    <tag k="spaces" v="18"/>
    <tag k="url" v="http://www.citybikewien.at/"/>
  </node>
  <node id="298191827" version="5" timestamp="2009-10-03T20:40:56Z" uid="114161" user="Polarbear" changeset="2729160" lat="48.2095176" lon="16.366071">
    <tag k="amenity" v="bicycle_rental"/>
    <tag k="capacity" v="18"/>
    <tag k="name" v="Fahnengasse U3"/>
    <tag k="network" v="Citybike Wien"/>
    <tag k="ref" v="102"/>
    <tag k="url" v="http://www.citybikewien.at/"/>
  </node>
  <node id="298191827" version="6" timestamp="2010-09-20T12:48:24Z" uid="65148" user="Pirat Michi" changeset="5828900" lat="48.2095176" lon="16.366071">
    <tag k="amenity" v="bicycle_rental"/>
    <tag k="capacity" v="18"/>
    <tag k="name" v="Fahnengasse U3"/>
    <tag k="network" v="Citybike Wien"/>
    <tag k="ref" v="102"/>
    <tag k="website" v="http://www.citybikewien.at/"/>
  </node>
  <node id="298191831" version="1" timestamp="2008-09-19T18:04:38Z" uid="58091" user="Andreas M" changeset="666044" lat="48.2159683" lon="16.3721711">
    <tag k="amenity" v="bicycle_rental"/>
    <tag k="name" v="Schottenring - U4"/>
    <tag k="network" v="Citybike Wien"/>
    <tag k="ref" v="103"/>
    <tag k="spaces" v="21"/>
  </node>
  <node id="298191831" version="2" timestamp="2008-09-21T10:07:06Z" uid="58091" user="Andreas M" changeset="677051" lat="48.2159683" lon="16.3721711">
    <tag k="amenity" v="bicycle_rental"/>
    <tag k="name" v="Schottenring U4"/>
    <tag k="network" v="Citybike Wien"/>
    <tag k="ref" v="103"/>
    <tag k="spaces" v="21"/>
  </node>
  <node id="298191831" version="3" timestamp="2008-12-06T16:46:32Z" uid="58091" user="Andreas M" changeset="209642" lat="48.2159683" lon="16.3721711">
    <tag k="amenity" v="bicycle_rental"/>
    <tag k="name" v="Schottenring U4"/>
    <tag k="network" v="Citybike Wien"/>
    <tag k="ref" v="103"/>
    <tag k="spaces" v="21"/>
    <tag k="url" v="http://www.citybikewien.at/"/>
  </node>
  <node id="298191831" version="4" timestamp="2009-10-03T20:41:15Z" uid="114161" user="Polarbear" changeset="2729160" lat="48.2159683" lon="16.3721711">
    <tag k="amenity" v="bicycle_rental"/>
    <tag k="capacity" v="21"/>
    <tag k="name" v="Schottenring U4"/>
    <tag k="network" v="Citybike Wien"/>
    <tag k="ref" v="103"/>
    <tag k="url" v="http://www.citybikewien.at/"/>
  </node>
  <node id="298191831" version="5" timestamp="2010-09-20T12:48:28Z" uid="65148" user="Pirat Michi" changeset="5828900" lat="48.2159683" lon="16.3721711">
    <tag k="amenity" v="bicycle_rental"/>
    <tag k="capacity" v="21"/>
    <tag k="name" v="Schottenring U4"/>
    <tag k="network" v="Citybike Wien"/>
    <tag k="ref" v="103"/>
    <tag k="website" v="http://www.citybikewien.at/"/>
  </node>
  <node id="298191832" version="1" timestamp="2008-09-19T18:04:38Z" uid="58091" user="Andreas M" changeset="666044" lat="48.211995" lon="16.3759901">
    <tag k="amenity" v="bicycle_rental"/>
    <tag k="name" v="Schwedenplatz"/>
    <tag k="network" v="Citybike Wien"/>
    <tag k="ref" v="104"/>
    <tag k="spaces" v="20"/>
  </node>
  <node id="298191832" version="2" timestamp="2008-12-06T16:46:30Z" uid="58091" user="Andreas M" changeset="209642" lat="48.211995" lon="16.3759901">
    <tag k="amenity" v="bicycle_rental"/>
    <tag k="name" v="Schwedenplatz"/>
    <tag k="network" v="Citybike Wien"/>
    <tag k="ref" v="104"/>
    <tag k="spaces" v="20"/>
    <tag k="url" v="http://www.citybikewien.at/"/>
  </node>
  <node id="298191832" version="3" timestamp="2009-10-03T20:41:22Z" uid="114161" user="Polarbear" changeset="2729160" lat="48.211995" lon="16.3759901">
    <tag k="amenity" v="bicycle_rental"/>
    <tag k="capacity" v="20"/>
    <tag k="name" v="Schwedenplatz"/>
    <tag k="network" v="Citybike Wien"/>
    <tag k="ref" v="104"/>
    <tag k="url" v="http://www.citybikewien.at/"/>
  </node>
  <node id="298191832" version="4" timestamp="2010-09-20T12:48:35Z" uid="65148" user="Pirat Michi" changeset="5828900" lat="48.211995" lon="16.3759901">
    <tag k="amenity" v="bicycle_rental"/>
    <tag k="capacity" v="20"/>
    <tag k="name" v="Schwedenplatz"/>
    <tag k="network" v="Citybike Wien"/>
    <tag k="ref" v="104"/>
    <tag k="website" v="http://www.citybikewien.at/"/>
  </node>
  <node id="298191832" version="5" timestamp="2011-06-07T00:16:27Z" uid="56501" user="Rudolf_H" changeset="8366019" lat="48.2118558" lon="16.3765912">
    <tag k="amenity" v="bicycle_rental"/>
    <tag k="capacity" v="20"/>
    <tag k="name" v="Schwedenplatz"/>
    <tag k="network" v="Citybike Wien"/>
    <tag k="ref" v="104"/>
    <tag k="website" v="http://www.citybikewien.at/"/>
  </node>
  <node id="298192868" version="1" timestamp="2008-09-19T18:06:57Z" uid="33382" user="de_muur" changeset="665133" lat="52.8394676" lon="8.8776415">
    <tag k="created_by" v="JOSM"/>
  </node>
  <node id="298192868" version="2" timestamp="2010-07-28T10:57:04Z" uid="24920" user="Schusch" changeset="5336879" lat="52.8394676" lon="8.8776415"/>
  <node id="298192871" version="1" timestamp="2008-09-19T18:06:57Z" uid="33382" user="de_muur" changeset="665133" lat="52.8338634" lon="8.8777885">
    <tag k="created_by" v="JOSM"/>
  </node>
  <node id="298192871" version="2" timestamp="2010-07-28T10:57:07Z" uid="24920" user="Schusch" changeset="5336879" lat="52.8338634" lon="8.8777885"/>
  <node id="298192873" version="1" timestamp="2008-09-19T18:06:58Z" uid="33382" user="de_muur" changeset="665133" lat="52.8337119" lon="8.8801189">
    <tag k="created_by" v="JOSM"/>
  </node>
  <node id="298192873" version="2" timestamp="2010-07-28T10:57:03Z" uid="24920" user="Schusch" changeset="5336879" lat="52.8337119" lon="8.8801189"/>
  <node id="298192873" version="3" timestamp="2011-10-19T14:44:41Z" uid="114430" user="Chenshi" changeset="9600398" lat="52.8337119" lon="8.8801189"/>
  <node id="298192876" version="1" timestamp="2008-09-19T18:06:58Z" uid="33382" user="de_muur" changeset="665133" lat="52.833898" lon="8.8778126">
    <tag k="created_by" v="JOSM"/>
  </node>
  <node id="298192876" version="2" timestamp="2010-07-28T10:57:07Z" uid="24920" user="Schusch" changeset="5336879" lat="52.833898" lon="8.8778126"/>
  <node id="298192876" version="3" timestamp="2011-10-19T14:44:03Z" uid="114430" user="Chenshi" changeset="9600398" lat="52.8339495" lon="8.8778323"/>
  <node id="298192879" version="1" timestamp="2008-09-19T18:06:58Z" uid="33382" user="de_muur" changeset="665133" lat="52.8349611" lon="8.877804">
    <tag k="created_by" v="JOSM"/>
  </node>
  <node id="298192879" version="2" timestamp="2010-07-28T10:57:08Z" uid="24920" user="Schusch" changeset="5336879" lat="52.8349611" lon="8.877804"/>
  <node id="298192882" version="1" timestamp="2008-09-19T18:06:58Z" uid="33382" user="de_muur" changeset="665133" lat="52.8392961" lon="8.8689409">
    <tag k="created_by" v="JOSM"/>
  </node>
  <node id="298192882" version="2" timestamp="2010-07-28T10:57:05Z" uid="24920" user="Schusch" changeset="5336879" lat="52.8392961" lon="8.8689409"/>
  <node id="298192892" version="1" timestamp="2008-09-19T18:06:59Z" uid="58091" user="Andreas M" changeset="666044" lat="48.2113892" lon="16.382685">
    <tag k="amenity" v="bicycle_rental"/>
    <tag k="name" v="Julius-Raab-Platz"/>
    <tag k="network" v="Citybike Wien"/>
    <tag k="ref" v="105"/>
    <tag k="spaces" v="20"/>
  </node>
  <node id="298192892" version="2" timestamp="2008-12-06T16:46:24Z" uid="58091" user="Andreas M" changeset="209642" lat="48.2113892" lon="16.382685">
    <tag k="amenity" v="bicycle_rental"/>
    <tag k="name" v="Julius-Raab-Platz"/>
    <tag k="network" v="Citybike Wien"/>
    <tag k="ref" v="105"/>
    <tag k="spaces" v="20"/>
    <tag k="url" v="http://www.citybikewien.at/"/>
  </node>
  <node id="298192892" version="3" timestamp="2009-10-03T20:41:16Z" uid="114161" user="Polarbear" changeset="2729160" lat="48.2113892" lon="16.382685">
    <tag k="amenity" v="bicycle_rental"/>
    <tag k="capacity" v="20"/>
    <tag k="name" v="Julius-Raab-Platz"/>
    <tag k="network" v="Citybike Wien"/>
    <tag k="ref" v="105"/>
    <tag k="url" v="http://www.citybikewien.at/"/>
  </node>
  <node id="298192892" version="4" timestamp="2010-09-20T12:48:42Z" uid="65148" user="Pirat Michi" changeset="5828900" lat="48.2113892" lon="16.382685">
    <tag k="amenity" v="bicycle_rental"/>
    <tag k="capacity" v="20"/>
    <tag k="name" v="Julius-Raab-Platz"/>
    <tag k="network" v="Citybike Wien"/>
    <tag k="ref" v="105"/>
    <tag k="website" v="http://www.citybikewien.at/"/>
  </node>
  <node id="298192892" version="5" timestamp="2011-09-22T09:58:51Z" uid="290680" user="wheelmap_visitor" changeset="9366746" lat="48.2113892" lon="16.382685">
    <tag k="amenity" v="bicycle_rental"/>
    <tag k="capacity" v="20"/>
    <tag k="name" v="Julius-Raab-Platz"/>
    <tag k="network" v="Citybike Wien"/>
    <tag k="ref" v="105"/>
    <tag k="website" v="http://www.citybikewien.at/"/>
    <tag k="wheelchair" v="yes"/>
  </node>
  <node id="298195050" version="1" timestamp="2008-09-19T18:09:55Z" uid="58091" user="Andreas M" changeset="666044" lat="48.2068835" lon="16.3805117">
    <tag k="amenity" v="bicycle_rental"/>
    <tag k="name" v="Stubenring - Stadtpark"/>
    <tag k="network" v="Citybike Wien"/>
    <tag k="ref" v="106"/>
    <tag k="spaces" v="20"/>
  </node>
  <node id="298195050" version="2" timestamp="2008-09-21T10:07:05Z" uid="58091" user="Andreas M" changeset="677051" lat="48.2068835" lon="16.3805117">
    <tag k="amenity" v="bicycle_rental"/>
    <tag k="name" v="Stubenring/Stadtpark"/>
    <tag k="network" v="Citybike Wien"/>
    <tag k="ref" v="106"/>
    <tag k="spaces" v="20"/>
  </node>
  <node id="298195050" version="3" timestamp="2008-12-06T16:46:28Z" uid="58091" user="Andreas M" changeset="209642" lat="48.2068835" lon="16.3805117">
    <tag k="amenity" v="bicycle_rental"/>
    <tag k="name" v="Stubenring/Stadtpark"/>
    <tag k="network" v="Citybike Wien"/>
    <tag k="ref" v="106"/>
    <tag k="spaces" v="20"/>
    <tag k="url" v="http://www.citybikewien.at/"/>
  </node>
  <node id="298195050" version="4" timestamp="2009-10-03T20:40:46Z" uid="114161" user="Polarbear" changeset="2729160" lat="48.2068835" lon="16.3805117">
    <tag k="amenity" v="bicycle_rental"/>
    <tag k="capacity" v="20"/>
    <tag k="name" v="Stubenring/Stadtpark"/>
    <tag k="network" v="Citybike Wien"/>
    <tag k="ref" v="106"/>
    <tag k="url" v="http://www.citybikewien.at/"/>
  </node>
  <node id="298195050" version="5" timestamp="2010-09-20T12:49:26Z" uid="65148" user="Pirat Michi" changeset="5828900" lat="48.2068835" lon="16.3805117">
    <tag k="amenity" v="bicycle_rental"/>
    <tag k="capacity" v="20"/>
    <tag k="name" v="Stubenring/Stadtpark"/>
    <tag k="network" v="Citybike Wien"/>
    <tag k="ref" v="106"/>
    <tag k="website" v="http://www.citybikewien.at/"/>
  </node>
  <node id="298198204" version="3" timestamp="2008-10-27T08:25:22Z" uid="6975" user="ulfl" changeset="596208" lat="45.6568315" lon="12.8018981">
    <tag k="amenity" v="restaurant"/>
    <tag k="name" v="Pizzeria Bella Italia"/>
  </node>
  <node id="298198682" version="1" timestamp="2008-09-19T18:16:51Z" uid="58091" user="Andreas M" changeset="666044" lat="48.2065106" lon="16.3605815">
    <tag k="amenity" v="bicycle_rental"/>
    <tag k="name" v="Volksgarten"/>
    <tag k="network" v="Citybike Wien"/>
    <tag k="ref" v="107"/>
    <tag k="spaces" v="16"/>
  </node>
  <node id="298198682" version="2" timestamp="2008-12-06T16:46:25Z" uid="58091" user="Andreas M" changeset="209642" lat="48.2065106" lon="16.3605815">
    <tag k="amenity" v="bicycle_rental"/>
    <tag k="name" v="Volksgarten"/>
    <tag k="network" v="Citybike Wien"/>
    <tag k="ref" v="107"/>
    <tag k="spaces" v="16"/>
    <tag k="url" v="http://www.citybikewien.at/"/>
  </node>
  <node id="298198682" version="3" timestamp="2009-10-03T20:40:34Z" uid="114161" user="Polarbear" changeset="2729160" lat="48.2065106" lon="16.3605815">
    <tag k="amenity" v="bicycle_rental"/>
    <tag k="capacity" v="16"/>
    <tag k="name" v="Volksgarten"/>
    <tag k="network" v="Citybike Wien"/>
    <tag k="ref" v="107"/>
    <tag k="url" v="http://www.citybikewien.at/"/>
  </node>
  <node id="298198682" version="4" timestamp="2010-09-20T12:49:04Z" uid="65148" user="Pirat Michi" changeset="5828900" lat="48.2065106" lon="16.3605815">
    <tag k="amenity" v="bicycle_rental"/>
    <tag k="capacity" v="16"/>
    <tag k="name" v="Volksgarten"/>
    <tag k="network" v="Citybike Wien"/>
    <tag k="ref" v="107"/>
    <tag k="website" v="http://www.citybikewien.at/"/>
  </node>
  <node id="298198687" version="1" timestamp="2008-09-19T18:16:52Z" uid="58091" user="Andreas M" changeset="666044" lat="48.2107475" lon="16.3559369">
    <tag k="amenity" v="bicycle_rental"/>
    <tag k="name" v="Friedrich-Schmidt-Platz"/>
    <tag k="network" v="Citybike Wien"/>
    <tag k="ref" v="108"/>
    <tag k="spaces" v="20"/>
  </node>
  <node id="298198687" version="2" timestamp="2008-09-19T18:18:16Z" uid="58091" user="Andreas M" changeset="666044" lat="48.2104051" lon="16.356007">
    <tag k="amenity" v="bicycle_rental"/>
    <tag k="name" v="Friedrich-Schmidt-Platz"/>
    <tag k="network" v="Citybike Wien"/>
    <tag k="ref" v="108"/>
    <tag k="spaces" v="20"/>
  </node>
  <node id="298198687" version="3" timestamp="2008-12-06T16:46:25Z" uid="58091" user="Andreas M" changeset="209642" lat="48.2104051" lon="16.356007">
    <tag k="amenity" v="bicycle_rental"/>
    <tag k="name" v="Friedrich-Schmidt-Platz"/>
    <tag k="network" v="Citybike Wien"/>
    <tag k="ref" v="108"/>
    <tag k="spaces" v="20"/>
    <tag k="url" v="http://www.citybikewien.at/"/>
  </node>
  <node id="298198687" version="4" timestamp="2009-10-03T20:41:02Z" uid="114161" user="Polarbear" changeset="2729160" lat="48.2104051" lon="16.356007">
    <tag k="amenity" v="bicycle_rental"/>
    <tag k="capacity" v="20"/>
    <tag k="name" v="Friedrich-Schmidt-Platz"/>
    <tag k="network" v="Citybike Wien"/>
    <tag k="ref" v="108"/>
    <tag k="url" v="http://www.citybikewien.at/"/>
  </node>
  <node id="298198687" version="5" timestamp="2010-09-20T12:48:18Z" uid="65148" user="Pirat Michi" changeset="5828900" lat="48.2104051" lon="16.356007">
    <tag k="amenity" v="bicycle_rental"/>
    <tag k="capacity" v="20"/>
    <tag k="name" v="Friedrich-Schmidt-Platz"/>
    <tag k="network" v="Citybike Wien"/>
    <tag k="ref" v="108"/>
    <tag k="website" v="http://www.citybikewien.at/"/>
  </node>
  <node id="298198687" version="6" timestamp="2010-12-01T17:30:16Z" uid="136033" user="peter_wien" changeset="6506185" lat="48.2104051" lon="16.3560535">
    <tag k="amenity" v="bicycle_rental"/>
    <tag k="capacity" v="20"/>
    <tag k="name" v="Friedrich-Schmidt-Platz"/>
    <tag k="network" v="Citybike Wien"/>
    <tag k="ref" v="108"/>
    <tag k="website" v="http://www.citybikewien.at/"/>
  </node>
  <node id="298198687" version="7" timestamp="2011-07-27T12:01:56Z" uid="290680" user="wheelmap_visitor" changeset="8842968" lat="48.2104051" lon="16.3560535">
    <tag k="amenity" v="bicycle_rental"/>
    <tag k="capacity" v="20"/>
    <tag k="name" v="Friedrich-Schmidt-Platz"/>
    <tag k="network" v="Citybike Wien"/>
    <tag k="ref" v="108"/>
    <tag k="website" v="http://www.citybikewien.at/"/>
    <tag k="wheelchair" v="yes"/>
  </node>
  <node id="298191826" version="8" timestamp="2012-05-11T15:59:38Z" uid="298560" user="evod" changeset="11569251" lat="48.2085351" lon="16.3740813"/>
  <node id="298191827" version="7" timestamp="2012-07-17T00:24:33Z" uid="722137" user="OSMF Redaction Account" changeset="12254146" lat="48.2095176" lon="16.366071"/>
  <node id="298191831" version="6" timestamp="2012-05-11T15:59:38Z" uid="298560" user="evod" changeset="11569251" lat="48.2159683" lon="16.3721711"/>
  <node id="298191832" version="6" timestamp="2012-07-16T23:38:51Z" uid="722137" user="OSMF Redaction Account" changeset="12253586" lat="48.2118558" lon="16.3765912">
    <tag k="capacity" v="20"/>
    <tag k="website" v="http://www.citybikewien.at/"/>
  </node>
  <node id="298191832" version="7" timestamp="2012-07-30T21:29:32Z" uid="298560" user="evod" changeset="12554348" lat="48.2117871" lon="16.3767139">
    <tag k="amenity" v="bicycle_rental"/>
    <tag k="capacity" v="20"/>
    <tag k="name" v="Schwedenplatz"/>
    <tag k="network" v="Citybike Wien"/>
    <tag k="ref" v="104"/>
    <tag k="start_date" v="2003-08-22"/>
    <tag k="website" v="http://www.citybikewien.at"/>
  </node>
  <node id="298192868" version="3" timestamp="2012-07-17T05:16:05Z" uid="722137" user="OSMF Redaction Account" changeset="12257545" lat="52.8394676" lon="8.8776415"/>
  <node id="298192871" version="3" timestamp="2012-07-17T05:16:05Z" uid="722137" user="OSMF Redaction Account" changeset="12257545" lat="52.8338634" lon="8.8777885"/>
  <node id="298192879" version="3" timestamp="2012-07-17T05:16:05Z" uid="722137" user="OSMF Redaction Account" changeset="12257545" lat="52.8349611" lon="8.877804"/>
  <node id="298192882" version="3" timestamp="2012-07-17T05:22:51Z" uid="722137" user="OSMF Redaction Account" changeset="12257642" lat="52.8392961" lon="8.8689409"/>
  <node id="298192892" version="6" timestamp="2012-07-16T23:39:57Z" uid="722137" user="OSMF Redaction Account" changeset="12253606" lat="48.2113892" lon="16.382685"/>
  <node id="298195050" version="6" timestamp="2012-07-16T23:39:55Z" uid="722137" user="OSMF Redaction Account" changeset="12253606" lat="48.2068835" lon="16.3805117"/>
  <node id="298198682" version="5" timestamp="2012-07-17T00:24:32Z" uid="722137" user="OSMF Redaction Account" changeset="12254146" lat="48.2065106" lon="16.3605815"/>
  <node id="298198687" version="8" timestamp="2012-07-17T00:22:59Z" uid="722137" user="OSMF Redaction Account" changeset="12254125" lat="48.2104051" lon="16.3560535">
    <tag k="capacity" v="20"/>
    <tag k="website" v="http://www.citybikewien.at/"/>
    <tag k="wheelchair" v="yes"/>
  </node>
  <node id="298198687" version="9" timestamp="2012-07-17T07:05:47Z" uid="54806" user="_al" changeset="12259111" lat="48.2104051" lon="16.3560535">
    <tag k="amenity" v="bicycle_rental"/>
    <tag k="capacity" v="20"/>
    <tag k="network" v="Citybike Wien"/>
    <tag k="ref" v="108"/>
    <tag k="website" v="http://www.citybikewien.at/"/>
    <tag k="wheelchair" v="yes"/>
  </node>
  <node id="298198687" version="10" timestamp="2012-07-17T07:16:31Z" uid="54806" user="_al" changeset="12259307" lat="48.2104051" lon="16.3560535">
    <tag k="amenity" v="bicycle_rental"/>
    <tag k="capacity" v="20"/>
    <tag k="name" v="Friedrich-Schmidt-Platz"/>
    <tag k="network" v="Citybike Wien"/>
    <tag k="ref" v="108"/>
    <tag k="website" v="http://www.citybikewien.at/"/>
    <tag k="wheelchair" v="yes"/>
  </node>
  <node id="298198687" version="11" timestamp="2012-07-30T21:29:30Z" uid="298560" user="evod" changeset="12554348" lat="48.2104051" lon="16.3560535">
    <tag k="amenity" v="bicycle_rental"/>
    <tag k="capacity" v="20"/>
    <tag k="name" v="Friedrich Schmidtplatz"/>
    <tag k="network" v="Citybike Wien"/>
    <tag k="ref" v="108"/>
    <tag k="start_date" v="2004-04-13"/>
    <tag k="website" v="http://www.citybikewien.at"/>
    <tag k="wheelchair" v="yes"/>
  </node>
</osm>
