<?xml version='1.0' encoding='UTF-8'?>
<osm version="0.6" generator="libosmium/2.20.0">
  <node id="298211714" version="1" timestamp="2008-09-19T19:00:45Z" uid="58091" user="Andreas M" changeset="666044" lat="48.1991794" lon="16.3944407">
    <tag k="amenity" v="bicycle_rental"/>
    <tag k="name" v="Wassergasse"/>
    <tag k="network" v="Citybike Wien"/>
    <tag k="ref" v="303"/>
    <tag k="spaces" v="20"/>
  </node>
  <node id="298211714" version="2" timestamp="2008-12-06T16:46:27Z" uid="58091" user="Andreas M" changeset="209642" lat="48.1991794" lon="16.3944407">
    <tag k="amenity" v="bicycle_rental"/>
    <tag k="name" v="Wassergasse"/>
    <tag k="network" v="Citybike Wien"/>
    <tag k="ref" v="303"/>
    <tag k="spaces" v="20"/>
    <tag k="url" v="http://www.citybikewien.at/"/>
  </node>
  <node id="298211714" version="3" timestamp="2009-10-03T20:40:54Z" uid="114161" user="Polarbear" changeset="2729160" lat="48.1991794" lon="16.3944407">
    <tag k="amenity" v="bicycle_rental"/>
    <tag k="capacity" v="20"/>
    <tag k="name" v="Wassergasse"/>
    <tag k="network" v="Citybike Wien"/>
    <tag k="ref" v="303"/>
    <tag k="url" v="http://www.citybikewien.at/"/>
  </node>
  <node id="298211714" version="4" timestamp="2010-09-20T12:50:16Z" uid="65148" user="Pirat Michi" changeset="5828900" lat="48.1991794" lon="16.3944407">
    <tag k="amenity" v="bicycle_rental"/>
    <tag k="capacity" v="20"/>
    <tag k="name" v="Wassergasse"/>
    <tag k="network" v="Citybike Wien"/>
    <tag k="ref" v="303"/>
    <tag k="website" v="http://www.citybikewien.at/"/>
  </node>
  <node id="298211716" version="1" timestamp="2008-09-19T19:00:46Z" uid="58091" user="Andreas M" changeset="666044" lat="48.1942009" lon="16.3866493">
    <tag k="amenity" v="bicycle_rental"/>
    <tag k="name" v="Fasanplatz"/>
    <tag k="network" v="Citybike Wien"/>
    <tag k="ref" v="304"/>
    <tag k="spaces" v="10"/>
  </node>
  <node id="298211716" version="2" timestamp="2008-12-06T16:46:26Z" uid="58091" user="Andreas M" changeset="209642" lat="48.1942009" lon="16.3866493">
    <tag k="amenity" v="bicycle_rental"/>
    <tag k="name" v="Fasanplatz"/>
    <tag k="network" v="Citybike Wien"/>
    <tag k="ref" v="304"/>
    <tag k="spaces" v="10"/>
    <tag k="url" v="http://www.citybikewien.at/"/>
  </node>
  <node id="298211716" version="3" timestamp="2009-10-03T20:40:42Z" uid="114161" user="Polarbear" changeset="2729160" lat="48.1942009" lon="16.3866493">
    <tag k="amenity" v="bicycle_rental"/>
    <tag k="capacity" v="10"/>
    <tag k="name" v="Fasanplatz"/>
    <tag k="network" v="Citybike Wien"/>
    <tag k="ref" v="304"/>
    <tag k="url" v="http://www.citybikewien.at/"/>
  </node>
  <node id="298211716" version="4" timestamp="2010-09-20T12:50:04Z" uid="65148" user="Pirat Michi" changeset="5828900" lat="48.1942009" lon="16.3866493">
    <tag k="amenity" v="bicycle_rental"/>
    <tag k="capacity" v="10"/>
    <tag k="name" v="Fasanplatz"/>
    <tag k="network" v="Citybike Wien"/>
    <tag k="ref" v="304"/>
    <tag k="website" v="http://www.citybikewien.at/"/>
  </node>
  <node id="298211716" version="5" timestamp="2011-02-16T21:39:04Z" uid="289334" user="Soldier Boy" changeset="7308023" lat="48.1942216" lon="16.3865972">
    <tag k="amenity" v="bicycle_rental"/>
    <tag k="capacity" v="10"/>
    <tag k="name" v="Fasanplatz"/>
    <tag k="network" v="Citybike Wien"/>
    <tag k="ref" v="304"/>
    <tag k="website" v="http://www.citybikewien.at/"/>
  </node>
  <node id="298211716" version="6" timestamp="2011-08-13T14:22:25Z" uid="290680" user="wheelmap_visitor" changeset="9003023" lat="48.1942216" lon="16.3865972">
    <tag k="amenity" v="bicycle_rental"/>
    <tag k="capacity" v="10"/>
    <tag k="name" v="Fasanplatz"/>
    <tag k="network" v="Citybike Wien"/>
    <tag k="ref" v="304"/>
    <tag k="website" v="http://www.citybikewien.at/"/>
    <tag k="wheelchair" v="yes"/>
  </node>
  <node id="298214099" version="1" timestamp="2008-09-19T19:04:18Z" uid="58091" user="Andreas M" changeset="666044" lat="48.2032678" lon="16.3899955">
    <tag k="amenity" v="bicycle_rental"/>
    <tag k="name" v="Salmgasse"/>
    <tag k="network" v="Citybike Wien"/>
    <tag k="ref" v="305"/>
    <tag k="spaces" v="18"/>
  </node>
  <node id="298214099" version="2" timestamp="2008-12-06T16:46:25Z" uid="58091" user="Andreas M" changeset="209642" lat="48.2032678" lon="16.3899955">
    <tag k="amenity" v="bicycle_rental"/>
    <tag k="name" v="Salmgasse"/>
    <tag k="network" v="Citybike Wien"/>
    <tag k="ref" v="305"/>
    <tag k="spaces" v="18"/>
    <tag k="url" v="http://www.citybikewien.at/"/>
  </node>
  <node id="298214099" version="3" timestamp="2009-10-03T20:40:48Z" uid="114161" user="Polarbear" changeset="2729160" lat="48.2032678" lon="16.3899955">
    <tag k="amenity" v="bicycle_rental"/>
    <tag k="capacity" v="18"/>
    <tag k="name" v="Salmgasse"/>
    <tag k="network" v="Citybike Wien"/>
    <tag k="ref" v="305"/>
    <tag k="url" v="http://www.citybikewien.at/"/>
  </node>
  <node id="298214099" version="4" timestamp="2010-09-20T12:49:35Z" uid="65148" user="Pirat Michi" changeset="5828900" lat="48.2032678" lon="16.3899955">
    <tag k="amenity" v="bicycle_rental"/>
    <tag k="capacity" v="18"/>
    <tag k="name" v="Salmgasse"/>
    <tag k="network" v="Citybike Wien"/>
    <tag k="ref" v="305"/>
    <tag k="website" v="http://www.citybikewien.at/"/>
  </node>
  <node id="298216183" version="2" timestamp="2008-09-24T04:11:16Z" uid="6975" user="ulfl" changeset="687743" lat="51.5842252" lon="4.9238346">
    <tag k="railway" v="station"/>
  </node>
  <node id="298216183" version="3" timestamp="2009-03-07T16:27:16Z" uid="9176" user="Maarten Deen" changeset="750249" lat="51.5842252" lon="4.9238346">
    <tag k="railway" v="station"/>
  </node>
  <node id="298218296" version="2" timestamp="2009-03-09T20:01:32Z" uid="34428" user="usm78-gis" changeset="771664" lat="59.9957395" lon="30.2517709"/>
  <node id="298218296" version="3" timestamp="2009-03-14T21:30:36Z" uid="106536" user="artemacis" changeset="809958" lat="59.9957395" lon="30.2517709"/>
  <node id="298218296" version="4" timestamp="2009-03-14T21:30:50Z" uid="106536" user="artemacis" changeset="809958" lat="59.9957395" lon="30.2517709"/>
  <node id="298218296" version="5" timestamp="2010-06-29T09:57:03Z" uid="136198" user="tmprec" changeset="5104573" lat="59.9957356" lon="30.2517665"/>
  <node id="298218296" version="6" timestamp="2010-06-29T09:59:28Z" uid="136198" user="tmprec" changeset="5104589" lat="59.9957135" lon="30.2517548"/>
  <node id="298218296" version="7" timestamp="2012-03-14T17:23:20Z" uid="399728" user="Autopro" changeset="10980029" lat="59.9957135" lon="30.2517548"/>
  <node id="298219068" version="1" timestamp="2008-09-19T19:11:31Z" uid="8931" user="bluepup" changeset="664368" lat="51.6549051" lon="8.723516">
    <tag k="created_by" v="JOSM"/>
  </node>
  <node id="298219068" version="2" timestamp="2009-07-25T08:36:49Z" uid="131670" user="Ana Luisa" changeset="1931913" lat="51.6549081" lon="8.7235541"/>
  <node id="298219074" version="1" timestamp="2008-09-19T19:11:31Z" uid="8931" user="bluepup" changeset="664368" lat="51.654885" lon="8.7236131">
    <tag k="created_by" v="JOSM"/>
  </node>
  <node id="298219074" version="2" timestamp="2009-07-25T08:36:49Z" uid="131670" user="Ana Luisa" changeset="1931913" lat="51.6548939" lon="8.7236369"/>
  <node id="298219074" version="3" timestamp="2010-11-12T19:24:33Z" uid="81732" user="zahilb" changeset="6353431" lat="51.6548939" lon="8.7236369"/>
  <node id="298219083" version="1" timestamp="2008-09-19T19:11:31Z" uid="8931" user="bluepup" changeset="664368" lat="51.6548742" lon="8.7237412">
    <tag k="created_by" v="JOSM"/>
  </node>
  <node id="298219091" version="1" timestamp="2008-09-19T19:11:31Z" uid="8931" user="bluepup" changeset="664368" lat="51.654868" lon="8.7238785">
    <tag k="created_by" v="JOSM"/>
  </node>
  <node id="298219091" version="2" timestamp="2010-11-12T19:24:33Z" uid="81732" user="zahilb" changeset="6353431" lat="51.654868" lon="8.7238785">
    <tag k="created_by" v="JOSM"/>
  </node>
  <node id="298219098" version="1" timestamp="2008-09-19T19:11:32Z" uid="8931" user="bluepup" changeset="664368" lat="51.6548526" lon="8.7239788">
    <tag k="created_by" v="JOSM"/>
  </node>
  <node id="298219106" version="1" timestamp="2008-09-19T19:11:32Z" uid="8931" user="bluepup" changeset="664368" lat="51.6548372" lon="8.7240729">
    <tag k="created_by" v="JOSM"/>
  </node>
  <node id="298219116" version="1" timestamp="2008-09-19T19:11:32Z" uid="8931" user="bluepup" changeset="664368" lat="51.6548141" lon="8.7241331">
    <tag k="created_by" v="JOSM"/>
  </node>
  <node id="298219127" version="1" timestamp="2008-09-19T19:11:32Z" uid="8931" user="bluepup" changeset="664368" lat="51.6547817" lon="8.7241608">
    <tag k="created_by" v="JOSM"/>
  </node>
  <node id="298219134" version="1" timestamp="2008-09-19T19:11:33Z" uid="8931" user="bluepup" changeset="664368" lat="51.6547554" lon="8.7241469">
    <tag k="created_by" v="JOSM"/>
  </node>
  <node id="298219141" version="1" timestamp="2008-09-19T19:11:33Z" uid="8931" user="bluepup" changeset="664368" lat="51.6547523" lon="8.7240929">
    <tag k="created_by" v="JOSM"/>
  </node>
  <node id="298219150" version="1" timestamp="2008-09-19T19:11:33Z" uid="8931" user="bluepup" changeset="664368" lat="51.6547739" lon="8.7240467">
    <tag k="created_by" v="JOSM"/>
  </node>
  <node id="298211714" version="5" timestamp="2012-07-16T23:39:52Z" uid="722137" user="OSMF Redaction Account" changeset="12253597" lat="48.1991794" lon="16.3944407"/>
  <node id="298211716" version="7" timestamp="2012-07-16T23:38:37Z" uid="722137" user="OSMF Redaction Account" changeset="12253586" lat="48.1942216" lon="16.3865972">
    <tag k="capacity" v="10"/>
    <tag k="website" v="http://www.citybikewien.at/"/>
    <tag k="wheelchair" v="yes"/>
  </node>
  <node id="298211716" version="8" timestamp="2012-07-30T21:29:29Z" uid="298560" user="evod" changeset="12554348" lat="48.1942216" lon="16.3865972">
    <tag k="amenity" v="bicycle_rental"/>
    <tag k="capacity" v="10"/>
    <tag k="name" v="Fasanplatz"/>
    <tag k="network" v="Citybike Wien"/>
    <tag k="ref" v="304"/>
    <tag k="start_date" v="2004-11-16"/>
    <tag k="website" v="http://www.citybikewien.at"/>
    <tag k="wheelchair" v="yes"/>
  </node>
  <node id="298214099" version="5" timestamp="2012-05-21T20:09:19Z" uid="495567" user="zimba" changeset="11665866" lat="48.2034794" lon="16.3897032">
    <tag k="amenity" v="bicycle_rental"/>
    <tag k="capacity" v="18"/>
    <tag k="name" v="Salmgasse"/>
    <tag k="network" v="Citybike Wien"/>
    <tag k="ref" v="305"/>
    <tag k="website" v="http://www.citybikewien.at/"/>
  </node>
  <node id="298214099" version="6" timestamp="2012-07-16T23:38:41Z" uid="722137" user="OSMF Redaction Account" changeset="12253586" lat="48.2034794" lon="16.3897032">
    <tag k="capacity" v="18"/>
    <tag k="website" v="http://www.citybikewien.at/"/>
  </node>
  <node id="298214099" version="7" timestamp="2012-07-30T21:29:31Z" uid="298560" user="evod" changeset="12554348" lat="48.2034559" lon="16.3897468">
    <tag k="amenity" v="bicycle_rental"/>
    <tag k="capacity" v="18"/>
    <tag k="name" v="Salmgasse"/>
    <tag k="network" v="Citybike Wien"/>
    <tag k="ref" v="305"/>
    <tag k="start_date" v="2005-04-28"/>
    <tag k="website" v="http://www.citybikewien.at"/>
  </node>
  <node id="298219068" version="3" timestamp="2012-07-31T20:45:04Z" uid="289554" user="Vasquez" changeset="12567053" lat="51.6549081" lon="8.7235541"/>
  <node id="298219083" version="2" timestamp="2012-07-19T06:19:57Z" uid="722137" user="OSMF Redaction Account" changeset="12310214" lat="51.6548742" lon="8.7237412"/>
  <node id="298219098" version="2" timestamp="2012-07-19T06:19:56Z" uid="722137" user="OSMF Redaction Account" changeset="12310214" lat="51.6548526" lon="8.7239788"/>
  <node id="298219106" version="2" timestamp="2012-07-19T06:19:56Z" uid="722137" user="OSMF Redaction Account" changeset="12310214" lat="51.6548372" lon="8.7240729"/>
  <node id="298219116" version="2" timestamp="2012-07-19T06:19:56Z" uid="722137" user="OSMF Redaction Account" changeset="12310214" lat="51.6548141" lon="8.7241331"/>
  <node id="298219127" version="2" timestamp="2012-07-19T06:19:56Z" uid="722137" user="OSMF Redaction Account" changeset="12310214" lat="51.6547817" lon="8.7241608"/>
  <node id="298219134" version="2" timestamp="2012-07-19T06:19:56Z" uid="722137" user="OSMF Redaction Account" changeset="12310214" lat="51.6547554" lon="8.7241469"/>
  <node id="298219141" version="2" timestamp="2012-07-19T06:19:56Z" uid="722137" user="OSMF Redaction Account" changeset="12310214" lat="51.6547523" lon="8.7240929"/>
  <node id="298219150" version="2" timestamp="2012-07-19T06:19:56Z" uid="722137" user="OSMF Redaction Account" changeset="12310214" lat="51.6547739" lon="8.7240467"/>
</osm>
