<?xml version='1.0' encoding='UTF-8'?>
<osm version="0.6" generator="libosmium/2.20.0">
  <node id="299561852" version="1" timestamp="2008-09-24T19:46:15Z" uid="36809" user="pfoten_weg_!_" changeset="691601" lat="48.0954347" lon="11.4992153">
    <tag k="amenity" v="wlan"/>
    <tag k="class" v="free"/>
    <tag k="created_by" v="RambaZamba"/>
    <tag k="ref" v="N3R0,  FON_AP, K1, UT70"/>
    <tag k="source" v="survey"/>
  </node>
  <node id="299561852" version="2" timestamp="2008-10-01T01:46:22Z" uid="36809" user="pfoten_weg_!_" changeset="5644" lat="48.0954347" lon="11.4992153">
    <tag k="amenity" v="wlan"/>
    <tag k="class" v="free"/>
    <tag k="created_by" v="RambaZamba"/>
    <tag k="ref" v="N3R0,  FON_AP, K1, UT70"/>
    <tag k="source" v="survey"/>
  </node>
  <node id="299561852" version="3" timestamp="2008-10-21T22:44:18Z" uid="36809" user="pfoten_weg_!_" changeset="498271" lat="48.0954347" lon="11.4992153">
    <tag k="amenity" v="wlan"/>
    <tag k="class" v="free"/>
    <tag k="created_by" v="RambaZamba"/>
    <tag k="ref" v="N3R0,  FON_AP, K1, UT70"/>
    <tag k="source" v="survey"/>
  </node>
  <node id="299562997" version="1" timestamp="2008-09-24T19:48:13Z" uid="67142" user="zottel" changeset="689697" lat="48.892947" lon="8.7006667">
    <tag k="amenity" v="post_box"/>
    <tag k="operator" v="Deutsche Post"/>
  </node>
  <node id="299562997" version="2" timestamp="2008-12-04T18:43:02Z" uid="64482" user="Claas Augner" changeset="114443" lat="48.892947" lon="8.7006667">
    <tag k="addr:city" v="Pforzheim"/>
    <tag k="addr:housenumber" v="1a"/>
    <tag k="addr:postcode" v="75172"/>
    <tag k="addr:street" v="Kiehnlestraße"/>
    <tag k="amenity" v="post_box"/>
    <tag k="operator" v="Deutsche Post"/>
  </node>
  <node id="299562997" version="3" timestamp="2009-02-05T23:30:10Z" uid="64482" user="Claas Augner" changeset="184649" lat="48.892947" lon="8.7006667">
    <tag k="addr:city" v="Pforzheim"/>
    <tag k="addr:housenumber" v="1a"/>
    <tag k="addr:postcode" v="75172"/>
    <tag k="addr:street" v="Kiehnlestraße"/>
    <tag k="amenity" v="post_box"/>
    <tag k="collection_times" v="Mo-Fr 19:00,19:30;Sa 12:45;Su 11:00"/>
    <tag k="operator" v="Deutsche Post"/>
  </node>
  <node id="299562997" version="4" timestamp="2009-11-21T21:01:24Z" uid="26299" user="uboot" changeset="3180243" lat="48.892947" lon="8.7006667">
    <tag k="addr:city" v="Pforzheim"/>
    <tag k="addr:housenumber" v="1a"/>
    <tag k="addr:postcode" v="75172"/>
    <tag k="addr:street" v="Kiehnlestraße"/>
    <tag k="amenity" v="post_box"/>
    <tag k="collection_times" v="Mo-Fr 19:00,19:30; Sa 12:45; Su 11:00"/>
    <tag k="operator" v="Deutsche Post"/>
  </node>
  <node id="299562997" version="5" timestamp="2012-02-11T22:45:51Z" uid="165061" user="keinname" changeset="10658390" lat="48.892947" lon="8.7006667">
    <tag k="addr:city" v="Pforzheim"/>
    <tag k="addr:housenumber" v="1a"/>
    <tag k="addr:postcode" v="75172"/>
    <tag k="addr:street" v="Kiehnlestraße"/>
    <tag k="amenity" v="post_box"/>
    <tag k="brand" v="Deutsche Post"/>
    <tag k="collection_times" v="Mo-Fr 19:00,19:30; Sa 12:45; Su 11:00"/>
    <tag k="operator" v="Deutsche Post"/>
  </node>
  <node id="299562997" version="6" timestamp="2012-03-01T03:38:18Z" uid="210173" user="osmmaker" changeset="10834275" lat="48.892947" lon="8.7006667">
    <tag k="addr:city" v="Pforzheim"/>
    <tag k="addr:housenumber" v="1a"/>
    <tag k="addr:postcode" v="75172"/>
    <tag k="addr:street" v="Kiehnlestraße"/>
    <tag k="amenity" v="post_box"/>
    <tag k="brand" v="Deutsche Post"/>
    <tag k="collection_times" v="Mo-Fr 19:00,19:30; Sa 12:45; Su 11:00"/>
    <tag k="operator" v="Deutsche Post"/>
    <tag k="ref:Deutsche_Post" v="FIXME"/>
  </node>
  <node id="299562997" version="7" timestamp="2012-03-03T21:31:58Z" uid="147510" user="woodpeck_fixbot" changeset="10861079" lat="48.892947" lon="8.7006667">
    <tag k="addr:city" v="Pforzheim"/>
    <tag k="addr:housenumber" v="1a"/>
    <tag k="addr:postcode" v="75172"/>
    <tag k="addr:street" v="Kiehnlestraße"/>
    <tag k="amenity" v="post_box"/>
    <tag k="brand" v="Deutsche Post"/>
    <tag k="collection_times" v="Mo-Fr 19:00,19:30; Sa 12:45; Su 11:00"/>
    <tag k="operator" v="Deutsche Post"/>
  </node>
  <node id="299563003" version="1" timestamp="2008-09-24T19:48:13Z" uid="67142" user="zottel" changeset="689697" lat="48.8927382" lon="8.7008641"/>
  <node id="299563003" version="2" timestamp="2012-01-05T10:24:26Z" uid="442210" user="dwausr" changeset="10299102" lat="48.8927382" lon="8.7008641"/>
  <node id="299563006" version="1" timestamp="2008-09-24T19:48:14Z" uid="67142" user="zottel" changeset="689697" lat="48.8926457" lon="8.7009285"/>
  <node id="299563006" version="2" timestamp="2008-11-08T11:55:08Z" uid="67142" user="zottel" changeset="712923" lat="48.8926449" lon="8.7009278"/>
  <node id="299563006" version="3" timestamp="2011-12-13T10:21:59Z" uid="442210" user="dwausr" changeset="10106307" lat="48.8926449" lon="8.7009278"/>
  <node id="299563019" version="1" timestamp="2008-09-24T19:48:17Z" uid="67142" user="zottel" changeset="689697" lat="48.892839" lon="8.7008049"/>
  <node id="299563019" version="2" timestamp="2012-01-05T10:24:26Z" uid="442210" user="dwausr" changeset="10299102" lat="48.892839" lon="8.7008049"/>
  <node id="299563022" version="1" timestamp="2008-09-24T19:48:17Z" uid="67142" user="zottel" changeset="689697" lat="48.8923151" lon="8.7013309"/>
  <node id="299563022" version="2" timestamp="2011-12-13T10:21:59Z" uid="442210" user="dwausr" changeset="10106307" lat="48.8923151" lon="8.7013309"/>
  <node id="299563026" version="1" timestamp="2008-09-24T19:48:18Z" uid="67142" user="zottel" changeset="689697" lat="48.8923896" lon="8.7012312"/>
  <node id="299563026" version="2" timestamp="2011-12-13T10:22:00Z" uid="442210" user="dwausr" changeset="10106307" lat="48.8923896" lon="8.7012312"/>
  <node id="299563029" version="1" timestamp="2008-09-24T19:48:18Z" uid="67142" user="zottel" changeset="689697" lat="48.8924164" lon="8.7011982"/>
  <node id="299563029" version="2" timestamp="2011-12-13T10:22:00Z" uid="442210" user="dwausr" changeset="10106307" lat="48.8924164" lon="8.7011982"/>
  <node id="299563031" version="1" timestamp="2008-09-24T19:48:18Z" uid="67142" user="zottel" changeset="689697" lat="48.8921891" lon="8.7016134"/>
  <node id="299563031" version="2" timestamp="2011-03-18T17:32:36Z" uid="77204" user="aps" changeset="7597504" lat="48.8922046" lon="8.7016275"/>
  <node id="299563031" version="3" timestamp="2011-12-13T10:22:00Z" uid="442210" user="dwausr" changeset="10106307" lat="48.8922046" lon="8.7016275"/>
  <node id="299563035" version="1" timestamp="2008-09-24T19:48:19Z" uid="67142" user="zottel" changeset="689697" lat="48.8922765" lon="8.7014122"/>
  <node id="299563035" version="2" timestamp="2011-03-18T17:32:37Z" uid="77204" user="aps" changeset="7597504" lat="48.8922638" lon="8.7013845"/>
  <node id="299563035" version="3" timestamp="2011-12-13T10:22:00Z" uid="442210" user="dwausr" changeset="10106307" lat="48.8922638" lon="8.7013845"/>
  <node id="299563038" version="1" timestamp="2008-09-24T19:48:19Z" uid="67142" user="zottel" changeset="689697" lat="48.8921749" lon="8.701418"/>
  <node id="299563038" version="2" timestamp="2011-12-13T10:22:00Z" uid="442210" user="dwausr" changeset="10106307" lat="48.8921749" lon="8.701418"/>
  <node id="299563040" version="1" timestamp="2008-09-24T19:48:19Z" uid="67142" user="zottel" changeset="689697" lat="48.8922851" lon="8.7016063"/>
  <node id="299563040" version="2" timestamp="2011-12-13T10:22:00Z" uid="442210" user="dwausr" changeset="10106307" lat="48.8922851" lon="8.7016063"/>
  <node id="299563043" version="1" timestamp="2008-09-24T19:48:20Z" uid="67142" user="zottel" changeset="689697" lat="48.8922376" lon="8.7016216"/>
  <node id="299563043" version="2" timestamp="2011-12-13T10:22:01Z" uid="442210" user="dwausr" changeset="10106307" lat="48.8922376" lon="8.7016216"/>
  <node id="299563049" version="1" timestamp="2008-09-24T19:48:20Z" uid="67142" user="zottel" changeset="689697" lat="48.8922984" lon="8.7013633"/>
  <node id="299563049" version="2" timestamp="2011-12-13T10:22:01Z" uid="442210" user="dwausr" changeset="10106307" lat="48.8922984" lon="8.7013633"/>
  <node id="299563052" version="1" timestamp="2008-09-24T19:48:21Z" uid="67142" user="zottel" changeset="689697" lat="48.8925134" lon="8.7024586">
    <tag k="amenity" v="telephone"/>
    <tag k="operator" v="Deutsche Telekom"/>
  </node>
  <node id="299563052" version="2" timestamp="2010-09-02T17:43:39Z" uid="65148" user="Pirat Michi" changeset="5663913" lat="48.8925134" lon="8.7024586">
    <tag k="amenity" v="telephone"/>
    <tag k="operator" v="Deutsche Telekom AG"/>
  </node>
  <node id="299563052" version="3" timestamp="2011-12-13T10:22:01Z" uid="442210" user="dwausr" changeset="10106307" lat="48.8925134" lon="8.7024586"/>
  <node id="299563054" version="1" timestamp="2008-09-24T19:48:21Z" uid="67142" user="zottel" changeset="689697" lat="48.8916416" lon="8.7068864">
    <tag k="name" v="Music-City Steinbrecher"/>
    <tag k="shop" v="musical instruments"/>
  </node>
  <node id="299563054" version="2" timestamp="2008-12-20T13:39:30Z" uid="6975" user="ulfl" changeset="499085" lat="48.8916416" lon="8.7068864">
    <tag k="name" v="Music-City Steinbrecher"/>
    <tag k="shop" v="musical_instruments"/>
  </node>
  <node id="299563054" version="3" timestamp="2012-01-09T11:29:05Z" uid="442210" user="dwausr" changeset="10340699" lat="48.8916416" lon="8.7068864"/>
  <node id="299563057" version="1" timestamp="2008-09-24T19:48:21Z" uid="67142" user="zottel" changeset="689697" lat="48.8916777" lon="8.7070645">
    <tag k="name" v="Treff Discount"/>
    <tag k="shop" v="supermarket"/>
  </node>
  <node id="299563057" version="2" timestamp="2008-10-28T14:43:35Z" uid="67142" user="zottel" changeset="610348" lat="48.8916777" lon="8.7070645">
    <tag k="addr:city" v="Pforzheim"/>
    <tag k="addr:housenumber" v="38"/>
    <tag k="addr:postcode" v="75172"/>
    <tag k="addr:street" v="Östliche Karl-Friedrich-Straße"/>
    <tag k="fax" v="+49 7231 155264"/>
    <tag k="name" v="Treff Discount"/>
    <tag k="phone" v="+49 7231 313842"/>
    <tag k="shop" v="supermarket"/>
    <tag k="url" v="http://www.edeka.de/"/>
  </node>
  <node id="299563057" version="3" timestamp="2010-09-19T15:36:26Z" uid="65148" user="Pirat Michi" changeset="5820767" lat="48.8916777" lon="8.7070645">
    <tag k="addr:city" v="Pforzheim"/>
    <tag k="addr:housenumber" v="38"/>
    <tag k="addr:postcode" v="75172"/>
    <tag k="addr:street" v="Östliche Karl-Friedrich-Straße"/>
    <tag k="fax" v="+49 7231 155264"/>
    <tag k="name" v="Treff Discount"/>
    <tag k="phone" v="+49 7231 313842"/>
    <tag k="shop" v="supermarket"/>
    <tag k="website" v="http://www.edeka.de/"/>
  </node>
  <node id="299563057" version="4" timestamp="2011-12-23T15:51:28Z" uid="290680" user="wheelmap_visitor" changeset="10185228" lat="48.8916777" lon="8.7070645">
    <tag k="addr:city" v="Pforzheim"/>
    <tag k="addr:housenumber" v="38"/>
    <tag k="addr:postcode" v="75172"/>
    <tag k="addr:street" v="Östliche Karl-Friedrich-Straße"/>
    <tag k="fax" v="+49 7231 155264"/>
    <tag k="name" v="Treff Discount"/>
    <tag k="phone" v="+49 7231 313842"/>
    <tag k="shop" v="supermarket"/>
    <tag k="website" v="http://www.edeka.de/"/>
    <tag k="wheelchair" v="no"/>
  </node>
  <node id="299563057" version="5" timestamp="2012-01-09T11:29:08Z" uid="442210" user="dwausr" changeset="10340699" lat="48.8916777" lon="8.7070645"/>
  <node id="299563060" version="1" timestamp="2008-09-24T19:48:22Z" uid="67142" user="zottel" changeset="689697" lat="48.8918266" lon="8.7078821">
    <tag k="name" v="Gross"/>
    <tag k="shop" v="bakery"/>
  </node>
  <node id="299563060" version="2" timestamp="2011-12-23T15:50:26Z" uid="290680" user="wheelmap_visitor" changeset="10185228" lat="48.8918266" lon="8.7078821">
    <tag k="name" v="Gross"/>
    <tag k="shop" v="bakery"/>
    <tag k="wheelchair" v="limited"/>
  </node>
  <node id="299563060" version="3" timestamp="2012-01-09T11:29:02Z" uid="442210" user="dwausr" changeset="10340699" lat="48.8918266" lon="8.7078821"/>
  <node id="299563061" version="1" timestamp="2008-09-24T19:48:22Z" uid="67142" user="zottel" changeset="689697" lat="48.8921572" lon="8.7086656">
    <tag k="amenity" v="recycling"/>
    <tag k="glass_bottles" v="yes"/>
  </node>
  <node id="299563061" version="3" timestamp="2008-11-30T01:49:17Z" uid="63969" user="olvagor" changeset="812487" lat="48.8921572" lon="8.7086656">
    <tag k="amenity" v="recycling"/>
    <tag k="recycling:batteries" v="yes"/>
    <tag k="recycling:glass" v="yes"/>
    <tag k="recycling:glass_bottles" v="yes"/>
  </node>
  <node id="299563061" version="4" timestamp="2012-01-09T11:29:15Z" uid="442210" user="dwausr" changeset="10340699" lat="48.8921572" lon="8.7086656"/>
  <node id="299563063" version="1" timestamp="2008-09-24T19:48:22Z" uid="67142" user="zottel" changeset="689697" lat="48.8921906" lon="8.7086104">
    <tag k="name" v="Europcar"/>
    <tag k="shop" v="car_rental"/>
  </node>
  <node id="299563063" version="2" timestamp="2008-10-23T18:46:35Z" uid="6975" user="ulfl" changeset="530870" lat="48.8921906" lon="8.7086104">
    <tag k="amenity" v="car_rental"/>
    <tag k="name" v="Europcar"/>
  </node>
  <node id="299563063" version="3" timestamp="2008-10-29T00:51:21Z" uid="67142" user="zottel" changeset="618553" lat="48.8921906" lon="8.7086104">
    <tag k="addr:city" v="Pforzheim"/>
    <tag k="addr:housenumber" v="65"/>
    <tag k="addr:postcode" v="75175"/>
    <tag k="addr:street" v="Östliche Karl-Friedrich-Straße"/>
    <tag k="amenity" v="car_rental"/>
    <tag k="fax" v="+49 7231 17396"/>
    <tag k="name" v="Europcar"/>
    <tag k="phone" v="+49 7231 313535"/>
    <tag k="url" v="http://www.europcar.de/stationenuebersicht/crs/PFORZHEIM.html"/>
  </node>
  <node id="299563063" version="4" timestamp="2010-09-19T15:36:27Z" uid="65148" user="Pirat Michi" changeset="5820767" lat="48.8921906" lon="8.7086104">
    <tag k="addr:city" v="Pforzheim"/>
    <tag k="addr:housenumber" v="65"/>
    <tag k="addr:postcode" v="75175"/>
    <tag k="addr:street" v="Östliche Karl-Friedrich-Straße"/>
    <tag k="amenity" v="car_rental"/>
    <tag k="fax" v="+49 7231 17396"/>
    <tag k="name" v="Europcar"/>
    <tag k="phone" v="+49 7231 313535"/>
    <tag k="website" v="http://www.europcar.de/stationenuebersicht/crs/PFORZHEIM.html"/>
  </node>
  <node id="299563063" version="5" timestamp="2012-01-09T11:29:00Z" uid="442210" user="dwausr" changeset="10340699" lat="48.8921906" lon="8.7086104"/>
  <node id="299563064" version="1" timestamp="2008-09-24T19:48:22Z" uid="67142" user="zottel" changeset="689697" lat="48.8922001" lon="8.7087798">
    <tag k="amenity" v="pub"/>
    <tag k="name" v="Pils-Stuben"/>
  </node>
  <node id="299563064" version="2" timestamp="2008-10-29T00:51:22Z" uid="67142" user="zottel" changeset="618553" lat="48.8922001" lon="8.7087798">
    <tag k="addr:city" v="Pforzheim"/>
    <tag k="addr:housenumber" v="65"/>
    <tag k="addr:postcode" v="75175"/>
    <tag k="addr:street" v="Östliche Karl-Friedrich-Straße"/>
    <tag k="amenity" v="pub"/>
    <tag k="name" v="Dinkelacker-Pilsstuben/Wullestube"/>
    <tag k="phone" v="+49 7231 32990"/>
    <tag k="url" v="http://www.dinkelacker-pilsstuben.de/"/>
  </node>
  <node id="299563064" version="3" timestamp="2010-09-19T15:36:28Z" uid="65148" user="Pirat Michi" changeset="5820767" lat="48.8922001" lon="8.7087798">
    <tag k="addr:city" v="Pforzheim"/>
    <tag k="addr:housenumber" v="65"/>
    <tag k="addr:postcode" v="75175"/>
    <tag k="addr:street" v="Östliche Karl-Friedrich-Straße"/>
    <tag k="amenity" v="pub"/>
    <tag k="name" v="Dinkelacker-Pilsstuben/Wullestube"/>
    <tag k="phone" v="+49 7231 32990"/>
    <tag k="website" v="http://www.dinkelacker-pilsstuben.de/"/>
  </node>
  <node id="299563064" version="4" timestamp="2012-01-09T11:29:00Z" uid="442210" user="dwausr" changeset="10340699" lat="48.8922001" lon="8.7087798"/>
  <node id="299563066" version="1" timestamp="2008-09-24T19:48:23Z" uid="67142" user="zottel" changeset="689697" lat="48.8913743" lon="8.7090189">
    <tag k="amenity" v="pub"/>
    <tag k="name" v="Struwwelpeter"/>
  </node>
  <node id="299563066" version="2" timestamp="2012-01-09T11:29:07Z" uid="442210" user="dwausr" changeset="10340699" lat="48.8913743" lon="8.7090189"/>
  <node id="299563068" version="1" timestamp="2008-09-24T19:48:23Z" uid="67142" user="zottel" changeset="689697" lat="48.8907081" lon="8.7057802">
    <tag k="amenity" v="pub"/>
    <tag k="name" v="Bierarium"/>
  </node>
  <node id="299563068" version="2" timestamp="2012-01-05T09:33:49Z" uid="442210" user="dwausr" changeset="10298650" lat="48.8907081" lon="8.7057802"/>
  <node id="299563069" version="1" timestamp="2008-09-24T19:48:23Z" uid="67142" user="zottel" changeset="689697" lat="48.8908406" lon="8.7060521">
    <tag k="name" v="Kopfsache"/>
    <tag k="shop" v="hairdresser"/>
  </node>
  <node id="299563069" version="2" timestamp="2008-10-28T15:42:56Z" uid="67142" user="zottel" changeset="610348" lat="48.8908406" lon="8.7060521">
    <tag k="addr:city" v="Pforzheim"/>
    <tag k="addr:housenumber" v="35"/>
    <tag k="addr:postcode" v="75175"/>
    <tag k="addr:street" v="Gymnasiumstraße"/>
    <tag k="fax" v="+49 7231 426394"/>
    <tag k="name" v="Kopfsache"/>
    <tag k="phone" v="+49 7231 316066"/>
    <tag k="shop" v="hairdresser"/>
    <tag k="url" v="www.friseur-kopfsache.de/"/>
  </node>
  <node id="299563069" version="3" timestamp="2010-09-19T15:36:28Z" uid="65148" user="Pirat Michi" changeset="5820767" lat="48.8908406" lon="8.7060521">
    <tag k="addr:city" v="Pforzheim"/>
    <tag k="addr:housenumber" v="35"/>
    <tag k="addr:postcode" v="75175"/>
    <tag k="addr:street" v="Gymnasiumstraße"/>
    <tag k="fax" v="+49 7231 426394"/>
    <tag k="name" v="Kopfsache"/>
    <tag k="phone" v="+49 7231 316066"/>
    <tag k="shop" v="hairdresser"/>
    <tag k="website" v="www.friseur-kopfsache.de/"/>
  </node>
  <node id="299563069" version="4" timestamp="2012-01-05T09:33:55Z" uid="442210" user="dwausr" changeset="10298650" lat="48.8908406" lon="8.7060521"/>
  <node id="299563071" version="1" timestamp="2008-09-24T19:48:24Z" uid="67142" user="zottel" changeset="689697" lat="48.8902661" lon="8.7058613">
    <tag k="amenity" v="restaurant"/>
    <tag k="cuisine" v="Badisch Elsässisch"/>
    <tag k="name" v="Happe&apos;s"/>
  </node>
  <node id="299563071" version="2" timestamp="2008-10-24T18:13:39Z" uid="67142" user="zottel" changeset="550161" lat="48.8902661" lon="8.7058613">
    <tag k="amenity" v="restaurant"/>
    <tag k="cuisine" v="Badisch Elsässisch"/>
    <tag k="name" v="Hoppe&apos;s"/>
  </node>
  <node id="299563071" version="3" timestamp="2008-11-30T01:45:17Z" uid="63969" user="olvagor" changeset="812487" lat="48.8902484" lon="8.7058572">
    <tag k="amenity" v="restaurant"/>
    <tag k="cuisine" v="Badisch Elsässisch"/>
    <tag k="name" v="Hoppe&apos;s"/>
  </node>
  <node id="299563071" version="4" timestamp="2011-09-17T10:02:51Z" uid="64008" user="E-Malte" changeset="9322468" lat="48.8902484" lon="8.7058572">
    <tag k="amenity" v="restaurant"/>
    <tag k="cuisine" v="alsatian;badisch"/>
    <tag k="name" v="Hoppe&apos;s"/>
  </node>
  <node id="299563071" version="5" timestamp="2012-01-05T09:33:54Z" uid="442210" user="dwausr" changeset="10298650" lat="48.8902484" lon="8.7058572"/>
  <node id="299563075" version="1" timestamp="2008-09-24T19:48:24Z" uid="67142" user="zottel" changeset="689697" lat="48.8895899" lon="8.7053904"/>
  <node id="299563075" version="2" timestamp="2008-09-24T20:50:00Z" uid="67142" user="zottel" changeset="692843" lat="48.8895899" lon="8.7053904"/>
  <node id="299563078" version="1" timestamp="2008-09-24T19:48:24Z" uid="67142" user="zottel" changeset="689697" lat="48.8900451" lon="8.7052691"/>
  <node id="299563078" version="2" timestamp="2008-11-13T23:46:54Z" uid="63969" user="olvagor" changeset="746436" lat="48.8900451" lon="8.7052691"/>
  <node id="299563091" version="1" timestamp="2008-09-24T19:48:25Z" uid="67142" user="zottel" changeset="689697" lat="48.8897248" lon="8.7063404"/>
  <node id="299563091" version="2" timestamp="2008-09-26T15:47:21Z" uid="67142" user="zottel" changeset="699469" lat="48.8897248" lon="8.7063404"/>
  <node id="299563096" version="1" timestamp="2008-09-24T19:48:25Z" uid="67142" user="zottel" changeset="689697" lat="48.8895367" lon="8.7053304">
    <tag k="amenity" v="telephone"/>
    <tag k="operator" v="Deutsche Telekom"/>
  </node>
  <node id="299563096" version="2" timestamp="2008-09-24T20:49:54Z" uid="67142" user="zottel" changeset="692843" lat="48.8895772" lon="8.7052262">
    <tag k="amenity" v="telephone"/>
    <tag k="operator" v="Deutsche Telekom"/>
  </node>
  <node id="299563096" version="3" timestamp="2010-09-02T17:43:40Z" uid="65148" user="Pirat Michi" changeset="5663913" lat="48.8895772" lon="8.7052262">
    <tag k="amenity" v="telephone"/>
    <tag k="operator" v="Deutsche Telekom AG"/>
  </node>
  <node id="299563096" version="4" timestamp="2012-01-05T09:34:22Z" uid="442210" user="dwausr" changeset="10298650" lat="48.8895772" lon="8.7052262"/>
  <node id="299563099" version="1" timestamp="2008-09-24T19:48:26Z" uid="67142" user="zottel" changeset="689697" lat="48.8878764" lon="8.706717"/>
  <node id="299563099" version="2" timestamp="2008-09-26T17:15:34Z" uid="67142" user="zottel" changeset="700151" lat="48.8878952" lon="8.7067152"/>
  <node id="299563099" version="3" timestamp="2008-11-08T00:48:59Z" uid="63969" user="olvagor" changeset="718352" lat="48.8878614" lon="8.7066186"/>
  <node id="299563099" version="4" timestamp="2010-12-19T18:19:42Z" uid="77204" user="aps" changeset="6708900" lat="48.8878504" lon="8.7066513"/>
  <node id="299563099" version="5" timestamp="2011-08-26T22:01:21Z" uid="5862" user="sturmflut" changeset="9133625" lat="48.8878433" lon="8.7066195"/>
  <node id="299563099" version="6" timestamp="2011-12-15T09:15:55Z" uid="442210" user="dwausr" changeset="10122406" lat="48.8878433" lon="8.7066195"/>
  <node id="299565168" version="3" timestamp="2009-10-20T23:49:50Z" uid="36809" user="pfoten_weg_!_" changeset="2908189" lat="48.0429376" lon="11.1738741"/>
  <node id="299565576" version="3" timestamp="2009-10-20T23:49:49Z" uid="36809" user="pfoten_weg_!_" changeset="2908189" lat="48.0429096" lon="11.1728611"/>
  <node id="299565656" version="3" timestamp="2009-10-20T23:49:49Z" uid="36809" user="pfoten_weg_!_" changeset="2908189" lat="48.0429241" lon="11.1722822"/>
  <node id="299565930" version="1" timestamp="2008-09-24T19:52:39Z" uid="36809" user="pfoten_weg_!_" changeset="691601" lat="48.0897604" lon="11.4984489">
    <tag k="amenity" v="wlan"/>
    <tag k="class" v="free"/>
    <tag k="created_by" v="RambaZamba"/>
    <tag k="ref" v="sallerofon, FON_AP, K1, UT90"/>
    <tag k="source" v="survey"/>
  </node>
  <node id="299565930" version="2" timestamp="2008-10-01T01:00:49Z" uid="36809" user="pfoten_weg_!_" changeset="5644" lat="48.0897604" lon="11.4984489">
    <tag k="amenity" v="wlan"/>
    <tag k="class" v="free"/>
    <tag k="created_by" v="RambaZamba"/>
    <tag k="ref" v="sallerofon, FON_AP, K1, UT90"/>
    <tag k="source" v="survey"/>
  </node>
  <node id="299565930" version="3" timestamp="2008-10-16T12:01:35Z" uid="36809" user="pfoten_weg_!_" changeset="370616" lat="48.089785" lon="11.4984636">
    <tag k="amenity" v="wlan"/>
    <tag k="class" v="free"/>
    <tag k="created_by" v="RambaZamba"/>
    <tag k="ref" v="sallerofon, FON_FREE_INTERNET, K1, UT90"/>
    <tag k="source" v="survey"/>
  </node>
  <node id="299565930" version="4" timestamp="2008-10-22T00:35:41Z" uid="36809" user="pfoten_weg_!_" changeset="498765" lat="48.089785" lon="11.4984636">
    <tag k="amenity" v="wlan"/>
    <tag k="class" v="free"/>
    <tag k="created_by" v="RambaZamba"/>
    <tag k="ref" v="sallerofon, FON_FREE_INTERNET, K1, UT90"/>
    <tag k="source" v="survey"/>
  </node>
  <node id="299566050" version="3" timestamp="2010-09-01T18:20:47Z" uid="96874" user="Quedel" changeset="5656024" lat="51.7925372" lon="11.1415991">
    <tag k="barrier" v="bollard"/>
  </node>
  <node id="299566058" version="3" timestamp="2010-10-16T11:23:36Z" uid="96874" user="Quedel" changeset="6056097" lat="51.7901859" lon="11.1415307">
    <tag k="amenity" v="school"/>
    <tag k="name" v="Marktgrundschule"/>
    <tag k="school" v="primary"/>
  </node>
  <node id="299566058" version="4" timestamp="2011-10-18T15:26:30Z" uid="290680" user="wheelmap_visitor" changeset="9587957" lat="51.7901859" lon="11.1415307">
    <tag k="amenity" v="school"/>
    <tag k="name" v="Marktgrundschule"/>
    <tag k="school" v="primary"/>
    <tag k="wheelchair" v="no"/>
  </node>
  <node id="299566063" version="4" timestamp="2010-10-21T17:41:19Z" uid="96874" user="Quedel" changeset="6129786" lat="51.7895301" lon="11.1412544">
    <tag k="amenity" v="bank"/>
    <tag k="atm" v="yes"/>
    <tag k="name" v="Sparkasse"/>
    <tag k="operator" v="Harzsparkasse"/>
  </node>
  <node id="299566063" version="5" timestamp="2011-10-10T22:06:23Z" uid="290680" user="wheelmap_visitor" changeset="9518514" lat="51.7895301" lon="11.1412544">
    <tag k="amenity" v="bank"/>
    <tag k="atm" v="yes"/>
    <tag k="name" v="Sparkasse"/>
    <tag k="operator" v="Harzsparkasse"/>
    <tag k="wheelchair" v="limited"/>
  </node>
  <node id="299566084" version="3" timestamp="2010-10-14T19:52:22Z" uid="96874" user="Quedel" changeset="6040209" lat="51.7932022" lon="11.1432391">
    <tag k="amenity" v="place_of_worship"/>
    <tag k="denomination" v="evangelical"/>
    <tag k="name" v="Agidiikirche"/>
    <tag k="religion" v="christian"/>
  </node>
  <node id="299566677" version="1" timestamp="2008-09-24T19:54:19Z" uid="43967" user="railsnail" changeset="691906" lat="46.2479784" lon="8.705847"/>
  <node id="299566677" version="2" timestamp="2012-01-11T08:19:35Z" uid="74900" user="FischersFritz" changeset="10358388" lat="46.2479784" lon="8.705847"/>
  <node id="299566679" version="1" timestamp="2008-09-24T19:54:19Z" uid="43967" user="railsnail" changeset="691906" lat="46.2510647" lon="8.7104562"/>
  <node id="299566679" version="2" timestamp="2012-01-11T08:19:35Z" uid="74900" user="FischersFritz" changeset="10358388" lat="46.2510647" lon="8.7104562"/>
  <node id="299566680" version="1" timestamp="2008-09-24T19:54:19Z" uid="43967" user="railsnail" changeset="691906" lat="46.2510351" lon="8.7103102"/>
  <node id="299566680" version="2" timestamp="2012-01-11T08:19:35Z" uid="74900" user="FischersFritz" changeset="10358388" lat="46.2510351" lon="8.7103102"/>
  <node id="299566681" version="1" timestamp="2008-09-24T19:54:19Z" uid="43967" user="railsnail" changeset="691906" lat="46.2510707" lon="8.7102158"/>
  <node id="299566681" version="2" timestamp="2012-01-11T08:19:35Z" uid="74900" user="FischersFritz" changeset="10358388" lat="46.2510707" lon="8.7102158"/>
  <node id="299566683" version="1" timestamp="2008-09-24T19:54:20Z" uid="43967" user="railsnail" changeset="691906" lat="46.2509401" lon="8.7093318"/>
  <node id="299566683" version="2" timestamp="2012-01-11T08:19:35Z" uid="74900" user="FischersFritz" changeset="10358388" lat="46.2509401" lon="8.7093318"/>
  <node id="299566684" version="1" timestamp="2008-09-24T19:54:20Z" uid="43967" user="railsnail" changeset="691906" lat="46.2510113" lon="8.7092803"/>
  <node id="299566684" version="2" timestamp="2012-01-11T08:19:35Z" uid="74900" user="FischersFritz" changeset="10358388" lat="46.2510113" lon="8.7092803"/>
  <node id="299566685" version="1" timestamp="2008-09-24T19:54:20Z" uid="43967" user="railsnail" changeset="691906" lat="46.2511182" lon="8.7087481"/>
  <node id="299566685" version="2" timestamp="2012-01-11T08:19:35Z" uid="74900" user="FischersFritz" changeset="10358388" lat="46.2511182" lon="8.7087481"/>
  <node id="299566686" version="1" timestamp="2008-09-24T19:54:20Z" uid="43967" user="railsnail" changeset="691906" lat="46.2509816" lon="8.708319"/>
  <node id="299566686" version="2" timestamp="2012-01-11T08:19:35Z" uid="74900" user="FischersFritz" changeset="10358388" lat="46.2509816" lon="8.708319"/>
  <node id="299566687" version="1" timestamp="2008-09-24T19:54:20Z" uid="43967" user="railsnail" changeset="691906" lat="46.2509757" lon="8.7081902"/>
  <node id="299566687" version="2" timestamp="2012-01-11T08:19:35Z" uid="74900" user="FischersFritz" changeset="10358388" lat="46.2509757" lon="8.7081902"/>
  <node id="299566689" version="1" timestamp="2008-09-24T19:54:20Z" uid="43967" user="railsnail" changeset="691906" lat="46.2508986" lon="8.7083361"/>
  <node id="299566689" version="2" timestamp="2012-01-11T08:19:35Z" uid="74900" user="FischersFritz" changeset="10358388" lat="46.2508986" lon="8.7083361"/>
  <node id="299566690" version="1" timestamp="2008-09-24T19:54:20Z" uid="43967" user="railsnail" changeset="691906" lat="46.2507502" lon="8.7084992"/>
  <node id="299566690" version="2" timestamp="2010-09-16T15:09:35Z" uid="287341" user="littleboy" changeset="5796522" lat="46.2507637" lon="8.7085468"/>
  <node id="299566691" version="1" timestamp="2008-09-24T19:54:20Z" uid="43967" user="railsnail" changeset="691906" lat="46.2504653" lon="8.7086795"/>
  <node id="299566691" version="2" timestamp="2010-09-16T15:09:51Z" uid="287341" user="littleboy" changeset="5796522" lat="46.2505202" lon="8.7087955"/>
  <node id="299566692" version="1" timestamp="2008-09-24T19:54:20Z" uid="43967" user="railsnail" changeset="691906" lat="46.2503703" lon="8.7087825"/>
  <node id="299566692" version="2" timestamp="2010-09-16T15:09:26Z" uid="287341" user="littleboy" changeset="5796522" lat="46.2504211" lon="8.7088444"/>
  <node id="299566693" version="1" timestamp="2008-09-24T19:54:20Z" uid="43967" user="railsnail" changeset="691906" lat="46.2502754" lon="8.7087825"/>
  <node id="299566693" version="2" timestamp="2010-09-16T15:09:49Z" uid="287341" user="littleboy" changeset="5796522" lat="46.250331" lon="8.708831"/>
  <node id="299566694" version="1" timestamp="2008-09-24T19:54:20Z" uid="43967" user="railsnail" changeset="691906" lat="46.2502041" lon="8.7086795"/>
  <node id="299566694" version="2" timestamp="2010-09-16T15:09:20Z" uid="287341" user="littleboy" changeset="5796522" lat="46.2502452" lon="8.7087682"/>
  <node id="299566695" version="1" timestamp="2008-09-24T19:54:20Z" uid="43967" user="railsnail" changeset="691906" lat="46.2502754" lon="8.7086709"/>
  <node id="299566695" version="2" timestamp="2010-09-16T15:09:45Z" uid="287341" user="littleboy" changeset="5796522" lat="46.2503042" lon="8.7086109"/>
  <node id="299566696" version="1" timestamp="2008-09-24T19:54:20Z" uid="43967" user="railsnail" changeset="691906" lat="46.2504237" lon="8.7084735"/>
  <node id="299566696" version="2" timestamp="2012-01-11T08:19:36Z" uid="74900" user="FischersFritz" changeset="10358388" lat="46.2504237" lon="8.7084735"/>
  <node id="299566698" version="1" timestamp="2008-09-24T19:54:20Z" uid="43967" user="railsnail" changeset="691906" lat="46.2505009" lon="8.7079928"/>
  <node id="299566698" version="2" timestamp="2010-09-16T15:09:16Z" uid="287341" user="littleboy" changeset="5796522" lat="46.2505936" lon="8.7080759"/>
  <node id="299566699" version="1" timestamp="2008-09-24T19:54:20Z" uid="43967" user="railsnail" changeset="691906" lat="46.250584" lon="8.7078727"/>
  <node id="299566699" version="2" timestamp="2010-09-16T15:09:38Z" uid="287341" user="littleboy" changeset="5796522" lat="46.2506063" lon="8.7079744"/>
  <node id="299566700" version="1" timestamp="2008-09-24T19:54:20Z" uid="43967" user="railsnail" changeset="691906" lat="46.2505128" lon="8.7078212"/>
  <node id="299566700" version="2" timestamp="2010-09-16T15:09:53Z" uid="287341" user="littleboy" changeset="5796522" lat="46.2505256" lon="8.7079362"/>
  <node id="299566701" version="1" timestamp="2008-09-24T19:54:20Z" uid="43967" user="railsnail" changeset="691906" lat="46.250305" lon="8.7078984"/>
  <node id="299566701" version="2" timestamp="2010-09-16T15:09:34Z" uid="287341" user="littleboy" changeset="5796522" lat="46.2503694" lon="8.7080011"/>
  <node id="299566702" version="1" timestamp="2008-09-24T19:54:20Z" uid="43967" user="railsnail" changeset="691906" lat="46.2500914" lon="8.7078727"/>
  <node id="299566702" version="2" timestamp="2010-09-16T15:09:50Z" uid="287341" user="littleboy" changeset="5796522" lat="46.250211" lon="8.7080644"/>
  <node id="299566703" version="1" timestamp="2008-09-24T19:54:21Z" uid="43967" user="railsnail" changeset="691906" lat="46.2499133" lon="8.7078727"/>
  <node id="299566703" version="2" timestamp="2010-09-16T15:09:24Z" uid="287341" user="littleboy" changeset="5796522" lat="46.2501309" lon="8.7080869"/>
  <node id="299566704" version="1" timestamp="2008-09-24T19:54:21Z" uid="43967" user="railsnail" changeset="691906" lat="46.2497946" lon="8.7079413"/>
  <node id="299566704" version="2" timestamp="2010-09-16T15:09:47Z" uid="287341" user="littleboy" changeset="5796522" lat="46.2500032" lon="8.7081216"/>
  <node id="299566705" version="1" timestamp="2008-09-24T19:54:21Z" uid="43967" user="railsnail" changeset="691906" lat="46.2497709" lon="8.7080186"/>
  <node id="299566705" version="2" timestamp="2010-09-16T15:09:19Z" uid="287341" user="littleboy" changeset="5796522" lat="46.2498581" lon="8.7081758"/>
  <node id="299566707" version="1" timestamp="2008-09-24T19:54:21Z" uid="43967" user="railsnail" changeset="691906" lat="46.2496996" lon="8.7080615"/>
  <node id="299566707" version="2" timestamp="2010-09-16T15:09:18Z" uid="287341" user="littleboy" changeset="5796522" lat="46.249717" lon="8.7081834"/>
  <node id="299566708" version="1" timestamp="2008-09-24T19:54:21Z" uid="43967" user="railsnail" changeset="691906" lat="46.2493494" lon="8.7081816"/>
  <node id="299566708" version="2" timestamp="2010-09-16T15:09:40Z" uid="287341" user="littleboy" changeset="5796522" lat="46.2494042" lon="8.7083043"/>
  <node id="299566709" version="1" timestamp="2008-09-24T19:54:21Z" uid="43967" user="railsnail" changeset="691906" lat="46.2491714" lon="8.7081902"/>
  <node id="299566709" version="2" timestamp="2010-09-16T15:09:15Z" uid="287341" user="littleboy" changeset="5796522" lat="46.2492127" lon="8.7082654"/>
  <node id="299566710" version="1" timestamp="2008-09-24T19:54:21Z" uid="43967" user="railsnail" changeset="691906" lat="46.2491061" lon="8.7081645"/>
  <node id="299566710" version="2" timestamp="2012-01-11T08:19:36Z" uid="74900" user="FischersFritz" changeset="10358388" lat="46.2491061" lon="8.7081645"/>
  <node id="299566711" version="1" timestamp="2008-09-24T19:54:21Z" uid="43967" user="railsnail" changeset="691906" lat="46.2489577" lon="8.7080786"/>
  <node id="299566711" version="2" timestamp="2010-09-16T15:09:52Z" uid="287341" user="littleboy" changeset="5796522" lat="46.2490327" lon="8.7080736"/>
  <node id="299566712" version="1" timestamp="2008-09-24T19:54:21Z" uid="43967" user="railsnail" changeset="691906" lat="46.2489577" lon="8.7076752"/>
  <node id="299566712" version="2" timestamp="2012-01-11T08:19:36Z" uid="74900" user="FischersFritz" changeset="10358388" lat="46.2489577" lon="8.7076752"/>
  <node id="299566714" version="1" timestamp="2008-09-24T19:54:21Z" uid="43967" user="railsnail" changeset="691906" lat="46.2480674" lon="8.7078555"/>
  <node id="299566714" version="2" timestamp="2009-07-08T16:06:53Z" uid="52921" user="t-i" changeset="1773762" lat="46.2480674" lon="8.7078555"/>
  <node id="299566715" version="1" timestamp="2008-09-24T19:54:21Z" uid="43967" user="railsnail" changeset="691906" lat="46.2479131" lon="8.7074435"/>
  <node id="299566715" version="2" timestamp="2012-01-11T08:19:36Z" uid="74900" user="FischersFritz" changeset="10358388" lat="46.2479131" lon="8.7074435"/>
  <node id="299566716" version="1" timestamp="2008-09-24T19:54:22Z" uid="43967" user="railsnail" changeset="691906" lat="46.2479249" lon="8.707186"/>
  <node id="299566716" version="2" timestamp="2012-01-11T08:19:36Z" uid="74900" user="FischersFritz" changeset="10358388" lat="46.2479249" lon="8.707186"/>
  <node id="299566718" version="1" timestamp="2008-09-24T19:54:22Z" uid="43967" user="railsnail" changeset="691906" lat="46.2481742" lon="8.7069371"/>
  <node id="299566718" version="2" timestamp="2012-01-11T08:19:36Z" uid="74900" user="FischersFritz" changeset="10358388" lat="46.2481742" lon="8.7069371"/>
  <node id="299566720" version="1" timestamp="2008-09-24T19:54:22Z" uid="43967" user="railsnail" changeset="691906" lat="46.2481505" lon="8.7065509"/>
  <node id="299566720" version="2" timestamp="2012-01-11T08:19:36Z" uid="74900" user="FischersFritz" changeset="10358388" lat="46.2481505" lon="8.7065509"/>
  <node id="299566721" version="1" timestamp="2008-09-24T19:54:22Z" uid="43967" user="railsnail" changeset="691906" lat="46.2481742" lon="8.7064135"/>
  <node id="299566721" version="2" timestamp="2012-01-11T08:19:37Z" uid="74900" user="FischersFritz" changeset="10358388" lat="46.2481742" lon="8.7064135"/>
  <node id="299566722" version="1" timestamp="2008-09-24T19:54:22Z" uid="43967" user="railsnail" changeset="691906" lat="46.2481505" lon="8.7063277"/>
  <node id="299566722" version="2" timestamp="2012-01-11T08:19:37Z" uid="74900" user="FischersFritz" changeset="10358388" lat="46.2481505" lon="8.7063277"/>
  <node id="299566724" version="1" timestamp="2008-09-24T19:54:22Z" uid="43967" user="railsnail" changeset="691906" lat="46.2480793" lon="8.7062676"/>
  <node id="299566724" version="2" timestamp="2012-01-11T08:19:37Z" uid="74900" user="FischersFritz" changeset="10358388" lat="46.2480793" lon="8.7062676"/>
  <node id="299567078" version="1" timestamp="2008-09-24T19:55:47Z" uid="43967" user="railsnail" changeset="691906" lat="46.2510885" lon="8.7081044"/>
  <node id="299567078" version="2" timestamp="2012-01-11T08:19:37Z" uid="74900" user="FischersFritz" changeset="10358388" lat="46.2510885" lon="8.7081044"/>
  <node id="299567173" version="3" timestamp="2009-10-20T23:49:57Z" uid="36809" user="pfoten_weg_!_" changeset="2908189" lat="48.0412743" lon="11.1860587"/>
  <node id="299567275" version="1" timestamp="2008-09-24T19:56:45Z" uid="43967" user="railsnail" changeset="691906" lat="46.2480674" lon="8.7078555"/>
  <node id="299567275" version="2" timestamp="2008-09-24T19:57:44Z" uid="43967" user="railsnail" changeset="691906" lat="46.2480674" lon="8.7078555"/>
  <node id="299567276" version="1" timestamp="2008-09-24T19:56:45Z" uid="43967" user="railsnail" changeset="691906" lat="46.2470346" lon="8.7079928"/>
  <node id="299567276" version="2" timestamp="2012-01-11T08:19:38Z" uid="74900" user="FischersFritz" changeset="10358388" lat="46.2470346" lon="8.7079928"/>
  <node id="299567424" version="1" timestamp="2008-09-24T19:57:44Z" uid="43967" user="railsnail" changeset="691906" lat="46.2480674" lon="8.7078555"/>
  <node id="299567424" version="2" timestamp="2008-09-24T19:57:53Z" uid="43967" user="railsnail" changeset="691906" lat="46.2480674" lon="8.7078555"/>
  <node id="299567432" version="2" timestamp="2009-10-07T16:56:52Z" uid="86259" user="hasse_osm_korinthenkacker" changeset="2773624" lat="51.1530247" lon="15.0314199">
    <tag k="name" v="Castorama"/>
    <tag k="shop" v="doityourself"/>
  </node>
  <node id="299567432" version="3" timestamp="2009-10-08T20:27:59Z" uid="86259" user="hasse_osm_korinthenkacker" changeset="2785814" lat="51.1530247" lon="15.0314199">
    <tag k="name" v="Castorama"/>
    <tag k="shop" v="doityourself"/>
  </node>
  <node id="299567433" version="1" timestamp="2008-09-24T19:57:53Z" uid="43967" user="railsnail" changeset="691906" lat="46.2480674" lon="8.7078555"/>
  <node id="299567433" version="2" timestamp="2008-09-24T19:58:09Z" uid="43967" user="railsnail" changeset="691906" lat="46.2480674" lon="8.7078555"/>
  <node id="299567447" version="3" timestamp="2010-06-27T18:11:09Z" uid="74027" user="katzlbt" changeset="5091648" lat="47.21173" lon="11.4753228"/>
  <node id="299567447" version="4" timestamp="2012-02-24T19:43:15Z" uid="45481" user="borisC" changeset="10781654" lat="47.21173" lon="11.4753228"/>
  <node id="299567465" version="1" timestamp="2008-09-24T19:58:09Z" uid="43967" user="railsnail" changeset="691906" lat="46.2480674" lon="8.7078555"/>
  <node id="299567465" version="2" timestamp="2008-09-24T19:59:32Z" uid="43967" user="railsnail" changeset="691906" lat="46.2480674" lon="8.7078555"/>
  <node id="299567674" version="3" timestamp="2009-09-29T01:29:50Z" uid="36809" user="pfoten_weg_!_" changeset="2672113" lat="48.0470402" lon="11.1974506"/>
  <node id="299567682" version="1" timestamp="2008-09-24T19:59:32Z" uid="43967" user="railsnail" changeset="691906" lat="46.2480674" lon="8.7078555"/>
  <node id="299567682" version="2" timestamp="2009-07-08T16:06:50Z" uid="52921" user="t-i" changeset="1773762" lat="46.2480674" lon="8.7078555"/>
  <node id="299567682" version="3" timestamp="2012-01-11T08:19:38Z" uid="74900" user="FischersFritz" changeset="10358388" lat="46.2480674" lon="8.7078555"/>
  <node id="299567717" version="1" timestamp="2008-09-24T19:59:37Z" uid="36809" user="pfoten_weg_!_" changeset="691601" lat="48.0867073" lon="11.5032693">
    <tag k="amenity" v="wlan"/>
    <tag k="class" v="free"/>
    <tag k="created_by" v="RambaZamba"/>
    <tag k="ref" v="dirk747, FON_OPEN, K1, UT75"/>
    <tag k="source" v="survey"/>
  </node>
  <node id="299567717" version="2" timestamp="2008-10-01T00:58:14Z" uid="36809" user="pfoten_weg_!_" changeset="5644" lat="48.0867073" lon="11.5032693">
    <tag k="amenity" v="wlan"/>
    <tag k="class" v="free"/>
    <tag k="created_by" v="RambaZamba"/>
    <tag k="ref" v="dirk747, FON_OPEN, K1, UT75"/>
    <tag k="source" v="survey"/>
  </node>
  <node id="299567717" version="3" timestamp="2008-10-22T00:43:58Z" uid="36809" user="pfoten_weg_!_" changeset="498765" lat="48.0867073" lon="11.5032693">
    <tag k="amenity" v="wifi"/>
    <tag k="class" v="free"/>
    <tag k="created_by" v="RambaZamba"/>
    <tag k="man_made" v="beacon"/>
    <tag k="ref" v="dirk747, FON_OPEN, K1, UT75"/>
    <tag k="source" v="survey"/>
  </node>
  <node id="299567717" version="4" timestamp="2008-10-23T23:01:54Z" uid="36809" user="pfoten_weg_!_" changeset="544814" lat="48.0867073" lon="11.5032693">
    <tag k="amenity" v="wifi"/>
    <tag k="class" v="free"/>
    <tag k="created_by" v="RambaZamba"/>
    <tag k="man_made" v="beacon"/>
    <tag k="ref" v="dirk747, FON_OPEN, K1, UT80"/>
    <tag k="source" v="survey"/>
  </node>
  <node id="299567717" version="5" timestamp="2008-11-08T13:33:09Z" uid="36809" user="pfoten_weg_!_" changeset="717157" lat="48.0867073" lon="11.5032693">
    <tag k="amenity" v="wifi"/>
    <tag k="class" v="free"/>
    <tag k="created_by" v="RambaZamba"/>
    <tag k="man_made" v="beacon"/>
    <tag k="ref" v="dirk747, FON_OPEN, K1, UT70"/>
    <tag k="source" v="survey"/>
  </node>
  <node id="299567717" version="6" timestamp="2009-05-12T22:36:38Z" uid="36809" user="pfoten_weg_!_" changeset="1170331" lat="48.086698" lon="11.5033359">
    <tag k="amenity" v="wifi"/>
    <tag k="class" v="free"/>
    <tag k="created_by" v="RambaZamba"/>
    <tag k="man_made" v="beacon"/>
    <tag k="name" v="FON_OPEN"/>
    <tag k="ref" v="August-Macke-Weg,K1,UT0,dirk747"/>
    <tag k="source" v="survey"/>
  </node>
  <node id="299567717" version="7" timestamp="2009-05-30T23:37:28Z" uid="36809" user="pfoten_weg_!_" changeset="1364427" lat="48.086698" lon="11.5033359">
    <tag k="amenity" v="wifi"/>
    <tag k="class" v="free"/>
    <tag k="created_by" v="RambaZamba"/>
    <tag k="man_made" v="beacon"/>
    <tag k="name" v="FON_OPEN [OFF]"/>
    <tag k="ref" v="August-Macke-Weg,K1,UT0,dirk747"/>
    <tag k="source" v="survey"/>
  </node>
  <node id="299567717" version="8" timestamp="2009-06-09T09:02:42Z" uid="36809" user="pfoten_weg_!_" changeset="1466414" lat="48.086698" lon="11.5033359">
    <tag k="amenity" v="wifi"/>
    <tag k="class" v="free"/>
    <tag k="created_by" v="RambaZamba"/>
    <tag k="man_made" v="beacon"/>
    <tag k="name" v="FON_OPEN [OFF]"/>
    <tag k="ref" v="August-Macke-Weg,K1,UT0,dirk747"/>
    <tag k="source" v="survey"/>
  </node>
  <node id="299567718" version="1" timestamp="2008-09-24T19:59:38Z" uid="36809" user="pfoten_weg_!_" changeset="691601" lat="48.0840979" lon="11.5157018">
    <tag k="amenity" v="wlan"/>
    <tag k="class" v="free"/>
    <tag k="created_by" v="RambaZamba"/>
    <tag k="ref" v="Bongotrommler, FON_AP, K1, UT70"/>
    <tag k="source" v="survey"/>
  </node>
  <node id="299567718" version="2" timestamp="2008-10-01T00:58:14Z" uid="36809" user="pfoten_weg_!_" changeset="5644" lat="48.0840979" lon="11.5157018">
    <tag k="amenity" v="wlan"/>
    <tag k="class" v="free"/>
    <tag k="created_by" v="RambaZamba"/>
    <tag k="ref" v="Bongotrommler, FON_AP, K1, UT70"/>
    <tag k="source" v="survey"/>
  </node>
  <node id="299567718" version="3" timestamp="2008-10-21T02:08:48Z" uid="36809" user="pfoten_weg_!_" changeset="478725" lat="48.0840979" lon="11.5157018">
    <tag k="amenity" v="wlan"/>
    <tag k="class" v="free"/>
    <tag k="created_by" v="RambaZamba"/>
    <tag k="ref" v="Bongotrommler, FON_AP, K1, UT70"/>
    <tag k="source" v="survey"/>
  </node>
  <node id="299567719" version="1" timestamp="2008-09-24T19:59:38Z" uid="36809" user="pfoten_weg_!_" changeset="691601" lat="48.0847673" lon="11.5146314">
    <tag k="amenity" v="wlan"/>
    <tag k="class" v="free"/>
    <tag k="created_by" v="RambaZamba"/>
    <tag k="ref" v="flomb, FON_AP, K1, UT30"/>
    <tag k="source" v="survey"/>
  </node>
  <node id="299567719" version="2" timestamp="2008-10-01T00:58:14Z" uid="36809" user="pfoten_weg_!_" changeset="5644" lat="48.0847673" lon="11.5146314">
    <tag k="amenity" v="wlan"/>
    <tag k="class" v="free"/>
    <tag k="created_by" v="RambaZamba"/>
    <tag k="ref" v="flomb, FON_AP, K1, UT30"/>
    <tag k="source" v="survey"/>
  </node>
  <node id="299567719" version="3" timestamp="2008-10-22T00:03:34Z" uid="36809" user="pfoten_weg_!_" changeset="498765" lat="48.0847673" lon="11.5146314">
    <tag k="amenity" v="wlan"/>
    <tag k="class" v="free"/>
    <tag k="created_by" v="RambaZamba"/>
    <tag k="ref" v="flomb, FON_AP, K1, UT30"/>
    <tag k="source" v="survey"/>
  </node>
  <node id="299567722" version="1" timestamp="2008-09-24T19:59:39Z" uid="43967" user="railsnail" changeset="691906" lat="46.2469644" lon="8.7079272"/>
  <node id="299567722" version="2" timestamp="2012-01-11T08:19:38Z" uid="74900" user="FischersFritz" changeset="10358388" lat="46.2469644" lon="8.7079272"/>
  <node id="299569069" version="1" timestamp="2008-09-24T20:04:17Z" uid="49111" user="Markus B" changeset="692091" lat="49.6674497" lon="11.369938">
    <tag k="boundary" v="administrative"/>
    <tag k="lat" v="49,66772222"/>
    <tag k="lon" v="11,36994444"/>
    <tag k="name" v="Dreiländereck FO-BY-N&apos;Land"/>
    <tag k="source" v="Vermessungsamt"/>
  </node>
  <node id="299569069" version="2" timestamp="2009-08-15T19:42:12Z" uid="87723" user="Shiega" changeset="2157819" lat="49.6674497" lon="11.369938">
    <tag k="boundary" v="administrative"/>
    <tag k="lat" v="49,66772222"/>
    <tag k="lon" v="11,36994444"/>
    <tag k="name" v="Dreiländereck FO-BY-N&apos;Land"/>
    <tag k="source" v="Vermessungsamt"/>
  </node>
  <node id="299569070" version="1" timestamp="2008-09-24T20:04:17Z" uid="49111" user="Markus B" changeset="692091" lat="49.6343871" lon="11.3102404">
    <tag k="boundary" v="administrative"/>
    <tag k="lat" v="49,63444444"/>
    <tag k="lon" v="11,31016667"/>
    <tag k="name" v="Dreiländereck Hilpoltstein-Gräfenberg-Simmelsdorf"/>
    <tag k="source" v="Vermessungsamt"/>
  </node>
  <node id="299569072" version="1" timestamp="2008-09-24T20:04:18Z" uid="49111" user="Markus B" changeset="692091" lat="49.6282471" lon="11.2994948">
    <tag k="boundary" v="administrative"/>
    <tag k="lat" v="49,62836111"/>
    <tag k="lon" v="11,29966667"/>
    <tag k="name" v="Dreiländereck Gräfenberg-Weissenohe-Simmelsdorf"/>
    <tag k="source" v="Vermessungsamt"/>
  </node>
  <node id="299569073" version="1" timestamp="2008-09-24T20:04:18Z" uid="49111" user="Markus B" changeset="692091" lat="49.6171518" lon="11.2974771">
    <tag k="boundary" v="administrative"/>
    <tag k="lat" v="49,617194444"/>
    <tag k="lon" v="11,29377778"/>
    <tag k="name" v="Dreiländereck Weissenohe-Schnaittach-Simmelsdorf"/>
    <tag k="source" v="Vermessungsamt"/>
  </node>
  <node id="299569073" version="2" timestamp="2008-10-01T19:44:24Z" uid="49111" user="Markus B" changeset="11701" lat="49.6171888" lon="11.2937969">
    <tag k="boundary" v="administrative"/>
    <tag k="lat" v="49,617194444"/>
    <tag k="lon" v="11,29377778"/>
    <tag k="name" v="Dreiländereck Weissenohe-Schnaittach-Simmelsdorf"/>
    <tag k="source" v="Vermessungsamt"/>
  </node>
  <node id="299569075" version="1" timestamp="2008-09-24T20:04:18Z" uid="49111" user="Markus B" changeset="692091" lat="49.6335881" lon="11.3933387">
    <tag k="boundary" v="administrative"/>
    <tag k="lat" v="49,63363889"/>
    <tag k="lon" v="11,39336111"/>
    <tag k="name" v="Dreiländereck Betzenstein-Schnaittach-Simmelsdorf"/>
    <tag k="source" v="Vermessungsamt"/>
  </node>
  <node id="299569201" version="1" timestamp="2008-09-24T20:04:52Z" uid="36809" user="pfoten_weg_!_" changeset="691601" lat="48.082734" lon="11.5042183">
    <tag k="created_by" v="RambaZamba"/>
    <tag k="source" v="survey"/>
  </node>
  <node id="299569201" version="2" timestamp="2008-10-01T01:09:47Z" uid="36809" user="pfoten_weg_!_" changeset="5644" lat="48.082734" lon="11.5042183">
    <tag k="created_by" v="RambaZamba"/>
    <tag k="source" v="survey"/>
  </node>
  <node id="299569201" version="3" timestamp="2008-11-24T15:52:27Z" uid="36809" user="pfoten_weg_!_" changeset="787663" lat="48.082734" lon="11.5042183">
    <tag k="created_by" v="RambaZamba"/>
    <tag k="source" v="survey"/>
  </node>
  <node id="299569202" version="1" timestamp="2008-09-24T20:04:52Z" uid="36809" user="pfoten_weg_!_" changeset="691601" lat="48.0829928" lon="11.5042135">
    <tag k="created_by" v="RambaZamba"/>
    <tag k="source" v="survey"/>
  </node>
  <node id="299569202" version="2" timestamp="2008-10-01T01:09:47Z" uid="36809" user="pfoten_weg_!_" changeset="5644" lat="48.0829928" lon="11.5042135">
    <tag k="created_by" v="RambaZamba"/>
    <tag k="source" v="survey"/>
  </node>
  <node id="299569202" version="3" timestamp="2008-11-24T15:52:27Z" uid="36809" user="pfoten_weg_!_" changeset="787663" lat="48.0829928" lon="11.5042135">
    <tag k="created_by" v="RambaZamba"/>
    <tag k="source" v="survey"/>
  </node>
  <node id="299569203" version="1" timestamp="2008-09-24T20:04:52Z" uid="36809" user="pfoten_weg_!_" changeset="691601" lat="48.0829863" lon="11.5038406">
    <tag k="created_by" v="RambaZamba"/>
    <tag k="source" v="survey"/>
  </node>
  <node id="299569203" version="2" timestamp="2008-10-01T01:09:47Z" uid="36809" user="pfoten_weg_!_" changeset="5644" lat="48.0829863" lon="11.5038406">
    <tag k="created_by" v="RambaZamba"/>
    <tag k="source" v="survey"/>
  </node>
  <node id="299569203" version="3" timestamp="2008-11-24T15:52:27Z" uid="36809" user="pfoten_weg_!_" changeset="787663" lat="48.0829863" lon="11.5038406">
    <tag k="created_by" v="RambaZamba"/>
    <tag k="source" v="survey"/>
  </node>
  <node id="299569204" version="1" timestamp="2008-09-24T20:04:52Z" uid="36809" user="pfoten_weg_!_" changeset="691601" lat="48.0827283" lon="11.5038492">
    <tag k="created_by" v="RambaZamba"/>
    <tag k="source" v="survey"/>
  </node>
  <node id="299569204" version="2" timestamp="2008-10-01T01:09:46Z" uid="36809" user="pfoten_weg_!_" changeset="5644" lat="48.0827283" lon="11.5038492">
    <tag k="created_by" v="RambaZamba"/>
    <tag k="source" v="survey"/>
  </node>
  <node id="299569204" version="3" timestamp="2008-11-24T15:52:27Z" uid="36809" user="pfoten_weg_!_" changeset="787663" lat="48.0827283" lon="11.5038492">
    <tag k="created_by" v="RambaZamba"/>
    <tag k="source" v="survey"/>
  </node>
  <node id="299569638" version="1" timestamp="2008-09-24T20:06:15Z" uid="36809" user="pfoten_weg_!_" changeset="691601" lat="48.0873726" lon="11.496136">
    <tag k="addr:bic" v="SSKMDEMMXXX"/>
    <tag k="amenity" v="atm"/>
    <tag k="created_by" v="RambaZamba"/>
    <tag k="name" v="Stadtsparkasse München"/>
  </node>
  <node id="299569638" version="2" timestamp="2008-10-01T01:10:25Z" uid="36809" user="pfoten_weg_!_" changeset="5644" lat="48.0873726" lon="11.496136">
    <tag k="addr:bic" v="SSKMDEMMXXX"/>
    <tag k="amenity" v="atm"/>
    <tag k="created_by" v="RambaZamba"/>
    <tag k="name" v="Stadtsparkasse München"/>
  </node>
  <node id="299569638" version="3" timestamp="2008-11-20T17:10:04Z" uid="70696" user="xybot" changeset="774433" lat="48.0873726" lon="11.496136">
    <tag k="amenity" v="atm"/>
    <tag k="bic" v="SSKMDEMMXXX"/>
    <tag k="created_by" v="xybot"/>
    <tag k="name" v="Stadtsparkasse München"/>
  </node>
  <node id="299569638" version="4" timestamp="2009-03-30T19:06:09Z" uid="36809" user="pfoten_weg_!_" changeset="871597" lat="48.0873726" lon="11.496136">
    <tag k="amenity" v="atm"/>
    <tag k="bic" v="SSKMDEMMXXX"/>
    <tag k="created_by" v="xybot"/>
    <tag k="name" v="Stadtsparkasse München"/>
  </node>
  <node id="299569638" version="5" timestamp="2009-03-31T09:02:21Z" uid="5164" user="woodpeck" changeset="871977" lat="48.0873726" lon="11.496136">
    <tag k="amenity" v="atm"/>
    <tag k="bic" v="SSKMDEMMXXX"/>
    <tag k="created_by" v="xybot"/>
    <tag k="name" v="Stadtsparkasse München"/>
  </node>
  <node id="299569638" version="6" timestamp="2009-04-01T22:41:16Z" uid="36809" user="pfoten_weg_!_" changeset="41839" lat="48.0873726" lon="11.496136">
    <tag k="amenity" v="atm"/>
    <tag k="bic" v="SSKMDEMMXXX"/>
    <tag k="created_by" v="xybot"/>
    <tag k="name" v="Stadtsparkasse München"/>
  </node>
  <node id="299569638" version="7" timestamp="2009-04-02T17:22:39Z" uid="5164" user="woodpeck" changeset="94633" lat="48.0873726" lon="11.496136">
    <tag k="amenity" v="atm"/>
    <tag k="bic" v="SSKMDEMMXXX"/>
    <tag k="created_by" v="xybot"/>
    <tag k="name" v="Stadtsparkasse München"/>
  </node>
  <node id="299569638" version="8" timestamp="2009-04-13T09:12:41Z" uid="7596" user="ck3d" changeset="467821" lat="48.0873726" lon="11.496136">
    <tag k="amenity" v="atm"/>
    <tag k="bic" v="SSKMDEMMXXX"/>
    <tag k="created_by" v="xybot"/>
    <tag k="name" v="Stadtsparkasse München"/>
  </node>
  <node id="299569638" version="9" timestamp="2009-04-22T18:14:38Z" uid="36809" user="pfoten_weg_!_" changeset="903669" lat="48.0873726" lon="11.496136">
    <tag k="amenity" v="atm"/>
    <tag k="bic" v="SSKMDEMMXXX"/>
    <tag k="created_by" v="RambaZamba"/>
    <tag k="name" v="Stadtsparkasse München"/>
    <tag k="source" v="survey"/>
  </node>
  <node id="299569638" version="10" timestamp="2009-08-12T13:30:28Z" uid="156995" user="HampelZamba" changeset="2118817" lat="48.0873726" lon="11.496136">
    <tag k="amenity" v="atm"/>
    <tag k="bic" v="SSKMDEMMXXX"/>
    <tag k="name" v="Stadtsparkasse München"/>
    <tag k="source" v="survey"/>
  </node>
  <node id="299569638" version="11" timestamp="2009-08-26T09:19:04Z" uid="36809" user="pfoten_weg_!_" changeset="2265170" lat="48.0873726" lon="11.496136">
    <tag k="amenity" v="atm"/>
    <tag k="bic" v="SSKMDEMMXXX"/>
    <tag k="name" v="Stadtsparkasse München"/>
    <tag k="source" v="survey"/>
  </node>
  <node id="299569638" version="12" timestamp="2009-10-13T22:55:37Z" uid="36809" user="pfoten_weg_!_" changeset="2841175" lat="48.0873726" lon="11.496136">
    <tag k="amenity" v="atm"/>
    <tag k="bic" v="SSKMDEMMXXX"/>
    <tag k="name" v="Stadtsparkasse München"/>
  </node>
  <node id="299569638" version="13" timestamp="2011-05-01T13:23:42Z" uid="37850" user="mawis" changeset="8021174" lat="48.0874104" lon="11.4961769">
    <tag k="amenity" v="atm"/>
    <tag k="bic" v="SSKMDEMMXXX"/>
    <tag k="name" v="Stadtsparkasse München"/>
  </node>
  <node id="299562997" version="8" timestamp="2012-07-19T15:41:08Z" uid="722137" user="OSMF Redaction Account" changeset="12335916" lat="48.892947" lon="8.7006667"/>
  <node id="299566050" version="4" timestamp="2012-07-17T08:31:56Z" uid="722137" user="OSMF Redaction Account" changeset="12260505" lat="51.7925433" lon="11.1415604">
    <tag k="barrier" v="bollard"/>
  </node>
  <node id="299566058" version="5" timestamp="2012-06-12T16:32:05Z" uid="179581" user="Geofreund1" changeset="11876005" lat="51.7902561" lon="11.1415608">
    <tag k="amenity" v="school"/>
    <tag k="name" v="Marktgrundschule"/>
    <tag k="school" v="primary"/>
    <tag k="wheelchair" v="no"/>
  </node>
  <node id="299566058" version="6" timestamp="2012-06-12T16:32:58Z" uid="179581" user="Geofreund1" changeset="11876005" lat="51.7902561" lon="11.1415608"/>
  <node id="299566063" version="6" timestamp="2012-06-12T16:32:06Z" uid="179581" user="Geofreund1" changeset="11876005" lat="51.7895268" lon="11.1413045">
    <tag k="amenity" v="bank"/>
    <tag k="atm" v="yes"/>
    <tag k="name" v="Sparkasse"/>
    <tag k="operator" v="Harzsparkasse"/>
    <tag k="wheelchair" v="limited"/>
  </node>
  <node id="299566063" version="7" timestamp="2012-06-13T19:40:15Z" uid="179581" user="Geofreund1" changeset="11887855" lat="51.7895268" lon="11.1413045"/>
  <node id="299566084" version="4" timestamp="2012-06-12T07:37:25Z" uid="179581" user="Geofreund1" changeset="11871697" lat="51.7932022" lon="11.1432391">
    <tag k="amenity" v="place_of_worship"/>
    <tag k="denomination" v="protestant"/>
    <tag k="name" v="St. Aegidii"/>
    <tag k="religion" v="christian"/>
  </node>
  <node id="299566084" version="5" timestamp="2012-07-17T08:31:58Z" uid="722137" user="OSMF Redaction Account" changeset="12260505" lat="51.7932022" lon="11.1432391">
    <tag k="amenity" v="place_of_worship"/>
    <tag k="denomination" v="protestant"/>
    <tag k="name" v="St. Aegidii"/>
  </node>
  <node id="299569638" version="14" timestamp="2012-05-05T16:57:50Z" uid="8703" user="rolandg" changeset="11509984" lat="48.0874104" lon="11.4961769"/>
</osm>
