<?xml version='1.0' encoding='UTF-8'?>
<osm version="0.6" generator="libosmium/2.20.0">
  <node id="299632889" version="1" timestamp="2008-09-25T03:55:13Z" uid="4467" user="Rosscoe" changeset="695514" lat="-20.4921288" lon="148.5567441">
    <tag k="aeroway" v="aerodrome"/>
    <tag k="created_by" v="Potlatch 0.10b"/>
    <tag k="is_in" v="Queensland;Australia"/>
    <tag k="name" v="Proserpine"/>
  </node>
  <node id="299632889" version="2" timestamp="2008-09-25T04:56:40Z" uid="4467" user="Rosscoe" changeset="695514" lat="-20.4921288" lon="148.5567441">
    <tag k="aeroway" v="aerodrome"/>
    <tag k="created_by" v="Potlatch 0.10b"/>
    <tag k="is_in" v="Queensland;Australia"/>
    <tag k="name" v="Proserpine/ Whitsunday Coast"/>
  </node>
  <node id="299633067" version="1" timestamp="2008-09-25T03:57:36Z" uid="4467" user="Rosscoe" changeset="695514" lat="-20.0180113" lon="148.2108465">
    <tag k="aeroway" v="aerodrome"/>
    <tag k="created_by" v="Potlatch 0.10b"/>
    <tag k="name" v="Bowen"/>
  </node>
  <node id="299633334" version="1" timestamp="2008-09-25T03:59:26Z" uid="4467" user="Rosscoe" changeset="695514" lat="-21.1570177" lon="148.8647046">
    <tag k="created_by" v="Potlatch 0.10b"/>
    <tag k="is_in" v="Queensland, Australia"/>
    <tag k="name" v="Mirani"/>
    <tag k="place" v="village"/>
  </node>
  <node id="299633334" version="2" timestamp="2011-11-15T23:09:46Z" uid="35673" user="gzin" changeset="9840107" lat="-21.1570177" lon="148.8647046">
    <tag k="is_in" v="Queensland, Australia"/>
    <tag k="name" v="Mirani"/>
    <tag k="place" v="village"/>
  </node>
  <node id="299633334" version="3" timestamp="2012-03-19T01:01:10Z" uid="603720" user="Andergrove1" changeset="11025685" lat="-21.1573046" lon="148.8646688">
    <tag k="is_in" v="Queensland, Australia"/>
    <tag k="name" v="Mirani"/>
    <tag k="place" v="village"/>
  </node>
  <node id="299636870" version="1" timestamp="2008-09-25T04:45:06Z" uid="4467" user="Rosscoe" changeset="695514" lat="-21.1739062" lon="149.1813341">
    <tag k="aeroway" v="aerodrome"/>
    <tag k="created_by" v="Potlatch 0.10b"/>
    <tag k="is_in" v="Queensland, Australia"/>
    <tag k="name" v="Mackay"/>
  </node>
  <node id="299636870" version="2" timestamp="2009-05-28T06:15:44Z" uid="28145" user="amillar" changeset="1339825" lat="-21.1718757" lon="149.1825439">
    <tag k="aeroway" v="aerodrome"/>
    <tag k="closest_town" v="Mackay, Queensland"/>
    <tag k="created_by" v="Potlatch 0.10b"/>
    <tag k="ele" v="6"/>
    <tag k="iata" v="MKY"/>
    <tag k="icao" v="YBMK"/>
    <tag k="is_in" v="Queensland, Australia"/>
    <tag k="name" v="Mackay Airport"/>
    <tag k="name:en" v="Mackay Airport"/>
    <tag k="name_1" v="Mackay"/>
    <tag k="operator" v="Mackay Port Authority"/>
    <tag k="source" v="wikipedia"/>
    <tag k="type" v="Public"/>
    <tag k="wikipedia:en" v="Mackay_Airport"/>
  </node>
  <node id="299636870" version="3" timestamp="2009-06-04T01:46:47Z" uid="4467" user="Rosscoe" changeset="1418005" lat="-21.1718717" lon="149.1825412">
    <tag k="aeroway" v="aerodrome"/>
    <tag k="closest_town" v="Mackay, Queensland"/>
    <tag k="created_by" v="Potlatch 0.10b"/>
    <tag k="ele" v="6"/>
    <tag k="iata" v="MKY"/>
    <tag k="icao" v="YBMK"/>
    <tag k="is_in" v="Queensland, Australia"/>
    <tag k="name" v="Mackay Airport"/>
    <tag k="name:en" v="Mackay Airport"/>
    <tag k="operator" v="Mackay Port Authority"/>
    <tag k="source" v="wikipedia"/>
    <tag k="type" v="Public"/>
    <tag k="wikipedia:en" v="Mackay_Airport"/>
  </node>
  <node id="299636870" version="4" timestamp="2009-06-18T08:43:47Z" uid="4467" user="Rosscoe" changeset="1552644" lat="-21.1718667" lon="149.1825337">
    <tag k="aeroway" v="aerodrome"/>
    <tag k="closest_town" v="Mackay, Queensland"/>
    <tag k="created_by" v="Potlatch 0.10b"/>
    <tag k="ele" v="6"/>
    <tag k="iata" v="MKY"/>
    <tag k="icao" v="YBMK"/>
    <tag k="is_in" v="Queensland, Australia"/>
    <tag k="name" v="Mackay Airport"/>
    <tag k="name:en" v="Mackay Airport"/>
    <tag k="operator" v="Mackay Port Authority"/>
    <tag k="source" v="wikipedia"/>
    <tag k="type" v="public"/>
    <tag k="wikipedia:en" v="Mackay_Airport"/>
  </node>
  <node id="299636870" version="5" timestamp="2010-07-31T16:11:03Z" uid="74617" user="JohnSmith" changeset="5363280" lat="-21.1718667" lon="149.1825337">
    <tag k="aeroway" v="aerodrome"/>
    <tag k="closest_town" v="Mackay, Queensland"/>
    <tag k="created_by" v="Potlatch 0.10b"/>
    <tag k="ele" v="6"/>
    <tag k="iata" v="MKY"/>
    <tag k="icao" v="YBMK"/>
    <tag k="is_in" v="Queensland, Australia"/>
    <tag k="name" v="Mackay Airport"/>
    <tag k="name:en" v="Mackay Airport"/>
    <tag k="operator" v="Mackay Port Authority"/>
    <tag k="source" v="wikipedia"/>
    <tag k="type" v="public"/>
    <tag k="wikipedia:en" v="Mackay_Airport"/>
  </node>
  <node id="299637642" version="2" timestamp="2010-06-29T19:00:31Z" uid="74617" user="JohnSmith" changeset="5108182" lat="51.077309" lon="-114.1146655">
    <tag k="fixme" v="sport=football is ambiguous, see http://wiki.osm.org/wiki/Football for more details"/>
    <tag k="sport" v="football"/>
  </node>
  <node id="299638434" version="1" timestamp="2008-09-25T04:59:11Z" uid="4467" user="Rosscoe" changeset="695514" lat="-20.276105" lon="148.7563005">
    <tag k="aeroway" v="aerodrome"/>
    <tag k="created_by" v="Potlatch 0.10b"/>
    <tag k="name" v="Whitsunday Airport"/>
  </node>
  <node id="299638434" version="2" timestamp="2009-08-12T01:10:07Z" uid="4467" user="Rosscoe" changeset="2114087" lat="-20.275802" lon="148.755231">
    <tag k="aeroway" v="aerodrome"/>
    <tag k="name" v="Whitsunday Airport"/>
  </node>
  <node id="299632889" version="3" timestamp="2012-07-19T20:28:30Z" uid="722137" user="OSMF Redaction Account" changeset="12346279" lat="-20.4921288" lon="148.5567441"/>
  <node id="299633067" version="2" timestamp="2012-07-19T21:20:00Z" uid="722137" user="OSMF Redaction Account" changeset="12347875" lat="-20.0180113" lon="148.2108465"/>
  <node id="299633334" version="4" timestamp="2012-07-12T12:43:34Z" uid="603720" user="Mackay Mapper" changeset="12195545" lat="-21.1573046" lon="148.8646688"/>
  <node id="299637642" version="3" timestamp="2012-07-19T01:00:26Z" uid="722137" user="OSMF Redaction Account" changeset="12303017" lat="51.077309" lon="-114.1146655">
    <tag k="sport" v="football"/>
  </node>
  <node id="299638434" version="3" timestamp="2012-07-19T19:24:05Z" uid="722137" user="OSMF Redaction Account" changeset="12344854" lat="-20.275802" lon="148.755231"/>
</osm>
