<?xml version='1.0' encoding='UTF-8'?>
<osm version="0.6" generator="libosmium/2.20.0">
  <node id="300610196" version="1" timestamp="2008-09-28T16:02:12Z" uid="33382" user="de_muur" changeset="712467" lat="53.0591471" lon="9.0172254">
    <tag k="created_by" v="JOSM"/>
  </node>
  <node id="300610196" version="2" timestamp="2010-12-15T19:14:14Z" uid="115883" user="Senior_Spielbergo" changeset="6670544" lat="53.0591452" lon="9.017216"/>
  <node id="300610197" version="1" timestamp="2008-09-28T16:02:12Z" uid="33382" user="de_muur" changeset="712467" lat="53.0598102" lon="9.0172734">
    <tag k="created_by" v="JOSM"/>
  </node>
  <node id="300610197" version="2" timestamp="2010-12-10T07:59:04Z" uid="115883" user="Senior_Spielbergo" changeset="6602711" lat="53.0597959" lon="9.0171967"/>
  <node id="300610197" version="3" timestamp="2010-12-15T19:14:11Z" uid="115883" user="Senior_Spielbergo" changeset="6670544" lat="53.0597959" lon="9.0171655"/>
  <node id="300610198" version="1" timestamp="2008-09-28T16:02:12Z" uid="33382" user="de_muur" changeset="712467" lat="53.0612616" lon="9.016391">
    <tag k="created_by" v="JOSM"/>
  </node>
  <node id="300610198" version="2" timestamp="2008-09-30T15:08:08Z" uid="33382" user="de_muur" changeset="722759" lat="53.0612616" lon="9.0164379">
    <tag k="created_by" v="JOSM"/>
  </node>
  <node id="300610198" version="3" timestamp="2009-03-22T17:51:47Z" uid="68030" user="Kowa" changeset="845795" lat="53.0612616" lon="9.0164379"/>
  <node id="300610198" version="4" timestamp="2010-12-23T15:32:11Z" uid="115883" user="Senior_Spielbergo" changeset="6746382" lat="53.0612091" lon="9.0163677"/>
  <node id="300610198" version="5" timestamp="2010-12-26T10:01:46Z" uid="115883" user="Senior_Spielbergo" changeset="6766452" lat="53.0611969" lon="9.0163677"/>
  <node id="300610199" version="1" timestamp="2008-09-28T16:02:12Z" uid="33382" user="de_muur" changeset="712467" lat="53.0605049" lon="9.0166288">
    <tag k="created_by" v="JOSM"/>
  </node>
  <node id="300610199" version="2" timestamp="2009-03-22T17:51:47Z" uid="68030" user="Kowa" changeset="845795" lat="53.0605049" lon="9.0166288"/>
  <node id="300610199" version="3" timestamp="2010-12-23T15:32:08Z" uid="115883" user="Senior_Spielbergo" changeset="6746382" lat="53.0605031" lon="9.0165572"/>
  <node id="300610200" version="1" timestamp="2008-09-28T16:02:12Z" uid="33382" user="de_muur" changeset="712467" lat="53.0600869" lon="9.0167225">
    <tag k="created_by" v="JOSM"/>
  </node>
  <node id="300610200" version="2" timestamp="2009-03-22T17:51:47Z" uid="68030" user="Kowa" changeset="845795" lat="53.0600869" lon="9.0167225"/>
  <node id="300610200" version="3" timestamp="2010-12-10T07:59:04Z" uid="115883" user="Senior_Spielbergo" changeset="6602711" lat="53.0600805" lon="9.0166987"/>
  <node id="300610200" version="4" timestamp="2010-12-23T15:32:07Z" uid="115883" user="Senior_Spielbergo" changeset="6746382" lat="53.0600787" lon="9.0166748"/>
  <node id="300610201" version="1" timestamp="2008-09-28T16:02:13Z" uid="33382" user="de_muur" changeset="712467" lat="53.0599067" lon="9.0168811">
    <tag k="created_by" v="JOSM"/>
  </node>
  <node id="300610201" version="2" timestamp="2010-12-10T07:59:06Z" uid="115883" user="Senior_Spielbergo" changeset="6602711" lat="53.0598892" lon="9.0168256"/>
  <node id="300610202" version="1" timestamp="2008-09-28T16:02:13Z" uid="33382" user="de_muur" changeset="712467" lat="53.0598346" lon="9.0170684">
    <tag k="created_by" v="JOSM"/>
  </node>
  <node id="300610202" version="2" timestamp="2010-01-21T13:41:09Z" uid="115883" user="Senior_Spielbergo" changeset="3674697" lat="53.0598346" lon="9.0170684">
    <tag k="postal_code" v="28876"/>
  </node>
  <node id="300610202" version="3" timestamp="2010-12-10T07:59:03Z" uid="115883" user="Senior_Spielbergo" changeset="6602711" lat="53.0598092" lon="9.016997">
    <tag k="postal_code" v="28876"/>
  </node>
  <node id="300610202" version="4" timestamp="2010-12-26T10:01:37Z" uid="115883" user="Senior_Spielbergo" changeset="6766452" lat="53.0598092" lon="9.016997"/>
  <node id="300610203" version="1" timestamp="2008-09-28T16:02:13Z" uid="33382" user="de_muur" changeset="712467" lat="53.0598707" lon="9.0175873">
    <tag k="created_by" v="JOSM"/>
  </node>
  <node id="300610203" version="2" timestamp="2010-12-10T07:59:06Z" uid="115883" user="Senior_Spielbergo" changeset="6602711" lat="53.0598564" lon="9.0175767"/>
  <node id="300610204" version="1" timestamp="2008-09-28T16:02:13Z" uid="33382" user="de_muur" changeset="712467" lat="53.0601517" lon="9.0179405">
    <tag k="created_by" v="JOSM"/>
  </node>
  <node id="300610204" version="2" timestamp="2010-12-10T07:59:02Z" uid="115883" user="Senior_Spielbergo" changeset="6602711" lat="53.0601455" lon="9.0179637"/>
  <node id="300610205" version="1" timestamp="2008-09-28T16:02:13Z" uid="33382" user="de_muur" changeset="712467" lat="53.060404" lon="9.018272">
    <tag k="created_by" v="JOSM"/>
  </node>
  <node id="300610205" version="2" timestamp="2010-12-10T07:59:05Z" uid="115883" user="Senior_Spielbergo" changeset="6602711" lat="53.0603978" lon="9.0182849"/>
  <node id="300610206" version="1" timestamp="2008-09-28T16:02:13Z" uid="33382" user="de_muur" changeset="712467" lat="53.0606851" lon="9.0187693">
    <tag k="created_by" v="JOSM"/>
  </node>
  <node id="300610206" version="2" timestamp="2008-11-02T19:02:40Z" uid="33382" user="de_muur" changeset="660029" lat="53.0606402" lon="9.0186496">
    <tag k="created_by" v="JOSM"/>
  </node>
  <node id="300610206" version="3" timestamp="2010-01-21T13:28:10Z" uid="115883" user="Senior_Spielbergo" changeset="3674580" lat="53.0606402" lon="9.0186496">
    <tag k="postal_code" v="28876"/>
  </node>
  <node id="300610206" version="4" timestamp="2010-12-10T07:59:06Z" uid="115883" user="Senior_Spielbergo" changeset="6602711" lat="53.0606309" lon="9.0186651">
    <tag k="postal_code" v="28876"/>
  </node>
  <node id="300610206" version="5" timestamp="2010-12-15T19:24:40Z" uid="115883" user="Senior_Spielbergo" changeset="6670651" lat="53.0606309" lon="9.0186651"/>
  <node id="300610207" version="1" timestamp="2008-09-28T16:02:14Z" uid="33382" user="de_muur" changeset="712467" lat="53.0608364" lon="9.0192161">
    <tag k="created_by" v="JOSM"/>
  </node>
  <node id="300610207" version="2" timestamp="2010-12-10T07:59:04Z" uid="115883" user="Senior_Spielbergo" changeset="6602711" lat="53.0608084" lon="9.019224"/>
  <node id="300610208" version="1" timestamp="2008-09-28T16:02:14Z" uid="33382" user="de_muur" changeset="712467" lat="53.0608292" lon="9.0196341">
    <tag k="created_by" v="JOSM"/>
  </node>
  <node id="300610208" version="2" timestamp="2010-12-10T07:59:03Z" uid="115883" user="Senior_Spielbergo" changeset="6602711" lat="53.0608244" lon="9.0196156"/>
  <node id="300610209" version="1" timestamp="2008-09-28T16:02:14Z" uid="33382" user="de_muur" changeset="712467" lat="53.0608292" lon="9.0204197">
    <tag k="created_by" v="JOSM"/>
  </node>
  <node id="300610209" version="2" timestamp="2010-12-10T07:59:06Z" uid="115883" user="Senior_Spielbergo" changeset="6602711" lat="53.0608171" lon="9.0204222"/>
  <node id="300610210" version="1" timestamp="2008-09-28T16:02:14Z" uid="33382" user="de_muur" changeset="712467" lat="53.0608076" lon="9.0212845">
    <tag k="created_by" v="JOSM"/>
  </node>
  <node id="300610211" version="1" timestamp="2008-09-28T16:02:15Z" uid="33382" user="de_muur" changeset="712467" lat="53.0608292" lon="9.0217674">
    <tag k="created_by" v="JOSM"/>
  </node>
  <node id="300610211" version="2" timestamp="2010-12-10T07:59:05Z" uid="115883" user="Senior_Spielbergo" changeset="6602711" lat="53.0608064" lon="9.0217649"/>
  <node id="300610212" version="1" timestamp="2008-09-28T16:02:15Z" uid="33382" user="de_muur" changeset="712467" lat="53.0608292" lon="9.0221926">
    <tag k="created_by" v="JOSM"/>
  </node>
  <node id="300610213" version="1" timestamp="2008-09-28T16:02:15Z" uid="33382" user="de_muur" changeset="712467" lat="53.0609229" lon="9.0224953">
    <tag k="created_by" v="JOSM"/>
  </node>
  <node id="300610213" version="2" timestamp="2010-12-26T10:45:05Z" uid="115883" user="Senior_Spielbergo" changeset="6766826" lat="53.0608981" lon="9.0224874"/>
  <node id="300610214" version="1" timestamp="2008-09-28T16:02:15Z" uid="33382" user="de_muur" changeset="712467" lat="53.0606983" lon="9.0219129">
    <tag k="amenity" v="fuel"/>
    <tag k="created_by" v="JOSM"/>
    <tag k="name" v="Esso"/>
  </node>
  <node id="300610214" version="2" timestamp="2010-01-22T09:44:18Z" uid="115883" user="Senior_Spielbergo" changeset="3681444" lat="53.0606983" lon="9.0219129">
    <tag k="addr:housenumber" v="54"/>
    <tag k="amenity" v="fuel"/>
    <tag k="name" v="Höper"/>
    <tag k="opening_hours" v="Mo-Fr 6:00-23:00; Sa 7:00-23:00; So 8:00-23:00"/>
    <tag k="operator" v="Esso"/>
    <tag k="phone" v="+49-4207-91230"/>
    <tag k="website" v="http://www.hoeper-oyten.de/"/>
  </node>
  <node id="300610214" version="3" timestamp="2010-01-22T13:30:30Z" uid="115883" user="Senior_Spielbergo" changeset="3683124" lat="53.0606983" lon="9.0219129">
    <tag k="addr:housenumber" v="54"/>
    <tag k="amenity" v="fuel"/>
    <tag k="name" v="Höper"/>
    <tag k="opening_hours" v="Mo-Fr 6:00-23:00; Sa 7:00-23:00; Su 8:00-23:00"/>
    <tag k="operator" v="Esso"/>
    <tag k="phone" v="+49-4207-91230"/>
    <tag k="website" v="http://www.hoeper-oyten.de/"/>
  </node>
  <node id="300610214" version="4" timestamp="2010-01-23T14:48:42Z" uid="115883" user="Senior_Spielbergo" changeset="3692328" lat="53.0606983" lon="9.0219129">
    <tag k="addr:housenumber" v="54"/>
    <tag k="amenity" v="fuel"/>
    <tag k="name" v="Höper"/>
    <tag k="opening_hours" v="Mo-Fr 6:00-23:00; Sa 7:00-23:00; Su 8:00-23:00"/>
    <tag k="operator" v="Esso"/>
    <tag k="phone" v="+49-4207-91230"/>
    <tag k="website" v="http://www.hoeper-oyten.de/esso/wir.html"/>
  </node>
  <node id="300610214" version="5" timestamp="2010-01-25T09:58:54Z" uid="115883" user="Senior_Spielbergo" changeset="3709297" lat="53.0606983" lon="9.0219129">
    <tag k="addr:city" v="Oyten"/>
    <tag k="addr:country" v="DE"/>
    <tag k="addr:housenumber" v="54"/>
    <tag k="addr:phone" v="+49-4207-91230"/>
    <tag k="addr:postcode" v="28876"/>
    <tag k="addr:street" v="Hauptstraße"/>
    <tag k="amenity" v="fuel"/>
    <tag k="name" v="Höper"/>
    <tag k="opening_hours" v="Mo-Fr 6:00-23:00; Sa 7:00-23:00; Su 8:00-23:00"/>
    <tag k="operator" v="Esso"/>
    <tag k="website" v="http://www.hoeper-oyten.de/esso/wir.html"/>
  </node>
  <node id="300610214" version="6" timestamp="2010-01-26T16:29:11Z" uid="115883" user="Senior_Spielbergo" changeset="3720904" lat="53.0606922" lon="9.0218454">
    <tag k="addr:city" v="Oyten"/>
    <tag k="addr:country" v="DE"/>
    <tag k="addr:housenumber" v="54"/>
    <tag k="addr:phone" v="+49-4207-91230"/>
    <tag k="addr:postcode" v="28876"/>
    <tag k="addr:street" v="Hauptstraße"/>
    <tag k="amenity" v="fuel"/>
    <tag k="name" v="Höper"/>
    <tag k="opening_hours" v="Mo-Fr 6:00-23:00; Sa 7:00-23:00; Su 8:00-23:00"/>
    <tag k="operator" v="Esso"/>
    <tag k="website" v="http://www.hoeper-oyten.de/esso/wir.html"/>
  </node>
  <node id="300610214" version="7" timestamp="2010-01-27T12:59:05Z" uid="115883" user="Senior_Spielbergo" changeset="3727728" lat="53.0606815" lon="9.0217567">
    <tag k="addr:city" v="Oyten"/>
    <tag k="addr:country" v="DE"/>
    <tag k="addr:housenumber" v="54"/>
    <tag k="addr:phone" v="+49-4207-91230"/>
    <tag k="addr:postcode" v="28876"/>
    <tag k="addr:street" v="Hauptstraße"/>
    <tag k="amenity" v="fuel"/>
    <tag k="name" v="Höper"/>
    <tag k="opening_hours" v="Mo-Fr 6:00-23:00; Sa 7:00-23:00; Su 8:00-23:00"/>
    <tag k="operator" v="Esso"/>
    <tag k="website" v="http://www.hoeper-oyten.de/esso/wir.html"/>
  </node>
  <node id="300610214" version="8" timestamp="2010-01-27T18:28:58Z" uid="115883" user="Senior_Spielbergo" changeset="3730322" lat="53.0606654" lon="9.0217192">
    <tag k="addr:city" v="Oyten"/>
    <tag k="addr:country" v="DE"/>
    <tag k="addr:housenumber" v="54"/>
    <tag k="addr:phone" v="+49-4207-91230"/>
    <tag k="addr:postcode" v="28876"/>
    <tag k="addr:street" v="Hauptstraße"/>
    <tag k="amenity" v="fuel"/>
    <tag k="name" v="Höper"/>
    <tag k="opening_hours" v="Mo-Fr 6:00-23:00; Sa 7:00-23:00; Su 8:00-23:00"/>
    <tag k="operator" v="Esso"/>
    <tag k="website" v="http://www.hoeper-oyten.de/esso/wir.html"/>
  </node>
  <node id="300610214" version="9" timestamp="2010-02-04T20:56:43Z" uid="115883" user="Senior_Spielbergo" changeset="3793443" lat="53.0606654" lon="9.0217192">
    <tag k="addr:city" v="Oyten"/>
    <tag k="addr:country" v="DE"/>
    <tag k="addr:housenumber" v="54"/>
    <tag k="addr:phone" v="+49-4207-91230"/>
    <tag k="addr:postcode" v="28876"/>
    <tag k="addr:street" v="Hauptstraße"/>
    <tag k="amenity" v="fuel"/>
    <tag k="name" v="Esso - Höper"/>
    <tag k="opening_hours" v="Mo-Fr 6:00-23:00; Sa 7:00-23:00; Su 8:00-23:00"/>
    <tag k="operator" v="Esso"/>
    <tag k="website" v="http://www.hoeper-oyten.de/esso/wir.html"/>
  </node>
  <node id="300610214" version="10" timestamp="2010-03-30T11:05:05Z" uid="115883" user="Senior_Spielbergo" changeset="4275568" lat="53.0606654" lon="9.0217192">
    <tag k="addr:city" v="Oyten"/>
    <tag k="addr:country" v="DE"/>
    <tag k="addr:housenumber" v="54"/>
    <tag k="addr:phone" v="+49-4207-91230"/>
    <tag k="addr:postcode" v="28876"/>
    <tag k="addr:street" v="Hauptstraße"/>
    <tag k="amenity" v="fuel"/>
    <tag k="fuel:diesel" v="yes"/>
    <tag k="fuel:lpg" v="yes"/>
    <tag k="fuel:octane_91" v="yes"/>
    <tag k="fuel:octane_95" v="yes"/>
    <tag k="fuel:octane_98" v="yes"/>
    <tag k="name" v="Esso - Höper"/>
    <tag k="opening_hours" v="Mo-Fr 6:00-23:00; Sa 7:00-23:00; Su 8:00-23:00"/>
    <tag k="operator" v="Esso"/>
    <tag k="website" v="http://www.hoeper-oyten.de/esso/wir.html"/>
  </node>
  <node id="300610214" version="11" timestamp="2010-03-30T11:10:41Z" uid="115883" user="Senior_Spielbergo" changeset="4275611" lat="53.0606654" lon="9.0217192">
    <tag k="addr:city" v="Oyten"/>
    <tag k="addr:country" v="DE"/>
    <tag k="addr:housenumber" v="54"/>
    <tag k="addr:phone" v="+49-4207-91230"/>
    <tag k="addr:postcode" v="28876"/>
    <tag k="addr:street" v="Hauptstraße"/>
    <tag k="amenity" v="fuel"/>
    <tag k="fuel:HGV_diesel" v="yes"/>
    <tag k="fuel:diesel" v="yes"/>
    <tag k="fuel:lpg" v="yes"/>
    <tag k="fuel:octane_91" v="yes"/>
    <tag k="fuel:octane_95" v="yes"/>
    <tag k="fuel:octane_98" v="yes"/>
    <tag k="name" v="Esso - Höper"/>
    <tag k="opening_hours" v="Mo-Fr 6:00-23:00; Sa 7:00-23:00; Su 8:00-23:00"/>
    <tag k="operator" v="Esso"/>
    <tag k="website" v="http://www.hoeper-oyten.de/esso/wir.html"/>
  </node>
  <node id="300610214" version="12" timestamp="2010-03-30T11:18:55Z" uid="115883" user="Senior_Spielbergo" changeset="4275674" lat="53.0606654" lon="9.0217192">
    <tag k="addr:city" v="Oyten"/>
    <tag k="addr:country" v="DE"/>
    <tag k="addr:housenumber" v="54"/>
    <tag k="addr:phone" v="+49-4207-91230"/>
    <tag k="addr:postcode" v="28876"/>
    <tag k="addr:street" v="Hauptstraße"/>
    <tag k="amenity" v="fuel"/>
    <tag k="fuel:HGV_diesel" v="yes"/>
    <tag k="fuel:diesel" v="yes"/>
    <tag k="fuel:lpg" v="yes"/>
    <tag k="fuel:octane_91" v="yes"/>
    <tag k="fuel:octane_95" v="yes"/>
    <tag k="fuel:octane_98" v="yes"/>
    <tag k="name" v="Höper"/>
    <tag k="opening_hours" v="Mo-Fr 6:00-23:00; Sa 7:00-23:00; Su 8:00-23:00"/>
    <tag k="operator" v="Esso"/>
    <tag k="shop" v="yes"/>
    <tag k="website" v="http://www.hoeper-oyten.de/esso/wir.html"/>
  </node>
  <node id="300610214" version="13" timestamp="2010-04-15T15:21:11Z" uid="70696" user="xybot" changeset="4431179" lat="53.0606654" lon="9.0217192">
    <tag k="addr:city" v="Oyten"/>
    <tag k="addr:country" v="DE"/>
    <tag k="addr:housenumber" v="54"/>
    <tag k="addr:postcode" v="28876"/>
    <tag k="addr:street" v="Hauptstraße"/>
    <tag k="amenity" v="fuel"/>
    <tag k="fuel:HGV_diesel" v="yes"/>
    <tag k="fuel:diesel" v="yes"/>
    <tag k="fuel:lpg" v="yes"/>
    <tag k="fuel:octane_91" v="yes"/>
    <tag k="fuel:octane_95" v="yes"/>
    <tag k="fuel:octane_98" v="yes"/>
    <tag k="name" v="Höper"/>
    <tag k="opening_hours" v="Mo-Fr 6:00-23:00; Sa 7:00-23:00; Su 8:00-23:00"/>
    <tag k="operator" v="Esso"/>
    <tag k="phone" v="+49-4207-91230"/>
    <tag k="shop" v="yes"/>
    <tag k="website" v="http://www.hoeper-oyten.de/esso/wir.html"/>
  </node>
  <node id="300610214" version="14" timestamp="2010-04-29T17:47:33Z" uid="45044" user="MrJones" changeset="4559697" lat="53.0606654" lon="9.0217192">
    <tag k="addr:city" v="Oyten"/>
    <tag k="addr:country" v="DE"/>
    <tag k="addr:housenumber" v="54"/>
    <tag k="addr:postcode" v="28876"/>
    <tag k="addr:street" v="Hauptstraße"/>
    <tag k="amenity" v="fuel"/>
    <tag k="fuel:HGV_diesel" v="yes"/>
    <tag k="fuel:diesel" v="yes"/>
    <tag k="fuel:lpg" v="yes"/>
    <tag k="fuel:octane_91" v="yes"/>
    <tag k="fuel:octane_95" v="yes"/>
    <tag k="fuel:octane_98" v="yes"/>
    <tag k="name" v="Höper"/>
    <tag k="opening_hours" v="Mo-Fr 06:00-23:00; Sa 07:00-23:00; Su 08:00-23:00"/>
    <tag k="operator" v="Esso"/>
    <tag k="phone" v="+49-4207-91230"/>
    <tag k="shop" v="yes"/>
    <tag k="website" v="http://www.hoeper-oyten.de/esso/wir.html"/>
  </node>
  <node id="300610214" version="15" timestamp="2010-05-22T09:14:10Z" uid="115883" user="Senior_Spielbergo" changeset="4772588" lat="53.0606654" lon="9.0217192">
    <tag k="addr:city" v="Oyten"/>
    <tag k="addr:country" v="DE"/>
    <tag k="addr:housenumber" v="54"/>
    <tag k="addr:postcode" v="28876"/>
    <tag k="addr:street" v="Hauptstraße"/>
    <tag k="amenity" v="fuel"/>
    <tag k="contact:phone" v="+49-4207-91230"/>
    <tag k="contact:website" v="http://www.hoeper-oyten.de/esso/wir.html"/>
    <tag k="fuel:HGV_diesel" v="yes"/>
    <tag k="fuel:diesel" v="yes"/>
    <tag k="fuel:lpg" v="yes"/>
    <tag k="fuel:octane_91" v="yes"/>
    <tag k="fuel:octane_95" v="yes"/>
    <tag k="fuel:octane_98" v="yes"/>
    <tag k="name" v="Höper"/>
    <tag k="opening_hours" v="Mo-Fr 06:00-23:00; Sa 07:00-23:00; Su 08:00-23:00"/>
    <tag k="operator" v="Esso"/>
    <tag k="shop" v="yes"/>
  </node>
  <node id="300610214" version="16" timestamp="2010-12-10T22:25:13Z" uid="115883" user="Senior_Spielbergo" changeset="6611407" lat="53.0606654" lon="9.0217192">
    <tag k="addr:city" v="Oyten"/>
    <tag k="addr:country" v="DE"/>
    <tag k="addr:housenumber" v="54"/>
    <tag k="addr:postcode" v="28876"/>
    <tag k="addr:street" v="Hauptstraße"/>
    <tag k="amenity" v="fuel"/>
    <tag k="contact:phone" v="+49-4207-91230"/>
    <tag k="contact:website" v="http://www.hoeper-oyten.de/esso/wir.html"/>
    <tag k="fuel:HGV_diesel" v="yes"/>
    <tag k="fuel:diesel" v="yes"/>
    <tag k="fuel:lpg" v="yes"/>
    <tag k="fuel:octane_91" v="yes"/>
    <tag k="fuel:octane_95" v="yes"/>
    <tag k="fuel:octane_98" v="yes"/>
    <tag k="name" v="Höper"/>
    <tag k="opening_hours" v="Mo-Fr 06:00-23:00; Sa 07:00-23:00; Su 08:00-23:00"/>
    <tag k="operator" v="Esso"/>
    <tag k="shop" v="yes"/>
  </node>
  <node id="300610215" version="1" timestamp="2008-09-28T16:02:15Z" uid="33382" user="de_muur" changeset="712467" lat="53.061336" lon="9.0214819">
    <tag k="amenity" v="townhall"/>
    <tag k="created_by" v="JOSM"/>
  </node>
  <node id="300610215" version="2" timestamp="2010-01-22T09:44:19Z" uid="115883" user="Senior_Spielbergo" changeset="3681444" lat="53.061336" lon="9.0214819">
    <tag k="addr:housenumber" v="55"/>
    <tag k="amenity" v="townhall"/>
    <tag k="email" v="info@oyten.de"/>
    <tag k="fax" v="+49-4207-914036"/>
    <tag k="opening_hours" v="Mo-Mi 9:00-12:00; Do 9:00-12:00,15:00-17:30; Fr 9:00-12:30"/>
    <tag k="phone" v="+49-4207-91400"/>
    <tag k="website" v="http://www.oyten.de/"/>
  </node>
  <node id="300610215" version="3" timestamp="2010-01-22T13:30:30Z" uid="115883" user="Senior_Spielbergo" changeset="3683124" lat="53.061336" lon="9.0214819">
    <tag k="addr:housenumber" v="55"/>
    <tag k="amenity" v="townhall"/>
    <tag k="email" v="info@oyten.de"/>
    <tag k="fax" v="+49 4207 914036"/>
    <tag k="opening_hours" v="Mo-We 9:00-12:00; Th 9:00-12:00, 15:00-17:30; Fr 9:00-12:30"/>
    <tag k="phone" v="+49 4207 91400"/>
    <tag k="website" v="http://www.oyten.de/"/>
  </node>
  <node id="300610215" version="4" timestamp="2010-01-25T09:58:55Z" uid="115883" user="Senior_Spielbergo" changeset="3709297" lat="53.061336" lon="9.0214819">
    <tag k="addr:city" v="Oyten"/>
    <tag k="addr:country" v="DE"/>
    <tag k="addr:email" v="info@oyten.de"/>
    <tag k="addr:fax" v="+49 4207 914036"/>
    <tag k="addr:housenumber" v="55"/>
    <tag k="addr:phone" v="+49 4207 91400"/>
    <tag k="addr:postcode" v="28876"/>
    <tag k="addr:street" v="Hauptstraße"/>
    <tag k="amenity" v="townhall"/>
    <tag k="opening_hours" v="Mo-We 9:00-12:00; Th 9:00-12:00, 15:00-17:30; Fr 9:00-12:30"/>
    <tag k="website" v="http://www.oyten.de/"/>
  </node>
  <node id="300610215" version="5" timestamp="2010-01-25T18:56:41Z" uid="115883" user="Senior_Spielbergo" changeset="3713381" lat="53.061336" lon="9.0214819">
    <tag k="addr:city" v="Oyten"/>
    <tag k="addr:country" v="DE"/>
    <tag k="addr:email" v="info@oyten.de"/>
    <tag k="addr:fax" v="+49 4207 914036"/>
    <tag k="addr:housenumber" v="55"/>
    <tag k="addr:phone" v="+49 4207 91400"/>
    <tag k="addr:postcode" v="28876"/>
    <tag k="addr:street" v="Hauptstraße"/>
    <tag k="amenity" v="townhall"/>
    <tag k="name" v="Rathaus"/>
    <tag k="opening_hours" v="Mo-We 9:00-12:00; Th 9:00-12:00, 15:00-17:30; Fr 9:00-12:30"/>
    <tag k="website" v="http://www.oyten.de/"/>
  </node>
  <node id="300610215" version="6" timestamp="2010-01-26T16:11:47Z" uid="115883" user="Senior_Spielbergo" changeset="3720799" lat="53.061336" lon="9.0214819">
    <tag k="addr:city" v="Oyten"/>
    <tag k="addr:country" v="DE"/>
    <tag k="addr:email" v="info@oyten.de"/>
    <tag k="addr:fax" v="+49 4207 914036"/>
    <tag k="addr:housenumber" v="55"/>
    <tag k="addr:phone" v="+49 4207 91400"/>
    <tag k="addr:postcode" v="28876"/>
    <tag k="addr:street" v="Hauptstraße"/>
    <tag k="amenity" v="townhall"/>
    <tag k="name" v="Rathaus Gemeinde Oyten"/>
    <tag k="opening_hours" v="Mo-We 9:00-12:00; Th 9:00-12:00, 15:00-17:30; Fr 9:00-12:30"/>
    <tag k="website" v="http://www.oyten.de/"/>
  </node>
  <node id="300610215" version="7" timestamp="2010-01-29T22:14:52Z" uid="115883" user="Senior_Spielbergo" changeset="3747075" lat="53.061336" lon="9.0214819">
    <tag k="addr:city" v="Oyten"/>
    <tag k="addr:country" v="DE"/>
    <tag k="addr:email" v="info@oyten.de"/>
    <tag k="addr:fax" v="+49 4207 914036"/>
    <tag k="addr:housenumber" v="55"/>
    <tag k="addr:phone" v="+49 4207 91400"/>
    <tag k="addr:postcode" v="28876"/>
    <tag k="addr:street" v="Hauptstraße"/>
    <tag k="amenity" v="townhall"/>
    <tag k="name" v="Rathaus Gemeinde Oyten"/>
    <tag k="opening_hours" v="Mo-Fr 9:00-12:00; Th 15:00-17:30"/>
    <tag k="website" v="http://www.oyten.de/"/>
  </node>
  <node id="300610215" version="8" timestamp="2010-04-15T15:21:12Z" uid="70696" user="xybot" changeset="4431179" lat="53.061336" lon="9.0214819">
    <tag k="addr:city" v="Oyten"/>
    <tag k="addr:country" v="DE"/>
    <tag k="addr:housenumber" v="55"/>
    <tag k="addr:postcode" v="28876"/>
    <tag k="addr:street" v="Hauptstraße"/>
    <tag k="amenity" v="townhall"/>
    <tag k="email" v="info@oyten.de"/>
    <tag k="fax" v="+49 4207 914036"/>
    <tag k="name" v="Rathaus Gemeinde Oyten"/>
    <tag k="opening_hours" v="Mo-Fr 9:00-12:00; Th 15:00-17:30"/>
    <tag k="phone" v="+49 4207 91400"/>
    <tag k="website" v="http://www.oyten.de/"/>
  </node>
  <node id="300610215" version="9" timestamp="2010-05-22T09:14:17Z" uid="115883" user="Senior_Spielbergo" changeset="4772588" lat="53.061336" lon="9.0214819">
    <tag k="addr:city" v="Oyten"/>
    <tag k="addr:country" v="DE"/>
    <tag k="addr:housenumber" v="55"/>
    <tag k="addr:postcode" v="28876"/>
    <tag k="addr:street" v="Hauptstraße"/>
    <tag k="amenity" v="townhall"/>
    <tag k="contact:email" v="info@oyten.de"/>
    <tag k="contact:fax" v="+49 4207 914036"/>
    <tag k="contact:phone" v="+49 4207 91400"/>
    <tag k="contact:website" v="http://www.oyten.de/"/>
    <tag k="name" v="Rathaus Gemeinde Oyten"/>
    <tag k="opening_hours" v="Mo-Fr 9:00-12:00; Th 15:00-17:30"/>
  </node>
  <node id="300610215" version="10" timestamp="2010-12-10T07:52:46Z" uid="115883" user="Senior_Spielbergo" changeset="6602675" lat="53.061336" lon="9.0214819">
    <tag k="addr:city" v="Oyten"/>
    <tag k="addr:country" v="DE"/>
    <tag k="addr:housenumber" v="55"/>
    <tag k="addr:postcode" v="28876"/>
    <tag k="addr:street" v="Hauptstraße"/>
    <tag k="amenity" v="townhall"/>
    <tag k="contact:email" v="info@oyten.de"/>
    <tag k="contact:fax" v="+49 4207 914036"/>
    <tag k="contact:phone" v="+49 4207 91400"/>
    <tag k="contact:website" v="http://www.oyten.de/"/>
    <tag k="name" v="Rathaus Gemeinde Oyten"/>
    <tag k="opening_hours" v="Mo-Fr 9:00-12:00; Th 15:00-17:30"/>
  </node>
  <node id="300610216" version="1" timestamp="2008-09-28T16:02:16Z" uid="33382" user="de_muur" changeset="712467" lat="53.0610908" lon="9.0216708">
    <tag k="created_by" v="JOSM"/>
  </node>
  <node id="300610216" version="2" timestamp="2010-12-10T07:47:32Z" uid="115883" user="Senior_Spielbergo" changeset="6602647" lat="53.0611546" lon="9.0215993"/>
  <node id="300610217" version="1" timestamp="2008-09-28T16:02:16Z" uid="33382" user="de_muur" changeset="712467" lat="53.061096" lon="9.0214097">
    <tag k="created_by" v="JOSM"/>
    <tag k="highway" v="turning_circle"/>
  </node>
  <node id="300610217" version="2" timestamp="2010-12-10T07:47:30Z" uid="115883" user="Senior_Spielbergo" changeset="6602647" lat="53.0610204" lon="9.0213357">
    <tag k="highway" v="turning_circle"/>
  </node>
  <node id="300610218" version="1" timestamp="2008-09-28T16:02:16Z" uid="33382" user="de_muur" changeset="712467" lat="53.0613494" lon="9.0219007">
    <tag k="created_by" v="JOSM"/>
  </node>
  <node id="300610218" version="2" timestamp="2010-12-10T07:47:32Z" uid="115883" user="Senior_Spielbergo" changeset="6602647" lat="53.0611804" lon="9.0217033"/>
  <node id="300610219" version="1" timestamp="2008-09-28T16:02:16Z" uid="33382" user="de_muur" changeset="712467" lat="53.0616288" lon="9.0219451">
    <tag k="created_by" v="JOSM"/>
  </node>
  <node id="300610219" version="2" timestamp="2010-12-10T07:47:35Z" uid="115883" user="Senior_Spielbergo" changeset="6602647" lat="53.0616095" lon="9.0219648"/>
  <node id="300610220" version="1" timestamp="2008-09-28T16:02:16Z" uid="33382" user="de_muur" changeset="712467" lat="53.0613468" lon="9.0220966">
    <tag k="created_by" v="JOSM"/>
  </node>
  <node id="300610220" version="2" timestamp="2010-12-10T07:47:31Z" uid="115883" user="Senior_Spielbergo" changeset="6602647" lat="53.0613231" lon="9.0220399"/>
  <node id="300610221" version="1" timestamp="2008-09-28T16:02:16Z" uid="33382" user="de_muur" changeset="712467" lat="53.0611921" lon="9.0212752">
    <tag k="created_by" v="JOSM"/>
  </node>
  <node id="300610221" version="2" timestamp="2010-12-10T07:47:34Z" uid="115883" user="Senior_Spielbergo" changeset="6602647" lat="53.0610661" lon="9.0211888"/>
  <node id="300610222" version="1" timestamp="2008-09-28T16:02:17Z" uid="33382" user="de_muur" changeset="712467" lat="53.0611876" lon="9.0216498">
    <tag k="created_by" v="JOSM"/>
  </node>
  <node id="300610222" version="2" timestamp="2010-12-10T07:47:31Z" uid="115883" user="Senior_Spielbergo" changeset="6602647" lat="53.061192" lon="9.0214771"/>
  <node id="300610223" version="1" timestamp="2008-09-28T16:02:17Z" uid="33382" user="de_muur" changeset="712467" lat="53.0613952" lon="9.0218123">
    <tag k="created_by" v="JOSM"/>
  </node>
  <node id="300610223" version="2" timestamp="2010-12-10T07:47:34Z" uid="115883" user="Senior_Spielbergo" changeset="6602647" lat="53.0613774" lon="9.0217111"/>
  <node id="300610224" version="1" timestamp="2008-09-28T16:02:17Z" uid="33382" user="de_muur" changeset="712467" lat="53.0616705" lon="9.0218303">
    <tag k="created_by" v="JOSM"/>
  </node>
  <node id="300610224" version="2" timestamp="2010-12-10T07:47:32Z" uid="115883" user="Senior_Spielbergo" changeset="6602647" lat="53.0616038" lon="9.021781"/>
  <node id="300610225" version="1" timestamp="2008-09-28T16:02:17Z" uid="33382" user="de_muur" changeset="712467" lat="53.0617066" lon="9.0220018">
    <tag k="created_by" v="JOSM"/>
  </node>
  <node id="300610225" version="2" timestamp="2010-12-10T07:47:35Z" uid="115883" user="Senior_Spielbergo" changeset="6602647" lat="53.0616295" lon="9.0220215"/>
  <node id="300610226" version="1" timestamp="2008-09-28T16:02:17Z" uid="33382" user="de_muur" changeset="712467" lat="53.061305" lon="9.0221914">
    <tag k="created_by" v="JOSM"/>
  </node>
  <node id="300610226" version="2" timestamp="2010-12-10T07:47:31Z" uid="115883" user="Senior_Spielbergo" changeset="6602647" lat="53.0611493" lon="9.0221199"/>
  <node id="300610227" version="1" timestamp="2008-09-28T16:02:18Z" uid="33382" user="de_muur" changeset="712467" lat="53.0612373" lon="9.0219522">
    <tag k="created_by" v="JOSM"/>
  </node>
  <node id="300610227" version="2" timestamp="2010-12-10T07:47:34Z" uid="115883" user="Senior_Spielbergo" changeset="6602647" lat="53.0611009" lon="9.0217129"/>
  <node id="300610228" version="1" timestamp="2008-09-28T16:02:18Z" uid="33382" user="de_muur" changeset="712467" lat="53.0610252" lon="9.0217762">
    <tag k="created_by" v="JOSM"/>
  </node>
  <node id="300610228" version="2" timestamp="2010-12-10T07:47:30Z" uid="115883" user="Senior_Spielbergo" changeset="6602647" lat="53.061086" lon="9.0216158"/>
  <node id="300610229" version="1" timestamp="2008-09-28T16:02:18Z" uid="33382" user="de_muur" changeset="712467" lat="53.060971" lon="9.0216092">
    <tag k="created_by" v="JOSM"/>
  </node>
  <node id="300610229" version="2" timestamp="2010-12-10T07:47:32Z" uid="115883" user="Senior_Spielbergo" changeset="6602647" lat="53.0609502" lon="9.0215006"/>
  <node id="300610230" version="1" timestamp="2008-09-28T16:02:18Z" uid="33382" user="de_muur" changeset="712467" lat="53.0609936" lon="9.0212888">
    <tag k="created_by" v="JOSM"/>
  </node>
  <node id="300610230" version="2" timestamp="2010-12-10T07:47:35Z" uid="115883" user="Senior_Spielbergo" changeset="6602647" lat="53.0609417" lon="9.021237"/>
  <node id="300610231" version="1" timestamp="2008-09-28T16:02:18Z" uid="33382" user="de_muur" changeset="712467" lat="53.0611475" lon="9.0197641">
    <tag k="amenity" v="fire_station"/>
    <tag k="created_by" v="JOSM"/>
  </node>
  <node id="300610231" version="2" timestamp="2008-11-02T19:02:40Z" uid="33382" user="de_muur" changeset="660029" lat="53.0610446" lon="9.019418">
    <tag k="amenity" v="fire_station"/>
    <tag k="created_by" v="JOSM"/>
  </node>
  <node id="300610231" version="3" timestamp="2010-01-23T14:51:34Z" uid="115883" user="Senior_Spielbergo" changeset="3692352" lat="53.0610446" lon="9.019418">
    <tag k="amenity" v="fire_station"/>
    <tag k="email" v="info@feuerwehr-oyten.de"/>
    <tag k="phone" v="+49 4207 667785"/>
    <tag k="website" v="http://www.feuerwehr-oyten.de/"/>
  </node>
  <node id="300610231" version="4" timestamp="2010-01-25T09:58:54Z" uid="115883" user="Senior_Spielbergo" changeset="3709297" lat="53.0610446" lon="9.019418">
    <tag k="addr:city" v="Oyten"/>
    <tag k="addr:country" v="DE"/>
    <tag k="addr:email" v="info@feuerwehr-oyten.de"/>
    <tag k="addr:phone" v="+49 4207 667785"/>
    <tag k="addr:street" v="Hauptstraße"/>
    <tag k="amenity" v="fire_station"/>
    <tag k="website" v="http://www.feuerwehr-oyten.de/"/>
  </node>
  <node id="300610231" version="5" timestamp="2010-01-25T18:56:40Z" uid="115883" user="Senior_Spielbergo" changeset="3713381" lat="53.0610446" lon="9.019418">
    <tag k="addr:city" v="Oyten"/>
    <tag k="addr:country" v="DE"/>
    <tag k="addr:email" v="info@feuerwehr-oyten.de"/>
    <tag k="addr:phone" v="+49 4207 667785"/>
    <tag k="addr:street" v="Hauptstraße"/>
    <tag k="amenity" v="fire_station"/>
    <tag k="name" v="Freiwillige Feuerwehr Oyten"/>
    <tag k="website" v="http://www.feuerwehr-oyten.de/"/>
  </node>
  <node id="300610231" version="6" timestamp="2010-01-26T16:29:11Z" uid="115883" user="Senior_Spielbergo" changeset="3720904" lat="53.0610365" lon="9.0189387">
    <tag k="addr:city" v="Oyten"/>
    <tag k="addr:country" v="DE"/>
    <tag k="addr:email" v="info@feuerwehr-oyten.de"/>
    <tag k="addr:phone" v="+49 4207 667785"/>
    <tag k="addr:street" v="Hauptstraße"/>
    <tag k="amenity" v="fire_station"/>
    <tag k="name" v="Freiwillige Feuerwehr Oyten"/>
    <tag k="website" v="http://www.feuerwehr-oyten.de/"/>
  </node>
  <node id="300610231" version="7" timestamp="2010-01-27T12:59:05Z" uid="115883" user="Senior_Spielbergo" changeset="3727728" lat="53.0610898" lon="9.018748">
    <tag k="addr:city" v="Oyten"/>
    <tag k="addr:country" v="DE"/>
    <tag k="addr:email" v="info@feuerwehr-oyten.de"/>
    <tag k="addr:phone" v="+49 4207 667785"/>
    <tag k="addr:street" v="Hauptstraße"/>
    <tag k="amenity" v="fire_station"/>
    <tag k="name" v="Freiwillige Feuerwehr Oyten"/>
    <tag k="website" v="http://www.feuerwehr-oyten.de/"/>
  </node>
  <node id="300610231" version="8" timestamp="2010-01-28T21:17:33Z" uid="115883" user="Senior_Spielbergo" changeset="3739138" lat="53.0612226" lon="9.0185941">
    <tag k="addr:city" v="Oyten"/>
    <tag k="addr:country" v="DE"/>
    <tag k="addr:email" v="info@feuerwehr-oyten.de"/>
    <tag k="addr:phone" v="+49 4207 667785"/>
    <tag k="addr:street" v="Hauptstraße"/>
    <tag k="amenity" v="fire_station"/>
    <tag k="name" v="Freiwillige Feuerwehr Oyten"/>
    <tag k="website" v="http://www.feuerwehr-oyten.de/"/>
  </node>
  <node id="300610231" version="9" timestamp="2010-04-15T15:21:13Z" uid="70696" user="xybot" changeset="4431179" lat="53.0612226" lon="9.0185941">
    <tag k="addr:city" v="Oyten"/>
    <tag k="addr:country" v="DE"/>
    <tag k="addr:street" v="Hauptstraße"/>
    <tag k="amenity" v="fire_station"/>
    <tag k="email" v="info@feuerwehr-oyten.de"/>
    <tag k="name" v="Freiwillige Feuerwehr Oyten"/>
    <tag k="phone" v="+49 4207 667785"/>
    <tag k="website" v="http://www.feuerwehr-oyten.de/"/>
  </node>
  <node id="300610231" version="10" timestamp="2010-05-22T09:14:18Z" uid="115883" user="Senior_Spielbergo" changeset="4772588" lat="53.0612226" lon="9.0185941">
    <tag k="addr:city" v="Oyten"/>
    <tag k="addr:country" v="DE"/>
    <tag k="addr:street" v="Hauptstraße"/>
    <tag k="amenity" v="fire_station"/>
    <tag k="contact:email" v="info@feuerwehr-oyten.de"/>
    <tag k="contact:phone" v="+49 4207 667785"/>
    <tag k="contact:website" v="http://www.feuerwehr-oyten.de/"/>
    <tag k="name" v="Freiwillige Feuerwehr Oyten"/>
  </node>
  <node id="300610231" version="11" timestamp="2010-12-10T22:09:09Z" uid="115883" user="Senior_Spielbergo" changeset="6610855" lat="53.0612226" lon="9.0185941">
    <tag k="addr:city" v="Oyten"/>
    <tag k="addr:country" v="DE"/>
    <tag k="addr:street" v="Hauptstraße"/>
    <tag k="amenity" v="fire_station"/>
    <tag k="contact:email" v="info@feuerwehr-oyten.de"/>
    <tag k="contact:phone" v="+49 4207 667785"/>
    <tag k="contact:website" v="http://www.feuerwehr-oyten.de/"/>
    <tag k="name" v="Freiwillige Feuerwehr Oyten"/>
  </node>
  <node id="300610719" version="3" timestamp="2009-09-30T16:23:41Z" uid="36809" user="pfoten_weg_!_" changeset="2690373" lat="48.0648568" lon="11.3181335">
    <tag k="power" v="tower"/>
    <tag k="ref" v="311"/>
  </node>
  <node id="300610738" version="4" timestamp="2009-10-12T21:55:40Z" uid="36809" user="pfoten_weg_!_" changeset="2831291" lat="48.0598627" lon="11.3156722">
    <tag k="power" v="tower"/>
    <tag k="ref" v="183"/>
  </node>
  <node id="300611431" version="2" timestamp="2008-10-23T17:26:49Z" uid="6975" user="ulfl" changeset="530870" lat="51.4063616" lon="-0.0305717">
    <tag k="name" v="Sainsbury&apos;s"/>
    <tag k="shop" v="supermarket"/>
  </node>
  <node id="300611431" version="3" timestamp="2010-04-08T23:17:43Z" uid="217994" user="robbietee" changeset="4368885" lat="51.4063616" lon="-0.0305717">
    <tag k="name" v="Sainsbury&apos;s"/>
    <tag k="shop" v="supermarket"/>
  </node>
  <node id="300611874" version="4" timestamp="2008-10-09T07:28:57Z" uid="27600" user="Islanit" changeset="188945" lat="53.5656506" lon="9.9661563"/>
  <node id="300611874" version="5" timestamp="2009-03-17T21:01:05Z" uid="4902" user="mbuege" changeset="823427" lat="53.5657084" lon="9.9662368"/>
  <node id="300611874" version="6" timestamp="2009-03-28T23:26:02Z" uid="4902" user="mbuege" changeset="867162" lat="53.565743" lon="9.9662748"/>
  <node id="300611874" version="7" timestamp="2009-04-07T18:21:22Z" uid="63375" user="Divjo" changeset="304341" lat="53.565743" lon="9.9662748"/>
  <node id="300611874" version="8" timestamp="2010-02-11T12:52:21Z" uid="63375" user="Divjo" changeset="3848130" lat="53.5657242" lon="9.9662658"/>
  <node id="300611874" version="9" timestamp="2010-03-22T08:09:07Z" uid="63375" user="Divjo" changeset="4199922" lat="53.5656882" lon="9.9662478"/>
  <node id="300611874" version="10" timestamp="2011-11-12T22:14:33Z" uid="63375" user="Divjo" changeset="9809239" lat="53.5656882" lon="9.9662478"/>
  <node id="300611911" version="16" timestamp="2008-10-23T17:09:33Z" uid="49111" user="Markus B" changeset="528986" lat="49.2077618" lon="11.4603157"/>
  <node id="300611911" version="17" timestamp="2008-10-31T21:09:47Z" uid="62236" user="Paulchen Panther" changeset="643995" lat="49.2077618" lon="11.4603157"/>
  <node id="300611911" version="18" timestamp="2008-10-31T21:10:30Z" uid="62236" user="Paulchen Panther" changeset="643995" lat="49.2077618" lon="11.4603157"/>
  <node id="300611911" version="19" timestamp="2008-10-31T21:14:36Z" uid="62236" user="Paulchen Panther" changeset="643995" lat="49.2077618" lon="11.4603157"/>
  <node id="300611911" version="20" timestamp="2008-11-01T09:11:57Z" uid="62236" user="Paulchen Panther" changeset="646760" lat="49.2077618" lon="11.4603157"/>
  <node id="300611911" version="21" timestamp="2008-11-01T09:14:28Z" uid="62236" user="Paulchen Panther" changeset="646760" lat="49.2077618" lon="11.4603157"/>
  <node id="300611911" version="22" timestamp="2008-11-01T09:39:40Z" uid="62236" user="Paulchen Panther" changeset="646760" lat="49.2077618" lon="11.4603157"/>
  <node id="300611911" version="23" timestamp="2008-12-08T00:31:55Z" uid="12178" user="edwin-ldbg" changeset="254439" lat="49.2077618" lon="11.4603157"/>
  <node id="300611911" version="24" timestamp="2009-02-04T19:10:14Z" uid="12178" user="edwin-ldbg" changeset="126622" lat="49.2077618" lon="11.4603157"/>
  <node id="300611911" version="25" timestamp="2009-02-04T19:11:30Z" uid="12178" user="edwin-ldbg" changeset="126622" lat="49.2077618" lon="11.4603157"/>
  <node id="300611911" version="26" timestamp="2009-02-04T19:12:42Z" uid="12178" user="edwin-ldbg" changeset="126622" lat="49.2077618" lon="11.4603157"/>
  <node id="300611911" version="27" timestamp="2009-02-04T19:15:01Z" uid="12178" user="edwin-ldbg" changeset="126622" lat="49.2077618" lon="11.4603157"/>
  <node id="300611911" version="28" timestamp="2009-02-04T19:15:06Z" uid="12178" user="edwin-ldbg" changeset="126622" lat="49.2077618" lon="11.4603157"/>
  <node id="300611911" version="29" timestamp="2009-02-04T19:17:19Z" uid="12178" user="edwin-ldbg" changeset="126622" lat="49.2077618" lon="11.4603157"/>
  <node id="300611911" version="30" timestamp="2009-03-04T13:16:26Z" uid="37976" user="R2D2_C3PO" changeset="734357" lat="49.2077618" lon="11.4603157"/>
  <node id="300612033" version="2" timestamp="2008-10-23T17:26:52Z" uid="6975" user="ulfl" changeset="530870" lat="51.4092265" lon="-0.0252743">
    <tag k="name" v="Marks &amp; Spencer"/>
    <tag k="shop" v="supermarket"/>
  </node>
  <node id="300612033" version="3" timestamp="2009-08-04T20:46:46Z" uid="69399" user="JoeRichards" changeset="2039866" lat="51.4091892" lon="-0.0252809">
    <tag k="name" v="Marks &amp; Spencer"/>
    <tag k="shop" v="supermarket"/>
  </node>
  <node id="300612033" version="4" timestamp="2011-04-11T10:09:25Z" uid="38244" user="jamicu" changeset="7831466" lat="51.4093252" lon="-0.0253944">
    <tag k="name" v="Marks &amp; Spencer"/>
    <tag k="shop" v="supermarket"/>
  </node>
  <node id="300612075" version="2" timestamp="2008-10-31T11:50:34Z" uid="27600" user="Islanit" changeset="642217" lat="53.4737442" lon="10.2542324"/>
  <node id="300612075" version="3" timestamp="2008-12-09T23:27:16Z" uid="79049" user="sts_hh" changeset="308632" lat="53.4737936" lon="10.2543272"/>
  <node id="300612075" version="4" timestamp="2010-10-15T07:06:47Z" uid="45901" user="jorkh" changeset="6046623" lat="53.4737936" lon="10.2543272"/>
  <node id="300612075" version="5" timestamp="2010-10-19T14:25:43Z" uid="33382" user="de_muur" changeset="6099755" lat="53.4737703" lon="10.2542919"/>
  <node id="300613094" version="3" timestamp="2009-10-12T21:56:28Z" uid="36809" user="pfoten_weg_!_" changeset="2831291" lat="48.0775243" lon="11.3222684">
    <tag k="power" v="tower"/>
    <tag k="ref" v="191"/>
  </node>
  <node id="300613094" version="4" timestamp="2011-01-23T22:15:08Z" uid="42393" user="mawi42" changeset="7068060" lat="48.0775461" lon="11.3222788">
    <tag k="power" v="tower"/>
    <tag k="ref" v="191"/>
  </node>
  <node id="300613094" version="5" timestamp="2011-10-26T17:30:49Z" uid="384060" user="aliponte" changeset="9662115" lat="48.077508" lon="11.3222174">
    <tag k="power" v="tower"/>
    <tag k="ref" v="191"/>
  </node>
  <node id="300613095" version="3" timestamp="2009-10-12T21:56:29Z" uid="36809" user="pfoten_weg_!_" changeset="2831291" lat="48.0798869" lon="11.3232383">
    <tag k="power" v="tower"/>
    <tag k="ref" v="192"/>
  </node>
  <node id="300613095" version="4" timestamp="2011-10-26T17:30:49Z" uid="384060" user="aliponte" changeset="9662115" lat="48.0799133" lon="11.3231726">
    <tag k="power" v="tower"/>
    <tag k="ref" v="192"/>
  </node>
  <node id="300613096" version="3" timestamp="2009-10-12T21:56:30Z" uid="36809" user="pfoten_weg_!_" changeset="2831291" lat="48.0822264" lon="11.3241738">
    <tag k="power" v="tower"/>
    <tag k="ref" v="193"/>
  </node>
  <node id="300613097" version="3" timestamp="2009-10-12T21:56:31Z" uid="36809" user="pfoten_weg_!_" changeset="2831291" lat="48.0847207" lon="11.325178">
    <tag k="power" v="tower"/>
    <tag k="ref" v="194"/>
  </node>
  <node id="300613097" version="4" timestamp="2011-10-26T17:30:49Z" uid="384060" user="aliponte" changeset="9662115" lat="48.084723" lon="11.32515">
    <tag k="power" v="tower"/>
    <tag k="ref" v="194"/>
  </node>
  <node id="300613498" version="3" timestamp="2009-09-30T16:23:43Z" uid="36809" user="pfoten_weg_!_" changeset="2690373" lat="48.0772032" lon="11.3228434">
    <tag k="power" v="tower"/>
    <tag k="ref" v="317"/>
  </node>
  <node id="300613499" version="3" timestamp="2009-09-30T16:23:43Z" uid="36809" user="pfoten_weg_!_" changeset="2690373" lat="48.0792446" lon="11.3236502">
    <tag k="power" v="tower"/>
    <tag k="ref" v="318"/>
  </node>
  <node id="300613500" version="3" timestamp="2009-09-30T16:23:42Z" uid="36809" user="pfoten_weg_!_" changeset="2690373" lat="48.0812459" lon="11.3244656">
    <tag k="power" v="tower"/>
    <tag k="ref" v="319"/>
  </node>
  <node id="300613501" version="3" timestamp="2009-09-30T16:23:42Z" uid="36809" user="pfoten_weg_!_" changeset="2690373" lat="48.0834076" lon="11.3253583">
    <tag k="power" v="tower"/>
    <tag k="ref" v="320"/>
  </node>
  <node id="300616232" version="2" timestamp="2010-11-01T23:00:06Z" uid="9581" user="Lobelt" changeset="6264135" lat="50.734496" lon="11.5963066"/>
  <node id="300616232" version="3" timestamp="2010-12-14T11:07:46Z" uid="110639" user="aighes" changeset="6656990" lat="50.7345116" lon="11.5963888"/>
  <node id="300616232" version="4" timestamp="2011-05-13T23:04:13Z" uid="9581" user="Lobelt" changeset="8136501" lat="50.7345467" lon="11.596421"/>
  <node id="300616232" version="5" timestamp="2011-11-29T11:16:13Z" uid="192395" user="BBO" changeset="9986571" lat="50.7345467" lon="11.596421"/>
  <node id="300616234" version="2" timestamp="2009-05-12T17:26:51Z" uid="9581" user="Lobelt" changeset="1166911" lat="50.7345806" lon="11.5965036">
    <tag k="created_by" v="JOSM"/>
  </node>
  <node id="300616234" version="3" timestamp="2010-11-01T23:01:32Z" uid="9581" user="Lobelt" changeset="6264135" lat="50.7345806" lon="11.5965036"/>
  <node id="300616234" version="4" timestamp="2010-12-14T11:07:48Z" uid="110639" user="aighes" changeset="6656990" lat="50.7345754" lon="11.5965398"/>
  <node id="300616234" version="5" timestamp="2011-05-13T23:04:08Z" uid="9581" user="Lobelt" changeset="8136501" lat="50.7345856" lon="11.5965255"/>
  <node id="300616234" version="6" timestamp="2011-11-29T11:16:14Z" uid="192395" user="BBO" changeset="9986571" lat="50.7345856" lon="11.5965255"/>
  <node id="300616235" version="2" timestamp="2009-05-12T17:26:51Z" uid="9581" user="Lobelt" changeset="1166911" lat="50.7345945" lon="11.5968902">
    <tag k="created_by" v="JOSM"/>
  </node>
  <node id="300616235" version="3" timestamp="2010-11-01T23:00:55Z" uid="9581" user="Lobelt" changeset="6264135" lat="50.7345945" lon="11.5968902"/>
  <node id="300616235" version="4" timestamp="2011-11-29T11:16:14Z" uid="192395" user="BBO" changeset="9986571" lat="50.7345945" lon="11.5968902"/>
  <node id="300616236" version="2" timestamp="2010-11-01T23:01:59Z" uid="9581" user="Lobelt" changeset="6264135" lat="50.7346176" lon="11.5971041"/>
  <node id="300616236" version="3" timestamp="2011-05-13T23:04:07Z" uid="9581" user="Lobelt" changeset="8136501" lat="50.7346119" lon="11.5971989"/>
  <node id="300616236" version="4" timestamp="2011-11-29T11:16:14Z" uid="192395" user="BBO" changeset="9986571" lat="50.7346119" lon="11.5971989"/>
  <node id="300616237" version="2" timestamp="2010-11-01T23:01:15Z" uid="9581" user="Lobelt" changeset="6264135" lat="50.7347748" lon="11.5983325"/>
  <node id="300616237" version="3" timestamp="2011-11-29T11:16:14Z" uid="192395" user="BBO" changeset="9986571" lat="50.7347748" lon="11.5983325"/>
  <node id="300616238" version="2" timestamp="2010-11-01T22:58:39Z" uid="9581" user="Lobelt" changeset="6264135" lat="50.7347887" lon="11.599196"/>
  <node id="300616238" version="3" timestamp="2011-11-29T11:16:14Z" uid="192395" user="BBO" changeset="9986571" lat="50.7347887" lon="11.599196"/>
  <node id="300616239" version="2" timestamp="2009-05-12T17:26:51Z" uid="9581" user="Lobelt" changeset="1166911" lat="50.7348544" lon="11.599748">
    <tag k="created_by" v="JOSM"/>
  </node>
  <node id="300616239" version="3" timestamp="2010-11-01T22:57:37Z" uid="9581" user="Lobelt" changeset="6264135" lat="50.7348544" lon="11.599748"/>
  <node id="300616239" version="4" timestamp="2011-11-29T11:16:15Z" uid="192395" user="BBO" changeset="9986571" lat="50.7348544" lon="11.599748"/>
  <node id="300616241" version="2" timestamp="2010-11-01T23:00:59Z" uid="9581" user="Lobelt" changeset="6264135" lat="50.7349158" lon="11.6003442"/>
  <node id="300616241" version="3" timestamp="2011-11-29T11:16:15Z" uid="192395" user="BBO" changeset="9986571" lat="50.7349158" lon="11.6003442"/>
  <node id="300616242" version="2" timestamp="2010-11-01T22:58:12Z" uid="9581" user="Lobelt" changeset="6264135" lat="50.7349893" lon="11.600825"/>
  <node id="300616242" version="3" timestamp="2011-11-29T11:16:15Z" uid="192395" user="BBO" changeset="9986571" lat="50.7349893" lon="11.600825"/>
  <node id="300616243" version="2" timestamp="2010-11-01T23:02:25Z" uid="9581" user="Lobelt" changeset="6264135" lat="50.7352405" lon="11.6024065"/>
  <node id="300616245" version="2" timestamp="2010-11-01T22:57:50Z" uid="9581" user="Lobelt" changeset="6264135" lat="50.7353368" lon="11.6030459"/>
  <node id="300616246" version="2" timestamp="2010-11-01T23:00:12Z" uid="9581" user="Lobelt" changeset="6264135" lat="50.7354541" lon="11.6033938"/>
  <node id="300616247" version="2" timestamp="2011-01-04T16:25:23Z" uid="9581" user="Lobelt" changeset="6862399" lat="50.7449595" lon="11.6493625"/>
  <node id="300616248" version="2" timestamp="2011-01-04T16:20:47Z" uid="9581" user="Lobelt" changeset="6862399" lat="50.7449232" lon="11.6490561"/>
  <node id="300616250" version="2" timestamp="2011-01-04T16:18:25Z" uid="9581" user="Lobelt" changeset="6862399" lat="50.7448587" lon="11.6488465"/>
  <node id="300616251" version="2" timestamp="2011-01-04T16:12:57Z" uid="9581" user="Lobelt" changeset="6862399" lat="50.7448184" lon="11.6482903"/>
  <node id="300616252" version="2" timestamp="2011-01-04T16:25:01Z" uid="9581" user="Lobelt" changeset="6862399" lat="50.7448426" lon="11.6480283"/>
  <node id="300616253" version="2" timestamp="2011-01-04T16:18:53Z" uid="9581" user="Lobelt" changeset="6862399" lat="50.7448384" lon="11.6477426"/>
  <node id="300616254" version="2" timestamp="2011-01-04T16:23:05Z" uid="9581" user="Lobelt" changeset="6862399" lat="50.7448157" lon="11.6474928"/>
  <node id="300616255" version="2" timestamp="2011-01-04T16:16:42Z" uid="9581" user="Lobelt" changeset="6862399" lat="50.7469349" lon="11.6744235"/>
  <node id="300616257" version="2" timestamp="2011-01-04T16:18:41Z" uid="9581" user="Lobelt" changeset="6862399" lat="50.7469049" lon="11.6738105"/>
  <node id="300616258" version="2" timestamp="2011-01-04T16:22:53Z" uid="9581" user="Lobelt" changeset="6862399" lat="50.7467383" lon="11.6726412"/>
  <node id="300616259" version="2" timestamp="2011-01-04T16:16:29Z" uid="9581" user="Lobelt" changeset="6862399" lat="50.7466136" lon="11.6718119"/>
  <node id="300616260" version="2" timestamp="2011-01-04T16:14:56Z" uid="9581" user="Lobelt" changeset="6862399" lat="50.746542" lon="11.6710479"/>
  <node id="300616261" version="2" timestamp="2011-01-04T16:23:23Z" uid="9581" user="Lobelt" changeset="6862399" lat="50.7465062" lon="11.6692932"/>
  <node id="300616262" version="2" timestamp="2011-01-04T16:13:07Z" uid="9581" user="Lobelt" changeset="6862399" lat="50.7463987" lon="11.6684815"/>
  <node id="300616263" version="2" timestamp="2011-01-04T16:21:08Z" uid="9581" user="Lobelt" changeset="6862399" lat="50.7465062" lon="11.667264"/>
  <node id="300616264" version="2" timestamp="2011-01-04T16:16:02Z" uid="9581" user="Lobelt" changeset="6862399" lat="50.7466614" lon="11.6658673"/>
  <node id="300616265" version="2" timestamp="2011-01-04T16:24:22Z" uid="9581" user="Lobelt" changeset="6862399" lat="50.7470075" lon="11.6635158"/>
  <node id="300616267" version="2" timestamp="2011-01-04T16:22:23Z" uid="9581" user="Lobelt" changeset="6862399" lat="50.7471627" lon="11.6621669"/>
  <node id="300616268" version="2" timestamp="2011-01-04T16:20:39Z" uid="9581" user="Lobelt" changeset="6862399" lat="50.7473298" lon="11.6605913"/>
  <node id="300616269" version="2" timestamp="2011-01-04T16:14:35Z" uid="9581" user="Lobelt" changeset="6862399" lat="50.7475327" lon="11.660269"/>
  <node id="300616270" version="2" timestamp="2011-01-04T16:18:11Z" uid="9581" user="Lobelt" changeset="6862399" lat="50.7481893" lon="11.6593976"/>
  <node id="300616272" version="2" timestamp="2011-01-04T16:21:55Z" uid="9581" user="Lobelt" changeset="6862399" lat="50.7484877" lon="11.6591231"/>
  <node id="300616273" version="2" timestamp="2011-01-04T16:15:38Z" uid="9581" user="Lobelt" changeset="6862399" lat="50.7487067" lon="11.659046"/>
  <node id="300616274" version="2" timestamp="2011-01-04T16:19:23Z" uid="9581" user="Lobelt" changeset="6862399" lat="50.7489023" lon="11.6591516"/>
  <node id="300616275" version="2" timestamp="2011-01-04T16:13:28Z" uid="9581" user="Lobelt" changeset="6862399" lat="50.7490079" lon="11.6593198"/>
  <node id="300616276" version="2" timestamp="2011-01-04T16:25:49Z" uid="9581" user="Lobelt" changeset="6862399" lat="50.7491057" lon="11.6596053"/>
  <node id="300616277" version="2" timestamp="2011-01-04T16:20:04Z" uid="9581" user="Lobelt" changeset="6862399" lat="50.7491957" lon="11.6600942"/>
  <node id="300616278" version="2" timestamp="2011-01-04T16:24:03Z" uid="9581" user="Lobelt" changeset="6862399" lat="50.7492622" lon="11.6605088"/>
  <node id="300616279" version="2" timestamp="2011-01-04T16:17:41Z" uid="9581" user="Lobelt" changeset="6862399" lat="50.7495901" lon="11.6618917"/>
  <node id="300616280" version="2" timestamp="2011-01-04T16:13:12Z" uid="9581" user="Lobelt" changeset="6862399" lat="50.7499055" lon="11.6632816"/>
  <node id="300616281" version="2" timestamp="2011-01-04T16:21:15Z" uid="9581" user="Lobelt" changeset="6862399" lat="50.7502559" lon="11.6648233"/>
  <node id="300616282" version="2" timestamp="2011-01-04T16:24:56Z" uid="9581" user="Lobelt" changeset="6862399" lat="50.7507114" lon="11.6668789"/>
  <node id="300616283" version="2" timestamp="2011-01-04T16:18:47Z" uid="9581" user="Lobelt" changeset="6862399" lat="50.7507815" lon="11.6672133"/>
  <node id="300616284" version="2" timestamp="2011-01-04T16:17:09Z" uid="9581" user="Lobelt" changeset="6862399" lat="50.7509501" lon="11.6678358"/>
  <node id="300616285" version="2" timestamp="2011-01-04T16:25:18Z" uid="9581" user="Lobelt" changeset="6862399" lat="50.7510018" lon="11.6678922"/>
  <node id="300617550" version="1" timestamp="2008-09-28T16:26:53Z" uid="49111" user="Markus B" changeset="709999" lat="49.6030279" lon="11.3474134"/>
  <node id="300617550" version="2" timestamp="2008-10-19T11:31:27Z" uid="49111" user="Markus B" changeset="442639" lat="49.6030279" lon="11.3474134"/>
  <node id="300617550" version="3" timestamp="2012-03-13T20:34:20Z" uid="82877" user="Wankmann" changeset="10971617" lat="49.6029901" lon="11.347466"/>
  <node id="300617554" version="1" timestamp="2008-09-28T16:26:54Z" uid="49111" user="Markus B" changeset="709999" lat="49.6015484" lon="11.3493347"/>
  <node id="300617554" version="2" timestamp="2008-10-19T11:33:02Z" uid="49111" user="Markus B" changeset="442639" lat="49.6015455" lon="11.349289"/>
  <node id="300617557" version="1" timestamp="2008-09-28T16:26:54Z" uid="49111" user="Markus B" changeset="709999" lat="49.6013042" lon="11.3496436"/>
  <node id="300617557" version="2" timestamp="2008-10-19T11:33:02Z" uid="49111" user="Markus B" changeset="442639" lat="49.6013042" lon="11.3496436"/>
  <node id="300617560" version="1" timestamp="2008-09-28T16:26:54Z" uid="49111" user="Markus B" changeset="709999" lat="49.6008403" lon="11.3504046"/>
  <node id="300617560" version="2" timestamp="2008-10-19T11:33:02Z" uid="49111" user="Markus B" changeset="442639" lat="49.6008403" lon="11.3504046"/>
  <node id="300617562" version="1" timestamp="2008-09-28T16:26:55Z" uid="49111" user="Markus B" changeset="709999" lat="49.6004399" lon="11.3505779"/>
  <node id="300617562" version="2" timestamp="2008-10-19T11:33:02Z" uid="49111" user="Markus B" changeset="442639" lat="49.6004399" lon="11.3505779"/>
  <node id="300617564" version="1" timestamp="2008-09-28T16:26:55Z" uid="49111" user="Markus B" changeset="709999" lat="49.600103" lon="11.3508114"/>
  <node id="300617564" version="2" timestamp="2008-10-19T11:33:02Z" uid="49111" user="Markus B" changeset="442639" lat="49.600103" lon="11.3508114"/>
  <node id="300617567" version="1" timestamp="2008-09-28T16:26:55Z" uid="49111" user="Markus B" changeset="709999" lat="49.6000004" lon="11.3509772"/>
  <node id="300617567" version="2" timestamp="2008-10-19T11:33:02Z" uid="49111" user="Markus B" changeset="442639" lat="49.6000004" lon="11.3509772"/>
  <node id="300617568" version="1" timestamp="2008-09-28T16:26:55Z" uid="49111" user="Markus B" changeset="709999" lat="49.5994144" lon="11.3528608"/>
  <node id="300617568" version="2" timestamp="2008-10-19T11:33:02Z" uid="49111" user="Markus B" changeset="442639" lat="49.5994144" lon="11.3528608"/>
  <node id="300617568" version="3" timestamp="2010-06-21T18:51:08Z" uid="82877" user="Wankmann" changeset="5045189" lat="49.5995586" lon="11.3518923"/>
  <node id="300617568" version="4" timestamp="2010-06-21T18:58:24Z" uid="82877" user="Wankmann" changeset="5045328" lat="49.5996693" lon="11.3517665"/>
  <node id="300617571" version="1" timestamp="2008-09-28T16:26:55Z" uid="49111" user="Markus B" changeset="709999" lat="49.5994242" lon="11.3529814"/>
  <node id="300617571" version="2" timestamp="2008-10-19T11:33:02Z" uid="49111" user="Markus B" changeset="442639" lat="49.5994242" lon="11.3529814"/>
  <node id="300617571" version="3" timestamp="2010-06-21T18:50:59Z" uid="82877" user="Wankmann" changeset="5045189" lat="49.5993291" lon="11.3525253"/>
  <node id="300617571" version="4" timestamp="2010-06-21T18:58:35Z" uid="82877" user="Wankmann" changeset="5045328" lat="49.5994048" lon="11.352732"/>
  <node id="300617573" version="1" timestamp="2008-09-28T16:26:56Z" uid="49111" user="Markus B" changeset="709999" lat="49.5992093" lon="11.3532978"/>
  <node id="300617573" version="2" timestamp="2008-10-19T11:33:02Z" uid="49111" user="Markus B" changeset="442639" lat="49.5992093" lon="11.3532978"/>
  <node id="300617576" version="1" timestamp="2008-09-28T16:26:56Z" uid="49111" user="Markus B" changeset="709999" lat="49.5993748" lon="11.3536447"/>
  <node id="300617576" version="2" timestamp="2008-10-19T11:33:03Z" uid="49111" user="Markus B" changeset="442639" lat="49.5993748" lon="11.3536447"/>
  <node id="300617579" version="1" timestamp="2008-09-28T16:26:57Z" uid="49111" user="Markus B" changeset="709999" lat="49.5999665" lon="11.3543135"/>
  <node id="300617579" version="2" timestamp="2008-10-19T11:33:03Z" uid="49111" user="Markus B" changeset="442639" lat="49.5999665" lon="11.3543135"/>
  <node id="300617579" version="3" timestamp="2008-11-03T22:34:43Z" uid="49111" user="Markus B" changeset="669923" lat="49.5999353" lon="11.354352"/>
  <node id="300617582" version="1" timestamp="2008-09-28T16:26:57Z" uid="49111" user="Markus B" changeset="709999" lat="49.6003724" lon="11.3545364"/>
  <node id="300617582" version="2" timestamp="2008-10-19T11:33:03Z" uid="49111" user="Markus B" changeset="442639" lat="49.6003724" lon="11.3545364"/>
  <node id="300617582" version="3" timestamp="2008-11-03T22:34:43Z" uid="49111" user="Markus B" changeset="669923" lat="49.6003474" lon="11.3546327"/>
  <node id="300617582" version="4" timestamp="2009-05-02T19:27:16Z" uid="49111" user="Markus B" changeset="1053020" lat="49.6003488" lon="11.3546503"/>
  <node id="300617583" version="1" timestamp="2008-09-28T16:26:57Z" uid="49111" user="Markus B" changeset="709999" lat="49.6007302" lon="11.3546744"/>
  <node id="300617583" version="2" timestamp="2008-10-19T11:33:03Z" uid="49111" user="Markus B" changeset="442639" lat="49.6007302" lon="11.3546744"/>
  <node id="300617583" version="3" timestamp="2008-11-03T22:34:43Z" uid="49111" user="Markus B" changeset="669923" lat="49.6007364" lon="11.3547899"/>
  <node id="300617585" version="1" timestamp="2008-09-28T16:26:57Z" uid="49111" user="Markus B" changeset="709999" lat="49.6009091" lon="11.3548549"/>
  <node id="300617585" version="2" timestamp="2008-10-19T11:33:03Z" uid="49111" user="Markus B" changeset="442639" lat="49.6009091" lon="11.3548549"/>
  <node id="300617587" version="1" timestamp="2008-09-28T16:26:57Z" uid="49111" user="Markus B" changeset="709999" lat="49.6013236" lon="11.3553696"/>
  <node id="300617587" version="2" timestamp="2008-10-19T11:33:03Z" uid="49111" user="Markus B" changeset="442639" lat="49.6013236" lon="11.3553696"/>
  <node id="300617588" version="1" timestamp="2008-09-28T16:26:57Z" uid="49111" user="Markus B" changeset="709999" lat="49.6019154" lon="11.3557664"/>
  <node id="300617588" version="2" timestamp="2008-10-19T11:33:03Z" uid="49111" user="Markus B" changeset="442639" lat="49.6019154" lon="11.3557664"/>
  <node id="300617590" version="1" timestamp="2008-09-28T16:26:58Z" uid="49111" user="Markus B" changeset="709999" lat="49.6021232" lon="11.3559838"/>
  <node id="300617590" version="2" timestamp="2008-10-19T11:33:03Z" uid="49111" user="Markus B" changeset="442639" lat="49.6021232" lon="11.3559838"/>
  <node id="300617591" version="1" timestamp="2008-09-28T16:26:58Z" uid="49111" user="Markus B" changeset="709999" lat="49.6024367" lon="11.3564838"/>
  <node id="300617591" version="2" timestamp="2008-10-19T11:33:03Z" uid="49111" user="Markus B" changeset="442639" lat="49.6024367" lon="11.3564838"/>
  <node id="300617593" version="1" timestamp="2008-09-28T16:26:58Z" uid="49111" user="Markus B" changeset="709999" lat="49.6027502" lon="11.3572719"/>
  <node id="300617593" version="2" timestamp="2008-10-19T11:33:03Z" uid="49111" user="Markus B" changeset="442639" lat="49.6027502" lon="11.3572719"/>
  <node id="300617594" version="1" timestamp="2008-09-28T16:26:58Z" uid="49111" user="Markus B" changeset="709999" lat="49.6008903" lon="11.3612187"/>
  <node id="300617594" version="2" timestamp="2008-11-03T22:34:43Z" uid="49111" user="Markus B" changeset="669923" lat="49.6009341" lon="11.3612617"/>
  <node id="300617594" version="3" timestamp="2009-03-05T16:18:46Z" uid="89943" user="Bengatzer" changeset="738791" lat="49.6009169" lon="11.361222"/>
  <node id="300617596" version="1" timestamp="2008-09-28T16:26:58Z" uid="49111" user="Markus B" changeset="709999" lat="49.6015828" lon="11.3603937"/>
  <node id="300617596" version="2" timestamp="2008-11-03T22:34:44Z" uid="49111" user="Markus B" changeset="669923" lat="49.601539" lon="11.3602585"/>
  <node id="300617598" version="1" timestamp="2008-09-28T16:26:59Z" uid="49111" user="Markus B" changeset="709999" lat="49.6012672" lon="11.3605831"/>
  <node id="300617599" version="1" timestamp="2008-09-28T16:26:59Z" uid="49111" user="Markus B" changeset="709999" lat="49.5638456" lon="11.3199189"/>
  <node id="300617599" version="2" timestamp="2010-05-05T18:48:49Z" uid="82877" user="Wankmann" changeset="4615595" lat="49.563969" lon="11.3197063"/>
  <node id="300617599" version="3" timestamp="2011-01-18T21:32:05Z" uid="82877" user="Wankmann" changeset="7015232" lat="49.5639723" lon="11.319773"/>
  <node id="300617602" version="1" timestamp="2008-09-28T16:26:59Z" uid="49111" user="Markus B" changeset="709999" lat="49.5638151" lon="11.3200403"/>
  <node id="300617604" version="1" timestamp="2008-09-28T16:26:59Z" uid="49111" user="Markus B" changeset="709999" lat="49.5664908" lon="11.3384009"/>
  <node id="300617604" version="2" timestamp="2008-10-19T20:59:40Z" uid="49111" user="Markus B" changeset="452407" lat="49.5664591" lon="11.3385145"/>
  <node id="300617604" version="3" timestamp="2008-10-19T20:59:41Z" uid="49111" user="Markus B" changeset="452407" lat="49.5664591" lon="11.3385145"/>
  <node id="300617604" version="4" timestamp="2008-11-12T22:14:23Z" uid="49111" user="Markus B" changeset="740167" lat="49.5664138" lon="11.338631"/>
  <node id="300617604" version="5" timestamp="2011-02-05T19:37:19Z" uid="82877" user="Wankmann" changeset="7196405" lat="49.5665015" lon="11.3385763"/>
  <node id="300617607" version="1" timestamp="2008-09-28T16:26:59Z" uid="49111" user="Markus B" changeset="709999" lat="49.5660345" lon="11.3356598"/>
  <node id="300617607" version="2" timestamp="2008-10-19T20:59:40Z" uid="49111" user="Markus B" changeset="452407" lat="49.5660345" lon="11.3356598"/>
  <node id="300617607" version="3" timestamp="2008-11-12T22:14:23Z" uid="49111" user="Markus B" changeset="740167" lat="49.5659589" lon="11.3356947"/>
  <node id="300617607" version="4" timestamp="2009-05-09T17:11:14Z" uid="49111" user="Markus B" changeset="1129909" lat="49.5659175" lon="11.3355438"/>
  <node id="300617607" version="5" timestamp="2011-11-05T22:43:52Z" uid="82877" user="Wankmann" changeset="9751353" lat="49.5659416" lon="11.3355419"/>
  <node id="300617610" version="1" timestamp="2008-09-28T16:27:00Z" uid="49111" user="Markus B" changeset="709999" lat="49.5660975" lon="11.3338769"/>
  <node id="300617610" version="2" timestamp="2008-10-19T20:59:40Z" uid="49111" user="Markus B" changeset="452407" lat="49.5660975" lon="11.3338769"/>
  <node id="300617610" version="3" timestamp="2008-11-12T22:14:23Z" uid="49111" user="Markus B" changeset="740167" lat="49.5660068" lon="11.3338653"/>
  <node id="300617612" version="1" timestamp="2008-09-28T16:27:00Z" uid="49111" user="Markus B" changeset="709999" lat="49.566302" lon="11.3325185"/>
  <node id="300617612" version="2" timestamp="2008-10-19T20:59:40Z" uid="49111" user="Markus B" changeset="452407" lat="49.566302" lon="11.3325185"/>
  <node id="300617612" version="3" timestamp="2009-06-20T17:33:08Z" uid="49111" user="Markus B" changeset="1576826" lat="49.5662358" lon="11.3324796"/>
  <node id="300617615" version="1" timestamp="2008-09-28T16:27:00Z" uid="49111" user="Markus B" changeset="709999" lat="49.568591" lon="11.3347987"/>
  <node id="300617615" version="2" timestamp="2008-10-19T20:59:40Z" uid="49111" user="Markus B" changeset="452407" lat="49.568591" lon="11.3347987"/>
  <node id="300617615" version="3" timestamp="2009-03-07T20:43:17Z" uid="89943" user="Bengatzer" changeset="754814" lat="49.5688164" lon="11.3364235"/>
  <node id="300617615" version="4" timestamp="2009-06-20T13:41:56Z" uid="49111" user="Markus B" changeset="1574798" lat="49.5701766" lon="11.3355724"/>
  <node id="300617615" version="5" timestamp="2011-11-05T22:43:52Z" uid="82877" user="Wankmann" changeset="9751353" lat="49.570255" lon="11.3352946"/>
  <node id="300617616" version="1" timestamp="2008-09-28T16:27:00Z" uid="49111" user="Markus B" changeset="709999" lat="49.5686303" lon="11.337564"/>
  <node id="300617616" version="2" timestamp="2008-10-19T20:59:41Z" uid="49111" user="Markus B" changeset="452407" lat="49.5686303" lon="11.337564"/>
  <node id="300617616" version="3" timestamp="2009-06-20T13:41:56Z" uid="49111" user="Markus B" changeset="1574798" lat="49.5693636" lon="11.3379531"/>
  <node id="300617616" version="4" timestamp="2010-05-22T18:46:59Z" uid="82877" user="Wankmann" changeset="4777102" lat="49.569521" lon="11.338061"/>
  <node id="300617616" version="5" timestamp="2011-11-05T22:43:53Z" uid="82877" user="Wankmann" changeset="9751353" lat="49.5694485" lon="11.3363296"/>
  <node id="300617618" version="1" timestamp="2008-09-28T16:27:00Z" uid="49111" user="Markus B" changeset="709999" lat="49.5680719" lon="11.3375397"/>
  <node id="300617618" version="2" timestamp="2008-10-19T20:59:41Z" uid="49111" user="Markus B" changeset="452407" lat="49.5680719" lon="11.3375397"/>
  <node id="300617618" version="3" timestamp="2008-11-12T22:14:23Z" uid="49111" user="Markus B" changeset="740167" lat="49.5681626" lon="11.3378426"/>
  <node id="300617618" version="4" timestamp="2009-06-20T13:41:56Z" uid="49111" user="Markus B" changeset="1574798" lat="49.568135" lon="11.3379459"/>
  <node id="300617618" version="5" timestamp="2011-11-05T22:43:53Z" uid="82877" user="Wankmann" changeset="9751353" lat="49.5675598" lon="11.3381663"/>
  <node id="300617620" version="1" timestamp="2008-09-28T16:27:00Z" uid="49111" user="Markus B" changeset="709999" lat="49.5659087" lon="11.3364923"/>
  <node id="300617620" version="2" timestamp="2008-10-19T21:00:36Z" uid="49111" user="Markus B" changeset="452407" lat="49.5658746" lon="11.3364117"/>
  <node id="300617620" version="3" timestamp="2008-11-18T21:25:17Z" uid="62236" user="Paulchen Panther" changeset="766128" lat="49.5658746" lon="11.3364117"/>
  <node id="300617620" version="4" timestamp="2011-01-07T13:47:50Z" uid="82877" user="Wankmann" changeset="6892831" lat="49.565895" lon="11.3364078"/>
  <node id="300617620" version="5" timestamp="2011-02-05T19:47:57Z" uid="82877" user="Wankmann" changeset="7196498" lat="49.5659093" lon="11.3364372"/>
  <node id="300617623" version="1" timestamp="2008-09-28T16:27:00Z" uid="49111" user="Markus B" changeset="709999" lat="49.565808" lon="11.3346449"/>
  <node id="300617623" version="2" timestamp="2008-10-19T17:14:52Z" uid="44623" user="office-partner" changeset="451767" lat="49.565808" lon="11.3346449"/>
  <node id="300617623" version="3" timestamp="2008-10-19T21:00:36Z" uid="49111" user="Markus B" changeset="452407" lat="49.565808" lon="11.3346449"/>
  <node id="300617623" version="4" timestamp="2008-11-18T21:25:16Z" uid="62236" user="Paulchen Panther" changeset="766128" lat="49.565808" lon="11.3346449"/>
  <node id="300617623" version="5" timestamp="2011-02-05T19:37:33Z" uid="82877" user="Wankmann" changeset="7196405" lat="49.5658189" lon="11.3346112"/>
  <node id="300617623" version="6" timestamp="2011-02-05T19:48:02Z" uid="82877" user="Wankmann" changeset="7196498" lat="49.5658523" lon="11.3346601"/>
  <node id="300617626" version="1" timestamp="2008-09-28T16:27:01Z" uid="49111" user="Markus B" changeset="709999" lat="49.5647457" lon="11.3306939"/>
  <node id="300617626" version="2" timestamp="2008-11-18T21:24:34Z" uid="62236" user="Paulchen Panther" changeset="766128" lat="49.5647984" lon="11.3309142"/>
  <node id="300617629" version="1" timestamp="2008-09-28T16:27:01Z" uid="49111" user="Markus B" changeset="709999" lat="49.5650327" lon="11.3294907"/>
  <node id="300617629" version="2" timestamp="2008-11-18T21:25:41Z" uid="62236" user="Paulchen Panther" changeset="766128" lat="49.5650327" lon="11.3294907"/>
  <node id="300617631" version="1" timestamp="2008-09-28T16:27:01Z" uid="49111" user="Markus B" changeset="709999" lat="49.5647054" lon="11.3297313"/>
  <node id="300617631" version="2" timestamp="2008-11-18T21:25:41Z" uid="62236" user="Paulchen Panther" changeset="766128" lat="49.5646815" lon="11.3297297"/>
  <node id="300617633" version="1" timestamp="2008-09-28T16:27:01Z" uid="49111" user="Markus B" changeset="709999" lat="49.5645594" lon="11.3290871"/>
  <node id="300617633" version="2" timestamp="2008-11-18T21:24:11Z" uid="62236" user="Paulchen Panther" changeset="766128" lat="49.5644533" lon="11.3290688"/>
  <node id="300617633" version="3" timestamp="2008-11-18T21:24:34Z" uid="62236" user="Paulchen Panther" changeset="766128" lat="49.5644533" lon="11.3290688"/>
  <node id="300617634" version="1" timestamp="2008-09-28T16:27:01Z" uid="49111" user="Markus B" changeset="709999" lat="49.5659993" lon="11.3364846"/>
  <node id="300617634" version="2" timestamp="2008-10-19T21:00:45Z" uid="49111" user="Markus B" changeset="452407" lat="49.5659492" lon="11.3364589"/>
  <node id="300617634" version="3" timestamp="2009-05-09T17:11:14Z" uid="49111" user="Markus B" changeset="1129909" lat="49.5659341" lon="11.3363545"/>
  <node id="300617634" version="4" timestamp="2011-11-05T22:43:53Z" uid="82877" user="Wankmann" changeset="9751353" lat="49.5659666" lon="11.3363452"/>
  <node id="300617636" version="1" timestamp="2008-09-28T16:27:01Z" uid="49111" user="Markus B" changeset="709999" lat="49.5659238" lon="11.3355453"/>
  <node id="300617636" version="2" timestamp="2008-10-19T21:00:46Z" uid="49111" user="Markus B" changeset="452407" lat="49.5658737" lon="11.3355196"/>
  <node id="300617636" version="3" timestamp="2009-05-09T17:11:14Z" uid="49111" user="Markus B" changeset="1129909" lat="49.5658812" lon="11.3355254"/>
  <node id="300617636" version="4" timestamp="2011-11-05T22:43:53Z" uid="82877" user="Wankmann" changeset="9751353" lat="49.5659149" lon="11.335531"/>
  <node id="300617637" version="1" timestamp="2008-09-28T16:27:01Z" uid="49111" user="Markus B" changeset="709999" lat="49.5663531" lon="11.3385927"/>
  <node id="300617637" version="2" timestamp="2008-10-19T21:01:01Z" uid="49111" user="Markus B" changeset="452407" lat="49.5663033" lon="11.3386089"/>
  <node id="300617637" version="3" timestamp="2008-10-19T21:01:08Z" uid="49111" user="Markus B" changeset="452407" lat="49.5663033" lon="11.3386089"/>
  <node id="300617637" version="4" timestamp="2011-02-05T19:37:30Z" uid="82877" user="Wankmann" changeset="7196405" lat="49.5663784" lon="11.3384542"/>
  <node id="300617637" version="5" timestamp="2011-12-13T23:27:43Z" uid="82877" user="Wankmann" changeset="10112230" lat="49.5663784" lon="11.3384542"/>
  <node id="300617639" version="1" timestamp="2008-09-28T16:27:02Z" uid="49111" user="Markus B" changeset="709999" lat="49.5649653" lon="11.3396197"/>
  <node id="300617640" version="1" timestamp="2008-09-28T16:27:02Z" uid="49111" user="Markus B" changeset="709999" lat="49.562901" lon="11.3400712"/>
  <node id="300617640" version="2" timestamp="2008-10-10T11:04:20Z" uid="44623" user="office-partner" changeset="214264" lat="49.562901" lon="11.3400712"/>
  <node id="300617640" version="3" timestamp="2008-10-10T11:05:40Z" uid="44623" user="office-partner" changeset="214264" lat="49.562901" lon="11.3400712"/>
  <node id="300617640" version="4" timestamp="2008-10-19T17:10:29Z" uid="44623" user="office-partner" changeset="451767" lat="49.562901" lon="11.3400712"/>
  <node id="300617640" version="5" timestamp="2008-10-19T17:10:48Z" uid="44623" user="office-partner" changeset="451767" lat="49.562901" lon="11.3400712"/>
  <node id="300617640" version="6" timestamp="2009-03-07T19:55:39Z" uid="89943" user="Bengatzer" changeset="754814" lat="49.5628815" lon="11.3401162"/>
  <node id="300617640" version="7" timestamp="2010-12-18T18:03:39Z" uid="82877" user="Wankmann" changeset="6698627" lat="49.5628815" lon="11.3400609"/>
  <node id="300617642" version="1" timestamp="2008-09-28T16:27:02Z" uid="49111" user="Markus B" changeset="709999" lat="49.557333" lon="11.3400019"/>
  <node id="300617642" version="2" timestamp="2009-12-10T21:56:54Z" uid="45952" user="plexi32" changeset="3344660" lat="49.5573747" lon="11.3400019"/>
  <node id="300617642" version="3" timestamp="2010-06-18T14:13:48Z" uid="82877" user="Wankmann" changeset="5016643" lat="49.5573386" lon="11.3399787"/>
  <node id="300617644" version="1" timestamp="2008-09-28T16:27:02Z" uid="49111" user="Markus B" changeset="709999" lat="49.557237" lon="11.3402291"/>
  <node id="300617644" version="2" timestamp="2008-10-24T11:42:35Z" uid="49111" user="Markus B" changeset="547634" lat="49.5571872" lon="11.3402086"/>
  <node id="300617644" version="3" timestamp="2009-12-10T21:56:54Z" uid="45952" user="plexi32" changeset="3344660" lat="49.5572289" lon="11.3402086"/>
  <node id="300617645" version="1" timestamp="2008-09-28T16:27:02Z" uid="49111" user="Markus B" changeset="709999" lat="49.5571719" lon="11.3412755"/>
  <node id="300617645" version="2" timestamp="2008-10-24T11:42:35Z" uid="49111" user="Markus B" changeset="547634" lat="49.5570877" lon="11.341282"/>
  <node id="300617645" version="3" timestamp="2009-12-04T14:15:18Z" uid="202720" user="RudolfHell" changeset="3288429" lat="49.5570843" lon="11.341181"/>
  <node id="300617645" version="4" timestamp="2009-12-10T21:56:54Z" uid="45952" user="plexi32" changeset="3344660" lat="49.5571676" lon="11.341181"/>
  <node id="300617645" version="5" timestamp="2010-06-03T06:16:41Z" uid="82877" user="Wankmann" changeset="4889613" lat="49.5571582" lon="11.3412994"/>
  <node id="300617645" version="6" timestamp="2010-06-06T17:25:39Z" uid="82877" user="Wankmann" changeset="4920291" lat="49.557172" lon="11.3412918"/>
  <node id="300617645" version="7" timestamp="2010-08-07T09:34:59Z" uid="82877" user="Wankmann" changeset="5423076" lat="49.557175" lon="11.3412162"/>
  <node id="300617645" version="8" timestamp="2011-01-06T23:51:54Z" uid="82877" user="Wankmann" changeset="6888523" lat="49.5571764" lon="11.3411869"/>
  <node id="300617647" version="1" timestamp="2008-09-28T16:27:03Z" uid="49111" user="Markus B" changeset="709999" lat="49.5557991" lon="11.3360582">
    <tag k="shop" v="bakery"/>
  </node>
  <node id="300617647" version="2" timestamp="2010-06-03T05:42:25Z" uid="82877" user="Wankmann" changeset="4889518" lat="49.5557991" lon="11.3360582">
    <tag k="shop" v="bakery"/>
  </node>
  <node id="300617649" version="1" timestamp="2008-09-28T16:27:03Z" uid="49111" user="Markus B" changeset="709999" lat="49.5844369" lon="11.3583568"/>
  <node id="300617649" version="2" timestamp="2008-10-19T11:48:21Z" uid="49111" user="Markus B" changeset="442639" lat="49.5844369" lon="11.3583568"/>
  <node id="300617649" version="3" timestamp="2008-10-19T11:49:35Z" uid="49111" user="Markus B" changeset="442639" lat="49.5844369" lon="11.3583568"/>
  <node id="300617649" version="4" timestamp="2008-10-19T11:51:18Z" uid="49111" user="Markus B" changeset="442639" lat="49.5844369" lon="11.3583568"/>
  <node id="300617649" version="5" timestamp="2008-10-19T11:51:28Z" uid="49111" user="Markus B" changeset="442639" lat="49.5844369" lon="11.3583568"/>
  <node id="300617649" version="6" timestamp="2008-11-18T21:23:16Z" uid="62236" user="Paulchen Panther" changeset="766128" lat="49.5844369" lon="11.3583568"/>
  <node id="300617649" version="7" timestamp="2008-12-29T21:33:51Z" uid="44217" user="kjon" changeset="663733" lat="49.5844369" lon="11.3583568"/>
  <node id="300617667" version="1" timestamp="2008-09-28T16:27:06Z" uid="49111" user="Markus B" changeset="709999" lat="49.5845166" lon="11.3582339"/>
  <node id="300617667" version="2" timestamp="2008-12-21T10:02:05Z" uid="62236" user="Paulchen Panther" changeset="512396" lat="49.5845166" lon="11.3582339"/>
  <node id="300617668" version="1" timestamp="2008-09-28T16:27:06Z" uid="49111" user="Markus B" changeset="709999" lat="49.5863262" lon="11.3600188"/>
  <node id="300617668" version="2" timestamp="2008-10-19T11:50:37Z" uid="49111" user="Markus B" changeset="442639" lat="49.5863262" lon="11.3600188"/>
  <node id="300617668" version="3" timestamp="2008-10-19T11:53:39Z" uid="49111" user="Markus B" changeset="442639" lat="49.5863262" lon="11.3600188"/>
  <node id="300617668" version="4" timestamp="2008-12-05T05:55:13Z" uid="9364" user="keichwa" changeset="131522" lat="49.5863262" lon="11.3600188"/>
  <node id="300617668" version="5" timestamp="2008-12-21T09:45:27Z" uid="62236" user="Paulchen Panther" changeset="512396" lat="49.5863262" lon="11.3600188"/>
  <node id="300617668" version="6" timestamp="2008-12-21T09:47:57Z" uid="62236" user="Paulchen Panther" changeset="512396" lat="49.5863262" lon="11.3600188"/>
  <node id="300617668" version="7" timestamp="2008-12-21T09:48:50Z" uid="62236" user="Paulchen Panther" changeset="512396" lat="49.5863262" lon="11.3600188"/>
  <node id="300617668" version="8" timestamp="2008-12-21T09:50:44Z" uid="62236" user="Paulchen Panther" changeset="512396" lat="49.5863262" lon="11.3600188"/>
  <node id="300617668" version="9" timestamp="2008-12-21T10:00:29Z" uid="62236" user="Paulchen Panther" changeset="512396" lat="49.5863262" lon="11.3600188"/>
  <node id="300617668" version="10" timestamp="2008-12-21T10:01:02Z" uid="62236" user="Paulchen Panther" changeset="512396" lat="49.5863262" lon="11.3600188"/>
  <node id="300617668" version="11" timestamp="2008-12-21T10:01:59Z" uid="62236" user="Paulchen Panther" changeset="512396" lat="49.5863246" lon="11.3602237"/>
  <node id="300617668" version="12" timestamp="2008-12-21T10:02:21Z" uid="62236" user="Paulchen Panther" changeset="512396" lat="49.5863246" lon="11.3602237"/>
  <node id="300617668" version="13" timestamp="2008-12-29T21:32:49Z" uid="44217" user="kjon" changeset="663733" lat="49.5863246" lon="11.3602237"/>
  <node id="300617668" version="14" timestamp="2009-03-20T12:32:06Z" uid="89943" user="Bengatzer" changeset="835408" lat="49.586322" lon="11.3601802"/>
  <node id="300617668" version="15" timestamp="2009-03-23T22:33:17Z" uid="104868" user="peterjk71" changeset="851801" lat="49.586322" lon="11.3601802"/>
  <node id="300617668" version="16" timestamp="2009-03-23T22:34:10Z" uid="104868" user="peterjk71" changeset="851801" lat="49.586322" lon="11.3601802"/>
  <node id="300617668" version="17" timestamp="2010-12-11T19:50:58Z" uid="82877" user="Wankmann" changeset="6628754" lat="49.5863592" lon="11.3601085"/>
  <node id="300617668" version="18" timestamp="2011-01-27T10:11:32Z" uid="82877" user="Wankmann" changeset="7101886" lat="49.5863926" lon="11.360142"/>
  <node id="300617670" version="1" timestamp="2008-09-28T16:27:06Z" uid="49111" user="Markus B" changeset="709999" lat="49.5865977" lon="11.3607291"/>
  <node id="300617670" version="2" timestamp="2008-10-19T11:50:37Z" uid="49111" user="Markus B" changeset="442639" lat="49.5865977" lon="11.3607291"/>
  <node id="300617670" version="3" timestamp="2008-10-19T11:53:39Z" uid="49111" user="Markus B" changeset="442639" lat="49.5865977" lon="11.3607291"/>
  <node id="300617670" version="4" timestamp="2008-12-05T05:55:13Z" uid="9364" user="keichwa" changeset="131522" lat="49.5865977" lon="11.3607291"/>
  <node id="300617670" version="5" timestamp="2008-12-21T09:45:27Z" uid="62236" user="Paulchen Panther" changeset="512396" lat="49.5865977" lon="11.3607291"/>
  <node id="300617670" version="6" timestamp="2008-12-21T09:47:57Z" uid="62236" user="Paulchen Panther" changeset="512396" lat="49.5865977" lon="11.3607291"/>
  <node id="300617670" version="7" timestamp="2008-12-21T09:48:50Z" uid="62236" user="Paulchen Panther" changeset="512396" lat="49.5865977" lon="11.3607291"/>
  <node id="300617670" version="8" timestamp="2008-12-21T09:50:45Z" uid="62236" user="Paulchen Panther" changeset="512396" lat="49.5865977" lon="11.3607291"/>
  <node id="300617670" version="9" timestamp="2008-12-21T10:00:29Z" uid="62236" user="Paulchen Panther" changeset="512396" lat="49.5865977" lon="11.3607291"/>
  <node id="300617670" version="10" timestamp="2008-12-21T10:01:02Z" uid="62236" user="Paulchen Panther" changeset="512396" lat="49.5865977" lon="11.3607291"/>
  <node id="300617670" version="11" timestamp="2008-12-21T10:02:02Z" uid="62236" user="Paulchen Panther" changeset="512396" lat="49.5865977" lon="11.3607291"/>
  <node id="300618090" version="4" timestamp="2009-09-30T16:08:14Z" uid="36809" user="pfoten_weg_!_" changeset="2690373" lat="47.8024562" lon="11.1941216"/>
  <node id="300610196" version="3" timestamp="2012-08-06T22:41:37Z" uid="58095" user="BudBundi" changeset="12639880" lat="53.0591452" lon="9.017216"/>
  <node id="300610210" version="2" timestamp="2012-07-19T02:30:09Z" uid="722137" user="OSMF Redaction Account" changeset="12305170" lat="53.0608076" lon="9.0212845"/>
  <node id="300610211" version="3" timestamp="2012-08-07T05:36:13Z" uid="58095" user="BudBundi" changeset="12641321" lat="53.0608064" lon="9.0217649"/>
  <node id="300610212" version="2" timestamp="2012-07-19T02:30:09Z" uid="722137" user="OSMF Redaction Account" changeset="12305170" lat="53.0608292" lon="9.0221926"/>
  <node id="300610213" version="3" timestamp="2012-08-07T05:36:11Z" uid="58095" user="BudBundi" changeset="12641321" lat="53.0608757" lon="9.0224708"/>
  <node id="300610216" version="3" timestamp="2012-08-07T05:36:11Z" uid="58095" user="BudBundi" changeset="12641321" lat="53.0611197" lon="9.021594"/>
  <node id="300610217" version="3" timestamp="2012-07-19T02:27:00Z" uid="722137" user="OSMF Redaction Account" changeset="12305131" lat="53.0610204" lon="9.0213357"/>
  <node id="300610218" version="3" timestamp="2012-08-07T05:36:11Z" uid="58095" user="BudBundi" changeset="12641321" lat="53.0612485" lon="9.0217508"/>
  <node id="300610219" version="3" timestamp="2012-08-07T05:36:13Z" uid="58095" user="BudBundi" changeset="12641321" lat="53.0616095" lon="9.0219648"/>
  <node id="300610220" version="3" timestamp="2012-08-07T05:36:13Z" uid="58095" user="BudBundi" changeset="12641321" lat="53.0613231" lon="9.0220399"/>
  <node id="300610221" version="3" timestamp="2012-08-07T05:36:13Z" uid="58095" user="BudBundi" changeset="12641321" lat="53.0610661" lon="9.0211888"/>
  <node id="300610222" version="3" timestamp="2012-08-07T05:36:13Z" uid="58095" user="BudBundi" changeset="12641321" lat="53.061192" lon="9.0214771"/>
  <node id="300610223" version="3" timestamp="2012-08-07T05:36:11Z" uid="58095" user="BudBundi" changeset="12641321" lat="53.0613639" lon="9.0216927"/>
  <node id="300610224" version="3" timestamp="2012-08-07T05:36:13Z" uid="58095" user="BudBundi" changeset="12641321" lat="53.0616038" lon="9.021781"/>
  <node id="300610226" version="3" timestamp="2012-08-07T05:36:11Z" uid="58095" user="BudBundi" changeset="12641321" lat="53.0611905" lon="9.0221199"/>
  <node id="300610227" version="3" timestamp="2012-08-07T05:36:13Z" uid="58095" user="BudBundi" changeset="12641321" lat="53.0611009" lon="9.0217129"/>
  <node id="300610228" version="3" timestamp="2012-08-07T05:36:14Z" uid="58095" user="BudBundi" changeset="12641321" lat="53.061086" lon="9.0216158"/>
  <node id="300610230" version="3" timestamp="2012-08-07T05:36:11Z" uid="58095" user="BudBundi" changeset="12641321" lat="53.060934" lon="9.0211859"/>
  <node id="300612075" version="6" timestamp="2012-04-17T16:36:24Z" uid="349191" user="Glühwürmchen" changeset="11334855" lat="53.4737703" lon="10.2542919"/>
  <node id="300616257" version="3" timestamp="2012-08-20T18:39:24Z" uid="171996" user="pavel43" changeset="12799538" lat="50.7468324" lon="11.6737936"/>
  <node id="300616258" version="3" timestamp="2012-08-20T18:39:26Z" uid="171996" user="pavel43" changeset="12799538" lat="50.7466623" lon="11.6729793"/>
  <node id="300616259" version="3" timestamp="2012-08-20T18:39:25Z" uid="171996" user="pavel43" changeset="12799538" lat="50.7465327" lon="11.6718587"/>
  <node id="300616260" version="3" timestamp="2012-08-20T18:39:24Z" uid="171996" user="pavel43" changeset="12799538" lat="50.7464638" lon="11.6707257"/>
  <node id="300616261" version="3" timestamp="2012-08-20T18:39:26Z" uid="171996" user="pavel43" changeset="12799538" lat="50.7463945" lon="11.6694533"/>
  <node id="300616262" version="3" timestamp="2012-08-20T18:39:25Z" uid="171996" user="pavel43" changeset="12799538" lat="50.7463799" lon="11.6685837"/>
  <node id="300616263" version="3" timestamp="2012-08-20T18:39:25Z" uid="171996" user="pavel43" changeset="12799538" lat="50.7464335" lon="11.667535"/>
  <node id="300616264" version="3" timestamp="2012-08-20T18:39:26Z" uid="171996" user="pavel43" changeset="12799538" lat="50.7466036" lon="11.6660962"/>
  <node id="300616265" version="3" timestamp="2012-08-20T18:39:25Z" uid="171996" user="pavel43" changeset="12799538" lat="50.7468673" lon="11.664128"/>
  <node id="300616267" version="3" timestamp="2012-08-20T18:39:25Z" uid="171996" user="pavel43" changeset="12799538" lat="50.7470679" lon="11.6623551"/>
  <node id="300616268" version="3" timestamp="2012-08-20T18:39:26Z" uid="171996" user="pavel43" changeset="12799538" lat="50.7472998" lon="11.6609341"/>
  <node id="300616269" version="3" timestamp="2012-08-20T18:39:26Z" uid="171996" user="pavel43" changeset="12799538" lat="50.7475883" lon="11.6602662"/>
  <node id="300617626" version="3" timestamp="2012-06-07T22:52:26Z" uid="497849" user="pyram" changeset="11830797" lat="49.5649114" lon="11.3309101"/>
  <node id="300617633" version="4" timestamp="2012-06-07T22:52:26Z" uid="497849" user="pyram" changeset="11830797" lat="49.5645331" lon="11.3291118"/>
  <node id="300618090" version="5" timestamp="2012-06-28T17:03:01Z" uid="417684" user="Maler" changeset="12048847" lat="47.8024884" lon="11.194113"/>
</osm>
