<?xml version='1.0' encoding='UTF-8'?>
<osm version="0.6" generator="libosmium/2.20.0">
  <node id="301642590" version="1" timestamp="2008-10-02T20:31:27Z" uid="70800" user="Cellpaq" changeset="36401" lat="47.809322" lon="11.645239"/>
  <node id="301642590" version="2" timestamp="2009-01-25T18:14:50Z" uid="42393" user="mawi42" changeset="836256" lat="47.809322" lon="11.645239"/>
  <node id="301642590" version="3" timestamp="2009-01-25T18:14:52Z" uid="42393" user="mawi42" changeset="836256" lat="47.809322" lon="11.645239"/>
  <node id="301642590" version="4" timestamp="2009-01-25T18:15:13Z" uid="42393" user="mawi42" changeset="836256" lat="47.809322" lon="11.645239"/>
  <node id="301642590" version="5" timestamp="2012-03-02T13:41:10Z" uid="16696" user="Hike39" changeset="10848428" lat="47.809322" lon="11.645239"/>
  <node id="301642594" version="1" timestamp="2008-10-02T20:31:27Z" uid="70800" user="Cellpaq" changeset="36401" lat="47.810048" lon="11.644702"/>
  <node id="301642594" version="2" timestamp="2009-01-25T18:14:51Z" uid="42393" user="mawi42" changeset="836256" lat="47.810048" lon="11.644702"/>
  <node id="301642594" version="3" timestamp="2012-03-02T13:41:10Z" uid="16696" user="Hike39" changeset="10848428" lat="47.810048" lon="11.644702"/>
  <node id="301642596" version="1" timestamp="2008-10-02T20:31:27Z" uid="70800" user="Cellpaq" changeset="36401" lat="47.810082" lon="11.644695"/>
  <node id="301642596" version="2" timestamp="2009-01-25T18:14:51Z" uid="42393" user="mawi42" changeset="836256" lat="47.810082" lon="11.644695"/>
  <node id="301642596" version="3" timestamp="2012-03-02T13:41:10Z" uid="16696" user="Hike39" changeset="10848428" lat="47.810082" lon="11.644695"/>
  <node id="301642598" version="1" timestamp="2008-10-02T20:31:28Z" uid="70800" user="Cellpaq" changeset="36401" lat="47.81011" lon="11.644716"/>
  <node id="301642598" version="2" timestamp="2009-01-25T18:14:51Z" uid="42393" user="mawi42" changeset="836256" lat="47.81011" lon="11.644716"/>
  <node id="301642598" version="3" timestamp="2012-03-02T13:41:10Z" uid="16696" user="Hike39" changeset="10848428" lat="47.81011" lon="11.644716"/>
  <node id="301642602" version="1" timestamp="2008-10-02T20:31:28Z" uid="70800" user="Cellpaq" changeset="36401" lat="47.810433" lon="11.645576"/>
  <node id="301642602" version="2" timestamp="2009-01-25T18:14:51Z" uid="42393" user="mawi42" changeset="836256" lat="47.810433" lon="11.645576"/>
  <node id="301642602" version="3" timestamp="2012-03-02T13:41:10Z" uid="16696" user="Hike39" changeset="10848428" lat="47.810433" lon="11.645576"/>
  <node id="301642604" version="1" timestamp="2008-10-02T20:31:28Z" uid="70800" user="Cellpaq" changeset="36401" lat="47.810698" lon="11.646686"/>
  <node id="301642604" version="2" timestamp="2009-01-25T18:14:51Z" uid="42393" user="mawi42" changeset="836256" lat="47.810698" lon="11.646686"/>
  <node id="301642604" version="3" timestamp="2012-03-02T13:41:11Z" uid="16696" user="Hike39" changeset="10848428" lat="47.810698" lon="11.646686"/>
  <node id="301642605" version="1" timestamp="2008-10-02T20:31:28Z" uid="70800" user="Cellpaq" changeset="36401" lat="47.810695" lon="11.646796"/>
  <node id="301642605" version="2" timestamp="2008-10-04T14:01:35Z" uid="70800" user="Cellpaq" changeset="70118" lat="47.810695" lon="11.646796"/>
  <node id="301642606" version="1" timestamp="2008-10-02T20:31:28Z" uid="70800" user="Cellpaq" changeset="36401" lat="47.810678" lon="11.646833"/>
  <node id="301642606" version="2" timestamp="2008-10-04T14:01:36Z" uid="70800" user="Cellpaq" changeset="70118" lat="47.810678" lon="11.646833"/>
  <node id="301642644" version="7" timestamp="2009-10-29T16:52:20Z" uid="36809" user="pfoten_weg_!_" changeset="2982520" lat="47.6326473" lon="11.6775318"/>
  <node id="301642644" version="8" timestamp="2010-07-31T22:50:04Z" uid="182079" user="Andreas61" changeset="5366678" lat="47.6326629" lon="11.6776501"/>
  <node id="301642650" version="4" timestamp="2009-10-29T16:52:19Z" uid="36809" user="pfoten_weg_!_" changeset="2982520" lat="47.6326505" lon="11.6774903"/>
  <node id="301642650" version="5" timestamp="2010-07-31T22:50:04Z" uid="182079" user="Andreas61" changeset="5366678" lat="47.63267" lon="11.6775077"/>
  <node id="301642658" version="4" timestamp="2009-10-29T16:52:20Z" uid="36809" user="pfoten_weg_!_" changeset="2982520" lat="47.6326525" lon="11.6774275"/>
  <node id="301642658" version="5" timestamp="2010-07-31T22:50:04Z" uid="182079" user="Andreas61" changeset="5366678" lat="47.6326822" lon="11.6774136"/>
  <node id="301642665" version="4" timestamp="2009-10-29T16:52:21Z" uid="36809" user="pfoten_weg_!_" changeset="2982520" lat="47.6326528" lon="11.6773457"/>
  <node id="301642665" version="5" timestamp="2010-07-31T22:50:04Z" uid="182079" user="Andreas61" changeset="5366678" lat="47.6326434" lon="11.6773387"/>
  <node id="301642674" version="4" timestamp="2009-10-29T16:52:21Z" uid="36809" user="pfoten_weg_!_" changeset="2982520" lat="47.6326498" lon="11.6772582"/>
  <node id="301642674" version="5" timestamp="2010-07-31T22:50:04Z" uid="182079" user="Andreas61" changeset="5366678" lat="47.6326506" lon="11.6772791"/>
  <node id="301642716" version="4" timestamp="2009-10-29T16:52:19Z" uid="36809" user="pfoten_weg_!_" changeset="2982520" lat="47.6326345" lon="11.6771384"/>
  <node id="301642716" version="5" timestamp="2010-07-31T22:50:04Z" uid="182079" user="Andreas61" changeset="5366678" lat="47.6326392" lon="11.6771187"/>
  <node id="301642720" version="4" timestamp="2009-10-29T16:52:15Z" uid="36809" user="pfoten_weg_!_" changeset="2982520" lat="47.6326301" lon="11.6769891"/>
  <node id="301642720" version="5" timestamp="2010-07-31T22:50:04Z" uid="182079" user="Andreas61" changeset="5366678" lat="47.6326231" lon="11.6769891"/>
  <node id="301642722" version="4" timestamp="2009-10-29T16:52:14Z" uid="36809" user="pfoten_weg_!_" changeset="2982520" lat="47.632615" lon="11.6768655"/>
  <node id="301642722" version="5" timestamp="2010-07-31T22:50:03Z" uid="182079" user="Andreas61" changeset="5366678" lat="47.6326392" lon="11.6769003"/>
  <node id="301642723" version="4" timestamp="2009-10-29T16:52:13Z" uid="36809" user="pfoten_weg_!_" changeset="2982520" lat="47.6326294" lon="11.6767864"/>
  <node id="301642723" version="5" timestamp="2010-07-31T22:50:03Z" uid="182079" user="Andreas61" changeset="5366678" lat="47.6326474" lon="11.6768189"/>
  <node id="301642725" version="4" timestamp="2009-10-29T16:52:12Z" uid="36809" user="pfoten_weg_!_" changeset="2982520" lat="47.6326437" lon="11.6767391"/>
  <node id="301642725" version="5" timestamp="2010-07-31T22:50:03Z" uid="182079" user="Andreas61" changeset="5366678" lat="47.6326507" lon="11.6767588"/>
  <node id="301642737" version="4" timestamp="2009-10-29T16:52:16Z" uid="36809" user="pfoten_weg_!_" changeset="2982520" lat="47.6326522" lon="11.6766716"/>
  <node id="301642737" version="5" timestamp="2010-07-31T22:50:03Z" uid="182079" user="Andreas61" changeset="5366678" lat="47.632678" lon="11.6766809"/>
  <node id="301642737" version="6" timestamp="2011-11-27T16:59:11Z" uid="182079" user="Andreas61" changeset="9969242" lat="47.6326486" lon="11.6766571"/>
  <node id="301642738" version="4" timestamp="2009-10-29T16:52:16Z" uid="36809" user="pfoten_weg_!_" changeset="2982520" lat="47.632652" lon="11.6765666"/>
  <node id="301642738" version="5" timestamp="2010-07-31T22:50:03Z" uid="182079" user="Andreas61" changeset="5366678" lat="47.6326919" lon="11.676577"/>
  <node id="301642745" version="4" timestamp="2009-10-29T16:52:17Z" uid="36809" user="pfoten_weg_!_" changeset="2982520" lat="47.6326586" lon="11.6764442"/>
  <node id="301642745" version="5" timestamp="2010-07-31T22:50:03Z" uid="182079" user="Andreas61" changeset="5366678" lat="47.6327055" lon="11.6764732"/>
  <node id="301642751" version="4" timestamp="2009-10-29T16:52:18Z" uid="36809" user="pfoten_weg_!_" changeset="2982520" lat="47.6326562" lon="11.6763695"/>
  <node id="301642751" version="5" timestamp="2010-07-31T22:50:03Z" uid="182079" user="Andreas61" changeset="5366678" lat="47.6327133" lon="11.6763173"/>
  <node id="301642753" version="4" timestamp="2009-10-29T16:52:17Z" uid="36809" user="pfoten_weg_!_" changeset="2982520" lat="47.6326492" lon="11.6762944"/>
  <node id="301642753" version="5" timestamp="2010-07-31T22:50:03Z" uid="182079" user="Andreas61" changeset="5366678" lat="47.6326211" lon="11.676197"/>
  <node id="301642754" version="7" timestamp="2009-10-29T16:52:18Z" uid="36809" user="pfoten_weg_!_" changeset="2982520" lat="47.6326554" lon="11.6762286">
    <tag k="ele" v="1698"/>
    <tag k="name" v="Roßstein"/>
    <tag k="natural" v="peak"/>
    <tag k="source_ele" v="Wikipedia"/>
  </node>
  <node id="301642754" version="8" timestamp="2010-07-31T22:50:03Z" uid="182079" user="Andreas61" changeset="5366678" lat="47.6326069" lon="11.676304">
    <tag k="ele" v="1698"/>
    <tag k="name" v="Roßstein"/>
    <tag k="natural" v="peak"/>
    <tag k="source_ele" v="Wikipedia"/>
  </node>
  <node id="301643523" version="1" timestamp="2008-10-02T20:35:35Z" uid="67142" user="zottel" changeset="35209" lat="48.8898943" lon="8.7134497">
    <tag k="bus_lines" v="6;9"/>
    <tag k="highway" v="bus_stop"/>
    <tag k="name" v="Klinikum Pforzheim"/>
    <tag k="operator" v="SVP"/>
  </node>
  <node id="301643523" version="2" timestamp="2008-11-30T01:45:16Z" uid="63969" user="olvagor" changeset="812487" lat="48.8899523" lon="8.713571">
    <tag k="bus_lines" v="6;9"/>
    <tag k="highway" v="bus_stop"/>
    <tag k="name" v="Klinikum Pforzheim"/>
    <tag k="operator" v="SVP"/>
  </node>
  <node id="301643523" version="3" timestamp="2008-12-20T20:57:53Z" uid="64482" user="Claas Augner" changeset="512587" lat="48.8900195" lon="8.7135572">
    <tag k="bus_lines" v="6;9"/>
    <tag k="highway" v="bus_stop"/>
    <tag k="name" v="Klinikum Pforzheim"/>
    <tag k="operator" v="SVP"/>
    <tag k="shelter" v="yes"/>
  </node>
  <node id="301643523" version="4" timestamp="2009-02-03T23:08:31Z" uid="64482" user="Claas Augner" changeset="118420" lat="48.8900195" lon="8.7135572">
    <tag k="bus_lines" v="6;9"/>
    <tag k="highway" v="bus_stop"/>
    <tag k="name" v="Klinikum Pforzheim"/>
    <tag k="operator" v="SVP"/>
    <tag k="shelter" v="yes"/>
    <tag k="uic_ref" v="940759"/>
  </node>
  <node id="301643523" version="5" timestamp="2009-06-20T20:12:10Z" uid="77204" user="aps" changeset="1578245" lat="48.8899793" lon="8.7135798">
    <tag k="bus_lines" v="6;9"/>
    <tag k="highway" v="bus_stop"/>
    <tag k="operator" v="SVP"/>
    <tag k="public_transport" v="platform"/>
    <tag k="shelter" v="yes"/>
  </node>
  <node id="301643525" version="1" timestamp="2008-10-02T20:35:35Z" uid="67142" user="zottel" changeset="35209" lat="48.8900741" lon="8.7141916">
    <tag k="bus_lines" v="6;9"/>
    <tag k="highway" v="bus_stop"/>
    <tag k="name" v="Klinikum Pforzheim"/>
    <tag k="operator" v="SVP"/>
  </node>
  <node id="301643525" version="2" timestamp="2008-11-30T01:45:16Z" uid="63969" user="olvagor" changeset="812487" lat="48.8901666" lon="8.7144811">
    <tag k="bus_lines" v="6;9"/>
    <tag k="highway" v="bus_stop"/>
    <tag k="name" v="Klinikum Pforzheim"/>
    <tag k="operator" v="SVP"/>
  </node>
  <node id="301643525" version="3" timestamp="2008-12-20T20:57:54Z" uid="64482" user="Claas Augner" changeset="512587" lat="48.8901178" lon="8.7145096">
    <tag k="bus_lines" v="6;9"/>
    <tag k="highway" v="bus_stop"/>
    <tag k="name" v="Klinikum Pforzheim"/>
    <tag k="operator" v="SVP"/>
    <tag k="shelter" v="yes"/>
  </node>
  <node id="301643525" version="4" timestamp="2009-02-03T23:08:31Z" uid="64482" user="Claas Augner" changeset="118420" lat="48.8901178" lon="8.7145096">
    <tag k="bus_lines" v="6;9"/>
    <tag k="highway" v="bus_stop"/>
    <tag k="name" v="Klinikum Pforzheim"/>
    <tag k="operator" v="SVP"/>
    <tag k="shelter" v="yes"/>
    <tag k="uic_ref" v="940759"/>
  </node>
  <node id="301643525" version="5" timestamp="2009-06-20T20:12:10Z" uid="77204" user="aps" changeset="1578245" lat="48.8901177" lon="8.7145096">
    <tag k="bus_lines" v="6;9"/>
    <tag k="highway" v="bus_stop"/>
    <tag k="operator" v="SVP"/>
    <tag k="public_transport" v="platform"/>
    <tag k="shelter" v="yes"/>
  </node>
  <node id="301643527" version="1" timestamp="2008-10-02T20:35:36Z" uid="67142" user="zottel" changeset="35209" lat="48.8895929" lon="8.7131432">
    <tag k="amenity" v="hospital"/>
    <tag k="name" v="Klinikum Pforzheim"/>
  </node>
  <node id="301643527" version="2" timestamp="2008-12-04T19:04:30Z" uid="64482" user="Claas Augner" changeset="114443" lat="48.8895929" lon="8.7131432">
    <tag k="addr:city" v="Pforzheim"/>
    <tag k="addr:housenumber" v="2-6"/>
    <tag k="addr:postcode" v="75175"/>
    <tag k="addr:street" v="Kanzlerstraße"/>
    <tag k="amenity" v="hospital"/>
    <tag k="name" v="Klinikum Pforzheim"/>
    <tag k="phone" v="+49 7231 9690"/>
    <tag k="url" v="http://www.klinikum-pforzheim.de/"/>
  </node>
  <node id="301643527" version="3" timestamp="2009-02-24T14:26:03Z" uid="31118" user="Lulu-Ann" changeset="655193" lat="48.8895968" lon="8.7131377">
    <tag k="addr:city" v="Pforzheim"/>
    <tag k="addr:housenumber" v="2-6"/>
    <tag k="addr:postcode" v="75175"/>
    <tag k="addr:street" v="Kanzlerstraße"/>
    <tag k="amenity" v="hospital"/>
    <tag k="created_by" v="Potlatch 0.10f"/>
    <tag k="name" v="Klinikum Pforzheim"/>
    <tag k="phone" v="+49 7231 9690"/>
    <tag k="url" v="http://www.klinikum-pforzheim.de/"/>
  </node>
  <node id="301643527" version="4" timestamp="2009-10-02T18:43:06Z" uid="85761" user="klausis" changeset="2716070" lat="48.8895968" lon="8.7131377">
    <tag k="addr:city" v="Pforzheim"/>
    <tag k="addr:housenumber" v="2-6"/>
    <tag k="addr:postcode" v="75175"/>
    <tag k="addr:street" v="Kanzlerstraße"/>
    <tag k="amenity" v="hospital"/>
    <tag k="name" v="Klinikum Pforzheim"/>
    <tag k="phone" v="+49 7231 9690"/>
    <tag k="url" v="http://www.klinikum-pforzheim.de/"/>
  </node>
  <node id="301643527" version="5" timestamp="2010-09-19T15:36:38Z" uid="65148" user="Pirat Michi" changeset="5820767" lat="48.8895968" lon="8.7131377">
    <tag k="addr:city" v="Pforzheim"/>
    <tag k="addr:housenumber" v="2-6"/>
    <tag k="addr:postcode" v="75175"/>
    <tag k="addr:street" v="Kanzlerstraße"/>
    <tag k="amenity" v="hospital"/>
    <tag k="name" v="Klinikum Pforzheim"/>
    <tag k="phone" v="+49 7231 9690"/>
    <tag k="website" v="http://www.klinikum-pforzheim.de/"/>
  </node>
  <node id="301643527" version="6" timestamp="2011-10-04T19:50:48Z" uid="290680" user="wheelmap_visitor" changeset="9466302" lat="48.8895968" lon="8.7131377">
    <tag k="addr:city" v="Pforzheim"/>
    <tag k="addr:housenumber" v="2-6"/>
    <tag k="addr:postcode" v="75175"/>
    <tag k="addr:street" v="Kanzlerstraße"/>
    <tag k="amenity" v="hospital"/>
    <tag k="name" v="Klinikum Pforzheim"/>
    <tag k="phone" v="+49 7231 9690"/>
    <tag k="website" v="http://www.klinikum-pforzheim.de/"/>
    <tag k="wheelchair" v="yes"/>
  </node>
  <node id="301643527" version="7" timestamp="2011-12-24T15:05:22Z" uid="66200" user="seggel" changeset="10194563" lat="48.8895968" lon="8.7131377"/>
  <node id="301643531" version="1" timestamp="2008-10-02T20:35:37Z" uid="67142" user="zottel" changeset="35209" lat="48.8923123" lon="8.7208486">
    <tag k="bus_lines" v="9"/>
    <tag k="highway" v="bus_stop"/>
    <tag k="name" v="Holzhof"/>
    <tag k="operator" v="SVP"/>
  </node>
  <node id="301643531" version="2" timestamp="2008-11-01T19:46:26Z" uid="63969" user="olvagor" changeset="652880" lat="48.8922938" lon="8.7208609">
    <tag k="bus_lines" v="9"/>
    <tag k="highway" v="bus_stop"/>
    <tag k="name" v="Holzhof"/>
    <tag k="operator" v="SVP"/>
  </node>
  <node id="301643531" version="3" timestamp="2009-02-03T23:08:28Z" uid="64482" user="Claas Augner" changeset="118420" lat="48.8922938" lon="8.7208609">
    <tag k="bus_lines" v="9"/>
    <tag k="highway" v="bus_stop"/>
    <tag k="name" v="Holzhof"/>
    <tag k="operator" v="SVP"/>
    <tag k="uic_ref" v="940672"/>
  </node>
  <node id="301643531" version="4" timestamp="2009-06-20T20:12:10Z" uid="77204" user="aps" changeset="1578245" lat="48.8922938" lon="8.7208609">
    <tag k="bus_lines" v="9"/>
    <tag k="highway" v="bus_stop"/>
    <tag k="operator" v="SVP"/>
    <tag k="public_transport" v="platform"/>
  </node>
  <node id="301643538" version="1" timestamp="2008-10-02T20:35:38Z" uid="67142" user="zottel" changeset="35209" lat="48.8923541" lon="8.720835">
    <tag k="bus_lines" v="9"/>
    <tag k="highway" v="bus_stop"/>
    <tag k="name" v="Holzhof"/>
    <tag k="operator" v="SVP"/>
  </node>
  <node id="301643538" version="2" timestamp="2008-11-01T19:46:26Z" uid="63969" user="olvagor" changeset="652880" lat="48.8923972" lon="8.7208073">
    <tag k="bus_lines" v="9"/>
    <tag k="highway" v="bus_stop"/>
    <tag k="name" v="Holzhof"/>
    <tag k="operator" v="SVP"/>
  </node>
  <node id="301643538" version="3" timestamp="2009-02-03T23:08:27Z" uid="64482" user="Claas Augner" changeset="118420" lat="48.8923972" lon="8.7208073">
    <tag k="bus_lines" v="9"/>
    <tag k="highway" v="bus_stop"/>
    <tag k="name" v="Holzhof"/>
    <tag k="operator" v="SVP"/>
    <tag k="uic_ref" v="940672"/>
  </node>
  <node id="301643538" version="4" timestamp="2009-06-20T20:12:10Z" uid="77204" user="aps" changeset="1578245" lat="48.8923972" lon="8.7208072">
    <tag k="bus_lines" v="9"/>
    <tag k="highway" v="bus_stop"/>
    <tag k="operator" v="SVP"/>
    <tag k="public_transport" v="platform"/>
  </node>
  <node id="301643542" version="1" timestamp="2008-10-02T20:35:38Z" uid="67142" user="zottel" changeset="35209" lat="48.8902993" lon="8.7063578">
    <tag k="bus_lines" v="9"/>
    <tag k="highway" v="bus_stop"/>
    <tag k="name" v="Emma Jäger Bad"/>
    <tag k="operator" v="SVP"/>
  </node>
  <node id="301643542" version="2" timestamp="2008-11-30T01:45:15Z" uid="63969" user="olvagor" changeset="812487" lat="48.8902993" lon="8.7063578">
    <tag k="bus_lines" v="9"/>
    <tag k="highway" v="bus_stop"/>
    <tag k="name" v="Emma Jäger Bad"/>
    <tag k="operator" v="SVP"/>
    <tag k="shelter" v="yes"/>
  </node>
  <node id="301643542" version="3" timestamp="2009-02-03T23:08:27Z" uid="64482" user="Claas Augner" changeset="118420" lat="48.8902993" lon="8.7063578">
    <tag k="bus_lines" v="9"/>
    <tag k="highway" v="bus_stop"/>
    <tag k="name" v="Emma Jäger Bad"/>
    <tag k="operator" v="SVP"/>
    <tag k="shelter" v="yes"/>
    <tag k="uic_ref" v="940623"/>
  </node>
  <node id="301643542" version="4" timestamp="2009-06-20T20:12:02Z" uid="77204" user="aps" changeset="1578245" lat="48.8902993" lon="8.7063578">
    <tag k="bus_lines" v="9"/>
    <tag k="highway" v="bus_stop"/>
    <tag k="operator" v="SVP"/>
    <tag k="public_transport" v="platform"/>
    <tag k="shelter" v="yes"/>
  </node>
  <node id="301643562" version="1" timestamp="2008-10-02T20:35:38Z" uid="67142" user="zottel" changeset="35209" lat="48.8902893" lon="8.7064844">
    <tag k="bus_lines" v="9"/>
    <tag k="highway" v="bus_stop"/>
    <tag k="name" v="Emma Jäger Bad"/>
    <tag k="operator" v="SVP"/>
  </node>
  <node id="301643562" version="2" timestamp="2009-02-03T23:08:25Z" uid="64482" user="Claas Augner" changeset="118420" lat="48.8902893" lon="8.7064844">
    <tag k="bus_lines" v="9"/>
    <tag k="highway" v="bus_stop"/>
    <tag k="name" v="Emma Jäger Bad"/>
    <tag k="operator" v="SVP"/>
    <tag k="uic_ref" v="940623"/>
  </node>
  <node id="301643562" version="3" timestamp="2009-06-20T20:12:02Z" uid="77204" user="aps" changeset="1578245" lat="48.8902892" lon="8.7064843">
    <tag k="bus_lines" v="9"/>
    <tag k="highway" v="bus_stop"/>
    <tag k="operator" v="SVP"/>
    <tag k="public_transport" v="platform"/>
  </node>
  <node id="301643572" version="1" timestamp="2008-10-02T20:35:39Z" uid="67142" user="zottel" changeset="35209" lat="48.8901767" lon="8.7063987"/>
  <node id="301643572" version="2" timestamp="2010-08-19T21:26:21Z" uid="77204" user="aps" changeset="5539248" lat="48.890232" lon="8.7063925"/>
  <node id="301643572" version="3" timestamp="2010-12-18T15:24:06Z" uid="77204" user="aps" changeset="6696833" lat="48.8902541" lon="8.7063925"/>
  <node id="301643572" version="4" timestamp="2010-12-18T20:18:35Z" uid="77204" user="aps" changeset="6700070" lat="48.890284" lon="8.7063925"/>
  <node id="301643572" version="5" timestamp="2011-08-26T22:01:22Z" uid="5862" user="sturmflut" changeset="9133625" lat="48.890284" lon="8.7063925"/>
  <node id="301643583" version="1" timestamp="2008-10-02T20:35:39Z" uid="67142" user="zottel" changeset="35209" lat="48.8903978" lon="8.7072184"/>
  <node id="301643583" version="2" timestamp="2010-08-19T21:26:18Z" uid="77204" user="aps" changeset="5539248" lat="48.8904389" lon="8.7072068"/>
  <node id="301643583" version="3" timestamp="2011-08-26T22:01:21Z" uid="5862" user="sturmflut" changeset="9133625" lat="48.8904641" lon="8.7074485"/>
  <node id="301643583" version="4" timestamp="2011-12-15T09:15:56Z" uid="442210" user="dwausr" changeset="10122406" lat="48.8904641" lon="8.7074485"/>
  <node id="301643591" version="1" timestamp="2008-10-02T20:35:39Z" uid="67142" user="zottel" changeset="35209" lat="48.8908276" lon="8.7102554"/>
  <node id="301643591" version="2" timestamp="2010-08-19T21:26:12Z" uid="77204" user="aps" changeset="5539248" lat="48.8908696" lon="8.7102267"/>
  <node id="301643591" version="3" timestamp="2011-03-22T13:15:57Z" uid="77204" user="aps" changeset="7636938" lat="48.8908089" lon="8.7102368"/>
  <node id="301643591" version="4" timestamp="2011-12-15T09:15:56Z" uid="442210" user="dwausr" changeset="10122406" lat="48.8908089" lon="8.7102368"/>
  <node id="301643599" version="1" timestamp="2008-10-02T20:35:39Z" uid="67142" user="zottel" changeset="35209" lat="48.8909781" lon="8.7113762"/>
  <node id="301643599" version="2" timestamp="2009-08-18T21:48:38Z" uid="63969" user="olvagor" changeset="2195671" lat="48.8910132" lon="8.7113883"/>
  <node id="301643599" version="3" timestamp="2010-08-19T21:26:13Z" uid="77204" user="aps" changeset="5539248" lat="48.8910227" lon="8.7113835"/>
  <node id="301643599" version="4" timestamp="2012-01-30T22:34:57Z" uid="134914" user="max60watt" changeset="10544742" lat="48.8910227" lon="8.7113835"/>
  <node id="301643604" version="1" timestamp="2008-10-02T20:35:40Z" uid="67142" user="zottel" changeset="35209" lat="48.8909173" lon="8.7114938"/>
  <node id="301643604" version="2" timestamp="2009-08-18T21:48:38Z" uid="63969" user="olvagor" changeset="2195671" lat="48.8909385" lon="8.7115417"/>
  <node id="301643604" version="3" timestamp="2010-08-19T21:26:13Z" uid="77204" user="aps" changeset="5539248" lat="48.890948" lon="8.7115369"/>
  <node id="301643604" version="4" timestamp="2012-01-30T22:34:57Z" uid="134914" user="max60watt" changeset="10544742" lat="48.890948" lon="8.7115369"/>
  <node id="301643608" version="1" timestamp="2008-10-02T20:35:40Z" uid="67142" user="zottel" changeset="35209" lat="48.8908309" lon="8.7117277"/>
  <node id="301643608" version="2" timestamp="2009-08-18T21:48:38Z" uid="63969" user="olvagor" changeset="2195671" lat="48.8908488" lon="8.7119296"/>
  <node id="301643608" version="3" timestamp="2010-08-19T21:26:14Z" uid="77204" user="aps" changeset="5539248" lat="48.8908583" lon="8.7119248"/>
  <node id="301643608" version="4" timestamp="2012-01-30T22:34:57Z" uid="134914" user="max60watt" changeset="10544742" lat="48.8908583" lon="8.7119248"/>
  <node id="301643611" version="1" timestamp="2008-10-02T20:35:40Z" uid="67142" user="zottel" changeset="35209" lat="48.8907544" lon="8.7121295"/>
  <node id="301643611" version="2" timestamp="2009-08-18T21:48:38Z" uid="63969" user="olvagor" changeset="2195671" lat="48.8908006" lon="8.712162"/>
  <node id="301643611" version="3" timestamp="2010-08-19T21:26:14Z" uid="77204" user="aps" changeset="5539248" lat="48.8908101" lon="8.7121572"/>
  <node id="301643611" version="4" timestamp="2012-01-30T22:34:57Z" uid="134914" user="max60watt" changeset="10544742" lat="48.8908101" lon="8.7121572"/>
  <node id="301643617" version="1" timestamp="2008-10-02T20:35:40Z" uid="67142" user="zottel" changeset="35209" lat="48.8907212" lon="8.7123885"/>
  <node id="301643617" version="2" timestamp="2009-08-18T21:48:38Z" uid="63969" user="olvagor" changeset="2195671" lat="48.8907348" lon="8.7124234"/>
  <node id="301643617" version="3" timestamp="2010-08-19T21:26:15Z" uid="77204" user="aps" changeset="5539248" lat="48.8907443" lon="8.7124186"/>
  <node id="301643617" version="4" timestamp="2011-03-22T13:15:55Z" uid="77204" user="aps" changeset="7636938" lat="48.8906912" lon="8.7115719"/>
  <node id="301643617" version="5" timestamp="2011-12-15T09:15:56Z" uid="442210" user="dwausr" changeset="10122406" lat="48.8906912" lon="8.7115719"/>
  <node id="301643627" version="1" timestamp="2008-10-02T20:35:41Z" uid="67142" user="zottel" changeset="35209" lat="48.8906262" lon="8.7126029"/>
  <node id="301643627" version="2" timestamp="2009-08-18T21:48:38Z" uid="63969" user="olvagor" changeset="2195671" lat="48.8906331" lon="8.7126273"/>
  <node id="301643627" version="3" timestamp="2009-10-20T14:39:13Z" uid="77204" user="aps" changeset="2903802" lat="48.8906331" lon="8.7126273"/>
  <node id="301643634" version="1" timestamp="2008-10-02T20:35:41Z" uid="67142" user="zottel" changeset="35209" lat="48.8904451" lon="8.7126522"/>
  <node id="301643634" version="2" timestamp="2008-12-19T11:36:34Z" uid="67142" user="zottel" changeset="473195" lat="48.8905357" lon="8.7126253"/>
  <node id="301643634" version="3" timestamp="2009-10-20T14:39:06Z" uid="77204" user="aps" changeset="2903802" lat="48.890669" lon="8.7123372"/>
  <node id="301643634" version="4" timestamp="2010-08-19T21:26:15Z" uid="77204" user="aps" changeset="5539248" lat="48.8906785" lon="8.7123324"/>
  <node id="301643634" version="5" timestamp="2011-03-22T13:15:54Z" uid="77204" user="aps" changeset="7636938" lat="48.8904509" lon="8.7115794"/>
  <node id="301643634" version="6" timestamp="2011-12-15T09:15:57Z" uid="442210" user="dwausr" changeset="10122406" lat="48.8904509" lon="8.7115794"/>
  <node id="301643649" version="1" timestamp="2008-10-02T20:35:42Z" uid="67142" user="zottel" changeset="35209" lat="48.889763" lon="8.7089034"/>
  <node id="301643649" version="2" timestamp="2010-08-19T21:26:16Z" uid="77204" user="aps" changeset="5539248" lat="48.8897725" lon="8.7088986"/>
  <node id="301643649" version="3" timestamp="2010-12-10T16:02:13Z" uid="77204" user="aps" changeset="6606812" lat="48.889591" lon="8.709222"/>
  <node id="301643649" version="4" timestamp="2011-03-22T13:15:55Z" uid="77204" user="aps" changeset="7636938" lat="48.8896172" lon="8.7092895"/>
  <node id="301643649" version="5" timestamp="2011-12-15T09:15:57Z" uid="442210" user="dwausr" changeset="10122406" lat="48.8896172" lon="8.7092895"/>
  <node id="301643654" version="1" timestamp="2008-10-02T20:35:42Z" uid="67142" user="zottel" changeset="35209" lat="48.8895885" lon="8.7067449"/>
  <node id="301643654" version="2" timestamp="2010-08-19T21:26:16Z" uid="77204" user="aps" changeset="5539248" lat="48.889598" lon="8.7067401"/>
  <node id="301643654" version="3" timestamp="2011-03-22T13:15:59Z" uid="77204" user="aps" changeset="7636938" lat="48.8896711" lon="8.7077307"/>
  <node id="301643654" version="4" timestamp="2011-12-15T09:15:57Z" uid="442210" user="dwausr" changeset="10122406" lat="48.8896711" lon="8.7077307"/>
  <node id="301643655" version="1" timestamp="2008-10-02T20:35:42Z" uid="67142" user="zottel" changeset="35209" lat="48.8898535" lon="8.7083129"/>
  <node id="301643655" version="2" timestamp="2010-08-19T21:26:16Z" uid="77204" user="aps" changeset="5539248" lat="48.889863" lon="8.7083081"/>
  <node id="301643655" version="3" timestamp="2010-12-10T16:02:13Z" uid="77204" user="aps" changeset="6606812" lat="48.8897105" lon="8.7083466"/>
  <node id="301643655" version="4" timestamp="2011-12-15T09:15:57Z" uid="442210" user="dwausr" changeset="10122406" lat="48.8897105" lon="8.7083466"/>
  <node id="301643656" version="1" timestamp="2008-10-02T20:35:42Z" uid="67142" user="zottel" changeset="35209" lat="48.8899044" lon="8.7098898"/>
  <node id="301643656" version="2" timestamp="2010-08-19T21:26:15Z" uid="77204" user="aps" changeset="5539248" lat="48.8899139" lon="8.709885"/>
  <node id="301643656" version="3" timestamp="2010-12-10T16:02:13Z" uid="77204" user="aps" changeset="6606812" lat="48.8897238" lon="8.709983"/>
  <node id="301643656" version="4" timestamp="2011-03-22T13:15:55Z" uid="77204" user="aps" changeset="7636938" lat="48.8897447" lon="8.7099534"/>
  <node id="301643656" version="5" timestamp="2011-12-15T09:15:57Z" uid="442210" user="dwausr" changeset="10122406" lat="48.8897447" lon="8.7099534"/>
  <node id="301643657" version="1" timestamp="2008-10-02T20:35:43Z" uid="67142" user="zottel" changeset="35209" lat="48.8901815" lon="8.706499">
    <tag k="amenity" v="school"/>
    <tag k="name" v="Alfons-Kern-Schule"/>
  </node>
  <node id="301643657" version="2" timestamp="2008-10-28T15:42:55Z" uid="67142" user="zottel" changeset="610348" lat="48.8901815" lon="8.706499">
    <tag k="addr:city" v="Pforzheim"/>
    <tag k="addr:housenumber" v="21"/>
    <tag k="addr:postcode" v="75175"/>
    <tag k="addr:street" v="Emma-Jaeger-Straße"/>
    <tag k="amenity" v="school"/>
    <tag k="fax" v="+49 7231 391551"/>
    <tag k="name" v="Alfons-Kern-Schule"/>
    <tag k="phone" v="+49 7231 392355"/>
    <tag k="url" v="http://www.akern-schule.de/"/>
  </node>
  <node id="301643657" version="3" timestamp="2008-11-10T13:43:48Z" uid="67142" user="zottel" changeset="729029" lat="48.890019" lon="8.7069697">
    <tag k="addr:city" v="Pforzheim"/>
    <tag k="addr:housenumber" v="21"/>
    <tag k="addr:postcode" v="75175"/>
    <tag k="addr:street" v="Emma-Jaeger-Straße"/>
    <tag k="amenity" v="school"/>
    <tag k="fax" v="+49 7231 391551"/>
    <tag k="name" v="Alfons-Kern-Schule"/>
    <tag k="phone" v="+49 7231 392355"/>
    <tag k="url" v="http://www.akern-schule.de/"/>
  </node>
  <node id="301643657" version="4" timestamp="2009-10-12T20:41:27Z" uid="179581" user="Geofreund1" changeset="2830297" lat="48.8902343" lon="8.7046142">
    <tag k="addr:city" v="Pforzheim"/>
    <tag k="addr:postcode" v="75175"/>
    <tag k="amenity" v="school"/>
    <tag k="fax" v="+49 7231 391551"/>
    <tag k="name" v="Alfons-Kern-Schule"/>
    <tag k="phone" v="+49 7231 392355"/>
    <tag k="url" v="http://www.akern-schule.de/"/>
  </node>
  <node id="301643657" version="5" timestamp="2010-08-10T19:22:05Z" uid="15075" user="Reddig" changeset="5456883" lat="48.8902343" lon="8.7046142">
    <tag k="addr:city" v="Pforzheim"/>
    <tag k="addr:postcode" v="75175"/>
    <tag k="amenity" v="school"/>
    <tag k="fax" v="+49 7231 391551"/>
    <tag k="name" v="Alfons-Kern-Schule"/>
    <tag k="phone" v="+49 7231 392355"/>
    <tag k="url" v="http://www.akern-schule.de/"/>
  </node>
  <node id="301643658" version="1" timestamp="2008-10-02T20:35:43Z" uid="67142" user="zottel" changeset="35209" lat="48.8905252" lon="8.7082707">
    <tag k="amenity" v="school"/>
    <tag k="name" v="Insel-Realschule"/>
  </node>
  <node id="301643658" version="2" timestamp="2008-10-28T15:42:55Z" uid="67142" user="zottel" changeset="610348" lat="48.8905252" lon="8.7082707">
    <tag k="addr:city" v="Pforzheim"/>
    <tag k="addr:housenumber" v="22"/>
    <tag k="addr:postcode" v="75175"/>
    <tag k="addr:street" v="Altstädter Kirchenweg"/>
    <tag k="amenity" v="school"/>
    <tag k="fax" v="+49 7231 392266"/>
    <tag k="name" v="Insel-Realschule"/>
    <tag k="phone" v="+49 7231 392272"/>
    <tag k="url" v="http://insel-realschule.de/"/>
  </node>
  <node id="301643658" version="3" timestamp="2008-11-10T13:43:49Z" uid="67142" user="zottel" changeset="729029" lat="48.8901963" lon="8.7085355">
    <tag k="addr:city" v="Pforzheim"/>
    <tag k="addr:housenumber" v="22"/>
    <tag k="addr:postcode" v="75175"/>
    <tag k="addr:street" v="Altstädter Kirchenweg"/>
    <tag k="amenity" v="school"/>
    <tag k="fax" v="+49 7231 392266"/>
    <tag k="name" v="Insel-Realschule"/>
    <tag k="phone" v="+49 7231 392272"/>
    <tag k="url" v="http://insel-realschule.de/"/>
  </node>
  <node id="301643658" version="4" timestamp="2010-09-19T15:36:31Z" uid="65148" user="Pirat Michi" changeset="5820767" lat="48.8901963" lon="8.7085355">
    <tag k="addr:city" v="Pforzheim"/>
    <tag k="addr:housenumber" v="22"/>
    <tag k="addr:postcode" v="75175"/>
    <tag k="addr:street" v="Altstädter Kirchenweg"/>
    <tag k="amenity" v="school"/>
    <tag k="fax" v="+49 7231 392266"/>
    <tag k="name" v="Insel-Realschule"/>
    <tag k="phone" v="+49 7231 392272"/>
    <tag k="website" v="http://insel-realschule.de/"/>
  </node>
  <node id="301643658" version="5" timestamp="2011-12-15T09:15:10Z" uid="442210" user="dwausr" changeset="10122406" lat="48.8901963" lon="8.7085355"/>
  <node id="301643659" version="1" timestamp="2008-10-02T20:35:44Z" uid="67142" user="zottel" changeset="35209" lat="48.8907663" lon="8.7095454">
    <tag k="amenity" v="telephone"/>
    <tag k="operator" v="Deutsche Telekom"/>
  </node>
  <node id="301643659" version="2" timestamp="2010-09-02T17:43:42Z" uid="65148" user="Pirat Michi" changeset="5663913" lat="48.8907663" lon="8.7095454">
    <tag k="amenity" v="telephone"/>
    <tag k="operator" v="Deutsche Telekom AG"/>
  </node>
  <node id="301643659" version="3" timestamp="2011-12-15T09:15:57Z" uid="442210" user="dwausr" changeset="10122406" lat="48.8907663" lon="8.7095454"/>
  <node id="301643660" version="1" timestamp="2008-10-02T20:35:44Z" uid="67142" user="zottel" changeset="35209" lat="48.8907899" lon="8.7101343">
    <tag k="amenity" v="school"/>
    <tag k="name" v="Insel-Hauptschule"/>
  </node>
  <node id="301643660" version="2" timestamp="2008-10-28T15:42:55Z" uid="67142" user="zottel" changeset="610348" lat="48.8907899" lon="8.7101343">
    <tag k="addr:city" v="Pforzheim"/>
    <tag k="addr:housenumber" v="26"/>
    <tag k="addr:postcode" v="75175"/>
    <tag k="addr:street" v="Altstädter Kirchenweg"/>
    <tag k="amenity" v="school"/>
    <tag k="fax" v="+49 7231 393015"/>
    <tag k="name" v="Insel-Hauptschule"/>
    <tag k="phone" v="+49 7231 392667"/>
    <tag k="url" v="http://www.insel-hs.de/"/>
  </node>
  <node id="301643660" version="3" timestamp="2008-11-10T13:43:50Z" uid="67142" user="zottel" changeset="729029" lat="48.8904804" lon="8.7104521">
    <tag k="addr:city" v="Pforzheim"/>
    <tag k="addr:housenumber" v="26"/>
    <tag k="addr:postcode" v="75175"/>
    <tag k="addr:street" v="Altstädter Kirchenweg"/>
    <tag k="amenity" v="school"/>
    <tag k="fax" v="+49 7231 393015"/>
    <tag k="name" v="Insel-Hauptschule"/>
    <tag k="phone" v="+49 7231 392667"/>
    <tag k="url" v="http://www.insel-hs.de/"/>
  </node>
  <node id="301643660" version="4" timestamp="2010-09-19T15:36:32Z" uid="65148" user="Pirat Michi" changeset="5820767" lat="48.8904804" lon="8.7104521">
    <tag k="addr:city" v="Pforzheim"/>
    <tag k="addr:housenumber" v="26"/>
    <tag k="addr:postcode" v="75175"/>
    <tag k="addr:street" v="Altstädter Kirchenweg"/>
    <tag k="amenity" v="school"/>
    <tag k="fax" v="+49 7231 393015"/>
    <tag k="name" v="Insel-Hauptschule"/>
    <tag k="phone" v="+49 7231 392667"/>
    <tag k="website" v="http://www.insel-hs.de/"/>
  </node>
  <node id="301643660" version="5" timestamp="2011-12-15T09:15:10Z" uid="442210" user="dwausr" changeset="10122406" lat="48.8904804" lon="8.7104521"/>
  <node id="301643664" version="1" timestamp="2008-10-02T20:35:44Z" uid="67142" user="zottel" changeset="35209" lat="48.8907601" lon="8.709011">
    <tag k="bus_lines" v="9"/>
    <tag k="highway" v="bus_stop"/>
    <tag k="name" v="Inselschule"/>
    <tag k="operator" v="SVP"/>
  </node>
  <node id="301643664" version="2" timestamp="2009-02-03T23:08:55Z" uid="64482" user="Claas Augner" changeset="118420" lat="48.8907601" lon="8.709011">
    <tag k="bus_lines" v="9"/>
    <tag k="highway" v="bus_stop"/>
    <tag k="name" v="Inselschule"/>
    <tag k="operator" v="SVP"/>
    <tag k="uic_ref" v="940676"/>
  </node>
  <node id="301643664" version="3" timestamp="2009-06-20T20:12:11Z" uid="77204" user="aps" changeset="1578245" lat="48.89076" lon="8.709011">
    <tag k="bus_lines" v="9"/>
    <tag k="highway" v="bus_stop"/>
    <tag k="operator" v="SVP"/>
    <tag k="public_transport" v="platform"/>
  </node>
  <node id="301643665" version="1" timestamp="2008-10-02T20:35:44Z" uid="67142" user="zottel" changeset="35209" lat="48.8908521" lon="8.7098783">
    <tag k="bus_lines" v="9"/>
    <tag k="highway" v="bus_stop"/>
    <tag k="name" v="Inselschule"/>
    <tag k="operator" v="SVP"/>
  </node>
  <node id="301643665" version="2" timestamp="2009-02-03T23:08:55Z" uid="64482" user="Claas Augner" changeset="118420" lat="48.8908521" lon="8.7098783">
    <tag k="bus_lines" v="9"/>
    <tag k="highway" v="bus_stop"/>
    <tag k="name" v="Inselschule"/>
    <tag k="operator" v="SVP"/>
    <tag k="uic_ref" v="940676"/>
  </node>
  <node id="301643665" version="3" timestamp="2009-06-20T20:12:11Z" uid="77204" user="aps" changeset="1578245" lat="48.8908521" lon="8.7098782">
    <tag k="bus_lines" v="9"/>
    <tag k="highway" v="bus_stop"/>
    <tag k="operator" v="SVP"/>
    <tag k="public_transport" v="platform"/>
  </node>
  <node id="301643666" version="1" timestamp="2008-10-02T20:35:45Z" uid="67142" user="zottel" changeset="35209" lat="48.890778" lon="8.708771">
    <tag k="amenity" v="fast_food"/>
    <tag k="cuisine" v="pizza"/>
    <tag k="name" v="Pizza Welt"/>
    <tag k="phone" v="+49 7231 589080"/>
  </node>
  <node id="301643666" version="2" timestamp="2012-01-09T11:29:06Z" uid="442210" user="dwausr" changeset="10340699" lat="48.890778" lon="8.708771"/>
  <node id="301644025" version="2" timestamp="2008-12-07T10:26:49Z" uid="18775" user="drlizau" changeset="238095" lat="-33.2994657" lon="149.1199449"/>
  <node id="301644034" version="2" timestamp="2008-12-07T10:26:52Z" uid="18775" user="drlizau" changeset="238095" lat="-33.2984589" lon="149.1193585"/>
  <node id="301644041" version="2" timestamp="2008-12-07T10:26:51Z" uid="18775" user="drlizau" changeset="238095" lat="-33.2987385" lon="149.1195077"/>
  <node id="301645250" version="3" timestamp="2009-10-29T17:04:09Z" uid="36809" user="pfoten_weg_!_" changeset="2982520" lat="47.6376814" lon="11.679081"/>
  <node id="301645252" version="3" timestamp="2009-10-29T17:04:08Z" uid="36809" user="pfoten_weg_!_" changeset="2982520" lat="47.6378565" lon="11.6793469"/>
  <node id="301645253" version="3" timestamp="2009-10-29T17:04:08Z" uid="36809" user="pfoten_weg_!_" changeset="2982520" lat="47.6379312" lon="11.6794534"/>
  <node id="301645429" version="1" timestamp="2008-10-02T20:42:27Z" uid="70800" user="Cellpaq" changeset="36401" lat="47.811408" lon="11.649573"/>
  <node id="301645429" version="2" timestamp="2010-12-29T00:13:25Z" uid="42393" user="mawi42" changeset="6793934" lat="47.811408" lon="11.649573"/>
  <node id="301645431" version="1" timestamp="2008-10-02T20:42:27Z" uid="70800" user="Cellpaq" changeset="36401" lat="47.811374" lon="11.64966"/>
  <node id="301645432" version="1" timestamp="2008-10-02T20:42:27Z" uid="70800" user="Cellpaq" changeset="36401" lat="47.81125" lon="11.649808"/>
  <node id="301645432" version="2" timestamp="2010-12-29T00:13:21Z" uid="42393" user="mawi42" changeset="6793934" lat="47.8112645" lon="11.6497577"/>
  <node id="301645433" version="1" timestamp="2008-10-02T20:42:27Z" uid="70800" user="Cellpaq" changeset="36401" lat="47.811036" lon="11.650271"/>
  <node id="301645433" version="2" timestamp="2010-12-29T00:13:20Z" uid="42393" user="mawi42" changeset="6793934" lat="47.8110296" lon="11.6502399"/>
  <node id="301645434" version="1" timestamp="2008-10-02T20:42:27Z" uid="70800" user="Cellpaq" changeset="36401" lat="47.811038" lon="11.650313"/>
  <node id="301645434" version="2" timestamp="2012-01-15T10:15:54Z" uid="56277" user="jklippel" changeset="10396105" lat="47.811038" lon="11.650313"/>
  <node id="301645435" version="1" timestamp="2008-10-02T20:42:28Z" uid="70800" user="Cellpaq" changeset="36401" lat="47.811157" lon="11.650477"/>
  <node id="301645435" version="2" timestamp="2012-01-15T10:15:55Z" uid="56277" user="jklippel" changeset="10396105" lat="47.811157" lon="11.650477"/>
  <node id="301645437" version="1" timestamp="2008-10-02T20:42:28Z" uid="70800" user="Cellpaq" changeset="36401" lat="47.811256" lon="11.650648"/>
  <node id="301645437" version="2" timestamp="2012-01-15T10:15:55Z" uid="56277" user="jklippel" changeset="10396105" lat="47.811256" lon="11.650648"/>
  <node id="301646049" version="2" timestamp="2008-10-23T16:39:57Z" uid="6975" user="ulfl" changeset="530870" lat="57.8615079" lon="114.2357056">
    <tag k="aeroway" v="aerodrome"/>
    <tag k="int_name" v="Bodaybo Airport"/>
    <tag k="name" v="Аэропорт Бодайбо"/>
    <tag k="name:en" v="Bodaybo Airport"/>
    <tag k="name:ru" v="Аэропорт Бодайбо"/>
  </node>
  <node id="301646322" version="1" timestamp="2008-10-02T20:46:17Z" uid="70800" user="Cellpaq" changeset="36401" lat="47.8113773" lon="11.6508385">
    <tag k="amenity" v="recycling"/>
    <tag k="created_by" v="Merkaartor 0.11"/>
    <tag k="name" v="Wertstoffhof"/>
  </node>
  <node id="301646322" version="2" timestamp="2008-10-03T18:03:32Z" uid="70800" user="Cellpaq" changeset="52628" lat="47.8113773" lon="11.6508385">
    <tag k="amenity" v="recycling"/>
    <tag k="created_by" v="Merkaartor 0.11"/>
    <tag k="note" v="Wertstoffhof"/>
  </node>
  <node id="301646322" version="3" timestamp="2008-11-20T16:28:59Z" uid="70800" user="Cellpaq" changeset="771515" lat="47.8113773" lon="11.6508385">
    <tag k="amenity" v="recycling"/>
    <tag k="created_by" v="Merkaartor 0.11"/>
    <tag k="note" v="Wertstoffhof"/>
    <tag k="operator" v="WGV"/>
    <tag k="url" v="http://www.wgv-quarzbichl.de"/>
  </node>
  <node id="301646322" version="4" timestamp="2009-10-19T19:05:11Z" uid="36809" user="pfoten_weg_!_" changeset="2897478" lat="47.8113773" lon="11.6508385">
    <tag k="amenity" v="recycling"/>
    <tag k="note" v="Wertstoffhof"/>
    <tag k="operator" v="WGV"/>
    <tag k="url" v="http://www.wgv-quarzbichl.de"/>
  </node>
  <node id="301646322" version="5" timestamp="2010-09-19T14:58:28Z" uid="65148" user="Pirat Michi" changeset="5820386" lat="47.8113773" lon="11.6508385">
    <tag k="amenity" v="recycling"/>
    <tag k="note" v="Wertstoffhof"/>
    <tag k="operator" v="WGV"/>
    <tag k="website" v="http://www.wgv-quarzbichl.de"/>
  </node>
  <node id="301646854" version="3" timestamp="2009-10-29T17:04:10Z" uid="36809" user="pfoten_weg_!_" changeset="2982520" lat="47.6394165" lon="11.6797611"/>
  <node id="301646855" version="3" timestamp="2009-10-29T17:04:09Z" uid="36809" user="pfoten_weg_!_" changeset="2982520" lat="47.6394465" lon="11.6797704"/>
  <node id="301646861" version="3" timestamp="2009-10-29T17:04:21Z" uid="36809" user="pfoten_weg_!_" changeset="2982520" lat="47.6396074" lon="11.6798359"/>
  <node id="301646862" version="4" timestamp="2009-10-29T17:04:26Z" uid="36809" user="pfoten_weg_!_" changeset="2982520" lat="47.6396603" lon="11.679859"/>
  <node id="301646864" version="3" timestamp="2009-10-29T17:04:26Z" uid="36809" user="pfoten_weg_!_" changeset="2982520" lat="47.63979" lon="11.680207"/>
  <node id="301646867" version="3" timestamp="2009-10-29T17:04:30Z" uid="36809" user="pfoten_weg_!_" changeset="2982520" lat="47.63986" lon="11.6802512"/>
  <node id="301646868" version="3" timestamp="2009-10-29T17:04:28Z" uid="36809" user="pfoten_weg_!_" changeset="2982520" lat="47.6399061" lon="11.6803211"/>
  <node id="301646869" version="3" timestamp="2009-10-29T17:04:28Z" uid="36809" user="pfoten_weg_!_" changeset="2982520" lat="47.6399095" lon="11.6803859"/>
  <node id="301646869" version="4" timestamp="2011-05-07T23:47:07Z" uid="418282" user="Norbert18" changeset="8078115" lat="47.6399095" lon="11.6803859"/>
  <node id="301646870" version="3" timestamp="2009-10-29T17:04:27Z" uid="36809" user="pfoten_weg_!_" changeset="2982520" lat="47.6399149" lon="11.6804545"/>
  <node id="301646871" version="3" timestamp="2009-10-29T17:04:27Z" uid="36809" user="pfoten_weg_!_" changeset="2982520" lat="47.6399648" lon="11.6805225"/>
  <node id="301646872" version="3" timestamp="2009-10-29T17:04:31Z" uid="36809" user="pfoten_weg_!_" changeset="2982520" lat="47.6399765" lon="11.6805756"/>
  <node id="301646872" version="4" timestamp="2011-05-07T23:47:12Z" uid="418282" user="Norbert18" changeset="8078115" lat="47.6399765" lon="11.6805756"/>
  <node id="301646889" version="3" timestamp="2009-10-29T17:04:32Z" uid="36809" user="pfoten_weg_!_" changeset="2982520" lat="47.6399848" lon="11.6806302"/>
  <node id="301646889" version="4" timestamp="2011-05-07T23:47:14Z" uid="418282" user="Norbert18" changeset="8078115" lat="47.6399848" lon="11.6806302"/>
  <node id="301646897" version="3" timestamp="2009-10-29T17:04:31Z" uid="36809" user="pfoten_weg_!_" changeset="2982520" lat="47.639993" lon="11.6807315"/>
  <node id="301646923" version="3" timestamp="2009-10-29T17:04:33Z" uid="36809" user="pfoten_weg_!_" changeset="2982520" lat="47.640042" lon="11.6809686"/>
  <node id="301646928" version="3" timestamp="2009-10-29T17:04:34Z" uid="36809" user="pfoten_weg_!_" changeset="2982520" lat="47.6400054" lon="11.6811066"/>
  <node id="301646931" version="3" timestamp="2009-10-29T17:04:34Z" uid="36809" user="pfoten_weg_!_" changeset="2982520" lat="47.6399442" lon="11.681151"/>
  <node id="301646940" version="3" timestamp="2009-10-29T17:04:32Z" uid="36809" user="pfoten_weg_!_" changeset="2982520" lat="47.6398747" lon="11.6811668"/>
  <node id="301646950" version="3" timestamp="2009-10-29T17:04:38Z" uid="36809" user="pfoten_weg_!_" changeset="2982520" lat="47.6396675" lon="11.6813095"/>
  <node id="301646950" version="4" timestamp="2011-05-07T23:47:17Z" uid="418282" user="Norbert18" changeset="8078115" lat="47.6396675" lon="11.6813095"/>
  <node id="301646956" version="3" timestamp="2009-10-29T17:04:37Z" uid="36809" user="pfoten_weg_!_" changeset="2982520" lat="47.6395732" lon="11.6813733"/>
  <node id="301646956" version="4" timestamp="2011-05-07T23:47:01Z" uid="418282" user="Norbert18" changeset="8078115" lat="47.6395732" lon="11.6813733"/>
  <node id="301646958" version="3" timestamp="2009-10-29T17:04:12Z" uid="36809" user="pfoten_weg_!_" changeset="2982520" lat="47.639441" lon="11.6814745"/>
  <node id="301646958" version="4" timestamp="2011-05-07T23:46:24Z" uid="418282" user="Norbert18" changeset="8078115" lat="47.639498" lon="11.6814375"/>
  <node id="301646962" version="3" timestamp="2009-10-29T17:04:11Z" uid="36809" user="pfoten_weg_!_" changeset="2982520" lat="47.6394014" lon="11.6816028"/>
  <node id="301646962" version="4" timestamp="2011-05-07T23:46:58Z" uid="418282" user="Norbert18" changeset="8078115" lat="47.6394299" lon="11.6816539"/>
  <node id="301646963" version="3" timestamp="2009-10-29T17:04:11Z" uid="36809" user="pfoten_weg_!_" changeset="2982520" lat="47.6394489" lon="11.681851"/>
  <node id="301646963" version="4" timestamp="2011-05-07T23:47:07Z" uid="418282" user="Norbert18" changeset="8078115" lat="47.6394489" lon="11.681851"/>
  <node id="301646964" version="3" timestamp="2009-10-29T17:04:37Z" uid="36809" user="pfoten_weg_!_" changeset="2982520" lat="47.6394762" lon="11.6821179"/>
  <node id="301646964" version="4" timestamp="2011-05-07T23:47:10Z" uid="418282" user="Norbert18" changeset="8078115" lat="47.6394762" lon="11.6821179"/>
  <node id="301646975" version="3" timestamp="2009-10-29T17:04:35Z" uid="36809" user="pfoten_weg_!_" changeset="2982520" lat="47.6395114" lon="11.682355"/>
  <node id="301646975" version="4" timestamp="2011-05-07T23:47:09Z" uid="418282" user="Norbert18" changeset="8078115" lat="47.6395114" lon="11.682355"/>
  <node id="301646976" version="3" timestamp="2009-10-29T17:04:35Z" uid="36809" user="pfoten_weg_!_" changeset="2982520" lat="47.6394922" lon="11.6824842"/>
  <node id="301646976" version="4" timestamp="2011-05-07T23:46:29Z" uid="418282" user="Norbert18" changeset="8078115" lat="47.6394554" lon="11.6825353"/>
  <node id="301646977" version="3" timestamp="2009-10-29T17:04:13Z" uid="36809" user="pfoten_weg_!_" changeset="2982520" lat="47.6393927" lon="11.6826016"/>
  <node id="301646977" version="4" timestamp="2011-05-07T23:47:14Z" uid="418282" user="Norbert18" changeset="8078115" lat="47.6393927" lon="11.6826016"/>
  <node id="301646978" version="3" timestamp="2009-10-29T17:04:12Z" uid="36809" user="pfoten_weg_!_" changeset="2982520" lat="47.6393104" lon="11.6826757"/>
  <node id="301646980" version="3" timestamp="2009-10-29T17:04:13Z" uid="36809" user="pfoten_weg_!_" changeset="2982520" lat="47.6392211" lon="11.6827425"/>
  <node id="301646981" version="3" timestamp="2009-10-29T17:04:14Z" uid="36809" user="pfoten_weg_!_" changeset="2982520" lat="47.639191" lon="11.6827948"/>
  <node id="301646981" version="4" timestamp="2011-05-07T23:47:07Z" uid="418282" user="Norbert18" changeset="8078115" lat="47.639191" lon="11.6827948"/>
  <node id="301646983" version="3" timestamp="2009-10-29T17:04:17Z" uid="36809" user="pfoten_weg_!_" changeset="2982520" lat="47.6391203" lon="11.6828081"/>
  <node id="301646983" version="4" timestamp="2011-05-07T23:46:46Z" uid="418282" user="Norbert18" changeset="8078115" lat="47.6391156" lon="11.6827729"/>
  <node id="301646984" version="3" timestamp="2009-10-29T17:04:17Z" uid="36809" user="pfoten_weg_!_" changeset="2982520" lat="47.6390985" lon="11.682861"/>
  <node id="301646985" version="3" timestamp="2009-10-29T17:04:18Z" uid="36809" user="pfoten_weg_!_" changeset="2982520" lat="47.6391384" lon="11.6829236"/>
  <node id="301646985" version="4" timestamp="2011-05-07T23:47:01Z" uid="418282" user="Norbert18" changeset="8078115" lat="47.6391384" lon="11.6829236"/>
  <node id="301646986" version="3" timestamp="2009-10-29T17:04:18Z" uid="36809" user="pfoten_weg_!_" changeset="2982520" lat="47.6392173" lon="11.6830348"/>
  <node id="301646987" version="3" timestamp="2009-10-29T17:04:18Z" uid="36809" user="pfoten_weg_!_" changeset="2982520" lat="47.6392839" lon="11.6831837"/>
  <node id="301646988" version="3" timestamp="2009-10-29T17:04:19Z" uid="36809" user="pfoten_weg_!_" changeset="2982520" lat="47.6393211" lon="11.6833495"/>
  <node id="301646989" version="3" timestamp="2009-10-29T17:04:19Z" uid="36809" user="pfoten_weg_!_" changeset="2982520" lat="47.6393759" lon="11.6836216"/>
  <node id="301646990" version="3" timestamp="2009-10-29T17:04:20Z" uid="36809" user="pfoten_weg_!_" changeset="2982520" lat="47.6394255" lon="11.6838357"/>
  <node id="301646991" version="3" timestamp="2009-10-29T17:04:46Z" uid="36809" user="pfoten_weg_!_" changeset="2982520" lat="47.6394907" lon="11.6841992"/>
  <node id="301646992" version="3" timestamp="2009-10-29T17:04:44Z" uid="36809" user="pfoten_weg_!_" changeset="2982520" lat="47.6395686" lon="11.6844713"/>
  <node id="301646993" version="3" timestamp="2009-10-29T17:04:45Z" uid="36809" user="pfoten_weg_!_" changeset="2982520" lat="47.639636" lon="11.6847803"/>
  <node id="301646994" version="3" timestamp="2009-10-29T17:04:44Z" uid="36809" user="pfoten_weg_!_" changeset="2982520" lat="47.6396674" lon="11.6848918"/>
  <node id="301647031" version="3" timestamp="2009-10-29T17:04:40Z" uid="36809" user="pfoten_weg_!_" changeset="2982520" lat="47.6396996" lon="11.6849761"/>
  <node id="301647033" version="3" timestamp="2009-10-29T17:04:39Z" uid="36809" user="pfoten_weg_!_" changeset="2982520" lat="47.6397561" lon="11.685096"/>
  <node id="301647034" version="3" timestamp="2009-10-29T17:04:40Z" uid="36809" user="pfoten_weg_!_" changeset="2982520" lat="47.6397931" lon="11.6851153"/>
  <node id="301647035" version="3" timestamp="2009-10-29T17:04:39Z" uid="36809" user="pfoten_weg_!_" changeset="2982520" lat="47.6398672" lon="11.685175"/>
  <node id="301647036" version="3" timestamp="2009-10-29T17:04:39Z" uid="36809" user="pfoten_weg_!_" changeset="2982520" lat="47.6399132" lon="11.6853296"/>
  <node id="301647037" version="3" timestamp="2009-10-29T17:04:50Z" uid="36809" user="pfoten_weg_!_" changeset="2982520" lat="47.6399616" lon="11.6854225"/>
  <node id="301647038" version="3" timestamp="2009-10-29T17:04:49Z" uid="36809" user="pfoten_weg_!_" changeset="2982520" lat="47.6400474" lon="11.6854333"/>
  <node id="301647054" version="3" timestamp="2009-10-29T17:04:49Z" uid="36809" user="pfoten_weg_!_" changeset="2982520" lat="47.6401419" lon="11.6854974"/>
  <node id="301647055" version="3" timestamp="2009-10-29T17:04:51Z" uid="36809" user="pfoten_weg_!_" changeset="2982520" lat="47.6401752" lon="11.6855555"/>
  <node id="301647056" version="3" timestamp="2009-10-29T17:04:55Z" uid="36809" user="pfoten_weg_!_" changeset="2982520" lat="47.6402003" lon="11.685633"/>
  <node id="301647057" version="3" timestamp="2009-10-29T17:04:55Z" uid="36809" user="pfoten_weg_!_" changeset="2982520" lat="47.6402142" lon="11.6857319"/>
  <node id="301647058" version="3" timestamp="2009-10-29T17:04:50Z" uid="36809" user="pfoten_weg_!_" changeset="2982520" lat="47.6402104" lon="11.6858252"/>
  <node id="301648368" version="5" timestamp="2008-11-16T17:39:40Z" uid="16922" user="amai" changeset="755946" lat="49.8774067" lon="8.9361162"/>
  <node id="301648368" version="6" timestamp="2009-10-07T16:13:13Z" uid="11008" user="spacer1971" changeset="2773263" lat="49.8773423" lon="8.9360809"/>
  <node id="301648368" version="7" timestamp="2012-02-07T13:59:21Z" uid="157286" user="SGiersch" changeset="10612369" lat="49.8773425" lon="8.9360809"/>
  <node id="301648375" version="5" timestamp="2008-11-16T17:39:40Z" uid="16922" user="amai" changeset="755946" lat="49.876122" lon="8.93508"/>
  <node id="301648375" version="6" timestamp="2009-10-07T16:13:12Z" uid="11008" user="spacer1971" changeset="2773263" lat="49.8760576" lon="8.9350682"/>
  <node id="301648382" version="5" timestamp="2008-11-16T17:39:40Z" uid="16922" user="amai" changeset="755946" lat="49.8768887" lon="8.9356811"/>
  <node id="301648382" version="6" timestamp="2009-10-07T16:13:13Z" uid="11008" user="spacer1971" changeset="2773263" lat="49.8768546" lon="8.9356693"/>
  <node id="301649015" version="2" timestamp="2008-10-20T20:32:07Z" uid="68089" user="GreenYeti" changeset="475503" lat="47.7903723" lon="9.0000241"/>
  <node id="301649015" version="3" timestamp="2010-08-09T17:36:14Z" uid="269149" user="mobile_om" changeset="5446230" lat="47.7905754" lon="8.9998712"/>
  <node id="301649625" version="3" timestamp="2009-10-29T17:04:47Z" uid="36809" user="pfoten_weg_!_" changeset="2982520" lat="47.640129" lon="11.6860819"/>
  <node id="301649629" version="3" timestamp="2009-10-29T17:04:46Z" uid="36809" user="pfoten_weg_!_" changeset="2982520" lat="47.6400901" lon="11.6861903"/>
  <node id="301649633" version="3" timestamp="2009-10-29T17:04:47Z" uid="36809" user="pfoten_weg_!_" changeset="2982520" lat="47.640049" lon="11.686271"/>
  <node id="301649637" version="3" timestamp="2009-10-29T17:04:48Z" uid="36809" user="pfoten_weg_!_" changeset="2982520" lat="47.6399939" lon="11.6864146"/>
  <node id="301649638" version="3" timestamp="2009-10-29T17:04:48Z" uid="36809" user="pfoten_weg_!_" changeset="2982520" lat="47.6400073" lon="11.6865538"/>
  <node id="301649642" version="3" timestamp="2009-10-29T17:04:56Z" uid="36809" user="pfoten_weg_!_" changeset="2982520" lat="47.6401498" lon="11.6867305"/>
  <node id="301649643" version="3" timestamp="2009-10-29T17:04:57Z" uid="36809" user="pfoten_weg_!_" changeset="2982520" lat="47.6401903" lon="11.686818"/>
  <node id="301649644" version="3" timestamp="2009-10-29T17:04:58Z" uid="36809" user="pfoten_weg_!_" changeset="2982520" lat="47.6402195" lon="11.686916"/>
  <node id="301649646" version="3" timestamp="2009-10-29T17:04:57Z" uid="36809" user="pfoten_weg_!_" changeset="2982520" lat="47.6402158" lon="11.6870127"/>
  <node id="301649652" version="3" timestamp="2009-10-29T17:05:01Z" uid="36809" user="pfoten_weg_!_" changeset="2982520" lat="47.6401775" lon="11.6875658"/>
  <node id="301649655" version="3" timestamp="2009-10-29T17:05:01Z" uid="36809" user="pfoten_weg_!_" changeset="2982520" lat="47.640299" lon="11.6876337"/>
  <node id="301649657" version="3" timestamp="2009-10-29T17:05:00Z" uid="36809" user="pfoten_weg_!_" changeset="2982520" lat="47.6403524" lon="11.6875363"/>
  <node id="301649658" version="3" timestamp="2009-10-29T17:04:56Z" uid="36809" user="pfoten_weg_!_" changeset="2982520" lat="47.6404508" lon="11.6873442"/>
  <node id="301649660" version="3" timestamp="2009-10-29T17:04:59Z" uid="36809" user="pfoten_weg_!_" changeset="2982520" lat="47.6405141" lon="11.6871482"/>
  <node id="301649661" version="3" timestamp="2009-10-29T17:04:59Z" uid="36809" user="pfoten_weg_!_" changeset="2982520" lat="47.6406059" lon="11.6869418"/>
  <node id="301649662" version="3" timestamp="2009-10-29T17:05:00Z" uid="36809" user="pfoten_weg_!_" changeset="2982520" lat="47.6406681" lon="11.6868426"/>
  <node id="301649664" version="3" timestamp="2009-10-29T17:04:59Z" uid="36809" user="pfoten_weg_!_" changeset="2982520" lat="47.640704" lon="11.6869096"/>
  <node id="301649665" version="3" timestamp="2009-10-29T17:04:58Z" uid="36809" user="pfoten_weg_!_" changeset="2982520" lat="47.6407024" lon="11.6870391"/>
  <node id="301649669" version="3" timestamp="2009-10-29T17:05:03Z" uid="36809" user="pfoten_weg_!_" changeset="2982520" lat="47.6406509" lon="11.6876121"/>
  <node id="301649671" version="3" timestamp="2009-10-29T17:05:03Z" uid="36809" user="pfoten_weg_!_" changeset="2982520" lat="47.6406494" lon="11.6877544"/>
  <node id="301649677" version="3" timestamp="2009-10-29T17:05:02Z" uid="36809" user="pfoten_weg_!_" changeset="2982520" lat="47.640779" lon="11.6880667"/>
  <node id="301649678" version="3" timestamp="2009-10-29T17:05:08Z" uid="36809" user="pfoten_weg_!_" changeset="2982520" lat="47.6407801" lon="11.6882293"/>
  <node id="301649681" version="3" timestamp="2009-10-29T17:05:08Z" uid="36809" user="pfoten_weg_!_" changeset="2982520" lat="47.6407821" lon="11.688363"/>
  <node id="301649683" version="3" timestamp="2009-10-29T17:05:07Z" uid="36809" user="pfoten_weg_!_" changeset="2982520" lat="47.6407766" lon="11.6885337"/>
  <node id="301649684" version="3" timestamp="2009-10-29T17:05:07Z" uid="36809" user="pfoten_weg_!_" changeset="2982520" lat="47.6407801" lon="11.6886521"/>
  <node id="301649686" version="3" timestamp="2009-10-29T17:05:06Z" uid="36809" user="pfoten_weg_!_" changeset="2982520" lat="47.640765" lon="11.6888085"/>
  <node id="301649689" version="3" timestamp="2009-10-29T17:05:06Z" uid="36809" user="pfoten_weg_!_" changeset="2982520" lat="47.6407515" lon="11.6889257"/>
  <node id="301649693" version="3" timestamp="2009-10-29T17:05:05Z" uid="36809" user="pfoten_weg_!_" changeset="2982520" lat="47.640742" lon="11.6890462"/>
  <node id="301649694" version="3" timestamp="2009-10-29T17:05:04Z" uid="36809" user="pfoten_weg_!_" changeset="2982520" lat="47.6407113" lon="11.6891737"/>
  <node id="301649696" version="3" timestamp="2009-10-29T17:05:05Z" uid="36809" user="pfoten_weg_!_" changeset="2982520" lat="47.6406748" lon="11.6892877"/>
  <node id="301649698" version="3" timestamp="2009-10-29T17:05:04Z" uid="36809" user="pfoten_weg_!_" changeset="2982520" lat="47.6406094" lon="11.6894189"/>
  <node id="301649700" version="3" timestamp="2009-10-29T17:14:25Z" uid="36809" user="pfoten_weg_!_" changeset="2982520" lat="47.640549" lon="11.689486"/>
  <node id="301649708" version="3" timestamp="2009-10-29T17:14:23Z" uid="36809" user="pfoten_weg_!_" changeset="2982520" lat="47.6401225" lon="11.6900337"/>
  <node id="301649724" version="4" timestamp="2009-10-29T17:14:25Z" uid="36809" user="pfoten_weg_!_" changeset="2982520" lat="47.6402089" lon="11.6902695"/>
  <node id="301649728" version="3" timestamp="2009-10-29T17:14:25Z" uid="36809" user="pfoten_weg_!_" changeset="2982520" lat="47.6405569" lon="11.690284"/>
  <node id="301649750" version="3" timestamp="2009-10-29T17:14:28Z" uid="36809" user="pfoten_weg_!_" changeset="2982520" lat="47.6416046" lon="11.6900912"/>
  <node id="301649751" version="3" timestamp="2009-10-29T17:14:28Z" uid="36809" user="pfoten_weg_!_" changeset="2982520" lat="47.641583" lon="11.6901719"/>
  <node id="301649752" version="3" timestamp="2009-10-29T17:14:27Z" uid="36809" user="pfoten_weg_!_" changeset="2982520" lat="47.6415856" lon="11.6902569"/>
  <node id="301649758" version="3" timestamp="2009-10-29T17:14:26Z" uid="36809" user="pfoten_weg_!_" changeset="2982520" lat="47.6418621" lon="11.6903578"/>
  <node id="301649761" version="3" timestamp="2009-10-29T17:14:26Z" uid="36809" user="pfoten_weg_!_" changeset="2982520" lat="47.642064" lon="11.6902208"/>
  <node id="301649762" version="3" timestamp="2009-10-29T17:14:27Z" uid="36809" user="pfoten_weg_!_" changeset="2982520" lat="47.6421385" lon="11.6901462"/>
  <node id="301649763" version="3" timestamp="2009-10-29T17:14:45Z" uid="36809" user="pfoten_weg_!_" changeset="2982520" lat="47.6422469" lon="11.6900837"/>
  <node id="301649764" version="3" timestamp="2009-10-29T17:14:46Z" uid="36809" user="pfoten_weg_!_" changeset="2982520" lat="47.6423431" lon="11.6899731"/>
  <node id="301649766" version="3" timestamp="2009-10-29T17:14:45Z" uid="36809" user="pfoten_weg_!_" changeset="2982520" lat="47.6424244" lon="11.6898248"/>
  <node id="301649767" version="3" timestamp="2009-10-29T17:14:45Z" uid="36809" user="pfoten_weg_!_" changeset="2982520" lat="47.6425247" lon="11.6895899"/>
  <node id="301649769" version="3" timestamp="2009-10-29T17:14:46Z" uid="36809" user="pfoten_weg_!_" changeset="2982520" lat="47.6426262" lon="11.689504"/>
  <node id="301649770" version="3" timestamp="2009-10-29T17:14:46Z" uid="36809" user="pfoten_weg_!_" changeset="2982520" lat="47.6427657" lon="11.6894619"/>
  <node id="301649773" version="3" timestamp="2009-10-29T17:14:47Z" uid="36809" user="pfoten_weg_!_" changeset="2982520" lat="47.6428645" lon="11.6894573"/>
  <node id="301649775" version="3" timestamp="2009-10-29T17:05:35Z" uid="36809" user="pfoten_weg_!_" changeset="2982520" lat="47.6430014" lon="11.6893806"/>
  <node id="301649777" version="3" timestamp="2009-10-29T17:05:35Z" uid="36809" user="pfoten_weg_!_" changeset="2982520" lat="47.643103" lon="11.6893023"/>
  <node id="301649784" version="3" timestamp="2009-10-29T17:05:36Z" uid="36809" user="pfoten_weg_!_" changeset="2982520" lat="47.643228" lon="11.6892466"/>
  <node id="301649785" version="3" timestamp="2009-10-29T17:05:36Z" uid="36809" user="pfoten_weg_!_" changeset="2982520" lat="47.6432889" lon="11.6890568"/>
  <node id="301649789" version="3" timestamp="2009-10-29T17:05:37Z" uid="36809" user="pfoten_weg_!_" changeset="2982520" lat="47.6434096" lon="11.6893444"/>
  <node id="301649801" version="3" timestamp="2009-10-29T17:14:48Z" uid="36809" user="pfoten_weg_!_" changeset="2982520" lat="47.6429504" lon="11.6905446"/>
  <node id="301649810" version="3" timestamp="2009-10-29T17:14:48Z" uid="36809" user="pfoten_weg_!_" changeset="2982520" lat="47.6429679" lon="11.6907975"/>
  <node id="301649815" version="3" timestamp="2009-10-29T17:14:49Z" uid="36809" user="pfoten_weg_!_" changeset="2982520" lat="47.6431875" lon="11.6916377"/>
  <node id="301649817" version="3" timestamp="2009-10-29T17:14:50Z" uid="36809" user="pfoten_weg_!_" changeset="2982520" lat="47.6432634" lon="11.6918372"/>
  <node id="301649818" version="3" timestamp="2009-10-29T17:14:50Z" uid="36809" user="pfoten_weg_!_" changeset="2982520" lat="47.6433379" lon="11.6920571"/>
  <node id="301649821" version="3" timestamp="2009-10-29T17:14:49Z" uid="36809" user="pfoten_weg_!_" changeset="2982520" lat="47.643403" lon="11.6921874"/>
  <node id="301649822" version="3" timestamp="2009-10-29T17:14:56Z" uid="36809" user="pfoten_weg_!_" changeset="2982520" lat="47.6434721" lon="11.6922942"/>
  <node id="301643523" version="6" timestamp="2012-07-19T15:40:58Z" uid="722137" user="OSMF Redaction Account" changeset="12335916" lat="48.8899793" lon="8.7135798">
    <tag k="public_transport" v="platform"/>
    <tag k="shelter" v="yes"/>
  </node>
  <node id="301643525" version="6" timestamp="2012-07-19T15:40:58Z" uid="722137" user="OSMF Redaction Account" changeset="12335916" lat="48.8901178" lon="8.7145096">
    <tag k="public_transport" v="platform"/>
    <tag k="shelter" v="yes"/>
  </node>
  <node id="301643531" version="5" timestamp="2012-07-19T15:40:59Z" uid="722137" user="OSMF Redaction Account" changeset="12335916" lat="48.8922938" lon="8.7208609">
    <tag k="public_transport" v="platform"/>
  </node>
  <node id="301643538" version="5" timestamp="2012-07-19T15:40:59Z" uid="722137" user="OSMF Redaction Account" changeset="12335916" lat="48.8923972" lon="8.7208073">
    <tag k="public_transport" v="platform"/>
  </node>
  <node id="301643542" version="5" timestamp="2012-07-19T15:41:07Z" uid="722137" user="OSMF Redaction Account" changeset="12335916" lat="48.8902993" lon="8.7063578"/>
  <node id="301643562" version="4" timestamp="2012-07-19T15:41:07Z" uid="722137" user="OSMF Redaction Account" changeset="12335916" lat="48.8902892" lon="8.7064843"/>
  <node id="301643664" version="4" timestamp="2012-07-19T15:41:08Z" uid="722137" user="OSMF Redaction Account" changeset="12335916" lat="48.89076" lon="8.709011"/>
  <node id="301643665" version="4" timestamp="2012-07-19T15:41:08Z" uid="722137" user="OSMF Redaction Account" changeset="12335916" lat="48.8908521" lon="8.7098782"/>
  <node id="301645431" version="2" timestamp="2012-04-07T15:29:50Z" uid="148776" user="meridianeum" changeset="11215388" lat="47.811374" lon="11.64966"/>
  <node id="301645432" version="3" timestamp="2012-04-07T15:29:44Z" uid="148776" user="meridianeum" changeset="11215388" lat="47.8112654" lon="11.6497461"/>
  <node id="301646322" version="6" timestamp="2012-07-17T07:43:08Z" uid="722137" user="OSMF Redaction Account" changeset="12259726" lat="47.8113773" lon="11.6508385"/>
  <node id="301649724" version="5" timestamp="2012-07-23T06:37:37Z" uid="661499" user="unixasket" changeset="12445041" lat="47.6399231" lon="11.6904926"/>
</osm>
