<?xml version='1.0' encoding='UTF-8'?>
<osm version="0.6" generator="libosmium/2.20.0">
  <node id="302081082" version="3" timestamp="2009-10-19T20:57:41Z" uid="36809" user="pfoten_weg_!_" changeset="2898607" lat="47.6550526" lon="11.8400233"/>
  <node id="302081082" version="4" timestamp="2010-05-26T20:42:58Z" uid="64756" user="alegria6208" changeset="4815824" lat="47.655005" lon="11.8401363"/>
  <node id="302081082" version="5" timestamp="2010-05-26T21:00:53Z" uid="64756" user="alegria6208" changeset="4816690" lat="47.655005" lon="11.8401363"/>
  <node id="302082044" version="29" timestamp="2010-05-09T16:12:04Z" uid="33382" user="de_muur" changeset="4650450" lat="53.1035903" lon="8.9083997"/>
  <node id="302082047" version="27" timestamp="2010-05-09T16:12:04Z" uid="33382" user="de_muur" changeset="4650450" lat="53.103786" lon="8.9073443"/>
  <node id="302082047" version="28" timestamp="2011-06-14T12:18:53Z" uid="14002" user="Gehrke" changeset="8435823" lat="53.1037784" lon="8.9074221"/>
  <node id="302083829" version="1" timestamp="2008-10-04T18:42:54Z" uid="67142" user="zottel" changeset="60699" lat="48.8913888" lon="8.6990349">
    <tag k="name" v="FIXME"/>
    <tag k="shop" v="kiosk"/>
  </node>
  <node id="302083829" version="2" timestamp="2010-06-14T10:44:37Z" uid="70696" user="xybot" changeset="4986383" lat="48.8913888" lon="8.6990349">
    <tag k="FIXME" v="name"/>
    <tag k="shop" v="kiosk"/>
  </node>
  <node id="302083830" version="1" timestamp="2008-10-04T18:42:55Z" uid="67142" user="zottel" changeset="60699" lat="48.8909425" lon="8.6988034">
    <tag k="name" v="Susi"/>
    <tag k="shop" v="chocolate"/>
  </node>
  <node id="302083830" version="2" timestamp="2008-11-01T15:56:22Z" uid="67142" user="zottel" changeset="647467" lat="48.8909412" lon="8.6988215">
    <tag k="name" v="Susi"/>
    <tag k="shop" v="chocolate"/>
  </node>
  <node id="302083830" version="3" timestamp="2012-01-05T12:10:42Z" uid="442210" user="dwausr" changeset="10299846" lat="48.8909412" lon="8.6988215"/>
  <node id="302083832" version="1" timestamp="2008-10-04T18:42:55Z" uid="67142" user="zottel" changeset="60699" lat="48.8907006" lon="8.6986917">
    <tag k="name" v="Tchibo"/>
    <tag k="shop" v="coffee"/>
  </node>
  <node id="302083832" version="2" timestamp="2012-01-05T12:10:42Z" uid="442210" user="dwausr" changeset="10299846" lat="48.8907006" lon="8.6986917"/>
  <node id="302083834" version="1" timestamp="2008-10-04T18:42:55Z" uid="67142" user="zottel" changeset="60699" lat="48.8906365" lon="8.6989002">
    <tag k="name" v="Tally Weijl"/>
    <tag k="shop" v="clothes"/>
  </node>
  <node id="302083834" version="2" timestamp="2008-10-28T15:42:53Z" uid="67142" user="zottel" changeset="610348" lat="48.8906365" lon="8.6989002">
    <tag k="addr:city" v="Pforzheim"/>
    <tag k="addr:housenumber" v="7"/>
    <tag k="addr:postcode" v="75172"/>
    <tag k="addr:street" v="Leopoldstraße"/>
    <tag k="name" v="Tally Weijl"/>
    <tag k="phone" v="+49 7231 4251481"/>
    <tag k="shop" v="clothes"/>
    <tag k="url" v="http://www.tally-weijl.com/"/>
  </node>
  <node id="302083834" version="3" timestamp="2010-09-19T15:35:03Z" uid="65148" user="Pirat Michi" changeset="5820767" lat="48.8906365" lon="8.6989002">
    <tag k="addr:city" v="Pforzheim"/>
    <tag k="addr:housenumber" v="7"/>
    <tag k="addr:postcode" v="75172"/>
    <tag k="addr:street" v="Leopoldstraße"/>
    <tag k="name" v="Tally Weijl"/>
    <tag k="phone" v="+49 7231 4251481"/>
    <tag k="shop" v="clothes"/>
    <tag k="website" v="http://www.tally-weijl.com/"/>
  </node>
  <node id="302083834" version="4" timestamp="2012-01-05T12:10:42Z" uid="442210" user="dwausr" changeset="10299846" lat="48.8906365" lon="8.6989002"/>
  <node id="302083835" version="1" timestamp="2008-10-04T18:42:55Z" uid="67142" user="zottel" changeset="60699" lat="48.8902344" lon="8.6989907">
    <tag k="amenity" v="fast_food"/>
    <tag k="cuisine" v="asian"/>
    <tag k="name" v="Hong Kong"/>
  </node>
  <node id="302083835" version="2" timestamp="2008-11-28T15:23:38Z" uid="67142" user="zottel" changeset="805897" lat="48.8902344" lon="8.6989907">
    <tag k="amenity" v="fast_food"/>
    <tag k="cuisine" v="asian"/>
    <tag k="image" v="http://osm.dev-random.de/upload/hong-kong-bistro.jpg"/>
    <tag k="name" v="Hong Kong Bistro"/>
  </node>
  <node id="302083835" version="3" timestamp="2011-11-08T18:52:50Z" uid="290680" user="wheelmap_visitor" changeset="9770655" lat="48.8902344" lon="8.6989907">
    <tag k="amenity" v="fast_food"/>
    <tag k="cuisine" v="asian"/>
    <tag k="image" v="http://osm.dev-random.de/upload/hong-kong-bistro.jpg"/>
    <tag k="name" v="Hong Kong Bistro"/>
    <tag k="wheelchair" v="limited"/>
  </node>
  <node id="302083835" version="4" timestamp="2012-01-05T12:10:35Z" uid="442210" user="dwausr" changeset="10299846" lat="48.8902344" lon="8.6989907"/>
  <node id="302083836" version="1" timestamp="2008-10-04T18:42:56Z" uid="67142" user="zottel" changeset="60699" lat="48.8902149" lon="8.6991243">
    <tag k="name" v="Hotel Montana"/>
    <tag k="tourism" v="hotel"/>
  </node>
  <node id="302083836" version="2" timestamp="2012-01-05T12:10:35Z" uid="442210" user="dwausr" changeset="10299846" lat="48.8902149" lon="8.6991243"/>
  <node id="302083838" version="1" timestamp="2008-10-04T18:42:56Z" uid="67142" user="zottel" changeset="60699" lat="48.8901035" lon="8.7004926">
    <tag k="name" v="Optiker Schütz"/>
    <tag k="shop" v="optician"/>
  </node>
  <node id="302083838" version="2" timestamp="2008-10-28T15:42:54Z" uid="67142" user="zottel" changeset="610348" lat="48.8901035" lon="8.7004926">
    <tag k="addr:city" v="Pforzheim"/>
    <tag k="addr:housenumber" v="16"/>
    <tag k="addr:postcode" v="75172"/>
    <tag k="addr:street" v="Am Waisenhausplatz"/>
    <tag k="fax" v="+49 7231 1441820"/>
    <tag k="name" v="Optiker Schütz"/>
    <tag k="phone" v="+49 7231 144180"/>
    <tag k="shop" v="optician"/>
    <tag k="url" v="http://www.optikerschuetz.de/"/>
  </node>
  <node id="302083838" version="3" timestamp="2010-09-19T15:35:04Z" uid="65148" user="Pirat Michi" changeset="5820767" lat="48.8901035" lon="8.7004926">
    <tag k="addr:city" v="Pforzheim"/>
    <tag k="addr:housenumber" v="16"/>
    <tag k="addr:postcode" v="75172"/>
    <tag k="addr:street" v="Am Waisenhausplatz"/>
    <tag k="fax" v="+49 7231 1441820"/>
    <tag k="name" v="Optiker Schütz"/>
    <tag k="phone" v="+49 7231 144180"/>
    <tag k="shop" v="optician"/>
    <tag k="website" v="http://www.optikerschuetz.de/"/>
  </node>
  <node id="302083839" version="1" timestamp="2008-10-04T18:42:56Z" uid="67142" user="zottel" changeset="60699" lat="48.8901067" lon="8.7003201">
    <tag k="name" v="Dietrich"/>
    <tag k="shop" v="kitchen furniture"/>
  </node>
  <node id="302083839" version="2" timestamp="2009-08-31T18:33:26Z" uid="64482" user="Claas Augner" changeset="2329754" lat="48.8900483" lon="8.7002921">
    <tag k="name" v="Dietrich"/>
    <tag k="shop" v="kitchen furniture"/>
  </node>
  <node id="302083839" version="3" timestamp="2010-10-30T19:58:10Z" uid="78656" user="Walter Schlögl" changeset="6232667" lat="48.8900483" lon="8.7002921">
    <tag k="furniture" v="kitchen"/>
    <tag k="name" v="Dietrich"/>
    <tag k="shop" v="furniture"/>
  </node>
  <node id="302083839" version="4" timestamp="2012-01-05T12:10:32Z" uid="442210" user="dwausr" changeset="10299846" lat="48.8900483" lon="8.7002921"/>
  <node id="302083940" version="1" timestamp="2008-10-04T18:43:07Z" uid="67142" user="zottel" changeset="60699" lat="48.8900379" lon="8.7016918">
    <tag k="bus_lines" v="1;5;6;9;62;63;656;763"/>
    <tag k="highway" v="bus_stop"/>
    <tag k="name" v="Weisenhausplatz"/>
    <tag k="operator" v="SVP;Seitter;Binder"/>
    <tag k="platform" v="1"/>
    <tag k="shelter" v="yes"/>
  </node>
  <node id="302083940" version="2" timestamp="2008-10-10T10:48:30Z" uid="67142" user="zottel" changeset="211869" lat="48.8900379" lon="8.7016918">
    <tag k="bus_lines" v="1;5;6;9;62;63;656;763"/>
    <tag k="highway" v="bus_stop"/>
    <tag k="name" v="Waisenhausplatz"/>
    <tag k="operator" v="SVP;Seitter;Binder"/>
    <tag k="platform" v="1"/>
    <tag k="shelter" v="yes"/>
  </node>
  <node id="302083940" version="3" timestamp="2008-12-20T20:57:56Z" uid="64482" user="Claas Augner" changeset="512587" lat="48.8900536" lon="8.7016907">
    <tag k="bus_lines" v="1;5;6;9;62;63;656;763"/>
    <tag k="highway" v="bus_stop"/>
    <tag k="name" v="Waisenhausplatz"/>
    <tag k="operator" v="SVP;Seitter;Binder"/>
    <tag k="platform" v="1"/>
    <tag k="shelter" v="yes"/>
  </node>
  <node id="302083940" version="4" timestamp="2009-02-03T23:06:37Z" uid="64482" user="Claas Augner" changeset="118420" lat="48.8900536" lon="8.7016907">
    <tag k="bus_lines" v="1;5;6;9;62;63;656;763"/>
    <tag k="highway" v="bus_stop"/>
    <tag k="name" v="Waisenhausplatz"/>
    <tag k="operator" v="SVP;Seitter;Binder"/>
    <tag k="platform" v="1"/>
    <tag k="shelter" v="yes"/>
    <tag k="uic_ref" v="940751"/>
  </node>
  <node id="302083940" version="5" timestamp="2009-08-16T10:20:04Z" uid="77204" user="aps" changeset="2163335" lat="48.8900536" lon="8.7016907">
    <tag k="bus" v="yes"/>
    <tag k="bus_lines" v="1;5;6;9;62;63;656;763"/>
    <tag k="highway" v="bus_stop"/>
    <tag k="name" v="Waisenhausplatz"/>
    <tag k="operator" v="SVP;Seitter;Binder"/>
    <tag k="platform" v="1"/>
    <tag k="public_transport" v="platform"/>
    <tag k="shelter" v="yes"/>
    <tag k="uic_ref" v="940751"/>
  </node>
  <node id="302083940" version="6" timestamp="2010-06-18T20:25:55Z" uid="77204" user="aps" changeset="5019277" lat="48.8900605" lon="8.7016621">
    <tag k="bus" v="yes"/>
    <tag k="bus_lines" v="1;5;6;9;62;63;656;763"/>
    <tag k="highway" v="bus_stop"/>
    <tag k="name" v="Waisenhausplatz"/>
    <tag k="operator" v="SVP;Seitter;Binder"/>
    <tag k="platform" v="1"/>
    <tag k="public_transport" v="platform"/>
    <tag k="shelter" v="yes"/>
    <tag k="uic_ref" v="940751"/>
  </node>
  <node id="302083948" version="1" timestamp="2008-10-04T18:43:07Z" uid="67142" user="zottel" changeset="60699" lat="48.8897827" lon="8.702535"/>
  <node id="302083948" version="2" timestamp="2012-01-05T09:34:27Z" uid="442210" user="dwausr" changeset="10298650" lat="48.8897827" lon="8.702535"/>
  <node id="302083956" version="1" timestamp="2008-10-04T18:43:08Z" uid="67142" user="zottel" changeset="60699" lat="48.8897912" lon="8.7024775"/>
  <node id="302083956" version="2" timestamp="2012-01-05T09:34:27Z" uid="442210" user="dwausr" changeset="10298650" lat="48.8897912" lon="8.7024775"/>
  <node id="302084022" version="1" timestamp="2008-10-04T18:43:18Z" uid="67142" user="zottel" changeset="60699" lat="48.8898233" lon="8.7023879"/>
  <node id="302084022" version="2" timestamp="2012-01-05T09:34:28Z" uid="442210" user="dwausr" changeset="10298650" lat="48.8898233" lon="8.7023879"/>
  <node id="302084024" version="1" timestamp="2008-10-04T18:43:18Z" uid="67142" user="zottel" changeset="60699" lat="48.8899078" lon="8.7022214"/>
  <node id="302084024" version="2" timestamp="2012-01-05T09:34:28Z" uid="442210" user="dwausr" changeset="10298650" lat="48.8899078" lon="8.7022214"/>
  <node id="302084025" version="1" timestamp="2008-10-04T18:43:19Z" uid="67142" user="zottel" changeset="60699" lat="48.8899932" lon="8.7021141"/>
  <node id="302084025" version="2" timestamp="2010-08-05T08:27:56Z" uid="77204" user="aps" changeset="5405679" lat="48.8900012" lon="8.7021145"/>
  <node id="302084027" version="1" timestamp="2008-10-04T18:43:19Z" uid="67142" user="zottel" changeset="60699" lat="48.889807" lon="8.702628"/>
  <node id="302084027" version="2" timestamp="2012-01-05T09:34:28Z" uid="442210" user="dwausr" changeset="10298650" lat="48.889807" lon="8.702628"/>
  <node id="302084030" version="1" timestamp="2008-10-04T18:43:20Z" uid="67142" user="zottel" changeset="60699" lat="48.8898577" lon="8.7027015"/>
  <node id="302084030" version="2" timestamp="2012-01-05T09:34:28Z" uid="442210" user="dwausr" changeset="10298650" lat="48.8898577" lon="8.7027015"/>
  <node id="302084036" version="1" timestamp="2008-10-04T18:43:20Z" uid="67142" user="zottel" changeset="60699" lat="48.8899531" lon="8.7027765"/>
  <node id="302084036" version="2" timestamp="2010-08-05T08:27:56Z" uid="77204" user="aps" changeset="5405679" lat="48.8899602" lon="8.7027782"/>
  <node id="302084041" version="1" timestamp="2008-10-04T18:43:21Z" uid="67142" user="zottel" changeset="60699" lat="48.8899654" lon="8.7017852">
    <tag k="bus_lines" v="63;761;763"/>
    <tag k="highway" v="bus_stop"/>
    <tag k="name" v="Weisenhausplatz"/>
    <tag k="operator" v="SVP;Seitter;Binder"/>
    <tag k="platform" v="2"/>
  </node>
  <node id="302084041" version="2" timestamp="2008-10-10T10:48:30Z" uid="67142" user="zottel" changeset="211869" lat="48.8899654" lon="8.7017852">
    <tag k="bus_lines" v="63;761;763"/>
    <tag k="highway" v="bus_stop"/>
    <tag k="name" v="Waisenhausplatz"/>
    <tag k="operator" v="SVP;Seitter;Binder"/>
    <tag k="platform" v="2"/>
  </node>
  <node id="302084041" version="3" timestamp="2009-02-03T23:07:04Z" uid="64482" user="Claas Augner" changeset="118420" lat="48.8899654" lon="8.7017852">
    <tag k="bus_lines" v="63;761;763"/>
    <tag k="highway" v="bus_stop"/>
    <tag k="name" v="Waisenhausplatz"/>
    <tag k="operator" v="SVP;Seitter;Binder"/>
    <tag k="platform" v="2"/>
    <tag k="uic_ref" v="940751"/>
  </node>
  <node id="302084041" version="4" timestamp="2009-08-16T10:20:03Z" uid="77204" user="aps" changeset="2163335" lat="48.8899654" lon="8.7017852">
    <tag k="bus" v="yes"/>
    <tag k="bus_lines" v="63;761;763"/>
    <tag k="highway" v="bus_stop"/>
    <tag k="name" v="Waisenhausplatz"/>
    <tag k="operator" v="SVP;Seitter;Binder"/>
    <tag k="platform" v="2"/>
    <tag k="public_transport" v="platform"/>
    <tag k="uic_ref" v="940751"/>
  </node>
  <node id="302084041" version="5" timestamp="2010-06-18T20:25:50Z" uid="77204" user="aps" changeset="5019277" lat="48.8899723" lon="8.7017566">
    <tag k="bus" v="yes"/>
    <tag k="bus_lines" v="63;761;763"/>
    <tag k="highway" v="bus_stop"/>
    <tag k="name" v="Waisenhausplatz"/>
    <tag k="operator" v="SVP;Seitter;Binder"/>
    <tag k="platform" v="2"/>
    <tag k="public_transport" v="platform"/>
    <tag k="uic_ref" v="940751"/>
  </node>
  <node id="302084041" version="6" timestamp="2011-02-12T11:47:56Z" uid="179581" user="Geofreund1" changeset="7263771" lat="48.8899674" lon="8.7017425">
    <tag k="bus" v="yes"/>
    <tag k="bus_lines" v="63;761;763"/>
    <tag k="highway" v="bus_stop"/>
    <tag k="name" v="Waisenhausplatz"/>
    <tag k="operator" v="SVP;Seitter;Binder"/>
    <tag k="platform" v="2"/>
    <tag k="public_transport" v="platform"/>
    <tag k="uic_ref" v="940751"/>
  </node>
  <node id="302084044" version="1" timestamp="2008-10-04T18:43:21Z" uid="67142" user="zottel" changeset="60699" lat="48.8899699" lon="8.7015351">
    <tag k="bus_lines" v="1;5;6;9;62"/>
    <tag k="highway" v="bus_stop"/>
    <tag k="name" v="Weisenhausplatz"/>
    <tag k="operator" v="SVP"/>
    <tag k="platform" v="3"/>
    <tag k="shelter" v="yes"/>
  </node>
  <node id="302084044" version="2" timestamp="2008-10-10T10:48:30Z" uid="67142" user="zottel" changeset="211869" lat="48.8899699" lon="8.7015351">
    <tag k="bus_lines" v="1;5;6;9;62"/>
    <tag k="highway" v="bus_stop"/>
    <tag k="name" v="Waisenhausplatz"/>
    <tag k="operator" v="SVP"/>
    <tag k="platform" v="3"/>
    <tag k="shelter" v="yes"/>
  </node>
  <node id="302084044" version="3" timestamp="2008-12-20T20:57:56Z" uid="64482" user="Claas Augner" changeset="512587" lat="48.8899525" lon="8.7015357">
    <tag k="bus_lines" v="1;5;6;9;62"/>
    <tag k="highway" v="bus_stop"/>
    <tag k="name" v="Waisenhausplatz"/>
    <tag k="operator" v="SVP"/>
    <tag k="platform" v="3"/>
    <tag k="shelter" v="yes"/>
  </node>
  <node id="302084044" version="4" timestamp="2009-02-03T23:07:03Z" uid="64482" user="Claas Augner" changeset="118420" lat="48.8899525" lon="8.7015357">
    <tag k="bus_lines" v="1;5;6;9;62"/>
    <tag k="highway" v="bus_stop"/>
    <tag k="name" v="Waisenhausplatz"/>
    <tag k="operator" v="SVP"/>
    <tag k="platform" v="3"/>
    <tag k="shelter" v="yes"/>
    <tag k="uic_ref" v="940751"/>
  </node>
  <node id="302084044" version="5" timestamp="2009-08-16T10:20:04Z" uid="77204" user="aps" changeset="2163335" lat="48.8899525" lon="8.7015357">
    <tag k="bus" v="yes"/>
    <tag k="bus_lines" v="1;5;6;9;62"/>
    <tag k="highway" v="bus_stop"/>
    <tag k="name" v="Waisenhausplatz"/>
    <tag k="operator" v="SVP"/>
    <tag k="platform" v="3"/>
    <tag k="public_transport" v="platform"/>
    <tag k="shelter" v="yes"/>
    <tag k="uic_ref" v="940751"/>
  </node>
  <node id="302084044" version="6" timestamp="2010-06-18T20:25:55Z" uid="77204" user="aps" changeset="5019277" lat="48.8899594" lon="8.7015071">
    <tag k="bus" v="yes"/>
    <tag k="bus_lines" v="1;5;6;9;62"/>
    <tag k="highway" v="bus_stop"/>
    <tag k="name" v="Waisenhausplatz"/>
    <tag k="operator" v="SVP"/>
    <tag k="platform" v="3"/>
    <tag k="public_transport" v="platform"/>
    <tag k="shelter" v="yes"/>
    <tag k="uic_ref" v="940751"/>
  </node>
  <node id="302084047" version="1" timestamp="2008-10-04T18:43:22Z" uid="67142" user="zottel" changeset="60699" lat="48.8892595" lon="8.7069164"/>
  <node id="302084047" version="2" timestamp="2009-10-20T14:38:56Z" uid="77204" user="aps" changeset="2903802" lat="48.8892595" lon="8.7069164"/>
  <node id="302084047" version="3" timestamp="2011-03-13T22:35:06Z" uid="77204" user="aps" changeset="7551431" lat="48.8892289" lon="8.7069039"/>
  <node id="302084047" version="4" timestamp="2011-08-26T22:01:21Z" uid="5862" user="sturmflut" changeset="9133625" lat="48.8892269" lon="8.706916"/>
  <node id="302084050" version="1" timestamp="2008-10-04T18:43:22Z" uid="67142" user="zottel" changeset="60699" lat="48.8879455" lon="8.7039029">
    <tag k="bus_lines" v="5;6;62;63"/>
    <tag k="highway" v="bus_stop"/>
    <tag k="name" v="Flößerviertel"/>
    <tag k="operator" v="SVP"/>
  </node>
  <node id="302084050" version="2" timestamp="2008-12-20T20:57:56Z" uid="64482" user="Claas Augner" changeset="512587" lat="48.88793" lon="8.7038797">
    <tag k="bus_lines" v="5;6;62;63"/>
    <tag k="highway" v="bus_stop"/>
    <tag k="name" v="Flößerviertel"/>
    <tag k="operator" v="SVP"/>
  </node>
  <node id="302084050" version="3" timestamp="2009-02-03T23:07:06Z" uid="64482" user="Claas Augner" changeset="118420" lat="48.88793" lon="8.7038797">
    <tag k="bus_lines" v="5;6;62;63"/>
    <tag k="highway" v="bus_stop"/>
    <tag k="name" v="Flößerviertel"/>
    <tag k="operator" v="SVP"/>
    <tag k="uic_ref" v="940632"/>
  </node>
  <node id="302084050" version="4" timestamp="2009-02-26T19:36:22Z" uid="67142" user="zottel" changeset="678359" lat="48.8879393" lon="8.7039092">
    <tag k="bus_lines" v="5;6;62;63"/>
    <tag k="highway" v="bus_stop"/>
    <tag k="name" v="Flößerviertel"/>
    <tag k="operator" v="SVP"/>
    <tag k="uic_ref" v="940632"/>
  </node>
  <node id="302084053" version="1" timestamp="2008-10-04T18:43:22Z" uid="67142" user="zottel" changeset="60699" lat="48.888134" lon="8.7038421">
    <tag k="bus_lines" v="5;6;62;63"/>
    <tag k="highway" v="bus_stop"/>
    <tag k="name" v="Flößerviertel"/>
    <tag k="operator" v="SVP"/>
  </node>
  <node id="302084053" version="2" timestamp="2008-12-20T20:57:56Z" uid="64482" user="Claas Augner" changeset="512587" lat="48.8881483" lon="8.703862">
    <tag k="bus_lines" v="5;6;62;63"/>
    <tag k="highway" v="bus_stop"/>
    <tag k="name" v="Flößerviertel"/>
    <tag k="operator" v="SVP"/>
  </node>
  <node id="302084053" version="3" timestamp="2008-12-20T21:37:57Z" uid="64482" user="Claas Augner" changeset="512587" lat="48.8880723" lon="8.7039252">
    <tag k="bus_lines" v="5;6;62;63"/>
    <tag k="highway" v="bus_stop"/>
    <tag k="name" v="Flößerviertel"/>
    <tag k="operator" v="SVP"/>
  </node>
  <node id="302084053" version="4" timestamp="2009-02-03T23:07:05Z" uid="64482" user="Claas Augner" changeset="118420" lat="48.8880723" lon="8.7039252">
    <tag k="bus_lines" v="5;6;62;63"/>
    <tag k="highway" v="bus_stop"/>
    <tag k="name" v="Flößerviertel"/>
    <tag k="operator" v="SVP"/>
    <tag k="uic_ref" v="940632"/>
  </node>
  <node id="302084053" version="5" timestamp="2009-02-26T19:36:23Z" uid="67142" user="zottel" changeset="678359" lat="48.8880639" lon="8.703893">
    <tag k="bus_lines" v="5;6;62;63"/>
    <tag k="highway" v="bus_stop"/>
    <tag k="name" v="Flößerviertel"/>
    <tag k="operator" v="SVP"/>
    <tag k="uic_ref" v="940632"/>
  </node>
  <node id="302084053" version="6" timestamp="2012-01-05T17:28:00Z" uid="63969" user="olvagor" changeset="10303276" lat="48.8880996" lon="8.7039639">
    <tag k="bus_lines" v="5;6;62;63"/>
    <tag k="highway" v="bus_stop"/>
    <tag k="name" v="Flößerviertel"/>
    <tag k="operator" v="SVP"/>
    <tag k="uic_ref" v="940632"/>
  </node>
  <node id="302084055" version="1" timestamp="2008-10-04T18:43:23Z" uid="67142" user="zottel" changeset="60699" lat="48.8899338" lon="8.7014905">
    <tag k="amenity" v="telephone"/>
    <tag k="operator" v="Deutsche Telekom"/>
  </node>
  <node id="302084055" version="2" timestamp="2010-09-02T17:43:43Z" uid="65148" user="Pirat Michi" changeset="5663913" lat="48.8899338" lon="8.7014905">
    <tag k="amenity" v="telephone"/>
    <tag k="operator" v="Deutsche Telekom AG"/>
  </node>
  <node id="302084055" version="3" timestamp="2012-01-05T09:34:28Z" uid="442210" user="dwausr" changeset="10298650" lat="48.8899338" lon="8.7014905"/>
  <node id="302084057" version="1" timestamp="2008-10-04T18:43:23Z" uid="67142" user="zottel" changeset="60699" lat="48.8873391" lon="8.7048597">
    <tag k="name" v="Kopier &amp; Druckshop"/>
    <tag k="phone" v="+49 7231 62313"/>
    <tag k="shop" v="copy"/>
    <tag k="url" v="http://www.kopier-druckshop.de"/>
  </node>
  <node id="302084057" version="2" timestamp="2008-10-29T00:07:37Z" uid="67142" user="zottel" changeset="618553" lat="48.8873391" lon="8.7048597">
    <tag k="addr:city" v="Pforzheim"/>
    <tag k="addr:housenumber" v="6"/>
    <tag k="addr:postcode" v="75175"/>
    <tag k="addr:street" v="Holzgartenstraße"/>
    <tag k="fax" v="+49 7231 69991"/>
    <tag k="name" v="Kopier &amp; Druckshop"/>
    <tag k="phone" v="+49 7231 62313"/>
    <tag k="shop" v="copy"/>
    <tag k="url" v="http://www.kopier-druckshop.de"/>
  </node>
  <node id="302084057" version="3" timestamp="2009-09-08T09:40:57Z" uid="42123" user="Ropino" changeset="2412072" lat="48.8873391" lon="8.7048597">
    <tag k="addr:city" v="Pforzheim"/>
    <tag k="addr:housenumber" v="6"/>
    <tag k="addr:postcode" v="75175"/>
    <tag k="addr:street" v="Holzgartenstraße"/>
    <tag k="fax" v="+49 7231 69991"/>
    <tag k="name" v="Kopier &amp; Druckshop"/>
    <tag k="phone" v="+49 7231 62313"/>
    <tag k="shop" v="copyshop"/>
    <tag k="url" v="http://www.kopier-druckshop.de"/>
  </node>
  <node id="302084057" version="4" timestamp="2010-09-19T15:36:50Z" uid="65148" user="Pirat Michi" changeset="5820767" lat="48.8873391" lon="8.7048597">
    <tag k="addr:city" v="Pforzheim"/>
    <tag k="addr:housenumber" v="6"/>
    <tag k="addr:postcode" v="75175"/>
    <tag k="addr:street" v="Holzgartenstraße"/>
    <tag k="fax" v="+49 7231 69991"/>
    <tag k="name" v="Kopier &amp; Druckshop"/>
    <tag k="phone" v="+49 7231 62313"/>
    <tag k="shop" v="copyshop"/>
    <tag k="website" v="http://www.kopier-druckshop.de"/>
  </node>
  <node id="302084057" version="5" timestamp="2012-01-05T09:33:56Z" uid="442210" user="dwausr" changeset="10298650" lat="48.8873391" lon="8.7048597"/>
  <node id="302084058" version="1" timestamp="2008-10-04T18:43:23Z" uid="67142" user="zottel" changeset="60699" lat="48.8875331" lon="8.7050368">
    <tag k="name" v="Friseurstudio Kraft"/>
    <tag k="phone" v="+49 7231 69667"/>
    <tag k="shop" v="hairdresser"/>
  </node>
  <node id="302084058" version="2" timestamp="2012-01-05T09:33:53Z" uid="442210" user="dwausr" changeset="10298650" lat="48.8875331" lon="8.7050368"/>
  <node id="302084060" version="1" timestamp="2008-10-04T18:43:24Z" uid="67142" user="zottel" changeset="60699" lat="48.8880241" lon="8.7071637">
    <tag k="bus_lines" v="6"/>
    <tag k="highway" v="bus_stop"/>
    <tag k="name" v="Hochschule für Gestaltung"/>
    <tag k="operator" v="SVP"/>
  </node>
  <node id="302084060" version="2" timestamp="2008-11-08T00:48:53Z" uid="63969" user="olvagor" changeset="718352" lat="48.888036" lon="8.7071469">
    <tag k="bus_lines" v="6"/>
    <tag k="highway" v="bus_stop"/>
    <tag k="name" v="Hochschule für Gestaltung"/>
    <tag k="operator" v="SVP"/>
  </node>
  <node id="302084060" version="3" timestamp="2008-12-20T20:57:57Z" uid="64482" user="Claas Augner" changeset="512587" lat="48.8880957" lon="8.7071405">
    <tag k="bus_lines" v="6"/>
    <tag k="highway" v="bus_stop"/>
    <tag k="name" v="Hochschule für Gestaltung"/>
    <tag k="operator" v="SVP"/>
  </node>
  <node id="302084060" version="4" timestamp="2009-02-03T23:07:07Z" uid="64482" user="Claas Augner" changeset="118420" lat="48.8880957" lon="8.7071405">
    <tag k="bus_lines" v="6"/>
    <tag k="highway" v="bus_stop"/>
    <tag k="name" v="Hochschule für Gestaltung"/>
    <tag k="operator" v="SVP"/>
    <tag k="uic_ref" v="940797"/>
  </node>
  <node id="302084060" version="5" timestamp="2011-08-26T22:01:20Z" uid="5862" user="sturmflut" changeset="9133625" lat="48.8880257" lon="8.7071714">
    <tag k="bus_lines" v="6"/>
    <tag k="highway" v="bus_stop"/>
    <tag k="name" v="Hochschule für Gestaltung"/>
    <tag k="operator" v="SVP"/>
    <tag k="uic_ref" v="940797"/>
  </node>
  <node id="302084060" version="6" timestamp="2012-01-09T11:29:03Z" uid="442210" user="dwausr" changeset="10340699" lat="48.8880257" lon="8.7071714"/>
  <node id="302084061" version="1" timestamp="2008-10-04T18:43:24Z" uid="67142" user="zottel" changeset="60699" lat="48.8880345" lon="8.7075477">
    <tag k="bus_lines" v="6"/>
    <tag k="highway" v="bus_stop"/>
    <tag k="name" v="Hochschule für Gestaltung"/>
    <tag k="operator" v="SVP"/>
    <tag k="shelter" v="yes"/>
  </node>
  <node id="302084061" version="2" timestamp="2008-11-30T01:45:16Z" uid="63969" user="olvagor" changeset="812487" lat="48.8881348" lon="8.7079444">
    <tag k="bus_lines" v="6"/>
    <tag k="highway" v="bus_stop"/>
    <tag k="name" v="Hochschule für Gestaltung"/>
    <tag k="operator" v="SVP"/>
    <tag k="shelter" v="yes"/>
  </node>
  <node id="302084061" version="3" timestamp="2008-12-20T20:31:48Z" uid="64482" user="Claas Augner" changeset="512587" lat="48.8880565" lon="8.7077817">
    <tag k="bus_lines" v="6"/>
    <tag k="highway" v="bus_stop"/>
    <tag k="name" v="Hochschule für Gestaltung"/>
    <tag k="operator" v="SVP"/>
    <tag k="shelter" v="yes"/>
  </node>
  <node id="302084061" version="4" timestamp="2008-12-20T20:57:57Z" uid="64482" user="Claas Augner" changeset="512587" lat="48.8880299" lon="8.7077881">
    <tag k="bus_lines" v="6"/>
    <tag k="highway" v="bus_stop"/>
    <tag k="name" v="Hochschule für Gestaltung"/>
    <tag k="operator" v="SVP"/>
    <tag k="shelter" v="yes"/>
  </node>
  <node id="302084061" version="5" timestamp="2009-02-03T23:07:07Z" uid="64482" user="Claas Augner" changeset="118420" lat="48.8880299" lon="8.7077881">
    <tag k="bus_lines" v="6"/>
    <tag k="highway" v="bus_stop"/>
    <tag k="name" v="Hochschule für Gestaltung"/>
    <tag k="operator" v="SVP"/>
    <tag k="shelter" v="yes"/>
    <tag k="uic_ref" v="940797"/>
  </node>
  <node id="302084061" version="6" timestamp="2011-08-26T22:01:20Z" uid="5862" user="sturmflut" changeset="9133625" lat="48.8880743" lon="8.7077701">
    <tag k="bus_lines" v="6"/>
    <tag k="highway" v="bus_stop"/>
    <tag k="name" v="Hochschule für Gestaltung"/>
    <tag k="operator" v="SVP"/>
    <tag k="shelter" v="yes"/>
    <tag k="uic_ref" v="940797"/>
  </node>
  <node id="302084061" version="7" timestamp="2012-01-09T11:29:04Z" uid="442210" user="dwausr" changeset="10340699" lat="48.8880743" lon="8.7077701"/>
  <node id="302084062" version="1" timestamp="2008-10-04T18:43:24Z" uid="67142" user="zottel" changeset="60699" lat="48.8879756" lon="8.7074966">
    <tag k="amenity" v="college"/>
    <tag k="name" v="Hochschule Gestaltung G1"/>
  </node>
  <node id="302084062" version="2" timestamp="2008-10-29T00:07:38Z" uid="67142" user="zottel" changeset="618553" lat="48.8879756" lon="8.7074966">
    <tag k="addr:city" v="Pforzheim"/>
    <tag k="addr:housenumber" v="36"/>
    <tag k="addr:postcode" v="75175"/>
    <tag k="addr:street" v="Holzgartenstraße"/>
    <tag k="amenity" v="college"/>
    <tag k="fax" v="+49 7231 286030"/>
    <tag k="name" v="Hochschule Gestaltung G1"/>
    <tag k="phone" v="+49 7231 286724"/>
    <tag k="url" v="http://www.hs-pforzheim.de/De-de/Gestaltung/Seiten/Bereich.aspx"/>
  </node>
  <node id="302084062" version="3" timestamp="2008-11-08T00:48:53Z" uid="63969" user="olvagor" changeset="718352" lat="48.8879815" lon="8.7075975">
    <tag k="addr:city" v="Pforzheim"/>
    <tag k="addr:housenumber" v="36"/>
    <tag k="addr:postcode" v="75175"/>
    <tag k="addr:street" v="Holzgartenstraße"/>
    <tag k="amenity" v="college"/>
    <tag k="fax" v="+49 7231 286030"/>
    <tag k="name" v="Hochschule Gestaltung G1"/>
    <tag k="phone" v="+49 7231 286724"/>
    <tag k="url" v="http://www.hs-pforzheim.de/De-de/Gestaltung/Seiten/Bereich.aspx"/>
  </node>
  <node id="302084062" version="4" timestamp="2008-11-10T13:44:30Z" uid="67142" user="zottel" changeset="729029" lat="48.8879382" lon="8.7079271">
    <tag k="addr:city" v="Pforzheim"/>
    <tag k="addr:housenumber" v="36"/>
    <tag k="addr:postcode" v="75175"/>
    <tag k="addr:street" v="Holzgartenstraße"/>
    <tag k="amenity" v="college"/>
    <tag k="fax" v="+49 7231 286030"/>
    <tag k="name" v="Hochschule Gestaltung G1"/>
    <tag k="phone" v="+49 7231 286724"/>
    <tag k="url" v="http://www.hs-pforzheim.de/De-de/Gestaltung/Seiten/Bereich.aspx"/>
  </node>
  <node id="302084062" version="5" timestamp="2010-09-19T15:36:51Z" uid="65148" user="Pirat Michi" changeset="5820767" lat="48.8879382" lon="8.7079271">
    <tag k="addr:city" v="Pforzheim"/>
    <tag k="addr:housenumber" v="36"/>
    <tag k="addr:postcode" v="75175"/>
    <tag k="addr:street" v="Holzgartenstraße"/>
    <tag k="amenity" v="college"/>
    <tag k="fax" v="+49 7231 286030"/>
    <tag k="name" v="Hochschule Gestaltung G1"/>
    <tag k="phone" v="+49 7231 286724"/>
    <tag k="website" v="http://www.hs-pforzheim.de/De-de/Gestaltung/Seiten/Bereich.aspx"/>
  </node>
  <node id="302084062" version="6" timestamp="2012-01-09T11:29:03Z" uid="442210" user="dwausr" changeset="10340699" lat="48.8879382" lon="8.7079271"/>
  <node id="302084063" version="1" timestamp="2008-10-04T18:43:25Z" uid="67142" user="zottel" changeset="60699" lat="48.8867634" lon="8.702575"/>
  <node id="302084063" version="2" timestamp="2011-12-24T16:40:40Z" uid="66200" user="seggel" changeset="10195194" lat="48.8866837" lon="8.7025551"/>
  <node id="302084063" version="3" timestamp="2012-01-05T09:34:29Z" uid="442210" user="dwausr" changeset="10298650" lat="48.8866837" lon="8.7025551"/>
  <node id="302084066" version="1" timestamp="2008-10-04T18:43:25Z" uid="67142" user="zottel" changeset="60699" lat="48.8869269" lon="8.70286"/>
  <node id="302084066" version="2" timestamp="2012-01-05T09:34:29Z" uid="442210" user="dwausr" changeset="10298650" lat="48.8869269" lon="8.70286"/>
  <node id="302084074" version="1" timestamp="2008-10-04T18:43:26Z" uid="67142" user="zottel" changeset="60699" lat="48.8872381" lon="8.704317"/>
  <node id="302084074" version="2" timestamp="2012-01-05T09:34:29Z" uid="442210" user="dwausr" changeset="10298650" lat="48.8872381" lon="8.704317"/>
  <node id="302084152" version="1" timestamp="2008-10-04T18:43:37Z" uid="67142" user="zottel" changeset="60699" lat="48.8869674" lon="8.7027416"/>
  <node id="302084152" version="2" timestamp="2012-01-05T09:34:29Z" uid="442210" user="dwausr" changeset="10298650" lat="48.8869674" lon="8.7027416"/>
  <node id="302084155" version="1" timestamp="2008-10-04T18:43:37Z" uid="67142" user="zottel" changeset="60699" lat="48.8870136" lon="8.7032028"/>
  <node id="302084155" version="2" timestamp="2012-01-05T09:34:30Z" uid="442210" user="dwausr" changeset="10298650" lat="48.8870136" lon="8.7032028"/>
  <node id="302084159" version="1" timestamp="2008-10-04T18:43:38Z" uid="67142" user="zottel" changeset="60699" lat="48.8871142" lon="8.7037265"/>
  <node id="302084159" version="2" timestamp="2012-01-05T09:34:30Z" uid="442210" user="dwausr" changeset="10298650" lat="48.8871142" lon="8.7037265"/>
  <node id="302084162" version="1" timestamp="2008-10-04T18:43:38Z" uid="67142" user="zottel" changeset="60699" lat="48.8868454" lon="8.7037789"/>
  <node id="302084162" version="2" timestamp="2008-10-05T05:19:03Z" uid="67142" user="zottel" changeset="79329" lat="48.8868454" lon="8.7038041"/>
  <node id="302084162" version="3" timestamp="2008-10-14T22:14:33Z" uid="67142" user="zottel" changeset="342322" lat="48.8868525" lon="8.7038379"/>
  <node id="302084162" version="4" timestamp="2012-01-05T09:34:30Z" uid="442210" user="dwausr" changeset="10298650" lat="48.8868525" lon="8.7038379"/>
  <node id="302084252" version="1" timestamp="2008-10-04T18:43:48Z" uid="67142" user="zottel" changeset="60699" lat="48.8867683" lon="8.7032449"/>
  <node id="302084252" version="2" timestamp="2008-10-05T05:19:03Z" uid="67142" user="zottel" changeset="79329" lat="48.8867673" lon="8.7032649"/>
  <node id="302084252" version="3" timestamp="2008-10-14T22:14:33Z" uid="67142" user="zottel" changeset="342322" lat="48.8867759" lon="8.7032981"/>
  <node id="302084252" version="4" timestamp="2012-01-05T09:34:30Z" uid="442210" user="dwausr" changeset="10298650" lat="48.8867759" lon="8.7032981"/>
  <node id="302084254" version="1" timestamp="2008-10-04T18:43:48Z" uid="67142" user="zottel" changeset="60699" lat="48.8870822" lon="8.7035723"/>
  <node id="302084254" version="2" timestamp="2012-01-05T09:34:30Z" uid="442210" user="dwausr" changeset="10298650" lat="48.8870822" lon="8.7035723"/>
  <node id="302084255" version="1" timestamp="2008-10-04T18:43:49Z" uid="67142" user="zottel" changeset="60699" lat="48.8868313" lon="8.7036224"/>
  <node id="302084255" version="2" timestamp="2008-10-05T05:19:03Z" uid="67142" user="zottel" changeset="79329" lat="48.886831" lon="8.7036357"/>
  <node id="302084255" version="3" timestamp="2008-10-14T22:14:34Z" uid="67142" user="zottel" changeset="342322" lat="48.8868381" lon="8.7036695"/>
  <node id="302084255" version="4" timestamp="2012-01-05T09:34:31Z" uid="442210" user="dwausr" changeset="10298650" lat="48.8868381" lon="8.7036695"/>
  <node id="302084257" version="1" timestamp="2008-10-04T18:43:49Z" uid="67142" user="zottel" changeset="60699" lat="48.8870068" lon="8.7032054"/>
  <node id="302084257" version="2" timestamp="2012-01-05T09:34:31Z" uid="442210" user="dwausr" changeset="10298650" lat="48.8870068" lon="8.7032054"/>
  <node id="302084259" version="1" timestamp="2008-10-04T18:43:50Z" uid="67142" user="zottel" changeset="60699" lat="48.8867683" lon="8.7032463"/>
  <node id="302084259" version="2" timestamp="2008-10-05T05:19:03Z" uid="67142" user="zottel" changeset="79329" lat="48.8867693" lon="8.7032669"/>
  <node id="302084259" version="3" timestamp="2008-10-14T22:14:34Z" uid="67142" user="zottel" changeset="342322" lat="48.8867764" lon="8.7033007"/>
  <node id="302084259" version="4" timestamp="2012-01-05T09:34:31Z" uid="442210" user="dwausr" changeset="10298650" lat="48.8867764" lon="8.7033007"/>
  <node id="302084267" version="1" timestamp="2008-10-04T18:43:50Z" uid="67142" user="zottel" changeset="60699" lat="48.887007" lon="8.7032066"/>
  <node id="302084267" version="2" timestamp="2012-01-05T09:34:31Z" uid="442210" user="dwausr" changeset="10298650" lat="48.887007" lon="8.7032066"/>
  <node id="302084269" version="1" timestamp="2008-10-04T18:43:51Z" uid="67142" user="zottel" changeset="60699" lat="48.8870818" lon="8.7035702"/>
  <node id="302084269" version="2" timestamp="2012-01-05T09:34:32Z" uid="442210" user="dwausr" changeset="10298650" lat="48.8870818" lon="8.7035702"/>
  <node id="302084270" version="1" timestamp="2008-10-04T18:43:51Z" uid="67142" user="zottel" changeset="60699" lat="48.88683" lon="8.7036208"/>
  <node id="302084270" version="2" timestamp="2008-10-05T05:19:04Z" uid="67142" user="zottel" changeset="79329" lat="48.8868303" lon="8.7036335"/>
  <node id="302084270" version="3" timestamp="2008-10-14T22:14:34Z" uid="67142" user="zottel" changeset="342322" lat="48.8868374" lon="8.7036673"/>
  <node id="302084270" version="4" timestamp="2012-01-05T09:34:32Z" uid="442210" user="dwausr" changeset="10298650" lat="48.8868374" lon="8.7036673"/>
  <node id="302084271" version="1" timestamp="2008-10-04T18:43:51Z" uid="67142" user="zottel" changeset="60699" lat="48.887008" lon="8.7027221"/>
  <node id="302084271" version="2" timestamp="2012-01-05T09:34:32Z" uid="442210" user="dwausr" changeset="10298650" lat="48.887008" lon="8.7027221"/>
  <node id="302084273" version="1" timestamp="2008-10-04T18:43:52Z" uid="67142" user="zottel" changeset="60699" lat="48.8869405" lon="8.7027945"/>
  <node id="302084273" version="2" timestamp="2008-10-15T20:13:31Z" uid="67142" user="zottel" changeset="362982" lat="48.8869405" lon="8.7027945">
    <tag k="highway" v="gate"/>
  </node>
  <node id="302084273" version="3" timestamp="2009-02-13T22:23:59Z" uid="3516" user="BiIbo" changeset="411090" lat="48.8869405" lon="8.7027945">
    <tag k="barrier" v="gate"/>
  </node>
  <node id="302084273" version="4" timestamp="2012-01-05T09:34:32Z" uid="442210" user="dwausr" changeset="10298650" lat="48.8869405" lon="8.7027945"/>
  <node id="302084276" version="1" timestamp="2008-10-04T18:43:52Z" uid="67142" user="zottel" changeset="60699" lat="48.886931" lon="8.7028268"/>
  <node id="302084276" version="2" timestamp="2012-01-05T09:34:32Z" uid="442210" user="dwausr" changeset="10298650" lat="48.886931" lon="8.7028268"/>
  <node id="302084279" version="1" timestamp="2008-10-04T18:43:52Z" uid="67142" user="zottel" changeset="60699" lat="48.8869519" lon="8.7027668"/>
  <node id="302084279" version="2" timestamp="2012-01-05T09:34:33Z" uid="442210" user="dwausr" changeset="10298650" lat="48.8869519" lon="8.7027668"/>
  <node id="302084283" version="1" timestamp="2008-10-04T18:43:52Z" uid="67142" user="zottel" changeset="60699" lat="48.8869872" lon="8.7027284"/>
  <node id="302084283" version="2" timestamp="2012-01-05T09:34:33Z" uid="442210" user="dwausr" changeset="10298650" lat="48.8869872" lon="8.7027284"/>
  <node id="302084286" version="1" timestamp="2008-10-04T18:43:53Z" uid="67142" user="zottel" changeset="60699" lat="48.8868631" lon="8.7020901"/>
  <node id="302084286" version="2" timestamp="2012-01-09T11:29:18Z" uid="442210" user="dwausr" changeset="10340699" lat="48.8868631" lon="8.7020901"/>
  <node id="302084290" version="1" timestamp="2008-10-04T18:43:53Z" uid="67142" user="zottel" changeset="60699" lat="48.8868411" lon="8.7021055"/>
  <node id="302084290" version="2" timestamp="2008-10-04T19:30:58Z" uid="67142" user="zottel" changeset="60699" lat="48.8868411" lon="8.7021055">
    <tag k="barrier" v="bollard"/>
  </node>
  <node id="302084290" version="3" timestamp="2012-01-09T11:29:18Z" uid="442210" user="dwausr" changeset="10340699" lat="48.8868411" lon="8.7021055"/>
  <node id="302084295" version="1" timestamp="2008-10-04T18:43:53Z" uid="67142" user="zottel" changeset="60699" lat="48.8868133" lon="8.702107"/>
  <node id="302084295" version="2" timestamp="2012-01-09T11:29:18Z" uid="442210" user="dwausr" changeset="10340699" lat="48.8868133" lon="8.702107"/>
  <node id="302084299" version="1" timestamp="2008-10-04T18:43:53Z" uid="67142" user="zottel" changeset="60699" lat="48.886781" lon="8.702093"/>
  <node id="302084299" version="2" timestamp="2012-01-09T11:29:19Z" uid="442210" user="dwausr" changeset="10340699" lat="48.886781" lon="8.702093"/>
  <node id="302084302" version="1" timestamp="2008-10-04T18:43:54Z" uid="67142" user="zottel" changeset="60699" lat="48.8865722" lon="8.701764"/>
  <node id="302084302" version="2" timestamp="2012-01-09T11:29:19Z" uid="442210" user="dwausr" changeset="10340699" lat="48.8865722" lon="8.701764"/>
  <node id="302084310" version="1" timestamp="2008-10-04T18:43:54Z" uid="67142" user="zottel" changeset="60699" lat="48.8865377" lon="8.7017435"/>
  <node id="302084310" version="2" timestamp="2012-01-09T11:29:19Z" uid="442210" user="dwausr" changeset="10340699" lat="48.8865377" lon="8.7017435"/>
  <node id="302084313" version="1" timestamp="2008-10-04T18:43:54Z" uid="67142" user="zottel" changeset="60699" lat="48.8865194" lon="8.7017398"/>
  <node id="302084313" version="2" timestamp="2012-01-09T11:29:19Z" uid="442210" user="dwausr" changeset="10340699" lat="48.8865194" lon="8.7017398"/>
  <node id="302084316" version="1" timestamp="2008-10-04T18:43:55Z" uid="67142" user="zottel" changeset="60699" lat="48.8865055" lon="8.701772"/>
  <node id="302084316" version="2" timestamp="2012-01-09T11:29:19Z" uid="442210" user="dwausr" changeset="10340699" lat="48.8865055" lon="8.701772"/>
  <node id="302084320" version="1" timestamp="2008-10-04T18:43:55Z" uid="67142" user="zottel" changeset="60699" lat="48.8865047" lon="8.7018189"/>
  <node id="302084320" version="2" timestamp="2012-01-09T11:29:20Z" uid="442210" user="dwausr" changeset="10340699" lat="48.8865047" lon="8.7018189"/>
  <node id="302084323" version="1" timestamp="2008-10-04T18:43:55Z" uid="67142" user="zottel" changeset="60699" lat="48.886567" lon="8.7021993"/>
  <node id="302084323" version="2" timestamp="2012-01-09T11:29:20Z" uid="442210" user="dwausr" changeset="10340699" lat="48.886567" lon="8.7021993"/>
  <node id="302084324" version="1" timestamp="2008-10-04T18:43:56Z" uid="67142" user="zottel" changeset="60699" lat="48.8865516" lon="8.7022308"/>
  <node id="302084324" version="2" timestamp="2012-01-09T11:29:20Z" uid="442210" user="dwausr" changeset="10340699" lat="48.8865516" lon="8.7022308"/>
  <node id="302084325" version="1" timestamp="2008-10-04T18:43:56Z" uid="67142" user="zottel" changeset="60699" lat="48.8865079" lon="8.7022793"/>
  <node id="302084325" version="2" timestamp="2012-01-09T11:29:20Z" uid="442210" user="dwausr" changeset="10340699" lat="48.8865079" lon="8.7022793"/>
  <node id="302084327" version="1" timestamp="2008-10-04T18:43:56Z" uid="67142" user="zottel" changeset="60699" lat="48.8864732" lon="8.70229"/>
  <node id="302084327" version="2" timestamp="2012-01-05T17:47:59Z" uid="63969" user="olvagor" changeset="10303495" lat="48.8864732" lon="8.70229"/>
  <node id="302084329" version="1" timestamp="2008-10-04T18:43:57Z" uid="67142" user="zottel" changeset="60699" lat="48.8865348" lon="8.7022472"/>
  <node id="302084329" version="2" timestamp="2012-01-09T11:29:20Z" uid="442210" user="dwausr" changeset="10340699" lat="48.8865348" lon="8.7022472"/>
  <node id="302084330" version="1" timestamp="2008-10-04T18:43:57Z" uid="67142" user="zottel" changeset="60699" lat="48.8864652" lon="8.7022655"/>
  <node id="302084330" version="2" timestamp="2012-01-05T17:47:59Z" uid="63969" user="olvagor" changeset="10303495" lat="48.8864652" lon="8.7022655"/>
  <node id="302084331" version="1" timestamp="2008-10-04T18:43:57Z" uid="67142" user="zottel" changeset="60699" lat="48.8864587" lon="8.7015062"/>
  <node id="302084331" version="2" timestamp="2012-01-09T11:29:20Z" uid="442210" user="dwausr" changeset="10340699" lat="48.8864587" lon="8.7015062"/>
  <node id="302084333" version="1" timestamp="2008-10-04T18:43:58Z" uid="67142" user="zottel" changeset="60699" lat="48.8864339" lon="8.7014145"/>
  <node id="302084333" version="2" timestamp="2012-01-09T11:29:20Z" uid="442210" user="dwausr" changeset="10340699" lat="48.8864339" lon="8.7014145"/>
  <node id="302084334" version="1" timestamp="2008-10-04T18:43:58Z" uid="67142" user="zottel" changeset="60699" lat="48.8863613" lon="8.7012958"/>
  <node id="302084334" version="2" timestamp="2012-01-09T11:29:21Z" uid="442210" user="dwausr" changeset="10340699" lat="48.8863613" lon="8.7012958"/>
  <node id="302084335" version="1" timestamp="2008-10-04T18:43:58Z" uid="67142" user="zottel" changeset="60699" lat="48.8863141" lon="8.7011229"/>
  <node id="302084335" version="2" timestamp="2012-01-09T11:29:21Z" uid="442210" user="dwausr" changeset="10340699" lat="48.8863141" lon="8.7011229"/>
  <node id="302084338" version="1" timestamp="2008-10-04T18:43:59Z" uid="67142" user="zottel" changeset="60699" lat="48.8861465" lon="8.7008147"/>
  <node id="302084338" version="2" timestamp="2012-01-09T11:29:21Z" uid="442210" user="dwausr" changeset="10340699" lat="48.8861465" lon="8.7008147"/>
  <node id="302084341" version="1" timestamp="2008-10-04T18:43:59Z" uid="67142" user="zottel" changeset="60699" lat="48.8858988" lon="8.7004289"/>
  <node id="302084341" version="2" timestamp="2012-01-09T11:29:21Z" uid="442210" user="dwausr" changeset="10340699" lat="48.8858988" lon="8.7004289"/>
  <node id="302084343" version="1" timestamp="2008-10-04T18:43:59Z" uid="67142" user="zottel" changeset="60699" lat="48.8857977" lon="8.7002823"/>
  <node id="302084343" version="2" timestamp="2012-01-09T11:29:22Z" uid="442210" user="dwausr" changeset="10340699" lat="48.8857977" lon="8.7002823"/>
  <node id="302084416" version="1" timestamp="2008-10-04T18:44:10Z" uid="67142" user="zottel" changeset="60699" lat="48.8855514" lon="8.7000374"/>
  <node id="302084416" version="2" timestamp="2012-01-09T11:29:22Z" uid="442210" user="dwausr" changeset="10340699" lat="48.8855514" lon="8.7000374"/>
  <node id="302084417" version="1" timestamp="2008-10-04T18:44:10Z" uid="67142" user="zottel" changeset="60699" lat="48.8853151" lon="8.6998396"/>
  <node id="302084417" version="2" timestamp="2012-01-09T11:29:22Z" uid="442210" user="dwausr" changeset="10340699" lat="48.8853151" lon="8.6998396"/>
  <node id="302084419" version="1" timestamp="2008-10-04T18:44:10Z" uid="67142" user="zottel" changeset="60699" lat="48.8851557" lon="8.6997712"/>
  <node id="302084419" version="2" timestamp="2012-01-09T11:29:22Z" uid="442210" user="dwausr" changeset="10340699" lat="48.8851557" lon="8.6997712"/>
  <node id="302084421" version="1" timestamp="2008-10-04T18:44:11Z" uid="67142" user="zottel" changeset="60699" lat="48.8858631" lon="8.7003773"/>
  <node id="302084421" version="2" timestamp="2012-02-01T08:14:58Z" uid="442210" user="dwausr" changeset="10556583" lat="48.8858631" lon="8.7003773"/>
  <node id="302084422" version="1" timestamp="2008-10-04T18:44:11Z" uid="67142" user="zottel" changeset="60699" lat="48.8858318" lon="8.7000679"/>
  <node id="302084422" version="2" timestamp="2012-02-01T08:14:58Z" uid="442210" user="dwausr" changeset="10556583" lat="48.8858318" lon="8.7000679"/>
  <node id="302084932" version="1" timestamp="2008-10-04T18:45:37Z" uid="33382" user="de_muur" changeset="65756" lat="53.5036935" lon="10.3587818">
    <tag k="created_by" v="JOSM"/>
    <tag k="highway" v="bus_stop"/>
  </node>
  <node id="302084932" version="2" timestamp="2009-11-21T19:47:43Z" uid="41512" user="Kuddl Klien" changeset="3179425" lat="53.5036886" lon="10.3587788">
    <tag k="highway" v="bus_stop"/>
    <tag k="name" v="Dassendorf, Berodtskamp"/>
  </node>
  <node id="302084932" version="3" timestamp="2012-03-21T12:43:47Z" uid="349191" user="Glühwürmchen" changeset="11051615" lat="53.5036886" lon="10.3587788"/>
  <node id="302084981" version="1" timestamp="2008-10-04T18:45:48Z" uid="33382" user="de_muur" changeset="65756" lat="53.4997785" lon="10.3515799">
    <tag k="created_by" v="JOSM"/>
    <tag k="highway" v="bus_stop"/>
  </node>
  <node id="302084981" version="2" timestamp="2009-11-21T19:45:57Z" uid="41512" user="Kuddl Klien" changeset="3179425" lat="53.499778" lon="10.3515861">
    <tag k="highway" v="bus_stop"/>
    <tag k="name" v="Dassendorf, Quellenweg"/>
  </node>
  <node id="302084981" version="3" timestamp="2012-03-30T12:38:41Z" uid="349191" user="Glühwürmchen" changeset="11151317" lat="53.499778" lon="10.3515861"/>
  <node id="302084983" version="1" timestamp="2008-10-04T18:45:48Z" uid="33382" user="de_muur" changeset="65756" lat="53.4955351" lon="10.3505036">
    <tag k="created_by" v="JOSM"/>
    <tag k="highway" v="bus_stop"/>
  </node>
  <node id="302084983" version="2" timestamp="2009-11-21T19:45:44Z" uid="41512" user="Kuddl Klien" changeset="3179425" lat="53.4955301" lon="10.3505047">
    <tag k="highway" v="bus_stop"/>
    <tag k="name" v="Dassendorf, Kreuzhornweg"/>
  </node>
  <node id="302084985" version="1" timestamp="2008-10-04T18:45:48Z" uid="33382" user="de_muur" changeset="65756" lat="53.4936516" lon="10.3570887">
    <tag k="created_by" v="JOSM"/>
    <tag k="highway" v="bus_stop"/>
  </node>
  <node id="302084985" version="2" timestamp="2009-11-21T19:45:31Z" uid="41512" user="Kuddl Klien" changeset="3179425" lat="53.4936562" lon="10.3570879">
    <tag k="highway" v="bus_stop"/>
    <tag k="name" v="Dassendorf, Schule"/>
  </node>
  <node id="302084988" version="1" timestamp="2008-10-04T18:45:48Z" uid="33382" user="de_muur" changeset="65756" lat="53.4938692" lon="10.3634387">
    <tag k="created_by" v="JOSM"/>
    <tag k="highway" v="bus_stop"/>
  </node>
  <node id="302084988" version="2" timestamp="2009-12-08T19:16:01Z" uid="33382" user="de_muur" changeset="3327182" lat="53.4938278" lon="10.3634213">
    <tag k="highway" v="bus_stop"/>
  </node>
  <node id="302084990" version="1" timestamp="2008-10-04T18:45:49Z" uid="33382" user="de_muur" changeset="65756" lat="53.4938492" lon="10.3635673">
    <tag k="created_by" v="JOSM"/>
    <tag k="highway" v="bus_stop"/>
  </node>
  <node id="302084990" version="2" timestamp="2009-12-08T19:16:00Z" uid="33382" user="de_muur" changeset="3327182" lat="53.4938078" lon="10.3635499">
    <tag k="highway" v="bus_stop"/>
  </node>
  <node id="302085068" version="1" timestamp="2008-10-04T18:45:59Z" uid="33382" user="de_muur" changeset="65756" lat="53.493659" lon="10.3634487">
    <tag k="created_by" v="JOSM"/>
    <tag k="highway" v="traffic_signals"/>
  </node>
  <node id="302085068" version="2" timestamp="2009-12-08T19:16:00Z" uid="33382" user="de_muur" changeset="3327182" lat="53.4936176" lon="10.3634313">
    <tag k="highway" v="traffic_signals"/>
  </node>
  <node id="302085068" version="3" timestamp="2009-12-10T17:05:47Z" uid="33382" user="de_muur" changeset="3343335" lat="53.493617" lon="10.3634406">
    <tag k="highway" v="traffic_signals"/>
  </node>
  <node id="302085068" version="4" timestamp="2012-03-12T12:17:50Z" uid="63375" user="Divjo" changeset="10954104" lat="53.493617" lon="10.3634406"/>
  <node id="302085069" version="1" timestamp="2008-10-04T18:45:59Z" uid="33382" user="de_muur" changeset="65756" lat="53.4937391" lon="10.3633171">
    <tag k="created_by" v="JOSM"/>
    <tag k="highway" v="traffic_signals"/>
  </node>
  <node id="302085069" version="2" timestamp="2009-12-08T19:15:59Z" uid="33382" user="de_muur" changeset="3327182" lat="53.4936977" lon="10.3632997">
    <tag k="highway" v="traffic_signals"/>
  </node>
  <node id="302085069" version="3" timestamp="2012-03-30T12:35:54Z" uid="349191" user="Glühwürmchen" changeset="11151317" lat="53.4936977" lon="10.3632997"/>
  <node id="302085070" version="1" timestamp="2008-10-04T18:45:59Z" uid="33382" user="de_muur" changeset="65756" lat="53.4897693" lon="10.3607204">
    <tag k="created_by" v="JOSM"/>
  </node>
  <node id="302085071" version="1" timestamp="2008-10-04T18:46:00Z" uid="33382" user="de_muur" changeset="65756" lat="53.4897429" lon="10.3607468">
    <tag k="created_by" v="JOSM"/>
  </node>
  <node id="302085072" version="1" timestamp="2008-10-04T18:46:00Z" uid="33382" user="de_muur" changeset="65756" lat="53.48976" lon="10.36076">
    <tag k="created_by" v="JOSM"/>
  </node>
  <node id="302085073" version="1" timestamp="2008-10-04T18:46:00Z" uid="33382" user="de_muur" changeset="65756" lat="53.4912803" lon="10.3618975">
    <tag k="created_by" v="JOSM"/>
  </node>
  <node id="302085074" version="1" timestamp="2008-10-04T18:46:00Z" uid="33382" user="de_muur" changeset="65756" lat="53.491274" lon="10.3620111">
    <tag k="created_by" v="JOSM"/>
  </node>
  <node id="302085075" version="1" timestamp="2008-10-04T18:46:00Z" uid="33382" user="de_muur" changeset="65756" lat="53.4913749" lon="10.3620111">
    <tag k="created_by" v="JOSM"/>
  </node>
  <node id="302085076" version="1" timestamp="2008-10-04T18:46:01Z" uid="33382" user="de_muur" changeset="65756" lat="53.4897746" lon="10.361766">
    <tag k="created_by" v="JOSM"/>
  </node>
  <node id="302085130" version="1" timestamp="2008-10-04T18:46:11Z" uid="33382" user="de_muur" changeset="65756" lat="53.4897617" lon="10.3618624">
    <tag k="created_by" v="JOSM"/>
  </node>
  <node id="302085131" version="1" timestamp="2008-10-04T18:46:11Z" uid="33382" user="de_muur" changeset="65756" lat="53.4891824" lon="10.3631616">
    <tag k="created_by" v="JOSM"/>
    <tag k="highway" v="bus_stop"/>
  </node>
  <node id="302085131" version="2" timestamp="2008-10-07T14:47:19Z" uid="33382" user="de_muur" changeset="129727" lat="53.4892696" lon="10.3631638">
    <tag k="created_by" v="JOSM"/>
    <tag k="highway" v="bus_stop"/>
  </node>
  <node id="302085131" version="3" timestamp="2009-03-20T15:35:57Z" uid="36745" user="Gluko" changeset="836637" lat="53.4892777" lon="10.3632504">
    <tag k="created_by" v="Potlatch 0.10f"/>
    <tag k="highway" v="bus_stop"/>
  </node>
  <node id="302085131" version="4" timestamp="2009-09-09T13:32:26Z" uid="41512" user="Kuddl Klien" changeset="2425372" lat="53.4892792" lon="10.3632431">
    <tag k="created_by" v="Potlatch 0.10f"/>
    <tag k="highway" v="bus_stop"/>
    <tag k="name" v="Dassendorf, Sperberweg"/>
  </node>
  <node id="302085131" version="5" timestamp="2009-09-09T13:32:43Z" uid="41512" user="Kuddl Klien" changeset="2425372" lat="53.4899379" lon="10.3633289">
    <tag k="created_by" v="Potlatch 0.10f"/>
    <tag k="highway" v="bus_stop"/>
    <tag k="name" v="Dassendorf, Sperberweg"/>
  </node>
  <node id="302085131" version="6" timestamp="2009-09-09T13:33:00Z" uid="41512" user="Kuddl Klien" changeset="2425372" lat="53.489943" lon="10.3632945">
    <tag k="created_by" v="Potlatch 0.10f"/>
    <tag k="highway" v="bus_stop"/>
    <tag k="name" v="Dassendorf, Sperberweg"/>
  </node>
  <node id="302085132" version="1" timestamp="2008-10-04T18:46:11Z" uid="33382" user="de_muur" changeset="65756" lat="53.4891078" lon="10.3631393">
    <tag k="created_by" v="JOSM"/>
    <tag k="highway" v="bus_stop"/>
  </node>
  <node id="302085132" version="2" timestamp="2008-10-07T14:47:19Z" uid="33382" user="de_muur" changeset="129727" lat="53.4890293" lon="10.3631328">
    <tag k="created_by" v="JOSM"/>
    <tag k="highway" v="bus_stop"/>
  </node>
  <node id="302085132" version="3" timestamp="2009-03-20T15:35:50Z" uid="36745" user="Gluko" changeset="836637" lat="53.4890325" lon="10.3630787">
    <tag k="created_by" v="Potlatch 0.10f"/>
    <tag k="highway" v="bus_stop"/>
  </node>
  <node id="302085132" version="4" timestamp="2009-07-06T09:17:23Z" uid="45901" user="jorkh" changeset="1751023" lat="53.4890282" lon="10.3630785">
    <tag k="created_by" v="Potlatch 0.10f"/>
    <tag k="highway" v="bus_stop"/>
    <tag k="name" v="Amt Hohe Elbgeest"/>
  </node>
  <node id="302085132" version="5" timestamp="2009-09-09T13:33:12Z" uid="41512" user="Kuddl Klien" changeset="2425372" lat="53.4889932" lon="10.3643417">
    <tag k="created_by" v="Potlatch 0.10f"/>
    <tag k="highway" v="bus_stop"/>
    <tag k="name" v="Amt Hohe Elbgeest"/>
  </node>
  <node id="302085132" version="6" timestamp="2009-09-09T13:33:39Z" uid="41512" user="Kuddl Klien" changeset="2425372" lat="53.4889932" lon="10.3643417">
    <tag k="created_by" v="Potlatch 0.10f"/>
    <tag k="highway" v="bus_stop"/>
    <tag k="name" v="Dassendorf, Amt Hohe Elbgeest"/>
  </node>
  <node id="302085132" version="7" timestamp="2012-03-12T12:17:46Z" uid="63375" user="Divjo" changeset="10954104" lat="53.4889932" lon="10.3643417"/>
  <node id="302085133" version="1" timestamp="2008-10-04T18:46:12Z" uid="33382" user="de_muur" changeset="65756" lat="53.4891581" lon="10.3631117">
    <tag k="created_by" v="JOSM"/>
    <tag k="highway" v="bus_stop"/>
  </node>
  <node id="302085133" version="2" timestamp="2008-10-07T14:47:19Z" uid="33382" user="de_muur" changeset="129727" lat="53.4891701" lon="10.3629548">
    <tag k="created_by" v="JOSM"/>
    <tag k="highway" v="bus_stop"/>
  </node>
  <node id="302085133" version="3" timestamp="2009-03-20T15:35:55Z" uid="36745" user="Gluko" changeset="836637" lat="53.489196" lon="10.3629585">
    <tag k="created_by" v="Potlatch 0.10f"/>
    <tag k="highway" v="bus_stop"/>
  </node>
  <node id="302085133" version="4" timestamp="2009-07-06T09:16:59Z" uid="45901" user="jorkh" changeset="1751023" lat="53.4891916" lon="10.3629584">
    <tag k="created_by" v="Potlatch 0.10f"/>
    <tag k="highway" v="bus_stop"/>
    <tag k="name" v="Amt Hohe Elbgeest"/>
  </node>
  <node id="302085133" version="5" timestamp="2009-07-09T12:21:34Z" uid="45901" user="jorkh" changeset="1780535" lat="53.4891886" lon="10.3629546">
    <tag k="created_by" v="Potlatch 0.10f"/>
    <tag k="highway" v="bus_stop"/>
    <tag k="name" v="Amt Hohe Elbgeest"/>
  </node>
  <node id="302085133" version="6" timestamp="2009-09-09T13:33:04Z" uid="41512" user="Kuddl Klien" changeset="2425372" lat="53.4892587" lon="10.3624792">
    <tag k="created_by" v="Potlatch 0.10f"/>
    <tag k="highway" v="bus_stop"/>
    <tag k="name" v="Amt Hohe Elbgeest"/>
  </node>
  <node id="302085133" version="7" timestamp="2009-09-09T13:33:16Z" uid="41512" user="Kuddl Klien" changeset="2425372" lat="53.4892894" lon="10.3622131">
    <tag k="created_by" v="Potlatch 0.10f"/>
    <tag k="highway" v="bus_stop"/>
    <tag k="name" v="Amt Hohe Elbgeest"/>
  </node>
  <node id="302085133" version="8" timestamp="2009-09-09T13:33:30Z" uid="41512" user="Kuddl Klien" changeset="2425372" lat="53.4892894" lon="10.3622131">
    <tag k="created_by" v="Potlatch 0.10f"/>
    <tag k="highway" v="bus_stop"/>
    <tag k="name" v="Dassendorf, Amt Hohe Elbgeest"/>
  </node>
  <node id="302085133" version="9" timestamp="2011-12-23T21:17:12Z" uid="290680" user="wheelmap_visitor" changeset="10185228" lat="53.4892894" lon="10.3622131">
    <tag k="created_by" v="Potlatch 0.10f"/>
    <tag k="highway" v="bus_stop"/>
    <tag k="name" v="Dassendorf, Amt Hohe Elbgeest"/>
    <tag k="wheelchair" v="limited"/>
  </node>
  <node id="302085134" version="1" timestamp="2008-10-04T18:46:12Z" uid="33382" user="de_muur" changeset="65756" lat="53.4891259" lon="10.3631924">
    <tag k="created_by" v="JOSM"/>
    <tag k="highway" v="bus_stop"/>
  </node>
  <node id="302085134" version="2" timestamp="2008-10-07T14:47:18Z" uid="33382" user="de_muur" changeset="129727" lat="53.4891106" lon="10.3633166">
    <tag k="created_by" v="JOSM"/>
    <tag k="highway" v="bus_stop"/>
  </node>
  <node id="302085134" version="3" timestamp="2009-03-20T15:35:53Z" uid="36745" user="Gluko" changeset="836637" lat="53.4890938" lon="10.3633362">
    <tag k="created_by" v="Potlatch 0.10f"/>
    <tag k="highway" v="bus_stop"/>
  </node>
  <node id="302085134" version="4" timestamp="2009-09-09T13:32:53Z" uid="41512" user="Kuddl Klien" changeset="2425372" lat="53.489943" lon="10.3629512">
    <tag k="created_by" v="Potlatch 0.10f"/>
    <tag k="highway" v="bus_stop"/>
  </node>
  <node id="302085134" version="5" timestamp="2009-09-09T13:32:58Z" uid="41512" user="Kuddl Klien" changeset="2425372" lat="53.489943" lon="10.3629512">
    <tag k="created_by" v="Potlatch 0.10f"/>
    <tag k="highway" v="bus_stop"/>
    <tag k="name" v="Dassendorf, Sperberweg"/>
  </node>
  <node id="302085135" version="1" timestamp="2008-10-04T18:46:12Z" uid="33382" user="de_muur" changeset="65756" lat="53.4898095" lon="10.3499249">
    <tag k="created_by" v="JOSM"/>
    <tag k="highway" v="traffic_signals"/>
  </node>
  <node id="302085135" version="2" timestamp="2010-05-06T15:29:54Z" uid="33382" user="de_muur" changeset="4622604" lat="53.4898822" lon="10.3500183">
    <tag k="highway" v="traffic_signals"/>
  </node>
  <node id="302085135" version="3" timestamp="2012-03-30T12:34:10Z" uid="349191" user="Glühwürmchen" changeset="11151317" lat="53.4898822" lon="10.3500183"/>
  <node id="302085136" version="1" timestamp="2008-10-04T18:46:12Z" uid="33382" user="de_muur" changeset="65756" lat="53.4934316" lon="10.3709487">
    <tag k="amenity" v="recycling"/>
    <tag k="created_by" v="JOSM"/>
  </node>
  <node id="302085630" version="8" timestamp="2009-10-20T00:45:25Z" uid="36809" user="pfoten_weg_!_" changeset="2899059" lat="47.6561164" lon="11.8319009"/>
  <node id="302085630" version="9" timestamp="2011-04-10T22:48:47Z" uid="418282" user="Norbert18" changeset="7828474" lat="47.6561164" lon="11.8319009"/>
  <node id="302086673" version="6" timestamp="2009-10-31T23:16:09Z" uid="36809" user="pfoten_weg_!_" changeset="3002500" lat="47.6658025" lon="11.8198326"/>
  <node id="302086673" version="7" timestamp="2009-10-31T23:32:13Z" uid="36809" user="pfoten_weg_!_" changeset="3002613" lat="47.6658025" lon="11.8198326"/>
  <node id="302086673" version="8" timestamp="2010-05-26T19:44:39Z" uid="64756" user="alegria6208" changeset="4815824" lat="47.6658025" lon="11.8198326"/>
  <node id="302086747" version="3" timestamp="2009-10-31T23:17:21Z" uid="36809" user="pfoten_weg_!_" changeset="3002500" lat="47.6643615" lon="11.8215514"/>
  <node id="302086747" version="4" timestamp="2009-10-31T23:33:21Z" uid="36809" user="pfoten_weg_!_" changeset="3002613" lat="47.6643615" lon="11.8215514"/>
  <node id="302086747" version="5" timestamp="2010-01-03T17:02:11Z" uid="115079" user="cedro" changeset="3530186" lat="47.6646664" lon="11.8212948"/>
  <node id="302086747" version="6" timestamp="2010-06-02T18:31:44Z" uid="62236" user="Paulchen Panther" changeset="4886526" lat="47.6646664" lon="11.8212948"/>
  <node id="302086748" version="3" timestamp="2009-10-31T23:17:17Z" uid="36809" user="pfoten_weg_!_" changeset="3002500" lat="47.6633305" lon="11.8220706"/>
  <node id="302086748" version="4" timestamp="2009-10-31T23:33:17Z" uid="36809" user="pfoten_weg_!_" changeset="3002613" lat="47.6633305" lon="11.8220706"/>
  <node id="302086748" version="5" timestamp="2010-05-26T20:43:05Z" uid="64756" user="alegria6208" changeset="4815824" lat="47.6633305" lon="11.8220706"/>
  <node id="302086752" version="3" timestamp="2009-10-31T23:17:16Z" uid="36809" user="pfoten_weg_!_" changeset="3002500" lat="47.6626666" lon="11.8239398"/>
  <node id="302086752" version="4" timestamp="2009-10-31T23:33:17Z" uid="36809" user="pfoten_weg_!_" changeset="3002613" lat="47.6626666" lon="11.8239398"/>
  <node id="302086752" version="5" timestamp="2010-05-26T20:43:03Z" uid="64756" user="alegria6208" changeset="4815824" lat="47.6626666" lon="11.8239398"/>
  <node id="302086790" version="3" timestamp="2009-10-31T23:17:16Z" uid="36809" user="pfoten_weg_!_" changeset="3002500" lat="47.6623055" lon="11.8239147"/>
  <node id="302086790" version="4" timestamp="2009-10-31T23:33:17Z" uid="36809" user="pfoten_weg_!_" changeset="3002613" lat="47.6623055" lon="11.8239147"/>
  <node id="302086790" version="5" timestamp="2010-05-26T20:43:01Z" uid="64756" user="alegria6208" changeset="4815824" lat="47.6623055" lon="11.8239147"/>
  <node id="302086791" version="3" timestamp="2009-10-31T23:17:18Z" uid="36809" user="pfoten_weg_!_" changeset="3002500" lat="47.6620945" lon="11.8248994"/>
  <node id="302086791" version="4" timestamp="2009-10-31T23:33:18Z" uid="36809" user="pfoten_weg_!_" changeset="3002613" lat="47.6620945" lon="11.8248994"/>
  <node id="302086791" version="5" timestamp="2010-05-26T20:43:07Z" uid="64756" user="alegria6208" changeset="4815824" lat="47.6620945" lon="11.8248994"/>
  <node id="302086792" version="3" timestamp="2009-10-31T23:17:17Z" uid="36809" user="pfoten_weg_!_" changeset="3002500" lat="47.6617716" lon="11.8255825"/>
  <node id="302086792" version="4" timestamp="2009-10-31T23:33:18Z" uid="36809" user="pfoten_weg_!_" changeset="3002613" lat="47.6617716" lon="11.8255825"/>
  <node id="302086792" version="5" timestamp="2010-05-26T20:43:05Z" uid="64756" user="alegria6208" changeset="4815824" lat="47.6617716" lon="11.8255825"/>
  <node id="302086821" version="3" timestamp="2009-10-31T23:17:13Z" uid="36809" user="pfoten_weg_!_" changeset="3002500" lat="47.660995" lon="11.8267781"/>
  <node id="302086821" version="4" timestamp="2009-10-31T23:33:15Z" uid="36809" user="pfoten_weg_!_" changeset="3002613" lat="47.660995" lon="11.8267781"/>
  <node id="302086821" version="5" timestamp="2010-05-26T20:43:02Z" uid="64756" user="alegria6208" changeset="4815824" lat="47.660995" lon="11.8267781"/>
  <node id="302086822" version="3" timestamp="2009-10-31T23:17:19Z" uid="36809" user="pfoten_weg_!_" changeset="3002500" lat="47.660322" lon="11.826911"/>
  <node id="302086822" version="4" timestamp="2009-10-31T23:33:20Z" uid="36809" user="pfoten_weg_!_" changeset="3002613" lat="47.660322" lon="11.826911"/>
  <node id="302086822" version="5" timestamp="2010-05-26T20:43:07Z" uid="64756" user="alegria6208" changeset="4815824" lat="47.660322" lon="11.826911"/>
  <node id="302086824" version="3" timestamp="2009-10-31T23:17:20Z" uid="36809" user="pfoten_weg_!_" changeset="3002500" lat="47.6597845" lon="11.8277386"/>
  <node id="302086824" version="4" timestamp="2009-10-31T23:33:20Z" uid="36809" user="pfoten_weg_!_" changeset="3002613" lat="47.6597845" lon="11.8277386"/>
  <node id="302086824" version="5" timestamp="2010-05-26T20:43:03Z" uid="64756" user="alegria6208" changeset="4815824" lat="47.6597845" lon="11.8277386"/>
  <node id="302086825" version="3" timestamp="2009-10-31T23:17:18Z" uid="36809" user="pfoten_weg_!_" changeset="3002500" lat="47.6594476" lon="11.8282117"/>
  <node id="302086825" version="4" timestamp="2009-10-31T23:33:19Z" uid="36809" user="pfoten_weg_!_" changeset="3002613" lat="47.6594476" lon="11.8282117"/>
  <node id="302086825" version="5" timestamp="2010-05-26T20:43:08Z" uid="64756" user="alegria6208" changeset="4815824" lat="47.6594476" lon="11.8282117"/>
  <node id="302086826" version="3" timestamp="2009-10-31T23:17:19Z" uid="36809" user="pfoten_weg_!_" changeset="3002500" lat="47.6591943" lon="11.8283549"/>
  <node id="302086826" version="4" timestamp="2009-10-31T23:33:20Z" uid="36809" user="pfoten_weg_!_" changeset="3002613" lat="47.6591943" lon="11.8283549"/>
  <node id="302086826" version="5" timestamp="2010-05-26T20:43:06Z" uid="64756" user="alegria6208" changeset="4815824" lat="47.6591943" lon="11.8283549"/>
  <node id="302089500" version="1" timestamp="2008-10-04T19:01:59Z" uid="33382" user="de_muur" changeset="65756" lat="53.4872322" lon="10.3722229">
    <tag k="created_by" v="JOSM"/>
    <tag k="highway" v="bus_stop"/>
  </node>
  <node id="302089500" version="2" timestamp="2010-01-20T20:19:47Z" uid="33382" user="de_muur" changeset="3670019" lat="53.4872531" lon="10.37213">
    <tag k="highway" v="bus_stop"/>
  </node>
  <node id="302089500" version="3" timestamp="2010-09-14T14:37:23Z" uid="73358" user="Bindeking" changeset="5779060" lat="53.4872531" lon="10.3721299">
    <tag k="highway" v="bus_stop"/>
    <tag k="name" v="Dassendorf, Siedlung"/>
  </node>
  <node id="302089501" version="1" timestamp="2008-10-04T19:02:00Z" uid="33382" user="de_muur" changeset="65756" lat="53.4873616" lon="10.3721912">
    <tag k="created_by" v="JOSM"/>
    <tag k="highway" v="bus_stop"/>
  </node>
  <node id="302089501" version="2" timestamp="2010-01-20T20:19:48Z" uid="33382" user="de_muur" changeset="3670019" lat="53.4873825" lon="10.3720983">
    <tag k="highway" v="bus_stop"/>
  </node>
  <node id="302089501" version="3" timestamp="2010-09-14T14:37:22Z" uid="73358" user="Bindeking" changeset="5779060" lat="53.4873825" lon="10.3720983">
    <tag k="highway" v="bus_stop"/>
    <tag k="name" v="Dassendorf, Siedlung"/>
  </node>
  <node id="302089502" version="1" timestamp="2008-10-04T19:02:00Z" uid="33382" user="de_muur" changeset="65756" lat="53.4885505" lon="10.3730287">
    <tag k="created_by" v="JOSM"/>
    <tag k="highway" v="bus_stop"/>
  </node>
  <node id="302089502" version="2" timestamp="2008-10-07T14:47:20Z" uid="33382" user="de_muur" changeset="129727" lat="53.4885541" lon="10.3730287">
    <tag k="created_by" v="JOSM"/>
    <tag k="highway" v="bus_stop"/>
  </node>
  <node id="302089502" version="3" timestamp="2009-12-08T19:15:59Z" uid="33382" user="de_muur" changeset="3327182" lat="53.4885748" lon="10.3730548">
    <tag k="highway" v="bus_stop"/>
  </node>
  <node id="302089502" version="4" timestamp="2010-09-14T14:37:23Z" uid="73358" user="Bindeking" changeset="5779060" lat="53.4885748" lon="10.3730547">
    <tag k="highway" v="bus_stop"/>
    <tag k="name" v="Dassendorf, Steinberg"/>
  </node>
  <node id="302089504" version="1" timestamp="2008-10-04T19:02:00Z" uid="33382" user="de_muur" changeset="65756" lat="53.48861" lon="10.3730617">
    <tag k="created_by" v="JOSM"/>
    <tag k="highway" v="bus_stop"/>
  </node>
  <node id="302089504" version="2" timestamp="2008-10-07T14:47:19Z" uid="33382" user="de_muur" changeset="129727" lat="53.4886004" lon="10.3730677">
    <tag k="created_by" v="JOSM"/>
    <tag k="highway" v="bus_stop"/>
  </node>
  <node id="302089504" version="3" timestamp="2009-07-09T12:21:48Z" uid="45901" user="jorkh" changeset="1780535" lat="53.4885962" lon="10.3730655">
    <tag k="created_by" v="JOSM"/>
    <tag k="highway" v="bus_stop"/>
  </node>
  <node id="302089504" version="4" timestamp="2009-12-08T19:15:59Z" uid="33382" user="de_muur" changeset="3327182" lat="53.4886169" lon="10.3730916">
    <tag k="highway" v="bus_stop"/>
  </node>
  <node id="302089504" version="5" timestamp="2010-09-14T14:37:23Z" uid="73358" user="Bindeking" changeset="5779060" lat="53.488617" lon="10.3730915">
    <tag k="highway" v="bus_stop"/>
    <tag k="name" v="Dassendorf, Steinberg"/>
  </node>
  <node id="302089505" version="1" timestamp="2008-10-04T19:02:00Z" uid="33382" user="de_muur" changeset="65756" lat="53.4885814" lon="10.3730036">
    <tag k="created_by" v="JOSM"/>
    <tag k="highway" v="traffic_signals"/>
  </node>
  <node id="302089505" version="2" timestamp="2009-09-02T01:47:22Z" uid="26492" user="phobie" changeset="2344223" lat="53.4885814" lon="10.3730036">
    <tag k="highway" v="traffic_signals"/>
  </node>
  <node id="302089505" version="3" timestamp="2009-12-08T19:15:59Z" uid="33382" user="de_muur" changeset="3327182" lat="53.4886021" lon="10.3730297">
    <tag k="highway" v="traffic_signals"/>
  </node>
  <node id="302089505" version="4" timestamp="2010-01-20T20:19:47Z" uid="33382" user="de_muur" changeset="3670019" lat="53.4886037" lon="10.37303">
    <tag k="highway" v="traffic_signals"/>
  </node>
  <node id="302089505" version="5" timestamp="2012-03-12T12:17:50Z" uid="63375" user="Divjo" changeset="10954104" lat="53.4886037" lon="10.37303"/>
  <node id="302089506" version="1" timestamp="2008-10-04T19:02:00Z" uid="33382" user="de_muur" changeset="65756" lat="53.4907253" lon="10.3749635">
    <tag k="created_by" v="JOSM"/>
  </node>
  <node id="302089507" version="1" timestamp="2008-10-04T19:02:01Z" uid="33382" user="de_muur" changeset="65756" lat="53.4905625" lon="10.3748808">
    <tag k="created_by" v="JOSM"/>
    <tag k="historic" v="memorial"/>
  </node>
  <node id="302089569" version="1" timestamp="2008-10-04T19:02:11Z" uid="33382" user="de_muur" changeset="65756" lat="53.4899128" lon="10.3743169">
    <tag k="amenity" v="fire_station"/>
    <tag k="created_by" v="JOSM"/>
  </node>
  <node id="302089570" version="1" timestamp="2008-10-04T19:02:11Z" uid="33382" user="de_muur" changeset="65756" lat="53.4923001" lon="10.3743028">
    <tag k="created_by" v="JOSM"/>
  </node>
  <node id="302089570" version="2" timestamp="2009-12-08T19:15:59Z" uid="33382" user="de_muur" changeset="3327182" lat="53.4923001" lon="10.3743474"/>
  <node id="302082044" version="30" timestamp="2012-07-17T11:53:27Z" uid="722137" user="OSMF Redaction Account" changeset="12264539" lat="53.1035471" lon="8.9083862"/>
  <node id="302083829" version="3" timestamp="2012-07-11T10:29:22Z" uid="287306" user="Matthias Frank" changeset="12184149" lat="48.8913851" lon="8.6990149">
    <tag k="FIXME" v="name"/>
    <tag k="shop" v="kiosk"/>
  </node>
  <node id="302083829" version="4" timestamp="2012-07-19T15:40:59Z" uid="722137" user="OSMF Redaction Account" changeset="12335916" lat="48.8913851" lon="8.6990149">
    <tag k="FIXME" v="name"/>
  </node>
  <node id="302083838" version="4" timestamp="2012-07-09T15:57:15Z" uid="287306" user="Matthias Frank" changeset="12163866" lat="48.8902258" lon="8.7005095">
    <tag k="addr:city" v="Pforzheim"/>
    <tag k="addr:housenumber" v="16"/>
    <tag k="addr:postcode" v="75172"/>
    <tag k="addr:street" v="Am Waisenhausplatz"/>
    <tag k="fax" v="+49 7231 1441820"/>
    <tag k="name" v="Optiker Schütz"/>
    <tag k="phone" v="+49 7231 144180"/>
    <tag k="shop" v="optician"/>
    <tag k="website" v="http://www.optikerschuetz.de/"/>
  </node>
  <node id="302083838" version="5" timestamp="2012-07-10T07:06:11Z" uid="287306" user="Matthias Frank" changeset="12169751" lat="48.8902452" lon="8.7005283">
    <tag k="addr:city" v="Pforzheim"/>
    <tag k="addr:housenumber" v="16"/>
    <tag k="addr:postcode" v="75172"/>
    <tag k="addr:street" v="Am Waisenhausplatz"/>
    <tag k="fax" v="+49 7231 1441820"/>
    <tag k="name" v="Optiker Schütz"/>
    <tag k="phone" v="+49 7231 144180"/>
    <tag k="shop" v="optician"/>
    <tag k="website" v="http://www.optikerschuetz.de/"/>
  </node>
  <node id="302083838" version="6" timestamp="2012-07-11T06:52:37Z" uid="287306" user="Matthias Frank" changeset="12182361" lat="48.8902514" lon="8.700539">
    <tag k="addr:city" v="Pforzheim"/>
    <tag k="addr:housenumber" v="16"/>
    <tag k="addr:postcode" v="75172"/>
    <tag k="addr:street" v="Am Waisenhausplatz"/>
    <tag k="fax" v="+49 7231 1441820"/>
    <tag k="name" v="Optiker Schütz"/>
    <tag k="phone" v="+49 7231 144180"/>
    <tag k="shop" v="optician"/>
    <tag k="website" v="http://www.optikerschuetz.de/"/>
  </node>
  <node id="302083838" version="7" timestamp="2012-07-19T15:40:58Z" uid="722137" user="OSMF Redaction Account" changeset="12335916" lat="48.8902514" lon="8.700539">
    <tag k="website" v="http://www.optikerschuetz.de/"/>
  </node>
  <node id="302083940" version="7" timestamp="2012-07-09T16:10:45Z" uid="287306" user="Matthias Frank" changeset="12163866" lat="48.8900931" lon="8.7016594">
    <tag k="bus" v="yes"/>
    <tag k="bus_lines" v="1;5;6;9;62;63;656;763"/>
    <tag k="highway" v="bus_stop"/>
    <tag k="name" v="Waisenhausplatz"/>
    <tag k="operator" v="SVP;Seitter;Binder"/>
    <tag k="platform" v="1"/>
    <tag k="public_transport" v="platform"/>
    <tag k="shelter" v="yes"/>
    <tag k="uic_ref" v="940751"/>
  </node>
  <node id="302083940" version="8" timestamp="2012-07-19T15:40:58Z" uid="722137" user="OSMF Redaction Account" changeset="12335916" lat="48.8900931" lon="8.7016594">
    <tag k="bus" v="yes"/>
    <tag k="public_transport" v="platform"/>
    <tag k="uic_ref" v="940751"/>
  </node>
  <node id="302083940" version="9" timestamp="2012-07-29T14:25:25Z" uid="66200" user="seggel" changeset="12535671" lat="48.8901762" lon="8.7016524">
    <tag k="bus" v="yes"/>
    <tag k="public_transport" v="platform"/>
    <tag k="uic_ref" v="940751"/>
  </node>
  <node id="302084025" version="3" timestamp="2012-07-09T16:10:48Z" uid="287306" user="Matthias Frank" changeset="12163866" lat="48.8900012" lon="8.7021145"/>
  <node id="302084036" version="3" timestamp="2012-07-09T16:10:44Z" uid="287306" user="Matthias Frank" changeset="12163866" lat="48.8900015" lon="8.702776"/>
  <node id="302084036" version="4" timestamp="2012-07-29T06:21:27Z" uid="66200" user="seggel" changeset="12530785" lat="48.8900552" lon="8.7027972"/>
  <node id="302084041" version="7" timestamp="2012-07-19T15:40:58Z" uid="722137" user="OSMF Redaction Account" changeset="12335916" lat="48.8899674" lon="8.7017425">
    <tag k="bus" v="yes"/>
    <tag k="public_transport" v="platform"/>
    <tag k="uic_ref" v="940751"/>
  </node>
  <node id="302084044" version="7" timestamp="2012-07-19T15:40:58Z" uid="722137" user="OSMF Redaction Account" changeset="12335916" lat="48.8899594" lon="8.7015071">
    <tag k="bus" v="yes"/>
    <tag k="public_transport" v="platform"/>
    <tag k="uic_ref" v="940751"/>
  </node>
  <node id="302084050" version="5" timestamp="2012-07-19T15:40:57Z" uid="722137" user="OSMF Redaction Account" changeset="12335916" lat="48.88793" lon="8.7038797">
    <tag k="uic_ref" v="940632"/>
  </node>
  <node id="302084053" version="7" timestamp="2012-07-19T15:40:57Z" uid="722137" user="OSMF Redaction Account" changeset="12335916" lat="48.8880996" lon="8.7039639">
    <tag k="uic_ref" v="940632"/>
  </node>
  <node id="302084983" version="3" timestamp="2012-04-11T22:26:53Z" uid="349191" user="Glühwürmchen" changeset="11271007" lat="53.4955301" lon="10.3505047"/>
  <node id="302084985" version="3" timestamp="2012-06-07T16:56:13Z" uid="349191" user="Glühwürmchen" changeset="11827036" lat="53.4913175" lon="10.3450142"/>
  <node id="302084985" version="4" timestamp="2012-06-07T17:04:10Z" uid="349191" user="Glühwürmchen" changeset="11827036" lat="53.4913175" lon="10.3450142"/>
  <node id="302084988" version="3" timestamp="2012-04-11T22:46:53Z" uid="349191" user="Glühwürmchen" changeset="11271007" lat="53.4938278" lon="10.3634213"/>
  <node id="302084990" version="3" timestamp="2012-04-11T22:46:53Z" uid="349191" user="Glühwürmchen" changeset="11271007" lat="53.4938078" lon="10.3635499"/>
  <node id="302085070" version="2" timestamp="2012-06-07T16:56:32Z" uid="349191" user="Glühwürmchen" changeset="11827036" lat="53.4897693" lon="10.3607204"/>
  <node id="302085071" version="2" timestamp="2012-06-07T16:56:32Z" uid="349191" user="Glühwürmchen" changeset="11827036" lat="53.4897429" lon="10.3607468"/>
  <node id="302085072" version="2" timestamp="2012-06-07T16:56:32Z" uid="349191" user="Glühwürmchen" changeset="11827036" lat="53.48976" lon="10.36076"/>
  <node id="302085073" version="2" timestamp="2012-04-17T20:59:48Z" uid="349191" user="Glühwürmchen" changeset="11337974" lat="53.4912803" lon="10.3618975"/>
  <node id="302085074" version="2" timestamp="2012-04-17T20:59:47Z" uid="349191" user="Glühwürmchen" changeset="11337974" lat="53.491274" lon="10.3620111"/>
  <node id="302085075" version="2" timestamp="2012-04-17T20:59:48Z" uid="349191" user="Glühwürmchen" changeset="11337974" lat="53.4913749" lon="10.3620111"/>
  <node id="302085076" version="2" timestamp="2012-07-17T13:01:43Z" uid="722137" user="OSMF Redaction Account" changeset="12265873" lat="53.4897746" lon="10.361766"/>
  <node id="302085130" version="2" timestamp="2012-07-17T13:01:43Z" uid="722137" user="OSMF Redaction Account" changeset="12265873" lat="53.4897617" lon="10.3618624"/>
  <node id="302085131" version="7" timestamp="2012-04-11T22:46:53Z" uid="349191" user="Glühwürmchen" changeset="11271007" lat="53.489943" lon="10.3632945"/>
  <node id="302085133" version="10" timestamp="2012-04-17T20:59:49Z" uid="349191" user="Glühwürmchen" changeset="11337974" lat="53.4892894" lon="10.3622131"/>
  <node id="302085134" version="6" timestamp="2012-04-11T22:46:53Z" uid="349191" user="Glühwürmchen" changeset="11271007" lat="53.489943" lon="10.3629512"/>
  <node id="302085136" version="2" timestamp="2012-07-17T13:01:45Z" uid="722137" user="OSMF Redaction Account" changeset="12265873" lat="53.4934316" lon="10.3709487"/>
  <node id="302089500" version="4" timestamp="2012-04-16T17:02:04Z" uid="349191" user="Glühwürmchen" changeset="11324033" lat="53.4872531" lon="10.3721299"/>
  <node id="302089501" version="4" timestamp="2012-04-16T17:02:04Z" uid="349191" user="Glühwürmchen" changeset="11324033" lat="53.4873825" lon="10.3720983"/>
  <node id="302089502" version="5" timestamp="2012-04-16T17:02:04Z" uid="349191" user="Glühwürmchen" changeset="11324033" lat="53.4885748" lon="10.3730547"/>
  <node id="302089504" version="6" timestamp="2012-04-16T17:02:04Z" uid="349191" user="Glühwürmchen" changeset="11324033" lat="53.488617" lon="10.3730915"/>
  <node id="302089506" version="2" timestamp="2012-04-16T16:57:38Z" uid="349191" user="Glühwürmchen" changeset="11324033" lat="53.4907253" lon="10.3749635"/>
  <node id="302089507" version="2" timestamp="2012-04-16T16:57:38Z" uid="349191" user="Glühwürmchen" changeset="11324033" lat="53.4905625" lon="10.3748808"/>
  <node id="302089569" version="2" timestamp="2012-04-16T16:57:38Z" uid="349191" user="Glühwürmchen" changeset="11324033" lat="53.4899128" lon="10.3743169"/>
  <node id="302089570" version="3" timestamp="2012-04-16T16:57:38Z" uid="349191" user="Glühwürmchen" changeset="11324033" lat="53.4923001" lon="10.3743474"/>
</osm>
