<?xml version='1.0' encoding='UTF-8'?>
<osm version="0.6" generator="libosmium/2.20.0">
  <node id="302125435" version="5" timestamp="2008-10-23T17:31:22Z" uid="6975" user="ulfl" changeset="530870" lat="55.6816124" lon="12.5324344">
    <tag k="name" v="Frederiksberg Centret"/>
    <tag k="shop" v="shopping_center"/>
  </node>
  <node id="302125435" version="6" timestamp="2010-09-20T22:52:47Z" uid="65148" user="Pirat Michi" changeset="5833636" lat="55.6816124" lon="12.5324344">
    <tag k="name" v="Frederiksberg Centret"/>
    <tag k="shop" v="mall"/>
  </node>
  <node id="302125435" version="7" timestamp="2011-02-22T22:38:21Z" uid="402883" user="Andreas G" changeset="7368321" lat="55.6816124" lon="12.5324344">
    <tag k="name" v="Frederiksberg Centret"/>
    <tag k="shop" v="mall"/>
  </node>
  <node id="302126593" version="3" timestamp="2011-04-10T20:39:14Z" uid="4467" user="Rosscoe" changeset="7827395" lat="-37.7935197" lon="144.981676">
    <tag k="amenity" v="parking"/>
  </node>
  <node id="302129853" version="2" timestamp="2008-10-23T16:57:15Z" uid="6975" user="ulfl" changeset="530870" lat="46.545" lon="10.857778">
    <tag k="name" v="Hasenörl"/>
    <tag k="natural" v="peak"/>
  </node>
  <node id="302129853" version="3" timestamp="2009-07-08T11:20:00Z" uid="95702" user="Balgofil" changeset="1771495" lat="46.5449548" lon="10.8588625">
    <tag k="ele" v="3257"/>
    <tag k="name" v="Hasenöhrl"/>
    <tag k="name:it" v="L&apos;Orecchia di Lepre"/>
    <tag k="natural" v="peak"/>
  </node>
  <node id="302129853" version="4" timestamp="2010-03-29T20:37:11Z" uid="242270" user="JoeBloggs" changeset="4271346" lat="46.5441289" lon="10.8587824">
    <tag k="ele" v="3257"/>
    <tag k="name" v="Hasenöhrl"/>
    <tag k="name:it" v="L&apos;Orecchia di Lepre"/>
    <tag k="natural" v="peak"/>
  </node>
  <node id="302129986" version="3" timestamp="2010-12-04T21:44:36Z" uid="8619" user="cetest" changeset="6544299" lat="51.8414692" lon="4.4448669"/>
  <node id="302129986" version="4" timestamp="2011-03-05T19:40:21Z" uid="158969" user="gpsherman" changeset="7467031" lat="51.8414825" lon="4.4449638"/>
  <node id="302129999" version="2" timestamp="2010-12-04T21:44:12Z" uid="8619" user="cetest" changeset="6544299" lat="51.8381458" lon="4.4470649"/>
  <node id="302129853" version="5" timestamp="2012-07-17T00:01:19Z" uid="722137" user="OSMF Redaction Account" changeset="12253860" lat="46.5449548" lon="10.8588625">
    <tag k="ele" v="3257"/>
    <tag k="name" v="Hasenöhrl"/>
    <tag k="name:it" v="L&apos;Orecchia di Lepre"/>
    <tag k="natural" v="peak"/>
  </node>
  <node id="302129986" version="5" timestamp="2012-08-12T11:38:28Z" uid="334075" user="eggie" changeset="12700492" lat="51.8414729" lon="4.4448839"/>
  <node id="302129999" version="3" timestamp="2012-07-17T08:29:47Z" uid="722137" user="OSMF Redaction Account" changeset="12260455" lat="51.8383232" lon="4.4468021"/>
</osm>
