<?xml version='1.0' encoding='UTF-8'?>
<osm version="0.6" generator="libosmium/2.20.0">
  <node id="306844366" version="10" timestamp="2009-10-02T19:49:31Z" uid="86259" user="hasse_osm_korinthenkacker" changeset="2716821" lat="47.9167408" lon="11.6789295">
    <tag k="addr:city" v="Otterfing"/>
    <tag k="addr:country" v="DE"/>
    <tag k="addr:housenumber" v="4"/>
    <tag k="addr:postcode" v="83624"/>
    <tag k="addr:street" v="Georg-Hardt-Straße"/>
    <tag k="description" v="http://www.ltn.de/"/>
  </node>
  <node id="306844366" version="11" timestamp="2010-07-19T19:51:40Z" uid="42393" user="mawi42" changeset="5264400" lat="47.9167408" lon="11.6789294">
    <tag k="addr:city" v="Otterfing"/>
    <tag k="addr:country" v="DE"/>
    <tag k="addr:housenumber" v="4"/>
    <tag k="addr:postcode" v="83624"/>
    <tag k="addr:street" v="Georg-Hardt-Straße"/>
    <tag k="website" v="http://www.ltn.de/"/>
  </node>
  <node id="306844366" version="12" timestamp="2010-07-19T19:59:30Z" uid="42393" user="mawi42" changeset="5264400" lat="47.9167408" lon="11.6789294">
    <tag k="addr:city" v="Otterfing"/>
    <tag k="addr:country" v="DE"/>
    <tag k="addr:housenumber" v="4"/>
    <tag k="addr:postcode" v="83624"/>
    <tag k="addr:street" v="Georg-Hardt-Straße"/>
    <tag k="email" v="ltn@ltn.de"/>
    <tag k="website" v="http://www.ltn.de/"/>
  </node>
  <node id="306844366" version="13" timestamp="2010-07-22T17:31:12Z" uid="42393" user="mawi42" changeset="5289456" lat="47.9167409" lon="11.6789293">
    <tag k="addr:city" v="Otterfing"/>
    <tag k="addr:country" v="DE"/>
    <tag k="addr:housenumber" v="4"/>
    <tag k="addr:postcode" v="83624"/>
    <tag k="addr:street" v="Georg-Hardt-Straße"/>
    <tag k="email" v="ltn@ltn.de"/>
    <tag k="name" v="LTN"/>
    <tag k="website" v="http://www.ltn.de/"/>
  </node>
  <node id="306844366" version="14" timestamp="2012-07-17T07:28:36Z" uid="722137" user="OSMF Redaction Account" changeset="12259475" lat="47.9167408" lon="11.6789295">
    <tag k="addr:city" v="Otterfing"/>
    <tag k="addr:country" v="DE"/>
    <tag k="addr:housenumber" v="4"/>
    <tag k="addr:postcode" v="83624"/>
    <tag k="addr:street" v="Georg-Hardt-Straße"/>
    <tag k="email" v="ltn@ltn.de"/>
    <tag k="name" v="LTN"/>
    <tag k="website" v="http://www.ltn.de/"/>
  </node>
</osm>
