<?xml version='1.0' encoding='UTF-8'?>
<osm version="0.6" generator="libosmium/2.20.0">
  <node id="307200714" version="3" timestamp="2011-05-08T08:06:27Z" uid="9581" user="Lobelt" changeset="8079820" lat="49.859524" lon="7.98417">
    <tag k="addr:city" v="Sprendlingen"/>
    <tag k="addr:housenumber" v="28"/>
    <tag k="addr:postcode" v="55576"/>
    <tag k="addr:street" v="Schulstraße"/>
    <tag k="asb" v="1"/>
    <tag k="man_made" v="MDF"/>
    <tag k="note:de" v="http://wiki.openstreetmap.org/index.php/DE:DSL_Hauptverteiler"/>
    <tag k="onkz" v="6701"/>
    <tag k="operator" v="Deutsche Telekom AG"/>
    <tag k="source" v="Deutsche Telekom AG"/>
  </node>
  <node id="307200722" version="3" timestamp="2011-05-08T08:22:53Z" uid="9581" user="Lobelt" changeset="8079978" lat="49.899491" lon="7.900651">
    <tag k="addr:city" v="Langenlonsheim"/>
    <tag k="addr:housenumber" v="15"/>
    <tag k="addr:postcode" v="55450"/>
    <tag k="addr:street" v="Weidenstraße"/>
    <tag k="asb" v="1"/>
    <tag k="man_made" v="MDF"/>
    <tag k="note:de" v="http://wiki.openstreetmap.org/index.php/DE:DSL_Hauptverteiler"/>
    <tag k="onkz" v="6704"/>
    <tag k="operator" v="Deutsche Telekom AG"/>
    <tag k="source" v="Deutsche Telekom AG"/>
  </node>
  <node id="307200735" version="3" timestamp="2011-05-08T11:02:03Z" uid="9581" user="Lobelt" changeset="8081341" lat="49.811855" lon="7.829832">
    <tag k="addr:city" v="Bad Münster am Stein-Ebernburg"/>
    <tag k="addr:housenumber" v="1"/>
    <tag k="addr:postcode" v="55583"/>
    <tag k="addr:street" v="Am Pfalzsprung"/>
    <tag k="asb" v="1"/>
    <tag k="man_made" v="MDF"/>
    <tag k="note:de" v="http://wiki.openstreetmap.org/index.php/DE:DSL_Hauptverteiler"/>
    <tag k="onkz" v="6708"/>
    <tag k="operator" v="Deutsche Telekom AG"/>
    <tag k="source" v="Deutsche Telekom AG"/>
  </node>
  <node id="307200745" version="3" timestamp="2011-05-08T08:23:22Z" uid="9581" user="Lobelt" changeset="8079978" lat="49.951315" lon="7.923717">
    <tag k="addr:city" v="Bingen"/>
    <tag k="addr:housenumber" v="21"/>
    <tag k="addr:postcode" v="55411"/>
    <tag k="addr:street" v="Am Langenstein"/>
    <tag k="asb" v="4"/>
    <tag k="man_made" v="MDF"/>
    <tag k="note:de" v="http://wiki.openstreetmap.org/index.php/DE:DSL_Hauptverteiler"/>
    <tag k="onkz" v="6721"/>
    <tag k="operator" v="Deutsche Telekom AG"/>
    <tag k="source" v="Deutsche Telekom AG"/>
  </node>
  <node id="307200797" version="3" timestamp="2011-05-08T08:22:53Z" uid="9581" user="Lobelt" changeset="8079978" lat="49.899487" lon="7.929046">
    <tag k="addr:city" v="Gensingen"/>
    <tag k="addr:housenumber" v="30A"/>
    <tag k="addr:postcode" v="55457"/>
    <tag k="addr:street" v="Mainzer Straße"/>
    <tag k="asb" v="1"/>
    <tag k="man_made" v="MDF"/>
    <tag k="note:de" v="http://wiki.openstreetmap.org/index.php/DE:DSL_Hauptverteiler"/>
    <tag k="onkz" v="6727"/>
    <tag k="operator" v="Deutsche Telekom AG"/>
    <tag k="source" v="Deutsche Telekom AG"/>
  </node>
  <node id="307200801" version="3" timestamp="2011-05-08T08:06:38Z" uid="9581" user="Lobelt" changeset="8079820" lat="49.902781" lon="8.027389">
    <tag k="addr:city" v="Ober-Hilbersheim"/>
    <tag k="addr:housenumber" v="13"/>
    <tag k="addr:postcode" v="55437"/>
    <tag k="addr:street" v="Binger Straße"/>
    <tag k="asb" v="1"/>
    <tag k="man_made" v="MDF"/>
    <tag k="note:de" v="http://wiki.openstreetmap.org/index.php/DE:DSL_Hauptverteiler"/>
    <tag k="onkz" v="6728"/>
    <tag k="operator" v="Deutsche Telekom AG"/>
    <tag k="source" v="Deutsche Telekom AG"/>
  </node>
  <node id="307200821" version="3" timestamp="2011-05-08T08:05:13Z" uid="9581" user="Lobelt" changeset="8079820" lat="49.782591" lon="8.04035">
    <tag k="addr:city" v="Flonheim"/>
    <tag k="addr:housenumber" v="2"/>
    <tag k="addr:postcode" v="55237"/>
    <tag k="addr:street" v="Ostdeutsche Straße"/>
    <tag k="asb" v="1"/>
    <tag k="man_made" v="MDF"/>
    <tag k="note:de" v="http://wiki.openstreetmap.org/index.php/DE:DSL_Hauptverteiler"/>
    <tag k="onkz" v="6734"/>
    <tag k="operator" v="Deutsche Telekom AG"/>
    <tag k="source" v="Deutsche Telekom AG"/>
  </node>
  <node id="307202591" version="1" timestamp="2008-10-24T22:49:04Z" uid="7009" user="giggls" changeset="561994" lat="48.885051" lon="8.711971">
    <tag k="addr:housenumber" v="70-72"/>
    <tag k="addr:postcode" v="75175"/>
    <tag k="addr:street" v="St.-Georgen-Steige"/>
    <tag k="addr:town" v="Pforzheim"/>
    <tag k="asb" v="6"/>
    <tag k="created_by" v="dsl-mdf2osm-script"/>
    <tag k="man_made" v="MDF"/>
    <tag k="note" v="Do not move! Recreate the housenumber node if desired"/>
    <tag k="note:de" v="Nicht verschieben! Node für Hausnummer bei Bedarf neu erzeugen"/>
    <tag k="onkz" v="7231"/>
    <tag k="operator" v="Deutsche Telekom AG"/>
    <tag k="source" v="Deutsche Telekom AG"/>
  </node>
  <node id="307202591" version="3" timestamp="2008-10-28T22:11:50Z" uid="67142" user="zottel" changeset="618553" lat="48.885051" lon="8.711971">
    <tag k="addr:city" v="Pforzheim"/>
    <tag k="addr:housenumber" v="70-72"/>
    <tag k="addr:postcode" v="75175"/>
    <tag k="addr:street" v="Stankt-Georgen-Steige"/>
    <tag k="asb" v="6"/>
    <tag k="created_by" v="fixbot"/>
    <tag k="man_made" v="MDF"/>
    <tag k="note:de" v="http://wiki.openstreetmap.org/index.php/DE:DSL_Hauptverteiler"/>
    <tag k="onkz" v="7231"/>
    <tag k="operator" v="Deutsche Telekom AG"/>
    <tag k="source" v="Deutsche Telekom AG"/>
  </node>
  <node id="307202591" version="4" timestamp="2009-10-02T18:42:45Z" uid="85761" user="klausis" changeset="2716070" lat="48.885051" lon="8.711971">
    <tag k="addr:city" v="Pforzheim"/>
    <tag k="addr:housenumber" v="70-72"/>
    <tag k="addr:postcode" v="75175"/>
    <tag k="addr:street" v="Stankt-Georgen-Steige"/>
    <tag k="asb" v="6"/>
    <tag k="man_made" v="MDF"/>
    <tag k="note:de" v="http://wiki.openstreetmap.org/index.php/DE:DSL_Hauptverteiler"/>
    <tag k="onkz" v="7231"/>
    <tag k="operator" v="Deutsche Telekom AG"/>
    <tag k="source" v="Deutsche Telekom AG"/>
  </node>
  <node id="307202591" version="5" timestamp="2012-02-01T08:14:36Z" uid="442210" user="dwausr" changeset="10556583" lat="48.885051" lon="8.711971"/>
  <node id="307202596" version="1" timestamp="2008-10-24T22:49:04Z" uid="7009" user="giggls" changeset="561994" lat="48.854207" lon="8.701233">
    <tag k="addr:housenumber" v="24"/>
    <tag k="addr:postcode" v="75181"/>
    <tag k="addr:street" v="Industraßeestr."/>
    <tag k="addr:town" v="Pforzheim"/>
    <tag k="asb" v="70"/>
    <tag k="created_by" v="dsl-mdf2osm-script"/>
    <tag k="man_made" v="MDF"/>
    <tag k="note" v="Do not move! Recreate the housenumber node if desired"/>
    <tag k="note:de" v="Nicht verschieben! Node für Hausnummer bei Bedarf neu erzeugen"/>
    <tag k="onkz" v="7231"/>
    <tag k="operator" v="Deutsche Telekom AG"/>
    <tag k="source" v="Deutsche Telekom AG"/>
  </node>
  <node id="307202596" version="2" timestamp="2008-10-28T20:36:00Z" uid="5164" user="woodpeck" changeset="611326" lat="48.854207" lon="8.701233">
    <tag k="addr:city" v="Pforzheim"/>
    <tag k="addr:housenumber" v="24"/>
    <tag k="addr:postcode" v="75181"/>
    <tag k="addr:street" v="Industraßeestr."/>
    <tag k="asb" v="70"/>
    <tag k="created_by" v="fixbot"/>
    <tag k="man_made" v="MDF"/>
    <tag k="note:de" v="http://wiki.openstreetmap.org/index.php/DE:DSL_Hauptverteiler"/>
    <tag k="onkz" v="7231"/>
    <tag k="operator" v="Deutsche Telekom AG"/>
    <tag k="source" v="Deutsche Telekom AG"/>
  </node>
  <node id="307202596" version="3" timestamp="2008-10-28T22:11:50Z" uid="67142" user="zottel" changeset="618553" lat="48.854207" lon="8.701233">
    <tag k="addr:city" v="Pforzheim"/>
    <tag k="addr:housenumber" v="24"/>
    <tag k="addr:postcode" v="75181"/>
    <tag k="addr:street" v="Industriestraße"/>
    <tag k="asb" v="70"/>
    <tag k="created_by" v="fixbot"/>
    <tag k="man_made" v="MDF"/>
    <tag k="note:de" v="http://wiki.openstreetmap.org/index.php/DE:DSL_Hauptverteiler"/>
    <tag k="onkz" v="7231"/>
    <tag k="operator" v="Deutsche Telekom AG"/>
    <tag k="source" v="Deutsche Telekom AG"/>
  </node>
  <node id="307202596" version="4" timestamp="2008-10-29T19:55:43Z" uid="67142" user="zottel" changeset="627230" lat="48.8540831" lon="8.7012902">
    <tag k="addr:city" v="Pforzheim"/>
    <tag k="addr:housenumber" v="24"/>
    <tag k="addr:postcode" v="75181"/>
    <tag k="addr:street" v="Industriestraße"/>
    <tag k="asb" v="70"/>
    <tag k="created_by" v="fixbot"/>
    <tag k="man_made" v="MDF"/>
    <tag k="note:de" v="http://wiki.openstreetmap.org/index.php/DE:DSL_Hauptverteiler"/>
    <tag k="onkz" v="7231"/>
    <tag k="operator" v="Deutsche Telekom AG"/>
    <tag k="source" v="Deutsche Telekom AG"/>
  </node>
  <node id="307202596" version="5" timestamp="2008-10-30T12:30:12Z" uid="67142" user="zottel" changeset="629828" lat="48.8540718" lon="8.7012988">
    <tag k="addr:city" v="Pforzheim"/>
    <tag k="addr:housenumber" v="24"/>
    <tag k="addr:postcode" v="75181"/>
    <tag k="addr:street" v="Industriestraße"/>
    <tag k="asb" v="70"/>
    <tag k="created_by" v="fixbot"/>
    <tag k="man_made" v="MDF"/>
    <tag k="note:de" v="http://wiki.openstreetmap.org/index.php/DE:DSL_Hauptverteiler"/>
    <tag k="onkz" v="7231"/>
    <tag k="operator" v="Deutsche Telekom AG"/>
    <tag k="source" v="Deutsche Telekom AG"/>
  </node>
  <node id="307202596" version="6" timestamp="2009-05-26T13:25:31Z" uid="85761" user="klausis" changeset="1325782" lat="48.8540718" lon="8.7012988">
    <tag k="addr:city" v="Pforzheim"/>
    <tag k="addr:housenumber" v="24"/>
    <tag k="addr:postcode" v="75181"/>
    <tag k="addr:street" v="Industriestraße"/>
    <tag k="asb" v="70"/>
    <tag k="man_made" v="MDF"/>
    <tag k="note:de" v="http://wiki.openstreetmap.org/index.php/DE:DSL_Hauptverteiler"/>
    <tag k="onkz" v="7231"/>
    <tag k="operator" v="Deutsche Telekom AG"/>
    <tag k="source" v="Deutsche Telekom AG"/>
  </node>
  <node id="307204199" version="3" timestamp="2009-10-01T18:49:32Z" uid="86259" user="hasse_osm_korinthenkacker" changeset="2703918" lat="47.883286" lon="8.345904">
    <tag k="addr:city" v="Löffingen"/>
    <tag k="addr:housenumber" v="15"/>
    <tag k="addr:postcode" v="79843"/>
    <tag k="addr:street" v="Bittengasse"/>
    <tag k="asb" v="1"/>
    <tag k="man_made" v="MDF"/>
    <tag k="note:de" v="http://wiki.openstreetmap.org/index.php/DE:DSL_Hauptverteiler"/>
    <tag k="onkz" v="7654"/>
    <tag k="operator" v="Deutsche Telekom AG"/>
    <tag k="source" v="Deutsche Telekom AG"/>
  </node>
  <node id="307204199" version="4" timestamp="2009-10-01T18:53:28Z" uid="86259" user="hasse_osm_korinthenkacker" changeset="2703918" lat="47.883286" lon="8.345904">
    <tag k="addr:city" v="Löffingen"/>
    <tag k="addr:housenumber" v="15"/>
    <tag k="addr:postcode" v="79843"/>
    <tag k="addr:street" v="Bittengasse"/>
    <tag k="asb" v="1"/>
    <tag k="man_made" v="MDF"/>
    <tag k="note:de" v="http://wiki.openstreetmap.org/index.php/DE:DSL_Hauptverteiler"/>
    <tag k="onkz" v="7654"/>
    <tag k="operator" v="Deutsche Telekom AG"/>
    <tag k="source" v="Deutsche Telekom AG"/>
  </node>
  <node id="307204199" version="5" timestamp="2011-04-30T15:20:50Z" uid="120740" user="90Pferde" changeset="8012624" lat="47.8833288" lon="8.3457851">
    <tag k="addr:city" v="Löffingen"/>
    <tag k="addr:housenumber" v="15"/>
    <tag k="addr:postcode" v="79843"/>
    <tag k="addr:street" v="Bittengasse"/>
    <tag k="asb" v="1"/>
    <tag k="man_made" v="MDF"/>
    <tag k="note:de" v="http://wiki.openstreetmap.org/index.php/DE:DSL_Hauptverteiler"/>
    <tag k="onkz" v="7654"/>
    <tag k="operator" v="Deutsche Telekom AG"/>
    <tag k="source" v="Deutsche Telekom AG"/>
  </node>
  <node id="307204199" version="6" timestamp="2011-09-18T17:09:27Z" uid="120740" user="90Pferde" changeset="9335047" lat="47.8833369" lon="8.3459238">
    <tag k="addr:city" v="Löffingen"/>
    <tag k="addr:housenumber" v="15"/>
    <tag k="addr:postcode" v="79843"/>
    <tag k="addr:street" v="Bittengasse"/>
    <tag k="asb" v="1"/>
    <tag k="man_made" v="MDF"/>
    <tag k="note:de" v="http://wiki.openstreetmap.org/index.php/DE:DSL_Hauptverteiler"/>
    <tag k="onkz" v="7654"/>
    <tag k="operator" v="Deutsche Telekom AG"/>
    <tag k="source" v="Deutsche Telekom AG"/>
  </node>
  <node id="307204515" version="3" timestamp="2009-12-09T22:59:52Z" uid="200463" user="harmagedon" changeset="3337772" lat="47.774503" lon="8.737571">
    <tag k="addr:city" v="Hilzingen"/>
    <tag k="addr:housenumber" v="2"/>
    <tag k="addr:postcode" v="78247"/>
    <tag k="addr:street" v="Hofwiesen"/>
    <tag k="asb" v="1"/>
    <tag k="man_made" v="MDF"/>
    <tag k="note:de" v="http://wiki.openstreetmap.org/index.php/DE:DSL_Hauptverteiler"/>
    <tag k="onkz" v="7739"/>
    <tag k="operator" v="Deutsche Telekom AG"/>
    <tag k="source" v="Deutsche Telekom AG"/>
  </node>
  <node id="307204524" version="3" timestamp="2009-12-09T22:53:37Z" uid="200463" user="harmagedon" changeset="3337772" lat="47.621849" lon="8.416088">
    <tag k="addr:city" v="Klettgau"/>
    <tag k="addr:housenumber" v="9"/>
    <tag k="addr:postcode" v="79771"/>
    <tag k="addr:street" v="Südendstraße"/>
    <tag k="asb" v="1"/>
    <tag k="man_made" v="MDF"/>
    <tag k="note:de" v="http://wiki.openstreetmap.org/index.php/DE:DSL_Hauptverteiler"/>
    <tag k="onkz" v="7742"/>
    <tag k="operator" v="Deutsche Telekom AG"/>
    <tag k="source" v="Deutsche Telekom AG"/>
  </node>
  <node id="307204534" version="3" timestamp="2009-12-09T22:55:29Z" uid="200463" user="harmagedon" changeset="3337772" lat="47.745387" lon="8.447872">
    <tag k="addr:city" v="Stühlingen"/>
    <tag k="addr:housenumber" v="15"/>
    <tag k="addr:postcode" v="79780"/>
    <tag k="addr:street" v="Hauptstraße"/>
    <tag k="asb" v="1"/>
    <tag k="man_made" v="MDF"/>
    <tag k="note:de" v="http://wiki.openstreetmap.org/index.php/DE:DSL_Hauptverteiler"/>
    <tag k="onkz" v="7744"/>
    <tag k="operator" v="Deutsche Telekom AG"/>
    <tag k="source" v="Deutsche Telekom AG"/>
  </node>
  <node id="307204534" version="4" timestamp="2010-11-10T15:56:39Z" uid="223124" user="nonplusultra" changeset="6336939" lat="47.7454945" lon="8.447909">
    <tag k="addr:city" v="Stühlingen"/>
    <tag k="addr:housenumber" v="15"/>
    <tag k="addr:postcode" v="79780"/>
    <tag k="addr:street" v="Hauptstraße"/>
    <tag k="asb" v="1"/>
    <tag k="man_made" v="MDF"/>
    <tag k="note:de" v="http://wiki.openstreetmap.org/index.php/DE:DSL_Hauptverteiler"/>
    <tag k="onkz" v="7744"/>
    <tag k="operator" v="Deutsche Telekom AG"/>
    <tag k="source" v="Deutsche Telekom AG"/>
  </node>
  <node id="307204713" version="3" timestamp="2009-10-01T19:15:48Z" uid="86259" user="hasse_osm_korinthenkacker" changeset="2704245" lat="48.279849" lon="8.084188">
    <tag k="addr:city" v="Haslach"/>
    <tag k="addr:housenumber" v="2"/>
    <tag k="addr:postcode" v="77716"/>
    <tag k="addr:street" v="Schwarzwaldstraße"/>
    <tag k="asb" v="1"/>
    <tag k="man_made" v="MDF"/>
    <tag k="note:de" v="http://wiki.openstreetmap.org/index.php/DE:DSL_Hauptverteiler"/>
    <tag k="onkz" v="7832"/>
    <tag k="operator" v="Deutsche Telekom AG"/>
    <tag k="source" v="Deutsche Telekom AG"/>
  </node>
  <node id="307204713" version="4" timestamp="2010-06-14T09:20:59Z" uid="302333" user="Günter_Schw" changeset="4986309" lat="48.279849" lon="8.084188">
    <tag k="addr:city" v="Haslach"/>
    <tag k="addr:housenumber" v="2"/>
    <tag k="addr:postcode" v="77716"/>
    <tag k="addr:street" v="Schwarzwaldstraße"/>
    <tag k="asb" v="1"/>
    <tag k="man_made" v="MDF"/>
    <tag k="note:de" v="http://wiki.openstreetmap.org/index.php/DE:DSL_Hauptverteiler"/>
    <tag k="onkz" v="7832"/>
    <tag k="operator" v="Deutsche Telekom AG"/>
    <tag k="source" v="Deutsche Telekom AG"/>
  </node>
  <node id="307205059" version="6" timestamp="2009-09-27T23:44:31Z" uid="36809" user="pfoten_weg_!_" changeset="2659720" lat="47.858116" lon="11.800968">
    <tag k="addr:city" v="Weyarn"/>
    <tag k="addr:country" v="DE"/>
    <tag k="addr:housenumber" v="5"/>
    <tag k="addr:postcode" v="83629"/>
    <tag k="addr:street" v="Miesbacher Straße"/>
    <tag k="asb" v="1"/>
    <tag k="man_made" v="MDF"/>
    <tag k="note:de" v="http://wiki.openstreetmap.org/index.php/DE:DSL_Hauptverteiler"/>
    <tag k="onkz" v="8020"/>
    <tag k="operator" v="Deutsche Telekom AG"/>
    <tag k="source" v="Deutsche Telekom AG"/>
  </node>
  <node id="307205059" version="7" timestamp="2009-10-22T21:25:37Z" uid="36809" user="pfoten_weg_!_" changeset="2925674" lat="47.858116" lon="11.800968">
    <tag k="addr:city" v="Weyarn"/>
    <tag k="addr:country" v="DE"/>
    <tag k="addr:housenumber" v="5"/>
    <tag k="addr:postcode" v="83629"/>
    <tag k="addr:street" v="Miesbacher Straße"/>
    <tag k="asb" v="1"/>
    <tag k="man_made" v="MDF"/>
    <tag k="note:de" v="http://wiki.openstreetmap.org/index.php/DE:DSL_Hauptverteiler"/>
    <tag k="onkz" v="8020"/>
    <tag k="operator" v="Deutsche Telekom AG"/>
  </node>
  <node id="307205064" version="3" timestamp="2009-10-19T19:05:30Z" uid="36809" user="pfoten_weg_!_" changeset="2897478" lat="47.793504" lon="11.684628">
    <tag k="addr:city" v="Waakirchen"/>
    <tag k="addr:housenumber" v="7"/>
    <tag k="addr:postcode" v="83666"/>
    <tag k="addr:street" v="Alex-Gugler-Straße"/>
    <tag k="asb" v="1"/>
    <tag k="man_made" v="MDF"/>
    <tag k="note:de" v="http://wiki.openstreetmap.org/index.php/DE:DSL_Hauptverteiler"/>
    <tag k="onkz" v="8021"/>
    <tag k="operator" v="Deutsche Telekom AG"/>
    <tag k="source" v="Deutsche Telekom AG"/>
  </node>
  <node id="307205068" version="7" timestamp="2009-10-19T21:20:03Z" uid="36809" user="pfoten_weg_!_" changeset="2898762" lat="47.7123871" lon="11.7585482">
    <tag k="addr:city" v="Tegernsee"/>
    <tag k="addr:country" v="DE"/>
    <tag k="addr:housenumber" v="4"/>
    <tag k="addr:postcode" v="83684"/>
    <tag k="addr:street" v="Max-Josef-Straße"/>
    <tag k="asb" v="1"/>
    <tag k="man_made" v="MDF"/>
    <tag k="note:de" v="http://wiki.openstreetmap.org/index.php/DE:DSL_Hauptverteiler"/>
    <tag k="onkz" v="8022"/>
    <tag k="operator" v="Deutsche Telekom AG"/>
  </node>
  <node id="307205068" version="8" timestamp="2011-06-18T14:51:32Z" uid="9402" user="ludwich" changeset="8474133" lat="47.7123871" lon="11.7585482"/>
  <node id="307205072" version="6" timestamp="2009-10-19T21:19:53Z" uid="36809" user="pfoten_weg_!_" changeset="2898762" lat="47.688342" lon="11.769793">
    <tag k="addr:city" v="Rottach-Egern"/>
    <tag k="addr:country" v="DE"/>
    <tag k="addr:housenumber" v="2"/>
    <tag k="addr:postcode" v="83700"/>
    <tag k="addr:street" v="Oberachweg"/>
    <tag k="asb" v="2"/>
    <tag k="man_made" v="MDF"/>
    <tag k="note:de" v="http://wiki.openstreetmap.org/index.php/DE:DSL_Hauptverteiler"/>
    <tag k="onkz" v="8022"/>
    <tag k="operator" v="Deutsche Telekom AG"/>
  </node>
  <node id="307205077" version="6" timestamp="2009-10-20T00:40:51Z" uid="36809" user="pfoten_weg_!_" changeset="2899059" lat="47.749145" lon="11.734039">
    <tag k="addr:city" v="Gmund"/>
    <tag k="addr:country" v="DE"/>
    <tag k="addr:housenumber" v="20"/>
    <tag k="addr:postcode" v="83703"/>
    <tag k="addr:street" v="Wiesseer Straße"/>
    <tag k="asb" v="7"/>
    <tag k="man_made" v="MDF"/>
    <tag k="note:de" v="http://wiki.openstreetmap.org/index.php/DE:DSL_Hauptverteiler"/>
    <tag k="onkz" v="8022"/>
    <tag k="operator" v="Deutsche Telekom AG"/>
    <tag k="source" v="Deutsche Telekom AG"/>
  </node>
  <node id="307205077" version="7" timestamp="2011-08-16T12:21:09Z" uid="42393" user="mawi42" changeset="9036275" lat="47.7497336" lon="11.7339349">
    <tag k="addr:city" v="Gmund"/>
    <tag k="addr:country" v="DE"/>
    <tag k="addr:housenumber" v="20"/>
    <tag k="addr:postcode" v="83703"/>
    <tag k="addr:street" v="Wiesseer Straße"/>
    <tag k="asb" v="7"/>
    <tag k="man_made" v="MDF"/>
    <tag k="note:de" v="http://wiki.openstreetmap.org/index.php/DE:DSL_Hauptverteiler"/>
    <tag k="onkz" v="8022"/>
    <tag k="operator" v="Deutsche Telekom AG"/>
    <tag k="source" v="Deutsche Telekom AG"/>
  </node>
  <node id="307205081" version="6" timestamp="2009-10-19T23:16:57Z" uid="36809" user="pfoten_weg_!_" changeset="2899059" lat="47.710253" lon="11.725521">
    <tag k="addr:city" v="Bad Wiessee"/>
    <tag k="addr:country" v="DE"/>
    <tag k="addr:housenumber" v="18"/>
    <tag k="addr:postcode" v="83707"/>
    <tag k="addr:street" v="Sanktjohanserstraße"/>
    <tag k="asb" v="8"/>
    <tag k="man_made" v="MDF"/>
    <tag k="note:de" v="http://wiki.openstreetmap.org/index.php/DE:DSL_Hauptverteiler"/>
    <tag k="onkz" v="8022"/>
    <tag k="operator" v="Deutsche Telekom AG"/>
    <tag k="source" v="Deutsche Telekom AG"/>
  </node>
  <node id="307205081" version="7" timestamp="2011-06-23T16:18:22Z" uid="42393" user="mawi42" changeset="8522702" lat="47.7102702" lon="11.7255437">
    <tag k="addr:city" v="Bad Wiessee"/>
    <tag k="addr:country" v="DE"/>
    <tag k="addr:housenumber" v="18a"/>
    <tag k="addr:postcode" v="83707"/>
    <tag k="addr:street" v="Sanktjohanserstraße"/>
    <tag k="asb" v="8"/>
    <tag k="man_made" v="MDF"/>
    <tag k="note:de" v="http://wiki.openstreetmap.org/index.php/DE:DSL_Hauptverteiler"/>
    <tag k="onkz" v="8022"/>
    <tag k="operator" v="Deutsche Telekom AG"/>
    <tag k="source" v="Deutsche Telekom AG"/>
  </node>
  <node id="307205090" version="8" timestamp="2009-10-02T19:45:45Z" uid="86259" user="hasse_osm_korinthenkacker" changeset="2716821" lat="47.8845929" lon="11.6936867">
    <tag k="addr:city" v="Holzkirchen"/>
    <tag k="addr:country" v="DE"/>
    <tag k="addr:housenumber" v="1"/>
    <tag k="addr:postcode" v="83607"/>
    <tag k="addr:street" v="Probst-Sigl-Straße"/>
    <tag k="asb" v="1"/>
    <tag k="man_made" v="MDF"/>
    <tag k="note:de" v="http://wiki.openstreetmap.org/index.php/DE:DSL_Hauptverteiler"/>
    <tag k="onkz" v="8024"/>
    <tag k="operator" v="Deutsche Telekom AG"/>
    <tag k="source" v="Deutsche Telekom AG"/>
  </node>
  <node id="307205099" version="6" timestamp="2009-10-19T21:25:12Z" uid="36809" user="pfoten_weg_!_" changeset="2898762" lat="47.748891" lon="11.839605">
    <tag k="addr:city" v="Hausham"/>
    <tag k="addr:country" v="DE"/>
    <tag k="addr:housenumber" v="10"/>
    <tag k="addr:postcode" v="83734"/>
    <tag k="addr:street" v="Dr.-Franz-Langecker-Straße"/>
    <tag k="asb" v="1"/>
    <tag k="man_made" v="MDF"/>
    <tag k="note:de" v="http://wiki.openstreetmap.org/index.php/DE:DSL_Hauptverteiler"/>
    <tag k="onkz" v="8026"/>
    <tag k="operator" v="Deutsche Telekom AG"/>
  </node>
  <node id="307205099" version="7" timestamp="2009-10-19T21:50:30Z" uid="36809" user="pfoten_weg_!_" changeset="2898915" lat="47.748891" lon="11.839605">
    <tag k="addr:city" v="Hausham"/>
    <tag k="addr:country" v="DE"/>
    <tag k="addr:housenumber" v="10"/>
    <tag k="addr:postcode" v="83734"/>
    <tag k="addr:street" v="Dr.-Franz-Langecker-Straße"/>
    <tag k="asb" v="1"/>
    <tag k="man_made" v="MDF"/>
    <tag k="note:de" v="http://wiki.openstreetmap.org/index.php/DE:DSL_Hauptverteiler"/>
    <tag k="onkz" v="8026"/>
    <tag k="operator" v="Deutsche Telekom AG"/>
  </node>
  <node id="307205104" version="6" timestamp="2009-10-19T21:24:54Z" uid="36809" user="pfoten_weg_!_" changeset="2898762" lat="47.735256" lon="11.859565">
    <tag k="addr:city" v="Schliersee"/>
    <tag k="addr:country" v="DE"/>
    <tag k="addr:housenumber" v="7"/>
    <tag k="addr:postcode" v="83727"/>
    <tag k="addr:street" v="Bahnhofstraße"/>
    <tag k="asb" v="2"/>
    <tag k="man_made" v="MDF"/>
    <tag k="note:de" v="http://wiki.openstreetmap.org/index.php/DE:DSL_Hauptverteiler"/>
    <tag k="onkz" v="8026"/>
    <tag k="operator" v="Deutsche Telekom AG"/>
  </node>
  <node id="307205110" version="6" timestamp="2009-10-19T21:24:30Z" uid="36809" user="pfoten_weg_!_" changeset="2898762" lat="47.701974" lon="11.879534">
    <tag k="addr:city" v="Schliersee"/>
    <tag k="addr:country" v="DE"/>
    <tag k="addr:housenumber" v="2"/>
    <tag k="addr:postcode" v="83727"/>
    <tag k="addr:street" v="Josefstaler Straße"/>
    <tag k="asb" v="7"/>
    <tag k="man_made" v="MDF"/>
    <tag k="note:de" v="http://wiki.openstreetmap.org/index.php/DE:DSL_Hauptverteiler"/>
    <tag k="onkz" v="8026"/>
    <tag k="operator" v="Deutsche Telekom AG"/>
  </node>
  <node id="307205115" version="5" timestamp="2009-10-20T11:38:08Z" uid="36809" user="pfoten_weg_!_" changeset="2902112" lat="47.854049" lon="11.587716">
    <tag k="addr:city" v="Dietramszell"/>
    <tag k="addr:country" v="DE"/>
    <tag k="addr:housenumber" v="1"/>
    <tag k="addr:postcode" v="83623"/>
    <tag k="addr:street" v="Am Kreuzfeld"/>
    <tag k="asb" v="1"/>
    <tag k="man_made" v="MDF"/>
    <tag k="note:de" v="http://wiki.openstreetmap.org/index.php/DE:DSL_Hauptverteiler"/>
    <tag k="onkz" v="8027"/>
    <tag k="operator" v="Deutsche Telekom AG"/>
    <tag k="source" v="Deutsche Telekom AG"/>
  </node>
  <node id="307205115" version="6" timestamp="2009-10-22T21:31:22Z" uid="36809" user="pfoten_weg_!_" changeset="2925729" lat="47.854049" lon="11.587716">
    <tag k="addr:city" v="Dietramszell"/>
    <tag k="addr:country" v="DE"/>
    <tag k="addr:housenumber" v="1"/>
    <tag k="addr:postcode" v="83623"/>
    <tag k="addr:street" v="Am Kreuzfeld"/>
    <tag k="asb" v="1"/>
    <tag k="man_made" v="MDF"/>
    <tag k="note:de" v="http://wiki.openstreetmap.org/index.php/DE:DSL_Hauptverteiler"/>
    <tag k="onkz" v="8027"/>
    <tag k="operator" v="Deutsche Telekom AG"/>
  </node>
  <node id="307205120" version="5" timestamp="2009-12-02T03:03:05Z" uid="200463" user="harmagedon" changeset="3269195" lat="47.719682" lon="11.952505">
    <tag k="addr:city" v="Fischbachau"/>
    <tag k="addr:country" v="DE"/>
    <tag k="addr:housenumber" v="10"/>
    <tag k="addr:postcode" v="83730"/>
    <tag k="addr:street" v="Birkensteinstraße"/>
    <tag k="asb" v="1"/>
    <tag k="man_made" v="MDF"/>
    <tag k="note:de" v="http://wiki.openstreetmap.org/index.php/DE:DSL_Hauptverteiler"/>
    <tag k="onkz" v="8028"/>
    <tag k="operator" v="Deutsche Telekom AG"/>
    <tag k="source" v="Deutsche Telekom AG"/>
  </node>
  <node id="307205120" version="6" timestamp="2011-07-02T17:01:21Z" uid="42393" user="mawi42" changeset="8609924" lat="47.7197809" lon="11.9524379">
    <tag k="addr:city" v="Fischbachau"/>
    <tag k="addr:country" v="DE"/>
    <tag k="addr:housenumber" v="10"/>
    <tag k="addr:postcode" v="83730"/>
    <tag k="addr:street" v="Birkensteinstraße"/>
    <tag k="asb" v="1"/>
    <tag k="man_made" v="MDF"/>
    <tag k="note:de" v="http://wiki.openstreetmap.org/index.php/DE:DSL_Hauptverteiler"/>
    <tag k="onkz" v="8028"/>
    <tag k="operator" v="Deutsche Telekom AG"/>
    <tag k="source" v="Deutsche Telekom AG"/>
  </node>
  <node id="307205125" version="6" timestamp="2009-10-19T20:43:03Z" uid="36809" user="pfoten_weg_!_" changeset="2898478" lat="47.641788" lon="11.744299">
    <tag k="addr:city" v="Kreuth"/>
    <tag k="addr:country" v="DE"/>
    <tag k="addr:housenumber" v="18"/>
    <tag k="addr:postcode" v="83708"/>
    <tag k="addr:street" v="Südliche Hauptstraße"/>
    <tag k="asb" v="1"/>
    <tag k="man_made" v="MDF"/>
    <tag k="note:de" v="http://wiki.openstreetmap.org/index.php/DE:DSL_Hauptverteiler"/>
    <tag k="onkz" v="8029"/>
    <tag k="operator" v="Deutsche Telekom AG"/>
  </node>
  <node id="307205157" version="5" timestamp="2009-10-22T20:41:41Z" uid="36809" user="pfoten_weg_!_" changeset="2925342" lat="47.849997" lon="12.061951">
    <tag k="addr:city" v="Kolbermoor"/>
    <tag k="addr:country" v="DE"/>
    <tag k="addr:housenumber" v="8"/>
    <tag k="addr:postcode" v="83059"/>
    <tag k="addr:street" v="Rainerstraße"/>
    <tag k="asb" v="9"/>
    <tag k="man_made" v="MDF"/>
    <tag k="note:de" v="http://wiki.openstreetmap.org/index.php/DE:DSL_Hauptverteiler"/>
    <tag k="onkz" v="8031"/>
    <tag k="operator" v="Deutsche Telekom AG"/>
  </node>
  <node id="307205157" version="6" timestamp="2011-05-04T08:26:31Z" uid="370036" user="spongezob" changeset="8046691" lat="47.8499942" lon="12.0618656">
    <tag k="addr:city" v="Kolbermoor"/>
    <tag k="addr:country" v="DE"/>
    <tag k="addr:housenumber" v="8"/>
    <tag k="addr:postcode" v="83059"/>
    <tag k="addr:street" v="Rainerstraße"/>
    <tag k="asb" v="9"/>
    <tag k="man_made" v="MDF"/>
    <tag k="note:de" v="http://wiki.openstreetmap.org/index.php/DE:DSL_Hauptverteiler"/>
    <tag k="onkz" v="8031"/>
    <tag k="operator" v="Deutsche Telekom AG"/>
  </node>
  <node id="307205205" version="5" timestamp="2009-10-18T10:28:29Z" uid="36809" user="pfoten_weg_!_" changeset="2881738" lat="47.762472" lon="11.562949">
    <tag k="addr:city" v="Bad Tölz"/>
    <tag k="addr:country" v="DE"/>
    <tag k="addr:housenumber" v="1"/>
    <tag k="addr:postcode" v="83646"/>
    <tag k="addr:street" v="Mühlgasse"/>
    <tag k="asb" v="1"/>
    <tag k="man_made" v="MDF"/>
    <tag k="note:de" v="http://wiki.openstreetmap.org/index.php/DE:DSL_Hauptverteiler"/>
    <tag k="onkz" v="8041"/>
    <tag k="operator" v="Deutsche Telekom AG"/>
  </node>
  <node id="307205209" version="6" timestamp="2009-10-20T12:24:23Z" uid="36809" user="pfoten_weg_!_" changeset="2902657" lat="47.680892" lon="11.573899">
    <tag k="addr:city" v="Lenggries"/>
    <tag k="addr:country" v="DE"/>
    <tag k="addr:housenumber" v="1"/>
    <tag k="addr:postcode" v="83661"/>
    <tag k="addr:street" v="Schützenstraße"/>
    <tag k="asb" v="1"/>
    <tag k="man_made" v="MDF"/>
    <tag k="note:de" v="http://wiki.openstreetmap.org/index.php/DE:DSL_Hauptverteiler"/>
    <tag k="onkz" v="8042"/>
    <tag k="operator" v="Deutsche Telekom AG"/>
    <tag k="source" v="Deutsche Telekom AG"/>
  </node>
  <node id="307205214" version="5" timestamp="2009-10-30T03:53:17Z" uid="36809" user="pfoten_weg_!_" changeset="2986526" lat="47.605778" lon="11.433644">
    <tag k="addr:city" v="Jachenau"/>
    <tag k="addr:country" v="DE"/>
    <tag k="addr:housenumber" v="71/3"/>
    <tag k="addr:postcode" v="83676"/>
    <tag k="addr:street" v="Dorf"/>
    <tag k="asb" v="1"/>
    <tag k="man_made" v="MDF"/>
    <tag k="note:de" v="http://wiki.openstreetmap.org/index.php/DE:DSL_Hauptverteiler"/>
    <tag k="onkz" v="8043"/>
    <tag k="operator" v="Deutsche Telekom AG"/>
  </node>
  <node id="307205218" version="6" timestamp="2009-10-30T03:55:45Z" uid="36809" user="pfoten_weg_!_" changeset="2986526" lat="47.570702" lon="11.534072">
    <tag k="addr:city" v="Lenggries"/>
    <tag k="addr:country" v="DE"/>
    <tag k="addr:postcode" v="83661"/>
    <tag k="addr:street" v="Dürrachstraße"/>
    <tag k="asb" v="1"/>
    <tag k="man_made" v="MDF"/>
    <tag k="note:de" v="http://wiki.openstreetmap.org/index.php/DE:DSL_Hauptverteiler"/>
    <tag k="onkz" v="8045"/>
    <tag k="operator" v="Deutsche Telekom AG"/>
  </node>
  <node id="307205218" version="7" timestamp="2011-05-31T21:08:24Z" uid="417684" user="Maler" changeset="8304253" lat="47.570702" lon="11.534072">
    <tag k="addr:city" v="Lenggries"/>
    <tag k="addr:country" v="DE"/>
    <tag k="addr:postcode" v="83661"/>
    <tag k="addr:street" v="Dürrachstraße"/>
    <tag k="asb" v="1"/>
    <tag k="man_made" v="MDF"/>
    <tag k="onkz" v="8045"/>
    <tag k="operator" v="Deutsche Telekom AG"/>
    <tag k="url" v="http://wiki.openstreetmap.org/index.php/DE:DSL_Hauptverteiler"/>
  </node>
  <node id="307205221" version="3" timestamp="2009-10-18T00:50:10Z" uid="36809" user="pfoten_weg_!_" changeset="2879254" lat="47.742054" lon="11.455395">
    <tag k="addr:city" v="Bad Heilbrunn"/>
    <tag k="addr:housenumber" v="23"/>
    <tag k="addr:postcode" v="83670"/>
    <tag k="addr:street" v="Kocheler Straße"/>
    <tag k="asb" v="1"/>
    <tag k="man_made" v="MDF"/>
    <tag k="note:de" v="http://wiki.openstreetmap.org/index.php/DE:DSL_Hauptverteiler"/>
    <tag k="onkz" v="8046"/>
    <tag k="operator" v="Deutsche Telekom AG"/>
  </node>
  <node id="307205233" version="3" timestamp="2010-05-29T00:18:29Z" uid="163746" user="anti_bot-nonsense" changeset="4838663" lat="47.905348" lon="12.303317">
    <tag k="addr:city" v="Bad Endorf"/>
    <tag k="addr:housenumber" v="3"/>
    <tag k="addr:postcode" v="83093"/>
    <tag k="addr:street" v="Poststraße"/>
    <tag k="asb" v="1"/>
    <tag k="man_made" v="MDF"/>
    <tag k="note:de" v="http://wiki.openstreetmap.org/index.php/DE:DSL_Hauptverteiler"/>
    <tag k="onkz" v="8053"/>
    <tag k="operator" v="Deutsche Telekom AG"/>
    <tag k="source" v="Deutsche Telekom AG"/>
  </node>
  <node id="307205233" version="4" timestamp="2010-06-02T08:27:58Z" uid="297122" user="ipunktendorf" changeset="4881780" lat="47.905348" lon="12.303317">
    <tag k="addr:city" v="Bad Endorf"/>
    <tag k="addr:housenumber" v="3"/>
    <tag k="addr:postcode" v="83093"/>
    <tag k="addr:street" v="Poststraße"/>
    <tag k="asb" v="1"/>
    <tag k="man_made" v="MDF"/>
    <tag k="note:de" v="http://wiki.openstreetmap.org/index.php/DE:DSL_Hauptverteiler"/>
    <tag k="onkz" v="8053"/>
    <tag k="operator" v="Deutsche Telekom AG"/>
    <tag k="source" v="Deutsche Telekom AG"/>
  </node>
  <node id="307205249" version="7" timestamp="2009-10-22T20:40:41Z" uid="36809" user="pfoten_weg_!_" changeset="2925342" lat="47.8654933" lon="12.0045774">
    <tag k="addr:city" v="Bad Aibling"/>
    <tag k="addr:country" v="DE"/>
    <tag k="addr:housenumber" v="2"/>
    <tag k="addr:postcode" v="83043"/>
    <tag k="addr:street" v="Pentenriederstraße"/>
    <tag k="asb" v="1"/>
    <tag k="man_made" v="MDF"/>
    <tag k="note:de" v="http://wiki.openstreetmap.org/index.php/DE:DSL_Hauptverteiler"/>
    <tag k="onkz" v="8061"/>
    <tag k="operator" v="Deutsche Telekom AG"/>
  </node>
  <node id="307205252" version="6" timestamp="2009-10-19T12:39:40Z" uid="36809" user="pfoten_weg_!_" changeset="2893995" lat="47.883171" lon="11.916791">
    <tag k="addr:city" v="Bruckmühl"/>
    <tag k="addr:country" v="DE"/>
    <tag k="addr:housenumber" v="3A"/>
    <tag k="addr:postcode" v="83052"/>
    <tag k="addr:street" v="Sonnenwiechser Straße"/>
    <tag k="asb" v="1"/>
    <tag k="man_made" v="MDF"/>
    <tag k="note:de" v="http://wiki.openstreetmap.org/index.php/DE:DSL_Hauptverteiler"/>
    <tag k="onkz" v="8062"/>
    <tag k="operator" v="Deutsche Telekom AG"/>
  </node>
  <node id="307205334" version="5" timestamp="2009-10-21T22:50:56Z" uid="36809" user="pfoten_weg_!_" changeset="2917503" lat="48.016662" lon="11.710615">
    <tag k="addr:city" v="Höhenkirchen-Siegertsbrunn"/>
    <tag k="addr:country" v="DE"/>
    <tag k="addr:housenumber" v="6"/>
    <tag k="addr:postcode" v="85635"/>
    <tag k="addr:street" v="Brunnthaler Straße"/>
    <tag k="asb" v="1"/>
    <tag k="man_made" v="MDF"/>
    <tag k="note:de" v="http://wiki.openstreetmap.org/index.php/DE:DSL_Hauptverteiler"/>
    <tag k="onkz" v="8102"/>
    <tag k="operator" v="Deutsche Telekom AG"/>
  </node>
  <node id="307205337" version="5" timestamp="2009-10-23T11:54:06Z" uid="36809" user="pfoten_weg_!_" changeset="2929138" lat="47.973958" lon="11.651319">
    <tag k="addr:city" v="Sauerlach"/>
    <tag k="addr:country" v="DE"/>
    <tag k="addr:housenumber" v="6"/>
    <tag k="addr:postcode" v="82054"/>
    <tag k="addr:street" v="Badergasse"/>
    <tag k="asb" v="1"/>
    <tag k="man_made" v="MDF"/>
    <tag k="note:de" v="http://wiki.openstreetmap.org/index.php/DE:DSL_Hauptverteiler"/>
    <tag k="onkz" v="8104"/>
    <tag k="operator" v="Deutsche Telekom AG"/>
    <tag k="source" v="Deutsche Telekom AG"/>
  </node>
  <node id="307205337" version="6" timestamp="2009-10-23T12:03:36Z" uid="36809" user="pfoten_weg_!_" changeset="2929214" lat="47.973958" lon="11.651319">
    <tag k="addr:city" v="Sauerlach"/>
    <tag k="addr:country" v="DE"/>
    <tag k="addr:housenumber" v="6"/>
    <tag k="addr:postcode" v="82054"/>
    <tag k="addr:street" v="Badergasse"/>
    <tag k="asb" v="1"/>
    <tag k="man_made" v="MDF"/>
    <tag k="note:de" v="http://wiki.openstreetmap.org/index.php/DE:DSL_Hauptverteiler"/>
    <tag k="onkz" v="8104"/>
    <tag k="operator" v="Deutsche Telekom AG"/>
    <tag k="source" v="Deutsche Telekom AG"/>
  </node>
  <node id="307205337" version="7" timestamp="2009-10-23T12:09:28Z" uid="36809" user="pfoten_weg_!_" changeset="2929257" lat="47.973958" lon="11.651319">
    <tag k="addr:city" v="Sauerlach"/>
    <tag k="addr:country" v="DE"/>
    <tag k="addr:housenumber" v="6"/>
    <tag k="addr:postcode" v="82054"/>
    <tag k="addr:street" v="Badergasse"/>
    <tag k="asb" v="1"/>
    <tag k="man_made" v="MDF"/>
    <tag k="note:de" v="http://wiki.openstreetmap.org/index.php/DE:DSL_Hauptverteiler"/>
    <tag k="onkz" v="8104"/>
    <tag k="operator" v="Deutsche Telekom AG"/>
    <tag k="source" v="Deutsche Telekom AG"/>
  </node>
  <node id="307205337" version="8" timestamp="2010-07-21T16:59:43Z" uid="290723" user="sulagaloh" changeset="5280482" lat="47.9740247" lon="11.6514766">
    <tag k="addr:city" v="Sauerlach"/>
    <tag k="addr:country" v="DE"/>
    <tag k="addr:housenumber" v="6"/>
    <tag k="addr:postcode" v="82054"/>
    <tag k="addr:street" v="Badergasse"/>
    <tag k="asb" v="1"/>
    <tag k="man_made" v="MDF"/>
    <tag k="note:de" v="http://wiki.openstreetmap.org/index.php/DE:DSL_Hauptverteiler"/>
    <tag k="onkz" v="8104"/>
    <tag k="operator" v="Deutsche Telekom AG"/>
    <tag k="source" v="Deutsche Telekom AG"/>
  </node>
  <node id="307205401" version="4" timestamp="2009-09-30T12:38:58Z" uid="36809" user="pfoten_weg_!_" changeset="2687909" lat="48.1801318" lon="11.2499857">
    <tag k="addr:city" v="Fürstenfeldbruck"/>
    <tag k="addr:housenumber" v="7"/>
    <tag k="addr:postcode" v="82256"/>
    <tag k="addr:street" v="Unfaltstraße"/>
    <tag k="asb" v="3"/>
    <tag k="man_made" v="MDF"/>
    <tag k="note:de" v="http://wiki.openstreetmap.org/index.php/DE:DSL_Hauptverteiler"/>
    <tag k="onkz" v="8141"/>
    <tag k="operator" v="Deutsche Telekom AG"/>
  </node>
  <node id="307205403" version="3" timestamp="2009-09-30T12:38:31Z" uid="36809" user="pfoten_weg_!_" changeset="2687909" lat="48.177152" lon="11.231894">
    <tag k="addr:city" v="Fürstenfeldbruck"/>
    <tag k="addr:housenumber" v="21"/>
    <tag k="addr:postcode" v="82256"/>
    <tag k="addr:street" v="Nimrodstraße"/>
    <tag k="asb" v="1"/>
    <tag k="man_made" v="MDF"/>
    <tag k="note:de" v="http://wiki.openstreetmap.org/index.php/DE:DSL_Hauptverteiler"/>
    <tag k="onkz" v="8141"/>
    <tag k="operator" v="Deutsche Telekom AG"/>
  </node>
  <node id="307205407" version="3" timestamp="2009-09-30T13:37:00Z" uid="36809" user="pfoten_weg_!_" changeset="2688655" lat="48.217624" lon="11.259683">
    <tag k="addr:city" v="Maisach"/>
    <tag k="addr:housenumber" v="3"/>
    <tag k="addr:postcode" v="82216"/>
    <tag k="addr:street" v="Hauptstraße"/>
    <tag k="asb" v="90"/>
    <tag k="man_made" v="MDF"/>
    <tag k="note:de" v="http://wiki.openstreetmap.org/index.php/DE:DSL_Hauptverteiler"/>
    <tag k="onkz" v="8141"/>
    <tag k="operator" v="Deutsche Telekom AG"/>
  </node>
  <node id="307205407" version="4" timestamp="2009-11-01T15:19:20Z" uid="94149" user="markusri" changeset="3007294" lat="48.2176034" lon="11.2596452">
    <tag k="addr:city" v="Maisach"/>
    <tag k="addr:housenumber" v="3"/>
    <tag k="addr:postcode" v="82216"/>
    <tag k="addr:street" v="Hauptstraße"/>
    <tag k="asb" v="90"/>
    <tag k="man_made" v="MDF"/>
    <tag k="note:de" v="http://wiki.openstreetmap.org/index.php/DE:DSL_Hauptverteiler"/>
    <tag k="onkz" v="8141"/>
    <tag k="operator" v="Deutsche Telekom AG"/>
  </node>
  <node id="307205417" version="3" timestamp="2009-09-30T15:14:11Z" uid="36809" user="pfoten_weg_!_" changeset="2689341" lat="48.078379" lon="11.151768">
    <tag k="addr:city" v="Inning"/>
    <tag k="addr:housenumber" v="7"/>
    <tag k="addr:postcode" v="82266"/>
    <tag k="addr:street" v="Münchner Straße"/>
    <tag k="asb" v="1"/>
    <tag k="man_made" v="MDF"/>
    <tag k="note:de" v="http://wiki.openstreetmap.org/index.php/DE:DSL_Hauptverteiler"/>
    <tag k="onkz" v="8143"/>
    <tag k="operator" v="Deutsche Telekom AG"/>
    <tag k="source" v="Deutsche Telekom AG"/>
  </node>
  <node id="307205417" version="4" timestamp="2009-10-02T19:25:26Z" uid="86259" user="hasse_osm_korinthenkacker" changeset="2716617" lat="48.078379" lon="11.151768">
    <tag k="addr:city" v="Inning"/>
    <tag k="addr:housenumber" v="7"/>
    <tag k="addr:postcode" v="82266"/>
    <tag k="addr:street" v="Münchner Straße"/>
    <tag k="asb" v="1"/>
    <tag k="man_made" v="MDF"/>
    <tag k="note:de" v="http://wiki.openstreetmap.org/index.php/DE:DSL_Hauptverteiler"/>
    <tag k="onkz" v="8143"/>
    <tag k="operator" v="Deutsche Telekom AG"/>
  </node>
  <node id="307205430" version="3" timestamp="2009-09-01T11:50:12Z" uid="36809" user="pfoten_weg_!_" changeset="2336655" lat="48.003219" lon="11.348658">
    <tag k="addr:city" v="Starnberg"/>
    <tag k="addr:housenumber" v="1A"/>
    <tag k="addr:postcode" v="82319"/>
    <tag k="addr:street" v="Gautinger Straße"/>
    <tag k="asb" v="1"/>
    <tag k="man_made" v="MDF"/>
    <tag k="note:de" v="http://wiki.openstreetmap.org/index.php/DE:DSL_Hauptverteiler"/>
    <tag k="onkz" v="8151"/>
    <tag k="operator" v="Deutsche Telekom AG"/>
    <tag k="source" v="Deutsche Telekom AG"/>
  </node>
  <node id="307205430" version="4" timestamp="2009-10-02T17:09:01Z" uid="86259" user="hasse_osm_korinthenkacker" changeset="2715119" lat="48.003219" lon="11.348658">
    <tag k="addr:city" v="Starnberg"/>
    <tag k="addr:housenumber" v="1A"/>
    <tag k="addr:postcode" v="82319"/>
    <tag k="addr:street" v="Gautinger Straße"/>
    <tag k="asb" v="1"/>
    <tag k="man_made" v="MDF"/>
    <tag k="note:de" v="http://wiki.openstreetmap.org/index.php/DE:DSL_Hauptverteiler"/>
    <tag k="onkz" v="8151"/>
    <tag k="operator" v="Deutsche Telekom AG"/>
  </node>
  <node id="307205430" version="5" timestamp="2011-07-27T13:08:44Z" uid="482628" user="gumul" changeset="8844916" lat="48.0030327" lon="11.3487776">
    <tag k="addr:city" v="Starnberg"/>
    <tag k="addr:housenumber" v="1A"/>
    <tag k="addr:postcode" v="82319"/>
    <tag k="addr:street" v="Gautinger Straße"/>
    <tag k="asb" v="1"/>
    <tag k="man_made" v="MDF"/>
    <tag k="note:de" v="http://wiki.openstreetmap.org/index.php/DE:DSL_Hauptverteiler"/>
    <tag k="onkz" v="8151"/>
    <tag k="operator" v="Deutsche Telekom AG"/>
  </node>
  <node id="307205432" version="4" timestamp="2009-09-01T10:13:22Z" uid="36809" user="pfoten_weg_!_" changeset="2335647" lat="47.965669" lon="11.356362">
    <tag k="addr:city" v="Berg"/>
    <tag k="addr:housenumber" v="3"/>
    <tag k="addr:postcode" v="82335"/>
    <tag k="addr:street" v="Postgasse"/>
    <tag k="asb" v="5"/>
    <tag k="man_made" v="MDF"/>
    <tag k="note:de" v="http://wiki.openstreetmap.org/index.php/DE:DSL_Hauptverteiler"/>
    <tag k="onkz" v="8151"/>
    <tag k="operator" v="Deutsche Telekom AG"/>
    <tag k="source" v="Deutsche Telekom AG"/>
  </node>
  <node id="307205432" version="5" timestamp="2009-10-12T21:41:16Z" uid="36809" user="pfoten_weg_!_" changeset="2831200" lat="47.965669" lon="11.356362">
    <tag k="addr:city" v="Berg"/>
    <tag k="addr:housenumber" v="3"/>
    <tag k="addr:postcode" v="82335"/>
    <tag k="addr:street" v="Postgasse"/>
    <tag k="asb" v="5"/>
    <tag k="man_made" v="MDF"/>
    <tag k="note:de" v="http://wiki.openstreetmap.org/index.php/DE:DSL_Hauptverteiler"/>
    <tag k="onkz" v="8151"/>
    <tag k="operator" v="Deutsche Telekom AG"/>
  </node>
  <node id="307205432" version="6" timestamp="2010-05-01T22:25:16Z" uid="168250" user="der wahre adrian" changeset="4580060" lat="47.9656602" lon="11.3563736">
    <tag k="addr:city" v="Berg"/>
    <tag k="addr:housenumber" v="3"/>
    <tag k="addr:postcode" v="82335"/>
    <tag k="addr:street" v="Postgasse"/>
    <tag k="asb" v="5"/>
    <tag k="man_made" v="MDF"/>
    <tag k="note:de" v="http://wiki.openstreetmap.org/index.php/DE:DSL_Hauptverteiler"/>
    <tag k="onkz" v="8151"/>
    <tag k="operator" v="Deutsche Telekom AG"/>
  </node>
  <node id="307205437" version="3" timestamp="2009-09-30T14:58:37Z" uid="36809" user="pfoten_weg_!_" changeset="2689341" lat="48.000822" lon="11.171935">
    <tag k="addr:city" v="Herrsching"/>
    <tag k="addr:housenumber" v="16"/>
    <tag k="addr:postcode" v="82211"/>
    <tag k="addr:street" v="Ladestraße"/>
    <tag k="asb" v="2"/>
    <tag k="man_made" v="MDF"/>
    <tag k="note:de" v="http://wiki.openstreetmap.org/index.php/DE:DSL_Hauptverteiler"/>
    <tag k="onkz" v="8152"/>
    <tag k="operator" v="Deutsche Telekom AG"/>
    <tag k="source" v="Deutsche Telekom AG"/>
  </node>
  <node id="307205437" version="4" timestamp="2009-10-02T19:34:53Z" uid="86259" user="hasse_osm_korinthenkacker" changeset="2716729" lat="48.000822" lon="11.171935">
    <tag k="addr:city" v="Herrsching"/>
    <tag k="addr:housenumber" v="16"/>
    <tag k="addr:postcode" v="82211"/>
    <tag k="addr:street" v="Ladestraße"/>
    <tag k="asb" v="2"/>
    <tag k="man_made" v="MDF"/>
    <tag k="note:de" v="http://wiki.openstreetmap.org/index.php/DE:DSL_Hauptverteiler"/>
    <tag k="onkz" v="8152"/>
    <tag k="operator" v="Deutsche Telekom AG"/>
  </node>
  <node id="307205437" version="5" timestamp="2010-08-29T19:05:09Z" uid="313675" user="alphax" changeset="5629618" lat="48.0009623" lon="11.1718903">
    <tag k="addr:city" v="Herrsching"/>
    <tag k="addr:housenumber" v="16"/>
    <tag k="addr:postcode" v="82211"/>
    <tag k="addr:street" v="Ladestraße"/>
    <tag k="asb" v="2"/>
    <tag k="man_made" v="MDF"/>
    <tag k="note:de" v="http://wiki.openstreetmap.org/index.php/DE:DSL_Hauptverteiler"/>
    <tag k="onkz" v="8152"/>
    <tag k="operator" v="Deutsche Telekom AG"/>
  </node>
  <node id="307205440" version="3" timestamp="2009-09-30T15:08:24Z" uid="36809" user="pfoten_weg_!_" changeset="2689341" lat="48.040079" lon="11.190885">
    <tag k="addr:city" v="Seefeld"/>
    <tag k="addr:housenumber" v="24"/>
    <tag k="addr:postcode" v="82229"/>
    <tag k="addr:street" v="Hirtenweg"/>
    <tag k="asb" v="7"/>
    <tag k="man_made" v="MDF"/>
    <tag k="note:de" v="http://wiki.openstreetmap.org/index.php/DE:DSL_Hauptverteiler"/>
    <tag k="onkz" v="8152"/>
    <tag k="operator" v="Deutsche Telekom AG"/>
    <tag k="source" v="Deutsche Telekom AG"/>
  </node>
  <node id="307205440" version="4" timestamp="2009-10-02T19:25:22Z" uid="86259" user="hasse_osm_korinthenkacker" changeset="2716617" lat="48.040079" lon="11.190885">
    <tag k="addr:city" v="Seefeld"/>
    <tag k="addr:housenumber" v="24"/>
    <tag k="addr:postcode" v="82229"/>
    <tag k="addr:street" v="Hirtenweg"/>
    <tag k="asb" v="7"/>
    <tag k="man_made" v="MDF"/>
    <tag k="note:de" v="http://wiki.openstreetmap.org/index.php/DE:DSL_Hauptverteiler"/>
    <tag k="onkz" v="8152"/>
    <tag k="operator" v="Deutsche Telekom AG"/>
  </node>
  <node id="307205444" version="3" timestamp="2009-08-24T23:12:55Z" uid="36809" user="pfoten_weg_!_" changeset="2251012" lat="48.076637" lon="11.250435">
    <tag k="addr:city" v="Weßling"/>
    <tag k="addr:housenumber" v="6"/>
    <tag k="addr:postcode" v="82234"/>
    <tag k="addr:street" v="Bahnhofstraße"/>
    <tag k="asb" v="1"/>
    <tag k="man_made" v="MDF"/>
    <tag k="note:de" v="http://wiki.openstreetmap.org/index.php/DE:DSL_Hauptverteiler"/>
    <tag k="onkz" v="8153"/>
    <tag k="operator" v="Deutsche Telekom AG"/>
    <tag k="source" v="Deutsche Telekom AG"/>
  </node>
  <node id="307205444" version="4" timestamp="2009-10-02T19:25:40Z" uid="86259" user="hasse_osm_korinthenkacker" changeset="2716617" lat="48.076637" lon="11.250435">
    <tag k="addr:city" v="Weßling"/>
    <tag k="addr:housenumber" v="6"/>
    <tag k="addr:postcode" v="82234"/>
    <tag k="addr:street" v="Bahnhofstraße"/>
    <tag k="asb" v="1"/>
    <tag k="man_made" v="MDF"/>
    <tag k="note:de" v="http://wiki.openstreetmap.org/index.php/DE:DSL_Hauptverteiler"/>
    <tag k="onkz" v="8153"/>
    <tag k="operator" v="Deutsche Telekom AG"/>
  </node>
  <node id="307205448" version="3" timestamp="2009-09-30T15:11:48Z" uid="36809" user="pfoten_weg_!_" changeset="2689341" lat="48.06348" lon="11.206351">
    <tag k="addr:city" v="Wörthsee"/>
    <tag k="addr:housenumber" v="23A"/>
    <tag k="addr:postcode" v="82237"/>
    <tag k="addr:street" v="Weßlinger Straße"/>
    <tag k="asb" v="7"/>
    <tag k="man_made" v="MDF"/>
    <tag k="note:de" v="http://wiki.openstreetmap.org/index.php/DE:DSL_Hauptverteiler"/>
    <tag k="onkz" v="8153"/>
    <tag k="operator" v="Deutsche Telekom AG"/>
    <tag k="source" v="Deutsche Telekom AG"/>
  </node>
  <node id="307205448" version="4" timestamp="2009-10-02T19:25:22Z" uid="86259" user="hasse_osm_korinthenkacker" changeset="2716617" lat="48.06348" lon="11.206351">
    <tag k="addr:city" v="Wörthsee"/>
    <tag k="addr:housenumber" v="23A"/>
    <tag k="addr:postcode" v="82237"/>
    <tag k="addr:street" v="Weßlinger Straße"/>
    <tag k="asb" v="7"/>
    <tag k="man_made" v="MDF"/>
    <tag k="note:de" v="http://wiki.openstreetmap.org/index.php/DE:DSL_Hauptverteiler"/>
    <tag k="onkz" v="8153"/>
    <tag k="operator" v="Deutsche Telekom AG"/>
  </node>
  <node id="307205486" version="3" timestamp="2009-10-20T14:18:12Z" uid="36809" user="pfoten_weg_!_" changeset="2903434" lat="47.980041" lon="11.517863">
    <tag k="addr:city" v="Straßlach-Dingharting"/>
    <tag k="addr:housenumber" v="10"/>
    <tag k="addr:postcode" v="82064"/>
    <tag k="addr:street" v="Fußsteinerstraße"/>
    <tag k="asb" v="1"/>
    <tag k="man_made" v="MDF"/>
    <tag k="note:de" v="http://wiki.openstreetmap.org/index.php/DE:DSL_Hauptverteiler"/>
    <tag k="onkz" v="8170"/>
    <tag k="operator" v="Deutsche Telekom AG"/>
    <tag k="source" v="Deutsche Telekom AG"/>
  </node>
  <node id="307205486" version="4" timestamp="2010-05-03T19:32:59Z" uid="8748" user="ToniE" changeset="4598243" lat="47.980041" lon="11.517863">
    <tag k="addr:city" v="Straßlach-Dingharting"/>
    <tag k="addr:housenumber" v="10"/>
    <tag k="addr:postcode" v="82064"/>
    <tag k="addr:street" v="Fußsteinerstraße"/>
    <tag k="note:de" v="http://wiki.openstreetmap.org/index.php/DE:DSL_Hauptverteiler"/>
  </node>
  <node id="307205489" version="3" timestamp="2009-10-02T16:55:58Z" uid="86259" user="hasse_osm_korinthenkacker" changeset="2714981" lat="47.912973" lon="11.425644">
    <tag k="addr:city" v="Wolfratshausen"/>
    <tag k="addr:housenumber" v="28"/>
    <tag k="addr:postcode" v="82515"/>
    <tag k="addr:street" v="Sauerlacher Straße"/>
    <tag k="asb" v="1"/>
    <tag k="man_made" v="MDF"/>
    <tag k="note:de" v="http://wiki.openstreetmap.org/index.php/DE:DSL_Hauptverteiler"/>
    <tag k="onkz" v="8171"/>
    <tag k="operator" v="Deutsche Telekom AG"/>
    <tag k="source" v="Deutsche Telekom AG"/>
  </node>
  <node id="307205489" version="4" timestamp="2009-10-02T17:07:33Z" uid="86259" user="hasse_osm_korinthenkacker" changeset="2715119" lat="47.912973" lon="11.425644">
    <tag k="addr:city" v="Wolfratshausen"/>
    <tag k="addr:housenumber" v="28"/>
    <tag k="addr:postcode" v="82515"/>
    <tag k="addr:street" v="Sauerlacher Straße"/>
    <tag k="asb" v="1"/>
    <tag k="man_made" v="MDF"/>
    <tag k="note:de" v="http://wiki.openstreetmap.org/index.php/DE:DSL_Hauptverteiler"/>
    <tag k="onkz" v="8171"/>
    <tag k="operator" v="Deutsche Telekom AG"/>
  </node>
  <node id="307205489" version="5" timestamp="2009-10-02T18:16:40Z" uid="86259" user="hasse_osm_korinthenkacker" changeset="2715119" lat="47.912973" lon="11.425644">
    <tag k="addr:city" v="Wolfratshausen"/>
    <tag k="addr:housenumber" v="28"/>
    <tag k="addr:postcode" v="82515"/>
    <tag k="addr:street" v="Sauerlacher Straße"/>
    <tag k="asb" v="1"/>
    <tag k="man_made" v="MDF"/>
    <tag k="note:de" v="http://wiki.openstreetmap.org/index.php/DE:DSL_Hauptverteiler"/>
    <tag k="onkz" v="8171"/>
    <tag k="operator" v="Deutsche Telekom AG"/>
  </node>
  <node id="307205489" version="6" timestamp="2009-10-02T18:20:12Z" uid="86259" user="hasse_osm_korinthenkacker" changeset="2715119" lat="47.912973" lon="11.425644">
    <tag k="addr:city" v="Wolfratshausen"/>
    <tag k="addr:housenumber" v="28"/>
    <tag k="addr:postcode" v="82515"/>
    <tag k="addr:street" v="Sauerlacher Straße"/>
    <tag k="asb" v="1"/>
    <tag k="man_made" v="MDF"/>
    <tag k="note:de" v="http://wiki.openstreetmap.org/index.php/DE:DSL_Hauptverteiler"/>
    <tag k="onkz" v="8171"/>
    <tag k="operator" v="Deutsche Telekom AG"/>
  </node>
  <node id="307205489" version="7" timestamp="2009-10-02T18:32:05Z" uid="86259" user="hasse_osm_korinthenkacker" changeset="2715119" lat="47.912973" lon="11.425644">
    <tag k="addr:city" v="Wolfratshausen"/>
    <tag k="addr:housenumber" v="28"/>
    <tag k="addr:postcode" v="82515"/>
    <tag k="addr:street" v="Sauerlacher Straße"/>
    <tag k="asb" v="1"/>
    <tag k="man_made" v="MDF"/>
    <tag k="note:de" v="http://wiki.openstreetmap.org/index.php/DE:DSL_Hauptverteiler"/>
    <tag k="onkz" v="8171"/>
    <tag k="operator" v="Deutsche Telekom AG"/>
  </node>
  <node id="307205489" version="8" timestamp="2009-10-02T18:39:52Z" uid="86259" user="hasse_osm_korinthenkacker" changeset="2716042" lat="47.912973" lon="11.425644">
    <tag k="addr:city" v="Wolfratshausen"/>
    <tag k="addr:housenumber" v="28"/>
    <tag k="addr:postcode" v="82515"/>
    <tag k="addr:street" v="Sauerlacher Straße"/>
    <tag k="asb" v="1"/>
    <tag k="man_made" v="MDF"/>
    <tag k="note:de" v="http://wiki.openstreetmap.org/index.php/DE:DSL_Hauptverteiler"/>
    <tag k="onkz" v="8171"/>
    <tag k="operator" v="Deutsche Telekom AG"/>
  </node>
  <node id="307205489" version="9" timestamp="2009-10-02T18:44:04Z" uid="86259" user="hasse_osm_korinthenkacker" changeset="2716042" lat="47.912973" lon="11.425644">
    <tag k="addr:city" v="Wolfratshausen"/>
    <tag k="addr:housenumber" v="28"/>
    <tag k="addr:postcode" v="82515"/>
    <tag k="addr:street" v="Sauerlacher Straße"/>
    <tag k="asb" v="1"/>
    <tag k="man_made" v="MDF"/>
    <tag k="note:de" v="http://wiki.openstreetmap.org/index.php/DE:DSL_Hauptverteiler"/>
    <tag k="onkz" v="8171"/>
    <tag k="operator" v="Deutsche Telekom AG"/>
  </node>
  <node id="307205493" version="3" timestamp="2009-10-22T21:40:02Z" uid="36809" user="pfoten_weg_!_" changeset="2925750" lat="47.863493" lon="11.47925">
    <tag k="addr:city" v="Geretsried"/>
    <tag k="addr:housenumber" v="44"/>
    <tag k="addr:postcode" v="82538"/>
    <tag k="addr:street" v="Adalbert-Stifter-Straße"/>
    <tag k="asb" v="3"/>
    <tag k="man_made" v="MDF"/>
    <tag k="note:de" v="http://wiki.openstreetmap.org/index.php/DE:DSL_Hauptverteiler"/>
    <tag k="onkz" v="8171"/>
    <tag k="operator" v="Deutsche Telekom AG"/>
  </node>
  <node id="307205496" version="3" timestamp="2009-11-06T11:09:36Z" uid="36809" user="pfoten_weg_!_" changeset="3047170" lat="47.880345" lon="11.467049">
    <tag k="addr:city" v="Geretsried"/>
    <tag k="addr:housenumber" v="20"/>
    <tag k="addr:postcode" v="82538"/>
    <tag k="addr:street" v="Elbestraße"/>
    <tag k="asb" v="6"/>
    <tag k="man_made" v="MDF"/>
    <tag k="note:de" v="http://wiki.openstreetmap.org/index.php/DE:DSL_Hauptverteiler"/>
    <tag k="onkz" v="8171"/>
    <tag k="operator" v="Deutsche Telekom AG"/>
  </node>
  <node id="307205496" version="4" timestamp="2011-03-29T07:28:39Z" uid="42393" user="mawi42" changeset="7704084" lat="47.8803907" lon="11.4670447">
    <tag k="addr:city" v="Geretsried"/>
    <tag k="addr:housenumber" v="20"/>
    <tag k="addr:postcode" v="82538"/>
    <tag k="addr:street" v="Elbestraße"/>
    <tag k="asb" v="6"/>
    <tag k="man_made" v="MDF"/>
    <tag k="note:de" v="http://wiki.openstreetmap.org/index.php/DE:DSL_Hauptverteiler"/>
    <tag k="onkz" v="8171"/>
    <tag k="operator" v="Deutsche Telekom AG"/>
  </node>
  <node id="307205500" version="3" timestamp="2009-10-20T14:14:19Z" uid="36809" user="pfoten_weg_!_" changeset="2903434" lat="47.922538" lon="11.531778">
    <tag k="addr:city" v="Egling"/>
    <tag k="addr:housenumber" v="4A"/>
    <tag k="addr:postcode" v="82544"/>
    <tag k="addr:street" v="Amtmannstraße"/>
    <tag k="asb" v="1"/>
    <tag k="man_made" v="MDF"/>
    <tag k="note:de" v="http://wiki.openstreetmap.org/index.php/DE:DSL_Hauptverteiler"/>
    <tag k="onkz" v="8176"/>
    <tag k="operator" v="Deutsche Telekom AG"/>
    <tag k="source" v="Deutsche Telekom AG"/>
  </node>
  <node id="307205500" version="4" timestamp="2009-11-06T11:15:40Z" uid="36809" user="pfoten_weg_!_" changeset="3047170" lat="47.922538" lon="11.531778">
    <tag k="addr:city" v="Egling"/>
    <tag k="addr:housenumber" v="4A"/>
    <tag k="addr:postcode" v="82544"/>
    <tag k="addr:street" v="Amtmannstraße"/>
    <tag k="asb" v="1"/>
    <tag k="man_made" v="MDF"/>
    <tag k="note:de" v="http://wiki.openstreetmap.org/index.php/DE:DSL_Hauptverteiler"/>
    <tag k="onkz" v="8176"/>
    <tag k="operator" v="Deutsche Telekom AG"/>
  </node>
  <node id="307205500" version="5" timestamp="2010-05-30T10:26:16Z" uid="8748" user="ToniE" changeset="4850309" lat="47.9224415" lon="11.531826">
    <tag k="addr:city" v="Egling"/>
    <tag k="addr:country" v="DE"/>
    <tag k="addr:housenumber" v="4A"/>
    <tag k="addr:postcode" v="82544"/>
    <tag k="addr:street" v="Amtmannstraße"/>
    <tag k="asb" v="1"/>
    <tag k="man_made" v="MDF"/>
    <tag k="note:de" v="http://wiki.openstreetmap.org/index.php/DE:DSL_Hauptverteiler"/>
    <tag k="onkz" v="8176"/>
    <tag k="operator" v="Deutsche Telekom AG"/>
  </node>
  <node id="307205504" version="3" timestamp="2009-09-30T16:23:31Z" uid="36809" user="pfoten_weg_!_" changeset="2690373" lat="47.901539" lon="11.33977">
    <tag k="addr:city" v="Münsing"/>
    <tag k="addr:housenumber" v="30"/>
    <tag k="addr:postcode" v="82541"/>
    <tag k="addr:street" v="Hauptstraße"/>
    <tag k="asb" v="1"/>
    <tag k="man_made" v="MDF"/>
    <tag k="note:de" v="http://wiki.openstreetmap.org/index.php/DE:DSL_Hauptverteiler"/>
    <tag k="onkz" v="8177"/>
    <tag k="operator" v="Deutsche Telekom AG"/>
  </node>
  <node id="307205507" version="3" timestamp="2009-09-01T11:50:11Z" uid="36809" user="pfoten_weg_!_" changeset="2336655" lat="47.956172" lon="11.431458">
    <tag k="addr:city" v="Icking"/>
    <tag k="addr:housenumber" v="50"/>
    <tag k="addr:postcode" v="82057"/>
    <tag k="addr:street" v="Ichoring"/>
    <tag k="asb" v="2"/>
    <tag k="man_made" v="MDF"/>
    <tag k="note:de" v="http://wiki.openstreetmap.org/index.php/DE:DSL_Hauptverteiler"/>
    <tag k="onkz" v="8178"/>
    <tag k="operator" v="Deutsche Telekom AG"/>
    <tag k="source" v="Deutsche Telekom AG"/>
  </node>
  <node id="307205507" version="4" timestamp="2009-10-02T17:08:13Z" uid="86259" user="hasse_osm_korinthenkacker" changeset="2715119" lat="47.956172" lon="11.431458">
    <tag k="addr:city" v="Icking"/>
    <tag k="addr:housenumber" v="50"/>
    <tag k="addr:postcode" v="82057"/>
    <tag k="addr:street" v="Ichoring"/>
    <tag k="asb" v="2"/>
    <tag k="man_made" v="MDF"/>
    <tag k="note:de" v="http://wiki.openstreetmap.org/index.php/DE:DSL_Hauptverteiler"/>
    <tag k="onkz" v="8178"/>
    <tag k="operator" v="Deutsche Telekom AG"/>
  </node>
  <node id="307205507" version="5" timestamp="2009-10-02T18:17:54Z" uid="86259" user="hasse_osm_korinthenkacker" changeset="2715119" lat="47.956172" lon="11.431458">
    <tag k="addr:city" v="Icking"/>
    <tag k="addr:housenumber" v="50"/>
    <tag k="addr:postcode" v="82057"/>
    <tag k="addr:street" v="Ichoring"/>
    <tag k="asb" v="2"/>
    <tag k="man_made" v="MDF"/>
    <tag k="note:de" v="http://wiki.openstreetmap.org/index.php/DE:DSL_Hauptverteiler"/>
    <tag k="onkz" v="8178"/>
    <tag k="operator" v="Deutsche Telekom AG"/>
  </node>
  <node id="307205507" version="6" timestamp="2009-10-02T18:21:14Z" uid="86259" user="hasse_osm_korinthenkacker" changeset="2715119" lat="47.956172" lon="11.431458">
    <tag k="addr:city" v="Icking"/>
    <tag k="addr:housenumber" v="50"/>
    <tag k="addr:postcode" v="82057"/>
    <tag k="addr:street" v="Ichoring"/>
    <tag k="asb" v="2"/>
    <tag k="man_made" v="MDF"/>
    <tag k="note:de" v="http://wiki.openstreetmap.org/index.php/DE:DSL_Hauptverteiler"/>
    <tag k="onkz" v="8178"/>
    <tag k="operator" v="Deutsche Telekom AG"/>
  </node>
  <node id="307205511" version="3" timestamp="2009-04-03T06:41:03Z" uid="36809" user="pfoten_weg_!_" changeset="111830" lat="47.980572" lon="11.455704">
    <tag k="addr:city" v="Ebenhausen"/>
    <tag k="addr:housenumber" v="3"/>
    <tag k="addr:postcode" v="82067"/>
    <tag k="addr:street" v="Poststraße"/>
    <tag k="asb" v="3"/>
    <tag k="created_by" v="RambaZamba"/>
    <tag k="man_made" v="MDF"/>
    <tag k="note:de" v="http://wiki.openstreetmap.org/index.php/DE:DSL_Hauptverteiler"/>
    <tag k="onkz" v="8178"/>
    <tag k="operator" v="Deutsche Telekom AG"/>
    <tag k="source" v="survey"/>
  </node>
  <node id="307205511" version="4" timestamp="2009-08-12T13:32:34Z" uid="156995" user="HampelZamba" changeset="2118817" lat="47.980572" lon="11.455704">
    <tag k="addr:city" v="Ebenhausen"/>
    <tag k="addr:housenumber" v="3"/>
    <tag k="addr:postcode" v="82067"/>
    <tag k="addr:street" v="Poststraße"/>
    <tag k="asb" v="3"/>
    <tag k="man_made" v="MDF"/>
    <tag k="note:de" v="http://wiki.openstreetmap.org/index.php/DE:DSL_Hauptverteiler"/>
    <tag k="onkz" v="8178"/>
    <tag k="operator" v="Deutsche Telekom AG"/>
    <tag k="source" v="survey"/>
  </node>
  <node id="307205511" version="5" timestamp="2009-08-26T08:11:57Z" uid="36809" user="pfoten_weg_!_" changeset="2264689" lat="47.980572" lon="11.455704">
    <tag k="addr:city" v="Ebenhausen"/>
    <tag k="addr:housenumber" v="3"/>
    <tag k="addr:postcode" v="82067"/>
    <tag k="addr:street" v="Poststraße"/>
    <tag k="asb" v="3"/>
    <tag k="man_made" v="MDF"/>
    <tag k="note:de" v="http://wiki.openstreetmap.org/index.php/DE:DSL_Hauptverteiler"/>
    <tag k="onkz" v="8178"/>
    <tag k="operator" v="Deutsche Telekom AG"/>
    <tag k="source" v="survey"/>
  </node>
  <node id="307205511" version="6" timestamp="2009-10-02T11:19:29Z" uid="86259" user="hasse_osm_korinthenkacker" changeset="2711165" lat="47.980572" lon="11.455704">
    <tag k="addr:city" v="Ebenhausen"/>
    <tag k="addr:housenumber" v="3"/>
    <tag k="addr:postcode" v="82067"/>
    <tag k="addr:street" v="Poststraße"/>
    <tag k="asb" v="3"/>
    <tag k="man_made" v="MDF"/>
    <tag k="note:de" v="http://wiki.openstreetmap.org/index.php/DE:DSL_Hauptverteiler"/>
    <tag k="onkz" v="8178"/>
    <tag k="operator" v="Deutsche Telekom AG"/>
  </node>
  <node id="307205511" version="7" timestamp="2009-10-02T11:26:09Z" uid="86259" user="hasse_osm_korinthenkacker" changeset="2711249" lat="47.980572" lon="11.455704">
    <tag k="addr:city" v="Ebenhausen"/>
    <tag k="addr:housenumber" v="3"/>
    <tag k="addr:postcode" v="82067"/>
    <tag k="addr:street" v="Poststraße"/>
    <tag k="asb" v="3"/>
    <tag k="man_made" v="MDF"/>
    <tag k="note:de" v="http://wiki.openstreetmap.org/index.php/DE:DSL_Hauptverteiler"/>
    <tag k="onkz" v="8178"/>
    <tag k="operator" v="Deutsche Telekom AG"/>
  </node>
  <node id="307205511" version="8" timestamp="2009-10-02T11:54:08Z" uid="86259" user="hasse_osm_korinthenkacker" changeset="2711588" lat="47.980572" lon="11.455704">
    <tag k="addr:city" v="Ebenhausen"/>
    <tag k="addr:housenumber" v="3"/>
    <tag k="addr:postcode" v="82067"/>
    <tag k="addr:street" v="Poststraße"/>
    <tag k="asb" v="3"/>
    <tag k="man_made" v="MDF"/>
    <tag k="note:de" v="http://wiki.openstreetmap.org/index.php/DE:DSL_Hauptverteiler"/>
    <tag k="onkz" v="8178"/>
    <tag k="operator" v="Deutsche Telekom AG"/>
  </node>
  <node id="307205514" version="3" timestamp="2009-10-22T21:36:41Z" uid="36809" user="pfoten_weg_!_" changeset="2925750" lat="47.827982" lon="11.409754">
    <tag k="addr:city" v="Eurasburg"/>
    <tag k="addr:housenumber" v="25"/>
    <tag k="addr:postcode" v="82547"/>
    <tag k="addr:street" v="Hauptstraße"/>
    <tag k="asb" v="1"/>
    <tag k="man_made" v="MDF"/>
    <tag k="note:de" v="http://wiki.openstreetmap.org/index.php/DE:DSL_Hauptverteiler"/>
    <tag k="onkz" v="8179"/>
    <tag k="operator" v="Deutsche Telekom AG"/>
  </node>
  <node id="307205517" version="4" timestamp="2009-09-01T10:01:01Z" uid="36809" user="pfoten_weg_!_" changeset="2335514" lat="48.049945" lon="10.868272">
    <tag k="addr:city" v="Landsberg am Lech"/>
    <tag k="addr:housenumber" v="16"/>
    <tag k="addr:postcode" v="86899"/>
    <tag k="addr:street" v="Spöttinger Straße"/>
    <tag k="asb" v="1"/>
    <tag k="man_made" v="MDF"/>
    <tag k="note:de" v="http://wiki.openstreetmap.org/index.php/DE:DSL_Hauptverteiler"/>
    <tag k="onkz" v="8191"/>
    <tag k="operator" v="Deutsche Telekom AG"/>
    <tag k="source" v="Deutsche Telekom AG"/>
  </node>
  <node id="307205517" version="5" timestamp="2009-10-21T00:07:36Z" uid="36809" user="pfoten_weg_!_" changeset="2908220" lat="48.049945" lon="10.868272">
    <tag k="addr:city" v="Landsberg am Lech"/>
    <tag k="addr:housenumber" v="16"/>
    <tag k="addr:postcode" v="86899"/>
    <tag k="addr:street" v="Spöttinger Straße"/>
    <tag k="asb" v="1"/>
    <tag k="man_made" v="MDF"/>
    <tag k="note:de" v="http://wiki.openstreetmap.org/index.php/DE:DSL_Hauptverteiler"/>
    <tag k="onkz" v="8191"/>
    <tag k="operator" v="Deutsche Telekom AG"/>
  </node>
  <node id="307205521" version="4" timestamp="2009-09-01T10:01:00Z" uid="36809" user="pfoten_weg_!_" changeset="2335514" lat="48.086089" lon="10.858084">
    <tag k="addr:city" v="Kaufering"/>
    <tag k="addr:housenumber" v="11"/>
    <tag k="addr:postcode" v="86916"/>
    <tag k="addr:street" v="Florianstraße"/>
    <tag k="asb" v="6"/>
    <tag k="man_made" v="MDF"/>
    <tag k="note:de" v="http://wiki.openstreetmap.org/index.php/DE:DSL_Hauptverteiler"/>
    <tag k="onkz" v="8191"/>
    <tag k="operator" v="Deutsche Telekom AG"/>
    <tag k="source" v="Deutsche Telekom AG"/>
  </node>
  <node id="307205529" version="3" timestamp="2009-09-30T14:50:09Z" uid="36809" user="pfoten_weg_!_" changeset="2689341" lat="48.053365" lon="11.091412">
    <tag k="addr:city" v="Schondorf"/>
    <tag k="addr:housenumber" v="1"/>
    <tag k="addr:postcode" v="86938"/>
    <tag k="addr:street" v="Greifenberger Straße"/>
    <tag k="asb" v="1"/>
    <tag k="man_made" v="MDF"/>
    <tag k="note:de" v="http://wiki.openstreetmap.org/index.php/DE:DSL_Hauptverteiler"/>
    <tag k="onkz" v="8192"/>
    <tag k="operator" v="Deutsche Telekom AG"/>
    <tag k="source" v="Deutsche Telekom AG"/>
  </node>
  <node id="307206136" version="3" timestamp="2009-11-29T22:21:10Z" uid="200463" user="harmagedon" changeset="3251061" lat="48.522958" lon="13.320835">
    <tag k="addr:city" v="Fürstenzell"/>
    <tag k="addr:housenumber" v="2"/>
    <tag k="addr:postcode" v="94081"/>
    <tag k="addr:street" v="Kellerweg"/>
    <tag k="asb" v="1"/>
    <tag k="man_made" v="MDF"/>
    <tag k="note:de" v="http://wiki.openstreetmap.org/index.php/DE:DSL_Hauptverteiler"/>
    <tag k="onkz" v="8502"/>
    <tag k="operator" v="Deutsche Telekom AG"/>
    <tag k="source" v="Deutsche Telekom AG"/>
  </node>
  <node id="307206139" version="3" timestamp="2009-12-06T23:27:54Z" uid="200463" user="harmagedon" changeset="3311555" lat="48.457568" lon="13.419867">
    <tag k="addr:city" v="Neuhaus"/>
    <tag k="addr:housenumber" v="18"/>
    <tag k="addr:postcode" v="94152"/>
    <tag k="addr:street" v="Passauer Straße"/>
    <tag k="asb" v="1"/>
    <tag k="man_made" v="MDF"/>
    <tag k="note:de" v="http://wiki.openstreetmap.org/index.php/DE:DSL_Hauptverteiler"/>
    <tag k="onkz" v="8503"/>
    <tag k="operator" v="Deutsche Telekom AG"/>
    <tag k="source" v="Deutsche Telekom AG"/>
  </node>
  <node id="307206162" version="3" timestamp="2009-12-07T00:02:26Z" uid="200463" user="harmagedon" changeset="3311752" lat="48.435184" lon="13.336533">
    <tag k="addr:city" v="Ruhstorf"/>
    <tag k="addr:housenumber" v="5B"/>
    <tag k="addr:postcode" v="94099"/>
    <tag k="addr:street" v="Ernst-Hatz-Straße"/>
    <tag k="asb" v="3"/>
    <tag k="man_made" v="MDF"/>
    <tag k="note:de" v="http://wiki.openstreetmap.org/index.php/DE:DSL_Hauptverteiler"/>
    <tag k="onkz" v="8531"/>
    <tag k="operator" v="Deutsche Telekom AG"/>
    <tag k="source" v="Deutsche Telekom AG"/>
  </node>
  <node id="307206162" version="4" timestamp="2009-12-07T11:17:59Z" uid="200463" user="harmagedon" changeset="3314630" lat="48.435184" lon="13.336533">
    <tag k="addr:city" v="Ruhstorf"/>
    <tag k="addr:housenumber" v="5B"/>
    <tag k="addr:postcode" v="94099"/>
    <tag k="addr:street" v="Ernst-Hatz-Straße"/>
    <tag k="asb" v="3"/>
    <tag k="man_made" v="MDF"/>
    <tag k="note:de" v="http://wiki.openstreetmap.org/index.php/DE:DSL_Hauptverteiler"/>
    <tag k="onkz" v="8531"/>
    <tag k="operator" v="Deutsche Telekom AG"/>
    <tag k="source" v="Deutsche Telekom AG"/>
  </node>
  <node id="307206165" version="3" timestamp="2010-02-12T12:03:19Z" uid="163746" user="anti_bot-nonsense" changeset="3855719" lat="48.448817" lon="13.192515">
    <tag k="addr:city" v="Bad Griesbach"/>
    <tag k="addr:housenumber" v="20A"/>
    <tag k="addr:postcode" v="94086"/>
    <tag k="addr:street" v="Hauptstraße"/>
    <tag k="asb" v="1"/>
    <tag k="man_made" v="MDF"/>
    <tag k="note:de" v="http://wiki.openstreetmap.org/index.php/DE:DSL_Hauptverteiler"/>
    <tag k="onkz" v="8532"/>
    <tag k="operator" v="Deutsche Telekom AG"/>
    <tag k="source" v="Deutsche Telekom AG"/>
  </node>
  <node id="307206174" version="3" timestamp="2009-11-29T21:58:42Z" uid="200463" user="harmagedon" changeset="3251061" lat="48.500866" lon="13.150433">
    <tag k="addr:city" v="Haarbach"/>
    <tag k="addr:housenumber" v="36"/>
    <tag k="addr:postcode" v="94542"/>
    <tag k="addr:street" v="Hauptstraße"/>
    <tag k="asb" v="1"/>
    <tag k="man_made" v="MDF"/>
    <tag k="note:de" v="http://wiki.openstreetmap.org/index.php/DE:DSL_Hauptverteiler"/>
    <tag k="onkz" v="8535"/>
    <tag k="operator" v="Deutsche Telekom AG"/>
    <tag k="source" v="Deutsche Telekom AG"/>
  </node>
  <node id="307206181" version="3" timestamp="2009-12-08T08:21:55Z" uid="200463" user="harmagedon" changeset="3322149" lat="48.307963" lon="13.261892">
    <tag k="addr:city" v="Bad Füssing"/>
    <tag k="addr:housenumber" v="1"/>
    <tag k="addr:postcode" v="94072"/>
    <tag k="addr:street" v="Leonhardistraße"/>
    <tag k="asb" v="1"/>
    <tag k="man_made" v="MDF"/>
    <tag k="note:de" v="http://wiki.openstreetmap.org/index.php/DE:DSL_Hauptverteiler"/>
    <tag k="onkz" v="8537"/>
    <tag k="operator" v="Deutsche Telekom AG"/>
    <tag k="source" v="Deutsche Telekom AG"/>
  </node>
  <node id="307206184" version="3" timestamp="2009-12-07T00:08:01Z" uid="200463" user="harmagedon" changeset="3311752" lat="48.402527" lon="13.390647">
    <tag k="addr:city" v="Pocking"/>
    <tag k="addr:housenumber" v="20"/>
    <tag k="addr:postcode" v="94060"/>
    <tag k="addr:street" v="Pockinger Straße"/>
    <tag k="asb" v="1"/>
    <tag k="man_made" v="MDF"/>
    <tag k="note:de" v="http://wiki.openstreetmap.org/index.php/DE:DSL_Hauptverteiler"/>
    <tag k="onkz" v="8538"/>
    <tag k="operator" v="Deutsche Telekom AG"/>
    <tag k="source" v="Deutsche Telekom AG"/>
  </node>
  <node id="307206184" version="4" timestamp="2009-12-07T11:54:04Z" uid="200463" user="harmagedon" changeset="3314630" lat="48.402527" lon="13.390647">
    <tag k="addr:city" v="Pocking"/>
    <tag k="addr:housenumber" v="20"/>
    <tag k="addr:postcode" v="94060"/>
    <tag k="addr:street" v="Pockinger Straße"/>
    <tag k="asb" v="1"/>
    <tag k="man_made" v="MDF"/>
    <tag k="note:de" v="http://wiki.openstreetmap.org/index.php/DE:DSL_Hauptverteiler"/>
    <tag k="onkz" v="8538"/>
    <tag k="operator" v="Deutsche Telekom AG"/>
    <tag k="source" v="Deutsche Telekom AG"/>
  </node>
  <node id="307206188" version="3" timestamp="2009-11-29T22:25:24Z" uid="200463" user="harmagedon" changeset="3251061" lat="48.625927" lon="13.188815">
    <tag k="addr:city" v="Vilshofen"/>
    <tag k="addr:housenumber" v="12"/>
    <tag k="addr:postcode" v="94474"/>
    <tag k="addr:street" v="Altdorferstraße"/>
    <tag k="asb" v="1"/>
    <tag k="man_made" v="MDF"/>
    <tag k="note:de" v="http://wiki.openstreetmap.org/index.php/DE:DSL_Hauptverteiler"/>
    <tag k="onkz" v="8541"/>
    <tag k="operator" v="Deutsche Telekom AG"/>
    <tag k="source" v="Deutsche Telekom AG"/>
  </node>
  <node id="307206192" version="3" timestamp="2009-11-29T22:17:38Z" uid="200463" user="harmagedon" changeset="3251061" lat="48.547791" lon="13.222064">
    <tag k="addr:city" v="Ortenburg"/>
    <tag k="addr:housenumber" v="11A"/>
    <tag k="addr:postcode" v="94496"/>
    <tag k="addr:street" v="Vilshofener Straße"/>
    <tag k="asb" v="1"/>
    <tag k="man_made" v="MDF"/>
    <tag k="note:de" v="http://wiki.openstreetmap.org/index.php/DE:DSL_Hauptverteiler"/>
    <tag k="onkz" v="8542"/>
    <tag k="operator" v="Deutsche Telekom AG"/>
    <tag k="source" v="Deutsche Telekom AG"/>
  </node>
  <node id="307206195" version="3" timestamp="2009-11-27T00:53:45Z" uid="200463" user="harmagedon" changeset="3225073" lat="48.569618" lon="13.080717">
    <tag k="addr:city" v="Aidenbach"/>
    <tag k="addr:housenumber" v="5"/>
    <tag k="addr:postcode" v="94501"/>
    <tag k="addr:street" v="Am Bahnhof"/>
    <tag k="asb" v="1"/>
    <tag k="man_made" v="MDF"/>
    <tag k="note:de" v="http://wiki.openstreetmap.org/index.php/DE:DSL_Hauptverteiler"/>
    <tag k="onkz" v="8543"/>
    <tag k="operator" v="Deutsche Telekom AG"/>
    <tag k="source" v="Deutsche Telekom AG"/>
  </node>
  <node id="307206201" version="3" timestamp="2009-11-29T22:15:17Z" uid="200463" user="harmagedon" changeset="3251061" lat="48.66663" lon="13.120532">
    <tag k="addr:city" v="Hofkirchen"/>
    <tag k="addr:housenumber" v="26"/>
    <tag k="addr:postcode" v="94544"/>
    <tag k="addr:street" v="Vilshofener Straße"/>
    <tag k="asb" v="1"/>
    <tag k="man_made" v="MDF"/>
    <tag k="note:de" v="http://wiki.openstreetmap.org/index.php/DE:DSL_Hauptverteiler"/>
    <tag k="onkz" v="8545"/>
    <tag k="operator" v="Deutsche Telekom AG"/>
    <tag k="source" v="Deutsche Telekom AG"/>
  </node>
  <node id="307206204" version="3" timestamp="2009-11-29T22:37:40Z" uid="200463" user="harmagedon" changeset="3251061" lat="48.622164" lon="13.295886">
    <tag k="addr:city" v="Windorf"/>
    <tag k="addr:housenumber" v="6"/>
    <tag k="addr:postcode" v="94575"/>
    <tag k="addr:street" v="Schreinerstraße"/>
    <tag k="asb" v="1"/>
    <tag k="man_made" v="MDF"/>
    <tag k="note:de" v="http://wiki.openstreetmap.org/index.php/DE:DSL_Hauptverteiler"/>
    <tag k="onkz" v="8546"/>
    <tag k="operator" v="Deutsche Telekom AG"/>
    <tag k="source" v="Deutsche Telekom AG"/>
  </node>
  <node id="307206207" version="3" timestamp="2009-11-29T22:06:33Z" uid="200463" user="harmagedon" changeset="3251061" lat="48.619237" lon="12.982761">
    <tag k="addr:city" v="Osterhofen"/>
    <tag k="addr:housenumber" v="2"/>
    <tag k="addr:postcode" v="94486"/>
    <tag k="addr:street" v="Postgasse"/>
    <tag k="asb" v="1"/>
    <tag k="man_made" v="MDF"/>
    <tag k="note:de" v="http://wiki.openstreetmap.org/index.php/DE:DSL_Hauptverteiler"/>
    <tag k="onkz" v="8547"/>
    <tag k="operator" v="Deutsche Telekom AG"/>
    <tag k="source" v="Deutsche Telekom AG"/>
  </node>
  <node id="307206210" version="3" timestamp="2009-11-29T22:28:25Z" uid="200463" user="harmagedon" changeset="3251061" lat="48.604521" lon="13.265061">
    <tag k="addr:city" v="Vilshofen"/>
    <tag k="addr:housenumber" v="22"/>
    <tag k="addr:postcode" v="94474"/>
    <tag k="addr:street" v="Sandbacher Straße"/>
    <tag k="asb" v="1"/>
    <tag k="man_made" v="MDF"/>
    <tag k="note:de" v="http://wiki.openstreetmap.org/index.php/DE:DSL_Hauptverteiler"/>
    <tag k="onkz" v="8548"/>
    <tag k="operator" v="Deutsche Telekom AG"/>
    <tag k="source" v="Deutsche Telekom AG"/>
  </node>
  <node id="307206216" version="3" timestamp="2009-12-09T15:38:27Z" uid="200463" user="harmagedon" changeset="3334003" lat="48.865271" lon="13.676851">
    <tag k="addr:city" v="Philippsreut"/>
    <tag k="addr:housenumber" v="1"/>
    <tag k="addr:postcode" v="94158"/>
    <tag k="addr:street" v="Fischersteiger Weg"/>
    <tag k="asb" v="1"/>
    <tag k="man_made" v="MDF"/>
    <tag k="note:de" v="http://wiki.openstreetmap.org/index.php/DE:DSL_Hauptverteiler"/>
    <tag k="onkz" v="8550"/>
    <tag k="operator" v="Deutsche Telekom AG"/>
    <tag k="source" v="Deutsche Telekom AG"/>
  </node>
  <node id="307206219" version="3" timestamp="2009-12-09T15:37:49Z" uid="200463" user="harmagedon" changeset="3334003" lat="48.803926" lon="13.549421">
    <tag k="addr:city" v="Freyung"/>
    <tag k="addr:housenumber" v="6A"/>
    <tag k="addr:postcode" v="94078"/>
    <tag k="addr:street" v="Am Bahnhof"/>
    <tag k="asb" v="1"/>
    <tag k="man_made" v="MDF"/>
    <tag k="note:de" v="http://wiki.openstreetmap.org/index.php/DE:DSL_Hauptverteiler"/>
    <tag k="onkz" v="8551"/>
    <tag k="operator" v="Deutsche Telekom AG"/>
    <tag k="source" v="Deutsche Telekom AG"/>
  </node>
  <node id="307206219" version="4" timestamp="2011-11-20T12:18:35Z" uid="553154" user="mamchut" changeset="9883213" lat="48.803926" lon="13.549421"/>
  <node id="307206225" version="3" timestamp="2009-12-09T15:40:06Z" uid="200463" user="harmagedon" changeset="3334003" lat="48.912194" lon="13.364629">
    <tag k="addr:city" v="Spiegelau"/>
    <tag k="addr:housenumber" v="10"/>
    <tag k="addr:postcode" v="94518"/>
    <tag k="addr:street" v="Ludwig-Stangl-Weg"/>
    <tag k="asb" v="1"/>
    <tag k="man_made" v="MDF"/>
    <tag k="note:de" v="http://wiki.openstreetmap.org/index.php/DE:DSL_Hauptverteiler"/>
    <tag k="onkz" v="8553"/>
    <tag k="operator" v="Deutsche Telekom AG"/>
    <tag k="source" v="Deutsche Telekom AG"/>
  </node>
  <node id="307206233" version="3" timestamp="2009-12-09T15:37:14Z" uid="200463" user="harmagedon" changeset="3334003" lat="48.780559" lon="13.444469">
    <tag k="addr:city" v="Perlesreut"/>
    <tag k="addr:housenumber" v="5"/>
    <tag k="addr:postcode" v="94157"/>
    <tag k="addr:street" v="Schloßhofstraße"/>
    <tag k="asb" v="1"/>
    <tag k="man_made" v="MDF"/>
    <tag k="note:de" v="http://wiki.openstreetmap.org/index.php/DE:DSL_Hauptverteiler"/>
    <tag k="onkz" v="8555"/>
    <tag k="operator" v="Deutsche Telekom AG"/>
    <tag k="source" v="Deutsche Telekom AG"/>
  </node>
  <node id="307206233" version="4" timestamp="2012-02-01T19:34:04Z" uid="576460" user="Stoana" changeset="10561725" lat="48.7805706" lon="13.4445793">
    <tag k="addr:city" v="Perlesreut"/>
    <tag k="addr:housenumber" v="5"/>
    <tag k="addr:postcode" v="94157"/>
    <tag k="addr:street" v="Schloßhofstraße"/>
    <tag k="asb" v="1"/>
    <tag k="man_made" v="MDF"/>
    <tag k="note:de" v="http://wiki.openstreetmap.org/index.php/DE:DSL_Hauptverteiler"/>
    <tag k="onkz" v="8555"/>
    <tag k="operator" v="Deutsche Telekom AG"/>
    <tag k="source" v="Deutsche Telekom AG"/>
  </node>
  <node id="307206236" version="3" timestamp="2009-12-09T15:38:31Z" uid="200463" user="harmagedon" changeset="3334003" lat="48.826041" lon="13.774422">
    <tag k="addr:city" v="Haidmühle"/>
    <tag k="addr:housenumber" v="120"/>
    <tag k="addr:postcode" v="94145"/>
    <tag k="addr:street" v="Dreisesselstraße"/>
    <tag k="asb" v="1"/>
    <tag k="man_made" v="MDF"/>
    <tag k="note:de" v="http://wiki.openstreetmap.org/index.php/DE:DSL_Hauptverteiler"/>
    <tag k="onkz" v="8556"/>
    <tag k="operator" v="Deutsche Telekom AG"/>
    <tag k="source" v="Deutsche Telekom AG"/>
  </node>
  <node id="307206239" version="3" timestamp="2009-12-09T15:40:37Z" uid="200463" user="harmagedon" changeset="3334003" lat="48.888351" lon="13.583666">
    <tag k="addr:city" v="Mauth"/>
    <tag k="addr:housenumber" v="2"/>
    <tag k="addr:postcode" v="94151"/>
    <tag k="addr:street" v="Kanzelweg"/>
    <tag k="asb" v="1"/>
    <tag k="man_made" v="MDF"/>
    <tag k="note:de" v="http://wiki.openstreetmap.org/index.php/DE:DSL_Hauptverteiler"/>
    <tag k="onkz" v="8557"/>
    <tag k="operator" v="Deutsche Telekom AG"/>
    <tag k="source" v="Deutsche Telekom AG"/>
  </node>
  <node id="307206242" version="3" timestamp="2009-12-09T15:37:29Z" uid="200463" user="harmagedon" changeset="3334003" lat="48.850285" lon="13.491304">
    <tag k="addr:city" v="Hohenau"/>
    <tag k="addr:housenumber" v="8"/>
    <tag k="addr:postcode" v="94545"/>
    <tag k="addr:street" v="Dorfplatz"/>
    <tag k="asb" v="1"/>
    <tag k="man_made" v="MDF"/>
    <tag k="note:de" v="http://wiki.openstreetmap.org/index.php/DE:DSL_Hauptverteiler"/>
    <tag k="onkz" v="8558"/>
    <tag k="operator" v="Deutsche Telekom AG"/>
    <tag k="source" v="Deutsche Telekom AG"/>
  </node>
  <node id="307206252" version="3" timestamp="2010-01-13T20:29:13Z" uid="163746" user="anti_bot-nonsense" changeset="3612670" lat="48.443947" lon="13.100012">
    <tag k="addr:city" v="Bad Birnbach"/>
    <tag k="addr:housenumber" v="24"/>
    <tag k="addr:postcode" v="84364"/>
    <tag k="addr:street" v="Lugenzstraße"/>
    <tag k="asb" v="1"/>
    <tag k="man_made" v="MDF"/>
    <tag k="note:de" v="http://wiki.openstreetmap.org/index.php/DE:DSL_Hauptverteiler"/>
    <tag k="onkz" v="8563"/>
    <tag k="operator" v="Deutsche Telekom AG"/>
    <tag k="source" v="Deutsche Telekom AG"/>
  </node>
  <node id="307206252" version="4" timestamp="2010-01-28T19:29:31Z" uid="163746" user="anti_bot-nonsense" changeset="3738205" lat="48.443947" lon="13.100012">
    <tag k="addr:city" v="Bad Birnbach"/>
    <tag k="addr:housenumber" v="24"/>
    <tag k="addr:postcode" v="84364"/>
    <tag k="addr:street" v="Lugenzstraße"/>
    <tag k="asb" v="1"/>
    <tag k="man_made" v="MDF"/>
    <tag k="note:de" v="http://wiki.openstreetmap.org/index.php/DE:DSL_Hauptverteiler"/>
    <tag k="onkz" v="8563"/>
    <tag k="operator" v="Deutsche Telekom AG"/>
  </node>
  <node id="307206252" version="5" timestamp="2010-09-20T22:20:09Z" uid="325837" user="traveler-hiker" changeset="5833496" lat="48.443947" lon="13.100012">
    <tag k="addr:city" v="Bad Birnbach"/>
    <tag k="addr:housenumber" v="24"/>
    <tag k="addr:postcode" v="84364"/>
    <tag k="addr:street" v="Lugenzstraße"/>
    <tag k="asb" v="1"/>
    <tag k="man_made" v="MDF"/>
    <tag k="note:de" v="http://wiki.openstreetmap.org/wiki/DE:DSL-Hauptverteiler"/>
    <tag k="onkz" v="8563"/>
    <tag k="operator" v="Deutsche Telekom AG"/>
  </node>
  <node id="307206255" version="3" timestamp="2009-11-29T22:04:07Z" uid="200463" user="harmagedon" changeset="3251061" lat="48.534639" lon="12.947676">
    <tag k="addr:city" v="Johanniskirchen"/>
    <tag k="addr:housenumber" v="7"/>
    <tag k="addr:postcode" v="84381"/>
    <tag k="addr:street" v="Hafnerstraße"/>
    <tag k="asb" v="1"/>
    <tag k="man_made" v="MDF"/>
    <tag k="note:de" v="http://wiki.openstreetmap.org/index.php/DE:DSL_Hauptverteiler"/>
    <tag k="onkz" v="8564"/>
    <tag k="operator" v="Deutsche Telekom AG"/>
    <tag k="source" v="Deutsche Telekom AG"/>
  </node>
  <node id="307206270" version="3" timestamp="2009-12-08T05:31:58Z" uid="200463" user="harmagedon" changeset="3321904" lat="48.303512" lon="13.145856">
    <tag k="addr:city" v="Ering"/>
    <tag k="addr:housenumber" v="20"/>
    <tag k="addr:postcode" v="94140"/>
    <tag k="addr:street" v="Bahnhofstraße"/>
    <tag k="asb" v="1"/>
    <tag k="man_made" v="MDF"/>
    <tag k="note:de" v="http://wiki.openstreetmap.org/index.php/DE:DSL_Hauptverteiler"/>
    <tag k="onkz" v="8573"/>
    <tag k="operator" v="Deutsche Telekom AG"/>
    <tag k="source" v="Deutsche Telekom AG"/>
  </node>
  <node id="307206270" version="4" timestamp="2009-12-08T06:55:05Z" uid="200463" user="harmagedon" changeset="3322149" lat="48.303512" lon="13.145856">
    <tag k="addr:city" v="Ering"/>
    <tag k="addr:housenumber" v="20"/>
    <tag k="addr:postcode" v="94140"/>
    <tag k="addr:street" v="Bahnhofstraße"/>
    <tag k="asb" v="1"/>
    <tag k="man_made" v="MDF"/>
    <tag k="note:de" v="http://wiki.openstreetmap.org/index.php/DE:DSL_Hauptverteiler"/>
    <tag k="onkz" v="8573"/>
    <tag k="operator" v="Deutsche Telekom AG"/>
    <tag k="source" v="Deutsche Telekom AG"/>
  </node>
  <node id="307206281" version="3" timestamp="2009-12-09T15:38:29Z" uid="200463" user="harmagedon" changeset="3334003" lat="48.751113" lon="13.746078">
    <tag k="addr:city" v="Neureichenau"/>
    <tag k="addr:housenumber" v="8"/>
    <tag k="addr:postcode" v="94089"/>
    <tag k="addr:street" v="Sonnwendberg"/>
    <tag k="asb" v="1"/>
    <tag k="man_made" v="MDF"/>
    <tag k="note:de" v="http://wiki.openstreetmap.org/index.php/DE:DSL_Hauptverteiler"/>
    <tag k="onkz" v="8583"/>
    <tag k="operator" v="Deutsche Telekom AG"/>
    <tag k="source" v="Deutsche Telekom AG"/>
  </node>
  <node id="307206285" version="3" timestamp="2009-12-09T02:22:42Z" uid="200463" user="harmagedon" changeset="3330572" lat="48.704409" lon="13.794869">
    <tag k="addr:city" v="Breitenberg"/>
    <tag k="addr:housenumber" v="12A"/>
    <tag k="addr:postcode" v="94139"/>
    <tag k="addr:street" v="Dreisesselstraße"/>
    <tag k="asb" v="1"/>
    <tag k="man_made" v="MDF"/>
    <tag k="note:de" v="http://wiki.openstreetmap.org/index.php/DE:DSL_Hauptverteiler"/>
    <tag k="onkz" v="8584"/>
    <tag k="operator" v="Deutsche Telekom AG"/>
    <tag k="source" v="Deutsche Telekom AG"/>
  </node>
  <node id="307206288" version="3" timestamp="2009-12-09T15:38:19Z" uid="200463" user="harmagedon" changeset="3334003" lat="48.798684" lon="13.654756">
    <tag k="addr:city" v="Grainet"/>
    <tag k="addr:housenumber" v="3"/>
    <tag k="addr:postcode" v="94143"/>
    <tag k="addr:street" v="Hammerbauerweg"/>
    <tag k="asb" v="1"/>
    <tag k="man_made" v="MDF"/>
    <tag k="note:de" v="http://wiki.openstreetmap.org/index.php/DE:DSL_Hauptverteiler"/>
    <tag k="onkz" v="8585"/>
    <tag k="operator" v="Deutsche Telekom AG"/>
    <tag k="source" v="Deutsche Telekom AG"/>
  </node>
  <node id="307206294" version="3" timestamp="2009-12-06T23:31:43Z" uid="200463" user="harmagedon" changeset="3311555" lat="48.55518" lon="13.634063">
    <tag k="addr:city" v="Obernzell"/>
    <tag k="addr:housenumber" v="14"/>
    <tag k="addr:postcode" v="94130"/>
    <tag k="addr:street" v="Örtl"/>
    <tag k="asb" v="1"/>
    <tag k="man_made" v="MDF"/>
    <tag k="note:de" v="http://wiki.openstreetmap.org/index.php/DE:DSL_Hauptverteiler"/>
    <tag k="onkz" v="8591"/>
    <tag k="operator" v="Deutsche Telekom AG"/>
    <tag k="source" v="Deutsche Telekom AG"/>
  </node>
  <node id="307206294" version="4" timestamp="2011-10-05T07:00:38Z" uid="424924" user="hibiki" changeset="9475580" lat="48.55518" lon="13.634063">
    <tag k="addr:city" v="Obernzell"/>
    <tag k="addr:housenumber" v="14"/>
    <tag k="addr:postcode" v="94130"/>
    <tag k="addr:street" v="Örtl"/>
    <tag k="asb" v="1"/>
    <tag k="man_made" v="MDF"/>
    <tag k="name" v="Radsport Müller"/>
    <tag k="note:de" v="http://wiki.openstreetmap.org/index.php/DE:DSL_Hauptverteiler"/>
    <tag k="onkz" v="8591"/>
    <tag k="operator" v="Deutsche Telekom AG"/>
    <tag k="shop" v="bicycle"/>
    <tag k="source" v="Deutsche Telekom AG"/>
  </node>
  <node id="307206299" version="3" timestamp="2009-12-09T02:17:32Z" uid="200463" user="harmagedon" changeset="3330572" lat="48.602628" lon="13.787733">
    <tag k="addr:city" v="Wegscheid"/>
    <tag k="addr:housenumber" v="15"/>
    <tag k="addr:postcode" v="94110"/>
    <tag k="addr:street" v="Dreisesselstraße"/>
    <tag k="asb" v="1"/>
    <tag k="man_made" v="MDF"/>
    <tag k="note:de" v="http://wiki.openstreetmap.org/index.php/DE:DSL_Hauptverteiler"/>
    <tag k="onkz" v="8592"/>
    <tag k="operator" v="Deutsche Telekom AG"/>
    <tag k="source" v="Deutsche Telekom AG"/>
  </node>
  <node id="307206382" version="3" timestamp="2009-10-01T17:22:32Z" uid="86259" user="hasse_osm_korinthenkacker" changeset="2702794" lat="47.633795" lon="13.008022">
    <tag k="addr:city" v="Berchtesgaden"/>
    <tag k="addr:housenumber" v="44"/>
    <tag k="addr:postcode" v="83471"/>
    <tag k="addr:street" v="Bergwerkstraße"/>
    <tag k="asb" v="1"/>
    <tag k="man_made" v="MDF"/>
    <tag k="note:de" v="http://wiki.openstreetmap.org/index.php/DE:DSL_Hauptverteiler"/>
    <tag k="onkz" v="8652"/>
    <tag k="operator" v="Deutsche Telekom AG"/>
    <tag k="source" v="Deutsche Telekom AG"/>
  </node>
  <node id="307206382" version="4" timestamp="2009-10-01T17:51:41Z" uid="86259" user="hasse_osm_korinthenkacker" changeset="2702794" lat="47.633795" lon="13.008022">
    <tag k="addr:city" v="Berchtesgaden"/>
    <tag k="addr:housenumber" v="44"/>
    <tag k="addr:postcode" v="83471"/>
    <tag k="addr:street" v="Bergwerkstraße"/>
    <tag k="asb" v="1"/>
    <tag k="man_made" v="MDF"/>
    <tag k="note:de" v="http://wiki.openstreetmap.org/index.php/DE:DSL_Hauptverteiler"/>
    <tag k="onkz" v="8652"/>
    <tag k="operator" v="Deutsche Telekom AG"/>
    <tag k="source" v="Deutsche Telekom AG"/>
  </node>
  <node id="307206382" version="5" timestamp="2009-10-01T17:53:37Z" uid="86259" user="hasse_osm_korinthenkacker" changeset="2702794" lat="47.633795" lon="13.008022">
    <tag k="addr:city" v="Berchtesgaden"/>
    <tag k="addr:housenumber" v="44"/>
    <tag k="addr:postcode" v="83471"/>
    <tag k="addr:street" v="Bergwerkstraße"/>
    <tag k="asb" v="1"/>
    <tag k="man_made" v="MDF"/>
    <tag k="note:de" v="http://wiki.openstreetmap.org/index.php/DE:DSL_Hauptverteiler"/>
    <tag k="onkz" v="8652"/>
    <tag k="operator" v="Deutsche Telekom AG"/>
    <tag k="source" v="Deutsche Telekom AG"/>
  </node>
  <node id="307206382" version="6" timestamp="2009-10-01T17:55:40Z" uid="86259" user="hasse_osm_korinthenkacker" changeset="2702794" lat="47.633795" lon="13.008022">
    <tag k="addr:city" v="Berchtesgaden"/>
    <tag k="addr:housenumber" v="44"/>
    <tag k="addr:postcode" v="83471"/>
    <tag k="addr:street" v="Bergwerkstraße"/>
    <tag k="asb" v="1"/>
    <tag k="man_made" v="MDF"/>
    <tag k="note:de" v="http://wiki.openstreetmap.org/index.php/DE:DSL_Hauptverteiler"/>
    <tag k="onkz" v="8652"/>
    <tag k="operator" v="Deutsche Telekom AG"/>
    <tag k="source" v="Deutsche Telekom AG"/>
  </node>
  <node id="307206382" version="7" timestamp="2009-10-01T17:59:08Z" uid="86259" user="hasse_osm_korinthenkacker" changeset="2703276" lat="47.633795" lon="13.008022">
    <tag k="addr:city" v="Berchtesgaden"/>
    <tag k="addr:housenumber" v="44"/>
    <tag k="addr:postcode" v="83471"/>
    <tag k="addr:street" v="Bergwerkstraße"/>
    <tag k="asb" v="1"/>
    <tag k="man_made" v="MDF"/>
    <tag k="note:de" v="http://wiki.openstreetmap.org/index.php/DE:DSL_Hauptverteiler"/>
    <tag k="onkz" v="8652"/>
    <tag k="operator" v="Deutsche Telekom AG"/>
    <tag k="source" v="Deutsche Telekom AG"/>
  </node>
  <node id="307206385" version="3" timestamp="2009-10-07T16:51:40Z" uid="86259" user="hasse_osm_korinthenkacker" changeset="2773624" lat="47.648353" lon="12.967732">
    <tag k="addr:city" v="Bischofswiesen"/>
    <tag k="addr:housenumber" v="14"/>
    <tag k="addr:postcode" v="83483"/>
    <tag k="addr:street" v="Hinterau"/>
    <tag k="asb" v="7"/>
    <tag k="man_made" v="MDF"/>
    <tag k="note:de" v="http://wiki.openstreetmap.org/index.php/DE:DSL_Hauptverteiler"/>
    <tag k="onkz" v="8652"/>
    <tag k="operator" v="Deutsche Telekom AG"/>
    <tag k="source" v="Deutsche Telekom AG"/>
  </node>
  <node id="307206385" version="4" timestamp="2009-10-08T19:22:12Z" uid="86259" user="hasse_osm_korinthenkacker" changeset="2785814" lat="47.648353" lon="12.967732">
    <tag k="addr:city" v="Bischofswiesen"/>
    <tag k="addr:housenumber" v="14"/>
    <tag k="addr:postcode" v="83483"/>
    <tag k="addr:street" v="Hinterau"/>
    <tag k="asb" v="7"/>
    <tag k="man_made" v="MDF"/>
    <tag k="note:de" v="http://wiki.openstreetmap.org/index.php/DE:DSL_Hauptverteiler"/>
    <tag k="onkz" v="8652"/>
    <tag k="operator" v="Deutsche Telekom AG"/>
    <tag k="source" v="Deutsche Telekom AG"/>
  </node>
  <node id="307206398" version="3" timestamp="2009-10-01T17:22:29Z" uid="86259" user="hasse_osm_korinthenkacker" changeset="2702794" lat="47.606534" lon="12.892895">
    <tag k="addr:city" v="Ramsau"/>
    <tag k="addr:housenumber" v="4"/>
    <tag k="addr:postcode" v="83486"/>
    <tag k="addr:street" v="Fendtenweg"/>
    <tag k="asb" v="1"/>
    <tag k="man_made" v="MDF"/>
    <tag k="note:de" v="http://wiki.openstreetmap.org/index.php/DE:DSL_Hauptverteiler"/>
    <tag k="onkz" v="8657"/>
    <tag k="operator" v="Deutsche Telekom AG"/>
    <tag k="source" v="Deutsche Telekom AG"/>
  </node>
  <node id="307206398" version="4" timestamp="2009-10-01T17:51:37Z" uid="86259" user="hasse_osm_korinthenkacker" changeset="2702794" lat="47.606534" lon="12.892895">
    <tag k="addr:city" v="Ramsau"/>
    <tag k="addr:housenumber" v="4"/>
    <tag k="addr:postcode" v="83486"/>
    <tag k="addr:street" v="Fendtenweg"/>
    <tag k="asb" v="1"/>
    <tag k="man_made" v="MDF"/>
    <tag k="note:de" v="http://wiki.openstreetmap.org/index.php/DE:DSL_Hauptverteiler"/>
    <tag k="onkz" v="8657"/>
    <tag k="operator" v="Deutsche Telekom AG"/>
    <tag k="source" v="Deutsche Telekom AG"/>
  </node>
  <node id="307206398" version="5" timestamp="2009-10-01T17:53:29Z" uid="86259" user="hasse_osm_korinthenkacker" changeset="2702794" lat="47.606534" lon="12.892895">
    <tag k="addr:city" v="Ramsau"/>
    <tag k="addr:housenumber" v="4"/>
    <tag k="addr:postcode" v="83486"/>
    <tag k="addr:street" v="Fendtenweg"/>
    <tag k="asb" v="1"/>
    <tag k="man_made" v="MDF"/>
    <tag k="note:de" v="http://wiki.openstreetmap.org/index.php/DE:DSL_Hauptverteiler"/>
    <tag k="onkz" v="8657"/>
    <tag k="operator" v="Deutsche Telekom AG"/>
    <tag k="source" v="Deutsche Telekom AG"/>
  </node>
  <node id="307206398" version="6" timestamp="2009-10-01T17:55:36Z" uid="86259" user="hasse_osm_korinthenkacker" changeset="2702794" lat="47.606534" lon="12.892895">
    <tag k="addr:city" v="Ramsau"/>
    <tag k="addr:housenumber" v="4"/>
    <tag k="addr:postcode" v="83486"/>
    <tag k="addr:street" v="Fendtenweg"/>
    <tag k="asb" v="1"/>
    <tag k="man_made" v="MDF"/>
    <tag k="note:de" v="http://wiki.openstreetmap.org/index.php/DE:DSL_Hauptverteiler"/>
    <tag k="onkz" v="8657"/>
    <tag k="operator" v="Deutsche Telekom AG"/>
    <tag k="source" v="Deutsche Telekom AG"/>
  </node>
  <node id="307206398" version="7" timestamp="2009-10-01T17:59:04Z" uid="86259" user="hasse_osm_korinthenkacker" changeset="2703276" lat="47.606534" lon="12.892895">
    <tag k="addr:city" v="Ramsau"/>
    <tag k="addr:housenumber" v="4"/>
    <tag k="addr:postcode" v="83486"/>
    <tag k="addr:street" v="Fendtenweg"/>
    <tag k="asb" v="1"/>
    <tag k="man_made" v="MDF"/>
    <tag k="note:de" v="http://wiki.openstreetmap.org/index.php/DE:DSL_Hauptverteiler"/>
    <tag k="onkz" v="8657"/>
    <tag k="operator" v="Deutsche Telekom AG"/>
    <tag k="source" v="Deutsche Telekom AG"/>
  </node>
  <node id="307206415" version="3" timestamp="2009-06-28T18:29:26Z" uid="36809" user="pfoten_weg_!_" changeset="1667013" lat="47.759771" lon="12.648617">
    <tag k="addr:city" v="Ruhpolding"/>
    <tag k="addr:housenumber" v="3A"/>
    <tag k="addr:postcode" v="83324"/>
    <tag k="addr:street" v="Kurhausstraße"/>
    <tag k="asb" v="1"/>
    <tag k="created_by" v="fixbot"/>
    <tag k="man_made" v="MDF"/>
    <tag k="note:de" v="http://wiki.openstreetmap.org/index.php/DE:DSL_Hauptverteiler"/>
    <tag k="onkz" v="8663"/>
    <tag k="operator" v="Deutsche Telekom AG"/>
    <tag k="source" v="Deutsche Telekom AG"/>
  </node>
  <node id="307206561" version="3" timestamp="2009-11-29T22:01:02Z" uid="200463" user="harmagedon" changeset="3251061" lat="48.554908" lon="12.81381">
    <tag k="addr:city" v="Arnstorf"/>
    <tag k="addr:housenumber" v="14"/>
    <tag k="addr:postcode" v="94424"/>
    <tag k="addr:street" v="Closenanger"/>
    <tag k="asb" v="1"/>
    <tag k="man_made" v="MDF"/>
    <tag k="note:de" v="http://wiki.openstreetmap.org/index.php/DE:DSL_Hauptverteiler"/>
    <tag k="onkz" v="8723"/>
    <tag k="operator" v="Deutsche Telekom AG"/>
    <tag k="source" v="Deutsche Telekom AG"/>
  </node>
  <node id="307206617" version="3" timestamp="2009-11-29T21:55:36Z" uid="200463" user="harmagedon" changeset="3251061" lat="48.572904" lon="12.624925">
    <tag k="addr:city" v="Reisbach"/>
    <tag k="addr:housenumber" v="43"/>
    <tag k="addr:postcode" v="94419"/>
    <tag k="addr:street" v="Westend"/>
    <tag k="asb" v="1"/>
    <tag k="man_made" v="MDF"/>
    <tag k="note:de" v="http://wiki.openstreetmap.org/index.php/DE:DSL_Hauptverteiler"/>
    <tag k="onkz" v="8734"/>
    <tag k="operator" v="Deutsche Telekom AG"/>
    <tag k="source" v="Deutsche Telekom AG"/>
  </node>
  <node id="307206755" version="3" timestamp="2009-09-30T16:19:47Z" uid="36809" user="pfoten_weg_!_" changeset="2690373" lat="47.822757" lon="11.298048">
    <tag k="addr:city" v="Seeshaupt"/>
    <tag k="addr:housenumber" v="9"/>
    <tag k="addr:postcode" v="82402"/>
    <tag k="addr:street" v="Bahnhofstraße"/>
    <tag k="asb" v="3"/>
    <tag k="man_made" v="MDF"/>
    <tag k="note:de" v="http://wiki.openstreetmap.org/index.php/DE:DSL_Hauptverteiler"/>
    <tag k="onkz" v="8801"/>
    <tag k="operator" v="Deutsche Telekom AG"/>
  </node>
  <node id="307206755" version="4" timestamp="2010-12-11T16:44:27Z" uid="382546" user="wwwppp" changeset="6626131" lat="47.822757" lon="11.298048">
    <tag k="addr:city" v="Seeshaupt"/>
    <tag k="addr:housenumber" v="9"/>
    <tag k="addr:postcode" v="82402"/>
    <tag k="addr:street" v="Bahnhofstraße"/>
    <tag k="asb" v="3"/>
    <tag k="man_made" v="MDF"/>
    <tag k="note:de" v="http://wiki.openstreetmap.org/index.php/DE:DSL_Hauptverteiler"/>
    <tag k="onkz" v="8801"/>
    <tag k="operator" v="Deutsche Telekom AG"/>
  </node>
  <node id="307206760" version="3" timestamp="2009-06-17T21:50:35Z" uid="36809" user="pfoten_weg_!_" changeset="1550007" lat="47.775949" lon="11.14022">
    <tag k="addr:city" v="Huglfing"/>
    <tag k="addr:housenumber" v="23"/>
    <tag k="addr:postcode" v="82386"/>
    <tag k="addr:street" v="Weilheimer Straße"/>
    <tag k="asb" v="2"/>
    <tag k="created_by" v="RambaZamba"/>
    <tag k="man_made" v="MDF"/>
    <tag k="note:de" v="http://wiki.openstreetmap.org/index.php/DE:DSL_Hauptverteiler"/>
    <tag k="onkz" v="8802"/>
    <tag k="operator" v="Deutsche Telekom AG"/>
    <tag k="source" v="Deutsche Telekom AG"/>
  </node>
  <node id="307206760" version="4" timestamp="2009-08-12T13:32:34Z" uid="156995" user="HampelZamba" changeset="2118817" lat="47.775949" lon="11.14022">
    <tag k="addr:city" v="Huglfing"/>
    <tag k="addr:housenumber" v="23"/>
    <tag k="addr:postcode" v="82386"/>
    <tag k="addr:street" v="Weilheimer Straße"/>
    <tag k="asb" v="2"/>
    <tag k="man_made" v="MDF"/>
    <tag k="note:de" v="http://wiki.openstreetmap.org/index.php/DE:DSL_Hauptverteiler"/>
    <tag k="onkz" v="8802"/>
    <tag k="operator" v="Deutsche Telekom AG"/>
    <tag k="source" v="Deutsche Telekom AG"/>
  </node>
  <node id="307206760" version="5" timestamp="2009-08-28T22:18:50Z" uid="36809" user="pfoten_weg_!_" changeset="2295907" lat="47.775949" lon="11.14022">
    <tag k="addr:city" v="Huglfing"/>
    <tag k="addr:housenumber" v="23"/>
    <tag k="addr:postcode" v="82386"/>
    <tag k="addr:street" v="Weilheimer Straße"/>
    <tag k="asb" v="2"/>
    <tag k="discovered_by" v="RambaZamba"/>
    <tag k="man_made" v="MDF"/>
    <tag k="note:de" v="http://wiki.openstreetmap.org/index.php/DE:DSL_Hauptverteiler"/>
    <tag k="onkz" v="8802"/>
    <tag k="operator" v="Deutsche Telekom AG"/>
    <tag k="source" v="survey"/>
  </node>
  <node id="307206760" version="6" timestamp="2009-08-30T04:54:24Z" uid="156995" user="HampelZamba" changeset="2308696" lat="47.775949" lon="11.14022">
    <tag k="addr:city" v="Huglfing"/>
    <tag k="addr:housenumber" v="23"/>
    <tag k="addr:postcode" v="82386"/>
    <tag k="addr:street" v="Weilheimer Straße"/>
    <tag k="asb" v="2"/>
    <tag k="man_made" v="MDF"/>
    <tag k="note:de" v="http://wiki.openstreetmap.org/index.php/DE:DSL_Hauptverteiler"/>
    <tag k="onkz" v="8802"/>
    <tag k="operator" v="Deutsche Telekom AG"/>
    <tag k="source" v="survey"/>
  </node>
  <node id="307206760" version="7" timestamp="2009-08-31T16:43:13Z" uid="36809" user="pfoten_weg_!_" changeset="2328217" lat="47.775949" lon="11.14022">
    <tag k="addr:city" v="Huglfing"/>
    <tag k="addr:housenumber" v="23"/>
    <tag k="addr:postcode" v="82386"/>
    <tag k="addr:street" v="Weilheimer Straße"/>
    <tag k="asb" v="2"/>
    <tag k="man_made" v="MDF"/>
    <tag k="note:de" v="http://wiki.openstreetmap.org/index.php/DE:DSL_Hauptverteiler"/>
    <tag k="onkz" v="8802"/>
    <tag k="operator" v="Deutsche Telekom AG"/>
    <tag k="source" v="survey"/>
  </node>
  <node id="307206760" version="8" timestamp="2011-06-07T07:23:10Z" uid="42393" user="mawi42" changeset="8367384" lat="47.7761365" lon="11.1401149">
    <tag k="addr:city" v="Huglfing"/>
    <tag k="addr:housenumber" v="23"/>
    <tag k="addr:postcode" v="82386"/>
    <tag k="addr:street" v="Weilheimer Straße"/>
    <tag k="asb" v="2"/>
    <tag k="man_made" v="MDF"/>
    <tag k="note:de" v="http://wiki.openstreetmap.org/index.php/DE:DSL_Hauptverteiler"/>
    <tag k="onkz" v="8802"/>
    <tag k="operator" v="Deutsche Telekom AG"/>
    <tag k="source" v="survey"/>
  </node>
  <node id="307206766" version="4" timestamp="2009-09-30T16:06:53Z" uid="36809" user="pfoten_weg_!_" changeset="2690373" lat="47.798721" lon="11.060874">
    <tag k="addr:city" v="Peißenberg"/>
    <tag k="addr:housenumber" v="1"/>
    <tag k="addr:postcode" v="82380"/>
    <tag k="addr:street" v="Alte Kohlenwäsche"/>
    <tag k="asb" v="6"/>
    <tag k="man_made" v="MDF"/>
    <tag k="note:de" v="http://wiki.openstreetmap.org/index.php/DE:DSL_Hauptverteiler"/>
    <tag k="onkz" v="8803"/>
    <tag k="operator" v="Deutsche Telekom AG"/>
  </node>
  <node id="307206776" version="3" timestamp="2009-09-30T14:45:35Z" uid="36809" user="pfoten_weg_!_" changeset="2689341" lat="48.023471" lon="11.091414">
    <tag k="addr:city" v="Utting"/>
    <tag k="addr:housenumber" v="1"/>
    <tag k="addr:postcode" v="86919"/>
    <tag k="addr:street" v="Johann-Keller-Weg"/>
    <tag k="asb" v="1"/>
    <tag k="man_made" v="MDF"/>
    <tag k="note:de" v="http://wiki.openstreetmap.org/index.php/DE:DSL_Hauptverteiler"/>
    <tag k="onkz" v="8806"/>
    <tag k="operator" v="Deutsche Telekom AG"/>
    <tag k="source" v="Deutsche Telekom AG"/>
  </node>
  <node id="307206782" version="3" timestamp="2009-09-30T14:34:15Z" uid="36809" user="pfoten_weg_!_" changeset="2689341" lat="47.953546" lon="11.104262">
    <tag k="addr:city" v="Dießen"/>
    <tag k="addr:housenumber" v="28"/>
    <tag k="addr:postcode" v="86911"/>
    <tag k="addr:street" v="Oberer-Albaner-Weg"/>
    <tag k="asb" v="2"/>
    <tag k="man_made" v="MDF"/>
    <tag k="note:de" v="http://wiki.openstreetmap.org/index.php/DE:DSL_Hauptverteiler"/>
    <tag k="onkz" v="8807"/>
    <tag k="operator" v="Deutsche Telekom AG"/>
    <tag k="source" v="Deutsche Telekom AG"/>
  </node>
  <node id="307206787" version="3" timestamp="2009-09-30T16:13:44Z" uid="36809" user="pfoten_weg_!_" changeset="2690373" lat="47.904163" lon="11.172862">
    <tag k="addr:city" v="Pähl"/>
    <tag k="addr:housenumber" v="18"/>
    <tag k="addr:postcode" v="82396"/>
    <tag k="addr:street" v="Urtlangerstraße"/>
    <tag k="asb" v="2"/>
    <tag k="man_made" v="MDF"/>
    <tag k="note:de" v="http://wiki.openstreetmap.org/index.php/DE:DSL_Hauptverteiler"/>
    <tag k="onkz" v="8808"/>
    <tag k="operator" v="Deutsche Telekom AG"/>
  </node>
  <node id="307206836" version="3" timestamp="2009-06-17T21:50:38Z" uid="36809" user="pfoten_weg_!_" changeset="1550007" lat="47.678696" lon="11.198687">
    <tag k="addr:city" v="Murnau"/>
    <tag k="addr:housenumber" v="5"/>
    <tag k="addr:postcode" v="82418"/>
    <tag k="addr:street" v="Bahnhofstraße"/>
    <tag k="asb" v="1"/>
    <tag k="created_by" v="RambaZamba"/>
    <tag k="man_made" v="MDF"/>
    <tag k="note:de" v="http://wiki.openstreetmap.org/index.php/DE:DSL_Hauptverteiler"/>
    <tag k="onkz" v="8841"/>
    <tag k="operator" v="Deutsche Telekom AG"/>
    <tag k="source" v="Deutsche Telekom AG"/>
  </node>
  <node id="307206836" version="4" timestamp="2009-08-12T13:32:34Z" uid="156995" user="HampelZamba" changeset="2118817" lat="47.678696" lon="11.198687">
    <tag k="addr:city" v="Murnau"/>
    <tag k="addr:housenumber" v="5"/>
    <tag k="addr:postcode" v="82418"/>
    <tag k="addr:street" v="Bahnhofstraße"/>
    <tag k="asb" v="1"/>
    <tag k="man_made" v="MDF"/>
    <tag k="note:de" v="http://wiki.openstreetmap.org/index.php/DE:DSL_Hauptverteiler"/>
    <tag k="onkz" v="8841"/>
    <tag k="operator" v="Deutsche Telekom AG"/>
    <tag k="source" v="Deutsche Telekom AG"/>
  </node>
  <node id="307206836" version="5" timestamp="2009-08-24T23:35:59Z" uid="36809" user="pfoten_weg_!_" changeset="2251119" lat="47.678696" lon="11.198687">
    <tag k="addr:city" v="Murnau"/>
    <tag k="addr:housenumber" v="5"/>
    <tag k="addr:postcode" v="82418"/>
    <tag k="addr:street" v="Bahnhofstraße"/>
    <tag k="asb" v="1"/>
    <tag k="man_made" v="MDF"/>
    <tag k="note:de" v="http://wiki.openstreetmap.org/index.php/DE:DSL_Hauptverteiler"/>
    <tag k="onkz" v="8841"/>
    <tag k="operator" v="Deutsche Telekom AG"/>
    <tag k="source" v="Deutsche Telekom AG"/>
    <tag k="warnung" v="rumpelzumpel = kriminelle OSM-datenbank SEUCHE"/>
  </node>
  <node id="307206836" version="6" timestamp="2009-08-24T23:37:19Z" uid="36809" user="pfoten_weg_!_" changeset="2251121" lat="47.678696" lon="11.198687">
    <tag k="addr:city" v="Murnau"/>
    <tag k="addr:housenumber" v="5"/>
    <tag k="addr:postcode" v="82418"/>
    <tag k="addr:street" v="Bahnhofstraße"/>
    <tag k="asb" v="1"/>
    <tag k="man_made" v="MDF"/>
    <tag k="note:de" v="http://wiki.openstreetmap.org/index.php/DE:DSL_Hauptverteiler"/>
    <tag k="onkz" v="8841"/>
    <tag k="operator" v="Deutsche Telekom AG"/>
    <tag k="source" v="Deutsche Telekom AG"/>
  </node>
  <node id="307206836" version="7" timestamp="2009-10-28T07:12:09Z" uid="36809" user="pfoten_weg_!_" changeset="2971189" lat="47.678696" lon="11.198687">
    <tag k="addr:city" v="Murnau"/>
    <tag k="addr:housenumber" v="5"/>
    <tag k="addr:postcode" v="82418"/>
    <tag k="addr:street" v="Bahnhofstraße"/>
    <tag k="asb" v="1"/>
    <tag k="man_made" v="MDF"/>
    <tag k="note:de" v="http://wiki.openstreetmap.org/index.php/DE:DSL_Hauptverteiler"/>
    <tag k="onkz" v="8841"/>
    <tag k="operator" v="Deutsche Telekom AG"/>
  </node>
  <node id="307206836" version="8" timestamp="2011-05-16T09:05:43Z" uid="446587" user="Feu" changeset="8160425" lat="47.678696" lon="11.198687"/>
  <node id="307206841" version="3" timestamp="2009-10-28T07:11:33Z" uid="36809" user="pfoten_weg_!_" changeset="2971189" lat="47.634129" lon="11.232781">
    <tag k="addr:city" v="Ohlstadt"/>
    <tag k="addr:housenumber" v="2"/>
    <tag k="addr:postcode" v="82441"/>
    <tag k="addr:street" v="Kirchstraße"/>
    <tag k="asb" v="7"/>
    <tag k="man_made" v="MDF"/>
    <tag k="note:de" v="http://wiki.openstreetmap.org/index.php/DE:DSL_Hauptverteiler"/>
    <tag k="onkz" v="8841"/>
    <tag k="operator" v="Deutsche Telekom AG"/>
  </node>
  <node id="307206846" version="3" timestamp="2009-06-17T21:50:38Z" uid="36809" user="pfoten_weg_!_" changeset="1550007" lat="47.668663" lon="11.046419">
    <tag k="addr:city" v="Bad Kohlgrub"/>
    <tag k="addr:housenumber" v="9"/>
    <tag k="addr:postcode" v="82433"/>
    <tag k="addr:street" v="Lamplstraße"/>
    <tag k="asb" v="2"/>
    <tag k="created_by" v="RambaZamba"/>
    <tag k="man_made" v="MDF"/>
    <tag k="note:de" v="http://wiki.openstreetmap.org/index.php/DE:DSL_Hauptverteiler"/>
    <tag k="onkz" v="8845"/>
    <tag k="operator" v="Deutsche Telekom AG"/>
    <tag k="source" v="Deutsche Telekom AG"/>
  </node>
  <node id="307206846" version="4" timestamp="2009-08-12T13:32:35Z" uid="156995" user="HampelZamba" changeset="2118817" lat="47.668663" lon="11.046419">
    <tag k="addr:city" v="Bad Kohlgrub"/>
    <tag k="addr:housenumber" v="9"/>
    <tag k="addr:postcode" v="82433"/>
    <tag k="addr:street" v="Lamplstraße"/>
    <tag k="asb" v="2"/>
    <tag k="man_made" v="MDF"/>
    <tag k="note:de" v="http://wiki.openstreetmap.org/index.php/DE:DSL_Hauptverteiler"/>
    <tag k="onkz" v="8845"/>
    <tag k="operator" v="Deutsche Telekom AG"/>
    <tag k="source" v="Deutsche Telekom AG"/>
  </node>
  <node id="307206846" version="5" timestamp="2009-08-24T23:36:00Z" uid="36809" user="pfoten_weg_!_" changeset="2251119" lat="47.668663" lon="11.046419">
    <tag k="addr:city" v="Bad Kohlgrub"/>
    <tag k="addr:housenumber" v="9"/>
    <tag k="addr:postcode" v="82433"/>
    <tag k="addr:street" v="Lamplstraße"/>
    <tag k="asb" v="2"/>
    <tag k="man_made" v="MDF"/>
    <tag k="note:de" v="http://wiki.openstreetmap.org/index.php/DE:DSL_Hauptverteiler"/>
    <tag k="onkz" v="8845"/>
    <tag k="operator" v="Deutsche Telekom AG"/>
    <tag k="source" v="Deutsche Telekom AG"/>
    <tag k="warnung" v="rumpelzumpel = kriminelle OSM-datenbank SEUCHE"/>
  </node>
  <node id="307206846" version="6" timestamp="2009-08-24T23:37:19Z" uid="36809" user="pfoten_weg_!_" changeset="2251121" lat="47.668663" lon="11.046419">
    <tag k="addr:city" v="Bad Kohlgrub"/>
    <tag k="addr:housenumber" v="9"/>
    <tag k="addr:postcode" v="82433"/>
    <tag k="addr:street" v="Lamplstraße"/>
    <tag k="asb" v="2"/>
    <tag k="man_made" v="MDF"/>
    <tag k="note:de" v="http://wiki.openstreetmap.org/index.php/DE:DSL_Hauptverteiler"/>
    <tag k="onkz" v="8845"/>
    <tag k="operator" v="Deutsche Telekom AG"/>
    <tag k="source" v="Deutsche Telekom AG"/>
  </node>
  <node id="307206846" version="7" timestamp="2009-10-28T07:11:55Z" uid="36809" user="pfoten_weg_!_" changeset="2971189" lat="47.668663" lon="11.046419">
    <tag k="addr:city" v="Bad Kohlgrub"/>
    <tag k="addr:housenumber" v="9"/>
    <tag k="addr:postcode" v="82433"/>
    <tag k="addr:street" v="Lamplstraße"/>
    <tag k="asb" v="2"/>
    <tag k="man_made" v="MDF"/>
    <tag k="note:de" v="http://wiki.openstreetmap.org/index.php/DE:DSL_Hauptverteiler"/>
    <tag k="onkz" v="8845"/>
    <tag k="operator" v="Deutsche Telekom AG"/>
  </node>
  <node id="307206851" version="3" timestamp="2009-05-01T00:42:44Z" uid="36809" user="pfoten_weg_!_" changeset="1031984" lat="47.712399" lon="11.152594">
    <tag k="addr:city" v="Uffing"/>
    <tag k="addr:housenumber" v="12"/>
    <tag k="addr:postcode" v="82449"/>
    <tag k="addr:street" v="Auweg"/>
    <tag k="asb" v="2"/>
    <tag k="created_by" v="fixbot"/>
    <tag k="man_made" v="MDF"/>
    <tag k="note:de" v="http://wiki.openstreetmap.org/index.php/DE:DSL_Hauptverteiler"/>
    <tag k="onkz" v="8846"/>
    <tag k="operator" v="Deutsche Telekom AG"/>
    <tag k="source" v="Deutsche Telekom AG"/>
  </node>
  <node id="307206857" version="3" timestamp="2009-10-17T23:23:03Z" uid="36809" user="pfoten_weg_!_" changeset="2879001" lat="47.735409" lon="11.218922">
    <tag k="addr:city" v="Obersöchering"/>
    <tag k="addr:housenumber" v="8"/>
    <tag k="addr:postcode" v="82395"/>
    <tag k="addr:street" v="Untergasse"/>
    <tag k="asb" v="2"/>
    <tag k="man_made" v="MDF"/>
    <tag k="note:de" v="http://wiki.openstreetmap.org/index.php/DE:DSL_Hauptverteiler"/>
    <tag k="onkz" v="8847"/>
    <tag k="operator" v="Deutsche Telekom AG"/>
    <tag k="source" v="Deutsche Telekom AG"/>
  </node>
  <node id="307206857" version="4" timestamp="2009-10-28T07:12:49Z" uid="36809" user="pfoten_weg_!_" changeset="2971189" lat="47.735409" lon="11.218922">
    <tag k="addr:city" v="Obersöchering"/>
    <tag k="addr:housenumber" v="8"/>
    <tag k="addr:postcode" v="82395"/>
    <tag k="addr:street" v="Untergasse"/>
    <tag k="asb" v="2"/>
    <tag k="man_made" v="MDF"/>
    <tag k="note:de" v="http://wiki.openstreetmap.org/index.php/DE:DSL_Hauptverteiler"/>
    <tag k="onkz" v="8847"/>
    <tag k="operator" v="Deutsche Telekom AG"/>
  </node>
  <node id="307206866" version="4" timestamp="2009-10-22T21:51:19Z" uid="36809" user="pfoten_weg_!_" changeset="2925817" lat="47.7478867" lon="11.3720601">
    <tag k="addr:city" v="Penzberg"/>
    <tag k="addr:housenumber" v="2A"/>
    <tag k="addr:postcode" v="82377"/>
    <tag k="addr:street" v="Meichelbeckstraße"/>
    <tag k="asb" v="2"/>
    <tag k="man_made" v="MDF"/>
    <tag k="note:de" v="http://wiki.openstreetmap.org/index.php/DE:DSL_Hauptverteiler"/>
    <tag k="onkz" v="8856"/>
    <tag k="operator" v="Deutsche Telekom AG"/>
  </node>
  <node id="307206872" version="4" timestamp="2009-10-17T23:41:02Z" uid="36809" user="pfoten_weg_!_" changeset="2879001" lat="47.707918" lon="11.40742">
    <tag k="addr:city" v="Benediktbeuern"/>
    <tag k="addr:housenumber" v="29"/>
    <tag k="addr:postcode" v="83671"/>
    <tag k="addr:street" v="Bahnhofstraße"/>
    <tag k="asb" v="2"/>
    <tag k="man_made" v="MDF"/>
    <tag k="note:de" v="http://wiki.openstreetmap.org/index.php/DE:DSL_Hauptverteiler"/>
    <tag k="onkz" v="8857"/>
    <tag k="operator" v="Deutsche Telekom AG"/>
    <tag k="source" v="Deutsche Telekom AG"/>
  </node>
  <node id="307206872" version="5" timestamp="2011-06-18T06:28:57Z" uid="5359" user="user_5359" changeset="8470424" lat="47.707918" lon="11.40742">
    <tag k="addr:city" v="Benediktbeuern"/>
    <tag k="addr:country" v="DE"/>
    <tag k="addr:housenumber" v="29"/>
    <tag k="addr:postcode" v="83671"/>
    <tag k="addr:street" v="Bahnhofstraße"/>
    <tag k="asb" v="2"/>
    <tag k="man_made" v="MDF"/>
    <tag k="note:de" v="http://wiki.openstreetmap.org/index.php/DE:DSL_Hauptverteiler"/>
    <tag k="onkz" v="8857"/>
    <tag k="operator" v="Deutsche Telekom AG"/>
    <tag k="source" v="Deutsche Telekom AG"/>
  </node>
  <node id="307206878" version="5" timestamp="2009-10-01T16:14:43Z" uid="86259" user="hasse_osm_korinthenkacker" changeset="2702067" lat="47.588811" lon="11.314397">
    <tag k="addr:city" v="Walchensee"/>
    <tag k="addr:postcode" v="82432"/>
    <tag k="addr:street" v="Kirschbaumweg"/>
    <tag k="asb" v="2"/>
    <tag k="man_made" v="MDF"/>
    <tag k="note:de" v="http://wiki.openstreetmap.org/index.php/DE:DSL_Hauptverteiler"/>
    <tag k="onkz" v="8858"/>
    <tag k="operator" v="Deutsche Telekom AG"/>
    <tag k="source" v="Deutsche Telekom AG"/>
  </node>
  <node id="307208215" version="1" timestamp="2008-10-24T22:53:24Z" uid="13367" user="nubok" changeset="561842" lat="52.1821623" lon="11.6413864"/>
  <node id="307208215" version="2" timestamp="2009-01-08T14:37:07Z" uid="13565" user="hadhuey" changeset="756353" lat="52.1821623" lon="11.6413864"/>
  <node id="307208215" version="3" timestamp="2009-01-08T14:40:06Z" uid="13565" user="hadhuey" changeset="756353" lat="52.1821623" lon="11.6413864"/>
  <node id="307208215" version="4" timestamp="2011-05-25T19:54:50Z" uid="13367" user="nubok" changeset="8248116" lat="52.1821994" lon="11.6413393"/>
  <node id="307208215" version="5" timestamp="2011-09-13T17:50:15Z" uid="41889" user="Kurt Krampmeier" changeset="9291513" lat="52.1823084" lon="11.6412936"/>
  <node id="307208219" version="1" timestamp="2008-10-24T22:53:24Z" uid="13367" user="nubok" changeset="561842" lat="52.1856842" lon="11.6447454"/>
  <node id="307208219" version="2" timestamp="2009-04-29T15:00:45Z" uid="42683" user="riechfield" changeset="1016480" lat="52.1855947" lon="11.6447235"/>
  <node id="307208225" version="1" timestamp="2008-10-24T22:53:24Z" uid="13367" user="nubok" changeset="561842" lat="52.176849" lon="11.6486541"/>
  <node id="307208225" version="2" timestamp="2011-01-08T21:21:47Z" uid="101337" user="bonzulu" changeset="6909092" lat="52.176849" lon="11.6486541"/>
  <node id="307208230" version="1" timestamp="2008-10-24T22:53:24Z" uid="13367" user="nubok" changeset="561842" lat="52.1771238" lon="11.6495295"/>
  <node id="307208230" version="2" timestamp="2011-01-08T21:21:48Z" uid="101337" user="bonzulu" changeset="6909092" lat="52.1771238" lon="11.6495295"/>
  <node id="307208235" version="1" timestamp="2008-10-24T22:53:25Z" uid="13367" user="nubok" changeset="561842" lat="52.1777142" lon="11.6498857"/>
  <node id="307208235" version="2" timestamp="2011-01-16T21:06:12Z" uid="13367" user="nubok" changeset="6993878" lat="52.1776915" lon="11.6498542"/>
  <node id="307208239" version="1" timestamp="2008-10-24T22:53:25Z" uid="13367" user="nubok" changeset="561842" lat="52.178386" lon="11.6497127"/>
  <node id="307208239" version="2" timestamp="2011-01-16T21:06:10Z" uid="13367" user="nubok" changeset="6993878" lat="52.1784121" lon="11.6497164"/>
  <node id="307208243" version="1" timestamp="2008-10-24T22:53:25Z" uid="13367" user="nubok" changeset="561842" lat="52.1787321" lon="11.6497025"/>
  <node id="307208243" version="2" timestamp="2011-01-16T21:06:09Z" uid="13367" user="nubok" changeset="6993878" lat="52.178721" lon="11.6496573"/>
  <node id="307208248" version="1" timestamp="2008-10-24T22:53:25Z" uid="13367" user="nubok" changeset="561842" lat="52.1794548" lon="11.6495091"/>
  <node id="307208253" version="1" timestamp="2008-10-24T22:53:25Z" uid="13367" user="nubok" changeset="561842" lat="52.1798518" lon="11.6494888"/>
  <node id="307208253" version="2" timestamp="2011-01-16T21:06:12Z" uid="13367" user="nubok" changeset="6993878" lat="52.1798385" lon="11.6493911"/>
  <node id="307208258" version="1" timestamp="2008-10-24T22:53:25Z" uid="13367" user="nubok" changeset="561842" lat="52.1801368" lon="11.6493361"/>
  <node id="307208258" version="2" timestamp="2011-01-16T21:06:10Z" uid="13367" user="nubok" changeset="6993878" lat="52.1800969" lon="11.6492529"/>
  <node id="307208263" version="1" timestamp="2008-10-24T22:53:26Z" uid="13367" user="nubok" changeset="561842" lat="52.1803302" lon="11.6493564"/>
  <node id="307208263" version="2" timestamp="2011-01-16T21:06:10Z" uid="13367" user="nubok" changeset="6993878" lat="52.1802947" lon="11.6491574"/>
  <node id="307208267" version="1" timestamp="2008-10-24T22:53:26Z" uid="13367" user="nubok" changeset="561842" lat="52.1803912" lon="11.6496007"/>
  <node id="307208267" version="2" timestamp="2011-01-16T21:06:10Z" uid="13367" user="nubok" changeset="6993878" lat="52.1804001" lon="11.6496188"/>
  <node id="307208272" version="1" timestamp="2008-10-24T22:53:26Z" uid="13367" user="nubok" changeset="561842" lat="52.1804727" lon="11.6498857"/>
  <node id="307208272" version="2" timestamp="2012-01-17T20:31:53Z" uid="13565" user="hadhuey" changeset="10421398" lat="52.1804727" lon="11.6498857"/>
  <node id="307208276" version="1" timestamp="2008-10-24T22:53:26Z" uid="13367" user="nubok" changeset="561842" lat="52.173202" lon="11.6511925"/>
  <node id="307208282" version="1" timestamp="2008-10-24T22:53:26Z" uid="13367" user="nubok" changeset="561842" lat="52.1732593" lon="11.6514009"/>
  <node id="307208285" version="1" timestamp="2008-10-24T22:53:27Z" uid="13367" user="nubok" changeset="561842" lat="52.1736241" lon="11.6513853"/>
  <node id="307208287" version="1" timestamp="2008-10-24T22:53:27Z" uid="13367" user="nubok" changeset="561842" lat="52.1739368" lon="11.6513749"/>
  <node id="307208290" version="1" timestamp="2008-10-24T22:53:27Z" uid="13367" user="nubok" changeset="561842" lat="52.1741401" lon="11.6512863"/>
  <node id="307208295" version="1" timestamp="2008-10-24T22:53:27Z" uid="13367" user="nubok" changeset="561842" lat="52.1742912" lon="11.6510934"/>
  <node id="307208300" version="1" timestamp="2008-10-24T22:53:28Z" uid="13367" user="nubok" changeset="561842" lat="52.1744267" lon="11.6507964"/>
  <node id="307208304" version="1" timestamp="2008-10-24T22:53:28Z" uid="13367" user="nubok" changeset="561842" lat="52.1745726" lon="11.6505306"/>
  <node id="307208308" version="1" timestamp="2008-10-24T22:53:28Z" uid="13367" user="nubok" changeset="561842" lat="52.1746664" lon="11.6503951"/>
  <node id="307208311" version="1" timestamp="2008-10-24T22:53:28Z" uid="13367" user="nubok" changeset="561842" lat="52.174828" lon="11.6503221"/>
  <node id="307208315" version="1" timestamp="2008-10-24T22:53:29Z" uid="13367" user="nubok" changeset="561842" lat="52.1750156" lon="11.6503013"/>
  <node id="307208320" version="1" timestamp="2008-10-24T22:53:29Z" uid="13367" user="nubok" changeset="561842" lat="52.1751459" lon="11.6503221"/>
  <node id="307208324" version="1" timestamp="2008-10-24T22:53:29Z" uid="13367" user="nubok" changeset="561842" lat="52.1753074" lon="11.6503482"/>
  <node id="307208329" version="1" timestamp="2008-10-24T22:53:29Z" uid="13367" user="nubok" changeset="561842" lat="52.1754325" lon="11.6503534"/>
  <node id="307208333" version="1" timestamp="2008-10-24T22:53:29Z" uid="13367" user="nubok" changeset="561842" lat="52.1754951" lon="11.6502857"/>
  <node id="307208336" version="1" timestamp="2008-10-24T22:53:30Z" uid="13367" user="nubok" changeset="561842" lat="52.1755159" lon="11.6500563"/>
  <node id="307208341" version="1" timestamp="2008-10-24T22:53:30Z" uid="13367" user="nubok" changeset="561842" lat="52.1755003" lon="11.6497958"/>
  <node id="307208346" version="1" timestamp="2008-10-24T22:53:30Z" uid="13367" user="nubok" changeset="561842" lat="52.1754638" lon="11.6494779"/>
  <node id="307208350" version="1" timestamp="2008-10-24T22:53:30Z" uid="13367" user="nubok" changeset="561842" lat="52.1754846" lon="11.6488108"/>
  <node id="307208350" version="2" timestamp="2010-05-02T18:36:18Z" uid="13367" user="nubok" changeset="4588469" lat="52.1754693" lon="11.6488338"/>
  <node id="307208354" version="1" timestamp="2008-10-24T22:53:30Z" uid="13367" user="nubok" changeset="561842" lat="52.1754794" lon="11.6484043"/>
  <node id="307208354" version="2" timestamp="2010-05-02T18:36:18Z" uid="13367" user="nubok" changeset="4588469" lat="52.1754487" lon="11.6483813"/>
  <node id="307208359" version="1" timestamp="2008-10-24T22:53:31Z" uid="13367" user="nubok" changeset="561842" lat="52.1755367" lon="11.647805"/>
  <node id="307208359" version="2" timestamp="2010-05-02T18:36:18Z" uid="13367" user="nubok" changeset="4588469" lat="52.1755022" lon="11.6478127"/>
  <node id="307208362" version="1" timestamp="2008-10-24T22:53:31Z" uid="13367" user="nubok" changeset="561842" lat="52.1755732" lon="11.6475548"/>
  <node id="307208362" version="2" timestamp="2010-05-02T18:36:18Z" uid="13367" user="nubok" changeset="4588469" lat="52.175508" lon="11.6475625"/>
  <node id="307208367" version="1" timestamp="2008-10-24T22:53:31Z" uid="13367" user="nubok" changeset="561842" lat="52.175641" lon="11.6474141"/>
  <node id="307208367" version="2" timestamp="2010-05-02T18:36:18Z" uid="13367" user="nubok" changeset="4588469" lat="52.1755374" lon="11.6474333"/>
  <node id="307208373" version="1" timestamp="2008-10-24T22:53:32Z" uid="13367" user="nubok" changeset="561842" lat="52.1756307" lon="11.64732"/>
  <node id="307208373" version="2" timestamp="2010-05-02T18:36:18Z" uid="13367" user="nubok" changeset="4588469" lat="52.1755923" lon="11.647297"/>
  <node id="307208377" version="1" timestamp="2008-10-24T22:53:32Z" uid="13367" user="nubok" changeset="561842" lat="52.1756387" lon="11.6472213"/>
  <node id="307208381" version="1" timestamp="2008-10-24T22:53:32Z" uid="13367" user="nubok" changeset="561842" lat="52.1757535" lon="11.6472213"/>
  <node id="307208381" version="2" timestamp="2011-01-08T21:21:41Z" uid="101337" user="bonzulu" changeset="6909092" lat="52.1757625" lon="11.6472213"/>
  <node id="307208386" version="1" timestamp="2008-10-24T22:53:32Z" uid="13367" user="nubok" changeset="561842" lat="52.1757508" lon="11.647312"/>
  <node id="307208386" version="2" timestamp="2011-01-08T21:21:47Z" uid="101337" user="bonzulu" changeset="6909092" lat="52.1757508" lon="11.647312"/>
  <node id="307208391" version="1" timestamp="2008-10-24T22:53:33Z" uid="13367" user="nubok" changeset="561842" lat="52.1757375" lon="11.6473814"/>
  <node id="307208391" version="2" timestamp="2011-01-08T21:21:42Z" uid="101337" user="bonzulu" changeset="6909092" lat="52.1757635" lon="11.6474155"/>
  <node id="307208635" version="1" timestamp="2008-10-24T22:53:48Z" uid="13367" user="nubok" changeset="561842" lat="52.1757028" lon="11.6474"/>
  <node id="307208635" version="2" timestamp="2011-01-08T21:21:41Z" uid="101337" user="bonzulu" changeset="6909092" lat="52.1756192" lon="11.6474249"/>
  <node id="307208641" version="1" timestamp="2008-10-24T22:53:48Z" uid="13367" user="nubok" changeset="561842" lat="52.1756841" lon="11.647312">
    <tag k="description" v="verlassenes Haus"/>
  </node>
  <node id="307208641" version="2" timestamp="2011-01-08T21:21:47Z" uid="101337" user="bonzulu" changeset="6909092" lat="52.1756841" lon="11.647312">
    <tag k="description" v="verlassenes Haus"/>
  </node>
  <node id="307208645" version="1" timestamp="2008-10-24T22:53:48Z" uid="13367" user="nubok" changeset="561842" lat="52.1755427" lon="11.6488516"/>
  <node id="307208645" version="2" timestamp="2010-05-02T18:36:18Z" uid="13367" user="nubok" changeset="4588469" lat="52.1754967" lon="11.6489628"/>
  <node id="307208650" version="1" timestamp="2008-10-24T22:53:48Z" uid="13367" user="nubok" changeset="561842" lat="52.175612" lon="11.6488383"/>
  <node id="307208653" version="1" timestamp="2008-10-24T22:53:49Z" uid="13367" user="nubok" changeset="561842" lat="52.1757935" lon="11.6487235"/>
  <node id="307208657" version="1" timestamp="2008-10-24T22:53:49Z" uid="13367" user="nubok" changeset="561842" lat="52.1759589" lon="11.6486168"/>
  <node id="307208663" version="1" timestamp="2008-10-24T22:53:49Z" uid="13367" user="nubok" changeset="561842" lat="52.1762097" lon="11.64847"/>
  <node id="307208663" version="2" timestamp="2010-05-02T18:36:18Z" uid="13367" user="nubok" changeset="4588469" lat="52.1762097" lon="11.648447"/>
  <node id="307208666" version="1" timestamp="2008-10-24T22:53:49Z" uid="13367" user="nubok" changeset="561842" lat="52.1729363" lon="11.6471532"/>
  <node id="307208671" version="1" timestamp="2008-10-24T22:53:49Z" uid="13367" user="nubok" changeset="561842" lat="52.1864322" lon="11.6458298"/>
  <node id="307208671" version="2" timestamp="2009-01-08T14:36:49Z" uid="13565" user="hadhuey" changeset="756353" lat="52.1864322" lon="11.6458298"/>
  <node id="307209509" version="3" timestamp="2009-11-29T22:44:17Z" uid="200463" user="harmagedon" changeset="3251061" lat="48.754289" lon="13.183694">
    <tag k="addr:city" v="Schöllnach"/>
    <tag k="addr:housenumber" v="8"/>
    <tag k="addr:postcode" v="94508"/>
    <tag k="addr:street" v="Georg-Nachtmann-Weg"/>
    <tag k="asb" v="1"/>
    <tag k="man_made" v="MDF"/>
    <tag k="note:de" v="http://wiki.openstreetmap.org/index.php/DE:DSL_Hauptverteiler"/>
    <tag k="onkz" v="9903"/>
    <tag k="operator" v="Deutsche Telekom AG"/>
    <tag k="source" v="Deutsche Telekom AG"/>
  </node>
  <node id="307209544" version="3" timestamp="2009-12-09T15:19:59Z" uid="200463" user="harmagedon" changeset="3334003" lat="49.018168" lon="13.226266">
    <tag k="addr:city" v="Zwiesel"/>
    <tag k="addr:housenumber" v="49-51"/>
    <tag k="addr:postcode" v="94227"/>
    <tag k="addr:street" v="Dr.-Schott-Straße"/>
    <tag k="asb" v="1"/>
    <tag k="man_made" v="MDF"/>
    <tag k="note:de" v="http://wiki.openstreetmap.org/index.php/DE:DSL_Hauptverteiler"/>
    <tag k="onkz" v="9922"/>
    <tag k="operator" v="Deutsche Telekom AG"/>
    <tag k="source" v="Deutsche Telekom AG"/>
  </node>
  <node id="307209552" version="3" timestamp="2009-12-09T15:21:44Z" uid="200463" user="harmagedon" changeset="3334003" lat="49.065889" lon="13.098706">
    <tag k="addr:city" v="Bodenmais"/>
    <tag k="addr:housenumber" v="2"/>
    <tag k="addr:postcode" v="94249"/>
    <tag k="addr:street" v="Am Lehen"/>
    <tag k="asb" v="1"/>
    <tag k="man_made" v="MDF"/>
    <tag k="note:de" v="http://wiki.openstreetmap.org/index.php/DE:DSL_Hauptverteiler"/>
    <tag k="onkz" v="9924"/>
    <tag k="operator" v="Deutsche Telekom AG"/>
    <tag k="source" v="Deutsche Telekom AG"/>
  </node>
  <node id="307209555" version="3" timestamp="2009-12-09T15:28:01Z" uid="200463" user="harmagedon" changeset="3334003" lat="49.078746" lon="13.206923">
    <tag k="addr:city" v="Bayerisch Eisenstein"/>
    <tag k="addr:housenumber" v="4"/>
    <tag k="addr:postcode" v="94252"/>
    <tag k="addr:street" v="Arberseestraße"/>
    <tag k="asb" v="1"/>
    <tag k="man_made" v="MDF"/>
    <tag k="note:de" v="http://wiki.openstreetmap.org/index.php/DE:DSL_Hauptverteiler"/>
    <tag k="onkz" v="9925"/>
    <tag k="operator" v="Deutsche Telekom AG"/>
    <tag k="source" v="Deutsche Telekom AG"/>
  </node>
  <node id="307209560" version="3" timestamp="2009-12-09T15:20:40Z" uid="200463" user="harmagedon" changeset="3334003" lat="48.990519" lon="13.299169">
    <tag k="addr:city" v="Frauenau"/>
    <tag k="addr:housenumber" v="10"/>
    <tag k="addr:postcode" v="94258"/>
    <tag k="addr:street" v="St.-Gunther-Weg"/>
    <tag k="asb" v="1"/>
    <tag k="man_made" v="MDF"/>
    <tag k="note:de" v="http://wiki.openstreetmap.org/index.php/DE:DSL_Hauptverteiler"/>
    <tag k="onkz" v="9926"/>
    <tag k="operator" v="Deutsche Telekom AG"/>
    <tag k="source" v="Deutsche Telekom AG"/>
  </node>
  <node id="307209563" version="3" timestamp="2009-12-09T14:30:36Z" uid="200463" user="harmagedon" changeset="3334003" lat="48.900476" lon="13.182383">
    <tag k="addr:city" v="Kirchberg"/>
    <tag k="addr:housenumber" v="7"/>
    <tag k="addr:postcode" v="94259"/>
    <tag k="addr:street" v="Florianweg"/>
    <tag k="asb" v="1"/>
    <tag k="man_made" v="MDF"/>
    <tag k="note:de" v="http://wiki.openstreetmap.org/index.php/DE:DSL_Hauptverteiler"/>
    <tag k="onkz" v="9927"/>
    <tag k="operator" v="Deutsche Telekom AG"/>
    <tag k="source" v="Deutsche Telekom AG"/>
  </node>
  <node id="307209568" version="3" timestamp="2009-12-09T15:11:21Z" uid="200463" user="harmagedon" changeset="3334003" lat="48.907163" lon="13.268932">
    <tag k="addr:city" v="Kirchdorf"/>
    <tag k="addr:housenumber" v="32"/>
    <tag k="addr:postcode" v="94261"/>
    <tag k="addr:street" v="Marienbergstraße"/>
    <tag k="asb" v="1"/>
    <tag k="man_made" v="MDF"/>
    <tag k="note:de" v="http://wiki.openstreetmap.org/index.php/DE:DSL_Hauptverteiler"/>
    <tag k="onkz" v="9928"/>
    <tag k="operator" v="Deutsche Telekom AG"/>
    <tag k="source" v="Deutsche Telekom AG"/>
  </node>
  <node id="307209585" version="3" timestamp="2009-11-29T22:42:08Z" uid="200463" user="harmagedon" changeset="3251061" lat="48.702018" lon="13.015619">
    <tag k="addr:city" v="Osterhofen"/>
    <tag k="addr:housenumber" v="13"/>
    <tag k="addr:postcode" v="94486"/>
    <tag k="addr:street" v="Leuchtenbergweg"/>
    <tag k="asb" v="1"/>
    <tag k="man_made" v="MDF"/>
    <tag k="note:de" v="http://wiki.openstreetmap.org/index.php/DE:DSL_Hauptverteiler"/>
    <tag k="onkz" v="9932"/>
    <tag k="operator" v="Deutsche Telekom AG"/>
    <tag k="source" v="Deutsche Telekom AG"/>
  </node>
  <node id="307209598" version="3" timestamp="2009-11-29T22:05:51Z" uid="200463" user="harmagedon" changeset="3251061" lat="48.68554" lon="12.880546">
    <tag k="addr:city" v="Wallerfing"/>
    <tag k="addr:housenumber" v="7"/>
    <tag k="addr:postcode" v="94574"/>
    <tag k="addr:street" v="Birkenweg"/>
    <tag k="asb" v="1"/>
    <tag k="man_made" v="MDF"/>
    <tag k="note:de" v="http://wiki.openstreetmap.org/index.php/DE:DSL_Hauptverteiler"/>
    <tag k="onkz" v="9936"/>
    <tag k="operator" v="Deutsche Telekom AG"/>
    <tag k="source" v="Deutsche Telekom AG"/>
  </node>
  <node id="307209598" version="4" timestamp="2011-08-04T16:59:13Z" uid="500998" user="izquierda" changeset="8921409" lat="48.684119" lon="12.8805318">
    <tag k="addr:city" v="Wallerfing"/>
    <tag k="addr:housenumber" v="7"/>
    <tag k="addr:postcode" v="94574"/>
    <tag k="addr:street" v="Birkenweg"/>
    <tag k="asb" v="1"/>
    <tag k="man_made" v="MDF"/>
    <tag k="note:de" v="http://wiki.openstreetmap.org/index.php/DE:DSL_Hauptverteiler"/>
    <tag k="onkz" v="9936"/>
    <tag k="operator" v="Deutsche Telekom AG"/>
    <tag k="source" v="Deutsche Telekom AG"/>
  </node>
  <node id="307209603" version="3" timestamp="2009-11-29T22:07:00Z" uid="200463" user="harmagedon" changeset="3251061" lat="48.69991" lon="12.829717">
    <tag k="addr:city" v="Oberpöring"/>
    <tag k="addr:housenumber" v="18"/>
    <tag k="addr:postcode" v="94562"/>
    <tag k="addr:street" v="Weinseite"/>
    <tag k="asb" v="1"/>
    <tag k="man_made" v="MDF"/>
    <tag k="note:de" v="http://wiki.openstreetmap.org/index.php/DE:DSL_Hauptverteiler"/>
    <tag k="onkz" v="9937"/>
    <tag k="operator" v="Deutsche Telekom AG"/>
    <tag k="source" v="Deutsche Telekom AG"/>
  </node>
  <node id="307209607" version="3" timestamp="2009-11-29T22:07:54Z" uid="200463" user="harmagedon" changeset="3251061" lat="48.749551" lon="12.962427">
    <tag k="addr:city" v="Moos"/>
    <tag k="addr:housenumber" v="12"/>
    <tag k="addr:postcode" v="94554"/>
    <tag k="addr:street" v="Lichteneggstraße"/>
    <tag k="asb" v="1"/>
    <tag k="man_made" v="MDF"/>
    <tag k="note:de" v="http://wiki.openstreetmap.org/index.php/DE:DSL_Hauptverteiler"/>
    <tag k="onkz" v="9938"/>
    <tag k="operator" v="Deutsche Telekom AG"/>
    <tag k="source" v="Deutsche Telekom AG"/>
  </node>
  <node id="307209652" version="3" timestamp="2009-11-29T22:04:27Z" uid="200463" user="harmagedon" changeset="3251061" lat="48.633832" lon="12.85787">
    <tag k="addr:city" v="Eichendorf"/>
    <tag k="addr:housenumber" v="5"/>
    <tag k="addr:postcode" v="94428"/>
    <tag k="addr:street" v="Burggrabenstraße"/>
    <tag k="asb" v="1"/>
    <tag k="man_made" v="MDF"/>
    <tag k="note:de" v="http://wiki.openstreetmap.org/index.php/DE:DSL_Hauptverteiler"/>
    <tag k="onkz" v="9952"/>
    <tag k="operator" v="Deutsche Telekom AG"/>
    <tag k="source" v="Deutsche Telekom AG"/>
  </node>
  <node id="307209663" version="3" timestamp="2009-11-29T22:00:40Z" uid="200463" user="harmagedon" changeset="3251061" lat="48.560493" lon="12.741812">
    <tag k="addr:city" v="Simbach"/>
    <tag k="addr:housenumber" v="7"/>
    <tag k="addr:postcode" v="94436"/>
    <tag k="addr:street" v="Hans-Baierl-Straße"/>
    <tag k="asb" v="1"/>
    <tag k="man_made" v="MDF"/>
    <tag k="note:de" v="http://wiki.openstreetmap.org/index.php/DE:DSL_Hauptverteiler"/>
    <tag k="onkz" v="9954"/>
    <tag k="operator" v="Deutsche Telekom AG"/>
    <tag k="source" v="Deutsche Telekom AG"/>
  </node>
  <node id="307209671" version="3" timestamp="2009-11-29T22:02:21Z" uid="200463" user="harmagedon" changeset="3251061" lat="48.614775" lon="12.758081">
    <tag k="addr:city" v="Eichendorf"/>
    <tag k="addr:housenumber" v="6"/>
    <tag k="addr:postcode" v="94428"/>
    <tag k="addr:street" v="Haunersdorfer Straße"/>
    <tag k="asb" v="1"/>
    <tag k="man_made" v="MDF"/>
    <tag k="note:de" v="http://wiki.openstreetmap.org/index.php/DE:DSL_Hauptverteiler"/>
    <tag k="onkz" v="9956"/>
    <tag k="operator" v="Deutsche Telekom AG"/>
    <tag k="source" v="Deutsche Telekom AG"/>
  </node>
  <node id="307209671" version="4" timestamp="2010-02-02T17:31:08Z" uid="117440" user="Obermadl" changeset="3777386" lat="48.6143559" lon="12.7579998">
    <tag k="addr:city" v="Eichendorf"/>
    <tag k="addr:housenumber" v="6"/>
    <tag k="addr:postcode" v="94428"/>
    <tag k="addr:street" v="Haunersdorfer Straße"/>
    <tag k="asb" v="1"/>
    <tag k="man_made" v="MDF"/>
    <tag k="note:de" v="http://wiki.openstreetmap.org/index.php/DE:DSL_Hauptverteiler"/>
    <tag k="onkz" v="9956"/>
    <tag k="operator" v="Deutsche Telekom AG"/>
    <tag k="source" v="Deutsche Telekom AG"/>
  </node>
  <node id="307209851" version="3" timestamp="2009-09-25T16:54:17Z" uid="36809" user="pfoten_weg_!_" changeset="2623140" lat="52.398033" lon="12.768269">
    <tag k="addr:city" v="Groß Kreutz (Havel)"/>
    <tag k="addr:housenumber" v="5"/>
    <tag k="addr:postcode" v="14550"/>
    <tag k="addr:street" v="Neue Chaussee"/>
    <tag k="asb" v="2"/>
    <tag k="man_made" v="MDF"/>
    <tag k="note:de" v="http://wiki.openstreetmap.org/index.php/DE:DSL_Hauptverteiler"/>
    <tag k="onkz" v="33207"/>
    <tag k="operator" v="Deutsche Telekom AG"/>
    <tag k="source" v="Deutsche Telekom AG"/>
  </node>
  <node id="307209911" version="3" timestamp="2009-11-05T03:56:31Z" uid="36809" user="pfoten_weg_!_" changeset="3037787" lat="53.213788" lon="14.207169">
    <tag k="addr:city" v="Casekow"/>
    <tag k="addr:housenumber" v="1"/>
    <tag k="addr:postcode" v="16306"/>
    <tag k="addr:street" v="Bahnhofstraße"/>
    <tag k="asb" v="1"/>
    <tag k="man_made" v="MDF"/>
    <tag k="note:de" v="http://wiki.openstreetmap.org/index.php/DE:DSL_Hauptverteiler"/>
    <tag k="onkz" v="33331"/>
    <tag k="operator" v="Deutsche Telekom AG"/>
    <tag k="source" v="Deutsche Telekom AG"/>
  </node>
  <node id="307209911" version="4" timestamp="2011-04-07T06:01:20Z" uid="169628" user="tommitomato" changeset="7791343" lat="53.213788" lon="14.207169">
    <tag k="addr:city" v="Casekow"/>
    <tag k="addr:housenumber" v="1"/>
    <tag k="addr:postcode" v="16306"/>
    <tag k="addr:street" v="Bahnhofstraße"/>
    <tag k="asb" v="1"/>
    <tag k="man_made" v="MDF"/>
    <tag k="note:de" v="http://wiki.openstreetmap.org/index.php/DE:DSL_Hauptverteiler"/>
    <tag k="onkz" v="33331"/>
    <tag k="operator" v="Deutsche Telekom AG"/>
    <tag k="source" v="Deutsche Telekom AG"/>
  </node>
  <node id="307209915" version="3" timestamp="2009-10-08T22:52:34Z" uid="179968" user="Ich_hasse_doitsche_OSM-Korinthenkacker" changeset="2788677" lat="53.2082" lon="14.387179">
    <tag k="addr:city" v="Gartz (Oder)"/>
    <tag k="addr:housenumber" v="119"/>
    <tag k="addr:postcode" v="16307"/>
    <tag k="addr:street" v="Pommernstraße"/>
    <tag k="asb" v="1"/>
    <tag k="man_made" v="MDF"/>
    <tag k="note:de" v="http://wiki.openstreetmap.org/index.php/DE:DSL_Hauptverteiler"/>
    <tag k="onkz" v="33332"/>
    <tag k="operator" v="Deutsche Telekom AG"/>
    <tag k="source" v="Deutsche Telekom AG"/>
  </node>
  <node id="307209919" version="3" timestamp="2009-10-08T22:54:11Z" uid="179968" user="Ich_hasse_doitsche_OSM-Korinthenkacker" changeset="2788677" lat="53.266285" lon="14.343484">
    <tag k="addr:city" v="Tantow"/>
    <tag k="addr:housenumber" v="29"/>
    <tag k="addr:postcode" v="16307"/>
    <tag k="addr:street" v="Bahnhofstraße"/>
    <tag k="asb" v="1"/>
    <tag k="man_made" v="MDF"/>
    <tag k="note:de" v="http://wiki.openstreetmap.org/index.php/DE:DSL_Hauptverteiler"/>
    <tag k="onkz" v="33333"/>
    <tag k="operator" v="Deutsche Telekom AG"/>
    <tag k="source" v="Deutsche Telekom AG"/>
  </node>
  <node id="307209927" version="3" timestamp="2009-11-06T00:46:57Z" uid="36809" user="pfoten_weg_!_" changeset="3044956" lat="53.059238" lon="14.083076">
    <tag k="addr:city" v="Pinnow"/>
    <tag k="addr:housenumber" v="3"/>
    <tag k="addr:postcode" v="16278"/>
    <tag k="addr:street" v="Schmiedeweg"/>
    <tag k="asb" v="1"/>
    <tag k="man_made" v="MDF"/>
    <tag k="note:de" v="http://wiki.openstreetmap.org/index.php/DE:DSL_Hauptverteiler"/>
    <tag k="onkz" v="33335"/>
    <tag k="operator" v="Deutsche Telekom AG"/>
    <tag k="source" v="Deutsche Telekom AG"/>
  </node>
  <node id="307209933" version="4" timestamp="2009-11-05T03:55:11Z" uid="36809" user="pfoten_weg_!_" changeset="3037787" lat="53.144442" lon="14.108911">
    <tag k="addr:city" v="Passow"/>
    <tag k="addr:postcode" v="16306"/>
    <tag k="addr:street" v="Am Sportplatz"/>
    <tag k="asb" v="1"/>
    <tag k="man_made" v="MDF"/>
    <tag k="note:de" v="http://wiki.openstreetmap.org/index.php/DE:DSL_Hauptverteiler"/>
    <tag k="onkz" v="33336"/>
    <tag k="operator" v="Deutsche Telekom AG"/>
    <tag k="source" v="Deutsche Telekom AG"/>
  </node>
  <node id="307209933" version="5" timestamp="2011-12-26T17:09:29Z" uid="45263" user="Noframe" changeset="10208804" lat="53.1444729" lon="14.1085484">
    <tag k="addr:city" v="Passow"/>
    <tag k="addr:postcode" v="16306"/>
    <tag k="addr:street" v="Am Sportplatz"/>
    <tag k="asb" v="1"/>
    <tag k="man_made" v="MDF"/>
    <tag k="note:de" v="http://wiki.openstreetmap.org/index.php/DE:DSL_Hauptverteiler"/>
    <tag k="onkz" v="33336"/>
    <tag k="operator" v="Deutsche Telekom AG"/>
    <tag k="source" v="Deutsche Telekom AG"/>
  </node>
  <node id="307209940" version="3" timestamp="2009-11-05T03:33:47Z" uid="36809" user="pfoten_weg_!_" changeset="3037787" lat="52.980872" lon="14.117863">
    <tag k="addr:city" v="Angermünde"/>
    <tag k="addr:housenumber" v="29 A"/>
    <tag k="addr:postcode" v="16278"/>
    <tag k="addr:street" v="Angermünder Straße"/>
    <tag k="asb" v="1"/>
    <tag k="man_made" v="MDF"/>
    <tag k="note:de" v="http://wiki.openstreetmap.org/index.php/DE:DSL_Hauptverteiler"/>
    <tag k="onkz" v="33338"/>
    <tag k="operator" v="Deutsche Telekom AG"/>
    <tag k="source" v="Deutsche Telekom AG"/>
  </node>
  <node id="307209965" version="3" timestamp="2009-11-06T00:46:37Z" uid="36809" user="pfoten_weg_!_" changeset="3044956" lat="52.92864" lon="14.073569">
    <tag k="addr:city" v="Parsteinsee"/>
    <tag k="addr:housenumber" v="60"/>
    <tag k="addr:postcode" v="16248"/>
    <tag k="addr:street" v="Dorfstraße"/>
    <tag k="asb" v="1"/>
    <tag k="man_made" v="MDF"/>
    <tag k="note:de" v="http://wiki.openstreetmap.org/index.php/DE:DSL_Hauptverteiler"/>
    <tag k="onkz" v="33365"/>
    <tag k="operator" v="Deutsche Telekom AG"/>
    <tag k="source" v="Deutsche Telekom AG"/>
  </node>
  <node id="307209981" version="3" timestamp="2009-11-05T03:21:52Z" uid="36809" user="pfoten_weg_!_" changeset="3037787" lat="52.874559" lon="14.141558">
    <tag k="addr:city" v="Hohensaaten"/>
    <tag k="addr:housenumber" v="18"/>
    <tag k="addr:postcode" v="16248"/>
    <tag k="addr:street" v="Dorfstraße"/>
    <tag k="asb" v="1"/>
    <tag k="man_made" v="MDF"/>
    <tag k="note:de" v="http://wiki.openstreetmap.org/index.php/DE:DSL_Hauptverteiler"/>
    <tag k="onkz" v="33368"/>
    <tag k="operator" v="Deutsche Telekom AG"/>
    <tag k="source" v="Deutsche Telekom AG"/>
  </node>
  <node id="307202596" version="7" timestamp="2012-07-19T16:06:16Z" uid="722137" user="OSMF Redaction Account" changeset="12337680" lat="48.854207" lon="8.701233">
    <tag k="addr:city" v="Pforzheim"/>
    <tag k="addr:housenumber" v="24"/>
    <tag k="addr:postcode" v="75181"/>
    <tag k="addr:street" v="Industraßeestr."/>
    <tag k="asb" v="70"/>
    <tag k="man_made" v="MDF"/>
    <tag k="note:de" v="http://wiki.openstreetmap.org/index.php/DE:DSL_Hauptverteiler"/>
    <tag k="onkz" v="7231"/>
    <tag k="operator" v="Deutsche Telekom AG"/>
    <tag k="source" v="Deutsche Telekom AG"/>
  </node>
  <node id="307202596" version="8" timestamp="2012-07-21T09:04:09Z" uid="128017" user="wmann" changeset="12404331" lat="48.854207" lon="8.701233">
    <tag k="addr:city" v="Pforzheim"/>
    <tag k="addr:housenumber" v="24"/>
    <tag k="addr:postcode" v="75181"/>
    <tag k="addr:street" v="Industriestraße"/>
    <tag k="asb" v="70"/>
    <tag k="man_made" v="MDF"/>
    <tag k="note:de" v="http://wiki.openstreetmap.org/index.php/DE:DSL_Hauptverteiler"/>
    <tag k="onkz" v="7231"/>
    <tag k="operator" v="Deutsche Telekom AG"/>
    <tag k="source" v="Deutsche Telekom AG"/>
  </node>
  <node id="307202596" version="9" timestamp="2012-07-22T15:05:35Z" uid="148776" user="meridianeum" changeset="12434347" lat="48.8541678" lon="8.7011252">
    <tag k="addr:city" v="Pforzheim"/>
    <tag k="addr:housenumber" v="24"/>
    <tag k="addr:postcode" v="75181"/>
    <tag k="addr:street" v="Industriestraße"/>
    <tag k="asb" v="70"/>
    <tag k="man_made" v="MDF"/>
    <tag k="note:de" v="http://wiki.openstreetmap.org/index.php/DE:DSL_Hauptverteiler"/>
    <tag k="onkz" v="7231"/>
    <tag k="operator" v="Deutsche Telekom AG"/>
    <tag k="source" v="Deutsche Telekom AG"/>
  </node>
  <node id="307204534" version="5" timestamp="2012-06-02T14:29:05Z" uid="302600" user="roald-linus" changeset="11777501" lat="47.7455081" lon="8.4480018">
    <tag k="addr:city" v="Stühlingen"/>
    <tag k="addr:housenumber" v="15"/>
    <tag k="addr:postcode" v="79780"/>
    <tag k="addr:street" v="Hauptstraße"/>
    <tag k="asb" v="1"/>
    <tag k="man_made" v="MDF"/>
    <tag k="note:de" v="http://wiki.openstreetmap.org/index.php/DE:DSL_Hauptverteiler"/>
    <tag k="onkz" v="7744"/>
    <tag k="operator" v="Deutsche Telekom AG"/>
    <tag k="source" v="Deutsche Telekom AG"/>
  </node>
  <node id="307206760" version="9" timestamp="2012-07-17T10:27:09Z" uid="722137" user="OSMF Redaction Account" changeset="12263000" lat="47.7761365" lon="11.1401149">
    <tag k="addr:city" v="Huglfing"/>
    <tag k="addr:housenumber" v="23"/>
    <tag k="addr:postcode" v="82386"/>
    <tag k="addr:street" v="Weilheimer Straße"/>
    <tag k="asb" v="2"/>
    <tag k="man_made" v="MDF"/>
    <tag k="note:de" v="http://wiki.openstreetmap.org/index.php/DE:DSL_Hauptverteiler"/>
    <tag k="onkz" v="8802"/>
    <tag k="operator" v="Deutsche Telekom AG"/>
    <tag k="source" v="Deutsche Telekom AG"/>
  </node>
  <node id="307206866" version="5" timestamp="2012-07-17T10:08:43Z" uid="722137" user="OSMF Redaction Account" changeset="12262615" lat="47.747888" lon="11.372067">
    <tag k="addr:city" v="Penzberg"/>
    <tag k="addr:housenumber" v="2A"/>
    <tag k="addr:postcode" v="82377"/>
    <tag k="addr:street" v="Meichelbeckstraße"/>
    <tag k="asb" v="2"/>
    <tag k="man_made" v="MDF"/>
    <tag k="note:de" v="http://wiki.openstreetmap.org/index.php/DE:DSL_Hauptverteiler"/>
    <tag k="onkz" v="8856"/>
    <tag k="operator" v="Deutsche Telekom AG"/>
  </node>
  <node id="307208215" version="6" timestamp="2012-08-24T20:09:24Z" uid="13565" user="hadhuey" changeset="12849092" lat="52.1823084" lon="11.6412936"/>
  <node id="307208235" version="3" timestamp="2012-04-06T13:47:55Z" uid="101337" user="bonzulu" changeset="11201990" lat="52.1776706" lon="11.6498542"/>
  <node id="307208239" version="3" timestamp="2012-04-06T13:47:58Z" uid="101337" user="bonzulu" changeset="11201990" lat="52.1784121" lon="11.6497164"/>
  <node id="307208243" version="3" timestamp="2012-04-06T13:47:55Z" uid="101337" user="bonzulu" changeset="11201990" lat="52.1787548" lon="11.6496678"/>
  <node id="307208248" version="2" timestamp="2012-04-06T13:47:55Z" uid="101337" user="bonzulu" changeset="11201990" lat="52.1794661" lon="11.6495669"/>
  <node id="307208253" version="3" timestamp="2012-04-06T13:47:55Z" uid="101337" user="bonzulu" changeset="11201990" lat="52.1798192" lon="11.6493386"/>
  <node id="307208258" version="3" timestamp="2012-04-06T13:47:56Z" uid="101337" user="bonzulu" changeset="11201990" lat="52.180113" lon="11.6492371"/>
  <node id="307208263" version="3" timestamp="2012-04-06T13:47:56Z" uid="101337" user="bonzulu" changeset="11201990" lat="52.1803977" lon="11.6492729"/>
  <node id="307208267" version="3" timestamp="2012-04-06T13:47:56Z" uid="101337" user="bonzulu" changeset="11201990" lat="52.1804017" lon="11.6496188"/>
  <node id="307208276" version="2" timestamp="2012-07-18T10:28:46Z" uid="722137" user="OSMF Redaction Account" changeset="12278123" lat="52.173202" lon="11.6511925"/>
  <node id="307208282" version="2" timestamp="2012-07-18T10:28:46Z" uid="722137" user="OSMF Redaction Account" changeset="12278123" lat="52.1732593" lon="11.6514009"/>
  <node id="307208285" version="2" timestamp="2012-07-18T10:28:46Z" uid="722137" user="OSMF Redaction Account" changeset="12278123" lat="52.1736241" lon="11.6513853"/>
  <node id="307208287" version="2" timestamp="2012-07-18T10:28:47Z" uid="722137" user="OSMF Redaction Account" changeset="12278123" lat="52.1739368" lon="11.6513749"/>
  <node id="307208290" version="2" timestamp="2012-07-18T10:28:47Z" uid="722137" user="OSMF Redaction Account" changeset="12278123" lat="52.1741401" lon="11.6512863"/>
  <node id="307208295" version="2" timestamp="2012-07-18T10:28:47Z" uid="722137" user="OSMF Redaction Account" changeset="12278123" lat="52.1742912" lon="11.6510934"/>
  <node id="307208300" version="2" timestamp="2012-07-18T10:28:47Z" uid="722137" user="OSMF Redaction Account" changeset="12278123" lat="52.1744267" lon="11.6507964"/>
  <node id="307208304" version="2" timestamp="2012-07-18T10:28:47Z" uid="722137" user="OSMF Redaction Account" changeset="12278123" lat="52.1745726" lon="11.6505306"/>
  <node id="307208308" version="2" timestamp="2012-07-18T10:28:47Z" uid="722137" user="OSMF Redaction Account" changeset="12278123" lat="52.1746664" lon="11.6503951"/>
  <node id="307208311" version="2" timestamp="2012-07-18T10:28:47Z" uid="722137" user="OSMF Redaction Account" changeset="12278123" lat="52.174828" lon="11.6503221"/>
  <node id="307208315" version="2" timestamp="2012-07-18T10:28:48Z" uid="722137" user="OSMF Redaction Account" changeset="12278123" lat="52.1750156" lon="11.6503013"/>
  <node id="307208320" version="2" timestamp="2012-07-18T10:28:48Z" uid="722137" user="OSMF Redaction Account" changeset="12278123" lat="52.1751459" lon="11.6503221"/>
  <node id="307208324" version="2" timestamp="2012-07-18T10:28:48Z" uid="722137" user="OSMF Redaction Account" changeset="12278123" lat="52.1753074" lon="11.6503482"/>
  <node id="307208329" version="2" timestamp="2012-07-18T10:28:49Z" uid="722137" user="OSMF Redaction Account" changeset="12278123" lat="52.1754325" lon="11.6503534"/>
  <node id="307208333" version="2" timestamp="2012-07-18T10:28:49Z" uid="722137" user="OSMF Redaction Account" changeset="12278123" lat="52.1754951" lon="11.6502857"/>
  <node id="307208336" version="2" timestamp="2012-07-18T10:28:50Z" uid="722137" user="OSMF Redaction Account" changeset="12278123" lat="52.1755159" lon="11.6500563"/>
  <node id="307208341" version="2" timestamp="2012-07-18T10:28:49Z" uid="722137" user="OSMF Redaction Account" changeset="12278123" lat="52.1755003" lon="11.6497958"/>
  <node id="307208346" version="2" timestamp="2012-07-18T10:28:49Z" uid="722137" user="OSMF Redaction Account" changeset="12278123" lat="52.1754638" lon="11.6494779"/>
  <node id="307208350" version="3" timestamp="2012-07-18T10:28:49Z" uid="722137" user="OSMF Redaction Account" changeset="12278123" lat="52.1754693" lon="11.6488338"/>
  <node id="307208354" version="3" timestamp="2012-07-18T10:28:49Z" uid="722137" user="OSMF Redaction Account" changeset="12278123" lat="52.1754487" lon="11.6483813"/>
  <node id="307208359" version="3" timestamp="2012-07-18T10:28:50Z" uid="722137" user="OSMF Redaction Account" changeset="12278123" lat="52.1755022" lon="11.6478127"/>
  <node id="307208362" version="3" timestamp="2012-07-18T10:28:50Z" uid="722137" user="OSMF Redaction Account" changeset="12278123" lat="52.175508" lon="11.6475625"/>
  <node id="307208367" version="3" timestamp="2012-07-18T10:28:50Z" uid="722137" user="OSMF Redaction Account" changeset="12278123" lat="52.1755374" lon="11.6474333"/>
  <node id="307208373" version="3" timestamp="2012-07-18T10:28:50Z" uid="722137" user="OSMF Redaction Account" changeset="12278123" lat="52.1755923" lon="11.647297"/>
  <node id="307208377" version="2" timestamp="2012-07-18T10:28:51Z" uid="722137" user="OSMF Redaction Account" changeset="12278123" lat="52.1756387" lon="11.6472213"/>
  <node id="307208645" version="3" timestamp="2012-07-18T10:28:49Z" uid="722137" user="OSMF Redaction Account" changeset="12278123" lat="52.1754967" lon="11.6489628"/>
  <node id="307208650" version="2" timestamp="2012-07-18T10:28:50Z" uid="722137" user="OSMF Redaction Account" changeset="12278123" lat="52.175612" lon="11.6488383"/>
  <node id="307208653" version="2" timestamp="2012-07-18T10:28:52Z" uid="722137" user="OSMF Redaction Account" changeset="12278123" lat="52.1757935" lon="11.6487235"/>
  <node id="307208657" version="2" timestamp="2012-07-18T10:28:53Z" uid="722137" user="OSMF Redaction Account" changeset="12278123" lat="52.1759589" lon="11.6486168"/>
  <node id="307208663" version="3" timestamp="2012-07-18T10:28:56Z" uid="722137" user="OSMF Redaction Account" changeset="12278138" lat="52.1762097" lon="11.648447"/>
  <node id="307208666" version="2" timestamp="2012-05-03T16:38:15Z" uid="390227" user="richtkreiser" changeset="11490434" lat="52.1728609" lon="11.6471271"/>
</osm>
