<?xml version='1.0' encoding='UTF-8'?>
<osm version="0.6" generator="libosmium/2.20.0">
  <node id="308370032" version="3" timestamp="2009-01-01T14:26:07Z" uid="6975" user="ulfl" changeset="699648" lat="47.8628566" lon="12.006842">
    <tag k="shop" v="clothes"/>
  </node>
  <node id="308370032" version="4" timestamp="2009-10-05T17:57:37Z" uid="70260" user="user18" changeset="2752998" lat="47.8628598" lon="12.0068365">
    <tag k="addr:city" v="Bad Aibling"/>
    <tag k="addr:country" v="DE"/>
    <tag k="addr:housenumber" v="2"/>
    <tag k="addr:postcode" v="83043"/>
    <tag k="addr:street" v="Sedanstraße"/>
    <tag k="name" v="Wäscheparadies"/>
    <tag k="shop" v="clothes"/>
  </node>
  <node id="308370032" version="5" timestamp="2011-04-23T18:27:41Z" uid="70260" user="user18" changeset="7946079" lat="47.8628979" lon="12.0068864">
    <tag k="addr:city" v="Bad Aibling"/>
    <tag k="addr:country" v="DE"/>
    <tag k="addr:housenumber" v="2"/>
    <tag k="addr:postcode" v="83043"/>
    <tag k="addr:street" v="Sedanstraße"/>
    <tag k="name" v="Wäscheparadies"/>
    <tag k="shop" v="clothes"/>
  </node>
</osm>
