<?xml version='1.0' encoding='UTF-8'?>
<osm version="0.6" generator="libosmium/2.20.0">
  <node id="315330552" version="2" timestamp="2008-12-04T19:26:38Z" uid="6975" user="ulfl" changeset="107048" lat="52.025512" lon="8.522934">
    <tag k="amenity" v="cafe"/>
    <tag k="cuisine" v="icecream"/>
    <tag k="food" v="yes"/>
    <tag k="name" v="Eiscafe Venezia"/>
  </node>
  <node id="315330552" version="3" timestamp="2009-07-17T05:58:14Z" uid="12448" user="Hartmut Holzgraefe" changeset="1850761" lat="52.025512" lon="8.522934">
    <tag k="addr:housenumber" v="38"/>
    <tag k="addr:postcode" v="33615"/>
    <tag k="addr:street" v="Stapenhorststraße"/>
    <tag k="amenity" v="cafe"/>
    <tag k="cuisine" v="icecream"/>
    <tag k="food" v="yes"/>
    <tag k="name" v="Eiscafe Venezia"/>
  </node>
  <node id="315330552" version="4" timestamp="2009-07-27T20:14:14Z" uid="12448" user="Hartmut Holzgraefe" changeset="1959385" lat="52.025512" lon="8.522934">
    <tag k="addr:city" v="Bielefeld"/>
    <tag k="addr:country" v="DE"/>
    <tag k="addr:housenumber" v="38"/>
    <tag k="addr:postcode" v="33615"/>
    <tag k="addr:street" v="Stapenhorststraße"/>
    <tag k="amenity" v="cafe"/>
    <tag k="cuisine" v="icecream"/>
    <tag k="food" v="yes"/>
    <tag k="name" v="Eiscafe Venezia"/>
  </node>
  <node id="315330552" version="5" timestamp="2009-08-12T12:54:35Z" uid="31231" user="Andre68" changeset="2118521" lat="52.025512" lon="8.522934">
    <tag k="addr:city" v="Bielefeld"/>
    <tag k="addr:country" v="DE"/>
    <tag k="addr:housenumber" v="38"/>
    <tag k="addr:postcode" v="33615"/>
    <tag k="addr:street" v="Stapenhorststraße"/>
    <tag k="amenity" v="cafe"/>
    <tag k="cuisine" v="ice_cream"/>
    <tag k="food" v="yes"/>
    <tag k="name" v="Eiscafe Venezia"/>
  </node>
  <node id="315330552" version="6" timestamp="2011-08-16T16:40:37Z" uid="290680" user="wheelmap_visitor" changeset="9038631" lat="52.025512" lon="8.522934">
    <tag k="addr:city" v="Bielefeld"/>
    <tag k="addr:country" v="DE"/>
    <tag k="addr:housenumber" v="38"/>
    <tag k="addr:postcode" v="33615"/>
    <tag k="addr:street" v="Stapenhorststraße"/>
    <tag k="amenity" v="cafe"/>
    <tag k="cuisine" v="ice_cream"/>
    <tag k="food" v="yes"/>
    <tag k="name" v="Eiscafe Venezia"/>
    <tag k="wheelchair" v="limited"/>
  </node>
  <node id="315330552" version="7" timestamp="2011-09-22T14:30:52Z" uid="12448" user="Hartmut Holzgraefe" changeset="9368603" lat="52.0254834" lon="8.5229403">
    <tag k="addr:city" v="Bielefeld"/>
    <tag k="addr:country" v="DE"/>
    <tag k="addr:housenumber" v="38"/>
    <tag k="addr:postcode" v="33615"/>
    <tag k="addr:street" v="Stapenhorststraße"/>
    <tag k="amenity" v="cafe"/>
    <tag k="cuisine" v="ice_cream"/>
    <tag k="food" v="yes"/>
    <tag k="name" v="Eiscafe Venezia"/>
    <tag k="wheelchair" v="limited"/>
  </node>
  <node id="315336885" version="2" timestamp="2009-06-10T22:21:59Z" uid="36809" user="pfoten_weg_!_" changeset="1482367" lat="47.9861321" lon="11.2963421"/>
  <node id="315336886" version="2" timestamp="2009-06-10T23:24:03Z" uid="36809" user="pfoten_weg_!_" changeset="1482556" lat="47.9861642" lon="11.2965474"/>
  <node id="315338052" version="2" timestamp="2009-06-10T22:21:59Z" uid="36809" user="pfoten_weg_!_" changeset="1482367" lat="47.9861751" lon="11.2961917"/>
  <node id="315338052" version="3" timestamp="2012-02-18T18:27:53Z" uid="42393" user="mawi42" changeset="10722970" lat="47.9861568" lon="11.2961769"/>
  <node id="315336885" version="3" timestamp="2012-07-17T09:50:26Z" uid="722137" user="OSMF Redaction Account" changeset="12262204" lat="47.9861781" lon="11.2963558"/>
</osm>
