<?xml version='1.0' encoding='UTF-8'?>
<osm version="0.6" generator="libosmium/2.20.0">
  <node id="315950317" version="6" timestamp="2009-10-02T20:03:23Z" uid="86259" user="hasse_osm_korinthenkacker" changeset="2717024" lat="47.8623017" lon="11.7199299">
    <tag k="addr:city" v="Lochham"/>
    <tag k="addr:country" v="DE"/>
    <tag k="addr:housenumber" v="11"/>
    <tag k="addr:postcode" v="83627"/>
    <tag k="addr:street" v="Birkerfeld"/>
    <tag k="name" v="SpeditionMajewski"/>
  </node>
  <node id="315950317" version="7" timestamp="2011-01-02T15:18:31Z" uid="42393" user="mawi42" changeset="6839266" lat="47.8623017" lon="11.7199299">
    <tag k="addr:city" v="Warngau"/>
    <tag k="addr:country" v="DE"/>
    <tag k="addr:housenumber" v="11"/>
    <tag k="addr:postcode" v="83627"/>
    <tag k="addr:street" v="Birkerfeld"/>
    <tag k="name" v="SpeditionMajewski"/>
  </node>
  <node id="315950317" version="8" timestamp="2011-04-10T18:55:56Z" uid="42393" user="mawi42" changeset="7826253" lat="47.8618158" lon="11.7198049">
    <tag k="addr:city" v="Warngau"/>
    <tag k="addr:country" v="DE"/>
    <tag k="addr:housenumber" v="11"/>
    <tag k="addr:postcode" v="83627"/>
    <tag k="addr:street" v="Birkerfeld"/>
    <tag k="name" v="Druckerei Desing GmbH"/>
  </node>
  <node id="315950522" version="6" timestamp="2009-10-02T20:03:23Z" uid="86259" user="hasse_osm_korinthenkacker" changeset="2717024" lat="47.8630388" lon="11.7199042">
    <tag k="addr:city" v="Lochham"/>
    <tag k="addr:country" v="DE"/>
    <tag k="addr:housenumber" v="15"/>
    <tag k="addr:postcode" v="83627"/>
    <tag k="addr:street" v="Birkerfeld"/>
    <tag k="name" v="SpeditionMajewski"/>
  </node>
  <node id="315950522" version="7" timestamp="2010-10-17T11:54:10Z" uid="42393" user="mawi42" changeset="6066056" lat="47.8630388" lon="11.7199042">
    <tag k="addr:city" v="Lochham"/>
    <tag k="addr:country" v="DE"/>
    <tag k="addr:housenumber" v="15"/>
    <tag k="addr:postcode" v="83627"/>
    <tag k="addr:street" v="Birkerfeld"/>
    <tag k="name" v="SpeditionMajewski"/>
    <tag k="website" v="http://www.spedition-majewski.de/html/deutsch/home/home.php"/>
  </node>
  <node id="315950522" version="8" timestamp="2011-01-02T15:18:30Z" uid="42393" user="mawi42" changeset="6839266" lat="47.8630388" lon="11.7199042">
    <tag k="addr:city" v="Warngau"/>
    <tag k="addr:country" v="DE"/>
    <tag k="addr:housenumber" v="15"/>
    <tag k="addr:postcode" v="83627"/>
    <tag k="addr:street" v="Birkerfeld"/>
    <tag k="name" v="SpeditionMajewski"/>
    <tag k="website" v="http://www.spedition-majewski.de/html/deutsch/home/home.php"/>
  </node>
  <node id="315950522" version="9" timestamp="2011-04-10T18:55:54Z" uid="42393" user="mawi42" changeset="7826253" lat="47.862658" lon="11.7199552">
    <tag k="addr:city" v="Warngau"/>
    <tag k="addr:country" v="DE"/>
    <tag k="addr:housenumber" v="15"/>
    <tag k="addr:postcode" v="83627"/>
    <tag k="addr:street" v="Birkerfeld"/>
    <tag k="name" v="Elektro ESR Elektroanlagen Stadler GmbH"/>
    <tag k="website" v="http://www.spedition-majewski.de/html/deutsch/home/home.php"/>
  </node>
  <node id="315951031" version="6" timestamp="2009-10-02T20:03:23Z" uid="86259" user="hasse_osm_korinthenkacker" changeset="2717024" lat="47.8612536" lon="11.7201789">
    <tag k="addr:city" v="Lochham"/>
    <tag k="addr:country" v="DE"/>
    <tag k="addr:housenumber" v="2"/>
    <tag k="addr:postcode" v="83627"/>
    <tag k="addr:street" v="Birkerfeld"/>
    <tag k="name" v="SpeditionMajewski"/>
  </node>
  <node id="315951031" version="7" timestamp="2011-01-02T15:18:34Z" uid="42393" user="mawi42" changeset="6839266" lat="47.8612536" lon="11.7201789">
    <tag k="addr:city" v="Warngau"/>
    <tag k="addr:country" v="DE"/>
    <tag k="addr:housenumber" v="2"/>
    <tag k="addr:postcode" v="83627"/>
    <tag k="addr:street" v="Birkerfeld"/>
    <tag k="name" v="SpeditionMajewski"/>
  </node>
  <node id="315951528" version="7" timestamp="2009-10-02T20:03:25Z" uid="86259" user="hasse_osm_korinthenkacker" changeset="2717024" lat="47.8634879" lon="11.7213633">
    <tag k="addr:city" v="Lochham"/>
    <tag k="addr:country" v="DE"/>
    <tag k="addr:housenumber" v="22"/>
    <tag k="addr:postcode" v="83627"/>
    <tag k="addr:street" v="Birkerfeld"/>
    <tag k="name" v="BAYWA"/>
  </node>
  <node id="315951528" version="8" timestamp="2010-10-17T12:04:13Z" uid="42393" user="mawi42" changeset="6066056" lat="47.8634879" lon="11.7213633">
    <tag k="addr:city" v="Lochham"/>
    <tag k="addr:country" v="DE"/>
    <tag k="addr:housenumber" v="22"/>
    <tag k="addr:postcode" v="83627"/>
    <tag k="addr:street" v="Birkerfeld"/>
    <tag k="name" v="BAYWA"/>
  </node>
  <node id="315951739" version="6" timestamp="2009-10-02T20:03:24Z" uid="86259" user="hasse_osm_korinthenkacker" changeset="2717024" lat="47.8633267" lon="11.7203333">
    <tag k="addr:city" v="Lochham"/>
    <tag k="addr:country" v="DE"/>
    <tag k="addr:housenumber" v="25"/>
    <tag k="addr:postcode" v="83627"/>
    <tag k="addr:street" v="Birkerfeld"/>
    <tag k="name" v="BAYWA"/>
  </node>
  <node id="315951739" version="7" timestamp="2010-10-17T12:16:24Z" uid="42393" user="mawi42" changeset="6066056" lat="47.8633268" lon="11.7203332">
    <tag k="addr:city" v="Lochham"/>
    <tag k="addr:country" v="DE"/>
    <tag k="addr:housenumber" v="25"/>
    <tag k="addr:postcode" v="83627"/>
    <tag k="addr:street" v="Birkerfeld"/>
    <tag k="name" v="Firma Raßhofer"/>
  </node>
  <node id="315951739" version="8" timestamp="2011-01-02T15:18:33Z" uid="42393" user="mawi42" changeset="6839266" lat="47.8633268" lon="11.7203332">
    <tag k="addr:city" v="Warngau"/>
    <tag k="addr:country" v="DE"/>
    <tag k="addr:housenumber" v="25"/>
    <tag k="addr:postcode" v="83627"/>
    <tag k="addr:street" v="Birkerfeld"/>
    <tag k="name" v="Firma Raßhofer"/>
  </node>
  <node id="315951739" version="9" timestamp="2011-04-10T18:55:57Z" uid="42393" user="mawi42" changeset="7826253" lat="47.8633059" lon="11.7204378">
    <tag k="addr:city" v="Warngau"/>
    <tag k="addr:country" v="DE"/>
    <tag k="addr:housenumber" v="25"/>
    <tag k="addr:postcode" v="83627"/>
    <tag k="addr:street" v="Birkerfeld"/>
    <tag k="name" v="Firma Raßhofer"/>
  </node>
  <node id="315952219" version="7" timestamp="2009-10-02T20:03:25Z" uid="86259" user="hasse_osm_korinthenkacker" changeset="2717024" lat="47.8637413" lon="11.7213719">
    <tag k="addr:city" v="Lochham"/>
    <tag k="addr:country" v="DE"/>
    <tag k="addr:housenumber" v="26"/>
    <tag k="addr:postcode" v="83627"/>
    <tag k="addr:street" v="Birkerfeld"/>
    <tag k="name" v="BAYWA"/>
  </node>
  <node id="315952219" version="8" timestamp="2011-01-02T15:18:31Z" uid="42393" user="mawi42" changeset="6839266" lat="47.8637413" lon="11.7213719">
    <tag k="addr:city" v="Warngau"/>
    <tag k="addr:country" v="DE"/>
    <tag k="addr:housenumber" v="26"/>
    <tag k="addr:postcode" v="83627"/>
    <tag k="addr:street" v="Birkerfeld"/>
    <tag k="name" v="BAYWA"/>
  </node>
  <node id="315952219" version="9" timestamp="2011-04-10T18:55:53Z" uid="42393" user="mawi42" changeset="7826253" lat="47.8637413" lon="11.7213719">
    <tag k="addr:city" v="Warngau"/>
    <tag k="addr:country" v="DE"/>
    <tag k="addr:housenumber" v="26"/>
    <tag k="addr:postcode" v="83627"/>
    <tag k="addr:street" v="Birkerfeld"/>
    <tag k="name" v="KT Klinkertechnik GmbH"/>
  </node>
  <node id="315952513" version="6" timestamp="2009-10-02T20:03:24Z" uid="86259" user="hasse_osm_korinthenkacker" changeset="2717024" lat="47.8635801" lon="11.7208655">
    <tag k="addr:city" v="Lochham"/>
    <tag k="addr:country" v="DE"/>
    <tag k="addr:housenumber" v="29"/>
    <tag k="addr:postcode" v="83627"/>
    <tag k="addr:street" v="Birkerfeld"/>
    <tag k="name" v="BAYWA"/>
  </node>
  <node id="315952513" version="7" timestamp="2010-10-17T12:14:21Z" uid="42393" user="mawi42" changeset="6066056" lat="47.8635801" lon="11.7208655">
    <tag k="addr:city" v="Lochham"/>
    <tag k="addr:country" v="DE"/>
    <tag k="addr:housenumber" v="29"/>
    <tag k="addr:postcode" v="83627"/>
    <tag k="addr:street" v="Birkerfeld"/>
    <tag k="name" v="Plöckl Industrieoptik"/>
    <tag k="website" v="http://www.industrieoptik.de"/>
  </node>
  <node id="315952513" version="8" timestamp="2011-01-02T15:18:30Z" uid="42393" user="mawi42" changeset="6839266" lat="47.8635801" lon="11.7208655">
    <tag k="addr:city" v="Warngau"/>
    <tag k="addr:country" v="DE"/>
    <tag k="addr:housenumber" v="29"/>
    <tag k="addr:postcode" v="83627"/>
    <tag k="addr:street" v="Birkerfeld"/>
    <tag k="name" v="Plöckl Industrieoptik"/>
    <tag k="website" v="http://www.industrieoptik.de"/>
  </node>
  <node id="315952513" version="9" timestamp="2011-04-10T18:55:58Z" uid="42393" user="mawi42" changeset="7826253" lat="47.8635801" lon="11.7208655">
    <tag k="addr:city" v="Warngau"/>
    <tag k="addr:country" v="DE"/>
    <tag k="addr:housenumber" v="29"/>
    <tag k="addr:postcode" v="83627"/>
    <tag k="addr:street" v="Birkerfeld"/>
    <tag k="name" v="Plöckl GmbH&amp;Co. Industrieoptik KG"/>
    <tag k="website" v="http://www.industrieoptik.de"/>
  </node>
  <node id="315952859" version="7" timestamp="2009-10-02T20:03:26Z" uid="86259" user="hasse_osm_korinthenkacker" changeset="2717024" lat="47.8649851" lon="11.7203763">
    <tag k="addr:city" v="Lochham"/>
    <tag k="addr:country" v="DE"/>
    <tag k="addr:housenumber" v="42"/>
    <tag k="addr:postcode" v="83627"/>
    <tag k="addr:street" v="Birkerfeld"/>
  </node>
  <node id="315952859" version="8" timestamp="2011-01-02T15:18:31Z" uid="42393" user="mawi42" changeset="6839266" lat="47.8649851" lon="11.7203763">
    <tag k="addr:city" v="Warngau"/>
    <tag k="addr:country" v="DE"/>
    <tag k="addr:housenumber" v="42"/>
    <tag k="addr:postcode" v="83627"/>
    <tag k="addr:street" v="Birkerfeld"/>
  </node>
  <node id="315952859" version="9" timestamp="2011-04-10T18:55:54Z" uid="42393" user="mawi42" changeset="7826253" lat="47.8649851" lon="11.7203763">
    <tag k="addr:city" v="Warngau"/>
    <tag k="addr:country" v="DE"/>
    <tag k="addr:housenumber" v="42"/>
    <tag k="addr:postcode" v="83627"/>
    <tag k="addr:street" v="Birkerfeld"/>
    <tag k="name" v="Weiß EDV Service"/>
  </node>
  <node id="315953277" version="2" timestamp="2010-07-30T09:00:20Z" uid="74617" user="JohnSmith" changeset="5352774" lat="48.1490503" lon="11.5460139">
    <tag k="name" v="L&apos;antipasto"/>
    <tag k="shop" v="deli"/>
  </node>
  <node id="315953287" version="2" timestamp="2010-07-30T09:00:14Z" uid="74617" user="JohnSmith" changeset="5352774" lat="48.1490476" lon="11.5458248">
    <tag k="name" v="Feinkost Grasso"/>
    <tag k="shop" v="deli"/>
  </node>
  <node id="315953446" version="2" timestamp="2010-07-30T09:00:21Z" uid="74617" user="JohnSmith" changeset="5352774" lat="48.1500237" lon="11.5389675">
    <tag k="name" v="Armin&apos;s Räucherkuchl"/>
    <tag k="shop" v="deli"/>
  </node>
  <node id="315953609" version="6" timestamp="2009-10-02T20:03:23Z" uid="86259" user="hasse_osm_korinthenkacker" changeset="2717024" lat="47.861006" lon="11.7198355">
    <tag k="addr:city" v="Lochham"/>
    <tag k="addr:country" v="DE"/>
    <tag k="addr:housenumber" v="3"/>
    <tag k="addr:postcode" v="83627"/>
    <tag k="addr:street" v="Birkerfeld"/>
  </node>
  <node id="315953609" version="7" timestamp="2011-01-02T15:18:32Z" uid="42393" user="mawi42" changeset="6839266" lat="47.861006" lon="11.7198355">
    <tag k="addr:city" v="Warngau"/>
    <tag k="addr:country" v="DE"/>
    <tag k="addr:housenumber" v="3"/>
    <tag k="addr:postcode" v="83627"/>
    <tag k="addr:street" v="Birkerfeld"/>
  </node>
  <node id="315953609" version="8" timestamp="2011-04-10T18:55:55Z" uid="42393" user="mawi42" changeset="7826253" lat="47.8605489" lon="11.7194187">
    <tag k="addr:city" v="Warngau"/>
    <tag k="addr:country" v="DE"/>
    <tag k="addr:housenumber" v="3"/>
    <tag k="addr:postcode" v="83627"/>
    <tag k="addr:street" v="Birkerfeld"/>
    <tag k="name" v="Hammans Cornelia Bildhauerei"/>
  </node>
  <node id="315954312" version="5" timestamp="2009-10-02T20:03:25Z" uid="86259" user="hasse_osm_korinthenkacker" changeset="2717024" lat="47.8639601" lon="11.7213633">
    <tag k="addr:city" v="Lochham"/>
    <tag k="addr:country" v="DE"/>
    <tag k="addr:housenumber" v="30"/>
    <tag k="addr:postcode" v="83627"/>
    <tag k="addr:street" v="Birkerfeld"/>
    <tag k="name" v="BAYWA"/>
  </node>
  <node id="315954312" version="6" timestamp="2010-10-17T12:18:06Z" uid="42393" user="mawi42" changeset="6066056" lat="47.8639602" lon="11.7213633">
    <tag k="addr:city" v="Lochham"/>
    <tag k="addr:country" v="DE"/>
    <tag k="addr:housenumber" v="30"/>
    <tag k="addr:postcode" v="83627"/>
    <tag k="addr:street" v="Birkerfeld"/>
    <tag k="name" v="Geiger Bauwerksanierung"/>
  </node>
  <node id="315954312" version="7" timestamp="2010-10-17T12:18:44Z" uid="42393" user="mawi42" changeset="6066056" lat="47.8639602" lon="11.7213633">
    <tag k="addr:city" v="Lochham"/>
    <tag k="addr:country" v="DE"/>
    <tag k="addr:housenumber" v="30"/>
    <tag k="addr:postcode" v="83627"/>
    <tag k="addr:street" v="Birkerfeld"/>
    <tag k="name" v="Geiger Bauwerksanierung"/>
    <tag k="website" v="http://www.geiger-bauwerksanierung.de"/>
  </node>
  <node id="315954312" version="8" timestamp="2011-01-02T15:18:33Z" uid="42393" user="mawi42" changeset="6839266" lat="47.8639602" lon="11.7213633">
    <tag k="addr:city" v="Warngau"/>
    <tag k="addr:country" v="DE"/>
    <tag k="addr:housenumber" v="30"/>
    <tag k="addr:postcode" v="83627"/>
    <tag k="addr:street" v="Birkerfeld"/>
    <tag k="name" v="Geiger Bauwerksanierung"/>
    <tag k="website" v="http://www.geiger-bauwerksanierung.de"/>
  </node>
  <node id="315954312" version="9" timestamp="2011-04-10T18:55:58Z" uid="42393" user="mawi42" changeset="7826253" lat="47.8639858" lon="11.7213633">
    <tag k="addr:city" v="Warngau"/>
    <tag k="addr:country" v="DE"/>
    <tag k="addr:housenumber" v="30"/>
    <tag k="addr:postcode" v="83627"/>
    <tag k="addr:street" v="Birkerfeld"/>
    <tag k="name" v="Geiger Bauwerksanierung"/>
    <tag k="website" v="http://www.geiger-bauwerksanierung.de"/>
  </node>
  <node id="315954312" version="10" timestamp="2011-04-17T06:41:00Z" uid="42393" user="mawi42" changeset="7884252" lat="47.8639975" lon="11.7214747">
    <tag k="addr:city" v="Warngau"/>
    <tag k="addr:country" v="DE"/>
    <tag k="addr:housenumber" v="30"/>
    <tag k="addr:postcode" v="83627"/>
    <tag k="addr:street" v="Birkerfeld"/>
    <tag k="name" v="Geiger Bauwerksanierung"/>
    <tag k="website" v="http://www.geiger-bauwerksanierung.de"/>
  </node>
  <node id="315954509" version="5" timestamp="2009-10-02T20:03:24Z" uid="86259" user="hasse_osm_korinthenkacker" changeset="2717024" lat="47.8639601" lon="11.7208483">
    <tag k="addr:city" v="Lochham"/>
    <tag k="addr:country" v="DE"/>
    <tag k="addr:housenumber" v="33"/>
    <tag k="addr:postcode" v="83627"/>
    <tag k="addr:street" v="Birkerfeld"/>
  </node>
  <node id="315954509" version="6" timestamp="2010-10-17T12:11:53Z" uid="42393" user="mawi42" changeset="6066056" lat="47.8639602" lon="11.7208482">
    <tag k="addr:city" v="Lochham"/>
    <tag k="addr:country" v="DE"/>
    <tag k="addr:housenumber" v="33"/>
    <tag k="addr:postcode" v="83627"/>
    <tag k="addr:street" v="Birkerfeld"/>
    <tag k="name" v="Firma GEVAS"/>
  </node>
  <node id="315954509" version="7" timestamp="2011-01-02T15:18:30Z" uid="42393" user="mawi42" changeset="6839266" lat="47.8639602" lon="11.7208482">
    <tag k="addr:city" v="Warngau"/>
    <tag k="addr:country" v="DE"/>
    <tag k="addr:housenumber" v="33"/>
    <tag k="addr:postcode" v="83627"/>
    <tag k="addr:street" v="Birkerfeld"/>
    <tag k="name" v="Firma GEVAS"/>
  </node>
  <node id="315954509" version="8" timestamp="2011-04-10T18:55:56Z" uid="42393" user="mawi42" changeset="7826253" lat="47.8638961" lon="11.7208992">
    <tag k="addr:city" v="Warngau"/>
    <tag k="addr:country" v="DE"/>
    <tag k="addr:housenumber" v="33"/>
    <tag k="addr:postcode" v="83627"/>
    <tag k="addr:street" v="Birkerfeld"/>
    <tag k="name" v="Firma GEVAS"/>
  </node>
  <node id="315954509" version="9" timestamp="2011-04-17T06:41:01Z" uid="42393" user="mawi42" changeset="7884252" lat="47.8639074" lon="11.7208498">
    <tag k="addr:city" v="Warngau"/>
    <tag k="addr:country" v="DE"/>
    <tag k="addr:housenumber" v="33"/>
    <tag k="addr:postcode" v="83627"/>
    <tag k="addr:street" v="Birkerfeld"/>
    <tag k="name" v="Firma GEVAS"/>
  </node>
  <node id="315954544" version="7" timestamp="2010-09-19T13:36:41Z" uid="9581" user="Lobelt" changeset="5819841" lat="49.5838008" lon="8.7936774"/>
  <node id="315954544" version="8" timestamp="2012-03-02T20:56:30Z" uid="60824" user="Carsten Güse" changeset="10852335" lat="49.5838236" lon="8.7936906"/>
  <node id="315954549" version="7" timestamp="2010-09-19T13:36:28Z" uid="9581" user="Lobelt" changeset="5819841" lat="49.5840045" lon="8.792139"/>
  <node id="315954551" version="8" timestamp="2010-09-19T13:36:14Z" uid="9581" user="Lobelt" changeset="5819841" lat="49.5836479" lon="8.7924298"/>
  <node id="315954551" version="9" timestamp="2012-03-02T20:56:30Z" uid="60824" user="Carsten Güse" changeset="10852335" lat="49.5836542" lon="8.7924316"/>
  <node id="315954553" version="8" timestamp="2010-09-19T13:36:11Z" uid="9581" user="Lobelt" changeset="5819841" lat="49.5838607" lon="8.791756"/>
  <node id="315954553" version="9" timestamp="2012-03-02T20:56:30Z" uid="60824" user="Carsten Güse" changeset="10852335" lat="49.5838544" lon="8.7917824"/>
  <node id="315954555" version="8" timestamp="2010-09-19T13:36:08Z" uid="9581" user="Lobelt" changeset="5819841" lat="49.5832974" lon="8.7933732"/>
  <node id="315954567" version="8" timestamp="2010-09-19T13:36:11Z" uid="9581" user="Lobelt" changeset="5819841" lat="49.583186" lon="8.793092"/>
  <node id="315954567" version="9" timestamp="2012-03-02T20:56:30Z" uid="60824" user="Carsten Güse" changeset="10852335" lat="49.5832037" lon="8.7930946"/>
  <node id="315954584" version="7" timestamp="2010-09-19T13:36:13Z" uid="9581" user="Lobelt" changeset="5819841" lat="49.5831846" lon="8.7904468"/>
  <node id="315954590" version="7" timestamp="2010-09-19T13:36:41Z" uid="9581" user="Lobelt" changeset="5819841" lat="49.5831419" lon="8.7894592"/>
  <node id="315954590" version="8" timestamp="2012-03-02T20:56:31Z" uid="60824" user="Carsten Güse" changeset="10852335" lat="49.5831527" lon="8.7894557"/>
  <node id="315954791" version="6" timestamp="2009-10-02T20:03:24Z" uid="86259" user="hasse_osm_korinthenkacker" changeset="2717024" lat="47.8644035" lon="11.7209342">
    <tag k="addr:city" v="Lochham"/>
    <tag k="addr:country" v="DE"/>
    <tag k="addr:housenumber" v="39"/>
    <tag k="addr:postcode" v="83627"/>
    <tag k="addr:street" v="Birkerfeld"/>
  </node>
  <node id="315954791" version="7" timestamp="2011-01-02T15:18:33Z" uid="42393" user="mawi42" changeset="6839266" lat="47.8644035" lon="11.7209342">
    <tag k="addr:city" v="Warngau"/>
    <tag k="addr:country" v="DE"/>
    <tag k="addr:housenumber" v="39"/>
    <tag k="addr:postcode" v="83627"/>
    <tag k="addr:street" v="Birkerfeld"/>
  </node>
  <node id="315955059" version="6" timestamp="2009-10-02T20:03:25Z" uid="86259" user="hasse_osm_korinthenkacker" changeset="2717024" lat="47.8645705" lon="11.7206252">
    <tag k="addr:city" v="Lochham"/>
    <tag k="addr:country" v="DE"/>
    <tag k="addr:housenumber" v="41"/>
    <tag k="addr:postcode" v="83627"/>
    <tag k="addr:street" v="Birkerfeld"/>
  </node>
  <node id="315955059" version="7" timestamp="2011-01-02T15:18:32Z" uid="42393" user="mawi42" changeset="6839266" lat="47.8645705" lon="11.7206252">
    <tag k="addr:city" v="Warngau"/>
    <tag k="addr:country" v="DE"/>
    <tag k="addr:housenumber" v="41"/>
    <tag k="addr:postcode" v="83627"/>
    <tag k="addr:street" v="Birkerfeld"/>
  </node>
  <node id="315956702" version="1" timestamp="2008-11-30T21:55:06Z" uid="4667" user="MapZ" changeset="814215" lat="50.1739996" lon="8.8837926"/>
  <node id="315956705" version="1" timestamp="2008-11-30T21:55:07Z" uid="4667" user="MapZ" changeset="814215" lat="50.1722315" lon="8.8840071"/>
  <node id="315956708" version="1" timestamp="2008-11-30T21:55:07Z" uid="4667" user="MapZ" changeset="814215" lat="50.1702102" lon="8.8842008"/>
  <node id="315956708" version="2" timestamp="2009-03-01T07:35:09Z" uid="31470" user="Tom63452" changeset="716271" lat="50.1702102" lon="8.8842008"/>
  <node id="315956711" version="1" timestamp="2008-11-30T21:55:07Z" uid="4667" user="MapZ" changeset="814215" lat="50.1695529" lon="8.8842685"/>
  <node id="315956711" version="2" timestamp="2009-03-01T07:35:07Z" uid="31470" user="Tom63452" changeset="716271" lat="50.1696566" lon="8.8842569"/>
  <node id="315956714" version="1" timestamp="2008-11-30T21:55:08Z" uid="4667" user="MapZ" changeset="814215" lat="50.1668308" lon="8.8845977"/>
  <node id="315956714" version="2" timestamp="2012-03-15T15:42:05Z" uid="41431" user="Rosty" changeset="10989526" lat="50.1668308" lon="8.8845977"/>
  <node id="315956717" version="1" timestamp="2008-11-30T21:55:08Z" uid="4667" user="MapZ" changeset="814215" lat="50.1653078" lon="8.8607057"/>
  <node id="315956717" version="2" timestamp="2011-12-11T18:44:56Z" uid="139202" user="mihof" changeset="10092860" lat="50.165355" lon="8.8605992"/>
  <node id="315956723" version="1" timestamp="2008-11-30T21:55:09Z" uid="4667" user="MapZ" changeset="814215" lat="50.1656318" lon="8.8613365"/>
  <node id="315956723" version="2" timestamp="2011-12-11T18:44:56Z" uid="139202" user="mihof" changeset="10092860" lat="50.1655688" lon="8.8610374"/>
  <node id="315956728" version="1" timestamp="2008-11-30T21:55:09Z" uid="4667" user="MapZ" changeset="814215" lat="50.1649197" lon="8.8618924"/>
  <node id="315956732" version="1" timestamp="2008-11-30T21:55:10Z" uid="4667" user="MapZ" changeset="814215" lat="50.1646836" lon="8.8611367"/>
  <node id="315956732" version="2" timestamp="2011-12-11T18:44:56Z" uid="139202" user="mihof" changeset="10092860" lat="50.1644579" lon="8.8612186"/>
  <node id="315957885" version="1" timestamp="2008-11-30T21:57:03Z" uid="4667" user="MapZ" changeset="814215" lat="50.1721679" lon="8.8727566">
    <tag k="highway" v="bus_stop"/>
  </node>
  <node id="315957885" version="2" timestamp="2009-03-22T20:28:01Z" uid="31470" user="Tom63452" changeset="844886" lat="50.1721679" lon="8.8727566">
    <tag k="highway" v="bus_stop"/>
  </node>
  <node id="315958245" version="1" timestamp="2008-11-30T21:57:26Z" uid="4667" user="MapZ" changeset="814215" lat="50.1755516" lon="8.8837549">
    <tag k="amenity" v="fuel"/>
  </node>
  <node id="315958245" version="2" timestamp="2012-03-15T15:42:05Z" uid="41431" user="Rosty" changeset="10989526" lat="50.1755516" lon="8.8837549"/>
  <node id="315958881" version="6" timestamp="2009-10-02T19:45:21Z" uid="86259" user="hasse_osm_korinthenkacker" changeset="2716821" lat="47.8873018" lon="11.6795538">
    <tag k="addr:city" v="Holzkirchen"/>
    <tag k="addr:country" v="DE"/>
    <tag k="addr:housenumber" v="1"/>
    <tag k="addr:postcode" v="83607"/>
    <tag k="addr:street" v="Inselkam"/>
  </node>
  <node id="315959662" version="5" timestamp="2009-10-02T19:45:39Z" uid="86259" user="hasse_osm_korinthenkacker" changeset="2716821" lat="47.889908" lon="11.6823266">
    <tag k="addr:city" v="Holzkirchen"/>
    <tag k="addr:country" v="DE"/>
    <tag k="addr:housenumber" v="2"/>
    <tag k="addr:postcode" v="83607"/>
    <tag k="addr:street" v="Inselkam"/>
  </node>
  <node id="315953277" version="3" timestamp="2012-04-24T20:15:12Z" uid="252905" user="phillus" changeset="11409095" lat="48.1490503" lon="11.5460139"/>
  <node id="315953287" version="3" timestamp="2012-04-24T20:15:12Z" uid="252905" user="phillus" changeset="11409095" lat="48.1490476" lon="11.5458248"/>
  <node id="315953446" version="3" timestamp="2012-07-17T19:18:19Z" uid="722137" user="OSMF Redaction Account" changeset="12270877" lat="48.1500237" lon="11.5389675">
    <tag k="name" v="Armin&apos;s Räucherkuchl"/>
    <tag k="shop" v="delicatessen"/>
  </node>
  <node id="315954549" version="8" timestamp="2012-07-17T00:10:55Z" uid="722137" user="OSMF Redaction Account" changeset="12253982" lat="49.5839419" lon="8.7921358"/>
  <node id="315954555" version="9" timestamp="2012-07-17T00:10:55Z" uid="722137" user="OSMF Redaction Account" changeset="12253982" lat="49.5832828" lon="8.7933957"/>
  <node id="315954584" version="8" timestamp="2012-07-17T00:10:55Z" uid="722137" user="OSMF Redaction Account" changeset="12253982" lat="49.5832013" lon="8.7908878"/>
  <node id="315956702" version="2" timestamp="2012-07-19T04:08:02Z" uid="722137" user="OSMF Redaction Account" changeset="12307663" lat="50.1739996" lon="8.8837926"/>
  <node id="315956705" version="2" timestamp="2012-07-19T04:08:02Z" uid="722137" user="OSMF Redaction Account" changeset="12307663" lat="50.1722315" lon="8.8840071"/>
  <node id="315956717" version="3" timestamp="2012-07-19T19:37:58Z" uid="65432" user="bmog" changeset="12345193" lat="50.165355" lon="8.8605992"/>
  <node id="315956723" version="3" timestamp="2012-07-19T19:37:58Z" uid="65432" user="bmog" changeset="12345193" lat="50.1655688" lon="8.8610374"/>
  <node id="315956728" version="2" timestamp="2012-07-19T04:29:36Z" uid="722137" user="OSMF Redaction Account" changeset="12308159" lat="50.1649197" lon="8.8618924"/>
  <node id="315956732" version="3" timestamp="2012-07-19T19:37:56Z" uid="65432" user="bmog" changeset="12345193" lat="50.1643887" lon="8.861202"/>
  <node id="315958881" version="7" timestamp="2012-08-05T19:06:23Z" uid="42393" user="mawi42" changeset="12624757" lat="47.8873018" lon="11.6795538"/>
  <node id="315959662" version="6" timestamp="2012-08-05T18:57:53Z" uid="42393" user="mawi42" changeset="12624757" lat="47.889908" lon="11.6823266"/>
</osm>
