<?xml version='1.0' encoding='UTF-8'?>
<osm version="0.6" generator="libosmium/2.20.0">
  <node id="316322409" version="12" timestamp="2011-03-06T09:44:49Z" uid="33382" user="de_muur" changeset="7471158" lat="53.6523278" lon="10.5136633"/>
  <node id="316322409" version="13" timestamp="2012-03-13T19:18:42Z" uid="63107" user="brogo" changeset="10970567" lat="53.6523278" lon="10.5136633"/>
  <node id="316322410" version="12" timestamp="2011-03-06T09:44:35Z" uid="33382" user="de_muur" changeset="7471158" lat="53.65241" lon="10.5136515"/>
  <node id="316322410" version="13" timestamp="2012-03-13T19:18:42Z" uid="63107" user="brogo" changeset="10970567" lat="53.65241" lon="10.5136515"/>
  <node id="316323322" version="9" timestamp="2011-03-06T09:44:39Z" uid="33382" user="de_muur" changeset="7471158" lat="53.6569777" lon="10.5132706"/>
  <node id="316323322" version="10" timestamp="2012-03-13T19:18:42Z" uid="63107" user="brogo" changeset="10970567" lat="53.6569777" lon="10.5132706"/>
  <node id="316323389" version="2" timestamp="2009-11-17T18:08:44Z" uid="17602" user="B10xyz" changeset="3143268" lat="45.4293102" lon="12.362192"/>
  <node id="316323678" version="2" timestamp="2010-07-29T09:42:07Z" uid="74617" user="JohnSmith" changeset="5344848" lat="48.4155184" lon="10.8562029">
    <tag k="amenity" v="emergency_phone"/>
    <tag k="emergency" v="phone"/>
    <tag k="operator" v="Straßenmeisterei"/>
    <tag k="source" v="Photo"/>
  </node>
  <node id="316323682" version="3" timestamp="2010-07-29T09:33:24Z" uid="74617" user="JohnSmith" changeset="5344848" lat="48.4145085" lon="10.8703687">
    <tag k="amenity" v="emergency_phone"/>
    <tag k="emergency" v="phone"/>
    <tag k="operator" v="Autobahnmeisterei"/>
    <tag k="source" v="Photo"/>
  </node>
  <node id="316323682" version="4" timestamp="2011-03-01T00:27:57Z" uid="24748" user="mabapla" changeset="7426018" lat="48.414493" lon="10.8696794">
    <tag k="amenity" v="emergency_phone"/>
    <tag k="emergency" v="phone"/>
    <tag k="operator" v="Autobahnmeisterei"/>
    <tag k="source" v="Photo"/>
  </node>
  <node id="316323684" version="2" timestamp="2010-07-29T09:29:21Z" uid="74617" user="JohnSmith" changeset="5344848" lat="48.4043348" lon="10.9522995">
    <tag k="amenity" v="emergency_phone"/>
    <tag k="emergency" v="phone"/>
    <tag k="operator" v="Straßenmeisterei"/>
    <tag k="source" v="Photo"/>
  </node>
  <node id="316323685" version="2" timestamp="2010-07-29T09:37:32Z" uid="74617" user="JohnSmith" changeset="5344848" lat="48.4007885" lon="10.9956432">
    <tag k="amenity" v="emergency_phone"/>
    <tag k="emergency" v="phone"/>
    <tag k="operator" v="Straßenmeisterei"/>
    <tag k="source" v="Photo"/>
  </node>
  <node id="316323686" version="2" timestamp="2010-07-29T09:17:25Z" uid="74617" user="JohnSmith" changeset="5344848" lat="48.3987014" lon="11.0185926">
    <tag k="amenity" v="emergency_phone"/>
    <tag k="emergency" v="phone"/>
    <tag k="operator" v="Straßenmeisterei"/>
    <tag k="source" v="Photo"/>
  </node>
  <node id="316328464" version="1" timestamp="2008-12-02T23:34:00Z" uid="82482" user="tcfjr" changeset="63060" lat="34.1031266" lon="-118.0760263">
    <tag k="amenity" v="police_station"/>
    <tag k="created_by" v="Potlatch 0.10f"/>
    <tag k="name" v="Los Angeles County Sheriff - Temple Station"/>
  </node>
  <node id="316328464" version="2" timestamp="2008-12-04T19:58:34Z" uid="6975" user="ulfl" changeset="107048" lat="34.1031266" lon="-118.0760263">
    <tag k="amenity" v="police"/>
    <tag k="name" v="Los Angeles County Sheriff - Temple Station"/>
  </node>
  <node id="316328464" version="3" timestamp="2008-12-22T19:40:49Z" uid="82482" user="tcfjr" changeset="558665" lat="34.1028533" lon="-118.0759864">
    <tag k="amenity" v="police"/>
    <tag k="created_by" v="Potlatch 0.10f"/>
    <tag k="name" v="Los Angeles County Sheriff - Temple Station"/>
  </node>
  <node id="316328464" version="4" timestamp="2010-05-20T07:32:40Z" uid="82317" user="AM909" changeset="4754492" lat="34.1028533" lon="-118.0759864">
    <tag k="amenity" v="police"/>
    <tag k="created_by" v="Potlatch 0.10f"/>
    <tag k="name" v="Los Angeles County Sheriff - Temple Station"/>
  </node>
  <node id="316323389" version="3" timestamp="2012-07-16T19:36:37Z" uid="722137" user="OSMF Redaction Account" changeset="12250442" lat="45.4293102" lon="12.362192"/>
  <node id="316323678" version="3" timestamp="2012-07-17T04:24:29Z" uid="722137" user="OSMF Redaction Account" changeset="12256779" lat="48.4155184" lon="10.8562029">
    <tag k="amenity" v="emergency_phone"/>
    <tag k="operator" v="Straßenmeisterei"/>
    <tag k="source" v="Photo"/>
  </node>
  <node id="316323678" version="4" timestamp="2012-09-08T12:35:07Z" uid="212111" user="okilimu" changeset="13033146" lat="48.4154571" lon="10.8561967">
    <tag k="amenity" v="emergency_phone"/>
    <tag k="operator" v="Straßenmeisterei"/>
    <tag k="source" v="Photo"/>
  </node>
  <node id="316323682" version="5" timestamp="2012-07-17T04:24:29Z" uid="722137" user="OSMF Redaction Account" changeset="12256779" lat="48.414493" lon="10.8696794">
    <tag k="amenity" v="emergency_phone"/>
    <tag k="operator" v="Autobahnmeisterei"/>
    <tag k="source" v="Photo"/>
  </node>
  <node id="316323684" version="3" timestamp="2012-07-17T03:56:48Z" uid="722137" user="OSMF Redaction Account" changeset="12256455" lat="48.4043348" lon="10.9522995">
    <tag k="amenity" v="emergency_phone"/>
    <tag k="operator" v="Straßenmeisterei"/>
    <tag k="source" v="Photo"/>
  </node>
  <node id="316323685" version="3" timestamp="2012-05-14T06:28:15Z" uid="212111" user="okilimu" changeset="11592768" lat="48.4007174" lon="10.9956392">
    <tag k="amenity" v="emergency_phone"/>
    <tag k="emergency" v="phone"/>
    <tag k="operator" v="Straßenmeisterei"/>
    <tag k="source" v="Photo"/>
  </node>
  <node id="316323685" version="4" timestamp="2012-07-17T03:56:48Z" uid="722137" user="OSMF Redaction Account" changeset="12256455" lat="48.4007174" lon="10.9956392">
    <tag k="amenity" v="emergency_phone"/>
    <tag k="operator" v="Straßenmeisterei"/>
    <tag k="source" v="Photo"/>
  </node>
  <node id="316323686" version="3" timestamp="2012-07-18T06:12:26Z" uid="722137" user="OSMF Redaction Account" changeset="12274966" lat="48.3987014" lon="11.0185926">
    <tag k="amenity" v="emergency_phone"/>
    <tag k="operator" v="Straßenmeisterei"/>
    <tag k="source" v="Photo"/>
  </node>
</osm>
