<?xml version='1.0' encoding='UTF-8'?>
<osm version="0.6" generator="libosmium/2.20.0">
  <node id="316490023" version="4" timestamp="2009-10-02T19:47:05Z" uid="86259" user="hasse_osm_korinthenkacker" changeset="2716821" lat="47.9019276" lon="11.671055">
    <tag k="addr:city" v="Otterfing"/>
    <tag k="addr:country" v="DE"/>
    <tag k="addr:housenumber" v="16"/>
    <tag k="addr:postcode" v="83624"/>
    <tag k="addr:street" v="Wendelsteinring"/>
    <tag k="source" v="survey"/>
  </node>
  <node id="316490023" version="5" timestamp="2009-10-23T11:32:42Z" uid="36809" user="pfoten_weg_!_" changeset="2928981" lat="47.9019276" lon="11.671055">
    <tag k="addr:city" v="Otterfing"/>
    <tag k="addr:country" v="DE"/>
    <tag k="addr:housenumber" v="16"/>
    <tag k="addr:postcode" v="83624"/>
    <tag k="addr:street" v="Wendelsteinring"/>
  </node>
  <node id="316490023" version="6" timestamp="2009-11-15T13:32:14Z" uid="42393" user="mawi42" changeset="3121790" lat="47.9018895" lon="11.6709584">
    <tag k="addr:city" v="Otterfing"/>
    <tag k="addr:country" v="DE"/>
    <tag k="addr:housenumber" v="16"/>
    <tag k="addr:postcode" v="83624"/>
    <tag k="addr:street" v="Wendelsteinring"/>
  </node>
  <node id="316490055" version="5" timestamp="2009-10-02T19:47:04Z" uid="86259" user="hasse_osm_korinthenkacker" changeset="2716821" lat="47.9018182" lon="11.6707717">
    <tag k="addr:city" v="Otterfing"/>
    <tag k="addr:country" v="DE"/>
    <tag k="addr:housenumber" v="18"/>
    <tag k="addr:postcode" v="83624"/>
    <tag k="addr:street" v="Wendelsteinring"/>
    <tag k="source" v="survey"/>
  </node>
  <node id="316490055" version="6" timestamp="2009-10-23T11:32:33Z" uid="36809" user="pfoten_weg_!_" changeset="2928981" lat="47.9018182" lon="11.6707717">
    <tag k="addr:city" v="Otterfing"/>
    <tag k="addr:country" v="DE"/>
    <tag k="addr:housenumber" v="18"/>
    <tag k="addr:postcode" v="83624"/>
    <tag k="addr:street" v="Wendelsteinring"/>
  </node>
  <node id="316490055" version="7" timestamp="2009-11-15T13:32:14Z" uid="42393" user="mawi42" changeset="3121790" lat="47.9017399" lon="11.6707266">
    <tag k="addr:city" v="Otterfing"/>
    <tag k="addr:country" v="DE"/>
    <tag k="addr:housenumber" v="18"/>
    <tag k="addr:postcode" v="83624"/>
    <tag k="addr:street" v="Wendelsteinring"/>
  </node>
  <node id="316490081" version="5" timestamp="2009-10-02T19:47:04Z" uid="86259" user="hasse_osm_korinthenkacker" changeset="2716821" lat="47.9017664" lon="11.6707116">
    <tag k="addr:city" v="Otterfing"/>
    <tag k="addr:country" v="DE"/>
    <tag k="addr:housenumber" v="20"/>
    <tag k="addr:postcode" v="83624"/>
    <tag k="addr:street" v="Wendelsteinring"/>
    <tag k="source" v="survey"/>
  </node>
  <node id="316490081" version="6" timestamp="2009-10-23T11:32:33Z" uid="36809" user="pfoten_weg_!_" changeset="2928981" lat="47.9017664" lon="11.6707116">
    <tag k="addr:city" v="Otterfing"/>
    <tag k="addr:country" v="DE"/>
    <tag k="addr:housenumber" v="20"/>
    <tag k="addr:postcode" v="83624"/>
    <tag k="addr:street" v="Wendelsteinring"/>
  </node>
  <node id="316490081" version="7" timestamp="2009-11-15T13:32:14Z" uid="42393" user="mawi42" changeset="3121790" lat="47.9017111" lon="11.6706923">
    <tag k="addr:city" v="Otterfing"/>
    <tag k="addr:country" v="DE"/>
    <tag k="addr:housenumber" v="20"/>
    <tag k="addr:postcode" v="83624"/>
    <tag k="addr:street" v="Wendelsteinring"/>
  </node>
  <node id="316490134" version="6" timestamp="2009-10-02T19:47:04Z" uid="86259" user="hasse_osm_korinthenkacker" changeset="2716821" lat="47.9016168" lon="11.6704799">
    <tag k="addr:city" v="Otterfing"/>
    <tag k="addr:country" v="DE"/>
    <tag k="addr:housenumber" v="22"/>
    <tag k="addr:postcode" v="83624"/>
    <tag k="addr:street" v="Wendelsteinring"/>
    <tag k="source" v="survey"/>
  </node>
  <node id="316490134" version="7" timestamp="2009-10-23T11:32:32Z" uid="36809" user="pfoten_weg_!_" changeset="2928981" lat="47.9016168" lon="11.6704799">
    <tag k="addr:city" v="Otterfing"/>
    <tag k="addr:country" v="DE"/>
    <tag k="addr:housenumber" v="22"/>
    <tag k="addr:postcode" v="83624"/>
    <tag k="addr:street" v="Wendelsteinring"/>
  </node>
  <node id="316490134" version="8" timestamp="2009-11-15T13:37:24Z" uid="42393" user="mawi42" changeset="3121790" lat="47.9015442" lon="11.6704691">
    <tag k="addr:city" v="Otterfing"/>
    <tag k="addr:country" v="DE"/>
    <tag k="addr:housenumber" v="22"/>
    <tag k="addr:postcode" v="83624"/>
    <tag k="addr:street" v="Wendelsteinring"/>
  </node>
  <node id="316490136" version="6" timestamp="2009-10-02T19:47:03Z" uid="86259" user="hasse_osm_korinthenkacker" changeset="2716821" lat="47.901565" lon="11.6704112">
    <tag k="addr:city" v="Otterfing"/>
    <tag k="addr:country" v="DE"/>
    <tag k="addr:housenumber" v="24"/>
    <tag k="addr:postcode" v="83624"/>
    <tag k="addr:street" v="Wendelsteinring"/>
    <tag k="source" v="survey"/>
  </node>
  <node id="316490136" version="7" timestamp="2009-10-23T11:32:31Z" uid="36809" user="pfoten_weg_!_" changeset="2928981" lat="47.901565" lon="11.6704112">
    <tag k="addr:city" v="Otterfing"/>
    <tag k="addr:country" v="DE"/>
    <tag k="addr:housenumber" v="24"/>
    <tag k="addr:postcode" v="83624"/>
    <tag k="addr:street" v="Wendelsteinring"/>
  </node>
  <node id="316490136" version="8" timestamp="2009-11-15T13:37:25Z" uid="42393" user="mawi42" changeset="3121790" lat="47.9015097" lon="11.6704262">
    <tag k="addr:city" v="Otterfing"/>
    <tag k="addr:country" v="DE"/>
    <tag k="addr:housenumber" v="24"/>
    <tag k="addr:postcode" v="83624"/>
    <tag k="addr:street" v="Wendelsteinring"/>
  </node>
  <node id="316490358" version="6" timestamp="2009-10-02T19:46:59Z" uid="86259" user="hasse_osm_korinthenkacker" changeset="2716821" lat="47.9012025" lon="11.6693383">
    <tag k="addr:city" v="Otterfing"/>
    <tag k="addr:country" v="DE"/>
    <tag k="addr:housenumber" v="24"/>
    <tag k="addr:postcode" v="83624"/>
    <tag k="addr:street" v="Hirschbergstraße"/>
    <tag k="source" v="survey"/>
  </node>
  <node id="316490358" version="7" timestamp="2009-10-23T11:32:08Z" uid="36809" user="pfoten_weg_!_" changeset="2928981" lat="47.9012025" lon="11.6693383">
    <tag k="addr:city" v="Otterfing"/>
    <tag k="addr:country" v="DE"/>
    <tag k="addr:housenumber" v="24"/>
    <tag k="addr:postcode" v="83624"/>
    <tag k="addr:street" v="Hirschbergstraße"/>
  </node>
  <node id="316490358" version="8" timestamp="2009-11-17T07:54:14Z" uid="42393" user="mawi42" changeset="3138886" lat="47.9011454" lon="11.6693392">
    <tag k="addr:city" v="Otterfing"/>
    <tag k="addr:country" v="DE"/>
    <tag k="addr:housenumber" v="24"/>
    <tag k="addr:postcode" v="83624"/>
    <tag k="addr:street" v="Hirschbergstraße"/>
  </node>
  <node id="316490360" version="6" timestamp="2009-10-02T19:46:58Z" uid="86259" user="hasse_osm_korinthenkacker" changeset="2716821" lat="47.9009436" lon="11.6695958">
    <tag k="addr:city" v="Otterfing"/>
    <tag k="addr:country" v="DE"/>
    <tag k="addr:housenumber" v="3"/>
    <tag k="addr:postcode" v="83624"/>
    <tag k="addr:street" v="Hirschbergstraße"/>
    <tag k="source" v="survey"/>
  </node>
  <node id="316490360" version="7" timestamp="2009-10-23T11:32:04Z" uid="36809" user="pfoten_weg_!_" changeset="2928981" lat="47.9009436" lon="11.6695958">
    <tag k="addr:city" v="Otterfing"/>
    <tag k="addr:country" v="DE"/>
    <tag k="addr:housenumber" v="3"/>
    <tag k="addr:postcode" v="83624"/>
    <tag k="addr:street" v="Hirschbergstraße"/>
  </node>
  <node id="316490360" version="8" timestamp="2009-11-17T07:57:40Z" uid="42393" user="mawi42" changeset="3138886" lat="47.9008807" lon="11.6696224">
    <tag k="addr:city" v="Otterfing"/>
    <tag k="addr:country" v="DE"/>
    <tag k="addr:housenumber" v="3"/>
    <tag k="addr:postcode" v="83624"/>
    <tag k="addr:street" v="Hirschbergstraße"/>
  </node>
  <node id="316490557" version="1" timestamp="2008-12-03T19:42:10Z" uid="23770" user="rorym" changeset="73284" lat="53.2055583" lon="-6.1050162">
    <tag k="created_by" v="Potlatch 0.10f"/>
  </node>
  <node id="316490557" version="2" timestamp="2008-12-03T19:42:52Z" uid="23770" user="rorym" changeset="73284" lat="53.2055583" lon="-6.1050162">
    <tag k="created_by" v="Potlatch 0.10f"/>
    <tag k="name" v="Bray Honda Center"/>
    <tag k="shop" v="motorcycles"/>
  </node>
  <node id="316490557" version="3" timestamp="2008-12-04T20:32:59Z" uid="6975" user="ulfl" changeset="107048" lat="53.2055583" lon="-6.1050162">
    <tag k="name" v="Bray Honda Center"/>
    <tag k="shop" v="motorcycle"/>
  </node>
  <node id="316490557" version="4" timestamp="2011-08-30T17:03:41Z" uid="166593" user="Nick Burrett" changeset="9169099" lat="53.2055583" lon="-6.1050162"/>
  <node id="316491910" version="1" timestamp="2008-12-03T19:51:37Z" uid="43863" user="Rundling" changeset="82725" lat="53.1806902" lon="10.6168714"/>
  <node id="316491913" version="1" timestamp="2008-12-03T19:51:37Z" uid="43863" user="Rundling" changeset="82725" lat="53.1809428" lon="10.6169791"/>
  <node id="316491914" version="1" timestamp="2008-12-03T19:51:37Z" uid="43863" user="Rundling" changeset="82725" lat="53.1809096" lon="10.6147329"/>
  <node id="316491916" version="1" timestamp="2008-12-03T19:51:37Z" uid="43863" user="Rundling" changeset="82725" lat="53.1854348" lon="10.6126292"/>
  <node id="316491916" version="2" timestamp="2008-12-03T19:59:57Z" uid="43863" user="Rundling" changeset="82725" lat="53.1854348" lon="10.6126292"/>
  <node id="316491917" version="1" timestamp="2008-12-03T19:51:37Z" uid="43863" user="Rundling" changeset="82725" lat="53.183706" lon="10.6134656"/>
  <node id="316491917" version="2" timestamp="2008-12-03T19:59:57Z" uid="43863" user="Rundling" changeset="82725" lat="53.183706" lon="10.6134656"/>
  <node id="316491918" version="1" timestamp="2008-12-03T19:51:37Z" uid="43863" user="Rundling" changeset="82725" lat="53.1880175" lon="10.6174781"/>
  <node id="316491918" version="2" timestamp="2008-12-03T19:59:57Z" uid="43863" user="Rundling" changeset="82725" lat="53.1880175" lon="10.6174781"/>
  <node id="316491920" version="1" timestamp="2008-12-03T19:51:37Z" uid="43863" user="Rundling" changeset="82725" lat="53.1844222" lon="10.6187551"/>
  <node id="316491920" version="2" timestamp="2008-12-03T19:59:56Z" uid="43863" user="Rundling" changeset="82725" lat="53.1844222" lon="10.6187551"/>
  <node id="316491922" version="1" timestamp="2008-12-03T19:51:38Z" uid="43863" user="Rundling" changeset="82725" lat="53.1842256" lon="10.6175257"/>
  <node id="316491922" version="2" timestamp="2008-12-03T19:59:56Z" uid="43863" user="Rundling" changeset="82725" lat="53.1842256" lon="10.6175257"/>
  <node id="316491923" version="1" timestamp="2008-12-03T19:51:38Z" uid="43863" user="Rundling" changeset="82725" lat="53.1869325" lon="10.6195222"/>
  <node id="316491923" version="2" timestamp="2008-12-03T19:59:56Z" uid="43863" user="Rundling" changeset="82725" lat="53.1869325" lon="10.6195222"/>
  <node id="316491925" version="1" timestamp="2008-12-03T19:51:38Z" uid="43863" user="Rundling" changeset="82725" lat="53.1845434" lon="10.6194829"/>
  <node id="316491925" version="2" timestamp="2008-12-03T19:59:56Z" uid="43863" user="Rundling" changeset="82725" lat="53.1845434" lon="10.6194829"/>
  <node id="316491927" version="1" timestamp="2008-12-03T19:51:38Z" uid="43863" user="Rundling" changeset="82725" lat="53.1855879" lon="10.6255349"/>
  <node id="316491929" version="1" timestamp="2008-12-03T19:51:38Z" uid="43863" user="Rundling" changeset="82725" lat="53.1863335" lon="10.6299463"/>
  <node id="316491930" version="1" timestamp="2008-12-03T19:51:38Z" uid="43863" user="Rundling" changeset="82725" lat="53.1863115" lon="10.6287926"/>
  <node id="316491937" version="1" timestamp="2008-12-03T19:51:38Z" uid="43863" user="Rundling" changeset="82725" lat="53.1888188" lon="10.6226848"/>
  <node id="316491942" version="1" timestamp="2008-12-03T19:51:38Z" uid="43863" user="Rundling" changeset="82725" lat="53.1880275" lon="10.629816"/>
  <node id="316491946" version="1" timestamp="2008-12-03T19:51:39Z" uid="43863" user="Rundling" changeset="82725" lat="53.1880275" lon="10.629896"/>
  <node id="316492472" version="6" timestamp="2009-10-02T19:46:59Z" uid="86259" user="hasse_osm_korinthenkacker" changeset="2716821" lat="47.9016524" lon="11.6691148">
    <tag k="addr:city" v="Otterfing"/>
    <tag k="addr:country" v="DE"/>
    <tag k="addr:housenumber" v="53"/>
    <tag k="addr:postcode" v="83624"/>
    <tag k="addr:street" v="Palnkamer Straße"/>
    <tag k="source" v="survey"/>
  </node>
  <node id="316492472" version="7" timestamp="2009-10-23T11:32:09Z" uid="36809" user="pfoten_weg_!_" changeset="2928981" lat="47.9016524" lon="11.6691148">
    <tag k="addr:city" v="Otterfing"/>
    <tag k="addr:country" v="DE"/>
    <tag k="addr:housenumber" v="53"/>
    <tag k="addr:postcode" v="83624"/>
    <tag k="addr:street" v="Palnkamer Straße"/>
  </node>
  <node id="316492472" version="8" timestamp="2009-11-17T07:59:09Z" uid="42393" user="mawi42" changeset="3138886" lat="47.9016172" lon="11.669116">
    <tag k="addr:city" v="Otterfing"/>
    <tag k="addr:country" v="DE"/>
    <tag k="addr:housenumber" v="53"/>
    <tag k="addr:postcode" v="83624"/>
    <tag k="addr:street" v="Palnkamer Straße"/>
  </node>
  <node id="316492506" version="6" timestamp="2009-10-02T19:46:59Z" uid="86259" user="hasse_osm_korinthenkacker" changeset="2716821" lat="47.9014557" lon="11.6689435">
    <tag k="addr:city" v="Otterfing"/>
    <tag k="addr:country" v="DE"/>
    <tag k="addr:housenumber" v="55"/>
    <tag k="addr:postcode" v="83624"/>
    <tag k="addr:street" v="Palnkamer Straße"/>
    <tag k="source" v="survey"/>
  </node>
  <node id="316492506" version="7" timestamp="2009-10-23T11:32:09Z" uid="36809" user="pfoten_weg_!_" changeset="2928981" lat="47.9014557" lon="11.6689435">
    <tag k="addr:city" v="Otterfing"/>
    <tag k="addr:country" v="DE"/>
    <tag k="addr:housenumber" v="55"/>
    <tag k="addr:postcode" v="83624"/>
    <tag k="addr:street" v="Palnkamer Straße"/>
  </node>
  <node id="316492506" version="8" timestamp="2009-11-17T07:54:13Z" uid="42393" user="mawi42" changeset="3138886" lat="47.9013871" lon="11.6689272">
    <tag k="addr:city" v="Otterfing"/>
    <tag k="addr:country" v="DE"/>
    <tag k="addr:housenumber" v="55"/>
    <tag k="addr:postcode" v="83624"/>
    <tag k="addr:street" v="Palnkamer Straße"/>
  </node>
  <node id="316492544" version="5" timestamp="2009-10-02T19:46:58Z" uid="86259" user="hasse_osm_korinthenkacker" changeset="2716821" lat="47.9012025" lon="11.6687032">
    <tag k="addr:city" v="Otterfing"/>
    <tag k="addr:country" v="DE"/>
    <tag k="addr:housenumber" v="57"/>
    <tag k="addr:postcode" v="83624"/>
    <tag k="addr:street" v="Palnkamer Straße"/>
    <tag k="source" v="survey"/>
  </node>
  <node id="316492544" version="6" timestamp="2009-10-23T11:32:03Z" uid="36809" user="pfoten_weg_!_" changeset="2928981" lat="47.9012025" lon="11.6687032">
    <tag k="addr:city" v="Otterfing"/>
    <tag k="addr:country" v="DE"/>
    <tag k="addr:housenumber" v="57"/>
    <tag k="addr:postcode" v="83624"/>
    <tag k="addr:street" v="Palnkamer Straße"/>
  </node>
  <node id="316492544" version="7" timestamp="2009-11-17T07:54:14Z" uid="42393" user="mawi42" changeset="3138886" lat="47.9011684" lon="11.6687212">
    <tag k="addr:city" v="Otterfing"/>
    <tag k="addr:country" v="DE"/>
    <tag k="addr:housenumber" v="57"/>
    <tag k="addr:postcode" v="83624"/>
    <tag k="addr:street" v="Palnkamer Straße"/>
  </node>
  <node id="316492552" version="7" timestamp="2009-10-02T19:46:57Z" uid="86259" user="hasse_osm_korinthenkacker" changeset="2716821" lat="47.9009312" lon="11.6685183">
    <tag k="addr:city" v="Otterfing"/>
    <tag k="addr:country" v="DE"/>
    <tag k="addr:housenumber" v="59"/>
    <tag k="addr:postcode" v="83624"/>
    <tag k="addr:street" v="Palnkamer Straße"/>
    <tag k="source" v="survey"/>
  </node>
  <node id="316492552" version="8" timestamp="2009-10-23T11:32:02Z" uid="36809" user="pfoten_weg_!_" changeset="2928981" lat="47.9009312" lon="11.6685183">
    <tag k="addr:city" v="Otterfing"/>
    <tag k="addr:country" v="DE"/>
    <tag k="addr:housenumber" v="59"/>
    <tag k="addr:postcode" v="83624"/>
    <tag k="addr:street" v="Palnkamer Straße"/>
  </node>
  <node id="316492552" version="9" timestamp="2009-11-17T07:57:40Z" uid="42393" user="mawi42" changeset="3138886" lat="47.9009037" lon="11.6685066">
    <tag k="addr:city" v="Otterfing"/>
    <tag k="addr:country" v="DE"/>
    <tag k="addr:housenumber" v="59"/>
    <tag k="addr:postcode" v="83624"/>
    <tag k="addr:street" v="Palnkamer Straße"/>
  </node>
  <node id="316492552" version="10" timestamp="2011-01-05T12:35:10Z" uid="42393" user="mawi42" changeset="6870979" lat="47.9009253" lon="11.6685066">
    <tag k="addr:city" v="Otterfing"/>
    <tag k="addr:country" v="DE"/>
    <tag k="addr:housenumber" v="59"/>
    <tag k="addr:postcode" v="83624"/>
    <tag k="addr:street" v="Palnkamer Straße"/>
  </node>
  <node id="316492682" version="5" timestamp="2009-10-02T19:46:58Z" uid="86259" user="hasse_osm_korinthenkacker" changeset="2716821" lat="47.9009896" lon="11.6690036">
    <tag k="addr:city" v="Otterfing"/>
    <tag k="addr:country" v="DE"/>
    <tag k="addr:housenumber" v="2"/>
    <tag k="addr:postcode" v="83624"/>
    <tag k="addr:street" v="Hirschbergstraße"/>
    <tag k="source" v="survey"/>
  </node>
  <node id="316492682" version="6" timestamp="2009-10-23T11:32:04Z" uid="36809" user="pfoten_weg_!_" changeset="2928981" lat="47.9009896" lon="11.6690036">
    <tag k="addr:city" v="Otterfing"/>
    <tag k="addr:country" v="DE"/>
    <tag k="addr:housenumber" v="2"/>
    <tag k="addr:postcode" v="83624"/>
    <tag k="addr:street" v="Hirschbergstraße"/>
  </node>
  <node id="316492682" version="7" timestamp="2009-11-17T07:57:40Z" uid="42393" user="mawi42" changeset="3138886" lat="47.9009267" lon="11.6690216">
    <tag k="addr:city" v="Otterfing"/>
    <tag k="addr:country" v="DE"/>
    <tag k="addr:housenumber" v="2"/>
    <tag k="addr:postcode" v="83624"/>
    <tag k="addr:street" v="Hirschbergstraße"/>
  </node>
  <node id="316492715" version="6" timestamp="2009-10-02T19:46:58Z" uid="86259" user="hasse_osm_korinthenkacker" changeset="2716821" lat="47.900754" lon="11.6692239">
    <tag k="addr:city" v="Otterfing"/>
    <tag k="addr:country" v="DE"/>
    <tag k="addr:housenumber" v="4"/>
    <tag k="addr:postcode" v="83624"/>
    <tag k="addr:street" v="Hirschbergstraße"/>
    <tag k="source" v="survey"/>
  </node>
  <node id="316492715" version="7" timestamp="2009-10-23T11:32:04Z" uid="36809" user="pfoten_weg_!_" changeset="2928981" lat="47.900754" lon="11.6692239">
    <tag k="addr:city" v="Otterfing"/>
    <tag k="addr:country" v="DE"/>
    <tag k="addr:housenumber" v="4"/>
    <tag k="addr:postcode" v="83624"/>
    <tag k="addr:street" v="Hirschbergstraße"/>
  </node>
  <node id="316492748" version="6" timestamp="2009-10-02T19:46:58Z" uid="86259" user="hasse_osm_korinthenkacker" changeset="2716821" lat="47.9004663" lon="11.6694556">
    <tag k="addr:city" v="Otterfing"/>
    <tag k="addr:country" v="DE"/>
    <tag k="addr:housenumber" v="6"/>
    <tag k="addr:postcode" v="83624"/>
    <tag k="addr:street" v="Hirschbergstraße"/>
    <tag k="source" v="survey"/>
  </node>
  <node id="316492748" version="7" timestamp="2009-10-23T11:32:05Z" uid="36809" user="pfoten_weg_!_" changeset="2928981" lat="47.9004663" lon="11.6694556">
    <tag k="addr:city" v="Otterfing"/>
    <tag k="addr:country" v="DE"/>
    <tag k="addr:housenumber" v="6"/>
    <tag k="addr:postcode" v="83624"/>
    <tag k="addr:street" v="Hirschbergstraße"/>
  </node>
  <node id="316492748" version="8" timestamp="2011-01-22T08:56:12Z" uid="42393" user="mawi42" changeset="7047687" lat="47.9004338" lon="11.6694863">
    <tag k="addr:city" v="Otterfing"/>
    <tag k="addr:country" v="DE"/>
    <tag k="addr:housenumber" v="6"/>
    <tag k="addr:postcode" v="83624"/>
    <tag k="addr:street" v="Hirschbergstraße"/>
  </node>
  <node id="316492807" version="6" timestamp="2009-10-02T19:46:58Z" uid="86259" user="hasse_osm_korinthenkacker" changeset="2716821" lat="47.9006504" lon="11.6701423">
    <tag k="addr:city" v="Otterfing"/>
    <tag k="addr:country" v="DE"/>
    <tag k="addr:housenumber" v="12"/>
    <tag k="addr:postcode" v="83624"/>
    <tag k="addr:street" v="Hirschbergstraße"/>
    <tag k="source" v="survey"/>
  </node>
  <node id="316492807" version="7" timestamp="2009-10-23T11:32:06Z" uid="36809" user="pfoten_weg_!_" changeset="2928981" lat="47.9006504" lon="11.6701423">
    <tag k="addr:city" v="Otterfing"/>
    <tag k="addr:country" v="DE"/>
    <tag k="addr:housenumber" v="12"/>
    <tag k="addr:postcode" v="83624"/>
    <tag k="addr:street" v="Hirschbergstraße"/>
  </node>
  <node id="316492833" version="4" timestamp="2009-10-02T19:46:58Z" uid="86259" user="hasse_osm_korinthenkacker" changeset="2716821" lat="47.9005926" lon="11.6698962">
    <tag k="addr:city" v="Otterfing"/>
    <tag k="addr:country" v="DE"/>
    <tag k="addr:housenumber" v="10"/>
    <tag k="addr:postcode" v="83624"/>
    <tag k="addr:street" v="Hirschbergstraße"/>
    <tag k="source" v="survey"/>
  </node>
  <node id="316492833" version="5" timestamp="2009-10-23T11:32:05Z" uid="36809" user="pfoten_weg_!_" changeset="2928981" lat="47.9005926" lon="11.6698962">
    <tag k="addr:city" v="Otterfing"/>
    <tag k="addr:country" v="DE"/>
    <tag k="addr:housenumber" v="10"/>
    <tag k="addr:postcode" v="83624"/>
    <tag k="addr:street" v="Hirschbergstraße"/>
  </node>
  <node id="316492833" version="6" timestamp="2011-01-22T08:56:12Z" uid="42393" user="mawi42" changeset="7047687" lat="47.900566" lon="11.6698753">
    <tag k="addr:city" v="Otterfing"/>
    <tag k="addr:country" v="DE"/>
    <tag k="addr:housenumber" v="10"/>
    <tag k="addr:postcode" v="83624"/>
    <tag k="addr:street" v="Hirschbergstraße"/>
  </node>
  <node id="316492914" version="6" timestamp="2009-10-02T19:46:59Z" uid="86259" user="hasse_osm_korinthenkacker" changeset="2716821" lat="47.9014154" lon="11.6690208">
    <tag k="addr:city" v="Otterfing"/>
    <tag k="addr:country" v="DE"/>
    <tag k="addr:housenumber" v="2a"/>
    <tag k="addr:postcode" v="83624"/>
    <tag k="addr:street" v="Hirschbergstraße"/>
    <tag k="source" v="survey"/>
  </node>
  <node id="316492914" version="7" timestamp="2009-10-23T11:32:08Z" uid="36809" user="pfoten_weg_!_" changeset="2928981" lat="47.9014154" lon="11.6690208">
    <tag k="addr:city" v="Otterfing"/>
    <tag k="addr:country" v="DE"/>
    <tag k="addr:housenumber" v="2a"/>
    <tag k="addr:postcode" v="83624"/>
    <tag k="addr:street" v="Hirschbergstraße"/>
  </node>
  <node id="316492914" version="8" timestamp="2009-11-17T07:54:17Z" uid="42393" user="mawi42" changeset="3138886" lat="47.9013641" lon="11.6689958">
    <tag k="addr:city" v="Otterfing"/>
    <tag k="addr:country" v="DE"/>
    <tag k="addr:housenumber" v="2a"/>
    <tag k="addr:postcode" v="83624"/>
    <tag k="addr:street" v="Hirschbergstraße"/>
  </node>
  <node id="316494735" version="1" timestamp="2008-12-03T19:59:50Z" uid="43863" user="Rundling" changeset="82725" lat="53.1850707" lon="10.6232617"/>
  <node id="316494737" version="1" timestamp="2008-12-03T19:59:50Z" uid="43863" user="Rundling" changeset="82725" lat="53.1877405" lon="10.6222984"/>
  <node id="316494739" version="1" timestamp="2008-12-03T19:59:50Z" uid="43863" user="Rundling" changeset="82725" lat="53.1880543" lon="10.6195817"/>
  <node id="316494741" version="1" timestamp="2008-12-03T19:59:50Z" uid="43863" user="Rundling" changeset="82725" lat="53.1878465" lon="10.6195953"/>
  <node id="316494743" version="1" timestamp="2008-12-03T19:59:50Z" uid="43863" user="Rundling" changeset="82725" lat="53.187831" lon="10.6199103"/>
  <node id="316494744" version="1" timestamp="2008-12-03T19:59:50Z" uid="43863" user="Rundling" changeset="82725" lat="53.1863247" lon="10.6236663"/>
  <node id="316494745" version="1" timestamp="2008-12-03T19:59:50Z" uid="43863" user="Rundling" changeset="82725" lat="53.1873525" lon="10.6222998"/>
  <node id="316494747" version="1" timestamp="2008-12-03T19:59:51Z" uid="43863" user="Rundling" changeset="82725" lat="53.1873812" lon="10.6235477"/>
  <node id="316494748" version="1" timestamp="2008-12-03T19:59:51Z" uid="43863" user="Rundling" changeset="82725" lat="53.1862401" lon="10.6254781"/>
  <node id="316494750" version="1" timestamp="2008-12-03T19:59:51Z" uid="43863" user="Rundling" changeset="82725" lat="53.1855935" lon="10.6255044"/>
  <node id="316494752" version="1" timestamp="2008-12-03T19:59:51Z" uid="43863" user="Rundling" changeset="82725" lat="53.1849285" lon="10.621377"/>
  <node id="316494753" version="1" timestamp="2008-12-03T19:59:51Z" uid="43863" user="Rundling" changeset="82725" lat="53.184162" lon="10.6112454"/>
  <node id="316494755" version="1" timestamp="2008-12-03T19:59:51Z" uid="43863" user="Rundling" changeset="82725" lat="53.1850378" lon="10.6109581"/>
  <node id="316494756" version="1" timestamp="2008-12-03T19:59:51Z" uid="43863" user="Rundling" changeset="82725" lat="53.1877839" lon="10.6210805"/>
  <node id="316494758" version="1" timestamp="2008-12-03T19:59:51Z" uid="43863" user="Rundling" changeset="82725" lat="53.1880525" lon="10.6184887"/>
  <node id="316494759" version="1" timestamp="2008-12-03T19:59:51Z" uid="43863" user="Rundling" changeset="82725" lat="53.1880547" lon="10.6179411"/>
  <node id="316495849" version="2" timestamp="2009-09-30T13:39:08Z" uid="36809" user="pfoten_weg_!_" changeset="2688655" lat="48.2491459" lon="11.3171445">
    <tag k="amenity" v="emergency_phone"/>
    <tag k="operator" v="Straßenmeisterei"/>
  </node>
  <node id="316495849" version="3" timestamp="2010-07-29T09:12:16Z" uid="74617" user="JohnSmith" changeset="5344848" lat="48.2491459" lon="11.3171445">
    <tag k="amenity" v="emergency_phone"/>
    <tag k="emergency" v="phone"/>
    <tag k="operator" v="Straßenmeisterei"/>
  </node>
  <node id="316495850" version="2" timestamp="2010-07-29T09:34:21Z" uid="74617" user="JohnSmith" changeset="5344848" lat="48.2427555" lon="11.3301054">
    <tag k="amenity" v="emergency_phone"/>
    <tag k="emergency" v="phone"/>
    <tag k="operator" v="Straßenmeisterei"/>
    <tag k="source" v="Photo"/>
  </node>
  <node id="316495853" version="3" timestamp="2010-07-29T09:38:30Z" uid="74617" user="JohnSmith" changeset="5344848" lat="48.233616" lon="11.3475056">
    <tag k="amenity" v="emergency_phone"/>
    <tag k="emergency" v="phone"/>
    <tag k="operator" v="Autobahnmeisterei"/>
    <tag k="source" v="Photo"/>
  </node>
  <node id="316496527" version="1" timestamp="2008-12-03T20:15:45Z" uid="75939" user="sani" changeset="88910" lat="50.2911301" lon="7.4578759">
    <tag k="amenity" v="Kindergarten"/>
    <tag k="created_by" v="Potlatch 0.10f"/>
  </node>
  <node id="316496527" version="2" timestamp="2008-12-04T19:57:26Z" uid="6975" user="ulfl" changeset="107048" lat="50.2911301" lon="7.4578759">
    <tag k="amenity" v="kindergarten"/>
  </node>
  <node id="316496527" version="3" timestamp="2011-05-18T14:42:59Z" uid="179033" user="Radeln" changeset="8181737" lat="50.2911498" lon="7.4578408">
    <tag k="amenity" v="kindergarten"/>
  </node>
  <node id="316497626" version="3" timestamp="2011-02-26T10:35:33Z" uid="49111" user="Markus B" changeset="7398320" lat="49.5798902" lon="10.9707967"/>
  <node id="316497628" version="4" timestamp="2011-02-20T13:50:54Z" uid="49111" user="Markus B" changeset="7342630" lat="49.5638894" lon="10.9693794"/>
  <node id="316497630" version="4" timestamp="2011-02-20T13:50:54Z" uid="49111" user="Markus B" changeset="7342630" lat="49.5634957" lon="10.9699419"/>
  <node id="316497650" version="4" timestamp="2011-02-20T13:50:55Z" uid="49111" user="Markus B" changeset="7342630" lat="49.5634923" lon="10.9700316"/>
  <node id="316497651" version="3" timestamp="2011-02-20T14:41:39Z" uid="49111" user="Markus B" changeset="7343258" lat="49.5655296" lon="10.9717902"/>
  <node id="316497654" version="2" timestamp="2011-02-20T14:41:37Z" uid="49111" user="Markus B" changeset="7343258" lat="49.5656394" lon="10.9722697"/>
  <node id="316497655" version="2" timestamp="2011-02-20T14:41:30Z" uid="49111" user="Markus B" changeset="7343258" lat="49.5649647" lon="10.9692891"/>
  <node id="316497657" version="2" timestamp="2011-02-20T14:41:41Z" uid="49111" user="Markus B" changeset="7343258" lat="49.5652579" lon="10.9694362">
    <tag k="railway" v="level_crossing"/>
  </node>
  <node id="316497667" version="4" timestamp="2011-02-20T13:50:54Z" uid="49111" user="Markus B" changeset="7342630" lat="49.5636852" lon="10.9696448"/>
  <node id="316497668" version="2" timestamp="2011-02-20T13:50:55Z" uid="49111" user="Markus B" changeset="7342630" lat="49.5635613" lon="10.969442"/>
  <node id="316497670" version="5" timestamp="2011-02-26T10:35:42Z" uid="49111" user="Markus B" changeset="7398320" lat="49.5849151" lon="10.9720688"/>
  <node id="316497671" version="2" timestamp="2011-02-26T10:35:34Z" uid="49111" user="Markus B" changeset="7398320" lat="49.5849058" lon="10.9718717"/>
  <node id="316497671" version="3" timestamp="2011-02-26T13:33:19Z" uid="49111" user="Markus B" changeset="7399831" lat="49.5849058" lon="10.9718687"/>
  <node id="316499167" version="13" timestamp="2010-03-01T21:56:16Z" uid="110593" user="esetzer" changeset="4012932" lat="40.7733966" lon="-111.9850271">
    <tag k="note" v="none"/>
  </node>
  <node id="316499167" version="14" timestamp="2011-09-29T23:02:05Z" uid="207745" user="NE2" changeset="9431652" lat="40.7733966" lon="-111.9850271"/>
  <node id="316499784" version="3" timestamp="2008-12-22T08:58:59Z" uid="27600" user="Islanit" changeset="537609" lat="54.6849523" lon="8.9574597"/>
  <node id="316499784" version="4" timestamp="2011-11-07T18:30:50Z" uid="119236" user="ToddyS" changeset="9767365" lat="54.6849031" lon="8.9574195"/>
  <node id="316499785" version="2" timestamp="2008-12-22T08:58:59Z" uid="27600" user="Islanit" changeset="537609" lat="54.6849523" lon="8.9572874"/>
  <node id="316499785" version="3" timestamp="2011-11-07T18:30:50Z" uid="119236" user="ToddyS" changeset="9767365" lat="54.684906" lon="8.9572953"/>
  <node id="316499786" version="2" timestamp="2008-12-22T08:58:59Z" uid="27600" user="Islanit" changeset="537609" lat="54.6849622" lon="8.9570814"/>
  <node id="316499786" version="3" timestamp="2011-11-07T18:30:50Z" uid="119236" user="ToddyS" changeset="9767365" lat="54.6849743" lon="8.9570945"/>
  <node id="316499787" version="2" timestamp="2008-12-22T08:58:59Z" uid="27600" user="Islanit" changeset="537609" lat="54.685111" lon="8.956884"/>
  <node id="316499788" version="2" timestamp="2008-12-22T08:58:59Z" uid="27600" user="Islanit" changeset="537609" lat="54.685369" lon="8.956412"/>
  <node id="316499789" version="2" timestamp="2008-12-22T08:58:59Z" uid="27600" user="Islanit" changeset="537609" lat="54.6856965" lon="8.9559141"/>
  <node id="316499790" version="2" timestamp="2008-12-22T08:58:59Z" uid="27600" user="Islanit" changeset="537609" lat="54.6863018" lon="8.9551073"/>
  <node id="316499790" version="3" timestamp="2011-11-07T18:30:50Z" uid="119236" user="ToddyS" changeset="9767365" lat="54.6863443" lon="8.9550863"/>
  <node id="316499791" version="2" timestamp="2008-12-22T08:58:59Z" uid="27600" user="Islanit" changeset="537609" lat="54.6866491" lon="8.95497"/>
  <node id="316499792" version="2" timestamp="2008-12-22T08:58:59Z" uid="27600" user="Islanit" changeset="537609" lat="54.6870708" lon="8.9548842"/>
  <node id="316499792" version="3" timestamp="2011-11-07T18:30:50Z" uid="119236" user="ToddyS" changeset="9767365" lat="54.6870558" lon="8.9548656"/>
  <node id="316499793" version="5" timestamp="2008-12-22T08:58:59Z" uid="27600" user="Islanit" changeset="537609" lat="54.6873457" lon="8.9548513"/>
  <node id="316499793" version="6" timestamp="2009-02-05T22:25:11Z" uid="61552" user="goegeo" changeset="171885" lat="54.687374" lon="8.9548937"/>
  <node id="316499793" version="7" timestamp="2009-04-30T21:01:23Z" uid="61552" user="goegeo" changeset="1030948" lat="54.687363" lon="8.9547947"/>
  <node id="316499793" version="8" timestamp="2011-11-07T18:30:50Z" uid="119236" user="ToddyS" changeset="9767365" lat="54.6874103" lon="8.9547225"/>
  <node id="316499970" version="11" timestamp="2009-10-04T14:54:57Z" uid="20587" user="balrog-kun" changeset="2738034" lat="50.7209423" lon="7.0879653"/>
  <node id="316499970" version="12" timestamp="2010-06-07T22:53:12Z" uid="296845" user="rixtrick" changeset="4933335" lat="50.7209437" lon="7.0879663"/>
  <node id="316499970" version="13" timestamp="2011-08-05T17:14:48Z" uid="49785" user="mike67" changeset="8930933" lat="50.7209441" lon="7.0879677"/>
  <node id="316499971" version="9" timestamp="2009-10-04T14:54:57Z" uid="20587" user="balrog-kun" changeset="2738034" lat="50.7210136" lon="7.0878016"/>
  <node id="316499971" version="10" timestamp="2010-06-07T22:53:08Z" uid="296845" user="rixtrick" changeset="4933335" lat="50.7210124" lon="7.0878001"/>
  <node id="316499971" version="11" timestamp="2011-08-05T17:14:48Z" uid="49785" user="mike67" changeset="8930933" lat="50.7210109" lon="7.0878014"/>
  <node id="316499972" version="11" timestamp="2009-10-04T14:54:57Z" uid="20587" user="balrog-kun" changeset="2738034" lat="50.7208779" lon="7.0878962"/>
  <node id="316499972" version="12" timestamp="2009-12-20T13:06:01Z" uid="49785" user="mike67" changeset="3413343" lat="50.7208566" lon="7.0878773"/>
  <node id="316499972" version="13" timestamp="2010-06-07T22:53:03Z" uid="296845" user="rixtrick" changeset="4933335" lat="50.7208556" lon="7.0878754"/>
  <node id="316499972" version="14" timestamp="2011-08-05T17:14:48Z" uid="49785" user="mike67" changeset="8930933" lat="50.7208552" lon="7.0878786"/>
  <node id="316499973" version="8" timestamp="2009-10-04T14:54:57Z" uid="20587" user="balrog-kun" changeset="2738034" lat="50.7209512" lon="7.0877332"/>
  <node id="316499973" version="9" timestamp="2009-12-20T13:06:02Z" uid="49785" user="mike67" changeset="3413343" lat="50.7209228" lon="7.0877083"/>
  <node id="316499973" version="10" timestamp="2010-06-07T22:53:13Z" uid="296845" user="rixtrick" changeset="4933335" lat="50.7209242" lon="7.0877092"/>
  <node id="316499973" version="11" timestamp="2011-08-05T17:14:48Z" uid="49785" user="mike67" changeset="8930933" lat="50.7209221" lon="7.0877122"/>
  <node id="316491910" version="2" timestamp="2012-07-17T08:26:06Z" uid="722137" user="OSMF Redaction Account" changeset="12260410" lat="53.1806902" lon="10.6168714"/>
  <node id="316491913" version="2" timestamp="2012-07-17T08:26:07Z" uid="722137" user="OSMF Redaction Account" changeset="12260410" lat="53.1809428" lon="10.6169791"/>
  <node id="316491914" version="2" timestamp="2012-07-17T08:26:07Z" uid="722137" user="OSMF Redaction Account" changeset="12260410" lat="53.1809096" lon="10.6147329"/>
  <node id="316491927" version="2" timestamp="2012-07-17T07:56:25Z" uid="722137" user="OSMF Redaction Account" changeset="12259916" lat="53.1855879" lon="10.6255349"/>
  <node id="316491929" version="2" timestamp="2012-07-17T07:56:25Z" uid="722137" user="OSMF Redaction Account" changeset="12259916" lat="53.1863335" lon="10.6299463"/>
  <node id="316491930" version="2" timestamp="2012-07-17T07:56:25Z" uid="722137" user="OSMF Redaction Account" changeset="12259916" lat="53.1863115" lon="10.6287926"/>
  <node id="316491937" version="2" timestamp="2012-07-17T08:26:08Z" uid="722137" user="OSMF Redaction Account" changeset="12260410" lat="53.1888188" lon="10.6226848"/>
  <node id="316491942" version="2" timestamp="2012-07-17T07:56:25Z" uid="722137" user="OSMF Redaction Account" changeset="12259916" lat="53.1880275" lon="10.629816"/>
  <node id="316491946" version="2" timestamp="2012-07-17T07:56:25Z" uid="722137" user="OSMF Redaction Account" changeset="12259916" lat="53.1880275" lon="10.629896"/>
  <node id="316494735" version="2" timestamp="2012-07-17T08:26:07Z" uid="722137" user="OSMF Redaction Account" changeset="12260410" lat="53.1850707" lon="10.6232617"/>
  <node id="316494737" version="2" timestamp="2012-07-17T08:26:07Z" uid="722137" user="OSMF Redaction Account" changeset="12260410" lat="53.1877405" lon="10.6222984"/>
  <node id="316494739" version="2" timestamp="2012-07-17T08:26:08Z" uid="722137" user="OSMF Redaction Account" changeset="12260410" lat="53.1880543" lon="10.6195817"/>
  <node id="316494741" version="2" timestamp="2012-07-17T08:26:08Z" uid="722137" user="OSMF Redaction Account" changeset="12260410" lat="53.1878465" lon="10.6195953"/>
  <node id="316494743" version="2" timestamp="2012-07-17T08:26:07Z" uid="722137" user="OSMF Redaction Account" changeset="12260410" lat="53.187831" lon="10.6199103"/>
  <node id="316494744" version="2" timestamp="2012-07-17T08:26:07Z" uid="722137" user="OSMF Redaction Account" changeset="12260410" lat="53.1863247" lon="10.6236663"/>
  <node id="316494745" version="2" timestamp="2012-07-17T08:26:07Z" uid="722137" user="OSMF Redaction Account" changeset="12260410" lat="53.1873525" lon="10.6222998"/>
  <node id="316494747" version="2" timestamp="2012-07-17T08:26:07Z" uid="722137" user="OSMF Redaction Account" changeset="12260410" lat="53.1873812" lon="10.6235477"/>
  <node id="316494748" version="2" timestamp="2012-07-17T07:56:25Z" uid="722137" user="OSMF Redaction Account" changeset="12259916" lat="53.1862401" lon="10.6254781"/>
  <node id="316494750" version="2" timestamp="2012-07-17T07:56:25Z" uid="722137" user="OSMF Redaction Account" changeset="12259916" lat="53.1855935" lon="10.6255044"/>
  <node id="316494752" version="2" timestamp="2012-07-17T08:26:07Z" uid="722137" user="OSMF Redaction Account" changeset="12260410" lat="53.1849285" lon="10.621377"/>
  <node id="316494753" version="2" timestamp="2012-07-17T08:26:07Z" uid="722137" user="OSMF Redaction Account" changeset="12260410" lat="53.184162" lon="10.6112454"/>
  <node id="316494755" version="2" timestamp="2012-07-17T08:26:07Z" uid="722137" user="OSMF Redaction Account" changeset="12260410" lat="53.1850378" lon="10.6109581"/>
  <node id="316494756" version="2" timestamp="2012-07-17T08:26:07Z" uid="722137" user="OSMF Redaction Account" changeset="12260410" lat="53.1877839" lon="10.6210805"/>
  <node id="316494758" version="2" timestamp="2012-07-17T08:26:08Z" uid="722137" user="OSMF Redaction Account" changeset="12260410" lat="53.1880525" lon="10.6184887"/>
  <node id="316494759" version="2" timestamp="2012-07-17T08:26:08Z" uid="722137" user="OSMF Redaction Account" changeset="12260410" lat="53.1880547" lon="10.6179411"/>
  <node id="316495849" version="4" timestamp="2012-05-14T06:50:48Z" uid="212111" user="okilimu" changeset="11592883" lat="48.2494655" lon="11.3163364">
    <tag k="amenity" v="emergency_phone"/>
    <tag k="emergency" v="phone"/>
    <tag k="operator" v="Straßenmeisterei"/>
  </node>
  <node id="316495849" version="5" timestamp="2012-07-18T05:46:57Z" uid="722137" user="OSMF Redaction Account" changeset="12274827" lat="48.2494655" lon="11.3163364">
    <tag k="amenity" v="emergency_phone"/>
    <tag k="operator" v="Straßenmeisterei"/>
  </node>
  <node id="316495850" version="3" timestamp="2012-05-14T06:50:48Z" uid="212111" user="okilimu" changeset="11592883" lat="48.243026" lon="11.3292932">
    <tag k="amenity" v="emergency_phone"/>
    <tag k="emergency" v="phone"/>
    <tag k="operator" v="Straßenmeisterei"/>
    <tag k="source" v="Photo"/>
  </node>
  <node id="316495850" version="4" timestamp="2012-07-18T05:46:57Z" uid="722137" user="OSMF Redaction Account" changeset="12274827" lat="48.243026" lon="11.3292932">
    <tag k="amenity" v="emergency_phone"/>
    <tag k="operator" v="Straßenmeisterei"/>
    <tag k="source" v="Photo"/>
  </node>
  <node id="316495853" version="4" timestamp="2012-07-18T05:46:56Z" uid="722137" user="OSMF Redaction Account" changeset="12274827" lat="48.233616" lon="11.3475056">
    <tag k="amenity" v="emergency_phone"/>
    <tag k="operator" v="Autobahnmeisterei"/>
    <tag k="source" v="Photo"/>
  </node>
  <node id="316499167" version="15" timestamp="2012-07-18T18:48:21Z" uid="722137" user="OSMF Redaction Account" changeset="12293329" lat="40.7733622" lon="-111.9837982"/>
  <node id="316499167" version="16" timestamp="2012-08-20T23:03:58Z" uid="701339" user="chadstaten" changeset="12802465" lat="40.7733882" lon="-111.9838165"/>
  <node id="316499784" version="5" timestamp="2012-09-09T12:17:38Z" uid="437941" user="Fischkopp0815" changeset="13043715" lat="54.6848829" lon="8.9574032"/>
  <node id="316499785" version="4" timestamp="2012-09-09T12:17:38Z" uid="437941" user="Fischkopp0815" changeset="13043715" lat="54.6848811" lon="8.9572941"/>
  <node id="316499786" version="4" timestamp="2012-09-09T12:17:38Z" uid="437941" user="Fischkopp0815" changeset="13043715" lat="54.6849703" lon="8.957084"/>
  <node id="316499787" version="3" timestamp="2012-09-09T12:17:38Z" uid="437941" user="Fischkopp0815" changeset="13043715" lat="54.6851063" lon="8.9568654"/>
</osm>
