<?xml version='1.0' encoding='UTF-8'?>
<osm version="0.6" generator="libosmium/2.20.0">
  <node id="316800132" version="4" timestamp="2009-10-02T19:47:19Z" uid="86259" user="hasse_osm_korinthenkacker" changeset="2716821" lat="47.9043226" lon="11.6751152">
    <tag k="addr:city" v="Otterfing"/>
    <tag k="addr:country" v="DE"/>
    <tag k="addr:housenumber" v="6a"/>
    <tag k="addr:postcode" v="83624"/>
    <tag k="addr:street" v="Haidgasse"/>
    <tag k="source" v="survey"/>
  </node>
  <node id="316800132" version="5" timestamp="2009-10-23T11:33:15Z" uid="36809" user="pfoten_weg_!_" changeset="2928981" lat="47.9043226" lon="11.6751152">
    <tag k="addr:city" v="Otterfing"/>
    <tag k="addr:country" v="DE"/>
    <tag k="addr:housenumber" v="6a"/>
    <tag k="addr:postcode" v="83624"/>
    <tag k="addr:street" v="Haidgasse"/>
  </node>
  <node id="316800194" version="3" timestamp="2009-10-02T19:47:17Z" uid="86259" user="hasse_osm_korinthenkacker" changeset="2716821" lat="47.9036174" lon="11.6740439">
    <tag k="addr:city" v="Otterfing"/>
    <tag k="addr:country" v="DE"/>
    <tag k="addr:housenumber" v="13"/>
    <tag k="addr:postcode" v="83624"/>
    <tag k="addr:street" v="Haidgasse"/>
    <tag k="source" v="survey"/>
  </node>
  <node id="316800194" version="4" timestamp="2009-10-23T11:33:05Z" uid="36809" user="pfoten_weg_!_" changeset="2928981" lat="47.9036174" lon="11.6740439">
    <tag k="addr:city" v="Otterfing"/>
    <tag k="addr:country" v="DE"/>
    <tag k="addr:housenumber" v="13"/>
    <tag k="addr:postcode" v="83624"/>
    <tag k="addr:street" v="Haidgasse"/>
  </node>
  <node id="316800194" version="5" timestamp="2011-02-13T08:57:44Z" uid="42393" user="mawi42" changeset="7272766" lat="47.9035718" lon="11.6739844">
    <tag k="addr:city" v="Otterfing"/>
    <tag k="addr:country" v="DE"/>
    <tag k="addr:housenumber" v="13"/>
    <tag k="addr:postcode" v="83624"/>
    <tag k="addr:street" v="Haidgasse"/>
  </node>
  <node id="316800197" version="3" timestamp="2009-10-02T19:47:16Z" uid="86259" user="hasse_osm_korinthenkacker" changeset="2716821" lat="47.9034506" lon="11.6736834">
    <tag k="addr:city" v="Otterfing"/>
    <tag k="addr:country" v="DE"/>
    <tag k="addr:housenumber" v="15"/>
    <tag k="addr:postcode" v="83624"/>
    <tag k="addr:street" v="Haidgasse"/>
    <tag k="source" v="survey"/>
  </node>
  <node id="316800197" version="4" timestamp="2009-10-23T11:33:04Z" uid="36809" user="pfoten_weg_!_" changeset="2928981" lat="47.9034506" lon="11.6736834">
    <tag k="addr:city" v="Otterfing"/>
    <tag k="addr:country" v="DE"/>
    <tag k="addr:housenumber" v="15"/>
    <tag k="addr:postcode" v="83624"/>
    <tag k="addr:street" v="Haidgasse"/>
  </node>
  <node id="316800197" version="5" timestamp="2011-02-13T08:57:43Z" uid="42393" user="mawi42" changeset="7272766" lat="47.9031546" lon="11.6730429">
    <tag k="addr:city" v="Otterfing"/>
    <tag k="addr:country" v="DE"/>
    <tag k="addr:housenumber" v="15"/>
    <tag k="addr:postcode" v="83624"/>
    <tag k="addr:street" v="Haidgasse"/>
  </node>
  <node id="316800225" version="3" timestamp="2009-10-02T19:47:08Z" uid="86259" user="hasse_osm_korinthenkacker" changeset="2716821" lat="47.9040374" lon="11.6715548">
    <tag k="addr:city" v="Otterfing"/>
    <tag k="addr:country" v="DE"/>
    <tag k="addr:housenumber" v="1"/>
    <tag k="addr:postcode" v="83624"/>
    <tag k="addr:street" v="Am Haid"/>
    <tag k="source" v="survey"/>
  </node>
  <node id="316800225" version="4" timestamp="2009-10-23T11:32:54Z" uid="36809" user="pfoten_weg_!_" changeset="2928981" lat="47.9040374" lon="11.6715548">
    <tag k="addr:city" v="Otterfing"/>
    <tag k="addr:country" v="DE"/>
    <tag k="addr:housenumber" v="1"/>
    <tag k="addr:postcode" v="83624"/>
    <tag k="addr:street" v="Am Haid"/>
  </node>
  <node id="316800225" version="5" timestamp="2011-02-13T08:53:48Z" uid="42393" user="mawi42" changeset="7272766" lat="47.9040086" lon="11.6715999">
    <tag k="addr:city" v="Otterfing"/>
    <tag k="addr:country" v="DE"/>
    <tag k="addr:housenumber" v="1"/>
    <tag k="addr:postcode" v="83624"/>
    <tag k="addr:street" v="Am Haid"/>
  </node>
  <node id="316800225" version="6" timestamp="2011-04-02T17:53:58Z" uid="42393" user="mawi42" changeset="7746412" lat="47.9039996" lon="11.6715908">
    <tag k="addr:city" v="Otterfing"/>
    <tag k="addr:country" v="DE"/>
    <tag k="addr:housenumber" v="1"/>
    <tag k="addr:postcode" v="83624"/>
    <tag k="addr:street" v="Am Haid"/>
  </node>
  <node id="316800455" version="2" timestamp="2008-12-17T20:33:30Z" uid="43863" user="Rundling" changeset="445736" lat="53.1910751" lon="10.7534312"/>
  <node id="316800530" version="2" timestamp="2010-03-30T15:38:17Z" uid="43863" user="Rundling" changeset="4277664" lat="53.1884027" lon="10.7375223"/>
  <node id="316800530" version="3" timestamp="2011-02-02T14:52:22Z" uid="384081" user="Ellern" changeset="7165439" lat="53.1884271" lon="10.7375019"/>
  <node id="316800535" version="2" timestamp="2010-03-30T15:38:18Z" uid="43863" user="Rundling" changeset="4277664" lat="53.1884816" lon="10.7370272"/>
  <node id="316800557" version="2" timestamp="2010-03-30T15:38:17Z" uid="43863" user="Rundling" changeset="4277664" lat="53.1883723" lon="10.7376662"/>
  <node id="316800557" version="3" timestamp="2010-05-07T20:07:04Z" uid="38735" user="GPS-Wolf" changeset="4633457" lat="53.1883529" lon="10.738004"/>
  <node id="316800557" version="4" timestamp="2011-02-02T14:52:27Z" uid="384081" user="Ellern" changeset="7165439" lat="53.1883529" lon="10.7378817"/>
  <node id="316801413" version="3" timestamp="2009-10-03T13:54:55Z" uid="179968" user="Ich_hasse_doitsche_OSM-Korinthenkacker" changeset="2724114" lat="52.2568629" lon="10.8125008">
    <tag k="amenity" v="taxi"/>
  </node>
  <node id="316801747" version="20" timestamp="2010-04-06T18:03:12Z" uid="9581" user="Lobelt" changeset="4346791" lat="50.6422415" lon="9.3570751"/>
  <node id="316801747" version="21" timestamp="2010-09-10T19:39:49Z" uid="65432" user="bmog" changeset="5744062" lat="50.6422137" lon="9.3570892"/>
  <node id="316803555" version="2" timestamp="2008-12-09T23:14:54Z" uid="6975" user="ulfl" changeset="299549" lat="11.6603448" lon="42.41417">
    <tag k="natural" v="volcano"/>
    <tag k="status" v="extinct"/>
  </node>
  <node id="316805667" version="4" timestamp="2008-12-30T16:26:12Z" uid="43863" user="Rundling" changeset="671125" lat="53.1745693" lon="10.6875738"/>
  <node id="316806774" version="15" timestamp="2010-03-19T22:04:30Z" uid="9581" user="Lobelt" changeset="4174890" lat="49.5804528" lon="8.6571831"/>
  <node id="316806775" version="14" timestamp="2010-03-19T22:04:30Z" uid="9581" user="Lobelt" changeset="4174890" lat="49.5812287" lon="8.6566758"/>
  <node id="316806776" version="16" timestamp="2010-03-19T22:04:30Z" uid="9581" user="Lobelt" changeset="4174890" lat="49.5809697" lon="8.655436"/>
  <node id="316806785" version="10" timestamp="2010-03-19T22:04:31Z" uid="9581" user="Lobelt" changeset="4174890" lat="49.5818379" lon="8.6545801"/>
  <node id="316807395" version="6" timestamp="2010-08-29T22:21:03Z" uid="9581" user="Lobelt" changeset="5631574" lat="49.7022844" lon="8.6126951"/>
  <node id="316807395" version="7" timestamp="2011-09-29T17:19:07Z" uid="211357" user="Dampfklon" changeset="9429007" lat="49.7022895" lon="8.6126363"/>
  <node id="316807536" version="4" timestamp="2010-08-29T22:23:33Z" uid="9581" user="Lobelt" changeset="5631574" lat="49.7021764" lon="8.6135074"/>
  <node id="316807536" version="5" timestamp="2012-02-25T10:00:24Z" uid="55687" user="dschuwa" changeset="10786008" lat="49.7021764" lon="8.6135074"/>
  <node id="316807617" version="5" timestamp="2010-08-29T22:23:32Z" uid="9581" user="Lobelt" changeset="5631574" lat="49.7019935" lon="8.612961"/>
  <node id="316807617" version="6" timestamp="2012-02-25T10:00:24Z" uid="55687" user="dschuwa" changeset="10786008" lat="49.7019935" lon="8.612961"/>
  <node id="316807755" version="4" timestamp="2009-10-02T19:47:07Z" uid="86259" user="hasse_osm_korinthenkacker" changeset="2716821" lat="47.9032031" lon="11.6710656">
    <tag k="addr:city" v="Otterfing"/>
    <tag k="addr:country" v="DE"/>
    <tag k="addr:housenumber" v="39"/>
    <tag k="addr:postcode" v="83624"/>
    <tag k="addr:street" v="Palnkamer Straße"/>
    <tag k="source" v="survey"/>
  </node>
  <node id="316807755" version="5" timestamp="2009-10-23T11:32:51Z" uid="36809" user="pfoten_weg_!_" changeset="2928981" lat="47.9032031" lon="11.6710656">
    <tag k="addr:city" v="Otterfing"/>
    <tag k="addr:country" v="DE"/>
    <tag k="addr:housenumber" v="39"/>
    <tag k="addr:postcode" v="83624"/>
    <tag k="addr:street" v="Palnkamer Straße"/>
  </node>
  <node id="316807763" version="3" timestamp="2010-08-29T22:21:05Z" uid="9581" user="Lobelt" changeset="5631574" lat="49.7020117" lon="8.6135517"/>
  <node id="316807763" version="4" timestamp="2012-02-25T10:00:24Z" uid="55687" user="dschuwa" changeset="10786008" lat="49.7020117" lon="8.6135517"/>
  <node id="316807765" version="3" timestamp="2010-08-29T22:22:21Z" uid="9581" user="Lobelt" changeset="5631574" lat="49.7019052" lon="8.6134012"/>
  <node id="316807765" version="4" timestamp="2012-02-25T10:00:25Z" uid="55687" user="dschuwa" changeset="10786008" lat="49.7019052" lon="8.6134012"/>
  <node id="316807766" version="3" timestamp="2010-08-29T22:23:01Z" uid="9581" user="Lobelt" changeset="5631574" lat="49.7018796" lon="8.6130467"/>
  <node id="316807766" version="4" timestamp="2012-02-25T10:00:25Z" uid="55687" user="dschuwa" changeset="10786008" lat="49.7018796" lon="8.6130467"/>
  <node id="316807767" version="3" timestamp="2010-08-29T22:23:32Z" uid="9581" user="Lobelt" changeset="5631574" lat="49.7019465" lon="8.6129901"/>
  <node id="316807767" version="4" timestamp="2012-02-25T10:00:25Z" uid="55687" user="dschuwa" changeset="10786008" lat="49.7019465" lon="8.6129901"/>
  <node id="316807768" version="4" timestamp="2009-10-02T19:47:07Z" uid="86259" user="hasse_osm_korinthenkacker" changeset="2716821" lat="47.9031168" lon="11.6709368">
    <tag k="addr:city" v="Otterfing"/>
    <tag k="addr:country" v="DE"/>
    <tag k="addr:housenumber" v="39a"/>
    <tag k="addr:postcode" v="83624"/>
    <tag k="addr:street" v="Palnkamer Straße"/>
    <tag k="source" v="survey"/>
  </node>
  <node id="316807768" version="5" timestamp="2009-10-23T11:32:51Z" uid="36809" user="pfoten_weg_!_" changeset="2928981" lat="47.9031168" lon="11.6709368">
    <tag k="addr:city" v="Otterfing"/>
    <tag k="addr:country" v="DE"/>
    <tag k="addr:housenumber" v="39a"/>
    <tag k="addr:postcode" v="83624"/>
    <tag k="addr:street" v="Palnkamer Straße"/>
  </node>
  <node id="316807773" version="5" timestamp="2009-10-02T19:47:06Z" uid="86259" user="hasse_osm_korinthenkacker" changeset="2716821" lat="47.9029183" lon="11.6707799">
    <tag k="addr:city" v="Otterfing"/>
    <tag k="addr:country" v="DE"/>
    <tag k="addr:housenumber" v="39b"/>
    <tag k="addr:postcode" v="83624"/>
    <tag k="addr:street" v="Palnkamer Straße"/>
    <tag k="source" v="survey"/>
  </node>
  <node id="316807773" version="6" timestamp="2009-10-23T11:32:47Z" uid="36809" user="pfoten_weg_!_" changeset="2928981" lat="47.9029183" lon="11.6707799">
    <tag k="addr:city" v="Otterfing"/>
    <tag k="addr:country" v="DE"/>
    <tag k="addr:housenumber" v="39b"/>
    <tag k="addr:postcode" v="83624"/>
    <tag k="addr:street" v="Palnkamer Straße"/>
  </node>
  <node id="316807967" version="4" timestamp="2009-10-02T19:47:07Z" uid="86259" user="hasse_osm_korinthenkacker" changeset="2716821" lat="47.9033125" lon="11.670851">
    <tag k="addr:city" v="Otterfing"/>
    <tag k="addr:country" v="DE"/>
    <tag k="addr:housenumber" v="37"/>
    <tag k="addr:postcode" v="83624"/>
    <tag k="addr:street" v="Palnkamer Straße"/>
    <tag k="source" v="survey"/>
  </node>
  <node id="316807967" version="5" timestamp="2009-10-23T11:32:53Z" uid="36809" user="pfoten_weg_!_" changeset="2928981" lat="47.9033125" lon="11.670851">
    <tag k="addr:city" v="Otterfing"/>
    <tag k="addr:country" v="DE"/>
    <tag k="addr:housenumber" v="37"/>
    <tag k="addr:postcode" v="83624"/>
    <tag k="addr:street" v="Palnkamer Straße"/>
  </node>
  <node id="316807967" version="6" timestamp="2011-02-13T08:53:48Z" uid="42393" user="mawi42" changeset="7272766" lat="47.9032895" lon="11.6708703">
    <tag k="addr:city" v="Otterfing"/>
    <tag k="addr:country" v="DE"/>
    <tag k="addr:housenumber" v="37"/>
    <tag k="addr:postcode" v="83624"/>
    <tag k="addr:street" v="Palnkamer Straße"/>
  </node>
  <node id="316808141" version="3" timestamp="2009-10-02T19:47:06Z" uid="86259" user="hasse_osm_korinthenkacker" changeset="2716821" lat="47.9028061" lon="11.6706621">
    <tag k="addr:city" v="Otterfing"/>
    <tag k="addr:country" v="DE"/>
    <tag k="addr:housenumber" v="41a"/>
    <tag k="addr:postcode" v="83624"/>
    <tag k="addr:street" v="Palnkamer Straße"/>
    <tag k="source" v="survey"/>
  </node>
  <node id="316808141" version="4" timestamp="2009-10-23T11:32:46Z" uid="36809" user="pfoten_weg_!_" changeset="2928981" lat="47.9028061" lon="11.6706621">
    <tag k="addr:city" v="Otterfing"/>
    <tag k="addr:country" v="DE"/>
    <tag k="addr:housenumber" v="41a"/>
    <tag k="addr:postcode" v="83624"/>
    <tag k="addr:street" v="Palnkamer Straße"/>
  </node>
  <node id="316808813" version="2" timestamp="2008-12-09T23:17:42Z" uid="6975" user="ulfl" changeset="299549" lat="60.2039619" lon="24.8049471">
    <tag k="amenity" v="post_office"/>
    <tag k="name" v="Posti 02140"/>
    <tag k="postal_code" v="02140"/>
  </node>
  <node id="316808813" version="3" timestamp="2009-03-28T12:15:47Z" uid="242" user="mkv" changeset="865284" lat="60.2039286" lon="24.8048059">
    <tag k="amenity" v="post_office"/>
    <tag k="created_by" v="Potlatch 0.10f"/>
    <tag k="name" v="Posti 02140"/>
    <tag k="postal_code" v="02140"/>
  </node>
  <node id="316808813" version="4" timestamp="2009-09-20T08:38:29Z" uid="25211" user="la4de" changeset="2542372" lat="60.203977" lon="24.8048164">
    <tag k="amenity" v="post_office"/>
    <tag k="name" v="Posti 02140"/>
    <tag k="postal_code" v="02140"/>
  </node>
  <node id="316801747" version="22" timestamp="2012-04-30T21:24:28Z" uid="65432" user="bmog" changeset="11464740" lat="50.6422437" lon="9.3571064"/>
  <node id="316805667" version="5" timestamp="2012-05-23T12:25:58Z" uid="51045" user="Geogast" changeset="11680480" lat="53.1745693" lon="10.6875738"/>
  <node id="316806774" version="16" timestamp="2012-04-17T13:56:09Z" uid="136321" user="Teddy73" changeset="11332755" lat="49.5804528" lon="8.6571831"/>
  <node id="316806775" version="15" timestamp="2012-07-17T02:18:58Z" uid="722137" user="OSMF Redaction Account" changeset="12255295" lat="49.5812484" lon="8.6566"/>
  <node id="316806776" version="17" timestamp="2012-07-17T02:18:58Z" uid="722137" user="OSMF Redaction Account" changeset="12255295" lat="49.5809869" lon="8.655364"/>
  <node id="316806785" version="11" timestamp="2012-07-17T02:18:59Z" uid="722137" user="OSMF Redaction Account" changeset="12255295" lat="49.5818748" lon="8.6545754"/>
</osm>
