<?xml version='1.0' encoding='UTF-8'?>
<osm version="0.6" generator="libosmium/2.20.0">
  <node id="317211502" version="1" timestamp="2008-12-07T15:57:47Z" uid="81132" user="So happy!" changeset="227925" lat="48.9834052" lon="12.1053046">
    <tag k="amenity" v="bus_stop"/>
    <tag k="created_by" v="Potlatch 0.10f"/>
  </node>
  <node id="317211502" version="2" timestamp="2008-12-09T23:22:59Z" uid="6975" user="ulfl" changeset="299549" lat="48.9834052" lon="12.1053046">
    <tag k="highway" v="bus_stop"/>
  </node>
  <node id="317211502" version="3" timestamp="2009-03-18T22:00:35Z" uid="59819" user="Fuss-im-Ohr" changeset="831519" lat="48.9834052" lon="12.1053046">
    <tag k="bus_routes" v="fixme"/>
    <tag k="highway" v="bus_stop"/>
    <tag k="name" v="FIX ME"/>
    <tag k="operator" v="fixme"/>
    <tag k="shelter" v="fixme"/>
  </node>
  <node id="317211502" version="4" timestamp="2009-06-24T19:31:26Z" uid="127922" user="w3box" changeset="1616379" lat="48.9834052" lon="12.1053046">
    <tag k="bus_routes" v="fixme"/>
    <tag k="highway" v="bus_stop"/>
    <tag k="name" v="Oberisling"/>
    <tag k="operator" v="fixme"/>
    <tag k="shelter" v="fixme"/>
  </node>
  <node id="317211502" version="5" timestamp="2009-08-29T10:39:48Z" uid="18118" user="Lappersdorfer" changeset="2299643" lat="48.9834082" lon="12.105297">
    <tag k="bus_routes" v="3"/>
    <tag k="highway" v="bus_stop"/>
    <tag k="name" v="Oberisling"/>
    <tag k="operator" v="fixme"/>
    <tag k="shelter" v="fixme"/>
  </node>
  <node id="317212211" version="2" timestamp="2009-10-03T13:54:43Z" uid="179968" user="Ich_hasse_doitsche_OSM-Korinthenkacker" changeset="2724114" lat="52.266921" lon="10.7871508">
    <tag k="amenity" v="place_of_worship"/>
    <tag k="religion" v="christian"/>
  </node>
  <node id="317212372" version="2" timestamp="2009-10-03T13:54:43Z" uid="179968" user="Ich_hasse_doitsche_OSM-Korinthenkacker" changeset="2724114" lat="52.2661751" lon="10.7859406">
    <tag k="amenity" v="school"/>
  </node>
  <node id="317212953" version="1" timestamp="2008-12-07T16:02:27Z" uid="48655" user="Horbas" changeset="243228" lat="49.2757447" lon="6.9529591">
    <tag k="amenity" v="bus_stop"/>
    <tag k="name" v="Von der Heydt Siedlung"/>
  </node>
  <node id="317212953" version="2" timestamp="2008-12-07T16:03:49Z" uid="48655" user="Horbas" changeset="243228" lat="49.2757475" lon="6.9529591">
    <tag k="amenity" v="bus_stop"/>
    <tag k="name" v="Von der Heydt Siedlung"/>
  </node>
  <node id="317212953" version="3" timestamp="2008-12-09T23:22:59Z" uid="6975" user="ulfl" changeset="299549" lat="49.2757475" lon="6.9529591">
    <tag k="highway" v="bus_stop"/>
    <tag k="name" v="Von der Heydt Siedlung"/>
  </node>
  <node id="317212953" version="4" timestamp="2009-06-07T17:44:16Z" uid="48655" user="Horbas" changeset="1451354" lat="49.2757495" lon="6.9529568">
    <tag k="highway" v="bus_stop"/>
    <tag k="name" v="Von der Heydt Siedlung"/>
  </node>
  <node id="317212953" version="5" timestamp="2009-06-07T18:58:34Z" uid="48655" user="Horbas" changeset="1452323" lat="49.2756528" lon="6.9530383">
    <tag k="highway" v="bus_stop"/>
    <tag k="name" v="Von der Heydt Siedlung"/>
  </node>
  <node id="317212953" version="6" timestamp="2010-05-09T11:58:20Z" uid="131214" user="Klausoleum" changeset="4647653" lat="49.275688" lon="6.95305">
    <tag k="highway" v="bus_stop"/>
    <tag k="name" v="Von der Heydt Siedlung"/>
  </node>
  <node id="317212953" version="7" timestamp="2010-06-20T17:44:40Z" uid="48655" user="Horbas" changeset="5035315" lat="49.2756881" lon="6.9530499">
    <tag k="highway" v="bus_stop"/>
    <tag k="name" v="Von der Heydt Siedlung"/>
  </node>
  <node id="317212953" version="8" timestamp="2010-09-05T22:25:25Z" uid="167948" user="LMB" changeset="5693210" lat="49.2756931" lon="6.9530196">
    <tag k="highway" v="bus_stop"/>
    <tag k="name" v="Von der Heydt Siedlung"/>
    <tag k="stop_id" v="12303"/>
  </node>
  <node id="317212953" version="9" timestamp="2011-12-30T10:29:08Z" uid="249676" user="mmd" changeset="10243687" lat="49.2756931" lon="6.9530196">
    <tag k="highway" v="bus_stop"/>
    <tag k="name" v="Von der Heydt Siedlung"/>
    <tag k="odbl" v="clean"/>
    <tag k="stop_id" v="12303"/>
  </node>
  <node id="317212955" version="1" timestamp="2008-12-07T16:02:27Z" uid="48655" user="Horbas" changeset="243228" lat="49.2757233" lon="6.9529438">
    <tag k="amenity" v="bus_stop"/>
    <tag k="name" v="Von der Heydt Siedlung"/>
  </node>
  <node id="317212955" version="2" timestamp="2008-12-07T16:03:49Z" uid="48655" user="Horbas" changeset="243228" lat="49.2757186" lon="6.9529438">
    <tag k="amenity" v="bus_stop"/>
    <tag k="name" v="Von der Heydt Siedlung"/>
  </node>
  <node id="317212955" version="3" timestamp="2008-12-09T23:22:59Z" uid="6975" user="ulfl" changeset="299549" lat="49.2757186" lon="6.9529438">
    <tag k="highway" v="bus_stop"/>
    <tag k="name" v="Von der Heydt Siedlung"/>
  </node>
  <node id="317212955" version="4" timestamp="2009-04-10T17:46:24Z" uid="83480" user="puremalt" changeset="389813" lat="49.2757186" lon="6.9529438">
    <tag k="highway" v="bus_stop"/>
    <tag k="name" v="Von der Heydt Siedlung"/>
  </node>
  <node id="317213085" version="2" timestamp="2009-10-03T13:54:43Z" uid="179968" user="Ich_hasse_doitsche_OSM-Korinthenkacker" changeset="2724114" lat="52.2646203" lon="10.7863869">
    <tag k="sport" v="Tontaubenschießstand"/>
  </node>
  <node id="317215652" version="1" timestamp="2008-12-07T16:13:34Z" uid="38750" user="Oswolf" changeset="242127" lat="51.2500956" lon="6.7860025">
    <tag k="highway" v="tram_stop"/>
  </node>
  <node id="317215652" version="2" timestamp="2008-12-09T23:35:39Z" uid="6975" user="ulfl" changeset="299549" lat="51.2500956" lon="6.7860025">
    <tag k="railway" v="tram_stop"/>
  </node>
  <node id="317215652" version="3" timestamp="2009-01-11T21:02:14Z" uid="64008" user="E-Malte" changeset="774713" lat="51.2500956" lon="6.7860025">
    <tag k="name" v="Merziger Straße"/>
    <tag k="railway" v="tram_stop"/>
  </node>
  <node id="317215652" version="4" timestamp="2009-03-25T20:47:01Z" uid="64433" user="green525" changeset="858449" lat="51.2500956" lon="6.7860025">
    <tag k="name" v="Merziger Straße"/>
    <tag k="railway" v="tram_stop"/>
    <tag k="ref" v="de.05111000.merzigerstrasse"/>
  </node>
  <node id="317215652" version="5" timestamp="2009-07-27T15:15:49Z" uid="149630" user="geopia" changeset="1956408" lat="51.2502594" lon="6.7863418">
    <tag k="name" v="Merziger Straße"/>
    <tag k="railway" v="tram_stop"/>
    <tag k="ref" v="de.05111000.merzigerstrasse"/>
  </node>
  <node id="317215652" version="6" timestamp="2010-11-07T17:00:50Z" uid="290680" user="wheelmap_visitor" changeset="6308379" lat="51.2502594" lon="6.7863418">
    <tag k="name" v="Merziger Straße"/>
    <tag k="railway" v="tram_stop"/>
    <tag k="ref" v="de.05111000.merzigerstrasse"/>
    <tag k="wheelchair" v="no"/>
  </node>
  <node id="317215652" version="7" timestamp="2011-01-09T17:54:05Z" uid="18130" user="black_bike" changeset="6918243" lat="51.2502368" lon="6.7863798">
    <tag k="name" v="Merziger Straße"/>
    <tag k="railway" v="tram_stop"/>
    <tag k="ref" v="de.05111000.merzigerstrasse"/>
    <tag k="wheelchair" v="no"/>
  </node>
  <node id="317215652" version="8" timestamp="2012-01-05T09:24:00Z" uid="153031" user="ajoessen" changeset="10298654" lat="51.2502368" lon="6.7863798">
    <tag k="name" v="Merziger Straße"/>
    <tag k="railway" v="tram_stop"/>
    <tag k="wheelchair" v="no"/>
  </node>
  <node id="317211502" version="6" timestamp="2012-05-08T15:01:32Z" uid="37976" user="R2D2_C3PO" changeset="11539992" lat="48.9834082" lon="12.105297">
    <tag k="bus_routes" v="3"/>
    <tag k="highway" v="bus_stop"/>
    <tag k="name" v="Oberisling"/>
    <tag k="operator" v="RVB"/>
    <tag k="shelter" v="fixme"/>
  </node>
  <node id="317211502" version="7" timestamp="2012-06-04T21:03:59Z" uid="37976" user="R2D2_C3PO" changeset="11800933" lat="48.983504" lon="12.1052292">
    <tag k="amenity" v="waste_basket"/>
    <tag k="bench" v="yes"/>
    <tag k="bus_routes" v="3"/>
    <tag k="highway" v="bus_stop"/>
    <tag k="name" v="Oberisling"/>
    <tag k="operator" v="RVB"/>
    <tag k="shelter" v="yes"/>
    <tag k="tactile_paving" v="no"/>
  </node>
</osm>
