<?xml version='1.0' encoding='UTF-8'?>
<osm version="0.6" generator="libosmium/2.20.0">
  <node id="319270160" version="1" timestamp="2008-12-16T19:21:34Z" uid="36809" user="pfoten_weg_!_" changeset="418088" lat="48.0762466" lon="11.5157841">
    <tag k="created_by" v="RambaZamba"/>
    <tag k="man_made" v="tower"/>
    <tag k="name" v="Maibaum"/>
    <tag k="source" v="survey"/>
  </node>
  <node id="319270160" version="2" timestamp="2009-08-12T13:36:22Z" uid="156995" user="HampelZamba" changeset="2118817" lat="48.0762466" lon="11.5157841">
    <tag k="man_made" v="tower"/>
    <tag k="name" v="Maibaum"/>
    <tag k="source" v="survey"/>
  </node>
  <node id="319270160" version="3" timestamp="2009-08-19T01:12:03Z" uid="36809" user="pfoten_weg_!_" changeset="2196333" lat="48.0762466" lon="11.5157841">
    <tag k="man_made" v="tower"/>
    <tag k="name" v="Maibaum"/>
    <tag k="source" v="survey"/>
  </node>
  <node id="319270448" version="1" timestamp="2008-12-16T19:23:33Z" uid="36809" user="pfoten_weg_!_" changeset="418088" lat="48.0770245" lon="11.517333">
    <tag k="amenity" v="place_of_worship"/>
    <tag k="created_by" v="RambaZamba"/>
    <tag k="denomination" v="catholic"/>
    <tag k="man_made" v="tower"/>
    <tag k="name" v="St. Johann Baptist"/>
    <tag k="religion" v="christian"/>
    <tag k="source" v="survey"/>
  </node>
  <node id="319270448" version="2" timestamp="2009-01-25T23:36:25Z" uid="37850" user="mawis" changeset="839778" lat="48.0770245" lon="11.517333">
    <tag k="addr:city" v="München"/>
    <tag k="addr:country" v="DE"/>
    <tag k="addr:housenumber" v="6"/>
    <tag k="addr:postcode" v="81479"/>
    <tag k="addr:street" v="Grünbauerstraße"/>
    <tag k="amenity" v="place_of_worship"/>
    <tag k="created_by" v="RambaZamba"/>
    <tag k="denomination" v="catholic"/>
    <tag k="man_made" v="tower"/>
    <tag k="name" v="St. Johann Baptist"/>
    <tag k="religion" v="christian"/>
    <tag k="source" v="survey"/>
  </node>
  <node id="319270448" version="3" timestamp="2009-02-14T22:53:23Z" uid="36809" user="pfoten_weg_!_" changeset="445466" lat="48.0770245" lon="11.517333">
    <tag k="addr:city" v="München"/>
    <tag k="addr:country" v="DE"/>
    <tag k="addr:housenumber" v="6"/>
    <tag k="addr:postcode" v="81479"/>
    <tag k="addr:street" v="Grünbauerstraße"/>
    <tag k="amenity" v="place_of_worship"/>
    <tag k="created_by" v="RambaZamba"/>
    <tag k="denomination" v="catholic"/>
    <tag k="man_made" v="tower"/>
    <tag k="name" v="St. Johann Baptist"/>
    <tag k="religion" v="christian"/>
    <tag k="source" v="survey"/>
  </node>
  <node id="319270448" version="4" timestamp="2009-03-20T21:49:10Z" uid="5164" user="woodpeck" changeset="839312" lat="48.0770245" lon="11.517333">
    <tag k="addr:city" v="München"/>
    <tag k="addr:country" v="DE"/>
    <tag k="addr:housenumber" v="6"/>
    <tag k="addr:postcode" v="81479"/>
    <tag k="addr:street" v="Grünbauerstraße"/>
    <tag k="amenity" v="place_of_worship"/>
    <tag k="created_by" v="RambaZamba"/>
    <tag k="denomination" v="catholic"/>
    <tag k="man_made" v="tower"/>
    <tag k="name" v="St. Johann Baptist"/>
    <tag k="religion" v="christian"/>
    <tag k="source" v="survey"/>
  </node>
  <node id="319270448" version="5" timestamp="2009-03-22T03:41:29Z" uid="36809" user="pfoten_weg_!_" changeset="843843" lat="48.0770245" lon="11.517333">
    <tag k="addr:city" v="München"/>
    <tag k="addr:country" v="DE"/>
    <tag k="addr:housenumber" v="6"/>
    <tag k="addr:postcode" v="81479"/>
    <tag k="addr:street" v="Grünbauerstraße"/>
    <tag k="amenity" v="place_of_worship"/>
    <tag k="created_by" v="RambaZamba"/>
    <tag k="denomination" v="catholic"/>
    <tag k="man_made" v="tower"/>
    <tag k="name" v="St. Johann Baptist"/>
    <tag k="religion" v="christian"/>
    <tag k="source" v="survey"/>
  </node>
  <node id="319270448" version="6" timestamp="2009-03-25T16:28:45Z" uid="5164" user="woodpeck" changeset="857476" lat="48.0770245" lon="11.517333">
    <tag k="addr:city" v="München"/>
    <tag k="addr:country" v="DE"/>
    <tag k="addr:housenumber" v="6"/>
    <tag k="addr:postcode" v="81479"/>
    <tag k="addr:street" v="Grünbauerstraße"/>
    <tag k="amenity" v="place_of_worship"/>
    <tag k="created_by" v="RambaZamba"/>
    <tag k="denomination" v="catholic"/>
    <tag k="man_made" v="tower"/>
    <tag k="name" v="St. Johann Baptist"/>
    <tag k="religion" v="christian"/>
    <tag k="source" v="survey"/>
  </node>
  <node id="319270448" version="7" timestamp="2009-03-29T22:35:55Z" uid="36809" user="pfoten_weg_!_" changeset="869093" lat="48.0770245" lon="11.517333">
    <tag k="addr:city" v="München"/>
    <tag k="addr:country" v="DE"/>
    <tag k="addr:housenumber" v="6"/>
    <tag k="addr:postcode" v="81479"/>
    <tag k="addr:street" v="Grünbauerstraße"/>
    <tag k="amenity" v="place_of_worship"/>
    <tag k="created_by" v="RambaZamba"/>
    <tag k="denomination" v="catholic"/>
    <tag k="man_made" v="tower"/>
    <tag k="name" v="St. Johann Baptist"/>
    <tag k="religion" v="christian"/>
    <tag k="source" v="survey"/>
  </node>
  <node id="319270754" version="1" timestamp="2008-12-16T19:25:41Z" uid="43863" user="Rundling" changeset="424249" lat="53.086291" lon="10.732724">
    <tag k="created_by" v="JOSM"/>
  </node>
  <node id="319270755" version="1" timestamp="2008-12-16T19:25:41Z" uid="43863" user="Rundling" changeset="424249" lat="53.0915609" lon="10.7313819"/>
  <node id="319270757" version="1" timestamp="2008-12-16T19:25:41Z" uid="43863" user="Rundling" changeset="424249" lat="53.0858053" lon="10.7324198"/>
  <node id="319270757" version="2" timestamp="2009-01-03T11:45:23Z" uid="43863" user="Rundling" changeset="719335" lat="53.0858053" lon="10.7324198"/>
  <node id="319270759" version="1" timestamp="2008-12-16T19:25:41Z" uid="43863" user="Rundling" changeset="424249" lat="53.0896862" lon="10.7320253"/>
  <node id="319270760" version="1" timestamp="2008-12-16T19:25:41Z" uid="43863" user="Rundling" changeset="424249" lat="53.0895917" lon="10.73205"/>
  <node id="319270762" version="1" timestamp="2008-12-16T19:25:41Z" uid="43863" user="Rundling" changeset="424249" lat="53.0899591" lon="10.7319436"/>
  <node id="319270763" version="1" timestamp="2008-12-16T19:25:41Z" uid="43863" user="Rundling" changeset="424249" lat="53.0902798" lon="10.731835"/>
  <node id="319270764" version="1" timestamp="2008-12-16T19:25:41Z" uid="43863" user="Rundling" changeset="424249" lat="53.0931998" lon="10.7305518"/>
  <node id="319270764" version="2" timestamp="2009-06-26T12:42:51Z" uid="43863" user="Rundling" changeset="1640305" lat="53.0931343" lon="10.7303492"/>
  <node id="319271874" version="1" timestamp="2008-12-16T19:33:11Z" uid="43863" user="Rundling" changeset="424249" lat="52.9650923" lon="10.5682435"/>
  <node id="319271874" version="2" timestamp="2008-12-27T12:10:51Z" uid="4473" user="EtricCeline" changeset="625676" lat="52.9650923" lon="10.5682435"/>
  <node id="319271874" version="3" timestamp="2009-06-25T14:52:59Z" uid="43863" user="Rundling" changeset="1623731" lat="52.9650657" lon="10.5681299"/>
  <node id="319271875" version="1" timestamp="2008-12-16T19:33:11Z" uid="43863" user="Rundling" changeset="424249" lat="52.9660774" lon="10.5683709"/>
  <node id="319271875" version="2" timestamp="2008-12-27T12:10:51Z" uid="4473" user="EtricCeline" changeset="625676" lat="52.9660774" lon="10.5683709"/>
  <node id="319271875" version="3" timestamp="2009-06-25T14:52:59Z" uid="43863" user="Rundling" changeset="1623731" lat="52.9660758" lon="10.568327"/>
  <node id="319271956" version="2" timestamp="2009-02-01T11:10:52Z" uid="9581" user="Lobelt" changeset="9317" lat="51.0633381" lon="13.5725006"/>
  <node id="319273987" version="3" timestamp="2009-08-25T22:48:25Z" uid="36809" user="pfoten_weg_!_" changeset="2262479" lat="46.552203" lon="11.4694504">
    <tag k="name" v="Erdpyramiden"/>
    <tag k="tourism" v="viewpoint"/>
  </node>
  <node id="319275156" version="2" timestamp="2009-12-22T15:52:50Z" uid="74617" user="JohnSmith" changeset="3428209" lat="-26.683435" lon="153.1179239"/>
  <node id="319275160" version="2" timestamp="2009-12-22T15:52:50Z" uid="74617" user="JohnSmith" changeset="3428209" lat="-26.6833728" lon="153.1180667"/>
  <node id="319275163" version="3" timestamp="2009-12-22T15:52:50Z" uid="74617" user="JohnSmith" changeset="3428209" lat="-26.6835113" lon="153.118137"/>
  <node id="319275166" version="4" timestamp="2009-12-22T15:52:50Z" uid="74617" user="JohnSmith" changeset="3428209" lat="-26.6835487" lon="153.1179603"/>
  <node id="319275241" version="1" timestamp="2008-12-16T19:46:18Z" uid="36809" user="pfoten_weg_!_" changeset="418088" lat="48.068864" lon="11.5260615">
    <tag k="created_by" v="RambaZamba"/>
    <tag k="name" v="Pullach i. Isartal"/>
    <tag k="source" v="survey"/>
    <tag k="traffic_sign" v="city_limit"/>
  </node>
  <node id="319275241" version="2" timestamp="2009-02-11T01:01:34Z" uid="36809" user="pfoten_weg_!_" changeset="348985" lat="48.0688403" lon="11.526067">
    <tag k="created_by" v="RambaZamba"/>
    <tag k="name" v="Pullach i. Isartal"/>
    <tag k="source" v="survey"/>
    <tag k="traffic_sign" v="city_limit"/>
  </node>
  <node id="319275241" version="3" timestamp="2009-08-12T13:36:22Z" uid="156995" user="HampelZamba" changeset="2118817" lat="48.0688403" lon="11.526067">
    <tag k="name" v="Pullach i. Isartal"/>
    <tag k="source" v="survey"/>
    <tag k="traffic_sign" v="city_limit"/>
  </node>
  <node id="319275241" version="4" timestamp="2009-08-25T23:46:43Z" uid="36809" user="pfoten_weg_!_" changeset="2262648" lat="48.0688403" lon="11.526067">
    <tag k="name" v="Pullach i. Isartal"/>
    <tag k="source" v="survey"/>
    <tag k="traffic_sign" v="city_limit"/>
  </node>
  <node id="319275241" version="5" timestamp="2009-08-26T00:51:10Z" uid="36809" user="pfoten_weg_!_" changeset="2262879" lat="48.0688403" lon="11.526067">
    <tag k="name" v="Pullach i. Isartal"/>
    <tag k="source" v="survey"/>
    <tag k="traffic_sign" v="city_limit"/>
  </node>
  <node id="319275241" version="6" timestamp="2009-10-03T17:36:14Z" uid="179968" user="Ich_hasse_doitsche_OSM-Korinthenkacker" changeset="2727120" lat="48.0688403" lon="11.526067">
    <tag k="name" v="Pullach i. Isartal"/>
    <tag k="traffic_sign" v="city_limit"/>
  </node>
  <node id="319275241" version="7" timestamp="2009-10-23T21:27:30Z" uid="36809" user="pfoten_weg_!_" changeset="2933540" lat="48.0688403" lon="11.526067">
    <tag k="name" v="Pullach i. Isartal"/>
    <tag k="traffic_sign" v="city_limit"/>
  </node>
  <node id="319275242" version="1" timestamp="2008-12-16T19:46:18Z" uid="36809" user="pfoten_weg_!_" changeset="418088" lat="48.0689387" lon="11.5260302">
    <tag k="created_by" v="RambaZamba"/>
    <tag k="name" v="München"/>
    <tag k="source" v="survey"/>
    <tag k="traffic_sign" v="city_limit"/>
  </node>
  <node id="319275242" version="2" timestamp="2009-02-11T01:01:34Z" uid="36809" user="pfoten_weg_!_" changeset="348985" lat="48.0689734" lon="11.526022">
    <tag k="created_by" v="RambaZamba"/>
    <tag k="name" v="München"/>
    <tag k="source" v="survey"/>
    <tag k="traffic_sign" v="city_limit"/>
  </node>
  <node id="319275242" version="3" timestamp="2009-08-12T13:36:22Z" uid="156995" user="HampelZamba" changeset="2118817" lat="48.0689734" lon="11.526022">
    <tag k="name" v="München"/>
    <tag k="source" v="survey"/>
    <tag k="traffic_sign" v="city_limit"/>
  </node>
  <node id="319275242" version="4" timestamp="2009-08-25T23:46:44Z" uid="36809" user="pfoten_weg_!_" changeset="2262648" lat="48.0689734" lon="11.526022">
    <tag k="name" v="München"/>
    <tag k="source" v="survey"/>
    <tag k="traffic_sign" v="city_limit"/>
  </node>
  <node id="319275242" version="5" timestamp="2009-08-26T00:51:10Z" uid="36809" user="pfoten_weg_!_" changeset="2262879" lat="48.0689734" lon="11.526022">
    <tag k="name" v="München"/>
    <tag k="source" v="survey"/>
    <tag k="traffic_sign" v="city_limit"/>
  </node>
  <node id="319275242" version="6" timestamp="2009-10-03T17:36:13Z" uid="179968" user="Ich_hasse_doitsche_OSM-Korinthenkacker" changeset="2727120" lat="48.0689734" lon="11.526022">
    <tag k="name" v="München"/>
    <tag k="traffic_sign" v="city_limit"/>
  </node>
  <node id="319275242" version="7" timestamp="2009-10-23T21:27:30Z" uid="36809" user="pfoten_weg_!_" changeset="2933540" lat="48.0689734" lon="11.526022">
    <tag k="name" v="München"/>
    <tag k="traffic_sign" v="city_limit"/>
  </node>
  <node id="319275244" version="1" timestamp="2008-12-16T19:46:18Z" uid="36809" user="pfoten_weg_!_" changeset="418088" lat="48.0689403" lon="11.52607"/>
  <node id="319275244" version="2" timestamp="2009-01-08T18:57:51Z" uid="6270" user="mikes" changeset="757119" lat="48.0689403" lon="11.52607"/>
  <node id="319275245" version="1" timestamp="2008-12-16T19:46:19Z" uid="36809" user="pfoten_weg_!_" changeset="418088" lat="48.0688674" lon="11.5260331"/>
  <node id="319275245" version="2" timestamp="2009-01-08T18:57:51Z" uid="6270" user="mikes" changeset="757119" lat="48.0688674" lon="11.5260331"/>
  <node id="319279230" version="3" timestamp="2009-10-09T15:10:44Z" uid="9581" user="Lobelt" changeset="2795067" lat="50.9681705" lon="11.8611379">
    <tag k="highway" v="motorway_junction"/>
    <tag k="name" v="Eisenberg"/>
    <tag k="ref" v="22"/>
  </node>
  <node id="319279230" version="4" timestamp="2010-03-21T11:15:53Z" uid="6270" user="mikes" changeset="4189532" lat="50.9681705" lon="11.8611379">
    <tag k="TMC:cid_58:tabcd_1:Class" v="Point"/>
    <tag k="TMC:cid_58:tabcd_1:Direction" v="positive"/>
    <tag k="TMC:cid_58:tabcd_1:LCLversion" v="9.00"/>
    <tag k="TMC:cid_58:tabcd_1:LocationCode" v="12788"/>
    <tag k="TMC:cid_58:tabcd_1:NextLocationCode" v="12789"/>
    <tag k="TMC:cid_58:tabcd_1:PrevLocationCode" v="45577"/>
    <tag k="highway" v="motorway_junction"/>
    <tag k="name" v="Eisenberg"/>
    <tag k="ref" v="22"/>
  </node>
  <node id="319270754" version="2" timestamp="2012-07-17T08:03:20Z" uid="722137" user="OSMF Redaction Account" changeset="12260045" lat="53.086291" lon="10.732724"/>
  <node id="319270755" version="2" timestamp="2012-07-17T08:03:25Z" uid="722137" user="OSMF Redaction Account" changeset="12260045" lat="53.0915609" lon="10.7313819"/>
  <node id="319270759" version="2" timestamp="2012-07-17T08:03:23Z" uid="722137" user="OSMF Redaction Account" changeset="12260045" lat="53.0896862" lon="10.7320253"/>
  <node id="319270760" version="2" timestamp="2012-07-17T08:03:23Z" uid="722137" user="OSMF Redaction Account" changeset="12260045" lat="53.0895917" lon="10.73205"/>
  <node id="319270762" version="2" timestamp="2012-07-17T08:03:24Z" uid="722137" user="OSMF Redaction Account" changeset="12260045" lat="53.0899591" lon="10.7319436"/>
  <node id="319270763" version="2" timestamp="2012-07-17T08:03:24Z" uid="722137" user="OSMF Redaction Account" changeset="12260045" lat="53.0902798" lon="10.731835"/>
  <node id="319270764" version="3" timestamp="2012-04-09T13:05:49Z" uid="161619" user="FvGordon" changeset="11238164" lat="53.0931343" lon="10.7303492"/>
  <node id="319271874" version="4" timestamp="2012-07-18T17:21:03Z" uid="722137" user="OSMF Redaction Account" changeset="12290353" lat="52.9650657" lon="10.5681299"/>
  <node id="319271875" version="4" timestamp="2012-07-18T17:21:16Z" uid="722137" user="OSMF Redaction Account" changeset="12290353" lat="52.9660758" lon="10.568327"/>
  <node id="319273987" version="4" timestamp="2012-07-16T11:58:08Z" uid="722137" user="OSMF Redaction Account" changeset="12243778" lat="46.5522193" lon="11.4694375">
    <tag k="name" v="Erdpyramiden"/>
    <tag k="tourism" v="viewpoint"/>
  </node>
  <node id="319275156" version="3" timestamp="2012-07-19T15:38:12Z" uid="722137" user="OSMF Redaction Account" changeset="12335641" lat="-26.6834443" lon="153.1179595"/>
  <node id="319275160" version="3" timestamp="2012-07-19T15:38:12Z" uid="722137" user="OSMF Redaction Account" changeset="12335641" lat="-26.6834116" lon="153.1180485"/>
  <node id="319275163" version="4" timestamp="2012-07-19T15:38:12Z" uid="722137" user="OSMF Redaction Account" changeset="12335641" lat="-26.6834911" lon="153.1180719"/>
  <node id="319275166" version="5" timestamp="2012-07-19T15:38:12Z" uid="722137" user="OSMF Redaction Account" changeset="12335641" lat="-26.6835122" lon="153.1179829"/>
</osm>
