<?xml version='1.0' encoding='UTF-8'?>
<osm version="0.6" generator="libosmium/2.20.0">
  <node id="319232386" version="3" timestamp="2009-02-15T12:01:35Z" uid="36809" user="pfoten_weg_!_" changeset="463903" lat="48.1023041" lon="11.5486491">
    <tag k="amenity" v="post_box"/>
    <tag k="operator" v="Deutsche Post"/>
  </node>
  <node id="319232386" version="4" timestamp="2009-03-20T21:49:10Z" uid="5164" user="woodpeck" changeset="839312" lat="48.1023041" lon="11.5486491">
    <tag k="amenity" v="post_box"/>
    <tag k="operator" v="Deutsche Post"/>
  </node>
  <node id="319232386" version="5" timestamp="2009-08-31T20:50:29Z" uid="36809" user="pfoten_weg_!_" changeset="2331411" lat="48.1023041" lon="11.5486491">
    <tag k="amenity" v="post_box"/>
    <tag k="operator" v="Deutsche Post"/>
  </node>
  <node id="319232386" version="6" timestamp="2010-06-20T21:44:54Z" uid="46472" user="sendelhorst" changeset="5037947" lat="48.1023054" lon="11.5486491">
    <tag k="amenity" v="post_box"/>
    <tag k="operator" v="Deutsche Post AG"/>
  </node>
  <node id="319232386" version="7" timestamp="2011-08-30T10:59:39Z" uid="162465" user="ckol" changeset="9165997" lat="48.1023054" lon="11.5486491">
    <tag k="amenity" v="post_box"/>
    <tag k="collection_times" v="fixme"/>
    <tag k="operator" v="Deutsche Post AG"/>
  </node>
</osm>
