<?xml version='1.0' encoding='UTF-8'?>
<osm version="0.6" generator="libosmium/2.20.0">
  <node id="319935056" version="1" timestamp="2008-12-19T10:43:07Z" uid="58091" user="Andreas M" changeset="470976" lat="48.2401413" lon="16.341372"/>
  <node id="319935056" version="2" timestamp="2008-12-19T18:42:54Z" uid="54806" user="_al" changeset="477213" lat="48.2400933" lon="16.3413807"/>
  <node id="319935056" version="3" timestamp="2008-12-19T18:43:13Z" uid="54806" user="_al" changeset="477213" lat="48.2400933" lon="16.3413807"/>
  <node id="319935056" version="4" timestamp="2008-12-19T18:43:24Z" uid="54806" user="_al" changeset="477213" lat="48.2400933" lon="16.3413807"/>
  <node id="319935056" version="5" timestamp="2011-04-06T08:38:28Z" uid="164833" user="reclaM" changeset="7782489" lat="48.2401031" lon="16.3413202"/>
  <node id="319935133" version="1" timestamp="2008-12-19T10:43:19Z" uid="67142" user="zottel" changeset="473195" lat="48.8760842" lon="8.7150398"/>
  <node id="319935133" version="2" timestamp="2009-01-27T16:46:39Z" uid="67142" user="zottel" changeset="843522" lat="48.8760842" lon="8.7150398"/>
  <node id="319935667" version="2" timestamp="2010-07-15T00:39:22Z" uid="74617" user="JohnSmith" changeset="5222078" lat="-27.2247057" lon="153.0230814"/>
  <node id="319935668" version="2" timestamp="2009-11-07T19:54:09Z" uid="74617" user="JohnSmith" changeset="3058596" lat="-27.2250772" lon="153.0229541"/>
  <node id="319935668" version="3" timestamp="2010-07-15T00:39:29Z" uid="74617" user="JohnSmith" changeset="5222078" lat="-27.2250772" lon="153.0229541"/>
  <node id="319935669" version="2" timestamp="2009-11-07T19:54:09Z" uid="74617" user="JohnSmith" changeset="3058596" lat="-27.2252046" lon="153.0230252"/>
  <node id="319935671" version="2" timestamp="2009-11-07T19:54:10Z" uid="74617" user="JohnSmith" changeset="3058596" lat="-27.2252543" lon="153.0231367"/>
  <node id="319935672" version="3" timestamp="2009-11-07T19:54:10Z" uid="74617" user="JohnSmith" changeset="3058596" lat="-27.2253092" lon="153.0233099"/>
  <node id="319935673" version="2" timestamp="2009-11-07T19:54:10Z" uid="74617" user="JohnSmith" changeset="3058596" lat="-27.2254376" lon="153.0235875"/>
  <node id="319935674" version="2" timestamp="2009-11-07T19:54:09Z" uid="74617" user="JohnSmith" changeset="3058596" lat="-27.2254454" lon="153.0236637"/>
  <node id="319935675" version="4" timestamp="2009-11-07T19:54:09Z" uid="74617" user="JohnSmith" changeset="3058596" lat="-27.2254592" lon="153.0237252"/>
  <node id="319935675" version="5" timestamp="2010-02-07T00:51:26Z" uid="219365" user="Kevin70" changeset="3810390" lat="-27.2254592" lon="153.0237252"/>
  <node id="319935685" version="3" timestamp="2009-09-27T15:33:56Z" uid="43863" user="Rundling" changeset="2654233" lat="52.87722" lon="10.640162"/>
  <node id="319936318" version="2" timestamp="2010-04-05T16:45:52Z" uid="163746" user="anti_bot-nonsense" changeset="4334877" lat="52.5157307" lon="16.6625365"/>
  <node id="319936320" version="2" timestamp="2010-04-05T16:42:46Z" uid="163746" user="anti_bot-nonsense" changeset="4334877" lat="52.5156493" lon="16.6657124"/>
  <node id="319936321" version="2" timestamp="2010-04-05T17:07:33Z" uid="163746" user="anti_bot-nonsense" changeset="4334877" lat="52.5156123" lon="16.6682071"/>
  <node id="319936323" version="2" timestamp="2010-04-05T15:55:53Z" uid="163746" user="anti_bot-nonsense" changeset="4334877" lat="52.5155975" lon="16.6703913"/>
  <node id="319936325" version="2" timestamp="2010-04-05T16:49:40Z" uid="163746" user="anti_bot-nonsense" changeset="4334877" lat="52.5155827" lon="16.6723078"/>
  <node id="319936327" version="2" timestamp="2010-04-05T17:38:32Z" uid="163746" user="anti_bot-nonsense" changeset="4334877" lat="52.5155679" lon="16.6738289"/>
  <node id="319936329" version="2" timestamp="2010-04-05T16:32:11Z" uid="163746" user="anti_bot-nonsense" changeset="4334877" lat="52.5156197" lon="16.6750153"/>
  <node id="319936330" version="2" timestamp="2010-04-05T16:55:41Z" uid="163746" user="anti_bot-nonsense" changeset="4334877" lat="52.5158011" lon="16.6771935"/>
  <node id="319936332" version="2" timestamp="2010-04-05T17:44:07Z" uid="163746" user="anti_bot-nonsense" changeset="4334877" lat="52.5162379" lon="16.6820366"/>
  <node id="319936334" version="2" timestamp="2010-04-05T16:38:16Z" uid="163746" user="anti_bot-nonsense" changeset="4334877" lat="52.5166452" lon="16.6866607"/>
  <node id="319936336" version="2" timestamp="2010-04-05T17:27:06Z" uid="163746" user="anti_bot-nonsense" changeset="4334877" lat="52.5167822" lon="16.6882913"/>
  <node id="319936338" version="2" timestamp="2010-04-05T16:19:25Z" uid="163746" user="anti_bot-nonsense" changeset="4334877" lat="52.5169821" lon="16.6904816"/>
  <node id="319936355" version="2" timestamp="2010-04-05T16:26:14Z" uid="163746" user="anti_bot-nonsense" changeset="4334877" lat="52.5174929" lon="16.6963042"/>
  <node id="319936358" version="2" timestamp="2010-04-05T17:39:41Z" uid="163746" user="anti_bot-nonsense" changeset="4334877" lat="52.5177003" lon="16.6986163"/>
  <node id="319936360" version="2" timestamp="2010-04-05T16:33:40Z" uid="163746" user="anti_bot-nonsense" changeset="4334877" lat="52.5180641" lon="16.7029696"/>
  <node id="319936361" version="2" timestamp="2010-04-05T16:57:00Z" uid="163746" user="anti_bot-nonsense" changeset="4334877" lat="52.5182175" lon="16.7046774"/>
  <node id="319936370" version="2" timestamp="2010-04-05T16:47:09Z" uid="163746" user="anti_bot-nonsense" changeset="4334877" lat="52.5184104" lon="16.708573"/>
  <node id="319936372" version="3" timestamp="2010-03-26T01:08:55Z" uid="163746" user="anti_bot-nonsense" changeset="4234454" lat="52.5152492" lon="16.7484334"/>
  <node id="319936382" version="2" timestamp="2010-04-05T17:48:40Z" uid="163746" user="anti_bot-nonsense" changeset="4334877" lat="52.5164031" lon="16.7450918"/>
  <node id="319936384" version="2" timestamp="2010-04-05T17:23:06Z" uid="163746" user="anti_bot-nonsense" changeset="4334877" lat="52.5166491" lon="16.7438052"/>
  <node id="319936386" version="2" timestamp="2010-04-05T16:14:18Z" uid="163746" user="anti_bot-nonsense" changeset="4334877" lat="52.5168728" lon="16.7422246"/>
  <node id="319936388" version="2" timestamp="2010-04-05T17:06:23Z" uid="163746" user="anti_bot-nonsense" changeset="4334877" lat="52.5170964" lon="16.7391735"/>
  <node id="319936389" version="2" timestamp="2010-04-05T17:29:48Z" uid="163746" user="anti_bot-nonsense" changeset="4334877" lat="52.517499" lon="16.7289177"/>
  <node id="319936391" version="2" timestamp="2010-04-05T16:23:09Z" uid="163746" user="anti_bot-nonsense" changeset="4334877" lat="52.5179687" lon="16.7193235"/>
  <node id="319936393" version="2" timestamp="2010-04-05T17:12:50Z" uid="163746" user="anti_bot-nonsense" changeset="4334877" lat="52.5182371" lon="16.71267"/>
  <node id="319936395" version="2" timestamp="2010-04-05T16:02:07Z" uid="163746" user="anti_bot-nonsense" changeset="4334877" lat="52.5183936" lon="16.7098457"/>
  <node id="319936502" version="5" timestamp="2009-05-01T20:52:57Z" uid="20587" user="balrog-kun" changeset="1042242" lat="52.5116674" lon="16.6990061">
    <tag k="addr:postcode" v="62-090"/>
    <tag k="created_by" v="Merkaartor 0.12"/>
    <tag k="is_in" v="gmina Rokietnica, powiat poznański, województwo wielkopolskie, Poland"/>
    <tag k="is_in:country" v="Poland"/>
    <tag k="is_in:county" v="powiat poznański"/>
    <tag k="is_in:municipality" v="gmina Rokietnica"/>
    <tag k="is_in:province" v="województwo wielkopolskie"/>
    <tag k="name" v="Mrowino"/>
    <tag k="place" v="village"/>
    <tag k="population" v="750"/>
    <tag k="source:population" v="wikipedia"/>
    <tag k="teryt:rm" v="01"/>
    <tag k="teryt:simc" v="0594028"/>
    <tag k="teryt:stan_na" v="2009-01-01"/>
    <tag k="teryt:terc" v="3021132"/>
    <tag k="teryt:updated_by" v="teryt2osm combine.py v. 43"/>
    <tag k="wikipedia" v="Mrowino"/>
  </node>
  <node id="319936502" version="6" timestamp="2010-04-05T16:15:18Z" uid="163746" user="anti_bot-nonsense" changeset="4334877" lat="52.5116674" lon="16.6990061">
    <tag k="addr:postcode" v="62-090"/>
    <tag k="is_in" v="gmina Rokietnica, powiat poznański, województwo wielkopolskie, Poland"/>
    <tag k="is_in:country" v="Poland"/>
    <tag k="is_in:county" v="powiat poznański"/>
    <tag k="is_in:municipality" v="gmina Rokietnica"/>
    <tag k="is_in:province" v="województwo wielkopolskie"/>
    <tag k="name" v="Mrowino"/>
    <tag k="place" v="village"/>
    <tag k="population" v="750"/>
    <tag k="source:population" v="wikipedia"/>
    <tag k="teryt:rm" v="01"/>
    <tag k="teryt:simc" v="0594028"/>
    <tag k="teryt:stan_na" v="2009-01-01"/>
    <tag k="teryt:terc" v="3021132"/>
    <tag k="wikipedia" v="Mrowino"/>
  </node>
  <node id="319936502" version="7" timestamp="2010-04-11T04:39:02Z" uid="20587" user="balrog-kun" changeset="4389130" lat="52.5123642" lon="16.6985423">
    <tag k="addr:postcode" v="62-090"/>
    <tag k="is_in" v="gmina Rokietnica, powiat poznański, województwo wielkopolskie, Poland"/>
    <tag k="is_in:country" v="Poland"/>
    <tag k="is_in:county" v="powiat poznański"/>
    <tag k="is_in:municipality" v="gmina Rokietnica"/>
    <tag k="is_in:province" v="województwo wielkopolskie"/>
    <tag k="name" v="Mrowino"/>
    <tag k="place" v="village"/>
    <tag k="population" v="750"/>
    <tag k="source:population" v="wikipedia"/>
    <tag k="teryt:rm" v="01"/>
    <tag k="teryt:simc" v="0594028"/>
    <tag k="teryt:stan_na" v="2009-01-01"/>
    <tag k="teryt:terc" v="3021132"/>
    <tag k="wikipedia" v="Mrowino"/>
  </node>
  <node id="319936505" version="5" timestamp="2009-05-01T20:53:12Z" uid="20587" user="balrog-kun" changeset="1042242" lat="52.5210585" lon="16.6943613">
    <tag k="addr:postcode" v="62-090"/>
    <tag k="created_by" v="Merkaartor 0.12"/>
    <tag k="is_in" v="gmina Rokietnica, powiat poznański, województwo wielkopolskie, Poland"/>
    <tag k="is_in:country" v="Poland"/>
    <tag k="is_in:county" v="powiat poznański"/>
    <tag k="is_in:municipality" v="gmina Rokietnica"/>
    <tag k="is_in:province" v="województwo wielkopolskie"/>
    <tag k="name" v="Cerekwica"/>
    <tag k="place" v="village"/>
    <tag k="teryt:rm" v="01"/>
    <tag k="teryt:simc" v="0593980"/>
    <tag k="teryt:stan_na" v="2009-01-01"/>
    <tag k="teryt:terc" v="3021132"/>
    <tag k="teryt:updated_by" v="teryt2osm combine.py v. 43"/>
    <tag k="wikipedia" v="Cerekwica, Poznań County"/>
  </node>
  <node id="319936505" version="6" timestamp="2010-04-05T17:31:07Z" uid="163746" user="anti_bot-nonsense" changeset="4334877" lat="52.5210585" lon="16.6943613">
    <tag k="addr:postcode" v="62-090"/>
    <tag k="is_in" v="gmina Rokietnica, powiat poznański, województwo wielkopolskie, Poland"/>
    <tag k="is_in:country" v="Poland"/>
    <tag k="is_in:county" v="powiat poznański"/>
    <tag k="is_in:municipality" v="gmina Rokietnica"/>
    <tag k="is_in:province" v="województwo wielkopolskie"/>
    <tag k="name" v="Cerekwica"/>
    <tag k="place" v="village"/>
    <tag k="teryt:rm" v="01"/>
    <tag k="teryt:simc" v="0593980"/>
    <tag k="teryt:stan_na" v="2009-01-01"/>
    <tag k="teryt:terc" v="3021132"/>
    <tag k="wikipedia" v="Cerekwica, Poznań County"/>
  </node>
  <node id="319936505" version="7" timestamp="2010-04-11T04:39:02Z" uid="20587" user="balrog-kun" changeset="4389130" lat="52.520486" lon="16.6937699">
    <tag k="addr:postcode" v="62-090"/>
    <tag k="is_in" v="gmina Rokietnica, powiat poznański, województwo wielkopolskie, Poland"/>
    <tag k="is_in:country" v="Poland"/>
    <tag k="is_in:county" v="powiat poznański"/>
    <tag k="is_in:municipality" v="gmina Rokietnica"/>
    <tag k="is_in:province" v="województwo wielkopolskie"/>
    <tag k="name" v="Cerekwica"/>
    <tag k="place" v="village"/>
    <tag k="teryt:rm" v="01"/>
    <tag k="teryt:simc" v="0593980"/>
    <tag k="teryt:stan_na" v="2009-01-01"/>
    <tag k="teryt:terc" v="3021132"/>
    <tag k="wikipedia" v="Cerekwica, Poznań County"/>
  </node>
  <node id="319936509" version="5" timestamp="2009-05-01T20:54:55Z" uid="20587" user="balrog-kun" changeset="1042242" lat="52.5190527" lon="16.6597502">
    <tag k="addr:postcode" v="62-090"/>
    <tag k="created_by" v="Merkaartor 0.12"/>
    <tag k="is_in" v="gmina Rokietnica, powiat poznański, województwo wielkopolskie, Poland"/>
    <tag k="is_in:country" v="Poland"/>
    <tag k="is_in:county" v="powiat poznański"/>
    <tag k="is_in:municipality" v="gmina Rokietnica"/>
    <tag k="is_in:province" v="województwo wielkopolskie"/>
    <tag k="name" v="Przybroda"/>
    <tag k="place" v="village"/>
    <tag k="population" v="390"/>
    <tag k="source:population" v="wikipedia"/>
    <tag k="teryt:rm" v="01"/>
    <tag k="teryt:simc" v="0594086"/>
    <tag k="teryt:stan_na" v="2009-01-01"/>
    <tag k="teryt:terc" v="3021132"/>
    <tag k="teryt:updated_by" v="teryt2osm combine.py v. 43"/>
    <tag k="wikipedia" v="pl:Przybroda"/>
  </node>
  <node id="319936509" version="6" timestamp="2010-04-11T04:39:02Z" uid="20587" user="balrog-kun" changeset="4389130" lat="52.5194719" lon="16.6606201">
    <tag k="addr:postcode" v="62-090"/>
    <tag k="is_in" v="gmina Rokietnica, powiat poznański, województwo wielkopolskie, Poland"/>
    <tag k="is_in:country" v="Poland"/>
    <tag k="is_in:county" v="powiat poznański"/>
    <tag k="is_in:municipality" v="gmina Rokietnica"/>
    <tag k="is_in:province" v="województwo wielkopolskie"/>
    <tag k="name" v="Przybroda"/>
    <tag k="place" v="village"/>
    <tag k="population" v="390"/>
    <tag k="source:population" v="wikipedia"/>
    <tag k="teryt:rm" v="01"/>
    <tag k="teryt:simc" v="0594086"/>
    <tag k="teryt:stan_na" v="2009-01-01"/>
    <tag k="teryt:terc" v="3021132"/>
    <tag k="teryt:updated_by" v="teryt2osm combine.py v. 43"/>
    <tag k="wikipedia" v="pl:Przybroda"/>
  </node>
  <node id="319936626" version="5" timestamp="2009-05-01T20:54:16Z" uid="20587" user="balrog-kun" changeset="1042242" lat="52.4955885" lon="16.7676178">
    <tag k="addr:postcode" v="62-090"/>
    <tag k="created_by" v="Merkaartor 0.12"/>
    <tag k="is_in" v="gmina Rokietnica, powiat poznański, województwo wielkopolskie, Poland"/>
    <tag k="is_in:country" v="Poland"/>
    <tag k="is_in:county" v="powiat poznański"/>
    <tag k="is_in:municipality" v="gmina Rokietnica"/>
    <tag k="is_in:province" v="województwo wielkopolskie"/>
    <tag k="name" v="Starzyny"/>
    <tag k="place" v="village"/>
    <tag k="population" v="80"/>
    <tag k="source:population" v="wikipedia"/>
    <tag k="teryt:rm" v="01"/>
    <tag k="teryt:simc" v="0594100"/>
    <tag k="teryt:stan_na" v="2009-01-01"/>
    <tag k="teryt:terc" v="3021132"/>
    <tag k="teryt:updated_by" v="teryt2osm combine.py v. 43"/>
    <tag k="wikipedia" v="pl:Starzyny (województwo wielkopolskie)"/>
  </node>
  <node id="319936628" version="5" timestamp="2009-05-01T20:50:37Z" uid="20587" user="balrog-kun" changeset="1042242" lat="52.5188214" lon="16.7745433">
    <tag k="created_by" v="Merkaartor 0.12"/>
    <tag k="is_in" v="gmina Rokietnica, powiat poznański, województwo wielkopolskie, Poland"/>
    <tag k="is_in:country" v="Poland"/>
    <tag k="is_in:county" v="powiat poznański"/>
    <tag k="is_in:municipality" v="gmina Rokietnica"/>
    <tag k="is_in:province" v="województwo wielkopolskie"/>
    <tag k="name" v="Bytkowo"/>
    <tag k="place" v="village"/>
    <tag k="teryt:rm" v="01"/>
    <tag k="teryt:simc" v="0593974"/>
    <tag k="teryt:stan_na" v="2009-01-01"/>
    <tag k="teryt:terc" v="3021132"/>
    <tag k="teryt:updated_by" v="teryt2osm combine.py v. 43"/>
    <tag k="wikipedia" v="pl:Bytkowo"/>
  </node>
  <node id="319936628" version="6" timestamp="2010-04-05T16:31:30Z" uid="163746" user="anti_bot-nonsense" changeset="4334877" lat="52.5188214" lon="16.7745433">
    <tag k="is_in" v="gmina Rokietnica, powiat poznański, województwo wielkopolskie, Poland"/>
    <tag k="is_in:country" v="Poland"/>
    <tag k="is_in:county" v="powiat poznański"/>
    <tag k="is_in:municipality" v="gmina Rokietnica"/>
    <tag k="is_in:province" v="województwo wielkopolskie"/>
    <tag k="name" v="Bytkowo"/>
    <tag k="place" v="village"/>
    <tag k="teryt:rm" v="01"/>
    <tag k="teryt:simc" v="0593974"/>
    <tag k="teryt:stan_na" v="2009-01-01"/>
    <tag k="teryt:terc" v="3021132"/>
    <tag k="wikipedia" v="pl:Bytkowo"/>
  </node>
  <node id="319936628" version="7" timestamp="2010-04-11T04:39:03Z" uid="20587" user="balrog-kun" changeset="4389130" lat="52.518044" lon="16.7738583">
    <tag k="is_in" v="gmina Rokietnica, powiat poznański, województwo wielkopolskie, Poland"/>
    <tag k="is_in:country" v="Poland"/>
    <tag k="is_in:county" v="powiat poznański"/>
    <tag k="is_in:municipality" v="gmina Rokietnica"/>
    <tag k="is_in:province" v="województwo wielkopolskie"/>
    <tag k="name" v="Bytkowo"/>
    <tag k="place" v="village"/>
    <tag k="teryt:rm" v="01"/>
    <tag k="teryt:simc" v="0593974"/>
    <tag k="teryt:stan_na" v="2009-01-01"/>
    <tag k="teryt:terc" v="3021132"/>
    <tag k="wikipedia" v="pl:Bytkowo"/>
  </node>
  <node id="319936630" version="5" timestamp="2009-05-01T20:53:18Z" uid="20587" user="balrog-kun" changeset="1042242" lat="52.5215229" lon="16.805797">
    <tag k="addr:postcode" v="62-090"/>
    <tag k="created_by" v="Merkaartor 0.12"/>
    <tag k="is_in" v="gmina Rokietnica, powiat poznański, województwo wielkopolskie, Poland"/>
    <tag k="is_in:country" v="Poland"/>
    <tag k="is_in:county" v="powiat poznański"/>
    <tag k="is_in:municipality" v="gmina Rokietnica"/>
    <tag k="is_in:province" v="województwo wielkopolskie"/>
    <tag k="name" v="Sobota"/>
    <tag k="place" v="village"/>
    <tag k="population" v="200"/>
    <tag k="source:population" v="wikipedia"/>
    <tag k="teryt:rm" v="01"/>
    <tag k="teryt:simc" v="0594130"/>
    <tag k="teryt:stan_na" v="2009-01-01"/>
    <tag k="teryt:terc" v="3021132"/>
    <tag k="teryt:updated_by" v="teryt2osm combine.py v. 43"/>
    <tag k="wikipedia" v="pl:Sobota (województwo wielkopolskie)"/>
  </node>
  <node id="319936630" version="6" timestamp="2010-04-05T17:20:12Z" uid="163746" user="anti_bot-nonsense" changeset="4334877" lat="52.5215229" lon="16.805797">
    <tag k="addr:postcode" v="62-090"/>
    <tag k="is_in" v="gmina Rokietnica, powiat poznański, województwo wielkopolskie, Poland"/>
    <tag k="is_in:country" v="Poland"/>
    <tag k="is_in:county" v="powiat poznański"/>
    <tag k="is_in:municipality" v="gmina Rokietnica"/>
    <tag k="is_in:province" v="województwo wielkopolskie"/>
    <tag k="name" v="Sobota"/>
    <tag k="place" v="village"/>
    <tag k="population" v="200"/>
    <tag k="source:population" v="wikipedia"/>
    <tag k="teryt:rm" v="01"/>
    <tag k="teryt:simc" v="0594130"/>
    <tag k="teryt:stan_na" v="2009-01-01"/>
    <tag k="teryt:terc" v="3021132"/>
    <tag k="wikipedia" v="pl:Sobota (województwo wielkopolskie)"/>
  </node>
  <node id="319936630" version="7" timestamp="2010-04-11T04:39:03Z" uid="20587" user="balrog-kun" changeset="4389130" lat="52.521402" lon="16.8050269">
    <tag k="addr:postcode" v="62-090"/>
    <tag k="is_in" v="gmina Rokietnica, powiat poznański, województwo wielkopolskie, Poland"/>
    <tag k="is_in:country" v="Poland"/>
    <tag k="is_in:county" v="powiat poznański"/>
    <tag k="is_in:municipality" v="gmina Rokietnica"/>
    <tag k="is_in:province" v="województwo wielkopolskie"/>
    <tag k="name" v="Sobota"/>
    <tag k="place" v="village"/>
    <tag k="population" v="200"/>
    <tag k="source:population" v="wikipedia"/>
    <tag k="teryt:rm" v="01"/>
    <tag k="teryt:simc" v="0594130"/>
    <tag k="teryt:stan_na" v="2009-01-01"/>
    <tag k="teryt:terc" v="3021132"/>
    <tag k="wikipedia" v="pl:Sobota (województwo wielkopolskie)"/>
  </node>
  <node id="319936825" version="2" timestamp="2010-06-14T03:33:41Z" uid="74617" user="JohnSmith" changeset="4984549" lat="-27.2254173" lon="153.023272"/>
  <node id="319936827" version="2" timestamp="2010-06-14T03:33:40Z" uid="74617" user="JohnSmith" changeset="4984549" lat="-27.2259942" lon="153.0229899"/>
  <node id="319936828" version="3" timestamp="2010-06-14T03:33:40Z" uid="74617" user="JohnSmith" changeset="4984549" lat="-27.2260762" lon="153.0228979"/>
  <node id="319936829" version="3" timestamp="2010-06-14T03:33:39Z" uid="74617" user="JohnSmith" changeset="4984549" lat="-27.2267541" lon="153.0226156"/>
  <node id="319936831" version="2" timestamp="2009-11-07T20:10:19Z" uid="74617" user="JohnSmith" changeset="3058713" lat="-27.227025" lon="153.0224663"/>
  <node id="319936831" version="3" timestamp="2010-06-14T03:33:40Z" uid="74617" user="JohnSmith" changeset="4984549" lat="-27.2270368" lon="153.0224748"/>
  <node id="319937846" version="4" timestamp="2009-11-07T20:10:22Z" uid="74617" user="JohnSmith" changeset="3058713" lat="-27.2272483" lon="153.0233521"/>
  <node id="319937846" version="5" timestamp="2011-06-27T08:06:20Z" uid="476245" user="Thorsten Engler" changeset="8559388" lat="-27.227234" lon="153.0232907">
    <tag k="source" v="survey"/>
    <tag k="traffic_calming" v="island"/>
  </node>
  <node id="319937848" version="4" timestamp="2009-11-07T20:10:22Z" uid="74617" user="JohnSmith" changeset="3058713" lat="-27.2275199" lon="153.024019"/>
  <node id="319937853" version="5" timestamp="2009-11-07T20:10:22Z" uid="74617" user="JohnSmith" changeset="3058713" lat="-27.22811" lon="153.0242735"/>
  <node id="319937855" version="4" timestamp="2009-11-07T20:10:21Z" uid="74617" user="JohnSmith" changeset="3058713" lat="-27.2284853" lon="153.02388"/>
  <node id="319937857" version="5" timestamp="2009-11-07T20:10:21Z" uid="74617" user="JohnSmith" changeset="3058713" lat="-27.2289132" lon="153.0235139"/>
  <node id="319937858" version="4" timestamp="2009-11-07T20:10:21Z" uid="74617" user="JohnSmith" changeset="3058713" lat="-27.229025" lon="153.0235321"/>
  <node id="319937861" version="5" timestamp="2009-11-07T20:10:21Z" uid="74617" user="JohnSmith" changeset="3058713" lat="-27.2295064" lon="153.0234571"/>
  <node id="319938147" version="1" timestamp="2008-12-19T10:49:35Z" uid="58091" user="Andreas M" changeset="470976" lat="48.2540171" lon="16.3378648"/>
  <node id="319938147" version="2" timestamp="2012-03-05T11:45:19Z" uid="54806" user="_al" changeset="10878251" lat="48.2540616" lon="16.3378279"/>
  <node id="319938369" version="3" timestamp="2009-11-07T20:10:21Z" uid="74617" user="JohnSmith" changeset="3058713" lat="-27.2266561" lon="153.0230429"/>
  <node id="319938370" version="3" timestamp="2009-11-07T20:10:23Z" uid="74617" user="JohnSmith" changeset="3058713" lat="-27.2265102" lon="153.0231239"/>
  <node id="319938372" version="3" timestamp="2009-11-07T20:10:23Z" uid="74617" user="JohnSmith" changeset="3058713" lat="-27.2264496" lon="153.0231817"/>
  <node id="319938373" version="3" timestamp="2009-11-07T20:10:23Z" uid="74617" user="JohnSmith" changeset="3058713" lat="-27.2263771" lon="153.0232347"/>
  <node id="319938373" version="4" timestamp="2011-06-27T08:07:09Z" uid="476245" user="Thorsten Engler" changeset="8559388" lat="-27.2263856" lon="153.0232361">
    <tag k="source" v="bing"/>
    <tag k="traffic_calming" v="chicane"/>
  </node>
  <node id="319938374" version="3" timestamp="2009-11-07T20:10:23Z" uid="74617" user="JohnSmith" changeset="3058713" lat="-27.2263219" lon="153.0232832"/>
  <node id="319938375" version="3" timestamp="2009-11-07T20:10:23Z" uid="74617" user="JohnSmith" changeset="3058713" lat="-27.2259744" lon="153.0238479"/>
  <node id="319938375" version="4" timestamp="2010-07-13T03:00:50Z" uid="74617" user="JohnSmith" changeset="5204244" lat="-27.2259892" lon="153.0238507"/>
  <node id="319938376" version="3" timestamp="2009-11-07T20:10:23Z" uid="74617" user="JohnSmith" changeset="3058713" lat="-27.2258552" lon="153.0239857"/>
  <node id="319938376" version="4" timestamp="2010-07-13T03:00:50Z" uid="74617" user="JohnSmith" changeset="5204244" lat="-27.2258417" lon="153.024006"/>
  <node id="319938377" version="5" timestamp="2009-11-07T20:10:24Z" uid="74617" user="JohnSmith" changeset="3058713" lat="-27.2257679" lon="153.0240685"/>
  <node id="319938377" version="6" timestamp="2010-02-07T00:51:26Z" uid="219365" user="Kevin70" changeset="3810390" lat="-27.2257679" lon="153.0240685"/>
  <node id="319938694" version="4" timestamp="2009-11-07T20:10:22Z" uid="74617" user="JohnSmith" changeset="3058713" lat="-27.2278245" lon="153.0245972"/>
  <node id="319938695" version="4" timestamp="2009-11-07T20:10:22Z" uid="74617" user="JohnSmith" changeset="3058713" lat="-27.227769" lon="153.0246724"/>
  <node id="319938696" version="4" timestamp="2009-11-07T20:10:22Z" uid="74617" user="JohnSmith" changeset="3058713" lat="-27.2275318" lon="153.024943"/>
  <node id="319938697" version="4" timestamp="2009-11-07T20:10:22Z" uid="74617" user="JohnSmith" changeset="3058713" lat="-27.2274425" lon="153.0250058"/>
  <node id="319938698" version="7" timestamp="2009-11-07T20:10:22Z" uid="74617" user="JohnSmith" changeset="3058713" lat="-27.2272871" lon="153.0250811"/>
  <node id="319938699" version="4" timestamp="2009-11-07T20:10:22Z" uid="74617" user="JohnSmith" changeset="3058713" lat="-27.2272478" lon="153.0251724"/>
  <node id="319938700" version="4" timestamp="2009-11-07T20:10:22Z" uid="74617" user="JohnSmith" changeset="3058713" lat="-27.2271661" lon="153.0252654"/>
  <node id="319938836" version="3" timestamp="2009-11-07T20:10:24Z" uid="74617" user="JohnSmith" changeset="3058713" lat="-27.2260737" lon="153.0245225"/>
  <node id="319938837" version="4" timestamp="2009-11-07T20:10:23Z" uid="74617" user="JohnSmith" changeset="3058713" lat="-27.2259272" lon="153.0244038"/>
  <node id="319938837" version="5" timestamp="2010-02-07T00:51:26Z" uid="219365" user="Kevin70" changeset="3810390" lat="-27.2259272" lon="153.0244038"/>
  <node id="319938838" version="3" timestamp="2009-11-07T20:10:24Z" uid="74617" user="JohnSmith" changeset="3058713" lat="-27.2259203" lon="153.0242927"/>
  <node id="319938838" version="4" timestamp="2010-02-07T00:51:26Z" uid="219365" user="Kevin70" changeset="3810390" lat="-27.2259203" lon="153.0242927"/>
  <node id="319938839" version="3" timestamp="2009-11-07T20:10:24Z" uid="74617" user="JohnSmith" changeset="3058713" lat="-27.2256038" lon="153.0238391"/>
  <node id="319938839" version="4" timestamp="2010-02-07T00:51:26Z" uid="219365" user="Kevin70" changeset="3810390" lat="-27.2256038" lon="153.0238391"/>
  <node id="319938840" version="3" timestamp="2009-11-07T20:10:24Z" uid="74617" user="JohnSmith" changeset="3058713" lat="-27.2255398" lon="153.023777"/>
  <node id="319938840" version="4" timestamp="2010-02-07T00:51:26Z" uid="219365" user="Kevin70" changeset="3810390" lat="-27.2255398" lon="153.023777"/>
  <node id="319938841" version="3" timestamp="2009-11-07T19:54:09Z" uid="74617" user="JohnSmith" changeset="3058596" lat="-27.2254032" lon="153.0237709"/>
  <node id="319938841" version="4" timestamp="2010-02-07T00:51:29Z" uid="219365" user="Kevin70" changeset="3810390" lat="-27.2254032" lon="153.0237709"/>
  <node id="319938842" version="3" timestamp="2009-11-07T19:54:10Z" uid="74617" user="JohnSmith" changeset="3058596" lat="-27.2251711" lon="153.0238899"/>
  <node id="319938842" version="4" timestamp="2010-02-07T00:51:29Z" uid="219365" user="Kevin70" changeset="3810390" lat="-27.2251711" lon="153.0238899"/>
  <node id="319939092" version="2" timestamp="2009-11-07T20:10:22Z" uid="74617" user="JohnSmith" changeset="3058713" lat="-27.227965" lon="153.0231389"/>
  <node id="319939094" version="2" timestamp="2009-11-07T20:10:19Z" uid="74617" user="JohnSmith" changeset="3058713" lat="-27.2279219" lon="153.0229477"/>
  <node id="319939097" version="3" timestamp="2009-11-07T20:10:19Z" uid="74617" user="JohnSmith" changeset="3058713" lat="-27.227921" lon="153.0225044"/>
  <node id="319939099" version="2" timestamp="2009-11-07T20:10:19Z" uid="74617" user="JohnSmith" changeset="3058713" lat="-27.2279911" lon="153.0224769"/>
  <node id="319939102" version="2" timestamp="2009-11-07T20:10:19Z" uid="74617" user="JohnSmith" changeset="3058713" lat="-27.2286151" lon="153.0227275"/>
  <node id="319939105" version="2" timestamp="2009-11-07T20:10:21Z" uid="74617" user="JohnSmith" changeset="3058713" lat="-27.2288475" lon="153.0233201"/>
  <node id="319939239" version="2" timestamp="2009-11-07T20:10:18Z" uid="74617" user="JohnSmith" changeset="3058713" lat="-27.2295805" lon="153.0235792"/>
  <node id="319939240" version="2" timestamp="2009-11-07T20:10:21Z" uid="74617" user="JohnSmith" changeset="3058713" lat="-27.2295597" lon="153.023504"/>
  <node id="319939241" version="2" timestamp="2009-11-07T20:10:21Z" uid="74617" user="JohnSmith" changeset="3058713" lat="-27.2295464" lon="153.0233564"/>
  <node id="319939242" version="2" timestamp="2010-06-10T07:51:12Z" uid="74617" user="JohnSmith" changeset="4951231" lat="-27.2295208" lon="153.0230663"/>
  <node id="319939242" version="3" timestamp="2011-06-27T08:07:29Z" uid="476245" user="Thorsten Engler" changeset="8559388" lat="-27.2295074" lon="153.0230596"/>
  <node id="319939244" version="4" timestamp="2010-06-10T07:51:12Z" uid="74617" user="JohnSmith" changeset="4951231" lat="-27.2294736" lon="153.0229017"/>
  <node id="319939245" version="2" timestamp="2010-06-10T07:51:12Z" uid="74617" user="JohnSmith" changeset="4951231" lat="-27.2292374" lon="153.0224754">
    <tag k="noexit" v="yes"/>
  </node>
  <node id="319939381" version="2" timestamp="2010-06-14T03:33:40Z" uid="74617" user="JohnSmith" changeset="4984549" lat="-27.2281594" lon="153.0212649"/>
  <node id="319939382" version="2" timestamp="2010-06-14T03:33:40Z" uid="74617" user="JohnSmith" changeset="4984549" lat="-27.2280479" lon="153.0215501"/>
  <node id="319939383" version="2" timestamp="2009-11-07T20:10:24Z" uid="74617" user="JohnSmith" changeset="3058713" lat="-27.2259083" lon="153.0244511"/>
  <node id="319939383" version="3" timestamp="2010-02-07T00:51:26Z" uid="219365" user="Kevin70" changeset="3810390" lat="-27.2259083" lon="153.0244511"/>
  <node id="319939384" version="2" timestamp="2009-11-07T20:10:24Z" uid="74617" user="JohnSmith" changeset="3058713" lat="-27.2258433" lon="153.0245154"/>
  <node id="319939384" version="3" timestamp="2010-02-07T00:51:27Z" uid="219365" user="Kevin70" changeset="3810390" lat="-27.2258433" lon="153.0245154"/>
  <node id="319939385" version="2" timestamp="2009-11-07T20:10:24Z" uid="74617" user="JohnSmith" changeset="3058713" lat="-27.2257043" lon="153.0246036"/>
  <node id="319939385" version="3" timestamp="2010-02-07T00:51:27Z" uid="219365" user="Kevin70" changeset="3810390" lat="-27.2257043" lon="153.0246036"/>
  <node id="319939448" version="2" timestamp="2009-11-07T20:10:22Z" uid="74617" user="JohnSmith" changeset="3058713" lat="-27.2282131" lon="153.0243742"/>
  <node id="319939449" version="2" timestamp="2009-11-07T20:10:21Z" uid="74617" user="JohnSmith" changeset="3058713" lat="-27.22828" lon="153.0244653"/>
  <node id="319939450" version="2" timestamp="2009-11-07T20:10:21Z" uid="74617" user="JohnSmith" changeset="3058713" lat="-27.2283481" lon="153.0245959"/>
  <node id="319939455" version="4" timestamp="2009-11-07T20:10:23Z" uid="74617" user="JohnSmith" changeset="3058713" lat="-27.2272435" lon="153.0250248"/>
  <node id="319939456" version="4" timestamp="2009-11-07T20:10:23Z" uid="74617" user="JohnSmith" changeset="3058713" lat="-27.2271031" lon="153.0248324"/>
  <node id="319939932" version="5" timestamp="2009-05-01T20:51:28Z" uid="20587" user="balrog-kun" changeset="1042242" lat="52.562183" lon="16.7959386">
    <tag k="addr:postcode" v="62-002"/>
    <tag k="created_by" v="Merkaartor 0.12"/>
    <tag k="is_in" v="gmina Suchy Las, powiat poznański, województwo wielkopolskie, Poland"/>
    <tag k="is_in:country" v="Poland"/>
    <tag k="is_in:county" v="powiat poznański"/>
    <tag k="is_in:municipality" v="gmina Suchy Las"/>
    <tag k="is_in:province" v="województwo wielkopolskie"/>
    <tag k="name" v="Zielątkowo"/>
    <tag k="place" v="village"/>
    <tag k="teryt:rm" v="01"/>
    <tag k="teryt:simc" v="0595387"/>
    <tag k="teryt:stan_na" v="2009-01-01"/>
    <tag k="teryt:terc" v="3021152"/>
    <tag k="teryt:updated_by" v="teryt2osm combine.py v. 43"/>
    <tag k="wikipedia" v="Zielątkowo, Greater Poland Voivodeship"/>
  </node>
  <node id="319939932" version="6" timestamp="2010-04-11T04:39:03Z" uid="20587" user="balrog-kun" changeset="4389130" lat="52.5617831" lon="16.796554">
    <tag k="addr:postcode" v="62-002"/>
    <tag k="is_in" v="gmina Suchy Las, powiat poznański, województwo wielkopolskie, Poland"/>
    <tag k="is_in:country" v="Poland"/>
    <tag k="is_in:county" v="powiat poznański"/>
    <tag k="is_in:municipality" v="gmina Suchy Las"/>
    <tag k="is_in:province" v="województwo wielkopolskie"/>
    <tag k="name" v="Zielątkowo"/>
    <tag k="place" v="village"/>
    <tag k="teryt:rm" v="01"/>
    <tag k="teryt:simc" v="0595387"/>
    <tag k="teryt:stan_na" v="2009-01-01"/>
    <tag k="teryt:terc" v="3021152"/>
    <tag k="teryt:updated_by" v="teryt2osm combine.py v. 43"/>
    <tag k="wikipedia" v="Zielątkowo, Greater Poland Voivodeship"/>
  </node>
  <node id="319939933" version="6" timestamp="2009-05-01T20:54:53Z" uid="20587" user="balrog-kun" changeset="1042242" lat="52.5572247" lon="16.8409021">
    <tag k="addr:postcode" v="62-001"/>
    <tag k="created_by" v="Potlatch 0.10f"/>
    <tag k="is_in" v="gmina Suchy Las, powiat poznański, województwo wielkopolskie, Poland"/>
    <tag k="is_in:country" v="Poland"/>
    <tag k="is_in:county" v="powiat poznański"/>
    <tag k="is_in:municipality" v="gmina Suchy Las"/>
    <tag k="is_in:province" v="województwo wielkopolskie"/>
    <tag k="name" v="Chludowo"/>
    <tag k="place" v="village"/>
    <tag k="population" v="1000"/>
    <tag k="source:population" v="wikipedia"/>
    <tag k="teryt:rm" v="01"/>
    <tag k="teryt:simc" v="0595358"/>
    <tag k="teryt:stan_na" v="2009-01-01"/>
    <tag k="teryt:terc" v="3021152"/>
    <tag k="teryt:updated_by" v="teryt2osm combine.py v. 43"/>
    <tag k="wikipedia" v="Chludowo"/>
  </node>
  <node id="319939933" version="7" timestamp="2010-04-11T04:39:03Z" uid="20587" user="balrog-kun" changeset="4389130" lat="52.5574213" lon="16.8417325">
    <tag k="addr:postcode" v="62-001"/>
    <tag k="is_in" v="gmina Suchy Las, powiat poznański, województwo wielkopolskie, Poland"/>
    <tag k="is_in:country" v="Poland"/>
    <tag k="is_in:county" v="powiat poznański"/>
    <tag k="is_in:municipality" v="gmina Suchy Las"/>
    <tag k="is_in:province" v="województwo wielkopolskie"/>
    <tag k="name" v="Chludowo"/>
    <tag k="place" v="village"/>
    <tag k="population" v="1000"/>
    <tag k="source:population" v="wikipedia"/>
    <tag k="teryt:rm" v="01"/>
    <tag k="teryt:simc" v="0595358"/>
    <tag k="teryt:stan_na" v="2009-01-01"/>
    <tag k="teryt:terc" v="3021152"/>
    <tag k="teryt:updated_by" v="teryt2osm combine.py v. 43"/>
    <tag k="wikipedia" v="Chludowo"/>
  </node>
  <node id="319939934" version="6" timestamp="2009-05-01T20:49:45Z" uid="20587" user="balrog-kun" changeset="1042242" lat="52.536493" lon="16.8345077">
    <tag k="created_by" v="Potlatch 0.10f"/>
    <tag k="is_in" v="gmina Suchy Las, powiat poznański, województwo wielkopolskie, Poland"/>
    <tag k="is_in:country" v="Poland"/>
    <tag k="is_in:county" v="powiat poznański"/>
    <tag k="is_in:municipality" v="gmina Suchy Las"/>
    <tag k="is_in:province" v="województwo wielkopolskie"/>
    <tag k="name" v="Golęczewo"/>
    <tag k="place" v="village"/>
    <tag k="teryt:rm" v="01"/>
    <tag k="teryt:simc" v="0595364"/>
    <tag k="teryt:stan_na" v="2009-01-01"/>
    <tag k="teryt:terc" v="3021152"/>
    <tag k="teryt:updated_by" v="teryt2osm combine.py v. 43"/>
    <tag k="wikipedia" v="Golęczewo"/>
  </node>
  <node id="319939934" version="7" timestamp="2010-04-05T17:41:12Z" uid="163746" user="anti_bot-nonsense" changeset="4334877" lat="52.536493" lon="16.8345077">
    <tag k="is_in" v="gmina Suchy Las, powiat poznański, województwo wielkopolskie, Poland"/>
    <tag k="is_in:country" v="Poland"/>
    <tag k="is_in:county" v="powiat poznański"/>
    <tag k="is_in:municipality" v="gmina Suchy Las"/>
    <tag k="is_in:province" v="województwo wielkopolskie"/>
    <tag k="name" v="Golęczewo"/>
    <tag k="place" v="village"/>
    <tag k="teryt:rm" v="01"/>
    <tag k="teryt:simc" v="0595364"/>
    <tag k="teryt:stan_na" v="2009-01-01"/>
    <tag k="teryt:terc" v="3021152"/>
    <tag k="wikipedia" v="Golęczewo"/>
  </node>
  <node id="319939934" version="8" timestamp="2010-04-11T04:39:03Z" uid="20587" user="balrog-kun" changeset="4389130" lat="52.5360841" lon="16.8319704">
    <tag k="is_in" v="gmina Suchy Las, powiat poznański, województwo wielkopolskie, Poland"/>
    <tag k="is_in:country" v="Poland"/>
    <tag k="is_in:county" v="powiat poznański"/>
    <tag k="is_in:municipality" v="gmina Suchy Las"/>
    <tag k="is_in:province" v="województwo wielkopolskie"/>
    <tag k="name" v="Golęczewo"/>
    <tag k="place" v="village"/>
    <tag k="teryt:rm" v="01"/>
    <tag k="teryt:simc" v="0595364"/>
    <tag k="teryt:stan_na" v="2009-01-01"/>
    <tag k="teryt:terc" v="3021152"/>
    <tag k="wikipedia" v="Golęczewo"/>
  </node>
  <node id="319939935" version="5" timestamp="2009-05-01T20:52:43Z" uid="20587" user="balrog-kun" changeset="1042242" lat="52.5802779" lon="16.8312881">
    <tag k="addr:postcode" v="64-605"/>
    <tag k="created_by" v="Merkaartor 0.12"/>
    <tag k="is_in" v="gmina Oborniki, powiat obornicki, województwo wielkopolskie, Poland"/>
    <tag k="is_in:country" v="Poland"/>
    <tag k="is_in:county" v="powiat obornicki"/>
    <tag k="is_in:municipality" v="gmina Oborniki"/>
    <tag k="is_in:province" v="województwo wielkopolskie"/>
    <tag k="name" v="Świerkówki"/>
    <tag k="place" v="village"/>
    <tag k="teryt:rm" v="01"/>
    <tag k="teryt:simc" v="0591774"/>
    <tag k="teryt:stan_na" v="2009-01-01"/>
    <tag k="teryt:terc" v="3016015"/>
    <tag k="teryt:updated_by" v="teryt2osm combine.py v. 43"/>
    <tag k="wikipedia" v="pl:Świerkówki"/>
  </node>
  <node id="319939935" version="6" timestamp="2010-04-11T04:39:04Z" uid="20587" user="balrog-kun" changeset="4389130" lat="52.5804015" lon="16.8305297">
    <tag k="addr:postcode" v="64-605"/>
    <tag k="is_in" v="gmina Oborniki, powiat obornicki, województwo wielkopolskie, Poland"/>
    <tag k="is_in:country" v="Poland"/>
    <tag k="is_in:county" v="powiat obornicki"/>
    <tag k="is_in:municipality" v="gmina Oborniki"/>
    <tag k="is_in:province" v="województwo wielkopolskie"/>
    <tag k="name" v="Świerkówki"/>
    <tag k="place" v="village"/>
    <tag k="teryt:rm" v="01"/>
    <tag k="teryt:simc" v="0591774"/>
    <tag k="teryt:stan_na" v="2009-01-01"/>
    <tag k="teryt:terc" v="3016015"/>
    <tag k="teryt:updated_by" v="teryt2osm combine.py v. 43"/>
    <tag k="wikipedia" v="pl:Świerkówki"/>
  </node>
  <node id="319939936" version="6" timestamp="2009-05-01T20:54:56Z" uid="20587" user="balrog-kun" changeset="1042242" lat="52.5796209" lon="16.8122346">
    <tag k="addr:postcode" v="64-605"/>
    <tag k="created_by" v="Potlatch 0.10f"/>
    <tag k="is_in" v="gmina Oborniki, powiat obornicki, województwo wielkopolskie, Poland"/>
    <tag k="is_in:country" v="Poland"/>
    <tag k="is_in:county" v="powiat obornicki"/>
    <tag k="is_in:municipality" v="gmina Oborniki"/>
    <tag k="is_in:province" v="województwo wielkopolskie"/>
    <tag k="name" v="Wargowo"/>
    <tag k="place" v="village"/>
    <tag k="teryt:rm" v="01"/>
    <tag k="teryt:simc" v="0591840"/>
    <tag k="teryt:stan_na" v="2009-01-01"/>
    <tag k="teryt:terc" v="3016015"/>
    <tag k="teryt:updated_by" v="teryt2osm combine.py v. 43"/>
    <tag k="wikipedia" v="pl:Wargowo (województwo wielkopolskie)"/>
  </node>
  <node id="319939936" version="7" timestamp="2010-04-11T04:39:04Z" uid="20587" user="balrog-kun" changeset="4389130" lat="52.5787086" lon="16.8073492">
    <tag k="addr:postcode" v="64-605"/>
    <tag k="is_in" v="gmina Oborniki, powiat obornicki, województwo wielkopolskie, Poland"/>
    <tag k="is_in:country" v="Poland"/>
    <tag k="is_in:county" v="powiat obornicki"/>
    <tag k="is_in:municipality" v="gmina Oborniki"/>
    <tag k="is_in:province" v="województwo wielkopolskie"/>
    <tag k="name" v="Wargowo"/>
    <tag k="place" v="village"/>
    <tag k="teryt:rm" v="01"/>
    <tag k="teryt:simc" v="0591840"/>
    <tag k="teryt:stan_na" v="2009-01-01"/>
    <tag k="teryt:terc" v="3016015"/>
    <tag k="teryt:updated_by" v="teryt2osm combine.py v. 43"/>
    <tag k="wikipedia" v="pl:Wargowo (województwo wielkopolskie)"/>
  </node>
  <node id="319939937" version="6" timestamp="2009-05-01T20:49:25Z" uid="20587" user="balrog-kun" changeset="1042242" lat="52.6009213" lon="16.8185775">
    <tag k="addr:postcode" v="64-605"/>
    <tag k="created_by" v="Potlatch 0.10f"/>
    <tag k="is_in" v="gmina Oborniki, powiat obornicki, województwo wielkopolskie, Poland"/>
    <tag k="is_in:country" v="Poland"/>
    <tag k="is_in:county" v="powiat obornicki"/>
    <tag k="is_in:municipality" v="gmina Oborniki"/>
    <tag k="is_in:province" v="województwo wielkopolskie"/>
    <tag k="name" v="Ocieszyn"/>
    <tag k="place" v="village"/>
    <tag k="teryt:rm" v="01"/>
    <tag k="teryt:simc" v="0591596"/>
    <tag k="teryt:stan_na" v="2009-01-01"/>
    <tag k="teryt:terc" v="3016015"/>
    <tag k="teryt:updated_by" v="teryt2osm combine.py v. 43"/>
    <tag k="wikipedia" v="pl:Ocieszyn"/>
  </node>
  <node id="319939937" version="7" timestamp="2010-04-11T04:39:04Z" uid="20587" user="balrog-kun" changeset="4389130" lat="52.6002789" lon="16.8173333">
    <tag k="addr:postcode" v="64-605"/>
    <tag k="is_in" v="gmina Oborniki, powiat obornicki, województwo wielkopolskie, Poland"/>
    <tag k="is_in:country" v="Poland"/>
    <tag k="is_in:county" v="powiat obornicki"/>
    <tag k="is_in:municipality" v="gmina Oborniki"/>
    <tag k="is_in:province" v="województwo wielkopolskie"/>
    <tag k="name" v="Ocieszyn"/>
    <tag k="place" v="village"/>
    <tag k="teryt:rm" v="01"/>
    <tag k="teryt:simc" v="0591596"/>
    <tag k="teryt:stan_na" v="2009-01-01"/>
    <tag k="teryt:terc" v="3016015"/>
    <tag k="teryt:updated_by" v="teryt2osm combine.py v. 43"/>
    <tag k="wikipedia" v="pl:Ocieszyn"/>
  </node>
  <node id="319939938" version="5" timestamp="2009-05-01T20:50:58Z" uid="20587" user="balrog-kun" changeset="1042242" lat="52.5916886" lon="16.7815543">
    <tag k="created_by" v="Merkaartor 0.12"/>
    <tag k="is_in" v="gmina Oborniki, powiat obornicki, województwo wielkopolskie, Poland"/>
    <tag k="is_in:country" v="Poland"/>
    <tag k="is_in:county" v="powiat obornicki"/>
    <tag k="is_in:municipality" v="gmina Oborniki"/>
    <tag k="is_in:province" v="województwo wielkopolskie"/>
    <tag k="name" v="Kowalewko"/>
    <tag k="place" v="village"/>
    <tag k="teryt:rm" v="01"/>
    <tag k="teryt:simc" v="0591426"/>
    <tag k="teryt:stan_na" v="2009-01-01"/>
    <tag k="teryt:terc" v="3016015"/>
    <tag k="teryt:updated_by" v="teryt2osm combine.py v. 43"/>
    <tag k="wikipedia" v="pl:Kowalewko (powiat obornicki)"/>
  </node>
  <node id="319939938" version="6" timestamp="2010-04-11T04:39:04Z" uid="20587" user="balrog-kun" changeset="4389130" lat="52.591431" lon="16.78086">
    <tag k="is_in" v="gmina Oborniki, powiat obornicki, województwo wielkopolskie, Poland"/>
    <tag k="is_in:country" v="Poland"/>
    <tag k="is_in:county" v="powiat obornicki"/>
    <tag k="is_in:municipality" v="gmina Oborniki"/>
    <tag k="is_in:province" v="województwo wielkopolskie"/>
    <tag k="name" v="Kowalewko"/>
    <tag k="place" v="village"/>
    <tag k="teryt:rm" v="01"/>
    <tag k="teryt:simc" v="0591426"/>
    <tag k="teryt:stan_na" v="2009-01-01"/>
    <tag k="teryt:terc" v="3016015"/>
    <tag k="teryt:updated_by" v="teryt2osm combine.py v. 43"/>
    <tag k="wikipedia" v="pl:Kowalewko (powiat obornicki)"/>
  </node>
  <node id="319939939" version="5" timestamp="2009-05-01T20:50:18Z" uid="20587" user="balrog-kun" changeset="1042242" lat="52.5813029" lon="16.7605131">
    <tag k="addr:postcode" v="64-606"/>
    <tag k="created_by" v="Merkaartor 0.12"/>
    <tag k="is_in" v="gmina Oborniki, powiat obornicki, województwo wielkopolskie, Poland"/>
    <tag k="is_in:country" v="Poland"/>
    <tag k="is_in:county" v="powiat obornicki"/>
    <tag k="is_in:municipality" v="gmina Oborniki"/>
    <tag k="is_in:province" v="województwo wielkopolskie"/>
    <tag k="name" v="Nieczajna"/>
    <tag k="place" v="village"/>
    <tag k="teryt:rm" v="01"/>
    <tag k="teryt:simc" v="0591521"/>
    <tag k="teryt:stan_na" v="2009-01-01"/>
    <tag k="teryt:terc" v="3016015"/>
    <tag k="teryt:updated_by" v="teryt2osm combine.py v. 43"/>
    <tag k="wikipedia" v="pl:Nieczajna"/>
  </node>
  <node id="319939939" version="6" timestamp="2010-04-11T04:39:04Z" uid="20587" user="balrog-kun" changeset="4389130" lat="52.581569" lon="16.7598012">
    <tag k="addr:postcode" v="64-606"/>
    <tag k="is_in" v="gmina Oborniki, powiat obornicki, województwo wielkopolskie, Poland"/>
    <tag k="is_in:country" v="Poland"/>
    <tag k="is_in:county" v="powiat obornicki"/>
    <tag k="is_in:municipality" v="gmina Oborniki"/>
    <tag k="is_in:province" v="województwo wielkopolskie"/>
    <tag k="name" v="Nieczajna"/>
    <tag k="place" v="village"/>
    <tag k="teryt:rm" v="01"/>
    <tag k="teryt:simc" v="0591521"/>
    <tag k="teryt:stan_na" v="2009-01-01"/>
    <tag k="teryt:terc" v="3016015"/>
    <tag k="teryt:updated_by" v="teryt2osm combine.py v. 43"/>
    <tag k="wikipedia" v="pl:Nieczajna"/>
  </node>
  <node id="319939940" version="5" timestamp="2009-05-01T20:54:36Z" uid="20587" user="balrog-kun" changeset="1042242" lat="52.6036458" lon="16.7645638">
    <tag k="addr:postcode" v="64-600"/>
    <tag k="created_by" v="Merkaartor 0.12"/>
    <tag k="is_in" v="gmina Oborniki, powiat obornicki, województwo wielkopolskie, Poland"/>
    <tag k="is_in:country" v="Poland"/>
    <tag k="is_in:county" v="powiat obornicki"/>
    <tag k="is_in:municipality" v="gmina Oborniki"/>
    <tag k="is_in:province" v="województwo wielkopolskie"/>
    <tag k="name" v="Objezierze"/>
    <tag k="place" v="village"/>
    <tag k="population" v="960"/>
    <tag k="source:population" v="wikipedia"/>
    <tag k="teryt:rm" v="01"/>
    <tag k="teryt:simc" v="0591580"/>
    <tag k="teryt:stan_na" v="2009-01-01"/>
    <tag k="teryt:terc" v="3016015"/>
    <tag k="teryt:updated_by" v="teryt2osm combine.py v. 43"/>
    <tag k="wikipedia" v="pl:Objezierze (województwo wielkopolskie)"/>
  </node>
  <node id="319939940" version="6" timestamp="2010-04-11T04:39:04Z" uid="20587" user="balrog-kun" changeset="4389130" lat="52.6037581" lon="16.7639597">
    <tag k="addr:postcode" v="64-600"/>
    <tag k="is_in" v="gmina Oborniki, powiat obornicki, województwo wielkopolskie, Poland"/>
    <tag k="is_in:country" v="Poland"/>
    <tag k="is_in:county" v="powiat obornicki"/>
    <tag k="is_in:municipality" v="gmina Oborniki"/>
    <tag k="is_in:province" v="województwo wielkopolskie"/>
    <tag k="name" v="Objezierze"/>
    <tag k="place" v="village"/>
    <tag k="population" v="960"/>
    <tag k="source:population" v="wikipedia"/>
    <tag k="teryt:rm" v="01"/>
    <tag k="teryt:simc" v="0591580"/>
    <tag k="teryt:stan_na" v="2009-01-01"/>
    <tag k="teryt:terc" v="3016015"/>
    <tag k="teryt:updated_by" v="teryt2osm combine.py v. 43"/>
    <tag k="wikipedia" v="pl:Objezierze (województwo wielkopolskie)"/>
  </node>
  <node id="319939941" version="5" timestamp="2009-05-01T20:49:22Z" uid="20587" user="balrog-kun" changeset="1042242" lat="52.6218892" lon="16.8039458">
    <tag k="created_by" v="Merkaartor 0.12"/>
    <tag k="is_in" v="gmina Oborniki, powiat obornicki, województwo wielkopolskie, Poland"/>
    <tag k="is_in:country" v="Poland"/>
    <tag k="is_in:county" v="powiat obornicki"/>
    <tag k="is_in:municipality" v="gmina Oborniki"/>
    <tag k="is_in:province" v="województwo wielkopolskie"/>
    <tag k="name" v="Bogdanowo"/>
    <tag k="place" v="village"/>
    <tag k="teryt:rm" v="01"/>
    <tag k="teryt:simc" v="0591314"/>
    <tag k="teryt:stan_na" v="2009-01-01"/>
    <tag k="teryt:terc" v="3016015"/>
    <tag k="teryt:updated_by" v="teryt2osm combine.py v. 43"/>
    <tag k="wikipedia" v="pl:Bogdanowo (powiat obornicki)"/>
  </node>
  <node id="319939941" version="6" timestamp="2010-04-11T04:39:04Z" uid="20587" user="balrog-kun" changeset="4389130" lat="52.6234584" lon="16.8053361">
    <tag k="is_in" v="gmina Oborniki, powiat obornicki, województwo wielkopolskie, Poland"/>
    <tag k="is_in:country" v="Poland"/>
    <tag k="is_in:county" v="powiat obornicki"/>
    <tag k="is_in:municipality" v="gmina Oborniki"/>
    <tag k="is_in:province" v="województwo wielkopolskie"/>
    <tag k="name" v="Bogdanowo"/>
    <tag k="place" v="village"/>
    <tag k="teryt:rm" v="01"/>
    <tag k="teryt:simc" v="0591314"/>
    <tag k="teryt:stan_na" v="2009-01-01"/>
    <tag k="teryt:terc" v="3016015"/>
    <tag k="teryt:updated_by" v="teryt2osm combine.py v. 43"/>
    <tag k="wikipedia" v="pl:Bogdanowo (powiat obornicki)"/>
  </node>
  <node id="319939942" version="5" timestamp="2009-05-01T20:51:29Z" uid="20587" user="balrog-kun" changeset="1042242" lat="52.6423191" lon="16.7593879">
    <tag k="addr:postcode" v="64-600"/>
    <tag k="created_by" v="Merkaartor 0.12"/>
    <tag k="is_in" v="gmina Oborniki, powiat obornicki, województwo wielkopolskie, Poland"/>
    <tag k="is_in:country" v="Poland"/>
    <tag k="is_in:county" v="powiat obornicki"/>
    <tag k="is_in:municipality" v="gmina Oborniki"/>
    <tag k="is_in:province" v="województwo wielkopolskie"/>
    <tag k="name" v="Uścikowo"/>
    <tag k="place" v="village"/>
    <tag k="teryt:rm" v="01"/>
    <tag k="teryt:simc" v="0591811"/>
    <tag k="teryt:stan_na" v="2009-01-01"/>
    <tag k="teryt:terc" v="3016015"/>
    <tag k="teryt:updated_by" v="teryt2osm combine.py v. 43"/>
    <tag k="wikipedia" v="pl:Uścikowo (województwo wielkopolskie)"/>
  </node>
  <node id="319939942" version="6" timestamp="2010-04-11T04:39:05Z" uid="20587" user="balrog-kun" changeset="4389130" lat="52.6426104" lon="16.7606695">
    <tag k="addr:postcode" v="64-600"/>
    <tag k="is_in" v="gmina Oborniki, powiat obornicki, województwo wielkopolskie, Poland"/>
    <tag k="is_in:country" v="Poland"/>
    <tag k="is_in:county" v="powiat obornicki"/>
    <tag k="is_in:municipality" v="gmina Oborniki"/>
    <tag k="is_in:province" v="województwo wielkopolskie"/>
    <tag k="name" v="Uścikowo"/>
    <tag k="place" v="village"/>
    <tag k="teryt:rm" v="01"/>
    <tag k="teryt:simc" v="0591811"/>
    <tag k="teryt:stan_na" v="2009-01-01"/>
    <tag k="teryt:terc" v="3016015"/>
    <tag k="teryt:updated_by" v="teryt2osm combine.py v. 43"/>
    <tag k="wikipedia" v="pl:Uścikowo (województwo wielkopolskie)"/>
  </node>
  <node id="319939943" version="5" timestamp="2009-05-01T20:53:36Z" uid="20587" user="balrog-kun" changeset="1042242" lat="52.6258522" lon="16.743185">
    <tag k="created_by" v="Merkaartor 0.12"/>
    <tag k="is_in" v="gmina Oborniki, powiat obornicki, województwo wielkopolskie, Poland"/>
    <tag k="is_in:country" v="Poland"/>
    <tag k="is_in:county" v="powiat obornicki"/>
    <tag k="is_in:municipality" v="gmina Oborniki"/>
    <tag k="is_in:province" v="województwo wielkopolskie"/>
    <tag k="name" v="Wymysłowo"/>
    <tag k="place" v="village"/>
    <tag k="teryt:rm" v="01"/>
    <tag k="teryt:simc" v="0591870"/>
    <tag k="teryt:stan_na" v="2009-01-01"/>
    <tag k="teryt:terc" v="3016015"/>
    <tag k="teryt:updated_by" v="teryt2osm combine.py v. 43"/>
    <tag k="wikipedia" v="pl:Wymysłowo (powiat obornicki)"/>
  </node>
  <node id="319939944" version="5" timestamp="2009-05-01T20:53:55Z" uid="20587" user="balrog-kun" changeset="1042242" lat="52.6317494" lon="16.7146111">
    <tag k="created_by" v="Merkaartor 0.12"/>
    <tag k="is_in" v="gmina Oborniki, powiat obornicki, województwo wielkopolskie, Poland"/>
    <tag k="is_in:country" v="Poland"/>
    <tag k="is_in:county" v="powiat obornicki"/>
    <tag k="is_in:municipality" v="gmina Oborniki"/>
    <tag k="is_in:province" v="województwo wielkopolskie"/>
    <tag k="name" v="Chrustowo"/>
    <tag k="place" v="village"/>
    <tag k="teryt:rm" v="01"/>
    <tag k="teryt:simc" v="0591320"/>
    <tag k="teryt:stan_na" v="2009-01-01"/>
    <tag k="teryt:terc" v="3016015"/>
    <tag k="teryt:updated_by" v="teryt2osm combine.py v. 43"/>
    <tag k="wikipedia" v="Chrustowo, Oborniki County"/>
  </node>
  <node id="319939944" version="6" timestamp="2010-04-11T04:39:05Z" uid="20587" user="balrog-kun" changeset="4389130" lat="52.6321396" lon="16.7144158">
    <tag k="is_in" v="gmina Oborniki, powiat obornicki, województwo wielkopolskie, Poland"/>
    <tag k="is_in:country" v="Poland"/>
    <tag k="is_in:county" v="powiat obornicki"/>
    <tag k="is_in:municipality" v="gmina Oborniki"/>
    <tag k="is_in:province" v="województwo wielkopolskie"/>
    <tag k="name" v="Chrustowo"/>
    <tag k="place" v="village"/>
    <tag k="teryt:rm" v="01"/>
    <tag k="teryt:simc" v="0591320"/>
    <tag k="teryt:stan_na" v="2009-01-01"/>
    <tag k="teryt:terc" v="3016015"/>
    <tag k="teryt:updated_by" v="teryt2osm combine.py v. 43"/>
    <tag k="wikipedia" v="Chrustowo, Oborniki County"/>
  </node>
  <node id="319939945" version="5" timestamp="2009-05-01T20:53:04Z" uid="20587" user="balrog-kun" changeset="1042242" lat="52.6289258" lon="16.6742752">
    <tag k="addr:postcode" v="64-606"/>
    <tag k="created_by" v="Merkaartor 0.12"/>
    <tag k="is_in" v="gmina Oborniki, powiat obornicki, województwo wielkopolskie, Poland"/>
    <tag k="is_in:country" v="Poland"/>
    <tag k="is_in:county" v="powiat obornicki"/>
    <tag k="is_in:municipality" v="gmina Oborniki"/>
    <tag k="is_in:province" v="województwo wielkopolskie"/>
    <tag k="name" v="Urbanie"/>
    <tag k="place" v="village"/>
    <tag k="teryt:rm" v="01"/>
    <tag k="teryt:simc" v="0591780"/>
    <tag k="teryt:stan_na" v="2009-01-01"/>
    <tag k="teryt:terc" v="3016015"/>
    <tag k="teryt:updated_by" v="teryt2osm combine.py v. 43"/>
    <tag k="wikipedia" v="Urbanie"/>
  </node>
  <node id="319939945" version="6" timestamp="2010-04-11T04:39:05Z" uid="20587" user="balrog-kun" changeset="4389130" lat="52.6274151" lon="16.6820796">
    <tag k="addr:postcode" v="64-606"/>
    <tag k="is_in" v="gmina Oborniki, powiat obornicki, województwo wielkopolskie, Poland"/>
    <tag k="is_in:country" v="Poland"/>
    <tag k="is_in:county" v="powiat obornicki"/>
    <tag k="is_in:municipality" v="gmina Oborniki"/>
    <tag k="is_in:province" v="województwo wielkopolskie"/>
    <tag k="name" v="Urbanie"/>
    <tag k="place" v="village"/>
    <tag k="teryt:rm" v="01"/>
    <tag k="teryt:simc" v="0591780"/>
    <tag k="teryt:stan_na" v="2009-01-01"/>
    <tag k="teryt:terc" v="3016015"/>
    <tag k="teryt:updated_by" v="teryt2osm combine.py v. 43"/>
    <tag k="wikipedia" v="Urbanie"/>
  </node>
  <node id="319939945" version="7" timestamp="2010-08-03T08:45:17Z" uid="325250" user="Leśnik" changeset="5387777" lat="52.6277064" lon="16.6972331">
    <tag k="addr:postcode" v="64-606"/>
    <tag k="is_in" v="gmina Oborniki, powiat obornicki, województwo wielkopolskie, Poland"/>
    <tag k="is_in:country" v="Poland"/>
    <tag k="is_in:county" v="powiat obornicki"/>
    <tag k="is_in:municipality" v="gmina Oborniki"/>
    <tag k="is_in:province" v="województwo wielkopolskie"/>
    <tag k="name" v="Urbanie"/>
    <tag k="place" v="village"/>
    <tag k="teryt:rm" v="01"/>
    <tag k="teryt:simc" v="0591780"/>
    <tag k="teryt:stan_na" v="2009-01-01"/>
    <tag k="teryt:terc" v="3016015"/>
    <tag k="teryt:updated_by" v="teryt2osm combine.py v. 43"/>
    <tag k="wikipedia" v="Urbanie"/>
  </node>
  <node id="319939946" version="5" timestamp="2009-05-01T20:54:50Z" uid="20587" user="balrog-kun" changeset="1042242" lat="52.5941076" lon="16.6936911">
    <tag k="created_by" v="Merkaartor 0.12"/>
    <tag k="is_in" v="gmina Oborniki, powiat obornicki, województwo wielkopolskie, Poland"/>
    <tag k="is_in:country" v="Poland"/>
    <tag k="is_in:county" v="powiat obornicki"/>
    <tag k="is_in:municipality" v="gmina Oborniki"/>
    <tag k="is_in:province" v="województwo wielkopolskie"/>
    <tag k="name" v="Górka"/>
    <tag k="place" v="village"/>
    <tag k="teryt:rm" v="01"/>
    <tag k="teryt:simc" v="0591395"/>
    <tag k="teryt:stan_na" v="2009-01-01"/>
    <tag k="teryt:terc" v="3016015"/>
    <tag k="teryt:updated_by" v="teryt2osm combine.py v. 43"/>
    <tag k="wikipedia" v="pl:Górka (powiat obornicki)"/>
  </node>
  <node id="319939946" version="6" timestamp="2010-04-11T04:39:05Z" uid="20587" user="balrog-kun" changeset="4389130" lat="52.5940363" lon="16.6947108">
    <tag k="is_in" v="gmina Oborniki, powiat obornicki, województwo wielkopolskie, Poland"/>
    <tag k="is_in:country" v="Poland"/>
    <tag k="is_in:county" v="powiat obornicki"/>
    <tag k="is_in:municipality" v="gmina Oborniki"/>
    <tag k="is_in:province" v="województwo wielkopolskie"/>
    <tag k="name" v="Górka"/>
    <tag k="place" v="village"/>
    <tag k="teryt:rm" v="01"/>
    <tag k="teryt:simc" v="0591395"/>
    <tag k="teryt:stan_na" v="2009-01-01"/>
    <tag k="teryt:terc" v="3016015"/>
    <tag k="teryt:updated_by" v="teryt2osm combine.py v. 43"/>
    <tag k="wikipedia" v="pl:Górka (powiat obornicki)"/>
  </node>
  <node id="319939947" version="5" timestamp="2009-05-01T20:49:21Z" uid="20587" user="balrog-kun" changeset="1042242" lat="52.6142046" lon="16.7201441">
    <tag k="addr:postcode" v="64-606"/>
    <tag k="created_by" v="Merkaartor 0.12"/>
    <tag k="is_in" v="gmina Oborniki, powiat obornicki, województwo wielkopolskie, Poland"/>
    <tag k="is_in:country" v="Poland"/>
    <tag k="is_in:county" v="powiat obornicki"/>
    <tag k="is_in:municipality" v="gmina Oborniki"/>
    <tag k="is_in:province" v="województwo wielkopolskie"/>
    <tag k="name" v="Żukowo"/>
    <tag k="place" v="village"/>
    <tag k="teryt:rm" v="01"/>
    <tag k="teryt:simc" v="0591892"/>
    <tag k="teryt:stan_na" v="2009-01-01"/>
    <tag k="teryt:terc" v="3016015"/>
    <tag k="teryt:updated_by" v="teryt2osm combine.py v. 43"/>
    <tag k="wikipedia" v="pl:Żukowo (województwo wielkopolskie)"/>
  </node>
  <node id="319939947" version="6" timestamp="2009-11-07T17:07:27Z" uid="107566" user="Yabba" changeset="3057285" lat="52.6142085" lon="16.7201401">
    <tag k="addr:postcode" v="64-606"/>
    <tag k="is_in" v="gmina Oborniki, powiat obornicki, województwo wielkopolskie, Poland"/>
    <tag k="is_in:country" v="Poland"/>
    <tag k="is_in:county" v="powiat obornicki"/>
    <tag k="is_in:municipality" v="gmina Oborniki"/>
    <tag k="is_in:province" v="województwo wielkopolskie"/>
    <tag k="name" v="Żukowo"/>
    <tag k="name:de" v="Zukowo"/>
    <tag k="name:en" v="Zukowo"/>
    <tag k="place" v="village"/>
    <tag k="teryt:rm" v="01"/>
    <tag k="teryt:simc" v="0591892"/>
    <tag k="teryt:stan_na" v="2009-01-01"/>
    <tag k="teryt:terc" v="3016015"/>
    <tag k="teryt:updated_by" v="teryt2osm combine.py v. 43"/>
    <tag k="wikipedia" v="pl:Żukowo (województwo wielkopolskie)"/>
  </node>
  <node id="319939947" version="7" timestamp="2010-04-11T04:39:05Z" uid="20587" user="balrog-kun" changeset="4389130" lat="52.614803" lon="16.7210341">
    <tag k="addr:postcode" v="64-606"/>
    <tag k="is_in" v="gmina Oborniki, powiat obornicki, województwo wielkopolskie, Poland"/>
    <tag k="is_in:country" v="Poland"/>
    <tag k="is_in:county" v="powiat obornicki"/>
    <tag k="is_in:municipality" v="gmina Oborniki"/>
    <tag k="is_in:province" v="województwo wielkopolskie"/>
    <tag k="name" v="Żukowo"/>
    <tag k="name:de" v="Zukowo"/>
    <tag k="name:en" v="Zukowo"/>
    <tag k="place" v="village"/>
    <tag k="teryt:rm" v="01"/>
    <tag k="teryt:simc" v="0591892"/>
    <tag k="teryt:stan_na" v="2009-01-01"/>
    <tag k="teryt:terc" v="3016015"/>
    <tag k="teryt:updated_by" v="teryt2osm combine.py v. 43"/>
    <tag k="wikipedia" v="pl:Żukowo (województwo wielkopolskie)"/>
  </node>
  <node id="319939948" version="5" timestamp="2009-05-01T20:51:09Z" uid="20587" user="balrog-kun" changeset="1042242" lat="52.5952398" lon="16.7288841">
    <tag k="addr:postcode" v="64-600"/>
    <tag k="created_by" v="Merkaartor 0.12"/>
    <tag k="is_in" v="gmina Oborniki, powiat obornicki, województwo wielkopolskie, Poland"/>
    <tag k="is_in:country" v="Poland"/>
    <tag k="is_in:county" v="powiat obornicki"/>
    <tag k="is_in:municipality" v="gmina Oborniki"/>
    <tag k="is_in:province" v="województwo wielkopolskie"/>
    <tag k="name" v="Ślepuchowo"/>
    <tag k="place" v="village"/>
    <tag k="teryt:rm" v="01"/>
    <tag k="teryt:simc" v="0591768"/>
    <tag k="teryt:stan_na" v="2009-01-01"/>
    <tag k="teryt:terc" v="3016015"/>
    <tag k="teryt:updated_by" v="teryt2osm combine.py v. 43"/>
    <tag k="wikipedia" v="pl:Ślepuchowo"/>
  </node>
  <node id="319939948" version="6" timestamp="2010-04-11T04:39:05Z" uid="20587" user="balrog-kun" changeset="4389130" lat="52.5958849" lon="16.7321379">
    <tag k="addr:postcode" v="64-600"/>
    <tag k="is_in" v="gmina Oborniki, powiat obornicki, województwo wielkopolskie, Poland"/>
    <tag k="is_in:country" v="Poland"/>
    <tag k="is_in:county" v="powiat obornicki"/>
    <tag k="is_in:municipality" v="gmina Oborniki"/>
    <tag k="is_in:province" v="województwo wielkopolskie"/>
    <tag k="name" v="Ślepuchowo"/>
    <tag k="place" v="village"/>
    <tag k="teryt:rm" v="01"/>
    <tag k="teryt:simc" v="0591768"/>
    <tag k="teryt:stan_na" v="2009-01-01"/>
    <tag k="teryt:terc" v="3016015"/>
    <tag k="teryt:updated_by" v="teryt2osm combine.py v. 43"/>
    <tag k="wikipedia" v="pl:Ślepuchowo"/>
  </node>
  <node id="319939949" version="5" timestamp="2009-05-01T20:49:17Z" uid="20587" user="balrog-kun" changeset="1042242" lat="52.5804501" lon="16.7075585">
    <tag k="created_by" v="Merkaartor 0.12"/>
    <tag k="is_in" v="gmina Oborniki, powiat obornicki, województwo wielkopolskie, Poland"/>
    <tag k="is_in:country" v="Poland"/>
    <tag k="is_in:county" v="powiat obornicki"/>
    <tag k="is_in:municipality" v="gmina Oborniki"/>
    <tag k="is_in:province" v="województwo wielkopolskie"/>
    <tag k="name" v="Lulin"/>
    <tag k="place" v="village"/>
    <tag k="teryt:rm" v="01"/>
    <tag k="teryt:simc" v="0591484"/>
    <tag k="teryt:stan_na" v="2009-01-01"/>
    <tag k="teryt:terc" v="3016015"/>
    <tag k="teryt:updated_by" v="teryt2osm combine.py v. 43"/>
    <tag k="wikipedia" v="pl:Lulin (powiat obornicki)"/>
  </node>
  <node id="319939949" version="6" timestamp="2010-04-11T04:39:05Z" uid="20587" user="balrog-kun" changeset="4389130" lat="52.5802011" lon="16.708174">
    <tag k="is_in" v="gmina Oborniki, powiat obornicki, województwo wielkopolskie, Poland"/>
    <tag k="is_in:country" v="Poland"/>
    <tag k="is_in:county" v="powiat obornicki"/>
    <tag k="is_in:municipality" v="gmina Oborniki"/>
    <tag k="is_in:province" v="województwo wielkopolskie"/>
    <tag k="name" v="Lulin"/>
    <tag k="place" v="village"/>
    <tag k="teryt:rm" v="01"/>
    <tag k="teryt:simc" v="0591484"/>
    <tag k="teryt:stan_na" v="2009-01-01"/>
    <tag k="teryt:terc" v="3016015"/>
    <tag k="teryt:updated_by" v="teryt2osm combine.py v. 43"/>
    <tag k="wikipedia" v="pl:Lulin (powiat obornicki)"/>
  </node>
  <node id="319939950" version="5" timestamp="2009-05-01T20:49:42Z" uid="20587" user="balrog-kun" changeset="1042242" lat="52.5697648" lon="16.6991681">
    <tag k="created_by" v="Merkaartor 0.12"/>
    <tag k="is_in" v="gmina Szamotuły, powiat szamotulski, województwo wielkopolskie, Poland"/>
    <tag k="is_in:country" v="Poland"/>
    <tag k="is_in:county" v="powiat szamotulski"/>
    <tag k="is_in:municipality" v="gmina Szamotuły"/>
    <tag k="is_in:province" v="województwo wielkopolskie"/>
    <tag k="name" v="Lulinek"/>
    <tag k="place" v="village"/>
    <tag k="teryt:rm" v="01"/>
    <tag k="teryt:simc" v="0595884"/>
    <tag k="teryt:stan_na" v="2009-01-01"/>
    <tag k="teryt:terc" v="3024075"/>
    <tag k="teryt:updated_by" v="teryt2osm combine.py v. 43"/>
    <tag k="wikipedia" v="pl:Lulinek"/>
  </node>
  <node id="319939950" version="6" timestamp="2010-04-11T04:39:05Z" uid="20587" user="balrog-kun" changeset="4389130" lat="52.5689354" lon="16.6978697">
    <tag k="is_in" v="gmina Szamotuły, powiat szamotulski, województwo wielkopolskie, Poland"/>
    <tag k="is_in:country" v="Poland"/>
    <tag k="is_in:county" v="powiat szamotulski"/>
    <tag k="is_in:municipality" v="gmina Szamotuły"/>
    <tag k="is_in:province" v="województwo wielkopolskie"/>
    <tag k="name" v="Lulinek"/>
    <tag k="place" v="village"/>
    <tag k="teryt:rm" v="01"/>
    <tag k="teryt:simc" v="0595884"/>
    <tag k="teryt:stan_na" v="2009-01-01"/>
    <tag k="teryt:terc" v="3024075"/>
    <tag k="teryt:updated_by" v="teryt2osm combine.py v. 43"/>
    <tag k="wikipedia" v="pl:Lulinek"/>
  </node>
  <node id="319939951" version="2" timestamp="2009-05-01T20:53:31Z" uid="20587" user="balrog-kun" changeset="1042242" lat="52.5536305" lon="16.6885637">
    <tag k="created_by" v="Merkaartor 0.12"/>
    <tag k="is_in" v="gmina Szamotuły, powiat szamotulski, województwo wielkopolskie, Poland"/>
    <tag k="is_in:county" v="powiat szamotulski"/>
    <tag k="is_in:municipality" v="gmina Szamotuły"/>
    <tag k="is_in:province" v="województwo wielkopolskie"/>
    <tag k="name" v="Przecław"/>
    <tag k="place" v="village"/>
    <tag k="wikipedia" v="pl:Przecław (powiat szamotulski)"/>
  </node>
  <node id="319939951" version="3" timestamp="2009-05-30T18:08:17Z" uid="55292" user="Wrocławski Qrczak" changeset="1361794" lat="52.5536303" lon="16.6885642">
    <tag k="created_by" v="Merkaartor 0.12"/>
    <tag k="is_in" v="gmina Szamotuły, powiat szamotulski, województwo wielkopolskie, Poland"/>
    <tag k="is_in:county" v="powiat szamotulski"/>
    <tag k="is_in:municipality" v="gmina Szamotuły"/>
    <tag k="is_in:province" v="województwo wielkopolskie"/>
    <tag k="name" v="Pamiątkowo"/>
    <tag k="place" v="village"/>
  </node>
  <node id="319939951" version="4" timestamp="2009-06-16T14:37:49Z" uid="20587" user="balrog-kun" changeset="1535709" lat="52.5536303" lon="16.6885642">
    <tag k="addr:postcode" v="64-514"/>
    <tag k="created_by" v="Merkaartor 0.12"/>
    <tag k="is_in" v="gmina Szamotuły, powiat szamotulski, województwo wielkopolskie, Poland"/>
    <tag k="is_in:county" v="powiat szamotulski"/>
    <tag k="is_in:municipality" v="gmina Szamotuły"/>
    <tag k="is_in:province" v="województwo wielkopolskie"/>
    <tag k="name" v="Pamiątkowo"/>
    <tag k="place" v="village"/>
    <tag k="population" v="1200"/>
    <tag k="source:population" v="wikipedia"/>
    <tag k="wikipedia" v="pl:Pamiątkowo"/>
  </node>
  <node id="319939951" version="5" timestamp="2010-04-11T04:39:06Z" uid="20587" user="balrog-kun" changeset="4389130" lat="52.5528382" lon="16.6840599">
    <tag k="addr:postcode" v="64-514"/>
    <tag k="is_in" v="gmina Szamotuły, powiat szamotulski, województwo wielkopolskie, Poland"/>
    <tag k="is_in:county" v="powiat szamotulski"/>
    <tag k="is_in:municipality" v="gmina Szamotuły"/>
    <tag k="is_in:province" v="województwo wielkopolskie"/>
    <tag k="name" v="Pamiątkowo"/>
    <tag k="place" v="village"/>
    <tag k="population" v="1200"/>
    <tag k="source:population" v="wikipedia"/>
    <tag k="wikipedia" v="pl:Pamiątkowo"/>
  </node>
  <node id="319939951" version="6" timestamp="2010-04-27T03:56:16Z" uid="30632" user="antblant" changeset="4537843" lat="52.5528382" lon="16.6840599">
    <tag k="addr:postcode" v="64-514"/>
    <tag k="is_in" v="gmina Szamotuły, powiat szamotulski, województwo wielkopolskie, Poland"/>
    <tag k="is_in:county" v="powiat szamotulski"/>
    <tag k="is_in:municipality" v="gmina Szamotuły"/>
    <tag k="is_in:province" v="województwo wielkopolskie"/>
    <tag k="name" v="Pamiątkowo"/>
    <tag k="place" v="village"/>
    <tag k="population" v="1200"/>
    <tag k="source:population" v="wikipedia"/>
    <tag k="teryt:simc" v="0595973"/>
    <tag k="wikipedia" v="pl:Pamiątkowo"/>
  </node>
  <node id="319939952" version="2" timestamp="2009-05-01T20:53:51Z" uid="20587" user="balrog-kun" changeset="1042242" lat="52.5517906" lon="16.7155993">
    <tag k="created_by" v="Merkaartor 0.12"/>
    <tag k="is_in" v="gmina Szamotuły, powiat szamotulski, województwo wielkopolskie, Poland"/>
    <tag k="is_in:county" v="powiat szamotulski"/>
    <tag k="is_in:municipality" v="gmina Szamotuły"/>
    <tag k="is_in:province" v="województwo wielkopolskie"/>
    <tag k="name" v="Przecław"/>
    <tag k="place" v="village"/>
    <tag k="wikipedia" v="pl:Przecław (powiat szamotulski)"/>
  </node>
  <node id="319939952" version="3" timestamp="2010-04-11T04:39:06Z" uid="20587" user="balrog-kun" changeset="4389130" lat="52.5515024" lon="16.7149845">
    <tag k="is_in" v="gmina Szamotuły, powiat szamotulski, województwo wielkopolskie, Poland"/>
    <tag k="is_in:county" v="powiat szamotulski"/>
    <tag k="is_in:municipality" v="gmina Szamotuły"/>
    <tag k="is_in:province" v="województwo wielkopolskie"/>
    <tag k="name" v="Przecław"/>
    <tag k="place" v="village"/>
    <tag k="wikipedia" v="pl:Przecław (powiat szamotulski)"/>
  </node>
  <node id="319939953" version="5" timestamp="2009-05-01T20:54:31Z" uid="20587" user="balrog-kun" changeset="1042242" lat="52.5486514" lon="16.7535172">
    <tag k="created_by" v="Merkaartor 0.12"/>
    <tag k="is_in" v="gmina Rokietnica, powiat poznański, województwo wielkopolskie, Poland"/>
    <tag k="is_in:country" v="Poland"/>
    <tag k="is_in:county" v="powiat poznański"/>
    <tag k="is_in:municipality" v="gmina Rokietnica"/>
    <tag k="is_in:province" v="województwo wielkopolskie"/>
    <tag k="name" v="Żydowo"/>
    <tag k="place" v="village"/>
    <tag k="teryt:rm" v="01"/>
    <tag k="teryt:simc" v="0594152"/>
    <tag k="teryt:stan_na" v="2009-01-01"/>
    <tag k="teryt:terc" v="3021132"/>
    <tag k="teryt:updated_by" v="teryt2osm combine.py v. 43"/>
    <tag k="wikipedia" v="pl:Żydowo (powiat poznański)"/>
  </node>
  <node id="319939953" version="6" timestamp="2010-04-05T16:41:09Z" uid="163746" user="anti_bot-nonsense" changeset="4334877" lat="52.5486514" lon="16.7535172">
    <tag k="is_in" v="gmina Rokietnica, powiat poznański, województwo wielkopolskie, Poland"/>
    <tag k="is_in:country" v="Poland"/>
    <tag k="is_in:county" v="powiat poznański"/>
    <tag k="is_in:municipality" v="gmina Rokietnica"/>
    <tag k="is_in:province" v="województwo wielkopolskie"/>
    <tag k="name" v="Żydowo"/>
    <tag k="place" v="village"/>
    <tag k="teryt:rm" v="01"/>
    <tag k="teryt:simc" v="0594152"/>
    <tag k="teryt:stan_na" v="2009-01-01"/>
    <tag k="teryt:terc" v="3021132"/>
    <tag k="wikipedia" v="pl:Żydowo (powiat poznański)"/>
  </node>
  <node id="319939953" version="7" timestamp="2010-04-11T04:39:06Z" uid="20587" user="balrog-kun" changeset="4389130" lat="52.548255" lon="16.753638">
    <tag k="is_in" v="gmina Rokietnica, powiat poznański, województwo wielkopolskie, Poland"/>
    <tag k="is_in:country" v="Poland"/>
    <tag k="is_in:county" v="powiat poznański"/>
    <tag k="is_in:municipality" v="gmina Rokietnica"/>
    <tag k="is_in:province" v="województwo wielkopolskie"/>
    <tag k="name" v="Żydowo"/>
    <tag k="place" v="village"/>
    <tag k="teryt:rm" v="01"/>
    <tag k="teryt:simc" v="0594152"/>
    <tag k="teryt:stan_na" v="2009-01-01"/>
    <tag k="teryt:terc" v="3021132"/>
    <tag k="wikipedia" v="pl:Żydowo (powiat poznański)"/>
  </node>
  <node id="319939954" version="5" timestamp="2009-05-01T20:54:11Z" uid="20587" user="balrog-kun" changeset="1042242" lat="52.5400121" lon="16.7619076">
    <tag k="addr:postcode" v="62-090"/>
    <tag k="created_by" v="Merkaartor 0.12"/>
    <tag k="is_in" v="gmina Rokietnica, powiat poznański, województwo wielkopolskie, Poland"/>
    <tag k="is_in:country" v="Poland"/>
    <tag k="is_in:county" v="powiat poznański"/>
    <tag k="is_in:municipality" v="gmina Rokietnica"/>
    <tag k="is_in:province" v="województwo wielkopolskie"/>
    <tag k="name" v="Rostworowo"/>
    <tag k="place" v="village"/>
    <tag k="teryt:rm" v="01"/>
    <tag k="teryt:simc" v="0594123"/>
    <tag k="teryt:stan_na" v="2009-01-01"/>
    <tag k="teryt:terc" v="3021132"/>
    <tag k="teryt:updated_by" v="teryt2osm combine.py v. 43"/>
    <tag k="wikipedia" v="pl:Rostworowo"/>
  </node>
  <node id="319939954" version="6" timestamp="2010-04-05T17:05:56Z" uid="163746" user="anti_bot-nonsense" changeset="4334877" lat="52.5400121" lon="16.7619076">
    <tag k="addr:postcode" v="62-090"/>
    <tag k="is_in" v="gmina Rokietnica, powiat poznański, województwo wielkopolskie, Poland"/>
    <tag k="is_in:country" v="Poland"/>
    <tag k="is_in:county" v="powiat poznański"/>
    <tag k="is_in:municipality" v="gmina Rokietnica"/>
    <tag k="is_in:province" v="województwo wielkopolskie"/>
    <tag k="name" v="Rostworowo"/>
    <tag k="place" v="village"/>
    <tag k="teryt:rm" v="01"/>
    <tag k="teryt:simc" v="0594123"/>
    <tag k="teryt:stan_na" v="2009-01-01"/>
    <tag k="teryt:terc" v="3021132"/>
    <tag k="wikipedia" v="pl:Rostworowo"/>
  </node>
  <node id="319939954" version="7" timestamp="2010-04-11T04:39:06Z" uid="20587" user="balrog-kun" changeset="4389130" lat="52.5394445" lon="16.7611583">
    <tag k="addr:postcode" v="62-090"/>
    <tag k="is_in" v="gmina Rokietnica, powiat poznański, województwo wielkopolskie, Poland"/>
    <tag k="is_in:country" v="Poland"/>
    <tag k="is_in:county" v="powiat poznański"/>
    <tag k="is_in:municipality" v="gmina Rokietnica"/>
    <tag k="is_in:province" v="województwo wielkopolskie"/>
    <tag k="name" v="Rostworowo"/>
    <tag k="place" v="village"/>
    <tag k="teryt:rm" v="01"/>
    <tag k="teryt:simc" v="0594123"/>
    <tag k="teryt:stan_na" v="2009-01-01"/>
    <tag k="teryt:terc" v="3021132"/>
    <tag k="wikipedia" v="pl:Rostworowo"/>
  </node>
  <node id="319935667" version="3" timestamp="2012-07-20T01:04:56Z" uid="722137" user="OSMF Redaction Account" changeset="12354190" lat="-27.2248278" lon="153.0230555"/>
  <node id="319935667" version="4" timestamp="2012-08-18T04:47:09Z" uid="38548" user="PesceVerde" changeset="12769290" lat="-27.2248375" lon="153.023062"/>
  <node id="319935669" version="3" timestamp="2012-07-20T01:04:53Z" uid="722137" user="OSMF Redaction Account" changeset="12354190" lat="-27.2252247" lon="153.023004"/>
  <node id="319935669" version="4" timestamp="2012-08-18T04:47:09Z" uid="38548" user="PesceVerde" changeset="12769290" lat="-27.2252286" lon="153.0230583"/>
  <node id="319935671" version="3" timestamp="2012-07-20T01:04:52Z" uid="722137" user="OSMF Redaction Account" changeset="12354190" lat="-27.2252857" lon="153.023107"/>
  <node id="319935671" version="4" timestamp="2012-08-18T04:47:14Z" uid="38548" user="PesceVerde" changeset="12769290" lat="-27.2252857" lon="153.023107"/>
  <node id="319935672" version="4" timestamp="2012-07-20T01:04:52Z" uid="722137" user="OSMF Redaction Account" changeset="12354190" lat="-27.225362" lon="153.0232958"/>
  <node id="319935672" version="5" timestamp="2012-08-18T04:47:09Z" uid="38548" user="PesceVerde" changeset="12769290" lat="-27.2253581" lon="153.0233262"/>
  <node id="319935673" version="3" timestamp="2012-07-20T01:04:51Z" uid="722137" user="OSMF Redaction Account" changeset="12354190" lat="-27.2254841" lon="153.0235705"/>
  <node id="319935673" version="4" timestamp="2012-08-18T04:47:09Z" uid="38548" user="PesceVerde" changeset="12769290" lat="-27.2254744" lon="153.0235792"/>
  <node id="319935674" version="3" timestamp="2012-07-20T01:04:51Z" uid="722137" user="OSMF Redaction Account" changeset="12354190" lat="-27.225507" lon="153.0236821"/>
  <node id="319935674" version="4" timestamp="2012-08-18T04:47:14Z" uid="38548" user="PesceVerde" changeset="12769290" lat="-27.225507" lon="153.0236821"/>
  <node id="319935675" version="6" timestamp="2012-07-20T01:04:51Z" uid="722137" user="OSMF Redaction Account" changeset="12354190" lat="-27.225507" lon="153.0237507"/>
  <node id="319935675" version="7" timestamp="2012-08-18T04:47:09Z" uid="38548" user="PesceVerde" changeset="12769290" lat="-27.2254703" lon="153.023742"/>
  <node id="319936825" version="3" timestamp="2012-07-20T01:04:51Z" uid="722137" user="OSMF Redaction Account" changeset="12354190" lat="-27.2254841" lon="153.0232615"/>
  <node id="319936825" version="4" timestamp="2012-08-18T04:47:09Z" uid="38548" user="PesceVerde" changeset="12769290" lat="-27.2254899" lon="153.023255"/>
  <node id="319936827" version="3" timestamp="2012-07-20T01:04:48Z" uid="722137" user="OSMF Redaction Account" changeset="12354190" lat="-27.2260413" lon="153.0229697"/>
  <node id="319936828" version="4" timestamp="2012-07-20T01:04:48Z" uid="722137" user="OSMF Redaction Account" changeset="12354190" lat="-27.2261253" lon="153.0228667"/>
  <node id="319936829" version="4" timestamp="2012-07-20T01:04:45Z" uid="722137" user="OSMF Redaction Account" changeset="12354190" lat="-27.2267816" lon="153.0226092"/>
  <node id="319936831" version="4" timestamp="2012-07-20T01:04:44Z" uid="722137" user="OSMF Redaction Account" changeset="12354190" lat="-27.2270564" lon="153.0224804"/>
  <node id="319936831" version="5" timestamp="2012-08-18T04:47:09Z" uid="38548" user="PesceVerde" changeset="12769290" lat="-27.2270564" lon="153.0224674"/>
  <node id="319937846" version="6" timestamp="2012-08-18T04:47:09Z" uid="38548" user="PesceVerde" changeset="12769290" lat="-27.2272475" lon="153.023232">
    <tag k="source" v="survey"/>
    <tag k="traffic_calming" v="island"/>
  </node>
  <node id="319937848" version="5" timestamp="2012-07-20T01:04:41Z" uid="722137" user="OSMF Redaction Account" changeset="12354190" lat="-27.2275372" lon="153.0239996"/>
  <node id="319937848" version="6" timestamp="2012-08-18T04:47:09Z" uid="38548" user="PesceVerde" changeset="12769290" lat="-27.2274348" lon="153.0238866"/>
  <node id="319937853" version="6" timestamp="2012-07-20T01:04:38Z" uid="722137" user="OSMF Redaction Account" changeset="12354190" lat="-27.2281477" lon="153.0243"/>
  <node id="319937853" version="7" timestamp="2012-08-18T04:47:09Z" uid="38548" user="PesceVerde" changeset="12769290" lat="-27.2281149" lon="153.0243022"/>
  <node id="319937855" version="5" timestamp="2012-07-20T01:04:37Z" uid="722137" user="OSMF Redaction Account" changeset="12354190" lat="-27.2284759" lon="153.0239224"/>
  <node id="319937857" version="6" timestamp="2012-07-20T01:04:37Z" uid="722137" user="OSMF Redaction Account" changeset="12354190" lat="-27.2289415" lon="153.0235104"/>
  <node id="319937857" version="7" timestamp="2012-08-18T04:47:09Z" uid="38548" user="PesceVerde" changeset="12769290" lat="-27.2289125" lon="153.0234974"/>
  <node id="319937858" version="5" timestamp="2012-07-20T01:04:36Z" uid="722137" user="OSMF Redaction Account" changeset="12354190" lat="-27.2290407" lon="153.0235533"/>
  <node id="319937861" version="6" timestamp="2012-07-20T01:04:35Z" uid="722137" user="OSMF Redaction Account" changeset="12354190" lat="-27.229552" lon="153.0234589"/>
  <node id="319937861" version="7" timestamp="2012-08-18T04:47:09Z" uid="38548" user="PesceVerde" changeset="12769290" lat="-27.2295346" lon="153.0234654"/>
  <node id="319938147" version="3" timestamp="2012-08-11T17:30:27Z" uid="795436" user="f_mike" changeset="12692975" lat="48.2540616" lon="16.3378279"/>
  <node id="319938369" version="4" timestamp="2012-07-20T01:04:46Z" uid="722137" user="OSMF Redaction Account" changeset="12354190" lat="-27.2266671" lon="153.0230641"/>
  <node id="319938370" version="4" timestamp="2012-07-20T01:04:46Z" uid="722137" user="OSMF Redaction Account" changeset="12354190" lat="-27.2265526" lon="153.0231327"/>
  <node id="319938370" version="5" timestamp="2012-08-18T04:47:09Z" uid="38548" user="PesceVerde" changeset="12769290" lat="-27.2264405" lon="153.023187"/>
  <node id="319938372" version="4" timestamp="2012-07-20T01:04:46Z" uid="722137" user="OSMF Redaction Account" changeset="12354190" lat="-27.2264763" lon="153.02321"/>
  <node id="319938372" version="5" timestamp="2012-08-18T04:47:09Z" uid="38548" user="PesceVerde" changeset="12769290" lat="-27.2264241" lon="153.0232687"/>
  <node id="319938373" version="5" timestamp="2012-08-18T04:47:09Z" uid="38548" user="PesceVerde" changeset="12769290" lat="-27.2263431" lon="153.0232948">
    <tag k="source" v="bing"/>
    <tag k="traffic_calming" v="chicane"/>
  </node>
  <node id="319938374" version="4" timestamp="2012-07-20T01:04:47Z" uid="722137" user="OSMF Redaction Account" changeset="12354190" lat="-27.2263313" lon="153.0233645"/>
  <node id="319938375" version="5" timestamp="2012-07-20T01:04:48Z" uid="722137" user="OSMF Redaction Account" changeset="12354190" lat="-27.2260184" lon="153.0238709"/>
  <node id="319938376" version="5" timestamp="2012-07-20T01:04:49Z" uid="722137" user="OSMF Redaction Account" changeset="12354190" lat="-27.2259039" lon="153.023991"/>
  <node id="319938377" version="7" timestamp="2012-07-20T01:04:49Z" uid="722137" user="OSMF Redaction Account" changeset="12354190" lat="-27.2258276" lon="153.0240597"/>
  <node id="319938377" version="8" timestamp="2012-08-18T04:47:10Z" uid="38548" user="PesceVerde" changeset="12769290" lat="-27.2258102" lon="153.0240858"/>
  <node id="319938694" version="5" timestamp="2012-07-20T01:04:39Z" uid="722137" user="OSMF Redaction Account" changeset="12354190" lat="-27.2278654" lon="153.0245919"/>
  <node id="319938694" version="6" timestamp="2012-08-18T04:47:14Z" uid="38548" user="PesceVerde" changeset="12769290" lat="-27.2278654" lon="153.0245919"/>
  <node id="319938695" version="5" timestamp="2012-07-20T01:04:39Z" uid="722137" user="OSMF Redaction Account" changeset="12354190" lat="-27.2278272" lon="153.0246777"/>
  <node id="319938695" version="6" timestamp="2012-08-18T04:47:10Z" uid="38548" user="PesceVerde" changeset="12769290" lat="-27.2278427" lon="153.0246647"/>
  <node id="319938696" version="5" timestamp="2012-07-20T01:04:41Z" uid="722137" user="OSMF Redaction Account" changeset="12354190" lat="-27.2275601" lon="153.0249695"/>
  <node id="319938696" version="6" timestamp="2012-08-18T04:47:10Z" uid="38548" user="PesceVerde" changeset="12769290" lat="-27.227562" lon="153.0249804"/>
  <node id="319938697" version="5" timestamp="2012-07-20T01:04:41Z" uid="722137" user="OSMF Redaction Account" changeset="12354190" lat="-27.2274456" lon="153.0250553"/>
  <node id="319938698" version="8" timestamp="2012-07-20T01:04:42Z" uid="722137" user="OSMF Redaction Account" changeset="12354190" lat="-27.2273311" lon="153.0250811"/>
  <node id="319938699" version="5" timestamp="2012-07-20T01:04:43Z" uid="722137" user="OSMF Redaction Account" changeset="12354190" lat="-27.2272777" lon="153.0252184"/>
  <node id="319938700" version="5" timestamp="2012-07-20T01:04:43Z" uid="722137" user="OSMF Redaction Account" changeset="12354190" lat="-27.2271708" lon="153.0253043"/>
  <node id="319938836" version="4" timestamp="2012-07-20T01:04:48Z" uid="722137" user="OSMF Redaction Account" changeset="12354190" lat="-27.2261287" lon="153.024519"/>
  <node id="319938836" version="5" timestamp="2012-08-18T04:47:10Z" uid="38548" user="PesceVerde" changeset="12769290" lat="-27.2260611" lon="153.0244886"/>
  <node id="319938837" version="6" timestamp="2012-07-20T01:04:49Z" uid="722137" user="OSMF Redaction Account" changeset="12354190" lat="-27.2260184" lon="153.0244374"/>
  <node id="319938837" version="7" timestamp="2012-08-18T04:47:10Z" uid="38548" user="PesceVerde" changeset="12769290" lat="-27.2259508" lon="153.0244331"/>
  <node id="319938838" version="5" timestamp="2012-07-20T01:04:49Z" uid="722137" user="OSMF Redaction Account" changeset="12354190" lat="-27.2259879" lon="153.0243086"/>
  <node id="319938838" version="6" timestamp="2012-08-18T04:47:10Z" uid="38548" user="PesceVerde" changeset="12769290" lat="-27.2259551" lon="153.0243086"/>
  <node id="319938839" version="5" timestamp="2012-07-20T01:04:50Z" uid="722137" user="OSMF Redaction Account" changeset="12354190" lat="-27.2256368" lon="153.0238108"/>
  <node id="319938839" version="6" timestamp="2012-08-18T04:47:14Z" uid="38548" user="PesceVerde" changeset="12769290" lat="-27.2256368" lon="153.0238108"/>
  <node id="319938840" version="5" timestamp="2012-07-20T01:04:50Z" uid="722137" user="OSMF Redaction Account" changeset="12354190" lat="-27.2255681" lon="153.0237593"/>
  <node id="319938840" version="6" timestamp="2012-08-18T04:47:10Z" uid="38548" user="PesceVerde" changeset="12769290" lat="-27.2255971" lon="153.023818"/>
  <node id="319938841" version="5" timestamp="2012-07-20T01:04:51Z" uid="722137" user="OSMF Redaction Account" changeset="12354190" lat="-27.225446" lon="153.023785"/>
  <node id="319938841" version="6" timestamp="2012-08-18T04:47:14Z" uid="38548" user="PesceVerde" changeset="12769290" lat="-27.225446" lon="153.023785"/>
  <node id="319938842" version="5" timestamp="2012-07-20T01:04:53Z" uid="722137" user="OSMF Redaction Account" changeset="12354190" lat="-27.225156" lon="153.0239224"/>
  <node id="319938842" version="6" timestamp="2012-08-18T04:47:14Z" uid="38548" user="PesceVerde" changeset="12769290" lat="-27.225156" lon="153.0239224"/>
  <node id="319939092" version="3" timestamp="2012-07-20T01:04:38Z" uid="722137" user="OSMF Redaction Account" changeset="12354190" lat="-27.2280562" lon="153.0232786"/>
  <node id="319939092" version="4" timestamp="2012-08-18T04:47:10Z" uid="38548" user="PesceVerde" changeset="12769290" lat="-27.2278804" lon="153.0227006"/>
  <node id="319939094" version="3" timestamp="2012-07-20T01:04:39Z" uid="722137" user="OSMF Redaction Account" changeset="12354190" lat="-27.2279722" lon="153.0229353"/>
  <node id="319939094" version="4" timestamp="2012-08-18T04:47:10Z" uid="38548" user="PesceVerde" changeset="12769290" lat="-27.2278756" lon="153.0225659"/>
  <node id="319939097" version="4" timestamp="2012-07-20T01:04:39Z" uid="722137" user="OSMF Redaction Account" changeset="12354190" lat="-27.2279493" lon="153.0225062"/>
  <node id="319939097" version="5" timestamp="2012-08-18T04:47:10Z" uid="38548" user="PesceVerde" changeset="12769290" lat="-27.2278952" lon="153.0225323"/>
  <node id="319939099" version="3" timestamp="2012-07-20T01:04:38Z" uid="722137" user="OSMF Redaction Account" changeset="12354190" lat="-27.2280791" lon="153.0224804"/>
  <node id="319939099" version="4" timestamp="2012-08-18T04:47:10Z" uid="38548" user="PesceVerde" changeset="12769290" lat="-27.2279458" lon="153.0225065"/>
  <node id="319939102" version="3" timestamp="2012-07-20T01:04:37Z" uid="722137" user="OSMF Redaction Account" changeset="12354190" lat="-27.2286591" lon="153.0227293"/>
  <node id="319939102" version="4" timestamp="2012-08-18T04:47:10Z" uid="38548" user="PesceVerde" changeset="12769290" lat="-27.2286301" lon="153.0227793"/>
  <node id="319939105" version="3" timestamp="2012-07-20T01:04:37Z" uid="722137" user="OSMF Redaction Account" changeset="12354190" lat="-27.2287736" lon="153.0231327"/>
  <node id="319939105" version="4" timestamp="2012-08-18T04:47:10Z" uid="38548" user="PesceVerde" changeset="12769290" lat="-27.2287446" lon="153.0231197"/>
  <node id="319939239" version="3" timestamp="2012-07-20T01:04:35Z" uid="722137" user="OSMF Redaction Account" changeset="12354190" lat="-27.2296512" lon="153.0238108"/>
  <node id="319939239" version="4" timestamp="2012-08-18T04:47:10Z" uid="38548" user="PesceVerde" changeset="12769290" lat="-27.2296299" lon="153.0238238"/>
  <node id="319939240" version="3" timestamp="2012-07-20T01:04:35Z" uid="722137" user="OSMF Redaction Account" changeset="12354190" lat="-27.2296131" lon="153.0235447"/>
  <node id="319939240" version="4" timestamp="2012-08-18T04:47:10Z" uid="38548" user="PesceVerde" changeset="12769290" lat="-27.2295899" lon="153.0235838"/>
  <node id="319939241" version="3" timestamp="2012-07-20T01:04:35Z" uid="722137" user="OSMF Redaction Account" changeset="12354190" lat="-27.2295826" lon="153.0233387"/>
  <node id="319939241" version="4" timestamp="2012-08-18T04:47:10Z" uid="38548" user="PesceVerde" changeset="12769290" lat="-27.2295517" lon="153.0233409"/>
  <node id="319939242" version="4" timestamp="2012-08-18T04:47:10Z" uid="38548" user="PesceVerde" changeset="12769290" lat="-27.2294842" lon="153.0229662"/>
  <node id="319939244" version="5" timestamp="2012-07-20T01:04:36Z" uid="722137" user="OSMF Redaction Account" changeset="12354190" lat="-27.2293689" lon="153.022592"/>
  <node id="319939244" version="6" timestamp="2012-08-18T04:47:14Z" uid="38548" user="PesceVerde" changeset="12769290" lat="-27.2293689" lon="153.022592"/>
  <node id="319939245" version="3" timestamp="2012-07-20T01:04:36Z" uid="722137" user="OSMF Redaction Account" changeset="12354190" lat="-27.2292925" lon="153.0224633"/>
  <node id="319939245" version="4" timestamp="2012-08-18T04:47:10Z" uid="38548" user="PesceVerde" changeset="12769290" lat="-27.2292616" lon="153.0224981"/>
  <node id="319939381" version="3" timestamp="2012-07-20T01:04:38Z" uid="722137" user="OSMF Redaction Account" changeset="12354190" lat="-27.2281783" lon="153.0212788"/>
  <node id="319939382" version="3" timestamp="2012-07-20T01:04:38Z" uid="722137" user="OSMF Redaction Account" changeset="12354190" lat="-27.228102" lon="153.0215363"/>
  <node id="319939383" version="4" timestamp="2012-07-20T01:04:49Z" uid="722137" user="OSMF Redaction Account" changeset="12354190" lat="-27.2259573" lon="153.0244803"/>
  <node id="319939383" version="5" timestamp="2012-08-18T04:47:10Z" uid="38548" user="PesceVerde" changeset="12769290" lat="-27.2258993" lon="153.0244955"/>
  <node id="319939384" version="4" timestamp="2012-07-20T01:04:49Z" uid="722137" user="OSMF Redaction Account" changeset="12354190" lat="-27.2258734" lon="153.0245404"/>
  <node id="319939384" version="5" timestamp="2012-08-18T04:47:14Z" uid="38548" user="PesceVerde" changeset="12769290" lat="-27.2258734" lon="153.0245404"/>
  <node id="319939385" version="4" timestamp="2012-07-20T01:04:50Z" uid="722137" user="OSMF Redaction Account" changeset="12354190" lat="-27.2257131" lon="153.0246262"/>
  <node id="319939385" version="5" timestamp="2012-08-18T04:47:10Z" uid="38548" user="PesceVerde" changeset="12769290" lat="-27.2255778" lon="153.0246827"/>
  <node id="319939448" version="3" timestamp="2012-07-20T01:04:38Z" uid="722137" user="OSMF Redaction Account" changeset="12354190" lat="-27.2282241" lon="153.0243601"/>
  <node id="319939448" version="4" timestamp="2012-08-18T04:47:14Z" uid="38548" user="PesceVerde" changeset="12769290" lat="-27.2282241" lon="153.0243601"/>
  <node id="319939449" version="3" timestamp="2012-07-20T01:04:38Z" uid="722137" user="OSMF Redaction Account" changeset="12354190" lat="-27.2283004" lon="153.0244459"/>
  <node id="319939449" version="4" timestamp="2012-08-18T04:47:14Z" uid="38548" user="PesceVerde" changeset="12769290" lat="-27.2283004" lon="153.0244459"/>
  <node id="319939450" version="3" timestamp="2012-07-20T01:04:37Z" uid="722137" user="OSMF Redaction Account" changeset="12354190" lat="-27.2283843" lon="153.0245747"/>
  <node id="319939450" version="4" timestamp="2012-08-18T04:47:10Z" uid="38548" user="PesceVerde" changeset="12769290" lat="-27.2283128" lon="153.0245769"/>
  <node id="319939455" version="5" timestamp="2012-07-20T01:04:43Z" uid="722137" user="OSMF Redaction Account" changeset="12354190" lat="-27.2272624" lon="153.0250124"/>
  <node id="319939456" version="5" timestamp="2012-07-20T01:04:44Z" uid="722137" user="OSMF Redaction Account" changeset="12354190" lat="-27.2271251" lon="153.0248236"/>
  <node id="319939933" version="8" timestamp="2012-07-25T15:59:01Z" uid="678216" user="SCi" changeset="12488740" lat="52.5574213" lon="16.8417325">
    <tag k="addr:postcode" v="62-001"/>
    <tag k="is_in" v="gmina Suchy Las, powiat poznański, województwo wielkopolskie, Poland"/>
    <tag k="is_in:country" v="Poland"/>
    <tag k="is_in:county" v="powiat poznański"/>
    <tag k="is_in:municipality" v="gmina Suchy Las"/>
    <tag k="is_in:province" v="województwo wielkopolskie"/>
    <tag k="name" v="Chludowo"/>
    <tag k="place" v="village"/>
    <tag k="population" v="1000"/>
    <tag k="source:population" v="wikipedia"/>
    <tag k="teryt:rm" v="01"/>
    <tag k="teryt:stan_na" v="2009-01-01"/>
    <tag k="teryt:terc" v="3021152"/>
    <tag k="teryt:updated_by" v="teryt2osm combine.py v. 43"/>
    <tag k="wikipedia" v="Chludowo"/>
  </node>
  <node id="319939933" version="9" timestamp="2012-07-25T16:05:59Z" uid="678216" user="SCi" changeset="12488803" lat="52.5577994" lon="16.8479974">
    <tag k="addr:postcode" v="62-001"/>
    <tag k="is_in" v="gmina Suchy Las, powiat poznański, województwo wielkopolskie, Poland"/>
    <tag k="is_in:country" v="Poland"/>
    <tag k="is_in:county" v="powiat poznański"/>
    <tag k="is_in:municipality" v="gmina Suchy Las"/>
    <tag k="is_in:province" v="województwo wielkopolskie"/>
    <tag k="name" v="Chludowo"/>
    <tag k="place" v="village"/>
    <tag k="population" v="1000"/>
    <tag k="source:population" v="wikipedia"/>
    <tag k="teryt:rm" v="01"/>
    <tag k="teryt:stan_na" v="2009-01-01"/>
    <tag k="teryt:terc" v="3021152"/>
    <tag k="teryt:updated_by" v="teryt2osm combine.py v. 43"/>
    <tag k="wikipedia" v="Chludowo"/>
  </node>
  <node id="319939933" version="10" timestamp="2012-08-29T08:29:38Z" uid="608565" user="Innco" changeset="12901811" lat="52.558012" lon="16.8447879">
    <tag k="addr:postcode" v="62-001"/>
    <tag k="is_in" v="gmina Suchy Las, powiat poznański, województwo wielkopolskie, Poland"/>
    <tag k="is_in:country" v="Poland"/>
    <tag k="is_in:county" v="powiat poznański"/>
    <tag k="is_in:municipality" v="gmina Suchy Las"/>
    <tag k="is_in:province" v="województwo wielkopolskie"/>
    <tag k="name" v="Chludowo"/>
    <tag k="place" v="village"/>
    <tag k="population" v="1000"/>
    <tag k="source:population" v="wikipedia"/>
    <tag k="teryt:rm" v="01"/>
    <tag k="teryt:stan_na" v="2009-01-01"/>
    <tag k="teryt:terc" v="3021152"/>
    <tag k="teryt:updated_by" v="teryt2osm combine.py v. 43"/>
    <tag k="wikipedia" v="Chludowo"/>
  </node>
</osm>
