<?xml version='1.0' encoding='UTF-8'?>
<osm version="0.6" generator="libosmium/2.20.0">
  <node id="321472200" version="9" timestamp="2010-09-07T16:54:25Z" uid="43967" user="railsnail" changeset="5709641" lat="46.1100656" lon="11.1102959"/>
  <node id="321473869" version="2" timestamp="2009-01-01T13:04:58Z" uid="6975" user="ulfl" changeset="699648" lat="52.0407493" lon="0.4885549">
    <tag k="is_in" v="Essex, England, UK"/>
    <tag k="name" v="Birdbrook"/>
    <tag k="place" v="village"/>
    <tag k="source" v="survey"/>
  </node>
  <node id="321474366" version="3" timestamp="2009-01-01T13:37:54Z" uid="6975" user="ulfl" changeset="699648" lat="51.4481407" lon="7.0739532">
    <tag k="highway" v="traffic_signals"/>
  </node>
  <node id="321474366" version="4" timestamp="2010-09-11T16:58:55Z" uid="74746" user="vogelfreier" changeset="5751529" lat="51.4503945" lon="7.075428">
    <tag k="amenity" v="bench"/>
    <tag k="backrest" v="no"/>
    <tag k="colour" v="gray"/>
    <tag k="material" v="metal"/>
    <tag k="seats" v="8"/>
    <tag k="shelter" v="yes"/>
  </node>
  <node id="321474523" version="4" timestamp="2009-01-01T13:37:54Z" uid="6975" user="ulfl" changeset="699648" lat="51.4486049" lon="7.0739956">
    <tag k="highway" v="traffic_signals"/>
  </node>
  <node id="321474523" version="5" timestamp="2009-06-14T14:43:54Z" uid="74746" user="vogelfreier" changeset="1514928" lat="51.4486049" lon="7.0739956">
    <tag k="highway" v="traffic_signals"/>
  </node>
  <node id="321474729" version="3" timestamp="2009-01-01T13:37:54Z" uid="6975" user="ulfl" changeset="699648" lat="51.4500022" lon="7.0702968">
    <tag k="highway" v="traffic_signals"/>
  </node>
  <node id="321474729" version="4" timestamp="2010-04-11T12:28:33Z" uid="212204" user="mapmann" changeset="4392783" lat="51.4499786" lon="7.0705435">
    <tag k="highway" v="traffic_signals"/>
  </node>
  <node id="321474729" version="5" timestamp="2011-04-03T16:24:05Z" uid="74746" user="vogelfreier" changeset="7755996" lat="51.4510359" lon="7.0716165">
    <tag k="natural" v="tree"/>
    <tag k="source" v="bing"/>
    <tag k="type" v="broad_leafed"/>
  </node>
  <node id="321474917" version="3" timestamp="2009-02-01T18:51:21Z" uid="6975" user="ulfl" changeset="27333" lat="49.7113517" lon="6.252532">
    <tag k="amenity" v="bus_station"/>
    <tag k="name" v="Gare"/>
  </node>
  <node id="321474917" version="4" timestamp="2011-05-04T17:31:25Z" uid="38220" user="pierrelux" changeset="8050744" lat="49.7114065" lon="6.2523966">
    <tag k="amenity" v="bus_station"/>
    <tag k="name" v="Gare"/>
    <tag k="shelter" v="yes"/>
  </node>
  <node id="321476463" version="3" timestamp="2009-01-01T13:15:48Z" uid="6975" user="ulfl" changeset="699648" lat="-23.1462875" lon="-50.5260355">
    <tag k="name" v="Panificadora Vila Nova"/>
    <tag k="shop" v="bakery"/>
  </node>
  <node id="321478817" version="2" timestamp="2011-04-05T16:27:49Z" uid="9581" user="Lobelt" changeset="7776467" lat="49.2112257" lon="7.9381197"/>
  <node id="321478818" version="2" timestamp="2011-04-05T16:27:49Z" uid="9581" user="Lobelt" changeset="7776467" lat="49.211577" lon="7.9382165"/>
  <node id="321478821" version="3" timestamp="2009-11-06T00:32:47Z" uid="36809" user="pfoten_weg_!_" changeset="3044956" lat="52.3457513" lon="14.5544406">
    <tag k="amenity" v="pharmacy"/>
    <tag k="dispensing" v="yes"/>
    <tag k="name" v="Löwen Apotheke"/>
  </node>
  <node id="321478821" version="4" timestamp="2010-10-22T10:27:17Z" uid="163437" user="r-michael" changeset="6134809" lat="52.3457513" lon="14.5544406">
    <tag k="amenity" v="pharmacy"/>
    <tag k="dispensing" v="yes"/>
    <tag k="name" v="Löwen Apotheke"/>
    <tag k="opening_hours" v="Mo-Fr 08:00-18:30; Sa 09:00-12:00"/>
    <tag k="website" v="http://www.loewenapotheke-ffo.de/"/>
  </node>
  <node id="321478821" version="5" timestamp="2010-11-28T17:31:14Z" uid="163437" user="r-michael" changeset="6480330" lat="52.345777" lon="14.5545127">
    <tag k="amenity" v="pharmacy"/>
    <tag k="dispensing" v="yes"/>
    <tag k="name" v="Löwen Apotheke"/>
    <tag k="opening_hours" v="Mo-Fr 08:00-18:30; Sa 09:00-12:00"/>
    <tag k="website" v="http://www.loewenapotheke-ffo.de/"/>
  </node>
  <node id="321478821" version="6" timestamp="2011-11-19T09:20:30Z" uid="290680" user="wheelmap_visitor" changeset="9869031" lat="52.345777" lon="14.5545127">
    <tag k="amenity" v="pharmacy"/>
    <tag k="dispensing" v="yes"/>
    <tag k="name" v="Löwen Apotheke"/>
    <tag k="opening_hours" v="Mo-Fr 08:00-18:30; Sa 09:00-12:00"/>
    <tag k="website" v="http://www.loewenapotheke-ffo.de/"/>
    <tag k="wheelchair" v="no"/>
  </node>
  <node id="321478821" version="7" timestamp="2011-11-22T09:11:11Z" uid="163437" user="r-michael" changeset="9906648" lat="52.345777" lon="14.5545127">
    <tag k="amenity" v="pharmacy"/>
    <tag k="dispensing" v="yes"/>
    <tag k="name" v="Löwen Apotheke"/>
    <tag k="opening_hours" v="Mo-Fr 08:00-18:30; Sa 09:00-12:00"/>
    <tag k="website" v="http://www.loewenapotheke-ffo.de/"/>
  </node>
  <node id="321478821" version="8" timestamp="2012-01-02T16:59:47Z" uid="290680" user="wheelmap_visitor" changeset="10268197" lat="52.345777" lon="14.5545127">
    <tag k="amenity" v="pharmacy"/>
    <tag k="dispensing" v="yes"/>
    <tag k="name" v="Löwen Apotheke"/>
    <tag k="opening_hours" v="Mo-Fr 08:00-18:30; Sa 09:00-12:00"/>
    <tag k="website" v="http://www.loewenapotheke-ffo.de/"/>
    <tag k="wheelchair" v="no"/>
  </node>
  <node id="321478821" version="9" timestamp="2012-01-05T17:23:54Z" uid="163437" user="r-michael" changeset="10303241" lat="52.345777" lon="14.5545127">
    <tag k="amenity" v="pharmacy"/>
    <tag k="dispensing" v="yes"/>
    <tag k="name" v="Löwen Apotheke"/>
    <tag k="opening_hours" v="Mo-Fr 08:00-18:30; Sa 09:00-12:00"/>
    <tag k="website" v="http://www.loewenapotheke-ffo.de/"/>
  </node>
  <node id="321479835" version="3" timestamp="2009-01-01T13:04:58Z" uid="6975" user="ulfl" changeset="699648" lat="52.0215743" lon="0.5069076">
    <tag k="amenity" v="place_of_worship"/>
    <tag k="denomination" v="anglican"/>
    <tag k="name" v="St Peter and St Thomas Becket"/>
    <tag k="religion" v="christian"/>
    <tag k="source" v="gps survey"/>
  </node>
  <node id="321479835" version="4" timestamp="2011-12-11T23:42:55Z" uid="553735" user="Johnmb" changeset="10095260" lat="52.0215743" lon="0.5069076"/>
  <node id="321472200" version="10" timestamp="2012-07-16T16:33:18Z" uid="722137" user="OSMF Redaction Account" changeset="12247754" lat="46.1100681" lon="11.1103208"/>
  <node id="321472200" version="11" timestamp="2012-08-20T17:55:34Z" uid="330007" user="pikappa79" changeset="12798994" lat="46.1100611" lon="11.1102649"/>
  <node id="321478817" version="3" timestamp="2012-04-07T23:01:36Z" uid="328555" user="peb12345" changeset="11219628" lat="49.2112257" lon="7.9381197"/>
  <node id="321478818" version="3" timestamp="2012-04-07T23:01:36Z" uid="328555" user="peb12345" changeset="11219628" lat="49.211577" lon="7.9382165"/>
</osm>
