<?xml version='1.0' encoding='UTF-8'?>
<osm version="0.6" generator="libosmium/2.20.0">
  <node id="322331324" version="1" timestamp="2008-12-28T02:07:58Z" uid="6975" user="ulfl" changeset="647766" lat="49.5889842" lon="11.0054184">
    <tag k="amenity" v="dentist"/>
    <tag k="name" v="Dr. Koopmann / Dr. von Auer"/>
    <tag k="note" v="1. Stock"/>
  </node>
  <node id="322331324" version="2" timestamp="2010-02-12T12:51:59Z" uid="118856" user="staehler" changeset="3856095" lat="49.5889842" lon="11.0054184">
    <tag k="addr:city" v="Erlangen"/>
    <tag k="addr:housenumber" v="40"/>
    <tag k="addr:postcode" v="91508"/>
    <tag k="addr:street" v="Nägelsbachstraße"/>
    <tag k="amenity" v="dentist"/>
    <tag k="name" v="Dr. Koopmann / Dr. von Auer"/>
    <tag k="note" v="1. Stock"/>
  </node>
  <node id="322331324" version="3" timestamp="2012-01-28T11:20:41Z" uid="82877" user="Wankmann" changeset="10519916" lat="49.5889842" lon="11.0054184"/>
  <node id="322335113" version="1" timestamp="2008-12-28T02:12:46Z" uid="6975" user="ulfl" changeset="647766" lat="52.2250287" lon="11.6730011">
    <tag k="amenity" v="parking"/>
    <tag k="parking" v="surface"/>
  </node>
  <node id="322335113" version="2" timestamp="2012-07-18T10:29:13Z" uid="722137" user="OSMF Redaction Account" changeset="12278138" lat="52.2250287" lon="11.6730011"/>
</osm>
