<?xml version='1.0' encoding='UTF-8'?>
<osm version="0.6" generator="libosmium/2.20.0">
  <node id="326174454" version="5" timestamp="2009-10-02T19:45:57Z" uid="86259" user="hasse_osm_korinthenkacker" changeset="2716821" lat="47.888074" lon="11.6979124">
    <tag k="addr:city" v="Holzkirchen"/>
    <tag k="addr:country" v="DE"/>
    <tag k="addr:housenumber" v="40a"/>
    <tag k="addr:postcode" v="83607"/>
    <tag k="addr:street" v="Erlkamer Straße"/>
  </node>
  <node id="326174738" version="5" timestamp="2009-10-02T19:45:57Z" uid="86259" user="hasse_osm_korinthenkacker" changeset="2716821" lat="47.8879327" lon="11.6978536">
    <tag k="addr:city" v="Holzkirchen"/>
    <tag k="addr:country" v="DE"/>
    <tag k="addr:housenumber" v="40c"/>
    <tag k="addr:postcode" v="83607"/>
    <tag k="addr:street" v="Erlkamer Straße"/>
  </node>
  <node id="326175320" version="4" timestamp="2009-10-02T19:45:57Z" uid="86259" user="hasse_osm_korinthenkacker" changeset="2716821" lat="47.8879385" lon="11.6979566">
    <tag k="addr:city" v="Holzkirchen"/>
    <tag k="addr:country" v="DE"/>
    <tag k="addr:housenumber" v="40d"/>
    <tag k="addr:postcode" v="83607"/>
    <tag k="addr:street" v="Erlkamer Straße"/>
  </node>
  <node id="326176234" version="3" timestamp="2009-10-03T14:19:34Z" uid="179968" user="Ich_hasse_doitsche_OSM-Korinthenkacker" changeset="2724403" lat="54.5148904" lon="13.6410568">
    <tag k="addr:city" v="Sassnitz"/>
    <tag k="addr:country" v="DE"/>
    <tag k="addr:housenumber" v="70b"/>
    <tag k="addr:postcode" v="18546"/>
    <tag k="addr:street" v="Hauptstraße"/>
    <tag k="amenity" v="atm"/>
    <tag k="name" v="Deutsche Bank"/>
  </node>
  <node id="326176234" version="4" timestamp="2011-03-15T12:06:59Z" uid="76587" user="nbuettler" changeset="7565601" lat="54.5148814" lon="13.6410993">
    <tag k="addr:city" v="Sassnitz"/>
    <tag k="addr:country" v="DE"/>
    <tag k="addr:housenumber" v="70b"/>
    <tag k="addr:postcode" v="18546"/>
    <tag k="addr:street" v="Hauptstraße"/>
    <tag k="amenity" v="atm"/>
    <tag k="name" v="Deutsche Bank"/>
  </node>
  <node id="326176244" version="3" timestamp="2009-10-03T14:19:34Z" uid="179968" user="Ich_hasse_doitsche_OSM-Korinthenkacker" changeset="2724403" lat="54.5154623" lon="13.6426445">
    <tag k="addr:city" v="Sassnitz"/>
    <tag k="addr:country" v="DE"/>
    <tag k="addr:housenumber" v="7"/>
    <tag k="addr:postcode" v="18546"/>
    <tag k="addr:street" v="Hauptstraße"/>
  </node>
  <node id="326176244" version="4" timestamp="2009-12-23T18:36:58Z" uid="76587" user="nbuettler" changeset="3436716" lat="54.515421" lon="13.6427107">
    <tag k="addr:city" v="Sassnitz"/>
    <tag k="addr:country" v="DE"/>
    <tag k="addr:housenumber" v="7"/>
    <tag k="addr:postcode" v="18546"/>
    <tag k="addr:street" v="Hauptstraße"/>
  </node>
  <node id="326176247" version="2" timestamp="2009-10-03T14:19:36Z" uid="179968" user="Ich_hasse_doitsche_OSM-Korinthenkacker" changeset="2724403" lat="54.5156579" lon="13.6427243">
    <tag k="amenity" v="restaurant"/>
    <tag k="cuisine" v="chinese"/>
    <tag k="name" v="China-Garten"/>
  </node>
  <node id="326176247" version="3" timestamp="2009-12-23T18:36:58Z" uid="76587" user="nbuettler" changeset="3436716" lat="54.5157199" lon="13.6427321">
    <tag k="amenity" v="restaurant"/>
    <tag k="cuisine" v="chinese"/>
    <tag k="name" v="China-Garten"/>
  </node>
  <node id="326176247" version="4" timestamp="2011-01-14T21:41:37Z" uid="76587" user="nbuettler" changeset="6971734" lat="54.5156688" lon="13.6427497">
    <tag k="amenity" v="restaurant"/>
    <tag k="cuisine" v="chinese"/>
    <tag k="name" v="China Garten"/>
  </node>
  <node id="326176252" version="3" timestamp="2009-10-03T14:19:36Z" uid="179968" user="Ich_hasse_doitsche_OSM-Korinthenkacker" changeset="2724403" lat="54.5156499" lon="13.6430035">
    <tag k="addr:city" v="Sassnitz"/>
    <tag k="addr:country" v="DE"/>
    <tag k="addr:housenumber" v="9"/>
    <tag k="addr:postcode" v="18546"/>
    <tag k="addr:street" v="Hauptstraße"/>
  </node>
  <node id="326176252" version="4" timestamp="2009-12-23T18:36:57Z" uid="76587" user="nbuettler" changeset="3436716" lat="54.5156078" lon="13.6430111">
    <tag k="addr:city" v="Sassnitz"/>
    <tag k="addr:country" v="DE"/>
    <tag k="addr:housenumber" v="9"/>
    <tag k="addr:postcode" v="18546"/>
    <tag k="addr:street" v="Hauptstraße"/>
  </node>
  <node id="326176254" version="2" timestamp="2009-10-03T14:19:36Z" uid="179968" user="Ich_hasse_doitsche_OSM-Korinthenkacker" changeset="2724403" lat="54.5168117" lon="13.6423629"/>
  <node id="326176254" version="3" timestamp="2010-07-24T16:30:12Z" uid="67020" user="Nibbler" changeset="5305288" lat="54.5167751" lon="13.6423527"/>
  <node id="326176265" version="3" timestamp="2009-10-03T14:19:36Z" uid="179968" user="Ich_hasse_doitsche_OSM-Korinthenkacker" changeset="2724403" lat="54.5158097" lon="13.6431792"/>
  <node id="326176265" version="4" timestamp="2010-07-24T16:29:59Z" uid="67020" user="Nibbler" changeset="5305288" lat="54.5158369" lon="13.6432179"/>
  <node id="326176289" version="2" timestamp="2009-10-03T14:19:36Z" uid="179968" user="Ich_hasse_doitsche_OSM-Korinthenkacker" changeset="2724403" lat="54.5160219" lon="13.6432492">
    <tag k="amenity" v="telephone"/>
  </node>
  <node id="326176289" version="3" timestamp="2011-01-14T21:58:12Z" uid="76587" user="nbuettler" changeset="6971734" lat="54.5160219" lon="13.6432492">
    <tag k="amenity" v="telephone"/>
  </node>
  <node id="326176290" version="3" timestamp="2009-10-03T14:19:36Z" uid="179968" user="Ich_hasse_doitsche_OSM-Korinthenkacker" changeset="2724403" lat="54.5158776" lon="13.6434996">
    <tag k="amenity" v="restaurant"/>
    <tag k="name" v="König Gustav"/>
  </node>
  <node id="326176294" version="3" timestamp="2009-10-03T14:19:36Z" uid="179968" user="Ich_hasse_doitsche_OSM-Korinthenkacker" changeset="2724403" lat="54.516541" lon="13.6437929">
    <tag k="addr:city" v="Sassnitz"/>
    <tag k="addr:country" v="DE"/>
    <tag k="addr:housenumber" v="61"/>
    <tag k="addr:postcode" v="18546"/>
    <tag k="addr:street" v="Hauptstraße"/>
  </node>
  <node id="326176294" version="4" timestamp="2011-10-07T10:08:35Z" uid="282726" user="kaiD" changeset="9492444" lat="54.516541" lon="13.6437929"/>
  <node id="326176298" version="3" timestamp="2009-10-03T14:19:36Z" uid="179968" user="Ich_hasse_doitsche_OSM-Korinthenkacker" changeset="2724403" lat="54.5166544" lon="13.6442058">
    <tag k="addr:city" v="Sassnitz"/>
    <tag k="addr:country" v="DE"/>
    <tag k="addr:housenumber" v="14"/>
    <tag k="addr:postcode" v="18546"/>
    <tag k="addr:street" v="Hauptstraße"/>
  </node>
  <node id="326176301" version="3" timestamp="2009-10-03T14:19:36Z" uid="179968" user="Ich_hasse_doitsche_OSM-Korinthenkacker" changeset="2724403" lat="54.5166939" lon="13.643827">
    <tag k="amenity" v="fast_food"/>
    <tag k="cuisine" v="kebab"/>
    <tag k="name" v="Istanbul-Imbiss"/>
  </node>
  <node id="326176301" version="4" timestamp="2011-01-14T21:41:38Z" uid="76587" user="nbuettler" changeset="6971734" lat="54.5166939" lon="13.643827">
    <tag k="amenity" v="fast_food"/>
    <tag k="cuisine" v="kebab"/>
    <tag k="name" v="Istanbul-Imbiss"/>
  </node>
  <node id="326179342" version="2" timestamp="2009-10-03T14:19:41Z" uid="179968" user="Ich_hasse_doitsche_OSM-Korinthenkacker" changeset="2724403" lat="54.5174228" lon="13.6451295">
    <tag k="amenity" v="fast_food"/>
    <tag k="cuisine" v="kebab"/>
    <tag k="name" v="Alanya"/>
  </node>
  <node id="326179342" version="3" timestamp="2011-01-14T21:41:36Z" uid="76587" user="nbuettler" changeset="6971734" lat="54.5174748" lon="13.6450778">
    <tag k="amenity" v="fast_food"/>
    <tag k="cuisine" v="kebab"/>
    <tag k="name" v="Alanya"/>
  </node>
  <node id="326179360" version="3" timestamp="2009-10-03T14:19:41Z" uid="179968" user="Ich_hasse_doitsche_OSM-Korinthenkacker" changeset="2724403" lat="54.5173509" lon="13.6452698">
    <tag k="addr:city" v="Sassnitz"/>
    <tag k="addr:country" v="DE"/>
    <tag k="addr:housenumber" v="19"/>
    <tag k="addr:postcode" v="18546"/>
    <tag k="addr:street" v="Hauptstraße"/>
  </node>
  <node id="326179363" version="2" timestamp="2009-10-03T14:19:41Z" uid="179968" user="Ich_hasse_doitsche_OSM-Korinthenkacker" changeset="2724403" lat="54.517821" lon="13.6463914">
    <tag k="amenity" v="bank"/>
    <tag k="name" v="Deutsche Bank"/>
    <tag k="note" v="no ATM here!"/>
  </node>
  <node id="326179363" version="3" timestamp="2010-01-01T18:19:35Z" uid="131968" user="changchun_1" changeset="3512532" lat="54.517821" lon="13.6463914">
    <tag k="amenity" v="bank"/>
    <tag k="name" v="Deutsche Bank"/>
    <tag k="note" v="no ATM here!"/>
    <tag k="operator" v="Deutsche Bank"/>
  </node>
  <node id="326179363" version="4" timestamp="2011-01-14T22:03:47Z" uid="76587" user="nbuettler" changeset="6971734" lat="54.5177737" lon="13.6463653">
    <tag k="amenity" v="bank"/>
    <tag k="name" v="Deutsche Bank"/>
    <tag k="note" v="no ATM here!"/>
    <tag k="operator" v="Deutsche Bank"/>
  </node>
  <node id="326179367" version="2" timestamp="2009-10-03T14:19:41Z" uid="179968" user="Ich_hasse_doitsche_OSM-Korinthenkacker" changeset="2724403" lat="54.5181913" lon="13.6467518">
    <tag k="name" v="Schlecker"/>
    <tag k="shop" v="drugstore"/>
  </node>
  <node id="326179367" version="3" timestamp="2009-12-23T13:11:01Z" uid="76587" user="nbuettler" changeset="3434356" lat="54.5172107" lon="13.6447421">
    <tag k="name" v="Schlecker"/>
    <tag k="shop" v="drugstore"/>
  </node>
  <node id="326179367" version="4" timestamp="2011-01-14T22:09:07Z" uid="76587" user="nbuettler" changeset="6971734" lat="54.5172631" lon="13.6447238">
    <tag k="name" v="Schlecker XL"/>
    <tag k="shop" v="chemist "/>
  </node>
  <node id="326179367" version="5" timestamp="2011-01-15T21:54:57Z" uid="70696" user="xybot" changeset="6982472" lat="54.5172631" lon="13.6447238">
    <tag k="name" v="Schlecker XL"/>
    <tag k="shop" v="chemist"/>
  </node>
  <node id="326179373" version="2" timestamp="2009-10-03T14:19:43Z" uid="179968" user="Ich_hasse_doitsche_OSM-Korinthenkacker" changeset="2724403" lat="54.5183669" lon="13.6483069">
    <tag k="amenity" v="bank"/>
    <tag k="name" v="Sparkasse"/>
  </node>
  <node id="326179373" version="3" timestamp="2010-01-01T18:19:35Z" uid="131968" user="changchun_1" changeset="3512532" lat="54.5183669" lon="13.6483069">
    <tag k="amenity" v="bank"/>
    <tag k="name" v="Sparkasse"/>
    <tag k="operator" v="Sparkasse"/>
  </node>
  <node id="326179363" version="5" timestamp="2012-08-26T19:27:14Z" uid="132740" user="Creando" changeset="12870967" lat="54.5177737" lon="13.6463653">
    <tag k="amenity" v="bank"/>
    <tag k="atm" v="no"/>
    <tag k="name" v="Deutsche Bank"/>
    <tag k="note" v="no ATM here!"/>
    <tag k="operator" v="Deutsche Bank"/>
  </node>
  <node id="326179363" version="6" timestamp="2012-08-26T19:33:06Z" uid="132740" user="Creando" changeset="12870967" lat="54.5177758" lon="13.6464887">
    <tag k="amenity" v="bank"/>
    <tag k="atm" v="no"/>
    <tag k="name" v="Deutsche Bank"/>
    <tag k="note" v="no ATM here!"/>
    <tag k="operator" v="Deutsche Bank"/>
  </node>
  <node id="326179373" version="4" timestamp="2012-07-20T09:01:59Z" uid="19988" user="ratopi" changeset="12369339" lat="54.5183669" lon="13.6483069">
    <tag k="amenity" v="bank"/>
    <tag k="atm" v="yes"/>
    <tag k="fax" v="+49 38392 520450"/>
    <tag k="name" v="Sparkasse Rügen"/>
    <tag k="opening_hours" v="Mo-Fr 09:00-13:00;Mo,Fr 14:00-16:00;Tu,Th 14:00-18:00"/>
    <tag k="operator" v="Sparkasse"/>
    <tag k="phone" v="+49 38392 5200"/>
    <tag k="wheelchair" v="yes"/>
  </node>
  <node id="326179373" version="5" timestamp="2012-08-26T19:27:13Z" uid="132740" user="Creando" changeset="12870967" lat="54.5183301" lon="13.6484253">
    <tag k="amenity" v="bank"/>
    <tag k="atm" v="yes"/>
    <tag k="fax" v="+49 38392 520450"/>
    <tag k="name" v="Sparkasse Rügen"/>
    <tag k="opening_hours" v="Mo-Fr 09:00-13:00;Mo,Fr 14:00-16:00;Tu,Th 14:00-18:00"/>
    <tag k="operator" v="Sparkasse"/>
    <tag k="phone" v="+49 38392 5200"/>
    <tag k="wheelchair" v="yes"/>
  </node>
</osm>
