<?xml version='1.0' encoding='UTF-8'?>
<osm version="0.6" generator="libosmium/2.20.0">
  <node id="327820804" version="6" timestamp="2010-04-27T04:12:28Z" uid="30632" user="antblant" changeset="4537887" lat="53.5509593" lon="15.8218073">
    <tag k="created_by" v="Potlatch 0.10f"/>
    <tag k="is_in" v="Drawsko Pomorskie, Poland"/>
    <tag k="name" v="Gogółczyn"/>
    <tag k="place" v="suburb"/>
    <tag k="teryt:simc" v="0305870"/>
  </node>
  <node id="327821716" version="4" timestamp="2009-12-07T00:04:34Z" uid="200463" user="harmagedon" changeset="3311752" lat="48.2396615" lon="13.5096499"/>
  <node id="327821716" version="5" timestamp="2009-12-07T11:32:31Z" uid="200463" user="harmagedon" changeset="3314630" lat="48.2396615" lon="13.5096499"/>
  <node id="327821716" version="6" timestamp="2010-04-02T19:47:08Z" uid="104947" user="My Friend" changeset="4307381" lat="48.2397331" lon="13.5097016"/>
  <node id="327821716" version="7" timestamp="2010-04-02T19:47:48Z" uid="104947" user="My Friend" changeset="4307381" lat="48.2397545" lon="13.5096318"/>
  <node id="327821716" version="8" timestamp="2010-12-09T10:51:41Z" uid="211966" user="Hetzi" changeset="6593782" lat="48.2400079" lon="13.5094849"/>
  <node id="327826669" version="20" timestamp="2010-03-19T15:12:11Z" uid="74617" user="JohnSmith" changeset="4170892" lat="-36.0523436" lon="146.4550875"/>
  <node id="327826669" version="21" timestamp="2011-10-19T07:27:44Z" uid="168136" user="goldfishxyz" changeset="9596971" lat="-36.0523262" lon="146.4552002"/>
  <node id="327826669" version="22" timestamp="2011-10-19T08:31:07Z" uid="168136" user="goldfishxyz" changeset="9596971" lat="-36.0523566" lon="146.4551358"/>
  <node id="327826669" version="23" timestamp="2011-10-19T08:38:37Z" uid="168136" user="goldfishxyz" changeset="9596971" lat="-36.0523783" lon="146.4550446"/>
  <node id="327826670" version="13" timestamp="2010-03-19T15:12:11Z" uid="74617" user="JohnSmith" changeset="4170892" lat="-36.0525314" lon="146.4565818"/>
  <node id="327826670" version="14" timestamp="2011-10-19T07:27:47Z" uid="168136" user="goldfishxyz" changeset="9596971" lat="-36.052514" lon="146.4566945"/>
  <node id="327826670" version="15" timestamp="2011-10-19T08:31:09Z" uid="168136" user="goldfishxyz" changeset="9596971" lat="-36.0525444" lon="146.4566301"/>
  <node id="327826670" version="16" timestamp="2011-10-19T08:38:39Z" uid="168136" user="goldfishxyz" changeset="9596971" lat="-36.0525661" lon="146.4565389"/>
  <node id="327826674" version="15" timestamp="2010-03-19T15:12:11Z" uid="74617" user="JohnSmith" changeset="4170892" lat="-36.0526784" lon="146.4572137"/>
  <node id="327826674" version="16" timestamp="2011-10-19T07:27:46Z" uid="168136" user="goldfishxyz" changeset="9596971" lat="-36.052661" lon="146.4573264"/>
  <node id="327826674" version="17" timestamp="2011-10-19T08:31:09Z" uid="168136" user="goldfishxyz" changeset="9596971" lat="-36.0526914" lon="146.457262"/>
  <node id="327826674" version="18" timestamp="2011-10-19T08:38:39Z" uid="168136" user="goldfishxyz" changeset="9596971" lat="-36.0527131" lon="146.4571708"/>
  <node id="327826681" version="21" timestamp="2010-03-19T14:58:09Z" uid="74617" user="JohnSmith" changeset="4170806" lat="-36.0553976" lon="146.4623947"/>
  <node id="327826681" version="22" timestamp="2010-03-19T15:12:12Z" uid="74617" user="JohnSmith" changeset="4170892" lat="-36.0554082" lon="146.4624173"/>
  <node id="327826681" version="23" timestamp="2011-10-19T07:27:43Z" uid="168136" user="goldfishxyz" changeset="9596971" lat="-36.0553908" lon="146.46253"/>
  <node id="327826681" version="24" timestamp="2011-10-19T08:31:07Z" uid="168136" user="goldfishxyz" changeset="9596971" lat="-36.0554212" lon="146.4624656"/>
  <node id="327826681" version="25" timestamp="2011-10-19T08:38:36Z" uid="168136" user="goldfishxyz" changeset="9596971" lat="-36.0554429" lon="146.4623744"/>
  <node id="327826685" version="12" timestamp="2010-03-19T15:19:55Z" uid="74617" user="JohnSmith" changeset="4170952" lat="-36.055386" lon="146.4634686">
    <tag k="railway" v="level_crossing"/>
  </node>
  <node id="327827645" version="2" timestamp="2010-01-18T16:48:35Z" uid="216873" user="Goonie" changeset="3651328" lat="52.5466732" lon="13.3184927">
    <tag k="highway" v="bus_stop"/>
    <tag k="name" v="Buchholzweg"/>
    <tag k="ref" v="104299"/>
  </node>
  <node id="327827660" version="2" timestamp="2010-01-18T16:48:35Z" uid="216873" user="Goonie" changeset="3651328" lat="52.5465161" lon="13.3184243">
    <tag k="highway" v="bus_stop"/>
    <tag k="name" v="Buchholzweg"/>
    <tag k="ref" v="104293"/>
  </node>
  <node id="327827660" version="3" timestamp="2011-03-05T10:33:13Z" uid="22684" user="Mr_Israel" changeset="7461540" lat="52.5464637" lon="13.3183452">
    <tag k="highway" v="bus_stop"/>
    <tag k="name" v="Buchholzweg"/>
    <tag k="ref" v="104293"/>
  </node>
  <node id="327827684" version="2" timestamp="2010-01-18T16:31:12Z" uid="216873" user="Goonie" changeset="3651328" lat="52.5240313" lon="13.3708545">
    <tag k="highway" v="bus_stop"/>
    <tag k="name" v="Washingtonplatz"/>
    <tag k="ref" v="130008"/>
  </node>
  <node id="327827684" version="3" timestamp="2010-07-14T19:18:22Z" uid="259536" user="Patrick1977Bln" changeset="5220845" lat="52.5239932" lon="13.3708011">
    <tag k="highway" v="bus_stop"/>
    <tag k="name" v="Washingtonplatz"/>
    <tag k="ref" v="130008"/>
  </node>
  <node id="327827684" version="4" timestamp="2010-10-30T03:41:08Z" uid="290680" user="wheelmap_visitor" changeset="6223832" lat="52.5239932" lon="13.3708011">
    <tag k="highway" v="bus_stop"/>
    <tag k="name" v="Washingtonplatz"/>
    <tag k="ref" v="130008"/>
    <tag k="wheelchair" v="yes"/>
  </node>
  <node id="327827684" version="5" timestamp="2011-10-15T15:53:04Z" uid="290680" user="wheelmap_visitor" changeset="9560388" lat="52.5239932" lon="13.3708011">
    <tag k="highway" v="bus_stop"/>
    <tag k="name" v="Washingtonplatz"/>
    <tag k="ref" v="130008"/>
    <tag k="wheelchair" v="limited"/>
  </node>
  <node id="327827684" version="6" timestamp="2011-11-08T06:24:56Z" uid="117007" user="shony" changeset="9770839" lat="52.5240766" lon="13.3707602">
    <tag k="highway" v="bus_stop"/>
    <tag k="name" v="Washingtonplatz"/>
    <tag k="ref" v="130008"/>
    <tag k="wheelchair" v="limited"/>
  </node>
  <node id="327827697" version="4" timestamp="2010-01-18T16:31:12Z" uid="216873" user="Goonie" changeset="3651328" lat="52.5236955" lon="13.370586">
    <tag k="highway" v="bus_stop"/>
    <tag k="name" v="Washingtonplatz"/>
    <tag k="ref" v="103297"/>
    <tag k="shelter" v="yes"/>
  </node>
  <node id="327827697" version="5" timestamp="2010-07-14T19:18:22Z" uid="259536" user="Patrick1977Bln" changeset="5220845" lat="52.5236962" lon="13.3706187">
    <tag k="highway" v="bus_stop"/>
    <tag k="name" v="Washingtonplatz"/>
    <tag k="ref" v="103297"/>
    <tag k="shelter" v="yes"/>
  </node>
  <node id="327827697" version="6" timestamp="2010-11-03T20:54:56Z" uid="290680" user="wheelmap_visitor" changeset="6273485" lat="52.5236962" lon="13.3706187">
    <tag k="highway" v="bus_stop"/>
    <tag k="name" v="Washingtonplatz"/>
    <tag k="ref" v="103297"/>
    <tag k="shelter" v="yes"/>
    <tag k="wheelchair" v="yes"/>
  </node>
  <node id="327827697" version="7" timestamp="2011-10-15T15:53:03Z" uid="290680" user="wheelmap_visitor" changeset="9560388" lat="52.5236962" lon="13.3706187">
    <tag k="highway" v="bus_stop"/>
    <tag k="name" v="Washingtonplatz"/>
    <tag k="ref" v="103297"/>
    <tag k="shelter" v="yes"/>
    <tag k="wheelchair" v="limited"/>
  </node>
  <node id="327827697" version="8" timestamp="2011-12-05T15:33:30Z" uid="564384" user="JuP" changeset="10042883" lat="52.5236962" lon="13.3706187">
    <tag k="highway" v="bus_stop"/>
    <tag k="name" v="Washingtonplatz/Hauptbahnhof"/>
    <tag k="ref" v="103297"/>
    <tag k="shelter" v="yes"/>
    <tag k="wheelchair" v="limited"/>
  </node>
  <node id="327827738" version="2" timestamp="2010-01-18T16:27:09Z" uid="216873" user="Goonie" changeset="3651328" lat="52.522534" lon="13.3790394">
    <tag k="highway" v="bus_stop"/>
    <tag k="name" v="Karlplatz"/>
    <tag k="ref" v="107004"/>
  </node>
  <node id="327827756" version="2" timestamp="2010-01-18T16:27:09Z" uid="216873" user="Goonie" changeset="3651328" lat="52.5224468" lon="13.3790707">
    <tag k="highway" v="bus_stop"/>
    <tag k="key" v="107014"/>
    <tag k="name" v="Karlplatz"/>
  </node>
  <node id="327827756" version="3" timestamp="2011-09-24T15:24:52Z" uid="519501" user="parukhin" changeset="9385129" lat="52.5224468" lon="13.3790707">
    <tag k="highway" v="bus_stop"/>
    <tag k="name" v="Karlplatz"/>
    <tag k="ref" v="107014"/>
  </node>
  <node id="327828504" version="13" timestamp="2010-03-19T15:28:36Z" uid="74617" user="JohnSmith" changeset="4171010" lat="-36.0519829" lon="146.479323"/>
  <node id="327821716" version="9" timestamp="2012-08-07T13:13:03Z" uid="217943" user="uo1" changeset="12645332" lat="48.240037" lon="13.5094736"/>
  <node id="327821716" version="10" timestamp="2012-08-07T13:27:51Z" uid="217943" user="uo1" changeset="12645504" lat="48.240048" lon="13.5094237"/>
  <node id="327826681" version="26" timestamp="2012-08-11T13:16:06Z" uid="67896" user="mrpulley" changeset="12691105" lat="-36.0554534" lon="146.4622657"/>
  <node id="327826685" version="13" timestamp="2012-07-19T07:30:36Z" uid="722137" user="OSMF Redaction Account" changeset="12312041" lat="-36.0553783" lon="146.4634016">
    <tag k="railway" v="level_crossing"/>
  </node>
  <node id="327827645" version="3" timestamp="2012-07-19T16:06:55Z" uid="722137" user="OSMF Redaction Account" changeset="12337720" lat="52.5466732" lon="13.3184926">
    <tag k="highway" v="bus_stop"/>
    <tag k="name" v="Buchholzweg"/>
  </node>
  <node id="327827660" version="4" timestamp="2012-07-19T16:06:55Z" uid="722137" user="OSMF Redaction Account" changeset="12337720" lat="52.5464637" lon="13.3183452">
    <tag k="highway" v="bus_stop"/>
    <tag k="name" v="Buchholzweg"/>
  </node>
  <node id="327827684" version="7" timestamp="2012-07-19T16:06:38Z" uid="722137" user="OSMF Redaction Account" changeset="12337720" lat="52.5240766" lon="13.3707602">
    <tag k="highway" v="bus_stop"/>
    <tag k="name" v="Washingtonplatz"/>
    <tag k="wheelchair" v="limited"/>
  </node>
  <node id="327827697" version="9" timestamp="2012-07-19T16:06:37Z" uid="722137" user="OSMF Redaction Account" changeset="12337720" lat="52.5236962" lon="13.3706187">
    <tag k="highway" v="bus_stop"/>
    <tag k="name" v="Washingtonplatz/Hauptbahnhof"/>
    <tag k="shelter" v="yes"/>
    <tag k="wheelchair" v="limited"/>
  </node>
  <node id="327827738" version="3" timestamp="2012-07-18T12:31:30Z" uid="722137" user="OSMF Redaction Account" changeset="12281982" lat="52.522534" lon="13.3790393">
    <tag k="highway" v="bus_stop"/>
    <tag k="name" v="Karlplatz"/>
  </node>
  <node id="327827756" version="4" timestamp="2012-07-18T12:31:29Z" uid="722137" user="OSMF Redaction Account" changeset="12281982" lat="52.5223499" lon="13.3790797">
    <tag k="highway" v="bus_stop"/>
    <tag k="name" v="Karlplatz"/>
    <tag k="ref" v="107014"/>
  </node>
  <node id="327828504" version="14" timestamp="2012-07-19T07:30:38Z" uid="722137" user="OSMF Redaction Account" changeset="12312041" lat="-36.0520475" lon="146.4789885"/>
</osm>
