<?xml version='1.0' encoding='UTF-8'?>
<osm version="0.6" generator="libosmium/2.20.0">
  <node id="328001056" version="3" timestamp="2009-11-06T00:31:22Z" uid="36809" user="pfoten_weg_!_" changeset="3044956" lat="52.3399449" lon="14.5512968">
    <tag k="name" v="City Park Hotel"/>
    <tag k="stars" v="4"/>
    <tag k="tourism" v="hotel"/>
  </node>
  <node id="328001056" version="4" timestamp="2009-12-09T10:40:22Z" uid="163437" user="r-michael" changeset="3332464" lat="52.3397341" lon="14.551277">
    <tag k="name" v="City Park Hotel"/>
    <tag k="stars" v="3"/>
    <tag k="tourism" v="hotel"/>
  </node>
  <node id="328001056" version="5" timestamp="2011-04-20T11:13:25Z" uid="163437" user="r-michael" changeset="7915204" lat="52.3397341" lon="14.551277">
    <tag k="email" v="info@citypark-hotel.de"/>
    <tag k="fax" v="(0335) 5532-605"/>
    <tag k="internet_access" v="wlan"/>
    <tag k="name" v="City Park Hotel"/>
    <tag k="operator" v="City Park Hotel Frankfurt an der Oder GmbH"/>
    <tag k="phone" v="(0335) 5532-0"/>
    <tag k="stars" v="3"/>
    <tag k="tourism" v="hotel"/>
    <tag k="website" v="http://www.citypark-hotel.de/"/>
  </node>
  <node id="328001056" version="6" timestamp="2011-08-23T11:16:18Z" uid="163437" user="r-michael" changeset="9102578" lat="52.3396601" lon="14.5512093">
    <tag k="email" v="info@citypark-hotel.de"/>
    <tag k="fax" v="(0335) 5532-605"/>
    <tag k="internet_access" v="wlan"/>
    <tag k="name" v="City Park Hotel"/>
    <tag k="operator" v="City Park Hotel Frankfurt an der Oder GmbH"/>
    <tag k="phone" v="(0335) 5532-0"/>
    <tag k="stars" v="3"/>
    <tag k="tourism" v="hotel"/>
    <tag k="website" v="http://www.citypark-hotel.de/"/>
  </node>
  <node id="328001056" version="7" timestamp="2011-10-16T09:52:04Z" uid="163437" user="r-michael" changeset="9570486" lat="52.339081" lon="14.5520127">
    <tag k="email" v="info@citypark-hotel.de"/>
    <tag k="fax" v="(0335) 5532-605"/>
    <tag k="internet_access" v="wlan"/>
    <tag k="name" v="City Park Hotel"/>
    <tag k="operator" v="City Park Hotel Frankfurt an der Oder GmbH"/>
    <tag k="phone" v="(0335) 5532-0"/>
    <tag k="stars" v="3"/>
    <tag k="tourism" v="hotel"/>
    <tag k="website" v="http://www.citypark-hotel.de/"/>
  </node>
</osm>
