<?xml version='1.0' encoding='UTF-8'?>
<osm version="0.6" generator="libosmium/2.20.0">
  <node id="330640626" version="2" timestamp="2010-01-17T02:12:42Z" uid="23543" user="jkjk" changeset="3637616" lat="18.4962873" lon="-72.6183657"/>
  <node id="330640626" version="3" timestamp="2010-02-03T09:29:52Z" uid="42938" user="Xanadu" changeset="3781619" lat="18.4962669" lon="-72.6184248"/>
  <node id="330640923" version="3" timestamp="2010-01-17T02:12:38Z" uid="23543" user="jkjk" changeset="3637616" lat="18.4953475" lon="-72.6172249"/>
  <node id="330642002" version="2" timestamp="2010-07-29T09:35:16Z" uid="74617" user="JohnSmith" changeset="5344848" lat="49.3922634" lon="11.1827093">
    <tag k="amenity" v="emergency_phone"/>
    <tag k="emergency" v="phone"/>
    <tag k="operator" v="Autobahnmeisterei"/>
    <tag k="source" v="photo"/>
  </node>
  <node id="330642002" version="3" timestamp="2012-01-26T12:25:16Z" uid="82877" user="Wankmann" changeset="10502620" lat="49.3922634" lon="11.1827093"/>
  <node id="330642624" version="3" timestamp="2009-08-26T09:50:11Z" uid="36809" user="pfoten_weg_!_" changeset="2265457" lat="48.1138572" lon="11.5165819">
    <tag k="bus_lines" v="133"/>
    <tag k="highway" v="bus_stop"/>
    <tag k="name" v="Luise-Kiesselbach-Platz"/>
    <tag k="network" v="MVV"/>
    <tag k="operator" v="MVG"/>
    <tag k="ref" v="133"/>
    <tag k="shelter" v="no"/>
    <tag k="source" v="survey"/>
    <tag k="website:official" v="http://www.mvv-muenchen.de"/>
  </node>
  <node id="330642624" version="4" timestamp="2010-04-27T17:08:25Z" uid="224490" user="Geo-Tobi" changeset="4542841" lat="48.1138572" lon="11.5165819">
    <tag k="highway" v="bus_stop"/>
    <tag k="name" v="Luise-Kiesselbach-Platz"/>
    <tag k="network" v="MVV"/>
    <tag k="operator" v="MVG"/>
    <tag k="ref" v="133"/>
    <tag k="shelter" v="no"/>
    <tag k="source" v="survey"/>
    <tag k="website:official" v="http://www.mvv-muenchen.de"/>
  </node>
  <node id="330642624" version="5" timestamp="2010-05-08T01:18:43Z" uid="46472" user="sendelhorst" changeset="4635350" lat="48.1138572" lon="11.5165819">
    <tag k="bus_routes" v="133"/>
    <tag k="highway" v="bus_stop"/>
    <tag k="name" v="Luise-Kiesselbach-Platz"/>
    <tag k="network" v="MVV"/>
    <tag k="operator" v="MVG"/>
    <tag k="ref" v="133"/>
    <tag k="shelter" v="no"/>
    <tag k="source" v="survey"/>
    <tag k="website:official" v="http://www.mvv-muenchen.de"/>
  </node>
  <node id="330642624" version="6" timestamp="2010-05-08T16:12:04Z" uid="224490" user="Geo-Tobi" changeset="4640439" lat="48.1129642" lon="11.5167859">
    <tag k="bus_routes" v="133"/>
    <tag k="highway" v="bus_stop"/>
    <tag k="name" v="Luise-Kiesselbach-Platz"/>
    <tag k="network" v="MVV"/>
    <tag k="operator" v="MVG"/>
    <tag k="ref" v="133"/>
    <tag k="shelter" v="no"/>
    <tag k="source" v="survey"/>
    <tag k="website:official" v="http://www.mvv-muenchen.de"/>
  </node>
  <node id="330642624" version="7" timestamp="2010-06-04T22:40:35Z" uid="46472" user="sendelhorst" changeset="4904996" lat="48.11271" lon="11.5172681">
    <tag k="bus_routes" v="133"/>
    <tag k="highway" v="bus_stop"/>
    <tag k="name" v="Luise-Kiesselbach-Platz"/>
    <tag k="network" v="MVV"/>
    <tag k="operator" v="MVG"/>
    <tag k="ref" v="133"/>
    <tag k="shelter" v="no"/>
    <tag k="source" v="survey"/>
    <tag k="website:official" v="http://www.mvv-muenchen.de"/>
  </node>
  <node id="330642624" version="8" timestamp="2010-07-06T19:00:08Z" uid="254399" user="rodeostar" changeset="5153248" lat="48.1125727" lon="11.5169534">
    <tag k="bus_routes" v="133"/>
    <tag k="highway" v="bus_stop"/>
    <tag k="name" v="Luise-Kiesselbach-Platz"/>
    <tag k="network" v="MVV"/>
    <tag k="operator" v="MVG"/>
    <tag k="ref" v="133"/>
    <tag k="shelter" v="no"/>
    <tag k="source" v="survey"/>
    <tag k="website:official" v="http://www.mvv-muenchen.de"/>
  </node>
  <node id="330642624" version="9" timestamp="2010-07-10T02:18:14Z" uid="46472" user="sendelhorst" changeset="5178715" lat="48.11271" lon="11.5172681">
    <tag k="bus_routes" v="133"/>
    <tag k="highway" v="bus_stop"/>
    <tag k="name" v="Luise-Kiesselbach-Platz"/>
    <tag k="network" v="MVV"/>
    <tag k="operator" v="MVG"/>
    <tag k="ref" v="133"/>
    <tag k="shelter" v="no"/>
    <tag k="source" v="survey"/>
    <tag k="website:official" v="http://www.mvv-muenchen.de"/>
  </node>
  <node id="330642624" version="10" timestamp="2010-07-10T02:45:59Z" uid="46472" user="sendelhorst" changeset="5178781" lat="48.1133782" lon="11.5168143">
    <tag k="bus_routes" v="133"/>
    <tag k="highway" v="bus_stop"/>
    <tag k="name" v="Luise-Kiesselbach-Platz"/>
    <tag k="network" v="MVV"/>
    <tag k="operator" v="MVG"/>
    <tag k="ref" v="133"/>
    <tag k="shelter" v="no"/>
    <tag k="source" v="survey"/>
    <tag k="website:official" v="http://www.mvv-muenchen.de"/>
  </node>
  <node id="330642624" version="11" timestamp="2011-11-13T12:07:35Z" uid="8703" user="rolandg" changeset="9813102" lat="48.1133506" lon="11.5167901">
    <tag k="bus_routes" v="133"/>
    <tag k="highway" v="bus_stop"/>
    <tag k="name" v="Luise-Kiesselbach-Platz"/>
    <tag k="network" v="MVV"/>
    <tag k="operator" v="MVG"/>
    <tag k="ref" v="133"/>
    <tag k="shelter" v="no"/>
    <tag k="source" v="survey"/>
    <tag k="website:official" v="http://www.mvv-muenchen.de"/>
  </node>
  <node id="330642631" version="3" timestamp="2009-08-26T09:50:10Z" uid="36809" user="pfoten_weg_!_" changeset="2265457" lat="48.1096184" lon="11.5195803">
    <tag k="bus_lines" v="133"/>
    <tag k="highway" v="bus_stop"/>
    <tag k="name" v="Pilsenseestraße"/>
    <tag k="network" v="MVV"/>
    <tag k="operator" v="MVG"/>
    <tag k="ref" v="133"/>
    <tag k="shelter" v="yes"/>
    <tag k="source" v="survey"/>
    <tag k="website:official" v="http://www.mvv-muenchen.de"/>
  </node>
  <node id="330642631" version="4" timestamp="2010-05-08T01:18:57Z" uid="46472" user="sendelhorst" changeset="4635350" lat="48.1096184" lon="11.5195803">
    <tag k="bus_routes" v="133"/>
    <tag k="highway" v="bus_stop"/>
    <tag k="name" v="Pilsenseestraße"/>
    <tag k="network" v="MVV"/>
    <tag k="operator" v="MVG"/>
    <tag k="ref" v="133"/>
    <tag k="shelter" v="yes"/>
    <tag k="source" v="survey"/>
    <tag k="website:official" v="http://www.mvv-muenchen.de"/>
  </node>
  <node id="330642833" version="1" timestamp="2009-01-09T20:24:49Z" uid="43863" user="Rundling" changeset="763377" lat="52.9963909" lon="10.7548846">
    <tag k="created_by" v="Merkaartor 0.11"/>
  </node>
  <node id="330642833" version="2" timestamp="2009-01-09T20:29:39Z" uid="43863" user="Rundling" changeset="763377" lat="52.9964529" lon="10.7546711">
    <tag k="created_by" v="Merkaartor 0.11"/>
  </node>
  <node id="330642833" version="3" timestamp="2009-02-12T19:41:28Z" uid="43863" user="Rundling" changeset="379893" lat="52.9964605" lon="10.7546246">
    <tag k="created_by" v="Merkaartor 0.11"/>
  </node>
  <node id="330642833" version="4" timestamp="2009-02-19T14:32:18Z" uid="43863" user="Rundling" changeset="553276" lat="52.9964648" lon="10.7546112">
    <tag k="created_by" v="Merkaartor 0.11"/>
  </node>
  <node id="330642835" version="1" timestamp="2009-01-09T20:24:50Z" uid="43863" user="Rundling" changeset="763377" lat="52.9967711" lon="10.7662543">
    <tag k="created_by" v="Merkaartor 0.11"/>
  </node>
  <node id="330642835" version="2" timestamp="2009-01-09T20:29:39Z" uid="43863" user="Rundling" changeset="763377" lat="52.9967357" lon="10.7668507">
    <tag k="created_by" v="Merkaartor 0.11"/>
  </node>
  <node id="330642835" version="3" timestamp="2009-02-02T18:41:11Z" uid="43863" user="Rundling" changeset="76821" lat="52.9973596" lon="10.7710962">
    <tag k="created_by" v="Merkaartor 0.11"/>
  </node>
  <node id="330642835" version="4" timestamp="2009-02-12T19:41:28Z" uid="43863" user="Rundling" changeset="379893" lat="52.9973614" lon="10.771119">
    <tag k="created_by" v="Merkaartor 0.11"/>
  </node>
  <node id="330642835" version="5" timestamp="2009-02-19T14:41:49Z" uid="43863" user="Rundling" changeset="553276" lat="52.997087" lon="10.7706076">
    <tag k="created_by" v="Merkaartor 0.11"/>
  </node>
  <node id="330642835" version="6" timestamp="2009-02-19T15:22:54Z" uid="43863" user="Rundling" changeset="553276" lat="52.9970935" lon="10.7705466">
    <tag k="created_by" v="Merkaartor 0.11"/>
  </node>
  <node id="330642835" version="7" timestamp="2009-02-19T17:23:16Z" uid="43863" user="Rundling" changeset="554360" lat="52.9970911" lon="10.7705707">
    <tag k="created_by" v="Merkaartor 0.11"/>
  </node>
  <node id="330642838" version="1" timestamp="2009-01-09T20:24:50Z" uid="43863" user="Rundling" changeset="763377" lat="52.9929102" lon="10.7652117">
    <tag k="created_by" v="Merkaartor 0.11"/>
  </node>
  <node id="330642838" version="2" timestamp="2009-01-09T20:29:40Z" uid="43863" user="Rundling" changeset="763377" lat="52.9929146" lon="10.7653148">
    <tag k="created_by" v="Merkaartor 0.11"/>
  </node>
  <node id="330642838" version="3" timestamp="2009-01-09T21:37:41Z" uid="43863" user="Rundling" changeset="763377" lat="52.9930085" lon="10.7653278">
    <tag k="created_by" v="Merkaartor 0.11"/>
  </node>
  <node id="330642838" version="4" timestamp="2009-02-02T18:41:11Z" uid="43863" user="Rundling" changeset="76821" lat="52.9930486" lon="10.7655653">
    <tag k="created_by" v="Merkaartor 0.11"/>
  </node>
  <node id="330642838" version="5" timestamp="2009-02-12T19:41:28Z" uid="43863" user="Rundling" changeset="379893" lat="52.9930504" lon="10.7655881">
    <tag k="created_by" v="Merkaartor 0.11"/>
  </node>
  <node id="330642838" version="6" timestamp="2009-03-05T12:45:01Z" uid="43863" user="Rundling" changeset="738442" lat="52.993145" lon="10.7654503">
    <tag k="created_by" v="Merkaartor 0.11"/>
  </node>
  <node id="330642841" version="1" timestamp="2009-01-09T20:24:51Z" uid="43863" user="Rundling" changeset="763377" lat="52.9920728" lon="10.7575031">
    <tag k="created_by" v="Merkaartor 0.11"/>
  </node>
  <node id="330642841" version="2" timestamp="2009-01-09T20:29:38Z" uid="43863" user="Rundling" changeset="763377" lat="52.9919797" lon="10.7573264">
    <tag k="created_by" v="Merkaartor 0.11"/>
  </node>
  <node id="330642841" version="3" timestamp="2009-01-09T21:37:38Z" uid="43863" user="Rundling" changeset="763377" lat="52.9922759" lon="10.7571128">
    <tag k="created_by" v="Merkaartor 0.11"/>
  </node>
  <node id="330642841" version="4" timestamp="2009-02-12T13:56:07Z" uid="41914" user="TheBo" changeset="379704" lat="52.9922759" lon="10.7571128">
    <tag k="created_by" v="Merkaartor 0.11"/>
  </node>
  <node id="330642841" version="5" timestamp="2009-02-12T19:26:52Z" uid="43863" user="Rundling" changeset="379893" lat="52.9922935" lon="10.7571004">
    <tag k="created_by" v="Merkaartor 0.11"/>
  </node>
  <node id="330642841" version="6" timestamp="2009-02-12T19:41:26Z" uid="43863" user="Rundling" changeset="379893" lat="52.992302" lon="10.7570998">
    <tag k="created_by" v="Merkaartor 0.11"/>
  </node>
  <node id="330642841" version="7" timestamp="2009-02-13T14:32:44Z" uid="43863" user="Rundling" changeset="402503" lat="52.9922912" lon="10.7571066">
    <tag k="created_by" v="Merkaartor 0.11"/>
  </node>
  <node id="330642845" version="1" timestamp="2009-01-09T20:24:51Z" uid="43863" user="Rundling" changeset="763377" lat="52.9959908" lon="10.7566667">
    <tag k="created_by" v="Merkaartor 0.11"/>
  </node>
  <node id="330642845" version="2" timestamp="2009-01-09T20:29:38Z" uid="43863" user="Rundling" changeset="763377" lat="52.9957247" lon="10.755124">
    <tag k="created_by" v="Merkaartor 0.11"/>
  </node>
  <node id="330642845" version="3" timestamp="2009-01-09T21:37:40Z" uid="43863" user="Rundling" changeset="763377" lat="52.9951139" lon="10.7555062">
    <tag k="created_by" v="Merkaartor 0.11"/>
  </node>
  <node id="330642845" version="4" timestamp="2009-02-12T19:41:28Z" uid="43863" user="Rundling" changeset="379893" lat="52.9951057" lon="10.7554465">
    <tag k="created_by" v="Merkaartor 0.11"/>
  </node>
  <node id="330642847" version="1" timestamp="2009-01-09T20:24:51Z" uid="43863" user="Rundling" changeset="763377" lat="52.9961331" lon="10.7593396">
    <tag k="created_by" v="Merkaartor 0.11"/>
  </node>
  <node id="330642847" version="2" timestamp="2009-01-09T21:37:40Z" uid="43863" user="Rundling" changeset="763377" lat="52.9956481" lon="10.7587133">
    <tag k="created_by" v="Merkaartor 0.11"/>
  </node>
  <node id="330642847" version="3" timestamp="2010-12-29T22:24:31Z" uid="43863" user="Rundling" changeset="6804230" lat="52.9952911" lon="10.7577966"/>
  <node id="330642850" version="1" timestamp="2009-01-09T20:24:52Z" uid="43863" user="Rundling" changeset="763377" lat="52.9927295" lon="10.7601943">
    <tag k="created_by" v="Merkaartor 0.11"/>
  </node>
  <node id="330642850" version="2" timestamp="2009-01-09T20:29:41Z" uid="43863" user="Rundling" changeset="763377" lat="52.9923916" lon="10.7606867">
    <tag k="created_by" v="Merkaartor 0.11"/>
  </node>
  <node id="330642850" version="3" timestamp="2009-01-09T21:37:41Z" uid="43863" user="Rundling" changeset="763377" lat="52.9926586" lon="10.7606909">
    <tag k="created_by" v="Merkaartor 0.11"/>
  </node>
  <node id="330642850" version="4" timestamp="2009-01-11T13:10:51Z" uid="43863" user="Rundling" changeset="770799" lat="52.9926123" lon="10.7607063">
    <tag k="created_by" v="Merkaartor 0.11"/>
  </node>
  <node id="330642850" version="5" timestamp="2010-12-29T22:24:26Z" uid="43863" user="Rundling" changeset="6804230" lat="52.9924903" lon="10.7592719"/>
  <node id="330642852" version="1" timestamp="2009-01-09T20:24:52Z" uid="43863" user="Rundling" changeset="763377" lat="52.9925106" lon="10.7582123">
    <tag k="created_by" v="Merkaartor 0.11"/>
  </node>
  <node id="330642852" version="2" timestamp="2009-01-09T20:29:41Z" uid="43863" user="Rundling" changeset="763377" lat="52.9920282" lon="10.7573457">
    <tag k="created_by" v="Merkaartor 0.11"/>
  </node>
  <node id="330642852" version="3" timestamp="2009-01-09T21:37:42Z" uid="43863" user="Rundling" changeset="763377" lat="52.9923132" lon="10.7571229">
    <tag k="created_by" v="Merkaartor 0.11"/>
  </node>
  <node id="330642852" version="4" timestamp="2009-01-11T13:10:52Z" uid="43863" user="Rundling" changeset="770799" lat="52.9922978" lon="10.757128">
    <tag k="created_by" v="Merkaartor 0.11"/>
  </node>
  <node id="330642852" version="5" timestamp="2009-02-12T19:41:28Z" uid="43863" user="Rundling" changeset="379893" lat="52.9923255" lon="10.7571342">
    <tag k="created_by" v="Merkaartor 0.11"/>
  </node>
  <node id="330642852" version="6" timestamp="2010-12-29T22:24:29Z" uid="43863" user="Rundling" changeset="6804230" lat="52.9924053" lon="10.7571106"/>
  <node id="330642871" version="3" timestamp="2009-08-26T09:50:15Z" uid="36809" user="pfoten_weg_!_" changeset="2265457" lat="48.1019822" lon="11.5240436">
    <tag k="bus_lines" v="133"/>
    <tag k="highway" v="bus_stop"/>
    <tag k="name" v="Murnauer Straße"/>
    <tag k="network" v="MVV"/>
    <tag k="operator" v="MVG"/>
    <tag k="ref" v="133"/>
    <tag k="shelter" v="yes"/>
    <tag k="source" v="survey"/>
    <tag k="website:official" v="http://www.mvv-muenchen.de"/>
  </node>
  <node id="330642871" version="4" timestamp="2009-11-13T16:53:20Z" uid="59819" user="Fuss-im-Ohr" changeset="3107438" lat="48.1019822" lon="11.5240436">
    <tag k="bus_routes" v="133"/>
    <tag k="highway" v="bus_stop"/>
    <tag k="name" v="Murnauer Straße"/>
    <tag k="network" v="MVV"/>
    <tag k="operator" v="MVG"/>
    <tag k="ref" v="133"/>
    <tag k="shelter" v="yes"/>
    <tag k="source" v="survey"/>
    <tag k="website:official" v="http://www.mvv-muenchen.de"/>
  </node>
  <node id="330643000" version="3" timestamp="2010-12-06T19:50:31Z" uid="23543" user="jkjk" changeset="6567768" lat="50.0772511" lon="14.4038674">
    <tag k="amenity" v="cafe"/>
    <tag k="cuisine" v="tea"/>
    <tag k="name" v="Čajovna Bílý Jeřáb"/>
  </node>
  <node id="330643830" version="3" timestamp="2010-07-28T19:59:17Z" uid="74617" user="JohnSmith" changeset="5339329" lat="-25.2884814" lon="152.8369408"/>
  <node id="330644641" version="2" timestamp="2010-01-17T02:12:36Z" uid="23543" user="jkjk" changeset="3637616" lat="18.4897796" lon="-72.6091431"/>
  <node id="330645120" version="1" timestamp="2009-01-09T20:29:36Z" uid="43863" user="Rundling" changeset="763377" lat="52.9961473" lon="10.7665084"/>
  <node id="330645120" version="2" timestamp="2009-02-02T18:41:11Z" uid="43863" user="Rundling" changeset="76821" lat="52.9962748" lon="10.772852"/>
  <node id="330645120" version="3" timestamp="2009-02-12T19:41:27Z" uid="43863" user="Rundling" changeset="379893" lat="52.9962766" lon="10.7728748"/>
  <node id="330645120" version="4" timestamp="2009-02-19T14:41:50Z" uid="43863" user="Rundling" changeset="553276" lat="52.9954752" lon="10.7731029"/>
  <node id="330645120" version="5" timestamp="2009-02-19T15:22:53Z" uid="43863" user="Rundling" changeset="553276" lat="52.9956973" lon="10.7725245"/>
  <node id="330645120" version="6" timestamp="2009-02-19T17:29:35Z" uid="43863" user="Rundling" changeset="554360" lat="52.9956968" lon="10.7725288"/>
  <node id="330645120" version="7" timestamp="2010-12-29T22:24:33Z" uid="43863" user="Rundling" changeset="6804230" lat="52.9956968" lon="10.7725288"/>
  <node id="330645169" version="2" timestamp="2010-01-17T02:12:38Z" uid="23543" user="jkjk" changeset="3637616" lat="18.4851719" lon="-72.6026144"/>
  <node id="330645721" version="2" timestamp="2010-01-17T02:12:51Z" uid="23543" user="jkjk" changeset="3637616" lat="18.463652" lon="-72.58811"/>
  <node id="330646243" version="2" timestamp="2010-01-17T02:12:39Z" uid="23543" user="jkjk" changeset="3637616" lat="18.4949675" lon="-72.6168177"/>
  <node id="330646682" version="3" timestamp="2010-01-17T02:12:37Z" uid="23543" user="jkjk" changeset="3637616" lat="18.4883074" lon="-72.6075644"/>
  <node id="330647309" version="2" timestamp="2010-01-17T02:12:52Z" uid="23543" user="jkjk" changeset="3637616" lat="18.465985" lon="-72.58767"/>
  <node id="330647771" version="2" timestamp="2010-01-17T02:12:41Z" uid="23543" user="jkjk" changeset="3637616" lat="18.4908596" lon="-72.6102921"/>
  <node id="330648861" version="2" timestamp="2010-01-17T02:12:38Z" uid="23543" user="jkjk" changeset="3637616" lat="18.4850589" lon="-72.6022564"/>
  <node id="330649157" version="2" timestamp="2010-01-17T02:12:37Z" uid="23543" user="jkjk" changeset="3637616" lat="18.4877329" lon="-72.6069561"/>
  <node id="330640923" version="4" timestamp="2012-06-28T20:18:58Z" uid="656864" user="Jean Bully" changeset="12050585" lat="18.4953475" lon="-72.6172249">
    <tag k="odbl" v="clean"/>
  </node>
  <node id="330642624" version="12" timestamp="2012-06-10T18:54:08Z" uid="8703" user="rolandg" changeset="11857837" lat="48.1134608" lon="11.5168408">
    <tag k="bus_routes" v="133"/>
    <tag k="highway" v="bus_stop"/>
    <tag k="name" v="Luise-Kiesselbach-Platz"/>
    <tag k="network" v="MVV"/>
    <tag k="operator" v="MVG"/>
    <tag k="ref" v="133"/>
    <tag k="shelter" v="no"/>
    <tag k="source" v="survey"/>
    <tag k="website:official" v="http://www.mvv-muenchen.de"/>
  </node>
  <node id="330642624" version="13" timestamp="2012-06-25T20:59:37Z" uid="8703" user="rolandg" changeset="12016456" lat="48.113454" lon="11.5168123">
    <tag k="bus_routes" v="133"/>
    <tag k="highway" v="bus_stop"/>
    <tag k="name" v="Luise-Kiesselbach-Platz"/>
    <tag k="network" v="MVV"/>
    <tag k="operator" v="MVG"/>
    <tag k="ref" v="133"/>
    <tag k="shelter" v="no"/>
    <tag k="source" v="survey"/>
    <tag k="website:official" v="http://www.mvv-muenchen.de"/>
  </node>
  <node id="330642624" version="14" timestamp="2012-07-28T23:00:56Z" uid="64536" user="Michael Forster" changeset="12529334" lat="48.1135549" lon="11.5167139">
    <tag k="highway" v="platform"/>
    <tag k="name" v="Luise-Kiesselbach-Platz"/>
    <tag k="public_transport" v="platform"/>
    <tag k="shelter" v="no"/>
  </node>
  <node id="330642833" version="5" timestamp="2012-07-18T15:45:59Z" uid="722137" user="OSMF Redaction Account" changeset="12287625" lat="52.9964648" lon="10.7546112"/>
  <node id="330642835" version="8" timestamp="2012-07-18T15:46:01Z" uid="722137" user="OSMF Redaction Account" changeset="12287625" lat="52.9970911" lon="10.7705707"/>
  <node id="330642838" version="7" timestamp="2012-07-18T15:45:44Z" uid="722137" user="OSMF Redaction Account" changeset="12287604" lat="52.993145" lon="10.7654503"/>
  <node id="330642841" version="8" timestamp="2012-07-18T15:45:43Z" uid="722137" user="OSMF Redaction Account" changeset="12287604" lat="52.9922912" lon="10.7571066"/>
  <node id="330642845" version="5" timestamp="2012-07-18T15:45:51Z" uid="722137" user="OSMF Redaction Account" changeset="12287604" lat="52.9951057" lon="10.7554465"/>
  <node id="330642847" version="4" timestamp="2012-07-18T15:45:51Z" uid="722137" user="OSMF Redaction Account" changeset="12287604" lat="52.9952911" lon="10.7577966"/>
  <node id="330642850" version="6" timestamp="2012-07-18T15:45:43Z" uid="722137" user="OSMF Redaction Account" changeset="12287604" lat="52.9924903" lon="10.7592719"/>
  <node id="330642852" version="7" timestamp="2012-07-18T15:45:43Z" uid="722137" user="OSMF Redaction Account" changeset="12287604" lat="52.9924053" lon="10.7571106"/>
  <node id="330642871" version="5" timestamp="2012-06-15T15:09:42Z" uid="290680" user="wheelmap_visitor" changeset="11901222" lat="48.1019822" lon="11.5240436">
    <tag k="bus_routes" v="133"/>
    <tag k="highway" v="bus_stop"/>
    <tag k="name" v="Murnauer Straße"/>
    <tag k="network" v="MVV"/>
    <tag k="operator" v="MVG"/>
    <tag k="ref" v="133"/>
    <tag k="shelter" v="yes"/>
    <tag k="source" v="survey"/>
    <tag k="website:official" v="http://www.mvv-muenchen.de"/>
    <tag k="wheelchair" v="limited"/>
  </node>
  <node id="330643000" version="4" timestamp="2012-07-24T13:27:18Z" uid="722137" user="OSMF Redaction Account" changeset="12466577" lat="50.0771855" lon="14.4043568">
    <tag k="amenity" v="cafe"/>
    <tag k="cuisine" v="tea"/>
    <tag k="name" v="Čajovna Bílý Jeřáb"/>
  </node>
  <node id="330643830" version="4" timestamp="2012-07-19T17:22:25Z" uid="722137" user="OSMF Redaction Account" changeset="12341616" lat="-25.2882927" lon="152.8364405"/>
  <node id="330644641" version="4" timestamp="2012-06-28T20:18:58Z" uid="656864" user="Jean Bully" changeset="12050585" lat="18.4898198" lon="-72.6090668">
    <tag k="odbl" v="clean"/>
  </node>
  <node id="330645169" version="6" timestamp="2012-06-28T20:18:59Z" uid="656864" user="Jean Bully" changeset="12050585" lat="18.4851799" lon="-72.6026765">
    <tag k="odbl" v="clean"/>
  </node>
  <node id="330646243" version="4" timestamp="2012-06-28T20:18:59Z" uid="656864" user="Jean Bully" changeset="12050585" lat="18.4949886" lon="-72.6167862">
    <tag k="odbl" v="clean"/>
  </node>
  <node id="330646682" version="5" timestamp="2012-06-28T20:18:59Z" uid="656864" user="Jean Bully" changeset="12050585" lat="18.4883139" lon="-72.607546">
    <tag k="odbl" v="clean"/>
  </node>
  <node id="330647771" version="4" timestamp="2012-06-28T20:18:59Z" uid="656864" user="Jean Bully" changeset="12050585" lat="18.4909034" lon="-72.6102363">
    <tag k="odbl" v="clean"/>
  </node>
  <node id="330648861" version="4" timestamp="2012-06-28T20:18:59Z" uid="656864" user="Jean Bully" changeset="12050585" lat="18.4850731" lon="-72.6022567">
    <tag k="odbl" v="clean"/>
  </node>
  <node id="330649157" version="4" timestamp="2012-06-28T20:18:59Z" uid="656864" user="Jean Bully" changeset="12050585" lat="18.4877517" lon="-72.6069318">
    <tag k="odbl" v="clean"/>
  </node>
</osm>
