<?xml version='1.0' encoding='UTF-8'?>
<osm version="0.6" generator="libosmium/2.20.0">
  <node id="331261926" version="1" timestamp="2009-01-11T17:14:35Z" uid="68769" user="david lynch" changeset="774969" lat="30.2695482" lon="-97.7241277">
    <tag k="amenity" v="library"/>
    <tag k="created_by" v="Potlatch 0.10f"/>
    <tag k="name" v="Austin Public Library - Carver Branch"/>
  </node>
  <node id="331262538" version="22" timestamp="2010-05-17T16:40:00Z" uid="43967" user="railsnail" changeset="4730095" lat="46.3866155" lon="11.2551612"/>
  <node id="331262868" version="4" timestamp="2009-04-13T11:15:04Z" uid="30632" user="antblant" changeset="475237" lat="53.0324772" lon="14.3136567"/>
  <node id="331262868" version="5" timestamp="2009-08-03T17:46:23Z" uid="94213" user="gps-newcomer" changeset="2028059" lat="53.0324624" lon="14.3136814"/>
  <node id="331262868" version="6" timestamp="2010-03-23T18:51:17Z" uid="236935" user="michael246" changeset="4214872" lat="53.0324345" lon="14.3136994"/>
  <node id="331262868" version="7" timestamp="2010-04-11T14:17:50Z" uid="59991" user="mpeter89" changeset="4394189" lat="53.0324317" lon="14.3136856"/>
  <node id="331264049" version="2" timestamp="2010-07-19T19:31:07Z" uid="33382" user="de_muur" changeset="5264207" lat="53.0051549" lon="9.1263561"/>
  <node id="331264049" version="3" timestamp="2012-03-18T09:59:13Z" uid="57645" user="KartoGrapHiti" changeset="11016637" lat="53.0050723" lon="9.1263411"/>
  <node id="331264056" version="2" timestamp="2010-04-01T15:19:56Z" uid="33382" user="de_muur" changeset="4294916" lat="53.0004096" lon="9.1223857"/>
  <node id="331264057" version="2" timestamp="2010-04-01T15:19:56Z" uid="33382" user="de_muur" changeset="4294916" lat="53.000057" lon="9.1223939"/>
  <node id="331264059" version="2" timestamp="2010-04-01T15:19:56Z" uid="33382" user="de_muur" changeset="4294916" lat="53.0007095" lon="9.1226359"/>
  <node id="331264067" version="2" timestamp="2009-11-14T13:58:35Z" uid="33382" user="de_muur" changeset="3113331" lat="52.9994539" lon="9.1044517"/>
  <node id="331264075" version="2" timestamp="2009-11-14T13:58:35Z" uid="33382" user="de_muur" changeset="3113331" lat="52.9986805" lon="9.1075134"/>
  <node id="331264306" version="3" timestamp="2010-07-29T09:05:31Z" uid="74617" user="JohnSmith" changeset="5344848" lat="52.3671078" lon="12.8160465">
    <tag k="amenity" v="emergency_phone"/>
    <tag k="emergency" v="phone"/>
    <tag k="operator" v="Autobahnmeisterei"/>
    <tag k="source" v="photo"/>
  </node>
  <node id="331264348" version="3" timestamp="2010-07-29T08:57:54Z" uid="74617" user="JohnSmith" changeset="5344848" lat="52.387386" lon="12.8242826">
    <tag k="amenity" v="emergency_phone"/>
    <tag k="emergency" v="phone"/>
    <tag k="operator" v="Autobahnmeisterei"/>
    <tag k="source" v="photo"/>
  </node>
  <node id="331264354" version="3" timestamp="2010-07-29T09:22:08Z" uid="74617" user="JohnSmith" changeset="5344848" lat="52.3948825" lon="12.8403623">
    <tag k="amenity" v="emergency_phone"/>
    <tag k="emergency" v="phone"/>
    <tag k="operator" v="Autobahnmeisterei"/>
    <tag k="source" v="photo"/>
  </node>
  <node id="331264379" version="3" timestamp="2010-07-29T09:15:25Z" uid="74617" user="JohnSmith" changeset="5344848" lat="52.3994556" lon="12.8601187">
    <tag k="amenity" v="emergency_phone"/>
    <tag k="emergency" v="phone"/>
    <tag k="operator" v="Autobahnmeisterei"/>
    <tag k="source" v="photo"/>
  </node>
  <node id="331264387" version="3" timestamp="2010-07-29T09:16:21Z" uid="74617" user="JohnSmith" changeset="5344848" lat="52.4068317" lon="12.8812784">
    <tag k="amenity" v="emergency_phone"/>
    <tag k="emergency" v="phone"/>
    <tag k="operator" v="Autobahnmeisterei"/>
    <tag k="source" v="photo"/>
  </node>
  <node id="331264391" version="2" timestamp="2010-07-29T09:42:11Z" uid="74617" user="JohnSmith" changeset="5344848" lat="52.4106828" lon="12.8976805">
    <tag k="amenity" v="emergency_phone"/>
    <tag k="emergency" v="phone"/>
    <tag k="operator" v="Autobahnmeisterei"/>
    <tag k="source" v="survey"/>
  </node>
  <node id="331264393" version="2" timestamp="2010-07-29T09:39:24Z" uid="74617" user="JohnSmith" changeset="5344848" lat="52.4107487" lon="12.897226">
    <tag k="amenity" v="emergency_phone"/>
    <tag k="emergency" v="phone"/>
    <tag k="operator" v="Autobahnmeisterei"/>
    <tag k="source" v="survey"/>
  </node>
  <node id="331264399" version="2" timestamp="2010-07-29T09:09:15Z" uid="74617" user="JohnSmith" changeset="5344848" lat="52.4157073" lon="12.90987">
    <tag k="amenity" v="emergency_phone"/>
    <tag k="emergency" v="phone"/>
    <tag k="operator" v="Autobahnmeisterei"/>
    <tag k="source" v="survey"/>
  </node>
  <node id="331264453" version="2" timestamp="2010-07-29T09:01:07Z" uid="74617" user="JohnSmith" changeset="5344848" lat="52.4333099" lon="12.9304025">
    <tag k="amenity" v="emergency_phone"/>
    <tag k="emergency" v="phone"/>
    <tag k="operator" v="Autobahnmeisterei"/>
    <tag k="source" v="photo"/>
  </node>
  <node id="331264459" version="2" timestamp="2010-07-29T09:17:19Z" uid="74617" user="JohnSmith" changeset="5344848" lat="52.4333795" lon="12.9297611">
    <tag k="amenity" v="emergency_phone"/>
    <tag k="emergency" v="phone"/>
    <tag k="operator" v="Autobahnmeisterei"/>
    <tag k="source" v="survey"/>
  </node>
  <node id="331264465" version="3" timestamp="2010-07-29T09:40:26Z" uid="74617" user="JohnSmith" changeset="5344848" lat="52.4421348" lon="12.9317486">
    <tag k="amenity" v="emergency_phone"/>
    <tag k="emergency" v="phone"/>
    <tag k="operator" v="Autobahnmeisterei"/>
    <tag k="source" v="photo"/>
  </node>
  <node id="331264701" version="2" timestamp="2010-05-17T16:42:02Z" uid="43967" user="railsnail" changeset="4730095" lat="46.4356882" lon="11.2567781"/>
  <node id="331261926" version="2" timestamp="2012-07-18T13:15:03Z" uid="722137" user="OSMF Redaction Account" changeset="12282989" lat="30.2695482" lon="-97.7241277"/>
  <node id="331264056" version="3" timestamp="2012-07-19T02:17:21Z" uid="722137" user="OSMF Redaction Account" changeset="12304876" lat="53.0003665" lon="9.1224454"/>
  <node id="331264057" version="3" timestamp="2012-07-19T02:17:21Z" uid="722137" user="OSMF Redaction Account" changeset="12304876" lat="53.0000404" lon="9.1224702"/>
  <node id="331264059" version="3" timestamp="2012-07-19T02:17:21Z" uid="722137" user="OSMF Redaction Account" changeset="12304876" lat="53.0007161" lon="9.1226757"/>
  <node id="331264067" version="3" timestamp="2012-07-18T14:43:23Z" uid="722137" user="OSMF Redaction Account" changeset="12285483" lat="52.9994168" lon="9.1044483"/>
  <node id="331264075" version="3" timestamp="2012-07-18T14:43:23Z" uid="722137" user="OSMF Redaction Account" changeset="12285483" lat="52.9986496" lon="9.1073251"/>
  <node id="331264306" version="4" timestamp="2012-07-18T15:07:44Z" uid="722137" user="OSMF Redaction Account" changeset="12286271" lat="52.3671078" lon="12.8160465">
    <tag k="amenity" v="emergency_phone"/>
    <tag k="operator" v="Autobahnmeisterei"/>
    <tag k="source" v="photo"/>
  </node>
  <node id="331264348" version="4" timestamp="2012-07-18T15:00:44Z" uid="722137" user="OSMF Redaction Account" changeset="12285981" lat="52.387386" lon="12.8242826">
    <tag k="amenity" v="emergency_phone"/>
    <tag k="operator" v="Autobahnmeisterei"/>
    <tag k="source" v="photo"/>
  </node>
  <node id="331264354" version="4" timestamp="2012-07-18T15:00:45Z" uid="722137" user="OSMF Redaction Account" changeset="12285981" lat="52.3948825" lon="12.8403623">
    <tag k="amenity" v="emergency_phone"/>
    <tag k="operator" v="Autobahnmeisterei"/>
    <tag k="source" v="photo"/>
  </node>
  <node id="331264379" version="4" timestamp="2012-07-18T15:00:45Z" uid="722137" user="OSMF Redaction Account" changeset="12285981" lat="52.3994556" lon="12.8601187">
    <tag k="amenity" v="emergency_phone"/>
    <tag k="operator" v="Autobahnmeisterei"/>
    <tag k="source" v="photo"/>
  </node>
  <node id="331264387" version="4" timestamp="2012-07-18T14:48:30Z" uid="722137" user="OSMF Redaction Account" changeset="12285672" lat="52.4068317" lon="12.8812784">
    <tag k="amenity" v="emergency_phone"/>
    <tag k="operator" v="Autobahnmeisterei"/>
    <tag k="source" v="photo"/>
  </node>
  <node id="331264391" version="3" timestamp="2012-07-18T14:48:31Z" uid="722137" user="OSMF Redaction Account" changeset="12285672" lat="52.4106828" lon="12.8976805">
    <tag k="amenity" v="emergency_phone"/>
    <tag k="operator" v="Autobahnmeisterei"/>
    <tag k="source" v="survey"/>
  </node>
  <node id="331264393" version="3" timestamp="2012-07-18T14:48:31Z" uid="722137" user="OSMF Redaction Account" changeset="12285672" lat="52.4107487" lon="12.897226">
    <tag k="amenity" v="emergency_phone"/>
    <tag k="operator" v="Autobahnmeisterei"/>
    <tag k="source" v="survey"/>
  </node>
  <node id="331264399" version="3" timestamp="2012-07-18T14:48:31Z" uid="722137" user="OSMF Redaction Account" changeset="12285672" lat="52.4157073" lon="12.90987">
    <tag k="amenity" v="emergency_phone"/>
    <tag k="operator" v="Autobahnmeisterei"/>
    <tag k="source" v="survey"/>
  </node>
  <node id="331264453" version="3" timestamp="2012-07-18T14:48:31Z" uid="722137" user="OSMF Redaction Account" changeset="12285672" lat="52.4333099" lon="12.9304025">
    <tag k="amenity" v="emergency_phone"/>
    <tag k="operator" v="Autobahnmeisterei"/>
    <tag k="source" v="photo"/>
  </node>
  <node id="331264459" version="3" timestamp="2012-07-18T14:48:31Z" uid="722137" user="OSMF Redaction Account" changeset="12285672" lat="52.4333795" lon="12.9297611">
    <tag k="amenity" v="emergency_phone"/>
    <tag k="operator" v="Autobahnmeisterei"/>
    <tag k="source" v="survey"/>
  </node>
  <node id="331264465" version="4" timestamp="2012-07-18T14:48:31Z" uid="722137" user="OSMF Redaction Account" changeset="12285672" lat="52.4421348" lon="12.9317486">
    <tag k="amenity" v="emergency_phone"/>
    <tag k="operator" v="Autobahnmeisterei"/>
    <tag k="source" v="photo"/>
  </node>
  <node id="331264701" version="3" timestamp="2012-07-16T16:02:45Z" uid="722137" user="OSMF Redaction Account" changeset="12247284" lat="46.4356958" lon="11.2567092"/>
</osm>
