<?xml version='1.0' encoding='UTF-8'?>
<osm version="0.6" generator="libosmium/2.20.0">
  <node id="331271470" version="1" timestamp="2009-01-11T17:44:07Z" uid="26515" user="Simon Ward" changeset="773656" lat="53.573037" lon="-2.0571273">
    <tag k="amenity" v="pub"/>
    <tag k="name" v="Kings Arms"/>
  </node>
  <node id="331272290" version="6" timestamp="2009-08-31T21:10:32Z" uid="36809" user="pfoten_weg_!_" changeset="2331411" lat="48.1317447" lon="11.5222644"/>
  <node id="331272290" version="7" timestamp="2011-08-15T17:48:42Z" uid="125687" user="tubeli" changeset="9029516" lat="48.1317677" lon="11.5222354"/>
  <node id="331272293" version="5" timestamp="2009-08-31T21:10:32Z" uid="36809" user="pfoten_weg_!_" changeset="2331411" lat="48.1315728" lon="11.5225519"/>
  <node id="331272293" version="6" timestamp="2011-08-15T17:48:42Z" uid="125687" user="tubeli" changeset="9029516" lat="48.1315927" lon="11.5225341"/>
  <node id="331272296" version="5" timestamp="2009-08-31T21:10:31Z" uid="36809" user="pfoten_weg_!_" changeset="2331411" lat="48.1312091" lon="11.5220636"/>
  <node id="331272296" version="6" timestamp="2011-08-15T17:48:42Z" uid="125687" user="tubeli" changeset="9029516" lat="48.1314907" lon="11.5221466"/>
  <node id="331272300" version="5" timestamp="2009-08-31T21:10:31Z" uid="36809" user="pfoten_weg_!_" changeset="2331411" lat="48.131381" lon="11.5217761"/>
  <node id="331272300" version="6" timestamp="2011-08-15T17:48:42Z" uid="125687" user="tubeli" changeset="9029516" lat="48.1313925" lon="11.521742"/>
  <node id="331272589" version="2" timestamp="2011-04-26T20:28:58Z" uid="9581" user="Lobelt" changeset="7979383" lat="50.0175025" lon="7.1204305"/>
  <node id="331272599" version="2" timestamp="2011-04-26T20:28:34Z" uid="9581" user="Lobelt" changeset="7979383" lat="50.0192471" lon="7.1182449"/>
  <node id="331272599" version="3" timestamp="2011-08-18T14:43:11Z" uid="116044" user="berndw" changeset="9057524" lat="50.0193265" lon="7.1182449"/>
  <node id="331273556" version="3" timestamp="2010-01-16T22:51:14Z" uid="8619" user="cetest" changeset="3636525" lat="18.5150467" lon="-72.2850946"/>
  <node id="331273556" version="4" timestamp="2010-01-22T19:01:23Z" uid="12055" user="aude" changeset="3685943" lat="18.51507" lon="-72.2850949"/>
  <node id="331273556" version="5" timestamp="2010-10-19T14:52:42Z" uid="294075" user="fenel" changeset="6099814" lat="18.5150624" lon="-72.2850492"/>
  <node id="331273556" version="6" timestamp="2010-10-19T14:55:32Z" uid="294075" user="fenel" changeset="6099814" lat="18.5150624" lon="-72.2850492"/>
  <node id="331273556" version="7" timestamp="2010-10-19T14:57:58Z" uid="294075" user="fenel" changeset="6099814" lat="18.5150624" lon="-72.2850492"/>
  <node id="331273556" version="8" timestamp="2010-10-19T18:50:27Z" uid="294075" user="fenel" changeset="6102215" lat="18.5150624" lon="-72.2850492"/>
  <node id="331273556" version="9" timestamp="2010-10-19T18:51:34Z" uid="294075" user="fenel" changeset="6102215" lat="18.5150624" lon="-72.2850492"/>
  <node id="331273556" version="10" timestamp="2010-10-29T21:16:32Z" uid="24440" user="jaakkoh" changeset="6221445" lat="18.5150635" lon="-72.2850852"/>
  <node id="331274724" version="3" timestamp="2010-07-29T09:06:50Z" uid="74617" user="JohnSmith" changeset="5344848" lat="52.4614796" lon="12.9397291">
    <tag k="amenity" v="emergency_phone"/>
    <tag k="emergency" v="phone"/>
    <tag k="operator" v="Autobahnmeisterei"/>
    <tag k="source" v="photo"/>
  </node>
  <node id="331274730" version="3" timestamp="2010-07-29T09:20:50Z" uid="74617" user="JohnSmith" changeset="5344848" lat="52.4753254" lon="12.9549266">
    <tag k="amenity" v="emergency_phone"/>
    <tag k="emergency" v="phone"/>
    <tag k="operator" v="Autobahnmeisterei"/>
    <tag k="source" v="photo"/>
  </node>
  <node id="331274776" version="3" timestamp="2010-07-29T09:41:02Z" uid="74617" user="JohnSmith" changeset="5344848" lat="52.4870001" lon="12.9640378">
    <tag k="amenity" v="emergency_phone"/>
    <tag k="emergency" v="phone"/>
    <tag k="operator" v="Autobahnmeisterei"/>
    <tag k="source" v="photo"/>
  </node>
  <node id="331274777" version="3" timestamp="2010-07-29T09:01:25Z" uid="74617" user="JohnSmith" changeset="5344848" lat="52.5052857" lon="12.960926">
    <tag k="amenity" v="emergency_phone"/>
    <tag k="emergency" v="phone"/>
    <tag k="operator" v="Autobahnmeisterei"/>
    <tag k="source" v="photo"/>
  </node>
  <node id="331274778" version="2" timestamp="2010-07-29T09:27:12Z" uid="74617" user="JohnSmith" changeset="5344848" lat="52.5222294" lon="12.9654205">
    <tag k="amenity" v="emergency_phone"/>
    <tag k="emergency" v="phone"/>
    <tag k="operator" v="Autobahnmeisterei"/>
    <tag k="source" v="photo"/>
  </node>
  <node id="331274779" version="2" timestamp="2010-07-29T09:33:39Z" uid="74617" user="JohnSmith" changeset="5344848" lat="52.5317775" lon="12.9664883">
    <tag k="amenity" v="emergency_phone"/>
    <tag k="emergency" v="phone"/>
    <tag k="operator" v="Autobahnmeisterei"/>
    <tag k="source" v="survey"/>
  </node>
  <node id="331274780" version="3" timestamp="2010-07-29T09:24:29Z" uid="74617" user="JohnSmith" changeset="5344848" lat="52.5417149" lon="12.9638934">
    <tag k="amenity" v="emergency_phone"/>
    <tag k="emergency" v="phone"/>
    <tag k="operator" v="Autobahnmeisterei"/>
    <tag k="source" v="survey"/>
  </node>
  <node id="331274780" version="4" timestamp="2011-07-29T20:12:46Z" uid="42123" user="Ropino" changeset="8866767" lat="52.5417686" lon="12.9639111">
    <tag k="amenity" v="emergency_phone"/>
    <tag k="emergency" v="phone"/>
    <tag k="operator" v="Autobahnmeisterei"/>
    <tag k="source" v="survey"/>
  </node>
  <node id="331274781" version="3" timestamp="2010-07-29T09:29:35Z" uid="74617" user="JohnSmith" changeset="5344848" lat="52.5429034" lon="12.9641199">
    <tag k="amenity" v="emergency_phone"/>
    <tag k="emergency" v="phone"/>
    <tag k="operator" v="Autobahnmeisterei"/>
    <tag k="source" v="survey"/>
  </node>
  <node id="331274781" version="4" timestamp="2011-07-29T20:12:46Z" uid="42123" user="Ropino" changeset="8866767" lat="52.5429374" lon="12.9640463">
    <tag k="amenity" v="emergency_phone"/>
    <tag k="emergency" v="phone"/>
    <tag k="operator" v="Autobahnmeisterei"/>
    <tag k="source" v="survey"/>
  </node>
  <node id="331278573" version="4" timestamp="2010-07-29T09:40:43Z" uid="74617" user="JohnSmith" changeset="5344848" lat="52.5752192" lon="12.9730292">
    <tag k="amenity" v="emergency_phone"/>
    <tag k="emergency" v="phone"/>
    <tag k="operator" v="Autobahnmeisterei"/>
    <tag k="source" v="photo"/>
  </node>
  <node id="331278573" version="5" timestamp="2011-07-30T20:40:44Z" uid="42123" user="Ropino" changeset="8875720" lat="52.5753317" lon="12.9730192">
    <tag k="amenity" v="emergency_phone"/>
    <tag k="emergency" v="phone"/>
    <tag k="operator" v="Autobahnmeisterei"/>
    <tag k="source" v="photo"/>
  </node>
  <node id="331271470" version="2" timestamp="2012-07-13T18:49:32Z" uid="722137" user="OSMF Redaction Account" changeset="12209862" lat="53.573037" lon="-2.0571273"/>
  <node id="331272290" version="8" timestamp="2012-07-29T18:41:01Z" uid="342705" user="KLMB" changeset="12538743" lat="48.1317904" lon="11.5222177"/>
  <node id="331272293" version="7" timestamp="2012-07-29T18:41:01Z" uid="342705" user="KLMB" changeset="12538743" lat="48.1316195" lon="11.5225178"/>
  <node id="331272296" version="7" timestamp="2012-07-29T18:41:01Z" uid="342705" user="KLMB" changeset="12538743" lat="48.1315031" lon="11.5221027"/>
  <node id="331272300" version="7" timestamp="2012-07-29T18:41:01Z" uid="342705" user="KLMB" changeset="12538743" lat="48.1313897" lon="11.5217057"/>
  <node id="331272589" version="3" timestamp="2012-07-18T15:21:32Z" uid="722137" user="OSMF Redaction Account" changeset="12286710" lat="50.0175725" lon="7.12048"/>
  <node id="331273556" version="11" timestamp="2012-09-04T19:14:04Z" uid="516594" user="SergeDorval" changeset="12986181" lat="18.5150966" lon="-72.2850796"/>
  <node id="331274724" version="4" timestamp="2012-07-18T14:44:15Z" uid="722137" user="OSMF Redaction Account" changeset="12285524" lat="52.4614796" lon="12.9397291">
    <tag k="amenity" v="emergency_phone"/>
    <tag k="operator" v="Autobahnmeisterei"/>
    <tag k="source" v="photo"/>
  </node>
  <node id="331274730" version="4" timestamp="2012-07-18T14:44:15Z" uid="722137" user="OSMF Redaction Account" changeset="12285524" lat="52.4753254" lon="12.9549266">
    <tag k="amenity" v="emergency_phone"/>
    <tag k="operator" v="Autobahnmeisterei"/>
    <tag k="source" v="photo"/>
  </node>
  <node id="331274776" version="4" timestamp="2012-07-18T14:44:16Z" uid="722137" user="OSMF Redaction Account" changeset="12285524" lat="52.4870001" lon="12.9640378">
    <tag k="amenity" v="emergency_phone"/>
    <tag k="operator" v="Autobahnmeisterei"/>
    <tag k="source" v="photo"/>
  </node>
  <node id="331274777" version="4" timestamp="2012-07-18T14:33:33Z" uid="722137" user="OSMF Redaction Account" changeset="12285214" lat="52.5052857" lon="12.960926">
    <tag k="amenity" v="emergency_phone"/>
    <tag k="operator" v="Autobahnmeisterei"/>
    <tag k="source" v="photo"/>
  </node>
  <node id="331274778" version="3" timestamp="2012-07-18T14:33:34Z" uid="722137" user="OSMF Redaction Account" changeset="12285214" lat="52.5222294" lon="12.9654205">
    <tag k="amenity" v="emergency_phone"/>
    <tag k="operator" v="Autobahnmeisterei"/>
    <tag k="source" v="photo"/>
  </node>
  <node id="331274779" version="3" timestamp="2012-07-18T14:33:34Z" uid="722137" user="OSMF Redaction Account" changeset="12285214" lat="52.5317775" lon="12.9664883">
    <tag k="amenity" v="emergency_phone"/>
    <tag k="operator" v="Autobahnmeisterei"/>
    <tag k="source" v="survey"/>
  </node>
  <node id="331274780" version="5" timestamp="2012-07-18T14:33:34Z" uid="722137" user="OSMF Redaction Account" changeset="12285214" lat="52.5417686" lon="12.9639111">
    <tag k="amenity" v="emergency_phone"/>
    <tag k="operator" v="Autobahnmeisterei"/>
    <tag k="source" v="survey"/>
  </node>
  <node id="331274781" version="5" timestamp="2012-07-18T14:33:34Z" uid="722137" user="OSMF Redaction Account" changeset="12285214" lat="52.5429374" lon="12.9640463">
    <tag k="amenity" v="emergency_phone"/>
    <tag k="operator" v="Autobahnmeisterei"/>
    <tag k="source" v="survey"/>
  </node>
  <node id="331278573" version="6" timestamp="2012-07-18T14:33:36Z" uid="722137" user="OSMF Redaction Account" changeset="12285214" lat="52.5753317" lon="12.9730192">
    <tag k="amenity" v="emergency_phone"/>
    <tag k="operator" v="Autobahnmeisterei"/>
    <tag k="source" v="photo"/>
  </node>
</osm>
