<?xml version='1.0' encoding='UTF-8'?>
<osm version="0.6" generator="libosmium/2.20.0">
  <node id="332122455" version="2" timestamp="2009-11-29T22:04:07Z" uid="200463" user="harmagedon" changeset="3251061" lat="48.5576158" lon="12.9527927">
    <tag k="name" v="Unterbubach"/>
    <tag k="place" v="hamlet"/>
  </node>
  <node id="332122455" version="3" timestamp="2011-09-04T09:04:46Z" uid="149876" user="dbusse" changeset="9206718" lat="48.5576158" lon="12.9527927"/>
  <node id="332125960" version="7" timestamp="2009-02-01T16:43:10Z" uid="6975" user="ulfl" changeset="27333" lat="50.9441096" lon="-2.6344193">
    <tag k="amenity" v="hospital"/>
    <tag k="name" v="Yeovil District Hospital"/>
  </node>
  <node id="332125960" version="8" timestamp="2010-04-27T09:36:17Z" uid="266995" user="Simon Watkins" changeset="4539514" lat="50.9441096" lon="-2.6344193">
    <tag k="amenity" v="hospital"/>
    <tag k="name" v="Yeovil District Hospital"/>
  </node>
  <node id="332126632" version="3" timestamp="2009-08-09T00:59:39Z" uid="4467" user="Rosscoe" changeset="2080743" lat="-30.3160953" lon="153.0941767"/>
  <node id="332126753" version="4" timestamp="2009-08-09T00:59:39Z" uid="4467" user="Rosscoe" changeset="2080743" lat="-30.3162908" lon="153.0943459"/>
  <node id="332127032" version="5" timestamp="2009-08-09T00:59:39Z" uid="4467" user="Rosscoe" changeset="2080743" lat="-30.3164093" lon="153.0940283"/>
  <node id="332127153" version="5" timestamp="2009-08-09T00:59:39Z" uid="4467" user="Rosscoe" changeset="2080743" lat="-30.3166909" lon="153.0934447"/>
  <node id="332128335" version="2" timestamp="2009-04-06T15:16:18Z" uid="43863" user="Rundling" changeset="271520" lat="54.327289" lon="13.7063533"/>
  <node id="332128336" version="2" timestamp="2009-04-06T15:16:20Z" uid="43863" user="Rundling" changeset="271520" lat="54.3265621" lon="13.7079711"/>
  <node id="332128341" version="2" timestamp="2009-04-06T15:16:20Z" uid="43863" user="Rundling" changeset="271520" lat="54.3233426" lon="13.7084864"/>
  <node id="332128342" version="2" timestamp="2009-04-06T15:16:20Z" uid="43863" user="Rundling" changeset="271520" lat="54.322984" lon="13.7091808"/>
  <node id="332128347" version="2" timestamp="2009-04-08T14:22:32Z" uid="43863" user="Rundling" changeset="328379" lat="54.3184082" lon="13.7184255">
    <tag k="amenity" v="shelter"/>
    <tag k="highway" v="bus_stop"/>
    <tag k="name" v="Lobbe, Ort"/>
    <tag k="operator" v="RPNV"/>
    <tag k="source" v="survey"/>
  </node>
  <node id="332128347" version="3" timestamp="2009-04-08T14:23:26Z" uid="43863" user="Rundling" changeset="328379" lat="54.3181814" lon="13.718855">
    <tag k="amenity" v="shelter"/>
    <tag k="highway" v="bus_stop"/>
    <tag k="name" v="Lobbe, Ort"/>
    <tag k="operator" v="RPNV"/>
    <tag k="source" v="survey"/>
  </node>
  <node id="332128347" version="4" timestamp="2009-12-12T19:59:17Z" uid="76587" user="circusfreunde" changeset="3358243" lat="54.3181814" lon="13.7188549">
    <tag k="amenity" v="shelter"/>
    <tag k="highway" v="bus_stop"/>
    <tag k="name" v="Lobbe, Ort"/>
    <tag k="operator" v="RPNV"/>
    <tag k="route_ref" v="20;24"/>
    <tag k="source" v="survey"/>
  </node>
  <node id="332128347" version="5" timestamp="2010-05-01T12:56:22Z" uid="51045" user="Geogast" changeset="4574650" lat="54.3181814" lon="13.7188549">
    <tag k="highway" v="bus_stop"/>
    <tag k="name" v="Lobbe, Ort"/>
    <tag k="operator" v="RPNV"/>
    <tag k="route_ref" v="20;24"/>
    <tag k="shelter" v="yes"/>
    <tag k="source" v="survey"/>
  </node>
  <node id="332128350" version="2" timestamp="2009-04-06T14:57:07Z" uid="43863" user="Rundling" changeset="271520" lat="54.3162945" lon="13.719902"/>
  <node id="332128350" version="3" timestamp="2009-07-16T19:57:06Z" uid="87807" user="hami-123" changeset="1848581" lat="54.3162568" lon="13.7198807"/>
  <node id="332128350" version="4" timestamp="2011-05-31T13:30:40Z" uid="16315" user="-jha-" changeset="8301610" lat="54.316233" lon="13.71985"/>
  <node id="332128335" version="3" timestamp="2012-07-18T13:31:09Z" uid="722137" user="OSMF Redaction Account" changeset="12283418" lat="54.3272581" lon="13.7062473"/>
  <node id="332128347" version="6" timestamp="2012-07-18T13:31:08Z" uid="722137" user="OSMF Redaction Account" changeset="12283418" lat="54.3184082" lon="13.7184255">
    <tag k="highway" v="bus_stop"/>
    <tag k="name" v="Lobbe, Ort"/>
    <tag k="operator" v="RPNV"/>
    <tag k="route_ref" v="20;24"/>
    <tag k="shelter" v="yes"/>
    <tag k="source" v="survey"/>
  </node>
</osm>
