<?xml version='1.0' encoding='UTF-8'?>
<osm version="0.6" generator="libosmium/2.20.0">
  <node id="333166600" version="2" timestamp="2009-02-01T18:45:25Z" uid="6975" user="ulfl" changeset="27333" lat="48.1475655" lon="11.8156227">
    <tag k="amenity" v="fuel"/>
  </node>
  <node id="333166600" version="3" timestamp="2009-02-22T14:07:56Z" uid="59819" user="Fuss-im-Ohr" changeset="619055" lat="48.1475655" lon="11.8156227">
    <tag k="amenity" v="fuel"/>
    <tag k="name" v="FIX ME"/>
  </node>
  <node id="333166600" version="4" timestamp="2009-07-23T20:01:55Z" uid="59819" user="Fuss-im-Ohr" changeset="1919481" lat="48.1475655" lon="11.8156227">
    <tag k="amenity" v="fuel"/>
    <tag k="name" v="FIX ME Tankstelle"/>
  </node>
  <node id="333166600" version="5" timestamp="2010-04-22T20:27:06Z" uid="51019" user="indi37" changeset="4498557" lat="48.1475655" lon="11.8156228">
    <tag k="amenity" v="fuel"/>
    <tag k="name" v="Shell"/>
  </node>
  <node id="333166600" version="6" timestamp="2010-04-22T20:40:14Z" uid="51019" user="indi37" changeset="4498557" lat="48.1475655" lon="11.8156228">
    <tag k="amenity" v="fuel"/>
    <tag k="name" v="Horst Schmid"/>
    <tag k="operator" v="Shell"/>
  </node>
</osm>
