<?xml version='1.0' encoding='UTF-8'?>
<osm version="0.6" generator="libosmium/2.20.0">
  <node id="333680489" version="2" timestamp="2009-10-03T18:31:44Z" uid="43967" user="railsnail" changeset="2727575" lat="46.624857" lon="14.22177"/>
  <node id="333680610" version="1" timestamp="2009-01-19T15:29:18Z" uid="20587" user="balrog-kun" changeset="812017" lat="52.2426059" lon="21.0705341">
    <tag k="shop" v="supermarket"/>
  </node>
  <node id="333680610" version="2" timestamp="2011-11-06T17:35:53Z" uid="550230" user="heavenly" changeset="9757551" lat="52.2426059" lon="21.0705341">
    <tag k="name" v="MarcPol"/>
    <tag k="shop" v="supermarket"/>
  </node>
  <node id="333680612" version="1" timestamp="2009-01-19T15:29:18Z" uid="20587" user="balrog-kun" changeset="812017" lat="52.2423015" lon="21.0713567">
    <tag k="amenity" v="grit_bin"/>
  </node>
  <node id="333680615" version="1" timestamp="2009-01-19T15:29:18Z" uid="20587" user="balrog-kun" changeset="812017" lat="52.242009" lon="21.0721465">
    <tag k="amenity" v="telephone"/>
  </node>
  <node id="333680618" version="1" timestamp="2009-01-19T15:29:18Z" uid="20587" user="balrog-kun" changeset="812017" lat="52.2189717" lon="20.9835676">
    <tag k="amenity" v="grit_bin"/>
  </node>
  <node id="333680619" version="1" timestamp="2009-01-19T15:29:18Z" uid="20587" user="balrog-kun" changeset="812017" lat="52.2192654" lon="20.9839114">
    <tag k="amenity" v="telephone"/>
  </node>
  <node id="333680621" version="1" timestamp="2009-01-19T15:29:18Z" uid="20587" user="balrog-kun" changeset="812017" lat="52.2174813" lon="20.982431">
    <tag k="amenity" v="grit_bin"/>
  </node>
  <node id="333680621" version="2" timestamp="2009-01-21T14:21:56Z" uid="20587" user="balrog-kun" changeset="821206" lat="52.2176105" lon="20.9825264">
    <tag k="amenity" v="grit_bin"/>
  </node>
  <node id="333680623" version="1" timestamp="2009-01-19T15:29:19Z" uid="20587" user="balrog-kun" changeset="812017" lat="52.2145574" lon="20.9798553">
    <tag k="amenity" v="grit_bin"/>
  </node>
  <node id="333681156" version="1" timestamp="2009-01-19T15:30:22Z" uid="58091" user="Andreas M" changeset="812902" lat="48.2307766" lon="16.3756593">
    <tag k="name" v="Anker"/>
    <tag k="shop" v="bakery"/>
  </node>
  <node id="333681156" version="2" timestamp="2011-08-10T09:47:15Z" uid="38957" user="schweizer" changeset="8974691" lat="48.2307766" lon="16.3756593"/>
  <node id="333681910" version="1" timestamp="2009-01-19T15:31:30Z" uid="58091" user="Andreas M" changeset="812902" lat="48.2296818" lon="16.3770437">
    <tag k="amenity" v="car_wash"/>
    <tag k="name" v="Wash-Point"/>
  </node>
  <node id="333682110" version="1" timestamp="2009-01-19T15:32:33Z" uid="58091" user="Andreas M" changeset="812902" lat="48.2299792" lon="16.3778674">
    <tag k="name" v="Autohaus Honda Stahl"/>
    <tag k="shop" v="car"/>
  </node>
  <node id="333682110" version="2" timestamp="2011-03-11T21:52:12Z" uid="302363" user="fkv" changeset="7527952" lat="48.2299792" lon="16.3778674">
    <tag k="name" v="Autohaus Honda Stahl"/>
    <tag k="shop" v="car"/>
  </node>
  <node id="333682320" version="1" timestamp="2009-01-19T15:32:54Z" uid="20587" user="balrog-kun" changeset="812017" lat="52.2529244" lon="21.029028">
    <tag k="note" v="TODO: jakis wybieg dla niedźwiedzi :)"/>
    <tag k="tourism" v="zoo"/>
  </node>
  <node id="333682320" version="2" timestamp="2009-08-08T14:36:58Z" uid="123700" user="Mala" changeset="2076300" lat="52.2529244" lon="21.029028">
    <tag k="animal" v="bear"/>
    <tag k="note" v="TODO: jakis wybieg dla niedźwiedzi :)"/>
    <tag k="tourism" v="zoo"/>
  </node>
  <node id="333682320" version="3" timestamp="2011-09-02T21:38:28Z" uid="373244" user="Tomaszg" changeset="9195552" lat="52.2531554" lon="21.0300255">
    <tag k="animal" v="bear"/>
    <tag k="note" v="TODO: jakis wybieg dla niedźwiedzi :)"/>
    <tag k="tourism" v="zoo"/>
  </node>
  <node id="333682558" version="1" timestamp="2009-01-19T15:33:14Z" uid="58091" user="Andreas M" changeset="812902" lat="48.2344112" lon="16.3747698">
    <tag k="name" v="Anker"/>
    <tag k="shop" v="bakery"/>
  </node>
  <node id="333682558" version="2" timestamp="2010-05-12T20:56:34Z" uid="285891" user="Jango" changeset="4681010" lat="48.2344113" lon="16.3747698">
    <tag k="addr:city" v="Wien"/>
    <tag k="addr:country" v="AT"/>
    <tag k="addr:housenumber" v="32"/>
    <tag k="addr:postcode" v="1200"/>
    <tag k="addr:street" v="Dammstraße"/>
    <tag k="name" v="Anker"/>
    <tag k="shop" v="bakery"/>
    <tag k="website" v="www.anker-brot.at"/>
  </node>
  <node id="333682558" version="3" timestamp="2010-05-21T15:01:25Z" uid="285891" user="Jango" changeset="4766830" lat="48.2344639" lon="16.374734">
    <tag k="addr:city" v="Wien"/>
    <tag k="addr:country" v="AT"/>
    <tag k="addr:housenumber" v="32"/>
    <tag k="addr:postcode" v="1200"/>
    <tag k="addr:street" v="Dammstraße"/>
    <tag k="name" v="Anker"/>
    <tag k="shop" v="bakery"/>
    <tag k="website" v="www.anker-brot.at"/>
  </node>
  <node id="333683168" version="2" timestamp="2009-10-03T18:31:44Z" uid="43967" user="railsnail" changeset="2727575" lat="46.623963" lon="14.221272"/>
  <node id="333683698" version="1" timestamp="2009-01-19T15:35:40Z" uid="58091" user="Andreas M" changeset="812902" lat="48.241149" lon="16.3777087">
    <tag k="name" v="Putzerei Hammerl"/>
    <tag k="shop" v="laundry"/>
  </node>
  <node id="333683963" version="1" timestamp="2009-01-19T15:36:19Z" uid="58091" user="Andreas M" changeset="812902" lat="48.2429678" lon="16.3786971">
    <tag k="name" v="Cut20"/>
    <tag k="shop" v="hairdresser"/>
  </node>
  <node id="333683963" version="2" timestamp="2011-10-20T12:22:35Z" uid="540751" user="Michael Steidler" changeset="9608136" lat="48.2429678" lon="16.3786971"/>
  <node id="333684166" version="1" timestamp="2009-01-19T15:36:45Z" uid="58091" user="Andreas M" changeset="812902" lat="48.2435698" lon="16.3797375">
    <tag k="name" v="Corinna Rauch"/>
    <tag k="shop" v="hairdresser"/>
  </node>
  <node id="333684166" version="3" timestamp="2011-04-17T12:50:27Z" uid="232372" user="wosm20" changeset="7886334" lat="48.2437482" lon="16.3798415">
    <tag k="name" v="Corinna Rauch"/>
    <tag k="shop" v="hairdresser"/>
  </node>
  <node id="333684583" version="1" timestamp="2009-01-19T15:37:59Z" uid="58091" user="Andreas M" changeset="812902" lat="48.236621" lon="16.3847032">
    <tag k="name" v="Anker"/>
    <tag k="shop" v="bakery"/>
  </node>
  <node id="333684583" version="2" timestamp="2011-03-27T21:24:45Z" uid="232372" user="wosm20" changeset="7691354" lat="48.2366275" lon="16.3846232">
    <tag k="name" v="Anker"/>
    <tag k="shop" v="bakery"/>
  </node>
  <node id="333684701" version="1" timestamp="2009-01-19T15:38:41Z" uid="58091" user="Andreas M" changeset="812902" lat="48.2386443" lon="16.3834569">
    <tag k="shop" v="bakery"/>
  </node>
  <node id="333684701" version="2" timestamp="2009-01-19T16:00:59Z" uid="52968" user="Poi" changeset="811209" lat="48.2386335" lon="16.3834575">
    <tag k="created_by" v="Potlatch 0.10f"/>
    <tag k="name" v="Doga"/>
    <tag k="shop" v="bakery"/>
  </node>
  <node id="333684701" version="4" timestamp="2011-03-16T20:55:39Z" uid="232372" user="wosm20" changeset="7579637" lat="48.2386825" lon="16.3834135">
    <tag k="name" v="Bäckerei Doga"/>
    <tag k="shop" v="bakery"/>
  </node>
  <node id="333684701" version="5" timestamp="2011-10-05T23:23:08Z" uid="390669" user="KrilleOSM" changeset="9482363" lat="48.2386825" lon="16.3834135">
    <tag k="name" v="Doga"/>
    <tag k="shop" v="bakery"/>
  </node>
  <node id="333686899" version="2" timestamp="2010-04-06T09:06:32Z" uid="115477" user="wowik" changeset="4341800" lat="55.8948269" lon="37.4451398"/>
  <node id="333686899" version="3" timestamp="2010-10-25T13:13:27Z" uid="235179" user="uryevich" changeset="6172348" lat="55.8948241" lon="37.4451062"/>
  <node id="333686902" version="2" timestamp="2011-05-11T16:33:29Z" uid="115477" user="wowik" changeset="8113835" lat="55.8967413" lon="37.4487541"/>
  <node id="333686906" version="2" timestamp="2010-04-06T09:06:32Z" uid="115477" user="wowik" changeset="4341800" lat="55.8946104" lon="37.4456226"/>
  <node id="333686909" version="2" timestamp="2010-09-14T06:46:38Z" uid="115477" user="wowik" changeset="5775570" lat="55.8948078" lon="37.4455421">
    <tag k="highway" v="crossing"/>
  </node>
  <node id="333686909" version="3" timestamp="2011-05-11T16:33:04Z" uid="115477" user="wowik" changeset="8113835" lat="55.8948014" lon="37.4455312">
    <tag k="highway" v="crossing"/>
  </node>
  <node id="333686909" version="4" timestamp="2012-02-24T16:52:41Z" uid="384084" user="Kostik" changeset="10780087" lat="55.8948014" lon="37.4455312">
    <tag k="highway" v="crossing"/>
  </node>
  <node id="333687274" version="1" timestamp="2009-01-19T15:45:04Z" uid="58091" user="Andreas M" changeset="812902" lat="48.2014056" lon="16.3359896">
    <tag k="amenity" v="recycling"/>
  </node>
  <node id="333687274" version="2" timestamp="2012-03-24T15:18:40Z" uid="26818" user="David &amp; Christine Schmitt" changeset="11085474" lat="48.2013507" lon="16.3359827">
    <tag k="amenity" v="recycling"/>
  </node>
  <node id="333687496" version="1" timestamp="2009-01-19T15:45:34Z" uid="58091" user="Andreas M" changeset="812902" lat="48.2040363" lon="16.3314937">
    <tag k="amenity" v="recycling"/>
  </node>
  <node id="333687496" version="2" timestamp="2009-06-30T08:47:04Z" uid="41463" user="digitalhippie" changeset="1687684" lat="48.2040363" lon="16.3314937">
    <tag k="amenity" v="recycling"/>
    <tag k="recycling:cans" v="yes"/>
    <tag k="recycling:glass_bottles" v="yes"/>
    <tag k="recycling:plastic-bottles" v="yes"/>
    <tag k="recycling:scrap_metal" v="yes"/>
  </node>
  <node id="333687496" version="3" timestamp="2009-10-16T20:16:19Z" uid="51552" user="kfg" changeset="2868624" lat="48.2040363" lon="16.3314937">
    <tag k="amenity" v="recycling"/>
    <tag k="recycling:cans" v="yes"/>
    <tag k="recycling:glass_bottles" v="yes"/>
    <tag k="recycling:plastic_bottles" v="yes"/>
    <tag k="recycling:scrap_metal" v="yes"/>
  </node>
  <node id="333687496" version="4" timestamp="2010-04-24T18:17:48Z" uid="28427" user="skunk" changeset="4514295" lat="48.2037837" lon="16.3315035">
    <tag k="amenity" v="recycling"/>
    <tag k="recycling:cans" v="yes"/>
    <tag k="recycling:glass_bottles" v="yes"/>
    <tag k="recycling:plastic_bottles" v="yes"/>
    <tag k="recycling:scrap_metal" v="yes"/>
  </node>
  <node id="333688274" version="1" timestamp="2009-01-19T15:47:21Z" uid="58091" user="Andreas M" changeset="812902" lat="48.2002676" lon="16.3305708">
    <tag k="amenity" v="recycling"/>
  </node>
  <node id="333688274" version="2" timestamp="2009-05-01T08:20:34Z" uid="28427" user="skunk" changeset="1033861" lat="48.2002269" lon="16.3305912">
    <tag k="amenity" v="recycling"/>
  </node>
  <node id="333688274" version="3" timestamp="2009-06-13T11:43:17Z" uid="12295" user="mapper_07" changeset="1503965" lat="48.2002649" lon="16.3305678">
    <tag k="amenity" v="recycling"/>
  </node>
  <node id="333688274" version="4" timestamp="2011-01-16T11:24:56Z" uid="28427" user="skunk" changeset="6986273" lat="48.2002649" lon="16.3305678">
    <tag k="amenity" v="recycling"/>
    <tag k="recycling:cans" v="yes"/>
    <tag k="recycling:glass" v="yes"/>
    <tag k="recycling:plastic_bottles" v="yes"/>
  </node>
  <node id="333689347" version="1" timestamp="2009-01-19T15:49:41Z" uid="20587" user="balrog-kun" changeset="812017" lat="52.2192161" lon="21.0182244">
    <tag k="name" v="Plac Zbawiciela"/>
    <tag k="railway" v="tram_stop"/>
  </node>
  <node id="333689347" version="2" timestamp="2009-05-30T19:33:01Z" uid="128018" user="Tomek" changeset="1362769" lat="52.2192161" lon="21.0182244">
    <tag k="name" v="PL.ZBAWICIELA 04"/>
    <tag k="railway" v="tram_stop"/>
  </node>
  <node id="333689347" version="3" timestamp="2009-05-31T16:55:34Z" uid="128018" user="Tomek" changeset="1371057" lat="52.2192161" lon="21.0182244">
    <tag k="name" v="Pl.Zbawiciela 04"/>
    <tag k="railway" v="tram_stop"/>
  </node>
  <node id="333689347" version="4" timestamp="2009-08-08T15:03:44Z" uid="20587" user="balrog-kun" changeset="2076575" lat="52.2192161" lon="21.0182244">
    <tag k="name" v="Plac Zbawiciela 04"/>
    <tag k="railway" v="tram_stop"/>
  </node>
  <node id="333689347" version="5" timestamp="2009-11-01T03:15:20Z" uid="20587" user="balrog-kun" changeset="3003408" lat="52.2192161" lon="21.0182244">
    <tag k="name" v="Plac Zbawiciela 04"/>
    <tag k="railway" v="tram_stop"/>
    <tag k="tactile_paving" v="yes"/>
  </node>
  <node id="333689347" version="6" timestamp="2010-01-12T13:53:46Z" uid="20587" user="balrog-kun" changeset="3603234" lat="52.2192161" lon="21.0182244">
    <tag k="name" v="Plac Zbawiciela 04"/>
    <tag k="railway" v="tram_stop"/>
    <tag k="tactile_paving" v="yes"/>
    <tag k="tactile_paving:slab_size" v="40x40"/>
    <tag k="ztm:ciąg_ulicy" v="Marszałkowska"/>
  </node>
  <node id="333689347" version="7" timestamp="2011-07-09T06:27:42Z" uid="477744" user="hormel" changeset="8671642" lat="52.2193918" lon="21.0181435">
    <tag k="name" v="Plac Zbawiciela 04"/>
    <tag k="railway" v="tram_stop"/>
    <tag k="tactile_paving" v="yes"/>
    <tag k="tactile_paving:slab_size" v="40x40"/>
    <tag k="ztm:ciąg_ulicy" v="Marszałkowska"/>
  </node>
  <node id="333689348" version="1" timestamp="2009-01-19T15:49:41Z" uid="20587" user="balrog-kun" changeset="812017" lat="52.2204383" lon="21.0175133">
    <tag k="name" v="Plac Zbawiciela"/>
    <tag k="railway" v="tram_stop"/>
  </node>
  <node id="333689348" version="2" timestamp="2009-05-30T19:28:03Z" uid="128018" user="Tomek" changeset="1362706" lat="52.2204383" lon="21.0175133">
    <tag k="name" v="PL.ZBAWICIELA 03"/>
    <tag k="railway" v="tram_stop"/>
  </node>
  <node id="333689348" version="3" timestamp="2009-05-31T16:55:34Z" uid="128018" user="Tomek" changeset="1371057" lat="52.2204383" lon="21.0175133">
    <tag k="name" v="Pl.Zbawiciela 03"/>
    <tag k="railway" v="tram_stop"/>
  </node>
  <node id="333689348" version="4" timestamp="2009-08-08T15:03:44Z" uid="20587" user="balrog-kun" changeset="2076575" lat="52.2204383" lon="21.0175133">
    <tag k="name" v="Plac Zbawiciela 03"/>
    <tag k="railway" v="tram_stop"/>
  </node>
  <node id="333689348" version="5" timestamp="2009-11-01T03:15:21Z" uid="20587" user="balrog-kun" changeset="3003408" lat="52.2204383" lon="21.0175133">
    <tag k="name" v="Plac Zbawiciela 03"/>
    <tag k="railway" v="tram_stop"/>
    <tag k="tactile_paving" v="yes"/>
  </node>
  <node id="333689348" version="6" timestamp="2010-01-12T13:53:46Z" uid="20587" user="balrog-kun" changeset="3603234" lat="52.2204383" lon="21.0175133">
    <tag k="name" v="Plac Zbawiciela 03"/>
    <tag k="railway" v="tram_stop"/>
    <tag k="tactile_paving" v="yes"/>
    <tag k="tactile_paving:slab_size" v="40x40"/>
    <tag k="ztm:ciąg_ulicy" v="Marszałkowska"/>
  </node>
  <node id="333689349" version="1" timestamp="2009-01-19T15:49:41Z" uid="20587" user="balrog-kun" changeset="812017" lat="52.2141124" lon="21.0211626">
    <tag k="name" v="Plac Unii Lubelskiej"/>
    <tag k="railway" v="tram_stop"/>
  </node>
  <node id="333689349" version="2" timestamp="2009-02-08T03:39:50Z" uid="20587" user="balrog-kun" changeset="270015" lat="52.2141969" lon="21.0211292">
    <tag k="name" v="Plac Unii Lubelskiej"/>
    <tag k="railway" v="tram_stop"/>
  </node>
  <node id="333689349" version="3" timestamp="2009-05-30T19:38:53Z" uid="128018" user="Tomek" changeset="1362829" lat="52.2141969" lon="21.0211291">
    <tag k="name" v="PL.UNII LUBELSKIEJ 05"/>
    <tag k="railway" v="tram_stop"/>
  </node>
  <node id="333689349" version="4" timestamp="2009-06-21T14:20:21Z" uid="20587" user="balrog-kun" changeset="1583765" lat="52.2141969" lon="21.0211291">
    <tag k="name" v="Pl.Unii Lubelskiej 05"/>
    <tag k="railway" v="tram_stop"/>
  </node>
  <node id="333689349" version="5" timestamp="2009-08-08T15:03:44Z" uid="20587" user="balrog-kun" changeset="2076575" lat="52.2141969" lon="21.0211291">
    <tag k="name" v="Plac Unii Lubelskiej 05"/>
    <tag k="railway" v="tram_stop"/>
  </node>
  <node id="333689349" version="6" timestamp="2009-11-01T03:15:19Z" uid="20587" user="balrog-kun" changeset="3003408" lat="52.2141969" lon="21.0211291">
    <tag k="name" v="Plac Unii Lubelskiej 05"/>
    <tag k="railway" v="tram_stop"/>
    <tag k="tactile_paving" v="yes"/>
  </node>
  <node id="333689349" version="7" timestamp="2010-01-12T13:53:45Z" uid="20587" user="balrog-kun" changeset="3603234" lat="52.2141969" lon="21.0211291">
    <tag k="name" v="Plac Unii Lubelskiej 05"/>
    <tag k="railway" v="tram_stop"/>
    <tag k="tactile_paving" v="yes"/>
    <tag k="tactile_paving:slab_size" v="40x40"/>
    <tag k="ztm:ciąg_ulicy" v="Marszałkowska"/>
  </node>
  <node id="333689349" version="8" timestamp="2011-07-09T06:27:41Z" uid="477744" user="hormel" changeset="8671642" lat="52.214092" lon="21.0212251">
    <tag k="name" v="Plac Unii Lubelskiej 05"/>
    <tag k="railway" v="tram_stop"/>
    <tag k="tactile_paving" v="yes"/>
    <tag k="tactile_paving:slab_size" v="40x40"/>
    <tag k="ztm:ciąg_ulicy" v="Marszałkowska"/>
  </node>
  <node id="333689351" version="1" timestamp="2009-01-19T15:49:41Z" uid="20587" user="balrog-kun" changeset="812017" lat="52.2258826" lon="21.0140867">
    <tag k="name" v="Hoża"/>
    <tag k="railway" v="tram_stop"/>
  </node>
  <node id="333689351" version="2" timestamp="2009-05-30T19:21:16Z" uid="128018" user="Tomek" changeset="1362615" lat="52.2258826" lon="21.0140866">
    <tag k="name" v="HOŻA 04"/>
    <tag k="railway" v="tram_stop"/>
  </node>
  <node id="333689351" version="3" timestamp="2009-06-21T14:03:32Z" uid="20587" user="balrog-kun" changeset="1583602" lat="52.2258826" lon="21.0140866">
    <tag k="name" v="Hoża 04"/>
    <tag k="railway" v="tram_stop"/>
  </node>
  <node id="333689351" version="4" timestamp="2009-11-01T03:15:20Z" uid="20587" user="balrog-kun" changeset="3003408" lat="52.2258826" lon="21.0140866">
    <tag k="name" v="Hoża 04"/>
    <tag k="railway" v="tram_stop"/>
    <tag k="tactile_paving" v="yes"/>
  </node>
  <node id="333689351" version="5" timestamp="2010-01-12T13:53:46Z" uid="20587" user="balrog-kun" changeset="3603234" lat="52.2258826" lon="21.0140866">
    <tag k="name" v="Hoża 04"/>
    <tag k="railway" v="tram_stop"/>
    <tag k="tactile_paving" v="yes"/>
    <tag k="tactile_paving:slab_size" v="40x40"/>
    <tag k="ztm:ciąg_ulicy" v="Marszałkowska"/>
  </node>
  <node id="333689353" version="1" timestamp="2009-01-19T15:49:41Z" uid="20587" user="balrog-kun" changeset="812017" lat="52.226277" lon="21.0138576">
    <tag k="name" v="Hoża"/>
    <tag k="railway" v="tram_stop"/>
  </node>
  <node id="333689353" version="2" timestamp="2009-05-30T19:21:16Z" uid="128018" user="Tomek" changeset="1362615" lat="52.226277" lon="21.0138576">
    <tag k="name" v="HOŻA 03"/>
    <tag k="railway" v="tram_stop"/>
  </node>
  <node id="333689353" version="3" timestamp="2009-06-21T14:03:32Z" uid="20587" user="balrog-kun" changeset="1583602" lat="52.226277" lon="21.0138576">
    <tag k="name" v="Hoża 03"/>
    <tag k="railway" v="tram_stop"/>
  </node>
  <node id="333689353" version="4" timestamp="2009-11-01T03:15:20Z" uid="20587" user="balrog-kun" changeset="3003408" lat="52.226277" lon="21.0138576">
    <tag k="name" v="Hoża 03"/>
    <tag k="railway" v="tram_stop"/>
    <tag k="tactile_paving" v="yes"/>
  </node>
  <node id="333689353" version="5" timestamp="2010-01-12T13:53:46Z" uid="20587" user="balrog-kun" changeset="3603234" lat="52.226277" lon="21.0138576">
    <tag k="name" v="Hoża 03"/>
    <tag k="railway" v="tram_stop"/>
    <tag k="tactile_paving" v="yes"/>
    <tag k="tactile_paving:slab_size" v="40x40"/>
    <tag k="ztm:ciąg_ulicy" v="Marszałkowska"/>
  </node>
  <node id="333689353" version="6" timestamp="2011-08-26T10:13:28Z" uid="508862" user="KeiDii" changeset="9128116" lat="52.226277" lon="21.0138576"/>
  <node id="333689355" version="1" timestamp="2009-01-19T15:49:41Z" uid="20587" user="balrog-kun" changeset="812017" lat="52.2354013" lon="21.0084353">
    <tag k="name" v="Metro Świętokrzyska"/>
    <tag k="railway" v="tram_stop"/>
  </node>
  <node id="333689355" version="2" timestamp="2009-05-30T19:18:36Z" uid="128018" user="Tomek" changeset="1362590" lat="52.2354013" lon="21.0084352">
    <tag k="name" v="METRO ŚWIĘTOKRZYSKA 05"/>
    <tag k="railway" v="tram_stop"/>
  </node>
  <node id="333689355" version="3" timestamp="2009-06-21T14:03:32Z" uid="20587" user="balrog-kun" changeset="1583602" lat="52.2354013" lon="21.0084352">
    <tag k="name" v="Metro Świętokrzyska 05"/>
    <tag k="railway" v="tram_stop"/>
  </node>
  <node id="333689355" version="4" timestamp="2009-11-01T03:15:21Z" uid="20587" user="balrog-kun" changeset="3003408" lat="52.2354013" lon="21.0084352">
    <tag k="name" v="Metro Świętokrzyska 05"/>
    <tag k="railway" v="tram_stop"/>
    <tag k="tactile_paving" v="yes"/>
  </node>
  <node id="333689355" version="5" timestamp="2010-01-12T13:53:47Z" uid="20587" user="balrog-kun" changeset="3603234" lat="52.2354013" lon="21.0084352">
    <tag k="name" v="Metro Świętokrzyska 05"/>
    <tag k="railway" v="tram_stop"/>
    <tag k="tactile_paving" v="yes"/>
    <tag k="tactile_paving:slab_size" v="40x40"/>
    <tag k="ztm:ciąg_ulicy" v="Marszałkowska"/>
  </node>
  <node id="333689355" version="6" timestamp="2011-10-04T07:46:01Z" uid="477744" user="hormel" changeset="9467174" lat="52.2354999" lon="21.0082744">
    <tag k="name" v="Metro Świętokrzyska 05"/>
    <tag k="railway" v="tram_stop"/>
    <tag k="tactile_paving" v="yes"/>
    <tag k="tactile_paving:slab_size" v="40x40"/>
    <tag k="ztm:ciąg_ulicy" v="Marszałkowska"/>
  </node>
  <node id="333689375" version="1" timestamp="2009-01-19T15:49:47Z" uid="58091" user="Andreas M" changeset="812902" lat="48.18695" lon="16.3364457"/>
  <node id="333689375" version="2" timestamp="2009-02-25T14:20:17Z" uid="43577" user="dorni74" changeset="667368" lat="48.18695" lon="16.3364457"/>
  <node id="333689375" version="3" timestamp="2009-02-25T14:20:50Z" uid="43577" user="dorni74" changeset="667368" lat="48.18695" lon="16.3364457"/>
  <node id="333689375" version="4" timestamp="2010-01-31T16:47:22Z" uid="28427" user="skunk" changeset="3760926" lat="48.1869462" lon="16.336463"/>
  <node id="333689376" version="1" timestamp="2009-01-19T15:49:47Z" uid="58091" user="Andreas M" changeset="812902" lat="48.1869893" lon="16.33632"/>
  <node id="333680489" version="3" timestamp="2012-07-25T12:14:49Z" uid="56870" user="StefanTiran" changeset="12486119" lat="46.624857" lon="14.22177"/>
  <node id="333680489" version="4" timestamp="2012-08-01T17:35:13Z" uid="774692" user="Klaus Hörmaier" changeset="12577070" lat="46.6247982" lon="14.2212763"/>
  <node id="333680489" version="5" timestamp="2012-08-08T14:34:51Z" uid="202392" user="imagic" changeset="12657972" lat="46.6247935" lon="14.221271"/>
  <node id="333680610" version="3" timestamp="2012-09-06T21:05:03Z" uid="842685" user="ancymon" changeset="13015807" lat="52.2426059" lon="21.0705341">
    <tag k="addr:housenumber" v="19"/>
    <tag k="addr:street" v="Kinowa"/>
    <tag k="name" v="MarcPol"/>
    <tag k="shop" v="supermarket"/>
  </node>
  <node id="333681910" version="2" timestamp="2012-04-26T14:05:10Z" uid="99800" user="wolfbert" changeset="11424401" lat="48.2296818" lon="16.3770437"/>
  <node id="333682558" version="4" timestamp="2012-07-17T00:23:21Z" uid="722137" user="OSMF Redaction Account" changeset="12254125" lat="48.2344639" lon="16.374734">
    <tag k="addr:city" v="Wien"/>
    <tag k="addr:country" v="AT"/>
    <tag k="addr:housenumber" v="32"/>
    <tag k="addr:postcode" v="1200"/>
    <tag k="addr:street" v="Dammstraße"/>
    <tag k="website" v="www.anker-brot.at"/>
  </node>
  <node id="333683698" version="2" timestamp="2012-07-16T23:40:04Z" uid="722137" user="OSMF Redaction Account" changeset="12253606" lat="48.241149" lon="16.3777087"/>
  <node id="333684166" version="4" timestamp="2012-07-16T23:39:21Z" uid="722137" user="OSMF Redaction Account" changeset="12253597" lat="48.2437482" lon="16.3798415"/>
  <node id="333684583" version="3" timestamp="2012-07-16T23:39:06Z" uid="722137" user="OSMF Redaction Account" changeset="12253586" lat="48.2366275" lon="16.3846232"/>
  <node id="333684701" version="6" timestamp="2012-07-16T23:39:12Z" uid="722137" user="OSMF Redaction Account" changeset="12253586" lat="48.2386825" lon="16.3834135"/>
  <node id="333686899" version="4" timestamp="2012-09-02T13:51:25Z" uid="316868" user="LexIgnatov" changeset="12954462" lat="55.8948511" lon="37.4450932"/>
  <node id="333686902" version="3" timestamp="2012-04-07T08:29:05Z" uid="417178" user="Medoff" changeset="11210469" lat="55.8967413" lon="37.4487541"/>
  <node id="333686902" version="4" timestamp="2012-07-20T13:21:57Z" uid="722137" user="OSMF Redaction Account" changeset="12377482" lat="55.8974595" lon="37.4499989"/>
  <node id="333686902" version="5" timestamp="2012-09-02T13:51:27Z" uid="316868" user="LexIgnatov" changeset="12954462" lat="55.8974595" lon="37.4499989"/>
  <node id="333686906" version="3" timestamp="2012-04-07T08:29:05Z" uid="417178" user="Medoff" changeset="11210469" lat="55.8946104" lon="37.4456226"/>
  <node id="333686906" version="4" timestamp="2012-07-20T13:21:56Z" uid="722137" user="OSMF Redaction Account" changeset="12377482" lat="55.8945619" lon="37.4457318"/>
  <node id="333686906" version="5" timestamp="2012-09-02T13:51:25Z" uid="316868" user="LexIgnatov" changeset="12954462" lat="55.8945567" lon="37.4456799"/>
  <node id="333686909" version="5" timestamp="2012-07-20T13:21:56Z" uid="722137" user="OSMF Redaction Account" changeset="12377482" lat="55.8948003" lon="37.4455072"/>
  <node id="333686909" version="6" timestamp="2012-09-02T13:51:25Z" uid="316868" user="LexIgnatov" changeset="12954462" lat="55.8947743" lon="37.4453792"/>
  <node id="333687274" version="3" timestamp="2012-07-17T00:22:45Z" uid="722137" user="OSMF Redaction Account" changeset="12254115" lat="48.2013507" lon="16.3359827"/>
  <node id="333687496" version="5" timestamp="2012-07-17T00:22:48Z" uid="722137" user="OSMF Redaction Account" changeset="12254115" lat="48.2037837" lon="16.3315035">
    <tag k="recycling:cans" v="yes"/>
    <tag k="recycling:glass_bottles" v="yes"/>
    <tag k="recycling:plastic_bottles" v="yes"/>
    <tag k="recycling:scrap_metal" v="yes"/>
  </node>
  <node id="333687496" version="6" timestamp="2012-09-02T04:37:49Z" uid="56501" user="Rudolf_H" changeset="12949152" lat="48.2037705" lon="16.3314355">
    <tag k="amenity" v="recycling"/>
    <tag k="recycling:cans" v="yes"/>
    <tag k="recycling:clothes" v="yes"/>
    <tag k="recycling:glass_bottles" v="yes"/>
    <tag k="recycling:plastic_bottles" v="yes"/>
    <tag k="recycling:scrap_metal" v="yes"/>
  </node>
  <node id="333687496" version="7" timestamp="2012-09-08T02:30:03Z" uid="56501" user="Rudolf_H" changeset="13029622" lat="48.2038682" lon="16.3314365">
    <tag k="amenity" v="recycling"/>
    <tag k="recycling:cans" v="yes"/>
    <tag k="recycling:clothes" v="yes"/>
    <tag k="recycling:glass_bottles" v="yes"/>
    <tag k="recycling:plastic_bottles" v="yes"/>
    <tag k="recycling:scrap_metal" v="yes"/>
  </node>
  <node id="333688274" version="5" timestamp="2012-07-17T00:22:44Z" uid="722137" user="OSMF Redaction Account" changeset="12254115" lat="48.2002649" lon="16.3305678">
    <tag k="recycling:cans" v="yes"/>
    <tag k="recycling:glass" v="yes"/>
    <tag k="recycling:plastic_bottles" v="yes"/>
  </node>
  <node id="333689351" version="6" timestamp="2012-07-24T20:06:34Z" uid="722137" user="OSMF Redaction Account" changeset="12475329" lat="52.2258826" lon="21.0140867">
    <tag k="name" v="Hoża"/>
    <tag k="railway" v="tram_stop"/>
    <tag k="tactile_paving" v="yes"/>
    <tag k="tactile_paving:slab_size" v="40x40"/>
    <tag k="ztm:ciąg_ulicy" v="Marszałkowska"/>
  </node>
  <node id="333689355" version="7" timestamp="2012-04-30T08:48:29Z" uid="467703" user="Zbigniew Czernik" changeset="11457476" lat="52.2354999" lon="21.0082806">
    <tag k="name" v="Metro Świętokrzyska 05"/>
    <tag k="railway" v="tram_stop"/>
    <tag k="tactile_paving" v="yes"/>
    <tag k="tactile_paving:slab_size" v="40x40"/>
    <tag k="ztm:ciąg_ulicy" v="Marszałkowska"/>
  </node>
  <node id="333689355" version="8" timestamp="2012-07-24T20:06:42Z" uid="722137" user="OSMF Redaction Account" changeset="12475329" lat="52.2354999" lon="21.0082806">
    <tag k="name" v="Metro Świętokrzyska"/>
    <tag k="railway" v="tram_stop"/>
    <tag k="tactile_paving" v="yes"/>
    <tag k="tactile_paving:slab_size" v="40x40"/>
    <tag k="ztm:ciąg_ulicy" v="Marszałkowska"/>
  </node>
  <node id="333689376" version="2" timestamp="2012-07-17T00:24:25Z" uid="722137" user="OSMF Redaction Account" changeset="12254135" lat="48.1869893" lon="16.33632"/>
</osm>
