<?xml version='1.0' encoding='UTF-8'?>
<osm version="0.6" generator="libosmium/2.20.0">
  <node id="335440395" version="3" timestamp="2009-09-01T20:59:40Z" uid="36809" user="pfoten_weg_!_" changeset="2343001" lat="47.8934761" lon="11.8307479">
    <tag k="addr:city" v="Westerham"/>
    <tag k="addr:country" v="DE"/>
    <tag k="addr:housenumber" v="23"/>
    <tag k="addr:postcode" v="83620"/>
    <tag k="addr:street" v="Im Hacken"/>
  </node>
  <node id="335440395" version="4" timestamp="2010-10-28T06:05:31Z" uid="140803" user="ThomasStr" changeset="6204717" lat="47.8934761" lon="11.8307479">
    <tag k="addr:city" v="Feldkirchen-Westerham"/>
    <tag k="addr:country" v="DE"/>
    <tag k="addr:housenumber" v="23"/>
    <tag k="addr:postcode" v="83620"/>
    <tag k="addr:street" v="Im Hacken"/>
  </node>
  <node id="335440505" version="1" timestamp="2009-01-22T16:39:29Z" uid="58091" user="Andreas M" changeset="825748" lat="48.2018613" lon="16.3387356">
    <tag k="amenity" v="taxi"/>
  </node>
  <node id="335440729" version="1" timestamp="2009-01-22T16:40:04Z" uid="58091" user="Andreas M" changeset="825748" lat="48.2010405" lon="16.3381824">
    <tag k="name" v="Billa"/>
    <tag k="shop" v="supermarket"/>
  </node>
  <node id="335440729" version="2" timestamp="2009-08-27T17:12:13Z" uid="28427" user="skunk" changeset="2280325" lat="48.2010345" lon="16.338314">
    <tag k="name" v="Billa"/>
    <tag k="shop" v="supermarket"/>
  </node>
  <node id="335440729" version="3" timestamp="2011-02-20T20:48:59Z" uid="290680" user="wheelmap_visitor" changeset="7346252" lat="48.2010345" lon="16.338314">
    <tag k="name" v="Billa"/>
    <tag k="shop" v="supermarket"/>
    <tag k="wheelchair" v="yes"/>
  </node>
  <node id="335440729" version="4" timestamp="2011-08-28T21:13:20Z" uid="390669" user="KrilleOSM" changeset="9152110" lat="48.2011707" lon="16.3381875">
    <tag k="name" v="Billa"/>
    <tag k="shop" v="supermarket"/>
    <tag k="wheelchair" v="yes"/>
  </node>
  <node id="335440729" version="5" timestamp="2012-03-24T15:28:30Z" uid="26818" user="David &amp; Christine Schmitt" changeset="11085474" lat="48.2011257" lon="16.3381661">
    <tag k="name" v="Billa"/>
    <tag k="shop" v="supermarket"/>
    <tag k="wheelchair" v="yes"/>
  </node>
  <node id="335440977" version="1" timestamp="2009-01-22T16:40:46Z" uid="58091" user="Andreas M" changeset="825748" lat="48.1966692" lon="16.3393741">
    <tag k="shop" v="kiosk"/>
  </node>
  <node id="335440977" version="2" timestamp="2011-02-20T20:50:01Z" uid="290680" user="wheelmap_visitor" changeset="7346252" lat="48.1966692" lon="16.3393741">
    <tag k="shop" v="kiosk"/>
    <tag k="wheelchair" v="yes"/>
  </node>
  <node id="335441431" version="1" timestamp="2009-01-22T16:41:26Z" uid="58091" user="Andreas M" changeset="825748" lat="48.1961009" lon="16.3406505">
    <tag k="shop" v="kiosk"/>
  </node>
  <node id="335441475" version="2" timestamp="2011-03-18T02:54:06Z" uid="20587" user="balrog-kun" changeset="7591739" lat="37.797358" lon="-122.4038071">
    <tag k="addr:housenumber" v="909"/>
    <tag k="addr:street" v="Montgomery Street"/>
  </node>
  <node id="335441666" version="1" timestamp="2009-01-22T16:42:03Z" uid="58091" user="Andreas M" changeset="825748" lat="48.1971311" lon="16.3367873">
    <tag k="amenity" v="taxi"/>
  </node>
  <node id="335441666" version="2" timestamp="2010-01-08T20:55:37Z" uid="214033" user="jobau1" changeset="3573489" lat="48.196715" lon="16.3384083">
    <tag k="amenity" v="taxi"/>
  </node>
  <node id="335442046" version="1" timestamp="2009-01-22T16:42:56Z" uid="58091" user="Andreas M" changeset="825748" lat="48.1985534" lon="16.3251681">
    <tag k="name" v="Lidl"/>
    <tag k="shop" v="supermarket"/>
  </node>
  <node id="335442046" version="2" timestamp="2009-07-06T13:05:01Z" uid="41463" user="digitalhippie" changeset="1752846" lat="48.1984789" lon="16.3252439">
    <tag k="name" v="Lidl"/>
    <tag k="shop" v="supermarket"/>
  </node>
  <node id="335442046" version="3" timestamp="2009-07-13T18:31:59Z" uid="144412" user="sandman56" changeset="1820088" lat="48.1984795" lon="16.325242">
    <tag k="name" v="Penny"/>
    <tag k="shop" v="supermarket"/>
  </node>
  <node id="335442046" version="4" timestamp="2010-01-20T18:08:41Z" uid="78656" user="Walter Schlögl" changeset="3668871" lat="48.1984795" lon="16.325242">
    <tag k="name" v="Penny"/>
    <tag k="shop" v="general"/>
  </node>
  <node id="335442046" version="5" timestamp="2010-02-13T10:10:22Z" uid="78656" user="Walter Schlögl" changeset="3863054" lat="48.1984795" lon="16.325242">
    <tag k="name" v="Penny"/>
    <tag k="shop" v="supermarket"/>
  </node>
  <node id="335442046" version="6" timestamp="2011-11-01T14:47:15Z" uid="290680" user="wheelmap_visitor" changeset="9709814" lat="48.1984795" lon="16.325242">
    <tag k="name" v="Penny"/>
    <tag k="shop" v="supermarket"/>
    <tag k="wheelchair" v="no"/>
  </node>
  <node id="335442046" version="7" timestamp="2012-03-02T01:29:00Z" uid="129531" user="almich" changeset="10843944" lat="48.1984944" lon="16.3251051">
    <tag k="name" v="Penny"/>
    <tag k="shop" v="supermarket"/>
    <tag k="wheelchair" v="no"/>
  </node>
  <node id="335442202" version="1" timestamp="2009-01-22T16:43:15Z" uid="58091" user="Andreas M" changeset="825748" lat="48.1982103" lon="16.3259133">
    <tag k="name" v="Hofer"/>
    <tag k="shop" v="supermarket"/>
  </node>
  <node id="335442202" version="2" timestamp="2009-07-14T15:54:44Z" uid="144412" user="sandman56" changeset="1828052" lat="48.1982148" lon="16.3259106">
    <tag k="name" v="Fressnapf"/>
    <tag k="shop" v="supermarket"/>
  </node>
  <node id="335442202" version="3" timestamp="2010-11-01T21:27:16Z" uid="78656" user="Walter Schlögl" changeset="6262497" lat="48.1982148" lon="16.3259106">
    <tag k="name" v="Fressnapf"/>
    <tag k="shop" v="pet"/>
  </node>
  <node id="335442202" version="4" timestamp="2012-03-02T01:28:58Z" uid="129531" user="almich" changeset="10843944" lat="48.1982278" lon="16.3258631">
    <tag k="name" v="Fressnapf"/>
    <tag k="shop" v="pet"/>
  </node>
  <node id="335442251" version="2" timestamp="2011-03-18T02:54:02Z" uid="20587" user="balrog-kun" changeset="7591739" lat="37.7956218" lon="-122.4032406">
    <tag k="addr:housenumber" v="700"/>
    <tag k="addr:street" v="Montgomery Street"/>
  </node>
  <node id="335442251" version="3" timestamp="2012-02-04T08:52:21Z" uid="236172" user="saikofish" changeset="10582043" lat="37.795613" lon="-122.4032544">
    <tag k="addr:housenumber" v="700"/>
    <tag k="addr:street" v="Montgomery Street"/>
  </node>
  <node id="335442389" version="1" timestamp="2009-01-22T16:43:49Z" uid="58091" user="Andreas M" changeset="825748" lat="48.1984715" lon="16.324446">
    <tag k="name" v="Billa"/>
    <tag k="shop" v="supermarket"/>
  </node>
  <node id="335442389" version="2" timestamp="2011-03-16T17:18:41Z" uid="129531" user="almich" changeset="7577561" lat="48.1984856" lon="16.3243904">
    <tag k="name" v="Billa"/>
    <tag k="shop" v="supermarket"/>
  </node>
  <node id="335442389" version="3" timestamp="2011-11-01T14:47:16Z" uid="290680" user="wheelmap_visitor" changeset="9709814" lat="48.1984856" lon="16.3243904">
    <tag k="name" v="Billa"/>
    <tag k="shop" v="supermarket"/>
    <tag k="wheelchair" v="yes"/>
  </node>
  <node id="335442484" version="2" timestamp="2011-03-18T02:54:08Z" uid="20587" user="balrog-kun" changeset="7591739" lat="37.7945706" lon="-122.4032553">
    <tag k="addr:housenumber" v="555"/>
    <tag k="addr:street" v="Montgomery"/>
    <tag k="created_by" v="Potlatch 0.10f"/>
  </node>
  <node id="335442785" version="1" timestamp="2009-01-22T16:44:49Z" uid="58091" user="Andreas M" changeset="825748" lat="48.2003318" lon="16.3384487">
    <tag k="name" v="Hotel Wimberger"/>
    <tag k="tourism" v="hotel"/>
  </node>
  <node id="335442785" version="2" timestamp="2009-07-20T13:58:53Z" uid="144412" user="sandman56" changeset="1884896" lat="48.2003262" lon="16.3384448">
    <tag k="addr:city" v="Wien"/>
    <tag k="addr:country" v="AT"/>
    <tag k="addr:housenumber" v="34-36"/>
    <tag k="addr:postcode" v="1070"/>
    <tag k="addr:street" v="Neubaugürtel"/>
    <tag k="name" v="ARCOTEL Wimberger"/>
    <tag k="phone" v="+43 1 52165-0"/>
    <tag k="tourism" v="hotel"/>
    <tag k="url" v="www.arcotel.at/wimberger"/>
  </node>
  <node id="335442785" version="3" timestamp="2009-08-27T17:12:13Z" uid="28427" user="skunk" changeset="2280325" lat="48.2005349" lon="16.3384539">
    <tag k="addr:city" v="Wien"/>
    <tag k="addr:country" v="AT"/>
    <tag k="addr:housenumber" v="34-36"/>
    <tag k="addr:postcode" v="1070"/>
    <tag k="addr:street" v="Neubaugürtel"/>
    <tag k="name" v="ARCOTEL Wimberger"/>
    <tag k="phone" v="+43 1 52165-0"/>
    <tag k="tourism" v="hotel"/>
    <tag k="url" v="www.arcotel.at/wimberger"/>
  </node>
  <node id="335442785" version="4" timestamp="2010-09-20T12:47:13Z" uid="65148" user="Pirat Michi" changeset="5828900" lat="48.2005349" lon="16.3384539">
    <tag k="addr:city" v="Wien"/>
    <tag k="addr:country" v="AT"/>
    <tag k="addr:housenumber" v="34-36"/>
    <tag k="addr:postcode" v="1070"/>
    <tag k="addr:street" v="Neubaugürtel"/>
    <tag k="name" v="ARCOTEL Wimberger"/>
    <tag k="phone" v="+43 1 52165-0"/>
    <tag k="tourism" v="hotel"/>
    <tag k="website" v="www.arcotel.at/wimberger"/>
  </node>
  <node id="335442785" version="5" timestamp="2010-11-01T17:18:00Z" uid="290680" user="wheelmap_visitor" changeset="6255732" lat="48.2005349" lon="16.3384539">
    <tag k="addr:city" v="Wien"/>
    <tag k="addr:country" v="AT"/>
    <tag k="addr:housenumber" v="34-36"/>
    <tag k="addr:postcode" v="1070"/>
    <tag k="addr:street" v="Neubaugürtel"/>
    <tag k="name" v="ARCOTEL Wimberger"/>
    <tag k="phone" v="+43 1 52165-0"/>
    <tag k="tourism" v="hotel"/>
    <tag k="website" v="www.arcotel.at/wimberger"/>
    <tag k="wheelchair" v="yes"/>
  </node>
  <node id="335443049" version="3" timestamp="2011-03-18T02:54:04Z" uid="20587" user="balrog-kun" changeset="7591739" lat="37.7935032" lon="-122.4031183">
    <tag k="addr:housenumber" v="451"/>
    <tag k="addr:street" v="Montgomery Street"/>
    <tag k="amenity" v="bank"/>
    <tag k="name" v="Citibank"/>
    <tag k="operator" v="Citibank"/>
    <tag k="vestibule_atm" v="4"/>
  </node>
  <node id="335443265" version="2" timestamp="2009-09-01T20:56:40Z" uid="36809" user="pfoten_weg_!_" changeset="2343001" lat="47.8949263" lon="11.8290055"/>
  <node id="335443265" version="3" timestamp="2010-12-15T01:47:24Z" uid="118289" user="LarsTragl" changeset="6664234" lat="47.8949534" lon="11.8290384"/>
  <node id="335443266" version="2" timestamp="2009-09-01T20:56:40Z" uid="36809" user="pfoten_weg_!_" changeset="2343001" lat="47.8945743" lon="11.8289825"/>
  <node id="335443266" version="3" timestamp="2010-12-15T01:47:14Z" uid="118289" user="LarsTragl" changeset="6664234" lat="47.8945975" lon="11.8290212"/>
  <node id="335443268" version="2" timestamp="2009-09-01T20:56:40Z" uid="36809" user="pfoten_weg_!_" changeset="2343001" lat="47.8934304" lon="11.8286645"/>
  <node id="335443268" version="3" timestamp="2010-12-15T01:47:18Z" uid="118289" user="LarsTragl" changeset="6664234" lat="47.8933588" lon="11.8285833"/>
  <node id="335443270" version="2" timestamp="2009-09-01T20:56:39Z" uid="36809" user="pfoten_weg_!_" changeset="2343001" lat="47.8938041" lon="11.8278983"/>
  <node id="335443270" version="3" timestamp="2010-12-15T01:47:01Z" uid="118289" user="LarsTragl" changeset="6664234" lat="47.8937577" lon="11.8278287"/>
  <node id="335443272" version="2" timestamp="2009-09-01T20:56:41Z" uid="36809" user="pfoten_weg_!_" changeset="2343001" lat="47.8941782" lon="11.8283274"/>
  <node id="335443272" version="3" timestamp="2010-12-15T01:47:09Z" uid="118289" user="LarsTragl" changeset="6664234" lat="47.8941801" lon="11.8282926"/>
  <node id="335443636" version="7" timestamp="2009-10-01T16:28:41Z" uid="86259" user="hasse_osm_korinthenkacker" changeset="2702067" lat="47.7664636" lon="11.8242883"/>
  <node id="335443728" version="4" timestamp="2011-03-18T02:54:02Z" uid="20587" user="balrog-kun" changeset="7591739" lat="37.7925762" lon="-122.4029694">
    <tag k="addr:housenumber" v="345"/>
    <tag k="addr:street" v="Montgomery Street"/>
    <tag k="amenity" v="bank"/>
    <tag k="atm" v="yes"/>
    <tag k="layer" v="0"/>
    <tag k="name" v="Bank of America"/>
  </node>
  <node id="335443839" version="5" timestamp="2009-09-01T20:56:47Z" uid="36809" user="pfoten_weg_!_" changeset="2343001" lat="47.8943749" lon="11.8279656"/>
  <node id="335443839" version="6" timestamp="2010-12-15T01:47:40Z" uid="118289" user="LarsTragl" changeset="6664234" lat="47.8943749" lon="11.8279656"/>
  <node id="335443842" version="5" timestamp="2009-09-01T20:56:46Z" uid="36809" user="pfoten_weg_!_" changeset="2343001" lat="47.8948352" lon="11.8285146"/>
  <node id="335443842" version="6" timestamp="2010-12-15T01:47:01Z" uid="118289" user="LarsTragl" changeset="6664234" lat="47.8949561" lon="11.8285977"/>
  <node id="335444031" version="6" timestamp="2009-10-01T16:28:43Z" uid="86259" user="hasse_osm_korinthenkacker" changeset="2702067" lat="47.7661405" lon="11.8238678"/>
  <node id="335444031" version="7" timestamp="2011-05-13T22:06:49Z" uid="418282" user="Norbert18" changeset="8136154" lat="47.7661405" lon="11.8238678"/>
  <node id="335444034" version="6" timestamp="2009-10-01T16:28:42Z" uid="86259" user="hasse_osm_korinthenkacker" changeset="2702067" lat="47.7662847" lon="11.8239707"/>
  <node id="335444036" version="7" timestamp="2009-10-01T16:28:41Z" uid="86259" user="hasse_osm_korinthenkacker" changeset="2702067" lat="47.7664327" lon="11.8241497"/>
  <node id="335444036" version="8" timestamp="2010-04-06T17:21:11Z" uid="42393" user="mawi42" changeset="4346236" lat="47.7664301" lon="11.8241465"/>
  <node id="335444036" version="9" timestamp="2011-05-13T22:06:49Z" uid="418282" user="Norbert18" changeset="8136154" lat="47.7664301" lon="11.8241465"/>
  <node id="335444222" version="5" timestamp="2009-10-01T16:28:40Z" uid="86259" user="hasse_osm_korinthenkacker" changeset="2702067" lat="47.7651461" lon="11.8248105"/>
  <node id="335444222" version="6" timestamp="2011-05-13T22:06:28Z" uid="418282" user="Norbert18" changeset="8136154" lat="47.7651289" lon="11.8247349"/>
  <node id="335444336" version="3" timestamp="2009-09-01T20:57:44Z" uid="36809" user="pfoten_weg_!_" changeset="2343001" lat="47.8980972" lon="11.8271601"/>
  <node id="335444336" version="4" timestamp="2010-12-15T01:47:01Z" uid="118289" user="LarsTragl" changeset="6664234" lat="47.8980851" lon="11.8271722"/>
  <node id="335444337" version="3" timestamp="2009-09-01T20:57:44Z" uid="36809" user="pfoten_weg_!_" changeset="2343001" lat="47.8979246" lon="11.8270657"/>
  <node id="335444337" version="4" timestamp="2010-12-15T01:47:40Z" uid="118289" user="LarsTragl" changeset="6664234" lat="47.8979246" lon="11.8270657"/>
  <node id="335444338" version="3" timestamp="2009-09-01T20:57:45Z" uid="36809" user="pfoten_weg_!_" changeset="2343001" lat="47.897585" lon="11.8269112"/>
  <node id="335444338" version="4" timestamp="2010-12-15T01:47:09Z" uid="118289" user="LarsTragl" changeset="6664234" lat="47.8975792" lon="11.826926"/>
  <node id="335444532" version="6" timestamp="2009-10-01T16:28:40Z" uid="86259" user="hasse_osm_korinthenkacker" changeset="2702067" lat="47.7647423" lon="11.8235059"/>
  <node id="335444556" version="1" timestamp="2009-01-22T16:48:46Z" uid="58091" user="Andreas M" changeset="825748" lat="48.1981479" lon="16.3438344">
    <tag k="shop" v="kiosk"/>
  </node>
  <node id="335444558" version="1" timestamp="2009-01-22T16:48:46Z" uid="58091" user="Andreas M" changeset="825748" lat="48.1978588" lon="16.3440597">
    <tag k="name" v="Billa"/>
    <tag k="shop" v="supermarket"/>
  </node>
  <node id="335444558" version="2" timestamp="2011-02-15T12:09:38Z" uid="290680" user="wheelmap_visitor" changeset="7293585" lat="48.1978588" lon="16.3440597">
    <tag k="name" v="Billa"/>
    <tag k="shop" v="supermarket"/>
    <tag k="wheelchair" v="no"/>
  </node>
  <node id="335444558" version="3" timestamp="2011-06-14T12:21:16Z" uid="70738" user="montolio" changeset="8436819" lat="48.1979665" lon="16.3438046">
    <tag k="name" v="Billa"/>
    <tag k="shop" v="supermarket"/>
    <tag k="wheelchair" v="no"/>
  </node>
  <node id="335444561" version="1" timestamp="2009-01-22T16:48:46Z" uid="58091" user="Andreas M" changeset="825748" lat="48.1980165" lon="16.3457608">
    <tag k="name" v="Zielpunkt"/>
    <tag k="shop" v="supermarket"/>
  </node>
  <node id="335444561" version="2" timestamp="2011-07-23T20:32:03Z" uid="49642" user="realadry" changeset="8809810" lat="48.1980239" lon="16.345794">
    <tag k="name" v="Zielpunkt"/>
    <tag k="shop" v="supermarket"/>
  </node>
  <node id="335444561" version="3" timestamp="2012-02-14T22:02:43Z" uid="113809" user="kueste" changeset="10687819" lat="48.1980239" lon="16.345794">
    <tag k="building" v="yes"/>
  </node>
  <node id="335444561" version="4" timestamp="2012-02-14T22:05:34Z" uid="113809" user="kueste" changeset="10687819" lat="48.1980239" lon="16.345794"/>
  <node id="335444563" version="1" timestamp="2009-01-22T16:48:47Z" uid="58091" user="Andreas M" changeset="825748" lat="48.1973031" lon="16.3461044">
    <tag k="shop" v="kiosk"/>
  </node>
  <node id="335445525" version="2" timestamp="2009-09-01T20:57:16Z" uid="36809" user="pfoten_weg_!_" changeset="2343001" lat="47.8982969" lon="11.8276298"/>
  <node id="335445525" version="3" timestamp="2010-12-04T14:29:57Z" uid="118289" user="LarsTragl" changeset="6538433" lat="47.8985647" lon="11.8276566"/>
  <node id="335445526" version="2" timestamp="2009-09-01T20:57:16Z" uid="36809" user="pfoten_weg_!_" changeset="2343001" lat="47.8975353" lon="11.8284707"/>
  <node id="335445526" version="3" timestamp="2010-12-04T14:29:55Z" uid="118289" user="LarsTragl" changeset="6538433" lat="47.8975782" lon="11.8286207"/>
  <node id="335448513" version="5" timestamp="2009-10-01T15:22:32Z" uid="86259" user="hasse_osm_korinthenkacker" changeset="2701530" lat="47.8983163" lon="11.8274169"/>
  <node id="335448513" version="6" timestamp="2010-12-04T14:29:57Z" uid="118289" user="LarsTragl" changeset="6538433" lat="47.8983806" lon="11.8275883"/>
  <node id="335448900" version="1" timestamp="2009-01-22T16:54:55Z" uid="58091" user="Andreas M" changeset="825748" lat="48.2022636" lon="16.3683493">
    <tag k="amenity" v="fast_food"/>
    <tag k="cuisine" v="sandwich"/>
    <tag k="name" v="Subway"/>
  </node>
  <node id="335448900" version="2" timestamp="2011-02-15T12:16:05Z" uid="290680" user="wheelmap_visitor" changeset="7293585" lat="48.2022636" lon="16.3683493">
    <tag k="amenity" v="fast_food"/>
    <tag k="cuisine" v="sandwich"/>
    <tag k="name" v="Subway"/>
    <tag k="wheelchair" v="limited"/>
  </node>
  <node id="335448900" version="3" timestamp="2011-03-25T19:42:26Z" uid="99800" user="wolfbert" changeset="7668799" lat="48.2023425" lon="16.3682236">
    <tag k="amenity" v="fast_food"/>
    <tag k="cuisine" v="sandwich"/>
    <tag k="name" v="Subway"/>
    <tag k="wheelchair" v="limited"/>
  </node>
  <node id="335448903" version="1" timestamp="2009-01-22T16:54:55Z" uid="58091" user="Andreas M" changeset="825748" lat="48.2022021" lon="16.3686348">
    <tag k="amenity" v="restaurant"/>
    <tag k="cuisine" v="steak_house"/>
    <tag k="name" v="Maredo"/>
  </node>
  <node id="335448903" version="2" timestamp="2010-10-28T12:40:09Z" uid="290680" user="wheelmap_visitor" changeset="6207195" lat="48.2022021" lon="16.3686348">
    <tag k="amenity" v="restaurant"/>
    <tag k="cuisine" v="steak_house"/>
    <tag k="name" v="Maredo"/>
    <tag k="wheelchair" v="limited"/>
  </node>
  <node id="335448903" version="3" timestamp="2011-03-25T19:41:55Z" uid="99800" user="wolfbert" changeset="7668799" lat="48.2022594" lon="16.3686208">
    <tag k="amenity" v="restaurant"/>
    <tag k="cuisine" v="steak_house"/>
    <tag k="name" v="Maredo"/>
    <tag k="wheelchair" v="limited"/>
  </node>
  <node id="335440395" version="5" timestamp="2012-07-16T15:57:17Z" uid="722137" user="OSMF Redaction Account" changeset="12247210" lat="47.8934761" lon="11.8307479">
    <tag k="addr:city" v="Westerham"/>
    <tag k="addr:country" v="DE"/>
    <tag k="addr:housenumber" v="23"/>
    <tag k="addr:postcode" v="83620"/>
    <tag k="addr:street" v="Im Hacken"/>
  </node>
  <node id="335440505" version="2" timestamp="2012-07-17T00:24:30Z" uid="722137" user="OSMF Redaction Account" changeset="12254146" lat="48.2018613" lon="16.3387356"/>
  <node id="335440729" version="6" timestamp="2012-07-17T00:22:45Z" uid="722137" user="OSMF Redaction Account" changeset="12254115" lat="48.2011257" lon="16.3381661">
    <tag k="wheelchair" v="yes"/>
  </node>
  <node id="335440729" version="7" timestamp="2012-07-19T23:53:06Z" uid="17047" user="KaiRo" changeset="12351818" lat="48.2011257" lon="16.3381661">
    <tag k="name" v="Billa"/>
    <tag k="shop" v="supermarket"/>
    <tag k="wheelchair" v="yes"/>
  </node>
  <node id="335440977" version="3" timestamp="2012-07-17T00:24:29Z" uid="722137" user="OSMF Redaction Account" changeset="12254146" lat="48.1966692" lon="16.3393741"/>
  <node id="335441431" version="2" timestamp="2012-07-17T00:24:28Z" uid="722137" user="OSMF Redaction Account" changeset="12254146" lat="48.1961009" lon="16.3406505"/>
  <node id="335441666" version="3" timestamp="2012-07-17T00:22:40Z" uid="722137" user="OSMF Redaction Account" changeset="12254115" lat="48.196715" lon="16.3384083"/>
  <node id="335442046" version="8" timestamp="2012-07-17T00:22:42Z" uid="722137" user="OSMF Redaction Account" changeset="12254115" lat="48.1984944" lon="16.3251051">
    <tag k="name" v="Penny"/>
    <tag k="wheelchair" v="no"/>
  </node>
  <node id="335442389" version="4" timestamp="2012-07-17T00:22:42Z" uid="722137" user="OSMF Redaction Account" changeset="12254115" lat="48.1984856" lon="16.3243904">
    <tag k="wheelchair" v="yes"/>
  </node>
  <node id="335442785" version="6" timestamp="2012-07-17T00:22:44Z" uid="722137" user="OSMF Redaction Account" changeset="12254115" lat="48.2005349" lon="16.3384539">
    <tag k="addr:city" v="Wien"/>
    <tag k="addr:country" v="AT"/>
    <tag k="addr:housenumber" v="34-36"/>
    <tag k="addr:postcode" v="1070"/>
    <tag k="addr:street" v="Neubaugürtel"/>
    <tag k="name" v="ARCOTEL Wimberger"/>
    <tag k="phone" v="+43 1 52165-0"/>
    <tag k="website" v="www.arcotel.at/wimberger"/>
    <tag k="wheelchair" v="yes"/>
  </node>
  <node id="335442785" version="7" timestamp="2012-07-19T23:53:06Z" uid="17047" user="KaiRo" changeset="12351818" lat="48.2005349" lon="16.3384539">
    <tag k="addr:city" v="Wien"/>
    <tag k="addr:country" v="AT"/>
    <tag k="addr:housenumber" v="34-36"/>
    <tag k="addr:postcode" v="1070"/>
    <tag k="addr:street" v="Neubaugürtel"/>
    <tag k="name" v="ARCOTEL Wimberger"/>
    <tag k="phone" v="+43 1 52165-0"/>
    <tag k="website" v="http://www.arcotel.at/wimberger"/>
    <tag k="wheelchair" v="yes"/>
  </node>
  <node id="335442785" version="8" timestamp="2012-07-20T01:25:54Z" uid="17047" user="KaiRo" changeset="12355444" lat="48.2006338" lon="16.3383747">
    <tag k="addr:city" v="Wien"/>
    <tag k="addr:country" v="AT"/>
    <tag k="addr:housenumber" v="34-36"/>
    <tag k="addr:postcode" v="1070"/>
    <tag k="addr:street" v="Neubaugürtel"/>
    <tag k="name" v="ARCOTEL Wimberger"/>
    <tag k="phone" v="+43 1 52165-0"/>
    <tag k="website" v="http://www.arcotel.at/wimberger"/>
    <tag k="wheelchair" v="yes"/>
  </node>
  <node id="335444556" version="2" timestamp="2012-07-17T00:24:29Z" uid="722137" user="OSMF Redaction Account" changeset="12254146" lat="48.1981479" lon="16.3438344"/>
  <node id="335444558" version="4" timestamp="2012-07-17T00:22:41Z" uid="722137" user="OSMF Redaction Account" changeset="12254115" lat="48.1979665" lon="16.3438046">
    <tag k="wheelchair" v="no"/>
  </node>
  <node id="335444558" version="5" timestamp="2012-07-19T23:53:12Z" uid="17047" user="KaiRo" changeset="12351818" lat="48.1979665" lon="16.3438046"/>
  <node id="335444563" version="2" timestamp="2012-07-17T00:24:29Z" uid="722137" user="OSMF Redaction Account" changeset="12254146" lat="48.1973031" lon="16.3461044"/>
  <node id="335448900" version="4" timestamp="2012-07-17T00:22:47Z" uid="722137" user="OSMF Redaction Account" changeset="12254115" lat="48.2023425" lon="16.3682236">
    <tag k="wheelchair" v="limited"/>
  </node>
  <node id="335448903" version="4" timestamp="2012-07-17T00:22:47Z" uid="722137" user="OSMF Redaction Account" changeset="12254115" lat="48.2022594" lon="16.3686208">
    <tag k="wheelchair" v="limited"/>
  </node>
</osm>
