<?xml version='1.0' encoding='UTF-8'?>
<osm version="0.6" generator="libosmium/2.20.0">
  <node id="336301019" version="2" timestamp="2009-02-07T16:45:06Z" uid="6975" user="ulfl" changeset="238208" lat="52.6562499" lon="9.7084234">
    <tag k="power" v="generator"/>
    <tag k="power_source" v="wind"/>
  </node>
  <node id="336301019" version="3" timestamp="2011-06-04T03:37:56Z" uid="297482" user="don-vip" changeset="8335705" lat="52.6562499" lon="9.7084234">
    <tag k="generator:source" v="wind"/>
    <tag k="power" v="generator"/>
    <tag k="power_source" v="wind"/>
  </node>
  <node id="336301019" version="4" timestamp="2012-02-14T21:24:04Z" uid="590907" user="cbdavis" changeset="10686992" lat="52.6562499" lon="9.7084234">
    <tag k="generator:source" v="wind"/>
    <tag k="power" v="generator"/>
  </node>
  <node id="336301019" version="5" timestamp="2012-02-15T11:00:02Z" uid="590907" user="cbdavis" changeset="10690119" lat="52.6562499" lon="9.7084234">
    <tag k="generator:source" v="wind"/>
    <tag k="power" v="generator"/>
    <tag k="power_source" v="wind"/>
  </node>
  <node id="336301021" version="2" timestamp="2009-02-01T19:02:22Z" uid="6975" user="ulfl" changeset="27333" lat="52.651675" lon="9.7089649">
    <tag k="power" v="generator"/>
    <tag k="power_source" v="wind"/>
  </node>
  <node id="336301021" version="3" timestamp="2011-06-04T03:37:57Z" uid="297482" user="don-vip" changeset="8335705" lat="52.651675" lon="9.7089649">
    <tag k="generator:source" v="wind"/>
    <tag k="power" v="generator"/>
    <tag k="power_source" v="wind"/>
  </node>
  <node id="336301021" version="4" timestamp="2012-02-14T21:24:04Z" uid="590907" user="cbdavis" changeset="10686992" lat="52.651675" lon="9.7089649">
    <tag k="generator:source" v="wind"/>
    <tag k="power" v="generator"/>
  </node>
  <node id="336301021" version="5" timestamp="2012-02-15T11:00:02Z" uid="590907" user="cbdavis" changeset="10690119" lat="52.651675" lon="9.7089649">
    <tag k="generator:source" v="wind"/>
    <tag k="power" v="generator"/>
    <tag k="power_source" v="wind"/>
  </node>
  <node id="336304547" version="3" timestamp="2010-05-08T05:29:01Z" uid="4467" user="Rosscoe" changeset="4635779" lat="-31.9404364" lon="115.9228717"/>
  <node id="336304547" version="4" timestamp="2010-05-31T00:16:54Z" uid="294850" user="Q4004" changeset="4858803" lat="-31.940554" lon="115.922974"/>
  <node id="336304549" version="4" timestamp="2010-05-07T12:55:29Z" uid="4467" user="Rosscoe" changeset="4629833" lat="-31.9405863" lon="115.9225891"/>
  <node id="336304549" version="5" timestamp="2010-05-08T05:28:55Z" uid="4467" user="Rosscoe" changeset="4635779" lat="-31.9405297" lon="115.9225135"/>
  <node id="336304549" version="6" timestamp="2010-05-31T00:17:23Z" uid="294850" user="Q4004" changeset="4858803" lat="-31.9405297" lon="115.9225135"/>
  <node id="336304795" version="2" timestamp="2010-06-11T06:02:00Z" uid="4467" user="Rosscoe" changeset="4959872" lat="-32.0459315" lon="115.8358063">
    <tag k="highway" v="traffic_signals"/>
  </node>
  <node id="336306028" version="2" timestamp="2009-04-16T23:17:18Z" uid="115477" user="wowik" changeset="605492" lat="55.9887297" lon="37.2136962">
    <tag k="created_by" v="Potlatch 0.10f"/>
    <tag k="description" v="бывшая деревня"/>
    <tag k="name" v="Савелки"/>
    <tag k="name:en" v="Savelki"/>
    <tag k="place" v="village"/>
    <tag k="source" v="vmap0"/>
  </node>
  <node id="336306028" version="3" timestamp="2009-04-16T23:17:50Z" uid="115477" user="wowik" changeset="605492" lat="55.9873854" lon="37.2238242">
    <tag k="created_by" v="Potlatch 0.10f"/>
    <tag k="description" v="бывшая деревня"/>
    <tag k="name" v="Савелки"/>
    <tag k="name:en" v="Savelki"/>
    <tag k="place" v="village"/>
    <tag k="source" v="vmap0"/>
  </node>
  <node id="336306028" version="4" timestamp="2009-04-16T23:19:43Z" uid="115477" user="wowik" changeset="605492" lat="55.9887921" lon="37.2218844">
    <tag k="created_by" v="Potlatch 0.10f"/>
    <tag k="description" v="бывшая деревня"/>
    <tag k="name" v="Савелки"/>
    <tag k="name:en" v="Savelki"/>
    <tag k="place" v="village"/>
    <tag k="source" v="vmap0"/>
  </node>
  <node id="336306028" version="5" timestamp="2009-07-28T15:27:56Z" uid="115477" user="wowik" changeset="1966253" lat="55.9887927" lon="37.2218842">
    <tag k="created_by" v="Potlatch 0.10f"/>
    <tag k="description" v="бывшая деревня"/>
    <tag k="name" v="Савелки"/>
    <tag k="name:en" v="Savelki"/>
    <tag k="place" v="village"/>
    <tag k="source" v="vmap0"/>
  </node>
  <node id="336306028" version="6" timestamp="2009-09-05T10:32:06Z" uid="17752" user="Yuri Nazarov" changeset="2378991" lat="55.9887972" lon="37.2218808">
    <tag k="created_by" v="Potlatch 0.10f"/>
    <tag k="description" v="бывшая деревня"/>
    <tag k="name" v="Савелки"/>
    <tag k="name:en" v="Savelki"/>
    <tag k="place" v="suburb"/>
    <tag k="source" v="vmap0"/>
  </node>
  <node id="336306028" version="7" timestamp="2009-10-05T07:23:04Z" uid="11132" user="liosha" changeset="2746505" lat="55.9887972" lon="37.2218808">
    <tag k="description" v="бывшая деревня"/>
    <tag k="name" v="Савелки"/>
    <tag k="name:en" v="Savelki"/>
    <tag k="place" v="suburb"/>
    <tag k="source" v="vmap0"/>
  </node>
  <node id="336306028" version="8" timestamp="2010-04-21T12:52:35Z" uid="115477" user="wowik" changeset="4486198" lat="55.9889423" lon="37.2215502">
    <tag k="description" v="бывшая деревня"/>
    <tag k="name" v="Савелки"/>
    <tag k="name:en" v="Savelki"/>
    <tag k="place" v="suburb"/>
    <tag k="source" v="vmap0"/>
  </node>
  <node id="336306028" version="9" timestamp="2010-04-21T12:58:25Z" uid="115477" user="wowik" changeset="4486198" lat="55.9893384" lon="37.2222476">
    <tag k="description" v="бывшая деревня"/>
    <tag k="name" v="Савелки"/>
    <tag k="name:en" v="Savelki"/>
    <tag k="place" v="suburb"/>
    <tag k="source" v="vmap0"/>
  </node>
  <node id="336306028" version="10" timestamp="2010-04-21T13:10:18Z" uid="115477" user="wowik" changeset="4486198" lat="55.9890984" lon="37.2218613">
    <tag k="description" v="бывшая деревня"/>
    <tag k="name" v="Савелки"/>
    <tag k="name:en" v="Savelki"/>
    <tag k="place" v="suburb"/>
    <tag k="source" v="vmap0"/>
  </node>
  <node id="336306028" version="11" timestamp="2010-06-04T19:02:43Z" uid="94786" user="glebius" changeset="4903090" lat="55.9890984" lon="37.2218613">
    <tag k="description" v="бывшая деревня"/>
    <tag k="name" v="Савелки"/>
    <tag k="name:en" v="Savelki"/>
    <tag k="name:ru" v="Савелки"/>
    <tag k="place" v="suburb"/>
    <tag k="source" v="vmap0"/>
  </node>
  <node id="336306028" version="12" timestamp="2011-03-29T17:44:22Z" uid="115477" user="wowik" changeset="7708495" lat="55.9890984" lon="37.2218613">
    <tag k="description" v="бывшая деревня"/>
    <tag k="name" v="Савёлки"/>
    <tag k="name:en" v="Savelki"/>
    <tag k="name:ru" v="Савёлки"/>
    <tag k="place" v="suburb"/>
    <tag k="source" v="vmap0"/>
  </node>
  <node id="336306028" version="13" timestamp="2012-01-26T21:13:48Z" uid="384084" user="Kostik" changeset="10507299" lat="55.9890984" lon="37.2218613">
    <tag k="description" v="бывшая деревня"/>
    <tag k="name" v="Савёлки"/>
    <tag k="name:en" v="Savelki"/>
    <tag k="name:ru" v="Савёлки"/>
    <tag k="place" v="suburb"/>
    <tag k="source" v="vmap0"/>
  </node>
  <node id="336306051" version="7" timestamp="2010-12-06T11:12:06Z" uid="115477" user="wowik" changeset="6561805" lat="55.8388001" lon="32.9538999">
    <tag k="addr:country" v="RU"/>
    <tag k="addr:district" v="Бельский район"/>
    <tag k="addr:postcode" v="172530"/>
    <tag k="addr:region" v="Тверская область"/>
    <tag k="cladr:code" v="6900400100000"/>
    <tag k="cladr:name" v="Белый"/>
    <tag k="cladr:suffix" v="Город"/>
    <tag k="name" v="Белый"/>
    <tag k="name:de" v="Belyje Berega"/>
    <tag k="name:en" v="Belyy"/>
    <tag k="name:ru" v="Белый"/>
    <tag k="place" v="village"/>
    <tag k="population" v="3900"/>
    <tag k="source" v="vmap0"/>
  </node>
  <node id="336306051" version="8" timestamp="2010-12-06T12:34:09Z" uid="127606" user="loir" changeset="6562677" lat="55.8388001" lon="32.9538999">
    <tag k="addr:country" v="RU"/>
    <tag k="addr:district" v="Бельский район"/>
    <tag k="addr:postcode" v="172530"/>
    <tag k="addr:region" v="Тверская область"/>
    <tag k="cladr:code" v="6900400100000"/>
    <tag k="cladr:name" v="Белый"/>
    <tag k="cladr:suffix" v="Город"/>
    <tag k="name" v="Белый"/>
    <tag k="name:de" v="Belyje Berega"/>
    <tag k="name:en" v="Belyy"/>
    <tag k="name:ru" v="Белый"/>
    <tag k="place" v="town"/>
    <tag k="population" v="3900"/>
    <tag k="source" v="vmap0"/>
  </node>
  <node id="336306051" version="9" timestamp="2011-02-16T14:19:48Z" uid="277330" user="xande almeida" changeset="7304277" lat="55.83949" lon="32.943456">
    <tag k="addr:country" v="RU"/>
    <tag k="addr:district" v="Бельский район"/>
    <tag k="addr:postcode" v="172530"/>
    <tag k="addr:region" v="Тверская область"/>
    <tag k="cladr:code" v="6900400100000"/>
    <tag k="cladr:name" v="Белый"/>
    <tag k="cladr:suffix" v="Город"/>
    <tag k="name" v="Белый"/>
    <tag k="name:de" v="Belyje Berega"/>
    <tag k="name:en" v="Belyy"/>
    <tag k="name:ru" v="Белый"/>
    <tag k="place" v="town"/>
    <tag k="population" v="3900"/>
    <tag k="source" v="vmap0"/>
  </node>
  <node id="336306051" version="10" timestamp="2011-02-17T08:32:24Z" uid="127606" user="loir" changeset="7310907" lat="55.8396342" lon="32.9426215">
    <tag k="addr:country" v="RU"/>
    <tag k="addr:district" v="Бельский район"/>
    <tag k="addr:postcode" v="172530"/>
    <tag k="addr:region" v="Тверская область"/>
    <tag k="cladr:code" v="6900400100000"/>
    <tag k="cladr:name" v="Белый"/>
    <tag k="cladr:suffix" v="Город"/>
    <tag k="name" v="Белый"/>
    <tag k="name:de" v="Belyje Berega"/>
    <tag k="name:en" v="Belyy"/>
    <tag k="name:ru" v="Белый"/>
    <tag k="place" v="town"/>
    <tag k="population" v="3900"/>
  </node>
  <node id="336306051" version="11" timestamp="2011-08-09T00:41:17Z" uid="297358" user="patashnik" changeset="8962901" lat="55.8396342" lon="32.9426215">
    <tag k="addr:country" v="RU"/>
    <tag k="addr:district" v="Бельский район"/>
    <tag k="addr:region" v="Тверская область"/>
    <tag k="cladr:code" v="6900400100000"/>
    <tag k="name" v="Белый"/>
    <tag k="name:de" v="Belyje Berega"/>
    <tag k="name:en" v="Belyy"/>
    <tag k="name:ru" v="Белый"/>
    <tag k="place" v="town"/>
    <tag k="population" v="3900"/>
  </node>
  <node id="336306161" version="1" timestamp="2009-01-25T14:18:44Z" uid="58091" user="Andreas M" changeset="834065" lat="48.2106106" lon="16.4212868"/>
  <node id="336306161" version="2" timestamp="2011-08-13T13:12:18Z" uid="56501" user="Rudolf_H" changeset="9005403" lat="48.2105457" lon="16.4212308"/>
  <node id="336306164" version="1" timestamp="2009-01-25T14:18:44Z" uid="58091" user="Andreas M" changeset="834065" lat="48.2106354" lon="16.4213735"/>
  <node id="336306164" version="2" timestamp="2011-08-13T13:12:18Z" uid="56501" user="Rudolf_H" changeset="9005403" lat="48.2105716" lon="16.4213354"/>
  <node id="336306169" version="1" timestamp="2009-01-25T14:18:45Z" uid="58091" user="Andreas M" changeset="834065" lat="48.2106764" lon="16.4214284"/>
  <node id="336306169" version="2" timestamp="2011-08-13T13:12:18Z" uid="56501" user="Rudolf_H" changeset="9005403" lat="48.2106484" lon="16.4214206"/>
  <node id="336306173" version="1" timestamp="2009-01-25T14:18:45Z" uid="58091" user="Andreas M" changeset="834065" lat="48.2107423" lon="16.4215227"/>
  <node id="336306173" version="2" timestamp="2011-08-13T13:12:18Z" uid="56501" user="Rudolf_H" changeset="9005403" lat="48.2107445" lon="16.4215193"/>
  <node id="336306176" version="1" timestamp="2009-01-25T14:18:45Z" uid="58091" user="Andreas M" changeset="834065" lat="48.2108162" lon="16.4215896"/>
  <node id="336306179" version="1" timestamp="2009-01-25T14:18:45Z" uid="58091" user="Andreas M" changeset="834065" lat="48.2110012" lon="16.421693"/>
  <node id="336306179" version="2" timestamp="2011-08-13T13:12:18Z" uid="56501" user="Rudolf_H" changeset="9005403" lat="48.2109911" lon="16.4217132"/>
  <node id="336306182" version="1" timestamp="2009-01-25T14:18:46Z" uid="58091" user="Andreas M" changeset="834065" lat="48.2111058" lon="16.4217314"/>
  <node id="336306182" version="2" timestamp="2011-08-13T13:12:18Z" uid="56501" user="Rudolf_H" changeset="9005403" lat="48.2111517" lon="16.4217124"/>
  <node id="336309005" version="2" timestamp="2010-06-17T21:06:57Z" uid="151899" user="Bikeman2000" changeset="5012383" lat="51.2290814" lon="6.7858108"/>
  <node id="336309005" version="3" timestamp="2012-01-01T07:24:39Z" uid="173844" user="Antikalk" changeset="10259304" lat="51.2290814" lon="6.7858108"/>
  <node id="336309009" version="2" timestamp="2010-06-17T21:06:58Z" uid="151899" user="Bikeman2000" changeset="5012383" lat="51.2291452" lon="6.7857165"/>
  <node id="336309009" version="3" timestamp="2011-03-13T19:52:21Z" uid="105839" user="jotzt" changeset="7549560" lat="51.2291669" lon="6.7857176"/>
  <node id="336309009" version="4" timestamp="2012-01-01T07:24:39Z" uid="173844" user="Antikalk" changeset="10259304" lat="51.2291669" lon="6.7857176"/>
  <node id="336309021" version="2" timestamp="2010-06-24T20:58:36Z" uid="151899" user="Bikeman2000" changeset="5069484" lat="51.2296291" lon="6.7850929"/>
  <node id="336309021" version="3" timestamp="2011-03-13T19:27:13Z" uid="105839" user="jotzt" changeset="7549276" lat="51.2296192" lon="6.7850107"/>
  <node id="336309021" version="4" timestamp="2012-01-01T07:24:39Z" uid="173844" user="Antikalk" changeset="10259304" lat="51.2296192" lon="6.7850107"/>
  <node id="336309051" version="2" timestamp="2010-05-01T10:55:08Z" uid="151899" user="Bikeman2000" changeset="4573595" lat="51.2275607" lon="6.7805473"/>
  <node id="336309051" version="3" timestamp="2012-01-14T06:53:20Z" uid="173844" user="Antikalk" changeset="10384997" lat="51.2275607" lon="6.7805473"/>
  <node id="336309070" version="2" timestamp="2010-05-01T10:19:56Z" uid="151899" user="Bikeman2000" changeset="4573308" lat="51.227589" lon="6.7814519"/>
  <node id="336309070" version="3" timestamp="2010-05-05T19:37:24Z" uid="151899" user="Bikeman2000" changeset="4616122" lat="51.2275972" lon="6.7814457"/>
  <node id="336309070" version="4" timestamp="2010-07-01T08:11:59Z" uid="12610" user="Burkhard" changeset="5118682" lat="51.2275972" lon="6.7814457"/>
  <node id="336309072" version="2" timestamp="2010-05-05T19:37:24Z" uid="151899" user="Bikeman2000" changeset="4616122" lat="51.2275572" lon="6.7818669"/>
  <node id="336309072" version="3" timestamp="2010-11-29T21:29:09Z" uid="365589" user="duesseldorf" changeset="6490015" lat="51.2275572" lon="6.7818669"/>
  <node id="336309075" version="2" timestamp="2010-05-05T19:37:24Z" uid="151899" user="Bikeman2000" changeset="4616122" lat="51.2274772" lon="6.7819515"/>
  <node id="336309075" version="3" timestamp="2010-05-06T09:32:39Z" uid="151899" user="Bikeman2000" changeset="4619870" lat="51.2274781" lon="6.781931"/>
  <node id="336309075" version="4" timestamp="2010-05-08T22:44:46Z" uid="151899" user="Bikeman2000" changeset="4643844" lat="51.2273783" lon="6.7820542"/>
  <node id="336309075" version="5" timestamp="2010-05-11T11:07:34Z" uid="151899" user="Bikeman2000" changeset="4667477" lat="51.2273912" lon="6.7820642"/>
  <node id="336309075" version="6" timestamp="2011-06-08T21:12:16Z" uid="105839" user="jotzt" changeset="8383779" lat="51.2274453" lon="6.7821489"/>
  <node id="336309075" version="7" timestamp="2012-01-01T07:24:40Z" uid="173844" user="Antikalk" changeset="10259304" lat="51.2274453" lon="6.7821489"/>
  <node id="336309080" version="2" timestamp="2010-05-06T18:19:20Z" uid="151899" user="Bikeman2000" changeset="4624012" lat="51.2276039" lon="6.7814465">
    <tag k="crossing" v="traffic_signals"/>
    <tag k="highway" v="traffic_signals"/>
  </node>
  <node id="336309080" version="3" timestamp="2012-01-14T06:53:20Z" uid="173844" user="Antikalk" changeset="10384997" lat="51.2276039" lon="6.7814465"/>
  <node id="336309794" version="2" timestamp="2010-04-03T16:28:16Z" uid="74617" user="JohnSmith" changeset="4314808" lat="-26.8116741" lon="152.9658439"/>
  <node id="336309806" version="2" timestamp="2010-04-03T16:28:16Z" uid="74617" user="JohnSmith" changeset="4314808" lat="-26.8119647" lon="152.9656588"/>
  <node id="336309845" version="2" timestamp="2010-04-11T13:53:45Z" uid="74617" user="JohnSmith" changeset="4393903" lat="-26.8162626" lon="152.9621773"/>
  <node id="336309856" version="2" timestamp="2010-04-11T13:53:45Z" uid="74617" user="JohnSmith" changeset="4393903" lat="-26.8154384" lon="152.9624036"/>
  <node id="336309867" version="2" timestamp="2010-04-11T13:53:45Z" uid="74617" user="JohnSmith" changeset="4393903" lat="-26.8149562" lon="152.962536"/>
  <node id="336309880" version="2" timestamp="2010-04-11T13:53:45Z" uid="74617" user="JohnSmith" changeset="4393903" lat="-26.8145061" lon="152.9627721"/>
  <node id="336309886" version="2" timestamp="2010-04-11T13:53:45Z" uid="74617" user="JohnSmith" changeset="4393903" lat="-26.8142828" lon="152.9629766"/>
  <node id="336309901" version="2" timestamp="2010-04-11T13:53:45Z" uid="74617" user="JohnSmith" changeset="4393903" lat="-26.8134707" lon="152.9638266"/>
  <node id="336309914" version="2" timestamp="2010-04-11T13:53:45Z" uid="74617" user="JohnSmith" changeset="4393903" lat="-26.8128282" lon="152.9644831"/>
  <node id="336309927" version="2" timestamp="2010-04-11T13:53:45Z" uid="74617" user="JohnSmith" changeset="4393903" lat="-26.8122372" lon="152.9650829"/>
  <node id="336304547" version="5" timestamp="2012-07-23T11:39:23Z" uid="46482" user="Leon K" changeset="12449046" lat="-31.940554" lon="115.922974"/>
  <node id="336304795" version="3" timestamp="2012-07-19T16:26:10Z" uid="722137" user="OSMF Redaction Account" changeset="12339062" lat="-32.0459566" lon="115.8357901"/>
  <node id="336304795" version="4" timestamp="2012-07-20T05:41:08Z" uid="189263" user="wildmyron" changeset="12362494" lat="-32.0459483" lon="115.8357962"/>
  <node id="336306028" version="14" timestamp="2012-07-20T22:12:16Z" uid="722137" user="OSMF Redaction Account" changeset="12394383" lat="55.9887972" lon="37.2218808">
    <tag k="name" v="Савелки"/>
    <tag k="name:en" v="Savelki"/>
    <tag k="name:ru" v="Савелки"/>
    <tag k="place" v="suburb"/>
    <tag k="source" v="vmap0"/>
  </node>
  <node id="336306176" version="2" timestamp="2012-07-16T23:39:57Z" uid="722137" user="OSMF Redaction Account" changeset="12253606" lat="48.2108162" lon="16.4215896"/>
  <node id="336309794" version="3" timestamp="2012-07-19T14:23:52Z" uid="722137" user="OSMF Redaction Account" changeset="12331267" lat="-26.8115296" lon="152.9657518"/>
  <node id="336309794" version="4" timestamp="2012-07-31T22:42:53Z" uid="437598" user="dmgroom_ct" changeset="12568266" lat="-26.8115089" lon="152.9659148"/>
  <node id="336309806" version="3" timestamp="2012-07-19T14:23:52Z" uid="722137" user="OSMF Redaction Account" changeset="12331267" lat="-26.8120446" lon="152.9655214"/>
  <node id="336309806" version="4" timestamp="2012-07-31T22:42:53Z" uid="437598" user="dmgroom_ct" changeset="12568266" lat="-26.812072" lon="152.9655467"/>
  <node id="336309845" version="3" timestamp="2012-07-19T14:23:51Z" uid="722137" user="OSMF Redaction Account" changeset="12331267" lat="-26.8162325" lon="152.9620383"/>
  <node id="336309856" version="3" timestamp="2012-07-19T14:23:51Z" uid="722137" user="OSMF Redaction Account" changeset="12331267" lat="-26.8154329" lon="152.96235"/>
  <node id="336309867" version="3" timestamp="2012-07-19T14:23:51Z" uid="722137" user="OSMF Redaction Account" changeset="12331267" lat="-26.8149179" lon="152.9625126"/>
  <node id="336309880" version="3" timestamp="2012-07-19T14:23:51Z" uid="722137" user="OSMF Redaction Account" changeset="12331267" lat="-26.8144842" lon="152.962743"/>
  <node id="336309886" version="3" timestamp="2012-07-19T14:23:52Z" uid="722137" user="OSMF Redaction Account" changeset="12331267" lat="-26.8140369" lon="152.9631225"/>
  <node id="336309901" version="3" timestamp="2012-07-19T14:23:52Z" uid="722137" user="OSMF Redaction Account" changeset="12331267" lat="-26.813427" lon="152.9637731"/>
  <node id="336309914" version="3" timestamp="2012-07-19T14:23:52Z" uid="722137" user="OSMF Redaction Account" changeset="12331267" lat="-26.8128036" lon="152.9644507"/>
  <node id="336309927" version="3" timestamp="2012-07-19T14:23:52Z" uid="722137" user="OSMF Redaction Account" changeset="12331267" lat="-26.8122073" lon="152.965047"/>
</osm>
