<?xml version='1.0' encoding='UTF-8'?>
<osm version="0.6" generator="libosmium/2.20.0">
  <node id="336605804" version="2" timestamp="2009-02-17T04:21:58Z" uid="68769" user="david lynch" changeset="506906" lat="30.2645562" lon="-97.7443197">
    <tag k="created_by" v="Potlatch 0.10f"/>
    <tag k="landuse" v="residential"/>
    <tag k="name" v="The Austonian"/>
  </node>
  <node id="336605804" version="3" timestamp="2009-08-21T00:43:22Z" uid="68769" user="david lynch" changeset="2218185" lat="30.2645562" lon="-97.7443197">
    <tag k="created_by" v="Potlatch 0.10f"/>
    <tag k="landuse" v="residential"/>
    <tag k="name" v="The Austonian"/>
  </node>
  <node id="336605811" version="2" timestamp="2009-02-17T04:22:05Z" uid="68769" user="david lynch" changeset="506906" lat="30.2656978" lon="-97.7438648">
    <tag k="created_by" v="Potlatch 0.10f"/>
    <tag k="historic" v="monument"/>
    <tag k="name" v="Twinkle Twinkle Lone Star Guitar"/>
  </node>
  <node id="336605811" version="3" timestamp="2011-10-28T15:52:34Z" uid="332709" user="moosejaw" changeset="9677746" lat="30.2658207" lon="-97.7438158">
    <tag k="historic" v="monument"/>
    <tag k="name" v="Twinkle Twinkle Lone Star Guitar"/>
  </node>
  <node id="336605811" version="4" timestamp="2011-10-28T19:30:28Z" uid="332709" user="moosejaw" changeset="9679537" lat="30.2659073" lon="-97.7437829">
    <tag k="historic" v="monument"/>
    <tag k="name" v="Twinkle Twinkle Lone Star Guitar"/>
  </node>
  <node id="336605818" version="2" timestamp="2009-02-17T04:22:07Z" uid="68769" user="david lynch" changeset="506906" lat="30.2657052" lon="-97.7435473">
    <tag k="amenity" v="pub"/>
    <tag k="created_by" v="Potlatch 0.10f"/>
    <tag k="name" v="The Elephant Room"/>
  </node>
  <node id="336605818" version="3" timestamp="2011-10-28T19:30:28Z" uid="332709" user="moosejaw" changeset="9679537" lat="30.2656956" lon="-97.7434073">
    <tag k="amenity" v="pub"/>
    <tag k="name" v="The Elephant Room"/>
  </node>
  <node id="336605832" version="2" timestamp="2009-02-17T04:22:02Z" uid="68769" user="david lynch" changeset="506906" lat="30.2655644" lon="-97.743161">
    <tag k="amenity" v="bank"/>
    <tag k="created_by" v="Potlatch 0.10f"/>
    <tag k="name" v="Frost Bank Tower"/>
  </node>
  <node id="336605832" version="3" timestamp="2009-08-24T21:30:41Z" uid="68769" user="david lynch" changeset="2250455" lat="30.2655644" lon="-97.743161">
    <tag k="amenity" v="bank"/>
    <tag k="created_by" v="Potlatch 0.10f"/>
    <tag k="name" v="Frost Bank Tower"/>
  </node>
  <node id="336605842" version="2" timestamp="2009-02-01T18:35:38Z" uid="6975" user="ulfl" changeset="27333" lat="30.2589671" lon="-97.746514">
    <tag k="name" v="Embassy Suites Hotel"/>
    <tag k="tourism" v="hotel"/>
  </node>
  <node id="336605842" version="3" timestamp="2009-02-11T04:42:06Z" uid="68769" user="david lynch" changeset="345055" lat="30.2587879" lon="-97.7465641">
    <tag k="created_by" v="Potlatch 0.10f"/>
    <tag k="name" v="Embassy Suites Hotel"/>
    <tag k="tourism" v="hotel"/>
  </node>
  <node id="336605842" version="4" timestamp="2011-03-14T14:40:00Z" uid="292893" user="Ant The Limey" changeset="7557019" lat="30.2587879" lon="-97.7465641">
    <tag k="created_by" v="Potlatch 0.10f"/>
    <tag k="name" v="Embassy Suites Hotel"/>
    <tag k="tourism" v="hotel"/>
  </node>
  <node id="336605853" version="2" timestamp="2009-02-01T18:39:16Z" uid="6975" user="ulfl" changeset="27333" lat="30.2705839" lon="-97.7420037">
    <tag k="name" v="Austin Museum of Art"/>
    <tag k="tourism" v="museum"/>
  </node>
  <node id="336605853" version="3" timestamp="2009-02-17T04:22:58Z" uid="68769" user="david lynch" changeset="506906" lat="30.270368" lon="-97.7417448">
    <tag k="created_by" v="Potlatch 0.10f"/>
    <tag k="name" v="Austin Museum of Art"/>
    <tag k="tourism" v="museum"/>
  </node>
  <node id="336605853" version="4" timestamp="2011-05-12T15:05:48Z" uid="119002" user="Thea Clay" changeset="8122864" lat="30.2703613" lon="-97.7417556">
    <tag k="name" v="Austin Museum of Art"/>
    <tag k="tourism" v="museum"/>
  </node>
  <node id="336605853" version="5" timestamp="2011-11-02T17:03:58Z" uid="543545" user="ef2000" changeset="9723473" lat="30.2703613" lon="-97.7417556"/>
  <node id="336606926" version="2" timestamp="2009-02-01T17:24:12Z" uid="6975" user="ulfl" changeset="27333" lat="-29.4494638" lon="27.7203941">
    <tag k="name" v="Roma"/>
    <tag k="place" v="town"/>
  </node>
</osm>
