<?xml version='1.0' encoding='UTF-8'?>
<osm version="0.6" generator="libosmium/2.20.0">
  <node id="337236269" version="2" timestamp="2009-02-01T18:55:14Z" uid="6975" user="ulfl" changeset="27333" lat="42.6600562" lon="2.2876148">
    <tag k="mountain_pass" v="yes"/>
    <tag k="name" v="Col de Tour"/>
    <tag k="name:ca" v="Coll del Torn"/>
  </node>
  <node id="337236269" version="3" timestamp="2009-06-03T19:20:38Z" uid="90394" user="petrovsk" changeset="1416064" lat="42.660136" lon="2.2876464">
    <tag k="mountain_pass" v="yes"/>
    <tag k="name" v="Col de Tour"/>
    <tag k="name:ca" v="Coll del Torn"/>
  </node>
  <node id="337236269" version="4" timestamp="2010-05-21T20:36:50Z" uid="90394" user="petrovsk" changeset="4769767" lat="42.6601611" lon="2.2876271">
    <tag k="ele" v="1516"/>
    <tag k="mountain_pass" v="yes"/>
    <tag k="name" v="Col de Tour"/>
    <tag k="name:ca" v="Coll del Torn"/>
    <tag k="source" v="GPS"/>
  </node>
  <node id="337236704" version="2" timestamp="2009-02-01T18:55:19Z" uid="6975" user="ulfl" changeset="27333" lat="42.6503571" lon="2.3152096">
    <tag k="mountain_pass" v="yes"/>
    <tag k="name" v="Col des Vigues"/>
    <tag k="name:ca" v="Coll de les Vigues"/>
  </node>
  <node id="337236704" version="3" timestamp="2009-06-03T19:20:37Z" uid="90394" user="petrovsk" changeset="1416064" lat="42.6503123" lon="2.3153311">
    <tag k="mountain_pass" v="yes"/>
    <tag k="name" v="Col des Vigues"/>
    <tag k="name:ca" v="Coll de les Vigues"/>
  </node>
  <node id="337236704" version="4" timestamp="2010-10-20T10:09:24Z" uid="90394" user="petrovsk" changeset="6110266" lat="42.6503633" lon="2.3152402">
    <tag k="mountain_pass" v="yes"/>
    <tag k="name" v="Col des Vigues"/>
    <tag k="name:ca" v="Coll de les Vigues"/>
  </node>
</osm>
