<?xml version='1.0' encoding='UTF-8'?>
<osm version="0.6" generator="libosmium/2.20.0">
  <node id="337590131" version="3" timestamp="2009-02-08T22:50:38Z" uid="6975" user="ulfl" changeset="302124" lat="48.66669" lon="39.27166">
    <tag k="is_in" v="Луганська обл., Україна"/>
    <tag k="name" v="Цвітні Піски"/>
    <tag k="place" v="village"/>
  </node>
  <node id="337590198" version="1" timestamp="2009-01-26T15:27:35Z" uid="92538" user="osm-ukraine" changeset="839185" lat="48.66428" lon="39.50718">
    <tag k="name" v="Станично-Луганське"/>
    <tag k="place" v="town"/>
  </node>
  <node id="337590198" version="3" timestamp="2009-02-01T16:47:20Z" uid="6975" user="ulfl" changeset="27333" lat="48.66428" lon="39.50718">
    <tag k="is_in" v="Луганська обл., Україна"/>
    <tag k="name" v="Станично-Луганське"/>
    <tag k="name:ru" v="Станично-Луганское"/>
    <tag k="place" v="town"/>
  </node>
  <node id="337590198" version="4" timestamp="2011-07-22T14:15:57Z" uid="493878" user="riwnodennyk" changeset="8798110" lat="48.66428" lon="39.50718">
    <tag k="is_in" v="Луганська обл., Україна"/>
    <tag k="name" v="Станиця Луганська"/>
    <tag k="name:ru" v="Станично-Луганское"/>
    <tag k="place" v="town"/>
  </node>
  <node id="337590276" version="3" timestamp="2009-02-08T22:50:42Z" uid="6975" user="ulfl" changeset="302124" lat="48.66291" lon="39.24797">
    <tag k="is_in" v="Луганська обл., Україна"/>
    <tag k="name" v="Лиман"/>
    <tag k="place" v="village"/>
  </node>
  <node id="337590276" version="4" timestamp="2011-12-21T16:05:42Z" uid="29320" user="Komяpa" changeset="10172443" lat="48.66291" lon="39.24797">
    <tag k="is_in" v="Луганська обл., Україна"/>
    <tag k="name" v="Лиман"/>
    <tag k="name:ru" v="Лиман"/>
    <tag k="name:uk" v="Лиман"/>
    <tag k="place" v="village"/>
  </node>
  <node id="337590294" version="3" timestamp="2009-02-08T22:50:43Z" uid="6975" user="ulfl" changeset="302124" lat="48.66257" lon="39.3108">
    <tag k="is_in" v="Луганська обл., Україна"/>
    <tag k="name" v="Привітне"/>
    <tag k="place" v="village"/>
  </node>
  <node id="337590349" version="3" timestamp="2009-02-08T22:50:40Z" uid="6975" user="ulfl" changeset="302124" lat="48.66085" lon="39.27441">
    <tag k="is_in" v="Луганська обл., Україна"/>
    <tag k="name" v="Світле"/>
    <tag k="place" v="village"/>
  </node>
  <node id="337590414" version="3" timestamp="2009-02-08T22:50:38Z" uid="6975" user="ulfl" changeset="302124" lat="48.65982" lon="39.14429">
    <tag k="is_in" v="Луганська обл., Україна"/>
    <tag k="name" v="Крута Гора"/>
    <tag k="place" v="village"/>
  </node>
  <node id="337590660" version="1" timestamp="2009-01-26T15:28:08Z" uid="92538" user="osm-ukraine" changeset="839185" lat="48.65295" lon="39.52331">
    <tag k="name" v="Валуйське"/>
    <tag k="place" v="village"/>
  </node>
  <node id="337590660" version="3" timestamp="2009-02-01T16:47:15Z" uid="6975" user="ulfl" changeset="27333" lat="48.65295" lon="39.52331">
    <tag k="is_in" v="Луганська обл., Україна"/>
    <tag k="name" v="Валуйське"/>
    <tag k="place" v="village"/>
  </node>
  <node id="337590719" version="3" timestamp="2009-02-08T22:50:40Z" uid="6975" user="ulfl" changeset="302124" lat="48.65055" lon="39.12197">
    <tag k="is_in" v="Луганська обл., Україна"/>
    <tag k="name" v="Жовте"/>
    <tag k="place" v="village"/>
  </node>
  <node id="337590827" version="3" timestamp="2009-02-08T22:51:01Z" uid="6975" user="ulfl" changeset="302124" lat="48.64677" lon="38.71239">
    <tag k="is_in" v="Луганська обл., Україна"/>
    <tag k="name" v="Бердянка"/>
    <tag k="place" v="village"/>
  </node>
  <node id="337590908" version="3" timestamp="2009-02-08T22:50:41Z" uid="6975" user="ulfl" changeset="302124" lat="48.64368" lon="39.21913">
    <tag k="is_in" v="Луганська обл., Україна"/>
    <tag k="name" v="Шишкове"/>
    <tag k="place" v="village"/>
  </node>
  <node id="337590939" version="3" timestamp="2009-02-08T22:50:40Z" uid="6975" user="ulfl" changeset="302124" lat="48.643" lon="39.28848">
    <tag k="is_in" v="Луганська обл., Україна"/>
    <tag k="name" v="Стукалова Балка"/>
    <tag k="place" v="village"/>
  </node>
  <node id="337591059" version="3" timestamp="2009-02-08T22:51:02Z" uid="6975" user="ulfl" changeset="302124" lat="48.63991" lon="38.70827">
    <tag k="is_in" v="Луганська обл., Україна"/>
    <tag k="name" v="Весняне"/>
    <tag k="place" v="village"/>
  </node>
  <node id="337591102" version="3" timestamp="2009-02-08T22:51:01Z" uid="6975" user="ulfl" changeset="302124" lat="48.63785" lon="38.67256">
    <tag k="is_in" v="Луганська обл., Україна"/>
    <tag k="name" v="Кіровськ"/>
    <tag k="place" v="town"/>
  </node>
  <node id="337591102" version="4" timestamp="2011-03-14T17:48:59Z" uid="398409" user="Олег Самойленко" changeset="7558897" lat="48.63785" lon="38.6725599">
    <tag k="is_in" v="Луганська обл., Україна - Луганская область - Украина"/>
    <tag k="name" v="Кіровськ - Кировск"/>
    <tag k="place" v="town"/>
  </node>
  <node id="337591102" version="5" timestamp="2011-09-18T20:14:18Z" uid="392787" user="OldFox" changeset="9337110" lat="48.6378385" lon="38.6725412">
    <tag k="is_in" v="Луганська обл., Україна - Луганская область - Украина"/>
    <tag k="name" v="Кіровськ - Кировск"/>
    <tag k="place" v="town"/>
  </node>
  <node id="337591102" version="6" timestamp="2011-12-06T16:35:19Z" uid="440812" user="dudka" changeset="10051315" lat="48.6378385" lon="38.6725412">
    <tag k="is_in" v="Луганська обл., Україна"/>
    <tag k="is_in:ru" v="Луганская область, Украина"/>
    <tag k="name" v="Кіровськ"/>
    <tag k="name:ru" v="Кировск"/>
    <tag k="place" v="town"/>
  </node>
  <node id="337591102" version="7" timestamp="2011-12-21T16:05:39Z" uid="29320" user="Komяpa" changeset="10172443" lat="48.6378385" lon="38.6725412">
    <tag k="is_in" v="Луганська обл., Україна"/>
    <tag k="is_in:ru" v="Луганская область, Украина"/>
    <tag k="name" v="Кіровськ"/>
    <tag k="name:be" v="Кіраўск"/>
    <tag k="name:ru" v="Кировск"/>
    <tag k="place" v="town"/>
  </node>
  <node id="337591458" version="3" timestamp="2009-02-08T22:50:59Z" uid="6975" user="ulfl" changeset="302124" lat="48.62755" lon="38.69007">
    <tag k="is_in" v="Луганська обл., Україна"/>
    <tag k="name" v="Тавричанське"/>
    <tag k="place" v="village"/>
  </node>
  <node id="337591478" version="3" timestamp="2009-02-08T22:50:37Z" uid="6975" user="ulfl" changeset="302124" lat="48.6272" lon="39.28196">
    <tag k="is_in" v="Луганська обл., Україна"/>
    <tag k="name" v="Металіст"/>
    <tag k="name:ru" v="Металист"/>
    <tag k="place" v="village"/>
  </node>
  <node id="337591570" version="3" timestamp="2009-02-08T22:51:00Z" uid="6975" user="ulfl" changeset="302124" lat="48.62532" lon="38.52931">
    <tag k="is_in" v="Луганська обл., Україна"/>
    <tag k="name" v="Первомайськ"/>
    <tag k="place" v="town"/>
  </node>
  <node id="337591570" version="4" timestamp="2011-06-15T05:56:16Z" uid="137216" user="gosha" changeset="8444103" lat="48.62532" lon="38.52931">
    <tag k="is_in" v="Луганська обл., Україна"/>
    <tag k="name" v="Первомайськ"/>
    <tag k="name:ru" v="Первомайск"/>
    <tag k="place" v="town"/>
  </node>
  <node id="337591570" version="5" timestamp="2011-08-19T20:59:35Z" uid="117960" user="va-deam" changeset="9069354" lat="48.6252414" lon="38.5372813">
    <tag k="is_in" v="Луганська обл., Україна"/>
    <tag k="name" v="Первомайськ"/>
    <tag k="name:ru" v="Первомайск"/>
    <tag k="place" v="town"/>
  </node>
  <node id="337591643" version="3" timestamp="2009-02-08T22:50:42Z" uid="6975" user="ulfl" changeset="302124" lat="48.62308" lon="39.21123">
    <tag k="is_in" v="Луганська обл., Україна"/>
    <tag k="name" v="Земляне"/>
    <tag k="place" v="village"/>
  </node>
  <node id="337591882" version="3" timestamp="2009-02-08T22:51:01Z" uid="6975" user="ulfl" changeset="302124" lat="48.61862" lon="38.74226">
    <tag k="is_in" v="Луганська обл., Україна"/>
    <tag k="name" v="Червоний Лиман"/>
    <tag k="place" v="village"/>
  </node>
  <node id="337591954" version="3" timestamp="2009-02-08T22:51:00Z" uid="6975" user="ulfl" changeset="302124" lat="48.61656" lon="38.73779">
    <tag k="is_in" v="Луганська обл., Україна"/>
    <tag k="name" v="Зарічне"/>
    <tag k="place" v="village"/>
  </node>
  <node id="337592307" version="3" timestamp="2009-02-08T22:51:00Z" uid="6975" user="ulfl" changeset="302124" lat="48.6042" lon="38.71513">
    <tag k="is_in" v="Луганська обл., Україна"/>
    <tag k="name" v="Криничне"/>
    <tag k="place" v="village"/>
  </node>
  <node id="337592311" version="3" timestamp="2009-02-08T22:51:00Z" uid="6975" user="ulfl" changeset="302124" lat="48.6042" lon="38.59943">
    <tag k="is_in" v="Луганська обл., Україна"/>
    <tag k="name" v="Теплогірськ"/>
    <tag k="place" v="town"/>
  </node>
  <node id="337592311" version="4" timestamp="2011-04-28T13:01:54Z" uid="446031" user="speysar" changeset="7994412" lat="48.6042" lon="38.59943">
    <tag k="is_in" v="Луганська обл., Україна"/>
    <tag k="name" v="Ірміно"/>
    <tag k="place" v="town"/>
  </node>
  <node id="337592311" version="5" timestamp="2011-08-19T20:59:35Z" uid="117960" user="va-deam" changeset="9069354" lat="48.6013803" lon="38.6018666">
    <tag k="is_in" v="Луганська обл., Україна"/>
    <tag k="name" v="Ірміно"/>
    <tag k="place" v="town"/>
  </node>
  <node id="337592311" version="6" timestamp="2011-10-16T10:37:30Z" uid="440812" user="dudka" changeset="9570887" lat="48.6013803" lon="38.6018666">
    <tag k="is_in" v="Луганська обл., Україна"/>
    <tag k="name" v="Ірміно"/>
    <tag k="old_name" v="Теплогірськ"/>
    <tag k="place" v="town"/>
  </node>
  <node id="337592418" version="3" timestamp="2009-02-08T22:51:01Z" uid="6975" user="ulfl" changeset="302124" lat="48.60042" lon="38.72509">
    <tag k="is_in" v="Луганська обл., Україна"/>
    <tag k="name" v="Богданівка"/>
    <tag k="place" v="village"/>
  </node>
  <node id="337592430" version="1" timestamp="2009-01-26T15:29:51Z" uid="92538" user="osm-ukraine" changeset="839185" lat="48.60008" lon="39.62871">
    <tag k="name" v="Сизе"/>
    <tag k="place" v="village"/>
  </node>
  <node id="337592430" version="3" timestamp="2009-02-01T16:47:24Z" uid="6975" user="ulfl" changeset="27333" lat="48.60008" lon="39.62871">
    <tag k="is_in" v="Луганська область, Україна"/>
    <tag k="name" v="Сизе"/>
    <tag k="name:ru" v="Сизое"/>
    <tag k="place" v="village"/>
  </node>
  <node id="337592635" version="3" timestamp="2009-02-08T22:50:41Z" uid="6975" user="ulfl" changeset="302124" lat="48.59287" lon="39.18514">
    <tag k="is_in" v="Луганська обл., Україна"/>
    <tag k="name" v="Олександрівськ"/>
    <tag k="name:ru" v="Александровка"/>
    <tag k="place" v="town"/>
  </node>
  <node id="337592635" version="4" timestamp="2011-12-06T18:29:46Z" uid="29320" user="Komяpa" changeset="10052059" lat="48.59287" lon="39.18514">
    <tag k="is_in" v="Луганська обл., Україна"/>
    <tag k="name" v="Олександрівськ"/>
    <tag k="name:be" v="Аляксандраўка"/>
    <tag k="name:ru" v="Александровка"/>
    <tag k="place" v="town"/>
  </node>
  <node id="337592635" version="5" timestamp="2011-12-21T16:06:47Z" uid="29320" user="Komяpa" changeset="10172443" lat="48.59287" lon="39.18514">
    <tag k="is_in" v="Луганська обл., Україна"/>
    <tag k="name" v="Олександрівськ"/>
    <tag k="name:be" v="Аляксандраўка"/>
    <tag k="name:ru" v="Александровка"/>
    <tag k="name:uk" v="Олександрівка"/>
    <tag k="place" v="town"/>
  </node>
  <node id="337592680" version="3" timestamp="2009-02-08T22:50:42Z" uid="6975" user="ulfl" changeset="302124" lat="48.59184" lon="39.10274">
    <tag k="is_in" v="Луганська обл., Україна"/>
    <tag k="name" v="Новоселівка"/>
    <tag k="name:ru" v="Новосёловка"/>
    <tag k="place" v="village"/>
  </node>
  <node id="337592759" version="1" timestamp="2009-01-26T15:30:10Z" uid="8619" user="cetest" changeset="839490" lat="51.9804561" lon="4.3708363"/>
  <node id="337592759" version="2" timestamp="2011-11-20T19:48:56Z" uid="36080" user="polderrunner" changeset="9889001" lat="51.9804561" lon="4.3708363"/>
  <node id="337592768" version="1" timestamp="2009-01-26T15:30:11Z" uid="8619" user="cetest" changeset="839490" lat="51.9804253" lon="4.3706429"/>
  <node id="337592768" version="2" timestamp="2011-11-20T19:48:56Z" uid="36080" user="polderrunner" changeset="9889001" lat="51.9804253" lon="4.3706429"/>
  <node id="337592773" version="1" timestamp="2009-01-26T15:30:11Z" uid="8619" user="cetest" changeset="839490" lat="51.9742479" lon="4.373954"/>
  <node id="337592773" version="2" timestamp="2011-01-11T11:26:35Z" uid="301557" user="BikePC" changeset="6935601" lat="51.9742479" lon="4.373954"/>
  <node id="337592773" version="3" timestamp="2011-11-21T22:18:06Z" uid="36080" user="polderrunner" changeset="9902734" lat="51.9742479" lon="4.373954"/>
  <node id="337592778" version="1" timestamp="2009-01-26T15:30:11Z" uid="8619" user="cetest" changeset="839490" lat="51.9700823" lon="4.3761998"/>
  <node id="337592778" version="2" timestamp="2009-01-26T15:40:27Z" uid="8619" user="cetest" changeset="839490" lat="51.968382" lon="4.3771059"/>
  <node id="337592778" version="3" timestamp="2012-01-13T21:11:56Z" uid="36080" user="polderrunner" changeset="10382786" lat="51.968382" lon="4.3771059"/>
  <node id="337592782" version="1" timestamp="2009-01-26T15:30:12Z" uid="8619" user="cetest" changeset="839490" lat="51.973895" lon="4.3741387"/>
  <node id="337592782" version="2" timestamp="2011-11-21T22:18:07Z" uid="36080" user="polderrunner" changeset="9902734" lat="51.973895" lon="4.3741387"/>
  <node id="337592784" version="1" timestamp="2009-01-26T15:30:12Z" uid="8619" user="cetest" changeset="839490" lat="51.975256" lon="4.3823156"/>
  <node id="337592784" version="2" timestamp="2011-11-21T22:25:54Z" uid="36080" user="polderrunner" changeset="9902734" lat="51.975256" lon="4.3823156"/>
  <node id="337592786" version="1" timestamp="2009-01-26T15:30:12Z" uid="8619" user="cetest" changeset="839490" lat="51.973492" lon="4.3743529"/>
  <node id="337592786" version="2" timestamp="2011-11-21T22:18:07Z" uid="36080" user="polderrunner" changeset="9902734" lat="51.973492" lon="4.3743529"/>
  <node id="337592789" version="1" timestamp="2009-01-26T15:30:12Z" uid="8619" user="cetest" changeset="839490" lat="51.9741721" lon="4.3784992"/>
  <node id="337592789" version="2" timestamp="2011-01-11T11:26:35Z" uid="301557" user="BikePC" changeset="6935601" lat="51.9741721" lon="4.3784992"/>
  <node id="337592789" version="3" timestamp="2011-11-21T22:18:07Z" uid="36080" user="polderrunner" changeset="9902734" lat="51.9741721" lon="4.3784992"/>
  <node id="337592798" version="1" timestamp="2009-01-26T15:30:13Z" uid="92538" user="osm-ukraine" changeset="839185" lat="48.58875" lon="39.51439">
    <tag k="name" v="Миколаївка"/>
    <tag k="place" v="village"/>
  </node>
  <node id="337592798" version="3" timestamp="2009-02-01T16:47:18Z" uid="6975" user="ulfl" changeset="27333" lat="48.58875" lon="39.51439">
    <tag k="is_in" v="Луганська обл., Україна"/>
    <tag k="name" v="Миколаївка"/>
    <tag k="name:ru" v="Николаевка"/>
    <tag k="place" v="village"/>
  </node>
  <node id="337592798" version="4" timestamp="2011-12-21T16:06:10Z" uid="29320" user="Komяpa" changeset="10172443" lat="48.58875" lon="39.51439">
    <tag k="is_in" v="Луганська обл., Україна"/>
    <tag k="name" v="Миколаївка"/>
    <tag k="name:ru" v="Николаевка"/>
    <tag k="name:uk" v="Миколаївка"/>
    <tag k="place" v="village"/>
  </node>
  <node id="337592799" version="1" timestamp="2009-01-26T15:30:13Z" uid="8619" user="cetest" changeset="839490" lat="51.973084" lon="4.3745953"/>
  <node id="337592799" version="2" timestamp="2011-11-21T22:18:07Z" uid="36080" user="polderrunner" changeset="9902734" lat="51.973084" lon="4.3745953"/>
  <node id="337592802" version="1" timestamp="2009-01-26T15:30:13Z" uid="8619" user="cetest" changeset="839490" lat="51.9726694" lon="4.3748214"/>
  <node id="337592802" version="2" timestamp="2011-11-21T22:18:07Z" uid="36080" user="polderrunner" changeset="9902734" lat="51.9726694" lon="4.3748214"/>
  <node id="337592806" version="1" timestamp="2009-01-26T15:30:13Z" uid="8619" user="cetest" changeset="839490" lat="51.9722182" lon="4.3751122"/>
  <node id="337592806" version="2" timestamp="2012-02-07T23:28:55Z" uid="36080" user="polderrunner" changeset="10618364" lat="51.9722182" lon="4.3751122"/>
  <node id="337592809" version="1" timestamp="2009-01-26T15:30:13Z" uid="8619" user="cetest" changeset="839490" lat="51.9728439" lon="4.3788832"/>
  <node id="337592809" version="2" timestamp="2012-02-07T23:28:56Z" uid="36080" user="polderrunner" changeset="10618364" lat="51.9728439" lon="4.3788832"/>
  <node id="337592813" version="1" timestamp="2009-01-26T15:30:14Z" uid="8619" user="cetest" changeset="839490" lat="51.9728908" lon="4.3788686"/>
  <node id="337592813" version="2" timestamp="2012-02-07T23:28:56Z" uid="36080" user="polderrunner" changeset="10618364" lat="51.9728908" lon="4.3788686"/>
  <node id="337592820" version="1" timestamp="2009-01-26T15:30:14Z" uid="8619" user="cetest" changeset="839490" lat="51.9722378" lon="4.3750334"/>
  <node id="337592820" version="2" timestamp="2012-02-07T23:28:56Z" uid="36080" user="polderrunner" changeset="10618364" lat="51.9722378" lon="4.3750334"/>
  <node id="337592823" version="1" timestamp="2009-01-26T15:30:14Z" uid="8619" user="cetest" changeset="839490" lat="51.9722033" lon="4.3750532"/>
  <node id="337592823" version="2" timestamp="2012-02-07T23:28:56Z" uid="36080" user="polderrunner" changeset="10618364" lat="51.9722033" lon="4.3750532"/>
  <node id="337592825" version="1" timestamp="2009-01-26T15:30:14Z" uid="8619" user="cetest" changeset="839490" lat="51.9718273" lon="4.3752628"/>
  <node id="337592825" version="2" timestamp="2011-11-21T22:18:07Z" uid="36080" user="polderrunner" changeset="9902734" lat="51.9718273" lon="4.3752628"/>
  <node id="337592828" version="1" timestamp="2009-01-26T15:30:15Z" uid="8619" user="cetest" changeset="839490" lat="51.9714145" lon="4.3754764"/>
  <node id="337592828" version="2" timestamp="2011-11-21T22:18:07Z" uid="36080" user="polderrunner" changeset="9902734" lat="51.9714145" lon="4.3754764"/>
  <node id="337592832" version="1" timestamp="2009-01-26T15:30:15Z" uid="8619" user="cetest" changeset="839490" lat="51.9730657" lon="4.3850566"/>
  <node id="337592832" version="2" timestamp="2011-11-21T22:18:07Z" uid="36080" user="polderrunner" changeset="9902734" lat="51.9730657" lon="4.3850566"/>
  <node id="337592837" version="1" timestamp="2009-01-26T15:30:15Z" uid="8619" user="cetest" changeset="839490" lat="51.9735503" lon="4.3823568"/>
  <node id="337592837" version="2" timestamp="2011-01-11T11:26:37Z" uid="301557" user="BikePC" changeset="6935601" lat="51.9735503" lon="4.3823568"/>
  <node id="337592837" version="3" timestamp="2011-11-20T19:57:17Z" uid="48796" user="Ldp" changeset="9888940" lat="51.9735503" lon="4.3823568"/>
  <node id="337592843" version="1" timestamp="2009-01-26T15:30:15Z" uid="8619" user="cetest" changeset="839490" lat="51.9730417" lon="4.3824734"/>
  <node id="337592843" version="2" timestamp="2011-01-11T11:26:36Z" uid="301557" user="BikePC" changeset="6935601" lat="51.9730417" lon="4.3824734"/>
  <node id="337592843" version="3" timestamp="2011-11-20T19:57:17Z" uid="48796" user="Ldp" changeset="9888940" lat="51.9730417" lon="4.3824734"/>
  <node id="337592848" version="1" timestamp="2009-01-26T15:30:15Z" uid="8619" user="cetest" changeset="839490" lat="51.97262" lon="4.3798319"/>
  <node id="337592848" version="2" timestamp="2011-01-11T11:26:36Z" uid="301557" user="BikePC" changeset="6935601" lat="51.97262" lon="4.3798319"/>
  <node id="337592848" version="3" timestamp="2011-11-20T19:57:17Z" uid="48796" user="Ldp" changeset="9888940" lat="51.97262" lon="4.3798319"/>
  <node id="337592852" version="1" timestamp="2009-01-26T15:30:16Z" uid="8619" user="cetest" changeset="839490" lat="51.9724943" lon="4.3821238"/>
  <node id="337592852" version="2" timestamp="2009-08-23T16:13:40Z" uid="105512" user="datalogg" changeset="2231887" lat="51.9724751" lon="4.3820771"/>
  <node id="337592852" version="3" timestamp="2011-09-15T23:55:54Z" uid="191979" user="It&apos;s so funny" changeset="9312639" lat="51.9724751" lon="4.3820771"/>
  <node id="337592858" version="1" timestamp="2009-01-26T15:30:16Z" uid="8619" user="cetest" changeset="839490" lat="51.9724704" lon="4.3825316"/>
  <node id="337592858" version="2" timestamp="2009-08-23T16:13:40Z" uid="105512" user="datalogg" changeset="2231887" lat="51.9724736" lon="4.3827289"/>
  <node id="337592858" version="3" timestamp="2011-09-15T23:55:54Z" uid="191979" user="It&apos;s so funny" changeset="9312639" lat="51.9724736" lon="4.3827289"/>
  <node id="337592863" version="1" timestamp="2009-01-26T15:30:16Z" uid="8619" user="cetest" changeset="839490" lat="51.9739239" lon="4.3799269"/>
  <node id="337592863" version="2" timestamp="2011-11-20T19:59:34Z" uid="48796" user="Ldp" changeset="9888940" lat="51.9739239" lon="4.3799269"/>
  <node id="337592869" version="1" timestamp="2009-01-26T15:30:17Z" uid="8619" user="cetest" changeset="839490" lat="51.974301" lon="4.3797658"/>
  <node id="337592869" version="2" timestamp="2011-11-20T19:59:34Z" uid="48796" user="Ldp" changeset="9888940" lat="51.974301" lon="4.3797658"/>
  <node id="337592873" version="1" timestamp="2009-01-26T15:30:17Z" uid="8619" user="cetest" changeset="839490" lat="51.9743341" lon="4.3797228"/>
  <node id="337592873" version="2" timestamp="2011-11-20T19:59:34Z" uid="48796" user="Ldp" changeset="9888940" lat="51.9743341" lon="4.3797228"/>
  <node id="337592875" version="1" timestamp="2009-01-26T15:30:17Z" uid="8619" user="cetest" changeset="839490" lat="51.9743572" lon="4.3795617"/>
  <node id="337592875" version="2" timestamp="2011-11-21T22:25:54Z" uid="36080" user="polderrunner" changeset="9902734" lat="51.9743572" lon="4.3795617"/>
  <node id="337592879" version="1" timestamp="2009-01-26T15:30:17Z" uid="8619" user="cetest" changeset="839490" lat="51.9746384" lon="4.3810922"/>
  <node id="337592879" version="2" timestamp="2011-11-20T19:59:34Z" uid="48796" user="Ldp" changeset="9888940" lat="51.9746384" lon="4.3810922"/>
  <node id="337592884" version="1" timestamp="2009-01-26T15:30:18Z" uid="8619" user="cetest" changeset="839490" lat="51.9746086" lon="4.3812533"/>
  <node id="337592884" version="2" timestamp="2011-11-20T19:59:34Z" uid="48796" user="Ldp" changeset="9888940" lat="51.9746086" lon="4.3812533"/>
  <node id="337592889" version="1" timestamp="2009-01-26T15:30:18Z" uid="8619" user="cetest" changeset="839490" lat="51.9742613" lon="4.3814573"/>
  <node id="337592889" version="2" timestamp="2011-11-20T19:59:34Z" uid="48796" user="Ldp" changeset="9888940" lat="51.9742613" lon="4.3814573"/>
  <node id="337592896" version="1" timestamp="2009-01-26T15:30:18Z" uid="8619" user="cetest" changeset="839490" lat="51.9742481" lon="4.3816023"/>
  <node id="337592896" version="2" timestamp="2011-11-20T19:59:34Z" uid="48796" user="Ldp" changeset="9888940" lat="51.9742481" lon="4.3816023"/>
  <node id="337592901" version="1" timestamp="2009-01-26T15:30:18Z" uid="8619" user="cetest" changeset="839490" lat="51.9742117" lon="4.3816238"/>
  <node id="337592901" version="2" timestamp="2011-11-20T19:59:34Z" uid="48796" user="Ldp" changeset="9888940" lat="51.9742117" lon="4.3816238"/>
  <node id="337592904" version="1" timestamp="2009-01-26T15:30:19Z" uid="8619" user="cetest" changeset="839490" lat="51.9741025" lon="4.381452"/>
  <node id="337592904" version="2" timestamp="2011-11-20T19:59:34Z" uid="48796" user="Ldp" changeset="9888940" lat="51.9741025" lon="4.381452"/>
  <node id="337592908" version="1" timestamp="2009-01-26T15:30:19Z" uid="8619" user="cetest" changeset="839490" lat="51.9740463" lon="4.3811351"/>
  <node id="337592908" version="2" timestamp="2011-11-20T19:59:34Z" uid="48796" user="Ldp" changeset="9888940" lat="51.9740463" lon="4.3811351"/>
  <node id="337592912" version="1" timestamp="2009-01-26T15:30:19Z" uid="8619" user="cetest" changeset="839490" lat="51.9739603" lon="4.3807539"/>
  <node id="337592912" version="2" timestamp="2011-11-20T19:59:35Z" uid="48796" user="Ldp" changeset="9888940" lat="51.9739603" lon="4.3807539"/>
  <node id="337592916" version="1" timestamp="2009-01-26T15:30:19Z" uid="8619" user="cetest" changeset="839490" lat="51.973957" lon="4.3804907"/>
  <node id="337592916" version="2" timestamp="2011-11-20T19:59:35Z" uid="48796" user="Ldp" changeset="9888940" lat="51.973957" lon="4.3804907"/>
  <node id="337592919" version="1" timestamp="2009-01-26T15:30:19Z" uid="8619" user="cetest" changeset="839490" lat="51.9738908" lon="4.3800773"/>
  <node id="337592919" version="2" timestamp="2011-11-20T19:59:35Z" uid="48796" user="Ldp" changeset="9888940" lat="51.9738908" lon="4.3800773"/>
  <node id="337592925" version="1" timestamp="2009-01-26T15:30:20Z" uid="8619" user="cetest" changeset="839490" lat="51.9742051" lon="4.3786274"/>
  <node id="337592925" version="2" timestamp="2011-01-11T11:26:37Z" uid="301557" user="BikePC" changeset="6935601" lat="51.9742051" lon="4.3786274"/>
  <node id="337592925" version="3" timestamp="2011-11-21T22:25:54Z" uid="36080" user="polderrunner" changeset="9902734" lat="51.9742051" lon="4.3786274"/>
  <node id="337592928" version="1" timestamp="2009-01-26T15:30:20Z" uid="8619" user="cetest" changeset="839490" lat="51.9734542" lon="4.3795564"/>
  <node id="337592928" version="2" timestamp="2011-01-11T11:26:37Z" uid="301557" user="BikePC" changeset="6935601" lat="51.9734542" lon="4.3795564"/>
  <node id="337592928" version="3" timestamp="2011-11-21T22:25:55Z" uid="36080" user="polderrunner" changeset="9902734" lat="51.9734542" lon="4.3795564"/>
  <node id="337592935" version="1" timestamp="2009-01-26T15:30:20Z" uid="8619" user="cetest" changeset="839490" lat="51.9741819" lon="4.3838953"/>
  <node id="337592935" version="2" timestamp="2011-11-21T22:25:55Z" uid="36080" user="polderrunner" changeset="9902734" lat="51.9741819" lon="4.3838953"/>
  <node id="337592937" version="1" timestamp="2009-01-26T15:30:20Z" uid="92538" user="osm-ukraine" changeset="839185" lat="48.58463" lon="39.65721">
    <tag k="name" v="Новокиївка"/>
    <tag k="place" v="village"/>
  </node>
  <node id="337592937" version="3" timestamp="2009-02-01T16:47:27Z" uid="6975" user="ulfl" changeset="27333" lat="48.58463" lon="39.65721">
    <tag k="is_in" v="Луганська обл., Україна"/>
    <tag k="name" v="Новокиївка"/>
    <tag k="place" v="village"/>
  </node>
  <node id="337592941" version="1" timestamp="2009-01-26T15:30:20Z" uid="8619" user="cetest" changeset="839490" lat="51.9760324" lon="4.3918743"/>
  <node id="337592941" version="2" timestamp="2012-02-07T22:23:42Z" uid="36080" user="polderrunner" changeset="10617747" lat="51.9760324" lon="4.3918743"/>
  <node id="337592949" version="1" timestamp="2009-01-26T15:30:21Z" uid="8619" user="cetest" changeset="839490" lat="51.976123" lon="4.3922885"/>
  <node id="337592949" version="2" timestamp="2012-02-07T22:23:42Z" uid="36080" user="polderrunner" changeset="10617747" lat="51.976123" lon="4.3922885"/>
  <node id="337592955" version="1" timestamp="2009-01-26T15:30:21Z" uid="8619" user="cetest" changeset="839490" lat="51.9763287" lon="4.3925557"/>
  <node id="337592955" version="2" timestamp="2012-02-07T22:23:43Z" uid="36080" user="polderrunner" changeset="10617747" lat="51.9763287" lon="4.3925557"/>
  <node id="337592970" version="1" timestamp="2009-01-26T15:30:22Z" uid="92538" user="osm-ukraine" changeset="839185" lat="48.58429" lon="39.79248">
    <tag k="name" v="Кружилівка"/>
    <tag k="place" v="village"/>
  </node>
  <node id="337592970" version="3" timestamp="2009-02-01T16:47:04Z" uid="6975" user="ulfl" changeset="27333" lat="48.58429" lon="39.79248">
    <tag k="is_in" v="Луганська обл., Україна"/>
    <tag k="name" v="Кружилівка"/>
    <tag k="name:ru" v="Кружиловка"/>
    <tag k="place" v="village"/>
  </node>
  <node id="337592970" version="4" timestamp="2010-03-18T14:42:11Z" uid="66590" user="iONiX" changeset="4161824" lat="48.5842786" lon="39.7925022">
    <tag k="is_in" v="Луганська обл., Україна"/>
    <tag k="name" v="Кружилівка"/>
    <tag k="name:ru" v="Кружиловка"/>
    <tag k="place" v="village"/>
  </node>
  <node id="337593227" version="1" timestamp="2009-01-26T15:30:44Z" uid="92538" user="osm-ukraine" changeset="839185" lat="48.57777" lon="39.57756">
    <tag k="name" v="Піонерське"/>
    <tag k="place" v="village"/>
  </node>
  <node id="337593227" version="3" timestamp="2009-02-01T16:47:03Z" uid="6975" user="ulfl" changeset="27333" lat="48.57777" lon="39.57756">
    <tag k="is_in" v="Луганська обл., Україна"/>
    <tag k="name" v="Піонерське"/>
    <tag k="name:ru" v="Пионерское"/>
    <tag k="place" v="village"/>
  </node>
  <node id="337593336" version="1" timestamp="2009-01-26T15:30:52Z" uid="92538" user="osm-ukraine" changeset="839185" lat="48.57536" lon="39.51954">
    <tag k="name" v="Бурчак-Михайлівка"/>
    <tag k="place" v="village"/>
  </node>
  <node id="337593336" version="3" timestamp="2009-02-01T16:47:18Z" uid="6975" user="ulfl" changeset="27333" lat="48.57536" lon="39.51954">
    <tag k="is_in" v="Луганська обл., Україна"/>
    <tag k="name" v="Бурчак-Михайлівка"/>
    <tag k="place" v="village"/>
  </node>
  <node id="337593368" version="1" timestamp="2009-01-26T15:30:54Z" uid="92538" user="osm-ukraine" changeset="839185" lat="48.57399" lon="39.6167">
    <tag k="name" v="Хрящівка"/>
    <tag k="place" v="village"/>
  </node>
  <node id="337593368" version="4" timestamp="2009-02-01T16:47:27Z" uid="6975" user="ulfl" changeset="27333" lat="48.57399" lon="39.6167">
    <tag k="is_in" v="Луганська обл., Україна"/>
    <tag k="name" v="Хрящівка"/>
    <tag k="place" v="village"/>
  </node>
  <node id="337593370" version="3" timestamp="2009-02-08T22:50:43Z" uid="6975" user="ulfl" changeset="302124" lat="48.57399" lon="39.09588">
    <tag k="is_in" v="Луганська обл., Україна"/>
    <tag k="name" v="Говоруха"/>
    <tag k="place" v="village"/>
  </node>
  <node id="337593385" version="3" timestamp="2009-02-08T22:50:43Z" uid="6975" user="ulfl" changeset="302124" lat="48.57262" lon="39.07013">
    <tag k="is_in" v="Луганська обл., Україна"/>
    <tag k="name" v="Замостя"/>
    <tag k="place" v="village"/>
  </node>
  <node id="337593570" version="1" timestamp="2009-01-26T15:31:08Z" uid="92538" user="osm-ukraine" changeset="839185" lat="48.56747" lon="39.72828">
    <tag k="name" v="Хорошилове"/>
    <tag k="place" v="village"/>
  </node>
  <node id="337593570" version="3" timestamp="2009-02-01T16:47:05Z" uid="6975" user="ulfl" changeset="27333" lat="48.56747" lon="39.72828">
    <tag k="is_in" v="Луганська обл., Україна"/>
    <tag k="name" v="Хорошилове"/>
    <tag k="place" v="village"/>
  </node>
  <node id="337593570" version="4" timestamp="2011-12-05T16:10:49Z" uid="211300" user="yashka" changeset="10043170" lat="48.56747" lon="39.72828">
    <tag k="is_in" v="Луганська обл., Україна"/>
    <tag k="name" v="Хорошилове"/>
    <tag k="name:ru" v="Хорошилово"/>
    <tag k="place" v="village"/>
  </node>
  <node id="337593575" version="3" timestamp="2009-02-08T22:50:36Z" uid="6975" user="ulfl" changeset="302124" lat="48.56747" lon="39.14497">
    <tag k="is_in" v="Луганська обл., Україна"/>
    <tag k="name" v="Сабівка"/>
    <tag k="place" v="village"/>
  </node>
  <node id="337593739" version="3" timestamp="2009-02-08T22:50:39Z" uid="6975" user="ulfl" changeset="302124" lat="48.56369" lon="39.22291">
    <tag k="is_in" v="Луганська обл., Україна"/>
    <tag k="name" v="Дзержинське"/>
    <tag k="name:ru" v="Дзержинское"/>
    <tag k="place" v="village"/>
  </node>
  <node id="337593799" version="3" timestamp="2009-02-08T22:51:00Z" uid="6975" user="ulfl" changeset="302124" lat="48.56232" lon="38.64166">
    <tag k="is_in" v="Луганська обл., Україна"/>
    <tag k="name" v="Стаханов"/>
    <tag k="place" v="town"/>
  </node>
  <node id="337593799" version="4" timestamp="2011-05-10T16:52:41Z" uid="189858" user="Vort" changeset="8104052" lat="48.56232" lon="38.64166">
    <tag k="is_in" v="Луганська обл., Україна"/>
    <tag k="name" v="Стаханов"/>
    <tag k="place" v="town"/>
    <tag k="population" v="90000"/>
  </node>
  <node id="337593799" version="5" timestamp="2011-07-03T15:50:10Z" uid="213199" user="Варяг" changeset="8620197" lat="48.5623082" lon="38.6416719">
    <tag k="is_in" v="Луганська обл., Україна"/>
    <tag k="name" v="Стаханов"/>
    <tag k="place" v="town"/>
    <tag k="population" v="90000"/>
  </node>
  <node id="337593968" version="3" timestamp="2009-02-08T22:50:41Z" uid="6975" user="ulfl" changeset="302124" lat="48.55614" lon="39.17381">
    <tag k="is_in" v="Луганська обл., Україна"/>
    <tag k="name" v="Ювілейне"/>
    <tag k="name:ru" v="Юбилейное"/>
    <tag k="place" v="town"/>
  </node>
  <node id="337594154" version="1" timestamp="2009-01-26T15:31:33Z" uid="92538" user="osm-ukraine" changeset="839185" lat="48.55099" lon="39.49688">
    <tag k="name" v="Лобачеве"/>
    <tag k="place" v="village"/>
  </node>
  <node id="337594154" version="3" timestamp="2009-02-01T16:47:26Z" uid="6975" user="ulfl" changeset="27333" lat="48.55099" lon="39.49688">
    <tag k="is_in" v="Луганська обл., Україна"/>
    <tag k="name" v="Лобачеве"/>
    <tag k="place" v="village"/>
  </node>
  <node id="337594154" version="4" timestamp="2011-12-05T16:10:44Z" uid="211300" user="yashka" changeset="10043170" lat="48.55099" lon="39.49688">
    <tag k="is_in" v="Луганська обл., Україна"/>
    <tag k="name" v="Лобачеве"/>
    <tag k="name:ru" v="Лобачёво"/>
    <tag k="place" v="village"/>
  </node>
  <node id="337594423" version="1" timestamp="2009-01-26T15:31:47Z" uid="92538" user="osm-ukraine" changeset="839185" lat="48.54721" lon="39.72793">
    <tag k="name" v="Іллівка"/>
    <tag k="place" v="village"/>
  </node>
  <node id="337594423" version="3" timestamp="2009-02-01T16:47:05Z" uid="6975" user="ulfl" changeset="27333" lat="48.54721" lon="39.72793">
    <tag k="is_in" v="Луганська обл., Україна"/>
    <tag k="name" v="Іллівка"/>
    <tag k="place" v="village"/>
  </node>
  <node id="337594423" version="4" timestamp="2011-12-05T16:10:43Z" uid="211300" user="yashka" changeset="10043170" lat="48.54721" lon="39.72793">
    <tag k="is_in" v="Луганська обл., Україна"/>
    <tag k="name" v="Іллівка"/>
    <tag k="name:ru" v="Ильевка"/>
    <tag k="place" v="village"/>
  </node>
  <node id="337594536" version="2" timestamp="2010-01-03T10:05:57Z" uid="58091" user="Andreas M" changeset="3526229" lat="48.12461" lon="16.3893"/>
  <node id="337594541" version="2" timestamp="2010-01-03T10:05:51Z" uid="58091" user="Andreas M" changeset="3526229" lat="48.124475" lon="16.390093"/>
  <node id="337594546" version="2" timestamp="2010-01-03T10:05:52Z" uid="58091" user="Andreas M" changeset="3526229" lat="48.124418" lon="16.39052"/>
  <node id="337594549" version="2" timestamp="2010-01-03T10:05:52Z" uid="58091" user="Andreas M" changeset="3526229" lat="48.124342" lon="16.391002"/>
  <node id="337594557" version="2" timestamp="2010-01-03T10:05:53Z" uid="58091" user="Andreas M" changeset="3526229" lat="48.124207" lon="16.391825"/>
  <node id="337594562" version="2" timestamp="2010-01-03T10:05:53Z" uid="58091" user="Andreas M" changeset="3526229" lat="48.124112" lon="16.392477"/>
  <node id="337594567" version="2" timestamp="2010-01-03T10:05:53Z" uid="58091" user="Andreas M" changeset="3526229" lat="48.123997" lon="16.393072"/>
  <node id="337594575" version="2" timestamp="2010-01-03T10:05:54Z" uid="58091" user="Andreas M" changeset="3526229" lat="48.123882" lon="16.393923"/>
  <node id="337594583" version="2" timestamp="2010-01-03T10:05:54Z" uid="58091" user="Andreas M" changeset="3526229" lat="48.123747" lon="16.394633"/>
  <node id="337594593" version="2" timestamp="2010-01-03T10:05:55Z" uid="58091" user="Andreas M" changeset="3526229" lat="48.123708" lon="16.394917"/>
  <node id="337594909" version="1" timestamp="2009-01-26T15:32:12Z" uid="92538" user="osm-ukraine" changeset="839185" lat="48.53828" lon="39.48692">
    <tag k="name" v="Вишневий Діл"/>
    <tag k="place" v="village"/>
  </node>
  <node id="337594909" version="3" timestamp="2009-02-01T16:47:04Z" uid="6975" user="ulfl" changeset="27333" lat="48.53828" lon="39.48692">
    <tag k="is_in" v="Луганська обл., Україна"/>
    <tag k="name" v="Вишневий Діл"/>
    <tag k="place" v="village"/>
  </node>
  <node id="337594909" version="4" timestamp="2011-12-05T16:10:41Z" uid="211300" user="yashka" changeset="10043170" lat="48.53828" lon="39.48692">
    <tag k="is_in" v="Луганська обл., Україна"/>
    <tag k="name" v="Вишневий Діл"/>
    <tag k="name:ru" v="Вишнёвый Дол"/>
    <tag k="place" v="village"/>
  </node>
  <node id="337594913" version="3" timestamp="2009-02-08T22:50:36Z" uid="6975" user="ulfl" changeset="302124" lat="48.53828" lon="39.13742">
    <tag k="is_in" v="Луганська обл., Україна"/>
    <tag k="name" v="Гайове"/>
    <tag k="name:ru" v="Гаевое"/>
    <tag k="place" v="village"/>
  </node>
  <node id="337595276" version="3" timestamp="2009-02-08T22:50:41Z" uid="6975" user="ulfl" changeset="302124" lat="48.53073" lon="39.123">
    <tag k="is_in" v="Луганська обл., Україна"/>
    <tag k="name" v="Весела Тарасівка"/>
    <tag k="name:ru" v="Весёлая Тарасовка"/>
    <tag k="place" v="village"/>
  </node>
  <node id="337595527" version="3" timestamp="2009-02-08T22:51:01Z" uid="6975" user="ulfl" changeset="302124" lat="48.52592" lon="38.59051">
    <tag k="is_in" v="Луганська обл., Україна"/>
    <tag k="name" v="Алмазна"/>
    <tag k="place" v="village"/>
  </node>
  <node id="337595721" version="1" timestamp="2009-01-26T15:32:51Z" uid="92538" user="osm-ukraine" changeset="839185" lat="48.52009" lon="39.48933">
    <tag k="name" v="Валіївка"/>
    <tag k="place" v="village"/>
  </node>
  <node id="337595721" version="3" timestamp="2009-02-01T16:47:09Z" uid="6975" user="ulfl" changeset="27333" lat="48.52009" lon="39.48933">
    <tag k="is_in" v="Луганська обл., Україна"/>
    <tag k="name" v="Валіївка"/>
    <tag k="place" v="village"/>
  </node>
  <node id="337595721" version="4" timestamp="2011-12-05T16:10:40Z" uid="211300" user="yashka" changeset="10043170" lat="48.52009" lon="39.48933">
    <tag k="is_in" v="Луганська обл., Україна"/>
    <tag k="name" v="Валіївка"/>
    <tag k="name:ru" v="Валеевка"/>
    <tag k="place" v="village"/>
  </node>
  <node id="337595889" version="1" timestamp="2009-01-26T15:32:57Z" uid="92538" user="osm-ukraine" changeset="839185" lat="48.51528" lon="39.42684">
    <tag k="name" v="Хрящувате"/>
    <tag k="place" v="village"/>
  </node>
  <node id="337595889" version="3" timestamp="2009-02-01T16:47:19Z" uid="6975" user="ulfl" changeset="27333" lat="48.51528" lon="39.42684">
    <tag k="is_in" v="Луганська область, Україна"/>
    <tag k="name" v="Хрящувате"/>
    <tag k="name:ru" v="Хрящеватое"/>
    <tag k="place" v="village"/>
  </node>
  <node id="337596069" version="1" timestamp="2009-01-26T15:33:05Z" uid="92538" user="osm-ukraine" changeset="839185" lat="48.50841" lon="39.82784">
    <tag k="name" v="Давидо-Микільське"/>
    <tag k="place" v="village"/>
  </node>
  <node id="337596069" version="3" timestamp="2009-02-01T16:47:26Z" uid="6975" user="ulfl" changeset="27333" lat="48.50841" lon="39.82784">
    <tag k="is_in" v="Луганська обл., Україна"/>
    <tag k="name" v="Давидо-Микільське"/>
    <tag k="name:ru" v="Давыдово-Никольское"/>
    <tag k="place" v="village"/>
  </node>
  <node id="337596639" version="1" timestamp="2009-01-26T15:33:33Z" uid="92538" user="osm-ukraine" changeset="839185" lat="48.49434" lon="39.73137">
    <tag k="name" v="Пантеліївка"/>
    <tag k="place" v="village"/>
  </node>
  <node id="337596639" version="3" timestamp="2009-02-01T16:47:11Z" uid="6975" user="ulfl" changeset="27333" lat="48.49434" lon="39.73137">
    <tag k="is_in" v="Луганська обл., Україна"/>
    <tag k="name" v="Пантеліївка"/>
    <tag k="place" v="village"/>
  </node>
  <node id="337596639" version="4" timestamp="2011-12-05T16:10:46Z" uid="211300" user="yashka" changeset="10043170" lat="48.49434" lon="39.73137">
    <tag k="is_in" v="Луганська обл., Україна"/>
    <tag k="name" v="Пантеліївка"/>
    <tag k="name:ru" v="Пантелеевка"/>
    <tag k="place" v="village"/>
  </node>
  <node id="337596788" version="1" timestamp="2009-01-26T15:33:40Z" uid="92538" user="osm-ukraine" changeset="839185" lat="48.49056" lon="39.50786">
    <tag k="name" v="Новосвітлівка"/>
    <tag k="place" v="village"/>
  </node>
  <node id="337596788" version="3" timestamp="2009-02-01T16:47:28Z" uid="6975" user="ulfl" changeset="27333" lat="48.49056" lon="39.50786">
    <tag k="is_in" v="Луганська обл., Україна"/>
    <tag k="name" v="Новосвітлівка"/>
    <tag k="name:ru" v="Новосветловка"/>
    <tag k="place" v="village"/>
  </node>
  <node id="337596806" version="3" timestamp="2009-02-08T22:50:35Z" uid="6975" user="ulfl" changeset="302124" lat="48.48987" lon="39.27235">
    <tag k="is_in" v="Луганська обл., Україна"/>
    <tag k="name" v="Розкішне"/>
    <tag k="name:ru" v="Роскошное"/>
    <tag k="place" v="town"/>
  </node>
  <node id="337596878" version="1" timestamp="2009-01-26T15:33:47Z" uid="92538" user="osm-ukraine" changeset="839185" lat="48.48507" lon="39.69635">
    <tag k="name" v="Водоток"/>
    <tag k="place" v="village"/>
  </node>
  <node id="337596878" version="3" timestamp="2009-02-01T16:47:12Z" uid="6975" user="ulfl" changeset="27333" lat="48.48507" lon="39.69635">
    <tag k="is_in" v="Луганська обл., Україна"/>
    <tag k="name" v="Водоток"/>
    <tag k="place" v="village"/>
  </node>
  <node id="337596878" version="4" timestamp="2011-12-05T16:10:41Z" uid="211300" user="yashka" changeset="10043170" lat="48.48507" lon="39.69635">
    <tag k="is_in" v="Луганська обл., Україна"/>
    <tag k="name" v="Водоток"/>
    <tag k="name:ru" v="Водоток"/>
    <tag k="place" v="village"/>
  </node>
  <node id="337596981" version="3" timestamp="2009-02-08T22:50:41Z" uid="6975" user="ulfl" changeset="302124" lat="48.48129" lon="39.09794">
    <tag k="is_in" v="Луганська обл., Україна"/>
    <tag k="name" v="Збірне"/>
    <tag k="place" v="village"/>
  </node>
  <node id="337597278" version="1" timestamp="2009-01-26T15:34:03Z" uid="92538" user="osm-ukraine" changeset="839185" lat="48.47237" lon="39.58305">
    <tag k="name" v="Лисе"/>
    <tag k="place" v="village"/>
  </node>
  <node id="337597278" version="3" timestamp="2009-02-01T16:47:27Z" uid="6975" user="ulfl" changeset="27333" lat="48.47237" lon="39.58305">
    <tag k="is_in" v="Луганська обл., Україна"/>
    <tag k="name" v="Лисе"/>
    <tag k="place" v="village"/>
  </node>
  <node id="337597278" version="4" timestamp="2011-12-05T16:10:45Z" uid="211300" user="yashka" changeset="10043170" lat="48.47237" lon="39.58305">
    <tag k="is_in" v="Луганська обл., Україна"/>
    <tag k="name" v="Лисе"/>
    <tag k="name:ru" v="Лысое"/>
    <tag k="place" v="village"/>
  </node>
  <node id="337597675" version="1" timestamp="2009-01-26T15:34:24Z" uid="92538" user="osm-ukraine" changeset="839185" lat="48.46172" lon="39.5216">
    <tag k="name" v="Катеринівка"/>
    <tag k="place" v="village"/>
  </node>
  <node id="337597675" version="3" timestamp="2009-02-01T16:47:08Z" uid="6975" user="ulfl" changeset="27333" lat="48.46172" lon="39.5216">
    <tag k="is_in" v="Луганська обл., Україна"/>
    <tag k="name" v="Катеринівка"/>
    <tag k="place" v="village"/>
  </node>
  <node id="337597675" version="4" timestamp="2011-12-05T16:10:43Z" uid="211300" user="yashka" changeset="10043170" lat="48.46172" lon="39.5216">
    <tag k="is_in" v="Луганська обл., Україна"/>
    <tag k="name" v="Катеринівка"/>
    <tag k="name:ru" v="Катериновка"/>
    <tag k="place" v="village"/>
  </node>
  <node id="337597980" version="1" timestamp="2009-01-26T15:34:35Z" uid="92538" user="osm-ukraine" changeset="839185" lat="48.45417" lon="39.41379">
    <tag k="name" v="Тернове"/>
    <tag k="place" v="village"/>
  </node>
  <node id="337597980" version="3" timestamp="2009-02-01T16:47:27Z" uid="6975" user="ulfl" changeset="27333" lat="48.45417" lon="39.41379">
    <tag k="is_in" v="Луганська обл., Україна"/>
    <tag k="name" v="Тернове"/>
    <tag k="place" v="village"/>
  </node>
  <node id="337598031" version="1" timestamp="2009-01-26T15:34:38Z" uid="22361" user="mercedon" changeset="840468" lat="51.5394956" lon="6.6135355">
    <tag k="amenity" v="firestation"/>
    <tag k="created_by" v="Potlatch 0.10f"/>
  </node>
  <node id="337598031" version="2" timestamp="2009-02-01T18:33:22Z" uid="6975" user="ulfl" changeset="27333" lat="51.5394956" lon="6.6135355">
    <tag k="amenity" v="fire_station"/>
  </node>
  <node id="337598031" version="3" timestamp="2009-08-24T20:33:39Z" uid="42533" user="Wunibald" changeset="2249961" lat="51.5394956" lon="6.6135355">
    <tag k="amenity" v="fire_station"/>
  </node>
  <node id="337598040" version="1" timestamp="2009-01-26T15:34:38Z" uid="92538" user="osm-ukraine" changeset="839185" lat="48.4528" lon="39.50992">
    <tag k="name" v="Видно-Софіївка"/>
    <tag k="place" v="village"/>
  </node>
  <node id="337598040" version="3" timestamp="2009-02-01T16:47:22Z" uid="6975" user="ulfl" changeset="27333" lat="48.4528" lon="39.50992">
    <tag k="is_in" v="Луганська обл., Україна"/>
    <tag k="name" v="Видно-Софіївка"/>
    <tag k="place" v="village"/>
  </node>
  <node id="337598040" version="4" timestamp="2011-12-05T16:10:41Z" uid="211300" user="yashka" changeset="10043170" lat="48.4528" lon="39.50992">
    <tag k="is_in" v="Луганська обл., Україна"/>
    <tag k="name" v="Видно-Софіївка"/>
    <tag k="name:ru" v="Видно-Софиевка"/>
    <tag k="place" v="village"/>
  </node>
  <node id="337598075" version="1" timestamp="2009-01-26T15:34:39Z" uid="92538" user="osm-ukraine" changeset="839185" lat="48.45142" lon="39.68399">
    <tag k="name" v="Габун"/>
    <tag k="place" v="village"/>
  </node>
  <node id="337598075" version="3" timestamp="2009-02-01T16:47:20Z" uid="6975" user="ulfl" changeset="27333" lat="48.45142" lon="39.68399">
    <tag k="is_in" v="Луганська обл., Україна"/>
    <tag k="name" v="Габун"/>
    <tag k="place" v="village"/>
  </node>
  <node id="337598075" version="4" timestamp="2011-12-05T16:10:41Z" uid="211300" user="yashka" changeset="10043170" lat="48.45142" lon="39.68399">
    <tag k="is_in" v="Луганська обл., Україна"/>
    <tag k="name" v="Габун"/>
    <tag k="name:ru" v="Габун"/>
    <tag k="place" v="village"/>
  </node>
  <node id="337598161" version="1" timestamp="2009-01-26T15:34:43Z" uid="92538" user="osm-ukraine" changeset="839185" lat="48.44799" lon="39.65858">
    <tag k="name" v="Білоскелювате"/>
    <tag k="place" v="village"/>
  </node>
  <node id="337598161" version="3" timestamp="2009-02-01T16:47:07Z" uid="6975" user="ulfl" changeset="27333" lat="48.44799" lon="39.65858">
    <tag k="is_in" v="Луганська обл., Україна"/>
    <tag k="name" v="Білоскелювате"/>
    <tag k="place" v="village"/>
  </node>
  <node id="337598161" version="4" timestamp="2011-12-05T16:10:40Z" uid="211300" user="yashka" changeset="10043170" lat="48.44799" lon="39.65858">
    <tag k="is_in" v="Луганська обл., Україна"/>
    <tag k="name" v="Білоскелювате"/>
    <tag k="name:ru" v="Белоскелеватое"/>
    <tag k="place" v="village"/>
  </node>
  <node id="337598507" version="3" timestamp="2009-02-08T22:50:36Z" uid="6975" user="ulfl" changeset="302124" lat="48.43769" lon="39.10377">
    <tag k="is_in" v="Луганська обл., Україна"/>
    <tag k="name" v="Білоріченський"/>
    <tag k="place" v="village"/>
  </node>
  <node id="337598560" version="3" timestamp="2009-02-08T22:50:39Z" uid="6975" user="ulfl" changeset="302124" lat="48.43494" lon="39.15012">
    <tag k="is_in" v="Луганська обл., Україна"/>
    <tag k="name" v="Леніна"/>
    <tag k="place" v="village"/>
  </node>
  <node id="337598684" version="1" timestamp="2009-01-26T15:35:12Z" uid="92538" user="osm-ukraine" changeset="839185" lat="48.43151" lon="39.52537">
    <tag k="name" v="Новоганнівка"/>
    <tag k="place" v="village"/>
  </node>
  <node id="337598684" version="3" timestamp="2009-02-01T16:47:25Z" uid="6975" user="ulfl" changeset="27333" lat="48.43151" lon="39.52537">
    <tag k="is_in" v="Луганська обл., Україна"/>
    <tag k="name" v="Новоганнівка"/>
    <tag k="place" v="village"/>
  </node>
  <node id="337598684" version="4" timestamp="2011-12-05T16:10:46Z" uid="211300" user="yashka" changeset="10043170" lat="48.43151" lon="39.52537">
    <tag k="is_in" v="Луганська обл., Україна"/>
    <tag k="name" v="Новоганнівка"/>
    <tag k="name:ru" v="Новоанновка"/>
    <tag k="place" v="village"/>
  </node>
  <node id="337598729" version="3" timestamp="2009-02-08T22:50:35Z" uid="6975" user="ulfl" changeset="302124" lat="48.43014" lon="39.26926">
    <tag k="is_in" v="Луганська обл., Україна"/>
    <tag k="name" v="Георгіївка"/>
    <tag k="name:ru" v="Георгиевка"/>
    <tag k="place" v="town"/>
  </node>
  <node id="337598764" version="3" timestamp="2009-02-08T22:50:37Z" uid="6975" user="ulfl" changeset="302124" lat="48.42911" lon="39.18926">
    <tag k="is_in" v="Луганська обл., Україна"/>
    <tag k="name" v="Челюскінець"/>
    <tag k="place" v="village"/>
  </node>
  <node id="337599060" version="2" timestamp="2010-01-03T10:05:54Z" uid="58091" user="Andreas M" changeset="3526229" lat="48.124837" lon="16.390208"/>
  <node id="337599067" version="2" timestamp="2010-01-03T10:05:52Z" uid="58091" user="Andreas M" changeset="3526229" lat="48.125158" lon="16.39035"/>
  <node id="337599074" version="2" timestamp="2010-01-03T10:05:53Z" uid="58091" user="Andreas M" changeset="3526229" lat="48.125328" lon="16.390435"/>
  <node id="337599191" version="3" timestamp="2009-02-08T22:50:44Z" uid="6975" user="ulfl" changeset="302124" lat="48.41743" lon="39.11819">
    <tag k="is_in" v="Луганська обл., Україна"/>
    <tag k="name" v="Врубівський"/>
    <tag k="place" v="village"/>
  </node>
  <node id="337599437" version="1" timestamp="2009-01-26T15:35:43Z" uid="92538" user="osm-ukraine" changeset="839185" lat="48.41228" lon="39.72519">
    <tag k="name" v="Липове"/>
    <tag k="place" v="village"/>
  </node>
  <node id="337599437" version="3" timestamp="2009-02-01T16:47:28Z" uid="6975" user="ulfl" changeset="27333" lat="48.41228" lon="39.72519">
    <tag k="is_in" v="Луганська обл., Україна"/>
    <tag k="name" v="Липове"/>
    <tag k="place" v="village"/>
  </node>
  <node id="337599437" version="4" timestamp="2011-12-05T16:10:44Z" uid="211300" user="yashka" changeset="10043170" lat="48.41228" lon="39.72519">
    <tag k="is_in" v="Луганська обл., Україна"/>
    <tag k="name" v="Липове"/>
    <tag k="name:ru" v="Липовое"/>
    <tag k="place" v="village"/>
  </node>
  <node id="337599726" version="2" timestamp="2010-01-03T10:05:48Z" uid="58091" user="Andreas M" changeset="3526229" lat="48.125043" lon="16.391258"/>
  <node id="337599734" version="2" timestamp="2010-01-03T10:05:48Z" uid="58091" user="Andreas M" changeset="3526229" lat="48.124852" lon="16.392337"/>
  <node id="337599741" version="2" timestamp="2010-01-03T10:05:47Z" uid="58091" user="Andreas M" changeset="3526229" lat="48.124717" lon="16.393272"/>
  <node id="337599745" version="2" timestamp="2010-01-03T10:05:48Z" uid="58091" user="Andreas M" changeset="3526229" lat="48.124602" lon="16.393727"/>
  <node id="337599752" version="2" timestamp="2010-01-03T10:05:47Z" uid="58091" user="Andreas M" changeset="3526229" lat="48.124448" lon="16.394917"/>
  <node id="337599760" version="2" timestamp="2010-01-03T10:05:56Z" uid="58091" user="Andreas M" changeset="3526229" lat="48.124333" lon="16.395513"/>
  <node id="337591643" version="5" timestamp="2012-06-10T20:11:42Z" uid="643371" user="Went" changeset="11858742" lat="48.6278127" lon="39.2132791">
    <tag k="addr:postcode" v="93733"/>
    <tag k="is_in" v="Луганська обл., Україна"/>
    <tag k="koatuu" v="4424583902"/>
    <tag k="name" v="Земляне"/>
    <tag k="name:en" v="Zemliane"/>
    <tag k="name:ru" v="Земляное"/>
    <tag k="name:uk" v="Земляне"/>
    <tag k="place" v="village"/>
    <tag k="population" v="16"/>
    <tag k="wikipedia" v="uk:Земляне (Слов&apos;яносербський район)"/>
    <tag k="wikipedia:ru" v="Земляное (Луганская область)"/>
  </node>
  <node id="337592635" version="7" timestamp="2012-06-10T20:11:42Z" uid="643371" user="Went" changeset="11858742" lat="48.5854671" lon="39.1909691">
    <tag k="addr:postcode" v="91489"/>
    <tag k="is_in" v="Луганська обл., Україна"/>
    <tag k="koatuu" v="4410160300"/>
    <tag k="name" v="Олександрівськ"/>
    <tag k="name:be" v="Аляксандраўка"/>
    <tag k="name:en" v="Oleksandrivsk"/>
    <tag k="name:ru" v="Александровск"/>
    <tag k="name:uk" v="Олександрівськ"/>
    <tag k="place" v="town"/>
    <tag k="population" v="6709"/>
    <tag k="wikipedia" v="uk:Олександрівськ"/>
    <tag k="wikipedia:ru" v="Александровск (Луганская область)"/>
  </node>
  <node id="337595527" version="5" timestamp="2012-04-16T09:03:17Z" uid="356014" user="_sev" changeset="11319492" lat="48.52592" lon="38.59051">
    <tag k="addr:postcode" v="94095-94097"/>
    <tag k="is_in" v="Луганська обл., Україна"/>
    <tag k="koatuu" v="4413170200"/>
    <tag k="name" v="Алмазна"/>
    <tag k="name:en" v="Almazna"/>
    <tag k="name:ru" v="Алмазная"/>
    <tag k="name:uk" v="Алмазна"/>
    <tag k="place" v="village"/>
    <tag k="population" v="4384"/>
    <tag k="wikipedia" v="uk:Алмазна"/>
    <tag k="wikipedia:ru" v="Алмазная"/>
  </node>
  <node id="337595527" version="6" timestamp="2012-06-19T22:41:42Z" uid="440812" user="dudka" changeset="11953629" lat="48.52592" lon="38.59051">
    <tag k="addr:postcode" v="94095-94097"/>
    <tag k="is_in" v="Луганська обл., Україна"/>
    <tag k="koatuu" v="4413170200"/>
    <tag k="name" v="Алмазна"/>
    <tag k="name:en" v="Almazna"/>
    <tag k="name:ru" v="Алмазная"/>
    <tag k="name:uk" v="Алмазна"/>
    <tag k="place" v="town"/>
    <tag k="population" v="4384"/>
    <tag k="wikipedia" v="uk:Алмазна"/>
    <tag k="wikipedia:ru" v="Алмазная"/>
  </node>
  <node id="337596788" version="5" timestamp="2012-04-16T09:07:02Z" uid="356014" user="_sev" changeset="11319492" lat="48.49056" lon="39.50786">
    <tag k="addr:postcode" v="94456"/>
    <tag k="is_in" v="Луганська обл., Україна"/>
    <tag k="koatuu" v="4421456200"/>
    <tag k="name" v="Новосвітлівка"/>
    <tag k="name:en" v="Novosvitlivka"/>
    <tag k="name:ru" v="Новосветловка"/>
    <tag k="name:uk" v="Новосвітлівка"/>
    <tag k="place" v="village"/>
    <tag k="population" v="3755"/>
    <tag k="wikipedia" v="uk:Новосвітлівка (смт)"/>
    <tag k="wikipedia:ru" v="Новосветловка (Луганская область)"/>
  </node>
</osm>
