<?xml version='1.0' encoding='UTF-8'?>
<osm version="0.6" generator="libosmium/2.20.0">
  <node id="337576644" version="4" timestamp="2009-02-07T15:55:35Z" uid="6975" user="ulfl" changeset="238208" lat="49.00452" lon="38.36941">
    <tag k="is_in" v="Луганська обл., Україна"/>
    <tag k="name" v="Рубіжне"/>
    <tag k="name:ru" v="Рубежное"/>
    <tag k="place" v="town"/>
  </node>
  <node id="337576644" version="5" timestamp="2009-10-25T21:13:55Z" uid="117960" user="va-deam" changeset="2951252" lat="49.0223545" lon="38.3663076">
    <tag k="is_in" v="Луганська обл., Україна"/>
    <tag k="name" v="Рубіжне"/>
    <tag k="name:ru" v="Рубежное"/>
    <tag k="place" v="town"/>
  </node>
  <node id="337576644" version="6" timestamp="2009-12-05T17:35:55Z" uid="117960" user="va-deam" changeset="3297050" lat="49.0223545" lon="38.3663076">
    <tag k="is_in" v="Луганська обл., Україна"/>
    <tag k="layer" v="5"/>
    <tag k="name" v="Рубіжне"/>
    <tag k="name:en" v="Rubizhne"/>
    <tag k="name:ru" v="Рубежное"/>
    <tag k="place" v="town"/>
    <tag k="population" v="61400"/>
    <tag k="postal_code" v="93000"/>
  </node>
  <node id="337576644" version="7" timestamp="2011-09-13T16:44:53Z" uid="29320" user="Komяpa" changeset="9290837" lat="49.0223545" lon="38.3663076">
    <tag k="addr:postcode" v="93000"/>
    <tag k="is_in" v="Луганська обл., Україна"/>
    <tag k="layer" v="5"/>
    <tag k="name" v="Рубіжне"/>
    <tag k="name:en" v="Rubizhne"/>
    <tag k="name:ru" v="Рубежное"/>
    <tag k="place" v="town"/>
    <tag k="population" v="61400"/>
  </node>
  <node id="337577984" version="3" timestamp="2009-02-07T15:55:35Z" uid="6975" user="ulfl" changeset="238208" lat="48.97877" lon="38.58192">
    <tag k="is_in" v="Луганська обл., Україна"/>
    <tag k="name" v="Пурдівка"/>
    <tag k="place" v="village"/>
  </node>
  <node id="337577984" version="4" timestamp="2010-08-01T15:51:43Z" uid="117960" user="va-deam" changeset="5372023" lat="48.9784586" lon="38.5788343">
    <tag k="is_in" v="Луганська обл., Україна"/>
    <tag k="name" v="Пурдівка"/>
    <tag k="place" v="village"/>
  </node>
  <node id="337578030" version="3" timestamp="2009-02-07T15:55:34Z" uid="6975" user="ulfl" changeset="238208" lat="48.97739" lon="38.44665">
    <tag k="is_in" v="Луганська обл., Україна"/>
    <tag k="name" v="Воєводівка"/>
    <tag k="place" v="village"/>
  </node>
  <node id="337578030" version="4" timestamp="2009-04-26T17:15:56Z" uid="117960" user="va-deam" changeset="977442" lat="48.9804354" lon="38.4453368">
    <tag k="is_in" v="Луганська обл., Україна"/>
    <tag k="name" v="Воєводівка"/>
    <tag k="name:en" v="Voyevodivka"/>
    <tag k="name:ru" v="Воеводовка"/>
    <tag k="place" v="village"/>
  </node>
  <node id="337578208" version="3" timestamp="2009-02-07T15:55:34Z" uid="6975" user="ulfl" changeset="238208" lat="48.97259" lon="38.62724">
    <tag k="is_in" v="Луганська обл., Україна"/>
    <tag k="name" v="Олександрівка"/>
    <tag k="place" v="village"/>
  </node>
  <node id="337578208" version="4" timestamp="2010-08-01T15:51:44Z" uid="117960" user="va-deam" changeset="5372023" lat="48.97259" lon="38.6272399">
    <tag k="is_in" v="Луганська обл., Україна"/>
    <tag k="name" v="Олександрівка"/>
    <tag k="name:en" v="Oleksandrivka"/>
    <tag k="name:ru" v="Александровка"/>
    <tag k="place" v="village"/>
  </node>
  <node id="337578208" version="5" timestamp="2011-12-06T18:26:26Z" uid="29320" user="Komяpa" changeset="10052059" lat="48.97259" lon="38.6272399">
    <tag k="is_in" v="Луганська обл., Україна"/>
    <tag k="name" v="Олександрівка"/>
    <tag k="name:be" v="Аляксандраўка"/>
    <tag k="name:en" v="Oleksandrivka"/>
    <tag k="name:ru" v="Александровка"/>
    <tag k="place" v="village"/>
  </node>
  <node id="337578208" version="6" timestamp="2011-12-21T16:03:46Z" uid="29320" user="Komяpa" changeset="10172443" lat="48.97259" lon="38.6272399">
    <tag k="is_in" v="Луганська обл., Україна"/>
    <tag k="name" v="Олександрівка"/>
    <tag k="name:be" v="Аляксандраўка"/>
    <tag k="name:en" v="Oleksandrivka"/>
    <tag k="name:ru" v="Александровка"/>
    <tag k="name:uk" v="Олександрівка"/>
    <tag k="place" v="village"/>
  </node>
  <node id="337579120" version="3" timestamp="2009-02-07T15:55:35Z" uid="6975" user="ulfl" changeset="238208" lat="48.95302" lon="38.35773">
    <tag k="is_in" v="Луганська обл., Україна"/>
    <tag k="name" v="Новодружеськ"/>
    <tag k="place" v="town"/>
  </node>
  <node id="337579120" version="4" timestamp="2009-10-25T21:13:53Z" uid="117960" user="va-deam" changeset="2951252" lat="48.9656998" lon="38.3481115">
    <tag k="is_in" v="Луганська обл., Україна"/>
    <tag k="name" v="Новодружеськ"/>
    <tag k="place" v="town"/>
  </node>
  <node id="337579120" version="5" timestamp="2011-01-10T00:30:42Z" uid="392787" user="OldFox" changeset="6922402" lat="48.9656998" lon="38.3481114">
    <tag k="is_in" v="Луганська обл., Україна"/>
    <tag k="name" v="Новодружеск"/>
    <tag k="place" v="town"/>
  </node>
  <node id="337579120" version="6" timestamp="2011-01-25T21:04:13Z" uid="392787" user="OldFox" changeset="7088110" lat="48.9656998" lon="38.3481114">
    <tag k="is_in" v="Луганська обл., Україна"/>
    <tag k="name" v="Новодружеск"/>
    <tag k="place" v="city"/>
  </node>
  <node id="337579120" version="7" timestamp="2011-02-06T07:00:18Z" uid="392787" user="OldFox" changeset="7200249" lat="48.9656998" lon="38.3481114">
    <tag k="is_in" v="Луганська обл., Україна"/>
    <tag k="name" v="Новодружеск"/>
    <tag k="name:ua" v="Новодружеськ"/>
    <tag k="place" v="city"/>
  </node>
  <node id="337579120" version="8" timestamp="2011-02-13T13:42:05Z" uid="117960" user="va-deam" changeset="7275417" lat="48.9656998" lon="38.3481116">
    <tag k="is_in" v="Луганська обл., Україна"/>
    <tag k="name" v="Новодружеськ"/>
    <tag k="name:en" v="Novodruzhesk"/>
    <tag k="name:ru" v="Новодружеск"/>
    <tag k="place" v="town"/>
    <tag k="population" v="8000"/>
    <tag k="postal_code" v="93192"/>
  </node>
  <node id="337579120" version="9" timestamp="2011-02-19T20:06:41Z" uid="392787" user="OldFox" changeset="7335892" lat="48.9656998" lon="38.3481116">
    <tag k="is_in" v="Луганська обл., Україна"/>
    <tag k="name" v="Новодружеськ"/>
    <tag k="name:en" v="Novodruzhesk"/>
    <tag k="name:ru" v="Новодружеск"/>
    <tag k="place" v="town"/>
    <tag k="population" v="8000"/>
    <tag k="postal_code" v="93193"/>
  </node>
  <node id="337579120" version="10" timestamp="2011-05-02T17:47:28Z" uid="392787" user="OldFox" changeset="8032696" lat="48.9656998" lon="38.3481115">
    <tag k="is_in" v="Луганская обл., Україна"/>
    <tag k="name" v="Новодружеск"/>
    <tag k="name:en" v="Novodruzhesk"/>
    <tag k="name:ru" v="Новодружеск"/>
    <tag k="place" v="town"/>
    <tag k="population" v="8000"/>
    <tag k="postal_code" v="93193"/>
  </node>
  <node id="337579120" version="11" timestamp="2011-05-02T17:50:05Z" uid="392787" user="OldFox" changeset="8032733" lat="48.9656998" lon="38.3481114">
    <tag k="is_in" v="Луганская обл., Україна"/>
    <tag k="name" v="Новодружеск"/>
    <tag k="name:en" v="Novodruzhesk"/>
    <tag k="place" v="town"/>
    <tag k="population" v="8000"/>
    <tag k="postal_code" v="93193"/>
  </node>
  <node id="337579120" version="12" timestamp="2011-05-06T20:46:40Z" uid="117960" user="va-deam" changeset="8068841" lat="48.9656998" lon="38.3481114">
    <tag k="is_in" v="Луганська обл., Україна"/>
    <tag k="name" v="Новодружеськ"/>
    <tag k="name:en" v="Novodruzhesk"/>
    <tag k="name:ru" v="Новодружеск"/>
    <tag k="place" v="town"/>
    <tag k="population" v="8000"/>
    <tag k="postal_code" v="93193"/>
  </node>
  <node id="337579120" version="13" timestamp="2011-05-12T23:21:06Z" uid="392787" user="OldFox" changeset="8127360" lat="48.9656998" lon="38.3481114">
    <tag k="is_in" v="Луганська обл., Україна"/>
    <tag k="name" v="Новодружеськ"/>
    <tag k="name:en" v="Novodruzhesk"/>
    <tag k="name:ru" v="Новодружеск"/>
    <tag k="place" v="town"/>
    <tag k="population" v="8000"/>
    <tag k="postal_code" v="93193"/>
  </node>
  <node id="337579120" version="14" timestamp="2011-09-13T16:44:38Z" uid="29320" user="Komяpa" changeset="9290837" lat="48.9656998" lon="38.3481114">
    <tag k="addr:postcode" v="93193"/>
    <tag k="is_in" v="Луганська обл., Україна"/>
    <tag k="name" v="Новодружеськ"/>
    <tag k="name:en" v="Novodruzhesk"/>
    <tag k="name:ru" v="Новодружеск"/>
    <tag k="place" v="town"/>
    <tag k="population" v="8000"/>
  </node>
  <node id="337579120" version="15" timestamp="2011-10-26T20:13:00Z" uid="392787" user="OldFox" changeset="9663642" lat="48.9640966" lon="38.350496">
    <tag k="addr:postcode" v="93193"/>
    <tag k="is_in" v="Луганська обл., Україна"/>
    <tag k="name" v="Новодружеськ"/>
    <tag k="name:en" v="Novodruzhesk"/>
    <tag k="name:ru" v="Новодружеск"/>
    <tag k="place" v="town"/>
    <tag k="population" v="8000"/>
  </node>
  <node id="337579305" version="3" timestamp="2009-02-07T15:55:36Z" uid="6975" user="ulfl" changeset="238208" lat="48.94752" lon="38.40786">
    <tag k="is_in" v="Луганська обл., Україна"/>
    <tag k="name" v="Синецький"/>
    <tag k="place" v="village"/>
  </node>
  <node id="337579305" version="4" timestamp="2011-05-12T16:16:57Z" uid="392787" user="OldFox" changeset="8123781" lat="48.9490454" lon="38.4084262">
    <tag k="is_in" v="Луганська обл., Україна"/>
    <tag k="name" v="Синецький"/>
    <tag k="place" v="village"/>
  </node>
  <node id="337579368" version="4" timestamp="2009-02-07T15:55:35Z" uid="6975" user="ulfl" changeset="238208" lat="48.94512" lon="38.47927">
    <tag k="is_in" v="Луганська обл., Україна"/>
    <tag k="name" v="Сєверодонецьк"/>
    <tag k="name:ru" v="Северодонецк"/>
    <tag k="place" v="town"/>
  </node>
  <node id="337579368" version="5" timestamp="2009-04-24T13:52:36Z" uid="117960" user="va-deam" changeset="928342" lat="48.9389176" lon="38.4991108">
    <tag k="is_in" v="Луганська обл., Україна"/>
    <tag k="name" v="Сєвєродонецьк"/>
    <tag k="name:en" v="Severodonetsk"/>
    <tag k="name:ru" v="Северодонецк"/>
    <tag k="place" v="city"/>
    <tag k="population" v="113299"/>
    <tag k="postal_code" v="93400"/>
  </node>
  <node id="337579368" version="6" timestamp="2009-04-26T17:16:56Z" uid="117960" user="va-deam" changeset="977442" lat="48.9428478" lon="38.5007834">
    <tag k="is_in" v="Луганська обл., Україна"/>
    <tag k="layer" v="5"/>
    <tag k="name" v="Сєвєродонецьк"/>
    <tag k="name:en" v="Severodonetsk"/>
    <tag k="name:ru" v="Северодонецк"/>
    <tag k="place" v="city"/>
    <tag k="population" v="113299"/>
    <tag k="postal_code" v="93400"/>
  </node>
  <node id="337579368" version="7" timestamp="2009-04-26T17:44:51Z" uid="117960" user="va-deam" changeset="977442" lat="48.9428478" lon="38.5007834">
    <tag k="is_in" v="Луганська обл., Україна"/>
    <tag k="layer" v="5"/>
    <tag k="name" v="Сєвєродонецьк"/>
    <tag k="name:en" v="Severodonetsk"/>
    <tag k="name:ru" v="Северодонецк"/>
    <tag k="old_name" v="Лісхімстрой"/>
    <tag k="old_name:en" v="Liskhimstroy"/>
    <tag k="old_name:ru" v="Лисхимстрой"/>
    <tag k="place" v="city"/>
    <tag k="population" v="113299"/>
    <tag k="postal_code" v="93400"/>
  </node>
  <node id="337579368" version="8" timestamp="2009-05-23T17:46:21Z" uid="118347" user="pdpd" changeset="1297137" lat="48.9428505" lon="38.50078">
    <tag k="is_in" v="Луганська обл., Україна"/>
    <tag k="layer" v="5"/>
    <tag k="name" v="Северодонецк"/>
    <tag k="name:en" v="Severodonetsk"/>
    <tag k="name:ua" v="Сєвєродонецьк"/>
    <tag k="old_name" v="Лісхімстрой"/>
    <tag k="old_name:en" v="Liskhimstroy"/>
    <tag k="old_name:ru" v="Лисхимстрой"/>
    <tag k="place" v="city"/>
    <tag k="population" v="113299"/>
    <tag k="postal_code" v="93400"/>
  </node>
  <node id="337579368" version="9" timestamp="2009-05-25T18:10:18Z" uid="117960" user="va-deam" changeset="1319075" lat="48.942855" lon="38.5007719">
    <tag k="is_in" v="Луганська обл., Україна"/>
    <tag k="layer" v="5"/>
    <tag k="name" v="Сєвєродонецьк"/>
    <tag k="name:en" v="Severodonetsk"/>
    <tag k="name:ru" v="Северодонецк"/>
    <tag k="name:ua" v="Сєвєродонецьк"/>
    <tag k="old_name" v="Лісхімстрой"/>
    <tag k="old_name:en" v="Liskhimstroy"/>
    <tag k="old_name:ru" v="Лисхимстрой"/>
    <tag k="place" v="city"/>
    <tag k="population" v="113299"/>
    <tag k="postal_code" v="93400"/>
  </node>
  <node id="337579368" version="10" timestamp="2009-06-28T21:19:04Z" uid="117960" user="va-deam" changeset="1667021" lat="48.9457894" lon="38.4975633">
    <tag k="is_in" v="Луганська обл., Україна"/>
    <tag k="layer" v="5"/>
    <tag k="name" v="Сєвєродонецьк"/>
    <tag k="name:en" v="Severodonetsk"/>
    <tag k="name:ru" v="Северодонецк"/>
    <tag k="name:ua" v="Сєвєродонецьк"/>
    <tag k="old_name" v="Лісхімстрой"/>
    <tag k="old_name:en" v="Liskhimstroy"/>
    <tag k="old_name:ru" v="Лисхимстрой"/>
    <tag k="place" v="city"/>
    <tag k="population" v="113299"/>
    <tag k="postal_code" v="93400"/>
  </node>
  <node id="337579368" version="11" timestamp="2009-09-22T21:41:01Z" uid="66590" user="iONiX" changeset="2577686" lat="48.9457932" lon="38.4975555">
    <tag k="is_in" v="Луганська обл., Україна"/>
    <tag k="layer" v="5"/>
    <tag k="name" v="Сєвєродонецьк"/>
    <tag k="name:en" v="Severodonetsk"/>
    <tag k="name:ru" v="Северодонецк"/>
    <tag k="name:uk" v="Сєвєродонецьк"/>
    <tag k="old_name" v="Лісхімстрой"/>
    <tag k="old_name:en" v="Liskhimstroy"/>
    <tag k="old_name:ru" v="Лисхимстрой"/>
    <tag k="place" v="city"/>
    <tag k="population" v="113299"/>
    <tag k="postal_code" v="93400"/>
  </node>
  <node id="337579368" version="12" timestamp="2010-04-08T16:27:39Z" uid="250082" user="Slavag" changeset="4365372" lat="48.9457932" lon="38.4975555">
    <tag k="is_in" v="Луганська обл., Україна"/>
    <tag k="layer" v="5"/>
    <tag k="name" v="Сєвєродонецьк"/>
    <tag k="name:en" v="Severodonetsk"/>
    <tag k="name:ru" v="Северодонецк"/>
    <tag k="name:uk" v="Сєвєродонецьк"/>
    <tag k="place" v="city"/>
    <tag k="population" v="113299"/>
    <tag k="postal_code" v="93400"/>
  </node>
  <node id="337579368" version="13" timestamp="2010-04-18T16:44:00Z" uid="117960" user="va-deam" changeset="4459908" lat="48.9457932" lon="38.4975555">
    <tag k="is_in" v="Луганська обл., Україна"/>
    <tag k="layer" v="5"/>
    <tag k="name" v="Сєвєродонецьк"/>
    <tag k="name:en" v="Severodonetsk"/>
    <tag k="name:ru" v="Северодонецк"/>
    <tag k="name:uk" v="Сєвєродонецьк"/>
    <tag k="old_name" v="Лісхімстрой"/>
    <tag k="old_name:en" v="Liskhimstroy"/>
    <tag k="old_name:ru" v="Лисхимстрой"/>
    <tag k="place" v="city"/>
    <tag k="population" v="113299"/>
    <tag k="postal_code" v="93400"/>
  </node>
  <node id="337579368" version="14" timestamp="2010-04-20T00:22:46Z" uid="66590" user="iONiX" changeset="4473697" lat="48.9457932" lon="38.4975555">
    <tag k="is_in" v="Луганська область, Україна"/>
    <tag k="name" v="Сєвєродонецьк"/>
    <tag k="name:en" v="Severodonetsk"/>
    <tag k="name:ru" v="Северодонецк"/>
    <tag k="name:uk" v="Сєвєродонецьк"/>
    <tag k="old_name" v="Лісхімстрой"/>
    <tag k="old_name:en" v="Liskhimstroy"/>
    <tag k="old_name:ru" v="Лисхимстрой"/>
    <tag k="place" v="city"/>
    <tag k="population" v="113299"/>
    <tag k="postal_code" v="93400"/>
  </node>
  <node id="337579368" version="15" timestamp="2010-05-15T20:53:21Z" uid="117960" user="va-deam" changeset="4710515" lat="48.9457932" lon="38.4975554">
    <tag k="is_in" v="Луганська область, Україна"/>
    <tag k="name" v="Сєвєродонецьк"/>
    <tag k="name:en" v="Severodonetsk"/>
    <tag k="name:ru" v="Северодонецк"/>
    <tag k="old_name" v="Лісхімстрой"/>
    <tag k="old_name:en" v="Liskhimstroy"/>
    <tag k="old_name:ru" v="Лисхимстрой"/>
    <tag k="place" v="city"/>
    <tag k="population" v="113299"/>
    <tag k="postal_code" v="93400"/>
  </node>
  <node id="337579368" version="16" timestamp="2010-10-20T17:08:33Z" uid="13436" user="hkucharek" changeset="6117296" lat="48.9457932" lon="38.4975554">
    <tag k="is_in" v="Луганська область, Україна"/>
    <tag k="name" v="Сєвєродонецьк"/>
    <tag k="name:de" v="Sjewjerodonezk"/>
    <tag k="name:en" v="Severodonetsk"/>
    <tag k="name:ru" v="Северодонецк"/>
    <tag k="old_name" v="Лісхімстрой"/>
    <tag k="old_name:en" v="Liskhimstroy"/>
    <tag k="old_name:ru" v="Лисхимстрой"/>
    <tag k="place" v="city"/>
    <tag k="population" v="113299"/>
    <tag k="postal_code" v="93400"/>
  </node>
  <node id="337579368" version="17" timestamp="2011-05-15T11:28:20Z" uid="93026" user="mpele" changeset="8150606" lat="48.9457932" lon="38.4975554">
    <tag k="is_in" v="Луганська область, Україна"/>
    <tag k="name" v="Сєвєродонецьк"/>
    <tag k="name:de" v="Sjewjerodonezk"/>
    <tag k="name:en" v="Severodonetsk"/>
    <tag k="name:ru" v="Северодонецк"/>
    <tag k="name:sr" v="Северодонецк"/>
    <tag k="old_name" v="Лісхімстрой"/>
    <tag k="old_name:en" v="Liskhimstroy"/>
    <tag k="old_name:ru" v="Лисхимстрой"/>
    <tag k="place" v="city"/>
    <tag k="population" v="113299"/>
    <tag k="postal_code" v="93400"/>
  </node>
  <node id="337579368" version="18" timestamp="2011-09-13T16:44:56Z" uid="29320" user="Komяpa" changeset="9290837" lat="48.9457932" lon="38.4975554">
    <tag k="addr:postcode" v="93400"/>
    <tag k="is_in" v="Луганська область, Україна"/>
    <tag k="name" v="Сєвєродонецьк"/>
    <tag k="name:de" v="Sjewjerodonezk"/>
    <tag k="name:en" v="Severodonetsk"/>
    <tag k="name:ru" v="Северодонецк"/>
    <tag k="name:sr" v="Северодонецк"/>
    <tag k="old_name" v="Лісхімстрой"/>
    <tag k="old_name:en" v="Liskhimstroy"/>
    <tag k="old_name:ru" v="Лисхимстрой"/>
    <tag k="place" v="city"/>
    <tag k="population" v="113299"/>
  </node>
  <node id="337579837" version="3" timestamp="2009-02-07T15:55:36Z" uid="6975" user="ulfl" changeset="238208" lat="48.93001" lon="38.44185">
    <tag k="is_in" v="Луганська обл., Україна"/>
    <tag k="name" v="Павлоград"/>
    <tag k="place" v="village"/>
  </node>
  <node id="337579837" version="4" timestamp="2009-06-08T07:45:56Z" uid="117960" user="va-deam" changeset="1456083" lat="48.930148" lon="38.4404032">
    <tag k="is_in" v="Луганська обл., Україна"/>
    <tag k="name" v="Павлоград"/>
    <tag k="place" v="village"/>
  </node>
  <node id="337579837" version="5" timestamp="2011-05-12T16:02:02Z" uid="392787" user="OldFox" changeset="8123658" lat="48.9249998" lon="38.4523369">
    <tag k="is_in" v="Луганська обл., Україна"/>
    <tag k="name" v="Павлоград"/>
    <tag k="place" v="village"/>
  </node>
  <node id="337579968" version="3" timestamp="2009-02-07T15:55:34Z" uid="6975" user="ulfl" changeset="238208" lat="48.92658" lon="38.55446">
    <tag k="is_in" v="Луганська обл., Україна"/>
    <tag k="name" v="Метьолкіне"/>
    <tag k="place" v="village"/>
  </node>
  <node id="337579968" version="4" timestamp="2009-02-11T11:02:36Z" uid="96246" user="KinDzaDza" changeset="343220" lat="48.9265848" lon="38.5544582">
    <tag k="is_in" v="Луганська обл., Україна"/>
    <tag k="name" v="Метьолкіне"/>
    <tag k="place" v="village"/>
  </node>
  <node id="337579968" version="5" timestamp="2009-02-11T13:25:39Z" uid="96246" user="KinDzaDza" changeset="363511" lat="48.9267259" lon="38.554692">
    <tag k="is_in" v="Луганська обл., Україна"/>
    <tag k="name" v="Метьолкіне"/>
    <tag k="place" v="village"/>
  </node>
  <node id="337579968" version="6" timestamp="2009-05-22T08:58:28Z" uid="117960" user="va-deam" changeset="1283640" lat="48.9287294" lon="38.5583544">
    <tag k="is_in" v="Луганська обл., Україна"/>
    <tag k="name" v="Метьолкіне"/>
    <tag k="place" v="village"/>
  </node>
  <node id="337579968" version="7" timestamp="2009-05-22T08:58:40Z" uid="117960" user="va-deam" changeset="1283640" lat="48.9267259" lon="38.554692">
    <tag k="is_in" v="Луганська обл., Україна"/>
    <tag k="name" v="Метьолкіне"/>
    <tag k="place" v="village"/>
  </node>
  <node id="337579968" version="8" timestamp="2009-05-22T08:59:07Z" uid="117960" user="va-deam" changeset="1283640" lat="48.9281655" lon="38.5574961">
    <tag k="is_in" v="Луганська обл., Україна"/>
    <tag k="name" v="Метьолкіне"/>
    <tag k="place" v="village"/>
  </node>
  <node id="337579968" version="9" timestamp="2009-05-22T09:03:25Z" uid="117960" user="va-deam" changeset="1283640" lat="48.9281655" lon="38.5574961">
    <tag k="is_in" v="Луганська обл., Україна"/>
    <tag k="name" v="Метьолкіне"/>
    <tag k="place" v="village"/>
  </node>
  <node id="337576644" version="9" timestamp="2012-04-16T09:07:44Z" uid="356014" user="_sev" changeset="11319492" lat="49.0223545" lon="38.3663076">
    <tag k="addr:postcode" v="93001-93012"/>
    <tag k="is_in" v="Луганська обл., Україна"/>
    <tag k="layer" v="5"/>
    <tag k="name" v="Рубіжне"/>
    <tag k="name:en" v="Rubizhne"/>
    <tag k="name:ru" v="Рубежное"/>
    <tag k="name:uk" v="Рубіжне"/>
    <tag k="place" v="town"/>
    <tag k="population" v="60721"/>
    <tag k="wikipedia" v="uk:Рубіжне"/>
    <tag k="wikipedia:ru" v="Рубежное"/>
  </node>
  <node id="337576644" version="10" timestamp="2012-06-18T19:38:16Z" uid="440812" user="dudka" changeset="11940969" lat="49.0223545" lon="38.3663076">
    <tag k="addr:postcode" v="93001-93012"/>
    <tag k="is_in" v="Луганська обл., Україна"/>
    <tag k="koatuu" v="4412500000"/>
    <tag k="name" v="Рубіжне"/>
    <tag k="name:en" v="Rubizhne"/>
    <tag k="name:ru" v="Рубежное"/>
    <tag k="name:uk" v="Рубіжне"/>
    <tag k="place" v="town"/>
    <tag k="population" v="60721"/>
    <tag k="wikipedia" v="uk:Рубіжне"/>
    <tag k="wikipedia:ru" v="Рубежное"/>
  </node>
</osm>
