<?xml version='1.0' encoding='UTF-8'?>
<osm version="0.6" generator="libosmium/2.20.0">
  <node id="337751076" version="2" timestamp="2010-04-29T17:10:48Z" uid="58091" user="Andreas M" changeset="4559452" lat="48.087813" lon="16.0129784"/>
  <node id="337751076" version="3" timestamp="2011-05-07T11:31:37Z" uid="78656" user="Walter Schlögl" changeset="8072580" lat="48.0878934" lon="16.0129532"/>
  <node id="337751076" version="4" timestamp="2011-11-17T13:40:09Z" uid="289334" user="Soldier Boy" changeset="9854058" lat="48.0879221" lon="16.0132175"/>
  <node id="337751198" version="2" timestamp="2009-06-10T18:31:29Z" uid="58091" user="Andreas M" changeset="1480378" lat="47.502757" lon="14.459033"/>
  <node id="337756897" version="2" timestamp="2010-04-29T17:11:01Z" uid="58091" user="Andreas M" changeset="4559452" lat="48.0970166" lon="16.0075379"/>
  <node id="337756897" version="3" timestamp="2011-05-23T17:17:53Z" uid="111529" user="ReinerMeyer" changeset="8228190" lat="48.0973924" lon="16.0074924"/>
  <node id="337757227" version="2" timestamp="2011-03-11T11:13:00Z" uid="4467" user="Rosscoe" changeset="7522271" lat="-32.1123763" lon="116.0688121">
    <tag k="is_in" v="Perth"/>
    <tag k="name" v="Roleystone"/>
    <tag k="place" v="suburb"/>
  </node>
  <node id="337759447" version="2" timestamp="2009-02-17T17:39:02Z" uid="58091" user="Andreas M" changeset="518785" lat="48.2228576" lon="16.4003132">
    <tag k="addr:city" v="Wien"/>
    <tag k="addr:country" v="AT"/>
    <tag k="addr:housenumber" v="34"/>
    <tag k="addr:postcode" v="1020"/>
    <tag k="addr:street" v="Lassallestraße"/>
    <tag k="amenity" v="bank"/>
    <tag k="atm" v="yes"/>
    <tag k="name" v="Erstebank"/>
  </node>
  <node id="337759447" version="3" timestamp="2009-02-17T19:00:36Z" uid="58091" user="Andreas M" changeset="518785" lat="48.2228576" lon="16.4003132">
    <tag k="addr:city" v="Wien"/>
    <tag k="addr:country" v="AT"/>
    <tag k="addr:housenumber" v="34"/>
    <tag k="addr:postcode" v="1020"/>
    <tag k="addr:street" v="Lassallestraße"/>
    <tag k="amenity" v="bank"/>
    <tag k="atm" v="yes"/>
    <tag k="name" v="Erste Bank"/>
  </node>
  <node id="337759447" version="4" timestamp="2009-03-13T15:47:29Z" uid="99800" user="wolfbert" changeset="799838" lat="48.2229195" lon="16.4002235">
    <tag k="addr:city" v="Wien"/>
    <tag k="addr:country" v="AT"/>
    <tag k="addr:housenumber" v="34"/>
    <tag k="addr:postcode" v="1020"/>
    <tag k="addr:street" v="Lassallestraße"/>
    <tag k="amenity" v="bank"/>
    <tag k="atm" v="yes"/>
    <tag k="name" v="Erste Bank"/>
  </node>
  <node id="337759447" version="5" timestamp="2009-06-02T15:30:44Z" uid="58091" user="Andreas M" changeset="1405042" lat="48.2228208" lon="16.4000316">
    <tag k="addr:city" v="Wien"/>
    <tag k="addr:country" v="AT"/>
    <tag k="addr:housenumber" v="34"/>
    <tag k="addr:postcode" v="1020"/>
    <tag k="addr:street" v="Lassallestraße"/>
    <tag k="amenity" v="bank"/>
    <tag k="atm" v="yes"/>
    <tag k="name" v="Erste Bank"/>
  </node>
  <node id="337759447" version="6" timestamp="2010-02-16T17:02:45Z" uid="78656" user="Walter Schlögl" changeset="3893895" lat="48.2228208" lon="16.4000316">
    <tag k="addr:city" v="Wien"/>
    <tag k="addr:country" v="AT"/>
    <tag k="addr:housenumber" v="34"/>
    <tag k="addr:postcode" v="1020"/>
    <tag k="addr:street" v="Lassallestraße"/>
    <tag k="amenity" v="bank"/>
    <tag k="atm" v="yes"/>
    <tag k="name" v="Erste Bank"/>
    <tag k="operator" v="Erste Bank"/>
  </node>
  <node id="337759447" version="7" timestamp="2012-03-22T21:22:35Z" uid="99800" user="wolfbert" changeset="11068014" lat="48.2228208" lon="16.4000316"/>
</osm>
