<?xml version='1.0' encoding='UTF-8'?>
<osm version="0.6" generator="libosmium/2.20.0">
  <node id="338220790" version="1" timestamp="2009-01-27T09:27:49Z" uid="64977" user="CLoeser" changeset="842936" lat="53.9411906" lon="9.5266539">
    <tag k="created_by" v="Potlatch 0.10f"/>
    <tag k="is_in" v="Itzehoe"/>
    <tag k="name" v="Pünstorf"/>
    <tag k="place" v="suburb"/>
  </node>
  <node id="338220790" version="2" timestamp="2009-11-15T20:59:32Z" uid="152289" user="cgu66" changeset="3126957" lat="53.9411906" lon="9.5266539">
    <tag k="is_in" v="Itzehoe,Steinburg,Schleswig-Holstein,Bundesrepublik Deutschland,Europe"/>
    <tag k="name" v="Pünstorf"/>
    <tag k="place" v="suburb"/>
  </node>
  <node id="338220790" version="3" timestamp="2012-02-25T18:15:37Z" uid="75388" user="Svalbard" changeset="10790497" lat="53.9412004" lon="9.5266579">
    <tag k="is_in" v="Itzehoe,Steinburg,Schleswig-Holstein,Bundesrepublik Deutschland,Europe"/>
    <tag k="name" v="Pünstorf"/>
    <tag k="place" v="suburb"/>
  </node>
  <node id="338220790" version="4" timestamp="2012-07-18T22:55:02Z" uid="722137" user="OSMF Redaction Account" changeset="12301050" lat="53.9412004" lon="9.5266579">
    <tag k="is_in" v="Itzehoe,Steinburg,Schleswig-Holstein,Bundesrepublik Deutschland,Europe"/>
  </node>
</osm>
