<?xml version='1.0' encoding='UTF-8'?>
<osm version="0.6" generator="libosmium/2.20.0">
  <node id="338552066" version="1" timestamp="2009-01-28T09:43:11Z" uid="9581" user="Lobelt" changeset="846969" lat="51.7105815" lon="14.2852324"/>
  <node id="338552066" version="2" timestamp="2009-11-25T07:04:36Z" uid="14029" user="MartinDornfelder" changeset="3209865" lat="51.7105815" lon="14.2852324"/>
  <node id="338552066" version="3" timestamp="2011-12-30T22:20:29Z" uid="235372" user="miraculixOSM" changeset="10250371" lat="51.7105815" lon="14.2852324"/>
  <node id="338552067" version="1" timestamp="2009-01-28T09:43:12Z" uid="9581" user="Lobelt" changeset="846969" lat="51.710653" lon="14.2849239"/>
  <node id="338552067" version="2" timestamp="2011-12-30T22:20:29Z" uid="235372" user="miraculixOSM" changeset="10250371" lat="51.710653" lon="14.2849239"/>
  <node id="338552070" version="1" timestamp="2009-01-28T09:43:12Z" uid="9581" user="Lobelt" changeset="846969" lat="51.7103622" lon="14.2836016"/>
  <node id="338552070" version="2" timestamp="2011-12-30T22:20:29Z" uid="235372" user="miraculixOSM" changeset="10250371" lat="51.7103622" lon="14.2836016"/>
  <node id="338552072" version="1" timestamp="2009-01-28T09:43:12Z" uid="9581" user="Lobelt" changeset="846969" lat="51.7102591" lon="14.2832825"/>
  <node id="338552072" version="2" timestamp="2011-06-01T09:42:45Z" uid="352869" user="Hans Wurst" changeset="8308736" lat="51.7102846" lon="14.2833614"/>
  <node id="338552074" version="1" timestamp="2009-01-28T09:43:12Z" uid="9581" user="Lobelt" changeset="846969" lat="51.7099666" lon="14.2824108"/>
  <node id="338552074" version="2" timestamp="2011-12-30T22:20:29Z" uid="235372" user="miraculixOSM" changeset="10250371" lat="51.7099666" lon="14.2824108"/>
  <node id="338552075" version="1" timestamp="2009-01-28T09:43:12Z" uid="9581" user="Lobelt" changeset="846969" lat="51.7093118" lon="14.2802892"/>
  <node id="338552075" version="2" timestamp="2010-05-15T21:13:04Z" uid="288109" user="*dernoob*" changeset="4710444" lat="51.7091522" lon="14.2805467"/>
  <node id="338552075" version="3" timestamp="2010-05-16T08:18:53Z" uid="288109" user="*dernoob*" changeset="4714185" lat="51.7091788" lon="14.2805038"/>
  <node id="338552075" version="4" timestamp="2011-06-01T08:18:48Z" uid="352869" user="Hans Wurst" changeset="8308160" lat="51.7090561" lon="14.2796979"/>
  <node id="338552075" version="5" timestamp="2011-12-30T22:20:28Z" uid="235372" user="miraculixOSM" changeset="10250371" lat="51.7090564" lon="14.2797"/>
  <node id="338552078" version="1" timestamp="2009-01-28T09:43:12Z" uid="9581" user="Lobelt" changeset="846969" lat="51.7151818" lon="14.2892985"/>
  <node id="338552078" version="2" timestamp="2011-12-30T22:08:02Z" uid="235372" user="miraculixOSM" changeset="10250262" lat="51.7151818" lon="14.2892985"/>
  <node id="338552080" version="1" timestamp="2009-01-28T09:43:12Z" uid="9581" user="Lobelt" changeset="846969" lat="51.7149025" lon="14.2913369"/>
  <node id="338552080" version="2" timestamp="2011-12-30T22:20:29Z" uid="235372" user="miraculixOSM" changeset="10250371" lat="51.7149025" lon="14.2913369"/>
  <node id="338552082" version="1" timestamp="2009-01-28T09:43:12Z" uid="9581" user="Lobelt" changeset="846969" lat="51.7148759" lon="14.2916426"/>
  <node id="338552082" version="2" timestamp="2011-12-30T22:20:29Z" uid="235372" user="miraculixOSM" changeset="10250371" lat="51.7148759" lon="14.2916426"/>
  <node id="338552084" version="1" timestamp="2009-01-28T09:43:12Z" uid="9581" user="Lobelt" changeset="846969" lat="51.7304154" lon="14.3112243">
    <tag k="highway" v="bus_stop"/>
  </node>
  <node id="338552084" version="2" timestamp="2011-02-15T11:22:49Z" uid="290680" user="wheelmap_visitor" changeset="7293585" lat="51.7304154" lon="14.3112243">
    <tag k="highway" v="bus_stop"/>
    <tag k="wheelchair" v="yes"/>
  </node>
  <node id="338552084" version="3" timestamp="2011-03-25T16:06:38Z" uid="137626" user="Dr Jan Itor" changeset="7666812" lat="51.7304154" lon="14.3112243">
    <tag k="highway" v="bus_stop"/>
    <tag k="operator" v="Cottbusverkehr GmbH"/>
    <tag k="shelter" v="yes"/>
    <tag k="wheelchair" v="yes"/>
  </node>
  <node id="338552084" version="4" timestamp="2011-08-17T20:00:00Z" uid="28234" user="derandi" changeset="9051336" lat="51.7304768" lon="14.3112022">
    <tag k="bus" v="yes"/>
    <tag k="highway" v="bus_stop"/>
    <tag k="name" v="Sachsendorf Lerchenstraße"/>
    <tag k="operator" v="Cottbusverkehr GmbH"/>
    <tag k="public_transport" v="stop_position"/>
    <tag k="shelter" v="yes"/>
    <tag k="wheelchair" v="yes"/>
  </node>
  <node id="338552084" version="5" timestamp="2012-02-26T12:39:49Z" uid="28234" user="derandi" changeset="10797585" lat="51.7304768" lon="14.3112022"/>
  <node id="338552086" version="1" timestamp="2009-01-28T09:43:13Z" uid="9581" user="Lobelt" changeset="846969" lat="51.7406248" lon="14.3227488">
    <tag k="highway" v="bus_stop"/>
  </node>
  <node id="338552086" version="2" timestamp="2009-12-12T11:26:29Z" uid="207652" user="Cottbuser" changeset="3354852" lat="51.7406248" lon="14.3227487">
    <tag k="amenity" v="school"/>
    <tag k="highway" v="bus_stop"/>
    <tag k="name" v="Welzower Str./Thiemstr."/>
  </node>
  <node id="338552086" version="3" timestamp="2009-12-13T11:08:46Z" uid="70696" user="xybot" changeset="3361520" lat="51.7406248" lon="14.3227487">
    <tag k="amenity" v="school"/>
    <tag k="highway" v="bus_stop"/>
    <tag k="name" v="Welzower Str./Thiemstraße"/>
  </node>
  <node id="338552086" version="4" timestamp="2009-12-14T11:04:02Z" uid="70696" user="xybot" changeset="3370646" lat="51.7406248" lon="14.3227487">
    <tag k="amenity" v="school"/>
    <tag k="highway" v="bus_stop"/>
    <tag k="name" v="Welzower Straße/Thiemstraße"/>
  </node>
  <node id="338552086" version="5" timestamp="2010-11-04T20:12:31Z" uid="75061" user="dcbm" changeset="6291330" lat="51.7406248" lon="14.3227487">
    <tag k="highway" v="bus_stop"/>
    <tag k="name" v="Welzower Straße/Thiemstraße"/>
  </node>
  <node id="338552086" version="6" timestamp="2011-03-23T20:14:18Z" uid="290680" user="wheelmap_visitor" changeset="7648876" lat="51.7406248" lon="14.3227487">
    <tag k="highway" v="bus_stop"/>
    <tag k="name" v="Welzower Straße/Thiemstraße"/>
    <tag k="wheelchair" v="yes"/>
  </node>
  <node id="338552086" version="7" timestamp="2011-08-19T01:29:01Z" uid="28234" user="derandi" changeset="9061894" lat="51.7406248" lon="14.3227487"/>
  <node id="338552089" version="1" timestamp="2009-01-28T09:43:13Z" uid="9581" user="Lobelt" changeset="846969" lat="51.7404753" lon="14.3224109">
    <tag k="highway" v="bus_stop"/>
  </node>
  <node id="338552089" version="2" timestamp="2009-12-12T11:26:29Z" uid="207652" user="Cottbuser" changeset="3354852" lat="51.7404753" lon="14.3224109">
    <tag k="amenity" v="school"/>
    <tag k="highway" v="bus_stop"/>
    <tag k="name" v="Welzower Str./Thiemstr."/>
  </node>
  <node id="338552089" version="3" timestamp="2009-12-13T11:08:47Z" uid="70696" user="xybot" changeset="3361520" lat="51.7404753" lon="14.3224109">
    <tag k="amenity" v="school"/>
    <tag k="highway" v="bus_stop"/>
    <tag k="name" v="Welzower Str./Thiemstraße"/>
  </node>
  <node id="338552089" version="4" timestamp="2009-12-14T11:04:06Z" uid="70696" user="xybot" changeset="3370646" lat="51.7404753" lon="14.3224109">
    <tag k="amenity" v="school"/>
    <tag k="highway" v="bus_stop"/>
    <tag k="name" v="Welzower Straße/Thiemstraße"/>
  </node>
  <node id="338552089" version="5" timestamp="2010-11-04T20:12:32Z" uid="75061" user="dcbm" changeset="6291330" lat="51.7404753" lon="14.3224109">
    <tag k="highway" v="bus_stop"/>
    <tag k="name" v="Welzower Straße/Thiemstraße"/>
  </node>
  <node id="338552089" version="6" timestamp="2011-03-23T20:14:24Z" uid="290680" user="wheelmap_visitor" changeset="7648876" lat="51.7404753" lon="14.3224109">
    <tag k="highway" v="bus_stop"/>
    <tag k="name" v="Welzower Straße/Thiemstraße"/>
    <tag k="wheelchair" v="yes"/>
  </node>
  <node id="338552089" version="7" timestamp="2011-08-19T01:29:01Z" uid="28234" user="derandi" changeset="9061894" lat="51.7404753" lon="14.3224109"/>
  <node id="338552091" version="1" timestamp="2009-01-28T09:43:13Z" uid="9581" user="Lobelt" changeset="846969" lat="51.7444648" lon="14.3182696">
    <tag k="highway" v="bus_stop"/>
  </node>
  <node id="338552091" version="2" timestamp="2009-12-12T11:24:40Z" uid="207652" user="Cottbuser" changeset="3354852" lat="51.7444649" lon="14.3182695">
    <tag k="amenity" v="school"/>
    <tag k="highway" v="bus_stop"/>
    <tag k="name" v="Klinikum/Welzower Str."/>
  </node>
  <node id="338552091" version="3" timestamp="2009-12-13T11:08:47Z" uid="70696" user="xybot" changeset="3361520" lat="51.7444649" lon="14.3182695">
    <tag k="amenity" v="school"/>
    <tag k="highway" v="bus_stop"/>
    <tag k="name" v="Klinikum/Welzower Straße"/>
  </node>
  <node id="338552091" version="4" timestamp="2010-11-04T20:12:36Z" uid="75061" user="dcbm" changeset="6291330" lat="51.7444649" lon="14.3182695">
    <tag k="highway" v="bus_stop"/>
    <tag k="name" v="Klinikum/Welzower Straße"/>
  </node>
  <node id="338552091" version="5" timestamp="2011-03-23T20:14:21Z" uid="290680" user="wheelmap_visitor" changeset="7648876" lat="51.7444649" lon="14.3182695">
    <tag k="highway" v="bus_stop"/>
    <tag k="name" v="Klinikum/Welzower Straße"/>
    <tag k="wheelchair" v="yes"/>
  </node>
  <node id="338552091" version="6" timestamp="2011-08-18T04:08:15Z" uid="28234" user="derandi" changeset="9053477" lat="51.7444101" lon="14.3185533">
    <tag k="bus" v="yes"/>
    <tag k="highway" v="bus_stop"/>
    <tag k="name" v="Welzower Straße / Klinikum"/>
    <tag k="operator" v="Cottbusverkehr GmbH"/>
    <tag k="public_transport" v="stop_position"/>
    <tag k="wheelchair" v="yes"/>
  </node>
  <node id="338552091" version="7" timestamp="2012-02-03T14:29:18Z" uid="28234" user="derandi" changeset="10575827" lat="51.7444101" lon="14.3185533"/>
  <node id="338552093" version="1" timestamp="2009-01-28T09:43:13Z" uid="9581" user="Lobelt" changeset="846969" lat="51.7443452" lon="14.3187416">
    <tag k="highway" v="bus_stop"/>
  </node>
  <node id="338552093" version="2" timestamp="2009-12-12T11:24:40Z" uid="207652" user="Cottbuser" changeset="3354852" lat="51.7443452" lon="14.3187415">
    <tag k="amenity" v="school"/>
    <tag k="highway" v="bus_stop"/>
    <tag k="name" v="Klinikum/Welzower Str."/>
  </node>
  <node id="338552093" version="3" timestamp="2009-12-13T11:08:48Z" uid="70696" user="xybot" changeset="3361520" lat="51.7443452" lon="14.3187415">
    <tag k="amenity" v="school"/>
    <tag k="highway" v="bus_stop"/>
    <tag k="name" v="Klinikum/Welzower Straße"/>
  </node>
  <node id="338552093" version="4" timestamp="2010-11-04T20:12:33Z" uid="75061" user="dcbm" changeset="6291330" lat="51.7443452" lon="14.3187415">
    <tag k="highway" v="bus_stop"/>
    <tag k="name" v="Klinikum/Welzower Straße"/>
  </node>
  <node id="338552093" version="5" timestamp="2011-03-23T20:14:23Z" uid="290680" user="wheelmap_visitor" changeset="7648876" lat="51.7443452" lon="14.3187415">
    <tag k="highway" v="bus_stop"/>
    <tag k="name" v="Klinikum/Welzower Straße"/>
    <tag k="wheelchair" v="yes"/>
  </node>
  <node id="338552093" version="6" timestamp="2011-08-18T04:08:20Z" uid="28234" user="derandi" changeset="9053477" lat="51.7443452" lon="14.3187415"/>
  <node id="338552099" version="1" timestamp="2009-01-28T09:43:13Z" uid="9581" user="Lobelt" changeset="846969" lat="51.7652753" lon="14.3154583">
    <tag k="highway" v="bus_stop"/>
  </node>
  <node id="338552099" version="2" timestamp="2011-03-23T20:22:26Z" uid="290680" user="wheelmap_visitor" changeset="7648876" lat="51.7652753" lon="14.3154583">
    <tag k="highway" v="bus_stop"/>
    <tag k="wheelchair" v="yes"/>
  </node>
  <node id="338552099" version="3" timestamp="2011-03-25T17:58:10Z" uid="137626" user="Dr Jan Itor" changeset="7667817" lat="51.7652753" lon="14.3154583">
    <tag k="highway" v="bus_stop"/>
    <tag k="name" v="Pappelallee"/>
    <tag k="operator" v="Cottbusverkehr GmbH"/>
    <tag k="shelter" v="yes"/>
    <tag k="wheelchair" v="yes"/>
  </node>
  <node id="338552099" version="4" timestamp="2011-08-21T00:40:47Z" uid="28234" user="derandi" changeset="9079992" lat="51.7653184" lon="14.3155115">
    <tag k="bus" v="yes"/>
    <tag k="highway" v="bus_stop"/>
    <tag k="name" v="Pappelallee"/>
    <tag k="operator" v="Cottbusverkehr GmbH"/>
    <tag k="public_transport" v="stop_position"/>
    <tag k="shelter" v="yes"/>
    <tag k="wheelchair" v="yes"/>
  </node>
  <node id="338552099" version="5" timestamp="2011-09-02T00:02:57Z" uid="28234" user="derandi" changeset="9189492" lat="51.7653184" lon="14.3155115"/>
  <node id="338552105" version="1" timestamp="2009-01-28T09:43:13Z" uid="9581" user="Lobelt" changeset="846969" lat="51.7652954" lon="14.3139832">
    <tag k="highway" v="bus_stop"/>
  </node>
  <node id="338552105" version="2" timestamp="2011-03-23T20:23:27Z" uid="290680" user="wheelmap_visitor" changeset="7648876" lat="51.7652954" lon="14.3139832">
    <tag k="highway" v="bus_stop"/>
    <tag k="wheelchair" v="yes"/>
  </node>
  <node id="338552105" version="3" timestamp="2011-03-25T17:58:10Z" uid="137626" user="Dr Jan Itor" changeset="7667817" lat="51.7652954" lon="14.3139832">
    <tag k="highway" v="bus_stop"/>
    <tag k="name" v="Pappelallee"/>
    <tag k="operator" v="Cottbusverkehr GmbH"/>
    <tag k="shelter" v="yes"/>
    <tag k="wheelchair" v="yes"/>
  </node>
  <node id="338552105" version="4" timestamp="2011-08-21T00:40:47Z" uid="28234" user="derandi" changeset="9079992" lat="51.7652682" lon="14.3143462">
    <tag k="bus" v="yes"/>
    <tag k="highway" v="bus_stop"/>
    <tag k="name" v="Pappelallee"/>
    <tag k="operator" v="Cottbusverkehr GmbH"/>
    <tag k="public_transport" v="stop_position"/>
    <tag k="shelter" v="yes"/>
    <tag k="wheelchair" v="yes"/>
  </node>
  <node id="338552105" version="5" timestamp="2011-09-02T00:02:57Z" uid="28234" user="derandi" changeset="9189492" lat="51.7652682" lon="14.3143462"/>
  <node id="338552108" version="1" timestamp="2009-01-28T09:43:13Z" uid="9581" user="Lobelt" changeset="846969" lat="51.766124" lon="14.3245663">
    <tag k="highway" v="bus_stop"/>
  </node>
  <node id="338552108" version="2" timestamp="2009-02-02T17:43:31Z" uid="9581" user="Lobelt" changeset="69782" lat="51.766124" lon="14.3245663">
    <tag k="highway" v="bus_stop"/>
    <tag k="name" v="TU Mensa"/>
  </node>
  <node id="338552108" version="3" timestamp="2011-03-23T20:17:24Z" uid="290680" user="wheelmap_visitor" changeset="7648876" lat="51.766124" lon="14.3245663">
    <tag k="highway" v="bus_stop"/>
    <tag k="name" v="TU Mensa"/>
    <tag k="wheelchair" v="yes"/>
  </node>
  <node id="338552108" version="4" timestamp="2011-03-25T17:58:06Z" uid="137626" user="Dr Jan Itor" changeset="7667817" lat="51.766124" lon="14.3245663">
    <tag k="highway" v="bus_stop"/>
    <tag k="name" v="TU Mensa"/>
    <tag k="wheelchair" v="limited"/>
  </node>
  <node id="338552108" version="5" timestamp="2011-08-20T23:34:45Z" uid="28234" user="derandi" changeset="9079599" lat="51.7661777" lon="14.3246048">
    <tag k="highway" v="bus_stop"/>
    <tag k="name" v="TU Mensa"/>
    <tag k="wheelchair" v="limited"/>
  </node>
  <node id="338552108" version="6" timestamp="2011-09-07T20:41:57Z" uid="28234" user="derandi" changeset="9240623" lat="51.7661777" lon="14.3246048"/>
  <node id="338552111" version="1" timestamp="2009-01-28T09:43:13Z" uid="9581" user="Lobelt" changeset="846969" lat="51.7660873" lon="14.3257195">
    <tag k="highway" v="bus_stop"/>
  </node>
  <node id="338552111" version="2" timestamp="2009-02-02T17:43:31Z" uid="9581" user="Lobelt" changeset="69782" lat="51.7660873" lon="14.3257195">
    <tag k="highway" v="bus_stop"/>
    <tag k="name" v="TU Mensa"/>
  </node>
  <node id="338552111" version="3" timestamp="2011-03-23T20:18:24Z" uid="290680" user="wheelmap_visitor" changeset="7648876" lat="51.7660873" lon="14.3257195">
    <tag k="highway" v="bus_stop"/>
    <tag k="name" v="TU Mensa"/>
    <tag k="wheelchair" v="yes"/>
  </node>
  <node id="338552111" version="4" timestamp="2011-03-25T17:58:06Z" uid="137626" user="Dr Jan Itor" changeset="7667817" lat="51.7660873" lon="14.3257195">
    <tag k="highway" v="bus_stop"/>
    <tag k="name" v="TU Mensa"/>
    <tag k="operator" v="Cottbusverkehr GmbH"/>
    <tag k="shelter" v="yes"/>
    <tag k="wheelchair" v="yes"/>
  </node>
  <node id="338552111" version="5" timestamp="2011-08-20T23:34:45Z" uid="28234" user="derandi" changeset="9079599" lat="51.7660452" lon="14.3257081">
    <tag k="highway" v="bus_stop"/>
    <tag k="name" v="TU Mensa"/>
    <tag k="operator" v="Cottbusverkehr GmbH"/>
    <tag k="shelter" v="yes"/>
    <tag k="wheelchair" v="yes"/>
  </node>
  <node id="338552111" version="6" timestamp="2011-09-07T20:41:57Z" uid="28234" user="derandi" changeset="9240623" lat="51.7660452" lon="14.3257081"/>
  <node id="338552112" version="1" timestamp="2009-01-28T09:43:13Z" uid="9581" user="Lobelt" changeset="846969" lat="51.7623191" lon="14.3276883">
    <tag k="highway" v="bus_stop"/>
  </node>
  <node id="338552112" version="2" timestamp="2011-03-08T09:29:58Z" uid="418962" user="kurtek" changeset="7492268" lat="51.7623729" lon="14.3276832">
    <tag k="highway" v="bus_stop"/>
  </node>
  <node id="338552112" version="3" timestamp="2011-03-14T08:33:20Z" uid="290680" user="wheelmap_visitor" changeset="7553775" lat="51.7623729" lon="14.3276832">
    <tag k="highway" v="bus_stop"/>
    <tag k="wheelchair" v="yes"/>
  </node>
  <node id="338552112" version="4" timestamp="2011-03-25T17:58:32Z" uid="137626" user="Dr Jan Itor" changeset="7667817" lat="51.7623729" lon="14.3276832">
    <tag k="highway" v="bus_stop"/>
    <tag k="name" v="Lessingstraße/Berliner Straße"/>
    <tag k="operator" v="Cottbusverkehr GmbH"/>
    <tag k="shelter" v="yes"/>
    <tag k="wheelchair" v="yes"/>
  </node>
  <node id="338552112" version="5" timestamp="2011-09-07T20:41:57Z" uid="28234" user="derandi" changeset="9240623" lat="51.7623729" lon="14.3276832"/>
  <node id="338552114" version="1" timestamp="2009-01-28T09:43:14Z" uid="9581" user="Lobelt" changeset="846969" lat="51.7452475" lon="14.3310416">
    <tag k="highway" v="bus_stop"/>
  </node>
  <node id="338552114" version="2" timestamp="2011-08-20T00:08:53Z" uid="28234" user="derandi" changeset="9070412" lat="51.7452431" lon="14.3311351">
    <tag k="bus" v="yes"/>
    <tag k="highway" v="bus_stop"/>
    <tag k="name" v="Ottilienstraße"/>
    <tag k="operator" v="Cottbusverkehr GmbH"/>
    <tag k="public_transport" v="stop_position"/>
  </node>
  <node id="338552114" version="3" timestamp="2012-02-14T00:21:03Z" uid="235372" user="miraculixOSM" changeset="10679221" lat="51.7452457" lon="14.3310617">
    <tag k="bus" v="yes"/>
    <tag k="highway" v="bus_stop"/>
    <tag k="name" v="Ottilienstraße"/>
    <tag k="operator" v="Cottbusverkehr GmbH"/>
    <tag k="public_transport" v="stop_position"/>
  </node>
  <node id="338552114" version="4" timestamp="2012-02-26T13:02:11Z" uid="28234" user="derandi" changeset="10797850" lat="51.7452457" lon="14.3310617"/>
  <node id="338552118" version="1" timestamp="2009-01-28T09:43:14Z" uid="9581" user="Lobelt" changeset="846969" lat="51.7092245" lon="14.357178">
    <tag k="highway" v="bus_stop"/>
  </node>
  <node id="338552118" version="2" timestamp="2011-03-25T16:06:32Z" uid="137626" user="Dr Jan Itor" changeset="7666812" lat="51.7092245" lon="14.357178">
    <tag k="highway" v="bus_stop"/>
    <tag k="name" v="Gallinchen Friedensplatz"/>
    <tag k="operator" v="Cottbusverkehr GmbH"/>
    <tag k="shelter" v="yes"/>
    <tag k="wheelchair" v="limited"/>
  </node>
  <node id="338552118" version="3" timestamp="2011-08-14T22:02:39Z" uid="28234" user="derandi" changeset="9021667" lat="51.7091931" lon="14.3571047">
    <tag k="bus" v="yes"/>
    <tag k="highway" v="bus_stop"/>
    <tag k="name" v="Gallinchen Friedensplatz"/>
    <tag k="operator" v="Cottbusverkehr GmbH"/>
    <tag k="public_transport" v="stop_position"/>
    <tag k="shelter" v="yes"/>
    <tag k="wheelchair" v="limited"/>
  </node>
  <node id="338552118" version="4" timestamp="2012-02-26T12:43:36Z" uid="28234" user="derandi" changeset="10797638" lat="51.7091931" lon="14.3571047"/>
  <node id="338552120" version="1" timestamp="2009-01-28T09:43:14Z" uid="9581" user="Lobelt" changeset="846969" lat="51.707207" lon="14.35463">
    <tag k="highway" v="bus_stop"/>
  </node>
  <node id="338552120" version="2" timestamp="2011-03-25T16:06:36Z" uid="137626" user="Dr Jan Itor" changeset="7666812" lat="51.707207" lon="14.35463">
    <tag k="highway" v="bus_stop"/>
    <tag k="name" v="Gallinchen Spreemarkt"/>
    <tag k="operator" v="Cottbusverkehr GmbH"/>
    <tag k="shelter" v="yes"/>
    <tag k="wheelchair" v="limited"/>
  </node>
  <node id="338552120" version="3" timestamp="2011-08-14T19:30:11Z" uid="28234" user="derandi" changeset="9020035" lat="51.707219" lon="14.3546151">
    <tag k="bench" v="yes"/>
    <tag k="bin" v="yes"/>
    <tag k="bus" v="yes"/>
    <tag k="name" v="Gallinchen Spreemarkt"/>
    <tag k="public_transport" v="platform"/>
    <tag k="ref" v="Gallinchen Spreemarkt, Cottbus"/>
    <tag k="shelter" v="yes"/>
  </node>
  <node id="338552123" version="1" timestamp="2009-01-28T09:43:14Z" uid="9581" user="Lobelt" changeset="846969" lat="51.7694948" lon="14.3408167">
    <tag k="highway" v="bus_stop"/>
  </node>
  <node id="338552123" version="2" timestamp="2011-08-31T02:08:00Z" uid="28234" user="derandi" changeset="9172803" lat="51.7694948" lon="14.3408167"/>
  <node id="338553403" version="3" timestamp="2010-07-29T09:42:15Z" uid="74617" user="JohnSmith" changeset="5344848" lat="47.8262445" lon="7.7959214">
    <tag k="amenity" v="emergency_phone"/>
    <tag k="emergency" v="phone"/>
  </node>
  <node id="338553403" version="4" timestamp="2012-03-29T15:37:24Z" uid="11374" user="q_un_go" changeset="11140119" lat="47.8262445" lon="7.7959214"/>
  <node id="338553469" version="2" timestamp="2010-07-29T09:29:20Z" uid="74617" user="JohnSmith" changeset="5344848" lat="47.7989324" lon="7.8127743">
    <tag k="amenity" v="emergency_phone"/>
    <tag k="emergency" v="phone"/>
  </node>
  <node id="338553469" version="3" timestamp="2012-01-23T22:18:37Z" uid="11374" user="q_un_go" changeset="10479869" lat="47.7989324" lon="7.8127743"/>
  <node id="338558798" version="3" timestamp="2009-02-01T19:19:34Z" uid="6975" user="ulfl" changeset="27333" lat="58.3652673" lon="25.5973539">
    <tag k="name" v="Reisiekspert"/>
    <tag k="shop" v="travel_agency"/>
  </node>
  <node id="338558798" version="4" timestamp="2010-10-24T11:08:14Z" uid="357111" user="enedaniel" changeset="6155378" lat="58.3652758" lon="25.5973309">
    <tag k="name" v="Reisiekspert"/>
    <tag k="shop" v="travel_agency"/>
  </node>
  <node id="338558798" version="5" timestamp="2010-10-24T16:14:13Z" uid="357111" user="enedaniel" changeset="6158446" lat="58.365256" lon="25.5973257">
    <tag k="name" v="Reisiekspert"/>
    <tag k="shop" v="travel_agency"/>
  </node>
  <node id="338558798" version="6" timestamp="2010-10-26T08:53:35Z" uid="357111" user="enedaniel" changeset="6180264" lat="58.3652718" lon="25.5973359">
    <tag k="name" v="Reisiekspert"/>
    <tag k="shop" v="travel_agency"/>
  </node>
  <node id="338558798" version="7" timestamp="2011-02-14T08:55:04Z" uid="357111" user="enedaniel" changeset="7283771" lat="58.3652718" lon="25.5973358">
    <tag k="addr:city" v="Viljandi"/>
    <tag k="addr:housenumber" v="1A"/>
    <tag k="addr:postcode" v="71004"/>
    <tag k="addr:street" v="Tartu"/>
    <tag k="name" v="Reisiekspert"/>
    <tag k="shop" v="travel_agency"/>
  </node>
  <node id="338558798" version="8" timestamp="2012-01-14T19:21:09Z" uid="357111" user="enedaniel" changeset="10391367" lat="58.3652501" lon="25.5973374">
    <tag k="addr:city" v="Viljandi"/>
    <tag k="addr:housenumber" v="1A"/>
    <tag k="addr:postcode" v="71004"/>
    <tag k="addr:street" v="Tartu"/>
    <tag k="name" v="Reisiekspert"/>
    <tag k="shop" v="travel_agency"/>
  </node>
</osm>
