<?xml version='1.0' encoding='UTF-8'?>
<osm version="0.6" generator="libosmium/2.20.0">
  <node id="339041287" version="1" timestamp="2009-01-30T00:13:09Z" uid="4467" user="Rosscoe" changeset="853721" lat="-20.2770729" lon="148.752445">
    <tag k="addr:country" v="AU"/>
    <tag k="addr:housenumber" v="2944"/>
    <tag k="addr:postcode" v="4802"/>
    <tag k="addr:street" v="Shute Harbour Road"/>
    <tag k="created_by" v="Potlatch 0.10f"/>
    <tag k="source" v="survey"/>
  </node>
  <node id="339041289" version="1" timestamp="2009-01-30T00:13:38Z" uid="4467" user="Rosscoe" changeset="853721" lat="-20.2749796" lon="148.7512862">
    <tag k="addr:country" v="AU"/>
    <tag k="addr:housenumber" v="2918"/>
    <tag k="addr:postcode" v="4802"/>
    <tag k="addr:street" v="Shute Harbour Road"/>
    <tag k="created_by" v="Potlatch 0.10f"/>
    <tag k="source" v="survey"/>
  </node>
  <node id="339041289" version="2" timestamp="2009-01-30T00:13:43Z" uid="4467" user="Rosscoe" changeset="853721" lat="-20.2749393" lon="148.7511575">
    <tag k="addr:country" v="AU"/>
    <tag k="addr:housenumber" v="2918"/>
    <tag k="addr:postcode" v="4802"/>
    <tag k="addr:street" v="Shute Harbour Road"/>
    <tag k="created_by" v="Potlatch 0.10f"/>
    <tag k="source" v="survey"/>
  </node>
  <node id="339041344" version="1" timestamp="2009-01-30T00:15:33Z" uid="4467" user="Rosscoe" changeset="853721" lat="-20.2850031" lon="148.7632167">
    <tag k="created_by" v="Potlatch 0.10f"/>
  </node>
  <node id="339041344" version="2" timestamp="2009-01-30T00:15:55Z" uid="4467" user="Rosscoe" changeset="853721" lat="-20.2847213" lon="148.7631738">
    <tag k="created_by" v="Potlatch 0.10f"/>
  </node>
  <node id="339041344" version="3" timestamp="2009-01-30T00:16:38Z" uid="4467" user="Rosscoe" changeset="853721" lat="-20.2847213" lon="148.7631738">
    <tag k="created_by" v="Potlatch 0.10f"/>
    <tag k="name" v="Conway National Park Picnic Area"/>
    <tag k="tourism" v="picnic_site"/>
  </node>
  <node id="339041345" version="1" timestamp="2009-01-30T00:15:36Z" uid="4467" user="Rosscoe" changeset="853721" lat="-20.2829099" lon="148.763045">
    <tag k="created_by" v="Potlatch 0.10f"/>
  </node>
  <node id="339041345" version="2" timestamp="2009-01-30T00:15:52Z" uid="4467" user="Rosscoe" changeset="853721" lat="-20.2834332" lon="148.7634742">
    <tag k="addr:country" v="AU"/>
    <tag k="addr:housenumber" v="2944"/>
    <tag k="addr:postcode" v="4802"/>
    <tag k="addr:street" v="Shute Harbour Road"/>
    <tag k="created_by" v="Potlatch 0.10f"/>
    <tag k="source" v="survey"/>
  </node>
  <node id="339041345" version="3" timestamp="2009-01-30T00:16:04Z" uid="4467" user="Rosscoe" changeset="853721" lat="-20.2834332" lon="148.7634742">
    <tag k="addr:country" v="AU"/>
    <tag k="addr:postcode" v="4802"/>
    <tag k="addr:street" v="Shute Harbour Road"/>
    <tag k="created_by" v="Potlatch 0.10f"/>
    <tag k="source" v="survey"/>
  </node>
  <node id="339041345" version="4" timestamp="2009-01-30T00:17:23Z" uid="4467" user="Rosscoe" changeset="853721" lat="-20.2835942" lon="148.7634742">
    <tag k="addr:country" v="AU"/>
    <tag k="addr:postcode" v="4802"/>
    <tag k="addr:street" v="Shute Harbour Road"/>
    <tag k="created_by" v="Potlatch 0.10f"/>
    <tag k="source" v="survey"/>
  </node>
  <node id="339041345" version="5" timestamp="2009-01-31T06:09:55Z" uid="4467" user="Rosscoe" changeset="859100" lat="-20.2835942" lon="148.7634742">
    <tag k="addr:city" v="Shute Harbour"/>
    <tag k="addr:country" v="AU"/>
    <tag k="addr:housenumber" v="3073"/>
    <tag k="addr:postcode" v="4802"/>
    <tag k="addr:street" v="Shute Harbour Road"/>
    <tag k="created_by" v="Potlatch 0.10f"/>
    <tag k="source" v="survey"/>
  </node>
  <node id="339041413" version="1" timestamp="2009-01-30T00:17:12Z" uid="4467" user="Rosscoe" changeset="853721" lat="-20.2855264" lon="148.7710702">
    <tag k="amenity" v="parking"/>
    <tag k="created_by" v="Potlatch 0.10f"/>
    <tag k="name" v="Swampy Bay car park"/>
  </node>
  <node id="339041413" version="2" timestamp="2009-01-30T00:17:17Z" uid="4467" user="Rosscoe" changeset="853721" lat="-20.2855264" lon="148.7709415">
    <tag k="amenity" v="parking"/>
    <tag k="created_by" v="Potlatch 0.10f"/>
    <tag k="name" v="Swampy Bay car park"/>
  </node>
  <node id="339041413" version="3" timestamp="2009-01-31T06:11:37Z" uid="4467" user="Rosscoe" changeset="859100" lat="-20.2855264" lon="148.7709415">
    <tag k="amenity" v="parking"/>
    <tag k="created_by" v="Potlatch 0.10f"/>
    <tag k="name" v="Swamp Bay car park"/>
  </node>
  <node id="339041413" version="4" timestamp="2009-08-17T05:16:49Z" uid="4467" user="Rosscoe" changeset="2173356" lat="-20.2855264" lon="148.7709415">
    <tag k="amenity" v="parking"/>
    <tag k="name" v="Swamp Bay car park"/>
    <tag k="parking" v="surface"/>
  </node>
  <node id="339042165" version="1" timestamp="2009-01-30T00:21:49Z" uid="4467" user="Rosscoe" changeset="853721" lat="-20.3992251" lon="148.5835731"/>
  <node id="339042165" version="2" timestamp="2011-01-02T04:32:31Z" uid="4467" user="Rosscoe" changeset="6835067" lat="-20.3994033" lon="148.5836092"/>
  <node id="339042165" version="3" timestamp="2011-01-02T09:42:13Z" uid="4467" user="Rosscoe" changeset="6836336" lat="-20.3994014" lon="148.5836397"/>
  <node id="339042169" version="1" timestamp="2009-01-30T00:21:51Z" uid="4467" user="Rosscoe" changeset="853721" lat="-20.3993217" lon="148.5843971"/>
  <node id="339042169" version="2" timestamp="2011-01-02T04:32:32Z" uid="4467" user="Rosscoe" changeset="6835067" lat="-20.3994922" lon="148.5843594"/>
  <node id="339042173" version="1" timestamp="2009-01-30T00:21:53Z" uid="4467" user="Rosscoe" changeset="853721" lat="-20.4002629" lon="148.5842855"/>
  <node id="339042175" version="1" timestamp="2009-01-30T00:21:55Z" uid="4467" user="Rosscoe" changeset="853721" lat="-20.4001503" lon="148.5834443"/>
  <node id="339042175" version="2" timestamp="2011-01-02T04:32:19Z" uid="4467" user="Rosscoe" changeset="6835067" lat="-20.4001196" lon="148.5835213"/>
  <node id="339042175" version="3" timestamp="2011-01-02T09:41:35Z" uid="4467" user="Rosscoe" changeset="6836336" lat="-20.400122" lon="148.5835409"/>
  <node id="339042231" version="2" timestamp="2010-12-29T12:36:20Z" uid="59758" user="rendle" changeset="6798067" lat="5.3043872" lon="-3.9757613"/>
  <node id="339042231" version="3" timestamp="2012-01-23T15:21:57Z" uid="1626" user="FredB" changeset="10476149" lat="5.3043872" lon="-3.9757613"/>
  <node id="339047331" version="2" timestamp="2009-10-13T19:14:31Z" uid="9581" user="Lobelt" changeset="2839506" lat="50.8219144" lon="11.6492927"/>
  <node id="339047331" version="3" timestamp="2012-02-16T21:48:25Z" uid="125832" user="tijuca" changeset="10705269" lat="50.8219144" lon="11.6492927"/>
  <node id="339041287" version="2" timestamp="2012-07-19T19:24:05Z" uid="722137" user="OSMF Redaction Account" changeset="12344854" lat="-20.2770729" lon="148.752445"/>
  <node id="339041289" version="3" timestamp="2012-07-19T19:24:05Z" uid="722137" user="OSMF Redaction Account" changeset="12344854" lat="-20.2749393" lon="148.7511575"/>
  <node id="339041344" version="4" timestamp="2012-07-19T19:24:02Z" uid="722137" user="OSMF Redaction Account" changeset="12344854" lat="-20.2847213" lon="148.7631738"/>
  <node id="339041345" version="6" timestamp="2012-07-19T19:24:03Z" uid="722137" user="OSMF Redaction Account" changeset="12344854" lat="-20.2835942" lon="148.7634742"/>
  <node id="339041413" version="5" timestamp="2012-07-19T19:24:01Z" uid="722137" user="OSMF Redaction Account" changeset="12344854" lat="-20.2855264" lon="148.7709415"/>
  <node id="339042165" version="4" timestamp="2012-07-19T20:19:35Z" uid="722137" user="OSMF Redaction Account" changeset="12345977" lat="-20.3994014" lon="148.5836397"/>
  <node id="339042169" version="3" timestamp="2012-07-19T20:19:34Z" uid="722137" user="OSMF Redaction Account" changeset="12345977" lat="-20.3994922" lon="148.5843594"/>
  <node id="339042173" version="2" timestamp="2012-07-19T20:19:30Z" uid="722137" user="OSMF Redaction Account" changeset="12345977" lat="-20.4002629" lon="148.5842855"/>
  <node id="339042175" version="4" timestamp="2012-07-19T20:19:32Z" uid="722137" user="OSMF Redaction Account" changeset="12345977" lat="-20.400122" lon="148.5835409"/>
</osm>
