<?xml version='1.0' encoding='UTF-8'?>
<osm version="0.6" generator="libosmium/2.20.0">
  <node id="339320062" version="3" timestamp="2010-06-17T13:16:35Z" uid="4467" user="Rosscoe" changeset="5008731" lat="-27.6117918" lon="152.8972837"/>
  <node id="339320063" version="3" timestamp="2010-06-17T13:17:35Z" uid="4467" user="Rosscoe" changeset="5008731" lat="-27.6112822" lon="152.8963739"/>
  <node id="339320064" version="3" timestamp="2010-06-17T13:15:31Z" uid="4467" user="Rosscoe" changeset="5008731" lat="-27.6112028" lon="152.8962452">
    <tag k="highway" v="traffic_signals"/>
  </node>
  <node id="339320395" version="3" timestamp="2010-06-17T13:16:39Z" uid="4467" user="Rosscoe" changeset="5008731" lat="-27.6092743" lon="152.8964339"/>
  <node id="339320397" version="3" timestamp="2010-06-17T13:17:21Z" uid="4467" user="Rosscoe" changeset="5008731" lat="-27.6098143" lon="152.8962795"/>
  <node id="339320419" version="4" timestamp="2010-06-17T13:16:37Z" uid="4467" user="Rosscoe" changeset="5008731" lat="-27.6088408" lon="152.8955585"/>
  <node id="339320421" version="4" timestamp="2010-06-17T13:17:18Z" uid="4467" user="Rosscoe" changeset="5008731" lat="-27.6089929" lon="152.8956529"/>
  <node id="339320652" version="4" timestamp="2010-06-17T13:03:31Z" uid="4467" user="Rosscoe" changeset="5008609" lat="-27.6088074" lon="152.8940077"/>
  <node id="339320652" version="5" timestamp="2010-06-17T13:15:17Z" uid="4467" user="Rosscoe" changeset="5008731" lat="-27.6088074" lon="152.8940077"/>
  <node id="339322354" version="5" timestamp="2010-06-26T05:28:51Z" uid="74617" user="JohnSmith" changeset="5078372" lat="-27.5993103" lon="152.8846192"/>
  <node id="339322355" version="5" timestamp="2010-06-26T05:28:52Z" uid="74617" user="JohnSmith" changeset="5078372" lat="-27.5995885" lon="152.885362"/>
  <node id="339322356" version="4" timestamp="2010-06-26T05:28:52Z" uid="74617" user="JohnSmith" changeset="5078372" lat="-27.5997775" lon="152.8857036"/>
  <node id="339322357" version="5" timestamp="2010-06-26T05:28:51Z" uid="74617" user="JohnSmith" changeset="5078372" lat="-27.5999969" lon="152.886028"/>
  <node id="339322358" version="4" timestamp="2010-06-26T05:28:52Z" uid="74617" user="JohnSmith" changeset="5078372" lat="-27.6005126" lon="152.8865876"/>
  <node id="339322359" version="4" timestamp="2010-06-26T05:28:51Z" uid="74617" user="JohnSmith" changeset="5078372" lat="-27.6006468" lon="152.8867063"/>
  <node id="339322360" version="4" timestamp="2010-06-26T05:28:51Z" uid="74617" user="JohnSmith" changeset="5078372" lat="-27.6007939" lon="152.8868225"/>
  <node id="339322361" version="4" timestamp="2010-06-26T05:28:52Z" uid="74617" user="JohnSmith" changeset="5078372" lat="-27.6011692" lon="152.887111"/>
  <node id="339322362" version="4" timestamp="2010-06-26T05:28:52Z" uid="74617" user="JohnSmith" changeset="5078372" lat="-27.6014648" lon="152.8873512"/>
  <node id="339322363" version="4" timestamp="2010-06-26T05:24:29Z" uid="74617" user="JohnSmith" changeset="5078372" lat="-27.6020116" lon="152.8879381"/>
  <node id="339322364" version="4" timestamp="2010-06-26T05:24:28Z" uid="74617" user="JohnSmith" changeset="5078372" lat="-27.6022413" lon="152.8882719"/>
  <node id="339322395" version="3" timestamp="2010-06-26T07:00:15Z" uid="74617" user="JohnSmith" changeset="5078709" lat="-27.5984061" lon="152.8779273"/>
  <node id="339323523" version="3" timestamp="2009-07-25T14:06:32Z" uid="123700" user="Mala" changeset="1934670" lat="-12.2206107" lon="44.2389278">
    <tag k="created_by" v="Potlatch 0.10f"/>
    <tag k="name" v="القمر"/>
    <tag k="name:de" v="Komoren"/>
    <tag k="name:en" v="Comoros"/>
    <tag k="name:fr" v="Comores"/>
    <tag k="place" v="island"/>
  </node>
  <node id="339323879" version="2" timestamp="2009-07-24T01:21:50Z" uid="20587" user="balrog-kun" changeset="1920720" lat="-12.210712" lon="44.3089657">
    <tag k="int_name" v="Anjouan"/>
    <tag k="name" v="Nzwani / أنجوان"/>
    <tag k="name:ar" v="أنجوان"/>
    <tag k="name:en" v="Anjouan"/>
    <tag k="name:pl" v="Anjouan"/>
    <tag k="place" v="island"/>
    <tag k="wikipedia" v="Anjouan"/>
  </node>
  <node id="339323879" version="3" timestamp="2010-07-14T15:15:06Z" uid="314684" user="krattbot" changeset="5217669" lat="-12.210712" lon="44.3089657">
    <tag k="int_name" v="Anjouan"/>
    <tag k="name" v="Nzwani / أنجوان"/>
    <tag k="name:ar" v="أنجوان"/>
    <tag k="name:en" v="Anjouan"/>
    <tag k="name:et" v="Ndzwani"/>
    <tag k="name:pl" v="Anjouan"/>
    <tag k="place" v="island"/>
    <tag k="wikipedia" v="Anjouan"/>
  </node>
  <node id="339323879" version="4" timestamp="2011-04-02T10:06:27Z" uid="217627" user="nirvanareborn" changeset="7742534" lat="-12.2138621" lon="44.419846">
    <tag k="int_name" v="Anjouan"/>
    <tag k="name" v="Nzwani / أنجوان"/>
    <tag k="name:ar" v="أنجوان"/>
    <tag k="name:en" v="Anjouan"/>
    <tag k="name:et" v="Ndzwani"/>
    <tag k="name:pl" v="Anjouan"/>
    <tag k="place" v="island"/>
    <tag k="wikipedia" v="Anjouan"/>
  </node>
  <node id="339323879" version="5" timestamp="2012-03-19T19:14:06Z" uid="210173" user="osmmaker" changeset="11033608" lat="-12.2138621" lon="44.419846">
    <tag k="int_name" v="Anjouan"/>
    <tag k="name" v="Nzwani / أنجوان"/>
    <tag k="name:ar" v="أنجوان"/>
    <tag k="name:en" v="Anjouan"/>
    <tag k="name:et" v="Ndzwani"/>
    <tag k="name:fr" v="Anjouan"/>
    <tag k="name:pl" v="Anjouan"/>
    <tag k="place" v="island"/>
    <tag k="wikipedia" v="Anjouan"/>
  </node>
  <node id="339324036" version="3" timestamp="2011-02-24T20:46:29Z" uid="23543" user="jkjk" changeset="7385119" lat="9.2735777" lon="-79.7644351"/>
  <node id="339324163" version="2" timestamp="2009-07-24T01:21:50Z" uid="20587" user="balrog-kun" changeset="1920720" lat="-12.3232669" lon="43.7313251">
    <tag k="int_name" v="Mohéli"/>
    <tag k="name" v="Mwali"/>
    <tag k="name:en" v="Moheli"/>
    <tag k="name:es" v="Mohéli"/>
    <tag k="name:fr" v="Mohéli"/>
    <tag k="name:pl" v="Moheli"/>
    <tag k="place" v="island"/>
    <tag k="wikipedia" v="Mohéli"/>
  </node>
  <node id="339324163" version="3" timestamp="2012-01-30T19:31:21Z" uid="111159" user="MaZderMind" changeset="10542935" lat="-12.3232669" lon="43.7313251">
    <tag k="int_name" v="Mohéli"/>
    <tag k="name" v="Mwali"/>
    <tag k="name:de" v="Mohéli"/>
    <tag k="name:en" v="Moheli"/>
    <tag k="name:es" v="Mohéli"/>
    <tag k="name:fr" v="Mohéli"/>
    <tag k="name:pl" v="Moheli"/>
    <tag k="place" v="island"/>
    <tag k="wikipedia" v="Mohéli"/>
  </node>
  <node id="339324392" version="2" timestamp="2010-07-22T13:40:48Z" uid="4467" user="Rosscoe" changeset="5287507" lat="-27.57009" lon="153.0484444"/>
  <node id="339324413" version="2" timestamp="2010-07-22T13:39:41Z" uid="4467" user="Rosscoe" changeset="5287507" lat="-27.570118" lon="153.0484453"/>
  <node id="339324434" version="2" timestamp="2010-07-22T13:39:38Z" uid="4467" user="Rosscoe" changeset="5287507" lat="-27.5701307" lon="153.0484771"/>
  <node id="339324462" version="3" timestamp="2010-07-22T13:40:05Z" uid="4467" user="Rosscoe" changeset="5287507" lat="-27.5701861" lon="153.0485999"/>
  <node id="339324562" version="5" timestamp="2009-07-24T01:21:50Z" uid="20587" user="balrog-kun" changeset="1920720" lat="-11.7460688" lon="43.2355671">
    <tag k="capital" v="yes"/>
    <tag k="is_in" v="Comoros"/>
    <tag k="name" v="Moroni"/>
    <tag k="name:ar" v="موروني"/>
    <tag k="name:en" v="Moroni"/>
    <tag k="place" v="city"/>
    <tag k="wikipedia" v="Moroni, Comoros"/>
  </node>
  <node id="339324562" version="6" timestamp="2009-09-07T23:39:09Z" uid="24965" user="Ævar Arnfjörð Bjarmason" changeset="2408705" lat="-11.7460688" lon="43.2355671">
    <tag k="capital" v="yes"/>
    <tag k="is_in" v="Comoros"/>
    <tag k="name" v="Moroni"/>
    <tag k="name:ar" v="موروني"/>
    <tag k="name:en" v="Moroni"/>
    <tag k="name:is" v="Moróní"/>
    <tag k="place" v="city"/>
    <tag k="wikipedia" v="Moroni, Comoros"/>
  </node>
  <node id="339324562" version="7" timestamp="2009-09-24T17:00:41Z" uid="22108" user="afonin" changeset="2607794" lat="-11.7460688" lon="43.2355671">
    <tag k="capital" v="yes"/>
    <tag k="is_in" v="Comoros"/>
    <tag k="name" v="Moroni"/>
    <tag k="name:ar" v="موروني"/>
    <tag k="name:en" v="Moroni"/>
    <tag k="name:is" v="Moróní"/>
    <tag k="name:ru" v="Морони"/>
    <tag k="place" v="city"/>
    <tag k="wikipedia" v="Moroni, Comoros"/>
  </node>
  <node id="339324562" version="8" timestamp="2009-12-31T15:07:17Z" uid="33589" user="zenfunk" changeset="3501585" lat="-11.6931255" lon="43.2543044">
    <tag k="capital" v="yes"/>
    <tag k="is_in" v="Comoros"/>
    <tag k="name" v="Moroni"/>
    <tag k="name:ar" v="موروني"/>
    <tag k="name:en" v="Moroni"/>
    <tag k="name:is" v="Moróní"/>
    <tag k="name:ru" v="Морони"/>
    <tag k="place" v="city"/>
    <tag k="wikipedia" v="Moroni, Comoros"/>
  </node>
  <node id="339324562" version="9" timestamp="2010-11-13T21:54:50Z" uid="76269" user="Snusmumriken" changeset="6362369" lat="-11.6931255" lon="43.2543044">
    <tag k="capital" v="yes"/>
    <tag k="is_in" v="Comoros"/>
    <tag k="name" v="Moroni"/>
    <tag k="name:ar" v="موروني"/>
    <tag k="name:en" v="Moroni"/>
    <tag k="name:is" v="Moróní"/>
    <tag k="name:ru" v="Морони"/>
    <tag k="name:sv" v="Moroni"/>
    <tag k="place" v="city"/>
    <tag k="wikipedia" v="Moroni, Comoros"/>
  </node>
  <node id="339324562" version="10" timestamp="2012-03-30T13:09:10Z" uid="560896" user="Ghybu" changeset="11153801" lat="-11.6931255" lon="43.2543044">
    <tag k="capital" v="yes"/>
    <tag k="is_in" v="Comoros"/>
    <tag k="name" v="Moroni"/>
    <tag k="name:ar" v="موروني"/>
    <tag k="name:en" v="Moroni"/>
    <tag k="name:is" v="Moróní"/>
    <tag k="name:ku" v="Moronî"/>
    <tag k="name:ru" v="Морони"/>
    <tag k="name:sv" v="Moroni"/>
    <tag k="place" v="city"/>
    <tag k="wikipedia" v="Moroni, Comoros"/>
  </node>
  <node id="339324827" version="2" timestamp="2009-07-24T01:21:50Z" uid="20587" user="balrog-kun" changeset="1920720" lat="-11.7578332" lon="43.3038883">
    <tag k="name" v="Ngazidja"/>
    <tag k="name:en" v="Grande Comore"/>
    <tag k="name:es" v="Gran Comora"/>
    <tag k="name:pl" v="Wielki Komor"/>
    <tag k="place" v="island"/>
    <tag k="wikipedia" v="Grande Comore"/>
  </node>
  <node id="339324827" version="3" timestamp="2012-03-08T14:40:13Z" uid="7045" user="Xuacu" changeset="10909736" lat="-11.7578332" lon="43.3038883">
    <tag k="name" v="Ngazidja"/>
    <tag k="name:ast" v="Gran Comora"/>
    <tag k="name:en" v="Grande Comore"/>
    <tag k="name:es" v="Gran Comora"/>
    <tag k="name:pl" v="Wielki Komor"/>
    <tag k="place" v="island"/>
    <tag k="wikipedia" v="Grande Comore"/>
  </node>
  <node id="339324827" version="4" timestamp="2012-03-19T19:03:28Z" uid="210173" user="osmmaker" changeset="11033434" lat="-11.7578332" lon="43.3038883">
    <tag k="name" v="Ngazidja"/>
    <tag k="name:ast" v="Gran Comora"/>
    <tag k="name:en" v="Grande Comore"/>
    <tag k="name:es" v="Gran Comora"/>
    <tag k="name:fr" v="Grande Comore"/>
    <tag k="name:pl" v="Wielki Komor"/>
    <tag k="place" v="island"/>
    <tag k="wikipedia" v="Grande Comore"/>
  </node>
  <node id="339324998" version="7" timestamp="2010-06-17T13:15:40Z" uid="4467" user="Rosscoe" changeset="5008731" lat="-27.6133171" lon="152.8955958"/>
  <node id="339325028" version="2" timestamp="2010-05-13T23:11:58Z" uid="4467" user="Rosscoe" changeset="4691568" lat="-34.9428128" lon="138.5489287">
    <tag k="addr:housenumber" v="1A"/>
  </node>
  <node id="339325029" version="2" timestamp="2010-05-13T23:11:56Z" uid="4467" user="Rosscoe" changeset="4691568" lat="-34.9426478" lon="138.5489217">
    <tag k="addr:housenumber" v="1"/>
  </node>
  <node id="339325030" version="2" timestamp="2010-05-13T23:11:57Z" uid="4467" user="Rosscoe" changeset="4691568" lat="-34.9424977" lon="138.5489153">
    <tag k="addr:housenumber" v="3"/>
  </node>
  <node id="339325031" version="2" timestamp="2010-05-13T23:11:58Z" uid="4467" user="Rosscoe" changeset="4691568" lat="-34.9423447" lon="138.5489088">
    <tag k="addr:housenumber" v="5"/>
  </node>
  <node id="339325312" version="7" timestamp="2010-04-24T03:09:07Z" uid="4467" user="Rosscoe" changeset="4508888" lat="-27.6180431" lon="152.8861008"/>
  <node id="339325313" version="4" timestamp="2010-04-24T03:09:07Z" uid="4467" user="Rosscoe" changeset="4508888" lat="-27.6182411" lon="152.8860999">
    <tag k="direction" v="clockwise"/>
    <tag k="highway" v="mini_roundabout"/>
  </node>
  <node id="339325314" version="7" timestamp="2010-04-24T03:09:03Z" uid="4467" user="Rosscoe" changeset="4508888" lat="-27.6183931" lon="152.8860727"/>
  <node id="339325315" version="7" timestamp="2010-04-24T03:09:05Z" uid="4467" user="Rosscoe" changeset="4508888" lat="-27.6186323" lon="152.8859907"/>
  <node id="339325532" version="3" timestamp="2009-09-30T13:36:58Z" uid="36809" user="pfoten_weg_!_" changeset="2688655" lat="48.2174207" lon="11.2594102">
    <tag k="amenity" v="post_office"/>
  </node>
  <node id="339325532" version="4" timestamp="2009-11-01T15:19:04Z" uid="94149" user="markusri" changeset="3007294" lat="48.2226529" lon="11.2634905">
    <tag k="amenity" v="post_office"/>
  </node>
  <node id="339325532" version="5" timestamp="2012-03-20T23:45:37Z" uid="125808" user="oeeea" changeset="11047033" lat="48.2226529" lon="11.2634905"/>
  <node id="339325682" version="3" timestamp="2009-11-09T14:54:39Z" uid="74617" user="JohnSmith" changeset="3074092" lat="-27.6225145" lon="152.8860269"/>
  <node id="339325683" version="3" timestamp="2009-11-09T14:54:39Z" uid="74617" user="JohnSmith" changeset="3074092" lat="-27.6224245" lon="152.8854475"/>
  <node id="339325684" version="6" timestamp="2009-11-09T14:54:40Z" uid="74617" user="JohnSmith" changeset="3074092" lat="-27.6223752" lon="152.8853551"/>
  <node id="339325685" version="1" timestamp="2009-01-31T13:22:36Z" uid="90843" user="drbud" changeset="860829" lat="49.5723569" lon="11.199125">
    <tag k="created_by" v="Potlatch 0.10f"/>
  </node>
  <node id="339325685" version="2" timestamp="2009-01-31T13:23:49Z" uid="90843" user="drbud" changeset="860829" lat="49.5723569" lon="11.199125">
    <tag k="created_by" v="Potlatch 0.10f"/>
    <tag k="name " v="Dornauer"/>
    <tag k="shop" v="bakery"/>
  </node>
  <node id="339325685" version="3" timestamp="2009-02-01T16:50:53Z" uid="6975" user="ulfl" changeset="27333" lat="49.5723569" lon="11.199125">
    <tag k="name" v="Dornauer"/>
    <tag k="shop" v="bakery"/>
  </node>
  <node id="339325903" version="5" timestamp="2009-11-09T14:54:40Z" uid="74617" user="JohnSmith" changeset="3074092" lat="-27.6220637" lon="152.8853398"/>
  <node id="339325904" version="5" timestamp="2009-11-09T14:54:40Z" uid="74617" user="JohnSmith" changeset="3074092" lat="-27.6221838" lon="152.8853058"/>
  <node id="339325905" version="5" timestamp="2009-11-09T14:54:40Z" uid="74617" user="JohnSmith" changeset="3074092" lat="-27.622303" lon="152.8853084"/>
  <node id="339326227" version="2" timestamp="2010-01-14T19:22:43Z" uid="9581" user="Lobelt" changeset="3619231" lat="49.5547397" lon="8.6656003"/>
  <node id="339326229" version="3" timestamp="2010-03-11T19:51:43Z" uid="9581" user="Lobelt" changeset="4100775" lat="49.5545077" lon="8.6655207">
    <tag k="man_made" v="water_tower"/>
  </node>
  <node id="339326368" version="2" timestamp="2010-07-22T13:40:11Z" uid="4467" user="Rosscoe" changeset="5287507" lat="-27.5736047" lon="153.0481046"/>
  <node id="339326375" version="2" timestamp="2010-07-22T13:40:38Z" uid="4467" user="Rosscoe" changeset="5287507" lat="-27.5738521" lon="153.0497021"/>
  <node id="339326845" version="3" timestamp="2009-11-09T14:54:39Z" uid="74617" user="JohnSmith" changeset="3074092" lat="-27.6239766" lon="152.8849882"/>
  <node id="339326856" version="2" timestamp="2009-11-09T09:18:01Z" uid="74617" user="JohnSmith" changeset="3071627" lat="-27.6252135" lon="152.8842182"/>
  <node id="339326857" version="2" timestamp="2009-11-09T09:18:01Z" uid="74617" user="JohnSmith" changeset="3071627" lat="-27.6251514" lon="152.8842359"/>
  <node id="339326861" version="2" timestamp="2009-11-09T09:18:01Z" uid="74617" user="JohnSmith" changeset="3071627" lat="-27.6252104" lon="152.8843934"/>
  <node id="339326862" version="2" timestamp="2009-11-09T09:18:01Z" uid="74617" user="JohnSmith" changeset="3071627" lat="-27.6252655" lon="152.884351"/>
  <node id="339326863" version="2" timestamp="2009-11-09T09:18:01Z" uid="74617" user="JohnSmith" changeset="3071627" lat="-27.6253124" lon="152.8842627"/>
  <node id="339326910" version="4" timestamp="2009-09-30T13:33:37Z" uid="36809" user="pfoten_weg_!_" changeset="2688655" lat="48.2280565" lon="11.2300259">
    <tag k="bus_lines" v="837"/>
    <tag k="highway" v="bus_stop"/>
    <tag k="name" v="Frauenberg, Abzw. Germerswang"/>
  </node>
  <node id="339326910" version="5" timestamp="2009-10-31T07:09:56Z" uid="94149" user="markusri" changeset="2995112" lat="48.2280499" lon="11.2299896">
    <tag k="bus_lines" v="837"/>
    <tag k="highway" v="bus_stop"/>
    <tag k="name" v="Frauenberg, Abzw. Germerswang"/>
  </node>
  <node id="339326910" version="6" timestamp="2009-10-31T21:30:09Z" uid="94149" user="markusri" changeset="3001650" lat="48.2280371" lon="11.2299669">
    <tag k="bus_lines" v="837"/>
    <tag k="highway" v="bus_stop"/>
    <tag k="name" v="Frauenberg, Abzw. Germerswang"/>
  </node>
  <node id="339326910" version="7" timestamp="2009-10-31T21:30:21Z" uid="94149" user="markusri" changeset="3001650" lat="48.2280371" lon="11.2299841">
    <tag k="bus_lines" v="837"/>
    <tag k="highway" v="bus_stop"/>
    <tag k="name" v="Frauenberg, Abzw. Germerswang"/>
  </node>
  <node id="339326910" version="8" timestamp="2010-09-16T11:25:49Z" uid="70696" user="xybot" changeset="5793857" lat="48.2280371" lon="11.2299841">
    <tag k="bus_lines" v="837"/>
    <tag k="highway" v="bus_stop"/>
    <tag k="name" v="Frauenberg, Abzweig Germerswang"/>
  </node>
  <node id="339326911" version="3" timestamp="2010-04-24T03:09:06Z" uid="4467" user="Rosscoe" changeset="4508888" lat="-27.6182571" lon="152.8862407"/>
  <node id="339328309" version="2" timestamp="2009-03-13T17:09:33Z" uid="5871" user="Banny" changeset="800480" lat="50.9570524" lon="7.0927405"/>
  <node id="339328309" version="3" timestamp="2009-07-14T21:25:06Z" uid="45059" user="donDH" changeset="1831504" lat="50.9570551" lon="7.0927995"/>
  <node id="339328309" version="4" timestamp="2010-03-05T07:53:40Z" uid="172867" user="AmiFritz" changeset="4038560" lat="50.9570551" lon="7.0927995"/>
  <node id="339328356" version="3" timestamp="2009-09-30T13:33:22Z" uid="36809" user="pfoten_weg_!_" changeset="2688655" lat="48.228061" lon="11.2228434">
    <tag k="amenity" v="bench"/>
    <tag k="natural" v="tree"/>
  </node>
  <node id="339328356" version="4" timestamp="2011-01-17T21:10:57Z" uid="7596" user="ck3d" changeset="7004410" lat="48.2280981" lon="11.222967">
    <tag k="amenity" v="bench"/>
    <tag k="natural" v="tree"/>
  </node>
  <node id="339328357" version="2" timestamp="2010-07-22T13:40:44Z" uid="4467" user="Rosscoe" changeset="5287507" lat="-27.5701156" lon="153.0485132"/>
  <node id="339328358" version="2" timestamp="2010-07-22T13:40:26Z" uid="4467" user="Rosscoe" changeset="5287507" lat="-27.5684288" lon="153.0488221"/>
  <node id="339328360" version="2" timestamp="2010-07-22T13:40:57Z" uid="4467" user="Rosscoe" changeset="5287507" lat="-27.5680684" lon="153.0464253"/>
  <node id="339328361" version="2" timestamp="2010-07-22T13:40:39Z" uid="4467" user="Rosscoe" changeset="5287507" lat="-27.5682847" lon="153.0462951"/>
  <node id="339328362" version="2" timestamp="2010-07-22T13:40:13Z" uid="4467" user="Rosscoe" changeset="5287507" lat="-27.569847" lon="153.0478961"/>
  <node id="339328386" version="2" timestamp="2010-07-22T13:39:46Z" uid="4467" user="Rosscoe" changeset="5287507" lat="-27.5703382" lon="153.0485721"/>
  <node id="339328530" version="2" timestamp="2010-07-11T08:17:27Z" uid="4467" user="Rosscoe" changeset="5187776" lat="-34.9398628" lon="138.5507647"/>
  <node id="339328636" version="2" timestamp="2010-07-11T08:17:33Z" uid="4467" user="Rosscoe" changeset="5187776" lat="-34.9389583" lon="138.5506934"/>
  <node id="339328664" version="2" timestamp="2010-05-13T23:11:57Z" uid="4467" user="Rosscoe" changeset="4691568" lat="-34.940056" lon="138.5469205"/>
  <node id="339328666" version="2" timestamp="2010-05-13T23:11:58Z" uid="4467" user="Rosscoe" changeset="4691568" lat="-34.9399944" lon="138.5469157"/>
  <node id="339328669" version="2" timestamp="2010-05-13T23:11:57Z" uid="4467" user="Rosscoe" changeset="4691568" lat="-34.9391127" lon="138.5475978"/>
  <node id="339328886" version="1" timestamp="2009-01-31T13:46:43Z" uid="55964" user="Evan Sebire" changeset="860182" lat="-37.758803" lon="145.3053655">
    <tag k="created_by" v="Merkaartor 0.13"/>
  </node>
  <node id="339328887" version="1" timestamp="2009-01-31T13:46:44Z" uid="55964" user="Evan Sebire" changeset="860182" lat="-37.7590159" lon="145.3053629">
    <tag k="created_by" v="Merkaartor 0.13"/>
  </node>
  <node id="339328888" version="1" timestamp="2009-01-31T13:46:44Z" uid="55964" user="Evan Sebire" changeset="860182" lat="-37.7594353" lon="145.3054938">
    <tag k="created_by" v="Merkaartor 0.13"/>
  </node>
  <node id="339328889" version="1" timestamp="2009-01-31T13:46:44Z" uid="55964" user="Evan Sebire" changeset="860182" lat="-37.7595535" lon="145.3055423">
    <tag k="created_by" v="Merkaartor 0.13"/>
  </node>
  <node id="339328890" version="1" timestamp="2009-01-31T13:46:45Z" uid="55964" user="Evan Sebire" changeset="860182" lat="-37.7598017" lon="145.3056628">
    <tag k="created_by" v="Merkaartor 0.13"/>
  </node>
  <node id="339328891" version="1" timestamp="2009-01-31T13:46:45Z" uid="55964" user="Evan Sebire" changeset="860182" lat="-37.7599687" lon="145.3057439">
    <tag k="created_by" v="Merkaartor 0.13"/>
  </node>
  <node id="339328892" version="1" timestamp="2009-01-31T13:46:45Z" uid="55964" user="Evan Sebire" changeset="860182" lat="-37.7603041" lon="145.3059882">
    <tag k="created_by" v="Merkaartor 0.13"/>
  </node>
  <node id="339328893" version="1" timestamp="2009-01-31T13:46:46Z" uid="55964" user="Evan Sebire" changeset="860182" lat="-37.7605176" lon="145.3061799">
    <tag k="created_by" v="Merkaartor 0.13"/>
  </node>
  <node id="339328893" version="2" timestamp="2011-03-07T00:42:17Z" uid="4467" user="Rosscoe" changeset="7480147" lat="-37.7605176" lon="145.3061799"/>
  <node id="339328894" version="1" timestamp="2009-01-31T13:46:47Z" uid="55964" user="Evan Sebire" changeset="860182" lat="-37.7597396" lon="145.3058692">
    <tag k="created_by" v="Merkaartor 0.13"/>
  </node>
  <node id="339328895" version="1" timestamp="2009-01-31T13:46:48Z" uid="55964" user="Evan Sebire" changeset="860182" lat="-37.759638" lon="145.306174">
    <tag k="created_by" v="Merkaartor 0.13"/>
  </node>
  <node id="339328896" version="1" timestamp="2009-01-31T13:46:48Z" uid="55964" user="Evan Sebire" changeset="860182" lat="-37.7594738" lon="145.3068056">
    <tag k="created_by" v="Merkaartor 0.13"/>
  </node>
  <node id="339328897" version="1" timestamp="2009-01-31T13:46:49Z" uid="55964" user="Evan Sebire" changeset="860182" lat="-37.7594374" lon="145.3069462">
    <tag k="created_by" v="Merkaartor 0.13"/>
  </node>
  <node id="339328898" version="1" timestamp="2009-01-31T13:46:49Z" uid="55964" user="Evan Sebire" changeset="860182" lat="-37.759368" lon="145.306764">
    <tag k="created_by" v="Merkaartor 0.13"/>
  </node>
  <node id="339328904" version="1" timestamp="2009-01-31T13:46:51Z" uid="55964" user="Evan Sebire" changeset="860182" lat="-37.7588246" lon="145.305281">
    <tag k="created_by" v="Merkaartor 0.13"/>
  </node>
  <node id="339328905" version="1" timestamp="2009-01-31T13:46:52Z" uid="55964" user="Evan Sebire" changeset="860182" lat="-37.7573655" lon="145.3055141">
    <tag k="created_by" v="Merkaartor 0.13"/>
  </node>
  <node id="339328905" version="2" timestamp="2011-03-23T14:06:11Z" uid="4467" user="Rosscoe" changeset="7646821" lat="-37.7573713" lon="145.3054831"/>
  <node id="339328906" version="1" timestamp="2009-01-31T13:46:53Z" uid="55964" user="Evan Sebire" changeset="860182" lat="-37.7571522" lon="145.3054811">
    <tag k="created_by" v="Merkaartor 0.13"/>
  </node>
  <node id="339328906" version="2" timestamp="2011-03-23T14:06:33Z" uid="4467" user="Rosscoe" changeset="7646821" lat="-37.7571666" lon="145.3054467"/>
  <node id="339329124" version="2" timestamp="2010-01-16T16:07:02Z" uid="9581" user="Lobelt" changeset="3632801" lat="49.4519565" lon="7.7811518"/>
  <node id="339329124" version="3" timestamp="2012-01-17T11:31:26Z" uid="38844" user="morlautrer" changeset="10416704" lat="49.4519868" lon="7.7811824"/>
  <node id="339329125" version="2" timestamp="2010-01-16T16:07:01Z" uid="9581" user="Lobelt" changeset="3632801" lat="49.4510753" lon="7.781779"/>
  <node id="339329125" version="3" timestamp="2011-03-17T13:49:19Z" uid="38844" user="morlautrer" changeset="7585577" lat="49.4510495" lon="7.7817785"/>
  <node id="339329125" version="4" timestamp="2012-01-17T11:31:26Z" uid="38844" user="morlautrer" changeset="10416704" lat="49.4510746" lon="7.7817918"/>
  <node id="339329126" version="2" timestamp="2010-01-16T16:07:01Z" uid="9581" user="Lobelt" changeset="3632801" lat="49.4518331" lon="7.7807246"/>
  <node id="339329126" version="3" timestamp="2012-01-17T11:31:26Z" uid="38844" user="morlautrer" changeset="10416704" lat="49.4518521" lon="7.7807326"/>
  <node id="339329127" version="2" timestamp="2010-01-16T16:07:01Z" uid="9581" user="Lobelt" changeset="3632801" lat="49.4510429" lon="7.7812491"/>
  <node id="339329127" version="3" timestamp="2012-01-17T11:31:26Z" uid="38844" user="morlautrer" changeset="10416704" lat="49.4510636" lon="7.7812584"/>
  <node id="339329128" version="2" timestamp="2010-01-16T16:07:01Z" uid="9581" user="Lobelt" changeset="3632801" lat="49.4500833" lon="7.7804681"/>
  <node id="339329128" version="3" timestamp="2011-03-17T13:49:34Z" uid="38844" user="morlautrer" changeset="7585577" lat="49.4501502" lon="7.7805571"/>
  <node id="339329128" version="4" timestamp="2012-01-17T11:31:26Z" uid="38844" user="morlautrer" changeset="10416704" lat="49.4500053" lon="7.7804085"/>
  <node id="339329129" version="2" timestamp="2010-01-16T16:07:01Z" uid="9581" user="Lobelt" changeset="3632801" lat="49.4507537" lon="7.7808407"/>
  <node id="339329129" version="3" timestamp="2011-03-17T13:49:44Z" uid="38844" user="morlautrer" changeset="7585577" lat="49.4507554" lon="7.7808916"/>
  <node id="339329129" version="4" timestamp="2012-01-17T11:31:26Z" uid="38844" user="morlautrer" changeset="10416704" lat="49.450771" lon="7.7809076"/>
  <node id="339329130" version="2" timestamp="2010-01-16T16:07:01Z" uid="9581" user="Lobelt" changeset="3632801" lat="49.4501652" lon="7.7801876"/>
  <node id="339329130" version="3" timestamp="2011-03-17T13:49:51Z" uid="38844" user="morlautrer" changeset="7585577" lat="49.4502122" lon="7.7803645"/>
  <node id="339329130" version="4" timestamp="2012-01-17T11:31:27Z" uid="38844" user="morlautrer" changeset="10416704" lat="49.4501089" lon="7.7801294"/>
  <node id="339329131" version="2" timestamp="2010-01-16T16:07:01Z" uid="9581" user="Lobelt" changeset="3632801" lat="49.450466" lon="7.7797869"/>
  <node id="339329131" version="3" timestamp="2011-03-17T13:49:23Z" uid="38844" user="morlautrer" changeset="7585577" lat="49.4504712" lon="7.779811"/>
  <node id="339329131" version="4" timestamp="2012-01-17T11:31:27Z" uid="38844" user="morlautrer" changeset="10416704" lat="49.4504798" lon="7.779799"/>
  <node id="339329132" version="2" timestamp="2010-01-16T16:07:01Z" uid="9581" user="Lobelt" changeset="3632801" lat="49.4501111" lon="7.779987"/>
  <node id="339329132" version="3" timestamp="2011-03-17T13:49:25Z" uid="38844" user="morlautrer" changeset="7585577" lat="49.450132" lon="7.7800272"/>
  <node id="339329132" version="4" timestamp="2012-01-17T11:31:27Z" uid="38844" user="morlautrer" changeset="10416704" lat="49.4501383" lon="7.7799986"/>
  <node id="339329345" version="7" timestamp="2010-06-17T13:15:58Z" uid="4467" user="Rosscoe" changeset="5008731" lat="-27.613525" lon="152.895681"/>
  <node id="339329399" version="3" timestamp="2010-06-17T13:17:34Z" uid="4467" user="Rosscoe" changeset="5008731" lat="-27.609145" lon="152.8953096"/>
  <node id="339329408" version="3" timestamp="2010-06-17T13:17:08Z" uid="4467" user="Rosscoe" changeset="5008731" lat="-27.6076315" lon="152.8947345"/>
  <node id="339329413" version="1" timestamp="2009-01-31T13:51:11Z" uid="55964" user="Evan Sebire" changeset="860182" lat="-37.7588613" lon="145.3032137">
    <tag k="created_by" v="Merkaartor 0.13"/>
  </node>
  <node id="339329414" version="1" timestamp="2009-01-31T13:51:11Z" uid="55964" user="Evan Sebire" changeset="860182" lat="-37.7588218" lon="145.3030598">
    <tag k="created_by" v="Merkaartor 0.13"/>
  </node>
  <node id="339329415" version="1" timestamp="2009-01-31T13:51:11Z" uid="55964" user="Evan Sebire" changeset="860182" lat="-37.7589252" lon="145.3029649">
    <tag k="created_by" v="Merkaartor 0.13"/>
  </node>
  <node id="339329418" version="1" timestamp="2009-01-31T13:51:12Z" uid="55964" user="Evan Sebire" changeset="860182" lat="-37.7590286" lon="145.3030598">
    <tag k="created_by" v="Merkaartor 0.13"/>
  </node>
  <node id="339329424" version="1" timestamp="2009-01-31T13:51:12Z" uid="55964" user="Evan Sebire" changeset="860182" lat="-37.7589891" lon="145.3032137">
    <tag k="created_by" v="Merkaartor 0.13"/>
  </node>
  <node id="339329425" version="1" timestamp="2009-01-31T13:51:12Z" uid="55964" user="Evan Sebire" changeset="860182" lat="-37.7589223" lon="145.3032137">
    <tag k="created_by" v="Merkaartor 0.13"/>
  </node>
  <node id="339329427" version="1" timestamp="2009-01-31T13:51:13Z" uid="55964" user="Evan Sebire" changeset="860182" lat="-37.7590134" lon="145.3031188">
    <tag k="created_by" v="Merkaartor 0.13"/>
  </node>
  <node id="339329428" version="1" timestamp="2009-01-31T13:51:13Z" uid="55964" user="Evan Sebire" changeset="860182" lat="-37.7588538" lon="145.3031844">
    <tag k="created_by" v="Merkaartor 0.13"/>
  </node>
  <node id="339329429" version="1" timestamp="2009-01-31T13:51:15Z" uid="55964" user="Evan Sebire" changeset="860182" lat="-37.759134" lon="145.3033059">
    <tag k="created_by" v="Merkaartor 0.13"/>
  </node>
  <node id="339329431" version="1" timestamp="2009-01-31T13:51:16Z" uid="55964" user="Evan Sebire" changeset="860182" lat="-37.758827" lon="145.3033692">
    <tag k="created_by" v="Merkaartor 0.13"/>
  </node>
  <node id="339329432" version="1" timestamp="2009-01-31T13:51:16Z" uid="55964" user="Evan Sebire" changeset="860182" lat="-37.7587444" lon="145.3036503">
    <tag k="created_by" v="Merkaartor 0.13"/>
  </node>
  <node id="339329433" version="1" timestamp="2009-01-31T13:51:17Z" uid="55964" user="Evan Sebire" changeset="860182" lat="-37.7586815" lon="145.303929">
    <tag k="created_by" v="Merkaartor 0.13"/>
  </node>
  <node id="339329434" version="1" timestamp="2009-01-31T13:51:17Z" uid="55964" user="Evan Sebire" changeset="860182" lat="-37.758652" lon="145.3042001">
    <tag k="created_by" v="Merkaartor 0.13"/>
  </node>
  <node id="339329435" version="1" timestamp="2009-01-31T13:51:17Z" uid="55964" user="Evan Sebire" changeset="860182" lat="-37.7586558" lon="145.3044787">
    <tag k="created_by" v="Merkaartor 0.13"/>
  </node>
  <node id="339329436" version="1" timestamp="2009-01-31T13:51:18Z" uid="55964" user="Evan Sebire" changeset="860182" lat="-37.7586845" lon="145.3048964">
    <tag k="created_by" v="Merkaartor 0.13"/>
  </node>
  <node id="339329437" version="1" timestamp="2009-01-31T13:51:19Z" uid="55964" user="Evan Sebire" changeset="860182" lat="-37.7586967" lon="145.3052243">
    <tag k="created_by" v="Merkaartor 0.13"/>
  </node>
  <node id="339329438" version="1" timestamp="2009-01-31T13:51:19Z" uid="55964" user="Evan Sebire" changeset="860182" lat="-37.7587645" lon="145.3052059">
    <tag k="created_by" v="Merkaartor 0.13"/>
  </node>
  <node id="339329439" version="3" timestamp="2010-06-17T13:16:50Z" uid="4467" user="Rosscoe" changeset="5008731" lat="-27.6076771" lon="152.8957902"/>
  <node id="339329440" version="3" timestamp="2010-06-17T13:16:47Z" uid="4467" user="Rosscoe" changeset="5008731" lat="-27.6066731" lon="152.8946573"/>
  <node id="339329459" version="3" timestamp="2010-06-17T13:16:44Z" uid="4467" user="Rosscoe" changeset="5008731" lat="-27.6078216" lon="152.8960477"/>
  <node id="339329460" version="3" timestamp="2010-06-17T13:16:20Z" uid="4467" user="Rosscoe" changeset="5008731" lat="-27.6075858" lon="152.8962022"/>
  <node id="339329717" version="3" timestamp="2010-01-25T17:56:40Z" uid="9581" user="Lobelt" changeset="3712832" lat="50.708712" lon="10.7089663"/>
  <node id="339329717" version="4" timestamp="2011-08-02T19:29:25Z" uid="195713" user="_torsten_" changeset="8903366" lat="50.708712" lon="10.7089663"/>
  <node id="339329718" version="3" timestamp="2010-01-25T17:56:39Z" uid="9581" user="Lobelt" changeset="3712832" lat="50.7089616" lon="10.7083191"/>
  <node id="339329718" version="4" timestamp="2011-08-02T19:29:25Z" uid="195713" user="_torsten_" changeset="8903366" lat="50.7089616" lon="10.7083191"/>
  <node id="339329719" version="3" timestamp="2010-01-25T17:56:39Z" uid="9581" user="Lobelt" changeset="3712832" lat="50.7091357" lon="10.707986"/>
  <node id="339329719" version="4" timestamp="2011-08-02T19:29:25Z" uid="195713" user="_torsten_" changeset="8903366" lat="50.7091357" lon="10.707986"/>
  <node id="339329723" version="3" timestamp="2010-01-25T17:56:39Z" uid="9581" user="Lobelt" changeset="3712832" lat="50.7098471" lon="10.7074089"/>
  <node id="339329723" version="4" timestamp="2011-08-02T19:29:25Z" uid="195713" user="_torsten_" changeset="8903366" lat="50.7098471" lon="10.7074089"/>
  <node id="339329781" version="4" timestamp="2010-06-17T13:16:30Z" uid="4467" user="Rosscoe" changeset="5008731" lat="-27.6134726" lon="152.8956872"/>
  <node id="339329869" version="3" timestamp="2010-06-17T13:16:51Z" uid="4467" user="Rosscoe" changeset="5008731" lat="-27.6132749" lon="152.8960134"/>
  <node id="339329871" version="3" timestamp="2010-06-17T13:16:05Z" uid="4467" user="Rosscoe" changeset="5008731" lat="-27.613312" lon="152.8960243"/>
  <node id="339329873" version="4" timestamp="2010-06-17T13:00:12Z" uid="4467" user="Rosscoe" changeset="5008609" lat="-27.6133848" lon="152.8960829"/>
  <node id="339329873" version="5" timestamp="2010-06-17T13:13:12Z" uid="4467" user="Rosscoe" changeset="5008731" lat="-27.6133848" lon="152.8960829"/>
  <node id="339320064" version="4" timestamp="2012-07-19T21:05:27Z" uid="722137" user="OSMF Redaction Account" changeset="12347367" lat="-27.6111986" lon="152.8962795"/>
  <node id="339320652" version="6" timestamp="2012-07-19T21:05:29Z" uid="722137" user="OSMF Redaction Account" changeset="12347367" lat="-27.608818" lon="152.8940135"/>
  <node id="339322354" version="6" timestamp="2012-07-19T21:05:38Z" uid="722137" user="OSMF Redaction Account" changeset="12347367" lat="-27.599316" lon="152.8846888"/>
  <node id="339322355" version="6" timestamp="2012-07-19T21:05:38Z" uid="722137" user="OSMF Redaction Account" changeset="12347367" lat="-27.5995138" lon="152.8852124"/>
  <node id="339322356" version="5" timestamp="2012-07-19T21:05:38Z" uid="722137" user="OSMF Redaction Account" changeset="12347367" lat="-27.5996907" lon="152.8855764"/>
  <node id="339322357" version="6" timestamp="2012-07-19T21:05:38Z" uid="722137" user="OSMF Redaction Account" changeset="12347367" lat="-27.5999322" lon="152.8859591"/>
  <node id="339322358" version="5" timestamp="2012-07-19T21:05:38Z" uid="722137" user="OSMF Redaction Account" changeset="12347367" lat="-27.6004209" lon="152.8865291"/>
  <node id="339322359" version="5" timestamp="2012-07-19T21:05:38Z" uid="722137" user="OSMF Redaction Account" changeset="12347367" lat="-27.6006795" lon="152.8867522"/>
  <node id="339322360" version="5" timestamp="2012-07-19T21:05:37Z" uid="722137" user="OSMF Redaction Account" changeset="12347367" lat="-27.6009838" lon="152.8869754"/>
  <node id="339322361" version="5" timestamp="2012-07-19T21:05:37Z" uid="722137" user="OSMF Redaction Account" changeset="12347367" lat="-27.6012424" lon="152.8871642"/>
  <node id="339322362" version="5" timestamp="2012-07-19T21:05:37Z" uid="722137" user="OSMF Redaction Account" changeset="12347367" lat="-27.6015238" lon="152.8874046"/>
  <node id="339322363" version="5" timestamp="2012-07-19T21:05:36Z" uid="722137" user="OSMF Redaction Account" changeset="12347367" lat="-27.6021019" lon="152.8880397"/>
  <node id="339322364" version="5" timestamp="2012-07-19T21:05:36Z" uid="722137" user="OSMF Redaction Account" changeset="12347367" lat="-27.6023529" lon="152.8884345"/>
  <node id="339322395" version="4" timestamp="2012-07-19T21:05:39Z" uid="722137" user="OSMF Redaction Account" changeset="12347367" lat="-27.5983728" lon="152.8781314"/>
  <node id="339324036" version="4" timestamp="2012-07-19T21:30:12Z" uid="722137" user="OSMF Redaction Account" changeset="12348270" lat="9.273654" lon="-79.7643866"/>
  <node id="339324392" version="3" timestamp="2012-07-20T08:00:21Z" uid="722137" user="OSMF Redaction Account" changeset="12367229" lat="-27.5700925" lon="153.0484608"/>
  <node id="339324413" version="3" timestamp="2012-07-20T08:00:21Z" uid="722137" user="OSMF Redaction Account" changeset="12367229" lat="-27.5701188" lon="153.048465"/>
  <node id="339324434" version="3" timestamp="2012-07-20T08:00:21Z" uid="722137" user="OSMF Redaction Account" changeset="12367229" lat="-27.5701356" lon="153.0484787"/>
  <node id="339324462" version="4" timestamp="2012-07-20T08:00:21Z" uid="722137" user="OSMF Redaction Account" changeset="12367229" lat="-27.5701656" lon="153.0486089"/>
  <node id="339324562" version="11" timestamp="2012-05-19T12:26:14Z" uid="278187" user="dzamper" changeset="11642091" lat="-11.6931255" lon="43.2543044">
    <tag k="capital" v="yes"/>
    <tag k="is_in" v="Comoros"/>
    <tag k="name" v="Moroni"/>
    <tag k="name:ar" v="موروني"/>
    <tag k="name:en" v="Moroni"/>
    <tag k="name:is" v="Moróní"/>
    <tag k="name:ku" v="Moronî"/>
    <tag k="name:pl" v="Moroni"/>
    <tag k="name:ru" v="Морони"/>
    <tag k="name:sv" v="Moroni"/>
    <tag k="place" v="city"/>
    <tag k="wikipedia" v="Moroni, Comoros"/>
  </node>
  <node id="339324562" version="12" timestamp="2012-08-31T09:07:41Z" uid="170038" user="Nanopixel" changeset="12928198" lat="-11.6931255" lon="43.2543044">
    <tag k="admin_level" v="2"/>
    <tag k="capital" v="yes"/>
    <tag k="is_capital" v="country"/>
    <tag k="is_in" v="Comoros"/>
    <tag k="name" v="Moroni"/>
    <tag k="name:ar" v="موروني"/>
    <tag k="name:en" v="Moroni"/>
    <tag k="name:is" v="Moróní"/>
    <tag k="name:ku" v="Moronî"/>
    <tag k="name:pl" v="Moroni"/>
    <tag k="name:ru" v="Морони"/>
    <tag k="name:sv" v="Moroni"/>
    <tag k="place" v="city"/>
    <tag k="wikipedia" v="Moroni, Comoros"/>
  </node>
  <node id="339324998" version="8" timestamp="2012-07-19T21:05:26Z" uid="722137" user="OSMF Redaction Account" changeset="12347367" lat="-27.6133205" lon="152.8955842"/>
  <node id="339325028" version="3" timestamp="2012-07-20T11:08:09Z" uid="722137" user="OSMF Redaction Account" changeset="12372405" lat="-34.9427726" lon="138.548967">
    <tag k="addr:housenumber" v="1A"/>
  </node>
  <node id="339325029" version="3" timestamp="2012-07-20T11:08:09Z" uid="722137" user="OSMF Redaction Account" changeset="12372405" lat="-34.9426468" lon="138.548946">
    <tag k="addr:housenumber" v="1"/>
  </node>
  <node id="339325030" version="3" timestamp="2012-07-20T11:08:10Z" uid="722137" user="OSMF Redaction Account" changeset="12372405" lat="-34.9424969" lon="138.5489341">
    <tag k="addr:housenumber" v="3"/>
  </node>
  <node id="339325031" version="3" timestamp="2012-07-20T11:08:10Z" uid="722137" user="OSMF Redaction Account" changeset="12372405" lat="-34.9423441" lon="138.5489221">
    <tag k="addr:housenumber" v="5"/>
  </node>
  <node id="339325312" version="8" timestamp="2012-07-19T21:05:26Z" uid="722137" user="OSMF Redaction Account" changeset="12347367" lat="-27.6180738" lon="152.8860999"/>
  <node id="339325314" version="8" timestamp="2012-07-19T21:05:26Z" uid="722137" user="OSMF Redaction Account" changeset="12347367" lat="-27.6183856" lon="152.886057"/>
  <node id="339325315" version="8" timestamp="2012-07-19T21:05:26Z" uid="722137" user="OSMF Redaction Account" changeset="12347367" lat="-27.6184997" lon="152.8860227"/>
  <node id="339325682" version="4" timestamp="2012-07-19T21:05:25Z" uid="722137" user="OSMF Redaction Account" changeset="12347367" lat="-27.6224618" lon="152.8856193"/>
  <node id="339325683" version="4" timestamp="2012-07-19T21:05:25Z" uid="722137" user="OSMF Redaction Account" changeset="12347367" lat="-27.6224314" lon="152.8854734"/>
  <node id="339325684" version="7" timestamp="2012-07-19T21:05:25Z" uid="722137" user="OSMF Redaction Account" changeset="12347367" lat="-27.6223706" lon="152.8853875"/>
  <node id="339325685" version="4" timestamp="2012-04-05T18:45:51Z" uid="90843" user="drbud" changeset="11192807" lat="49.5723569" lon="11.199125">
    <tag k="name" v="Dorfbäckerei Dornauer"/>
    <tag k="shop" v="bakery"/>
  </node>
  <node id="339325903" version="6" timestamp="2012-07-19T21:05:26Z" uid="722137" user="OSMF Redaction Account" changeset="12347367" lat="-27.622074" lon="152.8853618"/>
  <node id="339325904" version="6" timestamp="2012-07-19T21:05:26Z" uid="722137" user="OSMF Redaction Account" changeset="12347367" lat="-27.6222033" lon="152.8853446"/>
  <node id="339325905" version="6" timestamp="2012-07-19T21:05:25Z" uid="722137" user="OSMF Redaction Account" changeset="12347367" lat="-27.6222869" lon="152.8853446"/>
  <node id="339326227" version="3" timestamp="2012-07-17T02:18:44Z" uid="722137" user="OSMF Redaction Account" changeset="12255295" lat="49.5547266" lon="8.6661426"/>
  <node id="339326227" version="4" timestamp="2012-07-21T00:51:40Z" uid="680576" user="mushroommapper" changeset="12394969" lat="49.554704" lon="8.6656862"/>
  <node id="339326229" version="4" timestamp="2012-07-17T02:18:44Z" uid="722137" user="OSMF Redaction Account" changeset="12255295" lat="49.5545713" lon="8.6657452">
    <tag k="man_made" v="water_tower"/>
  </node>
  <node id="339326368" version="3" timestamp="2012-07-20T08:00:12Z" uid="722137" user="OSMF Redaction Account" changeset="12367229" lat="-27.5735821" lon="153.0480666"/>
  <node id="339326375" version="3" timestamp="2012-07-20T08:00:12Z" uid="722137" user="OSMF Redaction Account" changeset="12367229" lat="-27.5738341" lon="153.049678"/>
  <node id="339326845" version="4" timestamp="2012-07-19T21:05:25Z" uid="722137" user="OSMF Redaction Account" changeset="12347367" lat="-27.6238763" lon="152.8849498"/>
  <node id="339326856" version="3" timestamp="2012-07-19T21:25:15Z" uid="722137" user="OSMF Redaction Account" changeset="12348043" lat="-27.6250791" lon="152.8842202"/>
  <node id="339326856" version="4" timestamp="2012-08-18T09:06:08Z" uid="206339" user="chas66" changeset="12770692" lat="-27.6250791" lon="152.8842202"/>
  <node id="339326857" version="3" timestamp="2012-07-19T21:25:15Z" uid="722137" user="OSMF Redaction Account" changeset="12348043" lat="-27.6249346" lon="152.884246"/>
  <node id="339326857" version="4" timestamp="2012-08-18T09:06:08Z" uid="206339" user="chas66" changeset="12770692" lat="-27.6249346" lon="152.884246"/>
  <node id="339326861" version="3" timestamp="2012-07-19T21:25:15Z" uid="722137" user="OSMF Redaction Account" changeset="12348043" lat="-27.6249954" lon="152.8844177"/>
  <node id="339326861" version="4" timestamp="2012-08-18T09:06:08Z" uid="206339" user="chas66" changeset="12770692" lat="-27.6249954" lon="152.8844177"/>
  <node id="339326862" version="3" timestamp="2012-07-19T21:25:15Z" uid="722137" user="OSMF Redaction Account" changeset="12348043" lat="-27.6250487" lon="152.884349"/>
  <node id="339326862" version="4" timestamp="2012-08-18T09:06:08Z" uid="206339" user="chas66" changeset="12770692" lat="-27.6250487" lon="152.884349"/>
  <node id="339326863" version="3" timestamp="2012-07-19T21:25:15Z" uid="722137" user="OSMF Redaction Account" changeset="12348043" lat="-27.6251171" lon="152.8842546"/>
  <node id="339326863" version="4" timestamp="2012-08-18T09:06:08Z" uid="206339" user="chas66" changeset="12770692" lat="-27.6251171" lon="152.8842546"/>
  <node id="339326911" version="4" timestamp="2012-07-19T21:05:26Z" uid="722137" user="OSMF Redaction Account" changeset="12347367" lat="-27.6182563" lon="152.8862201"/>
  <node id="339328357" version="3" timestamp="2012-07-20T08:00:21Z" uid="722137" user="OSMF Redaction Account" changeset="12367229" lat="-27.5700119" lon="153.0485631"/>
  <node id="339328358" version="3" timestamp="2012-07-20T08:00:25Z" uid="722137" user="OSMF Redaction Account" changeset="12367247" lat="-27.5684501" lon="153.048827"/>
  <node id="339328360" version="3" timestamp="2012-07-20T08:00:26Z" uid="722137" user="OSMF Redaction Account" changeset="12367247" lat="-27.5680947" lon="153.0464089"/>
  <node id="339328361" version="3" timestamp="2012-07-20T08:00:26Z" uid="722137" user="OSMF Redaction Account" changeset="12367247" lat="-27.5683586" lon="153.0463443"/>
  <node id="339328362" version="3" timestamp="2012-07-20T08:00:22Z" uid="722137" user="OSMF Redaction Account" changeset="12367229" lat="-27.5698719" lon="153.0478738"/>
  <node id="339328386" version="3" timestamp="2012-07-20T08:00:20Z" uid="722137" user="OSMF Redaction Account" changeset="12367229" lat="-27.5703349" lon="153.0485754"/>
  <node id="339328530" version="3" timestamp="2012-07-20T11:08:11Z" uid="722137" user="OSMF Redaction Account" changeset="12372405" lat="-34.939861" lon="138.5507937"/>
  <node id="339328530" version="4" timestamp="2012-09-09T13:49:20Z" uid="418724" user="wintersportler" changeset="13044619" lat="-34.9398634" lon="138.550763"/>
  <node id="339328636" version="3" timestamp="2012-07-20T11:08:12Z" uid="722137" user="OSMF Redaction Account" changeset="12372405" lat="-34.9389529" lon="138.5507278"/>
  <node id="339328636" version="4" timestamp="2012-07-27T15:34:52Z" uid="328538" user="o&apos;cholio" changeset="12512942" lat="-34.9389529" lon="138.5507278"/>
  <node id="339328664" version="3" timestamp="2012-07-20T11:08:11Z" uid="722137" user="OSMF Redaction Account" changeset="12372405" lat="-34.9400483" lon="138.5469994"/>
  <node id="339328664" version="4" timestamp="2012-09-09T13:49:20Z" uid="418724" user="wintersportler" changeset="13044619" lat="-34.9400597" lon="138.5469339">
    <tag k="noexit" v="yes"/>
  </node>
  <node id="339328666" version="3" timestamp="2012-07-20T11:08:11Z" uid="722137" user="OSMF Redaction Account" changeset="12372405" lat="-34.9399944" lon="138.5469545"/>
  <node id="339328669" version="3" timestamp="2012-07-20T11:08:12Z" uid="722137" user="OSMF Redaction Account" changeset="12372405" lat="-34.9391132" lon="138.5476648"/>
  <node id="339328669" version="4" timestamp="2012-09-09T13:49:20Z" uid="418724" user="wintersportler" changeset="13044619" lat="-34.9391132" lon="138.5476648">
    <tag k="noexit" v="yes"/>
  </node>
  <node id="339328886" version="2" timestamp="2012-07-19T19:44:16Z" uid="722137" user="OSMF Redaction Account" changeset="12345310" lat="-37.758803" lon="145.3053655"/>
  <node id="339328887" version="2" timestamp="2012-07-19T19:44:14Z" uid="722137" user="OSMF Redaction Account" changeset="12345310" lat="-37.7590159" lon="145.3053629"/>
  <node id="339328888" version="2" timestamp="2012-07-19T19:44:11Z" uid="722137" user="OSMF Redaction Account" changeset="12345302" lat="-37.7594353" lon="145.3054938"/>
  <node id="339328889" version="2" timestamp="2012-07-19T19:44:10Z" uid="722137" user="OSMF Redaction Account" changeset="12345302" lat="-37.7595535" lon="145.3055423"/>
  <node id="339328890" version="2" timestamp="2012-07-19T19:44:08Z" uid="722137" user="OSMF Redaction Account" changeset="12345302" lat="-37.7598017" lon="145.3056628"/>
  <node id="339328891" version="2" timestamp="2012-07-19T19:44:07Z" uid="722137" user="OSMF Redaction Account" changeset="12345302" lat="-37.7599687" lon="145.3057439"/>
  <node id="339328892" version="2" timestamp="2012-07-19T19:44:05Z" uid="722137" user="OSMF Redaction Account" changeset="12345302" lat="-37.7603041" lon="145.3059882"/>
  <node id="339328893" version="3" timestamp="2012-07-19T19:44:03Z" uid="722137" user="OSMF Redaction Account" changeset="12345302" lat="-37.7605176" lon="145.3061799"/>
  <node id="339328894" version="2" timestamp="2012-07-19T19:44:09Z" uid="722137" user="OSMF Redaction Account" changeset="12345302" lat="-37.7597396" lon="145.3058692"/>
  <node id="339328895" version="2" timestamp="2012-07-19T19:44:09Z" uid="722137" user="OSMF Redaction Account" changeset="12345302" lat="-37.759638" lon="145.306174"/>
  <node id="339328896" version="2" timestamp="2012-07-19T19:44:11Z" uid="722137" user="OSMF Redaction Account" changeset="12345302" lat="-37.7594738" lon="145.3068056"/>
  <node id="339328897" version="2" timestamp="2012-07-19T19:44:11Z" uid="722137" user="OSMF Redaction Account" changeset="12345302" lat="-37.7594374" lon="145.3069462"/>
  <node id="339328898" version="2" timestamp="2012-07-19T19:44:12Z" uid="722137" user="OSMF Redaction Account" changeset="12345302" lat="-37.759368" lon="145.306764"/>
  <node id="339328904" version="2" timestamp="2012-07-19T19:44:16Z" uid="722137" user="OSMF Redaction Account" changeset="12345310" lat="-37.7588246" lon="145.305281"/>
  <node id="339328905" version="3" timestamp="2012-07-19T19:44:24Z" uid="722137" user="OSMF Redaction Account" changeset="12345310" lat="-37.7573713" lon="145.3054831"/>
  <node id="339328906" version="3" timestamp="2012-07-19T19:44:24Z" uid="722137" user="OSMF Redaction Account" changeset="12345310" lat="-37.7571666" lon="145.3054467"/>
  <node id="339329345" version="8" timestamp="2012-07-19T21:05:26Z" uid="722137" user="OSMF Redaction Account" changeset="12347367" lat="-27.6136095" lon="152.89561"/>
  <node id="339329413" version="2" timestamp="2012-07-19T19:44:15Z" uid="722137" user="OSMF Redaction Account" changeset="12345310" lat="-37.7588613" lon="145.3032137"/>
  <node id="339329414" version="2" timestamp="2012-07-19T19:44:16Z" uid="722137" user="OSMF Redaction Account" changeset="12345310" lat="-37.7588218" lon="145.3030598"/>
  <node id="339329415" version="2" timestamp="2012-07-19T19:44:15Z" uid="722137" user="OSMF Redaction Account" changeset="12345310" lat="-37.7589252" lon="145.3029649"/>
  <node id="339329418" version="2" timestamp="2012-07-19T19:44:14Z" uid="722137" user="OSMF Redaction Account" changeset="12345310" lat="-37.7590286" lon="145.3030598"/>
  <node id="339329424" version="2" timestamp="2012-07-19T19:44:15Z" uid="722137" user="OSMF Redaction Account" changeset="12345310" lat="-37.7589891" lon="145.3032137"/>
  <node id="339329425" version="2" timestamp="2012-07-19T19:44:15Z" uid="722137" user="OSMF Redaction Account" changeset="12345310" lat="-37.7589223" lon="145.3032137"/>
  <node id="339329427" version="2" timestamp="2012-07-19T19:44:14Z" uid="722137" user="OSMF Redaction Account" changeset="12345310" lat="-37.7590134" lon="145.3031188"/>
  <node id="339329428" version="2" timestamp="2012-07-19T19:44:15Z" uid="722137" user="OSMF Redaction Account" changeset="12345310" lat="-37.7588538" lon="145.3031844"/>
  <node id="339329429" version="2" timestamp="2012-07-19T19:44:14Z" uid="722137" user="OSMF Redaction Account" changeset="12345310" lat="-37.759134" lon="145.3033059"/>
  <node id="339329431" version="2" timestamp="2012-07-19T19:44:16Z" uid="722137" user="OSMF Redaction Account" changeset="12345310" lat="-37.758827" lon="145.3033692"/>
  <node id="339329432" version="2" timestamp="2012-07-19T19:44:17Z" uid="722137" user="OSMF Redaction Account" changeset="12345310" lat="-37.7587444" lon="145.3036503"/>
  <node id="339329433" version="2" timestamp="2012-07-19T19:44:18Z" uid="722137" user="OSMF Redaction Account" changeset="12345310" lat="-37.7586815" lon="145.303929"/>
  <node id="339329434" version="2" timestamp="2012-07-19T19:44:18Z" uid="722137" user="OSMF Redaction Account" changeset="12345310" lat="-37.758652" lon="145.3042001"/>
  <node id="339329435" version="2" timestamp="2012-07-19T19:44:18Z" uid="722137" user="OSMF Redaction Account" changeset="12345310" lat="-37.7586558" lon="145.3044787"/>
  <node id="339329436" version="2" timestamp="2012-07-19T19:44:17Z" uid="722137" user="OSMF Redaction Account" changeset="12345310" lat="-37.7586845" lon="145.3048964"/>
  <node id="339329437" version="2" timestamp="2012-07-19T19:44:17Z" uid="722137" user="OSMF Redaction Account" changeset="12345310" lat="-37.7586967" lon="145.3052243"/>
  <node id="339329438" version="2" timestamp="2012-07-19T19:44:17Z" uid="722137" user="OSMF Redaction Account" changeset="12345310" lat="-37.7587645" lon="145.3052059"/>
  <node id="339329871" version="4" timestamp="2012-07-19T21:05:26Z" uid="722137" user="OSMF Redaction Account" changeset="12347367" lat="-27.6133357" lon="152.8960477"/>
  <node id="339329873" version="6" timestamp="2012-07-19T21:05:26Z" uid="722137" user="OSMF Redaction Account" changeset="12347367" lat="-27.6134034" lon="152.8961594"/>
</osm>
