<?xml version='1.0' encoding='UTF-8'?>
<osm version="0.6" generator="libosmium/2.20.0">
  <node id="33993127" version="4" timestamp="2008-07-02T20:33:26Z" uid="4667" user="MapZ" changeset="374787" lat="32.6564871" lon="-17.0044024">
    <tag k="ele" v="560"/>
    <tag k="name" v="Cabo Girao"/>
    <tag k="natural" v="peak"/>
    <tag k="tourism" v="viewpoint"/>
  </node>
  <node id="33993127" version="5" timestamp="2009-04-24T13:00:45Z" uid="63517" user="GeoBoris" changeset="927567" lat="32.6564871" lon="-17.0044024">
    <tag k="ele" v="560"/>
    <tag k="name" v="Cabo Girao"/>
    <tag k="natural" v="peak"/>
    <tag k="tourism" v="viewpoint"/>
  </node>
  <node id="33993127" version="6" timestamp="2010-08-07T22:19:42Z" uid="74018" user="candela4" changeset="5428478" lat="32.6564897" lon="-17.0044432">
    <tag k="ele" v="560"/>
    <tag k="name" v="Cabo Girao"/>
    <tag k="natural" v="peak"/>
    <tag k="tourism" v="viewpoint"/>
  </node>
  <node id="33993127" version="7" timestamp="2010-09-24T20:22:47Z" uid="161939" user="Hacki" changeset="5866228" lat="32.6564897" lon="-17.0044432">
    <tag k="ele" v="580"/>
    <tag k="name" v="Cabo Girao"/>
    <tag k="natural" v="peak"/>
    <tag k="tourism" v="viewpoint"/>
  </node>
  <node id="33993127" version="8" timestamp="2010-10-19T15:04:19Z" uid="18369" user="magmer" changeset="6100122" lat="32.6564421" lon="-17.004471">
    <tag k="ele" v="580"/>
    <tag k="name" v="Cabo Girao"/>
    <tag k="natural" v="peak"/>
    <tag k="tourism" v="viewpoint"/>
  </node>
  <node id="33993127" version="9" timestamp="2010-11-14T19:42:20Z" uid="364960" user="castro" changeset="6370197" lat="32.6563867" lon="-17.0050275">
    <tag k="ele" v="580"/>
    <tag k="name" v="Cabo Girao"/>
    <tag k="natural" v="peak"/>
    <tag k="tourism" v="viewpoint"/>
  </node>
  <node id="33993127" version="10" timestamp="2010-11-28T23:11:38Z" uid="52495" user="seawolff" changeset="6483018" lat="32.6565047" lon="-17.0044649">
    <tag k="ele" v="580"/>
    <tag k="name" v="Cabo Girao"/>
    <tag k="natural" v="peak"/>
    <tag k="tourism" v="viewpoint"/>
  </node>
  <node id="33993127" version="11" timestamp="2011-04-26T20:10:17Z" uid="81732" user="zahilb" changeset="7979173" lat="32.6564888" lon="-17.0044223">
    <tag k="ele" v="580"/>
    <tag k="name" v="Cabo Girao"/>
    <tag k="natural" v="peak"/>
    <tag k="tourism" v="viewpoint"/>
  </node>
  <node id="33995153" version="3" timestamp="2011-04-03T18:48:31Z" uid="6975" user="ulfl" changeset="7757700" lat="32.668007" lon="-17.0362954"/>
  <node id="33995153" version="4" timestamp="2012-03-10T15:45:50Z" uid="214968" user="lezurdis" changeset="10933215" lat="32.668007" lon="-17.0362954"/>
  <node id="33995261" version="2" timestamp="2008-09-10T06:29:48Z" uid="4667" user="MapZ" changeset="596241" lat="32.6725657" lon="-17.0624964">
    <tag k="created_by" v="JOSM"/>
  </node>
  <node id="33995261" version="3" timestamp="2009-01-02T18:19:23Z" uid="66965" user="urk" changeset="715431" lat="32.6725433" lon="-17.0624498">
    <tag k="created_by" v="JOSM"/>
  </node>
  <node id="33995261" version="4" timestamp="2009-07-09T19:15:37Z" uid="74896" user="tevake" changeset="1783618" lat="32.6725946" lon="-17.062465">
    <tag k="created_by" v="JOSM"/>
  </node>
  <node id="33995261" version="5" timestamp="2009-11-04T08:16:02Z" uid="66965" user="urk" changeset="3030585" lat="32.6725826" lon="-17.0624508"/>
  <node id="33995261" version="6" timestamp="2011-01-25T14:16:27Z" uid="65826" user="Matthew Rye" changeset="7083714" lat="32.6725826" lon="-17.0624508">
    <tag k="highway" v="mini_roundabout"/>
  </node>
  <node id="33995262" version="2" timestamp="2008-09-10T06:29:48Z" uid="4667" user="MapZ" changeset="596241" lat="32.6729965" lon="-17.0620764">
    <tag k="created_by" v="JOSM"/>
  </node>
  <node id="33995262" version="3" timestamp="2009-07-09T19:15:37Z" uid="74896" user="tevake" changeset="1783618" lat="32.6738983" lon="-17.061325">
    <tag k="created_by" v="JOSM"/>
  </node>
  <node id="33995262" version="4" timestamp="2010-03-29T17:50:09Z" uid="13363" user="CaptainCrunch" changeset="4269305" lat="32.6738983" lon="-17.061325"/>
  <node id="33995262" version="5" timestamp="2011-01-25T14:16:27Z" uid="65826" user="Matthew Rye" changeset="7083714" lat="32.6734589" lon="-17.0617257"/>
  <node id="33995263" version="2" timestamp="2008-09-10T06:29:47Z" uid="4667" user="MapZ" changeset="596241" lat="32.6743962" lon="-17.062264">
    <tag k="created_by" v="JOSM"/>
  </node>
  <node id="33995263" version="3" timestamp="2008-12-14T13:37:11Z" uid="66965" user="urk" changeset="367834" lat="32.6744375" lon="-17.0622925">
    <tag k="created_by" v="JOSM"/>
  </node>
  <node id="33995263" version="4" timestamp="2009-01-02T18:19:22Z" uid="66965" user="urk" changeset="715431" lat="32.6744375" lon="-17.0621864">
    <tag k="created_by" v="JOSM"/>
  </node>
  <node id="33995263" version="5" timestamp="2010-03-29T17:50:08Z" uid="13363" user="CaptainCrunch" changeset="4269305" lat="32.6744375" lon="-17.0621864"/>
  <node id="33995263" version="6" timestamp="2011-01-25T14:16:27Z" uid="65826" user="Matthew Rye" changeset="7083714" lat="32.6743638" lon="-17.0621505"/>
  <node id="33995263" version="7" timestamp="2011-04-28T10:40:38Z" uid="81732" user="zahilb" changeset="7993369" lat="32.674324" lon="-17.0621473"/>
  <node id="33995264" version="2" timestamp="2008-09-10T06:29:48Z" uid="4667" user="MapZ" changeset="596241" lat="32.6746855" lon="-17.0627554">
    <tag k="created_by" v="JOSM"/>
  </node>
  <node id="33995264" version="3" timestamp="2008-12-14T13:37:16Z" uid="66965" user="urk" changeset="367834" lat="32.6746922" lon="-17.0627372">
    <tag k="created_by" v="JOSM"/>
  </node>
  <node id="33995264" version="4" timestamp="2009-01-02T18:19:25Z" uid="66965" user="urk" changeset="715431" lat="32.6746336" lon="-17.0626551">
    <tag k="created_by" v="JOSM"/>
  </node>
  <node id="33995264" version="5" timestamp="2009-07-09T19:15:41Z" uid="74896" user="tevake" changeset="1783618" lat="32.674638" lon="-17.0626161">
    <tag k="created_by" v="JOSM"/>
  </node>
  <node id="33995264" version="6" timestamp="2010-03-29T17:50:08Z" uid="13363" user="CaptainCrunch" changeset="4269305" lat="32.674638" lon="-17.0626161"/>
  <node id="33995264" version="7" timestamp="2010-12-30T20:14:26Z" uid="65826" user="Matthew Rye" changeset="6813590" lat="32.6745528" lon="-17.0626861"/>
  <node id="33995264" version="8" timestamp="2011-04-28T10:41:00Z" uid="81732" user="zahilb" changeset="7993369" lat="32.6744678" lon="-17.062787"/>
  <node id="33995643" version="3" timestamp="2008-03-14T20:14:33Z" uid="17602" user="B10xyz" changeset="321342" lat="52.5111857" lon="12.7149532"/>
  <node id="33995643" version="4" timestamp="2010-02-24T18:27:03Z" uid="210484" user="gjall1973" changeset="3965290" lat="52.5112169" lon="12.7149724"/>
  <node id="33995643" version="5" timestamp="2011-05-23T20:36:11Z" uid="236935" user="michael246" changeset="8230271" lat="52.5111781" lon="12.7149086"/>
  <node id="33995643" version="6" timestamp="2011-06-02T07:39:18Z" uid="6669" user="Elwood" changeset="8316817" lat="52.5111244" lon="12.7150156"/>
  <node id="33997421" version="3" timestamp="2009-12-15T10:15:42Z" uid="74617" user="JohnSmith" changeset="3378126" lat="-35.3461872" lon="149.224679">
    <tag k="amenity" v="fuel"/>
    <tag k="created_by" v="JOSM"/>
    <tag k="name" v="BP"/>
  </node>
  <node id="33997533" version="3" timestamp="2008-09-02T22:18:57Z" uid="4667" user="MapZ" changeset="508411" lat="32.6591849" lon="-17.011292">
    <tag k="created_by" v="JOSM"/>
  </node>
  <node id="33997533" version="4" timestamp="2010-03-29T17:50:17Z" uid="13363" user="CaptainCrunch" changeset="4269305" lat="32.6591849" lon="-17.011292"/>
  <node id="33997533" version="5" timestamp="2011-04-26T20:10:16Z" uid="81732" user="zahilb" changeset="7979173" lat="32.659175" lon="-17.0112608"/>
  <node id="33997534" version="3" timestamp="2008-09-02T22:18:57Z" uid="4667" user="MapZ" changeset="508411" lat="32.6588585" lon="-17.0141063">
    <tag k="created_by" v="JOSM"/>
  </node>
  <node id="33997534" version="4" timestamp="2010-03-29T17:50:16Z" uid="13363" user="CaptainCrunch" changeset="4269305" lat="32.6588585" lon="-17.0141063"/>
  <node id="33997534" version="5" timestamp="2011-01-25T13:48:04Z" uid="65826" user="Matthew Rye" changeset="7083714" lat="32.6588097" lon="-17.0142672"/>
  <node id="33997534" version="6" timestamp="2011-04-28T10:41:00Z" uid="81732" user="zahilb" changeset="7993369" lat="32.6587309" lon="-17.0143904"/>
  <node id="33997574" version="3" timestamp="2008-09-02T22:18:56Z" uid="4667" user="MapZ" changeset="508411" lat="32.6585388" lon="-17.0168528">
    <tag k="created_by" v="JOSM"/>
  </node>
  <node id="33997574" version="4" timestamp="2010-03-29T17:50:16Z" uid="13363" user="CaptainCrunch" changeset="4269305" lat="32.6585388" lon="-17.0168528"/>
  <node id="33997574" version="5" timestamp="2011-10-31T22:29:47Z" uid="66497" user="seichter" changeset="9708616" lat="32.6584551" lon="-17.0170075"/>
  <node id="33997784" version="2" timestamp="2008-05-11T15:48:31Z" uid="31796" user="bjt" changeset="415907" lat="50.0347948" lon="6.9144287">
    <tag k="created_by" v="JOSM"/>
  </node>
  <node id="33997784" version="3" timestamp="2008-09-03T13:35:03Z" uid="6424" user="Lambertus" changeset="509657" lat="50.0347948" lon="6.9141105">
    <tag k="created_by" v="JOSM"/>
  </node>
  <node id="33997784" version="4" timestamp="2010-02-06T11:47:38Z" uid="63375" user="Divjo" changeset="3804305" lat="50.0347948" lon="6.9141105"/>
  <node id="33997784" version="5" timestamp="2012-02-06T20:59:49Z" uid="228913" user="jerry-55" changeset="10606998" lat="50.0347822" lon="6.9141447"/>
  <node id="33997787" version="2" timestamp="2008-05-11T15:48:31Z" uid="31796" user="bjt" changeset="415907" lat="50.0329142" lon="6.9143796">
    <tag k="created_by" v="JOSM"/>
  </node>
  <node id="33997787" version="3" timestamp="2008-09-03T13:35:02Z" uid="6424" user="Lambertus" changeset="509657" lat="50.0328347" lon="6.9141277">
    <tag k="created_by" v="JOSM"/>
  </node>
  <node id="33997787" version="4" timestamp="2010-02-06T11:47:38Z" uid="63375" user="Divjo" changeset="3804305" lat="50.0328347" lon="6.9141277"/>
  <node id="33997787" version="5" timestamp="2012-02-06T20:59:49Z" uid="228913" user="jerry-55" changeset="10606998" lat="50.0328064" lon="6.9141473"/>
  <node id="33997789" version="2" timestamp="2008-05-11T15:48:32Z" uid="31796" user="bjt" changeset="415907" lat="50.0314841" lon="6.9150452">
    <tag k="created_by" v="JOSM"/>
  </node>
  <node id="33997789" version="3" timestamp="2008-09-03T13:35:03Z" uid="6424" user="Lambertus" changeset="509657" lat="50.0313714" lon="6.9148132">
    <tag k="created_by" v="JOSM"/>
  </node>
  <node id="33997789" version="4" timestamp="2010-02-06T11:47:35Z" uid="63375" user="Divjo" changeset="3804305" lat="50.0313714" lon="6.9148132"/>
  <node id="33997789" version="5" timestamp="2012-02-06T20:59:49Z" uid="228913" user="jerry-55" changeset="10606998" lat="50.0313902" lon="6.9148279"/>
  <node id="33997790" version="2" timestamp="2008-05-11T15:48:32Z" uid="31796" user="bjt" changeset="415907" lat="50.0301356" lon="6.9159783">
    <tag k="created_by" v="JOSM"/>
  </node>
  <node id="33997790" version="3" timestamp="2008-09-03T13:35:03Z" uid="6424" user="Lambertus" changeset="509657" lat="50.0300759" lon="6.9158656">
    <tag k="created_by" v="JOSM"/>
  </node>
  <node id="33997790" version="4" timestamp="2010-02-06T11:47:35Z" uid="63375" user="Divjo" changeset="3804305" lat="50.0300759" lon="6.9158656"/>
  <node id="33997790" version="5" timestamp="2012-02-05T20:35:02Z" uid="228913" user="jerry-55" changeset="10597949" lat="50.0300913" lon="6.9159086"/>
  <node id="33997791" version="2" timestamp="2008-05-11T15:48:32Z" uid="31796" user="bjt" changeset="415907" lat="50.0292597" lon="6.9170858">
    <tag k="created_by" v="JOSM"/>
  </node>
  <node id="33997791" version="3" timestamp="2008-09-03T13:35:03Z" uid="6424" user="Lambertus" changeset="509657" lat="50.0292928" lon="6.9169267">
    <tag k="created_by" v="JOSM"/>
  </node>
  <node id="33997791" version="4" timestamp="2010-02-06T11:47:35Z" uid="63375" user="Divjo" changeset="3804305" lat="50.0292928" lon="6.9169267"/>
  <node id="33997791" version="5" timestamp="2012-02-05T20:35:02Z" uid="228913" user="jerry-55" changeset="10597949" lat="50.0293235" lon="6.9169363"/>
  <node id="33997995" version="4" timestamp="2008-02-21T14:13:52Z" uid="13367" user="nubok" changeset="173492" lat="52.1317732" lon="11.6383087">
    <tag k="created_by" v="Potlatch 0.7b"/>
    <tag k="is_in" v="Magdeburg,Sachsen-Anhalt,Bundesrepublik Deutschland,Europe"/>
    <tag k="name" v="Magdeburg"/>
    <tag k="openGeoDB:auto_update" v="population,is_in"/>
    <tag k="openGeoDB:community_identification_number" v="15303"/>
    <tag k="openGeoDB:is_in" v="Magdeburg,Sachsen-Anhalt,Bundesrepublik Deutschland,Europe"/>
    <tag k="openGeoDB:is_in_loc_id" v="190"/>
    <tag k="openGeoDB:layer" v="5"/>
    <tag k="openGeoDB:license_plate_code" v="MD"/>
    <tag k="openGeoDB:loc_id" v="551"/>
    <tag k="openGeoDB:name" v="Magdeburg"/>
    <tag k="openGeoDB:sort_name" v="MAGDEBURG"/>
    <tag k="openGeoDB:type" v="Landeshauptstadt"/>
    <tag k="openGeoDB:version" v="0.2.6.11 / 2007-12-04 / http://fa-technik.adfc.de/code/opengeodb/dump/"/>
    <tag k="opengeodb:lat" v="52.13177"/>
    <tag k="opengeodb:lon" v="11.6383114"/>
    <tag k="place" v="city"/>
  </node>
  <node id="33997995" version="5" timestamp="2008-08-31T21:19:10Z" uid="42683" user="riechfield" changeset="483313" lat="52.1315888" lon="11.639961">
    <tag k="created_by" v="Potlatch 0.7b"/>
    <tag k="is_in" v="Magdeburg,Sachsen-Anhalt,Bundesrepublik Deutschland,Europe"/>
    <tag k="name" v="Magdeburg"/>
    <tag k="openGeoDB:auto_update" v="population,is_in"/>
    <tag k="openGeoDB:community_identification_number" v="15303"/>
    <tag k="openGeoDB:is_in" v="Magdeburg,Sachsen-Anhalt,Bundesrepublik Deutschland,Europe"/>
    <tag k="openGeoDB:is_in_loc_id" v="190"/>
    <tag k="openGeoDB:layer" v="5"/>
    <tag k="openGeoDB:license_plate_code" v="MD"/>
    <tag k="openGeoDB:loc_id" v="551"/>
    <tag k="openGeoDB:name" v="Magdeburg"/>
    <tag k="openGeoDB:sort_name" v="MAGDEBURG"/>
    <tag k="openGeoDB:type" v="Landeshauptstadt"/>
    <tag k="openGeoDB:version" v="0.2.6.11 / 2007-12-04 / http://fa-technik.adfc.de/code/opengeodb/dump/"/>
    <tag k="opengeodb:lat" v="52.13177"/>
    <tag k="opengeodb:lon" v="11.6383114"/>
    <tag k="place" v="city"/>
  </node>
  <node id="33997995" version="6" timestamp="2008-09-19T12:26:57Z" uid="42683" user="riechfield" changeset="663270" lat="52.1315888" lon="11.639961">
    <tag k="created_by" v="Potlatch 0.7b"/>
    <tag k="is_in" v="Magdeburg,Sachsen-Anhalt,Bundesrepublik Deutschland,Europe"/>
    <tag k="name" v="Magdeburg"/>
    <tag k="openGeoDB:auto_update" v="population,is_in"/>
    <tag k="openGeoDB:community_identification_number" v="15303"/>
    <tag k="openGeoDB:is_in" v="Magdeburg,Sachsen-Anhalt,Bundesrepublik Deutschland,Europe"/>
    <tag k="openGeoDB:is_in_loc_id" v="190"/>
    <tag k="openGeoDB:layer" v="5"/>
    <tag k="openGeoDB:license_plate_code" v="MD"/>
    <tag k="openGeoDB:loc_id" v="551"/>
    <tag k="openGeoDB:name" v="Magdeburg"/>
    <tag k="openGeoDB:sort_name" v="MAGDEBURG"/>
    <tag k="openGeoDB:type" v="Landeshauptstadt"/>
    <tag k="openGeoDB:version" v="0.2.6.11 / 2007-12-04 / http://fa-technik.adfc.de/code/opengeodb/dump/"/>
    <tag k="opengeodb:lat" v="52.13177"/>
    <tag k="opengeodb:lon" v="11.6383114"/>
    <tag k="place" v="city"/>
    <tag k="polulation" v="230140"/>
  </node>
  <node id="33997995" version="7" timestamp="2008-09-23T11:54:08Z" uid="8732" user="xylome2" changeset="684592" lat="52.1315888" lon="11.639961">
    <tag k="created_by" v="xybot"/>
    <tag k="is_in" v="Magdeburg,Sachsen-Anhalt,Bundesrepublik Deutschland,Europe"/>
    <tag k="name" v="Magdeburg"/>
    <tag k="openGeoDB:auto_update" v="population,is_in"/>
    <tag k="openGeoDB:community_identification_number" v="15303"/>
    <tag k="openGeoDB:is_in" v="Magdeburg,Sachsen-Anhalt,Bundesrepublik Deutschland,Europe"/>
    <tag k="openGeoDB:is_in_loc_id" v="190"/>
    <tag k="openGeoDB:layer" v="5"/>
    <tag k="openGeoDB:license_plate_code" v="MD"/>
    <tag k="openGeoDB:loc_id" v="551"/>
    <tag k="openGeoDB:name" v="Magdeburg"/>
    <tag k="openGeoDB:sort_name" v="MAGDEBURG"/>
    <tag k="openGeoDB:type" v="Landeshauptstadt"/>
    <tag k="openGeoDB:version" v="0.2.6.11 / 2007-12-04 / http://fa-technik.adfc.de/code/opengeodb/dump/"/>
    <tag k="opengeodb:lat" v="52.13177"/>
    <tag k="opengeodb:lon" v="11.6383114"/>
    <tag k="place" v="city"/>
    <tag k="population" v="230140"/>
  </node>
  <node id="33997995" version="8" timestamp="2008-11-05T17:38:58Z" uid="308" user="MichaelCollinson" changeset="685958" lat="52.1315888" lon="11.639961">
    <tag k="is_in" v="Magdeburg,Sachsen-Anhalt,Bundesrepublik Deutschland,Europe"/>
    <tag k="is_in:continent" v="Europe"/>
    <tag k="name" v="Magdeburg"/>
    <tag k="openGeoDB:auto_update" v="population,is_in"/>
    <tag k="openGeoDB:community_identification_number" v="15303"/>
    <tag k="openGeoDB:is_in" v="Magdeburg,Sachsen-Anhalt,Bundesrepublik Deutschland,Europe"/>
    <tag k="openGeoDB:is_in_loc_id" v="190"/>
    <tag k="openGeoDB:layer" v="5"/>
    <tag k="openGeoDB:license_plate_code" v="MD"/>
    <tag k="openGeoDB:loc_id" v="551"/>
    <tag k="openGeoDB:name" v="Magdeburg"/>
    <tag k="openGeoDB:sort_name" v="MAGDEBURG"/>
    <tag k="openGeoDB:type" v="Landeshauptstadt"/>
    <tag k="openGeoDB:version" v="0.2.6.11 / 2007-12-04 / http://fa-technik.adfc.de/code/opengeodb/dump/"/>
    <tag k="opengeodb:lat" v="52.13177"/>
    <tag k="opengeodb:lon" v="11.6383114"/>
    <tag k="place" v="city"/>
    <tag k="population" v="230140"/>
  </node>
  <node id="33997995" version="9" timestamp="2009-02-13T12:44:18Z" uid="42683" user="riechfield" changeset="393711" lat="52.1315888" lon="11.639961">
    <tag k="is_in" v="Sachsen-Anhalt,Bundesrepublik Deutschland,Europe"/>
    <tag k="is_in:continent" v="Europe"/>
    <tag k="name" v="Magdeburg"/>
    <tag k="openGeoDB:auto_update" v="population,is_in"/>
    <tag k="openGeoDB:community_identification_number" v="15303"/>
    <tag k="openGeoDB:is_in" v="Magdeburg,Sachsen-Anhalt,Bundesrepublik Deutschland,Europe"/>
    <tag k="openGeoDB:is_in_loc_id" v="190"/>
    <tag k="openGeoDB:layer" v="5"/>
    <tag k="openGeoDB:license_plate_code" v="MD"/>
    <tag k="openGeoDB:loc_id" v="551"/>
    <tag k="openGeoDB:name" v="Magdeburg"/>
    <tag k="openGeoDB:sort_name" v="MAGDEBURG"/>
    <tag k="openGeoDB:type" v="Landeshauptstadt"/>
    <tag k="openGeoDB:version" v="0.2.6.11 / 2007-12-04 / http://fa-technik.adfc.de/code/opengeodb/dump/"/>
    <tag k="opengeodb:lat" v="52.13177"/>
    <tag k="opengeodb:lon" v="11.6383114"/>
    <tag k="place" v="city"/>
    <tag k="population" v="230140"/>
  </node>
  <node id="33997995" version="10" timestamp="2009-06-17T10:56:37Z" uid="112189" user="cucu" changeset="1544162" lat="52.1315888" lon="11.639961">
    <tag k="is_capital" v="state"/>
    <tag k="is_in" v="Sachsen-Anhalt,Bundesrepublik Deutschland,Europe"/>
    <tag k="is_in:continent" v="Europe"/>
    <tag k="name" v="Magdeburg"/>
    <tag k="openGeoDB:auto_update" v="population,is_in"/>
    <tag k="openGeoDB:community_identification_number" v="15303"/>
    <tag k="openGeoDB:is_in" v="Magdeburg,Sachsen-Anhalt,Bundesrepublik Deutschland,Europe"/>
    <tag k="openGeoDB:is_in_loc_id" v="190"/>
    <tag k="openGeoDB:layer" v="5"/>
    <tag k="openGeoDB:license_plate_code" v="MD"/>
    <tag k="openGeoDB:loc_id" v="551"/>
    <tag k="openGeoDB:name" v="Magdeburg"/>
    <tag k="openGeoDB:sort_name" v="MAGDEBURG"/>
    <tag k="openGeoDB:type" v="Landeshauptstadt"/>
    <tag k="openGeoDB:version" v="0.2.6.11 / 2007-12-04 / http://fa-technik.adfc.de/code/opengeodb/dump/"/>
    <tag k="opengeodb:lat" v="52.13177"/>
    <tag k="opengeodb:lon" v="11.6383114"/>
    <tag k="place" v="city"/>
    <tag k="population" v="230140"/>
  </node>
  <node id="33997995" version="11" timestamp="2009-10-23T09:21:42Z" uid="53468" user="yohanson" changeset="2928017" lat="52.1315888" lon="11.639961">
    <tag k="is_capital" v="state"/>
    <tag k="is_in" v="Sachsen-Anhalt,Bundesrepublik Deutschland,Europe"/>
    <tag k="is_in:continent" v="Europe"/>
    <tag k="name" v="Magdeburg"/>
    <tag k="name:ru" v="Магдебург"/>
    <tag k="openGeoDB:auto_update" v="population,is_in"/>
    <tag k="openGeoDB:community_identification_number" v="15303"/>
    <tag k="openGeoDB:is_in" v="Magdeburg,Sachsen-Anhalt,Bundesrepublik Deutschland,Europe"/>
    <tag k="openGeoDB:is_in_loc_id" v="190"/>
    <tag k="openGeoDB:layer" v="5"/>
    <tag k="openGeoDB:license_plate_code" v="MD"/>
    <tag k="openGeoDB:loc_id" v="551"/>
    <tag k="openGeoDB:name" v="Magdeburg"/>
    <tag k="openGeoDB:sort_name" v="MAGDEBURG"/>
    <tag k="openGeoDB:type" v="Landeshauptstadt"/>
    <tag k="openGeoDB:version" v="0.2.6.11 / 2007-12-04 / http://fa-technik.adfc.de/code/opengeodb/dump/"/>
    <tag k="opengeodb:lat" v="52.13177"/>
    <tag k="opengeodb:lon" v="11.6383114"/>
    <tag k="place" v="city"/>
    <tag k="population" v="230140"/>
  </node>
  <node id="33997995" version="12" timestamp="2009-12-02T22:36:45Z" uid="129607" user="Mage Whopper" changeset="3276287" lat="52.1315889" lon="11.6399609">
    <tag k="is_capital" v="state"/>
    <tag k="is_in" v="Sachsen-Anhalt,Bundesrepublik Deutschland,Europe"/>
    <tag k="is_in:continent" v="Europe"/>
    <tag k="name" v="Magdeburg"/>
    <tag k="name:ja" v="マクデブルク"/>
    <tag k="name:ru" v="Магдебург"/>
    <tag k="openGeoDB:auto_update" v="population,is_in"/>
    <tag k="openGeoDB:community_identification_number" v="15303"/>
    <tag k="openGeoDB:is_in" v="Magdeburg,Sachsen-Anhalt,Bundesrepublik Deutschland,Europe"/>
    <tag k="openGeoDB:is_in_loc_id" v="190"/>
    <tag k="openGeoDB:layer" v="5"/>
    <tag k="openGeoDB:license_plate_code" v="MD"/>
    <tag k="openGeoDB:loc_id" v="551"/>
    <tag k="openGeoDB:name" v="Magdeburg"/>
    <tag k="openGeoDB:sort_name" v="MAGDEBURG"/>
    <tag k="openGeoDB:type" v="Landeshauptstadt"/>
    <tag k="openGeoDB:version" v="0.2.6.11 / 2007-12-04 / http://fa-technik.adfc.de/code/opengeodb/dump/"/>
    <tag k="opengeodb:lat" v="52.13177"/>
    <tag k="opengeodb:lon" v="11.6383114"/>
    <tag k="place" v="city"/>
    <tag k="population" v="230140"/>
  </node>
  <node id="33997995" version="13" timestamp="2009-12-16T12:36:04Z" uid="42429" user="FK270673" changeset="3386288" lat="52.1315889" lon="11.6399609">
    <tag k="is_capital" v="state"/>
    <tag k="is_in" v="Sachsen-Anhalt,Bundesrepublik Deutschland,Europe"/>
    <tag k="is_in:continent" v="Europe"/>
    <tag k="name" v="Magdeburg"/>
    <tag k="name:cs" v="Magdeburk"/>
    <tag k="name:eo" v="Magdeburgo"/>
    <tag k="name:es" v="Magdeburgo"/>
    <tag k="name:fr" v="Magdebourg"/>
    <tag k="name:he" v="מגדבורג"/>
    <tag k="name:it" v="Magdeburgo"/>
    <tag k="name:ja" v="マクデブルク"/>
    <tag k="name:la" v="Magdeburgum"/>
    <tag k="name:lt" v="Magdeburgas"/>
    <tag k="name:lv" v="Magdeburga"/>
    <tag k="name:nds" v="Meideborg"/>
    <tag k="name:nl" v="Maagdenburg"/>
    <tag k="name:ru" v="Магдебург"/>
    <tag k="name:sq" v="Magdeburgu"/>
    <tag k="openGeoDB:auto_update" v="population,is_in"/>
    <tag k="openGeoDB:community_identification_number" v="15303"/>
    <tag k="openGeoDB:is_in" v="Magdeburg,Sachsen-Anhalt,Bundesrepublik Deutschland,Europe"/>
    <tag k="openGeoDB:is_in_loc_id" v="190"/>
    <tag k="openGeoDB:layer" v="5"/>
    <tag k="openGeoDB:license_plate_code" v="MD"/>
    <tag k="openGeoDB:loc_id" v="551"/>
    <tag k="openGeoDB:name" v="Magdeburg"/>
    <tag k="openGeoDB:sort_name" v="MAGDEBURG"/>
    <tag k="openGeoDB:type" v="Landeshauptstadt"/>
    <tag k="openGeoDB:version" v="0.2.6.11 / 2007-12-04 / http://fa-technik.adfc.de/code/opengeodb/dump/"/>
    <tag k="opengeodb:lat" v="52.13177"/>
    <tag k="opengeodb:lon" v="11.6383114"/>
    <tag k="place" v="city"/>
    <tag k="population" v="230140"/>
  </node>
  <node id="33997995" version="14" timestamp="2010-01-22T23:03:49Z" uid="42683" user="riechfield" changeset="3688023" lat="52.1315889" lon="11.6399609">
    <tag k="is_capital" v="state"/>
    <tag k="is_in" v="Magdeburg,Sachsen-Anhalt,Bundesrepublik Deutschland,Europe"/>
    <tag k="is_in:continent" v="Europe"/>
    <tag k="name" v="Magdeburg"/>
    <tag k="name:cs" v="Magdeburk"/>
    <tag k="name:eo" v="Magdeburgo"/>
    <tag k="name:es" v="Magdeburgo"/>
    <tag k="name:fr" v="Magdebourg"/>
    <tag k="name:he" v="מגדבורג"/>
    <tag k="name:it" v="Magdeburgo"/>
    <tag k="name:ja" v="マクデブルク"/>
    <tag k="name:la" v="Magdeburgum"/>
    <tag k="name:lt" v="Magdeburgas"/>
    <tag k="name:lv" v="Magdeburga"/>
    <tag k="name:nds" v="Meideborg"/>
    <tag k="name:nl" v="Maagdenburg"/>
    <tag k="name:ru" v="Магдебург"/>
    <tag k="name:sq" v="Magdeburgu"/>
    <tag k="openGeoDB:auto_update" v="population,is_in"/>
    <tag k="openGeoDB:community_identification_number" v="15303"/>
    <tag k="openGeoDB:is_in" v="Magdeburg,Sachsen-Anhalt,Bundesrepublik Deutschland,Europe"/>
    <tag k="openGeoDB:is_in_loc_id" v="190"/>
    <tag k="openGeoDB:layer" v="5"/>
    <tag k="openGeoDB:license_plate_code" v="MD"/>
    <tag k="openGeoDB:loc_id" v="551"/>
    <tag k="openGeoDB:name" v="Magdeburg"/>
    <tag k="openGeoDB:sort_name" v="MAGDEBURG"/>
    <tag k="openGeoDB:type" v="Landeshauptstadt"/>
    <tag k="openGeoDB:version" v="0.2.6.11 / 2007-12-04 / http://fa-technik.adfc.de/code/opengeodb/dump/"/>
    <tag k="opengeodb:lat" v="52.13177"/>
    <tag k="opengeodb:lon" v="11.6383114"/>
    <tag k="place" v="city"/>
    <tag k="population" v="230140"/>
  </node>
  <node id="33997995" version="15" timestamp="2011-01-24T12:38:25Z" uid="393666" user="etrumap" changeset="7072524" lat="52.1315889" lon="11.6399609">
    <tag k="capital" v="4"/>
    <tag k="is_capital" v="state"/>
    <tag k="is_in" v="Magdeburg,Sachsen-Anhalt,Bundesrepublik Deutschland,Europe"/>
    <tag k="is_in:continent" v="Europe"/>
    <tag k="name" v="Magdeburg"/>
    <tag k="name:cs" v="Magdeburk"/>
    <tag k="name:eo" v="Magdeburgo"/>
    <tag k="name:es" v="Magdeburgo"/>
    <tag k="name:fr" v="Magdebourg"/>
    <tag k="name:he" v="מגדבורג"/>
    <tag k="name:it" v="Magdeburgo"/>
    <tag k="name:ja" v="マクデブルク"/>
    <tag k="name:la" v="Magdeburgum"/>
    <tag k="name:lt" v="Magdeburgas"/>
    <tag k="name:lv" v="Magdeburga"/>
    <tag k="name:nds" v="Meideborg"/>
    <tag k="name:nl" v="Maagdenburg"/>
    <tag k="name:ru" v="Магдебург"/>
    <tag k="name:sq" v="Magdeburgu"/>
    <tag k="openGeoDB:auto_update" v="population,is_in"/>
    <tag k="openGeoDB:community_identification_number" v="15303"/>
    <tag k="openGeoDB:is_in" v="Magdeburg,Sachsen-Anhalt,Bundesrepublik Deutschland,Europe"/>
    <tag k="openGeoDB:is_in_loc_id" v="190"/>
    <tag k="openGeoDB:layer" v="5"/>
    <tag k="openGeoDB:license_plate_code" v="MD"/>
    <tag k="openGeoDB:loc_id" v="551"/>
    <tag k="openGeoDB:name" v="Magdeburg"/>
    <tag k="openGeoDB:sort_name" v="MAGDEBURG"/>
    <tag k="openGeoDB:type" v="Landeshauptstadt"/>
    <tag k="openGeoDB:version" v="0.2.6.11 / 2007-12-04 / http://fa-technik.adfc.de/code/opengeodb/dump/"/>
    <tag k="opengeodb:lat" v="52.13177"/>
    <tag k="opengeodb:lon" v="11.6383114"/>
    <tag k="place" v="city"/>
    <tag k="population" v="230140"/>
  </node>
  <node id="33997995" version="16" timestamp="2011-05-14T17:44:20Z" uid="212207" user="SunCobalt" changeset="8143600" lat="52.1315889" lon="11.6399609">
    <tag k="capital" v="4"/>
    <tag k="is_capital" v="state"/>
    <tag k="is_in" v="Magdeburg,Sachsen-Anhalt,Bundesrepublik Deutschland,Europe"/>
    <tag k="is_in:continent" v="Europe"/>
    <tag k="name" v="Magdeburg"/>
    <tag k="name:cs" v="Magdeburk"/>
    <tag k="name:eo" v="Magdeburgo"/>
    <tag k="name:es" v="Magdeburgo"/>
    <tag k="name:fr" v="Magdebourg"/>
    <tag k="name:he" v="מגדבורג"/>
    <tag k="name:it" v="Magdeburgo"/>
    <tag k="name:ja" v="マクデブルク"/>
    <tag k="name:la" v="Magdeburgum"/>
    <tag k="name:lt" v="Magdeburgas"/>
    <tag k="name:lv" v="Magdeburga"/>
    <tag k="name:nds" v="Meideborg"/>
    <tag k="name:nl" v="Maagdenburg"/>
    <tag k="name:ru" v="Магдебург"/>
    <tag k="name:sq" v="Magdeburgu"/>
    <tag k="name:sr" v="Магдебург"/>
    <tag k="openGeoDB:auto_update" v="population,is_in"/>
    <tag k="openGeoDB:community_identification_number" v="15303"/>
    <tag k="openGeoDB:is_in" v="Magdeburg,Sachsen-Anhalt,Bundesrepublik Deutschland,Europe"/>
    <tag k="openGeoDB:is_in_loc_id" v="190"/>
    <tag k="openGeoDB:layer" v="5"/>
    <tag k="openGeoDB:license_plate_code" v="MD"/>
    <tag k="openGeoDB:loc_id" v="551"/>
    <tag k="openGeoDB:name" v="Magdeburg"/>
    <tag k="openGeoDB:sort_name" v="MAGDEBURG"/>
    <tag k="openGeoDB:type" v="Landeshauptstadt"/>
    <tag k="openGeoDB:version" v="0.2.6.11 / 2007-12-04 / http://fa-technik.adfc.de/code/opengeodb/dump/"/>
    <tag k="opengeodb:lat" v="52.13177"/>
    <tag k="opengeodb:lon" v="11.6383114"/>
    <tag k="place" v="city"/>
    <tag k="population" v="230140"/>
  </node>
  <node id="33997995" version="17" timestamp="2011-06-30T07:20:56Z" uid="15720" user="J budissin" changeset="8587623" lat="52.1315889" lon="11.6399609">
    <tag k="capital" v="4"/>
    <tag k="is_capital" v="state"/>
    <tag k="is_in" v="Magdeburg,Sachsen-Anhalt,Bundesrepublik Deutschland,Europe"/>
    <tag k="is_in:continent" v="Europe"/>
    <tag k="name" v="Magdeburg"/>
    <tag k="name:cs" v="Magdeburk"/>
    <tag k="name:eo" v="Magdeburgo"/>
    <tag k="name:es" v="Magdeburgo"/>
    <tag k="name:fr" v="Magdebourg"/>
    <tag k="name:he" v="מגדבורג"/>
    <tag k="name:hsb" v="Dźěwin"/>
    <tag k="name:it" v="Magdeburgo"/>
    <tag k="name:ja" v="マクデブルク"/>
    <tag k="name:la" v="Magdeburgum"/>
    <tag k="name:lt" v="Magdeburgas"/>
    <tag k="name:lv" v="Magdeburga"/>
    <tag k="name:nds" v="Meideborg"/>
    <tag k="name:nl" v="Maagdenburg"/>
    <tag k="name:ru" v="Магдебург"/>
    <tag k="name:sq" v="Magdeburgu"/>
    <tag k="name:sr" v="Магдебург"/>
    <tag k="openGeoDB:auto_update" v="population,is_in"/>
    <tag k="openGeoDB:community_identification_number" v="15303"/>
    <tag k="openGeoDB:is_in" v="Magdeburg,Sachsen-Anhalt,Bundesrepublik Deutschland,Europe"/>
    <tag k="openGeoDB:is_in_loc_id" v="190"/>
    <tag k="openGeoDB:layer" v="5"/>
    <tag k="openGeoDB:license_plate_code" v="MD"/>
    <tag k="openGeoDB:loc_id" v="551"/>
    <tag k="openGeoDB:name" v="Magdeburg"/>
    <tag k="openGeoDB:sort_name" v="MAGDEBURG"/>
    <tag k="openGeoDB:type" v="Landeshauptstadt"/>
    <tag k="openGeoDB:version" v="0.2.6.11 / 2007-12-04 / http://fa-technik.adfc.de/code/opengeodb/dump/"/>
    <tag k="opengeodb:lat" v="52.13177"/>
    <tag k="opengeodb:lon" v="11.6383114"/>
    <tag k="place" v="city"/>
    <tag k="population" v="230140"/>
  </node>
  <node id="33997995" version="18" timestamp="2011-08-14T20:57:23Z" uid="39966" user="free_as_a_bird" changeset="9021026" lat="52.1315889" lon="11.6399609">
    <tag k="capital" v="4"/>
    <tag k="is_capital" v="state"/>
    <tag k="is_in" v="Magdeburg,Sachsen-Anhalt,Bundesrepublik Deutschland,Europe"/>
    <tag k="is_in:continent" v="Europe"/>
    <tag k="name" v="Magdeburg"/>
    <tag k="name:cs" v="Magdeburk"/>
    <tag k="name:eo" v="Magdeburgo"/>
    <tag k="name:es" v="Magdeburgo"/>
    <tag k="name:fr" v="Magdebourg"/>
    <tag k="name:he" v="מגדבורג"/>
    <tag k="name:hsb" v="Dźěwin"/>
    <tag k="name:it" v="Magdeburgo"/>
    <tag k="name:ja" v="マクデブルク"/>
    <tag k="name:la" v="Magdeburgum"/>
    <tag k="name:lt" v="Magdeburgas"/>
    <tag k="name:lv" v="Magdeburga"/>
    <tag k="name:nds" v="Meideborg"/>
    <tag k="name:nl" v="Maagdenburg"/>
    <tag k="name:ru" v="Магдебург"/>
    <tag k="name:sq" v="Magdeburgu"/>
    <tag k="name:sr" v="Магдебург"/>
    <tag k="name:zh" v="马格德堡"/>
    <tag k="openGeoDB:auto_update" v="population,is_in"/>
    <tag k="openGeoDB:community_identification_number" v="15303"/>
    <tag k="openGeoDB:is_in" v="Magdeburg,Sachsen-Anhalt,Bundesrepublik Deutschland,Europe"/>
    <tag k="openGeoDB:is_in_loc_id" v="190"/>
    <tag k="openGeoDB:layer" v="5"/>
    <tag k="openGeoDB:license_plate_code" v="MD"/>
    <tag k="openGeoDB:loc_id" v="551"/>
    <tag k="openGeoDB:name" v="Magdeburg"/>
    <tag k="openGeoDB:sort_name" v="MAGDEBURG"/>
    <tag k="openGeoDB:type" v="Landeshauptstadt"/>
    <tag k="openGeoDB:version" v="0.2.6.11 / 2007-12-04 / http://fa-technik.adfc.de/code/opengeodb/dump/"/>
    <tag k="opengeodb:lat" v="52.13177"/>
    <tag k="opengeodb:lon" v="11.6383114"/>
    <tag k="place" v="city"/>
    <tag k="population" v="230140"/>
  </node>
  <node id="33998301" version="2" timestamp="2008-01-26T15:03:29Z" uid="13367" user="nubok" changeset="697043" lat="52.1310252" lon="11.6290818">
    <tag k="amenity" v="cinema"/>
    <tag k="created_by" v="JOSM"/>
    <tag k="name" v="Cinemaxx"/>
  </node>
  <node id="33998676" version="5" timestamp="2010-04-26T12:12:59Z" uid="4467" user="Rosscoe" changeset="4531219" lat="-38.0296487" lon="145.128886">
    <tag k="direction" v="clockwise"/>
    <tag k="highway" v="mini_roundabout"/>
  </node>
  <node id="33999306" version="6" timestamp="2008-12-29T22:33:56Z" uid="6269" user="Mueck" changeset="661283" lat="49.8694151" lon="11.8840687"/>
  <node id="33999306" version="7" timestamp="2008-12-29T22:41:11Z" uid="6269" user="Mueck" changeset="661283" lat="49.8694151" lon="11.8840687"/>
  <node id="33999306" version="8" timestamp="2008-12-29T22:44:14Z" uid="6269" user="Mueck" changeset="661283" lat="49.8694151" lon="11.8840687"/>
  <node id="33999306" version="9" timestamp="2008-12-29T22:44:54Z" uid="6269" user="Mueck" changeset="661283" lat="49.8694151" lon="11.8840687"/>
  <node id="33999399" version="3" timestamp="2009-02-15T16:21:37Z" uid="10712" user="Kraeml" changeset="451873" lat="49.5065394" lon="10.4127928">
    <tag k="created_by" v="JOSM"/>
    <tag k="name" v="Bahnhof Bad Windsheim"/>
    <tag k="railway" v="station"/>
  </node>
  <node id="33999399" version="4" timestamp="2009-02-27T20:25:09Z" uid="73405" user="ciclista" changeset="689149" lat="49.5065394" lon="10.4127928">
    <tag k="name" v="Bad Windsheim"/>
    <tag k="railway" v="station"/>
  </node>
  <node id="33999399" version="5" timestamp="2010-02-16T18:17:45Z" uid="83876" user="BurnyB" changeset="3894609" lat="49.5066862" lon="10.4127304">
    <tag k="name" v="Bad Windsheim"/>
    <tag k="railway" v="station"/>
  </node>
  <node id="33999399" version="6" timestamp="2010-03-28T17:42:58Z" uid="40851" user="gypakk" changeset="4258144" lat="49.5066637" lon="10.4127331">
    <tag k="name" v="Bad Windsheim"/>
    <tag k="railway" v="station"/>
  </node>
  <node id="33999399" version="7" timestamp="2010-06-16T13:54:19Z" uid="118011" user="TheoryBug" changeset="5000814" lat="49.5066637" lon="10.4127331">
    <tag k="name" v="Bad Windsheim"/>
    <tag k="railway" v="station"/>
    <tag k="uic_ref" v="8000767"/>
  </node>
  <node id="33999399" version="8" timestamp="2011-10-01T10:51:28Z" uid="290680" user="wheelmap_visitor" changeset="9440392" lat="49.5066637" lon="10.4127331">
    <tag k="name" v="Bad Windsheim"/>
    <tag k="railway" v="station"/>
    <tag k="uic_ref" v="8000767"/>
    <tag k="wheelchair" v="yes"/>
  </node>
  <node id="33999399" version="9" timestamp="2011-10-07T18:26:23Z" uid="290680" user="wheelmap_visitor" changeset="9490517" lat="49.5066637" lon="10.4127331">
    <tag k="name" v="Bad Windsheim"/>
    <tag k="railway" v="station"/>
    <tag k="uic_ref" v="8000767"/>
    <tag k="wheelchair" v="no"/>
  </node>
  <node id="33999458" version="8" timestamp="2010-08-17T07:18:32Z" uid="4467" user="Rosscoe" changeset="5515084" lat="-37.8933427" lon="145.309351">
    <tag k="highway" v="traffic_signals"/>
  </node>
  <node id="33999458" version="9" timestamp="2010-08-17T07:25:22Z" uid="4467" user="Rosscoe" changeset="5515107" lat="-37.8933427" lon="145.309351">
    <tag k="highway" v="traffic_signals"/>
  </node>
  <node id="33999458" version="10" timestamp="2010-08-17T07:33:50Z" uid="4467" user="Rosscoe" changeset="5515151" lat="-37.8933427" lon="145.309351">
    <tag k="highway" v="traffic_signals"/>
  </node>
  <node id="33999458" version="11" timestamp="2011-04-06T13:15:48Z" uid="206929" user="Supt_of_Printing" changeset="7784868" lat="-37.8933467" lon="145.3093505">
    <tag k="highway" v="traffic_signals"/>
  </node>
  <node id="33999458" version="12" timestamp="2011-11-28T06:26:17Z" uid="46482" user="Leon K" changeset="9974809" lat="-37.8933459" lon="145.309294">
    <tag k="highway" v="traffic_signals"/>
  </node>
  <node id="33999460" version="13" timestamp="2010-08-17T07:27:48Z" uid="4467" user="Rosscoe" changeset="5515107" lat="-37.893295" lon="145.3123403"/>
  <node id="33999535" version="5" timestamp="2010-06-23T00:24:21Z" uid="4467" user="Rosscoe" changeset="5055741" lat="-37.9086582" lon="145.3548444"/>
  <node id="33999535" version="6" timestamp="2011-02-01T04:33:34Z" uid="4467" user="Rosscoe" changeset="7151558" lat="-37.9086757" lon="145.3548493"/>
  <node id="33999555" version="11" timestamp="2010-05-19T09:32:47Z" uid="4467" user="Rosscoe" changeset="4746459" lat="-37.9012703" lon="145.3284418"/>
  <node id="33999555" version="12" timestamp="2011-02-03T13:07:57Z" uid="11111" user="lakeyboy" changeset="7173865" lat="-37.901308" lon="145.3284555"/>
  <node id="33999556" version="20" timestamp="2010-05-19T09:32:05Z" uid="4467" user="Rosscoe" changeset="4746459" lat="-37.9015077" lon="145.3291176"/>
  <node id="33999556" version="21" timestamp="2011-02-03T13:07:56Z" uid="11111" user="lakeyboy" changeset="7173865" lat="-37.9015277" lon="145.3290669"/>
  <node id="33999556" version="22" timestamp="2011-03-09T14:03:38Z" uid="206929" user="Supt_of_Printing" changeset="7504353" lat="-37.9015149" lon="145.3290543"/>
  <node id="33999557" version="10" timestamp="2010-05-19T09:32:34Z" uid="4467" user="Rosscoe" changeset="4746459" lat="-37.9021721" lon="145.330233">
    <tag k="highway" v="traffic_signals"/>
  </node>
  <node id="33999557" version="11" timestamp="2011-02-03T13:07:56Z" uid="11111" user="lakeyboy" changeset="7173865" lat="-37.9022056" lon="145.3302285"/>
  <node id="33999558" version="10" timestamp="2010-05-19T09:33:13Z" uid="4467" user="Rosscoe" changeset="4746459" lat="-37.9036511" lon="145.3319898"/>
  <node id="33999558" version="11" timestamp="2011-05-19T02:04:11Z" uid="206929" user="Supt_of_Printing" changeset="8186271" lat="-37.9036683" lon="145.3319747"/>
  <node id="33999559" version="10" timestamp="2010-05-19T09:32:27Z" uid="4467" user="Rosscoe" changeset="4746459" lat="-37.9039049" lon="145.3324933"/>
  <node id="33999559" version="11" timestamp="2011-05-19T02:04:11Z" uid="206929" user="Supt_of_Printing" changeset="8186271" lat="-37.9039905" lon="145.3327784"/>
  <node id="33999560" version="9" timestamp="2010-05-19T09:32:52Z" uid="4467" user="Rosscoe" changeset="4746459" lat="-37.9048615" lon="145.3366753"/>
  <node id="33999560" version="10" timestamp="2010-07-01T14:06:08Z" uid="206929" user="Supt_of_Printing" changeset="5120879" lat="-37.9048615" lon="145.3366753"/>
  <node id="33999560" version="11" timestamp="2011-04-17T14:02:43Z" uid="206929" user="Supt_of_Printing" changeset="7886996" lat="-37.9048673" lon="145.3366827"/>
  <node id="33999560" version="12" timestamp="2011-05-19T02:04:11Z" uid="206929" user="Supt_of_Printing" changeset="8186271" lat="-37.9048709" lon="145.3366603"/>
  <node id="33999561" version="9" timestamp="2010-05-19T09:32:07Z" uid="4467" user="Rosscoe" changeset="4746459" lat="-37.9049655" lon="145.3369962"/>
  <node id="33999561" version="10" timestamp="2011-05-19T02:04:12Z" uid="206929" user="Supt_of_Printing" changeset="8186271" lat="-37.9049781" lon="145.3369767"/>
  <node id="33999562" version="9" timestamp="2010-05-19T09:32:37Z" uid="4467" user="Rosscoe" changeset="4746459" lat="-37.9051482" lon="145.3373172"/>
  <node id="33999562" version="10" timestamp="2011-04-17T14:02:43Z" uid="206929" user="Supt_of_Printing" changeset="7886996" lat="-37.90515" lon="145.3373087"/>
  <node id="33999562" version="11" timestamp="2011-05-19T02:04:12Z" uid="206929" user="Supt_of_Printing" changeset="8186271" lat="-37.9051537" lon="145.3372946"/>
  <node id="33999563" version="9" timestamp="2010-05-19T09:32:02Z" uid="4467" user="Rosscoe" changeset="4746459" lat="-37.9056268" lon="145.3377631"/>
  <node id="33999563" version="10" timestamp="2011-04-17T14:02:43Z" uid="206929" user="Supt_of_Printing" changeset="7886996" lat="-37.9056236" lon="145.3377528"/>
  <node id="33999564" version="16" timestamp="2010-05-19T09:32:29Z" uid="4467" user="Rosscoe" changeset="4746459" lat="-37.9059004" lon="145.3379241"/>
  <node id="33999564" version="17" timestamp="2010-07-04T03:01:38Z" uid="206929" user="Supt_of_Printing" changeset="5129360" lat="-37.9059004" lon="145.3379241"/>
  <node id="33999564" version="18" timestamp="2011-04-17T14:02:43Z" uid="206929" user="Supt_of_Printing" changeset="7886996" lat="-37.9059393" lon="145.3379578"/>
  <node id="33999580" version="3" timestamp="2011-02-01T04:33:40Z" uid="4467" user="Rosscoe" changeset="7151558" lat="-37.9098033" lon="145.3525723"/>
  <node id="33999580" version="4" timestamp="2011-03-06T13:15:06Z" uid="206929" user="Supt_of_Printing" changeset="7473009" lat="-37.9098153" lon="145.3525606"/>
  <node id="33999580" version="5" timestamp="2011-12-12T15:38:59Z" uid="338866" user="tiger" changeset="10099201" lat="-37.9098153" lon="145.3525606"/>
  <node id="33999581" version="4" timestamp="2011-02-01T04:33:36Z" uid="4467" user="Rosscoe" changeset="7151558" lat="-37.9098788" lon="145.3526931"/>
  <node id="33999581" version="5" timestamp="2011-03-06T13:15:06Z" uid="206929" user="Supt_of_Printing" changeset="7473009" lat="-37.909907" lon="145.3527173"/>
  <node id="33999583" version="4" timestamp="2010-06-23T00:24:30Z" uid="4467" user="Rosscoe" changeset="5055741" lat="-37.9094999" lon="145.3541061"/>
  <node id="33999583" version="5" timestamp="2011-02-01T04:33:55Z" uid="4467" user="Rosscoe" changeset="7151558" lat="-37.9094999" lon="145.3541061"/>
  <node id="33999713" version="2" timestamp="2008-09-10T06:22:18Z" uid="4667" user="MapZ" changeset="596241" lat="32.6712308" lon="-17.0657746">
    <tag k="created_by" v="JOSM"/>
  </node>
  <node id="33999713" version="3" timestamp="2009-07-24T20:20:00Z" uid="74896" user="tevake" changeset="1929059" lat="32.6712131" lon="-17.0657493"/>
  <node id="33999714" version="2" timestamp="2008-09-10T06:22:18Z" uid="4667" user="MapZ" changeset="596241" lat="32.6710645" lon="-17.0659459">
    <tag k="created_by" v="JOSM"/>
  </node>
  <node id="33999714" version="3" timestamp="2009-07-24T20:20:00Z" uid="74896" user="tevake" changeset="1929059" lat="32.671061" lon="-17.0659122"/>
  <node id="33999715" version="2" timestamp="2008-07-03T07:37:11Z" uid="4667" user="MapZ" changeset="380103" lat="32.6710478" lon="-17.0660744">
    <tag k="created_by" v="JOSM"/>
  </node>
  <node id="33999715" version="3" timestamp="2008-09-10T06:22:19Z" uid="4667" user="MapZ" changeset="596241" lat="32.6709977" lon="-17.0660792">
    <tag k="created_by" v="JOSM"/>
  </node>
  <node id="33999715" version="4" timestamp="2009-07-24T20:20:00Z" uid="74896" user="tevake" changeset="1929059" lat="32.670948" lon="-17.0660581"/>
  <node id="33999715" version="5" timestamp="2011-04-28T10:40:42Z" uid="81732" user="zahilb" changeset="7993369" lat="32.6708392" lon="-17.06601"/>
  <node id="33999772" version="2" timestamp="2010-06-27T11:27:25Z" uid="30201" user="rrankin" changeset="5088675" lat="-34.3378277" lon="150.7342813"/>
  <node id="33999773" version="2" timestamp="2010-06-27T11:27:28Z" uid="30201" user="rrankin" changeset="5088675" lat="-34.3376671" lon="150.7353776"/>
  <node id="33999774" version="2" timestamp="2010-06-27T11:27:31Z" uid="30201" user="rrankin" changeset="5088675" lat="-34.3386804" lon="150.7361942"/>
  <node id="33999775" version="2" timestamp="2010-06-27T11:27:18Z" uid="30201" user="rrankin" changeset="5088675" lat="-34.3420503" lon="150.7350117"/>
  <node id="33999776" version="2" timestamp="2010-06-27T11:27:26Z" uid="30201" user="rrankin" changeset="5088675" lat="-34.3404468" lon="150.7375635"/>
  <node id="33999777" version="2" timestamp="2010-06-27T11:27:30Z" uid="30201" user="rrankin" changeset="5088675" lat="-34.3403002" lon="150.7382646"/>
  <node id="33999779" version="2" timestamp="2010-06-27T11:27:19Z" uid="30201" user="rrankin" changeset="5088675" lat="-34.3398063" lon="150.7426367"/>
  <node id="33999780" version="2" timestamp="2010-06-27T11:27:24Z" uid="30201" user="rrankin" changeset="5088675" lat="-34.339675" lon="150.7439974"/>
  <node id="33999791" version="7" timestamp="2010-08-17T07:28:02Z" uid="4467" user="Rosscoe" changeset="5515107" lat="-37.8934092" lon="145.3125688"/>
  <node id="33999793" version="12" timestamp="2010-08-17T07:19:39Z" uid="4467" user="Rosscoe" changeset="5515084" lat="-37.8934633" lon="145.3093416">
    <tag k="highway" v="traffic_signals"/>
  </node>
  <node id="33999793" version="13" timestamp="2010-08-17T07:26:41Z" uid="4467" user="Rosscoe" changeset="5515107" lat="-37.8934633" lon="145.3093416">
    <tag k="highway" v="traffic_signals"/>
  </node>
  <node id="33999793" version="14" timestamp="2010-08-17T07:34:52Z" uid="4467" user="Rosscoe" changeset="5515151" lat="-37.8934633" lon="145.3093416">
    <tag k="highway" v="traffic_signals"/>
  </node>
  <node id="33999793" version="15" timestamp="2011-11-28T06:26:30Z" uid="46482" user="Leon K" changeset="9974809" lat="-37.8934633" lon="145.3093416"/>
  <node id="33999877" version="19" timestamp="2010-08-17T07:17:42Z" uid="4467" user="Rosscoe" changeset="5515084" lat="-37.8929753" lon="145.3056559"/>
  <node id="33999877" version="20" timestamp="2010-08-17T07:23:58Z" uid="4467" user="Rosscoe" changeset="5515107" lat="-37.8929753" lon="145.3056559"/>
  <node id="33999877" version="21" timestamp="2010-08-17T07:32:52Z" uid="4467" user="Rosscoe" changeset="5515151" lat="-37.8929753" lon="145.3056559"/>
  <node id="33999877" version="22" timestamp="2011-04-04T14:46:30Z" uid="206929" user="Supt_of_Printing" changeset="7765721" lat="-37.8929872" lon="145.3056272"/>
  <node id="33999880" version="23" timestamp="2010-08-17T07:16:14Z" uid="4467" user="Rosscoe" changeset="5515084" lat="-37.8912563" lon="145.3013226"/>
  <node id="33999880" version="24" timestamp="2010-08-17T07:22:21Z" uid="4467" user="Rosscoe" changeset="5515107" lat="-37.8912563" lon="145.3013226"/>
  <node id="33999880" version="25" timestamp="2010-08-17T07:31:18Z" uid="4467" user="Rosscoe" changeset="5515151" lat="-37.8912563" lon="145.3013226"/>
  <node id="33993127" version="12" timestamp="2012-07-20T00:37:31Z" uid="722137" user="OSMF Redaction Account" changeset="12352441" lat="32.6564888" lon="-17.0044223">
    <tag k="ele" v="580"/>
    <tag k="name" v="Cabo Girao"/>
    <tag k="tourism" v="viewpoint"/>
  </node>
  <node id="33995262" version="6" timestamp="2012-07-02T20:21:49Z" uid="655766" user="NunoCaldeira" changeset="12093791" lat="32.6731392" lon="-17.0616302"/>
  <node id="33995263" version="8" timestamp="2012-07-02T20:21:49Z" uid="655766" user="NunoCaldeira" changeset="12093791" lat="32.6741625" lon="-17.0615543"/>
  <node id="33995264" version="9" timestamp="2012-07-02T20:21:49Z" uid="655766" user="NunoCaldeira" changeset="12093791" lat="32.6746498" lon="-17.0625756"/>
  <node id="33999399" version="10" timestamp="2012-06-02T07:47:45Z" uid="41431" user="Rosty" changeset="11774320" lat="49.5065993" lon="10.4128147">
    <tag k="name" v="Bad Windsheim"/>
    <tag k="railway" v="station"/>
    <tag k="uic_ref" v="8000767"/>
    <tag k="wheelchair" v="no"/>
  </node>
  <node id="33999458" version="13" timestamp="2012-07-19T20:12:32Z" uid="722137" user="OSMF Redaction Account" changeset="12345838" lat="-37.8933459" lon="145.309294"/>
  <node id="33999535" version="7" timestamp="2012-07-19T20:02:40Z" uid="722137" user="OSMF Redaction Account" changeset="12345654" lat="-37.9085585" lon="145.3549975"/>
  <node id="33999535" version="8" timestamp="2012-07-21T06:15:19Z" uid="637652" user="steve91" changeset="12401361" lat="-37.9087368" lon="145.3548139"/>
  <node id="33999715" version="6" timestamp="2012-07-21T06:53:46Z" uid="655766" user="NunoCaldeira" changeset="12401826" lat="32.6709382" lon="-17.0660404"/>
  <node id="33999772" version="3" timestamp="2012-07-21T18:41:32Z" uid="722137" user="OSMF Redaction Account" changeset="12417477" lat="-34.3381737" lon="150.7347739"/>
  <node id="33999773" version="3" timestamp="2012-07-21T18:41:33Z" uid="722137" user="OSMF Redaction Account" changeset="12417477" lat="-34.3375087" lon="150.7358823"/>
  <node id="33999774" version="3" timestamp="2012-07-21T18:41:32Z" uid="722137" user="OSMF Redaction Account" changeset="12417477" lat="-34.3380998" lon="150.736769"/>
  <node id="33999775" version="3" timestamp="2012-07-21T18:41:32Z" uid="722137" user="OSMF Redaction Account" changeset="12417477" lat="-34.3396515" lon="150.7366951"/>
  <node id="33999776" version="3" timestamp="2012-07-21T18:41:32Z" uid="722137" user="OSMF Redaction Account" changeset="12417477" lat="-34.3404644" lon="150.7378035"/>
  <node id="33999777" version="3" timestamp="2012-07-21T18:41:32Z" uid="722137" user="OSMF Redaction Account" changeset="12417477" lat="-34.3400949" lon="150.7389857"/>
  <node id="33999779" version="3" timestamp="2012-07-21T18:41:32Z" uid="722137" user="OSMF Redaction Account" changeset="12417477" lat="-34.3403166" lon="150.7420153"/>
  <node id="33999780" version="3" timestamp="2012-07-21T18:41:32Z" uid="722137" user="OSMF Redaction Account" changeset="12417477" lat="-34.340021" lon="150.7442321"/>
  <node id="33999880" version="26" timestamp="2012-07-19T20:12:35Z" uid="722137" user="OSMF Redaction Account" changeset="12345838" lat="-37.8912617" lon="145.3013901"/>
</osm>
