<?xml version='1.0' encoding='UTF-8'?>
<osm version="0.6" generator="libosmium/2.20.0">
  <node id="340513048" version="5" timestamp="2010-09-14T14:20:42Z" uid="33382" user="de_muur" changeset="5778921" lat="53.3619954" lon="9.7220863"/>
  <node id="340513048" version="6" timestamp="2012-02-25T23:34:04Z" uid="45882" user="smarties" changeset="10793329" lat="53.3619954" lon="9.7220863"/>
  <node id="340513058" version="3" timestamp="2010-09-14T14:20:59Z" uid="33382" user="de_muur" changeset="5778921" lat="53.3601876" lon="9.7154734"/>
  <node id="340513058" version="4" timestamp="2012-02-25T23:34:05Z" uid="45882" user="smarties" changeset="10793329" lat="53.3601876" lon="9.7154734"/>
  <node id="340513069" version="3" timestamp="2010-09-14T14:20:48Z" uid="33382" user="de_muur" changeset="5778921" lat="53.3587898" lon="9.7105094"/>
  <node id="340513069" version="4" timestamp="2010-12-22T18:18:43Z" uid="45882" user="smarties" changeset="6738231" lat="53.3588206" lon="9.7106172"/>
  <node id="340513069" version="5" timestamp="2012-02-25T23:34:05Z" uid="45882" user="smarties" changeset="10793329" lat="53.3588206" lon="9.7106172"/>
  <node id="340515275" version="3" timestamp="2009-03-05T19:15:43Z" uid="58091" user="Andreas M" changeset="741039" lat="48.2558815" lon="16.3410831">
    <tag k="addr:city" v="Wien"/>
    <tag k="addr:country" v="AT"/>
    <tag k="addr:housenumber" v="11"/>
    <tag k="addr:postcode" v="1190"/>
    <tag k="addr:street" v="Himmelstraße"/>
    <tag k="amenity" v="post_office"/>
    <tag k="name" v="1190 Wien"/>
    <tag k="note" v="position should be checked"/>
    <tag k="postal_code" v="1196"/>
    <tag k="ref" v="1196"/>
    <tag k="type" v="Postfiliale"/>
  </node>
  <node id="340515275" version="4" timestamp="2011-02-22T10:36:18Z" uid="412213" user="BellaIsa" changeset="7361889" lat="48.2559467" lon="16.3411197">
    <tag k="addr:city" v="Wien"/>
    <tag k="addr:country" v="AT"/>
    <tag k="addr:housenumber" v="11"/>
    <tag k="addr:postcode" v="1190"/>
    <tag k="addr:street" v="Himmelstraße"/>
    <tag k="amenity" v="post_office"/>
    <tag k="name" v="1190 Wien"/>
    <tag k="note" v="position should be checked"/>
    <tag k="postal_code" v="1196"/>
    <tag k="ref" v="1196"/>
    <tag k="type" v="Postfiliale"/>
  </node>
  <node id="340515275" version="5" timestamp="2011-02-23T08:40:15Z" uid="412213" user="BellaIsa" changeset="7370296" lat="48.2560628" lon="16.3407978">
    <tag k="addr:city" v="Wien"/>
    <tag k="addr:country" v="AT"/>
    <tag k="addr:housenumber" v="11"/>
    <tag k="addr:postcode" v="1190"/>
    <tag k="addr:street" v="Himmelstraße"/>
    <tag k="amenity" v="post_office"/>
    <tag k="name" v="1190 Wien"/>
    <tag k="note" v="position should be checked"/>
    <tag k="postal_code" v="1196"/>
    <tag k="ref" v="1196"/>
    <tag k="type" v="Postfiliale"/>
  </node>
  <node id="340515275" version="6" timestamp="2011-02-23T08:49:32Z" uid="412213" user="BellaIsa" changeset="7370296" lat="48.2559306" lon="16.3411465">
    <tag k="addr:city" v="Wien"/>
    <tag k="addr:country" v="AT"/>
    <tag k="addr:housenumber" v="11"/>
    <tag k="addr:postcode" v="1190"/>
    <tag k="addr:street" v="Himmelstraße"/>
    <tag k="amenity" v="post_office"/>
    <tag k="name" v="1190 Wien"/>
    <tag k="note" v="position should be checked"/>
    <tag k="postal_code" v="1196"/>
    <tag k="ref" v="1196"/>
    <tag k="type" v="Postfiliale"/>
  </node>
  <node id="340515317" version="3" timestamp="2009-04-15T13:16:25Z" uid="58091" user="Andreas M" changeset="564950" lat="48.2259355" lon="16.4229547">
    <tag k="addr:city" v="Wien"/>
    <tag k="addr:country" v="AT"/>
    <tag k="addr:housenumber" v="14"/>
    <tag k="addr:postcode" v="1220"/>
    <tag k="addr:street" v="Moissigasse"/>
    <tag k="amenity" v="post_office"/>
    <tag k="name" v="1220 Wien"/>
    <tag k="note" v="position should be checked"/>
    <tag k="postal_code" v="1223"/>
    <tag k="ref" v="1223"/>
    <tag k="type" v="Postfiliale"/>
  </node>
  <node id="340515317" version="4" timestamp="2009-11-15T14:22:39Z" uid="78656" user="Walter Schlögl" changeset="3122232" lat="48.225939" lon="16.4229484">
    <tag k="addr:city" v="Wien"/>
    <tag k="addr:country" v="AT"/>
    <tag k="addr:housenumber" v="14"/>
    <tag k="addr:postcode" v="1220"/>
    <tag k="addr:street" v="Moissigasse"/>
    <tag k="amenity" v="post_office"/>
    <tag k="name" v="1223 Wien-Kaisermühlen"/>
    <tag k="note" v="position should be checked"/>
    <tag k="postal_code" v="1223"/>
    <tag k="ref" v="1223"/>
    <tag k="type" v="Postfiliale"/>
  </node>
  <node id="340515317" version="5" timestamp="2010-09-15T20:04:24Z" uid="347440" user="cra" changeset="5790378" lat="48.225939" lon="16.4229484">
    <tag k="addr:city" v="Wien"/>
    <tag k="addr:country" v="AT"/>
    <tag k="addr:housenumber" v="14"/>
    <tag k="addr:postcode" v="1220"/>
    <tag k="addr:street" v="Moissigasse"/>
    <tag k="amenity" v="post_office"/>
    <tag k="name" v="1223 Wien-Kaisermühlen"/>
    <tag k="note" v="position should be checked"/>
    <tag k="postal_code" v="1223"/>
    <tag k="ref" v="1223"/>
    <tag k="type" v="Postfiliale"/>
  </node>
  <node id="340515317" version="6" timestamp="2010-09-16T12:13:26Z" uid="347440" user="cra" changeset="5794996" lat="48.2259862" lon="16.422992">
    <tag k="addr:city" v="Wien"/>
    <tag k="addr:country" v="AT"/>
    <tag k="addr:housenumber" v="14"/>
    <tag k="addr:postcode" v="1220"/>
    <tag k="addr:street" v="Moissigasse"/>
    <tag k="amenity" v="post_office"/>
    <tag k="name" v="1223 Wien-Kaisermühlen"/>
    <tag k="note" v="position should be checked"/>
    <tag k="postal_code" v="1223"/>
    <tag k="ref" v="1223"/>
    <tag k="type" v="Postfiliale"/>
  </node>
  <node id="340515328" version="2" timestamp="2009-02-20T14:25:37Z" uid="58091" user="Andreas M" changeset="572748" lat="48.2227548" lon="16.3986825">
    <tag k="addr:city" v="Wien"/>
    <tag k="addr:housenumber" v="9"/>
    <tag k="addr:postcode" v="1020"/>
    <tag k="addr:street" v="Lassallestraße"/>
    <tag k="amenity" v="post_office"/>
    <tag k="name" v="1020 Wien"/>
    <tag k="note" v="position should be checked"/>
    <tag k="postal_code" v="1402"/>
    <tag k="ref" v="1402"/>
    <tag k="type" v="Postfiliale"/>
  </node>
  <node id="340515328" version="3" timestamp="2009-03-13T20:49:38Z" uid="99800" user="wolfbert" changeset="803311" lat="48.2228386" lon="16.3986419">
    <tag k="addr:city" v="Wien"/>
    <tag k="addr:housenumber" v="9"/>
    <tag k="addr:postcode" v="1020"/>
    <tag k="addr:street" v="Lassallestraße"/>
    <tag k="amenity" v="post_office"/>
    <tag k="name" v="1020 Wien"/>
    <tag k="note" v="position should be checked"/>
    <tag k="postal_code" v="1402"/>
    <tag k="ref" v="1402"/>
    <tag k="type" v="Postfiliale"/>
  </node>
  <node id="340515328" version="4" timestamp="2009-03-15T06:43:01Z" uid="58091" user="Andreas M" changeset="810969" lat="48.2228386" lon="16.3986419">
    <tag k="addr:city" v="Wien"/>
    <tag k="addr:housenumber" v="9"/>
    <tag k="addr:postcode" v="1020"/>
    <tag k="addr:street" v="Lassallestraße"/>
    <tag k="amenity" v="post_office"/>
    <tag k="name" v="1020 Wien"/>
    <tag k="note" v="position should be checked"/>
    <tag k="postal_code" v="1402"/>
    <tag k="ref" v="1402"/>
    <tag k="type" v="Postfiliale"/>
  </node>
  <node id="340515352" version="3" timestamp="2009-02-10T15:44:05Z" uid="58091" user="Andreas M" changeset="321274" lat="48.1706352" lon="16.4260157">
    <tag k="addr:city" v="Wien"/>
    <tag k="addr:country" v="AT"/>
    <tag k="addr:housenumber" v="22"/>
    <tag k="addr:postcode" v="1110"/>
    <tag k="addr:street" v="Unter der Kirche"/>
    <tag k="amenity" v="post_office"/>
    <tag k="name" v="1110 Wien"/>
    <tag k="note" v="position should be checked"/>
    <tag k="postal_code" v="1110"/>
    <tag k="ref" v="1110"/>
    <tag k="type" v="Postfiliale"/>
  </node>
  <node id="340515352" version="6" timestamp="2009-02-19T11:50:28Z" uid="92725" user="Albin74" changeset="554971" lat="48.1706545" lon="16.4261663">
    <tag k="addr:city" v="Wien"/>
    <tag k="addr:housenumber" v="22"/>
    <tag k="addr:postcode" v="1110"/>
    <tag k="addr:street" v="Unter der Kirche"/>
    <tag k="amenity" v="post_office"/>
    <tag k="atm" v="yes"/>
    <tag k="created_by" v="Potlatch 0.10f"/>
    <tag k="name" v="1110 Wien"/>
    <tag k="postal_code" v="1110"/>
    <tag k="ref" v="1110"/>
    <tag k="type" v="Postfiliale"/>
  </node>
  <node id="340515352" version="7" timestamp="2009-02-19T11:50:39Z" uid="92725" user="Albin74" changeset="554971" lat="48.170666" lon="16.4261663">
    <tag k="addr:city" v="Wien"/>
    <tag k="addr:housenumber" v="22"/>
    <tag k="addr:postcode" v="1110"/>
    <tag k="addr:street" v="Unter der Kirche"/>
    <tag k="amenity" v="post_office"/>
    <tag k="atm" v="yes"/>
    <tag k="created_by" v="Potlatch 0.10f"/>
    <tag k="name" v="1110 Wien"/>
    <tag k="postal_code" v="1110"/>
    <tag k="ref" v="1110"/>
    <tag k="type" v="Postfiliale"/>
  </node>
  <node id="340515831" version="3" timestamp="2010-08-28T15:37:57Z" uid="43967" user="railsnail" changeset="5617315" lat="46.819035" lon="13.5176756">
    <tag k="addr:city" v="Seeboden"/>
    <tag k="addr:housenumber" v="9"/>
    <tag k="addr:postcode" v="9871"/>
    <tag k="addr:street" v="Hauptplatz"/>
    <tag k="amenity" v="post_office"/>
    <tag k="name" v="9871 Seeboden"/>
    <tag k="note" v="position should be checked"/>
    <tag k="postal_code" v="9871"/>
    <tag k="ref" v="9871"/>
    <tag k="type" v="Postfiliale"/>
  </node>
  <node id="340515831" version="4" timestamp="2011-09-11T14:01:59Z" uid="93349" user="theone5000" changeset="9271032" lat="46.8188211" lon="13.5180378">
    <tag k="addr:city" v="Seeboden"/>
    <tag k="addr:housenumber" v="9"/>
    <tag k="addr:postcode" v="9871"/>
    <tag k="addr:street" v="Hauptplatz"/>
    <tag k="amenity" v="post_office"/>
    <tag k="name" v="9871 Seeboden"/>
    <tag k="note" v="position should be checked"/>
    <tag k="postal_code" v="9871"/>
    <tag k="ref" v="9871"/>
    <tag k="type" v="Postfiliale"/>
  </node>
  <node id="340516067" version="3" timestamp="2009-07-27T16:24:22Z" uid="43967" user="railsnail" changeset="1956986" lat="47.2157105" lon="15.3987572">
    <tag k="addr:city" v="Semriach"/>
    <tag k="addr:country" v="AT"/>
    <tag k="addr:housenumber" v="55"/>
    <tag k="addr:postcode" v="8102"/>
    <tag k="amenity" v="post_office"/>
    <tag k="name" v="8102 Semriach"/>
    <tag k="note" v="position should be checked"/>
    <tag k="postal_code" v="8102"/>
    <tag k="ref" v="8102"/>
    <tag k="type" v="Postfiliale"/>
  </node>
  <node id="340516067" version="4" timestamp="2010-01-28T12:14:36Z" uid="225839" user="BEV" changeset="3735196" lat="47.2172669" lon="15.4026016">
    <tag k="addr:city" v="Semriach"/>
    <tag k="addr:country" v="AT"/>
    <tag k="addr:housenumber" v="55"/>
    <tag k="addr:postcode" v="8102"/>
    <tag k="amenity" v="post_office"/>
    <tag k="name" v="8102 Semriach"/>
    <tag k="note" v="position should be checked"/>
    <tag k="postal_code" v="8102"/>
    <tag k="ref" v="8102"/>
    <tag k="type" v="Postfiliale"/>
  </node>
  <node id="340516067" version="5" timestamp="2010-01-28T12:25:19Z" uid="225839" user="BEV" changeset="3735261" lat="47.2173686" lon="15.402396">
    <tag k="addr:city" v="Semriach"/>
    <tag k="addr:country" v="AT"/>
    <tag k="addr:housenumber" v="55"/>
    <tag k="addr:postcode" v="8102"/>
    <tag k="amenity" v="post_office"/>
    <tag k="name" v="8102 Semriach"/>
    <tag k="note" v="position should be checked"/>
    <tag k="postal_code" v="8102"/>
    <tag k="ref" v="8102"/>
    <tag k="type" v="Postfiliale"/>
  </node>
  <node id="340516452" version="2" timestamp="2009-11-03T20:17:35Z" uid="74027" user="katzlbt" changeset="3027880" lat="47.1308192" lon="11.4528725">
    <tag k="addr:city" v="Matrei am Brenner"/>
    <tag k="addr:housenumber" v="35"/>
    <tag k="addr:postcode" v="6143"/>
    <tag k="amenity" v="post_office"/>
    <tag k="name" v="6143 Matrei am Brenner"/>
    <tag k="note" v="position along the right street"/>
    <tag k="postal_code" v="6143"/>
    <tag k="ref" v="6143"/>
    <tag k="type" v="Postfiliale"/>
  </node>
  <node id="340516452" version="3" timestamp="2012-01-05T19:10:56Z" uid="45481" user="borisC" changeset="10304249" lat="47.1308192" lon="11.4528725"/>
  <node id="340516461" version="2" timestamp="2011-04-18T21:01:44Z" uid="74027" user="katzlbt" changeset="7901554" lat="47.081583" lon="11.415362">
    <tag k="addr:city" v="Trins"/>
    <tag k="addr:housenumber" v="78"/>
    <tag k="addr:postcode" v="6152"/>
    <tag k="addr:street" v="Trins"/>
    <tag k="amenity" v="post_office"/>
    <tag k="name" v="6152 Trins"/>
    <tag k="note" v="position along the right street"/>
    <tag k="postal_code" v="6152"/>
    <tag k="ref" v="6152"/>
    <tag k="type" v="Post.Partner"/>
  </node>
  <node id="340516466" version="2" timestamp="2009-12-17T22:54:54Z" uid="74027" user="katzlbt" changeset="3397440" lat="47.1849105" lon="11.4047329"/>
  <node id="340516466" version="3" timestamp="2009-12-17T22:55:04Z" uid="74027" user="katzlbt" changeset="3397440" lat="47.1849105" lon="11.4047329"/>
  <node id="340516558" version="2" timestamp="2009-07-13T09:10:58Z" uid="43967" user="railsnail" changeset="1814477" lat="46.8088271" lon="12.3703102">
    <tag k="addr:city" v="Innervillgraten"/>
    <tag k="addr:housenumber" v="79"/>
    <tag k="addr:postcode" v="9932"/>
    <tag k="amenity" v="post_office"/>
    <tag k="name" v="9932 Innervillgraten"/>
    <tag k="note" v="position along the right street"/>
    <tag k="postal_code" v="9932"/>
    <tag k="ref" v="9932"/>
    <tag k="type" v="Postfiliale"/>
  </node>
  <node id="340516558" version="3" timestamp="2011-07-13T09:07:54Z" uid="15391" user="Plobb" changeset="8710483" lat="46.8081355" lon="12.3714474">
    <tag k="addr:city" v="Innervillgraten"/>
    <tag k="addr:housenumber" v="79"/>
    <tag k="addr:postcode" v="9932"/>
    <tag k="amenity" v="post_office"/>
    <tag k="name" v="9932 Innervillgraten"/>
    <tag k="note" v="position along the right street"/>
    <tag k="postal_code" v="9932"/>
    <tag k="ref" v="9932"/>
    <tag k="type" v="Postfiliale"/>
  </node>
  <node id="340516558" version="4" timestamp="2011-08-18T06:32:22Z" uid="40843" user="Bene" changeset="9054017" lat="46.8080342" lon="12.3714132">
    <tag k="amenity" v="post_office"/>
    <tag k="name" v="9932 Innervillgraten"/>
    <tag k="note" v="position along the right street"/>
    <tag k="postal_code" v="9932"/>
    <tag k="ref" v="9932"/>
    <tag k="type" v="Postfiliale"/>
  </node>
  <node id="340516558" version="5" timestamp="2012-01-06T02:35:59Z" uid="45481" user="borisC" changeset="10307542" lat="46.8080342" lon="12.3714132"/>
  <node id="340516634" version="2" timestamp="2009-06-14T17:27:39Z" uid="36809" user="pfoten_weg_!_" changeset="1517003" lat="47.4360545" lon="11.7522175">
    <tag k="addr:city" v="Wiesing"/>
    <tag k="addr:housenumber" v="19"/>
    <tag k="addr:postcode" v="6210"/>
    <tag k="amenity" v="post_office"/>
    <tag k="name" v="6210 Wiesing"/>
    <tag k="note" v="position along the right street"/>
    <tag k="postal_code" v="6210"/>
    <tag k="ref" v="6210"/>
    <tag k="type" v="Post-Servicestelle"/>
  </node>
  <node id="340516663" version="2" timestamp="2009-11-15T12:54:28Z" uid="74027" user="katzlbt" changeset="3121325" lat="47.1279126" lon="11.5252999"/>
  <node id="340516663" version="3" timestamp="2009-11-17T19:37:35Z" uid="45347" user="eriosw" changeset="3144410" lat="47.1279126" lon="11.5252999"/>
  <node id="340516870" version="2" timestamp="2009-06-14T18:41:01Z" uid="43967" user="railsnail" changeset="1517544" lat="46.7994415" lon="12.608322">
    <tag k="addr:city" v="Assling"/>
    <tag k="addr:housenumber" v="6"/>
    <tag k="addr:postcode" v="9911"/>
    <tag k="addr:street" v="Thal-Aue"/>
    <tag k="amenity" v="post_office"/>
    <tag k="name" v="9911 Assling"/>
    <tag k="note" v="position along the right street"/>
    <tag k="postal_code" v="9911"/>
    <tag k="ref" v="9911"/>
    <tag k="type" v="Postfiliale"/>
  </node>
  <node id="340517218" version="2" timestamp="2009-07-30T11:22:31Z" uid="43967" user="railsnail" changeset="1983955" lat="46.8867372" lon="13.0368712">
    <tag k="addr:city" v="Stall im Mölltal"/>
    <tag k="addr:housenumber" v="6"/>
    <tag k="addr:postcode" v="9832"/>
    <tag k="amenity" v="post_office"/>
    <tag k="name" v="Stall im Mölltal"/>
    <tag k="note" v="position along the right street"/>
    <tag k="postal_code" v="9832"/>
    <tag k="ref" v="9832"/>
    <tag k="type" v="Postfiliale"/>
  </node>
  <node id="340517218" version="3" timestamp="2010-01-16T14:52:26Z" uid="45347" user="eriosw" changeset="3632206" lat="46.8870481" lon="13.0349094">
    <tag k="addr:city" v="Stall im Mölltal"/>
    <tag k="addr:housenumber" v="6"/>
    <tag k="addr:postcode" v="9832"/>
    <tag k="amenity" v="post_office"/>
    <tag k="name" v="Stall im Mölltal"/>
    <tag k="note" v="position along the right street"/>
    <tag k="postal_code" v="9832"/>
    <tag k="ref" v="9832"/>
    <tag k="type" v="Postfiliale"/>
  </node>
  <node id="340519080" version="3" timestamp="2011-02-21T18:42:07Z" uid="9581" user="Lobelt" changeset="7356694" lat="47.0694604" lon="10.843928">
    <tag k="addr:city" v="St. Leonhard im Pitztal"/>
    <tag k="addr:housenumber" v="119"/>
    <tag k="addr:postcode" v="6481"/>
    <tag k="addr:street" v="Eggenstall"/>
    <tag k="amenity" v="post_office"/>
    <tag k="name" v="6481 St. Leonhard im Pitztal"/>
    <tag k="postal_code" v="6481"/>
    <tag k="ref" v="6481"/>
  </node>
  <node id="340519080" version="4" timestamp="2011-07-25T20:09:31Z" uid="57945" user="simon04" changeset="8829890" lat="47.0694604" lon="10.843928">
    <tag k="addr:city" v="St. Leonhard im Pitztal"/>
    <tag k="addr:housenumber" v="119"/>
    <tag k="addr:postcode" v="6481"/>
    <tag k="addr:street" v="Eggenstall"/>
    <tag k="amenity" v="post_office"/>
    <tag k="postal_code" v="6481"/>
    <tag k="ref" v="6481"/>
  </node>
  <node id="340519152" version="3" timestamp="2009-10-12T07:33:30Z" uid="43967" user="railsnail" changeset="2822657" lat="46.8302203" lon="12.8114093">
    <tag k="addr:city" v="Nussdorf-Debant"/>
    <tag k="addr:country" v="AT"/>
    <tag k="addr:housenumber" v="3"/>
    <tag k="addr:postcode" v="9990"/>
    <tag k="addr:street" v="Hermann Gmeiner-Straße"/>
    <tag k="amenity" v="post_office"/>
    <tag k="name" v="9990 Nussdorf-Debant"/>
    <tag k="note" v="position along the right street"/>
    <tag k="postal_code" v="9990"/>
    <tag k="type" v="Postfiliale"/>
  </node>
  <node id="340519152" version="4" timestamp="2009-10-12T07:35:07Z" uid="43967" user="railsnail" changeset="2822657" lat="46.8302203" lon="12.8114093">
    <tag k="addr:city" v="Nussdorf-Debant"/>
    <tag k="addr:country" v="AT"/>
    <tag k="addr:housenumber" v="3"/>
    <tag k="addr:postcode" v="9990"/>
    <tag k="addr:street" v="Hermann Gmeiner-Straße"/>
    <tag k="amenity" v="post_office"/>
    <tag k="fixme" v="check import"/>
    <tag k="name" v="9990 Nussdorf-Debant"/>
    <tag k="note" v="position along the right street"/>
    <tag k="postal_code" v="9990"/>
    <tag k="type" v="Postfiliale"/>
  </node>
  <node id="340519152" version="5" timestamp="2011-07-30T13:11:16Z" uid="45481" user="borisC" changeset="8872074" lat="46.8302203" lon="12.8114093"/>
  <node id="340519473" version="3" timestamp="2009-03-15T06:48:03Z" uid="58091" user="Andreas M" changeset="810969" lat="48.1378307" lon="16.4935283">
    <tag k="addr:city" v="Schwechat"/>
    <tag k="addr:country" v="AT"/>
    <tag k="addr:housenumber" v="1"/>
    <tag k="addr:postcode" v="2320"/>
    <tag k="addr:street" v="Am Concorde Park"/>
    <tag k="amenity" v="post_office"/>
    <tag k="name" v="2320 Concorde Park"/>
    <tag k="note" v="position along the right street"/>
    <tag k="postal_code" v="2320"/>
    <tag k="ref" v="2320"/>
    <tag k="type" v="Post-Servicestelle"/>
  </node>
  <node id="340519615" version="3" timestamp="2009-08-26T18:52:11Z" uid="43967" user="railsnail" changeset="2270760" lat="46.6256321" lon="13.3711015">
    <tag k="addr:city" v="Hermagor"/>
    <tag k="addr:country" v="AT"/>
    <tag k="addr:housenumber" v="5"/>
    <tag k="addr:postcode" v="9620"/>
    <tag k="addr:street" v="Bahnhofstraße"/>
    <tag k="amenity" v="post_office"/>
    <tag k="name" v="Hermagor"/>
    <tag k="note" v="position along the right street"/>
    <tag k="postal_code" v="9620"/>
    <tag k="ref" v="9620"/>
    <tag k="type" v="Postfiliale"/>
  </node>
  <node id="340519615" version="4" timestamp="2009-11-12T17:38:05Z" uid="33981" user="romanm" changeset="3099933" lat="46.6256321" lon="13.3711015">
    <tag k="addr:city" v="Hermagor"/>
    <tag k="addr:country" v="AT"/>
    <tag k="addr:housenumber" v="5"/>
    <tag k="addr:postcode" v="9620"/>
    <tag k="addr:street" v="Bahnhofstraße"/>
    <tag k="amenity" v="post_office"/>
    <tag k="name" v="Hermagor"/>
    <tag k="name:sl" v="Šmohor"/>
    <tag k="note" v="position along the right street"/>
    <tag k="postal_code" v="9620"/>
    <tag k="ref" v="9620"/>
    <tag k="type" v="Postfiliale"/>
  </node>
  <node id="340519716" version="4" timestamp="2010-01-03T18:02:39Z" uid="6975" user="ulfl" changeset="3530905" lat="49.4596241" lon="11.0352878">
    <tag k="addr:city" v="Nürnberg"/>
    <tag k="addr:housenumber" v="212"/>
    <tag k="addr:postcode" v="90429"/>
    <tag k="addr:street" v="Fürther Straße"/>
    <tag k="leisure" v="sports_centre"/>
    <tag k="name" v="climbing_factory"/>
    <tag k="operator" v="Kletterschule Frankenjura"/>
    <tag k="sport" v="climbing"/>
    <tag k="url" v="http://www.climbing-factory.de/"/>
    <tag k="website" v="http://www.climbing-factory.de/"/>
  </node>
  <node id="340519716" version="5" timestamp="2011-12-03T22:56:47Z" uid="71557" user="Taroc" changeset="10029123" lat="49.4596241" lon="11.0352878"/>
  <node id="340515317" version="7" timestamp="2012-08-05T14:42:51Z" uid="674010" user="pd007" changeset="12621279" lat="48.2261567" lon="16.4229754">
    <tag k="addr:city" v="Wien"/>
    <tag k="addr:country" v="AT"/>
    <tag k="addr:housenumber" v="14"/>
    <tag k="addr:postcode" v="1220"/>
    <tag k="addr:street" v="Moissigasse"/>
    <tag k="amenity" v="post_office"/>
    <tag k="name" v="1223 Wien-Kaisermühlen"/>
    <tag k="note" v="position should be checked"/>
    <tag k="postal_code" v="1223"/>
    <tag k="ref" v="1223"/>
    <tag k="type" v="Postfiliale"/>
  </node>
  <node id="340517218" version="4" timestamp="2012-07-16T14:11:12Z" uid="722137" user="OSMF Redaction Account" changeset="12245698" lat="46.8870481" lon="13.0349094">
    <tag k="addr:city" v="Stall im Mölltal"/>
    <tag k="addr:housenumber" v="6"/>
    <tag k="addr:postcode" v="9832"/>
    <tag k="amenity" v="post_office"/>
    <tag k="name" v="9832 Stall im Mölltal"/>
    <tag k="note" v="position along the right street"/>
    <tag k="postal_code" v="9832"/>
    <tag k="ref" v="9832"/>
    <tag k="type" v="Postfiliale"/>
  </node>
  <node id="340519080" version="5" timestamp="2012-04-26T20:39:04Z" uid="328555" user="peb12345" changeset="11427907" lat="47.0694482" lon="10.843912">
    <tag k="addr:city" v="St. Leonhard im Pitztal"/>
    <tag k="addr:housenumber" v="119"/>
    <tag k="addr:postcode" v="6481"/>
    <tag k="addr:street" v="Eggenstall"/>
    <tag k="amenity" v="post_office"/>
    <tag k="postal_code" v="6481"/>
    <tag k="ref" v="6481"/>
  </node>
  <node id="340519473" version="4" timestamp="2012-07-16T23:20:05Z" uid="722137" user="OSMF Redaction Account" changeset="12253316" lat="48.1369264" lon="16.4977676">
    <tag k="addr:city" v="Schwechat"/>
    <tag k="addr:country" v="AT"/>
    <tag k="addr:housenumber" v="1"/>
    <tag k="addr:postcode" v="2320"/>
    <tag k="addr:street" v="Am Concorde Park"/>
    <tag k="amenity" v="post_office"/>
    <tag k="name" v="2320 Concorde Park"/>
    <tag k="note" v="position along the right street"/>
    <tag k="postal_code" v="2320"/>
    <tag k="ref" v="2320"/>
    <tag k="type" v="Post-Servicestelle"/>
  </node>
  <node id="340519473" version="5" timestamp="2012-08-26T16:56:18Z" uid="579739" user="grimnirson" changeset="12868947" lat="48.1374347" lon="16.4947827">
    <tag k="addr:city" v="Schwechat"/>
    <tag k="addr:country" v="AT"/>
    <tag k="addr:housenumber" v="1"/>
    <tag k="addr:postcode" v="2320"/>
    <tag k="addr:street" v="Am Concorde Park"/>
    <tag k="amenity" v="post_office"/>
    <tag k="name" v="2320 Concorde Park"/>
    <tag k="note" v="position along the right street"/>
    <tag k="postal_code" v="2320"/>
    <tag k="ref" v="2320"/>
    <tag k="type" v="Post-Servicestelle"/>
  </node>
  <node id="340519615" version="5" timestamp="2012-07-16T13:41:32Z" uid="722137" user="OSMF Redaction Account" changeset="12245257" lat="46.62563" lon="13.371107">
    <tag k="addr:city" v="Hermagor"/>
    <tag k="addr:country" v="AT"/>
    <tag k="addr:housenumber" v="5"/>
    <tag k="addr:postcode" v="9620"/>
    <tag k="addr:street" v="Bahnhofstraße"/>
    <tag k="amenity" v="post_office"/>
    <tag k="name" v="9620 Hermagor"/>
    <tag k="name:sl" v="Šmohor"/>
    <tag k="note" v="position along the right street"/>
    <tag k="postal_code" v="9620"/>
    <tag k="ref" v="9620"/>
    <tag k="type" v="Postfiliale"/>
  </node>
</osm>
