<?xml version='1.0' encoding='UTF-8'?>
<osm version="0.6" generator="libosmium/2.20.0">
  <node id="341220389" version="1" timestamp="2009-02-05T17:38:58Z" uid="67142" user="zottel" changeset="160108" lat="48.8775022" lon="8.6300641"/>
  <node id="341220392" version="1" timestamp="2009-02-05T17:38:58Z" uid="67142" user="zottel" changeset="160108" lat="48.8775084" lon="8.6297821"/>
  <node id="341220395" version="1" timestamp="2009-02-05T17:38:58Z" uid="67142" user="zottel" changeset="160108" lat="48.8794038" lon="8.6270677">
    <tag k="amenity" v="restaurant"/>
    <tag k="cuisine" v="regional"/>
    <tag k="name" v="Schönblick"/>
  </node>
  <node id="341220395" version="2" timestamp="2010-11-07T18:51:36Z" uid="179581" user="Geofreund1" changeset="6314639" lat="48.8794038" lon="8.6270676">
    <tag k="addr:city" v="Birkenfeld"/>
    <tag k="addr:country" v="DE"/>
    <tag k="addr:housenumber" v="5"/>
    <tag k="addr:postcode" v="75217"/>
    <tag k="addr:street" v="Schönblickweg"/>
    <tag k="amenity" v="restaurant"/>
    <tag k="cuisine" v="regional"/>
    <tag k="name" v="Schönblick"/>
    <tag k="phone" v="+49 7231 48 18 88"/>
    <tag k="website" v="www.hotelschoenblick.de"/>
  </node>
  <node id="341220395" version="3" timestamp="2011-07-13T19:22:50Z" uid="290680" user="wheelmap_visitor" changeset="8715162" lat="48.8794038" lon="8.6270676">
    <tag k="addr:city" v="Birkenfeld"/>
    <tag k="addr:country" v="DE"/>
    <tag k="addr:housenumber" v="5"/>
    <tag k="addr:postcode" v="75217"/>
    <tag k="addr:street" v="Schönblickweg"/>
    <tag k="amenity" v="restaurant"/>
    <tag k="cuisine" v="regional"/>
    <tag k="name" v="Schönblick"/>
    <tag k="phone" v="+49 7231 48 18 88"/>
    <tag k="website" v="www.hotelschoenblick.de"/>
    <tag k="wheelchair" v="no"/>
  </node>
  <node id="341220395" version="4" timestamp="2011-11-20T10:15:33Z" uid="66200" user="seggel" changeset="9881966" lat="48.8794067" lon="8.6268881">
    <tag k="addr:city" v="Birkenfeld"/>
    <tag k="addr:country" v="DE"/>
    <tag k="addr:housenumber" v="5"/>
    <tag k="addr:postcode" v="75217"/>
    <tag k="addr:street" v="Schönblickweg"/>
    <tag k="amenity" v="restaurant"/>
    <tag k="cuisine" v="regional"/>
    <tag k="name" v="Schönblick"/>
    <tag k="phone" v="+49 7231 48 18 88"/>
    <tag k="website" v="www.hotelschoenblick.de"/>
    <tag k="wheelchair" v="no"/>
  </node>
  <node id="341220399" version="1" timestamp="2009-02-05T17:38:58Z" uid="67142" user="zottel" changeset="160108" lat="48.8788812" lon="8.6255">
    <tag k="name" v="Umspannstation Birkenfeld Spechtweg"/>
    <tag k="operator" v="EnBw Regional AG"/>
    <tag k="power" v="sub_station"/>
  </node>
  <node id="341220402" version="1" timestamp="2009-02-05T17:38:59Z" uid="67142" user="zottel" changeset="160108" lat="48.8777299" lon="8.6205727"/>
  <node id="341220402" version="2" timestamp="2010-12-26T09:07:02Z" uid="77204" user="aps" changeset="6766061" lat="48.8775665" lon="8.6208627"/>
  <node id="341220405" version="1" timestamp="2009-02-05T17:38:59Z" uid="67142" user="zottel" changeset="160108" lat="48.8773131" lon="8.6200334"/>
  <node id="341220405" version="2" timestamp="2010-12-26T09:07:02Z" uid="77204" user="aps" changeset="6766061" lat="48.8772926" lon="8.6201622"/>
  <node id="341220408" version="1" timestamp="2009-02-05T17:38:59Z" uid="67142" user="zottel" changeset="160108" lat="48.8768926" lon="8.6230023"/>
  <node id="341220408" version="2" timestamp="2009-07-15T21:34:43Z" uid="64482" user="Claas Augner" changeset="1840595" lat="48.8768819" lon="8.6232138"/>
  <node id="341220411" version="1" timestamp="2009-02-05T17:38:59Z" uid="67142" user="zottel" changeset="160108" lat="48.8776119" lon="8.6211">
    <tag k="amenity" v="bench"/>
  </node>
  <node id="341220414" version="1" timestamp="2009-02-05T17:39:00Z" uid="67142" user="zottel" changeset="160108" lat="48.8756694" lon="8.6260775">
    <tag k="addr:housenumber" v="24"/>
    <tag k="name" v="Salon Konny"/>
    <tag k="shop" v="hairdresser"/>
  </node>
  <node id="341220418" version="1" timestamp="2009-02-05T17:39:00Z" uid="67142" user="zottel" changeset="160108" lat="48.8774454" lon="8.6263446"/>
  <node id="341220421" version="1" timestamp="2009-02-05T17:39:00Z" uid="67142" user="zottel" changeset="160108" lat="48.8775078" lon="8.626286"/>
  <node id="341220424" version="1" timestamp="2009-02-05T17:39:00Z" uid="67142" user="zottel" changeset="160108" lat="48.8775454" lon="8.6262176"/>
  <node id="341220428" version="1" timestamp="2009-02-05T17:39:01Z" uid="67142" user="zottel" changeset="160108" lat="48.8775775" lon="8.6258577"/>
  <node id="341220431" version="1" timestamp="2009-02-05T17:39:01Z" uid="67142" user="zottel" changeset="160108" lat="48.8775766" lon="8.6260223"/>
  <node id="341220434" version="1" timestamp="2009-02-05T17:39:01Z" uid="67142" user="zottel" changeset="160108" lat="48.8778851" lon="8.6253833"/>
  <node id="341220434" version="2" timestamp="2009-02-05T22:43:08Z" uid="67142" user="zottel" changeset="172932" lat="48.8779056" lon="8.6255167"/>
  <node id="341220438" version="1" timestamp="2009-02-05T17:39:01Z" uid="67142" user="zottel" changeset="160108" lat="48.8787515" lon="8.6254394"/>
  <node id="341220445" version="1" timestamp="2009-02-05T17:39:02Z" uid="67142" user="zottel" changeset="160108" lat="48.8785698" lon="8.6253553"/>
  <node id="341220448" version="1" timestamp="2009-02-05T17:39:02Z" uid="67142" user="zottel" changeset="160108" lat="48.8783704" lon="8.6286576">
    <tag k="amenity" v="post_box"/>
    <tag k="collection_times" v="Mo-Fr 15:45;Sa 11:30"/>
    <tag k="operator" v="Deutsche Post"/>
  </node>
  <node id="341220448" version="3" timestamp="2009-10-26T09:01:43Z" uid="31231" user="Andre68" changeset="2954190" lat="48.8783704" lon="8.6286576">
    <tag k="addr:city" v="Birkenfeld"/>
    <tag k="addr:country" v="DE"/>
    <tag k="addr:housenumber" v="1"/>
    <tag k="addr:postcode" v="75217"/>
    <tag k="addr:street" v="Berliner Straße"/>
    <tag k="amenity" v="post_box"/>
    <tag k="collection_times" v="Mo-Fr 15:45; Sa 11:30"/>
    <tag k="note" v="Berliner Straße 1/Fleckenäckerweg"/>
    <tag k="operator" v="Deutsche Post"/>
  </node>
  <node id="341220448" version="4" timestamp="2012-03-01T03:37:52Z" uid="210173" user="osmmaker" changeset="10834275" lat="48.8783704" lon="8.6286576">
    <tag k="addr:city" v="Birkenfeld"/>
    <tag k="addr:country" v="DE"/>
    <tag k="addr:housenumber" v="1"/>
    <tag k="addr:postcode" v="75217"/>
    <tag k="addr:street" v="Berliner Straße"/>
    <tag k="amenity" v="post_box"/>
    <tag k="collection_times" v="Mo-Fr 15:45; Sa 11:30"/>
    <tag k="note" v="Berliner Straße 1/Fleckenäckerweg"/>
    <tag k="operator" v="Deutsche Post"/>
    <tag k="ref:Deutsche_Post" v="FIXME"/>
  </node>
  <node id="341220448" version="5" timestamp="2012-03-03T21:59:30Z" uid="147510" user="woodpeck_fixbot" changeset="10861079" lat="48.8783704" lon="8.6286576">
    <tag k="addr:city" v="Birkenfeld"/>
    <tag k="addr:country" v="DE"/>
    <tag k="addr:housenumber" v="1"/>
    <tag k="addr:postcode" v="75217"/>
    <tag k="addr:street" v="Berliner Straße"/>
    <tag k="amenity" v="post_box"/>
    <tag k="collection_times" v="Mo-Fr 15:45; Sa 11:30"/>
    <tag k="note" v="Berliner Straße 1/Fleckenäckerweg"/>
    <tag k="operator" v="Deutsche Post"/>
  </node>
  <node id="341220451" version="1" timestamp="2009-02-05T17:39:02Z" uid="67142" user="zottel" changeset="160108" lat="48.878242" lon="8.6298943"/>
  <node id="341220454" version="1" timestamp="2009-02-05T17:39:03Z" uid="67142" user="zottel" changeset="160108" lat="48.8758607" lon="8.649429">
    <tag k="name" v="Gülichstraße"/>
    <tag k="operator" v="Stadtwerke Pforzheim"/>
    <tag k="power" v="sub_station"/>
    <tag k="ref" v="239"/>
  </node>
  <node id="341220389" version="2" timestamp="2012-07-19T16:01:23Z" uid="722137" user="OSMF Redaction Account" changeset="12337320" lat="48.8775022" lon="8.6300641"/>
  <node id="341220392" version="2" timestamp="2012-07-19T16:01:23Z" uid="722137" user="OSMF Redaction Account" changeset="12337320" lat="48.8775084" lon="8.6297821"/>
  <node id="341220395" version="5" timestamp="2012-07-19T16:01:15Z" uid="722137" user="OSMF Redaction Account" changeset="12337320" lat="48.8794067" lon="8.6268881">
    <tag k="addr:city" v="Birkenfeld"/>
    <tag k="addr:country" v="DE"/>
    <tag k="addr:housenumber" v="5"/>
    <tag k="addr:postcode" v="75217"/>
    <tag k="addr:street" v="Schönblickweg"/>
    <tag k="phone" v="+49 7231 48 18 88"/>
    <tag k="website" v="www.hotelschoenblick.de"/>
    <tag k="wheelchair" v="no"/>
  </node>
  <node id="341220399" version="2" timestamp="2012-07-19T16:01:25Z" uid="722137" user="OSMF Redaction Account" changeset="12337320" lat="48.8788812" lon="8.6255"/>
  <node id="341220411" version="2" timestamp="2012-07-19T16:25:36Z" uid="722137" user="OSMF Redaction Account" changeset="12339047" lat="48.8776119" lon="8.6211"/>
  <node id="341220414" version="2" timestamp="2012-07-19T16:01:22Z" uid="722137" user="OSMF Redaction Account" changeset="12337320" lat="48.8756694" lon="8.6260775"/>
  <node id="341220418" version="2" timestamp="2012-07-19T16:01:23Z" uid="722137" user="OSMF Redaction Account" changeset="12337320" lat="48.8774454" lon="8.6263446"/>
  <node id="341220421" version="2" timestamp="2012-07-19T16:01:23Z" uid="722137" user="OSMF Redaction Account" changeset="12337320" lat="48.8775078" lon="8.626286"/>
  <node id="341220424" version="2" timestamp="2012-07-19T16:01:23Z" uid="722137" user="OSMF Redaction Account" changeset="12337320" lat="48.8775454" lon="8.6262176"/>
  <node id="341220428" version="2" timestamp="2012-07-19T16:01:23Z" uid="722137" user="OSMF Redaction Account" changeset="12337320" lat="48.8775775" lon="8.6258577"/>
  <node id="341220431" version="2" timestamp="2012-07-19T16:01:23Z" uid="722137" user="OSMF Redaction Account" changeset="12337320" lat="48.8775766" lon="8.6260223"/>
  <node id="341220434" version="3" timestamp="2012-07-19T16:01:24Z" uid="722137" user="OSMF Redaction Account" changeset="12337320" lat="48.8779056" lon="8.6255167"/>
  <node id="341220438" version="2" timestamp="2012-07-19T16:01:25Z" uid="722137" user="OSMF Redaction Account" changeset="12337320" lat="48.8787515" lon="8.6254394"/>
  <node id="341220445" version="2" timestamp="2012-07-19T16:01:24Z" uid="722137" user="OSMF Redaction Account" changeset="12337320" lat="48.8785698" lon="8.6253553"/>
  <node id="341220448" version="6" timestamp="2012-07-19T16:01:24Z" uid="722137" user="OSMF Redaction Account" changeset="12337320" lat="48.8783704" lon="8.6286576"/>
  <node id="341220451" version="2" timestamp="2012-07-19T16:01:24Z" uid="722137" user="OSMF Redaction Account" changeset="12337320" lat="48.878242" lon="8.6298943"/>
  <node id="341220454" version="2" timestamp="2012-07-19T16:01:22Z" uid="722137" user="OSMF Redaction Account" changeset="12337320" lat="48.8758607" lon="8.649429"/>
</osm>
