<?xml version='1.0' encoding='UTF-8'?>
<osm version="0.6" generator="libosmium/2.20.0">
  <node id="347602838" version="4" timestamp="2009-10-19T23:43:03Z" uid="36809" user="pfoten_weg_!_" changeset="2899059" lat="47.7004857" lon="11.7659108"/>
  <node id="347602838" version="5" timestamp="2011-04-10T22:48:46Z" uid="418282" user="Norbert18" changeset="7828474" lat="47.7004857" lon="11.7659108"/>
  <node id="347602842" version="6" timestamp="2009-10-19T23:42:53Z" uid="36809" user="pfoten_weg_!_" changeset="2899059" lat="47.7013738" lon="11.7625297"/>
  <node id="347602842" version="7" timestamp="2010-07-19T16:42:11Z" uid="81244" user="rurseekatze" changeset="5262809" lat="47.7013738" lon="11.7625297"/>
  <node id="347602843" version="4" timestamp="2009-10-19T23:42:49Z" uid="36809" user="pfoten_weg_!_" changeset="2899059" lat="47.7018596" lon="11.761519"/>
  <node id="347602843" version="5" timestamp="2011-03-11T22:14:07Z" uid="418282" user="Norbert18" changeset="7528107" lat="47.7018596" lon="11.761519"/>
  <node id="347602845" version="5" timestamp="2009-10-19T23:45:08Z" uid="36809" user="pfoten_weg_!_" changeset="2899059" lat="47.6969275" lon="11.7726519"/>
  <node id="347602850" version="3" timestamp="2009-10-19T23:45:04Z" uid="36809" user="pfoten_weg_!_" changeset="2899059" lat="47.6953829" lon="11.7732878"/>
  <node id="347602850" version="4" timestamp="2011-04-10T22:48:37Z" uid="418282" user="Norbert18" changeset="7828474" lat="47.6953906" lon="11.7732801"/>
  <node id="347602850" version="5" timestamp="2011-04-23T15:16:05Z" uid="418282" user="Norbert18" changeset="7944342" lat="47.6954002" lon="11.7732445"/>
  <node id="347602850" version="6" timestamp="2011-04-24T00:01:37Z" uid="418282" user="Norbert18" changeset="7948586" lat="47.6954026" lon="11.7732726"/>
  <node id="347602853" version="4" timestamp="2009-10-19T23:43:48Z" uid="36809" user="pfoten_weg_!_" changeset="2899059" lat="47.6932713" lon="11.770722"/>
  <node id="347602853" version="5" timestamp="2011-04-26T21:01:08Z" uid="418282" user="Norbert18" changeset="7979748" lat="47.6932713" lon="11.770722"/>
  <node id="347602855" version="3" timestamp="2009-10-19T23:38:33Z" uid="36809" user="pfoten_weg_!_" changeset="2899059" lat="47.68919" lon="11.7689885">
    <tag k="amenity" v="fuel"/>
    <tag k="name" v="OMV"/>
  </node>
  <node id="347602855" version="4" timestamp="2009-10-20T15:13:41Z" uid="65019" user="Kaefer84" changeset="2904122" lat="47.68919" lon="11.7689885">
    <tag k="amenity" v="fuel"/>
    <tag k="fuel:diesel" v="yes"/>
    <tag k="fuel:octane_91" v="yes"/>
    <tag k="fuel:octane_95" v="yes"/>
    <tag k="fuel:octane_98" v="yes"/>
    <tag k="name" v="OMV"/>
    <tag k="vacuum_cleaner" v="yes"/>
  </node>
  <node id="347602855" version="5" timestamp="2010-07-19T16:52:44Z" uid="81244" user="rurseekatze" changeset="5262904" lat="47.68919" lon="11.7689885">
    <tag k="amenity" v="fuel"/>
    <tag k="brand" v="OMV"/>
    <tag k="fuel:diesel" v="yes"/>
    <tag k="fuel:octane_91" v="yes"/>
    <tag k="fuel:octane_95" v="yes"/>
    <tag k="fuel:octane_98" v="yes"/>
    <tag k="name" v="OMV"/>
    <tag k="vacuum_cleaner" v="yes"/>
  </node>
  <node id="347602858" version="3" timestamp="2009-10-19T23:38:29Z" uid="36809" user="pfoten_weg_!_" changeset="2899059" lat="47.6891415" lon="11.7671913">
    <tag k="amenity" v="fuel"/>
    <tag k="name" v="Esso"/>
  </node>
  <node id="347602858" version="4" timestamp="2009-10-20T15:13:41Z" uid="65019" user="Kaefer84" changeset="2904122" lat="47.6891415" lon="11.7671913">
    <tag k="amenity" v="fuel"/>
    <tag k="fuel:diesel" v="yes"/>
    <tag k="fuel:octane_91" v="yes"/>
    <tag k="fuel:octane_95" v="yes"/>
    <tag k="fuel:octane_98" v="yes"/>
    <tag k="name" v="Esso"/>
    <tag k="service" v="carwash"/>
  </node>
  <node id="347602858" version="5" timestamp="2010-07-19T16:56:26Z" uid="81244" user="rurseekatze" changeset="5262939" lat="47.6891415" lon="11.7671913">
    <tag k="amenity" v="fuel"/>
    <tag k="brand" v="Esso"/>
    <tag k="car_repair" v="yes"/>
    <tag k="fuel:diesel" v="yes"/>
    <tag k="fuel:octane_91" v="yes"/>
    <tag k="fuel:octane_95" v="yes"/>
    <tag k="fuel:octane_98" v="yes"/>
    <tag k="name" v="Esso"/>
    <tag k="service" v="carwash"/>
  </node>
  <node id="347605959" version="4" timestamp="2009-03-15T20:11:32Z" uid="58091" user="Andreas M" changeset="815744" lat="48.1851973" lon="16.3543048">
    <tag k="addr:city" v="Wien"/>
    <tag k="addr:country" v="AT"/>
    <tag k="addr:housenumber" v="23"/>
    <tag k="addr:postcode" v="1050"/>
    <tag k="addr:street" v="Reinprechtsdorfer Straße"/>
    <tag k="created_by" v="xybot"/>
  </node>
  <node id="347605959" version="5" timestamp="2011-01-08T14:33:33Z" uid="38178" user="klausewitz" changeset="6904360" lat="48.1851973" lon="16.3543048">
    <tag k="addr:city" v="Wien"/>
    <tag k="addr:country" v="AT"/>
    <tag k="addr:housenumber" v="23"/>
    <tag k="addr:postcode" v="1050"/>
    <tag k="addr:street" v="Reinprechtsdorfer Straße"/>
    <tag k="created_by" v="xybot"/>
  </node>
  <node id="347606568" version="2" timestamp="2009-09-30T13:36:57Z" uid="36809" user="pfoten_weg_!_" changeset="2688655" lat="48.2151511" lon="11.2594183">
    <tag k="leisure" v="playground"/>
  </node>
  <node id="347606568" version="3" timestamp="2009-11-01T15:16:41Z" uid="94149" user="markusri" changeset="3007294" lat="48.215127" lon="11.2594564">
    <tag k="leisure" v="playground"/>
  </node>
  <node id="347607079" version="3" timestamp="2009-09-30T13:37:00Z" uid="36809" user="pfoten_weg_!_" changeset="2688655" lat="48.2164551" lon="11.2634438">
    <tag k="amenity" v="biergarten"/>
    <tag k="name" v="FIXME"/>
  </node>
  <node id="347607079" version="4" timestamp="2009-11-01T15:19:34Z" uid="94149" user="markusri" changeset="3007294" lat="48.2164024" lon="11.2634304">
    <tag k="amenity" v="biergarten"/>
    <tag k="name" v="FIXME"/>
  </node>
  <node id="347607079" version="5" timestamp="2010-01-02T17:27:14Z" uid="125808" user="oeeea" changeset="3520571" lat="48.2164024" lon="11.2634303">
    <tag k="amenity" v="biergarten"/>
  </node>
  <node id="347608581" version="4" timestamp="2009-09-30T13:36:57Z" uid="36809" user="pfoten_weg_!_" changeset="2688655" lat="48.2160152" lon="11.2593162">
    <tag k="name" v="Wimmer"/>
    <tag k="shop" v="bakery"/>
  </node>
  <node id="347608581" version="5" timestamp="2009-11-01T15:16:53Z" uid="94149" user="markusri" changeset="3007294" lat="48.2159906" lon="11.2593534">
    <tag k="name" v="Wimmer"/>
    <tag k="shop" v="bakery"/>
  </node>
  <node id="347608581" version="6" timestamp="2009-11-01T15:16:56Z" uid="94149" user="markusri" changeset="3007294" lat="48.2160192" lon="11.2593363">
    <tag k="name" v="Wimmer"/>
    <tag k="shop" v="bakery"/>
  </node>
  <node id="347608581" version="7" timestamp="2010-04-08T21:54:07Z" uid="7596" user="ck3d" changeset="4368454" lat="48.2160192" lon="11.2593363">
    <tag k="addr:city" v="Maisach"/>
    <tag k="addr:country" v="DE"/>
    <tag k="addr:housenumber" v="7"/>
    <tag k="addr:postcode" v="82216"/>
    <tag k="addr:street" v="Bahnhofstraße"/>
    <tag k="name" v="Wimmer"/>
    <tag k="shop" v="bakery"/>
    <tag k="website" v="http://www.max-wimmer.de/"/>
  </node>
  <node id="347608581" version="8" timestamp="2011-02-05T13:21:10Z" uid="7596" user="ck3d" changeset="7192302" lat="48.2160192" lon="11.2593363">
    <tag k="addr:city" v="Maisach"/>
    <tag k="addr:country" v="DE"/>
    <tag k="addr:housenumber" v="7"/>
    <tag k="addr:postcode" v="82216"/>
    <tag k="addr:street" v="Bahnhofstraße"/>
    <tag k="name" v="Wimmer"/>
    <tag k="operator" v="Max Wimmer"/>
    <tag k="shop" v="bakery"/>
    <tag k="website" v="http://www.max-wimmer.de/"/>
  </node>
  <node id="347608581" version="9" timestamp="2011-10-14T17:11:19Z" uid="290680" user="wheelmap_visitor" changeset="9552229" lat="48.2160192" lon="11.2593363">
    <tag k="addr:city" v="Maisach"/>
    <tag k="addr:country" v="DE"/>
    <tag k="addr:housenumber" v="7"/>
    <tag k="addr:postcode" v="82216"/>
    <tag k="addr:street" v="Bahnhofstraße"/>
    <tag k="name" v="Wimmer"/>
    <tag k="operator" v="Max Wimmer"/>
    <tag k="shop" v="bakery"/>
    <tag k="website" v="http://www.max-wimmer.de/"/>
    <tag k="wheelchair" v="no"/>
  </node>
  <node id="347608785" version="2" timestamp="2009-09-30T13:36:59Z" uid="36809" user="pfoten_weg_!_" changeset="2688655" lat="48.2173701" lon="11.2597788">
    <tag k="shop" v="bakery"/>
  </node>
  <node id="347608785" version="3" timestamp="2009-11-01T15:18:30Z" uid="94149" user="markusri" changeset="3007294" lat="48.2174032" lon="11.2597826">
    <tag k="shop" v="bakery"/>
  </node>
  <node id="347608785" version="4" timestamp="2011-10-14T17:11:40Z" uid="290680" user="wheelmap_visitor" changeset="9552229" lat="48.2174032" lon="11.2597826">
    <tag k="shop" v="bakery"/>
    <tag k="wheelchair" v="yes"/>
  </node>
</osm>
