<?xml version='1.0' encoding='UTF-8'?>
<osm version="0.6" generator="libosmium/2.20.0">
  <node id="348973460" version="6" timestamp="2010-06-05T16:25:13Z" uid="171838" user="argrath" changeset="4910193" lat="35.6319557" lon="139.633069">
    <tag k="bus_line:ja" v="園02 田園調布駅;等12 等々力;用01 用賀駅;用06 用賀駅"/>
    <tag k="ele" v="50.133"/>
    <tag k="highway" v="bus_stop"/>
    <tag k="name" v="上用賀三丁目 (Kamiyoga Sanchome)"/>
    <tag k="name:en" v="Kamiyoga Sanchome"/>
    <tag k="name:ja" v="上用賀三丁目"/>
    <tag k="operator" v="東急バス (Tokyu Bus)"/>
    <tag k="operator:en" v="Tokyu Bus"/>
    <tag k="operator:ja" v="東急バス"/>
  </node>
  <node id="348979740" version="7" timestamp="2010-06-05T16:25:12Z" uid="171838" user="argrath" changeset="4910193" lat="35.6332742" lon="139.632314">
    <tag k="bus_line:ja" v="用01 祖師ケ谷大蔵駅;園02 世田谷区民会館;等12 成城学園前;用01 成城学園前"/>
    <tag k="ele" v="56.424"/>
    <tag k="highway" v="bus_stop"/>
    <tag k="name" v="駒大高校前 (Komadai High School)"/>
    <tag k="name:en" v="Komadai High School"/>
    <tag k="name:ja" v="駒大高校前"/>
    <tag k="operator" v="東急バス (Tokyu Bus)"/>
    <tag k="operator:en" v="Tokyu Bus"/>
    <tag k="operator:ja" v="東急バス"/>
  </node>
  <node id="348973460" version="7" timestamp="2012-07-21T18:02:08Z" uid="722137" user="OSMF Redaction Account" changeset="12416699" lat="35.6319557" lon="139.6330692">
    <tag k="ele" v="50.133"/>
    <tag k="highway" v="bus_stop"/>
    <tag k="name" v="上用賀三丁目 (Kamiyoga Sanchome)"/>
    <tag k="name:en" v="Kamiyoga Sanchome"/>
    <tag k="name:ja" v="上用賀三丁目"/>
    <tag k="operator" v="東急バス (Tokyu Bus)"/>
    <tag k="operator:en" v="Tokyu Bus"/>
    <tag k="operator:ja" v="東急バス"/>
  </node>
  <node id="348979740" version="8" timestamp="2012-07-21T18:02:09Z" uid="722137" user="OSMF Redaction Account" changeset="12416699" lat="35.6332742" lon="139.6323139">
    <tag k="ele" v="56.424"/>
    <tag k="highway" v="bus_stop"/>
    <tag k="name" v="駒大高校前 (Komadai High School)"/>
    <tag k="name:en" v="Komadai High School"/>
    <tag k="name:ja" v="駒大高校前"/>
    <tag k="operator" v="東急バス (Tokyu Bus)"/>
    <tag k="operator:en" v="Tokyu Bus"/>
    <tag k="operator:ja" v="東急バス"/>
  </node>
</osm>
