<?xml version='1.0' encoding='UTF-8'?>
<osm version="0.6" generator="libosmium/2.20.0">
  <node id="349050054" version="3" timestamp="2009-04-12T13:47:34Z" uid="58091" user="Andreas M" changeset="438204" lat="48.1799679" lon="16.5350654"/>
  <node id="349050054" version="4" timestamp="2010-08-29T09:40:39Z" uid="78656" user="Walter Schlögl" changeset="5623572" lat="48.1798904" lon="16.5351143"/>
  <node id="349052811" version="3" timestamp="2010-04-27T02:19:28Z" uid="74617" user="JohnSmith" changeset="4537635" lat="-36.759605" lon="144.2705036"/>
  <node id="349052816" version="3" timestamp="2010-04-27T02:19:32Z" uid="74617" user="JohnSmith" changeset="4537635" lat="-36.760122" lon="144.269502">
    <tag k="highway" v="turning_circle"/>
  </node>
  <node id="349052821" version="3" timestamp="2010-04-27T02:19:23Z" uid="74617" user="JohnSmith" changeset="4537635" lat="-36.7603174" lon="144.2693004"/>
  <node id="349053881" version="2" timestamp="2009-08-18T19:16:43Z" uid="33382" user="de_muur" changeset="2194083" lat="53.7068746" lon="10.7710133"/>
  <node id="349055232" version="5" timestamp="2009-05-01T13:12:37Z" uid="20587" user="balrog-kun" changeset="1036297" lat="52.0675069" lon="20.6143351">
    <tag k="is_in" v="gmina Grodzisk Mazowiecki, powiat grodziski, województwo mazowieckie, Poland"/>
    <tag k="is_in:country" v="Poland"/>
    <tag k="is_in:county" v="powiat grodziski"/>
    <tag k="is_in:municipality" v="gmina Grodzisk Mazowiecki"/>
    <tag k="is_in:province" v="województwo mazowieckie"/>
    <tag k="name" v="Mościska"/>
    <tag k="place" v="village"/>
    <tag k="teryt:rm" v="01"/>
    <tag k="teryt:simc" v="0002364"/>
    <tag k="teryt:stan_na" v="2009-01-01"/>
    <tag k="teryt:terc" v="1405045"/>
    <tag k="teryt:updated_by" v="teryt2osm combine.py v. 43"/>
    <tag k="wikipedia" v="pl:Mościska (powiat grodziski)"/>
  </node>
  <node id="349055232" version="6" timestamp="2009-10-28T16:24:32Z" uid="20587" user="balrog-kun" changeset="2974473" lat="52.0661098" lon="20.6146066">
    <tag k="is_in" v="gmina Grodzisk Mazowiecki, powiat grodziski, województwo mazowieckie, Poland"/>
    <tag k="is_in:country" v="Poland"/>
    <tag k="is_in:county" v="powiat grodziski"/>
    <tag k="is_in:municipality" v="gmina Grodzisk Mazowiecki"/>
    <tag k="is_in:province" v="województwo mazowieckie"/>
    <tag k="name" v="Mościska"/>
    <tag k="place" v="village"/>
    <tag k="teryt:rm" v="01"/>
    <tag k="teryt:simc" v="0002364"/>
    <tag k="teryt:stan_na" v="2009-01-01"/>
    <tag k="teryt:terc" v="1405045"/>
    <tag k="teryt:updated_by" v="teryt2osm combine.py v. 43"/>
    <tag k="wikipedia" v="pl:Mościska (powiat grodziski)"/>
  </node>
  <node id="349055232" version="7" timestamp="2010-04-11T04:39:35Z" uid="20587" user="balrog-kun" changeset="4389130" lat="52.0651319" lon="20.6147966">
    <tag k="is_in" v="gmina Grodzisk Mazowiecki, powiat grodziski, województwo mazowieckie, Poland"/>
    <tag k="is_in:country" v="Poland"/>
    <tag k="is_in:county" v="powiat grodziski"/>
    <tag k="is_in:municipality" v="gmina Grodzisk Mazowiecki"/>
    <tag k="is_in:province" v="województwo mazowieckie"/>
    <tag k="name" v="Mościska"/>
    <tag k="place" v="village"/>
    <tag k="teryt:rm" v="01"/>
    <tag k="teryt:simc" v="0002364"/>
    <tag k="teryt:stan_na" v="2009-01-01"/>
    <tag k="teryt:terc" v="1405045"/>
    <tag k="teryt:updated_by" v="teryt2osm combine.py v. 43"/>
    <tag k="wikipedia" v="pl:Mościska (powiat grodziski)"/>
  </node>
  <node id="349055755" version="5" timestamp="2009-05-01T13:14:00Z" uid="20587" user="balrog-kun" changeset="1036297" lat="52.0793719" lon="20.6126819">
    <tag k="is_in" v="gmina Grodzisk Mazowiecki, powiat grodziski, województwo mazowieckie, Poland"/>
    <tag k="is_in:country" v="Poland"/>
    <tag k="is_in:county" v="powiat grodziski"/>
    <tag k="is_in:municipality" v="gmina Grodzisk Mazowiecki"/>
    <tag k="is_in:province" v="województwo mazowieckie"/>
    <tag k="name" v="Janinów"/>
    <tag k="place" v="village"/>
    <tag k="teryt:rm" v="01"/>
    <tag k="teryt:simc" v="0002230"/>
    <tag k="teryt:stan_na" v="2009-01-01"/>
    <tag k="teryt:terc" v="1405045"/>
    <tag k="teryt:updated_by" v="teryt2osm combine.py v. 43:44M"/>
    <tag k="wikipedia" v="Janinów, Masovian Voivodeship"/>
  </node>
  <node id="349055755" version="6" timestamp="2009-10-28T16:24:33Z" uid="20587" user="balrog-kun" changeset="2974473" lat="52.0764973" lon="20.6111093">
    <tag k="is_in" v="gmina Grodzisk Mazowiecki, powiat grodziski, województwo mazowieckie, Poland"/>
    <tag k="is_in:country" v="Poland"/>
    <tag k="is_in:county" v="powiat grodziski"/>
    <tag k="is_in:municipality" v="gmina Grodzisk Mazowiecki"/>
    <tag k="is_in:province" v="województwo mazowieckie"/>
    <tag k="name" v="Janinów"/>
    <tag k="place" v="village"/>
    <tag k="teryt:rm" v="01"/>
    <tag k="teryt:simc" v="0002230"/>
    <tag k="teryt:stan_na" v="2009-01-01"/>
    <tag k="teryt:terc" v="1405045"/>
    <tag k="teryt:updated_by" v="teryt2osm combine.py v. 43:44M"/>
    <tag k="wikipedia" v="Janinów, Masovian Voivodeship"/>
  </node>
  <node id="349055755" version="7" timestamp="2010-04-11T04:39:35Z" uid="20587" user="balrog-kun" changeset="4389130" lat="52.0744851" lon="20.6100085">
    <tag k="is_in" v="gmina Grodzisk Mazowiecki, powiat grodziski, województwo mazowieckie, Poland"/>
    <tag k="is_in:country" v="Poland"/>
    <tag k="is_in:county" v="powiat grodziski"/>
    <tag k="is_in:municipality" v="gmina Grodzisk Mazowiecki"/>
    <tag k="is_in:province" v="województwo mazowieckie"/>
    <tag k="name" v="Janinów"/>
    <tag k="place" v="village"/>
    <tag k="teryt:rm" v="01"/>
    <tag k="teryt:simc" v="0002230"/>
    <tag k="teryt:stan_na" v="2009-01-01"/>
    <tag k="teryt:terc" v="1405045"/>
    <tag k="teryt:updated_by" v="teryt2osm combine.py v. 43:44M"/>
    <tag k="wikipedia" v="Janinów, Masovian Voivodeship"/>
  </node>
  <node id="349057539" version="1" timestamp="2009-02-22T11:27:50Z" uid="20587" user="balrog-kun" changeset="608939" lat="52.3447723" lon="21.1015582"/>
  <node id="349057539" version="2" timestamp="2011-08-19T15:42:53Z" uid="373244" user="Tomaszg" changeset="9066740" lat="52.3448718" lon="21.1013483"/>
  <node id="349057542" version="1" timestamp="2009-02-22T11:27:50Z" uid="20587" user="balrog-kun" changeset="608939" lat="52.344658" lon="21.101975"/>
  <node id="349057542" version="2" timestamp="2011-08-19T15:42:53Z" uid="373244" user="Tomaszg" changeset="9066740" lat="52.344703" lon="21.1019545"/>
  <node id="349057544" version="1" timestamp="2009-02-22T11:27:50Z" uid="20587" user="balrog-kun" changeset="608939" lat="52.3429846" lon="21.1058228"/>
  <node id="349057544" version="2" timestamp="2011-08-19T15:42:53Z" uid="373244" user="Tomaszg" changeset="9066740" lat="52.3430355" lon="21.1058056"/>
  <node id="349057545" version="1" timestamp="2009-02-22T11:27:50Z" uid="20587" user="balrog-kun" changeset="608939" lat="52.3425107" lon="21.1052947"/>
  <node id="349057545" version="2" timestamp="2011-08-19T15:58:22Z" uid="373244" user="Tomaszg" changeset="9066740" lat="52.3425584" lon="21.1052909"/>
  <node id="349057548" version="1" timestamp="2009-02-22T11:27:50Z" uid="20587" user="balrog-kun" changeset="608939" lat="52.342467" lon="21.1051241"/>
  <node id="349057548" version="2" timestamp="2011-08-19T15:58:21Z" uid="373244" user="Tomaszg" changeset="9066740" lat="52.3425018" lon="21.1050398"/>
  <node id="349057551" version="1" timestamp="2009-02-22T11:27:51Z" uid="20587" user="balrog-kun" changeset="608939" lat="52.3424838" lon="21.1043264"/>
  <node id="349057551" version="2" timestamp="2011-08-19T15:58:22Z" uid="373244" user="Tomaszg" changeset="9066740" lat="52.3425239" lon="21.1041812"/>
  <node id="349057552" version="1" timestamp="2009-02-22T11:27:51Z" uid="20587" user="balrog-kun" changeset="608939" lat="52.3410384" lon="21.1079159"/>
  <node id="349057555" version="1" timestamp="2009-02-22T11:27:51Z" uid="20587" user="balrog-kun" changeset="608939" lat="52.3413712" lon="21.1070404"/>
  <node id="349057558" version="1" timestamp="2009-02-22T11:27:51Z" uid="20587" user="balrog-kun" changeset="608939" lat="52.3409859" lon="21.1062041"/>
  <node id="349057560" version="1" timestamp="2009-02-22T11:27:51Z" uid="20587" user="balrog-kun" changeset="608939" lat="52.3413111" lon="21.1063837"/>
  <node id="349057562" version="1" timestamp="2009-02-22T11:27:51Z" uid="20587" user="balrog-kun" changeset="608939" lat="52.3433179" lon="21.109156"/>
  <node id="349057564" version="1" timestamp="2009-02-22T11:27:51Z" uid="20587" user="balrog-kun" changeset="608939" lat="52.3433604" lon="21.1089079"/>
  <node id="349057567" version="1" timestamp="2009-02-22T11:27:52Z" uid="20587" user="balrog-kun" changeset="608939" lat="52.342209" lon="21.1079146"/>
  <node id="349057567" version="2" timestamp="2011-08-19T15:42:53Z" uid="373244" user="Tomaszg" changeset="9066740" lat="52.3422513" lon="21.1078856"/>
  <node id="349057568" version="1" timestamp="2009-02-22T11:27:52Z" uid="20587" user="balrog-kun" changeset="608939" lat="52.3424831" lon="21.107707"/>
  <node id="349057571" version="1" timestamp="2009-02-22T11:27:52Z" uid="20587" user="balrog-kun" changeset="608939" lat="52.3435689" lon="21.1071598"/>
  <node id="349057572" version="1" timestamp="2009-02-22T11:27:52Z" uid="20587" user="balrog-kun" changeset="608939" lat="52.3437605" lon="21.1068746"/>
  <node id="349057575" version="1" timestamp="2009-02-22T11:27:52Z" uid="20587" user="balrog-kun" changeset="608939" lat="52.3445378" lon="21.104886"/>
  <node id="349057577" version="1" timestamp="2009-02-22T11:27:52Z" uid="20587" user="balrog-kun" changeset="608939" lat="52.3430466" lon="21.1045798"/>
  <node id="349057577" version="2" timestamp="2011-05-01T18:48:45Z" uid="91056" user="Yarl" changeset="8024569" lat="52.3430466" lon="21.1045798"/>
  <node id="349057579" version="1" timestamp="2009-02-22T11:27:52Z" uid="20587" user="balrog-kun" changeset="608939" lat="52.3436336" lon="21.1003961"/>
  <node id="349057579" version="2" timestamp="2011-05-01T18:48:30Z" uid="91056" user="Yarl" changeset="8024569" lat="52.3436336" lon="21.1003961"/>
  <node id="349057582" version="1" timestamp="2009-02-22T11:27:53Z" uid="20587" user="balrog-kun" changeset="608939" lat="52.3450125" lon="21.100754"/>
  <node id="349057582" version="2" timestamp="2011-05-01T18:48:42Z" uid="91056" user="Yarl" changeset="8024569" lat="52.3450125" lon="21.100754"/>
  <node id="349057584" version="1" timestamp="2009-02-22T11:27:53Z" uid="20587" user="balrog-kun" changeset="608939" lat="52.3454418" lon="21.1018803"/>
  <node id="349057584" version="2" timestamp="2011-05-01T18:48:35Z" uid="91056" user="Yarl" changeset="8024569" lat="52.3454418" lon="21.1018803"/>
  <node id="349057586" version="1" timestamp="2009-02-22T11:27:53Z" uid="20587" user="balrog-kun" changeset="608939" lat="52.3450357" lon="21.103019"/>
  <node id="349057586" version="2" timestamp="2011-05-01T18:48:41Z" uid="91056" user="Yarl" changeset="8024569" lat="52.3450357" lon="21.103019"/>
  <node id="349057931" version="2" timestamp="2010-05-09T03:59:24Z" uid="74617" user="JohnSmith" changeset="4644636" lat="-37.2391141" lon="144.4567951"/>
  <node id="349057942" version="2" timestamp="2010-05-09T03:59:27Z" uid="74617" user="JohnSmith" changeset="4644636" lat="-37.2379513" lon="144.4576579"/>
  <node id="349058108" version="2" timestamp="2010-05-09T03:59:25Z" uid="74617" user="JohnSmith" changeset="4644636" lat="-37.2403278" lon="144.4551935"/>
  <node id="349058117" version="1" timestamp="2009-02-22T11:30:25Z" uid="4667" user="MapZ" changeset="614317" lat="49.4966612" lon="8.6608953">
    <tag k="addr:housenumber" v="27"/>
    <tag k="addr:street" v="Hölderlinstraße"/>
  </node>
  <node id="349058117" version="2" timestamp="2009-02-22T11:32:22Z" uid="4667" user="MapZ" changeset="614317" lat="49.4966612" lon="8.6608953">
    <tag k="addr:city" v="Hirschberg-Leutershausen"/>
    <tag k="addr:housenumber" v="27"/>
    <tag k="addr:postcode" v="69493"/>
    <tag k="addr:street" v="Hölderlinstraße"/>
  </node>
  <node id="349058117" version="3" timestamp="2009-05-07T19:34:22Z" uid="4667" user="MapZ" changeset="1111217" lat="49.4968043" lon="8.6609045">
    <tag k="addr:city" v="Hirschberg-Leutershausen"/>
    <tag k="addr:housenumber" v="27"/>
    <tag k="addr:postcode" v="69493"/>
    <tag k="addr:street" v="Hölderlinstraße"/>
  </node>
  <node id="349058117" version="4" timestamp="2010-05-30T14:05:39Z" uid="9581" user="Lobelt" changeset="4852350" lat="49.4971775" lon="8.6610122"/>
  <node id="349058117" version="5" timestamp="2012-01-10T08:02:57Z" uid="442210" user="dwausr" changeset="10349020" lat="49.4971775" lon="8.6610122"/>
  <node id="349058117" version="6" timestamp="2012-03-27T13:46:59Z" uid="442210" user="dwausr" changeset="11116588" lat="49.4971775" lon="8.6610122"/>
  <node id="349058118" version="1" timestamp="2009-02-22T11:30:25Z" uid="4667" user="MapZ" changeset="614317" lat="49.4956449" lon="8.6606563">
    <tag k="addr:housenumber" v="26"/>
    <tag k="addr:street" v="Goethestraße"/>
  </node>
  <node id="349058118" version="2" timestamp="2009-02-22T11:32:22Z" uid="4667" user="MapZ" changeset="614317" lat="49.4956449" lon="8.6606563">
    <tag k="addr:city" v="Hirschberg-Leutershausen"/>
    <tag k="addr:housenumber" v="26"/>
    <tag k="addr:postcode" v="69493"/>
    <tag k="addr:street" v="Goethestraße"/>
  </node>
  <node id="349058118" version="3" timestamp="2010-05-21T20:21:20Z" uid="9581" user="Lobelt" changeset="4769304" lat="49.4956301" lon="8.661021">
    <tag k="addr:city" v="Hirschberg-Leutershausen"/>
    <tag k="addr:housenumber" v="28"/>
    <tag k="addr:postcode" v="69493"/>
    <tag k="addr:street" v="Goethestraße"/>
  </node>
  <node id="349058118" version="4" timestamp="2010-05-30T14:05:43Z" uid="9581" user="Lobelt" changeset="4852350" lat="49.4956216" lon="8.6621528">
    <tag k="addr:city" v="Hirschberg-Leutershausen"/>
    <tag k="addr:housenumber" v="34"/>
    <tag k="addr:postcode" v="69493"/>
    <tag k="addr:street" v="Goethestraße"/>
  </node>
  <node id="349058119" version="1" timestamp="2009-02-22T11:30:25Z" uid="4667" user="MapZ" changeset="614317" lat="49.49573" lon="8.6606409">
    <tag k="addr:housenumber" v="25"/>
    <tag k="addr:street" v="Goethestraße"/>
  </node>
  <node id="349058119" version="2" timestamp="2009-02-22T11:32:23Z" uid="4667" user="MapZ" changeset="614317" lat="49.49573" lon="8.6606409">
    <tag k="addr:city" v="Hirschberg-Leutershausen"/>
    <tag k="addr:housenumber" v="25"/>
    <tag k="addr:postcode" v="69493"/>
    <tag k="addr:street" v="Goethestraße"/>
  </node>
  <node id="349058119" version="3" timestamp="2010-05-21T20:21:26Z" uid="9581" user="Lobelt" changeset="4769304" lat="49.4957376" lon="8.6613061">
    <tag k="addr:city" v="Hirschberg-Leutershausen"/>
    <tag k="addr:housenumber" v="37"/>
    <tag k="addr:postcode" v="69493"/>
    <tag k="addr:street" v="Goethestraße"/>
  </node>
  <node id="349058119" version="4" timestamp="2010-05-21T20:37:24Z" uid="9581" user="Lobelt" changeset="4769304" lat="49.4957376" lon="8.6613061">
    <tag k="addr:city" v="Hirschberg-Leutershausen"/>
    <tag k="addr:housenumber" v="37"/>
    <tag k="addr:postcode" v="69493"/>
    <tag k="addr:street" v="Goethestraße"/>
  </node>
  <node id="349058119" version="5" timestamp="2010-05-30T14:05:42Z" uid="9581" user="Lobelt" changeset="4852350" lat="49.4957888" lon="8.6627447">
    <tag k="addr:city" v="Hirschberg-Leutershausen"/>
    <tag k="addr:housenumber" v="41/1"/>
    <tag k="addr:postcode" v="69493"/>
    <tag k="addr:street" v="Goethestraße"/>
  </node>
  <node id="349058120" version="1" timestamp="2009-02-22T11:30:26Z" uid="4667" user="MapZ" changeset="614317" lat="49.4956464" lon="8.6581779">
    <tag k="addr:housenumber" v="6"/>
    <tag k="addr:street" v="Goethestraße"/>
  </node>
  <node id="349058120" version="2" timestamp="2009-02-22T11:32:23Z" uid="4667" user="MapZ" changeset="614317" lat="49.4956464" lon="8.6581779">
    <tag k="addr:city" v="Hirschberg-Leutershausen"/>
    <tag k="addr:housenumber" v="6"/>
    <tag k="addr:postcode" v="69493"/>
    <tag k="addr:street" v="Goethestraße"/>
  </node>
  <node id="349058120" version="3" timestamp="2009-04-25T13:44:58Z" uid="4667" user="MapZ" changeset="950547" lat="49.4956491" lon="8.6580673">
    <tag k="addr:city" v="Hirschberg-Leutershausen"/>
    <tag k="addr:housenumber" v="6"/>
    <tag k="addr:postcode" v="69493"/>
    <tag k="addr:street" v="Goethestraße"/>
  </node>
  <node id="349058120" version="4" timestamp="2010-05-21T20:21:31Z" uid="9581" user="Lobelt" changeset="4769304" lat="49.4955993" lon="8.6587956"/>
  <node id="349058120" version="5" timestamp="2012-01-10T08:02:57Z" uid="442210" user="dwausr" changeset="10349020" lat="49.4955993" lon="8.6587956"/>
  <node id="349058120" version="6" timestamp="2012-03-27T13:46:59Z" uid="442210" user="dwausr" changeset="11116588" lat="49.4955993" lon="8.6587956"/>
  <node id="349058638" version="1" timestamp="2009-02-22T11:32:22Z" uid="4667" user="MapZ" changeset="614317" lat="49.4987233" lon="8.6579181">
    <tag k="addr:city" v="Hirschberg"/>
    <tag k="addr:housenumber" v="42"/>
    <tag k="addr:postcode" v="69493"/>
    <tag k="addr:street" v="Bahnhofstraße"/>
  </node>
  <node id="349058638" version="2" timestamp="2010-03-06T23:20:31Z" uid="9581" user="Lobelt" changeset="4056134" lat="49.4988836" lon="8.6583102">
    <tag k="addr:city" v="Hirschberg"/>
    <tag k="addr:housenumber" v="40"/>
    <tag k="addr:postcode" v="69493"/>
    <tag k="addr:street" v="Bahnhofstraße"/>
  </node>
  <node id="349058638" version="3" timestamp="2010-03-16T20:26:48Z" uid="9581" user="Lobelt" changeset="4146457" lat="49.4988733" lon="8.6583163">
    <tag k="addr:city" v="Hirschberg"/>
    <tag k="addr:housenumber" v="40"/>
    <tag k="addr:postcode" v="69493"/>
    <tag k="addr:street" v="Bahnhofstraße"/>
  </node>
  <node id="349058638" version="4" timestamp="2012-01-24T14:39:49Z" uid="442210" user="dwausr" changeset="10485075" lat="49.4988733" lon="8.6583163"/>
  <node id="349058638" version="5" timestamp="2012-03-27T13:44:03Z" uid="442210" user="dwausr" changeset="11116588" lat="49.4988733" lon="8.6583163">
    <tag k="addr:city" v="Hirschberg"/>
    <tag k="addr:housenumber" v="40"/>
    <tag k="addr:postcode" v="69493"/>
    <tag k="addr:street" v="Bahnhofstraße"/>
  </node>
  <node id="349058647" version="3" timestamp="2010-05-07T13:30:40Z" uid="74617" user="JohnSmith" changeset="4629841" lat="-37.245824" lon="144.4538591"/>
  <node id="349058653" version="2" timestamp="2010-05-07T18:24:27Z" uid="74617" user="JohnSmith" changeset="4632439" lat="-37.2469188" lon="144.4631754"/>
  <node id="349059706" version="1" timestamp="2009-02-22T11:35:19Z" uid="4667" user="MapZ" changeset="614317" lat="49.4970744" lon="8.6593257">
    <tag k="addr:city" v="Hirschberg-Leutershausen"/>
    <tag k="addr:housenumber" v="7-9"/>
    <tag k="addr:postcode" v="69493"/>
    <tag k="addr:street" v="Johann-Sebastian-Bach-Straße"/>
  </node>
  <node id="349059706" version="2" timestamp="2012-01-10T08:02:33Z" uid="442210" user="dwausr" changeset="10349020" lat="49.4970744" lon="8.6593257"/>
  <node id="349059706" version="3" timestamp="2012-03-27T13:44:07Z" uid="442210" user="dwausr" changeset="11116588" lat="49.4970744" lon="8.6593257">
    <tag k="addr:city" v="Hirschberg-Leutershausen"/>
    <tag k="addr:housenumber" v="7-9"/>
    <tag k="addr:postcode" v="69493"/>
    <tag k="addr:street" v="Johann-Sebastian-Bach-Straße"/>
  </node>
  <node id="349052811" version="4" timestamp="2012-07-19T06:47:38Z" uid="722137" user="OSMF Redaction Account" changeset="12310720" lat="-36.7596346" lon="144.2704958"/>
  <node id="349052811" version="5" timestamp="2012-09-04T08:53:08Z" uid="95583" user="Geodes" changeset="12978663" lat="-36.7596045" lon="144.2704739"/>
  <node id="349052811" version="6" timestamp="2012-09-06T03:09:26Z" uid="95583" user="Geodes" changeset="13004523" lat="-36.7596046" lon="144.2704732"/>
  <node id="349052816" version="4" timestamp="2012-07-19T06:47:37Z" uid="722137" user="OSMF Redaction Account" changeset="12310720" lat="-36.7602035" lon="144.2694544"/>
  <node id="349052816" version="5" timestamp="2012-09-04T08:53:08Z" uid="95583" user="Geodes" changeset="12978663" lat="-36.7600956" lon="144.2695358">
    <tag k="highway" v="turning_circle"/>
  </node>
  <node id="349052821" version="4" timestamp="2012-07-19T06:47:37Z" uid="722137" user="OSMF Redaction Account" changeset="12310720" lat="-36.7603957" lon="144.2690828"/>
  <node id="349052821" version="5" timestamp="2012-07-24T21:26:39Z" uid="84937" user="Neil Penman" changeset="12476903" lat="-36.760368" lon="144.2692673"/>
  <node id="349055232" version="8" timestamp="2012-09-01T00:07:36Z" uid="186174" user="michal_f" changeset="12937707" lat="52.065254" lon="20.6203945">
    <tag k="is_in" v="gmina Grodzisk Mazowiecki, powiat grodziski, województwo mazowieckie, Poland"/>
    <tag k="is_in:country" v="Poland"/>
    <tag k="is_in:county" v="powiat grodziski"/>
    <tag k="is_in:municipality" v="gmina Grodzisk Mazowiecki"/>
    <tag k="is_in:province" v="województwo mazowieckie"/>
    <tag k="name" v="Mościska"/>
    <tag k="place" v="village"/>
    <tag k="teryt:rm" v="01"/>
    <tag k="teryt:simc" v="0002364"/>
    <tag k="teryt:stan_na" v="2009-01-01"/>
    <tag k="teryt:terc" v="1405045"/>
    <tag k="teryt:updated_by" v="teryt2osm combine.py v. 43"/>
    <tag k="wikipedia" v="pl:Mościska (powiat grodziski)"/>
  </node>
  <node id="349055232" version="9" timestamp="2012-09-10T19:43:34Z" uid="467703" user="Zbigniew_Czernik" changeset="13061450" lat="52.0674206" lon="20.6150241">
    <tag k="is_in" v="gmina Grodzisk Mazowiecki, powiat grodziski, województwo mazowieckie, Poland"/>
    <tag k="is_in:country" v="Poland"/>
    <tag k="is_in:county" v="powiat grodziski"/>
    <tag k="is_in:municipality" v="gmina Grodzisk Mazowiecki"/>
    <tag k="is_in:province" v="województwo mazowieckie"/>
    <tag k="name" v="Mościska"/>
    <tag k="place" v="village"/>
    <tag k="teryt:rm" v="01"/>
    <tag k="teryt:simc" v="0002364"/>
    <tag k="teryt:stan_na" v="2009-01-01"/>
    <tag k="teryt:terc" v="1405045"/>
    <tag k="teryt:updated_by" v="teryt2osm combine.py v. 43"/>
    <tag k="wikipedia" v="pl:Mościska (powiat grodziski)"/>
  </node>
  <node id="349057931" version="3" timestamp="2012-07-19T16:17:28Z" uid="722137" user="OSMF Redaction Account" changeset="12338431" lat="-37.239168" lon="144.4568116"/>
  <node id="349057942" version="3" timestamp="2012-07-19T16:17:28Z" uid="722137" user="OSMF Redaction Account" changeset="12338431" lat="-37.2379623" lon="144.4577211"/>
  <node id="349058108" version="3" timestamp="2012-07-19T16:17:27Z" uid="722137" user="OSMF Redaction Account" changeset="12338431" lat="-37.240356" lon="144.4552145"/>
  <node id="349058117" version="7" timestamp="2012-04-05T17:45:26Z" uid="31231" user="Andre68" changeset="11191374" lat="49.4971775" lon="8.6610122"/>
  <node id="349058118" version="5" timestamp="2012-07-17T05:29:27Z" uid="722137" user="OSMF Redaction Account" changeset="12257767" lat="49.4956216" lon="8.6621528"/>
  <node id="349058119" version="6" timestamp="2012-07-17T05:29:27Z" uid="722137" user="OSMF Redaction Account" changeset="12257767" lat="49.4957888" lon="8.6627447"/>
  <node id="349058120" version="7" timestamp="2012-04-05T17:45:26Z" uid="31231" user="Andre68" changeset="11191374" lat="49.4955993" lon="8.6587956"/>
  <node id="349058638" version="6" timestamp="2012-04-06T06:19:04Z" uid="31231" user="Andre68" changeset="11197000" lat="49.4988733" lon="8.6583163"/>
  <node id="349058647" version="4" timestamp="2012-07-19T16:17:24Z" uid="722137" user="OSMF Redaction Account" changeset="12338431" lat="-37.245815" lon="144.4538102"/>
  <node id="349058647" version="5" timestamp="2012-08-29T05:36:00Z" uid="841296" user="SimonSinnott" changeset="12900725" lat="-37.2458182" lon="144.4538404"/>
  <node id="349058653" version="3" timestamp="2012-07-19T16:17:23Z" uid="722137" user="OSMF Redaction Account" changeset="12338431" lat="-37.2468674" lon="144.4631607"/>
  <node id="349059706" version="4" timestamp="2012-07-17T05:27:03Z" uid="722137" user="OSMF Redaction Account" changeset="12257724" lat="49.4970744" lon="8.6593257"/>
</osm>
