<?xml version='1.0' encoding='UTF-8'?>
<osm version="0.6" generator="libosmium/2.20.0">
  <node id="349982615" version="2" timestamp="2009-11-21T13:37:21Z" uid="74617" user="JohnSmith" changeset="3175994" lat="-35.0203789" lon="149.2629937"/>
  <node id="349982630" version="2" timestamp="2009-11-21T13:37:21Z" uid="74617" user="JohnSmith" changeset="3175994" lat="-35.0192344" lon="149.2626323"/>
  <node id="349982643" version="2" timestamp="2009-11-21T13:37:21Z" uid="74617" user="JohnSmith" changeset="3175994" lat="-35.0183308" lon="149.2621504"/>
  <node id="349982661" version="2" timestamp="2009-11-21T13:37:21Z" uid="74617" user="JohnSmith" changeset="3175994" lat="-35.0177886" lon="149.2607648"/>
  <node id="349982683" version="2" timestamp="2009-11-21T13:37:21Z" uid="74617" user="JohnSmith" changeset="3175994" lat="-35.0174875" lon="149.2591986"/>
  <node id="349982700" version="2" timestamp="2009-11-21T13:37:21Z" uid="74617" user="JohnSmith" changeset="3175994" lat="-35.0165839" lon="149.2587167"/>
  <node id="349982727" version="2" timestamp="2009-11-21T13:37:21Z" uid="74617" user="JohnSmith" changeset="3175994" lat="-35.0151381" lon="149.2588372"/>
  <node id="349982749" version="2" timestamp="2009-11-21T13:37:21Z" uid="74617" user="JohnSmith" changeset="3175994" lat="-35.0137526" lon="149.2596203"/>
  <node id="349982766" version="2" timestamp="2009-11-21T13:37:22Z" uid="74617" user="JohnSmith" changeset="3175994" lat="-35.012849" lon="149.2606444"/>
  <node id="349982784" version="2" timestamp="2009-11-21T13:37:21Z" uid="74617" user="JohnSmith" changeset="3175994" lat="-35.0118249" lon="149.2620299"/>
  <node id="349982799" version="2" timestamp="2009-11-21T13:37:22Z" uid="74617" user="JohnSmith" changeset="3175994" lat="-35.0108611" lon="149.2627527"/>
  <node id="349982817" version="2" timestamp="2009-11-21T13:37:22Z" uid="74617" user="JohnSmith" changeset="3175994" lat="-35.0092346" lon="149.262572"/>
  <node id="349982827" version="2" timestamp="2009-11-21T13:37:22Z" uid="74617" user="JohnSmith" changeset="3175994" lat="-35.007307" lon="149.2621504"/>
  <node id="349982845" version="2" timestamp="2009-11-21T13:37:21Z" uid="74617" user="JohnSmith" changeset="3175994" lat="-35.005801" lon="149.262572"/>
  <node id="349982864" version="2" timestamp="2009-11-21T13:37:21Z" uid="74617" user="JohnSmith" changeset="3175994" lat="-35.0047167" lon="149.2622708"/>
  <node id="349982883" version="2" timestamp="2009-11-21T13:37:21Z" uid="74617" user="JohnSmith" changeset="3175994" lat="-35.0039336" lon="149.2607648"/>
  <node id="349982909" version="2" timestamp="2009-11-21T13:37:21Z" uid="74617" user="JohnSmith" changeset="3175994" lat="-35.0035119" lon="149.2594396"/>
  <node id="349982935" version="2" timestamp="2009-11-21T13:37:21Z" uid="74617" user="JohnSmith" changeset="3175994" lat="-35.0037528" lon="149.2564276"/>
  <node id="349982956" version="2" timestamp="2009-11-21T13:37:21Z" uid="74617" user="JohnSmith" changeset="3175994" lat="-35.0026685" lon="149.2544999"/>
  <node id="349982978" version="2" timestamp="2009-11-21T13:37:22Z" uid="74617" user="JohnSmith" changeset="3175994" lat="-35.001524" lon="149.2532951"/>
  <node id="349982991" version="2" timestamp="2009-11-21T13:37:22Z" uid="74617" user="JohnSmith" changeset="3175994" lat="-35.0014637" lon="149.2520904"/>
  <node id="349983007" version="2" timestamp="2009-11-21T13:37:21Z" uid="74617" user="JohnSmith" changeset="3175994" lat="-35.0026083" lon="149.2495001"/>
  <node id="349983034" version="2" timestamp="2009-11-21T13:37:21Z" uid="74617" user="JohnSmith" changeset="3175994" lat="-35.0027288" lon="149.2472712"/>
  <node id="349983055" version="2" timestamp="2009-11-21T13:37:21Z" uid="74617" user="JohnSmith" changeset="3175994" lat="-35.0024878" lon="149.2458255"/>
  <node id="349983076" version="2" timestamp="2009-11-21T13:37:22Z" uid="74617" user="JohnSmith" changeset="3175994" lat="-35.0014035" lon="149.2457652"/>
  <node id="349983099" version="2" timestamp="2009-11-21T13:37:22Z" uid="74617" user="JohnSmith" changeset="3175994" lat="-35.0009216" lon="149.2463074"/>
  <node id="349983122" version="2" timestamp="2009-11-21T13:37:22Z" uid="74617" user="JohnSmith" changeset="3175994" lat="-35.0001987" lon="149.245705"/>
  <node id="349983144" version="2" timestamp="2009-11-21T13:37:22Z" uid="74617" user="JohnSmith" changeset="3175994" lat="-34.9998975" lon="149.2449219"/>
  <node id="349983175" version="2" timestamp="2009-11-21T13:37:22Z" uid="74617" user="JohnSmith" changeset="3175994" lat="-35.0001987" lon="149.2435364"/>
  <node id="349983189" version="2" timestamp="2009-11-21T13:37:22Z" uid="74617" user="JohnSmith" changeset="3175994" lat="-34.999777" lon="149.2420906"/>
  <node id="349983200" version="2" timestamp="2009-11-21T13:37:22Z" uid="74617" user="JohnSmith" changeset="3175994" lat="-34.9982711" lon="149.2413075"/>
  <node id="349983212" version="2" timestamp="2009-11-21T13:37:22Z" uid="74617" user="JohnSmith" changeset="3175994" lat="-34.9965844" lon="149.2413075"/>
  <node id="349983223" version="2" timestamp="2009-11-21T13:37:22Z" uid="74617" user="JohnSmith" changeset="3175994" lat="-34.9954398" lon="149.2416689"/>
  <node id="349983231" version="2" timestamp="2009-11-21T13:37:22Z" uid="74617" user="JohnSmith" changeset="3175994" lat="-34.994235" lon="149.2408858"/>
  <node id="349983244" version="2" timestamp="2009-11-21T13:37:22Z" uid="74617" user="JohnSmith" changeset="3175994" lat="-34.9925483" lon="149.2400425"/>
  <node id="349983266" version="2" timestamp="2009-11-21T13:37:22Z" uid="74617" user="JohnSmith" changeset="3175994" lat="-34.9900182" lon="149.2402834"/>
  <node id="349983284" version="2" timestamp="2009-11-21T13:37:22Z" uid="74617" user="JohnSmith" changeset="3175994" lat="-34.9882713" lon="149.2408858"/>
  <node id="349983301" version="2" timestamp="2009-11-21T13:37:22Z" uid="74617" user="JohnSmith" changeset="3175994" lat="-34.9870063" lon="149.2402232"/>
  <node id="349983319" version="2" timestamp="2009-11-21T13:37:22Z" uid="74617" user="JohnSmith" changeset="3175994" lat="-34.9855579" lon="149.2386734"/>
  <node id="349983337" version="2" timestamp="2009-11-21T13:37:21Z" uid="74617" user="JohnSmith" changeset="3175994" lat="-34.9848917" lon="149.2374644"/>
  <node id="349983352" version="2" timestamp="2009-11-21T13:39:55Z" uid="74617" user="JohnSmith" changeset="3176002" lat="-34.9845785" lon="149.2356275"/>
  <node id="349983352" version="3" timestamp="2011-01-03T07:15:25Z" uid="18775" user="drlizau" changeset="6846524" lat="-34.9845799" lon="149.2356272"/>
  <node id="349983352" version="4" timestamp="2012-02-09T11:51:08Z" uid="12434" user="nm7s9" changeset="10633035" lat="-34.9845799" lon="149.2356272"/>
  <node id="349983373" version="3" timestamp="2011-01-03T07:16:24Z" uid="18775" user="drlizau" changeset="6846524" lat="-34.984089" lon="149.2335629"/>
  <node id="349983373" version="4" timestamp="2012-02-09T12:00:43Z" uid="12434" user="nm7s9" changeset="10633120" lat="-34.984089" lon="149.2335629"/>
  <node id="349987517" version="6" timestamp="2009-05-01T19:14:51Z" uid="20587" user="balrog-kun" changeset="1041038" lat="50.406461" lon="16.3895789">
    <tag k="addr:postcode" v="57-340"/>
    <tag k="is_in" v="powiat kłodzki, województwo dolnośląskie, Poland"/>
    <tag k="is_in:country" v="Poland"/>
    <tag k="is_in:county" v="powiat kłodzki"/>
    <tag k="is_in:municipality" v="gmina Duszniki-Zdrój"/>
    <tag k="is_in:province" v="województwo dolnośląskie"/>
    <tag k="name" v="Duszniki-Zdrój"/>
    <tag k="place" v="town"/>
    <tag k="population" v="5010"/>
    <tag k="source:population" v="wikipedia"/>
    <tag k="teryt:rm" v="96"/>
    <tag k="teryt:simc" v="0983913"/>
    <tag k="teryt:stan_na" v="2009-01-01"/>
    <tag k="teryt:terc" v="0208011"/>
    <tag k="teryt:updated_by" v="teryt2osm combine.py v. 36M"/>
    <tag k="wikipedia" v="Duszniki-Zdrój"/>
  </node>
  <node id="349987517" version="7" timestamp="2009-05-07T18:39:53Z" uid="115021" user="Jajcuś" changeset="1110348" lat="50.406461" lon="16.3895789">
    <tag k="addr:postcode" v="57-340"/>
    <tag k="is_in" v="powiat kłodzki, województwo dolnośląskie, Poland"/>
    <tag k="is_in:country" v="Poland"/>
    <tag k="is_in:county" v="powiat kłodzki"/>
    <tag k="is_in:province" v="województwo dolnośląskie"/>
    <tag k="name" v="Duszniki-Zdrój"/>
    <tag k="place" v="town"/>
    <tag k="population" v="5010"/>
    <tag k="source:population" v="wikipedia"/>
    <tag k="teryt:rm" v="96"/>
    <tag k="teryt:simc" v="0983913"/>
    <tag k="teryt:stan_na" v="2009-01-01"/>
    <tag k="teryt:terc" v="0208011"/>
    <tag k="teryt:updated_by" v="teryt2osm combine.py v. 47M"/>
    <tag k="wikipedia" v="Duszniki-Zdrój"/>
  </node>
  <node id="349987517" version="8" timestamp="2009-05-08T18:35:00Z" uid="115021" user="Jajcuś" changeset="1120417" lat="50.406461" lon="16.3895789">
    <tag k="addr:postcode" v="57-340"/>
    <tag k="is_in" v="powiat kłodzki, województwo dolnośląskie, Poland"/>
    <tag k="is_in:country" v="Poland"/>
    <tag k="is_in:county" v="powiat kłodzki"/>
    <tag k="is_in:municipality" v="gmina Duszniki-Zdrój"/>
    <tag k="is_in:province" v="województwo dolnośląskie"/>
    <tag k="name" v="Duszniki-Zdrój"/>
    <tag k="place" v="town"/>
    <tag k="population" v="5010"/>
    <tag k="source:population" v="wikipedia"/>
    <tag k="teryt:rm" v="96"/>
    <tag k="teryt:simc" v="0983913"/>
    <tag k="teryt:stan_na" v="2009-01-01"/>
    <tag k="teryt:terc" v="0208011"/>
    <tag k="teryt:updated_by" v="teryt2osm combine.py v. 49"/>
    <tag k="wikipedia" v="Duszniki-Zdrój"/>
  </node>
  <node id="349987517" version="9" timestamp="2010-04-11T04:39:43Z" uid="20587" user="balrog-kun" changeset="4389130" lat="50.4052547" lon="16.3906112">
    <tag k="addr:postcode" v="57-340"/>
    <tag k="is_in" v="powiat kłodzki, województwo dolnośląskie, Poland"/>
    <tag k="is_in:country" v="Poland"/>
    <tag k="is_in:county" v="powiat kłodzki"/>
    <tag k="is_in:municipality" v="gmina Duszniki-Zdrój"/>
    <tag k="is_in:province" v="województwo dolnośląskie"/>
    <tag k="name" v="Duszniki-Zdrój"/>
    <tag k="place" v="town"/>
    <tag k="population" v="5010"/>
    <tag k="source:population" v="wikipedia"/>
    <tag k="teryt:rm" v="96"/>
    <tag k="teryt:simc" v="0983913"/>
    <tag k="teryt:stan_na" v="2009-01-01"/>
    <tag k="teryt:terc" v="0208011"/>
    <tag k="teryt:updated_by" v="teryt2osm combine.py v. 49"/>
    <tag k="wikipedia" v="Duszniki-Zdrój"/>
  </node>
  <node id="349987517" version="10" timestamp="2010-07-18T14:45:36Z" uid="213321" user="Mecky" changeset="5251810" lat="50.4052547" lon="16.3906112">
    <tag k="addr:postcode" v="57-340"/>
    <tag k="is_in" v="powiat kłodzki, województwo dolnośląskie, Poland"/>
    <tag k="is_in:country" v="Poland"/>
    <tag k="is_in:county" v="powiat kłodzki"/>
    <tag k="is_in:municipality" v="gmina Duszniki-Zdrój"/>
    <tag k="is_in:province" v="województwo dolnośląskie"/>
    <tag k="name" v="Duszniki-Zdrój (Bad Reinerz)"/>
    <tag k="place" v="town"/>
    <tag k="population" v="5010"/>
    <tag k="source:population" v="wikipedia"/>
    <tag k="teryt:rm" v="96"/>
    <tag k="teryt:simc" v="0983913"/>
    <tag k="teryt:stan_na" v="2009-01-01"/>
    <tag k="teryt:terc" v="0208011"/>
    <tag k="teryt:updated_by" v="teryt2osm combine.py v. 49"/>
    <tag k="wikipedia" v="Duszniki-Zdrój"/>
  </node>
  <node id="349987517" version="11" timestamp="2010-07-20T13:58:43Z" uid="213321" user="Mecky" changeset="5270942" lat="50.4052547" lon="16.3906112">
    <tag k="addr:postcode" v="57-340"/>
    <tag k="is_in" v="powiat kłodzki, województwo dolnośląskie, Poland"/>
    <tag k="is_in:country" v="Poland"/>
    <tag k="is_in:county" v="powiat kłodzki"/>
    <tag k="is_in:municipality" v="gmina Duszniki-Zdrój"/>
    <tag k="is_in:province" v="województwo dolnośląskie"/>
    <tag k="name" v="Duszniki-Zdrój"/>
    <tag k="place" v="town"/>
    <tag k="population" v="5010"/>
    <tag k="source:population" v="wikipedia"/>
    <tag k="teryt:rm" v="96"/>
    <tag k="teryt:simc" v="0983913"/>
    <tag k="teryt:stan_na" v="2009-01-01"/>
    <tag k="teryt:terc" v="0208011"/>
    <tag k="teryt:updated_by" v="teryt2osm combine.py v. 49"/>
    <tag k="wikipedia" v="Duszniki-Zdrój"/>
  </node>
  <node id="349987517" version="12" timestamp="2010-09-27T07:45:49Z" uid="94114" user="Jaszczur" changeset="5889497" lat="50.4052547" lon="16.3906112">
    <tag k="addr:postcode" v="57-340"/>
    <tag k="is_in" v="powiat kłodzki, województwo dolnośląskie, Poland"/>
    <tag k="is_in:country" v="Poland"/>
    <tag k="is_in:county" v="powiat kłodzki"/>
    <tag k="is_in:municipality" v="gmina Duszniki-Zdrój"/>
    <tag k="is_in:province" v="województwo dolnośląskie"/>
    <tag k="name" v="Duszniki-Zdrój"/>
    <tag k="name:de" v="Bad Reinerz"/>
    <tag k="place" v="town"/>
    <tag k="population" v="5010"/>
    <tag k="source:population" v="wikipedia"/>
    <tag k="teryt:rm" v="96"/>
    <tag k="teryt:simc" v="0983913"/>
    <tag k="teryt:stan_na" v="2009-01-01"/>
    <tag k="teryt:terc" v="0208011"/>
    <tag k="teryt:updated_by" v="teryt2osm combine.py v. 49"/>
    <tag k="wikipedia" v="Duszniki-Zdrój"/>
  </node>
  <node id="349987517" version="13" timestamp="2012-07-17T01:57:01Z" uid="722137" user="OSMF Redaction Account" changeset="12255025" lat="50.4052547" lon="16.3906112">
    <tag k="addr:postcode" v="57-340"/>
    <tag k="is_in" v="powiat kłodzki, województwo dolnośląskie, Poland"/>
    <tag k="is_in:country" v="Poland"/>
    <tag k="is_in:county" v="powiat kłodzki"/>
    <tag k="is_in:municipality" v="gmina Duszniki-Zdrój"/>
    <tag k="is_in:province" v="województwo dolnośląskie"/>
    <tag k="name" v="Duszniki-Zdrój"/>
    <tag k="name:de" v="Bad Reinerz"/>
    <tag k="population" v="5010"/>
    <tag k="source:population" v="wikipedia"/>
    <tag k="teryt:rm" v="96"/>
    <tag k="teryt:simc" v="0983913"/>
    <tag k="teryt:stan_na" v="2009-01-01"/>
    <tag k="teryt:terc" v="0208011"/>
    <tag k="teryt:updated_by" v="teryt2osm combine.py v. 49"/>
    <tag k="wikipedia" v="Duszniki-Zdrój"/>
  </node>
  <node id="349987517" version="14" timestamp="2012-08-05T14:21:13Z" uid="467703" user="Zbigniew_Czernik" changeset="12620374" lat="50.4052547" lon="16.3906112">
    <tag k="addr:postcode" v="57-340"/>
    <tag k="is_in" v="powiat kłodzki, województwo dolnośląskie, Poland"/>
    <tag k="is_in:country" v="Poland"/>
    <tag k="is_in:county" v="powiat kłodzki"/>
    <tag k="is_in:municipality" v="gmina Duszniki-Zdrój"/>
    <tag k="is_in:province" v="województwo dolnośląskie"/>
    <tag k="name" v="Duszniki-Zdrój"/>
    <tag k="name:de" v="Bad Reinerz"/>
    <tag k="place" v="village"/>
    <tag k="population" v="5010"/>
    <tag k="source:population" v="wikipedia"/>
    <tag k="teryt:rm" v="96"/>
    <tag k="teryt:simc" v="0983913"/>
    <tag k="teryt:stan_na" v="2009-01-01"/>
    <tag k="teryt:terc" v="0208011"/>
    <tag k="teryt:updated_by" v="teryt2osm combine.py v. 49"/>
    <tag k="wikipedia" v="Duszniki-Zdrój"/>
  </node>
  <node id="349987517" version="15" timestamp="2012-08-21T19:13:07Z" uid="254472" user="Tomasz Salwach" changeset="12812450" lat="50.4052547" lon="16.3906112">
    <tag k="addr:postcode" v="57-340"/>
    <tag k="is_in" v="powiat kłodzki, województwo dolnośląskie, Poland"/>
    <tag k="is_in:country" v="Poland"/>
    <tag k="is_in:county" v="powiat kłodzki"/>
    <tag k="is_in:municipality" v="gmina Duszniki-Zdrój"/>
    <tag k="is_in:province" v="województwo dolnośląskie"/>
    <tag k="name" v="Duszniki-Zdrój"/>
    <tag k="name:de" v="Bad Reinerz"/>
    <tag k="place" v="town"/>
    <tag k="population" v="5010"/>
    <tag k="source:population" v="wikipedia"/>
    <tag k="teryt:rm" v="96"/>
    <tag k="teryt:simc" v="0983913"/>
    <tag k="teryt:stan_na" v="2009-01-01"/>
    <tag k="teryt:terc" v="0208011"/>
    <tag k="teryt:updated_by" v="teryt2osm combine.py v. 49"/>
    <tag k="wikipedia" v="Duszniki-Zdrój"/>
  </node>
</osm>
