<?xml version='1.0' encoding='UTF-8'?>
<osm version="0.6" generator="libosmium/2.20.0">
  <node id="351420979" version="1" timestamp="2009-02-24T14:54:28Z" uid="43863" user="Rundling" changeset="655981" lat="52.9286578" lon="10.5682605"/>
  <node id="351420979" version="2" timestamp="2011-09-25T18:17:13Z" uid="167471" user="Anhäufer" changeset="9395259" lat="52.9288089" lon="10.5680782"/>
  <node id="351423986" version="1" timestamp="2009-02-24T14:56:48Z" uid="43863" user="Rundling" changeset="655981" lat="52.9117042" lon="10.6034536"/>
  <node id="351423992" version="1" timestamp="2009-02-24T14:56:48Z" uid="43863" user="Rundling" changeset="655981" lat="52.9121664" lon="10.6038532">
    <tag k="highway" v="turning_circle"/>
  </node>
  <node id="351423992" version="2" timestamp="2012-03-24T22:01:00Z" uid="292562" user="WMWDe" changeset="11089549" lat="52.9121734" lon="10.603863">
    <tag k="highway" v="turning_circle"/>
  </node>
  <node id="351423996" version="1" timestamp="2009-02-24T14:56:49Z" uid="43863" user="Rundling" changeset="655981" lat="52.9125749" lon="10.603394"/>
  <node id="351423996" version="2" timestamp="2012-03-24T22:01:00Z" uid="292562" user="WMWDe" changeset="11089549" lat="52.9126421" lon="10.6032973"/>
  <node id="351424000" version="1" timestamp="2009-02-24T14:56:49Z" uid="43863" user="Rundling" changeset="655981" lat="52.9126095" lon="10.6030956"/>
  <node id="351424000" version="2" timestamp="2012-03-24T22:01:00Z" uid="292562" user="WMWDe" changeset="11089549" lat="52.9126417" lon="10.6031979"/>
  <node id="351424004" version="1" timestamp="2009-02-24T14:56:49Z" uid="43863" user="Rundling" changeset="655981" lat="52.9123187" lon="10.6022002"/>
  <node id="351428595" version="3" timestamp="2009-08-24T22:59:26Z" uid="36809" user="pfoten_weg_!_" changeset="2250929" lat="52.261276" lon="13.17338">
    <tag k="discovered_by" v="RambaZamba"/>
    <tag k="power" v="tower"/>
    <tag k="ref" v="214"/>
  </node>
  <node id="351428595" version="4" timestamp="2009-08-28T19:42:09Z" uid="156995" user="HampelZamba" changeset="2294580" lat="52.261276" lon="13.17338">
    <tag k="power" v="tower"/>
    <tag k="ref" v="214"/>
  </node>
  <node id="351428595" version="5" timestamp="2009-08-28T22:01:00Z" uid="36809" user="pfoten_weg_!_" changeset="2295805" lat="52.261276" lon="13.17338">
    <tag k="discovered_by" v="RambaZamba"/>
    <tag k="power" v="tower"/>
    <tag k="ref" v="214"/>
    <tag k="source" v="survey"/>
  </node>
  <node id="351428595" version="6" timestamp="2009-08-30T04:54:34Z" uid="156995" user="HampelZamba" changeset="2308696" lat="52.261276" lon="13.17338">
    <tag k="power" v="tower"/>
    <tag k="ref" v="214"/>
    <tag k="source" v="survey"/>
  </node>
  <node id="351428595" version="7" timestamp="2009-09-25T16:57:33Z" uid="36809" user="pfoten_weg_!_" changeset="2623140" lat="52.261276" lon="13.17338">
    <tag k="power" v="tower"/>
    <tag k="ref" v="214"/>
    <tag k="source" v="survey"/>
  </node>
  <node id="351428595" version="8" timestamp="2010-02-03T11:52:53Z" uid="13203" user="bahnpirat" changeset="3782397" lat="52.261276" lon="13.17338">
    <tag k="power" v="tower"/>
    <tag k="ref" v="214"/>
    <tag k="source" v="survey"/>
  </node>
  <node id="351428595" version="9" timestamp="2011-06-21T20:24:00Z" uid="13203" user="bahnpirat" changeset="8508363" lat="52.261276" lon="13.17338">
    <tag k="note" v="Mastnummern 2011 um -180 Zähler geändert"/>
    <tag k="old_ref" v="214"/>
    <tag k="power" v="tower"/>
    <tag k="ref" v="34"/>
    <tag k="source" v="Yahoo"/>
    <tag k="source:old_ref" v="survey"/>
    <tag k="source_ref" v="extrapolation"/>
  </node>
  <node id="351428598" version="3" timestamp="2009-08-24T22:59:27Z" uid="36809" user="pfoten_weg_!_" changeset="2250929" lat="52.263102" lon="13.169303">
    <tag k="discovered_by" v="RambaZamba"/>
    <tag k="power" v="tower"/>
    <tag k="ref" v="215"/>
  </node>
  <node id="351428598" version="4" timestamp="2009-08-28T19:42:09Z" uid="156995" user="HampelZamba" changeset="2294580" lat="52.263102" lon="13.169303">
    <tag k="power" v="tower"/>
    <tag k="ref" v="215"/>
  </node>
  <node id="351428598" version="5" timestamp="2009-08-28T22:01:01Z" uid="36809" user="pfoten_weg_!_" changeset="2295805" lat="52.263102" lon="13.169303">
    <tag k="discovered_by" v="RambaZamba"/>
    <tag k="power" v="tower"/>
    <tag k="ref" v="215"/>
    <tag k="source" v="survey"/>
  </node>
  <node id="351428598" version="6" timestamp="2009-08-30T04:54:34Z" uid="156995" user="HampelZamba" changeset="2308696" lat="52.263102" lon="13.169303">
    <tag k="power" v="tower"/>
    <tag k="ref" v="215"/>
    <tag k="source" v="survey"/>
  </node>
  <node id="351428598" version="7" timestamp="2009-09-25T16:57:32Z" uid="36809" user="pfoten_weg_!_" changeset="2623140" lat="52.263102" lon="13.169303">
    <tag k="power" v="tower"/>
    <tag k="ref" v="215"/>
    <tag k="source" v="survey"/>
  </node>
  <node id="351428598" version="8" timestamp="2011-06-21T20:24:00Z" uid="13203" user="bahnpirat" changeset="8508363" lat="52.263102" lon="13.169303">
    <tag k="note" v="Mastnummern 2011 um -180 Zähler geändert"/>
    <tag k="old_ref" v="215"/>
    <tag k="power" v="tower"/>
    <tag k="ref" v="35"/>
    <tag k="source" v="Yahoo"/>
    <tag k="source:old_ref" v="survey"/>
    <tag k="source_ref" v="extrapolation"/>
  </node>
  <node id="351428604" version="3" timestamp="2009-08-24T22:59:27Z" uid="36809" user="pfoten_weg_!_" changeset="2250929" lat="52.2641671" lon="13.1202503">
    <tag k="discovered_by" v="RambaZamba"/>
    <tag k="power" v="tower"/>
    <tag k="ref" v="226"/>
  </node>
  <node id="351428604" version="4" timestamp="2009-08-28T19:42:10Z" uid="156995" user="HampelZamba" changeset="2294580" lat="52.2641671" lon="13.1202503">
    <tag k="power" v="tower"/>
    <tag k="ref" v="226"/>
  </node>
  <node id="351428604" version="5" timestamp="2009-08-28T22:01:01Z" uid="36809" user="pfoten_weg_!_" changeset="2295805" lat="52.2641671" lon="13.1202503">
    <tag k="discovered_by" v="RambaZamba"/>
    <tag k="power" v="tower"/>
    <tag k="ref" v="226"/>
    <tag k="source" v="survey"/>
  </node>
  <node id="351428604" version="6" timestamp="2009-08-30T04:54:34Z" uid="156995" user="HampelZamba" changeset="2308696" lat="52.2641671" lon="13.1202503">
    <tag k="power" v="tower"/>
    <tag k="ref" v="226"/>
    <tag k="source" v="survey"/>
  </node>
  <node id="351428604" version="7" timestamp="2009-09-25T16:57:43Z" uid="36809" user="pfoten_weg_!_" changeset="2623140" lat="52.2641671" lon="13.1202503">
    <tag k="power" v="tower"/>
    <tag k="ref" v="226"/>
    <tag k="source" v="survey"/>
  </node>
  <node id="351428604" version="8" timestamp="2010-02-03T11:52:54Z" uid="13203" user="bahnpirat" changeset="3782397" lat="52.2641671" lon="13.1202503">
    <tag k="power" v="tower"/>
    <tag k="ref" v="226"/>
    <tag k="source" v="survey"/>
  </node>
  <node id="351428604" version="9" timestamp="2011-06-21T20:24:01Z" uid="13203" user="bahnpirat" changeset="8508363" lat="52.2641671" lon="13.1202503">
    <tag k="note" v="Mastnummern 2011 um -180 Zähler geändert"/>
    <tag k="old_ref" v="226"/>
    <tag k="power" v="tower"/>
    <tag k="ref" v="46"/>
    <tag k="source" v="Yahoo"/>
    <tag k="source:old_ref" v="survey"/>
  </node>
  <node id="351428607" version="5" timestamp="2009-09-25T16:57:43Z" uid="36809" user="pfoten_weg_!_" changeset="2623140" lat="52.362825" lon="12.789459">
    <tag k="power" v="tower"/>
    <tag k="ref" v="308"/>
  </node>
  <node id="351428607" version="6" timestamp="2011-06-21T20:24:01Z" uid="13203" user="bahnpirat" changeset="8508363" lat="52.362825" lon="12.789459">
    <tag k="note" v="Mastnummern 2011 um -180 Zähler geändert"/>
    <tag k="old_ref" v="308"/>
    <tag k="power" v="tower"/>
    <tag k="ref" v="128"/>
    <tag k="source" v="Yahoo"/>
  </node>
  <node id="351428614" version="5" timestamp="2009-09-25T16:57:42Z" uid="36809" user="pfoten_weg_!_" changeset="2623140" lat="52.365524" lon="12.791176">
    <tag k="power" v="tower"/>
    <tag k="ref" v="309"/>
  </node>
  <node id="351428614" version="6" timestamp="2011-06-21T20:24:01Z" uid="13203" user="bahnpirat" changeset="8508363" lat="52.365524" lon="12.791176">
    <tag k="note" v="Mastnummern 2011 um -180 Zähler geändert"/>
    <tag k="old_ref" v="309"/>
    <tag k="power" v="tower"/>
    <tag k="ref" v="129"/>
    <tag k="source" v="Yahoo"/>
  </node>
  <node id="351428628" version="5" timestamp="2009-09-25T16:57:42Z" uid="36809" user="pfoten_weg_!_" changeset="2623140" lat="52.357741" lon="12.786155">
    <tag k="power" v="tower"/>
    <tag k="ref" v="306"/>
  </node>
  <node id="351428628" version="6" timestamp="2011-06-21T20:24:02Z" uid="13203" user="bahnpirat" changeset="8508363" lat="52.357741" lon="12.786155">
    <tag k="note" v="Mastnummern 2011 um -180 Zähler geändert"/>
    <tag k="old_ref" v="306"/>
    <tag k="power" v="tower"/>
    <tag k="ref" v="126"/>
    <tag k="source" v="Yahoo"/>
  </node>
  <node id="351428635" version="5" timestamp="2009-09-25T16:57:43Z" uid="36809" user="pfoten_weg_!_" changeset="2623140" lat="52.352282" lon="12.787185">
    <tag k="power" v="tower"/>
    <tag k="ref" v="304"/>
  </node>
  <node id="351428635" version="6" timestamp="2011-06-21T20:24:02Z" uid="13203" user="bahnpirat" changeset="8508363" lat="52.352282" lon="12.787185">
    <tag k="note" v="Mastnummern 2011 um -180 Zähler geändert"/>
    <tag k="old_ref" v="304"/>
    <tag k="power" v="tower"/>
    <tag k="ref" v="124"/>
    <tag k="source" v="Yahoo"/>
  </node>
  <node id="351428637" version="5" timestamp="2009-09-25T16:57:47Z" uid="36809" user="pfoten_weg_!_" changeset="2623140" lat="52.349595" lon="12.790114">
    <tag k="power" v="tower"/>
    <tag k="ref" v="303"/>
  </node>
  <node id="351428637" version="6" timestamp="2011-06-21T20:24:02Z" uid="13203" user="bahnpirat" changeset="8508363" lat="52.349595" lon="12.790114">
    <tag k="note" v="Mastnummern 2011 um -180 Zähler geändert"/>
    <tag k="old_ref" v="303"/>
    <tag k="power" v="tower"/>
    <tag k="ref" v="123"/>
    <tag k="source" v="Yahoo"/>
  </node>
  <node id="351428643" version="5" timestamp="2009-09-25T16:57:47Z" uid="36809" user="pfoten_weg_!_" changeset="2623140" lat="52.34704" lon="12.792978">
    <tag k="power" v="tower"/>
    <tag k="ref" v="302"/>
  </node>
  <node id="351428643" version="6" timestamp="2011-06-21T20:24:02Z" uid="13203" user="bahnpirat" changeset="8508363" lat="52.34704" lon="12.792978">
    <tag k="note" v="Mastnummern 2011 um -180 Zähler geändert"/>
    <tag k="old_ref" v="302"/>
    <tag k="power" v="tower"/>
    <tag k="ref" v="122"/>
    <tag k="source" v="Yahoo"/>
  </node>
  <node id="351428648" version="5" timestamp="2009-09-25T16:57:48Z" uid="36809" user="pfoten_weg_!_" changeset="2623140" lat="52.344516" lon="12.795768">
    <tag k="power" v="tower"/>
    <tag k="ref" v="301"/>
  </node>
  <node id="351428648" version="6" timestamp="2011-06-21T20:24:02Z" uid="13203" user="bahnpirat" changeset="8508363" lat="52.344516" lon="12.795768">
    <tag k="note" v="Mastnummern 2011 um -180 Zähler geändert"/>
    <tag k="old_ref" v="301"/>
    <tag k="power" v="tower"/>
    <tag k="ref" v="121"/>
    <tag k="source" v="Yahoo"/>
  </node>
  <node id="351428649" version="5" timestamp="2009-09-25T16:57:49Z" uid="36809" user="pfoten_weg_!_" changeset="2623140" lat="52.342058" lon="12.79845">
    <tag k="power" v="tower"/>
    <tag k="ref" v="300"/>
  </node>
  <node id="351428649" version="6" timestamp="2011-06-21T20:24:02Z" uid="13203" user="bahnpirat" changeset="8508363" lat="52.342058" lon="12.79845">
    <tag k="note" v="Mastnummern 2011 um -180 Zähler geändert"/>
    <tag k="old_ref" v="300"/>
    <tag k="power" v="tower"/>
    <tag k="ref" v="120"/>
    <tag k="source" v="Yahoo"/>
  </node>
  <node id="351428651" version="5" timestamp="2009-09-25T16:57:49Z" uid="36809" user="pfoten_weg_!_" changeset="2623140" lat="52.339764" lon="12.801036">
    <tag k="power" v="tower"/>
    <tag k="ref" v="299"/>
  </node>
  <node id="351428651" version="6" timestamp="2011-06-21T20:24:02Z" uid="13203" user="bahnpirat" changeset="8508363" lat="52.339764" lon="12.801036">
    <tag k="note" v="Mastnummern 2011 um -180 Zähler geändert"/>
    <tag k="old_ref" v="299"/>
    <tag k="power" v="tower"/>
    <tag k="ref" v="119"/>
    <tag k="source" v="Yahoo"/>
  </node>
  <node id="351428652" version="5" timestamp="2009-09-25T16:57:50Z" uid="36809" user="pfoten_weg_!_" changeset="2623140" lat="52.337322" lon="12.803696">
    <tag k="power" v="tower"/>
    <tag k="ref" v="298"/>
  </node>
  <node id="351428652" version="6" timestamp="2011-06-21T20:24:02Z" uid="13203" user="bahnpirat" changeset="8508363" lat="52.337322" lon="12.803696">
    <tag k="note" v="Mastnummern 2011 um -180 Zähler geändert"/>
    <tag k="old_ref" v="298"/>
    <tag k="power" v="tower"/>
    <tag k="ref" v="118"/>
    <tag k="source" v="Yahoo"/>
  </node>
  <node id="351428658" version="5" timestamp="2009-09-25T16:57:44Z" uid="36809" user="pfoten_weg_!_" changeset="2623140" lat="52.33488" lon="12.80633">
    <tag k="power" v="tower"/>
    <tag k="ref" v="297"/>
  </node>
  <node id="351428658" version="6" timestamp="2011-06-21T20:24:03Z" uid="13203" user="bahnpirat" changeset="8508363" lat="52.33488" lon="12.80633">
    <tag k="note" v="Mastnummern 2011 um -180 Zähler geändert"/>
    <tag k="old_ref" v="297"/>
    <tag k="power" v="tower"/>
    <tag k="ref" v="117"/>
    <tag k="source" v="Yahoo"/>
  </node>
  <node id="351428659" version="5" timestamp="2009-09-25T16:57:44Z" uid="36809" user="pfoten_weg_!_" changeset="2623140" lat="52.332297" lon="12.809216">
    <tag k="power" v="tower"/>
    <tag k="ref" v="296"/>
  </node>
  <node id="351428659" version="6" timestamp="2011-06-21T20:24:03Z" uid="13203" user="bahnpirat" changeset="8508363" lat="52.332297" lon="12.809216">
    <tag k="note" v="Mastnummern 2011 um -180 Zähler geändert"/>
    <tag k="old_ref" v="296"/>
    <tag k="power" v="tower"/>
    <tag k="ref" v="116"/>
    <tag k="source" v="Yahoo"/>
  </node>
  <node id="351428664" version="5" timestamp="2009-09-25T16:57:45Z" uid="36809" user="pfoten_weg_!_" changeset="2623140" lat="52.329724" lon="12.812097">
    <tag k="power" v="tower"/>
    <tag k="ref" v="295"/>
  </node>
  <node id="351428664" version="6" timestamp="2011-06-21T20:24:03Z" uid="13203" user="bahnpirat" changeset="8508363" lat="52.329724" lon="12.812097">
    <tag k="note" v="Mastnummern 2011 um -180 Zähler geändert"/>
    <tag k="old_ref" v="295"/>
    <tag k="power" v="tower"/>
    <tag k="ref" v="115"/>
    <tag k="source" v="Yahoo"/>
  </node>
  <node id="351428666" version="4" timestamp="2009-09-25T16:57:45Z" uid="36809" user="pfoten_weg_!_" changeset="2623140" lat="52.327104" lon="12.814951">
    <tag k="power" v="tower"/>
    <tag k="ref" v="294"/>
  </node>
  <node id="351428666" version="5" timestamp="2011-06-21T20:24:03Z" uid="13203" user="bahnpirat" changeset="8508363" lat="52.327104" lon="12.814951">
    <tag k="note" v="Mastnummern 2011 um -180 Zähler geändert"/>
    <tag k="old_ref" v="294"/>
    <tag k="power" v="tower"/>
    <tag k="ref" v="114"/>
    <tag k="source" v="Yahoo"/>
  </node>
  <node id="351428668" version="4" timestamp="2009-09-25T16:57:44Z" uid="36809" user="pfoten_weg_!_" changeset="2623140" lat="52.324567" lon="12.817751">
    <tag k="power" v="tower"/>
    <tag k="ref" v="293"/>
  </node>
  <node id="351428668" version="5" timestamp="2011-06-21T20:24:03Z" uid="13203" user="bahnpirat" changeset="8508363" lat="52.324567" lon="12.817751">
    <tag k="note" v="Mastnummern 2011 um -180 Zähler geändert"/>
    <tag k="old_ref" v="293"/>
    <tag k="power" v="tower"/>
    <tag k="ref" v="113"/>
    <tag k="source" v="Yahoo"/>
  </node>
  <node id="351428670" version="4" timestamp="2009-09-25T16:57:47Z" uid="36809" user="pfoten_weg_!_" changeset="2623140" lat="52.321983" lon="12.82068">
    <tag k="power" v="tower"/>
    <tag k="ref" v="292"/>
  </node>
  <node id="351428670" version="5" timestamp="2011-06-21T20:24:04Z" uid="13203" user="bahnpirat" changeset="8508363" lat="52.321983" lon="12.82068">
    <tag k="note" v="Mastnummern 2011 um -180 Zähler geändert"/>
    <tag k="old_ref" v="292"/>
    <tag k="power" v="tower"/>
    <tag k="ref" v="112"/>
    <tag k="source" v="Yahoo"/>
  </node>
  <node id="351428675" version="5" timestamp="2009-09-25T16:57:46Z" uid="36809" user="pfoten_weg_!_" changeset="2623140" lat="52.368361" lon="12.79301">
    <tag k="power" v="tower"/>
    <tag k="ref" v="310"/>
  </node>
  <node id="351428675" version="6" timestamp="2011-06-21T20:24:04Z" uid="13203" user="bahnpirat" changeset="8508363" lat="52.368361" lon="12.79301">
    <tag k="note" v="Mastnummern 2011 um -180 Zähler geändert"/>
    <tag k="old_ref" v="310"/>
    <tag k="power" v="tower"/>
    <tag k="ref" v="130"/>
    <tag k="source" v="Yahoo"/>
  </node>
  <node id="351428678" version="5" timestamp="2009-09-25T16:57:45Z" uid="36809" user="pfoten_weg_!_" changeset="2623140" lat="52.371263" lon="12.794888">
    <tag k="power" v="tower"/>
    <tag k="ref" v="311"/>
  </node>
  <node id="351428678" version="6" timestamp="2011-06-21T20:24:04Z" uid="13203" user="bahnpirat" changeset="8508363" lat="52.371263" lon="12.794888">
    <tag k="note" v="Mastnummern 2011 um -180 Zähler geändert"/>
    <tag k="old_ref" v="311"/>
    <tag k="power" v="tower"/>
    <tag k="ref" v="131"/>
    <tag k="source" v="Yahoo"/>
  </node>
  <node id="351428679" version="5" timestamp="2009-09-25T16:57:46Z" uid="36809" user="pfoten_weg_!_" changeset="2623140" lat="52.373693" lon="12.796422">
    <tag k="power" v="tower"/>
    <tag k="ref" v="312"/>
  </node>
  <node id="351428679" version="6" timestamp="2011-06-21T20:24:05Z" uid="13203" user="bahnpirat" changeset="8508363" lat="52.373693" lon="12.796422">
    <tag k="note" v="Mastnummern 2011 um -180 Zähler geändert"/>
    <tag k="old_ref" v="312"/>
    <tag k="power" v="tower"/>
    <tag k="ref" v="132"/>
    <tag k="source" v="Yahoo"/>
  </node>
  <node id="351428684" version="5" timestamp="2009-09-25T16:57:26Z" uid="36809" user="pfoten_weg_!_" changeset="2623140" lat="52.376346" lon="12.798171">
    <tag k="power" v="tower"/>
    <tag k="ref" v="313"/>
  </node>
  <node id="351428684" version="6" timestamp="2011-06-21T20:24:05Z" uid="13203" user="bahnpirat" changeset="8508363" lat="52.376346" lon="12.798171">
    <tag k="note" v="Mastnummern 2011 um -180 Zähler geändert"/>
    <tag k="old_ref" v="313"/>
    <tag k="power" v="tower"/>
    <tag k="ref" v="131"/>
    <tag k="source" v="Yahoo"/>
  </node>
  <node id="351428685" version="5" timestamp="2009-09-25T16:57:27Z" uid="36809" user="pfoten_weg_!_" changeset="2623140" lat="52.378887" lon="12.799791">
    <tag k="power" v="tower"/>
    <tag k="ref" v="314"/>
  </node>
  <node id="351428685" version="6" timestamp="2011-06-21T20:24:05Z" uid="13203" user="bahnpirat" changeset="8508363" lat="52.378887" lon="12.799791">
    <tag k="note" v="Mastnummern 2011 um -180 Zähler geändert"/>
    <tag k="old_ref" v="314"/>
    <tag k="power" v="tower"/>
    <tag k="ref" v="134"/>
    <tag k="source" v="Yahoo"/>
  </node>
  <node id="351428688" version="6" timestamp="2009-09-25T16:57:26Z" uid="36809" user="pfoten_weg_!_" changeset="2623140" lat="52.381395" lon="12.801411">
    <tag k="power" v="tower"/>
    <tag k="ref" v="315"/>
  </node>
  <node id="351428688" version="7" timestamp="2011-06-21T20:24:06Z" uid="13203" user="bahnpirat" changeset="8508363" lat="52.381395" lon="12.801411">
    <tag k="note" v="Mastnummern 2011 um -180 Zähler geändert"/>
    <tag k="old_ref" v="315"/>
    <tag k="power" v="tower"/>
    <tag k="ref" v="135"/>
    <tag k="source" v="Yahoo"/>
  </node>
  <node id="351428689" version="6" timestamp="2009-09-25T16:57:26Z" uid="36809" user="pfoten_weg_!_" changeset="2623140" lat="52.383976" lon="12.803085">
    <tag k="power" v="tower"/>
    <tag k="ref" v="316"/>
  </node>
  <node id="351428689" version="7" timestamp="2011-06-21T20:24:06Z" uid="13203" user="bahnpirat" changeset="8508363" lat="52.383976" lon="12.803085">
    <tag k="note" v="Mastnummern 2011 um -180 Zähler geändert"/>
    <tag k="old_ref" v="316"/>
    <tag k="power" v="tower"/>
    <tag k="ref" v="136"/>
    <tag k="source" v="Yahoo"/>
  </node>
  <node id="351428693" version="6" timestamp="2009-09-25T16:57:25Z" uid="36809" user="pfoten_weg_!_" changeset="2623140" lat="52.386772" lon="12.802538">
    <tag k="power" v="tower"/>
    <tag k="ref" v="317"/>
  </node>
  <node id="351428693" version="7" timestamp="2011-06-21T20:24:06Z" uid="13203" user="bahnpirat" changeset="8508363" lat="52.386772" lon="12.802538">
    <tag k="note" v="Mastnummern 2011 um -180 Zähler geändert"/>
    <tag k="old_ref" v="317"/>
    <tag k="power" v="tower"/>
    <tag k="ref" v="137"/>
    <tag k="source" v="Yahoo"/>
  </node>
  <node id="351428696" version="6" timestamp="2009-09-25T16:57:25Z" uid="36809" user="pfoten_weg_!_" changeset="2623140" lat="52.3895873" lon="12.802098">
    <tag k="power" v="tower"/>
    <tag k="ref" v="318"/>
  </node>
  <node id="351428696" version="7" timestamp="2011-06-21T20:24:06Z" uid="13203" user="bahnpirat" changeset="8508363" lat="52.3895736" lon="12.80202">
    <tag k="note" v="Mastnummern 2011 um -180 Zähler geändert"/>
    <tag k="old_ref" v="318"/>
    <tag k="power" v="tower"/>
    <tag k="ref" v="138"/>
    <tag k="source" v="Yahoo"/>
  </node>
  <node id="351428697" version="6" timestamp="2009-09-25T16:57:25Z" uid="36809" user="pfoten_weg_!_" changeset="2623140" lat="52.392475" lon="12.801368">
    <tag k="power" v="tower"/>
    <tag k="ref" v="319"/>
  </node>
  <node id="351428697" version="7" timestamp="2011-06-21T20:24:06Z" uid="13203" user="bahnpirat" changeset="8508363" lat="52.392475" lon="12.801368">
    <tag k="note" v="Mastnummern 2011 um -180 Zähler geändert"/>
    <tag k="old_ref" v="319"/>
    <tag k="power" v="tower"/>
    <tag k="ref" v="139"/>
    <tag k="source" v="Yahoo"/>
  </node>
  <node id="351428700" version="6" timestamp="2009-09-25T16:57:28Z" uid="36809" user="pfoten_weg_!_" changeset="2623140" lat="52.395211" lon="12.800853">
    <tag k="power" v="tower"/>
    <tag k="ref" v="320"/>
  </node>
  <node id="351428700" version="7" timestamp="2011-06-21T20:24:06Z" uid="13203" user="bahnpirat" changeset="8508363" lat="52.395211" lon="12.800853">
    <tag k="note" v="Mastnummern 2011 um -180 Zähler geändert"/>
    <tag k="old_ref" v="320"/>
    <tag k="power" v="tower"/>
    <tag k="ref" v="140"/>
    <tag k="source" v="Yahoo"/>
  </node>
  <node id="351428704" version="6" timestamp="2009-09-25T16:57:30Z" uid="36809" user="pfoten_weg_!_" changeset="2623140" lat="52.398138" lon="12.800263">
    <tag k="power" v="tower"/>
    <tag k="ref" v="321"/>
  </node>
  <node id="351428704" version="7" timestamp="2011-06-21T20:24:06Z" uid="13203" user="bahnpirat" changeset="8508363" lat="52.398138" lon="12.800263">
    <tag k="note" v="Mastnummern 2011 um -180 Zähler geändert"/>
    <tag k="old_ref" v="321"/>
    <tag k="power" v="tower"/>
    <tag k="ref" v="141"/>
    <tag k="source" v="Yahoo"/>
  </node>
  <node id="351428705" version="6" timestamp="2009-09-25T16:57:29Z" uid="36809" user="pfoten_weg_!_" changeset="2623140" lat="52.400998" lon="12.799716">
    <tag k="power" v="tower"/>
    <tag k="ref" v="322"/>
  </node>
  <node id="351428705" version="7" timestamp="2011-06-21T20:24:07Z" uid="13203" user="bahnpirat" changeset="8508363" lat="52.400998" lon="12.799716">
    <tag k="note" v="Mastnummern 2011 um -180 Zähler geändert"/>
    <tag k="old_ref" v="322"/>
    <tag k="power" v="tower"/>
    <tag k="ref" v="142"/>
    <tag k="source" v="Yahoo"/>
  </node>
  <node id="351428707" version="6" timestamp="2009-09-25T16:57:29Z" uid="36809" user="pfoten_weg_!_" changeset="2623140" lat="52.403833" lon="12.799115">
    <tag k="power" v="tower"/>
    <tag k="ref" v="323"/>
  </node>
  <node id="351428707" version="7" timestamp="2011-06-21T20:24:07Z" uid="13203" user="bahnpirat" changeset="8508363" lat="52.403833" lon="12.799115">
    <tag k="note" v="Mastnummern 2011 um -180 Zähler geändert"/>
    <tag k="old_ref" v="323"/>
    <tag k="power" v="tower"/>
    <tag k="ref" v="143"/>
    <tag k="source" v="Yahoo"/>
  </node>
  <node id="351428711" version="6" timestamp="2009-09-25T16:57:30Z" uid="36809" user="pfoten_weg_!_" changeset="2623140" lat="52.407047" lon="12.798471">
    <tag k="power" v="tower"/>
    <tag k="ref" v="324"/>
  </node>
  <node id="351428711" version="7" timestamp="2011-06-21T20:24:07Z" uid="13203" user="bahnpirat" changeset="8508363" lat="52.407047" lon="12.798471">
    <tag k="note" v="Mastnummern 2011 um -180 Zähler geändert"/>
    <tag k="old_ref" v="324"/>
    <tag k="power" v="tower"/>
    <tag k="ref" v="144"/>
    <tag k="source" v="Yahoo"/>
  </node>
  <node id="351428714" version="6" timestamp="2009-09-25T16:57:31Z" uid="36809" user="pfoten_weg_!_" changeset="2623140" lat="52.409723" lon="12.797956">
    <tag k="power" v="tower"/>
    <tag k="ref" v="325"/>
  </node>
  <node id="351428714" version="7" timestamp="2011-06-21T20:24:07Z" uid="13203" user="bahnpirat" changeset="8508363" lat="52.409723" lon="12.797956">
    <tag k="note" v="Mastnummern 2011 um -180 Zähler geändert"/>
    <tag k="old_ref" v="325"/>
    <tag k="power" v="tower"/>
    <tag k="ref" v="145"/>
    <tag k="source" v="Yahoo"/>
  </node>
  <node id="351428715" version="6" timestamp="2009-09-25T16:57:31Z" uid="36809" user="pfoten_weg_!_" changeset="2623140" lat="52.412721" lon="12.797366">
    <tag k="power" v="tower"/>
    <tag k="ref" v="326"/>
  </node>
  <node id="351428715" version="7" timestamp="2011-06-21T20:24:07Z" uid="13203" user="bahnpirat" changeset="8508363" lat="52.412721" lon="12.797366">
    <tag k="note" v="Mastnummern 2011 um -180 Zähler geändert"/>
    <tag k="old_ref" v="326"/>
    <tag k="power" v="tower"/>
    <tag k="ref" v="146"/>
    <tag k="source" v="Yahoo"/>
  </node>
  <node id="351428718" version="6" timestamp="2009-09-25T16:57:31Z" uid="36809" user="pfoten_weg_!_" changeset="2623140" lat="52.41541" lon="12.796819">
    <tag k="power" v="tower"/>
    <tag k="ref" v="327"/>
  </node>
  <node id="351428718" version="7" timestamp="2011-06-21T20:24:08Z" uid="13203" user="bahnpirat" changeset="8508363" lat="52.41541" lon="12.796819">
    <tag k="note" v="Mastnummern 2011 um -180 Zähler geändert"/>
    <tag k="old_ref" v="327"/>
    <tag k="power" v="tower"/>
    <tag k="ref" v="147"/>
    <tag k="source" v="Yahoo"/>
  </node>
  <node id="351428724" version="6" timestamp="2009-09-25T16:57:32Z" uid="36809" user="pfoten_weg_!_" changeset="2623140" lat="52.417995" lon="12.796336">
    <tag k="power" v="tower"/>
    <tag k="ref" v="328"/>
  </node>
  <node id="351428724" version="7" timestamp="2011-06-21T20:24:08Z" uid="13203" user="bahnpirat" changeset="8508363" lat="52.4179945" lon="12.7963584">
    <tag k="note" v="Mastnummern 2011 um -180 Zähler geändert"/>
    <tag k="old_ref" v="328"/>
    <tag k="power" v="tower"/>
    <tag k="ref" v="148"/>
    <tag k="source" v="Yahoo"/>
  </node>
  <node id="351429771" version="7" timestamp="2009-07-27T16:44:59Z" uid="123517" user="Qichina" changeset="1957218" lat="51.6915898" lon="0.6222293"/>
  <node id="351429771" version="8" timestamp="2012-01-23T12:16:12Z" uid="57884" user="EdLoach" changeset="10474694" lat="51.6915898" lon="0.6222293"/>
  <node id="351429778" version="4" timestamp="2009-07-27T16:44:59Z" uid="123517" user="Qichina" changeset="1957218" lat="51.6919336" lon="0.6209011"/>
  <node id="351429778" version="5" timestamp="2012-02-06T09:49:21Z" uid="57884" user="EdLoach" changeset="10601354" lat="51.6919336" lon="0.6209011"/>
  <node id="351429792" version="4" timestamp="2009-07-27T16:44:59Z" uid="123517" user="Qichina" changeset="1957218" lat="51.6922743" lon="0.6195991"/>
  <node id="351429792" version="5" timestamp="2012-02-06T09:49:21Z" uid="57884" user="EdLoach" changeset="10601354" lat="51.6922743" lon="0.6195991"/>
  <node id="351423986" version="2" timestamp="2012-07-18T17:16:17Z" uid="722137" user="OSMF Redaction Account" changeset="12290254" lat="52.9117042" lon="10.6034536"/>
  <node id="351423992" version="3" timestamp="2012-07-18T17:12:33Z" uid="722137" user="OSMF Redaction Account" changeset="12290088" lat="52.9121734" lon="10.603863"/>
  <node id="351423992" version="4" timestamp="2012-08-19T15:48:14Z" uid="167471" user="Anhäufer" changeset="12785228" lat="52.9122003" lon="10.6038022"/>
  <node id="351423996" version="3" timestamp="2012-08-19T15:48:14Z" uid="167471" user="Anhäufer" changeset="12785228" lat="52.9126299" lon="10.6032709"/>
  <node id="351424004" version="2" timestamp="2012-07-18T17:16:18Z" uid="722137" user="OSMF Redaction Account" changeset="12290254" lat="52.9123187" lon="10.6022002"/>
</osm>
