<?xml version='1.0' encoding='UTF-8'?>
<osm version="0.6" generator="libosmium/2.20.0">
  <node id="351620650" version="1" timestamp="2009-02-24T17:15:11Z" uid="58091" user="Andreas M" changeset="656764" lat="48.2335849" lon="16.3835319">
    <tag k="amenity" v="bicycle_rental"/>
    <tag k="construction" v="yes"/>
    <tag k="fixme" v="Noch nicht in Betrieb; name, ref und spaces geschätzt"/>
    <tag k="name" v="Traisengasse"/>
    <tag k="network" v="Citybike Wien"/>
    <tag k="ref" v="2004"/>
    <tag k="spaces" v="22"/>
    <tag k="url" v="http://www.citybikewien.at/"/>
  </node>
  <node id="351620650" version="2" timestamp="2009-07-14T04:41:45Z" uid="58091" user="Andreas M" changeset="1823373" lat="48.2335849" lon="16.3835319">
    <tag k="amenity" v="bicycle_rental"/>
    <tag k="name" v="Traisengasse"/>
    <tag k="network" v="Citybike Wien"/>
    <tag k="ref" v="2004"/>
    <tag k="spaces" v="24"/>
    <tag k="url" v="http://www.citybikewien.at/"/>
  </node>
  <node id="351620650" version="3" timestamp="2009-10-03T20:41:31Z" uid="114161" user="Polarbear" changeset="2729160" lat="48.2335849" lon="16.3835319">
    <tag k="amenity" v="bicycle_rental"/>
    <tag k="capacity" v="24"/>
    <tag k="name" v="Traisengasse"/>
    <tag k="network" v="Citybike Wien"/>
    <tag k="ref" v="2004"/>
    <tag k="url" v="http://www.citybikewien.at/"/>
  </node>
  <node id="351620650" version="4" timestamp="2010-09-20T12:47:46Z" uid="65148" user="Pirat Michi" changeset="5828900" lat="48.2335849" lon="16.3835319">
    <tag k="amenity" v="bicycle_rental"/>
    <tag k="capacity" v="24"/>
    <tag k="name" v="Traisengasse"/>
    <tag k="network" v="Citybike Wien"/>
    <tag k="ref" v="2004"/>
    <tag k="website" v="http://www.citybikewien.at/"/>
  </node>
  <node id="351620650" version="5" timestamp="2011-04-15T11:21:48Z" uid="56501" user="Rudolf_H" changeset="7868766" lat="48.2337856" lon="16.3832083">
    <tag k="amenity" v="bicycle_rental"/>
    <tag k="capacity" v="24"/>
    <tag k="name" v="Traisengasse"/>
    <tag k="network" v="Citybike Wien"/>
    <tag k="ref" v="2004"/>
    <tag k="website" v="http://www.citybikewien.at/"/>
  </node>
  <node id="351620650" version="6" timestamp="2011-08-15T08:44:49Z" uid="56501" user="Rudolf_H" changeset="9024477" lat="48.2338694" lon="16.3831836">
    <tag k="amenity" v="bicycle_rental"/>
    <tag k="capacity" v="24"/>
    <tag k="name" v="Traisengasse"/>
    <tag k="network" v="Citybike Wien"/>
    <tag k="ref" v="2004"/>
    <tag k="website" v="http://www.citybikewien.at/"/>
  </node>
  <node id="351620650" version="7" timestamp="2012-03-18T14:35:28Z" uid="56501" user="Rudolf_H" changeset="11019565" lat="48.2338694" lon="16.3831836"/>
  <node id="351628384" version="1" timestamp="2009-02-24T17:20:00Z" uid="58091" user="Andreas M" changeset="656764" lat="48.2002836" lon="16.3613045">
    <tag k="addr:city" v="Wien"/>
    <tag k="addr:housenumber" v="10-12"/>
    <tag k="addr:postcode" v="1060"/>
    <tag k="addr:street" v="Gumpendorfer Straße"/>
    <tag k="amenity" v="nightclub"/>
    <tag k="name" v="bar.phil"/>
    <tag k="url" v="http://phil.info/"/>
  </node>
  <node id="351628384" version="2" timestamp="2009-04-03T22:58:34Z" uid="9494" user="habicht" changeset="177482" lat="48.2002838" lon="16.3613029">
    <tag k="addr:city" v="Wien"/>
    <tag k="addr:housenumber" v="10-12"/>
    <tag k="addr:postcode" v="1060"/>
    <tag k="addr:street" v="Gumpendorfer Straße"/>
    <tag k="amenity" v="cafe"/>
    <tag k="created_by" v="Potlatch 0.10f"/>
    <tag k="name" v="bar.phil"/>
    <tag k="url" v="http://phil.info/"/>
  </node>
  <node id="351628384" version="3" timestamp="2009-05-19T17:25:01Z" uid="117941" user="jimik2" changeset="1252097" lat="48.2002234" lon="16.3611996">
    <tag k="addr:city" v="Wien"/>
    <tag k="addr:housenumber" v="10-12"/>
    <tag k="addr:postcode" v="1060"/>
    <tag k="addr:street" v="Gumpendorfer Straße"/>
    <tag k="amenity" v="cafe"/>
    <tag k="created_by" v="Potlatch 0.10f"/>
    <tag k="name" v="phil"/>
    <tag k="url" v="http://phil.info/"/>
  </node>
  <node id="351628384" version="4" timestamp="2010-07-03T18:32:53Z" uid="309463" user="gastromat" changeset="5126699" lat="48.2002234" lon="16.3611996">
    <tag k="addr:city" v="Wien"/>
    <tag k="addr:housenumber" v="10-12"/>
    <tag k="addr:postcode" v="1060"/>
    <tag k="addr:street" v="Gumpendorfer Straße"/>
    <tag k="amenity" v="cafe"/>
    <tag k="name" v="phil"/>
    <tag k="smoking" v="no"/>
    <tag k="url" v="http://phil.info/"/>
  </node>
  <node id="351628384" version="5" timestamp="2010-09-20T12:49:21Z" uid="65148" user="Pirat Michi" changeset="5828900" lat="48.2002234" lon="16.3611996">
    <tag k="addr:city" v="Wien"/>
    <tag k="addr:housenumber" v="10-12"/>
    <tag k="addr:postcode" v="1060"/>
    <tag k="addr:street" v="Gumpendorfer Straße"/>
    <tag k="amenity" v="cafe"/>
    <tag k="name" v="phil"/>
    <tag k="smoking" v="no"/>
    <tag k="website" v="http://phil.info/"/>
  </node>
  <node id="351628384" version="6" timestamp="2011-07-16T11:10:34Z" uid="290680" user="wheelmap_visitor" changeset="8737165" lat="48.2002234" lon="16.3611996">
    <tag k="addr:city" v="Wien"/>
    <tag k="addr:housenumber" v="10-12"/>
    <tag k="addr:postcode" v="1060"/>
    <tag k="addr:street" v="Gumpendorfer Straße"/>
    <tag k="amenity" v="cafe"/>
    <tag k="name" v="phil"/>
    <tag k="smoking" v="no"/>
    <tag k="website" v="http://phil.info/"/>
    <tag k="wheelchair" v="limited"/>
  </node>
  <node id="351628576" version="3" timestamp="2009-03-08T14:17:14Z" uid="6975" user="ulfl" changeset="757880" lat="48.8206965" lon="11.4618551">
    <tag k="amenity" v="driving_school"/>
    <tag k="name" v="Fahrschule Langer"/>
  </node>
  <node id="351628576" version="4" timestamp="2009-08-25T19:29:57Z" uid="162465" user="ckol" changeset="2260737" lat="48.8207023" lon="11.4618609">
    <tag k="amenity" v="driving_school"/>
    <tag k="name" v="Fahrschule Langer"/>
  </node>
  <node id="351628576" version="5" timestamp="2012-01-29T15:23:35Z" uid="162465" user="ckol" changeset="10531088" lat="48.8207023" lon="11.4618609"/>
  <node id="351628384" version="7" timestamp="2012-05-24T12:41:03Z" uid="579739" user="grimnirson" changeset="11689379" lat="48.2002468" lon="16.3611169">
    <tag k="addr:city" v="Wien"/>
    <tag k="addr:housenumber" v="10-12"/>
    <tag k="addr:postcode" v="1060"/>
    <tag k="addr:street" v="Gumpendorfer Straße"/>
    <tag k="amenity" v="cafe"/>
    <tag k="name" v="phil"/>
    <tag k="smoking" v="no"/>
    <tag k="website" v="http://phil.info/"/>
    <tag k="wheelchair" v="limited"/>
  </node>
  <node id="351628384" version="8" timestamp="2012-07-17T00:22:44Z" uid="722137" user="OSMF Redaction Account" changeset="12254115" lat="48.2002468" lon="16.3611169">
    <tag k="amenity" v="cafe"/>
    <tag k="name" v="phil"/>
    <tag k="smoking" v="no"/>
    <tag k="website" v="http://phil.info/"/>
    <tag k="wheelchair" v="limited"/>
  </node>
</osm>
