<?xml version='1.0' encoding='UTF-8'?>
<osm version="0.6" generator="libosmium/2.20.0">
  <node id="351771739" version="1" timestamp="2009-02-24T18:55:42Z" uid="58091" user="Andreas M" changeset="656764" lat="48.1843156" lon="16.3630181">
    <tag k="amenity" v="parking"/>
    <tag k="fee" v="yes"/>
    <tag k="parking" v="underground"/>
  </node>
  <node id="351771739" version="2" timestamp="2011-07-16T13:16:51Z" uid="439883" user="romge" changeset="8739506" lat="48.1844137" lon="16.363032">
    <tag k="addr:city" v="Wien"/>
    <tag k="addr:country" v="AT"/>
    <tag k="addr:housenumber" v="10"/>
    <tag k="addr:postcode" v="1050"/>
    <tag k="addr:street" v="Kliebergasse"/>
    <tag k="amenity" v="parking"/>
    <tag k="capacity" v="152"/>
    <tag k="fee" v="yes"/>
    <tag k="name" v="Klieberpark"/>
    <tag k="opening_hours" v="24/7"/>
    <tag k="parking" v="underground"/>
  </node>
  <node id="351773410" version="2" timestamp="2009-03-08T10:56:04Z" uid="43863" user="Rundling" changeset="755197" lat="53.196494" lon="10.9691509"/>
  <node id="351773431" version="2" timestamp="2009-03-08T10:56:04Z" uid="43863" user="Rundling" changeset="755197" lat="53.196923" lon="10.9695874"/>
  <node id="351773449" version="2" timestamp="2009-03-08T10:56:04Z" uid="43863" user="Rundling" changeset="755197" lat="53.1967122" lon="10.9694432"/>
  <node id="351776421" version="2" timestamp="2011-04-26T17:41:22Z" uid="9581" user="Lobelt" changeset="7977398" lat="50.1522022" lon="7.7217594"/>
  <node id="351776421" version="3" timestamp="2012-03-01T20:29:26Z" uid="336641" user="Der Harry" changeset="10841936" lat="50.1522022" lon="7.7217594"/>
  <node id="351776434" version="2" timestamp="2011-04-26T17:20:23Z" uid="9581" user="Lobelt" changeset="7977162" lat="50.118288" lon="7.8005843">
    <tag k="source" v="local knowledge and gps"/>
  </node>
  <node id="351776434" version="3" timestamp="2012-02-11T22:05:27Z" uid="336641" user="Der Harry" changeset="10658045" lat="50.118288" lon="7.8005843"/>
  <node id="351777245" version="2" timestamp="2011-04-26T17:20:21Z" uid="9581" user="Lobelt" changeset="7977162" lat="50.1175917" lon="7.8009768">
    <tag k="source" v="local knowledge and gps"/>
  </node>
  <node id="351777245" version="3" timestamp="2012-02-11T22:05:27Z" uid="336641" user="Der Harry" changeset="10658045" lat="50.1175917" lon="7.8009768"/>
  <node id="351771739" version="3" timestamp="2012-07-17T00:22:32Z" uid="722137" user="OSMF Redaction Account" changeset="12254115" lat="48.1844137" lon="16.363032">
    <tag k="addr:city" v="Wien"/>
    <tag k="addr:country" v="AT"/>
    <tag k="addr:housenumber" v="10"/>
    <tag k="addr:postcode" v="1050"/>
    <tag k="addr:street" v="Kliebergasse"/>
    <tag k="capacity" v="152"/>
    <tag k="name" v="Klieberpark"/>
    <tag k="opening_hours" v="24/7"/>
  </node>
  <node id="351771739" version="4" timestamp="2012-08-22T10:23:42Z" uid="712596" user="AMosm" changeset="12818741" lat="48.1844074" lon="16.3630908"/>
</osm>
