<?xml version='1.0' encoding='UTF-8'?>
<osm version="0.6" generator="libosmium/2.20.0">
  <node id="353832177" version="1" timestamp="2009-02-28T15:47:46Z" uid="10712" user="Kraeml" changeset="699813" lat="50.1097892" lon="11.4594815"/>
  <node id="353832180" version="1" timestamp="2009-02-28T15:47:46Z" uid="10712" user="Kraeml" changeset="699813" lat="50.1096334" lon="11.4596314"/>
  <node id="353832198" version="1" timestamp="2009-02-28T15:47:49Z" uid="10712" user="Kraeml" changeset="699813" lat="50.1095315" lon="11.4597452"/>
  <node id="353832202" version="1" timestamp="2009-02-28T15:47:50Z" uid="10712" user="Kraeml" changeset="699813" lat="50.1094626" lon="11.4596493"/>
  <node id="353832209" version="1" timestamp="2009-02-28T15:47:50Z" uid="10712" user="Kraeml" changeset="699813" lat="50.1093247" lon="11.4597392"/>
  <node id="353832217" version="1" timestamp="2009-02-28T15:47:50Z" uid="10712" user="Kraeml" changeset="699813" lat="50.1092618" lon="11.4598291"/>
  <node id="353832226" version="1" timestamp="2009-02-28T15:47:50Z" uid="10712" user="Kraeml" changeset="699813" lat="50.1091809" lon="11.459916"/>
  <node id="353832228" version="1" timestamp="2009-02-28T15:47:51Z" uid="10712" user="Kraeml" changeset="699813" lat="50.109079" lon="11.4598351"/>
  <node id="353832230" version="1" timestamp="2009-02-28T15:47:51Z" uid="10712" user="Kraeml" changeset="699813" lat="50.1089412" lon="11.459943"/>
  <node id="353832232" version="1" timestamp="2009-02-28T15:47:51Z" uid="10712" user="Kraeml" changeset="699813" lat="50.1088513" lon="11.4599939"/>
  <node id="353832234" version="1" timestamp="2009-02-28T15:47:52Z" uid="10712" user="Kraeml" changeset="699813" lat="50.1088153" lon="11.4601557"/>
  <node id="353832237" version="1" timestamp="2009-02-28T15:47:52Z" uid="10712" user="Kraeml" changeset="699813" lat="50.1086715" lon="11.4603385"/>
  <node id="353835095" version="2" timestamp="2010-07-29T09:28:26Z" uid="74617" user="JohnSmith" changeset="5344848" lat="52.591992" lon="10.8954128">
    <tag k="amenity" v="emergency_phone"/>
    <tag k="emergency" v="phone"/>
  </node>
  <node id="353835095" version="3" timestamp="2011-02-20T09:47:25Z" uid="39457" user="Markus59" changeset="7339711" lat="52.5919426" lon="10.8952954">
    <tag k="amenity" v="emergency_phone"/>
    <tag k="emergency" v="phone"/>
  </node>
  <node id="353836268" version="2" timestamp="2010-07-29T09:06:03Z" uid="74617" user="JohnSmith" changeset="5344848" lat="52.5874143" lon="10.8510337">
    <tag k="amenity" v="emergency_phone"/>
    <tag k="emergency" v="phone"/>
  </node>
  <node id="353836268" version="3" timestamp="2011-02-20T10:22:58Z" uid="39457" user="Markus59" changeset="7339711" lat="52.5874143" lon="10.8510337">
    <tag k="amenity" v="emergency_phone"/>
    <tag k="emergency" v="phone"/>
  </node>
  <node id="353836928" version="2" timestamp="2010-07-29T09:00:03Z" uid="74617" user="JohnSmith" changeset="5344848" lat="52.5785281" lon="10.8172715">
    <tag k="amenity" v="emergency_phone"/>
    <tag k="emergency" v="phone"/>
  </node>
  <node id="353836928" version="3" timestamp="2011-02-21T23:39:51Z" uid="39457" user="Markus59" changeset="7359304" lat="52.5786057" lon="10.817162">
    <tag k="amenity" v="emergency_phone"/>
    <tag k="emergency" v="phone"/>
  </node>
  <node id="353836928" version="4" timestamp="2012-03-25T08:53:16Z" uid="333167" user="biker@gf" changeset="11092510" lat="52.5785554" lon="10.8172388">
    <tag k="amenity" v="emergency_phone"/>
    <tag k="emergency" v="phone"/>
  </node>
  <node id="353837419" version="3" timestamp="2010-07-29T08:59:18Z" uid="74617" user="JohnSmith" changeset="5344848" lat="52.5586727" lon="10.78842">
    <tag k="amenity" v="emergency_phone"/>
    <tag k="emergency" v="phone"/>
  </node>
  <node id="353839512" version="2" timestamp="2009-08-26T17:58:23Z" uid="36809" user="pfoten_weg_!_" changeset="2270114" lat="54.4310286" lon="12.8024973">
    <tag k="amenity" v="bicycle_rental"/>
  </node>
  <node id="353839512" version="3" timestamp="2010-10-27T12:00:13Z" uid="65171" user="Spüli" changeset="6194761" lat="54.4309616" lon="12.8025933">
    <tag k="amenity" v="bicycle_rental"/>
  </node>
  <node id="353839521" version="2" timestamp="2009-08-24T21:57:47Z" uid="36809" user="pfoten_weg_!_" changeset="2250603" lat="54.4401423" lon="12.7218125">
    <tag k="amenity" v="post_box"/>
    <tag k="nore:de" v="Warnung"/>
    <tag k="operator" v="Deutsche Post AG"/>
  </node>
  <node id="353839521" version="3" timestamp="2009-08-24T22:28:56Z" uid="36809" user="pfoten_weg_!_" changeset="2250754" lat="54.4401423" lon="12.7218125">
    <tag k="amenity" v="post_box"/>
    <tag k="operator" v="Deutsche Post AG"/>
  </node>
  <node id="353839521" version="4" timestamp="2010-10-10T10:09:32Z" uid="6808" user="wwwFrank" changeset="6000328" lat="54.4401423" lon="12.7218125">
    <tag k="amenity" v="post_box"/>
    <tag k="operator" v="Deutsche Post AG"/>
  </node>
  <node id="353839521" version="5" timestamp="2012-01-02T14:14:59Z" uid="55462" user="Lübeck" changeset="10271007" lat="54.4401423" lon="12.7218125">
    <tag k="amenity" v="post_box"/>
    <tag k="collection_times" v="Mo-Sa 10:45"/>
    <tag k="operator" v="Deutsche Post AG"/>
  </node>
  <node id="353839531" version="2" timestamp="2009-08-24T21:57:46Z" uid="36809" user="pfoten_weg_!_" changeset="2250603" lat="54.4403244" lon="12.7217064">
    <tag k="highway" v="bus_stop"/>
    <tag k="nore:de" v="Warnung"/>
    <tag k="shelter" v="no"/>
  </node>
  <node id="353839531" version="3" timestamp="2009-08-24T22:28:56Z" uid="36809" user="pfoten_weg_!_" changeset="2250754" lat="54.4403244" lon="12.7217064">
    <tag k="highway" v="bus_stop"/>
    <tag k="shelter" v="no"/>
  </node>
  <node id="353839531" version="4" timestamp="2009-08-24T22:42:34Z" uid="36809" user="pfoten_weg_!_" changeset="2250819" lat="54.4403244" lon="12.7217064">
    <tag k="discovered_by" v="RambaZamba"/>
    <tag k="highway" v="bus_stop"/>
    <tag k="shelter" v="no"/>
  </node>
  <node id="353839531" version="5" timestamp="2009-08-28T19:45:56Z" uid="156995" user="HampelZamba" changeset="2294580" lat="54.4403244" lon="12.7217064">
    <tag k="highway" v="bus_stop"/>
    <tag k="shelter" v="no"/>
  </node>
  <node id="353839531" version="6" timestamp="2009-08-29T14:50:41Z" uid="36809" user="pfoten_weg_!_" changeset="2302467" lat="54.4403244" lon="12.7217064">
    <tag k="highway" v="bus_stop"/>
    <tag k="shelter" v="no"/>
  </node>
  <node id="353839531" version="7" timestamp="2010-10-10T10:08:16Z" uid="6808" user="wwwFrank" changeset="6000328" lat="54.4403244" lon="12.7217064">
    <tag k="highway" v="bus_stop"/>
    <tag k="shelter" v="no"/>
  </node>
  <node id="353839538" version="2" timestamp="2009-08-26T17:58:26Z" uid="36809" user="pfoten_weg_!_" changeset="2270114" lat="54.4402754" lon="12.7218132"/>
  <node id="353839538" version="3" timestamp="2010-10-10T10:09:34Z" uid="6808" user="wwwFrank" changeset="6000328" lat="54.4402754" lon="12.7218132"/>
  <node id="353839538" version="4" timestamp="2012-01-02T06:22:07Z" uid="55462" user="Lübeck" changeset="10267941" lat="54.4402754" lon="12.7218132"/>
  <node id="353839545" version="2" timestamp="2009-08-24T21:57:47Z" uid="36809" user="pfoten_weg_!_" changeset="2250603" lat="54.441085" lon="12.7213619">
    <tag k="amenity" v="telephone"/>
    <tag k="nore:de" v="Warnung"/>
    <tag k="operator" v="Deutsche Telekom AG"/>
  </node>
  <node id="353839545" version="3" timestamp="2009-08-24T22:28:57Z" uid="36809" user="pfoten_weg_!_" changeset="2250754" lat="54.441085" lon="12.7213619">
    <tag k="amenity" v="telephone"/>
    <tag k="operator" v="Deutsche Telekom AG"/>
  </node>
  <node id="353839545" version="4" timestamp="2010-10-10T10:08:53Z" uid="6808" user="wwwFrank" changeset="6000328" lat="54.441085" lon="12.7213619">
    <tag k="amenity" v="telephone"/>
    <tag k="operator" v="Deutsche Telekom AG"/>
  </node>
  <node id="353839549" version="2" timestamp="2009-08-26T17:58:26Z" uid="36809" user="pfoten_weg_!_" changeset="2270114" lat="54.4413654" lon="12.71885"/>
  <node id="353839549" version="3" timestamp="2010-10-10T10:07:58Z" uid="6808" user="wwwFrank" changeset="6000328" lat="54.4413654" lon="12.71885"/>
  <node id="353839549" version="4" timestamp="2011-08-05T20:51:30Z" uid="70400" user="Schwedenhagen" changeset="8932745" lat="54.4413197" lon="12.7188536"/>
  <node id="353839557" version="2" timestamp="2009-08-26T17:58:21Z" uid="36809" user="pfoten_weg_!_" changeset="2270114" lat="54.441197" lon="12.7182813"/>
  <node id="353839557" version="3" timestamp="2010-10-10T10:09:14Z" uid="6808" user="wwwFrank" changeset="6000328" lat="54.441197" lon="12.7182813"/>
  <node id="353839564" version="2" timestamp="2009-08-24T21:57:46Z" uid="36809" user="pfoten_weg_!_" changeset="2250603" lat="54.4411174" lon="12.7157029">
    <tag k="highway" v="bus_stop"/>
    <tag k="nore:de" v="Warnung"/>
    <tag k="shelter" v="no"/>
  </node>
  <node id="353839564" version="3" timestamp="2009-08-24T22:28:56Z" uid="36809" user="pfoten_weg_!_" changeset="2250754" lat="54.4411174" lon="12.7157029">
    <tag k="highway" v="bus_stop"/>
    <tag k="shelter" v="no"/>
  </node>
  <node id="353839564" version="4" timestamp="2009-08-24T22:42:34Z" uid="36809" user="pfoten_weg_!_" changeset="2250819" lat="54.4411174" lon="12.7157029">
    <tag k="discovered_by" v="RambaZamba"/>
    <tag k="highway" v="bus_stop"/>
    <tag k="shelter" v="no"/>
  </node>
  <node id="353839564" version="5" timestamp="2009-08-28T19:45:56Z" uid="156995" user="HampelZamba" changeset="2294580" lat="54.4411174" lon="12.7157029">
    <tag k="highway" v="bus_stop"/>
    <tag k="shelter" v="no"/>
  </node>
  <node id="353839564" version="6" timestamp="2009-08-29T14:50:38Z" uid="36809" user="pfoten_weg_!_" changeset="2302467" lat="54.4411174" lon="12.7157029">
    <tag k="highway" v="bus_stop"/>
    <tag k="shelter" v="no"/>
  </node>
  <node id="353839564" version="7" timestamp="2010-10-10T10:07:41Z" uid="6808" user="wwwFrank" changeset="6000328" lat="54.4411174" lon="12.7157029">
    <tag k="highway" v="bus_stop"/>
    <tag k="shelter" v="no"/>
  </node>
  <node id="353839580" version="2" timestamp="2009-04-15T05:28:05Z" uid="6975" user="ulfl" changeset="553994" lat="53.5414012" lon="7.949191">
    <tag k="shop" v="kiosk"/>
  </node>
  <node id="353839580" version="3" timestamp="2009-12-21T17:42:52Z" uid="196327" user="paul77" changeset="3421915" lat="53.5414012" lon="7.949191">
    <tag k="name" v="KiKo"/>
    <tag k="shop" v="kiosk"/>
  </node>
  <node id="353839580" version="4" timestamp="2010-03-12T15:38:33Z" uid="196327" user="paul77" changeset="4107398" lat="53.5414011" lon="7.949191">
    <tag k="addr:street" v="Menkestr."/>
    <tag k="name" v="KiKo"/>
    <tag k="shop" v="kiosk"/>
  </node>
  <node id="353839580" version="5" timestamp="2010-03-14T13:24:48Z" uid="70696" user="xybot" changeset="4124026" lat="53.5414011" lon="7.949191">
    <tag k="addr:street" v="Menkestraße"/>
    <tag k="name" v="KiKo"/>
    <tag k="shop" v="kiosk"/>
  </node>
  <node id="353839580" version="6" timestamp="2010-04-02T13:17:16Z" uid="196327" user="paul77" changeset="4303352" lat="53.5414011" lon="7.9491909">
    <tag k="addr:country" v="Schortens"/>
    <tag k="addr:street" v="Menkestraße"/>
    <tag k="name" v="KiKo"/>
    <tag k="shop" v="kiosk"/>
  </node>
  <node id="353839580" version="7" timestamp="2010-04-06T08:08:32Z" uid="2680" user="xylome" changeset="4341228" lat="53.5414011" lon="7.9491909">
    <tag k="addr:city" v="Schortens"/>
    <tag k="addr:country" v="DE"/>
    <tag k="addr:street" v="Menkestraße"/>
    <tag k="name" v="KiKo"/>
    <tag k="shop" v="kiosk"/>
  </node>
  <node id="353839580" version="8" timestamp="2011-07-17T16:42:45Z" uid="196327" user="paul77" changeset="8749829" lat="53.5414011" lon="7.9491909">
    <tag k="addr:city" v="Schortens"/>
    <tag k="addr:country" v="DE"/>
    <tag k="addr:housenumber" v="5"/>
    <tag k="addr:street" v="Menkestraße"/>
    <tag k="name" v="KiKo"/>
    <tag k="shop" v="kiosk"/>
  </node>
  <node id="353839580" version="9" timestamp="2011-09-08T13:23:33Z" uid="196327" user="paul77" changeset="9245638" lat="53.541419" lon="7.9492478">
    <tag k="addr:city" v="Schortens"/>
    <tag k="addr:country" v="DE"/>
    <tag k="addr:housenumber" v="5"/>
    <tag k="addr:street" v="Menkestraße"/>
    <tag k="name" v="KiKo"/>
    <tag k="shop" v="kiosk"/>
  </node>
  <node id="353839580" version="10" timestamp="2011-11-10T06:47:39Z" uid="290680" user="wheelmap_visitor" changeset="9786526" lat="53.541419" lon="7.9492478">
    <tag k="addr:city" v="Schortens"/>
    <tag k="addr:country" v="DE"/>
    <tag k="addr:housenumber" v="5"/>
    <tag k="addr:street" v="Menkestraße"/>
    <tag k="name" v="KiKo"/>
    <tag k="shop" v="kiosk"/>
    <tag k="wheelchair" v="limited"/>
  </node>
  <node id="353839580" version="11" timestamp="2011-11-29T16:30:44Z" uid="196327" user="paul77" changeset="9989137" lat="53.541419" lon="7.9492478">
    <tag k="addr:city" v="Schortens"/>
    <tag k="addr:country" v="DE"/>
    <tag k="addr:housenumber" v="5"/>
    <tag k="addr:street" v="Menkestraße"/>
    <tag k="name" v="KiKo"/>
    <tag k="phone" v="+49 4461-82570"/>
    <tag k="shop" v="kiosk"/>
    <tag k="wheelchair" v="limited"/>
  </node>
  <node id="353839655" version="2" timestamp="2010-04-06T17:41:35Z" uid="9581" user="Lobelt" changeset="4346550" lat="50.7215139" lon="9.2277378"/>
  <node id="353839655" version="3" timestamp="2010-04-08T21:52:00Z" uid="65432" user="bmog" changeset="4368441" lat="50.7215314" lon="9.2277535"/>
  <node id="353839951" version="2" timestamp="2010-07-29T09:28:38Z" uid="74617" user="JohnSmith" changeset="5344848" lat="54.1230092" lon="10.8766812">
    <tag k="amenity" v="emergency_phone"/>
    <tag k="emergency" v="phone"/>
  </node>
  <node id="353839951" version="3" timestamp="2011-07-14T11:16:34Z" uid="72151" user="GeorgFausB" changeset="8721033" lat="54.1229431" lon="10.8767757">
    <tag k="amenity" v="emergency_phone"/>
    <tag k="emergency" v="phone"/>
  </node>
  <node id="353832177" version="2" timestamp="2012-07-19T02:55:19Z" uid="722137" user="OSMF Redaction Account" changeset="12305848" lat="50.1097892" lon="11.4594815"/>
  <node id="353832180" version="2" timestamp="2012-07-19T02:55:19Z" uid="722137" user="OSMF Redaction Account" changeset="12305848" lat="50.1096334" lon="11.4596314"/>
  <node id="353832198" version="2" timestamp="2012-07-19T02:55:18Z" uid="722137" user="OSMF Redaction Account" changeset="12305848" lat="50.1095315" lon="11.4597452"/>
  <node id="353832202" version="2" timestamp="2012-07-19T02:55:18Z" uid="722137" user="OSMF Redaction Account" changeset="12305848" lat="50.1094626" lon="11.4596493"/>
  <node id="353832209" version="2" timestamp="2012-07-19T02:55:18Z" uid="722137" user="OSMF Redaction Account" changeset="12305848" lat="50.1093247" lon="11.4597392"/>
  <node id="353832217" version="2" timestamp="2012-07-19T02:55:18Z" uid="722137" user="OSMF Redaction Account" changeset="12305848" lat="50.1092618" lon="11.4598291"/>
  <node id="353832226" version="2" timestamp="2012-07-19T02:55:18Z" uid="722137" user="OSMF Redaction Account" changeset="12305848" lat="50.1091809" lon="11.459916"/>
  <node id="353832228" version="2" timestamp="2012-07-19T02:55:18Z" uid="722137" user="OSMF Redaction Account" changeset="12305848" lat="50.109079" lon="11.4598351"/>
  <node id="353832230" version="2" timestamp="2012-07-19T02:55:18Z" uid="722137" user="OSMF Redaction Account" changeset="12305848" lat="50.1089412" lon="11.459943"/>
  <node id="353832232" version="2" timestamp="2012-07-19T02:55:18Z" uid="722137" user="OSMF Redaction Account" changeset="12305848" lat="50.1088513" lon="11.4599939"/>
  <node id="353832234" version="2" timestamp="2012-07-19T02:55:18Z" uid="722137" user="OSMF Redaction Account" changeset="12305848" lat="50.1088153" lon="11.4601557"/>
  <node id="353832237" version="2" timestamp="2012-07-19T02:55:18Z" uid="722137" user="OSMF Redaction Account" changeset="12305848" lat="50.1086715" lon="11.4603385"/>
  <node id="353835095" version="4" timestamp="2012-07-18T16:27:49Z" uid="722137" user="OSMF Redaction Account" changeset="12288855" lat="52.5919426" lon="10.8952954">
    <tag k="amenity" v="emergency_phone"/>
  </node>
  <node id="353836928" version="5" timestamp="2012-07-18T16:28:21Z" uid="722137" user="OSMF Redaction Account" changeset="12288874" lat="52.5785554" lon="10.8172388">
    <tag k="amenity" v="emergency_phone"/>
  </node>
  <node id="353837419" version="4" timestamp="2012-07-18T16:28:40Z" uid="722137" user="OSMF Redaction Account" changeset="12288878" lat="52.5586727" lon="10.78842">
    <tag k="amenity" v="emergency_phone"/>
  </node>
  <node id="353839580" version="12" timestamp="2012-04-22T14:09:16Z" uid="196327" user="paul77" changeset="11384707" lat="53.541419" lon="7.9492478">
    <tag k="addr:city" v="Schortens"/>
    <tag k="addr:country" v="DE"/>
    <tag k="addr:housenumber" v="5"/>
    <tag k="addr:postcode" v="26419"/>
    <tag k="addr:street" v="Menkestraße"/>
    <tag k="name" v="KiKo"/>
    <tag k="phone" v="+49 4461-82570"/>
    <tag k="shop" v="kiosk"/>
    <tag k="wheelchair" v="limited"/>
  </node>
  <node id="353839580" version="13" timestamp="2012-06-10T09:26:01Z" uid="226854" user="MichiK" changeset="11852177" lat="53.5413907" lon="7.9492499">
    <tag k="addr:city" v="Schortens"/>
    <tag k="addr:country" v="DE"/>
    <tag k="addr:housenumber" v="5"/>
    <tag k="addr:postcode" v="26419"/>
    <tag k="addr:street" v="Menkestraße"/>
    <tag k="name" v="KiKo"/>
    <tag k="phone" v="+49 4461-82570"/>
    <tag k="shop" v="kiosk"/>
    <tag k="wheelchair" v="limited"/>
  </node>
  <node id="353839951" version="4" timestamp="2012-07-18T10:49:24Z" uid="722137" user="OSMF Redaction Account" changeset="12279003" lat="54.1229431" lon="10.8767757">
    <tag k="amenity" v="emergency_phone"/>
  </node>
</osm>
