<?xml version='1.0' encoding='UTF-8'?>
<osm version="0.6" generator="libosmium/2.20.0">
  <node id="354010683" version="3" timestamp="2009-03-18T23:10:13Z" uid="20587" user="balrog-kun" changeset="830772" lat="51.3858816" lon="22.0028021">
    <tag k="source" v="http://ump.waw.pl/ retrieved 12:29:37 03/17/09 (UMP-Lublin/src/PULAWY.ulice.txt)"/>
  </node>
  <node id="354012743" version="2" timestamp="2009-09-10T22:24:26Z" uid="28657" user="Ranger Nemo" changeset="2441738" lat="46.4672275" lon="-90.1560187">
    <tag k="amenity" v="place_of_worship"/>
    <tag k="ele" v="448"/>
    <tag k="gnis:county_id" v="053"/>
    <tag k="gnis:created" v="06/12/2007"/>
    <tag k="gnis:feature_id" v="2126116"/>
    <tag k="gnis:state_id" v="26"/>
    <tag k="name" v="Trinity Lutheran Church"/>
    <tag k="phone" v="906.932.3022"/>
  </node>
  <node id="354012743" version="3" timestamp="2010-02-17T22:51:28Z" uid="51045" user="Geogast" changeset="3904735" lat="46.4672275" lon="-90.1560187">
    <tag k="amenity" v="place_of_worship"/>
    <tag k="denomination" v="lutheran"/>
    <tag k="ele" v="448"/>
    <tag k="gnis:county_id" v="053"/>
    <tag k="gnis:created" v="06/12/2007"/>
    <tag k="gnis:feature_id" v="2126116"/>
    <tag k="gnis:state_id" v="26"/>
    <tag k="name" v="Trinity Lutheran Church"/>
    <tag k="phone" v="906.932.3022"/>
    <tag k="religion" v="christian"/>
  </node>
  <node id="354013274" version="2" timestamp="2009-09-10T22:24:25Z" uid="28657" user="Ranger Nemo" changeset="2441738" lat="46.4547996" lon="-90.1684642">
    <tag k="ele" v="461"/>
    <tag k="gnis:county_id" v="053"/>
    <tag k="gnis:created" v="06/08/2007"/>
    <tag k="gnis:feature_id" v="2126297"/>
    <tag k="gnis:state_id" v="26"/>
    <tag k="leisure" v="park"/>
    <tag k="name" v="Downtown Ironwood Pocket Park"/>
  </node>
  <node id="354013293" version="2" timestamp="2009-09-10T22:24:29Z" uid="28657" user="Ranger Nemo" changeset="2441738" lat="46.455107" lon="-90.1701465">
    <tag k="amenity" v="post_office"/>
    <tag k="ele" v="460"/>
    <tag k="gnis:county_id" v="053"/>
    <tag k="gnis:created" v="06/11/2007"/>
    <tag k="gnis:feature_id" v="2126136"/>
    <tag k="gnis:state_id" v="26"/>
    <tag k="name" v="Ironwood Post Office"/>
  </node>
  <node id="354013314" version="2" timestamp="2009-09-10T22:24:30Z" uid="28657" user="Ranger Nemo" changeset="2441738" lat="46.4558343" lon="-90.1716399">
    <tag k="ele" v="459"/>
    <tag k="gnis:county_id" v="053"/>
    <tag k="gnis:created" v="06/11/2007"/>
    <tag k="gnis:feature_id" v="2126299"/>
    <tag k="gnis:state_id" v="26"/>
    <tag k="leisure" v="park"/>
    <tag k="name" v="Kuitunen Park"/>
  </node>
  <node id="354019782" version="2" timestamp="2009-12-09T17:56:01Z" uid="200463" user="harmagedon" changeset="3335395" lat="50.8694029" lon="14.7562894"/>
  <node id="354019782" version="3" timestamp="2010-09-22T18:28:30Z" uid="31185" user="es_ka" changeset="5847841" lat="50.8694608" lon="14.7562879"/>
  <node id="354010683" version="4" timestamp="2012-08-19T02:23:13Z" uid="816147" user="osinkowa" changeset="12779024" lat="51.3858816" lon="22.0028021">
    <tag k="source" v="Bing"/>
  </node>
  <node id="354012743" version="4" timestamp="2012-07-18T22:05:38Z" uid="722137" user="OSMF Redaction Account" changeset="12300064" lat="46.4672222" lon="-90.1558333">
    <tag k="amenity" v="place_of_worship"/>
    <tag k="denomination" v="lutheran"/>
    <tag k="ele" v="448"/>
    <tag k="gnis:county_id" v="053"/>
    <tag k="gnis:created" v="06/12/2007"/>
    <tag k="gnis:feature_id" v="2126116"/>
    <tag k="gnis:state_id" v="26"/>
    <tag k="name" v="Trinity Lutheran Church"/>
    <tag k="religion" v="christian"/>
  </node>
  <node id="354013274" version="3" timestamp="2012-07-18T22:05:37Z" uid="722137" user="OSMF Redaction Account" changeset="12300064" lat="46.4536111" lon="-90.1691667">
    <tag k="ele" v="461"/>
    <tag k="gnis:county_id" v="053"/>
    <tag k="gnis:created" v="06/08/2007"/>
    <tag k="gnis:feature_id" v="2126297"/>
    <tag k="gnis:state_id" v="26"/>
    <tag k="leisure" v="park"/>
    <tag k="name" v="Downtown Ironwood Pocket Park"/>
  </node>
  <node id="354013293" version="3" timestamp="2012-07-18T22:05:37Z" uid="722137" user="OSMF Redaction Account" changeset="12300064" lat="46.4552778" lon="-90.1697222">
    <tag k="amenity" v="post_office"/>
    <tag k="ele" v="460"/>
    <tag k="gnis:county_id" v="053"/>
    <tag k="gnis:created" v="06/11/2007"/>
    <tag k="gnis:feature_id" v="2126136"/>
    <tag k="gnis:state_id" v="26"/>
    <tag k="name" v="Ironwood Post Office"/>
  </node>
  <node id="354013314" version="3" timestamp="2012-07-18T22:05:37Z" uid="722137" user="OSMF Redaction Account" changeset="12300064" lat="46.4552778" lon="-90.1727778">
    <tag k="ele" v="459"/>
    <tag k="gnis:county_id" v="053"/>
    <tag k="gnis:created" v="06/11/2007"/>
    <tag k="gnis:feature_id" v="2126299"/>
    <tag k="gnis:state_id" v="26"/>
    <tag k="leisure" v="park"/>
    <tag k="name" v="Kuitunen Park"/>
  </node>
</osm>
