<?xml version='1.0' encoding='UTF-8'?>
<osm version="0.6" generator="libosmium/2.20.0">
  <node id="366341106" version="3" timestamp="2010-04-11T04:43:23Z" uid="20587" user="balrog-kun" changeset="4389130" lat="49.9061544" lon="22.5146552">
    <tag k="name" v="Pruchnik"/>
    <tag k="place" v="village"/>
  </node>
  <node id="366341106" version="4" timestamp="2010-04-11T13:15:00Z" uid="20587" user="balrog-kun" changeset="4392352" lat="49.9052392" lon="22.5135774">
    <tag k="name" v="Pruchnik"/>
    <tag k="place" v="village"/>
  </node>
  <node id="366341106" version="5" timestamp="2010-04-27T03:58:03Z" uid="30632" user="antblant" changeset="4537850" lat="49.9052392" lon="22.5135774">
    <tag k="name" v="Pruchnik"/>
    <tag k="place" v="village"/>
    <tag k="teryt:simc" v="0608316"/>
  </node>
  <node id="366341106" version="6" timestamp="2011-01-01T23:15:42Z" uid="91056" user="Yarl" changeset="6833770" lat="49.9052392" lon="22.5135774">
    <tag k="name" v="Pruchnik"/>
    <tag k="place" v="town"/>
    <tag k="teryt:simc" v="0608316"/>
  </node>
  <node id="366341106" version="7" timestamp="2011-11-30T01:27:09Z" uid="467703" user="Zbigniew Czernik" changeset="9994742" lat="49.9061358" lon="22.5160585">
    <tag k="name" v="Pruchnik"/>
    <tag k="place" v="town"/>
    <tag k="teryt:simc" v="0608316"/>
  </node>
  <node id="366346693" version="2" timestamp="2009-04-15T05:15:52Z" uid="6975" user="ulfl" changeset="553994" lat="49.5655636" lon="6.5989853">
    <tag k="highway" v="bus_stop"/>
    <tag k="name" v="Hamm Dorfmitte"/>
  </node>
</osm>
