<?xml version='1.0' encoding='UTF-8'?>
<osm version="0.6" generator="libosmium/2.20.0">
  <node id="367090082" version="3" timestamp="2009-06-07T08:44:02Z" uid="9581" user="Lobelt" changeset="1445687" lat="49.5180127" lon="8.7863154"/>
  <node id="367090083" version="3" timestamp="2009-06-07T08:44:02Z" uid="9581" user="Lobelt" changeset="1445687" lat="49.5177106" lon="8.7861699"/>
  <node id="367090084" version="3" timestamp="2009-06-07T08:44:02Z" uid="9581" user="Lobelt" changeset="1445687" lat="49.5176649" lon="8.7867025"/>
  <node id="367090086" version="3" timestamp="2009-06-07T08:44:02Z" uid="9581" user="Lobelt" changeset="1445687" lat="49.5179667" lon="8.7867542"/>
  <node id="367090087" version="3" timestamp="2009-06-07T08:44:02Z" uid="9581" user="Lobelt" changeset="1445687" lat="49.5176388" lon="8.7868083"/>
  <node id="367090088" version="3" timestamp="2009-06-07T08:44:02Z" uid="9581" user="Lobelt" changeset="1445687" lat="49.5176096" lon="8.7875197"/>
  <node id="367090089" version="3" timestamp="2009-06-07T08:44:02Z" uid="9581" user="Lobelt" changeset="1445687" lat="49.5178882" lon="8.7875094"/>
  <node id="367090090" version="3" timestamp="2009-06-07T08:44:02Z" uid="9581" user="Lobelt" changeset="1445687" lat="49.5179291" lon="8.786888"/>
  <node id="367090104" version="2" timestamp="2009-06-07T08:44:02Z" uid="9581" user="Lobelt" changeset="1445687" lat="49.5179561" lon="8.7873113"/>
  <node id="367090121" version="2" timestamp="2009-06-07T08:44:02Z" uid="9581" user="Lobelt" changeset="1445687" lat="49.5179317" lon="8.7875442"/>
  <node id="367092306" version="2" timestamp="2010-04-16T20:25:31Z" uid="9581" user="Lobelt" changeset="4442220" lat="49.5084656" lon="8.7577397"/>
  <node id="367092313" version="1" timestamp="2009-03-29T22:22:46Z" uid="34428" user="usm78-gis" changeset="870330" lat="60.4662999" lon="30.2604184"/>
  <node id="367092313" version="2" timestamp="2010-08-21T08:04:02Z" uid="183576" user="axline" changeset="5549602" lat="60.4662999" lon="30.2604184"/>
  <node id="367092313" version="3" timestamp="2012-02-29T20:55:24Z" uid="399728" user="Autopro" changeset="10832193" lat="60.4663265" lon="30.2605117"/>
  <node id="367092756" version="1" timestamp="2009-03-29T22:26:43Z" uid="34428" user="usm78-gis" changeset="870330" lat="60.5547488" lon="29.5628295">
    <tag k="created_by" v="Potlatch 0.10f"/>
    <tag k="place" v="village"/>
  </node>
  <node id="367092756" version="2" timestamp="2009-03-29T22:27:01Z" uid="34428" user="usm78-gis" changeset="870330" lat="60.5547488" lon="29.5628295">
    <tag k="created_by" v="Potlatch 0.10f"/>
    <tag k="name:fi" v="Muolaa"/>
    <tag k="place" v="village"/>
  </node>
  <node id="367092756" version="3" timestamp="2009-08-18T19:52:46Z" uid="15056" user="red_rebel" changeset="2194618" lat="60.5547488" lon="29.5628295">
    <tag k="name" v="Правдино"/>
    <tag k="name:fi" v="Muolaa"/>
    <tag k="place" v="village"/>
  </node>
  <node id="367092756" version="4" timestamp="2009-10-19T20:34:10Z" uid="128534" user="greencaps" changeset="2898441" lat="60.5547488" lon="29.5628295">
    <tag k="name" v="Правдино"/>
    <tag k="name:fi" v="Muolaa"/>
    <tag k="name:trans" v="Pravdino"/>
    <tag k="place" v="village"/>
  </node>
  <node id="367092756" version="5" timestamp="2009-10-19T20:36:47Z" uid="128534" user="greencaps" changeset="2898441" lat="60.5547488" lon="29.5628295">
    <tag k="name" v="Правдино"/>
    <tag k="name:fi" v="Muolaa"/>
    <tag k="place" v="village"/>
  </node>
  <node id="367092756" version="6" timestamp="2009-10-19T20:37:40Z" uid="128534" user="greencaps" changeset="2898441" lat="60.5547488" lon="29.5628295">
    <tag k="name" v="Правдино"/>
    <tag k="name:fi" v="Muolaa"/>
    <tag k="place" v="village"/>
  </node>
  <node id="367092756" version="7" timestamp="2010-09-04T12:28:40Z" uid="140521" user="Fortress" changeset="5678364" lat="60.5547488" lon="29.5628294">
    <tag k="addr:country" v="RU"/>
    <tag k="addr:district" v="Выборгский район"/>
    <tag k="addr:region" v="Ленинградская область"/>
    <tag k="name" v="Правдино"/>
    <tag k="name:fi" v="Muolaa"/>
    <tag k="place" v="village"/>
  </node>
  <node id="367092892" version="1" timestamp="2009-03-29T22:28:14Z" uid="36809" user="pfoten_weg_!_" changeset="869093" lat="48.0241512" lon="11.4850222">
    <tag k="amenity" v="kindergarten"/>
    <tag k="created_by" v="RambaZamba"/>
    <tag k="source" v="survey"/>
  </node>
  <node id="367092892" version="2" timestamp="2009-08-12T13:41:37Z" uid="156995" user="HampelZamba" changeset="2118817" lat="48.0241512" lon="11.4850222">
    <tag k="amenity" v="kindergarten"/>
    <tag k="source" v="survey"/>
  </node>
  <node id="367092892" version="3" timestamp="2009-08-19T13:57:10Z" uid="36809" user="pfoten_weg_!_" changeset="2201154" lat="48.0241512" lon="11.4850222">
    <tag k="amenity" v="kindergarten"/>
    <tag k="source" v="survey at RambaZamba"/>
  </node>
  <node id="367092892" version="4" timestamp="2009-08-28T19:46:15Z" uid="156995" user="HampelZamba" changeset="2294580" lat="48.0241512" lon="11.4850222">
    <tag k="amenity" v="kindergarten"/>
  </node>
  <node id="367092892" version="5" timestamp="2009-08-28T21:27:48Z" uid="36809" user="pfoten_weg_!_" changeset="2295609" lat="48.0241512" lon="11.4850222">
    <tag k="amenity" v="kindergarten"/>
    <tag k="discovered_by" v="RambaZamba"/>
    <tag k="source" v="survey"/>
  </node>
  <node id="367092892" version="6" timestamp="2009-08-30T09:17:41Z" uid="156995" user="HampelZamba" changeset="2310659" lat="48.0241512" lon="11.4850222">
    <tag k="amenity" v="kindergarten"/>
    <tag k="source" v="survey"/>
  </node>
  <node id="367092892" version="7" timestamp="2009-08-31T17:43:05Z" uid="36809" user="pfoten_weg_!_" changeset="2328905" lat="48.0241512" lon="11.4850222">
    <tag k="amenity" v="kindergarten"/>
    <tag k="source" v="survey"/>
  </node>
  <node id="367092892" version="8" timestamp="2009-10-11T23:33:21Z" uid="36809" user="pfoten_weg_!_" changeset="2821194" lat="48.0241512" lon="11.4850222">
    <tag k="amenity" v="kindergarten"/>
  </node>
  <node id="367092893" version="1" timestamp="2009-03-29T22:28:14Z" uid="36809" user="pfoten_weg_!_" changeset="869093" lat="48.024206" lon="11.4837755">
    <tag k="amenity" v="post_box"/>
    <tag k="created_by" v="RambaZamba"/>
    <tag k="name" v="Deutsche Post Briefkasten"/>
    <tag k="operator" v="Deutsche Post"/>
    <tag k="source" v="survey"/>
  </node>
  <node id="367092893" version="2" timestamp="2009-08-12T13:41:37Z" uid="156995" user="HampelZamba" changeset="2118817" lat="48.024206" lon="11.4837755">
    <tag k="amenity" v="post_box"/>
    <tag k="name" v="Deutsche Post Briefkasten"/>
    <tag k="operator" v="Deutsche Post"/>
    <tag k="source" v="survey"/>
  </node>
  <node id="367092893" version="3" timestamp="2009-08-19T13:57:12Z" uid="36809" user="pfoten_weg_!_" changeset="2201154" lat="48.024206" lon="11.4837755">
    <tag k="amenity" v="post_box"/>
    <tag k="name" v="Deutsche Post Briefkasten"/>
    <tag k="operator" v="Deutsche Post"/>
    <tag k="source" v="survey at RambaZamba"/>
  </node>
  <node id="367092893" version="4" timestamp="2009-08-28T19:46:15Z" uid="156995" user="HampelZamba" changeset="2294580" lat="48.024206" lon="11.4837755">
    <tag k="amenity" v="post_box"/>
    <tag k="name" v="Deutsche Post Briefkasten"/>
    <tag k="operator" v="Deutsche Post"/>
  </node>
  <node id="367092893" version="5" timestamp="2009-08-28T21:27:48Z" uid="36809" user="pfoten_weg_!_" changeset="2295609" lat="48.024206" lon="11.4837755">
    <tag k="amenity" v="post_box"/>
    <tag k="discovered_by" v="RambaZamba"/>
    <tag k="name" v="Deutsche Post Briefkasten"/>
    <tag k="operator" v="Deutsche Post"/>
    <tag k="source" v="survey"/>
  </node>
  <node id="367092893" version="6" timestamp="2009-08-30T09:17:41Z" uid="156995" user="HampelZamba" changeset="2310659" lat="48.024206" lon="11.4837755">
    <tag k="amenity" v="post_box"/>
    <tag k="name" v="Deutsche Post Briefkasten"/>
    <tag k="operator" v="Deutsche Post"/>
    <tag k="source" v="survey"/>
  </node>
  <node id="367092893" version="7" timestamp="2009-08-31T17:43:06Z" uid="36809" user="pfoten_weg_!_" changeset="2328905" lat="48.024206" lon="11.4837755">
    <tag k="amenity" v="post_box"/>
    <tag k="name" v="Deutsche Post Briefkasten"/>
    <tag k="operator" v="Deutsche Post"/>
    <tag k="source" v="survey"/>
  </node>
  <node id="367092893" version="8" timestamp="2009-10-11T23:33:21Z" uid="36809" user="pfoten_weg_!_" changeset="2821194" lat="48.024206" lon="11.4837755">
    <tag k="amenity" v="post_box"/>
    <tag k="name" v="Deutsche Post Briefkasten"/>
    <tag k="operator" v="Deutsche Post"/>
  </node>
  <node id="367092893" version="9" timestamp="2009-10-29T22:52:30Z" uid="42123" user="Ropino" changeset="2985275" lat="48.024206" lon="11.4837755">
    <tag k="amenity" v="post_box"/>
    <tag k="operator" v="Deutsche Post AG"/>
  </node>
  <node id="367092893" version="10" timestamp="2011-08-30T10:59:57Z" uid="162465" user="ckol" changeset="9165997" lat="48.024206" lon="11.4837755">
    <tag k="amenity" v="post_box"/>
    <tag k="collection_times" v="fixme"/>
    <tag k="operator" v="Deutsche Post AG"/>
  </node>
  <node id="367092894" version="1" timestamp="2009-03-29T22:28:15Z" uid="36809" user="pfoten_weg_!_" changeset="869093" lat="48.0203972" lon="11.486817">
    <tag k="amenity" v="post_box"/>
    <tag k="created_by" v="RambaZamba"/>
    <tag k="name" v="Deutsche Post Briefkasten"/>
    <tag k="operator" v="Deutsche Post"/>
    <tag k="source" v="survey"/>
  </node>
  <node id="367092894" version="2" timestamp="2009-08-12T13:41:37Z" uid="156995" user="HampelZamba" changeset="2118817" lat="48.0203972" lon="11.486817">
    <tag k="amenity" v="post_box"/>
    <tag k="name" v="Deutsche Post Briefkasten"/>
    <tag k="operator" v="Deutsche Post"/>
    <tag k="source" v="survey"/>
  </node>
  <node id="367092894" version="3" timestamp="2009-08-19T13:57:09Z" uid="36809" user="pfoten_weg_!_" changeset="2201154" lat="48.0203972" lon="11.486817">
    <tag k="amenity" v="post_box"/>
    <tag k="name" v="Deutsche Post Briefkasten"/>
    <tag k="operator" v="Deutsche Post"/>
    <tag k="source" v="survey at RambaZamba"/>
  </node>
  <node id="367092894" version="4" timestamp="2009-08-28T19:46:15Z" uid="156995" user="HampelZamba" changeset="2294580" lat="48.0203972" lon="11.486817">
    <tag k="amenity" v="post_box"/>
    <tag k="name" v="Deutsche Post Briefkasten"/>
    <tag k="operator" v="Deutsche Post"/>
  </node>
  <node id="367092894" version="5" timestamp="2009-08-28T21:27:48Z" uid="36809" user="pfoten_weg_!_" changeset="2295609" lat="48.0203972" lon="11.486817">
    <tag k="amenity" v="post_box"/>
    <tag k="discovered_by" v="RambaZamba"/>
    <tag k="name" v="Deutsche Post Briefkasten"/>
    <tag k="operator" v="Deutsche Post"/>
    <tag k="source" v="survey"/>
  </node>
  <node id="367092894" version="6" timestamp="2009-08-30T09:17:43Z" uid="156995" user="HampelZamba" changeset="2310659" lat="48.0203972" lon="11.486817">
    <tag k="amenity" v="post_box"/>
    <tag k="name" v="Deutsche Post Briefkasten"/>
    <tag k="operator" v="Deutsche Post"/>
    <tag k="source" v="survey"/>
  </node>
  <node id="367092894" version="7" timestamp="2009-08-31T17:43:05Z" uid="36809" user="pfoten_weg_!_" changeset="2328905" lat="48.0203972" lon="11.486817">
    <tag k="amenity" v="post_box"/>
    <tag k="name" v="Deutsche Post Briefkasten"/>
    <tag k="operator" v="Deutsche Post"/>
    <tag k="source" v="survey"/>
  </node>
  <node id="367092894" version="8" timestamp="2009-09-01T13:34:59Z" uid="78729" user="rumbuzumbu" changeset="2337749" lat="48.0203972" lon="11.486817">
    <tag k="amenity" v="post_box"/>
    <tag k="name" v="Deutsche Post Briefkasten"/>
    <tag k="operator" v="Deutsche Post"/>
    <tag k="source" v="survey"/>
  </node>
  <node id="367093047" version="3" timestamp="2009-04-15T07:16:53Z" uid="6975" user="ulfl" changeset="553994" lat="37.2585549" lon="-121.8766497">
    <tag k="addr:street" v="Almaden Expy"/>
    <tag k="amenity" v="car_wash"/>
    <tag k="name" v="Classic Car Wash"/>
  </node>
  <node id="367093888" version="3" timestamp="2011-04-15T18:21:54Z" uid="115477" user="wowik" changeset="7872165" lat="44.9658922" lon="41.1669307"/>
  <node id="367093888" version="4" timestamp="2011-06-03T07:28:40Z" uid="233125" user="agsochi" changeset="8326594" lat="44.9658922" lon="41.1668255"/>
  <node id="367093888" version="5" timestamp="2011-06-03T10:38:01Z" uid="233125" user="agsochi" changeset="8328144" lat="44.9659124" lon="41.1670308"/>
  <node id="367093893" version="3" timestamp="2011-04-15T18:21:58Z" uid="115477" user="wowik" changeset="7872165" lat="44.9668609" lon="41.1673359"/>
  <node id="367093893" version="4" timestamp="2011-06-03T07:28:38Z" uid="233125" user="agsochi" changeset="8326594" lat="44.9668609" lon="41.1672307"/>
  <node id="367093893" version="5" timestamp="2011-06-03T10:38:03Z" uid="233125" user="agsochi" changeset="8328144" lat="44.9668082" lon="41.1674634"/>
  <node id="367093897" version="3" timestamp="2011-04-15T18:22:01Z" uid="115477" user="wowik" changeset="7872165" lat="44.9678038" lon="41.168678"/>
  <node id="367093897" version="4" timestamp="2011-06-03T07:28:07Z" uid="233125" user="agsochi" changeset="8326594" lat="44.9678038" lon="41.1685728"/>
  <node id="367093897" version="5" timestamp="2011-06-03T10:38:02Z" uid="233125" user="agsochi" changeset="8328144" lat="44.9677597" lon="41.1686666"/>
  <node id="367093899" version="3" timestamp="2011-04-15T18:21:53Z" uid="115477" user="wowik" changeset="7872165" lat="44.9685792" lon="41.1698672"/>
  <node id="367093899" version="4" timestamp="2011-06-03T07:28:44Z" uid="233125" user="agsochi" changeset="8326594" lat="44.9685792" lon="41.169762"/>
  <node id="367093899" version="5" timestamp="2011-06-03T10:38:00Z" uid="233125" user="agsochi" changeset="8328144" lat="44.9684385" lon="41.1697676"/>
  <node id="367095403" version="3" timestamp="2010-12-19T15:37:39Z" uid="9581" user="Lobelt" changeset="6707130" lat="49.5236087" lon="8.6888673"/>
  <node id="367096342" version="1" timestamp="2009-03-29T22:35:45Z" uid="36809" user="pfoten_weg_!_" changeset="869093" lat="48.0179751" lon="11.4795989">
    <tag k="created_by" v="Potlatch 0.10f"/>
  </node>
  <node id="367096342" version="2" timestamp="2009-03-30T00:42:41Z" uid="36809" user="pfoten_weg_!_" changeset="869093" lat="48.0179751" lon="11.4795989">
    <tag k="created_by" v="RambaZamba"/>
    <tag k="source" v="survey"/>
  </node>
  <node id="367096342" version="3" timestamp="2009-05-09T16:05:48Z" uid="36809" user="pfoten_weg_!_" changeset="1129220" lat="48.0179953" lon="11.4796143">
    <tag k="created_by" v="RambaZamba"/>
    <tag k="source" v="survey"/>
  </node>
  <node id="367096342" version="4" timestamp="2009-08-12T13:41:37Z" uid="156995" user="HampelZamba" changeset="2118817" lat="48.0179953" lon="11.4796143">
    <tag k="source" v="survey"/>
  </node>
  <node id="367096342" version="5" timestamp="2009-08-19T13:51:02Z" uid="36809" user="pfoten_weg_!_" changeset="2201154" lat="48.0179953" lon="11.4796143">
    <tag k="source" v="survey at RambaZamba"/>
  </node>
  <node id="367096342" version="6" timestamp="2009-08-28T19:46:15Z" uid="156995" user="HampelZamba" changeset="2294580" lat="48.0179953" lon="11.4796143"/>
  <node id="367096342" version="7" timestamp="2009-08-31T17:42:58Z" uid="36809" user="pfoten_weg_!_" changeset="2328905" lat="48.0179953" lon="11.4796143"/>
  <node id="367096342" version="8" timestamp="2009-11-09T01:02:26Z" uid="36809" user="pfoten_weg_!_" changeset="3070136" lat="48.0179953" lon="11.4796143"/>
  <node id="367096345" version="1" timestamp="2009-03-29T22:35:45Z" uid="36809" user="pfoten_weg_!_" changeset="869093" lat="48.0190769" lon="11.4804421"/>
  <node id="367096345" version="2" timestamp="2009-03-30T00:42:43Z" uid="36809" user="pfoten_weg_!_" changeset="869093" lat="48.0190769" lon="11.4804421">
    <tag k="created_by" v="RambaZamba"/>
    <tag k="source" v="survey"/>
  </node>
  <node id="367096345" version="3" timestamp="2009-08-12T13:41:37Z" uid="156995" user="HampelZamba" changeset="2118817" lat="48.0190769" lon="11.4804421">
    <tag k="source" v="survey"/>
  </node>
  <node id="367096345" version="4" timestamp="2009-08-19T13:51:04Z" uid="36809" user="pfoten_weg_!_" changeset="2201154" lat="48.0190769" lon="11.4804421">
    <tag k="source" v="survey at RambaZamba"/>
  </node>
  <node id="367096345" version="5" timestamp="2009-08-28T19:46:15Z" uid="156995" user="HampelZamba" changeset="2294580" lat="48.0190769" lon="11.4804421"/>
  <node id="367096345" version="6" timestamp="2009-08-31T17:42:58Z" uid="36809" user="pfoten_weg_!_" changeset="2328905" lat="48.0190769" lon="11.4804421"/>
  <node id="367096345" version="7" timestamp="2009-11-09T01:02:28Z" uid="36809" user="pfoten_weg_!_" changeset="3070136" lat="48.0190769" lon="11.4804421"/>
  <node id="367096347" version="1" timestamp="2009-03-29T22:35:45Z" uid="36809" user="pfoten_weg_!_" changeset="869093" lat="48.0190681" lon="11.480581">
    <tag k="amenity" v="post_box"/>
    <tag k="created_by" v="RambaZamba"/>
    <tag k="name" v="Deutsche Post Briefkasten"/>
    <tag k="operator" v="Deutsche Post"/>
    <tag k="source" v="survey"/>
  </node>
  <node id="367096347" version="2" timestamp="2009-08-12T13:41:37Z" uid="156995" user="HampelZamba" changeset="2118817" lat="48.0190681" lon="11.480581">
    <tag k="amenity" v="post_box"/>
    <tag k="name" v="Deutsche Post Briefkasten"/>
    <tag k="operator" v="Deutsche Post"/>
    <tag k="source" v="survey"/>
  </node>
  <node id="367096347" version="3" timestamp="2009-08-19T13:51:03Z" uid="36809" user="pfoten_weg_!_" changeset="2201154" lat="48.0190681" lon="11.480581">
    <tag k="amenity" v="post_box"/>
    <tag k="name" v="Deutsche Post Briefkasten"/>
    <tag k="operator" v="Deutsche Post"/>
    <tag k="source" v="survey at RambaZamba"/>
  </node>
  <node id="367096347" version="4" timestamp="2009-08-28T19:46:15Z" uid="156995" user="HampelZamba" changeset="2294580" lat="48.0190681" lon="11.480581">
    <tag k="amenity" v="post_box"/>
    <tag k="name" v="Deutsche Post Briefkasten"/>
    <tag k="operator" v="Deutsche Post"/>
  </node>
  <node id="367096347" version="5" timestamp="2009-08-28T21:27:47Z" uid="36809" user="pfoten_weg_!_" changeset="2295609" lat="48.0190681" lon="11.480581">
    <tag k="amenity" v="post_box"/>
    <tag k="discovered_by" v="RambaZamba"/>
    <tag k="name" v="Deutsche Post Briefkasten"/>
    <tag k="operator" v="Deutsche Post"/>
    <tag k="source" v="survey"/>
  </node>
  <node id="367096347" version="6" timestamp="2009-08-30T09:17:41Z" uid="156995" user="HampelZamba" changeset="2310659" lat="48.0190681" lon="11.480581">
    <tag k="amenity" v="post_box"/>
    <tag k="name" v="Deutsche Post Briefkasten"/>
    <tag k="operator" v="Deutsche Post"/>
    <tag k="source" v="survey"/>
  </node>
  <node id="367096347" version="7" timestamp="2009-08-31T17:42:58Z" uid="36809" user="pfoten_weg_!_" changeset="2328905" lat="48.0190681" lon="11.480581">
    <tag k="amenity" v="post_box"/>
    <tag k="name" v="Deutsche Post Briefkasten"/>
    <tag k="operator" v="Deutsche Post"/>
    <tag k="source" v="survey"/>
  </node>
  <node id="367096347" version="8" timestamp="2009-10-11T23:33:10Z" uid="36809" user="pfoten_weg_!_" changeset="2821194" lat="48.0190681" lon="11.480581">
    <tag k="amenity" v="post_box"/>
    <tag k="name" v="Deutsche Post Briefkasten"/>
    <tag k="operator" v="Deutsche Post"/>
  </node>
  <node id="367096347" version="9" timestamp="2009-10-29T22:52:30Z" uid="42123" user="Ropino" changeset="2985275" lat="48.0190681" lon="11.480581">
    <tag k="amenity" v="post_box"/>
    <tag k="operator" v="Deutsche Post AG"/>
  </node>
  <node id="367096347" version="10" timestamp="2009-11-09T01:02:27Z" uid="36809" user="pfoten_weg_!_" changeset="3070136" lat="48.0190681" lon="11.480581">
    <tag k="amenity" v="post_box"/>
    <tag k="operator" v="Deutsche Post AG"/>
  </node>
  <node id="367096530" version="2" timestamp="2011-03-08T08:57:24Z" uid="49111" user="Markus B" changeset="7492138" lat="-36.2512441" lon="150.2272776">
    <tag k="man_made" v="lighthouse"/>
    <tag k="ref" v="K 2576"/>
    <tag k="seamark:fog_signal:category" v="gong"/>
    <tag k="seamark:landmark:height" v="69"/>
    <tag k="seamark:light:character" v="Fl"/>
    <tag k="seamark:light:colour" v="white"/>
    <tag k="seamark:light:height" v="80"/>
    <tag k="seamark:light:inform" v="At Wagonga and Moruya Rivers Fl.R. and Fl.G. range lights, moved as channel alters, lead over bars shown only when vessels are expected."/>
    <tag k="seamark:light:period" v="15"/>
    <tag k="seamark:light:range" v="20"/>
    <tag k="seamark:light:ref" v="K 2576"/>
    <tag k="seamark:name" v="Montague Island."/>
    <tag k="seamark:type" v="light_major"/>
    <tag k="source" v="US NGA Pub. 111. 2010-09-02."/>
  </node>
  <node id="367096530" version="3" timestamp="2011-06-16T11:17:18Z" uid="128186" user="malcolmh" changeset="8455114" lat="-36.2512441" lon="150.2272776">
    <tag k="man_made" v="lighthouse"/>
    <tag k="ref" v="K 2576"/>
    <tag k="seamark:fog_signal:category" v="gong"/>
    <tag k="seamark:landmark:height" v="69"/>
    <tag k="seamark:light:character" v="Fl"/>
    <tag k="seamark:light:colour" v="white"/>
    <tag k="seamark:light:height" v="80"/>
    <tag k="seamark:light:information" v="At Wagonga and Moruya Rivers Fl.R. and Fl.G. range lights, moved as channel alters, lead over bars shown only when vessels are expected."/>
    <tag k="seamark:light:period" v="15"/>
    <tag k="seamark:light:range" v="20"/>
    <tag k="seamark:light:ref" v="K 2576"/>
    <tag k="seamark:name" v="Montague Island."/>
    <tag k="seamark:type" v="light_major"/>
    <tag k="source" v="US NGA Pub. 111. 2010-09-02."/>
  </node>
  <node id="367098078" version="1" timestamp="2009-03-29T22:41:29Z" uid="36809" user="pfoten_weg_!_" changeset="869093" lat="48.0224541" lon="11.4815911"/>
  <node id="367098078" version="2" timestamp="2009-03-29T22:42:36Z" uid="36809" user="pfoten_weg_!_" changeset="869093" lat="48.0224541" lon="11.4815911"/>
  <node id="367098080" version="1" timestamp="2009-03-29T22:41:29Z" uid="36809" user="pfoten_weg_!_" changeset="869093" lat="48.0224541" lon="11.4815933"/>
  <node id="367098080" version="2" timestamp="2009-03-29T22:43:32Z" uid="36809" user="pfoten_weg_!_" changeset="869093" lat="48.0224541" lon="11.4815933"/>
  <node id="367098082" version="1" timestamp="2009-03-29T22:41:29Z" uid="36809" user="pfoten_weg_!_" changeset="869093" lat="48.0224538" lon="11.4815922"/>
  <node id="367098082" version="2" timestamp="2009-03-29T22:43:31Z" uid="36809" user="pfoten_weg_!_" changeset="869093" lat="48.0224538" lon="11.4815922"/>
  <node id="367098084" version="1" timestamp="2009-03-29T22:41:29Z" uid="36809" user="pfoten_weg_!_" changeset="869093" lat="48.0224541" lon="11.4815912"/>
  <node id="367098084" version="2" timestamp="2009-03-29T22:42:35Z" uid="36809" user="pfoten_weg_!_" changeset="869093" lat="48.0224545" lon="11.4815897"/>
  <node id="367098084" version="3" timestamp="2009-03-29T22:43:31Z" uid="36809" user="pfoten_weg_!_" changeset="869093" lat="48.0224545" lon="11.4815897"/>
  <node id="367098086" version="1" timestamp="2009-03-29T22:41:31Z" uid="36809" user="pfoten_weg_!_" changeset="869093" lat="48.0224548" lon="11.4815907"/>
  <node id="367098086" version="2" timestamp="2009-03-29T22:42:35Z" uid="36809" user="pfoten_weg_!_" changeset="869093" lat="48.0224552" lon="11.4815893"/>
  <node id="367098086" version="3" timestamp="2009-03-29T22:43:31Z" uid="36809" user="pfoten_weg_!_" changeset="869093" lat="48.0224552" lon="11.4815893"/>
  <node id="367098088" version="1" timestamp="2009-03-29T22:41:31Z" uid="36809" user="pfoten_weg_!_" changeset="869093" lat="48.0224555" lon="11.4815912"/>
  <node id="367098088" version="2" timestamp="2009-03-29T22:42:35Z" uid="36809" user="pfoten_weg_!_" changeset="869093" lat="48.0224559" lon="11.4815897"/>
  <node id="367098088" version="3" timestamp="2009-03-29T22:43:31Z" uid="36809" user="pfoten_weg_!_" changeset="869093" lat="48.0224559" lon="11.4815897"/>
  <node id="367098090" version="1" timestamp="2009-03-29T22:41:31Z" uid="36809" user="pfoten_weg_!_" changeset="869093" lat="48.0224558" lon="11.4815922"/>
  <node id="367098090" version="2" timestamp="2009-03-29T22:42:35Z" uid="36809" user="pfoten_weg_!_" changeset="869093" lat="48.0224562" lon="11.4815908"/>
  <node id="367098090" version="3" timestamp="2009-03-29T22:43:31Z" uid="36809" user="pfoten_weg_!_" changeset="869093" lat="48.0224562" lon="11.4815908"/>
  <node id="367098091" version="1" timestamp="2009-03-29T22:41:32Z" uid="36809" user="pfoten_weg_!_" changeset="869093" lat="48.0224556" lon="11.4815933"/>
  <node id="367098091" version="2" timestamp="2009-03-29T22:43:31Z" uid="36809" user="pfoten_weg_!_" changeset="869093" lat="48.0224556" lon="11.4815933"/>
  <node id="367098095" version="1" timestamp="2009-03-29T22:41:32Z" uid="36809" user="pfoten_weg_!_" changeset="869093" lat="48.0224548" lon="11.4815938"/>
  <node id="367098095" version="2" timestamp="2009-03-29T22:43:30Z" uid="36809" user="pfoten_weg_!_" changeset="869093" lat="48.0224548" lon="11.4815938"/>
  <node id="367098446" version="1" timestamp="2009-03-29T22:43:27Z" uid="36809" user="pfoten_weg_!_" changeset="869093" lat="48.0224541" lon="11.4815933"/>
  <node id="367098446" version="2" timestamp="2009-03-30T00:40:13Z" uid="36809" user="pfoten_weg_!_" changeset="869093" lat="48.0224541" lon="11.4815933">
    <tag k="created_by" v="RambaZamba"/>
    <tag k="source" v="survey"/>
  </node>
  <node id="367098446" version="3" timestamp="2009-08-12T13:41:37Z" uid="156995" user="HampelZamba" changeset="2118817" lat="48.0224541" lon="11.4815933">
    <tag k="source" v="survey"/>
  </node>
  <node id="367098446" version="4" timestamp="2009-08-19T13:41:42Z" uid="36809" user="pfoten_weg_!_" changeset="2201154" lat="48.0224541" lon="11.4815933">
    <tag k="source" v="survey at RambaZamba"/>
  </node>
  <node id="367098446" version="5" timestamp="2009-08-28T19:46:15Z" uid="156995" user="HampelZamba" changeset="2294580" lat="48.0224541" lon="11.4815933"/>
  <node id="367098446" version="6" timestamp="2009-08-31T17:42:50Z" uid="36809" user="pfoten_weg_!_" changeset="2328905" lat="48.0224541" lon="11.4815933"/>
  <node id="367098446" version="7" timestamp="2011-01-23T16:30:33Z" uid="8748" user="ToniE" changeset="7063440" lat="48.0224541" lon="11.4815933"/>
  <node id="367098448" version="1" timestamp="2009-03-29T22:43:28Z" uid="36809" user="pfoten_weg_!_" changeset="869093" lat="48.0224545" lon="11.4815897"/>
  <node id="367098448" version="2" timestamp="2009-03-30T00:40:11Z" uid="36809" user="pfoten_weg_!_" changeset="869093" lat="48.0224545" lon="11.4815897">
    <tag k="created_by" v="RambaZamba"/>
    <tag k="source" v="survey"/>
  </node>
  <node id="367098448" version="3" timestamp="2009-08-12T13:41:38Z" uid="156995" user="HampelZamba" changeset="2118817" lat="48.0224545" lon="11.4815897">
    <tag k="source" v="survey"/>
  </node>
  <node id="367098448" version="4" timestamp="2009-08-19T13:41:32Z" uid="36809" user="pfoten_weg_!_" changeset="2201154" lat="48.0224545" lon="11.4815897">
    <tag k="source" v="survey at RambaZamba"/>
  </node>
  <node id="367098448" version="5" timestamp="2009-08-28T19:46:16Z" uid="156995" user="HampelZamba" changeset="2294580" lat="48.0224545" lon="11.4815897"/>
  <node id="367098448" version="6" timestamp="2009-08-31T17:42:49Z" uid="36809" user="pfoten_weg_!_" changeset="2328905" lat="48.0224545" lon="11.4815897"/>
  <node id="367098448" version="7" timestamp="2011-01-23T16:30:33Z" uid="8748" user="ToniE" changeset="7063440" lat="48.0224545" lon="11.4815897"/>
  <node id="367098449" version="1" timestamp="2009-03-29T22:43:28Z" uid="36809" user="pfoten_weg_!_" changeset="869093" lat="48.022456" lon="11.4815897"/>
  <node id="367098449" version="2" timestamp="2009-03-30T00:40:11Z" uid="36809" user="pfoten_weg_!_" changeset="869093" lat="48.022456" lon="11.4815897">
    <tag k="created_by" v="RambaZamba"/>
    <tag k="source" v="survey"/>
  </node>
  <node id="367098449" version="3" timestamp="2009-08-12T13:41:38Z" uid="156995" user="HampelZamba" changeset="2118817" lat="48.022456" lon="11.4815897">
    <tag k="source" v="survey"/>
  </node>
  <node id="367098449" version="4" timestamp="2009-08-19T13:41:32Z" uid="36809" user="pfoten_weg_!_" changeset="2201154" lat="48.022456" lon="11.4815897">
    <tag k="source" v="survey at RambaZamba"/>
  </node>
  <node id="367098449" version="5" timestamp="2009-08-28T19:46:16Z" uid="156995" user="HampelZamba" changeset="2294580" lat="48.022456" lon="11.4815897"/>
  <node id="367098449" version="6" timestamp="2009-08-31T17:42:49Z" uid="36809" user="pfoten_weg_!_" changeset="2328905" lat="48.022456" lon="11.4815897"/>
  <node id="367098449" version="7" timestamp="2011-01-23T16:30:33Z" uid="8748" user="ToniE" changeset="7063440" lat="48.022456" lon="11.4815897"/>
  <node id="367098453" version="1" timestamp="2009-03-29T22:43:28Z" uid="36809" user="pfoten_weg_!_" changeset="869093" lat="48.0224538" lon="11.4815922"/>
  <node id="367098453" version="2" timestamp="2009-03-30T00:40:11Z" uid="36809" user="pfoten_weg_!_" changeset="869093" lat="48.0224538" lon="11.4815922">
    <tag k="created_by" v="RambaZamba"/>
    <tag k="source" v="survey"/>
  </node>
  <node id="367098453" version="3" timestamp="2009-08-12T13:41:38Z" uid="156995" user="HampelZamba" changeset="2118817" lat="48.0224538" lon="11.4815922">
    <tag k="source" v="survey"/>
  </node>
  <node id="367098453" version="4" timestamp="2009-08-19T13:41:34Z" uid="36809" user="pfoten_weg_!_" changeset="2201154" lat="48.0224538" lon="11.4815922">
    <tag k="source" v="survey at RambaZamba"/>
  </node>
  <node id="367098453" version="5" timestamp="2009-08-28T19:46:16Z" uid="156995" user="HampelZamba" changeset="2294580" lat="48.0224538" lon="11.4815922"/>
  <node id="367098453" version="6" timestamp="2009-08-31T17:42:49Z" uid="36809" user="pfoten_weg_!_" changeset="2328905" lat="48.0224538" lon="11.4815922"/>
  <node id="367098453" version="7" timestamp="2011-01-23T16:30:32Z" uid="8748" user="ToniE" changeset="7063440" lat="48.0224538" lon="11.4815922"/>
  <node id="367098456" version="1" timestamp="2009-03-29T22:43:28Z" uid="36809" user="pfoten_weg_!_" changeset="869093" lat="48.0224553" lon="11.4815893"/>
  <node id="367098456" version="2" timestamp="2009-03-30T00:40:12Z" uid="36809" user="pfoten_weg_!_" changeset="869093" lat="48.0224553" lon="11.4815893">
    <tag k="created_by" v="RambaZamba"/>
    <tag k="source" v="survey"/>
  </node>
  <node id="367098456" version="3" timestamp="2009-08-12T13:41:38Z" uid="156995" user="HampelZamba" changeset="2118817" lat="48.0224553" lon="11.4815893">
    <tag k="source" v="survey"/>
  </node>
  <node id="367098456" version="4" timestamp="2009-08-19T13:41:37Z" uid="36809" user="pfoten_weg_!_" changeset="2201154" lat="48.0224553" lon="11.4815893">
    <tag k="source" v="survey at RambaZamba"/>
  </node>
  <node id="367098456" version="5" timestamp="2009-08-28T19:46:16Z" uid="156995" user="HampelZamba" changeset="2294580" lat="48.0224553" lon="11.4815893"/>
  <node id="367098456" version="6" timestamp="2009-08-31T17:42:50Z" uid="36809" user="pfoten_weg_!_" changeset="2328905" lat="48.0224553" lon="11.4815893"/>
  <node id="367098456" version="7" timestamp="2011-01-23T16:30:32Z" uid="8748" user="ToniE" changeset="7063440" lat="48.0224553" lon="11.4815893"/>
  <node id="367098458" version="1" timestamp="2009-03-29T22:43:28Z" uid="36809" user="pfoten_weg_!_" changeset="869093" lat="48.0224563" lon="11.4815908"/>
  <node id="367098458" version="2" timestamp="2009-03-30T00:40:11Z" uid="36809" user="pfoten_weg_!_" changeset="869093" lat="48.0224563" lon="11.4815908">
    <tag k="created_by" v="RambaZamba"/>
    <tag k="source" v="survey"/>
  </node>
  <node id="367098458" version="3" timestamp="2009-08-12T13:41:38Z" uid="156995" user="HampelZamba" changeset="2118817" lat="48.0224563" lon="11.4815908">
    <tag k="source" v="survey"/>
  </node>
  <node id="367098458" version="4" timestamp="2009-08-19T13:41:34Z" uid="36809" user="pfoten_weg_!_" changeset="2201154" lat="48.0224563" lon="11.4815908">
    <tag k="source" v="survey at RambaZamba"/>
  </node>
  <node id="367098458" version="5" timestamp="2009-08-28T19:46:16Z" uid="156995" user="HampelZamba" changeset="2294580" lat="48.0224563" lon="11.4815908"/>
  <node id="367098458" version="6" timestamp="2009-08-31T17:42:49Z" uid="36809" user="pfoten_weg_!_" changeset="2328905" lat="48.0224563" lon="11.4815908"/>
  <node id="367098458" version="7" timestamp="2011-01-23T16:30:32Z" uid="8748" user="ToniE" changeset="7063440" lat="48.0224563" lon="11.4815908"/>
  <node id="367098459" version="1" timestamp="2009-03-29T22:43:29Z" uid="36809" user="pfoten_weg_!_" changeset="869093" lat="48.0224556" lon="11.4815933"/>
  <node id="367098459" version="2" timestamp="2009-03-30T00:40:11Z" uid="36809" user="pfoten_weg_!_" changeset="869093" lat="48.0224556" lon="11.4815933">
    <tag k="created_by" v="RambaZamba"/>
    <tag k="source" v="survey"/>
  </node>
  <node id="367098459" version="3" timestamp="2009-08-12T13:41:38Z" uid="156995" user="HampelZamba" changeset="2118817" lat="48.0224556" lon="11.4815933">
    <tag k="source" v="survey"/>
  </node>
  <node id="367098459" version="4" timestamp="2009-08-19T13:41:35Z" uid="36809" user="pfoten_weg_!_" changeset="2201154" lat="48.0224556" lon="11.4815933">
    <tag k="source" v="survey at RambaZamba"/>
  </node>
  <node id="367098459" version="5" timestamp="2009-08-28T19:46:16Z" uid="156995" user="HampelZamba" changeset="2294580" lat="48.0224556" lon="11.4815933"/>
  <node id="367098459" version="6" timestamp="2009-08-31T17:42:49Z" uid="36809" user="pfoten_weg_!_" changeset="2328905" lat="48.0224556" lon="11.4815933"/>
  <node id="367098459" version="7" timestamp="2011-01-23T16:30:33Z" uid="8748" user="ToniE" changeset="7063440" lat="48.0224556" lon="11.4815933"/>
  <node id="367098460" version="1" timestamp="2009-03-29T22:43:29Z" uid="36809" user="pfoten_weg_!_" changeset="869093" lat="48.0224549" lon="11.4815938"/>
  <node id="367098460" version="2" timestamp="2009-03-30T00:40:12Z" uid="36809" user="pfoten_weg_!_" changeset="869093" lat="48.0224549" lon="11.4815938">
    <tag k="created_by" v="RambaZamba"/>
    <tag k="source" v="survey"/>
  </node>
  <node id="367098460" version="3" timestamp="2009-08-12T13:41:38Z" uid="156995" user="HampelZamba" changeset="2118817" lat="48.0224549" lon="11.4815938">
    <tag k="source" v="survey"/>
  </node>
  <node id="367098460" version="4" timestamp="2009-08-19T13:41:37Z" uid="36809" user="pfoten_weg_!_" changeset="2201154" lat="48.0224549" lon="11.4815938">
    <tag k="source" v="survey at RambaZamba"/>
  </node>
  <node id="367098460" version="5" timestamp="2009-08-28T19:46:16Z" uid="156995" user="HampelZamba" changeset="2294580" lat="48.0224549" lon="11.4815938"/>
  <node id="367098460" version="6" timestamp="2009-08-31T17:42:50Z" uid="36809" user="pfoten_weg_!_" changeset="2328905" lat="48.0224549" lon="11.4815938"/>
  <node id="367098460" version="7" timestamp="2011-01-23T16:30:33Z" uid="8748" user="ToniE" changeset="7063440" lat="48.0224549" lon="11.4815938"/>
  <node id="367098552" version="1" timestamp="2009-03-29T22:44:22Z" uid="36809" user="pfoten_weg_!_" changeset="869093" lat="48.0196104" lon="11.4857048"/>
  <node id="367098552" version="2" timestamp="2009-03-30T00:40:19Z" uid="36809" user="pfoten_weg_!_" changeset="869093" lat="48.0196104" lon="11.4857048">
    <tag k="created_by" v="RambaZamba"/>
    <tag k="source" v="survey"/>
  </node>
  <node id="367098552" version="3" timestamp="2009-08-12T13:41:38Z" uid="156995" user="HampelZamba" changeset="2118817" lat="48.0196104" lon="11.4857048">
    <tag k="source" v="survey"/>
  </node>
  <node id="367098552" version="4" timestamp="2009-08-19T13:42:23Z" uid="36809" user="pfoten_weg_!_" changeset="2201154" lat="48.0196104" lon="11.4857048">
    <tag k="source" v="survey at RambaZamba"/>
  </node>
  <node id="367098552" version="5" timestamp="2009-08-28T19:46:16Z" uid="156995" user="HampelZamba" changeset="2294580" lat="48.0196104" lon="11.4857048"/>
  <node id="367098552" version="6" timestamp="2009-08-31T17:42:52Z" uid="36809" user="pfoten_weg_!_" changeset="2328905" lat="48.0196104" lon="11.4857048"/>
  <node id="367098553" version="1" timestamp="2009-03-29T22:44:22Z" uid="36809" user="pfoten_weg_!_" changeset="869093" lat="48.0196945" lon="11.485681"/>
  <node id="367098553" version="2" timestamp="2009-03-30T00:40:18Z" uid="36809" user="pfoten_weg_!_" changeset="869093" lat="48.0196945" lon="11.485681">
    <tag k="created_by" v="RambaZamba"/>
    <tag k="source" v="survey"/>
  </node>
  <node id="367098553" version="3" timestamp="2009-08-12T13:41:39Z" uid="156995" user="HampelZamba" changeset="2118817" lat="48.0196945" lon="11.485681">
    <tag k="source" v="survey"/>
  </node>
  <node id="367098553" version="4" timestamp="2009-08-19T13:42:21Z" uid="36809" user="pfoten_weg_!_" changeset="2201154" lat="48.0196945" lon="11.485681">
    <tag k="source" v="survey at RambaZamba"/>
  </node>
  <node id="367098553" version="5" timestamp="2009-08-28T19:46:16Z" uid="156995" user="HampelZamba" changeset="2294580" lat="48.0196945" lon="11.485681"/>
  <node id="367098553" version="6" timestamp="2009-08-31T17:42:51Z" uid="36809" user="pfoten_weg_!_" changeset="2328905" lat="48.0196945" lon="11.485681"/>
  <node id="367098554" version="1" timestamp="2009-03-29T22:44:22Z" uid="36809" user="pfoten_weg_!_" changeset="869093" lat="48.0196536" lon="11.486072"/>
  <node id="367098554" version="2" timestamp="2009-03-30T00:40:19Z" uid="36809" user="pfoten_weg_!_" changeset="869093" lat="48.0196536" lon="11.486072">
    <tag k="created_by" v="RambaZamba"/>
    <tag k="source" v="survey"/>
  </node>
  <node id="367098554" version="3" timestamp="2009-08-12T13:41:39Z" uid="156995" user="HampelZamba" changeset="2118817" lat="48.0196536" lon="11.486072">
    <tag k="source" v="survey"/>
  </node>
  <node id="367098554" version="4" timestamp="2009-08-19T13:42:26Z" uid="36809" user="pfoten_weg_!_" changeset="2201154" lat="48.0196536" lon="11.486072">
    <tag k="source" v="survey at RambaZamba"/>
  </node>
  <node id="367098554" version="5" timestamp="2009-08-28T19:46:16Z" uid="156995" user="HampelZamba" changeset="2294580" lat="48.0196536" lon="11.486072"/>
  <node id="367098554" version="6" timestamp="2009-08-31T17:42:52Z" uid="36809" user="pfoten_weg_!_" changeset="2328905" lat="48.0196536" lon="11.486072"/>
  <node id="367098554" version="7" timestamp="2011-05-15T12:39:54Z" uid="163280" user="xxlbiker" changeset="8151337" lat="48.0196161" lon="11.4861386"/>
  <node id="367098555" version="1" timestamp="2009-03-29T22:44:23Z" uid="36809" user="pfoten_weg_!_" changeset="869093" lat="48.0195305" lon="11.4859383">
    <tag k="amenity" v="townhall"/>
    <tag k="created_by" v="RambaZamba"/>
    <tag k="name" v="Rathaus Baierbrunn"/>
    <tag k="source" v="survey"/>
  </node>
  <node id="367098555" version="2" timestamp="2009-08-12T13:41:39Z" uid="156995" user="HampelZamba" changeset="2118817" lat="48.0195305" lon="11.4859383">
    <tag k="amenity" v="townhall"/>
    <tag k="name" v="Rathaus Baierbrunn"/>
    <tag k="source" v="survey"/>
  </node>
  <node id="367098555" version="3" timestamp="2009-08-19T13:42:24Z" uid="36809" user="pfoten_weg_!_" changeset="2201154" lat="48.0195305" lon="11.4859383">
    <tag k="amenity" v="townhall"/>
    <tag k="name" v="Rathaus Baierbrunn"/>
    <tag k="source" v="survey at RambaZamba"/>
  </node>
  <node id="367098555" version="4" timestamp="2009-08-28T19:46:16Z" uid="156995" user="HampelZamba" changeset="2294580" lat="48.0195305" lon="11.4859383">
    <tag k="amenity" v="townhall"/>
    <tag k="name" v="Rathaus Baierbrunn"/>
  </node>
  <node id="367098555" version="5" timestamp="2009-08-28T21:27:46Z" uid="36809" user="pfoten_weg_!_" changeset="2295609" lat="48.0195305" lon="11.4859383">
    <tag k="amenity" v="townhall"/>
    <tag k="discovered_by" v="RambaZamba"/>
    <tag k="name" v="Rathaus Baierbrunn"/>
    <tag k="source" v="survey"/>
  </node>
  <node id="367098555" version="6" timestamp="2009-08-30T09:17:43Z" uid="156995" user="HampelZamba" changeset="2310659" lat="48.0195305" lon="11.4859383">
    <tag k="amenity" v="townhall"/>
    <tag k="name" v="Rathaus Baierbrunn"/>
    <tag k="source" v="survey"/>
  </node>
  <node id="367098555" version="7" timestamp="2009-08-31T17:42:52Z" uid="36809" user="pfoten_weg_!_" changeset="2328905" lat="48.0195305" lon="11.4859383">
    <tag k="amenity" v="townhall"/>
    <tag k="name" v="Rathaus Baierbrunn"/>
    <tag k="source" v="survey"/>
  </node>
  <node id="367098555" version="8" timestamp="2009-10-11T23:33:17Z" uid="36809" user="pfoten_weg_!_" changeset="2821194" lat="48.0195305" lon="11.4859383">
    <tag k="amenity" v="townhall"/>
    <tag k="name" v="Rathaus Baierbrunn"/>
  </node>
  <node id="367098556" version="1" timestamp="2009-03-29T22:44:23Z" uid="36809" user="pfoten_weg_!_" changeset="869093" lat="48.0195564" lon="11.4857238"/>
  <node id="367098556" version="2" timestamp="2009-03-30T00:40:17Z" uid="36809" user="pfoten_weg_!_" changeset="869093" lat="48.0195564" lon="11.4857238">
    <tag k="created_by" v="RambaZamba"/>
    <tag k="source" v="survey"/>
  </node>
  <node id="367098556" version="3" timestamp="2009-08-12T13:41:39Z" uid="156995" user="HampelZamba" changeset="2118817" lat="48.0195564" lon="11.4857238">
    <tag k="source" v="survey"/>
  </node>
  <node id="367098556" version="4" timestamp="2009-08-19T13:42:16Z" uid="36809" user="pfoten_weg_!_" changeset="2201154" lat="48.0195564" lon="11.4857238">
    <tag k="source" v="survey at RambaZamba"/>
  </node>
  <node id="367098556" version="5" timestamp="2009-08-28T19:46:16Z" uid="156995" user="HampelZamba" changeset="2294580" lat="48.0195564" lon="11.4857238"/>
  <node id="367098556" version="6" timestamp="2009-08-31T17:42:51Z" uid="36809" user="pfoten_weg_!_" changeset="2328905" lat="48.0195564" lon="11.4857238"/>
  <node id="367098556" version="7" timestamp="2011-05-15T12:39:54Z" uid="163280" user="xxlbiker" changeset="8151337" lat="48.0195606" lon="11.485728"/>
  <node id="367098557" version="1" timestamp="2009-03-29T22:44:23Z" uid="36809" user="pfoten_weg_!_" changeset="869093" lat="48.0196449" lon="11.4859774"/>
  <node id="367098557" version="2" timestamp="2009-03-30T00:40:16Z" uid="36809" user="pfoten_weg_!_" changeset="869093" lat="48.0196449" lon="11.4859774">
    <tag k="created_by" v="RambaZamba"/>
    <tag k="source" v="survey"/>
  </node>
  <node id="367098557" version="3" timestamp="2009-08-12T13:41:39Z" uid="156995" user="HampelZamba" changeset="2118817" lat="48.0196449" lon="11.4859774">
    <tag k="source" v="survey"/>
  </node>
  <node id="367098557" version="4" timestamp="2009-08-19T13:42:15Z" uid="36809" user="pfoten_weg_!_" changeset="2201154" lat="48.0196449" lon="11.4859774">
    <tag k="source" v="survey at RambaZamba"/>
  </node>
  <node id="367098557" version="5" timestamp="2009-08-28T19:46:16Z" uid="156995" user="HampelZamba" changeset="2294580" lat="48.0196449" lon="11.4859774"/>
  <node id="367098557" version="6" timestamp="2009-08-31T17:42:51Z" uid="36809" user="pfoten_weg_!_" changeset="2328905" lat="48.0196449" lon="11.4859774"/>
  <node id="367098558" version="1" timestamp="2009-03-29T22:44:23Z" uid="36809" user="pfoten_weg_!_" changeset="869093" lat="48.0195542" lon="11.4861339"/>
  <node id="367098558" version="2" timestamp="2009-03-30T00:40:18Z" uid="36809" user="pfoten_weg_!_" changeset="869093" lat="48.0195542" lon="11.4861339">
    <tag k="created_by" v="RambaZamba"/>
    <tag k="source" v="survey"/>
  </node>
  <node id="367098558" version="3" timestamp="2009-08-12T13:41:39Z" uid="156995" user="HampelZamba" changeset="2118817" lat="48.0195542" lon="11.4861339">
    <tag k="source" v="survey"/>
  </node>
  <node id="367098558" version="4" timestamp="2009-08-19T13:42:19Z" uid="36809" user="pfoten_weg_!_" changeset="2201154" lat="48.0195542" lon="11.4861339">
    <tag k="source" v="survey at RambaZamba"/>
  </node>
  <node id="367098558" version="5" timestamp="2009-08-28T19:46:16Z" uid="156995" user="HampelZamba" changeset="2294580" lat="48.0195542" lon="11.4861339"/>
  <node id="367098558" version="6" timestamp="2009-08-31T17:42:51Z" uid="36809" user="pfoten_weg_!_" changeset="2328905" lat="48.0195542" lon="11.4861339"/>
  <node id="367098558" version="7" timestamp="2011-05-15T12:39:54Z" uid="163280" user="xxlbiker" changeset="8151337" lat="48.0195042" lon="11.4861631"/>
  <node id="367098559" version="1" timestamp="2009-03-29T22:44:23Z" uid="36809" user="pfoten_weg_!_" changeset="869093" lat="48.019729" lon="11.4859536"/>
  <node id="367098559" version="2" timestamp="2009-03-30T00:40:17Z" uid="36809" user="pfoten_weg_!_" changeset="869093" lat="48.019729" lon="11.4859536">
    <tag k="created_by" v="RambaZamba"/>
    <tag k="source" v="survey"/>
  </node>
  <node id="367098559" version="3" timestamp="2009-08-12T13:41:39Z" uid="156995" user="HampelZamba" changeset="2118817" lat="48.019729" lon="11.4859536">
    <tag k="source" v="survey"/>
  </node>
  <node id="367098559" version="4" timestamp="2009-08-19T13:42:18Z" uid="36809" user="pfoten_weg_!_" changeset="2201154" lat="48.019729" lon="11.4859536">
    <tag k="source" v="survey at RambaZamba"/>
  </node>
  <node id="367098559" version="5" timestamp="2009-08-28T19:46:16Z" uid="156995" user="HampelZamba" changeset="2294580" lat="48.019729" lon="11.4859536"/>
  <node id="367098559" version="6" timestamp="2009-08-31T17:42:51Z" uid="36809" user="pfoten_weg_!_" changeset="2328905" lat="48.019729" lon="11.4859536"/>
  <node id="367098560" version="1" timestamp="2009-03-29T22:44:24Z" uid="36809" user="pfoten_weg_!_" changeset="869093" lat="48.0194571" lon="11.4857858"/>
  <node id="367098560" version="2" timestamp="2009-03-30T00:40:16Z" uid="36809" user="pfoten_weg_!_" changeset="869093" lat="48.0194571" lon="11.4857858">
    <tag k="created_by" v="RambaZamba"/>
    <tag k="source" v="survey"/>
  </node>
  <node id="367098560" version="3" timestamp="2009-08-12T13:41:39Z" uid="156995" user="HampelZamba" changeset="2118817" lat="48.0194571" lon="11.4857858">
    <tag k="source" v="survey"/>
  </node>
  <node id="367098560" version="4" timestamp="2009-08-19T13:41:56Z" uid="36809" user="pfoten_weg_!_" changeset="2201154" lat="48.0194571" lon="11.4857858">
    <tag k="source" v="survey at RambaZamba"/>
  </node>
  <node id="367098560" version="5" timestamp="2009-08-28T19:46:16Z" uid="156995" user="HampelZamba" changeset="2294580" lat="48.0194571" lon="11.4857858"/>
  <node id="367098560" version="6" timestamp="2009-08-31T17:42:50Z" uid="36809" user="pfoten_weg_!_" changeset="2328905" lat="48.0194571" lon="11.4857858"/>
  <node id="367098560" version="7" timestamp="2011-05-15T12:39:55Z" uid="163280" user="xxlbiker" changeset="8151337" lat="48.0194488" lon="11.4857608"/>
  <node id="367098719" version="2" timestamp="2011-04-16T10:44:56Z" uid="4467" user="Rosscoe" changeset="7877170" lat="-37.799213" lon="144.9613589"/>
  <node id="367098724" version="2" timestamp="2011-04-16T10:45:59Z" uid="4467" user="Rosscoe" changeset="7877170" lat="-37.7992068" lon="144.9613139"/>
  <node id="367098729" version="2" timestamp="2011-04-16T10:45:21Z" uid="4467" user="Rosscoe" changeset="7877170" lat="-37.7986981" lon="144.9614078"/>
  <node id="367098932" version="1" timestamp="2009-03-29T22:45:59Z" uid="36809" user="pfoten_weg_!_" changeset="869093" lat="48.0189341" lon="11.4869507">
    <tag k="amenity" v="restaurant"/>
    <tag k="created_by" v="RambaZamba"/>
    <tag k="name" v="Zur Post"/>
    <tag k="source" v="survey"/>
  </node>
  <node id="367098932" version="2" timestamp="2009-08-12T13:41:39Z" uid="156995" user="HampelZamba" changeset="2118817" lat="48.0189341" lon="11.4869507">
    <tag k="amenity" v="restaurant"/>
    <tag k="name" v="Zur Post"/>
    <tag k="source" v="survey"/>
  </node>
  <node id="367098932" version="3" timestamp="2009-08-19T13:38:26Z" uid="36809" user="pfoten_weg_!_" changeset="2201154" lat="48.0189341" lon="11.4869507">
    <tag k="amenity" v="restaurant"/>
    <tag k="name" v="Zur Post"/>
    <tag k="source" v="survey at RambaZamba"/>
  </node>
  <node id="367098932" version="4" timestamp="2009-08-28T19:46:16Z" uid="156995" user="HampelZamba" changeset="2294580" lat="48.0189341" lon="11.4869507">
    <tag k="amenity" v="restaurant"/>
    <tag k="name" v="Zur Post"/>
  </node>
  <node id="367098932" version="5" timestamp="2009-08-28T21:27:44Z" uid="36809" user="pfoten_weg_!_" changeset="2295609" lat="48.0189341" lon="11.4869507">
    <tag k="amenity" v="restaurant"/>
    <tag k="discovered_by" v="RambaZamba"/>
    <tag k="name" v="Zur Post"/>
    <tag k="source" v="survey"/>
  </node>
  <node id="367098932" version="6" timestamp="2009-08-30T09:17:43Z" uid="156995" user="HampelZamba" changeset="2310659" lat="48.0189341" lon="11.4869507">
    <tag k="amenity" v="restaurant"/>
    <tag k="name" v="Zur Post"/>
    <tag k="source" v="survey"/>
  </node>
  <node id="367098932" version="7" timestamp="2009-08-31T17:42:45Z" uid="36809" user="pfoten_weg_!_" changeset="2328905" lat="48.0189341" lon="11.4869507">
    <tag k="amenity" v="restaurant"/>
    <tag k="name" v="Zur Post"/>
    <tag k="source" v="survey"/>
  </node>
  <node id="367098932" version="8" timestamp="2009-10-11T23:33:17Z" uid="36809" user="pfoten_weg_!_" changeset="2821194" lat="48.0189341" lon="11.4869507">
    <tag k="amenity" v="restaurant"/>
    <tag k="name" v="Zur Post"/>
  </node>
  <node id="367098932" version="9" timestamp="2010-09-20T14:17:02Z" uid="42393" user="mawi42" changeset="5829509" lat="48.0189832" lon="11.4869187">
    <tag k="addr:city" v="Baierbrunn"/>
    <tag k="addr:country" v="DE"/>
    <tag k="addr:housenumber" v="13"/>
    <tag k="addr:postcode" v="82065"/>
    <tag k="addr:street" v="Wolfratshauser Straße"/>
    <tag k="amenity" v="restaurant"/>
    <tag k="name" v="Zur Post"/>
    <tag k="website" v="http://www.zur-post-baierbrunn.de/"/>
  </node>
  <node id="367098934" version="1" timestamp="2009-03-29T22:45:59Z" uid="36809" user="pfoten_weg_!_" changeset="869093" lat="48.0192923" lon="11.4866516">
    <tag k="amenity" v="place_of_worship"/>
    <tag k="created_by" v="RambaZamba"/>
    <tag k="denomination" v="catholic"/>
    <tag k="man_made" v="tower"/>
    <tag k="name" v="St. Peter und Paul (alt)"/>
    <tag k="religion" v="christian"/>
    <tag k="source" v="survey"/>
  </node>
  <node id="367098934" version="2" timestamp="2009-08-12T13:41:39Z" uid="156995" user="HampelZamba" changeset="2118817" lat="48.0192923" lon="11.4866516">
    <tag k="amenity" v="place_of_worship"/>
    <tag k="denomination" v="catholic"/>
    <tag k="man_made" v="tower"/>
    <tag k="name" v="St. Peter und Paul (alt)"/>
    <tag k="religion" v="christian"/>
    <tag k="source" v="survey"/>
  </node>
  <node id="367098934" version="3" timestamp="2009-08-19T13:38:27Z" uid="36809" user="pfoten_weg_!_" changeset="2201154" lat="48.0192923" lon="11.4866516">
    <tag k="amenity" v="place_of_worship"/>
    <tag k="denomination" v="catholic"/>
    <tag k="man_made" v="tower"/>
    <tag k="name" v="St. Peter und Paul (alt)"/>
    <tag k="religion" v="christian"/>
    <tag k="source" v="survey at RambaZamba"/>
  </node>
  <node id="367098934" version="4" timestamp="2009-08-28T19:46:16Z" uid="156995" user="HampelZamba" changeset="2294580" lat="48.0192923" lon="11.4866516">
    <tag k="amenity" v="place_of_worship"/>
    <tag k="denomination" v="catholic"/>
    <tag k="man_made" v="tower"/>
    <tag k="name" v="St. Peter und Paul (alt)"/>
    <tag k="religion" v="christian"/>
  </node>
  <node id="367098934" version="5" timestamp="2009-08-28T21:27:45Z" uid="36809" user="pfoten_weg_!_" changeset="2295609" lat="48.0192923" lon="11.4866516">
    <tag k="amenity" v="place_of_worship"/>
    <tag k="denomination" v="catholic"/>
    <tag k="discovered_by" v="RambaZamba"/>
    <tag k="man_made" v="tower"/>
    <tag k="name" v="St. Peter und Paul (alt)"/>
    <tag k="religion" v="christian"/>
    <tag k="source" v="survey"/>
  </node>
  <node id="367098934" version="6" timestamp="2009-08-30T09:17:43Z" uid="156995" user="HampelZamba" changeset="2310659" lat="48.0192923" lon="11.4866516">
    <tag k="amenity" v="place_of_worship"/>
    <tag k="denomination" v="catholic"/>
    <tag k="man_made" v="tower"/>
    <tag k="name" v="St. Peter und Paul (alt)"/>
    <tag k="religion" v="christian"/>
    <tag k="source" v="survey"/>
  </node>
  <node id="367098934" version="7" timestamp="2009-08-31T17:42:45Z" uid="36809" user="pfoten_weg_!_" changeset="2328905" lat="48.0192923" lon="11.4866516">
    <tag k="amenity" v="place_of_worship"/>
    <tag k="denomination" v="catholic"/>
    <tag k="man_made" v="tower"/>
    <tag k="name" v="St. Peter und Paul (alt)"/>
    <tag k="religion" v="christian"/>
    <tag k="source" v="survey"/>
  </node>
  <node id="367098934" version="8" timestamp="2009-10-11T23:33:18Z" uid="36809" user="pfoten_weg_!_" changeset="2821194" lat="48.0192923" lon="11.4866516">
    <tag k="amenity" v="place_of_worship"/>
    <tag k="denomination" v="catholic"/>
    <tag k="man_made" v="tower"/>
    <tag k="name" v="St. Peter und Paul (alt)"/>
    <tag k="religion" v="christian"/>
  </node>
  <node id="367099762" version="1" timestamp="2009-03-29T22:48:48Z" uid="36809" user="pfoten_weg_!_" changeset="869093" lat="48.0180706" lon="11.4846915">
    <tag k="created_by" v="RambaZamba"/>
    <tag k="name" v="Volvo Gerb"/>
    <tag k="operator" v="Volvo"/>
    <tag k="phone" v="+49 89 74 48 14 0"/>
    <tag k="shop" v="car"/>
    <tag k="source" v="survey"/>
  </node>
  <node id="367099762" version="2" timestamp="2009-08-12T13:41:39Z" uid="156995" user="HampelZamba" changeset="2118817" lat="48.0180706" lon="11.4846915">
    <tag k="name" v="Volvo Gerb"/>
    <tag k="operator" v="Volvo"/>
    <tag k="phone" v="+49 89 74 48 14 0"/>
    <tag k="shop" v="car"/>
    <tag k="source" v="survey"/>
  </node>
  <node id="367099762" version="3" timestamp="2009-08-19T13:38:58Z" uid="36809" user="pfoten_weg_!_" changeset="2201154" lat="48.0180706" lon="11.4846915">
    <tag k="name" v="Volvo Gerb"/>
    <tag k="operator" v="Volvo"/>
    <tag k="phone" v="+49 89 74 48 14 0"/>
    <tag k="shop" v="car"/>
    <tag k="source" v="survey at RambaZamba"/>
  </node>
  <node id="367099762" version="4" timestamp="2009-08-28T19:46:16Z" uid="156995" user="HampelZamba" changeset="2294580" lat="48.0180706" lon="11.4846915">
    <tag k="name" v="Volvo Gerb"/>
    <tag k="operator" v="Volvo"/>
    <tag k="phone" v="+49 89 74 48 14 0"/>
    <tag k="shop" v="car"/>
  </node>
  <node id="367099762" version="5" timestamp="2009-08-28T21:27:45Z" uid="36809" user="pfoten_weg_!_" changeset="2295609" lat="48.0180706" lon="11.4846915">
    <tag k="discovered_by" v="RambaZamba"/>
    <tag k="name" v="Volvo Gerb"/>
    <tag k="operator" v="Volvo"/>
    <tag k="phone" v="+49 89 74 48 14 0"/>
    <tag k="shop" v="car"/>
    <tag k="source" v="survey"/>
  </node>
  <node id="367099762" version="6" timestamp="2009-08-30T09:17:43Z" uid="156995" user="HampelZamba" changeset="2310659" lat="48.0180706" lon="11.4846915">
    <tag k="name" v="Volvo Gerb"/>
    <tag k="operator" v="Volvo"/>
    <tag k="phone" v="+49 89 74 48 14 0"/>
    <tag k="shop" v="car"/>
    <tag k="source" v="survey"/>
  </node>
  <node id="367099762" version="7" timestamp="2009-08-31T17:42:48Z" uid="36809" user="pfoten_weg_!_" changeset="2328905" lat="48.0180706" lon="11.4846915">
    <tag k="name" v="Volvo Gerb"/>
    <tag k="operator" v="Volvo"/>
    <tag k="phone" v="+49 89 74 48 14 0"/>
    <tag k="shop" v="car"/>
    <tag k="source" v="survey"/>
  </node>
  <node id="367099762" version="8" timestamp="2009-10-11T23:33:13Z" uid="36809" user="pfoten_weg_!_" changeset="2821194" lat="48.0180706" lon="11.4846915">
    <tag k="name" v="Volvo Gerb"/>
    <tag k="operator" v="Volvo"/>
    <tag k="phone" v="+49 89 74 48 14 0"/>
    <tag k="shop" v="car"/>
  </node>
  <node id="367099762" version="9" timestamp="2010-09-20T14:17:02Z" uid="42393" user="mawi42" changeset="5829509" lat="48.0180707" lon="11.4846914">
    <tag k="addr:city" v="Baierbrunn"/>
    <tag k="addr:country" v="DE"/>
    <tag k="addr:housenumber" v="62"/>
    <tag k="addr:postcode" v="82065"/>
    <tag k="addr:street" v="Wolfratshauser Straße"/>
    <tag k="name" v="Volvo Gerb"/>
    <tag k="operator" v="Volvo"/>
    <tag k="phone" v="+49 89 74 48 14 0"/>
    <tag k="shop" v="car"/>
  </node>
  <node id="367099766" version="1" timestamp="2009-03-29T22:48:48Z" uid="36809" user="pfoten_weg_!_" changeset="869093" lat="48.0187365" lon="11.4852205">
    <tag k="created_by" v="RambaZamba"/>
    <tag k="name" v="Stahuber"/>
    <tag k="shop" v="convenience"/>
    <tag k="source" v="survey"/>
  </node>
  <node id="367099766" version="2" timestamp="2009-08-12T13:41:39Z" uid="156995" user="HampelZamba" changeset="2118817" lat="48.0187365" lon="11.4852205">
    <tag k="name" v="Stahuber"/>
    <tag k="shop" v="convenience"/>
    <tag k="source" v="survey"/>
  </node>
  <node id="367099766" version="3" timestamp="2009-08-19T13:38:59Z" uid="36809" user="pfoten_weg_!_" changeset="2201154" lat="48.0187365" lon="11.4852205">
    <tag k="name" v="Stahuber"/>
    <tag k="shop" v="convenience"/>
    <tag k="source" v="survey at RambaZamba"/>
  </node>
  <node id="367099766" version="4" timestamp="2009-08-28T19:46:16Z" uid="156995" user="HampelZamba" changeset="2294580" lat="48.0187365" lon="11.4852205">
    <tag k="name" v="Stahuber"/>
    <tag k="shop" v="convenience"/>
  </node>
  <node id="367099766" version="5" timestamp="2009-08-28T21:27:46Z" uid="36809" user="pfoten_weg_!_" changeset="2295609" lat="48.0187365" lon="11.4852205">
    <tag k="discovered_by" v="RambaZamba"/>
    <tag k="name" v="Stahuber"/>
    <tag k="shop" v="convenience"/>
    <tag k="source" v="survey"/>
  </node>
  <node id="367099766" version="6" timestamp="2009-08-30T09:17:44Z" uid="156995" user="HampelZamba" changeset="2310659" lat="48.0187365" lon="11.4852205">
    <tag k="name" v="Stahuber"/>
    <tag k="shop" v="convenience"/>
    <tag k="source" v="survey"/>
  </node>
  <node id="367099766" version="7" timestamp="2009-08-31T17:42:48Z" uid="36809" user="pfoten_weg_!_" changeset="2328905" lat="48.0187365" lon="11.4852205">
    <tag k="name" v="Stahuber"/>
    <tag k="shop" v="convenience"/>
    <tag k="source" v="survey"/>
  </node>
  <node id="367099766" version="8" timestamp="2009-10-11T23:33:16Z" uid="36809" user="pfoten_weg_!_" changeset="2821194" lat="48.0187365" lon="11.4852205">
    <tag k="name" v="Stahuber"/>
    <tag k="shop" v="convenience"/>
  </node>
  <node id="367099766" version="9" timestamp="2010-09-26T14:42:29Z" uid="163280" user="xxlbiker" changeset="5881568" lat="48.018709" lon="11.485226">
    <tag k="name" v="Stahuber"/>
    <tag k="shop" v="convenience"/>
  </node>
  <node id="367099768" version="1" timestamp="2009-03-29T22:48:48Z" uid="36809" user="pfoten_weg_!_" changeset="869093" lat="48.0185517" lon="11.485718">
    <tag k="amenity" v="fire_station"/>
    <tag k="created_by" v="RambaZamba"/>
    <tag k="name" v="Feuerwehr Baierbrunn"/>
    <tag k="source" v="survey"/>
  </node>
  <node id="367099768" version="2" timestamp="2009-08-12T13:41:39Z" uid="156995" user="HampelZamba" changeset="2118817" lat="48.0185517" lon="11.485718">
    <tag k="amenity" v="fire_station"/>
    <tag k="name" v="Feuerwehr Baierbrunn"/>
    <tag k="source" v="survey"/>
  </node>
  <node id="367099768" version="3" timestamp="2009-08-19T13:38:57Z" uid="36809" user="pfoten_weg_!_" changeset="2201154" lat="48.0185517" lon="11.485718">
    <tag k="amenity" v="fire_station"/>
    <tag k="name" v="Feuerwehr Baierbrunn"/>
    <tag k="source" v="survey at RambaZamba"/>
  </node>
  <node id="367099768" version="4" timestamp="2009-08-28T19:46:16Z" uid="156995" user="HampelZamba" changeset="2294580" lat="48.0185517" lon="11.485718">
    <tag k="amenity" v="fire_station"/>
    <tag k="name" v="Feuerwehr Baierbrunn"/>
  </node>
  <node id="367099768" version="5" timestamp="2009-08-28T21:27:45Z" uid="36809" user="pfoten_weg_!_" changeset="2295609" lat="48.0185517" lon="11.485718">
    <tag k="amenity" v="fire_station"/>
    <tag k="discovered_by" v="RambaZamba"/>
    <tag k="name" v="Feuerwehr Baierbrunn"/>
    <tag k="source" v="survey"/>
  </node>
  <node id="367099768" version="6" timestamp="2009-08-30T09:17:44Z" uid="156995" user="HampelZamba" changeset="2310659" lat="48.0185517" lon="11.485718">
    <tag k="amenity" v="fire_station"/>
    <tag k="name" v="Feuerwehr Baierbrunn"/>
    <tag k="source" v="survey"/>
  </node>
  <node id="367099768" version="7" timestamp="2009-08-31T17:42:46Z" uid="36809" user="pfoten_weg_!_" changeset="2328905" lat="48.0185517" lon="11.485718">
    <tag k="amenity" v="fire_station"/>
    <tag k="name" v="Feuerwehr Baierbrunn"/>
    <tag k="source" v="survey"/>
  </node>
  <node id="367099768" version="8" timestamp="2009-10-11T23:33:16Z" uid="36809" user="pfoten_weg_!_" changeset="2821194" lat="48.0185517" lon="11.485718">
    <tag k="amenity" v="fire_station"/>
    <tag k="name" v="Feuerwehr Baierbrunn"/>
  </node>
  <node id="367099768" version="9" timestamp="2010-09-26T14:42:31Z" uid="163280" user="xxlbiker" changeset="5881568" lat="48.0185627" lon="11.4857235">
    <tag k="amenity" v="fire_station"/>
    <tag k="name" v="Feuerwehr Baierbrunn"/>
  </node>
  <node id="367099899" version="1" timestamp="2009-03-29T22:49:04Z" uid="34428" user="usm78-gis" changeset="870330" lat="60.5566053" lon="29.5947585"/>
  <node id="367099899" version="2" timestamp="2012-03-04T06:22:06Z" uid="534149" user="lurlrlrl" changeset="10864918" lat="60.5566053" lon="29.5947585"/>
  <node id="367099900" version="1" timestamp="2009-03-29T22:49:04Z" uid="34428" user="usm78-gis" changeset="870330" lat="60.5581241" lon="29.5963034"/>
  <node id="367099900" version="2" timestamp="2012-03-04T06:22:06Z" uid="534149" user="lurlrlrl" changeset="10864918" lat="60.5581241" lon="29.5963034"/>
  <node id="367099901" version="1" timestamp="2009-03-29T22:49:04Z" uid="34428" user="usm78-gis" changeset="870330" lat="60.5589679" lon="29.60008"/>
  <node id="367099901" version="2" timestamp="2012-03-04T06:22:06Z" uid="534149" user="lurlrlrl" changeset="10864918" lat="60.5589679" lon="29.60008"/>
  <node id="367099903" version="1" timestamp="2009-03-29T22:49:04Z" uid="34428" user="usm78-gis" changeset="870330" lat="60.559221" lon="29.6031699"/>
  <node id="367099903" version="2" timestamp="2012-03-04T06:22:07Z" uid="534149" user="lurlrlrl" changeset="10864918" lat="60.559221" lon="29.6031699"/>
  <node id="367099904" version="1" timestamp="2009-03-29T22:49:04Z" uid="34428" user="usm78-gis" changeset="870330" lat="60.558546" lon="29.6045432"/>
  <node id="367099904" version="2" timestamp="2012-03-04T06:22:07Z" uid="534149" user="lurlrlrl" changeset="10864918" lat="60.558546" lon="29.6045432"/>
  <node id="367099905" version="1" timestamp="2009-03-29T22:49:04Z" uid="34428" user="usm78-gis" changeset="870330" lat="60.5587992" lon="29.6067748"/>
  <node id="367099905" version="2" timestamp="2012-03-04T06:22:07Z" uid="534149" user="lurlrlrl" changeset="10864918" lat="60.5587992" lon="29.6067748"/>
  <node id="367099906" version="1" timestamp="2009-03-29T22:49:04Z" uid="34428" user="usm78-gis" changeset="870330" lat="60.5597273" lon="29.6074614"/>
  <node id="367099906" version="2" timestamp="2012-03-04T06:22:07Z" uid="534149" user="lurlrlrl" changeset="10864918" lat="60.5597273" lon="29.6074614"/>
  <node id="367099908" version="1" timestamp="2009-03-29T22:49:04Z" uid="34428" user="usm78-gis" changeset="870330" lat="60.5600648" lon="29.6095214"/>
  <node id="367099908" version="2" timestamp="2012-03-04T06:22:07Z" uid="534149" user="lurlrlrl" changeset="10864918" lat="60.5600648" lon="29.6095214"/>
  <node id="367099909" version="1" timestamp="2009-03-29T22:49:04Z" uid="34428" user="usm78-gis" changeset="870330" lat="60.5608241" lon="29.611238"/>
  <node id="367099909" version="2" timestamp="2012-03-04T06:22:07Z" uid="534149" user="lurlrlrl" changeset="10864918" lat="60.5608241" lon="29.611238"/>
  <node id="367099910" version="1" timestamp="2009-03-29T22:49:04Z" uid="34428" user="usm78-gis" changeset="870330" lat="60.5614147" lon="29.6124396"/>
  <node id="367099910" version="2" timestamp="2012-03-04T06:22:07Z" uid="534149" user="lurlrlrl" changeset="10864918" lat="60.5614147" lon="29.6124396"/>
  <node id="367099912" version="1" timestamp="2009-03-29T22:49:04Z" uid="34428" user="usm78-gis" changeset="870330" lat="60.5615835" lon="29.6153578"/>
  <node id="367099912" version="2" timestamp="2012-03-04T06:22:07Z" uid="534149" user="lurlrlrl" changeset="10864918" lat="60.5615835" lon="29.6153578"/>
  <node id="367099913" version="1" timestamp="2009-03-29T22:49:04Z" uid="34428" user="usm78-gis" changeset="870330" lat="60.5620053" lon="29.621366"/>
  <node id="367099913" version="2" timestamp="2012-03-04T06:22:07Z" uid="534149" user="lurlrlrl" changeset="10864918" lat="60.5620053" lon="29.621366"/>
  <node id="367099914" version="1" timestamp="2009-03-29T22:49:04Z" uid="34428" user="usm78-gis" changeset="870330" lat="60.5622584" lon="29.6247992"/>
  <node id="367099914" version="2" timestamp="2012-03-04T06:22:07Z" uid="534149" user="lurlrlrl" changeset="10864918" lat="60.5622584" lon="29.6247992"/>
  <node id="367099916" version="1" timestamp="2009-03-29T22:49:05Z" uid="34428" user="usm78-gis" changeset="870330" lat="60.5620897" lon="29.6289191"/>
  <node id="367099916" version="2" timestamp="2012-03-04T06:22:08Z" uid="534149" user="lurlrlrl" changeset="10864918" lat="60.5620897" lon="29.6289191"/>
  <node id="367099917" version="1" timestamp="2009-03-29T22:49:05Z" uid="34428" user="usm78-gis" changeset="870330" lat="60.5623428" lon="29.630979"/>
  <node id="367099917" version="2" timestamp="2012-03-04T06:22:08Z" uid="534149" user="lurlrlrl" changeset="10864918" lat="60.5623428" lon="29.630979"/>
  <node id="367099919" version="1" timestamp="2009-03-29T22:49:05Z" uid="34428" user="usm78-gis" changeset="870330" lat="60.5627646" lon="29.6328673"/>
  <node id="367099919" version="2" timestamp="2012-03-04T06:22:08Z" uid="534149" user="lurlrlrl" changeset="10864918" lat="60.5627646" lon="29.6328673"/>
  <node id="367099920" version="1" timestamp="2009-03-29T22:49:05Z" uid="34428" user="usm78-gis" changeset="870330" lat="60.5626803" lon="29.6345839"/>
  <node id="367099920" version="2" timestamp="2012-03-04T06:22:08Z" uid="534149" user="lurlrlrl" changeset="10864918" lat="60.5626803" lon="29.6345839"/>
  <node id="367099922" version="1" timestamp="2009-03-29T22:49:05Z" uid="34428" user="usm78-gis" changeset="870330" lat="60.5641988" lon="29.6354422"/>
  <node id="367099922" version="2" timestamp="2012-03-04T06:22:08Z" uid="534149" user="lurlrlrl" changeset="10864918" lat="60.5641988" lon="29.6354422"/>
  <node id="367099923" version="1" timestamp="2009-03-29T22:49:05Z" uid="34428" user="usm78-gis" changeset="870330" lat="60.5651268" lon="29.6371588"/>
  <node id="367099923" version="2" timestamp="2012-03-04T06:22:08Z" uid="534149" user="lurlrlrl" changeset="10864918" lat="60.5651268" lon="29.6371588"/>
  <node id="367099925" version="1" timestamp="2009-03-29T22:49:05Z" uid="34428" user="usm78-gis" changeset="870330" lat="60.5655486" lon="29.6411071"/>
  <node id="367099925" version="2" timestamp="2012-03-04T06:22:08Z" uid="534149" user="lurlrlrl" changeset="10864918" lat="60.5655486" lon="29.6411071"/>
  <node id="367090082" version="4" timestamp="2012-04-21T02:19:41Z" uid="328555" user="peb12345" changeset="11370015" lat="49.5180127" lon="8.7863154"/>
  <node id="367090083" version="4" timestamp="2012-04-21T02:19:42Z" uid="328555" user="peb12345" changeset="11370015" lat="49.5177106" lon="8.7861699"/>
  <node id="367090084" version="4" timestamp="2012-04-21T02:19:42Z" uid="328555" user="peb12345" changeset="11370015" lat="49.5176649" lon="8.7867025"/>
  <node id="367090086" version="4" timestamp="2012-04-21T02:19:42Z" uid="328555" user="peb12345" changeset="11370015" lat="49.5179667" lon="8.7867542"/>
  <node id="367090087" version="4" timestamp="2012-04-21T02:19:42Z" uid="328555" user="peb12345" changeset="11370015" lat="49.5176388" lon="8.7868083"/>
  <node id="367090088" version="4" timestamp="2012-04-21T02:19:42Z" uid="328555" user="peb12345" changeset="11370015" lat="49.5176096" lon="8.7875197"/>
  <node id="367090089" version="4" timestamp="2012-04-21T02:19:42Z" uid="328555" user="peb12345" changeset="11370015" lat="49.5178882" lon="8.7875094"/>
  <node id="367090090" version="4" timestamp="2012-04-21T02:19:42Z" uid="328555" user="peb12345" changeset="11370015" lat="49.5179291" lon="8.786888"/>
  <node id="367090104" version="3" timestamp="2012-07-17T00:10:48Z" uid="722137" user="OSMF Redaction Account" changeset="12253982" lat="49.5180054" lon="8.7874009"/>
  <node id="367090121" version="3" timestamp="2012-07-17T00:10:48Z" uid="722137" user="OSMF Redaction Account" changeset="12253982" lat="49.5180356" lon="8.7875415"/>
  <node id="367092306" version="3" timestamp="2012-07-17T00:10:47Z" uid="722137" user="OSMF Redaction Account" changeset="12253982" lat="49.5083372" lon="8.7577979"/>
  <node id="367092756" version="8" timestamp="2012-07-22T17:03:48Z" uid="722137" user="OSMF Redaction Account" changeset="12436210" lat="60.5547488" lon="29.5628294"/>
  <node id="367092892" version="9" timestamp="2012-07-13T17:48:00Z" uid="290723" user="sulagaloh" changeset="12209235" lat="48.024091" lon="11.4850893">
    <tag k="amenity" v="kindergarten"/>
    <tag k="name" v="Kindergarten St. Peter und Paul"/>
    <tag k="website" v="http://www.kiga-baierbrunn.de/"/>
  </node>
  <node id="367092892" version="10" timestamp="2012-07-13T17:50:32Z" uid="290723" user="sulagaloh" changeset="12209235" lat="48.024091" lon="11.4850893"/>
  <node id="367092893" version="11" timestamp="2012-06-07T21:14:04Z" uid="8703" user="rolandg" changeset="11830019" lat="48.024206" lon="11.4837755"/>
  <node id="367093047" version="4" timestamp="2012-07-18T23:16:58Z" uid="722137" user="OSMF Redaction Account" changeset="12301415" lat="37.2585549" lon="-121.8766497"/>
  <node id="367095403" version="4" timestamp="2012-04-24T22:33:03Z" uid="328555" user="peb12345" changeset="11410099" lat="49.5236087" lon="8.6888673"/>
  <node id="367098552" version="7" timestamp="2012-07-02T18:48:57Z" uid="545896" user="s-o-f" changeset="12092640" lat="48.0196003" lon="11.4856591"/>
  <node id="367098552" version="8" timestamp="2012-07-10T16:40:28Z" uid="290723" user="sulagaloh" changeset="12175736" lat="48.0196003" lon="11.4856591"/>
  <node id="367098553" version="7" timestamp="2012-07-02T18:48:57Z" uid="545896" user="s-o-f" changeset="12092640" lat="48.019685" lon="11.4856402"/>
  <node id="367098553" version="8" timestamp="2012-07-10T16:40:28Z" uid="290723" user="sulagaloh" changeset="12175736" lat="48.019685" lon="11.4856402"/>
  <node id="367098554" version="8" timestamp="2012-07-02T18:48:58Z" uid="545896" user="s-o-f" changeset="12092640" lat="48.0196264" lon="11.4861276"/>
  <node id="367098554" version="9" timestamp="2012-07-10T16:40:28Z" uid="290723" user="sulagaloh" changeset="12175736" lat="48.0196264" lon="11.4861276"/>
  <node id="367098555" version="9" timestamp="2012-07-10T16:40:28Z" uid="290723" user="sulagaloh" changeset="12175736" lat="48.0195305" lon="11.4859383"/>
  <node id="367098556" version="8" timestamp="2012-07-02T18:48:58Z" uid="545896" user="s-o-f" changeset="12092640" lat="48.0195483" lon="11.4857253"/>
  <node id="367098556" version="9" timestamp="2012-07-10T16:40:28Z" uid="290723" user="sulagaloh" changeset="12175736" lat="48.0195483" lon="11.4857253"/>
  <node id="367098557" version="7" timestamp="2012-07-02T18:48:58Z" uid="545896" user="s-o-f" changeset="12092640" lat="48.0196277" lon="11.4859335"/>
  <node id="367098557" version="8" timestamp="2012-07-10T16:40:28Z" uid="290723" user="sulagaloh" changeset="12175736" lat="48.0196277" lon="11.4859335"/>
  <node id="367098558" version="8" timestamp="2012-07-02T18:48:58Z" uid="545896" user="s-o-f" changeset="12092640" lat="48.0195162" lon="11.4861659"/>
  <node id="367098558" version="9" timestamp="2012-07-10T16:40:28Z" uid="290723" user="sulagaloh" changeset="12175736" lat="48.0195162" lon="11.4861659"/>
  <node id="367098559" version="7" timestamp="2012-07-02T18:48:58Z" uid="545896" user="s-o-f" changeset="12092640" lat="48.0197124" lon="11.4859146"/>
  <node id="367098559" version="8" timestamp="2012-07-10T16:40:28Z" uid="290723" user="sulagaloh" changeset="12175736" lat="48.0197124" lon="11.4859146"/>
  <node id="367098560" version="8" timestamp="2012-07-02T18:48:58Z" uid="545896" user="s-o-f" changeset="12092640" lat="48.0194387" lon="11.4857718"/>
  <node id="367098560" version="9" timestamp="2012-07-10T16:40:28Z" uid="290723" user="sulagaloh" changeset="12175736" lat="48.0194387" lon="11.4857718"/>
  <node id="367098932" version="10" timestamp="2012-06-08T12:43:49Z" uid="8703" user="rolandg" changeset="11834873" lat="48.0189832" lon="11.4869187"/>
  <node id="367098934" version="9" timestamp="2012-06-08T12:43:50Z" uid="8703" user="rolandg" changeset="11834873" lat="48.0192923" lon="11.4866516"/>
  <node id="367099762" version="10" timestamp="2012-06-08T12:43:50Z" uid="8703" user="rolandg" changeset="11834873" lat="48.0180707" lon="11.4846914"/>
  <node id="367099766" version="10" timestamp="2012-06-08T12:43:50Z" uid="8703" user="rolandg" changeset="11834873" lat="48.018709" lon="11.485226"/>
  <node id="367099768" version="10" timestamp="2012-06-08T12:43:50Z" uid="8703" user="rolandg" changeset="11834873" lat="48.0185627" lon="11.4857235"/>
</osm>
