<?xml version='1.0' encoding='UTF-8'?>
<osm version="0.6" generator="libosmium/2.20.0">
  <node id="367777935" version="2" timestamp="2010-05-25T05:22:36Z" uid="18775" user="drlizau" changeset="4800396" lat="42.2512045" lon="-71.7928487">
    <tag k="addr:state" v="MA"/>
    <tag k="amenity" v="fire_station"/>
    <tag k="ele" v="186"/>
    <tag k="gnis:county_name" v="Worcester"/>
    <tag k="gnis:feature_id" v="1980273"/>
    <tag k="gnis:import_uuid" v="57871b70-0100-4405-bb30-88b2e001a944"/>
    <tag k="gnis:reviewed" v="no"/>
    <tag k="name" v="Providence Street Firehouse"/>
    <tag k="source" v="USGS Geonames"/>
  </node>
  <node id="367778383" version="2" timestamp="2010-05-25T05:47:58Z" uid="18775" user="drlizau" changeset="4800396" lat="42.260648" lon="-72.2409132">
    <tag k="addr:state" v="MA"/>
    <tag k="amenity" v="library"/>
    <tag k="ele" v="131"/>
    <tag k="gnis:county_name" v="Hampshire"/>
    <tag k="gnis:feature_id" v="1977842"/>
    <tag k="gnis:import_uuid" v="57871b70-0100-4405-bb30-88b2e001a944"/>
    <tag k="gnis:reviewed" v="no"/>
    <tag k="name" v="Young Mens Library Association"/>
    <tag k="source" v="USGS Geonames"/>
  </node>
  <node id="367778815" version="2" timestamp="2010-05-25T05:26:30Z" uid="18775" user="drlizau" changeset="4800396" lat="42.3655" lon="-71.1699">
    <tag k="addr:state" v="MA"/>
    <tag k="amenity" v="library"/>
    <tag k="ele" v="13"/>
    <tag k="gnis:county_name" v="Middlesex"/>
    <tag k="gnis:feature_id" v="2341742"/>
    <tag k="gnis:import_uuid" v="57871b70-0100-4405-bb30-88b2e001a944"/>
    <tag k="gnis:reviewed" v="no"/>
    <tag k="name" v="Primary Source Library"/>
    <tag k="source" v="USGS Geonames"/>
  </node>
  <node id="367779300" version="2" timestamp="2010-05-25T05:45:14Z" uid="18775" user="drlizau" changeset="4800396" lat="42.3589" lon="-71.0568">
    <tag k="addr:state" v="MA"/>
    <tag k="amenity" v="library"/>
    <tag k="ele" v="7"/>
    <tag k="gnis:county_name" v="Suffolk"/>
    <tag k="gnis:feature_id" v="2344960"/>
    <tag k="gnis:import_uuid" v="57871b70-0100-4405-bb30-88b2e001a944"/>
    <tag k="gnis:reviewed" v="no"/>
    <tag k="name" v="US Environmental Protection Agency New England Library"/>
    <tag k="source" v="USGS Geonames"/>
  </node>
  <node id="367779412" version="2" timestamp="2010-05-25T05:43:14Z" uid="18775" user="drlizau" changeset="4800396" lat="41.6592" lon="-70.5677">
    <tag k="addr:state" v="MA"/>
    <tag k="amenity" v="library"/>
    <tag k="ele" v="29"/>
    <tag k="gnis:county_name" v="Barnstable"/>
    <tag k="gnis:feature_id" v="2344959"/>
    <tag k="gnis:import_uuid" v="57871b70-0100-4405-bb30-88b2e001a944"/>
    <tag k="gnis:reviewed" v="no"/>
    <tag k="name" v="US Coast Guard Morale, Well-Being and Recreation Library"/>
    <tag k="source" v="USGS Geonames"/>
  </node>
  <node id="367779507" version="2" timestamp="2010-05-25T05:41:12Z" uid="18775" user="drlizau" changeset="4800396" lat="42.667311" lon="-71.7067385">
    <tag k="addr:state" v="MA"/>
    <tag k="amenity" v="townhall"/>
    <tag k="ele" v="94"/>
    <tag k="gnis:county_name" v="Middlesex"/>
    <tag k="gnis:feature_id" v="1973896"/>
    <tag k="gnis:import_uuid" v="57871b70-0100-4405-bb30-88b2e001a944"/>
    <tag k="gnis:reviewed" v="no"/>
    <tag k="name" v="Townsend Town Hall"/>
    <tag k="source" v="USGS Geonames"/>
  </node>
</osm>
