<?xml version='1.0' encoding='UTF-8'?>
<osm version="0.6" generator="libosmium/2.20.0">
  <node id="368636137" version="2" timestamp="2011-06-01T02:32:30Z" uid="23543" user="jkjk" changeset="8306968" lat="37.8241669" lon="127.5134176">
    <tag k="name" v="가평역 (Gapyeong Station)"/>
    <tag k="name:en" v="Gapyeong Station"/>
    <tag k="name:ko_rm" v="Gapyeongyeok"/>
    <tag k="ncat" v="기차역"/>
    <tag k="railway" v="station"/>
  </node>
  <node id="368636441" version="2" timestamp="2011-06-01T02:32:22Z" uid="23543" user="jkjk" changeset="8306968" lat="38.2125304" lon="127.1385993">
    <tag k="name" v="신탄리역 (Sintalli Station)"/>
    <tag k="name:en" v="Sintalli Station"/>
    <tag k="name:ko_rm" v="Sintalliyeok"/>
    <tag k="ncat" v="기차역"/>
    <tag k="railway" v="station"/>
    <tag k="source" v="http://kr.open.gugi.yahoo.com"/>
  </node>
  <node id="368636504" version="2" timestamp="2011-06-01T02:32:31Z" uid="23543" user="jkjk" changeset="8306968" lat="37.8260859" lon="127.7228522">
    <tag k="name" v="김유정역 (Gimyujeong Station)"/>
    <tag k="name:en" v="Gimyujeong Station"/>
    <tag k="name:ko_rm" v="Gimyujeongyeok"/>
    <tag k="ncat" v="기차역"/>
    <tag k="railway" v="station"/>
    <tag k="source" v="http://kr.open.gugi.yahoo.com"/>
  </node>
  <node id="368636798" version="2" timestamp="2011-06-01T02:32:32Z" uid="23543" user="jkjk" changeset="8306968" lat="37.8156" lon="127.657214"/>
  <node id="368637544" version="2" timestamp="2011-06-01T02:32:03Z" uid="23543" user="jkjk" changeset="8306968" lat="38.0245594" lon="127.0713528">
    <tag k="name" v="전곡역 (Jeongok Station)"/>
    <tag k="name:en" v="Jeongok Station"/>
    <tag k="name:ko_rm" v="Jeongokyeok"/>
    <tag k="ncat" v="기차역"/>
    <tag k="railway" v="station"/>
    <tag k="source" v="http://kr.open.gugi.yahoo.com"/>
  </node>
  <node id="368637616" version="2" timestamp="2011-06-01T02:32:34Z" uid="23543" user="jkjk" changeset="8306968" lat="38.003251" lon="127.090975"/>
  <node id="368636137" version="3" timestamp="2012-07-20T22:43:32Z" uid="722137" user="OSMF Redaction Account" changeset="12395145" lat="37.828692" lon="127.493748">
    <tag k="name" v="가평역 (Gapyeong Station)"/>
    <tag k="name:en" v="Gapyeong Station"/>
    <tag k="name:ko_rm" v="Gapyeongyeok"/>
    <tag k="ncat" v="기차역"/>
    <tag k="railway" v="station"/>
  </node>
  <node id="368636441" version="3" timestamp="2012-07-20T23:16:28Z" uid="722137" user="OSMF Redaction Account" changeset="12395848" lat="38.212525" lon="127.138093">
    <tag k="name" v="신탄리역 (Sintalli Station)"/>
    <tag k="name:en" v="Sintalli Station"/>
    <tag k="name:ko_rm" v="Sintalliyeok"/>
    <tag k="ncat" v="기차역"/>
    <tag k="railway" v="station"/>
    <tag k="source" v="http://kr.open.gugi.yahoo.com"/>
  </node>
  <node id="368636504" version="3" timestamp="2012-07-20T22:43:07Z" uid="722137" user="OSMF Redaction Account" changeset="12395137" lat="37.823158" lon="127.728896">
    <tag k="name" v="김유정역 (Gimyujeong Station)"/>
    <tag k="name:en" v="Gimyujeong Station"/>
    <tag k="name:ko_rm" v="Gimyujeongyeok"/>
    <tag k="ncat" v="기차역"/>
    <tag k="railway" v="station"/>
    <tag k="source" v="http://kr.open.gugi.yahoo.com"/>
  </node>
  <node id="368637544" version="3" timestamp="2012-07-20T23:16:52Z" uid="722137" user="OSMF Redaction Account" changeset="12395854" lat="38.023629" lon="127.070869">
    <tag k="name" v="전곡역 (Jeongok Station)"/>
    <tag k="name:en" v="Jeongok Station"/>
    <tag k="name:ko_rm" v="Jeongokyeok"/>
    <tag k="ncat" v="기차역"/>
    <tag k="railway" v="station"/>
    <tag k="source" v="http://kr.open.gugi.yahoo.com"/>
  </node>
</osm>
