<?xml version='1.0' encoding='UTF-8'?>
<osm version="0.6" generator="libosmium/2.20.0">
  <node id="368874548" version="2" timestamp="2009-04-07T19:09:58Z" uid="6975" user="ulfl" changeset="298062" lat="37.530899" lon="127.08409">
    <tag k="amenity" v="sauna"/>
    <tag k="name" v="우리유황온천 (Uri Sulfur Hot Spring)"/>
    <tag k="name:en" v="Uri Sulfur Hot Spring"/>
    <tag k="name:ko_rm" v="Uriyuhwangoncheon"/>
    <tag k="natural" v="spring"/>
    <tag k="ncat" v="온천"/>
    <tag k="source" v="http://kr.open.gugi.yahoo.com"/>
  </node>
  <node id="368874552" version="2" timestamp="2009-04-07T19:09:56Z" uid="6975" user="ulfl" changeset="298062" lat="37.639492" lon="127.073321">
    <tag k="amenity" v="sauna"/>
    <tag k="name" v="서울온천 (Seoul Hot Spring)"/>
    <tag k="name:en" v="Seoul Hot Spring"/>
    <tag k="name:ko_rm" v="Seouloncheon"/>
    <tag k="natural" v="spring"/>
    <tag k="ncat" v="온천"/>
    <tag k="source" v="http://kr.open.gugi.yahoo.com"/>
  </node>
  <node id="368874554" version="2" timestamp="2009-04-07T19:09:56Z" uid="6975" user="ulfl" changeset="298062" lat="37.569826" lon="127.074501">
    <tag k="amenity" v="sauna"/>
    <tag k="name" v="장안온천 (Jangan Hot Spring)"/>
    <tag k="name:en" v="Jangan Hot Spring"/>
    <tag k="name:ko_rm" v="Janganoncheon"/>
    <tag k="natural" v="spring"/>
    <tag k="ncat" v="온천"/>
    <tag k="source" v="http://kr.open.gugi.yahoo.com"/>
  </node>
  <node id="368874560" version="2" timestamp="2009-04-07T19:10:17Z" uid="6975" user="ulfl" changeset="298062" lat="37.508044" lon="126.863618">
    <tag k="amenity" v="sauna"/>
    <tag k="name" v="용궁온천 (Yonggung Hot Spring)"/>
    <tag k="name:en" v="Yonggung Hot Spring"/>
    <tag k="name:ko_rm" v="Yonggungoncheon"/>
    <tag k="natural" v="spring"/>
    <tag k="ncat" v="온천"/>
    <tag k="source" v="http://kr.open.gugi.yahoo.com"/>
  </node>
  <node id="368874561" version="2" timestamp="2009-04-07T19:10:17Z" uid="6975" user="ulfl" changeset="298062" lat="37.565761" lon="126.993914">
    <tag k="amenity" v="sauna"/>
    <tag k="name" v="매일온천 (Maeil Hot Spring)"/>
    <tag k="name:en" v="Maeil Hot Spring"/>
    <tag k="name:ko_rm" v="Maeiloncheon"/>
    <tag k="natural" v="spring"/>
    <tag k="ncat" v="온천"/>
    <tag k="source" v="http://kr.open.gugi.yahoo.com"/>
  </node>
  <node id="368874565" version="2" timestamp="2009-04-07T19:10:16Z" uid="6975" user="ulfl" changeset="298062" lat="37.536317" lon="126.943828">
    <tag k="amenity" v="sauna"/>
    <tag k="name" v="(주)일동유황온천 (Ildong Sulfur Hot Spring)"/>
    <tag k="name:en" v="Ildong Sulfur Hot Spring"/>
    <tag k="name:ko_rm" v="( Ju ) Ildongyuhwangoncheon"/>
    <tag k="natural" v="spring"/>
    <tag k="ncat" v="온천"/>
    <tag k="source" v="http://kr.open.gugi.yahoo.com"/>
  </node>
  <node id="368874571" version="2" timestamp="2009-04-07T19:10:15Z" uid="6975" user="ulfl" changeset="298062" lat="37.557972" lon="127.026856">
    <tag k="amenity" v="sauna"/>
    <tag k="name" v="그랜드온천 (Grand Hot Spring)"/>
    <tag k="name:en" v="Grand Hot Spring"/>
    <tag k="name:ko_rm" v="Geuraendeuoncheon"/>
    <tag k="natural" v="spring"/>
    <tag k="ncat" v="온천"/>
    <tag k="source" v="http://kr.open.gugi.yahoo.com"/>
  </node>
  <node id="368874572" version="2" timestamp="2009-04-07T19:10:14Z" uid="6975" user="ulfl" changeset="298062" lat="35.06434" lon="129.078942">
    <tag k="amenity" v="sauna"/>
    <tag k="name" v="태종대온천 (Taejongdae Hot Spring)"/>
    <tag k="name:en" v="Taejongdae Hot Spring"/>
    <tag k="name:ko_rm" v="Taejongdaeoncheon"/>
    <tag k="natural" v="spring"/>
    <tag k="ncat" v="온천"/>
    <tag k="source" v="http://kr.open.gugi.yahoo.com"/>
  </node>
  <node id="368874577" version="2" timestamp="2009-04-07T19:10:20Z" uid="6975" user="ulfl" changeset="298062" lat="35.168731" lon="129.114782">
    <tag k="amenity" v="sauna"/>
    <tag k="name" v="수영온천 (Suyeong Hot Spring)"/>
    <tag k="name:en" v="Suyeong Hot Spring"/>
    <tag k="name:ko_rm" v="Suyeongoncheon"/>
    <tag k="natural" v="spring"/>
    <tag k="ncat" v="온천"/>
    <tag k="source" v="http://kr.open.gugi.yahoo.com"/>
  </node>
  <node id="368874581" version="2" timestamp="2009-04-07T19:10:20Z" uid="6975" user="ulfl" changeset="298062" lat="35.157925" lon="129.175545">
    <tag k="amenity" v="sauna"/>
    <tag k="name" v="베스타온천 (Be Star Hot Spring)"/>
    <tag k="name:en" v="Be Star Hot Spring"/>
    <tag k="name:ko_rm" v="Beseutaoncheon"/>
    <tag k="natural" v="spring"/>
    <tag k="ncat" v="온천"/>
    <tag k="source" v="http://kr.open.gugi.yahoo.com"/>
  </node>
  <node id="368874585" version="2" timestamp="2009-04-07T19:10:19Z" uid="6975" user="ulfl" changeset="298062" lat="35.17004" lon="129.102801">
    <tag k="amenity" v="sauna"/>
    <tag k="name" v="신금련산온천 (Singeumnyeonsan Hot Spring)"/>
    <tag k="name:en" v="Singeumnyeonsan Hot Spring"/>
    <tag k="name:ko_rm" v="Singeumnyeonsanoncheon"/>
    <tag k="natural" v="spring"/>
    <tag k="ncat" v="온천"/>
    <tag k="source" v="http://kr.open.gugi.yahoo.com"/>
  </node>
  <node id="368874585" version="3" timestamp="2011-06-07T01:33:23Z" uid="464721" user="razsize" changeset="8366194" lat="35.17004" lon="129.102801"/>
  <node id="368874588" version="2" timestamp="2009-04-07T19:10:18Z" uid="6975" user="ulfl" changeset="298062" lat="35.219066" lon="129.079385">
    <tag k="amenity" v="sauna"/>
    <tag k="name" v="중앙온천 (Jungang Hot Spring)"/>
    <tag k="name:en" v="Jungang Hot Spring"/>
    <tag k="name:ko_rm" v="Jungangoncheon"/>
    <tag k="natural" v="spring"/>
    <tag k="ncat" v="온천"/>
    <tag k="source" v="http://kr.open.gugi.yahoo.com"/>
  </node>
  <node id="368874593" version="2" timestamp="2009-04-07T19:10:09Z" uid="6975" user="ulfl" changeset="298062" lat="35.162831" lon="129.166033">
    <tag k="amenity" v="sauna"/>
    <tag k="name" v="금호장온천 (Geumhojang Hot Spring)"/>
    <tag k="name:en" v="Geumhojang Hot Spring"/>
    <tag k="name:ko_rm" v="Geumhojangoncheon"/>
    <tag k="natural" v="spring"/>
    <tag k="ncat" v="온천"/>
    <tag k="source" v="http://kr.open.gugi.yahoo.com"/>
  </node>
  <node id="368874596" version="2" timestamp="2009-04-07T19:10:08Z" uid="6975" user="ulfl" changeset="298062" lat="35.215278" lon="129.102589">
    <tag k="amenity" v="sauna"/>
    <tag k="name" v="서동온천 (Seodong Hot Spring)"/>
    <tag k="name:en" v="Seodong Hot Spring"/>
    <tag k="name:ko_rm" v="Seodongoncheon"/>
    <tag k="natural" v="spring"/>
    <tag k="ncat" v="온천"/>
    <tag k="source" v="http://kr.open.gugi.yahoo.com"/>
  </node>
  <node id="368874599" version="2" timestamp="2009-04-07T19:10:08Z" uid="6975" user="ulfl" changeset="298062" lat="35.221127" lon="129.081774">
    <tag k="amenity" v="sauna"/>
    <tag k="name" v="현대온천 (Hyeondae Hot Spring)"/>
    <tag k="name:en" v="Hyeondae Hot Spring"/>
    <tag k="name:ko_rm" v="Hyeondaeoncheon"/>
    <tag k="natural" v="spring"/>
    <tag k="ncat" v="온천"/>
    <tag k="source" v="http://kr.open.gugi.yahoo.com"/>
  </node>
  <node id="368874602" version="2" timestamp="2009-04-07T19:10:07Z" uid="6975" user="ulfl" changeset="298062" lat="35.25058" lon="129.218917">
    <tag k="amenity" v="sauna"/>
    <tag k="name" v="물조은온천 (Muljoeun Hot Spring)"/>
    <tag k="name:en" v="Muljoeun Hot Spring"/>
    <tag k="name:ko_rm" v="Muljoeunoncheon"/>
    <tag k="natural" v="spring"/>
    <tag k="ncat" v="온천"/>
    <tag k="source" v="http://kr.open.gugi.yahoo.com"/>
  </node>
  <node id="368874607" version="2" timestamp="2009-04-07T19:10:06Z" uid="6975" user="ulfl" changeset="298062" lat="35.742447" lon="128.427101">
    <tag k="amenity" v="sauna"/>
    <tag k="name" v="약산온천 (Yaksan Hot Spring)"/>
    <tag k="name:en" v="Yaksan Hot Spring"/>
    <tag k="name:ko_rm" v="Yaksanoncheon"/>
    <tag k="natural" v="spring"/>
    <tag k="ncat" v="온천"/>
    <tag k="source" v="http://kr.open.gugi.yahoo.com"/>
  </node>
  <node id="368874609" version="2" timestamp="2009-04-07T19:10:13Z" uid="6975" user="ulfl" changeset="298062" lat="35.991039" lon="128.691646">
    <tag k="amenity" v="sauna"/>
    <tag k="name" v="팔공산온천 (Palgongsan Hot Spring)"/>
    <tag k="name:en" v="Palgongsan Hot Spring"/>
    <tag k="name:ko_rm" v="Palgongsanoncheon"/>
    <tag k="natural" v="spring"/>
    <tag k="ncat" v="온천"/>
    <tag k="source" v="http://kr.open.gugi.yahoo.com"/>
  </node>
  <node id="368874615" version="2" timestamp="2009-04-07T19:10:12Z" uid="6975" user="ulfl" changeset="298062" lat="35.921176" lon="128.598913">
    <tag k="amenity" v="sauna"/>
    <tag k="name" v="서변온천 (Seobyeon Hot Spring)"/>
    <tag k="name:en" v="Seobyeon Hot Spring"/>
    <tag k="name:ko_rm" v="Seobyeononcheon"/>
    <tag k="natural" v="spring"/>
    <tag k="ncat" v="온천"/>
    <tag k="source" v="http://kr.open.gugi.yahoo.com"/>
  </node>
  <node id="368874616" version="2" timestamp="2009-04-07T19:10:11Z" uid="6975" user="ulfl" changeset="298062" lat="35.80512" lon="128.506879">
    <tag k="amenity" v="sauna"/>
    <tag k="name" v="화원식염온천 (Hwawonsikyeom Hot Spring)"/>
    <tag k="name:en" v="Hwawonsikyeom Hot Spring"/>
    <tag k="name:ko_rm" v="Hwawonsikyeomoncheon"/>
    <tag k="natural" v="spring"/>
    <tag k="ncat" v="온천"/>
    <tag k="source" v="http://kr.open.gugi.yahoo.com"/>
  </node>
  <node id="368874621" version="2" timestamp="2009-04-07T19:10:09Z" uid="6975" user="ulfl" changeset="298062" lat="35.860556" lon="128.600814">
    <tag k="amenity" v="sauna"/>
    <tag k="name" v="(주)대구온천 (Daegu Hot Spring)"/>
    <tag k="name:en" v="Daegu Hot Spring"/>
    <tag k="name:ko_rm" v="( Ju ) Daeguoncheon"/>
    <tag k="natural" v="spring"/>
    <tag k="ncat" v="온천"/>
    <tag k="source" v="http://kr.open.gugi.yahoo.com"/>
  </node>
  <node id="368874623" version="2" timestamp="2009-04-07T19:10:11Z" uid="6975" user="ulfl" changeset="298062" lat="35.866621" lon="128.723507">
    <tag k="amenity" v="sauna"/>
    <tag k="name" v="반야월광천온천 (Banyawolgwangcheon Hot Spring)"/>
    <tag k="name:en" v="Banyawolgwangcheon Hot Spring"/>
    <tag k="name:ko_rm" v="Banyawolgwangcheononcheon"/>
    <tag k="natural" v="spring"/>
    <tag k="ncat" v="온천"/>
    <tag k="source" v="http://kr.open.gugi.yahoo.com"/>
  </node>
  <node id="368874628" version="2" timestamp="2009-04-07T19:09:37Z" uid="6975" user="ulfl" changeset="298062" lat="35.807989" lon="128.522998">
    <tag k="amenity" v="sauna"/>
    <tag k="name" v="수목원생활온천 (Sumokwonsaenghwal Hot Spring)"/>
    <tag k="name:en" v="Sumokwonsaenghwal Hot Spring"/>
    <tag k="name:ko_rm" v="Sumokwonsaenghwaloncheon"/>
    <tag k="natural" v="spring"/>
    <tag k="ncat" v="온천"/>
    <tag k="source" v="http://kr.open.gugi.yahoo.com"/>
  </node>
  <node id="368874629" version="2" timestamp="2009-04-07T19:09:37Z" uid="6975" user="ulfl" changeset="298062" lat="37.67466" lon="126.339539">
    <tag k="amenity" v="sauna"/>
    <tag k="name" v="(주)용궁온천 (Yonggung Hot Spring)"/>
    <tag k="name:en" v="Yonggung Hot Spring"/>
    <tag k="name:ko_rm" v="( Ju ) Yonggungoncheon"/>
    <tag k="natural" v="spring"/>
    <tag k="ncat" v="온천"/>
    <tag k="source" v="http://kr.open.gugi.yahoo.com"/>
  </node>
  <node id="368874636" version="2" timestamp="2009-04-07T19:09:38Z" uid="6975" user="ulfl" changeset="298062" lat="35.148253" lon="126.93166">
    <tag k="amenity" v="sauna"/>
    <tag k="name" v="무등온천 (Mudeung Hot Spring)"/>
    <tag k="name:en" v="Mudeung Hot Spring"/>
    <tag k="name:ko_rm" v="Mudeungoncheon"/>
    <tag k="natural" v="spring"/>
    <tag k="ncat" v="온천"/>
    <tag k="source" v="http://kr.open.gugi.yahoo.com"/>
  </node>
  <node id="368874637" version="2" timestamp="2009-04-07T19:09:38Z" uid="6975" user="ulfl" changeset="298062" lat="35.142412" lon="126.895563">
    <tag k="amenity" v="sauna"/>
    <tag k="name" v="우리온천 (Uri Hot Spring)"/>
    <tag k="name:en" v="Uri Hot Spring"/>
    <tag k="name:ko_rm" v="Urioncheon"/>
    <tag k="natural" v="spring"/>
    <tag k="ncat" v="온천"/>
    <tag k="source" v="http://kr.open.gugi.yahoo.com"/>
  </node>
  <node id="368874641" version="2" timestamp="2009-04-07T19:09:38Z" uid="6975" user="ulfl" changeset="298062" lat="35.141133" lon="126.875014">
    <tag k="amenity" v="sauna"/>
    <tag k="name" v="염주온천 (Yeomju Hot Spring)"/>
    <tag k="name:en" v="Yeomju Hot Spring"/>
    <tag k="name:ko_rm" v="Yeomjuoncheon"/>
    <tag k="natural" v="spring"/>
    <tag k="ncat" v="온천"/>
    <tag k="source" v="http://kr.open.gugi.yahoo.com"/>
  </node>
  <node id="368874642" version="2" timestamp="2009-04-07T19:09:38Z" uid="6975" user="ulfl" changeset="298062" lat="35.131286" lon="126.907257">
    <tag k="amenity" v="sauna"/>
    <tag k="name" v="라인온천 (Rain Hot Spring)"/>
    <tag k="name:en" v="Rain Hot Spring"/>
    <tag k="name:ko_rm" v="Rainoncheon"/>
    <tag k="natural" v="spring"/>
    <tag k="ncat" v="온천"/>
    <tag k="source" v="http://kr.open.gugi.yahoo.com"/>
  </node>
  <node id="368874647" version="2" timestamp="2009-04-07T19:09:38Z" uid="6975" user="ulfl" changeset="298062" lat="35.144734" lon="126.892163">
    <tag k="amenity" v="sauna"/>
    <tag k="name" v="대창온천 (Daechang Hot Spring)"/>
    <tag k="name:en" v="Daechang Hot Spring"/>
    <tag k="name:ko_rm" v="Daechangoncheon"/>
    <tag k="natural" v="spring"/>
    <tag k="ncat" v="온천"/>
    <tag k="source" v="http://kr.open.gugi.yahoo.com"/>
  </node>
  <node id="368874649" version="2" timestamp="2009-04-07T19:09:39Z" uid="6975" user="ulfl" changeset="298062" lat="35.189202" lon="126.907867">
    <tag k="amenity" v="sauna"/>
    <tag k="name" v="석정온천 (Seokjeong Hot Spring)"/>
    <tag k="name:en" v="Seokjeong Hot Spring"/>
    <tag k="name:ko_rm" v="Seokjeongoncheon"/>
    <tag k="natural" v="spring"/>
    <tag k="ncat" v="온천"/>
    <tag k="source" v="http://kr.open.gugi.yahoo.com"/>
  </node>
  <node id="368874655" version="2" timestamp="2009-04-07T19:09:39Z" uid="6975" user="ulfl" changeset="298062" lat="35.186437" lon="126.909101">
    <tag k="amenity" v="sauna"/>
    <tag k="name" v="우성온천 (Useong Hot Spring)"/>
    <tag k="name:en" v="Useong Hot Spring"/>
    <tag k="name:ko_rm" v="Useongoncheon"/>
    <tag k="natural" v="spring"/>
    <tag k="ncat" v="온천"/>
    <tag k="source" v="http://kr.open.gugi.yahoo.com"/>
  </node>
  <node id="368874660" version="2" timestamp="2009-04-07T19:09:31Z" uid="6975" user="ulfl" changeset="298062" lat="35.154731" lon="126.90105">
    <tag k="amenity" v="sauna"/>
    <tag k="name" v="동호온천 (Dongho Hot Spring)"/>
    <tag k="name:en" v="Dongho Hot Spring"/>
    <tag k="name:ko_rm" v="Donghooncheon"/>
    <tag k="natural" v="spring"/>
    <tag k="ncat" v="온천"/>
    <tag k="source" v="http://kr.open.gugi.yahoo.com"/>
  </node>
  <node id="368874662" version="2" timestamp="2009-04-07T19:09:31Z" uid="6975" user="ulfl" changeset="298062" lat="35.144911" lon="126.886848">
    <tag k="amenity" v="sauna"/>
    <tag k="name" v="부성온천 (Buseong Hot Spring)"/>
    <tag k="name:en" v="Buseong Hot Spring"/>
    <tag k="name:ko_rm" v="Buseongoncheon"/>
    <tag k="natural" v="spring"/>
    <tag k="ncat" v="온천"/>
    <tag k="source" v="http://kr.open.gugi.yahoo.com"/>
  </node>
  <node id="368874668" version="2" timestamp="2009-04-07T19:09:33Z" uid="6975" user="ulfl" changeset="298062" lat="35.17132" lon="126.933533">
    <tag k="amenity" v="sauna"/>
    <tag k="name" v="백암온천 (Baekam Hot Spring)"/>
    <tag k="name:en" v="Baekam Hot Spring"/>
    <tag k="name:ko_rm" v="Baekamoncheon"/>
    <tag k="natural" v="spring"/>
    <tag k="ncat" v="온천"/>
    <tag k="source" v="http://kr.open.gugi.yahoo.com"/>
  </node>
  <node id="368874670" version="2" timestamp="2009-04-07T19:09:34Z" uid="6975" user="ulfl" changeset="298062" lat="35.62067" lon="129.049678">
    <tag k="amenity" v="sauna"/>
    <tag k="name" v="가지산 탄산유황온천 (Gajisan  Tansan Sulfur Hot Spring)"/>
    <tag k="name:en" v="Gajisan  Tansan Sulfur Hot Spring"/>
    <tag k="name:ko_rm" v="Gajisan  Tansanyuhwangoncheon"/>
    <tag k="natural" v="spring"/>
    <tag k="ncat" v="온천"/>
    <tag k="source" v="http://kr.open.gugi.yahoo.com"/>
  </node>
  <node id="368874673" version="2" timestamp="2009-04-07T19:09:34Z" uid="6975" user="ulfl" changeset="298062" lat="35.624648" lon="129.222146">
    <tag k="amenity" v="sauna"/>
    <tag k="name" v="범서온천 (Beomseo Hot Spring)"/>
    <tag k="name:en" v="Beomseo Hot Spring"/>
    <tag k="name:ko_rm" v="Beomseooncheon"/>
    <tag k="natural" v="spring"/>
    <tag k="ncat" v="온천"/>
    <tag k="source" v="http://kr.open.gugi.yahoo.com"/>
  </node>
  <node id="368874674" version="2" timestamp="2009-04-07T19:09:35Z" uid="6975" user="ulfl" changeset="298062" lat="35.553852" lon="129.074661">
    <tag k="amenity" v="sauna"/>
    <tag k="name" v="언양온천 (Eonyang Hot Spring)"/>
    <tag k="name:en" v="Eonyang Hot Spring"/>
    <tag k="name:ko_rm" v="Eonyangoncheon"/>
    <tag k="natural" v="spring"/>
    <tag k="ncat" v="온천"/>
    <tag k="source" v="http://kr.open.gugi.yahoo.com"/>
  </node>
  <node id="368874678" version="2" timestamp="2009-04-07T19:09:35Z" uid="6975" user="ulfl" changeset="298062" lat="35.553997" lon="129.077619">
    <tag k="amenity" v="sauna"/>
    <tag k="name" v="신불산온천 (Sinbulsan Hot Spring)"/>
    <tag k="name:en" v="Sinbulsan Hot Spring"/>
    <tag k="name:ko_rm" v="Sinbulsanoncheon"/>
    <tag k="natural" v="spring"/>
    <tag k="ncat" v="온천"/>
    <tag k="source" v="http://kr.open.gugi.yahoo.com"/>
  </node>
  <node id="368874680" version="2" timestamp="2009-04-07T19:09:36Z" uid="6975" user="ulfl" changeset="298062" lat="35.554024" lon="129.077619">
    <tag k="amenity" v="sauna"/>
    <tag k="name" v="신불산온천 (Sinbulsan Hot Spring)"/>
    <tag k="name:en" v="Sinbulsan Hot Spring"/>
    <tag k="name:ko_rm" v="Sinbulsanoncheon"/>
    <tag k="natural" v="spring"/>
    <tag k="ncat" v="온천"/>
    <tag k="source" v="http://kr.open.gugi.yahoo.com"/>
  </node>
  <node id="368874684" version="2" timestamp="2009-04-07T19:09:36Z" uid="6975" user="ulfl" changeset="298062" lat="38.190252" lon="128.540691">
    <tag k="amenity" v="sauna"/>
    <tag k="name" v="설악온천 (Seorak Hot Spring)"/>
    <tag k="name:en" v="Seorak Hot Spring"/>
    <tag k="name:ko_rm" v="Seorakoncheon"/>
    <tag k="natural" v="spring"/>
    <tag k="ncat" v="온천"/>
    <tag k="source" v="http://kr.open.gugi.yahoo.com"/>
  </node>
  <node id="368874686" version="2" timestamp="2009-04-07T19:09:36Z" uid="6975" user="ulfl" changeset="298062" lat="35.613575" lon="129.450585">
    <tag k="amenity" v="sauna"/>
    <tag k="name" v="강동해수온천 (Gangdonghaesu Hot Spring)"/>
    <tag k="name:en" v="Gangdonghaesu Hot Spring"/>
    <tag k="name:ko_rm" v="Gangdonghaesuoncheon"/>
    <tag k="natural" v="spring"/>
    <tag k="ncat" v="온천"/>
    <tag k="source" v="http://kr.open.gugi.yahoo.com"/>
  </node>
  <node id="368874688" version="2" timestamp="2009-04-07T19:09:46Z" uid="6975" user="ulfl" changeset="298062" lat="37.967583" lon="127.328392">
    <tag k="amenity" v="sauna"/>
    <tag k="name" v="일동제일유황온천 (Ildongjeil Sulfur Hot Spring)"/>
    <tag k="name:en" v="Ildongjeil Sulfur Hot Spring"/>
    <tag k="name:ko_rm" v="Ildongjeilyuhwangoncheon"/>
    <tag k="natural" v="spring"/>
    <tag k="ncat" v="온천"/>
    <tag k="source" v="http://kr.open.gugi.yahoo.com"/>
  </node>
  <node id="368874693" version="2" timestamp="2009-04-07T19:09:45Z" uid="6975" user="ulfl" changeset="298062" lat="37.983297" lon="127.337618">
    <tag k="amenity" v="sauna"/>
    <tag k="name" v="일동온천 (Ildong Hot Spring)"/>
    <tag k="name:en" v="Ildong Hot Spring"/>
    <tag k="name:ko_rm" v="Ildongoncheon"/>
    <tag k="natural" v="spring"/>
    <tag k="ncat" v="온천"/>
    <tag k="source" v="http://kr.open.gugi.yahoo.com"/>
  </node>
  <node id="368874694" version="2" timestamp="2009-04-07T19:09:45Z" uid="6975" user="ulfl" changeset="298062" lat="37.983078" lon="127.332497">
    <tag k="amenity" v="sauna"/>
    <tag k="name" v="일동유황온천 (Ildong Sulfur Hot Spring)"/>
    <tag k="name:en" v="Ildong Sulfur Hot Spring"/>
    <tag k="name:ko_rm" v="Ildongyuhwangoncheon"/>
    <tag k="natural" v="spring"/>
    <tag k="ncat" v="온천"/>
    <tag k="source" v="http://kr.open.gugi.yahoo.com"/>
  </node>
  <node id="368874698" version="2" timestamp="2009-04-07T19:09:48Z" uid="6975" user="ulfl" changeset="298062" lat="37.983297" lon="127.337618">
    <tag k="amenity" v="sauna"/>
    <tag k="name" v="일동유황온천 (Ildong Sulfur Hot Spring)"/>
    <tag k="name:en" v="Ildong Sulfur Hot Spring"/>
    <tag k="name:ko_rm" v="Ildongyuhwangoncheon"/>
    <tag k="natural" v="spring"/>
    <tag k="ncat" v="온천"/>
    <tag k="source" v="http://kr.open.gugi.yahoo.com"/>
  </node>
  <node id="368874700" version="2" timestamp="2009-04-07T19:09:47Z" uid="6975" user="ulfl" changeset="298062" lat="37.659454" lon="126.932635">
    <tag k="amenity" v="sauna"/>
    <tag k="name" v="북한산온천 (Bukhansan Hot Spring)"/>
    <tag k="name:en" v="Bukhansan Hot Spring"/>
    <tag k="name:ko_rm" v="Bukhansanoncheon"/>
    <tag k="natural" v="spring"/>
    <tag k="ncat" v="온천"/>
    <tag k="source" v="http://kr.open.gugi.yahoo.com"/>
  </node>
  <node id="368874705" version="2" timestamp="2009-04-07T19:09:50Z" uid="6975" user="ulfl" changeset="298062" lat="37.597561" lon="127.139925">
    <tag k="amenity" v="sauna"/>
    <tag k="name" v="보원탄산온천 (Bowon Lime Hot Spring)"/>
    <tag k="name:en" v="Bowon Lime Hot Spring"/>
    <tag k="name:ko_rm" v="Bowontansanoncheon"/>
    <tag k="natural" v="spring"/>
    <tag k="ncat" v="온천"/>
    <tag k="source" v="http://kr.open.gugi.yahoo.com"/>
  </node>
  <node id="368874706" version="2" timestamp="2009-04-07T19:09:48Z" uid="6975" user="ulfl" changeset="298062" lat="37.655382" lon="129.051451">
    <tag k="amenity" v="sauna"/>
    <tag k="name" v="금진온천 (Geumjin Hot Spring)"/>
    <tag k="name:en" v="Geumjin Hot Spring"/>
    <tag k="name:ko_rm" v="Geumjinoncheon"/>
    <tag k="natural" v="spring"/>
    <tag k="ncat" v="온천"/>
    <tag k="source" v="http://kr.open.gugi.yahoo.com"/>
  </node>
  <node id="368874712" version="2" timestamp="2009-04-07T19:09:53Z" uid="6975" user="ulfl" changeset="298062" lat="37.843586" lon="128.839712">
    <tag k="amenity" v="sauna"/>
    <tag k="name" v="구라미온천 (Gurami Hot Spring)"/>
    <tag k="name:en" v="Gurami Hot Spring"/>
    <tag k="name:ko_rm" v="Guramioncheon"/>
    <tag k="natural" v="spring"/>
    <tag k="ncat" v="온천"/>
    <tag k="source" v="http://kr.open.gugi.yahoo.com"/>
  </node>
  <node id="368874714" version="2" timestamp="2009-04-07T19:09:52Z" uid="6975" user="ulfl" changeset="298062" lat="37.849205" lon="128.808093">
    <tag k="amenity" v="sauna"/>
    <tag k="name" v="소금강온천 (Sogeumgang Hot Spring)"/>
    <tag k="name:en" v="Sogeumgang Hot Spring"/>
    <tag k="name:ko_rm" v="Sogeumgangoncheon"/>
    <tag k="natural" v="spring"/>
    <tag k="ncat" v="온천"/>
    <tag k="source" v="http://kr.open.gugi.yahoo.com"/>
  </node>
  <node id="368874718" version="2" timestamp="2009-04-07T19:09:50Z" uid="6975" user="ulfl" changeset="298062" lat="37.849809" lon="128.802827">
    <tag k="amenity" v="sauna"/>
    <tag k="name" v="(주)소금강관광온천 (Sogeumganggwangwang Hot Spring)"/>
    <tag k="name:en" v="Sogeumganggwangwang Hot Spring"/>
    <tag k="name:ko_rm" v="( Ju ) Sogeumganggwangwangoncheon"/>
    <tag k="natural" v="spring"/>
    <tag k="ncat" v="온천"/>
    <tag k="source" v="http://kr.open.gugi.yahoo.com"/>
  </node>
  <node id="368874720" version="2" timestamp="2009-04-07T19:09:40Z" uid="6975" user="ulfl" changeset="298062" lat="37.768736" lon="128.905816">
    <tag k="amenity" v="sauna"/>
    <tag k="name" v="강릉온천 (Gangneung Hot Spring)"/>
    <tag k="name:en" v="Gangneung Hot Spring"/>
    <tag k="name:ko_rm" v="Gangneungoncheon"/>
    <tag k="natural" v="spring"/>
    <tag k="ncat" v="온천"/>
    <tag k="source" v="http://kr.open.gugi.yahoo.com"/>
  </node>
  <node id="368874725" version="2" timestamp="2009-04-07T19:09:39Z" uid="6975" user="ulfl" changeset="298062" lat="37.446383" lon="129.180144">
    <tag k="amenity" v="sauna"/>
    <tag k="name" v="삼척온천 (Samcheok Hot Spring)"/>
    <tag k="name:en" v="Samcheok Hot Spring"/>
    <tag k="name:ko_rm" v="Samcheokoncheon"/>
    <tag k="natural" v="spring"/>
    <tag k="ncat" v="온천"/>
    <tag k="source" v="http://kr.open.gugi.yahoo.com"/>
  </node>
  <node id="368874727" version="2" timestamp="2009-04-07T19:09:40Z" uid="6975" user="ulfl" changeset="298062" lat="37.446392" lon="129.180099">
    <tag k="amenity" v="sauna"/>
    <tag k="name" v="삼척온천 (Samcheok Hot Spring)"/>
    <tag k="name:en" v="Samcheok Hot Spring"/>
    <tag k="name:ko_rm" v="Samcheokoncheon"/>
    <tag k="natural" v="spring"/>
    <tag k="ncat" v="온천"/>
    <tag k="source" v="http://kr.open.gugi.yahoo.com"/>
  </node>
  <node id="368874732" version="2" timestamp="2009-04-07T19:09:41Z" uid="6975" user="ulfl" changeset="298062" lat="37.151902" lon="126.882203">
    <tag k="amenity" v="sauna"/>
    <tag k="name" v="율암온천 (Yuram Hot Spring)"/>
    <tag k="name:en" v="Yuram Hot Spring"/>
    <tag k="name:ko_rm" v="Yuramoncheon"/>
    <tag k="natural" v="spring"/>
    <tag k="ncat" v="온천"/>
    <tag k="source" v="http://kr.open.gugi.yahoo.com"/>
  </node>
  <node id="368874734" version="2" timestamp="2009-04-07T19:09:42Z" uid="6975" user="ulfl" changeset="298062" lat="37.114576" lon="126.876596">
    <tag k="amenity" v="sauna"/>
    <tag k="name" v="월문온천 (Wolmun Hot Spring)"/>
    <tag k="name:en" v="Wolmun Hot Spring"/>
    <tag k="name:ko_rm" v="Wolmunoncheon"/>
    <tag k="natural" v="spring"/>
    <tag k="ncat" v="온천"/>
    <tag k="source" v="http://kr.open.gugi.yahoo.com"/>
  </node>
  <node id="368874739" version="2" timestamp="2009-04-07T19:09:44Z" uid="6975" user="ulfl" changeset="298062" lat="37.146628" lon="126.872453">
    <tag k="amenity" v="sauna"/>
    <tag k="name" v="세화온천 (Sehwa Hot Spring)"/>
    <tag k="name:en" v="Sehwa Hot Spring"/>
    <tag k="name:ko_rm" v="Sehwaoncheon"/>
    <tag k="natural" v="spring"/>
    <tag k="ncat" v="온천"/>
    <tag k="source" v="http://kr.open.gugi.yahoo.com"/>
  </node>
  <node id="368874742" version="2" timestamp="2009-04-07T19:09:43Z" uid="6975" user="ulfl" changeset="298062" lat="37.146628" lon="126.872453">
    <tag k="amenity" v="sauna"/>
    <tag k="name" v="화성온천 (Hwaseong Hot Spring)"/>
    <tag k="name:en" v="Hwaseong Hot Spring"/>
    <tag k="name:ko_rm" v="Hwaseongoncheon"/>
    <tag k="natural" v="spring"/>
    <tag k="ncat" v="온천"/>
    <tag k="source" v="http://kr.open.gugi.yahoo.com"/>
  </node>
  <node id="368874747" version="2" timestamp="2009-04-07T19:09:45Z" uid="6975" user="ulfl" changeset="298062" lat="37.093767" lon="127.797093">
    <tag k="amenity" v="sauna"/>
    <tag k="name" v="앙성탄산온천 (Angseong Lime Hot Spring)"/>
    <tag k="name:en" v="Angseong Lime Hot Spring"/>
    <tag k="name:ko_rm" v="Angseongtansanoncheon"/>
    <tag k="natural" v="spring"/>
    <tag k="ncat" v="온천"/>
    <tag k="source" v="http://kr.open.gugi.yahoo.com"/>
  </node>
  <node id="368874751" version="2" timestamp="2009-04-07T19:09:44Z" uid="6975" user="ulfl" changeset="298062" lat="37.083057" lon="127.822938">
    <tag k="amenity" v="sauna"/>
    <tag k="name" v="돈산탄산온천 (Donsan Lime Hot Spring)"/>
    <tag k="name:en" v="Donsan Lime Hot Spring"/>
    <tag k="name:ko_rm" v="Donsantansanoncheon"/>
    <tag k="natural" v="spring"/>
    <tag k="ncat" v="온천"/>
    <tag k="source" v="http://kr.open.gugi.yahoo.com"/>
  </node>
  <node id="368874753" version="2" timestamp="2009-04-07T19:10:04Z" uid="6975" user="ulfl" changeset="298062" lat="37.109239" lon="127.748396">
    <tag k="amenity" v="sauna"/>
    <tag k="name" v="용포하와이온천 (Yongpohawai Hot Spring)"/>
    <tag k="name:en" v="Yongpohawai Hot Spring"/>
    <tag k="name:ko_rm" v="Yongpohawaioncheon"/>
    <tag k="natural" v="spring"/>
    <tag k="ncat" v="온천"/>
    <tag k="source" v="http://kr.open.gugi.yahoo.com"/>
  </node>
  <node id="368874756" version="2" timestamp="2009-04-07T19:10:05Z" uid="6975" user="ulfl" changeset="298062" lat="36.886483" lon="128.480621">
    <tag k="amenity" v="sauna"/>
    <tag k="name" v="소백산풍기온천 (Sobaeksanpunggi Hot Spring)"/>
    <tag k="name:en" v="Sobaeksanpunggi Hot Spring"/>
    <tag k="name:ko_rm" v="Sobaeksanpunggioncheon"/>
    <tag k="natural" v="spring"/>
    <tag k="ncat" v="온천"/>
    <tag k="source" v="http://kr.open.gugi.yahoo.com"/>
  </node>
  <node id="368874758" version="2" timestamp="2009-04-07T19:10:05Z" uid="6975" user="ulfl" changeset="298062" lat="36.738301" lon="128.108513">
    <tag k="amenity" v="sauna"/>
    <tag k="name" v="문경온천 (Mungyeong Hot Spring)"/>
    <tag k="name:en" v="Mungyeong Hot Spring"/>
    <tag k="name:ko_rm" v="Mungyeongoncheon"/>
    <tag k="natural" v="spring"/>
    <tag k="ncat" v="온천"/>
    <tag k="source" v="http://kr.open.gugi.yahoo.com"/>
  </node>
  <node id="368874764" version="2" timestamp="2009-04-07T19:10:03Z" uid="6975" user="ulfl" changeset="298062" lat="36.367599" lon="127.15775">
    <tag k="amenity" v="sauna"/>
    <tag k="name" v="갑사온천 (Gapsa Hot Spring)"/>
    <tag k="name:en" v="Gapsa Hot Spring"/>
    <tag k="name:ko_rm" v="Gapsaoncheon"/>
    <tag k="natural" v="spring"/>
    <tag k="ncat" v="온천"/>
    <tag k="source" v="http://kr.open.gugi.yahoo.com"/>
  </node>
  <node id="368874767" version="2" timestamp="2009-04-07T19:10:04Z" uid="6975" user="ulfl" changeset="298062" lat="36.463063" lon="127.107635">
    <tag k="amenity" v="sauna"/>
    <tag k="name" v="금강유황온천 (Geumgang Sulfur Hot Spring)"/>
    <tag k="name:en" v="Geumgang Sulfur Hot Spring"/>
    <tag k="name:ko_rm" v="Geumgangyuhwangoncheon"/>
    <tag k="natural" v="spring"/>
    <tag k="ncat" v="온천"/>
    <tag k="source" v="http://kr.open.gugi.yahoo.com"/>
  </node>
  <node id="368874774" version="2" timestamp="2009-04-07T19:10:02Z" uid="6975" user="ulfl" changeset="298062" lat="36.36538" lon="127.252512">
    <tag k="amenity" v="sauna"/>
    <tag k="name" v="계룡산온천 (Gyeryongsan Hot Spring)"/>
    <tag k="name:en" v="Gyeryongsan Hot Spring"/>
    <tag k="name:ko_rm" v="Gyeryongsanoncheon"/>
    <tag k="natural" v="spring"/>
    <tag k="ncat" v="온천"/>
    <tag k="source" v="http://kr.open.gugi.yahoo.com"/>
  </node>
  <node id="368874777" version="2" timestamp="2009-04-07T19:10:00Z" uid="6975" user="ulfl" changeset="298062" lat="36.461266" lon="127.107131">
    <tag k="amenity" v="sauna"/>
    <tag k="name" v="금강온천 (Geumgang Hot Spring)"/>
    <tag k="name:en" v="Geumgang Hot Spring"/>
    <tag k="name:ko_rm" v="Geumgangoncheon"/>
    <tag k="natural" v="spring"/>
    <tag k="ncat" v="온천"/>
    <tag k="source" v="http://kr.open.gugi.yahoo.com"/>
  </node>
  <node id="368874781" version="2" timestamp="2009-04-07T19:10:01Z" uid="6975" user="ulfl" changeset="298062" lat="36.204001" lon="127.062347">
    <tag k="amenity" v="sauna"/>
    <tag k="name" v="용암온천 (Yongam Hot Spring)"/>
    <tag k="name:en" v="Yongam Hot Spring"/>
    <tag k="name:ko_rm" v="Yongamoncheon"/>
    <tag k="natural" v="spring"/>
    <tag k="ncat" v="온천"/>
    <tag k="source" v="http://kr.open.gugi.yahoo.com"/>
  </node>
  <node id="368874784" version="2" timestamp="2009-04-07T19:09:57Z" uid="6975" user="ulfl" changeset="298062" lat="35.923976" lon="127.057868">
    <tag k="amenity" v="sauna"/>
    <tag k="name" v="왕궁온천 (Wanggung Hot Spring)"/>
    <tag k="name:en" v="Wanggung Hot Spring"/>
    <tag k="name:ko_rm" v="Wanggungoncheon"/>
    <tag k="natural" v="spring"/>
    <tag k="ncat" v="온천"/>
    <tag k="source" v="http://kr.open.gugi.yahoo.com"/>
  </node>
  <node id="368874789" version="2" timestamp="2009-04-07T19:09:58Z" uid="6975" user="ulfl" changeset="298062" lat="36.110964" lon="128.357899">
    <tag k="amenity" v="sauna"/>
    <tag k="name" v="구미금오산온천 (Gumigeumosan Hot Spring)"/>
    <tag k="name:en" v="Gumigeumosan Hot Spring"/>
    <tag k="name:ko_rm" v="Gumigeumosanoncheon"/>
    <tag k="natural" v="spring"/>
    <tag k="ncat" v="온천"/>
    <tag k="source" v="http://kr.open.gugi.yahoo.com"/>
  </node>
  <node id="368874792" version="2" timestamp="2009-04-07T19:09:56Z" uid="6975" user="ulfl" changeset="298062" lat="36.113789" lon="128.338371">
    <tag k="amenity" v="sauna"/>
    <tag k="name" v="형곡온천 (Hyeonggok Hot Spring)"/>
    <tag k="name:en" v="Hyeonggok Hot Spring"/>
    <tag k="name:ko_rm" v="Hyeonggokoncheon"/>
    <tag k="natural" v="spring"/>
    <tag k="ncat" v="온천"/>
    <tag k="source" v="http://kr.open.gugi.yahoo.com"/>
  </node>
  <node id="368874798" version="2" timestamp="2009-04-07T19:09:57Z" uid="6975" user="ulfl" changeset="298062" lat="35.973466" lon="128.870736">
    <tag k="amenity" v="sauna"/>
    <tag k="name" v="사일온천 (Sail Hot Spring)"/>
    <tag k="name:en" v="Sail Hot Spring"/>
    <tag k="name:ko_rm" v="Sailoncheon"/>
    <tag k="natural" v="spring"/>
    <tag k="ncat" v="온천"/>
    <tag k="source" v="http://kr.open.gugi.yahoo.com"/>
  </node>
  <node id="368874801" version="2" timestamp="2009-04-07T19:09:55Z" uid="6975" user="ulfl" changeset="298062" lat="35.952739" lon="129.361898">
    <tag k="amenity" v="sauna"/>
    <tag k="name" v="영일만온천 (Yeongilman Hot Spring)"/>
    <tag k="name:en" v="Yeongilman Hot Spring"/>
    <tag k="name:ko_rm" v="Yeongilmanoncheon"/>
    <tag k="natural" v="spring"/>
    <tag k="ncat" v="온천"/>
    <tag k="source" v="http://kr.open.gugi.yahoo.com"/>
  </node>
  <node id="368874812" version="2" timestamp="2009-04-07T19:09:54Z" uid="6975" user="ulfl" changeset="298062" lat="36.162348" lon="129.27711">
    <tag k="amenity" v="sauna"/>
    <tag k="name" v="포항신광온천 (Pohangsingwang Hot Spring)"/>
    <tag k="name:en" v="Pohangsingwang Hot Spring"/>
    <tag k="name:ko_rm" v="Pohangsingwangoncheon"/>
    <tag k="natural" v="spring"/>
    <tag k="ncat" v="온천"/>
    <tag k="source" v="http://kr.open.gugi.yahoo.com"/>
  </node>
  <node id="368874818" version="2" timestamp="2009-04-07T19:10:20Z" uid="6975" user="ulfl" changeset="298062" lat="36.080461" lon="129.381965">
    <tag k="amenity" v="sauna"/>
    <tag k="name" v="포항온천 (Pohang Hot Spring)"/>
    <tag k="name:en" v="Pohang Hot Spring"/>
    <tag k="name:ko_rm" v="Pohangoncheon"/>
    <tag k="natural" v="spring"/>
    <tag k="ncat" v="온천"/>
    <tag k="source" v="http://kr.open.gugi.yahoo.com"/>
  </node>
  <node id="368874819" version="2" timestamp="2009-04-07T19:10:20Z" uid="6975" user="ulfl" changeset="298062" lat="36.201645" lon="129.369916">
    <tag k="amenity" v="sauna"/>
    <tag k="name" v="월포 해수온천 (Wolpo  Haesu Hot Spring)"/>
    <tag k="name:en" v="Wolpo  Haesu Hot Spring"/>
    <tag k="name:ko_rm" v="Wolpo  Haesuoncheon"/>
    <tag k="natural" v="spring"/>
    <tag k="ncat" v="온천"/>
    <tag k="source" v="http://kr.open.gugi.yahoo.com"/>
  </node>
  <node id="368874824" version="2" timestamp="2009-04-07T19:10:18Z" uid="6975" user="ulfl" changeset="298062" lat="36.086209" lon="129.345788">
    <tag k="amenity" v="sauna"/>
    <tag k="name" v="성곡온천 (Seonggok Hot Spring)"/>
    <tag k="name:en" v="Seonggok Hot Spring"/>
    <tag k="name:ko_rm" v="Seonggokoncheon"/>
    <tag k="natural" v="spring"/>
    <tag k="ncat" v="온천"/>
    <tag k="source" v="http://kr.open.gugi.yahoo.com"/>
  </node>
  <node id="368874825" version="2" timestamp="2009-04-07T19:10:19Z" uid="6975" user="ulfl" changeset="298062" lat="36.241739" lon="129.319925">
    <tag k="amenity" v="sauna"/>
    <tag k="name" v="연산온천 (Yeonsan Hot Spring)"/>
    <tag k="name:en" v="Yeonsan Hot Spring"/>
    <tag k="name:ko_rm" v="Yeonsanoncheon"/>
    <tag k="natural" v="spring"/>
    <tag k="ncat" v="온천"/>
    <tag k="source" v="http://kr.open.gugi.yahoo.com"/>
  </node>
  <node id="368874831" version="2" timestamp="2009-04-07T19:10:18Z" uid="6975" user="ulfl" changeset="298062" lat="35.992949" lon="129.344999">
    <tag k="amenity" v="sauna"/>
    <tag k="name" v="패밀리온천 (Family Hot Spring)"/>
    <tag k="name:en" v="Family Hot Spring"/>
    <tag k="name:ko_rm" v="Paemillioncheon"/>
    <tag k="natural" v="spring"/>
    <tag k="ncat" v="온천"/>
    <tag k="source" v="http://kr.open.gugi.yahoo.com"/>
  </node>
  <node id="368874833" version="2" timestamp="2009-04-07T19:10:17Z" uid="6975" user="ulfl" changeset="298062" lat="35.162802" lon="128.114728">
    <tag k="amenity" v="sauna"/>
    <tag k="name" v="진주온천 (Jinju Hot Spring)"/>
    <tag k="name:en" v="Jinju Hot Spring"/>
    <tag k="name:ko_rm" v="Jinjuoncheon"/>
    <tag k="natural" v="spring"/>
    <tag k="ncat" v="온천"/>
    <tag k="source" v="http://kr.open.gugi.yahoo.com"/>
  </node>
  <node id="368874837" version="2" timestamp="2009-04-07T19:10:16Z" uid="6975" user="ulfl" changeset="298062" lat="35.11959" lon="128.390666">
    <tag k="amenity" v="sauna"/>
    <tag k="name" v="마빈온천 (Mabin Hot Spring)"/>
    <tag k="name:en" v="Mabin Hot Spring"/>
    <tag k="name:ko_rm" v="Mabinoncheon"/>
    <tag k="natural" v="spring"/>
    <tag k="ncat" v="온천"/>
    <tag k="source" v="http://kr.open.gugi.yahoo.com"/>
  </node>
  <node id="368874841" version="2" timestamp="2009-04-07T19:10:15Z" uid="6975" user="ulfl" changeset="298062" lat="35.245099" lon="128.586844">
    <tag k="amenity" v="sauna"/>
    <tag k="name" v="용정온천 (Yongjeong Hot Spring)"/>
    <tag k="name:en" v="Yongjeong Hot Spring"/>
    <tag k="name:ko_rm" v="Yongjeongoncheon"/>
    <tag k="natural" v="spring"/>
    <tag k="ncat" v="온천"/>
    <tag k="source" v="http://kr.open.gugi.yahoo.com"/>
  </node>
  <node id="368874843" version="2" timestamp="2009-04-07T19:10:16Z" uid="6975" user="ulfl" changeset="298062" lat="35.218873" lon="128.568188">
    <tag k="amenity" v="sauna"/>
    <tag k="name" v="신흥온천 (Sinheung Hot Spring)"/>
    <tag k="name:en" v="Sinheung Hot Spring"/>
    <tag k="name:ko_rm" v="Sinheungoncheon"/>
    <tag k="natural" v="spring"/>
    <tag k="ncat" v="온천"/>
    <tag k="source" v="http://kr.open.gugi.yahoo.com"/>
  </node>
  <node id="368874845" version="2" timestamp="2009-04-07T19:10:13Z" uid="6975" user="ulfl" changeset="298062" lat="35.210912" lon="128.564398">
    <tag k="amenity" v="sauna"/>
    <tag k="name" v="교방온천 (Gyobang Hot Spring)"/>
    <tag k="name:en" v="Gyobang Hot Spring"/>
    <tag k="name:ko_rm" v="Gyobangoncheon"/>
    <tag k="natural" v="spring"/>
    <tag k="ncat" v="온천"/>
    <tag k="source" v="http://kr.open.gugi.yahoo.com"/>
  </node>
  <node id="368874850" version="2" timestamp="2009-04-07T19:10:13Z" uid="6975" user="ulfl" changeset="298062" lat="35.200118" lon="128.565136">
    <tag k="amenity" v="sauna"/>
    <tag k="name" v="석수온천 (Seoksu Hot Spring)"/>
    <tag k="name:en" v="Seoksu Hot Spring"/>
    <tag k="name:ko_rm" v="Seoksuoncheon"/>
    <tag k="natural" v="spring"/>
    <tag k="ncat" v="온천"/>
    <tag k="source" v="http://kr.open.gugi.yahoo.com"/>
  </node>
  <node id="368874853" version="2" timestamp="2009-04-07T19:10:13Z" uid="6975" user="ulfl" changeset="298062" lat="35.23076" lon="128.574743">
    <tag k="amenity" v="sauna"/>
    <tag k="name" v="석전온천 (Seokjeon Hot Spring)"/>
    <tag k="name:en" v="Seokjeon Hot Spring"/>
    <tag k="name:ko_rm" v="Seokjeononcheon"/>
    <tag k="natural" v="spring"/>
    <tag k="ncat" v="온천"/>
    <tag k="source" v="http://kr.open.gugi.yahoo.com"/>
  </node>
  <node id="368874856" version="2" timestamp="2009-04-07T19:10:12Z" uid="6975" user="ulfl" changeset="298062" lat="35.221254" lon="128.571687">
    <tag k="amenity" v="sauna"/>
    <tag k="name" v="봉화온천 (Bonghwa Hot Spring)"/>
    <tag k="name:en" v="Bonghwa Hot Spring"/>
    <tag k="name:ko_rm" v="Bonghwaoncheon"/>
    <tag k="natural" v="spring"/>
    <tag k="ncat" v="온천"/>
    <tag k="source" v="http://kr.open.gugi.yahoo.com"/>
  </node>
  <node id="368874860" version="2" timestamp="2009-04-07T19:10:10Z" uid="6975" user="ulfl" changeset="298062" lat="35.230579" lon="128.569127">
    <tag k="amenity" v="sauna"/>
    <tag k="name" v="일신유황온천 (Ilsin Sulfur Hot Spring)"/>
    <tag k="name:en" v="Ilsin Sulfur Hot Spring"/>
    <tag k="name:ko_rm" v="Ilsinyuhwangoncheon"/>
    <tag k="natural" v="spring"/>
    <tag k="ncat" v="온천"/>
    <tag k="source" v="http://kr.open.gugi.yahoo.com"/>
  </node>
  <node id="368874865" version="2" timestamp="2009-04-07T19:10:09Z" uid="6975" user="ulfl" changeset="298062" lat="35.032496" lon="126.719469">
    <tag k="amenity" v="sauna"/>
    <tag k="name" v="나주온천 (Naju Hot Spring)"/>
    <tag k="name:en" v="Naju Hot Spring"/>
    <tag k="name:ko_rm" v="Najuoncheon"/>
    <tag k="natural" v="spring"/>
    <tag k="ncat" v="온천"/>
    <tag k="source" v="http://kr.open.gugi.yahoo.com"/>
  </node>
  <node id="368874869" version="2" timestamp="2009-04-07T19:10:08Z" uid="6975" user="ulfl" changeset="298062" lat="34.994593" lon="126.71296">
    <tag k="amenity" v="sauna"/>
    <tag k="name" v="보람온천 (Boram Hot Spring)"/>
    <tag k="name:en" v="Boram Hot Spring"/>
    <tag k="name:ko_rm" v="Boramoncheon"/>
    <tag k="natural" v="spring"/>
    <tag k="ncat" v="온천"/>
    <tag k="source" v="http://kr.open.gugi.yahoo.com"/>
  </node>
  <node id="368874872" version="2" timestamp="2009-04-07T19:10:07Z" uid="6975" user="ulfl" changeset="298062" lat="35.030455" lon="126.71995">
    <tag k="amenity" v="sauna"/>
    <tag k="name" v="궁전온천 (Gungjeon Hot Spring)"/>
    <tag k="name:en" v="Gungjeon Hot Spring"/>
    <tag k="name:ko_rm" v="Gungjeononcheon"/>
    <tag k="natural" v="spring"/>
    <tag k="ncat" v="온천"/>
    <tag k="source" v="http://kr.open.gugi.yahoo.com"/>
  </node>
  <node id="368874875" version="2" timestamp="2009-04-07T19:10:07Z" uid="6975" user="ulfl" changeset="298062" lat="34.912465" lon="127.359384">
    <tag k="amenity" v="sauna"/>
    <tag k="name" v="낙안온천 (Nakan Hot Spring)"/>
    <tag k="name:en" v="Nakan Hot Spring"/>
    <tag k="name:ko_rm" v="Nakanoncheon"/>
    <tag k="natural" v="spring"/>
    <tag k="ncat" v="온천"/>
    <tag k="source" v="http://kr.open.gugi.yahoo.com"/>
  </node>
  <node id="368874876" version="2" timestamp="2009-04-07T19:10:06Z" uid="6975" user="ulfl" changeset="298062" lat="34.945804" lon="127.484612">
    <tag k="amenity" v="sauna"/>
    <tag k="name" v="서광온천 (Seogwang Hot Spring)"/>
    <tag k="name:en" v="Seogwang Hot Spring"/>
    <tag k="name:ko_rm" v="Seogwangoncheon"/>
    <tag k="natural" v="spring"/>
    <tag k="ncat" v="온천"/>
    <tag k="source" v="http://kr.open.gugi.yahoo.com"/>
  </node>
  <node id="368874883" version="2" timestamp="2009-04-07T19:09:38Z" uid="6975" user="ulfl" changeset="298062" lat="34.955678" lon="127.487211">
    <tag k="amenity" v="sauna"/>
    <tag k="name" v="청보온천 (Cheongbo Hot Spring)"/>
    <tag k="name:en" v="Cheongbo Hot Spring"/>
    <tag k="name:ko_rm" v="Cheongbooncheon"/>
    <tag k="natural" v="spring"/>
    <tag k="ncat" v="온천"/>
    <tag k="source" v="http://kr.open.gugi.yahoo.com"/>
  </node>
  <node id="368874885" version="2" timestamp="2009-04-07T19:09:38Z" uid="6975" user="ulfl" changeset="298062" lat="34.940412" lon="127.490788">
    <tag k="amenity" v="sauna"/>
    <tag k="name" v="유일온천 (Yuil Hot Spring)"/>
    <tag k="name:en" v="Yuil Hot Spring"/>
    <tag k="name:ko_rm" v="Yuiloncheon"/>
    <tag k="natural" v="spring"/>
    <tag k="ncat" v="온천"/>
    <tag k="source" v="http://kr.open.gugi.yahoo.com"/>
  </node>
  <node id="368874890" version="2" timestamp="2009-04-07T19:09:39Z" uid="6975" user="ulfl" changeset="298062" lat="34.957951" lon="127.48746">
    <tag k="amenity" v="sauna"/>
    <tag k="name" v="태양온천 (Taeyang Hot Spring)"/>
    <tag k="name:en" v="Taeyang Hot Spring"/>
    <tag k="name:ko_rm" v="Taeyangoncheon"/>
    <tag k="natural" v="spring"/>
    <tag k="ncat" v="온천"/>
    <tag k="source" v="http://kr.open.gugi.yahoo.com"/>
  </node>
  <node id="368874891" version="2" timestamp="2009-04-07T19:09:39Z" uid="6975" user="ulfl" changeset="298062" lat="34.943747" lon="127.492902">
    <tag k="amenity" v="sauna"/>
    <tag k="name" v="유성온천 (Yuseong Hot Spring)"/>
    <tag k="name:en" v="Yuseong Hot Spring"/>
    <tag k="name:ko_rm" v="Yuseongoncheon"/>
    <tag k="natural" v="spring"/>
    <tag k="ncat" v="온천"/>
    <tag k="source" v="http://kr.open.gugi.yahoo.com"/>
  </node>
  <node id="368874899" version="2" timestamp="2009-04-07T19:09:37Z" uid="6975" user="ulfl" changeset="298062" lat="34.964658" lon="127.716407">
    <tag k="amenity" v="sauna"/>
    <tag k="name" v="현대온천 (Hyeondae Hot Spring)"/>
    <tag k="name:en" v="Hyeondae Hot Spring"/>
    <tag k="name:ko_rm" v="Hyeondaeoncheon"/>
    <tag k="natural" v="spring"/>
    <tag k="ncat" v="온천"/>
    <tag k="source" v="http://kr.open.gugi.yahoo.com"/>
  </node>
  <node id="368874903" version="2" timestamp="2009-04-07T19:09:37Z" uid="6975" user="ulfl" changeset="298062" lat="34.94872" lon="127.485459">
    <tag k="amenity" v="sauna"/>
    <tag k="name" v="이화온천 (Ihwa Hot Spring)"/>
    <tag k="name:en" v="Ihwa Hot Spring"/>
    <tag k="name:ko_rm" v="Ihwaoncheon"/>
    <tag k="natural" v="spring"/>
    <tag k="ncat" v="온천"/>
    <tag k="source" v="http://kr.open.gugi.yahoo.com"/>
  </node>
  <node id="368874906" version="2" timestamp="2009-04-07T19:09:37Z" uid="6975" user="ulfl" changeset="298062" lat="34.981588" lon="127.58397">
    <tag k="amenity" v="sauna"/>
    <tag k="name" v="태극온천 (Taegeuk Hot Spring)"/>
    <tag k="name:en" v="Taegeuk Hot Spring"/>
    <tag k="name:ko_rm" v="Taegeukoncheon"/>
    <tag k="natural" v="spring"/>
    <tag k="ncat" v="온천"/>
    <tag k="source" v="http://kr.open.gugi.yahoo.com"/>
  </node>
  <node id="368874910" version="2" timestamp="2009-04-07T19:09:37Z" uid="6975" user="ulfl" changeset="298062" lat="34.749643" lon="127.702153">
    <tag k="amenity" v="sauna"/>
    <tag k="name" v="화인온천 (Hwain Hot Spring)"/>
    <tag k="name:en" v="Hwain Hot Spring"/>
    <tag k="name:ko_rm" v="Hwainoncheon"/>
    <tag k="natural" v="spring"/>
    <tag k="ncat" v="온천"/>
    <tag k="source" v="http://kr.open.gugi.yahoo.com"/>
  </node>
  <node id="368874916" version="2" timestamp="2009-04-07T19:09:35Z" uid="6975" user="ulfl" changeset="298062" lat="34.747885" lon="127.641515">
    <tag k="amenity" v="sauna"/>
    <tag k="name" v="유심천온천 (Yusimcheon Hot Spring)"/>
    <tag k="name:en" v="Yusimcheon Hot Spring"/>
    <tag k="name:ko_rm" v="Yusimcheononcheon"/>
    <tag k="natural" v="spring"/>
    <tag k="ncat" v="온천"/>
    <tag k="source" v="http://kr.open.gugi.yahoo.com"/>
  </node>
  <node id="368874919" version="2" timestamp="2009-04-07T19:09:35Z" uid="6975" user="ulfl" changeset="298062" lat="34.768131" lon="127.693281">
    <tag k="amenity" v="sauna"/>
    <tag k="name" v="고궁온천 (Gogung Hot Spring)"/>
    <tag k="name:en" v="Gogung Hot Spring"/>
    <tag k="name:ko_rm" v="Gogungoncheon"/>
    <tag k="natural" v="spring"/>
    <tag k="ncat" v="온천"/>
    <tag k="source" v="http://kr.open.gugi.yahoo.com"/>
  </node>
  <node id="368874924" version="2" timestamp="2009-04-07T19:09:36Z" uid="6975" user="ulfl" changeset="298062" lat="34.891223" lon="128.634599">
    <tag k="amenity" v="sauna"/>
    <tag k="name" v="거제도해수온천 (Geojedohaesu Hot Spring)"/>
    <tag k="name:en" v="Geojedohaesu Hot Spring"/>
    <tag k="name:ko_rm" v="Geojedohaesuoncheon"/>
    <tag k="natural" v="spring"/>
    <tag k="ncat" v="온천"/>
    <tag k="source" v="http://kr.open.gugi.yahoo.com"/>
  </node>
  <node id="368874924" version="3" timestamp="2010-10-15T14:54:04Z" uid="352361" user="smilely" changeset="6049676" lat="34.8914124" lon="128.6347628">
    <tag k="amenity" v="sauna"/>
    <tag k="name" v="거제도해수온천 (Geojedohaesu Hot Spring)"/>
    <tag k="name:en" v="Geojedohaesu Hot Spring"/>
    <tag k="name:ko_rm" v="Geojedohaesuoncheon"/>
    <tag k="natural" v="spring"/>
    <tag k="ncat" v="온천"/>
    <tag k="source" v="http://kr.open.gugi.yahoo.com"/>
  </node>
  <node id="368874926" version="2" timestamp="2009-04-07T19:09:36Z" uid="6975" user="ulfl" changeset="298062" lat="34.877353" lon="128.628486">
    <tag k="amenity" v="sauna"/>
    <tag k="name" v="계룡산온천 (Gyeryongsan Hot Spring)"/>
    <tag k="name:en" v="Gyeryongsan Hot Spring"/>
    <tag k="name:ko_rm" v="Gyeryongsanoncheon"/>
    <tag k="natural" v="spring"/>
    <tag k="ncat" v="온천"/>
    <tag k="source" v="http://kr.open.gugi.yahoo.com"/>
  </node>
  <node id="368874930" version="2" timestamp="2009-04-07T19:09:30Z" uid="6975" user="ulfl" changeset="298062" lat="35.099333" lon="128.80468">
    <tag k="amenity" v="sauna"/>
    <tag k="name" v="녹산유황온천 (Noksan Sulfur Hot Spring)"/>
    <tag k="name:en" v="Noksan Sulfur Hot Spring"/>
    <tag k="name:ko_rm" v="Noksanyuhwangoncheon"/>
    <tag k="natural" v="spring"/>
    <tag k="ncat" v="온천"/>
    <tag k="source" v="http://kr.open.gugi.yahoo.com"/>
  </node>
  <node id="368874931" version="2" timestamp="2009-04-07T19:09:30Z" uid="6975" user="ulfl" changeset="298062" lat="33.248694" lon="126.298647">
    <tag k="amenity" v="sauna"/>
    <tag k="name" v="산방산 탄산온천 (Sanbangsan Lime Hot Spring)"/>
    <tag k="name:en" v="Sanbangsan Lime Hot Spring"/>
    <tag k="name:ko_rm" v="Sanbangsan  Tansanoncheon"/>
    <tag k="natural" v="spring"/>
    <tag k="ncat" v="온천"/>
    <tag k="source" v="http://kr.open.gugi.yahoo.com"/>
  </node>
  <node id="368874937" version="2" timestamp="2009-04-07T19:09:32Z" uid="6975" user="ulfl" changeset="298062" lat="33.248854" lon="126.303762">
    <tag k="amenity" v="sauna"/>
    <tag k="name" v="산방산온천 (Sanbangsan Hot Spring)"/>
    <tag k="name:en" v="Sanbangsan Hot Spring"/>
    <tag k="name:ko_rm" v="Sanbangsanoncheon"/>
    <tag k="natural" v="spring"/>
    <tag k="ncat" v="온천"/>
    <tag k="source" v="http://kr.open.gugi.yahoo.com"/>
  </node>
  <node id="368874939" version="2" timestamp="2009-04-07T19:09:32Z" uid="6975" user="ulfl" changeset="298062" lat="34.952467" lon="128.331144">
    <tag k="amenity" v="sauna"/>
    <tag k="name" v="해수바이오유황온천 (Haesubaio Sulfur Hot Spring)"/>
    <tag k="name:en" v="Haesubaio Sulfur Hot Spring"/>
    <tag k="name:ko_rm" v="Haesubaioyuhwangoncheon"/>
    <tag k="natural" v="spring"/>
    <tag k="ncat" v="온천"/>
    <tag k="source" v="http://kr.open.gugi.yahoo.com"/>
  </node>
  <node id="368874942" version="2" timestamp="2009-04-07T19:09:33Z" uid="6975" user="ulfl" changeset="298062" lat="37.566905" lon="128.071622">
    <tag k="amenity" v="sauna"/>
    <tag k="name" v="횡성온천 (Hoengseong Hot Spring)"/>
    <tag k="name:en" v="Hoengseong Hot Spring"/>
    <tag k="name:ko_rm" v="Hoengseongoncheon"/>
    <tag k="natural" v="spring"/>
    <tag k="ncat" v="온천"/>
    <tag k="source" v="http://kr.open.gugi.yahoo.com"/>
  </node>
  <node id="368874947" version="2" timestamp="2009-04-07T19:09:49Z" uid="6975" user="ulfl" changeset="298062" lat="38.1381" lon="128.253281">
    <tag k="amenity" v="sauna"/>
    <tag k="name" v="(주)인제온천 (Inje Hot Spring)"/>
    <tag k="name:en" v="Inje Hot Spring"/>
    <tag k="name:ko_rm" v="( Ju ) Injeoncheon"/>
    <tag k="natural" v="spring"/>
    <tag k="ncat" v="온천"/>
    <tag k="source" v="http://kr.open.gugi.yahoo.com"/>
  </node>
  <node id="368874948" version="2" timestamp="2009-04-07T19:09:48Z" uid="6975" user="ulfl" changeset="298062" lat="36.692186" lon="126.662974">
    <tag k="amenity" v="sauna"/>
    <tag k="name" v="덕원온천 (Deokwon Hot Spring)"/>
    <tag k="name:en" v="Deokwon Hot Spring"/>
    <tag k="name:ko_rm" v="Deokwononcheon"/>
    <tag k="natural" v="spring"/>
    <tag k="ncat" v="온천"/>
    <tag k="source" v="http://kr.open.gugi.yahoo.com"/>
  </node>
  <node id="368874952" version="2" timestamp="2009-04-07T19:09:52Z" uid="6975" user="ulfl" changeset="298062" lat="36.69449" lon="126.652313">
    <tag k="amenity" v="sauna"/>
    <tag k="name" v="덕산싸이판온천 (Deoksanssaipan Hot Spring)"/>
    <tag k="name:en" v="Deoksanssaipan Hot Spring"/>
    <tag k="name:ko_rm" v="Deoksanssaipanoncheon"/>
    <tag k="natural" v="spring"/>
    <tag k="ncat" v="온천"/>
    <tag k="source" v="http://kr.open.gugi.yahoo.com"/>
  </node>
  <node id="368874953" version="2" timestamp="2009-04-07T19:09:51Z" uid="6975" user="ulfl" changeset="298062" lat="36.599083" lon="126.664167">
    <tag k="amenity" v="sauna"/>
    <tag k="name" v="홍성온천 (Hongseong Hot Spring)"/>
    <tag k="name:en" v="Hongseong Hot Spring"/>
    <tag k="name:ko_rm" v="Hongseongoncheon"/>
    <tag k="natural" v="spring"/>
    <tag k="ncat" v="온천"/>
    <tag k="source" v="http://kr.open.gugi.yahoo.com"/>
  </node>
  <node id="368874958" version="2" timestamp="2009-04-07T19:09:51Z" uid="6975" user="ulfl" changeset="298062" lat="37.217678" lon="128.504818">
    <tag k="amenity" v="sauna"/>
    <tag k="name" v="영월온천 (Yeongwol Hot Spring)"/>
    <tag k="name:en" v="Yeongwol Hot Spring"/>
    <tag k="name:ko_rm" v="Yeongwoloncheon"/>
    <tag k="natural" v="spring"/>
    <tag k="ncat" v="온천"/>
    <tag k="source" v="http://kr.open.gugi.yahoo.com"/>
  </node>
  <node id="368874959" version="2" timestamp="2009-04-07T19:09:51Z" uid="6975" user="ulfl" changeset="298062" lat="36.830328" lon="128.407628">
    <tag k="amenity" v="sauna"/>
    <tag k="name" v="단양유황온천 (Danyang Sulfur Hot Spring)"/>
    <tag k="name:en" v="Danyang Sulfur Hot Spring"/>
    <tag k="name:ko_rm" v="Danyangyuhwangoncheon"/>
    <tag k="natural" v="spring"/>
    <tag k="ncat" v="온천"/>
    <tag k="source" v="http://kr.open.gugi.yahoo.com"/>
  </node>
  <node id="368874962" version="2" timestamp="2009-04-07T19:09:46Z" uid="6975" user="ulfl" changeset="298062" lat="37.078478" lon="129.281183">
    <tag k="amenity" v="sauna"/>
    <tag k="name" v="덕구온천 (Deokgu Hot Spring)"/>
    <tag k="name:en" v="Deokgu Hot Spring"/>
    <tag k="name:ko_rm" v="Deokguoncheon"/>
    <tag k="natural" v="spring"/>
    <tag k="ncat" v="온천"/>
    <tag k="source" v="http://kr.open.gugi.yahoo.com"/>
  </node>
  <node id="368874963" version="2" timestamp="2009-04-07T19:09:46Z" uid="6975" user="ulfl" changeset="298062" lat="36.718809" lon="128.493846">
    <tag k="amenity" v="sauna"/>
    <tag k="name" v="예천온천 (Yecheon Hot Spring)"/>
    <tag k="name:en" v="Yecheon Hot Spring"/>
    <tag k="name:ko_rm" v="Yecheononcheon"/>
    <tag k="natural" v="spring"/>
    <tag k="ncat" v="온천"/>
    <tag k="source" v="http://kr.open.gugi.yahoo.com"/>
  </node>
  <node id="368874968" version="2" timestamp="2009-04-07T19:09:47Z" uid="6975" user="ulfl" changeset="298062" lat="36.722895" lon="129.338622">
    <tag k="amenity" v="sauna"/>
    <tag k="name" v="한화리조트 백암온천 (Hanhwarijoteu  Baekam Hot Spring)"/>
    <tag k="name:en" v="Hanhwarijoteu  Baekam Hot Spring"/>
    <tag k="name:ko_rm" v="Hanhwarijoteu  Baekamoncheon"/>
    <tag k="natural" v="spring"/>
    <tag k="ncat" v="온천"/>
    <tag k="source" v="http://kr.open.gugi.yahoo.com"/>
  </node>
  <node id="368874969" version="2" timestamp="2009-04-07T19:09:47Z" uid="6975" user="ulfl" changeset="298062" lat="35.391625" lon="126.444313">
    <tag k="amenity" v="sauna"/>
    <tag k="name" v="홍농온천 (Hongnong Hot Spring)"/>
    <tag k="name:en" v="Hongnong Hot Spring"/>
    <tag k="name:ko_rm" v="Hongnongoncheon"/>
    <tag k="natural" v="spring"/>
    <tag k="ncat" v="온천"/>
    <tag k="source" v="http://kr.open.gugi.yahoo.com"/>
  </node>
  <node id="368874972" version="2" timestamp="2009-04-07T19:09:46Z" uid="6975" user="ulfl" changeset="298062" lat="36.006699" lon="126.706658">
    <tag k="amenity" v="sauna"/>
    <tag k="name" v="혜성온천 (Hyeseong Hot Spring)"/>
    <tag k="name:en" v="Hyeseong Hot Spring"/>
    <tag k="name:ko_rm" v="Hyeseongoncheon"/>
    <tag k="natural" v="spring"/>
    <tag k="ncat" v="온천"/>
    <tag k="source" v="http://kr.open.gugi.yahoo.com"/>
  </node>
  <node id="368874974" version="2" timestamp="2009-04-07T19:09:46Z" uid="6975" user="ulfl" changeset="298062" lat="36.618426" lon="129.411741">
    <tag k="amenity" v="sauna"/>
    <tag k="name" v="영덕심층수온천 (Yeongdeoksimcheungsu Hot Spring)"/>
    <tag k="name:en" v="Yeongdeoksimcheungsu Hot Spring"/>
    <tag k="name:ko_rm" v="Yeongdeoksimcheungsuoncheon"/>
    <tag k="natural" v="spring"/>
    <tag k="ncat" v="온천"/>
    <tag k="source" v="http://kr.open.gugi.yahoo.com"/>
  </node>
  <node id="368874979" version="2" timestamp="2009-04-07T19:09:43Z" uid="6975" user="ulfl" changeset="298062" lat="36.268444" lon="129.367243">
    <tag k="amenity" v="sauna"/>
    <tag k="name" v="부경온천 (Bugyeong Hot Spring)"/>
    <tag k="name:en" v="Bugyeong Hot Spring"/>
    <tag k="name:ko_rm" v="Bugyeongoncheon"/>
    <tag k="natural" v="spring"/>
    <tag k="ncat" v="온천"/>
    <tag k="source" v="http://kr.open.gugi.yahoo.com"/>
  </node>
  <node id="368874980" version="2" timestamp="2009-04-07T19:09:43Z" uid="6975" user="ulfl" changeset="298062" lat="36.269128" lon="129.36652">
    <tag k="amenity" v="sauna"/>
    <tag k="name" v="부경온천 (Bugyeong Hot Spring)"/>
    <tag k="name:en" v="Bugyeong Hot Spring"/>
    <tag k="name:ko_rm" v="Bugyeongoncheon"/>
    <tag k="natural" v="spring"/>
    <tag k="ncat" v="온천"/>
    <tag k="source" v="http://kr.open.gugi.yahoo.com"/>
  </node>
  <node id="368874985" version="2" timestamp="2009-04-07T19:09:45Z" uid="6975" user="ulfl" changeset="298062" lat="36.303363" lon="128.589078">
    <tag k="amenity" v="sauna"/>
    <tag k="name" v="의성탑산약수온천 (Uiseongtapsanyaksu Hot Spring)"/>
    <tag k="name:en" v="Uiseongtapsanyaksu Hot Spring"/>
    <tag k="name:ko_rm" v="Uiseongtapsanyaksuoncheon"/>
    <tag k="natural" v="spring"/>
    <tag k="ncat" v="온천"/>
    <tag k="source" v="http://kr.open.gugi.yahoo.com"/>
  </node>
  <node id="368874988" version="2" timestamp="2009-04-07T19:09:44Z" uid="6975" user="ulfl" changeset="298062" lat="36.046104" lon="128.471151">
    <tag k="amenity" v="sauna"/>
    <tag k="name" v="칠곡도개온천 (Chilgokdogae Hot Spring)"/>
    <tag k="name:en" v="Chilgokdogae Hot Spring"/>
    <tag k="name:ko_rm" v="Chilgokdogaeoncheon"/>
    <tag k="natural" v="spring"/>
    <tag k="ncat" v="온천"/>
    <tag k="source" v="http://kr.open.gugi.yahoo.com"/>
  </node>
  <node id="368874992" version="2" timestamp="2009-04-07T19:09:40Z" uid="6975" user="ulfl" changeset="298062" lat="35.685518" lon="126.56878">
    <tag k="amenity" v="sauna"/>
    <tag k="name" v="변산온천 (Byeonsan Hot Spring)"/>
    <tag k="name:en" v="Byeonsan Hot Spring"/>
    <tag k="name:ko_rm" v="Byeonsanoncheon"/>
    <tag k="natural" v="spring"/>
    <tag k="ncat" v="온천"/>
    <tag k="source" v="http://kr.open.gugi.yahoo.com"/>
  </node>
  <node id="368874995" version="2" timestamp="2009-04-07T19:09:40Z" uid="6975" user="ulfl" changeset="298062" lat="35.738494" lon="127.224539">
    <tag k="amenity" v="sauna"/>
    <tag k="name" v="죽림온천 (Jungnim Hot Spring)"/>
    <tag k="name:en" v="Jungnim Hot Spring"/>
    <tag k="name:ko_rm" v="Jungnimoncheon"/>
    <tag k="natural" v="spring"/>
    <tag k="ncat" v="온천"/>
    <tag k="source" v="http://kr.open.gugi.yahoo.com"/>
  </node>
  <node id="368874997" version="2" timestamp="2009-04-07T19:09:40Z" uid="6975" user="ulfl" changeset="298062" lat="35.839771" lon="127.280149">
    <tag k="amenity" v="sauna"/>
    <tag k="name" v="화심온천 (Hwasim Hot Spring)"/>
    <tag k="name:en" v="Hwasim Hot Spring"/>
    <tag k="name:ko_rm" v="Hwasimoncheon"/>
    <tag k="natural" v="spring"/>
    <tag k="ncat" v="온천"/>
    <tag k="source" v="http://kr.open.gugi.yahoo.com"/>
  </node>
  <node id="368874999" version="2" timestamp="2009-04-07T19:09:40Z" uid="6975" user="ulfl" changeset="298062" lat="35.721126" lon="127.295442">
    <tag k="amenity" v="sauna"/>
    <tag k="name" v="마이산회봉온천 (Maisanhoebong Hot Spring)"/>
    <tag k="name:en" v="Maisanhoebong Hot Spring"/>
    <tag k="name:ko_rm" v="Maisanhoebongoncheon"/>
    <tag k="natural" v="spring"/>
    <tag k="ncat" v="온천"/>
    <tag k="source" v="http://kr.open.gugi.yahoo.com"/>
  </node>
  <node id="368875004" version="2" timestamp="2009-04-07T19:09:41Z" uid="6975" user="ulfl" changeset="298062" lat="35.520065" lon="127.727995">
    <tag k="amenity" v="sauna"/>
    <tag k="name" v="금호온천 (Geumho Hot Spring)"/>
    <tag k="name:en" v="Geumho Hot Spring"/>
    <tag k="name:ko_rm" v="Geumhooncheon"/>
    <tag k="natural" v="spring"/>
    <tag k="ncat" v="온천"/>
    <tag k="source" v="http://kr.open.gugi.yahoo.com"/>
  </node>
  <node id="368875008" version="2" timestamp="2009-04-07T19:09:55Z" uid="6975" user="ulfl" changeset="298062" lat="35.300946" lon="126.787315">
    <tag k="amenity" v="sauna"/>
    <tag k="name" v="정원온천 (Jeongwon Hot Spring)"/>
    <tag k="name:en" v="Jeongwon Hot Spring"/>
    <tag k="name:ko_rm" v="Jeongwononcheon"/>
    <tag k="natural" v="spring"/>
    <tag k="ncat" v="온천"/>
    <tag k="source" v="http://kr.open.gugi.yahoo.com"/>
  </node>
  <node id="368875009" version="2" timestamp="2009-04-07T19:09:55Z" uid="6975" user="ulfl" changeset="298062" lat="35.537409" lon="127.523791">
    <tag k="amenity" v="sauna"/>
    <tag k="name" v="장수온천 (Jangsu Hot Spring)"/>
    <tag k="name:en" v="Jangsu Hot Spring"/>
    <tag k="name:ko_rm" v="Jangsuoncheon"/>
    <tag k="natural" v="spring"/>
    <tag k="ncat" v="온천"/>
    <tag k="source" v="http://kr.open.gugi.yahoo.com"/>
  </node>
  <node id="368875014" version="2" timestamp="2009-04-07T19:09:54Z" uid="6975" user="ulfl" changeset="298062" lat="35.298828" lon="126.782024">
    <tag k="amenity" v="sauna"/>
    <tag k="name" v="청아온천 (Cheonga Hot Spring)"/>
    <tag k="name:en" v="Cheonga Hot Spring"/>
    <tag k="name:ko_rm" v="Cheongaoncheon"/>
    <tag k="natural" v="spring"/>
    <tag k="ncat" v="온천"/>
    <tag k="source" v="http://kr.open.gugi.yahoo.com"/>
  </node>
  <node id="368875015" version="2" timestamp="2009-04-07T19:09:55Z" uid="6975" user="ulfl" changeset="298062" lat="35.365289" lon="127.025546">
    <tag k="amenity" v="sauna"/>
    <tag k="name" v="담양리조트온천 (Damyangnijoteu Hot Spring)"/>
    <tag k="name:en" v="Damyangnijoteu Hot Spring"/>
    <tag k="name:ko_rm" v="Damyangnijoteuoncheon"/>
    <tag k="natural" v="spring"/>
    <tag k="ncat" v="온천"/>
    <tag k="source" v="http://kr.open.gugi.yahoo.com"/>
  </node>
  <node id="368875016" version="2" timestamp="2009-04-07T19:09:53Z" uid="6975" user="ulfl" changeset="298062" lat="35.36528" lon="127.025535">
    <tag k="amenity" v="sauna"/>
    <tag k="name" v="(주)담양온천 (Damyang Hot Spring)"/>
    <tag k="name:en" v="Damyang Hot Spring"/>
    <tag k="name:ko_rm" v="( Ju ) Damyangoncheon"/>
    <tag k="natural" v="spring"/>
    <tag k="ncat" v="온천"/>
    <tag k="source" v="http://kr.open.gugi.yahoo.com"/>
  </node>
  <node id="368875017" version="2" timestamp="2009-04-07T19:09:54Z" uid="6975" user="ulfl" changeset="298062" lat="35.365658" lon="127.024298">
    <tag k="amenity" v="sauna"/>
    <tag k="name" v="담양온천 (Damyang Hot Spring)"/>
    <tag k="name:en" v="Damyang Hot Spring"/>
    <tag k="name:ko_rm" v="Damyangoncheon"/>
    <tag k="natural" v="spring"/>
    <tag k="ncat" v="온천"/>
    <tag k="source" v="http://kr.open.gugi.yahoo.com"/>
  </node>
  <node id="368875021" version="2" timestamp="2009-04-07T19:09:53Z" uid="6975" user="ulfl" changeset="298062" lat="35.317583" lon="127.457424">
    <tag k="amenity" v="sauna"/>
    <tag k="name" v="지리산온천 (Jirisan Hot Spring)"/>
    <tag k="name:en" v="Jirisan Hot Spring"/>
    <tag k="name:ko_rm" v="Jirisanoncheon"/>
    <tag k="natural" v="spring"/>
    <tag k="ncat" v="온천"/>
    <tag k="source" v="http://kr.open.gugi.yahoo.com"/>
  </node>
  <node id="368875022" version="2" timestamp="2009-04-07T19:09:53Z" uid="6975" user="ulfl" changeset="298062" lat="35.302352" lon="127.478937">
    <tag k="amenity" v="sauna"/>
    <tag k="name" v="노고단관광온천 (Nogodangwangwang Hot Spring)"/>
    <tag k="name:en" v="Nogodangwangwang Hot Spring"/>
    <tag k="name:ko_rm" v="Nogodangwangwangoncheon"/>
    <tag k="natural" v="spring"/>
    <tag k="ncat" v="온천"/>
    <tag k="source" v="http://kr.open.gugi.yahoo.com"/>
  </node>
  <node id="368875024" version="2" timestamp="2009-04-07T19:09:59Z" uid="6975" user="ulfl" changeset="298062" lat="35.43817" lon="128.590691">
    <tag k="amenity" v="sauna"/>
    <tag k="name" v="남양온천 (Namyang Hot Spring)"/>
    <tag k="name:en" v="Namyang Hot Spring"/>
    <tag k="name:ko_rm" v="Namyangoncheon"/>
    <tag k="natural" v="spring"/>
    <tag k="ncat" v="온천"/>
    <tag k="source" v="http://kr.open.gugi.yahoo.com"/>
  </node>
  <node id="368875027" version="2" timestamp="2009-04-07T19:09:58Z" uid="6975" user="ulfl" changeset="298062" lat="35.438115" lon="128.590944">
    <tag k="amenity" v="sauna"/>
    <tag k="name" v="부일온천 (Buil Hot Spring)"/>
    <tag k="name:en" v="Buil Hot Spring"/>
    <tag k="name:ko_rm" v="Builoncheon"/>
    <tag k="natural" v="spring"/>
    <tag k="ncat" v="온천"/>
    <tag k="source" v="http://kr.open.gugi.yahoo.com"/>
  </node>
  <node id="368875029" version="2" timestamp="2009-04-07T19:09:57Z" uid="6975" user="ulfl" changeset="298062" lat="35.438842" lon="128.582324">
    <tag k="amenity" v="sauna"/>
    <tag k="name" v="그랜드온천 (Grand Hot Spring)"/>
    <tag k="name:en" v="Grand Hot Spring"/>
    <tag k="name:ko_rm" v="Geuraendeuoncheon"/>
    <tag k="natural" v="spring"/>
    <tag k="ncat" v="온천"/>
    <tag k="source" v="http://kr.open.gugi.yahoo.com"/>
  </node>
  <node id="368875033" version="2" timestamp="2009-04-07T19:09:57Z" uid="6975" user="ulfl" changeset="298062" lat="35.319862" lon="128.260716">
    <tag k="amenity" v="sauna"/>
    <tag k="name" v="일육온천 (Ilyuk Hot Spring)"/>
    <tag k="name:en" v="Ilyuk Hot Spring"/>
    <tag k="name:ko_rm" v="Ilyukoncheon"/>
    <tag k="natural" v="spring"/>
    <tag k="ncat" v="온천"/>
    <tag k="source" v="http://kr.open.gugi.yahoo.com"/>
  </node>
  <node id="368875040" version="2" timestamp="2009-04-07T19:10:02Z" uid="6975" user="ulfl" changeset="298062" lat="35.061638" lon="126.99183">
    <tag k="amenity" v="sauna"/>
    <tag k="name" v="샘온천 (Saem Hot Spring)"/>
    <tag k="name:en" v="Saem Hot Spring"/>
    <tag k="name:ko_rm" v="Saemoncheon"/>
    <tag k="natural" v="spring"/>
    <tag k="ncat" v="온천"/>
    <tag k="source" v="http://kr.open.gugi.yahoo.com"/>
  </node>
  <node id="368875041" version="2" timestamp="2009-04-07T19:10:02Z" uid="6975" user="ulfl" changeset="298062" lat="35.31853" lon="128.264023">
    <tag k="amenity" v="sauna"/>
    <tag k="name" v="혜성온천 (Hyeseong Hot Spring)"/>
    <tag k="name:en" v="Hyeseong Hot Spring"/>
    <tag k="name:ko_rm" v="Hyeseongoncheon"/>
    <tag k="natural" v="spring"/>
    <tag k="ncat" v="온천"/>
    <tag k="source" v="http://kr.open.gugi.yahoo.com"/>
  </node>
  <node id="368875045" version="2" timestamp="2009-04-07T19:10:01Z" uid="6975" user="ulfl" changeset="298062" lat="35.156852" lon="127.892174">
    <tag k="amenity" v="sauna"/>
    <tag k="name" v="옥종불소유황온천 (Okjongbulso Sulfur Hot Spring)"/>
    <tag k="name:en" v="Okjongbulso Sulfur Hot Spring"/>
    <tag k="name:ko_rm" v="Okjongbulsoyuhwangoncheon"/>
    <tag k="natural" v="spring"/>
    <tag k="ncat" v="온천"/>
    <tag k="source" v="http://kr.open.gugi.yahoo.com"/>
  </node>
  <node id="368875048" version="2" timestamp="2009-04-07T19:10:00Z" uid="6975" user="ulfl" changeset="298062" lat="34.797298" lon="126.695747">
    <tag k="amenity" v="sauna"/>
    <tag k="name" v="부광대중온천 (Bugwangdaejung Hot Spring)"/>
    <tag k="name:en" v="Bugwangdaejung Hot Spring"/>
    <tag k="name:ko_rm" v="Bugwangdaejungoncheon"/>
    <tag k="natural" v="spring"/>
    <tag k="ncat" v="온천"/>
    <tag k="source" v="http://kr.open.gugi.yahoo.com"/>
  </node>
  <node id="368875054" version="2" timestamp="2009-04-07T19:10:00Z" uid="6975" user="ulfl" changeset="298062" lat="34.64073" lon="126.773957">
    <tag k="amenity" v="sauna"/>
    <tag k="name" v="제일온천 (Jeil Hot Spring)"/>
    <tag k="name:en" v="Jeil Hot Spring"/>
    <tag k="name:ko_rm" v="Jeiloncheon"/>
    <tag k="natural" v="spring"/>
    <tag k="ncat" v="온천"/>
    <tag k="source" v="http://kr.open.gugi.yahoo.com"/>
  </node>
  <node id="368875056" version="2" timestamp="2009-04-07T19:10:05Z" uid="6975" user="ulfl" changeset="298062" lat="34.637656" lon="126.766869">
    <tag k="amenity" v="sauna"/>
    <tag k="name" v="세린온천 (Serin Hot Spring)"/>
    <tag k="name:en" v="Serin Hot Spring"/>
    <tag k="name:ko_rm" v="Serinoncheon"/>
    <tag k="natural" v="spring"/>
    <tag k="ncat" v="온천"/>
    <tag k="source" v="http://kr.open.gugi.yahoo.com"/>
  </node>
  <node id="368875064" version="2" timestamp="2009-04-07T19:10:04Z" uid="6975" user="ulfl" changeset="298062" lat="34.848058" lon="127.345862">
    <tag k="amenity" v="sauna"/>
    <tag k="name" v="회정온천 (Hoejeong Hot Spring)"/>
    <tag k="name:en" v="Hoejeong Hot Spring"/>
    <tag k="name:ko_rm" v="Hoejeongoncheon"/>
    <tag k="natural" v="spring"/>
    <tag k="ncat" v="온천"/>
    <tag k="source" v="http://kr.open.gugi.yahoo.com"/>
  </node>
  <node id="368875065" version="2" timestamp="2009-04-07T19:10:03Z" uid="6975" user="ulfl" changeset="298062" lat="34.88929" lon="127.290129">
    <tag k="amenity" v="sauna"/>
    <tag k="name" v="백이산온천 (Baekisan Hot Spring)"/>
    <tag k="name:en" v="Baekisan Hot Spring"/>
    <tag k="name:ko_rm" v="Baekisanoncheon"/>
    <tag k="natural" v="spring"/>
    <tag k="ncat" v="온천"/>
    <tag k="source" v="http://kr.open.gugi.yahoo.com"/>
  </node>
</osm>
