<?xml version='1.0' encoding='UTF-8'?>
<osm version="0.6" generator="libosmium/2.20.0">
  <node id="370840150" version="2" timestamp="2009-04-15T07:22:57Z" uid="6975" user="ulfl" changeset="553994" lat="47.3733943" lon="8.543969">
    <tag k="name" v="The G Vision"/>
    <tag k="shop" v="hairdresser"/>
  </node>
  <node id="370840150" version="3" timestamp="2010-02-13T14:34:13Z" uid="666" user="ThePacki" changeset="3865236" lat="47.3733943" lon="8.543969">
    <tag k="addr:housenumber" v="1"/>
    <tag k="addr:street" v="Am Hirschenplatz"/>
    <tag k="name" v="The G Vision"/>
    <tag k="shop" v="hairdresser"/>
    <tag k="website" v="http://www.thegvision.ch"/>
  </node>
  <node id="370840150" version="4" timestamp="2010-02-14T12:08:40Z" uid="666" user="ThePacki" changeset="3872980" lat="47.3732511" lon="8.5440343">
    <tag k="addr:housenumber" v="1"/>
    <tag k="addr:street" v="Am Hirschenplatz"/>
    <tag k="name" v="The G Vision"/>
    <tag k="shop" v="hairdresser"/>
    <tag k="website" v="http://www.thegvision.ch"/>
  </node>
  <node id="370840150" version="5" timestamp="2010-02-28T16:09:13Z" uid="666" user="ThePacki" changeset="3999810" lat="47.3732511" lon="8.5440343">
    <tag k="addr:housenumber" v="1"/>
    <tag k="addr:street" v="Hirschenplatz"/>
    <tag k="name" v="The G Vision"/>
    <tag k="shop" v="hairdresser"/>
    <tag k="website" v="http://www.thegvision.ch"/>
  </node>
  <node id="370843568" version="3" timestamp="2009-04-15T07:17:28Z" uid="6975" user="ulfl" changeset="553994" lat="47.371511" lon="8.5438574">
    <tag k="name" v="Playlife"/>
    <tag k="shop" v="clothes"/>
  </node>
  <node id="370845832" version="2" timestamp="2011-01-15T07:04:06Z" uid="4467" user="Rosscoe" changeset="6973944" lat="-35.0225114" lon="117.9152205"/>
  <node id="370845832" version="3" timestamp="2012-07-19T08:07:44Z" uid="722137" user="OSMF Redaction Account" changeset="12313210" lat="-35.0225478" lon="117.9152247"/>
  <node id="370845832" version="4" timestamp="2012-07-21T00:36:55Z" uid="717358" user="Brian On A Bicycle" changeset="12397063" lat="-35.022491" lon="117.9152228"/>
</osm>
