<?xml version='1.0' encoding='UTF-8'?>
<osm version="0.6" generator="libosmium/2.20.0">
  <node id="374350098" version="1" timestamp="2009-04-13T20:01:55Z" uid="29995" user="mathse" changeset="487001" lat="52.1950652" lon="14.3005177">
    <tag k="amenity" v="bus_stop"/>
    <tag k="created_by" v="Merkaartor 0.13"/>
  </node>
  <node id="374350098" version="2" timestamp="2009-04-15T05:16:38Z" uid="6975" user="ulfl" changeset="553994" lat="52.1950652" lon="14.3005177">
    <tag k="highway" v="bus_stop"/>
  </node>
  <node id="374350098" version="3" timestamp="2010-11-07T08:33:36Z" uid="163437" user="r-michael" changeset="6308955" lat="52.1950652" lon="14.3005177">
    <tag k="highway" v="bus_stop"/>
    <tag k="name" v="Ragow Dorf"/>
    <tag k="operator" v="BOS (Busverkehr Oder-Spree)"/>
    <tag k="ref" v="740707"/>
  </node>
  <node id="374350111" version="1" timestamp="2009-04-13T20:01:56Z" uid="29995" user="mathse" changeset="487001" lat="52.1876544" lon="14.2397125">
    <tag k="amenity" v="bus_stop"/>
    <tag k="created_by" v="Merkaartor 0.13"/>
  </node>
  <node id="374350111" version="2" timestamp="2009-04-15T05:16:37Z" uid="6975" user="ulfl" changeset="553994" lat="52.1876544" lon="14.2397125">
    <tag k="highway" v="bus_stop"/>
  </node>
  <node id="374350111" version="3" timestamp="2010-02-23T14:20:40Z" uid="163437" user="r-michael" changeset="3953854" lat="52.1876544" lon="14.239838">
    <tag k="highway" v="bus_stop"/>
  </node>
  <node id="374350372" version="1" timestamp="2009-04-13T20:02:14Z" uid="9581" user="Lobelt" changeset="483801" lat="49.5111863" lon="8.7225254"/>
  <node id="374350372" version="2" timestamp="2011-09-20T09:54:09Z" uid="6326" user="mike_hd" changeset="9349891" lat="49.5111646" lon="8.7224338"/>
  <node id="374350386" version="1" timestamp="2009-04-13T20:02:15Z" uid="9581" user="Lobelt" changeset="483801" lat="49.5101974" lon="8.7379325"/>
  <node id="374350386" version="2" timestamp="2010-04-07T20:31:28Z" uid="9581" user="Lobelt" changeset="4358894" lat="49.5102432" lon="8.7378368"/>
  <node id="374350403" version="1" timestamp="2009-04-13T20:02:16Z" uid="9581" user="Lobelt" changeset="483801" lat="49.5151442" lon="8.7470535">
    <tag k="name" v="W端nschmichelbach"/>
    <tag k="traffic_sign" v="city_limit"/>
  </node>
  <node id="374350403" version="2" timestamp="2011-05-29T13:44:32Z" uid="117878" user="catweazle69514" changeset="8281027" lat="49.5151581" lon="8.7470428">
    <tag k="name" v="W端nschmichelbach"/>
    <tag k="traffic_sign" v="city_limit"/>
  </node>
  <node id="374350403" version="3" timestamp="2011-11-12T09:44:32Z" uid="475266" user="Lobelt_2" changeset="9802842" lat="49.5151499" lon="8.7470931">
    <tag k="name" v="W端nschmichelbach"/>
    <tag k="traffic_sign" v="city_limit"/>
  </node>
  <node id="374351425" version="2" timestamp="2009-11-06T00:26:29Z" uid="36809" user="pfoten_weg_!_" changeset="3044956" lat="52.1978978" lon="14.394438">
    <tag k="name" v="Mixdorf"/>
    <tag k="railway" v="station"/>
  </node>
  <node id="374351425" version="3" timestamp="2010-02-14T22:16:38Z" uid="222568" user="Pfad-Finder" changeset="3879112" lat="52.1978053" lon="14.39471">
    <tag k="name" v="Mixdorf"/>
    <tag k="railway" v="station"/>
  </node>
  <node id="374351425" version="4" timestamp="2010-05-24T06:11:41Z" uid="5359" user="user_5359" changeset="4789973" lat="52.1978053" lon="14.39471">
    <tag k="name" v="Mixdorf"/>
    <tag k="railway" v="station"/>
    <tag k="wheelchair" v="yes"/>
  </node>
  <node id="374351425" version="5" timestamp="2010-08-01T16:08:11Z" uid="316424" user="thomas2403" changeset="5372153" lat="52.1978053" lon="14.39471">
    <tag k="name" v="Mixdorf"/>
    <tag k="railway" v="station"/>
    <tag k="wheelchair" v="yes"/>
  </node>
  <node id="374351425" version="6" timestamp="2010-08-07T10:45:03Z" uid="163437" user="r-michael" changeset="5423539" lat="52.1976473" lon="14.3948289">
    <tag k="name" v="Mixdorf"/>
    <tag k="railway" v="station"/>
    <tag k="wheelchair" v="yes"/>
  </node>
  <node id="374351425" version="7" timestamp="2010-11-07T08:33:34Z" uid="163437" user="r-michael" changeset="6308955" lat="52.1976473" lon="14.3948289">
    <tag k="name" v="Mixdorf"/>
    <tag k="railway" v="station"/>
    <tag k="uic_ref" v="8012370"/>
    <tag k="wheelchair" v="yes"/>
  </node>
  <node id="374351425" version="8" timestamp="2011-05-18T07:12:53Z" uid="163437" user="r-michael" changeset="8178373" lat="52.1977589" lon="14.3946469">
    <tag k="name" v="Mixdorf"/>
    <tag k="railway" v="station"/>
    <tag k="uic_ref" v="8012370"/>
    <tag k="wheelchair" v="yes"/>
  </node>
  <node id="374351425" version="9" timestamp="2011-08-15T07:17:53Z" uid="163437" user="r-michael" changeset="9023877" lat="52.1978079" lon="14.394676">
    <tag k="name" v="Mixdorf"/>
    <tag k="railway" v="station"/>
    <tag k="uic_ref" v="8012370"/>
    <tag k="wheelchair" v="yes"/>
  </node>
  <node id="374351425" version="10" timestamp="2011-08-25T22:27:33Z" uid="460437" user="wirschatzfinder" changeset="9125616" lat="52.1978079" lon="14.394676">
    <tag k="name" v="Mixdorf"/>
    <tag k="railway" v="halt"/>
    <tag k="uic_ref" v="8012370"/>
    <tag k="wheelchair" v="yes"/>
  </node>
  <node id="374353113" version="9" timestamp="2009-05-12T15:39:21Z" uid="43863" user="Rundling" changeset="1165628" lat="53.2233917" lon="10.390859"/>
  <node id="374353113" version="10" timestamp="2009-07-19T21:50:20Z" uid="40381" user="Bitnik" changeset="1879262" lat="53.2232112" lon="10.390859"/>
  <node id="374353136" version="9" timestamp="2009-05-12T15:39:22Z" uid="43863" user="Rundling" changeset="1165628" lat="53.2229932" lon="10.3898708"/>
  <node id="374354798" version="1" timestamp="2009-04-13T20:07:03Z" uid="11238" user="fahrrad" changeset="507047" lat="50.8657498" lon="9.716289">
    <tag k="created_by" v="Potlatch 0.10f"/>
  </node>
  <node id="374354798" version="2" timestamp="2009-04-13T20:07:50Z" uid="11238" user="fahrrad" changeset="507047" lat="50.8658906" lon="9.7157397">
    <tag k="amenity" v="bus_stop"/>
    <tag k="created_by" v="Potlatch 0.10f"/>
    <tag k="name" v="Peterstor"/>
  </node>
  <node id="374354798" version="3" timestamp="2009-04-15T05:16:01Z" uid="6975" user="ulfl" changeset="553994" lat="50.8658906" lon="9.7157397">
    <tag k="highway" v="bus_stop"/>
    <tag k="name" v="Peterstor"/>
  </node>
  <node id="374354798" version="4" timestamp="2011-02-24T17:41:43Z" uid="89943" user="Bengatzer" changeset="7383562" lat="50.8658397" lon="9.7157109">
    <tag k="highway" v="bus_stop"/>
    <tag k="name" v="Peterstor"/>
  </node>
  <node id="374359778" version="9" timestamp="2009-05-12T15:39:22Z" uid="43863" user="Rundling" changeset="1165628" lat="53.2222923" lon="10.3882304"/>
  <node id="374350372" version="3" timestamp="2012-04-16T17:52:49Z" uid="136321" user="Teddy73" changeset="11323793" lat="49.5111646" lon="8.7224338"/>
  <node id="374350386" version="3" timestamp="2012-04-19T13:27:07Z" uid="328555" user="peb12345" changeset="11353953" lat="49.5102432" lon="8.7378368"/>
  <node id="374350403" version="4" timestamp="2012-04-20T22:10:31Z" uid="328555" user="peb12345" changeset="11369094" lat="49.5151499" lon="8.7470931"/>
  <node id="374351425" version="11" timestamp="2012-08-18T09:07:39Z" uid="15997" user="M端scha" changeset="12770704" lat="52.1978001" lon="14.3946945">
    <tag k="name" v="Mixdorf"/>
    <tag k="railway" v="halt"/>
    <tag k="uic_ref" v="8012370"/>
    <tag k="wheelchair" v="yes"/>
  </node>
  <node id="374351425" version="12" timestamp="2012-08-18T09:51:41Z" uid="163437" user="r-michael" changeset="12771122" lat="52.1978001" lon="14.3946945">
    <tag k="name" v="Mixdorf"/>
    <tag k="railway" v="station"/>
    <tag k="uic_ref" v="8012370"/>
    <tag k="wheelchair" v="yes"/>
  </node>
</osm>
