<?xml version='1.0' encoding='UTF-8'?>
<osm version="0.6" generator="libosmium/2.20.0">
  <node id="376344299" version="1" timestamp="2009-04-15T10:06:50Z" uid="20587" user="balrog-kun" changeset="551593" lat="52.211574" lon="20.9711025">
    <tag k="addr:city" v="Warszawa@Warszawa Ochota"/>
    <tag k="addr:housenumber" v="1"/>
    <tag k="addr:street" v="Mątwicka"/>
    <tag k="source" v="http://ump.waw.pl/ retrieved 11:07:14 02/24/09 (UMP-Warszawa/src/WARSZAWA_OCHOTA.ulice.txt)"/>
  </node>
  <node id="376344299" version="2" timestamp="2011-09-10T07:24:54Z" uid="477744" user="hormel" changeset="9259833" lat="52.211574" lon="20.9711025"/>
  <node id="376344300" version="1" timestamp="2009-04-15T10:06:50Z" uid="20587" user="balrog-kun" changeset="551593" lat="52.2113934" lon="20.9715709">
    <tag k="addr:city" v="Warszawa@Warszawa Ochota"/>
    <tag k="addr:housenumber" v="15"/>
    <tag k="addr:street" v="Białobrzeska"/>
    <tag k="source" v="http://ump.waw.pl/ retrieved 11:07:14 02/24/09 (UMP-Warszawa/src/WARSZAWA_OCHOTA.ulice.txt)"/>
  </node>
  <node id="376344300" version="2" timestamp="2010-07-21T22:11:34Z" uid="166945" user="Kuba Wroniecki" changeset="5282983" lat="52.2117872" lon="20.9717877">
    <tag k="addr:city" v="Warszawa@Warszawa Ochota"/>
    <tag k="addr:housenumber" v="15"/>
    <tag k="addr:street" v="Białobrzeska"/>
    <tag k="source" v="http://ump.waw.pl/ retrieved 11:07:14 02/24/09 (UMP-Warszawa/src/WARSZAWA_OCHOTA.ulice.txt)"/>
  </node>
  <node id="376344300" version="3" timestamp="2011-09-10T09:43:52Z" uid="477744" user="hormel" changeset="9260617" lat="52.2117486" lon="20.9717998">
    <tag k="addr:city" v="Warszawa@Warszawa Ochota"/>
    <tag k="addr:housenumber" v="15"/>
    <tag k="addr:street" v="Białobrzeska"/>
    <tag k="source" v="http://ump.waw.pl/ retrieved 11:07:14 02/24/09 (UMP-Warszawa/src/WARSZAWA_OCHOTA.ulice.txt)"/>
  </node>
  <node id="376344302" version="1" timestamp="2009-04-15T10:06:50Z" uid="20587" user="balrog-kun" changeset="551593" lat="52.2077587" lon="20.9759463">
    <tag k="addr:city" v="Warszawa@Warszawa Ochota"/>
    <tag k="addr:housenumber" v="3"/>
    <tag k="addr:street" v="Skorochód-Majewskiego"/>
    <tag k="source" v="http://ump.waw.pl/ retrieved 11:07:14 02/24/09 (UMP-Warszawa/src/WARSZAWA_OCHOTA.ulice.txt)"/>
  </node>
  <node id="376344302" version="2" timestamp="2011-12-03T09:15:12Z" uid="441027" user="muzzy" changeset="10022896" lat="52.2077587" lon="20.9759463">
    <tag k="addr:city" v="Warszawa@Warszawa Ochota"/>
    <tag k="addr:housenumber" v="3"/>
    <tag k="addr:street" v="Walentego Skorochód-Majewskiego"/>
    <tag k="source" v="http://ump.waw.pl/ retrieved 11:07:14 02/24/09 (UMP-Warszawa/src/WARSZAWA_OCHOTA.ulice.txt)"/>
  </node>
  <node id="376344302" version="3" timestamp="2012-01-26T09:34:15Z" uid="99386" user="masti" changeset="10501267" lat="52.2077587" lon="20.9759463"/>
  <node id="376344303" version="1" timestamp="2009-04-15T10:06:51Z" uid="20587" user="balrog-kun" changeset="551593" lat="52.2099135" lon="20.9693015">
    <tag k="addr:city" v="Warszawa@Warszawa Ochota"/>
    <tag k="addr:housenumber" v="21"/>
    <tag k="addr:street" v="Opaczewska"/>
    <tag k="source" v="http://ump.waw.pl/ retrieved 11:07:14 02/24/09 (UMP-Warszawa/src/WARSZAWA_OCHOTA.ulice.txt)"/>
  </node>
  <node id="376344303" version="2" timestamp="2011-09-10T06:24:36Z" uid="477744" user="hormel" changeset="9259565" lat="52.209915" lon="20.9686257">
    <tag k="addr:city" v="Warszawa@Warszawa Ochota"/>
    <tag k="addr:housenumber" v="21"/>
    <tag k="addr:street" v="Opaczewska"/>
    <tag k="source" v="http://ump.waw.pl/ retrieved 11:07:14 02/24/09 (UMP-Warszawa/src/WARSZAWA_OCHOTA.ulice.txt)"/>
  </node>
  <node id="376344303" version="3" timestamp="2012-01-26T11:16:40Z" uid="99386" user="masti" changeset="10502068" lat="52.209915" lon="20.9686257"/>
  <node id="376344305" version="1" timestamp="2009-04-15T10:06:51Z" uid="20587" user="balrog-kun" changeset="551593" lat="52.2111143" lon="20.9736889">
    <tag k="addr:city" v="Warszawa@Warszawa Ochota"/>
    <tag k="addr:housenumber" v="5"/>
    <tag k="addr:street" v="Dunajecka"/>
    <tag k="source" v="http://ump.waw.pl/ retrieved 11:07:14 02/24/09 (UMP-Warszawa/src/WARSZAWA_OCHOTA.ulice.txt)"/>
  </node>
  <node id="376344305" version="2" timestamp="2011-09-15T14:03:10Z" uid="477744" user="hormel" changeset="9308380" lat="52.2110214" lon="20.9738498">
    <tag k="addr:city" v="Warszawa@Warszawa Ochota"/>
    <tag k="addr:housenumber" v="5"/>
    <tag k="addr:street" v="Dunajecka"/>
    <tag k="source" v="http://ump.waw.pl/ retrieved 11:07:14 02/24/09 (UMP-Warszawa/src/WARSZAWA_OCHOTA.ulice.txt)"/>
  </node>
  <node id="376344306" version="1" timestamp="2009-04-15T10:06:51Z" uid="20587" user="balrog-kun" changeset="551593" lat="52.2157014" lon="20.9707586">
    <tag k="addr:city" v="Warszawa@Warszawa Ochota"/>
    <tag k="addr:housenumber" v="27"/>
    <tag k="addr:street" v="Szczęśliwicka"/>
    <tag k="source" v="http://ump.waw.pl/ retrieved 11:07:14 02/24/09 (UMP-Warszawa/src/WARSZAWA_OCHOTA.ulice.txt)"/>
  </node>
  <node id="376344308" version="1" timestamp="2009-04-15T10:06:51Z" uid="20587" user="balrog-kun" changeset="551593" lat="52.2074259" lon="20.9767866">
    <tag k="addr:city" v="Warszawa@Warszawa Ochota"/>
    <tag k="addr:housenumber" v="4"/>
    <tag k="addr:street" v="Siemieńskiego"/>
    <tag k="source" v="http://ump.waw.pl/ retrieved 11:07:14 02/24/09 (UMP-Warszawa/src/WARSZAWA_OCHOTA.ulice.txt)"/>
  </node>
  <node id="376344308" version="2" timestamp="2011-12-03T09:15:21Z" uid="441027" user="muzzy" changeset="10022896" lat="52.2074259" lon="20.9767866">
    <tag k="addr:city" v="Warszawa@Warszawa Ochota"/>
    <tag k="addr:housenumber" v="4"/>
    <tag k="addr:street" v="Józefa Jana Siemieńskiego"/>
    <tag k="source" v="http://ump.waw.pl/ retrieved 11:07:14 02/24/09 (UMP-Warszawa/src/WARSZAWA_OCHOTA.ulice.txt)"/>
  </node>
  <node id="376344309" version="1" timestamp="2009-04-15T10:06:51Z" uid="20587" user="balrog-kun" changeset="551593" lat="52.2016336" lon="20.9730792">
    <tag k="addr:city" v="Warszawa@Warszawa Ochota"/>
    <tag k="addr:housenumber" v="28"/>
    <tag k="addr:street" v="Korotyńskiego"/>
    <tag k="source" v="http://ump.waw.pl/ retrieved 11:07:14 02/24/09 (UMP-Warszawa/src/WARSZAWA_OCHOTA.ulice.txt)"/>
  </node>
  <node id="376344309" version="2" timestamp="2011-12-03T09:15:08Z" uid="441027" user="muzzy" changeset="10022896" lat="52.2016336" lon="20.9730792">
    <tag k="addr:city" v="Warszawa@Warszawa Ochota"/>
    <tag k="addr:housenumber" v="28"/>
    <tag k="addr:street" v="Władysława Korotyńskiego"/>
    <tag k="source" v="http://ump.waw.pl/ retrieved 11:07:14 02/24/09 (UMP-Warszawa/src/WARSZAWA_OCHOTA.ulice.txt)"/>
  </node>
  <node id="376344309" version="3" timestamp="2012-01-25T15:44:28Z" uid="99386" user="masti" changeset="10494792" lat="52.2016336" lon="20.9730792"/>
  <node id="376344311" version="1" timestamp="2009-04-15T10:06:51Z" uid="20587" user="balrog-kun" changeset="551593" lat="52.2125102" lon="20.9664922">
    <tag k="addr:city" v="Warszawa@Warszawa Ochota"/>
    <tag k="addr:housenumber" v="60"/>
    <tag k="addr:street" v="Szczęśliwicka"/>
    <tag k="source" v="http://ump.waw.pl/ retrieved 11:07:14 02/24/09 (UMP-Warszawa/src/WARSZAWA_OCHOTA.ulice.txt)"/>
  </node>
  <node id="376344312" version="1" timestamp="2009-04-15T10:06:52Z" uid="20587" user="balrog-kun" changeset="551593" lat="52.2115586" lon="20.9668779">
    <tag k="addr:city" v="Warszawa@Warszawa Ochota"/>
    <tag k="addr:housenumber" v="45"/>
    <tag k="addr:street" v="Szczęśliwicka"/>
    <tag k="source" v="http://ump.waw.pl/ retrieved 11:07:14 02/24/09 (UMP-Warszawa/src/WARSZAWA_OCHOTA.ulice.txt)"/>
  </node>
  <node id="376344312" version="2" timestamp="2011-12-18T22:39:43Z" uid="477744" user="hormel" changeset="10151668" lat="52.2115586" lon="20.9668779"/>
  <node id="376344314" version="1" timestamp="2009-04-15T10:06:52Z" uid="20587" user="balrog-kun" changeset="551593" lat="52.2071545" lon="20.9692125">
    <tag k="addr:city" v="Warszawa@Warszawa Ochota"/>
    <tag k="addr:housenumber" v="18"/>
    <tag k="addr:street" v="Bobrowskiego"/>
    <tag k="source" v="http://ump.waw.pl/ retrieved 11:07:14 02/24/09 (UMP-Warszawa/src/WARSZAWA_OCHOTA.ulice.txt)"/>
  </node>
  <node id="376344314" version="2" timestamp="2011-12-03T09:14:50Z" uid="441027" user="muzzy" changeset="10022896" lat="52.2071545" lon="20.9692125">
    <tag k="addr:city" v="Warszawa@Warszawa Ochota"/>
    <tag k="addr:housenumber" v="18"/>
    <tag k="addr:street" v="Stefana Bobrowskiego"/>
    <tag k="source" v="http://ump.waw.pl/ retrieved 11:07:14 02/24/09 (UMP-Warszawa/src/WARSZAWA_OCHOTA.ulice.txt)"/>
  </node>
  <node id="376344315" version="1" timestamp="2009-04-15T10:06:52Z" uid="20587" user="balrog-kun" changeset="551593" lat="52.209328" lon="20.9666866">
    <tag k="addr:city" v="Warszawa@Warszawa Ochota"/>
    <tag k="addr:housenumber" v="27"/>
    <tag k="addr:street" v="Trzech Budrysów"/>
    <tag k="source" v="http://ump.waw.pl/ retrieved 11:07:14 02/24/09 (UMP-Warszawa/src/WARSZAWA_OCHOTA.ulice.txt)"/>
  </node>
  <node id="376344315" version="2" timestamp="2011-09-10T06:24:35Z" uid="477744" user="hormel" changeset="9259565" lat="52.2092877" lon="20.9666066">
    <tag k="addr:city" v="Warszawa@Warszawa Ochota"/>
    <tag k="addr:housenumber" v="27"/>
    <tag k="addr:street" v="Trzech Budrysów"/>
    <tag k="source" v="http://ump.waw.pl/ retrieved 11:07:14 02/24/09 (UMP-Warszawa/src/WARSZAWA_OCHOTA.ulice.txt)"/>
  </node>
  <node id="376344315" version="3" timestamp="2012-01-26T11:16:40Z" uid="99386" user="masti" changeset="10502068" lat="52.2092877" lon="20.9666066"/>
  <node id="376344317" version="1" timestamp="2009-04-15T10:06:52Z" uid="20587" user="balrog-kun" changeset="551593" lat="52.2075078" lon="20.9658656">
    <tag k="addr:city" v="Warszawa@Warszawa Ochota"/>
    <tag k="addr:housenumber" v="25"/>
    <tag k="addr:street" v="Dickensa"/>
    <tag k="source" v="http://ump.waw.pl/ retrieved 11:07:14 02/24/09 (UMP-Warszawa/src/WARSZAWA_OCHOTA.ulice.txt)"/>
  </node>
  <node id="376344317" version="2" timestamp="2010-07-21T22:26:37Z" uid="166945" user="Kuba Wroniecki" changeset="5283069" lat="52.2073472" lon="20.9656856">
    <tag k="addr:city" v="Warszawa@Warszawa Ochota"/>
    <tag k="addr:housenumber" v="25"/>
    <tag k="addr:street" v="Dickensa"/>
    <tag k="source" v="http://ump.waw.pl/ retrieved 11:07:14 02/24/09 (UMP-Warszawa/src/WARSZAWA_OCHOTA.ulice.txt)"/>
  </node>
  <node id="376344317" version="3" timestamp="2010-12-04T04:20:13Z" uid="20587" user="balrog-kun" changeset="6534205" lat="52.2073472" lon="20.9656856">
    <tag k="addr:city" v="Warszawa@Warszawa Ochota"/>
    <tag k="addr:housenumber" v="25"/>
    <tag k="addr:street" v="Dickensa"/>
    <tag k="source" v="http://ump.waw.pl/ retrieved 11:07:14 02/24/09 (UMP-Warszawa/src/WARSZAWA_OCHOTA.ulice.txt)"/>
  </node>
  <node id="376344318" version="1" timestamp="2009-04-15T10:06:52Z" uid="20587" user="balrog-kun" changeset="551593" lat="52.2174355" lon="20.9738661">
    <tag k="addr:city" v="Warszawa@Warszawa Ochota"/>
    <tag k="addr:housenumber" v="35"/>
    <tag k="addr:street" v="Kopińska"/>
    <tag k="source" v="http://ump.waw.pl/ retrieved 11:07:14 02/24/09 (UMP-Warszawa/src/WARSZAWA_OCHOTA.ulice.txt)"/>
  </node>
  <node id="376344318" version="2" timestamp="2010-04-28T10:31:54Z" uid="277335" user="hateregs" changeset="4548217" lat="52.2171463" lon="20.9738768">
    <tag k="addr:city" v="Warszawa@Warszawa Ochota"/>
    <tag k="addr:housenumber" v="35"/>
    <tag k="addr:street" v="Kopińska"/>
    <tag k="source" v="http://ump.waw.pl/ retrieved 11:07:14 02/24/09 (UMP-Warszawa/src/WARSZAWA_OCHOTA.ulice.txt)"/>
  </node>
  <node id="376344318" version="3" timestamp="2010-04-28T10:34:17Z" uid="277335" user="hateregs" changeset="4548217" lat="52.2171463" lon="20.9738768">
    <tag k="addr:city" v="Warszawa@Warszawa Ochota"/>
    <tag k="addr:housenumber" v="35"/>
    <tag k="addr:street" v="Kopińska"/>
    <tag k="source" v="http://ump.waw.pl/ retrieved 11:07:14 02/24/09 (UMP-Warszawa/src/WARSZAWA_OCHOTA.ulice.txt)"/>
  </node>
  <node id="376344318" version="4" timestamp="2010-04-28T10:34:55Z" uid="277335" user="hateregs" changeset="4548217" lat="52.2171516" lon="20.973922">
    <tag k="addr:city" v="Warszawa@Warszawa Ochota"/>
    <tag k="addr:housenumber" v="35"/>
    <tag k="addr:street" v="Kopińska"/>
    <tag k="source" v="http://ump.waw.pl/ retrieved 11:07:14 02/24/09 (UMP-Warszawa/src/WARSZAWA_OCHOTA.ulice.txt)"/>
  </node>
  <node id="376344320" version="1" timestamp="2009-04-15T10:06:52Z" uid="20587" user="balrog-kun" changeset="551593" lat="52.2158408" lon="20.9752235">
    <tag k="addr:city" v="Warszawa@Warszawa Ochota"/>
    <tag k="addr:housenumber" v="29"/>
    <tag k="addr:street" v="Białobrzeska"/>
    <tag k="source" v="http://ump.waw.pl/ retrieved 11:07:14 02/24/09 (UMP-Warszawa/src/WARSZAWA_OCHOTA.ulice.txt)"/>
  </node>
  <node id="376344321" version="1" timestamp="2009-04-15T10:06:53Z" uid="20587" user="balrog-kun" changeset="551593" lat="52.2112333" lon="20.9690858">
    <tag k="addr:city" v="Warszawa@Warszawa Ochota"/>
    <tag k="addr:housenumber" v="12"/>
    <tag k="addr:street" v="Orzeszkowej"/>
    <tag k="source" v="http://ump.waw.pl/ retrieved 11:07:14 02/24/09 (UMP-Warszawa/src/WARSZAWA_OCHOTA.ulice.txt)"/>
  </node>
  <node id="376344321" version="2" timestamp="2011-09-10T09:43:52Z" uid="477744" user="hormel" changeset="9260617" lat="52.2115117" lon="20.969101">
    <tag k="addr:city" v="Warszawa@Warszawa Ochota"/>
    <tag k="addr:housenumber" v="10/12"/>
    <tag k="addr:street" v="Orzeszkowej"/>
    <tag k="source" v="http://ump.waw.pl/ retrieved 11:07:14 02/24/09 (UMP-Warszawa/src/WARSZAWA_OCHOTA.ulice.txt)"/>
  </node>
  <node id="376344321" version="3" timestamp="2011-12-09T09:52:38Z" uid="441027" user="muzzy" changeset="10071664" lat="52.2115117" lon="20.969101">
    <tag k="addr:city" v="Warszawa@Warszawa Ochota"/>
    <tag k="addr:housenumber" v="10/12"/>
    <tag k="addr:street" v="Elizy Orzeszkowej"/>
    <tag k="source" v="http://ump.waw.pl/ retrieved 11:07:14 02/24/09 (UMP-Warszawa/src/WARSZAWA_OCHOTA.ulice.txt)"/>
  </node>
  <node id="376344321" version="4" timestamp="2012-01-26T13:14:35Z" uid="99386" user="masti" changeset="10503022" lat="52.2115117" lon="20.969101"/>
  <node id="376344323" version="1" timestamp="2009-04-15T10:06:53Z" uid="20587" user="balrog-kun" changeset="551593" lat="52.203089" lon="20.9775184">
    <tag k="addr:city" v="Warszawa@Warszawa Ochota"/>
    <tag k="addr:housenumber" v="3"/>
    <tag k="addr:street" v="Wiślicka"/>
    <tag k="source" v="http://ump.waw.pl/ retrieved 11:07:14 02/24/09 (UMP-Warszawa/src/WARSZAWA_OCHOTA.ulice.txt)"/>
  </node>
  <node id="376344324" version="1" timestamp="2009-04-15T10:06:53Z" uid="20587" user="balrog-kun" changeset="551593" lat="52.2058349" lon="20.9726593">
    <tag k="addr:city" v="Warszawa@Warszawa Ochota"/>
    <tag k="addr:housenumber" v="109"/>
    <tag k="addr:street" v="Grójecka"/>
    <tag k="source" v="http://ump.waw.pl/ retrieved 11:07:14 02/24/09 (UMP-Warszawa/src/WARSZAWA_OCHOTA.ulice.txt)"/>
  </node>
  <node id="376344324" version="2" timestamp="2012-01-26T09:41:39Z" uid="99386" user="masti" changeset="10501326" lat="52.2058349" lon="20.9726593"/>
  <node id="376344325" version="1" timestamp="2009-04-15T10:06:53Z" uid="20587" user="balrog-kun" changeset="551593" lat="52.2063324" lon="20.967634">
    <tag k="addr:city" v="Warszawa@Warszawa Ochota"/>
    <tag k="addr:housenumber" v="10"/>
    <tag k="addr:street" v="Urbanistów"/>
    <tag k="source" v="http://ump.waw.pl/ retrieved 11:07:14 02/24/09 (UMP-Warszawa/src/WARSZAWA_OCHOTA.ulice.txt)"/>
  </node>
  <node id="376344327" version="1" timestamp="2009-04-15T10:06:53Z" uid="20587" user="balrog-kun" changeset="551593" lat="52.2076746" lon="20.967421">
    <tag k="addr:city" v="Warszawa@Warszawa Ochota"/>
    <tag k="addr:housenumber" v="35"/>
    <tag k="addr:street" v="Trzech Budrysów"/>
    <tag k="source" v="http://ump.waw.pl/ retrieved 11:07:14 02/24/09 (UMP-Warszawa/src/WARSZAWA_OCHOTA.ulice.txt)"/>
  </node>
  <node id="376344327" version="2" timestamp="2011-09-10T06:24:34Z" uid="477744" user="hormel" changeset="9259565" lat="52.2082694" lon="20.9676497">
    <tag k="addr:city" v="Warszawa@Warszawa Ochota"/>
    <tag k="addr:housenumber" v="35"/>
    <tag k="addr:street" v="Trzech Budrysów"/>
    <tag k="source" v="http://ump.waw.pl/ retrieved 11:07:14 02/24/09 (UMP-Warszawa/src/WARSZAWA_OCHOTA.ulice.txt)"/>
  </node>
  <node id="376344327" version="3" timestamp="2012-01-26T11:16:41Z" uid="99386" user="masti" changeset="10502068" lat="52.2082694" lon="20.9676497"/>
  <node id="376344328" version="1" timestamp="2009-04-15T10:06:53Z" uid="20587" user="balrog-kun" changeset="551593" lat="52.2034692" lon="20.9756807">
    <tag k="addr:city" v="Warszawa@Warszawa Ochota"/>
    <tag k="addr:housenumber" v="29"/>
    <tag k="addr:street" v="Pawińskiego"/>
    <tag k="source" v="http://ump.waw.pl/ retrieved 11:07:14 02/24/09 (UMP-Warszawa/src/WARSZAWA_OCHOTA.ulice.txt)"/>
  </node>
  <node id="376344328" version="2" timestamp="2011-12-03T09:15:08Z" uid="441027" user="muzzy" changeset="10022896" lat="52.2034692" lon="20.9756807">
    <tag k="addr:city" v="Warszawa@Warszawa Ochota"/>
    <tag k="addr:housenumber" v="29"/>
    <tag k="addr:street" v="Adolfa Pawińskiego"/>
    <tag k="source" v="http://ump.waw.pl/ retrieved 11:07:14 02/24/09 (UMP-Warszawa/src/WARSZAWA_OCHOTA.ulice.txt)"/>
  </node>
  <node id="376344330" version="1" timestamp="2009-04-15T10:06:53Z" uid="20587" user="balrog-kun" changeset="551593" lat="52.2089663" lon="20.9653131">
    <tag k="addr:city" v="Warszawa@Warszawa Ochota"/>
    <tag k="addr:housenumber" v="23"/>
    <tag k="addr:street" v="Trzech Budrysów"/>
    <tag k="source" v="http://ump.waw.pl/ retrieved 11:07:14 02/24/09 (UMP-Warszawa/src/WARSZAWA_OCHOTA.ulice.txt)"/>
  </node>
  <node id="376344330" version="2" timestamp="2011-09-10T06:24:35Z" uid="477744" user="hormel" changeset="9259565" lat="52.2089307" lon="20.9653784">
    <tag k="addr:city" v="Warszawa@Warszawa Ochota"/>
    <tag k="addr:housenumber" v="23"/>
    <tag k="addr:street" v="Trzech Budrysów"/>
    <tag k="source" v="http://ump.waw.pl/ retrieved 11:07:14 02/24/09 (UMP-Warszawa/src/WARSZAWA_OCHOTA.ulice.txt)"/>
  </node>
  <node id="376344330" version="3" timestamp="2012-01-26T11:16:40Z" uid="99386" user="masti" changeset="10502068" lat="52.2089307" lon="20.9653784"/>
  <node id="376344331" version="1" timestamp="2009-04-15T10:06:54Z" uid="20587" user="balrog-kun" changeset="551593" lat="52.2024035" lon="20.9708313">
    <tag k="addr:city" v="Warszawa@Warszawa Ochota"/>
    <tag k="addr:housenumber" v="40"/>
    <tag k="addr:street" v="Skorochód-Majewskiego"/>
    <tag k="source" v="http://ump.waw.pl/ retrieved 11:07:14 02/24/09 (UMP-Warszawa/src/WARSZAWA_OCHOTA.ulice.txt)"/>
  </node>
  <node id="376344331" version="2" timestamp="2011-12-03T09:15:24Z" uid="441027" user="muzzy" changeset="10022896" lat="52.2024035" lon="20.9708313">
    <tag k="addr:city" v="Warszawa@Warszawa Ochota"/>
    <tag k="addr:housenumber" v="40"/>
    <tag k="addr:street" v="Walentego Skorochód-Majewskiego"/>
    <tag k="source" v="http://ump.waw.pl/ retrieved 11:07:14 02/24/09 (UMP-Warszawa/src/WARSZAWA_OCHOTA.ulice.txt)"/>
  </node>
  <node id="376344331" version="3" timestamp="2012-01-25T16:03:40Z" uid="99386" user="masti" changeset="10494955" lat="52.2024035" lon="20.9708313"/>
  <node id="376344333" version="1" timestamp="2009-04-15T10:06:54Z" uid="20587" user="balrog-kun" changeset="551593" lat="52.2099178" lon="20.9641775">
    <tag k="addr:city" v="Warszawa@Warszawa Ochota"/>
    <tag k="addr:housenumber" v="70"/>
    <tag k="addr:street" v="Szczęśliwicka"/>
    <tag k="source" v="http://ump.waw.pl/ retrieved 11:07:14 02/24/09 (UMP-Warszawa/src/WARSZAWA_OCHOTA.ulice.txt)"/>
  </node>
  <node id="376344333" version="2" timestamp="2012-01-26T11:56:02Z" uid="99386" user="masti" changeset="10502362" lat="52.2099178" lon="20.9641775"/>
  <node id="376344334" version="1" timestamp="2009-04-15T10:06:54Z" uid="20587" user="balrog-kun" changeset="551593" lat="52.2067326" lon="20.9672643">
    <tag k="addr:city" v="Warszawa@Warszawa Ochota"/>
    <tag k="addr:housenumber" v="1"/>
    <tag k="addr:street" v="Urbanistów"/>
    <tag k="source" v="http://ump.waw.pl/ retrieved 11:07:14 02/24/09 (UMP-Warszawa/src/WARSZAWA_OCHOTA.ulice.txt)"/>
  </node>
  <node id="376344334" version="2" timestamp="2010-12-04T04:20:11Z" uid="20587" user="balrog-kun" changeset="6534205" lat="52.2067326" lon="20.9672643">
    <tag k="addr:city" v="Warszawa@Warszawa Ochota"/>
    <tag k="addr:housenumber" v="1"/>
    <tag k="addr:street" v="Urbanistów"/>
    <tag k="source" v="http://ump.waw.pl/ retrieved 11:07:14 02/24/09 (UMP-Warszawa/src/WARSZAWA_OCHOTA.ulice.txt)"/>
  </node>
  <node id="376344335" version="1" timestamp="2009-04-15T10:06:54Z" uid="20587" user="balrog-kun" changeset="551593" lat="52.2075255" lon="20.9781976">
    <tag k="addr:city" v="Warszawa@Warszawa Ochota"/>
    <tag k="addr:housenumber" v="8"/>
    <tag k="addr:street" v="Pawińskiego"/>
    <tag k="source" v="http://ump.waw.pl/ retrieved 11:07:14 02/24/09 (UMP-Warszawa/src/WARSZAWA_OCHOTA.ulice.txt)"/>
  </node>
  <node id="376344335" version="2" timestamp="2011-12-03T09:15:45Z" uid="441027" user="muzzy" changeset="10022896" lat="52.2075255" lon="20.9781976">
    <tag k="addr:city" v="Warszawa@Warszawa Ochota"/>
    <tag k="addr:housenumber" v="8"/>
    <tag k="addr:street" v="Adolfa Pawińskiego"/>
    <tag k="source" v="http://ump.waw.pl/ retrieved 11:07:14 02/24/09 (UMP-Warszawa/src/WARSZAWA_OCHOTA.ulice.txt)"/>
  </node>
  <node id="376344335" version="3" timestamp="2012-01-26T09:20:59Z" uid="99386" user="masti" changeset="10501164" lat="52.2075255" lon="20.9781976"/>
  <node id="376344337" version="1" timestamp="2009-04-15T10:06:54Z" uid="20587" user="balrog-kun" changeset="551593" lat="52.2116333" lon="20.9691774">
    <tag k="addr:city" v="Warszawa@Warszawa Ochota"/>
    <tag k="addr:housenumber" v="8"/>
    <tag k="addr:street" v="Orzeszkowej"/>
    <tag k="source" v="http://ump.waw.pl/ retrieved 11:07:14 02/24/09 (UMP-Warszawa/src/WARSZAWA_OCHOTA.ulice.txt)"/>
  </node>
  <node id="376344337" version="2" timestamp="2011-09-10T09:43:52Z" uid="477744" user="hormel" changeset="9260617" lat="52.2116875" lon="20.9691423">
    <tag k="addr:city" v="Warszawa@Warszawa Ochota"/>
    <tag k="addr:housenumber" v="8"/>
    <tag k="addr:street" v="Orzeszkowej"/>
    <tag k="source" v="http://ump.waw.pl/ retrieved 11:07:14 02/24/09 (UMP-Warszawa/src/WARSZAWA_OCHOTA.ulice.txt)"/>
  </node>
  <node id="376344337" version="3" timestamp="2011-12-09T09:53:15Z" uid="441027" user="muzzy" changeset="10071664" lat="52.2116875" lon="20.9691423">
    <tag k="addr:city" v="Warszawa@Warszawa Ochota"/>
    <tag k="addr:housenumber" v="8"/>
    <tag k="addr:street" v="Elizy Orzeszkowej"/>
    <tag k="source" v="http://ump.waw.pl/ retrieved 11:07:14 02/24/09 (UMP-Warszawa/src/WARSZAWA_OCHOTA.ulice.txt)"/>
  </node>
  <node id="376344337" version="4" timestamp="2012-01-26T13:14:35Z" uid="99386" user="masti" changeset="10503022" lat="52.2116875" lon="20.9691423"/>
  <node id="376344338" version="1" timestamp="2009-04-15T10:06:54Z" uid="20587" user="balrog-kun" changeset="551593" lat="52.2164825" lon="20.9715757">
    <tag k="addr:city" v="Warszawa@Warszawa Ochota"/>
    <tag k="addr:housenumber" v="23"/>
    <tag k="addr:street" v="Szczęśliwicka"/>
    <tag k="source" v="http://ump.waw.pl/ retrieved 11:07:14 02/24/09 (UMP-Warszawa/src/WARSZAWA_OCHOTA.ulice.txt)"/>
  </node>
  <node id="376344340" version="1" timestamp="2009-04-15T10:06:54Z" uid="20587" user="balrog-kun" changeset="551593" lat="52.2037718" lon="20.9762774">
    <tag k="addr:city" v="Warszawa@Warszawa Ochota"/>
    <tag k="addr:housenumber" v="7"/>
    <tag k="addr:street" v="Wiślicka"/>
    <tag k="source" v="http://ump.waw.pl/ retrieved 11:07:14 02/24/09 (UMP-Warszawa/src/WARSZAWA_OCHOTA.ulice.txt)"/>
  </node>
  <node id="376344341" version="1" timestamp="2009-04-15T10:06:54Z" uid="20587" user="balrog-kun" changeset="551593" lat="52.2110571" lon="20.9690466">
    <tag k="addr:city" v="Warszawa@Warszawa Ochota"/>
    <tag k="addr:housenumber" v="14"/>
    <tag k="addr:street" v="Orzeszkowej"/>
    <tag k="source" v="http://ump.waw.pl/ retrieved 11:07:14 02/24/09 (UMP-Warszawa/src/WARSZAWA_OCHOTA.ulice.txt)"/>
  </node>
  <node id="376344341" version="2" timestamp="2011-09-10T09:43:53Z" uid="477744" user="hormel" changeset="9260617" lat="52.2110571" lon="20.9690466"/>
  <node id="376344343" version="1" timestamp="2009-04-15T10:06:55Z" uid="20587" user="balrog-kun" changeset="551593" lat="52.2082534" lon="20.9769917">
    <tag k="addr:city" v="Warszawa@Warszawa Ochota"/>
    <tag k="addr:housenumber" v="7"/>
    <tag k="addr:street" v="Archiwalna"/>
    <tag k="source" v="http://ump.waw.pl/ retrieved 11:07:14 02/24/09 (UMP-Warszawa/src/WARSZAWA_OCHOTA.ulice.txt)"/>
  </node>
  <node id="376344343" version="2" timestamp="2012-01-26T09:34:15Z" uid="99386" user="masti" changeset="10501267" lat="52.2082534" lon="20.9769917"/>
  <node id="376344344" version="1" timestamp="2009-04-15T10:06:55Z" uid="20587" user="balrog-kun" changeset="551593" lat="52.2170562" lon="20.9762864">
    <tag k="addr:city" v="Warszawa@Warszawa Ochota"/>
    <tag k="addr:housenumber" v="39"/>
    <tag k="addr:street" v="Białobrzeska"/>
    <tag k="source" v="http://ump.waw.pl/ retrieved 11:07:14 02/24/09 (UMP-Warszawa/src/WARSZAWA_OCHOTA.ulice.txt)"/>
  </node>
  <node id="376344346" version="1" timestamp="2009-04-15T10:06:55Z" uid="20587" user="balrog-kun" changeset="551593" lat="52.2107823" lon="20.9689744">
    <tag k="addr:city" v="Warszawa@Warszawa Ochota"/>
    <tag k="addr:housenumber" v="16"/>
    <tag k="addr:street" v="Orzeszkowej"/>
    <tag k="source" v="http://ump.waw.pl/ retrieved 11:07:14 02/24/09 (UMP-Warszawa/src/WARSZAWA_OCHOTA.ulice.txt)"/>
  </node>
  <node id="376344346" version="2" timestamp="2011-09-10T09:43:52Z" uid="477744" user="hormel" changeset="9260617" lat="52.2110386" lon="20.968994">
    <tag k="addr:city" v="Warszawa@Warszawa Ochota"/>
    <tag k="addr:housenumber" v="14/16"/>
    <tag k="addr:street" v="Orzeszkowej"/>
    <tag k="source" v="http://ump.waw.pl/ retrieved 11:07:14 02/24/09 (UMP-Warszawa/src/WARSZAWA_OCHOTA.ulice.txt)"/>
  </node>
  <node id="376344346" version="3" timestamp="2011-12-09T09:52:44Z" uid="441027" user="muzzy" changeset="10071664" lat="52.2110386" lon="20.968994">
    <tag k="addr:city" v="Warszawa@Warszawa Ochota"/>
    <tag k="addr:housenumber" v="14/16"/>
    <tag k="addr:street" v="Elizy Orzeszkowej"/>
    <tag k="source" v="http://ump.waw.pl/ retrieved 11:07:14 02/24/09 (UMP-Warszawa/src/WARSZAWA_OCHOTA.ulice.txt)"/>
  </node>
  <node id="376344346" version="4" timestamp="2012-01-26T13:14:35Z" uid="99386" user="masti" changeset="10503022" lat="52.2110386" lon="20.968994"/>
  <node id="376344347" version="1" timestamp="2009-04-15T10:06:55Z" uid="20587" user="balrog-kun" changeset="551593" lat="52.2034296" lon="20.9772434">
    <tag k="addr:city" v="Warszawa@Warszawa Ochota"/>
    <tag k="addr:housenumber" v="5"/>
    <tag k="addr:street" v="Wiślicka"/>
    <tag k="source" v="http://ump.waw.pl/ retrieved 11:07:14 02/24/09 (UMP-Warszawa/src/WARSZAWA_OCHOTA.ulice.txt)"/>
  </node>
  <node id="376344349" version="1" timestamp="2009-04-15T10:06:55Z" uid="20587" user="balrog-kun" changeset="551593" lat="52.2178815" lon="20.9736969">
    <tag k="addr:city" v="Warszawa@Warszawa Ochota"/>
    <tag k="addr:housenumber" v="38"/>
    <tag k="addr:street" v="Kopińska"/>
    <tag k="source" v="http://ump.waw.pl/ retrieved 11:07:14 02/24/09 (UMP-Warszawa/src/WARSZAWA_OCHOTA.ulice.txt)"/>
  </node>
  <node id="376344350" version="1" timestamp="2009-04-15T10:06:56Z" uid="20587" user="balrog-kun" changeset="551593" lat="52.2027575" lon="20.9733477">
    <tag k="addr:city" v="Warszawa@Warszawa Ochota"/>
    <tag k="addr:housenumber" v="21"/>
    <tag k="addr:street" v="Siemieńskiego"/>
    <tag k="source" v="http://ump.waw.pl/ retrieved 11:07:14 02/24/09 (UMP-Warszawa/src/WARSZAWA_OCHOTA.ulice.txt)"/>
  </node>
  <node id="376344350" version="2" timestamp="2011-12-03T09:14:59Z" uid="441027" user="muzzy" changeset="10022896" lat="52.2027575" lon="20.9733477">
    <tag k="addr:city" v="Warszawa@Warszawa Ochota"/>
    <tag k="addr:housenumber" v="21"/>
    <tag k="addr:street" v="Józefa Jana Siemieńskiego"/>
    <tag k="source" v="http://ump.waw.pl/ retrieved 11:07:14 02/24/09 (UMP-Warszawa/src/WARSZAWA_OCHOTA.ulice.txt)"/>
  </node>
  <node id="376344350" version="3" timestamp="2012-01-25T16:21:50Z" uid="99386" user="masti" changeset="10495110" lat="52.2027575" lon="20.9733477"/>
  <node id="376344352" version="1" timestamp="2009-04-15T10:06:56Z" uid="20587" user="balrog-kun" changeset="551593" lat="52.2108509" lon="20.9685953">
    <tag k="addr:city" v="Warszawa@Warszawa Ochota"/>
    <tag k="addr:housenumber" v="13"/>
    <tag k="addr:street" v="Piotrkowska"/>
    <tag k="source" v="http://ump.waw.pl/ retrieved 11:07:14 02/24/09 (UMP-Warszawa/src/WARSZAWA_OCHOTA.ulice.txt)"/>
  </node>
  <node id="376344352" version="2" timestamp="2011-09-10T09:43:52Z" uid="477744" user="hormel" changeset="9260617" lat="52.2108651" lon="20.9684511">
    <tag k="addr:city" v="Warszawa@Warszawa Ochota"/>
    <tag k="addr:housenumber" v="13"/>
    <tag k="addr:street" v="Piotrkowska"/>
    <tag k="source" v="http://ump.waw.pl/ retrieved 11:07:14 02/24/09 (UMP-Warszawa/src/WARSZAWA_OCHOTA.ulice.txt)"/>
  </node>
  <node id="376344352" version="3" timestamp="2012-01-26T13:13:12Z" uid="99386" user="masti" changeset="10503009" lat="52.2108651" lon="20.9684511"/>
  <node id="376344353" version="1" timestamp="2009-04-15T10:06:56Z" uid="20587" user="balrog-kun" changeset="551593" lat="52.2187216" lon="20.9749824">
    <tag k="addr:city" v="Warszawa@Warszawa Ochota"/>
    <tag k="addr:housenumber" v="4"/>
    <tag k="addr:street" v="Grzymały"/>
    <tag k="source" v="http://ump.waw.pl/ retrieved 11:07:14 02/24/09 (UMP-Warszawa/src/WARSZAWA_OCHOTA.ulice.txt)"/>
  </node>
  <node id="376344353" version="2" timestamp="2010-04-28T10:38:55Z" uid="277335" user="hateregs" changeset="4548273" lat="52.2187216" lon="20.9749824">
    <tag k="addr:city" v="Warszawa@Warszawa Ochota"/>
    <tag k="addr:housenumber" v="4"/>
    <tag k="addr:street" v="Grzymały"/>
    <tag k="source" v="http://ump.waw.pl/ retrieved 11:07:14 02/24/09 (UMP-Warszawa/src/WARSZAWA_OCHOTA.ulice.txt)"/>
  </node>
  <node id="376344353" version="3" timestamp="2010-04-28T10:42:54Z" uid="277335" user="hateregs" changeset="4548273" lat="52.2187216" lon="20.9749824">
    <tag k="addr:city" v="Warszawa@Warszawa Ochota"/>
    <tag k="addr:housenumber" v="4"/>
    <tag k="addr:street" v="Grzymały"/>
    <tag k="source" v="http://ump.waw.pl/ retrieved 11:07:14 02/24/09 (UMP-Warszawa/src/WARSZAWA_OCHOTA.ulice.txt)"/>
  </node>
  <node id="376344354" version="1" timestamp="2009-04-15T10:06:56Z" uid="20587" user="balrog-kun" changeset="551593" lat="52.2070024" lon="20.9714916">
    <tag k="addr:city" v="Warszawa@Warszawa Ochota"/>
    <tag k="addr:housenumber" v="17"/>
    <tag k="addr:street" v="Skarżyńskiego"/>
    <tag k="source" v="http://ump.waw.pl/ retrieved 11:07:14 02/24/09 (UMP-Warszawa/src/WARSZAWA_OCHOTA.ulice.txt)"/>
  </node>
  <node id="376344354" version="2" timestamp="2011-12-09T09:52:46Z" uid="441027" user="muzzy" changeset="10071664" lat="52.2070024" lon="20.9714916">
    <tag k="addr:city" v="Warszawa@Warszawa Ochota"/>
    <tag k="addr:housenumber" v="17"/>
    <tag k="addr:street" v="Stanisława Skarżyńskiego"/>
    <tag k="source" v="http://ump.waw.pl/ retrieved 11:07:14 02/24/09 (UMP-Warszawa/src/WARSZAWA_OCHOTA.ulice.txt)"/>
  </node>
  <node id="376344356" version="1" timestamp="2009-04-15T10:06:56Z" uid="20587" user="balrog-kun" changeset="551593" lat="52.210032" lon="20.9701602">
    <tag k="addr:city" v="Warszawa@Warszawa Ochota"/>
    <tag k="addr:housenumber" v="19"/>
    <tag k="addr:street" v="Opaczewska"/>
    <tag k="source" v="http://ump.waw.pl/ retrieved 11:07:14 02/24/09 (UMP-Warszawa/src/WARSZAWA_OCHOTA.ulice.txt)"/>
  </node>
  <node id="376344356" version="2" timestamp="2011-09-10T06:24:34Z" uid="477744" user="hormel" changeset="9259565" lat="52.2100144" lon="20.9694315">
    <tag k="addr:city" v="Warszawa@Warszawa Ochota"/>
    <tag k="addr:housenumber" v="19"/>
    <tag k="addr:street" v="Opaczewska"/>
    <tag k="source" v="http://ump.waw.pl/ retrieved 11:07:14 02/24/09 (UMP-Warszawa/src/WARSZAWA_OCHOTA.ulice.txt)"/>
  </node>
  <node id="376344356" version="3" timestamp="2012-01-26T11:16:39Z" uid="99386" user="masti" changeset="10502068" lat="52.2100144" lon="20.9694315"/>
  <node id="376344357" version="1" timestamp="2009-04-15T10:06:56Z" uid="20587" user="balrog-kun" changeset="551593" lat="52.2192073" lon="20.9741211">
    <tag k="addr:city" v="Warszawa@Warszawa Ochota"/>
    <tag k="addr:housenumber" v="38"/>
    <tag k="addr:street" v="Barska"/>
    <tag k="source" v="http://ump.waw.pl/ retrieved 11:07:14 02/24/09 (UMP-Warszawa/src/WARSZAWA_OCHOTA.ulice.txt)"/>
  </node>
  <node id="376344359" version="1" timestamp="2009-04-15T10:06:56Z" uid="20587" user="balrog-kun" changeset="551593" lat="52.2177757" lon="20.9757692">
    <tag k="addr:city" v="Warszawa@Warszawa Ochota"/>
    <tag k="addr:housenumber" v="20"/>
    <tag k="addr:street" v="Kopińska"/>
    <tag k="source" v="http://ump.waw.pl/ retrieved 11:07:14 02/24/09 (UMP-Warszawa/src/WARSZAWA_OCHOTA.ulice.txt)"/>
  </node>
  <node id="376344360" version="1" timestamp="2009-04-15T10:06:57Z" uid="20587" user="balrog-kun" changeset="551593" lat="52.2170869" lon="20.979786">
    <tag k="addr:city" v="Warszawa@Warszawa Ochota"/>
    <tag k="addr:housenumber" v="10"/>
    <tag k="addr:street" v="Kopińska"/>
    <tag k="source" v="http://ump.waw.pl/ retrieved 11:07:14 02/24/09 (UMP-Warszawa/src/WARSZAWA_OCHOTA.ulice.txt)"/>
  </node>
  <node id="376344362" version="1" timestamp="2009-04-15T10:06:57Z" uid="20587" user="balrog-kun" changeset="551593" lat="52.2129301" lon="20.9724059">
    <tag k="addr:city" v="Warszawa@Warszawa Ochota"/>
    <tag k="addr:housenumber" v="8"/>
    <tag k="addr:street" v="Bitwy Warszawskiej 1920 roku"/>
    <tag k="source" v="http://ump.waw.pl/ retrieved 11:07:14 02/24/09 (UMP-Warszawa/src/WARSZAWA_OCHOTA.ulice.txt)"/>
  </node>
  <node id="376344363" version="1" timestamp="2009-04-15T10:06:57Z" uid="20587" user="balrog-kun" changeset="551593" lat="52.2056621" lon="20.975306">
    <tag k="addr:city" v="Warszawa@Warszawa Ochota"/>
    <tag k="addr:housenumber" v="8"/>
    <tag k="addr:street" v="Siemieńskiego"/>
    <tag k="source" v="http://ump.waw.pl/ retrieved 11:07:14 02/24/09 (UMP-Warszawa/src/WARSZAWA_OCHOTA.ulice.txt)"/>
  </node>
  <node id="376344363" version="2" timestamp="2011-12-03T09:15:46Z" uid="441027" user="muzzy" changeset="10022896" lat="52.2056621" lon="20.975306">
    <tag k="addr:city" v="Warszawa@Warszawa Ochota"/>
    <tag k="addr:housenumber" v="8"/>
    <tag k="addr:street" v="Józefa Jana Siemieńskiego"/>
    <tag k="source" v="http://ump.waw.pl/ retrieved 11:07:14 02/24/09 (UMP-Warszawa/src/WARSZAWA_OCHOTA.ulice.txt)"/>
  </node>
  <node id="376344363" version="3" timestamp="2012-01-26T08:54:10Z" uid="99386" user="masti" changeset="10500976" lat="52.2056621" lon="20.975306"/>
  <node id="376344365" version="1" timestamp="2009-04-15T10:06:57Z" uid="20587" user="balrog-kun" changeset="551593" lat="52.2028429" lon="20.9699929">
    <tag k="addr:city" v="Warszawa@Warszawa Ochota"/>
    <tag k="addr:housenumber" v="119"/>
    <tag k="addr:street" v="Grójecka"/>
    <tag k="source" v="http://ump.waw.pl/ retrieved 11:07:14 02/24/09 (UMP-Warszawa/src/WARSZAWA_OCHOTA.ulice.txt)"/>
  </node>
  <node id="376344365" version="2" timestamp="2012-01-25T16:03:40Z" uid="99386" user="masti" changeset="10494955" lat="52.2028429" lon="20.9699929"/>
  <node id="376344366" version="1" timestamp="2009-04-15T10:06:57Z" uid="20587" user="balrog-kun" changeset="551593" lat="52.2096906" lon="20.9738066">
    <tag k="addr:city" v="Warszawa@Warszawa Ochota"/>
    <tag k="addr:housenumber" v="1"/>
    <tag k="addr:street" v="Skarżyńskiego"/>
    <tag k="source" v="http://ump.waw.pl/ retrieved 11:07:14 02/24/09 (UMP-Warszawa/src/WARSZAWA_OCHOTA.ulice.txt)"/>
  </node>
  <node id="376344366" version="2" timestamp="2011-12-09T09:52:37Z" uid="441027" user="muzzy" changeset="10071664" lat="52.2096906" lon="20.9738066">
    <tag k="addr:city" v="Warszawa@Warszawa Ochota"/>
    <tag k="addr:housenumber" v="1"/>
    <tag k="addr:street" v="Stanisława Skarżyńskiego"/>
    <tag k="source" v="http://ump.waw.pl/ retrieved 11:07:14 02/24/09 (UMP-Warszawa/src/WARSZAWA_OCHOTA.ulice.txt)"/>
  </node>
  <node id="376344367" version="1" timestamp="2009-04-15T10:06:57Z" uid="20587" user="balrog-kun" changeset="551593" lat="52.2050899" lon="20.9770189">
    <tag k="addr:city" v="Warszawa@Warszawa Ochota"/>
    <tag k="addr:housenumber" v="17"/>
    <tag k="addr:street" v="Pawińskiego"/>
    <tag k="source" v="http://ump.waw.pl/ retrieved 11:07:14 02/24/09 (UMP-Warszawa/src/WARSZAWA_OCHOTA.ulice.txt)"/>
  </node>
  <node id="376344367" version="2" timestamp="2011-12-03T09:14:46Z" uid="441027" user="muzzy" changeset="10022896" lat="52.2050899" lon="20.9770189">
    <tag k="addr:city" v="Warszawa@Warszawa Ochota"/>
    <tag k="addr:housenumber" v="17"/>
    <tag k="addr:street" v="Adolfa Pawińskiego"/>
    <tag k="source" v="http://ump.waw.pl/ retrieved 11:07:14 02/24/09 (UMP-Warszawa/src/WARSZAWA_OCHOTA.ulice.txt)"/>
  </node>
  <node id="376344367" version="3" timestamp="2012-01-25T16:45:50Z" uid="99386" user="masti" changeset="10495323" lat="52.2050899" lon="20.9770189"/>
  <node id="376344369" version="1" timestamp="2009-04-15T10:06:58Z" uid="20587" user="balrog-kun" changeset="551593" lat="52.2039405" lon="20.9717527">
    <tag k="addr:city" v="Warszawa@Warszawa Ochota"/>
    <tag k="addr:housenumber" v="30"/>
    <tag k="addr:street" v="Skorochód-Majewskiego"/>
    <tag k="source" v="http://ump.waw.pl/ retrieved 11:07:14 02/24/09 (UMP-Warszawa/src/WARSZAWA_OCHOTA.ulice.txt)"/>
  </node>
  <node id="376344369" version="2" timestamp="2011-12-03T09:15:13Z" uid="441027" user="muzzy" changeset="10022896" lat="52.2039405" lon="20.9717527">
    <tag k="addr:city" v="Warszawa@Warszawa Ochota"/>
    <tag k="addr:housenumber" v="30"/>
    <tag k="addr:street" v="Walentego Skorochód-Majewskiego"/>
    <tag k="source" v="http://ump.waw.pl/ retrieved 11:07:14 02/24/09 (UMP-Warszawa/src/WARSZAWA_OCHOTA.ulice.txt)"/>
  </node>
  <node id="376344369" version="3" timestamp="2012-01-25T16:03:40Z" uid="99386" user="masti" changeset="10494955" lat="52.2039405" lon="20.9717527"/>
  <node id="376344371" version="1" timestamp="2009-04-15T10:06:58Z" uid="20587" user="balrog-kun" changeset="551593" lat="52.2059018" lon="20.9768046">
    <tag k="addr:city" v="Warszawa@Warszawa Ochota"/>
    <tag k="addr:housenumber" v="14"/>
    <tag k="addr:street" v="Pawińskiego"/>
    <tag k="source" v="http://ump.waw.pl/ retrieved 11:07:14 02/24/09 (UMP-Warszawa/src/WARSZAWA_OCHOTA.ulice.txt)"/>
  </node>
  <node id="376344371" version="2" timestamp="2011-12-03T09:14:39Z" uid="441027" user="muzzy" changeset="10022896" lat="52.2059018" lon="20.9768046">
    <tag k="addr:city" v="Warszawa@Warszawa Ochota"/>
    <tag k="addr:housenumber" v="14"/>
    <tag k="addr:street" v="Adolfa Pawińskiego"/>
    <tag k="source" v="http://ump.waw.pl/ retrieved 11:07:14 02/24/09 (UMP-Warszawa/src/WARSZAWA_OCHOTA.ulice.txt)"/>
  </node>
  <node id="376344371" version="3" timestamp="2012-01-26T09:20:58Z" uid="99386" user="masti" changeset="10501164" lat="52.2059018" lon="20.9768046"/>
  <node id="376344373" version="1" timestamp="2009-04-15T10:06:58Z" uid="20587" user="balrog-kun" changeset="551593" lat="52.2018219" lon="20.9724044">
    <tag k="addr:city" v="Warszawa@Warszawa Ochota"/>
    <tag k="addr:housenumber" v="30"/>
    <tag k="addr:street" v="Korotyńskiego"/>
    <tag k="source" v="http://ump.waw.pl/ retrieved 11:07:14 02/24/09 (UMP-Warszawa/src/WARSZAWA_OCHOTA.ulice.txt)"/>
  </node>
  <node id="376344373" version="2" timestamp="2011-12-03T09:15:13Z" uid="441027" user="muzzy" changeset="10022896" lat="52.2018219" lon="20.9724044">
    <tag k="addr:city" v="Warszawa@Warszawa Ochota"/>
    <tag k="addr:housenumber" v="30"/>
    <tag k="addr:street" v="Władysława Korotyńskiego"/>
    <tag k="source" v="http://ump.waw.pl/ retrieved 11:07:14 02/24/09 (UMP-Warszawa/src/WARSZAWA_OCHOTA.ulice.txt)"/>
  </node>
  <node id="376344373" version="3" timestamp="2012-01-25T15:44:28Z" uid="99386" user="masti" changeset="10494792" lat="52.2018219" lon="20.9724044"/>
  <node id="376344374" version="1" timestamp="2009-04-15T10:06:58Z" uid="20587" user="balrog-kun" changeset="551593" lat="52.2105939" lon="20.9689039">
    <tag k="addr:city" v="Warszawa@Warszawa Ochota"/>
    <tag k="addr:housenumber" v="26"/>
    <tag k="addr:street" v="Opaczewska"/>
    <tag k="source" v="http://ump.waw.pl/ retrieved 11:07:14 02/24/09 (UMP-Warszawa/src/WARSZAWA_OCHOTA.ulice.txt)"/>
  </node>
  <node id="376344374" version="2" timestamp="2012-01-26T13:13:12Z" uid="99386" user="masti" changeset="10503009" lat="52.2105939" lon="20.9689039"/>
  <node id="376344376" version="1" timestamp="2009-04-15T10:06:58Z" uid="20587" user="balrog-kun" changeset="551593" lat="52.203191" lon="20.9688527">
    <tag k="addr:city" v="Warszawa@Warszawa Ochota"/>
    <tag k="addr:housenumber" v="130"/>
    <tag k="addr:street" v="Grójecka"/>
    <tag k="source" v="http://ump.waw.pl/ retrieved 11:07:14 02/24/09 (UMP-Warszawa/src/WARSZAWA_OCHOTA.ulice.txt)"/>
  </node>
  <node id="376344376" version="2" timestamp="2010-12-04T04:20:10Z" uid="20587" user="balrog-kun" changeset="6534205" lat="52.203191" lon="20.9688527">
    <tag k="addr:city" v="Warszawa@Warszawa Ochota"/>
    <tag k="addr:housenumber" v="130"/>
    <tag k="addr:street" v="Grójecka"/>
    <tag k="source" v="http://ump.waw.pl/ retrieved 11:07:14 02/24/09 (UMP-Warszawa/src/WARSZAWA_OCHOTA.ulice.txt)"/>
  </node>
  <node id="376344378" version="1" timestamp="2009-04-15T10:06:58Z" uid="20587" user="balrog-kun" changeset="551593" lat="52.2118348" lon="20.9697458">
    <tag k="addr:city" v="Warszawa@Warszawa Ochota"/>
    <tag k="addr:housenumber" v="7"/>
    <tag k="addr:street" v="Orzeszkowej"/>
    <tag k="source" v="http://ump.waw.pl/ retrieved 11:07:14 02/24/09 (UMP-Warszawa/src/WARSZAWA_OCHOTA.ulice.txt)"/>
  </node>
  <node id="376344378" version="2" timestamp="2011-12-09T09:53:14Z" uid="441027" user="muzzy" changeset="10071664" lat="52.2118348" lon="20.9697458">
    <tag k="addr:city" v="Warszawa@Warszawa Ochota"/>
    <tag k="addr:housenumber" v="7"/>
    <tag k="addr:street" v="Elizy Orzeszkowej"/>
    <tag k="source" v="http://ump.waw.pl/ retrieved 11:07:14 02/24/09 (UMP-Warszawa/src/WARSZAWA_OCHOTA.ulice.txt)"/>
  </node>
  <node id="376344381" version="1" timestamp="2009-04-15T10:06:59Z" uid="20587" user="balrog-kun" changeset="551593" lat="52.2049229" lon="20.9726572">
    <tag k="addr:city" v="Warszawa@Warszawa Ochota"/>
    <tag k="addr:housenumber" v="22"/>
    <tag k="addr:street" v="Skorochód-Majewskiego"/>
    <tag k="source" v="http://ump.waw.pl/ retrieved 11:07:14 02/24/09 (UMP-Warszawa/src/WARSZAWA_OCHOTA.ulice.txt)"/>
  </node>
  <node id="376344381" version="2" timestamp="2011-12-03T09:15:01Z" uid="441027" user="muzzy" changeset="10022896" lat="52.2049229" lon="20.9726572">
    <tag k="addr:city" v="Warszawa@Warszawa Ochota"/>
    <tag k="addr:housenumber" v="22"/>
    <tag k="addr:street" v="Walentego Skorochód-Majewskiego"/>
    <tag k="source" v="http://ump.waw.pl/ retrieved 11:07:14 02/24/09 (UMP-Warszawa/src/WARSZAWA_OCHOTA.ulice.txt)"/>
  </node>
  <node id="376344381" version="3" timestamp="2012-01-25T16:03:40Z" uid="99386" user="masti" changeset="10494955" lat="52.2049229" lon="20.9726572"/>
  <node id="376344383" version="1" timestamp="2009-04-15T10:06:59Z" uid="20587" user="balrog-kun" changeset="551593" lat="52.2110729" lon="20.9891163">
    <tag k="addr:city" v="Warszawa@Warszawa Ochota"/>
    <tag k="addr:housenumber" v="32"/>
    <tag k="addr:street" v="Żwirki i Wigury"/>
    <tag k="source" v="http://ump.waw.pl/ retrieved 11:07:14 02/24/09 (UMP-Warszawa/src/WARSZAWA_OCHOTA.ulice.txt)"/>
  </node>
  <node id="376344383" version="2" timestamp="2010-03-31T14:21:18Z" uid="175746" user="RafalR" changeset="4285724" lat="52.2110729" lon="20.9891163">
    <tag k="addr:city" v="Warszawa@Warszawa Ochota"/>
    <tag k="addr:housenumber" v="32"/>
    <tag k="addr:street" v="Franciszka Żwirki i Stanisława Wigury"/>
    <tag k="source" v="http://ump.waw.pl/ retrieved 11:07:14 02/24/09 (UMP-Warszawa/src/WARSZAWA_OCHOTA.ulice.txt)"/>
  </node>
  <node id="376344384" version="1" timestamp="2009-04-15T10:06:59Z" uid="20587" user="balrog-kun" changeset="551593" lat="52.2074713" lon="20.9679473">
    <tag k="addr:city" v="Warszawa@Warszawa Ochota"/>
    <tag k="addr:housenumber" v="1"/>
    <tag k="addr:street" v="Białobrzeska"/>
    <tag k="source" v="http://ump.waw.pl/ retrieved 11:07:14 02/24/09 (UMP-Warszawa/src/WARSZAWA_OCHOTA.ulice.txt)"/>
  </node>
  <node id="376344384" version="2" timestamp="2012-01-26T11:07:06Z" uid="99386" user="masti" changeset="10502012" lat="52.2074713" lon="20.9679473"/>
  <node id="376344386" version="1" timestamp="2009-04-15T10:06:59Z" uid="20587" user="balrog-kun" changeset="551593" lat="52.2049024" lon="20.970418">
    <tag k="addr:city" v="Warszawa@Warszawa Ochota"/>
    <tag k="addr:housenumber" v="126"/>
    <tag k="addr:street" v="Grójecka"/>
    <tag k="source" v="http://ump.waw.pl/ retrieved 11:07:14 02/24/09 (UMP-Warszawa/src/WARSZAWA_OCHOTA.ulice.txt)"/>
  </node>
  <node id="376344386" version="2" timestamp="2010-12-04T04:20:11Z" uid="20587" user="balrog-kun" changeset="6534205" lat="52.2049024" lon="20.970418">
    <tag k="addr:city" v="Warszawa@Warszawa Ochota"/>
    <tag k="addr:housenumber" v="126"/>
    <tag k="addr:street" v="Grójecka"/>
    <tag k="source" v="http://ump.waw.pl/ retrieved 11:07:14 02/24/09 (UMP-Warszawa/src/WARSZAWA_OCHOTA.ulice.txt)"/>
  </node>
  <node id="376344388" version="1" timestamp="2009-04-15T10:06:59Z" uid="20587" user="balrog-kun" changeset="551593" lat="52.2079454" lon="20.9662436">
    <tag k="addr:city" v="Warszawa@Warszawa Ochota"/>
    <tag k="addr:housenumber" v="32"/>
    <tag k="addr:street" v="Dickensa"/>
    <tag k="source" v="http://ump.waw.pl/ retrieved 11:07:14 02/24/09 (UMP-Warszawa/src/WARSZAWA_OCHOTA.ulice.txt)"/>
  </node>
  <node id="376344388" version="2" timestamp="2011-12-03T09:15:15Z" uid="441027" user="muzzy" changeset="10022896" lat="52.2079454" lon="20.9662436">
    <tag k="addr:city" v="Warszawa@Warszawa Ochota"/>
    <tag k="addr:housenumber" v="32"/>
    <tag k="addr:street" v="Karola Dickensa"/>
    <tag k="source" v="http://ump.waw.pl/ retrieved 11:07:14 02/24/09 (UMP-Warszawa/src/WARSZAWA_OCHOTA.ulice.txt)"/>
  </node>
  <node id="376344390" version="1" timestamp="2009-04-15T10:06:59Z" uid="20587" user="balrog-kun" changeset="551593" lat="52.2111955" lon="20.9680111">
    <tag k="addr:city" v="Warszawa@Warszawa Ochota"/>
    <tag k="addr:housenumber" v="2"/>
    <tag k="addr:street" v="Dobosza"/>
    <tag k="source" v="http://ump.waw.pl/ retrieved 11:07:14 02/24/09 (UMP-Warszawa/src/WARSZAWA_OCHOTA.ulice.txt)"/>
  </node>
  <node id="376344390" version="2" timestamp="2011-06-28T23:51:12Z" uid="477744" user="hormel" changeset="8576757" lat="52.2111536" lon="20.9680556">
    <tag k="addr:city" v="Warszawa@Warszawa Ochota"/>
    <tag k="addr:housenumber" v="2"/>
    <tag k="addr:street" v="Dobosza"/>
    <tag k="source" v="http://ump.waw.pl/ retrieved 11:07:14 02/24/09 (UMP-Warszawa/src/WARSZAWA_OCHOTA.ulice.txt)"/>
  </node>
  <node id="376344390" version="3" timestamp="2011-06-29T21:09:52Z" uid="477744" user="hormel" changeset="8585159" lat="52.2112017" lon="20.9680785">
    <tag k="addr:city" v="Warszawa@Warszawa Ochota"/>
    <tag k="addr:housenumber" v="2"/>
    <tag k="addr:street" v="Dobosza"/>
    <tag k="source" v="http://ump.waw.pl/ retrieved 11:07:14 02/24/09 (UMP-Warszawa/src/WARSZAWA_OCHOTA.ulice.txt)"/>
  </node>
  <node id="376344390" version="4" timestamp="2011-09-09T11:28:43Z" uid="477744" user="hormel" changeset="9253584" lat="52.2112017" lon="20.9680785"/>
  <node id="376344392" version="1" timestamp="2009-04-15T10:06:59Z" uid="20587" user="balrog-kun" changeset="551593" lat="52.2089892" lon="20.9643347">
    <tag k="addr:city" v="Warszawa@Warszawa Ochota"/>
    <tag k="addr:housenumber" v="59"/>
    <tag k="addr:street" v="Szczęśliwicka"/>
    <tag k="source" v="http://ump.waw.pl/ retrieved 11:07:14 02/24/09 (UMP-Warszawa/src/WARSZAWA_OCHOTA.ulice.txt)"/>
  </node>
  <node id="376344392" version="2" timestamp="2012-01-26T11:16:41Z" uid="99386" user="masti" changeset="10502068" lat="52.2089892" lon="20.9643347"/>
  <node id="376344393" version="1" timestamp="2009-04-15T10:07:00Z" uid="20587" user="balrog-kun" changeset="551593" lat="52.2083973" lon="20.9764812">
    <tag k="addr:city" v="Warszawa@Warszawa Ochota"/>
    <tag k="addr:housenumber" v="9"/>
    <tag k="addr:street" v="Archiwalna"/>
    <tag k="source" v="http://ump.waw.pl/ retrieved 11:07:14 02/24/09 (UMP-Warszawa/src/WARSZAWA_OCHOTA.ulice.txt)"/>
  </node>
  <node id="376344393" version="2" timestamp="2012-01-26T09:34:15Z" uid="99386" user="masti" changeset="10501267" lat="52.2083973" lon="20.9764812"/>
  <node id="376344396" version="1" timestamp="2009-04-15T10:07:00Z" uid="20587" user="balrog-kun" changeset="551593" lat="52.2092096" lon="20.9629005">
    <tag k="addr:city" v="Warszawa@Warszawa Ochota"/>
    <tag k="addr:housenumber" v="2"/>
    <tag k="addr:street" v="Bohaterów Września"/>
    <tag k="source" v="http://ump.waw.pl/ retrieved 11:07:14 02/24/09 (UMP-Warszawa/src/WARSZAWA_OCHOTA.ulice.txt)"/>
  </node>
  <node id="376344396" version="2" timestamp="2011-12-09T09:52:49Z" uid="441027" user="muzzy" changeset="10071664" lat="52.2092096" lon="20.9629005">
    <tag k="addr:city" v="Warszawa@Warszawa Ochota"/>
    <tag k="addr:housenumber" v="2"/>
    <tag k="addr:street" v="Aleja Bohaterów Września"/>
    <tag k="source" v="http://ump.waw.pl/ retrieved 11:07:14 02/24/09 (UMP-Warszawa/src/WARSZAWA_OCHOTA.ulice.txt)"/>
  </node>
  <node id="376344396" version="3" timestamp="2012-01-26T11:58:06Z" uid="99386" user="masti" changeset="10502382" lat="52.2092096" lon="20.9629005"/>
  <node id="376344398" version="1" timestamp="2009-04-15T10:07:00Z" uid="20587" user="balrog-kun" changeset="551593" lat="52.210398" lon="20.9669404">
    <tag k="addr:city" v="Warszawa@Warszawa Ochota"/>
    <tag k="addr:housenumber" v="32"/>
    <tag k="addr:street" v="Opaczewska"/>
    <tag k="source" v="http://ump.waw.pl/ retrieved 11:07:14 02/24/09 (UMP-Warszawa/src/WARSZAWA_OCHOTA.ulice.txt)"/>
  </node>
  <node id="376344398" version="2" timestamp="2011-09-09T11:28:42Z" uid="477744" user="hormel" changeset="9253584" lat="52.210369" lon="20.9671737">
    <tag k="addr:city" v="Warszawa@Warszawa Ochota"/>
    <tag k="addr:housenumber" v="32"/>
    <tag k="addr:street" v="Opaczewska"/>
    <tag k="source" v="http://ump.waw.pl/ retrieved 11:07:14 02/24/09 (UMP-Warszawa/src/WARSZAWA_OCHOTA.ulice.txt)"/>
  </node>
  <node id="376344398" version="3" timestamp="2011-09-10T06:24:34Z" uid="477744" user="hormel" changeset="9259565" lat="52.2103995" lon="20.9674446">
    <tag k="addr:city" v="Warszawa@Warszawa Ochota"/>
    <tag k="addr:housenumber" v="32"/>
    <tag k="addr:street" v="Opaczewska"/>
    <tag k="source" v="http://ump.waw.pl/ retrieved 11:07:14 02/24/09 (UMP-Warszawa/src/WARSZAWA_OCHOTA.ulice.txt)"/>
  </node>
  <node id="376344398" version="4" timestamp="2011-09-10T09:43:52Z" uid="477744" user="hormel" changeset="9260617" lat="52.2104078" lon="20.9674239">
    <tag k="addr:city" v="Warszawa@Warszawa Ochota"/>
    <tag k="addr:housenumber" v="32"/>
    <tag k="addr:street" v="Opaczewska"/>
    <tag k="source" v="http://ump.waw.pl/ retrieved 11:07:14 02/24/09 (UMP-Warszawa/src/WARSZAWA_OCHOTA.ulice.txt)"/>
  </node>
  <node id="376344398" version="5" timestamp="2012-01-26T13:00:05Z" uid="99386" user="masti" changeset="10502914" lat="52.2104078" lon="20.9674239"/>
  <node id="376344400" version="1" timestamp="2009-04-15T10:07:00Z" uid="20587" user="balrog-kun" changeset="551593" lat="52.2107573" lon="20.9678833">
    <tag k="addr:city" v="Warszawa@Warszawa Ochota"/>
    <tag k="addr:housenumber" v="1"/>
    <tag k="addr:street" v="Dobosza"/>
    <tag k="source" v="http://ump.waw.pl/ retrieved 11:07:14 02/24/09 (UMP-Warszawa/src/WARSZAWA_OCHOTA.ulice.txt)"/>
  </node>
  <node id="376344400" version="2" timestamp="2011-09-09T11:28:42Z" uid="477744" user="hormel" changeset="9253584" lat="52.2108213" lon="20.9679132">
    <tag k="addr:city" v="Warszawa@Warszawa Ochota"/>
    <tag k="addr:housenumber" v="1"/>
    <tag k="addr:street" v="Dobosza"/>
    <tag k="source" v="http://ump.waw.pl/ retrieved 11:07:14 02/24/09 (UMP-Warszawa/src/WARSZAWA_OCHOTA.ulice.txt)"/>
  </node>
  <node id="376344400" version="3" timestamp="2011-09-09T11:40:35Z" uid="477744" user="hormel" changeset="9253648" lat="52.2108213" lon="20.9679132"/>
  <node id="376344402" version="1" timestamp="2009-04-15T10:07:00Z" uid="20587" user="balrog-kun" changeset="551593" lat="52.2089575" lon="20.9788862">
    <tag k="addr:city" v="Warszawa@Warszawa Ochota"/>
    <tag k="addr:housenumber" v="2"/>
    <tag k="addr:street" v="Hankiewicza"/>
    <tag k="source" v="http://ump.waw.pl/ retrieved 11:07:14 02/24/09 (UMP-Warszawa/src/WARSZAWA_OCHOTA.ulice.txt)"/>
  </node>
  <node id="376344402" version="2" timestamp="2011-12-09T09:52:51Z" uid="441027" user="muzzy" changeset="10071664" lat="52.2089575" lon="20.9788862">
    <tag k="addr:city" v="Warszawa@Warszawa Ochota"/>
    <tag k="addr:housenumber" v="2"/>
    <tag k="addr:street" v="Stefana Kazimierza Hankiewicza"/>
    <tag k="source" v="http://ump.waw.pl/ retrieved 11:07:14 02/24/09 (UMP-Warszawa/src/WARSZAWA_OCHOTA.ulice.txt)"/>
  </node>
  <node id="376344402" version="3" timestamp="2012-01-26T09:49:23Z" uid="99386" user="masti" changeset="10501383" lat="52.2089575" lon="20.9788862"/>
  <node id="376344404" version="1" timestamp="2009-04-15T10:07:01Z" uid="20587" user="balrog-kun" changeset="551593" lat="52.2180881" lon="20.9719379">
    <tag k="addr:city" v="Warszawa@Warszawa Ochota"/>
    <tag k="addr:housenumber" v="36"/>
    <tag k="addr:street" v="Szczęśliwicka"/>
    <tag k="source" v="http://ump.waw.pl/ retrieved 11:07:14 02/24/09 (UMP-Warszawa/src/WARSZAWA_OCHOTA.ulice.txt)"/>
  </node>
  <node id="376344406" version="1" timestamp="2009-04-15T10:07:01Z" uid="20587" user="balrog-kun" changeset="551593" lat="52.2167841" lon="20.9807034">
    <tag k="addr:city" v="Warszawa@Warszawa Ochota"/>
    <tag k="addr:housenumber" v="2"/>
    <tag k="addr:street" v="Kopińska"/>
    <tag k="source" v="http://ump.waw.pl/ retrieved 11:07:14 02/24/09 (UMP-Warszawa/src/WARSZAWA_OCHOTA.ulice.txt)"/>
  </node>
  <node id="376344406" version="2" timestamp="2012-02-05T17:44:09Z" uid="550476" user="fishcrosser" changeset="10596139" lat="52.2167841" lon="20.9807034"/>
  <node id="376344408" version="1" timestamp="2009-04-15T10:07:01Z" uid="20587" user="balrog-kun" changeset="551593" lat="52.2045608" lon="20.9750135">
    <tag k="addr:city" v="Warszawa@Warszawa Ochota"/>
    <tag k="addr:housenumber" v="13"/>
    <tag k="addr:street" v="Siemieńskiego"/>
    <tag k="source" v="http://ump.waw.pl/ retrieved 11:07:14 02/24/09 (UMP-Warszawa/src/WARSZAWA_OCHOTA.ulice.txt)"/>
  </node>
  <node id="376344408" version="2" timestamp="2011-12-03T09:14:38Z" uid="441027" user="muzzy" changeset="10022896" lat="52.2045608" lon="20.9750135">
    <tag k="addr:city" v="Warszawa@Warszawa Ochota"/>
    <tag k="addr:housenumber" v="13"/>
    <tag k="addr:street" v="Józefa Jana Siemieńskiego"/>
    <tag k="source" v="http://ump.waw.pl/ retrieved 11:07:14 02/24/09 (UMP-Warszawa/src/WARSZAWA_OCHOTA.ulice.txt)"/>
  </node>
  <node id="376344408" version="3" timestamp="2012-01-25T16:21:50Z" uid="99386" user="masti" changeset="10495110" lat="52.2045608" lon="20.9750135"/>
  <node id="376344410" version="1" timestamp="2009-04-15T10:07:01Z" uid="20587" user="balrog-kun" changeset="551593" lat="52.2063898" lon="20.971706">
    <tag k="addr:city" v="Warszawa@Warszawa Ochota"/>
    <tag k="addr:housenumber" v="14"/>
    <tag k="addr:street" v="Dickensa"/>
    <tag k="source" v="http://ump.waw.pl/ retrieved 11:07:14 02/24/09 (UMP-Warszawa/src/WARSZAWA_OCHOTA.ulice.txt)"/>
  </node>
  <node id="376344410" version="2" timestamp="2011-12-03T09:14:40Z" uid="441027" user="muzzy" changeset="10022896" lat="52.2063898" lon="20.971706">
    <tag k="addr:city" v="Warszawa@Warszawa Ochota"/>
    <tag k="addr:housenumber" v="14"/>
    <tag k="addr:street" v="Karola Dickensa"/>
    <tag k="source" v="http://ump.waw.pl/ retrieved 11:07:14 02/24/09 (UMP-Warszawa/src/WARSZAWA_OCHOTA.ulice.txt)"/>
  </node>
  <node id="376344412" version="1" timestamp="2009-04-15T10:07:01Z" uid="20587" user="balrog-kun" changeset="551593" lat="52.2107615" lon="20.9623272">
    <tag k="addr:city" v="Warszawa@Warszawa Ochota"/>
    <tag k="addr:housenumber" v="6"/>
    <tag k="addr:street" v="Bohaterów Września"/>
    <tag k="source" v="http://ump.waw.pl/ retrieved 11:07:14 02/24/09 (UMP-Warszawa/src/WARSZAWA_OCHOTA.ulice.txt)"/>
  </node>
  <node id="376344412" version="2" timestamp="2011-12-09T09:53:12Z" uid="441027" user="muzzy" changeset="10071664" lat="52.2107615" lon="20.9623272">
    <tag k="addr:city" v="Warszawa@Warszawa Ochota"/>
    <tag k="addr:housenumber" v="6"/>
    <tag k="addr:street" v="Aleja Bohaterów Września"/>
    <tag k="source" v="http://ump.waw.pl/ retrieved 11:07:14 02/24/09 (UMP-Warszawa/src/WARSZAWA_OCHOTA.ulice.txt)"/>
  </node>
  <node id="376344412" version="3" timestamp="2012-01-26T11:58:06Z" uid="99386" user="masti" changeset="10502382" lat="52.2107615" lon="20.9623272"/>
  <node id="376344414" version="1" timestamp="2009-04-15T10:07:01Z" uid="20587" user="balrog-kun" changeset="551593" lat="52.2112321" lon="20.9665572">
    <tag k="addr:city" v="Warszawa@Warszawa Ochota"/>
    <tag k="addr:housenumber" v="12"/>
    <tag k="addr:street" v="Dobosza"/>
    <tag k="source" v="http://ump.waw.pl/ retrieved 11:07:14 02/24/09 (UMP-Warszawa/src/WARSZAWA_OCHOTA.ulice.txt)"/>
  </node>
  <node id="376344414" version="2" timestamp="2011-06-28T23:51:12Z" uid="477744" user="hormel" changeset="8576757" lat="52.2111597" lon="20.9675369">
    <tag k="addr:city" v="Warszawa@Warszawa Ochota"/>
    <tag k="addr:housenumber" v="4/6"/>
    <tag k="addr:street" v="Dobosza"/>
    <tag k="source" v="http://ump.waw.pl/ retrieved 11:07:14 02/24/09 (UMP-Warszawa/src/WARSZAWA_OCHOTA.ulice.txt)"/>
  </node>
  <node id="376344414" version="3" timestamp="2011-06-29T21:09:53Z" uid="477744" user="hormel" changeset="8585159" lat="52.211218" lon="20.9675675">
    <tag k="addr:city" v="Warszawa@Warszawa Ochota"/>
    <tag k="addr:housenumber" v="4/6"/>
    <tag k="addr:street" v="Dobosza"/>
    <tag k="source" v="http://ump.waw.pl/ retrieved 11:07:14 02/24/09 (UMP-Warszawa/src/WARSZAWA_OCHOTA.ulice.txt)"/>
  </node>
  <node id="376344414" version="4" timestamp="2011-09-09T11:28:44Z" uid="477744" user="hormel" changeset="9253584" lat="52.211218" lon="20.9675675"/>
  <node id="376344416" version="1" timestamp="2009-04-15T10:07:02Z" uid="20587" user="balrog-kun" changeset="551593" lat="52.217922" lon="20.9730413">
    <tag k="addr:city" v="Warszawa@Warszawa Ochota"/>
    <tag k="addr:housenumber" v="42"/>
    <tag k="addr:street" v="Kopińska"/>
    <tag k="source" v="http://ump.waw.pl/ retrieved 11:07:14 02/24/09 (UMP-Warszawa/src/WARSZAWA_OCHOTA.ulice.txt)"/>
  </node>
  <node id="376344417" version="1" timestamp="2009-04-15T10:07:02Z" uid="20587" user="balrog-kun" changeset="551593" lat="52.2094235" lon="20.9677525">
    <tag k="addr:city" v="Warszawa@Warszawa Ochota"/>
    <tag k="addr:housenumber" v="31"/>
    <tag k="addr:street" v="Trzech Budrysów"/>
    <tag k="source" v="http://ump.waw.pl/ retrieved 11:07:14 02/24/09 (UMP-Warszawa/src/WARSZAWA_OCHOTA.ulice.txt)"/>
  </node>
  <node id="376344417" version="2" timestamp="2011-09-10T06:24:34Z" uid="477744" user="hormel" changeset="9259565" lat="52.2094073" lon="20.9683548">
    <tag k="addr:city" v="Warszawa@Warszawa Ochota"/>
    <tag k="addr:housenumber" v="31"/>
    <tag k="addr:street" v="Trzech Budrysów"/>
    <tag k="source" v="http://ump.waw.pl/ retrieved 11:07:14 02/24/09 (UMP-Warszawa/src/WARSZAWA_OCHOTA.ulice.txt)"/>
  </node>
  <node id="376344417" version="3" timestamp="2012-01-26T11:16:41Z" uid="99386" user="masti" changeset="10502068" lat="52.2094073" lon="20.9683548"/>
  <node id="376344419" version="1" timestamp="2009-04-15T10:07:02Z" uid="20587" user="balrog-kun" changeset="551593" lat="52.210619" lon="20.9655956">
    <tag k="addr:city" v="Warszawa@Warszawa Ochota"/>
    <tag k="addr:housenumber" v="51"/>
    <tag k="addr:street" v="Szczęśliwicka"/>
    <tag k="source" v="http://ump.waw.pl/ retrieved 11:07:14 02/24/09 (UMP-Warszawa/src/WARSZAWA_OCHOTA.ulice.txt)"/>
  </node>
  <node id="376344419" version="2" timestamp="2011-09-10T06:24:34Z" uid="477744" user="hormel" changeset="9259565" lat="52.210757" lon="20.9659411">
    <tag k="addr:city" v="Warszawa@Warszawa Ochota"/>
    <tag k="addr:housenumber" v="51"/>
    <tag k="addr:street" v="Szczęśliwicka"/>
    <tag k="source" v="http://ump.waw.pl/ retrieved 11:07:14 02/24/09 (UMP-Warszawa/src/WARSZAWA_OCHOTA.ulice.txt)"/>
  </node>
  <node id="376344419" version="3" timestamp="2012-01-26T12:07:26Z" uid="99386" user="masti" changeset="10502465" lat="52.210757" lon="20.9659411"/>
  <node id="376344421" version="1" timestamp="2009-04-15T10:07:02Z" uid="20587" user="balrog-kun" changeset="551593" lat="52.2056694" lon="20.9732642">
    <tag k="addr:city" v="Warszawa@Warszawa Ochota"/>
    <tag k="addr:housenumber" v="18"/>
    <tag k="addr:street" v="Skorochód-Majewskiego"/>
    <tag k="source" v="http://ump.waw.pl/ retrieved 11:07:14 02/24/09 (UMP-Warszawa/src/WARSZAWA_OCHOTA.ulice.txt)"/>
  </node>
  <node id="376344421" version="2" timestamp="2011-12-03T09:14:50Z" uid="441027" user="muzzy" changeset="10022896" lat="52.2056694" lon="20.9732642">
    <tag k="addr:city" v="Warszawa@Warszawa Ochota"/>
    <tag k="addr:housenumber" v="18"/>
    <tag k="addr:street" v="Walentego Skorochód-Majewskiego"/>
    <tag k="source" v="http://ump.waw.pl/ retrieved 11:07:14 02/24/09 (UMP-Warszawa/src/WARSZAWA_OCHOTA.ulice.txt)"/>
  </node>
  <node id="376344421" version="3" timestamp="2012-01-26T09:41:39Z" uid="99386" user="masti" changeset="10501326" lat="52.2056694" lon="20.9732642"/>
  <node id="376344423" version="1" timestamp="2009-04-15T10:07:02Z" uid="20587" user="balrog-kun" changeset="551593" lat="52.2096773" lon="20.9798877">
    <tag k="addr:city" v="Warszawa@Warszawa Ochota"/>
    <tag k="addr:housenumber" v="2"/>
    <tag k="addr:street" v="Pawińskiego"/>
    <tag k="source" v="http://ump.waw.pl/ retrieved 11:07:14 02/24/09 (UMP-Warszawa/src/WARSZAWA_OCHOTA.ulice.txt)"/>
  </node>
  <node id="376344423" version="2" timestamp="2011-12-03T09:14:53Z" uid="441027" user="muzzy" changeset="10022896" lat="52.2096773" lon="20.9798877">
    <tag k="addr:city" v="Warszawa@Warszawa Ochota"/>
    <tag k="addr:housenumber" v="2"/>
    <tag k="addr:street" v="Adolfa Pawińskiego"/>
    <tag k="source" v="http://ump.waw.pl/ retrieved 11:07:14 02/24/09 (UMP-Warszawa/src/WARSZAWA_OCHOTA.ulice.txt)"/>
  </node>
  <node id="376344423" version="3" timestamp="2012-01-26T09:49:23Z" uid="99386" user="masti" changeset="10501383" lat="52.2096773" lon="20.9798877"/>
  <node id="376344425" version="1" timestamp="2009-04-15T10:07:02Z" uid="20587" user="balrog-kun" changeset="551593" lat="52.2112951" lon="20.9706706">
    <tag k="addr:city" v="Warszawa@Warszawa Ochota"/>
    <tag k="addr:housenumber" v="8"/>
    <tag k="addr:street" v="Mątwicka"/>
    <tag k="source" v="http://ump.waw.pl/ retrieved 11:07:14 02/24/09 (UMP-Warszawa/src/WARSZAWA_OCHOTA.ulice.txt)"/>
  </node>
  <node id="376344425" version="2" timestamp="2011-09-10T07:24:54Z" uid="477744" user="hormel" changeset="9259833" lat="52.2112951" lon="20.9706706"/>
  <node id="376344427" version="1" timestamp="2009-04-15T10:07:02Z" uid="20587" user="balrog-kun" changeset="551593" lat="52.2053243" lon="20.972604">
    <tag k="addr:city" v="Warszawa@Warszawa Ochota"/>
    <tag k="addr:housenumber" v="7"/>
    <tag k="addr:street" v="Dickensa"/>
    <tag k="source" v="http://ump.waw.pl/ retrieved 11:07:14 02/24/09 (UMP-Warszawa/src/WARSZAWA_OCHOTA.ulice.txt)"/>
  </node>
  <node id="376344427" version="2" timestamp="2011-12-03T09:15:41Z" uid="441027" user="muzzy" changeset="10022896" lat="52.2053243" lon="20.972604">
    <tag k="addr:city" v="Warszawa@Warszawa Ochota"/>
    <tag k="addr:housenumber" v="7"/>
    <tag k="addr:street" v="Karola Dickensa"/>
    <tag k="source" v="http://ump.waw.pl/ retrieved 11:07:14 02/24/09 (UMP-Warszawa/src/WARSZAWA_OCHOTA.ulice.txt)"/>
  </node>
  <node id="376344427" version="3" timestamp="2012-01-25T16:03:40Z" uid="99386" user="masti" changeset="10494955" lat="52.2053243" lon="20.972604"/>
  <node id="376344429" version="1" timestamp="2009-04-15T10:07:03Z" uid="20587" user="balrog-kun" changeset="551593" lat="52.2076495" lon="20.9812099">
    <tag k="addr:city" v="Warszawa@Warszawa Ochota"/>
    <tag k="addr:housenumber" v="7"/>
    <tag k="addr:street" v="Pawińskiego"/>
    <tag k="source" v="http://ump.waw.pl/ retrieved 11:07:14 02/24/09 (UMP-Warszawa/src/WARSZAWA_OCHOTA.ulice.txt)"/>
  </node>
  <node id="376344429" version="2" timestamp="2011-12-03T09:15:39Z" uid="441027" user="muzzy" changeset="10022896" lat="52.2076495" lon="20.9812099">
    <tag k="addr:city" v="Warszawa@Warszawa Ochota"/>
    <tag k="addr:housenumber" v="7"/>
    <tag k="addr:street" v="Adolfa Pawińskiego"/>
    <tag k="source" v="http://ump.waw.pl/ retrieved 11:07:14 02/24/09 (UMP-Warszawa/src/WARSZAWA_OCHOTA.ulice.txt)"/>
  </node>
  <node id="376344429" version="3" timestamp="2012-01-26T10:30:59Z" uid="99386" user="masti" changeset="10501717" lat="52.2076495" lon="20.9812099"/>
  <node id="376344431" version="1" timestamp="2009-04-15T10:07:03Z" uid="20587" user="balrog-kun" changeset="551593" lat="52.2098103" lon="20.9699786">
    <tag k="addr:city" v="Warszawa@Warszawa Ochota"/>
    <tag k="addr:housenumber" v="11"/>
    <tag k="addr:street" v="Białobrzeska"/>
    <tag k="source" v="http://ump.waw.pl/ retrieved 11:07:14 02/24/09 (UMP-Warszawa/src/WARSZAWA_OCHOTA.ulice.txt)"/>
  </node>
  <node id="376344431" version="2" timestamp="2012-01-26T11:07:06Z" uid="99386" user="masti" changeset="10502012" lat="52.2098103" lon="20.9699786"/>
  <node id="376344433" version="1" timestamp="2009-04-15T10:07:03Z" uid="20587" user="balrog-kun" changeset="551593" lat="52.2093252" lon="20.9646227">
    <tag k="addr:city" v="Warszawa@Warszawa Ochota"/>
    <tag k="addr:housenumber" v="57"/>
    <tag k="addr:street" v="Szczęśliwicka"/>
    <tag k="source" v="http://ump.waw.pl/ retrieved 11:07:14 02/24/09 (UMP-Warszawa/src/WARSZAWA_OCHOTA.ulice.txt)"/>
  </node>
  <node id="376344433" version="2" timestamp="2012-01-26T11:16:41Z" uid="99386" user="masti" changeset="10502068" lat="52.2093252" lon="20.9646227"/>
  <node id="376344434" version="1" timestamp="2009-04-15T10:07:03Z" uid="20587" user="balrog-kun" changeset="551593" lat="52.2049848" lon="20.9740927">
    <tag k="addr:city" v="Warszawa@Warszawa Ochota"/>
    <tag k="addr:housenumber" v="5"/>
    <tag k="addr:street" v="Dickensa"/>
    <tag k="source" v="http://ump.waw.pl/ retrieved 11:07:14 02/24/09 (UMP-Warszawa/src/WARSZAWA_OCHOTA.ulice.txt)"/>
  </node>
  <node id="376344434" version="2" timestamp="2011-12-03T09:15:29Z" uid="441027" user="muzzy" changeset="10022896" lat="52.2049848" lon="20.9740927">
    <tag k="addr:city" v="Warszawa@Warszawa Ochota"/>
    <tag k="addr:housenumber" v="5"/>
    <tag k="addr:street" v="Karola Dickensa"/>
    <tag k="source" v="http://ump.waw.pl/ retrieved 11:07:14 02/24/09 (UMP-Warszawa/src/WARSZAWA_OCHOTA.ulice.txt)"/>
  </node>
  <node id="376344436" version="1" timestamp="2009-04-15T10:07:03Z" uid="20587" user="balrog-kun" changeset="551593" lat="52.2040612" lon="20.9751091">
    <tag k="addr:city" v="Warszawa@Warszawa Ochota"/>
    <tag k="addr:housenumber" v="24"/>
    <tag k="addr:street" v="Pawińskiego"/>
    <tag k="source" v="http://ump.waw.pl/ retrieved 11:07:14 02/24/09 (UMP-Warszawa/src/WARSZAWA_OCHOTA.ulice.txt)"/>
  </node>
  <node id="376344436" version="2" timestamp="2011-12-03T09:15:03Z" uid="441027" user="muzzy" changeset="10022896" lat="52.2040612" lon="20.9751091">
    <tag k="addr:city" v="Warszawa@Warszawa Ochota"/>
    <tag k="addr:housenumber" v="24"/>
    <tag k="addr:street" v="Adolfa Pawińskiego"/>
    <tag k="source" v="http://ump.waw.pl/ retrieved 11:07:14 02/24/09 (UMP-Warszawa/src/WARSZAWA_OCHOTA.ulice.txt)"/>
  </node>
  <node id="376344436" version="3" timestamp="2012-01-25T16:21:50Z" uid="99386" user="masti" changeset="10495110" lat="52.2040612" lon="20.9751091"/>
  <node id="376344438" version="1" timestamp="2009-04-15T10:07:03Z" uid="20587" user="balrog-kun" changeset="551593" lat="52.2084715" lon="20.9648862">
    <tag k="addr:city" v="Warszawa@Warszawa Ochota"/>
    <tag k="addr:housenumber" v="21"/>
    <tag k="addr:street" v="Trzech Budrysów"/>
    <tag k="source" v="http://ump.waw.pl/ retrieved 11:07:14 02/24/09 (UMP-Warszawa/src/WARSZAWA_OCHOTA.ulice.txt)"/>
  </node>
  <node id="376344438" version="2" timestamp="2011-09-10T06:24:34Z" uid="477744" user="hormel" changeset="9259565" lat="52.2087601" lon="20.9652413">
    <tag k="addr:city" v="Warszawa@Warszawa Ochota"/>
    <tag k="addr:housenumber" v="21"/>
    <tag k="addr:street" v="Trzech Budrysów"/>
    <tag k="source" v="http://ump.waw.pl/ retrieved 11:07:14 02/24/09 (UMP-Warszawa/src/WARSZAWA_OCHOTA.ulice.txt)"/>
  </node>
  <node id="376344438" version="3" timestamp="2012-01-26T11:16:40Z" uid="99386" user="masti" changeset="10502068" lat="52.2087601" lon="20.9652413"/>
  <node id="376344440" version="1" timestamp="2009-04-15T10:07:04Z" uid="20587" user="balrog-kun" changeset="551593" lat="52.2029297" lon="20.9784378">
    <tag k="addr:city" v="Warszawa@Warszawa Ochota"/>
    <tag k="addr:housenumber" v="6"/>
    <tag k="addr:street" v="Wiślicka"/>
    <tag k="source" v="http://ump.waw.pl/ retrieved 11:07:14 02/24/09 (UMP-Warszawa/src/WARSZAWA_OCHOTA.ulice.txt)"/>
  </node>
  <node id="376344440" version="2" timestamp="2010-06-23T02:27:13Z" uid="20587" user="balrog-kun" changeset="5056010" lat="52.2029297" lon="20.9784378">
    <tag k="addr:city" v="Warszawa@Warszawa Ochota"/>
    <tag k="addr:housenumber" v="6"/>
    <tag k="addr:street" v="Wiślicka"/>
    <tag k="source" v="http://ump.waw.pl/ retrieved 11:07:14 02/24/09 (UMP-Warszawa/src/WARSZAWA_OCHOTA.ulice.txt)"/>
  </node>
  <node id="376344442" version="1" timestamp="2009-04-15T10:07:04Z" uid="20587" user="balrog-kun" changeset="551593" lat="52.2049756" lon="20.9760323">
    <tag k="addr:city" v="Warszawa@Warszawa Ochota"/>
    <tag k="addr:housenumber" v="18"/>
    <tag k="addr:street" v="Pawińskiego"/>
    <tag k="source" v="http://ump.waw.pl/ retrieved 11:07:14 02/24/09 (UMP-Warszawa/src/WARSZAWA_OCHOTA.ulice.txt)"/>
  </node>
  <node id="376344442" version="2" timestamp="2011-12-03T09:14:49Z" uid="441027" user="muzzy" changeset="10022896" lat="52.2049756" lon="20.9760323">
    <tag k="addr:city" v="Warszawa@Warszawa Ochota"/>
    <tag k="addr:housenumber" v="18"/>
    <tag k="addr:street" v="Adolfa Pawińskiego"/>
    <tag k="source" v="http://ump.waw.pl/ retrieved 11:07:14 02/24/09 (UMP-Warszawa/src/WARSZAWA_OCHOTA.ulice.txt)"/>
  </node>
  <node id="376344442" version="3" timestamp="2012-01-25T16:49:50Z" uid="99386" user="masti" changeset="10495355" lat="52.2049756" lon="20.9760323"/>
  <node id="376344444" version="1" timestamp="2009-04-15T10:07:04Z" uid="20587" user="balrog-kun" changeset="551593" lat="52.2095705" lon="20.9731636">
    <tag k="addr:city" v="Warszawa@Warszawa Ochota"/>
    <tag k="addr:housenumber" v="2"/>
    <tag k="addr:street" v="Skarżyńskiego"/>
    <tag k="source" v="http://ump.waw.pl/ retrieved 11:07:14 02/24/09 (UMP-Warszawa/src/WARSZAWA_OCHOTA.ulice.txt)"/>
  </node>
  <node id="376344444" version="2" timestamp="2011-12-03T09:14:56Z" uid="441027" user="muzzy" changeset="10022896" lat="52.2095705" lon="20.9731636">
    <tag k="addr:city" v="Warszawa@Warszawa Ochota"/>
    <tag k="addr:housenumber" v="2"/>
    <tag k="addr:street" v="Stanisława Skarżyńskiego"/>
    <tag k="source" v="http://ump.waw.pl/ retrieved 11:07:14 02/24/09 (UMP-Warszawa/src/WARSZAWA_OCHOTA.ulice.txt)"/>
  </node>
  <node id="376344446" version="1" timestamp="2009-04-15T10:07:04Z" uid="20587" user="balrog-kun" changeset="551593" lat="52.2098814" lon="20.9615458">
    <tag k="addr:city" v="Warszawa@Warszawa Ochota"/>
    <tag k="addr:housenumber" v="43"/>
    <tag k="addr:street" v="Opaczewska"/>
    <tag k="source" v="http://ump.waw.pl/ retrieved 11:07:14 02/24/09 (UMP-Warszawa/src/WARSZAWA_OCHOTA.ulice.txt)"/>
  </node>
  <node id="376344448" version="1" timestamp="2009-04-15T10:07:04Z" uid="20587" user="balrog-kun" changeset="551593" lat="52.2016192" lon="20.9776154">
    <tag k="addr:city" v="Warszawa@Warszawa Ochota"/>
    <tag k="addr:housenumber" v="19"/>
    <tag k="addr:street" v="Pruszkowska"/>
    <tag k="source" v="http://ump.waw.pl/ retrieved 11:07:14 02/24/09 (UMP-Warszawa/src/WARSZAWA_OCHOTA.ulice.txt)"/>
  </node>
  <node id="376344450" version="1" timestamp="2009-04-15T10:07:04Z" uid="20587" user="balrog-kun" changeset="551593" lat="52.2027108" lon="20.9720018">
    <tag k="addr:city" v="Warszawa@Warszawa Ochota"/>
    <tag k="addr:housenumber" v="17"/>
    <tag k="addr:street" v="Skorochód-Majewskiego"/>
    <tag k="source" v="http://ump.waw.pl/ retrieved 11:07:14 02/24/09 (UMP-Warszawa/src/WARSZAWA_OCHOTA.ulice.txt)"/>
  </node>
  <node id="376344450" version="2" timestamp="2011-12-03T09:14:47Z" uid="441027" user="muzzy" changeset="10022896" lat="52.2027108" lon="20.9720018">
    <tag k="addr:city" v="Warszawa@Warszawa Ochota"/>
    <tag k="addr:housenumber" v="17"/>
    <tag k="addr:street" v="Walentego Skorochód-Majewskiego"/>
    <tag k="source" v="http://ump.waw.pl/ retrieved 11:07:14 02/24/09 (UMP-Warszawa/src/WARSZAWA_OCHOTA.ulice.txt)"/>
  </node>
  <node id="376344450" version="3" timestamp="2012-01-25T16:08:57Z" uid="99386" user="masti" changeset="10494992" lat="52.2027108" lon="20.9720018"/>
  <node id="376344452" version="1" timestamp="2009-04-15T10:07:05Z" uid="20587" user="balrog-kun" changeset="551593" lat="52.2163062" lon="20.9704907">
    <tag k="addr:city" v="Warszawa@Warszawa Ochota"/>
    <tag k="addr:housenumber" v="46"/>
    <tag k="addr:street" v="Szczęśliwicka"/>
    <tag k="source" v="http://ump.waw.pl/ retrieved 11:07:14 02/24/09 (UMP-Warszawa/src/WARSZAWA_OCHOTA.ulice.txt)"/>
  </node>
  <node id="376344452" version="2" timestamp="2011-09-27T19:20:09Z" uid="477744" user="hormel" changeset="9413461" lat="52.2163515" lon="20.9700931">
    <tag k="addr:city" v="Warszawa@Warszawa Ochota"/>
    <tag k="addr:housenumber" v="46"/>
    <tag k="addr:street" v="Szczęśliwicka"/>
    <tag k="source" v="http://ump.waw.pl/ retrieved 11:07:14 02/24/09 (UMP-Warszawa/src/WARSZAWA_OCHOTA.ulice.txt)"/>
  </node>
  <node id="376344454" version="1" timestamp="2009-04-15T10:07:05Z" uid="20587" user="balrog-kun" changeset="551593" lat="52.2112785" lon="20.9710697">
    <tag k="addr:city" v="Warszawa@Warszawa Ochota"/>
    <tag k="addr:housenumber" v="9"/>
    <tag k="addr:street" v="Mątwicka"/>
    <tag k="source" v="http://ump.waw.pl/ retrieved 11:07:14 02/24/09 (UMP-Warszawa/src/WARSZAWA_OCHOTA.ulice.txt)"/>
  </node>
  <node id="376344454" version="2" timestamp="2011-09-10T07:24:54Z" uid="477744" user="hormel" changeset="9259833" lat="52.2112785" lon="20.9710697"/>
  <node id="376344456" version="1" timestamp="2009-04-15T10:07:05Z" uid="20587" user="balrog-kun" changeset="551593" lat="52.2095899" lon="20.9649785">
    <tag k="addr:city" v="Warszawa@Warszawa Ochota"/>
    <tag k="addr:housenumber" v="31"/>
    <tag k="addr:street" v="Opaczewska"/>
    <tag k="source" v="http://ump.waw.pl/ retrieved 11:07:14 02/24/09 (UMP-Warszawa/src/WARSZAWA_OCHOTA.ulice.txt)"/>
  </node>
  <node id="376344456" version="2" timestamp="2011-09-10T06:24:35Z" uid="477744" user="hormel" changeset="9259565" lat="52.2096645" lon="20.9648009">
    <tag k="addr:city" v="Warszawa@Warszawa Ochota"/>
    <tag k="addr:housenumber" v="31"/>
    <tag k="addr:street" v="Opaczewska"/>
    <tag k="source" v="http://ump.waw.pl/ retrieved 11:07:14 02/24/09 (UMP-Warszawa/src/WARSZAWA_OCHOTA.ulice.txt)"/>
  </node>
  <node id="376344456" version="3" timestamp="2012-01-26T11:16:41Z" uid="99386" user="masti" changeset="10502068" lat="52.2096645" lon="20.9648009"/>
  <node id="376344458" version="1" timestamp="2009-04-15T10:07:05Z" uid="20587" user="balrog-kun" changeset="551593" lat="52.2105548" lon="20.9685064">
    <tag k="addr:city" v="Warszawa@Warszawa Ochota"/>
    <tag k="addr:housenumber" v="28"/>
    <tag k="addr:street" v="Opaczewska"/>
    <tag k="source" v="http://ump.waw.pl/ retrieved 11:07:14 02/24/09 (UMP-Warszawa/src/WARSZAWA_OCHOTA.ulice.txt)"/>
  </node>
  <node id="376344458" version="2" timestamp="2011-09-10T06:24:33Z" uid="477744" user="hormel" changeset="9259565" lat="52.210519" lon="20.9683725">
    <tag k="addr:city" v="Warszawa@Warszawa Ochota"/>
    <tag k="addr:housenumber" v="28"/>
    <tag k="addr:street" v="Opaczewska"/>
    <tag k="source" v="http://ump.waw.pl/ retrieved 11:07:14 02/24/09 (UMP-Warszawa/src/WARSZAWA_OCHOTA.ulice.txt)"/>
  </node>
  <node id="376344458" version="3" timestamp="2012-01-26T13:13:12Z" uid="99386" user="masti" changeset="10503009" lat="52.210519" lon="20.9683725"/>
  <node id="376344460" version="1" timestamp="2009-04-15T10:07:05Z" uid="20587" user="balrog-kun" changeset="551593" lat="52.2067047" lon="20.9644981">
    <tag k="addr:city" v="Warszawa@Warszawa Ochota"/>
    <tag k="addr:housenumber" v="29"/>
    <tag k="addr:street" v="Dickensa"/>
    <tag k="source" v="http://ump.waw.pl/ retrieved 11:07:14 02/24/09 (UMP-Warszawa/src/WARSZAWA_OCHOTA.ulice.txt)"/>
  </node>
  <node id="376344460" version="2" timestamp="2010-12-04T04:20:12Z" uid="20587" user="balrog-kun" changeset="6534205" lat="52.2067047" lon="20.9644981">
    <tag k="addr:city" v="Warszawa@Warszawa Ochota"/>
    <tag k="addr:housenumber" v="29"/>
    <tag k="addr:street" v="Dickensa"/>
    <tag k="source" v="http://ump.waw.pl/ retrieved 11:07:14 02/24/09 (UMP-Warszawa/src/WARSZAWA_OCHOTA.ulice.txt)"/>
  </node>
  <node id="376344462" version="1" timestamp="2009-04-15T10:07:05Z" uid="20587" user="balrog-kun" changeset="551593" lat="52.2108132" lon="20.9661346">
    <tag k="addr:city" v="Warszawa@Warszawa Ochota"/>
    <tag k="addr:housenumber" v="7"/>
    <tag k="addr:street" v="Dobosza"/>
    <tag k="source" v="http://ump.waw.pl/ retrieved 11:07:14 02/24/09 (UMP-Warszawa/src/WARSZAWA_OCHOTA.ulice.txt)"/>
  </node>
  <node id="376344462" version="2" timestamp="2011-09-09T11:28:42Z" uid="477744" user="hormel" changeset="9253584" lat="52.2108419" lon="20.9665619">
    <tag k="addr:city" v="Warszawa@Warszawa Ochota"/>
    <tag k="addr:housenumber" v="7"/>
    <tag k="addr:street" v="Dobosza"/>
    <tag k="source" v="http://ump.waw.pl/ retrieved 11:07:14 02/24/09 (UMP-Warszawa/src/WARSZAWA_OCHOTA.ulice.txt)"/>
  </node>
  <node id="376344462" version="3" timestamp="2011-09-09T11:40:35Z" uid="477744" user="hormel" changeset="9253648" lat="52.2108419" lon="20.9665619"/>
  <node id="376344463" version="1" timestamp="2009-04-15T10:07:05Z" uid="20587" user="balrog-kun" changeset="551593" lat="52.2103901" lon="20.965856">
    <tag k="addr:city" v="Warszawa@Warszawa Ochota"/>
    <tag k="addr:housenumber" v="40"/>
    <tag k="addr:street" v="Opaczewska"/>
    <tag k="source" v="http://ump.waw.pl/ retrieved 11:07:14 02/24/09 (UMP-Warszawa/src/WARSZAWA_OCHOTA.ulice.txt)"/>
  </node>
  <node id="376344463" version="2" timestamp="2011-09-10T06:24:34Z" uid="477744" user="hormel" changeset="9259565" lat="52.210341" lon="20.9655667">
    <tag k="addr:city" v="Warszawa@Warszawa Ochota"/>
    <tag k="addr:housenumber" v="40"/>
    <tag k="addr:street" v="Opaczewska"/>
    <tag k="source" v="http://ump.waw.pl/ retrieved 11:07:14 02/24/09 (UMP-Warszawa/src/WARSZAWA_OCHOTA.ulice.txt)"/>
  </node>
  <node id="376344463" version="3" timestamp="2012-01-26T13:00:05Z" uid="99386" user="masti" changeset="10502914" lat="52.210341" lon="20.9655667"/>
  <node id="376344466" version="1" timestamp="2009-04-15T10:07:06Z" uid="20587" user="balrog-kun" changeset="551593" lat="52.2070635" lon="20.9878392">
    <tag k="addr:city" v="Warszawa@Warszawa Ochota"/>
    <tag k="addr:housenumber" v="26"/>
    <tag k="addr:street" v="Żwirki i Wigury"/>
    <tag k="source" v="http://ump.waw.pl/ retrieved 11:07:14 02/24/09 (UMP-Warszawa/src/WARSZAWA_OCHOTA.ulice.txt)"/>
  </node>
  <node id="376344467" version="1" timestamp="2009-04-15T10:07:06Z" uid="20587" user="balrog-kun" changeset="551593" lat="52.2165582" lon="20.9707427">
    <tag k="addr:city" v="Warszawa@Warszawa Ochota"/>
    <tag k="addr:housenumber" v="42"/>
    <tag k="addr:street" v="Szczęśliwicka"/>
    <tag k="source" v="http://ump.waw.pl/ retrieved 11:07:14 02/24/09 (UMP-Warszawa/src/WARSZAWA_OCHOTA.ulice.txt)"/>
  </node>
  <node id="376344467" version="2" timestamp="2011-09-27T19:20:08Z" uid="477744" user="hormel" changeset="9413461" lat="52.216841" lon="20.9700379">
    <tag k="addr:city" v="Warszawa@Warszawa Ochota"/>
    <tag k="addr:housenumber" v="42"/>
    <tag k="addr:street" v="Szczęśliwicka"/>
    <tag k="source" v="http://ump.waw.pl/ retrieved 11:07:14 02/24/09 (UMP-Warszawa/src/WARSZAWA_OCHOTA.ulice.txt)"/>
  </node>
  <node id="376344470" version="1" timestamp="2009-04-15T10:07:06Z" uid="20587" user="balrog-kun" changeset="551593" lat="52.2041614" lon="20.9729359">
    <tag k="addr:city" v="Warszawa@Warszawa Ochota"/>
    <tag k="addr:housenumber" v="15"/>
    <tag k="addr:street" v="Skorochód-Majewskiego"/>
    <tag k="source" v="http://ump.waw.pl/ retrieved 11:07:14 02/24/09 (UMP-Warszawa/src/WARSZAWA_OCHOTA.ulice.txt)"/>
  </node>
  <node id="376344470" version="2" timestamp="2011-12-03T09:14:43Z" uid="441027" user="muzzy" changeset="10022896" lat="52.2041614" lon="20.9729359">
    <tag k="addr:city" v="Warszawa@Warszawa Ochota"/>
    <tag k="addr:housenumber" v="15"/>
    <tag k="addr:street" v="Walentego Skorochód-Majewskiego"/>
    <tag k="source" v="http://ump.waw.pl/ retrieved 11:07:14 02/24/09 (UMP-Warszawa/src/WARSZAWA_OCHOTA.ulice.txt)"/>
  </node>
  <node id="376344470" version="3" timestamp="2012-01-25T16:21:50Z" uid="99386" user="masti" changeset="10495110" lat="52.2041614" lon="20.9729359"/>
  <node id="376344471" version="1" timestamp="2009-04-15T10:07:06Z" uid="20587" user="balrog-kun" changeset="551593" lat="52.2047725" lon="20.9756464">
    <tag k="addr:city" v="Warszawa@Warszawa Ochota"/>
    <tag k="addr:housenumber" v="2"/>
    <tag k="addr:street" v="Dickensa"/>
    <tag k="source" v="http://ump.waw.pl/ retrieved 11:07:14 02/24/09 (UMP-Warszawa/src/WARSZAWA_OCHOTA.ulice.txt)"/>
  </node>
  <node id="376344471" version="2" timestamp="2011-12-03T09:14:55Z" uid="441027" user="muzzy" changeset="10022896" lat="52.2047725" lon="20.9756464">
    <tag k="addr:city" v="Warszawa@Warszawa Ochota"/>
    <tag k="addr:housenumber" v="2"/>
    <tag k="addr:street" v="Karola Dickensa"/>
    <tag k="source" v="http://ump.waw.pl/ retrieved 11:07:14 02/24/09 (UMP-Warszawa/src/WARSZAWA_OCHOTA.ulice.txt)"/>
  </node>
  <node id="376344471" version="3" timestamp="2012-01-25T16:49:50Z" uid="99386" user="masti" changeset="10495355" lat="52.2047725" lon="20.9756464"/>
  <node id="376344473" version="1" timestamp="2009-04-15T10:07:06Z" uid="20587" user="balrog-kun" changeset="551593" lat="52.2020349" lon="20.9716233">
    <tag k="addr:city" v="Warszawa@Warszawa Ochota"/>
    <tag k="addr:housenumber" v="32"/>
    <tag k="addr:street" v="Korotyńskiego"/>
    <tag k="source" v="http://ump.waw.pl/ retrieved 11:07:14 02/24/09 (UMP-Warszawa/src/WARSZAWA_OCHOTA.ulice.txt)"/>
  </node>
  <node id="376344473" version="2" timestamp="2011-12-03T09:15:15Z" uid="441027" user="muzzy" changeset="10022896" lat="52.2020349" lon="20.9716233">
    <tag k="addr:city" v="Warszawa@Warszawa Ochota"/>
    <tag k="addr:housenumber" v="32"/>
    <tag k="addr:street" v="Władysława Korotyńskiego"/>
    <tag k="source" v="http://ump.waw.pl/ retrieved 11:07:14 02/24/09 (UMP-Warszawa/src/WARSZAWA_OCHOTA.ulice.txt)"/>
  </node>
  <node id="376344473" version="3" timestamp="2012-01-25T15:44:29Z" uid="99386" user="masti" changeset="10494792" lat="52.2020349" lon="20.9716233"/>
  <node id="376344475" version="1" timestamp="2009-04-15T10:07:06Z" uid="20587" user="balrog-kun" changeset="551593" lat="52.2116371" lon="20.968796">
    <tag k="addr:city" v="Warszawa@Warszawa Ochota"/>
    <tag k="addr:housenumber" v="3"/>
    <tag k="addr:street" v="Piotrkowska"/>
    <tag k="source" v="http://ump.waw.pl/ retrieved 11:07:14 02/24/09 (UMP-Warszawa/src/WARSZAWA_OCHOTA.ulice.txt)"/>
  </node>
  <node id="376344475" version="2" timestamp="2011-09-10T09:43:53Z" uid="477744" user="hormel" changeset="9260617" lat="52.2118251" lon="20.9686954">
    <tag k="addr:city" v="Warszawa@Warszawa Ochota"/>
    <tag k="addr:housenumber" v="3"/>
    <tag k="addr:street" v="Piotrkowska"/>
    <tag k="source" v="http://ump.waw.pl/ retrieved 11:07:14 02/24/09 (UMP-Warszawa/src/WARSZAWA_OCHOTA.ulice.txt)"/>
  </node>
  <node id="376344475" version="3" timestamp="2012-01-26T13:13:12Z" uid="99386" user="masti" changeset="10503009" lat="52.2118251" lon="20.9686954"/>
  <node id="376344477" version="1" timestamp="2009-04-15T10:07:07Z" uid="20587" user="balrog-kun" changeset="551593" lat="52.2021506" lon="20.9784263">
    <tag k="addr:city" v="Warszawa@Warszawa Ochota"/>
    <tag k="addr:housenumber" v="2"/>
    <tag k="addr:street" v="Wiślicka"/>
    <tag k="source" v="http://ump.waw.pl/ retrieved 11:07:14 02/24/09 (UMP-Warszawa/src/WARSZAWA_OCHOTA.ulice.txt)"/>
  </node>
  <node id="376344477" version="2" timestamp="2010-06-23T02:27:14Z" uid="20587" user="balrog-kun" changeset="5056010" lat="52.2021506" lon="20.9784263">
    <tag k="addr:city" v="Warszawa@Warszawa Ochota"/>
    <tag k="addr:housenumber" v="2"/>
    <tag k="addr:street" v="Wiślicka"/>
    <tag k="source" v="http://ump.waw.pl/ retrieved 11:07:14 02/24/09 (UMP-Warszawa/src/WARSZAWA_OCHOTA.ulice.txt)"/>
  </node>
  <node id="376344478" version="1" timestamp="2009-04-15T10:07:07Z" uid="20587" user="balrog-kun" changeset="551593" lat="52.2172266" lon="20.9714605">
    <tag k="addr:city" v="Warszawa@Warszawa Ochota"/>
    <tag k="addr:housenumber" v="40"/>
    <tag k="addr:street" v="Szczęśliwicka"/>
    <tag k="source" v="http://ump.waw.pl/ retrieved 11:07:14 02/24/09 (UMP-Warszawa/src/WARSZAWA_OCHOTA.ulice.txt)"/>
  </node>
  <node id="376344478" version="2" timestamp="2011-09-27T19:20:08Z" uid="477744" user="hormel" changeset="9413461" lat="52.2171498" lon="20.970796">
    <tag k="addr:city" v="Warszawa@Warszawa Ochota"/>
    <tag k="addr:housenumber" v="40"/>
    <tag k="addr:street" v="Szczęśliwicka"/>
    <tag k="source" v="http://ump.waw.pl/ retrieved 11:07:14 02/24/09 (UMP-Warszawa/src/WARSZAWA_OCHOTA.ulice.txt)"/>
  </node>
  <node id="376344481" version="1" timestamp="2009-04-15T10:07:07Z" uid="20587" user="balrog-kun" changeset="551593" lat="52.2057822" lon="20.9742061">
    <tag k="addr:city" v="Warszawa@Warszawa Ochota"/>
    <tag k="addr:housenumber" v="9"/>
    <tag k="addr:street" v="Skorochód-Majewskiego"/>
    <tag k="source" v="http://ump.waw.pl/ retrieved 11:07:14 02/24/09 (UMP-Warszawa/src/WARSZAWA_OCHOTA.ulice.txt)"/>
  </node>
  <node id="376344481" version="2" timestamp="2011-12-03T09:15:50Z" uid="441027" user="muzzy" changeset="10022896" lat="52.2057822" lon="20.9742061">
    <tag k="addr:city" v="Warszawa@Warszawa Ochota"/>
    <tag k="addr:housenumber" v="9"/>
    <tag k="addr:street" v="Walentego Skorochód-Majewskiego"/>
    <tag k="source" v="http://ump.waw.pl/ retrieved 11:07:14 02/24/09 (UMP-Warszawa/src/WARSZAWA_OCHOTA.ulice.txt)"/>
  </node>
  <node id="376344481" version="3" timestamp="2012-01-26T08:54:10Z" uid="99386" user="masti" changeset="10500976" lat="52.2057822" lon="20.9742061"/>
  <node id="376344482" version="1" timestamp="2009-04-15T10:07:07Z" uid="20587" user="balrog-kun" changeset="551593" lat="52.2024869" lon="20.9702463">
    <tag k="addr:city" v="Warszawa@Warszawa Ochota"/>
    <tag k="addr:housenumber" v="34"/>
    <tag k="addr:street" v="Korotyńskiego"/>
    <tag k="source" v="http://ump.waw.pl/ retrieved 11:07:14 02/24/09 (UMP-Warszawa/src/WARSZAWA_OCHOTA.ulice.txt)"/>
  </node>
  <node id="376344482" version="2" timestamp="2011-12-03T09:15:17Z" uid="441027" user="muzzy" changeset="10022896" lat="52.2024869" lon="20.9702463">
    <tag k="addr:city" v="Warszawa@Warszawa Ochota"/>
    <tag k="addr:housenumber" v="34"/>
    <tag k="addr:street" v="Władysława Korotyńskiego"/>
    <tag k="source" v="http://ump.waw.pl/ retrieved 11:07:14 02/24/09 (UMP-Warszawa/src/WARSZAWA_OCHOTA.ulice.txt)"/>
  </node>
  <node id="376344482" version="3" timestamp="2012-01-25T15:44:29Z" uid="99386" user="masti" changeset="10494792" lat="52.2024869" lon="20.9702463"/>
  <node id="376344485" version="1" timestamp="2009-04-15T10:07:07Z" uid="20587" user="balrog-kun" changeset="551593" lat="52.2161776" lon="20.9755383">
    <tag k="addr:city" v="Warszawa@Warszawa Ochota"/>
    <tag k="addr:housenumber" v="33"/>
    <tag k="addr:street" v="Białobrzeska"/>
    <tag k="source" v="http://ump.waw.pl/ retrieved 11:07:14 02/24/09 (UMP-Warszawa/src/WARSZAWA_OCHOTA.ulice.txt)"/>
  </node>
  <node id="376344486" version="1" timestamp="2009-04-15T10:07:07Z" uid="20587" user="balrog-kun" changeset="551593" lat="52.2085706" lon="20.9644504">
    <tag k="addr:city" v="Warszawa@Warszawa Ochota"/>
    <tag k="addr:housenumber" v="34"/>
    <tag k="addr:street" v="Dickensa"/>
    <tag k="source" v="http://ump.waw.pl/ retrieved 11:07:14 02/24/09 (UMP-Warszawa/src/WARSZAWA_OCHOTA.ulice.txt)"/>
  </node>
  <node id="376344486" version="2" timestamp="2011-09-10T06:24:35Z" uid="477744" user="hormel" changeset="9259565" lat="52.208755" lon="20.9647634">
    <tag k="addr:city" v="Warszawa@Warszawa Ochota"/>
    <tag k="addr:housenumber" v="34"/>
    <tag k="addr:street" v="Dickensa"/>
    <tag k="source" v="http://ump.waw.pl/ retrieved 11:07:14 02/24/09 (UMP-Warszawa/src/WARSZAWA_OCHOTA.ulice.txt)"/>
  </node>
  <node id="376344486" version="3" timestamp="2011-12-03T09:15:16Z" uid="441027" user="muzzy" changeset="10022896" lat="52.208755" lon="20.9647634">
    <tag k="addr:city" v="Warszawa@Warszawa Ochota"/>
    <tag k="addr:housenumber" v="34"/>
    <tag k="addr:street" v="Karola Dickensa"/>
    <tag k="source" v="http://ump.waw.pl/ retrieved 11:07:14 02/24/09 (UMP-Warszawa/src/WARSZAWA_OCHOTA.ulice.txt)"/>
  </node>
  <node id="376344486" version="4" timestamp="2012-01-26T11:16:41Z" uid="99386" user="masti" changeset="10502068" lat="52.208755" lon="20.9647634"/>
  <node id="376344489" version="1" timestamp="2009-04-15T10:07:08Z" uid="20587" user="balrog-kun" changeset="551593" lat="52.2089096" lon="20.9685338">
    <tag k="addr:city" v="Warszawa@Warszawa Ochota"/>
    <tag k="addr:housenumber" v="33"/>
    <tag k="addr:street" v="Trzech Budrysów"/>
    <tag k="source" v="http://ump.waw.pl/ retrieved 11:07:14 02/24/09 (UMP-Warszawa/src/WARSZAWA_OCHOTA.ulice.txt)"/>
  </node>
  <node id="376344489" version="2" timestamp="2011-09-10T06:24:34Z" uid="477744" user="hormel" changeset="9259565" lat="52.2089297" lon="20.9682322">
    <tag k="addr:city" v="Warszawa@Warszawa Ochota"/>
    <tag k="addr:housenumber" v="33"/>
    <tag k="addr:street" v="Trzech Budrysów"/>
    <tag k="source" v="http://ump.waw.pl/ retrieved 11:07:14 02/24/09 (UMP-Warszawa/src/WARSZAWA_OCHOTA.ulice.txt)"/>
  </node>
  <node id="376344489" version="3" timestamp="2012-01-26T11:16:41Z" uid="99386" user="masti" changeset="10502068" lat="52.2089297" lon="20.9682322"/>
  <node id="376344490" version="1" timestamp="2009-04-15T10:07:08Z" uid="20587" user="balrog-kun" changeset="551593" lat="52.2088818" lon="20.9800871">
    <tag k="addr:city" v="Warszawa@Warszawa Ochota"/>
    <tag k="addr:housenumber" v="3"/>
    <tag k="addr:street" v="Pawińskiego"/>
    <tag k="source" v="http://ump.waw.pl/ retrieved 11:07:14 02/24/09 (UMP-Warszawa/src/WARSZAWA_OCHOTA.ulice.txt)"/>
  </node>
  <node id="376344490" version="2" timestamp="2011-12-03T09:15:09Z" uid="441027" user="muzzy" changeset="10022896" lat="52.2088818" lon="20.9800871">
    <tag k="addr:city" v="Warszawa@Warszawa Ochota"/>
    <tag k="addr:housenumber" v="3"/>
    <tag k="addr:street" v="Adolfa Pawińskiego"/>
    <tag k="source" v="http://ump.waw.pl/ retrieved 11:07:14 02/24/09 (UMP-Warszawa/src/WARSZAWA_OCHOTA.ulice.txt)"/>
  </node>
  <node id="376344490" version="3" timestamp="2012-01-26T10:30:59Z" uid="99386" user="masti" changeset="10501717" lat="52.2088818" lon="20.9800871"/>
  <node id="376344492" version="1" timestamp="2009-04-15T10:07:08Z" uid="20587" user="balrog-kun" changeset="551593" lat="52.2077688" lon="20.9782568">
    <tag k="addr:city" v="Warszawa@Warszawa Ochota"/>
    <tag k="addr:housenumber" v="3"/>
    <tag k="addr:street" v="Archiwalna"/>
    <tag k="source" v="http://ump.waw.pl/ retrieved 11:07:14 02/24/09 (UMP-Warszawa/src/WARSZAWA_OCHOTA.ulice.txt)"/>
  </node>
  <node id="376344492" version="2" timestamp="2012-01-26T09:20:59Z" uid="99386" user="masti" changeset="10501164" lat="52.2077688" lon="20.9782568"/>
  <node id="376344494" version="1" timestamp="2009-04-15T10:07:08Z" uid="20587" user="balrog-kun" changeset="551593" lat="52.2070925" lon="20.9708971">
    <tag k="addr:city" v="Warszawa@Warszawa Ochota"/>
    <tag k="addr:housenumber" v="12"/>
    <tag k="addr:street" v="Skarżyńskiego"/>
    <tag k="source" v="http://ump.waw.pl/ retrieved 11:07:14 02/24/09 (UMP-Warszawa/src/WARSZAWA_OCHOTA.ulice.txt)"/>
  </node>
  <node id="376344494" version="2" timestamp="2011-12-09T09:52:41Z" uid="441027" user="muzzy" changeset="10071664" lat="52.2070925" lon="20.9708971">
    <tag k="addr:city" v="Warszawa@Warszawa Ochota"/>
    <tag k="addr:housenumber" v="12"/>
    <tag k="addr:street" v="Stanisława Skarżyńskiego"/>
    <tag k="source" v="http://ump.waw.pl/ retrieved 11:07:14 02/24/09 (UMP-Warszawa/src/WARSZAWA_OCHOTA.ulice.txt)"/>
  </node>
  <node id="376344496" version="1" timestamp="2009-04-15T10:07:08Z" uid="20587" user="balrog-kun" changeset="551593" lat="52.2057898" lon="20.9703914">
    <tag k="addr:city" v="Warszawa@Warszawa Ochota"/>
    <tag k="addr:housenumber" v="12"/>
    <tag k="addr:street" v="Geodetów"/>
    <tag k="source" v="http://ump.waw.pl/ retrieved 11:07:14 02/24/09 (UMP-Warszawa/src/WARSZAWA_OCHOTA.ulice.txt)"/>
  </node>
  <node id="376344496" version="2" timestamp="2009-04-15T16:02:33Z" uid="20587" user="balrog-kun" changeset="561631" lat="52.2057898" lon="20.9703914">
    <tag k="addr:city" v="Warszawa@Warszawa Ochota"/>
    <tag k="addr:housenumber" v="12"/>
    <tag k="addr:street" v="Geodetów"/>
    <tag k="source" v="http://ump.waw.pl/ retrieved 11:07:14 02/24/09 (UMP-Warszawa/src/WARSZAWA_OCHOTA.ulice.txt)"/>
  </node>
  <node id="376344498" version="1" timestamp="2009-04-15T10:07:09Z" uid="20587" user="balrog-kun" changeset="551593" lat="52.2115906" lon="20.9707034">
    <tag k="addr:city" v="Warszawa@Warszawa Ochota"/>
    <tag k="addr:housenumber" v="6"/>
    <tag k="addr:street" v="Mątwicka"/>
    <tag k="source" v="http://ump.waw.pl/ retrieved 11:07:14 02/24/09 (UMP-Warszawa/src/WARSZAWA_OCHOTA.ulice.txt)"/>
  </node>
  <node id="376344498" version="2" timestamp="2011-09-10T07:24:54Z" uid="477744" user="hormel" changeset="9259833" lat="52.2115906" lon="20.9707034"/>
  <node id="376344501" version="1" timestamp="2009-04-15T10:07:09Z" uid="20587" user="balrog-kun" changeset="551593" lat="52.2188118" lon="20.977202">
    <tag k="addr:city" v="Warszawa@Warszawa Ochota"/>
    <tag k="addr:housenumber" v="29"/>
    <tag k="addr:street" v="Barska"/>
    <tag k="source" v="http://ump.waw.pl/ retrieved 11:07:14 02/24/09 (UMP-Warszawa/src/WARSZAWA_OCHOTA.ulice.txt)"/>
  </node>
  <node id="376344502" version="1" timestamp="2009-04-15T10:07:09Z" uid="20587" user="balrog-kun" changeset="551593" lat="52.2169233" lon="20.9719989">
    <tag k="addr:city" v="Warszawa@Warszawa Ochota"/>
    <tag k="addr:housenumber" v="21"/>
    <tag k="addr:street" v="Szczęśliwicka"/>
    <tag k="source" v="http://ump.waw.pl/ retrieved 11:07:14 02/24/09 (UMP-Warszawa/src/WARSZAWA_OCHOTA.ulice.txt)"/>
  </node>
  <node id="376344505" version="1" timestamp="2009-04-15T10:07:09Z" uid="20587" user="balrog-kun" changeset="551593" lat="52.20792" lon="20.9698055">
    <tag k="addr:city" v="Warszawa@Warszawa Ochota"/>
    <tag k="addr:housenumber" v="14"/>
    <tag k="addr:street" v="Bobrowskiego"/>
    <tag k="source" v="http://ump.waw.pl/ retrieved 11:07:14 02/24/09 (UMP-Warszawa/src/WARSZAWA_OCHOTA.ulice.txt)"/>
  </node>
  <node id="376344505" version="2" timestamp="2011-12-03T09:14:41Z" uid="441027" user="muzzy" changeset="10022896" lat="52.20792" lon="20.9698055">
    <tag k="addr:city" v="Warszawa@Warszawa Ochota"/>
    <tag k="addr:housenumber" v="14"/>
    <tag k="addr:street" v="Stefana Bobrowskiego"/>
    <tag k="source" v="http://ump.waw.pl/ retrieved 11:07:14 02/24/09 (UMP-Warszawa/src/WARSZAWA_OCHOTA.ulice.txt)"/>
  </node>
  <node id="376344506" version="1" timestamp="2009-04-15T10:07:09Z" uid="20587" user="balrog-kun" changeset="551593" lat="52.2121584" lon="20.970038">
    <tag k="addr:city" v="Warszawa@Warszawa Ochota"/>
    <tag k="addr:housenumber" v="5"/>
    <tag k="addr:street" v="Orzeszkowej"/>
    <tag k="source" v="http://ump.waw.pl/ retrieved 11:07:14 02/24/09 (UMP-Warszawa/src/WARSZAWA_OCHOTA.ulice.txt)"/>
  </node>
  <node id="376344506" version="2" timestamp="2011-12-09T09:53:10Z" uid="441027" user="muzzy" changeset="10071664" lat="52.2121584" lon="20.970038">
    <tag k="addr:city" v="Warszawa@Warszawa Ochota"/>
    <tag k="addr:housenumber" v="5"/>
    <tag k="addr:street" v="Elizy Orzeszkowej"/>
    <tag k="source" v="http://ump.waw.pl/ retrieved 11:07:14 02/24/09 (UMP-Warszawa/src/WARSZAWA_OCHOTA.ulice.txt)"/>
  </node>
  <node id="376344509" version="1" timestamp="2009-04-15T10:07:10Z" uid="20587" user="balrog-kun" changeset="551593" lat="52.2081254" lon="20.9754665">
    <tag k="addr:city" v="Warszawa@Warszawa Ochota"/>
    <tag k="addr:housenumber" v="4"/>
    <tag k="addr:street" v="Skorochód-Majewskiego"/>
    <tag k="source" v="http://ump.waw.pl/ retrieved 11:07:14 02/24/09 (UMP-Warszawa/src/WARSZAWA_OCHOTA.ulice.txt)"/>
  </node>
  <node id="376344509" version="2" timestamp="2011-12-03T09:15:23Z" uid="441027" user="muzzy" changeset="10022896" lat="52.2081254" lon="20.9754665">
    <tag k="addr:city" v="Warszawa@Warszawa Ochota"/>
    <tag k="addr:housenumber" v="4"/>
    <tag k="addr:street" v="Walentego Skorochód-Majewskiego"/>
    <tag k="source" v="http://ump.waw.pl/ retrieved 11:07:14 02/24/09 (UMP-Warszawa/src/WARSZAWA_OCHOTA.ulice.txt)"/>
  </node>
  <node id="376344509" version="3" timestamp="2012-01-26T09:41:39Z" uid="99386" user="masti" changeset="10501326" lat="52.2081254" lon="20.9754665"/>
  <node id="376344510" version="1" timestamp="2009-04-15T10:07:10Z" uid="20587" user="balrog-kun" changeset="551593" lat="52.2052194" lon="20.9748188">
    <tag k="addr:city" v="Warszawa@Warszawa Ochota"/>
    <tag k="addr:housenumber" v="6"/>
    <tag k="addr:street" v="Dickensa"/>
    <tag k="source" v="http://ump.waw.pl/ retrieved 11:07:14 02/24/09 (UMP-Warszawa/src/WARSZAWA_OCHOTA.ulice.txt)"/>
  </node>
  <node id="376344510" version="2" timestamp="2011-12-03T09:15:35Z" uid="441027" user="muzzy" changeset="10022896" lat="52.2052194" lon="20.9748188">
    <tag k="addr:city" v="Warszawa@Warszawa Ochota"/>
    <tag k="addr:housenumber" v="6"/>
    <tag k="addr:street" v="Karola Dickensa"/>
    <tag k="source" v="http://ump.waw.pl/ retrieved 11:07:14 02/24/09 (UMP-Warszawa/src/WARSZAWA_OCHOTA.ulice.txt)"/>
  </node>
  <node id="376344510" version="3" timestamp="2012-01-26T08:54:10Z" uid="99386" user="masti" changeset="10500976" lat="52.2052194" lon="20.9748188"/>
  <node id="376344513" version="1" timestamp="2009-04-15T10:07:10Z" uid="20587" user="balrog-kun" changeset="551593" lat="52.2106859" lon="20.9634838">
    <tag k="addr:city" v="Warszawa@Warszawa Ochota"/>
    <tag k="addr:housenumber" v="31"/>
    <tag k="addr:street" v="Opaczewska"/>
    <tag k="source" v="http://ump.waw.pl/ retrieved 11:07:14 02/24/09 (UMP-Warszawa/src/WARSZAWA_OCHOTA.ulice.txt)"/>
  </node>
  <node id="376344513" version="2" timestamp="2012-01-26T11:55:42Z" uid="99386" user="masti" changeset="10502358" lat="52.2106859" lon="20.9634838"/>
  <node id="376344514" version="1" timestamp="2009-04-15T10:07:10Z" uid="20587" user="balrog-kun" changeset="551593" lat="52.2144921" lon="20.9681038">
    <tag k="addr:city" v="Warszawa@Warszawa Ochota"/>
    <tag k="addr:housenumber" v="16"/>
    <tag k="addr:street" v="Bitwy Warszawskiej 1920 roku"/>
    <tag k="source" v="http://ump.waw.pl/ retrieved 11:07:14 02/24/09 (UMP-Warszawa/src/WARSZAWA_OCHOTA.ulice.txt)"/>
  </node>
  <node id="376344516" version="1" timestamp="2009-04-15T10:07:10Z" uid="20587" user="balrog-kun" changeset="551593" lat="52.2096045" lon="20.9666498">
    <tag k="addr:city" v="Warszawa@Warszawa Ochota"/>
    <tag k="addr:housenumber" v="25"/>
    <tag k="addr:street" v="Opaczewska"/>
    <tag k="source" v="http://ump.waw.pl/ retrieved 11:07:14 02/24/09 (UMP-Warszawa/src/WARSZAWA_OCHOTA.ulice.txt)"/>
  </node>
  <node id="376344516" version="2" timestamp="2011-09-10T06:24:34Z" uid="477744" user="hormel" changeset="9259565" lat="52.209726" lon="20.966954">
    <tag k="addr:city" v="Warszawa@Warszawa Ochota"/>
    <tag k="addr:housenumber" v="25"/>
    <tag k="addr:street" v="Opaczewska"/>
    <tag k="source" v="http://ump.waw.pl/ retrieved 11:07:14 02/24/09 (UMP-Warszawa/src/WARSZAWA_OCHOTA.ulice.txt)"/>
  </node>
  <node id="376344516" version="3" timestamp="2012-01-26T11:16:40Z" uid="99386" user="masti" changeset="10502068" lat="52.209726" lon="20.966954"/>
  <node id="376344518" version="1" timestamp="2009-04-15T10:07:10Z" uid="20587" user="balrog-kun" changeset="551593" lat="52.216397" lon="20.9757434">
    <tag k="addr:city" v="Warszawa@Warszawa Ochota"/>
    <tag k="addr:housenumber" v="35"/>
    <tag k="addr:street" v="Białobrzeska"/>
    <tag k="source" v="http://ump.waw.pl/ retrieved 11:07:14 02/24/09 (UMP-Warszawa/src/WARSZAWA_OCHOTA.ulice.txt)"/>
  </node>
  <node id="376344520" version="1" timestamp="2009-04-15T10:07:11Z" uid="20587" user="balrog-kun" changeset="551593" lat="52.2033574" lon="20.9783111">
    <tag k="addr:city" v="Warszawa@Warszawa Ochota"/>
    <tag k="addr:housenumber" v="8"/>
    <tag k="addr:street" v="Wiślicka"/>
    <tag k="source" v="http://ump.waw.pl/ retrieved 11:07:14 02/24/09 (UMP-Warszawa/src/WARSZAWA_OCHOTA.ulice.txt)"/>
  </node>
  <node id="376344520" version="2" timestamp="2010-06-23T02:27:13Z" uid="20587" user="balrog-kun" changeset="5056010" lat="52.2033574" lon="20.9783111">
    <tag k="addr:city" v="Warszawa@Warszawa Ochota"/>
    <tag k="addr:housenumber" v="8"/>
    <tag k="addr:street" v="Wiślicka"/>
    <tag k="source" v="http://ump.waw.pl/ retrieved 11:07:14 02/24/09 (UMP-Warszawa/src/WARSZAWA_OCHOTA.ulice.txt)"/>
  </node>
  <node id="376344523" version="1" timestamp="2009-04-15T10:07:11Z" uid="20587" user="balrog-kun" changeset="551593" lat="52.2111004" lon="20.9624118">
    <tag k="addr:city" v="Warszawa@Warszawa Ochota"/>
    <tag k="addr:housenumber" v="41"/>
    <tag k="addr:street" v="Opaczewska"/>
    <tag k="source" v="http://ump.waw.pl/ retrieved 11:07:14 02/24/09 (UMP-Warszawa/src/WARSZAWA_OCHOTA.ulice.txt)"/>
  </node>
  <node id="376344523" version="2" timestamp="2012-01-26T11:55:42Z" uid="99386" user="masti" changeset="10502358" lat="52.2111004" lon="20.9624118"/>
  <node id="376344524" version="1" timestamp="2009-04-15T10:07:11Z" uid="20587" user="balrog-kun" changeset="551593" lat="52.2111394" lon="20.9686689">
    <tag k="addr:city" v="Warszawa@Warszawa Ochota"/>
    <tag k="addr:housenumber" v="7"/>
    <tag k="addr:street" v="Piotrkowska"/>
    <tag k="source" v="http://ump.waw.pl/ retrieved 11:07:14 02/24/09 (UMP-Warszawa/src/WARSZAWA_OCHOTA.ulice.txt)"/>
  </node>
  <node id="376344524" version="2" timestamp="2011-09-10T09:43:53Z" uid="477744" user="hormel" changeset="9260617" lat="52.211248" lon="20.9685417">
    <tag k="addr:city" v="Warszawa@Warszawa Ochota"/>
    <tag k="addr:housenumber" v="7"/>
    <tag k="addr:street" v="Piotrkowska"/>
    <tag k="source" v="http://ump.waw.pl/ retrieved 11:07:14 02/24/09 (UMP-Warszawa/src/WARSZAWA_OCHOTA.ulice.txt)"/>
  </node>
  <node id="376344524" version="3" timestamp="2012-01-26T13:13:13Z" uid="99386" user="masti" changeset="10503009" lat="52.211248" lon="20.9685417"/>
  <node id="376344527" version="1" timestamp="2009-04-15T10:07:11Z" uid="20587" user="balrog-kun" changeset="551593" lat="52.2173158" lon="20.9723609">
    <tag k="addr:city" v="Warszawa@Warszawa Ochota"/>
    <tag k="addr:housenumber" v="19"/>
    <tag k="addr:street" v="Szczęśliwicka"/>
    <tag k="source" v="http://ump.waw.pl/ retrieved 11:07:14 02/24/09 (UMP-Warszawa/src/WARSZAWA_OCHOTA.ulice.txt)"/>
  </node>
  <node id="376344528" version="1" timestamp="2009-04-15T10:07:11Z" uid="20587" user="balrog-kun" changeset="551593" lat="52.2111166" lon="20.965127">
    <tag k="addr:city" v="Warszawa@Warszawa Ochota"/>
    <tag k="addr:housenumber" v="68"/>
    <tag k="addr:street" v="Szczęśliwicka"/>
    <tag k="source" v="http://ump.waw.pl/ retrieved 11:07:14 02/24/09 (UMP-Warszawa/src/WARSZAWA_OCHOTA.ulice.txt)"/>
  </node>
  <node id="376344528" version="2" timestamp="2012-01-26T13:00:05Z" uid="99386" user="masti" changeset="10502914" lat="52.2111166" lon="20.965127"/>
  <node id="376344531" version="1" timestamp="2009-04-15T10:07:11Z" uid="20587" user="balrog-kun" changeset="551593" lat="52.2068668" lon="20.9787874">
    <tag k="addr:city" v="Warszawa@Warszawa Ochota"/>
    <tag k="addr:housenumber" v="5"/>
    <tag k="addr:street" v="Pawińskiego"/>
    <tag k="source" v="http://ump.waw.pl/ retrieved 11:07:14 02/24/09 (UMP-Warszawa/src/WARSZAWA_OCHOTA.ulice.txt)"/>
  </node>
  <node id="376344531" version="2" timestamp="2011-12-03T09:15:27Z" uid="441027" user="muzzy" changeset="10022896" lat="52.2068668" lon="20.9787874">
    <tag k="addr:city" v="Warszawa@Warszawa Ochota"/>
    <tag k="addr:housenumber" v="5"/>
    <tag k="addr:street" v="Adolfa Pawińskiego"/>
    <tag k="source" v="http://ump.waw.pl/ retrieved 11:07:14 02/24/09 (UMP-Warszawa/src/WARSZAWA_OCHOTA.ulice.txt)"/>
  </node>
  <node id="376344531" version="3" timestamp="2012-01-26T10:04:37Z" uid="99386" user="masti" changeset="10501489" lat="52.2068668" lon="20.9787874"/>
  <node id="376344532" version="1" timestamp="2009-04-15T10:07:12Z" uid="20587" user="balrog-kun" changeset="551593" lat="52.2021792" lon="20.973256">
    <tag k="addr:city" v="Warszawa@Warszawa Ochota"/>
    <tag k="addr:housenumber" v="25"/>
    <tag k="addr:street" v="Siemieńskiego"/>
    <tag k="source" v="http://ump.waw.pl/ retrieved 11:07:14 02/24/09 (UMP-Warszawa/src/WARSZAWA_OCHOTA.ulice.txt)"/>
  </node>
  <node id="376344532" version="2" timestamp="2011-12-03T09:15:04Z" uid="441027" user="muzzy" changeset="10022896" lat="52.2021792" lon="20.973256">
    <tag k="addr:city" v="Warszawa@Warszawa Ochota"/>
    <tag k="addr:housenumber" v="25"/>
    <tag k="addr:street" v="Józefa Jana Siemieńskiego"/>
    <tag k="source" v="http://ump.waw.pl/ retrieved 11:07:14 02/24/09 (UMP-Warszawa/src/WARSZAWA_OCHOTA.ulice.txt)"/>
  </node>
  <node id="376344534" version="1" timestamp="2009-04-15T10:07:12Z" uid="20587" user="balrog-kun" changeset="551593" lat="52.2022612" lon="20.9762402">
    <tag k="addr:city" v="Warszawa@Warszawa Ochota"/>
    <tag k="addr:housenumber" v="10"/>
    <tag k="addr:street" v="Pruszkowska"/>
    <tag k="source" v="http://ump.waw.pl/ retrieved 11:07:14 02/24/09 (UMP-Warszawa/src/WARSZAWA_OCHOTA.ulice.txt)"/>
  </node>
  <node id="376344536" version="1" timestamp="2009-04-15T10:07:12Z" uid="20587" user="balrog-kun" changeset="551593" lat="52.2112988" lon="20.9633983">
    <tag k="addr:city" v="Warszawa@Warszawa Ochota"/>
    <tag k="addr:housenumber" v="44"/>
    <tag k="addr:street" v="Opaczewska"/>
    <tag k="source" v="http://ump.waw.pl/ retrieved 11:07:14 02/24/09 (UMP-Warszawa/src/WARSZAWA_OCHOTA.ulice.txt)"/>
  </node>
  <node id="376344536" version="2" timestamp="2012-01-26T12:44:20Z" uid="99386" user="masti" changeset="10502779" lat="52.2112988" lon="20.9633983"/>
  <node id="376344537" version="1" timestamp="2009-04-15T10:07:12Z" uid="20587" user="balrog-kun" changeset="551593" lat="52.2088623" lon="20.9672495">
    <tag k="addr:city" v="Warszawa@Warszawa Ochota"/>
    <tag k="addr:housenumber" v="24"/>
    <tag k="addr:street" v="Trzech Budrysów"/>
    <tag k="source" v="http://ump.waw.pl/ retrieved 11:07:14 02/24/09 (UMP-Warszawa/src/WARSZAWA_OCHOTA.ulice.txt)"/>
  </node>
  <node id="376344537" version="2" timestamp="2011-09-10T06:24:35Z" uid="477744" user="hormel" changeset="9259565" lat="52.2090081" lon="20.9671076">
    <tag k="addr:city" v="Warszawa@Warszawa Ochota"/>
    <tag k="addr:housenumber" v="24"/>
    <tag k="addr:street" v="Trzech Budrysów"/>
    <tag k="source" v="http://ump.waw.pl/ retrieved 11:07:14 02/24/09 (UMP-Warszawa/src/WARSZAWA_OCHOTA.ulice.txt)"/>
  </node>
  <node id="376344537" version="3" timestamp="2012-01-26T11:04:09Z" uid="99386" user="masti" changeset="10501981" lat="52.2090081" lon="20.9671076"/>
  <node id="376344540" version="1" timestamp="2009-04-15T10:07:12Z" uid="20587" user="balrog-kun" changeset="551593" lat="52.2182026" lon="20.9731825">
    <tag k="addr:city" v="Warszawa@Warszawa Ochota"/>
    <tag k="addr:housenumber" v="19"/>
    <tag k="addr:street" v="Szczęśliwicka"/>
    <tag k="source" v="http://ump.waw.pl/ retrieved 11:07:14 02/24/09 (UMP-Warszawa/src/WARSZAWA_OCHOTA.ulice.txt)"/>
  </node>
  <node id="376344541" version="1" timestamp="2009-04-15T10:07:12Z" uid="20587" user="balrog-kun" changeset="551593" lat="52.212203" lon="20.9674846">
    <tag k="addr:city" v="Warszawa@Warszawa Ochota"/>
    <tag k="addr:housenumber" v="41"/>
    <tag k="addr:street" v="Szczęśliwicka"/>
    <tag k="source" v="http://ump.waw.pl/ retrieved 11:07:14 02/24/09 (UMP-Warszawa/src/WARSZAWA_OCHOTA.ulice.txt)"/>
  </node>
  <node id="376344544" version="1" timestamp="2009-04-15T10:07:12Z" uid="20587" user="balrog-kun" changeset="551593" lat="52.2107325" lon="20.9708897">
    <tag k="addr:city" v="Warszawa@Warszawa Ochota"/>
    <tag k="addr:housenumber" v="18"/>
    <tag k="addr:street" v="Opaczewska"/>
    <tag k="source" v="http://ump.waw.pl/ retrieved 11:07:14 02/24/09 (UMP-Warszawa/src/WARSZAWA_OCHOTA.ulice.txt)"/>
  </node>
  <node id="376344544" version="2" timestamp="2011-09-09T11:14:57Z" uid="477744" user="hormel" changeset="9253480" lat="52.2108983" lon="20.9709538">
    <tag k="addr:city" v="Warszawa@Warszawa Ochota"/>
    <tag k="addr:housenumber" v="18"/>
    <tag k="addr:street" v="Opaczewska"/>
    <tag k="source" v="http://ump.waw.pl/ retrieved 11:07:14 02/24/09 (UMP-Warszawa/src/WARSZAWA_OCHOTA.ulice.txt)"/>
  </node>
  <node id="376344544" version="3" timestamp="2011-09-10T07:24:54Z" uid="477744" user="hormel" changeset="9259833" lat="52.2108983" lon="20.9709538"/>
  <node id="376344545" version="1" timestamp="2009-04-15T10:07:13Z" uid="20587" user="balrog-kun" changeset="551593" lat="52.2026013" lon="20.9776188">
    <tag k="addr:city" v="Warszawa@Warszawa Ochota"/>
    <tag k="addr:housenumber" v="1"/>
    <tag k="addr:street" v="Wiślicka"/>
    <tag k="source" v="http://ump.waw.pl/ retrieved 11:07:14 02/24/09 (UMP-Warszawa/src/WARSZAWA_OCHOTA.ulice.txt)"/>
  </node>
  <node id="376344547" version="1" timestamp="2009-04-15T10:07:13Z" uid="20587" user="balrog-kun" changeset="551593" lat="52.2122009" lon="20.9721791">
    <tag k="addr:city" v="Warszawa@Warszawa Ochota"/>
    <tag k="addr:housenumber" v="5"/>
    <tag k="addr:street" v="Bitwy Warszawskiej 1920 roku"/>
    <tag k="source" v="http://ump.waw.pl/ retrieved 11:07:14 02/24/09 (UMP-Warszawa/src/WARSZAWA_OCHOTA.ulice.txt)"/>
  </node>
  <node id="376344547" version="2" timestamp="2011-09-10T09:43:53Z" uid="477744" user="hormel" changeset="9260617" lat="52.2122009" lon="20.9721791"/>
  <node id="376344549" version="1" timestamp="2009-04-15T10:07:13Z" uid="20587" user="balrog-kun" changeset="551593" lat="52.2092432" lon="20.9659324">
    <tag k="addr:city" v="Warszawa@Warszawa Ochota"/>
    <tag k="addr:housenumber" v="25"/>
    <tag k="addr:street" v="Trzech Budrysów"/>
    <tag k="source" v="http://ump.waw.pl/ retrieved 11:07:14 02/24/09 (UMP-Warszawa/src/WARSZAWA_OCHOTA.ulice.txt)"/>
  </node>
  <node id="376344549" version="2" timestamp="2011-09-10T06:24:35Z" uid="477744" user="hormel" changeset="9259565" lat="52.2092234" lon="20.9657289">
    <tag k="addr:city" v="Warszawa@Warszawa Ochota"/>
    <tag k="addr:housenumber" v="25"/>
    <tag k="addr:street" v="Trzech Budrysów"/>
    <tag k="source" v="http://ump.waw.pl/ retrieved 11:07:14 02/24/09 (UMP-Warszawa/src/WARSZAWA_OCHOTA.ulice.txt)"/>
  </node>
  <node id="376344549" version="3" timestamp="2012-01-26T11:16:40Z" uid="99386" user="masti" changeset="10502068" lat="52.2092234" lon="20.9657289"/>
  <node id="376344550" version="1" timestamp="2009-04-15T10:07:13Z" uid="20587" user="balrog-kun" changeset="551593" lat="52.2129837" lon="20.9698163">
    <tag k="addr:city" v="Warszawa@Warszawa Ochota"/>
    <tag k="addr:housenumber" v="13"/>
    <tag k="addr:street" v="Bitwy Warszawskiej 1920 roku"/>
    <tag k="source" v="http://ump.waw.pl/ retrieved 11:07:14 02/24/09 (UMP-Warszawa/src/WARSZAWA_OCHOTA.ulice.txt)"/>
  </node>
  <node id="376344550" version="2" timestamp="2011-09-10T09:43:53Z" uid="477744" user="hormel" changeset="9260617" lat="52.2129837" lon="20.9698163"/>
  <node id="376344553" version="1" timestamp="2009-04-15T10:07:13Z" uid="20587" user="balrog-kun" changeset="551593" lat="52.2054976" lon="20.9764992">
    <tag k="addr:city" v="Warszawa@Warszawa Ochota"/>
    <tag k="addr:housenumber" v="16"/>
    <tag k="addr:street" v="Pawińskiego"/>
    <tag k="source" v="http://ump.waw.pl/ retrieved 11:07:14 02/24/09 (UMP-Warszawa/src/WARSZAWA_OCHOTA.ulice.txt)"/>
  </node>
  <node id="376344553" version="2" timestamp="2011-12-03T09:14:43Z" uid="441027" user="muzzy" changeset="10022896" lat="52.2054976" lon="20.9764992">
    <tag k="addr:city" v="Warszawa@Warszawa Ochota"/>
    <tag k="addr:housenumber" v="16"/>
    <tag k="addr:street" v="Adolfa Pawińskiego"/>
    <tag k="source" v="http://ump.waw.pl/ retrieved 11:07:14 02/24/09 (UMP-Warszawa/src/WARSZAWA_OCHOTA.ulice.txt)"/>
  </node>
  <node id="376344553" version="3" timestamp="2012-01-25T16:49:50Z" uid="99386" user="masti" changeset="10495355" lat="52.2054976" lon="20.9764992"/>
  <node id="376344554" version="1" timestamp="2009-04-15T10:07:13Z" uid="20587" user="balrog-kun" changeset="551593" lat="52.218963" lon="20.9740895">
    <tag k="addr:city" v="Warszawa@Warszawa Ochota"/>
    <tag k="addr:housenumber" v="37"/>
    <tag k="addr:street" v="Barska"/>
    <tag k="source" v="http://ump.waw.pl/ retrieved 11:07:14 02/24/09 (UMP-Warszawa/src/WARSZAWA_OCHOTA.ulice.txt)"/>
  </node>
  <node id="376344557" version="1" timestamp="2009-04-15T10:07:14Z" uid="20587" user="balrog-kun" changeset="551593" lat="52.2097725" lon="20.96845">
    <tag k="addr:city" v="Warszawa@Warszawa Ochota"/>
    <tag k="addr:housenumber" v="21"/>
    <tag k="addr:street" v="Opaczewska"/>
    <tag k="source" v="http://ump.waw.pl/ retrieved 11:07:14 02/24/09 (UMP-Warszawa/src/WARSZAWA_OCHOTA.ulice.txt)"/>
  </node>
  <node id="376344557" version="2" timestamp="2011-09-10T06:24:35Z" uid="477744" user="hormel" changeset="9259565" lat="52.2098066" lon="20.9678056">
    <tag k="addr:city" v="Warszawa@Warszawa Ochota"/>
    <tag k="addr:housenumber" v="23"/>
    <tag k="addr:street" v="Opaczewska"/>
    <tag k="source" v="http://ump.waw.pl/ retrieved 11:07:14 02/24/09 (UMP-Warszawa/src/WARSZAWA_OCHOTA.ulice.txt)"/>
  </node>
  <node id="376344557" version="3" timestamp="2012-01-26T11:16:40Z" uid="99386" user="masti" changeset="10502068" lat="52.2098066" lon="20.9678056"/>
  <node id="376344558" version="1" timestamp="2009-04-15T10:07:14Z" uid="20587" user="balrog-kun" changeset="551593" lat="52.217488" lon="20.9728666">
    <tag k="addr:city" v="Warszawa@Warszawa Ochota"/>
    <tag k="addr:housenumber" v="37"/>
    <tag k="addr:street" v="Kopińska"/>
    <tag k="source" v="http://ump.waw.pl/ retrieved 11:07:14 02/24/09 (UMP-Warszawa/src/WARSZAWA_OCHOTA.ulice.txt)"/>
  </node>
  <node id="376344561" version="1" timestamp="2009-04-15T10:07:14Z" uid="20587" user="balrog-kun" changeset="551593" lat="52.2031382" lon="20.9715021">
    <tag k="addr:city" v="Warszawa@Warszawa Ochota"/>
    <tag k="addr:housenumber" v="34"/>
    <tag k="addr:street" v="Skorochód-Majewskiego"/>
    <tag k="source" v="http://ump.waw.pl/ retrieved 11:07:14 02/24/09 (UMP-Warszawa/src/WARSZAWA_OCHOTA.ulice.txt)"/>
  </node>
  <node id="376344561" version="2" timestamp="2011-12-03T09:15:17Z" uid="441027" user="muzzy" changeset="10022896" lat="52.2031382" lon="20.9715021">
    <tag k="addr:city" v="Warszawa@Warszawa Ochota"/>
    <tag k="addr:housenumber" v="34"/>
    <tag k="addr:street" v="Walentego Skorochód-Majewskiego"/>
    <tag k="source" v="http://ump.waw.pl/ retrieved 11:07:14 02/24/09 (UMP-Warszawa/src/WARSZAWA_OCHOTA.ulice.txt)"/>
  </node>
  <node id="376344561" version="3" timestamp="2012-01-25T16:03:40Z" uid="99386" user="masti" changeset="10494955" lat="52.2031382" lon="20.9715021"/>
  <node id="376344563" version="1" timestamp="2009-04-15T10:07:14Z" uid="20587" user="balrog-kun" changeset="551593" lat="52.2104711" lon="20.9679294">
    <tag k="addr:city" v="Warszawa@Warszawa Ochota"/>
    <tag k="addr:housenumber" v="30"/>
    <tag k="addr:street" v="Opaczewska"/>
    <tag k="source" v="http://ump.waw.pl/ retrieved 11:07:14 02/24/09 (UMP-Warszawa/src/WARSZAWA_OCHOTA.ulice.txt)"/>
  </node>
  <node id="376344563" version="2" timestamp="2011-09-09T11:28:44Z" uid="477744" user="hormel" changeset="9253584" lat="52.2104711" lon="20.9679294"/>
  <node id="376344566" version="1" timestamp="2009-04-15T10:07:14Z" uid="20587" user="balrog-kun" changeset="551593" lat="52.2032746" lon="20.9744566">
    <tag k="addr:city" v="Warszawa@Warszawa Ochota"/>
    <tag k="addr:housenumber" v="28"/>
    <tag k="addr:street" v="Pawińskiego"/>
    <tag k="source" v="http://ump.waw.pl/ retrieved 11:07:14 02/24/09 (UMP-Warszawa/src/WARSZAWA_OCHOTA.ulice.txt)"/>
  </node>
  <node id="376344566" version="2" timestamp="2011-12-03T09:15:08Z" uid="441027" user="muzzy" changeset="10022896" lat="52.2032746" lon="20.9744566">
    <tag k="addr:city" v="Warszawa@Warszawa Ochota"/>
    <tag k="addr:housenumber" v="28"/>
    <tag k="addr:street" v="Adolfa Pawińskiego"/>
    <tag k="source" v="http://ump.waw.pl/ retrieved 11:07:14 02/24/09 (UMP-Warszawa/src/WARSZAWA_OCHOTA.ulice.txt)"/>
  </node>
  <node id="376344566" version="3" timestamp="2012-01-25T16:21:50Z" uid="99386" user="masti" changeset="10495110" lat="52.2032746" lon="20.9744566"/>
  <node id="376344568" version="1" timestamp="2009-04-15T10:07:14Z" uid="20587" user="balrog-kun" changeset="551593" lat="52.2069461" lon="20.9695614">
    <tag k="addr:city" v="Warszawa@Warszawa Ochota"/>
    <tag k="addr:housenumber" v="11"/>
    <tag k="addr:street" v="Bobrowskiego"/>
    <tag k="source" v="http://ump.waw.pl/ retrieved 11:07:14 02/24/09 (UMP-Warszawa/src/WARSZAWA_OCHOTA.ulice.txt)"/>
  </node>
  <node id="376344568" version="2" timestamp="2011-12-03T09:14:35Z" uid="441027" user="muzzy" changeset="10022896" lat="52.2069461" lon="20.9695614">
    <tag k="addr:city" v="Warszawa@Warszawa Ochota"/>
    <tag k="addr:housenumber" v="11"/>
    <tag k="addr:street" v="Stefana Bobrowskiego"/>
    <tag k="source" v="http://ump.waw.pl/ retrieved 11:07:14 02/24/09 (UMP-Warszawa/src/WARSZAWA_OCHOTA.ulice.txt)"/>
  </node>
  <node id="376344570" version="1" timestamp="2009-04-15T10:07:14Z" uid="20587" user="balrog-kun" changeset="551593" lat="52.203865" lon="20.9735722">
    <tag k="addr:city" v="Warszawa@Warszawa Ochota"/>
    <tag k="addr:housenumber" v="14"/>
    <tag k="addr:street" v="Siemieńskiego"/>
    <tag k="source" v="http://ump.waw.pl/ retrieved 11:07:14 02/24/09 (UMP-Warszawa/src/WARSZAWA_OCHOTA.ulice.txt)"/>
  </node>
  <node id="376344570" version="2" timestamp="2011-12-03T09:14:40Z" uid="441027" user="muzzy" changeset="10022896" lat="52.203865" lon="20.9735722">
    <tag k="addr:city" v="Warszawa@Warszawa Ochota"/>
    <tag k="addr:housenumber" v="14"/>
    <tag k="addr:street" v="Józefa Jana Siemieńskiego"/>
    <tag k="source" v="http://ump.waw.pl/ retrieved 11:07:14 02/24/09 (UMP-Warszawa/src/WARSZAWA_OCHOTA.ulice.txt)"/>
  </node>
  <node id="376344573" version="1" timestamp="2009-04-15T10:07:15Z" uid="20587" user="balrog-kun" changeset="551593" lat="52.2086854" lon="20.9690017">
    <tag k="addr:city" v="Warszawa@Warszawa Ochota"/>
    <tag k="addr:housenumber" v="7"/>
    <tag k="addr:street" v="Białobrzeska"/>
    <tag k="source" v="http://ump.waw.pl/ retrieved 11:07:14 02/24/09 (UMP-Warszawa/src/WARSZAWA_OCHOTA.ulice.txt)"/>
  </node>
  <node id="376344573" version="2" timestamp="2012-01-26T11:07:07Z" uid="99386" user="masti" changeset="10502012" lat="52.2086854" lon="20.9690017"/>
  <node id="376344576" version="1" timestamp="2009-04-15T10:07:15Z" uid="20587" user="balrog-kun" changeset="551593" lat="52.219501" lon="20.9689393">
    <tag k="addr:city" v="Warszawa@Warszawa Ochota"/>
    <tag k="addr:housenumber" v="142"/>
    <tag k="addr:street" v="Aleje Jerozolimskie"/>
    <tag k="source" v="http://ump.waw.pl/ retrieved 11:07:14 02/24/09 (UMP-Warszawa/src/WARSZAWA_OCHOTA.ulice.txt)"/>
  </node>
  <node id="376344579" version="1" timestamp="2009-04-15T10:07:15Z" uid="20587" user="balrog-kun" changeset="551593" lat="52.2067366" lon="20.9860456">
    <tag k="addr:city" v="Warszawa@Warszawa Ochota"/>
    <tag k="addr:housenumber" v="81"/>
    <tag k="addr:street" v="Żwirki i Wigury"/>
    <tag k="source" v="http://ump.waw.pl/ retrieved 11:07:14 02/24/09 (UMP-Warszawa/src/WARSZAWA_OCHOTA.ulice.txt)"/>
  </node>
  <node id="376344581" version="1" timestamp="2009-04-15T10:07:15Z" uid="20587" user="balrog-kun" changeset="551593" lat="52.2109976" lon="20.9643706">
    <tag k="addr:city" v="Warszawa@Warszawa Ochota"/>
    <tag k="addr:housenumber" v="42"/>
    <tag k="addr:street" v="Opaczewska"/>
    <tag k="source" v="http://ump.waw.pl/ retrieved 11:07:14 02/24/09 (UMP-Warszawa/src/WARSZAWA_OCHOTA.ulice.txt)"/>
  </node>
  <node id="376344581" version="2" timestamp="2012-01-26T12:45:38Z" uid="99386" user="masti" changeset="10502792" lat="52.2109976" lon="20.9643706"/>
  <node id="376344585" version="1" timestamp="2009-04-15T10:07:15Z" uid="20587" user="balrog-kun" changeset="551593" lat="52.2047883" lon="20.9717533">
    <tag k="addr:city" v="Warszawa@Warszawa Ochota"/>
    <tag k="addr:housenumber" v="111"/>
    <tag k="addr:street" v="Grójecka"/>
    <tag k="source" v="http://ump.waw.pl/ retrieved 11:07:14 02/24/09 (UMP-Warszawa/src/WARSZAWA_OCHOTA.ulice.txt)"/>
  </node>
  <node id="376344585" version="2" timestamp="2012-01-25T16:03:40Z" uid="99386" user="masti" changeset="10494955" lat="52.2047883" lon="20.9717533"/>
  <node id="376344587" version="1" timestamp="2009-04-15T10:07:15Z" uid="20587" user="balrog-kun" changeset="551593" lat="52.2054556" lon="20.9741144">
    <tag k="addr:city" v="Warszawa@Warszawa Ochota"/>
    <tag k="addr:housenumber" v="10"/>
    <tag k="addr:street" v="Dickensa"/>
    <tag k="source" v="http://ump.waw.pl/ retrieved 11:07:14 02/24/09 (UMP-Warszawa/src/WARSZAWA_OCHOTA.ulice.txt)"/>
  </node>
  <node id="376344587" version="2" timestamp="2011-12-03T09:14:31Z" uid="441027" user="muzzy" changeset="10022896" lat="52.2054556" lon="20.9741144">
    <tag k="addr:city" v="Warszawa@Warszawa Ochota"/>
    <tag k="addr:housenumber" v="10"/>
    <tag k="addr:street" v="Karola Dickensa"/>
    <tag k="source" v="http://ump.waw.pl/ retrieved 11:07:14 02/24/09 (UMP-Warszawa/src/WARSZAWA_OCHOTA.ulice.txt)"/>
  </node>
  <node id="376344587" version="3" timestamp="2012-01-26T08:54:10Z" uid="99386" user="masti" changeset="10500976" lat="52.2054556" lon="20.9741144"/>
  <node id="376344590" version="1" timestamp="2009-04-15T10:07:15Z" uid="20587" user="balrog-kun" changeset="551593" lat="52.2035354" lon="20.9716577">
    <tag k="addr:city" v="Warszawa@Warszawa Ochota"/>
    <tag k="addr:housenumber" v="32"/>
    <tag k="addr:street" v="Skorochód-Majewskiego"/>
    <tag k="source" v="http://ump.waw.pl/ retrieved 11:07:14 02/24/09 (UMP-Warszawa/src/WARSZAWA_OCHOTA.ulice.txt)"/>
  </node>
  <node id="376344590" version="2" timestamp="2011-12-03T09:15:15Z" uid="441027" user="muzzy" changeset="10022896" lat="52.2035354" lon="20.9716577">
    <tag k="addr:city" v="Warszawa@Warszawa Ochota"/>
    <tag k="addr:housenumber" v="32"/>
    <tag k="addr:street" v="Walentego Skorochód-Majewskiego"/>
    <tag k="source" v="http://ump.waw.pl/ retrieved 11:07:14 02/24/09 (UMP-Warszawa/src/WARSZAWA_OCHOTA.ulice.txt)"/>
  </node>
  <node id="376344590" version="3" timestamp="2012-01-25T16:03:40Z" uid="99386" user="masti" changeset="10494955" lat="52.2035354" lon="20.9716577"/>
  <node id="376344593" version="1" timestamp="2009-04-15T10:07:16Z" uid="20587" user="balrog-kun" changeset="551593" lat="52.2043998" lon="20.9753969">
    <tag k="addr:city" v="Warszawa@Warszawa Ochota"/>
    <tag k="addr:housenumber" v="22"/>
    <tag k="addr:street" v="Pawińskiego"/>
    <tag k="source" v="http://ump.waw.pl/ retrieved 11:07:14 02/24/09 (UMP-Warszawa/src/WARSZAWA_OCHOTA.ulice.txt)"/>
  </node>
  <node id="376344593" version="2" timestamp="2011-12-03T09:15:00Z" uid="441027" user="muzzy" changeset="10022896" lat="52.2043998" lon="20.9753969">
    <tag k="addr:city" v="Warszawa@Warszawa Ochota"/>
    <tag k="addr:housenumber" v="22"/>
    <tag k="addr:street" v="Adolfa Pawińskiego"/>
    <tag k="source" v="http://ump.waw.pl/ retrieved 11:07:14 02/24/09 (UMP-Warszawa/src/WARSZAWA_OCHOTA.ulice.txt)"/>
  </node>
  <node id="376344593" version="3" timestamp="2012-01-25T16:21:50Z" uid="99386" user="masti" changeset="10495110" lat="52.2043998" lon="20.9753969"/>
  <node id="376344595" version="1" timestamp="2009-04-15T10:07:16Z" uid="20587" user="balrog-kun" changeset="551593" lat="52.2184574" lon="20.9758522">
    <tag k="addr:city" v="Warszawa@Warszawa Ochota"/>
    <tag k="addr:housenumber" v="2"/>
    <tag k="addr:street" v="Grzymały"/>
    <tag k="source" v="http://ump.waw.pl/ retrieved 11:07:14 02/24/09 (UMP-Warszawa/src/WARSZAWA_OCHOTA.ulice.txt)"/>
  </node>
  <node id="376344595" version="2" timestamp="2010-04-28T10:38:55Z" uid="277335" user="hateregs" changeset="4548273" lat="52.2184574" lon="20.9758522">
    <tag k="addr:city" v="Warszawa@Warszawa Ochota"/>
    <tag k="addr:housenumber" v="2"/>
    <tag k="addr:street" v="Grzymały"/>
    <tag k="source" v="http://ump.waw.pl/ retrieved 11:07:14 02/24/09 (UMP-Warszawa/src/WARSZAWA_OCHOTA.ulice.txt)"/>
  </node>
  <node id="376344595" version="3" timestamp="2010-04-28T10:42:54Z" uid="277335" user="hateregs" changeset="4548273" lat="52.2184574" lon="20.9758522">
    <tag k="addr:city" v="Warszawa@Warszawa Ochota"/>
    <tag k="addr:housenumber" v="2"/>
    <tag k="addr:street" v="Grzymały"/>
    <tag k="source" v="http://ump.waw.pl/ retrieved 11:07:14 02/24/09 (UMP-Warszawa/src/WARSZAWA_OCHOTA.ulice.txt)"/>
  </node>
  <node id="376344599" version="1" timestamp="2009-04-15T10:07:16Z" uid="20587" user="balrog-kun" changeset="551593" lat="52.2018865" lon="20.9732924">
    <tag k="addr:city" v="Warszawa@Warszawa Ochota"/>
    <tag k="addr:housenumber" v="34"/>
    <tag k="addr:street" v="Pawińskiego"/>
    <tag k="source" v="http://ump.waw.pl/ retrieved 11:07:14 02/24/09 (UMP-Warszawa/src/WARSZAWA_OCHOTA.ulice.txt)"/>
  </node>
  <node id="376344599" version="2" timestamp="2011-12-03T09:15:16Z" uid="441027" user="muzzy" changeset="10022896" lat="52.2018865" lon="20.9732924">
    <tag k="addr:city" v="Warszawa@Warszawa Ochota"/>
    <tag k="addr:housenumber" v="34"/>
    <tag k="addr:street" v="Adolfa Pawińskiego"/>
    <tag k="source" v="http://ump.waw.pl/ retrieved 11:07:14 02/24/09 (UMP-Warszawa/src/WARSZAWA_OCHOTA.ulice.txt)"/>
  </node>
  <node id="376344599" version="3" timestamp="2012-01-25T16:21:51Z" uid="99386" user="masti" changeset="10495110" lat="52.2018865" lon="20.9732924"/>
  <node id="376344601" version="1" timestamp="2009-04-15T10:07:16Z" uid="20587" user="balrog-kun" changeset="551593" lat="52.2116407" lon="20.9656449">
    <tag k="addr:city" v="Warszawa@Warszawa Ochota"/>
    <tag k="addr:housenumber" v="62"/>
    <tag k="addr:street" v="Szczęśliwicka"/>
    <tag k="source" v="http://ump.waw.pl/ retrieved 11:07:14 02/24/09 (UMP-Warszawa/src/WARSZAWA_OCHOTA.ulice.txt)"/>
  </node>
  <node id="376344601" version="2" timestamp="2012-01-26T12:03:33Z" uid="99386" user="masti" changeset="10502427" lat="52.2116407" lon="20.9656449"/>
  <node id="376344606" version="1" timestamp="2009-04-15T10:07:16Z" uid="20587" user="balrog-kun" changeset="551593" lat="52.2096597" lon="20.9674862">
    <tag k="addr:city" v="Warszawa@Warszawa Ochota"/>
    <tag k="addr:housenumber" v="23"/>
    <tag k="addr:street" v="Opaczewska"/>
    <tag k="source" v="http://ump.waw.pl/ retrieved 11:07:14 02/24/09 (UMP-Warszawa/src/WARSZAWA_OCHOTA.ulice.txt)"/>
  </node>
  <node id="376344606" version="2" timestamp="2011-09-10T06:24:36Z" uid="477744" user="hormel" changeset="9259565" lat="52.2096597" lon="20.9674862"/>
  <node id="376344608" version="1" timestamp="2009-04-15T10:07:16Z" uid="20587" user="balrog-kun" changeset="551593" lat="52.2095818" lon="20.9638895">
    <tag k="addr:city" v="Warszawa@Warszawa Ochota"/>
    <tag k="addr:housenumber" v="80"/>
    <tag k="addr:street" v="Szczęśliwicka"/>
    <tag k="source" v="http://ump.waw.pl/ retrieved 11:07:14 02/24/09 (UMP-Warszawa/src/WARSZAWA_OCHOTA.ulice.txt)"/>
  </node>
  <node id="376344608" version="2" timestamp="2012-01-26T11:56:02Z" uid="99386" user="masti" changeset="10502362" lat="52.2095818" lon="20.9638895"/>
  <node id="376344612" version="1" timestamp="2009-04-15T10:07:16Z" uid="20587" user="balrog-kun" changeset="551593" lat="52.2080686" lon="20.9746168">
    <tag k="addr:city" v="Warszawa@Warszawa Ochota"/>
    <tag k="addr:housenumber" v="93"/>
    <tag k="addr:street" v="Grójecka"/>
    <tag k="source" v="http://ump.waw.pl/ retrieved 11:07:14 02/24/09 (UMP-Warszawa/src/WARSZAWA_OCHOTA.ulice.txt)"/>
  </node>
  <node id="376344612" version="2" timestamp="2012-01-26T09:41:39Z" uid="99386" user="masti" changeset="10501326" lat="52.2080686" lon="20.9746168"/>
  <node id="376344614" version="1" timestamp="2009-04-15T10:07:17Z" uid="20587" user="balrog-kun" changeset="551593" lat="52.212861" lon="20.966897">
    <tag k="addr:city" v="Warszawa@Warszawa Ochota"/>
    <tag k="addr:housenumber" v="58"/>
    <tag k="addr:street" v="Szczęśliwicka"/>
    <tag k="source" v="http://ump.waw.pl/ retrieved 11:07:14 02/24/09 (UMP-Warszawa/src/WARSZAWA_OCHOTA.ulice.txt)"/>
  </node>
  <node id="376344616" version="1" timestamp="2009-04-15T10:07:17Z" uid="20587" user="balrog-kun" changeset="551593" lat="52.2049907" lon="20.9754041">
    <tag k="addr:city" v="Warszawa@Warszawa Ochota"/>
    <tag k="addr:housenumber" v="11"/>
    <tag k="addr:street" v="Siemieńskiego"/>
    <tag k="source" v="http://ump.waw.pl/ retrieved 11:07:14 02/24/09 (UMP-Warszawa/src/WARSZAWA_OCHOTA.ulice.txt)"/>
  </node>
  <node id="376344616" version="2" timestamp="2011-12-03T09:14:34Z" uid="441027" user="muzzy" changeset="10022896" lat="52.2049907" lon="20.9754041">
    <tag k="addr:city" v="Warszawa@Warszawa Ochota"/>
    <tag k="addr:housenumber" v="11"/>
    <tag k="addr:street" v="Józefa Jana Siemieńskiego"/>
    <tag k="source" v="http://ump.waw.pl/ retrieved 11:07:14 02/24/09 (UMP-Warszawa/src/WARSZAWA_OCHOTA.ulice.txt)"/>
  </node>
  <node id="376344616" version="3" timestamp="2012-01-26T09:20:58Z" uid="99386" user="masti" changeset="10501164" lat="52.2049907" lon="20.9754041"/>
  <node id="376344620" version="1" timestamp="2009-04-15T10:07:17Z" uid="20587" user="balrog-kun" changeset="551593" lat="52.2096917" lon="20.9740462">
    <tag k="addr:city" v="Warszawa@Warszawa Ochota"/>
    <tag k="addr:housenumber" v="5"/>
    <tag k="addr:street" v="Opaczewska"/>
    <tag k="source" v="http://ump.waw.pl/ retrieved 11:07:14 02/24/09 (UMP-Warszawa/src/WARSZAWA_OCHOTA.ulice.txt)"/>
  </node>
  <node id="376344622" version="1" timestamp="2009-04-15T10:07:17Z" uid="20587" user="balrog-kun" changeset="551593" lat="52.2067722" lon="20.9638623">
    <tag k="addr:city" v="Warszawa@Warszawa Ochota"/>
    <tag k="addr:housenumber" v="31"/>
    <tag k="addr:street" v="Dickensa"/>
    <tag k="source" v="http://ump.waw.pl/ retrieved 11:07:14 02/24/09 (UMP-Warszawa/src/WARSZAWA_OCHOTA.ulice.txt)"/>
  </node>
  <node id="376344622" version="2" timestamp="2010-12-04T04:20:10Z" uid="20587" user="balrog-kun" changeset="6534205" lat="52.2067722" lon="20.9638623">
    <tag k="addr:city" v="Warszawa@Warszawa Ochota"/>
    <tag k="addr:housenumber" v="31"/>
    <tag k="addr:street" v="Dickensa"/>
    <tag k="source" v="http://ump.waw.pl/ retrieved 11:07:14 02/24/09 (UMP-Warszawa/src/WARSZAWA_OCHOTA.ulice.txt)"/>
  </node>
  <node id="376344625" version="1" timestamp="2009-04-15T10:07:17Z" uid="20587" user="balrog-kun" changeset="551593" lat="52.2166733" lon="20.9760016">
    <tag k="addr:city" v="Warszawa@Warszawa Ochota"/>
    <tag k="addr:housenumber" v="37"/>
    <tag k="addr:street" v="Białobrzeska"/>
    <tag k="source" v="http://ump.waw.pl/ retrieved 11:07:14 02/24/09 (UMP-Warszawa/src/WARSZAWA_OCHOTA.ulice.txt)"/>
  </node>
  <node id="376344626" version="1" timestamp="2009-04-15T10:07:17Z" uid="20587" user="balrog-kun" changeset="551593" lat="52.2081353" lon="20.977429">
    <tag k="addr:city" v="Warszawa@Warszawa Ochota"/>
    <tag k="addr:housenumber" v="5"/>
    <tag k="addr:street" v="Archiwalna"/>
    <tag k="source" v="http://ump.waw.pl/ retrieved 11:07:14 02/24/09 (UMP-Warszawa/src/WARSZAWA_OCHOTA.ulice.txt)"/>
  </node>
  <node id="376344626" version="2" timestamp="2012-01-26T09:34:15Z" uid="99386" user="masti" changeset="10501267" lat="52.2081353" lon="20.977429"/>
  <node id="376344627" version="1" timestamp="2009-04-15T10:07:17Z" uid="20587" user="balrog-kun" changeset="551593" lat="52.2155533" lon="20.9706161">
    <tag k="addr:city" v="Warszawa@Warszawa Ochota"/>
    <tag k="addr:housenumber" v="29"/>
    <tag k="addr:street" v="Szczęśliwicka"/>
    <tag k="source" v="http://ump.waw.pl/ retrieved 11:07:14 02/24/09 (UMP-Warszawa/src/WARSZAWA_OCHOTA.ulice.txt)"/>
  </node>
  <node id="376344630" version="1" timestamp="2009-04-15T10:07:18Z" uid="20587" user="balrog-kun" changeset="551593" lat="52.2020199" lon="20.9750076">
    <tag k="addr:city" v="Warszawa@Warszawa Ochota"/>
    <tag k="addr:housenumber" v="29"/>
    <tag k="addr:street" v="Pruszkowska"/>
    <tag k="source" v="http://ump.waw.pl/ retrieved 11:07:14 02/24/09 (UMP-Warszawa/src/WARSZAWA_OCHOTA.ulice.txt)"/>
  </node>
  <node id="376344631" version="1" timestamp="2009-04-15T10:07:18Z" uid="20587" user="balrog-kun" changeset="551593" lat="52.202661" lon="20.9739562">
    <tag k="addr:city" v="Warszawa@Warszawa Ochota"/>
    <tag k="addr:housenumber" v="30"/>
    <tag k="addr:street" v="Pawińskiego"/>
    <tag k="source" v="http://ump.waw.pl/ retrieved 11:07:14 02/24/09 (UMP-Warszawa/src/WARSZAWA_OCHOTA.ulice.txt)"/>
  </node>
  <node id="376344631" version="2" timestamp="2011-12-03T09:15:13Z" uid="441027" user="muzzy" changeset="10022896" lat="52.202661" lon="20.9739562">
    <tag k="addr:city" v="Warszawa@Warszawa Ochota"/>
    <tag k="addr:housenumber" v="30"/>
    <tag k="addr:street" v="Adolfa Pawińskiego"/>
    <tag k="source" v="http://ump.waw.pl/ retrieved 11:07:14 02/24/09 (UMP-Warszawa/src/WARSZAWA_OCHOTA.ulice.txt)"/>
  </node>
  <node id="376344631" version="3" timestamp="2012-01-25T16:21:51Z" uid="99386" user="masti" changeset="10495110" lat="52.202661" lon="20.9739562"/>
  <node id="376344634" version="1" timestamp="2009-04-15T10:07:18Z" uid="20587" user="balrog-kun" changeset="551593" lat="52.2065238" lon="20.9767699">
    <tag k="addr:city" v="Warszawa@Warszawa Ochota"/>
    <tag k="addr:housenumber" v="7"/>
    <tag k="addr:street" v="Siemieńskiego"/>
    <tag k="source" v="http://ump.waw.pl/ retrieved 11:07:14 02/24/09 (UMP-Warszawa/src/WARSZAWA_OCHOTA.ulice.txt)"/>
  </node>
  <node id="376344634" version="2" timestamp="2011-12-03T09:15:40Z" uid="441027" user="muzzy" changeset="10022896" lat="52.2065238" lon="20.9767699">
    <tag k="addr:city" v="Warszawa@Warszawa Ochota"/>
    <tag k="addr:housenumber" v="7"/>
    <tag k="addr:street" v="Józefa Jana Siemieńskiego"/>
    <tag k="source" v="http://ump.waw.pl/ retrieved 11:07:14 02/24/09 (UMP-Warszawa/src/WARSZAWA_OCHOTA.ulice.txt)"/>
  </node>
  <node id="376344634" version="3" timestamp="2012-01-26T09:20:59Z" uid="99386" user="masti" changeset="10501164" lat="52.2065238" lon="20.9767699"/>
  <node id="376344635" version="1" timestamp="2009-04-15T10:07:18Z" uid="20587" user="balrog-kun" changeset="551593" lat="52.2198461" lon="20.9723042">
    <tag k="addr:city" v="Warszawa@Warszawa Ochota"/>
    <tag k="addr:housenumber" v="159"/>
    <tag k="addr:street" v="Aleje Jerozolimskie"/>
    <tag k="source" v="http://ump.waw.pl/ retrieved 11:07:14 02/24/09 (UMP-Warszawa/src/WARSZAWA_OCHOTA.ulice.txt)"/>
  </node>
  <node id="376344638" version="1" timestamp="2009-04-15T10:07:18Z" uid="20587" user="balrog-kun" changeset="551593" lat="52.2080363" lon="20.9684379">
    <tag k="addr:city" v="Warszawa@Warszawa Ochota"/>
    <tag k="addr:housenumber" v="3"/>
    <tag k="addr:street" v="Białobrzeska"/>
    <tag k="source" v="http://ump.waw.pl/ retrieved 11:07:14 02/24/09 (UMP-Warszawa/src/WARSZAWA_OCHOTA.ulice.txt)"/>
  </node>
  <node id="376344638" version="2" timestamp="2012-01-26T11:07:07Z" uid="99386" user="masti" changeset="10502012" lat="52.2080363" lon="20.9684379"/>
  <node id="376344639" version="1" timestamp="2009-04-15T10:07:19Z" uid="20587" user="balrog-kun" changeset="551593" lat="52.2112757" lon="20.9723694">
    <tag k="addr:city" v="Warszawa@Warszawa Ochota"/>
    <tag k="addr:housenumber" v="16"/>
    <tag k="addr:street" v="Białobrzeska"/>
    <tag k="source" v="http://ump.waw.pl/ retrieved 11:07:14 02/24/09 (UMP-Warszawa/src/WARSZAWA_OCHOTA.ulice.txt)"/>
  </node>
  <node id="376344641" version="1" timestamp="2009-04-15T10:07:19Z" uid="20587" user="balrog-kun" changeset="551593" lat="52.2021549" lon="20.9775139">
    <tag k="addr:city" v="Warszawa@Warszawa Ochota"/>
    <tag k="addr:housenumber" v="8"/>
    <tag k="addr:street" v="Pruszkowska"/>
    <tag k="source" v="http://ump.waw.pl/ retrieved 11:07:14 02/24/09 (UMP-Warszawa/src/WARSZAWA_OCHOTA.ulice.txt)"/>
  </node>
  <node id="376344642" version="1" timestamp="2009-04-15T10:07:19Z" uid="20587" user="balrog-kun" changeset="551593" lat="52.211986" lon="20.9894008">
    <tag k="addr:city" v="Warszawa@Warszawa Ochota"/>
    <tag k="addr:housenumber" v="34"/>
    <tag k="addr:street" v="Żwirki i Wigury"/>
    <tag k="source" v="http://ump.waw.pl/ retrieved 11:07:14 02/24/09 (UMP-Warszawa/src/WARSZAWA_OCHOTA.ulice.txt)"/>
  </node>
  <node id="376344642" version="2" timestamp="2010-03-31T14:21:18Z" uid="175746" user="RafalR" changeset="4285724" lat="52.211986" lon="20.9894008">
    <tag k="addr:city" v="Warszawa@Warszawa Ochota"/>
    <tag k="addr:housenumber" v="34"/>
    <tag k="addr:street" v="Franciszka Żwirki i Stanisława Wigury"/>
    <tag k="source" v="http://ump.waw.pl/ retrieved 11:07:14 02/24/09 (UMP-Warszawa/src/WARSZAWA_OCHOTA.ulice.txt)"/>
  </node>
  <node id="376344644" version="1" timestamp="2009-04-15T10:07:19Z" uid="20587" user="balrog-kun" changeset="551593" lat="52.2160589" lon="20.9711692">
    <tag k="addr:city" v="Warszawa@Warszawa Ochota"/>
    <tag k="addr:housenumber" v="25"/>
    <tag k="addr:street" v="Szczęśliwicka"/>
    <tag k="source" v="http://ump.waw.pl/ retrieved 11:07:14 02/24/09 (UMP-Warszawa/src/WARSZAWA_OCHOTA.ulice.txt)"/>
  </node>
  <node id="376344645" version="1" timestamp="2009-04-15T10:07:19Z" uid="20587" user="balrog-kun" changeset="551593" lat="52.2190996" lon="20.9773135">
    <tag k="addr:city" v="Warszawa@Warszawa Ochota"/>
    <tag k="addr:housenumber" v="28"/>
    <tag k="addr:street" v="Barska"/>
    <tag k="source" v="http://ump.waw.pl/ retrieved 11:07:14 02/24/09 (UMP-Warszawa/src/WARSZAWA_OCHOTA.ulice.txt)"/>
  </node>
  <node id="376344646" version="1" timestamp="2009-04-15T10:07:20Z" uid="20587" user="balrog-kun" changeset="551593" lat="52.2077129" lon="20.9778537">
    <tag k="addr:city" v="Warszawa@Warszawa Ochota"/>
    <tag k="addr:housenumber" v="3"/>
    <tag k="addr:street" v="Siemieńskiego"/>
    <tag k="source" v="http://ump.waw.pl/ retrieved 11:07:14 02/24/09 (UMP-Warszawa/src/WARSZAWA_OCHOTA.ulice.txt)"/>
  </node>
  <node id="376344646" version="2" timestamp="2011-12-03T09:15:10Z" uid="441027" user="muzzy" changeset="10022896" lat="52.2077129" lon="20.9778537">
    <tag k="addr:city" v="Warszawa@Warszawa Ochota"/>
    <tag k="addr:housenumber" v="3"/>
    <tag k="addr:street" v="Józefa Jana Siemieńskiego"/>
    <tag k="source" v="http://ump.waw.pl/ retrieved 11:07:14 02/24/09 (UMP-Warszawa/src/WARSZAWA_OCHOTA.ulice.txt)"/>
  </node>
  <node id="376344646" version="3" timestamp="2012-01-26T09:20:59Z" uid="99386" user="masti" changeset="10501164" lat="52.2077129" lon="20.9778537"/>
  <node id="376344648" version="1" timestamp="2009-04-15T10:07:20Z" uid="20587" user="balrog-kun" changeset="551593" lat="52.2025283" lon="20.9754837">
    <tag k="addr:city" v="Warszawa@Warszawa Ochota"/>
    <tag k="addr:housenumber" v="12"/>
    <tag k="addr:street" v="Pruszkowska"/>
    <tag k="source" v="http://ump.waw.pl/ retrieved 11:07:14 02/24/09 (UMP-Warszawa/src/WARSZAWA_OCHOTA.ulice.txt)"/>
  </node>
  <node id="376344649" version="1" timestamp="2009-04-15T10:07:20Z" uid="20587" user="balrog-kun" changeset="551593" lat="52.2083529" lon="20.9687129">
    <tag k="addr:city" v="Warszawa@Warszawa Ochota"/>
    <tag k="addr:housenumber" v="5"/>
    <tag k="addr:street" v="Białobrzeska"/>
    <tag k="source" v="http://ump.waw.pl/ retrieved 11:07:14 02/24/09 (UMP-Warszawa/src/WARSZAWA_OCHOTA.ulice.txt)"/>
  </node>
  <node id="376344649" version="2" timestamp="2012-01-26T11:07:07Z" uid="99386" user="masti" changeset="10502012" lat="52.2083529" lon="20.9687129"/>
  <node id="376344651" version="1" timestamp="2009-04-15T10:07:20Z" uid="20587" user="balrog-kun" changeset="551593" lat="52.2173297" lon="20.9759769">
    <tag k="addr:city" v="Warszawa@Warszawa Ochota"/>
    <tag k="addr:housenumber" v="17"/>
    <tag k="addr:street" v="Kopińska"/>
    <tag k="source" v="http://ump.waw.pl/ retrieved 11:07:14 02/24/09 (UMP-Warszawa/src/WARSZAWA_OCHOTA.ulice.txt)"/>
  </node>
  <node id="376344651" version="2" timestamp="2010-04-28T10:31:54Z" uid="277335" user="hateregs" changeset="4548217" lat="52.2170405" lon="20.9759876">
    <tag k="addr:city" v="Warszawa@Warszawa Ochota"/>
    <tag k="addr:housenumber" v="17"/>
    <tag k="addr:street" v="Kopińska"/>
    <tag k="source" v="http://ump.waw.pl/ retrieved 11:07:14 02/24/09 (UMP-Warszawa/src/WARSZAWA_OCHOTA.ulice.txt)"/>
  </node>
  <node id="376344651" version="3" timestamp="2010-04-28T10:34:17Z" uid="277335" user="hateregs" changeset="4548217" lat="52.2170405" lon="20.9759876">
    <tag k="addr:city" v="Warszawa@Warszawa Ochota"/>
    <tag k="addr:housenumber" v="17"/>
    <tag k="addr:street" v="Kopińska"/>
    <tag k="source" v="http://ump.waw.pl/ retrieved 11:07:14 02/24/09 (UMP-Warszawa/src/WARSZAWA_OCHOTA.ulice.txt)"/>
  </node>
  <node id="376344653" version="1" timestamp="2009-04-15T10:07:20Z" uid="20587" user="balrog-kun" changeset="551593" lat="52.2017533" lon="20.9762283">
    <tag k="addr:city" v="Warszawa@Warszawa Ochota"/>
    <tag k="addr:housenumber" v="21"/>
    <tag k="addr:street" v="Pruszkowska"/>
    <tag k="source" v="http://ump.waw.pl/ retrieved 11:07:14 02/24/09 (UMP-Warszawa/src/WARSZAWA_OCHOTA.ulice.txt)"/>
  </node>
  <node id="376344654" version="1" timestamp="2009-04-15T10:07:21Z" uid="20587" user="balrog-kun" changeset="551593" lat="52.2058428" lon="20.9857461">
    <tag k="addr:city" v="Warszawa@Warszawa Ochota"/>
    <tag k="addr:housenumber" v="61"/>
    <tag k="addr:street" v="Żwirki i Wigury"/>
    <tag k="source" v="http://ump.waw.pl/ retrieved 11:07:14 02/24/09 (UMP-Warszawa/src/WARSZAWA_OCHOTA.ulice.txt)"/>
  </node>
  <node id="376344656" version="1" timestamp="2009-04-15T10:07:21Z" uid="20587" user="balrog-kun" changeset="551593" lat="52.2022228" lon="20.984249">
    <tag k="addr:city" v="Warszawa@Warszawa Ochota"/>
    <tag k="addr:housenumber" v="51"/>
    <tag k="addr:street" v="Żwirki i Wigury"/>
    <tag k="source" v="http://ump.waw.pl/ retrieved 11:07:14 02/24/09 (UMP-Warszawa/src/WARSZAWA_OCHOTA.ulice.txt)"/>
  </node>
  <node id="376344657" version="1" timestamp="2009-04-15T10:07:21Z" uid="20587" user="balrog-kun" changeset="551593" lat="52.2045385" lon="20.9893491">
    <tag k="addr:city" v="Warszawa@Warszawa Mokotów"/>
    <tag k="addr:housenumber" v="24"/>
    <tag k="addr:street" v="Żwirki i Wigury"/>
    <tag k="source" v="http://ump.waw.pl/ retrieved 11:07:14 02/24/09 (UMP-Warszawa/src/WARSZAWA_MOKOTOW.ulice.txt)"/>
  </node>
  <node id="376344659" version="1" timestamp="2009-04-15T10:07:21Z" uid="20587" user="balrog-kun" changeset="551593" lat="52.2033794" lon="20.9849216">
    <tag k="addr:city" v="Warszawa@Warszawa Ochota"/>
    <tag k="addr:housenumber" v="53"/>
    <tag k="addr:street" v="Żwirki i Wigury"/>
    <tag k="source" v="http://ump.waw.pl/ retrieved 11:07:14 02/24/09 (UMP-Warszawa/src/WARSZAWA_OCHOTA.ulice.txt)"/>
  </node>
  <node id="376344659" version="2" timestamp="2009-04-27T21:33:46Z" uid="20587" user="balrog-kun" changeset="997728" lat="52.2033794" lon="20.9849216">
    <tag k="addr:city" v="Warszawa@Warszawa Ochota"/>
    <tag k="addr:housenumber" v="53"/>
    <tag k="addr:street" v="Żwirki i Wigury"/>
    <tag k="source" v="http://ump.waw.pl/ retrieved 11:07:14 02/24/09 (UMP-Warszawa/src/WARSZAWA_OCHOTA.ulice.txt)"/>
  </node>
  <node id="376344660" version="1" timestamp="2009-04-15T10:07:21Z" uid="20587" user="balrog-kun" changeset="551593" lat="52.2039977" lon="20.9851543">
    <tag k="addr:city" v="Warszawa@Warszawa Ochota"/>
    <tag k="addr:housenumber" v="55"/>
    <tag k="addr:street" v="Żwirki i Wigury"/>
    <tag k="source" v="http://ump.waw.pl/ retrieved 11:07:14 02/24/09 (UMP-Warszawa/src/WARSZAWA_OCHOTA.ulice.txt)"/>
  </node>
  <node id="376344660" version="2" timestamp="2009-04-27T21:33:46Z" uid="20587" user="balrog-kun" changeset="997728" lat="52.2039977" lon="20.9851543">
    <tag k="addr:city" v="Warszawa@Warszawa Ochota"/>
    <tag k="addr:housenumber" v="55"/>
    <tag k="addr:street" v="Żwirki i Wigury"/>
    <tag k="source" v="http://ump.waw.pl/ retrieved 11:07:14 02/24/09 (UMP-Warszawa/src/WARSZAWA_OCHOTA.ulice.txt)"/>
  </node>
  <node id="376344662" version="1" timestamp="2009-04-15T10:07:22Z" uid="20587" user="balrog-kun" changeset="551593" lat="52.2050819" lon="20.9855624">
    <tag k="addr:city" v="Warszawa@Warszawa Ochota"/>
    <tag k="addr:housenumber" v="59"/>
    <tag k="addr:street" v="Żwirki i Wigury"/>
    <tag k="source" v="http://ump.waw.pl/ retrieved 11:07:14 02/24/09 (UMP-Warszawa/src/WARSZAWA_OCHOTA.ulice.txt)"/>
  </node>
  <node id="376344662" version="2" timestamp="2009-04-27T21:33:46Z" uid="20587" user="balrog-kun" changeset="997728" lat="52.2050819" lon="20.9855624">
    <tag k="addr:city" v="Warszawa@Warszawa Ochota"/>
    <tag k="addr:housenumber" v="59"/>
    <tag k="addr:street" v="Żwirki i Wigury"/>
    <tag k="source" v="http://ump.waw.pl/ retrieved 11:07:14 02/24/09 (UMP-Warszawa/src/WARSZAWA_OCHOTA.ulice.txt)"/>
  </node>
  <node id="376346032" version="2" timestamp="2010-12-19T02:53:06Z" uid="6269" user="Mueck" changeset="6702383" lat="53.5452178" lon="8.5949837"/>
  <node id="376346032" version="3" timestamp="2012-02-19T13:38:22Z" uid="114813" user="Chrisuu" changeset="10729657" lat="53.5452178" lon="8.5949837"/>
  <node id="376346034" version="2" timestamp="2010-12-19T02:53:07Z" uid="6269" user="Mueck" changeset="6702383" lat="53.5452253" lon="8.5950918"/>
  <node id="376346610" version="8" timestamp="2011-03-07T11:52:32Z" uid="4467" user="Rosscoe" changeset="7483372" lat="-37.8170406" lon="145.3784033"/>
  <node id="376346612" version="5" timestamp="2011-03-07T11:52:32Z" uid="4467" user="Rosscoe" changeset="7483372" lat="-37.8168623" lon="145.3782786"/>
  <node id="376346613" version="5" timestamp="2011-03-07T11:52:31Z" uid="4467" user="Rosscoe" changeset="7483372" lat="-37.8166321" lon="145.3782702"/>
  <node id="376346614" version="5" timestamp="2011-03-07T11:52:32Z" uid="4467" user="Rosscoe" changeset="7483372" lat="-37.8164171" lon="145.3783824"/>
  <node id="376346615" version="5" timestamp="2011-03-07T11:52:31Z" uid="4467" user="Rosscoe" changeset="7483372" lat="-37.8162041" lon="145.3787514"/>
  <node id="376346616" version="5" timestamp="2011-03-07T11:52:31Z" uid="4467" user="Rosscoe" changeset="7483372" lat="-37.8162049" lon="145.3790648"/>
  <node id="376346617" version="5" timestamp="2011-03-07T11:52:32Z" uid="4467" user="Rosscoe" changeset="7483372" lat="-37.8166424" lon="145.3795822"/>
  <node id="376346618" version="5" timestamp="2011-03-07T11:52:31Z" uid="4467" user="Rosscoe" changeset="7483372" lat="-37.8169163" lon="145.3795544"/>
  <node id="376346620" version="5" timestamp="2011-03-07T11:52:30Z" uid="4467" user="Rosscoe" changeset="7483372" lat="-37.8171291" lon="145.3793829"/>
  <node id="376346621" version="5" timestamp="2011-03-07T11:52:32Z" uid="4467" user="Rosscoe" changeset="7483372" lat="-37.8172346" lon="145.379037"/>
  <node id="376346623" version="5" timestamp="2011-03-07T11:52:31Z" uid="4467" user="Rosscoe" changeset="7483372" lat="-37.817211" lon="145.3786872"/>
  <node id="376347181" version="8" timestamp="2011-03-07T11:52:32Z" uid="4467" user="Rosscoe" changeset="7483372" lat="-37.8165" lon="145.3782546"/>
  <node id="376347183" version="8" timestamp="2011-03-07T11:52:32Z" uid="4467" user="Rosscoe" changeset="7483372" lat="-37.8162658" lon="145.3784606"/>
  <node id="376347184" version="12" timestamp="2011-03-07T11:52:31Z" uid="4467" user="Rosscoe" changeset="7483372" lat="-37.8161186" lon="145.3789723"/>
  <node id="376347187" version="7" timestamp="2011-03-07T11:50:18Z" uid="4467" user="Rosscoe" changeset="7483347" lat="-37.8110529" lon="145.3812472"/>
  <node id="376347302" version="5" timestamp="2009-08-04T12:06:01Z" uid="4467" user="Rosscoe" changeset="2035025" lat="-37.8152018" lon="145.3783907"/>
  <node id="376347309" version="5" timestamp="2009-08-04T12:03:50Z" uid="4467" user="Rosscoe" changeset="2034997" lat="-37.8136131" lon="145.3746904"/>
  <node id="376347310" version="5" timestamp="2009-08-04T12:03:51Z" uid="4467" user="Rosscoe" changeset="2034997" lat="-37.8133387" lon="145.3731135"/>
  <node id="376344300" version="4" timestamp="2012-07-24T21:45:51Z" uid="722137" user="OSMF Redaction Account" changeset="12477213" lat="52.2117486" lon="20.9717998"/>
  <node id="376344305" version="3" timestamp="2012-07-24T21:45:51Z" uid="722137" user="OSMF Redaction Account" changeset="12477213" lat="52.2110214" lon="20.9738498"/>
  <node id="376344306" version="2" timestamp="2012-07-24T21:46:56Z" uid="722137" user="OSMF Redaction Account" changeset="12477258" lat="52.2157014" lon="20.9707586"/>
  <node id="376344308" version="3" timestamp="2012-07-24T21:46:53Z" uid="722137" user="OSMF Redaction Account" changeset="12477258" lat="52.2074259" lon="20.9767866"/>
  <node id="376344311" version="2" timestamp="2012-07-24T21:46:55Z" uid="722137" user="OSMF Redaction Account" changeset="12477258" lat="52.2125102" lon="20.9664922"/>
  <node id="376344314" version="3" timestamp="2012-07-24T21:46:53Z" uid="722137" user="OSMF Redaction Account" changeset="12477258" lat="52.2071545" lon="20.9692125"/>
  <node id="376344318" version="5" timestamp="2012-07-24T21:46:57Z" uid="722137" user="OSMF Redaction Account" changeset="12477258" lat="52.2171516" lon="20.973922"/>
  <node id="376344320" version="2" timestamp="2012-07-24T21:46:56Z" uid="722137" user="OSMF Redaction Account" changeset="12477258" lat="52.2158408" lon="20.9752235"/>
  <node id="376344323" version="2" timestamp="2012-07-24T21:46:51Z" uid="722137" user="OSMF Redaction Account" changeset="12477258" lat="52.203089" lon="20.9775184"/>
  <node id="376344325" version="2" timestamp="2012-07-24T21:46:53Z" uid="722137" user="OSMF Redaction Account" changeset="12477258" lat="52.2063324" lon="20.967634"/>
  <node id="376344328" version="3" timestamp="2012-07-24T21:46:52Z" uid="722137" user="OSMF Redaction Account" changeset="12477258" lat="52.2034692" lon="20.9756807"/>
  <node id="376344338" version="2" timestamp="2012-07-24T21:46:56Z" uid="722137" user="OSMF Redaction Account" changeset="12477258" lat="52.2164825" lon="20.9715757"/>
  <node id="376344340" version="2" timestamp="2012-07-24T21:46:52Z" uid="722137" user="OSMF Redaction Account" changeset="12477258" lat="52.2037718" lon="20.9762774"/>
  <node id="376344344" version="2" timestamp="2012-07-24T21:46:56Z" uid="722137" user="OSMF Redaction Account" changeset="12477258" lat="52.2170562" lon="20.9762864"/>
  <node id="376344347" version="2" timestamp="2012-07-24T21:46:52Z" uid="722137" user="OSMF Redaction Account" changeset="12477258" lat="52.2034296" lon="20.9772434"/>
  <node id="376344349" version="2" timestamp="2012-07-24T21:46:57Z" uid="722137" user="OSMF Redaction Account" changeset="12477258" lat="52.2178815" lon="20.9736969"/>
  <node id="376344354" version="3" timestamp="2012-04-10T21:55:09Z" uid="475943" user="sir-mapalot" changeset="11258809" lat="52.2070024" lon="20.9714916"/>
  <node id="376344357" version="2" timestamp="2012-07-24T21:46:59Z" uid="722137" user="OSMF Redaction Account" changeset="12477258" lat="52.2192073" lon="20.9741211"/>
  <node id="376344359" version="2" timestamp="2012-07-24T21:46:57Z" uid="722137" user="OSMF Redaction Account" changeset="12477258" lat="52.2177757" lon="20.9757692"/>
  <node id="376344360" version="2" timestamp="2012-07-24T21:46:56Z" uid="722137" user="OSMF Redaction Account" changeset="12477258" lat="52.2170869" lon="20.979786"/>
  <node id="376344362" version="2" timestamp="2012-07-24T21:46:55Z" uid="722137" user="OSMF Redaction Account" changeset="12477258" lat="52.2129301" lon="20.9724059"/>
  <node id="376344366" version="3" timestamp="2012-07-24T21:46:54Z" uid="722137" user="OSMF Redaction Account" changeset="12477258" lat="52.2096906" lon="20.9738066"/>
  <node id="376344378" version="3" timestamp="2012-07-24T21:46:55Z" uid="722137" user="OSMF Redaction Account" changeset="12477258" lat="52.2118348" lon="20.9697458"/>
  <node id="376344383" version="3" timestamp="2012-07-24T21:46:54Z" uid="722137" user="OSMF Redaction Account" changeset="12477258" lat="52.2110729" lon="20.9891163"/>
  <node id="376344388" version="3" timestamp="2012-07-24T21:46:54Z" uid="722137" user="OSMF Redaction Account" changeset="12477258" lat="52.2079454" lon="20.9662436"/>
  <node id="376344404" version="2" timestamp="2012-07-24T21:46:57Z" uid="722137" user="OSMF Redaction Account" changeset="12477258" lat="52.2180881" lon="20.9719379"/>
  <node id="376344410" version="3" timestamp="2012-07-24T21:46:53Z" uid="722137" user="OSMF Redaction Account" changeset="12477258" lat="52.2063898" lon="20.971706"/>
  <node id="376344416" version="2" timestamp="2012-07-24T21:46:57Z" uid="722137" user="OSMF Redaction Account" changeset="12477258" lat="52.217922" lon="20.9730413"/>
  <node id="376344434" version="3" timestamp="2012-07-24T21:46:53Z" uid="722137" user="OSMF Redaction Account" changeset="12477258" lat="52.2049848" lon="20.9740927"/>
  <node id="376344444" version="3" timestamp="2012-07-24T21:46:54Z" uid="722137" user="OSMF Redaction Account" changeset="12477258" lat="52.2095705" lon="20.9731636"/>
  <node id="376344446" version="2" timestamp="2012-07-24T21:46:54Z" uid="722137" user="OSMF Redaction Account" changeset="12477258" lat="52.2098814" lon="20.9615458"/>
  <node id="376344448" version="2" timestamp="2012-07-24T21:46:49Z" uid="722137" user="OSMF Redaction Account" changeset="12477258" lat="52.2016192" lon="20.9776154"/>
  <node id="376344452" version="3" timestamp="2012-07-24T21:45:53Z" uid="722137" user="OSMF Redaction Account" changeset="12477213" lat="52.2163515" lon="20.9700931"/>
  <node id="376344466" version="2" timestamp="2012-07-24T21:46:53Z" uid="722137" user="OSMF Redaction Account" changeset="12477258" lat="52.2070635" lon="20.9878392"/>
  <node id="376344467" version="3" timestamp="2012-07-24T21:45:53Z" uid="722137" user="OSMF Redaction Account" changeset="12477213" lat="52.216841" lon="20.9700379"/>
  <node id="376344478" version="3" timestamp="2012-07-24T21:45:53Z" uid="722137" user="OSMF Redaction Account" changeset="12477213" lat="52.2171498" lon="20.970796"/>
  <node id="376344485" version="2" timestamp="2012-07-24T21:46:56Z" uid="722137" user="OSMF Redaction Account" changeset="12477258" lat="52.2161776" lon="20.9755383"/>
  <node id="376344494" version="3" timestamp="2012-07-24T21:46:53Z" uid="722137" user="OSMF Redaction Account" changeset="12477258" lat="52.2070925" lon="20.9708971"/>
  <node id="376344501" version="2" timestamp="2012-07-24T21:46:58Z" uid="722137" user="OSMF Redaction Account" changeset="12477258" lat="52.2188118" lon="20.977202"/>
  <node id="376344502" version="2" timestamp="2012-07-24T21:46:56Z" uid="722137" user="OSMF Redaction Account" changeset="12477258" lat="52.2169233" lon="20.9719989"/>
  <node id="376344505" version="3" timestamp="2012-07-24T21:46:54Z" uid="722137" user="OSMF Redaction Account" changeset="12477258" lat="52.20792" lon="20.9698055"/>
  <node id="376344506" version="3" timestamp="2012-07-24T21:46:55Z" uid="722137" user="OSMF Redaction Account" changeset="12477258" lat="52.2121584" lon="20.970038"/>
  <node id="376344514" version="2" timestamp="2012-06-13T07:21:46Z" uid="99386" user="masti" changeset="11881872" lat="52.2144921" lon="20.9681038"/>
  <node id="376344518" version="2" timestamp="2012-07-24T21:46:56Z" uid="722137" user="OSMF Redaction Account" changeset="12477258" lat="52.216397" lon="20.9757434"/>
  <node id="376344527" version="2" timestamp="2012-07-24T21:46:57Z" uid="722137" user="OSMF Redaction Account" changeset="12477258" lat="52.2173158" lon="20.9723609"/>
  <node id="376344532" version="3" timestamp="2012-07-24T21:46:51Z" uid="722137" user="OSMF Redaction Account" changeset="12477258" lat="52.2021792" lon="20.973256"/>
  <node id="376344534" version="2" timestamp="2012-07-24T21:46:51Z" uid="722137" user="OSMF Redaction Account" changeset="12477258" lat="52.2022612" lon="20.9762402"/>
  <node id="376344540" version="2" timestamp="2012-07-24T21:46:57Z" uid="722137" user="OSMF Redaction Account" changeset="12477258" lat="52.2182026" lon="20.9731825"/>
  <node id="376344541" version="2" timestamp="2012-07-24T21:46:55Z" uid="722137" user="OSMF Redaction Account" changeset="12477258" lat="52.212203" lon="20.9674846"/>
  <node id="376344545" version="2" timestamp="2012-07-24T21:46:51Z" uid="722137" user="OSMF Redaction Account" changeset="12477258" lat="52.2026013" lon="20.9776188"/>
  <node id="376344554" version="2" timestamp="2012-07-24T21:46:58Z" uid="722137" user="OSMF Redaction Account" changeset="12477258" lat="52.218963" lon="20.9740895"/>
  <node id="376344558" version="2" timestamp="2012-07-24T21:46:57Z" uid="722137" user="OSMF Redaction Account" changeset="12477258" lat="52.217488" lon="20.9728666"/>
  <node id="376344568" version="3" timestamp="2012-07-24T21:46:53Z" uid="722137" user="OSMF Redaction Account" changeset="12477258" lat="52.2069461" lon="20.9695614"/>
  <node id="376344570" version="3" timestamp="2012-07-24T21:46:52Z" uid="722137" user="OSMF Redaction Account" changeset="12477258" lat="52.203865" lon="20.9735722"/>
  <node id="376344576" version="2" timestamp="2012-07-24T21:46:59Z" uid="722137" user="OSMF Redaction Account" changeset="12477258" lat="52.219501" lon="20.9689393"/>
  <node id="376344579" version="2" timestamp="2012-07-24T21:46:53Z" uid="722137" user="OSMF Redaction Account" changeset="12477258" lat="52.2067366" lon="20.9860456"/>
  <node id="376344614" version="2" timestamp="2012-07-24T21:46:55Z" uid="722137" user="OSMF Redaction Account" changeset="12477258" lat="52.212861" lon="20.966897"/>
  <node id="376344620" version="2" timestamp="2012-07-24T21:46:54Z" uid="722137" user="OSMF Redaction Account" changeset="12477258" lat="52.2096917" lon="20.9740462"/>
  <node id="376344625" version="2" timestamp="2012-07-24T21:46:56Z" uid="722137" user="OSMF Redaction Account" changeset="12477258" lat="52.2166733" lon="20.9760016"/>
  <node id="376344627" version="2" timestamp="2012-07-24T21:46:56Z" uid="722137" user="OSMF Redaction Account" changeset="12477258" lat="52.2155533" lon="20.9706161"/>
  <node id="376344630" version="2" timestamp="2012-07-24T21:46:50Z" uid="722137" user="OSMF Redaction Account" changeset="12477258" lat="52.2020199" lon="20.9750076"/>
  <node id="376344635" version="2" timestamp="2012-07-24T21:47:00Z" uid="722137" user="OSMF Redaction Account" changeset="12477258" lat="52.2198461" lon="20.9723042"/>
  <node id="376344639" version="2" timestamp="2012-07-24T21:46:54Z" uid="722137" user="OSMF Redaction Account" changeset="12477258" lat="52.2112757" lon="20.9723694"/>
  <node id="376344641" version="2" timestamp="2012-07-24T21:46:51Z" uid="722137" user="OSMF Redaction Account" changeset="12477258" lat="52.2021549" lon="20.9775139"/>
  <node id="376344642" version="3" timestamp="2012-07-24T21:46:55Z" uid="722137" user="OSMF Redaction Account" changeset="12477258" lat="52.211986" lon="20.9894008"/>
  <node id="376344644" version="2" timestamp="2012-07-24T21:46:56Z" uid="722137" user="OSMF Redaction Account" changeset="12477258" lat="52.2160589" lon="20.9711692"/>
  <node id="376344645" version="2" timestamp="2012-07-24T21:46:58Z" uid="722137" user="OSMF Redaction Account" changeset="12477258" lat="52.2190996" lon="20.9773135"/>
  <node id="376344648" version="2" timestamp="2012-07-24T21:46:51Z" uid="722137" user="OSMF Redaction Account" changeset="12477258" lat="52.2025283" lon="20.9754837"/>
  <node id="376344651" version="4" timestamp="2012-07-24T21:46:56Z" uid="722137" user="OSMF Redaction Account" changeset="12477258" lat="52.2170405" lon="20.9759876"/>
  <node id="376344653" version="2" timestamp="2012-07-24T21:46:50Z" uid="722137" user="OSMF Redaction Account" changeset="12477258" lat="52.2017533" lon="20.9762283"/>
  <node id="376344654" version="2" timestamp="2012-07-24T21:46:53Z" uid="722137" user="OSMF Redaction Account" changeset="12477258" lat="52.2058428" lon="20.9857461"/>
  <node id="376344656" version="2" timestamp="2012-07-24T21:46:51Z" uid="722137" user="OSMF Redaction Account" changeset="12477258" lat="52.2022228" lon="20.984249"/>
  <node id="376344657" version="2" timestamp="2012-07-24T21:46:52Z" uid="722137" user="OSMF Redaction Account" changeset="12477258" lat="52.2045385" lon="20.9893491"/>
  <node id="376346034" version="3" timestamp="2012-07-17T10:10:52Z" uid="722137" user="OSMF Redaction Account" changeset="12262658" lat="53.5452864" lon="8.5950728"/>
  <node id="376346034" version="4" timestamp="2012-08-14T20:38:30Z" uid="114813" user="Chrisuu" changeset="12731120" lat="53.545225" lon="8.5950559"/>
  <node id="376346610" version="9" timestamp="2012-07-19T18:41:15Z" uid="722137" user="OSMF Redaction Account" changeset="12343518" lat="-37.8170406" lon="145.3784033"/>
  <node id="376346612" version="6" timestamp="2012-07-19T18:41:15Z" uid="722137" user="OSMF Redaction Account" changeset="12343518" lat="-37.8168623" lon="145.3782786"/>
  <node id="376346613" version="6" timestamp="2012-07-19T18:41:16Z" uid="722137" user="OSMF Redaction Account" changeset="12343518" lat="-37.8166321" lon="145.3782702"/>
  <node id="376346614" version="6" timestamp="2012-07-19T18:41:16Z" uid="722137" user="OSMF Redaction Account" changeset="12343518" lat="-37.8164171" lon="145.3783824"/>
  <node id="376346615" version="6" timestamp="2012-07-19T18:41:17Z" uid="722137" user="OSMF Redaction Account" changeset="12343518" lat="-37.8162041" lon="145.3787514"/>
  <node id="376346616" version="6" timestamp="2012-07-19T18:41:17Z" uid="722137" user="OSMF Redaction Account" changeset="12343518" lat="-37.8162049" lon="145.3790648"/>
  <node id="376346617" version="6" timestamp="2012-07-19T18:41:16Z" uid="722137" user="OSMF Redaction Account" changeset="12343518" lat="-37.8166424" lon="145.3795822"/>
  <node id="376346618" version="6" timestamp="2012-07-19T18:41:15Z" uid="722137" user="OSMF Redaction Account" changeset="12343518" lat="-37.8169163" lon="145.3795544"/>
  <node id="376346620" version="6" timestamp="2012-07-19T18:41:15Z" uid="722137" user="OSMF Redaction Account" changeset="12343518" lat="-37.8171291" lon="145.3793829"/>
  <node id="376346621" version="6" timestamp="2012-07-19T18:41:15Z" uid="722137" user="OSMF Redaction Account" changeset="12343518" lat="-37.8172346" lon="145.379037"/>
  <node id="376346623" version="6" timestamp="2012-07-19T18:41:15Z" uid="722137" user="OSMF Redaction Account" changeset="12343518" lat="-37.817211" lon="145.3786872"/>
  <node id="376347181" version="9" timestamp="2012-07-19T18:41:16Z" uid="722137" user="OSMF Redaction Account" changeset="12343518" lat="-37.8165" lon="145.3782546"/>
  <node id="376347183" version="9" timestamp="2012-07-19T18:41:17Z" uid="722137" user="OSMF Redaction Account" changeset="12343518" lat="-37.8162658" lon="145.3784606"/>
  <node id="376347184" version="13" timestamp="2012-07-19T18:41:17Z" uid="722137" user="OSMF Redaction Account" changeset="12343518" lat="-37.8161186" lon="145.3789723"/>
  <node id="376347187" version="8" timestamp="2012-07-19T18:40:22Z" uid="722137" user="OSMF Redaction Account" changeset="12343487" lat="-37.811177" lon="145.3811927"/>
  <node id="376347309" version="6" timestamp="2012-07-19T19:10:21Z" uid="722137" user="OSMF Redaction Account" changeset="12344392" lat="-37.8136131" lon="145.3746904"/>
</osm>
