<?xml version='1.0' encoding='UTF-8'?>
<osm version="0.6" generator="libosmium/2.20.0">
  <node id="376415994" version="6" timestamp="2009-05-01T20:02:20Z" uid="20587" user="balrog-kun" changeset="1041684" lat="50.2829353" lon="18.593203">
    <tag k="addr:postcode" v="44-151"/>
    <tag k="is_in" v="Gliwice, województwo śląskie, Poland"/>
    <tag k="is_in:city" v="Gliwice"/>
    <tag k="is_in:country" v="Poland"/>
    <tag k="is_in:county" v="powiat gliwice"/>
    <tag k="is_in:municipality" v="gmina Miasto Gliwice"/>
    <tag k="is_in:province" v="województwo śląskie"/>
    <tag k="is_in:town" v="Gliwice"/>
    <tag k="name" v="Ostropa"/>
    <tag k="place" v="suburb"/>
    <tag k="teryt:rm" v="99"/>
    <tag k="teryt:simc" v="0940074"/>
    <tag k="teryt:stan_na" v="2009-01-01"/>
    <tag k="teryt:sympod" v="0940000"/>
    <tag k="teryt:terc" v="2466011"/>
    <tag k="teryt:updated_by" v="teryt2osm combine.py v. 43"/>
    <tag k="wikipedia" v="pl:Ostropa (dzielnica Gliwic)"/>
  </node>
  <node id="376415994" version="7" timestamp="2009-05-07T18:45:29Z" uid="115021" user="Jajcuś" changeset="1110433" lat="50.2829353" lon="18.593203">
    <tag k="addr:postcode" v="44-151"/>
    <tag k="is_in" v="Gliwice, województwo śląskie, Poland"/>
    <tag k="is_in:city" v="Gliwice"/>
    <tag k="is_in:country" v="Poland"/>
    <tag k="is_in:province" v="województwo śląskie"/>
    <tag k="name" v="Ostropa"/>
    <tag k="place" v="suburb"/>
    <tag k="teryt:rm" v="99"/>
    <tag k="teryt:simc" v="0940074"/>
    <tag k="teryt:stan_na" v="2009-01-01"/>
    <tag k="teryt:sympod" v="0940000"/>
    <tag k="teryt:terc" v="2466011"/>
    <tag k="teryt:updated_by" v="teryt2osm combine.py v. 47M"/>
    <tag k="wikipedia" v="pl:Ostropa (dzielnica Gliwic)"/>
  </node>
  <node id="376415994" version="8" timestamp="2009-05-08T18:42:19Z" uid="115021" user="Jajcuś" changeset="1120509" lat="50.2829353" lon="18.593203">
    <tag k="addr:postcode" v="44-151"/>
    <tag k="is_in" v="Gliwice, województwo śląskie, Poland"/>
    <tag k="is_in:city" v="Gliwice"/>
    <tag k="is_in:country" v="Poland"/>
    <tag k="is_in:county" v="powiat m. Gliwice"/>
    <tag k="is_in:municipality" v="gmina m. Gliwice"/>
    <tag k="is_in:province" v="województwo śląskie"/>
    <tag k="name" v="Ostropa"/>
    <tag k="place" v="suburb"/>
    <tag k="teryt:rm" v="99"/>
    <tag k="teryt:simc" v="0940074"/>
    <tag k="teryt:stan_na" v="2009-01-01"/>
    <tag k="teryt:sympod" v="0940000"/>
    <tag k="teryt:terc" v="2466011"/>
    <tag k="teryt:updated_by" v="teryt2osm combine.py v. 49"/>
    <tag k="wikipedia" v="pl:Ostropa (dzielnica Gliwic)"/>
  </node>
  <node id="376415994" version="9" timestamp="2009-06-16T14:36:20Z" uid="20587" user="balrog-kun" changeset="1535698" lat="50.2829353" lon="18.593203">
    <tag k="addr:postcode" v="44-151"/>
    <tag k="is_in" v="Gliwice, województwo śląskie, Poland"/>
    <tag k="is_in:city" v="Gliwice"/>
    <tag k="is_in:country" v="Poland"/>
    <tag k="is_in:county" v="powiat m. Gliwice"/>
    <tag k="is_in:municipality" v="gmina m. Gliwice"/>
    <tag k="is_in:province" v="województwo śląskie"/>
    <tag k="is_in:town" v="Gliwice"/>
    <tag k="name" v="Ostropa"/>
    <tag k="place" v="suburb"/>
    <tag k="teryt:rm" v="99"/>
    <tag k="teryt:simc" v="0940074"/>
    <tag k="teryt:stan_na" v="2009-01-01"/>
    <tag k="teryt:sympod" v="0940000"/>
    <tag k="teryt:terc" v="2466011"/>
    <tag k="teryt:updated_by" v="teryt2osm combine.py v. 49"/>
    <tag k="wikipedia" v="pl:Ostropa (dzielnica Gliwic)"/>
  </node>
  <node id="376415994" version="10" timestamp="2011-03-10T16:03:00Z" uid="91056" user="Yarl" changeset="7515355" lat="50.2820782" lon="18.5927271">
    <tag k="addr:postcode" v="44-151"/>
    <tag k="is_in" v="Gliwice, województwo śląskie, Poland"/>
    <tag k="is_in:city" v="Gliwice"/>
    <tag k="is_in:country" v="Poland"/>
    <tag k="is_in:county" v="powiat m. Gliwice"/>
    <tag k="is_in:municipality" v="gmina m. Gliwice"/>
    <tag k="is_in:province" v="województwo śląskie"/>
    <tag k="is_in:town" v="Gliwice"/>
    <tag k="name" v="Ostropa"/>
    <tag k="place" v="suburb"/>
    <tag k="teryt:rm" v="99"/>
    <tag k="teryt:simc" v="0940074"/>
    <tag k="teryt:stan_na" v="2009-01-01"/>
    <tag k="teryt:sympod" v="0940000"/>
    <tag k="teryt:terc" v="2466011"/>
    <tag k="teryt:updated_by" v="teryt2osm combine.py v. 49"/>
    <tag k="wikipedia" v="pl:Ostropa (dzielnica Gliwic)"/>
  </node>
  <node id="376415994" version="11" timestamp="2012-02-06T20:01:55Z" uid="314684" user="krattbot" changeset="10605722" lat="50.2820782" lon="18.5927271">
    <tag k="addr:postcode" v="44-151"/>
    <tag k="fixme" v="Bad wikipedia link: pl:Ostropa (dzielnica Gliwic)"/>
    <tag k="is_in" v="Gliwice, województwo śląskie, Poland"/>
    <tag k="is_in:city" v="Gliwice"/>
    <tag k="is_in:country" v="Poland"/>
    <tag k="is_in:county" v="powiat m. Gliwice"/>
    <tag k="is_in:municipality" v="gmina m. Gliwice"/>
    <tag k="is_in:province" v="województwo śląskie"/>
    <tag k="is_in:town" v="Gliwice"/>
    <tag k="name" v="Ostropa"/>
    <tag k="place" v="suburb"/>
    <tag k="teryt:rm" v="99"/>
    <tag k="teryt:simc" v="0940074"/>
    <tag k="teryt:stan_na" v="2009-01-01"/>
    <tag k="teryt:sympod" v="0940000"/>
    <tag k="teryt:terc" v="2466011"/>
    <tag k="teryt:updated_by" v="teryt2osm combine.py v. 49"/>
    <tag k="wikipedia" v="pl:Ostropa (dzielnica Gliwic)"/>
  </node>
  <node id="376416018" version="6" timestamp="2009-05-01T20:02:02Z" uid="20587" user="balrog-kun" changeset="1041684" lat="50.2612133" lon="18.5720599">
    <tag k="addr:postcode" v="44-152"/>
    <tag k="is_in" v="Gliwice, województwo śląskie, Poland"/>
    <tag k="is_in:city" v="Gliwice"/>
    <tag k="is_in:country" v="Poland"/>
    <tag k="is_in:county" v="powiat gliwice"/>
    <tag k="is_in:municipality" v="gmina Miasto Gliwice"/>
    <tag k="is_in:province" v="województwo śląskie"/>
    <tag k="is_in:town" v="Gliwice"/>
    <tag k="name" v="Wilcze Gardło"/>
    <tag k="place" v="suburb"/>
    <tag k="teryt:rm" v="99"/>
    <tag k="teryt:simc" v="0940134"/>
    <tag k="teryt:stan_na" v="2009-01-01"/>
    <tag k="teryt:sympod" v="0940000"/>
    <tag k="teryt:terc" v="2466011"/>
    <tag k="teryt:updated_by" v="teryt2osm combine.py v. 43"/>
    <tag k="wikipedia" v="pl:Wilcze Gardło (dzielnica Gliwic)"/>
  </node>
  <node id="376416018" version="7" timestamp="2009-05-07T18:45:27Z" uid="115021" user="Jajcuś" changeset="1110433" lat="50.2612133" lon="18.5720599">
    <tag k="addr:postcode" v="44-152"/>
    <tag k="is_in" v="Gliwice, województwo śląskie, Poland"/>
    <tag k="is_in:city" v="Gliwice"/>
    <tag k="is_in:country" v="Poland"/>
    <tag k="is_in:province" v="województwo śląskie"/>
    <tag k="name" v="Wilcze Gardło"/>
    <tag k="place" v="suburb"/>
    <tag k="teryt:rm" v="99"/>
    <tag k="teryt:simc" v="0940134"/>
    <tag k="teryt:stan_na" v="2009-01-01"/>
    <tag k="teryt:sympod" v="0940000"/>
    <tag k="teryt:terc" v="2466011"/>
    <tag k="teryt:updated_by" v="teryt2osm combine.py v. 47M"/>
    <tag k="wikipedia" v="pl:Wilcze Gardło (dzielnica Gliwic)"/>
  </node>
  <node id="376416018" version="8" timestamp="2009-05-08T18:42:13Z" uid="115021" user="Jajcuś" changeset="1120509" lat="50.2612133" lon="18.5720599">
    <tag k="addr:postcode" v="44-152"/>
    <tag k="is_in" v="Gliwice, województwo śląskie, Poland"/>
    <tag k="is_in:city" v="Gliwice"/>
    <tag k="is_in:country" v="Poland"/>
    <tag k="is_in:county" v="powiat m. Gliwice"/>
    <tag k="is_in:municipality" v="gmina m. Gliwice"/>
    <tag k="is_in:province" v="województwo śląskie"/>
    <tag k="name" v="Wilcze Gardło"/>
    <tag k="place" v="suburb"/>
    <tag k="teryt:rm" v="99"/>
    <tag k="teryt:simc" v="0940134"/>
    <tag k="teryt:stan_na" v="2009-01-01"/>
    <tag k="teryt:sympod" v="0940000"/>
    <tag k="teryt:terc" v="2466011"/>
    <tag k="teryt:updated_by" v="teryt2osm combine.py v. 49"/>
    <tag k="wikipedia" v="pl:Wilcze Gardło (dzielnica Gliwic)"/>
  </node>
  <node id="376416018" version="9" timestamp="2009-06-16T14:36:21Z" uid="20587" user="balrog-kun" changeset="1535698" lat="50.2612133" lon="18.5720599">
    <tag k="addr:postcode" v="44-152"/>
    <tag k="is_in" v="Gliwice, województwo śląskie, Poland"/>
    <tag k="is_in:city" v="Gliwice"/>
    <tag k="is_in:country" v="Poland"/>
    <tag k="is_in:county" v="powiat m. Gliwice"/>
    <tag k="is_in:municipality" v="gmina m. Gliwice"/>
    <tag k="is_in:province" v="województwo śląskie"/>
    <tag k="is_in:town" v="Gliwice"/>
    <tag k="name" v="Wilcze Gardło"/>
    <tag k="place" v="suburb"/>
    <tag k="teryt:rm" v="99"/>
    <tag k="teryt:simc" v="0940134"/>
    <tag k="teryt:stan_na" v="2009-01-01"/>
    <tag k="teryt:sympod" v="0940000"/>
    <tag k="teryt:terc" v="2466011"/>
    <tag k="teryt:updated_by" v="teryt2osm combine.py v. 49"/>
    <tag k="wikipedia" v="pl:Wilcze Gardło (dzielnica Gliwic)"/>
  </node>
  <node id="376416018" version="10" timestamp="2012-02-06T20:01:51Z" uid="314684" user="krattbot" changeset="10605722" lat="50.2612133" lon="18.5720599">
    <tag k="addr:postcode" v="44-152"/>
    <tag k="fixme" v="Bad wikipedia link: pl:Wilcze Gardło (dzielnica Gliwic)"/>
    <tag k="is_in" v="Gliwice, województwo śląskie, Poland"/>
    <tag k="is_in:city" v="Gliwice"/>
    <tag k="is_in:country" v="Poland"/>
    <tag k="is_in:county" v="powiat m. Gliwice"/>
    <tag k="is_in:municipality" v="gmina m. Gliwice"/>
    <tag k="is_in:province" v="województwo śląskie"/>
    <tag k="is_in:town" v="Gliwice"/>
    <tag k="name" v="Wilcze Gardło"/>
    <tag k="place" v="suburb"/>
    <tag k="teryt:rm" v="99"/>
    <tag k="teryt:simc" v="0940134"/>
    <tag k="teryt:stan_na" v="2009-01-01"/>
    <tag k="teryt:sympod" v="0940000"/>
    <tag k="teryt:terc" v="2466011"/>
    <tag k="teryt:updated_by" v="teryt2osm combine.py v. 49"/>
    <tag k="wikipedia" v="pl:Wilcze Gardło (dzielnica Gliwic)"/>
  </node>
  <node id="376415994" version="12" timestamp="2012-04-21T14:39:36Z" uid="115021" user="Jajcuś" changeset="11374405" lat="50.2820782" lon="18.5927271">
    <tag k="addr:postcode" v="44-151"/>
    <tag k="is_in" v="Gliwice, województwo śląskie, Poland"/>
    <tag k="is_in:city" v="Gliwice"/>
    <tag k="is_in:country" v="Poland"/>
    <tag k="is_in:county" v="powiat m. Gliwice"/>
    <tag k="is_in:municipality" v="gmina m. Gliwice"/>
    <tag k="is_in:province" v="województwo śląskie"/>
    <tag k="is_in:town" v="Gliwice"/>
    <tag k="name" v="Ostropa"/>
    <tag k="place" v="suburb"/>
    <tag k="teryt:rm" v="99"/>
    <tag k="teryt:simc" v="0940074"/>
    <tag k="teryt:stan_na" v="2009-01-01"/>
    <tag k="teryt:sympod" v="0940000"/>
    <tag k="teryt:terc" v="2466011"/>
    <tag k="teryt:updated_by" v="teryt2osm combine.py v. 49"/>
    <tag k="wikipedia" v="pl:Ostropa_(Gliwice)"/>
  </node>
  <node id="376415994" version="13" timestamp="2012-04-22T15:48:25Z" uid="115021" user="Jajcuś" changeset="11385715" lat="50.2820782" lon="18.5927271">
    <tag k="addr:postcode" v="44-151"/>
    <tag k="is_in" v="Gliwice, województwo śląskie, Poland"/>
    <tag k="is_in:city" v="Gliwice"/>
    <tag k="is_in:country" v="Poland"/>
    <tag k="is_in:county" v="powiat m. Gliwice"/>
    <tag k="is_in:municipality" v="gmina m. Gliwice"/>
    <tag k="is_in:province" v="województwo śląskie"/>
    <tag k="is_in:town" v="Gliwice"/>
    <tag k="name" v="Ostropa"/>
    <tag k="place" v="suburb"/>
    <tag k="teryt:rm" v="99"/>
    <tag k="teryt:simc" v="0940074"/>
    <tag k="teryt:stan_na" v="2009-01-01"/>
    <tag k="teryt:sympod" v="0940000"/>
    <tag k="teryt:terc" v="2466011"/>
    <tag k="teryt:updated_by" v="teryt2osm combine.py v. 49"/>
    <tag k="wikipedia" v="pl:Ostropa (Gliwice)"/>
  </node>
  <node id="376416018" version="11" timestamp="2012-04-21T14:24:41Z" uid="115021" user="Jajcuś" changeset="11374257" lat="50.2594558" lon="18.5709268">
    <tag k="addr:postcode" v="44-152"/>
    <tag k="is_in" v="Gliwice, województwo śląskie, Poland"/>
    <tag k="is_in:city" v="Gliwice"/>
    <tag k="is_in:country" v="Poland"/>
    <tag k="is_in:county" v="powiat m. Gliwice"/>
    <tag k="is_in:municipality" v="gmina m. Gliwice"/>
    <tag k="is_in:province" v="województwo śląskie"/>
    <tag k="is_in:town" v="Gliwice"/>
    <tag k="name" v="Wilcze Gardło"/>
    <tag k="place" v="suburb"/>
    <tag k="teryt:rm" v="99"/>
    <tag k="teryt:simc" v="0940134"/>
    <tag k="teryt:stan_na" v="2009-01-01"/>
    <tag k="teryt:sympod" v="0940000"/>
    <tag k="teryt:terc" v="2466011"/>
    <tag k="teryt:updated_by" v="teryt2osm combine.py v. 49"/>
    <tag k="wikipedia" v="pl:Wilcze_Gardło_(Gliwice)"/>
  </node>
  <node id="376416018" version="12" timestamp="2012-04-22T15:48:27Z" uid="115021" user="Jajcuś" changeset="11385715" lat="50.2594558" lon="18.5709268">
    <tag k="addr:postcode" v="44-152"/>
    <tag k="is_in" v="Gliwice, województwo śląskie, Poland"/>
    <tag k="is_in:city" v="Gliwice"/>
    <tag k="is_in:country" v="Poland"/>
    <tag k="is_in:county" v="powiat m. Gliwice"/>
    <tag k="is_in:municipality" v="gmina m. Gliwice"/>
    <tag k="is_in:province" v="województwo śląskie"/>
    <tag k="is_in:town" v="Gliwice"/>
    <tag k="name" v="Wilcze Gardło"/>
    <tag k="place" v="suburb"/>
    <tag k="teryt:rm" v="99"/>
    <tag k="teryt:simc" v="0940134"/>
    <tag k="teryt:stan_na" v="2009-01-01"/>
    <tag k="teryt:sympod" v="0940000"/>
    <tag k="teryt:terc" v="2466011"/>
    <tag k="teryt:updated_by" v="teryt2osm combine.py v. 49"/>
    <tag k="wikipedia" v="pl:Wilcze Gardło (Gliwice)"/>
  </node>
</osm>
