<?xml version='1.0' encoding='UTF-8'?>
<osm version="0.6" generator="libosmium/2.20.0">
  <node id="376480856" version="1" timestamp="2009-04-15T13:17:38Z" uid="58091" user="Andreas M" changeset="564950" lat="48.2266223" lon="16.4235181">
    <tag k="amenity" v="cafe"/>
    <tag k="cuisine" v="ice_cream"/>
    <tag k="name" v="Trento"/>
  </node>
  <node id="376480856" version="2" timestamp="2012-02-26T17:32:36Z" uid="99800" user="wolfbert" changeset="10800855" lat="48.2266324" lon="16.4235099">
    <tag k="amenity" v="cafe"/>
    <tag k="cuisine" v="ice_cream"/>
    <tag k="name" v="Trento"/>
  </node>
  <node id="376483350" version="1" timestamp="2009-04-15T13:18:30Z" uid="69717" user="kaitu" changeset="565851" lat="45.7086598" lon="9.3583901">
    <tag k="natural" v="waterfall"/>
    <tag k="waterway" v="waterfall"/>
  </node>
  <node id="376483350" version="2" timestamp="2009-04-16T22:24:44Z" uid="6975" user="ulfl" changeset="598814" lat="45.7086598" lon="9.3583901">
    <tag k="waterway" v="waterfall"/>
  </node>
  <node id="376485303" version="1" timestamp="2009-04-15T13:19:10Z" uid="58091" user="Andreas M" changeset="564950" lat="48.2271252" lon="16.4220292">
    <tag k="amenity" v="pharmacy"/>
    <tag k="dispensing" v="yes"/>
    <tag k="name" v="St. Hubertus"/>
  </node>
  <node id="376485303" version="2" timestamp="2012-02-14T18:51:11Z" uid="56501" user="Rudolf_H" changeset="10685950" lat="48.2271252" lon="16.4220292">
    <tag k="amenity" v="pharmacy"/>
    <tag k="dispensing" v="yes"/>
    <tag k="name" v="St. Hubertus-Apotheke"/>
    <tag k="phone" v="+43 (1) 2633551"/>
  </node>
  <node id="376480856" version="3" timestamp="2012-06-27T23:43:14Z" uid="56501" user="Rudolf_H" changeset="12042075" lat="48.226648" lon="16.4234737">
    <tag k="amenity" v="cafe"/>
    <tag k="cuisine" v="ice_cream"/>
    <tag k="name" v="Trento"/>
  </node>
  <node id="376480856" version="4" timestamp="2012-07-16T23:39:02Z" uid="722137" user="OSMF Redaction Account" changeset="12253586" lat="48.226648" lon="16.4234737"/>
  <node id="376480856" version="5" timestamp="2012-07-24T20:42:17Z" uid="56501" user="Rudolf_H" changeset="12476072" lat="48.226648" lon="16.4234737">
    <tag k="amenity" v="cafe"/>
    <tag k="cuisine" v="ice_cream"/>
    <tag k="name" v="Eissalon Trento"/>
    <tag k="opening_hours" v="Mo-Su 08:00-23:00"/>
  </node>
  <node id="376485303" version="3" timestamp="2012-07-16T23:39:59Z" uid="722137" user="OSMF Redaction Account" changeset="12253606" lat="48.2271252" lon="16.4220292"/>
</osm>
