<?xml version='1.0' encoding='UTF-8'?>
<osm version="0.6" generator="libosmium/2.20.0">
  <node id="377126315" version="1" timestamp="2009-04-15T22:30:21Z" uid="5748" user="fatbozz" changeset="584256" lat="50.1076383" lon="14.5664706">
    <tag k="amenity" v="pub"/>
    <tag k="name" v="Hospoda na Chlumecké"/>
  </node>
  <node id="377126315" version="2" timestamp="2009-04-25T20:56:41Z" uid="1066" user="pavel" changeset="959629" lat="50.1075201" lon="14.5665215">
    <tag k="amenity" v="pub"/>
    <tag k="name" v="Hospoda na Chlumecké"/>
  </node>
  <node id="377126330" version="1" timestamp="2009-04-15T22:30:22Z" uid="5748" user="fatbozz" changeset="584256" lat="50.1077322" lon="14.5666759">
    <tag k="name" v="MovieStar"/>
    <tag k="shop" v="video"/>
  </node>
  <node id="377126330" version="2" timestamp="2009-04-25T20:56:41Z" uid="1066" user="pavel" changeset="959629" lat="50.1074978" lon="14.5667712">
    <tag k="name" v="MovieStar"/>
    <tag k="shop" v="video"/>
  </node>
</osm>
