<?xml version='1.0' encoding='UTF-8'?>
<osm version="0.6" generator="libosmium/2.20.0">
  <node id="378264211" version="5" timestamp="2009-06-08T13:38:38Z" uid="36809" user="pfoten_weg_!_" changeset="1458869" lat="48.0904795" lon="11.564083">
    <tag k="created_by" v="RambaZamba"/>
    <tag k="highway" v="bus_stop"/>
    <tag k="name" v="Autharistraße"/>
    <tag k="network" v="MVV"/>
    <tag k="operator" v="MVG"/>
    <tag k="ref" v="139"/>
    <tag k="shelter" v="yes"/>
    <tag k="source" v="survey"/>
    <tag k="website:official" v="http://www.mvv-muenchen.de"/>
  </node>
  <node id="378264211" version="6" timestamp="2009-08-05T19:01:23Z" uid="8748" user="ToniE" changeset="2049184" lat="48.0904795" lon="11.564083">
    <tag k="bench" v="yes"/>
    <tag k="bin" v="yes"/>
    <tag k="bus" v="yes"/>
    <tag k="highway" v="bus_stop"/>
    <tag k="name" v="Autharistraße"/>
    <tag k="network" v="MVV"/>
    <tag k="operator" v="MVG"/>
    <tag k="public_transport" v="platform"/>
    <tag k="ref" v="139"/>
    <tag k="shelter" v="yes"/>
    <tag k="source" v="survey"/>
    <tag k="website" v="http://www.mvv-muenchen.de"/>
  </node>
  <node id="378264211" version="7" timestamp="2010-08-28T15:30:28Z" uid="64536" user="Michael Forster" changeset="5617225" lat="48.0904795" lon="11.564083">
    <tag k="bench" v="yes"/>
    <tag k="bin" v="yes"/>
    <tag k="bus" v="yes"/>
    <tag k="highway" v="bus_stop"/>
    <tag k="name" v="Autharistraße"/>
    <tag k="network" v="MVV"/>
    <tag k="operator" v="MVG"/>
    <tag k="public_transport" v="platform"/>
    <tag k="ref" v="139"/>
    <tag k="shelter" v="yes"/>
    <tag k="source" v="survey"/>
    <tag k="website:official" v="http://www.mvv-muenchen.de"/>
  </node>
  <node id="378264211" version="8" timestamp="2010-08-28T21:19:21Z" uid="64536" user="Michael Forster" changeset="5620501" lat="48.0904795" lon="11.564083">
    <tag k="bench" v="yes"/>
    <tag k="bin" v="yes"/>
    <tag k="bus" v="yes"/>
    <tag k="highway" v="bus_stop"/>
    <tag k="name" v="Autharistraße"/>
    <tag k="network" v="MVV"/>
    <tag k="operator" v="MVG"/>
    <tag k="public_transport" v="platform"/>
    <tag k="ref" v="139"/>
    <tag k="shelter" v="yes"/>
    <tag k="source" v="survey"/>
    <tag k="website" v="http://www.mvv-muenchen.de"/>
  </node>
  <node id="378264211" version="9" timestamp="2011-05-12T16:25:53Z" uid="64536" user="Michael Forster" changeset="8123857" lat="48.0904795" lon="11.564083">
    <tag k="bench" v="yes"/>
    <tag k="bin" v="yes"/>
    <tag k="bus" v="yes"/>
    <tag k="highway" v="platform"/>
    <tag k="name" v="Autharistraße"/>
    <tag k="network" v="MVV"/>
    <tag k="operator" v="MVG"/>
    <tag k="public_transport" v="platform"/>
    <tag k="ref" v="139"/>
    <tag k="shelter" v="yes"/>
    <tag k="source" v="survey"/>
    <tag k="website" v="http://www.mvv-muenchen.de"/>
  </node>
  <node id="378264211" version="10" timestamp="2011-05-12T17:09:55Z" uid="64536" user="Michael Forster" changeset="8124231" lat="48.0904795" lon="11.564083">
    <tag k="bench" v="yes"/>
    <tag k="bin" v="yes"/>
    <tag k="bus" v="yes"/>
    <tag k="highway" v="platform"/>
    <tag k="name" v="Autharistraße"/>
    <tag k="network" v="MVV"/>
    <tag k="operator" v="MVG"/>
    <tag k="public_transport" v="platform"/>
    <tag k="shelter" v="yes"/>
    <tag k="source" v="survey"/>
    <tag k="website" v="http://www.mvv-muenchen.de"/>
  </node>
  <node id="378264211" version="11" timestamp="2011-05-12T17:46:32Z" uid="64536" user="Michael Forster" changeset="8124535" lat="48.0904795" lon="11.564083">
    <tag k="bench" v="yes"/>
    <tag k="bin" v="yes"/>
    <tag k="highway" v="platform"/>
    <tag k="name" v="Autharistraße"/>
    <tag k="public_transport" v="platform"/>
    <tag k="shelter" v="yes"/>
    <tag k="source" v="survey"/>
  </node>
  <node id="378264211" version="12" timestamp="2012-03-23T07:04:39Z" uid="8748" user="ToniE" changeset="11070870" lat="48.0904451" lon="11.5640503">
    <tag k="bench" v="yes"/>
    <tag k="bin" v="yes"/>
    <tag k="highway" v="platform"/>
    <tag k="name" v="Autharistraße"/>
    <tag k="public_transport" v="platform"/>
    <tag k="shelter" v="yes"/>
    <tag k="source" v="survey"/>
  </node>
  <node id="378264226" version="5" timestamp="2009-06-08T13:38:38Z" uid="36809" user="pfoten_weg_!_" changeset="1458869" lat="48.0904841" lon="11.5635059">
    <tag k="created_by" v="RambaZamba"/>
    <tag k="highway" v="bus_stop"/>
    <tag k="name" v="Autharistraße"/>
    <tag k="network" v="MVV"/>
    <tag k="operator" v="MVG"/>
    <tag k="ref" v="139"/>
    <tag k="shelter" v="yes"/>
    <tag k="source" v="survey"/>
    <tag k="website:official" v="http://www.mvv-muenchen.de"/>
  </node>
  <node id="378264226" version="6" timestamp="2009-08-05T19:01:23Z" uid="8748" user="ToniE" changeset="2049184" lat="48.0904572" lon="11.5635316">
    <tag k="bench" v="yes"/>
    <tag k="bin" v="yes"/>
    <tag k="bus" v="yes"/>
    <tag k="highway" v="bus_stop"/>
    <tag k="name" v="Autharistraße"/>
    <tag k="network" v="MVV"/>
    <tag k="operator" v="MVG"/>
    <tag k="public_transport" v="platform"/>
    <tag k="ref" v="139"/>
    <tag k="shelter" v="yes"/>
    <tag k="source" v="survey"/>
    <tag k="website" v="http://www.mvv-muenchen.de"/>
  </node>
  <node id="378264226" version="7" timestamp="2010-08-28T15:44:24Z" uid="64536" user="Michael Forster" changeset="5617371" lat="48.0904572" lon="11.5635316">
    <tag k="bench" v="yes"/>
    <tag k="bin" v="yes"/>
    <tag k="bus" v="yes"/>
    <tag k="highway" v="bus_stop"/>
    <tag k="name" v="Autharistraße"/>
    <tag k="network" v="MVV"/>
    <tag k="operator" v="MVG"/>
    <tag k="public_transport" v="platform"/>
    <tag k="ref" v="139"/>
    <tag k="shelter" v="yes"/>
    <tag k="source" v="survey"/>
    <tag k="website:official" v="http://www.mvv-muenchen.de"/>
  </node>
  <node id="378264226" version="8" timestamp="2010-08-28T21:19:18Z" uid="64536" user="Michael Forster" changeset="5620501" lat="48.0904572" lon="11.5635316">
    <tag k="bench" v="yes"/>
    <tag k="bin" v="yes"/>
    <tag k="bus" v="yes"/>
    <tag k="highway" v="bus_stop"/>
    <tag k="name" v="Autharistraße"/>
    <tag k="network" v="MVV"/>
    <tag k="operator" v="MVG"/>
    <tag k="public_transport" v="platform"/>
    <tag k="ref" v="139"/>
    <tag k="shelter" v="yes"/>
    <tag k="source" v="survey"/>
    <tag k="website" v="http://www.mvv-muenchen.de"/>
  </node>
  <node id="378264226" version="9" timestamp="2011-05-12T16:25:59Z" uid="64536" user="Michael Forster" changeset="8123857" lat="48.0904572" lon="11.5635316">
    <tag k="bench" v="yes"/>
    <tag k="bin" v="yes"/>
    <tag k="bus" v="yes"/>
    <tag k="highway" v="platform"/>
    <tag k="name" v="Autharistraße"/>
    <tag k="network" v="MVV"/>
    <tag k="operator" v="MVG"/>
    <tag k="public_transport" v="platform"/>
    <tag k="ref" v="139"/>
    <tag k="shelter" v="yes"/>
    <tag k="source" v="survey"/>
    <tag k="website" v="http://www.mvv-muenchen.de"/>
  </node>
  <node id="378264226" version="10" timestamp="2011-05-12T17:09:55Z" uid="64536" user="Michael Forster" changeset="8124231" lat="48.0904572" lon="11.5635316">
    <tag k="bench" v="yes"/>
    <tag k="bin" v="yes"/>
    <tag k="bus" v="yes"/>
    <tag k="highway" v="platform"/>
    <tag k="name" v="Autharistraße"/>
    <tag k="network" v="MVV"/>
    <tag k="operator" v="MVG"/>
    <tag k="public_transport" v="platform"/>
    <tag k="shelter" v="yes"/>
    <tag k="source" v="survey"/>
    <tag k="website" v="http://www.mvv-muenchen.de"/>
  </node>
  <node id="378264226" version="11" timestamp="2011-05-12T17:46:36Z" uid="64536" user="Michael Forster" changeset="8124535" lat="48.0904572" lon="11.5635316">
    <tag k="bench" v="yes"/>
    <tag k="bin" v="yes"/>
    <tag k="highway" v="platform"/>
    <tag k="name" v="Autharistraße"/>
    <tag k="public_transport" v="platform"/>
    <tag k="shelter" v="yes"/>
    <tag k="source" v="survey"/>
  </node>
  <node id="378264226" version="12" timestamp="2012-03-23T07:04:38Z" uid="8748" user="ToniE" changeset="11070870" lat="48.0903774" lon="11.5636033">
    <tag k="bench" v="yes"/>
    <tag k="bin" v="yes"/>
    <tag k="highway" v="platform"/>
    <tag k="name" v="Autharistraße"/>
    <tag k="public_transport" v="platform"/>
    <tag k="shelter" v="yes"/>
    <tag k="source" v="survey"/>
  </node>
  <node id="378265713" version="1" timestamp="2009-04-16T18:26:59Z" uid="33382" user="de_muur" changeset="587228" lat="53.5753282" lon="10.375334">
    <tag k="created_by" v="JOSM"/>
  </node>
  <node id="378265736" version="1" timestamp="2009-04-16T18:27:00Z" uid="33382" user="de_muur" changeset="587228" lat="53.5747869" lon="10.3734547">
    <tag k="created_by" v="JOSM"/>
  </node>
  <node id="378265736" version="2" timestamp="2010-02-02T21:13:33Z" uid="63375" user="Divjo" changeset="3779124" lat="53.5747869" lon="10.3734547"/>
  <node id="378265736" version="3" timestamp="2010-03-26T20:45:01Z" uid="63375" user="Divjo" changeset="4241780" lat="53.5747485" lon="10.373374"/>
  <node id="378267356" version="1" timestamp="2009-04-16T18:30:36Z" uid="117265" user="Patrick Trettenbrein" changeset="582064" lat="47.2079986" lon="14.7963135"/>
  <node id="378267356" version="2" timestamp="2009-04-16T18:30:44Z" uid="117265" user="Patrick Trettenbrein" changeset="582064" lat="47.2079986" lon="14.7963135"/>
  <node id="378267356" version="3" timestamp="2009-04-16T18:36:03Z" uid="117265" user="Patrick Trettenbrein" changeset="582064" lat="47.2079986" lon="14.7963135"/>
  <node id="378267356" version="4" timestamp="2009-04-16T18:36:28Z" uid="117265" user="Patrick Trettenbrein" changeset="582064" lat="47.2079986" lon="14.7963135"/>
  <node id="378267401" version="1" timestamp="2009-04-16T18:30:45Z" uid="117265" user="Patrick Trettenbrein" changeset="582064" lat="47.2082419" lon="14.7973719"/>
  <node id="378267401" version="2" timestamp="2009-04-16T18:36:03Z" uid="117265" user="Patrick Trettenbrein" changeset="582064" lat="47.2082419" lon="14.7973719"/>
  <node id="378267401" version="3" timestamp="2009-04-16T18:36:28Z" uid="117265" user="Patrick Trettenbrein" changeset="582064" lat="47.2082419" lon="14.7973719"/>
  <node id="378267401" version="4" timestamp="2012-02-07T17:59:32Z" uid="45347" user="eriosw" changeset="10614509" lat="47.2082941" lon="14.797298"/>
  <node id="378268080" version="6" timestamp="2009-05-01T20:01:04Z" uid="20587" user="balrog-kun" changeset="1041684" lat="50.2899129" lon="18.5454548">
    <tag k="is_in" v="gmina Sośnicowice, powiat gliwicki, województwo śląskie, Poland"/>
    <tag k="is_in:country" v="Poland"/>
    <tag k="is_in:county" v="powiat gliwicki"/>
    <tag k="is_in:municipality" v="gmina Sośnicowice"/>
    <tag k="is_in:province" v="województwo śląskie"/>
    <tag k="name" v="Łany Wielkie"/>
    <tag k="place" v="village"/>
    <tag k="population" v="748"/>
    <tag k="source:population" v="wikipedia"/>
    <tag k="teryt:rm" v="01"/>
    <tag k="teryt:simc" v="0221860"/>
    <tag k="teryt:stan_na" v="2009-01-01"/>
    <tag k="teryt:terc" v="2405065"/>
    <tag k="teryt:updated_by" v="teryt2osm combine.py v. 43"/>
    <tag k="wikipedia" v="Łany Wielkie, Gliwice County"/>
  </node>
  <node id="378268080" version="7" timestamp="2010-04-11T04:46:48Z" uid="20587" user="balrog-kun" changeset="4389130" lat="50.287956" lon="18.5443374">
    <tag k="is_in" v="gmina Sośnicowice, powiat gliwicki, województwo śląskie, Poland"/>
    <tag k="is_in:country" v="Poland"/>
    <tag k="is_in:county" v="powiat gliwicki"/>
    <tag k="is_in:municipality" v="gmina Sośnicowice"/>
    <tag k="is_in:province" v="województwo śląskie"/>
    <tag k="name" v="Łany Wielkie"/>
    <tag k="place" v="village"/>
    <tag k="population" v="748"/>
    <tag k="source:population" v="wikipedia"/>
    <tag k="teryt:rm" v="01"/>
    <tag k="teryt:simc" v="0221860"/>
    <tag k="teryt:stan_na" v="2009-01-01"/>
    <tag k="teryt:terc" v="2405065"/>
    <tag k="teryt:updated_by" v="teryt2osm combine.py v. 43"/>
    <tag k="wikipedia" v="Łany Wielkie, Gliwice County"/>
  </node>
  <node id="378268287" version="2" timestamp="2009-04-16T22:11:02Z" uid="6975" user="ulfl" changeset="598814" lat="14.8136224" lon="120.9120117">
    <tag k="amenity" v="fuel"/>
    <tag k="name" v="Shell"/>
  </node>
  <node id="378268287" version="3" timestamp="2010-01-05T19:01:03Z" uid="115814" user="Eiddup" changeset="3547929" lat="14.8136224" lon="120.9120117">
    <tag k="amenity" v="fuel"/>
    <tag k="name" v="Shell"/>
  </node>
  <node id="378268581" version="1" timestamp="2009-04-16T18:33:58Z" uid="43863" user="Rundling" changeset="588416" lat="52.9725418" lon="10.5895094"/>
  <node id="378268581" version="2" timestamp="2009-04-16T18:35:09Z" uid="43863" user="Rundling" changeset="588416" lat="52.9725418" lon="10.5895094"/>
  <node id="378268581" version="3" timestamp="2009-04-23T18:20:43Z" uid="43863" user="Rundling" changeset="916754" lat="52.9725418" lon="10.5895094"/>
  <node id="378268827" version="1" timestamp="2009-04-16T18:34:55Z" uid="43863" user="Rundling" changeset="588416" lat="52.9725205" lon="10.5898032"/>
  <node id="378268827" version="2" timestamp="2009-04-23T18:20:43Z" uid="43863" user="Rundling" changeset="916754" lat="52.9725205" lon="10.5898032"/>
  <node id="378269293" version="1" timestamp="2009-04-16T18:37:59Z" uid="117265" user="Patrick Trettenbrein" changeset="582064" lat="47.2072507" lon="14.7949">
    <tag k="created_by" v="Potlatch 0.10f"/>
  </node>
  <node id="378269293" version="2" timestamp="2009-04-16T20:02:48Z" uid="117265" user="Patrick Trettenbrein" changeset="595480" lat="47.2072565" lon="14.7949">
    <tag k="created_by" v="Potlatch 0.10f"/>
  </node>
  <node id="378269293" version="3" timestamp="2009-04-16T20:02:49Z" uid="117265" user="Patrick Trettenbrein" changeset="595480" lat="47.2072565" lon="14.7949">
    <tag k="created_by" v="Potlatch 0.10f"/>
  </node>
  <node id="378269297" version="1" timestamp="2009-04-16T18:38:05Z" uid="117265" user="Patrick Trettenbrein" changeset="582064" lat="47.2072448" lon="14.7948914">
    <tag k="created_by" v="Potlatch 0.10f"/>
  </node>
  <node id="378269297" version="2" timestamp="2009-04-16T20:02:53Z" uid="117265" user="Patrick Trettenbrein" changeset="595480" lat="47.2072448" lon="14.7948914">
    <tag k="created_by" v="Potlatch 0.10f"/>
  </node>
  <node id="378269297" version="3" timestamp="2009-04-16T20:02:53Z" uid="117265" user="Patrick Trettenbrein" changeset="595480" lat="47.2072448" lon="14.7948914">
    <tag k="created_by" v="Potlatch 0.10f"/>
  </node>
  <node id="378269297" version="4" timestamp="2009-04-16T20:02:54Z" uid="117265" user="Patrick Trettenbrein" changeset="595480" lat="47.2072448" lon="14.7948914">
    <tag k="created_by" v="Potlatch 0.10f"/>
  </node>
  <node id="378269297" version="5" timestamp="2009-04-16T20:02:55Z" uid="117265" user="Patrick Trettenbrein" changeset="595480" lat="47.2072448" lon="14.7948914">
    <tag k="created_by" v="Potlatch 0.10f"/>
  </node>
  <node id="378269299" version="3" timestamp="2009-06-09T08:57:36Z" uid="36809" user="pfoten_weg_!_" changeset="1466365" lat="48.0679099" lon="11.5024785">
    <tag k="created_by" v="RambaZamba"/>
    <tag k="information" v="map"/>
    <tag k="name" v="Landkarte Forstenrieder Park"/>
    <tag k="tourism" v="information"/>
  </node>
  <node id="378269299" version="4" timestamp="2009-08-12T13:44:39Z" uid="156995" user="HampelZamba" changeset="2118817" lat="48.0679099" lon="11.5024785">
    <tag k="information" v="map"/>
    <tag k="name" v="Landkarte Forstenrieder Park"/>
    <tag k="tourism" v="information"/>
  </node>
  <node id="378269299" version="5" timestamp="2009-08-26T00:04:28Z" uid="36809" user="pfoten_weg_!_" changeset="2262648" lat="48.0679099" lon="11.5024785">
    <tag k="information" v="map"/>
    <tag k="name" v="Landkarte Forstenrieder Park"/>
    <tag k="tourism" v="information"/>
  </node>
  <node id="378269299" version="6" timestamp="2009-08-26T01:06:26Z" uid="36809" user="pfoten_weg_!_" changeset="2262879" lat="48.0679099" lon="11.5024785">
    <tag k="information" v="map"/>
    <tag k="name" v="Landkarte Forstenrieder Park"/>
    <tag k="tourism" v="information"/>
  </node>
  <node id="378269454" version="2" timestamp="2009-04-16T22:13:09Z" uid="6975" user="ulfl" changeset="598814" lat="14.8277447" lon="120.877379">
    <tag k="amenity" v="place_of_worship"/>
    <tag k="building" v="church"/>
    <tag k="religion" v="christian"/>
  </node>
  <node id="378269454" version="3" timestamp="2011-10-23T18:48:51Z" uid="542449" user="edgar320" changeset="9636887" lat="14.8277447" lon="120.877379">
    <tag k="amenity" v="place_of_worship"/>
    <tag k="building" v="church"/>
    <tag k="name" v="San Ildefonso Parish Church"/>
    <tag k="religion" v="christian"/>
  </node>
  <node id="378269694" version="2" timestamp="2010-07-29T09:40:03Z" uid="74617" user="JohnSmith" changeset="5344848" lat="49.5643772" lon="9.8958748">
    <tag k="amenity" v="emergency_phone"/>
    <tag k="emergency" v="phone"/>
  </node>
  <node id="378264211" version="13" timestamp="2012-07-17T19:12:50Z" uid="8748" user="ToniE" changeset="12270829" lat="48.0904472" lon="11.5640838">
    <tag k="bench" v="yes"/>
    <tag k="bin" v="yes"/>
    <tag k="highway" v="platform"/>
    <tag k="name" v="Autharistraße"/>
    <tag k="public_transport" v="platform"/>
    <tag k="shelter" v="yes"/>
    <tag k="source" v="survey"/>
  </node>
  <node id="378264211" version="14" timestamp="2012-07-17T19:49:44Z" uid="722137" user="OSMF Redaction Account" changeset="12271332" lat="48.0904472" lon="11.5640838">
    <tag k="bench" v="yes"/>
    <tag k="bin" v="yes"/>
    <tag k="highway" v="platform"/>
    <tag k="name" v="Autharistraße"/>
    <tag k="public_transport" v="platform"/>
    <tag k="shelter" v="yes"/>
  </node>
  <node id="378264226" version="13" timestamp="2012-07-17T19:49:44Z" uid="722137" user="OSMF Redaction Account" changeset="12271332" lat="48.0903774" lon="11.5636033">
    <tag k="bench" v="yes"/>
    <tag k="bin" v="yes"/>
    <tag k="highway" v="platform"/>
    <tag k="name" v="Autharistraße"/>
    <tag k="public_transport" v="platform"/>
    <tag k="shelter" v="yes"/>
  </node>
  <node id="378265713" version="2" timestamp="2012-04-12T12:13:56Z" uid="349191" user="Glühwürmchen" changeset="11275331" lat="53.5753282" lon="10.375334"/>
  <node id="378265736" version="4" timestamp="2012-04-12T12:13:56Z" uid="349191" user="Glühwürmchen" changeset="11275331" lat="53.5747485" lon="10.373374"/>
  <node id="378267356" version="5" timestamp="2012-07-16T18:58:15Z" uid="722137" user="OSMF Redaction Account" changeset="12249745" lat="47.2079986" lon="14.7963135"/>
  <node id="378267401" version="5" timestamp="2012-08-26T12:05:04Z" uid="45347" user="eriosw" changeset="12865490" lat="47.2082941" lon="14.797298"/>
  <node id="378269694" version="3" timestamp="2012-07-19T23:42:22Z" uid="722137" user="OSMF Redaction Account" changeset="12351713" lat="49.5643772" lon="9.8958748">
    <tag k="amenity" v="emergency_phone"/>
  </node>
</osm>
