<?xml version='1.0' encoding='UTF-8'?>
<osm version="0.6" generator="libosmium/2.20.0">
  <node id="380612684" version="1" timestamp="2009-04-22T14:44:17Z" uid="36809" user="pfoten_weg_!_" changeset="899929" lat="48.0611137" lon="11.5230498">
    <tag k="amenity" v="wifi"/>
    <tag k="class" v="free"/>
    <tag k="created_by" v="RambaZamba"/>
    <tag k="man_made" v="beacon"/>
    <tag k="name" v="FON_Muenchner_Str_24"/>
    <tag k="ref" v="M端nchener Str.24c,82049 Pullach,UT100,K1,midi"/>
    <tag k="source" v="survey"/>
  </node>
  <node id="380612684" version="2" timestamp="2009-07-23T21:00:57Z" uid="36809" user="pfoten_weg_!_" changeset="1919954" lat="48.0611137" lon="11.5230498">
    <tag k="amenity" v="wifi"/>
    <tag k="discovered_by" v="RambaZamba"/>
    <tag k="man_made" v="beacon"/>
    <tag k="name" v="FON_Muenchner_Str_24"/>
    <tag k="ref" v="M端nchener Str.24c,82049 Pullach,UT100,K1,midi"/>
    <tag k="source" v="survey"/>
  </node>
  <node id="380612684" version="3" timestamp="2009-07-23T21:03:36Z" uid="36809" user="pfoten_weg_!_" changeset="1919967" lat="48.0611137" lon="11.5230498">
    <tag k="amenity" v="wifi"/>
    <tag k="discovered_by" v="RambaZamba"/>
    <tag k="internet_access" v="wlan"/>
    <tag k="internet_access:operator" v="FON"/>
    <tag k="name" v="FON_Muenchner_Str_24"/>
    <tag k="ref" v="M端nchener Str.24c,82049 Pullach,UT100,K1,midi"/>
    <tag k="source" v="survey"/>
  </node>
  <node id="380612684" version="4" timestamp="2009-07-26T21:09:19Z" uid="65019" user="Kaefer84" changeset="1949843" lat="48.0611137" lon="11.5230498">
    <tag k="amenity" v="wifi"/>
    <tag k="discovered_by" v="RambaZamba"/>
    <tag k="internet_access" v="wlan"/>
    <tag k="internet_access:operator" v="FON"/>
    <tag k="name" v="FON_Muenchner_Str_24"/>
    <tag k="ref" v="M端nchener Str.24c,82049 Pullach,UT100,K1,midi"/>
    <tag k="source" v="survey"/>
  </node>
  <node id="380616622" version="3" timestamp="2009-07-26T01:45:40Z" uid="4467" user="Rosscoe" changeset="1939963" lat="-23.6809168" lon="133.8743121"/>
  <node id="380616623" version="2" timestamp="2009-07-26T01:45:40Z" uid="4467" user="Rosscoe" changeset="1939963" lat="-23.680924" lon="133.8733768"/>
  <node id="380616622" version="4" timestamp="2012-07-19T13:44:55Z" uid="722137" user="OSMF Redaction Account" changeset="12330123" lat="-23.6809168" lon="133.8743121"/>
  <node id="380616623" version="3" timestamp="2012-07-19T13:44:55Z" uid="722137" user="OSMF Redaction Account" changeset="12330123" lat="-23.680924" lon="133.8733768"/>
</osm>
