<?xml version='1.0' encoding='UTF-8'?>
<osm version="0.6" generator="libosmium/2.20.0">
  <node id="38106597" version="2" timestamp="2009-10-12T21:55:44Z" uid="36809" user="pfoten_weg_!_" changeset="2831291" lat="48.0662704" lon="11.3254378">
    <tag k="name" v="Unterbrunn"/>
    <tag k="place" v="village"/>
  </node>
  <node id="38106597" version="3" timestamp="2010-10-08T11:16:36Z" uid="42393" user="mawi42" changeset="5985156" lat="48.0662704" lon="11.3254378">
    <tag k="is_in" v="Gauting"/>
    <tag k="name" v="Unterbrunn"/>
    <tag k="place" v="village"/>
  </node>
  <node id="38106597" version="4" timestamp="2010-11-27T06:30:01Z" uid="140803" user="ThomasStr" changeset="6467162" lat="48.0662704" lon="11.3254378">
    <tag k="is_in" v="Gauting,Starnberg,Oberbayern,Bayern,Bundesrepublik Deutschland,Europe"/>
    <tag k="name" v="Unterbrunn"/>
    <tag k="place" v="village"/>
  </node>
  <node id="38106597" version="5" timestamp="2010-12-30T10:27:23Z" uid="72719" user="metaroll" changeset="6807106" lat="48.0662704" lon="11.3254378">
    <tag k="ele" v="594"/>
    <tag k="is_in" v="Gauting,Starnberg,Oberbayern,Bayern,Bundesrepublik Deutschland,Europe"/>
    <tag k="name" v="Unterbrunn"/>
    <tag k="place" v="village"/>
  </node>
  <node id="38106597" version="6" timestamp="2011-05-02T20:14:52Z" uid="7596" user="ck3d" changeset="8034235" lat="48.0662704" lon="11.3254378">
    <tag k="ele" v="594"/>
    <tag k="is_in" v="Gauting,Starnberg,Oberbayern,Bayern,Bundesrepublik Deutschland,Europe"/>
    <tag k="name" v="Unterbrunn"/>
    <tag k="place" v="village"/>
    <tag k="wikipedia:de" v="Unterbrunn (Gauting)"/>
  </node>
  <node id="38106609" version="4" timestamp="2009-08-26T08:35:52Z" uid="36809" user="pfoten_weg_!_" changeset="2264896" lat="48.0498566" lon="11.3165529">
    <tag k="name" v="Oberbrunn"/>
    <tag k="place" v="village"/>
  </node>
  <node id="38106609" version="5" timestamp="2010-10-08T11:08:54Z" uid="42393" user="mawi42" changeset="5985081" lat="48.0498566" lon="11.3165528">
    <tag k="is_in" v="Gauting"/>
    <tag k="name" v="Oberbrunn"/>
    <tag k="place" v="village"/>
    <tag k="postal_code" v="82131"/>
  </node>
  <node id="38106609" version="6" timestamp="2010-11-27T06:30:01Z" uid="140803" user="ThomasStr" changeset="6467162" lat="48.0498566" lon="11.3165528">
    <tag k="is_in" v="Gauting,Starnberg,Oberbayern,Bayern,Bundesrepublik Deutschland,Europe"/>
    <tag k="name" v="Oberbrunn"/>
    <tag k="place" v="village"/>
    <tag k="postal_code" v="82131"/>
  </node>
  <node id="38106609" version="7" timestamp="2011-05-02T20:14:54Z" uid="7596" user="ck3d" changeset="8034235" lat="48.0498566" lon="11.3165528">
    <tag k="is_in" v="Gauting,Starnberg,Oberbayern,Bayern,Bundesrepublik Deutschland,Europe"/>
    <tag k="name" v="Oberbrunn"/>
    <tag k="place" v="village"/>
    <tag k="postal_code" v="82131"/>
    <tag k="wikipedia:de" v="Oberbrunn (Gauting)"/>
  </node>
  <node id="38108924" version="4" timestamp="2009-08-24T23:12:50Z" uid="36809" user="pfoten_weg_!_" changeset="2251012" lat="48.0731506" lon="11.2643179">
    <tag k="name" v="Oberpfaffenhofen"/>
    <tag k="place" v="village"/>
  </node>
  <node id="38108924" version="5" timestamp="2010-04-07T00:14:49Z" uid="68010" user="ms2000" changeset="4350476" lat="48.0735716" lon="11.2643067">
    <tag k="name" v="Oberpfaffenhofen"/>
    <tag k="place" v="village"/>
  </node>
  <node id="38108924" version="6" timestamp="2010-04-07T09:19:46Z" uid="68010" user="ms2000" changeset="4352902" lat="48.0730518" lon="11.2650639">
    <tag k="name" v="Oberpfaffenhofen"/>
    <tag k="place" v="village"/>
  </node>
  <node id="38108924" version="7" timestamp="2010-06-03T12:41:22Z" uid="68010" user="ms2000" changeset="4892270" lat="48.0732582" lon="11.2649062">
    <tag k="name" v="Oberpfaffenhofen"/>
    <tag k="place" v="village"/>
  </node>
  <node id="38108924" version="8" timestamp="2010-09-21T06:49:14Z" uid="42393" user="mawi42" changeset="5834539" lat="48.0732582" lon="11.2649062">
    <tag k="is_in" v="Weßling,Starnberg"/>
    <tag k="name" v="Oberpfaffenhofen"/>
    <tag k="place" v="village"/>
    <tag k="postal_code" v="82234"/>
  </node>
  <node id="38108924" version="9" timestamp="2010-11-17T23:49:16Z" uid="325837" user="traveler-hiker" changeset="6397046" lat="48.0732582" lon="11.2649062">
    <tag k="is_in" v="Oberpfaffenhofen;Weßling;Starnberg;Oberbayern;Bayern;Bundesrepublik Deutschland"/>
    <tag k="name" v="Oberpfaffenhofen"/>
    <tag k="place" v="village"/>
    <tag k="postal_code" v="82234"/>
  </node>
  <node id="38108924" version="10" timestamp="2010-12-05T06:53:29Z" uid="140803" user="ThomasStr" changeset="6547076" lat="48.0732582" lon="11.2649062">
    <tag k="is_in" v="Weßling,Starnberg,Oberbayern,Bayern,Bundesrepublik Deutschland,Europe"/>
    <tag k="name" v="Oberpfaffenhofen"/>
    <tag k="place" v="village"/>
    <tag k="postal_code" v="82234"/>
  </node>
  <node id="38108924" version="11" timestamp="2011-04-05T22:43:57Z" uid="344972" user="osralimto" changeset="7780146" lat="48.0732582" lon="11.2649062">
    <tag k="is_in" v="Weßling,Starnberg,Oberbayern,Bayern,Bundesrepublik Deutschland,Europe"/>
    <tag k="name" v="Oberpfaffenhofen"/>
    <tag k="place" v="village"/>
    <tag k="postal_code" v="82234"/>
  </node>
  <node id="38108931" version="3" timestamp="2009-10-02T19:25:41Z" uid="86259" user="hasse_osm_korinthenkacker" changeset="2716617" lat="48.0871291" lon="11.2744688">
    <tag k="name" v="Weichselbaum"/>
    <tag k="place" v="hamlet"/>
  </node>
  <node id="38108931" version="4" timestamp="2010-12-05T06:53:29Z" uid="140803" user="ThomasStr" changeset="6547076" lat="48.0871291" lon="11.2744688">
    <tag k="is_in" v="Weßling,Starnberg,Oberbayern,Bayern,Bundesrepublik Deutschland,Europe"/>
    <tag k="name" v="Weichselbaum"/>
    <tag k="place" v="village"/>
  </node>
  <node id="38108931" version="5" timestamp="2011-12-16T18:24:48Z" uid="42393" user="mawi42" changeset="10133028" lat="48.0871291" lon="11.2744687">
    <tag k="addr:postcode" v="82234"/>
    <tag k="is_in" v="Weßling,Starnberg,Oberbayern,Bayern,Bundesrepublik Deutschland,Europe"/>
    <tag k="name" v="Weichselbaum"/>
    <tag k="place" v="village"/>
  </node>
  <node id="38108931" version="6" timestamp="2012-04-20T22:19:07Z" uid="644269" user="DerAdel" changeset="11369142" lat="48.0871291" lon="11.2744687"/>
</osm>
