<?xml version='1.0' encoding='UTF-8'?>
<osm version="0.6" generator="libosmium/2.20.0">
  <node id="38114253" version="5" timestamp="2009-09-30T15:11:46Z" uid="36809" user="pfoten_weg_!_" changeset="2689341" lat="48.0570412" lon="11.2072426">
    <tag k="name" v="Auing"/>
    <tag k="place" v="hamlet"/>
  </node>
  <node id="38114253" version="6" timestamp="2009-10-17T17:16:22Z" uid="42393" user="mawi42" changeset="2876155" lat="48.0570407" lon="11.2072343">
    <tag k="is_in" v="Wörthsee,Starnberg"/>
    <tag k="name" v="Auing"/>
    <tag k="place" v="hamlet"/>
  </node>
  <node id="38114253" version="7" timestamp="2009-10-20T23:50:48Z" uid="36809" user="pfoten_weg_!_" changeset="2908189" lat="48.0570407" lon="11.2072343">
    <tag k="is_in" v="Wörthsee,Starnberg"/>
    <tag k="name" v="Auing"/>
    <tag k="place" v="hamlet"/>
  </node>
  <node id="38114253" version="8" timestamp="2010-12-03T06:01:50Z" uid="140803" user="ThomasStr" changeset="6522555" lat="48.0570407" lon="11.2072343">
    <tag k="is_in" v="Wörthsee,Starnberg,Oberbayern,Bayern,Bundesrepublik Deutschland,Europe"/>
    <tag k="name" v="Auing"/>
    <tag k="place" v="village"/>
  </node>
  <node id="38114253" version="9" timestamp="2010-12-29T23:02:46Z" uid="34428" user="usm78-gis" changeset="6804535" lat="48.057138" lon="11.2072967">
    <tag k="is_in" v="Wörthsee,Starnberg,Oberbayern,Bayern,Bundesrepublik Deutschland,Europe"/>
    <tag k="name" v="Auing"/>
    <tag k="place" v="village"/>
  </node>
  <node id="38114253" version="10" timestamp="2011-02-19T10:05:28Z" uid="7596" user="ck3d" changeset="7329924" lat="48.057138" lon="11.2072967">
    <tag k="is_in" v="Wörthsee,Starnberg,Oberbayern,Bayern,Bundesrepublik Deutschland,Europe"/>
    <tag k="name" v="Auing"/>
    <tag k="place" v="hamlet"/>
  </node>
  <node id="38114997" version="3" timestamp="2009-04-05T19:12:10Z" uid="36809" user="pfoten_weg_!_" changeset="246170" lat="48.0527433" lon="11.2234248">
    <tag k="created_by" v="Potlatch 0.4a"/>
    <tag k="name" v="Meiling (zu Seefeld)"/>
    <tag k="place" v="hamlet"/>
  </node>
  <node id="38114997" version="4" timestamp="2009-04-05T19:44:10Z" uid="36809" user="pfoten_weg_!_" changeset="246170" lat="48.0538028" lon="11.2240384">
    <tag k="created_by" v="Potlatch 0.4a"/>
    <tag k="name" v="Meiling (zu Seefeld)"/>
    <tag k="place" v="hamlet"/>
  </node>
  <node id="38114997" version="5" timestamp="2009-04-05T20:13:30Z" uid="36809" user="pfoten_weg_!_" changeset="246170" lat="48.0538028" lon="11.2240384">
    <tag k="created_by" v="Potlatch 0.4a"/>
    <tag k="name" v="Meiling (zu Seefeld)"/>
    <tag k="place" v="hamlet"/>
  </node>
  <node id="38117085" version="3" timestamp="2009-09-30T15:10:26Z" uid="36809" user="pfoten_weg_!_" changeset="2689341" lat="48.0645949" lon="11.2026994">
    <tag k="name" v="Steinebach"/>
    <tag k="place" v="village"/>
  </node>
  <node id="38117085" version="4" timestamp="2010-06-02T15:23:52Z" uid="68010" user="ms2000" changeset="4885110" lat="48.064275" lon="11.2021721">
    <tag k="name" v="Steinebach"/>
    <tag k="place" v="village"/>
  </node>
  <node id="38117085" version="5" timestamp="2010-12-03T06:01:50Z" uid="140803" user="ThomasStr" changeset="6522555" lat="48.064275" lon="11.2021721">
    <tag k="is_in" v="Wörthsee,Starnberg,Oberbayern,Bayern,Bundesrepublik Deutschland,Europe"/>
    <tag k="name" v="Steinebach am Wörthsee"/>
    <tag k="place" v="village"/>
  </node>
</osm>
