<?xml version='1.0' encoding='UTF-8'?>
<osm version="0.6" generator="libosmium/2.20.0">
  <node id="38122609" version="2" timestamp="2009-08-24T23:12:36Z" uid="36809" user="pfoten_weg_!_" changeset="2251012" lat="48.0411986" lon="11.198426">
    <tag k="name" v="Seefeld-Hechendorf"/>
    <tag k="railway" v="station"/>
  </node>
  <node id="38122609" version="3" timestamp="2011-10-02T07:22:24Z" uid="290680" user="wheelmap_visitor" changeset="9447804" lat="48.0411986" lon="11.198426">
    <tag k="name" v="Seefeld-Hechendorf"/>
    <tag k="railway" v="station"/>
    <tag k="wheelchair" v="no"/>
  </node>
  <node id="38122609" version="4" timestamp="2011-11-13T11:01:39Z" uid="64536" user="Michael Forster" changeset="9812365" lat="48.0415725" lon="11.1988733">
    <tag k="name" v="Seefeld-Hechendorf"/>
    <tag k="public_transport" v="stop_position"/>
    <tag k="railway" v="station"/>
    <tag k="train" v="yes"/>
    <tag k="wheelchair" v="no"/>
  </node>
  <node id="38125525" version="5" timestamp="2009-08-24T23:13:00Z" uid="36809" user="pfoten_weg_!_" changeset="2251012" lat="48.040314" lon="11.2194119">
    <tag k="name" v="Oberalting"/>
    <tag k="place" v="village"/>
  </node>
  <node id="38125540" version="2" timestamp="2009-09-30T15:06:36Z" uid="36809" user="pfoten_weg_!_" changeset="2689341" lat="48.0241018" lon="11.2267682">
    <tag k="name" v="Drößling"/>
    <tag k="place" v="village"/>
  </node>
  <node id="38125540" version="3" timestamp="2010-12-13T19:49:51Z" uid="313675" user="alphax" changeset="6651665" lat="48.022132" lon="11.2277075">
    <tag k="name" v="Drößling"/>
    <tag k="place" v="village"/>
  </node>
  <node id="38125540" version="4" timestamp="2011-02-23T18:29:08Z" uid="7596" user="ck3d" changeset="7375032" lat="48.022132" lon="11.2277075">
    <tag k="name" v="Drößling"/>
    <tag k="place" v="hamlet"/>
  </node>
  <node id="38126467" version="6" timestamp="2009-09-30T15:16:19Z" uid="36809" user="pfoten_weg_!_" changeset="2689341" lat="48.0301109" lon="11.253684">
    <tag k="is_in" v="Seefeld,Starnberg,Oberbayern,Bayern,Bundesrepublik Deutschland,Europe"/>
    <tag k="name" v="Unering"/>
    <tag k="place" v="village"/>
  </node>
  <node id="38126467" version="7" timestamp="2011-01-12T06:59:55Z" uid="42393" user="mawi42" changeset="6944422" lat="48.030111" lon="11.253684">
    <tag k="is_in" v="Seefeld,Starnberg,Oberbayern,Bayern,Bundesrepublik Deutschland,Europe"/>
    <tag k="name" v="Unering"/>
    <tag k="place" v="village"/>
    <tag k="postal_code" v="82229"/>
  </node>
  <node id="38127297" version="5" timestamp="2009-09-30T15:10:59Z" uid="36809" user="pfoten_weg_!_" changeset="2689341" lat="48.0683674" lon="11.2014858">
    <tag k="is_in" v="Starnberg,Oberbayern,Bayern,Bundesrepublik Deutschland,Europe"/>
    <tag k="name" v="Wörthsee"/>
    <tag k="openGeoDB:auto_update" v="population,is_in"/>
    <tag k="openGeoDB:community_identification_number" v="09188145"/>
    <tag k="openGeoDB:is_in" v="Starnberg,Oberbayern,Bayern,Bundesrepublik Deutschland,Europe"/>
    <tag k="openGeoDB:is_in_loc_id" v="442"/>
    <tag k="openGeoDB:layer" v="6"/>
    <tag k="openGeoDB:license_plate_code" v="STA"/>
    <tag k="openGeoDB:loc_id" v="26366"/>
    <tag k="openGeoDB:name" v="Wörthsee"/>
    <tag k="openGeoDB:population" v="4643"/>
    <tag k="openGeoDB:postal_codes" v="82237"/>
    <tag k="openGeoDB:sort_name" v="WOERTHSEE"/>
    <tag k="openGeoDB:telephone_area_code" v="08153"/>
    <tag k="openGeoDB:type" v="Gemeinde"/>
    <tag k="openGeoDB:version" v="0.2.6.11 / 2007-12-04 / http://fa-technik.adfc.de/code/opengeodb/dump/"/>
    <tag k="opengeodb:lat" v="48.0753602"/>
    <tag k="opengeodb:lon" v="11.1969058"/>
    <tag k="place" v="village"/>
    <tag k="population" v="4643"/>
    <tag k="postal_code" v="D-82237"/>
  </node>
  <node id="38127297" version="6" timestamp="2010-10-26T19:40:39Z" uid="325837" user="traveler-hiker" changeset="6185948" lat="48.0682042" lon="11.2016252">
    <tag k="is_in" v="Starnberg,Oberbayern,Bayern,Bundesrepublik Deutschland,Europe"/>
    <tag k="name" v="Wörthsee"/>
    <tag k="openGeoDB:auto_update" v="population,is_in"/>
    <tag k="openGeoDB:community_identification_number" v="09188145"/>
    <tag k="openGeoDB:is_in" v="Starnberg,Oberbayern,Bayern,Bundesrepublik Deutschland,Europe"/>
    <tag k="openGeoDB:is_in_loc_id" v="442"/>
    <tag k="openGeoDB:layer" v="6"/>
    <tag k="openGeoDB:license_plate_code" v="STA"/>
    <tag k="openGeoDB:loc_id" v="26366"/>
    <tag k="openGeoDB:name" v="Wörthsee"/>
    <tag k="openGeoDB:population" v="4643"/>
    <tag k="openGeoDB:postal_codes" v="82237"/>
    <tag k="openGeoDB:sort_name" v="WOERTHSEE"/>
    <tag k="openGeoDB:telephone_area_code" v="08153"/>
    <tag k="openGeoDB:type" v="Gemeinde"/>
    <tag k="openGeoDB:version" v="0.2.6.11 / 2007-12-04 / http://fa-technik.adfc.de/code/opengeodb/dump/"/>
    <tag k="opengeodb:lat" v="48.0753602"/>
    <tag k="opengeodb:lon" v="11.1969058"/>
    <tag k="place" v="village"/>
    <tag k="population" v="4643"/>
    <tag k="postal_code" v="D-82237"/>
  </node>
  <node id="38127297" version="7" timestamp="2010-12-29T23:02:56Z" uid="34428" user="usm78-gis" changeset="6804535" lat="48.06823" lon="11.2013871">
    <tag k="is_in" v="Starnberg,Oberbayern,Bayern,Bundesrepublik Deutschland,Europe"/>
    <tag k="name" v="Wörthsee"/>
    <tag k="openGeoDB:auto_update" v="population,is_in"/>
    <tag k="openGeoDB:community_identification_number" v="09188145"/>
    <tag k="openGeoDB:is_in" v="Starnberg,Oberbayern,Bayern,Bundesrepublik Deutschland,Europe"/>
    <tag k="openGeoDB:is_in_loc_id" v="442"/>
    <tag k="openGeoDB:layer" v="6"/>
    <tag k="openGeoDB:license_plate_code" v="STA"/>
    <tag k="openGeoDB:loc_id" v="26366"/>
    <tag k="openGeoDB:name" v="Wörthsee"/>
    <tag k="openGeoDB:population" v="4643"/>
    <tag k="openGeoDB:postal_codes" v="82237"/>
    <tag k="openGeoDB:sort_name" v="WOERTHSEE"/>
    <tag k="openGeoDB:telephone_area_code" v="08153"/>
    <tag k="openGeoDB:type" v="Gemeinde"/>
    <tag k="openGeoDB:version" v="0.2.6.11 / 2007-12-04 / http://fa-technik.adfc.de/code/opengeodb/dump/"/>
    <tag k="opengeodb:lat" v="48.0753602"/>
    <tag k="opengeodb:lon" v="11.1969058"/>
    <tag k="place" v="village"/>
    <tag k="population" v="4643"/>
    <tag k="postal_code" v="D-82237"/>
  </node>
  <node id="38128599" version="4" timestamp="2009-10-02T19:25:33Z" uid="86259" user="hasse_osm_korinthenkacker" changeset="2716617" lat="48.0869555" lon="11.2002657">
    <tag k="name" v="Etterschlag"/>
    <tag k="place" v="village"/>
  </node>
  <node id="38128599" version="5" timestamp="2010-12-03T06:01:50Z" uid="140803" user="ThomasStr" changeset="6522555" lat="48.0869555" lon="11.2002657">
    <tag k="is_in" v="Wörthsee,Starnberg,Oberbayern,Bayern,Bundesrepublik Deutschland,Europe"/>
    <tag k="name" v="Etterschlag"/>
    <tag k="place" v="village"/>
  </node>
  <node id="38128599" version="6" timestamp="2011-02-21T20:00:44Z" uid="313675" user="alphax" changeset="7357475" lat="48.0871124" lon="11.2010039">
    <tag k="is_in" v="Wörthsee,Starnberg,Oberbayern,Bayern,Bundesrepublik Deutschland,Europe"/>
    <tag k="name" v="Etterschlag"/>
    <tag k="place" v="village"/>
  </node>
</osm>
