<?xml version='1.0' encoding='UTF-8'?>
<osm version="0.6" generator="libosmium/2.20.0">
  <node id="381612300" version="3" timestamp="2010-05-02T03:46:39Z" uid="20587" user="balrog-kun" changeset="4580962" lat="51.7884879" lon="20.2846621"/>
  <node id="381613085" version="3" timestamp="2010-05-02T03:46:47Z" uid="20587" user="balrog-kun" changeset="4580962" lat="51.7885355" lon="20.2845283"/>
  <node id="381619997" version="2" timestamp="2009-06-16T14:31:29Z" uid="20587" user="balrog-kun" changeset="1535654" lat="51.7934161" lon="20.2704553">
    <tag k="is_in" v="gmina Rawa Mazowiecka, powiat rawski, województwo łódzkie, Poland"/>
    <tag k="is_in:county" v="powiat rawski"/>
    <tag k="is_in:municipality" v="gmina Rawa Mazowiecka"/>
    <tag k="is_in:province" v="województwo łódzkie"/>
    <tag k="name" v="Żydomice"/>
    <tag k="place" v="town"/>
    <tag k="wikipedia" v="Żydomice"/>
  </node>
  <node id="381619997" version="3" timestamp="2009-10-12T18:37:22Z" uid="35127" user="wopozka" changeset="2829293" lat="51.7934161" lon="20.2704553">
    <tag k="is_in" v="gmina Rawa Mazowiecka, powiat rawski, województwo łódzkie, Poland"/>
    <tag k="is_in:county" v="powiat rawski"/>
    <tag k="is_in:municipality" v="gmina Rawa Mazowiecka"/>
    <tag k="is_in:province" v="województwo łódzkie"/>
    <tag k="name" v="Żydomice"/>
    <tag k="place" v="town"/>
    <tag k="wikipedia" v="Żydomice"/>
  </node>
</osm>
