<?xml version='1.0' encoding='UTF-8'?>
<osm version="0.6" generator="libosmium/2.20.0">
  <node id="383901551" version="2" timestamp="2010-07-29T09:18:07Z" uid="74617" user="JohnSmith" changeset="5344848" lat="51.5871674" lon="6.9394763">
    <tag k="amenity" v="emergency_phone"/>
    <tag k="emergency" v="phone"/>
  </node>
  <node id="383902758" version="5" timestamp="2009-06-16T14:28:31Z" uid="20587" user="balrog-kun" changeset="1535626" lat="51.1167" lon="15.3">
    <tag k="addr:postcode" v="59-800"/>
    <tag k="is_in" v="powiat lubański, województwo dolnośląskie, Poland"/>
    <tag k="is_in:country" v="Poland"/>
    <tag k="is_in:county" v="powiat lubański"/>
    <tag k="is_in:municipality" v="gmina Lubań"/>
    <tag k="is_in:province" v="województwo dolnośląskie"/>
    <tag k="name" v="Lubań"/>
    <tag k="place" v="town"/>
    <tag k="population" v="21792"/>
    <tag k="source:population" v="wikipedia"/>
    <tag k="teryt:rm" v="96"/>
    <tag k="teryt:simc" v="0936150"/>
    <tag k="teryt:stan_na" v="2009-01-01"/>
    <tag k="teryt:terc" v="0210011"/>
    <tag k="teryt:updated_by" v="teryt2osm combine.py v. 49"/>
    <tag k="wikipedia" v="Lubań"/>
  </node>
  <node id="383902758" version="6" timestamp="2009-08-15T04:53:49Z" uid="154908" user="curious" changeset="2149574" lat="51.1167" lon="15.2999999">
    <tag k="addr:postcode" v="59-800"/>
    <tag k="is_in" v="powiat lubański, województwo dolnośląskie, Poland"/>
    <tag k="is_in:country" v="Poland"/>
    <tag k="is_in:county" v="powiat lubański"/>
    <tag k="is_in:municipality" v="gmina Lubań"/>
    <tag k="is_in:province" v="województwo dolnośląskie"/>
    <tag k="name" v="Lubań Śląski"/>
    <tag k="place" v="town"/>
    <tag k="population" v="21792"/>
    <tag k="source:population" v="wikipedia"/>
    <tag k="teryt:rm" v="96"/>
    <tag k="teryt:simc" v="0936150"/>
    <tag k="teryt:stan_na" v="2009-01-01"/>
    <tag k="teryt:terc" v="0210011"/>
    <tag k="teryt:updated_by" v="teryt2osm combine.py v. 49"/>
    <tag k="wikipedia" v="Lubań"/>
  </node>
  <node id="383902758" version="7" timestamp="2010-02-13T12:39:12Z" uid="91056" user="Yarl" changeset="3864241" lat="51.1198372" lon="15.2910706">
    <tag k="addr:postcode" v="59-800"/>
    <tag k="is_in" v="powiat lubański, województwo dolnośląskie, Poland"/>
    <tag k="is_in:country" v="Poland"/>
    <tag k="is_in:county" v="powiat lubański"/>
    <tag k="is_in:municipality" v="gmina Lubań"/>
    <tag k="is_in:province" v="województwo dolnośląskie"/>
    <tag k="name" v="Lubań"/>
    <tag k="place" v="town"/>
    <tag k="population" v="21792"/>
    <tag k="source:population" v="wikipedia"/>
    <tag k="teryt:rm" v="96"/>
    <tag k="teryt:simc" v="0936150"/>
    <tag k="teryt:stan_na" v="2009-01-01"/>
    <tag k="teryt:terc" v="0210011"/>
    <tag k="teryt:updated_by" v="teryt2osm combine.py v. 49"/>
    <tag k="wikipedia" v="Lubań"/>
  </node>
  <node id="383902758" version="8" timestamp="2010-04-11T04:46:49Z" uid="20587" user="balrog-kun" changeset="4389130" lat="51.120975" lon="15.2918594">
    <tag k="addr:postcode" v="59-800"/>
    <tag k="is_in" v="powiat lubański, województwo dolnośląskie, Poland"/>
    <tag k="is_in:country" v="Poland"/>
    <tag k="is_in:county" v="powiat lubański"/>
    <tag k="is_in:municipality" v="gmina Lubań"/>
    <tag k="is_in:province" v="województwo dolnośląskie"/>
    <tag k="name" v="Lubań"/>
    <tag k="place" v="town"/>
    <tag k="population" v="21792"/>
    <tag k="source:population" v="wikipedia"/>
    <tag k="teryt:rm" v="96"/>
    <tag k="teryt:simc" v="0936150"/>
    <tag k="teryt:stan_na" v="2009-01-01"/>
    <tag k="teryt:terc" v="0210011"/>
    <tag k="teryt:updated_by" v="teryt2osm combine.py v. 49"/>
    <tag k="wikipedia" v="Lubań"/>
  </node>
  <node id="383902758" version="9" timestamp="2010-09-02T14:27:35Z" uid="147674" user="fireball2" changeset="5662758" lat="51.1209751" lon="15.2918593">
    <tag k="addr:postcode" v="59-800"/>
    <tag k="is_in" v="powiat lubański, województwo dolnośląskie, Poland"/>
    <tag k="is_in:country" v="Poland"/>
    <tag k="is_in:county" v="powiat lubański"/>
    <tag k="is_in:municipality" v="gmina Lubań"/>
    <tag k="is_in:province" v="województwo dolnośląskie"/>
    <tag k="name" v="Lubań"/>
    <tag k="name:de" v="Lauban"/>
    <tag k="place" v="town"/>
    <tag k="population" v="21792"/>
    <tag k="source:population" v="wikipedia"/>
    <tag k="teryt:rm" v="96"/>
    <tag k="teryt:simc" v="0936150"/>
    <tag k="teryt:stan_na" v="2009-01-01"/>
    <tag k="teryt:terc" v="0210011"/>
    <tag k="teryt:updated_by" v="teryt2osm combine.py v. 49"/>
    <tag k="wikipedia" v="Lubań"/>
    <tag k="wikipedia:de" v="Lauban"/>
    <tag k="wikipedia:pl" v="Lubań (województwo dolnośląskie)"/>
  </node>
  <node id="383903550" version="2" timestamp="2010-06-29T19:02:37Z" uid="74617" user="JohnSmith" changeset="5108182" lat="37.2904601" lon="-120.4484623">
    <tag k="fixme" v="sport=football is ambiguous, see http://wiki.osm.org/wiki/Football for more details"/>
    <tag k="leisure" v="pitch"/>
    <tag k="sport" v="football"/>
  </node>
  <node id="383904440" version="2" timestamp="2009-06-17T21:51:09Z" uid="36809" user="pfoten_weg_!_" changeset="1550007" lat="47.7363467" lon="10.9745713">
    <tag k="created_by" v="RambaZamba"/>
  </node>
  <node id="383904440" version="3" timestamp="2009-08-12T13:46:20Z" uid="156995" user="HampelZamba" changeset="2118817" lat="47.7363467" lon="10.9745713"/>
  <node id="383904440" version="4" timestamp="2009-08-31T16:43:21Z" uid="36809" user="pfoten_weg_!_" changeset="2328217" lat="47.7363467" lon="10.9745713"/>
  <node id="383904440" version="5" timestamp="2009-09-20T10:55:35Z" uid="64756" user="alegria6208" changeset="2543800" lat="47.7364239" lon="10.9746559"/>
  <node id="383904952" version="2" timestamp="2011-01-30T00:40:20Z" uid="4467" user="Rosscoe" changeset="7129265" lat="-35.0688973" lon="138.5264876"/>
  <node id="383904953" version="2" timestamp="2011-01-30T00:40:34Z" uid="4467" user="Rosscoe" changeset="7129265" lat="-35.0697796" lon="138.5277447"/>
  <node id="383908891" version="2" timestamp="2011-01-30T00:40:29Z" uid="4467" user="Rosscoe" changeset="7129265" lat="-35.0770623" lon="138.5180452"/>
  <node id="383908892" version="2" timestamp="2011-01-30T00:40:20Z" uid="4467" user="Rosscoe" changeset="7129265" lat="-35.0768333" lon="138.5185298"/>
  <node id="383908893" version="2" timestamp="2011-01-30T00:40:34Z" uid="4467" user="Rosscoe" changeset="7129265" lat="-35.0768961" lon="138.5192882"/>
  <node id="383901551" version="3" timestamp="2012-07-17T00:36:08Z" uid="722137" user="OSMF Redaction Account" changeset="12254268" lat="51.5871674" lon="6.9394763">
    <tag k="amenity" v="emergency_phone"/>
  </node>
  <node id="383903550" version="3" timestamp="2012-07-18T16:53:44Z" uid="722137" user="OSMF Redaction Account" changeset="12289603" lat="37.2904601" lon="-120.4484623"/>
  <node id="383904952" version="3" timestamp="2012-07-19T09:10:12Z" uid="722137" user="OSMF Redaction Account" changeset="12315360" lat="-35.0688828" lon="138.526554"/>
  <node id="383904953" version="3" timestamp="2012-07-08T02:17:55Z" uid="328538" user="o&apos;cholio" changeset="12145614" lat="-35.0697796" lon="138.5277447"/>
  <node id="383908891" version="3" timestamp="2012-07-19T09:10:10Z" uid="722137" user="OSMF Redaction Account" changeset="12315360" lat="-35.0770809" lon="138.5180641"/>
  <node id="383908892" version="3" timestamp="2012-07-19T09:10:10Z" uid="722137" user="OSMF Redaction Account" changeset="12315360" lat="-35.0768147" lon="138.5185374"/>
  <node id="383908893" version="3" timestamp="2012-07-19T09:10:10Z" uid="722137" user="OSMF Redaction Account" changeset="12315360" lat="-35.0769922" lon="138.5191291"/>
</osm>
