<?xml version='1.0' encoding='UTF-8'?>
<osm version="0.6" generator="libosmium/2.20.0">
  <node id="383911098" version="2" timestamp="2009-06-16T14:28:16Z" uid="20587" user="balrog-kun" changeset="1535626" lat="51.0667" lon="15.3889">
    <tag k="addr:postcode" v="59-830"/>
    <tag k="is_in" v="gmina Olszyna, powiat lubański, województwo dolnośląskie, Poland"/>
    <tag k="is_in:county" v="powiat lubański"/>
    <tag k="is_in:municipality" v="gmina Olszyna"/>
    <tag k="is_in:province" v="województwo dolnośląskie"/>
    <tag k="name" v="Olszyna"/>
    <tag k="place" v="village"/>
    <tag k="population" v="4769"/>
    <tag k="source:population" v="wikipedia"/>
    <tag k="wikipedia" v="Olszyna"/>
  </node>
  <node id="383911098" version="3" timestamp="2009-12-23T16:54:30Z" uid="203293" user="mard91" changeset="3435934" lat="51.0667" lon="15.3889">
    <tag k="addr:postcode" v="59-830"/>
    <tag k="is_in" v="gmina Olszyna, powiat lubański, województwo dolnośląskie, Poland"/>
    <tag k="is_in:county" v="powiat lubański"/>
    <tag k="is_in:municipality" v="gmina Olszyna"/>
    <tag k="is_in:province" v="województwo dolnośląskie"/>
    <tag k="name" v="Olszyna"/>
    <tag k="place" v="town"/>
    <tag k="population" v="4769"/>
    <tag k="source:population" v="wikipedia"/>
    <tag k="wikipedia" v="Olszyna"/>
  </node>
  <node id="383911098" version="4" timestamp="2010-04-11T04:46:49Z" uid="20587" user="balrog-kun" changeset="4389130" lat="51.06685" lon="15.385111">
    <tag k="addr:postcode" v="59-830"/>
    <tag k="is_in" v="gmina Olszyna, powiat lubański, województwo dolnośląskie, Poland"/>
    <tag k="is_in:county" v="powiat lubański"/>
    <tag k="is_in:municipality" v="gmina Olszyna"/>
    <tag k="is_in:province" v="województwo dolnośląskie"/>
    <tag k="name" v="Olszyna"/>
    <tag k="place" v="town"/>
    <tag k="population" v="4769"/>
    <tag k="source:population" v="wikipedia"/>
    <tag k="wikipedia" v="Olszyna"/>
  </node>
  <node id="383911098" version="5" timestamp="2011-05-11T10:50:45Z" uid="91056" user="Yarl" changeset="8110922" lat="51.0656467" lon="15.3734403">
    <tag k="addr:postcode" v="59-830"/>
    <tag k="is_in" v="gmina Olszyna, powiat lubański, województwo dolnośląskie, Poland"/>
    <tag k="is_in:county" v="powiat lubański"/>
    <tag k="is_in:municipality" v="gmina Olszyna"/>
    <tag k="is_in:province" v="województwo dolnośląskie"/>
    <tag k="name" v="Olszyna"/>
    <tag k="place" v="town"/>
    <tag k="population" v="4769"/>
    <tag k="source:population" v="wikipedia"/>
    <tag k="wikipedia" v="Olszyna"/>
  </node>
  <node id="383911098" version="6" timestamp="2012-05-30T19:11:02Z" uid="152074" user="beweta" changeset="11751491" lat="51.0656467" lon="15.3734403">
    <tag k="addr:postcode" v="59-830"/>
    <tag k="is_in" v="gmina Olszyna, powiat lubański, województwo dolnośląskie, Poland"/>
    <tag k="is_in:county" v="powiat lubański"/>
    <tag k="is_in:municipality" v="gmina Olszyna"/>
    <tag k="is_in:province" v="województwo dolnośląskie"/>
    <tag k="name" v="Olszyna"/>
    <tag k="name:de" v="Mittel Langenöls"/>
    <tag k="place" v="town"/>
    <tag k="population" v="4769"/>
    <tag k="source:population" v="wikipedia"/>
    <tag k="wikipedia" v="Olszyna"/>
  </node>
  <node id="383911098" version="7" timestamp="2012-08-02T15:10:57Z" uid="393321" user="jpuhr" changeset="12587073" lat="51.0656467" lon="15.3734403">
    <tag k="addr:postcode" v="59-830"/>
    <tag k="is_in" v="gmina Olszyna, powiat lubański, województwo dolnośląskie, Poland"/>
    <tag k="is_in:country" v="Poland"/>
    <tag k="is_in:county" v="powiat lubański"/>
    <tag k="is_in:municipality" v="gmina Olszyna"/>
    <tag k="is_in:province" v="województwo dolnośląskie"/>
    <tag k="name" v="Olszyna"/>
    <tag k="name:de" v="Mittel Langenöls"/>
    <tag k="place" v="town"/>
    <tag k="population" v="4769"/>
    <tag k="source:population" v="wikipedia"/>
    <tag k="wikipedia" v="Olszyna"/>
  </node>
</osm>
