<?xml version='1.0' encoding='UTF-8'?>
<osm version="0.6" generator="libosmium/2.20.0">
  <node id="386576359" version="3" timestamp="2011-02-26T09:49:28Z" uid="4467" user="Rosscoe" changeset="7397965" lat="-38.1020808" lon="147.0965082"/>
  <node id="386576360" version="3" timestamp="2011-02-26T09:49:32Z" uid="4467" user="Rosscoe" changeset="7397965" lat="-38.1019574" lon="147.0963966"/>
  <node id="386576362" version="3" timestamp="2011-02-26T09:49:32Z" uid="4467" user="Rosscoe" changeset="7397965" lat="-38.101993" lon="147.0966917"/>
  <node id="386576364" version="3" timestamp="2011-02-26T09:49:28Z" uid="4467" user="Rosscoe" changeset="7397965" lat="-38.1018501" lon="147.0965662"/>
  <node id="386579210" version="3" timestamp="2009-11-03T19:14:42Z" uid="123700" user="Mala" changeset="3027356" lat="52.4069912" lon="16.9196062">
    <tag k="amenity" v="bank"/>
    <tag k="name" v="Deutsche Bank Polska"/>
    <tag k="operator" v="Deutsche Bank"/>
  </node>
  <node id="386579328" version="4" timestamp="2009-11-03T19:14:42Z" uid="123700" user="Mala" changeset="3027356" lat="52.4071081" lon="16.9219174">
    <tag k="amenity" v="bank"/>
    <tag k="operator" v="WBK"/>
  </node>
  <node id="386579328" version="5" timestamp="2010-10-05T01:33:12Z" uid="20587" user="balrog-kun" changeset="5958352" lat="52.407142" lon="16.9219095">
    <tag k="amenity" v="bank"/>
    <tag k="operator" v="WBK"/>
  </node>
  <node id="386579328" version="6" timestamp="2011-09-12T13:24:37Z" uid="91056" user="Yarl" changeset="9280158" lat="52.4071814" lon="16.9219549">
    <tag k="amenity" v="bank"/>
    <tag k="operator" v="WBK"/>
  </node>
  <node id="386579956" version="8" timestamp="2009-05-31T15:14:30Z" uid="123700" user="Mala" changeset="1369537" lat="52.408309" lon="16.9253874">
    <tag k="addr:city" v="Poznan"/>
    <tag k="addr:country" v="PL"/>
    <tag k="addr:housenumber" v="44"/>
    <tag k="addr:postcode" v="61-816"/>
    <tag k="addr:street" v="Ratajczaka"/>
    <tag k="amenity" v="embassy"/>
    <tag k="country" v="DE"/>
    <tag k="description" v="Honorarkonsul der Bundesrepublik Deutschland in Posen"/>
    <tag k="diplomatic" v="consulate"/>
    <tag k="source" v="http://www.breslau.diplo.de/Vertretung/breslau/de/02/Oeffnungszeiten/HK__Posen__Seite.html"/>
  </node>
  <node id="386579956" version="9" timestamp="2009-08-07T20:30:10Z" uid="20587" user="balrog-kun" changeset="2070092" lat="52.408309" lon="16.9253874">
    <tag k="addr:city" v="Poznan"/>
    <tag k="addr:country" v="PL"/>
    <tag k="addr:housenumber" v="44"/>
    <tag k="addr:postcode" v="61-816"/>
    <tag k="addr:street" v="Franciszka Ratajczaka"/>
    <tag k="amenity" v="embassy"/>
    <tag k="country" v="DE"/>
    <tag k="description" v="Honorarkonsul der Bundesrepublik Deutschland in Posen"/>
    <tag k="diplomatic" v="consulate"/>
    <tag k="source" v="http://www.breslau.diplo.de/Vertretung/breslau/de/02/Oeffnungszeiten/HK__Posen__Seite.html"/>
  </node>
  <node id="386579956" version="10" timestamp="2011-09-09T12:52:34Z" uid="91056" user="Yarl" changeset="9254140" lat="52.408309" lon="16.9253874">
    <tag k="addr:city" v="Poznan"/>
    <tag k="addr:country" v="PL"/>
    <tag k="addr:housenumber" v="44"/>
    <tag k="addr:postcode" v="61-816"/>
    <tag k="addr:street" v="Franciszka Ratajczaka"/>
    <tag k="amenity" v="embassy"/>
    <tag k="country" v="DE"/>
    <tag k="description" v="Honorarkonsul der Bundesrepublik Deutschland in Posen"/>
    <tag k="diplomatic" v="consulate"/>
    <tag k="name" v="Konsul Honorowy Republiki Federalnej Niemiec"/>
    <tag k="source" v="http://www.breslau.diplo.de/Vertretung/breslau/de/02/Oeffnungszeiten/HK__Posen__Seite.html"/>
  </node>
  <node id="386579956" version="11" timestamp="2011-09-17T16:05:45Z" uid="91056" user="Yarl" changeset="9325116" lat="52.408323" lon="16.9254122">
    <tag k="addr:city" v="Poznan"/>
    <tag k="addr:country" v="PL"/>
    <tag k="addr:housenumber" v="44"/>
    <tag k="addr:postcode" v="61-816"/>
    <tag k="addr:street" v="Franciszka Ratajczaka"/>
    <tag k="amenity" v="embassy"/>
    <tag k="country" v="DE"/>
    <tag k="description" v="Honorarkonsul der Bundesrepublik Deutschland in Posen"/>
    <tag k="diplomatic" v="consulate"/>
    <tag k="name" v="Konsul Honorowy Republiki Federalnej Niemiec"/>
    <tag k="source" v="http://www.breslau.diplo.de/Vertretung/breslau/de/02/Oeffnungszeiten/HK__Posen__Seite.html"/>
  </node>
  <node id="386576359" version="4" timestamp="2012-07-19T07:56:36Z" uid="722137" user="OSMF Redaction Account" changeset="12312872" lat="-38.1021747" lon="147.0964841"/>
  <node id="386576360" version="4" timestamp="2012-07-19T07:56:36Z" uid="722137" user="OSMF Redaction Account" changeset="12312872" lat="-38.101974" lon="147.0963014"/>
  <node id="386576362" version="4" timestamp="2012-07-19T07:56:36Z" uid="722137" user="OSMF Redaction Account" changeset="12312872" lat="-38.102032" lon="147.0967827"/>
  <node id="386576364" version="4" timestamp="2012-07-19T07:56:37Z" uid="722137" user="OSMF Redaction Account" changeset="12312872" lat="-38.1018029" lon="147.0966074"/>
  <node id="386579956" version="12" timestamp="2012-07-17T07:36:19Z" uid="722137" user="OSMF Redaction Account" changeset="12259609" lat="52.408323" lon="16.9254122">
    <tag k="addr:city" v="Poznan"/>
    <tag k="addr:country" v="PL"/>
    <tag k="addr:housenumber" v="44"/>
    <tag k="addr:postcode" v="61-816"/>
    <tag k="addr:street" v="Ratajczaka"/>
    <tag k="amenity" v="embassy"/>
    <tag k="country" v="DE"/>
    <tag k="description" v="Honorarkonsul der Bundesrepublik Deutschland in Posen"/>
    <tag k="diplomatic" v="consulate"/>
    <tag k="name" v="Konsul Honorowy Republiki Federalnej Niemiec"/>
    <tag k="source" v="http://www.breslau.diplo.de/Vertretung/breslau/de/02/Oeffnungszeiten/HK__Posen__Seite.html"/>
  </node>
  <node id="386579956" version="13" timestamp="2012-07-17T23:32:19Z" uid="740427" user="Redaction Account Bugfix" changeset="12273544" lat="52.408323" lon="16.9254122">
    <tag k="addr:city" v="Poznan"/>
    <tag k="addr:country" v="PL"/>
    <tag k="addr:housenumber" v="44"/>
    <tag k="addr:postcode" v="61-816"/>
    <tag k="addr:street" v="Franciszka Ratajczaka"/>
    <tag k="amenity" v="embassy"/>
    <tag k="country" v="DE"/>
    <tag k="description" v="Honorarkonsul der Bundesrepublik Deutschland in Posen"/>
    <tag k="diplomatic" v="consulate"/>
    <tag k="name" v="Konsul Honorowy Republiki Federalnej Niemiec"/>
    <tag k="source" v="http://www.breslau.diplo.de/Vertretung/breslau/de/02/Oeffnungszeiten/HK__Posen__Seite.html"/>
  </node>
</osm>
