<?xml version='1.0' encoding='UTF-8'?>
<osm version="0.6" generator="libosmium/2.20.0">
  <node id="386582717" version="1" timestamp="2009-04-28T08:49:39Z" uid="119145" user="asheiner" changeset="1001444" lat="49.545017" lon="11.1733428">
    <tag k="amenity" v="bench"/>
  </node>
  <node id="386582717" version="2" timestamp="2012-01-10T19:20:39Z" uid="71557" user="Taroc" changeset="10354318" lat="49.545017" lon="11.1733428"/>
  <node id="386586142" version="2" timestamp="2009-12-22T06:35:53Z" uid="7617" user="Franc" changeset="3424999" lat="-33.8279442" lon="151.2001555"/>
  <node id="386586142" version="3" timestamp="2010-03-14T14:45:38Z" uid="7617" user="Franc" changeset="4125224" lat="-33.8279226" lon="151.2001323"/>
  <node id="386586143" version="2" timestamp="2010-03-14T14:45:39Z" uid="7617" user="Franc" changeset="4125224" lat="-33.8263362" lon="151.1987857"/>
  <node id="386586145" version="3" timestamp="2010-03-14T14:45:38Z" uid="7617" user="Franc" changeset="4125224" lat="-33.8278194" lon="151.2001961">
    <tag k="amenity" v="telephone"/>
    <tag k="operator" v="Telstra"/>
    <tag k="payment:coins" v="yes"/>
    <tag k="payment:telephone_cards" v="yes"/>
  </node>
  <node id="386586146" version="2" timestamp="2010-03-14T14:45:39Z" uid="7617" user="Franc" changeset="4125224" lat="-33.8274562" lon="151.2003095">
    <tag k="amenity" v="post_box"/>
    <tag k="operator" v="Australia Post"/>
  </node>
  <node id="386586148" version="2" timestamp="2009-12-22T06:36:07Z" uid="7617" user="Franc" changeset="3424999" lat="-33.8242683" lon="151.2033044"/>
  <node id="386586149" version="2" timestamp="2009-12-22T06:35:58Z" uid="7617" user="Franc" changeset="3424999" lat="-33.8243396" lon="151.203251">
    <tag k="barrier" v="bollard"/>
    <tag k="bicycle" v="yes"/>
    <tag k="foot" v="yes"/>
    <tag k="source" v="survey"/>
  </node>
  <node id="386586149" version="3" timestamp="2010-06-21T11:08:55Z" uid="69319" user="Rhubarb" changeset="5041692" lat="-33.824325" lon="151.2032278">
    <tag k="barrier" v="bollard"/>
    <tag k="bicycle" v="yes"/>
    <tag k="foot" v="yes"/>
    <tag k="source" v="survey"/>
  </node>
  <node id="386586153" version="2" timestamp="2009-12-22T06:36:00Z" uid="7617" user="Franc" changeset="3424999" lat="-33.8247546" lon="151.2052661">
    <tag k="source" v="survey"/>
    <tag k="traffic_calming" v="hump"/>
  </node>
  <node id="386586153" version="3" timestamp="2010-06-21T11:08:55Z" uid="69319" user="Rhubarb" changeset="5041692" lat="-33.8247647" lon="151.2052618">
    <tag k="source" v="survey"/>
    <tag k="traffic_calming" v="hump"/>
  </node>
  <node id="386586155" version="2" timestamp="2009-12-22T06:36:00Z" uid="7617" user="Franc" changeset="3424999" lat="-33.8256125" lon="151.2065382"/>
  <node id="386587504" version="2" timestamp="2011-02-24T02:09:55Z" uid="6269" user="Mueck" changeset="7378289" lat="49.0581217" lon="8.3922327"/>
  <node id="386587504" version="3" timestamp="2012-02-12T18:51:54Z" uid="16330" user="aluka" changeset="10666581" lat="49.0581217" lon="8.3922327"/>
  <node id="386589520" version="4" timestamp="2009-06-16T14:37:40Z" uid="20587" user="balrog-kun" changeset="1535709" lat="52.6933436" lon="16.4258276">
    <tag k="addr:postcode" v="64-510"/>
    <tag k="is_in" v="Polska"/>
    <tag k="is_in:country" v="Poland"/>
    <tag k="is_in:county" v="powiat szamotulski"/>
    <tag k="is_in:municipality" v="gmina Wronki"/>
    <tag k="is_in:province" v="województwo wielkopolskie"/>
    <tag k="name" v="Samołęż"/>
    <tag k="place" v="village"/>
    <tag k="population" v="355"/>
    <tag k="source:population" v="wikipedia"/>
    <tag k="teryt:rm" v="01"/>
    <tag k="teryt:simc" v="0533185"/>
    <tag k="teryt:stan_na" v="2009-01-01"/>
    <tag k="teryt:terc" v="3024085"/>
    <tag k="teryt:updated_by" v="teryt2osm combine.py v. 47M"/>
    <tag k="wikipedia" v="pl:Samołęż"/>
  </node>
  <node id="386589520" version="5" timestamp="2009-10-21T15:24:14Z" uid="107566" user="Yabba" changeset="2913451" lat="52.6933525" lon="16.4258445">
    <tag k="addr:postcode" v="64-510"/>
    <tag k="is_in" v="Polska"/>
    <tag k="is_in:country" v="Poland"/>
    <tag k="is_in:county" v="powiat szamotulski"/>
    <tag k="is_in:municipality" v="gmina Wronki"/>
    <tag k="is_in:province" v="województwo wielkopolskie"/>
    <tag k="name" v="Samołęż"/>
    <tag k="name:de" v="Samolez"/>
    <tag k="name:en" v="Samolez"/>
    <tag k="place" v="village"/>
    <tag k="population" v="355"/>
    <tag k="source:population" v="wikipedia"/>
    <tag k="teryt:rm" v="01"/>
    <tag k="teryt:simc" v="0533185"/>
    <tag k="teryt:stan_na" v="2009-01-01"/>
    <tag k="teryt:terc" v="3024085"/>
    <tag k="teryt:updated_by" v="teryt2osm combine.py v. 47M"/>
    <tag k="wikipedia" v="pl:Samołęż"/>
  </node>
  <node id="386589520" version="6" timestamp="2010-04-11T04:46:50Z" uid="20587" user="balrog-kun" changeset="4389130" lat="52.6933308" lon="16.4259302">
    <tag k="addr:postcode" v="64-510"/>
    <tag k="is_in" v="Polska"/>
    <tag k="is_in:country" v="Poland"/>
    <tag k="is_in:county" v="powiat szamotulski"/>
    <tag k="is_in:municipality" v="gmina Wronki"/>
    <tag k="is_in:province" v="województwo wielkopolskie"/>
    <tag k="name" v="Samołęż"/>
    <tag k="name:de" v="Samolez"/>
    <tag k="name:en" v="Samolez"/>
    <tag k="place" v="village"/>
    <tag k="population" v="355"/>
    <tag k="source:population" v="wikipedia"/>
    <tag k="teryt:rm" v="01"/>
    <tag k="teryt:simc" v="0533185"/>
    <tag k="teryt:stan_na" v="2009-01-01"/>
    <tag k="teryt:terc" v="3024085"/>
    <tag k="teryt:updated_by" v="teryt2osm combine.py v. 47M"/>
    <tag k="wikipedia" v="pl:Samołęż"/>
  </node>
  <node id="386589520" version="7" timestamp="2011-06-09T21:29:05Z" uid="107566" user="Yabba" changeset="8392398" lat="52.6933933" lon="16.4220596">
    <tag k="addr:postcode" v="64-510"/>
    <tag k="is_in" v="Polska"/>
    <tag k="is_in:country" v="Poland"/>
    <tag k="is_in:county" v="powiat szamotulski"/>
    <tag k="is_in:municipality" v="gmina Wronki"/>
    <tag k="is_in:province" v="województwo wielkopolskie"/>
    <tag k="name" v="Samołęż"/>
    <tag k="name:de" v="Samolez"/>
    <tag k="name:en" v="Samolez"/>
    <tag k="place" v="village"/>
    <tag k="population" v="355"/>
    <tag k="source:population" v="wikipedia"/>
    <tag k="teryt:rm" v="01"/>
    <tag k="teryt:simc" v="0533185"/>
    <tag k="teryt:stan_na" v="2009-01-01"/>
    <tag k="teryt:terc" v="3024085"/>
    <tag k="teryt:updated_by" v="teryt2osm combine.py v. 47M"/>
    <tag k="wikipedia" v="pl:Samołęż"/>
  </node>
  <node id="386589539" version="4" timestamp="2009-06-16T14:37:46Z" uid="20587" user="balrog-kun" changeset="1535709" lat="52.6746116" lon="16.4556969">
    <tag k="addr:postcode" v="64-520"/>
    <tag k="is_in" v="Polska"/>
    <tag k="is_in:country" v="Poland"/>
    <tag k="is_in:county" v="powiat szamotulski"/>
    <tag k="is_in:municipality" v="gmina Obrzycko"/>
    <tag k="is_in:province" v="województwo wielkopolskie"/>
    <tag k="name" v="Ordzin"/>
    <tag k="place" v="village"/>
    <tag k="teryt:rm" v="01"/>
    <tag k="teryt:simc" v="0592041"/>
    <tag k="teryt:stan_na" v="2009-01-01"/>
    <tag k="teryt:terc" v="3024042"/>
    <tag k="teryt:updated_by" v="teryt2osm combine.py v. 47M"/>
    <tag k="wikipedia" v="pl:Ordzin"/>
  </node>
  <node id="386589539" version="5" timestamp="2010-04-11T04:46:50Z" uid="20587" user="balrog-kun" changeset="4389130" lat="52.6752951" lon="16.4574348">
    <tag k="addr:postcode" v="64-520"/>
    <tag k="is_in" v="Polska"/>
    <tag k="is_in:country" v="Poland"/>
    <tag k="is_in:county" v="powiat szamotulski"/>
    <tag k="is_in:municipality" v="gmina Obrzycko"/>
    <tag k="is_in:province" v="województwo wielkopolskie"/>
    <tag k="name" v="Ordzin"/>
    <tag k="place" v="village"/>
    <tag k="teryt:rm" v="01"/>
    <tag k="teryt:simc" v="0592041"/>
    <tag k="teryt:stan_na" v="2009-01-01"/>
    <tag k="teryt:terc" v="3024042"/>
    <tag k="teryt:updated_by" v="teryt2osm combine.py v. 47M"/>
    <tag k="wikipedia" v="pl:Ordzin"/>
  </node>
  <node id="386589545" version="4" timestamp="2009-06-16T14:37:50Z" uid="20587" user="balrog-kun" changeset="1535709" lat="52.6898061" lon="16.3913237">
    <tag k="addr:postcode" v="64-510"/>
    <tag k="is_in" v="Polska"/>
    <tag k="is_in:country" v="Poland"/>
    <tag k="is_in:county" v="powiat szamotulski"/>
    <tag k="is_in:municipality" v="gmina Wronki"/>
    <tag k="is_in:province" v="województwo wielkopolskie"/>
    <tag k="name" v="Nowa Wieś"/>
    <tag k="place" v="village"/>
    <tag k="population" v="1133"/>
    <tag k="source:population" v="wikipedia"/>
    <tag k="teryt:rm" v="01"/>
    <tag k="teryt:simc" v="0532961"/>
    <tag k="teryt:stan_na" v="2009-01-01"/>
    <tag k="teryt:terc" v="3024085"/>
    <tag k="teryt:updated_by" v="teryt2osm combine.py v. 47M"/>
    <tag k="wikipedia" v="pl:Nowa Wieś (gmina Wronki)"/>
  </node>
  <node id="386589545" version="5" timestamp="2009-10-21T10:08:40Z" uid="107566" user="Yabba" changeset="2910646" lat="52.6898083" lon="16.3913198">
    <tag k="addr:postcode" v="64-510"/>
    <tag k="is_in" v="Polska"/>
    <tag k="is_in:country" v="Poland"/>
    <tag k="is_in:county" v="powiat szamotulski"/>
    <tag k="is_in:municipality" v="gmina Wronki"/>
    <tag k="is_in:province" v="województwo wielkopolskie"/>
    <tag k="name" v="Nowa Wieś"/>
    <tag k="name:en" v="Nowa Wies"/>
    <tag k="place" v="village"/>
    <tag k="population" v="1133"/>
    <tag k="source:population" v="wikipedia"/>
    <tag k="teryt:rm" v="01"/>
    <tag k="teryt:simc" v="0532961"/>
    <tag k="teryt:stan_na" v="2009-01-01"/>
    <tag k="teryt:terc" v="3024085"/>
    <tag k="teryt:updated_by" v="teryt2osm combine.py v. 47M"/>
    <tag k="wikipedia" v="pl:Nowa Wieś (gmina Wronki)"/>
  </node>
  <node id="386589545" version="6" timestamp="2010-04-11T04:46:51Z" uid="20587" user="balrog-kun" changeset="4389130" lat="52.6906308" lon="16.3960839">
    <tag k="addr:postcode" v="64-510"/>
    <tag k="is_in" v="Polska"/>
    <tag k="is_in:country" v="Poland"/>
    <tag k="is_in:county" v="powiat szamotulski"/>
    <tag k="is_in:municipality" v="gmina Wronki"/>
    <tag k="is_in:province" v="województwo wielkopolskie"/>
    <tag k="name" v="Nowa Wieś"/>
    <tag k="name:en" v="Nowa Wies"/>
    <tag k="place" v="village"/>
    <tag k="population" v="1133"/>
    <tag k="source:population" v="wikipedia"/>
    <tag k="teryt:rm" v="01"/>
    <tag k="teryt:simc" v="0532961"/>
    <tag k="teryt:stan_na" v="2009-01-01"/>
    <tag k="teryt:terc" v="3024085"/>
    <tag k="teryt:updated_by" v="teryt2osm combine.py v. 47M"/>
    <tag k="wikipedia" v="pl:Nowa Wieś (gmina Wronki)"/>
  </node>
  <node id="386589600" version="3" timestamp="2009-06-16T14:37:56Z" uid="20587" user="balrog-kun" changeset="1535709" lat="52.669407" lon="16.3940705">
    <tag k="addr:postcode" v="64-560"/>
    <tag k="is_in" v="Polska"/>
    <tag k="is_in:country" v="Poland"/>
    <tag k="is_in:county" v="powiat szamotulski"/>
    <tag k="is_in:municipality" v="gmina Ostroróg"/>
    <tag k="is_in:province" v="województwo wielkopolskie"/>
    <tag k="name" v="Bobulczyn"/>
    <tag k="place" v="village"/>
    <tag k="teryt:rm" v="01"/>
    <tag k="teryt:simc" v="0592420"/>
    <tag k="teryt:stan_na" v="2009-01-01"/>
    <tag k="teryt:terc" v="3024055"/>
    <tag k="teryt:updated_by" v="teryt2osm combine.py v. 47M"/>
    <tag k="wikipedia" v="pl:Bobulczyn"/>
  </node>
  <node id="386589600" version="4" timestamp="2010-04-11T04:46:51Z" uid="20587" user="balrog-kun" changeset="4389130" lat="52.6688319" lon="16.3953063">
    <tag k="addr:postcode" v="64-560"/>
    <tag k="is_in" v="Polska"/>
    <tag k="is_in:country" v="Poland"/>
    <tag k="is_in:county" v="powiat szamotulski"/>
    <tag k="is_in:municipality" v="gmina Ostroróg"/>
    <tag k="is_in:province" v="województwo wielkopolskie"/>
    <tag k="name" v="Bobulczyn"/>
    <tag k="place" v="village"/>
    <tag k="teryt:rm" v="01"/>
    <tag k="teryt:simc" v="0592420"/>
    <tag k="teryt:stan_na" v="2009-01-01"/>
    <tag k="teryt:terc" v="3024055"/>
    <tag k="teryt:updated_by" v="teryt2osm combine.py v. 47M"/>
    <tag k="wikipedia" v="pl:Bobulczyn"/>
  </node>
  <node id="386589665" version="2" timestamp="2009-06-16T14:37:39Z" uid="20587" user="balrog-kun" changeset="1535709" lat="52.6637854" lon="16.4253129">
    <tag k="addr:postcode" v="64-560"/>
    <tag k="is_in" v="Polska"/>
    <tag k="is_in:county" v="powiat szamotulski"/>
    <tag k="is_in:municipality" v="gmina Ostroróg"/>
    <tag k="is_in:province" v="województwo wielkopolskie"/>
    <tag k="name" v="Oporowo"/>
    <tag k="place" v="village"/>
    <tag k="wikipedia" v="pl:Oporowo (powiat szamotulski)"/>
  </node>
  <node id="386589665" version="3" timestamp="2010-04-11T04:46:51Z" uid="20587" user="balrog-kun" changeset="4389130" lat="52.6637328" lon="16.425048">
    <tag k="addr:postcode" v="64-560"/>
    <tag k="is_in" v="Polska"/>
    <tag k="is_in:county" v="powiat szamotulski"/>
    <tag k="is_in:municipality" v="gmina Ostroróg"/>
    <tag k="is_in:province" v="województwo wielkopolskie"/>
    <tag k="name" v="Oporowo"/>
    <tag k="place" v="village"/>
    <tag k="wikipedia" v="pl:Oporowo (powiat szamotulski)"/>
  </node>
  <node id="386589740" version="4" timestamp="2009-06-16T14:37:43Z" uid="20587" user="balrog-kun" changeset="1535709" lat="52.7057227" lon="16.4175879">
    <tag k="addr:postcode" v="64-510"/>
    <tag k="is_in" v="Polska"/>
    <tag k="is_in:country" v="Poland"/>
    <tag k="is_in:county" v="powiat szamotulski"/>
    <tag k="is_in:municipality" v="gmina Wronki"/>
    <tag k="is_in:province" v="województwo wielkopolskie"/>
    <tag k="name" v="Stróżki"/>
    <tag k="place" v="village"/>
    <tag k="population" v="389"/>
    <tag k="source:population" v="wikipedia"/>
    <tag k="teryt:rm" v="01"/>
    <tag k="teryt:simc" v="0533200"/>
    <tag k="teryt:stan_na" v="2009-01-01"/>
    <tag k="teryt:terc" v="3024085"/>
    <tag k="teryt:updated_by" v="teryt2osm combine.py v. 47M"/>
    <tag k="wikipedia" v="pl:Stróżki"/>
  </node>
  <node id="386589740" version="5" timestamp="2009-10-21T15:25:04Z" uid="107566" user="Yabba" changeset="2913461" lat="52.7057251" lon="16.4175818">
    <tag k="addr:postcode" v="64-510"/>
    <tag k="is_in" v="Polska"/>
    <tag k="is_in:country" v="Poland"/>
    <tag k="is_in:county" v="powiat szamotulski"/>
    <tag k="is_in:municipality" v="gmina Wronki"/>
    <tag k="is_in:province" v="województwo wielkopolskie"/>
    <tag k="name" v="Stróżki"/>
    <tag k="name:de" v="Strozki"/>
    <tag k="name:en" v="Strozki"/>
    <tag k="place" v="village"/>
    <tag k="population" v="389"/>
    <tag k="source:population" v="wikipedia"/>
    <tag k="teryt:rm" v="01"/>
    <tag k="teryt:simc" v="0533200"/>
    <tag k="teryt:stan_na" v="2009-01-01"/>
    <tag k="teryt:terc" v="3024085"/>
    <tag k="teryt:updated_by" v="teryt2osm combine.py v. 47M"/>
    <tag k="wikipedia" v="pl:Stróżki"/>
  </node>
  <node id="386589740" version="6" timestamp="2010-04-11T04:46:51Z" uid="20587" user="balrog-kun" changeset="4389130" lat="52.7056036" lon="16.4170233">
    <tag k="addr:postcode" v="64-510"/>
    <tag k="is_in" v="Polska"/>
    <tag k="is_in:country" v="Poland"/>
    <tag k="is_in:county" v="powiat szamotulski"/>
    <tag k="is_in:municipality" v="gmina Wronki"/>
    <tag k="is_in:province" v="województwo wielkopolskie"/>
    <tag k="name" v="Stróżki"/>
    <tag k="name:de" v="Strozki"/>
    <tag k="name:en" v="Strozki"/>
    <tag k="place" v="village"/>
    <tag k="population" v="389"/>
    <tag k="source:population" v="wikipedia"/>
    <tag k="teryt:rm" v="01"/>
    <tag k="teryt:simc" v="0533200"/>
    <tag k="teryt:stan_na" v="2009-01-01"/>
    <tag k="teryt:terc" v="3024085"/>
    <tag k="teryt:updated_by" v="teryt2osm combine.py v. 47M"/>
    <tag k="wikipedia" v="pl:Stróżki"/>
  </node>
  <node id="386589746" version="3" timestamp="2009-06-16T14:37:48Z" uid="20587" user="balrog-kun" changeset="1535709" lat="52.6929267" lon="16.3523568">
    <tag k="addr:postcode" v="64-510"/>
    <tag k="is_in" v="Polska"/>
    <tag k="is_in:country" v="Poland"/>
    <tag k="is_in:county" v="powiat szamotulski"/>
    <tag k="is_in:municipality" v="gmina Wronki"/>
    <tag k="is_in:province" v="województwo wielkopolskie"/>
    <tag k="name" v="Stare Miasto"/>
    <tag k="place" v="village"/>
    <tag k="population" v="221"/>
    <tag k="source:population" v="wikipedia"/>
    <tag k="teryt:rm" v="01"/>
    <tag k="teryt:simc" v="0533191"/>
    <tag k="teryt:stan_na" v="2009-01-01"/>
    <tag k="teryt:terc" v="3024085"/>
    <tag k="teryt:updated_by" v="teryt2osm combine.py v. 47M"/>
    <tag k="wikipedia" v="pl:Stare Miasto (powiat szamotulski)"/>
  </node>
  <node id="386589746" version="4" timestamp="2010-04-11T04:46:51Z" uid="20587" user="balrog-kun" changeset="4389130" lat="52.6942357" lon="16.3536118">
    <tag k="addr:postcode" v="64-510"/>
    <tag k="is_in" v="Polska"/>
    <tag k="is_in:country" v="Poland"/>
    <tag k="is_in:county" v="powiat szamotulski"/>
    <tag k="is_in:municipality" v="gmina Wronki"/>
    <tag k="is_in:province" v="województwo wielkopolskie"/>
    <tag k="name" v="Stare Miasto"/>
    <tag k="place" v="village"/>
    <tag k="population" v="221"/>
    <tag k="source:population" v="wikipedia"/>
    <tag k="teryt:rm" v="01"/>
    <tag k="teryt:simc" v="0533191"/>
    <tag k="teryt:stan_na" v="2009-01-01"/>
    <tag k="teryt:terc" v="3024085"/>
    <tag k="teryt:updated_by" v="teryt2osm combine.py v. 47M"/>
    <tag k="wikipedia" v="pl:Stare Miasto (powiat szamotulski)"/>
  </node>
  <node id="386589779" version="4" timestamp="2009-06-16T14:37:40Z" uid="20587" user="balrog-kun" changeset="1535709" lat="52.6673257" lon="16.3101364">
    <tag k="addr:postcode" v="64-510"/>
    <tag k="is_in" v="Polska"/>
    <tag k="is_in:country" v="Poland"/>
    <tag k="is_in:county" v="powiat szamotulski"/>
    <tag k="is_in:municipality" v="gmina Wronki"/>
    <tag k="is_in:province" v="województwo wielkopolskie"/>
    <tag k="name" v="Wróblewo"/>
    <tag k="place" v="village"/>
    <tag k="population" v="395"/>
    <tag k="source:population" v="wikipedia"/>
    <tag k="teryt:rm" v="01"/>
    <tag k="teryt:simc" v="0533245"/>
    <tag k="teryt:stan_na" v="2009-01-01"/>
    <tag k="teryt:terc" v="3024085"/>
    <tag k="teryt:updated_by" v="teryt2osm combine.py v. 47M"/>
    <tag k="wikipedia" v="pl:Wróblewo (powiat szamotulski)"/>
  </node>
  <node id="386589779" version="5" timestamp="2010-04-11T04:46:51Z" uid="20587" user="balrog-kun" changeset="4389130" lat="52.666937" lon="16.3101015">
    <tag k="addr:postcode" v="64-510"/>
    <tag k="is_in" v="Polska"/>
    <tag k="is_in:country" v="Poland"/>
    <tag k="is_in:county" v="powiat szamotulski"/>
    <tag k="is_in:municipality" v="gmina Wronki"/>
    <tag k="is_in:province" v="województwo wielkopolskie"/>
    <tag k="name" v="Wróblewo"/>
    <tag k="place" v="village"/>
    <tag k="population" v="395"/>
    <tag k="source:population" v="wikipedia"/>
    <tag k="teryt:rm" v="01"/>
    <tag k="teryt:simc" v="0533245"/>
    <tag k="teryt:stan_na" v="2009-01-01"/>
    <tag k="teryt:terc" v="3024085"/>
    <tag k="teryt:updated_by" v="teryt2osm combine.py v. 47M"/>
    <tag k="wikipedia" v="pl:Wróblewo (powiat szamotulski)"/>
  </node>
  <node id="386589827" version="6" timestamp="2010-07-29T08:58:59Z" uid="74617" user="JohnSmith" changeset="5344848" lat="49.1442596" lon="7.1520371">
    <tag k="amenity" v="emergency_phone"/>
    <tag k="emergency" v="phone"/>
    <tag k="operator" v="Telekom"/>
  </node>
  <node id="386589874" version="3" timestamp="2009-06-16T14:37:47Z" uid="20587" user="balrog-kun" changeset="1535709" lat="52.6437914" lon="16.4172448">
    <tag k="addr:postcode" v="64-560"/>
    <tag k="is_in" v="Polska"/>
    <tag k="is_in:country" v="Poland"/>
    <tag k="is_in:county" v="powiat szamotulski"/>
    <tag k="is_in:municipality" v="gmina Ostroróg"/>
    <tag k="is_in:province" v="województwo wielkopolskie"/>
    <tag k="name" v="Dobrojewo"/>
    <tag k="place" v="village"/>
    <tag k="teryt:rm" v="01"/>
    <tag k="teryt:simc" v="0592437"/>
    <tag k="teryt:stan_na" v="2009-01-01"/>
    <tag k="teryt:terc" v="3024055"/>
    <tag k="teryt:updated_by" v="teryt2osm combine.py v. 47M"/>
    <tag k="wikipedia" v="Dobrojewo, Greater Poland Voivodeship"/>
  </node>
  <node id="386589874" version="4" timestamp="2010-04-11T04:46:51Z" uid="20587" user="balrog-kun" changeset="4389130" lat="52.644334" lon="16.4178104">
    <tag k="addr:postcode" v="64-560"/>
    <tag k="is_in" v="Polska"/>
    <tag k="is_in:country" v="Poland"/>
    <tag k="is_in:county" v="powiat szamotulski"/>
    <tag k="is_in:municipality" v="gmina Ostroróg"/>
    <tag k="is_in:province" v="województwo wielkopolskie"/>
    <tag k="name" v="Dobrojewo"/>
    <tag k="place" v="village"/>
    <tag k="teryt:rm" v="01"/>
    <tag k="teryt:simc" v="0592437"/>
    <tag k="teryt:stan_na" v="2009-01-01"/>
    <tag k="teryt:terc" v="3024055"/>
    <tag k="teryt:updated_by" v="teryt2osm combine.py v. 47M"/>
    <tag k="wikipedia" v="Dobrojewo, Greater Poland Voivodeship"/>
  </node>
  <node id="386589879" version="3" timestamp="2009-06-16T14:37:50Z" uid="20587" user="balrog-kun" changeset="1535709" lat="52.6401457" lon="16.3839425">
    <tag k="addr:postcode" v="64-560"/>
    <tag k="is_in" v="Polska"/>
    <tag k="is_in:country" v="Poland"/>
    <tag k="is_in:county" v="powiat szamotulski"/>
    <tag k="is_in:municipality" v="gmina Ostroróg"/>
    <tag k="is_in:province" v="województwo wielkopolskie"/>
    <tag k="name" v="Binino"/>
    <tag k="place" v="village"/>
    <tag k="teryt:rm" v="01"/>
    <tag k="teryt:simc" v="0592408"/>
    <tag k="teryt:stan_na" v="2009-01-01"/>
    <tag k="teryt:terc" v="3024055"/>
    <tag k="teryt:updated_by" v="teryt2osm combine.py v. 47M"/>
    <tag k="wikipedia" v="pl:Binino"/>
  </node>
  <node id="386589879" version="4" timestamp="2010-04-11T04:46:51Z" uid="20587" user="balrog-kun" changeset="4389130" lat="52.641107" lon="16.3838458">
    <tag k="addr:postcode" v="64-560"/>
    <tag k="is_in" v="Polska"/>
    <tag k="is_in:country" v="Poland"/>
    <tag k="is_in:county" v="powiat szamotulski"/>
    <tag k="is_in:municipality" v="gmina Ostroróg"/>
    <tag k="is_in:province" v="województwo wielkopolskie"/>
    <tag k="name" v="Binino"/>
    <tag k="place" v="village"/>
    <tag k="teryt:rm" v="01"/>
    <tag k="teryt:simc" v="0592408"/>
    <tag k="teryt:stan_na" v="2009-01-01"/>
    <tag k="teryt:terc" v="3024055"/>
    <tag k="teryt:updated_by" v="teryt2osm combine.py v. 47M"/>
    <tag k="wikipedia" v="pl:Binino"/>
  </node>
  <node id="386589887" version="3" timestamp="2009-06-16T14:37:56Z" uid="20587" user="balrog-kun" changeset="1535709" lat="52.6380623" lon="16.3585366">
    <tag k="addr:postcode" v="64-560"/>
    <tag k="is_in" v="Polska"/>
    <tag k="is_in:country" v="Poland"/>
    <tag k="is_in:county" v="powiat szamotulski"/>
    <tag k="is_in:municipality" v="gmina Ostroróg"/>
    <tag k="is_in:province" v="województwo wielkopolskie"/>
    <tag k="name" v="Bielejewo"/>
    <tag k="place" v="village"/>
    <tag k="teryt:rm" v="01"/>
    <tag k="teryt:simc" v="0592390"/>
    <tag k="teryt:stan_na" v="2009-01-01"/>
    <tag k="teryt:terc" v="3024055"/>
    <tag k="teryt:updated_by" v="teryt2osm combine.py v. 47M"/>
    <tag k="wikipedia" v="pl:Bielejewo (powiat szamotulski)"/>
  </node>
  <node id="386586142" version="4" timestamp="2012-07-19T21:38:52Z" uid="722137" user="OSMF Redaction Account" changeset="12348663" lat="-33.827951" lon="151.2001912"/>
  <node id="386586142" version="5" timestamp="2012-07-24T05:30:03Z" uid="104101" user="swanilli" changeset="12460272" lat="-33.8279291" lon="151.2001702"/>
  <node id="386586143" version="3" timestamp="2012-07-19T21:38:57Z" uid="722137" user="OSMF Redaction Account" changeset="12348663" lat="-33.8263542" lon="151.1988032"/>
  <node id="386586145" version="4" timestamp="2012-07-19T21:38:52Z" uid="722137" user="OSMF Redaction Account" changeset="12348663" lat="-33.8278715" lon="151.2002215">
    <tag k="amenity" v="telephone"/>
    <tag k="operator" v="Telstra"/>
    <tag k="payment:coins" v="yes"/>
    <tag k="payment:telephone_cards" v="yes"/>
  </node>
  <node id="386586146" version="3" timestamp="2012-07-19T21:38:54Z" uid="722137" user="OSMF Redaction Account" changeset="12348663" lat="-33.8274104" lon="151.2003427">
    <tag k="amenity" v="post_box"/>
    <tag k="operator" v="Australia Post"/>
  </node>
  <node id="386586155" version="3" timestamp="2012-07-19T21:39:00Z" uid="722137" user="OSMF Redaction Account" changeset="12348663" lat="-33.8256249" lon="151.2065371"/>
  <node id="386589827" version="7" timestamp="2012-07-18T19:54:36Z" uid="722137" user="OSMF Redaction Account" changeset="12295908" lat="49.1442596" lon="7.1520371">
    <tag k="amenity" v="emergency_phone"/>
    <tag k="operator" v="Telekom"/>
  </node>
</osm>
