<?xml version='1.0' encoding='UTF-8'?>
<osm version="0.6" generator="libosmium/2.20.0">
  <node id="387565010" version="4" timestamp="2009-12-24T01:23:00Z" uid="6975" user="ulfl" changeset="3439407" lat="41.157965" lon="-104.5270645">
    <tag k="highway" v="motorway_junction"/>
    <tag k="name" v="WY 217; Hillsdale"/>
    <tag k="ref" v="377"/>
  </node>
  <node id="387565010" version="5" timestamp="2010-12-19T07:02:26Z" uid="262151" user="ToeBee" changeset="6702828" lat="41.1580158" lon="-104.5289194">
    <tag k="highway" v="motorway_junction"/>
    <tag k="name" v="WY 217; Hillsdale"/>
    <tag k="ref" v="377"/>
  </node>
  <node id="387565010" version="6" timestamp="2011-03-26T07:39:55Z" uid="207745" user="NE2" changeset="7672610" lat="41.1580158" lon="-104.5289194">
    <tag k="exit_to" v="WY 217; Hillsdale"/>
    <tag k="highway" v="motorway_junction"/>
    <tag k="ref" v="377"/>
  </node>
  <node id="387565010" version="7" timestamp="2012-01-20T02:29:17Z" uid="262151" user="ToeBee" changeset="10442905" lat="41.1580064" lon="-104.5284121">
    <tag k="exit_to" v="WY 217; Hillsdale"/>
    <tag k="highway" v="motorway_junction"/>
    <tag k="ref" v="377"/>
  </node>
</osm>
