<?xml version='1.0' encoding='UTF-8'?>
<osm version="0.6" generator="libosmium/2.20.0">
  <node id="389781967" version="1" timestamp="2009-05-03T15:47:15Z" uid="10712" user="Kraeml" changeset="1063292" lat="47.7891841" lon="11.5746529"/>
  <node id="389781968" version="1" timestamp="2009-05-03T15:47:15Z" uid="10712" user="Kraeml" changeset="1063292" lat="47.7899979" lon="11.5735136"/>
  <node id="389781969" version="1" timestamp="2009-05-03T15:47:15Z" uid="10712" user="Kraeml" changeset="1063292" lat="47.7911139" lon="11.5728858"/>
  <node id="389781969" version="2" timestamp="2011-02-17T08:03:32Z" uid="42393" user="mawi42" changeset="7310707" lat="47.7911201" lon="11.5729093"/>
  <node id="389781970" version="1" timestamp="2009-05-03T15:47:15Z" uid="10712" user="Kraeml" changeset="1063292" lat="47.7936251" lon="11.5705607"/>
  <node id="389781971" version="1" timestamp="2009-05-03T15:47:15Z" uid="10712" user="Kraeml" changeset="1063292" lat="47.7948341" lon="11.5693981"/>
  <node id="389781971" version="2" timestamp="2009-05-23T15:34:19Z" uid="112822" user="chearth" changeset="1296031" lat="47.7948752" lon="11.5694899"/>
  <node id="389781971" version="3" timestamp="2010-08-02T09:38:08Z" uid="212179" user="TKKU" changeset="5378619" lat="47.7947258" lon="11.5695632"/>
  <node id="389781972" version="1" timestamp="2009-05-03T15:47:15Z" uid="10712" user="Kraeml" changeset="1063292" lat="47.7950666" lon="11.5677473"/>
  <node id="389781972" version="2" timestamp="2009-05-23T15:34:19Z" uid="112822" user="chearth" changeset="1296031" lat="47.7949022" lon="11.5675025"/>
  <node id="389781972" version="3" timestamp="2010-08-02T09:38:08Z" uid="212179" user="TKKU" changeset="5378619" lat="47.7948772" lon="11.5676213"/>
  <node id="389783488" version="2" timestamp="2011-01-04T00:25:01Z" uid="6269" user="Mueck" changeset="6856599" lat="53.6032174" lon="8.5348268">
    <tag k="highway" v="bus_stop"/>
    <tag k="name" v="Anne-Frank-Schule"/>
  </node>
  <node id="389783493" version="1" timestamp="2009-05-03T15:50:00Z" uid="10712" user="Kraeml" changeset="1063340" lat="47.7453692" lon="11.5866853"/>
  <node id="389783493" version="2" timestamp="2011-01-23T10:29:38Z" uid="62236" user="Paulchen Panther" changeset="7059291" lat="47.7453016" lon="11.5866769"/>
  <node id="389783493" version="3" timestamp="2011-04-12T21:29:11Z" uid="417684" user="Maler" changeset="7846078" lat="47.7453016" lon="11.5867001"/>
  <node id="389783494" version="1" timestamp="2009-05-03T15:50:00Z" uid="10712" user="Kraeml" changeset="1063340" lat="47.7446367" lon="11.5862227"/>
  <node id="389783494" version="2" timestamp="2011-04-16T15:34:04Z" uid="417684" user="Maler" changeset="7878483" lat="47.7446701" lon="11.5862936"/>
  <node id="389783495" version="1" timestamp="2009-05-03T15:50:00Z" uid="10712" user="Kraeml" changeset="1063340" lat="47.7443089" lon="11.5859528"/>
  <node id="389783495" version="2" timestamp="2011-01-23T10:29:32Z" uid="62236" user="Paulchen Panther" changeset="7059291" lat="47.7442244" lon="11.5860449"/>
  <node id="389783495" version="3" timestamp="2011-02-17T14:20:06Z" uid="42393" user="mawi42" changeset="7313544" lat="47.7442321" lon="11.5860012"/>
  <node id="389783496" version="1" timestamp="2009-05-03T15:50:00Z" uid="10712" user="Kraeml" changeset="1063340" lat="47.7440391" lon="11.5854901"/>
  <node id="389783496" version="2" timestamp="2011-01-23T10:29:38Z" uid="62236" user="Paulchen Panther" changeset="7059291" lat="47.744056" lon="11.5856074"/>
  <node id="389783496" version="3" timestamp="2011-02-17T14:20:07Z" uid="42393" user="mawi42" changeset="7313544" lat="47.7440712" lon="11.5856262"/>
  <node id="389783592" version="2" timestamp="2011-01-04T00:24:55Z" uid="6269" user="Mueck" changeset="6856599" lat="53.6030741" lon="8.5354276">
    <tag k="highway" v="bus_stop"/>
    <tag k="name" v="Anne-Frank-Schule"/>
  </node>
  <node id="389784247" version="3" timestamp="2010-12-17T00:44:15Z" uid="6269" user="Mueck" changeset="6683028" lat="53.5936428" lon="8.5483538"/>
  <node id="389785410" version="1" timestamp="2009-05-03T15:53:31Z" uid="10712" user="Kraeml" changeset="1063384" lat="47.7452535" lon="11.5872251"/>
  <node id="389785410" version="2" timestamp="2011-01-23T10:29:38Z" uid="62236" user="Paulchen Panther" changeset="7059291" lat="47.7453774" lon="11.5875769"/>
  <node id="389785412" version="1" timestamp="2009-05-03T15:53:31Z" uid="10712" user="Kraeml" changeset="1063384" lat="47.7458704" lon="11.5886324"/>
  <node id="389785412" version="2" timestamp="2011-01-23T10:29:33Z" uid="62236" user="Paulchen Panther" changeset="7059291" lat="47.7459267" lon="11.5888167"/>
  <node id="389785412" version="3" timestamp="2011-02-17T14:20:06Z" uid="42393" user="mawi42" changeset="7313544" lat="47.7459127" lon="11.588847"/>
  <node id="389785414" version="1" timestamp="2009-05-03T15:53:31Z" uid="10712" user="Kraeml" changeset="1063384" lat="47.745215" lon="11.5889794"/>
  <node id="389785414" version="2" timestamp="2011-01-23T10:29:40Z" uid="62236" user="Paulchen Panther" changeset="7059291" lat="47.7451756" lon="11.589105"/>
  <node id="389785414" version="3" timestamp="2011-02-17T14:20:07Z" uid="42393" user="mawi42" changeset="7313544" lat="47.7450636" lon="11.5891308"/>
  <node id="389785416" version="1" timestamp="2009-05-03T15:53:31Z" uid="10712" user="Kraeml" changeset="1063384" lat="47.744174" lon="11.5892685"/>
  <node id="389785416" version="2" timestamp="2011-01-23T10:29:34Z" uid="62236" user="Paulchen Panther" changeset="7059291" lat="47.7444894" lon="11.589302"/>
  <node id="389785418" version="1" timestamp="2009-05-03T15:53:31Z" uid="10712" user="Kraeml" changeset="1063384" lat="47.7433451" lon="11.5890565"/>
  <node id="389785418" version="2" timestamp="2011-01-08T20:38:09Z" uid="42393" user="mawi42" changeset="6908608" lat="47.7433202" lon="11.5890756"/>
  <node id="389785420" version="1" timestamp="2009-05-03T15:53:31Z" uid="10712" user="Kraeml" changeset="1063384" lat="47.7428439" lon="11.5891336"/>
  <node id="389785420" version="2" timestamp="2010-08-02T09:38:31Z" uid="212179" user="TKKU" changeset="5378619" lat="47.7427914" lon="11.589079"/>
  <node id="389785420" version="3" timestamp="2011-01-08T20:38:11Z" uid="42393" user="mawi42" changeset="6908608" lat="47.742764" lon="11.5891255"/>
  <node id="389785422" version="1" timestamp="2009-05-03T15:53:31Z" uid="10712" user="Kraeml" changeset="1063384" lat="47.7422848" lon="11.5901939"/>
  <node id="389785422" version="2" timestamp="2010-08-02T09:38:31Z" uid="212179" user="TKKU" changeset="5378619" lat="47.7420194" lon="11.5897978"/>
  <node id="389785422" version="3" timestamp="2011-01-08T20:38:09Z" uid="42393" user="mawi42" changeset="6908608" lat="47.7419812" lon="11.5896662"/>
  <node id="389785898" version="2" timestamp="2009-09-30T14:09:00Z" uid="36809" user="pfoten_weg_!_" changeset="2688850" lat="47.209883" lon="11.526933">
    <tag k="ele" v="2610"/>
    <tag k="massif" v="Tuxer Alpen"/>
    <tag k="name" v="Glungezerhütte"/>
    <tag k="note" v="Koordinaten vom ÖAV zur Verfügung gestellt"/>
    <tag k="operator" v="Sektion Hall in Tirol"/>
    <tag k="tourism" v="alpine_hut"/>
  </node>
  <node id="389785898" version="3" timestamp="2010-07-11T20:36:30Z" uid="25342" user="Philipp Spitzer" changeset="5193976" lat="47.2096931" lon="11.5268932">
    <tag k="ele" v="2610"/>
    <tag k="massif" v="Tuxer Alpen"/>
    <tag k="name" v="Glungezerhütte"/>
    <tag k="note" v="Koordinaten vom ÖAV zur Verfügung gestellt"/>
    <tag k="operator" v="Sektion Hall in Tirol"/>
    <tag k="tourism" v="alpine_hut"/>
  </node>
  <node id="389785898" version="4" timestamp="2010-07-12T06:56:27Z" uid="74027" user="katzlbt" changeset="5196060" lat="47.2097685" lon="11.5268225">
    <tag k="amenity" v="restaurant"/>
    <tag k="ele" v="2610"/>
    <tag k="massif" v="Tuxer Alpen"/>
    <tag k="name" v="Glungezerhütte"/>
    <tag k="note" v="Koordinaten vom ÖAV zur Verfügung gestellt"/>
    <tag k="operator" v="Sektion Hall in Tirol"/>
    <tag k="tourism" v="alpine_hut"/>
  </node>
  <node id="389785898" version="5" timestamp="2012-02-22T20:25:28Z" uid="606250" user="katzlmacher" changeset="10762883" lat="47.2097685" lon="11.5268225"/>
  <node id="389786113" version="2" timestamp="2009-09-30T14:11:52Z" uid="36809" user="pfoten_weg_!_" changeset="2688850" lat="47.166733" lon="11.640617">
    <tag k="ele" v="2019"/>
    <tag k="massif" v="Tuxer Alpen"/>
    <tag k="name" v="Lizumer Hütte"/>
    <tag k="note" v="Koordinaten vom ÖAV zur Verfügung gestellt"/>
    <tag k="operator" v="Sektion Hall in Tirol"/>
    <tag k="tourism" v="alpine_hut"/>
  </node>
  <node id="389786113" version="3" timestamp="2010-04-25T21:01:37Z" uid="45481" user="borisC" changeset="4526418" lat="47.1667129" lon="11.6403664">
    <tag k="ele" v="2019"/>
    <tag k="massif" v="Tuxer Alpen"/>
    <tag k="name" v="Lizumer Hütte"/>
    <tag k="note" v="Koordinaten vom ÖAV zur Verfügung gestellt"/>
    <tag k="operator" v="Sektion Hall in Tirol"/>
    <tag k="tourism" v="alpine_hut"/>
  </node>
  <node id="389786113" version="4" timestamp="2011-01-12T16:57:46Z" uid="38695" user="Kappler" changeset="6949044" lat="47.1666975" lon="11.6404254">
    <tag k="ele" v="2019"/>
    <tag k="massif" v="Tuxer Alpen"/>
    <tag k="name" v="Lizumer Hütte"/>
    <tag k="note" v="Koordinaten vom ÖAV zur Verfügung gestellt"/>
    <tag k="operator" v="Sektion Hall in Tirol"/>
    <tag k="tourism" v="alpine_hut"/>
  </node>
  <node id="389786131" version="2" timestamp="2009-07-12T06:39:20Z" uid="43967" user="railsnail" changeset="1803416" lat="46.93425" lon="12.7413">
    <tag k="created_by" v="GPSBabel-1.3.6"/>
    <tag k="ele" v="1977"/>
    <tag k="massif" v="Schobergruppe"/>
    <tag k="name" v="Lienzer Hütte"/>
    <tag k="note" v="Koordinaten vom ÖAV zur Verfügung gestellt"/>
    <tag k="operator" v="Sektion Lienz"/>
    <tag k="tourism" v="alpine_hut"/>
  </node>
  <node id="389786165" version="2" timestamp="2009-09-30T13:50:18Z" uid="36809" user="pfoten_weg_!_" changeset="2688850" lat="47.211167" lon="11.452317">
    <tag k="ele" v="1970"/>
    <tag k="massif" v="Tuxer Alpen"/>
    <tag k="name" v="Patscherkofelhaus"/>
    <tag k="note" v="Koordinaten vom ÖAV zur Verfügung gestellt"/>
    <tag k="operator" v="Sektion TK Innsbruck"/>
    <tag k="tourism" v="alpine_hut"/>
  </node>
  <node id="389786165" version="3" timestamp="2010-11-05T03:14:33Z" uid="45481" user="borisC" changeset="6292989" lat="47.210531" lon="11.4523287">
    <tag k="ele" v="1970"/>
    <tag k="massif" v="Tuxer Alpen"/>
    <tag k="name" v="Patscherkofelhaus"/>
    <tag k="note" v="Koordinaten vom ÖAV zur Verfügung gestellt"/>
    <tag k="operator" v="Sektion TK Innsbruck"/>
    <tag k="tourism" v="alpine_hut"/>
  </node>
  <node id="389786208" version="2" timestamp="2009-09-30T13:49:58Z" uid="36809" user="pfoten_weg_!_" changeset="2688850" lat="47.142017" lon="11.5686">
    <tag k="ele" v="1787"/>
    <tag k="massif" v="Tuxer Alpen"/>
    <tag k="name" v="Naviser Hütte"/>
    <tag k="note" v="Koordinaten vom ÖAV zur Verfügung gestellt"/>
    <tag k="operator" v="Sektion Akad.Sektion Innsbruck"/>
    <tag k="tourism" v="alpine_hut"/>
  </node>
  <node id="389786208" version="3" timestamp="2009-11-30T08:11:49Z" uid="74027" user="katzlbt" changeset="3253652" lat="47.1422114" lon="11.5689977">
    <tag k="ele" v="1787"/>
    <tag k="massif" v="Tuxer Alpen"/>
    <tag k="name" v="Naviser Hütte"/>
    <tag k="note" v="Koordinaten vom ÖAV zur Verfügung gestellt"/>
    <tag k="operator" v="Sektion Akad.Sektion Innsbruck"/>
    <tag k="tourism" v="alpine_hut"/>
  </node>
  <node id="389786208" version="4" timestamp="2009-12-06T16:09:54Z" uid="74027" user="katzlbt" changeset="3306612" lat="47.1420577" lon="11.5684562">
    <tag k="ele" v="1787"/>
    <tag k="massif" v="Tuxer Alpen"/>
    <tag k="name" v="Naviser Hütte"/>
    <tag k="note" v="Koordinaten vom ÖAV zur Verfügung gestellt"/>
    <tag k="operator" v="Sektion Akad.Sektion Innsbruck"/>
    <tag k="tourism" v="alpine_hut"/>
  </node>
  <node id="389786208" version="5" timestamp="2009-12-06T19:09:27Z" uid="74027" user="katzlbt" changeset="3308471" lat="47.1420577" lon="11.5684561">
    <tag k="ele" v="1787"/>
    <tag k="massif" v="Tuxer Alpen"/>
    <tag k="name" v="Naviser Hütte"/>
    <tag k="note" v="closed down alpine_hut"/>
    <tag k="operator" v="Sektion Akad.Sektion Innsbruck"/>
    <tag k="place" v="locality"/>
  </node>
  <node id="389786208" version="6" timestamp="2009-12-06T19:30:40Z" uid="74027" user="katzlbt" changeset="3308933" lat="47.1420986" lon="11.5684443">
    <tag k="ele" v="1787"/>
    <tag k="massif" v="Tuxer Alpen"/>
    <tag k="name" v="Naviser Hütte"/>
    <tag k="note" v="closed down alpine_hut"/>
    <tag k="operator" v="Sektion Akad.Sektion Innsbruck"/>
    <tag k="place" v="locality"/>
  </node>
  <node id="389786208" version="7" timestamp="2012-02-27T17:46:11Z" uid="606250" user="katzlmacher" changeset="10811005" lat="47.1420986" lon="11.5684443"/>
  <node id="389786400" version="2" timestamp="2009-09-30T14:09:04Z" uid="36809" user="pfoten_weg_!_" changeset="2688850" lat="47.219927" lon="11.521665">
    <tag k="ele" v="1229"/>
    <tag k="massif" v="Tuxer Alpen"/>
    <tag k="name" v="Vinzenz-Tollinger-Hütte"/>
    <tag k="note" v="Koordinaten vom ÖAV zur Verfügung gestellt"/>
    <tag k="operator" v="Sektion Hall in Tirol"/>
    <tag k="tourism" v="alpine_hut"/>
  </node>
  <node id="389786400" version="3" timestamp="2010-04-04T21:52:29Z" uid="19763" user="leofranz" changeset="4327813" lat="47.219927" lon="11.521665">
    <tag k="ele" v="1229"/>
    <tag k="massif" v="Tuxer Alpen"/>
    <tag k="name" v="Vinzenz-Tollinger-Hütte"/>
    <tag k="note" v="Koordinaten vom ÖAV zur Verfügung gestellt"/>
    <tag k="operator" v="Sektion Hall in Tirol"/>
    <tag k="tourism" v="alpine_hut"/>
  </node>
  <node id="389781967" version="2" timestamp="2012-07-17T07:59:05Z" uid="722137" user="OSMF Redaction Account" changeset="12259965" lat="47.7891841" lon="11.5746529"/>
  <node id="389781968" version="2" timestamp="2012-07-17T07:59:06Z" uid="722137" user="OSMF Redaction Account" changeset="12259965" lat="47.7899979" lon="11.5735136"/>
  <node id="389781970" version="2" timestamp="2012-07-17T07:59:08Z" uid="722137" user="OSMF Redaction Account" changeset="12259965" lat="47.7936251" lon="11.5705607"/>
  <node id="389783488" version="3" timestamp="2012-07-17T11:06:31Z" uid="722137" user="OSMF Redaction Account" changeset="12263743" lat="53.6032002" lon="8.5347171">
    <tag k="highway" v="bus_stop"/>
    <tag k="name" v="Anne-Frank-Schule"/>
  </node>
  <node id="389783592" version="3" timestamp="2012-07-17T11:06:31Z" uid="722137" user="OSMF Redaction Account" changeset="12263743" lat="53.6030424" lon="8.5352578">
    <tag k="highway" v="bus_stop"/>
    <tag k="name" v="Anne-Frank-Schule"/>
  </node>
  <node id="389786113" version="5" timestamp="2012-06-07T15:21:22Z" uid="694847" user="alfred krismer" changeset="11826166" lat="47.1666975" lon="11.6404254">
    <tag k="ele" v="2019"/>
    <tag k="massif" v="Tuxer Alpen"/>
    <tag k="name" v="Lizumer Hütte 2019"/>
    <tag k="note" v="Koordinaten vom ÖAV zur Verfügung gestellt"/>
    <tag k="operator" v="Sektion Hall in Tirol"/>
    <tag k="tourism" v="alpine_hut"/>
  </node>
  <node id="389786113" version="6" timestamp="2012-06-07T21:10:22Z" uid="694847" user="alfred krismer" changeset="11829935" lat="47.1666975" lon="11.6404254"/>
  <node id="389786165" version="4" timestamp="2012-06-14T21:32:10Z" uid="418282" user="Norbert18" changeset="11899620" lat="47.2105785" lon="11.4522355">
    <tag k="ele" v="1970"/>
    <tag k="massif" v="Tuxer Alpen"/>
    <tag k="name" v="Patscherkofelhaus"/>
    <tag k="note" v="Koordinaten vom ÖAV zur Verfügung gestellt"/>
    <tag k="operator" v="Sektion TK Innsbruck"/>
    <tag k="tourism" v="alpine_hut"/>
  </node>
</osm>
