<?xml version='1.0' encoding='UTF-8'?>
<osm version="0.6" generator="libosmium/2.20.0">
  <node id="390461337" version="2" timestamp="2011-02-06T12:44:30Z" uid="49111" user="Markus B" changeset="7203080" lat="31.681647" lon="34.5742825"/>
  <node id="390461337" version="3" timestamp="2011-08-11T18:38:13Z" uid="283988" user="Wikipod" changeset="8988246" lat="31.681633" lon="34.574226"/>
  <node id="390461545" version="2" timestamp="2011-02-06T12:44:28Z" uid="49111" user="Markus B" changeset="7203080" lat="31.6834212" lon="34.5714921"/>
  <node id="390465535" version="2" timestamp="2010-07-29T09:14:00Z" uid="74617" user="JohnSmith" changeset="5344848" lat="50.8275429" lon="12.4765528">
    <tag k="amenity" v="emergency_phone"/>
    <tag k="emergency" v="phone"/>
    <tag k="operator" v="Autobahnmeisterei"/>
  </node>
  <node id="390465537" version="2" timestamp="2010-07-29T08:58:28Z" uid="74617" user="JohnSmith" changeset="5344848" lat="50.8278696" lon="12.4763804">
    <tag k="amenity" v="emergency_phone"/>
    <tag k="emergency" v="phone"/>
    <tag k="operator" v="Autobahnmeisterei"/>
  </node>
  <node id="390465538" version="2" timestamp="2010-07-29T09:24:51Z" uid="74617" user="JohnSmith" changeset="5344848" lat="50.8433425" lon="12.5445093">
    <tag k="amenity" v="emergency_phone"/>
    <tag k="emergency" v="phone"/>
    <tag k="operator" v="Autobahnmeisterei"/>
  </node>
  <node id="390465539" version="2" timestamp="2010-07-29T09:30:00Z" uid="74617" user="JohnSmith" changeset="5344848" lat="50.8433861" lon="12.5405437">
    <tag k="amenity" v="emergency_phone"/>
    <tag k="emergency" v="phone"/>
    <tag k="operator" v="Autobahnmeisterei"/>
  </node>
  <node id="390465541" version="2" timestamp="2010-07-29T09:27:17Z" uid="74617" user="JohnSmith" changeset="5344848" lat="50.8437981" lon="12.5674842">
    <tag k="amenity" v="emergency_phone"/>
    <tag k="emergency" v="phone"/>
    <tag k="operator" v="Autobahnmeisterei"/>
  </node>
  <node id="390465542" version="2" timestamp="2010-07-29T09:07:12Z" uid="74617" user="JohnSmith" changeset="5344848" lat="50.8443031" lon="12.5675263">
    <tag k="amenity" v="emergency_phone"/>
    <tag k="emergency" v="phone"/>
    <tag k="operator" v="Autobahnmeisterei"/>
  </node>
  <node id="390465544" version="2" timestamp="2010-07-29T09:01:28Z" uid="74617" user="JohnSmith" changeset="5344848" lat="50.8355578" lon="12.5949746">
    <tag k="amenity" v="emergency_phone"/>
    <tag k="emergency" v="phone"/>
    <tag k="operator" v="Autobahnmeisterei"/>
  </node>
  <node id="390465545" version="2" timestamp="2010-07-29T09:11:39Z" uid="74617" user="JohnSmith" changeset="5344848" lat="50.8358449" lon="12.5955134">
    <tag k="amenity" v="emergency_phone"/>
    <tag k="emergency" v="phone"/>
    <tag k="operator" v="Autobahnmeisterei"/>
  </node>
  <node id="390465546" version="2" timestamp="2010-07-29T09:33:43Z" uid="74617" user="JohnSmith" changeset="5344848" lat="50.825986" lon="12.618915">
    <tag k="amenity" v="emergency_phone"/>
    <tag k="emergency" v="phone"/>
    <tag k="operator" v="Autobahnmeisterei"/>
  </node>
  <node id="390465549" version="2" timestamp="2010-07-29T09:37:48Z" uid="74617" user="JohnSmith" changeset="5344848" lat="50.8264248" lon="12.6191886">
    <tag k="amenity" v="emergency_phone"/>
    <tag k="emergency" v="phone"/>
    <tag k="operator" v="Autobahnmeisterei"/>
  </node>
  <node id="390468566" version="2" timestamp="2011-02-27T08:04:03Z" uid="9581" user="Lobelt" changeset="7407600" lat="50.3742741" lon="9.5137751"/>
  <node id="390468566" version="3" timestamp="2012-01-17T21:50:45Z" uid="302852" user="be-ju" changeset="10422640" lat="50.3742741" lon="9.5137751"/>
  <node id="390465535" version="3" timestamp="2012-07-19T06:17:28Z" uid="722137" user="OSMF Redaction Account" changeset="12310153" lat="50.8275429" lon="12.4765528">
    <tag k="amenity" v="emergency_phone"/>
    <tag k="operator" v="Autobahnmeisterei"/>
  </node>
  <node id="390465537" version="3" timestamp="2012-07-19T06:17:28Z" uid="722137" user="OSMF Redaction Account" changeset="12310153" lat="50.8278696" lon="12.4763804">
    <tag k="amenity" v="emergency_phone"/>
    <tag k="operator" v="Autobahnmeisterei"/>
  </node>
  <node id="390465538" version="3" timestamp="2012-07-19T05:02:45Z" uid="722137" user="OSMF Redaction Account" changeset="12308806" lat="50.8433425" lon="12.5445093">
    <tag k="amenity" v="emergency_phone"/>
    <tag k="operator" v="Autobahnmeisterei"/>
  </node>
  <node id="390465539" version="3" timestamp="2012-07-19T05:02:45Z" uid="722137" user="OSMF Redaction Account" changeset="12308806" lat="50.8433861" lon="12.5405437">
    <tag k="amenity" v="emergency_phone"/>
    <tag k="operator" v="Autobahnmeisterei"/>
  </node>
  <node id="390465541" version="3" timestamp="2012-07-19T05:01:16Z" uid="722137" user="OSMF Redaction Account" changeset="12308785" lat="50.8437981" lon="12.5674842">
    <tag k="amenity" v="emergency_phone"/>
    <tag k="operator" v="Autobahnmeisterei"/>
  </node>
  <node id="390465542" version="3" timestamp="2012-07-19T05:01:16Z" uid="722137" user="OSMF Redaction Account" changeset="12308785" lat="50.8443031" lon="12.5675263">
    <tag k="amenity" v="emergency_phone"/>
    <tag k="operator" v="Autobahnmeisterei"/>
  </node>
  <node id="390465544" version="3" timestamp="2012-07-19T05:01:16Z" uid="722137" user="OSMF Redaction Account" changeset="12308785" lat="50.8355578" lon="12.5949746">
    <tag k="amenity" v="emergency_phone"/>
    <tag k="operator" v="Autobahnmeisterei"/>
  </node>
  <node id="390465545" version="3" timestamp="2012-07-19T05:01:16Z" uid="722137" user="OSMF Redaction Account" changeset="12308785" lat="50.8358449" lon="12.5955134">
    <tag k="amenity" v="emergency_phone"/>
    <tag k="operator" v="Autobahnmeisterei"/>
  </node>
  <node id="390465546" version="3" timestamp="2012-07-19T05:01:15Z" uid="722137" user="OSMF Redaction Account" changeset="12308785" lat="50.825986" lon="12.618915">
    <tag k="amenity" v="emergency_phone"/>
    <tag k="operator" v="Autobahnmeisterei"/>
  </node>
  <node id="390465549" version="3" timestamp="2012-07-19T05:01:15Z" uid="722137" user="OSMF Redaction Account" changeset="12308785" lat="50.8264248" lon="12.6191886">
    <tag k="amenity" v="emergency_phone"/>
    <tag k="operator" v="Autobahnmeisterei"/>
  </node>
</osm>
