<?xml version='1.0' encoding='UTF-8'?>
<osm version="0.6" generator="libosmium/2.20.0">
  <node id="391752404" version="3" timestamp="2011-03-25T01:06:17Z" uid="6269" user="Mueck" changeset="7661499" lat="49.0141158" lon="8.3980299">
    <tag k="description" v="Gedenkstätte zur Ermordung von Siegfried Buback, Wolfgang Göbel, Georg Wurster durch die RAF"/>
    <tag k="historic" v="memorial"/>
    <tag k="name" v="Buback-Denkmal"/>
    <tag k="source" v="http://de.wikipedia.org/wiki/Siegfried_Buback"/>
  </node>
  <node id="391752404" version="4" timestamp="2011-04-26T21:46:19Z" uid="290680" user="wheelmap_visitor" changeset="7980146" lat="49.0141158" lon="8.3980299">
    <tag k="description" v="Gedenkstätte zur Ermordung von Siegfried Buback, Wolfgang Göbel, Georg Wurster durch die RAF"/>
    <tag k="historic" v="memorial"/>
    <tag k="name" v="Buback-Denkmal"/>
    <tag k="source" v="http://de.wikipedia.org/wiki/Siegfried_Buback"/>
    <tag k="wheelchair" v="yes"/>
  </node>
  <node id="391752404" version="5" timestamp="2012-07-17T13:36:00Z" uid="722137" user="OSMF Redaction Account" changeset="12266666" lat="49.0141616" lon="8.3981099">
    <tag k="description" v="Gedenkstätte zur Ermordung von Siegfried Buback, Wolfgang Göbel, Georg Wurster durch die RAF"/>
    <tag k="historic" v="memorial"/>
    <tag k="name" v="Buback-Denkmal"/>
    <tag k="source" v="http://de.wikipedia.org/wiki/Siegfried_Buback"/>
    <tag k="wheelchair" v="yes"/>
  </node>
</osm>
