<?xml version='1.0' encoding='UTF-8'?>
<osm version="0.6" generator="libosmium/2.20.0">
  <node id="391996125" version="3" timestamp="2009-11-12T02:15:44Z" uid="36809" user="pfoten_weg_!_" changeset="3095175" lat="47.8436689" lon="11.7230117">
    <tag k="power" v="tower"/>
  </node>
  <node id="391996125" version="4" timestamp="2009-11-12T02:39:32Z" uid="36809" user="pfoten_weg_!_" changeset="3095231" lat="47.8436689" lon="11.7230117">
    <tag k="power" v="tower"/>
  </node>
  <node id="391996126" version="5" timestamp="2009-11-12T02:15:44Z" uid="36809" user="pfoten_weg_!_" changeset="3095175" lat="47.8416471" lon="11.7239006">
    <tag k="power" v="tower"/>
  </node>
  <node id="391996126" version="6" timestamp="2009-11-12T02:39:32Z" uid="36809" user="pfoten_weg_!_" changeset="3095231" lat="47.8416471" lon="11.7239006">
    <tag k="power" v="tower"/>
  </node>
  <node id="391996757" version="2" timestamp="2010-07-29T09:24:51Z" uid="74617" user="JohnSmith" changeset="5344848" lat="51.5843982" lon="7.4128375">
    <tag k="amenity" v="emergency_phone"/>
    <tag k="emergency" v="phone"/>
    <tag k="operator" v="Autobahnmeisterei"/>
  </node>
  <node id="391996758" version="2" timestamp="2010-07-29T09:01:54Z" uid="74617" user="JohnSmith" changeset="5344848" lat="51.5846705" lon="7.4128868">
    <tag k="amenity" v="emergency_phone"/>
    <tag k="emergency" v="phone"/>
    <tag k="operator" v="Autobahnmeisterei"/>
  </node>
  <node id="391996759" version="2" timestamp="2010-07-29T09:12:01Z" uid="74617" user="JohnSmith" changeset="5344848" lat="51.5838293" lon="7.389578">
    <tag k="amenity" v="emergency_phone"/>
    <tag k="emergency" v="phone"/>
    <tag k="operator" v="Autobahnmeisterei"/>
  </node>
  <node id="391996760" version="2" timestamp="2010-07-29T08:58:29Z" uid="74617" user="JohnSmith" changeset="5344848" lat="51.5842889" lon="7.3907786">
    <tag k="amenity" v="emergency_phone"/>
    <tag k="emergency" v="phone"/>
    <tag k="operator" v="Autobahnmeisterei"/>
  </node>
  <node id="391996761" version="4" timestamp="2010-07-29T09:07:13Z" uid="74617" user="JohnSmith" changeset="5344848" lat="51.5853487" lon="7.3738793">
    <tag k="amenity" v="emergency_phone"/>
    <tag k="emergency" v="phone"/>
    <tag k="operator" v="Autobahnmeisterei"/>
  </node>
  <node id="391996762" version="2" timestamp="2010-07-29T09:30:01Z" uid="74617" user="JohnSmith" changeset="5344848" lat="51.5851971" lon="7.3782236">
    <tag k="amenity" v="emergency_phone"/>
    <tag k="emergency" v="phone"/>
    <tag k="operator" v="Autobahnmeisterei"/>
  </node>
  <node id="391996763" version="3" timestamp="2010-07-29T09:38:16Z" uid="74617" user="JohnSmith" changeset="5344848" lat="51.589177" lon="7.3530668">
    <tag k="amenity" v="emergency_phone"/>
    <tag k="emergency" v="phone"/>
    <tag k="operator" v="Autobahnmeisterei"/>
  </node>
  <node id="391996764" version="2" timestamp="2010-07-29T09:27:17Z" uid="74617" user="JohnSmith" changeset="5344848" lat="51.5895291" lon="7.3532302">
    <tag k="amenity" v="emergency_phone"/>
    <tag k="emergency" v="phone"/>
    <tag k="operator" v="Autobahnmeisterei"/>
  </node>
  <node id="391996767" version="2" timestamp="2010-07-29T09:20:57Z" uid="74617" user="JohnSmith" changeset="5344848" lat="51.6035717" lon="7.3187344">
    <tag k="amenity" v="emergency_phone"/>
    <tag k="emergency" v="phone"/>
    <tag k="operator" v="Autobahnmeisterei"/>
  </node>
  <node id="391996767" version="3" timestamp="2011-11-23T17:53:46Z" uid="184969" user="EvanE" changeset="9923951" lat="51.6035301" lon="7.3189731">
    <tag k="amenity" v="emergency_phone"/>
    <tag k="emergency" v="phone"/>
    <tag k="operator" v="Autobahnmeisterei"/>
  </node>
  <node id="391996768" version="2" timestamp="2010-07-29T09:19:20Z" uid="74617" user="JohnSmith" changeset="5344848" lat="51.6039552" lon="7.3186394">
    <tag k="amenity" v="emergency_phone"/>
    <tag k="emergency" v="phone"/>
    <tag k="operator" v="Autobahnmeisterei"/>
  </node>
  <node id="391996768" version="3" timestamp="2011-11-23T17:53:47Z" uid="184969" user="EvanE" changeset="9923951" lat="51.6039431" lon="7.3184751">
    <tag k="amenity" v="emergency_phone"/>
    <tag k="emergency" v="phone"/>
    <tag k="operator" v="Autobahnmeisterei"/>
  </node>
  <node id="391996769" version="2" timestamp="2010-07-29T09:25:59Z" uid="74617" user="JohnSmith" changeset="5344848" lat="51.6030638" lon="7.3025811">
    <tag k="amenity" v="emergency_phone"/>
    <tag k="emergency" v="phone"/>
    <tag k="operator" v="Autobahnmeisterei"/>
  </node>
  <node id="391996770" version="2" timestamp="2010-07-29T09:04:11Z" uid="74617" user="JohnSmith" changeset="5344848" lat="51.6034863" lon="7.3024729">
    <tag k="amenity" v="emergency_phone"/>
    <tag k="emergency" v="phone"/>
    <tag k="operator" v="Autobahnmeisterei"/>
  </node>
  <node id="391996771" version="2" timestamp="2010-07-29T09:13:42Z" uid="74617" user="JohnSmith" changeset="5344848" lat="51.5993896" lon="7.2860543">
    <tag k="amenity" v="emergency_phone"/>
    <tag k="emergency" v="phone"/>
    <tag k="operator" v="Autobahnmeisterei"/>
  </node>
  <node id="391996772" version="2" timestamp="2010-07-29T08:59:58Z" uid="74617" user="JohnSmith" changeset="5344848" lat="51.5997276" lon="7.2859949">
    <tag k="amenity" v="emergency_phone"/>
    <tag k="emergency" v="phone"/>
    <tag k="operator" v="Autobahnmeisterei"/>
  </node>
  <node id="391996773" version="2" timestamp="2010-07-29T09:09:43Z" uid="74617" user="JohnSmith" changeset="5344848" lat="51.5975394" lon="7.2691199">
    <tag k="amenity" v="emergency_phone"/>
    <tag k="emergency" v="phone"/>
    <tag k="operator" v="Autobahnmeisterei"/>
  </node>
  <node id="391996774" version="2" timestamp="2010-07-29T09:31:18Z" uid="74617" user="JohnSmith" changeset="5344848" lat="51.5978572" lon="7.2690692">
    <tag k="amenity" v="emergency_phone"/>
    <tag k="emergency" v="phone"/>
    <tag k="operator" v="Autobahnmeisterei"/>
  </node>
  <node id="391996775" version="2" timestamp="2010-07-29T09:39:41Z" uid="74617" user="JohnSmith" changeset="5344848" lat="51.5954478" lon="7.2510921">
    <tag k="amenity" v="emergency_phone"/>
    <tag k="emergency" v="phone"/>
    <tag k="operator" v="Autobahnmeisterei"/>
  </node>
  <node id="391996775" version="3" timestamp="2011-07-26T17:52:09Z" uid="25022" user="Keichi" changeset="8837761" lat="51.5954699" lon="7.2510839">
    <tag k="amenity" v="emergency_phone"/>
    <tag k="emergency" v="phone"/>
    <tag k="operator" v="Autobahnmeisterei"/>
  </node>
  <node id="391996776" version="2" timestamp="2010-07-29T09:28:14Z" uid="74617" user="JohnSmith" changeset="5344848" lat="51.5919953" lon="7.2354863">
    <tag k="amenity" v="emergency_phone"/>
    <tag k="emergency" v="phone"/>
    <tag k="operator" v="Autobahnmeisterei"/>
  </node>
  <node id="391996777" version="2" timestamp="2010-07-29T09:35:24Z" uid="74617" user="JohnSmith" changeset="5344848" lat="51.5923022" lon="7.2352457">
    <tag k="amenity" v="emergency_phone"/>
    <tag k="emergency" v="phone"/>
    <tag k="operator" v="Autobahnmeisterei"/>
  </node>
  <node id="391996778" version="2" timestamp="2010-07-29T09:16:21Z" uid="74617" user="JohnSmith" changeset="5344848" lat="51.5862142" lon="7.2175498">
    <tag k="amenity" v="emergency_phone"/>
    <tag k="emergency" v="phone"/>
    <tag k="operator" v="Autobahnmeisterei"/>
  </node>
  <node id="391996779" version="2" timestamp="2010-07-29T09:22:44Z" uid="74617" user="JohnSmith" changeset="5344848" lat="51.585624" lon="7.2169244">
    <tag k="amenity" v="emergency_phone"/>
    <tag k="emergency" v="phone"/>
    <tag k="operator" v="Autobahnmeisterei"/>
  </node>
  <node id="391996780" version="2" timestamp="2010-07-29T09:13:16Z" uid="74617" user="JohnSmith" changeset="5344848" lat="51.5841064" lon="7.2026456">
    <tag k="amenity" v="emergency_phone"/>
    <tag k="emergency" v="phone"/>
    <tag k="operator" v="Autobahnmeisterei"/>
  </node>
  <node id="391996781" version="2" timestamp="2010-07-29T09:18:56Z" uid="74617" user="JohnSmith" changeset="5344848" lat="51.5844432" lon="7.2026506">
    <tag k="amenity" v="emergency_phone"/>
    <tag k="emergency" v="phone"/>
    <tag k="operator" v="Autobahnmeisterei"/>
  </node>
  <node id="391996786" version="4" timestamp="2010-07-29T09:25:43Z" uid="74617" user="JohnSmith" changeset="5344848" lat="51.5804334" lon="7.177878">
    <tag k="amenity" v="emergency_phone"/>
    <tag k="emergency" v="phone"/>
    <tag k="operator" v="Autobahnmeisterei"/>
  </node>
  <node id="391996787" version="2" timestamp="2010-07-29T09:30:55Z" uid="74617" user="JohnSmith" changeset="5344848" lat="51.580917" lon="7.1775211">
    <tag k="amenity" v="emergency_phone"/>
    <tag k="emergency" v="phone"/>
    <tag k="operator" v="Autobahnmeisterei"/>
  </node>
  <node id="391996788" version="2" timestamp="2010-07-29T09:22:16Z" uid="74617" user="JohnSmith" changeset="5344848" lat="51.5781091" lon="7.1690521">
    <tag k="amenity" v="emergency_phone"/>
    <tag k="emergency" v="phone"/>
    <tag k="operator" v="Autobahnmeisterei"/>
  </node>
  <node id="391996789" version="2" timestamp="2010-07-29T09:28:03Z" uid="74617" user="JohnSmith" changeset="5344848" lat="51.5784534" lon="7.1688621">
    <tag k="amenity" v="emergency_phone"/>
    <tag k="emergency" v="phone"/>
    <tag k="operator" v="Autobahnmeisterei"/>
  </node>
  <node id="391996791" version="3" timestamp="2010-07-29T09:16:06Z" uid="74617" user="JohnSmith" changeset="5344848" lat="51.5749304" lon="7.1500832">
    <tag k="amenity" v="emergency_phone"/>
    <tag k="emergency" v="phone"/>
    <tag k="operator" v="Autobahnmeisterei"/>
  </node>
  <node id="391996792" version="2" timestamp="2010-07-29T09:03:01Z" uid="74617" user="JohnSmith" changeset="5344848" lat="51.5753436" lon="7.1500436">
    <tag k="amenity" v="emergency_phone"/>
    <tag k="emergency" v="phone"/>
    <tag k="operator" v="Autobahnmeisterei"/>
  </node>
  <node id="391996793" version="2" timestamp="2010-07-29T09:12:56Z" uid="74617" user="JohnSmith" changeset="5344848" lat="51.5724569" lon="7.1301482">
    <tag k="amenity" v="emergency_phone"/>
    <tag k="emergency" v="phone"/>
    <tag k="operator" v="Autobahnmeisterei"/>
  </node>
  <node id="391996794" version="2" timestamp="2010-07-29T09:34:53Z" uid="74617" user="JohnSmith" changeset="5344848" lat="51.5728013" lon="7.1298909">
    <tag k="amenity" v="emergency_phone"/>
    <tag k="emergency" v="phone"/>
    <tag k="operator" v="Autobahnmeisterei"/>
  </node>
  <node id="391996795" version="2" timestamp="2010-07-29T09:41:58Z" uid="74617" user="JohnSmith" changeset="5344848" lat="51.5616638" lon="7.063596">
    <tag k="amenity" v="emergency_phone"/>
    <tag k="emergency" v="phone"/>
    <tag k="operator" v="Autobahnmeisterei"/>
  </node>
  <node id="391996796" version="2" timestamp="2010-07-29T09:30:36Z" uid="74617" user="JohnSmith" changeset="5344848" lat="51.5613316" lon="7.0630894">
    <tag k="amenity" v="emergency_phone"/>
    <tag k="emergency" v="phone"/>
    <tag k="operator" v="Autobahnmeisterei"/>
  </node>
  <node id="391996797" version="2" timestamp="2010-07-29T09:39:03Z" uid="74617" user="JohnSmith" changeset="5344848" lat="51.559912" lon="7.0523493">
    <tag k="amenity" v="emergency_phone"/>
    <tag k="emergency" v="phone"/>
    <tag k="operator" v="Autobahnmeisterei"/>
  </node>
  <node id="391996798" version="2" timestamp="2010-07-29T09:18:38Z" uid="74617" user="JohnSmith" changeset="5344848" lat="51.5601915" lon="7.0522607">
    <tag k="amenity" v="emergency_phone"/>
    <tag k="emergency" v="phone"/>
    <tag k="operator" v="Autobahnmeisterei"/>
  </node>
  <node id="391997419" version="3" timestamp="2009-06-16T14:35:15Z" uid="20587" user="balrog-kun" changeset="1535687" lat="53.1615979" lon="23.1964365">
    <tag k="is_in" v="Białystok, gmina Miasto Białystok, powiat białystok, województwo podlaskie, Poland"/>
    <tag k="is_in:county" v="powiat białystok"/>
    <tag k="is_in:municipality" v="gmina Miasto Białystok"/>
    <tag k="is_in:province" v="województwo podlaskie"/>
    <tag k="is_in:town" v="Białystok"/>
    <tag k="name" v="Jaroszówka"/>
    <tag k="place" v="suburb"/>
    <tag k="wikipedia" v="Jaroszówka, Białystok"/>
  </node>
  <node id="391996757" version="3" timestamp="2012-07-18T19:36:46Z" uid="722137" user="OSMF Redaction Account" changeset="12295074" lat="51.5843982" lon="7.4128375">
    <tag k="amenity" v="emergency_phone"/>
    <tag k="operator" v="Autobahnmeisterei"/>
  </node>
  <node id="391996758" version="3" timestamp="2012-07-18T19:36:46Z" uid="722137" user="OSMF Redaction Account" changeset="12295074" lat="51.5846705" lon="7.4128868">
    <tag k="amenity" v="emergency_phone"/>
    <tag k="operator" v="Autobahnmeisterei"/>
  </node>
  <node id="391996759" version="3" timestamp="2012-07-18T19:36:46Z" uid="722137" user="OSMF Redaction Account" changeset="12295074" lat="51.5838293" lon="7.389578">
    <tag k="amenity" v="emergency_phone"/>
    <tag k="operator" v="Autobahnmeisterei"/>
  </node>
  <node id="391996760" version="3" timestamp="2012-07-18T19:36:46Z" uid="722137" user="OSMF Redaction Account" changeset="12295074" lat="51.5842889" lon="7.3907786">
    <tag k="amenity" v="emergency_phone"/>
    <tag k="operator" v="Autobahnmeisterei"/>
  </node>
  <node id="391996761" version="5" timestamp="2012-07-18T20:23:54Z" uid="722137" user="OSMF Redaction Account" changeset="12296959" lat="51.5853487" lon="7.3738793">
    <tag k="amenity" v="emergency_phone"/>
    <tag k="operator" v="Autobahnmeisterei"/>
  </node>
  <node id="391996762" version="3" timestamp="2012-07-18T19:36:46Z" uid="722137" user="OSMF Redaction Account" changeset="12295074" lat="51.5851971" lon="7.3782236">
    <tag k="amenity" v="emergency_phone"/>
    <tag k="operator" v="Autobahnmeisterei"/>
  </node>
  <node id="391996763" version="4" timestamp="2012-07-18T20:23:55Z" uid="722137" user="OSMF Redaction Account" changeset="12296959" lat="51.5892094" lon="7.3530482">
    <tag k="amenity" v="emergency_phone"/>
    <tag k="operator" v="Autobahnmeisterei"/>
  </node>
  <node id="391996764" version="3" timestamp="2012-07-18T20:23:55Z" uid="722137" user="OSMF Redaction Account" changeset="12296959" lat="51.5895291" lon="7.3532302">
    <tag k="amenity" v="emergency_phone"/>
    <tag k="operator" v="Autobahnmeisterei"/>
  </node>
  <node id="391996767" version="4" timestamp="2012-07-18T20:23:55Z" uid="722137" user="OSMF Redaction Account" changeset="12296959" lat="51.6035301" lon="7.3189731">
    <tag k="amenity" v="emergency_phone"/>
    <tag k="operator" v="Autobahnmeisterei"/>
  </node>
  <node id="391996768" version="4" timestamp="2012-07-18T20:23:55Z" uid="722137" user="OSMF Redaction Account" changeset="12296959" lat="51.6039431" lon="7.3184751">
    <tag k="amenity" v="emergency_phone"/>
    <tag k="operator" v="Autobahnmeisterei"/>
  </node>
  <node id="391996769" version="3" timestamp="2012-07-18T20:33:17Z" uid="722137" user="OSMF Redaction Account" changeset="12297371" lat="51.6030638" lon="7.3025811">
    <tag k="amenity" v="emergency_phone"/>
    <tag k="operator" v="Autobahnmeisterei"/>
  </node>
  <node id="391996770" version="3" timestamp="2012-07-18T20:33:18Z" uid="722137" user="OSMF Redaction Account" changeset="12297371" lat="51.6034863" lon="7.3024729">
    <tag k="amenity" v="emergency_phone"/>
    <tag k="operator" v="Autobahnmeisterei"/>
  </node>
  <node id="391996771" version="3" timestamp="2012-07-18T20:33:17Z" uid="722137" user="OSMF Redaction Account" changeset="12297371" lat="51.5993896" lon="7.2860543">
    <tag k="amenity" v="emergency_phone"/>
    <tag k="operator" v="Autobahnmeisterei"/>
  </node>
  <node id="391996772" version="3" timestamp="2012-07-18T20:33:17Z" uid="722137" user="OSMF Redaction Account" changeset="12297371" lat="51.5997276" lon="7.2859949">
    <tag k="amenity" v="emergency_phone"/>
    <tag k="operator" v="Autobahnmeisterei"/>
  </node>
  <node id="391996773" version="3" timestamp="2012-07-18T20:33:17Z" uid="722137" user="OSMF Redaction Account" changeset="12297371" lat="51.5975394" lon="7.2691199">
    <tag k="amenity" v="emergency_phone"/>
    <tag k="operator" v="Autobahnmeisterei"/>
  </node>
  <node id="391996774" version="3" timestamp="2012-07-18T20:33:17Z" uid="722137" user="OSMF Redaction Account" changeset="12297371" lat="51.5978572" lon="7.2690692">
    <tag k="amenity" v="emergency_phone"/>
    <tag k="operator" v="Autobahnmeisterei"/>
  </node>
  <node id="391996775" version="4" timestamp="2012-07-18T20:33:17Z" uid="722137" user="OSMF Redaction Account" changeset="12297371" lat="51.5954699" lon="7.2510839">
    <tag k="amenity" v="emergency_phone"/>
    <tag k="operator" v="Autobahnmeisterei"/>
  </node>
  <node id="391996776" version="3" timestamp="2012-07-18T20:57:03Z" uid="722137" user="OSMF Redaction Account" changeset="12298175" lat="51.5919953" lon="7.2354863">
    <tag k="amenity" v="emergency_phone"/>
    <tag k="operator" v="Autobahnmeisterei"/>
  </node>
  <node id="391996777" version="3" timestamp="2012-07-18T20:57:03Z" uid="722137" user="OSMF Redaction Account" changeset="12298175" lat="51.5923022" lon="7.2352457">
    <tag k="amenity" v="emergency_phone"/>
    <tag k="operator" v="Autobahnmeisterei"/>
  </node>
  <node id="391996778" version="3" timestamp="2012-07-18T20:57:03Z" uid="722137" user="OSMF Redaction Account" changeset="12298175" lat="51.5862142" lon="7.2175498">
    <tag k="amenity" v="emergency_phone"/>
    <tag k="operator" v="Autobahnmeisterei"/>
  </node>
  <node id="391996779" version="3" timestamp="2012-07-18T20:57:03Z" uid="722137" user="OSMF Redaction Account" changeset="12298175" lat="51.585624" lon="7.2169244">
    <tag k="amenity" v="emergency_phone"/>
    <tag k="operator" v="Autobahnmeisterei"/>
  </node>
  <node id="391996780" version="3" timestamp="2012-07-18T20:57:02Z" uid="722137" user="OSMF Redaction Account" changeset="12298175" lat="51.5841064" lon="7.2026456">
    <tag k="amenity" v="emergency_phone"/>
    <tag k="operator" v="Autobahnmeisterei"/>
  </node>
  <node id="391996781" version="3" timestamp="2012-07-18T20:57:02Z" uid="722137" user="OSMF Redaction Account" changeset="12298175" lat="51.5844432" lon="7.2026506">
    <tag k="amenity" v="emergency_phone"/>
    <tag k="operator" v="Autobahnmeisterei"/>
  </node>
  <node id="391996786" version="5" timestamp="2012-07-18T21:03:06Z" uid="722137" user="OSMF Redaction Account" changeset="12298395" lat="51.5804334" lon="7.177878">
    <tag k="amenity" v="emergency_phone"/>
    <tag k="operator" v="Autobahnmeisterei"/>
  </node>
  <node id="391996787" version="3" timestamp="2012-07-18T21:03:06Z" uid="722137" user="OSMF Redaction Account" changeset="12298395" lat="51.580917" lon="7.1775211">
    <tag k="amenity" v="emergency_phone"/>
    <tag k="operator" v="Autobahnmeisterei"/>
  </node>
  <node id="391996788" version="3" timestamp="2012-07-18T21:03:06Z" uid="722137" user="OSMF Redaction Account" changeset="12298395" lat="51.5781091" lon="7.1690521">
    <tag k="amenity" v="emergency_phone"/>
    <tag k="operator" v="Autobahnmeisterei"/>
  </node>
  <node id="391996789" version="3" timestamp="2012-07-18T21:03:06Z" uid="722137" user="OSMF Redaction Account" changeset="12298395" lat="51.5784534" lon="7.1688621">
    <tag k="amenity" v="emergency_phone"/>
    <tag k="operator" v="Autobahnmeisterei"/>
  </node>
  <node id="391996791" version="4" timestamp="2012-07-18T21:03:05Z" uid="722137" user="OSMF Redaction Account" changeset="12298395" lat="51.5749304" lon="7.1500832">
    <tag k="amenity" v="emergency_phone"/>
    <tag k="operator" v="Autobahnmeisterei"/>
  </node>
  <node id="391996792" version="3" timestamp="2012-07-18T21:03:05Z" uid="722137" user="OSMF Redaction Account" changeset="12298395" lat="51.5753436" lon="7.1500436">
    <tag k="amenity" v="emergency_phone"/>
    <tag k="operator" v="Autobahnmeisterei"/>
  </node>
  <node id="391996793" version="3" timestamp="2012-07-18T21:03:05Z" uid="722137" user="OSMF Redaction Account" changeset="12298395" lat="51.5724569" lon="7.1301482">
    <tag k="amenity" v="emergency_phone"/>
    <tag k="operator" v="Autobahnmeisterei"/>
  </node>
  <node id="391996794" version="3" timestamp="2012-07-18T21:03:05Z" uid="722137" user="OSMF Redaction Account" changeset="12298395" lat="51.5728013" lon="7.1298909">
    <tag k="amenity" v="emergency_phone"/>
    <tag k="operator" v="Autobahnmeisterei"/>
  </node>
  <node id="391996795" version="3" timestamp="2012-07-18T21:14:26Z" uid="722137" user="OSMF Redaction Account" changeset="12298810" lat="51.5616638" lon="7.063596">
    <tag k="amenity" v="emergency_phone"/>
    <tag k="operator" v="Autobahnmeisterei"/>
  </node>
  <node id="391996796" version="3" timestamp="2012-07-18T21:14:26Z" uid="722137" user="OSMF Redaction Account" changeset="12298810" lat="51.5613316" lon="7.0630894">
    <tag k="amenity" v="emergency_phone"/>
    <tag k="operator" v="Autobahnmeisterei"/>
  </node>
  <node id="391996797" version="3" timestamp="2012-07-18T21:16:22Z" uid="722137" user="OSMF Redaction Account" changeset="12298863" lat="51.559912" lon="7.0523493">
    <tag k="amenity" v="emergency_phone"/>
    <tag k="operator" v="Autobahnmeisterei"/>
  </node>
  <node id="391996798" version="3" timestamp="2012-07-18T21:16:22Z" uid="722137" user="OSMF Redaction Account" changeset="12298863" lat="51.5601915" lon="7.0522607">
    <tag k="amenity" v="emergency_phone"/>
    <tag k="operator" v="Autobahnmeisterei"/>
  </node>
  <node id="391997419" version="4" timestamp="2012-07-15T21:49:00Z" uid="467703" user="Zbigniew Czernik" changeset="12236595" lat="53.1615979" lon="23.1964365">
    <tag k="is_in" v="Białystok, gmina Miasto Białystok, powiat białystok, województwo podlaskie, Poland"/>
    <tag k="is_in:county" v="powiat białystok"/>
    <tag k="is_in:municipality" v="gmina Miasto Białystok"/>
    <tag k="is_in:province" v="województwo podlaskie"/>
    <tag k="is_in:town" v="Białystok"/>
    <tag k="name" v="Jaroszówka"/>
    <tag k="place" v="quarter"/>
    <tag k="wikipedia" v="Jaroszówka, Białystok"/>
  </node>
</osm>
