<?xml version='1.0' encoding='UTF-8'?>
<osm version="0.6" generator="libosmium/2.20.0">
  <node id="39392569" version="7" timestamp="2009-05-01T14:20:53Z" uid="20587" user="balrog-kun" changeset="1037166" lat="49.560257" lon="22.2062701">
    <tag k="addr:postcode" v="38-500"/>
    <tag k="created_by" v="Potlatch 0.10b"/>
    <tag k="is_in" v="powiat sanocki, województwo podkarpackie, Poland"/>
    <tag k="is_in:country" v="Poland"/>
    <tag k="is_in:county" v="powiat sanocki"/>
    <tag k="is_in:municipality" v="gmina Sanok"/>
    <tag k="is_in:province" v="województwo podkarpackie"/>
    <tag k="name" v="Sanok"/>
    <tag k="place" v="town"/>
    <tag k="population" v="39110"/>
    <tag k="source:population" v="wikipedia"/>
    <tag k="teryt:rm" v="96"/>
    <tag k="teryt:simc" v="0953510"/>
    <tag k="teryt:stan_na" v="2009-01-01"/>
    <tag k="teryt:terc" v="1817011"/>
    <tag k="teryt:updated_by" v="teryt2osm combine.py v. 36M"/>
    <tag k="wikipedia" v="Sanok"/>
  </node>
  <node id="39392569" version="8" timestamp="2009-05-07T18:43:11Z" uid="115021" user="Jajcuś" changeset="1110402" lat="49.560257" lon="22.2062701">
    <tag k="addr:postcode" v="38-500"/>
    <tag k="created_by" v="Potlatch 0.10b"/>
    <tag k="is_in" v="powiat sanocki, województwo podkarpackie, Poland"/>
    <tag k="is_in:country" v="Poland"/>
    <tag k="is_in:county" v="powiat sanocki"/>
    <tag k="is_in:province" v="województwo podkarpackie"/>
    <tag k="name" v="Sanok"/>
    <tag k="place" v="town"/>
    <tag k="population" v="39110"/>
    <tag k="source:population" v="wikipedia"/>
    <tag k="teryt:rm" v="96"/>
    <tag k="teryt:simc" v="0953510"/>
    <tag k="teryt:stan_na" v="2009-01-01"/>
    <tag k="teryt:terc" v="1817011"/>
    <tag k="teryt:updated_by" v="teryt2osm combine.py v. 47M"/>
    <tag k="wikipedia" v="Sanok"/>
  </node>
  <node id="39392569" version="9" timestamp="2009-05-08T18:40:21Z" uid="115021" user="Jajcuś" changeset="1120481" lat="49.560257" lon="22.2062701">
    <tag k="addr:postcode" v="38-500"/>
    <tag k="created_by" v="Potlatch 0.10b"/>
    <tag k="is_in" v="powiat sanocki, województwo podkarpackie, Poland"/>
    <tag k="is_in:country" v="Poland"/>
    <tag k="is_in:county" v="powiat sanocki"/>
    <tag k="is_in:municipality" v="gmina Sanok"/>
    <tag k="is_in:province" v="województwo podkarpackie"/>
    <tag k="name" v="Sanok"/>
    <tag k="place" v="town"/>
    <tag k="population" v="39110"/>
    <tag k="source:population" v="wikipedia"/>
    <tag k="teryt:rm" v="96"/>
    <tag k="teryt:simc" v="0953510"/>
    <tag k="teryt:stan_na" v="2009-01-01"/>
    <tag k="teryt:terc" v="1817011"/>
    <tag k="teryt:updated_by" v="teryt2osm combine.py v. 49"/>
    <tag k="wikipedia" v="Sanok"/>
  </node>
  <node id="39392569" version="10" timestamp="2009-08-17T09:43:33Z" uid="9475" user="Slawek Maderak" changeset="2175625" lat="49.5597836" lon="22.206216">
    <tag k="addr:postcode" v="38-500"/>
    <tag k="is_in" v="powiat sanocki, województwo podkarpackie, Poland"/>
    <tag k="is_in:country" v="Poland"/>
    <tag k="is_in:county" v="powiat sanocki"/>
    <tag k="is_in:municipality" v="gmina Sanok"/>
    <tag k="is_in:province" v="województwo podkarpackie"/>
    <tag k="name" v="Sanok"/>
    <tag k="place" v="city"/>
    <tag k="population" v="39110"/>
    <tag k="source:population" v="wikipedia"/>
    <tag k="teryt:rm" v="96"/>
    <tag k="teryt:simc" v="0953510"/>
    <tag k="teryt:stan_na" v="2009-01-01"/>
    <tag k="teryt:terc" v="1817011"/>
    <tag k="teryt:updated_by" v="teryt2osm combine.py v. 49"/>
    <tag k="wikipedia" v="Sanok"/>
  </node>
  <node id="39392569" version="11" timestamp="2009-10-29T08:24:11Z" uid="11464" user="BearH" changeset="2979299" lat="49.5597885" lon="22.2062123">
    <tag k="addr:postcode" v="38-500"/>
    <tag k="is_in" v="powiat sanocki, województwo podkarpackie, Poland"/>
    <tag k="is_in:country" v="Poland"/>
    <tag k="is_in:county" v="powiat sanocki"/>
    <tag k="is_in:municipality" v="gmina Sanok"/>
    <tag k="is_in:province" v="województwo podkarpackie"/>
    <tag k="name" v="Sanok"/>
    <tag k="place" v="town"/>
    <tag k="population" v="39110"/>
    <tag k="source:population" v="wikipedia"/>
    <tag k="teryt:rm" v="96"/>
    <tag k="teryt:simc" v="0953510"/>
    <tag k="teryt:stan_na" v="2009-01-01"/>
    <tag k="teryt:terc" v="1817011"/>
    <tag k="teryt:updated_by" v="teryt2osm combine.py v. 49"/>
    <tag k="wikipedia" v="Sanok"/>
  </node>
  <node id="39392569" version="12" timestamp="2010-04-11T04:37:31Z" uid="20587" user="balrog-kun" changeset="4389130" lat="49.558367" lon="22.2060976">
    <tag k="addr:postcode" v="38-500"/>
    <tag k="is_in" v="powiat sanocki, województwo podkarpackie, Poland"/>
    <tag k="is_in:country" v="Poland"/>
    <tag k="is_in:county" v="powiat sanocki"/>
    <tag k="is_in:municipality" v="gmina Sanok"/>
    <tag k="is_in:province" v="województwo podkarpackie"/>
    <tag k="name" v="Sanok"/>
    <tag k="place" v="town"/>
    <tag k="population" v="39110"/>
    <tag k="source:population" v="wikipedia"/>
    <tag k="teryt:rm" v="96"/>
    <tag k="teryt:simc" v="0953510"/>
    <tag k="teryt:stan_na" v="2009-01-01"/>
    <tag k="teryt:terc" v="1817011"/>
    <tag k="teryt:updated_by" v="teryt2osm combine.py v. 49"/>
    <tag k="wikipedia" v="Sanok"/>
  </node>
  <node id="39392569" version="13" timestamp="2011-04-02T12:43:41Z" uid="369208" user="Slawek_n" changeset="7743766" lat="49.5587563" lon="22.2052358">
    <tag k="addr:postcode" v="38-500"/>
    <tag k="is_in" v="powiat sanocki, województwo podkarpackie, Poland"/>
    <tag k="is_in:country" v="Poland"/>
    <tag k="is_in:county" v="powiat sanocki"/>
    <tag k="is_in:municipality" v="gmina Sanok"/>
    <tag k="is_in:province" v="województwo podkarpackie"/>
    <tag k="name" v="Sanok"/>
    <tag k="place" v="town"/>
    <tag k="population" v="39110"/>
    <tag k="source:population" v="wikipedia"/>
    <tag k="teryt:rm" v="96"/>
    <tag k="teryt:simc" v="0953510"/>
    <tag k="teryt:stan_na" v="2009-01-01"/>
    <tag k="teryt:terc" v="1817011"/>
    <tag k="teryt:updated_by" v="teryt2osm combine.py v. 49"/>
    <tag k="wikipedia" v="Sanok"/>
  </node>
  <node id="39392569" version="14" timestamp="2011-12-31T17:10:10Z" uid="526190" user="Name4OSM" changeset="10256790" lat="49.5587563" lon="22.2052358">
    <tag k="addr:postcode" v="38-500"/>
    <tag k="is_in" v="powiat sanocki, województwo podkarpackie, Poland"/>
    <tag k="is_in:country" v="Poland"/>
    <tag k="is_in:county" v="powiat sanocki"/>
    <tag k="is_in:municipality" v="gmina Sanok"/>
    <tag k="is_in:province" v="województwo podkarpackie"/>
    <tag k="name" v="Sanok"/>
    <tag k="name:ru" v="Санок"/>
    <tag k="place" v="town"/>
    <tag k="population" v="39110"/>
    <tag k="source:population" v="wikipedia"/>
    <tag k="teryt:rm" v="96"/>
    <tag k="teryt:simc" v="0953510"/>
    <tag k="teryt:stan_na" v="2009-01-01"/>
    <tag k="teryt:terc" v="1817011"/>
    <tag k="teryt:updated_by" v="teryt2osm combine.py v. 49"/>
    <tag k="wikipedia" v="Sanok"/>
  </node>
  <node id="39393534" version="5" timestamp="2010-04-11T04:37:31Z" uid="20587" user="balrog-kun" changeset="4389130" lat="49.4734138" lon="22.3274146">
    <tag k="is_in" v="Poland"/>
    <tag k="name" v="Lesko"/>
    <tag k="place" v="town"/>
    <tag k="postal_code" v="38-600"/>
  </node>
  <node id="39393534" version="6" timestamp="2010-04-27T04:20:19Z" uid="30632" user="antblant" changeset="4537912" lat="49.4734138" lon="22.3274146">
    <tag k="is_in" v="Poland"/>
    <tag k="name" v="Lesko"/>
    <tag k="place" v="town"/>
    <tag k="postal_code" v="38-600"/>
    <tag k="teryt:simc" v="0953409"/>
  </node>
  <node id="39393534" version="7" timestamp="2011-12-13T04:23:25Z" uid="553541" user="miszczan z Leska" changeset="10104855" lat="49.4720982" lon="22.3298817">
    <tag k="is_in" v="Poland"/>
    <tag k="name" v="Lesko"/>
    <tag k="place" v="town"/>
    <tag k="postal_code" v="38-600"/>
    <tag k="teryt:simc" v="0953409"/>
    <tag k="website" v="http://www.lesko.pl"/>
  </node>
  <node id="39393534" version="8" timestamp="2011-12-13T04:35:26Z" uid="553541" user="miszczan z Leska" changeset="10104871" lat="49.4720982" lon="22.3298816">
    <tag k="is_in" v="Poland"/>
    <tag k="name" v="Lesko"/>
    <tag k="place" v="town"/>
    <tag k="population" v="6000"/>
    <tag k="postal_code" v="38-600"/>
    <tag k="teryt:simc" v="0953409"/>
    <tag k="website" v="http://www.lesko.pl"/>
  </node>
  <node id="39394158" version="5" timestamp="2009-05-01T14:22:27Z" uid="20587" user="balrog-kun" changeset="1037166" lat="49.3718247" lon="22.4320008">
    <tag k="addr:postcode" v="38-610"/>
    <tag k="created_by" v="Potlatch alpha"/>
    <tag k="is_in" v="gmina Solina, powiat leski, województwo podkarpackie, Poland"/>
    <tag k="is_in:country" v="Poland"/>
    <tag k="is_in:county" v="powiat leski"/>
    <tag k="is_in:municipality" v="gmina Solina"/>
    <tag k="is_in:province" v="województwo podkarpackie"/>
    <tag k="name" v="Polańczyk"/>
    <tag k="place" v="village"/>
    <tag k="population" v="830"/>
    <tag k="source:population" v="wikipedia"/>
    <tag k="teryt:rm" v="01"/>
    <tag k="teryt:simc" v="0360603"/>
    <tag k="teryt:stan_na" v="2009-01-01"/>
    <tag k="teryt:terc" v="1821052"/>
    <tag k="teryt:updated_by" v="teryt2osm combine.py v. 43"/>
    <tag k="wikipedia" v="Polańczyk"/>
  </node>
  <node id="39394158" version="6" timestamp="2010-04-11T04:37:31Z" uid="20587" user="balrog-kun" changeset="4389130" lat="49.3713403" lon="22.4282686">
    <tag k="addr:postcode" v="38-610"/>
    <tag k="is_in" v="gmina Solina, powiat leski, województwo podkarpackie, Poland"/>
    <tag k="is_in:country" v="Poland"/>
    <tag k="is_in:county" v="powiat leski"/>
    <tag k="is_in:municipality" v="gmina Solina"/>
    <tag k="is_in:province" v="województwo podkarpackie"/>
    <tag k="name" v="Polańczyk"/>
    <tag k="place" v="village"/>
    <tag k="population" v="830"/>
    <tag k="source:population" v="wikipedia"/>
    <tag k="teryt:rm" v="01"/>
    <tag k="teryt:simc" v="0360603"/>
    <tag k="teryt:stan_na" v="2009-01-01"/>
    <tag k="teryt:terc" v="1821052"/>
    <tag k="teryt:updated_by" v="teryt2osm combine.py v. 43"/>
    <tag k="wikipedia" v="Polańczyk"/>
  </node>
  <node id="39394587" version="5" timestamp="2009-05-01T14:22:03Z" uid="20587" user="balrog-kun" changeset="1037166" lat="49.3964095" lon="22.4527718">
    <tag k="addr:postcode" v="38-612"/>
    <tag k="created_by" v="Potlatch alpha"/>
    <tag k="is_in" v="gmina Solina, powiat leski, województwo podkarpackie, Poland"/>
    <tag k="is_in:country" v="Poland"/>
    <tag k="is_in:county" v="powiat leski"/>
    <tag k="is_in:municipality" v="gmina Solina"/>
    <tag k="is_in:province" v="województwo podkarpackie"/>
    <tag k="name" v="Solina"/>
    <tag k="place" v="village"/>
    <tag k="population" v="190"/>
    <tag k="source:population" v="wikipedia"/>
    <tag k="teryt:rm" v="01"/>
    <tag k="teryt:simc" v="0360649"/>
    <tag k="teryt:stan_na" v="2009-01-01"/>
    <tag k="teryt:terc" v="1821052"/>
    <tag k="teryt:updated_by" v="teryt2osm combine.py v. 43"/>
    <tag k="wikipedia" v="Solina, Poland"/>
  </node>
  <node id="39394587" version="6" timestamp="2010-04-11T04:37:31Z" uid="20587" user="balrog-kun" changeset="4389130" lat="49.3976817" lon="22.4527563">
    <tag k="addr:postcode" v="38-612"/>
    <tag k="is_in" v="gmina Solina, powiat leski, województwo podkarpackie, Poland"/>
    <tag k="is_in:country" v="Poland"/>
    <tag k="is_in:county" v="powiat leski"/>
    <tag k="is_in:municipality" v="gmina Solina"/>
    <tag k="is_in:province" v="województwo podkarpackie"/>
    <tag k="name" v="Solina"/>
    <tag k="place" v="village"/>
    <tag k="population" v="190"/>
    <tag k="source:population" v="wikipedia"/>
    <tag k="teryt:rm" v="01"/>
    <tag k="teryt:simc" v="0360649"/>
    <tag k="teryt:stan_na" v="2009-01-01"/>
    <tag k="teryt:terc" v="1821052"/>
    <tag k="teryt:updated_by" v="teryt2osm combine.py v. 43"/>
    <tag k="wikipedia" v="Solina, Poland"/>
  </node>
  <node id="39394587" version="7" timestamp="2011-07-05T02:17:24Z" uid="467703" user="Zibi" changeset="8635304" lat="49.4009335" lon="22.4502412">
    <tag k="addr:postcode" v="38-612"/>
    <tag k="is_in" v="gmina Solina, powiat leski, województwo podkarpackie, Poland"/>
    <tag k="is_in:country" v="Poland"/>
    <tag k="is_in:county" v="powiat leski"/>
    <tag k="is_in:municipality" v="gmina Solina"/>
    <tag k="is_in:province" v="województwo podkarpackie"/>
    <tag k="name" v="Solina"/>
    <tag k="place" v="village"/>
    <tag k="population" v="190"/>
    <tag k="source:population" v="wikipedia"/>
    <tag k="teryt:rm" v="01"/>
    <tag k="teryt:simc" v="0360649"/>
    <tag k="teryt:stan_na" v="2009-01-01"/>
    <tag k="teryt:terc" v="1821052"/>
    <tag k="teryt:updated_by" v="teryt2osm combine.py v. 43"/>
    <tag k="wikipedia" v="Solina, Poland"/>
  </node>
  <node id="39395437" version="2" timestamp="2009-05-01T17:42:50Z" uid="20587" user="balrog-kun" changeset="1039740" lat="49.3104209" lon="22.532251">
    <tag k="created_by" v="Potlatch alpha"/>
    <tag k="is_in" v="gmina Czarna, powiat bieszczadzki, województwo podkarpackie, Poland"/>
    <tag k="is_in:county" v="powiat bieszczadzki"/>
    <tag k="is_in:municipality" v="gmina Czarna"/>
    <tag k="is_in:province" v="województwo podkarpackie"/>
    <tag k="name" v="Chrewt"/>
    <tag k="place" v="village"/>
    <tag k="population" v="10"/>
    <tag k="source:population" v="wikipedia"/>
    <tag k="wikipedia" v="Chrewt"/>
  </node>
  <node id="39395437" version="3" timestamp="2010-04-11T04:37:31Z" uid="20587" user="balrog-kun" changeset="4389130" lat="49.3101956" lon="22.5315757">
    <tag k="is_in" v="gmina Czarna, powiat bieszczadzki, województwo podkarpackie, Poland"/>
    <tag k="is_in:county" v="powiat bieszczadzki"/>
    <tag k="is_in:municipality" v="gmina Czarna"/>
    <tag k="is_in:province" v="województwo podkarpackie"/>
    <tag k="name" v="Chrewt"/>
    <tag k="place" v="village"/>
    <tag k="population" v="10"/>
    <tag k="source:population" v="wikipedia"/>
    <tag k="wikipedia" v="Chrewt"/>
  </node>
  <node id="39395437" version="4" timestamp="2010-04-27T04:09:06Z" uid="30632" user="antblant" changeset="4537879" lat="49.3101956" lon="22.5315757">
    <tag k="is_in" v="gmina Czarna, powiat bieszczadzki, województwo podkarpackie, Poland"/>
    <tag k="is_in:county" v="powiat bieszczadzki"/>
    <tag k="is_in:municipality" v="gmina Czarna"/>
    <tag k="is_in:province" v="województwo podkarpackie"/>
    <tag k="name" v="Chrewt"/>
    <tag k="place" v="village"/>
    <tag k="population" v="10"/>
    <tag k="source:population" v="wikipedia"/>
    <tag k="teryt:simc" v="0347979"/>
    <tag k="wikipedia" v="Chrewt"/>
  </node>
  <node id="39395437" version="5" timestamp="2011-09-11T21:18:44Z" uid="467703" user="Zbigniew Czernik" changeset="9274465" lat="49.3098062" lon="22.5314997">
    <tag k="is_in" v="gmina Czarna, powiat bieszczadzki, województwo podkarpackie, Poland"/>
    <tag k="is_in:county" v="powiat bieszczadzki"/>
    <tag k="is_in:municipality" v="gmina Czarna"/>
    <tag k="is_in:province" v="województwo podkarpackie"/>
    <tag k="name" v="Chrewt"/>
    <tag k="place" v="village"/>
    <tag k="population" v="10"/>
    <tag k="source:population" v="wikipedia"/>
    <tag k="teryt:simc" v="0347979"/>
    <tag k="wikipedia" v="Chrewt"/>
  </node>
  <node id="39392569" version="15" timestamp="2012-07-24T14:59:32Z" uid="722137" user="OSMF Redaction Account" changeset="12468585" lat="49.5587563" lon="22.2052358">
    <tag k="addr:postcode" v="38-500"/>
    <tag k="is_in" v="powiat sanocki, województwo podkarpackie, Poland"/>
    <tag k="is_in:country" v="Poland"/>
    <tag k="is_in:county" v="powiat sanocki"/>
    <tag k="is_in:municipality" v="gmina Sanok"/>
    <tag k="is_in:province" v="województwo podkarpackie"/>
    <tag k="name:ru" v="Санок"/>
    <tag k="place" v="city"/>
    <tag k="population" v="39110"/>
    <tag k="source:population" v="wikipedia"/>
    <tag k="teryt:rm" v="96"/>
    <tag k="teryt:simc" v="0953510"/>
    <tag k="teryt:stan_na" v="2009-01-01"/>
    <tag k="teryt:terc" v="1817011"/>
    <tag k="teryt:updated_by" v="teryt2osm combine.py v. 49"/>
    <tag k="wikipedia" v="Sanok"/>
  </node>
  <node id="39392569" version="16" timestamp="2012-07-26T16:29:36Z" uid="369208" user="Slawek_n" changeset="12501232" lat="49.5587563" lon="22.2052358">
    <tag k="addr:postcode" v="38-500"/>
    <tag k="is_in" v="powiat sanocki, województwo podkarpackie, Poland"/>
    <tag k="is_in:country" v="Poland"/>
    <tag k="is_in:county" v="powiat sanocki"/>
    <tag k="is_in:municipality" v="gmina Sanok"/>
    <tag k="is_in:province" v="województwo podkarpackie"/>
    <tag k="name" v="Sanok"/>
    <tag k="name:ru" v="Санок"/>
    <tag k="place" v="town"/>
    <tag k="population" v="39110"/>
    <tag k="source:population" v="wikipedia"/>
    <tag k="teryt:rm" v="96"/>
    <tag k="teryt:simc" v="0953510"/>
    <tag k="teryt:stan_na" v="2009-01-01"/>
    <tag k="teryt:terc" v="1817011"/>
    <tag k="teryt:updated_by" v="teryt2osm combine.py v. 49"/>
    <tag k="wikipedia" v="Sanok"/>
  </node>
  <node id="39393534" version="9" timestamp="2012-07-24T15:11:57Z" uid="722137" user="OSMF Redaction Account" changeset="12468828" lat="49.4720982" lon="22.3298817">
    <tag k="place" v="town"/>
    <tag k="population" v="6000"/>
    <tag k="teryt:simc" v="0953409"/>
    <tag k="website" v="http://www.lesko.pl"/>
  </node>
  <node id="39393534" version="10" timestamp="2012-08-05T10:59:52Z" uid="467703" user="Zbigniew_Czernik" changeset="12618222" lat="49.4720982" lon="22.3298817">
    <tag k="name" v="Lesko"/>
    <tag k="place" v="town"/>
    <tag k="population" v="6000"/>
    <tag k="teryt:simc" v="0953409"/>
    <tag k="website" v="http://www.lesko.pl"/>
  </node>
  <node id="39394158" version="7" timestamp="2012-07-24T15:10:03Z" uid="722137" user="OSMF Redaction Account" changeset="12468791" lat="49.3713403" lon="22.4282686">
    <tag k="addr:postcode" v="38-610"/>
    <tag k="is_in" v="gmina Solina, powiat leski, województwo podkarpackie, Poland"/>
    <tag k="is_in:country" v="Poland"/>
    <tag k="is_in:county" v="powiat leski"/>
    <tag k="is_in:municipality" v="gmina Solina"/>
    <tag k="is_in:province" v="województwo podkarpackie"/>
    <tag k="population" v="830"/>
    <tag k="source:population" v="wikipedia"/>
    <tag k="teryt:rm" v="01"/>
    <tag k="teryt:simc" v="0360603"/>
    <tag k="teryt:stan_na" v="2009-01-01"/>
    <tag k="teryt:terc" v="1821052"/>
    <tag k="teryt:updated_by" v="teryt2osm combine.py v. 43"/>
    <tag k="wikipedia" v="Polańczyk"/>
  </node>
  <node id="39394158" version="8" timestamp="2012-08-05T10:59:55Z" uid="467703" user="Zbigniew_Czernik" changeset="12618222" lat="49.3713403" lon="22.4282686">
    <tag k="addr:postcode" v="38-610"/>
    <tag k="is_in" v="gmina Solina, powiat leski, województwo podkarpackie, Poland"/>
    <tag k="is_in:country" v="Poland"/>
    <tag k="is_in:county" v="powiat leski"/>
    <tag k="is_in:municipality" v="gmina Solina"/>
    <tag k="is_in:province" v="województwo podkarpackie"/>
    <tag k="name" v="Polańczyk"/>
    <tag k="place" v="village"/>
    <tag k="population" v="830"/>
    <tag k="source:population" v="wikipedia"/>
    <tag k="teryt:rm" v="01"/>
    <tag k="teryt:simc" v="0360603"/>
    <tag k="teryt:stan_na" v="2009-01-01"/>
    <tag k="teryt:terc" v="1821052"/>
    <tag k="teryt:updated_by" v="teryt2osm combine.py v. 43"/>
    <tag k="wikipedia" v="Polańczyk"/>
  </node>
  <node id="39394587" version="8" timestamp="2012-07-24T15:03:44Z" uid="722137" user="OSMF Redaction Account" changeset="12468671" lat="49.4009335" lon="22.4502412">
    <tag k="addr:postcode" v="38-612"/>
    <tag k="is_in" v="gmina Solina, powiat leski, województwo podkarpackie, Poland"/>
    <tag k="is_in:country" v="Poland"/>
    <tag k="is_in:county" v="powiat leski"/>
    <tag k="is_in:municipality" v="gmina Solina"/>
    <tag k="is_in:province" v="województwo podkarpackie"/>
    <tag k="population" v="190"/>
    <tag k="source:population" v="wikipedia"/>
    <tag k="teryt:rm" v="01"/>
    <tag k="teryt:simc" v="0360649"/>
    <tag k="teryt:stan_na" v="2009-01-01"/>
    <tag k="teryt:terc" v="1821052"/>
    <tag k="teryt:updated_by" v="teryt2osm combine.py v. 43"/>
    <tag k="wikipedia" v="Solina, Poland"/>
  </node>
  <node id="39394587" version="9" timestamp="2012-07-25T01:50:32Z" uid="467703" user="Zbigniew_Czernik" changeset="12479395" lat="49.4009335" lon="22.4502412">
    <tag k="addr:postcode" v="38-612"/>
    <tag k="is_in" v="gmina Solina, powiat leski, województwo podkarpackie, Poland"/>
    <tag k="is_in:country" v="Poland"/>
    <tag k="is_in:county" v="powiat leski"/>
    <tag k="is_in:municipality" v="gmina Solina"/>
    <tag k="is_in:province" v="województwo podkarpackie"/>
    <tag k="place" v="village"/>
    <tag k="population" v="190"/>
    <tag k="source:population" v="wikipedia"/>
    <tag k="teryt:rm" v="01"/>
    <tag k="teryt:simc" v="0360649"/>
    <tag k="teryt:stan_na" v="2009-01-01"/>
    <tag k="teryt:terc" v="1821052"/>
    <tag k="teryt:updated_by" v="teryt2osm combine.py v. 43"/>
    <tag k="wikipedia" v="Solina, Poland"/>
  </node>
  <node id="39394587" version="10" timestamp="2012-08-05T10:59:57Z" uid="467703" user="Zbigniew_Czernik" changeset="12618222" lat="49.4009335" lon="22.4502412">
    <tag k="addr:postcode" v="38-612"/>
    <tag k="is_in" v="gmina Solina, powiat leski, województwo podkarpackie, Poland"/>
    <tag k="is_in:country" v="Poland"/>
    <tag k="is_in:county" v="powiat leski"/>
    <tag k="is_in:municipality" v="gmina Solina"/>
    <tag k="is_in:province" v="województwo podkarpackie"/>
    <tag k="name" v="Solina"/>
    <tag k="place" v="village"/>
    <tag k="population" v="190"/>
    <tag k="source:population" v="wikipedia"/>
    <tag k="teryt:rm" v="01"/>
    <tag k="teryt:simc" v="0360649"/>
    <tag k="teryt:stan_na" v="2009-01-01"/>
    <tag k="teryt:terc" v="1821052"/>
    <tag k="teryt:updated_by" v="teryt2osm combine.py v. 43"/>
    <tag k="wikipedia" v="Solina, Poland"/>
  </node>
  <node id="39395437" version="6" timestamp="2012-07-24T14:37:10Z" uid="722137" user="OSMF Redaction Account" changeset="12468078" lat="49.3098062" lon="22.5314997">
    <tag k="is_in" v="gmina Czarna, powiat bieszczadzki, województwo podkarpackie, Poland"/>
    <tag k="is_in:county" v="powiat bieszczadzki"/>
    <tag k="is_in:municipality" v="gmina Czarna"/>
    <tag k="is_in:province" v="województwo podkarpackie"/>
    <tag k="population" v="10"/>
    <tag k="source:population" v="wikipedia"/>
    <tag k="teryt:simc" v="0347979"/>
    <tag k="wikipedia" v="Chrewt"/>
  </node>
  <node id="39395437" version="7" timestamp="2012-08-05T10:59:43Z" uid="467703" user="Zbigniew_Czernik" changeset="12618222" lat="49.3098062" lon="22.5314997">
    <tag k="is_in" v="gmina Czarna, powiat bieszczadzki, województwo podkarpackie, Poland"/>
    <tag k="is_in:county" v="powiat bieszczadzki"/>
    <tag k="is_in:municipality" v="gmina Czarna"/>
    <tag k="is_in:province" v="województwo podkarpackie"/>
    <tag k="name" v="Chrewt"/>
    <tag k="place" v="village"/>
    <tag k="population" v="10"/>
    <tag k="source:population" v="wikipedia"/>
    <tag k="teryt:simc" v="0347979"/>
    <tag k="wikipedia" v="Chrewt"/>
  </node>
</osm>
