<?xml version='1.0' encoding='UTF-8'?>
<osm version="0.6" generator="libosmium/2.20.0">
  <node id="397761749" version="1" timestamp="2009-05-14T05:49:45Z" uid="74617" user="JohnSmith" changeset="1183617" lat="-29.6523812" lon="150.8306415">
    <tag k="landuse" v="tennis court"/>
    <tag k="name" v="Delungra Tennis Club"/>
  </node>
  <node id="397761749" version="2" timestamp="2009-05-15T03:09:49Z" uid="74617" user="JohnSmith" changeset="1194570" lat="-29.6523793" lon="150.8306332">
    <tag k="landuse" v="recreation_ground"/>
    <tag k="name" v="Delungra Tennis Club"/>
  </node>
  <node id="397764015" version="1" timestamp="2009-05-14T05:50:25Z" uid="74617" user="JohnSmith" changeset="1183617" lat="-29.6519933" lon="150.8298604">
    <tag k=" sport" v="Cricket"/>
    <tag k="leisure" v="pitch"/>
    <tag k="name" v="Delungra Cricket Ground"/>
  </node>
  <node id="397764015" version="2" timestamp="2009-05-15T03:09:24Z" uid="74617" user="JohnSmith" changeset="1194570" lat="-29.6519914" lon="150.8298522">
    <tag k=" sport" v="Cricket"/>
    <tag k="landuse" v="recreation_ground"/>
    <tag k="name" v="Delungra Cricket Ground"/>
  </node>
  <node id="397764015" version="3" timestamp="2009-05-15T03:09:36Z" uid="74617" user="JohnSmith" changeset="1194570" lat="-29.6519914" lon="150.8298522">
    <tag k="landuse" v="recreation_ground"/>
    <tag k="name" v="Delungra Cricket Ground"/>
  </node>
  <node id="397766683" version="1" timestamp="2009-05-14T05:51:56Z" uid="74617" user="JohnSmith" changeset="1183617" lat="-29.6515308" lon="150.8314826">
    <tag k="amenity" v="school"/>
    <tag k="name" v="Delungra Public School"/>
  </node>
  <node id="397766683" version="2" timestamp="2009-05-17T05:34:08Z" uid="74617" user="JohnSmith" changeset="1217453" lat="-29.6515308" lon="150.8314826">
    <tag k="amenity" v="school"/>
    <tag k="name" v="Delungra Public School"/>
  </node>
  <node id="397766732" version="1" timestamp="2009-05-14T05:52:15Z" uid="74617" user="JohnSmith" changeset="1183617" lat="-29.6561852" lon="150.8331048">
    <tag k="amenity" v="place_of_worship"/>
    <tag k="religion" v="christian"/>
  </node>
  <node id="397766732" version="2" timestamp="2009-05-22T12:38:22Z" uid="74617" user="JohnSmith" changeset="1285724" lat="-29.6561843" lon="150.8330973">
    <tag k="amenity" v="place_of_worship"/>
    <tag k="name" v="Delungra Presbyterian Church"/>
    <tag k="religion" v="christian"/>
  </node>
  <node id="397766732" version="3" timestamp="2009-05-23T03:27:54Z" uid="74617" user="JohnSmith" changeset="1291469" lat="-29.6560568" lon="150.8331662">
    <tag k="amenity" v="place_of_worship"/>
    <tag k="name" v="Delungra Presbyterian Church"/>
    <tag k="religion" v="christian"/>
  </node>
  <node id="397766732" version="4" timestamp="2009-07-05T10:05:45Z" uid="74617" user="JohnSmith" changeset="1737523" lat="-29.6560568" lon="150.8331662">
    <tag k="amenity" v="place_of_worship"/>
    <tag k="denomination" v="presbyterian"/>
    <tag k="name" v="Delungra Presbyterian Church"/>
    <tag k="religion" v="christian"/>
  </node>
  <node id="397767198" version="1" timestamp="2009-05-14T05:53:04Z" uid="74617" user="JohnSmith" changeset="1183617" lat="-29.6520082" lon="150.8316114">
    <tag k="amenity" v="place_of_worship"/>
    <tag k="denomination" v="United"/>
    <tag k="religion" v="christian"/>
  </node>
  <node id="397767198" version="2" timestamp="2009-05-14T12:04:13Z" uid="74617" user="JohnSmith" changeset="1187317" lat="-29.6520068" lon="150.831604">
    <tag k="amenity" v="place_of_worship"/>
    <tag k="denomination" v="United"/>
    <tag k="name" v="Delungra Uniting Church"/>
    <tag k="religion" v="christian"/>
  </node>
  <node id="397767198" version="3" timestamp="2009-05-23T03:27:53Z" uid="74617" user="JohnSmith" changeset="1291469" lat="-29.6518624" lon="150.8317206">
    <tag k="amenity" v="place_of_worship"/>
    <tag k="denomination" v="United"/>
    <tag k="name" v="Delungra Uniting Church"/>
    <tag k="religion" v="christian"/>
  </node>
  <node id="397767198" version="4" timestamp="2009-07-04T21:03:35Z" uid="74617" user="JohnSmith" changeset="1733803" lat="-29.6518624" lon="150.8317206">
    <tag k="amenity" v="place_of_worship"/>
    <tag k="denomination" v="uniting"/>
    <tag k="name" v="Delungra Uniting Church"/>
    <tag k="religion" v="christian"/>
  </node>
  <node id="397761749" version="3" timestamp="2012-07-19T14:42:52Z" uid="722137" user="OSMF Redaction Account" changeset="12331861" lat="-29.6523793" lon="150.8306332"/>
  <node id="397764015" version="4" timestamp="2012-07-19T14:42:53Z" uid="722137" user="OSMF Redaction Account" changeset="12331861" lat="-29.6519914" lon="150.8298522"/>
  <node id="397766732" version="5" timestamp="2012-07-19T14:42:43Z" uid="722137" user="OSMF Redaction Account" changeset="12331842" lat="-29.6560568" lon="150.8331662"/>
  <node id="397767198" version="5" timestamp="2012-07-19T14:42:53Z" uid="722137" user="OSMF Redaction Account" changeset="12331861" lat="-29.6518624" lon="150.8317206"/>
</osm>
