<?xml version='1.0' encoding='UTF-8'?>
<osm version="0.6" generator="libosmium/2.20.0">
  <node id="39858369" version="5" timestamp="2008-07-07T19:10:50Z" uid="6975" user="ulfl" changeset="420350" lat="48.5707189" lon="8.9579017">
    <tag k="is_in" v="Ammerbuch, Baden-Württemberg, Germany, Deutschland"/>
    <tag k="name" v="Breitenholz"/>
    <tag k="place" v="village"/>
    <tag k="place_name" v="Breitenholz"/>
    <tag k="population" v="700"/>
  </node>
  <node id="39858369" version="6" timestamp="2008-11-03T16:55:54Z" uid="76798" user="is_in-bot" changeset="665803" lat="48.5707189" lon="8.9579017">
    <tag k="created_by" v="is_in-bot"/>
    <tag k="is_in" v="Ammerbuch,Baden-Württemberg,Bundesrepublik Deutschland,Europe"/>
    <tag k="name" v="Breitenholz"/>
    <tag k="place" v="village"/>
    <tag k="place_name" v="Breitenholz"/>
    <tag k="population" v="700"/>
  </node>
  <node id="39858369" version="7" timestamp="2009-04-12T17:56:30Z" uid="42027" user="markobr" changeset="442356" lat="48.5707219" lon="8.9578978">
    <tag k="created_by" v="Potlatch 0.10f"/>
    <tag k="is_in" v="Ammerbuch,Baden-Württemberg,Bundesrepublik Deutschland,Europe"/>
    <tag k="name" v="Breitenholz"/>
    <tag k="place" v="city"/>
    <tag k="place_name" v="Breitenholz"/>
    <tag k="population" v="700"/>
  </node>
  <node id="39858369" version="8" timestamp="2009-04-22T14:22:15Z" uid="42027" user="markobr" changeset="899531" lat="48.5707264" lon="8.9578949">
    <tag k="created_by" v="Potlatch 0.10f"/>
    <tag k="is_in" v="Ammerbuch,Baden-Württemberg,Bundesrepublik Deutschland,Europe"/>
    <tag k="name" v="Breitenholz"/>
    <tag k="place" v="village"/>
    <tag k="place_name" v="Breitenholz"/>
    <tag k="population" v="700"/>
  </node>
  <node id="39858369" version="9" timestamp="2009-05-11T05:12:34Z" uid="2680" user="xylome" changeset="1147532" lat="48.5707264" lon="8.9578949">
    <tag k="is_in" v="Ammerbuch,Baden-Württemberg,Bundesrepublik Deutschland,Europe"/>
    <tag k="name" v="Breitenholz"/>
    <tag k="place" v="village"/>
    <tag k="population" v="700"/>
  </node>
  <node id="39858369" version="10" timestamp="2010-03-14T17:56:17Z" uid="85761" user="klausis" changeset="4127590" lat="48.5707264" lon="8.9578949">
    <tag k="addr:postcode" v="72119"/>
    <tag k="is_in" v="Ammerbuch,Baden-Württemberg,Bundesrepublik Deutschland,Europe"/>
    <tag k="name" v="Breitenholz"/>
    <tag k="place" v="village"/>
    <tag k="population" v="700"/>
  </node>
  <node id="39858369" version="11" timestamp="2010-03-14T18:28:44Z" uid="85761" user="klausis" changeset="4128007" lat="48.5703506" lon="8.9570591">
    <tag k="addr:postcode" v="72119"/>
    <tag k="is_in" v="Ammerbuch,Baden-Württemberg,Bundesrepublik Deutschland,Europe"/>
    <tag k="name" v="Breitenholz"/>
    <tag k="place" v="village"/>
    <tag k="population" v="700"/>
  </node>
  <node id="39858369" version="12" timestamp="2011-08-28T15:07:09Z" uid="85761" user="klausis" changeset="9148080" lat="48.5703506" lon="8.9570591">
    <tag k="addr:city" v="Ammerbuch-Breitenholz"/>
    <tag k="addr:country" v="DE"/>
    <tag k="addr:postcode" v="72119"/>
    <tag k="is_in" v="Ammerbuch,Baden-Württemberg,Bundesrepublik Deutschland,Europe"/>
    <tag k="name" v="Breitenholz"/>
    <tag k="place" v="village"/>
    <tag k="population" v="700"/>
  </node>
</osm>
