<?xml version='1.0' encoding='UTF-8'?>
<osm version="0.6" generator="libosmium/2.20.0">
  <node id="398923270" version="1" timestamp="2009-05-14T13:14:48Z" uid="20587" user="balrog-kun" changeset="1187993" lat="52.2429951" lon="21.0847542">
    <tag k="amenity" v="bank"/>
    <tag k="name" v="AIG Bank"/>
  </node>
  <node id="398923270" version="2" timestamp="2009-05-15T00:48:58Z" uid="20587" user="balrog-kun" changeset="1194128" lat="52.2429951" lon="21.0847542">
    <tag k="amenity" v="bank"/>
    <tag k="name" v="AIG Bank"/>
    <tag k="source" v="leaflet"/>
  </node>
  <node id="398923270" version="3" timestamp="2011-01-24T13:48:46Z" uid="20587" user="balrog-kun" changeset="7073235" lat="52.2435635" lon="21.0852376">
    <tag k="amenity" v="bank"/>
    <tag k="name" v="AIG Bank"/>
    <tag k="source" v="leaflet"/>
  </node>
  <node id="398923270" version="4" timestamp="2012-09-06T19:47:44Z" uid="842685" user="ancymon" changeset="13014727" lat="52.2435635" lon="21.0852376">
    <tag k="addr:housenumber" v="72"/>
    <tag k="addr:street" v="Aleja StanÃ³w Zjednoczonych"/>
    <tag k="amenity" v="bank"/>
    <tag k="name" v="AIG Bank"/>
    <tag k="source" v="leaflet"/>
  </node>
</osm>
