<?xml version='1.0' encoding='UTF-8'?>
<osm version="0.6" generator="libosmium/2.20.0">
  <node id="401950699" version="1" timestamp="2009-05-16T23:06:37Z" uid="20587" user="balrog-kun" changeset="1216480" lat="50.7297655" lon="23.2204372">
    <tag k="historic" v="monument"/>
    <tag k="name" v="Pomnik Jeńców Radzieckich"/>
  </node>
  <node id="401950699" version="2" timestamp="2012-01-13T20:15:42Z" uid="382229" user="MilyMichas" changeset="10382210" lat="50.7300225" lon="23.2209405">
    <tag k="historic" v="monument"/>
    <tag k="name" v="Pomnik Jeńców Radzieckich"/>
  </node>
  <node id="401950699" version="3" timestamp="2012-01-16T21:42:57Z" uid="382229" user="MilyMichas" changeset="10412670" lat="50.7299561" lon="23.2209483">
    <tag k="historic" v="monument"/>
    <tag k="name" v="Pomnik Jeńców Radzieckich"/>
  </node>
  <node id="401950703" version="1" timestamp="2009-05-16T23:06:37Z" uid="20587" user="balrog-kun" changeset="1216480" lat="50.7217991" lon="23.2199502"/>
  <node id="401950703" version="2" timestamp="2011-06-27T18:48:03Z" uid="467703" user="Zibi" changeset="8564880" lat="50.7217991" lon="23.2199502"/>
  <node id="401950705" version="1" timestamp="2009-05-16T23:06:37Z" uid="20587" user="balrog-kun" changeset="1216480" lat="50.7218799" lon="23.2215"/>
  <node id="401950705" version="2" timestamp="2011-06-27T18:47:49Z" uid="467703" user="Zibi" changeset="8564880" lat="50.7218799" lon="23.2215"/>
  <node id="401950708" version="1" timestamp="2009-05-16T23:06:37Z" uid="20587" user="balrog-kun" changeset="1216480" lat="50.7211193" lon="23.2231888">
    <tag k="amenity" v="school"/>
    <tag k="name" v="Specjalny Ośrodek Szkolno-Wychowawczy"/>
  </node>
  <node id="401950708" version="2" timestamp="2012-01-13T23:29:42Z" uid="382229" user="MilyMichas" changeset="10383876" lat="50.7214648" lon="23.2237774">
    <tag k="amenity" v="school"/>
    <tag k="name" v="Specjalny Ośrodek Szkolno-Wychowawczy"/>
  </node>
  <node id="401950708" version="3" timestamp="2012-01-16T21:42:58Z" uid="382229" user="MilyMichas" changeset="10412670" lat="50.7214843" lon="23.2237891">
    <tag k="amenity" v="school"/>
    <tag k="name" v="Specjalny Ośrodek Szkolno-Wychowawczy"/>
  </node>
  <node id="401950710" version="1" timestamp="2009-05-16T23:06:37Z" uid="20587" user="balrog-kun" changeset="1216480" lat="50.7159392" lon="23.2255937">
    <tag k="amenity" v="school"/>
    <tag k="name" v="Gimnazjum NR5"/>
  </node>
  <node id="401950710" version="2" timestamp="2012-01-16T21:42:57Z" uid="382229" user="MilyMichas" changeset="10412670" lat="50.7158343" lon="23.2252431">
    <tag k="amenity" v="school"/>
    <tag k="name" v="Gimnazjum NR5"/>
  </node>
  <node id="401950713" version="1" timestamp="2009-05-16T23:06:38Z" uid="20587" user="balrog-kun" changeset="1216480" lat="50.715849" lon="23.224739">
    <tag k="amenity" v="school"/>
    <tag k="name" v="Szkoła Podstawowa NR8"/>
    <tag k="ref" v="SP8"/>
  </node>
  <node id="401950713" version="2" timestamp="2012-01-16T21:42:58Z" uid="382229" user="MilyMichas" changeset="10412670" lat="50.7156778" lon="23.2247142">
    <tag k="amenity" v="school"/>
    <tag k="name" v="Szkoła Podstawowa NR8"/>
    <tag k="ref" v="SP8"/>
  </node>
  <node id="401950716" version="1" timestamp="2009-05-16T23:06:38Z" uid="20587" user="balrog-kun" changeset="1216480" lat="50.7045411" lon="23.2290087"/>
  <node id="401950716" version="2" timestamp="2010-03-28T07:23:19Z" uid="163896" user="Zbigniew Czernik" changeset="4253248" lat="50.7016893" lon="23.2291247"/>
  <node id="401950718" version="1" timestamp="2009-05-16T23:06:38Z" uid="20587" user="balrog-kun" changeset="1216480" lat="50.7122648" lon="23.2330816"/>
  <node id="401950718" version="2" timestamp="2010-03-28T07:23:19Z" uid="163896" user="Zbigniew Czernik" changeset="4253248" lat="50.7124445" lon="23.2329468"/>
  <node id="401950720" version="1" timestamp="2009-05-16T23:06:38Z" uid="20587" user="balrog-kun" changeset="1216480" lat="50.7142801" lon="23.234239"/>
  <node id="401950720" version="2" timestamp="2010-03-28T07:23:19Z" uid="163896" user="Zbigniew Czernik" changeset="4253248" lat="50.7145632" lon="23.2343622"/>
  <node id="401950721" version="1" timestamp="2009-05-16T23:06:38Z" uid="20587" user="balrog-kun" changeset="1216480" lat="50.7187332" lon="23.2354186"/>
  <node id="401950721" version="2" timestamp="2009-05-16T23:34:11Z" uid="20587" user="balrog-kun" changeset="1216642" lat="50.7186769" lon="23.2343948"/>
  <node id="401950721" version="3" timestamp="2010-02-02T00:09:09Z" uid="163896" user="Zbigniew Czernik" changeset="3772789" lat="50.7185938" lon="23.2350648"/>
  <node id="401950723" version="1" timestamp="2009-05-16T23:06:38Z" uid="20587" user="balrog-kun" changeset="1216480" lat="50.7183178" lon="23.2408894"/>
  <node id="401950723" version="2" timestamp="2010-03-28T07:16:24Z" uid="163896" user="Zbigniew Czernik" changeset="4253248" lat="50.719065" lon="23.2407051"/>
  <node id="401950725" version="1" timestamp="2009-05-16T23:06:38Z" uid="20587" user="balrog-kun" changeset="1216480" lat="50.7181709" lon="23.2374861"/>
  <node id="401950725" version="2" timestamp="2012-01-16T20:09:29Z" uid="382229" user="MilyMichas" changeset="10411603" lat="50.7181737" lon="23.2374946"/>
  <node id="401950727" version="1" timestamp="2009-05-16T23:06:38Z" uid="20587" user="balrog-kun" changeset="1216480" lat="50.7148693" lon="23.2378417"/>
  <node id="401950727" version="2" timestamp="2010-03-28T07:16:23Z" uid="163896" user="Zbigniew Czernik" changeset="4253248" lat="50.7146191" lon="23.2380113"/>
  <node id="401950727" version="3" timestamp="2012-01-16T20:09:29Z" uid="382229" user="MilyMichas" changeset="10411603" lat="50.7145515" lon="23.2379268"/>
  <node id="401950729" version="1" timestamp="2009-05-16T23:06:38Z" uid="20587" user="balrog-kun" changeset="1216480" lat="50.7150162" lon="23.2412449"/>
  <node id="401950729" version="2" timestamp="2010-03-28T07:16:24Z" uid="163896" user="Zbigniew Czernik" changeset="4253248" lat="50.7147803" lon="23.2411374"/>
  <node id="401950731" version="1" timestamp="2009-05-16T23:06:38Z" uid="20587" user="balrog-kun" changeset="1216480" lat="50.7171537" lon="23.2369821">
    <tag k="name" v="Carrefour"/>
    <tag k="operator" v="Carrefour"/>
    <tag k="shop" v="supermarket"/>
  </node>
  <node id="401950731" version="2" timestamp="2010-10-26T06:28:36Z" uid="363285" user="Siemek" changeset="6179332" lat="50.7171537" lon="23.236982">
    <tag k="name" v="Castorama"/>
    <tag k="operator" v="Castorama"/>
    <tag k="shop" v="supermarket"/>
  </node>
  <node id="401950731" version="3" timestamp="2010-10-26T06:57:10Z" uid="363285" user="Siemek" changeset="6179354" lat="50.7171538" lon="23.236982">
    <tag k="name" v="Castorama"/>
    <tag k="operator" v="Castorama"/>
    <tag k="shop" v="supermarket"/>
  </node>
  <node id="401950731" version="4" timestamp="2012-01-16T20:09:28Z" uid="382229" user="MilyMichas" changeset="10411603" lat="50.7171418" lon="23.2368146">
    <tag k="name" v="Castorama"/>
    <tag k="operator" v="Castorama"/>
    <tag k="shop" v="supermarket"/>
  </node>
  <node id="401950734" version="1" timestamp="2009-05-16T23:06:38Z" uid="20587" user="balrog-kun" changeset="1216480" lat="50.7164914" lon="23.2292813">
    <tag k="shop" v="supermarket"/>
  </node>
  <node id="401950734" version="2" timestamp="2012-01-16T20:09:29Z" uid="382229" user="MilyMichas" changeset="10411603" lat="50.7164436" lon="23.2291777">
    <tag k="shop" v="supermarket"/>
  </node>
  <node id="401950734" version="3" timestamp="2012-01-16T21:42:59Z" uid="382229" user="MilyMichas" changeset="10412670" lat="50.7164684" lon="23.2291584">
    <tag k="shop" v="supermarket"/>
  </node>
  <node id="401950734" version="4" timestamp="2012-01-16T21:48:48Z" uid="382229" user="MilyMichas" changeset="10412723" lat="50.7164684" lon="23.2291584">
    <tag k="name" v="Biedronka"/>
    <tag k="shop" v="supermarket"/>
  </node>
  <node id="401950734" version="5" timestamp="2012-02-02T16:54:27Z" uid="598469" user="wiejar" changeset="10569314" lat="50.7164684" lon="23.2291584">
    <tag k="name" v="PSS Społem"/>
    <tag k="shop" v="supermarket"/>
  </node>
  <node id="401950736" version="1" timestamp="2009-05-16T23:06:38Z" uid="20587" user="balrog-kun" changeset="1216480" lat="50.714312" lon="23.2268545">
    <tag k="amenity" v="post_office"/>
  </node>
  <node id="401950736" version="2" timestamp="2012-02-02T17:06:14Z" uid="598469" user="wiejar" changeset="10569314" lat="50.7143096" lon="23.2264009">
    <tag k="shop" v="doityourself"/>
  </node>
  <node id="401950738" version="1" timestamp="2009-05-16T23:06:38Z" uid="20587" user="balrog-kun" changeset="1216480" lat="50.7133199" lon="23.2234373">
    <tag k="amenity" v="school"/>
    <tag k="name" v="Technikum Mechaniczne"/>
  </node>
  <node id="401950738" version="2" timestamp="2012-01-16T19:46:21Z" uid="382229" user="MilyMichas" changeset="10411366" lat="50.713249" lon="23.2239729">
    <tag k="amenity" v="school"/>
    <tag k="name" v="Technikum Mechaniczne"/>
  </node>
  <node id="401950738" version="3" timestamp="2012-01-17T18:21:11Z" uid="382229" user="MilyMichas" changeset="10420341" lat="50.713249" lon="23.2239729">
    <tag k="amenity" v="school"/>
    <tag k="name" v="Zespół Szkół Ponadgimnazjalnych im. T. Kościuszki"/>
  </node>
  <node id="401950738" version="4" timestamp="2012-01-17T18:25:36Z" uid="382229" user="MilyMichas" changeset="10420397" lat="50.713249" lon="23.2239729">
    <tag k="amenity" v="school"/>
    <tag k="name" v="Zespół Szkół Ponadgimnazjalnych nr 2 im. T. Kościuszki"/>
  </node>
  <node id="401950740" version="1" timestamp="2009-05-16T23:06:38Z" uid="20587" user="balrog-kun" changeset="1216480" lat="50.7130493" lon="23.2222977">
    <tag k="tourism" v="hostel"/>
  </node>
  <node id="401950740" version="2" timestamp="2012-01-16T19:46:22Z" uid="382229" user="MilyMichas" changeset="10411366" lat="50.7130174" lon="23.221787">
    <tag k="tourism" v="hostel"/>
  </node>
  <node id="401950740" version="3" timestamp="2012-01-17T18:26:49Z" uid="382229" user="MilyMichas" changeset="10420411" lat="50.7130174" lon="23.221787"/>
  <node id="401950742" version="1" timestamp="2009-05-16T23:06:38Z" uid="20587" user="balrog-kun" changeset="1216480" lat="50.7130042" lon="23.2172054">
    <tag k="amenity" v="university"/>
    <tag k="name" v="Wydział Nauk Rolniczych Uniwersytetu Przyrodniczego w Lublinie"/>
    <tag k="operator" v="Uniwersytet Przyrodniczy w Lublinie"/>
  </node>
  <node id="401950742" version="2" timestamp="2012-01-16T21:42:58Z" uid="382229" user="MilyMichas" changeset="10412670" lat="50.712853" lon="23.2168979">
    <tag k="amenity" v="university"/>
    <tag k="name" v="Wydział Nauk Rolniczych Uniwersytetu Przyrodniczego w Lublinie"/>
    <tag k="operator" v="Uniwersytet Przyrodniczy w Lublinie"/>
  </node>
  <node id="401950742" version="3" timestamp="2012-01-17T18:25:36Z" uid="382229" user="MilyMichas" changeset="10420397" lat="50.7130287" lon="23.2170452">
    <tag k="amenity" v="university"/>
    <tag k="name" v="Wydział Nauk Rolniczych Uniwersytetu Przyrodniczego w Lublinie"/>
    <tag k="operator" v="Uniwersytet Przyrodniczy w Lublinie"/>
  </node>
  <node id="401950745" version="1" timestamp="2009-05-16T23:06:38Z" uid="20587" user="balrog-kun" changeset="1216480" lat="50.7128125" lon="23.215959">
    <tag k="amenity" v="school"/>
    <tag k="name" v="Technikum Rolnicze"/>
  </node>
  <node id="401950745" version="2" timestamp="2012-01-16T21:42:58Z" uid="382229" user="MilyMichas" changeset="10412670" lat="50.7127882" lon="23.2162453">
    <tag k="amenity" v="school"/>
    <tag k="name" v="Technikum Rolnicze"/>
  </node>
  <node id="401950745" version="3" timestamp="2012-01-17T18:21:11Z" uid="382229" user="MilyMichas" changeset="10420341" lat="50.7127882" lon="23.2162453">
    <tag k="amenity" v="school"/>
    <tag k="name" v="Zespół Szkół Ponadgimnazjalnych im. J. Piłsudskiego"/>
  </node>
  <node id="401950745" version="4" timestamp="2012-01-17T18:25:36Z" uid="382229" user="MilyMichas" changeset="10420397" lat="50.7127769" lon="23.2162396">
    <tag k="amenity" v="school"/>
    <tag k="name" v="Zespół Szkół Ponadgimnazjalnych nr 5 im. J. Piłsudskiego"/>
  </node>
  <node id="401950747" version="1" timestamp="2009-05-16T23:06:38Z" uid="20587" user="balrog-kun" changeset="1216480" lat="50.7311625" lon="23.2205866"/>
  <node id="401950747" version="2" timestamp="2010-02-02T00:09:09Z" uid="163896" user="Zbigniew Czernik" changeset="3772789" lat="50.7311092" lon="23.2208611"/>
  <node id="401950747" version="3" timestamp="2012-01-16T21:48:48Z" uid="382229" user="MilyMichas" changeset="10412723" lat="50.7310623" lon="23.2207947"/>
  <node id="401950749" version="1" timestamp="2009-05-16T23:06:38Z" uid="20587" user="balrog-kun" changeset="1216480" lat="50.7335198" lon="23.2198441"/>
  <node id="401950749" version="2" timestamp="2010-02-02T00:09:09Z" uid="163896" user="Zbigniew Czernik" changeset="3772789" lat="50.7335608" lon="23.2194146"/>
  <node id="401950751" version="1" timestamp="2009-05-16T23:06:38Z" uid="20587" user="balrog-kun" changeset="1216480" lat="50.7332375" lon="23.2176066"/>
  <node id="401950751" version="2" timestamp="2010-02-02T00:09:28Z" uid="163896" user="Zbigniew Czernik" changeset="3772789" lat="50.7332375" lon="23.2176066"/>
  <node id="401950753" version="1" timestamp="2009-05-16T23:06:38Z" uid="20587" user="balrog-kun" changeset="1216480" lat="50.7325487" lon="23.2178236"/>
  <node id="401950753" version="2" timestamp="2010-02-02T00:09:09Z" uid="163896" user="Zbigniew Czernik" changeset="3772789" lat="50.7328715" lon="23.2163189"/>
  <node id="401950753" version="3" timestamp="2011-07-15T01:24:17Z" uid="467703" user="Zibi" changeset="8727347" lat="50.7329063" lon="23.216256"/>
  <node id="401950753" version="4" timestamp="2012-01-16T21:48:48Z" uid="382229" user="MilyMichas" changeset="10412723" lat="50.7328985" lon="23.2162794"/>
  <node id="401950755" version="1" timestamp="2009-05-16T23:06:38Z" uid="20587" user="balrog-kun" changeset="1216480" lat="50.7324265" lon="23.2168551"/>
  <node id="401950755" version="2" timestamp="2010-02-02T00:09:28Z" uid="163896" user="Zbigniew Czernik" changeset="3772789" lat="50.7324265" lon="23.2168551"/>
  <node id="401950757" version="1" timestamp="2009-05-16T23:06:38Z" uid="20587" user="balrog-kun" changeset="1216480" lat="50.7307579" lon="23.2173807"/>
  <node id="401950757" version="2" timestamp="2010-02-02T00:09:09Z" uid="163896" user="Zbigniew Czernik" changeset="3772789" lat="50.7306376" lon="23.2177654"/>
  <node id="401950757" version="3" timestamp="2011-07-15T01:24:41Z" uid="467703" user="Zibi" changeset="8727347" lat="50.730456" lon="23.2172977"/>
  <node id="401950757" version="4" timestamp="2012-01-16T21:48:48Z" uid="382229" user="MilyMichas" changeset="10412723" lat="50.73103" lon="23.2184886"/>
  <node id="401950759" version="1" timestamp="2009-05-16T23:06:38Z" uid="20587" user="balrog-kun" changeset="1216480" lat="50.7200646" lon="23.2230433">
    <tag k="amenity" v="place_of_worship"/>
    <tag k="denomination" v="catholic"/>
    <tag k="name" v="Kościół pod wezwaniem Świętej Bożej Opatrzności"/>
    <tag k="religion" v="christian"/>
  </node>
  <node id="401950759" version="2" timestamp="2012-01-13T23:29:42Z" uid="382229" user="MilyMichas" changeset="10383876" lat="50.719975" lon="23.2226978">
    <tag k="amenity" v="place_of_worship"/>
    <tag k="denomination" v="catholic"/>
    <tag k="name" v="Kościół pod wezwaniem Świętej Bożej Opatrzności"/>
    <tag k="religion" v="christian"/>
  </node>
  <node id="401950759" version="3" timestamp="2012-01-16T21:42:57Z" uid="382229" user="MilyMichas" changeset="10412670" lat="50.7200468" lon="23.2226012">
    <tag k="amenity" v="place_of_worship"/>
    <tag k="denomination" v="catholic"/>
    <tag k="name" v="Kościół pod wezwaniem Świętej Bożej Opatrzności"/>
    <tag k="religion" v="christian"/>
  </node>
  <node id="401950762" version="1" timestamp="2009-05-16T23:06:38Z" uid="20587" user="balrog-kun" changeset="1216480" lat="50.7169785" lon="23.2310157">
    <tag k="addr:city" v="Zamość"/>
    <tag k="addr:housenumber" v="1b"/>
    <tag k="addr:postcode" v="22-400"/>
    <tag k="addr:street" v="Romualda Traugutta"/>
    <tag k="amenity" v="place_of_worship"/>
    <tag k="denomination" v="evangelical"/>
    <tag k="name" v="Zbór Kościoła Ewangelicznych Chrześcijan"/>
    <tag k="religion" v="christian"/>
    <tag k="wikipedia" v="pl:Zbór Kościoła Ewangelicznych Chrześcijan w Zamościu"/>
  </node>
  <node id="401950762" version="2" timestamp="2012-01-16T21:42:59Z" uid="382229" user="MilyMichas" changeset="10412670" lat="50.7168018" lon="23.2299113">
    <tag k="addr:city" v="Zamość"/>
    <tag k="addr:housenumber" v="1b"/>
    <tag k="addr:postcode" v="22-400"/>
    <tag k="addr:street" v="Romualda Traugutta"/>
    <tag k="amenity" v="place_of_worship"/>
    <tag k="denomination" v="evangelical"/>
    <tag k="name" v="Zbór Kościoła Ewangelicznych Chrześcijan"/>
    <tag k="religion" v="christian"/>
    <tag k="wikipedia" v="pl:Zbór Kościoła Ewangelicznych Chrześcijan w Zamościu"/>
  </node>
  <node id="401950765" version="1" timestamp="2009-05-16T23:06:38Z" uid="20587" user="balrog-kun" changeset="1216480" lat="50.7191267" lon="23.2270248">
    <tag k="addr:postcode" v="22-400"/>
    <tag k="is_in" v="Zamość"/>
    <tag k="name" v="Osiedle Karolówka"/>
    <tag k="place" v="suburb"/>
    <tag k="wikipedia" v="pl:Osiedle Karolówka w Zamościu"/>
  </node>
  <node id="401950765" version="2" timestamp="2009-06-16T14:38:27Z" uid="20587" user="balrog-kun" changeset="1535715" lat="50.7191267" lon="23.2270248">
    <tag k="addr:postcode" v="22-400"/>
    <tag k="is_in" v="Zamość, gmina Zamość, powiat Zamość, województwo lubelskie, Poland"/>
    <tag k="is_in:country" v="Poland"/>
    <tag k="is_in:county" v="powiat Zamość"/>
    <tag k="is_in:municipality" v="gmina Zamość"/>
    <tag k="is_in:province" v="województwo lubelskie"/>
    <tag k="is_in:town" v="Zamość"/>
    <tag k="name" v="Osiedle Karolówka"/>
    <tag k="place" v="suburb"/>
    <tag k="wikipedia" v="pl:Osiedle Karolówka w Zamościu"/>
  </node>
  <node id="401950765" version="3" timestamp="2011-07-15T01:43:36Z" uid="467703" user="Zibi" changeset="8727347" lat="50.7191267" lon="23.2270248">
    <tag k="addr:postcode" v="22-400"/>
    <tag k="is_in" v="Zamość, gmina Zamość, powiat Zamość, województwo lubelskie, Poland"/>
    <tag k="is_in:country" v="Poland"/>
    <tag k="is_in:county" v="powiat Zamość"/>
    <tag k="is_in:municipality" v="gmina Zamość"/>
    <tag k="is_in:province" v="województwo lubelskie"/>
    <tag k="is_in:town" v="Zamość"/>
    <tag k="name" v="Karolówka"/>
    <tag k="place" v="hamlet"/>
    <tag k="wikipedia" v="pl:Osiedle Karolówka w Zamościu"/>
  </node>
  <node id="401950765" version="4" timestamp="2012-01-13T23:29:42Z" uid="382229" user="MilyMichas" changeset="10383876" lat="50.7193378" lon="23.2258284">
    <tag k="addr:postcode" v="22-400"/>
    <tag k="is_in" v="Zamość, gmina Zamość, powiat Zamość, województwo lubelskie, Poland"/>
    <tag k="is_in:country" v="Poland"/>
    <tag k="is_in:county" v="powiat Zamość"/>
    <tag k="is_in:municipality" v="gmina Zamość"/>
    <tag k="is_in:province" v="województwo lubelskie"/>
    <tag k="is_in:town" v="Zamość"/>
    <tag k="name" v="Karolówka"/>
    <tag k="place" v="hamlet"/>
    <tag k="wikipedia" v="pl:Osiedle Karolówka w Zamościu"/>
  </node>
  <node id="401950765" version="5" timestamp="2012-01-14T11:18:06Z" uid="382229" user="MilyMichas" changeset="10386431" lat="50.7193378" lon="23.2258284">
    <tag k="addr:postcode" v="22-400"/>
    <tag k="is_in" v="Zamość, gmina Zamość, powiat Zamość, województwo lubelskie, Poland"/>
    <tag k="is_in:country" v="Poland"/>
    <tag k="is_in:county" v="powiat Zamość"/>
    <tag k="is_in:municipality" v="gmina Zamość"/>
    <tag k="is_in:province" v="województwo lubelskie"/>
    <tag k="is_in:town" v="Zamość"/>
    <tag k="name" v="Karolówka"/>
    <tag k="place" v="suburb"/>
    <tag k="wikipedia" v="pl:Osiedle Karolówka w Zamościu"/>
  </node>
  <node id="401950765" version="6" timestamp="2012-01-14T11:43:06Z" uid="382229" user="MilyMichas" changeset="10386582" lat="50.7193378" lon="23.2258284">
    <tag k="addr:postcode" v="22-400"/>
    <tag k="is_in" v="Zamość, gmina Zamość, powiat Zamość, województwo lubelskie, Poland"/>
    <tag k="is_in:country" v="Poland"/>
    <tag k="is_in:county" v="powiat Zamość"/>
    <tag k="is_in:municipality" v="gmina Zamość"/>
    <tag k="is_in:province" v="województwo lubelskie"/>
    <tag k="is_in:town" v="Zamość"/>
    <tag k="name" v="Karolówka"/>
    <tag k="place" v="suburb"/>
    <tag k="wikipedia" v="pl:Osiedle Karolówka w Zamościu"/>
  </node>
  <node id="401950765" version="7" timestamp="2012-01-14T12:09:19Z" uid="382229" user="MilyMichas" changeset="10386790" lat="50.7193378" lon="23.2258284">
    <tag k="addr:postcode" v="22-400"/>
    <tag k="is_in" v="Zamość, gmina Zamość, powiat Zamość, województwo lubelskie, Poland"/>
    <tag k="is_in:country" v="Poland"/>
    <tag k="is_in:county" v="powiat Zamość"/>
    <tag k="is_in:municipality" v="gmina Zamość"/>
    <tag k="is_in:province" v="województwo lubelskie"/>
    <tag k="is_in:town" v="Zamość"/>
    <tag k="name" v="Osiedle Karolówka"/>
    <tag k="place" v="hamlet"/>
    <tag k="wikipedia" v="pl:Osiedle Karolówka w Zamościu"/>
  </node>
  <node id="401950765" version="8" timestamp="2012-02-06T19:59:33Z" uid="314684" user="krattbot" changeset="10605722" lat="50.7193378" lon="23.2258284">
    <tag k="addr:postcode" v="22-400"/>
    <tag k="fixme" v="Bad wikipedia link: pl:Osiedle Karolówka w Zamościu"/>
    <tag k="is_in" v="Zamość, gmina Zamość, powiat Zamość, województwo lubelskie, Poland"/>
    <tag k="is_in:country" v="Poland"/>
    <tag k="is_in:county" v="powiat Zamość"/>
    <tag k="is_in:municipality" v="gmina Zamość"/>
    <tag k="is_in:province" v="województwo lubelskie"/>
    <tag k="is_in:town" v="Zamość"/>
    <tag k="name" v="Osiedle Karolówka"/>
    <tag k="place" v="hamlet"/>
    <tag k="wikipedia" v="pl:Osiedle Karolówka w Zamościu"/>
  </node>
  <node id="401950768" version="1" timestamp="2009-05-16T23:06:38Z" uid="20587" user="balrog-kun" changeset="1216480" lat="50.7068423" lon="23.2241517">
    <tag k="is_in" v="Zamość"/>
    <tag k="name" v="Osiedle Błonie"/>
    <tag k="place" v="suburb"/>
  </node>
  <node id="401950768" version="2" timestamp="2011-07-15T01:43:36Z" uid="467703" user="Zibi" changeset="8727347" lat="50.7087888" lon="23.2209719">
    <tag k="is_in" v="Zamość"/>
    <tag k="name" v="Błonie"/>
    <tag k="place" v="hamlet"/>
  </node>
  <node id="401950768" version="3" timestamp="2012-01-14T11:18:07Z" uid="382229" user="MilyMichas" changeset="10386431" lat="50.7087888" lon="23.2209719">
    <tag k="is_in" v="Zamość"/>
    <tag k="name" v="Osiedle Błonie"/>
    <tag k="place" v="hamlet"/>
  </node>
  <node id="401950768" version="4" timestamp="2012-01-14T11:43:05Z" uid="382229" user="MilyMichas" changeset="10386582" lat="50.7087888" lon="23.2209719">
    <tag k="is_in" v="Zamość"/>
    <tag k="name" v="Osiedle Błonie"/>
    <tag k="place" v="locality"/>
  </node>
  <node id="401950768" version="5" timestamp="2012-01-14T12:09:18Z" uid="382229" user="MilyMichas" changeset="10386790" lat="50.7087888" lon="23.2209719">
    <tag k="is_in" v="Zamość"/>
    <tag k="name" v="Osiedle Błonie"/>
    <tag k="place" v="hamlet"/>
  </node>
  <node id="401950771" version="1" timestamp="2009-05-16T23:06:38Z" uid="20587" user="balrog-kun" changeset="1216480" lat="50.717178" lon="23.2468842"/>
  <node id="401950771" version="2" timestamp="2009-05-16T23:34:11Z" uid="20587" user="balrog-kun" changeset="1216642" lat="50.7144088" lon="23.2423049"/>
  <node id="401950771" version="3" timestamp="2010-03-28T07:16:24Z" uid="163896" user="Zbigniew Czernik" changeset="4253248" lat="50.7144867" lon="23.2420151"/>
  <node id="401950773" version="1" timestamp="2009-05-16T23:06:38Z" uid="20587" user="balrog-kun" changeset="1216480" lat="50.7217058" lon="23.2436604"/>
  <node id="401950775" version="1" timestamp="2009-05-16T23:06:38Z" uid="20587" user="balrog-kun" changeset="1216480" lat="50.717617" lon="23.2507181"/>
  <node id="401950775" version="2" timestamp="2011-07-15T01:24:42Z" uid="467703" user="Zibi" changeset="8727347" lat="50.7177356" lon="23.2507805"/>
  <node id="401950775" version="3" timestamp="2012-01-15T09:27:19Z" uid="382229" user="MilyMichas" changeset="10395724" lat="50.7177424" lon="23.2507605"/>
  <node id="401950777" version="1" timestamp="2009-05-16T23:06:39Z" uid="20587" user="balrog-kun" changeset="1216480" lat="50.7177878" lon="23.2495585"/>
  <node id="401950777" version="2" timestamp="2011-07-15T01:24:48Z" uid="467703" user="Zibi" changeset="8727347" lat="50.7179565" lon="23.2496617"/>
  <node id="401950779" version="1" timestamp="2009-05-16T23:06:39Z" uid="20587" user="balrog-kun" changeset="1216480" lat="50.7262589" lon="23.2516807">
    <tag k="highway" v="traffic_signals"/>
  </node>
  <node id="401950779" version="2" timestamp="2011-07-15T01:24:58Z" uid="467703" user="Zibi" changeset="8727347" lat="50.7263257" lon="23.2515986">
    <tag k="highway" v="traffic_signals"/>
  </node>
  <node id="401950781" version="1" timestamp="2009-05-16T23:06:39Z" uid="20587" user="balrog-kun" changeset="1216480" lat="50.7315358" lon="23.2510833">
    <tag k="highway" v="traffic_signals"/>
  </node>
  <node id="401950781" version="2" timestamp="2011-07-15T01:24:29Z" uid="467703" user="Zibi" changeset="8727347" lat="50.7315506" lon="23.2510364">
    <tag k="highway" v="traffic_signals"/>
  </node>
  <node id="401950783" version="1" timestamp="2009-05-16T23:06:39Z" uid="20587" user="balrog-kun" changeset="1216480" lat="50.7174844" lon="23.2516162">
    <tag k="is_in" v="Zamość"/>
    <tag k="name" v="Stare Miasto"/>
    <tag k="place" v="suburb"/>
    <tag k="wikipedia" v="pl:Osiedle Stare Miasto w Zamościu"/>
  </node>
  <node id="401950783" version="2" timestamp="2009-06-16T14:38:29Z" uid="20587" user="balrog-kun" changeset="1535715" lat="50.7174844" lon="23.2516162">
    <tag k="addr:postcode" v="22-400"/>
    <tag k="is_in" v="Zamość, gmina Zamość, powiat Zamość, województwo lubelskie, Poland"/>
    <tag k="is_in:country" v="Poland"/>
    <tag k="is_in:county" v="powiat Zamość"/>
    <tag k="is_in:municipality" v="gmina Zamość"/>
    <tag k="is_in:province" v="województwo lubelskie"/>
    <tag k="is_in:town" v="Zamość"/>
    <tag k="name" v="Stare Miasto"/>
    <tag k="place" v="suburb"/>
    <tag k="wikipedia" v="pl:Osiedle Stare Miasto w Zamościu"/>
  </node>
  <node id="401950783" version="3" timestamp="2012-01-14T10:26:06Z" uid="467703" user="Zbigniew Czernik" changeset="10386010" lat="50.7174844" lon="23.2516162">
    <tag k="addr:postcode" v="22-400"/>
    <tag k="is_in" v="Zamość, gmina Zamość, powiat Zamość, województwo lubelskie, Poland"/>
    <tag k="is_in:country" v="Poland"/>
    <tag k="is_in:county" v="powiat Zamość"/>
    <tag k="is_in:municipality" v="gmina Zamość"/>
    <tag k="is_in:province" v="województwo lubelskie"/>
    <tag k="is_in:town" v="Zamość"/>
    <tag k="name" v="Stare Miasto"/>
    <tag k="place" v="hamlet"/>
    <tag k="wikipedia" v="pl:Osiedle Stare Miasto w Zamościu"/>
  </node>
  <node id="401950783" version="4" timestamp="2012-01-14T11:43:04Z" uid="382229" user="MilyMichas" changeset="10386582" lat="50.7174844" lon="23.2516162">
    <tag k="addr:postcode" v="22-400"/>
    <tag k="is_in" v="Zamość, gmina Zamość, powiat Zamość, województwo lubelskie, Poland"/>
    <tag k="is_in:country" v="Poland"/>
    <tag k="is_in:county" v="powiat Zamość"/>
    <tag k="is_in:municipality" v="gmina Zamość"/>
    <tag k="is_in:province" v="województwo lubelskie"/>
    <tag k="is_in:town" v="Zamość"/>
    <tag k="name" v="Stare Miasto"/>
    <tag k="place" v="suburb"/>
    <tag k="wikipedia" v="pl:Osiedle Stare Miasto w Zamościu"/>
  </node>
  <node id="401950783" version="5" timestamp="2012-01-14T12:09:21Z" uid="382229" user="MilyMichas" changeset="10386790" lat="50.7174844" lon="23.2516162">
    <tag k="addr:postcode" v="22-400"/>
    <tag k="is_in" v="Zamość, gmina Zamość, powiat Zamość, województwo lubelskie, Poland"/>
    <tag k="is_in:country" v="Poland"/>
    <tag k="is_in:county" v="powiat Zamość"/>
    <tag k="is_in:municipality" v="gmina Zamość"/>
    <tag k="is_in:province" v="województwo lubelskie"/>
    <tag k="is_in:town" v="Zamość"/>
    <tag k="name" v="Stare Miasto"/>
    <tag k="place" v="suburb"/>
    <tag k="wikipedia" v="pl:Osiedle Stare Miasto w Zamościu"/>
  </node>
  <node id="401950783" version="6" timestamp="2012-02-06T19:59:34Z" uid="314684" user="krattbot" changeset="10605722" lat="50.7174844" lon="23.2516162">
    <tag k="addr:postcode" v="22-400"/>
    <tag k="fixme" v="Bad wikipedia link: pl:Osiedle Stare Miasto w Zamościu"/>
    <tag k="is_in" v="Zamość, gmina Zamość, powiat Zamość, województwo lubelskie, Poland"/>
    <tag k="is_in:country" v="Poland"/>
    <tag k="is_in:county" v="powiat Zamość"/>
    <tag k="is_in:municipality" v="gmina Zamość"/>
    <tag k="is_in:province" v="województwo lubelskie"/>
    <tag k="is_in:town" v="Zamość"/>
    <tag k="name" v="Stare Miasto"/>
    <tag k="place" v="suburb"/>
    <tag k="wikipedia" v="pl:Osiedle Stare Miasto w Zamościu"/>
  </node>
  <node id="401950731" version="5" timestamp="2012-07-19T18:15:06Z" uid="382229" user="MilyMichas" changeset="12342892" lat="50.7170986" lon="23.2366511">
    <tag k="name" v="Castorama"/>
    <tag k="operator" v="Castorama"/>
    <tag k="shop" v="supermarket"/>
  </node>
  <node id="401950783" version="7" timestamp="2012-07-15T21:09:55Z" uid="467703" user="Zbigniew Czernik" changeset="12236128" lat="50.7174844" lon="23.2516162">
    <tag k="addr:postcode" v="22-400"/>
    <tag k="fixme" v="Bad wikipedia link: pl:Osiedle Stare Miasto w Zamościu"/>
    <tag k="is_in" v="Zamość, gmina Zamość, powiat Zamość, województwo lubelskie, Poland"/>
    <tag k="is_in:country" v="Poland"/>
    <tag k="is_in:county" v="powiat Zamość"/>
    <tag k="is_in:municipality" v="gmina Zamość"/>
    <tag k="is_in:province" v="województwo lubelskie"/>
    <tag k="is_in:town" v="Zamość"/>
    <tag k="name" v="Stare Miasto"/>
    <tag k="place" v="hamlet"/>
    <tag k="wikipedia" v="pl:Osiedle Stare Miasto w Zamościu"/>
  </node>
</osm>
