<?xml version='1.0' encoding='UTF-8'?>
<osm version="0.6" generator="libosmium/2.20.0">
  <node id="40244498" version="3" timestamp="2008-07-07T02:05:36Z" uid="6975" user="ulfl" changeset="415781" lat="51.1508038" lon="6.8922445">
    <tag k="highway" v="motorway_junction"/>
    <tag k="name" v="Düsseldorf Garath"/>
    <tag k="ref" v="23"/>
  </node>
  <node id="40244498" version="4" timestamp="2008-11-01T18:38:41Z" uid="29765" user="Glg11" changeset="650997" lat="51.1506485" lon="6.8922704">
    <tag k="highway" v="motorway_junction"/>
    <tag k="name" v="Düsseldorf Garath"/>
    <tag k="ref" v="23"/>
  </node>
  <node id="40244498" version="5" timestamp="2009-09-27T16:06:35Z" uid="16315" user="-jha-" changeset="2654575" lat="51.1509712" lon="6.8921418">
    <tag k="highway" v="motorway_junction"/>
    <tag k="name" v="Düsseldorf Garath"/>
    <tag k="ref" v="23"/>
  </node>
  <node id="40244498" version="6" timestamp="2010-11-23T08:16:50Z" uid="120715" user="ruhri2010" changeset="6437516" lat="51.1509712" lon="6.8921418">
    <tag k="TMC:cid_58:tabcd_1:Direction" v="positive"/>
    <tag k="TMC:cid_58:tabcd_1:LocationCode" v="11827"/>
    <tag k="highway" v="motorway_junction"/>
    <tag k="name" v="Düsseldorf Garath"/>
    <tag k="ref" v="23"/>
  </node>
  <node id="40244498" version="7" timestamp="2010-11-23T19:13:07Z" uid="218283" user="TMCbot" changeset="6441623" lat="51.1509712" lon="6.8921418">
    <tag k="TMC:cid_58:tabcd_1:Class" v="Point"/>
    <tag k="TMC:cid_58:tabcd_1:Direction" v="positive"/>
    <tag k="TMC:cid_58:tabcd_1:LCLversion" v="9.00"/>
    <tag k="TMC:cid_58:tabcd_1:LocationCode" v="11827"/>
    <tag k="TMC:cid_58:tabcd_1:NextLocationCode" v="11828"/>
    <tag k="TMC:cid_58:tabcd_1:PrevLocationCode" v="40059"/>
    <tag k="highway" v="motorway_junction"/>
    <tag k="name" v="Düsseldorf Garath"/>
    <tag k="ref" v="23"/>
  </node>
  <node id="40244498" version="8" timestamp="2012-06-02T20:32:16Z" uid="429794" user="SennaHB" changeset="11780711" lat="51.1509712" lon="6.8921418">
    <tag k="highway" v="motorway_junction"/>
    <tag k="name" v="Düsseldorf-Garath"/>
    <tag k="ref" v="23"/>
    <tag k="TMC:cid_58:tabcd_1:Class" v="Point"/>
    <tag k="TMC:cid_58:tabcd_1:Direction" v="positive"/>
    <tag k="TMC:cid_58:tabcd_1:LCLversion" v="9.00"/>
    <tag k="TMC:cid_58:tabcd_1:LocationCode" v="11827"/>
    <tag k="TMC:cid_58:tabcd_1:NextLocationCode" v="11828"/>
    <tag k="TMC:cid_58:tabcd_1:PrevLocationCode" v="40059"/>
  </node>
</osm>
