<?xml version='1.0' encoding='UTF-8'?>
<osm version="0.6" generator="libosmium/2.20.0">
  <node id="402584367" version="1" timestamp="2009-05-17T12:10:32Z" uid="6269" user="Mueck" changeset="1221244" lat="49.0022604" lon="8.4030373"/>
  <node id="402584367" version="2" timestamp="2009-08-14T09:40:59Z" uid="151735" user="Sophie Werner" changeset="2140678" lat="49.0022604" lon="8.4030373">
    <tag k="crossing" v=""/>
    <tag k="highway" v="traffic_signals"/>
  </node>
  <node id="402584367" version="3" timestamp="2009-08-15T10:03:28Z" uid="70696" user="xybot" changeset="2151193" lat="49.0022604" lon="8.4030373">
    <tag k="highway" v="traffic_signals"/>
  </node>
  <node id="402584367" version="4" timestamp="2011-01-04T12:50:22Z" uid="29717" user="eumiro" changeset="6860199" lat="49.0022207" lon="8.4030373">
    <tag k="highway" v="traffic_signals"/>
  </node>
  <node id="402584367" version="5" timestamp="2011-01-24T20:21:53Z" uid="6269" user="Mueck" changeset="7077480" lat="49.0022102" lon="8.4030247">
    <tag k="highway" v="traffic_signals"/>
  </node>
  <node id="402584367" version="6" timestamp="2011-04-06T22:41:29Z" uid="396203" user="MarkusHD" changeset="7789996" lat="49.0022102" lon="8.4030247">
    <tag k="crossing" v="traffic_signals"/>
    <tag k="highway" v="crossing"/>
  </node>
  <node id="402586360" version="1" timestamp="2009-05-17T12:11:34Z" uid="6269" user="Mueck" changeset="1221244" lat="49.0022605" lon="8.4031294"/>
  <node id="402586360" version="2" timestamp="2011-01-04T12:50:16Z" uid="29717" user="eumiro" changeset="6860199" lat="49.0022208" lon="8.4031294"/>
  <node id="402586360" version="3" timestamp="2011-01-24T20:23:11Z" uid="6269" user="Mueck" changeset="7077480" lat="49.0022208" lon="8.4031294"/>
  <node id="402587256" version="2" timestamp="2010-07-29T09:38:45Z" uid="74617" user="JohnSmith" changeset="5344848" lat="51.8501033" lon="8.3133222">
    <tag k="amenity" v="emergency_phone"/>
    <tag k="emergency" v="phone"/>
    <tag k="operator" v="Autobahnmeisterei"/>
  </node>
  <node id="402587257" version="2" timestamp="2010-07-29T08:59:00Z" uid="74617" user="JohnSmith" changeset="5344848" lat="51.8503604" lon="8.3130551">
    <tag k="amenity" v="emergency_phone"/>
    <tag k="emergency" v="phone"/>
    <tag k="operator" v="Autobahnmeisterei"/>
  </node>
  <node id="402587261" version="2" timestamp="2010-07-29T09:27:39Z" uid="74617" user="JohnSmith" changeset="5344848" lat="51.8432898" lon="8.2881167">
    <tag k="amenity" v="emergency_phone"/>
    <tag k="emergency" v="phone"/>
    <tag k="operator" v="Autobahnmeisterei"/>
  </node>
  <node id="402587263" version="2" timestamp="2010-07-29T09:15:37Z" uid="74617" user="JohnSmith" changeset="5344848" lat="51.8435824" lon="8.2878294">
    <tag k="amenity" v="emergency_phone"/>
    <tag k="emergency" v="phone"/>
    <tag k="operator" v="Autobahnmeisterei"/>
  </node>
  <node id="402587267" version="2" timestamp="2010-07-29T09:31:32Z" uid="74617" user="JohnSmith" changeset="5344848" lat="51.8375989" lon="8.272061">
    <tag k="amenity" v="emergency_phone"/>
    <tag k="emergency" v="phone"/>
    <tag k="operator" v="Autobahnmeisterei"/>
  </node>
  <node id="402587271" version="2" timestamp="2010-07-29T09:16:32Z" uid="74617" user="JohnSmith" changeset="5344848" lat="51.8379021" lon="8.2717194">
    <tag k="amenity" v="emergency_phone"/>
    <tag k="emergency" v="phone"/>
    <tag k="operator" v="Autobahnmeisterei"/>
  </node>
  <node id="402587274" version="2" timestamp="2010-07-29T09:35:46Z" uid="74617" user="JohnSmith" changeset="5344848" lat="51.8343497" lon="8.2562285">
    <tag k="amenity" v="emergency_phone"/>
    <tag k="emergency" v="phone"/>
    <tag k="operator" v="Autobahnmeisterei"/>
  </node>
  <node id="402587278" version="2" timestamp="2010-07-29T09:19:09Z" uid="74617" user="JohnSmith" changeset="5344848" lat="51.8340426" lon="8.2563597">
    <tag k="amenity" v="emergency_phone"/>
    <tag k="emergency" v="phone"/>
    <tag k="operator" v="Autobahnmeisterei"/>
  </node>
  <node id="402587281" version="2" timestamp="2010-07-29T09:22:30Z" uid="74617" user="JohnSmith" changeset="5344848" lat="51.8313407" lon="8.2378866">
    <tag k="amenity" v="emergency_phone"/>
    <tag k="emergency" v="phone"/>
    <tag k="operator" v="Autobahnmeisterei"/>
  </node>
  <node id="402587284" version="2" timestamp="2010-07-29T09:42:06Z" uid="74617" user="JohnSmith" changeset="5344848" lat="51.831691" lon="8.2376381">
    <tag k="amenity" v="emergency_phone"/>
    <tag k="emergency" v="phone"/>
    <tag k="operator" v="Autobahnmeisterei"/>
  </node>
  <node id="402587286" version="2" timestamp="2010-07-29T09:28:09Z" uid="74617" user="JohnSmith" changeset="5344848" lat="51.8286225" lon="8.2190243">
    <tag k="amenity" v="emergency_phone"/>
    <tag k="emergency" v="phone"/>
    <tag k="operator" v="Autobahnmeisterei"/>
  </node>
  <node id="402587290" version="2" timestamp="2010-07-29T09:13:09Z" uid="74617" user="JohnSmith" changeset="5344848" lat="51.8289224" lon="8.2180149">
    <tag k="amenity" v="emergency_phone"/>
    <tag k="emergency" v="phone"/>
    <tag k="operator" v="Autobahnmeisterei"/>
  </node>
  <node id="402587293" version="2" timestamp="2010-07-29T09:15:59Z" uid="74617" user="JohnSmith" changeset="5344848" lat="51.8262844" lon="8.1998874">
    <tag k="amenity" v="emergency_phone"/>
    <tag k="emergency" v="phone"/>
    <tag k="operator" v="Autobahnmeisterei"/>
  </node>
  <node id="402587296" version="2" timestamp="2010-07-29T08:58:05Z" uid="74617" user="JohnSmith" changeset="5344848" lat="51.8260486" lon="8.2000583">
    <tag k="amenity" v="emergency_phone"/>
    <tag k="emergency" v="phone"/>
    <tag k="operator" v="Autobahnmeisterei"/>
  </node>
  <node id="402587305" version="2" timestamp="2010-07-29T09:17:09Z" uid="74617" user="JohnSmith" changeset="5344848" lat="51.8223496" lon="8.183327">
    <tag k="amenity" v="emergency_phone"/>
    <tag k="emergency" v="phone"/>
    <tag k="operator" v="Autobahnmeisterei"/>
  </node>
  <node id="402587309" version="2" timestamp="2010-07-29T08:57:46Z" uid="74617" user="JohnSmith" changeset="5344848" lat="51.8226683" lon="8.182963">
    <tag k="amenity" v="emergency_phone"/>
    <tag k="emergency" v="phone"/>
    <tag k="operator" v="Autobahnmeisterei"/>
  </node>
  <node id="402587312" version="2" timestamp="2010-07-29T09:20:03Z" uid="74617" user="JohnSmith" changeset="5344848" lat="51.8170953" lon="8.1649464">
    <tag k="amenity" v="emergency_phone"/>
    <tag k="emergency" v="phone"/>
    <tag k="operator" v="Autobahnmeisterei"/>
  </node>
  <node id="402587322" version="2" timestamp="2010-07-29T09:16:52Z" uid="74617" user="JohnSmith" changeset="5344848" lat="51.8174351" lon="8.1644725">
    <tag k="amenity" v="emergency_phone"/>
    <tag k="emergency" v="phone"/>
    <tag k="operator" v="Autobahnmeisterei"/>
  </node>
  <node id="402587336" version="1" timestamp="2009-05-17T12:12:02Z" uid="6269" user="Mueck" changeset="1221244" lat="49.0030826" lon="8.4031447"/>
  <node id="402587336" version="2" timestamp="2011-01-24T20:21:58Z" uid="6269" user="Mueck" changeset="7077480" lat="49.0030137" lon="8.4031836"/>
  <node id="402587339" version="1" timestamp="2009-05-17T12:12:02Z" uid="6269" user="Mueck" changeset="1221244" lat="49.0022604" lon="8.4030846"/>
  <node id="402587339" version="2" timestamp="2011-01-04T12:50:14Z" uid="29717" user="eumiro" changeset="6860199" lat="49.0022207" lon="8.4030846"/>
  <node id="402587339" version="3" timestamp="2011-01-24T20:21:59Z" uid="6269" user="Mueck" changeset="7077480" lat="49.0022067" lon="8.4030962"/>
  <node id="402587352" version="2" timestamp="2010-07-29T09:17:14Z" uid="74617" user="JohnSmith" changeset="5344848" lat="51.8120561" lon="8.1451966">
    <tag k="amenity" v="emergency_phone"/>
    <tag k="emergency" v="phone"/>
    <tag k="operator" v="Autobahnmeisterei"/>
  </node>
  <node id="402587352" version="3" timestamp="2010-12-24T15:50:10Z" uid="81244" user="rurseekatze" changeset="6755558" lat="51.8119736" lon="8.145149">
    <tag k="amenity" v="emergency_phone"/>
    <tag k="emergency" v="phone"/>
    <tag k="operator" v="Autobahnmeisterei"/>
  </node>
  <node id="402587355" version="2" timestamp="2010-07-29T09:11:07Z" uid="74617" user="JohnSmith" changeset="5344848" lat="51.8123036" lon="8.1447962">
    <tag k="amenity" v="emergency_phone"/>
    <tag k="emergency" v="phone"/>
    <tag k="operator" v="Autobahnmeisterei"/>
  </node>
  <node id="402587359" version="2" timestamp="2010-07-29T09:37:09Z" uid="74617" user="JohnSmith" changeset="5344848" lat="51.806937" lon="8.1320211">
    <tag k="amenity" v="emergency_phone"/>
    <tag k="emergency" v="phone"/>
    <tag k="operator" v="Autobahnmeisterei"/>
  </node>
  <node id="402587363" version="2" timestamp="2010-07-29T09:27:56Z" uid="74617" user="JohnSmith" changeset="5344848" lat="51.8069946" lon="8.130841">
    <tag k="amenity" v="emergency_phone"/>
    <tag k="emergency" v="phone"/>
    <tag k="operator" v="Autobahnmeisterei"/>
  </node>
  <node id="402587482" version="2" timestamp="2009-12-27T05:37:41Z" uid="7617" user="Franc" changeset="3460198" lat="-33.8412108" lon="150.9752353"/>
  <node id="402587485" version="2" timestamp="2009-12-27T05:37:41Z" uid="7617" user="Franc" changeset="3460198" lat="-33.8415846" lon="150.9751273"/>
  <node id="402587490" version="2" timestamp="2009-12-27T05:37:41Z" uid="7617" user="Franc" changeset="3460198" lat="-33.8417776" lon="150.975816"/>
  <node id="402587492" version="2" timestamp="2009-12-27T05:37:41Z" uid="7617" user="Franc" changeset="3460198" lat="-33.8413566" lon="150.9759372"/>
  <node id="402587532" version="1" timestamp="2009-05-17T12:12:09Z" uid="6269" user="Mueck" changeset="1221244" lat="49.0030826" lon="8.4032391"/>
  <node id="402587532" version="2" timestamp="2011-01-24T20:21:59Z" uid="6269" user="Mueck" changeset="7077480" lat="49.0030708" lon="8.4032805"/>
  <node id="402587535" version="1" timestamp="2009-05-17T12:12:09Z" uid="6269" user="Mueck" changeset="1221244" lat="49.0022605" lon="8.4031618"/>
  <node id="402587535" version="2" timestamp="2011-01-04T12:50:15Z" uid="29717" user="eumiro" changeset="6860199" lat="49.0022208" lon="8.4031618"/>
  <node id="402587535" version="3" timestamp="2011-01-24T20:22:00Z" uid="6269" user="Mueck" changeset="7077480" lat="49.0022026" lon="8.403179"/>
  <node id="402589272" version="8" timestamp="2010-12-01T14:12:00Z" uid="6269" user="Mueck" changeset="6503972" lat="48.9939721" lon="8.4019971">
    <tag k="name" v="Karlsruhe Hauptbahnhof"/>
    <tag k="public_transport" v="stop_position"/>
    <tag k="rail" v="yes"/>
    <tag k="railway" v="stop"/>
    <tag k="uic_ref" v="8000191"/>
  </node>
  <node id="402589272" version="9" timestamp="2010-12-02T11:04:46Z" uid="6269" user="Mueck" changeset="6512997" lat="48.9939702" lon="8.4019912">
    <tag k="name" v="Karlsruhe Hauptbahnhof"/>
    <tag k="public_transport" v="stop_position"/>
    <tag k="rail" v="yes"/>
    <tag k="railway" v="stop"/>
    <tag k="uic_ref" v="8000191"/>
  </node>
  <node id="402589272" version="10" timestamp="2011-03-05T10:17:51Z" uid="6269" user="Mueck" changeset="7461138" lat="48.9939634" lon="8.4019944">
    <tag k="name" v="Karlsruhe Hauptbahnhof"/>
    <tag k="public_transport" v="stop_position"/>
    <tag k="rail" v="yes"/>
    <tag k="railway" v="stop"/>
    <tag k="uic_ref" v="8000191"/>
  </node>
  <node id="402589272" version="11" timestamp="2011-03-18T14:49:30Z" uid="165061" user="keinname" changeset="7596074" lat="48.9939669" lon="8.402005">
    <tag k="name" v="Karlsruhe Hauptbahnhof"/>
    <tag k="public_transport" v="stop_position"/>
    <tag k="rail" v="yes"/>
    <tag k="railway" v="stop"/>
    <tag k="uic_ref" v="8000191"/>
  </node>
  <node id="402589279" version="8" timestamp="2010-12-01T14:12:05Z" uid="6269" user="Mueck" changeset="6503972" lat="48.9937887" lon="8.4021162">
    <tag k="name" v="Karlsruhe Hauptbahnhof"/>
    <tag k="public_transport" v="stop_position"/>
    <tag k="rail" v="yes"/>
    <tag k="railway" v="stop"/>
    <tag k="uic_ref" v="8000191"/>
  </node>
  <node id="402589279" version="9" timestamp="2010-12-02T11:04:47Z" uid="6269" user="Mueck" changeset="6512997" lat="48.9937906" lon="8.4021222">
    <tag k="name" v="Karlsruhe Hauptbahnhof"/>
    <tag k="public_transport" v="stop_position"/>
    <tag k="rail" v="yes"/>
    <tag k="railway" v="stop"/>
    <tag k="uic_ref" v="8000191"/>
  </node>
  <node id="402589279" version="10" timestamp="2011-03-05T09:58:04Z" uid="6269" user="Mueck" changeset="7461138" lat="48.9937881" lon="8.4021268">
    <tag k="name" v="Karlsruhe Hauptbahnhof"/>
    <tag k="public_transport" v="stop_position"/>
    <tag k="rail" v="yes"/>
    <tag k="railway" v="stop"/>
    <tag k="uic_ref" v="8000191"/>
  </node>
  <node id="402589279" version="11" timestamp="2011-03-18T14:49:29Z" uid="165061" user="keinname" changeset="7596074" lat="48.9937922" lon="8.4021393">
    <tag k="name" v="Karlsruhe Hauptbahnhof"/>
    <tag k="public_transport" v="stop_position"/>
    <tag k="rail" v="yes"/>
    <tag k="railway" v="stop"/>
    <tag k="uic_ref" v="8000191"/>
  </node>
  <node id="402589283" version="8" timestamp="2010-12-01T14:56:32Z" uid="6269" user="Mueck" changeset="6503972" lat="48.9936181" lon="8.402267">
    <tag k="name" v="Karlsruhe Hauptbahnhof"/>
    <tag k="public_transport" v="stop_position"/>
    <tag k="rail" v="yes"/>
    <tag k="railway" v="station"/>
    <tag k="uic_ref" v="8000191"/>
  </node>
  <node id="402589283" version="9" timestamp="2010-12-02T11:04:48Z" uid="6269" user="Mueck" changeset="6512997" lat="48.9936132" lon="8.4022515">
    <tag k="name" v="Karlsruhe Hauptbahnhof"/>
    <tag k="public_transport" v="stop_position"/>
    <tag k="rail" v="yes"/>
    <tag k="railway" v="station"/>
    <tag k="uic_ref" v="8000191"/>
  </node>
  <node id="402589283" version="10" timestamp="2011-03-18T14:49:31Z" uid="165061" user="keinname" changeset="7596074" lat="48.9936199" lon="8.4022717">
    <tag k="name" v="Karlsruhe Hauptbahnhof"/>
    <tag k="public_transport" v="stop_position"/>
    <tag k="rail" v="yes"/>
    <tag k="railway" v="station"/>
    <tag k="uic_ref" v="8000191"/>
  </node>
  <node id="402589283" version="11" timestamp="2011-08-29T17:12:26Z" uid="60137" user="michael2402" changeset="9159134" lat="48.9936199" lon="8.4022717">
    <tag k="public_transport" v="stop_position"/>
    <tag k="rail" v="yes"/>
    <tag k="uic_ref" v="8000191"/>
  </node>
  <node id="402589288" version="8" timestamp="2010-12-01T14:56:40Z" uid="6269" user="Mueck" changeset="6503972" lat="48.9933945" lon="8.4024091">
    <tag k="name" v="Karlsruhe Hauptbahnhof"/>
    <tag k="public_transport" v="stop_position"/>
    <tag k="rail" v="yes"/>
    <tag k="railway" v="stop"/>
    <tag k="uic_ref" v="8000191"/>
  </node>
  <node id="402589288" version="9" timestamp="2010-12-02T11:04:48Z" uid="6269" user="Mueck" changeset="6512997" lat="48.993395" lon="8.4024106">
    <tag k="name" v="Karlsruhe Hauptbahnhof"/>
    <tag k="public_transport" v="stop_position"/>
    <tag k="rail" v="yes"/>
    <tag k="railway" v="stop"/>
    <tag k="uic_ref" v="8000191"/>
  </node>
  <node id="402589288" version="10" timestamp="2011-03-05T09:35:32Z" uid="6269" user="Mueck" changeset="7461138" lat="48.9933743" lon="8.4024314">
    <tag k="name" v="Karlsruhe Hauptbahnhof"/>
    <tag k="public_transport" v="stop_position"/>
    <tag k="rail" v="yes"/>
    <tag k="railway" v="stop"/>
    <tag k="uic_ref" v="8000191"/>
  </node>
  <node id="402589288" version="11" timestamp="2011-03-18T14:49:31Z" uid="165061" user="keinname" changeset="7596074" lat="48.993382" lon="8.4024545">
    <tag k="name" v="Karlsruhe Hauptbahnhof"/>
    <tag k="public_transport" v="stop_position"/>
    <tag k="rail" v="yes"/>
    <tag k="railway" v="stop"/>
    <tag k="uic_ref" v="8000191"/>
  </node>
  <node id="402589292" version="9" timestamp="2010-12-01T14:56:43Z" uid="6269" user="Mueck" changeset="6503972" lat="48.9932719" lon="8.4024615">
    <tag k="name" v="Karlsruhe Hauptbahnhof"/>
    <tag k="public_transport" v="stop_position"/>
    <tag k="rail" v="yes"/>
    <tag k="railway" v="stop"/>
    <tag k="uic_ref" v="8000191"/>
  </node>
  <node id="402589292" version="10" timestamp="2010-12-02T11:04:46Z" uid="6269" user="Mueck" changeset="6512997" lat="48.9932818" lon="8.4024931">
    <tag k="name" v="Karlsruhe Hauptbahnhof"/>
    <tag k="public_transport" v="stop_position"/>
    <tag k="rail" v="yes"/>
    <tag k="railway" v="stop"/>
    <tag k="uic_ref" v="8000191"/>
  </node>
  <node id="402589292" version="11" timestamp="2011-03-05T09:35:32Z" uid="6269" user="Mueck" changeset="7461138" lat="48.993261" lon="8.4024997">
    <tag k="name" v="Karlsruhe Hauptbahnhof"/>
    <tag k="public_transport" v="stop_position"/>
    <tag k="rail" v="yes"/>
    <tag k="railway" v="stop"/>
    <tag k="uic_ref" v="8000191"/>
  </node>
  <node id="402589292" version="12" timestamp="2011-03-18T14:49:29Z" uid="165061" user="keinname" changeset="7596074" lat="48.9932737" lon="8.4025378">
    <tag k="name" v="Karlsruhe Hauptbahnhof"/>
    <tag k="public_transport" v="stop_position"/>
    <tag k="rail" v="yes"/>
    <tag k="railway" v="stop"/>
    <tag k="uic_ref" v="8000191"/>
  </node>
  <node id="402589296" version="5" timestamp="2011-01-24T16:34:57Z" uid="6269" user="Mueck" changeset="7073890" lat="48.9945328" lon="8.3996085">
    <tag k="bus" v="yes"/>
    <tag k="name" v="Bahnhofsvorplatz"/>
    <tag k="public_transport" v="stop_position"/>
  </node>
  <node id="402589296" version="6" timestamp="2011-03-16T12:24:24Z" uid="6269" user="Mueck" changeset="7575157" lat="48.9945328" lon="8.3996085">
    <tag k="bus" v="yes"/>
    <tag k="name" v="Bahnhofsvorplatz"/>
    <tag k="public_transport" v="stop_position"/>
    <tag k="uic_ref" v="720913"/>
  </node>
  <node id="402589300" version="3" timestamp="2011-01-24T16:34:55Z" uid="6269" user="Mueck" changeset="7073890" lat="48.9943059" lon="8.3990791"/>
  <node id="402589302" version="3" timestamp="2011-01-24T16:34:55Z" uid="6269" user="Mueck" changeset="7073890" lat="48.994582" lon="8.400163"/>
  <node id="402589302" version="4" timestamp="2011-07-18T14:44:19Z" uid="212553" user="ARWIE" changeset="8759144" lat="48.9945796" lon="8.4001539"/>
  <node id="402584367" version="7" timestamp="2012-04-21T20:59:57Z" uid="35468" user="Blunauer" changeset="11378112" lat="49.0022102" lon="8.4030247"/>
  <node id="402587256" version="3" timestamp="2012-07-17T02:42:37Z" uid="722137" user="OSMF Redaction Account" changeset="12255597" lat="51.8501033" lon="8.3133222">
    <tag k="amenity" v="emergency_phone"/>
    <tag k="operator" v="Autobahnmeisterei"/>
  </node>
  <node id="402587257" version="3" timestamp="2012-07-17T02:42:37Z" uid="722137" user="OSMF Redaction Account" changeset="12255597" lat="51.8503604" lon="8.3130551">
    <tag k="amenity" v="emergency_phone"/>
    <tag k="operator" v="Autobahnmeisterei"/>
  </node>
  <node id="402587261" version="3" timestamp="2012-07-17T02:43:37Z" uid="722137" user="OSMF Redaction Account" changeset="12255603" lat="51.8432898" lon="8.2881167">
    <tag k="amenity" v="emergency_phone"/>
    <tag k="operator" v="Autobahnmeisterei"/>
  </node>
  <node id="402587263" version="3" timestamp="2012-07-17T02:43:37Z" uid="722137" user="OSMF Redaction Account" changeset="12255603" lat="51.8435824" lon="8.2878294">
    <tag k="amenity" v="emergency_phone"/>
    <tag k="operator" v="Autobahnmeisterei"/>
  </node>
  <node id="402587267" version="3" timestamp="2012-07-17T02:43:37Z" uid="722137" user="OSMF Redaction Account" changeset="12255603" lat="51.8375989" lon="8.272061">
    <tag k="amenity" v="emergency_phone"/>
    <tag k="operator" v="Autobahnmeisterei"/>
  </node>
  <node id="402587271" version="3" timestamp="2012-07-17T02:43:37Z" uid="722137" user="OSMF Redaction Account" changeset="12255603" lat="51.8379021" lon="8.2717194">
    <tag k="amenity" v="emergency_phone"/>
    <tag k="operator" v="Autobahnmeisterei"/>
  </node>
  <node id="402587274" version="3" timestamp="2012-07-17T02:43:37Z" uid="722137" user="OSMF Redaction Account" changeset="12255603" lat="51.8343497" lon="8.2562285">
    <tag k="amenity" v="emergency_phone"/>
    <tag k="operator" v="Autobahnmeisterei"/>
  </node>
  <node id="402587278" version="3" timestamp="2012-07-17T02:43:36Z" uid="722137" user="OSMF Redaction Account" changeset="12255603" lat="51.8340426" lon="8.2563597">
    <tag k="amenity" v="emergency_phone"/>
    <tag k="operator" v="Autobahnmeisterei"/>
  </node>
  <node id="402587281" version="3" timestamp="2012-07-17T03:03:48Z" uid="722137" user="OSMF Redaction Account" changeset="12255783" lat="51.8313407" lon="8.2378866">
    <tag k="amenity" v="emergency_phone"/>
    <tag k="operator" v="Autobahnmeisterei"/>
  </node>
  <node id="402587284" version="3" timestamp="2012-07-17T03:03:49Z" uid="722137" user="OSMF Redaction Account" changeset="12255783" lat="51.831691" lon="8.2376381">
    <tag k="amenity" v="emergency_phone"/>
    <tag k="operator" v="Autobahnmeisterei"/>
  </node>
  <node id="402587286" version="3" timestamp="2012-07-17T03:03:48Z" uid="722137" user="OSMF Redaction Account" changeset="12255783" lat="51.8286225" lon="8.2190243">
    <tag k="amenity" v="emergency_phone"/>
    <tag k="operator" v="Autobahnmeisterei"/>
  </node>
  <node id="402587290" version="3" timestamp="2012-07-17T03:03:48Z" uid="722137" user="OSMF Redaction Account" changeset="12255783" lat="51.8289224" lon="8.2180149">
    <tag k="amenity" v="emergency_phone"/>
    <tag k="operator" v="Autobahnmeisterei"/>
  </node>
  <node id="402587293" version="3" timestamp="2012-07-17T03:03:48Z" uid="722137" user="OSMF Redaction Account" changeset="12255783" lat="51.8262844" lon="8.1998874">
    <tag k="amenity" v="emergency_phone"/>
    <tag k="operator" v="Autobahnmeisterei"/>
  </node>
  <node id="402587296" version="3" timestamp="2012-07-17T03:03:48Z" uid="722137" user="OSMF Redaction Account" changeset="12255783" lat="51.8260486" lon="8.2000583">
    <tag k="amenity" v="emergency_phone"/>
    <tag k="operator" v="Autobahnmeisterei"/>
  </node>
  <node id="402587305" version="3" timestamp="2012-07-17T03:05:14Z" uid="722137" user="OSMF Redaction Account" changeset="12255796" lat="51.8223496" lon="8.183327">
    <tag k="amenity" v="emergency_phone"/>
    <tag k="operator" v="Autobahnmeisterei"/>
  </node>
  <node id="402587309" version="3" timestamp="2012-07-17T03:05:15Z" uid="722137" user="OSMF Redaction Account" changeset="12255796" lat="51.8226683" lon="8.182963">
    <tag k="amenity" v="emergency_phone"/>
    <tag k="operator" v="Autobahnmeisterei"/>
  </node>
  <node id="402587312" version="3" timestamp="2012-07-17T03:05:14Z" uid="722137" user="OSMF Redaction Account" changeset="12255796" lat="51.8170953" lon="8.1649464">
    <tag k="amenity" v="emergency_phone"/>
    <tag k="operator" v="Autobahnmeisterei"/>
  </node>
  <node id="402587322" version="3" timestamp="2012-07-17T03:05:14Z" uid="722137" user="OSMF Redaction Account" changeset="12255796" lat="51.8174351" lon="8.1644725">
    <tag k="amenity" v="emergency_phone"/>
    <tag k="operator" v="Autobahnmeisterei"/>
  </node>
  <node id="402587336" version="3" timestamp="2012-05-06T16:15:47Z" uid="35468" user="Blunauer" changeset="11520255" lat="49.0030137" lon="8.4031836"/>
  <node id="402587339" version="4" timestamp="2012-04-21T20:59:57Z" uid="35468" user="Blunauer" changeset="11378112" lat="49.0022067" lon="8.4030962"/>
  <node id="402587352" version="4" timestamp="2012-07-17T03:05:14Z" uid="722137" user="OSMF Redaction Account" changeset="12255796" lat="51.8119736" lon="8.145149">
    <tag k="amenity" v="emergency_phone"/>
    <tag k="operator" v="Autobahnmeisterei"/>
  </node>
  <node id="402587355" version="3" timestamp="2012-07-17T03:05:14Z" uid="722137" user="OSMF Redaction Account" changeset="12255796" lat="51.8123036" lon="8.1447962">
    <tag k="amenity" v="emergency_phone"/>
    <tag k="operator" v="Autobahnmeisterei"/>
  </node>
  <node id="402587359" version="3" timestamp="2012-07-17T03:05:14Z" uid="722137" user="OSMF Redaction Account" changeset="12255796" lat="51.806937" lon="8.1320211">
    <tag k="amenity" v="emergency_phone"/>
    <tag k="operator" v="Autobahnmeisterei"/>
  </node>
  <node id="402587363" version="3" timestamp="2012-07-17T03:05:14Z" uid="722137" user="OSMF Redaction Account" changeset="12255796" lat="51.8069946" lon="8.130841">
    <tag k="amenity" v="emergency_phone"/>
    <tag k="operator" v="Autobahnmeisterei"/>
  </node>
  <node id="402587482" version="3" timestamp="2012-07-22T01:19:53Z" uid="722137" user="OSMF Redaction Account" changeset="12423816" lat="-33.8411802" lon="150.9752195"/>
  <node id="402587485" version="3" timestamp="2012-07-22T01:19:53Z" uid="722137" user="OSMF Redaction Account" changeset="12423816" lat="-33.8415795" lon="150.9750993"/>
  <node id="402587490" version="3" timestamp="2012-07-22T01:19:52Z" uid="722137" user="OSMF Redaction Account" changeset="12423816" lat="-33.8417434" lon="150.9759404"/>
  <node id="402587492" version="3" timestamp="2012-07-22T01:19:53Z" uid="722137" user="OSMF Redaction Account" changeset="12423816" lat="-33.8413442" lon="150.976052"/>
  <node id="402587532" version="3" timestamp="2012-05-06T16:15:47Z" uid="35468" user="Blunauer" changeset="11520255" lat="49.0030708" lon="8.4032805"/>
  <node id="402587535" version="4" timestamp="2012-04-21T20:59:57Z" uid="35468" user="Blunauer" changeset="11378112" lat="49.0022026" lon="8.403179"/>
  <node id="402589279" version="12" timestamp="2012-07-20T22:18:08Z" uid="165061" user="mapper999" changeset="12393987" lat="48.9938079" lon="8.4021365">
    <tag k="name" v="Karlsruhe Hauptbahnhof"/>
    <tag k="public_transport" v="stop_position"/>
    <tag k="rail" v="yes"/>
    <tag k="railway" v="stop"/>
    <tag k="uic_ref" v="8000191"/>
  </node>
  <node id="402589279" version="13" timestamp="2012-07-21T05:12:57Z" uid="206037" user="hurdygurdyman" changeset="12400397" lat="48.9937966" lon="8.4021433">
    <tag k="name" v="Karlsruhe Hauptbahnhof"/>
    <tag k="public_transport" v="stop_position"/>
    <tag k="rail" v="yes"/>
    <tag k="railway" v="stop"/>
    <tag k="uic_ref" v="8000191"/>
  </node>
  <node id="402589283" version="12" timestamp="2012-07-21T08:17:35Z" uid="130472" user="fx99" changeset="12403393" lat="48.9936199" lon="8.4022717">
    <tag k="name" v="Karlsruhe Hauptbahnhof"/>
    <tag k="public_transport" v="stop_position"/>
    <tag k="rail" v="yes"/>
    <tag k="railway" v="stop"/>
    <tag k="uic_ref" v="8000191"/>
  </node>
  <node id="402589296" version="7" timestamp="2012-07-20T09:36:41Z" uid="722137" user="OSMF Redaction Account" changeset="12370059" lat="48.994504" lon="8.399617">
    <tag k="bus" v="yes"/>
    <tag k="name" v="Bahnhofsvorplatz"/>
    <tag k="public_transport" v="stop_position"/>
  </node>
  <node id="402589296" version="8" timestamp="2012-07-26T12:18:45Z" uid="38515" user="soeren_gasch" changeset="12498493" lat="48.9945261" lon="8.3995781">
    <tag k="bus" v="yes"/>
    <tag k="name" v="Bahnhofsvorplatz"/>
    <tag k="public_transport" v="stop_position"/>
  </node>
  <node id="402589300" version="4" timestamp="2012-07-20T09:36:37Z" uid="722137" user="OSMF Redaction Account" changeset="12370059" lat="48.9942757" lon="8.3990066"/>
  <node id="402589300" version="5" timestamp="2012-07-20T15:13:27Z" uid="42208" user="JanTH" changeset="12377388" lat="48.9943129" lon="8.3991021"/>
  <node id="402589302" version="5" timestamp="2012-07-20T15:13:27Z" uid="42208" user="JanTH" changeset="12377388" lat="48.994583" lon="8.4001511"/>
</osm>
