<?xml version='1.0' encoding='UTF-8'?>
<osm version="0.6" generator="libosmium/2.20.0">
  <node id="406163705" version="4" timestamp="2009-08-26T10:47:25Z" uid="36809" user="pfoten_weg_!_" changeset="2265993" lat="48.1897667" lon="11.6126286">
    <tag k="addr:city" v="München"/>
    <tag k="addr:country" v="DE"/>
    <tag k="addr:housenumber" v="4"/>
    <tag k="addr:postcode" v="80939"/>
    <tag k="addr:street" v="Georg-Wopfner-Straße"/>
  </node>
  <node id="406163705" version="5" timestamp="2009-10-10T20:52:24Z" uid="118209" user="delphin1965" changeset="2808484" lat="48.1897824" lon="11.6126364">
    <tag k="addr:city" v="München"/>
    <tag k="addr:country" v="DE"/>
    <tag k="addr:housenumber" v="4"/>
    <tag k="addr:postcode" v="80939"/>
    <tag k="addr:street" v="Georg-Wopfner-Straße"/>
  </node>
  <node id="406163709" version="4" timestamp="2009-08-26T10:47:24Z" uid="36809" user="pfoten_weg_!_" changeset="2265993" lat="48.1897351" lon="11.612762">
    <tag k="addr:city" v="München"/>
    <tag k="addr:country" v="DE"/>
    <tag k="addr:housenumber" v="6"/>
    <tag k="addr:postcode" v="80939"/>
    <tag k="addr:street" v="Georg-Wopfner-Straße"/>
  </node>
  <node id="406163709" version="5" timestamp="2009-10-10T20:52:24Z" uid="118209" user="delphin1965" changeset="2808484" lat="48.1897563" lon="11.6127633">
    <tag k="addr:city" v="München"/>
    <tag k="addr:country" v="DE"/>
    <tag k="addr:housenumber" v="6"/>
    <tag k="addr:postcode" v="80939"/>
    <tag k="addr:street" v="Georg-Wopfner-Straße"/>
  </node>
  <node id="406163714" version="4" timestamp="2009-08-26T10:47:20Z" uid="36809" user="pfoten_weg_!_" changeset="2265993" lat="48.1897116" lon="11.6128888">
    <tag k="addr:city" v="München"/>
    <tag k="addr:country" v="DE"/>
    <tag k="addr:housenumber" v="8"/>
    <tag k="addr:postcode" v="80939"/>
    <tag k="addr:street" v="Georg-Wopfner-Straße"/>
  </node>
  <node id="406163714" version="5" timestamp="2009-10-10T20:52:24Z" uid="118209" user="delphin1965" changeset="2808484" lat="48.189729" lon="11.612896">
    <tag k="addr:city" v="München"/>
    <tag k="addr:country" v="DE"/>
    <tag k="addr:housenumber" v="8"/>
    <tag k="addr:postcode" v="80939"/>
    <tag k="addr:street" v="Georg-Wopfner-Straße"/>
  </node>
  <node id="406163721" version="3" timestamp="2009-08-26T10:47:21Z" uid="36809" user="pfoten_weg_!_" changeset="2265993" lat="48.1897535" lon="11.6130178">
    <tag k="addr:city" v="München"/>
    <tag k="addr:country" v="DE"/>
    <tag k="addr:housenumber" v="10"/>
    <tag k="addr:postcode" v="80939"/>
    <tag k="addr:street" v="Georg-Wopfner-Straße"/>
  </node>
  <node id="406163721" version="4" timestamp="2009-10-10T20:52:24Z" uid="118209" user="delphin1965" changeset="2808484" lat="48.189764" lon="11.612973">
    <tag k="addr:city" v="München"/>
    <tag k="addr:country" v="DE"/>
    <tag k="addr:housenumber" v="10"/>
    <tag k="addr:postcode" v="80939"/>
    <tag k="addr:street" v="Georg-Wopfner-Straße"/>
  </node>
  <node id="406164502" version="3" timestamp="2009-10-02T20:14:21Z" uid="86259" user="hasse_osm_korinthenkacker" changeset="2717163" lat="47.8923745" lon="11.7712801"/>
  <node id="406164502" version="4" timestamp="2010-04-25T21:19:38Z" uid="72235" user="Basstoelpel" changeset="4526780" lat="47.8923509" lon="11.7712625">
    <tag k="name" v="Unterdarching"/>
    <tag k="traffic_sign" v="city_limit"/>
  </node>
  <node id="406166742" version="3" timestamp="2009-10-20T00:32:35Z" uid="36809" user="pfoten_weg_!_" changeset="2899059" lat="47.7535436" lon="11.7184803"/>
  <node id="406166744" version="3" timestamp="2009-10-20T00:32:32Z" uid="36809" user="pfoten_weg_!_" changeset="2899059" lat="47.7536881" lon="11.7181622"/>
  <node id="406166745" version="3" timestamp="2009-10-20T00:32:33Z" uid="36809" user="pfoten_weg_!_" changeset="2899059" lat="47.7537517" lon="11.7181271"/>
  <node id="406166749" version="3" timestamp="2009-10-20T00:32:29Z" uid="36809" user="pfoten_weg_!_" changeset="2899059" lat="47.7534456" lon="11.718521"/>
</osm>
