<?xml version='1.0' encoding='UTF-8'?>
<osm version="0.6" generator="libosmium/2.20.0">
  <node id="406865357" version="2" timestamp="2009-12-24T04:30:17Z" uid="6975" user="ulfl" changeset="3439927" lat="53.321211" lon="-2.245955">
    <tag k="addr:housenumber" v="22"/>
    <tag k="addr:street" v="South Oak Lane"/>
    <tag k="name" v="Wilmslow Laundry Services"/>
    <tag k="shop" v="laundry"/>
  </node>
  <node id="406865357" version="3" timestamp="2010-04-09T21:59:15Z" uid="4559" user="RichardB" changeset="4378088" lat="53.321211" lon="-2.245955">
    <tag k="addr:housenumber" v="22"/>
    <tag k="addr:postcode" v="SK9 6AR"/>
    <tag k="addr:street" v="South Oak Lane"/>
    <tag k="name" v="Wilmslow Laundry Services"/>
    <tag k="shop" v="laundry"/>
    <tag k="source:post_code" v="os_codepoint"/>
  </node>
  <node id="406865357" version="4" timestamp="2012-01-11T21:04:45Z" uid="4559" user="RichardB" changeset="10364402" lat="53.321211" lon="-2.245955">
    <tag k="addr:housenumber" v="22"/>
    <tag k="addr:street" v="South Oak Lane"/>
    <tag k="name" v="Wilmslow Laundry Services"/>
    <tag k="shop" v="laundry"/>
  </node>
</osm>
