<?xml version='1.0' encoding='UTF-8'?>
<osm version="0.6" generator="libosmium/2.20.0">
  <node id="412463983" version="3" timestamp="2010-07-29T09:18:25Z" uid="74617" user="JohnSmith" changeset="5344848" lat="51.5982098" lon="7.1853634">
    <tag k="amenity" v="emergency_phone"/>
    <tag k="emergency" v="phone"/>
    <tag k="operator" v="Autobahnmeisterei"/>
  </node>
  <node id="412463986" version="2" timestamp="2010-07-29T09:38:50Z" uid="74617" user="JohnSmith" changeset="5344848" lat="51.598296" lon="7.1857551">
    <tag k="amenity" v="emergency_phone"/>
    <tag k="emergency" v="phone"/>
    <tag k="operator" v="Autobahnmeisterei"/>
  </node>
  <node id="412463990" version="2" timestamp="2010-07-29T09:21:34Z" uid="74617" user="JohnSmith" changeset="5344848" lat="51.5906925" lon="7.1874994">
    <tag k="amenity" v="emergency_phone"/>
    <tag k="emergency" v="phone"/>
    <tag k="operator" v="Autobahnmeisterei"/>
  </node>
  <node id="412463994" version="2" timestamp="2010-07-29T09:02:05Z" uid="74617" user="JohnSmith" changeset="5344848" lat="51.5906763" lon="7.1870061">
    <tag k="amenity" v="emergency_phone"/>
    <tag k="emergency" v="phone"/>
    <tag k="operator" v="Autobahnmeisterei"/>
  </node>
  <node id="412463997" version="2" timestamp="2010-07-29T09:07:38Z" uid="74617" user="JohnSmith" changeset="5344848" lat="51.6157077" lon="7.1694013">
    <tag k="amenity" v="emergency_phone"/>
    <tag k="emergency" v="phone"/>
    <tag k="operator" v="Autobahnmeisterei"/>
  </node>
  <node id="412464001" version="2" timestamp="2010-07-29T09:25:54Z" uid="74617" user="JohnSmith" changeset="5344848" lat="51.6158004" lon="7.1698361">
    <tag k="amenity" v="emergency_phone"/>
    <tag k="emergency" v="phone"/>
    <tag k="operator" v="Autobahnmeisterei"/>
  </node>
  <node id="412464002" version="2" timestamp="2010-07-29T09:03:55Z" uid="74617" user="JohnSmith" changeset="5344848" lat="51.6268443" lon="7.1662562">
    <tag k="amenity" v="emergency_phone"/>
    <tag k="emergency" v="phone"/>
    <tag k="operator" v="Autobahnmeisterei"/>
  </node>
  <node id="412464003" version="3" timestamp="2010-07-29T09:13:37Z" uid="74617" user="JohnSmith" changeset="5344848" lat="51.6268323" lon="7.1667373">
    <tag k="amenity" v="emergency_phone"/>
    <tag k="emergency" v="phone"/>
    <tag k="operator" v="Autobahnmeisterei"/>
  </node>
  <node id="412466393" version="3" timestamp="2010-07-28T20:07:44Z" uid="74617" user="JohnSmith" changeset="5339329" lat="49.7047176" lon="8.7868791">
    <tag k="emergency" v="fire_hydrant"/>
    <tag k="fire_hydrant" v="up"/>
  </node>
  <node id="412466393" version="4" timestamp="2010-07-30T17:38:57Z" uid="74617" user="JohnSmith" changeset="5356742" lat="49.7047176" lon="8.7868791">
    <tag k="amenity" v="fire_hydrant"/>
    <tag k="emergency" v="fire_hydrant"/>
    <tag k="fire_hydrant" v="up"/>
  </node>
  <node id="412466393" version="5" timestamp="2010-10-11T18:25:05Z" uid="26348" user="Rodolphe Quiédeville" changeset="6014374" lat="49.7047176" lon="8.7868791">
    <tag k="emergency" v="fire_hydrant"/>
    <tag k="fire_hydrant" v="up"/>
  </node>
  <node id="412466393" version="6" timestamp="2010-10-19T09:05:30Z" uid="26348" user="Rodolphe Quiédeville" changeset="6094812" lat="49.7047176" lon="8.7868791">
    <tag k="amenity" v="fire_hydrant"/>
    <tag k="emergency" v="fire_hydrant"/>
    <tag k="fire_hydrant" v="up"/>
  </node>
  <node id="412466393" version="7" timestamp="2011-01-21T13:12:39Z" uid="124837" user="swus" changeset="7040166" lat="49.7047176" lon="8.7868791">
    <tag k="amenity" v="fire_hydrant"/>
    <tag k="emergency" v="fire_hydrant"/>
    <tag k="fire_hydrant:type" v="pillar"/>
  </node>
  <node id="412466393" version="8" timestamp="2011-01-22T01:22:50Z" uid="124837" user="swus" changeset="7046468" lat="49.7047176" lon="8.7868791">
    <tag k="amenity" v="fire_hydrant"/>
    <tag k="emergency" v="fire_hydrant"/>
    <tag k="fire_hydrant" v="up"/>
  </node>
  <node id="412466393" version="9" timestamp="2012-03-27T18:25:37Z" uid="67540" user="Cobra" changeset="11118954" lat="49.7047176" lon="8.7868791">
    <tag k="amenity" v="fire_hydrant"/>
    <tag k="emergency" v="fire_hydrant"/>
    <tag k="fire_hydrant" v="up"/>
    <tag k="odbl" v="clean"/>
  </node>
  <node id="412467762" version="2" timestamp="2010-07-29T09:29:46Z" uid="74617" user="JohnSmith" changeset="5344848" lat="51.6376436" lon="7.1701875">
    <tag k="amenity" v="emergency_phone"/>
    <tag k="emergency" v="phone"/>
    <tag k="operator" v="Autobahnmeisterei"/>
  </node>
  <node id="412467763" version="2" timestamp="2010-07-29T09:37:56Z" uid="74617" user="JohnSmith" changeset="5344848" lat="51.6397834" lon="7.1706988">
    <tag k="amenity" v="emergency_phone"/>
    <tag k="emergency" v="phone"/>
    <tag k="operator" v="Autobahnmeisterei"/>
  </node>
  <node id="412467764" version="2" timestamp="2010-07-29T09:27:01Z" uid="74617" user="JohnSmith" changeset="5344848" lat="51.6457692" lon="7.172343">
    <tag k="amenity" v="emergency_phone"/>
    <tag k="emergency" v="phone"/>
    <tag k="operator" v="Autobahnmeisterei"/>
  </node>
  <node id="412467765" version="2" timestamp="2010-07-29T09:33:19Z" uid="74617" user="JohnSmith" changeset="5344848" lat="51.6457732" lon="7.1718562">
    <tag k="amenity" v="emergency_phone"/>
    <tag k="emergency" v="phone"/>
    <tag k="operator" v="Autobahnmeisterei"/>
  </node>
  <node id="412467766" version="2" timestamp="2010-07-29T09:14:51Z" uid="74617" user="JohnSmith" changeset="5344848" lat="51.6591925" lon="7.1612349">
    <tag k="amenity" v="emergency_phone"/>
    <tag k="emergency" v="phone"/>
    <tag k="operator" v="Autobahnmeisterei"/>
  </node>
  <node id="412467767" version="2" timestamp="2010-07-29T09:20:45Z" uid="74617" user="JohnSmith" changeset="5344848" lat="51.6594819" lon="7.1617521">
    <tag k="amenity" v="emergency_phone"/>
    <tag k="emergency" v="phone"/>
    <tag k="operator" v="Autobahnmeisterei"/>
  </node>
  <node id="412467768" version="2" timestamp="2010-07-29T09:11:26Z" uid="74617" user="JohnSmith" changeset="5344848" lat="51.6702958" lon="7.1566214">
    <tag k="amenity" v="emergency_phone"/>
    <tag k="emergency" v="phone"/>
    <tag k="operator" v="Autobahnmeisterei"/>
  </node>
  <node id="412467769" version="3" timestamp="2010-07-29T09:17:24Z" uid="74617" user="JohnSmith" changeset="5344848" lat="51.6702824" lon="7.1570829">
    <tag k="amenity" v="emergency_phone"/>
    <tag k="emergency" v="phone"/>
    <tag k="operator" v="Autobahnmeisterei"/>
  </node>
  <node id="412467770" version="2" timestamp="2010-07-29T09:40:51Z" uid="74617" user="JohnSmith" changeset="5344848" lat="51.6823525" lon="7.1556783">
    <tag k="amenity" v="emergency_phone"/>
    <tag k="emergency" v="phone"/>
    <tag k="operator" v="Autobahnmeisterei"/>
  </node>
  <node id="412467771" version="2" timestamp="2010-07-29T09:01:14Z" uid="74617" user="JohnSmith" changeset="5344848" lat="51.6851089" lon="7.1534843">
    <tag k="amenity" v="emergency_phone"/>
    <tag k="emergency" v="phone"/>
    <tag k="operator" v="Autobahnmeisterei"/>
  </node>
  <node id="412467772" version="3" timestamp="2010-07-29T09:37:31Z" uid="74617" user="JohnSmith" changeset="5344848" lat="51.6980669" lon="7.1475782">
    <tag k="amenity" v="emergency_phone"/>
    <tag k="emergency" v="phone"/>
    <tag k="operator" v="Autobahnmeisterei"/>
  </node>
  <node id="412467773" version="2" timestamp="2010-07-29T08:58:04Z" uid="74617" user="JohnSmith" changeset="5344848" lat="51.6991018" lon="7.1468924">
    <tag k="amenity" v="emergency_phone"/>
    <tag k="emergency" v="phone"/>
    <tag k="operator" v="Autobahnmeisterei"/>
  </node>
  <node id="412463983" version="4" timestamp="2012-07-18T21:03:07Z" uid="722137" user="OSMF Redaction Account" changeset="12298395" lat="51.5982098" lon="7.1853634">
    <tag k="amenity" v="emergency_phone"/>
    <tag k="operator" v="Autobahnmeisterei"/>
  </node>
  <node id="412463986" version="3" timestamp="2012-07-18T21:03:07Z" uid="722137" user="OSMF Redaction Account" changeset="12298395" lat="51.598296" lon="7.1857551">
    <tag k="amenity" v="emergency_phone"/>
    <tag k="operator" v="Autobahnmeisterei"/>
  </node>
  <node id="412463990" version="3" timestamp="2012-07-18T21:03:07Z" uid="722137" user="OSMF Redaction Account" changeset="12298395" lat="51.5906925" lon="7.1874994">
    <tag k="amenity" v="emergency_phone"/>
    <tag k="operator" v="Autobahnmeisterei"/>
  </node>
  <node id="412463994" version="3" timestamp="2012-07-18T21:03:07Z" uid="722137" user="OSMF Redaction Account" changeset="12298395" lat="51.5906763" lon="7.1870061">
    <tag k="amenity" v="emergency_phone"/>
    <tag k="operator" v="Autobahnmeisterei"/>
  </node>
  <node id="412463997" version="3" timestamp="2012-07-18T21:03:07Z" uid="722137" user="OSMF Redaction Account" changeset="12298395" lat="51.6157077" lon="7.1694013">
    <tag k="amenity" v="emergency_phone"/>
    <tag k="operator" v="Autobahnmeisterei"/>
  </node>
  <node id="412464001" version="3" timestamp="2012-07-18T21:03:08Z" uid="722137" user="OSMF Redaction Account" changeset="12298395" lat="51.6158004" lon="7.1698361">
    <tag k="amenity" v="emergency_phone"/>
    <tag k="operator" v="Autobahnmeisterei"/>
  </node>
  <node id="412464002" version="3" timestamp="2012-07-18T20:53:51Z" uid="722137" user="OSMF Redaction Account" changeset="12298066" lat="51.6268443" lon="7.1662562">
    <tag k="amenity" v="emergency_phone"/>
    <tag k="operator" v="Autobahnmeisterei"/>
  </node>
  <node id="412464003" version="4" timestamp="2012-07-18T20:53:51Z" uid="722137" user="OSMF Redaction Account" changeset="12298066" lat="51.6268323" lon="7.1667373">
    <tag k="amenity" v="emergency_phone"/>
    <tag k="operator" v="Autobahnmeisterei"/>
  </node>
  <node id="412467762" version="3" timestamp="2012-07-18T20:53:51Z" uid="722137" user="OSMF Redaction Account" changeset="12298066" lat="51.6376436" lon="7.1701875">
    <tag k="amenity" v="emergency_phone"/>
    <tag k="operator" v="Autobahnmeisterei"/>
  </node>
  <node id="412467763" version="3" timestamp="2012-07-18T20:53:51Z" uid="722137" user="OSMF Redaction Account" changeset="12298066" lat="51.6397834" lon="7.1706988">
    <tag k="amenity" v="emergency_phone"/>
    <tag k="operator" v="Autobahnmeisterei"/>
  </node>
  <node id="412467764" version="3" timestamp="2012-07-18T20:53:51Z" uid="722137" user="OSMF Redaction Account" changeset="12298066" lat="51.6457692" lon="7.172343">
    <tag k="amenity" v="emergency_phone"/>
    <tag k="operator" v="Autobahnmeisterei"/>
  </node>
  <node id="412467765" version="3" timestamp="2012-07-18T20:53:51Z" uid="722137" user="OSMF Redaction Account" changeset="12298066" lat="51.6457732" lon="7.1718562">
    <tag k="amenity" v="emergency_phone"/>
    <tag k="operator" v="Autobahnmeisterei"/>
  </node>
  <node id="412467766" version="3" timestamp="2012-07-18T20:53:52Z" uid="722137" user="OSMF Redaction Account" changeset="12298066" lat="51.6591925" lon="7.1612349">
    <tag k="amenity" v="emergency_phone"/>
    <tag k="operator" v="Autobahnmeisterei"/>
  </node>
  <node id="412467767" version="3" timestamp="2012-07-18T20:53:52Z" uid="722137" user="OSMF Redaction Account" changeset="12298066" lat="51.6594819" lon="7.1617521">
    <tag k="amenity" v="emergency_phone"/>
    <tag k="operator" v="Autobahnmeisterei"/>
  </node>
  <node id="412467768" version="3" timestamp="2012-07-18T20:53:52Z" uid="722137" user="OSMF Redaction Account" changeset="12298066" lat="51.6702958" lon="7.1566214">
    <tag k="amenity" v="emergency_phone"/>
    <tag k="operator" v="Autobahnmeisterei"/>
  </node>
  <node id="412467769" version="4" timestamp="2012-07-18T20:53:52Z" uid="722137" user="OSMF Redaction Account" changeset="12298066" lat="51.6702824" lon="7.1570829">
    <tag k="amenity" v="emergency_phone"/>
    <tag k="operator" v="Autobahnmeisterei"/>
  </node>
  <node id="412467770" version="3" timestamp="2012-07-18T20:53:53Z" uid="722137" user="OSMF Redaction Account" changeset="12298066" lat="51.6823525" lon="7.1556783">
    <tag k="amenity" v="emergency_phone"/>
    <tag k="operator" v="Autobahnmeisterei"/>
  </node>
  <node id="412467771" version="3" timestamp="2012-07-18T20:53:53Z" uid="722137" user="OSMF Redaction Account" changeset="12298066" lat="51.6851089" lon="7.1534843">
    <tag k="amenity" v="emergency_phone"/>
    <tag k="operator" v="Autobahnmeisterei"/>
  </node>
  <node id="412467772" version="4" timestamp="2012-07-18T20:53:53Z" uid="722137" user="OSMF Redaction Account" changeset="12298066" lat="51.6980669" lon="7.1475782">
    <tag k="amenity" v="emergency_phone"/>
    <tag k="operator" v="Autobahnmeisterei"/>
  </node>
  <node id="412467773" version="3" timestamp="2012-07-18T20:53:53Z" uid="722137" user="OSMF Redaction Account" changeset="12298066" lat="51.6991018" lon="7.1468924">
    <tag k="amenity" v="emergency_phone"/>
    <tag k="operator" v="Autobahnmeisterei"/>
  </node>
</osm>
