<?xml version='1.0' encoding='UTF-8'?>
<osm version="0.6" generator="libosmium/2.20.0">
  <node id="412486943" version="2" timestamp="2009-06-01T12:48:02Z" uid="119145" user="asheiner" changeset="1379315" lat="49.4665895" lon="11.3125267"/>
  <node id="412488441" version="5" timestamp="2009-11-13T16:54:30Z" uid="171838" user="argrath" changeset="3107441" lat="34.6811653" lon="135.4889468">
    <tag k="highway" v="traffic_signals"/>
    <tag k="name" v="阿波座駅前東交差点"/>
  </node>
  <node id="412488441" version="6" timestamp="2011-08-16T13:33:02Z" uid="151227" user="MaryHiroshige" changeset="9037029" lat="34.6811653" lon="135.489007">
    <tag k="highway" v="traffic_signals"/>
    <tag k="name" v="阿波座駅前東"/>
  </node>
  <node id="412488441" version="7" timestamp="2011-08-17T15:25:04Z" uid="151227" user="MaryHiroshige" changeset="9048966" lat="34.6811653" lon="135.4890208">
    <tag k="highway" v="traffic_signals"/>
    <tag k="name" v="阿波座駅前東"/>
  </node>
  <node id="412488441" version="8" timestamp="2011-09-01T11:59:30Z" uid="151227" user="MaryHiroshige" changeset="9183958" lat="34.6811653" lon="135.4890208">
    <tag k="highway" v="traffic_signals"/>
    <tag k="name" v="阿波座駅東 (Awaza Station East)"/>
  </node>
  <node id="412488441" version="9" timestamp="2012-01-27T15:18:00Z" uid="151227" user="MaryHiroshige" changeset="10513213" lat="34.6811653" lon="135.4890208">
    <tag k="highway" v="traffic_signals"/>
    <tag k="name" v="阿波座駅東 (Awaza Station East)"/>
    <tag k="source" v="Bing,2008-03; Survey"/>
  </node>
  <node id="412488441" version="10" timestamp="2012-02-20T15:05:13Z" uid="151227" user="MaryHiroshige" changeset="10741392" lat="34.6811653" lon="135.4890208">
    <tag k="highway" v="traffic_signals"/>
    <tag k="name" v="阿波座駅東 (Awaza Station East)"/>
    <tag k="source" v="Bing,2008-03; survey"/>
  </node>
  <node id="412488449" version="7" timestamp="2009-11-13T16:54:32Z" uid="171838" user="argrath" changeset="3107441" lat="34.6824555" lon="135.4889648">
    <tag k="highway" v="traffic_signals"/>
    <tag k="name" v="岡崎橋交差点 (Okazakibashi)"/>
  </node>
  <node id="412488449" version="8" timestamp="2009-11-13T17:23:01Z" uid="171838" user="argrath" changeset="3107597" lat="34.6824481" lon="135.4889648">
    <tag k="highway" v="traffic_signals"/>
    <tag k="name" v="岡崎橋交差点 (Okazakibashi)"/>
  </node>
  <node id="412488449" version="9" timestamp="2011-08-16T13:33:00Z" uid="151227" user="MaryHiroshige" changeset="9037029" lat="34.682441" lon="135.4890121">
    <tag k="highway" v="traffic_signals"/>
    <tag k="name" v="岡崎橋 (Okazakibashi)"/>
  </node>
  <node id="412488449" version="10" timestamp="2012-01-27T15:17:51Z" uid="151227" user="MaryHiroshige" changeset="10513213" lat="34.682441" lon="135.4890121">
    <tag k="highway" v="traffic_signals"/>
    <tag k="name" v="岡崎橋 (Okazakibashi)"/>
    <tag k="source" v="Bing,2008-03; Survey"/>
  </node>
  <node id="412488449" version="11" timestamp="2012-02-18T16:13:17Z" uid="151227" user="MaryHiroshige" changeset="10721692" lat="34.682441" lon="135.4890121">
    <tag k="highway" v="traffic_signals"/>
    <tag k="name" v="岡崎橋 (Okazakibashi)"/>
    <tag k="source" v="Bing,2008-03; survey"/>
  </node>
  <node id="412488452" version="5" timestamp="2009-11-13T17:22:46Z" uid="171838" user="argrath" changeset="3107597" lat="34.6845763" lon="135.4893149"/>
  <node id="412488452" version="6" timestamp="2011-08-16T13:33:03Z" uid="151227" user="MaryHiroshige" changeset="9037029" lat="34.684571" lon="135.489388"/>
  <node id="412488452" version="7" timestamp="2011-09-02T12:20:06Z" uid="151227" user="MaryHiroshige" changeset="9192691" lat="34.684571" lon="135.489388">
    <tag k="highway" v="traffic_signals"/>
    <tag k="name" v="京町堀2 (Kyomachibori2)"/>
  </node>
  <node id="412488452" version="8" timestamp="2012-01-27T15:17:46Z" uid="151227" user="MaryHiroshige" changeset="10513213" lat="34.684571" lon="135.489388">
    <tag k="highway" v="traffic_signals"/>
    <tag k="name" v="京町堀2 (Kyomachibori2)"/>
    <tag k="source" v="Bing,2008-03; Survey"/>
  </node>
  <node id="412488452" version="9" timestamp="2012-02-04T02:17:55Z" uid="151227" user="MaryHiroshige" changeset="10580878" lat="34.6845708" lon="135.4893887">
    <tag k="highway" v="traffic_signals"/>
    <tag k="name" v="京町堀2 (Kyomachibori2)"/>
    <tag k="source" v="Bing,2008-03; Survey"/>
  </node>
  <node id="412488452" version="10" timestamp="2012-02-20T15:05:02Z" uid="151227" user="MaryHiroshige" changeset="10741392" lat="34.6845708" lon="135.4893887">
    <tag k="highway" v="traffic_signals"/>
    <tag k="name" v="京町堀2 (Kyomachibori2)"/>
    <tag k="source" v="Bing,2008-03; survey"/>
  </node>
  <node id="412488453" version="5" timestamp="2009-11-13T16:54:31Z" uid="171838" user="argrath" changeset="3107441" lat="34.6817066" lon="135.4889827">
    <tag k="highway" v="traffic_signals"/>
    <tag k="name" v="阿波座駅前東交差点"/>
  </node>
  <node id="412488453" version="6" timestamp="2011-08-16T13:33:02Z" uid="151227" user="MaryHiroshige" changeset="9037029" lat="34.6815988" lon="135.4889891">
    <tag k="highway" v="traffic_signals"/>
    <tag k="name" v="阿波座駅前東"/>
  </node>
  <node id="412488453" version="7" timestamp="2011-08-27T13:20:12Z" uid="151227" user="MaryHiroshige" changeset="9137789" lat="34.681575" lon="135.488989">
    <tag k="highway" v="traffic_signals"/>
    <tag k="name" v="阿波座駅前東"/>
  </node>
  <node id="412488453" version="8" timestamp="2011-09-01T11:59:30Z" uid="151227" user="MaryHiroshige" changeset="9183958" lat="34.681575" lon="135.488989">
    <tag k="highway" v="traffic_signals"/>
    <tag k="name" v="阿波座駅東 (Awaza Station East)"/>
  </node>
  <node id="412488453" version="9" timestamp="2012-01-27T15:18:00Z" uid="151227" user="MaryHiroshige" changeset="10513213" lat="34.681575" lon="135.488989">
    <tag k="highway" v="traffic_signals"/>
    <tag k="name" v="阿波座駅東 (Awaza Station East)"/>
    <tag k="source" v="Bing,2008-03; Survey"/>
  </node>
  <node id="412488453" version="10" timestamp="2012-02-20T15:05:14Z" uid="151227" user="MaryHiroshige" changeset="10741392" lat="34.681575" lon="135.488989">
    <tag k="highway" v="traffic_signals"/>
    <tag k="name" v="阿波座駅東 (Awaza Station East)"/>
    <tag k="source" v="Bing,2008-03; survey"/>
  </node>
  <node id="412488454" version="4" timestamp="2009-11-13T17:23:42Z" uid="171838" user="argrath" changeset="3107597" lat="34.6832415" lon="135.4859576">
    <tag k="crossing" v="traffic_signals"/>
    <tag k="highway" v="traffic_signals"/>
  </node>
  <node id="412488454" version="5" timestamp="2011-08-15T04:50:43Z" uid="151227" user="MaryHiroshige" changeset="9023289" lat="34.6832235" lon="135.4859674">
    <tag k="crossing" v="traffic_signals"/>
    <tag k="highway" v="traffic_signals"/>
  </node>
  <node id="412488454" version="6" timestamp="2012-01-27T15:18:17Z" uid="151227" user="MaryHiroshige" changeset="10513213" lat="34.6832235" lon="135.4859674">
    <tag k="crossing" v="traffic_signals"/>
    <tag k="highway" v="traffic_signals"/>
    <tag k="source" v="Bing,2008-03; Survey"/>
  </node>
  <node id="412488454" version="7" timestamp="2012-02-20T15:05:28Z" uid="151227" user="MaryHiroshige" changeset="10741392" lat="34.6832235" lon="135.4859674">
    <tag k="crossing" v="traffic_signals"/>
    <tag k="highway" v="traffic_signals"/>
    <tag k="source" v="Bing,2008-03; survey"/>
  </node>
  <node id="412489539" version="3" timestamp="2010-01-19T13:57:17Z" uid="171838" user="argrath" changeset="3659014" lat="34.6631004" lon="135.5059421">
    <tag k="highway" v="traffic_signals"/>
    <tag k="name" v="日本橋3丁目交差点 (Nippombashi 3)"/>
  </node>
  <node id="412489539" version="4" timestamp="2010-04-02T11:06:04Z" uid="112530" user="Caballista" changeset="4302283" lat="34.6631009" lon="135.505918">
    <tag k="highway" v="traffic_signals"/>
    <tag k="name" v="日本橋3丁目交差点 (Nippombashi 3)"/>
  </node>
  <node id="412489540" version="3" timestamp="2009-11-12T19:20:28Z" uid="171838" user="argrath" changeset="3100797" lat="34.6630427" lon="135.5010743">
    <tag k="highway" v="traffic_signals"/>
    <tag k="name" v="難波中交差点 (Namba Naka)"/>
  </node>
  <node id="412489540" version="4" timestamp="2010-12-03T06:30:36Z" uid="171838" user="argrath" changeset="6522662" lat="34.6629971" lon="135.5010712">
    <tag k="highway" v="traffic_signals"/>
    <tag k="name" v="難波中交差点 (Namba Naka)"/>
  </node>
  <node id="412489543" version="4" timestamp="2009-11-08T15:48:35Z" uid="171838" user="argrath" changeset="3064968" lat="34.6631641" lon="135.5030352">
    <tag k="highway" v="traffic_signals"/>
    <tag k="name" v="難波中2丁目交差点 (Namba Naka 2)"/>
  </node>
  <node id="412489543" version="5" timestamp="2009-12-15T05:15:41Z" uid="127167" user="ignis" changeset="3376983" lat="34.6631085" lon="135.5029782">
    <tag k="highway" v="traffic_signals"/>
    <tag k="name" v="難波中2丁目交差点 (Namba Naka 2)"/>
  </node>
  <node id="412489543" version="6" timestamp="2010-12-03T06:30:36Z" uid="171838" user="argrath" changeset="6522662" lat="34.6631667" lon="135.5029967">
    <tag k="highway" v="traffic_signals"/>
    <tag k="name" v="難波中2丁目交差点 (Namba Naka 2)"/>
  </node>
  <node id="412488441" version="11" timestamp="2012-07-26T03:23:45Z" uid="651065" user="futurumspes" changeset="12494149" lat="34.6811541" lon="135.4889469">
    <tag k="highway" v="traffic_signals"/>
    <tag k="name" v="阿波座駅東 (Awaza Station East)"/>
    <tag k="source" v="Bing,2008-03; survey"/>
  </node>
  <node id="412488449" version="12" timestamp="2012-07-26T03:23:45Z" uid="651065" user="futurumspes" changeset="12494149" lat="34.6824376" lon="135.4889583">
    <tag k="highway" v="traffic_signals"/>
    <tag k="name" v="岡崎橋 (Okazakibashi)"/>
    <tag k="source" v="Bing,2008-03; survey"/>
  </node>
  <node id="412488452" version="11" timestamp="2012-07-26T03:43:36Z" uid="651065" user="futurumspes" changeset="12494149" lat="34.684547" lon="135.4893387">
    <tag k="highway" v="traffic_signals"/>
    <tag k="name" v="京町堀2 (Kyomachibori2)"/>
    <tag k="source" v="Bing,2008-03; survey"/>
  </node>
  <node id="412488453" version="11" timestamp="2012-07-26T03:23:48Z" uid="651065" user="futurumspes" changeset="12494149" lat="34.681575" lon="135.488989"/>
  <node id="412489539" version="5" timestamp="2012-07-18T01:56:34Z" uid="651065" user="gaiazu" changeset="12274086" lat="34.6630329" lon="135.5059851">
    <tag k="highway" v="traffic_signals"/>
    <tag k="name" v="日本橋3丁目交差点 (Nippombashi 3)"/>
  </node>
  <node id="412489539" version="6" timestamp="2012-07-25T06:11:50Z" uid="651065" user="futurumspes" changeset="12481564" lat="34.6630369" lon="135.5059833">
    <tag k="highway" v="traffic_signals"/>
    <tag k="name" v="日本橋3丁目交差点 (Nippombashi 3)"/>
  </node>
  <node id="412489539" version="7" timestamp="2012-08-08T00:19:00Z" uid="651065" user="futurumspes" changeset="12652225" lat="34.6630369" lon="135.5059833">
    <tag k="highway" v="traffic_signals"/>
    <tag k="name" v="日本橋3丁目交差点 (Nippombashi 3)"/>
    <tag k="name:en" v="Nippombashi 3"/>
    <tag k="name:ja" v="日本橋3丁目交差点"/>
    <tag k="source" v="Bing 2010"/>
  </node>
  <node id="412489540" version="5" timestamp="2012-07-21T05:37:00Z" uid="722137" user="OSMF Redaction Account" changeset="12400822" lat="34.6628042" lon="135.5012813">
    <tag k="highway" v="traffic_signals"/>
    <tag k="name" v="難波中交差点 (Namba Naka)"/>
  </node>
  <node id="412489540" version="6" timestamp="2012-07-24T19:49:56Z" uid="651065" user="futurumspes" changeset="12474598" lat="34.6630072" lon="135.5010601">
    <tag k="highway" v="traffic_signals"/>
    <tag k="name" v="難波中交差点 (Namba Naka)"/>
  </node>
  <node id="412489543" version="7" timestamp="2012-07-21T05:37:00Z" uid="722137" user="OSMF Redaction Account" changeset="12400822" lat="34.6631085" lon="135.5029782">
    <tag k="highway" v="traffic_signals"/>
    <tag k="name" v="難波中2丁目交差点 (Namba Naka 2)"/>
  </node>
  <node id="412489543" version="8" timestamp="2012-07-21T08:54:11Z" uid="651065" user="gaiazu" changeset="12404128" lat="34.663216" lon="135.5030121">
    <tag k="highway" v="traffic_signals"/>
    <tag k="name" v="難波中2丁目交差点 (Namba Naka 2)"/>
  </node>
  <node id="412489543" version="9" timestamp="2012-08-07T22:13:45Z" uid="651065" user="futurumspes" changeset="12651546" lat="34.6631958" lon="135.5030093">
    <tag k="highway" v="traffic_signals"/>
    <tag k="name" v="難波中2丁目交差点 (Namba Naka 2)"/>
  </node>
</osm>
