<?xml version='1.0' encoding='UTF-8'?>
<osm version="0.6" generator="libosmium/2.20.0">
  <node id="413143109" version="1" timestamp="2009-05-30T20:06:06Z" uid="6975" user="ulfl" changeset="1363144" lat="52.2693363" lon="8.0843773"/>
  <node id="413146745" version="2" timestamp="2009-08-08T15:03:47Z" uid="20587" user="balrog-kun" changeset="2076575" lat="52.1902696" lon="21.0244931">
    <tag k="name" v="Królikarnia 04"/>
    <tag k="railway" v="tram_stop"/>
  </node>
  <node id="413146745" version="3" timestamp="2010-01-12T13:53:11Z" uid="20587" user="balrog-kun" changeset="3603234" lat="52.1902696" lon="21.0244931">
    <tag k="name" v="Królikarnia 04"/>
    <tag k="railway" v="tram_stop"/>
    <tag k="tactile_paving" v="yes"/>
    <tag k="tactile_paving:slab_size" v="40x40"/>
    <tag k="ztm:ciąg_ulicy" v="Puławska"/>
  </node>
  <node id="413146745" version="4" timestamp="2011-06-13T13:10:01Z" uid="52087" user="kocio" changeset="8425433" lat="52.1902811" lon="21.0244931">
    <tag k="name" v="Królikarnia 04"/>
    <tag k="railway" v="tram_stop"/>
    <tag k="tactile_paving" v="yes"/>
    <tag k="tactile_paving:slab_size" v="40x40"/>
    <tag k="ztm:ciąg_ulicy" v="Puławska"/>
  </node>
  <node id="413146745" version="5" timestamp="2011-07-09T06:54:49Z" uid="477744" user="hormel" changeset="8671642" lat="52.1904945" lon="21.0245132">
    <tag k="name" v="Królikarnia 04"/>
    <tag k="railway" v="tram_stop"/>
    <tag k="tactile_paving" v="yes"/>
    <tag k="tactile_paving:slab_size" v="40x40"/>
    <tag k="ztm:ciąg_ulicy" v="Puławska"/>
  </node>
  <node id="413146769" version="2" timestamp="2009-08-08T15:03:47Z" uid="20587" user="balrog-kun" changeset="2076575" lat="52.1897309" lon="21.0239108">
    <tag k="name" v="Królikarnia 06"/>
    <tag k="railway" v="tram_stop"/>
  </node>
  <node id="413146769" version="3" timestamp="2010-01-12T13:53:11Z" uid="20587" user="balrog-kun" changeset="3603234" lat="52.1897309" lon="21.0239108">
    <tag k="name" v="Królikarnia 06"/>
    <tag k="railway" v="tram_stop"/>
    <tag k="tactile_paving" v="yes"/>
    <tag k="tactile_paving:slab_size" v="40x40"/>
    <tag k="ztm:ciąg_ulicy" v="Woronicza"/>
  </node>
  <node id="413146769" version="4" timestamp="2011-07-09T08:00:10Z" uid="477744" user="hormel" changeset="8672105" lat="52.1897932" lon="21.0231234">
    <tag k="name" v="Królikarnia 06"/>
    <tag k="railway" v="tram_stop"/>
    <tag k="tactile_paving" v="yes"/>
    <tag k="tactile_paving:slab_size" v="40x40"/>
    <tag k="ztm:ciąg_ulicy" v="Woronicza"/>
  </node>
  <node id="413147199" version="2" timestamp="2009-06-16T14:37:43Z" uid="20587" user="balrog-kun" changeset="1535709" lat="52.386366" lon="17.1508295">
    <tag k="is_in" v="gmina Kostrzyn, powiat poznański, województwo wielkopolskie, Poland"/>
    <tag k="is_in:county" v="powiat poznański"/>
    <tag k="is_in:municipality" v="gmina Kostrzyn"/>
    <tag k="is_in:province" v="województwo wielkopolskie"/>
    <tag k="name" v="Siekierki Małe"/>
    <tag k="place" v="village"/>
    <tag k="wikipedia" v="pl:Siekierki Małe"/>
  </node>
  <node id="413147199" version="3" timestamp="2010-04-11T04:47:09Z" uid="20587" user="balrog-kun" changeset="4389130" lat="52.3859712" lon="17.1501187">
    <tag k="is_in" v="gmina Kostrzyn, powiat poznański, województwo wielkopolskie, Poland"/>
    <tag k="is_in:county" v="powiat poznański"/>
    <tag k="is_in:municipality" v="gmina Kostrzyn"/>
    <tag k="is_in:province" v="województwo wielkopolskie"/>
    <tag k="name" v="Siekierki Małe"/>
    <tag k="place" v="village"/>
    <tag k="wikipedia" v="pl:Siekierki Małe"/>
  </node>
  <node id="413147199" version="4" timestamp="2010-04-27T04:02:53Z" uid="30632" user="antblant" changeset="4537862" lat="52.3859712" lon="17.1501187">
    <tag k="is_in" v="gmina Kostrzyn, powiat poznański, województwo wielkopolskie, Poland"/>
    <tag k="is_in:county" v="powiat poznański"/>
    <tag k="is_in:municipality" v="gmina Kostrzyn"/>
    <tag k="is_in:province" v="województwo wielkopolskie"/>
    <tag k="name" v="Siekierki Małe"/>
    <tag k="place" v="village"/>
    <tag k="teryt:simc" v="0586224"/>
    <tag k="wikipedia" v="pl:Siekierki Małe"/>
  </node>
  <node id="413143109" version="2" timestamp="2012-07-17T08:33:10Z" uid="722137" user="OSMF Redaction Account" changeset="12260492" lat="52.2693363" lon="8.0843773"/>
  <node id="413146745" version="6" timestamp="2012-07-24T20:06:22Z" uid="722137" user="OSMF Redaction Account" changeset="12475329" lat="52.1904945" lon="21.0245132">
    <tag k="tactile_paving" v="yes"/>
    <tag k="tactile_paving:slab_size" v="40x40"/>
    <tag k="ztm:ciąg_ulicy" v="Puławska"/>
  </node>
  <node id="413146769" version="5" timestamp="2012-07-24T20:06:21Z" uid="722137" user="OSMF Redaction Account" changeset="12475329" lat="52.1897932" lon="21.0231234">
    <tag k="tactile_paving" v="yes"/>
    <tag k="tactile_paving:slab_size" v="40x40"/>
    <tag k="ztm:ciąg_ulicy" v="Woronicza"/>
  </node>
</osm>
