<?xml version='1.0' encoding='UTF-8'?>
<osm version="0.6" generator="libosmium/2.20.0">
  <node id="413450541" version="1" timestamp="2009-05-31T12:14:35Z" uid="123700" user="Mala" changeset="1368286" lat="52.4064086" lon="16.9341173">
    <tag k="amenity" v="place_of_worship"/>
    <tag k="denomination" v="catholic"/>
    <tag k="loc_name" v="Kolegiata Matki Boskiej Nieustającej Pomocy i świętej Marii Magdaleny"/>
    <tag k="name" v="Fara"/>
    <tag k="religion" v="christian"/>
  </node>
  <node id="413450541" version="2" timestamp="2009-06-28T14:27:37Z" uid="20587" user="balrog-kun" changeset="1663473" lat="52.4063131" lon="16.9341058">
    <tag k="amenity" v="place_of_worship"/>
    <tag k="denomination" v="catholic"/>
    <tag k="loc_name" v="Kolegiata Matki Boskiej Nieustającej Pomocy i świętej Marii Magdaleny"/>
    <tag k="name" v="Fara"/>
    <tag k="religion" v="christian"/>
  </node>
  <node id="413450541" version="3" timestamp="2011-06-17T11:03:08Z" uid="91056" user="Yarl" changeset="8463602" lat="52.4063131" lon="16.9341058"/>
  <node id="413451737" version="2" timestamp="2010-06-13T09:49:03Z" uid="30201" user="rrankin" changeset="4976942" lat="-32.8968473" lon="151.6812875"/>
  <node id="413451748" version="2" timestamp="2010-06-13T09:49:12Z" uid="30201" user="rrankin" changeset="4976942" lat="-32.8966627" lon="151.6817004"/>
  <node id="413451782" version="2" timestamp="2009-08-04T12:22:08Z" uid="4467" user="Rosscoe" changeset="2035201" lat="-32.8981372" lon="151.6814867">
    <tag k="highway" v="bus_stop"/>
  </node>
  <node id="413452002" version="2" timestamp="2009-06-16T14:28:29Z" uid="20587" user="balrog-kun" changeset="1535626" lat="50.3660799" lon="16.7086741">
    <tag k="addr:postcode" v="57-360"/>
    <tag k="is_in" v="gmina Kłodzko, powiat kłodzki, województwo dolnośląskie, Poland"/>
    <tag k="is_in:county" v="powiat kłodzki"/>
    <tag k="is_in:municipality" v="gmina Kłodzko"/>
    <tag k="is_in:province" v="województwo dolnośląskie"/>
    <tag k="name" v="Ołdrzychowice Kłodzkie"/>
    <tag k="place" v="village"/>
    <tag k="population" v="2500"/>
    <tag k="source:population" v="wikipedia"/>
    <tag k="wikipedia" v="Ołdrzychowice Kłodzkie"/>
  </node>
  <node id="413452002" version="3" timestamp="2010-04-11T04:47:13Z" uid="20587" user="balrog-kun" changeset="4389130" lat="50.3641149" lon="16.7126089">
    <tag k="addr:postcode" v="57-360"/>
    <tag k="is_in" v="gmina Kłodzko, powiat kłodzki, województwo dolnośląskie, Poland"/>
    <tag k="is_in:county" v="powiat kłodzki"/>
    <tag k="is_in:municipality" v="gmina Kłodzko"/>
    <tag k="is_in:province" v="województwo dolnośląskie"/>
    <tag k="name" v="Ołdrzychowice Kłodzkie"/>
    <tag k="place" v="village"/>
    <tag k="population" v="2500"/>
    <tag k="source:population" v="wikipedia"/>
    <tag k="wikipedia" v="Ołdrzychowice Kłodzkie"/>
  </node>
  <node id="413452002" version="4" timestamp="2010-04-27T04:06:07Z" uid="30632" user="antblant" changeset="4537871" lat="50.3641149" lon="16.7126089">
    <tag k="addr:postcode" v="57-360"/>
    <tag k="is_in" v="gmina Kłodzko, powiat kłodzki, województwo dolnośląskie, Poland"/>
    <tag k="is_in:county" v="powiat kłodzki"/>
    <tag k="is_in:municipality" v="gmina Kłodzko"/>
    <tag k="is_in:province" v="województwo dolnośląskie"/>
    <tag k="name" v="Ołdrzychowice Kłodzkie"/>
    <tag k="place" v="village"/>
    <tag k="population" v="2500"/>
    <tag k="source:population" v="wikipedia"/>
    <tag k="teryt:simc" v="0852938"/>
    <tag k="wikipedia" v="Ołdrzychowice Kłodzkie"/>
  </node>
  <node id="413452002" version="5" timestamp="2010-06-21T12:41:12Z" uid="42429" user="FK270673" changeset="5042441" lat="50.3641149" lon="16.7126089">
    <tag k="addr:postcode" v="57-360"/>
    <tag k="is_in" v="gmina Kłodzko, powiat kłodzki, województwo dolnośląskie, Poland"/>
    <tag k="is_in:county" v="powiat kłodzki"/>
    <tag k="is_in:municipality" v="gmina Kłodzko"/>
    <tag k="is_in:province" v="województwo dolnośląskie"/>
    <tag k="name" v="Ołdrzychowice Kłodzkie"/>
    <tag k="name:de" v="Ullersdorf"/>
    <tag k="place" v="village"/>
    <tag k="population" v="2500"/>
    <tag k="source:population" v="wikipedia"/>
    <tag k="teryt:simc" v="0852938"/>
    <tag k="wikipedia" v="Ołdrzychowice Kłodzkie"/>
  </node>
  <node id="413453147" version="2" timestamp="2009-06-16T14:28:35Z" uid="20587" user="balrog-kun" changeset="1535626" lat="50.3728684" lon="16.6751658">
    <tag k="addr:postcode" v="57-361"/>
    <tag k="is_in" v="gmina Kłodzko, powiat kłodzki, województwo dolnośląskie, Poland"/>
    <tag k="is_in:county" v="powiat kłodzki"/>
    <tag k="is_in:municipality" v="gmina Kłodzko"/>
    <tag k="is_in:province" v="województwo dolnośląskie"/>
    <tag k="name" v="Żelazno"/>
    <tag k="place" v="village"/>
    <tag k="wikipedia" v="Żelazno, Lower Silesian Voivodeship"/>
  </node>
  <node id="413453147" version="3" timestamp="2010-01-14T10:55:11Z" uid="20587" user="balrog-kun" changeset="3616068" lat="50.3716931" lon="16.6735415">
    <tag k="addr:postcode" v="57-361"/>
    <tag k="is_in" v="gmina Kłodzko, powiat kłodzki, województwo dolnośląskie, Poland"/>
    <tag k="is_in:county" v="powiat kłodzki"/>
    <tag k="is_in:municipality" v="gmina Kłodzko"/>
    <tag k="is_in:province" v="województwo dolnośląskie"/>
    <tag k="name" v="Żelazno"/>
    <tag k="place" v="village"/>
    <tag k="wikipedia" v="Żelazno, Lower Silesian Voivodeship"/>
  </node>
  <node id="413453147" version="4" timestamp="2010-04-11T04:47:14Z" uid="20587" user="balrog-kun" changeset="4389130" lat="50.3713772" lon="16.6729141">
    <tag k="addr:postcode" v="57-361"/>
    <tag k="is_in" v="gmina Kłodzko, powiat kłodzki, województwo dolnośląskie, Poland"/>
    <tag k="is_in:county" v="powiat kłodzki"/>
    <tag k="is_in:municipality" v="gmina Kłodzko"/>
    <tag k="is_in:province" v="województwo dolnośląskie"/>
    <tag k="name" v="Żelazno"/>
    <tag k="place" v="village"/>
    <tag k="wikipedia" v="Żelazno, Lower Silesian Voivodeship"/>
  </node>
  <node id="413453147" version="5" timestamp="2010-06-21T12:41:12Z" uid="42429" user="FK270673" changeset="5042441" lat="50.3713772" lon="16.6729141">
    <tag k="addr:postcode" v="57-361"/>
    <tag k="is_in" v="gmina Kłodzko, powiat kłodzki, województwo dolnośląskie, Poland"/>
    <tag k="is_in:county" v="powiat kłodzki"/>
    <tag k="is_in:municipality" v="gmina Kłodzko"/>
    <tag k="is_in:province" v="województwo dolnośląskie"/>
    <tag k="name" v="Żelazno"/>
    <tag k="name:de" v="Eisersdorf"/>
    <tag k="place" v="village"/>
    <tag k="wikipedia" v="Żelazno, Lower Silesian Voivodeship"/>
  </node>
  <node id="413455681" version="2" timestamp="2009-08-03T10:01:40Z" uid="4467" user="Rosscoe" changeset="2023600" lat="-32.9007293" lon="151.6821733">
    <tag k="highway" v="bus_stop"/>
  </node>
  <node id="413455683" version="2" timestamp="2009-08-03T10:01:40Z" uid="4467" user="Rosscoe" changeset="2023600" lat="-32.9031412" lon="151.6831818">
    <tag k="highway" v="bus_stop"/>
  </node>
  <node id="413455684" version="2" timestamp="2009-08-03T10:01:40Z" uid="4467" user="Rosscoe" changeset="2023600" lat="-32.9031367" lon="151.6830316">
    <tag k="highway" v="bus_stop"/>
  </node>
  <node id="413459057" version="2" timestamp="2010-07-17T08:22:19Z" uid="33382" user="de_muur" changeset="5240341" lat="52.8481069" lon="9.1798513"/>
  <node id="413459136" version="2" timestamp="2010-01-12T13:53:10Z" uid="20587" user="balrog-kun" changeset="3603234" lat="52.1888583" lon="21.0112076">
    <tag k="name" v="Telewizja 03"/>
    <tag k="railway" v="tram_stop"/>
    <tag k="tactile_paving" v="yes"/>
    <tag k="tactile_paving:slab_size" v="40x40"/>
    <tag k="ztm:ciąg_ulicy" v="Woronicza"/>
  </node>
  <node id="413459136" version="3" timestamp="2011-05-04T15:25:17Z" uid="44414" user="marimil" changeset="8049876" lat="52.1888893" lon="21.011211">
    <tag k="name" v="Telewizja 03"/>
    <tag k="railway" v="tram_stop"/>
    <tag k="tactile_paving" v="yes"/>
    <tag k="tactile_paving:slab_size" v="40x40"/>
    <tag k="ztm:ciąg_ulicy" v="Woronicza"/>
  </node>
  <node id="413459136" version="4" timestamp="2011-10-03T06:39:05Z" uid="477744" user="hormel" changeset="9457133" lat="52.1888853" lon="21.0114072">
    <tag k="name" v="Telewizja 03"/>
    <tag k="railway" v="tram_stop"/>
    <tag k="tactile_paving" v="yes"/>
    <tag k="tactile_paving:slab_size" v="40x40"/>
    <tag k="ztm:ciąg_ulicy" v="Woronicza"/>
  </node>
  <node id="413459260" version="4" timestamp="2010-01-12T13:53:08Z" uid="20587" user="balrog-kun" changeset="3603234" lat="52.188755" lon="21.002911">
    <tag k="name" v="Woronicza 07"/>
    <tag k="railway" v="tram_stop"/>
    <tag k="tactile_paving" v="no"/>
  </node>
  <node id="413459260" version="5" timestamp="2010-01-13T14:45:00Z" uid="20587" user="balrog-kun" changeset="3610428" lat="52.188755" lon="21.002911">
    <tag k="name" v="Woronicza 07"/>
    <tag k="railway" v="tram_stop"/>
    <tag k="tactile_paving" v="no"/>
    <tag k="ztm:ciąg_ulicy" v="Woronicza"/>
  </node>
  <node id="413459260" version="6" timestamp="2011-06-29T01:12:37Z" uid="477744" user="hormel" changeset="8576893" lat="52.1888016" lon="21.0030099">
    <tag k="name" v="Woronicza 07"/>
    <tag k="railway" v="tram_stop"/>
    <tag k="tactile_paving" v="no"/>
    <tag k="ztm:ciąg_ulicy" v="Woronicza"/>
  </node>
  <node id="413459260" version="7" timestamp="2011-06-29T05:04:15Z" uid="477744" user="hormel" changeset="8577577" lat="52.1888016" lon="21.0030099"/>
  <node id="413451737" version="3" timestamp="2012-05-17T23:29:09Z" uid="162757" user="floz" changeset="11628631" lat="-32.8968532" lon="151.6813184"/>
  <node id="413451748" version="3" timestamp="2012-07-21T16:35:21Z" uid="722137" user="OSMF Redaction Account" changeset="12414830" lat="-32.8966546" lon="151.6817492"/>
  <node id="413451748" version="4" timestamp="2012-07-22T18:49:33Z" uid="110639" user="aighes" changeset="12437972" lat="-32.8968128" lon="151.6816864"/>
  <node id="413451782" version="3" timestamp="2012-07-21T16:35:20Z" uid="722137" user="OSMF Redaction Account" changeset="12414830" lat="-32.8981372" lon="151.6814867">
    <tag k="amenity" v="bus_stop"/>
  </node>
  <node id="413455681" version="3" timestamp="2012-07-21T16:35:18Z" uid="722137" user="OSMF Redaction Account" changeset="12414830" lat="-32.9007293" lon="151.6821733">
    <tag k="amenity" v="bus_stop"/>
  </node>
  <node id="413455683" version="3" timestamp="2012-07-21T16:35:15Z" uid="722137" user="OSMF Redaction Account" changeset="12414830" lat="-32.9031412" lon="151.6831818">
    <tag k="amenity" v="bus_stop"/>
  </node>
  <node id="413455684" version="3" timestamp="2012-07-21T16:35:15Z" uid="722137" user="OSMF Redaction Account" changeset="12414830" lat="-32.9031367" lon="151.6830316">
    <tag k="amenity" v="bus_stop"/>
  </node>
  <node id="413459057" version="3" timestamp="2012-07-18T14:40:32Z" uid="722137" user="OSMF Redaction Account" changeset="12285411" lat="52.8481453" lon="9.1798863"/>
  <node id="413459136" version="5" timestamp="2012-07-24T20:06:21Z" uid="722137" user="OSMF Redaction Account" changeset="12475329" lat="52.1888853" lon="21.0114072">
    <tag k="tactile_paving" v="yes"/>
    <tag k="tactile_paving:slab_size" v="40x40"/>
    <tag k="ztm:ciąg_ulicy" v="Woronicza"/>
  </node>
</osm>
