<?xml version='1.0' encoding='UTF-8'?>
<osm version="0.6" generator="libosmium/2.20.0">
  <node id="413921655" version="3" timestamp="2011-02-27T13:06:44Z" uid="6269" user="Mueck" changeset="7409865" lat="49.0051989" lon="8.5042181">
    <tag k="light_rail" v="yes"/>
    <tag k="name" v="Grötzingen Oberausstraße"/>
    <tag k="public_transport" v="stop_position"/>
    <tag k="railway" v="halt"/>
    <tag k="wheelchair" v="yes"/>
  </node>
  <node id="413921655" version="4" timestamp="2011-03-15T21:33:19Z" uid="6269" user="Mueck" changeset="7570675" lat="49.0051989" lon="8.5042181">
    <tag k="light_rail" v="yes"/>
    <tag k="name" v="Grötzingen Oberausstraße"/>
    <tag k="public_transport" v="stop_position"/>
    <tag k="railway" v="halt"/>
    <tag k="uic_ref" v="8079057"/>
    <tag k="wheelchair" v="yes"/>
  </node>
  <node id="413921655" version="5" timestamp="2011-09-26T08:05:31Z" uid="290680" user="wheelmap_visitor" changeset="9398611" lat="49.0051989" lon="8.5042181">
    <tag k="light_rail" v="yes"/>
    <tag k="name" v="Grötzingen Oberausstraße"/>
    <tag k="public_transport" v="stop_position"/>
    <tag k="railway" v="halt"/>
    <tag k="uic_ref" v="8079057"/>
    <tag k="wheelchair" v="no"/>
  </node>
  <node id="413921655" version="6" timestamp="2012-03-06T19:32:08Z" uid="35468" user="Blunauer" changeset="10893587" lat="49.0051989" lon="8.5042181"/>
  <node id="413921667" version="2" timestamp="2011-02-27T13:06:46Z" uid="6269" user="Mueck" changeset="7409865" lat="49.0058764" lon="8.512048">
    <tag k="public_transport" v="stop_position"/>
  </node>
  <node id="413921667" version="3" timestamp="2011-02-28T00:19:20Z" uid="6269" user="Mueck" changeset="7416756" lat="49.0059031" lon="8.5123864">
    <tag k="light_rail" v="yes"/>
    <tag k="name" v="Grötzingen Krappmühlenweg"/>
    <tag k="public_transport" v="stop_position"/>
    <tag k="railway" v="halt"/>
    <tag k="wheelchair" v="no"/>
  </node>
  <node id="413921667" version="4" timestamp="2011-03-15T21:33:18Z" uid="6269" user="Mueck" changeset="7570675" lat="49.0059031" lon="8.5123864">
    <tag k="light_rail" v="yes"/>
    <tag k="name" v="Grötzingen Krappmühlenweg"/>
    <tag k="public_transport" v="stop_position"/>
    <tag k="railway" v="halt"/>
    <tag k="uic_ref" v="8007861"/>
    <tag k="wheelchair" v="no"/>
  </node>
  <node id="413921667" version="5" timestamp="2012-03-06T19:39:48Z" uid="35468" user="Blunauer" changeset="10893698" lat="49.0059031" lon="8.5123864"/>
  <node id="413929211" version="4" timestamp="2011-01-09T13:09:39Z" uid="6269" user="Mueck" changeset="6914731" lat="49.0026171" lon="8.462565">
    <tag k="light_rail" v="yes"/>
    <tag k="name" v="Karlsruhe-Durlach"/>
    <tag k="public_transport" v="stop_position"/>
    <tag k="tram" v="yes"/>
    <tag k="wheelchair" v="no"/>
  </node>
  <node id="413929211" version="5" timestamp="2011-02-26T19:12:08Z" uid="6269" user="Mueck" changeset="7403314" lat="49.0027014" lon="8.4628602">
    <tag k="light_rail" v="yes"/>
    <tag k="name" v="Karlsruhe-Durlach"/>
    <tag k="public_transport" v="stop_position"/>
    <tag k="tram" v="yes"/>
    <tag k="wheelchair" v="no"/>
  </node>
  <node id="413929211" version="6" timestamp="2011-03-15T21:33:19Z" uid="6269" user="Mueck" changeset="7570675" lat="49.0027014" lon="8.4628602">
    <tag k="light_rail" v="yes"/>
    <tag k="name" v="Karlsruhe-Durlach"/>
    <tag k="public_transport" v="stop_position"/>
    <tag k="tram" v="yes"/>
    <tag k="uic_ref" v="723560"/>
    <tag k="wheelchair" v="no"/>
  </node>
  <node id="413929211" version="7" timestamp="2012-04-11T11:46:52Z" uid="442210" user="dwausr" changeset="11263997" lat="49.0027014" lon="8.4628602">
    <tag k="light_rail" v="yes"/>
    <tag k="name" v="Karlsruhe-Durlach"/>
    <tag k="odbl" v="clean"/>
    <tag k="public_transport" v="stop_position"/>
    <tag k="tram" v="yes"/>
    <tag k="uic_ref" v="723560"/>
    <tag k="wheelchair" v="no"/>
  </node>
  <node id="413929211" version="8" timestamp="2012-07-20T16:21:21Z" uid="42208" user="JanTH" changeset="12381600" lat="49.0027014" lon="8.4628602">
    <tag k="light_rail" v="yes"/>
    <tag k="name" v="Karlsruhe-Durlach"/>
    <tag k="odbl" v="clean"/>
    <tag k="public_transport" v="stop_position"/>
    <tag k="railway" v="tram_stop"/>
    <tag k="tram" v="yes"/>
    <tag k="uic_ref" v="723560"/>
    <tag k="wheelchair" v="no"/>
  </node>
</osm>
