<?xml version='1.0' encoding='UTF-8'?>
<osm version="0.6" generator="libosmium/2.20.0">
  <node id="414630722" version="2" timestamp="2009-10-10T18:51:14Z" uid="9581" user="Lobelt" changeset="2807322" lat="50.7897805" lon="11.4609643"/>
  <node id="414630722" version="3" timestamp="2011-10-26T20:45:58Z" uid="82694" user="Zottel100" changeset="9663954" lat="50.7897843" lon="11.4609793"/>
  <node id="414630730" version="2" timestamp="2009-10-10T18:51:14Z" uid="9581" user="Lobelt" changeset="2807322" lat="50.7889433" lon="11.4622359"/>
  <node id="414630787" version="2" timestamp="2009-10-04T17:11:39Z" uid="9581" user="Lobelt" changeset="2740193" lat="50.7817588" lon="11.4733775"/>
  <node id="414630788" version="2" timestamp="2009-10-04T17:11:39Z" uid="9581" user="Lobelt" changeset="2740193" lat="50.7817559" lon="11.4742489"/>
  <node id="414631332" version="2" timestamp="2009-10-04T17:11:39Z" uid="9581" user="Lobelt" changeset="2740193" lat="50.7817326" lon="11.4748776"/>
  <node id="414631334" version="2" timestamp="2009-10-04T17:11:39Z" uid="9581" user="Lobelt" changeset="2740193" lat="50.7816846" lon="11.4753074"/>
  <node id="414631713" version="6" timestamp="2009-12-24T01:15:28Z" uid="6975" user="ulfl" changeset="3439374" lat="51.5074064" lon="7.4504255">
    <tag k="club-mate" v="yes"/>
    <tag k="loc_name" v="REWE Möllerbrücke"/>
    <tag k="name" v="Rewe Kamp"/>
    <tag k="operator" v="Kamp Gmbh &amp; Co EH oHG"/>
    <tag k="shop" v="supermarket"/>
  </node>
  <node id="414631713" version="7" timestamp="2010-03-27T17:35:18Z" uid="66978" user="Tobias Ravenstein" changeset="4248902" lat="51.5074064" lon="7.4504255">
    <tag k="drink:club-mate" v="*"/>
    <tag k="loc_name" v="REWE Möllerbrücke"/>
    <tag k="name" v="Rewe Kamp"/>
    <tag k="operator" v="Kamp Gmbh &amp; Co EH oHG"/>
    <tag k="shop" v="supermarket"/>
  </node>
  <node id="414631713" version="8" timestamp="2010-03-28T15:13:07Z" uid="65486" user="MarcelM" changeset="4257820" lat="51.5074064" lon="7.4504255">
    <tag k="drink:club-mate" v="retail"/>
    <tag k="loc_name" v="REWE Möllerbrücke"/>
    <tag k="name" v="Rewe Kamp"/>
    <tag k="operator" v="Kamp Gmbh &amp; Co EH oHG"/>
    <tag k="shop" v="supermarket"/>
  </node>
  <node id="414631713" version="9" timestamp="2010-04-26T20:12:47Z" uid="34555" user="Max--" changeset="4535745" lat="51.5074064" lon="7.4504255">
    <tag k="loc_name" v="REWE Möllerbrücke"/>
    <tag k="name" v="Rewe Kamp"/>
    <tag k="operator" v="Kamp Gmbh &amp; Co EH oHG"/>
    <tag k="shop" v="supermarket"/>
  </node>
  <node id="414631713" version="10" timestamp="2010-05-20T01:10:27Z" uid="83472" user="plush" changeset="4753405" lat="51.5074064" lon="7.4504255">
    <tag k="loc_name" v="REWE Möllerbrücke"/>
    <tag k="name" v="Rewe Kamp"/>
    <tag k="operator" v="Kamp Gmbh &amp; Co EH oHG"/>
    <tag k="shop" v="supermarket"/>
  </node>
  <node id="414633011" version="2" timestamp="2010-07-12T07:31:18Z" uid="59758" user="rendle" changeset="5196239" lat="51.0178818" lon="4.1213934"/>
  <node id="414633011" version="3" timestamp="2011-03-30T11:01:30Z" uid="8196" user="raskas" changeset="7714987" lat="51.0178698" lon="4.1213849">
    <tag k="railway" v="level_crossing"/>
  </node>
  <node id="414633011" version="4" timestamp="2011-04-01T10:47:40Z" uid="8196" user="raskas" changeset="7734292" lat="51.0178579" lon="4.121393">
    <tag k="railway" v="level_crossing"/>
  </node>
  <node id="414633012" version="2" timestamp="2010-07-12T07:31:18Z" uid="59758" user="rendle" changeset="5196239" lat="51.0158753" lon="4.1200419"/>
  <node id="414633012" version="3" timestamp="2011-04-01T10:47:32Z" uid="8196" user="raskas" changeset="7734292" lat="51.0159368" lon="4.1200528"/>
  <node id="414633013" version="2" timestamp="2010-07-12T07:31:18Z" uid="59758" user="rendle" changeset="5196239" lat="51.015605" lon="4.1193453"/>
  <node id="414633014" version="2" timestamp="2010-07-12T07:31:17Z" uid="59758" user="rendle" changeset="5196239" lat="51.0152619" lon="4.1186072"/>
  <node id="414633014" version="3" timestamp="2011-04-01T10:47:37Z" uid="8196" user="raskas" changeset="7734292" lat="51.0152448" lon="4.1186099"/>
  <node id="414633015" version="2" timestamp="2010-07-12T07:31:17Z" uid="59758" user="rendle" changeset="5196239" lat="51.0148565" lon="4.1180146"/>
  <node id="414633015" version="3" timestamp="2011-04-01T10:47:27Z" uid="8196" user="raskas" changeset="7734292" lat="51.014865" lon="4.1180092"/>
  <node id="414633016" version="2" timestamp="2010-07-12T07:31:17Z" uid="59758" user="rendle" changeset="5196239" lat="51.0143471" lon="4.1173181"/>
  <node id="414633016" version="3" timestamp="2011-04-01T10:47:43Z" uid="8196" user="raskas" changeset="7734292" lat="51.0145891" lon="4.1176411"/>
  <node id="414633016" version="4" timestamp="2012-01-31T18:28:52Z" uid="138772" user="lodde1949" changeset="10551992" lat="51.0145891" lon="4.1176411"/>
  <node id="414633017" version="2" timestamp="2010-07-12T07:31:17Z" uid="59758" user="rendle" changeset="5196239" lat="51.0138376" lon="4.116871"/>
  <node id="414633017" version="3" timestamp="2011-04-01T10:47:38Z" uid="8196" user="raskas" changeset="7734292" lat="51.0138478" lon="4.1169226"/>
  <node id="414633018" version="2" timestamp="2010-07-12T07:31:17Z" uid="59758" user="rendle" changeset="5196239" lat="51.0134322" lon="4.1166839"/>
  <node id="414633018" version="3" timestamp="2011-04-01T10:47:28Z" uid="8196" user="raskas" changeset="7734292" lat="51.0134629" lon="4.1167463"/>
  <node id="414633019" version="2" timestamp="2010-07-12T07:31:17Z" uid="59758" user="rendle" changeset="5196239" lat="51.0131307" lon="4.1166111"/>
  <node id="414633019" version="3" timestamp="2011-01-07T14:46:24Z" uid="40932" user="Karel Demeyer" changeset="6893412" lat="51.013079" lon="4.1166118"/>
  <node id="414633020" version="2" timestamp="2010-07-12T07:31:16Z" uid="59758" user="rendle" changeset="5196239" lat="51.0128084" lon="4.1160913"/>
  <node id="414633020" version="3" timestamp="2011-01-07T14:46:22Z" uid="40932" user="Karel Demeyer" changeset="6893412" lat="51.0128329" lon="4.1160358"/>
  <node id="414633020" version="4" timestamp="2011-04-01T10:47:35Z" uid="8196" user="raskas" changeset="7734292" lat="51.01285" lon="4.1160195"/>
  <node id="414633567" version="2" timestamp="2009-11-10T20:11:02Z" uid="9581" user="Lobelt" changeset="3084971" lat="50.7797343" lon="11.497294"/>
  <node id="414633573" version="2" timestamp="2009-11-10T20:11:02Z" uid="9581" user="Lobelt" changeset="3084971" lat="50.7799304" lon="11.4977403"/>
  <node id="414635546" version="1" timestamp="2009-06-02T09:40:12Z" uid="130898" user="hotelfirst" changeset="1402430" lat="48.2123134" lon="15.6068857">
    <tag k="addr:housenumber" v="62"/>
  </node>
  <node id="414635546" version="2" timestamp="2009-06-10T07:27:11Z" uid="130898" user="hotelfirst" changeset="1474647" lat="48.2123157" lon="15.6068813">
    <tag k="addr:housenumber" v="62"/>
  </node>
  <node id="414635546" version="3" timestamp="2009-06-10T07:27:30Z" uid="130898" user="hotelfirst" changeset="1474647" lat="48.2123157" lon="15.6068813">
    <tag k="housenumber" v="62"/>
  </node>
  <node id="414635546" version="4" timestamp="2009-06-24T11:35:59Z" uid="70696" user="xybot" changeset="1610397" lat="48.2123157" lon="15.6068813">
    <tag k="addr:housenumber" v="62"/>
  </node>
  <node id="414635546" version="5" timestamp="2010-01-03T15:48:26Z" uid="22420" user="BenediktLeitner" changeset="3529249" lat="48.2124389" lon="15.6071543">
    <tag k="addr:housenumber" v="62"/>
  </node>
  <node id="414635546" version="6" timestamp="2010-01-03T19:33:40Z" uid="22420" user="BenediktLeitner" changeset="3531806" lat="48.212449" lon="15.6070997">
    <tag k="addr:housenumber" v="62"/>
  </node>
  <node id="414635546" version="7" timestamp="2010-10-07T16:27:04Z" uid="130898" user="hotelfirst" changeset="5979373" lat="48.2124478" lon="15.6069213">
    <tag k="addr:city" v="St.Pölten"/>
    <tag k="addr:housenumber" v="62"/>
    <tag k="addr:postcode" v="3100"/>
    <tag k="addr:street" v="Weinheberstrasse "/>
  </node>
  <node id="414635546" version="8" timestamp="2010-10-07T19:43:10Z" uid="70696" user="xybot" changeset="5980758" lat="48.2124478" lon="15.6069213">
    <tag k="addr:city" v="St.Pölten"/>
    <tag k="addr:housenumber" v="62"/>
    <tag k="addr:postcode" v="3100"/>
    <tag k="addr:street" v="Weinheberstrasse"/>
  </node>
  <node id="414635546" version="9" timestamp="2010-10-08T06:17:26Z" uid="70696" user="xybot" changeset="5983391" lat="48.2124478" lon="15.6069213">
    <tag k="addr:city" v="St.Pölten"/>
    <tag k="addr:housenumber" v="62"/>
    <tag k="addr:postcode" v="3100"/>
    <tag k="addr:street" v="Weinheberstraße"/>
  </node>
  <node id="414637967" version="2" timestamp="2010-06-12T08:43:15Z" uid="30201" user="rrankin" changeset="4968439" lat="-32.9535942" lon="151.712104"/>
  <node id="414638157" version="1" timestamp="2009-06-02T09:49:21Z" uid="20587" user="balrog-kun" changeset="1402520" lat="52.1650715" lon="20.9325567">
    <tag k="addr:city" v="Warszawa@Warszawa Włochy"/>
    <tag k="addr:housenumber" v="14"/>
    <tag k="addr:street" v="aleja Krakowska"/>
    <tag k="source" v="http://ump.waw.pl/ retrieved 11:07:14 02/24/09 (UMP-Warszawa/src/WARSZAWA_WLOCHY.ulice.txt)"/>
  </node>
  <node id="414638157" version="2" timestamp="2011-12-03T09:14:40Z" uid="441027" user="muzzy" changeset="10022896" lat="52.1650715" lon="20.9325567">
    <tag k="addr:city" v="Warszawa@Warszawa Włochy"/>
    <tag k="addr:housenumber" v="14"/>
    <tag k="addr:street" v="Aleja Krakowska"/>
    <tag k="source" v="http://ump.waw.pl/ retrieved 11:07:14 02/24/09 (UMP-Warszawa/src/WARSZAWA_WLOCHY.ulice.txt)"/>
  </node>
  <node id="414638159" version="1" timestamp="2009-06-02T09:49:21Z" uid="20587" user="balrog-kun" changeset="1402520" lat="52.194373" lon="20.961141">
    <tag k="addr:city" v="Warszawa@Warszawa Włochy"/>
    <tag k="addr:housenumber" v="269"/>
    <tag k="addr:street" v="aleja Krakowska"/>
    <tag k="source" v="http://ump.waw.pl/ retrieved 11:07:14 02/24/09 (UMP-Warszawa/src/WARSZAWA_WLOCHY.ulice.txt)"/>
  </node>
  <node id="414638159" version="2" timestamp="2011-05-17T09:36:01Z" uid="37370" user="amateja" changeset="8169803" lat="52.194373" lon="20.961141"/>
  <node id="414638162" version="1" timestamp="2009-06-02T09:49:21Z" uid="20587" user="balrog-kun" changeset="1402520" lat="52.1792938" lon="20.9466478">
    <tag k="addr:city" v="Warszawa@Warszawa Włochy"/>
    <tag k="addr:housenumber" v="133"/>
    <tag k="addr:street" v="aleja Krakowska"/>
    <tag k="source" v="http://ump.waw.pl/ retrieved 11:07:14 02/24/09 (UMP-Warszawa/src/WARSZAWA_WLOCHY.ulice.txt)"/>
  </node>
  <node id="414638162" version="2" timestamp="2011-12-03T09:14:39Z" uid="441027" user="muzzy" changeset="10022896" lat="52.1792938" lon="20.9466478">
    <tag k="addr:city" v="Warszawa@Warszawa Włochy"/>
    <tag k="addr:housenumber" v="133"/>
    <tag k="addr:street" v="Aleja Krakowska"/>
    <tag k="source" v="http://ump.waw.pl/ retrieved 11:07:14 02/24/09 (UMP-Warszawa/src/WARSZAWA_WLOCHY.ulice.txt)"/>
  </node>
  <node id="414638166" version="1" timestamp="2009-06-02T09:49:21Z" uid="20587" user="balrog-kun" changeset="1402520" lat="52.1881484" lon="20.9568918">
    <tag k="addr:city" v="Warszawa@Warszawa Włochy"/>
    <tag k="addr:housenumber" v="230"/>
    <tag k="addr:street" v="aleja Krakowska"/>
    <tag k="source" v="http://ump.waw.pl/ retrieved 11:07:14 02/24/09 (UMP-Warszawa/src/WARSZAWA_WLOCHY.ulice.txt)"/>
  </node>
  <node id="414638166" version="2" timestamp="2011-05-18T10:07:40Z" uid="37370" user="amateja" changeset="8179452" lat="52.1881484" lon="20.9568918"/>
  <node id="414638170" version="1" timestamp="2009-06-02T09:49:21Z" uid="20587" user="balrog-kun" changeset="1402520" lat="52.1899352" lon="20.9821732">
    <tag k="addr:city" v="Warszawa@Warszawa Włochy"/>
    <tag k="addr:housenumber" v="12"/>
    <tag k="addr:street" v="Żwirki i Wigury"/>
    <tag k="source" v="http://ump.waw.pl/ retrieved 11:07:14 02/24/09 (UMP-Warszawa/src/WARSZAWA_WLOCHY.ulice.txt)"/>
  </node>
  <node id="414638170" version="2" timestamp="2011-12-09T09:52:40Z" uid="441027" user="muzzy" changeset="10071664" lat="52.1899352" lon="20.9821732">
    <tag k="addr:city" v="Warszawa@Warszawa Włochy"/>
    <tag k="addr:housenumber" v="12"/>
    <tag k="addr:street" v="Franciszka Żwirki i Stanisława Wigury"/>
    <tag k="source" v="http://ump.waw.pl/ retrieved 11:07:14 02/24/09 (UMP-Warszawa/src/WARSZAWA_WLOCHY.ulice.txt)"/>
  </node>
  <node id="414638173" version="1" timestamp="2009-06-02T09:49:21Z" uid="20587" user="balrog-kun" changeset="1402520" lat="52.1795112" lon="20.947199">
    <tag k="addr:city" v="Warszawa@Warszawa Włochy"/>
    <tag k="addr:housenumber" v="137"/>
    <tag k="addr:street" v="fixme"/>
    <tag k="source" v="http://ump.waw.pl/ retrieved 11:07:14 02/24/09 (UMP-Warszawa/src/WARSZAWA_WLOCHY.ulice.txt)"/>
  </node>
  <node id="414638177" version="1" timestamp="2009-06-02T09:49:21Z" uid="20587" user="balrog-kun" changeset="1402520" lat="52.1766523" lon="20.9437536">
    <tag k="addr:city" v="Warszawa@Warszawa Włochy"/>
    <tag k="addr:housenumber" v="105"/>
    <tag k="addr:street" v="aleja Krakowska"/>
    <tag k="source" v="http://ump.waw.pl/ retrieved 11:07:14 02/24/09 (UMP-Warszawa/src/WARSZAWA_WLOCHY.ulice.txt)"/>
  </node>
  <node id="414638177" version="2" timestamp="2011-12-03T09:14:32Z" uid="441027" user="muzzy" changeset="10022896" lat="52.1766523" lon="20.9437536">
    <tag k="addr:city" v="Warszawa@Warszawa Włochy"/>
    <tag k="addr:housenumber" v="105"/>
    <tag k="addr:street" v="Aleja Krakowska"/>
    <tag k="source" v="http://ump.waw.pl/ retrieved 11:07:14 02/24/09 (UMP-Warszawa/src/WARSZAWA_WLOCHY.ulice.txt)"/>
  </node>
  <node id="414638181" version="1" timestamp="2009-06-02T09:49:21Z" uid="20587" user="balrog-kun" changeset="1402520" lat="52.1920942" lon="20.9706481">
    <tag k="addr:city" v="Warszawa@Warszawa Włochy"/>
    <tag k="addr:housenumber" v="3"/>
    <tag k="addr:street" v="Sulmierzycka"/>
    <tag k="source" v="http://ump.waw.pl/ retrieved 11:07:14 02/24/09 (UMP-Warszawa/src/WARSZAWA_WLOCHY.ulice.txt)"/>
  </node>
  <node id="414638181" version="2" timestamp="2011-06-17T10:09:48Z" uid="37370" user="amateja" changeset="8463024" lat="52.1920942" lon="20.9706481"/>
  <node id="414638184" version="1" timestamp="2009-06-02T09:49:21Z" uid="20587" user="balrog-kun" changeset="1402520" lat="52.1683884" lon="20.9362417">
    <tag k="addr:city" v="Warszawa@Warszawa Włochy"/>
    <tag k="addr:housenumber" v="42"/>
    <tag k="addr:street" v="aleja Krakowska"/>
    <tag k="source" v="http://ump.waw.pl/ retrieved 11:07:14 02/24/09 (UMP-Warszawa/src/WARSZAWA_WLOCHY.ulice.txt)"/>
  </node>
  <node id="414638184" version="2" timestamp="2011-12-03T09:15:25Z" uid="441027" user="muzzy" changeset="10022896" lat="52.1683884" lon="20.9362417">
    <tag k="addr:city" v="Warszawa@Warszawa Włochy"/>
    <tag k="addr:housenumber" v="42"/>
    <tag k="addr:street" v="Aleja Krakowska"/>
    <tag k="source" v="http://ump.waw.pl/ retrieved 11:07:14 02/24/09 (UMP-Warszawa/src/WARSZAWA_WLOCHY.ulice.txt)"/>
  </node>
  <node id="414638187" version="1" timestamp="2009-06-02T09:49:21Z" uid="20587" user="balrog-kun" changeset="1402520" lat="52.1823299" lon="20.9513047">
    <tag k="addr:city" v="Warszawa@Warszawa Włochy"/>
    <tag k="addr:housenumber" v="176"/>
    <tag k="addr:street" v="aleja Krakowska"/>
    <tag k="source" v="http://ump.waw.pl/ retrieved 11:07:14 02/24/09 (UMP-Warszawa/src/WARSZAWA_WLOCHY.ulice.txt)"/>
  </node>
  <node id="414638187" version="2" timestamp="2011-12-03T09:14:48Z" uid="441027" user="muzzy" changeset="10022896" lat="52.1823299" lon="20.9513047">
    <tag k="addr:city" v="Warszawa@Warszawa Włochy"/>
    <tag k="addr:housenumber" v="176"/>
    <tag k="addr:street" v="Aleja Krakowska"/>
    <tag k="source" v="http://ump.waw.pl/ retrieved 11:07:14 02/24/09 (UMP-Warszawa/src/WARSZAWA_WLOCHY.ulice.txt)"/>
  </node>
  <node id="414638191" version="1" timestamp="2009-06-02T09:49:21Z" uid="20587" user="balrog-kun" changeset="1402520" lat="52.1823114" lon="20.9777053">
    <tag k="addr:city" v="Warszawa@Warszawa Włochy"/>
    <tag k="addr:housenumber" v="3"/>
    <tag k="addr:street" v="Żwirki i Wigury"/>
    <tag k="source" v="http://ump.waw.pl/ retrieved 11:07:14 02/24/09 (UMP-Warszawa/src/WARSZAWA_WLOCHY.ulice.txt)"/>
  </node>
  <node id="414638191" version="2" timestamp="2011-07-12T12:55:53Z" uid="37370" user="amateja" changeset="8702945" lat="52.1823114" lon="20.9777053"/>
  <node id="414638194" version="1" timestamp="2009-06-02T09:49:21Z" uid="20587" user="balrog-kun" changeset="1402520" lat="52.1792263" lon="20.947987">
    <tag k="addr:city" v="Warszawa@Warszawa Włochy"/>
    <tag k="addr:housenumber" v="114"/>
    <tag k="addr:street" v="aleja Krakowska"/>
    <tag k="source" v="http://ump.waw.pl/ retrieved 11:07:14 02/24/09 (UMP-Warszawa/src/WARSZAWA_WLOCHY.ulice.txt)"/>
  </node>
  <node id="414638194" version="2" timestamp="2011-12-03T09:14:35Z" uid="441027" user="muzzy" changeset="10022896" lat="52.1792263" lon="20.947987">
    <tag k="addr:city" v="Warszawa@Warszawa Włochy"/>
    <tag k="addr:housenumber" v="114"/>
    <tag k="addr:street" v="Aleja Krakowska"/>
    <tag k="source" v="http://ump.waw.pl/ retrieved 11:07:14 02/24/09 (UMP-Warszawa/src/WARSZAWA_WLOCHY.ulice.txt)"/>
  </node>
  <node id="414638197" version="1" timestamp="2009-06-02T09:49:21Z" uid="20587" user="balrog-kun" changeset="1402520" lat="52.1686131" lon="20.9351415">
    <tag k="addr:city" v="Warszawa@Warszawa Włochy"/>
    <tag k="addr:housenumber" v="47"/>
    <tag k="addr:street" v="aleja Krakowska"/>
    <tag k="source" v="http://ump.waw.pl/ retrieved 11:07:14 02/24/09 (UMP-Warszawa/src/WARSZAWA_WLOCHY.ulice.txt)"/>
  </node>
  <node id="414638197" version="2" timestamp="2011-12-03T09:15:26Z" uid="441027" user="muzzy" changeset="10022896" lat="52.1686131" lon="20.9351415">
    <tag k="addr:city" v="Warszawa@Warszawa Włochy"/>
    <tag k="addr:housenumber" v="47"/>
    <tag k="addr:street" v="Aleja Krakowska"/>
    <tag k="source" v="http://ump.waw.pl/ retrieved 11:07:14 02/24/09 (UMP-Warszawa/src/WARSZAWA_WLOCHY.ulice.txt)"/>
  </node>
  <node id="414638201" version="1" timestamp="2009-06-02T09:49:21Z" uid="20587" user="balrog-kun" changeset="1402520" lat="52.1917784" lon="20.9589389">
    <tag k="addr:city" v="Warszawa@Warszawa Włochy"/>
    <tag k="addr:housenumber" v="255"/>
    <tag k="addr:street" v="aleja Krakowska"/>
    <tag k="source" v="http://ump.waw.pl/ retrieved 11:07:14 02/24/09 (UMP-Warszawa/src/WARSZAWA_WLOCHY.ulice.txt)"/>
  </node>
  <node id="414638201" version="2" timestamp="2011-03-14T08:34:29Z" uid="37370" user="amateja" changeset="7553802" lat="52.1917784" lon="20.9589389">
    <tag k="addr:city" v="Warszawa@Warszawa Włochy"/>
    <tag k="addr:housenumber" v="255"/>
    <tag k="addr:street" v="aleja Krakowska"/>
    <tag k="source" v="http://ump.waw.pl/ retrieved 11:07:14 02/24/09 (UMP-Warszawa/src/WARSZAWA_WLOCHY.ulice.txt)"/>
  </node>
  <node id="414638204" version="1" timestamp="2009-06-02T09:49:22Z" uid="20587" user="balrog-kun" changeset="1402520" lat="52.1926508" lon="20.9596722">
    <tag k="addr:city" v="Warszawa@Warszawa Włochy"/>
    <tag k="addr:housenumber" v="259"/>
    <tag k="addr:street" v="aleja Krakowska"/>
  </node>
  <node id="414638204" version="2" timestamp="2011-06-21T08:40:55Z" uid="37370" user="amateja" changeset="8502307" lat="52.1926508" lon="20.9596722"/>
  <node id="414638207" version="1" timestamp="2009-06-02T09:49:22Z" uid="20587" user="balrog-kun" changeset="1402520" lat="52.1646748" lon="20.9321277">
    <tag k="addr:city" v="Warszawa@Warszawa Włochy"/>
    <tag k="addr:housenumber" v="10"/>
    <tag k="addr:street" v="aleja Krakowska"/>
    <tag k="source" v="http://ump.waw.pl/ retrieved 11:07:14 02/24/09 (UMP-Warszawa/src/WARSZAWA_WLOCHY.ulice.txt)"/>
  </node>
  <node id="414638207" version="2" timestamp="2011-12-03T09:14:30Z" uid="441027" user="muzzy" changeset="10022896" lat="52.1646748" lon="20.9321277">
    <tag k="addr:city" v="Warszawa@Warszawa Włochy"/>
    <tag k="addr:housenumber" v="10"/>
    <tag k="addr:street" v="Aleja Krakowska"/>
    <tag k="source" v="http://ump.waw.pl/ retrieved 11:07:14 02/24/09 (UMP-Warszawa/src/WARSZAWA_WLOCHY.ulice.txt)"/>
  </node>
  <node id="414638212" version="1" timestamp="2009-06-02T09:49:22Z" uid="20587" user="balrog-kun" changeset="1402520" lat="52.1905801" lon="20.9799441">
    <tag k="addr:city" v="Warszawa@Warszawa Włochy"/>
    <tag k="addr:housenumber" v="19"/>
    <tag k="addr:street" v="Żwirki i Wigury"/>
    <tag k="source" v="http://ump.waw.pl/ retrieved 11:07:14 02/24/09 (UMP-Warszawa/src/WARSZAWA_WLOCHY.ulice.txt)"/>
  </node>
  <node id="414638212" version="2" timestamp="2011-12-09T09:52:47Z" uid="441027" user="muzzy" changeset="10071664" lat="52.1905801" lon="20.9799441">
    <tag k="addr:city" v="Warszawa@Warszawa Włochy"/>
    <tag k="addr:housenumber" v="19"/>
    <tag k="addr:street" v="Franciszka Żwirki i Stanisława Wigury"/>
    <tag k="source" v="http://ump.waw.pl/ retrieved 11:07:14 02/24/09 (UMP-Warszawa/src/WARSZAWA_WLOCHY.ulice.txt)"/>
  </node>
  <node id="414638253" version="1" timestamp="2009-06-02T09:49:22Z" uid="20587" user="balrog-kun" changeset="1402520" lat="52.1931301" lon="20.9600923">
    <tag k="addr:city" v="Warszawa@Warszawa Włochy"/>
    <tag k="addr:housenumber" v="267"/>
    <tag k="addr:street" v="aleja Krakowska"/>
    <tag k="source" v="http://ump.waw.pl/ retrieved 11:07:14 02/24/09 (UMP-Warszawa/src/WARSZAWA_WLOCHY.ulice.txt)"/>
  </node>
  <node id="414638253" version="2" timestamp="2011-06-21T08:41:11Z" uid="37370" user="amateja" changeset="8502307" lat="52.1931301" lon="20.9600923"/>
  <node id="414638257" version="1" timestamp="2009-06-02T09:49:22Z" uid="20587" user="balrog-kun" changeset="1402520" lat="52.1692126" lon="20.9371327">
    <tag k="addr:city" v="Warszawa@Warszawa Włochy"/>
    <tag k="addr:housenumber" v="48"/>
    <tag k="addr:street" v="aleja Krakowska"/>
    <tag k="source" v="http://ump.waw.pl/ retrieved 11:07:14 02/24/09 (UMP-Warszawa/src/WARSZAWA_WLOCHY.ulice.txt)"/>
  </node>
  <node id="414638257" version="2" timestamp="2011-12-03T09:15:26Z" uid="441027" user="muzzy" changeset="10022896" lat="52.1692126" lon="20.9371327">
    <tag k="addr:city" v="Warszawa@Warszawa Włochy"/>
    <tag k="addr:housenumber" v="48"/>
    <tag k="addr:street" v="Aleja Krakowska"/>
    <tag k="source" v="http://ump.waw.pl/ retrieved 11:07:14 02/24/09 (UMP-Warszawa/src/WARSZAWA_WLOCHY.ulice.txt)"/>
  </node>
  <node id="414638262" version="1" timestamp="2009-06-02T09:49:23Z" uid="20587" user="balrog-kun" changeset="1402520" lat="52.1877388" lon="20.9565587">
    <tag k="addr:city" v="Warszawa@Warszawa Włochy"/>
    <tag k="addr:housenumber" v="228"/>
    <tag k="addr:street" v="aleja Krakowska"/>
    <tag k="source" v="http://ump.waw.pl/ retrieved 11:07:14 02/24/09 (UMP-Warszawa/src/WARSZAWA_WLOCHY.ulice.txt)"/>
  </node>
  <node id="414638262" version="2" timestamp="2011-05-18T10:02:37Z" uid="37370" user="amateja" changeset="8179452" lat="52.1877388" lon="20.9565587">
    <tag k="addr:city" v="Warszawa@Warszawa Włochy"/>
    <tag k="addr:country" v="PL"/>
    <tag k="addr:housenumber" v="228"/>
    <tag k="addr:postcode" v="02-219"/>
    <tag k="addr:street" v="aleja Krakowska"/>
    <tag k="source" v="http://ump.waw.pl/ retrieved 11:07:14 02/24/09 (UMP-Warszawa/src/WARSZAWA_WLOCHY.ulice.txt)"/>
  </node>
  <node id="414638262" version="3" timestamp="2011-10-07T09:18:18Z" uid="37370" user="amateja" changeset="9492149" lat="52.1877388" lon="20.9565587"/>
  <node id="414638268" version="1" timestamp="2009-06-02T09:49:23Z" uid="20587" user="balrog-kun" changeset="1402520" lat="52.1818521" lon="20.9492203">
    <tag k="addr:city" v="Warszawa@Warszawa Włochy"/>
    <tag k="addr:housenumber" v="159"/>
    <tag k="addr:street" v="aleja Krakowska"/>
    <tag k="source" v="http://ump.waw.pl/ retrieved 11:07:14 02/24/09 (UMP-Warszawa/src/WARSZAWA_WLOCHY.ulice.txt)"/>
  </node>
  <node id="414638268" version="2" timestamp="2011-12-03T09:14:43Z" uid="441027" user="muzzy" changeset="10022896" lat="52.1818521" lon="20.9492203">
    <tag k="addr:city" v="Warszawa@Warszawa Włochy"/>
    <tag k="addr:housenumber" v="159"/>
    <tag k="addr:street" v="Aleja Krakowska"/>
    <tag k="source" v="http://ump.waw.pl/ retrieved 11:07:14 02/24/09 (UMP-Warszawa/src/WARSZAWA_WLOCHY.ulice.txt)"/>
  </node>
  <node id="414638272" version="1" timestamp="2009-06-02T09:49:23Z" uid="20587" user="balrog-kun" changeset="1402520" lat="52.1956072" lon="20.9621169">
    <tag k="addr:city" v="Warszawa@Warszawa Włochy"/>
    <tag k="addr:housenumber" v="285"/>
    <tag k="addr:street" v="aleja Krakowska"/>
    <tag k="source" v="http://ump.waw.pl/ retrieved 11:07:14 02/24/09 (UMP-Warszawa/src/WARSZAWA_WLOCHY.ulice.txt)"/>
  </node>
  <node id="414638272" version="2" timestamp="2011-12-03T09:15:08Z" uid="441027" user="muzzy" changeset="10022896" lat="52.1956072" lon="20.9621169">
    <tag k="addr:city" v="Warszawa@Warszawa Włochy"/>
    <tag k="addr:housenumber" v="285"/>
    <tag k="addr:street" v="Aleja Krakowska"/>
    <tag k="source" v="http://ump.waw.pl/ retrieved 11:07:14 02/24/09 (UMP-Warszawa/src/WARSZAWA_WLOCHY.ulice.txt)"/>
  </node>
  <node id="414638275" version="1" timestamp="2009-06-02T09:49:23Z" uid="20587" user="balrog-kun" changeset="1402520" lat="52.1847936" lon="20.9538352">
    <tag k="addr:city" v="Warszawa@Warszawa Włochy"/>
    <tag k="addr:housenumber" v="208"/>
    <tag k="addr:street" v="aleja Krakowska"/>
    <tag k="source" v="http://ump.waw.pl/ retrieved 11:07:14 02/24/09 (UMP-Warszawa/src/WARSZAWA_WLOCHY.ulice.txt)"/>
  </node>
  <node id="414638275" version="2" timestamp="2011-05-18T10:04:53Z" uid="37370" user="amateja" changeset="8179452" lat="52.1847936" lon="20.9538352">
    <tag k="addr:city" v="Warszawa@Warszawa Włochy"/>
    <tag k="addr:country" v="PL"/>
    <tag k="addr:housenumber" v="208"/>
    <tag k="addr:postcode" v="02-219"/>
    <tag k="addr:street" v="aleja Krakowska"/>
    <tag k="source" v="http://ump.waw.pl/ retrieved 11:07:14 02/24/09 (UMP-Warszawa/src/WARSZAWA_WLOCHY.ulice.txt)"/>
  </node>
  <node id="414638275" version="3" timestamp="2011-08-31T07:08:54Z" uid="37370" user="amateja" changeset="9173626" lat="52.1847936" lon="20.9538352"/>
  <node id="414638277" version="1" timestamp="2009-06-02T09:49:23Z" uid="20587" user="balrog-kun" changeset="1402520" lat="52.1836009" lon="20.9527911">
    <tag k="addr:city" v="Warszawa@Warszawa Włochy"/>
    <tag k="addr:housenumber" v="178"/>
    <tag k="addr:street" v="aleja Krakowska"/>
    <tag k="source" v="http://ump.waw.pl/ retrieved 11:07:14 02/24/09 (UMP-Warszawa/src/WARSZAWA_WLOCHY.ulice.txt)"/>
  </node>
  <node id="414638277" version="2" timestamp="2011-12-03T09:14:48Z" uid="441027" user="muzzy" changeset="10022896" lat="52.1836009" lon="20.9527911">
    <tag k="addr:city" v="Warszawa@Warszawa Włochy"/>
    <tag k="addr:housenumber" v="178"/>
    <tag k="addr:street" v="Aleja Krakowska"/>
    <tag k="source" v="http://ump.waw.pl/ retrieved 11:07:14 02/24/09 (UMP-Warszawa/src/WARSZAWA_WLOCHY.ulice.txt)"/>
  </node>
  <node id="414638280" version="1" timestamp="2009-06-02T09:49:23Z" uid="20587" user="balrog-kun" changeset="1402520" lat="52.1636733" lon="20.9310444">
    <tag k="addr:city" v="Warszawa@Warszawa Włochy"/>
    <tag k="addr:housenumber" v="4"/>
    <tag k="addr:street" v="aleja Krakowska"/>
    <tag k="source" v="http://ump.waw.pl/ retrieved 11:07:14 02/24/09 (UMP-Warszawa/src/WARSZAWA_WLOCHY.ulice.txt)"/>
  </node>
  <node id="414638280" version="2" timestamp="2011-12-03T09:15:20Z" uid="441027" user="muzzy" changeset="10022896" lat="52.1636733" lon="20.9310444">
    <tag k="addr:city" v="Warszawa@Warszawa Włochy"/>
    <tag k="addr:housenumber" v="4"/>
    <tag k="addr:street" v="Aleja Krakowska"/>
    <tag k="source" v="http://ump.waw.pl/ retrieved 11:07:14 02/24/09 (UMP-Warszawa/src/WARSZAWA_WLOCHY.ulice.txt)"/>
  </node>
  <node id="414638283" version="1" timestamp="2009-06-02T09:49:23Z" uid="20587" user="balrog-kun" changeset="1402520" lat="52.1917459" lon="20.9673005">
    <tag k="addr:city" v="Warszawa@Warszawa Włochy"/>
    <tag k="addr:housenumber" v="8"/>
    <tag k="addr:street" v="Lechicka"/>
    <tag k="source" v="http://ump.waw.pl/ retrieved 11:07:14 02/24/09 (UMP-Warszawa/src/WARSZAWA_WLOCHY.ulice.txt)"/>
  </node>
  <node id="414638283" version="2" timestamp="2011-06-17T10:05:50Z" uid="37370" user="amateja" changeset="8463024" lat="52.1917459" lon="20.9673005"/>
  <node id="414638285" version="1" timestamp="2009-06-02T09:49:23Z" uid="20587" user="balrog-kun" changeset="1402520" lat="52.1749115" lon="20.9418751">
    <tag k="addr:city" v="Warszawa@Warszawa Włochy"/>
    <tag k="addr:housenumber" v="85"/>
    <tag k="addr:street" v="aleja Krakowska"/>
    <tag k="source" v="http://ump.waw.pl/ retrieved 11:07:14 02/24/09 (UMP-Warszawa/src/WARSZAWA_WLOCHY.ulice.txt)"/>
  </node>
  <node id="414638285" version="2" timestamp="2011-12-03T09:15:48Z" uid="441027" user="muzzy" changeset="10022896" lat="52.1749115" lon="20.9418751">
    <tag k="addr:city" v="Warszawa@Warszawa Włochy"/>
    <tag k="addr:housenumber" v="85"/>
    <tag k="addr:street" v="Aleja Krakowska"/>
    <tag k="source" v="http://ump.waw.pl/ retrieved 11:07:14 02/24/09 (UMP-Warszawa/src/WARSZAWA_WLOCHY.ulice.txt)"/>
  </node>
  <node id="414638288" version="1" timestamp="2009-06-02T09:49:23Z" uid="20587" user="balrog-kun" changeset="1402520" lat="52.1780946" lon="20.9453512">
    <tag k="addr:city" v="Warszawa@Warszawa Włochy"/>
    <tag k="addr:housenumber" v="123"/>
    <tag k="addr:street" v="aleja Krakowska"/>
    <tag k="source" v="http://ump.waw.pl/ retrieved 11:07:14 02/24/09 (UMP-Warszawa/src/WARSZAWA_WLOCHY.ulice.txt)"/>
  </node>
  <node id="414638288" version="2" timestamp="2011-12-03T09:14:37Z" uid="441027" user="muzzy" changeset="10022896" lat="52.1780946" lon="20.9453512">
    <tag k="addr:city" v="Warszawa@Warszawa Włochy"/>
    <tag k="addr:housenumber" v="123"/>
    <tag k="addr:street" v="Aleja Krakowska"/>
    <tag k="source" v="http://ump.waw.pl/ retrieved 11:07:14 02/24/09 (UMP-Warszawa/src/WARSZAWA_WLOCHY.ulice.txt)"/>
  </node>
  <node id="414638291" version="1" timestamp="2009-06-02T09:49:23Z" uid="20587" user="balrog-kun" changeset="1402520" lat="52.1899712" lon="20.9573695">
    <tag k="addr:city" v="Warszawa@Warszawa Włochy"/>
    <tag k="addr:housenumber" v="239"/>
    <tag k="addr:street" v="aleja Krakowska"/>
    <tag k="source" v="http://ump.waw.pl/ retrieved 11:07:14 02/24/09 (UMP-Warszawa/src/WARSZAWA_WLOCHY.ulice.txt)"/>
  </node>
  <node id="414638291" version="2" timestamp="2011-06-15T06:48:29Z" uid="37370" user="amateja" changeset="8444293" lat="52.1899712" lon="20.9573695"/>
  <node id="414638294" version="1" timestamp="2009-06-02T09:49:23Z" uid="20587" user="balrog-kun" changeset="1402520" lat="52.1843496" lon="20.9533441">
    <tag k="addr:city" v="Warszawa@Warszawa Włochy"/>
    <tag k="addr:housenumber" v="206"/>
    <tag k="addr:street" v="aleja Krakowska"/>
    <tag k="source" v="http://ump.waw.pl/ retrieved 11:07:14 02/24/09 (UMP-Warszawa/src/WARSZAWA_WLOCHY.ulice.txt)"/>
  </node>
  <node id="414638294" version="2" timestamp="2011-05-18T10:07:36Z" uid="37370" user="amateja" changeset="8179452" lat="52.1843496" lon="20.9533441">
    <tag k="addr:city" v="Warszawa@Warszawa Włochy"/>
    <tag k="addr:country" v="PL"/>
    <tag k="addr:housenumber" v="206"/>
    <tag k="addr:postcode" v="02-219"/>
    <tag k="addr:street" v="aleja Krakowska"/>
    <tag k="source" v="http://ump.waw.pl/ retrieved 11:07:14 02/24/09 (UMP-Warszawa/src/WARSZAWA_WLOCHY.ulice.txt)"/>
  </node>
  <node id="414638294" version="3" timestamp="2011-08-31T07:08:54Z" uid="37370" user="amateja" changeset="9173626" lat="52.1843496" lon="20.9533441"/>
  <node id="414638297" version="1" timestamp="2009-06-02T09:49:23Z" uid="20587" user="balrog-kun" changeset="1402520" lat="52.1785233" lon="20.9458185">
    <tag k="addr:city" v="Warszawa@Warszawa Włochy"/>
    <tag k="addr:housenumber" v="125"/>
    <tag k="addr:street" v="aleja Krakowska"/>
    <tag k="source" v="http://ump.waw.pl/ retrieved 11:07:14 02/24/09 (UMP-Warszawa/src/WARSZAWA_WLOCHY.ulice.txt)"/>
  </node>
  <node id="414638297" version="2" timestamp="2011-12-03T09:14:38Z" uid="441027" user="muzzy" changeset="10022896" lat="52.1785233" lon="20.9458185">
    <tag k="addr:city" v="Warszawa@Warszawa Włochy"/>
    <tag k="addr:housenumber" v="125"/>
    <tag k="addr:street" v="Aleja Krakowska"/>
    <tag k="source" v="http://ump.waw.pl/ retrieved 11:07:14 02/24/09 (UMP-Warszawa/src/WARSZAWA_WLOCHY.ulice.txt)"/>
  </node>
  <node id="414638302" version="1" timestamp="2009-06-02T09:49:23Z" uid="20587" user="balrog-kun" changeset="1402520" lat="52.180618" lon="20.9494899">
    <tag k="addr:city" v="Warszawa@Warszawa Włochy"/>
    <tag k="addr:housenumber" v="120"/>
    <tag k="addr:street" v="aleja Krakowska"/>
    <tag k="source" v="http://ump.waw.pl/ retrieved 11:07:14 02/24/09 (UMP-Warszawa/src/WARSZAWA_WLOCHY.ulice.txt)"/>
  </node>
  <node id="414638302" version="2" timestamp="2011-12-03T09:14:37Z" uid="441027" user="muzzy" changeset="10022896" lat="52.180618" lon="20.9494899">
    <tag k="addr:city" v="Warszawa@Warszawa Włochy"/>
    <tag k="addr:housenumber" v="120"/>
    <tag k="addr:street" v="Aleja Krakowska"/>
    <tag k="source" v="http://ump.waw.pl/ retrieved 11:07:14 02/24/09 (UMP-Warszawa/src/WARSZAWA_WLOCHY.ulice.txt)"/>
  </node>
  <node id="414638305" version="1" timestamp="2009-06-02T09:49:23Z" uid="20587" user="balrog-kun" changeset="1402520" lat="52.1913291" lon="20.9599373">
    <tag k="addr:city" v="Warszawa@Warszawa Włochy"/>
    <tag k="addr:housenumber" v="258"/>
    <tag k="addr:street" v="aleja Krakowska"/>
    <tag k="source" v="http://ump.waw.pl/ retrieved 11:07:14 02/24/09 (UMP-Warszawa/src/WARSZAWA_WLOCHY.ulice.txt)"/>
  </node>
  <node id="414638305" version="2" timestamp="2011-04-05T08:23:56Z" uid="37370" user="amateja" changeset="7772599" lat="52.1913291" lon="20.9599373">
    <tag k="addr:city" v="Warszawa@Warszawa Włochy"/>
    <tag k="addr:housenumber" v="258"/>
    <tag k="addr:street" v="aleja Krakowska"/>
    <tag k="source" v="http://ump.waw.pl/ retrieved 11:07:14 02/24/09 (UMP-Warszawa/src/WARSZAWA_WLOCHY.ulice.txt)"/>
  </node>
  <node id="414638310" version="1" timestamp="2009-06-02T09:49:23Z" uid="20587" user="balrog-kun" changeset="1402520" lat="52.1688039" lon="20.9366909">
    <tag k="addr:city" v="Warszawa@Warszawa Włochy"/>
    <tag k="addr:housenumber" v="46"/>
    <tag k="addr:street" v="aleja Krakowska"/>
    <tag k="source" v="http://ump.waw.pl/ retrieved 11:07:14 02/24/09 (UMP-Warszawa/src/WARSZAWA_WLOCHY.ulice.txt)"/>
  </node>
  <node id="414638310" version="2" timestamp="2011-12-03T09:15:25Z" uid="441027" user="muzzy" changeset="10022896" lat="52.1688039" lon="20.9366909">
    <tag k="addr:city" v="Warszawa@Warszawa Włochy"/>
    <tag k="addr:housenumber" v="46"/>
    <tag k="addr:street" v="Aleja Krakowska"/>
    <tag k="source" v="http://ump.waw.pl/ retrieved 11:07:14 02/24/09 (UMP-Warszawa/src/WARSZAWA_WLOCHY.ulice.txt)"/>
  </node>
  <node id="414638314" version="1" timestamp="2009-06-02T09:49:23Z" uid="20587" user="balrog-kun" changeset="1402520" lat="52.1843446" lon="20.9521679">
    <tag k="addr:city" v="Warszawa@Warszawa Włochy"/>
    <tag k="addr:housenumber" v="179"/>
    <tag k="addr:street" v="aleja Krakowska"/>
    <tag k="source" v="http://ump.waw.pl/ retrieved 11:07:14 02/24/09 (UMP-Warszawa/src/WARSZAWA_WLOCHY.ulice.txt)"/>
  </node>
  <node id="414638314" version="2" timestamp="2009-06-06T15:45:48Z" uid="20587" user="balrog-kun" changeset="1439673" lat="52.1839149" lon="20.9515354">
    <tag k="addr:city" v="Warszawa@Warszawa Włochy"/>
    <tag k="addr:housenumber" v="179"/>
    <tag k="addr:street" v="aleja Krakowska"/>
    <tag k="source" v="http://ump.waw.pl/ retrieved 11:07:14 02/24/09 (UMP-Warszawa/src/WARSZAWA_WLOCHY.ulice.txt)"/>
  </node>
  <node id="414638314" version="3" timestamp="2011-12-03T09:14:48Z" uid="441027" user="muzzy" changeset="10022896" lat="52.1839149" lon="20.9515354">
    <tag k="addr:city" v="Warszawa@Warszawa Włochy"/>
    <tag k="addr:housenumber" v="179"/>
    <tag k="addr:street" v="Aleja Krakowska"/>
    <tag k="source" v="http://ump.waw.pl/ retrieved 11:07:14 02/24/09 (UMP-Warszawa/src/WARSZAWA_WLOCHY.ulice.txt)"/>
  </node>
  <node id="414638319" version="1" timestamp="2009-06-02T09:49:24Z" uid="20587" user="balrog-kun" changeset="1402520" lat="52.184593" lon="20.9524369">
    <tag k="addr:city" v="Warszawa@Warszawa Włochy"/>
    <tag k="addr:housenumber" v="181"/>
    <tag k="addr:street" v="aleja Krakowska"/>
    <tag k="source" v="http://ump.waw.pl/ retrieved 11:07:14 02/24/09 (UMP-Warszawa/src/WARSZAWA_WLOCHY.ulice.txt)"/>
  </node>
  <node id="414638319" version="2" timestamp="2009-06-06T15:45:48Z" uid="20587" user="balrog-kun" changeset="1439673" lat="52.1843449" lon="20.952038">
    <tag k="addr:city" v="Warszawa@Warszawa Włochy"/>
    <tag k="addr:housenumber" v="181"/>
    <tag k="addr:street" v="aleja Krakowska"/>
    <tag k="source" v="http://ump.waw.pl/ retrieved 11:07:14 02/24/09 (UMP-Warszawa/src/WARSZAWA_WLOCHY.ulice.txt)"/>
  </node>
  <node id="414638319" version="3" timestamp="2011-12-03T09:14:50Z" uid="441027" user="muzzy" changeset="10022896" lat="52.1843449" lon="20.952038">
    <tag k="addr:city" v="Warszawa@Warszawa Włochy"/>
    <tag k="addr:housenumber" v="181"/>
    <tag k="addr:street" v="Aleja Krakowska"/>
    <tag k="source" v="http://ump.waw.pl/ retrieved 11:07:14 02/24/09 (UMP-Warszawa/src/WARSZAWA_WLOCHY.ulice.txt)"/>
  </node>
  <node id="414638324" version="1" timestamp="2009-06-02T09:49:24Z" uid="20587" user="balrog-kun" changeset="1402520" lat="52.1913669" lon="20.9584755">
    <tag k="addr:city" v="Warszawa@Warszawa Włochy"/>
    <tag k="addr:housenumber" v="245"/>
    <tag k="addr:street" v="aleja Krakowska"/>
    <tag k="source" v="http://ump.waw.pl/ retrieved 11:07:14 02/24/09 (UMP-Warszawa/src/WARSZAWA_WLOCHY.ulice.txt)"/>
  </node>
  <node id="414638324" version="2" timestamp="2011-06-21T08:41:10Z" uid="37370" user="amateja" changeset="8502307" lat="52.1913669" lon="20.9584755"/>
  <node id="414638329" version="1" timestamp="2009-06-02T09:49:24Z" uid="20587" user="balrog-kun" changeset="1402520" lat="52.1642401" lon="20.9304319">
    <tag k="addr:city" v="Warszawa@Warszawa Włochy"/>
    <tag k="addr:housenumber" v="11"/>
    <tag k="addr:street" v="aleja Krakowska"/>
    <tag k="source" v="http://ump.waw.pl/ retrieved 11:07:14 02/24/09 (UMP-Warszawa/src/WARSZAWA_WLOCHY.ulice.txt)"/>
  </node>
  <node id="414638329" version="2" timestamp="2011-12-03T09:14:33Z" uid="441027" user="muzzy" changeset="10022896" lat="52.1642401" lon="20.9304319">
    <tag k="addr:city" v="Warszawa@Warszawa Włochy"/>
    <tag k="addr:housenumber" v="11"/>
    <tag k="addr:street" v="Aleja Krakowska"/>
    <tag k="source" v="http://ump.waw.pl/ retrieved 11:07:14 02/24/09 (UMP-Warszawa/src/WARSZAWA_WLOCHY.ulice.txt)"/>
  </node>
  <node id="414638333" version="1" timestamp="2009-06-02T09:49:24Z" uid="20587" user="balrog-kun" changeset="1402520" lat="52.1964093" lon="20.9628959">
    <tag k="addr:city" v="Warszawa@Warszawa Włochy"/>
    <tag k="addr:housenumber" v="287"/>
    <tag k="addr:street" v="aleja Krakowska"/>
    <tag k="source" v="http://ump.waw.pl/ retrieved 11:07:14 02/24/09 (UMP-Warszawa/src/WARSZAWA_WLOCHY.ulice.txt)"/>
  </node>
  <node id="414638333" version="2" timestamp="2011-12-03T09:15:08Z" uid="441027" user="muzzy" changeset="10022896" lat="52.1964093" lon="20.9628959">
    <tag k="addr:city" v="Warszawa@Warszawa Włochy"/>
    <tag k="addr:housenumber" v="287"/>
    <tag k="addr:street" v="Aleja Krakowska"/>
    <tag k="source" v="http://ump.waw.pl/ retrieved 11:07:14 02/24/09 (UMP-Warszawa/src/WARSZAWA_WLOCHY.ulice.txt)"/>
  </node>
  <node id="414638339" version="1" timestamp="2009-06-02T09:49:24Z" uid="20587" user="balrog-kun" changeset="1402520" lat="52.1918013" lon="20.9653489">
    <tag k="addr:city" v="Warszawa@Warszawa Włochy"/>
    <tag k="addr:housenumber" v="19"/>
    <tag k="addr:street" v="Lechicka"/>
    <tag k="source" v="http://ump.waw.pl/ retrieved 11:07:14 02/24/09 (UMP-Warszawa/src/WARSZAWA_WLOCHY.ulice.txt)"/>
  </node>
  <node id="414638339" version="2" timestamp="2011-06-17T10:09:49Z" uid="37370" user="amateja" changeset="8463024" lat="52.1918013" lon="20.9653489"/>
  <node id="414638344" version="1" timestamp="2009-06-02T09:49:24Z" uid="20587" user="balrog-kun" changeset="1402520" lat="52.1840971" lon="20.9518999">
    <tag k="addr:city" v="Warszawa@Warszawa Włochy"/>
    <tag k="addr:housenumber" v="177"/>
    <tag k="addr:street" v="aleja Krakowska"/>
    <tag k="source" v="http://ump.waw.pl/ retrieved 11:07:14 02/24/09 (UMP-Warszawa/src/WARSZAWA_WLOCHY.ulice.txt)"/>
  </node>
  <node id="414638344" version="2" timestamp="2009-06-06T15:45:48Z" uid="20587" user="balrog-kun" changeset="1439673" lat="52.1833337" lon="20.9508664">
    <tag k="addr:city" v="Warszawa@Warszawa Włochy"/>
    <tag k="addr:housenumber" v="177"/>
    <tag k="addr:street" v="aleja Krakowska"/>
    <tag k="source" v="http://ump.waw.pl/ retrieved 11:07:14 02/24/09 (UMP-Warszawa/src/WARSZAWA_WLOCHY.ulice.txt)"/>
  </node>
  <node id="414638344" version="3" timestamp="2011-12-03T09:14:48Z" uid="441027" user="muzzy" changeset="10022896" lat="52.1833337" lon="20.9508664">
    <tag k="addr:city" v="Warszawa@Warszawa Włochy"/>
    <tag k="addr:housenumber" v="177"/>
    <tag k="addr:street" v="Aleja Krakowska"/>
    <tag k="source" v="http://ump.waw.pl/ retrieved 11:07:14 02/24/09 (UMP-Warszawa/src/WARSZAWA_WLOCHY.ulice.txt)"/>
  </node>
  <node id="414638346" version="1" timestamp="2009-06-02T09:49:24Z" uid="20587" user="balrog-kun" changeset="1402520" lat="52.186091" lon="20.953929">
    <tag k="addr:city" v="Warszawa@Warszawa Włochy"/>
    <tag k="addr:housenumber" v="193"/>
    <tag k="addr:street" v="aleja Krakowska"/>
    <tag k="source" v="http://ump.waw.pl/ retrieved 11:07:14 02/24/09 (UMP-Warszawa/src/WARSZAWA_WLOCHY.ulice.txt)"/>
  </node>
  <node id="414638346" version="2" timestamp="2009-06-06T15:45:47Z" uid="20587" user="balrog-kun" changeset="1439673" lat="52.1849898" lon="20.9527538">
    <tag k="addr:city" v="Warszawa@Warszawa Włochy"/>
    <tag k="addr:housenumber" v="193"/>
    <tag k="addr:street" v="aleja Krakowska"/>
    <tag k="source" v="http://ump.waw.pl/ retrieved 11:07:14 02/24/09 (UMP-Warszawa/src/WARSZAWA_WLOCHY.ulice.txt)"/>
  </node>
  <node id="414638346" version="3" timestamp="2011-12-03T09:14:52Z" uid="441027" user="muzzy" changeset="10022896" lat="52.1849898" lon="20.9527538">
    <tag k="addr:city" v="Warszawa@Warszawa Włochy"/>
    <tag k="addr:housenumber" v="193"/>
    <tag k="addr:street" v="Aleja Krakowska"/>
    <tag k="source" v="http://ump.waw.pl/ retrieved 11:07:14 02/24/09 (UMP-Warszawa/src/WARSZAWA_WLOCHY.ulice.txt)"/>
  </node>
  <node id="414638348" version="1" timestamp="2009-06-02T09:49:24Z" uid="20587" user="balrog-kun" changeset="1402520" lat="52.1918969" lon="20.9602938">
    <tag k="addr:city" v="Warszawa@Warszawa Włochy"/>
    <tag k="addr:housenumber" v="262"/>
    <tag k="addr:street" v="aleja Krakowska"/>
    <tag k="source" v="http://ump.waw.pl/ retrieved 11:07:14 02/24/09 (UMP-Warszawa/src/WARSZAWA_WLOCHY.ulice.txt)"/>
  </node>
  <node id="414638348" version="2" timestamp="2011-03-14T08:43:00Z" uid="37370" user="amateja" changeset="7553865" lat="52.1918969" lon="20.9602938">
    <tag k="addr:city" v="Warszawa@Warszawa Włochy"/>
    <tag k="addr:housenumber" v="262"/>
    <tag k="addr:street" v="aleja Krakowska"/>
    <tag k="source" v="http://ump.waw.pl/ retrieved 11:07:14 02/24/09 (UMP-Warszawa/src/WARSZAWA_WLOCHY.ulice.txt)"/>
  </node>
  <node id="414638350" version="1" timestamp="2009-06-02T09:49:24Z" uid="20587" user="balrog-kun" changeset="1402520" lat="52.1895512" lon="20.9583035">
    <tag k="addr:city" v="Warszawa@Warszawa Włochy"/>
    <tag k="addr:housenumber" v="246"/>
    <tag k="addr:street" v="aleja Krakowska"/>
    <tag k="source" v="http://ump.waw.pl/ retrieved 11:07:14 02/24/09 (UMP-Warszawa/src/WARSZAWA_WLOCHY.ulice.txt)"/>
  </node>
  <node id="414638350" version="2" timestamp="2011-05-18T10:07:41Z" uid="37370" user="amateja" changeset="8179452" lat="52.1895512" lon="20.9583035"/>
  <node id="414638352" version="1" timestamp="2009-06-02T09:49:24Z" uid="20587" user="balrog-kun" changeset="1402520" lat="52.1799006" lon="20.9476159">
    <tag k="addr:city" v="Warszawa@Warszawa Włochy"/>
    <tag k="addr:housenumber" v="139"/>
    <tag k="addr:street" v="fixme"/>
    <tag k="source" v="http://ump.waw.pl/ retrieved 11:07:14 02/24/09 (UMP-Warszawa/src/WARSZAWA_WLOCHY.ulice.txt)"/>
  </node>
  <node id="414638354" version="1" timestamp="2009-06-02T09:49:24Z" uid="20587" user="balrog-kun" changeset="1402520" lat="52.165691" lon="20.9332183">
    <tag k="addr:city" v="Warszawa@Warszawa Włochy"/>
    <tag k="addr:housenumber" v="22"/>
    <tag k="addr:street" v="aleja Krakowska"/>
    <tag k="source" v="http://ump.waw.pl/ retrieved 11:07:14 02/24/09 (UMP-Warszawa/src/WARSZAWA_WLOCHY.ulice.txt)"/>
  </node>
  <node id="414638354" version="2" timestamp="2011-12-03T09:15:00Z" uid="441027" user="muzzy" changeset="10022896" lat="52.165691" lon="20.9332183">
    <tag k="addr:city" v="Warszawa@Warszawa Włochy"/>
    <tag k="addr:housenumber" v="22"/>
    <tag k="addr:street" v="Aleja Krakowska"/>
    <tag k="source" v="http://ump.waw.pl/ retrieved 11:07:14 02/24/09 (UMP-Warszawa/src/WARSZAWA_WLOCHY.ulice.txt)"/>
  </node>
  <node id="414638357" version="1" timestamp="2009-06-02T09:49:24Z" uid="20587" user="balrog-kun" changeset="1402520" lat="52.1881082" lon="20.9557097">
    <tag k="addr:city" v="Warszawa@Warszawa Włochy"/>
    <tag k="addr:housenumber" v="213"/>
    <tag k="addr:street" v="aleja Krakowska"/>
    <tag k="source" v="http://ump.waw.pl/ retrieved 11:07:14 02/24/09 (UMP-Warszawa/src/WARSZAWA_WLOCHY.ulice.txt)"/>
  </node>
  <node id="414638357" version="2" timestamp="2011-12-03T09:15:00Z" uid="441027" user="muzzy" changeset="10022896" lat="52.1881082" lon="20.9557097">
    <tag k="addr:city" v="Warszawa@Warszawa Włochy"/>
    <tag k="addr:housenumber" v="213"/>
    <tag k="addr:street" v="Aleja Krakowska"/>
    <tag k="source" v="http://ump.waw.pl/ retrieved 11:07:14 02/24/09 (UMP-Warszawa/src/WARSZAWA_WLOCHY.ulice.txt)"/>
  </node>
  <node id="414638359" version="1" timestamp="2009-06-02T09:49:24Z" uid="20587" user="balrog-kun" changeset="1402520" lat="52.1909165" lon="20.9580221">
    <tag k="addr:city" v="Warszawa@Warszawa Włochy"/>
    <tag k="addr:housenumber" v="243"/>
    <tag k="addr:street" v="aleja Krakowska"/>
    <tag k="source" v="http://ump.waw.pl/ retrieved 11:07:14 02/24/09 (UMP-Warszawa/src/WARSZAWA_WLOCHY.ulice.txt)"/>
  </node>
  <node id="414638359" version="2" timestamp="2011-06-21T08:40:58Z" uid="37370" user="amateja" changeset="8502307" lat="52.1909165" lon="20.9580221"/>
  <node id="414638363" version="1" timestamp="2009-06-02T09:49:24Z" uid="20587" user="balrog-kun" changeset="1402520" lat="52.1640007" lon="20.9314278">
    <tag k="addr:city" v="Warszawa@Warszawa Włochy"/>
    <tag k="addr:housenumber" v="8"/>
    <tag k="addr:street" v="aleja Krakowska"/>
    <tag k="source" v="http://ump.waw.pl/ retrieved 11:07:14 02/24/09 (UMP-Warszawa/src/WARSZAWA_WLOCHY.ulice.txt)"/>
  </node>
  <node id="414638363" version="2" timestamp="2011-12-03T09:15:45Z" uid="441027" user="muzzy" changeset="10022896" lat="52.1640007" lon="20.9314278">
    <tag k="addr:city" v="Warszawa@Warszawa Włochy"/>
    <tag k="addr:housenumber" v="8"/>
    <tag k="addr:street" v="Aleja Krakowska"/>
    <tag k="source" v="http://ump.waw.pl/ retrieved 11:07:14 02/24/09 (UMP-Warszawa/src/WARSZAWA_WLOCHY.ulice.txt)"/>
  </node>
  <node id="414638368" version="1" timestamp="2009-06-02T09:49:24Z" uid="20587" user="balrog-kun" changeset="1402520" lat="52.1890903" lon="20.9577513">
    <tag k="addr:city" v="Warszawa@Warszawa Włochy"/>
    <tag k="addr:housenumber" v="242"/>
    <tag k="addr:street" v="aleja Krakowska"/>
    <tag k="source" v="http://ump.waw.pl/ retrieved 11:07:14 02/24/09 (UMP-Warszawa/src/WARSZAWA_WLOCHY.ulice.txt)"/>
  </node>
  <node id="414638368" version="2" timestamp="2011-05-18T10:07:40Z" uid="37370" user="amateja" changeset="8179452" lat="52.1890903" lon="20.9577513"/>
  <node id="414638372" version="1" timestamp="2009-06-02T09:49:24Z" uid="20587" user="balrog-kun" changeset="1402520" lat="52.1696977" lon="20.9376572">
    <tag k="addr:city" v="Warszawa@Warszawa Włochy"/>
    <tag k="addr:housenumber" v="52"/>
    <tag k="addr:street" v="aleja Krakowska"/>
    <tag k="source" v="http://ump.waw.pl/ retrieved 11:07:14 02/24/09 (UMP-Warszawa/src/WARSZAWA_WLOCHY.ulice.txt)"/>
  </node>
  <node id="414638372" version="2" timestamp="2011-12-03T09:15:31Z" uid="441027" user="muzzy" changeset="10022896" lat="52.1696977" lon="20.9376572">
    <tag k="addr:city" v="Warszawa@Warszawa Włochy"/>
    <tag k="addr:housenumber" v="52"/>
    <tag k="addr:street" v="Aleja Krakowska"/>
    <tag k="source" v="http://ump.waw.pl/ retrieved 11:07:14 02/24/09 (UMP-Warszawa/src/WARSZAWA_WLOCHY.ulice.txt)"/>
  </node>
  <node id="414638376" version="1" timestamp="2009-06-02T09:49:24Z" uid="20587" user="balrog-kun" changeset="1402520" lat="52.1633998" lon="20.9307427">
    <tag k="addr:city" v="Warszawa@Warszawa Włochy"/>
    <tag k="addr:housenumber" v="2"/>
    <tag k="addr:street" v="aleja Krakowska"/>
    <tag k="source" v="http://ump.waw.pl/ retrieved 11:07:14 02/24/09 (UMP-Warszawa/src/WARSZAWA_WLOCHY.ulice.txt)"/>
  </node>
  <node id="414638376" version="2" timestamp="2011-12-03T09:14:53Z" uid="441027" user="muzzy" changeset="10022896" lat="52.1633998" lon="20.9307427">
    <tag k="addr:city" v="Warszawa@Warszawa Włochy"/>
    <tag k="addr:housenumber" v="2"/>
    <tag k="addr:street" v="Aleja Krakowska"/>
    <tag k="source" v="http://ump.waw.pl/ retrieved 11:07:14 02/24/09 (UMP-Warszawa/src/WARSZAWA_WLOCHY.ulice.txt)"/>
  </node>
  <node id="414638381" version="1" timestamp="2009-06-02T09:49:25Z" uid="20587" user="balrog-kun" changeset="1402520" lat="52.1892635" lon="20.9579318">
    <tag k="addr:city" v="Warszawa@Warszawa Włochy"/>
    <tag k="addr:housenumber" v="244"/>
    <tag k="addr:street" v="aleja Krakowska"/>
    <tag k="source" v="http://ump.waw.pl/ retrieved 11:07:14 02/24/09 (UMP-Warszawa/src/WARSZAWA_WLOCHY.ulice.txt)"/>
  </node>
  <node id="414638381" version="2" timestamp="2011-05-18T10:07:40Z" uid="37370" user="amateja" changeset="8179452" lat="52.1892635" lon="20.9579318"/>
  <node id="414638384" version="1" timestamp="2009-06-02T09:49:25Z" uid="20587" user="balrog-kun" changeset="1402520" lat="52.1831343" lon="20.977976">
    <tag k="addr:city" v="Warszawa@Warszawa Włochy"/>
    <tag k="addr:housenumber" v="5"/>
    <tag k="addr:street" v="Żwirki i Wigury"/>
    <tag k="source" v="http://ump.waw.pl/ retrieved 11:07:14 02/24/09 (UMP-Warszawa/src/WARSZAWA_WLOCHY.ulice.txt)"/>
  </node>
  <node id="414638384" version="2" timestamp="2011-07-12T12:55:53Z" uid="37370" user="amateja" changeset="8702945" lat="52.1831343" lon="20.977976"/>
  <node id="414638390" version="1" timestamp="2009-06-02T09:49:25Z" uid="20587" user="balrog-kun" changeset="1402520" lat="52.1865625" lon="20.9543311">
    <tag k="addr:city" v="Warszawa@Warszawa Włochy"/>
    <tag k="addr:housenumber" v="195"/>
    <tag k="addr:street" v="aleja Krakowska"/>
    <tag k="source" v="http://ump.waw.pl/ retrieved 11:07:14 02/24/09 (UMP-Warszawa/src/WARSZAWA_WLOCHY.ulice.txt)"/>
  </node>
  <node id="414638390" version="2" timestamp="2009-06-06T15:45:48Z" uid="20587" user="balrog-kun" changeset="1439673" lat="52.1853048" lon="20.9530063">
    <tag k="addr:city" v="Warszawa@Warszawa Włochy"/>
    <tag k="addr:housenumber" v="195"/>
    <tag k="addr:street" v="aleja Krakowska"/>
    <tag k="source" v="http://ump.waw.pl/ retrieved 11:07:14 02/24/09 (UMP-Warszawa/src/WARSZAWA_WLOCHY.ulice.txt)"/>
  </node>
  <node id="414638390" version="3" timestamp="2011-12-03T09:14:52Z" uid="441027" user="muzzy" changeset="10022896" lat="52.1853048" lon="20.9530063">
    <tag k="addr:city" v="Warszawa@Warszawa Włochy"/>
    <tag k="addr:housenumber" v="195"/>
    <tag k="addr:street" v="Aleja Krakowska"/>
    <tag k="source" v="http://ump.waw.pl/ retrieved 11:07:14 02/24/09 (UMP-Warszawa/src/WARSZAWA_WLOCHY.ulice.txt)"/>
  </node>
  <node id="414638395" version="1" timestamp="2009-06-02T09:49:25Z" uid="20587" user="balrog-kun" changeset="1402520" lat="52.1878125" lon="20.9554922">
    <tag k="addr:city" v="Warszawa@Warszawa Włochy"/>
    <tag k="addr:housenumber" v="205"/>
    <tag k="addr:street" v="aleja Krakowska"/>
    <tag k="source" v="http://ump.waw.pl/ retrieved 11:07:14 02/24/09 (UMP-Warszawa/src/WARSZAWA_WLOCHY.ulice.txt)"/>
  </node>
  <node id="414638395" version="2" timestamp="2011-12-03T09:14:58Z" uid="441027" user="muzzy" changeset="10022896" lat="52.1878125" lon="20.9554922">
    <tag k="addr:city" v="Warszawa@Warszawa Włochy"/>
    <tag k="addr:housenumber" v="205"/>
    <tag k="addr:street" v="Aleja Krakowska"/>
    <tag k="source" v="http://ump.waw.pl/ retrieved 11:07:14 02/24/09 (UMP-Warszawa/src/WARSZAWA_WLOCHY.ulice.txt)"/>
  </node>
  <node id="414638401" version="1" timestamp="2009-06-02T09:49:25Z" uid="20587" user="balrog-kun" changeset="1402520" lat="52.1915228" lon="20.9700407">
    <tag k="addr:city" v="Warszawa@Warszawa Włochy"/>
    <tag k="addr:housenumber" v="1"/>
    <tag k="addr:street" v="Sulmierzycka"/>
    <tag k="source" v="http://ump.waw.pl/ retrieved 11:07:14 02/24/09 (UMP-Warszawa/src/WARSZAWA_WLOCHY.ulice.txt)"/>
  </node>
  <node id="414638401" version="2" timestamp="2011-06-17T10:05:51Z" uid="37370" user="amateja" changeset="8463024" lat="52.1915228" lon="20.9700407"/>
  <node id="414638405" version="1" timestamp="2009-06-02T09:49:25Z" uid="20587" user="balrog-kun" changeset="1402520" lat="52.1911737" lon="20.9679586">
    <tag k="addr:city" v="Warszawa@Warszawa Włochy"/>
    <tag k="addr:housenumber" v="13"/>
    <tag k="addr:street" v="Lechicka"/>
    <tag k="source" v="http://ump.waw.pl/ retrieved 11:07:14 02/24/09 (UMP-Warszawa/src/WARSZAWA_WLOCHY.ulice.txt)"/>
  </node>
  <node id="414638405" version="2" timestamp="2011-06-17T10:09:49Z" uid="37370" user="amateja" changeset="8463024" lat="52.1911737" lon="20.9679586"/>
  <node id="414638411" version="1" timestamp="2009-06-02T09:49:25Z" uid="20587" user="balrog-kun" changeset="1402520" lat="52.1896678" lon="20.9570843">
    <tag k="addr:city" v="Warszawa@Warszawa Włochy"/>
    <tag k="addr:housenumber" v="237"/>
    <tag k="addr:street" v="aleja Krakowska"/>
    <tag k="source" v="http://ump.waw.pl/ retrieved 11:07:14 02/24/09 (UMP-Warszawa/src/WARSZAWA_WLOCHY.ulice.txt)"/>
  </node>
  <node id="414638411" version="2" timestamp="2011-12-03T09:15:02Z" uid="441027" user="muzzy" changeset="10022896" lat="52.1896678" lon="20.9570843">
    <tag k="addr:city" v="Warszawa@Warszawa Włochy"/>
    <tag k="addr:housenumber" v="237"/>
    <tag k="addr:street" v="Aleja Krakowska"/>
    <tag k="source" v="http://ump.waw.pl/ retrieved 11:07:14 02/24/09 (UMP-Warszawa/src/WARSZAWA_WLOCHY.ulice.txt)"/>
  </node>
  <node id="414638415" version="1" timestamp="2009-06-02T09:49:25Z" uid="20587" user="balrog-kun" changeset="1402520" lat="52.1921157" lon="20.9641663">
    <tag k="addr:city" v="Warszawa@Warszawa Włochy"/>
    <tag k="addr:housenumber" v="23"/>
    <tag k="addr:street" v="Lechicka"/>
    <tag k="source" v="http://ump.waw.pl/ retrieved 11:07:14 02/24/09 (UMP-Warszawa/src/WARSZAWA_WLOCHY.ulice.txt)"/>
  </node>
  <node id="414638415" version="2" timestamp="2011-06-17T10:05:51Z" uid="37370" user="amateja" changeset="8463024" lat="52.1921157" lon="20.9641663"/>
  <node id="414638420" version="1" timestamp="2009-06-02T09:49:25Z" uid="20587" user="balrog-kun" changeset="1402520" lat="52.1661251" lon="20.9337948">
    <tag k="addr:city" v="Warszawa@Warszawa Włochy"/>
    <tag k="addr:housenumber" v="26"/>
    <tag k="addr:street" v="aleja Krakowska"/>
    <tag k="source" v="http://ump.waw.pl/ retrieved 11:07:14 02/24/09 (UMP-Warszawa/src/WARSZAWA_WLOCHY.ulice.txt)"/>
  </node>
  <node id="414638420" version="2" timestamp="2011-12-03T09:15:05Z" uid="441027" user="muzzy" changeset="10022896" lat="52.1661251" lon="20.9337948">
    <tag k="addr:city" v="Warszawa@Warszawa Włochy"/>
    <tag k="addr:housenumber" v="26"/>
    <tag k="addr:street" v="Aleja Krakowska"/>
    <tag k="source" v="http://ump.waw.pl/ retrieved 11:07:14 02/24/09 (UMP-Warszawa/src/WARSZAWA_WLOCHY.ulice.txt)"/>
  </node>
  <node id="414638425" version="1" timestamp="2009-06-02T09:49:25Z" uid="20587" user="balrog-kun" changeset="1402520" lat="52.1911933" lon="20.9696246">
    <tag k="addr:city" v="Warszawa@Warszawa Włochy"/>
    <tag k="addr:housenumber" v="4"/>
    <tag k="addr:street" v="Lechicka"/>
    <tag k="source" v="http://ump.waw.pl/ retrieved 11:07:14 02/24/09 (UMP-Warszawa/src/WARSZAWA_WLOCHY.ulice.txt)"/>
  </node>
  <node id="414638425" version="2" timestamp="2011-06-17T10:05:50Z" uid="37370" user="amateja" changeset="8463024" lat="52.1911933" lon="20.9696246"/>
  <node id="414638431" version="1" timestamp="2009-06-02T09:49:25Z" uid="20587" user="balrog-kun" changeset="1402520" lat="52.1802857" lon="20.9475905">
    <tag k="addr:city" v="Warszawa@Warszawa Włochy"/>
    <tag k="addr:housenumber" v="141"/>
    <tag k="addr:street" v="aleja Krakowska"/>
    <tag k="source" v="http://ump.waw.pl/ retrieved 11:07:14 02/24/09 (UMP-Warszawa/src/WARSZAWA_WLOCHY.ulice.txt)"/>
  </node>
  <node id="414638431" version="2" timestamp="2011-12-03T09:14:41Z" uid="441027" user="muzzy" changeset="10022896" lat="52.1802857" lon="20.9475905">
    <tag k="addr:city" v="Warszawa@Warszawa Włochy"/>
    <tag k="addr:housenumber" v="141"/>
    <tag k="addr:street" v="Aleja Krakowska"/>
    <tag k="source" v="http://ump.waw.pl/ retrieved 11:07:14 02/24/09 (UMP-Warszawa/src/WARSZAWA_WLOCHY.ulice.txt)"/>
  </node>
  <node id="414638436" version="1" timestamp="2009-06-02T09:49:25Z" uid="20587" user="balrog-kun" changeset="1402520" lat="52.185332" lon="20.9531643">
    <tag k="addr:city" v="Warszawa@Warszawa Włochy"/>
    <tag k="addr:housenumber" v="191"/>
    <tag k="addr:street" v="aleja Krakowska"/>
    <tag k="source" v="http://ump.waw.pl/ retrieved 11:07:14 02/24/09 (UMP-Warszawa/src/WARSZAWA_WLOCHY.ulice.txt)"/>
  </node>
  <node id="414638436" version="2" timestamp="2009-06-06T15:45:48Z" uid="20587" user="balrog-kun" changeset="1439673" lat="52.1847241" lon="20.9524375">
    <tag k="addr:city" v="Warszawa@Warszawa Włochy"/>
    <tag k="addr:housenumber" v="191"/>
    <tag k="addr:street" v="aleja Krakowska"/>
    <tag k="source" v="http://ump.waw.pl/ retrieved 11:07:14 02/24/09 (UMP-Warszawa/src/WARSZAWA_WLOCHY.ulice.txt)"/>
  </node>
  <node id="414638436" version="3" timestamp="2011-12-03T09:14:52Z" uid="441027" user="muzzy" changeset="10022896" lat="52.1847241" lon="20.9524375">
    <tag k="addr:city" v="Warszawa@Warszawa Włochy"/>
    <tag k="addr:housenumber" v="191"/>
    <tag k="addr:street" v="Aleja Krakowska"/>
    <tag k="source" v="http://ump.waw.pl/ retrieved 11:07:14 02/24/09 (UMP-Warszawa/src/WARSZAWA_WLOCHY.ulice.txt)"/>
  </node>
  <node id="414638440" version="1" timestamp="2009-06-02T09:49:25Z" uid="20587" user="balrog-kun" changeset="1402520" lat="52.1754523" lon="20.9454388">
    <tag k="addr:city" v="Warszawa@Warszawa Włochy"/>
    <tag k="addr:housenumber" v="102"/>
    <tag k="addr:street" v="aleja Krakowska"/>
    <tag k="source" v="http://ump.waw.pl/ retrieved 11:07:14 02/24/09 (UMP-Warszawa/src/WARSZAWA_WLOCHY.ulice.txt)"/>
  </node>
  <node id="414638440" version="2" timestamp="2011-12-03T09:14:32Z" uid="441027" user="muzzy" changeset="10022896" lat="52.1754523" lon="20.9454388">
    <tag k="addr:city" v="Warszawa@Warszawa Włochy"/>
    <tag k="addr:housenumber" v="102"/>
    <tag k="addr:street" v="Aleja Krakowska"/>
    <tag k="source" v="http://ump.waw.pl/ retrieved 11:07:14 02/24/09 (UMP-Warszawa/src/WARSZAWA_WLOCHY.ulice.txt)"/>
  </node>
  <node id="414638444" version="1" timestamp="2009-06-02T09:49:25Z" uid="20587" user="balrog-kun" changeset="1402520" lat="52.1771361" lon="20.9443367">
    <tag k="addr:city" v="Warszawa@Warszawa Włochy"/>
    <tag k="addr:housenumber" v="107"/>
    <tag k="addr:street" v="aleja Krakowska"/>
    <tag k="source" v="http://ump.waw.pl/ retrieved 11:07:14 02/24/09 (UMP-Warszawa/src/WARSZAWA_WLOCHY.ulice.txt)"/>
  </node>
  <node id="414638444" version="2" timestamp="2011-12-03T09:14:33Z" uid="441027" user="muzzy" changeset="10022896" lat="52.1771361" lon="20.9443367">
    <tag k="addr:city" v="Warszawa@Warszawa Włochy"/>
    <tag k="addr:housenumber" v="107"/>
    <tag k="addr:street" v="Aleja Krakowska"/>
    <tag k="source" v="http://ump.waw.pl/ retrieved 11:07:14 02/24/09 (UMP-Warszawa/src/WARSZAWA_WLOCHY.ulice.txt)"/>
  </node>
  <node id="414638447" version="1" timestamp="2009-06-02T09:49:25Z" uid="20587" user="balrog-kun" changeset="1402520" lat="52.1661355" lon="20.9324272">
    <tag k="addr:city" v="Warszawa@Warszawa Włochy"/>
    <tag k="addr:housenumber" v="23"/>
    <tag k="addr:street" v="aleja Krakowska"/>
    <tag k="source" v="http://ump.waw.pl/ retrieved 11:07:14 02/24/09 (UMP-Warszawa/src/WARSZAWA_WLOCHY.ulice.txt)"/>
  </node>
  <node id="414638447" version="2" timestamp="2011-12-03T09:15:01Z" uid="441027" user="muzzy" changeset="10022896" lat="52.1661355" lon="20.9324272">
    <tag k="addr:city" v="Warszawa@Warszawa Włochy"/>
    <tag k="addr:housenumber" v="23"/>
    <tag k="addr:street" v="Aleja Krakowska"/>
    <tag k="source" v="http://ump.waw.pl/ retrieved 11:07:14 02/24/09 (UMP-Warszawa/src/WARSZAWA_WLOCHY.ulice.txt)"/>
  </node>
  <node id="414638449" version="1" timestamp="2009-06-02T09:49:25Z" uid="20587" user="balrog-kun" changeset="1402520" lat="52.1892923" lon="20.9567974">
    <tag k="addr:city" v="Warszawa@Warszawa Włochy"/>
    <tag k="addr:housenumber" v="231"/>
    <tag k="addr:street" v="aleja Krakowska"/>
    <tag k="source" v="http://ump.waw.pl/ retrieved 11:07:14 02/24/09 (UMP-Warszawa/src/WARSZAWA_WLOCHY.ulice.txt)"/>
  </node>
  <node id="414638449" version="2" timestamp="2011-12-03T09:15:02Z" uid="441027" user="muzzy" changeset="10022896" lat="52.1892923" lon="20.9567974">
    <tag k="addr:city" v="Warszawa@Warszawa Włochy"/>
    <tag k="addr:housenumber" v="231"/>
    <tag k="addr:street" v="Aleja Krakowska"/>
    <tag k="source" v="http://ump.waw.pl/ retrieved 11:07:14 02/24/09 (UMP-Warszawa/src/WARSZAWA_WLOCHY.ulice.txt)"/>
  </node>
  <node id="414638452" version="1" timestamp="2009-06-02T09:49:25Z" uid="20587" user="balrog-kun" changeset="1402520" lat="52.1910512" lon="20.959683">
    <tag k="addr:city" v="Warszawa@Warszawa Włochy"/>
    <tag k="addr:housenumber" v="256"/>
    <tag k="addr:street" v="aleja Krakowska"/>
    <tag k="source" v="http://ump.waw.pl/ retrieved 11:07:14 02/24/09 (UMP-Warszawa/src/WARSZAWA_WLOCHY.ulice.txt)"/>
  </node>
  <node id="414638452" version="2" timestamp="2011-04-05T08:23:56Z" uid="37370" user="amateja" changeset="7772599" lat="52.1910512" lon="20.959683">
    <tag k="addr:city" v="Warszawa@Warszawa Włochy"/>
    <tag k="addr:housenumber" v="256"/>
    <tag k="addr:street" v="aleja Krakowska"/>
    <tag k="source" v="http://ump.waw.pl/ retrieved 11:07:14 02/24/09 (UMP-Warszawa/src/WARSZAWA_WLOCHY.ulice.txt)"/>
  </node>
  <node id="414638455" version="1" timestamp="2009-06-02T09:49:25Z" uid="20587" user="balrog-kun" changeset="1402520" lat="52.1860492" lon="20.9550524">
    <tag k="addr:city" v="Warszawa@Warszawa Włochy"/>
    <tag k="addr:housenumber" v="212"/>
    <tag k="addr:street" v="aleja Krakowska"/>
    <tag k="source" v="http://ump.waw.pl/ retrieved 11:07:14 02/24/09 (UMP-Warszawa/src/WARSZAWA_WLOCHY.ulice.txt)"/>
  </node>
  <node id="414638455" version="2" timestamp="2011-05-18T10:02:37Z" uid="37370" user="amateja" changeset="8179452" lat="52.1860492" lon="20.9550524">
    <tag k="addr:city" v="Warszawa@Warszawa Włochy"/>
    <tag k="addr:country" v="PL"/>
    <tag k="addr:housenumber" v="212"/>
    <tag k="addr:postcode" v="02-219"/>
    <tag k="addr:street" v="aleja Krakowska"/>
    <tag k="source" v="http://ump.waw.pl/ retrieved 11:07:14 02/24/09 (UMP-Warszawa/src/WARSZAWA_WLOCHY.ulice.txt)"/>
  </node>
  <node id="414638455" version="3" timestamp="2011-10-07T09:18:18Z" uid="37370" user="amateja" changeset="9492149" lat="52.1860492" lon="20.9550524"/>
  <node id="414638457" version="1" timestamp="2009-06-02T09:49:25Z" uid="20587" user="balrog-kun" changeset="1402520" lat="52.1679006" lon="20.9342818">
    <tag k="addr:city" v="Warszawa@Warszawa Włochy"/>
    <tag k="addr:housenumber" v="45"/>
    <tag k="addr:street" v="aleja Krakowska"/>
    <tag k="source" v="http://ump.waw.pl/ retrieved 11:07:14 02/24/09 (UMP-Warszawa/src/WARSZAWA_WLOCHY.ulice.txt)"/>
  </node>
  <node id="414638457" version="2" timestamp="2011-12-03T09:15:25Z" uid="441027" user="muzzy" changeset="10022896" lat="52.1679006" lon="20.9342818">
    <tag k="addr:city" v="Warszawa@Warszawa Włochy"/>
    <tag k="addr:housenumber" v="45"/>
    <tag k="addr:street" v="Aleja Krakowska"/>
    <tag k="source" v="http://ump.waw.pl/ retrieved 11:07:14 02/24/09 (UMP-Warszawa/src/WARSZAWA_WLOCHY.ulice.txt)"/>
  </node>
  <node id="414638460" version="1" timestamp="2009-06-02T09:49:26Z" uid="20587" user="balrog-kun" changeset="1402520" lat="52.1711001" lon="20.9393148">
    <tag k="addr:city" v="Warszawa@Warszawa Włochy"/>
    <tag k="addr:housenumber" v="62"/>
    <tag k="addr:street" v="aleja Krakowska"/>
    <tag k="source" v="http://ump.waw.pl/ retrieved 11:07:14 02/24/09 (UMP-Warszawa/src/WARSZAWA_WLOCHY.ulice.txt)"/>
  </node>
  <node id="414638460" version="2" timestamp="2011-12-03T09:15:37Z" uid="441027" user="muzzy" changeset="10022896" lat="52.1711001" lon="20.9393148">
    <tag k="addr:city" v="Warszawa@Warszawa Włochy"/>
    <tag k="addr:housenumber" v="62"/>
    <tag k="addr:street" v="Aleja Krakowska"/>
    <tag k="source" v="http://ump.waw.pl/ retrieved 11:07:14 02/24/09 (UMP-Warszawa/src/WARSZAWA_WLOCHY.ulice.txt)"/>
  </node>
  <node id="414638463" version="1" timestamp="2009-06-02T09:49:26Z" uid="20587" user="balrog-kun" changeset="1402520" lat="52.1838064" lon="20.9515851">
    <tag k="addr:city" v="Warszawa@Warszawa Włochy"/>
    <tag k="addr:housenumber" v="173"/>
    <tag k="addr:street" v="aleja Krakowska"/>
    <tag k="source" v="http://ump.waw.pl/ retrieved 11:07:14 02/24/09 (UMP-Warszawa/src/WARSZAWA_WLOCHY.ulice.txt)"/>
  </node>
  <node id="414638463" version="2" timestamp="2009-06-06T15:45:48Z" uid="20587" user="balrog-kun" changeset="1439673" lat="52.1826991" lon="20.9501777">
    <tag k="addr:city" v="Warszawa@Warszawa Włochy"/>
    <tag k="addr:housenumber" v="173"/>
    <tag k="addr:street" v="aleja Krakowska"/>
    <tag k="source" v="http://ump.waw.pl/ retrieved 11:07:14 02/24/09 (UMP-Warszawa/src/WARSZAWA_WLOCHY.ulice.txt)"/>
  </node>
  <node id="414638463" version="3" timestamp="2011-12-03T09:14:48Z" uid="441027" user="muzzy" changeset="10022896" lat="52.1826991" lon="20.9501777">
    <tag k="addr:city" v="Warszawa@Warszawa Włochy"/>
    <tag k="addr:housenumber" v="173"/>
    <tag k="addr:street" v="Aleja Krakowska"/>
    <tag k="source" v="http://ump.waw.pl/ retrieved 11:07:14 02/24/09 (UMP-Warszawa/src/WARSZAWA_WLOCHY.ulice.txt)"/>
  </node>
  <node id="414638465" version="1" timestamp="2009-06-02T09:49:26Z" uid="20587" user="balrog-kun" changeset="1402520" lat="52.1916421" lon="20.9660309">
    <tag k="addr:city" v="Warszawa@Warszawa Włochy"/>
    <tag k="addr:housenumber" v="17"/>
    <tag k="addr:street" v="Lechicka"/>
    <tag k="source" v="http://ump.waw.pl/ retrieved 11:07:14 02/24/09 (UMP-Warszawa/src/WARSZAWA_WLOCHY.ulice.txt)"/>
  </node>
  <node id="414638465" version="2" timestamp="2011-06-17T10:09:49Z" uid="37370" user="amateja" changeset="8463024" lat="52.1916421" lon="20.9660309"/>
  <node id="414638467" version="1" timestamp="2009-06-02T09:49:26Z" uid="20587" user="balrog-kun" changeset="1402520" lat="52.1812441" lon="20.9772731">
    <tag k="addr:city" v="Warszawa@Warszawa Włochy"/>
    <tag k="addr:housenumber" v="1"/>
    <tag k="addr:street" v="Żwirki i Wigury"/>
    <tag k="note" v="TODO"/>
    <tag k="source" v="http://ump.waw.pl/ retrieved 11:07:14 02/24/09 (UMP-Warszawa/src/WARSZAWA_WLOCHY.ulice.txt)"/>
  </node>
  <node id="414638467" version="2" timestamp="2010-06-24T02:52:31Z" uid="20587" user="balrog-kun" changeset="5063204" lat="52.1812441" lon="20.9772731">
    <tag k="addr:city" v="Warszawa@Warszawa Włochy"/>
    <tag k="addr:housenumber" v="1"/>
    <tag k="addr:street" v="Żwirki i Wigury"/>
    <tag k="note" v="TODO"/>
    <tag k="source" v="http://ump.waw.pl/ retrieved 11:07:14 02/24/09 (UMP-Warszawa/src/WARSZAWA_WLOCHY.ulice.txt)"/>
  </node>
  <node id="414638470" version="1" timestamp="2009-06-02T09:49:26Z" uid="20587" user="balrog-kun" changeset="1402520" lat="52.1829909" lon="20.9505535">
    <tag k="addr:city" v="Warszawa@Warszawa Włochy"/>
    <tag k="addr:housenumber" v="169"/>
    <tag k="addr:street" v="aleja Krakowska"/>
    <tag k="source" v="http://ump.waw.pl/ retrieved 11:07:14 02/24/09 (UMP-Warszawa/src/WARSZAWA_WLOCHY.ulice.txt)"/>
  </node>
  <node id="414638470" version="2" timestamp="2009-06-06T15:45:48Z" uid="20587" user="balrog-kun" changeset="1439673" lat="52.1822321" lon="20.9496721">
    <tag k="addr:city" v="Warszawa@Warszawa Włochy"/>
    <tag k="addr:housenumber" v="169"/>
    <tag k="addr:street" v="aleja Krakowska"/>
    <tag k="source" v="http://ump.waw.pl/ retrieved 11:07:14 02/24/09 (UMP-Warszawa/src/WARSZAWA_WLOCHY.ulice.txt)"/>
  </node>
  <node id="414638470" version="3" timestamp="2011-12-03T09:14:45Z" uid="441027" user="muzzy" changeset="10022896" lat="52.1822321" lon="20.9496721">
    <tag k="addr:city" v="Warszawa@Warszawa Włochy"/>
    <tag k="addr:housenumber" v="169"/>
    <tag k="addr:street" v="Aleja Krakowska"/>
    <tag k="source" v="http://ump.waw.pl/ retrieved 11:07:14 02/24/09 (UMP-Warszawa/src/WARSZAWA_WLOCHY.ulice.txt)"/>
  </node>
  <node id="414638473" version="1" timestamp="2009-06-02T09:49:26Z" uid="20587" user="balrog-kun" changeset="1402520" lat="52.1909089" lon="20.9691013">
    <tag k="addr:city" v="Warszawa@Warszawa Włochy"/>
    <tag k="addr:housenumber" v="1"/>
    <tag k="addr:street" v="Lechicka"/>
    <tag k="source" v="http://ump.waw.pl/ retrieved 11:07:14 02/24/09 (UMP-Warszawa/src/WARSZAWA_WLOCHY.ulice.txt)"/>
  </node>
  <node id="414638473" version="2" timestamp="2011-06-17T10:05:51Z" uid="37370" user="amateja" changeset="8463024" lat="52.1909089" lon="20.9691013"/>
  <node id="414638475" version="1" timestamp="2009-06-02T09:49:26Z" uid="20587" user="balrog-kun" changeset="1402520" lat="52.1657185" lon="20.9319972">
    <tag k="addr:city" v="Warszawa@Warszawa Włochy"/>
    <tag k="addr:housenumber" v="21"/>
    <tag k="addr:street" v="aleja Krakowska"/>
    <tag k="source" v="http://ump.waw.pl/ retrieved 11:07:14 02/24/09 (UMP-Warszawa/src/WARSZAWA_WLOCHY.ulice.txt)"/>
  </node>
  <node id="414638475" version="2" timestamp="2011-12-03T09:14:59Z" uid="441027" user="muzzy" changeset="10022896" lat="52.1657185" lon="20.9319972">
    <tag k="addr:city" v="Warszawa@Warszawa Włochy"/>
    <tag k="addr:housenumber" v="21"/>
    <tag k="addr:street" v="Aleja Krakowska"/>
    <tag k="source" v="http://ump.waw.pl/ retrieved 11:07:14 02/24/09 (UMP-Warszawa/src/WARSZAWA_WLOCHY.ulice.txt)"/>
  </node>
  <node id="414638479" version="1" timestamp="2009-06-02T09:49:26Z" uid="20587" user="balrog-kun" changeset="1402520" lat="52.1939696" lon="20.9607612">
    <tag k="addr:city" v="Warszawa@Warszawa Włochy"/>
    <tag k="addr:housenumber" v="267"/>
    <tag k="addr:street" v="aleja Krakowska"/>
    <tag k="source" v="http://ump.waw.pl/ retrieved 11:07:14 02/24/09 (UMP-Warszawa/src/WARSZAWA_WLOCHY.ulice.txt)"/>
  </node>
  <node id="414638479" version="2" timestamp="2011-05-17T09:36:01Z" uid="37370" user="amateja" changeset="8169803" lat="52.1939696" lon="20.9607612"/>
  <node id="414638483" version="1" timestamp="2009-06-02T09:49:26Z" uid="20587" user="balrog-kun" changeset="1402520" lat="52.1926065" lon="20.9609407">
    <tag k="addr:city" v="Warszawa@Warszawa Włochy"/>
    <tag k="addr:housenumber" v="264"/>
    <tag k="addr:street" v="aleja Krakowska"/>
    <tag k="source" v="http://ump.waw.pl/ retrieved 11:07:14 02/24/09 (UMP-Warszawa/src/WARSZAWA_WLOCHY.ulice.txt)"/>
  </node>
  <node id="414638483" version="2" timestamp="2011-03-14T08:42:59Z" uid="37370" user="amateja" changeset="7553865" lat="52.1926065" lon="20.9609407">
    <tag k="addr:city" v="Warszawa@Warszawa Włochy"/>
    <tag k="addr:housenumber" v="264"/>
    <tag k="addr:street" v="aleja Krakowska"/>
    <tag k="source" v="http://ump.waw.pl/ retrieved 11:07:14 02/24/09 (UMP-Warszawa/src/WARSZAWA_WLOCHY.ulice.txt)"/>
  </node>
  <node id="414638487" version="1" timestamp="2009-06-02T09:49:26Z" uid="20587" user="balrog-kun" changeset="1402520" lat="52.1731132" lon="20.9399388">
    <tag k="addr:city" v="Warszawa@Warszawa Włochy"/>
    <tag k="addr:housenumber" v="79"/>
    <tag k="addr:street" v="aleja Krakowska"/>
    <tag k="source" v="http://ump.waw.pl/ retrieved 11:07:14 02/24/09 (UMP-Warszawa/src/WARSZAWA_WLOCHY.ulice.txt)"/>
  </node>
  <node id="414638487" version="2" timestamp="2011-12-03T09:15:44Z" uid="441027" user="muzzy" changeset="10022896" lat="52.1731132" lon="20.9399388">
    <tag k="addr:city" v="Warszawa@Warszawa Włochy"/>
    <tag k="addr:housenumber" v="79"/>
    <tag k="addr:street" v="Aleja Krakowska"/>
    <tag k="source" v="http://ump.waw.pl/ retrieved 11:07:14 02/24/09 (UMP-Warszawa/src/WARSZAWA_WLOCHY.ulice.txt)"/>
  </node>
  <node id="414638492" version="1" timestamp="2009-06-02T09:49:26Z" uid="20587" user="balrog-kun" changeset="1402520" lat="52.1967873" lon="20.9632273">
    <tag k="addr:city" v="Warszawa@Warszawa Włochy"/>
    <tag k="addr:housenumber" v="291"/>
    <tag k="addr:street" v="aleja Krakowska"/>
    <tag k="source" v="http://ump.waw.pl/ retrieved 11:07:14 02/24/09 (UMP-Warszawa/src/WARSZAWA_WLOCHY.ulice.txt)"/>
  </node>
  <node id="414638492" version="2" timestamp="2011-12-03T09:15:09Z" uid="441027" user="muzzy" changeset="10022896" lat="52.1967873" lon="20.9632273">
    <tag k="addr:city" v="Warszawa@Warszawa Włochy"/>
    <tag k="addr:housenumber" v="291"/>
    <tag k="addr:street" v="Aleja Krakowska"/>
    <tag k="source" v="http://ump.waw.pl/ retrieved 11:07:14 02/24/09 (UMP-Warszawa/src/WARSZAWA_WLOCHY.ulice.txt)"/>
  </node>
  <node id="414630722" version="4" timestamp="2012-05-16T10:39:07Z" uid="195713" user="_torsten_" changeset="11612949" lat="50.7897843" lon="11.4609793"/>
  <node id="414630730" version="3" timestamp="2012-05-16T12:37:49Z" uid="195713" user="_torsten_" changeset="11613092" lat="50.7889433" lon="11.4622359"/>
  <node id="414630787" version="3" timestamp="2012-05-16T12:37:49Z" uid="195713" user="_torsten_" changeset="11613092" lat="50.7817588" lon="11.4733775"/>
  <node id="414630788" version="3" timestamp="2012-05-16T12:37:48Z" uid="195713" user="_torsten_" changeset="11613092" lat="50.7817559" lon="11.4742489"/>
  <node id="414631332" version="3" timestamp="2012-05-16T12:37:47Z" uid="195713" user="_torsten_" changeset="11613092" lat="50.7817326" lon="11.4748776"/>
  <node id="414631334" version="3" timestamp="2012-05-16T12:37:52Z" uid="195713" user="_torsten_" changeset="11613092" lat="50.7816846" lon="11.4753074"/>
  <node id="414633011" version="5" timestamp="2012-07-19T07:04:19Z" uid="15188" user="Polyglot" changeset="12311050" lat="51.0178404" lon="4.1214036">
    <tag k="railway" v="level_crossing"/>
  </node>
  <node id="414633012" version="4" timestamp="2012-07-19T07:04:19Z" uid="15188" user="Polyglot" changeset="12311050" lat="51.0159227" lon="4.1200678"/>
  <node id="414633013" version="3" timestamp="2012-07-19T07:04:19Z" uid="15188" user="Polyglot" changeset="12311050" lat="51.015605" lon="4.1193453"/>
  <node id="414633014" version="4" timestamp="2012-07-19T07:04:19Z" uid="15188" user="Polyglot" changeset="12311050" lat="51.0152377" lon="4.1186324"/>
  <node id="414633015" version="4" timestamp="2012-07-19T07:04:19Z" uid="15188" user="Polyglot" changeset="12311050" lat="51.0148283" lon="4.1179933"/>
  <node id="414633567" version="3" timestamp="2012-07-18T19:51:26Z" uid="722137" user="OSMF Redaction Account" changeset="12295736" lat="50.7797645" lon="11.4972609"/>
  <node id="414633573" version="3" timestamp="2012-07-18T19:51:26Z" uid="722137" user="OSMF Redaction Account" changeset="12295736" lat="50.779949" lon="11.49763"/>
  <node id="414635546" version="10" timestamp="2012-07-17T02:53:02Z" uid="722137" user="OSMF Redaction Account" changeset="12255703" lat="48.212449" lon="15.6070997"/>
  <node id="414637967" version="3" timestamp="2012-07-21T15:34:57Z" uid="722137" user="OSMF Redaction Account" changeset="12413626" lat="-32.9535942" lon="151.712104"/>
  <node id="414638157" version="3" timestamp="2012-07-24T21:59:06Z" uid="722137" user="OSMF Redaction Account" changeset="12477436" lat="52.1650715" lon="20.9325567"/>
  <node id="414638162" version="3" timestamp="2012-07-24T21:46:42Z" uid="722137" user="OSMF Redaction Account" changeset="12477247" lat="52.1792938" lon="20.9466478"/>
  <node id="414638170" version="3" timestamp="2012-04-23T09:57:17Z" uid="99386" user="masti" changeset="11393174" lat="52.1899352" lon="20.9821732"/>
  <node id="414638173" version="2" timestamp="2012-07-24T21:46:42Z" uid="722137" user="OSMF Redaction Account" changeset="12477247" lat="52.1795112" lon="20.947199"/>
  <node id="414638177" version="3" timestamp="2012-07-24T21:46:41Z" uid="722137" user="OSMF Redaction Account" changeset="12477247" lat="52.1766523" lon="20.9437536"/>
  <node id="414638184" version="3" timestamp="2012-07-24T21:59:06Z" uid="722137" user="OSMF Redaction Account" changeset="12477436" lat="52.1683884" lon="20.9362417"/>
  <node id="414638187" version="3" timestamp="2012-07-24T21:46:42Z" uid="722137" user="OSMF Redaction Account" changeset="12477247" lat="52.1823299" lon="20.9513047"/>
  <node id="414638194" version="3" timestamp="2012-07-24T21:46:42Z" uid="722137" user="OSMF Redaction Account" changeset="12477247" lat="52.1792263" lon="20.947987"/>
  <node id="414638197" version="3" timestamp="2012-07-24T21:59:07Z" uid="722137" user="OSMF Redaction Account" changeset="12477461" lat="52.1686131" lon="20.9351415"/>
  <node id="414638207" version="3" timestamp="2012-07-24T21:59:06Z" uid="722137" user="OSMF Redaction Account" changeset="12477436" lat="52.1646748" lon="20.9321277"/>
  <node id="414638212" version="3" timestamp="2012-07-24T21:46:42Z" uid="722137" user="OSMF Redaction Account" changeset="12477247" lat="52.1905801" lon="20.9799441"/>
  <node id="414638257" version="3" timestamp="2012-07-24T21:59:08Z" uid="722137" user="OSMF Redaction Account" changeset="12477461" lat="52.1692126" lon="20.9371327"/>
  <node id="414638268" version="3" timestamp="2012-07-24T21:46:42Z" uid="722137" user="OSMF Redaction Account" changeset="12477247" lat="52.1818521" lon="20.9492203"/>
  <node id="414638272" version="3" timestamp="2012-07-24T21:46:43Z" uid="722137" user="OSMF Redaction Account" changeset="12477247" lat="52.1956072" lon="20.9621169"/>
  <node id="414638277" version="3" timestamp="2012-07-02T13:32:16Z" uid="564141" user="Madmaks" changeset="12087334" lat="52.1836009" lon="20.9527911"/>
  <node id="414638280" version="3" timestamp="2012-07-24T21:59:06Z" uid="722137" user="OSMF Redaction Account" changeset="12477436" lat="52.1636733" lon="20.9310444"/>
  <node id="414638285" version="3" timestamp="2012-07-24T21:46:41Z" uid="722137" user="OSMF Redaction Account" changeset="12477247" lat="52.1749115" lon="20.9418751"/>
  <node id="414638288" version="3" timestamp="2012-07-24T21:46:41Z" uid="722137" user="OSMF Redaction Account" changeset="12477247" lat="52.1780946" lon="20.9453512"/>
  <node id="414638297" version="3" timestamp="2012-07-24T21:46:42Z" uid="722137" user="OSMF Redaction Account" changeset="12477247" lat="52.1785233" lon="20.9458185"/>
  <node id="414638302" version="3" timestamp="2012-07-24T21:46:42Z" uid="722137" user="OSMF Redaction Account" changeset="12477247" lat="52.180618" lon="20.9494899"/>
  <node id="414638310" version="3" timestamp="2012-07-24T21:59:08Z" uid="722137" user="OSMF Redaction Account" changeset="12477461" lat="52.1688039" lon="20.9366909"/>
  <node id="414638314" version="4" timestamp="2012-07-24T21:45:46Z" uid="722137" user="OSMF Redaction Account" changeset="12477213" lat="52.1839149" lon="20.9515354"/>
  <node id="414638319" version="4" timestamp="2012-07-24T21:45:46Z" uid="722137" user="OSMF Redaction Account" changeset="12477213" lat="52.1843449" lon="20.952038"/>
  <node id="414638329" version="3" timestamp="2012-07-24T21:59:06Z" uid="722137" user="OSMF Redaction Account" changeset="12477436" lat="52.1642401" lon="20.9304319"/>
  <node id="414638333" version="3" timestamp="2012-06-11T17:19:47Z" uid="99386" user="masti" changeset="11866765" lat="52.1964093" lon="20.9628959"/>
  <node id="414638344" version="4" timestamp="2012-07-24T21:45:46Z" uid="722137" user="OSMF Redaction Account" changeset="12477213" lat="52.1833337" lon="20.9508664"/>
  <node id="414638346" version="4" timestamp="2012-07-24T21:45:46Z" uid="722137" user="OSMF Redaction Account" changeset="12477213" lat="52.1849898" lon="20.9527538"/>
  <node id="414638352" version="2" timestamp="2012-07-24T21:46:42Z" uid="722137" user="OSMF Redaction Account" changeset="12477247" lat="52.1799006" lon="20.9476159"/>
  <node id="414638354" version="3" timestamp="2012-07-24T21:59:06Z" uid="722137" user="OSMF Redaction Account" changeset="12477436" lat="52.165691" lon="20.9332183"/>
  <node id="414638357" version="3" timestamp="2012-07-24T21:46:42Z" uid="722137" user="OSMF Redaction Account" changeset="12477247" lat="52.1881082" lon="20.9557097"/>
  <node id="414638363" version="3" timestamp="2012-07-24T21:59:06Z" uid="722137" user="OSMF Redaction Account" changeset="12477436" lat="52.1640007" lon="20.9314278"/>
  <node id="414638372" version="3" timestamp="2012-07-24T21:46:41Z" uid="722137" user="OSMF Redaction Account" changeset="12477247" lat="52.1696977" lon="20.9376572"/>
  <node id="414638376" version="3" timestamp="2012-07-24T21:59:05Z" uid="722137" user="OSMF Redaction Account" changeset="12477436" lat="52.1633998" lon="20.9307427"/>
  <node id="414638390" version="4" timestamp="2012-07-24T21:45:46Z" uid="722137" user="OSMF Redaction Account" changeset="12477213" lat="52.1853048" lon="20.9530063"/>
  <node id="414638395" version="3" timestamp="2012-07-24T21:46:42Z" uid="722137" user="OSMF Redaction Account" changeset="12477247" lat="52.1878125" lon="20.9554922"/>
  <node id="414638411" version="3" timestamp="2012-07-24T21:46:42Z" uid="722137" user="OSMF Redaction Account" changeset="12477247" lat="52.1896678" lon="20.9570843"/>
  <node id="414638420" version="3" timestamp="2012-07-24T21:59:06Z" uid="722137" user="OSMF Redaction Account" changeset="12477436" lat="52.1661251" lon="20.9337948"/>
  <node id="414638431" version="3" timestamp="2012-07-24T21:46:42Z" uid="722137" user="OSMF Redaction Account" changeset="12477247" lat="52.1802857" lon="20.9475905"/>
  <node id="414638436" version="4" timestamp="2012-07-24T21:45:46Z" uid="722137" user="OSMF Redaction Account" changeset="12477213" lat="52.1847241" lon="20.9524375"/>
  <node id="414638440" version="3" timestamp="2012-07-24T21:46:41Z" uid="722137" user="OSMF Redaction Account" changeset="12477247" lat="52.1754523" lon="20.9454388"/>
  <node id="414638444" version="3" timestamp="2012-07-24T21:46:41Z" uid="722137" user="OSMF Redaction Account" changeset="12477247" lat="52.1771361" lon="20.9443367"/>
  <node id="414638447" version="3" timestamp="2012-07-24T21:59:06Z" uid="722137" user="OSMF Redaction Account" changeset="12477436" lat="52.1661355" lon="20.9324272"/>
  <node id="414638449" version="3" timestamp="2012-07-24T21:46:42Z" uid="722137" user="OSMF Redaction Account" changeset="12477247" lat="52.1892923" lon="20.9567974"/>
  <node id="414638457" version="3" timestamp="2012-07-24T21:59:06Z" uid="722137" user="OSMF Redaction Account" changeset="12477436" lat="52.1679006" lon="20.9342818"/>
  <node id="414638460" version="3" timestamp="2012-07-24T21:46:41Z" uid="722137" user="OSMF Redaction Account" changeset="12477247" lat="52.1711001" lon="20.9393148"/>
  <node id="414638463" version="4" timestamp="2012-07-24T21:45:46Z" uid="722137" user="OSMF Redaction Account" changeset="12477213" lat="52.1826991" lon="20.9501777"/>
  <node id="414638470" version="4" timestamp="2012-07-24T21:45:46Z" uid="722137" user="OSMF Redaction Account" changeset="12477213" lat="52.1822321" lon="20.9496721"/>
  <node id="414638475" version="3" timestamp="2012-07-24T21:59:06Z" uid="722137" user="OSMF Redaction Account" changeset="12477436" lat="52.1657185" lon="20.9319972"/>
  <node id="414638487" version="3" timestamp="2012-07-24T21:46:41Z" uid="722137" user="OSMF Redaction Account" changeset="12477247" lat="52.1731132" lon="20.9399388"/>
  <node id="414638492" version="3" timestamp="2012-06-11T17:19:47Z" uid="99386" user="masti" changeset="11866765" lat="52.1967873" lon="20.9632273"/>
</osm>
