<?xml version='1.0' encoding='UTF-8'?>
<osm version="0.6" generator="libosmium/2.20.0">
  <node id="415302640" version="2" timestamp="2010-08-22T21:19:13Z" uid="9581" user="Lobelt" changeset="5566018" lat="50.8005381" lon="11.5922641">
    <tag k="addr:city" v="Kahla"/>
    <tag k="addr:housenumber" v="1"/>
    <tag k="addr:postcode" v="07768"/>
    <tag k="addr:street" v="Brückenstraße"/>
    <tag k="amenity" v="restaurant"/>
    <tag k="name" v="Thüringer Hof"/>
    <tag k="phone" v="036424 22337"/>
    <tag k="tourism" v="guest_house"/>
  </node>
  <node id="415302640" version="3" timestamp="2010-12-04T17:04:36Z" uid="64673" user="olanis2" changeset="6540358" lat="50.8005702" lon="11.5924099">
    <tag k="addr:city" v="Kahla"/>
    <tag k="addr:housenumber" v="1"/>
    <tag k="addr:postcode" v="07768"/>
    <tag k="addr:street" v="Brückenstraße"/>
    <tag k="amenity" v="restaurant"/>
    <tag k="name" v="Thüringer Hof"/>
    <tag k="phone" v="036424 22337"/>
    <tag k="tourism" v="guest_house"/>
  </node>
  <node id="415306039" version="2" timestamp="2010-08-29T11:26:18Z" uid="33382" user="de_muur" changeset="5624577" lat="53.6082552" lon="10.2860525"/>
  <node id="415306039" version="3" timestamp="2012-03-26T20:54:44Z" uid="349191" user="Glühwürmchen" changeset="11109456" lat="53.6082552" lon="10.2860525"/>
  <node id="415307076" version="1" timestamp="2009-06-03T11:34:46Z" uid="67896" user="mrpulley" changeset="1412029" lat="-33.3168555" lon="149.0761229">
    <tag k="highway" v="gate"/>
    <tag k="note" v="private road beyond here"/>
    <tag k="source" v="GPS"/>
  </node>
  <node id="415307076" version="2" timestamp="2009-06-05T08:50:51Z" uid="74617" user="JohnSmith" changeset="1427539" lat="-33.3168555" lon="149.0761229">
    <tag k="barrier" v="gate"/>
    <tag k="note" v="private road beyond here"/>
    <tag k="source" v="survey"/>
  </node>
  <node id="415308295" version="2" timestamp="2009-09-22T05:58:48Z" uid="4467" user="Rosscoe" changeset="2565302" lat="-33.2962539" lon="149.0821997">
    <tag k="highway" v="turning_circle"/>
    <tag k="source" v="survey"/>
  </node>
  <node id="415308296" version="2" timestamp="2009-09-22T05:58:48Z" uid="4467" user="Rosscoe" changeset="2565302" lat="-33.2954432" lon="149.0829465">
    <tag k="highway" v="turning_circle"/>
    <tag k="source" v="survey"/>
  </node>
  <node id="415308678" version="2" timestamp="2010-05-04T20:46:19Z" uid="9581" user="Lobelt" changeset="4608120" lat="50.8498465" lon="7.9527298">
    <tag k="ele" v="325"/>
    <tag k="power" v="tower"/>
  </node>
  <node id="415308678" version="3" timestamp="2010-12-11T14:15:26Z" uid="68997" user="StefanT" changeset="6624603" lat="50.8497502" lon="7.9524439">
    <tag k="ele" v="325"/>
    <tag k="power" v="tower"/>
  </node>
  <node id="415309119" version="2" timestamp="2009-09-22T05:58:46Z" uid="4467" user="Rosscoe" changeset="2565302" lat="-33.2961894" lon="149.0845429">
    <tag k="highway" v="turning_circle"/>
    <tag k="source" v="survey"/>
  </node>
  <node id="415309121" version="2" timestamp="2009-09-22T05:58:47Z" uid="4467" user="Rosscoe" changeset="2565302" lat="-33.2968852" lon="149.0850064">
    <tag k="highway" v="turning_circle"/>
    <tag k="source" v="survey"/>
  </node>
  <node id="415309124" version="2" timestamp="2009-09-22T05:58:47Z" uid="4467" user="Rosscoe" changeset="2565302" lat="-33.2968924" lon="149.0843369">
    <tag k="highway" v="turning_circle"/>
    <tag k="source" v="survey"/>
  </node>
  <node id="415309126" version="2" timestamp="2009-09-24T23:49:31Z" uid="4467" user="Rosscoe" changeset="2611138" lat="-33.2964261" lon="149.0863025">
    <tag k="highway" v="turning_circle"/>
  </node>
  <node id="415302640" version="4" timestamp="2012-07-18T14:48:34Z" uid="722137" user="OSMF Redaction Account" changeset="12285599" lat="50.8005702" lon="11.5924099">
    <tag k="amenity" v="restaurant"/>
  </node>
  <node id="415307076" version="3" timestamp="2012-07-19T14:47:01Z" uid="722137" user="OSMF Redaction Account" changeset="12331990" lat="-33.3168555" lon="149.0761229">
    <tag k="highway" v="gate"/>
    <tag k="note" v="private road beyond here"/>
    <tag k="source" v="GPS"/>
  </node>
  <node id="415307076" version="4" timestamp="2012-08-05T13:39:04Z" uid="67896" user="mrpulley" changeset="12620634" lat="-33.3168555" lon="149.0761229">
    <tag k="barrier" v="gate"/>
    <tag k="note" v="private road beyond here"/>
    <tag k="source" v="GPS"/>
  </node>
  <node id="415308295" version="3" timestamp="2012-07-19T14:47:02Z" uid="722137" user="OSMF Redaction Account" changeset="12331990" lat="-33.2962539" lon="149.0821997">
    <tag k="highway" v="turning_circle"/>
    <tag k="source" v="GPS"/>
  </node>
  <node id="415308296" version="3" timestamp="2012-07-19T14:47:03Z" uid="722137" user="OSMF Redaction Account" changeset="12331990" lat="-33.2954432" lon="149.0829465">
    <tag k="highway" v="turning_circle"/>
    <tag k="source" v="GPS"/>
  </node>
  <node id="415309119" version="3" timestamp="2012-07-19T14:47:02Z" uid="722137" user="OSMF Redaction Account" changeset="12331990" lat="-33.2961894" lon="149.0845429">
    <tag k="highway" v="turning_circle"/>
    <tag k="source" v="GPS"/>
  </node>
  <node id="415309121" version="3" timestamp="2012-07-19T14:47:02Z" uid="722137" user="OSMF Redaction Account" changeset="12331990" lat="-33.2968852" lon="149.0850064">
    <tag k="highway" v="turning_circle"/>
    <tag k="source" v="GPS"/>
  </node>
  <node id="415309124" version="3" timestamp="2012-07-19T14:47:02Z" uid="722137" user="OSMF Redaction Account" changeset="12331990" lat="-33.2968924" lon="149.0843369">
    <tag k="highway" v="turning_circle"/>
    <tag k="source" v="GPS"/>
  </node>
</osm>
