<?xml version='1.0' encoding='UTF-8'?>
<osm version="0.6" generator="libosmium/2.20.0">
  <node id="420901074" version="2" timestamp="2010-07-29T09:03:16Z" uid="74617" user="JohnSmith" changeset="5344848" lat="49.1356743" lon="10.1460961">
    <tag k="amenity" v="emergency_phone"/>
    <tag k="emergency" v="phone"/>
  </node>
  <node id="420902462" version="4" timestamp="2009-07-26T01:29:46Z" uid="18775" user="drlizau" changeset="1939917" lat="42.4679816" lon="21.4647776">
    <tag k="building" v="dormitory"/>
    <tag k="name" v="Konvikt"/>
  </node>
  <node id="420902462" version="5" timestamp="2011-09-07T18:05:36Z" uid="135169" user="Edoniti" changeset="9239215" lat="42.4679545" lon="21.464391">
    <tag k="addr:city" v="Gjilan"/>
    <tag k="addr:country" v="Kosova"/>
    <tag k="addr:postcode" v="60000"/>
    <tag k="building" v="dormitory"/>
    <tag k="name" v="Konvikt"/>
  </node>
  <node id="420902462" version="6" timestamp="2012-03-29T05:23:22Z" uid="2680" user="xylome" changeset="11133724" lat="42.4679545" lon="21.464391">
    <tag k="addr:city" v="Gjilan"/>
    <tag k="addr:country" v="XK"/>
    <tag k="addr:postcode" v="60000"/>
    <tag k="building" v="dormitory"/>
    <tag k="name" v="Konvikt"/>
  </node>
  <node id="420902465" version="4" timestamp="2009-07-26T01:30:05Z" uid="18775" user="drlizau" changeset="1939917" lat="42.4683679" lon="21.4645973"/>
  <node id="420901074" version="3" timestamp="2012-07-17T03:16:09Z" uid="722137" user="OSMF Redaction Account" changeset="12255942" lat="49.1356743" lon="10.1460961">
    <tag k="amenity" v="emergency_phone"/>
  </node>
</osm>
