<?xml version='1.0' encoding='UTF-8'?>
<osm version="0.6" generator="libosmium/2.20.0">
  <node id="421194141" version="2" timestamp="2010-04-11T04:48:02Z" uid="20587" user="balrog-kun" changeset="4389130" lat="50.8240732" lon="15.8728352">
    <tag k="name" v="Gruszków"/>
    <tag k="place" v="village"/>
  </node>
  <node id="421194142" version="2" timestamp="2010-04-11T04:48:02Z" uid="20587" user="balrog-kun" changeset="4389130" lat="50.8368177" lon="15.8896636">
    <tag k="name" v="Strużnica"/>
    <tag k="place" v="village"/>
  </node>
  <node id="421194142" version="3" timestamp="2010-04-27T04:21:03Z" uid="30632" user="antblant" changeset="4537915" lat="50.8368177" lon="15.8896636">
    <tag k="name" v="Strużnica"/>
    <tag k="place" v="village"/>
    <tag k="teryt:simc" v="0191454"/>
  </node>
  <node id="421194144" version="2" timestamp="2010-04-11T04:48:02Z" uid="20587" user="balrog-kun" changeset="4389130" lat="50.8649343" lon="15.7947836">
    <tag k="name" v="Łomnica"/>
    <tag k="place" v="village"/>
  </node>
  <node id="421194144" version="3" timestamp="2012-03-28T21:47:45Z" uid="155761" user="Dusche" changeset="11131758" lat="50.8649343" lon="15.7947836">
    <tag k="name" v="Łomnica"/>
    <tag k="name:de" v="Lomnitz"/>
    <tag k="place" v="village"/>
  </node>
  <node id="421194149" version="2" timestamp="2010-04-11T04:48:02Z" uid="20587" user="balrog-kun" changeset="4389130" lat="50.8208648" lon="15.723805">
    <tag k="name" v="Sosnówka"/>
    <tag k="place" v="village"/>
  </node>
  <node id="421194908" version="2" timestamp="2011-01-16T07:34:16Z" uid="4467" user="Rosscoe" changeset="6984597" lat="-33.9635197" lon="137.7144102">
    <tag k="name" v="Toy Kingdom"/>
    <tag k="shop" v="toys"/>
  </node>
  <node id="421196532" version="2" timestamp="2011-01-16T07:34:16Z" uid="4467" user="Rosscoe" changeset="6984597" lat="-33.9634698" lon="137.714599">
    <tag k="name" v="DJ Music"/>
    <tag k="shop" v="musical_instrument"/>
  </node>
  <node id="421199088" version="2" timestamp="2011-01-16T07:34:19Z" uid="4467" user="Rosscoe" changeset="6984597" lat="-33.9633773" lon="137.7149252">
    <tag k="name" v="Red Sky Computers"/>
    <tag k="shop" v="computer"/>
  </node>
  <node id="421194141" version="3" timestamp="2012-05-13T13:11:28Z" uid="77951" user="Yeti Schneemensch" changeset="11585670" lat="50.8240732" lon="15.8728352">
    <tag k="name" v="Gruszków"/>
    <tag k="name:de" v="Bärndorf"/>
    <tag k="place" v="village"/>
  </node>
  <node id="421194142" version="4" timestamp="2012-05-13T13:11:28Z" uid="77951" user="Yeti Schneemensch" changeset="11585670" lat="50.8368177" lon="15.8896636">
    <tag k="name" v="Strużnica"/>
    <tag k="name:de" v="Neudorf"/>
    <tag k="place" v="village"/>
    <tag k="teryt:simc" v="0191454"/>
  </node>
  <node id="421194908" version="3" timestamp="2012-07-19T10:03:49Z" uid="722137" user="OSMF Redaction Account" changeset="12317429" lat="-33.9635197" lon="137.7144102">
    <tag k="name" v="Toy Kingdom"/>
  </node>
  <node id="421196532" version="3" timestamp="2012-07-19T10:03:49Z" uid="722137" user="OSMF Redaction Account" changeset="12317429" lat="-33.9634698" lon="137.714599">
    <tag k="name" v="DJ Music"/>
  </node>
  <node id="421199088" version="3" timestamp="2012-07-19T10:03:50Z" uid="722137" user="OSMF Redaction Account" changeset="12317429" lat="-33.9633773" lon="137.7149252">
    <tag k="name" v="Red Sky Computers"/>
  </node>
</osm>
