<?xml version='1.0' encoding='UTF-8'?>
<osm version="0.6" generator="libosmium/2.20.0">
  <node id="421942233" version="1" timestamp="2009-06-16T18:57:08Z" uid="36809" user="pfoten_weg_!_" changeset="1538296" lat="43.788997" lon="6.157642">
    <tag k="created_by" v="RambaZamba"/>
    <tag k="name" v="RMC Info - Stromversorgungstation"/>
    <tag k="note" v="RMC Info - Stromversorgungstation"/>
    <tag k="power" v="generator"/>
    <tag k="source" v="survey"/>
  </node>
  <node id="421942233" version="2" timestamp="2009-06-16T19:01:40Z" uid="36809" user="pfoten_weg_!_" changeset="1538349" lat="43.788997" lon="6.157642">
    <tag k="created_by" v="RambaZamba"/>
    <tag k="name" v="RMC Info - Stromversorgungstation"/>
    <tag k="power" v="generator"/>
    <tag k="source" v="survey"/>
  </node>
  <node id="421942233" version="3" timestamp="2009-06-16T19:17:47Z" uid="36809" user="pfoten_weg_!_" changeset="1538527" lat="43.788997" lon="6.157642">
    <tag k="created_by" v="RambaZamba"/>
    <tag k="name" v="RMC Info - Stromversorgungstation"/>
    <tag k="power" v="generator"/>
    <tag k="source" v="survey"/>
  </node>
  <node id="421942236" version="1" timestamp="2009-06-16T18:57:08Z" uid="36809" user="pfoten_weg_!_" changeset="1538296" lat="43.794316" lon="6.1521577">
    <tag k="created_by" v="RambaZamba"/>
    <tag k="name" v="RMC"/>
    <tag k="source" v="survey"/>
    <tag k="tourism" v="viewpoint"/>
  </node>
  <node id="421942236" version="2" timestamp="2009-06-16T19:01:39Z" uid="36809" user="pfoten_weg_!_" changeset="1538349" lat="43.794303" lon="6.1517058">
    <tag k="created_by" v="RambaZamba"/>
    <tag k="name" v="RMC"/>
    <tag k="source" v="survey"/>
    <tag k="tourism" v="viewpoint"/>
  </node>
  <node id="421942236" version="3" timestamp="2009-06-16T19:17:48Z" uid="36809" user="pfoten_weg_!_" changeset="1538527" lat="43.794303" lon="6.1517058">
    <tag k="created_by" v="RambaZamba"/>
    <tag k="name" v="RMC"/>
    <tag k="source" v="survey"/>
    <tag k="tourism" v="viewpoint"/>
  </node>
  <node id="421942239" version="1" timestamp="2009-06-16T18:57:08Z" uid="36809" user="pfoten_weg_!_" changeset="1538296" lat="43.79298" lon="6.149789">
    <tag k="created_by" v="RambaZamba"/>
    <tag k="man_made" v="tower"/>
    <tag k="name" v="RMC Info - Langwellensendemasten - 216 kHz"/>
    <tag k="note" v="RMC Info - Langwellensendemasten - 216 kHz"/>
    <tag k="source" v="survey"/>
  </node>
  <node id="421942239" version="2" timestamp="2009-06-16T19:01:40Z" uid="36809" user="pfoten_weg_!_" changeset="1538349" lat="43.79298" lon="6.149789">
    <tag k="created_by" v="RambaZamba"/>
    <tag k="man_made" v="tower"/>
    <tag k="name" v="RMC Info - Langwellensendemasten - 216 kHz"/>
    <tag k="source" v="survey"/>
  </node>
  <node id="421942239" version="3" timestamp="2009-06-16T19:17:48Z" uid="36809" user="pfoten_weg_!_" changeset="1538527" lat="43.79298" lon="6.149789">
    <tag k="created_by" v="RambaZamba"/>
    <tag k="man_made" v="tower"/>
    <tag k="name" v="RMC Info - Langwellensendemasten - 216 kHz"/>
    <tag k="source" v="survey"/>
  </node>
  <node id="421942242" version="1" timestamp="2009-06-16T18:57:08Z" uid="36809" user="pfoten_weg_!_" changeset="1538296" lat="43.794099" lon="6.151199">
    <tag k="amenity" v="public_building"/>
    <tag k="created_by" v="RambaZamba"/>
    <tag k="man_made" v="sender"/>
    <tag k="name" v="RMC Info - Sender"/>
    <tag k="note" v="RMC Info - Sender"/>
    <tag k="source" v="survey"/>
  </node>
  <node id="421942242" version="2" timestamp="2009-06-16T19:01:39Z" uid="36809" user="pfoten_weg_!_" changeset="1538349" lat="43.794099" lon="6.151199">
    <tag k="amenity" v="public_building"/>
    <tag k="created_by" v="RambaZamba"/>
    <tag k="man_made" v="sender"/>
    <tag k="name" v="RMC Info - Sender"/>
    <tag k="source" v="survey"/>
  </node>
  <node id="421942242" version="3" timestamp="2009-06-16T19:17:48Z" uid="36809" user="pfoten_weg_!_" changeset="1538527" lat="43.794099" lon="6.151199">
    <tag k="amenity" v="public_building"/>
    <tag k="created_by" v="RambaZamba"/>
    <tag k="man_made" v="sender"/>
    <tag k="name" v="RMC Info - Sender"/>
    <tag k="source" v="survey"/>
  </node>
  <node id="421942244" version="1" timestamp="2009-06-16T18:57:08Z" uid="36809" user="pfoten_weg_!_" changeset="1538296" lat="43.798383" lon="6.162196">
    <tag k="created_by" v="RambaZamba"/>
    <tag k="man_made" v="tower"/>
    <tag k="name" v="RMC Info - Mittelwelen Sendemasten"/>
    <tag k="note" v="RMC Info - Mittelwelen Sendemasten"/>
    <tag k="source" v="survey"/>
  </node>
  <node id="421942244" version="2" timestamp="2009-06-16T19:01:39Z" uid="36809" user="pfoten_weg_!_" changeset="1538349" lat="43.798383" lon="6.162196">
    <tag k="created_by" v="RambaZamba"/>
    <tag k="man_made" v="tower"/>
    <tag k="name" v="RMC Info - Mittelwelen Sendemasten"/>
    <tag k="source" v="survey"/>
  </node>
  <node id="421942244" version="3" timestamp="2009-06-16T19:17:48Z" uid="36809" user="pfoten_weg_!_" changeset="1538527" lat="43.798383" lon="6.162196">
    <tag k="created_by" v="RambaZamba"/>
    <tag k="man_made" v="tower"/>
    <tag k="name" v="RMC Info - Mittelwelen Sendemasten"/>
    <tag k="source" v="survey"/>
  </node>
  <node id="421945888" version="1" timestamp="2009-06-16T19:01:39Z" uid="36809" user="pfoten_weg_!_" changeset="1538349" lat="43.7935215" lon="6.1586258">
    <tag k="created_by" v="RambaZamba"/>
    <tag k="man_made" v="tower"/>
    <tag k="name" v="RMC Info - Langwellensendemast - 216 kHz (Reserve)"/>
    <tag k="source" v="survey"/>
  </node>
  <node id="421945888" version="2" timestamp="2009-06-16T19:17:47Z" uid="36809" user="pfoten_weg_!_" changeset="1538527" lat="43.7935215" lon="6.1586258">
    <tag k="created_by" v="RambaZamba"/>
    <tag k="man_made" v="tower"/>
    <tag k="name" v="RMC Info - Langwellensendemast - 216 kHz (Reserve)"/>
    <tag k="source" v="survey"/>
  </node>
</osm>
