<?xml version='1.0' encoding='UTF-8'?>
<osm version="0.6" generator="libosmium/2.20.0">
  <node id="422435746" version="1" timestamp="2009-06-17T02:31:59Z" uid="110593" user="esetzer" changeset="1541211" lat="40.6872589" lon="-111.814399">
    <tag k="created_by" v="Merkaartor 0.11"/>
  </node>
  <node id="422435746" version="2" timestamp="2009-09-12T06:03:45Z" uid="104930" user="butlerm" changeset="2454038" lat="40.6871709" lon="-111.8146885"/>
  <node id="422435747" version="1" timestamp="2009-06-17T02:31:59Z" uid="110593" user="esetzer" changeset="1541211" lat="40.6872589" lon="-111.8158267">
    <tag k="created_by" v="Merkaartor 0.11"/>
  </node>
  <node id="422435747" version="2" timestamp="2009-09-12T06:03:26Z" uid="104930" user="butlerm" changeset="2454038" lat="40.6871644" lon="-111.8161992"/>
  <node id="422439088" version="1" timestamp="2009-06-17T02:35:07Z" uid="110593" user="esetzer" changeset="1541220" lat="40.7006203" lon="-111.7992183">
    <tag k="created_by" v="Merkaartor 0.11"/>
    <tag k="name" v="Smith&apos;s"/>
    <tag k="shop" v="supermarket"/>
  </node>
  <node id="422439088" version="2" timestamp="2009-10-04T16:19:45Z" uid="104930" user="butlerm" changeset="2739366" lat="40.7007679" lon="-111.7990013">
    <tag k="created_by" v="Merkaartor 0.11"/>
    <tag k="name" v="Smith&apos;s"/>
    <tag k="shop" v="supermarket"/>
  </node>
  <node id="422439089" version="1" timestamp="2009-06-17T02:35:08Z" uid="110593" user="esetzer" changeset="1541220" lat="40.7001845" lon="-111.8000996">
    <tag k="amenity" v="fast_food"/>
    <tag k="created_by" v="Merkaartor 0.11"/>
  </node>
  <node id="422439089" version="2" timestamp="2009-07-27T01:52:38Z" uid="110593" user="esetzer" changeset="1950925" lat="40.7001845" lon="-111.8000996">
    <tag k="amenity" v="fast_food"/>
    <tag k="created_by" v="Merkaartor 0.11"/>
    <tag k="cuisine" v="burger"/>
  </node>
  <node id="422439089" version="3" timestamp="2009-10-04T15:42:41Z" uid="104930" user="butlerm" changeset="2738831" lat="40.7003044" lon="-111.8001207">
    <tag k="amenity" v="fast_food"/>
    <tag k="created_by" v="Merkaartor 0.11"/>
    <tag k="cuisine" v="burger"/>
  </node>
  <node id="422439089" version="4" timestamp="2009-10-04T15:44:29Z" uid="104930" user="butlerm" changeset="2738831" lat="40.7002979" lon="-111.8002409">
    <tag k="amenity" v="fast_food"/>
    <tag k="created_by" v="Merkaartor 0.11"/>
    <tag k="cuisine" v="burger"/>
  </node>
  <node id="422439088" version="3" timestamp="2012-07-18T18:51:00Z" uid="722137" user="OSMF Redaction Account" changeset="12293394" lat="40.7007679" lon="-111.7990013"/>
  <node id="422439089" version="5" timestamp="2012-07-18T18:51:00Z" uid="722137" user="OSMF Redaction Account" changeset="12293394" lat="40.7002979" lon="-111.8002409"/>
  <node id="422439089" version="6" timestamp="2012-07-22T22:41:47Z" uid="8909" user="mvexel" changeset="12441600" lat="40.7002979" lon="-111.8002409">
    <tag k="amenity" v="fast_food"/>
    <tag k="name" v="McDonald&apos;s"/>
    <tag k="operator" v="McDonald&apos;s"/>
  </node>
</osm>
