<?xml version='1.0' encoding='UTF-8'?>
<osm version="0.6" generator="libosmium/2.20.0">
  <node id="426598813" version="4" timestamp="2010-05-25T06:56:50Z" uid="18775" user="drlizau" changeset="4800726" lat="50.8457753" lon="13.4050603">
    <tag k="addr:city" v="Lichtenberg/Erzgeb"/>
    <tag k="addr:housenumber" v="12b"/>
    <tag k="addr:postcode" v="09638"/>
    <tag k="addr:street" v="Dorfstraße"/>
    <tag k="engineer" v="constructional_engineering"/>
    <tag k="fax" v="+49 37323 557005"/>
    <tag k="name" v="Ingenieur- und Bauplanungsbüro Buschmann &amp; Fleischer GbR"/>
    <tag k="office" v="engineer"/>
    <tag k="phone" v="+49 37323 1274"/>
    <tag k="url" v="http://www.ib-bf.de/"/>
  </node>
  <node id="426598813" version="5" timestamp="2010-09-20T14:22:33Z" uid="65148" user="Pirat Michi" changeset="5829507" lat="50.8457753" lon="13.4050603">
    <tag k="addr:city" v="Lichtenberg/Erzgeb"/>
    <tag k="addr:housenumber" v="12b"/>
    <tag k="addr:postcode" v="09638"/>
    <tag k="addr:street" v="Dorfstraße"/>
    <tag k="engineer" v="constructional_engineering"/>
    <tag k="fax" v="+49 37323 557005"/>
    <tag k="name" v="Ingenieur- und Bauplanungsbüro Buschmann &amp; Fleischer GbR"/>
    <tag k="office" v="engineer"/>
    <tag k="phone" v="+49 37323 1274"/>
    <tag k="website" v="http://www.ib-bf.de/"/>
  </node>
  <node id="426598813" version="6" timestamp="2011-02-04T11:41:57Z" uid="40397" user="Zartbitter" changeset="7182269" lat="50.8457753" lon="13.4050604">
    <tag k="addr:city" v="Lichtenberg/Erzgeb"/>
    <tag k="addr:country" v="DE"/>
    <tag k="addr:housenumber" v="12b"/>
    <tag k="addr:postcode" v="09638"/>
    <tag k="addr:street" v="Dorfstraße"/>
    <tag k="engineer" v="constructional_engineering"/>
    <tag k="fax" v="+49 37323 557005"/>
    <tag k="name" v="Ingenieur- und Bauplanungsbüro Buschmann &amp; Fleischer GbR"/>
    <tag k="office" v="engineer"/>
    <tag k="phone" v="+49 37323 1274"/>
    <tag k="website" v="http://www.ib-bf.de/"/>
  </node>
  <node id="426598813" version="7" timestamp="2012-07-18T10:16:35Z" uid="722137" user="OSMF Redaction Account" changeset="12277524" lat="50.8457753" lon="13.4050603">
    <tag k="addr:city" v="Lichtenberg/Erzgeb"/>
    <tag k="addr:country" v="DE"/>
    <tag k="addr:housenumber" v="12b"/>
    <tag k="addr:postcode" v="09638"/>
    <tag k="addr:street" v="Dorfstraße"/>
    <tag k="fax" v="+49 37323 557005"/>
    <tag k="name" v="Ingenieur- und Bauplanungsbüro Buschmann &amp; Fleischer GbR"/>
    <tag k="office" v="constructional_engineering"/>
    <tag k="phone" v="+49 37323 1274"/>
    <tag k="website" v="http://www.ib-bf.de/"/>
  </node>
</osm>
