<?xml version='1.0' encoding='UTF-8'?>
<osm version="0.6" generator="libosmium/2.20.0">
  <node id="428464415" version="2" timestamp="2009-11-03T19:36:28Z" uid="9581" user="Lobelt" changeset="3027526" lat="50.5367296" lon="11.4217063"/>
  <node id="428464415" version="3" timestamp="2012-03-27T12:04:14Z" uid="192395" user="BBO" changeset="11115711" lat="50.5367296" lon="11.4217063"/>
  <node id="428464416" version="2" timestamp="2009-11-03T19:36:28Z" uid="9581" user="Lobelt" changeset="3027526" lat="50.5366294" lon="11.4218367"/>
  <node id="428464416" version="3" timestamp="2012-03-27T12:04:14Z" uid="192395" user="BBO" changeset="11115711" lat="50.5366294" lon="11.4218367"/>
  <node id="428464418" version="2" timestamp="2009-11-03T19:36:27Z" uid="9581" user="Lobelt" changeset="3027526" lat="50.536294" lon="11.4222416"/>
  <node id="428464418" version="3" timestamp="2012-03-27T12:04:14Z" uid="192395" user="BBO" changeset="11115711" lat="50.536294" lon="11.4222416"/>
  <node id="428464419" version="2" timestamp="2009-11-03T19:36:28Z" uid="9581" user="Lobelt" changeset="3027526" lat="50.5362855" lon="11.4223745"/>
  <node id="428464419" version="3" timestamp="2012-03-27T12:04:14Z" uid="192395" user="BBO" changeset="11115711" lat="50.5362855" lon="11.4223745"/>
  <node id="428464421" version="2" timestamp="2009-11-03T19:36:28Z" uid="9581" user="Lobelt" changeset="3027526" lat="50.5364459" lon="11.4225541"/>
  <node id="428464421" version="3" timestamp="2012-03-27T12:04:14Z" uid="192395" user="BBO" changeset="11115711" lat="50.5364459" lon="11.4225541"/>
  <node id="428464422" version="2" timestamp="2009-11-03T19:36:28Z" uid="9581" user="Lobelt" changeset="3027526" lat="50.536795" lon="11.4229349"/>
  <node id="428464422" version="3" timestamp="2012-03-27T12:04:14Z" uid="192395" user="BBO" changeset="11115711" lat="50.536795" lon="11.4229349"/>
  <node id="428464424" version="2" timestamp="2009-11-03T19:36:28Z" uid="9581" user="Lobelt" changeset="3027526" lat="50.5369881" lon="11.4232231"/>
  <node id="428464424" version="3" timestamp="2012-03-27T12:04:14Z" uid="192395" user="BBO" changeset="11115711" lat="50.5369881" lon="11.4232231"/>
  <node id="428464426" version="2" timestamp="2009-11-03T19:36:28Z" uid="9581" user="Lobelt" changeset="3027526" lat="50.53708" lon="11.4234721"/>
  <node id="428464426" version="3" timestamp="2012-03-27T12:04:14Z" uid="192395" user="BBO" changeset="11115711" lat="50.53708" lon="11.4234721"/>
  <node id="428464427" version="2" timestamp="2009-11-03T19:36:28Z" uid="9581" user="Lobelt" changeset="3027526" lat="50.5371736" lon="11.4237054"/>
  <node id="428464427" version="3" timestamp="2012-03-27T12:04:15Z" uid="192395" user="BBO" changeset="11115711" lat="50.5371736" lon="11.4237054"/>
  <node id="428464429" version="2" timestamp="2009-11-03T19:36:28Z" uid="9581" user="Lobelt" changeset="3027526" lat="50.5374734" lon="11.4238857"/>
  <node id="428464429" version="3" timestamp="2012-03-27T12:04:15Z" uid="192395" user="BBO" changeset="11115711" lat="50.5374734" lon="11.4238857"/>
  <node id="428468942" version="2" timestamp="2009-07-19T06:00:29Z" uid="7617" user="Franc" changeset="1869567" lat="-33.8145593" lon="151.0547336">
    <tag k="name" v="The Cheesecake Shop"/>
    <tag k="shop" v="bakery"/>
  </node>
  <node id="428468944" version="2" timestamp="2009-07-19T06:00:29Z" uid="7617" user="Franc" changeset="1869567" lat="-33.8145675" lon="151.0547639">
    <tag k="amenity" v="post_office"/>
    <tag k="name" v="Ermington Post Office"/>
  </node>
  <node id="428468945" version="2" timestamp="2009-07-19T06:00:29Z" uid="7617" user="Franc" changeset="1869567" lat="-33.8145651" lon="151.0548891">
    <tag k="name" v="Nhu Kings Hot Bread"/>
    <tag k="shop" v="bakery"/>
  </node>
  <node id="428468946" version="2" timestamp="2009-07-19T06:00:29Z" uid="7617" user="Franc" changeset="1869567" lat="-33.8145959" lon="151.0549662">
    <tag k="amenity" v="fast_food"/>
    <tag k="name" v="Subway"/>
  </node>
  <node id="428468947" version="2" timestamp="2009-07-19T06:00:29Z" uid="7617" user="Franc" changeset="1869567" lat="-33.8146029" lon="151.0551673">
    <tag k="amenity" v="cafe"/>
    <tag k="name" v="Corroboree Coffee Lounge"/>
  </node>
  <node id="428468958" version="2" timestamp="2010-12-27T10:17:30Z" uid="7617" user="Franc" changeset="6775930" lat="-33.8047875" lon="151.0558721">
    <tag k="amenity" v="restaurant"/>
    <tag k="cuisine" v="chinese"/>
    <tag k="name" v="Yung Shing Restaurant"/>
    <tag k="source" v="survey"/>
  </node>
  <node id="428468962" version="2" timestamp="2010-12-27T10:18:30Z" uid="7617" user="Franc" changeset="6775930" lat="-33.8047237" lon="151.056098">
    <tag k="cuisine" v="bavarian"/>
    <tag k="name" v="Ntinenta Butcher"/>
    <tag k="shop" v="butcher"/>
    <tag k="source" v="survey"/>
  </node>
  <node id="428468964" version="3" timestamp="2010-12-27T10:17:27Z" uid="7617" user="Franc" changeset="6775930" lat="-33.8047037" lon="151.0561556">
    <tag k="amenity" v="cafe"/>
    <tag k="cuisine" v="korean"/>
    <tag k="name" v="Cafe Koong"/>
    <tag k="source" v="survey"/>
  </node>
  <node id="428468966" version="2" timestamp="2010-12-27T10:18:12Z" uid="7617" user="Franc" changeset="6775930" lat="-33.8046911" lon="151.0562055">
    <tag k="name" v="Simplicity Hair Design"/>
    <tag k="shop" v="hairdresser"/>
    <tag k="source" v="survey"/>
  </node>
  <node id="428468968" version="2" timestamp="2010-12-27T10:16:47Z" uid="7617" user="Franc" changeset="6775930" lat="-33.8046605" lon="151.0562631">
    <tag k="name" v="St Vincent De Paul"/>
    <tag k="shop" v="clothes"/>
    <tag k="source" v="survey"/>
  </node>
  <node id="428468942" version="3" timestamp="2012-07-20T07:13:57Z" uid="722137" user="OSMF Redaction Account" changeset="12365678" lat="-33.8144426" lon="151.0547426">
    <tag k="name" v="The Cheesecake Shop"/>
    <tag k="shop" v="bakery"/>
  </node>
  <node id="428468944" version="3" timestamp="2012-07-20T07:13:57Z" uid="722137" user="OSMF Redaction Account" changeset="12365678" lat="-33.8144508" lon="151.0547729">
    <tag k="amenity" v="post_office"/>
    <tag k="name" v="Ermington Post Office"/>
  </node>
  <node id="428468945" version="3" timestamp="2012-07-20T07:13:57Z" uid="722137" user="OSMF Redaction Account" changeset="12365678" lat="-33.8145055" lon="151.054904">
    <tag k="name" v="Nhu Kings Hot Bread"/>
    <tag k="shop" v="bakery"/>
  </node>
  <node id="428468946" version="3" timestamp="2012-07-20T07:13:57Z" uid="722137" user="OSMF Redaction Account" changeset="12365678" lat="-33.8145363" lon="151.0549811">
    <tag k="amenity" v="fast_food"/>
    <tag k="name" v="Subway"/>
  </node>
  <node id="428468947" version="3" timestamp="2012-07-20T07:13:57Z" uid="722137" user="OSMF Redaction Account" changeset="12365678" lat="-33.8145607" lon="151.0551733">
    <tag k="amenity" v="cafe"/>
    <tag k="name" v="Corroboree Coffee Lounge"/>
  </node>
  <node id="428468958" version="3" timestamp="2012-07-20T07:14:23Z" uid="722137" user="OSMF Redaction Account" changeset="12365708" lat="-33.8049283" lon="151.0557691">
    <tag k="amenity" v="restaurant"/>
    <tag k="cuisine" v="chinese"/>
    <tag k="name" v="Yung Shing Restaurant"/>
    <tag k="source" v="survey"/>
  </node>
  <node id="428468958" version="4" timestamp="2012-07-30T11:36:30Z" uid="2585" user="rw_" changeset="12546823" lat="-33.8047166" lon="151.055931">
    <tag k="amenity" v="restaurant"/>
    <tag k="cuisine" v="chinese"/>
    <tag k="name" v="Yung Shing Restaurant"/>
    <tag k="source" v="survey"/>
  </node>
  <node id="428468962" version="3" timestamp="2012-07-20T07:14:23Z" uid="722137" user="OSMF Redaction Account" changeset="12365708" lat="-33.8048645" lon="151.055995">
    <tag k="cuisine" v="bavarian"/>
    <tag k="name" v="Ntinenta Butcher"/>
    <tag k="shop" v="butcher"/>
    <tag k="source" v="survey"/>
  </node>
  <node id="428468962" version="4" timestamp="2012-07-30T11:36:30Z" uid="2585" user="rw_" changeset="12546823" lat="-33.8046528" lon="151.0561569">
    <tag k="cuisine" v="bavarian"/>
    <tag k="name" v="Ntinenta Butcher"/>
    <tag k="shop" v="butcher"/>
    <tag k="source" v="survey"/>
  </node>
  <node id="428468964" version="4" timestamp="2012-07-20T07:14:23Z" uid="722137" user="OSMF Redaction Account" changeset="12365708" lat="-33.8048445" lon="151.0560526">
    <tag k="amenity" v="cafe"/>
    <tag k="cuisine" v="korean"/>
    <tag k="name" v="Cafe Koong"/>
    <tag k="source" v="survey"/>
  </node>
  <node id="428468964" version="5" timestamp="2012-07-30T11:36:30Z" uid="2585" user="rw_" changeset="12546823" lat="-33.8046328" lon="151.0562145">
    <tag k="amenity" v="cafe"/>
    <tag k="cuisine" v="korean"/>
    <tag k="name" v="Cafe Koong"/>
    <tag k="source" v="survey"/>
  </node>
  <node id="428468966" version="3" timestamp="2012-07-20T07:14:23Z" uid="722137" user="OSMF Redaction Account" changeset="12365708" lat="-33.8048319" lon="151.0561025">
    <tag k="name" v="Simplicity Hair Design"/>
    <tag k="shop" v="hairdresser"/>
    <tag k="source" v="survey"/>
  </node>
  <node id="428468966" version="4" timestamp="2012-07-30T11:36:30Z" uid="2585" user="rw_" changeset="12546823" lat="-33.8046202" lon="151.0562644">
    <tag k="name" v="Simplicity Hair Design"/>
    <tag k="shop" v="hairdresser"/>
    <tag k="source" v="survey"/>
  </node>
  <node id="428468968" version="3" timestamp="2012-07-20T07:14:24Z" uid="722137" user="OSMF Redaction Account" changeset="12365708" lat="-33.8048013" lon="151.0561601">
    <tag k="name" v="St Vincent De Paul"/>
    <tag k="shop" v="clothes"/>
    <tag k="source" v="survey"/>
  </node>
  <node id="428468968" version="4" timestamp="2012-07-30T11:36:30Z" uid="2585" user="rw_" changeset="12546823" lat="-33.8045896" lon="151.056322">
    <tag k="name" v="St Vincent De Paul"/>
    <tag k="shop" v="clothes"/>
    <tag k="source" v="survey"/>
  </node>
</osm>
