<?xml version='1.0' encoding='UTF-8'?>
<osm version="0.6" generator="libosmium/2.20.0">
  <node id="428728094" version="2" timestamp="2009-10-19T22:08:55Z" uid="36809" user="pfoten_weg_!_" changeset="2899019" lat="47.7488004" lon="11.7640386">
    <tag k="addr:city" v="Gmund"/>
    <tag k="addr:country" v="DE"/>
    <tag k="addr:housenumber" v="24"/>
    <tag k="addr:postcode" v="83703"/>
    <tag k="addr:street" v="Georg-Stöger-Straße"/>
  </node>
  <node id="428728095" version="2" timestamp="2009-10-19T22:08:55Z" uid="36809" user="pfoten_weg_!_" changeset="2899019" lat="47.7487859" lon="11.7642138">
    <tag k="addr:city" v="Gmund"/>
    <tag k="addr:country" v="DE"/>
    <tag k="addr:housenumber" v="26"/>
    <tag k="addr:postcode" v="83703"/>
    <tag k="addr:street" v="Georg-Stöger-Straße"/>
  </node>
  <node id="428728096" version="2" timestamp="2009-10-19T22:08:56Z" uid="36809" user="pfoten_weg_!_" changeset="2899019" lat="47.7490538" lon="11.764043">
    <tag k="addr:city" v="Gmund"/>
    <tag k="addr:country" v="DE"/>
    <tag k="addr:housenumber" v="39"/>
    <tag k="addr:postcode" v="83703"/>
    <tag k="addr:street" v="Georg-Stöger-Straße"/>
  </node>
  <node id="428728097" version="2" timestamp="2009-10-19T22:08:56Z" uid="36809" user="pfoten_weg_!_" changeset="2899019" lat="47.7490422" lon="11.7642254">
    <tag k="addr:city" v="Gmund"/>
    <tag k="addr:country" v="DE"/>
    <tag k="addr:housenumber" v="41"/>
    <tag k="addr:postcode" v="83703"/>
    <tag k="addr:street" v="Georg-Stöger-Straße"/>
  </node>
  <node id="428728098" version="2" timestamp="2009-10-19T22:08:56Z" uid="36809" user="pfoten_weg_!_" changeset="2899019" lat="47.7488844" lon="11.7642237"/>
  <node id="428728100" version="2" timestamp="2009-10-19T21:20:17Z" uid="36809" user="pfoten_weg_!_" changeset="2898762" lat="47.7492182" lon="11.7635224">
    <tag k="addr:city" v="Ostin"/>
    <tag k="addr:country" v="DE"/>
    <tag k="addr:housenumber" v="2"/>
    <tag k="addr:postcode" v="83703"/>
    <tag k="addr:street" v="Ostiner Höhe"/>
  </node>
  <node id="428728100" version="3" timestamp="2009-10-19T22:08:58Z" uid="36809" user="pfoten_weg_!_" changeset="2899019" lat="47.7492182" lon="11.7635224">
    <tag k="addr:city" v="Ostin"/>
    <tag k="addr:country" v="DE"/>
    <tag k="addr:housenumber" v="2"/>
    <tag k="addr:postcode" v="83703"/>
    <tag k="addr:street" v="Ostiner Höhe"/>
  </node>
  <node id="428728101" version="2" timestamp="2009-10-19T22:08:59Z" uid="36809" user="pfoten_weg_!_" changeset="2899019" lat="47.7492121" lon="11.7634173"/>
  <node id="428728102" version="2" timestamp="2009-10-19T21:20:20Z" uid="36809" user="pfoten_weg_!_" changeset="2898762" lat="47.7495202" lon="11.7634778">
    <tag k="addr:city" v="Ostin"/>
    <tag k="addr:country" v="DE"/>
    <tag k="addr:housenumber" v="3"/>
    <tag k="addr:postcode" v="83703"/>
    <tag k="addr:street" v="Ostiner Höhe"/>
  </node>
  <node id="428728102" version="3" timestamp="2009-10-19T22:08:52Z" uid="36809" user="pfoten_weg_!_" changeset="2899019" lat="47.7495202" lon="11.7634778">
    <tag k="addr:city" v="Ostin"/>
    <tag k="addr:country" v="DE"/>
    <tag k="addr:housenumber" v="3"/>
    <tag k="addr:postcode" v="83703"/>
    <tag k="addr:street" v="Ostiner Höhe"/>
  </node>
  <node id="428728103" version="2" timestamp="2009-10-19T21:20:18Z" uid="36809" user="pfoten_weg_!_" changeset="2898762" lat="47.7487193" lon="11.7628285">
    <tag k="addr:city" v="Ostin"/>
    <tag k="addr:country" v="DE"/>
    <tag k="addr:housenumber" v="31"/>
    <tag k="addr:postcode" v="83703"/>
    <tag k="addr:street" v="Georg-Stöger-Straße"/>
  </node>
  <node id="428728103" version="3" timestamp="2009-10-19T22:09:01Z" uid="36809" user="pfoten_weg_!_" changeset="2899019" lat="47.7487193" lon="11.7628285">
    <tag k="addr:city" v="Ostin"/>
    <tag k="addr:country" v="DE"/>
    <tag k="addr:housenumber" v="31"/>
    <tag k="addr:postcode" v="83703"/>
    <tag k="addr:street" v="Georg-Stöger-Straße"/>
  </node>
  <node id="428728104" version="2" timestamp="2009-10-19T21:20:15Z" uid="36809" user="pfoten_weg_!_" changeset="2898762" lat="47.7484478" lon="11.7627063">
    <tag k="addr:city" v="Ostin"/>
    <tag k="addr:country" v="DE"/>
    <tag k="addr:housenumber" v="29"/>
    <tag k="addr:postcode" v="83703"/>
    <tag k="addr:street" v="Georg-Stöger-Straße"/>
  </node>
  <node id="428728104" version="3" timestamp="2009-10-19T22:09:04Z" uid="36809" user="pfoten_weg_!_" changeset="2899019" lat="47.7484478" lon="11.7627063">
    <tag k="addr:city" v="Ostin"/>
    <tag k="addr:country" v="DE"/>
    <tag k="addr:housenumber" v="29"/>
    <tag k="addr:postcode" v="83703"/>
    <tag k="addr:street" v="Georg-Stöger-Straße"/>
  </node>
  <node id="428728108" version="2" timestamp="2009-10-19T21:20:15Z" uid="36809" user="pfoten_weg_!_" changeset="2898762" lat="47.7482441" lon="11.7626769">
    <tag k="addr:city" v="Ostin"/>
    <tag k="addr:country" v="DE"/>
    <tag k="addr:housenumber" v="27"/>
    <tag k="addr:postcode" v="83703"/>
    <tag k="addr:street" v="Georg-Stöger-Straße"/>
  </node>
  <node id="428728108" version="3" timestamp="2009-10-19T22:09:04Z" uid="36809" user="pfoten_weg_!_" changeset="2899019" lat="47.7482441" lon="11.7626769">
    <tag k="addr:city" v="Ostin"/>
    <tag k="addr:country" v="DE"/>
    <tag k="addr:housenumber" v="27"/>
    <tag k="addr:postcode" v="83703"/>
    <tag k="addr:street" v="Georg-Stöger-Straße"/>
  </node>
  <node id="428728109" version="2" timestamp="2009-10-19T21:20:15Z" uid="36809" user="pfoten_weg_!_" changeset="2898762" lat="47.7480744" lon="11.7627266">
    <tag k="addr:city" v="Ostin"/>
    <tag k="addr:country" v="DE"/>
    <tag k="addr:housenumber" v="25a"/>
    <tag k="addr:postcode" v="83703"/>
    <tag k="addr:street" v="Georg-Stöger-Straße"/>
  </node>
  <node id="428728109" version="3" timestamp="2009-10-19T22:09:05Z" uid="36809" user="pfoten_weg_!_" changeset="2899019" lat="47.7480744" lon="11.7627266">
    <tag k="addr:city" v="Ostin"/>
    <tag k="addr:country" v="DE"/>
    <tag k="addr:housenumber" v="25a"/>
    <tag k="addr:postcode" v="83703"/>
    <tag k="addr:street" v="Georg-Stöger-Straße"/>
  </node>
  <node id="428728111" version="2" timestamp="2009-10-19T21:20:14Z" uid="36809" user="pfoten_weg_!_" changeset="2898762" lat="47.747959" lon="11.7628941">
    <tag k="addr:city" v="Ostin"/>
    <tag k="addr:country" v="DE"/>
    <tag k="addr:housenumber" v="25"/>
    <tag k="addr:postcode" v="83703"/>
    <tag k="addr:street" v="Georg-Stöger-Straße"/>
  </node>
  <node id="428728111" version="3" timestamp="2009-10-19T22:09:05Z" uid="36809" user="pfoten_weg_!_" changeset="2899019" lat="47.747959" lon="11.7628941">
    <tag k="addr:city" v="Ostin"/>
    <tag k="addr:country" v="DE"/>
    <tag k="addr:housenumber" v="25"/>
    <tag k="addr:postcode" v="83703"/>
    <tag k="addr:street" v="Georg-Stöger-Straße"/>
  </node>
  <node id="428728112" version="2" timestamp="2009-10-19T21:20:14Z" uid="36809" user="pfoten_weg_!_" changeset="2898762" lat="47.7481334" lon="11.7630815">
    <tag k="addr:city" v="Ostin"/>
    <tag k="addr:country" v="DE"/>
    <tag k="addr:housenumber" v="16"/>
    <tag k="addr:postcode" v="83703"/>
    <tag k="addr:street" v="Georg-Stöger-Straße"/>
  </node>
  <node id="428728112" version="3" timestamp="2009-10-19T22:09:03Z" uid="36809" user="pfoten_weg_!_" changeset="2899019" lat="47.7481334" lon="11.7630815">
    <tag k="addr:city" v="Ostin"/>
    <tag k="addr:country" v="DE"/>
    <tag k="addr:housenumber" v="16"/>
    <tag k="addr:postcode" v="83703"/>
    <tag k="addr:street" v="Georg-Stöger-Straße"/>
  </node>
  <node id="428728726" version="1" timestamp="2009-06-24T07:10:27Z" uid="74617" user="JohnSmith" changeset="1608579" lat="-26.1661908" lon="152.6483204"/>
  <node id="428728727" version="1" timestamp="2009-06-24T07:10:27Z" uid="74617" user="JohnSmith" changeset="1608579" lat="-26.1689093" lon="152.6473561"/>
  <node id="428728728" version="1" timestamp="2009-06-24T07:10:27Z" uid="74617" user="JohnSmith" changeset="1608579" lat="-26.1719171" lon="152.6441378"/>
  <node id="428728729" version="1" timestamp="2009-06-24T07:10:27Z" uid="74617" user="JohnSmith" changeset="1608579" lat="-26.1711605" lon="152.6458416"/>
  <node id="428728730" version="1" timestamp="2009-06-24T07:10:27Z" uid="74617" user="JohnSmith" changeset="1608579" lat="-26.1633794" lon="152.6408486"/>
  <node id="428728732" version="1" timestamp="2009-06-24T07:10:27Z" uid="74617" user="JohnSmith" changeset="1608579" lat="-26.1636679" lon="152.6409225"/>
  <node id="428728733" version="1" timestamp="2009-06-24T07:10:28Z" uid="74617" user="JohnSmith" changeset="1608579" lat="-26.163837" lon="152.6409298"/>
  <node id="428728734" version="1" timestamp="2009-06-24T07:10:28Z" uid="74617" user="JohnSmith" changeset="1608579" lat="-26.1638933" lon="152.6409963"/>
  <node id="428728735" version="1" timestamp="2009-06-24T07:10:28Z" uid="74617" user="JohnSmith" changeset="1608579" lat="-26.1638104" lon="152.6410665"/>
  <node id="428728736" version="1" timestamp="2009-06-24T07:10:28Z" uid="74617" user="JohnSmith" changeset="1608579" lat="-26.1637342" lon="152.640638"/>
  <node id="428728736" version="2" timestamp="2009-07-04T07:14:50Z" uid="74617" user="JohnSmith" changeset="1727214" lat="-26.1637342" lon="152.640638">
    <tag k="amenity" v="parking"/>
  </node>
  <node id="428728737" version="1" timestamp="2009-06-24T07:10:28Z" uid="74617" user="JohnSmith" changeset="1608579" lat="-26.1619734" lon="152.646597">
    <tag k="highway" v="turning_circle"/>
  </node>
  <node id="428729193" version="2" timestamp="2009-10-19T21:20:19Z" uid="36809" user="pfoten_weg_!_" changeset="2898762" lat="47.7483842" lon="11.7638345">
    <tag k="addr:city" v="Ostin"/>
    <tag k="addr:country" v="DE"/>
    <tag k="addr:housenumber" v="9"/>
    <tag k="addr:postcode" v="83703"/>
    <tag k="addr:street" v="Bgm.-Feichner-Straße"/>
  </node>
  <node id="428729193" version="3" timestamp="2009-10-19T22:08:57Z" uid="36809" user="pfoten_weg_!_" changeset="2899019" lat="47.7483842" lon="11.7638345">
    <tag k="addr:city" v="Ostin"/>
    <tag k="addr:country" v="DE"/>
    <tag k="addr:housenumber" v="9"/>
    <tag k="addr:postcode" v="83703"/>
    <tag k="addr:street" v="Bgm.-Feichner-Straße"/>
  </node>
  <node id="428729194" version="2" timestamp="2009-10-19T21:20:19Z" uid="36809" user="pfoten_weg_!_" changeset="2898762" lat="47.7480749" lon="11.7638787">
    <tag k="addr:city" v="Ostin"/>
    <tag k="addr:country" v="DE"/>
    <tag k="addr:housenumber" v="4"/>
    <tag k="addr:postcode" v="83703"/>
    <tag k="addr:street" v="Bgm.-Feichner-Straße"/>
  </node>
  <node id="428729194" version="3" timestamp="2009-10-19T22:08:57Z" uid="36809" user="pfoten_weg_!_" changeset="2899019" lat="47.7480749" lon="11.7638787">
    <tag k="addr:city" v="Ostin"/>
    <tag k="addr:country" v="DE"/>
    <tag k="addr:housenumber" v="4"/>
    <tag k="addr:postcode" v="83703"/>
    <tag k="addr:street" v="Bgm.-Feichner-Straße"/>
  </node>
  <node id="428728726" version="2" timestamp="2012-07-19T13:27:05Z" uid="722137" user="OSMF Redaction Account" changeset="12329165" lat="-26.1661908" lon="152.6483204"/>
  <node id="428728727" version="2" timestamp="2012-07-19T13:27:00Z" uid="722137" user="OSMF Redaction Account" changeset="12329145" lat="-26.1689093" lon="152.6473561"/>
  <node id="428728728" version="2" timestamp="2012-07-19T13:26:55Z" uid="722137" user="OSMF Redaction Account" changeset="12329145" lat="-26.1719171" lon="152.6441378"/>
  <node id="428728729" version="2" timestamp="2012-07-19T13:26:56Z" uid="722137" user="OSMF Redaction Account" changeset="12329145" lat="-26.1711605" lon="152.6458416"/>
  <node id="428728730" version="2" timestamp="2012-07-19T13:27:09Z" uid="722137" user="OSMF Redaction Account" changeset="12329165" lat="-26.1633794" lon="152.6408486"/>
  <node id="428728732" version="2" timestamp="2012-07-19T13:27:09Z" uid="722137" user="OSMF Redaction Account" changeset="12329165" lat="-26.1636679" lon="152.6409225"/>
  <node id="428728733" version="2" timestamp="2012-07-19T13:27:08Z" uid="722137" user="OSMF Redaction Account" changeset="12329165" lat="-26.163837" lon="152.6409298"/>
  <node id="428728734" version="2" timestamp="2012-07-19T13:27:08Z" uid="722137" user="OSMF Redaction Account" changeset="12329165" lat="-26.1638933" lon="152.6409963"/>
  <node id="428728735" version="2" timestamp="2012-07-19T13:27:08Z" uid="722137" user="OSMF Redaction Account" changeset="12329165" lat="-26.1638104" lon="152.6410665"/>
  <node id="428728736" version="3" timestamp="2012-07-19T13:27:08Z" uid="722137" user="OSMF Redaction Account" changeset="12329165" lat="-26.1637342" lon="152.640638"/>
  <node id="428728737" version="2" timestamp="2012-07-19T13:27:11Z" uid="722137" user="OSMF Redaction Account" changeset="12329165" lat="-26.1619734" lon="152.646597"/>
</osm>
