<?xml version='1.0' encoding='UTF-8'?>
<osm version="0.6" generator="libosmium/2.20.0">
  <node id="432137032" version="2" timestamp="2010-06-29T19:01:32Z" uid="74617" user="JohnSmith" changeset="5108182" lat="32.0884042" lon="35.3583932">
    <tag k="fixme" v="sport=football is ambiguous, see http://wiki.osm.org/wiki/Football for more details"/>
    <tag k="leisure" v="stadium"/>
    <tag k="name" v="Aqraba"/>
    <tag k="name:ar" v="ملعب عقربة"/>
    <tag k="sport" v="football"/>
  </node>
  <node id="432137528" version="1" timestamp="2009-07-02T01:37:14Z" uid="8807" user="brendanpuck" changeset="1706058" lat="-33.8143219" lon="151.0071673"/>
  <node id="432137528" version="2" timestamp="2009-08-21T17:53:35Z" uid="83382" user="c-j-b" changeset="2226658" lat="-33.8143219" lon="151.0071673"/>
  <node id="432137032" version="3" timestamp="2012-07-20T10:41:12Z" uid="722137" user="OSMF Redaction Account" changeset="12371557" lat="32.0884042" lon="35.3583932">
    <tag k="leisure" v="stadium"/>
    <tag k="name" v="Aqraba"/>
    <tag k="name:ar" v="ملعب عقربة"/>
    <tag k="sport" v="football"/>
  </node>
</osm>
