<?xml version='1.0' encoding='UTF-8'?>
<osm version="0.6" generator="libosmium/2.20.0">
  <node id="432360557" version="2" timestamp="2010-06-29T19:02:31Z" uid="74617" user="JohnSmith" changeset="5108182" lat="32.0916253" lon="35.030826">
    <tag k="fixme" v="sport=football is ambiguous, see http://wiki.osm.org/wiki/Football for more details"/>
    <tag k="leisure" v="stadium"/>
    <tag k="name" v="Al Zawia Municipality Stadium"/>
    <tag k="name:ar" v="ملعب بلدية الزاوية"/>
    <tag k="sport" v="football"/>
  </node>
  <node id="432364264" version="1" timestamp="2009-07-02T05:25:32Z" uid="74617" user="JohnSmith" changeset="1706896" lat="-26.153902" lon="152.6502211"/>
  <node id="432364264" version="2" timestamp="2009-07-02T05:37:51Z" uid="74617" user="JohnSmith" changeset="1706970" lat="-26.153902" lon="152.6502211">
    <tag k="continues" v="yes"/>
  </node>
  <node id="432364264" version="3" timestamp="2009-10-03T03:28:53Z" uid="74617" user="JohnSmith" changeset="2719119" lat="-26.1531283" lon="152.6519604"/>
  <node id="432364265" version="1" timestamp="2009-07-02T05:25:32Z" uid="74617" user="JohnSmith" changeset="1706896" lat="-26.1540511" lon="152.649942"/>
  <node id="432366455" version="2" timestamp="2010-06-29T19:02:36Z" uid="74617" user="JohnSmith" changeset="5108182" lat="32.3202856" lon="35.0284931">
    <tag k="fixme" v="sport=football is ambiguous, see http://wiki.osm.org/wiki/Football for more details"/>
    <tag k="leisure" v="stadium"/>
    <tag k="name" v="Tulkarm Stadium"/>
    <tag k="name:ar" v="ملعب طولكرم"/>
    <tag k="sport" v="football"/>
  </node>
  <node id="432360557" version="3" timestamp="2012-07-20T10:49:15Z" uid="722137" user="OSMF Redaction Account" changeset="12371771" lat="32.0916253" lon="35.030826">
    <tag k="leisure" v="stadium"/>
    <tag k="name" v="Al Zawia Municipality Stadium"/>
    <tag k="name:ar" v="ملعب بلدية الزاوية"/>
    <tag k="sport" v="football"/>
  </node>
  <node id="432364264" version="4" timestamp="2012-07-19T13:27:21Z" uid="722137" user="OSMF Redaction Account" changeset="12329165" lat="-26.1531283" lon="152.6519604"/>
  <node id="432364265" version="2" timestamp="2012-07-19T13:27:19Z" uid="722137" user="OSMF Redaction Account" changeset="12329165" lat="-26.1540511" lon="152.649942"/>
  <node id="432366455" version="3" timestamp="2012-07-20T10:44:08Z" uid="722137" user="OSMF Redaction Account" changeset="12371621" lat="32.3202856" lon="35.0284931">
    <tag k="leisure" v="stadium"/>
    <tag k="name" v="Tulkarm Stadium"/>
    <tag k="name:ar" v="ملعب طولكرم"/>
    <tag k="sport" v="football"/>
  </node>
</osm>
