<?xml version='1.0' encoding='UTF-8'?>
<osm version="0.6" generator="libosmium/2.20.0">
  <node id="434623696" version="1" timestamp="2009-07-05T18:47:40Z" uid="55964" user="Evan Sebire" changeset="1742724" lat="46.682165" lon="7.666249">
    <tag k="highway" v="bus_stop"/>
  </node>
  <node id="434623696" version="2" timestamp="2010-11-10T07:41:29Z" uid="368211" user="DidokImportCH" changeset="6333705" lat="46.682165" lon="7.666249">
    <tag k="ele" v="651"/>
    <tag k="highway" v="bus_stop"/>
    <tag k="name" v="Spiezwiler, Rössli"/>
    <tag k="operator" v="PAG"/>
    <tag k="uic_name" v="Spiezwiler, Rössli"/>
    <tag k="uic_ref" v="8507878"/>
  </node>
  <node id="434623696" version="3" timestamp="2012-02-16T08:19:22Z" uid="125339" user="efred" changeset="10699522" lat="46.682165" lon="7.666249"/>
  <node id="434623701" version="1" timestamp="2009-07-05T18:47:40Z" uid="55964" user="Evan Sebire" changeset="1742724" lat="46.6820635" lon="7.666143">
    <tag k="highway" v="bus_stop"/>
  </node>
  <node id="434623701" version="2" timestamp="2010-11-10T07:41:28Z" uid="368211" user="DidokImportCH" changeset="6333705" lat="46.682063" lon="7.666143">
    <tag k="ele" v="651"/>
    <tag k="highway" v="bus_stop"/>
    <tag k="name" v="Spiezwiler, Rössli"/>
    <tag k="operator" v="PAG"/>
    <tag k="uic_name" v="Spiezwiler, Rössli"/>
    <tag k="uic_ref" v="8507878"/>
  </node>
  <node id="434623701" version="3" timestamp="2012-02-16T08:19:22Z" uid="125339" user="efred" changeset="10699522" lat="46.682063" lon="7.666143"/>
  <node id="434623707" version="1" timestamp="2009-07-05T18:47:40Z" uid="55964" user="Evan Sebire" changeset="1742724" lat="46.6816904" lon="7.6666967">
    <tag k="highway" v="crossing"/>
  </node>
  <node id="434623707" version="2" timestamp="2012-02-16T08:19:29Z" uid="125339" user="efred" changeset="10699522" lat="46.6816904" lon="7.6666967"/>
</osm>
