<?xml version='1.0' encoding='UTF-8'?>
<osm version="0.6" generator="libosmium/2.20.0">
  <node id="435611318" version="2" timestamp="2009-07-19T08:12:07Z" uid="59758" user="rendle" changeset="1870455" lat="-5.83225" lon="29.9535">
    <tag k="created_by" v="JOSM"/>
  </node>
  <node id="435611544" version="2" timestamp="2009-07-19T08:08:40Z" uid="59758" user="rendle" changeset="1870455" lat="-5.2765" lon="29.8085">
    <tag k="created_by" v="JOSM"/>
  </node>
  <node id="435611693" version="2" timestamp="2009-07-19T08:10:40Z" uid="59758" user="rendle" changeset="1870455" lat="-6.4335" lon="29.889">
    <tag k="created_by" v="JOSM"/>
  </node>
  <node id="435612395" version="2" timestamp="2009-07-19T08:10:00Z" uid="59758" user="rendle" changeset="1870455" lat="-6.48" lon="29.9555">
    <tag k="created_by" v="JOSM"/>
  </node>
  <node id="435612579" version="2" timestamp="2009-07-19T08:08:45Z" uid="59758" user="rendle" changeset="1870455" lat="-5.37225" lon="29.76675">
    <tag k="created_by" v="JOSM"/>
  </node>
  <node id="435613766" version="2" timestamp="2009-07-19T08:11:32Z" uid="59758" user="rendle" changeset="1870455" lat="-5.99875" lon="29.78125">
    <tag k="created_by" v="JOSM"/>
  </node>
  <node id="435613938" version="2" timestamp="2009-07-19T08:10:09Z" uid="59758" user="rendle" changeset="1870455" lat="-6.39225" lon="29.843">
    <tag k="created_by" v="JOSM"/>
  </node>
  <node id="435615780" version="1" timestamp="2009-07-06T19:33:33Z" uid="36809" user="pfoten_weg_!_" changeset="1756374" lat="48.0505045" lon="11.5078536">
    <tag k="addr:city" v="Pullach im Isartal"/>
    <tag k="addr:country" v="DE"/>
    <tag k="addr:housename" v="Wohngebäude"/>
    <tag k="addr:housenumber" v="76"/>
    <tag k="addr:postcode" v="82049"/>
    <tag k="addr:street" v="Wolfratshauser Straße"/>
    <tag k="name" v="76"/>
  </node>
  <node id="435615780" version="2" timestamp="2009-07-06T19:34:51Z" uid="36809" user="pfoten_weg_!_" changeset="1756386" lat="48.0505045" lon="11.5078536">
    <tag k="addr:city" v="Pullach im Isartal"/>
    <tag k="addr:country" v="DE"/>
    <tag k="addr:housename" v="Wohngebäude"/>
    <tag k="addr:housenumber" v="76"/>
    <tag k="addr:postcode" v="82049"/>
    <tag k="addr:street" v="Wolfratshauser Straße"/>
    <tag k="name" v="76"/>
  </node>
  <node id="435615783" version="1" timestamp="2009-07-06T19:33:33Z" uid="36809" user="pfoten_weg_!_" changeset="1756374" lat="48.0505217" lon="11.5075108">
    <tag k="addr:city" v="Pullach im Isartal"/>
    <tag k="addr:country" v="DE"/>
    <tag k="addr:housename" v="Wohngebäude"/>
    <tag k="addr:housenumber" v="76A"/>
    <tag k="addr:postcode" v="82049"/>
    <tag k="addr:street" v="Wolfratshauser Straße"/>
    <tag k="name" v="76A"/>
  </node>
  <node id="435615783" version="2" timestamp="2009-07-06T19:34:51Z" uid="36809" user="pfoten_weg_!_" changeset="1756386" lat="48.0505217" lon="11.5075108">
    <tag k="addr:city" v="Pullach im Isartal"/>
    <tag k="addr:country" v="DE"/>
    <tag k="addr:housename" v="Wohngebäude"/>
    <tag k="addr:housenumber" v="76A"/>
    <tag k="addr:postcode" v="82049"/>
    <tag k="addr:street" v="Wolfratshauser Straße"/>
    <tag k="name" v="76A"/>
  </node>
  <node id="435615785" version="1" timestamp="2009-07-06T19:33:33Z" uid="36809" user="pfoten_weg_!_" changeset="1756374" lat="48.050539" lon="11.507168">
    <tag k="addr:city" v="Pullach im Isartal"/>
    <tag k="addr:country" v="DE"/>
    <tag k="addr:housename" v="Wohngebäude"/>
    <tag k="addr:housenumber" v="76B"/>
    <tag k="addr:postcode" v="82049"/>
    <tag k="addr:street" v="Wolfratshauser Straße"/>
    <tag k="name" v="76B"/>
  </node>
  <node id="435615785" version="2" timestamp="2009-07-06T19:34:51Z" uid="36809" user="pfoten_weg_!_" changeset="1756386" lat="48.050539" lon="11.507168">
    <tag k="addr:city" v="Pullach im Isartal"/>
    <tag k="addr:country" v="DE"/>
    <tag k="addr:housename" v="Wohngebäude"/>
    <tag k="addr:housenumber" v="76B"/>
    <tag k="addr:postcode" v="82049"/>
    <tag k="addr:street" v="Wolfratshauser Straße"/>
    <tag k="name" v="76B"/>
  </node>
  <node id="435615788" version="1" timestamp="2009-07-06T19:33:34Z" uid="36809" user="pfoten_weg_!_" changeset="1756374" lat="48.0504" lon="11.507303">
    <tag k="addr:city" v="Pullach im Isartal"/>
    <tag k="addr:country" v="DE"/>
    <tag k="addr:housename" v="Wohngebäude"/>
    <tag k="addr:housenumber" v="78A"/>
    <tag k="addr:postcode" v="82049"/>
    <tag k="addr:street" v="Wolfratshauser Straße"/>
    <tag k="name" v="78A"/>
  </node>
  <node id="435615788" version="2" timestamp="2009-07-06T19:34:50Z" uid="36809" user="pfoten_weg_!_" changeset="1756386" lat="48.0504" lon="11.507303">
    <tag k="addr:city" v="Pullach im Isartal"/>
    <tag k="addr:country" v="DE"/>
    <tag k="addr:housename" v="Wohngebäude"/>
    <tag k="addr:housenumber" v="78A"/>
    <tag k="addr:postcode" v="82049"/>
    <tag k="addr:street" v="Wolfratshauser Straße"/>
    <tag k="name" v="78A"/>
  </node>
  <node id="435615791" version="1" timestamp="2009-07-06T19:33:34Z" uid="36809" user="pfoten_weg_!_" changeset="1756374" lat="48.0503855" lon="11.5076209">
    <tag k="addr:city" v="Pullach im Isartal"/>
    <tag k="addr:country" v="DE"/>
    <tag k="addr:housename" v="Wohngebäude"/>
    <tag k="addr:housenumber" v="78"/>
    <tag k="addr:postcode" v="82049"/>
    <tag k="addr:street" v="Wolfratshauser Straße"/>
    <tag k="name" v="78"/>
  </node>
  <node id="435615791" version="2" timestamp="2009-07-06T19:34:50Z" uid="36809" user="pfoten_weg_!_" changeset="1756386" lat="48.0503855" lon="11.5076209">
    <tag k="addr:city" v="Pullach im Isartal"/>
    <tag k="addr:country" v="DE"/>
    <tag k="addr:housename" v="Wohngebäude"/>
    <tag k="addr:housenumber" v="78"/>
    <tag k="addr:postcode" v="82049"/>
    <tag k="addr:street" v="Wolfratshauser Straße"/>
    <tag k="name" v="78"/>
  </node>
  <node id="435615795" version="1" timestamp="2009-07-06T19:33:34Z" uid="36809" user="pfoten_weg_!_" changeset="1756374" lat="48.050431" lon="11.50685"/>
  <node id="435615795" version="2" timestamp="2009-07-06T19:34:50Z" uid="36809" user="pfoten_weg_!_" changeset="1756386" lat="48.050431" lon="11.50685"/>
  <node id="435615797" version="1" timestamp="2009-07-06T19:33:34Z" uid="36809" user="pfoten_weg_!_" changeset="1756374" lat="48.0501868" lon="11.5067688"/>
  <node id="435615797" version="2" timestamp="2009-07-06T19:34:50Z" uid="36809" user="pfoten_weg_!_" changeset="1756386" lat="48.0501868" lon="11.5067688"/>
  <node id="435615799" version="1" timestamp="2009-07-06T19:33:34Z" uid="36809" user="pfoten_weg_!_" changeset="1756374" lat="48.0501637" lon="11.5070861"/>
  <node id="435615799" version="2" timestamp="2009-07-06T19:34:50Z" uid="36809" user="pfoten_weg_!_" changeset="1756386" lat="48.0501637" lon="11.5070861"/>
  <node id="435615801" version="1" timestamp="2009-07-06T19:33:34Z" uid="36809" user="pfoten_weg_!_" changeset="1756374" lat="48.0504116" lon="11.5071685"/>
  <node id="435615801" version="2" timestamp="2009-07-06T19:34:50Z" uid="36809" user="pfoten_weg_!_" changeset="1756386" lat="48.0504116" lon="11.5071685"/>
  <node id="435616083" version="2" timestamp="2009-07-19T08:08:32Z" uid="59758" user="rendle" changeset="1870455" lat="-5.23775" lon="29.804">
    <tag k="created_by" v="JOSM"/>
  </node>
  <node id="435616692" version="2" timestamp="2009-07-19T08:12:09Z" uid="59758" user="rendle" changeset="1870455" lat="-5.666" lon="29.88925">
    <tag k="created_by" v="JOSM"/>
  </node>
  <node id="435616890" version="2" timestamp="2009-07-19T08:11:33Z" uid="59758" user="rendle" changeset="1870455" lat="-5.85325" lon="29.95325">
    <tag k="created_by" v="JOSM"/>
  </node>
  <node id="435616925" version="2" timestamp="2009-07-19T08:08:28Z" uid="59758" user="rendle" changeset="1870455" lat="-5.28075" lon="29.787">
    <tag k="created_by" v="JOSM"/>
  </node>
  <node id="435617222" version="1" timestamp="2009-07-06T19:34:49Z" uid="36809" user="pfoten_weg_!_" changeset="1756386" lat="48.0504765" lon="11.5070365">
    <tag k="source" v="survey"/>
  </node>
  <node id="435617222" version="2" timestamp="2009-10-12T21:00:17Z" uid="36809" user="pfoten_weg_!_" changeset="2830922" lat="48.0504765" lon="11.5070365"/>
  <node id="435617224" version="1" timestamp="2009-07-06T19:34:49Z" uid="36809" user="pfoten_weg_!_" changeset="1756386" lat="48.0504117" lon="11.5071685"/>
  <node id="435617227" version="1" timestamp="2009-07-06T19:34:49Z" uid="36809" user="pfoten_weg_!_" changeset="1756386" lat="48.0505391" lon="11.507168">
    <tag k="addr:city" v="Pullach im Isartal"/>
    <tag k="addr:country" v="DE"/>
    <tag k="addr:housename" v="Wohngebäude"/>
    <tag k="addr:housenumber" v="76B"/>
    <tag k="addr:postcode" v="82049"/>
    <tag k="addr:street" v="Wolfratshauser Straße"/>
    <tag k="name" v="76B"/>
  </node>
  <node id="435617227" version="2" timestamp="2009-07-17T15:09:42Z" uid="36809" user="pfoten_weg_!_" changeset="1855298" lat="48.0505391" lon="11.507168">
    <tag k="addr:city" v="Pullach im Isartal"/>
    <tag k="addr:country" v="DE"/>
    <tag k="addr:housename" v="Wohngebäude"/>
    <tag k="addr:housenumber" v="76B"/>
    <tag k="addr:postcode" v="82049"/>
    <tag k="addr:street" v="Wolfratshauser Straße"/>
    <tag k="discovered_by" v="RambaZamba"/>
    <tag k="name" v="76B"/>
    <tag k="source" v="survey"/>
  </node>
  <node id="435617227" version="3" timestamp="2009-08-12T14:07:18Z" uid="156995" user="HampelZamba" changeset="2119076" lat="48.0505391" lon="11.507168">
    <tag k="addr:city" v="Pullach im Isartal"/>
    <tag k="addr:country" v="DE"/>
    <tag k="addr:housename" v="Wohngebäude"/>
    <tag k="addr:housenumber" v="76B"/>
    <tag k="addr:postcode" v="82049"/>
    <tag k="addr:street" v="Wolfratshauser Straße"/>
    <tag k="name" v="76B"/>
    <tag k="source" v="survey"/>
  </node>
  <node id="435617227" version="4" timestamp="2009-08-26T00:35:23Z" uid="36809" user="pfoten_weg_!_" changeset="2262648" lat="48.0505391" lon="11.507168">
    <tag k="addr:city" v="Pullach im Isartal"/>
    <tag k="addr:country" v="DE"/>
    <tag k="addr:housename" v="Wohngebäude"/>
    <tag k="addr:housenumber" v="76B"/>
    <tag k="addr:postcode" v="82049"/>
    <tag k="addr:street" v="Wolfratshauser Straße"/>
    <tag k="name" v="76B"/>
    <tag k="source" v="survey"/>
  </node>
  <node id="435617227" version="5" timestamp="2009-08-26T01:36:31Z" uid="36809" user="pfoten_weg_!_" changeset="2262879" lat="48.0505391" lon="11.507168">
    <tag k="addr:city" v="Pullach im Isartal"/>
    <tag k="addr:country" v="DE"/>
    <tag k="addr:housename" v="Wohngebäude"/>
    <tag k="addr:housenumber" v="76B"/>
    <tag k="addr:postcode" v="82049"/>
    <tag k="addr:street" v="Wolfratshauser Straße"/>
    <tag k="name" v="76B"/>
    <tag k="source" v="survey"/>
  </node>
  <node id="435617227" version="6" timestamp="2009-10-12T21:00:23Z" uid="36809" user="pfoten_weg_!_" changeset="2830922" lat="48.0505391" lon="11.507168">
    <tag k="addr:city" v="Pullach im Isartal"/>
    <tag k="addr:country" v="DE"/>
    <tag k="addr:housename" v="Wohngebäude"/>
    <tag k="addr:housenumber" v="76B"/>
    <tag k="addr:postcode" v="82049"/>
    <tag k="addr:street" v="Wolfratshauser Straße"/>
    <tag k="name" v="76B"/>
  </node>
  <node id="435617227" version="7" timestamp="2010-05-08T21:05:00Z" uid="36809" user="pfoten_weg_!_" changeset="4643076" lat="48.0505391" lon="11.507168">
    <tag k="addr:city" v="Pullach im Isartal"/>
    <tag k="addr:country" v="DE"/>
    <tag k="addr:housename" v="Wohngebäude"/>
    <tag k="addr:housenumber" v="76B"/>
    <tag k="addr:postcode" v="82049"/>
    <tag k="addr:street" v="Wolfratshauser Straße"/>
    <tag k="name" v="76B"/>
  </node>
  <node id="435617227" version="8" timestamp="2010-05-09T08:51:23Z" uid="145231" user="woodpeck_repair" changeset="4645739" lat="48.0505391" lon="11.507168">
    <tag k="addr:city" v="Pullach im Isartal"/>
    <tag k="addr:country" v="DE"/>
    <tag k="addr:housename" v="Wohngebäude"/>
    <tag k="addr:housenumber" v="76B"/>
    <tag k="addr:postcode" v="82049"/>
    <tag k="addr:street" v="Wolfratshauser Straße"/>
    <tag k="name" v="76B"/>
    <tag k="source" v="survey"/>
  </node>
  <node id="435617227" version="9" timestamp="2010-05-10T16:45:07Z" uid="30579" user="Tiramisu" changeset="4661006" lat="48.0505391" lon="11.507168">
    <tag k="addr:city" v="Pullach im Isartal"/>
    <tag k="addr:country" v="DE"/>
    <tag k="addr:housenumber" v="76B"/>
    <tag k="addr:postcode" v="82049"/>
    <tag k="addr:street" v="Wolfratshauser Straße"/>
    <tag k="source" v="survey"/>
  </node>
  <node id="435617231" version="1" timestamp="2009-07-06T19:34:49Z" uid="36809" user="pfoten_weg_!_" changeset="1756386" lat="48.050431" lon="11.50685"/>
  <node id="435617232" version="1" timestamp="2009-07-06T19:34:49Z" uid="36809" user="pfoten_weg_!_" changeset="1756386" lat="48.0505045" lon="11.5078536">
    <tag k="addr:city" v="Pullach im Isartal"/>
    <tag k="addr:country" v="DE"/>
    <tag k="addr:housename" v="Wohngebäude"/>
    <tag k="addr:housenumber" v="76"/>
    <tag k="addr:postcode" v="82049"/>
    <tag k="addr:street" v="Wolfratshauser Straße"/>
    <tag k="name" v="76"/>
  </node>
  <node id="435617232" version="2" timestamp="2009-07-17T15:09:43Z" uid="36809" user="pfoten_weg_!_" changeset="1855298" lat="48.0505045" lon="11.5078536">
    <tag k="addr:city" v="Pullach im Isartal"/>
    <tag k="addr:country" v="DE"/>
    <tag k="addr:housename" v="Wohngebäude"/>
    <tag k="addr:housenumber" v="76"/>
    <tag k="addr:postcode" v="82049"/>
    <tag k="addr:street" v="Wolfratshauser Straße"/>
    <tag k="discovered_by" v="RambaZamba"/>
    <tag k="name" v="76"/>
    <tag k="source" v="survey"/>
  </node>
  <node id="435617232" version="3" timestamp="2009-08-12T14:07:18Z" uid="156995" user="HampelZamba" changeset="2119076" lat="48.0505045" lon="11.5078536">
    <tag k="addr:city" v="Pullach im Isartal"/>
    <tag k="addr:country" v="DE"/>
    <tag k="addr:housename" v="Wohngebäude"/>
    <tag k="addr:housenumber" v="76"/>
    <tag k="addr:postcode" v="82049"/>
    <tag k="addr:street" v="Wolfratshauser Straße"/>
    <tag k="name" v="76"/>
    <tag k="source" v="survey"/>
  </node>
  <node id="435617232" version="4" timestamp="2009-08-26T00:35:24Z" uid="36809" user="pfoten_weg_!_" changeset="2262648" lat="48.0505045" lon="11.5078536">
    <tag k="addr:city" v="Pullach im Isartal"/>
    <tag k="addr:country" v="DE"/>
    <tag k="addr:housename" v="Wohngebäude"/>
    <tag k="addr:housenumber" v="76"/>
    <tag k="addr:postcode" v="82049"/>
    <tag k="addr:street" v="Wolfratshauser Straße"/>
    <tag k="name" v="76"/>
    <tag k="source" v="survey"/>
  </node>
  <node id="435617232" version="5" timestamp="2009-08-26T01:36:33Z" uid="36809" user="pfoten_weg_!_" changeset="2262879" lat="48.0505045" lon="11.5078536">
    <tag k="addr:city" v="Pullach im Isartal"/>
    <tag k="addr:country" v="DE"/>
    <tag k="addr:housename" v="Wohngebäude"/>
    <tag k="addr:housenumber" v="76"/>
    <tag k="addr:postcode" v="82049"/>
    <tag k="addr:street" v="Wolfratshauser Straße"/>
    <tag k="name" v="76"/>
    <tag k="source" v="survey"/>
  </node>
  <node id="435617232" version="6" timestamp="2009-10-12T21:00:23Z" uid="36809" user="pfoten_weg_!_" changeset="2830922" lat="48.0505045" lon="11.5078536">
    <tag k="addr:city" v="Pullach im Isartal"/>
    <tag k="addr:country" v="DE"/>
    <tag k="addr:housename" v="Wohngebäude"/>
    <tag k="addr:housenumber" v="76"/>
    <tag k="addr:postcode" v="82049"/>
    <tag k="addr:street" v="Wolfratshauser Straße"/>
    <tag k="name" v="76"/>
  </node>
  <node id="435617232" version="7" timestamp="2010-05-08T21:05:02Z" uid="36809" user="pfoten_weg_!_" changeset="4643076" lat="48.0505045" lon="11.5078536">
    <tag k="addr:city" v="Pullach im Isartal"/>
    <tag k="addr:country" v="DE"/>
    <tag k="addr:housename" v="Wohngebäude"/>
    <tag k="addr:housenumber" v="76"/>
    <tag k="addr:postcode" v="82049"/>
    <tag k="addr:street" v="Wolfratshauser Straße"/>
    <tag k="name" v="76"/>
  </node>
  <node id="435617232" version="8" timestamp="2010-05-09T08:51:22Z" uid="145231" user="woodpeck_repair" changeset="4645739" lat="48.0505045" lon="11.5078536">
    <tag k="addr:city" v="Pullach im Isartal"/>
    <tag k="addr:country" v="DE"/>
    <tag k="addr:housename" v="Wohngebäude"/>
    <tag k="addr:housenumber" v="76"/>
    <tag k="addr:postcode" v="82049"/>
    <tag k="addr:street" v="Wolfratshauser Straße"/>
    <tag k="name" v="76"/>
    <tag k="source" v="survey"/>
  </node>
  <node id="435617232" version="9" timestamp="2010-05-10T16:45:07Z" uid="30579" user="Tiramisu" changeset="4661006" lat="48.0505045" lon="11.5078536">
    <tag k="addr:city" v="Pullach im Isartal"/>
    <tag k="addr:country" v="DE"/>
    <tag k="addr:housenumber" v="76"/>
    <tag k="addr:postcode" v="82049"/>
    <tag k="addr:street" v="Wolfratshauser Straße"/>
    <tag k="source" v="survey"/>
  </node>
  <node id="435617233" version="2" timestamp="2009-07-19T08:10:18Z" uid="59758" user="rendle" changeset="1870455" lat="-6.43075" lon="29.8885">
    <tag k="created_by" v="JOSM"/>
  </node>
  <node id="435617235" version="1" timestamp="2009-07-06T19:34:49Z" uid="36809" user="pfoten_weg_!_" changeset="1756386" lat="48.0501869" lon="11.5067688"/>
  <node id="435617237" version="1" timestamp="2009-07-06T19:34:49Z" uid="36809" user="pfoten_weg_!_" changeset="1756386" lat="48.0504001" lon="11.507303">
    <tag k="addr:city" v="Pullach im Isartal"/>
    <tag k="addr:country" v="DE"/>
    <tag k="addr:housename" v="Wohngebäude"/>
    <tag k="addr:housenumber" v="78A"/>
    <tag k="addr:postcode" v="82049"/>
    <tag k="addr:street" v="Wolfratshauser Straße"/>
    <tag k="name" v="78A"/>
  </node>
  <node id="435617237" version="2" timestamp="2009-07-17T15:09:42Z" uid="36809" user="pfoten_weg_!_" changeset="1855298" lat="48.0504001" lon="11.507303">
    <tag k="addr:city" v="Pullach im Isartal"/>
    <tag k="addr:country" v="DE"/>
    <tag k="addr:housename" v="Wohngebäude"/>
    <tag k="addr:housenumber" v="78A"/>
    <tag k="addr:postcode" v="82049"/>
    <tag k="addr:street" v="Wolfratshauser Straße"/>
    <tag k="discovered_by" v="RambaZamba"/>
    <tag k="name" v="78A"/>
    <tag k="source" v="survey"/>
  </node>
  <node id="435617237" version="3" timestamp="2009-08-12T14:07:18Z" uid="156995" user="HampelZamba" changeset="2119076" lat="48.0504001" lon="11.507303">
    <tag k="addr:city" v="Pullach im Isartal"/>
    <tag k="addr:country" v="DE"/>
    <tag k="addr:housename" v="Wohngebäude"/>
    <tag k="addr:housenumber" v="78A"/>
    <tag k="addr:postcode" v="82049"/>
    <tag k="addr:street" v="Wolfratshauser Straße"/>
    <tag k="name" v="78A"/>
    <tag k="source" v="survey"/>
  </node>
  <node id="435617237" version="4" timestamp="2009-08-26T00:35:24Z" uid="36809" user="pfoten_weg_!_" changeset="2262648" lat="48.0504001" lon="11.507303">
    <tag k="addr:city" v="Pullach im Isartal"/>
    <tag k="addr:country" v="DE"/>
    <tag k="addr:housename" v="Wohngebäude"/>
    <tag k="addr:housenumber" v="78A"/>
    <tag k="addr:postcode" v="82049"/>
    <tag k="addr:street" v="Wolfratshauser Straße"/>
    <tag k="name" v="78A"/>
    <tag k="source" v="survey"/>
  </node>
  <node id="435617237" version="5" timestamp="2009-08-26T01:36:32Z" uid="36809" user="pfoten_weg_!_" changeset="2262879" lat="48.0504001" lon="11.507303">
    <tag k="addr:city" v="Pullach im Isartal"/>
    <tag k="addr:country" v="DE"/>
    <tag k="addr:housename" v="Wohngebäude"/>
    <tag k="addr:housenumber" v="78A"/>
    <tag k="addr:postcode" v="82049"/>
    <tag k="addr:street" v="Wolfratshauser Straße"/>
    <tag k="name" v="78A"/>
    <tag k="source" v="survey"/>
  </node>
  <node id="435617237" version="6" timestamp="2009-10-12T21:00:20Z" uid="36809" user="pfoten_weg_!_" changeset="2830922" lat="48.0504001" lon="11.507303">
    <tag k="addr:city" v="Pullach im Isartal"/>
    <tag k="addr:country" v="DE"/>
    <tag k="addr:housename" v="Wohngebäude"/>
    <tag k="addr:housenumber" v="78A"/>
    <tag k="addr:postcode" v="82049"/>
    <tag k="addr:street" v="Wolfratshauser Straße"/>
    <tag k="name" v="78A"/>
  </node>
  <node id="435617237" version="7" timestamp="2010-05-08T21:05:10Z" uid="36809" user="pfoten_weg_!_" changeset="4643076" lat="48.0504001" lon="11.507303">
    <tag k="addr:city" v="Pullach im Isartal"/>
    <tag k="addr:country" v="DE"/>
    <tag k="addr:housename" v="Wohngebäude"/>
    <tag k="addr:housenumber" v="78A"/>
    <tag k="addr:postcode" v="82049"/>
    <tag k="addr:street" v="Wolfratshauser Straße"/>
    <tag k="name" v="78A"/>
  </node>
  <node id="435617237" version="8" timestamp="2010-05-09T08:51:21Z" uid="145231" user="woodpeck_repair" changeset="4645739" lat="48.0504001" lon="11.507303">
    <tag k="addr:city" v="Pullach im Isartal"/>
    <tag k="addr:country" v="DE"/>
    <tag k="addr:housename" v="Wohngebäude"/>
    <tag k="addr:housenumber" v="78A"/>
    <tag k="addr:postcode" v="82049"/>
    <tag k="addr:street" v="Wolfratshauser Straße"/>
    <tag k="name" v="78A"/>
    <tag k="source" v="survey"/>
  </node>
  <node id="435617237" version="9" timestamp="2010-05-10T16:45:07Z" uid="30579" user="Tiramisu" changeset="4661006" lat="48.0504001" lon="11.507303">
    <tag k="addr:city" v="Pullach im Isartal"/>
    <tag k="addr:country" v="DE"/>
    <tag k="addr:housenumber" v="78A"/>
    <tag k="addr:postcode" v="82049"/>
    <tag k="addr:street" v="Wolfratshauser Straße"/>
    <tag k="source" v="survey"/>
  </node>
  <node id="435617240" version="1" timestamp="2009-07-06T19:34:49Z" uid="36809" user="pfoten_weg_!_" changeset="1756386" lat="48.0498981" lon="11.5072121">
    <tag k="source" v="survey"/>
  </node>
  <node id="435617240" version="2" timestamp="2009-10-12T21:00:08Z" uid="36809" user="pfoten_weg_!_" changeset="2830922" lat="48.0498981" lon="11.5072121"/>
  <node id="435617242" version="1" timestamp="2009-07-06T19:34:49Z" uid="36809" user="pfoten_weg_!_" changeset="1756386" lat="48.0501638" lon="11.5070861"/>
  <node id="435617243" version="1" timestamp="2009-07-06T19:34:49Z" uid="36809" user="pfoten_weg_!_" changeset="1756386" lat="48.0505218" lon="11.5075108">
    <tag k="addr:city" v="Pullach im Isartal"/>
    <tag k="addr:country" v="DE"/>
    <tag k="addr:housename" v="Wohngebäude"/>
    <tag k="addr:housenumber" v="76A"/>
    <tag k="addr:postcode" v="82049"/>
    <tag k="addr:street" v="Wolfratshauser Straße"/>
    <tag k="name" v="76A"/>
  </node>
  <node id="435617243" version="2" timestamp="2009-07-17T15:09:43Z" uid="36809" user="pfoten_weg_!_" changeset="1855298" lat="48.0505218" lon="11.5075108">
    <tag k="addr:city" v="Pullach im Isartal"/>
    <tag k="addr:country" v="DE"/>
    <tag k="addr:housename" v="Wohngebäude"/>
    <tag k="addr:housenumber" v="76A"/>
    <tag k="addr:postcode" v="82049"/>
    <tag k="addr:street" v="Wolfratshauser Straße"/>
    <tag k="discovered_by" v="RambaZamba"/>
    <tag k="name" v="76A"/>
    <tag k="source" v="survey"/>
  </node>
  <node id="435617243" version="3" timestamp="2009-08-12T14:07:18Z" uid="156995" user="HampelZamba" changeset="2119076" lat="48.0505218" lon="11.5075108">
    <tag k="addr:city" v="Pullach im Isartal"/>
    <tag k="addr:country" v="DE"/>
    <tag k="addr:housename" v="Wohngebäude"/>
    <tag k="addr:housenumber" v="76A"/>
    <tag k="addr:postcode" v="82049"/>
    <tag k="addr:street" v="Wolfratshauser Straße"/>
    <tag k="name" v="76A"/>
    <tag k="source" v="survey"/>
  </node>
  <node id="435617243" version="4" timestamp="2009-08-26T00:35:28Z" uid="36809" user="pfoten_weg_!_" changeset="2262648" lat="48.0505218" lon="11.5075108">
    <tag k="addr:city" v="Pullach im Isartal"/>
    <tag k="addr:country" v="DE"/>
    <tag k="addr:housename" v="Wohngebäude"/>
    <tag k="addr:housenumber" v="76A"/>
    <tag k="addr:postcode" v="82049"/>
    <tag k="addr:street" v="Wolfratshauser Straße"/>
    <tag k="name" v="76A"/>
    <tag k="source" v="survey"/>
  </node>
  <node id="435617243" version="5" timestamp="2009-08-26T01:36:36Z" uid="36809" user="pfoten_weg_!_" changeset="2262879" lat="48.0505218" lon="11.5075108">
    <tag k="addr:city" v="Pullach im Isartal"/>
    <tag k="addr:country" v="DE"/>
    <tag k="addr:housename" v="Wohngebäude"/>
    <tag k="addr:housenumber" v="76A"/>
    <tag k="addr:postcode" v="82049"/>
    <tag k="addr:street" v="Wolfratshauser Straße"/>
    <tag k="name" v="76A"/>
    <tag k="source" v="survey"/>
  </node>
  <node id="435617243" version="6" timestamp="2009-10-12T21:00:21Z" uid="36809" user="pfoten_weg_!_" changeset="2830922" lat="48.0505218" lon="11.5075108">
    <tag k="addr:city" v="Pullach im Isartal"/>
    <tag k="addr:country" v="DE"/>
    <tag k="addr:housename" v="Wohngebäude"/>
    <tag k="addr:housenumber" v="76A"/>
    <tag k="addr:postcode" v="82049"/>
    <tag k="addr:street" v="Wolfratshauser Straße"/>
    <tag k="name" v="76A"/>
  </node>
  <node id="435617243" version="7" timestamp="2010-05-08T21:05:07Z" uid="36809" user="pfoten_weg_!_" changeset="4643076" lat="48.0505218" lon="11.5075108">
    <tag k="addr:city" v="Pullach im Isartal"/>
    <tag k="addr:country" v="DE"/>
    <tag k="addr:housename" v="Wohngebäude"/>
    <tag k="addr:housenumber" v="76A"/>
    <tag k="addr:postcode" v="82049"/>
    <tag k="addr:street" v="Wolfratshauser Straße"/>
    <tag k="name" v="76A"/>
  </node>
  <node id="435617243" version="8" timestamp="2010-05-09T08:51:21Z" uid="145231" user="woodpeck_repair" changeset="4645739" lat="48.0505218" lon="11.5075108">
    <tag k="addr:city" v="Pullach im Isartal"/>
    <tag k="addr:country" v="DE"/>
    <tag k="addr:housename" v="Wohngebäude"/>
    <tag k="addr:housenumber" v="76A"/>
    <tag k="addr:postcode" v="82049"/>
    <tag k="addr:street" v="Wolfratshauser Straße"/>
    <tag k="name" v="76A"/>
    <tag k="source" v="survey"/>
  </node>
  <node id="435617243" version="9" timestamp="2010-05-10T16:45:07Z" uid="30579" user="Tiramisu" changeset="4661006" lat="48.0505218" lon="11.5075108">
    <tag k="addr:city" v="Pullach im Isartal"/>
    <tag k="addr:country" v="DE"/>
    <tag k="addr:housenumber" v="76A"/>
    <tag k="addr:postcode" v="82049"/>
    <tag k="addr:street" v="Wolfratshauser Straße"/>
    <tag k="source" v="survey"/>
  </node>
  <node id="435617246" version="1" timestamp="2009-07-06T19:34:49Z" uid="36809" user="pfoten_weg_!_" changeset="1756386" lat="48.0503856" lon="11.5076209">
    <tag k="addr:city" v="Pullach im Isartal"/>
    <tag k="addr:country" v="DE"/>
    <tag k="addr:housename" v="Wohngebäude"/>
    <tag k="addr:housenumber" v="78"/>
    <tag k="addr:postcode" v="82049"/>
    <tag k="addr:street" v="Wolfratshauser Straße"/>
    <tag k="name" v="78"/>
  </node>
  <node id="435617246" version="2" timestamp="2009-07-17T15:09:43Z" uid="36809" user="pfoten_weg_!_" changeset="1855298" lat="48.0503856" lon="11.5076209">
    <tag k="addr:city" v="Pullach im Isartal"/>
    <tag k="addr:country" v="DE"/>
    <tag k="addr:housename" v="Wohngebäude"/>
    <tag k="addr:housenumber" v="78"/>
    <tag k="addr:postcode" v="82049"/>
    <tag k="addr:street" v="Wolfratshauser Straße"/>
    <tag k="discovered_by" v="RambaZamba"/>
    <tag k="name" v="78"/>
    <tag k="source" v="survey"/>
  </node>
  <node id="435617246" version="3" timestamp="2009-08-12T14:07:18Z" uid="156995" user="HampelZamba" changeset="2119076" lat="48.0503856" lon="11.5076209">
    <tag k="addr:city" v="Pullach im Isartal"/>
    <tag k="addr:country" v="DE"/>
    <tag k="addr:housename" v="Wohngebäude"/>
    <tag k="addr:housenumber" v="78"/>
    <tag k="addr:postcode" v="82049"/>
    <tag k="addr:street" v="Wolfratshauser Straße"/>
    <tag k="name" v="78"/>
    <tag k="source" v="survey"/>
  </node>
  <node id="435617246" version="4" timestamp="2009-08-26T00:35:26Z" uid="36809" user="pfoten_weg_!_" changeset="2262648" lat="48.0503856" lon="11.5076209">
    <tag k="addr:city" v="Pullach im Isartal"/>
    <tag k="addr:country" v="DE"/>
    <tag k="addr:housename" v="Wohngebäude"/>
    <tag k="addr:housenumber" v="78"/>
    <tag k="addr:postcode" v="82049"/>
    <tag k="addr:street" v="Wolfratshauser Straße"/>
    <tag k="name" v="78"/>
    <tag k="source" v="survey"/>
  </node>
  <node id="435617246" version="5" timestamp="2009-08-26T01:36:35Z" uid="36809" user="pfoten_weg_!_" changeset="2262879" lat="48.0503856" lon="11.5076209">
    <tag k="addr:city" v="Pullach im Isartal"/>
    <tag k="addr:country" v="DE"/>
    <tag k="addr:housename" v="Wohngebäude"/>
    <tag k="addr:housenumber" v="78"/>
    <tag k="addr:postcode" v="82049"/>
    <tag k="addr:street" v="Wolfratshauser Straße"/>
    <tag k="name" v="78"/>
    <tag k="source" v="survey"/>
  </node>
  <node id="435617246" version="6" timestamp="2009-10-12T21:00:25Z" uid="36809" user="pfoten_weg_!_" changeset="2830922" lat="48.0503856" lon="11.5076209">
    <tag k="addr:city" v="Pullach im Isartal"/>
    <tag k="addr:country" v="DE"/>
    <tag k="addr:housename" v="Wohngebäude"/>
    <tag k="addr:housenumber" v="78"/>
    <tag k="addr:postcode" v="82049"/>
    <tag k="addr:street" v="Wolfratshauser Straße"/>
    <tag k="name" v="78"/>
  </node>
  <node id="435617246" version="7" timestamp="2010-05-08T21:05:04Z" uid="36809" user="pfoten_weg_!_" changeset="4643076" lat="48.0503856" lon="11.5076209">
    <tag k="addr:city" v="Pullach im Isartal"/>
    <tag k="addr:country" v="DE"/>
    <tag k="addr:housename" v="Wohngebäude"/>
    <tag k="addr:housenumber" v="78"/>
    <tag k="addr:postcode" v="82049"/>
    <tag k="addr:street" v="Wolfratshauser Straße"/>
    <tag k="name" v="78"/>
  </node>
  <node id="435617246" version="8" timestamp="2010-05-09T08:51:20Z" uid="145231" user="woodpeck_repair" changeset="4645739" lat="48.0503856" lon="11.5076209">
    <tag k="addr:city" v="Pullach im Isartal"/>
    <tag k="addr:country" v="DE"/>
    <tag k="addr:housename" v="Wohngebäude"/>
    <tag k="addr:housenumber" v="78"/>
    <tag k="addr:postcode" v="82049"/>
    <tag k="addr:street" v="Wolfratshauser Straße"/>
    <tag k="name" v="78"/>
    <tag k="source" v="survey"/>
  </node>
  <node id="435617246" version="9" timestamp="2010-05-10T16:45:07Z" uid="30579" user="Tiramisu" changeset="4661006" lat="48.0503856" lon="11.5076209">
    <tag k="addr:city" v="Pullach im Isartal"/>
    <tag k="addr:country" v="DE"/>
    <tag k="addr:housenumber" v="78"/>
    <tag k="addr:postcode" v="82049"/>
    <tag k="addr:street" v="Wolfratshauser Straße"/>
    <tag k="source" v="survey"/>
  </node>
  <node id="435618955" version="2" timestamp="2009-07-19T08:12:14Z" uid="59758" user="rendle" changeset="1870455" lat="-5.92425" lon="29.928">
    <tag k="created_by" v="JOSM"/>
  </node>
  <node id="435619905" version="2" timestamp="2009-07-19T08:08:47Z" uid="59758" user="rendle" changeset="1870455" lat="-5.275" lon="29.79725">
    <tag k="created_by" v="JOSM"/>
  </node>
  <node id="435617222" version="3" timestamp="2012-05-19T22:48:27Z" uid="8703" user="rolandg" changeset="11647149" lat="48.0504765" lon="11.5070365"/>
  <node id="435617224" version="2" timestamp="2012-05-19T13:31:01Z" uid="8703" user="rolandg" changeset="11642598" lat="48.0504117" lon="11.5071685"/>
  <node id="435617227" version="10" timestamp="2012-05-19T13:31:01Z" uid="8703" user="rolandg" changeset="11642598" lat="48.0505391" lon="11.507168"/>
  <node id="435617231" version="2" timestamp="2012-05-19T13:31:07Z" uid="8703" user="rolandg" changeset="11642598" lat="48.050431" lon="11.50685"/>
  <node id="435617232" version="10" timestamp="2012-05-19T13:31:02Z" uid="8703" user="rolandg" changeset="11642598" lat="48.0505045" lon="11.5078536"/>
  <node id="435617235" version="2" timestamp="2012-05-19T13:31:03Z" uid="8703" user="rolandg" changeset="11642598" lat="48.0501869" lon="11.5067688"/>
  <node id="435617237" version="10" timestamp="2012-05-19T13:31:04Z" uid="8703" user="rolandg" changeset="11642598" lat="48.0504001" lon="11.507303"/>
  <node id="435617240" version="3" timestamp="2012-05-19T13:31:04Z" uid="8703" user="rolandg" changeset="11642598" lat="48.0498981" lon="11.5072121"/>
  <node id="435617242" version="2" timestamp="2012-05-19T13:31:02Z" uid="8703" user="rolandg" changeset="11642598" lat="48.0501638" lon="11.5070861"/>
  <node id="435617243" version="10" timestamp="2012-05-19T13:31:02Z" uid="8703" user="rolandg" changeset="11642598" lat="48.0505218" lon="11.5075108"/>
  <node id="435617246" version="10" timestamp="2012-07-17T20:25:44Z" uid="722137" user="OSMF Redaction Account" changeset="12271863" lat="48.0503856" lon="11.5076209"/>
  <node id="435617246" version="11" timestamp="2012-08-15T16:09:17Z" uid="345715" user="USSEraser" changeset="12740847" lat="48.0503856" lon="11.5076209"/>
</osm>
