<?xml version='1.0' encoding='UTF-8'?>
<osm version="0.6" generator="libosmium/2.20.0">
  <node id="436320130" version="1" timestamp="2009-07-07T13:53:37Z" uid="43863" user="Rundling" changeset="1762648" lat="52.9871146" lon="9.8012824"/>
  <node id="436320130" version="2" timestamp="2009-07-07T14:16:18Z" uid="43863" user="Rundling" changeset="1762862" lat="52.9869689" lon="9.8013484"/>
  <node id="436320130" version="3" timestamp="2011-01-03T15:41:49Z" uid="347762" user="Heideammer" changeset="6851036" lat="52.9870405" lon="9.8012097"/>
  <node id="436320135" version="1" timestamp="2009-07-07T13:53:37Z" uid="43863" user="Rundling" changeset="1762648" lat="52.9845139" lon="9.8021859"/>
  <node id="436320135" version="2" timestamp="2009-07-07T14:16:18Z" uid="43863" user="Rundling" changeset="1762862" lat="52.9845139" lon="9.8021859">
    <tag k="railway" v="level_crossing"/>
  </node>
  <node id="436320135" version="3" timestamp="2010-12-28T16:52:02Z" uid="347762" user="Heideammer" changeset="6790105" lat="52.984408" lon="9.8022035">
    <tag k="railway" v="level_crossing"/>
  </node>
  <node id="436320135" version="4" timestamp="2010-12-29T12:10:13Z" uid="347762" user="Heideammer" changeset="6797788" lat="52.98437" lon="9.8022125">
    <tag k="railway" v="level_crossing"/>
  </node>
  <node id="436320135" version="5" timestamp="2012-03-18T16:13:58Z" uid="45882" user="smarties" changeset="11020664" lat="52.98437" lon="9.8022125"/>
  <node id="436320138" version="1" timestamp="2009-07-07T13:53:38Z" uid="43863" user="Rundling" changeset="1762648" lat="52.9813969" lon="9.8032955"/>
  <node id="436320138" version="2" timestamp="2010-12-23T14:46:27Z" uid="347762" user="Heideammer" changeset="6745969" lat="52.9813407" lon="9.8032811"/>
  <node id="436320138" version="3" timestamp="2012-01-28T03:59:53Z" uid="45882" user="smarties" changeset="10518193" lat="52.9813407" lon="9.8032811"/>
  <node id="436320141" version="1" timestamp="2009-07-07T13:53:38Z" uid="43863" user="Rundling" changeset="1762648" lat="52.9894647" lon="9.8051311"/>
  <node id="436320141" version="2" timestamp="2011-01-03T15:41:34Z" uid="347762" user="Heideammer" changeset="6851036" lat="52.9895563" lon="9.805055"/>
  <node id="436320184" version="2" timestamp="2010-01-10T20:19:10Z" uid="20587" user="balrog-kun" changeset="3591150" lat="52.2920309" lon="20.9286771">
    <tag k="name" v="Metro Młociny 10"/>
    <tag k="old_name" v="Huta"/>
    <tag k="railway" v="tram_stop"/>
  </node>
  <node id="436320184" version="3" timestamp="2010-01-12T13:53:36Z" uid="20587" user="balrog-kun" changeset="3603234" lat="52.2920309" lon="20.9286771">
    <tag k="name" v="Metro Młociny 10"/>
    <tag k="old_name" v="Huta"/>
    <tag k="railway" v="tram_stop"/>
    <tag k="tactile_paving" v="yes"/>
    <tag k="tactile_paving:slab_size" v="40x40"/>
    <tag k="ztm:ciąg_ulicy" v="Pętla Metro Młociny"/>
  </node>
  <node id="436320184" version="4" timestamp="2011-11-17T10:15:05Z" uid="477744" user="hormel" changeset="9852694" lat="52.2921095" lon="20.928595">
    <tag k="name" v="Metro Młociny 10"/>
    <tag k="old_name" v="Huta"/>
    <tag k="railway" v="tram_stop"/>
    <tag k="tactile_paving" v="yes"/>
    <tag k="tactile_paving:slab_size" v="40x40"/>
    <tag k="ztm:ciąg_ulicy" v="Pętla Metro Młociny"/>
  </node>
  <node id="436320184" version="5" timestamp="2011-11-17T10:32:23Z" uid="477744" user="hormel" changeset="9852793" lat="52.2921031" lon="20.9285499">
    <tag k="name" v="Metro Młociny 10"/>
    <tag k="old_name" v="Huta"/>
    <tag k="railway" v="tram_stop"/>
    <tag k="tactile_paving" v="yes"/>
    <tag k="tactile_paving:slab_size" v="40x40"/>
    <tag k="ztm:ciąg_ulicy" v="Pętla Metro Młociny"/>
  </node>
  <node id="436320199" version="2" timestamp="2010-01-10T20:19:09Z" uid="20587" user="balrog-kun" changeset="3591150" lat="52.2921404" lon="20.9289077">
    <tag k="name" v="Metro Młociny 09"/>
    <tag k="old_name" v="Huta"/>
    <tag k="railway" v="tram_stop"/>
  </node>
  <node id="436320199" version="3" timestamp="2010-01-12T13:53:36Z" uid="20587" user="balrog-kun" changeset="3603234" lat="52.2921404" lon="20.9289077">
    <tag k="name" v="Metro Młociny 09"/>
    <tag k="old_name" v="Huta"/>
    <tag k="railway" v="tram_stop"/>
    <tag k="tactile_paving" v="yes"/>
    <tag k="tactile_paving:slab_size" v="40x40"/>
    <tag k="ztm:ciąg_ulicy" v="Pętla Metro Młociny"/>
  </node>
  <node id="436320199" version="4" timestamp="2011-11-17T10:32:23Z" uid="477744" user="hormel" changeset="9852793" lat="52.2921137" lon="20.9286777">
    <tag k="name" v="Metro Młociny 09"/>
    <tag k="old_name" v="Huta"/>
    <tag k="railway" v="tram_stop"/>
    <tag k="tactile_paving" v="yes"/>
    <tag k="tactile_paving:slab_size" v="40x40"/>
    <tag k="ztm:ciąg_ulicy" v="Pętla Metro Młociny"/>
  </node>
  <node id="436320331" version="2" timestamp="2010-01-10T16:31:32Z" uid="20587" user="balrog-kun" changeset="3588732" lat="52.2920896" lon="20.9300917">
    <tag k="name" v="Metro Młociny 13"/>
    <tag k="railway" v="tram_stop"/>
  </node>
  <node id="436322285" version="2" timestamp="2010-01-10T17:28:08Z" uid="20587" user="balrog-kun" changeset="3589400" lat="52.291335" lon="20.9294959">
    <tag k="name" v="Metro Młociny 08"/>
    <tag k="note" v="Przystanek dla wysiadających"/>
    <tag k="railway" v="tram_stop"/>
  </node>
  <node id="436322285" version="3" timestamp="2010-01-10T20:19:10Z" uid="20587" user="balrog-kun" changeset="3591150" lat="52.291335" lon="20.9294959">
    <tag k="name" v="Metro Młociny 08"/>
    <tag k="note" v="Przystanek dla wysiadających"/>
    <tag k="old_name" v="Huta"/>
    <tag k="railway" v="tram_stop"/>
  </node>
  <node id="436322285" version="4" timestamp="2010-01-12T13:53:37Z" uid="20587" user="balrog-kun" changeset="3603234" lat="52.291335" lon="20.9294959">
    <tag k="name" v="Metro Młociny 08"/>
    <tag k="note" v="Przystanek dla wysiadających"/>
    <tag k="old_name" v="Huta"/>
    <tag k="railway" v="tram_stop"/>
    <tag k="tactile_paving" v="yes"/>
    <tag k="tactile_paving:slab_size" v="40x40"/>
    <tag k="ztm:ciąg_ulicy" v="Pętla Metro Młociny"/>
  </node>
  <node id="436324882" version="2" timestamp="2010-01-10T17:28:08Z" uid="20587" user="balrog-kun" changeset="3589400" lat="52.2914428" lon="20.9297642">
    <tag k="name" v="Metro Młociny 16"/>
    <tag k="note" v="Według Tramwaje Warszawskie sp.z o.o. Huta-wjazd"/>
    <tag k="railway" v="tram_stop"/>
  </node>
  <node id="436324882" version="3" timestamp="2010-01-10T20:19:10Z" uid="20587" user="balrog-kun" changeset="3591150" lat="52.2914428" lon="20.9297642">
    <tag k="name" v="Metro Młociny 16"/>
    <tag k="note" v="Według Tramwaje Warszawskie sp.z o.o. Huta-wjazd"/>
    <tag k="old_name" v="Huta"/>
    <tag k="railway" v="tram_stop"/>
  </node>
  <node id="436324882" version="4" timestamp="2010-01-12T13:53:36Z" uid="20587" user="balrog-kun" changeset="3603234" lat="52.2914428" lon="20.9297642">
    <tag k="name" v="Metro Młociny 16"/>
    <tag k="note" v="Według Tramwaje Warszawskie sp.z o.o. Huta-wjazd"/>
    <tag k="old_name" v="Huta"/>
    <tag k="railway" v="tram_stop"/>
    <tag k="tactile_paving" v="yes"/>
    <tag k="tactile_paving:slab_size" v="40x40"/>
    <tag k="ztm:ciąg_ulicy" v="Pętla Metro Młociny"/>
  </node>
  <node id="436324882" version="5" timestamp="2011-11-17T10:15:05Z" uid="477744" user="hormel" changeset="9852694" lat="52.2919465" lon="20.9302387">
    <tag k="name" v="Metro Młociny 16"/>
    <tag k="note" v="Według Tramwaje Warszawskie sp.z o.o. Huta-wjazd"/>
    <tag k="old_name" v="Huta"/>
    <tag k="railway" v="tram_stop"/>
    <tag k="tactile_paving" v="yes"/>
    <tag k="tactile_paving:slab_size" v="40x40"/>
    <tag k="ztm:ciąg_ulicy" v="Pętla Metro Młociny"/>
  </node>
  <node id="436326148" version="2" timestamp="2010-01-10T20:19:10Z" uid="20587" user="balrog-kun" changeset="3591150" lat="52.2916286" lon="20.9298258">
    <tag k="name" v="Metro Młociny 15"/>
    <tag k="old_name" v="Huta"/>
    <tag k="railway" v="tram_stop"/>
  </node>
  <node id="436326148" version="3" timestamp="2010-01-12T13:53:37Z" uid="20587" user="balrog-kun" changeset="3603234" lat="52.2916286" lon="20.9298258">
    <tag k="name" v="Metro Młociny 15"/>
    <tag k="old_name" v="Huta"/>
    <tag k="railway" v="tram_stop"/>
    <tag k="tactile_paving" v="yes"/>
    <tag k="tactile_paving:slab_size" v="40x40"/>
    <tag k="ztm:ciąg_ulicy" v="Pętla Metro Młociny"/>
  </node>
  <node id="436326148" version="4" timestamp="2011-11-17T10:15:03Z" uid="477744" user="hormel" changeset="9852694" lat="52.2919737" lon="20.9301625">
    <tag k="name" v="Metro Młociny 15"/>
    <tag k="old_name" v="Huta"/>
    <tag k="railway" v="tram_stop"/>
    <tag k="tactile_paving" v="yes"/>
    <tag k="tactile_paving:slab_size" v="40x40"/>
    <tag k="ztm:ciąg_ulicy" v="Pętla Metro Młociny"/>
  </node>
  <node id="436326156" version="2" timestamp="2010-01-10T20:19:10Z" uid="20587" user="balrog-kun" changeset="3591150" lat="52.2918126" lon="20.9299094">
    <tag k="name" v="Metro Młociny 14"/>
    <tag k="old_name" v="Huta"/>
    <tag k="railway" v="tram_stop"/>
  </node>
  <node id="436326156" version="3" timestamp="2010-01-12T13:53:37Z" uid="20587" user="balrog-kun" changeset="3603234" lat="52.2918126" lon="20.9299094">
    <tag k="name" v="Metro Młociny 14"/>
    <tag k="old_name" v="Huta"/>
    <tag k="railway" v="tram_stop"/>
    <tag k="tactile_paving" v="yes"/>
    <tag k="tactile_paving:slab_size" v="40x40"/>
    <tag k="ztm:ciąg_ulicy" v="Pętla Metro Młociny"/>
  </node>
  <node id="436326156" version="4" timestamp="2011-11-17T10:15:12Z" uid="477744" user="hormel" changeset="9852694" lat="52.2918126" lon="20.9299094"/>
  <node id="436327193" version="2" timestamp="2010-01-10T20:19:10Z" uid="20587" user="balrog-kun" changeset="3591150" lat="52.2919916" lon="20.9299763">
    <tag k="name" v="Metro Młociny 13"/>
    <tag k="old_name" v="Huta"/>
    <tag k="railway" v="tram_stop"/>
  </node>
  <node id="436327193" version="3" timestamp="2010-01-12T13:53:37Z" uid="20587" user="balrog-kun" changeset="3603234" lat="52.2919916" lon="20.9299763">
    <tag k="name" v="Metro Młociny 13"/>
    <tag k="old_name" v="Huta"/>
    <tag k="railway" v="tram_stop"/>
    <tag k="tactile_paving" v="yes"/>
    <tag k="tactile_paving:slab_size" v="40x40"/>
    <tag k="ztm:ciąg_ulicy" v="Pętla Metro Młociny"/>
  </node>
  <node id="436327193" version="4" timestamp="2011-11-17T10:15:12Z" uid="477744" user="hormel" changeset="9852694" lat="52.2919916" lon="20.9299763"/>
  <node id="436327204" version="2" timestamp="2010-01-10T20:19:10Z" uid="20587" user="balrog-kun" changeset="3591150" lat="52.2921182" lon="20.9300149">
    <tag k="name" v="Metro Młociny 12"/>
    <tag k="old_name" v="Huta"/>
    <tag k="railway" v="tram_stop"/>
  </node>
  <node id="436327204" version="3" timestamp="2010-01-12T13:53:37Z" uid="20587" user="balrog-kun" changeset="3603234" lat="52.2921182" lon="20.9300149">
    <tag k="name" v="Metro Młociny 12"/>
    <tag k="old_name" v="Huta"/>
    <tag k="railway" v="tram_stop"/>
    <tag k="tactile_paving" v="yes"/>
    <tag k="tactile_paving:slab_size" v="40x40"/>
    <tag k="ztm:ciąg_ulicy" v="Pętla Metro Młociny"/>
  </node>
  <node id="436327204" version="4" timestamp="2011-11-17T10:15:12Z" uid="477744" user="hormel" changeset="9852694" lat="52.2921182" lon="20.9300149"/>
  <node id="436327883" version="2" timestamp="2009-12-24T04:00:35Z" uid="6975" user="ulfl" changeset="3439817" lat="51.2247" lon="51.41039">
    <tag k="shop" v="car_repair"/>
  </node>
  <node id="436327883" version="3" timestamp="2010-04-09T20:17:48Z" uid="184086" user="colebatch" changeset="4377085" lat="51.2247" lon="51.41039">
    <tag k="shop" v="car_repair"/>
  </node>
  <node id="436327973" version="1" timestamp="2009-07-07T13:59:02Z" uid="20587" user="balrog-kun" changeset="1762712" lat="28.1264533" lon="-15.4274224"/>
  <node id="436327976" version="1" timestamp="2009-07-07T13:59:02Z" uid="20587" user="balrog-kun" changeset="1762712" lat="28.126499" lon="-15.4273207"/>
  <node id="436327977" version="1" timestamp="2009-07-07T13:59:02Z" uid="20587" user="balrog-kun" changeset="1762712" lat="28.126584" lon="-15.4273895"/>
  <node id="436327978" version="1" timestamp="2009-07-07T13:59:02Z" uid="20587" user="balrog-kun" changeset="1762712" lat="28.1266829" lon="-15.4272292"/>
  <node id="436327979" version="1" timestamp="2009-07-07T13:59:02Z" uid="20587" user="balrog-kun" changeset="1762712" lat="28.1268389" lon="-15.4273482"/>
  <node id="436327980" version="1" timestamp="2009-07-07T13:59:02Z" uid="20587" user="balrog-kun" changeset="1762712" lat="28.1267364" lon="-15.4275203"/>
  <node id="436327981" version="1" timestamp="2009-07-07T13:59:02Z" uid="20587" user="balrog-kun" changeset="1762712" lat="28.1268699" lon="-15.4276166"/>
  <node id="436327982" version="1" timestamp="2009-07-07T13:59:02Z" uid="20587" user="balrog-kun" changeset="1762712" lat="28.1269391" lon="-15.4274996"/>
  <node id="436327983" version="1" timestamp="2009-07-07T13:59:02Z" uid="20587" user="balrog-kun" changeset="1762712" lat="28.1272334" lon="-15.427916"/>
  <node id="436327984" version="1" timestamp="2009-07-07T13:59:02Z" uid="20587" user="balrog-kun" changeset="1762712" lat="28.1268734" lon="-15.4249172"/>
  <node id="436327985" version="1" timestamp="2009-07-07T13:59:03Z" uid="20587" user="balrog-kun" changeset="1762712" lat="28.1269038" lon="-15.4249207"/>
  <node id="436327986" version="1" timestamp="2009-07-07T13:59:03Z" uid="20587" user="balrog-kun" changeset="1762712" lat="28.1269038" lon="-15.4250205"/>
  <node id="436327987" version="1" timestamp="2009-07-07T13:59:03Z" uid="20587" user="balrog-kun" changeset="1762712" lat="28.1258908" lon="-15.4260314">
    <tag k="waterway" v="docks"/>
  </node>
  <node id="436327987" version="2" timestamp="2010-07-27T17:08:32Z" uid="86194" user="Jonay" changeset="5331542" lat="28.1258907" lon="-15.4260314">
    <tag k="name" v="Dársena de embarcaciones deportivas"/>
    <tag k="waterway" v="docks"/>
  </node>
  <node id="436327987" version="3" timestamp="2011-09-27T17:54:06Z" uid="519501" user="parukhin" changeset="9412859" lat="28.1258907" lon="-15.4260314">
    <tag k="name" v="Dársena de embarcaciones deportivas"/>
    <tag k="waterway" v="dock"/>
  </node>
  <node id="436327989" version="1" timestamp="2009-07-07T13:59:03Z" uid="20587" user="balrog-kun" changeset="1762712" lat="28.1308236" lon="-15.4384039"/>
  <node id="436327991" version="1" timestamp="2009-07-07T13:59:03Z" uid="20587" user="balrog-kun" changeset="1762712" lat="28.1303859" lon="-15.4379272"/>
  <node id="436327993" version="1" timestamp="2009-07-07T13:59:03Z" uid="20587" user="balrog-kun" changeset="1762712" lat="28.1298483" lon="-15.4365871"/>
  <node id="436327995" version="1" timestamp="2009-07-07T13:59:03Z" uid="20587" user="balrog-kun" changeset="1762712" lat="28.1296262" lon="-15.4364158"/>
  <node id="436327997" version="1" timestamp="2009-07-07T13:59:03Z" uid="20587" user="balrog-kun" changeset="1762712" lat="28.12877" lon="-15.4375602">
    <tag k="highway" v="crossing"/>
  </node>
  <node id="436327998" version="1" timestamp="2009-07-07T13:59:03Z" uid="20587" user="balrog-kun" changeset="1762712" lat="28.1286239" lon="-15.4373517">
    <tag k="highway" v="crossing"/>
  </node>
  <node id="436328000" version="1" timestamp="2009-07-07T13:59:03Z" uid="20587" user="balrog-kun" changeset="1762712" lat="28.1279157" lon="-15.4375614">
    <tag k="highway" v="crossing"/>
  </node>
  <node id="436328002" version="1" timestamp="2009-07-07T13:59:03Z" uid="20587" user="balrog-kun" changeset="1762712" lat="28.1289906" lon="-15.4373922"/>
  <node id="436328002" version="2" timestamp="2009-09-10T15:17:41Z" uid="86194" user="Jonay" changeset="2437140" lat="28.1289908" lon="-15.4373932"/>
  <node id="436328002" version="3" timestamp="2011-12-18T23:35:28Z" uid="86194" user="Jonay" changeset="10152026" lat="28.1290008" lon="-15.4374122"/>
  <node id="436328004" version="1" timestamp="2009-07-07T13:59:03Z" uid="20587" user="balrog-kun" changeset="1762712" lat="28.1281778" lon="-15.4356954"/>
  <node id="436328006" version="1" timestamp="2009-07-07T13:59:03Z" uid="20587" user="balrog-kun" changeset="1762712" lat="28.1294484" lon="-15.4352319"/>
  <node id="436328007" version="1" timestamp="2009-07-07T13:59:03Z" uid="20587" user="balrog-kun" changeset="1762712" lat="28.129324" lon="-15.4348994"/>
  <node id="436328007" version="2" timestamp="2011-12-18T23:19:05Z" uid="86194" user="Jonay" changeset="10151930" lat="28.1294392" lon="-15.4348825"/>
  <node id="436328009" version="1" timestamp="2009-07-07T13:59:03Z" uid="20587" user="balrog-kun" changeset="1762712" lat="28.1316432" lon="-15.434854">
    <tag k="highway" v="crossing"/>
  </node>
  <node id="436328009" version="2" timestamp="2011-12-18T23:19:08Z" uid="86194" user="Jonay" changeset="10151930" lat="28.1316265" lon="-15.4349033">
    <tag k="highway" v="crossing"/>
  </node>
  <node id="436328010" version="1" timestamp="2009-07-07T13:59:03Z" uid="20587" user="balrog-kun" changeset="1762712" lat="28.1327362" lon="-15.4351009"/>
  <node id="436328011" version="1" timestamp="2009-07-07T13:59:03Z" uid="20587" user="balrog-kun" changeset="1762712" lat="28.1424566" lon="-15.4318715">
    <tag k="amenity" v="pub"/>
    <tag k="name" v="Crazy Horse"/>
  </node>
  <node id="436328012" version="1" timestamp="2009-07-07T13:59:03Z" uid="20587" user="balrog-kun" changeset="1762712" lat="28.1423678" lon="-15.4330958">
    <tag k="name" v="Reina Isabel"/>
    <tag k="tourism" v="hotel"/>
  </node>
  <node id="436328012" version="2" timestamp="2009-07-07T23:21:35Z" uid="20587" user="balrog-kun" changeset="1767379" lat="28.1423678" lon="-15.4330958">
    <tag k="name" v="Reina Isabel"/>
    <tag k="rating" v="****"/>
    <tag k="tourism" v="hotel"/>
  </node>
  <node id="436328012" version="3" timestamp="2009-07-08T20:03:03Z" uid="20587" user="balrog-kun" changeset="1776148" lat="28.1424105" lon="-15.4330897">
    <tag k="name" v="Reina Isabel"/>
    <tag k="operator" v="Bull Hotels"/>
    <tag k="rating" v="****"/>
    <tag k="tourism" v="hotel"/>
  </node>
  <node id="436328013" version="1" timestamp="2009-07-07T13:59:03Z" uid="20587" user="balrog-kun" changeset="1762712" lat="28.1400355" lon="-15.432204">
    <tag k="addr:housenumber" v="55"/>
    <tag k="addr:street" v="Calle de Secretario Artiles"/>
    <tag k="amenity" v="place_of_worship"/>
    <tag k="denomination" v="catholic"/>
    <tag k="name" v="Parroquia del Apóstol San Pablo"/>
    <tag k="religion" v="christian"/>
  </node>
  <node id="436328014" version="1" timestamp="2009-07-07T13:59:03Z" uid="20587" user="balrog-kun" changeset="1762712" lat="28.1396976" lon="-15.4325116"/>
  <node id="436328015" version="1" timestamp="2009-07-07T13:59:03Z" uid="20587" user="balrog-kun" changeset="1762712" lat="28.1402619" lon="-15.4325513"/>
  <node id="436328016" version="1" timestamp="2009-07-07T13:59:03Z" uid="20587" user="balrog-kun" changeset="1762712" lat="28.139674" lon="-15.4329433"/>
  <node id="436328017" version="1" timestamp="2009-07-07T13:59:04Z" uid="20587" user="balrog-kun" changeset="1762712" lat="28.1402382" lon="-15.432983"/>
  <node id="436328018" version="1" timestamp="2009-07-07T13:59:04Z" uid="20587" user="balrog-kun" changeset="1762712" lat="28.1394499" lon="-15.4323189">
    <tag k="amenity" v="bank"/>
    <tag k="name" v="Caja Rural"/>
  </node>
  <node id="436328019" version="1" timestamp="2009-07-07T13:59:04Z" uid="20587" user="balrog-kun" changeset="1762712" lat="28.1381014" lon="-15.4340295"/>
  <node id="436328021" version="1" timestamp="2009-07-07T13:59:04Z" uid="20587" user="balrog-kun" changeset="1762712" lat="28.1381221" lon="-15.4335406"/>
  <node id="436328023" version="1" timestamp="2009-07-07T13:59:04Z" uid="20587" user="balrog-kun" changeset="1762712" lat="28.1376629" lon="-15.4340056"/>
  <node id="436328025" version="1" timestamp="2009-07-07T13:59:04Z" uid="20587" user="balrog-kun" changeset="1762712" lat="28.1376836" lon="-15.4335167"/>
  <node id="436328027" version="1" timestamp="2009-07-07T13:59:04Z" uid="20587" user="balrog-kun" changeset="1762712" lat="28.1340563" lon="-15.4386471">
    <tag k="amenity" v="post_box"/>
  </node>
  <node id="436328029" version="1" timestamp="2009-07-07T13:59:04Z" uid="20587" user="balrog-kun" changeset="1762712" lat="28.1319835" lon="-15.441149">
    <tag k="amenity" v="telephone"/>
  </node>
  <node id="436328031" version="1" timestamp="2009-07-07T13:59:04Z" uid="20587" user="balrog-kun" changeset="1762712" lat="28.1319219" lon="-15.4412162">
    <tag k="amenity" v="post_box"/>
  </node>
  <node id="436328031" version="2" timestamp="2009-07-15T21:49:21Z" uid="20587" user="balrog-kun" changeset="1840686" lat="28.1319219" lon="-15.4412162">
    <tag k="access" v="no"/>
    <tag k="amenity" v="post_box"/>
  </node>
  <node id="436328772" version="2" timestamp="2009-12-24T04:00:35Z" uid="6975" user="ulfl" changeset="3439817" lat="51.22753" lon="51.43142">
    <tag k="shop" v="car_repair"/>
  </node>
  <node id="436328772" version="3" timestamp="2010-03-05T14:04:06Z" uid="106385" user="IainMaclean" changeset="4041164" lat="51.22753" lon="51.43142">
    <tag k="shop" v="car_repair"/>
  </node>
  <node id="436320184" version="6" timestamp="2012-07-24T21:30:41Z" uid="722137" user="OSMF Redaction Account" changeset="12476962" lat="52.2921031" lon="20.9285499">
    <tag k="old_name" v="Huta"/>
    <tag k="tactile_paving" v="yes"/>
    <tag k="tactile_paving:slab_size" v="40x40"/>
    <tag k="ztm:ciąg_ulicy" v="Pętla Metro Młociny"/>
  </node>
  <node id="436320199" version="5" timestamp="2012-07-24T21:30:42Z" uid="722137" user="OSMF Redaction Account" changeset="12476962" lat="52.2921137" lon="20.9286777">
    <tag k="old_name" v="Huta"/>
    <tag k="tactile_paving" v="yes"/>
    <tag k="tactile_paving:slab_size" v="40x40"/>
    <tag k="ztm:ciąg_ulicy" v="Pętla Metro Młociny"/>
  </node>
  <node id="436322285" version="5" timestamp="2012-07-24T21:31:01Z" uid="722137" user="OSMF Redaction Account" changeset="12476962" lat="52.291335" lon="20.9294959"/>
  <node id="436324882" version="6" timestamp="2012-07-24T21:30:41Z" uid="722137" user="OSMF Redaction Account" changeset="12476962" lat="52.2919465" lon="20.9302387">
    <tag k="note" v="Według Tramwaje Warszawskie sp.z o.o. Huta-wjazd"/>
    <tag k="old_name" v="Huta"/>
    <tag k="tactile_paving" v="yes"/>
    <tag k="tactile_paving:slab_size" v="40x40"/>
    <tag k="ztm:ciąg_ulicy" v="Pętla Metro Młociny"/>
  </node>
  <node id="436326148" version="5" timestamp="2012-07-24T21:30:41Z" uid="722137" user="OSMF Redaction Account" changeset="12476962" lat="52.2919737" lon="20.9301625">
    <tag k="old_name" v="Huta"/>
    <tag k="tactile_paving" v="yes"/>
    <tag k="tactile_paving:slab_size" v="40x40"/>
    <tag k="ztm:ciąg_ulicy" v="Pętla Metro Młociny"/>
  </node>
  <node id="436327983" version="2" timestamp="2012-09-03T02:17:48Z" uid="792881" user="nukeidon" changeset="12962152" lat="28.1272408" lon="-15.4279087"/>
  <node id="436327993" version="2" timestamp="2012-08-22T13:07:09Z" uid="792881" user="nukeidon" changeset="12820731" lat="28.1298926" lon="-15.4366773"/>
  <node id="436327995" version="2" timestamp="2012-08-22T13:07:12Z" uid="792881" user="nukeidon" changeset="12820731" lat="28.1295478" lon="-15.4364654"/>
  <node id="436327998" version="2" timestamp="2012-06-25T22:39:11Z" uid="654374" user="Sanchog" changeset="12017376" lat="28.1286237" lon="-15.4373603">
    <tag k="highway" v="crossing"/>
  </node>
  <node id="436327998" version="3" timestamp="2012-08-16T13:10:54Z" uid="792881" user="nukeidon" changeset="12750669" lat="28.128608" lon="-15.4373528">
    <tag k="highway" v="crossing"/>
  </node>
  <node id="436327998" version="4" timestamp="2012-08-22T13:07:09Z" uid="792881" user="nukeidon" changeset="12820731" lat="28.1286511" lon="-15.4373637">
    <tag k="highway" v="crossing"/>
  </node>
  <node id="436328000" version="2" timestamp="2012-06-25T22:39:11Z" uid="654374" user="Sanchog" changeset="12017376" lat="28.1279155" lon="-15.4375809">
    <tag k="highway" v="crossing"/>
  </node>
  <node id="436328000" version="3" timestamp="2012-08-16T13:10:54Z" uid="792881" user="nukeidon" changeset="12750669" lat="28.1278998" lon="-15.4375734">
    <tag k="highway" v="crossing"/>
  </node>
  <node id="436328000" version="4" timestamp="2012-08-22T13:07:08Z" uid="792881" user="nukeidon" changeset="12820731" lat="28.1279295" lon="-15.4375962">
    <tag k="highway" v="crossing"/>
  </node>
  <node id="436328002" version="4" timestamp="2012-06-25T22:39:11Z" uid="654374" user="Sanchog" changeset="12017376" lat="28.1290012" lon="-15.4374148"/>
  <node id="436328004" version="2" timestamp="2012-06-25T22:39:12Z" uid="654374" user="Sanchog" changeset="12017376" lat="28.1282515" lon="-15.4356721"/>
  <node id="436328006" version="2" timestamp="2012-08-20T12:41:06Z" uid="792881" user="nukeidon" changeset="12795608" lat="28.1294643" lon="-15.4352495"/>
  <node id="436328007" version="3" timestamp="2012-08-20T12:41:07Z" uid="792881" user="nukeidon" changeset="12795608" lat="28.1294527" lon="-15.434922"/>
  <node id="436328009" version="3" timestamp="2012-08-20T12:41:08Z" uid="792881" user="nukeidon" changeset="12795608" lat="28.1316356" lon="-15.4349145"/>
  <node id="436328010" version="2" timestamp="2012-08-20T12:41:02Z" uid="792881" user="nukeidon" changeset="12795608" lat="28.1326975" lon="-15.4352114"/>
</osm>
