<?xml version='1.0' encoding='UTF-8'?>
<osm version="0.6" generator="libosmium/2.20.0">
  <node id="436718111" version="2" timestamp="2009-08-10T01:39:09Z" uid="4467" user="Rosscoe" changeset="2092274" lat="-30.4674403" lon="153.0451574">
    <tag k="name" v="North Beach Surf Lifesaving Club"/>
    <tag k="source" v="survey"/>
    <tag k="sport" v="swimming"/>
  </node>
  <node id="436718111" version="3" timestamp="2011-09-27T22:02:27Z" uid="23015" user="redcane" changeset="9415299" lat="-30.4674403" lon="153.0451574">
    <tag k="building" v="yes"/>
    <tag k="name" v="North Beach Surf Lifesaving Club"/>
    <tag k="source" v="survey"/>
    <tag k="sport" v="swimming"/>
  </node>
  <node id="436718116" version="2" timestamp="2009-08-10T01:39:08Z" uid="4467" user="Rosscoe" changeset="2092274" lat="-30.4670704" lon="153.0431232">
    <tag k="leisure" v="park"/>
    <tag k="name" v="Alma Doepel Park"/>
    <tag k="source" v="survey"/>
  </node>
  <node id="436718120" version="2" timestamp="2009-08-10T01:39:09Z" uid="4467" user="Rosscoe" changeset="2092274" lat="-30.4670852" lon="153.0432777">
    <tag k="amenity" v="toilets"/>
    <tag k="source" v="survey"/>
  </node>
  <node id="436718111" version="4" timestamp="2012-07-19T14:46:05Z" uid="722137" user="OSMF Redaction Account" changeset="12331963" lat="-30.4674403" lon="153.0451574">
    <tag k="building" v="yes"/>
    <tag k="name" v="North Beach Surf Lifesaving Club"/>
    <tag k="source" v="GPS"/>
    <tag k="sport" v="swimming"/>
  </node>
  <node id="436718116" version="3" timestamp="2012-07-19T14:46:06Z" uid="722137" user="OSMF Redaction Account" changeset="12331963" lat="-30.4670704" lon="153.0431232">
    <tag k="leisure" v="park"/>
    <tag k="name" v="Alma Doepel Park"/>
    <tag k="source" v="GPS"/>
  </node>
  <node id="436718120" version="3" timestamp="2012-07-19T14:46:05Z" uid="722137" user="OSMF Redaction Account" changeset="12331963" lat="-30.4670852" lon="153.0432777">
    <tag k="amenity" v="toilets"/>
    <tag k="source" v="GPS"/>
  </node>
</osm>
