<?xml version='1.0' encoding='UTF-8'?>
<osm version="0.6" generator="libosmium/2.20.0">
  <node id="437533797" version="4" timestamp="2010-07-29T09:06:39Z" uid="74617" user="JohnSmith" changeset="5344848" lat="48.9944471" lon="12.0902239">
    <tag k="amenity" v="emergency_phone"/>
    <tag k="emergency" v="phone"/>
  </node>
  <node id="437534231" version="1" timestamp="2009-07-08T20:02:56Z" uid="20587" user="balrog-kun" changeset="1776148" lat="28.1448697" lon="-15.430518">
    <tag k="name" v="Meliá"/>
    <tag k="rating" v="*****"/>
    <tag k="tourism" v="hotel"/>
  </node>
  <node id="437534231" version="2" timestamp="2011-06-29T02:32:08Z" uid="139250" user="juanje" changeset="8577053" lat="28.1448697" lon="-15.430518">
    <tag k="name" v="Cristina"/>
    <tag k="rating" v="*****"/>
    <tag k="tourism" v="hotel"/>
  </node>
  <node id="437534235" version="1" timestamp="2009-07-08T20:02:56Z" uid="20587" user="balrog-kun" changeset="1776148" lat="28.1439812" lon="-15.4317616">
    <tag k="amenity" v="restaurant"/>
    <tag k="name" v="Glamour"/>
  </node>
  <node id="437534237" version="1" timestamp="2009-07-08T20:02:56Z" uid="20587" user="balrog-kun" changeset="1776148" lat="28.1428579" lon="-15.4319695">
    <tag k="amenity" v="restaurant"/>
    <tag k="name" v="Tintorería Atlántico"/>
  </node>
  <node id="437534239" version="1" timestamp="2009-07-08T20:02:56Z" uid="20587" user="balrog-kun" changeset="1776148" lat="28.1441859" lon="-15.4315784">
    <tag k="historic" v="memorial"/>
    <tag k="name" v="María Sánchez"/>
  </node>
  <node id="437534240" version="1" timestamp="2009-07-08T20:02:56Z" uid="20587" user="balrog-kun" changeset="1776148" lat="28.1442874" lon="-15.4314206">
    <tag k="amenity" v="cafe"/>
    <tag k="name" v="Beach Bar"/>
  </node>
  <node id="437534240" version="2" timestamp="2009-07-09T22:49:45Z" uid="20587" user="balrog-kun" changeset="1785040" lat="28.1442754" lon="-15.431407">
    <tag k="amenity" v="pub"/>
    <tag k="name" v="Beach Bar"/>
  </node>
  <node id="437534242" version="1" timestamp="2009-07-08T20:02:56Z" uid="20587" user="balrog-kun" changeset="1776148" lat="28.1441144" lon="-15.4316071">
    <tag k="amenity" v="restaurant"/>
    <tag k="cuisine" v="italian"/>
    <tag k="name" v="Al Macarroni"/>
  </node>
  <node id="437534244" version="1" timestamp="2009-07-08T20:02:57Z" uid="20587" user="balrog-kun" changeset="1776148" lat="28.144046" lon="-15.4316555">
    <tag k="amenity" v="cafe"/>
    <tag k="name" v="La Perla de Las Canteras"/>
  </node>
  <node id="437534246" version="1" timestamp="2009-07-08T20:02:57Z" uid="20587" user="balrog-kun" changeset="1776148" lat="28.1438397" lon="-15.431865">
    <tag k="addr:housenumber" v="27"/>
    <tag k="addr:street" v="Calle de Hierro"/>
    <tag k="amenity" v="public_building"/>
    <tag k="name" v="Ministerio de Defensa, Delegación de Defensa en Las Palmas"/>
  </node>
  <node id="437534248" version="1" timestamp="2009-07-08T20:02:57Z" uid="20587" user="balrog-kun" changeset="1776148" lat="28.1436955" lon="-15.4318135">
    <tag k="name" v="Apartamentos Castillo Playa"/>
    <tag k="tourism" v="hostel"/>
  </node>
  <node id="437534250" version="1" timestamp="2009-07-08T20:02:57Z" uid="20587" user="balrog-kun" changeset="1776148" lat="28.1434392" lon="-15.4316409">
    <tag k="amenity" v="pub"/>
    <tag k="name" v="Bar"/>
  </node>
  <node id="437534252" version="1" timestamp="2009-07-08T20:02:57Z" uid="20587" user="balrog-kun" changeset="1776148" lat="28.1434819" lon="-15.431865">
    <tag k="amenity" v="cafe"/>
    <tag k="name" v="Pico Tres Mares"/>
  </node>
  <node id="437534254" version="1" timestamp="2009-07-08T20:02:57Z" uid="20587" user="balrog-kun" changeset="1776148" lat="28.1435112" lon="-15.4321799">
    <tag k="amenity" v="restaurant"/>
    <tag k="cuisine" v="international"/>
    <tag k="name" v="Nobel"/>
  </node>
  <node id="437534256" version="1" timestamp="2009-07-08T20:02:57Z" uid="20587" user="balrog-kun" changeset="1776148" lat="28.1431001" lon="-15.4327643">
    <tag k="historic" v="memorial"/>
    <tag k="name" v="Insigne Doctor Don Bartolome Apolinario Macias"/>
  </node>
  <node id="437534257" version="1" timestamp="2009-07-08T20:02:57Z" uid="20587" user="balrog-kun" changeset="1776148" lat="28.143052" lon="-15.4327371">
    <tag k="amenity" v="telephone"/>
  </node>
  <node id="437534258" version="1" timestamp="2009-07-08T20:02:57Z" uid="20587" user="balrog-kun" changeset="1776148" lat="28.1429131" lon="-15.4328794">
    <tag k="amenity" v="restaurant"/>
    <tag k="cuisine" v="spanish"/>
    <tag k="name" v="Restaurante Típico Español"/>
  </node>
  <node id="437534259" version="1" timestamp="2009-07-08T20:02:57Z" uid="20587" user="balrog-kun" changeset="1776148" lat="28.1425927" lon="-15.4332549">
    <tag k="amenity" v="cafe"/>
  </node>
  <node id="437534261" version="1" timestamp="2009-07-08T20:02:57Z" uid="20587" user="balrog-kun" changeset="1776148" lat="28.1424726" lon="-15.433482">
    <tag k="name" v="Bazar Reina Canteras"/>
    <tag k="shop" v="convenience"/>
  </node>
  <node id="437534263" version="1" timestamp="2009-07-08T20:02:58Z" uid="20587" user="balrog-kun" changeset="1776148" lat="28.1424218" lon="-15.433588">
    <tag k="amenity" v="cafe"/>
    <tag k="name" v="Heladería Prestige"/>
  </node>
  <node id="437534264" version="1" timestamp="2009-07-08T20:02:58Z" uid="20587" user="balrog-kun" changeset="1776148" lat="28.1423551" lon="-15.4336637">
    <tag k="amenity" v="cafe"/>
    <tag k="name" v="Heladería Atlántida"/>
  </node>
  <node id="437534265" version="1" timestamp="2009-07-08T20:02:58Z" uid="20587" user="balrog-kun" changeset="1776148" lat="28.1419305" lon="-15.4336304">
    <tag k="name" v="Minimarket Ario"/>
    <tag k="shop" v="supermarket"/>
  </node>
  <node id="437534266" version="1" timestamp="2009-07-08T20:02:58Z" uid="20587" user="balrog-kun" changeset="1776148" lat="28.1419199" lon="-15.4341754">
    <tag k="amenity" v="restaurant"/>
    <tag k="cuisine" v="pizza"/>
    <tag k="name" v="Paparazzi"/>
  </node>
  <node id="437534267" version="1" timestamp="2009-07-08T20:02:58Z" uid="20587" user="balrog-kun" changeset="1776148" lat="28.1418237" lon="-15.4342996">
    <tag k="amenity" v="restaurant"/>
    <tag k="cuisine" v="beer"/>
    <tag k="name" v="Tropical"/>
  </node>
  <node id="437534268" version="1" timestamp="2009-07-08T20:02:58Z" uid="20587" user="balrog-kun" changeset="1776148" lat="28.1417249" lon="-15.4343692">
    <tag k="amenity" v="restaurant"/>
    <tag k="name" v="Rincón Playa"/>
  </node>
  <node id="437534269" version="1" timestamp="2009-07-08T20:02:58Z" uid="20587" user="balrog-kun" changeset="1776148" lat="28.1416368" lon="-15.4344661">
    <tag k="amenity" v="restaurant"/>
    <tag k="cuisine" v="grill"/>
    <tag k="name" v="La Regata"/>
  </node>
  <node id="437534270" version="1" timestamp="2009-07-08T20:02:58Z" uid="20587" user="balrog-kun" changeset="1776148" lat="28.1415647" lon="-15.4345751">
    <tag k="amenity" v="restaurant"/>
    <tag k="cuisine" v="chinese"/>
    <tag k="name" v="Buffet Casa Chen"/>
  </node>
  <node id="437534271" version="1" timestamp="2009-07-08T20:02:58Z" uid="20587" user="balrog-kun" changeset="1776148" lat="28.1413565" lon="-15.4347356">
    <tag k="amenity" v="telephone"/>
  </node>
  <node id="437534274" version="1" timestamp="2009-07-08T20:02:59Z" uid="20587" user="balrog-kun" changeset="1776148" lat="28.141474" lon="-15.4344601">
    <tag k="name" v="Apartamentos Lindamar"/>
    <tag k="tourism" v="hostel"/>
  </node>
  <node id="437534277" version="1" timestamp="2009-07-08T20:02:59Z" uid="20587" user="balrog-kun" changeset="1776148" lat="28.1414205" lon="-15.4345994">
    <tag k="name" v="Apartamentos Marsin Playa"/>
    <tag k="tourism" v="hostel"/>
  </node>
  <node id="437534278" version="1" timestamp="2009-07-08T20:02:59Z" uid="20587" user="balrog-kun" changeset="1776148" lat="28.1412844" lon="-15.4345842">
    <tag k="amenity" v="fast_food"/>
    <tag k="cuisine" v="sandwich"/>
    <tag k="name" v="Rachi"/>
  </node>
  <node id="437534280" version="1" timestamp="2009-07-08T20:02:59Z" uid="20587" user="balrog-kun" changeset="1776148" lat="28.1411577" lon="-15.4346725"/>
  <node id="437534282" version="1" timestamp="2009-07-08T20:02:59Z" uid="20587" user="balrog-kun" changeset="1776148" lat="28.1405874" lon="-15.4346313"/>
  <node id="437534284" version="1" timestamp="2009-07-08T20:02:59Z" uid="20587" user="balrog-kun" changeset="1776148" lat="28.1412095" lon="-15.43375"/>
  <node id="437534288" version="1" timestamp="2009-07-08T20:02:59Z" uid="20587" user="balrog-kun" changeset="1776148" lat="28.1406392" lon="-15.4337088"/>
  <node id="437534290" version="1" timestamp="2009-07-08T20:02:59Z" uid="20587" user="balrog-kun" changeset="1776148" lat="28.1411358" lon="-15.4342764">
    <tag k="amenity" v="cafe"/>
    <tag k="name" v="Hada Verde"/>
  </node>
  <node id="437534291" version="1" timestamp="2009-07-08T20:02:59Z" uid="20587" user="balrog-kun" changeset="1776148" lat="28.1411198" lon="-15.4344399">
    <tag k="amenity" v="bank"/>
    <tag k="name" v="La Caixa"/>
    <tag k="operator" v="La Caixa"/>
  </node>
  <node id="437534293" version="1" timestamp="2009-07-08T20:02:59Z" uid="20587" user="balrog-kun" changeset="1776148" lat="28.1411091" lon="-15.4346035">
    <tag k="amenity" v="restaurant"/>
    <tag k="cuisine" v="chinese"/>
    <tag k="name" v="Pais Divino"/>
  </node>
  <node id="437534294" version="1" timestamp="2009-07-08T20:02:59Z" uid="20587" user="balrog-kun" changeset="1776148" lat="28.1408929" lon="-15.4345823">
    <tag k="amenity" v="restaurant"/>
    <tag k="cuisine" v="japanese"/>
    <tag k="name" v="Samurai II"/>
  </node>
  <node id="437534296" version="1" timestamp="2009-07-08T20:02:59Z" uid="20587" user="balrog-kun" changeset="1776148" lat="28.1408982" lon="-15.4348185">
    <tag k="amenity" v="cafe"/>
    <tag k="name" v="Bar Venecia"/>
  </node>
  <node id="437534297" version="1" timestamp="2009-07-08T20:02:59Z" uid="20587" user="balrog-kun" changeset="1776148" lat="28.1412737" lon="-15.43477">
    <tag k="amenity" v="recycling"/>
  </node>
  <node id="437534298" version="1" timestamp="2009-07-08T20:02:59Z" uid="20587" user="balrog-kun" changeset="1776148" lat="28.1414623" lon="-15.4347855"/>
  <node id="437534299" version="1" timestamp="2009-07-08T20:02:59Z" uid="20587" user="balrog-kun" changeset="1776148" lat="28.1412545" lon="-15.435032"/>
  <node id="437534300" version="1" timestamp="2009-07-08T20:02:59Z" uid="20587" user="balrog-kun" changeset="1776148" lat="28.1413434" lon="-15.434849">
    <tag k="amenity" v="restaurant"/>
    <tag k="cuisine" v="italian"/>
    <tag k="name" v="Porto Italia"/>
  </node>
  <node id="437534301" version="1" timestamp="2009-07-08T20:02:59Z" uid="20587" user="balrog-kun" changeset="1776148" lat="28.1411864" lon="-15.4348412">
    <tag k="historic" v="memorial"/>
    <tag k="name" v="Diputado a Cortes Luis Morote Greus"/>
  </node>
  <node id="437534302" version="1" timestamp="2009-07-08T20:03:00Z" uid="20587" user="balrog-kun" changeset="1776148" lat="28.1410919" lon="-15.4348785">
    <tag k="amenity" v="fast_food"/>
    <tag k="name" v="MW Buffet King"/>
  </node>
  <node id="437534303" version="1" timestamp="2009-07-08T20:03:00Z" uid="20587" user="balrog-kun" changeset="1776148" lat="28.1410276" lon="-15.4349886">
    <tag k="amenity" v="night_club"/>
    <tag k="name" v="Neon Dancing"/>
  </node>
  <node id="437534303" version="2" timestamp="2009-12-24T04:36:41Z" uid="6975" user="ulfl" changeset="3439954" lat="28.1410276" lon="-15.4349886">
    <tag k="amenity" v="nightclub"/>
    <tag k="name" v="Neon Dancing"/>
  </node>
  <node id="437534304" version="1" timestamp="2009-07-08T20:03:00Z" uid="20587" user="balrog-kun" changeset="1776148" lat="28.1410714" lon="-15.4351188">
    <tag k="name" v="Apartamentos Playa Dorada"/>
    <tag k="tourism" v="hostel"/>
  </node>
  <node id="437534305" version="1" timestamp="2009-07-08T20:03:00Z" uid="20587" user="balrog-kun" changeset="1776148" lat="28.1409921" lon="-15.4352599">
    <tag k="amenity" v="restaurant"/>
    <tag k="name" v="El Cerdo Que Rie"/>
    <tag k="name:en" v="The Laughing Pig"/>
  </node>
  <node id="437534306" version="1" timestamp="2009-07-08T20:03:00Z" uid="20587" user="balrog-kun" changeset="1776148" lat="28.1409005" lon="-15.4353607">
    <tag k="amenity" v="restaurant"/>
    <tag k="name" v="El Horreo"/>
  </node>
  <node id="437534306" version="2" timestamp="2011-09-25T20:11:11Z" uid="290680" user="wheelmap_visitor" changeset="9389626" lat="28.1409005" lon="-15.4353607">
    <tag k="amenity" v="restaurant"/>
    <tag k="name" v="El Horreo"/>
    <tag k="wheelchair" v="no"/>
  </node>
  <node id="437534307" version="1" timestamp="2009-07-08T20:03:00Z" uid="20587" user="balrog-kun" changeset="1776148" lat="28.140802" lon="-15.435449">
    <tag k="name" v="Golosinas"/>
    <tag k="shop" v="grocery"/>
  </node>
  <node id="437534308" version="1" timestamp="2009-07-08T20:03:00Z" uid="20587" user="balrog-kun" changeset="1776148" lat="28.1407118" lon="-15.4355591">
    <tag k="amenity" v="restaurant"/>
    <tag k="name" v="El Gallo Feliz"/>
  </node>
  <node id="437534308" version="2" timestamp="2011-09-25T20:11:11Z" uid="290680" user="wheelmap_visitor" changeset="9389626" lat="28.1407118" lon="-15.4355591">
    <tag k="amenity" v="restaurant"/>
    <tag k="name" v="El Gallo Feliz"/>
    <tag k="wheelchair" v="no"/>
  </node>
  <node id="437534309" version="1" timestamp="2009-07-08T20:03:00Z" uid="20587" user="balrog-kun" changeset="1776148" lat="28.1406833" lon="-15.434807">
    <tag k="amenity" v="cafe"/>
    <tag k="name" v="Las Cumbres"/>
  </node>
  <node id="437534310" version="1" timestamp="2009-07-08T20:03:00Z" uid="20587" user="balrog-kun" changeset="1776148" lat="28.1406833" lon="-15.4351401">
    <tag k="name" v="Las Lanzas"/>
    <tag k="tourism" v="hotel"/>
  </node>
  <node id="437534310" version="2" timestamp="2011-09-25T20:10:10Z" uid="290680" user="wheelmap_visitor" changeset="9389626" lat="28.1406833" lon="-15.4351401">
    <tag k="name" v="Las Lanzas"/>
    <tag k="tourism" v="hotel"/>
    <tag k="wheelchair" v="no"/>
  </node>
  <node id="437534311" version="1" timestamp="2009-07-08T20:03:00Z" uid="20587" user="balrog-kun" changeset="1776148" lat="28.1404083" lon="-15.4354762">
    <tag k="amenity" v="restaurant"/>
    <tag k="name" v="El Acueducto"/>
  </node>
  <node id="437534313" version="1" timestamp="2009-07-08T20:03:00Z" uid="20587" user="balrog-kun" changeset="1776148" lat="28.1403949" lon="-15.4352582">
    <tag k="amenity" v="cafe"/>
    <tag k="name" v="Candombe"/>
  </node>
  <node id="437534314" version="1" timestamp="2009-07-08T20:03:00Z" uid="20587" user="balrog-kun" changeset="1776148" lat="28.1404029" lon="-15.4350189">
    <tag k="amenity" v="restaurant"/>
    <tag k="name" v="Danubio Azúl"/>
    <tag k="name:de" v="Blau Danube"/>
  </node>
  <node id="437534316" version="1" timestamp="2009-07-08T20:03:01Z" uid="20587" user="balrog-kun" changeset="1776148" lat="28.1403709" lon="-15.4356336">
    <tag k="amenity" v="cafe"/>
    <tag k="cuisine" v="icecream"/>
    <tag k="name" v="Amici di Pinochio"/>
  </node>
  <node id="437534316" version="2" timestamp="2009-08-12T12:54:36Z" uid="31231" user="Andre68" changeset="2118521" lat="28.1403709" lon="-15.4356336">
    <tag k="amenity" v="cafe"/>
    <tag k="cuisine" v="ice_cream"/>
    <tag k="name" v="Amici di Pinochio"/>
  </node>
  <node id="437534317" version="1" timestamp="2009-07-08T20:03:01Z" uid="20587" user="balrog-kun" changeset="1776148" lat="28.1402961" lon="-15.4355549">
    <tag k="amenity" v="restaurant"/>
    <tag k="name" v="Costa Canaria"/>
  </node>
  <node id="437534320" version="1" timestamp="2009-07-08T20:03:01Z" uid="20587" user="balrog-kun" changeset="1776148" lat="28.1402107" lon="-15.4356215">
    <tag k="amenity" v="fast_food"/>
    <tag k="cuisine" v="kebab"/>
    <tag k="name" v="Ali-Baba Kebap"/>
  </node>
  <node id="437534324" version="1" timestamp="2009-07-08T20:03:01Z" uid="20587" user="balrog-kun" changeset="1776148" lat="28.1401332" lon="-15.4355579">
    <tag k="amenity" v="fast_food"/>
    <tag k="cuisine" v="potato"/>
    <tag k="name" v="Papa&apos;s Family"/>
  </node>
  <node id="437534326" version="1" timestamp="2009-07-08T20:03:01Z" uid="20587" user="balrog-kun" changeset="1776148" lat="28.1400184" lon="-15.435776">
    <tag k="amenity" v="telephone"/>
  </node>
  <node id="437534328" version="1" timestamp="2009-07-08T20:03:01Z" uid="20587" user="balrog-kun" changeset="1776148" lat="28.1398849" lon="-15.4355791">
    <tag k="name" v="Bazar Vanessa"/>
    <tag k="shop" v="convenience"/>
  </node>
  <node id="437534329" version="1" timestamp="2009-07-08T20:03:01Z" uid="20587" user="balrog-kun" changeset="1776148" lat="28.139722" lon="-15.435567">
    <tag k="name" v="Minimarket Troika Canarias"/>
    <tag k="shop" v="supermarket"/>
  </node>
  <node id="437534331" version="1" timestamp="2009-07-08T20:03:01Z" uid="20587" user="balrog-kun" changeset="1776148" lat="28.1398128" lon="-15.4358396">
    <tag k="shop" v="icecream"/>
  </node>
  <node id="437534331" version="2" timestamp="2010-02-28T11:57:24Z" uid="74224" user="gkai" changeset="3997061" lat="28.1398128" lon="-15.4358396">
    <tag k="shop" v="ice_cream"/>
  </node>
  <node id="437534334" version="1" timestamp="2009-07-08T20:03:01Z" uid="20587" user="balrog-kun" changeset="1776148" lat="28.1398075" lon="-15.4359667">
    <tag k="amenity" v="restaurant"/>
    <tag k="cuisine" v="pizza"/>
    <tag k="name" v="Jerry&apos;s Pizza"/>
  </node>
  <node id="437534334" version="2" timestamp="2011-09-25T20:12:14Z" uid="290680" user="wheelmap_visitor" changeset="9389626" lat="28.1398075" lon="-15.4359667">
    <tag k="amenity" v="restaurant"/>
    <tag k="cuisine" v="pizza"/>
    <tag k="name" v="Jerry&apos;s Pizza"/>
    <tag k="wheelchair" v="no"/>
  </node>
  <node id="437534335" version="1" timestamp="2009-07-08T20:03:01Z" uid="20587" user="balrog-kun" changeset="1776148" lat="28.1397247" lon="-15.4361636">
    <tag k="amenity" v="restaurant"/>
    <tag k="cuisine" v="pizza"/>
    <tag k="name" v="TelePizza"/>
    <tag k="operator" v="TelePizza"/>
  </node>
  <node id="437534335" version="2" timestamp="2011-09-25T20:12:15Z" uid="290680" user="wheelmap_visitor" changeset="9389626" lat="28.1397247" lon="-15.4361636">
    <tag k="amenity" v="restaurant"/>
    <tag k="cuisine" v="pizza"/>
    <tag k="name" v="TelePizza"/>
    <tag k="operator" v="TelePizza"/>
    <tag k="wheelchair" v="no"/>
  </node>
  <node id="437535819" version="1" timestamp="2009-07-08T20:07:12Z" uid="43863" user="Rundling" changeset="1776185" lat="52.955711" lon="10.5634431"/>
  <node id="437535819" version="2" timestamp="2010-01-24T15:54:00Z" uid="43863" user="Rundling" changeset="3702377" lat="52.9557153" lon="10.5634435"/>
  <node id="437535821" version="1" timestamp="2009-07-08T20:07:12Z" uid="43863" user="Rundling" changeset="1776185" lat="52.955665" lon="10.563634"/>
  <node id="437535824" version="1" timestamp="2009-07-08T20:07:12Z" uid="43863" user="Rundling" changeset="1776185" lat="52.9556115" lon="10.5637812"/>
  <node id="437535827" version="1" timestamp="2009-07-08T20:07:12Z" uid="43863" user="Rundling" changeset="1776185" lat="52.9554965" lon="10.5640968"/>
  <node id="437535829" version="1" timestamp="2009-07-08T20:07:12Z" uid="43863" user="Rundling" changeset="1776185" lat="52.9554004" lon="10.5642028"/>
  <node id="437535832" version="1" timestamp="2009-07-08T20:07:12Z" uid="43863" user="Rundling" changeset="1776185" lat="52.9551535" lon="10.5644716"/>
  <node id="437535835" version="1" timestamp="2009-07-08T20:07:13Z" uid="43863" user="Rundling" changeset="1776185" lat="52.9550725" lon="10.5645052"/>
  <node id="437535838" version="1" timestamp="2009-07-08T20:07:13Z" uid="43863" user="Rundling" changeset="1776185" lat="52.9549974" lon="10.5645347"/>
  <node id="437535839" version="1" timestamp="2009-07-08T20:07:13Z" uid="43863" user="Rundling" changeset="1776185" lat="52.9549147" lon="10.564543"/>
  <node id="437535840" version="1" timestamp="2009-07-08T20:07:13Z" uid="43863" user="Rundling" changeset="1776185" lat="52.9547667" lon="10.5645616"/>
  <node id="437535841" version="1" timestamp="2009-07-08T20:07:13Z" uid="43863" user="Rundling" changeset="1776185" lat="52.9547865" lon="10.5631412"/>
  <node id="437535841" version="2" timestamp="2009-07-08T20:15:11Z" uid="43863" user="Rundling" changeset="1776266" lat="52.9547829" lon="10.5631561"/>
  <node id="437535841" version="3" timestamp="2010-01-24T15:54:00Z" uid="43863" user="Rundling" changeset="3702377" lat="52.9547814" lon="10.563149"/>
  <node id="437535843" version="1" timestamp="2009-07-08T20:07:13Z" uid="43863" user="Rundling" changeset="1776185" lat="52.9554877" lon="10.5634643"/>
  <node id="437535845" version="1" timestamp="2009-07-08T20:07:13Z" uid="43863" user="Rundling" changeset="1776185" lat="52.9550057" lon="10.5634082"/>
  <node id="437535845" version="2" timestamp="2009-07-08T20:07:46Z" uid="43863" user="Rundling" changeset="1776196" lat="52.9550057" lon="10.5634082"/>
  <node id="437535847" version="1" timestamp="2009-07-08T20:07:13Z" uid="43863" user="Rundling" changeset="1776185" lat="52.9549379" lon="10.5634003"/>
  <node id="437535849" version="1" timestamp="2009-07-08T20:07:13Z" uid="43863" user="Rundling" changeset="1776185" lat="52.954931" lon="10.5635644"/>
  <node id="437535849" version="2" timestamp="2009-07-08T20:07:46Z" uid="43863" user="Rundling" changeset="1776196" lat="52.954931" lon="10.5635644"/>
  <node id="437535852" version="1" timestamp="2009-07-08T20:07:13Z" uid="43863" user="Rundling" changeset="1776185" lat="52.9549058" lon="10.5641604"/>
  <node id="437535855" version="1" timestamp="2009-07-08T20:07:13Z" uid="43863" user="Rundling" changeset="1776185" lat="52.9550097" lon="10.5641725"/>
  <node id="437535858" version="1" timestamp="2009-07-08T20:07:13Z" uid="43863" user="Rundling" changeset="1776185" lat="52.9550331" lon="10.5636189"/>
  <node id="437535862" version="1" timestamp="2009-07-08T20:07:13Z" uid="43863" user="Rundling" changeset="1776185" lat="52.955479" lon="10.5636708"/>
  <node id="437535867" version="1" timestamp="2009-07-08T20:07:14Z" uid="43863" user="Rundling" changeset="1776185" lat="52.9553875" lon="10.5639249"/>
  <node id="437535870" version="1" timestamp="2009-07-08T20:07:14Z" uid="43863" user="Rundling" changeset="1776185" lat="52.9553822" lon="10.5640865"/>
  <node id="437535874" version="1" timestamp="2009-07-08T20:07:14Z" uid="43863" user="Rundling" changeset="1776185" lat="52.9550973" lon="10.563899"/>
  <node id="437535874" version="2" timestamp="2009-07-09T03:52:23Z" uid="43863" user="Rundling" changeset="1777615" lat="52.9550973" lon="10.563899"/>
  <node id="437535880" version="1" timestamp="2009-07-08T20:07:14Z" uid="43863" user="Rundling" changeset="1776185" lat="52.9550921" lon="10.5640606"/>
  <node id="437535880" version="2" timestamp="2009-07-08T20:07:46Z" uid="43863" user="Rundling" changeset="1776196" lat="52.9550921" lon="10.5640606"/>
  <node id="437535883" version="1" timestamp="2009-07-08T20:07:14Z" uid="43863" user="Rundling" changeset="1776185" lat="52.9552743" lon="10.5640769"/>
  <node id="437535886" version="1" timestamp="2009-07-08T20:07:14Z" uid="43863" user="Rundling" changeset="1776185" lat="52.9550885" lon="10.5641712"/>
  <node id="437535886" version="2" timestamp="2009-07-08T20:07:46Z" uid="43863" user="Rundling" changeset="1776196" lat="52.9550885" lon="10.5641712"/>
  <node id="437535889" version="1" timestamp="2009-07-08T20:07:14Z" uid="43863" user="Rundling" changeset="1776185" lat="52.9552707" lon="10.5641875"/>
  <node id="437535892" version="1" timestamp="2009-07-08T20:07:14Z" uid="43863" user="Rundling" changeset="1776185" lat="52.9551808" lon="10.5641795"/>
  <node id="437535895" version="1" timestamp="2009-07-08T20:07:14Z" uid="43863" user="Rundling" changeset="1776185" lat="52.9550842" lon="10.5643037"/>
  <node id="437535895" version="2" timestamp="2009-07-09T03:52:23Z" uid="43863" user="Rundling" changeset="1777615" lat="52.9550842" lon="10.5643037"/>
  <node id="437535898" version="1" timestamp="2009-07-08T20:07:14Z" uid="43863" user="Rundling" changeset="1776185" lat="52.9551765" lon="10.564312"/>
  <node id="437535900" version="1" timestamp="2009-07-08T20:07:14Z" uid="43863" user="Rundling" changeset="1776185" lat="52.9546988" lon="10.5633953"/>
  <node id="437535900" version="2" timestamp="2009-07-09T03:52:23Z" uid="43863" user="Rundling" changeset="1777615" lat="52.9547322" lon="10.5633906"/>
  <node id="437535903" version="1" timestamp="2009-07-08T20:07:14Z" uid="43863" user="Rundling" changeset="1776185" lat="52.9545665" lon="10.5633953"/>
  <node id="437535903" version="2" timestamp="2009-07-09T03:52:23Z" uid="43863" user="Rundling" changeset="1777615" lat="52.9546" lon="10.5633883"/>
  <node id="437535905" version="1" timestamp="2009-07-08T20:07:15Z" uid="43863" user="Rundling" changeset="1776185" lat="52.9546989" lon="10.5644117"/>
  <node id="437535905" version="2" timestamp="2009-07-09T03:52:23Z" uid="43863" user="Rundling" changeset="1777615" lat="52.9547258" lon="10.5644069"/>
  <node id="437535907" version="1" timestamp="2009-07-08T20:07:15Z" uid="43863" user="Rundling" changeset="1776185" lat="52.9545665" lon="10.5644117"/>
  <node id="437535907" version="2" timestamp="2009-07-09T03:52:23Z" uid="43863" user="Rundling" changeset="1777615" lat="52.9545934" lon="10.5644046"/>
  <node id="437535910" version="1" timestamp="2009-07-08T20:07:15Z" uid="43863" user="Rundling" changeset="1776185" lat="52.9544957" lon="10.5638178"/>
  <node id="437535910" version="2" timestamp="2010-02-27T13:21:35Z" uid="43863" user="Rundling" changeset="3988453" lat="52.9544957" lon="10.5638178"/>
  <node id="437535912" version="1" timestamp="2009-07-08T20:07:15Z" uid="43863" user="Rundling" changeset="1776185" lat="52.9545001" lon="10.5645917"/>
  <node id="437535912" version="2" timestamp="2010-01-24T15:54:00Z" uid="43863" user="Rundling" changeset="3702377" lat="52.9544946" lon="10.5646046"/>
  <node id="437535912" version="3" timestamp="2010-02-27T13:15:58Z" uid="43863" user="Rundling" changeset="3988403" lat="52.9544931" lon="10.5646091"/>
  <node id="437535914" version="1" timestamp="2009-07-08T20:07:15Z" uid="43863" user="Rundling" changeset="1776185" lat="52.9544901" lon="10.5630661"/>
  <node id="437535914" version="2" timestamp="2010-01-24T15:54:00Z" uid="43863" user="Rundling" changeset="3702377" lat="52.9544886" lon="10.5630611"/>
  <node id="437539518" version="1" timestamp="2009-07-08T20:15:53Z" uid="23543" user="jkjk" changeset="1776273" lat="48.7905116" lon="13.9500233"/>
  <node id="437539519" version="1" timestamp="2009-07-08T20:15:53Z" uid="23543" user="jkjk" changeset="1776273" lat="48.7900329" lon="13.9505858"/>
  <node id="437539520" version="1" timestamp="2009-07-08T20:15:54Z" uid="23543" user="jkjk" changeset="1776273" lat="48.7943369" lon="13.9169135"/>
  <node id="437539521" version="1" timestamp="2009-07-08T20:15:54Z" uid="23543" user="jkjk" changeset="1776273" lat="48.7938592" lon="13.9152686"/>
  <node id="437539522" version="1" timestamp="2009-07-08T20:15:54Z" uid="23543" user="jkjk" changeset="1776273" lat="48.7935173" lon="13.9146929"/>
  <node id="437539523" version="1" timestamp="2009-07-08T20:15:54Z" uid="23543" user="jkjk" changeset="1776273" lat="48.7925781" lon="13.9138446"/>
  <node id="437539524" version="1" timestamp="2009-07-08T20:15:54Z" uid="23543" user="jkjk" changeset="1776273" lat="48.7906472" lon="13.91232"/>
  <node id="437539525" version="1" timestamp="2009-07-08T20:15:54Z" uid="23543" user="jkjk" changeset="1776273" lat="48.7903091" lon="13.9121848"/>
  <node id="437539526" version="1" timestamp="2009-07-08T20:15:54Z" uid="23543" user="jkjk" changeset="1776273" lat="48.7899202" lon="13.9121763"/>
  <node id="437539527" version="1" timestamp="2009-07-08T20:15:54Z" uid="23543" user="jkjk" changeset="1776273" lat="48.7894722" lon="13.9123285"/>
  <node id="437539528" version="1" timestamp="2009-07-08T20:15:54Z" uid="23543" user="jkjk" changeset="1776273" lat="48.7890495" lon="13.9122524"/>
  <node id="437539530" version="1" timestamp="2009-07-08T20:15:54Z" uid="23543" user="jkjk" changeset="1776273" lat="48.7885846" lon="13.9118297"/>
  <node id="437539532" version="1" timestamp="2009-07-08T20:15:54Z" uid="23543" user="jkjk" changeset="1776273" lat="48.7881027" lon="13.910418"/>
  <node id="437539533" version="1" timestamp="2009-07-08T20:15:55Z" uid="23543" user="jkjk" changeset="1776273" lat="48.787773" lon="13.909784"/>
  <node id="437539535" version="1" timestamp="2009-07-08T20:15:55Z" uid="23543" user="jkjk" changeset="1776273" lat="48.7872912" lon="13.9094881"/>
  <node id="437539537" version="1" timestamp="2009-07-08T20:15:55Z" uid="23543" user="jkjk" changeset="1776273" lat="48.7861754" lon="13.9084906"/>
  <node id="437539538" version="1" timestamp="2009-07-08T20:15:55Z" uid="23543" user="jkjk" changeset="1776273" lat="48.7842057" lon="13.9064365"/>
  <node id="437539540" version="1" timestamp="2009-07-08T20:15:55Z" uid="23543" user="jkjk" changeset="1776273" lat="48.7834111" lon="13.9060138"/>
  <node id="437539541" version="1" timestamp="2009-07-08T20:15:55Z" uid="23543" user="jkjk" changeset="1776273" lat="48.7817035" lon="13.9053713"/>
  <node id="437539543" version="1" timestamp="2009-07-08T20:15:55Z" uid="23543" user="jkjk" changeset="1776273" lat="48.7806215" lon="13.9052276"/>
  <node id="437539547" version="1" timestamp="2009-07-08T20:15:56Z" uid="23543" user="jkjk" changeset="1776273" lat="48.7800213" lon="13.9052614"/>
  <node id="437539548" version="1" timestamp="2009-07-08T20:15:56Z" uid="23543" user="jkjk" changeset="1776273" lat="48.8614809" lon="13.8604805"/>
  <node id="437539549" version="1" timestamp="2009-07-08T20:15:56Z" uid="23543" user="jkjk" changeset="1776273" lat="48.8610295" lon="13.8608018"/>
  <node id="437533797" version="5" timestamp="2012-07-17T04:38:57Z" uid="722137" user="OSMF Redaction Account" changeset="12256971" lat="48.9944471" lon="12.0902239">
    <tag k="amenity" v="emergency_phone"/>
  </node>
  <node id="437534231" version="3" timestamp="2012-07-15T17:25:40Z" uid="735361" user="D2r" changeset="12232698" lat="28.1448697" lon="-15.430518">
    <tag k="name" v="Hotel Cristina"/>
    <tag k="rating" v="*****"/>
    <tag k="tourism" v="hotel"/>
  </node>
  <node id="437535819" version="3" timestamp="2012-07-18T17:17:35Z" uid="722137" user="OSMF Redaction Account" changeset="12290288" lat="52.9557153" lon="10.5634435"/>
  <node id="437535821" version="2" timestamp="2012-07-18T17:17:34Z" uid="722137" user="OSMF Redaction Account" changeset="12290288" lat="52.955665" lon="10.563634"/>
  <node id="437535824" version="2" timestamp="2012-07-18T17:17:32Z" uid="722137" user="OSMF Redaction Account" changeset="12290288" lat="52.9556115" lon="10.5637812"/>
  <node id="437535827" version="2" timestamp="2012-07-18T17:17:30Z" uid="722137" user="OSMF Redaction Account" changeset="12290288" lat="52.9554965" lon="10.5640968"/>
  <node id="437535829" version="2" timestamp="2012-07-18T17:17:27Z" uid="722137" user="OSMF Redaction Account" changeset="12290288" lat="52.9554004" lon="10.5642028"/>
  <node id="437535832" version="2" timestamp="2012-07-18T17:17:20Z" uid="722137" user="OSMF Redaction Account" changeset="12290273" lat="52.9551535" lon="10.5644716"/>
  <node id="437535835" version="2" timestamp="2012-07-18T17:17:18Z" uid="722137" user="OSMF Redaction Account" changeset="12290273" lat="52.9550725" lon="10.5645052"/>
  <node id="437535838" version="2" timestamp="2012-07-18T17:17:15Z" uid="722137" user="OSMF Redaction Account" changeset="12290273" lat="52.9549974" lon="10.5645347"/>
  <node id="437535839" version="2" timestamp="2012-07-18T17:17:13Z" uid="722137" user="OSMF Redaction Account" changeset="12290273" lat="52.9549147" lon="10.564543"/>
  <node id="437535840" version="2" timestamp="2012-07-18T17:17:11Z" uid="722137" user="OSMF Redaction Account" changeset="12290273" lat="52.9547667" lon="10.5645616"/>
  <node id="437535841" version="4" timestamp="2012-07-18T17:17:11Z" uid="722137" user="OSMF Redaction Account" changeset="12290273" lat="52.9547814" lon="10.563149"/>
  <node id="437535843" version="2" timestamp="2012-07-18T17:17:29Z" uid="722137" user="OSMF Redaction Account" changeset="12290288" lat="52.9554877" lon="10.5634643"/>
  <node id="437535847" version="2" timestamp="2012-07-18T17:17:14Z" uid="722137" user="OSMF Redaction Account" changeset="12290273" lat="52.9549379" lon="10.5634003"/>
  <node id="437535852" version="2" timestamp="2012-07-18T17:17:13Z" uid="722137" user="OSMF Redaction Account" changeset="12290273" lat="52.9549058" lon="10.5641604"/>
  <node id="437535855" version="2" timestamp="2012-07-18T17:17:16Z" uid="722137" user="OSMF Redaction Account" changeset="12290273" lat="52.9550097" lon="10.5641725"/>
  <node id="437535858" version="2" timestamp="2012-07-18T17:17:16Z" uid="722137" user="OSMF Redaction Account" changeset="12290273" lat="52.9550331" lon="10.5636189"/>
  <node id="437535862" version="2" timestamp="2012-07-18T17:17:29Z" uid="722137" user="OSMF Redaction Account" changeset="12290288" lat="52.955479" lon="10.5636708"/>
  <node id="437535867" version="2" timestamp="2012-07-18T17:17:26Z" uid="722137" user="OSMF Redaction Account" changeset="12290288" lat="52.9553875" lon="10.5639249"/>
  <node id="437535870" version="2" timestamp="2012-07-18T17:17:26Z" uid="722137" user="OSMF Redaction Account" changeset="12290288" lat="52.9553822" lon="10.5640865"/>
  <node id="437535883" version="2" timestamp="2012-07-18T17:17:24Z" uid="722137" user="OSMF Redaction Account" changeset="12290288" lat="52.9552743" lon="10.5640769"/>
  <node id="437535889" version="2" timestamp="2012-07-18T17:17:24Z" uid="722137" user="OSMF Redaction Account" changeset="12290288" lat="52.9552707" lon="10.5641875"/>
  <node id="437535892" version="2" timestamp="2012-07-18T17:17:22Z" uid="722137" user="OSMF Redaction Account" changeset="12290288" lat="52.9551808" lon="10.5641795"/>
  <node id="437535898" version="2" timestamp="2012-07-18T17:17:21Z" uid="722137" user="OSMF Redaction Account" changeset="12290288" lat="52.9551765" lon="10.564312"/>
  <node id="437535900" version="3" timestamp="2012-07-18T17:17:10Z" uid="722137" user="OSMF Redaction Account" changeset="12290273" lat="52.9547322" lon="10.5633906"/>
  <node id="437535903" version="3" timestamp="2012-07-18T17:17:08Z" uid="722137" user="OSMF Redaction Account" changeset="12290273" lat="52.9546" lon="10.5633883"/>
  <node id="437535905" version="3" timestamp="2012-07-18T17:17:10Z" uid="722137" user="OSMF Redaction Account" changeset="12290273" lat="52.9547258" lon="10.5644069"/>
  <node id="437535907" version="3" timestamp="2012-07-18T17:17:07Z" uid="722137" user="OSMF Redaction Account" changeset="12290273" lat="52.9545934" lon="10.5644046"/>
  <node id="437535912" version="4" timestamp="2012-07-18T17:17:06Z" uid="722137" user="OSMF Redaction Account" changeset="12290273" lat="52.9544931" lon="10.5646091"/>
  <node id="437535914" version="3" timestamp="2012-07-18T17:17:05Z" uid="722137" user="OSMF Redaction Account" changeset="12290273" lat="52.9544886" lon="10.5630611"/>
  <node id="437539518" version="2" timestamp="2012-07-17T07:41:35Z" uid="722137" user="OSMF Redaction Account" changeset="12259690" lat="48.7905116" lon="13.9500233"/>
  <node id="437539519" version="2" timestamp="2012-07-17T07:41:35Z" uid="722137" user="OSMF Redaction Account" changeset="12259690" lat="48.7900329" lon="13.9505858"/>
  <node id="437539520" version="2" timestamp="2012-07-17T07:42:19Z" uid="722137" user="OSMF Redaction Account" changeset="12259707" lat="48.7943369" lon="13.9169135"/>
  <node id="437539521" version="2" timestamp="2012-07-17T07:42:19Z" uid="722137" user="OSMF Redaction Account" changeset="12259707" lat="48.7938592" lon="13.9152686"/>
  <node id="437539522" version="2" timestamp="2012-07-17T07:42:19Z" uid="722137" user="OSMF Redaction Account" changeset="12259707" lat="48.7935173" lon="13.9146929"/>
  <node id="437539523" version="2" timestamp="2012-07-17T07:42:18Z" uid="722137" user="OSMF Redaction Account" changeset="12259707" lat="48.7925781" lon="13.9138446"/>
  <node id="437539524" version="2" timestamp="2012-07-17T07:42:18Z" uid="722137" user="OSMF Redaction Account" changeset="12259707" lat="48.7906472" lon="13.91232"/>
  <node id="437539525" version="2" timestamp="2012-07-17T07:42:18Z" uid="722137" user="OSMF Redaction Account" changeset="12259707" lat="48.7903091" lon="13.9121848"/>
  <node id="437539526" version="2" timestamp="2012-07-17T07:42:18Z" uid="722137" user="OSMF Redaction Account" changeset="12259707" lat="48.7899202" lon="13.9121763"/>
  <node id="437539527" version="2" timestamp="2012-07-17T07:42:18Z" uid="722137" user="OSMF Redaction Account" changeset="12259707" lat="48.7894722" lon="13.9123285"/>
  <node id="437539528" version="2" timestamp="2012-07-17T07:42:18Z" uid="722137" user="OSMF Redaction Account" changeset="12259707" lat="48.7890495" lon="13.9122524"/>
  <node id="437539530" version="2" timestamp="2012-07-17T07:42:18Z" uid="722137" user="OSMF Redaction Account" changeset="12259707" lat="48.7885846" lon="13.9118297"/>
  <node id="437539532" version="2" timestamp="2012-07-17T07:42:18Z" uid="722137" user="OSMF Redaction Account" changeset="12259707" lat="48.7881027" lon="13.910418"/>
  <node id="437539533" version="2" timestamp="2012-07-17T07:42:18Z" uid="722137" user="OSMF Redaction Account" changeset="12259707" lat="48.787773" lon="13.909784"/>
  <node id="437539535" version="2" timestamp="2012-07-17T07:42:18Z" uid="722137" user="OSMF Redaction Account" changeset="12259707" lat="48.7872912" lon="13.9094881"/>
  <node id="437539537" version="2" timestamp="2012-07-17T07:42:18Z" uid="722137" user="OSMF Redaction Account" changeset="12259707" lat="48.7861754" lon="13.9084906"/>
  <node id="437539538" version="2" timestamp="2012-07-17T07:42:18Z" uid="722137" user="OSMF Redaction Account" changeset="12259707" lat="48.7842057" lon="13.9064365"/>
  <node id="437539540" version="2" timestamp="2012-07-17T07:42:18Z" uid="722137" user="OSMF Redaction Account" changeset="12259707" lat="48.7834111" lon="13.9060138"/>
  <node id="437539541" version="2" timestamp="2012-07-17T07:42:18Z" uid="722137" user="OSMF Redaction Account" changeset="12259707" lat="48.7817035" lon="13.9053713"/>
  <node id="437539543" version="2" timestamp="2012-07-17T07:42:18Z" uid="722137" user="OSMF Redaction Account" changeset="12259707" lat="48.7806215" lon="13.9052276"/>
  <node id="437539547" version="2" timestamp="2012-07-17T07:42:18Z" uid="722137" user="OSMF Redaction Account" changeset="12259707" lat="48.7800213" lon="13.9052614"/>
  <node id="437539548" version="2" timestamp="2012-07-17T07:44:56Z" uid="722137" user="OSMF Redaction Account" changeset="12259757" lat="48.8614809" lon="13.8604805"/>
  <node id="437539549" version="2" timestamp="2012-07-17T07:44:56Z" uid="722137" user="OSMF Redaction Account" changeset="12259757" lat="48.8610295" lon="13.8608018"/>
</osm>
