<?xml version='1.0' encoding='UTF-8'?>
<osm version="0.6" generator="libosmium/2.20.0">
  <node id="438186005" version="2" timestamp="2010-04-11T04:48:09Z" uid="20587" user="balrog-kun" changeset="4389130" lat="52.7024474" lon="17.7454193">
    <tag k="name" v="Ryszewo"/>
    <tag k="place" v="village"/>
  </node>
  <node id="438186042" version="3" timestamp="2010-04-11T04:48:09Z" uid="20587" user="balrog-kun" changeset="4389130" lat="52.7253158" lon="17.8389075">
    <tag k="name" v="Osiny"/>
    <tag k="place" v="village"/>
  </node>
  <node id="438189350" version="2" timestamp="2010-04-11T04:48:09Z" uid="20587" user="balrog-kun" changeset="4389130" lat="51.0704718" lon="16.5263724">
    <tag k="name" v="JarosÅ‚aw"/>
    <tag k="place" v="village"/>
  </node>
  <node id="438189430" version="2" timestamp="2010-04-11T04:48:09Z" uid="20587" user="balrog-kun" changeset="4389130" lat="51.044563" lon="16.5112864">
    <tag k="name" v="Pielaszkowice"/>
    <tag k="place" v="village"/>
  </node>
  <node id="438189430" version="3" timestamp="2010-04-27T04:05:53Z" uid="30632" user="antblant" changeset="4537871" lat="51.044563" lon="16.5112864">
    <tag k="name" v="Pielaszkowice"/>
    <tag k="place" v="village"/>
    <tag k="teryt:simc" v="0367960"/>
  </node>
</osm>
