<?xml version='1.0' encoding='UTF-8'?>
<osm version="0.6" generator="libosmium/2.20.0">
  <node id="438273322" version="1" timestamp="2009-07-09T18:12:58Z" uid="36809" user="pfoten_weg_!_" changeset="1783061" lat="48.016448" lon="11.475168">
    <tag k="addr:city" v="Baierbrunn"/>
    <tag k="addr:country" v="DE"/>
    <tag k="addr:housenumber" v="14"/>
    <tag k="addr:postcode" v="82065"/>
    <tag k="addr:street" v="Schorner Straße"/>
    <tag k="name" v="14 Auto Reperatur"/>
    <tag k="source" v="survey"/>
  </node>
  <node id="438273322" version="2" timestamp="2009-10-11T23:33:02Z" uid="36809" user="pfoten_weg_!_" changeset="2821194" lat="48.016448" lon="11.475168">
    <tag k="addr:city" v="Baierbrunn"/>
    <tag k="addr:country" v="DE"/>
    <tag k="addr:housenumber" v="14"/>
    <tag k="addr:postcode" v="82065"/>
    <tag k="addr:street" v="Schorner Straße"/>
    <tag k="name" v="14 Auto Reperatur"/>
  </node>
  <node id="438273327" version="1" timestamp="2009-07-09T18:12:58Z" uid="36809" user="pfoten_weg_!_" changeset="1783061" lat="48.01697" lon="11.475225">
    <tag k="addr:city" v="Baierbrunn"/>
    <tag k="addr:country" v="DE"/>
    <tag k="addr:housenumber" v="12"/>
    <tag k="addr:postcode" v="82065"/>
    <tag k="addr:street" v="Schorner Straße"/>
    <tag k="name" v="12 Firmenbau fast fertig"/>
    <tag k="source" v="survey"/>
  </node>
  <node id="438273327" version="2" timestamp="2009-10-11T23:33:02Z" uid="36809" user="pfoten_weg_!_" changeset="2821194" lat="48.01697" lon="11.475225">
    <tag k="addr:city" v="Baierbrunn"/>
    <tag k="addr:country" v="DE"/>
    <tag k="addr:housenumber" v="12"/>
    <tag k="addr:postcode" v="82065"/>
    <tag k="addr:street" v="Schorner Straße"/>
    <tag k="name" v="12 Firmenbau fast fertig"/>
  </node>
  <node id="438273332" version="1" timestamp="2009-07-09T18:12:58Z" uid="36809" user="pfoten_weg_!_" changeset="1783061" lat="48.0172558" lon="11.4755131">
    <tag k="amenity" v="fast_food"/>
    <tag k="name" v="Imbissbude"/>
    <tag k="source" v="survey"/>
  </node>
  <node id="438273332" version="2" timestamp="2009-10-11T23:33:04Z" uid="36809" user="pfoten_weg_!_" changeset="2821194" lat="48.0172558" lon="11.4755131">
    <tag k="amenity" v="fast_food"/>
    <tag k="name" v="Imbissbude"/>
  </node>
  <node id="438273336" version="1" timestamp="2009-07-09T18:12:59Z" uid="36809" user="pfoten_weg_!_" changeset="1783061" lat="48.017613" lon="11.4753">
    <tag k="addr:city" v="Baierbrunn"/>
    <tag k="addr:country" v="DE"/>
    <tag k="addr:housenumber" v="8"/>
    <tag k="addr:postcode" v="82065"/>
    <tag k="addr:street" v="Schorner Straße"/>
    <tag k="name" v="8 Grosse Lagerhalle"/>
    <tag k="source" v="survey"/>
  </node>
  <node id="438273336" version="2" timestamp="2009-10-11T23:33:04Z" uid="36809" user="pfoten_weg_!_" changeset="2821194" lat="48.017613" lon="11.4753">
    <tag k="addr:city" v="Baierbrunn"/>
    <tag k="addr:country" v="DE"/>
    <tag k="addr:housenumber" v="8"/>
    <tag k="addr:postcode" v="82065"/>
    <tag k="addr:street" v="Schorner Straße"/>
    <tag k="name" v="8 Grosse Lagerhalle"/>
  </node>
  <node id="438273338" version="1" timestamp="2009-07-09T18:12:59Z" uid="36809" user="pfoten_weg_!_" changeset="1783061" lat="48.017909" lon="11.475339">
    <tag k="addr:city" v="Baierbrunn"/>
    <tag k="addr:country" v="DE"/>
    <tag k="addr:housenumber" v="6"/>
    <tag k="addr:postcode" v="82065"/>
    <tag k="addr:street" v="Schorner Straße"/>
    <tag k="name" v="6 Halle"/>
    <tag k="source" v="survey"/>
  </node>
  <node id="438273338" version="2" timestamp="2009-10-11T23:33:06Z" uid="36809" user="pfoten_weg_!_" changeset="2821194" lat="48.017909" lon="11.475339">
    <tag k="addr:city" v="Baierbrunn"/>
    <tag k="addr:country" v="DE"/>
    <tag k="addr:housenumber" v="6"/>
    <tag k="addr:postcode" v="82065"/>
    <tag k="addr:street" v="Schorner Straße"/>
    <tag k="name" v="6 Halle"/>
  </node>
  <node id="438273340" version="1" timestamp="2009-07-09T18:12:59Z" uid="36809" user="pfoten_weg_!_" changeset="1783061" lat="48.018068" lon="11.475257">
    <tag k="addr:city" v="Baierbrunn"/>
    <tag k="addr:country" v="DE"/>
    <tag k="addr:housename" v="Wohngebäude"/>
    <tag k="addr:housenumber" v="6"/>
    <tag k="addr:postcode" v="82065"/>
    <tag k="addr:street" v="Schorner Straße"/>
    <tag k="name" v="6  Wohngebaeude"/>
    <tag k="source" v="survey"/>
  </node>
  <node id="438273340" version="2" timestamp="2009-10-11T23:33:05Z" uid="36809" user="pfoten_weg_!_" changeset="2821194" lat="48.018068" lon="11.475257">
    <tag k="addr:city" v="Baierbrunn"/>
    <tag k="addr:country" v="DE"/>
    <tag k="addr:housename" v="Wohngebäude"/>
    <tag k="addr:housenumber" v="6"/>
    <tag k="addr:postcode" v="82065"/>
    <tag k="addr:street" v="Schorner Straße"/>
    <tag k="name" v="6  Wohngebaeude"/>
  </node>
  <node id="438273345" version="1" timestamp="2009-07-09T18:12:59Z" uid="36809" user="pfoten_weg_!_" changeset="1783061" lat="48.018322" lon="11.475456">
    <tag k="addr:city" v="Baierbrunn"/>
    <tag k="addr:country" v="DE"/>
    <tag k="addr:housenumber" v="4"/>
    <tag k="addr:postcode" v="82065"/>
    <tag k="addr:street" v="Schorner Straße"/>
    <tag k="name" v="4"/>
    <tag k="source" v="survey"/>
  </node>
  <node id="438273345" version="2" timestamp="2009-10-11T23:33:05Z" uid="36809" user="pfoten_weg_!_" changeset="2821194" lat="48.018322" lon="11.475456">
    <tag k="addr:city" v="Baierbrunn"/>
    <tag k="addr:country" v="DE"/>
    <tag k="addr:housenumber" v="4"/>
    <tag k="addr:postcode" v="82065"/>
    <tag k="addr:street" v="Schorner Straße"/>
    <tag k="name" v="4"/>
  </node>
  <node id="438273352" version="1" timestamp="2009-07-09T18:13:00Z" uid="36809" user="pfoten_weg_!_" changeset="1783061" lat="48.018816" lon="11.475499">
    <tag k="addr:city" v="Baierbrunn"/>
    <tag k="addr:country" v="DE"/>
    <tag k="addr:housenumber" v="2"/>
    <tag k="addr:postcode" v="82065"/>
    <tag k="addr:street" v="Schorner Straße"/>
    <tag k="name" v="2"/>
    <tag k="source" v="survey"/>
  </node>
  <node id="438273352" version="2" timestamp="2009-10-11T23:33:07Z" uid="36809" user="pfoten_weg_!_" changeset="2821194" lat="48.018816" lon="11.475499">
    <tag k="addr:city" v="Baierbrunn"/>
    <tag k="addr:country" v="DE"/>
    <tag k="addr:housenumber" v="2"/>
    <tag k="addr:postcode" v="82065"/>
    <tag k="addr:street" v="Schorner Straße"/>
    <tag k="name" v="2"/>
  </node>
  <node id="438273358" version="1" timestamp="2009-07-09T18:13:00Z" uid="36809" user="pfoten_weg_!_" changeset="1783061" lat="48.018546" lon="11.476443">
    <tag k="name" v="Autohaus Baierbrunn"/>
    <tag k="shop" v="car"/>
    <tag k="source" v="survey"/>
  </node>
  <node id="438273358" version="2" timestamp="2009-10-06T18:42:05Z" uid="163280" user="xxlbiker" changeset="2764150" lat="48.0186714" lon="11.4761801">
    <tag k="name" v="Autohaus Baierbrunn"/>
    <tag k="shop" v="car"/>
    <tag k="source" v="survey"/>
  </node>
  <node id="438273358" version="3" timestamp="2009-10-11T23:33:07Z" uid="36809" user="pfoten_weg_!_" changeset="2821194" lat="48.0186714" lon="11.4761801">
    <tag k="name" v="Autohaus Baierbrunn"/>
    <tag k="shop" v="car"/>
  </node>
  <node id="438273366" version="1" timestamp="2009-07-09T18:13:00Z" uid="36809" user="pfoten_weg_!_" changeset="1783061" lat="48.018197" lon="11.475944">
    <tag k="addr:city" v="Baierbrunn"/>
    <tag k="addr:country" v="DE"/>
    <tag k="addr:housenumber" v="1"/>
    <tag k="addr:postcode" v="82065"/>
    <tag k="addr:street" v="Schorner Straße"/>
    <tag k="name" v="1"/>
    <tag k="source" v="survey"/>
  </node>
  <node id="438273366" version="2" timestamp="2009-10-11T23:33:05Z" uid="36809" user="pfoten_weg_!_" changeset="2821194" lat="48.018197" lon="11.475944">
    <tag k="addr:city" v="Baierbrunn"/>
    <tag k="addr:country" v="DE"/>
    <tag k="addr:housenumber" v="1"/>
    <tag k="addr:postcode" v="82065"/>
    <tag k="addr:street" v="Schorner Straße"/>
    <tag k="name" v="1"/>
  </node>
  <node id="438273378" version="1" timestamp="2009-07-09T18:13:00Z" uid="36809" user="pfoten_weg_!_" changeset="1783061" lat="48.017292" lon="11.475799">
    <tag k="addr:city" v="Baierbrunn"/>
    <tag k="addr:country" v="DE"/>
    <tag k="addr:housenumber" v="Tor Fa Kuba"/>
    <tag k="addr:postcode" v="82065"/>
    <tag k="addr:street" v="Schorner Straße"/>
    <tag k="name" v="Tor zu Firma Kuba"/>
    <tag k="source" v="survey"/>
  </node>
  <node id="438273378" version="2" timestamp="2009-10-11T23:33:03Z" uid="36809" user="pfoten_weg_!_" changeset="2821194" lat="48.017292" lon="11.475799">
    <tag k="addr:city" v="Baierbrunn"/>
    <tag k="addr:country" v="DE"/>
    <tag k="addr:housenumber" v="Tor Fa Kuba"/>
    <tag k="addr:postcode" v="82065"/>
    <tag k="addr:street" v="Schorner Straße"/>
    <tag k="name" v="Tor zu Firma Kuba"/>
  </node>
  <node id="438273390" version="1" timestamp="2009-07-09T18:13:01Z" uid="36809" user="pfoten_weg_!_" changeset="1783061" lat="48.0163448" lon="11.4751509">
    <tag k="addr:city" v="Baierbrunn"/>
    <tag k="addr:country" v="DE"/>
    <tag k="addr:housename" v="Wohngebäude"/>
    <tag k="addr:housenumber" v="14"/>
    <tag k="addr:postcode" v="82065"/>
    <tag k="addr:street" v="Schorner Straße"/>
    <tag k="name" v="14 Auto Reperatur"/>
    <tag k="source" v="survey"/>
  </node>
  <node id="438273390" version="2" timestamp="2009-10-11T23:33:01Z" uid="36809" user="pfoten_weg_!_" changeset="2821194" lat="48.0163448" lon="11.4751509">
    <tag k="addr:city" v="Baierbrunn"/>
    <tag k="addr:country" v="DE"/>
    <tag k="addr:housename" v="Wohngebäude"/>
    <tag k="addr:housenumber" v="14"/>
    <tag k="addr:postcode" v="82065"/>
    <tag k="addr:street" v="Schorner Straße"/>
    <tag k="name" v="14 Auto Reperatur"/>
  </node>
  <node id="438274864" version="1" timestamp="2009-07-09T18:13:46Z" uid="5235" user="RikT" changeset="1783068" lat="51.4096245" lon="-0.8158157"/>
  <node id="438275092" version="1" timestamp="2009-07-09T18:13:52Z" uid="43863" user="Rundling" changeset="1783069" lat="52.9569384" lon="10.5659972"/>
  <node id="438275098" version="1" timestamp="2009-07-09T18:13:52Z" uid="43863" user="Rundling" changeset="1783069" lat="52.9577954" lon="10.5646317"/>
  <node id="438275100" version="1" timestamp="2009-07-09T18:13:52Z" uid="43863" user="Rundling" changeset="1783069" lat="52.9570046" lon="10.5658873"/>
  <node id="438275104" version="1" timestamp="2009-07-09T18:13:52Z" uid="43863" user="Rundling" changeset="1783069" lat="52.9580437" lon="10.5650425"/>
  <node id="438275108" version="1" timestamp="2009-07-09T18:13:52Z" uid="43863" user="Rundling" changeset="1783069" lat="52.9576856" lon="10.5647907"/>
  <node id="438275111" version="1" timestamp="2009-07-09T18:13:53Z" uid="43863" user="Rundling" changeset="1783069" lat="52.9572669" lon="10.5654417"/>
  <node id="438279827" version="3" timestamp="2009-08-04T07:51:50Z" uid="20587" user="balrog-kun" changeset="2032891" lat="52.4087647" lon="16.8680056"/>
  <node id="438279827" version="4" timestamp="2010-07-21T14:27:47Z" uid="19417" user="xjr" changeset="5279343" lat="52.4086565" lon="16.8679414"/>
  <node id="438279827" version="5" timestamp="2010-12-29T19:00:30Z" uid="389261" user="dasior591" changeset="6801976" lat="52.4083183" lon="16.8678445"/>
  <node id="438273322" version="3" timestamp="2012-05-02T07:06:52Z" uid="42393" user="mawi42" changeset="11476674" lat="48.016448" lon="11.475168">
    <tag k="addr:city" v="Baierbrunn"/>
    <tag k="addr:country" v="DE"/>
    <tag k="addr:housenumber" v="14"/>
    <tag k="addr:postcode" v="82065"/>
    <tag k="addr:street" v="Schorner Straße"/>
    <tag k="name" v="Auto Reparatur"/>
  </node>
  <node id="438273322" version="4" timestamp="2012-07-01T17:54:17Z" uid="290723" user="sulagaloh" changeset="12079001" lat="48.016448" lon="11.475168"/>
  <node id="438273327" version="3" timestamp="2012-07-01T18:04:28Z" uid="290723" user="sulagaloh" changeset="12079001" lat="48.01697" lon="11.475225"/>
  <node id="438273332" version="3" timestamp="2012-07-12T19:41:11Z" uid="290723" user="sulagaloh" changeset="12199570" lat="48.0172558" lon="11.4755131"/>
  <node id="438273336" version="3" timestamp="2012-07-01T18:04:27Z" uid="290723" user="sulagaloh" changeset="12079001" lat="48.017613" lon="11.4753"/>
  <node id="438273338" version="3" timestamp="2012-07-01T18:04:28Z" uid="290723" user="sulagaloh" changeset="12079001" lat="48.017909" lon="11.475339"/>
  <node id="438273340" version="3" timestamp="2012-07-01T18:04:28Z" uid="290723" user="sulagaloh" changeset="12079001" lat="48.018068" lon="11.475257"/>
  <node id="438273345" version="3" timestamp="2012-07-12T19:41:11Z" uid="290723" user="sulagaloh" changeset="12199570" lat="48.018322" lon="11.475456"/>
  <node id="438273352" version="3" timestamp="2012-07-02T01:39:25Z" uid="545896" user="s-o-f" changeset="12082578" lat="48.0188149" lon="11.4755266">
    <tag k="addr:city" v="Baierbrunn"/>
    <tag k="addr:country" v="DE"/>
    <tag k="addr:housenumber" v="2"/>
    <tag k="addr:postcode" v="82065"/>
    <tag k="addr:street" v="Schorner Straße"/>
    <tag k="name" v="2"/>
  </node>
  <node id="438273352" version="4" timestamp="2012-07-12T19:41:11Z" uid="290723" user="sulagaloh" changeset="12199570" lat="48.0188149" lon="11.4755266"/>
  <node id="438273358" version="4" timestamp="2012-07-01T18:09:19Z" uid="290723" user="sulagaloh" changeset="12079001" lat="48.0186714" lon="11.4761801">
    <tag k="addr:housenumber" v="29"/>
    <tag k="addr:street" v="Oberdiller Straße"/>
    <tag k="name" v="Autohaus Baierbrunn"/>
    <tag k="shop" v="car"/>
  </node>
  <node id="438273358" version="5" timestamp="2012-07-02T01:39:24Z" uid="545896" user="s-o-f" changeset="12082578" lat="48.0186953" lon="11.4761298">
    <tag k="addr:housenumber" v="29"/>
    <tag k="addr:street" v="Oberdiller Straße"/>
    <tag k="name" v="Autohaus Baierbrunn"/>
    <tag k="shop" v="car"/>
  </node>
  <node id="438273358" version="6" timestamp="2012-07-02T19:06:56Z" uid="290723" user="sulagaloh" changeset="12092739" lat="48.0186953" lon="11.4761298"/>
  <node id="438273366" version="3" timestamp="2012-07-01T21:28:29Z" uid="545896" user="s-o-f" changeset="12081405" lat="48.0182418" lon="11.4759599">
    <tag k="addr:city" v="Baierbrunn"/>
    <tag k="addr:country" v="DE"/>
    <tag k="addr:housenumber" v="1"/>
    <tag k="addr:postcode" v="82065"/>
    <tag k="addr:street" v="Schorner Straße"/>
    <tag k="name" v="1"/>
  </node>
  <node id="438273366" version="4" timestamp="2012-07-12T19:41:11Z" uid="290723" user="sulagaloh" changeset="12199570" lat="48.0182418" lon="11.4759599"/>
  <node id="438273378" version="3" timestamp="2012-07-12T19:41:11Z" uid="290723" user="sulagaloh" changeset="12199570" lat="48.017292" lon="11.475799"/>
  <node id="438273390" version="3" timestamp="2012-05-02T07:05:42Z" uid="42393" user="mawi42" changeset="11476674" lat="48.0163387" lon="11.4745656">
    <tag k="addr:city" v="Baierbrunn"/>
    <tag k="addr:country" v="DE"/>
    <tag k="addr:housename" v="Wohngebäude"/>
    <tag k="addr:housenumber" v="14a"/>
    <tag k="addr:postcode" v="82065"/>
    <tag k="addr:street" v="Schorner Straße"/>
    <tag k="name" v="14 Auto Reperatur"/>
  </node>
  <node id="438273390" version="4" timestamp="2012-05-02T07:06:52Z" uid="42393" user="mawi42" changeset="11476674" lat="48.0163387" lon="11.4745656"/>
  <node id="438274864" version="2" timestamp="2012-07-08T08:16:53Z" uid="41362" user="Eriks Zelenka" changeset="12146909" lat="51.4096245" lon="-0.8158157"/>
  <node id="438275092" version="2" timestamp="2012-07-18T17:18:11Z" uid="722137" user="OSMF Redaction Account" changeset="12290296" lat="52.9569384" lon="10.5659972"/>
  <node id="438275098" version="2" timestamp="2012-07-18T17:18:43Z" uid="722137" user="OSMF Redaction Account" changeset="12290310" lat="52.9577954" lon="10.5646317"/>
  <node id="438275100" version="2" timestamp="2012-07-18T17:18:13Z" uid="722137" user="OSMF Redaction Account" changeset="12290296" lat="52.9570046" lon="10.5658873"/>
  <node id="438275104" version="2" timestamp="2012-07-18T17:18:49Z" uid="722137" user="OSMF Redaction Account" changeset="12290310" lat="52.9580437" lon="10.5650425"/>
  <node id="438275108" version="2" timestamp="2012-07-18T17:18:38Z" uid="722137" user="OSMF Redaction Account" changeset="12290310" lat="52.9576856" lon="10.5647907"/>
  <node id="438275111" version="2" timestamp="2012-07-18T17:18:22Z" uid="722137" user="OSMF Redaction Account" changeset="12290296" lat="52.9572669" lon="10.5654417"/>
</osm>
