<?xml version='1.0' encoding='UTF-8'?>
<osm version="0.6" generator="libosmium/2.20.0">
  <node id="442092415" version="2" timestamp="2009-09-03T05:18:46Z" uid="20587" user="balrog-kun" changeset="2355667" lat="51.3173915" lon="21.9178474">
    <tag k="addr:city" v="Janowiec"/>
    <tag k="amenity" v="ferry_terminal"/>
    <tag k="name" v="Gelderland"/>
    <tag k="note" v="Telephone: +48 602-858-898"/>
    <tag k="phone" v="+48602858898"/>
  </node>
  <node id="442093559" version="3" timestamp="2009-07-26T14:49:41Z" uid="74617" user="JohnSmith" changeset="1945510" lat="-37.9968937" lon="145.2624562">
    <tag k="addr:city" v="Melbourne"/>
    <tag k="addr:country" v="AU"/>
    <tag k="addr:housenumber" v="36"/>
    <tag k="addr:postcode" v="3803"/>
    <tag k="addr:street" v="Adam Avenue"/>
    <tag k="addr:suburb" v="Hallam"/>
  </node>
  <node id="442093559" version="4" timestamp="2012-07-19T20:12:11Z" uid="722137" user="OSMF Redaction Account" changeset="12345809" lat="-37.9968937" lon="145.2624562">
    <tag k="addr:city" v="Melbourne"/>
    <tag k="addr:country" v="Australia"/>
    <tag k="addr:housenumber" v="36"/>
    <tag k="addr:postcode" v="3803"/>
    <tag k="addr:street" v="Adam Avenue"/>
    <tag k="addr:suburb" v="Hallam"/>
  </node>
  <node id="442093559" version="5" timestamp="2012-08-19T01:04:00Z" uid="92274" user="adjuva" changeset="12777085" lat="-37.9968937" lon="145.2624562">
    <tag k="addr:city" v="Melbourne"/>
    <tag k="addr:country" v="AU"/>
    <tag k="addr:housenumber" v="36"/>
    <tag k="addr:postcode" v="3803"/>
    <tag k="addr:street" v="Adam Avenue"/>
    <tag k="addr:suburb" v="Hallam"/>
  </node>
</osm>
