<?xml version='1.0' encoding='UTF-8'?>
<osm version="0.6" generator="libosmium/2.20.0">
  <node id="442680002" version="1" timestamp="2009-07-16T19:00:42Z" uid="36809" user="pfoten_weg_!_" changeset="1848107" lat="48.0664786" lon="11.525704">
    <tag k="amenity" v="school"/>
    <tag k="discovered_by" v="RambaZamba"/>
    <tag k="name" v="Staatliches Gymnasium Pullach"/>
    <tag k="source" v="survey"/>
  </node>
  <node id="442680002" version="2" timestamp="2009-08-12T14:07:57Z" uid="156995" user="HampelZamba" changeset="2119076" lat="48.0664786" lon="11.525704">
    <tag k="amenity" v="school"/>
    <tag k="name" v="Staatliches Gymnasium Pullach"/>
    <tag k="source" v="survey"/>
  </node>
  <node id="442680002" version="3" timestamp="2009-08-25T23:48:56Z" uid="36809" user="pfoten_weg_!_" changeset="2262648" lat="48.0664786" lon="11.525704">
    <tag k="amenity" v="school"/>
    <tag k="name" v="Staatliches Gymnasium Pullach"/>
    <tag k="source" v="survey"/>
  </node>
  <node id="442680002" version="4" timestamp="2009-08-26T00:52:44Z" uid="36809" user="pfoten_weg_!_" changeset="2262879" lat="48.0664786" lon="11.525704">
    <tag k="amenity" v="school"/>
    <tag k="name" v="Staatliches Gymnasium Pullach"/>
    <tag k="source" v="survey"/>
  </node>
  <node id="442680002" version="5" timestamp="2009-10-02T21:24:08Z" uid="86259" user="hasse_osm_korinthenkacker" changeset="2717728" lat="48.0664786" lon="11.525704">
    <tag k="amenity" v="school"/>
    <tag k="name" v="Staatliches Gymnasium Pullach"/>
  </node>
  <node id="442680002" version="6" timestamp="2011-12-23T00:07:05Z" uid="290680" user="wheelmap_visitor" changeset="10178643" lat="48.0664786" lon="11.525704">
    <tag k="amenity" v="school"/>
    <tag k="name" v="Staatliches Gymnasium Pullach"/>
    <tag k="wheelchair" v="limited"/>
  </node>
  <node id="442680002" version="7" timestamp="2012-02-17T22:24:04Z" uid="11374" user="q_un_go" changeset="10715807" lat="48.0664786" lon="11.525704"/>
  <node id="442682585" version="1" timestamp="2009-07-16T19:07:02Z" uid="6975" user="ulfl" changeset="1848190" lat="49.457498" lon="11.0539516">
    <tag k="amenity" v="bar"/>
    <tag k="name" v="B-M-F"/>
    <tag k="tourism" v="museum"/>
  </node>
  <node id="442682585" version="2" timestamp="2010-05-02T23:20:24Z" uid="70581" user="rsl" changeset="4591126" lat="49.457498" lon="11.0539516">
    <tag k="amenity" v="bar"/>
    <tag k="name" v="B-M-F"/>
    <tag k="tourism" v="museum"/>
    <tag k="website" v="http://bmf-museum.de"/>
  </node>
  <node id="442682585" version="3" timestamp="2010-11-04T20:19:59Z" uid="83876" user="BurnyB" changeset="6291379" lat="49.4574313" lon="11.0539559">
    <tag k="amenity" v="bar"/>
    <tag k="name" v="B-M-F"/>
    <tag k="tourism" v="museum"/>
    <tag k="website" v="http://bmf-museum.de"/>
  </node>
  <node id="442682585" version="4" timestamp="2011-12-01T22:27:32Z" uid="71557" user="Taroc" changeset="10012895" lat="49.4574313" lon="11.0539559"/>
  <node id="442683443" version="2" timestamp="2010-06-25T08:37:24Z" uid="49111" user="Markus B" changeset="5071870" lat="48.1552678" lon="11.5837673">
    <tag k="amenity" v="restaurant"/>
    <tag k="name" v="L&apos;Osteria"/>
    <tag k="smoking" v="no"/>
  </node>
  <node id="442683443" version="3" timestamp="2011-01-02T15:11:03Z" uid="29061" user="KPG" changeset="6838566" lat="48.1552055" lon="11.5840263">
    <tag k="amenity" v="restaurant"/>
    <tag k="name" v="L&apos;Osteria"/>
    <tag k="smoking" v="no"/>
  </node>
  <node id="442683443" version="4" timestamp="2011-07-25T13:00:32Z" uid="495268" user="WLG" changeset="8826023" lat="48.1552055" lon="11.5840263">
    <tag k="amenity" v="restaurant"/>
    <tag k="name" v="L&apos;Osteria"/>
    <tag k="smoking" v="no"/>
    <tag k="wheelchair" v="no"/>
    <tag k="wheelchair:description" v="Terrasse rollstuhlzugänglich, aber sehr eng gestellte Tische. Innenräume unzugänglich ( hohe Stufe ); kein Behinderten-WC"/>
  </node>
  <node id="442683443" version="5" timestamp="2011-08-02T10:30:17Z" uid="495268" user="WLG" changeset="8899108" lat="48.1552055" lon="11.5840263">
    <tag k="amenity" v="restaurant"/>
    <tag k="name" v="L&apos;Osteria"/>
    <tag k="smoking" v="no"/>
    <tag k="wheelchair" v="no"/>
    <tag k="wheelchair:description" v="Hohe Stufe.- Terrasse rollstuhlzugänglich, aber sehr eng gestellte Tische. Innenräume unzugänglich ( hohe Stufe ); kein Behinderten-WC"/>
  </node>
  <node id="442683443" version="6" timestamp="2011-08-12T08:53:08Z" uid="495268" user="WLG" changeset="8993236" lat="48.1552055" lon="11.5840263">
    <tag k="amenity" v="restaurant"/>
    <tag k="name" v="L&apos;Osteria"/>
    <tag k="smoking" v="no"/>
    <tag k="wheelchair" v="no"/>
    <tag k="wheelchair:description" v="Terrasse rollstuhlzugänglich, aber sehr eng gestellte Tische. Innenräume unzugänglich ( hohe Stufe ); kein Behinderten-WC"/>
  </node>
  <node id="442683443" version="7" timestamp="2011-08-20T15:55:08Z" uid="495268" user="WLG" changeset="9074832" lat="48.1552055" lon="11.5840263">
    <tag k="amenity" v="restaurant"/>
    <tag k="name" v="L&apos;Osteria"/>
    <tag k="smoking" v="no"/>
    <tag k="wheelchair" v="no"/>
    <tag k="wheelchair:description" v="Terrasse rollstuhlzugänglich, aber sehr eng gestellte Tische. Innenräume unzugänglich ( hohe Stufe ); kein Rolli-WC"/>
  </node>
  <node id="442683443" version="8" timestamp="2011-09-13T09:52:10Z" uid="495268" user="WLG" changeset="9287983" lat="48.1552055" lon="11.5840263">
    <tag k="amenity" v="restaurant"/>
    <tag k="name" v="L&apos;Osteria"/>
    <tag k="smoking" v="no"/>
    <tag k="wheelchair" v="no"/>
    <tag k="wheelchair:description" v="Terrasse rollstuhlzugänglich, aber eng gestellte Tische. Innenräume unzugänglich ( hohe Stufe ); kein Rolli-WC"/>
  </node>
  <node id="442683443" version="9" timestamp="2011-09-16T09:20:25Z" uid="495268" user="WLG" changeset="9314407" lat="48.1552055" lon="11.5840263">
    <tag k="amenity" v="restaurant"/>
    <tag k="name" v="L&apos;Osteria"/>
    <tag k="smoking" v="no"/>
    <tag k="wheelchair" v="no"/>
    <tag k="wheelchair:description" v="Terrasse rollstuhlzugänglich. Innenräume unzugänglich ( hohe Stufe ); kein Rolli-WC"/>
  </node>
  <node id="442686687" version="2" timestamp="2010-01-13T16:14:33Z" uid="33382" user="de_muur" changeset="3611024" lat="53.0478232" lon="8.9191426"/>
  <node id="442683443" version="10" timestamp="2012-05-08T09:15:50Z" uid="290680" user="wheelmap_visitor" changeset="11535579" lat="48.1552055" lon="11.5840263">
    <tag k="amenity" v="restaurant"/>
    <tag k="name" v="L&apos;Osteria"/>
    <tag k="smoking" v="no"/>
    <tag k="wheelchair" v="limited"/>
    <tag k="wheelchair:description" v="Terrasse rollstuhlzugänglich. Innenräume unzugänglich ( hohe Stufe ); kein Rolli-WC"/>
  </node>
  <node id="442683443" version="11" timestamp="2012-06-05T15:24:37Z" uid="495268" user="WLG" changeset="11807145" lat="48.1552055" lon="11.5840263">
    <tag k="amenity" v="restaurant"/>
    <tag k="name" v="L&apos;Osteria"/>
    <tag k="smoking" v="no"/>
    <tag k="wheelchair" v="no"/>
    <tag k="wheelchair:description" v="Terrasse rollstuhlzugänglich. Innenräume unzugänglich ( hohe Stufe ); kein Rolli-WC"/>
  </node>
</osm>
