<?xml version='1.0' encoding='UTF-8'?>
<osm version="0.6" generator="libosmium/2.20.0">
  <node id="442807116" version="3" timestamp="2010-11-02T16:15:39Z" uid="115477" user="wowik" changeset="6269077" lat="55.805683" lon="23.5365288">
    <tag k="name" v="Radviliškis geležinkelio stotis"/>
    <tag k="name:ru" v="Радвилишкис"/>
    <tag k="railway" v="station"/>
  </node>
  <node id="442807116" version="4" timestamp="2011-01-07T19:08:07Z" uid="96588" user="mindedie" changeset="6896211" lat="55.805683" lon="23.5365288">
    <tag k="name" v="Radviliškis geležinkelio stotis"/>
    <tag k="name:ru" v="Радвилишкис"/>
    <tag k="railway" v="station"/>
  </node>
  <node id="442807686" version="1" timestamp="2009-07-17T04:45:21Z" uid="58091" user="Andreas M" changeset="1850464" lat="48.1805415" lon="16.4905819">
    <tag k="historic" v="memorial"/>
    <tag k="name" v="Napoleonstein"/>
    <tag k="url" v="http://www.vienna.cc/deutsch/napoleonstein.htm"/>
  </node>
  <node id="442807686" version="2" timestamp="2010-09-20T12:50:32Z" uid="65148" user="Pirat Michi" changeset="5828900" lat="48.1805415" lon="16.4905819">
    <tag k="historic" v="memorial"/>
    <tag k="name" v="Napoleonstein"/>
    <tag k="website" v="http://www.vienna.cc/deutsch/napoleonstein.htm"/>
  </node>
  <node id="442807686" version="3" timestamp="2012-07-16T23:20:41Z" uid="722137" user="OSMF Redaction Account" changeset="12253342" lat="48.1805415" lon="16.4905819"/>
</osm>
