<?xml version='1.0' encoding='UTF-8'?>
<osm version="0.6" generator="libosmium/2.20.0">
  <node id="444730014" version="2" timestamp="2010-04-11T04:48:13Z" uid="20587" user="balrog-kun" changeset="4389130" lat="52.2100192" lon="16.9402089">
    <tag k="addr:postcode" v="62-050"/>
    <tag k="is_in" v="gmina Mosina, powiat poznański, województwo wielkopolskie, Poland"/>
    <tag k="is_in:country" v="Poland"/>
    <tag k="is_in:county" v="powiat poznański"/>
    <tag k="is_in:municipality" v="gmina Mosina"/>
    <tag k="is_in:province" v="województwo wielkopolskie"/>
    <tag k="name" v="Krajkowo"/>
    <tag k="place" v="village"/>
    <tag k="wikipedia" v="Krajkowo_(województwo_wielkopolskie)"/>
  </node>
  <node id="444730014" version="3" timestamp="2012-02-06T19:45:46Z" uid="314684" user="krattbot" changeset="10605722" lat="52.2100192" lon="16.9402089">
    <tag k="addr:postcode" v="62-050"/>
    <tag k="fixme" v="Bad wikipedia link: Krajkowo_(województwo_wielkopolskie)"/>
    <tag k="is_in" v="gmina Mosina, powiat poznański, województwo wielkopolskie, Poland"/>
    <tag k="is_in:country" v="Poland"/>
    <tag k="is_in:county" v="powiat poznański"/>
    <tag k="is_in:municipality" v="gmina Mosina"/>
    <tag k="is_in:province" v="województwo wielkopolskie"/>
    <tag k="name" v="Krajkowo"/>
    <tag k="place" v="village"/>
    <tag k="wikipedia" v="Krajkowo_(województwo_wielkopolskie)"/>
  </node>
  <node id="444732404" version="2" timestamp="2011-05-31T12:12:40Z" uid="115477" user="wowik" changeset="8300971" lat="55.8102479" lon="37.5148651"/>
  <node id="444730014" version="4" timestamp="2012-09-06T07:57:52Z" uid="783176" user="wlodek76" changeset="13006624" lat="52.2100192" lon="16.9402089"/>
  <node id="444732404" version="3" timestamp="2012-04-07T07:19:18Z" uid="384084" user="Kostik" changeset="11210089" lat="55.8102497" lon="37.5148847"/>
  <node id="444732404" version="4" timestamp="2012-08-31T04:43:38Z" uid="760215" user="pnorman redaction revert" changeset="12926063" lat="55.8103943" lon="37.5150076"/>
</osm>
