<?xml version='1.0' encoding='UTF-8'?>
<osm version="0.6" generator="libosmium/2.20.0">
  <node id="448740045" version="2" timestamp="2009-08-25T09:35:12Z" uid="18775" user="drlizau" changeset="2254250" lat="42.725" lon="20.928056">
    <tag k="name" v="Krasmirovci"/>
    <tag k="name_full_nd" v="Krasmirovci"/>
    <tag k="name_generic" v=""/>
    <tag k="name_short" v=""/>
    <tag k="name_sort" v="KRASMIROVCI"/>
    <tag k="place" v="hamlet"/>
  </node>
  <node id="448740045" version="3" timestamp="2009-09-21T09:06:24Z" uid="70696" user="xybot" changeset="2554880" lat="42.725" lon="20.928056">
    <tag k="name" v="Krasmirovci"/>
    <tag k="name_full_nd" v="Krasmirovci"/>
    <tag k="name_sort" v="KRASMIROVCI"/>
    <tag k="place" v="hamlet"/>
  </node>
  <node id="448740045" version="4" timestamp="2009-10-12T12:26:27Z" uid="131059" user="h4ck3rm1k3" changeset="2825425" lat="42.725" lon="20.928056">
    <tag k="name" v="Krasmirovci"/>
    <tag k="name_full_nd" v="Krasmirovci"/>
    <tag k="name_sort" v="KRASMIROVCI"/>
    <tag k="place" v="hamlet"/>
  </node>
  <node id="448740069" version="2" timestamp="2009-08-25T09:35:11Z" uid="18775" user="drlizau" changeset="2254250" lat="42.795" lon="21.000278">
    <tag k="name" v="Mavrić"/>
    <tag k="name_full_nd" v="Mavrić"/>
    <tag k="name_generic" v=""/>
    <tag k="name_short" v=""/>
    <tag k="name_sort" v="MAVRIC"/>
    <tag k="place" v="hamlet"/>
  </node>
  <node id="448740069" version="3" timestamp="2009-09-21T09:06:25Z" uid="70696" user="xybot" changeset="2554880" lat="42.795" lon="21.000278">
    <tag k="name" v="Mavrić"/>
    <tag k="name_full_nd" v="Mavrić"/>
    <tag k="name_sort" v="MAVRIC"/>
    <tag k="place" v="hamlet"/>
  </node>
  <node id="448740069" version="4" timestamp="2009-10-12T12:29:18Z" uid="131059" user="h4ck3rm1k3" changeset="2825425" lat="42.795" lon="21.000278">
    <tag k="name" v="Mavrić"/>
    <tag k="name_full_nd" v="Mavrić"/>
    <tag k="name_sort" v="MAVRIC"/>
    <tag k="place" v="hamlet"/>
  </node>
  <node id="448740085" version="2" timestamp="2009-08-25T09:35:11Z" uid="18775" user="drlizau" changeset="2254250" lat="42.735278" lon="20.795556">
    <tag k="name" v="Novo Selo"/>
    <tag k="name_full_nd" v="Novo Selo"/>
    <tag k="name_generic" v=""/>
    <tag k="name_short" v=""/>
    <tag k="name_sort" v="NOVOSELO"/>
    <tag k="place" v="hamlet"/>
  </node>
  <node id="448740085" version="3" timestamp="2009-09-21T09:06:26Z" uid="70696" user="xybot" changeset="2554880" lat="42.735278" lon="20.795556">
    <tag k="name" v="Novo Selo"/>
    <tag k="name_full_nd" v="Novo Selo"/>
    <tag k="name_sort" v="NOVOSELO"/>
    <tag k="place" v="hamlet"/>
  </node>
  <node id="448740085" version="4" timestamp="2009-10-12T12:29:25Z" uid="131059" user="h4ck3rm1k3" changeset="2825425" lat="42.735278" lon="20.795556">
    <tag k="name" v="Novo Selo"/>
    <tag k="name_full_nd" v="Novo Selo"/>
    <tag k="name_sort" v="NOVOSELO"/>
    <tag k="place" v="hamlet"/>
  </node>
  <node id="448740112" version="2" timestamp="2009-08-25T09:35:14Z" uid="18775" user="drlizau" changeset="2254250" lat="42.804722" lon="21.033611">
    <tag k="name" v="Ropicë"/>
    <tag k="name_full_nd" v="Ropicë"/>
    <tag k="name_generic" v=""/>
    <tag k="name_short" v=""/>
    <tag k="name_sort" v="ROPICE"/>
    <tag k="place" v="hamlet"/>
  </node>
  <node id="448740112" version="3" timestamp="2009-09-21T09:06:27Z" uid="70696" user="xybot" changeset="2554880" lat="42.804722" lon="21.033611">
    <tag k="name" v="Ropicë"/>
    <tag k="name_full_nd" v="Ropicë"/>
    <tag k="name_sort" v="ROPICE"/>
    <tag k="place" v="hamlet"/>
  </node>
  <node id="448740112" version="4" timestamp="2009-10-12T12:29:40Z" uid="131059" user="h4ck3rm1k3" changeset="2825425" lat="42.804722" lon="21.033611">
    <tag k="name" v="Ropicë"/>
    <tag k="name_full_nd" v="Ropicë"/>
    <tag k="name_sort" v="ROPICE"/>
    <tag k="place" v="hamlet"/>
  </node>
  <node id="448740114" version="5" timestamp="2009-08-25T09:18:39Z" uid="18775" user="drlizau" changeset="2254105" lat="42.868611" lon="20.941111">
    <tag k="altname" v="Smarokovnice,Smarokovnicë,Smrekonice,Smrekonicë,Smrkovnica"/>
    <tag k="geonameid" v="785721"/>
    <tag k="gnadmin" v="00"/>
    <tag k="gnadmin2" v="Kosovo"/>
    <tag k="gnfeature" v="P"/>
    <tag k="gnfeaturec" v="PPL"/>
    <tag k="name" v="Smrekonicë"/>
    <tag k="name2" v="Smrekovnica"/>
    <tag k="name:old" v="Smarokovnicë"/>
    <tag k="name:sq" v="Smrekonicë"/>
    <tag k="name:sr" v="Smrekovnica"/>
    <tag k="name_full_nd" v="Smarokovnicë"/>
    <tag k="name_full_nd:sq" v="Smrekonicë"/>
    <tag k="name_full_nd:sr" v="Smrekovnica"/>
    <tag k="name_sort" v="SMAROKOVNICE"/>
    <tag k="name_sort:sq" v="SMREKONICE"/>
    <tag k="name_sort:sr" v="SMREKOVNICA"/>
    <tag k="place" v="village"/>
  </node>
  <node id="448740263" version="2" timestamp="2009-08-25T09:35:15Z" uid="18775" user="drlizau" changeset="2254250" lat="42.854167" lon="21.094444">
    <tag k="name" v="Lupç i Epërm"/>
    <tag k="name_full_nd" v="Lupç i Epërm"/>
    <tag k="name_generic" v=""/>
    <tag k="name_short" v=""/>
    <tag k="name_sort" v="LUPCIEPERM"/>
    <tag k="place" v="hamlet"/>
  </node>
  <node id="448740263" version="3" timestamp="2009-09-21T09:06:32Z" uid="70696" user="xybot" changeset="2554880" lat="42.854167" lon="21.094444">
    <tag k="name" v="Lupç i Epërm"/>
    <tag k="name_full_nd" v="Lupç i Epërm"/>
    <tag k="name_sort" v="LUPCIEPERM"/>
    <tag k="place" v="hamlet"/>
  </node>
  <node id="448740263" version="4" timestamp="2009-10-12T12:28:29Z" uid="131059" user="h4ck3rm1k3" changeset="2825425" lat="42.854167" lon="21.094444">
    <tag k="name" v="Lupç i Epërm"/>
    <tag k="name_full_nd" v="Lupç i Epërm"/>
    <tag k="name_sort" v="LUPCIEPERM"/>
    <tag k="place" v="hamlet"/>
  </node>
  <node id="448740264" version="2" timestamp="2009-08-25T09:35:15Z" uid="18775" user="drlizau" changeset="2254250" lat="42.854167" lon="21.094444">
    <tag k="name" v="Gornje Ljupče"/>
    <tag k="name_full_nd" v="Gornje Ljupče"/>
    <tag k="name_generic" v=""/>
    <tag k="name_short" v=""/>
    <tag k="name_sort" v="GORNJELJUPCE"/>
    <tag k="place" v="hamlet"/>
  </node>
  <node id="448740264" version="3" timestamp="2009-09-21T09:06:32Z" uid="70696" user="xybot" changeset="2554880" lat="42.854167" lon="21.094444">
    <tag k="name" v="Gornje Ljupče"/>
    <tag k="name_full_nd" v="Gornje Ljupče"/>
    <tag k="name_sort" v="GORNJELJUPCE"/>
    <tag k="place" v="hamlet"/>
  </node>
  <node id="448740264" version="4" timestamp="2009-10-12T12:28:29Z" uid="131059" user="h4ck3rm1k3" changeset="2825425" lat="42.854167" lon="21.094444">
    <tag k="name" v="Gornje Ljupče"/>
    <tag k="name_full_nd" v="Gornje Ljupče"/>
    <tag k="name_sort" v="GORNJELJUPCE"/>
    <tag k="place" v="hamlet"/>
  </node>
  <node id="448740279" version="2" timestamp="2009-08-25T09:35:15Z" uid="18775" user="drlizau" changeset="2254250" lat="42.823611" lon="21.1875">
    <tag k="name" v="Lluga"/>
    <tag k="name_full_nd" v="Lluga"/>
    <tag k="name_generic" v=""/>
    <tag k="name_short" v=""/>
    <tag k="name_sort" v="LLUGA"/>
    <tag k="place" v="hamlet"/>
  </node>
  <node id="448740279" version="3" timestamp="2009-09-21T09:06:33Z" uid="70696" user="xybot" changeset="2554880" lat="42.823611" lon="21.1875">
    <tag k="name" v="Lluga"/>
    <tag k="name_full_nd" v="Lluga"/>
    <tag k="name_sort" v="LLUGA"/>
    <tag k="place" v="hamlet"/>
  </node>
  <node id="448740279" version="4" timestamp="2009-10-12T12:28:26Z" uid="131059" user="h4ck3rm1k3" changeset="2825425" lat="42.823611" lon="21.1875">
    <tag k="name" v="Lluga"/>
    <tag k="name_full_nd" v="Lluga"/>
    <tag k="name_sort" v="LLUGA"/>
    <tag k="place" v="hamlet"/>
  </node>
  <node id="448740292" version="2" timestamp="2009-08-25T09:35:14Z" uid="18775" user="drlizau" changeset="2254250" lat="42.8875" lon="21.173333">
    <tag k="name" v="Доња Лапаштица"/>
    <tag k="name_full_nd" v="Доња Лапаштица"/>
    <tag k="name_generic" v=""/>
    <tag k="name_short" v=""/>
    <tag k="name_sort" v="ДОЊАЛАПАШТИЦА"/>
    <tag k="place" v="hamlet"/>
  </node>
  <node id="448740292" version="3" timestamp="2009-09-21T09:06:34Z" uid="70696" user="xybot" changeset="2554880" lat="42.8875" lon="21.173333">
    <tag k="name" v="Доња Лапаштица"/>
    <tag k="name_full_nd" v="Доња Лапаштица"/>
    <tag k="name_sort" v="ДОЊАЛАПАШТИЦА"/>
    <tag k="place" v="hamlet"/>
  </node>
  <node id="448740292" version="4" timestamp="2009-10-12T12:39:27Z" uid="131059" user="h4ck3rm1k3" changeset="2825425" lat="42.8875" lon="21.173333">
    <tag k="name" v="Доња Лапаштица"/>
    <tag k="name_full_nd" v="Доња Лапаштица"/>
    <tag k="name_sort" v="ДОЊАЛАПАШТИЦА"/>
    <tag k="place" v="hamlet"/>
  </node>
  <node id="448741146" version="3" timestamp="2009-08-25T09:34:54Z" uid="18775" user="drlizau" changeset="2254250" lat="42.925278" lon="20.851944">
    <tag k="el" v=""/>
    <tag k="geonameid" v="785698"/>
    <tag k="gnadmin" v="00"/>
    <tag k="gnadmin2" v="Kosovo"/>
    <tag k="gnfeature" v="T"/>
    <tag k="gnfeaturec" v="MT"/>
    <tag k="name" v="Sokolica"/>
    <tag k="name2" v="Sokolica"/>
    <tag k="name:sr" v="Sokolica"/>
    <tag k="name_full_nd" v="Sokolica"/>
    <tag k="name_full_nd:sr" v="Sokolica"/>
    <tag k="name_generic" v=""/>
    <tag k="name_generic:sr" v=""/>
    <tag k="name_short" v=""/>
    <tag k="name_short:sr" v=""/>
    <tag k="name_sort" v="SOKOLICA"/>
    <tag k="name_sort:sr" v="SOKOLICA"/>
    <tag k="natural" v="peak"/>
  </node>
  <node id="448741146" version="4" timestamp="2009-09-21T09:06:49Z" uid="70696" user="xybot" changeset="2554880" lat="42.925278" lon="20.851944">
    <tag k="geonameid" v="785698"/>
    <tag k="gnadmin" v="00"/>
    <tag k="gnadmin2" v="Kosovo"/>
    <tag k="gnfeature" v="T"/>
    <tag k="gnfeaturec" v="MT"/>
    <tag k="name" v="Sokolica"/>
    <tag k="name2" v="Sokolica"/>
    <tag k="name:sr" v="Sokolica"/>
    <tag k="name_full_nd" v="Sokolica"/>
    <tag k="name_full_nd:sr" v="Sokolica"/>
    <tag k="name_sort" v="SOKOLICA"/>
    <tag k="name_sort:sr" v="SOKOLICA"/>
    <tag k="natural" v="peak"/>
  </node>
  <node id="448741254" version="4" timestamp="2009-08-25T09:34:55Z" uid="18775" user="drlizau" changeset="2254250" lat="43.049722" lon="20.803889">
    <tag k="el" v=""/>
    <tag k="geonameid" v="830991"/>
    <tag k="gnadmin" v="00"/>
    <tag k="gnadmin2" v="Kosovo"/>
    <tag k="gnfeature" v="H"/>
    <tag k="gnfeaturec" v="STM"/>
    <tag k="name" v="Grkajska Reka"/>
    <tag k="name2" v="Grkajska Reka"/>
    <tag k="name:sr" v="Grkajska Reka"/>
    <tag k="name_full_nd" v="Grkajska Reka"/>
    <tag k="name_full_nd:sr" v="Grkajska Reka"/>
    <tag k="name_generic" v="Reka"/>
    <tag k="name_generic:sr" v="Reka"/>
    <tag k="name_short" v=""/>
    <tag k="name_short:sr" v=""/>
    <tag k="name_sort" v="GRKAJSKAREKA"/>
    <tag k="name_sort:sr" v="GRKAJSKAREKA"/>
    <tag k="natural" v="spring"/>
  </node>
  <node id="448741254" version="5" timestamp="2009-09-21T09:06:57Z" uid="70696" user="xybot" changeset="2554880" lat="43.049722" lon="20.803889">
    <tag k="geonameid" v="830991"/>
    <tag k="gnadmin" v="00"/>
    <tag k="gnadmin2" v="Kosovo"/>
    <tag k="gnfeature" v="H"/>
    <tag k="gnfeaturec" v="STM"/>
    <tag k="name" v="Grkajska Reka"/>
    <tag k="name2" v="Grkajska Reka"/>
    <tag k="name:sr" v="Grkajska Reka"/>
    <tag k="name_full_nd" v="Grkajska Reka"/>
    <tag k="name_full_nd:sr" v="Grkajska Reka"/>
    <tag k="name_generic" v="Reka"/>
    <tag k="name_generic:sr" v="Reka"/>
    <tag k="name_sort" v="GRKAJSKAREKA"/>
    <tag k="name_sort:sr" v="GRKAJSKAREKA"/>
    <tag k="natural" v="spring"/>
  </node>
  <node id="448741254" version="6" timestamp="2011-01-13T09:29:47Z" uid="355102" user="Besfort Guri" changeset="6955205" lat="43.0497375" lon="20.8037668">
    <tag k="geonameid" v="830991"/>
    <tag k="gnadmin" v="00"/>
    <tag k="gnadmin2" v="Kosovo"/>
    <tag k="gnfeature" v="H"/>
    <tag k="gnfeaturec" v="STM"/>
    <tag k="name" v="Grkajska Reka"/>
    <tag k="name2" v="Grkajska Reka"/>
    <tag k="name:sr" v="Grkajska Reka"/>
    <tag k="name_full_nd" v="Grkajska Reka"/>
    <tag k="name_full_nd:sr" v="Grkajska Reka"/>
    <tag k="name_generic" v="Reka"/>
    <tag k="name_generic:sr" v="Reka"/>
    <tag k="name_sort" v="GRKAJSKAREKA"/>
    <tag k="name_sort:sr" v="GRKAJSKAREKA"/>
    <tag k="natural" v="spring"/>
  </node>
  <node id="448741292" version="4" timestamp="2009-08-25T09:17:47Z" uid="18775" user="drlizau" changeset="2254105" lat="42.901944" lon="21.087778">
    <tag k="el" v=""/>
    <tag k="name" v="Stan"/>
    <tag k="name:sr" v="Stan"/>
    <tag k="name_full_nd" v="Stan"/>
    <tag k="name_full_nd:sr" v="Stan"/>
    <tag k="name_generic:sr" v=""/>
    <tag k="name_short:sr" v=""/>
    <tag k="name_sort" v="STAN"/>
    <tag k="name_sort:sr" v="STAN"/>
    <tag k="place" v="hamlet"/>
  </node>
  <node id="448741292" version="5" timestamp="2009-09-21T09:06:59Z" uid="70696" user="xybot" changeset="2554880" lat="42.901944" lon="21.087778">
    <tag k="name" v="Stan"/>
    <tag k="name:sr" v="Stan"/>
    <tag k="name_full_nd" v="Stan"/>
    <tag k="name_full_nd:sr" v="Stan"/>
    <tag k="name_sort" v="STAN"/>
    <tag k="name_sort:sr" v="STAN"/>
    <tag k="place" v="hamlet"/>
  </node>
  <node id="448741292" version="6" timestamp="2009-10-12T12:27:59Z" uid="131059" user="h4ck3rm1k3" changeset="2825425" lat="42.901944" lon="21.087778">
    <tag k="name" v="Stan"/>
    <tag k="name:sr" v="Stan"/>
    <tag k="name_full_nd" v="Stan"/>
    <tag k="name_full_nd:sr" v="Stan"/>
    <tag k="name_sort" v="STAN"/>
    <tag k="name_sort:sr" v="STAN"/>
    <tag k="place" v="hamlet"/>
  </node>
  <node id="448741321" version="3" timestamp="2009-08-25T09:17:48Z" uid="18775" user="drlizau" changeset="2254105" lat="42.803611" lon="21.1725">
    <tag k="el" v=""/>
    <tag k="name" v="Šakovička Čuka"/>
    <tag k="name:sr" v="Šakovička Čuka"/>
    <tag k="name_full_nd" v="Šakovička Čuka"/>
    <tag k="name_full_nd:sr" v="Šakovička Čuka"/>
    <tag k="name_generic" v="Čuka"/>
    <tag k="name_generic:sr" v="Čuka"/>
    <tag k="name_short:sr" v=""/>
    <tag k="name_sort" v="SAKOVICKACUKA"/>
    <tag k="name_sort:sr" v="SAKOVICKACUKA"/>
    <tag k="place" v="hamlet"/>
  </node>
  <node id="448741321" version="4" timestamp="2009-09-21T09:07:02Z" uid="70696" user="xybot" changeset="2554880" lat="42.803611" lon="21.1725">
    <tag k="name" v="Šakovička Čuka"/>
    <tag k="name:sr" v="Šakovička Čuka"/>
    <tag k="name_full_nd" v="Šakovička Čuka"/>
    <tag k="name_full_nd:sr" v="Šakovička Čuka"/>
    <tag k="name_generic" v="Čuka"/>
    <tag k="name_generic:sr" v="Čuka"/>
    <tag k="name_sort" v="SAKOVICKACUKA"/>
    <tag k="name_sort:sr" v="SAKOVICKACUKA"/>
    <tag k="place" v="hamlet"/>
  </node>
  <node id="448741321" version="5" timestamp="2009-10-12T12:28:41Z" uid="131059" user="h4ck3rm1k3" changeset="2825425" lat="42.803611" lon="21.1725">
    <tag k="name" v="Šakovička Čuka"/>
    <tag k="name:sr" v="Šakovička Čuka"/>
    <tag k="name_full_nd" v="Šakovička Čuka"/>
    <tag k="name_full_nd:sr" v="Šakovička Čuka"/>
    <tag k="name_generic" v="Čuka"/>
    <tag k="name_generic:sr" v="Čuka"/>
    <tag k="name_sort" v="SAKOVICKACUKA"/>
    <tag k="name_sort:sr" v="SAKOVICKACUKA"/>
    <tag k="place" v="hamlet"/>
  </node>
  <node id="448741324" version="3" timestamp="2009-08-25T09:17:49Z" uid="18775" user="drlizau" changeset="2254105" lat="42.802222" lon="20.984167">
    <tag k="el" v=""/>
    <tag k="name" v="Sudimlja Reka"/>
    <tag k="name:sr" v="Sudimlja Reka"/>
    <tag k="name_full_nd" v="Sudimlja Reka"/>
    <tag k="name_full_nd:sr" v="Sudimlja Reka"/>
    <tag k="name_generic" v="Reka"/>
    <tag k="name_generic:sr" v="Reka"/>
    <tag k="name_short:sr" v=""/>
    <tag k="name_sort" v="SUDIMLJAREKA"/>
    <tag k="name_sort:sr" v="SUDIMLJAREKA"/>
    <tag k="place" v="hamlet"/>
  </node>
  <node id="448741324" version="4" timestamp="2009-09-11T07:38:28Z" uid="131059" user="h4ck3rm1k3" changeset="2443721" lat="42.802222" lon="20.984167">
    <tag k="el" v=""/>
    <tag k="name" v="Sudimlja Reka"/>
    <tag k="name:sr" v="Sudimlja Reka"/>
    <tag k="name_full_nd" v="Sudimlja Reka"/>
    <tag k="name_full_nd:sr" v="Sudimlja Reka"/>
    <tag k="name_generic" v="Reka"/>
    <tag k="name_generic:sr" v="Reka"/>
    <tag k="name_short:sr" v=""/>
    <tag k="name_sort" v="SUDIMLJAREKA"/>
    <tag k="name_sort:sr" v="SUDIMLJAREKA"/>
    <tag k="place" v="hamlet"/>
  </node>
  <node id="448741354" version="6" timestamp="2009-08-25T09:17:48Z" uid="18775" user="drlizau" changeset="2254105" lat="42.820556" lon="20.838611">
    <tag k="el" v=""/>
    <tag k="geonameid" v="831957"/>
    <tag k="gnadmin" v="00"/>
    <tag k="gnadmin2" v="Kosovo"/>
    <tag k="gnfeature" v="T"/>
    <tag k="gnfeaturec" v="MT"/>
    <tag k="name" v="Magura"/>
    <tag k="name2" v="Magura"/>
    <tag k="name:sr" v="Magura"/>
    <tag k="name_full_nd" v="Magura"/>
    <tag k="name_full_nd:sr" v="Magura"/>
    <tag k="name_generic:sr" v=""/>
    <tag k="name_short:sr" v=""/>
    <tag k="name_sort" v="MAGURA"/>
    <tag k="name_sort:sr" v="MAGURA"/>
    <tag k="natural" v="peak"/>
  </node>
  <node id="448741354" version="7" timestamp="2009-09-21T09:07:03Z" uid="70696" user="xybot" changeset="2554880" lat="42.820556" lon="20.838611">
    <tag k="geonameid" v="831957"/>
    <tag k="gnadmin" v="00"/>
    <tag k="gnadmin2" v="Kosovo"/>
    <tag k="gnfeature" v="T"/>
    <tag k="gnfeaturec" v="MT"/>
    <tag k="name" v="Magura"/>
    <tag k="name2" v="Magura"/>
    <tag k="name:sr" v="Magura"/>
    <tag k="name_full_nd" v="Magura"/>
    <tag k="name_full_nd:sr" v="Magura"/>
    <tag k="name_sort" v="MAGURA"/>
    <tag k="name_sort:sr" v="MAGURA"/>
    <tag k="natural" v="peak"/>
  </node>
  <node id="448741392" version="3" timestamp="2009-08-25T09:18:10Z" uid="18775" user="drlizau" changeset="2254105" lat="42.757778" lon="20.848889">
    <tag k="el" v=""/>
    <tag k="name" v="Kraljica"/>
    <tag k="name:sr" v="Kraljica"/>
    <tag k="name_full_nd" v="Kraljica"/>
    <tag k="name_full_nd:sr" v="Kraljica"/>
    <tag k="name_generic:sr" v=""/>
    <tag k="name_short:sr" v=""/>
    <tag k="name_sort" v="KRALJICA"/>
    <tag k="name_sort:sr" v="KRALJICA"/>
    <tag k="place" v="hamlet"/>
  </node>
  <node id="448741392" version="4" timestamp="2009-09-21T09:07:05Z" uid="70696" user="xybot" changeset="2554880" lat="42.757778" lon="20.848889">
    <tag k="name" v="Kraljica"/>
    <tag k="name:sr" v="Kraljica"/>
    <tag k="name_full_nd" v="Kraljica"/>
    <tag k="name_full_nd:sr" v="Kraljica"/>
    <tag k="name_sort" v="KRALJICA"/>
    <tag k="name_sort:sr" v="KRALJICA"/>
    <tag k="place" v="hamlet"/>
  </node>
  <node id="448741392" version="5" timestamp="2009-10-12T12:26:57Z" uid="131059" user="h4ck3rm1k3" changeset="2825425" lat="42.757778" lon="20.848889">
    <tag k="name" v="Kraljica"/>
    <tag k="name:sr" v="Kraljica"/>
    <tag k="name_full_nd" v="Kraljica"/>
    <tag k="name_full_nd:sr" v="Kraljica"/>
    <tag k="name_sort" v="KRALJICA"/>
    <tag k="name_sort:sr" v="KRALJICA"/>
    <tag k="place" v="hamlet"/>
  </node>
  <node id="448741393" version="3" timestamp="2009-08-25T09:18:10Z" uid="18775" user="drlizau" changeset="2254105" lat="42.814167" lon="20.835556">
    <tag k="el" v=""/>
    <tag k="name" v="Jahirova Vodenica"/>
    <tag k="name:sr" v="Jahirova Vodenica"/>
    <tag k="name_full_nd" v="Jahirova Vodenica"/>
    <tag k="name_full_nd:sr" v="Jahirova Vodenica"/>
    <tag k="name_generic" v="Vodenica"/>
    <tag k="name_generic:sr" v="Vodenica"/>
    <tag k="name_short:sr" v=""/>
    <tag k="name_sort" v="JAHIROVAVODENICA"/>
    <tag k="name_sort:sr" v="JAHIROVAVODENICA"/>
    <tag k="place" v="hamlet"/>
  </node>
  <node id="448741393" version="4" timestamp="2009-09-21T09:07:05Z" uid="70696" user="xybot" changeset="2554880" lat="42.814167" lon="20.835556">
    <tag k="name" v="Jahirova Vodenica"/>
    <tag k="name:sr" v="Jahirova Vodenica"/>
    <tag k="name_full_nd" v="Jahirova Vodenica"/>
    <tag k="name_full_nd:sr" v="Jahirova Vodenica"/>
    <tag k="name_generic" v="Vodenica"/>
    <tag k="name_generic:sr" v="Vodenica"/>
    <tag k="name_sort" v="JAHIROVAVODENICA"/>
    <tag k="name_sort:sr" v="JAHIROVAVODENICA"/>
    <tag k="place" v="hamlet"/>
  </node>
  <node id="448741393" version="5" timestamp="2009-10-12T12:26:57Z" uid="131059" user="h4ck3rm1k3" changeset="2825425" lat="42.814167" lon="20.835556">
    <tag k="name" v="Jahirova Vodenica"/>
    <tag k="name:sr" v="Jahirova Vodenica"/>
    <tag k="name_full_nd" v="Jahirova Vodenica"/>
    <tag k="name_full_nd:sr" v="Jahirova Vodenica"/>
    <tag k="name_generic" v="Vodenica"/>
    <tag k="name_generic:sr" v="Vodenica"/>
    <tag k="name_sort" v="JAHIROVAVODENICA"/>
    <tag k="name_sort:sr" v="JAHIROVAVODENICA"/>
    <tag k="place" v="hamlet"/>
  </node>
  <node id="448741398" version="5" timestamp="2009-08-25T09:18:10Z" uid="18775" user="drlizau" changeset="2254105" lat="42.783056" lon="20.851111">
    <tag k="el" v=""/>
    <tag k="geonameid" v="788548"/>
    <tag k="gnadmin" v="00"/>
    <tag k="gnadmin2" v="Kosovo"/>
    <tag k="gnfeature" v="T"/>
    <tag k="gnfeaturec" v="MT"/>
    <tag k="name" v="Kodra Ljubovac"/>
    <tag k="name2" v="Kodra Ljubovac"/>
    <tag k="name:sr" v="Kodra Ljubovac"/>
    <tag k="name_full_nd" v="Kodra Ljubovac"/>
    <tag k="name_full_nd:sr" v="Kodra Ljubovac"/>
    <tag k="name_generic" v="Kodra"/>
    <tag k="name_generic:sr" v="Kodra"/>
    <tag k="name_short:sr" v=""/>
    <tag k="name_sort" v="KODRALJUBOVAC"/>
    <tag k="name_sort:sr" v="KODRALJUBOVAC"/>
    <tag k="natural" v="peak"/>
  </node>
  <node id="448741398" version="6" timestamp="2009-09-21T09:07:06Z" uid="70696" user="xybot" changeset="2554880" lat="42.783056" lon="20.851111">
    <tag k="geonameid" v="788548"/>
    <tag k="gnadmin" v="00"/>
    <tag k="gnadmin2" v="Kosovo"/>
    <tag k="gnfeature" v="T"/>
    <tag k="gnfeaturec" v="MT"/>
    <tag k="name" v="Kodra Ljubovac"/>
    <tag k="name2" v="Kodra Ljubovac"/>
    <tag k="name:sr" v="Kodra Ljubovac"/>
    <tag k="name_full_nd" v="Kodra Ljubovac"/>
    <tag k="name_full_nd:sr" v="Kodra Ljubovac"/>
    <tag k="name_generic" v="Kodra"/>
    <tag k="name_generic:sr" v="Kodra"/>
    <tag k="name_sort" v="KODRALJUBOVAC"/>
    <tag k="name_sort:sr" v="KODRALJUBOVAC"/>
    <tag k="natural" v="peak"/>
  </node>
  <node id="448741408" version="3" timestamp="2009-08-25T09:18:24Z" uid="18775" user="drlizau" changeset="2254105" lat="42.689167" lon="20.917778">
    <tag k="name" v="Gladno"/>
    <tag k="name:sr" v="Makreš"/>
    <tag k="name_full_nd" v="Gladno"/>
    <tag k="name_full_nd:sr" v="Makreš"/>
    <tag k="name_sort" v="GLADNO"/>
    <tag k="name_sort:sr" v="MAKRES"/>
    <tag k="place" v="hamlet"/>
  </node>
  <node id="448741411" version="3" timestamp="2009-08-25T09:18:09Z" uid="18775" user="drlizau" changeset="2254105" lat="42.684167" lon="20.951944">
    <tag k="el" v=""/>
    <tag k="name" v="Podi Godancit"/>
    <tag k="name:sr" v="Podi Godancit"/>
    <tag k="name_full_nd" v="Podi Godancit"/>
    <tag k="name_full_nd:sr" v="Podi Godancit"/>
    <tag k="name_generic:sr" v=""/>
    <tag k="name_short:sr" v=""/>
    <tag k="name_sort" v="PODIGODANCIT"/>
    <tag k="name_sort:sr" v="PODIGODANCIT"/>
    <tag k="place" v="hamlet"/>
  </node>
  <node id="448741411" version="4" timestamp="2009-09-21T09:07:06Z" uid="70696" user="xybot" changeset="2554880" lat="42.684167" lon="20.951944">
    <tag k="name" v="Podi Godancit"/>
    <tag k="name:sr" v="Podi Godancit"/>
    <tag k="name_full_nd" v="Podi Godancit"/>
    <tag k="name_full_nd:sr" v="Podi Godancit"/>
    <tag k="name_sort" v="PODIGODANCIT"/>
    <tag k="name_sort:sr" v="PODIGODANCIT"/>
    <tag k="place" v="hamlet"/>
  </node>
  <node id="448741411" version="5" timestamp="2009-10-12T12:27:28Z" uid="131059" user="h4ck3rm1k3" changeset="2825425" lat="42.684167" lon="20.951944">
    <tag k="name" v="Podi Godancit"/>
    <tag k="name:sr" v="Podi Godancit"/>
    <tag k="name_full_nd" v="Podi Godancit"/>
    <tag k="name_full_nd:sr" v="Podi Godancit"/>
    <tag k="name_sort" v="PODIGODANCIT"/>
    <tag k="name_sort:sr" v="PODIGODANCIT"/>
    <tag k="place" v="hamlet"/>
  </node>
  <node id="448741413" version="2" timestamp="2009-08-25T09:18:24Z" uid="18775" user="drlizau" changeset="2254105" lat="42.781111" lon="20.909444">
    <tag k="elevation" v=""/>
    <tag k="name" v="Suvo Brdo"/>
    <tag k="name_full_nd" v="Suvo Brdo"/>
    <tag k="name_generic" v="Brdo"/>
    <tag k="name_short" v=""/>
    <tag k="name_sort" v="SUVOBRDO"/>
    <tag k="place" v="hamlet"/>
  </node>
  <node id="448741442" version="3" timestamp="2009-08-25T09:18:10Z" uid="18775" user="drlizau" changeset="2254105" lat="42.840556" lon="21.019167">
    <tag k="el" v=""/>
    <tag k="name" v="Stražba"/>
    <tag k="name:sr" v="Stražba"/>
    <tag k="name_full_nd" v="Stražba"/>
    <tag k="name_full_nd:sr" v="Stražba"/>
    <tag k="name_generic:sr" v=""/>
    <tag k="name_short:sr" v=""/>
    <tag k="name_sort" v="STRAZBA"/>
    <tag k="name_sort:sr" v="STRAZBA"/>
    <tag k="place" v="hamlet"/>
  </node>
  <node id="448741442" version="4" timestamp="2009-09-11T07:38:08Z" uid="131059" user="h4ck3rm1k3" changeset="2443721" lat="42.840556" lon="21.019167">
    <tag k="el" v=""/>
    <tag k="geonameid" v="832830"/>
    <tag k="gnadmin" v="00"/>
    <tag k="gnfeature" v="T"/>
    <tag k="gnfeaturec" v="HLL"/>
    <tag k="name" v="Strazba"/>
    <tag k="name2" v="Stražba"/>
    <tag k="name:sr" v="Stražba"/>
    <tag k="name_full_nd" v="Stražba"/>
    <tag k="name_full_nd:sr" v="Stražba"/>
    <tag k="name_generic:sr" v=""/>
    <tag k="name_short:sr" v=""/>
    <tag k="name_sort" v="STRAZBA"/>
    <tag k="name_sort:sr" v="STRAZBA"/>
    <tag k="natural" v="peak"/>
  </node>
  <node id="448741442" version="5" timestamp="2009-09-21T09:07:07Z" uid="70696" user="xybot" changeset="2554880" lat="42.840556" lon="21.019167">
    <tag k="geonameid" v="832830"/>
    <tag k="gnadmin" v="00"/>
    <tag k="gnfeature" v="T"/>
    <tag k="gnfeaturec" v="HLL"/>
    <tag k="name" v="Strazba"/>
    <tag k="name2" v="Stražba"/>
    <tag k="name:sr" v="Stražba"/>
    <tag k="name_full_nd" v="Stražba"/>
    <tag k="name_full_nd:sr" v="Stražba"/>
    <tag k="name_sort" v="STRAZBA"/>
    <tag k="name_sort:sr" v="STRAZBA"/>
    <tag k="natural" v="peak"/>
  </node>
  <node id="448741456" version="3" timestamp="2009-08-25T09:07:06Z" uid="18775" user="drlizau" changeset="2254017" lat="42.770556" lon="20.886111">
    <tag k="el" v=""/>
    <tag k="name" v="Kuka"/>
    <tag k="name:sr" v="Kuka"/>
    <tag k="name_full_nd" v="Kuka"/>
    <tag k="name_full_nd:sr" v="Kuka"/>
    <tag k="name_generic:sr" v=""/>
    <tag k="name_short:sr" v=""/>
    <tag k="name_sort" v="KUKA"/>
    <tag k="name_sort:sr" v="KUKA"/>
    <tag k="place" v="hamlet"/>
  </node>
  <node id="448741456" version="4" timestamp="2009-09-11T07:38:08Z" uid="131059" user="h4ck3rm1k3" changeset="2443721" lat="42.770556" lon="20.886111">
    <tag k="el" v=""/>
    <tag k="geonameid" v="831923"/>
    <tag k="gnadmin" v="00"/>
    <tag k="gnadmin2" v="Kosovo"/>
    <tag k="gnfeature" v="T"/>
    <tag k="gnfeaturec" v="MT"/>
    <tag k="name" v="Kuka"/>
    <tag k="name2" v="Kuka"/>
    <tag k="name:sr" v="Kuka"/>
    <tag k="name_full_nd" v="Kuka"/>
    <tag k="name_full_nd:sr" v="Kuka"/>
    <tag k="name_generic:sr" v=""/>
    <tag k="name_short:sr" v=""/>
    <tag k="name_sort" v="KUKA"/>
    <tag k="name_sort:sr" v="KUKA"/>
    <tag k="natural" v="peak"/>
    <tag k="place" v="hamlet"/>
  </node>
  <node id="448741456" version="5" timestamp="2009-09-21T09:07:08Z" uid="70696" user="xybot" changeset="2554880" lat="42.770556" lon="20.886111">
    <tag k="geonameid" v="831923"/>
    <tag k="gnadmin" v="00"/>
    <tag k="gnadmin2" v="Kosovo"/>
    <tag k="gnfeature" v="T"/>
    <tag k="gnfeaturec" v="MT"/>
    <tag k="name" v="Kuka"/>
    <tag k="name2" v="Kuka"/>
    <tag k="name:sr" v="Kuka"/>
    <tag k="name_full_nd" v="Kuka"/>
    <tag k="name_full_nd:sr" v="Kuka"/>
    <tag k="name_sort" v="KUKA"/>
    <tag k="name_sort:sr" v="KUKA"/>
    <tag k="natural" v="peak"/>
    <tag k="place" v="hamlet"/>
  </node>
  <node id="448741456" version="6" timestamp="2011-03-03T14:54:29Z" uid="135011" user="meti" changeset="7445757" lat="42.770556" lon="20.886111">
    <tag k="geonameid" v="831923"/>
    <tag k="gnadmin" v="00"/>
    <tag k="gnadmin2" v="Kosovo"/>
    <tag k="gnfeature" v="T"/>
    <tag k="gnfeaturec" v="MT"/>
    <tag k="is_in:country" v="Kosovo"/>
    <tag k="name" v="Kuka"/>
    <tag k="name2" v="Kuka"/>
    <tag k="name:sr" v="Kuka"/>
    <tag k="name_full_nd" v="Kuka"/>
    <tag k="name_full_nd:sr" v="Kuka"/>
    <tag k="name_sort" v="KUKA"/>
    <tag k="name_sort:sr" v="KUKA"/>
    <tag k="natural" v="peak"/>
    <tag k="place" v="hamlet"/>
  </node>
  <node id="448741146" version="5" timestamp="2012-07-20T21:22:29Z" uid="722137" user="OSMF Redaction Account" changeset="12392710" lat="42.925278" lon="20.851944"/>
  <node id="448741254" version="7" timestamp="2012-04-08T17:13:14Z" uid="500313" user="Pedja" changeset="11227995" lat="43.0497375" lon="20.8037668">
    <tag k="geonameid" v="830991"/>
    <tag k="gnadmin" v="00"/>
    <tag k="gnadmin2" v="Kosovo"/>
    <tag k="gnfeature" v="H"/>
    <tag k="gnfeaturec" v="STM"/>
    <tag k="name" v="Гркајска река"/>
    <tag k="name2" v="Grkajska Reka"/>
    <tag k="name_full_nd" v="Grkajska Reka"/>
    <tag k="name_full_nd:sr" v="Grkajska Reka"/>
    <tag k="name_generic" v="Reka"/>
    <tag k="name_generic:sr" v="Reka"/>
    <tag k="name_sort" v="GRKAJSKAREKA"/>
    <tag k="name_sort:sr" v="GRKAJSKAREKA"/>
    <tag k="name:sr" v="Гркајска река"/>
    <tag k="name:sr-Latn" v="Grkajska reka"/>
    <tag k="natural" v="spring"/>
  </node>
  <node id="448741254" version="8" timestamp="2012-07-20T17:31:39Z" uid="722137" user="OSMF Redaction Account" changeset="12385329" lat="43.0497375" lon="20.8037668">
    <tag k="name" v="Гркајска река"/>
    <tag k="name:sr" v="Гркајска река"/>
    <tag k="name:sr-Latn" v="Grkajska reka"/>
  </node>
  <node id="448741354" version="8" timestamp="2012-07-20T22:12:20Z" uid="722137" user="OSMF Redaction Account" changeset="12394377" lat="42.820556" lon="20.838611"/>
  <node id="448741398" version="7" timestamp="2012-07-20T22:09:39Z" uid="722137" user="OSMF Redaction Account" changeset="12394305" lat="42.783056" lon="20.851111"/>
  <node id="448741442" version="6" timestamp="2012-07-20T12:32:36Z" uid="722137" user="OSMF Redaction Account" changeset="12376128" lat="42.840556" lon="21.019167"/>
  <node id="448741456" version="7" timestamp="2012-07-20T20:58:13Z" uid="722137" user="OSMF Redaction Account" changeset="12391439" lat="42.770556" lon="20.886111"/>
</osm>
