<?xml version='1.0' encoding='UTF-8'?>
<osm version="0.6" generator="libosmium/2.20.0">
  <node id="448706435" version="2" timestamp="2009-08-25T09:36:01Z" uid="18775" user="drlizau" changeset="2254250" lat="42.74" lon="21.120556">
    <tag k="name" v="Prugovac"/>
    <tag k="name_full_nd" v="Prugovac"/>
    <tag k="name_generic" v=""/>
    <tag k="name_short" v=""/>
    <tag k="name_sort" v="PRUGOVAC"/>
    <tag k="place" v="hamlet"/>
  </node>
  <node id="448706435" version="3" timestamp="2009-09-21T08:30:32Z" uid="70696" user="xybot" changeset="2554880" lat="42.74" lon="21.120556">
    <tag k="name" v="Prugovac"/>
    <tag k="name_full_nd" v="Prugovac"/>
    <tag k="name_sort" v="PRUGOVAC"/>
    <tag k="place" v="hamlet"/>
  </node>
  <node id="448706435" version="4" timestamp="2009-09-23T11:44:24Z" uid="131059" user="h4ck3rm1k3" changeset="2594575" lat="42.74" lon="21.120556">
    <tag k="name" v="Prugoc"/>
    <tag k="name:old" v="Prugovne"/>
    <tag k="name:sq" v="Prugoc"/>
    <tag k="name:sr" v="Prugovac"/>
    <tag k="name_full_nd" v="Prugovne"/>
    <tag k="name_full_nd:sq" v="Prugoc"/>
    <tag k="name_full_nd:sr" v="Prugovac"/>
    <tag k="name_sort" v="PRUGOVNE"/>
    <tag k="name_sort:sq" v="PRUGOC"/>
    <tag k="name_sort:sr" v="PRUGOVAC"/>
    <tag k="place" v="hamlet"/>
  </node>
  <node id="448706435" version="5" timestamp="2009-10-12T12:29:24Z" uid="131059" user="h4ck3rm1k3" changeset="2825425" lat="42.74" lon="21.120556">
    <tag k="name" v="Prugoc"/>
    <tag k="name:old" v="Prugovne"/>
    <tag k="name:sq" v="Prugoc"/>
    <tag k="name:sr" v="Prugovac"/>
    <tag k="name_full_nd" v="Prugovne"/>
    <tag k="name_full_nd:sq" v="Prugoc"/>
    <tag k="name_full_nd:sr" v="Prugovac"/>
    <tag k="name_sort" v="PRUGOVNE"/>
    <tag k="name_sort:sq" v="PRUGOC"/>
    <tag k="name_sort:sr" v="PRUGOVAC"/>
    <tag k="place" v="hamlet"/>
  </node>
  <node id="448706499" version="4" timestamp="2009-08-25T09:18:32Z" uid="18775" user="drlizau" changeset="2254105" lat="42.870556" lon="20.922222">
    <tag k="altname" v="Kciq i Madh,Kçiq i Madh,Velike Kicice,Velike Kičiće,Veliko Kicice,Veliko Kičiće"/>
    <tag k="geonameid" v="784580"/>
    <tag k="gnadmin" v="00"/>
    <tag k="gnadmin2" v="Kosovo"/>
    <tag k="gnfeature" v="P"/>
    <tag k="gnfeaturec" v="PPL"/>
    <tag k="name" v="Kçiq i Madhm"/>
    <tag k="name2" v="Veliki Kičić"/>
    <tag k="name_full_nd" v="Kçiq i Madh"/>
    <tag k="name_sort" v="KCIQIIMADH"/>
    <tag k="place" v="village"/>
    <tag k="pop" v="0"/>
  </node>
  <node id="448706514" version="7" timestamp="2009-08-25T09:18:05Z" uid="18775" user="drlizau" changeset="2254105" lat="42.686944" lon="21.066944">
    <tag k="geonameid" v="832777"/>
    <tag k="gnadmin" v="00"/>
    <tag k="gnadmin2" v="Kosovo"/>
    <tag k="gnfeature" v="S"/>
    <tag k="gnfeaturec" v="RSTN"/>
    <tag k="name" v="Stanica Obilic"/>
    <tag k="name2" v="Stanica Obilić"/>
    <tag k="name:sr" v="Stanica Obilić"/>
    <tag k="name_full_nd" v="Stanica Obilić"/>
    <tag k="name_full_nd:sr" v="Stanica Obilić"/>
    <tag k="name_generic" v="Stanica"/>
    <tag k="name_generic:sr" v="Stanica"/>
    <tag k="name_sort" v="STANICAOBILIC"/>
    <tag k="name_sort:sr" v="STANICAOBILIC"/>
    <tag k="railway" v="station"/>
  </node>
  <node id="448706514" version="8" timestamp="2009-08-28T13:06:30Z" uid="9176" user="Maarten Deen" changeset="2289959" lat="42.686944" lon="21.0667106">
    <tag k="geonameid" v="832777"/>
    <tag k="gnadmin" v="00"/>
    <tag k="gnadmin2" v="Kosovo"/>
    <tag k="gnfeature" v="S"/>
    <tag k="gnfeaturec" v="RSTN"/>
    <tag k="name" v="Stanica Obilic"/>
    <tag k="name2" v="Stanica Obilić"/>
    <tag k="name:sr" v="Stanica Obilić"/>
    <tag k="name_full_nd" v="Stanica Obilić"/>
    <tag k="name_full_nd:sr" v="Stanica Obilić"/>
    <tag k="name_generic" v="Stanica"/>
    <tag k="name_generic:sr" v="Stanica"/>
    <tag k="name_sort" v="STANICAOBILIC"/>
    <tag k="name_sort:sr" v="STANICAOBILIC"/>
    <tag k="railway" v="station"/>
  </node>
  <node id="448706514" version="9" timestamp="2009-08-29T11:54:05Z" uid="9176" user="Maarten Deen" changeset="2300549" lat="42.6868902" lon="21.0665398">
    <tag k="geonameid" v="832777"/>
    <tag k="gnadmin" v="00"/>
    <tag k="gnadmin2" v="Kosovo"/>
    <tag k="gnfeature" v="S"/>
    <tag k="gnfeaturec" v="RSTN"/>
    <tag k="name" v="Stanica Obilic"/>
    <tag k="name2" v="Stanica Obilić"/>
    <tag k="name:sr" v="Stanica Obilić"/>
    <tag k="name_full_nd" v="Stanica Obilić"/>
    <tag k="name_full_nd:sr" v="Stanica Obilić"/>
    <tag k="name_generic" v="Stanica"/>
    <tag k="name_generic:sr" v="Stanica"/>
    <tag k="name_sort" v="STANICAOBILIC"/>
    <tag k="name_sort:sr" v="STANICAOBILIC"/>
    <tag k="railway" v="station"/>
  </node>
  <node id="448706514" version="10" timestamp="2009-08-29T15:34:38Z" uid="9176" user="Maarten Deen" changeset="2302994" lat="42.6868902" lon="21.0665398">
    <tag k="geonameid" v="832777"/>
    <tag k="gnadmin" v="00"/>
    <tag k="gnadmin2" v="Kosovo"/>
    <tag k="gnfeature" v="S"/>
    <tag k="gnfeaturec" v="RSTN"/>
    <tag k="name" v="Obiliç"/>
    <tag k="name2" v="Stanica Obilić"/>
    <tag k="name:sr" v="Stanica Obilić"/>
    <tag k="name_full_nd" v="Stanica Obilić"/>
    <tag k="name_full_nd:sr" v="Stanica Obilić"/>
    <tag k="name_generic" v="Stanica"/>
    <tag k="name_generic:sr" v="Stanica"/>
    <tag k="name_sort" v="STANICAOBILIC"/>
    <tag k="name_sort:sr" v="STANICAOBILIC"/>
    <tag k="railway" v="station"/>
  </node>
  <node id="448706514" version="11" timestamp="2010-02-01T19:37:23Z" uid="39504" user="malenki" changeset="3770258" lat="42.6868902" lon="21.0665398">
    <tag k="gnadmin" v="00"/>
    <tag k="gnadmin2" v="Kosovo"/>
    <tag k="gnfeature" v="S"/>
    <tag k="gnfeaturec" v="RSTN"/>
    <tag k="name" v="Obiliç"/>
    <tag k="name2" v="Stanica Obilić"/>
    <tag k="name:sr" v="Stanica Obilić"/>
    <tag k="name_full_nd" v="Stanica Obilić"/>
    <tag k="name_full_nd:sr" v="Stanica Obilić"/>
    <tag k="name_generic" v="Stanica"/>
    <tag k="name_generic:sr" v="Stanica"/>
    <tag k="name_sort" v="STANICAOBILIC"/>
    <tag k="name_sort:sr" v="STANICAOBILIC"/>
    <tag k="railway" v="station"/>
  </node>
  <node id="448706514" version="12" timestamp="2010-02-20T07:36:10Z" uid="131059" user="h4ck3rm1k3" changeset="3920933" lat="42.6868902" lon="21.0665398">
    <tag k="gns:gnadmin" v="00"/>
    <tag k="gns:gnadmin2" v="Kosovo"/>
    <tag k="gns:gnfeature" v="S"/>
    <tag k="gns:gnfeaturec" v="RSTN"/>
    <tag k="name" v="Obiliç"/>
    <tag k="name:alt" v="Stanica Obilić"/>
    <tag k="name:sr" v="Stanica Obilić"/>
    <tag k="name_full_nd" v="Stanica Obilić"/>
    <tag k="name_full_nd:sr" v="Stanica Obilić"/>
    <tag k="name_generic" v="Stanica"/>
    <tag k="name_generic:sr" v="Stanica"/>
    <tag k="name_sort" v="STANICAOBILIC"/>
    <tag k="name_sort:sr" v="STANICAOBILIC"/>
    <tag k="railway" v="station"/>
  </node>
  <node id="448706514" version="13" timestamp="2012-02-15T19:08:56Z" uid="527441" user="dromedar" changeset="10695342" lat="42.6868902" lon="21.0665398">
    <tag k="gns:gnadmin" v="00"/>
    <tag k="gns:gnadmin2" v="Kosovo"/>
    <tag k="gns:gnfeature" v="S"/>
    <tag k="gns:gnfeaturec" v="RSTN"/>
    <tag k="name" v="Obiliq"/>
    <tag k="name:alt" v="Stanica Obilić"/>
    <tag k="name:sr" v="Stanica Obilić"/>
    <tag k="name_full_nd" v="Stanica Obilić"/>
    <tag k="name_full_nd:sr" v="Stanica Obilić"/>
    <tag k="name_generic" v="Stanica"/>
    <tag k="name_generic:sr" v="Stanica"/>
    <tag k="name_sort" v="STANICAOBILIC"/>
    <tag k="name_sort:sr" v="STANICAOBILIC"/>
    <tag k="railway" v="station"/>
  </node>
  <node id="448706554" version="2" timestamp="2009-08-25T09:36:01Z" uid="18775" user="drlizau" changeset="2254250" lat="42.827222" lon="20.814722">
    <tag k="name" v="Gradevci"/>
    <tag k="name_full_nd" v="Gradevci"/>
    <tag k="name_generic" v=""/>
    <tag k="name_short" v=""/>
    <tag k="name_sort" v="GRADEVCI"/>
    <tag k="place" v="hamlet"/>
  </node>
  <node id="448706554" version="3" timestamp="2009-09-21T08:31:03Z" uid="70696" user="xybot" changeset="2554880" lat="42.827222" lon="20.814722">
    <tag k="name" v="Gradevci"/>
    <tag k="name_full_nd" v="Gradevci"/>
    <tag k="name_sort" v="GRADEVCI"/>
    <tag k="place" v="hamlet"/>
  </node>
  <node id="448706554" version="4" timestamp="2009-10-12T12:28:16Z" uid="131059" user="h4ck3rm1k3" changeset="2825425" lat="42.827222" lon="20.814722">
    <tag k="name" v="Gradevci"/>
    <tag k="name_full_nd" v="Gradevci"/>
    <tag k="name_sort" v="GRADEVCI"/>
    <tag k="place" v="hamlet"/>
  </node>
  <node id="448706617" version="2" timestamp="2009-08-25T09:36:54Z" uid="18775" user="drlizau" changeset="2254250" lat="42.863889" lon="20.831667">
    <tag k="name" v="Горње Жабаре"/>
    <tag k="name_full_nd" v="Горње Жабаре"/>
    <tag k="name_generic" v=""/>
    <tag k="name_short" v=""/>
    <tag k="name_sort" v="ГОРЊЕЖАБАРЕ"/>
    <tag k="place" v="hamlet"/>
  </node>
  <node id="448706617" version="3" timestamp="2009-09-21T08:31:14Z" uid="70696" user="xybot" changeset="2554880" lat="42.863889" lon="20.831667">
    <tag k="name" v="Горње Жабаре"/>
    <tag k="name_full_nd" v="Горње Жабаре"/>
    <tag k="name_sort" v="ГОРЊЕЖАБАРЕ"/>
    <tag k="place" v="hamlet"/>
  </node>
  <node id="448706617" version="4" timestamp="2009-10-12T12:26:48Z" uid="131059" user="h4ck3rm1k3" changeset="2825425" lat="42.863889" lon="20.831667">
    <tag k="name" v="Горње Жабаре"/>
    <tag k="name_full_nd" v="Горње Жабаре"/>
    <tag k="name_sort" v="ГОРЊЕЖАБАРЕ"/>
    <tag k="place" v="hamlet"/>
  </node>
  <node id="448706635" version="2" timestamp="2009-08-25T09:36:52Z" uid="18775" user="drlizau" changeset="2254250" lat="42.9" lon="21.2">
    <tag k="name" v="Општина Подујево"/>
    <tag k="name_full_nd" v="Општина Подујево"/>
    <tag k="name_generic" v="Општина"/>
    <tag k="name_short" v="Подујево"/>
    <tag k="name_sort" v="ОПШТИНАПОДУЈЕВО"/>
    <tag k="place" v="hamlet"/>
  </node>
  <node id="448706635" version="3" timestamp="2009-09-23T11:37:15Z" uid="131059" user="h4ck3rm1k3" changeset="2594469" lat="42.9" lon="21.2">
    <tag k="name" v="Komuna e Podujevës"/>
    <tag k="name:old" v="Podujevo"/>
    <tag k="name:sq" v="Komuna e Podujevës"/>
    <tag k="name:sr" v="Opština Podujevo"/>
    <tag k="name_full_nd" v="Podujevo"/>
    <tag k="name_full_nd:sq" v="Komuna e Podujevës"/>
    <tag k="name_full_nd:sr" v="Opština Podujevo"/>
    <tag k="name_generic" v="Општина"/>
    <tag k="name_generic:sq" v="Komuna"/>
    <tag k="name_generic:sr" v="Opština"/>
    <tag k="name_short" v="Подујево"/>
    <tag k="name_short:sq" v="Podujevë"/>
    <tag k="name_short:sr" v="Podujevo"/>
    <tag k="name_sort" v="PODUJEVO"/>
    <tag k="name_sort:sq" v="KOMUNAEPODUJEVES"/>
    <tag k="name_sort:sr" v="OPSTINAPODUJEVO"/>
    <tag k="place" v="hamlet"/>
  </node>
  <node id="448706635" version="4" timestamp="2009-09-23T11:37:53Z" uid="131059" user="h4ck3rm1k3" changeset="2594477" lat="42.9" lon="21.2">
    <tag k="name" v="Komuna e Podujevës"/>
    <tag k="name:old" v="Podujevo"/>
    <tag k="name:sq" v="Komuna e Podujevës"/>
    <tag k="name:sr" v="Opština Podujevo"/>
    <tag k="name_full_nd" v="Podujevo"/>
    <tag k="name_full_nd:sq" v="Komuna e Podujevës"/>
    <tag k="name_full_nd:sr" v="Opština Podujevo"/>
    <tag k="name_generic" v="Општина"/>
    <tag k="name_generic:sq" v="Komuna"/>
    <tag k="name_generic:sr" v="Opština"/>
    <tag k="name_short" v="Подујево"/>
    <tag k="name_short:sq" v="Podujevë"/>
    <tag k="name_short:sr" v="Podujevo"/>
    <tag k="name_sort" v="PODUJEVO"/>
    <tag k="name_sort:sq" v="KOMUNAEPODUJEVES"/>
    <tag k="name_sort:sr" v="OPSTINAPODUJEVO"/>
    <tag k="place" v="hamlet"/>
  </node>
  <node id="448706635" version="5" timestamp="2009-10-12T12:27:00Z" uid="131059" user="h4ck3rm1k3" changeset="2825425" lat="42.9" lon="21.2">
    <tag k="name" v="Komuna e Podujevës"/>
    <tag k="name:old" v="Podujevo"/>
    <tag k="name:sq" v="Komuna e Podujevës"/>
    <tag k="name:sr" v="Opština Podujevo"/>
    <tag k="name_full_nd" v="Podujevo"/>
    <tag k="name_full_nd:sq" v="Komuna e Podujevës"/>
    <tag k="name_full_nd:sr" v="Opština Podujevo"/>
    <tag k="name_generic" v="Општина"/>
    <tag k="name_generic:sq" v="Komuna"/>
    <tag k="name_generic:sr" v="Opština"/>
    <tag k="name_short" v="Подујево"/>
    <tag k="name_short:sq" v="Podujevë"/>
    <tag k="name_short:sr" v="Podujevo"/>
    <tag k="name_sort" v="PODUJEVO"/>
    <tag k="name_sort:sq" v="KOMUNAEPODUJEVES"/>
    <tag k="name_sort:sr" v="OPSTINAPODUJEVO"/>
    <tag k="place" v="hamlet"/>
  </node>
  <node id="448706637" version="2" timestamp="2009-08-25T09:36:52Z" uid="18775" user="drlizau" changeset="2254250" lat="42.9" lon="21.2">
    <tag k="name" v="Podujevës"/>
    <tag k="name_full_nd" v="Podujevës"/>
    <tag k="name_generic" v=""/>
    <tag k="name_short" v=""/>
    <tag k="name_sort" v="PODUJEVES"/>
    <tag k="place" v="hamlet"/>
  </node>
  <node id="448706637" version="3" timestamp="2009-09-21T08:31:16Z" uid="70696" user="xybot" changeset="2554880" lat="42.9" lon="21.2">
    <tag k="name" v="Podujevës"/>
    <tag k="name_full_nd" v="Podujevës"/>
    <tag k="name_sort" v="PODUJEVES"/>
    <tag k="place" v="hamlet"/>
  </node>
  <node id="448706637" version="4" timestamp="2011-03-03T14:54:15Z" uid="135011" user="meti" changeset="7445757" lat="42.9" lon="21.2">
    <tag k="is_in:country" v="Kosovo"/>
    <tag k="name" v="Podujevës"/>
    <tag k="name_full_nd" v="Podujevës"/>
    <tag k="name_sort" v="PODUJEVES"/>
    <tag k="place" v="hamlet"/>
  </node>
  <node id="448706637" version="5" timestamp="2012-03-25T08:52:19Z" uid="500313" user="Pedja" changeset="11092501" lat="42.9" lon="21.2">
    <tag k="is_in:country" v="Serbia"/>
    <tag k="name" v="Подујево"/>
    <tag k="name:sq" v="Podujevës"/>
    <tag k="name:sr" v="Подујево"/>
    <tag k="name_full_nd" v="Подујево"/>
    <tag k="name_sort" v="PODUJEVO"/>
    <tag k="place" v="hamlet"/>
  </node>
  <node id="448706638" version="2" timestamp="2009-08-25T09:36:52Z" uid="18775" user="drlizau" changeset="2254250" lat="42.9" lon="21.2">
    <tag k="name" v="Podujevë"/>
    <tag k="name_full_nd" v="Podujevë"/>
    <tag k="name_generic" v=""/>
    <tag k="name_short" v=""/>
    <tag k="name_sort" v="PODUJEVE"/>
    <tag k="place" v="hamlet"/>
  </node>
  <node id="448706638" version="3" timestamp="2009-09-21T08:31:17Z" uid="70696" user="xybot" changeset="2554880" lat="42.9" lon="21.2">
    <tag k="name" v="Podujevë"/>
    <tag k="name_full_nd" v="Podujevë"/>
    <tag k="name_sort" v="PODUJEVE"/>
    <tag k="place" v="hamlet"/>
  </node>
  <node id="448706638" version="4" timestamp="2009-10-12T12:27:00Z" uid="131059" user="h4ck3rm1k3" changeset="2825425" lat="42.9" lon="21.2">
    <tag k="name" v="Podujevë"/>
    <tag k="name_full_nd" v="Podujevë"/>
    <tag k="name_sort" v="PODUJEVE"/>
    <tag k="place" v="hamlet"/>
  </node>
  <node id="448706640" version="4" timestamp="2009-08-25T09:18:19Z" uid="18775" user="drlizau" changeset="2254105" lat="42.851111" lon="20.889722">
    <tag k="altname" v="Frasher,Frashër"/>
    <tag k="geonameid" v="785180"/>
    <tag k="gnadmin" v="00"/>
    <tag k="gnadmin2" v="Kosovo"/>
    <tag k="gnfeature" v="P"/>
    <tag k="gnfeaturec" v="PPL"/>
    <tag k="name" v="Frashër"/>
    <tag k="name2" v="Svinjare"/>
    <tag k="name_full_nd" v="Frashër"/>
    <tag k="name_sort" v="FRASHER"/>
    <tag k="place" v="village"/>
    <tag k="pop" v="0"/>
  </node>
  <node id="448706663" version="7" timestamp="2009-08-25T09:18:11Z" uid="18775" user="drlizau" changeset="2254105" lat="42.672778" lon="21.076389">
    <tag k="geonameid" v="832775"/>
    <tag k="gnadmin" v="00"/>
    <tag k="gnadmin2" v="Kosovo"/>
    <tag k="gnfeature" v="S"/>
    <tag k="gnfeaturec" v="RSTN"/>
    <tag k="name" v="Stanica Dobro Selo"/>
    <tag k="name2" v="Stanica Dobro Selo"/>
    <tag k="name:sr" v="Stanica Dobro Selo"/>
    <tag k="name_full_nd" v="Stanica Dobro Selo"/>
    <tag k="name_full_nd:sr" v="Stanica Dobro Selo"/>
    <tag k="name_generic" v="Stanica"/>
    <tag k="name_generic:sr" v="Stanica"/>
    <tag k="name_sort" v="STANICADOBROSELO"/>
    <tag k="name_sort:sr" v="STANICADOBROSELO"/>
    <tag k="railway" v="station"/>
  </node>
  <node id="448706663" version="8" timestamp="2009-08-29T15:34:37Z" uid="9176" user="Maarten Deen" changeset="2302994" lat="42.672778" lon="21.076389">
    <tag k="geonameid" v="832775"/>
    <tag k="gnadmin" v="00"/>
    <tag k="gnadmin2" v="Kosovo"/>
    <tag k="gnfeature" v="S"/>
    <tag k="gnfeaturec" v="RSTN"/>
    <tag k="name" v="Dardhistë v.ç"/>
    <tag k="name2" v="Stanica Dobro Selo"/>
    <tag k="name:sr" v="Stanica Dobro Selo"/>
    <tag k="name_full_nd" v="Stanica Dobro Selo"/>
    <tag k="name_full_nd:sr" v="Stanica Dobro Selo"/>
    <tag k="name_generic" v="Stanica"/>
    <tag k="name_generic:sr" v="Stanica"/>
    <tag k="name_sort" v="STANICADOBROSELO"/>
    <tag k="name_sort:sr" v="STANICADOBROSELO"/>
    <tag k="railway" v="station"/>
  </node>
  <node id="448706663" version="9" timestamp="2010-02-20T07:36:09Z" uid="131059" user="h4ck3rm1k3" changeset="3920933" lat="42.672778" lon="21.076389">
    <tag k="geonameid" v="832775"/>
    <tag k="gns:gnadmin" v="00"/>
    <tag k="gns:gnadmin2" v="Kosovo"/>
    <tag k="gns:gnfeature" v="S"/>
    <tag k="gns:gnfeaturec" v="RSTN"/>
    <tag k="name" v="Dardhistë v.ç"/>
    <tag k="name:alt" v="Stanica Dobro Selo"/>
    <tag k="name:sr" v="Stanica Dobro Selo"/>
    <tag k="name_full_nd" v="Stanica Dobro Selo"/>
    <tag k="name_full_nd:sr" v="Stanica Dobro Selo"/>
    <tag k="name_generic" v="Stanica"/>
    <tag k="name_generic:sr" v="Stanica"/>
    <tag k="name_sort" v="STANICADOBROSELO"/>
    <tag k="name_sort:sr" v="STANICADOBROSELO"/>
    <tag k="railway" v="station"/>
  </node>
  <node id="448706665" version="2" timestamp="2009-08-25T09:36:53Z" uid="18775" user="drlizau" changeset="2254250" lat="42.913889" lon="20.9725">
    <tag k="name" v="Трстена"/>
    <tag k="name_full_nd" v="Трстена"/>
    <tag k="name_generic" v=""/>
    <tag k="name_short" v=""/>
    <tag k="name_sort" v="ТРСТЕНА"/>
    <tag k="place" v="hamlet"/>
  </node>
  <node id="448706665" version="3" timestamp="2009-09-21T08:31:25Z" uid="70696" user="xybot" changeset="2554880" lat="42.913889" lon="20.9725">
    <tag k="name" v="Трстена"/>
    <tag k="name_full_nd" v="Трстена"/>
    <tag k="name_sort" v="ТРСТЕНА"/>
    <tag k="place" v="hamlet"/>
  </node>
  <node id="448706665" version="4" timestamp="2009-09-23T11:35:04Z" uid="131059" user="h4ck3rm1k3" changeset="2594448" lat="42.913889" lon="20.9725">
    <tag k="name" v="Tërstenë"/>
    <tag k="name:old" v="Trstena"/>
    <tag k="name:sq" v="Tërstenë"/>
    <tag k="name:sr" v="Trstena"/>
    <tag k="name_full_nd" v="Trstena"/>
    <tag k="name_full_nd:sq" v="Tërstenë"/>
    <tag k="name_full_nd:sr" v="Trstena"/>
    <tag k="name_sort" v="TRSTENA"/>
    <tag k="name_sort:sq" v="TERSTENE"/>
    <tag k="name_sort:sr" v="TRSTENA"/>
    <tag k="place" v="hamlet"/>
  </node>
  <node id="448706665" version="5" timestamp="2009-10-12T12:26:58Z" uid="131059" user="h4ck3rm1k3" changeset="2825425" lat="42.913889" lon="20.9725">
    <tag k="name" v="Tërstenë"/>
    <tag k="name:old" v="Trstena"/>
    <tag k="name:sq" v="Tërstenë"/>
    <tag k="name:sr" v="Trstena"/>
    <tag k="name_full_nd" v="Trstena"/>
    <tag k="name_full_nd:sq" v="Tërstenë"/>
    <tag k="name_full_nd:sr" v="Trstena"/>
    <tag k="name_sort" v="TRSTENA"/>
    <tag k="name_sort:sq" v="TERSTENE"/>
    <tag k="name_sort:sr" v="TRSTENA"/>
    <tag k="place" v="hamlet"/>
  </node>
  <node id="448706666" version="2" timestamp="2009-08-25T09:36:53Z" uid="18775" user="drlizau" changeset="2254250" lat="42.9166667" lon="20.8833333">
    <tag k="name" v="Komuna e Mitrovicës"/>
    <tag k="name_full_nd" v="Komuna e Mitrovicës"/>
    <tag k="name_generic" v="Komuna"/>
    <tag k="name_short" v="Mitrovicë"/>
    <tag k="name_sort" v="KOMUNAEMITROVICES"/>
    <tag k="place" v="hamlet"/>
  </node>
  <node id="448706666" version="3" timestamp="2009-09-23T11:35:04Z" uid="131059" user="h4ck3rm1k3" changeset="2594448" lat="42.9166667" lon="20.8833333">
    <tag k="name" v="Komuna e Mitrovicës"/>
    <tag k="name:old" v="Митровица"/>
    <tag k="name:sq" v="Komuna e Mitrovicës"/>
    <tag k="name:sr" v="Opština Mitrovica"/>
    <tag k="name_full_nd" v="Митровица"/>
    <tag k="name_full_nd:sq" v="Komuna e Mitrovicës"/>
    <tag k="name_full_nd:sr" v="Opština Mitrovica"/>
    <tag k="name_generic" v="Komuna"/>
    <tag k="name_generic:sq" v="Komuna"/>
    <tag k="name_generic:sr" v="Opština"/>
    <tag k="name_short" v="Mitrovicë"/>
    <tag k="name_short:sq" v="Mitrovicë"/>
    <tag k="name_short:sr" v="Mitrovica"/>
    <tag k="name_sort" v="МИТРОВИЦА"/>
    <tag k="name_sort:sq" v="KOMUNAEMITROVICES"/>
    <tag k="name_sort:sr" v="OPSTINAMITROVICA"/>
    <tag k="place" v="hamlet"/>
  </node>
  <node id="448706666" version="4" timestamp="2011-03-03T14:48:55Z" uid="135011" user="meti" changeset="7445757" lat="42.9166667" lon="20.8833333">
    <tag k="is_in:country" v="Kosovo"/>
    <tag k="name" v="Komuna e Mitrovicës"/>
    <tag k="name:old" v="Митровица"/>
    <tag k="name:sq" v="Komuna e Mitrovicës"/>
    <tag k="name:sr" v="Opština Mitrovica"/>
    <tag k="name_full_nd" v="Митровица"/>
    <tag k="name_full_nd:sq" v="Komuna e Mitrovicës"/>
    <tag k="name_full_nd:sr" v="Opština Mitrovica"/>
    <tag k="name_generic" v="Komuna"/>
    <tag k="name_generic:sq" v="Komuna"/>
    <tag k="name_generic:sr" v="Opština"/>
    <tag k="name_short" v="Mitrovicë"/>
    <tag k="name_short:sq" v="Mitrovicë"/>
    <tag k="name_short:sr" v="Mitrovica"/>
    <tag k="name_sort" v="МИТРОВИЦА"/>
    <tag k="name_sort:sq" v="KOMUNAEMITROVICES"/>
    <tag k="name_sort:sr" v="OPSTINAMITROVICA"/>
    <tag k="place" v="hamlet"/>
  </node>
  <node id="448706666" version="5" timestamp="2011-03-04T12:35:09Z" uid="135011" user="meti" changeset="7454005" lat="42.9166667" lon="20.8833333">
    <tag k="is_in:country" v="Kosovo"/>
    <tag k="name" v="Komuna e Mitrovicës"/>
    <tag k="name:old" v="Митровица"/>
    <tag k="name:sq" v="Komuna e Mitrovicës"/>
    <tag k="name:sr" v="Opština Mitrovica"/>
    <tag k="name_full_nd" v="Митровица"/>
    <tag k="name_full_nd:sq" v="Komuna e Mitrovicës"/>
    <tag k="name_full_nd:sr" v="Opština Mitrovica"/>
    <tag k="name_generic" v="Komuna"/>
    <tag k="name_generic:sq" v="Komuna"/>
    <tag k="name_generic:sr" v="Opština"/>
    <tag k="name_short" v="Mitrovicë"/>
    <tag k="name_short:sq" v="Mitrovicë"/>
    <tag k="name_short:sr" v="Mitrovica"/>
    <tag k="name_sort" v="МИТРОВИЦА"/>
    <tag k="name_sort:sq" v="KOMUNAEMITROVICES"/>
    <tag k="name_sort:sr" v="OPSTINAMITROVICA"/>
    <tag k="place" v="hamlet"/>
  </node>
  <node id="448706682" version="2" timestamp="2009-08-25T09:36:53Z" uid="18775" user="drlizau" changeset="2254250" lat="42.871389" lon="20.841111">
    <tag k="name" v="Zhabari i Ultë"/>
    <tag k="name_full_nd" v="Zhabari i Ultë"/>
    <tag k="name_generic" v=""/>
    <tag k="name_short" v=""/>
    <tag k="name_sort" v="ZHABARIIULTE"/>
    <tag k="place" v="hamlet"/>
  </node>
  <node id="448706682" version="3" timestamp="2009-09-21T08:31:28Z" uid="70696" user="xybot" changeset="2554880" lat="42.871389" lon="20.841111">
    <tag k="name" v="Zhabari i Ultë"/>
    <tag k="name_full_nd" v="Zhabari i Ultë"/>
    <tag k="name_sort" v="ZHABARIIULTE"/>
    <tag k="place" v="hamlet"/>
  </node>
  <node id="448706682" version="4" timestamp="2011-02-02T15:05:08Z" uid="355102" user="Besfort Guri" changeset="7165548" lat="42.871389" lon="20.841111">
    <tag k="name" v="Zhabari i Ultë"/>
    <tag k="name_full_nd" v="Zhabari i Ultë"/>
    <tag k="name_sort" v="ZHABARIIULTE"/>
    <tag k="place" v="hamlet"/>
  </node>
  <node id="448706956" version="2" timestamp="2009-08-25T09:18:19Z" uid="18775" user="drlizau" changeset="2254105" lat="42.690833" lon="20.932778">
    <tag k="elevation" v=""/>
    <tag k="name" v="Fazlovići"/>
    <tag k="name_full_nd" v="Fazlovići"/>
    <tag k="name_generic" v=""/>
    <tag k="name_short" v=""/>
    <tag k="name_sort" v="FAZLOVICI"/>
    <tag k="place" v="hamlet"/>
  </node>
  <node id="448706964" version="2" timestamp="2009-08-25T09:07:06Z" uid="18775" user="drlizau" changeset="2254017" lat="42.686667" lon="20.851111">
    <tag k="elevation" v=""/>
    <tag k="name" v="Fuša Mahala"/>
    <tag k="name_full_nd" v="Fuša Mahala"/>
    <tag k="name_generic" v=""/>
    <tag k="name_short" v=""/>
    <tag k="name_sort" v="FUSAMAHALA"/>
    <tag k="place" v="hamlet"/>
  </node>
  <node id="448707169" version="2" timestamp="2009-08-25T09:37:01Z" uid="18775" user="drlizau" changeset="2254250" lat="42.686944" lon="21.070278">
    <tag k="name" v="Обилић"/>
    <tag k="name_full_nd" v="Обилић"/>
    <tag k="name_generic" v=""/>
    <tag k="name_short" v=""/>
    <tag k="name_sort" v="ОБИЛИЋ"/>
    <tag k="place" v="hamlet"/>
  </node>
  <node id="448707169" version="3" timestamp="2009-09-21T08:32:32Z" uid="70696" user="xybot" changeset="2554880" lat="42.686944" lon="21.070278">
    <tag k="name" v="Обилић"/>
    <tag k="name_full_nd" v="Обилић"/>
    <tag k="name_sort" v="ОБИЛИЋ"/>
    <tag k="place" v="hamlet"/>
  </node>
  <node id="448707169" version="4" timestamp="2009-09-23T11:44:22Z" uid="131059" user="h4ck3rm1k3" changeset="2594575" lat="42.686944" lon="21.070278">
    <tag k="name" v="Obiliq"/>
    <tag k="name:old" v="Kastriot"/>
    <tag k="name:sq" v="Obiliq"/>
    <tag k="name:sr" v="Obilić"/>
    <tag k="name_full_nd" v="Kastriot"/>
    <tag k="name_full_nd:sq" v="Obiliq"/>
    <tag k="name_full_nd:sr" v="Obilić"/>
    <tag k="name_sort" v="KASTRIOT"/>
    <tag k="name_sort:sq" v="OBILIQ"/>
    <tag k="name_sort:sr" v="OBILIC"/>
    <tag k="place" v="hamlet"/>
  </node>
  <node id="448707169" version="5" timestamp="2009-10-12T12:34:51Z" uid="131059" user="h4ck3rm1k3" changeset="2825425" lat="42.686944" lon="21.070278">
    <tag k="name" v="Obiliq"/>
    <tag k="name:old" v="Kastriot"/>
    <tag k="name:sq" v="Obiliq"/>
    <tag k="name:sr" v="Obilić"/>
    <tag k="name_full_nd" v="Kastriot"/>
    <tag k="name_full_nd:sq" v="Obiliq"/>
    <tag k="name_full_nd:sr" v="Obilić"/>
    <tag k="name_sort" v="KASTRIOT"/>
    <tag k="name_sort:sq" v="OBILIQ"/>
    <tag k="name_sort:sr" v="OBILIC"/>
    <tag k="place" v="hamlet"/>
  </node>
  <node id="448707172" version="2" timestamp="2009-08-25T09:37:02Z" uid="18775" user="drlizau" changeset="2254250" lat="42.686944" lon="21.070278">
    <tag k="name" v="Kastriot"/>
    <tag k="name_full_nd" v="Kastriot"/>
    <tag k="name_generic" v=""/>
    <tag k="name_short" v=""/>
    <tag k="name_sort" v="KASTRIOT"/>
    <tag k="place" v="hamlet"/>
  </node>
  <node id="448707172" version="3" timestamp="2009-09-21T08:32:33Z" uid="70696" user="xybot" changeset="2554880" lat="42.686944" lon="21.070278">
    <tag k="name" v="Kastriot"/>
    <tag k="name_full_nd" v="Kastriot"/>
    <tag k="name_sort" v="KASTRIOT"/>
    <tag k="place" v="hamlet"/>
  </node>
  <node id="448707172" version="4" timestamp="2009-10-12T12:34:50Z" uid="131059" user="h4ck3rm1k3" changeset="2825425" lat="42.686944" lon="21.070278">
    <tag k="name" v="Kastriot"/>
    <tag k="name_full_nd" v="Kastriot"/>
    <tag k="name_sort" v="KASTRIOT"/>
    <tag k="place" v="hamlet"/>
  </node>
  <node id="448707174" version="2" timestamp="2009-08-25T09:37:02Z" uid="18775" user="drlizau" changeset="2254250" lat="42.686944" lon="21.070278">
    <tag k="name" v="Gllaboder"/>
    <tag k="name_full_nd" v="Gllaboder"/>
    <tag k="name_generic" v=""/>
    <tag k="name_short" v=""/>
    <tag k="name_sort" v="GLLABODER"/>
    <tag k="place" v="hamlet"/>
  </node>
  <node id="448707174" version="3" timestamp="2009-09-21T08:32:34Z" uid="70696" user="xybot" changeset="2554880" lat="42.686944" lon="21.070278">
    <tag k="name" v="Gllaboder"/>
    <tag k="name_full_nd" v="Gllaboder"/>
    <tag k="name_sort" v="GLLABODER"/>
    <tag k="place" v="hamlet"/>
  </node>
  <node id="448707174" version="4" timestamp="2009-10-12T12:34:50Z" uid="131059" user="h4ck3rm1k3" changeset="2825425" lat="42.686944" lon="21.070278">
    <tag k="name" v="Gllaboder"/>
    <tag k="name_full_nd" v="Gllaboder"/>
    <tag k="name_sort" v="GLLABODER"/>
    <tag k="place" v="hamlet"/>
  </node>
  <node id="448707181" version="2" timestamp="2009-08-25T09:37:02Z" uid="18775" user="drlizau" changeset="2254250" lat="42.868056" lon="21.178889">
    <tag k="name" v="Vendenis"/>
    <tag k="name_full_nd" v="Vendenis"/>
    <tag k="name_generic" v=""/>
    <tag k="name_short" v=""/>
    <tag k="name_sort" v="VENDENIS"/>
    <tag k="place" v="hamlet"/>
  </node>
  <node id="448707181" version="3" timestamp="2009-09-21T08:32:35Z" uid="70696" user="xybot" changeset="2554880" lat="42.868056" lon="21.178889">
    <tag k="name" v="Vendenis"/>
    <tag k="name_full_nd" v="Vendenis"/>
    <tag k="name_sort" v="VENDENIS"/>
    <tag k="place" v="hamlet"/>
  </node>
  <node id="448707181" version="4" timestamp="2009-09-23T11:37:16Z" uid="131059" user="h4ck3rm1k3" changeset="2594469" lat="42.868056" lon="21.178889">
    <tag k="name" v="Gllamnik"/>
    <tag k="name:old" v="Glavnik"/>
    <tag k="name:sq" v="Gllamnik"/>
    <tag k="name:sr" v="Glavnik"/>
    <tag k="name_full_nd" v="Glavnik"/>
    <tag k="name_full_nd:sq" v="Gllamnik"/>
    <tag k="name_full_nd:sr" v="Glavnik"/>
    <tag k="name_sort" v="GLAVNIK"/>
    <tag k="name_sort:sq" v="GLLAMNIK"/>
    <tag k="name_sort:sr" v="GLAVNIK"/>
    <tag k="place" v="hamlet"/>
  </node>
  <node id="448707181" version="5" timestamp="2009-10-12T12:34:46Z" uid="131059" user="h4ck3rm1k3" changeset="2825425" lat="42.868056" lon="21.178889">
    <tag k="name" v="Gllamnik"/>
    <tag k="name:old" v="Glavnik"/>
    <tag k="name:sq" v="Gllamnik"/>
    <tag k="name:sr" v="Glavnik"/>
    <tag k="name_full_nd" v="Glavnik"/>
    <tag k="name_full_nd:sq" v="Gllamnik"/>
    <tag k="name_full_nd:sr" v="Glavnik"/>
    <tag k="name_sort" v="GLAVNIK"/>
    <tag k="name_sort:sq" v="GLLAMNIK"/>
    <tag k="name_sort:sr" v="GLAVNIK"/>
    <tag k="place" v="hamlet"/>
  </node>
  <node id="448707324" version="2" timestamp="2009-08-25T09:37:04Z" uid="18775" user="drlizau" changeset="2254250" lat="42.707222" lon="20.861111">
    <tag k="name" v="Dashefc"/>
    <tag k="name_full_nd" v="Dashefc"/>
    <tag k="name_generic" v=""/>
    <tag k="name_short" v=""/>
    <tag k="name_sort" v="DASHEFC"/>
    <tag k="place" v="hamlet"/>
  </node>
  <node id="448707324" version="3" timestamp="2009-09-21T08:32:58Z" uid="70696" user="xybot" changeset="2554880" lat="42.707222" lon="20.861111">
    <tag k="name" v="Dashefc"/>
    <tag k="name_full_nd" v="Dashefc"/>
    <tag k="name_sort" v="DASHEFC"/>
    <tag k="place" v="hamlet"/>
  </node>
  <node id="448707324" version="4" timestamp="2009-09-23T11:44:04Z" uid="131059" user="h4ck3rm1k3" changeset="2594570" lat="42.707222" lon="20.861111">
    <tag k="name" v="Dashec"/>
    <tag k="name:old" v="Daševci"/>
    <tag k="name:sq" v="Dashec"/>
    <tag k="name:sr" v="Doševac"/>
    <tag k="name_full_nd" v="Daševci"/>
    <tag k="name_full_nd:sq" v="Dashec"/>
    <tag k="name_full_nd:sr" v="Doševac"/>
    <tag k="name_sort" v="DASEVCI"/>
    <tag k="name_sort:sq" v="DASHEC"/>
    <tag k="name_sort:sr" v="DOSEVAC"/>
    <tag k="place" v="hamlet"/>
  </node>
  <node id="448707324" version="5" timestamp="2009-10-12T12:40:37Z" uid="131059" user="h4ck3rm1k3" changeset="2825425" lat="42.707222" lon="20.861111">
    <tag k="name" v="Dashec"/>
    <tag k="name:old" v="Daševci"/>
    <tag k="name:sq" v="Dashec"/>
    <tag k="name:sr" v="Doševac"/>
    <tag k="name_full_nd" v="Daševci"/>
    <tag k="name_full_nd:sq" v="Dashec"/>
    <tag k="name_full_nd:sr" v="Doševac"/>
    <tag k="name_sort" v="DASEVCI"/>
    <tag k="name_sort:sq" v="DASHEC"/>
    <tag k="name_sort:sr" v="DOSEVAC"/>
    <tag k="place" v="hamlet"/>
  </node>
  <node id="448707338" version="2" timestamp="2009-08-25T09:36:58Z" uid="18775" user="drlizau" changeset="2254250" lat="42.854167" lon="21.169444">
    <tag k="name" v="Kunusheci"/>
    <tag k="name_full_nd" v="Kunusheci"/>
    <tag k="name_generic" v=""/>
    <tag k="name_short" v=""/>
    <tag k="name_sort" v="KUNUSHECI"/>
    <tag k="place" v="hamlet"/>
  </node>
  <node id="448707338" version="3" timestamp="2009-09-21T08:33:00Z" uid="70696" user="xybot" changeset="2554880" lat="42.854167" lon="21.169444">
    <tag k="name" v="Kunusheci"/>
    <tag k="name_full_nd" v="Kunusheci"/>
    <tag k="name_sort" v="KUNUSHECI"/>
    <tag k="place" v="hamlet"/>
  </node>
  <node id="448707338" version="4" timestamp="2009-09-23T11:37:14Z" uid="131059" user="h4ck3rm1k3" changeset="2594469" lat="42.854167" lon="21.169444">
    <tag k="name" v="Kunushec"/>
    <tag k="name:old" v="Urëza"/>
    <tag k="name:sq" v="Kunushec"/>
    <tag k="name:sr" v="Konjuševac"/>
    <tag k="name_full_nd" v="Urëza"/>
    <tag k="name_full_nd:sq" v="Kunushec"/>
    <tag k="name_full_nd:sr" v="Konjuševac"/>
    <tag k="name_sort" v="UREZA"/>
    <tag k="name_sort:sq" v="KUNUSHEC"/>
    <tag k="name_sort:sr" v="KONJUSEVAC"/>
    <tag k="place" v="hamlet"/>
  </node>
  <node id="448707338" version="5" timestamp="2009-10-12T12:40:34Z" uid="131059" user="h4ck3rm1k3" changeset="2825425" lat="42.854167" lon="21.169444">
    <tag k="name" v="Kunushec"/>
    <tag k="name:old" v="Urëza"/>
    <tag k="name:sq" v="Kunushec"/>
    <tag k="name:sr" v="Konjuševac"/>
    <tag k="name_full_nd" v="Urëza"/>
    <tag k="name_full_nd:sq" v="Kunushec"/>
    <tag k="name_full_nd:sr" v="Konjuševac"/>
    <tag k="name_sort" v="UREZA"/>
    <tag k="name_sort:sq" v="KUNUSHEC"/>
    <tag k="name_sort:sr" v="KONJUSEVAC"/>
    <tag k="place" v="hamlet"/>
  </node>
  <node id="448707339" version="3" timestamp="2009-08-25T09:36:58Z" uid="18775" user="drlizau" changeset="2254250" lat="42.915278" lon="20.991944">
    <tag k="altname" v="Gumnishte,Gumnishtë,Guvniste,Guvnište"/>
    <tag k="el" v=""/>
    <tag k="geonameid" v="790092"/>
    <tag k="gnadmin" v="00"/>
    <tag k="gnadmin2" v="Kosovo"/>
    <tag k="gnadmin3" v=""/>
    <tag k="gnadmin4" v=""/>
    <tag k="gnfeature" v="P"/>
    <tag k="gnfeaturec" v="PPL"/>
    <tag k="name" v="Gumnishtë"/>
    <tag k="name2" v="Gumnište"/>
    <tag k="name:sq" v="Gumnishtë"/>
    <tag k="name:sr" v="Gumnište"/>
    <tag k="name_full_nd" v="Gumnishtë"/>
    <tag k="name_full_nd:sq" v="Gumnishtë"/>
    <tag k="name_full_nd:sr" v="Gumnište"/>
    <tag k="name_generic" v=""/>
    <tag k="name_generic:sq" v=""/>
    <tag k="name_generic:sr" v=""/>
    <tag k="name_short" v=""/>
    <tag k="name_short:sq" v=""/>
    <tag k="name_short:sr" v=""/>
    <tag k="name_sort" v="GUMNISHTE"/>
    <tag k="name_sort:sq" v="GUMNISHTE"/>
    <tag k="name_sort:sr" v="GUMNISTE"/>
    <tag k="place" v="village"/>
    <tag k="pop" v="0"/>
  </node>
  <node id="448707339" version="4" timestamp="2009-09-21T08:33:00Z" uid="70696" user="xybot" changeset="2554880" lat="42.915278" lon="20.991944">
    <tag k="altname" v="Gumnishte,Gumnishtë,Guvniste,Guvnište"/>
    <tag k="geonameid" v="790092"/>
    <tag k="gnadmin" v="00"/>
    <tag k="gnadmin2" v="Kosovo"/>
    <tag k="gnfeature" v="P"/>
    <tag k="gnfeaturec" v="PPL"/>
    <tag k="name" v="Gumnishtë"/>
    <tag k="name2" v="Gumnište"/>
    <tag k="name:sq" v="Gumnishtë"/>
    <tag k="name:sr" v="Gumnište"/>
    <tag k="name_full_nd" v="Gumnishtë"/>
    <tag k="name_full_nd:sq" v="Gumnishtë"/>
    <tag k="name_full_nd:sr" v="Gumnište"/>
    <tag k="name_sort" v="GUMNISHTE"/>
    <tag k="name_sort:sq" v="GUMNISHTE"/>
    <tag k="name_sort:sr" v="GUMNISTE"/>
    <tag k="place" v="village"/>
    <tag k="pop" v="0"/>
  </node>
  <node id="448707339" version="5" timestamp="2011-03-03T15:45:01Z" uid="135011" user="meti" changeset="7446346" lat="42.915278" lon="20.991944">
    <tag k="altname" v="Gumnishte,Gumnishtë,Guvniste,Guvnište"/>
    <tag k="geonameid" v="790092"/>
    <tag k="gnadmin" v="00"/>
    <tag k="gnadmin2" v="Kosovo"/>
    <tag k="gnfeature" v="P"/>
    <tag k="gnfeaturec" v="PPL"/>
    <tag k="is_in" v="Kosovo"/>
    <tag k="name" v="Gumnishtë"/>
    <tag k="name2" v="Gumnište"/>
    <tag k="name:sq" v="Gumnishtë"/>
    <tag k="name:sr" v="Gumnište"/>
    <tag k="name_full_nd" v="Gumnishtë"/>
    <tag k="name_full_nd:sq" v="Gumnishtë"/>
    <tag k="name_full_nd:sr" v="Gumnište"/>
    <tag k="name_sort" v="GUMNISHTE"/>
    <tag k="name_sort:sq" v="GUMNISHTE"/>
    <tag k="name_sort:sr" v="GUMNISTE"/>
    <tag k="place" v="village"/>
    <tag k="pop" v="0"/>
  </node>
  <node id="448707339" version="6" timestamp="2011-03-03T18:54:24Z" uid="70696" user="xybot" changeset="7448288" lat="42.915278" lon="20.991944">
    <tag k="altname" v="Gumnishte,Gumnishtë,Guvniste,Guvnište"/>
    <tag k="geonameid" v="790092"/>
    <tag k="gnadmin" v="00"/>
    <tag k="gnadmin2" v="Kosovo"/>
    <tag k="gnfeature" v="P"/>
    <tag k="gnfeaturec" v="PPL"/>
    <tag k="is_in" v="Kosovo"/>
    <tag k="name" v="Gumnishtë"/>
    <tag k="name2" v="Gumnište"/>
    <tag k="name:sq" v="Gumnishtë"/>
    <tag k="name:sr" v="Gumnište"/>
    <tag k="name_full_nd" v="Gumnishtë"/>
    <tag k="name_full_nd:sq" v="Gumnishtë"/>
    <tag k="name_full_nd:sr" v="Gumnište"/>
    <tag k="name_sort" v="GUMNISHTE"/>
    <tag k="name_sort:sq" v="GUMNISHTE"/>
    <tag k="name_sort:sr" v="GUMNISTE"/>
    <tag k="place" v="village"/>
    <tag k="population" v="0"/>
  </node>
  <node id="448707347" version="2" timestamp="2009-08-25T09:36:57Z" uid="18775" user="drlizau" changeset="2254250" lat="42.913333" lon="21.011667">
    <tag k="name" v="Boshlan"/>
    <tag k="name_full_nd" v="Boshlan"/>
    <tag k="name_generic" v=""/>
    <tag k="name_short" v=""/>
    <tag k="name_sort" v="BOSHLAN"/>
    <tag k="place" v="hamlet"/>
  </node>
  <node id="448707347" version="3" timestamp="2009-09-21T08:33:01Z" uid="70696" user="xybot" changeset="2554880" lat="42.913333" lon="21.011667">
    <tag k="name" v="Boshlan"/>
    <tag k="name_full_nd" v="Boshlan"/>
    <tag k="name_sort" v="BOSHLAN"/>
    <tag k="place" v="hamlet"/>
  </node>
  <node id="448707347" version="4" timestamp="2009-10-12T12:40:45Z" uid="131059" user="h4ck3rm1k3" changeset="2825425" lat="42.913333" lon="21.011667">
    <tag k="name" v="Boshlan"/>
    <tag k="name_full_nd" v="Boshlan"/>
    <tag k="name_sort" v="BOSHLAN"/>
    <tag k="place" v="hamlet"/>
  </node>
  <node id="448707349" version="2" timestamp="2009-08-25T09:36:57Z" uid="18775" user="drlizau" changeset="2254250" lat="42.913333" lon="21.011667">
    <tag k="name" v="Bošljane"/>
    <tag k="name_full_nd" v="Bošljane"/>
    <tag k="name_generic" v=""/>
    <tag k="name_short" v=""/>
    <tag k="name_sort" v="BOSLJANE"/>
    <tag k="place" v="hamlet"/>
  </node>
  <node id="448707349" version="3" timestamp="2009-09-21T08:33:05Z" uid="70696" user="xybot" changeset="2554880" lat="42.913333" lon="21.011667">
    <tag k="name" v="Bošljane"/>
    <tag k="name_full_nd" v="Bošljane"/>
    <tag k="name_sort" v="BOSLJANE"/>
    <tag k="place" v="hamlet"/>
  </node>
  <node id="448707349" version="4" timestamp="2009-10-12T12:40:45Z" uid="131059" user="h4ck3rm1k3" changeset="2825425" lat="42.913333" lon="21.011667">
    <tag k="name" v="Bošljane"/>
    <tag k="name_full_nd" v="Bošljane"/>
    <tag k="name_sort" v="BOSLJANE"/>
    <tag k="place" v="hamlet"/>
  </node>
  <node id="448707353" version="2" timestamp="2009-08-25T09:36:58Z" uid="18775" user="drlizau" changeset="2254250" lat="42.800833" lon="21.075278">
    <tag k="name" v="Lluga"/>
    <tag k="name_full_nd" v="Lluga"/>
    <tag k="name_generic" v=""/>
    <tag k="name_short" v=""/>
    <tag k="name_sort" v="LLUGA"/>
    <tag k="place" v="hamlet"/>
  </node>
  <node id="448707353" version="3" timestamp="2009-09-21T08:33:05Z" uid="70696" user="xybot" changeset="2554880" lat="42.800833" lon="21.075278">
    <tag k="name" v="Lluga"/>
    <tag k="name_full_nd" v="Lluga"/>
    <tag k="name_sort" v="LLUGA"/>
    <tag k="place" v="hamlet"/>
  </node>
  <node id="448707353" version="4" timestamp="2009-09-23T11:37:14Z" uid="131059" user="h4ck3rm1k3" changeset="2594469" lat="42.800833" lon="21.075278">
    <tag k="name" v="Dumnicë e Llugës"/>
    <tag k="name:old" v="Lug"/>
    <tag k="name:sq" v="Dumnicë e Llugës"/>
    <tag k="name:sr" v="Lug Dubnica"/>
    <tag k="name_full_nd" v="Lug"/>
    <tag k="name_full_nd:sq" v="Dumnicë e Llugës"/>
    <tag k="name_full_nd:sr" v="Lug Dubnica"/>
    <tag k="name_sort" v="LUG"/>
    <tag k="name_sort:sq" v="DUMNICEELLUGES"/>
    <tag k="name_sort:sr" v="LUGDUBNICA"/>
    <tag k="place" v="hamlet"/>
  </node>
  <node id="448707353" version="5" timestamp="2009-10-12T12:40:42Z" uid="131059" user="h4ck3rm1k3" changeset="2825425" lat="42.800833" lon="21.075278">
    <tag k="name" v="Dumnicë e Llugës"/>
    <tag k="name:old" v="Lug"/>
    <tag k="name:sq" v="Dumnicë e Llugës"/>
    <tag k="name:sr" v="Lug Dubnica"/>
    <tag k="name_full_nd" v="Lug"/>
    <tag k="name_full_nd:sq" v="Dumnicë e Llugës"/>
    <tag k="name_full_nd:sr" v="Lug Dubnica"/>
    <tag k="name_sort" v="LUG"/>
    <tag k="name_sort:sq" v="DUMNICEELLUGES"/>
    <tag k="name_sort:sr" v="LUGDUBNICA"/>
    <tag k="place" v="hamlet"/>
  </node>
  <node id="448707359" version="3" timestamp="2009-08-25T09:36:57Z" uid="18775" user="drlizau" changeset="2254250" lat="42.874444" lon="20.786111">
    <tag k="altname" v="Koshtove,Koshtovë"/>
    <tag k="el" v=""/>
    <tag k="geonameid" v="789195"/>
    <tag k="gnadmin" v="00"/>
    <tag k="gnadmin2" v="Kosovo"/>
    <tag k="gnadmin3" v=""/>
    <tag k="gnadmin4" v=""/>
    <tag k="gnfeature" v="P"/>
    <tag k="gnfeaturec" v="PPL"/>
    <tag k="name" v="Koshtovë"/>
    <tag k="name2" v="Košutovo"/>
    <tag k="name:sq" v="Koshtovë"/>
    <tag k="name:sr" v="Košutovo"/>
    <tag k="name_full_nd" v="Koshtovë"/>
    <tag k="name_full_nd:sq" v="Koshtovë"/>
    <tag k="name_full_nd:sr" v="Košutovo"/>
    <tag k="name_generic" v=""/>
    <tag k="name_generic:sq" v=""/>
    <tag k="name_generic:sr" v=""/>
    <tag k="name_short" v=""/>
    <tag k="name_short:sq" v=""/>
    <tag k="name_short:sr" v=""/>
    <tag k="name_sort" v="KOSHTOVE"/>
    <tag k="name_sort:sq" v="KOSHTOVE"/>
    <tag k="name_sort:sr" v="KOSUTOVO"/>
    <tag k="place" v="village"/>
    <tag k="pop" v="0"/>
  </node>
  <node id="448707359" version="4" timestamp="2009-09-21T08:33:06Z" uid="70696" user="xybot" changeset="2554880" lat="42.874444" lon="20.786111">
    <tag k="altname" v="Koshtove,Koshtovë"/>
    <tag k="geonameid" v="789195"/>
    <tag k="gnadmin" v="00"/>
    <tag k="gnadmin2" v="Kosovo"/>
    <tag k="gnfeature" v="P"/>
    <tag k="gnfeaturec" v="PPL"/>
    <tag k="name" v="Koshtovë"/>
    <tag k="name2" v="Košutovo"/>
    <tag k="name:sq" v="Koshtovë"/>
    <tag k="name:sr" v="Košutovo"/>
    <tag k="name_full_nd" v="Koshtovë"/>
    <tag k="name_full_nd:sq" v="Koshtovë"/>
    <tag k="name_full_nd:sr" v="Košutovo"/>
    <tag k="name_sort" v="KOSHTOVE"/>
    <tag k="name_sort:sq" v="KOSHTOVE"/>
    <tag k="name_sort:sr" v="KOSUTOVO"/>
    <tag k="place" v="village"/>
    <tag k="pop" v="0"/>
  </node>
  <node id="448707359" version="5" timestamp="2011-01-13T16:10:48Z" uid="355102" user="Besfort Guri" changeset="6958593" lat="42.8742468" lon="20.7801925">
    <tag k="altname" v="Koshtove,Koshtovë"/>
    <tag k="geonameid" v="789195"/>
    <tag k="gnadmin" v="00"/>
    <tag k="gnadmin2" v="Kosovo"/>
    <tag k="gnfeature" v="P"/>
    <tag k="gnfeaturec" v="PPL"/>
    <tag k="name" v="Koshtovë"/>
    <tag k="name2" v="Košutovo"/>
    <tag k="name:sq" v="Koshtovë"/>
    <tag k="name:sr" v="Košutovo"/>
    <tag k="name_full_nd" v="Koshtovë"/>
    <tag k="name_full_nd:sq" v="Koshtovë"/>
    <tag k="name_full_nd:sr" v="Košutovo"/>
    <tag k="name_sort" v="KOSHTOVE"/>
    <tag k="name_sort:sq" v="KOSHTOVE"/>
    <tag k="name_sort:sr" v="KOSUTOVO"/>
    <tag k="place" v="village"/>
    <tag k="pop" v="0"/>
  </node>
  <node id="448707359" version="6" timestamp="2011-03-03T15:41:36Z" uid="135011" user="meti" changeset="7446346" lat="42.8742468" lon="20.7801925">
    <tag k="altname" v="Koshtove,Koshtovë"/>
    <tag k="geonameid" v="789195"/>
    <tag k="gnadmin" v="00"/>
    <tag k="gnadmin2" v="Kosovo"/>
    <tag k="gnfeature" v="P"/>
    <tag k="gnfeaturec" v="PPL"/>
    <tag k="is_in" v="Kosovo"/>
    <tag k="name" v="Koshtovë"/>
    <tag k="name2" v="Košutovo"/>
    <tag k="name:sq" v="Koshtovë"/>
    <tag k="name:sr" v="Košutovo"/>
    <tag k="name_full_nd" v="Koshtovë"/>
    <tag k="name_full_nd:sq" v="Koshtovë"/>
    <tag k="name_full_nd:sr" v="Košutovo"/>
    <tag k="name_sort" v="KOSHTOVE"/>
    <tag k="name_sort:sq" v="KOSHTOVE"/>
    <tag k="name_sort:sr" v="KOSUTOVO"/>
    <tag k="place" v="village"/>
    <tag k="pop" v="0"/>
  </node>
  <node id="448707359" version="7" timestamp="2011-03-03T18:54:25Z" uid="70696" user="xybot" changeset="7448288" lat="42.8742468" lon="20.7801925">
    <tag k="altname" v="Koshtove,Koshtovë"/>
    <tag k="geonameid" v="789195"/>
    <tag k="gnadmin" v="00"/>
    <tag k="gnadmin2" v="Kosovo"/>
    <tag k="gnfeature" v="P"/>
    <tag k="gnfeaturec" v="PPL"/>
    <tag k="is_in" v="Kosovo"/>
    <tag k="name" v="Koshtovë"/>
    <tag k="name2" v="Košutovo"/>
    <tag k="name:sq" v="Koshtovë"/>
    <tag k="name:sr" v="Košutovo"/>
    <tag k="name_full_nd" v="Koshtovë"/>
    <tag k="name_full_nd:sq" v="Koshtovë"/>
    <tag k="name_full_nd:sr" v="Košutovo"/>
    <tag k="name_sort" v="KOSHTOVE"/>
    <tag k="name_sort:sq" v="KOSHTOVE"/>
    <tag k="name_sort:sr" v="KOSUTOVO"/>
    <tag k="place" v="village"/>
    <tag k="population" v="0"/>
  </node>
  <node id="448707363" version="2" timestamp="2009-08-25T09:36:56Z" uid="18775" user="drlizau" changeset="2254250" lat="42.803056" lon="20.928889">
    <tag k="name" v="Bukosh"/>
    <tag k="name_full_nd" v="Bukosh"/>
    <tag k="name_generic" v=""/>
    <tag k="name_short" v=""/>
    <tag k="name_sort" v="BUKOSH"/>
    <tag k="place" v="hamlet"/>
  </node>
  <node id="448707363" version="3" timestamp="2009-09-11T07:38:25Z" uid="131059" user="h4ck3rm1k3" changeset="2443721" lat="42.803056" lon="20.928889">
    <tag k="name" v="Bukosh"/>
    <tag k="name_full_nd" v="Bukosh"/>
    <tag k="name_generic" v=""/>
    <tag k="name_short" v=""/>
    <tag k="name_sort" v="BUKOSH"/>
    <tag k="place" v="hamlet"/>
  </node>
  <node id="448707365" version="2" timestamp="2009-08-25T09:36:56Z" uid="18775" user="drlizau" changeset="2254250" lat="42.803056" lon="20.928889">
    <tag k="name" v="Bukoš"/>
    <tag k="name_full_nd" v="Bukoš"/>
    <tag k="name_generic" v=""/>
    <tag k="name_short" v=""/>
    <tag k="name_sort" v="BUKOS"/>
    <tag k="place" v="hamlet"/>
  </node>
  <node id="448707365" version="3" timestamp="2009-09-11T07:38:11Z" uid="131059" user="h4ck3rm1k3" changeset="2443721" lat="42.803056" lon="20.928889">
    <tag k="altname" v="Bukosh"/>
    <tag k="el" v=""/>
    <tag k="geonameid" v="792161"/>
    <tag k="gnadmin" v="00"/>
    <tag k="gnadmin2" v="Kosovo"/>
    <tag k="gnadmin3" v=""/>
    <tag k="gnadmin4" v=""/>
    <tag k="gnfeature" v="P"/>
    <tag k="gnfeaturec" v="PPL"/>
    <tag k="name" v="Bukos"/>
    <tag k="name2" v="Bukoš"/>
    <tag k="name:old" v="Букош"/>
    <tag k="name:sq" v="Bukosh"/>
    <tag k="name:sr" v="Bukoš"/>
    <tag k="name_full_nd" v="Bukosh"/>
    <tag k="name_full_nd:sq" v="Bukosh"/>
    <tag k="name_full_nd:sr" v="Bukoš"/>
    <tag k="name_generic" v=""/>
    <tag k="name_generic:sr" v=""/>
    <tag k="name_short" v=""/>
    <tag k="name_short:sr" v=""/>
    <tag k="name_sort" v="BUKOS"/>
    <tag k="name_sort:sq" v="BUKOSH"/>
    <tag k="name_sort:sr" v="BUKOS"/>
    <tag k="place" v="village"/>
    <tag k="pop" v="0"/>
  </node>
  <node id="448707365" version="4" timestamp="2009-09-21T08:33:07Z" uid="70696" user="xybot" changeset="2554880" lat="42.803056" lon="20.928889">
    <tag k="altname" v="Bukosh"/>
    <tag k="geonameid" v="792161"/>
    <tag k="gnadmin" v="00"/>
    <tag k="gnadmin2" v="Kosovo"/>
    <tag k="gnfeature" v="P"/>
    <tag k="gnfeaturec" v="PPL"/>
    <tag k="name" v="Bukos"/>
    <tag k="name2" v="Bukoš"/>
    <tag k="name:old" v="Букош"/>
    <tag k="name:sq" v="Bukosh"/>
    <tag k="name:sr" v="Bukoš"/>
    <tag k="name_full_nd" v="Bukosh"/>
    <tag k="name_full_nd:sq" v="Bukosh"/>
    <tag k="name_full_nd:sr" v="Bukoš"/>
    <tag k="name_sort" v="BUKOS"/>
    <tag k="name_sort:sq" v="BUKOSH"/>
    <tag k="name_sort:sr" v="BUKOS"/>
    <tag k="place" v="village"/>
    <tag k="pop" v="0"/>
  </node>
  <node id="448707365" version="5" timestamp="2009-09-23T11:35:07Z" uid="131059" user="h4ck3rm1k3" changeset="2594448" lat="42.803056" lon="20.928889">
    <tag k="altname" v="Bukosh"/>
    <tag k="geonameid" v="792161"/>
    <tag k="gnadmin" v="00"/>
    <tag k="gnadmin2" v="Kosovo"/>
    <tag k="gnfeature" v="P"/>
    <tag k="gnfeaturec" v="PPL"/>
    <tag k="name" v="Bukosh"/>
    <tag k="name2" v="Bukoš"/>
    <tag k="name:old" v="Bukos"/>
    <tag k="name:sq" v="Bukosh"/>
    <tag k="name:sr" v="Bukoš"/>
    <tag k="name_full_nd" v="Bukosh"/>
    <tag k="name_full_nd:sq" v="Bukosh"/>
    <tag k="name_full_nd:sr" v="Bukoš"/>
    <tag k="name_sort" v="BUKOS"/>
    <tag k="name_sort:sq" v="BUKOSH"/>
    <tag k="name_sort:sr" v="BUKOS"/>
    <tag k="place" v="village"/>
  </node>
  <node id="448707365" version="6" timestamp="2011-03-03T15:40:54Z" uid="135011" user="meti" changeset="7446346" lat="42.803056" lon="20.928889">
    <tag k="altname" v="Bukosh"/>
    <tag k="geonameid" v="792161"/>
    <tag k="gnadmin" v="00"/>
    <tag k="gnadmin2" v="Kosovo"/>
    <tag k="gnfeature" v="P"/>
    <tag k="gnfeaturec" v="PPL"/>
    <tag k="is_in" v="Kosovo"/>
    <tag k="name" v="Bukosh"/>
    <tag k="name2" v="Bukoš"/>
    <tag k="name:old" v="Bukos"/>
    <tag k="name:sq" v="Bukosh"/>
    <tag k="name:sr" v="Bukoš"/>
    <tag k="name_full_nd" v="Bukosh"/>
    <tag k="name_full_nd:sq" v="Bukosh"/>
    <tag k="name_full_nd:sr" v="Bukoš"/>
    <tag k="name_sort" v="BUKOS"/>
    <tag k="name_sort:sq" v="BUKOSH"/>
    <tag k="name_sort:sr" v="BUKOS"/>
    <tag k="place" v="village"/>
  </node>
  <node id="448707367" version="2" timestamp="2009-08-25T09:36:56Z" uid="18775" user="drlizau" changeset="2254250" lat="42.809722" lon="20.799722">
    <tag k="name" v="Трнавце"/>
    <tag k="name_full_nd" v="Трнавце"/>
    <tag k="name_generic" v=""/>
    <tag k="name_short" v=""/>
    <tag k="name_sort" v="ТРНАВЦЕ"/>
    <tag k="place" v="hamlet"/>
  </node>
  <node id="448707367" version="3" timestamp="2009-09-21T08:33:09Z" uid="70696" user="xybot" changeset="2554880" lat="42.809722" lon="20.799722">
    <tag k="name" v="Трнавце"/>
    <tag k="name_full_nd" v="Трнавце"/>
    <tag k="name_sort" v="ТРНАВЦЕ"/>
    <tag k="place" v="hamlet"/>
  </node>
  <node id="448707367" version="4" timestamp="2009-09-23T11:34:52Z" uid="131059" user="h4ck3rm1k3" changeset="2594444" lat="42.809722" lon="20.799722">
    <tag k="name" v="Tërnavc"/>
    <tag k="name:old" v="Tërnavë"/>
    <tag k="name:sq" v="Tërnavc"/>
    <tag k="name:sr" v="Trnavce"/>
    <tag k="name_full_nd" v="Tërnavë"/>
    <tag k="name_full_nd:sq" v="Tërnavc"/>
    <tag k="name_full_nd:sr" v="Trnavce"/>
    <tag k="name_sort" v="TERNAVE"/>
    <tag k="name_sort:sq" v="TERNAVC"/>
    <tag k="name_sort:sr" v="TRNAVCE"/>
    <tag k="place" v="hamlet"/>
  </node>
  <node id="448707367" version="5" timestamp="2009-10-12T12:41:19Z" uid="131059" user="h4ck3rm1k3" changeset="2825425" lat="42.809722" lon="20.799722">
    <tag k="name" v="Tërnavc"/>
    <tag k="name:old" v="Tërnavë"/>
    <tag k="name:sq" v="Tërnavc"/>
    <tag k="name:sr" v="Trnavce"/>
    <tag k="name_full_nd" v="Tërnavë"/>
    <tag k="name_full_nd:sq" v="Tërnavc"/>
    <tag k="name_full_nd:sr" v="Trnavce"/>
    <tag k="name_sort" v="TERNAVE"/>
    <tag k="name_sort:sq" v="TERNAVC"/>
    <tag k="name_sort:sr" v="TRNAVCE"/>
    <tag k="place" v="hamlet"/>
  </node>
  <node id="448707373" version="2" timestamp="2009-08-25T09:36:56Z" uid="18775" user="drlizau" changeset="2254250" lat="42.733333" lon="20.733333">
    <tag k="name" v="Rakitnica"/>
    <tag k="name_full_nd" v="Rakitnica"/>
    <tag k="name_generic" v=""/>
    <tag k="name_short" v=""/>
    <tag k="name_sort" v="RAKITNICA"/>
    <tag k="place" v="hamlet"/>
  </node>
  <node id="448707373" version="3" timestamp="2009-09-21T08:33:13Z" uid="70696" user="xybot" changeset="2554880" lat="42.733333" lon="20.733333">
    <tag k="name" v="Rakitnica"/>
    <tag k="name_full_nd" v="Rakitnica"/>
    <tag k="name_sort" v="RAKITNICA"/>
    <tag k="place" v="hamlet"/>
  </node>
  <node id="448707373" version="4" timestamp="2009-09-23T11:43:57Z" uid="131059" user="h4ck3rm1k3" changeset="2594568" lat="42.733333" lon="20.733333">
    <tag k="name" v="Rakinicë"/>
    <tag k="name:old" v="Rakitnicë"/>
    <tag k="name:sq" v="Rakinicë"/>
    <tag k="name:sr" v="Rakitnica"/>
    <tag k="name_full_nd" v="Rakitnicë"/>
    <tag k="name_full_nd:sq" v="Rakinicë"/>
    <tag k="name_full_nd:sr" v="Rakitnica"/>
    <tag k="name_sort" v="RAKITNICE"/>
    <tag k="name_sort:sq" v="RAKINICE"/>
    <tag k="name_sort:sr" v="RAKITNICA"/>
    <tag k="place" v="hamlet"/>
  </node>
  <node id="448707373" version="5" timestamp="2009-10-12T12:41:20Z" uid="131059" user="h4ck3rm1k3" changeset="2825425" lat="42.733333" lon="20.733333">
    <tag k="name" v="Rakinicë"/>
    <tag k="name:old" v="Rakitnicë"/>
    <tag k="name:sq" v="Rakinicë"/>
    <tag k="name:sr" v="Rakitnica"/>
    <tag k="name_full_nd" v="Rakitnicë"/>
    <tag k="name_full_nd:sq" v="Rakinicë"/>
    <tag k="name_full_nd:sr" v="Rakitnica"/>
    <tag k="name_sort" v="RAKITNICE"/>
    <tag k="name_sort:sq" v="RAKINICE"/>
    <tag k="name_sort:sr" v="RAKITNICA"/>
    <tag k="place" v="hamlet"/>
  </node>
  <node id="448707382" version="2" timestamp="2009-08-25T09:36:56Z" uid="18775" user="drlizau" changeset="2254250" lat="42.833056" lon="20.986667">
    <tag k="name" v="Ново Село Бегово"/>
    <tag k="name_full_nd" v="Ново Село Бегово"/>
    <tag k="name_generic" v=""/>
    <tag k="name_short" v=""/>
    <tag k="name_sort" v="НОВОСЕЛОБЕГОВО"/>
    <tag k="place" v="hamlet"/>
  </node>
  <node id="448707382" version="3" timestamp="2009-09-11T07:38:27Z" uid="131059" user="h4ck3rm1k3" changeset="2443721" lat="42.833056" lon="20.986667">
    <tag k="name" v="Ново Село Бегово"/>
    <tag k="name_full_nd" v="Ново Село Бегово"/>
    <tag k="name_generic" v=""/>
    <tag k="name_short" v=""/>
    <tag k="name_sort" v="НОВОСЕЛОБЕГОВО"/>
    <tag k="place" v="hamlet"/>
  </node>
  <node id="448707386" version="2" timestamp="2009-08-25T09:36:56Z" uid="18775" user="drlizau" changeset="2254250" lat="42.784722" lon="20.779167">
    <tag k="name" v="Klinë e Mesme"/>
    <tag k="name_full_nd" v="Klinë e Mesme"/>
    <tag k="name_generic" v=""/>
    <tag k="name_short" v=""/>
    <tag k="name_sort" v="KLINEEMESME"/>
    <tag k="place" v="hamlet"/>
  </node>
  <node id="448707386" version="3" timestamp="2009-09-21T08:33:14Z" uid="70696" user="xybot" changeset="2554880" lat="42.784722" lon="20.779167">
    <tag k="name" v="Klinë e Mesme"/>
    <tag k="name_full_nd" v="Klinë e Mesme"/>
    <tag k="name_sort" v="KLINEEMESME"/>
    <tag k="place" v="hamlet"/>
  </node>
  <node id="448707386" version="4" timestamp="2009-09-23T11:43:57Z" uid="131059" user="h4ck3rm1k3" changeset="2594568" lat="42.784722" lon="20.779167">
    <tag k="name" v="Klinë e Mesme"/>
    <tag k="name:old" v="Srednja Klina"/>
    <tag k="name:sq" v="Klinë e Mesme"/>
    <tag k="name:sr" v="Srednja Klina"/>
    <tag k="name_full_nd" v="Srednja Klina"/>
    <tag k="name_full_nd:sq" v="Klinë e Mesme"/>
    <tag k="name_full_nd:sr" v="Srednja Klina"/>
    <tag k="name_sort" v="SREDNJAKLINA"/>
    <tag k="name_sort:sq" v="KLINEEMESME"/>
    <tag k="name_sort:sr" v="SREDNJAKLINA"/>
    <tag k="place" v="hamlet"/>
  </node>
  <node id="448707386" version="5" timestamp="2009-10-12T12:41:24Z" uid="131059" user="h4ck3rm1k3" changeset="2825425" lat="42.784722" lon="20.779167">
    <tag k="name" v="Klinë e Mesme"/>
    <tag k="name:old" v="Srednja Klina"/>
    <tag k="name:sq" v="Klinë e Mesme"/>
    <tag k="name:sr" v="Srednja Klina"/>
    <tag k="name_full_nd" v="Srednja Klina"/>
    <tag k="name_full_nd:sq" v="Klinë e Mesme"/>
    <tag k="name_full_nd:sr" v="Srednja Klina"/>
    <tag k="name_sort" v="SREDNJAKLINA"/>
    <tag k="name_sort:sq" v="KLINEEMESME"/>
    <tag k="name_sort:sr" v="SREDNJAKLINA"/>
    <tag k="place" v="hamlet"/>
  </node>
  <node id="448707475" version="2" timestamp="2009-08-25T09:37:01Z" uid="18775" user="drlizau" changeset="2254250" lat="42.789167" lon="20.953889">
    <tag k="name" v="Navalan"/>
    <tag k="name_full_nd" v="Navalan"/>
    <tag k="name_generic" v=""/>
    <tag k="name_short" v=""/>
    <tag k="name_sort" v="NAVALAN"/>
    <tag k="place" v="hamlet"/>
  </node>
  <node id="448707475" version="3" timestamp="2009-09-11T07:38:23Z" uid="131059" user="h4ck3rm1k3" changeset="2443721" lat="42.789167" lon="20.953889">
    <tag k="name" v="Navalan"/>
    <tag k="name_full_nd" v="Navalan"/>
    <tag k="name_generic" v=""/>
    <tag k="name_short" v=""/>
    <tag k="name_sort" v="NAVALAN"/>
    <tag k="place" v="hamlet"/>
  </node>
  <node id="448707477" version="2" timestamp="2009-08-25T09:37:01Z" uid="18775" user="drlizau" changeset="2254250" lat="42.789167" lon="20.953889">
    <tag k="name" v="Невољане"/>
    <tag k="name_full_nd" v="Невољане"/>
    <tag k="name_generic" v=""/>
    <tag k="name_short" v=""/>
    <tag k="name_sort" v="НЕВОЉАНЕ"/>
    <tag k="place" v="hamlet"/>
  </node>
  <node id="448707477" version="3" timestamp="2009-09-11T07:38:23Z" uid="131059" user="h4ck3rm1k3" changeset="2443721" lat="42.789167" lon="20.953889">
    <tag k="name" v="Невољане"/>
    <tag k="name_full_nd" v="Невољане"/>
    <tag k="name_generic" v=""/>
    <tag k="name_short" v=""/>
    <tag k="name_sort" v="НЕВОЉАНЕ"/>
    <tag k="place" v="hamlet"/>
  </node>
  <node id="448707482" version="2" timestamp="2009-08-25T09:37:00Z" uid="18775" user="drlizau" changeset="2254250" lat="42.775278" lon="20.968889">
    <tag k="name" v="Ресник"/>
    <tag k="name_full_nd" v="Ресник"/>
    <tag k="name_generic" v=""/>
    <tag k="name_short" v=""/>
    <tag k="name_sort" v="РЕСНИК"/>
    <tag k="place" v="hamlet"/>
  </node>
  <node id="448707482" version="3" timestamp="2009-09-11T07:38:12Z" uid="131059" user="h4ck3rm1k3" changeset="2443721" lat="42.775278" lon="20.968889">
    <tag k="altname" v="Reshik"/>
    <tag k="el" v=""/>
    <tag k="geonameid" v="830516"/>
    <tag k="gnadmin" v="00"/>
    <tag k="gnadmin2" v="Kosovo"/>
    <tag k="gnadmin3" v=""/>
    <tag k="gnadmin4" v=""/>
    <tag k="gnfeature" v="P"/>
    <tag k="gnfeaturec" v="PPLL"/>
    <tag k="name" v="Reshik"/>
    <tag k="name2" v="Resnik"/>
    <tag k="name:old" v="Resnik"/>
    <tag k="name:sq" v="Reznik"/>
    <tag k="name:sr" v="Resnik"/>
    <tag k="name_full_nd" v="Reshik"/>
    <tag k="name_full_nd:sq" v="Reznik"/>
    <tag k="name_full_nd:sr" v="Resnik"/>
    <tag k="name_generic" v=""/>
    <tag k="name_generic:sq" v=""/>
    <tag k="name_generic:sr" v=""/>
    <tag k="name_short" v=""/>
    <tag k="name_short:sq" v=""/>
    <tag k="name_short:sr" v=""/>
    <tag k="name_sort" v="RESHIK"/>
    <tag k="name_sort:sq" v="REZNIK"/>
    <tag k="name_sort:sr" v="RESNIK"/>
    <tag k="place" v="hamlet"/>
    <tag k="pop" v="0"/>
  </node>
  <node id="448707482" version="4" timestamp="2009-09-21T08:33:20Z" uid="70696" user="xybot" changeset="2554880" lat="42.775278" lon="20.968889">
    <tag k="altname" v="Reshik"/>
    <tag k="geonameid" v="830516"/>
    <tag k="gnadmin" v="00"/>
    <tag k="gnadmin2" v="Kosovo"/>
    <tag k="gnfeature" v="P"/>
    <tag k="gnfeaturec" v="PPLL"/>
    <tag k="name" v="Reshik"/>
    <tag k="name2" v="Resnik"/>
    <tag k="name:old" v="Resnik"/>
    <tag k="name:sq" v="Reznik"/>
    <tag k="name:sr" v="Resnik"/>
    <tag k="name_full_nd" v="Reshik"/>
    <tag k="name_full_nd:sq" v="Reznik"/>
    <tag k="name_full_nd:sr" v="Resnik"/>
    <tag k="name_sort" v="RESHIK"/>
    <tag k="name_sort:sq" v="REZNIK"/>
    <tag k="name_sort:sr" v="RESNIK"/>
    <tag k="place" v="hamlet"/>
    <tag k="pop" v="0"/>
  </node>
  <node id="448707482" version="5" timestamp="2009-09-23T11:44:08Z" uid="131059" user="h4ck3rm1k3" changeset="2594570" lat="42.775278" lon="20.968889">
    <tag k="altname" v="Reshik"/>
    <tag k="geonameid" v="830516"/>
    <tag k="gnadmin" v="00"/>
    <tag k="gnadmin2" v="Kosovo"/>
    <tag k="gnfeature" v="P"/>
    <tag k="gnfeaturec" v="PPLL"/>
    <tag k="name" v="Reznik"/>
    <tag k="name2" v="Resnik"/>
    <tag k="name:old" v="Reshik"/>
    <tag k="name:sq" v="Reznik"/>
    <tag k="name:sr" v="Resnik"/>
    <tag k="name_full_nd" v="Reshik"/>
    <tag k="name_full_nd:sq" v="Reznik"/>
    <tag k="name_full_nd:sr" v="Resnik"/>
    <tag k="name_sort" v="RESHIK"/>
    <tag k="name_sort:sq" v="REZNIK"/>
    <tag k="name_sort:sr" v="RESNIK"/>
    <tag k="place" v="hamlet"/>
  </node>
  <node id="448707482" version="6" timestamp="2011-03-03T14:53:47Z" uid="135011" user="meti" changeset="7445757" lat="42.775278" lon="20.968889">
    <tag k="altname" v="Reshik"/>
    <tag k="geonameid" v="830516"/>
    <tag k="gnadmin" v="00"/>
    <tag k="gnadmin2" v="Kosovo"/>
    <tag k="gnfeature" v="P"/>
    <tag k="gnfeaturec" v="PPLL"/>
    <tag k="is_in:country" v="Kosovo"/>
    <tag k="name" v="Reznik"/>
    <tag k="name2" v="Resnik"/>
    <tag k="name:old" v="Reshik"/>
    <tag k="name:sq" v="Reznik"/>
    <tag k="name:sr" v="Resnik"/>
    <tag k="name_full_nd" v="Reshik"/>
    <tag k="name_full_nd:sq" v="Reznik"/>
    <tag k="name_full_nd:sr" v="Resnik"/>
    <tag k="name_sort" v="RESHIK"/>
    <tag k="name_sort:sq" v="REZNIK"/>
    <tag k="name_sort:sr" v="RESNIK"/>
    <tag k="place" v="hamlet"/>
  </node>
  <node id="448707485" version="2" timestamp="2009-08-25T09:37:00Z" uid="18775" user="drlizau" changeset="2254250" lat="42.826111" lon="20.931944">
    <tag k="name" v="Shtitatricë"/>
    <tag k="name_full_nd" v="Shtitatricë"/>
    <tag k="name_generic" v=""/>
    <tag k="name_short" v=""/>
    <tag k="name_sort" v="SHTITATRICE"/>
    <tag k="place" v="hamlet"/>
  </node>
  <node id="448707485" version="3" timestamp="2009-09-11T07:30:30Z" uid="131059" user="h4ck3rm1k3" changeset="2443668" lat="42.826111" lon="20.931944">
    <tag k="name" v="Shtitatricë"/>
    <tag k="name_full_nd" v="Shtitatricë"/>
    <tag k="name_generic" v=""/>
    <tag k="name_short" v=""/>
    <tag k="name_sort" v="SHTITATRICE"/>
    <tag k="place" v="hamlet"/>
  </node>
  <node id="448707488" version="2" timestamp="2009-08-25T09:37:00Z" uid="18775" user="drlizau" changeset="2254250" lat="42.874444" lon="21.051667">
    <tag k="name" v="Sllakovce"/>
    <tag k="name_full_nd" v="Sllakovce"/>
    <tag k="name_generic" v=""/>
    <tag k="name_short" v=""/>
    <tag k="name_sort" v="SLLAKOVCE"/>
    <tag k="place" v="hamlet"/>
  </node>
  <node id="448707488" version="3" timestamp="2009-09-21T08:33:21Z" uid="70696" user="xybot" changeset="2554880" lat="42.874444" lon="21.051667">
    <tag k="name" v="Sllakovce"/>
    <tag k="name_full_nd" v="Sllakovce"/>
    <tag k="name_sort" v="SLLAKOVCE"/>
    <tag k="place" v="hamlet"/>
  </node>
  <node id="448707488" version="4" timestamp="2009-09-23T11:37:15Z" uid="131059" user="h4ck3rm1k3" changeset="2594469" lat="42.874444" lon="21.051667">
    <tag k="name" v="Sllakoc"/>
    <tag k="name:old" v="Slakovce"/>
    <tag k="name:sq" v="Sllakoc"/>
    <tag k="name:sr" v="Slakovce"/>
    <tag k="name_full_nd" v="Slakovce"/>
    <tag k="name_full_nd:sq" v="Sllakoc"/>
    <tag k="name_full_nd:sr" v="Slakovce"/>
    <tag k="name_sort" v="SLAKOVCE"/>
    <tag k="name_sort:sq" v="SLLAKOC"/>
    <tag k="name_sort:sr" v="SLAKOVCE"/>
    <tag k="place" v="hamlet"/>
  </node>
  <node id="448707488" version="5" timestamp="2009-10-12T12:38:06Z" uid="131059" user="h4ck3rm1k3" changeset="2825425" lat="42.874444" lon="21.051667">
    <tag k="name" v="Sllakoc"/>
    <tag k="name:old" v="Slakovce"/>
    <tag k="name:sq" v="Sllakoc"/>
    <tag k="name:sr" v="Slakovce"/>
    <tag k="name_full_nd" v="Slakovce"/>
    <tag k="name_full_nd:sq" v="Sllakoc"/>
    <tag k="name_full_nd:sr" v="Slakovce"/>
    <tag k="name_sort" v="SLAKOVCE"/>
    <tag k="name_sort:sq" v="SLLAKOC"/>
    <tag k="name_sort:sr" v="SLAKOVCE"/>
    <tag k="place" v="hamlet"/>
  </node>
  <node id="448707491" version="2" timestamp="2009-08-25T09:37:00Z" uid="18775" user="drlizau" changeset="2254250" lat="42.874444" lon="21.051667">
    <tag k="name" v="Слаковце"/>
    <tag k="name_full_nd" v="Слаковце"/>
    <tag k="name_generic" v=""/>
    <tag k="name_short" v=""/>
    <tag k="name_sort" v="СЛАКОВЦЕ"/>
    <tag k="place" v="hamlet"/>
  </node>
  <node id="448707491" version="3" timestamp="2009-09-21T08:33:21Z" uid="70696" user="xybot" changeset="2554880" lat="42.874444" lon="21.051667">
    <tag k="name" v="Слаковце"/>
    <tag k="name_full_nd" v="Слаковце"/>
    <tag k="name_sort" v="СЛАКОВЦЕ"/>
    <tag k="place" v="hamlet"/>
  </node>
  <node id="448707491" version="4" timestamp="2009-10-12T12:38:05Z" uid="131059" user="h4ck3rm1k3" changeset="2825425" lat="42.874444" lon="21.051667">
    <tag k="name" v="Слаковце"/>
    <tag k="name_full_nd" v="Слаковце"/>
    <tag k="name_sort" v="СЛАКОВЦЕ"/>
    <tag k="place" v="hamlet"/>
  </node>
  <node id="448707493" version="2" timestamp="2009-08-25T09:37:00Z" uid="18775" user="drlizau" changeset="2254250" lat="42.874444" lon="21.051667">
    <tag k="name" v="Slakovce"/>
    <tag k="name_full_nd" v="Slakovce"/>
    <tag k="name_generic" v=""/>
    <tag k="name_short" v=""/>
    <tag k="name_sort" v="SLAKOVCE"/>
    <tag k="place" v="hamlet"/>
  </node>
  <node id="448707493" version="3" timestamp="2009-09-21T08:33:22Z" uid="70696" user="xybot" changeset="2554880" lat="42.874444" lon="21.051667">
    <tag k="name" v="Slakovce"/>
    <tag k="name_full_nd" v="Slakovce"/>
    <tag k="name_sort" v="SLAKOVCE"/>
    <tag k="place" v="hamlet"/>
  </node>
  <node id="448707493" version="4" timestamp="2009-10-12T12:38:05Z" uid="131059" user="h4ck3rm1k3" changeset="2825425" lat="42.874444" lon="21.051667">
    <tag k="name" v="Slakovce"/>
    <tag k="name_full_nd" v="Slakovce"/>
    <tag k="name_sort" v="SLAKOVCE"/>
    <tag k="place" v="hamlet"/>
  </node>
  <node id="448707496" version="2" timestamp="2009-08-25T09:37:00Z" uid="18775" user="drlizau" changeset="2254250" lat="42.915278" lon="21.036111">
    <tag k="name" v="Kurillovë"/>
    <tag k="name_full_nd" v="Kurillovë"/>
    <tag k="name_generic" v=""/>
    <tag k="name_short" v=""/>
    <tag k="name_sort" v="KURILLOVE"/>
    <tag k="place" v="hamlet"/>
  </node>
  <node id="448707496" version="3" timestamp="2009-09-21T08:33:23Z" uid="70696" user="xybot" changeset="2554880" lat="42.915278" lon="21.036111">
    <tag k="name" v="Kurillovë"/>
    <tag k="name_full_nd" v="Kurillovë"/>
    <tag k="name_sort" v="KURILLOVE"/>
    <tag k="place" v="hamlet"/>
  </node>
  <node id="448707496" version="4" timestamp="2009-10-12T12:38:05Z" uid="131059" user="h4ck3rm1k3" changeset="2825425" lat="42.915278" lon="21.036111">
    <tag k="name" v="Kurillovë"/>
    <tag k="name_full_nd" v="Kurillovë"/>
    <tag k="name_sort" v="KURILLOVE"/>
    <tag k="place" v="hamlet"/>
  </node>
  <node id="448707498" version="2" timestamp="2009-08-25T09:37:00Z" uid="18775" user="drlizau" changeset="2254250" lat="42.73" lon="20.905833">
    <tag k="name" v="Kozhicë"/>
    <tag k="name_full_nd" v="Kozhicë"/>
    <tag k="name_generic" v=""/>
    <tag k="name_short" v=""/>
    <tag k="name_sort" v="KOZHICE"/>
    <tag k="place" v="hamlet"/>
  </node>
  <node id="448707498" version="3" timestamp="2009-09-21T08:33:23Z" uid="70696" user="xybot" changeset="2554880" lat="42.73" lon="20.905833">
    <tag k="name" v="Kozhicë"/>
    <tag k="name_full_nd" v="Kozhicë"/>
    <tag k="name_sort" v="KOZHICE"/>
    <tag k="place" v="hamlet"/>
  </node>
  <node id="448707498" version="4" timestamp="2009-10-12T12:38:05Z" uid="131059" user="h4ck3rm1k3" changeset="2825425" lat="42.73" lon="20.905833">
    <tag k="name" v="Kozhicë"/>
    <tag k="name_full_nd" v="Kozhicë"/>
    <tag k="name_sort" v="KOZHICE"/>
    <tag k="place" v="hamlet"/>
  </node>
  <node id="448707502" version="2" timestamp="2009-08-25T09:36:59Z" uid="18775" user="drlizau" changeset="2254250" lat="42.712222" lon="20.834722">
    <tag k="name" v="Ново Пољанце"/>
    <tag k="name_full_nd" v="Ново Пољанце"/>
    <tag k="name_generic" v=""/>
    <tag k="name_short" v=""/>
    <tag k="name_sort" v="НОВОПОЉАНЦЕ"/>
    <tag k="place" v="hamlet"/>
  </node>
  <node id="448707502" version="3" timestamp="2009-09-21T08:33:24Z" uid="70696" user="xybot" changeset="2554880" lat="42.712222" lon="20.834722">
    <tag k="name" v="Ново Пољанце"/>
    <tag k="name_full_nd" v="Ново Пољанце"/>
    <tag k="name_sort" v="НОВОПОЉАНЦЕ"/>
    <tag k="place" v="hamlet"/>
  </node>
  <node id="448707502" version="4" timestamp="2009-09-23T11:44:04Z" uid="131059" user="h4ck3rm1k3" changeset="2594570" lat="42.712222" lon="20.834722">
    <tag k="name" v="Polac i Ri"/>
    <tag k="name:old" v="Novo Poljance"/>
    <tag k="name:sq" v="Polac i Ri"/>
    <tag k="name:sr" v="Novo Poljance"/>
    <tag k="name_full_nd" v="Novo Poljance"/>
    <tag k="name_full_nd:sq" v="Polac i Ri"/>
    <tag k="name_full_nd:sr" v="Novo Poljance"/>
    <tag k="name_sort" v="NOVOPOLJANCE"/>
    <tag k="name_sort:sq" v="POLACIRI"/>
    <tag k="name_sort:sr" v="NOVOPOLJANCE"/>
    <tag k="place" v="hamlet"/>
  </node>
  <node id="448707502" version="5" timestamp="2009-10-12T12:38:37Z" uid="131059" user="h4ck3rm1k3" changeset="2825425" lat="42.712222" lon="20.834722">
    <tag k="name" v="Polac i Ri"/>
    <tag k="name:old" v="Novo Poljance"/>
    <tag k="name:sq" v="Polac i Ri"/>
    <tag k="name:sr" v="Novo Poljance"/>
    <tag k="name_full_nd" v="Novo Poljance"/>
    <tag k="name_full_nd:sq" v="Polac i Ri"/>
    <tag k="name_full_nd:sr" v="Novo Poljance"/>
    <tag k="name_sort" v="NOVOPOLJANCE"/>
    <tag k="name_sort:sq" v="POLACIRI"/>
    <tag k="name_sort:sr" v="NOVOPOLJANCE"/>
    <tag k="place" v="hamlet"/>
  </node>
  <node id="448707533" version="2" timestamp="2009-08-25T09:36:59Z" uid="18775" user="drlizau" changeset="2254250" lat="42.760833" lon="20.790278">
    <tag k="name" v="Доња Клина"/>
    <tag k="name_full_nd" v="Доња Клина"/>
    <tag k="name_generic" v=""/>
    <tag k="name_short" v=""/>
    <tag k="name_sort" v="ДОЊАКЛИНА"/>
    <tag k="place" v="hamlet"/>
  </node>
  <node id="448707533" version="3" timestamp="2009-09-21T08:33:27Z" uid="70696" user="xybot" changeset="2554880" lat="42.760833" lon="20.790278">
    <tag k="name" v="Доња Клина"/>
    <tag k="name_full_nd" v="Доња Клина"/>
    <tag k="name_sort" v="ДОЊАКЛИНА"/>
    <tag k="place" v="hamlet"/>
  </node>
  <node id="448707533" version="4" timestamp="2009-10-12T12:38:20Z" uid="131059" user="h4ck3rm1k3" changeset="2825425" lat="42.760833" lon="20.790278">
    <tag k="name" v="Доња Клина"/>
    <tag k="name_full_nd" v="Доња Клина"/>
    <tag k="name_sort" v="ДОЊАКЛИНА"/>
    <tag k="place" v="hamlet"/>
  </node>
  <node id="448707642" version="2" timestamp="2009-08-25T09:36:34Z" uid="18775" user="drlizau" changeset="2254250" lat="42.780278" lon="21.046667">
    <tag k="name" v="Dumnica e Ultë"/>
    <tag k="name_full_nd" v="Dumnica e Ultë"/>
    <tag k="name_generic" v=""/>
    <tag k="name_short" v=""/>
    <tag k="name_sort" v="DUMNICAEULTE"/>
    <tag k="place" v="hamlet"/>
  </node>
  <node id="448707642" version="3" timestamp="2009-09-11T07:38:18Z" uid="131059" user="h4ck3rm1k3" changeset="2443721" lat="42.780278" lon="21.046667">
    <tag k="name" v="Dumnica e Ultë"/>
    <tag k="name_full_nd" v="Dumnica e Ultë"/>
    <tag k="name_generic" v=""/>
    <tag k="name_short" v=""/>
    <tag k="name_sort" v="DUMNICAEULTE"/>
    <tag k="place" v="hamlet"/>
  </node>
  <node id="448707651" version="2" timestamp="2009-08-25T09:36:34Z" uid="18775" user="drlizau" changeset="2254250" lat="42.796111" lon="21.029722">
    <tag k="name" v="Виљанце"/>
    <tag k="name_full_nd" v="Виљанце"/>
    <tag k="name_generic" v=""/>
    <tag k="name_short" v=""/>
    <tag k="name_sort" v="ВИЉАНЦЕ"/>
    <tag k="place" v="hamlet"/>
  </node>
  <node id="448707651" version="3" timestamp="2009-09-11T07:38:32Z" uid="131059" user="h4ck3rm1k3" changeset="2443721" lat="42.796111" lon="21.029722">
    <tag k="name" v="Виљанце"/>
    <tag k="name_full_nd" v="Виљанце"/>
    <tag k="name_generic" v=""/>
    <tag k="name_short" v=""/>
    <tag k="name_sort" v="ВИЉАНЦЕ"/>
    <tag k="place" v="hamlet"/>
  </node>
  <node id="448707678" version="2" timestamp="2009-08-25T09:36:34Z" uid="18775" user="drlizau" changeset="2254250" lat="42.790833" lon="20.903611">
    <tag k="name" v="Taraxhë"/>
    <tag k="name_full_nd" v="Taraxhë"/>
    <tag k="name_generic" v=""/>
    <tag k="name_short" v=""/>
    <tag k="name_sort" v="TARAXHE"/>
    <tag k="place" v="hamlet"/>
  </node>
  <node id="448707678" version="3" timestamp="2009-09-11T07:38:31Z" uid="131059" user="h4ck3rm1k3" changeset="2443721" lat="42.790833" lon="20.903611">
    <tag k="name" v="Taraxhë"/>
    <tag k="name_full_nd" v="Taraxhë"/>
    <tag k="name_generic" v=""/>
    <tag k="name_short" v=""/>
    <tag k="name_sort" v="TARAXHE"/>
    <tag k="place" v="hamlet"/>
  </node>
  <node id="448707681" version="2" timestamp="2009-08-25T09:36:35Z" uid="18775" user="drlizau" changeset="2254250" lat="42.713611" lon="20.980278">
    <tag k="name" v="Strovce"/>
    <tag k="name_full_nd" v="Strovce"/>
    <tag k="name_generic" v=""/>
    <tag k="name_short" v=""/>
    <tag k="name_sort" v="STROVCE"/>
    <tag k="place" v="hamlet"/>
  </node>
  <node id="448707681" version="3" timestamp="2009-09-21T08:33:35Z" uid="70696" user="xybot" changeset="2554880" lat="42.713611" lon="20.980278">
    <tag k="name" v="Strovce"/>
    <tag k="name_full_nd" v="Strovce"/>
    <tag k="name_sort" v="STROVCE"/>
    <tag k="place" v="hamlet"/>
  </node>
  <node id="448707681" version="4" timestamp="2009-09-23T11:44:07Z" uid="131059" user="h4ck3rm1k3" changeset="2594570" lat="42.713611" lon="20.980278">
    <tag k="name" v="Stroc"/>
    <tag k="name:old" v="Stronce"/>
    <tag k="name:sq" v="Stroc"/>
    <tag k="name:sr" v="Strovce"/>
    <tag k="name_full_nd" v="Stronce"/>
    <tag k="name_full_nd:sq" v="Stroc"/>
    <tag k="name_full_nd:sr" v="Strovce"/>
    <tag k="name_sort" v="STRONCE"/>
    <tag k="name_sort:sq" v="STROC"/>
    <tag k="name_sort:sr" v="STROVCE"/>
    <tag k="place" v="hamlet"/>
  </node>
  <node id="448707681" version="5" timestamp="2009-10-12T12:39:28Z" uid="131059" user="h4ck3rm1k3" changeset="2825425" lat="42.713611" lon="20.980278">
    <tag k="name" v="Stroc"/>
    <tag k="name:old" v="Stronce"/>
    <tag k="name:sq" v="Stroc"/>
    <tag k="name:sr" v="Strovce"/>
    <tag k="name_full_nd" v="Stronce"/>
    <tag k="name_full_nd:sq" v="Stroc"/>
    <tag k="name_full_nd:sr" v="Strovce"/>
    <tag k="name_sort" v="STRONCE"/>
    <tag k="name_sort:sq" v="STROC"/>
    <tag k="name_sort:sr" v="STROVCE"/>
    <tag k="place" v="hamlet"/>
  </node>
  <node id="448707683" version="2" timestamp="2009-08-25T09:36:35Z" uid="18775" user="drlizau" changeset="2254250" lat="42.713611" lon="20.980278">
    <tag k="name" v="Strovc"/>
    <tag k="name_full_nd" v="Strovc"/>
    <tag k="name_generic" v=""/>
    <tag k="name_short" v=""/>
    <tag k="name_sort" v="STROVC"/>
    <tag k="place" v="hamlet"/>
  </node>
  <node id="448707683" version="3" timestamp="2009-09-21T08:33:36Z" uid="70696" user="xybot" changeset="2554880" lat="42.713611" lon="20.980278">
    <tag k="name" v="Strovc"/>
    <tag k="name_full_nd" v="Strovc"/>
    <tag k="name_sort" v="STROVC"/>
    <tag k="place" v="hamlet"/>
  </node>
  <node id="448707683" version="4" timestamp="2009-10-12T12:39:28Z" uid="131059" user="h4ck3rm1k3" changeset="2825425" lat="42.713611" lon="20.980278">
    <tag k="name" v="Strovc"/>
    <tag k="name_full_nd" v="Strovc"/>
    <tag k="name_sort" v="STROVC"/>
    <tag k="place" v="hamlet"/>
  </node>
  <node id="448707685" version="2" timestamp="2009-08-25T09:36:35Z" uid="18775" user="drlizau" changeset="2254250" lat="42.713611" lon="20.980278">
    <tag k="name" v="Strofc"/>
    <tag k="name_full_nd" v="Strofc"/>
    <tag k="name_generic" v=""/>
    <tag k="name_short" v=""/>
    <tag k="name_sort" v="STROFC"/>
    <tag k="place" v="hamlet"/>
  </node>
  <node id="448707685" version="3" timestamp="2009-09-21T08:33:37Z" uid="70696" user="xybot" changeset="2554880" lat="42.713611" lon="20.980278">
    <tag k="name" v="Strofc"/>
    <tag k="name_full_nd" v="Strofc"/>
    <tag k="name_sort" v="STROFC"/>
    <tag k="place" v="hamlet"/>
  </node>
  <node id="448707685" version="4" timestamp="2009-10-12T12:39:27Z" uid="131059" user="h4ck3rm1k3" changeset="2825425" lat="42.713611" lon="20.980278">
    <tag k="name" v="Strofc"/>
    <tag k="name_full_nd" v="Strofc"/>
    <tag k="name_sort" v="STROFC"/>
    <tag k="place" v="hamlet"/>
  </node>
  <node id="448707688" version="2" timestamp="2009-08-25T09:36:35Z" uid="18775" user="drlizau" changeset="2254250" lat="42.713611" lon="20.980278">
    <tag k="name" v="Стровце"/>
    <tag k="name_full_nd" v="Стровце"/>
    <tag k="name_generic" v=""/>
    <tag k="name_short" v=""/>
    <tag k="name_sort" v="СТРОВЦЕ"/>
    <tag k="place" v="hamlet"/>
  </node>
  <node id="448707688" version="3" timestamp="2009-09-21T08:33:37Z" uid="70696" user="xybot" changeset="2554880" lat="42.713611" lon="20.980278">
    <tag k="name" v="Стровце"/>
    <tag k="name_full_nd" v="Стровце"/>
    <tag k="name_sort" v="СТРОВЦЕ"/>
    <tag k="place" v="hamlet"/>
  </node>
  <node id="448707688" version="4" timestamp="2009-10-12T12:39:25Z" uid="131059" user="h4ck3rm1k3" changeset="2825425" lat="42.713611" lon="20.980278">
    <tag k="name" v="Стровце"/>
    <tag k="name_full_nd" v="Стровце"/>
    <tag k="name_sort" v="СТРОВЦЕ"/>
    <tag k="place" v="hamlet"/>
  </node>
  <node id="448707694" version="2" timestamp="2009-08-25T09:36:34Z" uid="18775" user="drlizau" changeset="2254250" lat="42.758611" lon="21.042778">
    <tag k="name" v="Statofc i Epërm"/>
    <tag k="name_full_nd" v="Statofc i Epërm"/>
    <tag k="name_generic" v=""/>
    <tag k="name_short" v=""/>
    <tag k="name_sort" v="STATOFCIEPERM"/>
    <tag k="place" v="hamlet"/>
  </node>
  <node id="448707694" version="3" timestamp="2009-09-11T07:38:18Z" uid="131059" user="h4ck3rm1k3" changeset="2443721" lat="42.758611" lon="21.042778">
    <tag k="name" v="Statofc i Epërm"/>
    <tag k="name_full_nd" v="Statofc i Epërm"/>
    <tag k="name_generic" v=""/>
    <tag k="name_short" v=""/>
    <tag k="name_sort" v="STATOFCIEPERM"/>
    <tag k="place" v="hamlet"/>
  </node>
  <node id="448707834" version="2" timestamp="2009-08-25T09:36:37Z" uid="18775" user="drlizau" changeset="2254250" lat="42.741667" lon="20.761111">
    <tag k="name" v="Lauša"/>
    <tag k="name_full_nd" v="Lauša"/>
    <tag k="name_generic" v=""/>
    <tag k="name_short" v=""/>
    <tag k="name_sort" v="LAUSA"/>
    <tag k="place" v="hamlet"/>
  </node>
  <node id="448707834" version="3" timestamp="2009-09-21T08:33:44Z" uid="70696" user="xybot" changeset="2554880" lat="42.741667" lon="20.761111">
    <tag k="name" v="Lauša"/>
    <tag k="name_full_nd" v="Lauša"/>
    <tag k="name_sort" v="LAUSA"/>
    <tag k="place" v="hamlet"/>
  </node>
  <node id="448707834" version="4" timestamp="2009-10-12T12:37:30Z" uid="131059" user="h4ck3rm1k3" changeset="2825425" lat="42.741667" lon="20.761111">
    <tag k="name" v="Lauša"/>
    <tag k="name_full_nd" v="Lauša"/>
    <tag k="name_sort" v="LAUSA"/>
    <tag k="place" v="hamlet"/>
  </node>
  <node id="448707837" version="2" timestamp="2009-08-25T09:36:37Z" uid="18775" user="drlizau" changeset="2254250" lat="42.741667" lon="20.761111">
    <tag k="name" v="Llaushë"/>
    <tag k="name_full_nd" v="Llaushë"/>
    <tag k="name_generic" v=""/>
    <tag k="name_short" v=""/>
    <tag k="name_sort" v="LLAUSHE"/>
    <tag k="place" v="hamlet"/>
  </node>
  <node id="448707837" version="3" timestamp="2011-03-03T14:50:25Z" uid="135011" user="meti" changeset="7445757" lat="42.741667" lon="20.761111">
    <tag k="is_in:country" v="Kosovo"/>
    <tag k="name" v="Llaushë"/>
    <tag k="name_full_nd" v="Llaushë"/>
    <tag k="name_sort" v="LLAUSHE"/>
    <tag k="place" v="hamlet"/>
  </node>
  <node id="448707881" version="2" timestamp="2009-08-25T09:36:29Z" uid="18775" user="drlizau" changeset="2254250" lat="42.8875" lon="21.173333">
    <tag k="name" v="Llapashticë e Poshtme"/>
    <tag k="name_full_nd" v="Llapashticë e Poshtme"/>
    <tag k="name_generic" v=""/>
    <tag k="name_short" v=""/>
    <tag k="name_sort" v="LLAPASHTICEEPOSHTME"/>
    <tag k="place" v="hamlet"/>
  </node>
  <node id="448707881" version="3" timestamp="2009-09-23T11:37:15Z" uid="131059" user="h4ck3rm1k3" changeset="2594469" lat="42.8875" lon="21.173333">
    <tag k="name" v="Llapashticë e Poshtme"/>
    <tag k="name:old" v="Llapashtice e Poshtëme"/>
    <tag k="name:sq" v="Llapashticë e Poshtme"/>
    <tag k="name:sr" v="Donja Lapaštica"/>
    <tag k="name_full_nd" v="Llapashtice e Poshtëme"/>
    <tag k="name_full_nd:sq" v="Llapashticë e Poshtme"/>
    <tag k="name_full_nd:sr" v="Donja Lapaštica"/>
    <tag k="name_sort" v="LLAPASHTICEEPOSHTEME"/>
    <tag k="name_sort:sq" v="LLAPASHTICEEPOSHTME"/>
    <tag k="name_sort:sr" v="DONJALAPASTICA"/>
    <tag k="place" v="hamlet"/>
  </node>
  <node id="448707881" version="4" timestamp="2009-10-12T12:37:36Z" uid="131059" user="h4ck3rm1k3" changeset="2825425" lat="42.8875" lon="21.173333">
    <tag k="name" v="Llapashticë e Poshtme"/>
    <tag k="name:old" v="Llapashtice e Poshtëme"/>
    <tag k="name:sq" v="Llapashticë e Poshtme"/>
    <tag k="name:sr" v="Donja Lapaštica"/>
    <tag k="name_full_nd" v="Llapashtice e Poshtëme"/>
    <tag k="name_full_nd:sq" v="Llapashticë e Poshtme"/>
    <tag k="name_full_nd:sr" v="Donja Lapaštica"/>
    <tag k="name_sort" v="LLAPASHTICEEPOSHTEME"/>
    <tag k="name_sort:sq" v="LLAPASHTICEEPOSHTME"/>
    <tag k="name_sort:sr" v="DONJALAPASTICA"/>
    <tag k="place" v="hamlet"/>
  </node>
  <node id="448707925" version="2" timestamp="2009-08-25T09:36:29Z" uid="18775" user="drlizau" changeset="2254250" lat="42.785" lon="21.020278">
    <tag k="name" v="Novosellë e Magjunit"/>
    <tag k="name_full_nd" v="Novosellë e Magjunit"/>
    <tag k="name_generic" v=""/>
    <tag k="name_short" v=""/>
    <tag k="name_sort" v="NOVOSELLEEMAGJUNIT"/>
    <tag k="place" v="hamlet"/>
  </node>
  <node id="448707925" version="3" timestamp="2009-09-11T07:38:36Z" uid="131059" user="h4ck3rm1k3" changeset="2443721" lat="42.785" lon="21.020278">
    <tag k="name" v="Novosellë e Magjunit"/>
    <tag k="name_full_nd" v="Novosellë e Magjunit"/>
    <tag k="name_generic" v=""/>
    <tag k="name_short" v=""/>
    <tag k="name_sort" v="NOVOSELLEEMAGJUNIT"/>
    <tag k="place" v="hamlet"/>
  </node>
  <node id="448708075" version="2" timestamp="2009-08-25T09:36:32Z" uid="18775" user="drlizau" changeset="2254250" lat="42.842778" lon="21.2">
    <tag k="name" v="Siboci i Poshtëm"/>
    <tag k="name_full_nd" v="Siboci i Poshtëm"/>
    <tag k="name_generic" v=""/>
    <tag k="name_short" v=""/>
    <tag k="name_sort" v="SIBOCIIPOSHTEM"/>
    <tag k="place" v="hamlet"/>
  </node>
  <node id="448708075" version="3" timestamp="2009-09-23T11:37:16Z" uid="131059" user="h4ck3rm1k3" changeset="2594469" lat="42.842778" lon="21.2">
    <tag k="name" v="Siboc i Poshtëm"/>
    <tag k="name:old" v="Vindeni i Poshtëm"/>
    <tag k="name:sq" v="Siboc i Poshtëm"/>
    <tag k="name:sr" v="Donji Sibovac"/>
    <tag k="name_full_nd" v="Vindeni i Poshtëm"/>
    <tag k="name_full_nd:sq" v="Siboc i Poshtëm"/>
    <tag k="name_full_nd:sr" v="Donji Sibovac"/>
    <tag k="name_sort" v="VINDENIIPOSHTEM"/>
    <tag k="name_sort:sq" v="SIBOCIPOSHTEM"/>
    <tag k="name_sort:sr" v="DONJISIBOVAC"/>
    <tag k="place" v="hamlet"/>
  </node>
  <node id="448708075" version="4" timestamp="2009-09-23T11:37:55Z" uid="131059" user="h4ck3rm1k3" changeset="2594477" lat="42.842778" lon="21.2">
    <tag k="name" v="Siboc i Poshtëm"/>
    <tag k="name:old" v="Vindeni i Poshtëm"/>
    <tag k="name:sq" v="Siboc i Poshtëm"/>
    <tag k="name:sr" v="Donji Sibovac"/>
    <tag k="name_full_nd" v="Vindeni i Poshtëm"/>
    <tag k="name_full_nd:sq" v="Siboc i Poshtëm"/>
    <tag k="name_full_nd:sr" v="Donji Sibovac"/>
    <tag k="name_sort" v="VINDENIIPOSHTEM"/>
    <tag k="name_sort:sq" v="SIBOCIPOSHTEM"/>
    <tag k="name_sort:sr" v="DONJISIBOVAC"/>
    <tag k="place" v="hamlet"/>
  </node>
  <node id="448708075" version="5" timestamp="2009-10-12T12:38:00Z" uid="131059" user="h4ck3rm1k3" changeset="2825425" lat="42.842778" lon="21.2">
    <tag k="name" v="Siboc i Poshtëm"/>
    <tag k="name:old" v="Vindeni i Poshtëm"/>
    <tag k="name:sq" v="Siboc i Poshtëm"/>
    <tag k="name:sr" v="Donji Sibovac"/>
    <tag k="name_full_nd" v="Vindeni i Poshtëm"/>
    <tag k="name_full_nd:sq" v="Siboc i Poshtëm"/>
    <tag k="name_full_nd:sr" v="Donji Sibovac"/>
    <tag k="name_sort" v="VINDENIIPOSHTEM"/>
    <tag k="name_sort:sq" v="SIBOCIPOSHTEM"/>
    <tag k="name_sort:sr" v="DONJISIBOVAC"/>
    <tag k="place" v="hamlet"/>
  </node>
  <node id="448708136" version="2" timestamp="2009-08-25T09:36:46Z" uid="18775" user="drlizau" changeset="2254250" lat="42.9175" lon="21.123056">
    <tag k="name" v="Katunishtë"/>
    <tag k="name_full_nd" v="Katunishtë"/>
    <tag k="name_generic" v=""/>
    <tag k="name_short" v=""/>
    <tag k="name_sort" v="KATUNISHTE"/>
    <tag k="place" v="hamlet"/>
  </node>
  <node id="448708136" version="3" timestamp="2009-09-21T08:34:08Z" uid="70696" user="xybot" changeset="2554880" lat="42.9175" lon="21.123056">
    <tag k="name" v="Katunishtë"/>
    <tag k="name_full_nd" v="Katunishtë"/>
    <tag k="name_sort" v="KATUNISHTE"/>
    <tag k="place" v="hamlet"/>
  </node>
  <node id="448708136" version="4" timestamp="2009-10-12T12:29:46Z" uid="131059" user="h4ck3rm1k3" changeset="2825425" lat="42.9175" lon="21.123056">
    <tag k="name" v="Katunishtë"/>
    <tag k="name_full_nd" v="Katunishtë"/>
    <tag k="name_sort" v="KATUNISHTE"/>
    <tag k="place" v="hamlet"/>
  </node>
  <node id="448708157" version="2" timestamp="2009-08-25T09:36:46Z" uid="18775" user="drlizau" changeset="2254250" lat="42.833611" lon="21.1575">
    <tag k="name" v="Godišnjak"/>
    <tag k="name_full_nd" v="Godišnjak"/>
    <tag k="name_generic" v=""/>
    <tag k="name_short" v=""/>
    <tag k="name_sort" v="GODISNJAK"/>
    <tag k="place" v="hamlet"/>
  </node>
  <node id="448708157" version="3" timestamp="2009-09-21T08:34:09Z" uid="70696" user="xybot" changeset="2554880" lat="42.833611" lon="21.1575">
    <tag k="name" v="Godišnjak"/>
    <tag k="name_full_nd" v="Godišnjak"/>
    <tag k="name_sort" v="GODISNJAK"/>
    <tag k="place" v="hamlet"/>
  </node>
  <node id="448708157" version="4" timestamp="2009-10-12T12:29:43Z" uid="131059" user="h4ck3rm1k3" changeset="2825425" lat="42.833611" lon="21.1575">
    <tag k="name" v="Godišnjak"/>
    <tag k="name_full_nd" v="Godišnjak"/>
    <tag k="name_sort" v="GODISNJAK"/>
    <tag k="place" v="hamlet"/>
  </node>
  <node id="448708202" version="3" timestamp="2009-08-25T09:36:46Z" uid="18775" user="drlizau" changeset="2254250" lat="42.926944" lon="20.810556">
    <tag k="KADASTRA" v="Zveçan"/>
    <tag k="altname" v="Dolan,Doljani"/>
    <tag k="el" v=""/>
    <tag k="geonameid" v="791377"/>
    <tag k="gnadmin" v="00"/>
    <tag k="gnadmin2" v="Kosovo"/>
    <tag k="gnadmin3" v=""/>
    <tag k="gnadmin4" v=""/>
    <tag k="gnfeature" v="P"/>
    <tag k="gnfeaturec" v="PPL"/>
    <tag k="name" v="Dolan"/>
    <tag k="name2" v="Doljane"/>
    <tag k="name:sq" v="Dolan"/>
    <tag k="name:sr" v="Doljane"/>
    <tag k="name_full_nd" v="Dolan"/>
    <tag k="name_full_nd:sq" v="Dolan"/>
    <tag k="name_full_nd:sr" v="Doljane"/>
    <tag k="name_generic" v=""/>
    <tag k="name_generic:sq" v=""/>
    <tag k="name_generic:sr" v=""/>
    <tag k="name_short" v=""/>
    <tag k="name_short:sq" v=""/>
    <tag k="name_short:sr" v=""/>
    <tag k="name_sort" v="DOLAN"/>
    <tag k="name_sort:sq" v="DOLAN"/>
    <tag k="name_sort:sr" v="DOLJANE"/>
    <tag k="place" v="village"/>
    <tag k="pop" v="0"/>
  </node>
  <node id="448708202" version="4" timestamp="2009-09-21T08:34:14Z" uid="70696" user="xybot" changeset="2554880" lat="42.926944" lon="20.810556">
    <tag k="KADASTRA" v="Zveçan"/>
    <tag k="altname" v="Dolan,Doljani"/>
    <tag k="geonameid" v="791377"/>
    <tag k="gnadmin" v="00"/>
    <tag k="gnadmin2" v="Kosovo"/>
    <tag k="gnfeature" v="P"/>
    <tag k="gnfeaturec" v="PPL"/>
    <tag k="name" v="Dolan"/>
    <tag k="name2" v="Doljane"/>
    <tag k="name:sq" v="Dolan"/>
    <tag k="name:sr" v="Doljane"/>
    <tag k="name_full_nd" v="Dolan"/>
    <tag k="name_full_nd:sq" v="Dolan"/>
    <tag k="name_full_nd:sr" v="Doljane"/>
    <tag k="name_sort" v="DOLAN"/>
    <tag k="name_sort:sq" v="DOLAN"/>
    <tag k="name_sort:sr" v="DOLJANE"/>
    <tag k="place" v="village"/>
    <tag k="pop" v="0"/>
  </node>
  <node id="448708202" version="5" timestamp="2011-03-03T15:43:49Z" uid="135011" user="meti" changeset="7446346" lat="42.926944" lon="20.810556">
    <tag k="KADASTRA" v="Zveçan"/>
    <tag k="altname" v="Dolan,Doljani"/>
    <tag k="geonameid" v="791377"/>
    <tag k="gnadmin" v="00"/>
    <tag k="gnadmin2" v="Kosovo"/>
    <tag k="gnfeature" v="P"/>
    <tag k="gnfeaturec" v="PPL"/>
    <tag k="is_in" v="Kosovo"/>
    <tag k="name" v="Dolan"/>
    <tag k="name2" v="Doljane"/>
    <tag k="name:sq" v="Dolan"/>
    <tag k="name:sr" v="Doljane"/>
    <tag k="name_full_nd" v="Dolan"/>
    <tag k="name_full_nd:sq" v="Dolan"/>
    <tag k="name_full_nd:sr" v="Doljane"/>
    <tag k="name_sort" v="DOLAN"/>
    <tag k="name_sort:sq" v="DOLAN"/>
    <tag k="name_sort:sr" v="DOLJANE"/>
    <tag k="place" v="village"/>
    <tag k="pop" v="0"/>
  </node>
  <node id="448708202" version="6" timestamp="2011-03-03T18:54:28Z" uid="70696" user="xybot" changeset="7448288" lat="42.926944" lon="20.810556">
    <tag k="KADASTRA" v="Zveçan"/>
    <tag k="altname" v="Dolan,Doljani"/>
    <tag k="geonameid" v="791377"/>
    <tag k="gnadmin" v="00"/>
    <tag k="gnadmin2" v="Kosovo"/>
    <tag k="gnfeature" v="P"/>
    <tag k="gnfeaturec" v="PPL"/>
    <tag k="is_in" v="Kosovo"/>
    <tag k="name" v="Dolan"/>
    <tag k="name2" v="Doljane"/>
    <tag k="name:sq" v="Dolan"/>
    <tag k="name:sr" v="Doljane"/>
    <tag k="name_full_nd" v="Dolan"/>
    <tag k="name_full_nd:sq" v="Dolan"/>
    <tag k="name_full_nd:sr" v="Doljane"/>
    <tag k="name_sort" v="DOLAN"/>
    <tag k="name_sort:sq" v="DOLAN"/>
    <tag k="name_sort:sr" v="DOLJANE"/>
    <tag k="place" v="village"/>
    <tag k="population" v="0"/>
  </node>
  <node id="448708202" version="7" timestamp="2011-10-02T21:51:19Z" uid="493902" user="Christophorus" changeset="9455355" lat="42.926944" lon="20.810556">
    <tag k="KADASTRA" v="Zveçan"/>
    <tag k="altname" v="Dolan,Doljani"/>
    <tag k="geonameid" v="791377"/>
    <tag k="gnadmin" v="00"/>
    <tag k="gnadmin2" v="Kosovo"/>
    <tag k="gnfeature" v="P"/>
    <tag k="gnfeaturec" v="PPL"/>
    <tag k="is_in" v="Serbia"/>
    <tag k="name" v="Дољане "/>
    <tag k="name2" v="Doljane"/>
    <tag k="name:sq" v="Dolan"/>
    <tag k="name:sr" v="Doljane"/>
    <tag k="name_full_nd" v="Dolan"/>
    <tag k="name_full_nd:sq" v="Dolan"/>
    <tag k="name_full_nd:sr" v="Doljane"/>
    <tag k="name_sort" v="DOLAN"/>
    <tag k="name_sort:sq" v="DOLAN"/>
    <tag k="name_sort:sr" v="DOLJANE"/>
    <tag k="place" v="village"/>
    <tag k="population" v="0"/>
  </node>
  <node id="448708202" version="8" timestamp="2011-10-03T17:37:34Z" uid="70696" user="xybot" changeset="9462358" lat="42.926944" lon="20.810556">
    <tag k="KADASTRA" v="Zveçan"/>
    <tag k="altname" v="Dolan,Doljani"/>
    <tag k="geonameid" v="791377"/>
    <tag k="gnadmin" v="00"/>
    <tag k="gnadmin2" v="Kosovo"/>
    <tag k="gnfeature" v="P"/>
    <tag k="gnfeaturec" v="PPL"/>
    <tag k="is_in" v="Serbia"/>
    <tag k="name" v="Дољане"/>
    <tag k="name2" v="Doljane"/>
    <tag k="name:sq" v="Dolan"/>
    <tag k="name:sr" v="Doljane"/>
    <tag k="name_full_nd" v="Dolan"/>
    <tag k="name_full_nd:sq" v="Dolan"/>
    <tag k="name_full_nd:sr" v="Doljane"/>
    <tag k="name_sort" v="DOLAN"/>
    <tag k="name_sort:sq" v="DOLAN"/>
    <tag k="name_sort:sr" v="DOLJANE"/>
    <tag k="place" v="village"/>
    <tag k="population" v="0"/>
  </node>
  <node id="448708202" version="9" timestamp="2011-11-16T18:00:42Z" uid="527441" user="dromedar" changeset="9847084" lat="42.926944" lon="20.810556">
    <tag k="KADASTRA" v="Zveçan"/>
    <tag k="altname" v="Dolan,Doljani"/>
    <tag k="geonameid" v="791377"/>
    <tag k="gnadmin" v="00"/>
    <tag k="gnadmin2" v="Kosovo"/>
    <tag k="gnfeature" v="P"/>
    <tag k="gnfeaturec" v="PPL"/>
    <tag k="is_in" v="Serbia"/>
    <tag k="name" v="Doljane (Dolan)"/>
    <tag k="name2" v="Doljane"/>
    <tag k="name:sq" v="Dolan"/>
    <tag k="name:sr" v="Doljane"/>
    <tag k="name_full_nd" v="Dolan"/>
    <tag k="name_full_nd:sq" v="Dolan"/>
    <tag k="name_full_nd:sr" v="Doljane"/>
    <tag k="name_sort" v="DOLAN"/>
    <tag k="name_sort:sq" v="DOLAN"/>
    <tag k="name_sort:sr" v="DOLJANE"/>
    <tag k="place" v="village"/>
    <tag k="population" v="0"/>
  </node>
  <node id="448708202" version="10" timestamp="2011-12-02T09:29:19Z" uid="233197" user="SkyBon" changeset="10015200" lat="42.926944" lon="20.810556">
    <tag k="KADASTRA" v="Zveçan"/>
    <tag k="altname" v="Dolan,Doljani"/>
    <tag k="geonameid" v="791377"/>
    <tag k="gnadmin" v="00"/>
    <tag k="gnadmin2" v="Kosovo"/>
    <tag k="gnfeature" v="P"/>
    <tag k="gnfeaturec" v="PPL"/>
    <tag k="is_in" v="Serbia"/>
    <tag k="name" v="Doljane"/>
    <tag k="name2" v="Doljane"/>
    <tag k="name:sq" v="Dolan"/>
    <tag k="name:sr" v="Doljane"/>
    <tag k="name_full_nd" v="Dolan"/>
    <tag k="name_full_nd:sq" v="Dolan"/>
    <tag k="name_full_nd:sr" v="Doljane"/>
    <tag k="name_sort" v="DOLAN"/>
    <tag k="name_sort:sq" v="DOLAN"/>
    <tag k="name_sort:sr" v="DOLJANE"/>
    <tag k="place" v="village"/>
    <tag k="population" v="0"/>
  </node>
  <node id="448708202" version="11" timestamp="2012-02-13T21:16:37Z" uid="493902" user="Christophorus" changeset="10677756" lat="42.926944" lon="20.810556">
    <tag k="KADASTRA" v="Zveçan"/>
    <tag k="altname" v="Dolan,Doljani"/>
    <tag k="geonameid" v="791377"/>
    <tag k="gnadmin" v="00"/>
    <tag k="gnadmin2" v="Kosovo"/>
    <tag k="gnfeature" v="P"/>
    <tag k="gnfeaturec" v="PPL"/>
    <tag k="is_in" v="Serbia"/>
    <tag k="name" v="Дољане"/>
    <tag k="name2" v="Doljane"/>
    <tag k="name:sq" v="Dolan"/>
    <tag k="name:sr" v="Doljane"/>
    <tag k="name_full_nd" v="Dolan"/>
    <tag k="name_full_nd:sq" v="Dolan"/>
    <tag k="name_full_nd:sr" v="Doljane"/>
    <tag k="name_sort" v="DOLAN"/>
    <tag k="name_sort:sq" v="DOLAN"/>
    <tag k="name_sort:sr" v="DOLJANE"/>
    <tag k="place" v="village"/>
    <tag k="population" v="0"/>
  </node>
  <node id="448708255" version="2" timestamp="2009-08-25T09:36:48Z" uid="18775" user="drlizau" changeset="2254250" lat="42.831944" lon="20.732778">
    <tag k="name" v="Kërligatë"/>
    <tag k="name_full_nd" v="Kërligatë"/>
    <tag k="name_generic" v=""/>
    <tag k="name_short" v=""/>
    <tag k="name_sort" v="KERLIGATE"/>
    <tag k="place" v="hamlet"/>
  </node>
  <node id="448708255" version="3" timestamp="2009-09-21T08:34:19Z" uid="70696" user="xybot" changeset="2554880" lat="42.831944" lon="20.732778">
    <tag k="name" v="Kërligatë"/>
    <tag k="name_full_nd" v="Kërligatë"/>
    <tag k="name_sort" v="KERLIGATE"/>
    <tag k="place" v="hamlet"/>
  </node>
  <node id="448708255" version="4" timestamp="2009-09-23T11:34:52Z" uid="131059" user="h4ck3rm1k3" changeset="2594444" lat="42.831944" lon="20.732778">
    <tag k="name" v="Kërligatë"/>
    <tag k="name:old" v="Krligati"/>
    <tag k="name:sq" v="Kërligatë"/>
    <tag k="name:sr" v="Krljigate"/>
    <tag k="name_full_nd" v="Krligati"/>
    <tag k="name_full_nd:sq" v="Kërligatë"/>
    <tag k="name_full_nd:sr" v="Krljigate"/>
    <tag k="name_sort" v="KRLIGATI"/>
    <tag k="name_sort:sq" v="KERLIGATE"/>
    <tag k="name_sort:sr" v="KRLJIGATE"/>
    <tag k="place" v="hamlet"/>
  </node>
  <node id="448708255" version="5" timestamp="2009-10-12T12:28:50Z" uid="131059" user="h4ck3rm1k3" changeset="2825425" lat="42.831944" lon="20.732778">
    <tag k="name" v="Kërligatë"/>
    <tag k="name:old" v="Krligati"/>
    <tag k="name:sq" v="Kërligatë"/>
    <tag k="name:sr" v="Krljigate"/>
    <tag k="name_full_nd" v="Krligati"/>
    <tag k="name_full_nd:sq" v="Kërligatë"/>
    <tag k="name_full_nd:sr" v="Krljigate"/>
    <tag k="name_sort" v="KRLIGATI"/>
    <tag k="name_sort:sq" v="KERLIGATE"/>
    <tag k="name_sort:sr" v="KRLJIGATE"/>
    <tag k="place" v="hamlet"/>
  </node>
  <node id="448708257" version="2" timestamp="2009-08-25T09:36:47Z" uid="18775" user="drlizau" changeset="2254250" lat="42.831944" lon="20.732778">
    <tag k="name" v="Krljigate"/>
    <tag k="name_full_nd" v="Krljigate"/>
    <tag k="name_generic" v=""/>
    <tag k="name_short" v=""/>
    <tag k="name_sort" v="KRLJIGATE"/>
    <tag k="place" v="hamlet"/>
  </node>
  <node id="448708257" version="3" timestamp="2009-09-21T08:34:19Z" uid="70696" user="xybot" changeset="2554880" lat="42.831944" lon="20.732778">
    <tag k="name" v="Krljigate"/>
    <tag k="name_full_nd" v="Krljigate"/>
    <tag k="name_sort" v="KRLJIGATE"/>
    <tag k="place" v="hamlet"/>
  </node>
  <node id="448708257" version="4" timestamp="2009-10-12T12:28:50Z" uid="131059" user="h4ck3rm1k3" changeset="2825425" lat="42.831944" lon="20.732778">
    <tag k="name" v="Krljigate"/>
    <tag k="name_full_nd" v="Krljigate"/>
    <tag k="name_sort" v="KRLJIGATE"/>
    <tag k="place" v="hamlet"/>
  </node>
  <node id="448708649" version="2" timestamp="2009-08-25T09:34:58Z" uid="18775" user="drlizau" changeset="2254250" lat="42.910556" lon="21.193056">
    <tag k="name" v="Podujevë"/>
    <tag k="name_full_nd" v="Podujevë"/>
    <tag k="name_generic" v=""/>
    <tag k="name_short" v=""/>
    <tag k="name_sort" v="PODUJEVE"/>
    <tag k="place" v="hamlet"/>
  </node>
  <node id="448708649" version="3" timestamp="2009-09-21T08:34:41Z" uid="70696" user="xybot" changeset="2554880" lat="42.910556" lon="21.193056">
    <tag k="name" v="Podujevë"/>
    <tag k="name_full_nd" v="Podujevë"/>
    <tag k="name_sort" v="PODUJEVE"/>
    <tag k="place" v="hamlet"/>
  </node>
  <node id="448708649" version="4" timestamp="2009-09-23T11:37:13Z" uid="131059" user="h4ck3rm1k3" changeset="2594469" lat="42.910556" lon="21.193056">
    <tag k="name" v="Podujevë"/>
    <tag k="name:old" v="Podujeva"/>
    <tag k="name:sq" v="Podujevë"/>
    <tag k="name:sr" v="Podujevo"/>
    <tag k="name_full_nd" v="Podujeva"/>
    <tag k="name_full_nd:sq" v="Podujevë"/>
    <tag k="name_full_nd:sr" v="Podujevo"/>
    <tag k="name_sort" v="PODUJEVA"/>
    <tag k="name_sort:sq" v="PODUJEVE"/>
    <tag k="name_sort:sr" v="PODUJEVO"/>
    <tag k="place" v="hamlet"/>
  </node>
  <node id="448708649" version="5" timestamp="2009-10-12T12:33:07Z" uid="131059" user="h4ck3rm1k3" changeset="2825425" lat="42.910556" lon="21.193056">
    <tag k="name" v="Podujevë"/>
    <tag k="name:old" v="Podujeva"/>
    <tag k="name:sq" v="Podujevë"/>
    <tag k="name:sr" v="Podujevo"/>
    <tag k="name_full_nd" v="Podujeva"/>
    <tag k="name_full_nd:sq" v="Podujevë"/>
    <tag k="name_full_nd:sr" v="Podujevo"/>
    <tag k="name_sort" v="PODUJEVA"/>
    <tag k="name_sort:sq" v="PODUJEVE"/>
    <tag k="name_sort:sr" v="PODUJEVO"/>
    <tag k="place" v="hamlet"/>
  </node>
  <node id="448708790" version="2" timestamp="2009-08-25T09:35:02Z" uid="18775" user="drlizau" changeset="2254250" lat="42.842778" lon="21.151667">
    <tag k="name" v="Penduh"/>
    <tag k="name_full_nd" v="Penduh"/>
    <tag k="name_generic" v=""/>
    <tag k="name_short" v=""/>
    <tag k="name_sort" v="PENDUH"/>
    <tag k="place" v="hamlet"/>
  </node>
  <node id="448708790" version="3" timestamp="2009-09-21T08:34:54Z" uid="70696" user="xybot" changeset="2554880" lat="42.842778" lon="21.151667">
    <tag k="name" v="Penduh"/>
    <tag k="name_full_nd" v="Penduh"/>
    <tag k="name_sort" v="PENDUH"/>
    <tag k="place" v="hamlet"/>
  </node>
  <node id="448708790" version="4" timestamp="2009-10-12T12:32:09Z" uid="131059" user="h4ck3rm1k3" changeset="2825425" lat="42.842778" lon="21.151667">
    <tag k="name" v="Penduh"/>
    <tag k="name_full_nd" v="Penduh"/>
    <tag k="name_sort" v="PENDUH"/>
    <tag k="place" v="hamlet"/>
  </node>
  <node id="448708822" version="2" timestamp="2009-08-25T09:17:49Z" uid="18775" user="drlizau" changeset="2254105" lat="42.686667" lon="20.780556">
    <tag k="elevation" v=""/>
    <tag k="name" v="Kodres Mahala"/>
    <tag k="name:sr" v="Kodres Mahala"/>
    <tag k="name_full_nd" v="Kodres Mahala"/>
    <tag k="name_full_nd:sr" v="Kodres Mahala"/>
    <tag k="name_generic" v=""/>
    <tag k="name_short" v=""/>
    <tag k="name_sort" v="KODRESMAHALA"/>
    <tag k="name_sort:sr" v="KODRESMAHALA"/>
    <tag k="place" v="hamlet"/>
  </node>
  <node id="448708822" version="3" timestamp="2009-08-25T09:35:04Z" uid="18775" user="drlizau" changeset="2254250" lat="42.686667" lon="20.780556">
    <tag k="name" v="Kodres Mahala"/>
    <tag k="name:sr" v="Kodres Mahala"/>
    <tag k="name_full_nd" v="Kodres Mahala"/>
    <tag k="name_full_nd:sr" v="Kodres Mahala"/>
    <tag k="name_generic" v=""/>
    <tag k="name_short" v=""/>
    <tag k="name_sort" v="KODRESMAHALA"/>
    <tag k="name_sort:sr" v="KODRESMAHALA"/>
    <tag k="place" v="hamlet"/>
  </node>
  <node id="448708822" version="4" timestamp="2009-09-21T08:35:01Z" uid="70696" user="xybot" changeset="2554880" lat="42.686667" lon="20.780556">
    <tag k="name" v="Kodres Mahala"/>
    <tag k="name:sr" v="Kodres Mahala"/>
    <tag k="name_full_nd" v="Kodres Mahala"/>
    <tag k="name_full_nd:sr" v="Kodres Mahala"/>
    <tag k="name_sort" v="KODRESMAHALA"/>
    <tag k="name_sort:sr" v="KODRESMAHALA"/>
    <tag k="place" v="hamlet"/>
  </node>
  <node id="448708822" version="5" timestamp="2009-10-12T12:30:59Z" uid="131059" user="h4ck3rm1k3" changeset="2825425" lat="42.686667" lon="20.780556">
    <tag k="name" v="Kodres Mahala"/>
    <tag k="name:sr" v="Kodres Mahala"/>
    <tag k="name_full_nd" v="Kodres Mahala"/>
    <tag k="name_full_nd:sr" v="Kodres Mahala"/>
    <tag k="name_sort" v="KODRESMAHALA"/>
    <tag k="name_sort:sr" v="KODRESMAHALA"/>
    <tag k="place" v="hamlet"/>
  </node>
  <node id="448708825" version="3" timestamp="2009-08-25T09:35:04Z" uid="18775" user="drlizau" changeset="2254250" lat="43.051667" lon="20.810556">
    <tag k="altname" v="Socanica,Sočanica,Stanica Socanica,Stanica Sočanica"/>
    <tag k="el" v=""/>
    <tag k="geonameid" v="830994"/>
    <tag k="gnadmin" v="00"/>
    <tag k="gnadmin2" v="Kosovo"/>
    <tag k="gnfeature" v="S"/>
    <tag k="gnfeaturec" v="RSTN"/>
    <tag k="name" v="Sočanica"/>
    <tag k="name2" v="Železnička Stanica Sočanica"/>
    <tag k="name:sr" v="Železnička Stanica Sočanica"/>
    <tag k="name_full_nd" v="Sočanica"/>
    <tag k="name_full_nd:sr" v="Železnička Stanica Sočanica"/>
    <tag k="name_generic" v="Železnička Stanica"/>
    <tag k="name_generic:sr" v="Železnička Stanica"/>
    <tag k="name_short" v="Sočanica"/>
    <tag k="name_short:sr" v="Sočanica"/>
    <tag k="name_sort" v="SOCANICA"/>
    <tag k="name_sort:sr" v="ZELEZNICKASTANICASOCANICA"/>
    <tag k="place" v="hamlet"/>
    <tag k="pop" v="0"/>
    <tag k="railway" v="station"/>
  </node>
  <node id="448708825" version="4" timestamp="2009-08-28T12:54:06Z" uid="9176" user="Maarten Deen" changeset="2289841" lat="43.0512897" lon="20.8103265">
    <tag k="altname" v="Socanica,Sočanica,Stanica Socanica,Stanica Sočanica"/>
    <tag k="el" v=""/>
    <tag k="geonameid" v="830994"/>
    <tag k="gnadmin" v="00"/>
    <tag k="gnadmin2" v="Kosovo"/>
    <tag k="gnfeature" v="S"/>
    <tag k="gnfeaturec" v="RSTN"/>
    <tag k="name" v="Sočanica"/>
    <tag k="name2" v="Železnička Stanica Sočanica"/>
    <tag k="name:sr" v="Železnička Stanica Sočanica"/>
    <tag k="name_full_nd" v="Sočanica"/>
    <tag k="name_full_nd:sr" v="Železnička Stanica Sočanica"/>
    <tag k="name_generic" v="Železnička Stanica"/>
    <tag k="name_generic:sr" v="Železnička Stanica"/>
    <tag k="name_short" v="Sočanica"/>
    <tag k="name_short:sr" v="Sočanica"/>
    <tag k="name_sort" v="SOCANICA"/>
    <tag k="name_sort:sr" v="ZELEZNICKASTANICASOCANICA"/>
    <tag k="place" v="hamlet"/>
    <tag k="pop" v="0"/>
    <tag k="railway" v="station"/>
  </node>
  <node id="448708825" version="5" timestamp="2009-09-21T08:35:02Z" uid="70696" user="xybot" changeset="2554880" lat="43.0512897" lon="20.8103265">
    <tag k="altname" v="Socanica,Sočanica,Stanica Socanica,Stanica Sočanica"/>
    <tag k="geonameid" v="830994"/>
    <tag k="gnadmin" v="00"/>
    <tag k="gnadmin2" v="Kosovo"/>
    <tag k="gnfeature" v="S"/>
    <tag k="gnfeaturec" v="RSTN"/>
    <tag k="name" v="Sočanica"/>
    <tag k="name2" v="Železnička Stanica Sočanica"/>
    <tag k="name:sr" v="Železnička Stanica Sočanica"/>
    <tag k="name_full_nd" v="Sočanica"/>
    <tag k="name_full_nd:sr" v="Železnička Stanica Sočanica"/>
    <tag k="name_generic" v="Železnička Stanica"/>
    <tag k="name_generic:sr" v="Železnička Stanica"/>
    <tag k="name_short" v="Sočanica"/>
    <tag k="name_short:sr" v="Sočanica"/>
    <tag k="name_sort" v="SOCANICA"/>
    <tag k="name_sort:sr" v="ZELEZNICKASTANICASOCANICA"/>
    <tag k="place" v="hamlet"/>
    <tag k="pop" v="0"/>
    <tag k="railway" v="station"/>
  </node>
  <node id="448708825" version="6" timestamp="2011-03-03T14:52:02Z" uid="135011" user="meti" changeset="7445757" lat="43.0512897" lon="20.8103265">
    <tag k="altname" v="Socanica,Sočanica,Stanica Socanica,Stanica Sočanica"/>
    <tag k="geonameid" v="830994"/>
    <tag k="gnadmin" v="00"/>
    <tag k="gnadmin2" v="Kosovo"/>
    <tag k="gnfeature" v="S"/>
    <tag k="gnfeaturec" v="RSTN"/>
    <tag k="is_in:country" v="Kosovo"/>
    <tag k="name" v="Sočanica"/>
    <tag k="name2" v="Železnička Stanica Sočanica"/>
    <tag k="name:sr" v="Železnička Stanica Sočanica"/>
    <tag k="name_full_nd" v="Sočanica"/>
    <tag k="name_full_nd:sr" v="Železnička Stanica Sočanica"/>
    <tag k="name_generic" v="Železnička Stanica"/>
    <tag k="name_generic:sr" v="Železnička Stanica"/>
    <tag k="name_short" v="Sočanica"/>
    <tag k="name_short:sr" v="Sočanica"/>
    <tag k="name_sort" v="SOCANICA"/>
    <tag k="name_sort:sr" v="ZELEZNICKASTANICASOCANICA"/>
    <tag k="place" v="hamlet"/>
    <tag k="pop" v="0"/>
    <tag k="railway" v="station"/>
  </node>
  <node id="448708825" version="7" timestamp="2011-03-03T18:49:05Z" uid="70696" user="xybot" changeset="7448288" lat="43.0512897" lon="20.8103265">
    <tag k="altname" v="Socanica,Sočanica,Stanica Socanica,Stanica Sočanica"/>
    <tag k="geonameid" v="830994"/>
    <tag k="gnadmin" v="00"/>
    <tag k="gnadmin2" v="Kosovo"/>
    <tag k="gnfeature" v="S"/>
    <tag k="gnfeaturec" v="RSTN"/>
    <tag k="is_in:country" v="Kosovo"/>
    <tag k="name" v="Sočanica"/>
    <tag k="name2" v="Železnička Stanica Sočanica"/>
    <tag k="name:sr" v="Železnička Stanica Sočanica"/>
    <tag k="name_full_nd" v="Sočanica"/>
    <tag k="name_full_nd:sr" v="Železnička Stanica Sočanica"/>
    <tag k="name_generic" v="Železnička Stanica"/>
    <tag k="name_generic:sr" v="Železnička Stanica"/>
    <tag k="name_short" v="Sočanica"/>
    <tag k="name_short:sr" v="Sočanica"/>
    <tag k="name_sort" v="SOCANICA"/>
    <tag k="name_sort:sr" v="ZELEZNICKASTANICASOCANICA"/>
    <tag k="place" v="hamlet"/>
    <tag k="population" v="0"/>
    <tag k="railway" v="station"/>
  </node>
  <node id="448708833" version="8" timestamp="2009-08-25T08:02:06Z" uid="18775" user="drlizau" changeset="2253357" lat="42.658056" lon="21.149444">
    <tag k="geonameid" v="832770"/>
    <tag k="gnadmin" v="00"/>
    <tag k="gnadmin2" v="Kosovo"/>
    <tag k="gnfeature" v="S"/>
    <tag k="gnfeaturec" v="RSTN"/>
    <tag k="name" v="Stanica Pristina"/>
    <tag k="name:en:alt" v="Stanica Priština"/>
    <tag k="name_full_nd" v="Stanica Priština"/>
    <tag k="name_generic" v="Stanica"/>
    <tag k="name_sort" v="STANICAPRISTINA"/>
    <tag k="railway" v="station"/>
  </node>
  <node id="448708833" version="9" timestamp="2009-12-11T14:48:39Z" uid="136042" user="Gent" changeset="3349436" lat="42.658056" lon="21.149444">
    <tag k="geonameid" v="832770"/>
    <tag k="gnadmin" v="00"/>
    <tag k="gnadmin2" v="Kosovo"/>
    <tag k="gnfeature" v="S"/>
    <tag k="gnfeaturec" v="RSTN"/>
    <tag k="name" v="Prishtina Railway"/>
    <tag k="name:en:alt" v="Prishtina Railway"/>
    <tag k="name_full_nd" v="Prishtina Railway"/>
    <tag k="name_generic" v="Prishtina Railway"/>
    <tag k="name_sort" v="Prishtina Railway"/>
    <tag k="railway" v="Prishtina Railway"/>
  </node>
  <node id="448708833" version="10" timestamp="2010-01-28T10:23:02Z" uid="131059" user="h4ck3rm1k3" changeset="3734445" lat="42.6578859" lon="21.1496575">
    <tag k="geonameid" v="832770"/>
    <tag k="gnadmin" v="00"/>
    <tag k="gnadmin2" v="Kosovo"/>
    <tag k="gnfeature" v="S"/>
    <tag k="gnfeaturec" v="RSTN"/>
    <tag k="name" v="Prishtina Railway"/>
    <tag k="name:en:alt" v="Prishtina Railway"/>
    <tag k="name_full_nd" v="Prishtina Railway"/>
    <tag k="name_generic" v="Prishtina Railway"/>
    <tag k="name_sort" v="Prishtina Railway"/>
    <tag k="railway" v="Prishtina Railway"/>
  </node>
  <node id="448708833" version="11" timestamp="2010-02-20T07:36:15Z" uid="131059" user="h4ck3rm1k3" changeset="3920933" lat="42.6578859" lon="21.1496575">
    <tag k="geonameid" v="832770"/>
    <tag k="gns:gnadmin" v="00"/>
    <tag k="gns:gnadmin2" v="Kosovo"/>
    <tag k="gns:gnfeature" v="S"/>
    <tag k="gns:gnfeaturec" v="RSTN"/>
    <tag k="name" v="Prishtina Railway"/>
    <tag k="name:en:alt" v="Prishtina Railway"/>
    <tag k="name_full_nd" v="Prishtina Railway"/>
    <tag k="name_generic" v="Prishtina Railway"/>
    <tag k="name_sort" v="Prishtina Railway"/>
    <tag k="railway" v="yes"/>
  </node>
  <node id="448708833" version="12" timestamp="2011-05-13T15:39:37Z" uid="439994" user="fatlume" changeset="8132747" lat="42.6578859" lon="21.149862">
    <tag k="geonameid" v="832770"/>
    <tag k="gns:gnadmin" v="00"/>
    <tag k="gns:gnadmin2" v="Kosovo"/>
    <tag k="gns:gnfeature" v="S"/>
    <tag k="gns:gnfeaturec" v="RSTN"/>
    <tag k="name" v="Prishtina Railway"/>
    <tag k="name:en:alt" v="Prishtina Railway"/>
    <tag k="name_full_nd" v="Prishtina Railway"/>
    <tag k="name_generic" v="Prishtina Railway"/>
    <tag k="name_sort" v="Prishtina Railway"/>
    <tag k="railway" v="yes"/>
  </node>
  <node id="448708833" version="13" timestamp="2011-05-17T13:36:11Z" uid="439994" user="fatlume" changeset="8171556" lat="42.6579041" lon="21.1502497">
    <tag k="geonameid" v="832770"/>
    <tag k="gns:gnadmin" v="00"/>
    <tag k="gns:gnadmin2" v="Kosovo"/>
    <tag k="gns:gnfeature" v="S"/>
    <tag k="gns:gnfeaturec" v="RSTN"/>
    <tag k="name" v="Prishtina Railway"/>
    <tag k="name:en:alt" v="Prishtina Railway"/>
    <tag k="name_full_nd" v="Prishtina Railway"/>
    <tag k="name_generic" v="Prishtina Railway"/>
    <tag k="name_sort" v="Prishtina Railway"/>
    <tag k="railway" v="yes"/>
  </node>
  <node id="448708833" version="14" timestamp="2011-05-20T13:07:13Z" uid="439994" user="fatlume" changeset="8198405" lat="42.6579727" lon="21.1500901">
    <tag k="geonameid" v="832770"/>
    <tag k="gns:gnadmin" v="00"/>
    <tag k="gns:gnadmin2" v="Kosovo"/>
    <tag k="gns:gnfeature" v="S"/>
    <tag k="gns:gnfeaturec" v="RSTN"/>
    <tag k="name" v="Prishtina Railway"/>
    <tag k="name:en:alt" v="Prishtina Railway"/>
    <tag k="name_full_nd" v="Prishtina Railway"/>
    <tag k="name_generic" v="Prishtina Railway"/>
    <tag k="name_sort" v="Prishtina Railway"/>
    <tag k="railway" v="yes"/>
  </node>
  <node id="448708833" version="15" timestamp="2011-08-07T03:33:50Z" uid="199034" user="Altin" changeset="8943404" lat="42.6582126" lon="21.1503298">
    <tag k="geonameid" v="832770"/>
    <tag k="gns:gnadmin" v="00"/>
    <tag k="gns:gnadmin2" v="Kosovo"/>
    <tag k="gns:gnfeature" v="S"/>
    <tag k="gns:gnfeaturec" v="RSTN"/>
    <tag k="name" v="Prishtina Railway"/>
    <tag k="name:en:alt" v="Prishtina Railway"/>
    <tag k="name_full_nd" v="Prishtina Railway"/>
    <tag k="name_generic" v="Prishtina Railway"/>
    <tag k="name_sort" v="Prishtina Railway"/>
    <tag k="railway" v="yes"/>
  </node>
  <node id="448708833" version="16" timestamp="2012-01-31T17:47:20Z" uid="527441" user="dromedar" changeset="10551624" lat="42.6582126" lon="21.1503298"/>
  <node id="448708869" version="2" timestamp="2009-08-25T09:35:06Z" uid="18775" user="drlizau" changeset="2254250" lat="42.755" lon="21.119167">
    <tag k="name" v="Бариљево"/>
    <tag k="name_full_nd" v="Бариљево"/>
    <tag k="name_generic" v=""/>
    <tag k="name_short" v=""/>
    <tag k="name_sort" v="БАРИЉЕВО"/>
    <tag k="place" v="hamlet"/>
  </node>
  <node id="448708869" version="3" timestamp="2009-09-21T08:35:06Z" uid="70696" user="xybot" changeset="2554880" lat="42.755" lon="21.119167">
    <tag k="name" v="Бариљево"/>
    <tag k="name_full_nd" v="Бариљево"/>
    <tag k="name_sort" v="БАРИЉЕВО"/>
    <tag k="place" v="hamlet"/>
  </node>
  <node id="448708869" version="4" timestamp="2009-09-23T11:44:22Z" uid="131059" user="h4ck3rm1k3" changeset="2594575" lat="42.755" lon="21.119167">
    <tag k="name" v="Barilevë"/>
    <tag k="name:old" v="Bariljevo"/>
    <tag k="name:sq" v="Barilevë"/>
    <tag k="name:sr" v="Bariljevo"/>
    <tag k="name_full_nd" v="Bariljevo"/>
    <tag k="name_full_nd:sq" v="Barilevë"/>
    <tag k="name_full_nd:sr" v="Bariljevo"/>
    <tag k="name_sort" v="BARILJEVO"/>
    <tag k="name_sort:sq" v="BARILEVE"/>
    <tag k="name_sort:sr" v="BARILJEVO"/>
    <tag k="place" v="hamlet"/>
  </node>
  <node id="448708869" version="5" timestamp="2009-10-12T12:31:10Z" uid="131059" user="h4ck3rm1k3" changeset="2825425" lat="42.755" lon="21.119167">
    <tag k="name" v="Barilevë"/>
    <tag k="name:old" v="Bariljevo"/>
    <tag k="name:sq" v="Barilevë"/>
    <tag k="name:sr" v="Bariljevo"/>
    <tag k="name_full_nd" v="Bariljevo"/>
    <tag k="name_full_nd:sq" v="Barilevë"/>
    <tag k="name_full_nd:sr" v="Bariljevo"/>
    <tag k="name_sort" v="BARILJEVO"/>
    <tag k="name_sort:sq" v="BARILEVE"/>
    <tag k="name_sort:sr" v="BARILJEVO"/>
    <tag k="place" v="hamlet"/>
  </node>
  <node id="448708878" version="2" timestamp="2009-08-25T09:35:06Z" uid="18775" user="drlizau" changeset="2254250" lat="42.713611" lon="21.149722">
    <tag k="name" v="Gornja Brnjica"/>
    <tag k="name_full_nd" v="Gornja Brnjica"/>
    <tag k="name_generic" v=""/>
    <tag k="name_short" v=""/>
    <tag k="name_sort" v="GORNJABRNJICA"/>
    <tag k="place" v="hamlet"/>
  </node>
  <node id="448708878" version="3" timestamp="2009-09-21T08:35:07Z" uid="70696" user="xybot" changeset="2554880" lat="42.713611" lon="21.149722">
    <tag k="name" v="Gornja Brnjica"/>
    <tag k="name_full_nd" v="Gornja Brnjica"/>
    <tag k="name_sort" v="GORNJABRNJICA"/>
    <tag k="place" v="hamlet"/>
  </node>
  <node id="448708878" version="4" timestamp="2009-10-12T12:31:02Z" uid="131059" user="h4ck3rm1k3" changeset="2825425" lat="42.713611" lon="21.149722">
    <tag k="name" v="Gornja Brnjica"/>
    <tag k="name_full_nd" v="Gornja Brnjica"/>
    <tag k="name_sort" v="GORNJABRNJICA"/>
    <tag k="place" v="hamlet"/>
  </node>
  <node id="448708913" version="2" timestamp="2009-08-25T09:35:05Z" uid="18775" user="drlizau" changeset="2254250" lat="42.8" lon="20.983333">
    <tag k="name" v="Vučitrn"/>
    <tag k="name_full_nd" v="Vučitrn"/>
    <tag k="name_generic" v=""/>
    <tag k="name_short" v=""/>
    <tag k="name_sort" v="VUCITRN"/>
    <tag k="place" v="hamlet"/>
  </node>
  <node id="448708913" version="3" timestamp="2009-09-11T07:38:22Z" uid="131059" user="h4ck3rm1k3" changeset="2443721" lat="42.8" lon="20.983333">
    <tag k="name" v="Vučitrn"/>
    <tag k="name_full_nd" v="Vučitrn"/>
    <tag k="name_generic" v=""/>
    <tag k="name_short" v=""/>
    <tag k="name_sort" v="VUCITRN"/>
    <tag k="place" v="hamlet"/>
  </node>
  <node id="448708919" version="2" timestamp="2009-08-25T09:35:05Z" uid="18775" user="drlizau" changeset="2254250" lat="42.788333" lon="20.967778">
    <tag k="name" v="Vërnicë"/>
    <tag k="name_full_nd" v="Vërnicë"/>
    <tag k="name_generic" v=""/>
    <tag k="name_short" v=""/>
    <tag k="name_sort" v="VERNICE"/>
    <tag k="place" v="hamlet"/>
  </node>
  <node id="448708919" version="3" timestamp="2009-09-11T07:38:22Z" uid="131059" user="h4ck3rm1k3" changeset="2443721" lat="42.788333" lon="20.967778">
    <tag k="name" v="Vërnicë"/>
    <tag k="name_full_nd" v="Vërnicë"/>
    <tag k="name_generic" v=""/>
    <tag k="name_short" v=""/>
    <tag k="name_sort" v="VERNICE"/>
    <tag k="place" v="hamlet"/>
  </node>
  <node id="448708925" version="2" timestamp="2009-08-25T09:35:06Z" uid="18775" user="drlizau" changeset="2254250" lat="42.866111" lon="21.030556">
    <tag k="name" v="Skočina"/>
    <tag k="name_full_nd" v="Skočina"/>
    <tag k="name_generic" v=""/>
    <tag k="name_short" v=""/>
    <tag k="name_sort" v="SKOCINA"/>
    <tag k="place" v="hamlet"/>
  </node>
  <node id="448708925" version="3" timestamp="2009-09-21T08:35:09Z" uid="70696" user="xybot" changeset="2554880" lat="42.866111" lon="21.030556">
    <tag k="name" v="Skočina"/>
    <tag k="name_full_nd" v="Skočina"/>
    <tag k="name_sort" v="SKOCINA"/>
    <tag k="place" v="hamlet"/>
  </node>
  <node id="448708925" version="4" timestamp="2009-09-23T11:37:12Z" uid="131059" user="h4ck3rm1k3" changeset="2594469" lat="42.866111" lon="21.030556">
    <tag k="name" v="Skoçan"/>
    <tag k="name:old" v="Skocan"/>
    <tag k="name:sq" v="Skoçan"/>
    <tag k="name:sr" v="Skočna"/>
    <tag k="name_full_nd" v="Skocan"/>
    <tag k="name_full_nd:sq" v="Skoçan"/>
    <tag k="name_full_nd:sr" v="Skočna"/>
    <tag k="name_sort" v="SKOCAN"/>
    <tag k="name_sort:sq" v="SKOCAN"/>
    <tag k="name_sort:sr" v="SKOCNA"/>
    <tag k="place" v="hamlet"/>
  </node>
  <node id="448708925" version="5" timestamp="2009-10-12T12:29:54Z" uid="131059" user="h4ck3rm1k3" changeset="2825425" lat="42.866111" lon="21.030556">
    <tag k="name" v="Skoçan"/>
    <tag k="name:old" v="Skocan"/>
    <tag k="name:sq" v="Skoçan"/>
    <tag k="name:sr" v="Skočna"/>
    <tag k="name_full_nd" v="Skocan"/>
    <tag k="name_full_nd:sq" v="Skoçan"/>
    <tag k="name_full_nd:sr" v="Skočna"/>
    <tag k="name_sort" v="SKOCAN"/>
    <tag k="name_sort:sq" v="SKOCAN"/>
    <tag k="name_sort:sr" v="SKOCNA"/>
    <tag k="place" v="hamlet"/>
  </node>
  <node id="448708931" version="2" timestamp="2009-08-25T09:17:50Z" uid="18775" user="drlizau" changeset="2254105" lat="42.731111" lon="20.855278">
    <tag k="elevation" v=""/>
    <tag k="name" v="Kraljica"/>
    <tag k="name:sr" v="Kraljica"/>
    <tag k="name_full_nd" v="Kraljica"/>
    <tag k="name_full_nd:sr" v="Kraljica"/>
    <tag k="name_generic" v=""/>
    <tag k="name_short" v=""/>
    <tag k="name_sort" v="KRALJICA"/>
    <tag k="name_sort:sr" v="KRALJICA"/>
    <tag k="place" v="hamlet"/>
  </node>
  <node id="448708931" version="3" timestamp="2009-08-25T09:35:07Z" uid="18775" user="drlizau" changeset="2254250" lat="42.731111" lon="20.855278">
    <tag k="name" v="Kraljica"/>
    <tag k="name:sr" v="Kraljica"/>
    <tag k="name_full_nd" v="Kraljica"/>
    <tag k="name_full_nd:sr" v="Kraljica"/>
    <tag k="name_generic" v=""/>
    <tag k="name_short" v=""/>
    <tag k="name_sort" v="KRALJICA"/>
    <tag k="name_sort:sr" v="KRALJICA"/>
    <tag k="place" v="hamlet"/>
  </node>
  <node id="448708931" version="4" timestamp="2009-09-21T08:35:10Z" uid="70696" user="xybot" changeset="2554880" lat="42.731111" lon="20.855278">
    <tag k="name" v="Kraljica"/>
    <tag k="name:sr" v="Kraljica"/>
    <tag k="name_full_nd" v="Kraljica"/>
    <tag k="name_full_nd:sr" v="Kraljica"/>
    <tag k="name_sort" v="KRALJICA"/>
    <tag k="name_sort:sr" v="KRALJICA"/>
    <tag k="place" v="hamlet"/>
  </node>
  <node id="448708931" version="5" timestamp="2009-10-12T12:29:55Z" uid="131059" user="h4ck3rm1k3" changeset="2825425" lat="42.731111" lon="20.855278">
    <tag k="name" v="Kraljica"/>
    <tag k="name:sr" v="Kraljica"/>
    <tag k="name_full_nd" v="Kraljica"/>
    <tag k="name_full_nd:sr" v="Kraljica"/>
    <tag k="name_sort" v="KRALJICA"/>
    <tag k="name_sort:sr" v="KRALJICA"/>
    <tag k="place" v="hamlet"/>
  </node>
  <node id="448708935" version="2" timestamp="2009-08-25T09:35:07Z" uid="18775" user="drlizau" changeset="2254250" lat="42.866111" lon="21.030556">
    <tag k="name" v="Skocan"/>
    <tag k="name_full_nd" v="Skocan"/>
    <tag k="name_generic" v=""/>
    <tag k="name_short" v=""/>
    <tag k="name_sort" v="SKOCAN"/>
    <tag k="place" v="hamlet"/>
  </node>
  <node id="448708935" version="3" timestamp="2009-09-21T08:35:11Z" uid="70696" user="xybot" changeset="2554880" lat="42.866111" lon="21.030556">
    <tag k="name" v="Skocan"/>
    <tag k="name_full_nd" v="Skocan"/>
    <tag k="name_sort" v="SKOCAN"/>
    <tag k="place" v="hamlet"/>
  </node>
  <node id="448708935" version="4" timestamp="2009-10-12T12:29:55Z" uid="131059" user="h4ck3rm1k3" changeset="2825425" lat="42.866111" lon="21.030556">
    <tag k="name" v="Skocan"/>
    <tag k="name_full_nd" v="Skocan"/>
    <tag k="name_sort" v="SKOCAN"/>
    <tag k="place" v="hamlet"/>
  </node>
  <node id="448708949" version="2" timestamp="2009-08-25T09:17:51Z" uid="18775" user="drlizau" changeset="2254105" lat="42.71" lon="20.751667">
    <tag k="elevation" v=""/>
    <tag k="name" v="Ludović"/>
    <tag k="name:sr" v="Ludović"/>
    <tag k="name_full_nd" v="Ludović"/>
    <tag k="name_full_nd:sr" v="Ludović"/>
    <tag k="name_generic" v=""/>
    <tag k="name_short" v=""/>
    <tag k="name_sort" v="LUDOVIC"/>
    <tag k="name_sort:sr" v="LUDOVIC"/>
    <tag k="place" v="hamlet"/>
  </node>
  <node id="448708949" version="3" timestamp="2009-08-25T09:35:07Z" uid="18775" user="drlizau" changeset="2254250" lat="42.71" lon="20.751667">
    <tag k="name" v="Ludović"/>
    <tag k="name:sr" v="Ludović"/>
    <tag k="name_full_nd" v="Ludović"/>
    <tag k="name_full_nd:sr" v="Ludović"/>
    <tag k="name_generic" v=""/>
    <tag k="name_short" v=""/>
    <tag k="name_sort" v="LUDOVIC"/>
    <tag k="name_sort:sr" v="LUDOVIC"/>
    <tag k="place" v="hamlet"/>
  </node>
  <node id="448708949" version="4" timestamp="2009-09-21T08:35:14Z" uid="70696" user="xybot" changeset="2554880" lat="42.71" lon="20.751667">
    <tag k="name" v="Ludović"/>
    <tag k="name:sr" v="Ludović"/>
    <tag k="name_full_nd" v="Ludović"/>
    <tag k="name_full_nd:sr" v="Ludović"/>
    <tag k="name_sort" v="LUDOVIC"/>
    <tag k="name_sort:sr" v="LUDOVIC"/>
    <tag k="place" v="hamlet"/>
  </node>
  <node id="448708949" version="5" timestamp="2009-10-12T12:29:57Z" uid="131059" user="h4ck3rm1k3" changeset="2825425" lat="42.71" lon="20.751667">
    <tag k="name" v="Ludović"/>
    <tag k="name:sr" v="Ludović"/>
    <tag k="name_full_nd" v="Ludović"/>
    <tag k="name_full_nd:sr" v="Ludović"/>
    <tag k="name_sort" v="LUDOVIC"/>
    <tag k="name_sort:sr" v="LUDOVIC"/>
    <tag k="place" v="hamlet"/>
  </node>
  <node id="448708953" version="2" timestamp="2009-08-25T09:17:51Z" uid="18775" user="drlizau" changeset="2254105" lat="42.716944" lon="20.731667">
    <tag k="elevation" v=""/>
    <tag k="name" v="Raponja Rakitnica"/>
    <tag k="name:sr" v="Raponja Rakitnica"/>
    <tag k="name_full_nd" v="Raponja Rakitnica"/>
    <tag k="name_full_nd:sr" v="Raponja Rakitnica"/>
    <tag k="name_generic" v=""/>
    <tag k="name_short" v=""/>
    <tag k="name_sort" v="RAPONJARAKITNICA"/>
    <tag k="name_sort:sr" v="RAPONJARAKITNICA"/>
    <tag k="place" v="hamlet"/>
  </node>
  <node id="448708953" version="3" timestamp="2009-08-25T09:35:07Z" uid="18775" user="drlizau" changeset="2254250" lat="42.716944" lon="20.731667">
    <tag k="name" v="Raponja Rakitnica"/>
    <tag k="name:sr" v="Raponja Rakitnica"/>
    <tag k="name_full_nd" v="Raponja Rakitnica"/>
    <tag k="name_full_nd:sr" v="Raponja Rakitnica"/>
    <tag k="name_generic" v=""/>
    <tag k="name_short" v=""/>
    <tag k="name_sort" v="RAPONJARAKITNICA"/>
    <tag k="name_sort:sr" v="RAPONJARAKITNICA"/>
    <tag k="place" v="hamlet"/>
  </node>
  <node id="448708953" version="4" timestamp="2009-09-21T08:35:14Z" uid="70696" user="xybot" changeset="2554880" lat="42.716944" lon="20.731667">
    <tag k="name" v="Raponja Rakitnica"/>
    <tag k="name:sr" v="Raponja Rakitnica"/>
    <tag k="name_full_nd" v="Raponja Rakitnica"/>
    <tag k="name_full_nd:sr" v="Raponja Rakitnica"/>
    <tag k="name_sort" v="RAPONJARAKITNICA"/>
    <tag k="name_sort:sr" v="RAPONJARAKITNICA"/>
    <tag k="place" v="hamlet"/>
  </node>
  <node id="448708953" version="5" timestamp="2009-10-12T12:29:58Z" uid="131059" user="h4ck3rm1k3" changeset="2825425" lat="42.716944" lon="20.731667">
    <tag k="name" v="Raponja Rakitnica"/>
    <tag k="name:sr" v="Raponja Rakitnica"/>
    <tag k="name_full_nd" v="Raponja Rakitnica"/>
    <tag k="name_full_nd:sr" v="Raponja Rakitnica"/>
    <tag k="name_sort" v="RAPONJARAKITNICA"/>
    <tag k="name_sort:sr" v="RAPONJARAKITNICA"/>
    <tag k="place" v="hamlet"/>
  </node>
  <node id="448708995" version="2" timestamp="2009-08-25T09:35:08Z" uid="18775" user="drlizau" changeset="2254250" lat="42.787778" lon="21.171111">
    <tag k="name" v="Teneshdoll"/>
    <tag k="name_full_nd" v="Teneshdoll"/>
    <tag k="name_generic" v=""/>
    <tag k="name_short" v=""/>
    <tag k="name_sort" v="TENESHDOLL"/>
    <tag k="place" v="hamlet"/>
  </node>
  <node id="448708995" version="3" timestamp="2009-09-21T08:35:21Z" uid="70696" user="xybot" changeset="2554880" lat="42.787778" lon="21.171111">
    <tag k="name" v="Teneshdoll"/>
    <tag k="name_full_nd" v="Teneshdoll"/>
    <tag k="name_sort" v="TENESHDOLL"/>
    <tag k="place" v="hamlet"/>
  </node>
  <node id="448708995" version="4" timestamp="2009-09-23T11:44:24Z" uid="131059" user="h4ck3rm1k3" changeset="2594575" lat="42.787778" lon="21.171111">
    <tag k="name" v="Tenezhdoll"/>
    <tag k="name:old" v="Teneš Do"/>
    <tag k="name:sq" v="Tenezhdoll"/>
    <tag k="name:sr" v="Teneš Do"/>
    <tag k="name_full_nd" v="Teneš Do"/>
    <tag k="name_full_nd:sq" v="Tenezhdoll"/>
    <tag k="name_full_nd:sr" v="Teneš Do"/>
    <tag k="name_sort" v="TENESDO"/>
    <tag k="name_sort:sq" v="TENEZHDOLL"/>
    <tag k="name_sort:sr" v="TENESDO"/>
    <tag k="place" v="hamlet"/>
  </node>
  <node id="448708995" version="5" timestamp="2009-10-12T12:30:09Z" uid="131059" user="h4ck3rm1k3" changeset="2825425" lat="42.787778" lon="21.171111">
    <tag k="name" v="Tenezhdoll"/>
    <tag k="name:old" v="Teneš Do"/>
    <tag k="name:sq" v="Tenezhdoll"/>
    <tag k="name:sr" v="Teneš Do"/>
    <tag k="name_full_nd" v="Teneš Do"/>
    <tag k="name_full_nd:sq" v="Tenezhdoll"/>
    <tag k="name_full_nd:sr" v="Teneš Do"/>
    <tag k="name_sort" v="TENESDO"/>
    <tag k="name_sort:sq" v="TENEZHDOLL"/>
    <tag k="name_sort:sr" v="TENESDO"/>
    <tag k="place" v="hamlet"/>
  </node>
  <node id="448708998" version="2" timestamp="2009-08-25T09:35:08Z" uid="18775" user="drlizau" changeset="2254250" lat="42.842778" lon="21.151667">
    <tag k="name" v="Penduha"/>
    <tag k="name_full_nd" v="Penduha"/>
    <tag k="name_generic" v=""/>
    <tag k="name_short" v=""/>
    <tag k="name_sort" v="PENDUHA"/>
    <tag k="place" v="hamlet"/>
  </node>
  <node id="448708998" version="3" timestamp="2009-09-21T08:35:21Z" uid="70696" user="xybot" changeset="2554880" lat="42.842778" lon="21.151667">
    <tag k="name" v="Penduha"/>
    <tag k="name_full_nd" v="Penduha"/>
    <tag k="name_sort" v="PENDUHA"/>
    <tag k="place" v="hamlet"/>
  </node>
  <node id="448708998" version="4" timestamp="2009-10-12T12:30:09Z" uid="131059" user="h4ck3rm1k3" changeset="2825425" lat="42.842778" lon="21.151667">
    <tag k="name" v="Penduha"/>
    <tag k="name_full_nd" v="Penduha"/>
    <tag k="name_sort" v="PENDUHA"/>
    <tag k="place" v="hamlet"/>
  </node>
  <node id="448709000" version="2" timestamp="2009-08-25T09:35:08Z" uid="18775" user="drlizau" changeset="2254250" lat="42.842778" lon="21.151667">
    <tag k="name" v="Penuha"/>
    <tag k="name_full_nd" v="Penuha"/>
    <tag k="name_generic" v=""/>
    <tag k="name_short" v=""/>
    <tag k="name_sort" v="PENUHA"/>
    <tag k="place" v="hamlet"/>
  </node>
  <node id="448709000" version="3" timestamp="2009-09-21T08:35:22Z" uid="70696" user="xybot" changeset="2554880" lat="42.842778" lon="21.151667">
    <tag k="name" v="Penuha"/>
    <tag k="name_full_nd" v="Penuha"/>
    <tag k="name_sort" v="PENUHA"/>
    <tag k="place" v="hamlet"/>
  </node>
  <node id="448709000" version="4" timestamp="2009-10-12T12:39:03Z" uid="131059" user="h4ck3rm1k3" changeset="2825425" lat="42.842778" lon="21.151667">
    <tag k="name" v="Penuha"/>
    <tag k="name_full_nd" v="Penuha"/>
    <tag k="name_sort" v="PENUHA"/>
    <tag k="place" v="hamlet"/>
  </node>
  <node id="448709036" version="2" timestamp="2009-08-25T09:35:08Z" uid="18775" user="drlizau" changeset="2254250" lat="42.905833" lon="20.749167">
    <tag k="name" v="Prelez"/>
    <tag k="name_full_nd" v="Prelez"/>
    <tag k="name_generic" v=""/>
    <tag k="name_short" v=""/>
    <tag k="name_sort" v="PRELEZ"/>
    <tag k="place" v="hamlet"/>
  </node>
  <node id="448709036" version="3" timestamp="2009-09-21T08:35:26Z" uid="70696" user="xybot" changeset="2554880" lat="42.905833" lon="20.749167">
    <tag k="name" v="Prelez"/>
    <tag k="name_full_nd" v="Prelez"/>
    <tag k="name_sort" v="PRELEZ"/>
    <tag k="place" v="hamlet"/>
  </node>
  <node id="448709036" version="4" timestamp="2009-10-12T12:39:00Z" uid="131059" user="h4ck3rm1k3" changeset="2825425" lat="42.905833" lon="20.749167">
    <tag k="name" v="Prelez"/>
    <tag k="name_full_nd" v="Prelez"/>
    <tag k="name_sort" v="PRELEZ"/>
    <tag k="place" v="hamlet"/>
  </node>
  <node id="448709070" version="7" timestamp="2009-08-25T09:17:52Z" uid="18775" user="drlizau" changeset="2254105" lat="42.734167" lon="21.025556">
    <tag k="geonameid" v="832780"/>
    <tag k="gnadmin" v="00"/>
    <tag k="gnadmin2" v="Kosovo"/>
    <tag k="gnfeature" v="S"/>
    <tag k="gnfeaturec" v="RSTN"/>
    <tag k="name" v="Stanica Priluzje"/>
    <tag k="name2" v="Stanica Prilužje"/>
    <tag k="name:sr" v="Stanica Prilužje"/>
    <tag k="name_full_nd" v="Stanica Prilužje"/>
    <tag k="name_full_nd:sr" v="Stanica Prilužje"/>
    <tag k="name_generic" v="Stanica"/>
    <tag k="name_generic:sr" v="Stanica"/>
    <tag k="name_sort" v="STANICAPRILUZJE"/>
    <tag k="name_sort:sr" v="STANICAPRILUZJE"/>
    <tag k="railway" v="station"/>
  </node>
  <node id="448709070" version="8" timestamp="2009-08-29T15:34:38Z" uid="9176" user="Maarten Deen" changeset="2302994" lat="42.734167" lon="21.025556">
    <tag k="geonameid" v="832780"/>
    <tag k="gnadmin" v="00"/>
    <tag k="gnadmin2" v="Kosovo"/>
    <tag k="gnfeature" v="S"/>
    <tag k="gnfeaturec" v="RSTN"/>
    <tag k="name" v="Prelluzha"/>
    <tag k="name2" v="Stanica Prilužje"/>
    <tag k="name:sr" v="Stanica Prilužje"/>
    <tag k="name_full_nd" v="Stanica Prilužje"/>
    <tag k="name_full_nd:sr" v="Stanica Prilužje"/>
    <tag k="name_generic" v="Stanica"/>
    <tag k="name_generic:sr" v="Stanica"/>
    <tag k="name_sort" v="STANICAPRILUZJE"/>
    <tag k="name_sort:sr" v="STANICAPRILUZJE"/>
    <tag k="railway" v="station"/>
  </node>
  <node id="448709070" version="9" timestamp="2010-02-20T07:36:10Z" uid="131059" user="h4ck3rm1k3" changeset="3920933" lat="42.734167" lon="21.025556">
    <tag k="geonameid" v="832780"/>
    <tag k="gns:gnadmin" v="00"/>
    <tag k="gns:gnadmin2" v="Kosovo"/>
    <tag k="gns:gnfeature" v="S"/>
    <tag k="gns:gnfeaturec" v="RSTN"/>
    <tag k="name" v="Prelluzha"/>
    <tag k="name:alt" v="Stanica Prilužje"/>
    <tag k="name:sr" v="Stanica Prilužje"/>
    <tag k="name_full_nd" v="Stanica Prilužje"/>
    <tag k="name_full_nd:sr" v="Stanica Prilužje"/>
    <tag k="name_generic" v="Stanica"/>
    <tag k="name_generic:sr" v="Stanica"/>
    <tag k="name_sort" v="STANICAPRILUZJE"/>
    <tag k="name_sort:sr" v="STANICAPRILUZJE"/>
    <tag k="railway" v="station"/>
  </node>
  <node id="448709090" version="2" timestamp="2009-08-25T09:35:09Z" uid="18775" user="drlizau" changeset="2254250" lat="42.859722" lon="20.9975">
    <tag k="name" v="Мироче"/>
    <tag k="name_full_nd" v="Мироче"/>
    <tag k="name_generic" v=""/>
    <tag k="name_short" v=""/>
    <tag k="name_sort" v="МИРОЧЕ"/>
    <tag k="place" v="hamlet"/>
  </node>
  <node id="448709090" version="3" timestamp="2009-09-11T07:38:19Z" uid="131059" user="h4ck3rm1k3" changeset="2443721" lat="42.859722" lon="20.9975">
    <tag k="name" v="Мироче"/>
    <tag k="name_full_nd" v="Мироче"/>
    <tag k="name_generic" v=""/>
    <tag k="name_short" v=""/>
    <tag k="name_sort" v="МИРОЧЕ"/>
    <tag k="place" v="hamlet"/>
  </node>
  <node id="448709092" version="2" timestamp="2009-08-25T09:17:51Z" uid="18775" user="drlizau" changeset="2254105" lat="42.713333" lon="20.903333">
    <tag k="elevation" v=""/>
    <tag k="name" v="Haljtović"/>
    <tag k="name:sr" v="Haljtović"/>
    <tag k="name_full_nd" v="Haljtović"/>
    <tag k="name_full_nd:sr" v="Haljtović"/>
    <tag k="name_generic" v=""/>
    <tag k="name_short" v=""/>
    <tag k="name_sort" v="HALJTOVIC"/>
    <tag k="name_sort:sr" v="HALJTOVIC"/>
    <tag k="place" v="hamlet"/>
  </node>
  <node id="448709092" version="3" timestamp="2009-08-25T09:35:09Z" uid="18775" user="drlizau" changeset="2254250" lat="42.713333" lon="20.903333">
    <tag k="name" v="Haljtović"/>
    <tag k="name:sr" v="Haljtović"/>
    <tag k="name_full_nd" v="Haljtović"/>
    <tag k="name_full_nd:sr" v="Haljtović"/>
    <tag k="name_generic" v=""/>
    <tag k="name_short" v=""/>
    <tag k="name_sort" v="HALJTOVIC"/>
    <tag k="name_sort:sr" v="HALJTOVIC"/>
    <tag k="place" v="hamlet"/>
  </node>
  <node id="448709092" version="4" timestamp="2009-09-21T08:35:30Z" uid="70696" user="xybot" changeset="2554880" lat="42.713333" lon="20.903333">
    <tag k="name" v="Haljtović"/>
    <tag k="name:sr" v="Haljtović"/>
    <tag k="name_full_nd" v="Haljtović"/>
    <tag k="name_full_nd:sr" v="Haljtović"/>
    <tag k="name_sort" v="HALJTOVIC"/>
    <tag k="name_sort:sr" v="HALJTOVIC"/>
    <tag k="place" v="hamlet"/>
  </node>
  <node id="448709092" version="5" timestamp="2009-10-12T12:38:55Z" uid="131059" user="h4ck3rm1k3" changeset="2825425" lat="42.713333" lon="20.903333">
    <tag k="name" v="Haljtović"/>
    <tag k="name:sr" v="Haljtović"/>
    <tag k="name_full_nd" v="Haljtović"/>
    <tag k="name_full_nd:sr" v="Haljtović"/>
    <tag k="name_sort" v="HALJTOVIC"/>
    <tag k="name_sort:sr" v="HALJTOVIC"/>
    <tag k="place" v="hamlet"/>
  </node>
  <node id="448709271" version="2" timestamp="2009-08-25T09:17:45Z" uid="18775" user="drlizau" changeset="2254105" lat="42.778333" lon="20.788056">
    <tag k="elevation" v=""/>
    <tag k="name" v="Klinsko Polje"/>
    <tag k="name:sr" v="Klinsko Polje"/>
    <tag k="name_full_nd" v="Klinsko Polje"/>
    <tag k="name_full_nd:sr" v="Klinsko Polje"/>
    <tag k="name_generic" v=""/>
    <tag k="name_short" v=""/>
    <tag k="name_sort" v="KLINSKOPOLJE"/>
    <tag k="name_sort:sr" v="KLINSKOPOLJE"/>
    <tag k="place" v="hamlet"/>
  </node>
  <node id="448709271" version="3" timestamp="2009-08-25T09:34:49Z" uid="18775" user="drlizau" changeset="2254250" lat="42.778333" lon="20.788056">
    <tag k="name" v="Klinsko Polje"/>
    <tag k="name:sr" v="Klinsko Polje"/>
    <tag k="name_full_nd" v="Klinsko Polje"/>
    <tag k="name_full_nd:sr" v="Klinsko Polje"/>
    <tag k="name_generic" v=""/>
    <tag k="name_short" v=""/>
    <tag k="name_sort" v="KLINSKOPOLJE"/>
    <tag k="name_sort:sr" v="KLINSKOPOLJE"/>
    <tag k="place" v="hamlet"/>
  </node>
  <node id="448709271" version="4" timestamp="2009-09-21T08:35:59Z" uid="70696" user="xybot" changeset="2554880" lat="42.778333" lon="20.788056">
    <tag k="name" v="Klinsko Polje"/>
    <tag k="name:sr" v="Klinsko Polje"/>
    <tag k="name_full_nd" v="Klinsko Polje"/>
    <tag k="name_full_nd:sr" v="Klinsko Polje"/>
    <tag k="name_sort" v="KLINSKOPOLJE"/>
    <tag k="name_sort:sr" v="KLINSKOPOLJE"/>
    <tag k="place" v="hamlet"/>
  </node>
  <node id="448709271" version="5" timestamp="2009-10-12T12:41:01Z" uid="131059" user="h4ck3rm1k3" changeset="2825425" lat="42.778333" lon="20.788056">
    <tag k="name" v="Klinsko Polje"/>
    <tag k="name:sr" v="Klinsko Polje"/>
    <tag k="name_full_nd" v="Klinsko Polje"/>
    <tag k="name_full_nd:sr" v="Klinsko Polje"/>
    <tag k="name_sort" v="KLINSKOPOLJE"/>
    <tag k="name_sort:sr" v="KLINSKOPOLJE"/>
    <tag k="place" v="hamlet"/>
  </node>
  <node id="448709301" version="2" timestamp="2009-08-25T09:34:50Z" uid="18775" user="drlizau" changeset="2254250" lat="42.883333" lon="20.866667">
    <tag k="name" v="Kosovska Mitrovica"/>
    <tag k="name_full_nd" v="Kosovska Mitrovica"/>
    <tag k="name_generic" v=""/>
    <tag k="name_short" v=""/>
    <tag k="name_sort" v="KOSOVSKAMITROVICA"/>
    <tag k="place" v="hamlet"/>
  </node>
  <node id="448709301" version="3" timestamp="2009-09-11T07:38:17Z" uid="131059" user="h4ck3rm1k3" changeset="2443721" lat="42.883333" lon="20.866667">
    <tag k="name" v="Kosovska Mitrovica"/>
    <tag k="name_full_nd" v="Kosovska Mitrovica"/>
    <tag k="name_generic" v=""/>
    <tag k="name_short" v=""/>
    <tag k="name_sort" v="KOSOVSKAMITROVICA"/>
    <tag k="place" v="hamlet"/>
  </node>
  <node id="448709303" version="2" timestamp="2009-08-25T09:34:51Z" uid="18775" user="drlizau" changeset="2254250" lat="42.883333" lon="20.866667">
    <tag k="name" v="Митровица"/>
    <tag k="name_full_nd" v="Митровица"/>
    <tag k="name_generic" v=""/>
    <tag k="name_short" v=""/>
    <tag k="name_sort" v="МИТРОВИЦА"/>
    <tag k="place" v="hamlet"/>
  </node>
  <node id="448709303" version="3" timestamp="2009-09-11T07:38:17Z" uid="131059" user="h4ck3rm1k3" changeset="2443721" lat="42.883333" lon="20.866667">
    <tag k="name" v="Митровица"/>
    <tag k="name_full_nd" v="Митровица"/>
    <tag k="name_generic" v=""/>
    <tag k="name_short" v=""/>
    <tag k="name_sort" v="МИТРОВИЦА"/>
    <tag k="place" v="hamlet"/>
  </node>
  <node id="448709307" version="2" timestamp="2009-08-25T09:34:50Z" uid="18775" user="drlizau" changeset="2254250" lat="42.883333" lon="20.866667">
    <tag k="name" v="Mitrovica"/>
    <tag k="name_full_nd" v="Mitrovica"/>
    <tag k="name_generic" v=""/>
    <tag k="name_short" v=""/>
    <tag k="name_sort" v="MITROVICA"/>
    <tag k="place" v="hamlet"/>
  </node>
  <node id="448709307" version="3" timestamp="2009-09-11T07:38:17Z" uid="131059" user="h4ck3rm1k3" changeset="2443721" lat="42.883333" lon="20.866667">
    <tag k="name" v="Mitrovica"/>
    <tag k="name_full_nd" v="Mitrovica"/>
    <tag k="name_generic" v=""/>
    <tag k="name_short" v=""/>
    <tag k="name_sort" v="MITROVICA"/>
    <tag k="place" v="hamlet"/>
  </node>
  <node id="448709346" version="2" timestamp="2009-08-25T09:34:53Z" uid="18775" user="drlizau" changeset="2254250" lat="42.8525" lon="21.190833">
    <tag k="name" v="Горњи Сибовац"/>
    <tag k="name_full_nd" v="Горњи Сибовац"/>
    <tag k="name_generic" v=""/>
    <tag k="name_short" v=""/>
    <tag k="name_sort" v="ГОРЊИСИБОВАЦ"/>
    <tag k="place" v="hamlet"/>
  </node>
  <node id="448709346" version="3" timestamp="2009-09-21T08:36:21Z" uid="70696" user="xybot" changeset="2554880" lat="42.8525" lon="21.190833">
    <tag k="name" v="Горњи Сибовац"/>
    <tag k="name_full_nd" v="Горњи Сибовац"/>
    <tag k="name_sort" v="ГОРЊИСИБОВАЦ"/>
    <tag k="place" v="hamlet"/>
  </node>
  <node id="448709346" version="4" timestamp="2009-09-23T11:37:14Z" uid="131059" user="h4ck3rm1k3" changeset="2594469" lat="42.8525" lon="21.190833">
    <tag k="name" v="Siboc i Epërm"/>
    <tag k="name:old" v="Vindeni i Epërm"/>
    <tag k="name:sq" v="Siboc i Epërm"/>
    <tag k="name:sr" v="Gornji Sibovac"/>
    <tag k="name_full_nd" v="Vindeni i Epërm"/>
    <tag k="name_full_nd:sq" v="Siboc i Epërm"/>
    <tag k="name_full_nd:sr" v="Gornji Sibovac"/>
    <tag k="name_sort" v="VINDENIIEPERM"/>
    <tag k="name_sort:sq" v="SIBOCIEPERM"/>
    <tag k="name_sort:sr" v="GORNJISIBOVAC"/>
    <tag k="place" v="hamlet"/>
  </node>
  <node id="448709346" version="5" timestamp="2009-10-12T12:40:03Z" uid="131059" user="h4ck3rm1k3" changeset="2825425" lat="42.8525" lon="21.190833">
    <tag k="name" v="Siboc i Epërm"/>
    <tag k="name:old" v="Vindeni i Epërm"/>
    <tag k="name:sq" v="Siboc i Epërm"/>
    <tag k="name:sr" v="Gornji Sibovac"/>
    <tag k="name_full_nd" v="Vindeni i Epërm"/>
    <tag k="name_full_nd:sq" v="Siboc i Epërm"/>
    <tag k="name_full_nd:sr" v="Gornji Sibovac"/>
    <tag k="name_sort" v="VINDENIIEPERM"/>
    <tag k="name_sort:sq" v="SIBOCIEPERM"/>
    <tag k="name_sort:sr" v="GORNJISIBOVAC"/>
    <tag k="place" v="hamlet"/>
  </node>
  <node id="448709357" version="2" timestamp="2009-08-25T09:34:53Z" uid="18775" user="drlizau" changeset="2254250" lat="42.928056" lon="21.165833">
    <tag k="name" v="Peran"/>
    <tag k="name_full_nd" v="Peran"/>
    <tag k="name_generic" v=""/>
    <tag k="name_short" v=""/>
    <tag k="name_sort" v="PERAN"/>
    <tag k="place" v="hamlet"/>
  </node>
  <node id="448709357" version="3" timestamp="2009-09-21T08:36:23Z" uid="70696" user="xybot" changeset="2554880" lat="42.928056" lon="21.165833">
    <tag k="name" v="Peran"/>
    <tag k="name_full_nd" v="Peran"/>
    <tag k="name_sort" v="PERAN"/>
    <tag k="place" v="hamlet"/>
  </node>
  <node id="448709357" version="4" timestamp="2009-09-23T11:37:12Z" uid="131059" user="h4ck3rm1k3" changeset="2594469" lat="42.928056" lon="21.165833">
    <tag k="name" v="Peran"/>
    <tag k="name:old" v="Lkenas"/>
    <tag k="name:sq" v="Peran"/>
    <tag k="name:sr" v="Perane"/>
    <tag k="name_full_nd" v="Lkenas"/>
    <tag k="name_full_nd:sq" v="Peran"/>
    <tag k="name_full_nd:sr" v="Perane"/>
    <tag k="name_sort" v="LKENAS"/>
    <tag k="name_sort:sq" v="PERAN"/>
    <tag k="name_sort:sr" v="PERANE"/>
    <tag k="place" v="hamlet"/>
  </node>
  <node id="448709357" version="5" timestamp="2009-10-12T12:40:22Z" uid="131059" user="h4ck3rm1k3" changeset="2825425" lat="42.928056" lon="21.165833">
    <tag k="name" v="Peran"/>
    <tag k="name:old" v="Lkenas"/>
    <tag k="name:sq" v="Peran"/>
    <tag k="name:sr" v="Perane"/>
    <tag k="name_full_nd" v="Lkenas"/>
    <tag k="name_full_nd:sq" v="Peran"/>
    <tag k="name_full_nd:sr" v="Perane"/>
    <tag k="name_sort" v="LKENAS"/>
    <tag k="name_sort:sq" v="PERAN"/>
    <tag k="name_sort:sr" v="PERANE"/>
    <tag k="place" v="hamlet"/>
  </node>
  <node id="448709610" version="2" timestamp="2009-08-25T09:17:48Z" uid="18775" user="drlizau" changeset="2254105" lat="42.818611" lon="20.846111">
    <tag k="elevation" v=""/>
    <tag k="name" v="Koleno"/>
    <tag k="name:sr" v="Koleno"/>
    <tag k="name_full_nd" v="Koleno"/>
    <tag k="name_full_nd:sr" v="Koleno"/>
    <tag k="name_generic" v=""/>
    <tag k="name_short" v=""/>
    <tag k="name_sort" v="KOLENO"/>
    <tag k="name_sort:sr" v="KOLENO"/>
    <tag k="place" v="hamlet"/>
  </node>
  <node id="448709610" version="3" timestamp="2009-08-25T09:34:57Z" uid="18775" user="drlizau" changeset="2254250" lat="42.818611" lon="20.846111">
    <tag k="name" v="Koleno"/>
    <tag k="name:sr" v="Koleno"/>
    <tag k="name_full_nd" v="Koleno"/>
    <tag k="name_full_nd:sr" v="Koleno"/>
    <tag k="name_generic" v=""/>
    <tag k="name_short" v=""/>
    <tag k="name_sort" v="KOLENO"/>
    <tag k="name_sort:sr" v="KOLENO"/>
    <tag k="place" v="hamlet"/>
  </node>
  <node id="448709610" version="4" timestamp="2009-10-12T12:26:22Z" uid="131059" user="h4ck3rm1k3" changeset="2825425" lat="42.818611" lon="20.846111">
    <tag k="name" v="Koleno"/>
    <tag k="name:sr" v="Koleno"/>
    <tag k="name_full_nd" v="Koleno"/>
    <tag k="name_full_nd:sr" v="Koleno"/>
    <tag k="name_generic" v=""/>
    <tag k="name_short" v=""/>
    <tag k="name_sort" v="KOLENO"/>
    <tag k="name_sort:sr" v="KOLENO"/>
    <tag k="place" v="hamlet"/>
  </node>
  <node id="448709672" version="2" timestamp="2009-08-25T09:18:38Z" uid="18775" user="drlizau" changeset="2254105" lat="42.814722" lon="21.116111">
    <tag k="elevation" v=""/>
    <tag k="name" v="Grdeč"/>
    <tag k="name_full_nd" v="Grdeč"/>
    <tag k="name_generic" v=""/>
    <tag k="name_short" v=""/>
    <tag k="name_sort" v="GRDEC"/>
    <tag k="place" v="hamlet"/>
  </node>
  <node id="448709674" version="2" timestamp="2009-08-25T09:18:38Z" uid="18775" user="drlizau" changeset="2254105" lat="42.789444" lon="21.128611">
    <tag k="elevation" v=""/>
    <tag k="name" v="Mašala"/>
    <tag k="name_full_nd" v="Mašala"/>
    <tag k="name_generic" v=""/>
    <tag k="name_short" v=""/>
    <tag k="name_sort" v="MASALA"/>
    <tag k="place" v="hamlet"/>
  </node>
  <node id="448709677" version="2" timestamp="2009-08-25T09:35:17Z" uid="18775" user="drlizau" changeset="2254250" lat="42.783333" lon="21.166667">
    <tag k="name" v="Kačandolska Reka"/>
    <tag k="name_full_nd" v="Kačandolska Reka"/>
    <tag k="name_generic" v=""/>
    <tag k="name_short" v=""/>
    <tag k="name_sort" v="KACANDOLSKAREKA"/>
    <tag k="place" v="hamlet"/>
  </node>
  <node id="448709677" version="3" timestamp="2009-10-12T12:29:34Z" uid="131059" user="h4ck3rm1k3" changeset="2825425" lat="42.783333" lon="21.166667">
    <tag k="name" v="Kačandolska Reka"/>
    <tag k="name_full_nd" v="Kačandolska Reka"/>
    <tag k="name_generic" v=""/>
    <tag k="name_short" v=""/>
    <tag k="name_sort" v="KACANDOLSKAREKA"/>
    <tag k="place" v="hamlet"/>
  </node>
  <node id="448709680" version="2" timestamp="2009-08-25T09:18:38Z" uid="18775" user="drlizau" changeset="2254105" lat="42.819167" lon="20.956667">
    <tag k="elevation" v=""/>
    <tag k="name" v="Trstena"/>
    <tag k="name_full_nd" v="Trstena"/>
    <tag k="name_generic" v=""/>
    <tag k="name_short" v=""/>
    <tag k="name_sort" v="TRSTENA"/>
    <tag k="place" v="hamlet"/>
  </node>
  <node id="448709681" version="2" timestamp="2009-08-25T09:18:38Z" uid="18775" user="drlizau" changeset="2254105" lat="42.826111" lon="20.951111">
    <tag k="elevation" v=""/>
    <tag k="name" v="Prodanće"/>
    <tag k="name_full_nd" v="Prodanće"/>
    <tag k="name_generic" v=""/>
    <tag k="name_short" v=""/>
    <tag k="name_sort" v="PRODANCE"/>
    <tag k="place" v="hamlet"/>
  </node>
  <node id="448709686" version="2" timestamp="2009-08-25T09:17:56Z" uid="18775" user="drlizau" changeset="2254105" lat="42.9275" lon="20.958611">
    <tag k="el" v=""/>
    <tag k="elevation" v=""/>
    <tag k="name" v="Džidoma"/>
    <tag k="name:sr" v="Ðidova"/>
    <tag k="name_full_nd" v="Džidoma"/>
    <tag k="name_full_nd:sr" v="Ðidova"/>
    <tag k="name_generic" v=""/>
    <tag k="name_generic:sr" v=""/>
    <tag k="name_short" v=""/>
    <tag k="name_short:sr" v=""/>
    <tag k="name_sort" v="DZIDOMA"/>
    <tag k="name_sort:sr" v="DIDOVA"/>
    <tag k="place" v="hamlet"/>
  </node>
  <node id="448709686" version="3" timestamp="2009-08-25T09:35:17Z" uid="18775" user="drlizau" changeset="2254250" lat="42.9275" lon="20.958611">
    <tag k="el" v=""/>
    <tag k="name" v="Džidoma"/>
    <tag k="name:sr" v="Ðidova"/>
    <tag k="name_full_nd" v="Džidoma"/>
    <tag k="name_full_nd:sr" v="Ðidova"/>
    <tag k="name_generic" v=""/>
    <tag k="name_generic:sr" v=""/>
    <tag k="name_short" v=""/>
    <tag k="name_short:sr" v=""/>
    <tag k="name_sort" v="DZIDOMA"/>
    <tag k="name_sort:sr" v="DIDOVA"/>
    <tag k="place" v="hamlet"/>
  </node>
  <node id="448709686" version="4" timestamp="2009-10-12T12:29:35Z" uid="131059" user="h4ck3rm1k3" changeset="2825425" lat="42.9275" lon="20.958611">
    <tag k="el" v=""/>
    <tag k="name" v="Džidoma"/>
    <tag k="name:sr" v="Ðidova"/>
    <tag k="name_full_nd" v="Džidoma"/>
    <tag k="name_full_nd:sr" v="Ðidova"/>
    <tag k="name_generic" v=""/>
    <tag k="name_generic:sr" v=""/>
    <tag k="name_short" v=""/>
    <tag k="name_short:sr" v=""/>
    <tag k="name_sort" v="DZIDOMA"/>
    <tag k="name_sort:sr" v="DIDOVA"/>
    <tag k="place" v="hamlet"/>
  </node>
  <node id="448709695" version="2" timestamp="2009-08-25T09:35:17Z" uid="18775" user="drlizau" changeset="2254250" lat="42.914722" lon="21.093611">
    <tag k="name" v="Kodra Golma"/>
    <tag k="name_full_nd" v="Kodra Golma"/>
    <tag k="name_generic" v=""/>
    <tag k="name_short" v=""/>
    <tag k="name_sort" v="KODRAGOLMA"/>
    <tag k="place" v="hamlet"/>
  </node>
  <node id="448709695" version="3" timestamp="2009-10-12T12:29:28Z" uid="131059" user="h4ck3rm1k3" changeset="2825425" lat="42.914722" lon="21.093611">
    <tag k="name" v="Kodra Golma"/>
    <tag k="name_full_nd" v="Kodra Golma"/>
    <tag k="name_generic" v=""/>
    <tag k="name_short" v=""/>
    <tag k="name_sort" v="KODRAGOLMA"/>
    <tag k="place" v="hamlet"/>
  </node>
  <node id="448709697" version="2" timestamp="2009-08-25T09:35:17Z" uid="18775" user="drlizau" changeset="2254250" lat="42.914722" lon="21.093611">
    <tag k="name" v="Kodra e Golme"/>
    <tag k="name_full_nd" v="Kodra e Golme"/>
    <tag k="name_generic" v="Kodra"/>
    <tag k="name_short" v=""/>
    <tag k="name_sort" v="KODRAEGOLME"/>
    <tag k="place" v="hamlet"/>
  </node>
  <node id="448709697" version="3" timestamp="2009-10-12T12:29:28Z" uid="131059" user="h4ck3rm1k3" changeset="2825425" lat="42.914722" lon="21.093611">
    <tag k="name" v="Kodra e Golme"/>
    <tag k="name_full_nd" v="Kodra e Golme"/>
    <tag k="name_generic" v="Kodra"/>
    <tag k="name_short" v=""/>
    <tag k="name_sort" v="KODRAEGOLME"/>
    <tag k="place" v="hamlet"/>
  </node>
  <node id="448709699" version="2" timestamp="2009-08-25T09:18:38Z" uid="18775" user="drlizau" changeset="2254105" lat="42.895556" lon="21.0975">
    <tag k="elevation" v=""/>
    <tag k="name" v="Suka"/>
    <tag k="name_full_nd" v="Suka"/>
    <tag k="name_generic" v=""/>
    <tag k="name_short" v=""/>
    <tag k="name_sort" v="SUKA"/>
    <tag k="place" v="hamlet"/>
  </node>
  <node id="448709701" version="2" timestamp="2009-08-25T09:18:38Z" uid="18775" user="drlizau" changeset="2254105" lat="42.7425" lon="20.853611">
    <tag k="elevation" v=""/>
    <tag k="name" v="Kraljica"/>
    <tag k="name_full_nd" v="Kraljica"/>
    <tag k="name_generic" v=""/>
    <tag k="name_short" v=""/>
    <tag k="name_sort" v="KRALJICA"/>
    <tag k="place" v="hamlet"/>
  </node>
  <node id="448709710" version="2" timestamp="2009-08-25T09:35:17Z" uid="18775" user="drlizau" changeset="2254250" lat="42.75" lon="20.925278">
    <tag k="name" v="Čičanica"/>
    <tag k="name_full_nd" v="Čičanica"/>
    <tag k="name_generic" v=""/>
    <tag k="name_short" v=""/>
    <tag k="name_sort" v="CICANICA"/>
    <tag k="place" v="hamlet"/>
  </node>
  <node id="448709710" version="3" timestamp="2009-10-12T12:29:13Z" uid="131059" user="h4ck3rm1k3" changeset="2825425" lat="42.75" lon="20.925278">
    <tag k="name" v="Čičanica"/>
    <tag k="name_full_nd" v="Čičanica"/>
    <tag k="name_generic" v=""/>
    <tag k="name_short" v=""/>
    <tag k="name_sort" v="CICANICA"/>
    <tag k="place" v="hamlet"/>
  </node>
  <node id="448709711" version="2" timestamp="2009-08-25T09:35:16Z" uid="18775" user="drlizau" changeset="2254250" lat="42.75" lon="20.925278">
    <tag k="name" v="Čičavica"/>
    <tag k="name_full_nd" v="Čičavica"/>
    <tag k="name_generic" v=""/>
    <tag k="name_short" v=""/>
    <tag k="name_sort" v="CICAVICA"/>
    <tag k="place" v="hamlet"/>
  </node>
  <node id="448709711" version="3" timestamp="2009-10-12T12:29:13Z" uid="131059" user="h4ck3rm1k3" changeset="2825425" lat="42.75" lon="20.925278">
    <tag k="name" v="Čičavica"/>
    <tag k="name_full_nd" v="Čičavica"/>
    <tag k="name_generic" v=""/>
    <tag k="name_short" v=""/>
    <tag k="name_sort" v="CICAVICA"/>
    <tag k="place" v="hamlet"/>
  </node>
  <node id="448709759" version="2" timestamp="2009-08-25T09:18:38Z" uid="18775" user="drlizau" changeset="2254105" lat="42.8675" lon="21.010556">
    <tag k="elevation" v=""/>
    <tag k="name" v="Bila"/>
    <tag k="name_full_nd" v="Bila"/>
    <tag k="name_generic" v=""/>
    <tag k="name_short" v=""/>
    <tag k="name_sort" v="BILA"/>
    <tag k="place" v="hamlet"/>
  </node>
  <node id="448709760" version="2" timestamp="2009-08-25T09:18:37Z" uid="18775" user="drlizau" changeset="2254105" lat="42.883889" lon="20.728611">
    <tag k="elevation" v=""/>
    <tag k="name" v="Nikolina Njiva"/>
    <tag k="name_full_nd" v="Nikolina Njiva"/>
    <tag k="name_generic" v=""/>
    <tag k="name_short" v=""/>
    <tag k="name_sort" v="NIKOLINANJIVA"/>
    <tag k="place" v="hamlet"/>
  </node>
  <node id="448709764" version="2" timestamp="2009-08-25T09:18:37Z" uid="18775" user="drlizau" changeset="2254105" lat="42.886667" lon="21.010278">
    <tag k="elevation" v=""/>
    <tag k="name" v="Crni Breg"/>
    <tag k="name_full_nd" v="Crni Breg"/>
    <tag k="name_generic" v="Breg"/>
    <tag k="name_short" v=""/>
    <tag k="name_sort" v="CRNIBREG"/>
    <tag k="place" v="hamlet"/>
  </node>
  <node id="448709775" version="2" timestamp="2009-08-25T09:18:37Z" uid="18775" user="drlizau" changeset="2254105" lat="42.784167" lon="20.991389">
    <tag k="elevation" v=""/>
    <tag k="name" v="Šolje Potok"/>
    <tag k="name_full_nd" v="Šolje Potok"/>
    <tag k="name_generic" v="Potok"/>
    <tag k="name_short" v=""/>
    <tag k="name_sort" v="SOLJEPOTOK"/>
    <tag k="place" v="hamlet"/>
  </node>
  <node id="448709782" version="2" timestamp="2009-08-25T09:18:37Z" uid="18775" user="drlizau" changeset="2254105" lat="42.728333" lon="20.725">
    <tag k="elevation" v=""/>
    <tag k="name" v="Raponja"/>
    <tag k="name_full_nd" v="Raponja"/>
    <tag k="name_generic" v=""/>
    <tag k="name_short" v=""/>
    <tag k="name_sort" v="RAPONJA"/>
    <tag k="place" v="hamlet"/>
  </node>
  <node id="448709784" version="2" timestamp="2009-08-25T09:18:37Z" uid="18775" user="drlizau" changeset="2254105" lat="42.859167" lon="20.817222">
    <tag k="elevation" v=""/>
    <tag k="name" v="Grmova"/>
    <tag k="name_full_nd" v="Grmova"/>
    <tag k="name_generic" v=""/>
    <tag k="name_short" v=""/>
    <tag k="name_sort" v="GRMOVA"/>
    <tag k="place" v="hamlet"/>
  </node>
  <node id="448709822" version="2" timestamp="2009-08-25T09:18:38Z" uid="18775" user="drlizau" changeset="2254105" lat="42.687778" lon="20.740556">
    <tag k="elevation" v=""/>
    <tag k="name" v="Likovački Potok"/>
    <tag k="name_full_nd" v="Likovački Potok"/>
    <tag k="name_generic" v="Potok"/>
    <tag k="name_short" v=""/>
    <tag k="name_sort" v="LIKOVACKIPOTOK"/>
    <tag k="place" v="hamlet"/>
  </node>
  <node id="448709889" version="2" timestamp="2009-08-25T09:35:21Z" uid="18775" user="drlizau" changeset="2254250" lat="42.793889" lon="21.150833">
    <tag k="name" v="Lupç i Poshtëm"/>
    <tag k="name_full_nd" v="Lupç i Poshtëm"/>
    <tag k="name_generic" v=""/>
    <tag k="name_short" v=""/>
    <tag k="name_sort" v="LUPCIPOSHTEM"/>
    <tag k="place" v="hamlet"/>
  </node>
  <node id="448709889" version="3" timestamp="2009-10-12T12:28:21Z" uid="131059" user="h4ck3rm1k3" changeset="2825425" lat="42.793889" lon="21.150833">
    <tag k="name" v="Lupç i Poshtëm"/>
    <tag k="name_full_nd" v="Lupç i Poshtëm"/>
    <tag k="name_generic" v=""/>
    <tag k="name_short" v=""/>
    <tag k="name_sort" v="LUPCIPOSHTEM"/>
    <tag k="place" v="hamlet"/>
  </node>
  <node id="448709903" version="2" timestamp="2009-08-25T09:35:20Z" uid="18775" user="drlizau" changeset="2254250" lat="42.698333" lon="20.85">
    <tag k="name" v="Штутица"/>
    <tag k="name_full_nd" v="Штутица"/>
    <tag k="name_generic" v=""/>
    <tag k="name_short" v=""/>
    <tag k="name_sort" v="ШТУТИЦА"/>
    <tag k="place" v="hamlet"/>
  </node>
  <node id="448709903" version="3" timestamp="2009-10-12T12:31:08Z" uid="131059" user="h4ck3rm1k3" changeset="2825425" lat="42.698333" lon="20.85">
    <tag k="name" v="Штутица"/>
    <tag k="name_full_nd" v="Штутица"/>
    <tag k="name_generic" v=""/>
    <tag k="name_short" v=""/>
    <tag k="name_sort" v="ШТУТИЦА"/>
    <tag k="place" v="hamlet"/>
  </node>
  <node id="448709929" version="4" timestamp="2009-08-25T09:18:36Z" uid="18775" user="drlizau" changeset="2254105" lat="42.691389" lon="20.861667">
    <tag k="geonameid" v="832113"/>
    <tag k="gnadmin" v="00"/>
    <tag k="gnadmin2" v="Kosovo"/>
    <tag k="gnfeature" v="T"/>
    <tag k="gnfeaturec" v="HLL"/>
    <tag k="name" v="Gurina"/>
    <tag k="name2" v="Gurina"/>
    <tag k="name_full_nd" v="Gurina"/>
    <tag k="name_sort" v="GURINA"/>
    <tag k="natural" v="peak"/>
  </node>
  <node id="448709935" version="2" timestamp="2009-08-25T09:35:20Z" uid="18775" user="drlizau" changeset="2254250" lat="42.684167" lon="20.883611">
    <tag k="name" v="Grablja"/>
    <tag k="name_full_nd" v="Grablja"/>
    <tag k="name_generic" v=""/>
    <tag k="name_short" v=""/>
    <tag k="name_sort" v="GRABLJA"/>
    <tag k="place" v="hamlet"/>
  </node>
  <node id="448709935" version="3" timestamp="2009-10-12T12:31:04Z" uid="131059" user="h4ck3rm1k3" changeset="2825425" lat="42.684167" lon="20.883611">
    <tag k="name" v="Grablja"/>
    <tag k="name_full_nd" v="Grablja"/>
    <tag k="name_generic" v=""/>
    <tag k="name_short" v=""/>
    <tag k="name_sort" v="GRABLJA"/>
    <tag k="place" v="hamlet"/>
  </node>
  <node id="448709949" version="2" timestamp="2009-08-25T09:18:36Z" uid="18775" user="drlizau" changeset="2254105" lat="42.821944" lon="20.721667">
    <tag k="elevation" v=""/>
    <tag k="name" v="Lazovi"/>
    <tag k="name_full_nd" v="Lazovi"/>
    <tag k="name_generic" v=""/>
    <tag k="name_short" v=""/>
    <tag k="name_sort" v="LAZOVI"/>
    <tag k="place" v="hamlet"/>
  </node>
  <node id="448706514" version="14" timestamp="2012-07-20T14:45:00Z" uid="722137" user="OSMF Redaction Account" changeset="12379997" lat="42.6868902" lon="21.0665398">
    <tag k="name" v="Obiliq"/>
  </node>
  <node id="448706637" version="6" timestamp="2012-07-19T11:04:40Z" uid="539656" user="kragon77" changeset="12320345" lat="42.9" lon="21.2"/>
  <node id="448706663" version="10" timestamp="2012-07-20T14:46:35Z" uid="722137" user="OSMF Redaction Account" changeset="12380068" lat="42.672778" lon="21.076389"/>
  <node id="448707339" version="7" timestamp="2012-07-20T20:36:44Z" uid="722137" user="OSMF Redaction Account" changeset="12390740" lat="42.915278" lon="20.991944"/>
  <node id="448707359" version="8" timestamp="2012-07-20T22:35:33Z" uid="722137" user="OSMF Redaction Account" changeset="12394970" lat="42.8742468" lon="20.7801925">
    <tag k="is_in" v="Kosovo"/>
    <tag k="population" v="0"/>
  </node>
  <node id="448707365" version="7" timestamp="2012-07-20T20:59:35Z" uid="722137" user="OSMF Redaction Account" changeset="12391524" lat="42.803056" lon="20.928889"/>
  <node id="448707482" version="7" timestamp="2012-07-20T20:45:47Z" uid="722137" user="OSMF Redaction Account" changeset="12391021" lat="42.775278" lon="20.968889"/>
  <node id="448707837" version="4" timestamp="2012-07-21T00:02:39Z" uid="722137" user="OSMF Redaction Account" changeset="12396755" lat="42.741667" lon="20.761111"/>
  <node id="448708202" version="12" timestamp="2012-07-20T21:45:28Z" uid="722137" user="OSMF Redaction Account" changeset="12393620" lat="42.926944" lon="20.810556"/>
  <node id="448708825" version="8" timestamp="2012-07-20T17:31:39Z" uid="722137" user="OSMF Redaction Account" changeset="12385329" lat="43.0512897" lon="20.8103265">
    <tag k="is_in:country" v="Kosovo"/>
    <tag k="population" v="0"/>
  </node>
  <node id="448708825" version="9" timestamp="2012-07-31T13:00:14Z" uid="675543" user="filu" changeset="12561008" lat="43.0512125" lon="20.8103247"/>
  <node id="448708833" version="17" timestamp="2012-05-17T08:57:20Z" uid="109299" user="bresta" changeset="11621338" lat="42.6582126" lon="21.1503298"/>
  <node id="448709070" version="10" timestamp="2012-07-20T15:05:45Z" uid="722137" user="OSMF Redaction Account" changeset="12380651" lat="42.734167" lon="21.025556"/>
</osm>
