<?xml version='1.0' encoding='UTF-8'?>
<osm version="0.6" generator="libosmium/2.20.0">
  <node id="449201307" version="2" timestamp="2009-12-24T04:33:09Z" uid="6975" user="ulfl" changeset="3439940" lat="51.4567412" lon="0.0225921">
    <tag k="historic" v="memorial"/>
    <tag k="note" v="WWI&amp;WWII"/>
  </node>
  <node id="449201376" version="1" timestamp="2009-07-27T18:06:03Z" uid="43863" user="Rundling" changeset="1958168" lat="52.964371" lon="10.5595771"/>
  <node id="449205124" version="2" timestamp="2009-08-03T16:43:20Z" uid="142575" user="dalailama" changeset="2027377" lat="54.646375" lon="8.3279573">
    <tag k="amenity" v="nightclub"/>
    <tag k="name" v="Kniepsandhalle"/>
  </node>
  <node id="449205124" version="3" timestamp="2010-12-19T16:30:59Z" uid="8748" user="ToniE" changeset="6707701" lat="54.646143" lon="8.3281217">
    <tag k="amenity" v="nightclub"/>
    <tag k="name" v="Kniepsandhalle"/>
  </node>
  <node id="449205124" version="4" timestamp="2012-01-06T14:30:12Z" uid="8748" user="ToniE" changeset="10312040" lat="54.646143" lon="8.3281217"/>
  <node id="449206403" version="1" timestamp="2009-07-27T18:18:33Z" uid="45263" user="Noframe" changeset="1958223" lat="54.6274797" lon="8.3844032">
    <tag k="amenity" v="bus_station"/>
    <tag k="name" v="Köns Übergang"/>
  </node>
  <node id="449206403" version="2" timestamp="2009-07-30T09:09:16Z" uid="142575" user="dalailama" changeset="1983071" lat="54.6274797" lon="8.3844032">
    <tag k="amenity" v="bus_station"/>
    <tag k="name" v="Köns Übergang"/>
  </node>
  <node id="449207313" version="1" timestamp="2009-07-27T18:19:55Z" uid="45263" user="Noframe" changeset="1958223" lat="54.6269033" lon="8.3899135">
    <tag k="addr:housenumber" v="55"/>
    <tag k="amenity" v="place_of_worship"/>
    <tag k="name" v="Wittduner Kappelle"/>
  </node>
  <node id="449207313" version="2" timestamp="2009-07-30T09:09:13Z" uid="142575" user="dalailama" changeset="1983071" lat="54.6269062" lon="8.3899126">
    <tag k="addr:housenumber" v="55"/>
    <tag k="amenity" v="place_of_worship"/>
    <tag k="name" v="Wittdüner Kappelle"/>
  </node>
  <node id="449207313" version="3" timestamp="2009-09-05T11:37:09Z" uid="8748" user="ToniE" changeset="2379606" lat="54.6269062" lon="8.3899126">
    <tag k="addr:housenumber" v="55"/>
    <tag k="amenity" v="place_of_worship"/>
    <tag k="denomination" v="lutheran"/>
    <tag k="name" v="Evangelische Kappelle"/>
    <tag k="religion" v="christian"/>
  </node>
  <node id="449207313" version="4" timestamp="2010-08-23T13:35:02Z" uid="293774" user="Oli-Wan" changeset="5571129" lat="54.6269062" lon="8.3899126">
    <tag k="addr:housenumber" v="55"/>
    <tag k="amenity" v="place_of_worship"/>
    <tag k="denomination" v="lutheran"/>
    <tag k="name" v="Evangelische Kapelle"/>
    <tag k="religion" v="christian"/>
  </node>
  <node id="449207313" version="5" timestamp="2010-12-14T17:42:07Z" uid="8748" user="ToniE" changeset="6660532" lat="54.626783" lon="8.3899163">
    <tag k="addr:housenumber" v="55"/>
    <tag k="amenity" v="place_of_worship"/>
    <tag k="denomination" v="lutheran"/>
    <tag k="name" v="Evangelische Kapelle"/>
    <tag k="religion" v="christian"/>
  </node>
  <node id="449207313" version="6" timestamp="2010-12-22T11:57:10Z" uid="8748" user="ToniE" changeset="6734779" lat="54.6268047" lon="8.3899238">
    <tag k="addr:city" v="Wittdün"/>
    <tag k="addr:country" v="DE"/>
    <tag k="addr:housenumber" v="55"/>
    <tag k="addr:postcode" v="25946"/>
    <tag k="addr:street" v="Inselstraße"/>
  </node>
  <node id="449201376" version="2" timestamp="2012-07-18T18:22:59Z" uid="722137" user="OSMF Redaction Account" changeset="12292199" lat="52.964371" lon="10.5595771"/>
</osm>
