<?xml version='1.0' encoding='UTF-8'?>
<osm version="0.6" generator="libosmium/2.20.0">
  <node id="450007570" version="1" timestamp="2009-07-28T14:45:48Z" uid="115477" user="wowik" changeset="1965895" lat="55.9774099" lon="37.1508933">
    <tag k="amenity" v="police"/>
  </node>
  <node id="450007570" version="2" timestamp="2010-01-05T10:51:25Z" uid="109327" user="OverQuantum" changeset="3544233" lat="55.9774099" lon="37.1508933">
    <tag k="amenity" v="police"/>
    <tag k="comment" v="ОВД района &quot;Крюково&quot; Зеленоградского АО"/>
    <tag k="name" v="3-й ОУВД"/>
  </node>
  <node id="450007570" version="3" timestamp="2010-08-08T13:40:12Z" uid="241531" user="dik_man" changeset="5433067" lat="55.97741" lon="37.1508934">
    <tag k="addr:city" v="Зеленоград"/>
    <tag k="addr:street" v="15-мкр"/>
    <tag k="amenity" v="police"/>
    <tag k="comment" v="ОВД района &quot;Крюково&quot; Зеленоградского АО"/>
    <tag k="name" v="3-й ОУВД"/>
  </node>
  <node id="450007570" version="4" timestamp="2010-11-07T09:17:49Z" uid="206282" user="Amigo" changeset="6309179" lat="55.9775399" lon="37.150874">
    <tag k="addr:city" v="Зеленоград"/>
    <tag k="addr:street" v="15-мкр"/>
    <tag k="alt_name" v="3-й ОУВД"/>
    <tag k="amenity" v="police"/>
    <tag k="name" v="ОВД района Крюково Зеленоградского АО"/>
  </node>
  <node id="450007570" version="5" timestamp="2010-11-13T10:45:55Z" uid="115477" user="wowik" changeset="6356871" lat="55.9775399" lon="37.150874">
    <tag k="addr:city" v="Зеленоград"/>
    <tag k="addr:street" v="15-й Микрорайон"/>
    <tag k="alt_name" v="3-й ОУВД"/>
    <tag k="amenity" v="police"/>
    <tag k="name" v="ОВД района Крюково Зеленоградского АО"/>
  </node>
  <node id="450007570" version="6" timestamp="2011-01-21T19:31:07Z" uid="115477" user="wowik" changeset="7043561" lat="55.9775399" lon="37.150874">
    <tag k="addr:city" v="Зеленоград"/>
    <tag k="addr:street" v="15-й Микрорайон"/>
    <tag k="alt_name" v="3-й ОУВД"/>
    <tag k="amenity" v="police"/>
    <tag k="name" v="ОВД района Крюково Зеленоградского АО"/>
  </node>
  <node id="450007572" version="1" timestamp="2009-07-28T14:45:48Z" uid="115477" user="wowik" changeset="1965895" lat="55.9777989" lon="37.1550304">
    <tag k="amenity" v="cinema"/>
  </node>
  <node id="450007572" version="2" timestamp="2009-07-28T15:30:56Z" uid="115477" user="wowik" changeset="1966448" lat="55.9777909" lon="37.1550226">
    <tag k="amenity" v="cinema"/>
  </node>
  <node id="450007572" version="3" timestamp="2009-10-07T03:49:23Z" uid="115477" user="wowik" changeset="2767303" lat="55.9777017" lon="37.1541469">
    <tag k="amenity" v="cinema"/>
  </node>
  <node id="450007572" version="4" timestamp="2010-10-29T13:43:47Z" uid="241531" user="dik_man" changeset="6218713" lat="55.9777017" lon="37.1541469">
    <tag k="amenity" v="cinema"/>
  </node>
  <node id="450007574" version="1" timestamp="2009-07-28T14:45:48Z" uid="115477" user="wowik" changeset="1965895" lat="55.9777893" lon="37.1552364">
    <tag k="shop" v="supermarket"/>
  </node>
  <node id="450007574" version="2" timestamp="2009-07-28T15:30:56Z" uid="115477" user="wowik" changeset="1966448" lat="55.9777909" lon="37.1552372">
    <tag k="name" v="Перекресток"/>
    <tag k="shop" v="supermarket"/>
  </node>
  <node id="450007574" version="3" timestamp="2009-10-07T03:51:00Z" uid="115477" user="wowik" changeset="2767303" lat="55.9777909" lon="37.1552372">
    <tag k="name" v="Перекресток"/>
    <tag k="shop" v="supermarket"/>
  </node>
  <node id="450007576" version="1" timestamp="2009-07-28T14:45:48Z" uid="115477" user="wowik" changeset="1965895" lat="55.9778085" lon="37.1554509">
    <tag k="amenity" v="restaurant"/>
  </node>
  <node id="450007576" version="2" timestamp="2009-07-28T15:30:56Z" uid="115477" user="wowik" changeset="1966448" lat="55.9777909" lon="37.1554346">
    <tag k="amenity" v="restaurant"/>
  </node>
  <node id="450007576" version="3" timestamp="2009-10-07T03:49:23Z" uid="115477" user="wowik" changeset="2767303" lat="55.977793" lon="37.1554343">
    <tag k="amenity" v="restaurant"/>
    <tag k="name" v="Пронто"/>
  </node>
  <node id="450007576" version="4" timestamp="2010-10-29T13:43:47Z" uid="241531" user="dik_man" changeset="6218713" lat="55.9777327" lon="37.1555933">
    <tag k="amenity" v="restaurant"/>
    <tag k="name" v="Пронто"/>
  </node>
  <node id="450007576" version="5" timestamp="2011-01-21T19:28:07Z" uid="115477" user="wowik" changeset="7043561" lat="55.9778256" lon="37.1554195">
    <tag k="amenity" v="restaurant"/>
    <tag k="name" v="Пронто"/>
  </node>
  <node id="450007576" version="6" timestamp="2012-02-17T22:18:32Z" uid="384084" user="Kostik" changeset="10715762" lat="55.9778256" lon="37.1554195">
    <tag k="amenity" v="restaurant"/>
    <tag k="name" v="Пронто"/>
  </node>
  <node id="450007583" version="1" timestamp="2009-07-28T14:45:48Z" uid="115477" user="wowik" changeset="1965895" lat="55.9522036" lon="37.2160388">
    <tag k="amenity" v="place_of_worship"/>
  </node>
  <node id="450007583" version="2" timestamp="2010-04-12T16:47:29Z" uid="115477" user="wowik" changeset="4406125" lat="55.9522036" lon="37.2160387">
    <tag k="amenity" v="place_of_worship"/>
    <tag k="name" v="Часовня Святого праведного Лазаря Четверодневного"/>
  </node>
  <node id="450007583" version="3" timestamp="2010-04-12T16:51:56Z" uid="115477" user="wowik" changeset="4406125" lat="55.9522036" lon="37.2160387">
    <tag k="amenity" v="place_of_worship"/>
    <tag k="denomination" v="orthodox"/>
    <tag k="name" v="Часовня Святого праведного Лазаря Четверодневного"/>
    <tag k="religion" v="christian"/>
  </node>
  <node id="450007583" version="4" timestamp="2010-11-12T16:06:15Z" uid="115477" user="wowik" changeset="6351100" lat="55.9522036" lon="37.2160387">
    <tag k="amenity" v="place_of_worship"/>
    <tag k="denomination" v="orthodox"/>
    <tag k="name" v="Часовня Святого праведного Лазаря Четверодневного"/>
    <tag k="religion" v="christian"/>
  </node>
  <node id="450007576" version="7" timestamp="2012-07-20T23:51:35Z" uid="722137" user="OSMF Redaction Account" changeset="12396550" lat="55.9777327" lon="37.1555933"/>
</osm>
