<?xml version='1.0' encoding='UTF-8'?>
<osm version="0.6" generator="libosmium/2.20.0">
  <node id="450150382" version="2" timestamp="2009-11-24T18:45:49Z" uid="33382" user="de_muur" changeset="3206661" lat="53.4936707" lon="10.4227472">
    <tag k="amenity" v="restaurant"/>
    <tag k="name" v="Bruhn&apos;s Gasthof"/>
  </node>
  <node id="450150382" version="3" timestamp="2010-01-08T13:20:52Z" uid="216438" user="Jan080" changeset="3570129" lat="53.4936543" lon="10.4230473">
    <tag k="amenity" v="restaurant"/>
    <tag k="name" v="Bruhn&apos;s Gasthof"/>
  </node>
  <node id="450156343" version="5" timestamp="2011-02-13T18:52:43Z" uid="17602" user="B10xyz" changeset="7278980" lat="52.5312216" lon="13.3821062">
    <tag k="name" v="U Naturkundemuseum"/>
    <tag k="old_name" v="U Zinnowitzer Straße"/>
    <tag k="railway" v="subway_entrance"/>
    <tag k="surveillance" v="indoor"/>
    <tag k="wheelchair" v="no"/>
  </node>
  <node id="450150382" version="4" timestamp="2012-07-17T12:49:08Z" uid="722137" user="OSMF Redaction Account" changeset="12265545" lat="53.4935612" lon="10.4233059">
    <tag k="amenity" v="restaurant"/>
    <tag k="name" v="Bruhn&apos;s Gasthof"/>
  </node>
  <node id="450156343" version="6" timestamp="2012-07-18T12:32:05Z" uid="722137" user="OSMF Redaction Account" changeset="12281993" lat="52.5312215" lon="13.3821063">
    <tag k="name" v="U Naturkundemuseum"/>
    <tag k="old_name" v="U Zinnowitzer Straße"/>
    <tag k="railway" v="station"/>
    <tag k="surveillance" v="indoor"/>
    <tag k="wheelchair" v="no"/>
  </node>
</osm>
