<?xml version='1.0' encoding='UTF-8'?>
<osm version="0.6" generator="libosmium/2.20.0">
  <node id="450220035" version="3" timestamp="2009-10-03T14:32:02Z" uid="33382" user="de_muur" changeset="2724596" lat="53.0588207" lon="8.9961921">
    <tag k="addr:city" v="Oyten"/>
    <tag k="addr:country" v="DE"/>
    <tag k="addr:housenumber" v="7"/>
    <tag k="addr:phone" v="04207909030"/>
    <tag k="addr:postcode" v="28876"/>
    <tag k="addr:street" v="Oyterdamm"/>
    <tag k="name" v="Gärtnerei Jäger"/>
    <tag k="shop" v="garden_centre"/>
  </node>
  <node id="450220035" version="4" timestamp="2010-01-01T16:46:57Z" uid="33382" user="de_muur" changeset="3511555" lat="53.0588774" lon="8.9962204">
    <tag k="addr:city" v="Oyten"/>
    <tag k="addr:country" v="DE"/>
    <tag k="addr:housenumber" v="7"/>
    <tag k="addr:phone" v="04207909030"/>
    <tag k="addr:postcode" v="28876"/>
    <tag k="addr:street" v="Oyterdamm"/>
    <tag k="name" v="Gärtnerei Jäger"/>
    <tag k="shop" v="garden_centre"/>
  </node>
  <node id="450220035" version="5" timestamp="2010-01-28T21:12:29Z" uid="115883" user="Senior_Spielbergo" changeset="3739086" lat="53.0588774" lon="8.9962204">
    <tag k="addr:city" v="Oyten"/>
    <tag k="addr:country" v="DE"/>
    <tag k="addr:housenumber" v="7"/>
    <tag k="addr:phone" v="+49 4207 909030"/>
    <tag k="addr:postcode" v="28876"/>
    <tag k="addr:street" v="Oyterdamm"/>
    <tag k="name" v="Gärtnerei Jäger"/>
    <tag k="shop" v="garden_centre"/>
  </node>
  <node id="450220035" version="6" timestamp="2010-01-29T20:59:25Z" uid="115883" user="Senior_Spielbergo" changeset="3746480" lat="53.0589758" lon="8.9961941">
    <tag k="addr:city" v="Oyten"/>
    <tag k="addr:country" v="DE"/>
    <tag k="addr:housenumber" v="7"/>
    <tag k="addr:phone" v="+49 4207 909030"/>
    <tag k="addr:postcode" v="28876"/>
    <tag k="addr:street" v="Oyterdamm"/>
    <tag k="name" v="Gärtnerei Jäger"/>
    <tag k="shop" v="garden_centre"/>
  </node>
  <node id="450220035" version="7" timestamp="2010-03-09T12:42:04Z" uid="115883" user="Senior_Spielbergo" changeset="4080579" lat="53.0595152" lon="8.9963637">
    <tag k="addr:city" v="Oyten"/>
    <tag k="addr:country" v="DE"/>
    <tag k="addr:housenumber" v="7"/>
    <tag k="addr:phone" v="+49 4207 909030"/>
    <tag k="addr:postcode" v="28876"/>
    <tag k="addr:street" v="Oyterdamm"/>
    <tag k="name" v="Gärtnerei Jäger"/>
    <tag k="shop" v="garden_centre"/>
  </node>
  <node id="450220035" version="8" timestamp="2010-03-09T13:00:55Z" uid="115883" user="Senior_Spielbergo" changeset="4080735" lat="53.0595152" lon="8.9963637">
    <tag k="addr:city" v="Oyten"/>
    <tag k="addr:country" v="DE"/>
    <tag k="addr:housenumber" v="7"/>
    <tag k="addr:phone" v="+49 4207 909030"/>
    <tag k="addr:postcode" v="28876"/>
    <tag k="addr:street" v="Oyterdamm"/>
    <tag k="name" v="Gärtnerei Jäger"/>
    <tag k="shop" v="garden_centre"/>
  </node>
  <node id="450220527" version="3" timestamp="2009-10-03T14:32:02Z" uid="33382" user="de_muur" changeset="2724596" lat="53.0585524" lon="8.9962179">
    <tag k="addr:city" v="Oyten"/>
    <tag k="addr:country" v="DE"/>
    <tag k="addr:housenumber" v="16"/>
    <tag k="addr:phone" v="042073228"/>
    <tag k="addr:postcode" v="28876"/>
    <tag k="addr:street" v="Oyterdamm"/>
    <tag k="name" v="Schröder&apos;s Baumschule"/>
    <tag k="shop" v="garden_centre"/>
  </node>
  <node id="450220527" version="4" timestamp="2010-01-01T16:46:57Z" uid="33382" user="de_muur" changeset="3511555" lat="53.0586091" lon="8.9962462">
    <tag k="addr:city" v="Oyten"/>
    <tag k="addr:country" v="DE"/>
    <tag k="addr:housenumber" v="16"/>
    <tag k="addr:phone" v="042073228"/>
    <tag k="addr:postcode" v="28876"/>
    <tag k="addr:street" v="Oyterdamm"/>
    <tag k="name" v="Schröder&apos;s Baumschule"/>
    <tag k="shop" v="garden_centre"/>
  </node>
  <node id="450220527" version="5" timestamp="2010-01-28T21:12:29Z" uid="115883" user="Senior_Spielbergo" changeset="3739086" lat="53.0586091" lon="8.9962462">
    <tag k="addr:city" v="Oyten"/>
    <tag k="addr:country" v="DE"/>
    <tag k="addr:fax" v="+49 4207 803273"/>
    <tag k="addr:housenumber" v="16"/>
    <tag k="addr:phone" v="+49 4207 3228"/>
    <tag k="addr:postcode" v="28876"/>
    <tag k="addr:street" v="Oyterdamm"/>
    <tag k="name" v="Schröder&apos;s Baumschule"/>
    <tag k="shop" v="garden_centre"/>
  </node>
  <node id="450220527" version="6" timestamp="2010-01-29T20:59:26Z" uid="115883" user="Senior_Spielbergo" changeset="3746480" lat="53.0585423" lon="8.9961556">
    <tag k="addr:city" v="Oyten"/>
    <tag k="addr:country" v="DE"/>
    <tag k="addr:fax" v="+49 4207 803273"/>
    <tag k="addr:housenumber" v="16"/>
    <tag k="addr:phone" v="+49 4207 3228"/>
    <tag k="addr:postcode" v="28876"/>
    <tag k="addr:street" v="Oyterdamm"/>
    <tag k="name" v="Schröder&apos;s Baumschule"/>
    <tag k="shop" v="garden_centre"/>
  </node>
  <node id="450220527" version="7" timestamp="2010-03-09T12:42:04Z" uid="115883" user="Senior_Spielbergo" changeset="4080579" lat="53.0583682" lon="8.9957245">
    <tag k="addr:city" v="Oyten"/>
    <tag k="addr:country" v="DE"/>
    <tag k="addr:fax" v="+49 4207 803273"/>
    <tag k="addr:housenumber" v="16"/>
    <tag k="addr:phone" v="+49 4207 3228"/>
    <tag k="addr:postcode" v="28876"/>
    <tag k="addr:street" v="Oyterdamm"/>
    <tag k="name" v="Schröder&apos;s Baumschule"/>
    <tag k="shop" v="garden_centre"/>
  </node>
  <node id="450220527" version="8" timestamp="2010-03-09T12:57:30Z" uid="115883" user="Senior_Spielbergo" changeset="4080710" lat="53.0583682" lon="8.9957245">
    <tag k="addr:city" v="Oyten"/>
    <tag k="addr:country" v="DE"/>
    <tag k="addr:fax" v="+49 4207 803273"/>
    <tag k="addr:housenumber" v="16"/>
    <tag k="addr:phone" v="+49 4207 3228"/>
    <tag k="addr:postcode" v="28876"/>
    <tag k="addr:street" v="Oyterdamm"/>
    <tag k="name" v="Schröder&apos;s Baumschule"/>
    <tag k="shop" v="garden_centre"/>
  </node>
  <node id="450221451" version="2" timestamp="2009-12-27T14:34:39Z" uid="23543" user="jkjk" changeset="3462677" lat="49.9722195" lon="19.1384172">
    <tag k="source" v="http://ump.waw.pl/ retrieved 03:38:28 06/15/09 (UMP-Katowice/src/KATOWICE.drogi.txt)"/>
  </node>
  <node id="450221451" version="3" timestamp="2009-12-27T14:38:10Z" uid="23543" user="jkjk" changeset="3462677" lat="49.9722195" lon="19.1384172">
    <tag k="source" v="http://ump.waw.pl/ retrieved 03:38:28 06/15/09 (UMP-Katowice/src/KATOWICE.drogi.txt)"/>
  </node>
  <node id="450223783" version="2" timestamp="2010-03-13T00:54:46Z" uid="30632" user="antblant" changeset="4111079" lat="49.96259" lon="18.96507">
    <tag k="source" v="http://ump.waw.pl/ retrieved 03:38:28 06/15/09 (UMP-Katowice/src/KATOWICE.zielone.txt)"/>
  </node>
  <node id="450223785" version="2" timestamp="2010-03-13T00:54:46Z" uid="30632" user="antblant" changeset="4111079" lat="49.96162" lon="18.96441">
    <tag k="source" v="http://ump.waw.pl/ retrieved 03:38:28 06/15/09 (UMP-Katowice/src/KATOWICE.zielone.txt)"/>
  </node>
  <node id="450223822" version="2" timestamp="2010-03-13T00:54:46Z" uid="30632" user="antblant" changeset="4111079" lat="49.95974" lon="18.96783">
    <tag k="source" v="http://ump.waw.pl/ retrieved 03:38:28 06/15/09 (UMP-Katowice/src/KATOWICE.zielone.txt)"/>
  </node>
  <node id="450223824" version="2" timestamp="2010-03-13T00:54:46Z" uid="30632" user="antblant" changeset="4111079" lat="49.95972" lon="18.96665">
    <tag k="source" v="http://ump.waw.pl/ retrieved 03:38:28 06/15/09 (UMP-Katowice/src/KATOWICE.zielone.txt)"/>
  </node>
  <node id="450223837" version="2" timestamp="2010-03-13T00:54:46Z" uid="30632" user="antblant" changeset="4111079" lat="49.95953" lon="18.96577">
    <tag k="source" v="http://ump.waw.pl/ retrieved 03:38:28 06/15/09 (UMP-Katowice/src/KATOWICE.zielone.txt)"/>
  </node>
  <node id="450223841" version="2" timestamp="2010-03-13T00:54:47Z" uid="30632" user="antblant" changeset="4111079" lat="49.96228" lon="18.97428">
    <tag k="source" v="http://ump.waw.pl/ retrieved 03:38:28 06/15/09 (UMP-Katowice/src/KATOWICE.zielone.txt)"/>
  </node>
  <node id="450223843" version="2" timestamp="2010-03-13T00:54:47Z" uid="30632" user="antblant" changeset="4111079" lat="49.96205" lon="18.97401">
    <tag k="source" v="http://ump.waw.pl/ retrieved 03:38:28 06/15/09 (UMP-Katowice/src/KATOWICE.zielone.txt)"/>
  </node>
  <node id="450223845" version="2" timestamp="2010-03-13T00:54:47Z" uid="30632" user="antblant" changeset="4111079" lat="49.96069" lon="18.97444">
    <tag k="source" v="http://ump.waw.pl/ retrieved 03:38:28 06/15/09 (UMP-Katowice/src/KATOWICE.zielone.txt)"/>
  </node>
  <node id="450223847" version="2" timestamp="2010-03-13T00:54:46Z" uid="30632" user="antblant" changeset="4111079" lat="49.9601" lon="18.96889">
    <tag k="source" v="http://ump.waw.pl/ retrieved 03:38:28 06/15/09 (UMP-Katowice/src/KATOWICE.zielone.txt)"/>
  </node>
  <node id="450223849" version="2" timestamp="2010-03-13T00:54:47Z" uid="30632" user="antblant" changeset="4111079" lat="49.96399" lon="18.97181">
    <tag k="source" v="http://ump.waw.pl/ retrieved 03:38:28 06/15/09 (UMP-Katowice/src/KATOWICE.zielone.txt)"/>
  </node>
  <node id="450223851" version="2" timestamp="2010-03-13T00:54:46Z" uid="30632" user="antblant" changeset="4111079" lat="49.96437" lon="18.97234">
    <tag k="source" v="http://ump.waw.pl/ retrieved 03:38:28 06/15/09 (UMP-Katowice/src/KATOWICE.zielone.txt)"/>
  </node>
  <node id="450223853" version="2" timestamp="2010-03-13T00:54:46Z" uid="30632" user="antblant" changeset="4111079" lat="49.96428" lon="18.97329">
    <tag k="source" v="http://ump.waw.pl/ retrieved 03:38:28 06/15/09 (UMP-Katowice/src/KATOWICE.zielone.txt)"/>
  </node>
  <node id="450223855" version="2" timestamp="2010-03-13T00:54:47Z" uid="30632" user="antblant" changeset="4111079" lat="49.96242" lon="18.97383">
    <tag k="source" v="http://ump.waw.pl/ retrieved 03:38:28 06/15/09 (UMP-Katowice/src/KATOWICE.zielone.txt)"/>
  </node>
  <node id="450223857" version="2" timestamp="2010-03-13T00:54:46Z" uid="30632" user="antblant" changeset="4111079" lat="49.96369" lon="18.96792">
    <tag k="source" v="http://ump.waw.pl/ retrieved 03:38:28 06/15/09 (UMP-Katowice/src/KATOWICE.zielone.txt)"/>
  </node>
  <node id="450223859" version="2" timestamp="2010-03-13T00:54:46Z" uid="30632" user="antblant" changeset="4111079" lat="49.96361" lon="18.96824">
    <tag k="source" v="http://ump.waw.pl/ retrieved 03:38:28 06/15/09 (UMP-Katowice/src/KATOWICE.zielone.txt)"/>
  </node>
  <node id="450223862" version="2" timestamp="2010-03-13T00:54:47Z" uid="30632" user="antblant" changeset="4111079" lat="49.9638" lon="18.96837">
    <tag k="source" v="http://ump.waw.pl/ retrieved 03:38:28 06/15/09 (UMP-Katowice/src/KATOWICE.zielone.txt)"/>
  </node>
  <node id="450223866" version="2" timestamp="2010-03-13T00:54:47Z" uid="30632" user="antblant" changeset="4111079" lat="49.96435" lon="18.97041">
    <tag k="source" v="http://ump.waw.pl/ retrieved 03:38:28 06/15/09 (UMP-Katowice/src/KATOWICE.zielone.txt)"/>
  </node>
  <node id="450224007" version="2" timestamp="2009-12-06T16:05:04Z" uid="33382" user="de_muur" changeset="3306565" lat="53.0591233" lon="8.9993017">
    <tag k="traffic_calming" v="choker"/>
  </node>
  <node id="450224625" version="2" timestamp="2010-03-14T12:03:21Z" uid="30632" user="antblant" changeset="4123478" lat="50.12274" lon="18.91719">
    <tag k="source" v="http://ump.waw.pl/ retrieved 03:38:28 06/15/09 (UMP-Katowice/src/KATOWICE.zielone.txt)"/>
  </node>
  <node id="450225124" version="2" timestamp="2010-03-14T10:40:56Z" uid="30632" user="antblant" changeset="4122679" lat="50.0401" lon="18.98868">
    <tag k="source" v="http://ump.waw.pl/ retrieved 03:38:28 06/15/09 (UMP-Katowice/src/KATOWICE.zielone.txt)"/>
  </node>
  <node id="450225125" version="2" timestamp="2010-03-14T10:40:56Z" uid="30632" user="antblant" changeset="4122679" lat="50.04016" lon="18.98941">
    <tag k="source" v="http://ump.waw.pl/ retrieved 03:38:28 06/15/09 (UMP-Katowice/src/KATOWICE.zielone.txt)"/>
  </node>
  <node id="450225126" version="2" timestamp="2010-03-14T10:40:55Z" uid="30632" user="antblant" changeset="4122679" lat="50.03965" lon="18.98609">
    <tag k="source" v="http://ump.waw.pl/ retrieved 03:38:28 06/15/09 (UMP-Katowice/src/KATOWICE.zielone.txt)"/>
  </node>
  <node id="450225127" version="2" timestamp="2010-03-14T10:40:56Z" uid="30632" user="antblant" changeset="4122679" lat="50.03956" lon="18.98667">
    <tag k="source" v="http://ump.waw.pl/ retrieved 03:38:28 06/15/09 (UMP-Katowice/src/KATOWICE.zielone.txt)"/>
  </node>
  <node id="450225128" version="2" timestamp="2010-03-14T10:40:55Z" uid="30632" user="antblant" changeset="4122679" lat="50.04018" lon="18.98596">
    <tag k="source" v="http://ump.waw.pl/ retrieved 03:38:28 06/15/09 (UMP-Katowice/src/KATOWICE.zielone.txt)"/>
  </node>
  <node id="450225129" version="2" timestamp="2010-03-14T10:40:55Z" uid="30632" user="antblant" changeset="4122679" lat="50.03995" lon="18.98585">
    <tag k="source" v="http://ump.waw.pl/ retrieved 03:38:28 06/15/09 (UMP-Katowice/src/KATOWICE.zielone.txt)"/>
  </node>
  <node id="450225130" version="2" timestamp="2010-03-14T10:40:54Z" uid="30632" user="antblant" changeset="4122679" lat="50.0414" lon="18.98868">
    <tag k="source" v="http://ump.waw.pl/ retrieved 03:38:28 06/15/09 (UMP-Katowice/src/KATOWICE.zielone.txt)"/>
  </node>
  <node id="450225131" version="2" timestamp="2010-03-14T10:40:55Z" uid="30632" user="antblant" changeset="4122679" lat="50.04087" lon="18.98774">
    <tag k="source" v="http://ump.waw.pl/ retrieved 03:38:28 06/15/09 (UMP-Katowice/src/KATOWICE.zielone.txt)"/>
  </node>
  <node id="450225132" version="2" timestamp="2010-03-14T10:40:53Z" uid="30632" user="antblant" changeset="4122679" lat="50.04177" lon="18.98965">
    <tag k="source" v="http://ump.waw.pl/ retrieved 03:38:28 06/15/09 (UMP-Katowice/src/KATOWICE.zielone.txt)"/>
  </node>
  <node id="450225133" version="2" timestamp="2010-03-14T10:40:54Z" uid="30632" user="antblant" changeset="4122679" lat="50.04177" lon="18.98894">
    <tag k="source" v="http://ump.waw.pl/ retrieved 03:38:28 06/15/09 (UMP-Katowice/src/KATOWICE.zielone.txt)"/>
  </node>
  <node id="450225134" version="2" timestamp="2010-03-14T10:40:53Z" uid="30632" user="antblant" changeset="4122679" lat="50.04055" lon="18.98965">
    <tag k="source" v="http://ump.waw.pl/ retrieved 03:38:28 06/15/09 (UMP-Katowice/src/KATOWICE.zielone.txt)"/>
  </node>
  <node id="450226778" version="3" timestamp="2009-12-06T16:05:04Z" uid="33382" user="de_muur" changeset="3306565" lat="53.0651855" lon="8.9969603">
    <tag k="highway" v="bus_stop"/>
    <tag k="name" v="Am Moor / Königsberger Straße"/>
  </node>
  <node id="450226947" version="3" timestamp="2009-12-06T16:05:04Z" uid="33382" user="de_muur" changeset="3306565" lat="53.0652061" lon="8.9973552">
    <tag k="highway" v="bus_stop"/>
    <tag k="name" v="Am Moor / Königsberger Straße"/>
  </node>
  <node id="450226947" version="4" timestamp="2010-03-09T15:37:09Z" uid="115883" user="Senior_Spielbergo" changeset="4081801" lat="53.0652045" lon="8.9973333">
    <tag k="highway" v="bus_stop"/>
    <tag k="name" v="Am Moor / Königsberger Straße"/>
  </node>
  <node id="450227354" version="2" timestamp="2009-08-26T12:21:08Z" uid="33382" user="de_muur" changeset="2266881" lat="53.0676461" lon="8.9965482"/>
  <node id="450227394" version="2" timestamp="2010-04-11T04:48:14Z" uid="20587" user="balrog-kun" changeset="4389130" lat="49.95703" lon="18.90583">
    <tag k="name" v="Łąka"/>
    <tag k="place" v="village"/>
    <tag k="source" v="http://ump.waw.pl/ retrieved 03:38:28 06/15/09 (UMP-Katowice/src/cities-Katowice.pnt-converted.txt)"/>
  </node>
  <node id="450227792" version="2" timestamp="2010-04-11T04:48:14Z" uid="20587" user="balrog-kun" changeset="4389130" lat="50.05978" lon="18.93324">
    <tag k="name" v="Kobiór"/>
    <tag k="place" v="town"/>
    <tag k="source" v="http://ump.waw.pl/ retrieved 03:38:28 06/15/09 (UMP-Katowice/src/cities-Katowice.pnt-converted.txt)"/>
  </node>
  <node id="450227792" version="3" timestamp="2010-04-27T04:12:16Z" uid="30632" user="antblant" changeset="4537887" lat="50.05978" lon="18.93324">
    <tag k="name" v="Kobiór"/>
    <tag k="place" v="town"/>
    <tag k="source" v="http://ump.waw.pl/ retrieved 03:38:28 06/15/09 (UMP-Katowice/src/cities-Katowice.pnt-converted.txt)"/>
    <tag k="teryt:simc" v="0215321"/>
  </node>
  <node id="450227793" version="2" timestamp="2010-04-11T04:48:14Z" uid="20587" user="balrog-kun" changeset="4389130" lat="50.00203" lon="18.88163">
    <tag k="name" v="Radostowice"/>
    <tag k="place" v="town"/>
    <tag k="source" v="http://ump.waw.pl/ retrieved 03:38:28 06/15/09 (UMP-Katowice/src/cities-Katowice.pnt-converted.txt)"/>
  </node>
  <node id="450227793" version="3" timestamp="2010-04-27T04:12:15Z" uid="30632" user="antblant" changeset="4537887" lat="50.00203" lon="18.88163">
    <tag k="name" v="Radostowice"/>
    <tag k="place" v="town"/>
    <tag k="source" v="http://ump.waw.pl/ retrieved 03:38:28 06/15/09 (UMP-Katowice/src/cities-Katowice.pnt-converted.txt)"/>
    <tag k="teryt:simc" v="0222077"/>
  </node>
  <node id="450227793" version="4" timestamp="2011-01-14T12:24:48Z" uid="91056" user="Yarl" changeset="6966703" lat="50.00203" lon="18.88163">
    <tag k="name" v="Radostowice"/>
    <tag k="place" v="village"/>
    <tag k="source" v="http://ump.waw.pl/ retrieved 03:38:28 06/15/09 (UMP-Katowice/src/cities-Katowice.pnt-converted.txt)"/>
    <tag k="teryt:simc" v="0222077"/>
  </node>
  <node id="450227793" version="5" timestamp="2011-06-28T17:58:03Z" uid="91056" user="Yarl" changeset="8573718" lat="50.00203" lon="18.88163">
    <tag k="name" v="Radostowice"/>
    <tag k="place" v="village"/>
    <tag k="teryt:simc" v="0222077"/>
  </node>
  <node id="450227794" version="2" timestamp="2010-04-11T04:48:15Z" uid="20587" user="balrog-kun" changeset="4389130" lat="50.01165" lon="18.88404">
    <tag k="name" v="Czarków"/>
    <tag k="place" v="town"/>
    <tag k="source" v="http://ump.waw.pl/ retrieved 03:38:28 06/15/09 (UMP-Katowice/src/cities-Katowice.pnt-converted.txt)"/>
  </node>
  <node id="450227794" version="3" timestamp="2011-01-14T12:24:43Z" uid="91056" user="Yarl" changeset="6966703" lat="50.01165" lon="18.88404">
    <tag k="name" v="Czarków"/>
    <tag k="place" v="village"/>
    <tag k="source" v="http://ump.waw.pl/ retrieved 03:38:28 06/15/09 (UMP-Katowice/src/cities-Katowice.pnt-converted.txt)"/>
  </node>
  <node id="450227794" version="4" timestamp="2011-06-28T17:58:01Z" uid="91056" user="Yarl" changeset="8573718" lat="50.01165" lon="18.88404">
    <tag k="name" v="Czarków"/>
    <tag k="place" v="village"/>
  </node>
  <node id="450227795" version="2" timestamp="2010-04-11T04:48:15Z" uid="20587" user="balrog-kun" changeset="4389130" lat="50.01191" lon="18.94781">
    <tag k="name" v="Piasek"/>
    <tag k="place" v="town"/>
    <tag k="source" v="http://ump.waw.pl/ retrieved 03:38:28 06/15/09 (UMP-Katowice/src/cities-Katowice.pnt-converted.txt)"/>
  </node>
  <node id="450227795" version="3" timestamp="2011-01-14T12:24:46Z" uid="91056" user="Yarl" changeset="6966703" lat="50.01191" lon="18.94781">
    <tag k="name" v="Piasek"/>
    <tag k="place" v="village"/>
    <tag k="source" v="http://ump.waw.pl/ retrieved 03:38:28 06/15/09 (UMP-Katowice/src/cities-Katowice.pnt-converted.txt)"/>
  </node>
  <node id="450227795" version="4" timestamp="2011-06-28T17:58:03Z" uid="91056" user="Yarl" changeset="8573718" lat="50.01191" lon="18.94781">
    <tag k="name" v="Piasek"/>
    <tag k="place" v="village"/>
  </node>
  <node id="450229689" version="2" timestamp="2010-03-13T13:34:05Z" uid="30632" user="antblant" changeset="4114671" lat="50.10241" lon="18.93484">
    <tag k="source" v="http://ump.waw.pl/ retrieved 03:38:28 06/15/09 (UMP-Katowice/src/KATOWICE.zielone.txt)"/>
  </node>
  <node id="450229690" version="2" timestamp="2010-03-13T13:34:05Z" uid="30632" user="antblant" changeset="4114671" lat="50.10286" lon="18.93532">
    <tag k="source" v="http://ump.waw.pl/ retrieved 03:38:28 06/15/09 (UMP-Katowice/src/KATOWICE.zielone.txt)"/>
  </node>
  <node id="450229691" version="2" timestamp="2010-03-13T13:34:05Z" uid="30632" user="antblant" changeset="4114671" lat="50.104" lon="18.93686">
    <tag k="source" v="http://ump.waw.pl/ retrieved 03:38:28 06/15/09 (UMP-Katowice/src/KATOWICE.zielone.txt)"/>
  </node>
  <node id="450229692" version="2" timestamp="2010-03-13T13:34:05Z" uid="30632" user="antblant" changeset="4114671" lat="50.1046" lon="18.93723">
    <tag k="source" v="http://ump.waw.pl/ retrieved 03:38:28 06/15/09 (UMP-Katowice/src/KATOWICE.zielone.txt)"/>
  </node>
  <node id="450229693" version="2" timestamp="2010-03-13T13:34:05Z" uid="30632" user="antblant" changeset="4114671" lat="50.10537" lon="18.9371">
    <tag k="source" v="http://ump.waw.pl/ retrieved 03:38:28 06/15/09 (UMP-Katowice/src/KATOWICE.zielone.txt)"/>
  </node>
  <node id="450229694" version="2" timestamp="2010-03-13T13:34:05Z" uid="30632" user="antblant" changeset="4114671" lat="50.10582" lon="18.9371">
    <tag k="source" v="http://ump.waw.pl/ retrieved 03:38:28 06/15/09 (UMP-Katowice/src/KATOWICE.zielone.txt)"/>
  </node>
  <node id="450229695" version="2" timestamp="2010-03-13T13:34:05Z" uid="30632" user="antblant" changeset="4114671" lat="50.10582" lon="18.93759">
    <tag k="source" v="http://ump.waw.pl/ retrieved 03:38:28 06/15/09 (UMP-Katowice/src/KATOWICE.zielone.txt)"/>
  </node>
  <node id="450229697" version="2" timestamp="2010-03-13T13:34:06Z" uid="30632" user="antblant" changeset="4114671" lat="50.10271" lon="18.93901">
    <tag k="source" v="http://ump.waw.pl/ retrieved 03:38:28 06/15/09 (UMP-Katowice/src/KATOWICE.zielone.txt)"/>
  </node>
  <node id="450229698" version="2" timestamp="2010-03-13T13:34:06Z" uid="30632" user="antblant" changeset="4114671" lat="50.10217" lon="18.93854">
    <tag k="source" v="http://ump.waw.pl/ retrieved 03:38:28 06/15/09 (UMP-Katowice/src/KATOWICE.zielone.txt)"/>
  </node>
  <node id="450229700" version="2" timestamp="2010-03-13T13:34:06Z" uid="30632" user="antblant" changeset="4114671" lat="50.10102" lon="18.93828">
    <tag k="source" v="http://ump.waw.pl/ retrieved 03:38:28 06/15/09 (UMP-Katowice/src/KATOWICE.zielone.txt)"/>
  </node>
  <node id="450229702" version="2" timestamp="2010-03-13T13:34:06Z" uid="30632" user="antblant" changeset="4114671" lat="50.10065" lon="18.9377">
    <tag k="source" v="http://ump.waw.pl/ retrieved 03:38:28 06/15/09 (UMP-Katowice/src/KATOWICE.zielone.txt)"/>
  </node>
  <node id="450229703" version="2" timestamp="2010-03-13T13:34:06Z" uid="30632" user="antblant" changeset="4114671" lat="50.10026" lon="18.93673">
    <tag k="source" v="http://ump.waw.pl/ retrieved 03:38:28 06/15/09 (UMP-Katowice/src/KATOWICE.zielone.txt)"/>
  </node>
  <node id="450229705" version="2" timestamp="2010-03-13T13:34:06Z" uid="30632" user="antblant" changeset="4114671" lat="50.10065" lon="18.93603">
    <tag k="source" v="http://ump.waw.pl/ retrieved 03:38:28 06/15/09 (UMP-Katowice/src/KATOWICE.zielone.txt)"/>
  </node>
  <node id="450229713" version="2" timestamp="2010-03-13T13:34:06Z" uid="30632" user="antblant" changeset="4114671" lat="50.1011" lon="18.93532">
    <tag k="source" v="http://ump.waw.pl/ retrieved 03:38:28 06/15/09 (UMP-Katowice/src/KATOWICE.zielone.txt)"/>
  </node>
  <node id="450229714" version="2" timestamp="2010-03-13T13:34:05Z" uid="30632" user="antblant" changeset="4114671" lat="50.10187" lon="18.93497">
    <tag k="source" v="http://ump.waw.pl/ retrieved 03:38:28 06/15/09 (UMP-Katowice/src/KATOWICE.zielone.txt)"/>
  </node>
  <node id="450229715" version="2" timestamp="2010-03-13T13:34:06Z" uid="30632" user="antblant" changeset="4114671" lat="50.10269" lon="18.93971">
    <tag k="source" v="http://ump.waw.pl/ retrieved 03:38:28 06/15/09 (UMP-Katowice/src/KATOWICE.zielone.txt)"/>
  </node>
  <node id="450229716" version="2" timestamp="2010-03-13T13:34:07Z" uid="30632" user="antblant" changeset="4114671" lat="50.10247" lon="18.94008">
    <tag k="source" v="http://ump.waw.pl/ retrieved 03:38:28 06/15/09 (UMP-Katowice/src/KATOWICE.zielone.txt)"/>
  </node>
  <node id="450229717" version="2" timestamp="2010-03-13T13:34:07Z" uid="30632" user="antblant" changeset="4114671" lat="50.10269" lon="18.94055">
    <tag k="source" v="http://ump.waw.pl/ retrieved 03:38:28 06/15/09 (UMP-Katowice/src/KATOWICE.zielone.txt)"/>
  </node>
  <node id="450229718" version="2" timestamp="2010-03-13T13:34:07Z" uid="30632" user="antblant" changeset="4114671" lat="50.10331" lon="18.94019">
    <tag k="source" v="http://ump.waw.pl/ retrieved 03:38:28 06/15/09 (UMP-Katowice/src/KATOWICE.zielone.txt)"/>
  </node>
  <node id="450229719" version="2" timestamp="2010-03-13T13:34:02Z" uid="30632" user="antblant" changeset="4114671" lat="50.10323" lon="18.93959">
    <tag k="source" v="http://ump.waw.pl/ retrieved 03:38:28 06/15/09 (UMP-Katowice/src/KATOWICE.zielone.txt)"/>
  </node>
  <node id="450229720" version="2" timestamp="2010-03-13T13:34:02Z" uid="30632" user="antblant" changeset="4114671" lat="50.1037" lon="18.93935">
    <tag k="source" v="http://ump.waw.pl/ retrieved 03:38:28 06/15/09 (UMP-Katowice/src/KATOWICE.zielone.txt)"/>
  </node>
  <node id="450229721" version="2" timestamp="2010-03-13T13:34:02Z" uid="30632" user="antblant" changeset="4114671" lat="50.1046" lon="18.93901">
    <tag k="source" v="http://ump.waw.pl/ retrieved 03:38:28 06/15/09 (UMP-Katowice/src/KATOWICE.zielone.txt)"/>
  </node>
  <node id="450229722" version="2" timestamp="2010-03-13T13:34:03Z" uid="30632" user="antblant" changeset="4114671" lat="50.10522" lon="18.93854">
    <tag k="source" v="http://ump.waw.pl/ retrieved 03:38:28 06/15/09 (UMP-Katowice/src/KATOWICE.zielone.txt)"/>
  </node>
  <node id="450229723" version="2" timestamp="2010-03-13T13:34:04Z" uid="30632" user="antblant" changeset="4114671" lat="50.10169" lon="18.94083">
    <tag k="source" v="http://ump.waw.pl/ retrieved 03:38:28 06/15/09 (UMP-Katowice/src/KATOWICE.zielone.txt)"/>
  </node>
  <node id="450229724" version="2" timestamp="2010-03-13T13:34:04Z" uid="30632" user="antblant" changeset="4114671" lat="50.10155" lon="18.94032">
    <tag k="source" v="http://ump.waw.pl/ retrieved 03:38:28 06/15/09 (UMP-Katowice/src/KATOWICE.zielone.txt)"/>
  </node>
  <node id="450229725" version="2" timestamp="2010-03-13T13:34:04Z" uid="30632" user="antblant" changeset="4114671" lat="50.10149" lon="18.93982">
    <tag k="source" v="http://ump.waw.pl/ retrieved 03:38:28 06/15/09 (UMP-Katowice/src/KATOWICE.zielone.txt)"/>
  </node>
  <node id="450229727" version="2" timestamp="2010-03-13T13:34:04Z" uid="30632" user="antblant" changeset="4114671" lat="50.10125" lon="18.93982">
    <tag k="source" v="http://ump.waw.pl/ retrieved 03:38:28 06/15/09 (UMP-Katowice/src/KATOWICE.zielone.txt)"/>
  </node>
  <node id="450229729" version="2" timestamp="2010-03-13T13:34:04Z" uid="30632" user="antblant" changeset="4114671" lat="50.10048" lon="18.93924">
    <tag k="source" v="http://ump.waw.pl/ retrieved 03:38:28 06/15/09 (UMP-Katowice/src/KATOWICE.zielone.txt)"/>
  </node>
  <node id="450229730" version="2" timestamp="2010-03-13T13:34:04Z" uid="30632" user="antblant" changeset="4114671" lat="50.10011" lon="18.94006">
    <tag k="source" v="http://ump.waw.pl/ retrieved 03:38:28 06/15/09 (UMP-Katowice/src/KATOWICE.zielone.txt)"/>
  </node>
  <node id="450229732" version="2" timestamp="2010-03-13T13:34:04Z" uid="30632" user="antblant" changeset="4114671" lat="50.09919" lon="18.94173">
    <tag k="source" v="http://ump.waw.pl/ retrieved 03:38:28 06/15/09 (UMP-Katowice/src/KATOWICE.zielone.txt)"/>
  </node>
  <node id="450229734" version="2" timestamp="2010-03-13T13:34:04Z" uid="30632" user="antblant" changeset="4114671" lat="50.09889" lon="18.94255">
    <tag k="source" v="http://ump.waw.pl/ retrieved 03:38:28 06/15/09 (UMP-Katowice/src/KATOWICE.zielone.txt)"/>
  </node>
  <node id="450229736" version="2" timestamp="2010-03-13T13:34:05Z" uid="30632" user="antblant" changeset="4114671" lat="50.09964" lon="18.94291">
    <tag k="source" v="http://ump.waw.pl/ retrieved 03:38:28 06/15/09 (UMP-Katowice/src/KATOWICE.zielone.txt)"/>
  </node>
  <node id="450229738" version="2" timestamp="2010-03-13T13:34:05Z" uid="30632" user="antblant" changeset="4114671" lat="50.09926" lon="18.9434">
    <tag k="source" v="http://ump.waw.pl/ retrieved 03:38:28 06/15/09 (UMP-Katowice/src/KATOWICE.zielone.txt)"/>
  </node>
  <node id="450229740" version="2" timestamp="2010-03-13T13:34:02Z" uid="30632" user="antblant" changeset="4114671" lat="50.10117" lon="18.94137">
    <tag k="source" v="http://ump.waw.pl/ retrieved 03:38:28 06/15/09 (UMP-Katowice/src/KATOWICE.zielone.txt)"/>
  </node>
  <node id="450229742" version="2" timestamp="2010-03-13T13:34:02Z" uid="30632" user="antblant" changeset="4114671" lat="50.10057" lon="18.94208">
    <tag k="source" v="http://ump.waw.pl/ retrieved 03:38:28 06/15/09 (UMP-Katowice/src/KATOWICE.zielone.txt)"/>
  </node>
  <node id="450221451" version="4" timestamp="2012-07-24T16:25:16Z" uid="722137" user="OSMF Redaction Account" changeset="12470307" lat="49.9722195" lon="19.1384172"/>
  <node id="450224007" version="3" timestamp="2012-07-17T11:29:53Z" uid="722137" user="OSMF Redaction Account" changeset="12264213" lat="53.0591109" lon="8.9991696">
    <tag k="traffic_calming" v="choker"/>
  </node>
  <node id="450224007" version="4" timestamp="2012-07-29T07:49:47Z" uid="57645" user="KartoGrapHiti" changeset="12531253" lat="53.0591175" lon="8.9992614">
    <tag k="traffic_calming" v="choker"/>
  </node>
  <node id="450226778" version="4" timestamp="2012-07-17T11:29:54Z" uid="722137" user="OSMF Redaction Account" changeset="12264213" lat="53.065263" lon="8.9969474">
    <tag k="highway" v="bus_stop"/>
    <tag k="name" v="Am Moor / Königsberger Straße"/>
  </node>
  <node id="450227394" version="3" timestamp="2012-07-17T09:20:36Z" uid="722137" user="OSMF Redaction Account" changeset="12261509" lat="49.95703" lon="18.90583"/>
  <node id="450227792" version="4" timestamp="2012-07-17T02:57:08Z" uid="722137" user="OSMF Redaction Account" changeset="12255730" lat="50.05978" lon="18.93324"/>
  <node id="450227793" version="6" timestamp="2012-07-17T02:56:56Z" uid="722137" user="OSMF Redaction Account" changeset="12255730" lat="50.00203" lon="18.88163"/>
  <node id="450227794" version="5" timestamp="2012-07-17T02:56:57Z" uid="722137" user="OSMF Redaction Account" changeset="12255730" lat="50.01165" lon="18.88404"/>
  <node id="450227795" version="5" timestamp="2012-07-17T02:53:17Z" uid="722137" user="OSMF Redaction Account" changeset="12255698" lat="50.01191" lon="18.94781"/>
</osm>
