<?xml version='1.0' encoding='UTF-8'?>
<osm version="0.6" generator="libosmium/2.20.0">
  <node id="451869149" version="2" timestamp="2009-11-06T16:07:38Z" uid="36809" user="pfoten_weg_!_" changeset="3049293" lat="55.118701" lon="22.128358">
    <tag k="name" v="Vilkyskiai"/>
    <tag k="place" v="village"/>
  </node>
  <node id="451869149" version="3" timestamp="2010-07-17T17:31:30Z" uid="39504" user="malenki" changeset="5244338" lat="55.118701" lon="22.128358">
    <tag k="name" v="Vilkyskiai"/>
    <tag k="name:de" v="Willkischken"/>
    <tag k="place" v="village"/>
  </node>
  <node id="451869149" version="4" timestamp="2010-07-17T18:06:55Z" uid="39504" user="malenki" changeset="5244641" lat="55.118701" lon="22.128358">
    <tag k="name" v="Vilkyskiai"/>
    <tag k="name:de" v="Willkischken"/>
    <tag k="place" v="village"/>
  </node>
  <node id="451869153" version="2" timestamp="2009-11-06T16:07:25Z" uid="36809" user="pfoten_weg_!_" changeset="3049293" lat="55.1172313" lon="22.128767">
    <tag k="amenity" v="place_of_worship"/>
    <tag k="denomination" v="protestant"/>
    <tag k="religion" v="christian"/>
  </node>
  <node id="451869153" version="3" timestamp="2010-09-22T18:13:28Z" uid="233315" user="Dirbam" changeset="5847704" lat="55.1172313" lon="22.128767">
    <tag k="amenity" v="place_of_worship"/>
    <tag k="denomination" v="protestant"/>
    <tag k="name" v="Vilkyškių evangelikų liuteronų bažnyčia"/>
    <tag k="religion" v="christian"/>
  </node>
  <node id="451869153" version="4" timestamp="2010-12-04T20:08:36Z" uid="233315" user="Dirbam" changeset="6542935" lat="55.1169027" lon="22.1289049">
    <tag k="amenity" v="place_of_worship"/>
    <tag k="denomination" v="protestant"/>
    <tag k="name" v="Vilkyškių evangelikų liuteronų bažnyčia"/>
    <tag k="religion" v="christian"/>
  </node>
  <node id="451869149" version="5" timestamp="2012-05-26T14:23:06Z" uid="60129" user="Tomas Straupis" changeset="11707082" lat="55.118701" lon="22.128358">
    <tag k="name" v="Vilkyškiai"/>
    <tag k="name:de" v="Willkischken"/>
    <tag k="place" v="village"/>
    <tag k="population" v="883"/>
    <tag k="wikipedia" v="lt:Vilkyškiai"/>
  </node>
  <node id="451869153" version="5" timestamp="2012-05-26T14:23:06Z" uid="60129" user="Tomas Straupis" changeset="11707082" lat="55.1169027" lon="22.1289049"/>
</osm>
