<?xml version='1.0' encoding='UTF-8'?>
<osm version="0.6" generator="libosmium/2.20.0">
  <node id="452011202" version="2" timestamp="2011-06-08T18:12:23Z" uid="115477" user="wowik" changeset="8381626" lat="55.4078127" lon="37.5790964"/>
  <node id="452014548" version="4" timestamp="2009-09-30T16:22:49Z" uid="36809" user="pfoten_weg_!_" changeset="2690373" lat="47.8540548" lon="11.3386855">
    <tag k="addr:city" v="Ambach"/>
    <tag k="addr:country" v="DE"/>
    <tag k="addr:housenumber" v="3"/>
    <tag k="addr:postcode" v="82541"/>
    <tag k="addr:street" v="Am Schwaiblbach"/>
    <tag k="fixme" v="Lage nur extrapoliert"/>
    <tag k="name" v="Campingplatz Hirth"/>
    <tag k="phone" v="+49 8177 546"/>
    <tag k="tourism" v="camp_site"/>
    <tag k="website" v="http://www.campingplatzhirth.de/"/>
  </node>
  <node id="452011202" version="3" timestamp="2012-04-07T08:38:49Z" uid="417178" user="Medoff" changeset="11210469" lat="55.4078127" lon="37.5790964"/>
  <node id="452011202" version="4" timestamp="2012-07-01T21:40:26Z" uid="336354" user="esaulenka" changeset="12081509" lat="55.4078127" lon="37.5790891"/>
</osm>
