<?xml version='1.0' encoding='UTF-8'?>
<osm version="0.6" generator="libosmium/2.20.0">
  <node id="453230400" version="2" timestamp="2009-11-13T20:40:59Z" uid="157412" user="Leopold" changeset="3108621" lat="49.8792692" lon="7.2128489">
    <tag k="amenity" v="parking"/>
  </node>
  <node id="453231192" version="1" timestamp="2009-08-01T15:14:44Z" uid="20587" user="balrog-kun" changeset="2004914" lat="52.2378313" lon="21.0854421">
    <tag k="amenity" v="restaurant"/>
    <tag k="cuisine" v="pizza"/>
    <tag k="name" v="O&apos;Sole Mio"/>
    <tag k="note" v="TODO"/>
    <tag k="phone" v="+48224037111;+48510544111"/>
  </node>
  <node id="453231192" version="2" timestamp="2009-08-06T01:54:42Z" uid="20587" user="balrog-kun" changeset="2051674" lat="52.2378191" lon="21.0854479">
    <tag k="amenity" v="restaurant"/>
    <tag k="cuisine" v="pizza"/>
    <tag k="name" v="O&apos;Sole Mio"/>
    <tag k="phone" v="+48224037111;+48510544111"/>
  </node>
  <node id="453231970" version="4" timestamp="2010-04-05T07:20:13Z" uid="242497" user="vlchung" changeset="4329859" lat="-31.8343288" lon="115.7831612">
    <tag k="amenity" v="atm"/>
    <tag k="operator" v="BankWest"/>
  </node>
  <node id="453234089" version="2" timestamp="2009-08-28T21:43:14Z" uid="49111" user="Markus B" changeset="2295714" lat="49.521586" lon="11.3146728">
    <tag k="noexit" v="yes"/>
  </node>
  <node id="453234089" version="3" timestamp="2010-04-11T11:43:20Z" uid="71557" user="Taroc" changeset="4392246" lat="49.5215406" lon="11.3146116">
    <tag k="noexit" v="yes"/>
  </node>
  <node id="453230400" version="3" timestamp="2012-07-18T18:46:12Z" uid="722137" user="OSMF Redaction Account" changeset="12293254" lat="49.8792691" lon="7.2128531">
    <tag k="amenity" v="parking"/>
  </node>
  <node id="453231192" version="3" timestamp="2012-07-03T21:14:20Z" uid="475943" user="sir-mapalot" changeset="12104785" lat="52.2378191" lon="21.0854479">
    <tag k="amenity" v="restaurant"/>
    <tag k="cuisine" v="pizza"/>
    <tag k="name" v="Da Vinci"/>
    <tag k="old_name" v="O&apos;Sole Mio"/>
    <tag k="phone" v="+48224037111;+48510544111"/>
  </node>
</osm>
