<?xml version='1.0' encoding='UTF-8'?>
<osm version="0.6" generator="libosmium/2.20.0">
  <node id="45382438" version="2" timestamp="2008-02-16T19:31:15Z" uid="6975" user="ulfl" changeset="141861" lat="51.5631573" lon="0.218175">
    <tag k="name" v="Sainsburys"/>
    <tag k="shop" v="supermarket"/>
  </node>
  <node id="45382438" version="3" timestamp="2008-05-29T23:01:30Z" uid="14020" user="Nick Austin" changeset="549994" lat="51.5631603" lon="0.2181696">
    <tag k="created_by" v="Potlatch 0.9c"/>
    <tag k="name" v="Sainsbury&apos;s"/>
    <tag k="shop" v="supermarket"/>
  </node>
  <node id="45387480" version="2" timestamp="2008-02-16T22:44:52Z" uid="6975" user="ulfl" changeset="141861" lat="51.3165896" lon="9.4088254">
    <tag k="historic" v="ruins"/>
    <tag k="name" v="Aquädukt"/>
    <tag k="tourism" v="attraction"/>
  </node>
  <node id="45387480" version="3" timestamp="2010-06-13T11:37:48Z" uid="251621" user="MurphyFox" changeset="4977721" lat="51.3167323" lon="9.4088703">
    <tag k="historic" v="ruins"/>
    <tag k="name" v="Aquädukt"/>
    <tag k="tourism" v="attraction"/>
  </node>
</osm>
