<?xml version='1.0' encoding='UTF-8'?>
<osm version="0.6" generator="libosmium/2.20.0">
  <node id="454955766" version="2" timestamp="2010-04-11T04:48:15Z" uid="20587" user="balrog-kun" changeset="4389130" lat="50.4965067" lon="16.8737315">
    <tag k="is_in" v="Poland"/>
    <tag k="name" v="Sosnowa"/>
    <tag k="place" v="village"/>
  </node>
  <node id="454955766" version="3" timestamp="2010-04-27T04:15:36Z" uid="30632" user="antblant" changeset="4537896" lat="50.4965067" lon="16.8737315">
    <tag k="is_in" v="Poland"/>
    <tag k="name" v="Sosnowa"/>
    <tag k="place" v="village"/>
    <tag k="teryt:simc" v="0852708"/>
  </node>
  <node id="454955767" version="2" timestamp="2010-04-11T04:48:15Z" uid="20587" user="balrog-kun" changeset="4389130" lat="50.5544997" lon="16.8296344">
    <tag k="is_in" v="Poland"/>
    <tag k="name" v="Grochowiska"/>
    <tag k="place" v="village"/>
  </node>
  <node id="454955767" version="3" timestamp="2010-04-25T12:50:16Z" uid="42429" user="FK270673" changeset="4520929" lat="50.5544997" lon="16.8296344">
    <tag k="is_in" v="Poland"/>
    <tag k="name" v="Grochowiska"/>
    <tag k="name:de" v="Grochwitz"/>
    <tag k="place" v="village"/>
  </node>
  <node id="454955767" version="4" timestamp="2010-09-19T18:08:23Z" uid="348502" user="Jurek Piasecki" changeset="5822518" lat="50.5544411" lon="16.8281583">
    <tag k="is_in" v="Poland"/>
    <tag k="name" v="Grochowiska"/>
    <tag k="name:de" v="Grochwitz"/>
    <tag k="place" v="village"/>
  </node>
  <node id="454955768" version="2" timestamp="2010-04-11T04:48:15Z" uid="20587" user="balrog-kun" changeset="4389130" lat="50.5546576" lon="16.7983395">
    <tag k="is_in" v="Poland"/>
    <tag k="name" v="Braszowice"/>
    <tag k="place" v="village"/>
  </node>
  <node id="454955768" version="3" timestamp="2010-04-27T04:15:36Z" uid="30632" user="antblant" changeset="4537896" lat="50.5546576" lon="16.7983395">
    <tag k="is_in" v="Poland"/>
    <tag k="name" v="Braszowice"/>
    <tag k="place" v="village"/>
    <tag k="teryt:simc" v="0856505"/>
  </node>
  <node id="454955768" version="4" timestamp="2010-09-19T18:08:23Z" uid="348502" user="Jurek Piasecki" changeset="5822518" lat="50.5542074" lon="16.7980443">
    <tag k="is_in" v="Poland"/>
    <tag k="name" v="Braszowice"/>
    <tag k="place" v="village"/>
    <tag k="teryt:simc" v="0856505"/>
  </node>
  <node id="454955770" version="2" timestamp="2010-04-27T04:02:30Z" uid="30632" user="antblant" changeset="4537862" lat="50.6958095" lon="16.8228129">
    <tag k="is_in" v="Poland"/>
    <tag k="name" v="Nowa Wieś Niemczańska"/>
    <tag k="place" v="village"/>
    <tag k="teryt:simc" v="0853932"/>
  </node>
</osm>
