<?xml version='1.0' encoding='UTF-8'?>
<osm version="0.6" generator="libosmium/2.20.0">
  <node id="457084738" version="5" timestamp="2009-12-18T14:05:27Z" uid="20587" user="balrog-kun" changeset="3400728" lat="54.3497525" lon="18.6533662">
    <tag k="amenity" v="place_of_worship"/>
    <tag k="denomination" v="roman_catholic"/>
    <tag k="name" v="Bazylika Mariacka"/>
    <tag k="name:de" v="Marienkirche"/>
    <tag k="name:en" v="Saint Mary&apos;s Church"/>
    <tag k="name:fr" v="Église Sainte-Marie"/>
    <tag k="name:hu" v="Szent Mária templom "/>
    <tag k="name:sv" v="Mariakyrkan"/>
    <tag k="religion" v="christian"/>
    <tag k="wikipedia" v="pl:Bazylika Mariacka Wniebowzięcia Najświętszej Maryi Panny w Gdańsku"/>
  </node>
  <node id="457084738" version="6" timestamp="2010-05-23T14:19:01Z" uid="91056" user="Yarl" changeset="4783654" lat="54.3497525" lon="18.6533662">
    <tag k="amenity" v="place_of_worship"/>
    <tag k="denomination" v="roman_catholic"/>
    <tag k="name" v="Bazylika Mariacka"/>
    <tag k="name:de" v="Marienkirche"/>
    <tag k="name:en" v="Saint Mary&apos;s Church"/>
    <tag k="name:fr" v="Église Sainte-Marie"/>
    <tag k="name:hu" v="Szent Mária templom "/>
    <tag k="name:sv" v="Mariakyrkan"/>
    <tag k="religion" v="christian"/>
    <tag k="wikipedia" v="pl:Bazylika Mariacka Wniebowzięcia Najświętszej Maryi Panny w Gdańsku"/>
  </node>
  <node id="457085733" version="1" timestamp="2009-08-05T18:48:16Z" uid="115477" user="wowik" changeset="2048994" lat="55.9987441" lon="37.2120823"/>
  <node id="457085733" version="2" timestamp="2009-08-11T18:40:58Z" uid="115477" user="wowik" changeset="2111301" lat="55.9982922" lon="37.212325"/>
  <node id="457085733" version="3" timestamp="2009-08-11T18:42:34Z" uid="115477" user="wowik" changeset="2111301" lat="55.9982874" lon="37.2123078"/>
  <node id="457085733" version="4" timestamp="2009-08-11T18:44:24Z" uid="115477" user="wowik" changeset="2111301" lat="55.9983258" lon="37.2123164"/>
  <node id="457085733" version="5" timestamp="2010-11-09T13:02:35Z" uid="115477" user="wowik" changeset="6327211" lat="55.9983343" lon="37.2123618"/>
  <node id="457085733" version="6" timestamp="2011-01-28T15:54:32Z" uid="115477" user="wowik" changeset="7114168" lat="55.9983146" lon="37.2122883"/>
  <node id="457085733" version="7" timestamp="2011-09-12T16:04:35Z" uid="518169" user="kosatov" changeset="9281128" lat="55.9982934" lon="37.2122118"/>
  <node id="457085733" version="8" timestamp="2011-11-18T15:05:25Z" uid="481934" user="iWowik" changeset="9863926" lat="55.9983027" lon="37.212257"/>
  <node id="457085733" version="9" timestamp="2012-08-11T21:19:27Z" uid="109327" user="OverQuantum" changeset="12696005" lat="55.9983225" lon="37.2122492"/>
</osm>
