<?xml version='1.0' encoding='UTF-8'?>
<osm version="0.6" generator="libosmium/2.20.0">
  <node id="457059021" version="2" timestamp="2009-12-19T15:57:38Z" uid="20587" user="balrog-kun" changeset="3407737" lat="54.3519912" lon="18.6410899">
    <tag k="addr:housenumber" v="18"/>
    <tag k="addr:street" v="Kartuska"/>
    <tag k="amenity" v="police"/>
    <tag k="old_name" v="VIII Komisariat Policji"/>
  </node>
  <node id="457059021" version="3" timestamp="2011-01-30T01:57:43Z" uid="378154" user="rosomak" changeset="7129676" lat="54.3506796" lon="18.6340298">
    <tag k="addr:housenumber" v="18"/>
    <tag k="addr:street" v="Kartuska"/>
    <tag k="amenity" v="police"/>
    <tag k="old_name" v="VIII Komisariat Policji"/>
  </node>
  <node id="457059021" version="4" timestamp="2011-03-18T21:55:06Z" uid="378154" user="rosomak" changeset="7599842" lat="54.3506796" lon="18.6340298">
    <tag k="addr:housenumber" v="18"/>
    <tag k="addr:street" v="Kartuska"/>
    <tag k="amenity" v="police"/>
    <tag k="old_name" v="VIII Komisariat Policji"/>
  </node>
  <node id="457059022" version="2" timestamp="2009-12-19T15:57:38Z" uid="20587" user="balrog-kun" changeset="3407737" lat="54.3509933" lon="18.6386407">
    <tag k="amenity" v="hospital"/>
    <tag k="name" v="Oddział ratunkowy"/>
  </node>
  <node id="457059022" version="3" timestamp="2012-09-05T21:20:00Z" uid="842685" user="ancymon" changeset="13002424" lat="54.3509933" lon="18.6386407">
    <tag k="addr:city" v="Gdańsk"/>
    <tag k="addr:housenumber" v="1/6"/>
    <tag k="addr:street" v="Nowe Ogrody"/>
    <tag k="amenity" v="hospital"/>
    <tag k="name" v="Oddział ratunkowy"/>
  </node>
</osm>
