<?xml version='1.0' encoding='UTF-8'?>
<osm version="0.6" generator="libosmium/2.20.0">
  <node id="458510000" version="1" timestamp="2009-08-07T22:35:10Z" uid="20587" user="balrog-kun" changeset="2070842" lat="52.439483" lon="16.9568692">
    <tag k="addr:city" v="Poznań"/>
    <tag k="addr:housenumber" v="2"/>
    <tag k="addr:street" v="Grota-Roweckiego"/>
    <tag k="source" v="http://ump.waw.pl/ retrieved 15:05:23 06/30/09 (UMP-Poznan/src/POZNAN.ulice.txt)"/>
  </node>
  <node id="458510001" version="1" timestamp="2009-08-07T22:35:10Z" uid="20587" user="balrog-kun" changeset="2070842" lat="52.4357142" lon="16.947781">
    <tag k="addr:city" v="Poznań"/>
    <tag k="addr:housenumber" v="82"/>
    <tag k="addr:street" v="Naramowicka"/>
    <tag k="source" v="http://ump.waw.pl/ retrieved 15:05:23 06/30/09 (UMP-Poznan/src/POZNAN.ulice.txt)"/>
  </node>
  <node id="458510002" version="1" timestamp="2009-08-07T22:35:10Z" uid="20587" user="balrog-kun" changeset="2070842" lat="52.4373393" lon="16.9542801">
    <tag k="addr:city" v="Poznań"/>
    <tag k="addr:housenumber" v="43"/>
    <tag k="addr:street" v="Zdobywców Monte Cassino"/>
    <tag k="source" v="http://ump.waw.pl/ retrieved 15:05:23 06/30/09 (UMP-Poznan/src/POZNAN.ulice.txt)"/>
  </node>
  <node id="458510003" version="1" timestamp="2009-08-07T22:35:10Z" uid="20587" user="balrog-kun" changeset="2070842" lat="52.4389877" lon="16.9572618">
    <tag k="addr:city" v="Poznań"/>
    <tag k="addr:housenumber" v="3"/>
    <tag k="addr:street" v="Żołnierzy Narwiku"/>
    <tag k="source" v="http://ump.waw.pl/ retrieved 15:05:23 06/30/09 (UMP-Poznan/src/POZNAN.ulice.txt)"/>
  </node>
  <node id="458510004" version="1" timestamp="2009-08-07T22:35:10Z" uid="20587" user="balrog-kun" changeset="2070842" lat="52.4391283" lon="16.9571281">
    <tag k="addr:city" v="Poznań"/>
    <tag k="addr:housenumber" v="86"/>
    <tag k="addr:street" v="Rataja"/>
    <tag k="source" v="http://ump.waw.pl/ retrieved 15:05:23 06/30/09 (UMP-Poznan/src/POZNAN.ulice.txt)"/>
  </node>
  <node id="458510004" version="2" timestamp="2011-06-16T14:58:39Z" uid="91056" user="Yarl" changeset="8456889" lat="52.4391403" lon="16.9568434">
    <tag k="addr:city" v="Poznań"/>
    <tag k="addr:housenumber" v="86"/>
    <tag k="addr:street" v="Rataja"/>
    <tag k="source" v="http://ump.waw.pl/ retrieved 15:05:23 06/30/09 (UMP-Poznan/src/POZNAN.ulice.txt)"/>
  </node>
  <node id="458510005" version="1" timestamp="2009-08-07T22:35:10Z" uid="20587" user="balrog-kun" changeset="2070842" lat="52.4352813" lon="16.9440553">
    <tag k="addr:city" v="Poznań"/>
    <tag k="addr:housenumber" v="6"/>
    <tag k="addr:street" v="Pasterska"/>
    <tag k="source" v="http://ump.waw.pl/ retrieved 15:05:23 06/30/09 (UMP-Poznan/src/POZNAN.ulice.txt)"/>
  </node>
  <node id="458510006" version="1" timestamp="2009-08-07T22:35:10Z" uid="20587" user="balrog-kun" changeset="2070842" lat="52.4422442" lon="16.9282998">
    <tag k="addr:city" v="Poznań"/>
    <tag k="addr:housenumber" v="7"/>
    <tag k="addr:street" v="Osiedle Zwycięstwa"/>
    <tag k="source" v="http://ump.waw.pl/ retrieved 15:05:23 06/30/09 (UMP-Poznan/src/POZNAN.ulice.txt)"/>
  </node>
  <node id="458510006" version="2" timestamp="2010-06-12T21:10:07Z" uid="303209" user="dPedro" changeset="4973959" lat="52.4422952" lon="16.9279471">
    <tag k="addr:city" v="Poznań"/>
    <tag k="addr:housenumber" v="7"/>
    <tag k="addr:street" v="Osiedle Zwycięstwa"/>
    <tag k="source" v="http://ump.waw.pl/ retrieved 15:05:23 06/30/09 (UMP-Poznan/src/POZNAN.ulice.txt)"/>
  </node>
  <node id="458510006" version="3" timestamp="2010-08-05T12:35:05Z" uid="303209" user="dPedro" changeset="5407788" lat="52.4422952" lon="16.9279471">
    <tag k="addr:city" v="Poznań"/>
    <tag k="addr:housenumber" v="7"/>
    <tag k="addr:street" v="Osiedle Zwycięstwa"/>
    <tag k="source" v="http://ump.waw.pl/ retrieved 15:05:23 06/30/09 (UMP-Poznan/src/POZNAN.ulice.txt)"/>
  </node>
  <node id="458510007" version="1" timestamp="2009-08-07T22:35:10Z" uid="20587" user="balrog-kun" changeset="2070842" lat="52.4395302" lon="16.9536931">
    <tag k="addr:city" v="Poznań"/>
    <tag k="addr:housenumber" v="40"/>
    <tag k="addr:street" v="Rataja"/>
    <tag k="source" v="http://ump.waw.pl/ retrieved 15:05:23 06/30/09 (UMP-Poznan/src/POZNAN.ulice.txt)"/>
  </node>
  <node id="458510008" version="1" timestamp="2009-08-07T22:35:11Z" uid="20587" user="balrog-kun" changeset="2070842" lat="52.4401054" lon="16.9529577">
    <tag k="addr:city" v="Poznań"/>
    <tag k="addr:housenumber" v="21"/>
    <tag k="addr:street" v="Żołnierzy Lenino"/>
    <tag k="source" v="http://ump.waw.pl/ retrieved 15:05:23 06/30/09 (UMP-Poznan/src/POZNAN.ulice.txt)"/>
  </node>
  <node id="458510009" version="1" timestamp="2009-08-07T22:35:11Z" uid="20587" user="balrog-kun" changeset="2070842" lat="52.4365886" lon="16.9464059">
    <tag k="addr:city" v="Poznań"/>
    <tag k="addr:housenumber" v="22"/>
    <tag k="addr:street" v="Włodarska"/>
    <tag k="source" v="http://ump.waw.pl/ retrieved 15:05:23 06/30/09 (UMP-Poznan/src/POZNAN.ulice.txt)"/>
  </node>
  <node id="458510010" version="1" timestamp="2009-08-07T22:35:11Z" uid="20587" user="balrog-kun" changeset="2070842" lat="52.4397214" lon="16.9607472">
    <tag k="addr:city" v="Poznań"/>
    <tag k="addr:housenumber" v="2"/>
    <tag k="addr:street" v="Piekałkiewicza"/>
    <tag k="source" v="http://ump.waw.pl/ retrieved 15:05:23 06/30/09 (UMP-Poznan/src/POZNAN.ulice.txt)"/>
  </node>
  <node id="458510011" version="1" timestamp="2009-08-07T22:35:11Z" uid="20587" user="balrog-kun" changeset="2070842" lat="52.4416598" lon="16.9275602">
    <tag k="addr:city" v="Poznań"/>
    <tag k="addr:housenumber" v="3"/>
    <tag k="addr:street" v="Osiedle Zwycięstwa"/>
    <tag k="source" v="http://ump.waw.pl/ retrieved 15:05:23 06/30/09 (UMP-Poznan/src/POZNAN.ulice.txt)"/>
  </node>
  <node id="458510011" version="2" timestamp="2010-06-12T21:10:07Z" uid="303209" user="dPedro" changeset="4973959" lat="52.4417328" lon="16.9273892">
    <tag k="addr:city" v="Poznań"/>
    <tag k="addr:housenumber" v="3"/>
    <tag k="addr:street" v="Osiedle Zwycięstwa"/>
    <tag k="source" v="http://ump.waw.pl/ retrieved 15:05:23 06/30/09 (UMP-Poznan/src/POZNAN.ulice.txt)"/>
  </node>
  <node id="458510011" version="3" timestamp="2010-08-05T12:35:04Z" uid="303209" user="dPedro" changeset="5407788" lat="52.4417328" lon="16.9273892">
    <tag k="addr:city" v="Poznań"/>
    <tag k="addr:housenumber" v="3"/>
    <tag k="addr:street" v="Osiedle Zwycięstwa"/>
    <tag k="source" v="http://ump.waw.pl/ retrieved 15:05:23 06/30/09 (UMP-Poznan/src/POZNAN.ulice.txt)"/>
  </node>
  <node id="458510012" version="1" timestamp="2009-08-07T22:35:11Z" uid="20587" user="balrog-kun" changeset="2070842" lat="52.4343116" lon="16.9459512">
    <tag k="addr:city" v="Poznań"/>
    <tag k="addr:housenumber" v="4"/>
    <tag k="addr:street" v="Czarna Rola"/>
    <tag k="source" v="http://ump.waw.pl/ retrieved 15:05:23 06/30/09 (UMP-Poznan/src/POZNAN.ulice.txt)"/>
  </node>
  <node id="458510013" version="1" timestamp="2009-08-07T22:35:11Z" uid="20587" user="balrog-kun" changeset="2070842" lat="52.4355677" lon="16.9404955">
    <tag k="addr:city" v="Poznań"/>
    <tag k="addr:housenumber" v="37"/>
    <tag k="addr:street" v="Czarna Rola"/>
    <tag k="source" v="http://ump.waw.pl/ retrieved 15:05:23 06/30/09 (UMP-Poznan/src/POZNAN.ulice.txt)"/>
  </node>
  <node id="458510014" version="1" timestamp="2009-08-07T22:35:11Z" uid="20587" user="balrog-kun" changeset="2070842" lat="52.4390274" lon="16.9560203">
    <tag k="addr:city" v="Poznań"/>
    <tag k="addr:housenumber" v="3"/>
    <tag k="addr:street" v="Zdobywców Monte Cassino"/>
    <tag k="source" v="http://ump.waw.pl/ retrieved 15:05:23 06/30/09 (UMP-Poznan/src/POZNAN.ulice.txt)"/>
  </node>
  <node id="458510015" version="1" timestamp="2009-08-07T22:35:11Z" uid="20587" user="balrog-kun" changeset="2070842" lat="52.4398046" lon="16.9540326">
    <tag k="addr:city" v="Poznań"/>
    <tag k="addr:housenumber" v="1"/>
    <tag k="addr:street" v="Berlinga"/>
    <tag k="source" v="http://ump.waw.pl/ retrieved 15:05:23 06/30/09 (UMP-Poznan/src/POZNAN.ulice.txt)"/>
  </node>
  <node id="458510016" version="1" timestamp="2009-08-07T22:35:11Z" uid="20587" user="balrog-kun" changeset="2070842" lat="52.435167" lon="16.9476535">
    <tag k="addr:city" v="Poznań"/>
    <tag k="addr:housenumber" v="78"/>
    <tag k="addr:street" v="Naramowicka"/>
    <tag k="source" v="http://ump.waw.pl/ retrieved 15:05:23 06/30/09 (UMP-Poznan/src/POZNAN.ulice.txt)"/>
  </node>
  <node id="458510017" version="1" timestamp="2009-08-07T22:35:12Z" uid="20587" user="balrog-kun" changeset="2070842" lat="52.4393393" lon="16.95453">
    <tag k="addr:city" v="Poznań"/>
    <tag k="addr:housenumber" v="48"/>
    <tag k="addr:street" v="Rataja"/>
    <tag k="source" v="http://ump.waw.pl/ retrieved 15:05:23 06/30/09 (UMP-Poznan/src/POZNAN.ulice.txt)"/>
  </node>
  <node id="458510018" version="1" timestamp="2009-08-07T22:35:12Z" uid="20587" user="balrog-kun" changeset="2070842" lat="52.4339087" lon="16.9439548">
    <tag k="addr:city" v="Poznań"/>
    <tag k="addr:housenumber" v="1"/>
    <tag k="addr:street" v="Osiedle Kosmonautów"/>
    <tag k="source" v="http://ump.waw.pl/ retrieved 15:05:23 06/30/09 (UMP-Poznan/src/POZNAN.ulice.txt)"/>
  </node>
  <node id="458510019" version="1" timestamp="2009-08-07T22:35:12Z" uid="20587" user="balrog-kun" changeset="2070842" lat="52.4392012" lon="16.9463051">
    <tag k="addr:city" v="Poznań"/>
    <tag k="addr:housenumber" v="21"/>
    <tag k="addr:street" v="Osiedle Kosmonautów"/>
    <tag k="source" v="http://ump.waw.pl/ retrieved 15:05:23 06/30/09 (UMP-Poznan/src/POZNAN.ulice.txt)"/>
  </node>
  <node id="458510020" version="1" timestamp="2009-08-07T22:35:12Z" uid="20587" user="balrog-kun" changeset="2070842" lat="52.4379549" lon="16.9445193">
    <tag k="addr:city" v="Poznań"/>
    <tag k="addr:housenumber" v="17"/>
    <tag k="addr:street" v="Osiedle Kosmonautów"/>
    <tag k="source" v="http://ump.waw.pl/ retrieved 15:05:23 06/30/09 (UMP-Poznan/src/POZNAN.ulice.txt)"/>
  </node>
  <node id="458510021" version="1" timestamp="2009-08-07T22:35:12Z" uid="20587" user="balrog-kun" changeset="2070842" lat="52.4356462" lon="16.9443582">
    <tag k="addr:city" v="Poznań"/>
    <tag k="addr:housenumber" v="14"/>
    <tag k="addr:street" v="Pasterska"/>
    <tag k="source" v="http://ump.waw.pl/ retrieved 15:05:23 06/30/09 (UMP-Poznan/src/POZNAN.ulice.txt)"/>
  </node>
  <node id="458510022" version="1" timestamp="2009-08-07T22:35:12Z" uid="20587" user="balrog-kun" changeset="2070842" lat="52.4390589" lon="16.9527475">
    <tag k="addr:city" v="Poznań"/>
    <tag k="addr:housenumber" v="2"/>
    <tag k="addr:street" v="Żołnierzy Lenino"/>
    <tag k="source" v="http://ump.waw.pl/ retrieved 15:05:23 06/30/09 (UMP-Poznan/src/POZNAN.ulice.txt)"/>
  </node>
  <node id="458510023" version="1" timestamp="2009-08-07T22:35:12Z" uid="20587" user="balrog-kun" changeset="2070842" lat="52.4366148" lon="16.9502935">
    <tag k="addr:city" v="Poznań"/>
    <tag k="addr:housenumber" v="9"/>
    <tag k="addr:street" v="Hawelańska"/>
    <tag k="source" v="http://ump.waw.pl/ retrieved 15:05:23 06/30/09 (UMP-Poznan/src/POZNAN.ulice.txt)"/>
  </node>
  <node id="458510024" version="1" timestamp="2009-08-07T22:35:12Z" uid="20587" user="balrog-kun" changeset="2070842" lat="52.4357353" lon="16.9408503">
    <tag k="addr:city" v="Poznań"/>
    <tag k="addr:housenumber" v="40"/>
    <tag k="addr:street" v="Czarna Rola"/>
    <tag k="source" v="http://ump.waw.pl/ retrieved 15:05:23 06/30/09 (UMP-Poznan/src/POZNAN.ulice.txt)"/>
  </node>
  <node id="458510025" version="1" timestamp="2009-08-07T22:35:12Z" uid="20587" user="balrog-kun" changeset="2070842" lat="52.4390619" lon="16.94134">
    <tag k="addr:city" v="Poznań"/>
    <tag k="addr:housenumber" v="9"/>
    <tag k="addr:street" v="Osiedle Kosmonautów"/>
    <tag k="source" v="http://ump.waw.pl/ retrieved 15:05:23 06/30/09 (UMP-Poznan/src/POZNAN.ulice.txt)"/>
  </node>
  <node id="458510026" version="1" timestamp="2009-08-07T22:35:12Z" uid="20587" user="balrog-kun" changeset="2070842" lat="52.4344303" lon="16.945525">
    <tag k="addr:city" v="Poznań"/>
    <tag k="addr:housenumber" v="6"/>
    <tag k="addr:street" v="Czarna Rola"/>
    <tag k="source" v="http://ump.waw.pl/ retrieved 15:05:23 06/30/09 (UMP-Poznan/src/POZNAN.ulice.txt)"/>
  </node>
  <node id="458510027" version="1" timestamp="2009-08-07T22:35:13Z" uid="20587" user="balrog-kun" changeset="2070842" lat="52.4391281" lon="16.95771">
    <tag k="addr:city" v="Poznań"/>
    <tag k="addr:housenumber" v="100"/>
    <tag k="addr:street" v="Rataja"/>
    <tag k="source" v="http://ump.waw.pl/ retrieved 15:05:23 06/30/09 (UMP-Poznan/src/POZNAN.ulice.txt)"/>
  </node>
  <node id="458510028" version="1" timestamp="2009-08-07T22:35:13Z" uid="20587" user="balrog-kun" changeset="2070842" lat="52.4364672" lon="16.941618">
    <tag k="addr:city" v="Poznań"/>
    <tag k="addr:housenumber" v="35"/>
    <tag k="addr:street" v="Żytnia"/>
    <tag k="source" v="http://ump.waw.pl/ retrieved 15:05:23 06/30/09 (UMP-Poznan/src/POZNAN.ulice.txt)"/>
  </node>
  <node id="458510029" version="1" timestamp="2009-08-07T22:35:13Z" uid="20587" user="balrog-kun" changeset="2070842" lat="52.4358628" lon="16.9505102">
    <tag k="addr:city" v="Poznań"/>
    <tag k="addr:housenumber" v="4"/>
    <tag k="addr:street" v="Hawelańska"/>
    <tag k="source" v="http://ump.waw.pl/ retrieved 15:05:23 06/30/09 (UMP-Poznan/src/POZNAN.ulice.txt)"/>
  </node>
  <node id="458510029" version="2" timestamp="2011-06-16T14:58:47Z" uid="91056" user="Yarl" changeset="8456889" lat="52.4358628" lon="16.9505102"/>
  <node id="458510030" version="1" timestamp="2009-08-07T22:35:13Z" uid="20587" user="balrog-kun" changeset="2070842" lat="52.4339238" lon="16.9547775">
    <tag k="addr:city" v="Poznań"/>
    <tag k="addr:housenumber" v="49"/>
    <tag k="addr:street" v="Wilczak"/>
    <tag k="source" v="http://ump.waw.pl/ retrieved 15:05:23 06/30/09 (UMP-Poznan/src/POZNAN.ulice.txt)"/>
  </node>
  <node id="458510030" version="2" timestamp="2011-06-16T14:58:47Z" uid="91056" user="Yarl" changeset="8456889" lat="52.4339238" lon="16.9547775"/>
  <node id="458510031" version="1" timestamp="2009-08-07T22:35:13Z" uid="20587" user="balrog-kun" changeset="2070842" lat="52.4395339" lon="16.956478">
    <tag k="addr:city" v="Poznań"/>
    <tag k="addr:housenumber" v="1"/>
    <tag k="addr:street" v="Grota-Roweckiego"/>
    <tag k="source" v="http://ump.waw.pl/ retrieved 15:05:23 06/30/09 (UMP-Poznan/src/POZNAN.ulice.txt)"/>
  </node>
  <node id="458510032" version="1" timestamp="2009-08-07T22:35:13Z" uid="20587" user="balrog-kun" changeset="2070842" lat="52.4339051" lon="16.9437346">
    <tag k="addr:city" v="Poznań"/>
    <tag k="addr:housenumber" v="3"/>
    <tag k="addr:street" v="Osiedle Kosmonautów"/>
    <tag k="source" v="http://ump.waw.pl/ retrieved 15:05:23 06/30/09 (UMP-Poznan/src/POZNAN.ulice.txt)"/>
  </node>
  <node id="458510033" version="1" timestamp="2009-08-07T22:35:13Z" uid="20587" user="balrog-kun" changeset="2070842" lat="52.4403509" lon="16.9530531">
    <tag k="addr:city" v="Poznań"/>
    <tag k="addr:housenumber" v="37"/>
    <tag k="addr:street" v="Żołnierzy Lenino"/>
    <tag k="source" v="http://ump.waw.pl/ retrieved 15:05:23 06/30/09 (UMP-Poznan/src/POZNAN.ulice.txt)"/>
  </node>
  <node id="458510035" version="1" timestamp="2009-08-07T22:35:14Z" uid="20587" user="balrog-kun" changeset="2070842" lat="52.4398611" lon="16.9607066">
    <tag k="addr:city" v="Poznań"/>
    <tag k="addr:housenumber" v="18"/>
    <tag k="addr:street" v="Piekałkiewicza"/>
    <tag k="source" v="http://ump.waw.pl/ retrieved 15:05:23 06/30/09 (UMP-Poznan/src/POZNAN.ulice.txt)"/>
  </node>
  <node id="458510038" version="1" timestamp="2009-08-07T22:35:14Z" uid="20587" user="balrog-kun" changeset="2070842" lat="52.437112" lon="16.9417798">
    <tag k="addr:city" v="Poznań"/>
    <tag k="addr:housenumber" v="14"/>
    <tag k="addr:street" v="Skotarska"/>
    <tag k="source" v="http://ump.waw.pl/ retrieved 15:05:23 06/30/09 (UMP-Poznan/src/POZNAN.ulice.txt)"/>
  </node>
  <node id="458510039" version="1" timestamp="2009-08-07T22:35:14Z" uid="20587" user="balrog-kun" changeset="2070842" lat="52.4381323" lon="16.9565882">
    <tag k="addr:city" v="Poznań"/>
    <tag k="addr:housenumber" v="26"/>
    <tag k="addr:street" v="Żołnierzy Narwiku"/>
    <tag k="source" v="http://ump.waw.pl/ retrieved 15:05:23 06/30/09 (UMP-Poznan/src/POZNAN.ulice.txt)"/>
  </node>
  <node id="458510045" version="1" timestamp="2009-08-07T22:35:14Z" uid="20587" user="balrog-kun" changeset="2070842" lat="52.4399719" lon="16.9582739">
    <tag k="addr:city" v="Poznań"/>
    <tag k="addr:housenumber" v="26"/>
    <tag k="addr:street" v="Tokarzewskiego"/>
    <tag k="source" v="http://ump.waw.pl/ retrieved 15:05:23 06/30/09 (UMP-Poznan/src/POZNAN.ulice.txt)"/>
  </node>
  <node id="458510046" version="1" timestamp="2009-08-07T22:35:14Z" uid="20587" user="balrog-kun" changeset="2070842" lat="52.4343099" lon="16.9449949">
    <tag k="addr:city" v="Poznań"/>
    <tag k="addr:housenumber" v="7"/>
    <tag k="addr:street" v="Czarna Rola"/>
    <tag k="source" v="http://ump.waw.pl/ retrieved 15:05:23 06/30/09 (UMP-Poznan/src/POZNAN.ulice.txt)"/>
  </node>
  <node id="458510047" version="1" timestamp="2009-08-07T22:35:14Z" uid="20587" user="balrog-kun" changeset="2070842" lat="52.43739" lon="16.94455">
    <tag k="addr:city" v="Poznań"/>
    <tag k="addr:housenumber" v="18"/>
    <tag k="addr:street" v="Osiedle Kosmonautów"/>
    <tag k="source" v="http://ump.waw.pl/ retrieved 15:05:23 06/30/09 (UMP-Poznan/src/POZNAN.ulice.txt)"/>
  </node>
  <node id="458510048" version="1" timestamp="2009-08-07T22:35:14Z" uid="20587" user="balrog-kun" changeset="2070842" lat="52.4346337" lon="16.9554589">
    <tag k="addr:city" v="Poznań"/>
    <tag k="addr:housenumber" v="53"/>
    <tag k="addr:street" v="Wilczak"/>
    <tag k="source" v="http://ump.waw.pl/ retrieved 15:05:23 06/30/09 (UMP-Poznan/src/POZNAN.ulice.txt)"/>
  </node>
  <node id="458510048" version="2" timestamp="2011-06-16T14:58:47Z" uid="91056" user="Yarl" changeset="8456889" lat="52.4346337" lon="16.9554589"/>
  <node id="458510051" version="1" timestamp="2009-08-07T22:35:15Z" uid="20587" user="balrog-kun" changeset="2070842" lat="52.439757" lon="16.9459336">
    <tag k="addr:city" v="Poznań"/>
    <tag k="addr:housenumber" v="20"/>
    <tag k="addr:street" v="Osiedle Kosmonautów"/>
    <tag k="source" v="http://ump.waw.pl/ retrieved 15:05:23 06/30/09 (UMP-Poznan/src/POZNAN.ulice.txt)"/>
  </node>
  <node id="458510052" version="1" timestamp="2009-08-07T22:35:15Z" uid="20587" user="balrog-kun" changeset="2070842" lat="52.4353938" lon="16.9441487">
    <tag k="addr:city" v="Poznań"/>
    <tag k="addr:housenumber" v="8"/>
    <tag k="addr:street" v="Pasterska"/>
    <tag k="source" v="http://ump.waw.pl/ retrieved 15:05:23 06/30/09 (UMP-Poznan/src/POZNAN.ulice.txt)"/>
  </node>
  <node id="458510053" version="1" timestamp="2009-08-07T22:35:15Z" uid="20587" user="balrog-kun" changeset="2070842" lat="52.4358922" lon="16.9407596">
    <tag k="addr:city" v="Poznań"/>
    <tag k="addr:housenumber" v="4"/>
    <tag k="addr:street" v="Skotarska"/>
    <tag k="source" v="http://ump.waw.pl/ retrieved 15:05:23 06/30/09 (UMP-Poznan/src/POZNAN.ulice.txt)"/>
  </node>
  <node id="458510056" version="1" timestamp="2009-08-07T22:35:15Z" uid="20587" user="balrog-kun" changeset="2070842" lat="52.4332585" lon="16.954139">
    <tag k="addr:city" v="Poznań"/>
    <tag k="addr:housenumber" v="47"/>
    <tag k="addr:street" v="Wilczak"/>
    <tag k="source" v="http://ump.waw.pl/ retrieved 15:05:23 06/30/09 (UMP-Poznan/src/POZNAN.ulice.txt)"/>
  </node>
  <node id="458510056" version="2" timestamp="2011-06-16T14:58:47Z" uid="91056" user="Yarl" changeset="8456889" lat="52.4332585" lon="16.954139"/>
  <node id="458510057" version="1" timestamp="2009-08-07T22:35:15Z" uid="20587" user="balrog-kun" changeset="2070842" lat="52.4350622" lon="16.9440838">
    <tag k="addr:city" v="Poznań"/>
    <tag k="addr:housenumber" v="6"/>
    <tag k="addr:street" v="Karbowska"/>
    <tag k="source" v="http://ump.waw.pl/ retrieved 15:05:23 06/30/09 (UMP-Poznan/src/POZNAN.ulice.txt)"/>
  </node>
  <node id="458510058" version="1" timestamp="2009-08-07T22:35:15Z" uid="20587" user="balrog-kun" changeset="2070842" lat="52.4407218" lon="16.943175">
    <tag k="addr:city" v="Poznań"/>
    <tag k="addr:housenumber" v="107"/>
    <tag k="addr:street" v="Osiedle Kosmonautów"/>
    <tag k="source" v="http://ump.waw.pl/ retrieved 15:05:23 06/30/09 (UMP-Poznan/src/POZNAN.ulice.txt)"/>
  </node>
  <node id="458510059" version="1" timestamp="2009-08-07T22:35:15Z" uid="20587" user="balrog-kun" changeset="2070842" lat="52.4384826" lon="16.9554397">
    <tag k="addr:city" v="Poznań"/>
    <tag k="addr:housenumber" v="22"/>
    <tag k="addr:street" v="Zdobywców Monte Cassino"/>
    <tag k="source" v="http://ump.waw.pl/ retrieved 15:05:23 06/30/09 (UMP-Poznan/src/POZNAN.ulice.txt)"/>
  </node>
  <node id="458510060" version="1" timestamp="2009-08-07T22:35:15Z" uid="20587" user="balrog-kun" changeset="2070842" lat="52.4416757" lon="16.9281117">
    <tag k="addr:city" v="Poznań"/>
    <tag k="addr:housenumber" v="6"/>
    <tag k="addr:street" v="Osiedle Zwycięstwa"/>
    <tag k="source" v="http://ump.waw.pl/ retrieved 15:05:23 06/30/09 (UMP-Poznan/src/POZNAN.ulice.txt)"/>
  </node>
  <node id="458510060" version="2" timestamp="2010-06-12T21:10:09Z" uid="303209" user="dPedro" changeset="4973959" lat="52.4416935" lon="16.9284191">
    <tag k="addr:city" v="Poznań"/>
    <tag k="addr:housenumber" v="6"/>
    <tag k="addr:street" v="Osiedle Zwycięstwa"/>
    <tag k="source" v="http://ump.waw.pl/ retrieved 15:05:23 06/30/09 (UMP-Poznan/src/POZNAN.ulice.txt)"/>
  </node>
  <node id="458510060" version="3" timestamp="2010-08-05T12:34:57Z" uid="303209" user="dPedro" changeset="5407788" lat="52.4416935" lon="16.9284191">
    <tag k="addr:city" v="Poznań"/>
    <tag k="addr:housenumber" v="6"/>
    <tag k="addr:street" v="Osiedle Zwycięstwa"/>
    <tag k="source" v="http://ump.waw.pl/ retrieved 15:05:23 06/30/09 (UMP-Poznan/src/POZNAN.ulice.txt)"/>
  </node>
  <node id="458510061" version="1" timestamp="2009-08-07T22:35:16Z" uid="20587" user="balrog-kun" changeset="2070842" lat="52.4404778" lon="16.9473492">
    <tag k="addr:city" v="Poznań"/>
    <tag k="addr:housenumber" v="112"/>
    <tag k="addr:street" v="Naramowicka"/>
    <tag k="source" v="http://ump.waw.pl/ retrieved 15:05:23 06/30/09 (UMP-Poznan/src/POZNAN.ulice.txt)"/>
  </node>
  <node id="458510062" version="1" timestamp="2009-08-07T22:35:16Z" uid="20587" user="balrog-kun" changeset="2070842" lat="52.4397888" lon="16.961973">
    <tag k="addr:city" v="Poznań"/>
    <tag k="addr:housenumber" v="2"/>
    <tag k="addr:street" v="Hubalczyków"/>
    <tag k="source" v="http://ump.waw.pl/ retrieved 15:05:23 06/30/09 (UMP-Poznan/src/POZNAN.ulice.txt)"/>
  </node>
  <node id="458510065" version="1" timestamp="2009-08-07T22:35:16Z" uid="20587" user="balrog-kun" changeset="2070842" lat="52.4337763" lon="16.9473227">
    <tag k="addr:city" v="Poznań"/>
    <tag k="addr:housenumber" v="70"/>
    <tag k="addr:street" v="Naramowicka"/>
    <tag k="source" v="http://ump.waw.pl/ retrieved 15:05:23 06/30/09 (UMP-Poznan/src/POZNAN.ulice.txt)"/>
  </node>
  <node id="458510067" version="1" timestamp="2009-08-07T22:35:16Z" uid="20587" user="balrog-kun" changeset="2070842" lat="52.4396789" lon="16.9603534">
    <tag k="addr:city" v="Poznań"/>
    <tag k="addr:housenumber" v="1"/>
    <tag k="addr:street" v="Piekałkiewicza"/>
    <tag k="source" v="http://ump.waw.pl/ retrieved 15:05:23 06/30/09 (UMP-Poznan/src/POZNAN.ulice.txt)"/>
  </node>
  <node id="458510069" version="1" timestamp="2009-08-07T22:35:16Z" uid="20587" user="balrog-kun" changeset="2070842" lat="52.4391483" lon="16.9565781">
    <tag k="addr:city" v="Poznań"/>
    <tag k="addr:housenumber" v="80"/>
    <tag k="addr:street" v="Rataja"/>
    <tag k="source" v="http://ump.waw.pl/ retrieved 15:05:23 06/30/09 (UMP-Poznan/src/POZNAN.ulice.txt)"/>
  </node>
  <node id="458510073" version="1" timestamp="2009-08-07T22:35:16Z" uid="20587" user="balrog-kun" changeset="2070842" lat="52.441345" lon="16.92412">
    <tag k="addr:city" v="Poznań"/>
    <tag k="addr:housenumber" v="25"/>
    <tag k="addr:street" v="Osiedle Zwycięstwa"/>
    <tag k="source" v="http://ump.waw.pl/ retrieved 15:05:23 06/30/09 (UMP-Poznan/src/POZNAN.ulice.txt)"/>
  </node>
  <node id="458510073" version="2" timestamp="2010-08-05T12:35:02Z" uid="303209" user="dPedro" changeset="5407788" lat="52.441345" lon="16.92412">
    <tag k="addr:city" v="Poznań"/>
    <tag k="addr:housenumber" v="25"/>
    <tag k="addr:street" v="Osiedle Zwycięstwa"/>
    <tag k="source" v="http://ump.waw.pl/ retrieved 15:05:23 06/30/09 (UMP-Poznan/src/POZNAN.ulice.txt)"/>
  </node>
  <node id="458510074" version="1" timestamp="2009-08-07T22:35:16Z" uid="20587" user="balrog-kun" changeset="2070842" lat="52.4386203" lon="16.9587324">
    <tag k="addr:city" v="Poznań"/>
    <tag k="addr:housenumber" v="2"/>
    <tag k="addr:street" v="Związku Walki Zbrojnej"/>
    <tag k="source" v="http://ump.waw.pl/ retrieved 15:05:23 06/30/09 (UMP-Poznan/src/POZNAN.ulice.txt)"/>
  </node>
  <node id="458510075" version="1" timestamp="2009-08-07T22:35:16Z" uid="20587" user="balrog-kun" changeset="2070842" lat="52.4356021" lon="16.9495509">
    <tag k="addr:city" v="Poznań"/>
    <tag k="addr:housenumber" v="2"/>
    <tag k="addr:street" v="Hawelańska"/>
    <tag k="source" v="http://ump.waw.pl/ retrieved 15:05:23 06/30/09 (UMP-Poznan/src/POZNAN.ulice.txt)"/>
  </node>
  <node id="458510075" version="2" timestamp="2011-06-16T14:58:47Z" uid="91056" user="Yarl" changeset="8456889" lat="52.4356021" lon="16.9495509"/>
  <node id="458510077" version="1" timestamp="2009-08-07T22:35:16Z" uid="20587" user="balrog-kun" changeset="2070842" lat="52.440238" lon="16.9521932">
    <tag k="addr:city" v="Poznań"/>
    <tag k="addr:housenumber" v="12"/>
    <tag k="addr:street" v="Armii Ludowej"/>
    <tag k="source" v="http://ump.waw.pl/ retrieved 15:05:23 06/30/09 (UMP-Poznan/src/POZNAN.ulice.txt)"/>
  </node>
  <node id="458510079" version="1" timestamp="2009-08-07T22:35:17Z" uid="20587" user="balrog-kun" changeset="2070842" lat="52.4348579" lon="16.9439248">
    <tag k="addr:city" v="Poznań"/>
    <tag k="addr:housenumber" v="2"/>
    <tag k="addr:street" v="Karbowska"/>
    <tag k="source" v="http://ump.waw.pl/ retrieved 15:05:23 06/30/09 (UMP-Poznan/src/POZNAN.ulice.txt)"/>
  </node>
  <node id="458510080" version="1" timestamp="2009-08-07T22:35:17Z" uid="20587" user="balrog-kun" changeset="2070842" lat="52.4391701" lon="16.9558641">
    <tag k="addr:city" v="Poznań"/>
    <tag k="addr:housenumber" v="68"/>
    <tag k="addr:street" v="Rataja"/>
    <tag k="source" v="http://ump.waw.pl/ retrieved 15:05:23 06/30/09 (UMP-Poznan/src/POZNAN.ulice.txt)"/>
  </node>
  <node id="458510082" version="1" timestamp="2009-08-07T22:35:17Z" uid="20587" user="balrog-kun" changeset="2070842" lat="52.4365514" lon="16.9422572">
    <tag k="addr:city" v="Poznań"/>
    <tag k="addr:housenumber" v="34"/>
    <tag k="addr:street" v="Żytnia"/>
    <tag k="source" v="http://ump.waw.pl/ retrieved 15:05:23 06/30/09 (UMP-Poznan/src/POZNAN.ulice.txt)"/>
  </node>
  <node id="458510086" version="1" timestamp="2009-08-07T22:35:17Z" uid="20587" user="balrog-kun" changeset="2070842" lat="52.4384793" lon="16.9580162">
    <tag k="addr:city" v="Poznań"/>
    <tag k="addr:housenumber" v="2"/>
    <tag k="addr:street" v="Batalionów Chłopskich"/>
    <tag k="source" v="http://ump.waw.pl/ retrieved 15:05:23 06/30/09 (UMP-Poznan/src/POZNAN.ulice.txt)"/>
  </node>
  <node id="458510089" version="1" timestamp="2009-08-07T22:35:17Z" uid="20587" user="balrog-kun" changeset="2070842" lat="52.4396146" lon="16.9552526">
    <tag k="addr:city" v="Poznań"/>
    <tag k="addr:housenumber" v="1"/>
    <tag k="addr:street" v="Kowalówki"/>
    <tag k="source" v="http://ump.waw.pl/ retrieved 15:05:23 06/30/09 (UMP-Poznan/src/POZNAN.ulice.txt)"/>
  </node>
  <node id="458510090" version="1" timestamp="2009-08-07T22:35:17Z" uid="20587" user="balrog-kun" changeset="2070842" lat="52.4358574" lon="16.9542259">
    <tag k="addr:city" v="Poznań"/>
    <tag k="addr:housenumber" v="12"/>
    <tag k="addr:street" v="Hawelańska"/>
    <tag k="source" v="http://ump.waw.pl/ retrieved 15:05:23 06/30/09 (UMP-Poznan/src/POZNAN.ulice.txt)"/>
  </node>
  <node id="458510090" version="2" timestamp="2011-06-16T14:58:47Z" uid="91056" user="Yarl" changeset="8456889" lat="52.4358574" lon="16.9542259"/>
  <node id="458510091" version="1" timestamp="2009-08-07T22:35:17Z" uid="20587" user="balrog-kun" changeset="2070842" lat="52.4413283" lon="16.9213099">
    <tag k="addr:city" v="Poznań"/>
    <tag k="addr:housenumber" v="24"/>
    <tag k="addr:street" v="Osiedle Zwycięstwa"/>
    <tag k="source" v="http://ump.waw.pl/ retrieved 15:05:23 06/30/09 (UMP-Poznan/src/POZNAN.ulice.txt)"/>
  </node>
  <node id="458510091" version="2" timestamp="2010-08-05T12:34:55Z" uid="303209" user="dPedro" changeset="5407788" lat="52.4413283" lon="16.9213099">
    <tag k="addr:city" v="Poznań"/>
    <tag k="addr:housenumber" v="24"/>
    <tag k="addr:street" v="Osiedle Zwycięstwa"/>
    <tag k="source" v="http://ump.waw.pl/ retrieved 15:05:23 06/30/09 (UMP-Poznan/src/POZNAN.ulice.txt)"/>
  </node>
  <node id="458510092" version="1" timestamp="2009-08-07T22:35:18Z" uid="20587" user="balrog-kun" changeset="2070842" lat="52.4357318" lon="16.9445989">
    <tag k="addr:city" v="Poznań"/>
    <tag k="addr:housenumber" v="16"/>
    <tag k="addr:street" v="Karbowska"/>
    <tag k="source" v="http://ump.waw.pl/ retrieved 15:05:23 06/30/09 (UMP-Poznan/src/POZNAN.ulice.txt)"/>
  </node>
  <node id="458510093" version="1" timestamp="2009-08-07T22:35:18Z" uid="20587" user="balrog-kun" changeset="2070842" lat="52.4363327" lon="16.9420801">
    <tag k="addr:city" v="Poznań"/>
    <tag k="addr:housenumber" v="33"/>
    <tag k="addr:street" v="Żytnia"/>
    <tag k="source" v="http://ump.waw.pl/ retrieved 15:05:23 06/30/09 (UMP-Poznan/src/POZNAN.ulice.txt)"/>
  </node>
  <node id="458510094" version="1" timestamp="2009-08-07T22:35:18Z" uid="20587" user="balrog-kun" changeset="2070842" lat="52.439154" lon="16.9563807">
    <tag k="addr:city" v="Poznań"/>
    <tag k="addr:housenumber" v="78"/>
    <tag k="addr:street" v="Rataja"/>
    <tag k="source" v="http://ump.waw.pl/ retrieved 15:05:23 06/30/09 (UMP-Poznan/src/POZNAN.ulice.txt)"/>
  </node>
  <node id="458510096" version="1" timestamp="2009-08-07T22:35:18Z" uid="20587" user="balrog-kun" changeset="2070842" lat="52.4357306" lon="16.940624">
    <tag k="addr:city" v="Poznań"/>
    <tag k="addr:housenumber" v="2"/>
    <tag k="addr:street" v="Skotarska"/>
    <tag k="source" v="http://ump.waw.pl/ retrieved 15:05:23 06/30/09 (UMP-Poznan/src/POZNAN.ulice.txt)"/>
  </node>
  <node id="458510098" version="1" timestamp="2009-08-07T22:35:18Z" uid="20587" user="balrog-kun" changeset="2070842" lat="52.4397271" lon="16.9615859">
    <tag k="addr:city" v="Poznań"/>
    <tag k="addr:housenumber" v="1"/>
    <tag k="addr:street" v="Hubalczyków"/>
    <tag k="source" v="http://ump.waw.pl/ retrieved 15:05:23 06/30/09 (UMP-Poznan/src/POZNAN.ulice.txt)"/>
  </node>
  <node id="458510099" version="1" timestamp="2009-08-07T22:35:18Z" uid="20587" user="balrog-kun" changeset="2070842" lat="52.437523" lon="16.9423508">
    <tag k="addr:city" v="Poznań"/>
    <tag k="addr:housenumber" v="31"/>
    <tag k="addr:street" v="Włodarska"/>
    <tag k="source" v="http://ump.waw.pl/ retrieved 15:05:23 06/30/09 (UMP-Poznan/src/POZNAN.ulice.txt)"/>
  </node>
  <node id="458510102" version="1" timestamp="2009-08-07T22:35:18Z" uid="20587" user="balrog-kun" changeset="2070842" lat="52.4367802" lon="16.9415036">
    <tag k="addr:city" v="Poznań"/>
    <tag k="addr:housenumber" v="12"/>
    <tag k="addr:street" v="Skotarska"/>
    <tag k="source" v="http://ump.waw.pl/ retrieved 15:05:23 06/30/09 (UMP-Poznan/src/POZNAN.ulice.txt)"/>
  </node>
  <node id="458510104" version="1" timestamp="2009-08-07T22:35:19Z" uid="20587" user="balrog-kun" changeset="2070842" lat="52.4362057" lon="16.9410257">
    <tag k="addr:city" v="Poznań"/>
    <tag k="addr:housenumber" v="6"/>
    <tag k="addr:street" v="Skotarska"/>
    <tag k="source" v="http://ump.waw.pl/ retrieved 15:05:23 06/30/09 (UMP-Poznan/src/POZNAN.ulice.txt)"/>
  </node>
  <node id="458510106" version="1" timestamp="2009-08-07T22:35:19Z" uid="20587" user="balrog-kun" changeset="2070842" lat="52.4401912" lon="16.9517617">
    <tag k="addr:city" v="Poznań"/>
    <tag k="addr:housenumber" v="15"/>
    <tag k="addr:street" v="Armii Ludowej"/>
    <tag k="source" v="http://ump.waw.pl/ retrieved 15:05:23 06/30/09 (UMP-Poznan/src/POZNAN.ulice.txt)"/>
  </node>
  <node id="458510108" version="1" timestamp="2009-08-07T22:35:19Z" uid="20587" user="balrog-kun" changeset="2070842" lat="52.4359773" lon="16.9412907">
    <tag k="addr:city" v="Poznań"/>
    <tag k="addr:housenumber" v="9"/>
    <tag k="addr:street" v="Słomiana"/>
    <tag k="source" v="http://ump.waw.pl/ retrieved 15:05:23 06/30/09 (UMP-Poznan/src/POZNAN.ulice.txt)"/>
  </node>
  <node id="458510111" version="1" timestamp="2009-08-07T22:35:19Z" uid="20587" user="balrog-kun" changeset="2070842" lat="52.4391512" lon="16.9548547">
    <tag k="addr:city" v="Poznań"/>
    <tag k="addr:housenumber" v="3"/>
    <tag k="addr:street" v="Obrońców Tobruku"/>
    <tag k="source" v="http://ump.waw.pl/ retrieved 15:05:23 06/30/09 (UMP-Poznan/src/POZNAN.ulice.txt)"/>
  </node>
  <node id="458510112" version="1" timestamp="2009-08-07T22:35:19Z" uid="20587" user="balrog-kun" changeset="2070842" lat="52.4396611" lon="16.9527225">
    <tag k="addr:city" v="Poznań"/>
    <tag k="addr:housenumber" v="19"/>
    <tag k="addr:street" v="Żołnierzy Lenino"/>
    <tag k="source" v="http://ump.waw.pl/ retrieved 15:05:23 06/30/09 (UMP-Poznan/src/POZNAN.ulice.txt)"/>
  </node>
  <node id="458510114" version="1" timestamp="2009-08-07T22:35:19Z" uid="20587" user="balrog-kun" changeset="2070842" lat="52.435813" lon="16.9418308">
    <tag k="addr:city" v="Poznań"/>
    <tag k="addr:housenumber" v="2"/>
    <tag k="addr:street" v="Słomiana"/>
    <tag k="source" v="http://ump.waw.pl/ retrieved 15:05:23 06/30/09 (UMP-Poznan/src/POZNAN.ulice.txt)"/>
  </node>
  <node id="458510118" version="1" timestamp="2009-08-07T22:35:19Z" uid="20587" user="balrog-kun" changeset="2070842" lat="52.4415308" lon="16.9226851">
    <tag k="addr:city" v="Poznań"/>
    <tag k="addr:housenumber" v="108"/>
    <tag k="addr:street" v="Osiedle Zwycięstwa"/>
    <tag k="source" v="http://ump.waw.pl/ retrieved 15:05:23 06/30/09 (UMP-Poznan/src/POZNAN.ulice.txt)"/>
  </node>
  <node id="458510118" version="2" timestamp="2010-06-12T21:10:08Z" uid="303209" user="dPedro" changeset="4973959" lat="52.4415309" lon="16.9226851">
    <tag k="addr:city" v="Poznań"/>
    <tag k="addr:housenumber" v="108"/>
    <tag k="addr:street" v="Osiedle Zwycięstwa"/>
    <tag k="source" v="http://ump.waw.pl/ retrieved 15:05:23 06/30/09 (UMP-Poznan/src/POZNAN.ulice.txt)"/>
  </node>
  <node id="458510118" version="3" timestamp="2010-08-05T12:34:59Z" uid="303209" user="dPedro" changeset="5407788" lat="52.4415309" lon="16.9226851">
    <tag k="addr:city" v="Poznań"/>
    <tag k="addr:housenumber" v="108"/>
    <tag k="addr:street" v="Osiedle Zwycięstwa"/>
    <tag k="source" v="http://ump.waw.pl/ retrieved 15:05:23 06/30/09 (UMP-Poznan/src/POZNAN.ulice.txt)"/>
  </node>
  <node id="458510119" version="1" timestamp="2009-08-07T22:35:19Z" uid="20587" user="balrog-kun" changeset="2070842" lat="52.4391519" lon="16.9523777">
    <tag k="addr:city" v="Poznań"/>
    <tag k="addr:housenumber" v="1"/>
    <tag k="addr:street" v="Żołnierzy Lenino"/>
    <tag k="source" v="http://ump.waw.pl/ retrieved 15:05:23 06/30/09 (UMP-Poznan/src/POZNAN.ulice.txt)"/>
  </node>
  <node id="458510120" version="1" timestamp="2009-08-07T22:35:20Z" uid="20587" user="balrog-kun" changeset="2070842" lat="52.4384673" lon="16.9481235">
    <tag k="addr:city" v="Poznań"/>
    <tag k="addr:housenumber" v="98"/>
    <tag k="addr:street" v="Naramowicka"/>
    <tag k="source" v="http://ump.waw.pl/ retrieved 15:05:23 06/30/09 (UMP-Poznan/src/POZNAN.ulice.txt)"/>
  </node>
  <node id="458510121" version="1" timestamp="2009-08-07T22:35:20Z" uid="20587" user="balrog-kun" changeset="2070842" lat="52.4354618" lon="16.9408638">
    <tag k="addr:city" v="Poznań"/>
    <tag k="addr:housenumber" v="33"/>
    <tag k="addr:street" v="Czarna Rola"/>
    <tag k="source" v="http://ump.waw.pl/ retrieved 15:05:23 06/30/09 (UMP-Poznan/src/POZNAN.ulice.txt)"/>
  </node>
  <node id="458510122" version="1" timestamp="2009-08-07T22:35:20Z" uid="20587" user="balrog-kun" changeset="2070842" lat="52.4400491" lon="16.9533469">
    <tag k="addr:city" v="Poznań"/>
    <tag k="addr:housenumber" v="24"/>
    <tag k="addr:street" v="Żołnierzy Lenino"/>
    <tag k="source" v="http://ump.waw.pl/ retrieved 15:05:23 06/30/09 (UMP-Poznan/src/POZNAN.ulice.txt)"/>
  </node>
  <node id="458510124" version="1" timestamp="2009-08-07T22:35:20Z" uid="20587" user="balrog-kun" changeset="2070842" lat="52.4363382" lon="16.9411548">
    <tag k="addr:city" v="Poznań"/>
    <tag k="addr:housenumber" v="8"/>
    <tag k="addr:street" v="Skotarska"/>
    <tag k="source" v="http://ump.waw.pl/ retrieved 15:05:23 06/30/09 (UMP-Poznan/src/POZNAN.ulice.txt)"/>
  </node>
  <node id="458510126" version="1" timestamp="2009-08-07T22:35:20Z" uid="20587" user="balrog-kun" changeset="2070842" lat="52.4363714" lon="16.9462241">
    <tag k="addr:city" v="Poznań"/>
    <tag k="addr:housenumber" v="24"/>
    <tag k="addr:street" v="Włodarska"/>
    <tag k="source" v="http://ump.waw.pl/ retrieved 15:05:23 06/30/09 (UMP-Poznan/src/POZNAN.ulice.txt)"/>
  </node>
  <node id="458510130" version="1" timestamp="2009-08-07T22:35:20Z" uid="20587" user="balrog-kun" changeset="2070842" lat="52.4365104" lon="16.9457672">
    <tag k="addr:city" v="Poznań"/>
    <tag k="addr:housenumber" v="23"/>
    <tag k="addr:street" v="Włodarska"/>
    <tag k="source" v="http://ump.waw.pl/ retrieved 15:05:23 06/30/09 (UMP-Poznan/src/POZNAN.ulice.txt)"/>
  </node>
  <node id="458510132" version="1" timestamp="2009-08-07T22:35:21Z" uid="20587" user="balrog-kun" changeset="2070842" lat="52.440027" lon="16.9566508">
    <tag k="addr:city" v="Poznań"/>
    <tag k="addr:housenumber" v="27"/>
    <tag k="addr:street" v="Grota-Roweckiego"/>
    <tag k="source" v="http://ump.waw.pl/ retrieved 15:05:23 06/30/09 (UMP-Poznan/src/POZNAN.ulice.txt)"/>
  </node>
  <node id="458510133" version="1" timestamp="2009-08-07T22:35:21Z" uid="20587" user="balrog-kun" changeset="2070842" lat="52.4392301" lon="16.9553241">
    <tag k="addr:city" v="Poznań"/>
    <tag k="addr:housenumber" v="60"/>
    <tag k="addr:street" v="Rataja"/>
    <tag k="source" v="http://ump.waw.pl/ retrieved 15:05:23 06/30/09 (UMP-Poznan/src/POZNAN.ulice.txt)"/>
  </node>
  <node id="458510136" version="1" timestamp="2009-08-07T22:35:21Z" uid="20587" user="balrog-kun" changeset="2070842" lat="52.4414533" lon="16.9418171">
    <tag k="addr:city" v="Poznań"/>
    <tag k="addr:housenumber" v="11"/>
    <tag k="addr:street" v="Osiedle Kosmonautów"/>
    <tag k="source" v="http://ump.waw.pl/ retrieved 15:05:23 06/30/09 (UMP-Poznan/src/POZNAN.ulice.txt)"/>
  </node>
  <node id="458510138" version="1" timestamp="2009-08-07T22:35:21Z" uid="20587" user="balrog-kun" changeset="2070842" lat="52.4357151" lon="16.9526979">
    <tag k="addr:city" v="Poznań"/>
    <tag k="addr:housenumber" v="8"/>
    <tag k="addr:street" v="Hawelańska"/>
    <tag k="source" v="http://ump.waw.pl/ retrieved 15:05:23 06/30/09 (UMP-Poznan/src/POZNAN.ulice.txt)"/>
  </node>
  <node id="458510138" version="2" timestamp="2011-06-16T14:58:47Z" uid="91056" user="Yarl" changeset="8456889" lat="52.4357151" lon="16.9526979"/>
  <node id="458510140" version="1" timestamp="2009-08-07T22:35:21Z" uid="20587" user="balrog-kun" changeset="2070842" lat="52.4396164" lon="16.9514209">
    <tag k="addr:city" v="Poznań"/>
    <tag k="addr:housenumber" v="1"/>
    <tag k="addr:street" v="Armii Ludowej"/>
    <tag k="source" v="http://ump.waw.pl/ retrieved 15:05:23 06/30/09 (UMP-Poznan/src/POZNAN.ulice.txt)"/>
  </node>
  <node id="458510141" version="1" timestamp="2009-08-07T22:35:21Z" uid="20587" user="balrog-kun" changeset="2070842" lat="52.4397374" lon="16.9514935">
    <tag k="addr:city" v="Poznań"/>
    <tag k="addr:housenumber" v="9"/>
    <tag k="addr:street" v="Armii Ludowej"/>
    <tag k="source" v="http://ump.waw.pl/ retrieved 15:05:23 06/30/09 (UMP-Poznan/src/POZNAN.ulice.txt)"/>
  </node>
  <node id="458510142" version="1" timestamp="2009-08-07T22:35:21Z" uid="20587" user="balrog-kun" changeset="2070842" lat="52.4395081" lon="16.9577661">
    <tag k="addr:city" v="Poznań"/>
    <tag k="addr:housenumber" v="1"/>
    <tag k="addr:street" v="Tokarzewskiego"/>
    <tag k="source" v="http://ump.waw.pl/ retrieved 15:05:23 06/30/09 (UMP-Poznan/src/POZNAN.ulice.txt)"/>
  </node>
  <node id="458510143" version="1" timestamp="2009-08-07T22:35:22Z" uid="20587" user="balrog-kun" changeset="2070842" lat="52.4401154" lon="16.9558474">
    <tag k="addr:city" v="Poznań"/>
    <tag k="addr:housenumber" v="28"/>
    <tag k="addr:street" v="Kowalówki"/>
    <tag k="source" v="http://ump.waw.pl/ retrieved 15:05:23 06/30/09 (UMP-Poznan/src/POZNAN.ulice.txt)"/>
  </node>
  <node id="458510145" version="1" timestamp="2009-08-07T22:35:22Z" uid="20587" user="balrog-kun" changeset="2070842" lat="52.4419965" lon="16.9241047">
    <tag k="addr:city" v="Poznań"/>
    <tag k="addr:housenumber" v="28"/>
    <tag k="addr:street" v="Osiedle Zwycięstwa"/>
    <tag k="source" v="http://ump.waw.pl/ retrieved 15:05:23 06/30/09 (UMP-Poznan/src/POZNAN.ulice.txt)"/>
  </node>
  <node id="458510145" version="2" timestamp="2010-08-05T12:34:57Z" uid="303209" user="dPedro" changeset="5407788" lat="52.4419965" lon="16.9241047">
    <tag k="addr:city" v="Poznań"/>
    <tag k="addr:housenumber" v="28"/>
    <tag k="addr:street" v="Osiedle Zwycięstwa"/>
    <tag k="source" v="http://ump.waw.pl/ retrieved 15:05:23 06/30/09 (UMP-Poznan/src/POZNAN.ulice.txt)"/>
  </node>
  <node id="458510554" version="1" timestamp="2009-08-07T22:36:19Z" uid="1066" user="pavel" changeset="2070855" lat="49.8924461" lon="14.8388201"/>
  <node id="458510555" version="1" timestamp="2009-08-07T22:36:19Z" uid="1066" user="pavel" changeset="2070855" lat="49.8917776" lon="14.8382879"/>
  <node id="458510556" version="1" timestamp="2009-08-07T22:36:19Z" uid="1066" user="pavel" changeset="2070855" lat="49.8914289" lon="14.8379793"/>
  <node id="458510557" version="1" timestamp="2009-08-07T22:36:19Z" uid="1066" user="pavel" changeset="2070855" lat="49.8913281" lon="14.8379346"/>
  <node id="458510558" version="1" timestamp="2009-08-07T22:36:19Z" uid="1066" user="pavel" changeset="2070855" lat="49.8912244" lon="14.8379211"/>
  <node id="458510559" version="1" timestamp="2009-08-07T22:36:19Z" uid="1066" user="pavel" changeset="2070855" lat="49.8910486" lon="14.837939"/>
  <node id="458510560" version="1" timestamp="2009-08-07T22:36:19Z" uid="1066" user="pavel" changeset="2070855" lat="49.8908786" lon="14.837939"/>
  <node id="458510561" version="1" timestamp="2009-08-07T22:36:19Z" uid="1066" user="pavel" changeset="2070855" lat="49.890697" lon="14.8378988"/>
  <node id="458510562" version="1" timestamp="2009-08-07T22:36:19Z" uid="1066" user="pavel" changeset="2070855" lat="49.8891698" lon="14.8372189"/>
  <node id="458510563" version="1" timestamp="2009-08-07T22:36:19Z" uid="1066" user="pavel" changeset="2070855" lat="49.8892418" lon="14.8374068"/>
  <node id="458510564" version="1" timestamp="2009-08-07T22:36:19Z" uid="1066" user="pavel" changeset="2070855" lat="49.8894464" lon="14.8375544"/>
  <node id="458510565" version="1" timestamp="2009-08-07T22:36:19Z" uid="1066" user="pavel" changeset="2070855" lat="49.8896568" lon="14.8376662"/>
  <node id="458510566" version="1" timestamp="2009-08-07T22:36:19Z" uid="1066" user="pavel" changeset="2070855" lat="49.8899594" lon="14.837702"/>
  <node id="458510567" version="1" timestamp="2009-08-07T22:36:19Z" uid="1066" user="pavel" changeset="2070855" lat="49.8900314" lon="14.8377422"/>
  <node id="458510568" version="1" timestamp="2009-08-07T22:36:19Z" uid="1066" user="pavel" changeset="2070855" lat="49.8899824" lon="14.837948"/>
  <node id="458510569" version="1" timestamp="2009-08-07T22:36:19Z" uid="1066" user="pavel" changeset="2070855" lat="49.8900314" lon="14.8380822"/>
  <node id="458510570" version="1" timestamp="2009-08-07T22:36:20Z" uid="1066" user="pavel" changeset="2070855" lat="49.8901236" lon="14.8381179"/>
  <node id="458510571" version="1" timestamp="2009-08-07T22:36:20Z" uid="1066" user="pavel" changeset="2070855" lat="49.8901957" lon="14.8380732"/>
  <node id="458510572" version="1" timestamp="2009-08-07T22:36:20Z" uid="1066" user="pavel" changeset="2070855" lat="49.890259" lon="14.8379882"/>
  <node id="458510573" version="1" timestamp="2009-08-07T22:36:20Z" uid="1066" user="pavel" changeset="2070855" lat="49.8904146" lon="14.8379301"/>
  <node id="458510574" version="1" timestamp="2009-08-07T22:36:20Z" uid="1066" user="pavel" changeset="2070855" lat="49.8905587" lon="14.8379346"/>
  <node id="458510575" version="1" timestamp="2009-08-07T22:36:20Z" uid="1066" user="pavel" changeset="2070855" lat="49.8890718" lon="14.8366822"/>
  <node id="458510576" version="1" timestamp="2009-08-07T22:36:20Z" uid="1066" user="pavel" changeset="2070855" lat="49.8890344" lon="14.8363512"/>
  <node id="458510577" version="1" timestamp="2009-08-07T22:36:20Z" uid="1066" user="pavel" changeset="2070855" lat="49.8889335" lon="14.8361634"/>
  <node id="458510578" version="1" timestamp="2009-08-07T22:36:20Z" uid="1066" user="pavel" changeset="2070855" lat="49.8888327" lon="14.8361007"/>
  <node id="458510579" version="1" timestamp="2009-08-07T22:36:20Z" uid="1066" user="pavel" changeset="2070855" lat="49.8885531" lon="14.836056"/>
  <node id="458510580" version="1" timestamp="2009-08-07T22:36:20Z" uid="1066" user="pavel" changeset="2070855" lat="49.9005895" lon="14.8327939"/>
  <node id="458510581" version="1" timestamp="2009-08-07T22:36:20Z" uid="1066" user="pavel" changeset="2070855" lat="49.9004381" lon="14.8331892"/>
  <node id="458510582" version="1" timestamp="2009-08-07T22:36:20Z" uid="1066" user="pavel" changeset="2070855" lat="49.9001009" lon="14.8337554"/>
  <node id="458510583" version="1" timestamp="2009-08-07T22:36:20Z" uid="1066" user="pavel" changeset="2070855" lat="49.8998463" lon="14.8340118"/>
  <node id="458510583" version="2" timestamp="2009-09-07T07:56:30Z" uid="1066" user="pavel" changeset="2399807" lat="49.8999859" lon="14.8338764"/>
  <node id="458510584" version="1" timestamp="2009-08-07T22:36:20Z" uid="1066" user="pavel" changeset="2070855" lat="49.9030286" lon="14.8234829"/>
  <node id="458510585" version="1" timestamp="2009-08-07T22:36:20Z" uid="1066" user="pavel" changeset="2070855" lat="49.9034316" lon="14.8236836"/>
  <node id="458510586" version="1" timestamp="2009-08-07T22:36:20Z" uid="1066" user="pavel" changeset="2070855" lat="49.9038118" lon="14.8237249"/>
  <node id="458510587" version="1" timestamp="2009-08-07T22:36:20Z" uid="1066" user="pavel" changeset="2070855" lat="49.9041692" lon="14.8237367"/>
  <node id="458510588" version="1" timestamp="2009-08-07T22:36:20Z" uid="1066" user="pavel" changeset="2070855" lat="49.9052641" lon="14.8236718"/>
  <node id="458510589" version="1" timestamp="2009-08-07T22:36:20Z" uid="1066" user="pavel" changeset="2070855" lat="49.9056329" lon="14.82366"/>
  <node id="458510590" version="1" timestamp="2009-08-07T22:36:20Z" uid="1066" user="pavel" changeset="2070855" lat="49.9058838" lon="14.8236246"/>
  <node id="458510591" version="1" timestamp="2009-08-07T22:36:21Z" uid="1066" user="pavel" changeset="2070855" lat="49.9060739" lon="14.8235655"/>
  <node id="458510592" version="1" timestamp="2009-08-07T22:36:21Z" uid="1066" user="pavel" changeset="2070855" lat="49.9063933" lon="14.8234003"/>
  <node id="458510593" version="1" timestamp="2009-08-07T22:36:21Z" uid="1066" user="pavel" changeset="2070855" lat="49.9065073" lon="14.8234062"/>
  <node id="458510594" version="1" timestamp="2009-08-07T22:36:21Z" uid="1066" user="pavel" changeset="2070855" lat="49.9067696" lon="14.8235537"/>
  <node id="458510595" version="1" timestamp="2009-08-07T22:36:21Z" uid="1066" user="pavel" changeset="2070855" lat="49.9070053" lon="14.8238371"/>
  <node id="458510596" version="1" timestamp="2009-08-07T22:36:21Z" uid="1066" user="pavel" changeset="2070855" lat="49.9071802" lon="14.8240201"/>
  <node id="458510597" version="1" timestamp="2009-08-07T22:36:21Z" uid="1066" user="pavel" changeset="2070855" lat="49.9073133" lon="14.8241027"/>
  <node id="458510598" version="1" timestamp="2009-08-07T22:36:21Z" uid="1066" user="pavel" changeset="2070855" lat="49.9075642" lon="14.8241676"/>
  <node id="458510599" version="1" timestamp="2009-08-07T22:36:21Z" uid="1066" user="pavel" changeset="2070855" lat="49.9094155" lon="14.8184359"/>
  <node id="458510600" version="1" timestamp="2009-08-07T22:36:21Z" uid="1066" user="pavel" changeset="2070855" lat="49.9099325" lon="14.8185244"/>
  <node id="458510601" version="1" timestamp="2009-08-07T22:36:21Z" uid="1066" user="pavel" changeset="2070855" lat="49.9099972" lon="14.8178692"/>
  <node id="458510602" version="1" timestamp="2009-08-07T22:36:21Z" uid="1066" user="pavel" changeset="2070855" lat="49.909522" lon="14.817757"/>
  <node id="458510603" version="1" timestamp="2009-08-07T22:36:21Z" uid="1066" user="pavel" changeset="2070855" lat="49.9149032" lon="14.8098083"/>
  <node id="458510603" version="2" timestamp="2010-11-10T08:29:43Z" uid="84326" user="Mike Crash" changeset="6333963" lat="49.9149032" lon="14.8098083"/>
  <node id="458510604" version="1" timestamp="2009-08-07T22:36:21Z" uid="1066" user="pavel" changeset="2070855" lat="49.9149974" lon="14.8104514"/>
  <node id="458510604" version="2" timestamp="2010-11-10T08:29:43Z" uid="84326" user="Mike Crash" changeset="6333963" lat="49.9149974" lon="14.8104514"/>
  <node id="458510605" version="1" timestamp="2009-08-07T22:36:21Z" uid="1066" user="pavel" changeset="2070855" lat="49.9150631" lon="14.8113206"/>
  <node id="458510605" version="2" timestamp="2010-11-10T08:29:43Z" uid="84326" user="Mike Crash" changeset="6333963" lat="49.9150631" lon="14.8113206"/>
  <node id="458510606" version="1" timestamp="2009-08-07T22:36:21Z" uid="1066" user="pavel" changeset="2070855" lat="49.9151031" lon="14.8136933"/>
  <node id="458510606" version="2" timestamp="2010-11-10T08:29:43Z" uid="84326" user="Mike Crash" changeset="6333963" lat="49.9151031" lon="14.8136933"/>
  <node id="458510607" version="1" timestamp="2009-08-07T22:36:21Z" uid="1066" user="pavel" changeset="2070855" lat="49.9151231" lon="14.8144916"/>
  <node id="458510607" version="2" timestamp="2010-11-10T08:29:43Z" uid="84326" user="Mike Crash" changeset="6333963" lat="49.9151231" lon="14.8144916"/>
  <node id="458510608" version="1" timestamp="2009-08-07T22:36:21Z" uid="1066" user="pavel" changeset="2070855" lat="49.9151459" lon="14.8149795"/>
  <node id="458510608" version="2" timestamp="2010-11-10T08:29:43Z" uid="84326" user="Mike Crash" changeset="6333963" lat="49.9151459" lon="14.8149795"/>
  <node id="458510609" version="1" timestamp="2009-08-07T22:36:21Z" uid="1066" user="pavel" changeset="2070855" lat="49.915223" lon="14.8155028"/>
  <node id="458510609" version="2" timestamp="2010-11-10T08:29:43Z" uid="84326" user="Mike Crash" changeset="6333963" lat="49.915223" lon="14.8155028"/>
  <node id="458510610" version="1" timestamp="2009-08-07T22:36:21Z" uid="1066" user="pavel" changeset="2070855" lat="49.915576" lon="14.8175399"/>
  <node id="458510610" version="2" timestamp="2010-11-10T08:29:43Z" uid="84326" user="Mike Crash" changeset="6333963" lat="49.915576" lon="14.8175399"/>
  <node id="458510611" version="1" timestamp="2009-08-07T22:36:21Z" uid="1066" user="pavel" changeset="2070855" lat="49.9159077" lon="14.8189432"/>
  <node id="458510611" version="2" timestamp="2010-11-10T08:29:43Z" uid="84326" user="Mike Crash" changeset="6333963" lat="49.9159077" lon="14.8189432"/>
  <node id="458510612" version="1" timestamp="2009-08-07T22:36:21Z" uid="1066" user="pavel" changeset="2070855" lat="49.9160622" lon="14.8193695"/>
  <node id="458510612" version="2" timestamp="2010-11-10T08:29:44Z" uid="84326" user="Mike Crash" changeset="6333963" lat="49.9160622" lon="14.8193695"/>
  <node id="458510613" version="1" timestamp="2009-08-07T22:36:21Z" uid="1066" user="pavel" changeset="2070855" lat="49.9173889" lon="14.8222916"/>
  <node id="458510613" version="2" timestamp="2010-11-10T08:29:44Z" uid="84326" user="Mike Crash" changeset="6333963" lat="49.9173889" lon="14.8222916"/>
  <node id="458510614" version="1" timestamp="2009-08-07T22:36:21Z" uid="1066" user="pavel" changeset="2070855" lat="49.9176063" lon="14.8225935"/>
  <node id="458510614" version="2" timestamp="2010-11-10T08:29:44Z" uid="84326" user="Mike Crash" changeset="6333963" lat="49.9176063" lon="14.8225935"/>
  <node id="458510615" version="1" timestamp="2009-08-07T22:36:21Z" uid="1066" user="pavel" changeset="2070855" lat="49.9188129" lon="14.823988"/>
  <node id="458510615" version="2" timestamp="2010-11-10T08:29:44Z" uid="84326" user="Mike Crash" changeset="6333963" lat="49.9188129" lon="14.823988"/>
  <node id="458510616" version="1" timestamp="2009-08-07T22:36:21Z" uid="1066" user="pavel" changeset="2070855" lat="49.9191503" lon="14.8242633"/>
  <node id="458510616" version="2" timestamp="2010-11-10T08:29:44Z" uid="84326" user="Mike Crash" changeset="6333963" lat="49.9191503" lon="14.8242633"/>
  <node id="458512281" version="1" timestamp="2009-08-07T22:43:07Z" uid="123700" user="Mala" changeset="2070884" lat="52.2574487" lon="21.0192037"/>
  <node id="458512282" version="1" timestamp="2009-08-07T22:43:07Z" uid="123700" user="Mala" changeset="2070884" lat="52.2593326" lon="21.0174989"/>
  <node id="458512283" version="1" timestamp="2009-08-07T22:43:07Z" uid="123700" user="Mala" changeset="2070884" lat="52.2556499" lon="21.0269558"/>
  <node id="458512283" version="2" timestamp="2011-09-27T10:50:45Z" uid="373244" user="Tomekg" changeset="9409600" lat="52.2556706" lon="21.0269081"/>
  <node id="458512283" version="3" timestamp="2011-11-02T19:01:40Z" uid="91056" user="Yarl" changeset="9724678" lat="52.2556666" lon="21.0269304"/>
  <node id="458512284" version="1" timestamp="2009-08-07T22:43:07Z" uid="123700" user="Mala" changeset="2070884" lat="52.257397" lon="21.0273635"/>
  <node id="458512284" version="2" timestamp="2009-08-25T00:21:34Z" uid="20587" user="balrog-kun" changeset="2251253" lat="52.2572805" lon="21.0272433"/>
  <node id="458512284" version="3" timestamp="2011-09-27T11:31:43Z" uid="373244" user="Tomekg" changeset="9409600" lat="52.2573278" lon="21.0271887"/>
  <node id="458512285" version="1" timestamp="2009-08-07T22:43:07Z" uid="123700" user="Mala" changeset="2070884" lat="52.2625176" lon="21.0164989"/>
  <node id="458512285" version="2" timestamp="2011-06-30T00:04:38Z" uid="165509" user="koszatek" changeset="8586203" lat="52.2624913" lon="21.0164523"/>
  <node id="458512285" version="3" timestamp="2011-09-12T11:29:27Z" uid="373244" user="Tomekg" changeset="9278917" lat="52.2624819" lon="21.0164884"/>
  <node id="458512286" version="1" timestamp="2009-08-07T22:43:07Z" uid="123700" user="Mala" changeset="2070884" lat="52.2626332" lon="21.0169458"/>
  <node id="458512286" version="2" timestamp="2011-09-12T11:29:28Z" uid="373244" user="Tomekg" changeset="9278917" lat="52.2626023" lon="21.0169045"/>
  <node id="458512287" version="1" timestamp="2009-08-07T22:43:07Z" uid="123700" user="Mala" changeset="2070884" lat="52.2622661" lon="21.0166338"/>
  <node id="458512287" version="2" timestamp="2011-09-12T11:29:27Z" uid="373244" user="Tomekg" changeset="9278917" lat="52.2623096" lon="21.0166221"/>
  <node id="458512288" version="1" timestamp="2009-08-07T22:43:07Z" uid="123700" user="Mala" changeset="2070884" lat="52.2617484" lon="21.0151672"/>
  <node id="458512288" version="2" timestamp="2011-08-19T23:45:28Z" uid="373244" user="Tomaszg" changeset="9070333" lat="52.2617706" lon="21.0151525"/>
  <node id="458512288" version="3" timestamp="2011-09-12T11:29:28Z" uid="373244" user="Tomekg" changeset="9278917" lat="52.2617751" lon="21.0151289"/>
  <node id="458512289" version="1" timestamp="2009-08-07T22:43:07Z" uid="123700" user="Mala" changeset="2070884" lat="52.2616548" lon="21.0151432"/>
  <node id="458512289" version="2" timestamp="2011-08-19T23:45:28Z" uid="373244" user="Tomaszg" changeset="9070333" lat="52.2616611" lon="21.0151222"/>
  <node id="458512289" version="3" timestamp="2011-09-12T11:29:27Z" uid="373244" user="Tomekg" changeset="9278917" lat="52.2616691" lon="21.0151037"/>
  <node id="458512290" version="1" timestamp="2009-08-07T22:43:07Z" uid="123700" user="Mala" changeset="2070884" lat="52.2614421" lon="21.0151929"/>
  <node id="458512290" version="2" timestamp="2011-09-12T11:29:28Z" uid="373244" user="Tomekg" changeset="9278917" lat="52.2615044" lon="21.015171"/>
  <node id="458512291" version="1" timestamp="2009-08-07T22:43:07Z" uid="123700" user="Mala" changeset="2070884" lat="52.2618292" lon="21.0152841"/>
  <node id="458512291" version="2" timestamp="2011-08-19T23:45:28Z" uid="373244" user="Tomaszg" changeset="9070333" lat="52.2618453" lon="21.0152794"/>
  <node id="458512291" version="3" timestamp="2011-09-12T11:29:27Z" uid="373244" user="Tomekg" changeset="9278917" lat="52.2618565" lon="21.0152402"/>
  <node id="458512292" version="1" timestamp="2009-08-07T22:43:07Z" uid="123700" user="Mala" changeset="2070884" lat="52.2616658" lon="21.0148732"/>
  <node id="458512292" version="2" timestamp="2011-08-19T23:45:28Z" uid="373244" user="Tomaszg" changeset="9070333" lat="52.2616653" lon="21.0149178"/>
  <node id="458512292" version="3" timestamp="2011-09-12T11:29:27Z" uid="373244" user="Tomekg" changeset="9278917" lat="52.2616812" lon="21.0149247"/>
  <node id="458512293" version="1" timestamp="2009-08-07T22:43:07Z" uid="123700" user="Mala" changeset="2070884" lat="52.261574" lon="21.0139674"/>
  <node id="458512293" version="2" timestamp="2011-08-19T23:45:28Z" uid="373244" user="Tomaszg" changeset="9070333" lat="52.2615966" lon="21.0138943"/>
  <node id="458512293" version="3" timestamp="2011-09-12T11:29:27Z" uid="373244" user="Tomekg" changeset="9278917" lat="52.2615924" lon="21.0138052"/>
  <node id="458512294" version="1" timestamp="2009-08-07T22:43:07Z" uid="123700" user="Mala" changeset="2070884" lat="52.261675" lon="21.0147143"/>
  <node id="458512294" version="2" timestamp="2011-08-19T23:45:28Z" uid="373244" user="Tomaszg" changeset="9070333" lat="52.2616877" lon="21.0147421"/>
  <node id="458512294" version="3" timestamp="2011-09-12T11:29:29Z" uid="373244" user="Tomekg" changeset="9278917" lat="52.2617137" lon="21.0147706"/>
  <node id="458512295" version="1" timestamp="2009-08-07T22:43:07Z" uid="123700" user="Mala" changeset="2070884" lat="52.2545529" lon="21.0237244"/>
  <node id="458512295" version="2" timestamp="2011-09-27T10:50:45Z" uid="373244" user="Tomekg" changeset="9409600" lat="52.2545515" lon="21.0237223"/>
  <node id="458512296" version="1" timestamp="2009-08-07T22:43:07Z" uid="123700" user="Mala" changeset="2070884" lat="52.2556154" lon="21.026506"/>
  <node id="458512297" version="1" timestamp="2009-08-07T22:43:07Z" uid="123700" user="Mala" changeset="2070884" lat="52.2561282" lon="21.0259085"/>
  <node id="458512297" version="2" timestamp="2010-08-22T17:55:00Z" uid="123700" user="Mala" changeset="5563728" lat="52.2561304" lon="21.0259099"/>
  <node id="458512298" version="1" timestamp="2009-08-07T22:43:07Z" uid="123700" user="Mala" changeset="2070884" lat="52.2556441" lon="21.0266876"/>
  <node id="458512299" version="1" timestamp="2009-08-07T22:43:07Z" uid="123700" user="Mala" changeset="2070884" lat="52.2558935" lon="21.0263408"/>
  <node id="458512299" version="2" timestamp="2009-08-08T14:36:58Z" uid="123700" user="Mala" changeset="2076300" lat="52.2558531" lon="21.0262299"/>
  <node id="458512300" version="1" timestamp="2009-08-07T22:43:07Z" uid="123700" user="Mala" changeset="2070884" lat="52.2556979" lon="21.0258558"/>
  <node id="458512301" version="1" timestamp="2009-08-07T22:43:07Z" uid="123700" user="Mala" changeset="2070884" lat="52.2555006" lon="21.0253461"/>
  <node id="458512302" version="1" timestamp="2009-08-07T22:43:07Z" uid="123700" user="Mala" changeset="2070884" lat="52.2554179" lon="21.025124"/>
  <node id="458512303" version="1" timestamp="2009-08-07T22:43:08Z" uid="123700" user="Mala" changeset="2070884" lat="52.2554454" lon="21.0250757"/>
  <node id="458512304" version="1" timestamp="2009-08-07T22:43:08Z" uid="123700" user="Mala" changeset="2070884" lat="52.2554446" lon="21.0249622"/>
  <node id="458512305" version="1" timestamp="2009-08-07T22:43:08Z" uid="123700" user="Mala" changeset="2070884" lat="52.2554146" lon="21.0249134"/>
  <node id="458512306" version="1" timestamp="2009-08-07T22:43:08Z" uid="123700" user="Mala" changeset="2070884" lat="52.2553406" lon="21.0249166"/>
  <node id="458512307" version="1" timestamp="2009-08-07T22:43:08Z" uid="123700" user="Mala" changeset="2070884" lat="52.2553162" lon="21.0249559"/>
  <node id="458512308" version="1" timestamp="2009-08-07T22:43:08Z" uid="123700" user="Mala" changeset="2070884" lat="52.2553152" lon="21.0250821"/>
  <node id="458512309" version="1" timestamp="2009-08-07T22:43:08Z" uid="123700" user="Mala" changeset="2070884" lat="52.2553392" lon="21.0251226"/>
  <node id="458512310" version="1" timestamp="2009-08-07T22:43:08Z" uid="123700" user="Mala" changeset="2070884" lat="52.2553852" lon="21.0251414"/>
  <node id="458512311" version="1" timestamp="2009-08-07T22:43:08Z" uid="123700" user="Mala" changeset="2070884" lat="52.2556082" lon="21.0252407"/>
  <node id="458512312" version="1" timestamp="2009-08-07T22:43:08Z" uid="123700" user="Mala" changeset="2070884" lat="52.2553787" lon="21.0246198"/>
  <node id="458512313" version="1" timestamp="2009-08-07T22:43:08Z" uid="123700" user="Mala" changeset="2070884" lat="52.2551564" lon="21.0248482"/>
  <node id="458512314" version="1" timestamp="2009-08-07T22:43:08Z" uid="123700" user="Mala" changeset="2070884" lat="52.2553787" lon="21.0254633"/>
  <node id="458512315" version="1" timestamp="2009-08-07T22:43:08Z" uid="123700" user="Mala" changeset="2070884" lat="52.2552712" lon="21.0247302"/>
  <node id="458512316" version="1" timestamp="2009-08-07T22:43:08Z" uid="123700" user="Mala" changeset="2070884" lat="52.2552595" lon="21.0251336"/>
  <node id="458512317" version="1" timestamp="2009-08-07T22:43:08Z" uid="123700" user="Mala" changeset="2070884" lat="52.2554895" lon="21.0249206"/>
  <node id="458512318" version="1" timestamp="2009-08-07T22:43:08Z" uid="123700" user="Mala" changeset="2070884" lat="52.25481" lon="21.023466"/>
  <node id="458512319" version="1" timestamp="2009-08-07T22:43:08Z" uid="123700" user="Mala" changeset="2070884" lat="52.2549619" lon="21.0247952"/>
  <node id="458512320" version="1" timestamp="2009-08-07T22:43:08Z" uid="123700" user="Mala" changeset="2070884" lat="52.2579864" lon="21.0217017"/>
  <node id="458512321" version="1" timestamp="2009-08-07T22:43:08Z" uid="123700" user="Mala" changeset="2070884" lat="52.2553412" lon="21.0257881"/>
  <node id="458512322" version="1" timestamp="2009-08-07T22:43:08Z" uid="123700" user="Mala" changeset="2070884" lat="52.2576946" lon="21.0232296"/>
  <node id="458512322" version="2" timestamp="2009-09-25T14:45:25Z" uid="123700" user="Mala" changeset="2620797" lat="52.257685" lon="21.0232064"/>
  <node id="458512322" version="3" timestamp="2009-09-26T10:11:31Z" uid="123700" user="Mala" changeset="2639131" lat="52.257685" lon="21.0232064"/>
  <node id="458512323" version="1" timestamp="2009-08-07T22:43:08Z" uid="123700" user="Mala" changeset="2070884" lat="52.2559156" lon="21.0264096"/>
  <node id="458512323" version="2" timestamp="2009-08-08T14:36:58Z" uid="123700" user="Mala" changeset="2076300" lat="52.2559164" lon="21.0263855"/>
  <node id="458512324" version="1" timestamp="2009-08-07T22:43:08Z" uid="123700" user="Mala" changeset="2070884" lat="52.2561589" lon="21.0259822"/>
  <node id="458512324" version="2" timestamp="2009-08-08T14:36:58Z" uid="123700" user="Mala" changeset="2076300" lat="52.2561781" lon="21.0260286"/>
  <node id="458512324" version="3" timestamp="2010-08-22T17:55:00Z" uid="123700" user="Mala" changeset="5563728" lat="52.2561774" lon="21.026031"/>
  <node id="458512325" version="1" timestamp="2009-08-07T22:43:08Z" uid="123700" user="Mala" changeset="2070884" lat="52.2562323" lon="21.0259148"/>
  <node id="458512325" version="2" timestamp="2009-08-08T14:36:58Z" uid="123700" user="Mala" changeset="2076300" lat="52.2562593" lon="21.0259494"/>
  <node id="458512325" version="3" timestamp="2010-08-22T17:55:00Z" uid="123700" user="Mala" changeset="5563728" lat="52.2562585" lon="21.0259472"/>
  <node id="458512326" version="1" timestamp="2009-08-07T22:43:08Z" uid="123700" user="Mala" changeset="2070884" lat="52.2554954" lon="21.0242496"/>
  <node id="458512326" version="2" timestamp="2009-09-25T14:45:25Z" uid="123700" user="Mala" changeset="2620797" lat="52.2554954" lon="21.0242496"/>
  <node id="458512327" version="1" timestamp="2009-08-07T22:43:08Z" uid="123700" user="Mala" changeset="2070884" lat="52.2553049" lon="21.0250186"/>
  <node id="458512328" version="1" timestamp="2009-08-07T22:43:08Z" uid="123700" user="Mala" changeset="2070884" lat="52.255373" lon="21.0248992"/>
  <node id="458512329" version="1" timestamp="2009-08-07T22:43:08Z" uid="123700" user="Mala" changeset="2070884" lat="52.2554536" lon="21.0250173"/>
  <node id="458512330" version="1" timestamp="2009-08-07T22:43:08Z" uid="123700" user="Mala" changeset="2070884" lat="52.255863" lon="21.0252183"/>
  <node id="458512330" version="2" timestamp="2009-09-25T14:45:25Z" uid="123700" user="Mala" changeset="2620797" lat="52.2558616" lon="21.0252149"/>
  <node id="458512331" version="1" timestamp="2009-08-07T22:43:09Z" uid="123700" user="Mala" changeset="2070884" lat="52.2554634" lon="21.0228095"/>
  <node id="458512331" version="2" timestamp="2009-09-25T14:45:25Z" uid="123700" user="Mala" changeset="2620797" lat="52.2554673" lon="21.0228245"/>
  <node id="458512332" version="1" timestamp="2009-08-07T22:43:09Z" uid="123700" user="Mala" changeset="2070884" lat="52.2562343" lon="21.0248152"/>
  <node id="458512332" version="2" timestamp="2009-09-25T14:45:25Z" uid="123700" user="Mala" changeset="2620797" lat="52.2562321" lon="21.0248068"/>
  <node id="458512333" version="1" timestamp="2009-08-07T22:43:09Z" uid="123700" user="Mala" changeset="2070884" lat="52.2550581" lon="21.024146"/>
  <node id="458512334" version="1" timestamp="2009-08-07T22:43:09Z" uid="123700" user="Mala" changeset="2070884" lat="52.2548132" lon="21.0243985"/>
  <node id="458512335" version="1" timestamp="2009-08-07T22:43:09Z" uid="123700" user="Mala" changeset="2070884" lat="52.2549797" lon="21.0239312"/>
  <node id="458512336" version="1" timestamp="2009-08-07T22:43:09Z" uid="123700" user="Mala" changeset="2070884" lat="52.2552329" lon="21.0236801"/>
  <node id="458512337" version="1" timestamp="2009-08-07T22:43:09Z" uid="123700" user="Mala" changeset="2070884" lat="52.2550619" lon="21.0232129"/>
  <node id="458512338" version="1" timestamp="2009-08-07T22:43:09Z" uid="123700" user="Mala" changeset="2070884" lat="52.2560463" lon="21.0243262"/>
  <node id="458512338" version="2" timestamp="2009-09-25T14:45:25Z" uid="123700" user="Mala" changeset="2620797" lat="52.2560502" lon="21.0243412"/>
  <node id="458512339" version="1" timestamp="2009-08-07T22:43:09Z" uid="123700" user="Mala" changeset="2070884" lat="52.2556722" lon="21.0247156"/>
  <node id="458512340" version="1" timestamp="2009-08-07T22:43:09Z" uid="123700" user="Mala" changeset="2070884" lat="52.2551619" lon="21.0234862"/>
  <node id="458512341" version="1" timestamp="2009-08-07T22:43:09Z" uid="123700" user="Mala" changeset="2070884" lat="52.2555681" lon="21.0230821"/>
  <node id="458512341" version="2" timestamp="2009-09-25T14:45:25Z" uid="123700" user="Mala" changeset="2620797" lat="52.255572" lon="21.0230971"/>
  <node id="458512342" version="1" timestamp="2009-08-07T22:43:09Z" uid="123700" user="Mala" changeset="2070884" lat="52.2564151" lon="21.0253069"/>
  <node id="458512342" version="2" timestamp="2009-09-25T14:45:25Z" uid="123700" user="Mala" changeset="2620797" lat="52.256419" lon="21.0253219"/>
  <node id="458512343" version="1" timestamp="2009-08-07T22:43:09Z" uid="123700" user="Mala" changeset="2070884" lat="52.2565069" lon="21.0255131"/>
  <node id="458512343" version="2" timestamp="2009-09-25T14:45:25Z" uid="123700" user="Mala" changeset="2620797" lat="52.2565108" lon="21.0255281"/>
  <node id="458512344" version="1" timestamp="2009-08-07T22:43:09Z" uid="123700" user="Mala" changeset="2070884" lat="52.2565959" lon="21.0255131"/>
  <node id="458512344" version="2" timestamp="2009-09-25T14:45:25Z" uid="123700" user="Mala" changeset="2620797" lat="52.2565998" lon="21.0255281"/>
  <node id="458512345" version="1" timestamp="2009-08-07T22:43:09Z" uid="123700" user="Mala" changeset="2070884" lat="52.2566618" lon="21.0255834"/>
  <node id="458512345" version="2" timestamp="2009-09-25T14:45:25Z" uid="123700" user="Mala" changeset="2620797" lat="52.2566657" lon="21.0255984"/>
  <node id="458512346" version="1" timestamp="2009-08-07T22:43:09Z" uid="123700" user="Mala" changeset="2070884" lat="52.2567307" lon="21.0256818"/>
  <node id="458512346" version="2" timestamp="2009-09-25T14:45:25Z" uid="123700" user="Mala" changeset="2620797" lat="52.2567346" lon="21.0256968"/>
  <node id="458512347" version="1" timestamp="2009-08-07T22:43:09Z" uid="123700" user="Mala" changeset="2070884" lat="52.2568225" lon="21.0258083"/>
  <node id="458512347" version="2" timestamp="2009-09-25T14:45:25Z" uid="123700" user="Mala" changeset="2620797" lat="52.2568264" lon="21.0258233"/>
  <node id="458512348" version="1" timestamp="2009-08-07T22:43:09Z" uid="123700" user="Mala" changeset="2070884" lat="52.2569114" lon="21.025813"/>
  <node id="458512348" version="2" timestamp="2009-09-25T14:45:25Z" uid="123700" user="Mala" changeset="2620797" lat="52.2569153" lon="21.025828"/>
  <node id="458512349" version="1" timestamp="2009-08-07T22:43:09Z" uid="123700" user="Mala" changeset="2070884" lat="52.2569831" lon="21.0257521"/>
  <node id="458512349" version="2" timestamp="2009-09-25T14:45:25Z" uid="123700" user="Mala" changeset="2620797" lat="52.256987" lon="21.0257671"/>
  <node id="458512350" version="1" timestamp="2009-08-07T22:43:10Z" uid="123700" user="Mala" changeset="2070884" lat="52.2570778" lon="21.025649"/>
  <node id="458512350" version="2" timestamp="2009-09-25T14:45:25Z" uid="123700" user="Mala" changeset="2620797" lat="52.2570817" lon="21.025664"/>
  <node id="458512351" version="1" timestamp="2009-08-07T22:43:10Z" uid="123700" user="Mala" changeset="2070884" lat="52.2571266" lon="21.02556"/>
  <node id="458512351" version="2" timestamp="2009-09-25T14:45:25Z" uid="123700" user="Mala" changeset="2620797" lat="52.2571305" lon="21.025575"/>
  <node id="458512352" version="1" timestamp="2009-08-07T22:43:10Z" uid="123700" user="Mala" changeset="2070884" lat="52.2571409" lon="21.0254053"/>
  <node id="458512352" version="2" timestamp="2009-09-25T14:45:26Z" uid="123700" user="Mala" changeset="2620797" lat="52.2571448" lon="21.0254203"/>
  <node id="458512353" version="1" timestamp="2009-08-07T22:43:10Z" uid="123700" user="Mala" changeset="2070884" lat="52.2571466" lon="21.0252928"/>
  <node id="458512353" version="2" timestamp="2009-09-25T14:45:26Z" uid="123700" user="Mala" changeset="2620797" lat="52.2571505" lon="21.0253078"/>
  <node id="458512354" version="1" timestamp="2009-08-07T22:43:10Z" uid="123700" user="Mala" changeset="2070884" lat="52.2571122" lon="21.0251522"/>
  <node id="458512354" version="2" timestamp="2009-09-25T14:45:26Z" uid="123700" user="Mala" changeset="2620797" lat="52.2571161" lon="21.0251672"/>
  <node id="458512355" version="1" timestamp="2009-08-07T22:43:10Z" uid="123700" user="Mala" changeset="2070884" lat="52.2567871" lon="21.024215"/>
  <node id="458512355" version="2" timestamp="2009-09-25T14:45:26Z" uid="123700" user="Mala" changeset="2620797" lat="52.2567824" lon="21.0242006"/>
  <node id="458512356" version="1" timestamp="2009-08-07T22:43:10Z" uid="123700" user="Mala" changeset="2070884" lat="52.2554936" lon="21.0227791"/>
  <node id="458512356" version="2" timestamp="2009-09-25T14:45:30Z" uid="123700" user="Mala" changeset="2620797" lat="52.2554936" lon="21.0227791"/>
  <node id="458512357" version="1" timestamp="2009-08-07T22:43:10Z" uid="123700" user="Mala" changeset="2070884" lat="52.2564438" lon="21.0227669"/>
  <node id="458512358" version="1" timestamp="2009-08-07T22:43:10Z" uid="123700" user="Mala" changeset="2070884" lat="52.2566188" lon="21.0227622"/>
  <node id="458512359" version="1" timestamp="2009-08-07T22:43:10Z" uid="123700" user="Mala" changeset="2070884" lat="52.2567106" lon="21.0230067"/>
  <node id="458512359" version="2" timestamp="2009-09-25T14:45:26Z" uid="123700" user="Mala" changeset="2620797" lat="52.2567106" lon="21.0230067"/>
  <node id="458512360" version="1" timestamp="2009-08-07T22:43:10Z" uid="123700" user="Mala" changeset="2070884" lat="52.255893" lon="21.022774"/>
  <node id="458512361" version="1" timestamp="2009-08-07T22:43:10Z" uid="123700" user="Mala" changeset="2070884" lat="52.2569399" lon="21.0240459"/>
  <node id="458512361" version="2" timestamp="2009-09-25T14:45:26Z" uid="123700" user="Mala" changeset="2620797" lat="52.2569346" lon="21.024033"/>
  <node id="458512362" version="1" timestamp="2009-08-07T22:43:10Z" uid="123700" user="Mala" changeset="2070884" lat="52.2565954" lon="21.0231245"/>
  <node id="458512362" version="2" timestamp="2009-09-25T14:45:30Z" uid="123700" user="Mala" changeset="2620797" lat="52.2565954" lon="21.0231245"/>
  <node id="458512363" version="1" timestamp="2009-08-07T22:43:10Z" uid="123700" user="Mala" changeset="2070884" lat="52.2565643" lon="21.0230762"/>
  <node id="458512363" version="2" timestamp="2009-09-25T19:18:16Z" uid="123700" user="Mala" changeset="2626150" lat="52.2565906" lon="21.0231256"/>
  <node id="458512364" version="1" timestamp="2009-08-07T22:43:10Z" uid="123700" user="Mala" changeset="2070884" lat="52.2565241" lon="21.0230574"/>
  <node id="458512365" version="1" timestamp="2009-08-07T22:43:10Z" uid="123700" user="Mala" changeset="2070884" lat="52.2560336" lon="21.0231652"/>
  <node id="458512366" version="1" timestamp="2009-08-07T22:43:10Z" uid="123700" user="Mala" changeset="2070884" lat="52.2557203" lon="21.023478"/>
  <node id="458512366" version="2" timestamp="2009-09-25T14:45:26Z" uid="123700" user="Mala" changeset="2620797" lat="52.2557229" lon="21.023478"/>
  <node id="458512367" version="1" timestamp="2009-08-07T22:43:10Z" uid="123700" user="Mala" changeset="2070884" lat="52.2564582" lon="21.0218097"/>
  <node id="458512367" version="2" timestamp="2009-09-25T18:36:27Z" uid="123700" user="Mala" changeset="2625247" lat="52.2564253" lon="21.0218466"/>
  <node id="458512368" version="1" timestamp="2009-08-07T22:43:10Z" uid="123700" user="Mala" changeset="2070884" lat="52.2562028" lon="21.02277"/>
  <node id="458512369" version="1" timestamp="2009-08-07T22:43:10Z" uid="123700" user="Mala" changeset="2070884" lat="52.2562546" lon="21.0220143"/>
  <node id="458512370" version="1" timestamp="2009-08-07T22:43:11Z" uid="123700" user="Mala" changeset="2070884" lat="52.2573864" lon="21.023563"/>
  <node id="458512370" version="2" timestamp="2009-09-25T14:45:26Z" uid="123700" user="Mala" changeset="2620797" lat="52.2573786" lon="21.023544"/>
  <node id="458512371" version="1" timestamp="2009-08-07T22:43:11Z" uid="123700" user="Mala" changeset="2070884" lat="52.2570557" lon="21.0226537"/>
  <node id="458512371" version="2" timestamp="2009-09-25T14:45:26Z" uid="123700" user="Mala" changeset="2620797" lat="52.2570557" lon="21.0226537"/>
  <node id="458512372" version="1" timestamp="2009-08-07T22:43:11Z" uid="123700" user="Mala" changeset="2070884" lat="52.2572643" lon="21.0250304"/>
  <node id="458512373" version="1" timestamp="2009-08-07T22:43:11Z" uid="123700" user="Mala" changeset="2070884" lat="52.2572643" lon="21.024707"/>
  <node id="458512374" version="1" timestamp="2009-08-07T22:43:11Z" uid="123700" user="Mala" changeset="2070884" lat="52.2572815" lon="21.0242712"/>
  <node id="458512375" version="1" timestamp="2009-08-07T22:43:11Z" uid="123700" user="Mala" changeset="2070884" lat="52.2573274" lon="21.0240134"/>
  <node id="458512376" version="1" timestamp="2009-08-07T22:43:11Z" uid="123700" user="Mala" changeset="2070884" lat="52.2573876" lon="21.0238166"/>
  <node id="458512377" version="1" timestamp="2009-08-07T22:43:11Z" uid="123700" user="Mala" changeset="2070884" lat="52.2574593" lon="21.0237088"/>
  <node id="458512378" version="1" timestamp="2009-08-07T22:43:11Z" uid="123700" user="Mala" changeset="2070884" lat="52.2575396" lon="21.0236432"/>
  <node id="458512379" version="1" timestamp="2009-08-07T22:43:11Z" uid="123700" user="Mala" changeset="2070884" lat="52.2575999" lon="21.0236432"/>
  <node id="458512380" version="1" timestamp="2009-08-07T22:43:11Z" uid="123700" user="Mala" changeset="2070884" lat="52.2576306" lon="21.0232989"/>
  <node id="458512380" version="2" timestamp="2009-09-25T14:45:26Z" uid="123700" user="Mala" changeset="2620797" lat="52.2576214" lon="21.0232766"/>
  <node id="458512381" version="1" timestamp="2009-08-07T22:43:11Z" uid="123700" user="Mala" changeset="2070884" lat="52.2584117" lon="21.022406"/>
  <node id="458512382" version="1" timestamp="2009-08-07T22:43:11Z" uid="123700" user="Mala" changeset="2070884" lat="52.2579078" lon="21.0229848"/>
  <node id="458512382" version="2" timestamp="2009-09-25T14:45:26Z" uid="123700" user="Mala" changeset="2620797" lat="52.2579011" lon="21.0229685"/>
  <node id="458512383" version="1" timestamp="2009-08-07T22:43:11Z" uid="123700" user="Mala" changeset="2070884" lat="52.2571879" lon="21.0210763"/>
  <node id="458512384" version="1" timestamp="2009-08-07T22:43:11Z" uid="123700" user="Mala" changeset="2070884" lat="52.2580436" lon="21.0217903"/>
  <node id="458512385" version="1" timestamp="2009-08-07T22:43:11Z" uid="123700" user="Mala" changeset="2070884" lat="52.2581214" lon="21.021811"/>
  <node id="458512386" version="1" timestamp="2009-08-07T22:43:11Z" uid="123700" user="Mala" changeset="2070884" lat="52.2581672" lon="21.0217865"/>
  <node id="458512387" version="1" timestamp="2009-08-07T22:43:11Z" uid="123700" user="Mala" changeset="2070884" lat="52.2582305" lon="21.0216632"/>
  <node id="458512388" version="1" timestamp="2009-08-07T22:43:11Z" uid="123700" user="Mala" changeset="2070884" lat="52.2582153" lon="21.0214736"/>
  <node id="458512389" version="1" timestamp="2009-08-07T22:43:11Z" uid="123700" user="Mala" changeset="2070884" lat="52.2581527" lon="21.0213901"/>
  <node id="458512390" version="1" timestamp="2009-08-07T22:43:11Z" uid="123700" user="Mala" changeset="2070884" lat="52.2580817" lon="21.0213775"/>
  <node id="458512391" version="1" timestamp="2009-08-07T22:43:11Z" uid="123700" user="Mala" changeset="2070884" lat="52.2580232" lon="21.0214179"/>
  <node id="458512392" version="1" timestamp="2009-08-07T22:43:11Z" uid="123700" user="Mala" changeset="2070884" lat="52.25797" lon="21.0215665"/>
  <node id="458512393" version="1" timestamp="2009-08-07T22:43:11Z" uid="123700" user="Mala" changeset="2070884" lat="52.2576896" lon="21.0205721"/>
  <node id="458512394" version="1" timestamp="2009-08-07T22:43:11Z" uid="123700" user="Mala" changeset="2070884" lat="52.2566361" lon="21.0216308"/>
  <node id="458512395" version="1" timestamp="2009-08-07T22:43:11Z" uid="123700" user="Mala" changeset="2070884" lat="52.2567484" lon="21.0219491"/>
  <node id="458512396" version="1" timestamp="2009-08-07T22:43:11Z" uid="123700" user="Mala" changeset="2070884" lat="52.2585279" lon="21.0222859"/>
  <node id="458512397" version="1" timestamp="2009-08-07T22:43:11Z" uid="123700" user="Mala" changeset="2070884" lat="52.2586534" lon="21.0221321"/>
  <node id="458512398" version="1" timestamp="2009-08-07T22:43:11Z" uid="123700" user="Mala" changeset="2070884" lat="52.2587699" lon="21.0219418"/>
  <node id="458512399" version="1" timestamp="2009-08-07T22:43:11Z" uid="123700" user="Mala" changeset="2070884" lat="52.2588775" lon="21.0217367"/>
  <node id="458512400" version="1" timestamp="2009-08-07T22:43:11Z" uid="123700" user="Mala" changeset="2070884" lat="52.2588999" lon="21.0215244"/>
  <node id="458512401" version="1" timestamp="2009-08-07T22:43:11Z" uid="123700" user="Mala" changeset="2070884" lat="52.2588999" lon="21.0212827"/>
  <node id="458512402" version="1" timestamp="2009-08-07T22:43:11Z" uid="123700" user="Mala" changeset="2070884" lat="52.2588551" lon="21.0210118"/>
  <node id="458512403" version="1" timestamp="2009-08-07T22:43:12Z" uid="123700" user="Mala" changeset="2070884" lat="52.2588013" lon="21.0208434"/>
  <node id="458512404" version="1" timestamp="2009-08-07T22:43:12Z" uid="123700" user="Mala" changeset="2070884" lat="52.2582364" lon="21.021568"/>
  <node id="458512405" version="1" timestamp="2009-08-07T22:43:12Z" uid="123700" user="Mala" changeset="2070884" lat="52.258205" lon="21.0217366"/>
  <node id="458512406" version="1" timestamp="2009-08-07T22:43:12Z" uid="123700" user="Mala" changeset="2070884" lat="52.258081" lon="21.0218101"/>
  <node id="458512407" version="1" timestamp="2009-08-07T22:43:12Z" uid="123700" user="Mala" changeset="2070884" lat="52.258011" lon="21.0217532"/>
  <node id="458512408" version="1" timestamp="2009-08-07T22:43:12Z" uid="123700" user="Mala" changeset="2070884" lat="52.2579858" lon="21.0214878"/>
  <node id="458512409" version="1" timestamp="2009-08-07T22:43:12Z" uid="123700" user="Mala" changeset="2070884" lat="52.2579913" lon="21.0230672"/>
  <node id="458512410" version="1" timestamp="2009-08-07T22:43:12Z" uid="123700" user="Mala" changeset="2070884" lat="52.2580802" lon="21.0231328"/>
  <node id="458512411" version="1" timestamp="2009-08-07T22:43:12Z" uid="123700" user="Mala" changeset="2070884" lat="52.2581662" lon="21.0232687"/>
  <node id="458512412" version="1" timestamp="2009-08-07T22:43:12Z" uid="123700" user="Mala" changeset="2070884" lat="52.2583269" lon="21.0231609"/>
  <node id="458512413" version="1" timestamp="2009-08-07T22:43:12Z" uid="123700" user="Mala" changeset="2070884" lat="52.2588088" lon="21.0228094"/>
  <node id="458512414" version="1" timestamp="2009-08-07T22:43:12Z" uid="123700" user="Mala" changeset="2070884" lat="52.259262" lon="21.0225236"/>
  <node id="458512415" version="1" timestamp="2009-08-07T22:43:12Z" uid="123700" user="Mala" changeset="2070884" lat="52.2597267" lon="21.0225939"/>
  <node id="458512416" version="1" timestamp="2009-08-07T22:43:12Z" uid="123700" user="Mala" changeset="2070884" lat="52.2597841" lon="21.0224579"/>
  <node id="458512417" version="1" timestamp="2009-08-07T22:43:12Z" uid="123700" user="Mala" changeset="2070884" lat="52.2598501" lon="21.0221346"/>
  <node id="458512418" version="1" timestamp="2009-08-07T22:43:12Z" uid="123700" user="Mala" changeset="2070884" lat="52.2599046" lon="21.0217081"/>
  <node id="458512419" version="1" timestamp="2009-08-07T22:43:12Z" uid="123700" user="Mala" changeset="2070884" lat="52.2599333" lon="21.0213801"/>
  <node id="458512420" version="1" timestamp="2009-08-07T22:43:12Z" uid="123700" user="Mala" changeset="2070884" lat="52.259698" lon="21.0227954"/>
  <node id="458512421" version="1" timestamp="2009-08-07T22:43:12Z" uid="123700" user="Mala" changeset="2070884" lat="52.2596378" lon="21.0229453"/>
  <node id="458512422" version="1" timestamp="2009-08-07T22:43:12Z" uid="123700" user="Mala" changeset="2070884" lat="52.2594858" lon="21.0232734"/>
  <node id="458512422" version="2" timestamp="2009-09-25T14:45:26Z" uid="123700" user="Mala" changeset="2620797" lat="52.2594858" lon="21.0232734">
    <tag k="access" v="no"/>
  </node>
  <node id="458512423" version="1" timestamp="2009-08-07T22:43:12Z" uid="123700" user="Mala" changeset="2070884" lat="52.2592955" lon="21.0237089"/>
  <node id="458512424" version="1" timestamp="2009-08-07T22:43:12Z" uid="123700" user="Mala" changeset="2070884" lat="52.2592831" lon="21.0238122"/>
  <node id="458512425" version="1" timestamp="2009-08-07T22:43:12Z" uid="123700" user="Mala" changeset="2070884" lat="52.2592469" lon="21.0238751"/>
  <node id="458512426" version="1" timestamp="2009-08-07T22:43:12Z" uid="123700" user="Mala" changeset="2070884" lat="52.2592075" lon="21.0238995"/>
  <node id="458512427" version="1" timestamp="2009-08-07T22:43:12Z" uid="123700" user="Mala" changeset="2070884" lat="52.2591444" lon="21.0238843"/>
  <node id="458512428" version="1" timestamp="2009-08-07T22:43:12Z" uid="123700" user="Mala" changeset="2070884" lat="52.2591034" lon="21.0238266"/>
  <node id="458512429" version="1" timestamp="2009-08-07T22:43:12Z" uid="123700" user="Mala" changeset="2070884" lat="52.2590861" lon="21.0237031"/>
  <node id="458512430" version="1" timestamp="2009-08-07T22:43:12Z" uid="123700" user="Mala" changeset="2070884" lat="52.2591238" lon="21.0235954"/>
  <node id="458512431" version="1" timestamp="2009-08-07T22:43:12Z" uid="123700" user="Mala" changeset="2070884" lat="52.2591824" lon="21.023557"/>
  <node id="458512432" version="1" timestamp="2009-08-07T22:43:12Z" uid="123700" user="Mala" changeset="2070884" lat="52.2592282" lon="21.0235679"/>
  <node id="458512433" version="1" timestamp="2009-08-07T22:43:13Z" uid="123700" user="Mala" changeset="2070884" lat="52.2592749" lon="21.0236253"/>
  <node id="458512434" version="1" timestamp="2009-08-07T22:43:13Z" uid="123700" user="Mala" changeset="2070884" lat="52.2583554" lon="21.0236443"/>
  <node id="458512435" version="1" timestamp="2009-08-07T22:43:13Z" uid="123700" user="Mala" changeset="2070884" lat="52.2585941" lon="21.0241204"/>
  <node id="458512436" version="1" timestamp="2009-08-07T22:43:13Z" uid="123700" user="Mala" changeset="2070884" lat="52.2587639" lon="21.0244278"/>
  <node id="458512437" version="1" timestamp="2009-08-07T22:43:13Z" uid="123700" user="Mala" changeset="2070884" lat="52.2584747" lon="21.0238767"/>
  <node id="458512438" version="1" timestamp="2009-08-07T22:43:13Z" uid="123700" user="Mala" changeset="2070884" lat="52.2589727" lon="21.0215823"/>
  <node id="458512439" version="1" timestamp="2009-08-07T22:43:13Z" uid="123700" user="Mala" changeset="2070884" lat="52.2590255" lon="21.021676"/>
  <node id="458512440" version="1" timestamp="2009-08-07T22:43:13Z" uid="123700" user="Mala" changeset="2070884" lat="52.2590691" lon="21.021796"/>
  <node id="458512441" version="1" timestamp="2009-08-07T22:43:13Z" uid="123700" user="Mala" changeset="2070884" lat="52.2591471" lon="21.0218072"/>
  <node id="458512442" version="1" timestamp="2009-08-07T22:43:13Z" uid="123700" user="Mala" changeset="2070884" lat="52.2592343" lon="21.0217435"/>
  <node id="458512443" version="1" timestamp="2009-08-07T22:43:13Z" uid="123700" user="Mala" changeset="2070884" lat="52.2593376" lon="21.021676"/>
  <node id="458512444" version="1" timestamp="2009-08-07T22:43:13Z" uid="123700" user="Mala" changeset="2070884" lat="52.2594179" lon="21.0215935"/>
  <node id="458512445" version="1" timestamp="2009-08-07T22:43:13Z" uid="123700" user="Mala" changeset="2070884" lat="52.2595051" lon="21.0215298"/>
  <node id="458512446" version="1" timestamp="2009-08-07T22:43:13Z" uid="123700" user="Mala" changeset="2070884" lat="52.2596084" lon="21.0214698"/>
  <node id="458512447" version="1" timestamp="2009-08-07T22:43:13Z" uid="123700" user="Mala" changeset="2070884" lat="52.25973" lon="21.0214323"/>
  <node id="458512448" version="1" timestamp="2009-08-07T22:43:13Z" uid="123700" user="Mala" changeset="2070884" lat="52.2598195" lon="21.021391"/>
  <node id="458512449" version="1" timestamp="2009-08-07T22:43:13Z" uid="123700" user="Mala" changeset="2070884" lat="52.2590897" lon="21.0216122"/>
  <node id="458512450" version="1" timestamp="2009-08-07T22:43:13Z" uid="123700" user="Mala" changeset="2070884" lat="52.2592531" lon="21.0203969"/>
  <node id="458512451" version="1" timestamp="2009-08-07T22:43:13Z" uid="123700" user="Mala" changeset="2070884" lat="52.2591425" lon="21.0207837"/>
  <node id="458512451" version="2" timestamp="2009-09-25T18:36:28Z" uid="123700" user="Mala" changeset="2625247" lat="52.2590653" lon="21.0207278"/>
  <node id="458512452" version="1" timestamp="2009-08-07T22:43:13Z" uid="123700" user="Mala" changeset="2070884" lat="52.2589911" lon="21.0203525"/>
  <node id="458512452" version="2" timestamp="2009-09-25T18:36:28Z" uid="123700" user="Mala" changeset="2625247" lat="52.2586711" lon="21.0195641"/>
  <node id="458512453" version="1" timestamp="2009-08-07T22:43:13Z" uid="123700" user="Mala" changeset="2070884" lat="52.2589062" lon="21.0193494"/>
  <node id="458512454" version="1" timestamp="2009-08-07T22:43:13Z" uid="123700" user="Mala" changeset="2070884" lat="52.2593675" lon="21.0188945"/>
  <node id="458512455" version="1" timestamp="2009-08-07T22:43:13Z" uid="123700" user="Mala" changeset="2070884" lat="52.2597667" lon="21.0198951"/>
  <node id="458512456" version="1" timestamp="2009-08-07T22:43:13Z" uid="123700" user="Mala" changeset="2070884" lat="52.2599319" lon="21.0208849"/>
  <node id="458512457" version="1" timestamp="2009-08-07T22:43:13Z" uid="123700" user="Mala" changeset="2070884" lat="52.2599205" lon="21.02063"/>
  <node id="458512458" version="1" timestamp="2009-08-07T22:43:13Z" uid="123700" user="Mala" changeset="2070884" lat="52.2599044" lon="21.0204088"/>
  <node id="458512459" version="1" timestamp="2009-08-07T22:43:13Z" uid="123700" user="Mala" changeset="2070884" lat="52.25987" lon="21.0202176"/>
  <node id="458512460" version="1" timestamp="2009-08-07T22:43:13Z" uid="123700" user="Mala" changeset="2070884" lat="52.2599281" lon="21.0207989"/>
  <node id="458512461" version="1" timestamp="2009-08-07T22:43:13Z" uid="123700" user="Mala" changeset="2070884" lat="52.2596176" lon="21.0208774"/>
  <node id="458512461" version="2" timestamp="2009-09-25T18:36:28Z" uid="123700" user="Mala" changeset="2625247" lat="52.2597761" lon="21.0208189"/>
  <node id="458512462" version="1" timestamp="2009-08-07T22:43:13Z" uid="123700" user="Mala" changeset="2070884" lat="52.2596107" lon="21.0207762"/>
  <node id="458512462" version="2" timestamp="2009-09-25T18:36:32Z" uid="123700" user="Mala" changeset="2625247" lat="52.2596107" lon="21.0207762"/>
  <node id="458512463" version="1" timestamp="2009-08-07T22:43:14Z" uid="123700" user="Mala" changeset="2070884" lat="52.2595831" lon="21.0206862"/>
  <node id="458512463" version="2" timestamp="2009-09-25T18:36:32Z" uid="123700" user="Mala" changeset="2625247" lat="52.2595831" lon="21.0206862"/>
  <node id="458512464" version="1" timestamp="2009-08-07T22:43:14Z" uid="123700" user="Mala" changeset="2070884" lat="52.2595487" lon="21.0206112"/>
  <node id="458512464" version="2" timestamp="2009-09-25T18:36:29Z" uid="123700" user="Mala" changeset="2625247" lat="52.2596948" lon="21.0204833"/>
  <node id="458512465" version="1" timestamp="2009-08-07T22:43:14Z" uid="123700" user="Mala" changeset="2070884" lat="52.2595097" lon="21.020555"/>
  <node id="458512465" version="2" timestamp="2009-09-25T18:36:28Z" uid="123700" user="Mala" changeset="2625247" lat="52.2596585" lon="21.0205075"/>
  <node id="458512466" version="1" timestamp="2009-08-07T22:43:14Z" uid="123700" user="Mala" changeset="2070884" lat="52.2594707" lon="21.020525"/>
  <node id="458512466" version="2" timestamp="2009-09-25T18:36:28Z" uid="123700" user="Mala" changeset="2625247" lat="52.2595888" lon="21.020244"/>
  <node id="458512467" version="1" timestamp="2009-08-07T22:43:14Z" uid="123700" user="Mala" changeset="2070884" lat="52.2594409" lon="21.02051"/>
  <node id="458512467" version="2" timestamp="2009-09-25T18:36:28Z" uid="123700" user="Mala" changeset="2625247" lat="52.2595221" lon="21.020295"/>
  <node id="458512468" version="1" timestamp="2009-08-07T22:43:14Z" uid="123700" user="Mala" changeset="2070884" lat="52.2593664" lon="21.0202861"/>
  <node id="458512468" version="2" timestamp="2009-09-25T18:36:29Z" uid="123700" user="Mala" changeset="2625247" lat="52.2594856" lon="21.0201706"/>
  <node id="458512469" version="1" timestamp="2009-08-07T22:43:14Z" uid="123700" user="Mala" changeset="2070884" lat="52.2606318" lon="21.021421"/>
  <node id="458512470" version="1" timestamp="2009-08-07T22:43:14Z" uid="123700" user="Mala" changeset="2070884" lat="52.260244" lon="21.0200264"/>
  <node id="458512471" version="1" timestamp="2009-08-07T22:43:14Z" uid="123700" user="Mala" changeset="2070884" lat="52.2601063" lon="21.0200639"/>
  <node id="458512471" version="2" timestamp="2009-09-25T18:36:29Z" uid="123700" user="Mala" changeset="2625247" lat="52.2601671" lon="21.0200451"/>
  <node id="458512472" version="1" timestamp="2009-08-07T22:43:14Z" uid="123700" user="Mala" changeset="2070884" lat="52.2607856" lon="21.0214173"/>
  <node id="458512473" version="1" timestamp="2009-08-07T22:43:14Z" uid="123700" user="Mala" changeset="2070884" lat="52.2608521" lon="21.021451"/>
  <node id="458512474" version="1" timestamp="2009-08-07T22:43:14Z" uid="123700" user="Mala" changeset="2070884" lat="52.260921" lon="21.021556"/>
  <node id="458512475" version="1" timestamp="2009-08-07T22:43:14Z" uid="123700" user="Mala" changeset="2070884" lat="52.2609898" lon="21.0217135"/>
  <node id="458512476" version="1" timestamp="2009-08-07T22:43:14Z" uid="123700" user="Mala" changeset="2070884" lat="52.2610426" lon="21.0218934"/>
  <node id="458512477" version="1" timestamp="2009-08-07T22:43:14Z" uid="123700" user="Mala" changeset="2070884" lat="52.2610908" lon="21.0220659"/>
  <node id="458512478" version="1" timestamp="2009-08-07T22:43:14Z" uid="123700" user="Mala" changeset="2070884" lat="52.2610977" lon="21.0223208"/>
  <node id="458512479" version="1" timestamp="2009-08-07T22:43:14Z" uid="123700" user="Mala" changeset="2070884" lat="52.2610541" lon="21.0224633"/>
  <node id="458512480" version="1" timestamp="2009-08-07T22:43:14Z" uid="123700" user="Mala" changeset="2070884" lat="52.2609852" lon="21.0225645"/>
  <node id="458512481" version="1" timestamp="2009-08-07T22:43:14Z" uid="123700" user="Mala" changeset="2070884" lat="52.2607007" lon="21.0229019"/>
  <node id="458512482" version="1" timestamp="2009-08-07T22:43:14Z" uid="123700" user="Mala" changeset="2070884" lat="52.2605791" lon="21.0226395"/>
  <node id="458512483" version="1" timestamp="2009-08-07T22:43:14Z" uid="123700" user="Mala" changeset="2070884" lat="52.2608407" lon="21.0223358"/>
  <node id="458512484" version="1" timestamp="2009-08-07T22:43:14Z" uid="123700" user="Mala" changeset="2070884" lat="52.261139" lon="21.0223208"/>
  <node id="458512485" version="1" timestamp="2009-08-07T22:43:14Z" uid="123700" user="Mala" changeset="2070884" lat="52.2611757" lon="21.0222908"/>
  <node id="458512486" version="1" timestamp="2009-08-07T22:43:14Z" uid="123700" user="Mala" changeset="2070884" lat="52.2612032" lon="21.0222458"/>
  <node id="458512487" version="1" timestamp="2009-08-07T22:43:14Z" uid="123700" user="Mala" changeset="2070884" lat="52.2612262" lon="21.0221634"/>
  <node id="458512488" version="1" timestamp="2009-08-07T22:43:14Z" uid="123700" user="Mala" changeset="2070884" lat="52.2612308" lon="21.0220696"/>
  <node id="458512489" version="1" timestamp="2009-08-07T22:43:14Z" uid="123700" user="Mala" changeset="2070884" lat="52.2612216" lon="21.0219872"/>
  <node id="458512490" version="1" timestamp="2009-08-07T22:43:14Z" uid="123700" user="Mala" changeset="2070884" lat="52.2612009" lon="21.0219122"/>
  <node id="458512491" version="1" timestamp="2009-08-07T22:43:14Z" uid="123700" user="Mala" changeset="2070884" lat="52.2611711" lon="21.0218522"/>
  <node id="458512492" version="1" timestamp="2009-08-07T22:43:15Z" uid="123700" user="Mala" changeset="2070884" lat="52.2611436" lon="21.021796"/>
  <node id="458512493" version="1" timestamp="2009-08-07T22:43:15Z" uid="123700" user="Mala" changeset="2070884" lat="52.2611023" lon="21.0217622"/>
  <node id="458512494" version="1" timestamp="2009-08-07T22:43:15Z" uid="123700" user="Mala" changeset="2070884" lat="52.261077" lon="21.0217547"/>
  <node id="458512495" version="1" timestamp="2009-08-07T22:43:15Z" uid="123700" user="Mala" changeset="2070884" lat="52.2615686" lon="21.0212675"/>
  <node id="458512496" version="1" timestamp="2009-08-07T22:43:15Z" uid="123700" user="Mala" changeset="2070884" lat="52.2623" lon="21.0203419"/>
  <node id="458512497" version="1" timestamp="2009-08-07T22:43:15Z" uid="123700" user="Mala" changeset="2070884" lat="52.2618913" lon="21.0194398"/>
  <node id="458512498" version="1" timestamp="2009-08-07T22:43:15Z" uid="123700" user="Mala" changeset="2070884" lat="52.2620992" lon="21.0191938"/>
  <node id="458512499" version="1" timestamp="2009-08-07T22:43:15Z" uid="123700" user="Mala" changeset="2070884" lat="52.2623825" lon="21.0202424"/>
  <node id="458512500" version="1" timestamp="2009-08-07T22:43:15Z" uid="123700" user="Mala" changeset="2070884" lat="52.261524" lon="21.0213229"/>
  <node id="458512501" version="1" timestamp="2009-08-07T22:43:15Z" uid="123700" user="Mala" changeset="2070884" lat="52.2611204" lon="21.020424"/>
  <node id="458512502" version="1" timestamp="2009-08-07T22:43:15Z" uid="123700" user="Mala" changeset="2070884" lat="52.2608587" lon="21.0207462"/>
  <node id="458512503" version="1" timestamp="2009-08-07T22:43:15Z" uid="123700" user="Mala" changeset="2070884" lat="52.2610379" lon="21.0211445"/>
  <node id="458512504" version="1" timestamp="2009-08-07T22:43:15Z" uid="123700" user="Mala" changeset="2070884" lat="52.2613319" lon="21.0201545"/>
  <node id="458512505" version="1" timestamp="2009-08-07T22:43:15Z" uid="123700" user="Mala" changeset="2070884" lat="52.2617354" lon="21.0210564"/>
  <node id="458512506" version="1" timestamp="2009-08-07T22:43:15Z" uid="123700" user="Mala" changeset="2070884" lat="52.261989" lon="21.0196555"/>
  <node id="458512507" version="1" timestamp="2009-08-07T22:43:15Z" uid="123700" user="Mala" changeset="2070884" lat="52.2614239" lon="21.0203503"/>
  <node id="458512508" version="1" timestamp="2009-08-07T22:43:15Z" uid="123700" user="Mala" changeset="2070884" lat="52.2619587" lon="21.0207739"/>
  <node id="458512509" version="1" timestamp="2009-08-07T22:43:15Z" uid="123700" user="Mala" changeset="2070884" lat="52.2614538" lon="21.019639">
    <tag k="barrier" v="gate"/>
  </node>
  <node id="458512510" version="1" timestamp="2009-08-07T22:43:15Z" uid="123700" user="Mala" changeset="2070884" lat="52.2614574" lon="21.0193519"/>
  <node id="458512511" version="1" timestamp="2009-08-07T22:43:15Z" uid="123700" user="Mala" changeset="2070884" lat="52.2614467" lon="21.0191469"/>
  <node id="458512512" version="1" timestamp="2009-08-07T22:43:15Z" uid="123700" user="Mala" changeset="2070884" lat="52.2613785" lon="21.0188833"/>
  <node id="458512513" version="1" timestamp="2009-08-07T22:43:15Z" uid="123700" user="Mala" changeset="2070884" lat="52.2612423" lon="21.0183912"/>
  <node id="458512514" version="1" timestamp="2009-08-07T22:43:15Z" uid="123700" user="Mala" changeset="2070884" lat="52.2609791" lon="21.0172171"/>
  <node id="458512515" version="1" timestamp="2009-08-07T22:43:15Z" uid="123700" user="Mala" changeset="2070884" lat="52.2614513" lon="21.0192351"/>
  <node id="458512516" version="1" timestamp="2009-08-07T22:43:15Z" uid="123700" user="Mala" changeset="2070884" lat="52.2619594" lon="21.0188716"/>
  <node id="458512517" version="1" timestamp="2009-08-07T22:43:15Z" uid="123700" user="Mala" changeset="2070884" lat="52.259722" lon="21.0197503"/>
  <node id="458512518" version="1" timestamp="2009-08-07T22:43:15Z" uid="123700" user="Mala" changeset="2070884" lat="52.2597077" lon="21.0196273"/>
  <node id="458512519" version="1" timestamp="2009-08-07T22:43:15Z" uid="123700" user="Mala" changeset="2070884" lat="52.2598224" lon="21.0194867"/>
  <node id="458512520" version="1" timestamp="2009-08-07T22:43:15Z" uid="123700" user="Mala" changeset="2070884" lat="52.2599945" lon="21.0192699"/>
  <node id="458512521" version="1" timestamp="2009-08-07T22:43:16Z" uid="123700" user="Mala" changeset="2070884" lat="52.2602348" lon="21.0190532"/>
  <node id="458512522" version="1" timestamp="2009-08-07T22:43:16Z" uid="123700" user="Mala" changeset="2070884" lat="52.2604284" lon="21.0189302"/>
  <node id="458512523" version="1" timestamp="2009-08-07T22:43:16Z" uid="123700" user="Mala" changeset="2070884" lat="52.2604965" lon="21.0187427"/>
  <node id="458512524" version="1" timestamp="2009-08-07T22:43:16Z" uid="123700" user="Mala" changeset="2070884" lat="52.2605324" lon="21.0185904"/>
  <node id="458512524" version="2" timestamp="2010-08-22T17:55:07Z" uid="123700" user="Mala" changeset="5563728" lat="52.2605324" lon="21.0185904"/>
  <node id="458512525" version="1" timestamp="2009-08-07T22:43:16Z" uid="123700" user="Mala" changeset="2070884" lat="52.2605216" lon="21.0184029"/>
  <node id="458512525" version="2" timestamp="2009-09-25T18:36:28Z" uid="123700" user="Mala" changeset="2625247" lat="52.2605085" lon="21.0184244"/>
  <node id="458512525" version="3" timestamp="2010-08-22T17:55:01Z" uid="123700" user="Mala" changeset="5563728" lat="52.2605465" lon="21.0185736"/>
  <node id="458512526" version="1" timestamp="2009-08-07T22:43:16Z" uid="123700" user="Mala" changeset="2070884" lat="52.2604499" lon="21.0182155"/>
  <node id="458512526" version="2" timestamp="2009-09-25T18:36:28Z" uid="123700" user="Mala" changeset="2625247" lat="52.2603743" lon="21.0181108"/>
  <node id="458512526" version="3" timestamp="2010-08-22T17:55:01Z" uid="123700" user="Mala" changeset="5563728" lat="52.2603814" lon="21.0181124"/>
  <node id="458512527" version="1" timestamp="2009-08-07T22:43:16Z" uid="123700" user="Mala" changeset="2070884" lat="52.2603867" lon="21.0178911"/>
  <node id="458512527" version="2" timestamp="2010-08-22T17:55:01Z" uid="123700" user="Mala" changeset="5563728" lat="52.2604121" lon="21.0178613"/>
  <node id="458512528" version="1" timestamp="2009-08-07T22:43:16Z" uid="123700" user="Mala" changeset="2070884" lat="52.2603854" lon="21.0181393"/>
  <node id="458512528" version="2" timestamp="2009-09-25T18:36:33Z" uid="123700" user="Mala" changeset="2625247" lat="52.2603854" lon="21.0181393"/>
  <node id="458512529" version="1" timestamp="2009-08-07T22:43:16Z" uid="123700" user="Mala" changeset="2070884" lat="52.2603029" lon="21.0181042"/>
  <node id="458512529" version="2" timestamp="2010-08-22T17:55:07Z" uid="123700" user="Mala" changeset="5563728" lat="52.2603029" lon="21.0181042"/>
  <node id="458512530" version="1" timestamp="2009-08-07T22:43:16Z" uid="123700" user="Mala" changeset="2070884" lat="52.2601876" lon="21.0180871"/>
  <node id="458512530" version="2" timestamp="2009-09-25T18:36:28Z" uid="123700" user="Mala" changeset="2625247" lat="52.2602739" lon="21.0179931"/>
  <node id="458512531" version="1" timestamp="2009-08-07T22:43:16Z" uid="123700" user="Mala" changeset="2070884" lat="52.2611299" lon="21.0178898"/>
  <node id="458512531" version="2" timestamp="2010-08-22T17:55:01Z" uid="123700" user="Mala" changeset="5563728" lat="52.2611362" lon="21.0179728"/>
  <node id="458512532" version="1" timestamp="2009-08-07T22:43:16Z" uid="123700" user="Mala" changeset="2070884" lat="52.2596288" lon="21.0195863"/>
  <node id="458512533" version="1" timestamp="2009-08-07T22:43:16Z" uid="123700" user="Mala" changeset="2070884" lat="52.2595822" lon="21.0194984"/>
  <node id="458512534" version="1" timestamp="2009-08-07T22:43:16Z" uid="123700" user="Mala" changeset="2070884" lat="52.2595643" lon="21.0193637"/>
  <node id="458512535" version="1" timestamp="2009-08-07T22:43:16Z" uid="123700" user="Mala" changeset="2070884" lat="52.2595678" lon="21.0191938"/>
  <node id="458512536" version="1" timestamp="2009-08-07T22:43:16Z" uid="123700" user="Mala" changeset="2070884" lat="52.2595965" lon="21.019059"/>
  <node id="458512537" version="1" timestamp="2009-08-07T22:43:16Z" uid="123700" user="Mala" changeset="2070884" lat="52.259679" lon="21.0189243"/>
  <node id="458512538" version="1" timestamp="2009-08-07T22:43:16Z" uid="123700" user="Mala" changeset="2070884" lat="52.2597543" lon="21.0188306"/>
  <node id="458512539" version="1" timestamp="2009-08-07T22:43:16Z" uid="123700" user="Mala" changeset="2070884" lat="52.2598547" lon="21.0187369"/>
  <node id="458512540" version="1" timestamp="2009-08-07T22:43:16Z" uid="123700" user="Mala" changeset="2070884" lat="52.2599479" lon="21.0186431"/>
  <node id="458512541" version="1" timestamp="2009-08-07T22:43:16Z" uid="123700" user="Mala" changeset="2070884" lat="52.2599909" lon="21.0185377"/>
  <node id="458512542" version="1" timestamp="2009-08-07T22:43:16Z" uid="123700" user="Mala" changeset="2070884" lat="52.2600376" lon="21.0184088"/>
  <node id="458512543" version="1" timestamp="2009-08-07T22:43:16Z" uid="123700" user="Mala" changeset="2070884" lat="52.2600913" lon="21.0182975"/>
  <node id="458512543" version="2" timestamp="2009-09-25T18:36:28Z" uid="123700" user="Mala" changeset="2625247" lat="52.260086" lon="21.0183125"/>
  <node id="458512544" version="1" timestamp="2009-08-07T22:43:16Z" uid="123700" user="Mala" changeset="2070884" lat="52.2601559" lon="21.0182096"/>
  <node id="458512545" version="1" timestamp="2009-08-07T22:43:16Z" uid="123700" user="Mala" changeset="2070884" lat="52.2602677" lon="21.018099"/>
  <node id="458512546" version="1" timestamp="2009-08-07T22:43:16Z" uid="123700" user="Mala" changeset="2070884" lat="52.2597768" lon="21.0184916"/>
  <node id="458512547" version="1" timestamp="2009-08-07T22:43:16Z" uid="123700" user="Mala" changeset="2070884" lat="52.2596216" lon="21.0197503"/>
  <node id="458512547" version="2" timestamp="2009-09-25T18:36:33Z" uid="123700" user="Mala" changeset="2625247" lat="52.2596216" lon="21.0197503"/>
  <node id="458512548" version="1" timestamp="2009-08-07T22:43:16Z" uid="123700" user="Mala" changeset="2070884" lat="52.2595117" lon="21.0201442"/>
  <node id="458512548" version="2" timestamp="2009-09-25T18:36:33Z" uid="123700" user="Mala" changeset="2625247" lat="52.2595117" lon="21.0201442"/>
  <node id="458512549" version="1" timestamp="2009-08-07T22:43:17Z" uid="123700" user="Mala" changeset="2070884" lat="52.2593312" lon="21.0201545"/>
  <node id="458512549" version="2" timestamp="2009-09-25T18:36:33Z" uid="123700" user="Mala" changeset="2625247" lat="52.2593312" lon="21.0201545"/>
  <node id="458512550" version="1" timestamp="2009-08-07T22:43:17Z" uid="123700" user="Mala" changeset="2070884" lat="52.2591595" lon="21.0190992"/>
  <node id="458512551" version="1" timestamp="2009-08-07T22:43:17Z" uid="123700" user="Mala" changeset="2070884" lat="52.2601295" lon="21.0181443"/>
  <node id="458512552" version="1" timestamp="2009-08-07T22:43:17Z" uid="123700" user="Mala" changeset="2070884" lat="52.2600617" lon="21.0179773"/>
  <node id="458512553" version="1" timestamp="2009-08-07T22:43:17Z" uid="123700" user="Mala" changeset="2070884" lat="52.2599972" lon="21.0178367"/>
  <node id="458512554" version="1" timestamp="2009-08-07T22:43:17Z" uid="123700" user="Mala" changeset="2070884" lat="52.2599254" lon="21.0177313"/>
  <node id="458512555" version="1" timestamp="2009-08-07T22:43:17Z" uid="123700" user="Mala" changeset="2070884" lat="52.2598107" lon="21.0176727"/>
  <node id="458512556" version="1" timestamp="2009-08-07T22:43:18Z" uid="123700" user="Mala" changeset="2070884" lat="52.2597175" lon="21.0176903"/>
  <node id="458512557" version="1" timestamp="2009-08-07T22:43:18Z" uid="123700" user="Mala" changeset="2070884" lat="52.259635" lon="21.0177488"/>
  <node id="458512558" version="1" timestamp="2009-08-07T22:43:18Z" uid="123700" user="Mala" changeset="2070884" lat="52.2596063" lon="21.0178719"/>
  <node id="458512559" version="1" timestamp="2009-08-07T22:43:18Z" uid="123700" user="Mala" changeset="2070884" lat="52.259592" lon="21.0180359"/>
  <node id="458512560" version="1" timestamp="2009-08-07T22:43:18Z" uid="123700" user="Mala" changeset="2070884" lat="52.2592191" lon="21.0184811"/>
  <node id="458512560" version="2" timestamp="2009-09-25T18:36:28Z" uid="123700" user="Mala" changeset="2625247" lat="52.259214" lon="21.018435"/>
  <node id="458512561" version="1" timestamp="2009-08-07T22:43:18Z" uid="123700" user="Mala" changeset="2070884" lat="52.2592188" lon="21.0190408"/>
  <node id="458512561" version="2" timestamp="2009-09-25T18:36:28Z" uid="123700" user="Mala" changeset="2625247" lat="52.2591902" lon="21.0190655"/>
  <node id="458512562" version="1" timestamp="2009-08-07T22:43:18Z" uid="123700" user="Mala" changeset="2070884" lat="52.2596637" lon="21.0180007"/>
  <node id="458512563" version="1" timestamp="2009-08-07T22:43:18Z" uid="123700" user="Mala" changeset="2070884" lat="52.259739" lon="21.0180183"/>
  <node id="458512564" version="1" timestamp="2009-08-07T22:43:18Z" uid="123700" user="Mala" changeset="2070884" lat="52.2598071" lon="21.0180535"/>
  <node id="458512565" version="1" timestamp="2009-08-07T22:43:18Z" uid="123700" user="Mala" changeset="2070884" lat="52.2598609" lon="21.0181003"/>
  <node id="458512566" version="1" timestamp="2009-08-07T22:43:18Z" uid="123700" user="Mala" changeset="2070884" lat="52.2599111" lon="21.0181823"/>
  <node id="458512567" version="1" timestamp="2009-08-07T22:43:18Z" uid="123700" user="Mala" changeset="2070884" lat="52.2599546" lon="21.0183165"/>
  <node id="458512568" version="1" timestamp="2009-08-07T22:43:18Z" uid="123700" user="Mala" changeset="2070884" lat="52.2586239" lon="21.0186275"/>
  <node id="458512568" version="2" timestamp="2009-09-25T18:36:28Z" uid="123700" user="Mala" changeset="2625247" lat="52.2586342" lon="21.0185939"/>
  <node id="458512569" version="1" timestamp="2009-08-07T22:43:18Z" uid="123700" user="Mala" changeset="2070884" lat="52.2579175" lon="21.0192954"/>
  <node id="458512570" version="1" timestamp="2009-08-07T22:43:18Z" uid="123700" user="Mala" changeset="2070884" lat="52.2568955" lon="21.0203146"/>
  <node id="458512571" version="1" timestamp="2009-08-07T22:43:18Z" uid="123700" user="Mala" changeset="2070884" lat="52.258195" lon="21.0200642"/>
  <node id="458512572" version="1" timestamp="2009-08-07T22:43:18Z" uid="123700" user="Mala" changeset="2070884" lat="52.2571537" lon="21.021"/>
  <node id="458512573" version="1" timestamp="2009-08-07T22:43:18Z" uid="123700" user="Mala" changeset="2070884" lat="52.257249" lon="21.021015"/>
  <node id="458512573" version="2" timestamp="2009-09-25T14:45:26Z" uid="123700" user="Mala" changeset="2620797" lat="52.2572398" lon="21.0210236"/>
  <node id="458512574" version="1" timestamp="2009-08-07T22:43:18Z" uid="123700" user="Mala" changeset="2070884" lat="52.2571425" lon="21.0211219"/>
  <node id="458512575" version="1" timestamp="2009-08-07T22:43:18Z" uid="123700" user="Mala" changeset="2070884" lat="52.2570792" lon="21.0208024"/>
  <node id="458512576" version="1" timestamp="2009-08-07T22:43:18Z" uid="123700" user="Mala" changeset="2070884" lat="52.2569866" lon="21.0208969"/>
  <node id="458512576" version="2" timestamp="2009-09-25T14:45:26Z" uid="123700" user="Mala" changeset="2620797" lat="52.2569669" lon="21.0209184"/>
  <node id="458512577" version="1" timestamp="2009-08-07T22:43:18Z" uid="123700" user="Mala" changeset="2070884" lat="52.2570669" lon="21.0211069"/>
  <node id="458512577" version="2" timestamp="2009-09-25T14:45:26Z" uid="123700" user="Mala" changeset="2620797" lat="52.2570459" lon="21.0211348"/>
  <node id="458512578" version="1" timestamp="2009-08-07T22:43:18Z" uid="123700" user="Mala" changeset="2070884" lat="52.2571109" lon="21.0211537"/>
  <node id="458512579" version="1" timestamp="2009-08-07T22:43:18Z" uid="123700" user="Mala" changeset="2070884" lat="52.2570666" lon="21.0211983"/>
  <node id="458512579" version="2" timestamp="2009-09-25T14:45:26Z" uid="123700" user="Mala" changeset="2620797" lat="52.2570285" lon="21.0212348"/>
  <node id="458512580" version="1" timestamp="2009-08-07T22:43:18Z" uid="123700" user="Mala" changeset="2070884" lat="52.2562731" lon="21.0212828"/>
  <node id="458512580" version="2" timestamp="2009-09-25T18:36:33Z" uid="123700" user="Mala" changeset="2625247" lat="52.2562731" lon="21.0212828"/>
  <node id="458512581" version="1" timestamp="2009-08-07T22:43:18Z" uid="123700" user="Mala" changeset="2070884" lat="52.2560826" lon="21.0214933"/>
  <node id="458512581" version="2" timestamp="2009-09-25T18:36:33Z" uid="123700" user="Mala" changeset="2625247" lat="52.2560826" lon="21.0214933"/>
  <node id="458512582" version="1" timestamp="2009-08-07T22:43:18Z" uid="123700" user="Mala" changeset="2070884" lat="52.2562027" lon="21.0220665"/>
  <node id="458512583" version="1" timestamp="2009-08-07T22:43:18Z" uid="123700" user="Mala" changeset="2070884" lat="52.2560568" lon="21.0219795"/>
  <node id="458512583" version="2" timestamp="2009-09-25T18:36:27Z" uid="123700" user="Mala" changeset="2625247" lat="52.2560783" lon="21.0219157"/>
  <node id="458512584" version="1" timestamp="2009-08-07T22:43:18Z" uid="123700" user="Mala" changeset="2070884" lat="52.2552052" lon="21.0221552"/>
  <node id="458512584" version="2" timestamp="2009-09-25T18:36:27Z" uid="123700" user="Mala" changeset="2625247" lat="52.2552742" lon="21.0222948"/>
  <node id="458512585" version="1" timestamp="2009-08-07T22:43:18Z" uid="123700" user="Mala" changeset="2070884" lat="52.2549945" lon="21.0221406"/>
  <node id="458512585" version="2" timestamp="2009-09-25T18:36:27Z" uid="123700" user="Mala" changeset="2625247" lat="52.2550553" lon="21.0221406"/>
  <node id="458512586" version="1" timestamp="2009-08-07T22:43:18Z" uid="123700" user="Mala" changeset="2070884" lat="52.2550348" lon="21.0228216"/>
  <node id="458512586" version="2" timestamp="2009-09-25T18:36:27Z" uid="123700" user="Mala" changeset="2625247" lat="52.2549344" lon="21.0224879"/>
  <node id="458512587" version="1" timestamp="2009-08-07T22:43:19Z" uid="123700" user="Mala" changeset="2070884" lat="52.2551524" lon="21.0231219"/>
  <node id="458512588" version="1" timestamp="2009-08-07T22:43:19Z" uid="123700" user="Mala" changeset="2070884" lat="52.2549362" lon="21.0225433"/>
  <node id="458512588" version="2" timestamp="2009-09-25T18:36:27Z" uid="123700" user="Mala" changeset="2625247" lat="52.2548546" lon="21.0224628"/>
  <node id="458512589" version="1" timestamp="2009-08-07T22:43:19Z" uid="123700" user="Mala" changeset="2070884" lat="52.2548555" lon="21.0224042"/>
  <node id="458512589" version="2" timestamp="2009-09-25T18:36:27Z" uid="123700" user="Mala" changeset="2625247" lat="52.2547947" lon="21.0224703"/>
  <node id="458512590" version="1" timestamp="2009-08-07T22:43:19Z" uid="123700" user="Mala" changeset="2070884" lat="52.2547569" lon="21.0223896"/>
  <node id="458512590" version="2" timestamp="2009-09-25T18:36:27Z" uid="123700" user="Mala" changeset="2625247" lat="52.2547536" lon="21.0224648"/>
  <node id="458512591" version="1" timestamp="2009-08-07T22:43:19Z" uid="123700" user="Mala" changeset="2070884" lat="52.2546448" lon="21.0224262"/>
  <node id="458512592" version="1" timestamp="2009-08-07T22:43:19Z" uid="123700" user="Mala" changeset="2070884" lat="52.2545328" lon="21.0224481"/>
  <node id="458512593" version="1" timestamp="2009-08-07T22:43:19Z" uid="123700" user="Mala" changeset="2070884" lat="52.2544924" lon="21.0223603"/>
  <node id="458512593" version="2" timestamp="2009-09-25T18:36:27Z" uid="123700" user="Mala" changeset="2625247" lat="52.2545017" lon="21.0223562"/>
  <node id="458512594" version="1" timestamp="2009-08-07T22:43:19Z" uid="123700" user="Mala" changeset="2070884" lat="52.2544521" lon="21.0221772"/>
  <node id="458512595" version="1" timestamp="2009-08-07T22:43:19Z" uid="123700" user="Mala" changeset="2070884" lat="52.2544028" lon="21.022309"/>
  <node id="458512596" version="1" timestamp="2009-08-07T22:43:19Z" uid="123700" user="Mala" changeset="2070884" lat="52.25434" lon="21.0223237"/>
  <node id="458512597" version="1" timestamp="2009-08-07T22:43:19Z" uid="123700" user="Mala" changeset="2070884" lat="52.2542952" lon="21.0223749"/>
  <node id="458512598" version="1" timestamp="2009-08-07T22:43:19Z" uid="123700" user="Mala" changeset="2070884" lat="52.2542504" lon="21.0224628"/>
  <node id="458512598" version="2" timestamp="2009-09-25T18:36:28Z" uid="123700" user="Mala" changeset="2625247" lat="52.254259" lon="21.0224445"/>
  <node id="458512599" version="1" timestamp="2009-08-07T22:43:19Z" uid="123700" user="Mala" changeset="2070884" lat="52.254228" lon="21.0225946"/>
  <node id="458512600" version="1" timestamp="2009-08-07T22:43:19Z" uid="123700" user="Mala" changeset="2070884" lat="52.2542369" lon="21.0227703"/>
  <node id="458512601" version="1" timestamp="2009-08-07T22:43:19Z" uid="123700" user="Mala" changeset="2070884" lat="52.2542907" lon="21.0229021"/>
  <node id="458512602" version="1" timestamp="2009-08-07T22:43:19Z" uid="123700" user="Mala" changeset="2070884" lat="52.2543535" lon="21.0229754"/>
  <node id="458512603" version="1" timestamp="2009-08-07T22:43:19Z" uid="123700" user="Mala" changeset="2070884" lat="52.2544073" lon="21.0230998"/>
  <node id="458512604" version="1" timestamp="2009-08-07T22:43:19Z" uid="123700" user="Mala" changeset="2070884" lat="52.2544073" lon="21.0232243"/>
  <node id="458512605" version="1" timestamp="2009-08-07T22:43:19Z" uid="123700" user="Mala" changeset="2070884" lat="52.2543983" lon="21.0234147"/>
  <node id="458512606" version="1" timestamp="2009-08-07T22:43:19Z" uid="123700" user="Mala" changeset="2070884" lat="52.2543893" lon="21.0236344"/>
  <node id="458512606" version="2" timestamp="2009-09-25T18:36:27Z" uid="123700" user="Mala" changeset="2625247" lat="52.2544235" lon="21.0236323"/>
  <node id="458512607" version="1" timestamp="2009-08-07T22:43:19Z" uid="123700" user="Mala" changeset="2070884" lat="52.2544033" lon="21.0238747"/>
  <node id="458512607" version="2" timestamp="2009-09-25T18:36:27Z" uid="123700" user="Mala" changeset="2625247" lat="52.2544309" lon="21.0238339"/>
  <node id="458512607" version="3" timestamp="2011-09-27T10:50:45Z" uid="373244" user="Tomekg" changeset="9409600" lat="52.2544768" lon="21.0237926"/>
  <node id="458512608" version="1" timestamp="2009-08-07T22:43:19Z" uid="123700" user="Mala" changeset="2070884" lat="52.2541742" lon="21.0223456"/>
  <node id="458512608" version="2" timestamp="2009-09-25T18:36:27Z" uid="123700" user="Mala" changeset="2625247" lat="52.2541746" lon="21.0223365"/>
  <node id="458512609" version="1" timestamp="2009-08-07T22:43:19Z" uid="123700" user="Mala" changeset="2070884" lat="52.2616478" lon="21.020075"/>
  <node id="458513289" version="2" timestamp="2010-04-09T04:12:48Z" uid="4467" user="Rosscoe" changeset="4369541" lat="-37.1663336" lon="139.7731112"/>
  <node id="458510000" version="2" timestamp="2012-07-17T07:21:27Z" uid="722137" user="OSMF Redaction Account" changeset="12259372" lat="52.439483" lon="16.9568692"/>
  <node id="458510001" version="2" timestamp="2012-07-17T07:21:19Z" uid="722137" user="OSMF Redaction Account" changeset="12259372" lat="52.4357142" lon="16.947781"/>
  <node id="458510002" version="2" timestamp="2012-07-17T07:21:22Z" uid="722137" user="OSMF Redaction Account" changeset="12259372" lat="52.4373393" lon="16.9542801"/>
  <node id="458510003" version="2" timestamp="2012-07-17T07:21:25Z" uid="722137" user="OSMF Redaction Account" changeset="12259372" lat="52.4389877" lon="16.9572618"/>
  <node id="458510004" version="3" timestamp="2012-07-17T07:19:39Z" uid="722137" user="OSMF Redaction Account" changeset="12259337" lat="52.4391403" lon="16.9568434"/>
  <node id="458510005" version="2" timestamp="2012-07-17T07:21:18Z" uid="722137" user="OSMF Redaction Account" changeset="12259372" lat="52.4352813" lon="16.9440553"/>
  <node id="458510007" version="2" timestamp="2012-07-17T07:21:27Z" uid="722137" user="OSMF Redaction Account" changeset="12259372" lat="52.4395302" lon="16.9536931"/>
  <node id="458510008" version="2" timestamp="2012-07-17T07:21:29Z" uid="722137" user="OSMF Redaction Account" changeset="12259372" lat="52.4401054" lon="16.9529577"/>
  <node id="458510009" version="2" timestamp="2012-07-17T07:21:22Z" uid="722137" user="OSMF Redaction Account" changeset="12259372" lat="52.4365886" lon="16.9464059"/>
  <node id="458510010" version="2" timestamp="2012-07-17T07:21:28Z" uid="722137" user="OSMF Redaction Account" changeset="12259372" lat="52.4397214" lon="16.9607472"/>
  <node id="458510012" version="2" timestamp="2012-07-17T07:21:17Z" uid="722137" user="OSMF Redaction Account" changeset="12259363" lat="52.4343116" lon="16.9459512"/>
  <node id="458510013" version="2" timestamp="2012-07-17T07:21:19Z" uid="722137" user="OSMF Redaction Account" changeset="12259372" lat="52.4355677" lon="16.9404955"/>
  <node id="458510014" version="2" timestamp="2012-07-17T07:21:25Z" uid="722137" user="OSMF Redaction Account" changeset="12259372" lat="52.4390274" lon="16.9560203"/>
  <node id="458510015" version="2" timestamp="2012-07-17T07:21:28Z" uid="722137" user="OSMF Redaction Account" changeset="12259372" lat="52.4398046" lon="16.9540326"/>
  <node id="458510016" version="2" timestamp="2012-07-17T07:21:18Z" uid="722137" user="OSMF Redaction Account" changeset="12259372" lat="52.435167" lon="16.9476535"/>
  <node id="458510017" version="2" timestamp="2012-07-17T07:21:27Z" uid="722137" user="OSMF Redaction Account" changeset="12259372" lat="52.4393393" lon="16.95453"/>
  <node id="458510018" version="2" timestamp="2012-07-17T07:21:17Z" uid="722137" user="OSMF Redaction Account" changeset="12259363" lat="52.4339087" lon="16.9439548"/>
  <node id="458510019" version="2" timestamp="2012-07-17T07:21:26Z" uid="722137" user="OSMF Redaction Account" changeset="12259372" lat="52.4392012" lon="16.9463051"/>
  <node id="458510020" version="2" timestamp="2012-07-17T07:21:23Z" uid="722137" user="OSMF Redaction Account" changeset="12259372" lat="52.4379549" lon="16.9445193"/>
  <node id="458510021" version="2" timestamp="2012-07-17T07:21:19Z" uid="722137" user="OSMF Redaction Account" changeset="12259372" lat="52.4356462" lon="16.9443582"/>
  <node id="458510022" version="2" timestamp="2012-07-17T07:21:25Z" uid="722137" user="OSMF Redaction Account" changeset="12259372" lat="52.4390589" lon="16.9527475"/>
  <node id="458510023" version="2" timestamp="2012-07-17T07:21:22Z" uid="722137" user="OSMF Redaction Account" changeset="12259372" lat="52.4366148" lon="16.9502935"/>
  <node id="458510024" version="2" timestamp="2012-07-17T07:21:20Z" uid="722137" user="OSMF Redaction Account" changeset="12259372" lat="52.4357353" lon="16.9408503"/>
  <node id="458510025" version="2" timestamp="2012-07-17T07:21:25Z" uid="722137" user="OSMF Redaction Account" changeset="12259372" lat="52.4390619" lon="16.94134"/>
  <node id="458510026" version="2" timestamp="2012-07-17T07:21:17Z" uid="722137" user="OSMF Redaction Account" changeset="12259363" lat="52.4344303" lon="16.945525"/>
  <node id="458510027" version="2" timestamp="2012-07-17T07:21:25Z" uid="722137" user="OSMF Redaction Account" changeset="12259372" lat="52.4391281" lon="16.95771"/>
  <node id="458510028" version="2" timestamp="2012-07-17T07:21:21Z" uid="722137" user="OSMF Redaction Account" changeset="12259372" lat="52.4364672" lon="16.941618"/>
  <node id="458510031" version="2" timestamp="2012-07-17T07:21:27Z" uid="722137" user="OSMF Redaction Account" changeset="12259372" lat="52.4395339" lon="16.956478"/>
  <node id="458510032" version="2" timestamp="2012-07-17T07:21:17Z" uid="722137" user="OSMF Redaction Account" changeset="12259363" lat="52.4339051" lon="16.9437346"/>
  <node id="458510033" version="2" timestamp="2012-07-17T07:21:30Z" uid="722137" user="OSMF Redaction Account" changeset="12259372" lat="52.4403509" lon="16.9530531"/>
  <node id="458510035" version="2" timestamp="2012-07-17T07:21:28Z" uid="722137" user="OSMF Redaction Account" changeset="12259372" lat="52.4398611" lon="16.9607066"/>
  <node id="458510038" version="2" timestamp="2012-07-17T07:21:22Z" uid="722137" user="OSMF Redaction Account" changeset="12259372" lat="52.437112" lon="16.9417798"/>
  <node id="458510039" version="2" timestamp="2012-07-17T07:21:24Z" uid="722137" user="OSMF Redaction Account" changeset="12259372" lat="52.4381323" lon="16.9565882"/>
  <node id="458510045" version="2" timestamp="2012-07-17T07:21:29Z" uid="722137" user="OSMF Redaction Account" changeset="12259372" lat="52.4399719" lon="16.9582739"/>
  <node id="458510046" version="2" timestamp="2012-07-17T07:21:17Z" uid="722137" user="OSMF Redaction Account" changeset="12259363" lat="52.4343099" lon="16.9449949"/>
  <node id="458510047" version="2" timestamp="2012-07-17T07:21:23Z" uid="722137" user="OSMF Redaction Account" changeset="12259372" lat="52.43739" lon="16.94455"/>
  <node id="458510051" version="2" timestamp="2012-07-17T07:21:28Z" uid="722137" user="OSMF Redaction Account" changeset="12259372" lat="52.439757" lon="16.9459336"/>
  <node id="458510052" version="2" timestamp="2012-07-17T07:21:19Z" uid="722137" user="OSMF Redaction Account" changeset="12259372" lat="52.4353938" lon="16.9441487"/>
  <node id="458510053" version="2" timestamp="2012-07-17T07:21:20Z" uid="722137" user="OSMF Redaction Account" changeset="12259372" lat="52.4358922" lon="16.9407596"/>
  <node id="458510057" version="2" timestamp="2012-07-17T07:21:18Z" uid="722137" user="OSMF Redaction Account" changeset="12259372" lat="52.4350622" lon="16.9440838"/>
  <node id="458510058" version="2" timestamp="2012-07-17T07:21:30Z" uid="722137" user="OSMF Redaction Account" changeset="12259372" lat="52.4407218" lon="16.943175"/>
  <node id="458510059" version="2" timestamp="2012-07-17T07:21:24Z" uid="722137" user="OSMF Redaction Account" changeset="12259372" lat="52.4384826" lon="16.9554397"/>
  <node id="458510061" version="2" timestamp="2012-07-17T07:21:30Z" uid="722137" user="OSMF Redaction Account" changeset="12259372" lat="52.4404778" lon="16.9473492"/>
  <node id="458510062" version="2" timestamp="2012-07-17T07:21:28Z" uid="722137" user="OSMF Redaction Account" changeset="12259372" lat="52.4397888" lon="16.961973"/>
  <node id="458510065" version="2" timestamp="2012-07-17T07:21:17Z" uid="722137" user="OSMF Redaction Account" changeset="12259363" lat="52.4337763" lon="16.9473227"/>
  <node id="458510067" version="2" timestamp="2012-07-17T07:21:28Z" uid="722137" user="OSMF Redaction Account" changeset="12259372" lat="52.4396789" lon="16.9603534"/>
  <node id="458510069" version="2" timestamp="2012-07-17T07:21:26Z" uid="722137" user="OSMF Redaction Account" changeset="12259372" lat="52.4391483" lon="16.9565781"/>
  <node id="458510074" version="2" timestamp="2012-07-17T07:21:24Z" uid="722137" user="OSMF Redaction Account" changeset="12259372" lat="52.4386203" lon="16.9587324"/>
  <node id="458510077" version="2" timestamp="2012-07-17T07:21:29Z" uid="722137" user="OSMF Redaction Account" changeset="12259372" lat="52.440238" lon="16.9521932"/>
  <node id="458510079" version="2" timestamp="2012-07-17T07:21:18Z" uid="722137" user="OSMF Redaction Account" changeset="12259363" lat="52.4348579" lon="16.9439248"/>
  <node id="458510080" version="2" timestamp="2012-07-17T07:21:26Z" uid="722137" user="OSMF Redaction Account" changeset="12259372" lat="52.4391701" lon="16.9558641"/>
  <node id="458510082" version="2" timestamp="2012-07-17T07:21:21Z" uid="722137" user="OSMF Redaction Account" changeset="12259372" lat="52.4365514" lon="16.9422572"/>
  <node id="458510086" version="2" timestamp="2012-07-17T07:21:24Z" uid="722137" user="OSMF Redaction Account" changeset="12259372" lat="52.4384793" lon="16.9580162"/>
  <node id="458510089" version="2" timestamp="2012-07-17T07:21:27Z" uid="722137" user="OSMF Redaction Account" changeset="12259372" lat="52.4396146" lon="16.9552526"/>
  <node id="458510092" version="2" timestamp="2012-07-17T07:21:19Z" uid="722137" user="OSMF Redaction Account" changeset="12259372" lat="52.4357318" lon="16.9445989"/>
  <node id="458510093" version="2" timestamp="2012-07-17T07:21:21Z" uid="722137" user="OSMF Redaction Account" changeset="12259372" lat="52.4363327" lon="16.9420801"/>
  <node id="458510094" version="2" timestamp="2012-07-17T07:21:26Z" uid="722137" user="OSMF Redaction Account" changeset="12259372" lat="52.439154" lon="16.9563807"/>
  <node id="458510096" version="2" timestamp="2012-07-17T07:21:19Z" uid="722137" user="OSMF Redaction Account" changeset="12259372" lat="52.4357306" lon="16.940624"/>
  <node id="458510098" version="2" timestamp="2012-07-17T07:21:28Z" uid="722137" user="OSMF Redaction Account" changeset="12259372" lat="52.4397271" lon="16.9615859"/>
  <node id="458510099" version="2" timestamp="2012-07-17T07:21:23Z" uid="722137" user="OSMF Redaction Account" changeset="12259372" lat="52.437523" lon="16.9423508"/>
  <node id="458510102" version="2" timestamp="2012-07-17T07:21:22Z" uid="722137" user="OSMF Redaction Account" changeset="12259372" lat="52.4367802" lon="16.9415036"/>
  <node id="458510104" version="2" timestamp="2012-07-17T07:21:20Z" uid="722137" user="OSMF Redaction Account" changeset="12259372" lat="52.4362057" lon="16.9410257"/>
  <node id="458510106" version="2" timestamp="2012-07-17T07:21:29Z" uid="722137" user="OSMF Redaction Account" changeset="12259372" lat="52.4401912" lon="16.9517617"/>
  <node id="458510108" version="2" timestamp="2012-07-17T07:21:20Z" uid="722137" user="OSMF Redaction Account" changeset="12259372" lat="52.4359773" lon="16.9412907"/>
  <node id="458510111" version="2" timestamp="2012-07-17T07:21:26Z" uid="722137" user="OSMF Redaction Account" changeset="12259372" lat="52.4391512" lon="16.9548547"/>
  <node id="458510112" version="2" timestamp="2012-07-17T07:21:28Z" uid="722137" user="OSMF Redaction Account" changeset="12259372" lat="52.4396611" lon="16.9527225"/>
  <node id="458510114" version="2" timestamp="2012-07-17T07:21:20Z" uid="722137" user="OSMF Redaction Account" changeset="12259372" lat="52.435813" lon="16.9418308"/>
  <node id="458510119" version="2" timestamp="2012-07-17T07:21:26Z" uid="722137" user="OSMF Redaction Account" changeset="12259372" lat="52.4391519" lon="16.9523777"/>
  <node id="458510120" version="2" timestamp="2012-07-17T07:21:24Z" uid="722137" user="OSMF Redaction Account" changeset="12259372" lat="52.4384673" lon="16.9481235"/>
  <node id="458510121" version="2" timestamp="2012-07-17T07:21:19Z" uid="722137" user="OSMF Redaction Account" changeset="12259372" lat="52.4354618" lon="16.9408638"/>
  <node id="458510122" version="2" timestamp="2012-07-17T07:21:29Z" uid="722137" user="OSMF Redaction Account" changeset="12259372" lat="52.4400491" lon="16.9533469"/>
  <node id="458510124" version="2" timestamp="2012-07-17T07:21:21Z" uid="722137" user="OSMF Redaction Account" changeset="12259372" lat="52.4363382" lon="16.9411548"/>
  <node id="458510126" version="2" timestamp="2012-07-17T07:21:21Z" uid="722137" user="OSMF Redaction Account" changeset="12259372" lat="52.4363714" lon="16.9462241"/>
  <node id="458510130" version="2" timestamp="2012-07-17T07:21:21Z" uid="722137" user="OSMF Redaction Account" changeset="12259372" lat="52.4365104" lon="16.9457672"/>
  <node id="458510132" version="2" timestamp="2012-07-17T07:21:29Z" uid="722137" user="OSMF Redaction Account" changeset="12259372" lat="52.440027" lon="16.9566508"/>
  <node id="458510133" version="2" timestamp="2012-07-17T07:21:26Z" uid="722137" user="OSMF Redaction Account" changeset="12259372" lat="52.4392301" lon="16.9553241"/>
  <node id="458510136" version="2" timestamp="2012-07-17T07:21:31Z" uid="722137" user="OSMF Redaction Account" changeset="12259372" lat="52.4414533" lon="16.9418171"/>
  <node id="458510140" version="2" timestamp="2012-07-17T07:21:28Z" uid="722137" user="OSMF Redaction Account" changeset="12259372" lat="52.4396164" lon="16.9514209"/>
  <node id="458510141" version="2" timestamp="2012-07-17T07:21:28Z" uid="722137" user="OSMF Redaction Account" changeset="12259372" lat="52.4397374" lon="16.9514935"/>
  <node id="458510142" version="2" timestamp="2012-07-17T07:21:27Z" uid="722137" user="OSMF Redaction Account" changeset="12259372" lat="52.4395081" lon="16.9577661"/>
  <node id="458510143" version="2" timestamp="2012-07-17T07:21:29Z" uid="722137" user="OSMF Redaction Account" changeset="12259372" lat="52.4401154" lon="16.9558474"/>
</osm>
