<?xml version='1.0' encoding='UTF-8'?>
<osm version="0.6" generator="libosmium/2.20.0">
  <node id="460085659" version="1" timestamp="2009-08-09T23:17:46Z" uid="123700" user="Mala" changeset="2091929" lat="52.2515899" lon="21.0081977">
    <tag k="addr:housenumber" v="18/20"/>
    <tag k="addr:street" v="Freta"/>
    <tag k="amenity" v="restaurant"/>
    <tag k="cuisine" v="asian"/>
    <tag k="name" v="Hoang Kim"/>
  </node>
  <node id="460085662" version="1" timestamp="2009-08-09T23:17:46Z" uid="123700" user="Mala" changeset="2091929" lat="52.2515588" lon="21.0082211">
    <tag k="amenity" v="post_box"/>
  </node>
  <node id="460085665" version="1" timestamp="2009-08-09T23:17:46Z" uid="123700" user="Mala" changeset="2091929" lat="52.2515392" lon="21.0082615">
    <tag k="amenity" v="cafe"/>
    <tag k="name" v="Belle Epoque"/>
    <tag k="note" v="also a gallery"/>
  </node>
  <node id="460085668" version="1" timestamp="2009-08-09T23:17:46Z" uid="123700" user="Mala" changeset="2091929" lat="52.2515171" lon="21.0083062">
    <tag k="addr:housenumber" v="16"/>
    <tag k="addr:street" v="Freta"/>
    <tag k="amenity" v="arts_centre"/>
    <tag k="name" v="Galeria Ex Oriente"/>
  </node>
  <node id="460085672" version="1" timestamp="2009-08-09T23:17:46Z" uid="123700" user="Mala" changeset="2091929" lat="52.2515229" lon="21.008319">
    <tag k="addr:housenumber" v="16"/>
    <tag k="addr:street" v="Freta"/>
    <tag k="amenity" v="public_building"/>
    <tag k="name" v="Polskie Towarzystwo Chemiczne"/>
  </node>
  <node id="460085675" version="1" timestamp="2009-08-09T23:17:46Z" uid="123700" user="Mala" changeset="2091929" lat="52.2514845" lon="21.0083445">
    <tag k="addr:housenumber" v="14"/>
    <tag k="addr:street" v="Freta"/>
    <tag k="amenity" v="arts_centre"/>
    <tag k="name" v="Galeria Opera"/>
  </node>
  <node id="460085678" version="1" timestamp="2009-08-09T23:17:46Z" uid="123700" user="Mala" changeset="2091929" lat="52.2514428" lon="21.0084041">
    <tag k="addr:housenumber" v="12"/>
    <tag k="addr:street" v="Freta"/>
    <tag k="amenity" v="restaurant"/>
    <tag k="cuisine" v="italian"/>
    <tag k="name" v="Pepe Pizza"/>
  </node>
  <node id="460085682" version="1" timestamp="2009-08-09T23:17:46Z" uid="123700" user="Mala" changeset="2091929" lat="52.2509028" lon="21.0092046">
    <tag k="addr:housenumber" v="10"/>
    <tag k="addr:street" v="Freta"/>
    <tag k="amenity" v="cafe"/>
    <tag k="name" v="To Lubię"/>
  </node>
  <node id="460085682" version="2" timestamp="2011-11-03T16:57:34Z" uid="91056" user="Yarl" changeset="9731777" lat="52.2509553" lon="21.0091984">
    <tag k="addr:housenumber" v="10"/>
    <tag k="addr:street" v="Freta"/>
    <tag k="amenity" v="cafe"/>
    <tag k="name" v="To Lubię"/>
  </node>
  <node id="460085686" version="1" timestamp="2009-08-09T23:17:46Z" uid="123700" user="Mala" changeset="2091929" lat="52.2508488" lon="21.0093137">
    <tag k="name" v="Pożegnanie z Afryką"/>
    <tag k="shop" v="coffee"/>
  </node>
  <node id="460085686" version="2" timestamp="2011-11-03T16:57:34Z" uid="91056" user="Yarl" changeset="9731777" lat="52.2509013" lon="21.0093075">
    <tag k="name" v="Pożegnanie z Afryką"/>
    <tag k="shop" v="coffee"/>
  </node>
  <node id="460085689" version="1" timestamp="2009-08-09T23:17:47Z" uid="123700" user="Mala" changeset="2091929" lat="52.250809" lon="21.0093994">
    <tag k="addr:housenumber" v="4/6"/>
    <tag k="addr:street" v="Freta"/>
    <tag k="amenity" v="restaurant"/>
    <tag k="cuisine" v="local"/>
    <tag k="name" v="U Pana Michała"/>
  </node>
  <node id="460085689" version="2" timestamp="2009-08-12T20:29:08Z" uid="31231" user="Andre68" changeset="2123801" lat="52.250809" lon="21.0093994">
    <tag k="addr:housenumber" v="4/6"/>
    <tag k="addr:street" v="Freta"/>
    <tag k="amenity" v="restaurant"/>
    <tag k="cuisine" v="regional"/>
    <tag k="name" v="U Pana Michała"/>
  </node>
  <node id="460085689" version="3" timestamp="2011-11-03T16:57:34Z" uid="91056" user="Yarl" changeset="9731777" lat="52.2508615" lon="21.0093932">
    <tag k="addr:housenumber" v="4/6"/>
    <tag k="addr:street" v="Freta"/>
    <tag k="amenity" v="restaurant"/>
    <tag k="cuisine" v="regional"/>
    <tag k="name" v="U Pana Michała"/>
  </node>
  <node id="460085695" version="1" timestamp="2009-08-09T23:17:47Z" uid="123700" user="Mala" changeset="2091929" lat="52.2507645" lon="21.0094774">
    <tag k="addr:housenumber" v="2"/>
    <tag k="addr:street" v="Freta"/>
    <tag k="amenity" v="cafe"/>
    <tag k="name" v="Con Piacere"/>
    <tag k="shop" v="icecream"/>
  </node>
  <node id="460085695" version="2" timestamp="2010-02-28T11:57:25Z" uid="74224" user="gkai" changeset="3997061" lat="52.2507645" lon="21.0094774">
    <tag k="addr:housenumber" v="2"/>
    <tag k="addr:street" v="Freta"/>
    <tag k="amenity" v="cafe"/>
    <tag k="name" v="Con Piacere"/>
    <tag k="shop" v="ice_cream"/>
  </node>
  <node id="460085695" version="3" timestamp="2011-11-03T16:57:34Z" uid="91056" user="Yarl" changeset="9731777" lat="52.2507492" lon="21.0096816">
    <tag k="addr:housenumber" v="2"/>
    <tag k="addr:street" v="Freta"/>
    <tag k="amenity" v="cafe"/>
    <tag k="name" v="Con Piacere"/>
    <tag k="shop" v="ice_cream"/>
  </node>
  <node id="460089857" version="2" timestamp="2010-07-22T10:09:49Z" uid="115477" user="wowik" changeset="5285840" lat="56.0873144" lon="37.0905413"/>
  <node id="460089857" version="3" timestamp="2012-04-07T08:39:14Z" uid="417178" user="Medoff" changeset="11210469" lat="56.0873144" lon="37.0905413"/>
  <node id="460089857" version="4" timestamp="2012-07-20T17:14:18Z" uid="722137" user="OSMF Redaction Account" changeset="12384877" lat="56.0873185" lon="37.09066"/>
</osm>
