<?xml version='1.0' encoding='UTF-8'?>
<osm version="0.6" generator="libosmium/2.20.0">
  <node id="460072766" version="1" timestamp="2009-08-09T23:13:44Z" uid="20587" user="balrog-kun" changeset="2091910" lat="52.2485509" lon="21.0070724">
    <tag k="amenity" v="university"/>
    <tag k="name" v="Akademia Muzyczna"/>
  </node>
  <node id="460072766" version="2" timestamp="2009-09-15T13:36:55Z" uid="172736" user="JPool" changeset="2492692" lat="52.2485548" lon="21.0070666">
    <tag k="amenity" v="university"/>
    <tag k="name" v="Państwowa Wyższa Szkoła Teatralna"/>
  </node>
  <node id="460072766" version="3" timestamp="2011-11-03T16:33:43Z" uid="91056" user="Yarl" changeset="9731777" lat="52.2485548" lon="21.0070666"/>
  <node id="460072769" version="1" timestamp="2009-08-09T23:13:44Z" uid="20587" user="balrog-kun" changeset="2091910" lat="52.2483887" lon="21.0062542">
    <tag k="name" v="Społem"/>
    <tag k="operator" v="Społem"/>
    <tag k="shop" v="supermarket"/>
  </node>
  <node id="460072773" version="1" timestamp="2009-08-09T23:13:44Z" uid="20587" user="balrog-kun" changeset="2091910" lat="52.2481705" lon="21.0068393">
    <tag k="amenity" v="bank"/>
    <tag k="name" v="Polbank EFG"/>
    <tag k="operator" v="Polbank EFG"/>
  </node>
  <node id="460072776" version="1" timestamp="2009-08-09T23:13:44Z" uid="20587" user="balrog-kun" changeset="2091910" lat="52.2474155" lon="21.0096211">
    <tag k="amenity" v="restaurant"/>
    <tag k="name" v="Honoratka"/>
  </node>
  <node id="460072776" version="2" timestamp="2011-11-03T16:33:39Z" uid="91056" user="Yarl" changeset="9731777" lat="52.247394" lon="21.0095655">
    <tag k="amenity" v="restaurant"/>
    <tag k="name" v="Honoratka"/>
  </node>
  <node id="460072780" version="1" timestamp="2009-08-09T23:13:44Z" uid="20587" user="balrog-kun" changeset="2091910" lat="52.247725" lon="21.0092337">
    <tag k="amenity" v="place_of_worship"/>
    <tag k="denomination" v="orthodox"/>
    <tag k="name" v="Cerkiew i Klasztor Ojców Bazylianów"/>
    <tag k="religion" v="christian"/>
  </node>
  <node id="460072780" version="2" timestamp="2010-04-24T20:24:38Z" uid="274081" user="smyrwa" changeset="4515630" lat="52.247725" lon="21.0092337">
    <tag k="amenity" v="place_of_worship"/>
    <tag k="denomination" v="catholic (greek catholic)"/>
    <tag k="name" v="Cerkiew i Klasztor Ojców Bazylianów"/>
    <tag k="religion" v="christian"/>
  </node>
  <node id="460072780" version="3" timestamp="2011-11-03T16:33:43Z" uid="91056" user="Yarl" changeset="9731777" lat="52.247725" lon="21.0092337"/>
  <node id="460072783" version="1" timestamp="2009-08-09T23:13:45Z" uid="20587" user="balrog-kun" changeset="2091910" lat="52.247249" lon="21.0103461">
    <tag k="addr:housenumber" v="12"/>
    <tag k="addr:street" v="Miodowa"/>
  </node>
  <node id="460072783" version="2" timestamp="2011-11-03T18:02:25Z" uid="91056" user="Yarl" changeset="9732479" lat="52.2472213" lon="21.0101575">
    <tag k="addr:housenumber" v="12"/>
    <tag k="addr:street" v="Miodowa"/>
  </node>
  <node id="460072786" version="1" timestamp="2009-08-09T23:13:45Z" uid="20587" user="balrog-kun" changeset="2091910" lat="52.2470641" lon="21.0108321">
    <tag k="addr:housenumber" v="10"/>
    <tag k="addr:street" v="Miodowa"/>
    <tag k="castle_type" v="palace"/>
    <tag k="historic" v="castle"/>
    <tag k="name" v="Pałac Młodziejowskiego"/>
  </node>
  <node id="460072786" version="2" timestamp="2011-11-03T18:02:30Z" uid="91056" user="Yarl" changeset="9732479" lat="52.2470641" lon="21.0108321"/>
  <node id="460072792" version="1" timestamp="2009-08-09T23:13:45Z" uid="20587" user="balrog-kun" changeset="2091910" lat="52.2468717" lon="21.0113416">
    <tag k="addr:housenumber" v="6/8"/>
    <tag k="addr:street" v="Miodowa"/>
    <tag k="castle_type" v="palace"/>
    <tag k="historic" v="castle"/>
    <tag k="name" v="Pałac Branickich"/>
  </node>
  <node id="460072792" version="2" timestamp="2011-11-03T18:02:30Z" uid="91056" user="Yarl" changeset="9732479" lat="52.2468717" lon="21.0113416"/>
  <node id="460072796" version="1" timestamp="2009-08-09T23:13:45Z" uid="20587" user="balrog-kun" changeset="2091910" lat="52.2472326" lon="21.0102122">
    <tag k="name" v="Blikle"/>
    <tag k="operator" v="Blikle"/>
    <tag k="shop" v="confectionery"/>
  </node>
  <node id="460072796" version="2" timestamp="2011-11-03T18:02:25Z" uid="91056" user="Yarl" changeset="9732479" lat="52.2471763" lon="21.0101171">
    <tag k="name" v="Blikle"/>
    <tag k="operator" v="Blikle"/>
    <tag k="shop" v="confectionery"/>
  </node>
  <node id="460072798" version="1" timestamp="2009-08-09T23:13:45Z" uid="20587" user="balrog-kun" changeset="2091910" lat="52.247122" lon="21.0104769">
    <tag k="name" v="Księgarnia PWN"/>
    <tag k="operator" v="PWN"/>
    <tag k="shop" v="books"/>
  </node>
  <node id="460072798" version="2" timestamp="2010-04-24T20:10:31Z" uid="274081" user="smyrwa" changeset="4515132" lat="52.247122" lon="21.0104769">
    <tag k="name" v="Księgarnia PWN"/>
    <tag k="operator" v="PWN"/>
    <tag k="shop" v="books"/>
  </node>
  <node id="460072798" version="3" timestamp="2011-11-03T18:02:25Z" uid="91056" user="Yarl" changeset="9732479" lat="52.2471258" lon="21.0102992">
    <tag k="name" v="Księgarnia PWN"/>
    <tag k="operator" v="PWN"/>
    <tag k="shop" v="books"/>
  </node>
  <node id="460072803" version="1" timestamp="2009-08-09T23:13:45Z" uid="20587" user="balrog-kun" changeset="2091910" lat="52.2469676" lon="21.0110863">
    <tag k="castle_type" v="palace"/>
    <tag k="historic" v="castle"/>
    <tag k="name" v="Pałac Szaniawskich"/>
  </node>
  <node id="460072803" version="2" timestamp="2011-11-03T18:02:30Z" uid="91056" user="Yarl" changeset="9732479" lat="52.2469676" lon="21.0110863"/>
  <node id="460072806" version="1" timestamp="2009-08-09T23:13:45Z" uid="20587" user="balrog-kun" changeset="2091910" lat="52.2468183" lon="21.011288">
    <tag k="amenity" v="public_building"/>
    <tag k="name" v="Urząd Miasta;Punkt Informacyjny Urzędu Miasta"/>
  </node>
  <node id="460072806" version="2" timestamp="2011-11-03T18:02:26Z" uid="91056" user="Yarl" changeset="9732479" lat="52.2468116" lon="21.0113893">
    <tag k="amenity" v="public_building"/>
    <tag k="name" v="Urząd Miasta;Punkt Informacyjny Urzędu Miasta"/>
  </node>
  <node id="460072809" version="1" timestamp="2009-08-09T23:13:45Z" uid="20587" user="balrog-kun" changeset="2091910" lat="52.2440678" lon="21.0135125">
    <tag k="amenity" v="theatre"/>
    <tag k="name" v="Teatr Redakcja"/>
  </node>
  <node id="460072812" version="1" timestamp="2009-08-09T23:13:45Z" uid="20587" user="balrog-kun" changeset="2091910" lat="52.2444108" lon="21.0133908">
    <tag k="amenity" v="public_building"/>
    <tag k="name" v="Polski Rejestr Statków"/>
  </node>
  <node id="460072815" version="1" timestamp="2009-08-09T23:13:45Z" uid="20587" user="balrog-kun" changeset="2091910" lat="52.2363597" lon="21.0178973">
    <tag k="name" v="Księgarnia Amerykańska"/>
    <tag k="name:en" v="American Bookshop"/>
    <tag k="shop" v="books"/>
  </node>
  <node id="460072819" version="1" timestamp="2009-08-09T23:13:45Z" uid="20587" user="balrog-kun" changeset="2091910" lat="52.2410117" lon="21.0157074">
    <tag k="amenity" v="restaurant"/>
    <tag k="cuisine" v="regional"/>
    <tag k="name" v="Przysmaki Warszawy"/>
  </node>
  <node id="460072822" version="1" timestamp="2009-08-09T23:13:45Z" uid="20587" user="balrog-kun" changeset="2091910" lat="52.2411125" lon="21.0156368">
    <tag k="amenity" v="bar"/>
    <tag k="name" v="Sklep z Kanapkami"/>
  </node>
  <node id="460072827" version="1" timestamp="2009-08-09T23:13:45Z" uid="20587" user="balrog-kun" changeset="2091910" lat="52.2405023" lon="21.0160335">
    <tag k="amenity" v="restaurant"/>
    <tag k="cuisine" v="beer"/>
    <tag k="name" v="BroWarmia Królewska"/>
  </node>
  <node id="460072827" version="2" timestamp="2010-07-22T11:15:11Z" uid="20587" user="balrog-kun" changeset="5286330" lat="52.2405023" lon="21.0160335">
    <tag k="amenity" v="restaurant"/>
    <tag k="cuisine" v="beer"/>
    <tag k="microbrewery" v="yes"/>
    <tag k="name" v="BroWarmia Królewska"/>
  </node>
  <node id="460078651" version="2" timestamp="2009-10-26T15:56:15Z" uid="157412" user="Leopold" changeset="2957322" lat="49.9772943" lon="6.5186142">
    <tag k="amenity" v="school"/>
    <tag k="name" v="Grund- , Haupt- und Realschule St.-Matthias"/>
  </node>
  <node id="460078651" version="3" timestamp="2009-10-26T15:57:50Z" uid="157412" user="Leopold" changeset="2957322" lat="49.9775317" lon="6.5176272">
    <tag k="amenity" v="school"/>
    <tag k="name" v="Grund- , Haupt- und Realschule St.-Matthias"/>
  </node>
  <node id="460078651" version="4" timestamp="2009-10-26T15:58:39Z" uid="157412" user="Leopold" changeset="2957322" lat="49.9778187" lon="6.5176615">
    <tag k="amenity" v="school"/>
    <tag k="name" v="St. Matthias Grundschule"/>
  </node>
  <node id="460072809" version="2" timestamp="2012-09-06T19:48:37Z" uid="842685" user="ancymon" changeset="13014743" lat="52.2440678" lon="21.0135125">
    <tag k="addr:housenumber" v="3/5"/>
    <tag k="addr:street" v="Kozia"/>
    <tag k="amenity" v="theatre"/>
    <tag k="name" v="Teatr Redakcja"/>
  </node>
  <node id="460072812" version="2" timestamp="2012-09-06T19:48:38Z" uid="842685" user="ancymon" changeset="13014743" lat="52.2444108" lon="21.0133908">
    <tag k="addr:housenumber" v="7"/>
    <tag k="addr:street" v="Kozia"/>
    <tag k="amenity" v="public_building"/>
    <tag k="name" v="Polski Rejestr Statków"/>
  </node>
  <node id="460072815" version="2" timestamp="2012-09-06T21:05:16Z" uid="842685" user="ancymon" changeset="13015810" lat="52.2363597" lon="21.0178973">
    <tag k="addr:housenumber" v="59"/>
    <tag k="addr:street" v="Nowy Świat"/>
    <tag k="name" v="Księgarnia Amerykańska"/>
    <tag k="name:en" v="American Bookshop"/>
    <tag k="shop" v="books"/>
  </node>
  <node id="460072819" version="2" timestamp="2012-09-06T19:48:38Z" uid="842685" user="ancymon" changeset="13014743" lat="52.2410117" lon="21.0157074">
    <tag k="addr:housenumber" v="11"/>
    <tag k="addr:street" v="Krakowskie Przedmieście"/>
    <tag k="amenity" v="restaurant"/>
    <tag k="cuisine" v="regional"/>
    <tag k="name" v="Przysmaki Warszawy"/>
  </node>
  <node id="460072822" version="2" timestamp="2012-09-06T19:48:38Z" uid="842685" user="ancymon" changeset="13014743" lat="52.2411125" lon="21.0156368">
    <tag k="addr:housenumber" v="11"/>
    <tag k="addr:street" v="Krakowskie Przedmieście"/>
    <tag k="amenity" v="bar"/>
    <tag k="name" v="Sklep z Kanapkami"/>
  </node>
  <node id="460072827" version="3" timestamp="2012-09-06T19:48:38Z" uid="842685" user="ancymon" changeset="13014743" lat="52.2405023" lon="21.0160335">
    <tag k="addr:housenumber" v="1/7"/>
    <tag k="addr:street" v="Królewska"/>
    <tag k="amenity" v="restaurant"/>
    <tag k="cuisine" v="beer"/>
    <tag k="microbrewery" v="yes"/>
    <tag k="name" v="BroWarmia Królewska"/>
  </node>
  <node id="460078651" version="5" timestamp="2012-07-16T23:54:49Z" uid="722137" user="OSMF Redaction Account" changeset="12253772" lat="49.9772912" lon="6.5186059">
    <tag k="amenity" v="school"/>
    <tag k="name" v="Grund- und Realschule St.-Matthias"/>
  </node>
</osm>
