<?xml version='1.0' encoding='UTF-8'?>
<osm version="0.6" generator="libosmium/2.20.0">
  <node id="461820125" version="2" timestamp="2010-04-18T13:52:32Z" uid="4467" user="Rosscoe" changeset="4458081" lat="-32.0073569" lon="115.7607156"/>
  <node id="461820125" version="3" timestamp="2010-10-01T12:33:48Z" uid="134344" user="Andrew Gregory" changeset="5927648" lat="-32.0073553" lon="115.7607172"/>
  <node id="461820126" version="2" timestamp="2010-04-18T13:52:32Z" uid="4467" user="Rosscoe" changeset="4458081" lat="-32.0073387" lon="115.7608725"/>
  <node id="461820126" version="3" timestamp="2010-10-01T12:33:48Z" uid="134344" user="Andrew Gregory" changeset="5927648" lat="-32.0073399" lon="115.7608745"/>
  <node id="461820127" version="3" timestamp="2010-04-18T13:52:32Z" uid="4467" user="Rosscoe" changeset="4458081" lat="-32.0072238" lon="115.7607094"/>
  <node id="461820127" version="4" timestamp="2010-10-01T12:33:48Z" uid="134344" user="Andrew Gregory" changeset="5927648" lat="-32.0072238" lon="115.7607093"/>
  <node id="461820128" version="2" timestamp="2010-04-18T13:52:32Z" uid="4467" user="Rosscoe" changeset="4458081" lat="-32.0072163" lon="115.7608579"/>
  <node id="461820128" version="3" timestamp="2010-10-01T12:33:49Z" uid="134344" user="Andrew Gregory" changeset="5927648" lat="-32.0072169" lon="115.7608573"/>
  <node id="461821858" version="3" timestamp="2009-09-01T12:09:13Z" uid="36809" user="pfoten_weg_!_" changeset="2336869" lat="48.1359806" lon="11.6093294">
    <tag k="bus_routes" v="54"/>
    <tag k="highway" v="bus_stop"/>
    <tag k="name" v="Grillparzerstraße"/>
    <tag k="operator" v="Münchner Verkehrsgesellschaft mbH"/>
    <tag k="shelter" v="yes"/>
    <tag k="website" v="http://www.mvg-mobil.de"/>
  </node>
  <node id="461821858" version="4" timestamp="2009-09-06T14:29:03Z" uid="107037" user="ulfm" changeset="2391762" lat="48.1359748" lon="11.6092181">
    <tag k="bus_routes" v="54, 100"/>
    <tag k="highway" v="bus_stop"/>
    <tag k="name" v="Grillparzerstraße"/>
    <tag k="operator" v="Münchner Verkehrsgesellschaft mbH"/>
    <tag k="shelter" v="yes"/>
    <tag k="website" v="http://www.mvg-mobil.de"/>
  </node>
  <node id="461821858" version="5" timestamp="2009-09-19T06:33:07Z" uid="70260" user="user18" changeset="2530651" lat="48.1359705" lon="11.6092228">
    <tag k="bus_routes" v="54, 100, 9410 RVO"/>
    <tag k="highway" v="bus_stop"/>
    <tag k="name" v="Grillparzerstraße"/>
    <tag k="operator" v="Münchner Verkehrsgesellschaft mbH"/>
    <tag k="shelter" v="yes"/>
    <tag k="website" v="http://www.mvg-mobil.de"/>
  </node>
  <node id="461821858" version="6" timestamp="2010-05-15T14:58:28Z" uid="8748" user="ToniE" changeset="4707026" lat="48.1359681" lon="11.6091726">
    <tag k="bench" v="yes"/>
    <tag k="bin" v="yes"/>
    <tag k="bus" v="yes"/>
    <tag k="bus_routes" v="54,100,9410 RVO"/>
    <tag k="highway" v="bus_stop"/>
    <tag k="name" v="Grillparzerstraße"/>
    <tag k="operator" v="Münchner Verkehrsgesellschaft mbH"/>
    <tag k="public_transport" v="platform"/>
    <tag k="ref" v="54,199,9410 RVO"/>
    <tag k="shelter" v="yes"/>
    <tag k="website" v="http://www.mvg-mobil.de"/>
  </node>
  <node id="461821858" version="7" timestamp="2010-08-28T21:19:10Z" uid="64536" user="Michael Forster" changeset="5620501" lat="48.1359681" lon="11.6091726">
    <tag k="bench" v="yes"/>
    <tag k="bin" v="yes"/>
    <tag k="bus" v="yes"/>
    <tag k="bus_routes" v="54,100,9410 RVO"/>
    <tag k="highway" v="bus_stop"/>
    <tag k="name" v="Grillparzerstraße"/>
    <tag k="network" v="MVV"/>
    <tag k="operator" v="MVG"/>
    <tag k="public_transport" v="platform"/>
    <tag k="ref" v="54,199,9410 RVO"/>
    <tag k="shelter" v="yes"/>
    <tag k="website" v="http://www.mvv-muenchen.de"/>
  </node>
  <node id="461821858" version="8" timestamp="2010-11-22T17:20:25Z" uid="290680" user="wheelmap_visitor" changeset="6429292" lat="48.1359681" lon="11.6091726">
    <tag k="bench" v="yes"/>
    <tag k="bin" v="yes"/>
    <tag k="bus" v="yes"/>
    <tag k="bus_routes" v="54,100,9410 RVO"/>
    <tag k="highway" v="bus_stop"/>
    <tag k="name" v="Grillparzerstraße"/>
    <tag k="network" v="MVV"/>
    <tag k="operator" v="MVG"/>
    <tag k="public_transport" v="platform"/>
    <tag k="ref" v="54,199,9410 RVO"/>
    <tag k="shelter" v="yes"/>
    <tag k="website" v="http://www.mvv-muenchen.de"/>
    <tag k="wheelchair" v="yes"/>
  </node>
  <node id="461821858" version="9" timestamp="2011-05-02T00:06:10Z" uid="64536" user="Michael Forster" changeset="8027132" lat="48.1359681" lon="11.6091726">
    <tag k="bench" v="yes"/>
    <tag k="bin" v="yes"/>
    <tag k="bus" v="yes"/>
    <tag k="highway" v="bus_stop"/>
    <tag k="name" v="Grillparzerstraße"/>
    <tag k="public_transport" v="platform"/>
    <tag k="shelter" v="yes"/>
    <tag k="wheelchair" v="yes"/>
  </node>
  <node id="461821858" version="10" timestamp="2011-05-11T20:54:25Z" uid="64536" user="Michael Forster" changeset="8116509" lat="48.1359681" lon="11.6091726">
    <tag k="bench" v="yes"/>
    <tag k="bin" v="yes"/>
    <tag k="highway" v="platform"/>
    <tag k="name" v="Grillparzerstraße"/>
    <tag k="public_transport" v="platform"/>
    <tag k="shelter" v="yes"/>
    <tag k="wheelchair" v="yes"/>
  </node>
  <node id="461821858" version="11" timestamp="2012-01-06T15:09:22Z" uid="6367" user="mackerski" changeset="10312454" lat="48.1359681" lon="11.6091726">
    <tag k="bench" v="yes"/>
    <tag k="bin" v="yes"/>
    <tag k="name" v="Grillparzerstraße"/>
    <tag k="public_transport" v="platform"/>
    <tag k="shelter" v="yes"/>
    <tag k="wheelchair" v="yes"/>
  </node>
  <node id="461821858" version="12" timestamp="2012-03-22T20:42:37Z" uid="64164" user="osmkurt" changeset="11067297" lat="48.1359681" lon="11.6091726">
    <tag k="bench" v="yes"/>
    <tag k="bin" v="yes"/>
    <tag k="highway" v="bus_stop"/>
    <tag k="name" v="Grillparzerstraße"/>
    <tag k="public_transport" v="platform"/>
    <tag k="shelter" v="yes"/>
    <tag k="wheelchair" v="yes"/>
  </node>
  <node id="461821858" version="13" timestamp="2012-03-24T13:58:43Z" uid="64536" user="Michael Forster" changeset="11084595" lat="48.1359681" lon="11.6091726">
    <tag k="bench" v="yes"/>
    <tag k="bin" v="yes"/>
    <tag k="name" v="Grillparzerstraße"/>
    <tag k="public_transport" v="platform"/>
    <tag k="shelter" v="yes"/>
    <tag k="wheelchair" v="yes"/>
  </node>
  <node id="461820127" version="5" timestamp="2012-07-19T17:00:46Z" uid="722137" user="OSMF Redaction Account" changeset="12341071" lat="-32.00723" lon="115.7607165"/>
  <node id="461821858" version="14" timestamp="2012-07-28T23:00:52Z" uid="64536" user="Michael Forster" changeset="12529334" lat="48.1359681" lon="11.6091726">
    <tag k="bench" v="yes"/>
    <tag k="bin" v="yes"/>
    <tag k="highway" v="platform"/>
    <tag k="name" v="Grillparzerstraße"/>
    <tag k="public_transport" v="platform"/>
    <tag k="shelter" v="yes"/>
    <tag k="wheelchair" v="yes"/>
  </node>
</osm>
