<?xml version='1.0' encoding='UTF-8'?>
<osm version="0.6" generator="libosmium/2.20.0">
  <node id="462741344" version="2" timestamp="2010-06-01T18:46:50Z" uid="10712" user="Kraeml" changeset="4877258" lat="59.3186909" lon="11.9047548">
    <tag k="name" v="Bookshandel"/>
    <tag k="shop" v="supermarket"/>
  </node>
  <node id="462741344" version="3" timestamp="2011-08-11T10:22:55Z" uid="66391" user="geozeisig" changeset="8984091" lat="59.3186909" lon="11.9047548">
    <tag k="name" v="Brukshandel"/>
    <tag k="shop" v="supermarket"/>
  </node>
  <node id="462744252" version="2" timestamp="2010-06-01T06:34:20Z" uid="10712" user="Kraeml" changeset="4872052" lat="59.3260333" lon="11.8935706"/>
  <node id="462746968" version="3" timestamp="2010-07-29T09:38:07Z" uid="74617" user="JohnSmith" changeset="5344848" lat="48.7640789" lon="8.9877233">
    <tag k="amenity" v="emergency_phone"/>
    <tag k="emergency" v="phone"/>
    <tag k="operator" v="Volksbank"/>
  </node>
  <node id="462747413" version="3" timestamp="2009-09-30T23:36:21Z" uid="86259" user="hasse_osm_korinthenkacker" changeset="2694823" lat="48.1134815" lon="11.5136659">
    <tag k="highway" v="bus_stop"/>
    <tag k="name" v="Ettalstraße"/>
  </node>
  <node id="462747413" version="4" timestamp="2010-01-19T13:38:12Z" uid="152463" user="jgranig" changeset="3658852" lat="48.1134525" lon="11.514071">
    <tag k="highway" v="bus_stop"/>
    <tag k="name" v="Ettalstraße"/>
  </node>
  <node id="462747413" version="5" timestamp="2010-06-04T22:40:19Z" uid="46472" user="sendelhorst" changeset="4904996" lat="48.1133904" lon="11.5140214">
    <tag k="highway" v="bus_stop"/>
    <tag k="name" v="Ettalstraße"/>
  </node>
  <node id="462747413" version="6" timestamp="2010-06-04T23:33:07Z" uid="46472" user="sendelhorst" changeset="4905210" lat="48.1133904" lon="11.5140214">
    <tag k="bench" v="yes"/>
    <tag k="bus_routes" v="54;N41"/>
    <tag k="highway" v="bus_stop"/>
    <tag k="name" v="Ettalstraße"/>
    <tag k="shelter" v="yes"/>
  </node>
  <node id="462747413" version="7" timestamp="2010-08-13T03:01:32Z" uid="46472" user="sendelhorst" changeset="5478415" lat="48.1133904" lon="11.5140214">
    <tag k="bench" v="yes"/>
    <tag k="bus_routes" v="54,N41"/>
    <tag k="highway" v="bus_stop"/>
    <tag k="name" v="Ettalstraße"/>
    <tag k="network" v="MVV"/>
    <tag k="operator" v="MVG"/>
    <tag k="ref" v="54,N41"/>
    <tag k="shelter" v="yes"/>
    <tag k="website:official" v="http://www.mvv-muenchen.de"/>
  </node>
  <node id="462748195" version="2" timestamp="2010-05-16T00:02:22Z" uid="74617" user="JohnSmith" changeset="4711569" lat="-33.3822372" lon="151.3700606">
    <tag k="name" v="Lisarow Railway Station"/>
    <tag k="railway" v="station"/>
  </node>
  <node id="462748195" version="3" timestamp="2011-04-30T23:29:53Z" uid="46482" user="Leon K" changeset="8016891" lat="-33.3822372" lon="151.3700606">
    <tag k="name" v="Lisarow"/>
    <tag k="railway" v="station"/>
  </node>
  <node id="462741344" version="4" timestamp="2012-06-25T17:40:47Z" uid="102899" user="stw1701" changeset="12014248" lat="59.3186487" lon="11.9046432">
    <tag k="name" v="Brukshandel"/>
    <tag k="shop" v="supermarket"/>
  </node>
  <node id="462744252" version="3" timestamp="2012-07-17T13:20:58Z" uid="722137" user="OSMF Redaction Account" changeset="12266392" lat="59.3260611" lon="11.8938426"/>
  <node id="462744252" version="4" timestamp="2012-08-20T20:54:07Z" uid="351532" user="tothod" changeset="12801241" lat="59.3260611" lon="11.8938426"/>
  <node id="462746968" version="4" timestamp="2012-07-19T14:23:02Z" uid="722137" user="OSMF Redaction Account" changeset="12331260" lat="48.7640789" lon="8.9877233">
    <tag k="amenity" v="emergency_phone"/>
    <tag k="operator" v="Volksbank"/>
  </node>
  <node id="462747413" version="8" timestamp="2012-07-28T23:00:50Z" uid="64536" user="Michael Forster" changeset="12529334" lat="48.1133537" lon="11.5141639">
    <tag k="bench" v="yes"/>
    <tag k="highway" v="platform"/>
    <tag k="name" v="Ettalstraße"/>
    <tag k="public_transport" v="platform"/>
    <tag k="shelter" v="yes"/>
  </node>
  <node id="462748195" version="4" timestamp="2012-06-07T23:40:12Z" uid="320632" user="Zulu99" changeset="11830970" lat="-33.3822372" lon="151.3700606">
    <tag k="name" v="Lisarow"/>
    <tag k="operator" v="CityLink"/>
    <tag k="public_transport" v="station"/>
    <tag k="railway" v="station"/>
  </node>
  <node id="462748195" version="5" timestamp="2012-07-19T14:12:49Z" uid="722137" user="OSMF Redaction Account" changeset="12331038" lat="-33.3823756" lon="151.3699205">
    <tag k="name" v="Lisarow"/>
    <tag k="operator" v="CityLink"/>
    <tag k="public_transport" v="station"/>
    <tag k="railway" v="station"/>
  </node>
  <node id="462748195" version="6" timestamp="2012-08-20T03:15:52Z" uid="320632" user="Zulu99" changeset="12790904" lat="-33.3823756" lon="151.3699205">
    <tag k="name" v="Lisarow"/>
    <tag k="operator" v="CityRail"/>
    <tag k="public_transport" v="station"/>
    <tag k="railway" v="station"/>
  </node>
</osm>
