<?xml version='1.0' encoding='UTF-8'?>
<osm version="0.6" generator="libosmium/2.20.0">
  <node id="46301358" version="3" timestamp="2008-09-14T14:32:46Z" uid="6975" user="ulfl" changeset="640534" lat="52.35237" lon="4.61998">
    <tag k="AND_nodes" v="223672"/>
    <tag k="barrier" v="bollard"/>
    <tag k="source" v="AND"/>
  </node>
  <node id="46301358" version="4" timestamp="2010-03-24T21:56:22Z" uid="15252" user="Hugo_H" changeset="4225177" lat="52.3523516" lon="4.6199668">
    <tag k="AND_nodes" v="223672"/>
    <tag k="barrier" v="bollard"/>
    <tag k="source" v="AND"/>
  </node>
  <node id="46304120" version="8" timestamp="2008-07-07T19:12:40Z" uid="6975" user="ulfl" changeset="420350" lat="52.35294" lon="4.6216">
    <tag k="AND_nodes" v="223249"/>
    <tag k="is_in" v="NL"/>
    <tag k="name" v="Heemstede"/>
    <tag k="name:carnaval" v="Biggenstede"/>
    <tag k="place" v="town"/>
    <tag k="postal_code" v="2100-2106"/>
    <tag k="source" v="AND"/>
  </node>
  <node id="46304120" version="9" timestamp="2010-05-31T23:43:09Z" uid="67141" user="ligfietser" changeset="4869629" lat="52.35294" lon="4.6216">
    <tag k="AND_nodes" v="223249"/>
    <tag k="is_in" v="NL"/>
    <tag k="name" v="Heemstede"/>
    <tag k="name:carnaval" v="Biggenstede"/>
    <tag k="place" v="town"/>
    <tag k="population" v="26060"/>
    <tag k="postal_code" v="2100-2106"/>
    <tag k="source" v="AND"/>
  </node>
  <node id="46304120" version="10" timestamp="2010-08-29T07:54:22Z" uid="36790" user="stroet43" changeset="5622732" lat="52.35294" lon="4.6216">
    <tag k="AND_nodes" v="223249"/>
    <tag k="is_in" v="NL"/>
    <tag k="name" v="Heemstede"/>
    <tag k="name:carnaval" v="Biggenstede"/>
    <tag k="place" v="town"/>
    <tag k="population" v="26060"/>
    <tag k="postal_code" v="2100-2106"/>
    <tag k="source" v="AND"/>
    <tag k="url" v="www.heemstede.nl"/>
    <tag k="wikipedia" v="http://nl.wikipedia.org/wiki/Heemstede_%28Noord-Holland%29"/>
  </node>
</osm>
