<?xml version='1.0' encoding='UTF-8'?>
<osm version="0.6" generator="libosmium/2.20.0">
  <node id="463300063" version="3" timestamp="2011-03-09T12:58:10Z" uid="4467" user="Rosscoe" changeset="7503660" lat="-37.8327859" lon="144.9456645">
    <tag k="amenity" v="restaurant"/>
    <tag k="name" v="Rubira&apos;s at Swallows"/>
  </node>
  <node id="463300063" version="4" timestamp="2011-08-29T07:25:43Z" uid="3007" user="Hotwheelz" changeset="9154348" lat="-37.8327859" lon="144.9456645">
    <tag k="addr:housenumber" v="192"/>
    <tag k="addr:street" v="Station Street"/>
    <tag k="amenity" v="restaurant"/>
    <tag k="cuisine" v="seafood"/>
    <tag k="name" v="Rubira&apos;s at Swallows"/>
    <tag k="website" v="http://www.swallows.com.au/"/>
  </node>
  <node id="463300527" version="3" timestamp="2010-04-11T04:48:16Z" uid="20587" user="balrog-kun" changeset="4389130" lat="49.9076781" lon="20.1989114">
    <tag k="name" v="Gdów"/>
    <tag k="place" v="village"/>
  </node>
  <node id="463300527" version="4" timestamp="2010-04-27T04:18:43Z" uid="30632" user="antblant" changeset="4537909" lat="49.9076781" lon="20.1989114">
    <tag k="name" v="Gdów"/>
    <tag k="place" v="village"/>
    <tag k="teryt:simc" v="0317889"/>
  </node>
  <node id="463302968" version="2" timestamp="2010-04-11T04:48:16Z" uid="20587" user="balrog-kun" changeset="4389130" lat="49.4397223" lon="19.8501634">
    <tag k="name" v="Czarny Dunajec"/>
    <tag k="place" v="town"/>
  </node>
  <node id="463302968" version="3" timestamp="2010-04-27T04:15:39Z" uid="30632" user="antblant" changeset="4537896" lat="49.4397223" lon="19.8501634">
    <tag k="name" v="Czarny Dunajec"/>
    <tag k="place" v="town"/>
    <tag k="teryt:simc" v="0421629"/>
  </node>
  <node id="463302968" version="4" timestamp="2011-03-16T21:14:25Z" uid="163896" user="Zbigniew Czernik" changeset="7579793" lat="49.4404319" lon="19.8539204">
    <tag k="name" v="Czarny Dunajec"/>
    <tag k="place" v="town"/>
    <tag k="teryt:simc" v="0421629"/>
  </node>
  <node id="463302968" version="5" timestamp="2011-03-16T21:16:37Z" uid="163896" user="Zbigniew Czernik" changeset="7579793" lat="49.4404319" lon="19.8539204">
    <tag k="name" v="Czarny Dunajec"/>
    <tag k="place" v="village"/>
    <tag k="teryt:simc" v="0421629"/>
  </node>
  <node id="463302969" version="2" timestamp="2010-04-11T04:48:21Z" uid="20587" user="balrog-kun" changeset="4389130" lat="49.4786575" lon="19.6942849">
    <tag k="name" v="Jabłonka"/>
    <tag k="place" v="town"/>
  </node>
  <node id="463300063" version="5" timestamp="2012-07-19T11:54:23Z" uid="722137" user="OSMF Redaction Account" changeset="12323173" lat="-37.8326977" lon="144.9457926">
    <tag k="addr:housenumber" v="192"/>
    <tag k="addr:street" v="Station Street"/>
    <tag k="amenity" v="restaurant"/>
    <tag k="cuisine" v="seafood"/>
    <tag k="name" v="Rubira&apos;s at Swallows"/>
    <tag k="website" v="http://www.swallows.com.au/"/>
  </node>
</osm>
