<?xml version='1.0' encoding='UTF-8'?>
<osm version="0.6" generator="libosmium/2.20.0">
  <node id="463468361" version="3" timestamp="2011-03-15T09:07:14Z" uid="4467" user="Rosscoe" changeset="7564285" lat="-37.8302666" lon="144.9562354">
    <tag k="amenity" v="bar"/>
    <tag k="name" v="Kittens"/>
  </node>
  <node id="463468361" version="4" timestamp="2011-08-30T06:45:55Z" uid="3007" user="Hotwheelz" changeset="9164182" lat="-37.8302666" lon="144.9562354">
    <tag k="addr:housenumber" v="68"/>
    <tag k="addr:postcode" v="3205"/>
    <tag k="addr:street" v="Cecil Street"/>
    <tag k="amenity" v="bar"/>
    <tag k="name" v="Kittens"/>
    <tag k="website" v="www.kittens.com.au/south-melbourne.html"/>
  </node>
  <node id="463468361" version="5" timestamp="2012-07-19T11:54:27Z" uid="722137" user="OSMF Redaction Account" changeset="12323173" lat="-37.8302459" lon="144.956266">
    <tag k="addr:housenumber" v="68"/>
    <tag k="addr:postcode" v="3205"/>
    <tag k="addr:street" v="Cecil Street"/>
    <tag k="amenity" v="bar"/>
    <tag k="name" v="Kittens"/>
    <tag k="website" v="www.kittens.com.au/south-melbourne.html"/>
  </node>
</osm>
