<?xml version='1.0' encoding='UTF-8'?>
<osm version="0.6" generator="libosmium/2.20.0">
  <node id="463969896" version="2" timestamp="2010-04-11T04:48:22Z" uid="20587" user="balrog-kun" changeset="4389130" lat="52.7796496" lon="23.5401869">
    <tag k="name" v="Czyżyki"/>
    <tag k="place" v="village"/>
  </node>
  <node id="463969896" version="3" timestamp="2010-04-27T03:56:36Z" uid="30632" user="antblant" changeset="4537843" lat="52.7796496" lon="23.5401869">
    <tag k="name" v="Czyżyki"/>
    <tag k="place" v="village"/>
    <tag k="teryt:simc" v="0029541"/>
  </node>
  <node id="463969983" version="2" timestamp="2010-04-11T04:48:22Z" uid="20587" user="balrog-kun" changeset="4389130" lat="52.7714256" lon="23.6019765">
    <tag k="name" v="Dubiny"/>
    <tag k="place" v="village"/>
  </node>
  <node id="463969983" version="3" timestamp="2010-04-27T04:04:19Z" uid="30632" user="antblant" changeset="4537867" lat="52.7714256" lon="23.6019765">
    <tag k="name" v="Dubiny"/>
    <tag k="place" v="village"/>
    <tag k="teryt:simc" v="0029660"/>
  </node>
  <node id="463969983" version="4" timestamp="2012-08-04T22:15:39Z" uid="26723" user="RedLorD" changeset="12614443" lat="52.7706395" lon="23.5883262">
    <tag k="name" v="Dubiny"/>
    <tag k="place" v="village"/>
    <tag k="teryt:simc" v="0029660"/>
  </node>
</osm>
