<?xml version='1.0' encoding='UTF-8'?>
<osm version="0.6" generator="libosmium/2.20.0">
  <node id="46441363" version="5" timestamp="2010-09-17T20:15:17Z" uid="33382" user="de_muur" changeset="5806927" lat="53.107337" lon="9.1978654">
    <tag k="TMC:cid_58:tabcd_1:Class" v="Point"/>
    <tag k="TMC:cid_58:tabcd_1:Direction" v="positive"/>
    <tag k="TMC:cid_58:tabcd_1:LCLversion" v="8.00"/>
    <tag k="TMC:cid_58:tabcd_1:LocationCode" v="10122"/>
    <tag k="TMC:cid_58:tabcd_1:NextLocationCode" v="54414"/>
    <tag k="TMC:cid_58:tabcd_1:PrevLocationCode" v="10121"/>
    <tag k="highway" v="motorway_junction"/>
    <tag k="name" v="Stuckenbostel"/>
    <tag k="ref" v="50"/>
  </node>
  <node id="46441363" version="6" timestamp="2010-09-17T23:15:09Z" uid="45445" user="UScha" changeset="5808191" lat="53.1072876" lon="9.1979529">
    <tag k="TMC:cid_58:tabcd_1:Class" v="Point"/>
    <tag k="TMC:cid_58:tabcd_1:Direction" v="positive"/>
    <tag k="TMC:cid_58:tabcd_1:LCLversion" v="8.00"/>
    <tag k="TMC:cid_58:tabcd_1:LocationCode" v="10122"/>
    <tag k="TMC:cid_58:tabcd_1:NextLocationCode" v="54414"/>
    <tag k="TMC:cid_58:tabcd_1:PrevLocationCode" v="10121"/>
    <tag k="highway" v="motorway_junction"/>
    <tag k="name" v="Stuckenbostel"/>
    <tag k="ref" v="50"/>
  </node>
  <node id="46441363" version="7" timestamp="2010-10-01T08:25:45Z" uid="33382" user="de_muur" changeset="5925864" lat="53.1072741" lon="9.1978045">
    <tag k="TMC:cid_58:tabcd_1:Class" v="Point"/>
    <tag k="TMC:cid_58:tabcd_1:Direction" v="positive"/>
    <tag k="TMC:cid_58:tabcd_1:LCLversion" v="8.00"/>
    <tag k="TMC:cid_58:tabcd_1:LocationCode" v="10122"/>
    <tag k="TMC:cid_58:tabcd_1:NextLocationCode" v="54414"/>
    <tag k="TMC:cid_58:tabcd_1:PrevLocationCode" v="10121"/>
    <tag k="highway" v="motorway_junction"/>
    <tag k="name" v="Stuckenbostel"/>
    <tag k="ref" v="50"/>
  </node>
  <node id="46441363" version="8" timestamp="2011-05-02T18:37:31Z" uid="36080" user="polderrunner" changeset="8033198" lat="53.1072741" lon="9.1978045">
    <tag k="TMC:cid_58:tabcd_1:Class" v="Point"/>
    <tag k="TMC:cid_58:tabcd_1:Direction" v="positive"/>
    <tag k="TMC:cid_58:tabcd_1:LCLversion" v="8.00"/>
    <tag k="TMC:cid_58:tabcd_1:LocationCode" v="10122"/>
    <tag k="TMC:cid_58:tabcd_1:NextLocationCode" v="54414"/>
    <tag k="TMC:cid_58:tabcd_1:PrevLocationCode" v="10121"/>
    <tag k="highway" v="motorway_junction"/>
    <tag k="name" v="Stuckenborstel"/>
    <tag k="ref" v="50"/>
  </node>
  <node id="46441363" version="9" timestamp="2012-03-04T12:17:05Z" uid="45882" user="smarties" changeset="10867635" lat="53.1072741" lon="9.1978045"/>
  <node id="46441379" version="4" timestamp="2010-11-03T16:05:39Z" uid="33382" user="de_muur" changeset="6277282" lat="53.1093669" lon="9.201465"/>
  <node id="46441379" version="5" timestamp="2012-01-13T00:45:45Z" uid="45882" user="smarties" changeset="10375018" lat="53.1094032" lon="9.2014514"/>
  <node id="46441379" version="6" timestamp="2012-08-01T07:58:34Z" uid="14002" user="Gehrke" changeset="12570811" lat="53.1093232" lon="9.2013144"/>
  <node id="46441379" version="7" timestamp="2012-08-04T09:37:34Z" uid="58095" user="BudBundi" changeset="12607217" lat="53.109361" lon="9.2013092"/>
</osm>
