<?xml version='1.0' encoding='UTF-8'?>
<osm version="0.6" generator="libosmium/2.20.0">
  <node id="466222342" version="2" timestamp="2010-04-11T04:48:22Z" uid="20587" user="balrog-kun" changeset="4389130" lat="52.7161309" lon="19.1075095">
    <tag k="name" v="Fabianki"/>
    <tag k="place" v="village"/>
  </node>
  <node id="466224392" version="2" timestamp="2009-08-29T02:48:51Z" uid="20587" user="balrog-kun" changeset="2296799" lat="52.8517623" lon="19.1660992">
    <tag k="addr:postcode" v="87-600"/>
    <tag k="is_in" v="Kujawsko-Pomorskie"/>
    <tag k="name" v="Lipno"/>
    <tag k="place" v="town"/>
    <tag k="population" v="14834"/>
    <tag k="wikipedia" v="Lipno, Poland"/>
  </node>
  <node id="466224392" version="3" timestamp="2009-09-01T19:40:10Z" uid="20587" user="balrog-kun" changeset="2342129" lat="52.8517623" lon="19.1660992">
    <tag k="addr:postcode" v="87-600"/>
    <tag k="is_in" v="Kujawsko-Pomorskie"/>
    <tag k="is_in:county" v="powiat lipnowski"/>
    <tag k="is_in:municipality" v="gmina Lipno"/>
    <tag k="is_in:province" v="województwo kujawsko-pomorskie"/>
    <tag k="name" v="Lipno"/>
    <tag k="place" v="town"/>
    <tag k="population" v="14834"/>
    <tag k="teryt:terc" v="0408011"/>
    <tag k="wikipedia" v="Lipno, Poland"/>
  </node>
  <node id="466224392" version="4" timestamp="2010-04-11T04:48:22Z" uid="20587" user="balrog-kun" changeset="4389130" lat="52.8505796" lon="19.1706774">
    <tag k="addr:postcode" v="87-600"/>
    <tag k="is_in" v="Kujawsko-Pomorskie"/>
    <tag k="is_in:county" v="powiat lipnowski"/>
    <tag k="is_in:municipality" v="gmina Lipno"/>
    <tag k="is_in:province" v="województwo kujawsko-pomorskie"/>
    <tag k="name" v="Lipno"/>
    <tag k="place" v="town"/>
    <tag k="population" v="14834"/>
    <tag k="teryt:terc" v="0408011"/>
    <tag k="wikipedia" v="Lipno, Poland"/>
  </node>
  <node id="466224392" version="5" timestamp="2011-10-11T21:34:05Z" uid="467703" user="Zbigniew Czernik" changeset="9534551" lat="52.8473901" lon="19.1792654">
    <tag k="addr:postcode" v="87-600"/>
    <tag k="is_in" v="Kujawsko-Pomorskie"/>
    <tag k="is_in:county" v="powiat lipnowski"/>
    <tag k="is_in:municipality" v="gmina Lipno"/>
    <tag k="is_in:province" v="województwo kujawsko-pomorskie"/>
    <tag k="name" v="Lipno"/>
    <tag k="place" v="town"/>
    <tag k="population" v="14834"/>
    <tag k="teryt:terc" v="0408011"/>
    <tag k="wikipedia" v="Lipno, Poland"/>
  </node>
  <node id="466228486" version="1" timestamp="2009-08-14T19:26:11Z" uid="110593" user="esetzer" changeset="2146984" lat="37.6865993" lon="-113.061108">
    <tag k="created_by" v="Merkaartor 0.11"/>
  </node>
  <node id="466228486" version="2" timestamp="2011-12-29T19:26:48Z" uid="239998" user="Sundance" changeset="10238813" lat="37.6862932" lon="-113.0611854"/>
  <node id="466228505" version="1" timestamp="2009-08-14T19:26:12Z" uid="110593" user="esetzer" changeset="2146984" lat="37.6872146" lon="-113.0629103">
    <tag k="created_by" v="Merkaartor 0.11"/>
  </node>
  <node id="466228505" version="2" timestamp="2011-12-29T19:26:48Z" uid="239998" user="Sundance" changeset="10238813" lat="37.687074" lon="-113.0630257"/>
  <node id="466228531" version="1" timestamp="2009-08-14T19:26:13Z" uid="110593" user="esetzer" changeset="2146984" lat="37.6880443" lon="-113.0653015">
    <tag k="created_by" v="Merkaartor 0.11"/>
  </node>
  <node id="466228531" version="2" timestamp="2011-12-29T19:26:48Z" uid="239998" user="Sundance" changeset="10238813" lat="37.6879554" lon="-113.0653431"/>
  <node id="466228557" version="1" timestamp="2009-08-14T19:26:14Z" uid="110593" user="esetzer" changeset="2146984" lat="37.6886503" lon="-113.06688">
    <tag k="created_by" v="Merkaartor 0.11"/>
  </node>
  <node id="466228573" version="1" timestamp="2009-08-14T19:26:15Z" uid="110593" user="esetzer" changeset="2146984" lat="37.6893215" lon="-113.0684349">
    <tag k="created_by" v="Merkaartor 0.11"/>
  </node>
  <node id="466228573" version="2" timestamp="2011-12-29T19:26:48Z" uid="239998" user="Sundance" changeset="10238813" lat="37.6893947" lon="-113.0682912"/>
  <node id="466228594" version="1" timestamp="2009-08-14T19:26:15Z" uid="110593" user="esetzer" changeset="2146984" lat="37.6901979" lon="-113.0699898">
    <tag k="created_by" v="Merkaartor 0.11"/>
  </node>
  <node id="466228594" version="2" timestamp="2011-12-29T19:26:48Z" uid="239998" user="Sundance" changeset="10238813" lat="37.6901941" lon="-113.0699224"/>
  <node id="466228486" version="3" timestamp="2012-06-11T15:32:39Z" uid="78871" user="ocotillo" changeset="11865773" lat="37.6863369" lon="-113.061349"/>
  <node id="466228557" version="2" timestamp="2012-07-18T16:29:20Z" uid="722137" user="OSMF Redaction Account" changeset="12288895" lat="37.6886503" lon="-113.06688"/>
</osm>
