<?xml version='1.0' encoding='UTF-8'?>
<osm version="0.6" generator="libosmium/2.20.0">
  <node id="469982406" version="1" timestamp="2009-08-17T19:41:08Z" uid="20587" user="balrog-kun" changeset="2182444" lat="52.2396369" lon="21.0622882">
    <tag k="amenity" v="restaurant"/>
    <tag k="cuisine" v="fish"/>
    <tag k="name" v="Fregata"/>
  </node>
  <node id="469982408" version="1" timestamp="2009-08-17T19:41:08Z" uid="20587" user="balrog-kun" changeset="2182444" lat="52.2399012" lon="21.0628568">
    <tag k="shop" v="kiosk"/>
  </node>
  <node id="469982408" version="2" timestamp="2011-02-14T15:25:50Z" uid="20587" user="balrog-kun" changeset="7286624" lat="52.2399258" lon="21.0627363">
    <tag k="shop" v="kiosk"/>
  </node>
  <node id="469982409" version="1" timestamp="2009-08-17T19:41:08Z" uid="20587" user="balrog-kun" changeset="2182444" lat="52.2394832" lon="21.0633438">
    <tag k="shop" v="chemist"/>
  </node>
  <node id="469982410" version="1" timestamp="2009-08-17T19:41:08Z" uid="20587" user="balrog-kun" changeset="2182444" lat="52.2391103" lon="21.0628349">
    <tag k="amenity" v="bank"/>
    <tag k="name" v="Nordea Bank"/>
    <tag k="operator" v="Nordea Bank"/>
  </node>
  <node id="469982411" version="1" timestamp="2009-08-17T19:41:08Z" uid="20587" user="balrog-kun" changeset="2182444" lat="52.2388271" lon="21.0627317">
    <tag k="addr:housenumber" v="14"/>
    <tag k="addr:postcode" v="03-913"/>
    <tag k="addr:street" v="Angorska"/>
    <tag k="amenity" v="public_building"/>
    <tag k="name" v="Handlowa Spółdzielnia Inwalidów"/>
  </node>
  <node id="469982412" version="1" timestamp="2009-08-17T19:41:08Z" uid="20587" user="balrog-kun" changeset="2182444" lat="52.2382063" lon="21.0623143"/>
  <node id="469982413" version="1" timestamp="2009-08-17T19:41:08Z" uid="20587" user="balrog-kun" changeset="2182444" lat="52.2382682" lon="21.0626304"/>
  <node id="469982414" version="1" timestamp="2009-08-17T19:41:08Z" uid="20587" user="balrog-kun" changeset="2182444" lat="52.2367321" lon="21.0635083">
    <tag k="amenity" v="post_box"/>
  </node>
  <node id="469982415" version="1" timestamp="2009-08-17T19:41:08Z" uid="20587" user="balrog-kun" changeset="2182444" lat="52.2371105" lon="21.0628135"/>
  <node id="469982416" version="1" timestamp="2009-08-17T19:41:08Z" uid="20587" user="balrog-kun" changeset="2182444" lat="52.236871" lon="21.0617022"/>
  <node id="469982417" version="1" timestamp="2009-08-17T19:41:08Z" uid="20587" user="balrog-kun" changeset="2182444" lat="52.2364362" lon="21.0619217"/>
  <node id="469982419" version="1" timestamp="2009-08-17T19:41:08Z" uid="20587" user="balrog-kun" changeset="2182444" lat="52.2366315" lon="21.0630604"/>
  <node id="469982420" version="1" timestamp="2009-08-17T19:41:08Z" uid="20587" user="balrog-kun" changeset="2182444" lat="52.2367072" lon="21.0626317">
    <tag k="leisure" v="playground"/>
  </node>
  <node id="469982421" version="1" timestamp="2009-08-17T19:41:08Z" uid="20587" user="balrog-kun" changeset="2182444" lat="52.2363658" lon="21.0629644">
    <tag k="shop" v="greengrocer"/>
  </node>
  <node id="469982422" version="1" timestamp="2009-08-17T19:41:08Z" uid="20587" user="balrog-kun" changeset="2182444" lat="52.2363264" lon="21.06275">
    <tag k="shop" v="convenience"/>
  </node>
  <node id="469982423" version="1" timestamp="2009-08-17T19:41:08Z" uid="20587" user="balrog-kun" changeset="2182444" lat="52.2362871" lon="21.0624971">
    <tag k="shop" v="butcher"/>
  </node>
  <node id="469982424" version="1" timestamp="2009-08-17T19:41:08Z" uid="20587" user="balrog-kun" changeset="2182444" lat="52.2362477" lon="21.0622655">
    <tag k="shop" v="chemist"/>
  </node>
  <node id="469982425" version="1" timestamp="2009-08-17T19:41:08Z" uid="20587" user="balrog-kun" changeset="2182444" lat="52.2341152" lon="21.0616762"/>
  <node id="469982426" version="1" timestamp="2009-08-17T19:41:08Z" uid="20587" user="balrog-kun" changeset="2182444" lat="52.233898" lon="21.0602124"/>
  <node id="469982427" version="1" timestamp="2009-08-17T19:41:08Z" uid="20587" user="balrog-kun" changeset="2182444" lat="52.2334886" lon="21.060103">
    <tag k="shop" v="laundry"/>
  </node>
  <node id="469982428" version="1" timestamp="2009-08-17T19:41:08Z" uid="20587" user="balrog-kun" changeset="2182444" lat="52.2336959" lon="21.0602576">
    <tag k="amenity" v="taxi"/>
  </node>
  <node id="469982429" version="1" timestamp="2009-08-17T19:41:08Z" uid="20587" user="balrog-kun" changeset="2182444" lat="52.2318874" lon="21.0600628">
    <tag k="amenity" v="public_building"/>
    <tag k="note" v="TODO: school?"/>
  </node>
  <node id="469982429" version="2" timestamp="2012-02-29T15:16:58Z" uid="99386" user="masti" changeset="10828923" lat="52.2318874" lon="21.0600628"/>
  <node id="469982430" version="1" timestamp="2009-08-17T19:41:08Z" uid="20587" user="balrog-kun" changeset="2182444" lat="52.232285" lon="21.0614861">
    <tag k="shop" v="bakery"/>
  </node>
  <node id="469982432" version="1" timestamp="2009-08-17T19:41:09Z" uid="20587" user="balrog-kun" changeset="2182444" lat="52.2318027" lon="21.0608955">
    <tag k="shop" v="kiosk"/>
  </node>
  <node id="469982433" version="1" timestamp="2009-08-17T19:41:09Z" uid="20587" user="balrog-kun" changeset="2182444" lat="52.2319424" lon="21.0566965">
    <tag k="name" v="Tommy Hilfinger"/>
    <tag k="shop" v="boutique"/>
  </node>
  <node id="469982434" version="1" timestamp="2009-08-17T19:41:09Z" uid="20587" user="balrog-kun" changeset="2182444" lat="52.2312078" lon="21.0575208"/>
  <node id="469982434" version="2" timestamp="2012-02-24T17:45:16Z" uid="99386" user="masti" changeset="10780613" lat="52.2312219" lon="21.05753"/>
  <node id="469982435" version="1" timestamp="2009-08-17T19:41:09Z" uid="20587" user="balrog-kun" changeset="2182444" lat="52.2308744" lon="21.0563356"/>
  <node id="469982435" version="2" timestamp="2012-02-24T17:45:16Z" uid="99386" user="masti" changeset="10780613" lat="52.2309195" lon="21.0563172"/>
  <node id="469982436" version="1" timestamp="2009-08-17T19:41:09Z" uid="20587" user="balrog-kun" changeset="2182444" lat="52.2314819" lon="21.0560219"/>
  <node id="469982436" version="2" timestamp="2012-02-24T17:45:17Z" uid="99386" user="masti" changeset="10780613" lat="52.2314667" lon="21.0561441"/>
  <node id="469982437" version="1" timestamp="2009-08-17T19:41:09Z" uid="20587" user="balrog-kun" changeset="2182444" lat="52.2309643" lon="21.05637"/>
  <node id="469982437" version="2" timestamp="2012-02-24T17:45:17Z" uid="99386" user="masti" changeset="10780613" lat="52.2310087" lon="21.0564451"/>
  <node id="469982438" version="1" timestamp="2009-08-17T19:41:09Z" uid="20587" user="balrog-kun" changeset="2182444" lat="52.2312311" lon="21.0573304"/>
  <node id="469982438" version="2" timestamp="2012-02-24T17:45:17Z" uid="99386" user="masti" changeset="10780613" lat="52.2312228" lon="21.0573129"/>
  <node id="469982439" version="1" timestamp="2009-08-17T19:41:09Z" uid="20587" user="balrog-kun" changeset="2182444" lat="52.2314311" lon="21.0566969">
    <tag k="amenity" v="bank"/>
    <tag k="name" v="Deutsche Bank"/>
    <tag k="operator" v="Deutsche Bank"/>
  </node>
  <node id="469982440" version="1" timestamp="2009-08-17T19:41:09Z" uid="20587" user="balrog-kun" changeset="2182444" lat="52.2313017" lon="21.0557357">
    <tag k="amenity" v="bank"/>
    <tag k="name" v="Nordea Bank"/>
    <tag k="operator" v="Nordea Bank"/>
  </node>
  <node id="469982441" version="1" timestamp="2009-08-17T19:41:09Z" uid="20587" user="balrog-kun" changeset="2182444" lat="52.2316661" lon="21.0555993">
    <tag k="amenity" v="fast_food"/>
    <tag k="cuisine" v="kebab"/>
    <tag k="name" v="Efes Kebab"/>
  </node>
  <node id="469982442" version="1" timestamp="2009-08-17T19:41:09Z" uid="20587" user="balrog-kun" changeset="2182444" lat="52.2315505" lon="21.0553386">
    <tag k="name" v="Ekospecjał Wiejski"/>
    <tag k="shop" v="organic"/>
  </node>
  <node id="469982443" version="1" timestamp="2009-08-17T19:41:09Z" uid="20587" user="balrog-kun" changeset="2182444" lat="52.2315043" lon="21.0551534">
    <tag k="amenity" v="restaurant"/>
    <tag k="name" v="Passe Partout"/>
  </node>
  <node id="469982444" version="1" timestamp="2009-08-17T19:41:09Z" uid="20587" user="balrog-kun" changeset="2182444" lat="52.2314728" lon="21.0550402">
    <tag k="name" v="Bajbuk"/>
    <tag k="shop" v="books"/>
  </node>
  <node id="469982445" version="1" timestamp="2009-08-17T19:41:09Z" uid="20587" user="balrog-kun" changeset="2182444" lat="52.2314392" lon="21.0548687">
    <tag k="name" v="Panasonic"/>
    <tag k="shop" v="electronics"/>
  </node>
  <node id="469982446" version="1" timestamp="2009-08-17T19:41:09Z" uid="20587" user="balrog-kun" changeset="2182444" lat="52.231393" lon="21.0546698">
    <tag k="name" v="Galwell"/>
    <tag k="shop" v="electronics"/>
  </node>
  <node id="469982448" version="1" timestamp="2009-08-17T19:41:10Z" uid="20587" user="balrog-kun" changeset="2182444" lat="52.2312214" lon="21.0538292">
    <tag k="addr:housenumber" v="11"/>
    <tag k="addr:postcode" v="03-936"/>
    <tag k="addr:street" v="Zwycięzców"/>
    <tag k="amenity" v="pub"/>
    <tag k="name" v="Pralnia"/>
    <tag k="phone" v="+48791271791"/>
  </node>
  <node id="469984758" version="5" timestamp="2009-08-21T20:56:21Z" uid="123700" user="Mala" changeset="2228627" lat="50.0470182" lon="19.9439932">
    <tag k="amenity" v="place_of_worship"/>
    <tag k="name" v="Kosciol oo. Bonifratrow"/>
    <tag k="religion" v="christian"/>
  </node>
  <node id="469985535" version="5" timestamp="2009-08-21T20:56:17Z" uid="123700" user="Mala" changeset="2228627" lat="50.0475613" lon="19.9450797">
    <tag k="amenity" v="hospital"/>
    <tag k="name" v="Szpital Zakonu Bonifratrów Świętego Jana Grandego"/>
  </node>
  <node id="469985535" version="6" timestamp="2010-10-15T16:03:30Z" uid="256858" user="lukeeu" changeset="6050324" lat="50.0474772" lon="19.9450389">
    <tag k="amenity" v="hospital"/>
    <tag k="name" v="Szpital Zakonu Bonifratrów Świętego Jana Grandego"/>
  </node>
  <node id="469986195" version="2" timestamp="2011-01-26T23:23:27Z" uid="49111" user="Markus B" changeset="7099221" lat="47.363059" lon="8.5339277">
    <tag k="amenity" v="parking"/>
  </node>
  <node id="469986488" version="3" timestamp="2010-07-28T20:04:09Z" uid="74617" user="JohnSmith" changeset="5339329" lat="50.4182034" lon="8.6340888">
    <tag k="emergency" v="fire_hydrant"/>
    <tag k="fire_hydrant" v="up"/>
  </node>
  <node id="469986488" version="4" timestamp="2010-07-30T17:43:12Z" uid="74617" user="JohnSmith" changeset="5356742" lat="50.4182034" lon="8.6340888">
    <tag k="amenity" v="fire_hydrant"/>
    <tag k="emergency" v="fire_hydrant"/>
    <tag k="fire_hydrant" v="up"/>
  </node>
  <node id="469986488" version="5" timestamp="2010-10-11T20:48:14Z" uid="26348" user="Rodolphe Quiédeville" changeset="6015989" lat="50.4182034" lon="8.6340888">
    <tag k="emergency" v="fire_hydrant"/>
    <tag k="fire_hydrant" v="up"/>
  </node>
  <node id="469986488" version="6" timestamp="2010-10-19T09:05:21Z" uid="26348" user="Rodolphe Quiédeville" changeset="6094812" lat="50.4182034" lon="8.6340888">
    <tag k="amenity" v="fire_hydrant"/>
    <tag k="emergency" v="fire_hydrant"/>
    <tag k="fire_hydrant" v="up"/>
  </node>
  <node id="469986488" version="7" timestamp="2011-01-21T13:14:01Z" uid="124837" user="swus" changeset="7040166" lat="50.4182034" lon="8.6340888">
    <tag k="amenity" v="fire_hydrant"/>
    <tag k="emergency" v="fire_hydrant"/>
    <tag k="fire_hydrant:type" v="pillar"/>
  </node>
  <node id="469986488" version="8" timestamp="2011-01-22T01:24:26Z" uid="124837" user="swus" changeset="7046468" lat="50.4182034" lon="8.6340888">
    <tag k="amenity" v="fire_hydrant"/>
    <tag k="emergency" v="fire_hydrant"/>
    <tag k="fire_hydrant" v="up"/>
  </node>
  <node id="469986488" version="9" timestamp="2012-03-27T18:26:27Z" uid="67540" user="Cobra" changeset="11118954" lat="50.4182034" lon="8.6340888">
    <tag k="amenity" v="fire_hydrant"/>
    <tag k="emergency" v="fire_hydrant"/>
    <tag k="fire_hydrant" v="up"/>
    <tag k="odbl" v="clean"/>
  </node>
  <node id="469986668" version="3" timestamp="2009-08-21T19:53:46Z" uid="123700" user="Mala" changeset="2228022" lat="50.0505648" lon="19.9473776">
    <tag k="amenity" v="school"/>
    <tag k="name" v="VI Liceum Ogolnoksztalcace"/>
  </node>
  <node id="469986668" version="4" timestamp="2011-06-25T10:42:34Z" uid="196804" user="hektor" changeset="8540860" lat="50.0503149" lon="19.9474853">
    <tag k="amenity" v="school"/>
    <tag k="name" v="VI Liceum Ogólnokształcące imienia Adama Mickiewicza"/>
  </node>
  <node id="469988034" version="4" timestamp="2009-08-21T20:56:17Z" uid="123700" user="Mala" changeset="2228627" lat="50.0495156" lon="19.9411266">
    <tag k="amenity" v="place_of_worship"/>
    <tag k="name" v="Kościół Świętej Katarzyny Aleksandryjskiej i Świętej Małgorzaty"/>
    <tag k="religion" v="christian"/>
    <tag k="wikipedia" v="pl:Kościół św. Katarzyny Aleksandryjskiej i św. Małgorzaty w Krakowie"/>
  </node>
  <node id="469989447" version="3" timestamp="2009-08-21T20:56:17Z" uid="123700" user="Mala" changeset="2228627" lat="50.0513718" lon="19.9396791">
    <tag k="amenity" v="place_of_worship"/>
    <tag k="denomination" v="catholic"/>
    <tag k="name" v="Kościół Świętej Agnieszki (Kościół Garnizonowy)"/>
    <tag k="religion" v="christian"/>
    <tag k="wikipedia" v="pl:Kościół św. Agnieszki w Krakowie"/>
  </node>
  <node id="469982409" version="2" timestamp="2012-09-06T21:05:18Z" uid="842685" user="ancymon" changeset="13015810" lat="52.2394832" lon="21.0633438">
    <tag k="addr:housenumber" v="68"/>
    <tag k="addr:street" v="Międzynarodowa"/>
    <tag k="shop" v="chemist"/>
  </node>
  <node id="469982410" version="2" timestamp="2012-09-06T19:48:39Z" uid="842685" user="ancymon" changeset="13014743" lat="52.2391103" lon="21.0628349">
    <tag k="addr:housenumber" v="27"/>
    <tag k="addr:street" v="Angorska"/>
    <tag k="amenity" v="bank"/>
    <tag k="name" v="Nordea Bank"/>
    <tag k="operator" v="Nordea Bank"/>
  </node>
  <node id="469982421" version="2" timestamp="2012-09-06T21:05:18Z" uid="842685" user="ancymon" changeset="13015810" lat="52.2363658" lon="21.0629644">
    <tag k="addr:housenumber" v="68"/>
    <tag k="addr:street" v="Walecznych"/>
    <tag k="shop" v="greengrocer"/>
  </node>
  <node id="469982422" version="2" timestamp="2012-09-06T21:05:18Z" uid="842685" user="ancymon" changeset="13015810" lat="52.2363264" lon="21.06275">
    <tag k="addr:housenumber" v="68"/>
    <tag k="addr:street" v="Walecznych"/>
    <tag k="shop" v="convenience"/>
  </node>
  <node id="469982423" version="2" timestamp="2012-09-06T21:05:18Z" uid="842685" user="ancymon" changeset="13015810" lat="52.2362871" lon="21.0624971">
    <tag k="addr:housenumber" v="66"/>
    <tag k="addr:street" v="Walecznych"/>
    <tag k="shop" v="butcher"/>
  </node>
  <node id="469982424" version="2" timestamp="2012-09-06T21:05:18Z" uid="842685" user="ancymon" changeset="13015810" lat="52.2362477" lon="21.0622655">
    <tag k="addr:housenumber" v="66"/>
    <tag k="addr:street" v="Walecznych"/>
    <tag k="shop" v="chemist"/>
  </node>
  <node id="469982433" version="2" timestamp="2012-06-15T23:55:35Z" uid="99386" user="masti" changeset="11910135" lat="52.231939" lon="21.0567575">
    <tag k="name" v="Tommy Hilfinger"/>
    <tag k="shop" v="boutique"/>
  </node>
  <node id="469982433" version="3" timestamp="2012-09-06T21:05:18Z" uid="842685" user="ancymon" changeset="13015810" lat="52.231939" lon="21.0567575">
    <tag k="addr:housenumber" v="1"/>
    <tag k="addr:street" v="Królowej Aldony"/>
    <tag k="name" v="Tommy Hilfinger"/>
    <tag k="shop" v="boutique"/>
  </node>
  <node id="469982440" version="2" timestamp="2012-09-06T19:48:40Z" uid="842685" user="ancymon" changeset="13014743" lat="52.2313017" lon="21.0557357">
    <tag k="addr:city" v="Warszawa@Warszawa Praga"/>
    <tag k="addr:housenumber" v="5"/>
    <tag k="addr:street" v="plac Przymierza"/>
    <tag k="amenity" v="bank"/>
    <tag k="name" v="Nordea Bank"/>
    <tag k="operator" v="Nordea Bank"/>
  </node>
  <node id="469982442" version="2" timestamp="2012-09-06T21:05:18Z" uid="842685" user="ancymon" changeset="13015810" lat="52.2315505" lon="21.0553386">
    <tag k="addr:housenumber" v="25"/>
    <tag k="addr:street" v="Zwycięzców"/>
    <tag k="name" v="Ekospecjał Wiejski"/>
    <tag k="shop" v="organic"/>
  </node>
  <node id="469982443" version="2" timestamp="2012-09-06T19:48:40Z" uid="842685" user="ancymon" changeset="13014743" lat="52.2315043" lon="21.0551534">
    <tag k="addr:housenumber" v="23"/>
    <tag k="addr:street" v="Zwycięzców"/>
    <tag k="amenity" v="restaurant"/>
    <tag k="name" v="Passe Partout"/>
  </node>
  <node id="469982444" version="2" timestamp="2012-09-06T21:05:18Z" uid="842685" user="ancymon" changeset="13015810" lat="52.2314728" lon="21.0550402">
    <tag k="addr:housenumber" v="21"/>
    <tag k="addr:street" v="Zwycięzców"/>
    <tag k="name" v="Bajbuk"/>
    <tag k="shop" v="books"/>
  </node>
  <node id="469982445" version="2" timestamp="2012-09-06T21:05:19Z" uid="842685" user="ancymon" changeset="13015810" lat="52.2314392" lon="21.0548687">
    <tag k="addr:housenumber" v="19"/>
    <tag k="addr:street" v="Zwycięzców"/>
    <tag k="name" v="Panasonic"/>
    <tag k="shop" v="electronics"/>
  </node>
  <node id="469982446" version="2" timestamp="2012-09-06T21:05:19Z" uid="842685" user="ancymon" changeset="13015810" lat="52.231393" lon="21.0546698">
    <tag k="addr:housenumber" v="2"/>
    <tag k="addr:street" v="Poselska"/>
    <tag k="name" v="Galwell"/>
    <tag k="shop" v="electronics"/>
  </node>
  <node id="469986668" version="5" timestamp="2012-09-03T16:17:33Z" uid="472558" user="AlbertKa" changeset="12968942" lat="50.0504507" lon="19.947549">
    <tag k="amenity" v="school"/>
    <tag k="name" v="VI Liceum Ogólnokształcące imienia Adama Mickiewicza"/>
  </node>
  <node id="469988034" version="5" timestamp="2012-09-06T18:05:16Z" uid="842685" user="ancymon" changeset="13013198" lat="50.0495156" lon="19.9411266">
    <tag k="addr:housenumber" v="7"/>
    <tag k="addr:street" v="Augustiańska"/>
    <tag k="amenity" v="place_of_worship"/>
    <tag k="name" v="Kościół Świętej Katarzyny Aleksandryjskiej i Świętej Małgorzaty"/>
    <tag k="religion" v="christian"/>
    <tag k="wikipedia" v="pl:Kościół św. Katarzyny Aleksandryjskiej i św. Małgorzaty w Krakowie"/>
  </node>
</osm>
