<?xml version='1.0' encoding='UTF-8'?>
<osm version="0.6" generator="libosmium/2.20.0">
  <node id="469943408" version="1" timestamp="2009-08-17T18:40:27Z" uid="157412" user="Leopold" changeset="2181544" lat="49.9971866" lon="6.9452448">
    <tag k="natural" v="Neuerburger Kopf volcano"/>
  </node>
  <node id="469943408" version="2" timestamp="2009-08-17T18:41:10Z" uid="157412" user="Leopold" changeset="2181544" lat="49.9970211" lon="6.9450731">
    <tag k="natural" v="Neuerburger Kopf extinct volcano"/>
  </node>
  <node id="469943408" version="3" timestamp="2009-08-18T16:00:53Z" uid="157412" user="Leopold" changeset="2191441" lat="49.9970177" lon="6.9450721">
    <tag k="natural" v="Neuerburger Kopf/ volcano/ Vulkanruine"/>
  </node>
  <node id="469943408" version="4" timestamp="2009-08-18T16:25:54Z" uid="157412" user="Leopold" changeset="2191854" lat="49.9970177" lon="6.9450635">
    <tag k="natural" v="peak"/>
  </node>
  <node id="469943408" version="5" timestamp="2009-10-04T17:09:53Z" uid="157412" user="Leopold" changeset="2740116" lat="49.9970163" lon="6.9450617">
    <tag k="natural" v="peak Neueburger Kopf"/>
    <tag k="tourism" v="viewpoint"/>
  </node>
  <node id="469943408" version="6" timestamp="2010-01-29T11:17:42Z" uid="195557" user="markusbee" changeset="3742300" lat="49.9967286" lon="6.9450764">
    <tag k="name" v="Neueburger Kopf"/>
    <tag k="natural" v="peak"/>
    <tag k="tourism" v="viewpoint"/>
  </node>
  <node id="469943408" version="7" timestamp="2010-02-21T20:25:36Z" uid="228913" user="jerry-55" changeset="3938283" lat="49.9967279" lon="6.9450232">
    <tag k="amenity" v="shelter"/>
    <tag k="name" v="Neueburger Kopf"/>
    <tag k="natural" v="peak"/>
    <tag k="tourism" v="viewpoint"/>
  </node>
  <node id="469943408" version="8" timestamp="2010-04-01T17:09:36Z" uid="228913" user="jerry-55" changeset="4295844" lat="49.9967225" lon="6.9450172">
    <tag k="amenity" v="shelter"/>
    <tag k="name" v="Neuerburger Kopf"/>
    <tag k="natural" v="peak"/>
    <tag k="tourism" v="viewpoint"/>
  </node>
  <node id="469943408" version="9" timestamp="2010-04-01T17:10:54Z" uid="228913" user="jerry-55" changeset="4295860" lat="49.9967225" lon="6.9450172">
    <tag k="amenity" v="shelter"/>
    <tag k="name" v="Neuerburger Kopf"/>
    <tag k="natural" v="peak"/>
    <tag k="tourism" v="viewpoint"/>
  </node>
  <node id="469943408" version="10" timestamp="2010-04-17T20:40:14Z" uid="228913" user="jerry-55" changeset="4452095" lat="49.9967246" lon="6.9450187">
    <tag k="amenity" v="shelter"/>
    <tag k="tourism" v="viewpoint"/>
  </node>
  <node id="469948047" version="1" timestamp="2009-08-17T18:45:28Z" uid="157412" user="Leopold" changeset="2181671" lat="49.9807695" lon="6.9414253">
    <tag k="name" v="Belingen"/>
    <tag k="place" v="village"/>
  </node>
  <node id="469948047" version="2" timestamp="2009-11-01T16:16:43Z" uid="21593" user="mvo" changeset="3007930" lat="49.9807695" lon="6.9414253">
    <tag k="is_in" v="Wengerohr,Wittlich"/>
    <tag k="name" v="Belingen"/>
    <tag k="place" v="village"/>
  </node>
  <node id="469948047" version="3" timestamp="2009-12-31T11:01:23Z" uid="213490" user="mmehlem" changeset="3499511" lat="49.9807695" lon="6.9414253">
    <tag k="is_in" v="Wittlich, Rheinland-Pfalz"/>
    <tag k="name" v="Belingen"/>
    <tag k="place" v="locality"/>
  </node>
  <node id="469948047" version="4" timestamp="2009-12-31T11:13:22Z" uid="213490" user="mmehlem" changeset="3499593" lat="49.9807695" lon="6.9414253">
    <tag k="is_in" v="Wittlich, Rheinland-Pfalz"/>
    <tag k="name" v="Belingen"/>
    <tag k="place" v="locality"/>
    <tag k="postal_code" v="54516"/>
  </node>
  <node id="469948047" version="5" timestamp="2009-12-31T11:19:55Z" uid="213490" user="mmehlem" changeset="3499613" lat="49.9807695" lon="6.9414253">
    <tag k="is_in" v="Wittlich, Rheinland-Pfalz"/>
    <tag k="name" v="Belingen"/>
    <tag k="place" v="hamlet"/>
    <tag k="postal_code" v="54516"/>
  </node>
  <node id="469948047" version="6" timestamp="2010-04-16T19:28:49Z" uid="228913" user="jerry-55" changeset="4441701" lat="49.9798518" lon="6.9555734">
    <tag k="is_in" v="Wittlich, Rheinland-Pfalz"/>
    <tag k="name" v="Belingen"/>
    <tag k="place" v="suburb"/>
    <tag k="postal_code" v="54516"/>
  </node>
  <node id="469948047" version="7" timestamp="2010-04-17T07:44:29Z" uid="228913" user="jerry-55" changeset="4445143" lat="49.9799655" lon="6.9428089">
    <tag k="is_in" v="Wittlich, Rheinland-Pfalz"/>
    <tag k="name" v="Belingen"/>
    <tag k="place" v="suburb"/>
    <tag k="postal_code" v="54516"/>
  </node>
  <node id="469948047" version="8" timestamp="2010-10-13T06:48:19Z" uid="92274" user="adjuva" changeset="6026758" lat="49.9799655" lon="6.9428089">
    <tag k="is_in" v="Wittlich,Bernkastel-Wittlich,Trier,Rheinland-Pfalz,Bundesrepublik Deutschland,Europe"/>
    <tag k="name" v="Belingen"/>
    <tag k="place" v="suburb"/>
    <tag k="postal_code" v="54516"/>
  </node>
  <node id="469948047" version="9" timestamp="2012-03-22T17:15:53Z" uid="44217" user="kjon" changeset="11065302" lat="49.9799655" lon="6.9428089"/>
  <node id="469943408" version="11" timestamp="2012-07-16T20:58:40Z" uid="722137" user="OSMF Redaction Account" changeset="12251714" lat="49.9967246" lon="6.9450187">
    <tag k="amenity" v="shelter"/>
  </node>
</osm>
