<?xml version='1.0' encoding='UTF-8'?>
<osm version="0.6" generator="libosmium/2.20.0">
  <node id="469920011" version="1" timestamp="2009-08-17T18:03:42Z" uid="36809" user="pfoten_weg_!_" changeset="2180201" lat="48.064999" lon="11.5212622">
    <tag k="addr:city" v="Pullach im Isartal"/>
    <tag k="addr:country" v="DE"/>
    <tag k="addr:housename" v="Wohngebäude"/>
    <tag k="addr:housenumber" v="12"/>
    <tag k="addr:postcode" v="82049"/>
    <tag k="addr:street" v="Wurzelseppstraße"/>
    <tag k="discovered_by" v="RambaZamba"/>
    <tag k="name" v="12"/>
    <tag k="source" v="survey"/>
  </node>
  <node id="469920011" version="2" timestamp="2009-08-28T19:50:06Z" uid="156995" user="HampelZamba" changeset="2294580" lat="48.064999" lon="11.5212622">
    <tag k="addr:city" v="Pullach im Isartal"/>
    <tag k="addr:country" v="DE"/>
    <tag k="addr:housename" v="Wohngebäude"/>
    <tag k="addr:housenumber" v="12"/>
    <tag k="addr:postcode" v="82049"/>
    <tag k="addr:street" v="Wurzelseppstraße"/>
    <tag k="name" v="12"/>
    <tag k="source" v="survey"/>
  </node>
  <node id="469920011" version="3" timestamp="2009-08-28T20:47:06Z" uid="36809" user="pfoten_weg_!_" changeset="2295155" lat="48.064999" lon="11.5212622">
    <tag k="addr:city" v="Pullach im Isartal"/>
    <tag k="addr:country" v="DE"/>
    <tag k="addr:housename" v="Wohngebäude"/>
    <tag k="addr:housenumber" v="12"/>
    <tag k="addr:postcode" v="82049"/>
    <tag k="addr:street" v="Wurzelseppstraße"/>
    <tag k="discovered_by" v="RambaZamba"/>
    <tag k="name" v="12"/>
    <tag k="source" v="survey"/>
  </node>
  <node id="469920011" version="4" timestamp="2009-08-30T07:38:44Z" uid="156995" user="HampelZamba" changeset="2309774" lat="48.064999" lon="11.5212622">
    <tag k="addr:city" v="Pullach im Isartal"/>
    <tag k="addr:country" v="DE"/>
    <tag k="addr:housename" v="Wohngebäude"/>
    <tag k="addr:housenumber" v="12"/>
    <tag k="addr:postcode" v="82049"/>
    <tag k="addr:street" v="Wurzelseppstraße"/>
    <tag k="name" v="12"/>
    <tag k="source" v="survey"/>
  </node>
  <node id="469920011" version="5" timestamp="2009-08-31T21:12:58Z" uid="36809" user="pfoten_weg_!_" changeset="2331411" lat="48.064999" lon="11.5212622">
    <tag k="addr:city" v="Pullach im Isartal"/>
    <tag k="addr:country" v="DE"/>
    <tag k="addr:housename" v="Wohngebäude"/>
    <tag k="addr:housenumber" v="12"/>
    <tag k="addr:postcode" v="82049"/>
    <tag k="addr:street" v="Wurzelseppstraße"/>
    <tag k="name" v="12"/>
    <tag k="source" v="survey"/>
  </node>
  <node id="469920011" version="6" timestamp="2009-10-02T20:47:46Z" uid="86259" user="hasse_osm_korinthenkacker" changeset="2717407" lat="48.064999" lon="11.5212622">
    <tag k="addr:city" v="Pullach im Isartal"/>
    <tag k="addr:country" v="DE"/>
    <tag k="addr:housename" v="Wohngebäude"/>
    <tag k="addr:housenumber" v="12"/>
    <tag k="addr:postcode" v="82049"/>
    <tag k="addr:street" v="Wurzelseppstraße"/>
    <tag k="name" v="12"/>
    <tag k="source" v="survey"/>
  </node>
  <node id="469920014" version="1" timestamp="2009-08-17T18:03:46Z" uid="99207" user="Lar Kiesel" changeset="2181093" lat="34.0178261" lon="-81.4104731"/>
  <node id="469920014" version="2" timestamp="2009-08-17T20:39:01Z" uid="99207" user="Lar Kiesel" changeset="2183156" lat="34.0178261" lon="-81.4104731"/>
  <node id="469920015" version="1" timestamp="2009-08-17T18:03:47Z" uid="99207" user="Lar Kiesel" changeset="2181093" lat="34.0175842" lon="-81.4097436"/>
  <node id="469920015" version="2" timestamp="2009-08-17T20:39:02Z" uid="99207" user="Lar Kiesel" changeset="2183156" lat="34.0175842" lon="-81.4097436"/>
  <node id="469920016" version="1" timestamp="2009-08-17T18:03:47Z" uid="36809" user="pfoten_weg_!_" changeset="2180201" lat="48.0707696" lon="11.525385">
    <tag k="addr:city" v="München"/>
    <tag k="addr:country" v="DE"/>
    <tag k="addr:housename" v="Wohngebäude"/>
    <tag k="addr:housenumber" v="15"/>
    <tag k="addr:postcode" v="81479"/>
    <tag k="addr:street" v="Krennerweg"/>
    <tag k="discovered_by" v="RambaZamba"/>
    <tag k="name" v="15"/>
    <tag k="source" v="survey"/>
  </node>
  <node id="469920016" version="2" timestamp="2009-08-28T19:50:06Z" uid="156995" user="HampelZamba" changeset="2294580" lat="48.0707696" lon="11.525385">
    <tag k="addr:city" v="München"/>
    <tag k="addr:country" v="DE"/>
    <tag k="addr:housename" v="Wohngebäude"/>
    <tag k="addr:housenumber" v="15"/>
    <tag k="addr:postcode" v="81479"/>
    <tag k="addr:street" v="Krennerweg"/>
    <tag k="name" v="15"/>
    <tag k="source" v="survey"/>
  </node>
  <node id="469920016" version="3" timestamp="2009-08-28T20:47:06Z" uid="36809" user="pfoten_weg_!_" changeset="2295155" lat="48.0707696" lon="11.525385">
    <tag k="addr:city" v="München"/>
    <tag k="addr:country" v="DE"/>
    <tag k="addr:housename" v="Wohngebäude"/>
    <tag k="addr:housenumber" v="15"/>
    <tag k="addr:postcode" v="81479"/>
    <tag k="addr:street" v="Krennerweg"/>
    <tag k="discovered_by" v="RambaZamba"/>
    <tag k="name" v="15"/>
    <tag k="source" v="survey"/>
  </node>
  <node id="469920016" version="4" timestamp="2009-08-30T07:38:45Z" uid="156995" user="HampelZamba" changeset="2309774" lat="48.0707696" lon="11.525385">
    <tag k="addr:city" v="München"/>
    <tag k="addr:country" v="DE"/>
    <tag k="addr:housename" v="Wohngebäude"/>
    <tag k="addr:housenumber" v="15"/>
    <tag k="addr:postcode" v="81479"/>
    <tag k="addr:street" v="Krennerweg"/>
    <tag k="name" v="15"/>
    <tag k="source" v="survey"/>
  </node>
  <node id="469920016" version="5" timestamp="2009-08-31T21:12:57Z" uid="36809" user="pfoten_weg_!_" changeset="2331411" lat="48.0707696" lon="11.525385">
    <tag k="addr:city" v="München"/>
    <tag k="addr:country" v="DE"/>
    <tag k="addr:housename" v="Wohngebäude"/>
    <tag k="addr:housenumber" v="15"/>
    <tag k="addr:postcode" v="81479"/>
    <tag k="addr:street" v="Krennerweg"/>
    <tag k="name" v="15"/>
    <tag k="source" v="survey"/>
  </node>
  <node id="469920016" version="6" timestamp="2009-10-02T20:45:41Z" uid="86259" user="hasse_osm_korinthenkacker" changeset="2717407" lat="48.0707696" lon="11.525385">
    <tag k="addr:city" v="München"/>
    <tag k="addr:country" v="DE"/>
    <tag k="addr:housename" v="Wohngebäude"/>
    <tag k="addr:housenumber" v="15"/>
    <tag k="addr:postcode" v="81479"/>
    <tag k="addr:street" v="Krennerweg"/>
    <tag k="name" v="15"/>
    <tag k="source" v="survey"/>
  </node>
  <node id="469920025" version="1" timestamp="2009-08-17T18:03:48Z" uid="99207" user="Lar Kiesel" changeset="2181093" lat="34.0182245" lon="-81.4095633"/>
  <node id="469920025" version="2" timestamp="2009-08-17T20:39:02Z" uid="99207" user="Lar Kiesel" changeset="2183156" lat="34.0182245" lon="-81.4095633"/>
  <node id="469920046" version="1" timestamp="2009-08-17T18:03:49Z" uid="99207" user="Lar Kiesel" changeset="2181093" lat="34.0183454" lon="-81.410104"/>
  <node id="469920046" version="2" timestamp="2009-08-17T20:39:00Z" uid="99207" user="Lar Kiesel" changeset="2183156" lat="34.0183454" lon="-81.410104"/>
  <node id="469920071" version="1" timestamp="2009-08-17T18:03:50Z" uid="36809" user="pfoten_weg_!_" changeset="2180201" lat="48.0716146" lon="11.533536">
    <tag k="addr:city" v="Pullach im Isartal"/>
    <tag k="addr:country" v="DE"/>
    <tag k="addr:housename" v="Wohngebäude"/>
    <tag k="addr:housenumber" v="5"/>
    <tag k="addr:postcode" v="82049"/>
    <tag k="addr:street" v="Sollner Straße"/>
    <tag k="discovered_by" v="RambaZamba"/>
    <tag k="name" v="5"/>
    <tag k="source" v="survey"/>
  </node>
  <node id="469920071" version="2" timestamp="2009-08-28T19:50:07Z" uid="156995" user="HampelZamba" changeset="2294580" lat="48.0716146" lon="11.533536">
    <tag k="addr:city" v="Pullach im Isartal"/>
    <tag k="addr:country" v="DE"/>
    <tag k="addr:housename" v="Wohngebäude"/>
    <tag k="addr:housenumber" v="5"/>
    <tag k="addr:postcode" v="82049"/>
    <tag k="addr:street" v="Sollner Straße"/>
    <tag k="name" v="5"/>
    <tag k="source" v="survey"/>
  </node>
  <node id="469920071" version="3" timestamp="2009-08-28T20:47:06Z" uid="36809" user="pfoten_weg_!_" changeset="2295155" lat="48.0716146" lon="11.533536">
    <tag k="addr:city" v="Pullach im Isartal"/>
    <tag k="addr:country" v="DE"/>
    <tag k="addr:housename" v="Wohngebäude"/>
    <tag k="addr:housenumber" v="5"/>
    <tag k="addr:postcode" v="82049"/>
    <tag k="addr:street" v="Sollner Straße"/>
    <tag k="discovered_by" v="RambaZamba"/>
    <tag k="name" v="5"/>
    <tag k="source" v="survey"/>
  </node>
  <node id="469920071" version="4" timestamp="2009-08-30T07:38:45Z" uid="156995" user="HampelZamba" changeset="2309774" lat="48.0716146" lon="11.533536">
    <tag k="addr:city" v="Pullach im Isartal"/>
    <tag k="addr:country" v="DE"/>
    <tag k="addr:housename" v="Wohngebäude"/>
    <tag k="addr:housenumber" v="5"/>
    <tag k="addr:postcode" v="82049"/>
    <tag k="addr:street" v="Sollner Straße"/>
    <tag k="name" v="5"/>
    <tag k="source" v="survey"/>
  </node>
  <node id="469920071" version="5" timestamp="2009-08-31T21:12:58Z" uid="36809" user="pfoten_weg_!_" changeset="2331411" lat="48.0716146" lon="11.533536">
    <tag k="addr:city" v="Pullach im Isartal"/>
    <tag k="addr:country" v="DE"/>
    <tag k="addr:housename" v="Wohngebäude"/>
    <tag k="addr:housenumber" v="5"/>
    <tag k="addr:postcode" v="82049"/>
    <tag k="addr:street" v="Sollner Straße"/>
    <tag k="name" v="5"/>
    <tag k="source" v="survey"/>
  </node>
  <node id="469920071" version="6" timestamp="2009-10-02T20:44:56Z" uid="86259" user="hasse_osm_korinthenkacker" changeset="2717407" lat="48.0716146" lon="11.533536">
    <tag k="addr:city" v="Pullach im Isartal"/>
    <tag k="addr:country" v="DE"/>
    <tag k="addr:housename" v="Wohngebäude"/>
    <tag k="addr:housenumber" v="5"/>
    <tag k="addr:postcode" v="82049"/>
    <tag k="addr:street" v="Sollner Straße"/>
    <tag k="name" v="5"/>
    <tag k="source" v="survey"/>
  </node>
  <node id="469920104" version="1" timestamp="2009-08-17T18:03:51Z" uid="99207" user="Lar Kiesel" changeset="2181093" lat="34.0182529" lon="-81.4098895"/>
  <node id="469920123" version="1" timestamp="2009-08-17T18:03:52Z" uid="99207" user="Lar Kiesel" changeset="2181093" lat="34.0182316" lon="-81.4097521"/>
  <node id="469920129" version="1" timestamp="2009-08-17T18:03:52Z" uid="36809" user="pfoten_weg_!_" changeset="2180201" lat="48.0706376" lon="11.522352">
    <tag k="addr:city" v="München"/>
    <tag k="addr:country" v="DE"/>
    <tag k="addr:housename" v="Wohngebäude"/>
    <tag k="addr:housenumber" v="9"/>
    <tag k="addr:postcode" v="81479"/>
    <tag k="addr:street" v="Sintzenichstraße"/>
    <tag k="discovered_by" v="RambaZamba"/>
    <tag k="name" v="9"/>
    <tag k="source" v="survey"/>
  </node>
  <node id="469920129" version="2" timestamp="2009-08-28T19:50:07Z" uid="156995" user="HampelZamba" changeset="2294580" lat="48.0706376" lon="11.522352">
    <tag k="addr:city" v="München"/>
    <tag k="addr:country" v="DE"/>
    <tag k="addr:housename" v="Wohngebäude"/>
    <tag k="addr:housenumber" v="9"/>
    <tag k="addr:postcode" v="81479"/>
    <tag k="addr:street" v="Sintzenichstraße"/>
    <tag k="name" v="9"/>
    <tag k="source" v="survey"/>
  </node>
  <node id="469920129" version="3" timestamp="2009-08-28T20:47:07Z" uid="36809" user="pfoten_weg_!_" changeset="2295155" lat="48.0706376" lon="11.522352">
    <tag k="addr:city" v="München"/>
    <tag k="addr:country" v="DE"/>
    <tag k="addr:housename" v="Wohngebäude"/>
    <tag k="addr:housenumber" v="9"/>
    <tag k="addr:postcode" v="81479"/>
    <tag k="addr:street" v="Sintzenichstraße"/>
    <tag k="discovered_by" v="RambaZamba"/>
    <tag k="name" v="9"/>
    <tag k="source" v="survey"/>
  </node>
  <node id="469920129" version="4" timestamp="2009-08-30T07:38:45Z" uid="156995" user="HampelZamba" changeset="2309774" lat="48.0706376" lon="11.522352">
    <tag k="addr:city" v="München"/>
    <tag k="addr:country" v="DE"/>
    <tag k="addr:housename" v="Wohngebäude"/>
    <tag k="addr:housenumber" v="9"/>
    <tag k="addr:postcode" v="81479"/>
    <tag k="addr:street" v="Sintzenichstraße"/>
    <tag k="name" v="9"/>
    <tag k="source" v="survey"/>
  </node>
  <node id="469920129" version="5" timestamp="2009-08-31T21:13:00Z" uid="36809" user="pfoten_weg_!_" changeset="2331411" lat="48.0706376" lon="11.522352">
    <tag k="addr:city" v="München"/>
    <tag k="addr:country" v="DE"/>
    <tag k="addr:housename" v="Wohngebäude"/>
    <tag k="addr:housenumber" v="9"/>
    <tag k="addr:postcode" v="81479"/>
    <tag k="addr:street" v="Sintzenichstraße"/>
    <tag k="name" v="9"/>
    <tag k="source" v="survey"/>
  </node>
  <node id="469920129" version="6" timestamp="2009-10-02T20:47:14Z" uid="86259" user="hasse_osm_korinthenkacker" changeset="2717407" lat="48.0706376" lon="11.522352">
    <tag k="addr:city" v="München"/>
    <tag k="addr:country" v="DE"/>
    <tag k="addr:housename" v="Wohngebäude"/>
    <tag k="addr:housenumber" v="9"/>
    <tag k="addr:postcode" v="81479"/>
    <tag k="addr:street" v="Sintzenichstraße"/>
    <tag k="name" v="9"/>
    <tag k="source" v="survey"/>
  </node>
  <node id="469920153" version="1" timestamp="2009-08-17T18:03:53Z" uid="99207" user="Lar Kiesel" changeset="2181093" lat="34.0179115" lon="-81.4098122"/>
  <node id="469920178" version="1" timestamp="2009-08-17T18:03:53Z" uid="99207" user="Lar Kiesel" changeset="2181093" lat="34.017947" lon="-81.4099581"/>
  <node id="469920178" version="2" timestamp="2009-10-29T16:19:27Z" uid="99207" user="Lar Kiesel" changeset="2982338" lat="34.0179443" lon="-81.409964"/>
  <node id="469920223" version="1" timestamp="2009-08-17T18:03:56Z" uid="99207" user="Lar Kiesel" changeset="2181093" lat="34.0179399" lon="-81.4099839"/>
  <node id="469920223" version="2" timestamp="2009-08-26T08:54:32Z" uid="99207" user="Lar Kiesel" changeset="2265035" lat="34.0179399" lon="-81.4099839"/>
  <node id="469920241" version="1" timestamp="2009-08-17T18:03:57Z" uid="36809" user="pfoten_weg_!_" changeset="2180201" lat="48.0737207" lon="11.5203026">
    <tag k="addr:city" v="München"/>
    <tag k="addr:country" v="DE"/>
    <tag k="addr:housename" v="Wohngebäude"/>
    <tag k="addr:housenumber" v="42"/>
    <tag k="addr:postcode" v="81479"/>
    <tag k="addr:street" v="Bertelestraße"/>
    <tag k="discovered_by" v="RambaZamba"/>
    <tag k="name" v="42"/>
    <tag k="source" v="survey"/>
  </node>
  <node id="469920241" version="2" timestamp="2009-08-19T01:12:09Z" uid="36809" user="pfoten_weg_!_" changeset="2196333" lat="48.0737207" lon="11.5203026">
    <tag k="addr:city" v="München"/>
    <tag k="addr:country" v="DE"/>
    <tag k="addr:housename" v="Wohngebäude"/>
    <tag k="addr:housenumber" v="42"/>
    <tag k="addr:postcode" v="81479"/>
    <tag k="addr:street" v="Bertelestraße"/>
    <tag k="discovered_by" v="RambaZamba"/>
    <tag k="name" v="42"/>
    <tag k="source" v="survey"/>
  </node>
  <node id="469920245" version="1" timestamp="2009-08-17T18:03:57Z" uid="99207" user="Lar Kiesel" changeset="2181093" lat="34.0177407" lon="-81.4100611"/>
  <node id="469920245" version="2" timestamp="2009-08-26T08:54:32Z" uid="99207" user="Lar Kiesel" changeset="2265035" lat="34.0177407" lon="-81.4100611"/>
  <node id="469920267" version="1" timestamp="2009-08-17T18:03:58Z" uid="99207" user="Lar Kiesel" changeset="2181093" lat="34.0176696" lon="-81.4097693"/>
  <node id="469920267" version="2" timestamp="2009-08-26T08:54:32Z" uid="99207" user="Lar Kiesel" changeset="2265035" lat="34.0176696" lon="-81.4097693"/>
  <node id="469920271" version="1" timestamp="2009-08-17T18:03:58Z" uid="99207" user="Lar Kiesel" changeset="2181093" lat="34.0178759" lon="-81.4097092"/>
  <node id="469920271" version="2" timestamp="2009-08-26T08:54:32Z" uid="99207" user="Lar Kiesel" changeset="2265035" lat="34.0178759" lon="-81.4097092"/>
  <node id="469920275" version="1" timestamp="2009-08-17T18:03:58Z" uid="36809" user="pfoten_weg_!_" changeset="2180201" lat="48.0650431" lon="11.5221883">
    <tag k="addr:city" v="Pullach im Isartal"/>
    <tag k="addr:country" v="DE"/>
    <tag k="addr:housename" v="Wohngebäude"/>
    <tag k="addr:housenumber" v="26"/>
    <tag k="addr:postcode" v="82049"/>
    <tag k="addr:street" v="Wurzelseppstraße"/>
    <tag k="discovered_by" v="RambaZamba"/>
    <tag k="name" v="26"/>
    <tag k="source" v="survey"/>
  </node>
  <node id="469920275" version="2" timestamp="2009-08-28T19:50:07Z" uid="156995" user="HampelZamba" changeset="2294580" lat="48.0650431" lon="11.5221883">
    <tag k="addr:city" v="Pullach im Isartal"/>
    <tag k="addr:country" v="DE"/>
    <tag k="addr:housename" v="Wohngebäude"/>
    <tag k="addr:housenumber" v="26"/>
    <tag k="addr:postcode" v="82049"/>
    <tag k="addr:street" v="Wurzelseppstraße"/>
    <tag k="name" v="26"/>
    <tag k="source" v="survey"/>
  </node>
  <node id="469920275" version="3" timestamp="2009-08-28T20:47:10Z" uid="36809" user="pfoten_weg_!_" changeset="2295155" lat="48.0650431" lon="11.5221883">
    <tag k="addr:city" v="Pullach im Isartal"/>
    <tag k="addr:country" v="DE"/>
    <tag k="addr:housename" v="Wohngebäude"/>
    <tag k="addr:housenumber" v="26"/>
    <tag k="addr:postcode" v="82049"/>
    <tag k="addr:street" v="Wurzelseppstraße"/>
    <tag k="discovered_by" v="RambaZamba"/>
    <tag k="name" v="26"/>
    <tag k="source" v="survey"/>
  </node>
  <node id="469920275" version="4" timestamp="2009-08-30T07:38:45Z" uid="156995" user="HampelZamba" changeset="2309774" lat="48.0650431" lon="11.5221883">
    <tag k="addr:city" v="Pullach im Isartal"/>
    <tag k="addr:country" v="DE"/>
    <tag k="addr:housename" v="Wohngebäude"/>
    <tag k="addr:housenumber" v="26"/>
    <tag k="addr:postcode" v="82049"/>
    <tag k="addr:street" v="Wurzelseppstraße"/>
    <tag k="name" v="26"/>
    <tag k="source" v="survey"/>
  </node>
  <node id="469920275" version="5" timestamp="2009-08-31T21:13:01Z" uid="36809" user="pfoten_weg_!_" changeset="2331411" lat="48.0650431" lon="11.5221883">
    <tag k="addr:city" v="Pullach im Isartal"/>
    <tag k="addr:country" v="DE"/>
    <tag k="addr:housename" v="Wohngebäude"/>
    <tag k="addr:housenumber" v="26"/>
    <tag k="addr:postcode" v="82049"/>
    <tag k="addr:street" v="Wurzelseppstraße"/>
    <tag k="name" v="26"/>
    <tag k="source" v="survey"/>
  </node>
  <node id="469920275" version="6" timestamp="2009-10-02T20:47:43Z" uid="86259" user="hasse_osm_korinthenkacker" changeset="2717407" lat="48.0650431" lon="11.5221883">
    <tag k="addr:city" v="Pullach im Isartal"/>
    <tag k="addr:country" v="DE"/>
    <tag k="addr:housename" v="Wohngebäude"/>
    <tag k="addr:housenumber" v="26"/>
    <tag k="addr:postcode" v="82049"/>
    <tag k="addr:street" v="Wurzelseppstraße"/>
    <tag k="name" v="26"/>
    <tag k="source" v="survey"/>
  </node>
  <node id="469920367" version="1" timestamp="2009-08-17T18:04:03Z" uid="36809" user="pfoten_weg_!_" changeset="2180201" lat="48.0737568" lon="11.5181701">
    <tag k="addr:city" v="München"/>
    <tag k="addr:country" v="DE"/>
    <tag k="addr:housename" v="Wohngebäude"/>
    <tag k="addr:housenumber" v="26"/>
    <tag k="addr:postcode" v="81479"/>
    <tag k="addr:street" v="Stridbeckstraße"/>
    <tag k="discovered_by" v="RambaZamba"/>
    <tag k="name" v="26"/>
    <tag k="source" v="survey"/>
  </node>
  <node id="469920367" version="2" timestamp="2009-08-28T19:50:07Z" uid="156995" user="HampelZamba" changeset="2294580" lat="48.0737568" lon="11.5181701">
    <tag k="addr:city" v="München"/>
    <tag k="addr:country" v="DE"/>
    <tag k="addr:housename" v="Wohngebäude"/>
    <tag k="addr:housenumber" v="26"/>
    <tag k="addr:postcode" v="81479"/>
    <tag k="addr:street" v="Stridbeckstraße"/>
    <tag k="name" v="26"/>
    <tag k="source" v="survey"/>
  </node>
  <node id="469920367" version="3" timestamp="2009-08-28T20:47:11Z" uid="36809" user="pfoten_weg_!_" changeset="2295155" lat="48.0737568" lon="11.5181701">
    <tag k="addr:city" v="München"/>
    <tag k="addr:country" v="DE"/>
    <tag k="addr:housename" v="Wohngebäude"/>
    <tag k="addr:housenumber" v="26"/>
    <tag k="addr:postcode" v="81479"/>
    <tag k="addr:street" v="Stridbeckstraße"/>
    <tag k="discovered_by" v="RambaZamba"/>
    <tag k="name" v="26"/>
    <tag k="source" v="survey"/>
  </node>
  <node id="469920367" version="4" timestamp="2009-08-30T07:38:45Z" uid="156995" user="HampelZamba" changeset="2309774" lat="48.0737568" lon="11.5181701">
    <tag k="addr:city" v="München"/>
    <tag k="addr:country" v="DE"/>
    <tag k="addr:housename" v="Wohngebäude"/>
    <tag k="addr:housenumber" v="26"/>
    <tag k="addr:postcode" v="81479"/>
    <tag k="addr:street" v="Stridbeckstraße"/>
    <tag k="name" v="26"/>
    <tag k="source" v="survey"/>
  </node>
  <node id="469920367" version="5" timestamp="2009-08-31T21:13:03Z" uid="36809" user="pfoten_weg_!_" changeset="2331411" lat="48.0737568" lon="11.5181701">
    <tag k="addr:city" v="München"/>
    <tag k="addr:country" v="DE"/>
    <tag k="addr:housename" v="Wohngebäude"/>
    <tag k="addr:housenumber" v="26"/>
    <tag k="addr:postcode" v="81479"/>
    <tag k="addr:street" v="Stridbeckstraße"/>
    <tag k="name" v="26"/>
    <tag k="source" v="survey"/>
  </node>
  <node id="469920367" version="6" timestamp="2009-10-02T20:46:52Z" uid="86259" user="hasse_osm_korinthenkacker" changeset="2717407" lat="48.0737568" lon="11.5181701">
    <tag k="addr:city" v="München"/>
    <tag k="addr:country" v="DE"/>
    <tag k="addr:housename" v="Wohngebäude"/>
    <tag k="addr:housenumber" v="26"/>
    <tag k="addr:postcode" v="81479"/>
    <tag k="addr:street" v="Stridbeckstraße"/>
    <tag k="name" v="26"/>
    <tag k="source" v="survey"/>
  </node>
  <node id="469920382" version="1" timestamp="2009-08-17T18:04:05Z" uid="36809" user="pfoten_weg_!_" changeset="2180201" lat="48.0699406" lon="11.521461">
    <tag k="addr:city" v="München"/>
    <tag k="addr:country" v="DE"/>
    <tag k="addr:housename" v="Wohngebäude"/>
    <tag k="addr:housenumber" v="3"/>
    <tag k="addr:postcode" v="81479"/>
    <tag k="addr:street" v="Papperitzstraße"/>
    <tag k="discovered_by" v="RambaZamba"/>
    <tag k="name" v="3"/>
    <tag k="source" v="survey"/>
  </node>
  <node id="469920382" version="2" timestamp="2009-08-28T19:50:07Z" uid="156995" user="HampelZamba" changeset="2294580" lat="48.0699406" lon="11.521461">
    <tag k="addr:city" v="München"/>
    <tag k="addr:country" v="DE"/>
    <tag k="addr:housename" v="Wohngebäude"/>
    <tag k="addr:housenumber" v="3"/>
    <tag k="addr:postcode" v="81479"/>
    <tag k="addr:street" v="Papperitzstraße"/>
    <tag k="name" v="3"/>
    <tag k="source" v="survey"/>
  </node>
  <node id="469920382" version="3" timestamp="2009-08-28T20:47:11Z" uid="36809" user="pfoten_weg_!_" changeset="2295155" lat="48.0699406" lon="11.521461">
    <tag k="addr:city" v="München"/>
    <tag k="addr:country" v="DE"/>
    <tag k="addr:housename" v="Wohngebäude"/>
    <tag k="addr:housenumber" v="3"/>
    <tag k="addr:postcode" v="81479"/>
    <tag k="addr:street" v="Papperitzstraße"/>
    <tag k="discovered_by" v="RambaZamba"/>
    <tag k="name" v="3"/>
    <tag k="source" v="survey"/>
  </node>
  <node id="469920382" version="4" timestamp="2009-08-30T07:38:45Z" uid="156995" user="HampelZamba" changeset="2309774" lat="48.0699406" lon="11.521461">
    <tag k="addr:city" v="München"/>
    <tag k="addr:country" v="DE"/>
    <tag k="addr:housename" v="Wohngebäude"/>
    <tag k="addr:housenumber" v="3"/>
    <tag k="addr:postcode" v="81479"/>
    <tag k="addr:street" v="Papperitzstraße"/>
    <tag k="name" v="3"/>
    <tag k="source" v="survey"/>
  </node>
  <node id="469920382" version="5" timestamp="2009-08-31T21:13:03Z" uid="36809" user="pfoten_weg_!_" changeset="2331411" lat="48.0699406" lon="11.521461">
    <tag k="addr:city" v="München"/>
    <tag k="addr:country" v="DE"/>
    <tag k="addr:housename" v="Wohngebäude"/>
    <tag k="addr:housenumber" v="3"/>
    <tag k="addr:postcode" v="81479"/>
    <tag k="addr:street" v="Papperitzstraße"/>
    <tag k="name" v="3"/>
    <tag k="source" v="survey"/>
  </node>
  <node id="469920382" version="6" timestamp="2009-10-02T20:47:19Z" uid="86259" user="hasse_osm_korinthenkacker" changeset="2717407" lat="48.0699406" lon="11.521461">
    <tag k="addr:city" v="München"/>
    <tag k="addr:country" v="DE"/>
    <tag k="addr:housename" v="Wohngebäude"/>
    <tag k="addr:housenumber" v="3"/>
    <tag k="addr:postcode" v="81479"/>
    <tag k="addr:street" v="Papperitzstraße"/>
    <tag k="name" v="3"/>
    <tag k="source" v="survey"/>
  </node>
  <node id="469920388" version="1" timestamp="2009-08-17T18:04:07Z" uid="36809" user="pfoten_weg_!_" changeset="2180201" lat="48.0708606" lon="11.526691">
    <tag k="addr:city" v="München"/>
    <tag k="addr:country" v="DE"/>
    <tag k="addr:housename" v="Wohngebäude"/>
    <tag k="addr:housenumber" v="7"/>
    <tag k="addr:postcode" v="81479"/>
    <tag k="addr:street" v="Krennerweg"/>
    <tag k="discovered_by" v="RambaZamba"/>
    <tag k="name" v="7"/>
    <tag k="source" v="survey"/>
  </node>
  <node id="469920388" version="2" timestamp="2009-08-28T19:50:07Z" uid="156995" user="HampelZamba" changeset="2294580" lat="48.0708606" lon="11.526691">
    <tag k="addr:city" v="München"/>
    <tag k="addr:country" v="DE"/>
    <tag k="addr:housename" v="Wohngebäude"/>
    <tag k="addr:housenumber" v="7"/>
    <tag k="addr:postcode" v="81479"/>
    <tag k="addr:street" v="Krennerweg"/>
    <tag k="name" v="7"/>
    <tag k="source" v="survey"/>
  </node>
  <node id="469920388" version="3" timestamp="2009-08-28T20:47:12Z" uid="36809" user="pfoten_weg_!_" changeset="2295155" lat="48.0708606" lon="11.526691">
    <tag k="addr:city" v="München"/>
    <tag k="addr:country" v="DE"/>
    <tag k="addr:housename" v="Wohngebäude"/>
    <tag k="addr:housenumber" v="7"/>
    <tag k="addr:postcode" v="81479"/>
    <tag k="addr:street" v="Krennerweg"/>
    <tag k="discovered_by" v="RambaZamba"/>
    <tag k="name" v="7"/>
    <tag k="source" v="survey"/>
  </node>
  <node id="469920388" version="4" timestamp="2009-08-30T07:38:45Z" uid="156995" user="HampelZamba" changeset="2309774" lat="48.0708606" lon="11.526691">
    <tag k="addr:city" v="München"/>
    <tag k="addr:country" v="DE"/>
    <tag k="addr:housename" v="Wohngebäude"/>
    <tag k="addr:housenumber" v="7"/>
    <tag k="addr:postcode" v="81479"/>
    <tag k="addr:street" v="Krennerweg"/>
    <tag k="name" v="7"/>
    <tag k="source" v="survey"/>
  </node>
  <node id="469920388" version="5" timestamp="2009-08-31T21:13:04Z" uid="36809" user="pfoten_weg_!_" changeset="2331411" lat="48.0708606" lon="11.526691">
    <tag k="addr:city" v="München"/>
    <tag k="addr:country" v="DE"/>
    <tag k="addr:housename" v="Wohngebäude"/>
    <tag k="addr:housenumber" v="7"/>
    <tag k="addr:postcode" v="81479"/>
    <tag k="addr:street" v="Krennerweg"/>
    <tag k="name" v="7"/>
    <tag k="source" v="survey"/>
  </node>
  <node id="469920388" version="6" timestamp="2009-10-02T20:45:38Z" uid="86259" user="hasse_osm_korinthenkacker" changeset="2717407" lat="48.0708606" lon="11.526691">
    <tag k="addr:city" v="München"/>
    <tag k="addr:country" v="DE"/>
    <tag k="addr:housename" v="Wohngebäude"/>
    <tag k="addr:housenumber" v="7"/>
    <tag k="addr:postcode" v="81479"/>
    <tag k="addr:street" v="Krennerweg"/>
    <tag k="name" v="7"/>
    <tag k="source" v="survey"/>
  </node>
  <node id="469920449" version="1" timestamp="2009-08-17T18:04:11Z" uid="36809" user="pfoten_weg_!_" changeset="2180201" lat="48.0723079" lon="11.522411">
    <tag k="addr:city" v="München"/>
    <tag k="addr:country" v="DE"/>
    <tag k="addr:housename" v="Wohngebäude"/>
    <tag k="addr:housenumber" v="12"/>
    <tag k="addr:postcode" v="81479"/>
    <tag k="addr:street" v="Melchiorstraße"/>
    <tag k="discovered_by" v="RambaZamba"/>
    <tag k="name" v="12"/>
    <tag k="source" v="survey"/>
  </node>
  <node id="469920449" version="2" timestamp="2009-08-28T19:50:07Z" uid="156995" user="HampelZamba" changeset="2294580" lat="48.0723079" lon="11.522411">
    <tag k="addr:city" v="München"/>
    <tag k="addr:country" v="DE"/>
    <tag k="addr:housename" v="Wohngebäude"/>
    <tag k="addr:housenumber" v="12"/>
    <tag k="addr:postcode" v="81479"/>
    <tag k="addr:street" v="Melchiorstraße"/>
    <tag k="name" v="12"/>
    <tag k="source" v="survey"/>
  </node>
  <node id="469920449" version="3" timestamp="2009-08-28T20:47:13Z" uid="36809" user="pfoten_weg_!_" changeset="2295155" lat="48.0723079" lon="11.522411">
    <tag k="addr:city" v="München"/>
    <tag k="addr:country" v="DE"/>
    <tag k="addr:housename" v="Wohngebäude"/>
    <tag k="addr:housenumber" v="12"/>
    <tag k="addr:postcode" v="81479"/>
    <tag k="addr:street" v="Melchiorstraße"/>
    <tag k="discovered_by" v="RambaZamba"/>
    <tag k="name" v="12"/>
    <tag k="source" v="survey"/>
  </node>
  <node id="469920449" version="4" timestamp="2009-08-30T07:38:45Z" uid="156995" user="HampelZamba" changeset="2309774" lat="48.0723079" lon="11.522411">
    <tag k="addr:city" v="München"/>
    <tag k="addr:country" v="DE"/>
    <tag k="addr:housename" v="Wohngebäude"/>
    <tag k="addr:housenumber" v="12"/>
    <tag k="addr:postcode" v="81479"/>
    <tag k="addr:street" v="Melchiorstraße"/>
    <tag k="name" v="12"/>
    <tag k="source" v="survey"/>
  </node>
  <node id="469920449" version="5" timestamp="2009-08-31T21:13:05Z" uid="36809" user="pfoten_weg_!_" changeset="2331411" lat="48.0723079" lon="11.522411">
    <tag k="addr:city" v="München"/>
    <tag k="addr:country" v="DE"/>
    <tag k="addr:housename" v="Wohngebäude"/>
    <tag k="addr:housenumber" v="12"/>
    <tag k="addr:postcode" v="81479"/>
    <tag k="addr:street" v="Melchiorstraße"/>
    <tag k="name" v="12"/>
    <tag k="source" v="survey"/>
  </node>
  <node id="469920449" version="6" timestamp="2009-10-02T20:46:32Z" uid="86259" user="hasse_osm_korinthenkacker" changeset="2717407" lat="48.0723079" lon="11.522411">
    <tag k="addr:city" v="München"/>
    <tag k="addr:country" v="DE"/>
    <tag k="addr:housename" v="Wohngebäude"/>
    <tag k="addr:housenumber" v="12"/>
    <tag k="addr:postcode" v="81479"/>
    <tag k="addr:street" v="Melchiorstraße"/>
    <tag k="name" v="12"/>
    <tag k="source" v="survey"/>
  </node>
  <node id="469920477" version="1" timestamp="2009-08-17T18:04:13Z" uid="36809" user="pfoten_weg_!_" changeset="2180201" lat="48.0650323" lon="11.5224813">
    <tag k="addr:city" v="Pullach im Isartal"/>
    <tag k="addr:country" v="DE"/>
    <tag k="addr:housename" v="Wohngebäude"/>
    <tag k="addr:housenumber" v="32"/>
    <tag k="addr:postcode" v="82049"/>
    <tag k="addr:street" v="Wurzelseppstraße"/>
    <tag k="discovered_by" v="RambaZamba"/>
    <tag k="name" v="32"/>
    <tag k="source" v="survey"/>
  </node>
  <node id="469920477" version="2" timestamp="2009-08-28T19:50:07Z" uid="156995" user="HampelZamba" changeset="2294580" lat="48.0650323" lon="11.5224813">
    <tag k="addr:city" v="Pullach im Isartal"/>
    <tag k="addr:country" v="DE"/>
    <tag k="addr:housename" v="Wohngebäude"/>
    <tag k="addr:housenumber" v="32"/>
    <tag k="addr:postcode" v="82049"/>
    <tag k="addr:street" v="Wurzelseppstraße"/>
    <tag k="name" v="32"/>
    <tag k="source" v="survey"/>
  </node>
  <node id="469920477" version="3" timestamp="2009-08-28T20:47:14Z" uid="36809" user="pfoten_weg_!_" changeset="2295155" lat="48.0650323" lon="11.5224813">
    <tag k="addr:city" v="Pullach im Isartal"/>
    <tag k="addr:country" v="DE"/>
    <tag k="addr:housename" v="Wohngebäude"/>
    <tag k="addr:housenumber" v="32"/>
    <tag k="addr:postcode" v="82049"/>
    <tag k="addr:street" v="Wurzelseppstraße"/>
    <tag k="discovered_by" v="RambaZamba"/>
    <tag k="name" v="32"/>
    <tag k="source" v="survey"/>
  </node>
  <node id="469920477" version="4" timestamp="2009-08-30T07:38:45Z" uid="156995" user="HampelZamba" changeset="2309774" lat="48.0650323" lon="11.5224813">
    <tag k="addr:city" v="Pullach im Isartal"/>
    <tag k="addr:country" v="DE"/>
    <tag k="addr:housename" v="Wohngebäude"/>
    <tag k="addr:housenumber" v="32"/>
    <tag k="addr:postcode" v="82049"/>
    <tag k="addr:street" v="Wurzelseppstraße"/>
    <tag k="name" v="32"/>
    <tag k="source" v="survey"/>
  </node>
  <node id="469920477" version="5" timestamp="2009-08-31T21:13:05Z" uid="36809" user="pfoten_weg_!_" changeset="2331411" lat="48.0650323" lon="11.5224813">
    <tag k="addr:city" v="Pullach im Isartal"/>
    <tag k="addr:country" v="DE"/>
    <tag k="addr:housename" v="Wohngebäude"/>
    <tag k="addr:housenumber" v="32"/>
    <tag k="addr:postcode" v="82049"/>
    <tag k="addr:street" v="Wurzelseppstraße"/>
    <tag k="name" v="32"/>
    <tag k="source" v="survey"/>
  </node>
  <node id="469920477" version="6" timestamp="2009-10-02T20:47:43Z" uid="86259" user="hasse_osm_korinthenkacker" changeset="2717407" lat="48.0650323" lon="11.5224813">
    <tag k="addr:city" v="Pullach im Isartal"/>
    <tag k="addr:country" v="DE"/>
    <tag k="addr:housename" v="Wohngebäude"/>
    <tag k="addr:housenumber" v="32"/>
    <tag k="addr:postcode" v="82049"/>
    <tag k="addr:street" v="Wurzelseppstraße"/>
    <tag k="name" v="32"/>
    <tag k="source" v="survey"/>
  </node>
  <node id="469922613" version="1" timestamp="2009-08-17T18:08:15Z" uid="43863" user="Rundling" changeset="2181145" lat="53.000739" lon="10.8115656"/>
  <node id="469922616" version="1" timestamp="2009-08-17T18:08:15Z" uid="43863" user="Rundling" changeset="2181145" lat="53.0007712" lon="10.811542"/>
  <node id="469922616" version="2" timestamp="2009-12-31T19:21:18Z" uid="43863" user="Rundling" changeset="3503641" lat="53.0007404" lon="10.8115627"/>
  <node id="469922619" version="1" timestamp="2009-08-17T18:08:15Z" uid="43863" user="Rundling" changeset="2181145" lat="53.00116" lon="10.8147045"/>
  <node id="469922619" version="2" timestamp="2009-12-31T19:21:19Z" uid="43863" user="Rundling" changeset="3503641" lat="53.00116" lon="10.8147045"/>
  <node id="469922621" version="1" timestamp="2009-08-17T18:08:15Z" uid="43863" user="Rundling" changeset="2181145" lat="53.0012794" lon="10.8156876"/>
  <node id="469922621" version="2" timestamp="2009-12-31T19:21:18Z" uid="43863" user="Rundling" changeset="3503641" lat="53.0012745" lon="10.8156861"/>
  <node id="469922623" version="1" timestamp="2009-08-17T18:08:15Z" uid="43863" user="Rundling" changeset="2181145" lat="53.0014105" lon="10.8167477"/>
  <node id="469922623" version="2" timestamp="2009-12-02T10:38:35Z" uid="43863" user="Rundling" changeset="3270640" lat="53.0014147" lon="10.8167465"/>
  <node id="469922625" version="1" timestamp="2009-08-17T18:08:15Z" uid="43863" user="Rundling" changeset="2181145" lat="53.0019119" lon="10.8207331"/>
  <node id="469922627" version="1" timestamp="2009-08-17T18:08:15Z" uid="43863" user="Rundling" changeset="2181145" lat="53.001594" lon="10.8181531"/>
  <node id="469922629" version="1" timestamp="2009-08-17T18:08:15Z" uid="43863" user="Rundling" changeset="2181145" lat="53.0010051" lon="10.7983299"/>
  <node id="469922629" version="2" timestamp="2009-12-02T10:36:48Z" uid="43863" user="Rundling" changeset="3270630" lat="53.0010079" lon="10.7983086"/>
  <node id="469922629" version="3" timestamp="2009-12-14T11:24:46Z" uid="43863" user="Rundling" changeset="3370779" lat="53.0009814" lon="10.7984211"/>
  <node id="469922631" version="1" timestamp="2009-08-17T18:08:15Z" uid="43863" user="Rundling" changeset="2181145" lat="53.0037359" lon="10.7864491"/>
  <node id="469922633" version="1" timestamp="2009-08-17T18:08:16Z" uid="43863" user="Rundling" changeset="2181145" lat="53.003684" lon="10.7863154"/>
  <node id="469922635" version="1" timestamp="2009-08-17T18:08:16Z" uid="43863" user="Rundling" changeset="2181145" lat="53.003671" lon="10.779874"/>
  <node id="469922636" version="1" timestamp="2009-08-17T18:08:16Z" uid="43863" user="Rundling" changeset="2181145" lat="53.0034581" lon="10.7760299"/>
  <node id="469926180" version="1" timestamp="2009-08-17T18:13:11Z" uid="43863" user="Rundling" changeset="2181210" lat="50.9991822" lon="2.2379989">
    <tag k="amenity" v="fuel"/>
    <tag k="name" v="Esso"/>
  </node>
  <node id="469926180" version="2" timestamp="2009-12-28T19:28:54Z" uid="5657" user="Olivier Boudet" changeset="3474972" lat="50.9991822" lon="2.2379989">
    <tag k="amenity" v="fuel"/>
    <tag k="name" v="Esso"/>
    <tag k="operator" v="Esso"/>
  </node>
  <node id="469926180" version="3" timestamp="2011-04-10T22:33:23Z" uid="4054" user="Andre Engels" changeset="7828386" lat="50.9989162" lon="2.2384211">
    <tag k="amenity" v="fuel"/>
    <tag k="name" v="Esso"/>
    <tag k="operator" v="Esso"/>
  </node>
  <node id="469927528" version="1" timestamp="2009-08-17T18:15:00Z" uid="43863" user="Rundling" changeset="2181230" lat="50.9949421" lon="2.2023774">
    <tag k="name" v="Kyriad"/>
    <tag k="tourism" v="hotel"/>
  </node>
  <node id="469927528" version="2" timestamp="2011-04-10T19:03:51Z" uid="4054" user="Andre Engels" changeset="7826336" lat="50.9950133" lon="2.202534">
    <tag k="name" v="Kyriad"/>
    <tag k="tourism" v="hotel"/>
  </node>
  <node id="469929789" version="2" timestamp="2011-01-24T01:28:04Z" uid="34428" user="usm78-gis" changeset="7069136" lat="60.9527169" lon="28.5293023"/>
  <node id="469929790" version="2" timestamp="2011-01-24T01:28:21Z" uid="34428" user="usm78-gis" changeset="7069136" lat="60.9518027" lon="28.5306015"/>
  <node id="469920104" version="2" timestamp="2012-07-18T17:50:54Z" uid="722137" user="OSMF Redaction Account" changeset="12291171" lat="34.0182529" lon="-81.4098895"/>
  <node id="469920123" version="2" timestamp="2012-07-18T17:50:54Z" uid="722137" user="OSMF Redaction Account" changeset="12291171" lat="34.0182316" lon="-81.4097521"/>
  <node id="469920153" version="2" timestamp="2012-07-18T17:50:53Z" uid="722137" user="OSMF Redaction Account" changeset="12291171" lat="34.0179115" lon="-81.4098122"/>
  <node id="469920178" version="3" timestamp="2012-07-18T17:50:53Z" uid="722137" user="OSMF Redaction Account" changeset="12291171" lat="34.0179443" lon="-81.409964"/>
  <node id="469922613" version="2" timestamp="2012-07-17T07:19:59Z" uid="722137" user="OSMF Redaction Account" changeset="12259353" lat="53.000739" lon="10.8115656"/>
  <node id="469922616" version="3" timestamp="2012-07-17T07:19:59Z" uid="722137" user="OSMF Redaction Account" changeset="12259353" lat="53.0007404" lon="10.8115627"/>
  <node id="469922621" version="3" timestamp="2012-07-17T07:10:59Z" uid="722137" user="OSMF Redaction Account" changeset="12259198" lat="53.0012745" lon="10.8156861"/>
  <node id="469922623" version="3" timestamp="2012-07-17T07:10:59Z" uid="722137" user="OSMF Redaction Account" changeset="12259198" lat="53.0014147" lon="10.8167465"/>
  <node id="469922625" version="2" timestamp="2012-07-17T07:11:00Z" uid="722137" user="OSMF Redaction Account" changeset="12259198" lat="53.0019119" lon="10.8207331"/>
  <node id="469922627" version="2" timestamp="2012-07-17T07:11:00Z" uid="722137" user="OSMF Redaction Account" changeset="12259198" lat="53.001594" lon="10.8181531"/>
  <node id="469922629" version="4" timestamp="2012-07-17T07:20:01Z" uid="722137" user="OSMF Redaction Account" changeset="12259353" lat="53.0009814" lon="10.7984211"/>
  <node id="469922631" version="2" timestamp="2012-07-17T07:20:15Z" uid="722137" user="OSMF Redaction Account" changeset="12259353" lat="53.0037359" lon="10.7864491"/>
  <node id="469922633" version="2" timestamp="2012-07-17T07:20:15Z" uid="722137" user="OSMF Redaction Account" changeset="12259353" lat="53.003684" lon="10.7863154"/>
  <node id="469922635" version="2" timestamp="2012-07-17T07:20:15Z" uid="722137" user="OSMF Redaction Account" changeset="12259353" lat="53.003671" lon="10.779874"/>
  <node id="469922636" version="2" timestamp="2012-07-17T07:20:14Z" uid="722137" user="OSMF Redaction Account" changeset="12259353" lat="53.0034581" lon="10.7760299"/>
  <node id="469926180" version="4" timestamp="2012-07-16T23:53:15Z" uid="722137" user="OSMF Redaction Account" changeset="12253762" lat="50.9989162" lon="2.2384211">
    <tag k="operator" v="Esso"/>
  </node>
  <node id="469927528" version="3" timestamp="2012-07-16T23:53:15Z" uid="722137" user="OSMF Redaction Account" changeset="12253762" lat="50.9950133" lon="2.202534"/>
  <node id="469929789" version="3" timestamp="2012-07-21T03:49:50Z" uid="722137" user="OSMF Redaction Account" changeset="12399551" lat="60.952766" lon="28.5293023"/>
  <node id="469929789" version="4" timestamp="2012-09-05T18:17:45Z" uid="446083" user="yuryleb" changeset="12999736" lat="60.9529804" lon="28.5293165"/>
  <node id="469929790" version="3" timestamp="2012-07-21T03:49:50Z" uid="722137" user="OSMF Redaction Account" changeset="12399551" lat="60.9518396" lon="28.5307153"/>
</osm>
