<?xml version='1.0' encoding='UTF-8'?>
<osm version="0.6" generator="libosmium/2.20.0">
  <node id="470025370" version="2" timestamp="2011-01-04T05:23:54Z" uid="30201" user="rrankin" changeset="6857408" lat="-36.0018158" lon="146.992774"/>
  <node id="470025370" version="3" timestamp="2011-07-02T12:57:46Z" uid="46482" user="Leon K" changeset="8607742" lat="-36.0018025" lon="146.9926234"/>
  <node id="470026839" version="1" timestamp="2009-08-17T20:51:06Z" uid="123700" user="Mala" changeset="2183311" lat="46.0069291" lon="-62.5261289">
    <tag k="name" v="Murray Harbour"/>
    <tag k="place" v="village"/>
    <tag k="wikipedia" v="Murray Harbour, Prince Edward Island"/>
  </node>
  <node id="470026840" version="1" timestamp="2009-08-17T20:51:06Z" uid="123700" user="Mala" changeset="2183311" lat="46.3565288" lon="-62.2504284">
    <tag k="name" v="Souris"/>
    <tag k="place" v="town"/>
    <tag k="population" v="1232"/>
    <tag k="source" v="wikipedia"/>
    <tag k="wikipedia" v="Souris, Prince Edward Island"/>
  </node>
  <node id="470026841" version="1" timestamp="2009-08-17T20:51:06Z" uid="123700" user="Mala" changeset="2183311" lat="46.4390366" lon="-62.0659899">
    <tag k="name" v="Elmira"/>
    <tag k="place" v="village"/>
    <tag k="wikipedia" v="Elmira, Prince Edward Island"/>
  </node>
  <node id="470026842" version="1" timestamp="2009-08-17T20:51:06Z" uid="123700" user="Mala" changeset="2183311" lat="46.416818" lon="-62.700022">
    <tag k="name" v="Morell"/>
    <tag k="place" v="village"/>
    <tag k="wikipedia" v="Morell, Prince Edward Island"/>
  </node>
  <node id="470026843" version="1" timestamp="2009-08-17T20:51:06Z" uid="123700" user="Mala" changeset="2183311" lat="46.3664977" lon="-62.8669384">
    <tag k="name" v="Mount Stewart"/>
    <tag k="place" v="village"/>
    <tag k="wikipedia" v="Mount Stewart, Prince Edward Island"/>
  </node>
  <node id="470026844" version="1" timestamp="2009-08-17T20:51:07Z" uid="123700" user="Mala" changeset="2183311" lat="46.2171095" lon="-63.0892525">
    <tag k="name" v="Stratford"/>
    <tag k="place" v="town"/>
    <tag k="population" v="7383"/>
    <tag k="source" v="wikipedia"/>
    <tag k="wikipedia" v="Stratford, Prince Edward Island"/>
  </node>
  <node id="470026845" version="1" timestamp="2009-08-17T20:51:07Z" uid="123700" user="Mala" changeset="2183311" lat="46.2837363" lon="-63.133114">
    <tag k="name" v="Sherwood"/>
    <tag k="place" v="suburb"/>
    <tag k="wikipedia" v="Sherwood, Prince Edward Island"/>
  </node>
  <node id="470027203" version="2" timestamp="2011-01-04T05:23:49Z" uid="30201" user="rrankin" changeset="6857408" lat="-36.0016765" lon="146.9915411"/>
  <node id="470027219" version="3" timestamp="2011-01-04T05:23:56Z" uid="30201" user="rrankin" changeset="6857408" lat="-36.0018035" lon="146.992201"/>
  <node id="470026839" version="2" timestamp="2012-04-10T17:40:34Z" uid="28895" user="PurpleMustang" changeset="11255265" lat="46.0069291" lon="-62.5261289"/>
  <node id="470027203" version="3" timestamp="2012-07-19T05:58:09Z" uid="722137" user="OSMF Redaction Account" changeset="12309764" lat="-36.001505" lon="146.9912241"/>
  <node id="470027219" version="4" timestamp="2012-07-19T05:58:09Z" uid="722137" user="OSMF Redaction Account" changeset="12309764" lat="-36.0016112" lon="146.9922218"/>
</osm>
