<?xml version='1.0' encoding='UTF-8'?>
<osm version="0.6" generator="libosmium/2.20.0">
  <node id="47156030" version="2" timestamp="2008-02-16T20:07:47Z" uid="6975" user="ulfl" changeset="141861" lat="48.8984578" lon="11.8203126">
    <tag k="amenity" v="place_of_worship"/>
  </node>
  <node id="47156030" version="3" timestamp="2008-04-30T19:30:45Z" uid="9364" user="keichwa" changeset="293836" lat="48.8985835" lon="11.8202064">
    <tag k="amenity" v="place_of_worship"/>
    <tag k="denomination" v="catholic"/>
    <tag k="name" v="Klosterkirche"/>
    <tag k="religion" v="christian"/>
  </node>
  <node id="47156030" version="4" timestamp="2009-10-25T17:59:16Z" uid="17984" user="W&amp;G" changeset="2948942" lat="48.8989592" lon="11.8200565">
    <tag k="amenity" v="place_of_worship"/>
    <tag k="denomination" v="catholic"/>
    <tag k="name" v="Klosterkirche"/>
    <tag k="religion" v="christian"/>
  </node>
  <node id="47156030" version="5" timestamp="2010-09-20T11:24:18Z" uid="348923" user="CrimsonThorn" changeset="5828247" lat="48.8989592" lon="11.8200565">
    <tag k="amenity" v="place_of_worship"/>
    <tag k="denomination" v="roman_catholic"/>
    <tag k="name" v="Klosterkirche"/>
    <tag k="religion" v="christian"/>
  </node>
  <node id="47156030" version="6" timestamp="2011-12-23T12:08:05Z" uid="92248" user="Findeschorse007" changeset="10186556" lat="48.8989592" lon="11.8200565"/>
</osm>
