<?xml version='1.0' encoding='UTF-8'?>
<osm version="0.6" generator="libosmium/2.20.0">
  <node id="471663636" version="2" timestamp="2009-09-30T16:14:17Z" uid="36809" user="pfoten_weg_!_" changeset="2690373" lat="47.9095932" lon="11.2439186">
    <tag k="power" v="tower"/>
    <tag k="ref" v="223"/>
  </node>
  <node id="471663642" version="2" timestamp="2009-09-30T16:14:18Z" uid="36809" user="pfoten_weg_!_" changeset="2690373" lat="47.911499" lon="11.2455729">
    <tag k="power" v="tower"/>
    <tag k="ref" v="224"/>
  </node>
  <node id="471663649" version="2" timestamp="2009-09-30T16:14:16Z" uid="36809" user="pfoten_weg_!_" changeset="2690373" lat="47.9048505" lon="11.240723">
    <tag k="power" v="tower"/>
    <tag k="ref" v="220"/>
  </node>
  <node id="471663658" version="2" timestamp="2009-09-30T16:14:15Z" uid="36809" user="pfoten_weg_!_" changeset="2690373" lat="47.9035934" lon="11.2399671">
    <tag k="power" v="tower"/>
    <tag k="ref" v="219"/>
  </node>
  <node id="471663664" version="2" timestamp="2009-09-30T16:14:15Z" uid="36809" user="pfoten_weg_!_" changeset="2690373" lat="47.9017758" lon="11.2388685">
    <tag k="power" v="tower"/>
    <tag k="ref" v="218"/>
  </node>
  <node id="471663665" version="2" timestamp="2009-09-30T16:13:30Z" uid="36809" user="pfoten_weg_!_" changeset="2690373" lat="47.8996855" lon="11.2376102">
    <tag k="power" v="tower"/>
    <tag k="ref" v="217"/>
  </node>
  <node id="471663666" version="2" timestamp="2009-09-30T16:13:29Z" uid="36809" user="pfoten_weg_!_" changeset="2690373" lat="47.8981529" lon="11.2370066">
    <tag k="power" v="tower"/>
    <tag k="ref" v="216"/>
  </node>
  <node id="471663669" version="2" timestamp="2009-09-30T16:13:29Z" uid="36809" user="pfoten_weg_!_" changeset="2690373" lat="47.896658" lon="11.2364074">
    <tag k="power" v="tower"/>
    <tag k="ref" v="215"/>
  </node>
  <node id="471663670" version="2" timestamp="2009-09-30T16:13:29Z" uid="36809" user="pfoten_weg_!_" changeset="2690373" lat="47.8950107" lon="11.235761">
    <tag k="power" v="tower"/>
    <tag k="ref" v="214"/>
  </node>
  <node id="471663671" version="3" timestamp="2009-09-30T16:13:28Z" uid="36809" user="pfoten_weg_!_" changeset="2690373" lat="47.892036" lon="11.2345658">
    <tag k="power" v="tower"/>
    <tag k="ref" v="212"/>
  </node>
  <node id="471663672" version="2" timestamp="2009-09-30T16:14:16Z" uid="36809" user="pfoten_weg_!_" changeset="2690373" lat="47.9065205" lon="11.2417295">
    <tag k="power" v="tower"/>
    <tag k="ref" v="221"/>
  </node>
  <node id="471667020" version="2" timestamp="2009-09-30T16:13:19Z" uid="36809" user="pfoten_weg_!_" changeset="2690373" lat="47.876806" lon="11.2286457">
    <tag k="power" v="tower"/>
    <tag k="ref" v="204"/>
  </node>
  <node id="471667021" version="2" timestamp="2009-09-30T16:13:27Z" uid="36809" user="pfoten_weg_!_" changeset="2690373" lat="47.8807687" lon="11.2301314">
    <tag k="power" v="tower"/>
    <tag k="ref" v="206"/>
  </node>
  <node id="471667021" version="3" timestamp="2009-10-11T21:03:59Z" uid="72235" user="Basstoelpel" changeset="2820288" lat="47.8807706" lon="11.2301204">
    <tag k="power" v="tower"/>
    <tag k="ref" v="206"/>
  </node>
</osm>
