<?xml version='1.0' encoding='UTF-8'?>
<osm version="0.6" generator="libosmium/2.20.0">
  <node id="473207652" version="1" timestamp="2009-08-24T21:28:00Z" uid="36809" user="pfoten_weg_!_" changeset="2250437" lat="46.4961463" lon="11.4713741">
    <tag k="discovered_by" v="RambaZamba"/>
    <tag k="name" v="Aica di Sotto"/>
    <tag k="place" v="suburb"/>
    <tag k="source" v="survey"/>
  </node>
  <node id="473207652" version="3" timestamp="2009-08-30T09:54:18Z" uid="36809" user="pfoten_weg_!_" changeset="2311149" lat="46.4961463" lon="11.4713741">
    <tag k="discovered_by" v="RambaZamba"/>
    <tag k="name" v="Aica di Sotto"/>
    <tag k="place" v="suburb"/>
    <tag k="source" v="survey"/>
  </node>
  <node id="473207652" version="4" timestamp="2009-08-30T10:04:04Z" uid="156995" user="HampelZamba" changeset="2311254" lat="46.4961463" lon="11.4713741">
    <tag k="name" v="Aica di Sotto"/>
    <tag k="place" v="suburb"/>
    <tag k="source" v="survey"/>
  </node>
  <node id="473207652" version="5" timestamp="2009-08-30T10:15:52Z" uid="36809" user="pfoten_weg_!_" changeset="2311385" lat="46.4961463" lon="11.4713741">
    <tag k="name" v="Aica di Sotto"/>
    <tag k="place" v="suburb"/>
    <tag k="source" v="survey by RambaZamba"/>
  </node>
  <node id="473207652" version="6" timestamp="2009-08-30T10:18:23Z" uid="156995" user="HampelZamba" changeset="2311254" lat="46.4961463" lon="11.4713741">
    <tag k="name" v="Aica di Sotto"/>
    <tag k="place" v="suburb"/>
    <tag k="source" v="survey"/>
  </node>
  <node id="473207652" version="7" timestamp="2009-08-30T10:36:26Z" uid="36809" user="pfoten_weg_!_" changeset="2311615" lat="46.4961463" lon="11.4713741">
    <tag k="name" v="Aica di Sotto"/>
    <tag k="place" v="suburb"/>
    <tag k="source" v="survey"/>
  </node>
  <node id="473207652" version="8" timestamp="2009-09-28T22:26:21Z" uid="36809" user="pfoten_weg_!_" changeset="2671405" lat="46.4961463" lon="11.4713741">
    <tag k="name" v="Aica di Sotto / Unteraicha"/>
    <tag k="name:de" v="Unteraicha"/>
    <tag k="name:it" v="Aica di Sotto"/>
    <tag k="place" v="suburb"/>
    <tag k="source" v="survey"/>
  </node>
  <node id="473207652" version="9" timestamp="2009-09-30T10:59:14Z" uid="36809" user="pfoten_weg_!_" changeset="2686844" lat="46.4961463" lon="11.4713741">
    <tag k="name" v="Aica di Sotto / Unteraicha"/>
    <tag k="name:de" v="Unteraicha"/>
    <tag k="name:it" v="Aica di Sotto"/>
    <tag k="place" v="suburb"/>
  </node>
  <node id="473207652" version="10" timestamp="2009-09-30T11:07:09Z" uid="36809" user="pfoten_weg_!_" changeset="2686844" lat="46.4961463" lon="11.4713741">
    <tag k="name" v="Aica di Sotto / Unteraicha"/>
    <tag k="name:de" v="Unteraicha"/>
    <tag k="name:it" v="Aica di Sotto"/>
    <tag k="place" v="suburb"/>
  </node>
  <node id="473207652" version="11" timestamp="2010-11-11T01:22:51Z" uid="334153" user="Alexander Roalter" changeset="6340878" lat="46.4961463" lon="11.4713741">
    <tag k="name" v="Aica di Sotto - Unteraicha"/>
    <tag k="name:de" v="Unteraicha"/>
    <tag k="name:it" v="Aica di Sotto"/>
    <tag k="place" v="village"/>
  </node>
  <node id="473207652" version="12" timestamp="2010-12-07T20:49:18Z" uid="152074" user="beweta" changeset="6579491" lat="46.4961463" lon="11.4713741">
    <tag k="name" v="Unteraicha - Aica di Sotto"/>
    <tag k="name:de" v="Unteraicha"/>
    <tag k="name:it" v="Aica di Sotto"/>
    <tag k="place" v="village"/>
  </node>
  <node id="473207652" version="13" timestamp="2012-03-03T11:23:37Z" uid="174757" user="chrus" changeset="10856564" lat="46.4961463" lon="11.4713741">
    <tag k="name" v="Unteraicha"/>
    <tag k="name:de" v="Unteraicha"/>
    <tag k="name:it" v="Aica di Sotto"/>
    <tag k="place" v="hamlet"/>
  </node>
  <node id="473207653" version="1" timestamp="2009-08-24T21:28:00Z" uid="36809" user="pfoten_weg_!_" changeset="2250437" lat="46.4961223" lon="11.4840525">
    <tag k="discovered_by" v="RambaZamba"/>
    <tag k="name" v="Aica di Sopra"/>
    <tag k="place" v="suburb"/>
    <tag k="source" v="survey"/>
  </node>
  <node id="473207653" version="3" timestamp="2009-08-28T15:58:50Z" uid="36809" user="pfoten_weg_!_" changeset="2291968" lat="46.4939381" lon="11.4846153">
    <tag k="discovered_by" v="RambaZamba"/>
    <tag k="name" v="Aica di Sopra"/>
    <tag k="place" v="suburb"/>
    <tag k="source" v="survey"/>
  </node>
  <node id="473207654" version="1" timestamp="2009-08-24T21:28:00Z" uid="36809" user="pfoten_weg_!_" changeset="2250437" lat="46.503326" lon="11.499767">
    <tag k="discovered_by" v="RambaZamba"/>
    <tag k="name" v="Presule"/>
    <tag k="place" v="suburb"/>
    <tag k="source" v="survey"/>
  </node>
  <node id="473207654" version="3" timestamp="2009-08-30T09:54:18Z" uid="36809" user="pfoten_weg_!_" changeset="2311149" lat="46.503326" lon="11.499767">
    <tag k="discovered_by" v="RambaZamba"/>
    <tag k="name" v="Presule"/>
    <tag k="place" v="suburb"/>
    <tag k="source" v="survey"/>
  </node>
  <node id="473207654" version="4" timestamp="2009-08-30T10:04:04Z" uid="156995" user="HampelZamba" changeset="2311254" lat="46.503326" lon="11.499767">
    <tag k="name" v="Presule"/>
    <tag k="place" v="suburb"/>
    <tag k="source" v="survey"/>
  </node>
  <node id="473207654" version="5" timestamp="2009-08-30T10:15:51Z" uid="36809" user="pfoten_weg_!_" changeset="2311385" lat="46.503326" lon="11.499767">
    <tag k="name" v="Presule"/>
    <tag k="place" v="suburb"/>
    <tag k="source" v="survey by RambaZamba"/>
  </node>
  <node id="473207654" version="6" timestamp="2009-08-30T10:18:23Z" uid="156995" user="HampelZamba" changeset="2311254" lat="46.503326" lon="11.499767">
    <tag k="name" v="Presule"/>
    <tag k="place" v="suburb"/>
    <tag k="source" v="survey"/>
  </node>
  <node id="473207654" version="7" timestamp="2009-08-30T10:36:25Z" uid="36809" user="pfoten_weg_!_" changeset="2311615" lat="46.503326" lon="11.499767">
    <tag k="name" v="Presule"/>
    <tag k="place" v="suburb"/>
    <tag k="source" v="survey"/>
  </node>
  <node id="473207654" version="8" timestamp="2009-09-16T08:34:55Z" uid="144382" user="SHuehne" changeset="2500030" lat="46.5033485" lon="11.4984386">
    <tag k="name" v="Presule"/>
    <tag k="place" v="suburb"/>
    <tag k="source" v="survey"/>
  </node>
  <node id="473207654" version="9" timestamp="2009-09-29T00:11:35Z" uid="36809" user="pfoten_weg_!_" changeset="2671824" lat="46.5033485" lon="11.4984386">
    <tag k="name" v="Presule"/>
    <tag k="place" v="suburb"/>
    <tag k="source" v="survey"/>
  </node>
  <node id="473207654" version="10" timestamp="2009-09-29T00:41:29Z" uid="36809" user="pfoten_weg_!_" changeset="2671929" lat="46.5033485" lon="11.4984386">
    <tag k="name" v="Presule"/>
    <tag k="place" v="suburb"/>
    <tag k="source" v="survey"/>
  </node>
  <node id="473207654" version="11" timestamp="2009-09-29T01:07:46Z" uid="36809" user="pfoten_weg_!_" changeset="2671929" lat="46.5033485" lon="11.4984386">
    <tag k="name" v="Presule"/>
    <tag k="place" v="suburb"/>
    <tag k="source" v="survey"/>
  </node>
  <node id="473207654" version="12" timestamp="2009-09-29T01:37:58Z" uid="36809" user="pfoten_weg_!_" changeset="2672141" lat="46.5033485" lon="11.4984386">
    <tag k="name" v="Presule"/>
    <tag k="place" v="suburb"/>
    <tag k="source" v="survey"/>
  </node>
  <node id="473207654" version="13" timestamp="2009-09-29T02:12:43Z" uid="36809" user="pfoten_weg_!_" changeset="2672254" lat="46.5033485" lon="11.4984386">
    <tag k="name" v="Presule"/>
    <tag k="place" v="suburb"/>
    <tag k="source" v="survey"/>
  </node>
  <node id="473207654" version="14" timestamp="2009-09-30T10:59:14Z" uid="36809" user="pfoten_weg_!_" changeset="2686844" lat="46.5033485" lon="11.4984386">
    <tag k="name" v="Presule"/>
    <tag k="place" v="suburb"/>
  </node>
  <node id="473207654" version="15" timestamp="2009-09-30T11:07:10Z" uid="36809" user="pfoten_weg_!_" changeset="2686844" lat="46.5033485" lon="11.4984386">
    <tag k="name" v="Presule"/>
    <tag k="place" v="suburb"/>
  </node>
  <node id="473207654" version="16" timestamp="2009-10-04T16:52:46Z" uid="36809" user="pfoten_weg_!_" changeset="2739931" lat="46.5033485" lon="11.4984386">
    <tag k="name" v="Prösels / Presule"/>
    <tag k="name:de" v="Prösels"/>
    <tag k="name:it" v="Presule"/>
    <tag k="place" v="suburb"/>
  </node>
  <node id="473207654" version="17" timestamp="2010-11-11T01:22:51Z" uid="334153" user="Alexander Roalter" changeset="6340878" lat="46.5033485" lon="11.4984386">
    <tag k="name" v="Prösels - Presule"/>
    <tag k="name:de" v="Prösels"/>
    <tag k="name:it" v="Presule"/>
    <tag k="place" v="village"/>
  </node>
  <node id="473207654" version="18" timestamp="2012-03-03T11:23:40Z" uid="174757" user="chrus" changeset="10856564" lat="46.5033485" lon="11.4984386">
    <tag k="name" v="Prösels - Presule"/>
    <tag k="name:de" v="Prösels"/>
    <tag k="name:it" v="Presule"/>
    <tag k="place" v="hamlet"/>
  </node>
  <node id="473207656" version="1" timestamp="2009-08-24T21:28:01Z" uid="36809" user="pfoten_weg_!_" changeset="2250437" lat="46.492454" lon="11.492343">
    <tag k="discovered_by" v="RambaZamba"/>
    <tag k="name" v="Aice de Fiè"/>
    <tag k="place" v="suburb"/>
    <tag k="source" v="survey"/>
  </node>
  <node id="473207656" version="5" timestamp="2009-08-28T15:58:49Z" uid="36809" user="pfoten_weg_!_" changeset="2291968" lat="46.4935659" lon="11.4921083">
    <tag k="discovered_by" v="RambaZamba"/>
    <tag k="name" v="Aica di Fiè"/>
    <tag k="place" v="suburb"/>
    <tag k="source" v="survey"/>
  </node>
  <node id="473207657" version="1" timestamp="2009-08-24T21:28:01Z" uid="36809" user="pfoten_weg_!_" changeset="2250437" lat="46.504123" lon="11.519251">
    <tag k="discovered_by" v="RambaZamba"/>
    <tag k="name" v="Umes"/>
    <tag k="place" v="suburb"/>
    <tag k="source" v="survey"/>
  </node>
  <node id="473207657" version="3" timestamp="2009-08-30T09:54:22Z" uid="36809" user="pfoten_weg_!_" changeset="2311149" lat="46.504123" lon="11.519251">
    <tag k="discovered_by" v="RambaZamba"/>
    <tag k="name" v="Umes"/>
    <tag k="place" v="suburb"/>
    <tag k="source" v="survey"/>
  </node>
  <node id="473207657" version="4" timestamp="2009-08-30T10:04:05Z" uid="156995" user="HampelZamba" changeset="2311254" lat="46.504123" lon="11.519251">
    <tag k="name" v="Umes"/>
    <tag k="place" v="suburb"/>
    <tag k="source" v="survey"/>
  </node>
  <node id="473207657" version="5" timestamp="2009-08-30T10:15:55Z" uid="36809" user="pfoten_weg_!_" changeset="2311385" lat="46.504123" lon="11.519251">
    <tag k="name" v="Umes"/>
    <tag k="place" v="suburb"/>
    <tag k="source" v="survey by RambaZamba"/>
  </node>
  <node id="473207657" version="6" timestamp="2009-08-30T10:18:23Z" uid="156995" user="HampelZamba" changeset="2311254" lat="46.504123" lon="11.519251">
    <tag k="name" v="Umes"/>
    <tag k="place" v="suburb"/>
    <tag k="source" v="survey"/>
  </node>
  <node id="473207657" version="7" timestamp="2009-08-30T10:36:31Z" uid="36809" user="pfoten_weg_!_" changeset="2311615" lat="46.504123" lon="11.519251">
    <tag k="name" v="Umes"/>
    <tag k="place" v="suburb"/>
    <tag k="source" v="survey"/>
  </node>
  <node id="473207657" version="8" timestamp="2009-09-16T08:34:55Z" uid="144382" user="SHuehne" changeset="2500030" lat="46.5033152" lon="11.5187646">
    <tag k="name" v="Umes"/>
    <tag k="place" v="suburb"/>
    <tag k="source" v="survey"/>
  </node>
  <node id="473207657" version="9" timestamp="2009-09-29T00:13:07Z" uid="36809" user="pfoten_weg_!_" changeset="2671824" lat="46.5033152" lon="11.5187646">
    <tag k="name" v="Umes"/>
    <tag k="place" v="suburb"/>
    <tag k="source" v="survey"/>
  </node>
  <node id="473207657" version="10" timestamp="2009-09-29T00:42:51Z" uid="36809" user="pfoten_weg_!_" changeset="2671929" lat="46.5033152" lon="11.5187646">
    <tag k="name" v="Umes"/>
    <tag k="place" v="suburb"/>
    <tag k="source" v="survey"/>
  </node>
  <node id="473207657" version="11" timestamp="2009-09-29T01:09:23Z" uid="36809" user="pfoten_weg_!_" changeset="2671929" lat="46.5033152" lon="11.5187646">
    <tag k="name" v="Umes"/>
    <tag k="place" v="suburb"/>
    <tag k="source" v="survey"/>
  </node>
  <node id="473207657" version="12" timestamp="2009-09-29T01:39:46Z" uid="36809" user="pfoten_weg_!_" changeset="2672141" lat="46.5033152" lon="11.5187646">
    <tag k="name" v="Umes"/>
    <tag k="place" v="suburb"/>
    <tag k="source" v="survey"/>
  </node>
  <node id="473207657" version="13" timestamp="2009-09-29T02:14:15Z" uid="36809" user="pfoten_weg_!_" changeset="2672254" lat="46.5033152" lon="11.5187646">
    <tag k="name" v="Umes"/>
    <tag k="place" v="suburb"/>
    <tag k="source" v="survey"/>
  </node>
  <node id="473207657" version="14" timestamp="2009-10-11T22:53:36Z" uid="36809" user="pfoten_weg_!_" changeset="2821011" lat="46.5033152" lon="11.5187646">
    <tag k="name" v="Umes"/>
    <tag k="place" v="suburb"/>
  </node>
  <node id="473207657" version="15" timestamp="2010-09-09T14:31:33Z" uid="61731" user="Eckloff" changeset="5733195" lat="46.5033152" lon="11.5187646">
    <tag k="name" v="Ums - Umes"/>
    <tag k="name:de" v="Ums"/>
    <tag k="name:it" v="Umes"/>
    <tag k="place" v="suburb"/>
  </node>
  <node id="473207657" version="16" timestamp="2010-11-11T01:22:51Z" uid="334153" user="Alexander Roalter" changeset="6340878" lat="46.5033152" lon="11.5187646">
    <tag k="name" v="Ums - Umes"/>
    <tag k="name:de" v="Ums"/>
    <tag k="name:it" v="Umes"/>
    <tag k="place" v="village"/>
  </node>
  <node id="473207657" version="17" timestamp="2012-03-03T11:23:39Z" uid="174757" user="chrus" changeset="10856564" lat="46.5033152" lon="11.5187646">
    <tag k="name" v="Ums"/>
    <tag k="name:de" v="Ums"/>
    <tag k="name:it" v="Umes"/>
    <tag k="place" v="hamlet"/>
  </node>
  <node id="473207659" version="1" timestamp="2009-08-24T21:28:02Z" uid="36809" user="pfoten_weg_!_" changeset="2250437" lat="46.507638" lon="11.502557">
    <tag k="discovered_by" v="RambaZamba"/>
    <tag k="name" v="Fiè di Sotto"/>
    <tag k="place" v="suburb"/>
    <tag k="source" v="survey"/>
  </node>
  <node id="473207659" version="3" timestamp="2009-08-30T09:54:21Z" uid="36809" user="pfoten_weg_!_" changeset="2311149" lat="46.507638" lon="11.502557">
    <tag k="discovered_by" v="RambaZamba"/>
    <tag k="name" v="Fiè di Sotto"/>
    <tag k="place" v="suburb"/>
    <tag k="source" v="survey"/>
  </node>
  <node id="473207659" version="4" timestamp="2009-08-30T10:04:05Z" uid="156995" user="HampelZamba" changeset="2311254" lat="46.507638" lon="11.502557">
    <tag k="name" v="Fiè di Sotto"/>
    <tag k="place" v="suburb"/>
    <tag k="source" v="survey"/>
  </node>
  <node id="473207659" version="5" timestamp="2009-08-30T10:15:55Z" uid="36809" user="pfoten_weg_!_" changeset="2311385" lat="46.507638" lon="11.502557">
    <tag k="name" v="Fiè di Sotto"/>
    <tag k="place" v="suburb"/>
    <tag k="source" v="survey by RambaZamba"/>
  </node>
  <node id="473207659" version="6" timestamp="2009-08-30T10:18:23Z" uid="156995" user="HampelZamba" changeset="2311254" lat="46.507638" lon="11.502557">
    <tag k="name" v="Fiè di Sotto"/>
    <tag k="place" v="suburb"/>
    <tag k="source" v="survey"/>
  </node>
  <node id="473207659" version="7" timestamp="2009-08-30T10:36:30Z" uid="36809" user="pfoten_weg_!_" changeset="2311615" lat="46.507638" lon="11.502557">
    <tag k="name" v="Fiè di Sotto"/>
    <tag k="place" v="suburb"/>
    <tag k="source" v="survey"/>
  </node>
  <node id="473207659" version="8" timestamp="2009-09-30T11:34:34Z" uid="36809" user="pfoten_weg_!_" changeset="2687306" lat="46.507638" lon="11.502557">
    <tag k="name" v="Fiè di Sotto"/>
    <tag k="place" v="suburb"/>
  </node>
  <node id="473207659" version="9" timestamp="2010-09-09T14:31:33Z" uid="61731" user="Eckloff" changeset="5733195" lat="46.507638" lon="11.502557">
    <tag k="name" v="Untervöls - Fiè di Sotto"/>
    <tag k="name:de" v="Untervöls"/>
    <tag k="name:it" v="Fiè di Sotto"/>
    <tag k="place" v="suburb"/>
  </node>
  <node id="473207659" version="10" timestamp="2010-11-11T01:22:50Z" uid="334153" user="Alexander Roalter" changeset="6340878" lat="46.507638" lon="11.502557">
    <tag k="name" v="Untervöls - Fiè di Sotto"/>
    <tag k="name:de" v="Untervöls"/>
    <tag k="name:it" v="Fiè di Sotto"/>
    <tag k="place" v="village"/>
  </node>
  <node id="473207659" version="11" timestamp="2012-03-03T11:23:40Z" uid="174757" user="chrus" changeset="10856564" lat="46.507638" lon="11.502557">
    <tag k="name" v="Untervöls"/>
    <tag k="name:de" v="Untervöls"/>
    <tag k="name:it" v="Fiè di Sotto"/>
    <tag k="place" v="hamlet"/>
  </node>
  <node id="473207660" version="1" timestamp="2009-08-24T21:28:02Z" uid="36809" user="pfoten_weg_!_" changeset="2250437" lat="46.511064" lon="11.517963">
    <tag k="discovered_by" v="RambaZamba"/>
    <tag k="name" v="Fiè di Sopra"/>
    <tag k="place" v="suburb"/>
    <tag k="source" v="survey"/>
  </node>
  <node id="473207660" version="3" timestamp="2009-08-30T09:54:21Z" uid="36809" user="pfoten_weg_!_" changeset="2311149" lat="46.511064" lon="11.517963">
    <tag k="discovered_by" v="RambaZamba"/>
    <tag k="name" v="Fiè di Sopra"/>
    <tag k="place" v="suburb"/>
    <tag k="source" v="survey"/>
  </node>
  <node id="473207660" version="4" timestamp="2009-08-30T10:04:04Z" uid="156995" user="HampelZamba" changeset="2311254" lat="46.511064" lon="11.517963">
    <tag k="name" v="Fiè di Sopra"/>
    <tag k="place" v="suburb"/>
    <tag k="source" v="survey"/>
  </node>
  <node id="473207660" version="5" timestamp="2009-08-30T10:15:54Z" uid="36809" user="pfoten_weg_!_" changeset="2311385" lat="46.511064" lon="11.517963">
    <tag k="name" v="Fiè di Sopra"/>
    <tag k="place" v="suburb"/>
    <tag k="source" v="survey by RambaZamba"/>
  </node>
  <node id="473207660" version="6" timestamp="2009-08-30T10:18:23Z" uid="156995" user="HampelZamba" changeset="2311254" lat="46.511064" lon="11.517963">
    <tag k="name" v="Fiè di Sopra"/>
    <tag k="place" v="suburb"/>
    <tag k="source" v="survey"/>
  </node>
  <node id="473207660" version="7" timestamp="2009-08-30T10:36:29Z" uid="36809" user="pfoten_weg_!_" changeset="2311615" lat="46.511064" lon="11.517963">
    <tag k="name" v="Fiè di Sopra"/>
    <tag k="place" v="suburb"/>
    <tag k="source" v="survey"/>
  </node>
  <node id="473207660" version="8" timestamp="2009-09-30T11:39:46Z" uid="36809" user="pfoten_weg_!_" changeset="2687353" lat="46.511064" lon="11.517963">
    <tag k="name" v="Fiè di Sopra"/>
    <tag k="place" v="suburb"/>
  </node>
  <node id="473207660" version="9" timestamp="2010-09-09T14:31:33Z" uid="61731" user="Eckloff" changeset="5733195" lat="46.511064" lon="11.517963">
    <tag k="name" v="Obervöls - Fiè di Sopra"/>
    <tag k="name:de" v="Obervöls"/>
    <tag k="name:it" v="Fiè di Sopra"/>
    <tag k="place" v="suburb"/>
  </node>
  <node id="473207660" version="10" timestamp="2010-11-11T01:22:52Z" uid="334153" user="Alexander Roalter" changeset="6340878" lat="46.511064" lon="11.517963">
    <tag k="name" v="Obervöls - Fiè di Sopra"/>
    <tag k="name:de" v="Obervöls"/>
    <tag k="name:it" v="Fiè di Sopra"/>
    <tag k="place" v="village"/>
  </node>
  <node id="473207660" version="11" timestamp="2012-03-03T11:23:38Z" uid="174757" user="chrus" changeset="10856564" lat="46.511064" lon="11.517963">
    <tag k="name" v="Obervöls"/>
    <tag k="name:de" v="Obervöls"/>
    <tag k="name:it" v="Fiè di Sopra"/>
    <tag k="place" v="hamlet"/>
  </node>
  <node id="473207661" version="1" timestamp="2009-08-24T21:28:02Z" uid="36809" user="pfoten_weg_!_" changeset="2250437" lat="46.479098" lon="11.499467">
    <tag k="discovered_by" v="RambaZamba"/>
    <tag k="name" v="Sankt Caterina"/>
    <tag k="place" v="suburb"/>
    <tag k="source" v="survey"/>
  </node>
  <node id="473207661" version="3" timestamp="2009-08-30T09:54:20Z" uid="36809" user="pfoten_weg_!_" changeset="2311149" lat="46.479098" lon="11.499467">
    <tag k="discovered_by" v="RambaZamba"/>
    <tag k="name" v="Sankt Caterina"/>
    <tag k="place" v="suburb"/>
    <tag k="source" v="survey"/>
  </node>
  <node id="473207661" version="4" timestamp="2009-08-30T10:04:04Z" uid="156995" user="HampelZamba" changeset="2311254" lat="46.479098" lon="11.499467">
    <tag k="name" v="Sankt Caterina"/>
    <tag k="place" v="suburb"/>
    <tag k="source" v="survey"/>
  </node>
  <node id="473207661" version="5" timestamp="2009-08-30T10:15:53Z" uid="36809" user="pfoten_weg_!_" changeset="2311385" lat="46.479098" lon="11.499467">
    <tag k="name" v="Sankt Caterina"/>
    <tag k="place" v="suburb"/>
    <tag k="source" v="survey by RambaZamba"/>
  </node>
  <node id="473207661" version="6" timestamp="2009-08-30T10:18:23Z" uid="156995" user="HampelZamba" changeset="2311254" lat="46.479098" lon="11.499467">
    <tag k="name" v="Sankt Caterina"/>
    <tag k="place" v="suburb"/>
    <tag k="source" v="survey"/>
  </node>
  <node id="473207661" version="7" timestamp="2009-08-30T10:36:28Z" uid="36809" user="pfoten_weg_!_" changeset="2311615" lat="46.479098" lon="11.499467">
    <tag k="name" v="Sankt Caterina"/>
    <tag k="place" v="suburb"/>
    <tag k="source" v="survey"/>
  </node>
  <node id="473207661" version="8" timestamp="2009-09-30T10:59:09Z" uid="36809" user="pfoten_weg_!_" changeset="2686844" lat="46.479098" lon="11.499467">
    <tag k="name" v="Sankt Caterina"/>
    <tag k="place" v="suburb"/>
  </node>
  <node id="473207661" version="9" timestamp="2009-09-30T11:07:04Z" uid="36809" user="pfoten_weg_!_" changeset="2686844" lat="46.479098" lon="11.499467">
    <tag k="name" v="Sankt Caterina"/>
    <tag k="place" v="suburb"/>
  </node>
  <node id="473207661" version="10" timestamp="2009-09-30T11:24:43Z" uid="36809" user="pfoten_weg_!_" changeset="2687206" lat="46.479098" lon="11.499467">
    <tag k="name" v="Sankt Caterina"/>
    <tag k="place" v="suburb"/>
  </node>
  <node id="473207661" version="11" timestamp="2009-09-30T11:25:06Z" uid="36809" user="pfoten_weg_!_" changeset="2687206" lat="46.479098" lon="11.499467">
    <tag k="name" v="Sankt Caterina"/>
    <tag k="place" v="suburb"/>
  </node>
  <node id="473207661" version="12" timestamp="2009-09-30T11:25:18Z" uid="36809" user="pfoten_weg_!_" changeset="2687206" lat="46.479098" lon="11.499467">
    <tag k="name" v="Sankt Caterina"/>
    <tag k="place" v="suburb"/>
  </node>
  <node id="473207661" version="13" timestamp="2010-09-09T14:31:34Z" uid="61731" user="Eckloff" changeset="5733195" lat="46.479098" lon="11.499467">
    <tag k="name" v="St. Kathrein - Santa Caterina"/>
    <tag k="name:de" v="St. Kathrein"/>
    <tag k="name:it" v="Santa Caterina"/>
    <tag k="place" v="suburb"/>
  </node>
  <node id="473207661" version="14" timestamp="2010-11-11T01:22:53Z" uid="334153" user="Alexander Roalter" changeset="6340878" lat="46.479098" lon="11.499467">
    <tag k="name" v="St. Kathrein - Santa Caterina"/>
    <tag k="name:de" v="St. Kathrein"/>
    <tag k="name:it" v="Santa Caterina"/>
    <tag k="place" v="village"/>
  </node>
  <node id="473207662" version="1" timestamp="2009-08-24T21:28:03Z" uid="36809" user="pfoten_weg_!_" changeset="2250437" lat="46.469493" lon="11.52586">
    <tag k="discovered_by" v="RambaZamba"/>
    <tag k="name" v="Tires"/>
    <tag k="place" v="town"/>
    <tag k="source" v="survey"/>
  </node>
  <node id="473207662" version="3" timestamp="2009-08-30T09:54:19Z" uid="36809" user="pfoten_weg_!_" changeset="2311149" lat="46.469493" lon="11.52586">
    <tag k="discovered_by" v="RambaZamba"/>
    <tag k="name" v="Tires"/>
    <tag k="place" v="town"/>
    <tag k="source" v="survey"/>
  </node>
  <node id="473207662" version="4" timestamp="2009-08-30T10:04:04Z" uid="156995" user="HampelZamba" changeset="2311254" lat="46.469493" lon="11.52586">
    <tag k="name" v="Tires"/>
    <tag k="place" v="town"/>
    <tag k="source" v="survey"/>
  </node>
  <node id="473207662" version="5" timestamp="2009-08-30T10:15:52Z" uid="36809" user="pfoten_weg_!_" changeset="2311385" lat="46.469493" lon="11.52586">
    <tag k="name" v="Tires"/>
    <tag k="place" v="town"/>
    <tag k="source" v="survey by RambaZamba"/>
  </node>
  <node id="473207662" version="6" timestamp="2009-08-30T10:18:23Z" uid="156995" user="HampelZamba" changeset="2311254" lat="46.469493" lon="11.52586">
    <tag k="name" v="Tires"/>
    <tag k="place" v="town"/>
    <tag k="source" v="survey"/>
  </node>
  <node id="473207662" version="7" timestamp="2009-08-30T10:36:27Z" uid="36809" user="pfoten_weg_!_" changeset="2311615" lat="46.469493" lon="11.52586">
    <tag k="name" v="Tires"/>
    <tag k="place" v="town"/>
    <tag k="source" v="survey"/>
  </node>
  <node id="473207662" version="8" timestamp="2009-10-11T22:51:26Z" uid="36809" user="pfoten_weg_!_" changeset="2821011" lat="46.469493" lon="11.52586">
    <tag k="name" v="Tires"/>
    <tag k="place" v="town"/>
  </node>
  <node id="473207662" version="9" timestamp="2010-03-05T22:54:22Z" uid="132225" user="MaximusIT" changeset="4045651" lat="46.469493" lon="11.52586">
    <tag k="name" v="Tires"/>
    <tag k="place" v="town"/>
  </node>
  <node id="473208300" version="1" timestamp="2009-08-24T21:32:11Z" uid="23543" user="jkjk" changeset="2250461" lat="37.3187559" lon="13.5859462"/>
  <node id="473208300" version="2" timestamp="2010-01-10T21:14:09Z" uid="71261" user="David Paleino" changeset="3591597" lat="37.3187469" lon="13.5861151"/>
  <node id="473208301" version="1" timestamp="2009-08-24T21:32:11Z" uid="23543" user="jkjk" changeset="2250461" lat="37.3185752" lon="13.5837551"/>
  <node id="473208302" version="1" timestamp="2009-08-24T21:32:11Z" uid="23543" user="jkjk" changeset="2250461" lat="37.3188519" lon="13.5825691"/>
  <node id="473208302" version="2" timestamp="2010-01-10T21:14:08Z" uid="71261" user="David Paleino" changeset="3591597" lat="37.3187547" lon="13.5827697"/>
  <node id="473208303" version="1" timestamp="2009-08-24T21:32:11Z" uid="23543" user="jkjk" changeset="2250461" lat="37.3191456" lon="13.5820044"/>
  <node id="473208303" version="2" timestamp="2010-01-10T21:14:09Z" uid="71261" user="David Paleino" changeset="3591597" lat="37.3190778" lon="13.5819836"/>
  <node id="473208304" version="1" timestamp="2009-08-24T21:32:11Z" uid="23543" user="jkjk" changeset="2250461" lat="37.3195014" lon="13.5808636"/>
  <node id="473208305" version="1" timestamp="2009-08-24T21:32:11Z" uid="23543" user="jkjk" changeset="2250461" lat="37.3195974" lon="13.5800787"/>
  <node id="473208306" version="1" timestamp="2009-08-24T21:32:11Z" uid="23543" user="jkjk" changeset="2250461" lat="37.3195622" lon="13.5795124"/>
  <node id="473208306" version="2" timestamp="2010-01-10T21:14:07Z" uid="71261" user="David Paleino" changeset="3591597" lat="37.3195695" lon="13.579494"/>
  <node id="473208307" version="1" timestamp="2009-08-24T21:32:11Z" uid="23543" user="jkjk" changeset="2250461" lat="37.3192459" lon="13.5782756"/>
  <node id="473208307" version="2" timestamp="2010-01-10T21:14:06Z" uid="71261" user="David Paleino" changeset="3591597" lat="37.3192459" lon="13.5781926"/>
  <node id="473208309" version="1" timestamp="2009-08-24T21:32:11Z" uid="23543" user="jkjk" changeset="2250461" lat="37.318845" lon="13.5765136"/>
  <node id="473208309" version="2" timestamp="2010-01-10T21:14:05Z" uid="71261" user="David Paleino" changeset="3591597" lat="37.3188597" lon="13.5764975"/>
  <node id="473208310" version="1" timestamp="2009-08-24T21:32:11Z" uid="23543" user="jkjk" changeset="2250461" lat="37.3185838" lon="13.5742632"/>
  <node id="473208311" version="1" timestamp="2009-08-24T21:32:11Z" uid="23543" user="jkjk" changeset="2250461" lat="37.3178567" lon="13.5719054"/>
  <node id="473208311" version="2" timestamp="2010-01-10T21:14:03Z" uid="71261" user="David Paleino" changeset="3591597" lat="37.3178714" lon="13.5718985"/>
  <node id="473208312" version="1" timestamp="2009-08-24T21:32:11Z" uid="23543" user="jkjk" changeset="2250461" lat="37.3175549" lon="13.5693218"/>
  <node id="473208312" version="2" timestamp="2010-01-10T21:14:02Z" uid="71261" user="David Paleino" changeset="3591597" lat="37.3175787" lon="13.5692826"/>
  <node id="473208313" version="1" timestamp="2009-08-24T21:32:11Z" uid="23543" user="jkjk" changeset="2250461" lat="37.317149" lon="13.5680776"/>
  <node id="473208314" version="1" timestamp="2009-08-24T21:32:11Z" uid="23543" user="jkjk" changeset="2250461" lat="37.3164784" lon="13.5670981"/>
  <node id="473208314" version="2" timestamp="2010-01-10T21:13:56Z" uid="71261" user="David Paleino" changeset="3591597" lat="37.3164564" lon="13.5670451"/>
  <node id="473208315" version="1" timestamp="2009-08-24T21:32:11Z" uid="23543" user="jkjk" changeset="2250461" lat="37.3158342" lon="13.5662863"/>
  <node id="473208316" version="1" timestamp="2009-08-24T21:32:11Z" uid="23543" user="jkjk" changeset="2250461" lat="37.314793" lon="13.5657392"/>
  <node id="473208317" version="1" timestamp="2009-08-24T21:32:11Z" uid="23543" user="jkjk" changeset="2250461" lat="37.3137606" lon="13.5656245"/>
  <node id="473208318" version="1" timestamp="2009-08-24T21:32:11Z" uid="23543" user="jkjk" changeset="2250461" lat="37.3128341" lon="13.5656069"/>
  <node id="473208318" version="2" timestamp="2010-01-10T21:13:55Z" uid="71261" user="David Paleino" changeset="3591597" lat="37.3128433" lon="13.5656161"/>
  <node id="473208319" version="1" timestamp="2009-08-24T21:32:11Z" uid="23543" user="jkjk" changeset="2250461" lat="37.3123841" lon="13.5657481"/>
  <node id="473208319" version="2" timestamp="2010-01-10T21:13:56Z" uid="71261" user="David Paleino" changeset="3591597" lat="37.3123199" lon="13.565725"/>
  <node id="473208320" version="1" timestamp="2009-08-24T21:32:11Z" uid="23543" user="jkjk" changeset="2250461" lat="37.3108664" lon="13.5670716"/>
  <node id="473208321" version="1" timestamp="2009-08-24T21:32:11Z" uid="23543" user="jkjk" changeset="2250461" lat="37.3095516" lon="13.568757"/>
  <node id="473208321" version="2" timestamp="2010-01-10T21:17:17Z" uid="71261" user="David Paleino" changeset="3591597" lat="37.3095516" lon="13.568757"/>
  <node id="473208322" version="1" timestamp="2009-08-24T21:32:11Z" uid="23543" user="jkjk" changeset="2250461" lat="37.3087927" lon="13.5696924"/>
  <node id="473208322" version="2" timestamp="2010-01-10T21:13:58Z" uid="71261" user="David Paleino" changeset="3591597" lat="37.309598" lon="13.5687232"/>
  <node id="473208323" version="1" timestamp="2009-08-24T21:32:12Z" uid="23543" user="jkjk" changeset="2250461" lat="37.3076985" lon="13.5702218"/>
  <node id="473208323" version="2" timestamp="2010-01-10T21:13:46Z" uid="71261" user="David Paleino" changeset="3591597" lat="37.3077071" lon="13.5702362"/>
  <node id="473208324" version="1" timestamp="2009-08-24T21:32:12Z" uid="23543" user="jkjk" changeset="2250461" lat="37.306525" lon="13.5703365"/>
  <node id="473208324" version="2" timestamp="2010-01-10T21:13:46Z" uid="71261" user="David Paleino" changeset="3591597" lat="37.3065135" lon="13.5703689"/>
  <node id="473208326" version="1" timestamp="2009-08-24T21:32:12Z" uid="23543" user="jkjk" changeset="2250461" lat="37.3051396" lon="13.5707954"/>
  <node id="473208326" version="2" timestamp="2010-01-10T21:13:45Z" uid="71261" user="David Paleino" changeset="3591597" lat="37.3051597" lon="13.570799"/>
  <node id="473208327" version="1" timestamp="2009-08-24T21:32:12Z" uid="23543" user="jkjk" changeset="2250461" lat="37.3043807" lon="13.5715454"/>
  <node id="473208327" version="2" timestamp="2010-01-10T21:13:45Z" uid="71261" user="David Paleino" changeset="3591597" lat="37.3044151" lon="13.5715562"/>
  <node id="473208328" version="1" timestamp="2009-08-24T21:32:12Z" uid="23543" user="jkjk" changeset="2250461" lat="37.3039219" lon="13.5725337"/>
  <node id="473208328" version="2" timestamp="2010-01-10T21:13:43Z" uid="71261" user="David Paleino" changeset="3591597" lat="37.3039506" lon="13.5724977"/>
  <node id="473208329" version="1" timestamp="2009-08-24T21:32:12Z" uid="23543" user="jkjk" changeset="2250461" lat="37.3036483" lon="13.5741308"/>
  <node id="473208329" version="2" timestamp="2010-01-10T21:13:44Z" uid="71261" user="David Paleino" changeset="3591597" lat="37.3036168" lon="13.5743145"/>
  <node id="473208330" version="1" timestamp="2009-08-24T21:32:12Z" uid="23543" user="jkjk" changeset="2250461" lat="37.3032601" lon="13.5754368"/>
  <node id="473208330" version="2" timestamp="2010-01-10T21:13:44Z" uid="71261" user="David Paleino" changeset="3591597" lat="37.3031541" lon="13.5757647"/>
  <node id="473208331" version="1" timestamp="2009-08-24T21:32:12Z" uid="23543" user="jkjk" changeset="2250461" lat="37.3016012" lon="13.579134"/>
  <node id="473208331" version="2" timestamp="2010-01-10T21:13:44Z" uid="71261" user="David Paleino" changeset="3591597" lat="37.3016671" lon="13.5790511"/>
  <node id="473208332" version="1" timestamp="2009-08-24T21:32:12Z" uid="23543" user="jkjk" changeset="2250461" lat="37.3009835" lon="13.5805194"/>
  <node id="473208332" version="2" timestamp="2010-01-10T21:13:53Z" uid="71261" user="David Paleino" changeset="3591597" lat="37.3009004" lon="13.5807644"/>
  <node id="473208333" version="1" timestamp="2009-08-24T21:32:12Z" uid="23543" user="jkjk" changeset="2250461" lat="37.3003041" lon="13.58194"/>
  <node id="473208334" version="1" timestamp="2009-08-24T21:32:12Z" uid="23543" user="jkjk" changeset="2250461" lat="37.2995452" lon="13.5827607"/>
  <node id="473208335" version="1" timestamp="2009-08-24T21:32:12Z" uid="23543" user="jkjk" changeset="2250461" lat="37.2974186" lon="13.5834577"/>
  <node id="473208335" version="2" timestamp="2010-01-10T21:13:52Z" uid="71261" user="David Paleino" changeset="3591597" lat="37.297453" lon="13.5834109"/>
  <node id="473208336" version="1" timestamp="2009-08-24T21:32:12Z" uid="23543" user="jkjk" changeset="2250461" lat="37.2966509" lon="13.5833254"/>
  <node id="473208336" version="2" timestamp="2010-01-10T21:13:53Z" uid="71261" user="David Paleino" changeset="3591597" lat="37.296671" lon="13.583293"/>
  <node id="473208337" version="1" timestamp="2009-08-24T21:32:12Z" uid="23543" user="jkjk" changeset="2250461" lat="37.2956362" lon="13.5826106"/>
  <node id="473208337" version="2" timestamp="2010-01-10T21:13:48Z" uid="71261" user="David Paleino" changeset="3591597" lat="37.2953926" lon="13.5824629"/>
  <node id="473208338" version="1" timestamp="2009-08-24T21:32:12Z" uid="23543" user="jkjk" changeset="2250461" lat="37.2941361" lon="13.58134"/>
  <node id="473208338" version="2" timestamp="2010-01-10T21:13:52Z" uid="71261" user="David Paleino" changeset="3591597" lat="37.2941189" lon="13.5813544"/>
  <node id="473208339" version="1" timestamp="2009-08-24T21:32:12Z" uid="23543" user="jkjk" changeset="2250461" lat="37.2930949" lon="13.5800517"/>
  <node id="473208339" version="2" timestamp="2010-01-10T21:13:47Z" uid="71261" user="David Paleino" changeset="3591597" lat="37.2929573" lon="13.5798571"/>
  <node id="473208340" version="1" timestamp="2009-08-24T21:32:12Z" uid="23543" user="jkjk" changeset="2250461" lat="37.2925654" lon="13.5787458"/>
  <node id="473208340" version="2" timestamp="2010-01-10T21:13:42Z" uid="71261" user="David Paleino" changeset="3591597" lat="37.2925482" lon="13.5786918"/>
  <node id="473208340" version="3" timestamp="2011-05-05T12:22:25Z" uid="354343" user="Arlas" changeset="8057027" lat="37.2925434" lon="13.5786768"/>
  <node id="473208341" version="1" timestamp="2009-08-24T21:32:12Z" uid="23543" user="jkjk" changeset="2250461" lat="37.2924684" lon="13.5778898"/>
  <node id="473208341" version="2" timestamp="2010-01-10T21:13:42Z" uid="71261" user="David Paleino" changeset="3591597" lat="37.2924139" lon="13.5779799"/>
  <node id="473208341" version="3" timestamp="2010-09-19T13:50:00Z" uid="330007" user="pikappa79" changeset="5819962" lat="37.2924499" lon="13.5780195"/>
  <node id="473208341" version="4" timestamp="2011-05-05T12:22:36Z" uid="354343" user="Arlas" changeset="8057027" lat="37.2924332" lon="13.5780016"/>
  <node id="473208342" version="1" timestamp="2009-08-24T21:32:13Z" uid="23543" user="jkjk" changeset="2250461" lat="37.2923978" lon="13.5768045"/>
  <node id="473208342" version="2" timestamp="2010-01-10T21:13:43Z" uid="71261" user="David Paleino" changeset="3591597" lat="37.2922946" lon="13.5768441"/>
  <node id="473208342" version="3" timestamp="2010-09-19T13:50:06Z" uid="330007" user="pikappa79" changeset="5819962" lat="37.2923576" lon="13.5768441"/>
  <node id="473208342" version="4" timestamp="2011-05-05T12:22:29Z" uid="354343" user="Arlas" changeset="8057027" lat="37.2923029" lon="13.576877"/>
  <node id="473208343" version="1" timestamp="2009-08-24T21:32:13Z" uid="23543" user="jkjk" changeset="2250461" lat="37.2922213" lon="13.5758691"/>
  <node id="473208343" version="2" timestamp="2010-01-10T21:13:43Z" uid="71261" user="David Paleino" changeset="3591597" lat="37.2921697" lon="13.5758619"/>
  <node id="473208343" version="3" timestamp="2010-09-19T13:49:39Z" uid="330007" user="pikappa79" changeset="5819962" lat="37.2921967" lon="13.5758562"/>
  <node id="473208343" version="4" timestamp="2011-05-05T12:23:01Z" uid="354343" user="Arlas" changeset="8057027" lat="37.2921777" lon="13.5758801"/>
  <node id="473208344" version="1" timestamp="2009-08-24T21:32:13Z" uid="23543" user="jkjk" changeset="2250461" lat="37.2920095" lon="13.5743867"/>
  <node id="473208345" version="1" timestamp="2009-08-24T21:32:13Z" uid="23543" user="jkjk" changeset="2250461" lat="37.2917272" lon="13.5730543"/>
  <node id="473208346" version="1" timestamp="2009-08-24T21:32:13Z" uid="23543" user="jkjk" changeset="2250461" lat="37.2913124" lon="13.5717483"/>
  <node id="473208346" version="2" timestamp="2010-01-10T21:13:39Z" uid="71261" user="David Paleino" changeset="3591597" lat="37.2913009" lon="13.5715898"/>
  <node id="473208347" version="1" timestamp="2009-08-24T21:32:13Z" uid="23543" user="jkjk" changeset="2250461" lat="37.290933" lon="13.5700277"/>
  <node id="473208347" version="2" timestamp="2010-01-10T21:13:39Z" uid="71261" user="David Paleino" changeset="3591597" lat="37.2908814" lon="13.569707"/>
  <node id="473208348" version="1" timestamp="2009-08-24T21:32:13Z" uid="23543" user="jkjk" changeset="2250461" lat="37.2909065" lon="13.568307"/>
  <node id="473208348" version="2" timestamp="2010-01-10T21:13:41Z" uid="71261" user="David Paleino" changeset="3591597" lat="37.2908893" lon="13.568289"/>
  <node id="473208349" version="1" timestamp="2009-08-24T21:32:13Z" uid="23543" user="jkjk" changeset="2250461" lat="37.2911095" lon="13.5643627"/>
  <node id="473208349" version="2" timestamp="2010-01-10T21:13:38Z" uid="71261" user="David Paleino" changeset="3591597" lat="37.2910871" lon="13.564222"/>
  <node id="473208350" version="1" timestamp="2009-08-24T21:32:13Z" uid="23543" user="jkjk" changeset="2250461" lat="37.2912507" lon="13.560886"/>
  <node id="473208350" version="2" timestamp="2010-01-10T21:13:39Z" uid="71261" user="David Paleino" changeset="3591597" lat="37.2912507" lon="13.560859"/>
  <node id="473208351" version="1" timestamp="2009-08-24T21:32:13Z" uid="23543" user="jkjk" changeset="2250461" lat="37.2913036" lon="13.5585918"/>
  <node id="473208352" version="1" timestamp="2009-08-24T21:32:13Z" uid="23543" user="jkjk" changeset="2250461" lat="37.290836" lon="13.5568182"/>
  <node id="473208353" version="1" timestamp="2009-08-24T21:32:13Z" uid="23543" user="jkjk" changeset="2250461" lat="37.2888241" lon="13.5519297"/>
  <node id="473208353" version="2" timestamp="2010-01-10T21:13:38Z" uid="71261" user="David Paleino" changeset="3591597" lat="37.2888062" lon="13.5519432"/>
  <node id="473208354" version="1" timestamp="2009-08-24T21:32:13Z" uid="23543" user="jkjk" changeset="2250461" lat="37.2885505" lon="13.5506767"/>
  <node id="473208355" version="1" timestamp="2009-08-24T21:32:13Z" uid="23543" user="jkjk" changeset="2250461" lat="37.288536" lon="13.5500435"/>
  <node id="473208356" version="1" timestamp="2009-08-24T21:32:13Z" uid="23543" user="jkjk" changeset="2250461" lat="37.2889471" lon="13.5487334"/>
  <node id="473208357" version="1" timestamp="2009-08-24T21:32:13Z" uid="23543" user="jkjk" changeset="2250461" lat="37.2895669" lon="13.547153"/>
  <node id="473208357" version="2" timestamp="2010-01-10T21:13:37Z" uid="71261" user="David Paleino" changeset="3591597" lat="37.2895927" lon="13.547117"/>
  <node id="473208358" version="1" timestamp="2009-08-24T21:32:13Z" uid="23543" user="jkjk" changeset="2250461" lat="37.2903717" lon="13.5444423"/>
  <node id="473208359" version="1" timestamp="2009-08-24T21:32:13Z" uid="23543" user="jkjk" changeset="2250461" lat="37.2911694" lon="13.5412586"/>
  <node id="473208360" version="1" timestamp="2009-08-24T21:32:13Z" uid="23543" user="jkjk" changeset="2250461" lat="37.2915435" lon="13.5377573"/>
  <node id="473208360" version="2" timestamp="2010-01-10T21:13:37Z" uid="71261" user="David Paleino" changeset="3591597" lat="37.2915363" lon="13.5378384">
    <tag k="name" v="Porto Empedocle"/>
    <tag k="railway" v="station"/>
    <tag k="uic_ref" v="8302953"/>
  </node>
  <node id="473208360" version="3" timestamp="2011-12-17T18:33:27Z" uid="12473" user="mikelima" changeset="10140681" lat="37.2915363" lon="13.5378384">
    <tag k="name" v="Porto Empedocle"/>
    <tag k="operator" v="RFI"/>
    <tag k="railway" v="station"/>
    <tag k="uic_ref" v="8302953"/>
  </node>
  <node id="473208361" version="1" timestamp="2009-08-24T21:32:13Z" uid="23543" user="jkjk" changeset="2250461" lat="37.2915082" lon="13.5366066"/>
  <node id="473208362" version="1" timestamp="2009-08-24T21:32:13Z" uid="23543" user="jkjk" changeset="2250461" lat="37.2911058" lon="13.5345312"/>
  <node id="473208363" version="1" timestamp="2009-08-24T21:32:13Z" uid="23543" user="jkjk" changeset="2250461" lat="37.2909364" lon="13.5337971"/>
  <node id="473208364" version="1" timestamp="2009-08-24T21:32:13Z" uid="23543" user="jkjk" changeset="2250461" lat="37.307414" lon="13.564502"/>
  <node id="473208364" version="2" timestamp="2011-05-07T12:41:09Z" uid="354343" user="Arlas" changeset="8073029" lat="37.307414" lon="13.564502"/>
  <node id="473208365" version="1" timestamp="2009-08-24T21:32:13Z" uid="23543" user="jkjk" changeset="2250461" lat="37.3078552" lon="13.5639813"/>
  <node id="473208365" version="2" timestamp="2011-05-07T12:41:09Z" uid="354343" user="Arlas" changeset="8073029" lat="37.3078552" lon="13.5639813"/>
  <node id="473208366" version="1" timestamp="2009-08-24T21:32:13Z" uid="23543" user="jkjk" changeset="2250461" lat="37.3080847" lon="13.5635754"/>
  <node id="473208367" version="1" timestamp="2009-08-24T21:32:13Z" uid="23543" user="jkjk" changeset="2250461" lat="37.3089318" lon="13.563399"/>
  <node id="473208367" version="2" timestamp="2011-05-07T12:40:56Z" uid="354343" user="Arlas" changeset="8073029" lat="37.3090306" lon="13.563399"/>
  <node id="473208368" version="1" timestamp="2009-08-24T21:32:13Z" uid="23543" user="jkjk" changeset="2250461" lat="37.3091788" lon="13.5633813"/>
  <node id="473208369" version="1" timestamp="2009-08-24T21:32:13Z" uid="23543" user="jkjk" changeset="2250461" lat="37.3094082" lon="13.5631078"/>
  <node id="473208369" version="2" timestamp="2009-12-08T21:16:53Z" uid="71261" user="David Paleino" changeset="3328188" lat="37.3093618" lon="13.5631453"/>
  <node id="473208369" version="3" timestamp="2011-05-07T12:40:56Z" uid="354343" user="Arlas" changeset="8073029" lat="37.3093825" lon="13.5631742"/>
  <node id="473207652" version="14" timestamp="2012-05-22T10:19:52Z" uid="596973" user="korinthenfresser" changeset="11670028" lat="46.4961463" lon="11.4713741"/>
  <node id="473207654" version="19" timestamp="2012-07-16T11:58:07Z" uid="722137" user="OSMF Redaction Account" changeset="12243778" lat="46.5033485" lon="11.4984386">
    <tag k="place" v="hamlet"/>
  </node>
  <node id="473207659" version="12" timestamp="2012-05-22T10:19:51Z" uid="596973" user="korinthenfresser" changeset="11670028" lat="46.507638" lon="11.502557"/>
  <node id="473207660" version="12" timestamp="2012-05-20T22:52:24Z" uid="596973" user="korinthenfresser" changeset="11657338" lat="46.511064" lon="11.517963"/>
  <node id="473207661" version="15" timestamp="2012-05-22T23:58:40Z" uid="596973" user="korinthenfresser" changeset="11677012" lat="46.479098" lon="11.499467"/>
  <node id="473208301" version="2" timestamp="2012-07-15T13:17:14Z" uid="722137" user="OSMF Redaction Account" changeset="12228626" lat="37.3185752" lon="13.5837551"/>
  <node id="473208303" version="3" timestamp="2012-08-08T23:41:19Z" uid="330007" user="pikappa79" changeset="12663331" lat="37.3190778" lon="13.5819836"/>
  <node id="473208304" version="2" timestamp="2012-07-15T13:17:14Z" uid="722137" user="OSMF Redaction Account" changeset="12228626" lat="37.3195014" lon="13.5808636"/>
  <node id="473208305" version="2" timestamp="2012-07-15T13:17:14Z" uid="722137" user="OSMF Redaction Account" changeset="12228626" lat="37.3195974" lon="13.5800787"/>
  <node id="473208309" version="3" timestamp="2012-08-08T23:41:13Z" uid="330007" user="pikappa79" changeset="12663331" lat="37.3188462" lon="13.5763734"/>
  <node id="473208310" version="2" timestamp="2012-07-15T13:17:14Z" uid="722137" user="OSMF Redaction Account" changeset="12228626" lat="37.3185838" lon="13.5742632"/>
  <node id="473208311" version="3" timestamp="2012-08-08T23:41:13Z" uid="330007" user="pikappa79" changeset="12663331" lat="37.3178365" lon="13.5717509">
    <tag k="railway" v="crossing"/>
  </node>
  <node id="473208313" version="2" timestamp="2012-07-15T13:17:14Z" uid="722137" user="OSMF Redaction Account" changeset="12228626" lat="37.317149" lon="13.5680776"/>
  <node id="473208315" version="2" timestamp="2012-07-15T13:17:14Z" uid="722137" user="OSMF Redaction Account" changeset="12228626" lat="37.3158342" lon="13.5662863"/>
  <node id="473208316" version="2" timestamp="2012-07-15T13:17:14Z" uid="722137" user="OSMF Redaction Account" changeset="12228626" lat="37.314793" lon="13.5657392"/>
  <node id="473208317" version="2" timestamp="2012-07-15T13:17:13Z" uid="722137" user="OSMF Redaction Account" changeset="12228626" lat="37.3137606" lon="13.5656245"/>
  <node id="473208319" version="3" timestamp="2012-08-08T23:41:13Z" uid="330007" user="pikappa79" changeset="12663331" lat="37.3122913" lon="13.5657609"/>
  <node id="473208320" version="2" timestamp="2012-07-15T13:17:13Z" uid="722137" user="OSMF Redaction Account" changeset="12228626" lat="37.3108664" lon="13.5670716"/>
  <node id="473208322" version="3" timestamp="2012-08-08T23:41:13Z" uid="330007" user="pikappa79" changeset="12663331" lat="37.3095845" lon="13.5687288"/>
  <node id="473208324" version="3" timestamp="2012-08-08T23:41:13Z" uid="330007" user="pikappa79" changeset="12663331" lat="37.3065113" lon="13.5703492"/>
  <node id="473208327" version="3" timestamp="2012-08-08T23:41:13Z" uid="330007" user="pikappa79" changeset="12663331" lat="37.3044084" lon="13.5715477"/>
  <node id="473208332" version="3" timestamp="2012-08-08T23:41:13Z" uid="330007" user="pikappa79" changeset="12663331" lat="37.3008749" lon="13.5807848"/>
  <node id="473208333" version="2" timestamp="2012-07-15T13:17:13Z" uid="722137" user="OSMF Redaction Account" changeset="12228626" lat="37.3003041" lon="13.58194"/>
  <node id="473208334" version="2" timestamp="2012-07-15T13:17:12Z" uid="722137" user="OSMF Redaction Account" changeset="12228626" lat="37.2995452" lon="13.5827607"/>
  <node id="473208335" version="3" timestamp="2012-08-08T23:41:19Z" uid="330007" user="pikappa79" changeset="12663331" lat="37.297453" lon="13.5834109"/>
  <node id="473208336" version="3" timestamp="2012-08-08T23:41:19Z" uid="330007" user="pikappa79" changeset="12663331" lat="37.296671" lon="13.583293"/>
  <node id="473208337" version="3" timestamp="2012-08-08T23:41:19Z" uid="330007" user="pikappa79" changeset="12663331" lat="37.2953926" lon="13.5824629"/>
  <node id="473208338" version="3" timestamp="2012-08-08T23:41:19Z" uid="330007" user="pikappa79" changeset="12663331" lat="37.2941189" lon="13.5813544"/>
  <node id="473208339" version="3" timestamp="2012-08-08T23:41:20Z" uid="330007" user="pikappa79" changeset="12663331" lat="37.2929573" lon="13.5798571"/>
  <node id="473208340" version="4" timestamp="2012-08-08T23:41:20Z" uid="330007" user="pikappa79" changeset="12663331" lat="37.2925434" lon="13.5786768"/>
  <node id="473208341" version="5" timestamp="2012-08-08T23:41:13Z" uid="330007" user="pikappa79" changeset="12663331" lat="37.2924434" lon="13.5779856"/>
  <node id="473208342" version="5" timestamp="2012-08-08T23:41:13Z" uid="330007" user="pikappa79" changeset="12663331" lat="37.2923777" lon="13.5768667"/>
  <node id="473208343" version="5" timestamp="2012-08-08T23:41:13Z" uid="330007" user="pikappa79" changeset="12663331" lat="37.2922179" lon="13.5759019"/>
  <node id="473208344" version="2" timestamp="2012-07-15T13:17:12Z" uid="722137" user="OSMF Redaction Account" changeset="12228626" lat="37.2920095" lon="13.5743867"/>
  <node id="473208345" version="2" timestamp="2012-07-15T13:17:12Z" uid="722137" user="OSMF Redaction Account" changeset="12228626" lat="37.2917272" lon="13.5730543"/>
  <node id="473208351" version="2" timestamp="2012-07-15T13:18:36Z" uid="722137" user="OSMF Redaction Account" changeset="12228661" lat="37.2913036" lon="13.5585918"/>
  <node id="473208352" version="2" timestamp="2012-07-15T13:18:35Z" uid="722137" user="OSMF Redaction Account" changeset="12228661" lat="37.290836" lon="13.5568182"/>
  <node id="473208353" version="3" timestamp="2012-08-08T23:41:13Z" uid="330007" user="pikappa79" changeset="12663331" lat="37.2888175" lon="13.5519857"/>
  <node id="473208354" version="2" timestamp="2012-07-15T13:18:35Z" uid="722137" user="OSMF Redaction Account" changeset="12228661" lat="37.2885505" lon="13.5506767"/>
  <node id="473208355" version="2" timestamp="2012-07-15T13:18:35Z" uid="722137" user="OSMF Redaction Account" changeset="12228661" lat="37.288536" lon="13.5500435"/>
  <node id="473208356" version="2" timestamp="2012-07-15T13:18:35Z" uid="722137" user="OSMF Redaction Account" changeset="12228661" lat="37.2889471" lon="13.5487334"/>
  <node id="473208358" version="2" timestamp="2012-07-15T13:18:35Z" uid="722137" user="OSMF Redaction Account" changeset="12228661" lat="37.2903717" lon="13.5444423"/>
  <node id="473208359" version="2" timestamp="2012-07-15T13:18:35Z" uid="722137" user="OSMF Redaction Account" changeset="12228661" lat="37.2911694" lon="13.5412586"/>
  <node id="473208361" version="2" timestamp="2012-07-15T13:18:36Z" uid="722137" user="OSMF Redaction Account" changeset="12228661" lat="37.2915082" lon="13.5366066"/>
  <node id="473208362" version="2" timestamp="2012-07-15T13:18:35Z" uid="722137" user="OSMF Redaction Account" changeset="12228661" lat="37.2911058" lon="13.5345312"/>
  <node id="473208363" version="2" timestamp="2012-07-15T13:18:35Z" uid="722137" user="OSMF Redaction Account" changeset="12228661" lat="37.2909364" lon="13.5337971"/>
  <node id="473208366" version="2" timestamp="2012-07-15T13:17:13Z" uid="722137" user="OSMF Redaction Account" changeset="12228626" lat="37.3080847" lon="13.5635754"/>
  <node id="473208368" version="2" timestamp="2012-07-15T13:17:13Z" uid="722137" user="OSMF Redaction Account" changeset="12228626" lat="37.3091788" lon="13.5633813"/>
</osm>
