<?xml version='1.0' encoding='UTF-8'?>
<osm version="0.6" generator="libosmium/2.20.0">
  <node id="478722940" version="5" timestamp="2010-03-06T22:10:19Z" uid="6975" user="ulfl" changeset="4055485" lat="42.974198" lon="-0.9939787">
    <tag k="ele" v="1573"/>
    <tag k="mountain_pass" v="yes"/>
    <tag k="name:es" v="Puerto de Larrau"/>
    <tag k="name:fr" v="Port de Larrau"/>
    <tag k="place" v="locality"/>
    <tag k="wikipedia" v="http://en.wikipedia.org/wiki/Port_de_Larrau"/>
  </node>
  <node id="478722940" version="6" timestamp="2010-05-14T10:48:19Z" uid="10610" user="RedFox" changeset="4694600" lat="42.974198" lon="-0.9939787">
    <tag k="ele" v="1573"/>
    <tag k="mountain_pass" v="yes"/>
    <tag k="name:es" v="Puerto de Larrau"/>
    <tag k="name:fr" v="Port de Larrau"/>
    <tag k="place" v="locality"/>
    <tag k="wikipedia:en" v="Port de Larrau"/>
    <tag k="wikipedia:fr" v="Port de Larrau"/>
  </node>
  <node id="478722940" version="7" timestamp="2010-06-08T19:23:59Z" uid="10610" user="RedFox" changeset="4939840" lat="42.9741837" lon="-0.9935864">
    <tag k="ele" v="1573"/>
    <tag k="mountain_pass" v="yes"/>
    <tag k="name:es" v="Puerto de Larrau"/>
    <tag k="name:fr" v="Port de Larrau"/>
    <tag k="place" v="locality"/>
    <tag k="wikipedia:en" v="Port de Larrau"/>
    <tag k="wikipedia:fr" v="Port de Larrau"/>
  </node>
  <node id="478722940" version="8" timestamp="2010-06-24T19:45:23Z" uid="276785" user="Chemins" changeset="5068834" lat="42.9741837" lon="-0.9935864">
    <tag k="ele" v="1573"/>
    <tag k="mountain_pass" v="yes"/>
    <tag k="name:es" v="Puerto de Larrau"/>
    <tag k="name:fr" v="Port de Larrau"/>
    <tag k="place" v="locality"/>
    <tag k="wikipedia:en" v="Port de Larrau"/>
  </node>
  <node id="478722940" version="9" timestamp="2010-07-04T10:10:33Z" uid="276785" user="Chemins" changeset="5131189" lat="42.9741837" lon="-0.9935864">
    <tag k="ele" v="1573"/>
    <tag k="loc_name" v="Üthürzehetako Lephua"/>
    <tag k="mountain_pass" v="yes"/>
    <tag k="name:es" v="Puerto de Larrau"/>
    <tag k="name:fr" v="Port de Larrau"/>
    <tag k="place" v="locality"/>
    <tag k="wikipedia:en" v="Port de Larrau"/>
  </node>
  <node id="478722940" version="10" timestamp="2010-07-05T06:45:43Z" uid="276785" user="Chemins" changeset="5139027" lat="42.9741837" lon="-0.9935864">
    <tag k="ele" v="1573"/>
    <tag k="loc_name" v="Üthürzehetako Lephua"/>
    <tag k="mountain_pass" v="yes"/>
    <tag k="name:es" v="Puerto de Larrau"/>
    <tag k="name:fr" v="Port de Larrau"/>
    <tag k="place" v="locality"/>
    <tag k="wikipedia:en" v="Port de Larrau"/>
  </node>
  <node id="478722940" version="11" timestamp="2010-08-18T21:03:03Z" uid="6975" user="ulfl" changeset="5530689" lat="42.9741837" lon="-0.9935864">
    <tag k="ele" v="1573"/>
    <tag k="loc_name" v="Üthürzehetako Lephua"/>
    <tag k="mountain_pass" v="yes"/>
    <tag k="name" v="Port de Larrau"/>
    <tag k="name:es" v="Puerto de Larrau"/>
    <tag k="name:fr" v="Port de Larrau"/>
    <tag k="place" v="locality"/>
    <tag k="wikipedia:en" v="Port de Larrau"/>
  </node>
  <node id="478722940" version="12" timestamp="2010-12-14T13:39:37Z" uid="35074" user="mikeltxo" changeset="6658411" lat="42.9741837" lon="-0.9935864">
    <tag k="ele" v="1573"/>
    <tag k="loc_name" v="Üthürzehetako Lephua"/>
    <tag k="mountain_pass" v="yes"/>
    <tag k="name" v="Port de Larrau"/>
    <tag k="name:es" v="Puerto de Larrau"/>
    <tag k="name:eu" v="Larraineko mendatea"/>
    <tag k="name:fr" v="Port de Larrau"/>
    <tag k="place" v="locality"/>
    <tag k="wikipedia:en" v="Port de Larrau"/>
  </node>
  <node id="478722940" version="13" timestamp="2011-08-14T21:52:35Z" uid="276785" user="Chemins" changeset="9021570" lat="42.9741837" lon="-0.9935864"/>
</osm>
