<?xml version='1.0' encoding='UTF-8'?>
<osm version="0.6" generator="libosmium/2.20.0">
  <node id="478808135" version="6" timestamp="2010-09-22T12:29:21Z" uid="115477" user="wowik" changeset="5845138" lat="55.047797" lon="21.6759972">
    <tag k="addr:country" v="RU"/>
    <tag k="addr:district" v="Славский район"/>
    <tag k="addr:postcode" v="238600"/>
    <tag k="addr:region" v="Калининградская область"/>
    <tag k="cladr:code" v="3901300100000"/>
    <tag k="cladr:name" v="Славск"/>
    <tag k="cladr:suffix" v="Город"/>
    <tag k="int_name" v="Slavsk"/>
    <tag k="name" v="Славск"/>
    <tag k="name:de" v="Heinrichswalde"/>
    <tag k="name:en" v="Slavsk"/>
    <tag k="name:lt" v="Gastos"/>
    <tag k="name:pl" v="Slawsk"/>
    <tag k="name:ru" v="Славск"/>
    <tag k="place" v="village"/>
  </node>
  <node id="478808135" version="7" timestamp="2011-05-28T16:06:25Z" uid="357344" user="RotBlau" changeset="8273238" lat="55.047797" lon="21.6759972">
    <tag k="addr:country" v="RU"/>
    <tag k="addr:district" v="Славский район"/>
    <tag k="addr:postcode" v="238600"/>
    <tag k="addr:region" v="Калининградская область"/>
    <tag k="cladr:code" v="3901300100000"/>
    <tag k="cladr:name" v="Славск"/>
    <tag k="cladr:suffix" v="Город"/>
    <tag k="int_name" v="Slavsk"/>
    <tag k="name" v="Славск"/>
    <tag k="name:de" v="Heinrichswalde"/>
    <tag k="name:en" v="Slavsk"/>
    <tag k="name:lt" v="Gastos"/>
    <tag k="name:pl" v="Slawsk"/>
    <tag k="name:ru" v="Славск"/>
    <tag k="old_name" v="Heinrichswalde"/>
    <tag k="place" v="village"/>
  </node>
  <node id="478808135" version="8" timestamp="2011-08-09T20:32:20Z" uid="297358" user="patashnik" changeset="8971194" lat="55.047797" lon="21.6759972">
    <tag k="addr:country" v="RU"/>
    <tag k="addr:district" v="Славский район"/>
    <tag k="addr:region" v="Калининградская область"/>
    <tag k="cladr:code" v="3901300100000"/>
    <tag k="int_name" v="Slavsk"/>
    <tag k="name" v="Славск"/>
    <tag k="name:de" v="Heinrichswalde"/>
    <tag k="name:en" v="Slavsk"/>
    <tag k="name:lt" v="Gastos"/>
    <tag k="name:pl" v="Slawsk"/>
    <tag k="name:ru" v="Славск"/>
    <tag k="old_name" v="Heinrichswalde"/>
    <tag k="place" v="village"/>
  </node>
  <node id="478808135" version="9" timestamp="2011-12-30T18:35:09Z" uid="260756" user="Felis Pimeja" changeset="10248219" lat="55.047797" lon="21.6759972">
    <tag k="addr:country" v="RU"/>
    <tag k="addr:district" v="Славский район"/>
    <tag k="addr:region" v="Калининградская область"/>
    <tag k="cladr:code" v="3901300100000"/>
    <tag k="int_name" v="Slavsk"/>
    <tag k="name" v="Славск"/>
    <tag k="name:de" v="Heinrichswalde"/>
    <tag k="name:en" v="Slavsk"/>
    <tag k="name:lt" v="Gastos"/>
    <tag k="name:pl" v="Slawsk"/>
    <tag k="name:ru" v="Славск"/>
    <tag k="official_status" v="ru:город"/>
    <tag k="old_name" v="Heinrichswalde"/>
    <tag k="place" v="village"/>
    <tag k="population" v="5033"/>
    <tag k="wikipedia" v="ru:Славск"/>
  </node>
  <node id="478808135" version="10" timestamp="2012-02-01T11:50:40Z" uid="234874" user="-raul" changeset="10557903" lat="55.047797" lon="21.6759972">
    <tag k="addr:country" v="RU"/>
    <tag k="addr:district" v="Славский район"/>
    <tag k="addr:region" v="Калининградская область"/>
    <tag k="cladr:code" v="3901300100000"/>
    <tag k="int_name" v="Slavsk"/>
    <tag k="name" v="Славск"/>
    <tag k="name:de" v="Heinrichswalde"/>
    <tag k="name:en" v="Slavsk"/>
    <tag k="name:et" v="Slavsk"/>
    <tag k="name:lt" v="Gastos"/>
    <tag k="name:pl" v="Slawsk"/>
    <tag k="name:ru" v="Славск"/>
    <tag k="official_status" v="ru:город"/>
    <tag k="old_name" v="Heinrichswalde"/>
    <tag k="place" v="village"/>
    <tag k="population" v="5033"/>
    <tag k="wikipedia" v="ru:Славск"/>
  </node>
  <node id="478808135" version="11" timestamp="2012-07-20T02:19:04Z" uid="722137" user="OSMF Redaction Account" changeset="12357935" lat="55.047797" lon="21.6759971">
    <tag k="addr:country" v="RU"/>
    <tag k="addr:district" v="Славский район"/>
    <tag k="addr:region" v="Калининградская область"/>
    <tag k="cladr:code" v="3901300100000"/>
    <tag k="int_name" v="Slavsk"/>
    <tag k="name" v="Славск"/>
    <tag k="name:de" v="Heinrichswalde"/>
    <tag k="name:en" v="Slavsk"/>
    <tag k="name:et" v="Slavsk"/>
    <tag k="name:lt" v="Gastos"/>
    <tag k="name:pl" v="Slawsk"/>
    <tag k="name:ru" v="Славск"/>
    <tag k="official_status" v="ru:город"/>
    <tag k="old_name" v="Heinrichswalde"/>
    <tag k="place" v="town"/>
    <tag k="population" v="5033"/>
    <tag k="wikipedia" v="ru:Славск"/>
  </node>
</osm>
