<?xml version='1.0' encoding='UTF-8'?>
<osm version="0.6" generator="libosmium/2.20.0">
  <node id="483101340" version="4" timestamp="2011-01-29T20:25:35Z" uid="107674" user="GeoCounter" changeset="7126889" lat="50.0268284" lon="8.885059">
    <tag k="highway" v="bus_stop"/>
    <tag k="name" v="Rodgau-Passage"/>
    <tag k="network" v="RMV"/>
    <tag k="operator" v="KVG Offenbach"/>
    <tag k="public_transport" v="stop_position"/>
    <tag k="uic_name" v="JÃ¼gesheim Rodgau-Passage, Rodgau"/>
    <tag k="uic_ref" v="104606"/>
  </node>
  <node id="483101340" version="5" timestamp="2011-12-12T19:10:43Z" uid="65364" user="Harry99" changeset="10100945" lat="50.0268284" lon="8.885059">
    <tag k="bus" v="yes"/>
    <tag k="name" v="Rodgau-Passage"/>
    <tag k="public_transport" v="stop_position"/>
  </node>
  <node id="483101552" version="1" timestamp="2009-09-04T13:44:33Z" uid="43967" user="railsnail" changeset="2369649" lat="46.8244377" lon="12.8442889"/>
  <node id="483101552" version="2" timestamp="2010-07-04T14:46:58Z" uid="43967" user="railsnail" changeset="5133415" lat="46.8245015" lon="12.8442817"/>
  <node id="483101552" version="3" timestamp="2010-10-24T13:55:51Z" uid="43967" user="railsnail" changeset="6156946" lat="46.8245278" lon="12.8442891"/>
  <node id="483101340" version="6" timestamp="2012-07-19T04:14:25Z" uid="722137" user="OSMF Redaction Account" changeset="12307784" lat="50.0268508" lon="8.885008">
    <tag k="bus" v="yes"/>
    <tag k="name" v="Rodgau-Passage"/>
    <tag k="public_transport" v="stop_position"/>
  </node>
  <node id="483101340" version="7" timestamp="2012-07-27T08:51:19Z" uid="282922" user="surveyor54" changeset="12508532" lat="50.0267945" lon="8.8850691">
    <tag k="bus" v="yes"/>
    <tag k="name" v="Rodgau-Passage"/>
    <tag k="public_transport" v="stop_position"/>
  </node>
  <node id="483101552" version="4" timestamp="2012-07-17T01:43:45Z" uid="722137" user="OSMF Redaction Account" changeset="12254914" lat="46.8245278" lon="12.8442891"/>
</osm>
