<?xml version='1.0' encoding='UTF-8'?>
<osm version="0.6" generator="libosmium/2.20.0">
  <node id="485865234" version="4" timestamp="2010-10-16T17:35:15Z" uid="16922" user="amai" changeset="6059781" lat="13.7200472" lon="100.5358512">
    <tag k="name:en" v="Maha Mek"/>
    <tag k="place" v="village"/>
  </node>
  <node id="485865234" version="5" timestamp="2012-03-26T06:04:32Z" uid="100662" user="Paul_012" changeset="11102302" lat="13.7200472" lon="100.5358512">
    <tag k="name:en" v="Maha Mek"/>
    <tag k="place" v="neighbourhood"/>
  </node>
  <node id="485865239" version="3" timestamp="2010-11-06T21:21:33Z" uid="16922" user="amai" changeset="6306531" lat="13.7098977" lon="100.5220755">
    <tag k="name" v="ทุ่งวัดดอน"/>
    <tag k="name:en" v="Wat Don"/>
    <tag k="place" v="village"/>
  </node>
  <node id="485865239" version="4" timestamp="2012-03-26T06:04:32Z" uid="100662" user="Paul_012" changeset="11102302" lat="13.7098977" lon="100.5220755">
    <tag k="name" v="ทุ่งวัดดอน"/>
    <tag k="name:en" v="Wat Don"/>
    <tag k="place" v="neighbourhood"/>
  </node>
  <node id="485865234" version="6" timestamp="2012-07-20T19:32:37Z" uid="722137" user="OSMF Redaction Account" changeset="12388510" lat="13.7200471" lon="100.5358513">
    <tag k="name" v="Maha Mek"/>
    <tag k="place" v="neighbourhood"/>
  </node>
  <node id="485865239" version="5" timestamp="2012-07-20T19:32:36Z" uid="722137" user="OSMF Redaction Account" changeset="12388510" lat="13.7098976" lon="100.5220756">
    <tag k="name" v="Wat Don"/>
    <tag k="place" v="neighbourhood"/>
  </node>
</osm>
