<?xml version='1.0' encoding='UTF-8'?>
<osm version="0.6" generator="libosmium/2.20.0">
  <node id="486592402" version="2" timestamp="2010-04-11T04:50:33Z" uid="20587" user="balrog-kun" changeset="4389130" lat="50.894207" lon="17.0619487">
    <tag k="name" v="Michałowice"/>
    <tag k="place" v="village"/>
  </node>
  <node id="486592405" version="2" timestamp="2010-04-11T04:50:33Z" uid="20587" user="balrog-kun" changeset="4389130" lat="50.912082" lon="17.06523">
    <tag k="name" v="Nowojowice"/>
    <tag k="place" v="village"/>
  </node>
  <node id="486592405" version="3" timestamp="2010-04-27T04:20:52Z" uid="30632" user="antblant" changeset="4537915" lat="50.912082" lon="17.06523">
    <tag k="name" v="Nowojowice"/>
    <tag k="place" v="village"/>
    <tag k="teryt:simc" v="0884660"/>
  </node>
  <node id="486592407" version="2" timestamp="2010-04-11T04:50:33Z" uid="20587" user="balrog-kun" changeset="4389130" lat="50.8280773" lon="17.0608781">
    <tag k="name" v="Ludów Polski"/>
    <tag k="place" v="village"/>
  </node>
  <node id="486592407" version="3" timestamp="2010-04-27T04:20:38Z" uid="30632" user="antblant" changeset="4537912" lat="50.8280773" lon="17.0608781">
    <tag k="name" v="Ludów Polski"/>
    <tag k="place" v="village"/>
    <tag k="teryt:simc" v="0880538"/>
  </node>
  <node id="486592411" version="2" timestamp="2010-04-11T04:50:33Z" uid="20587" user="balrog-kun" changeset="4389130" lat="50.7098736" lon="17.0446756">
    <tag k="name" v="Gębice"/>
    <tag k="place" v="village"/>
  </node>
  <node id="486592413" version="2" timestamp="2010-04-11T04:50:33Z" uid="20587" user="balrog-kun" changeset="4389130" lat="50.6972966" lon="17.0944289">
    <tag k="name" v="Romanów"/>
    <tag k="place" v="village"/>
  </node>
  <node id="486592417" version="2" timestamp="2010-04-11T04:50:33Z" uid="20587" user="balrog-kun" changeset="4389130" lat="50.6910742" lon="17.0839686">
    <tag k="name" v="Dobroszów"/>
    <tag k="place" v="village"/>
  </node>
  <node id="486592419" version="2" timestamp="2010-04-11T04:50:33Z" uid="20587" user="balrog-kun" changeset="4389130" lat="50.683006" lon="17.044851">
    <tag k="name" v="Witostowice"/>
    <tag k="place" v="village"/>
  </node>
  <node id="486592419" version="3" timestamp="2010-04-27T04:20:37Z" uid="30632" user="antblant" changeset="4537912" lat="50.683006" lon="17.044851">
    <tag k="name" v="Witostowice"/>
    <tag k="place" v="village"/>
    <tag k="teryt:simc" v="0856971"/>
  </node>
  <node id="486593956" version="1" timestamp="2009-09-06T19:42:46Z" uid="6975" user="ulfl" changeset="2395947" lat="50.1277066" lon="10.9839135">
    <tag k="access" v="permissive"/>
    <tag k="amenity" v="parking"/>
    <tag k="parking" v="surface"/>
  </node>
  <node id="486598832" version="3" timestamp="2011-04-19T19:41:09Z" uid="9581" user="Lobelt" changeset="7910081" lat="49.1144217" lon="7.9157765"/>
  <node id="486593956" version="2" timestamp="2012-07-19T05:59:38Z" uid="722137" user="OSMF Redaction Account" changeset="12309799" lat="50.1277066" lon="10.9839135"/>
  <node id="486598832" version="4" timestamp="2012-04-05T21:58:33Z" uid="328555" user="peb12345" changeset="11195110" lat="49.1144217" lon="7.9157765"/>
</osm>
