<?xml version='1.0' encoding='UTF-8'?>
<osm version="0.6" generator="libosmium/2.20.0">
  <node id="489751192" version="3" timestamp="2009-12-24T04:46:57Z" uid="6975" user="ulfl" changeset="3439981" lat="49.2527471" lon="8.8767369">
    <tag k="amenity" v="pub"/>
    <tag k="name" v="Keltic Tavern"/>
  </node>
  <node id="489751192" version="4" timestamp="2010-06-21T19:14:17Z" uid="26299" user="uboot" changeset="5045482" lat="49.2527399" lon="8.8767379">
    <tag k="amenity" v="pub"/>
    <tag k="name" v="Keltic Tavern"/>
  </node>
  <node id="489751192" version="5" timestamp="2011-04-03T19:13:34Z" uid="290680" user="wheelmap_visitor" changeset="7757587" lat="49.2527399" lon="8.8767379">
    <tag k="amenity" v="pub"/>
    <tag k="name" v="Keltic Tavern"/>
    <tag k="wheelchair" v="no"/>
  </node>
  <node id="489751192" version="6" timestamp="2012-01-13T16:29:23Z" uid="131968" user="changchun_1" changeset="10379966" lat="49.2527399" lon="8.8767379"/>
  <node id="489759555" version="4" timestamp="2009-12-24T03:41:03Z" uid="6975" user="ulfl" changeset="3439763" lat="9.960187" lon="-84.3179321">
    <tag k="name" v="Leandro"/>
    <tag k="shop" v="bakery"/>
  </node>
  <node id="489759555" version="5" timestamp="2010-07-21T00:37:23Z" uid="44547" user="vogtgbr" changeset="5275399" lat="9.960187" lon="-84.3179321">
    <tag k="addr:city" v="TurrÃºcares"/>
    <tag k="name" v="Leandro"/>
    <tag k="shop" v="bakery"/>
  </node>
</osm>
