<?xml version='1.0' encoding='UTF-8'?>
<osm version="0.6" generator="libosmium/2.20.0">
  <node id="490981882" version="1" timestamp="2009-09-09T12:36:47Z" uid="43863" user="Rundling" changeset="2424859" lat="52.9728285" lon="10.5442405"/>
  <node id="490981882" version="2" timestamp="2009-09-15T10:26:18Z" uid="31231" user="Andre68" changeset="2490854" lat="52.9728331" lon="10.5442591"/>
  <node id="490981882" version="3" timestamp="2009-09-20T07:07:14Z" uid="43863" user="Rundling" changeset="2541557" lat="52.9728372" lon="10.5442564"/>
  <node id="490981884" version="1" timestamp="2009-09-09T12:36:48Z" uid="43863" user="Rundling" changeset="2424859" lat="52.9728222" lon="10.5442307"/>
  <node id="490981884" version="2" timestamp="2009-09-15T10:26:19Z" uid="31231" user="Andre68" changeset="2490854" lat="52.9728222" lon="10.5442307"/>
  <node id="490981886" version="1" timestamp="2009-09-09T12:36:48Z" uid="43863" user="Rundling" changeset="2424859" lat="52.9727903" lon="10.544181"/>
  <node id="490981886" version="2" timestamp="2009-09-15T10:26:18Z" uid="31231" user="Andre68" changeset="2490854" lat="52.9727904" lon="10.5441806"/>
  <node id="490981886" version="3" timestamp="2009-09-20T07:07:14Z" uid="43863" user="Rundling" changeset="2541557" lat="52.9727945" lon="10.5441779"/>
  <node id="490981888" version="1" timestamp="2009-09-09T12:36:48Z" uid="43863" user="Rundling" changeset="2424859" lat="52.9727327" lon="10.5441811"/>
  <node id="490981888" version="2" timestamp="2009-09-15T10:26:18Z" uid="31231" user="Andre68" changeset="2490854" lat="52.9727328" lon="10.5441814"/>
  <node id="490981888" version="3" timestamp="2009-09-20T07:07:14Z" uid="43863" user="Rundling" changeset="2541557" lat="52.9727369" lon="10.5441787"/>
  <node id="490981893" version="1" timestamp="2009-09-09T12:36:48Z" uid="43863" user="Rundling" changeset="2424859" lat="52.9726907" lon="10.5442571"/>
  <node id="490981893" version="2" timestamp="2009-09-15T10:26:17Z" uid="31231" user="Andre68" changeset="2490854" lat="52.9726915" lon="10.5442575"/>
  <node id="490981893" version="3" timestamp="2009-09-20T07:07:14Z" uid="43863" user="Rundling" changeset="2541557" lat="52.9726956" lon="10.5442548"/>
  <node id="490981895" version="1" timestamp="2009-09-09T12:36:48Z" uid="43863" user="Rundling" changeset="2424859" lat="52.9727004" lon="10.5443661"/>
  <node id="490981895" version="2" timestamp="2009-09-15T10:26:19Z" uid="31231" user="Andre68" changeset="2490854" lat="52.9727004" lon="10.5443661"/>
  <node id="490981896" version="1" timestamp="2009-09-09T12:36:48Z" uid="43863" user="Rundling" changeset="2424859" lat="52.9727512" lon="10.544418"/>
  <node id="490981896" version="2" timestamp="2009-09-15T10:26:17Z" uid="31231" user="Andre68" changeset="2490854" lat="52.9727514" lon="10.544416"/>
  <node id="490981896" version="3" timestamp="2009-09-20T07:07:14Z" uid="43863" user="Rundling" changeset="2541557" lat="52.9727555" lon="10.5444133"/>
  <node id="490981898" version="1" timestamp="2009-09-09T12:36:48Z" uid="43863" user="Rundling" changeset="2424859" lat="52.9727857" lon="10.5444043"/>
  <node id="490981898" version="2" timestamp="2009-09-15T10:26:19Z" uid="31231" user="Andre68" changeset="2490854" lat="52.9727857" lon="10.5444043"/>
  <node id="490981900" version="1" timestamp="2009-09-09T12:36:48Z" uid="43863" user="Rundling" changeset="2424859" lat="52.9728045" lon="10.5443968"/>
  <node id="490981900" version="2" timestamp="2009-09-15T10:26:17Z" uid="31231" user="Andre68" changeset="2490854" lat="52.9728041" lon="10.5443958"/>
  <node id="490981900" version="3" timestamp="2009-09-20T07:07:14Z" uid="43863" user="Rundling" changeset="2541557" lat="52.9728082" lon="10.5443931"/>
  <node id="490981904" version="1" timestamp="2009-09-09T12:36:48Z" uid="43863" user="Rundling" changeset="2424859" lat="52.9728349" lon="10.5443186"/>
  <node id="490981904" version="2" timestamp="2009-09-15T10:26:17Z" uid="31231" user="Andre68" changeset="2490854" lat="52.9728249" lon="10.5443598"/>
  <node id="490981904" version="3" timestamp="2009-09-20T07:07:13Z" uid="43863" user="Rundling" changeset="2541557" lat="52.972829" lon="10.5443571"/>
  <node id="490981905" version="1" timestamp="2009-09-09T12:36:48Z" uid="43863" user="Rundling" changeset="2424859" lat="52.9728285" lon="10.5442405"/>
  <node id="490981905" version="2" timestamp="2009-09-15T10:26:17Z" uid="31231" user="Andre68" changeset="2490854" lat="52.9728357" lon="10.5443095"/>
  <node id="490981905" version="3" timestamp="2009-09-20T07:07:14Z" uid="43863" user="Rundling" changeset="2541557" lat="52.9728398" lon="10.5443068"/>
  <node id="490982221" version="2" timestamp="2010-01-31T19:28:08Z" uid="9581" user="Lobelt" changeset="3762456" lat="49.543814" lon="9.7206707">
    <tag k="power" v="tower"/>
  </node>
  <node id="490982221" version="3" timestamp="2012-01-28T17:23:38Z" uid="131968" user="changchun_1" changeset="10522914" lat="49.543814" lon="9.7206707"/>
  <node id="490984056" version="4" timestamp="2011-03-31T20:36:15Z" uid="66036" user="h4v" changeset="7729901" lat="51.7469426" lon="19.4667891"/>
  <node id="490984292" version="2" timestamp="2010-03-22T18:58:23Z" uid="58091" user="Andreas M" changeset="4205574" lat="48.2847652" lon="16.2148013"/>
  <node id="490986113" version="1" timestamp="2009-09-09T12:40:05Z" uid="123700" user="Mala" changeset="2424887" lat="50.0630588" lon="19.9368173">
    <tag k="amenity" v="bar"/>
    <tag k="name" v="Pool Bar &quot;U Kacpra&quot;"/>
  </node>
  <node id="490986117" version="1" timestamp="2009-09-09T12:40:05Z" uid="123700" user="Mala" changeset="2424887" lat="50.0631679" lon="19.9369042">
    <tag k="amenity" v="cafe"/>
    <tag k="name" v="Darts Cafe Bar"/>
  </node>
  <node id="490986117" version="2" timestamp="2012-03-08T14:02:38Z" uid="598456" user="vinci4352" changeset="10909503" lat="50.0631698" lon="19.9369505">
    <tag k="amenity" v="cafe"/>
    <tag k="name" v="Darts Cafe Bar"/>
  </node>
  <node id="490986119" version="1" timestamp="2009-09-09T12:40:05Z" uid="123700" user="Mala" changeset="2424887" lat="50.0632382" lon="19.9368513">
    <tag k="amenity" v="bureau_de_change"/>
  </node>
  <node id="490986121" version="1" timestamp="2009-09-09T12:40:06Z" uid="123700" user="Mala" changeset="2424887" lat="50.0633207" lon="19.9370175">
    <tag k="amenity" v="nightclub"/>
    <tag k="name" v="Carpe Diem II"/>
  </node>
  <node id="490986122" version="1" timestamp="2009-09-09T12:40:06Z" uid="123700" user="Mala" changeset="2424887" lat="50.0633813" lon="19.9370666">
    <tag k="addr:housenumber" v="6"/>
    <tag k="addr:street" v="Sławkowska"/>
    <tag k="name" v="Krakowski Antykwariat Naukowy"/>
    <tag k="shop" v="books"/>
  </node>
  <node id="490986124" version="1" timestamp="2009-09-09T12:40:06Z" uid="123700" user="Mala" changeset="2424887" lat="50.0634394" lon="19.9371194">
    <tag k="amenity" v="cafe"/>
    <tag k="name" v="Coffeeshop Company"/>
  </node>
  <node id="490986126" version="1" timestamp="2009-09-09T12:40:06Z" uid="123700" user="Mala" changeset="2424887" lat="50.0635073" lon="19.9371761">
    <tag k="amenity" v="cafe"/>
    <tag k="name" v="Naber"/>
  </node>
  <node id="490986129" version="1" timestamp="2009-09-09T12:40:06Z" uid="123700" user="Mala" changeset="2424887" lat="50.0635704" lon="19.9372289">
    <tag k="name" v="Lody U Jacka i Moniki"/>
    <tag k="shop" v="ice_cream"/>
  </node>
  <node id="490986131" version="1" timestamp="2009-09-09T12:40:06Z" uid="123700" user="Mala" changeset="2424887" lat="50.0630782" lon="19.9370628">
    <tag k="amenity" v="restaurant"/>
    <tag k="name" v="La Fontaine"/>
  </node>
  <node id="490986131" version="2" timestamp="2012-03-03T21:08:04Z" uid="598456" user="vinci4352" changeset="10862375" lat="50.0630883" lon="19.9369898">
    <tag k="amenity" v="restaurant"/>
    <tag k="name" v="La Fontaine"/>
  </node>
  <node id="490986131" version="3" timestamp="2012-03-08T14:03:10Z" uid="598456" user="vinci4352" changeset="10909503" lat="50.0630837" lon="19.9369392">
    <tag k="amenity" v="restaurant"/>
    <tag k="name" v="La Fontaine"/>
  </node>
  <node id="490986132" version="1" timestamp="2009-09-09T12:40:06Z" uid="123700" user="Mala" changeset="2424887" lat="50.0631558" lon="19.9371119">
    <tag k="name" v="Jaworzyna-Juventur"/>
    <tag k="shop" v="travel_agency"/>
  </node>
  <node id="490986132" version="2" timestamp="2012-03-03T21:08:02Z" uid="598456" user="vinci4352" changeset="10862375" lat="50.0631368" lon="19.937029">
    <tag k="name" v="Jaworzyna-Juventur"/>
    <tag k="shop" v="travel_agency"/>
  </node>
  <node id="490986132" version="3" timestamp="2012-03-08T14:02:57Z" uid="598456" user="vinci4352" changeset="10909503" lat="50.0631275" lon="19.9369654">
    <tag k="name" v="Jaworzyna-Juventur"/>
    <tag k="shop" v="travel_agency"/>
  </node>
  <node id="490986133" version="1" timestamp="2009-09-09T12:40:06Z" uid="123700" user="Mala" changeset="2424887" lat="50.0632285" lon="19.9371761">
    <tag k="name" v="Księgarnia &quot;Znak&quot;"/>
    <tag k="shop" v="books"/>
  </node>
  <node id="490986133" version="2" timestamp="2012-03-04T09:50:12Z" uid="598456" user="vinci4352" changeset="10866280" lat="50.0631905" lon="19.9373693">
    <tag k="name" v="Księgarnia &quot;Znak&quot;"/>
    <tag k="shop" v="books"/>
  </node>
  <node id="490986135" version="1" timestamp="2009-09-09T12:40:06Z" uid="123700" user="Mala" changeset="2424887" lat="50.0633061" lon="19.9372327">
    <tag k="amenity" v="restaurant"/>
    <tag k="cuisine" v="pizza"/>
    <tag k="name" v="Fabryka Pizzy"/>
  </node>
  <node id="490986135" version="2" timestamp="2012-03-04T09:50:11Z" uid="598456" user="vinci4352" changeset="10866280" lat="50.0632481" lon="19.9374758">
    <tag k="amenity" v="restaurant"/>
    <tag k="cuisine" v="pizza"/>
    <tag k="name" v="Fabryka Pizzy"/>
  </node>
  <node id="490986135" version="3" timestamp="2012-03-08T14:02:45Z" uid="598456" user="vinci4352" changeset="10909503" lat="50.0632245" lon="19.9374124">
    <tag k="amenity" v="restaurant"/>
    <tag k="cuisine" v="pizza"/>
    <tag k="name" v="Fabryka Pizzy"/>
  </node>
  <node id="490986139" version="1" timestamp="2009-09-09T12:40:06Z" uid="123700" user="Mala" changeset="2424887" lat="50.0633813" lon="19.937278">
    <tag k="addr:housenumber" v="3"/>
    <tag k="addr:street" v="Sławkowska"/>
    <tag k="name" v="Hotel Saski"/>
    <tag k="tourism" v="hotel"/>
  </node>
  <node id="490986139" version="2" timestamp="2012-03-04T09:50:11Z" uid="598456" user="vinci4352" changeset="10866280" lat="50.0633333" lon="19.9376052">
    <tag k="addr:housenumber" v="3"/>
    <tag k="addr:street" v="Sławkowska"/>
    <tag k="name" v="Hotel Saski"/>
    <tag k="tourism" v="hotel"/>
  </node>
  <node id="490986139" version="3" timestamp="2012-03-08T14:02:54Z" uid="598456" user="vinci4352" changeset="10909503" lat="50.0633097" lon="19.9375418">
    <tag k="addr:housenumber" v="3"/>
    <tag k="addr:street" v="Sławkowska"/>
    <tag k="name" v="Hotel Saski"/>
    <tag k="tourism" v="hotel"/>
  </node>
  <node id="490986141" version="1" timestamp="2009-09-09T12:40:06Z" uid="123700" user="Mala" changeset="2424887" lat="50.0634807" lon="19.9373762">
    <tag k="amenity" v="restaurant"/>
    <tag k="name" v="Restauracja Metropolitan"/>
  </node>
  <node id="490986141" version="2" timestamp="2012-03-04T09:50:19Z" uid="598456" user="vinci4352" changeset="10866280" lat="50.0634647" lon="19.9375881">
    <tag k="amenity" v="restaurant"/>
    <tag k="name" v="Restauracja Metropolitan"/>
  </node>
  <node id="490986141" version="3" timestamp="2012-03-08T14:05:24Z" uid="598456" user="vinci4352" changeset="10909503" lat="50.0634411" lon="19.9375247">
    <tag k="amenity" v="restaurant"/>
    <tag k="name" v="Restauracja Metropolitan"/>
  </node>
  <node id="490986143" version="1" timestamp="2009-09-09T12:40:06Z" uid="123700" user="Mala" changeset="2424887" lat="50.0636989" lon="19.9373271">
    <tag k="addr:housenumber" v="10"/>
    <tag k="amenity" v="restaurant"/>
    <tag k="name" v="Restauracja Figa z Makiem"/>
  </node>
  <node id="490986145" version="1" timestamp="2009-09-09T12:40:06Z" uid="123700" user="Mala" changeset="2424887" lat="50.0637811" lon="19.9374107">
    <tag k="addr:housenumber" v="12"/>
    <tag k="amenity" v="cafe"/>
    <tag k="name" v="Jazz Rock Cafe"/>
  </node>
  <node id="490986145" version="2" timestamp="2010-04-17T11:47:57Z" uid="91056" user="Yarl" changeset="4446654" lat="50.063746" lon="19.9374943">
    <tag k="addr:housenumber" v="12"/>
    <tag k="amenity" v="cafe"/>
    <tag k="name" v="Jazz Rock Cafe"/>
  </node>
  <node id="490986145" version="3" timestamp="2012-03-08T14:02:58Z" uid="598456" user="vinci4352" changeset="10909503" lat="50.06372" lon="19.9374191">
    <tag k="addr:housenumber" v="12"/>
    <tag k="amenity" v="cafe"/>
    <tag k="name" v="Jazz Rock Cafe"/>
  </node>
  <node id="490986146" version="1" timestamp="2009-09-09T12:40:06Z" uid="123700" user="Mala" changeset="2424887" lat="50.0638398" lon="19.9373919">
    <tag k="amenity" v="atm"/>
    <tag k="name" v="Cash4You"/>
    <tag k="operator" v="Cash4You"/>
  </node>
  <node id="490986146" version="2" timestamp="2010-04-17T11:47:57Z" uid="91056" user="Yarl" changeset="4446654" lat="50.0637896" lon="19.9375304">
    <tag k="amenity" v="atm"/>
    <tag k="name" v="Cash4You"/>
    <tag k="operator" v="Cash4You"/>
  </node>
  <node id="490986146" version="3" timestamp="2010-10-05T01:33:52Z" uid="20587" user="balrog-kun" changeset="5958352" lat="50.0637945" lon="19.9375206">
    <tag k="addr:city" v="Kraków"/>
    <tag k="addr:housenumber" v="12"/>
    <tag k="addr:street" v="Sławkowska"/>
    <tag k="amenity" v="atm"/>
    <tag k="atm_ref" v="8762"/>
    <tag k="millennium:date" v="2009-05-21 17:13:02"/>
    <tag k="millennium:network" v="Cash4You"/>
    <tag k="millennium:ref" v="19612"/>
    <tag k="millennium:subtype" v="Euronet"/>
    <tag k="name" v="Bankomat Cash4You"/>
    <tag k="operator" v="Euronet Sp. z o.o."/>
  </node>
  <node id="490986146" version="4" timestamp="2012-03-08T14:02:22Z" uid="598456" user="vinci4352" changeset="10909503" lat="50.0637685" lon="19.9374454">
    <tag k="addr:city" v="Kraków"/>
    <tag k="addr:housenumber" v="12"/>
    <tag k="addr:street" v="Sławkowska"/>
    <tag k="amenity" v="atm"/>
    <tag k="atm_ref" v="8762"/>
    <tag k="millennium:date" v="2009-05-21 17:13:02"/>
    <tag k="millennium:network" v="Cash4You"/>
    <tag k="millennium:ref" v="19612"/>
    <tag k="millennium:subtype" v="Euronet"/>
    <tag k="name" v="Bankomat Cash4You"/>
    <tag k="operator" v="Euronet Sp. z o.o."/>
  </node>
  <node id="490986148" version="1" timestamp="2009-09-09T12:40:06Z" uid="123700" user="Mala" changeset="2424887" lat="50.0638603" lon="19.9374726">
    <tag k="amenity" v="restaurant"/>
    <tag k="name" v="Vinoteka La Bodega"/>
  </node>
  <node id="490986148" version="2" timestamp="2010-04-17T11:47:57Z" uid="91056" user="Yarl" changeset="4446654" lat="50.0638554" lon="19.9375617">
    <tag k="amenity" v="restaurant"/>
    <tag k="name" v="Vinoteka La Bodega"/>
  </node>
  <node id="490986148" version="3" timestamp="2012-03-08T14:05:36Z" uid="598456" user="vinci4352" changeset="10909503" lat="50.0638294" lon="19.9374865">
    <tag k="amenity" v="restaurant"/>
    <tag k="name" v="Vinoteka La Bodega"/>
  </node>
  <node id="490986150" version="1" timestamp="2009-09-09T12:40:06Z" uid="123700" user="Mala" changeset="2424887" lat="50.0639567" lon="19.9375067">
    <tag k="addr:housenumber" v="14"/>
    <tag k="addr:street" v="Sławkowska"/>
    <tag k="amenity" v="bureau_de_change"/>
  </node>
  <node id="490986150" version="2" timestamp="2010-04-17T11:47:57Z" uid="91056" user="Yarl" changeset="4446654" lat="50.0639225" lon="19.9376033">
    <tag k="addr:housenumber" v="14"/>
    <tag k="addr:street" v="Sławkowska"/>
    <tag k="amenity" v="bureau_de_change"/>
  </node>
  <node id="490986150" version="3" timestamp="2012-03-08T14:03:45Z" uid="598456" user="vinci4352" changeset="10909503" lat="50.0638965" lon="19.9375281">
    <tag k="addr:housenumber" v="14"/>
    <tag k="addr:street" v="Sławkowska"/>
    <tag k="amenity" v="bureau_de_change"/>
  </node>
  <node id="490986154" version="1" timestamp="2009-09-09T12:40:07Z" uid="123700" user="Mala" changeset="2424887" lat="50.0640235" lon="19.9375482">
    <tag k="addr:housenumber" v="14"/>
    <tag k="addr:street" v="Sławkowska"/>
    <tag k="amenity" v="art_gallery"/>
    <tag k="name" v="Galeria Kocioł"/>
  </node>
  <node id="490986154" version="2" timestamp="2010-04-17T11:47:57Z" uid="91056" user="Yarl" changeset="4446654" lat="50.0640173" lon="19.9376746">
    <tag k="addr:housenumber" v="14"/>
    <tag k="addr:street" v="Sławkowska"/>
    <tag k="amenity" v="art_gallery"/>
    <tag k="name" v="Galeria Kocioł"/>
  </node>
  <node id="490986154" version="3" timestamp="2012-03-08T14:02:47Z" uid="598456" user="vinci4352" changeset="10909503" lat="50.0639913" lon="19.9375994">
    <tag k="addr:housenumber" v="14"/>
    <tag k="addr:street" v="Sławkowska"/>
    <tag k="amenity" v="art_gallery"/>
    <tag k="name" v="Galeria Kocioł"/>
  </node>
  <node id="490986154" version="4" timestamp="2012-03-30T20:00:23Z" uid="78656" user="Walter Schlögl" changeset="11159476" lat="50.0639913" lon="19.9375994">
    <tag k="addr:housenumber" v="14"/>
    <tag k="addr:street" v="Sławkowska"/>
    <tag k="gallery" v="art"/>
    <tag k="name" v="Galeria Kocioł"/>
    <tag k="tourism" v="gallery"/>
  </node>
  <node id="490986156" version="1" timestamp="2009-09-09T12:40:07Z" uid="123700" user="Mala" changeset="2424887" lat="50.0639735" lon="19.9375736">
    <tag k="addr:housenumber" v="14"/>
    <tag k="addr:street" v="Sławkowska"/>
    <tag k="amenity" v="pub"/>
    <tag k="name" v="Loch Ness Pub"/>
  </node>
  <node id="490986156" version="2" timestamp="2010-04-17T11:47:57Z" uid="91056" user="Yarl" changeset="4446654" lat="50.0639627" lon="19.9376237">
    <tag k="addr:housenumber" v="14"/>
    <tag k="addr:street" v="Sławkowska"/>
    <tag k="amenity" v="pub"/>
    <tag k="name" v="Loch Ness Pub"/>
  </node>
  <node id="490986156" version="3" timestamp="2012-03-08T14:03:12Z" uid="598456" user="vinci4352" changeset="10909503" lat="50.0639367" lon="19.9375485">
    <tag k="addr:housenumber" v="14"/>
    <tag k="addr:street" v="Sławkowska"/>
    <tag k="amenity" v="pub"/>
    <tag k="name" v="Loch Ness Pub"/>
  </node>
  <node id="490986157" version="1" timestamp="2009-09-09T12:40:07Z" uid="123700" user="Mala" changeset="2424887" lat="50.0641159" lon="19.93764">
    <tag k="addr:housenumber" v="16"/>
    <tag k="amenity" v="art_gallery"/>
    <tag k="name" v="Galeria Osobliwości"/>
  </node>
  <node id="490986157" version="2" timestamp="2010-04-17T11:47:57Z" uid="91056" user="Yarl" changeset="4446654" lat="50.0641069" lon="19.9377258">
    <tag k="addr:housenumber" v="16"/>
    <tag k="amenity" v="art_gallery"/>
    <tag k="name" v="Galeria Osobliwości"/>
  </node>
  <node id="490986157" version="3" timestamp="2012-03-08T14:02:49Z" uid="598456" user="vinci4352" changeset="10909503" lat="50.0640809" lon="19.9376506">
    <tag k="addr:housenumber" v="16"/>
    <tag k="amenity" v="art_gallery"/>
    <tag k="name" v="Galeria Osobliwości"/>
  </node>
  <node id="490986157" version="4" timestamp="2012-03-30T20:00:24Z" uid="78656" user="Walter Schlögl" changeset="11159476" lat="50.0640809" lon="19.9376506">
    <tag k="addr:housenumber" v="16"/>
    <tag k="gallery" v="art"/>
    <tag k="name" v="Galeria Osobliwości"/>
    <tag k="tourism" v="gallery"/>
  </node>
  <node id="490986159" version="1" timestamp="2009-09-09T12:40:07Z" uid="123700" user="Mala" changeset="2424887" lat="50.0641892" lon="19.9376932">
    <tag k="name" v="More than a cookie"/>
    <tag k="note" v="also a cafe"/>
    <tag k="shop" v="pastry"/>
  </node>
  <node id="490986159" version="2" timestamp="2010-04-17T11:47:58Z" uid="91056" user="Yarl" changeset="4446654" lat="50.0641655" lon="19.9377836">
    <tag k="name" v="More than a cookie"/>
    <tag k="note" v="also a cafe"/>
    <tag k="shop" v="pastry"/>
  </node>
  <node id="490986159" version="3" timestamp="2012-03-08T14:03:16Z" uid="598456" user="vinci4352" changeset="10909503" lat="50.0641395" lon="19.9377084">
    <tag k="name" v="More than a cookie"/>
    <tag k="note" v="also a cafe"/>
    <tag k="shop" v="pastry"/>
  </node>
  <node id="490986161" version="1" timestamp="2009-09-09T12:40:07Z" uid="123700" user="Mala" changeset="2424887" lat="50.0642516" lon="19.9377507">
    <tag k="amenity" v="bureau_de_change"/>
  </node>
  <node id="490986161" version="2" timestamp="2010-04-17T11:47:58Z" uid="91056" user="Yarl" changeset="4446654" lat="50.0642061" lon="19.9378325">
    <tag k="amenity" v="bureau_de_change"/>
  </node>
  <node id="490986161" version="3" timestamp="2012-03-08T14:22:04Z" uid="598456" user="vinci4352" changeset="10909503" lat="50.0641801" lon="19.9377573">
    <tag k="amenity" v="bureau_de_change"/>
  </node>
  <node id="490986163" version="1" timestamp="2009-09-09T12:40:07Z" uid="123700" user="Mala" changeset="2424887" lat="50.0643262" lon="19.9377921">
    <tag k="amenity" v="school"/>
    <tag k="name" v="III Prywatne Liceum Ogólnokształcące;Prywatne Gimnazjum numer 5"/>
  </node>
  <node id="490986163" version="2" timestamp="2010-04-17T11:47:58Z" uid="91056" user="Yarl" changeset="4446654" lat="50.0643016" lon="19.9378695">
    <tag k="amenity" v="school"/>
    <tag k="name" v="III Prywatne Liceum Ogólnokształcące;Prywatne Gimnazjum numer 5"/>
  </node>
  <node id="490986163" version="3" timestamp="2012-03-08T14:02:55Z" uid="598456" user="vinci4352" changeset="10909503" lat="50.0642756" lon="19.9377943">
    <tag k="amenity" v="school"/>
    <tag k="name" v="III Prywatne Liceum Ogólnokształcące;Prywatne Gimnazjum numer 5"/>
  </node>
  <node id="490986166" version="1" timestamp="2009-09-09T12:40:07Z" uid="123700" user="Mala" changeset="2424887" lat="50.0636393" lon="19.9374983">
    <tag k="name" v="Grand Hotel"/>
    <tag k="tourism" v="hotel"/>
  </node>
  <node id="490986166" version="2" timestamp="2010-04-17T11:47:57Z" uid="91056" user="Yarl" changeset="4446654" lat="50.0636154" lon="19.9376146">
    <tag k="name" v="Grand Hotel"/>
    <tag k="tourism" v="hotel"/>
  </node>
  <node id="490986168" version="1" timestamp="2009-09-09T12:40:07Z" uid="123700" user="Mala" changeset="2424887" lat="50.0638162" lon="19.9376071">
    <tag k="shop" v="antiquities"/>
  </node>
  <node id="490986168" version="2" timestamp="2010-04-17T11:47:57Z" uid="91056" user="Yarl" changeset="4446654" lat="50.0638079" lon="19.9377269">
    <tag k="shop" v="antiquities"/>
  </node>
  <node id="490986168" version="3" timestamp="2011-01-28T21:15:53Z" uid="31075" user="wieland" changeset="7117204" lat="50.063808" lon="19.9377269">
    <tag k="shop" v="antiques"/>
  </node>
  <node id="490986169" version="1" timestamp="2009-09-09T12:40:07Z" uid="123700" user="Mala" changeset="2424887" lat="50.0640204" lon="19.9377534">
    <tag k="amenity" v="bureau_de_change"/>
  </node>
  <node id="490986169" version="2" timestamp="2010-04-17T11:47:57Z" uid="91056" user="Yarl" changeset="4446654" lat="50.0639715" lon="19.9378562">
    <tag k="amenity" v="bureau_de_change"/>
  </node>
  <node id="490986169" version="3" timestamp="2012-03-03T18:31:08Z" uid="598456" user="vinci4352" changeset="10860704" lat="50.063936" lon="19.937941">
    <tag k="amenity" v="bureau_de_change"/>
  </node>
  <node id="490986169" version="4" timestamp="2012-03-08T14:22:04Z" uid="598456" user="vinci4352" changeset="10909503" lat="50.0639063" lon="19.9378716">
    <tag k="amenity" v="bureau_de_change"/>
  </node>
  <node id="490986171" version="1" timestamp="2009-09-09T12:40:07Z" uid="123700" user="Mala" changeset="2424887" lat="50.064067" lon="19.9377859">
    <tag k="amenity" v="pub"/>
    <tag k="name" v="Kryjówka"/>
    <tag k="note" v="also a cafe and grill"/>
  </node>
  <node id="490986171" version="2" timestamp="2010-04-17T11:47:58Z" uid="91056" user="Yarl" changeset="4446654" lat="50.0640369" lon="19.9378972">
    <tag k="amenity" v="pub"/>
    <tag k="name" v="Kryjówka"/>
    <tag k="note" v="also a cafe and grill"/>
  </node>
  <node id="490986171" version="3" timestamp="2012-03-03T18:29:03Z" uid="598456" user="vinci4352" changeset="10860704" lat="50.0640014" lon="19.937982">
    <tag k="amenity" v="pub"/>
    <tag k="name" v="Kryjówka"/>
    <tag k="note" v="also a cafe and grill"/>
  </node>
  <node id="490986171" version="4" timestamp="2012-03-08T14:03:07Z" uid="598456" user="vinci4352" changeset="10909503" lat="50.0639717" lon="19.9379126">
    <tag k="amenity" v="pub"/>
    <tag k="name" v="Kryjówka"/>
    <tag k="note" v="also a cafe and grill"/>
  </node>
  <node id="490986174" version="1" timestamp="2009-09-09T12:40:07Z" uid="123700" user="Mala" changeset="2424887" lat="50.0641096" lon="19.9378156">
    <tag k="shop" v="alcohol"/>
  </node>
  <node id="490986174" version="2" timestamp="2010-04-17T11:47:58Z" uid="91056" user="Yarl" changeset="4446654" lat="50.0640815" lon="19.9379383">
    <tag k="shop" v="alcohol"/>
  </node>
  <node id="490986174" version="3" timestamp="2012-03-03T18:31:08Z" uid="598456" user="vinci4352" changeset="10860704" lat="50.064046" lon="19.9380231">
    <tag k="shop" v="alcohol"/>
  </node>
  <node id="490986174" version="4" timestamp="2012-03-08T14:22:05Z" uid="598456" user="vinci4352" changeset="10909503" lat="50.0640163" lon="19.9379537">
    <tag k="shop" v="alcohol"/>
  </node>
  <node id="490986177" version="1" timestamp="2009-09-09T12:40:07Z" uid="123700" user="Mala" changeset="2424887" lat="50.064151" lon="19.9378444">
    <tag k="name" v="Piekarnia Cukiernia Janina Zaborowska"/>
    <tag k="shop" v="bakery"/>
  </node>
  <node id="490986177" version="2" timestamp="2010-04-17T11:47:58Z" uid="91056" user="Yarl" changeset="4446654" lat="50.0641282" lon="19.9379575">
    <tag k="name" v="Piekarnia Cukiernia Janina Zaborowska"/>
    <tag k="shop" v="bakery"/>
  </node>
  <node id="490986177" version="3" timestamp="2012-03-03T18:29:29Z" uid="598456" user="vinci4352" changeset="10860704" lat="50.0640927" lon="19.9380423">
    <tag k="name" v="Piekarnia Cukiernia Janina Zaborowska"/>
    <tag k="shop" v="bakery"/>
  </node>
  <node id="490986177" version="4" timestamp="2012-03-08T14:05:08Z" uid="598456" user="vinci4352" changeset="10909503" lat="50.064063" lon="19.9379729">
    <tag k="name" v="Piekarnia Cukiernia Janina Zaborowska"/>
    <tag k="shop" v="bakery"/>
  </node>
  <node id="490986179" version="1" timestamp="2009-09-09T12:40:07Z" uid="123700" user="Mala" changeset="2424887" lat="50.0641952" lon="19.9378752">
    <tag k="amenity" v="pub"/>
    <tag k="name" v="Pub Afera"/>
  </node>
  <node id="490986179" version="2" timestamp="2010-04-17T11:47:58Z" uid="91056" user="Yarl" changeset="4446654" lat="50.064163" lon="19.9379784">
    <tag k="amenity" v="pub"/>
    <tag k="name" v="Pub Afera"/>
  </node>
  <node id="490986179" version="3" timestamp="2012-03-03T18:29:30Z" uid="598456" user="vinci4352" changeset="10860704" lat="50.0641275" lon="19.9380632">
    <tag k="amenity" v="pub"/>
    <tag k="name" v="Pub Afera"/>
  </node>
  <node id="490986179" version="4" timestamp="2012-03-08T14:05:13Z" uid="598456" user="vinci4352" changeset="10909503" lat="50.0640978" lon="19.9379938">
    <tag k="amenity" v="pub"/>
    <tag k="name" v="Pub Afera"/>
  </node>
  <node id="490986181" version="1" timestamp="2009-09-09T12:40:07Z" uid="123700" user="Mala" changeset="2424887" lat="50.0642398" lon="19.9379063">
    <tag k="amenity" v="fast_food"/>
    <tag k="cuisine" v="kebab"/>
  </node>
  <node id="490986181" version="2" timestamp="2010-04-17T11:47:58Z" uid="91056" user="Yarl" changeset="4446654" lat="50.0642003" lon="19.9380207">
    <tag k="amenity" v="fast_food"/>
    <tag k="cuisine" v="kebab"/>
  </node>
  <node id="490986181" version="3" timestamp="2012-03-03T18:31:08Z" uid="598456" user="vinci4352" changeset="10860704" lat="50.0641648" lon="19.9381055">
    <tag k="amenity" v="fast_food"/>
    <tag k="cuisine" v="kebab"/>
  </node>
  <node id="490986181" version="4" timestamp="2012-03-08T14:22:05Z" uid="598456" user="vinci4352" changeset="10909503" lat="50.0641351" lon="19.9380361">
    <tag k="amenity" v="fast_food"/>
    <tag k="cuisine" v="kebab"/>
  </node>
  <node id="490986182" version="1" timestamp="2009-09-09T12:40:07Z" uid="123700" user="Mala" changeset="2424887" lat="50.0642849" lon="19.9379376">
    <tag k="amenity" v="restaurant"/>
    <tag k="cuisine" v="indian"/>
    <tag k="name" v="Restauracja Indus"/>
  </node>
  <node id="490986182" version="2" timestamp="2010-04-17T11:47:58Z" uid="91056" user="Yarl" changeset="4446654" lat="50.0642444" lon="19.9380422">
    <tag k="amenity" v="restaurant"/>
    <tag k="cuisine" v="indian"/>
    <tag k="name" v="Restauracja Indus"/>
  </node>
  <node id="490986182" version="3" timestamp="2012-03-03T18:29:31Z" uid="598456" user="vinci4352" changeset="10860704" lat="50.0642089" lon="19.938127">
    <tag k="amenity" v="restaurant"/>
    <tag k="cuisine" v="indian"/>
    <tag k="name" v="Restauracja Indus"/>
  </node>
  <node id="490986182" version="4" timestamp="2012-03-08T14:05:23Z" uid="598456" user="vinci4352" changeset="10909503" lat="50.0641792" lon="19.9380576">
    <tag k="amenity" v="restaurant"/>
    <tag k="cuisine" v="indian"/>
    <tag k="name" v="Restauracja Indus"/>
  </node>
  <node id="490986184" version="1" timestamp="2009-09-09T12:40:07Z" uid="123700" user="Mala" changeset="2424887" lat="50.0646634" lon="19.9382971">
    <tag k="name" v="Księgarnia Ossolineum"/>
    <tag k="shop" v="books"/>
  </node>
  <node id="490986184" version="2" timestamp="2012-03-08T14:03:09Z" uid="598456" user="vinci4352" changeset="10909503" lat="50.064604" lon="19.9382971">
    <tag k="name" v="Księgarnia Ossolineum"/>
    <tag k="shop" v="books"/>
  </node>
  <node id="490986187" version="1" timestamp="2009-09-09T12:40:08Z" uid="123700" user="Mala" changeset="2424887" lat="50.0648961" lon="19.9383757">
    <tag k="name" v="Pryzmat"/>
    <tag k="shop" v="jewellery"/>
  </node>
  <node id="490986187" version="2" timestamp="2010-01-14T16:18:10Z" uid="45284" user="Eric S" changeset="3617989" lat="50.0648961" lon="19.9383757">
    <tag k="name" v="Pryzmat"/>
    <tag k="shop" v="jewelry"/>
  </node>
  <node id="490986187" version="3" timestamp="2012-03-03T21:08:15Z" uid="598456" user="vinci4352" changeset="10862375" lat="50.0648619" lon="19.938279">
    <tag k="name" v="Pryzmat"/>
    <tag k="shop" v="jewelry"/>
  </node>
  <node id="490986187" version="4" timestamp="2012-03-08T14:05:12Z" uid="598456" user="vinci4352" changeset="10909503" lat="50.0648396" lon="19.9382096">
    <tag k="name" v="Pryzmat"/>
    <tag k="shop" v="jewelry"/>
  </node>
  <node id="490986190" version="1" timestamp="2009-09-09T12:40:08Z" uid="123700" user="Mala" changeset="2424887" lat="50.0649562" lon="19.9384119">
    <tag k="amenity" v="bureau_de_change"/>
  </node>
  <node id="490986190" version="2" timestamp="2012-03-03T21:08:44Z" uid="598456" user="vinci4352" changeset="10862375" lat="50.0649879" lon="19.9383606">
    <tag k="amenity" v="bureau_de_change"/>
  </node>
  <node id="490986190" version="3" timestamp="2012-03-08T14:22:05Z" uid="598456" user="vinci4352" changeset="10909503" lat="50.0649656" lon="19.9382912">
    <tag k="amenity" v="bureau_de_change"/>
  </node>
  <node id="490986192" version="1" timestamp="2009-09-09T12:40:08Z" uid="123700" user="Mala" changeset="2424887" lat="50.0652646" lon="19.9386053">
    <tag k="amenity" v="bank"/>
    <tag k="name" v="Alior Bank"/>
    <tag k="operator" v="Alior Bank"/>
  </node>
  <node id="490986194" version="1" timestamp="2009-09-09T12:40:08Z" uid="123700" user="Mala" changeset="2424887" lat="50.0648534" lon="19.9381279">
    <tag k="name" v="Piekarnia Pawlak"/>
    <tag k="shop" v="bakery"/>
  </node>
  <node id="490986194" version="2" timestamp="2012-03-03T21:08:15Z" uid="598456" user="vinci4352" changeset="10862375" lat="50.0647939" lon="19.9382265">
    <tag k="name" v="Piekarnia Pawlak"/>
    <tag k="shop" v="bakery"/>
  </node>
  <node id="490986194" version="3" timestamp="2012-03-08T14:05:09Z" uid="598456" user="vinci4352" changeset="10909503" lat="50.0647716" lon="19.9381571">
    <tag k="name" v="Piekarnia Pawlak"/>
    <tag k="shop" v="bakery"/>
  </node>
  <node id="490986211" version="1" timestamp="2009-09-09T12:40:08Z" uid="123700" user="Mala" changeset="2424887" lat="50.0649078" lon="19.9381581">
    <tag k="amenity" v="restaurant"/>
    <tag k="cuisine" v="pancakes;pierogi"/>
    <tag k="name" v="Domowe Przysmaki"/>
  </node>
  <node id="490986211" version="2" timestamp="2011-08-01T20:06:13Z" uid="452548" user="yerry_b" changeset="8894745" lat="50.0649078" lon="19.9381581">
    <tag k="amenity" v="restaurant"/>
    <tag k="cuisine" v="pancakes"/>
    <tag k="name" v="Domowe Przysmaki"/>
  </node>
  <node id="490986211" version="3" timestamp="2012-03-03T21:08:02Z" uid="598456" user="vinci4352" changeset="10862375" lat="50.0648964" lon="19.9382824">
    <tag k="amenity" v="restaurant"/>
    <tag k="cuisine" v="pancakes"/>
    <tag k="name" v="Domowe Przysmaki"/>
  </node>
  <node id="490986211" version="4" timestamp="2012-03-08T14:02:40Z" uid="598456" user="vinci4352" changeset="10909503" lat="50.0648741" lon="19.938213">
    <tag k="amenity" v="restaurant"/>
    <tag k="cuisine" v="pancakes"/>
    <tag k="name" v="Domowe Przysmaki"/>
  </node>
  <node id="490986216" version="1" timestamp="2009-09-09T12:40:08Z" uid="123700" user="Mala" changeset="2424887" lat="50.0649601" lon="19.9381944">
    <tag k="shop" v="shoes"/>
  </node>
  <node id="490986216" version="2" timestamp="2012-03-03T21:08:44Z" uid="598456" user="vinci4352" changeset="10862375" lat="50.0649424" lon="19.9383167">
    <tag k="shop" v="shoes"/>
  </node>
  <node id="490986216" version="3" timestamp="2012-03-08T14:22:05Z" uid="598456" user="vinci4352" changeset="10909503" lat="50.0649201" lon="19.9382473">
    <tag k="shop" v="shoes"/>
  </node>
  <node id="490986220" version="1" timestamp="2009-09-09T12:40:08Z" uid="123700" user="Mala" changeset="2424887" lat="50.0650164" lon="19.9382306">
    <tag k="name" v="Wszystko i nic... u Stasia"/>
    <tag k="shop" v="souvenirs"/>
  </node>
  <node id="490986220" version="2" timestamp="2010-09-20T22:51:15Z" uid="65148" user="Pirat Michi" changeset="5833630" lat="50.0650164" lon="19.9382306">
    <tag k="name" v="Wszystko i nic... u Stasia"/>
    <tag k="shop" v="gift"/>
  </node>
  <node id="490986223" version="1" timestamp="2009-09-09T12:40:09Z" uid="123700" user="Mala" changeset="2424887" lat="50.0650726" lon="19.9382669">
    <tag k="amenity" v="restaurant"/>
    <tag k="name" v="Cyrano de Bergerac"/>
  </node>
  <node id="490986226" version="1" timestamp="2009-09-09T12:40:09Z" uid="123700" user="Mala" changeset="2424887" lat="50.0651308" lon="19.9383031">
    <tag k="addr:housenumber" v="28"/>
    <tag k="amenity" v="public_building"/>
    <tag k="name" v="Cech Krawców"/>
  </node>
  <node id="490986228" version="1" timestamp="2009-09-09T12:40:09Z" uid="123700" user="Mala" changeset="2424887" lat="50.0651909" lon="19.9383454">
    <tag k="name" v="Rossmann"/>
    <tag k="operator" v="Rossmann"/>
    <tag k="shop" v="chemist"/>
  </node>
  <node id="490986232" version="1" timestamp="2009-09-09T12:40:09Z" uid="123700" user="Mala" changeset="2424887" lat="50.0652433" lon="19.9383787">
    <tag k="amenity" v="restaurant"/>
    <tag k="cuisine" v="pierogi"/>
    <tag k="name" v="Zapiecek"/>
  </node>
  <node id="490986236" version="1" timestamp="2009-09-09T12:40:09Z" uid="123700" user="Mala" changeset="2424887" lat="50.0652801" lon="19.9384421">
    <tag k="amenity" v="restaurant"/>
    <tag k="name" v="Restauracja Miód i Wino"/>
  </node>
  <node id="490986240" version="1" timestamp="2009-09-09T12:40:09Z" uid="123700" user="Mala" changeset="2424887" lat="50.0641428" lon="19.9409015">
    <tag k="addr:housenumber" v="43"/>
    <tag k="amenity" v="restaurant"/>
    <tag k="name" v="Restauracja Floriańska"/>
  </node>
  <node id="490986240" version="2" timestamp="2012-03-04T09:50:19Z" uid="598456" user="vinci4352" changeset="10866280" lat="50.0641048" lon="19.9410012">
    <tag k="addr:housenumber" v="43"/>
    <tag k="amenity" v="restaurant"/>
    <tag k="name" v="Restauracja Floriańska"/>
  </node>
  <node id="490986240" version="3" timestamp="2012-03-08T14:05:22Z" uid="598456" user="vinci4352" changeset="10909503" lat="50.0640807" lon="19.9409347">
    <tag k="addr:housenumber" v="43"/>
    <tag k="amenity" v="restaurant"/>
    <tag k="name" v="Restauracja Floriańska"/>
  </node>
  <node id="490986247" version="1" timestamp="2009-09-09T12:40:09Z" uid="123700" user="Mala" changeset="2424887" lat="50.0642173" lon="19.9409498">
    <tag k="amenity" v="cafe"/>
    <tag k="name" v="Jama Michalika"/>
  </node>
  <node id="490986247" version="2" timestamp="2012-03-04T09:50:11Z" uid="598456" user="vinci4352" changeset="10866280" lat="50.0641653" lon="19.9411711">
    <tag k="amenity" v="cafe"/>
    <tag k="name" v="Jama Michalika"/>
  </node>
  <node id="490986247" version="3" timestamp="2012-03-08T14:02:57Z" uid="598456" user="vinci4352" changeset="10909503" lat="50.0641412" lon="19.9411046">
    <tag k="amenity" v="cafe"/>
    <tag k="name" v="Jama Michalika"/>
  </node>
  <node id="490986251" version="1" timestamp="2009-09-09T12:40:09Z" uid="123700" user="Mala" changeset="2424887" lat="50.0642732" lon="19.9409885">
    <tag k="amenity" v="restaurant"/>
    <tag k="name" v="Restauracja Stodoła"/>
  </node>
  <node id="490986251" version="2" timestamp="2012-03-04T09:50:20Z" uid="598456" user="vinci4352" changeset="10866280" lat="50.0642552" lon="19.9411132">
    <tag k="amenity" v="restaurant"/>
    <tag k="name" v="Restauracja Stodoła"/>
  </node>
  <node id="490986251" version="3" timestamp="2012-03-08T14:05:27Z" uid="598456" user="vinci4352" changeset="10909503" lat="50.0642311" lon="19.9410467">
    <tag k="amenity" v="restaurant"/>
    <tag k="name" v="Restauracja Stodoła"/>
  </node>
  <node id="490986253" version="1" timestamp="2009-09-09T12:40:09Z" uid="123700" user="Mala" changeset="2424887" lat="50.0643089" lon="19.9410537">
    <tag k="amenity" v="pub"/>
    <tag k="name" v="Pub Dotyk"/>
  </node>
  <node id="490986253" version="2" timestamp="2012-03-04T09:50:19Z" uid="598456" user="vinci4352" changeset="10866280" lat="50.0642289" lon="19.9412282">
    <tag k="amenity" v="pub"/>
    <tag k="name" v="Pub Dotyk"/>
  </node>
  <node id="490986253" version="3" timestamp="2012-03-08T14:05:17Z" uid="598456" user="vinci4352" changeset="10909503" lat="50.0642048" lon="19.9411617">
    <tag k="amenity" v="pub"/>
    <tag k="name" v="Pub Dotyk"/>
  </node>
  <node id="490986256" version="1" timestamp="2009-09-09T12:40:09Z" uid="123700" user="Mala" changeset="2424887" lat="50.0647479" lon="19.9413123">
    <tag k="amenity" v="cafe"/>
    <tag k="name" v="Coffeeheaven"/>
  </node>
  <node id="490986256" version="2" timestamp="2012-03-04T09:50:10Z" uid="598456" user="vinci4352" changeset="10866280" lat="50.0647279" lon="19.9415242">
    <tag k="amenity" v="cafe"/>
    <tag k="name" v="Coffeeheaven"/>
  </node>
  <node id="490986256" version="3" timestamp="2012-03-08T14:02:36Z" uid="598456" user="vinci4352" changeset="10909503" lat="50.0647038" lon="19.9414577">
    <tag k="amenity" v="cafe"/>
    <tag k="name" v="Coffeeheaven"/>
  </node>
  <node id="490986259" version="1" timestamp="2009-09-09T12:40:09Z" uid="123700" user="Mala" changeset="2424887" lat="50.0647054" lon="19.9412857">
    <tag k="amenity" v="fast_food"/>
    <tag k="name" v="McDonald&apos;s"/>
    <tag k="operator" v="McDonald&apos;s"/>
  </node>
  <node id="490986259" version="2" timestamp="2010-08-06T16:57:53Z" uid="207745" user="NE2" changeset="5418228" lat="50.0647054" lon="19.9412857">
    <tag k="amenity" v="fast_food"/>
    <tag k="cuisine" v="burger"/>
    <tag k="name" v="McDonald&apos;s"/>
    <tag k="operator" v="McDonald&apos;s"/>
  </node>
  <node id="490986259" version="3" timestamp="2012-03-04T09:50:13Z" uid="598456" user="vinci4352" changeset="10866280" lat="50.0646254" lon="19.9415381">
    <tag k="amenity" v="fast_food"/>
    <tag k="cuisine" v="burger"/>
    <tag k="name" v="McDonald&apos;s"/>
    <tag k="operator" v="McDonald&apos;s"/>
  </node>
  <node id="490986259" version="4" timestamp="2012-03-08T14:03:14Z" uid="598456" user="vinci4352" changeset="10909503" lat="50.0646013" lon="19.9414716">
    <tag k="amenity" v="fast_food"/>
    <tag k="cuisine" v="burger"/>
    <tag k="name" v="McDonald&apos;s"/>
    <tag k="operator" v="McDonald&apos;s"/>
  </node>
  <node id="490986261" version="1" timestamp="2009-09-09T12:40:09Z" uid="123700" user="Mala" changeset="2424887" lat="50.0646595" lon="19.9412569">
    <tag k="name" v="Hostel Brama"/>
    <tag k="tourism" v="hostel"/>
  </node>
  <node id="490986261" version="2" timestamp="2012-03-04T09:50:11Z" uid="598456" user="vinci4352" changeset="10866280" lat="50.0645135" lon="19.9414408">
    <tag k="name" v="Hostel Brama"/>
    <tag k="tourism" v="hostel"/>
  </node>
  <node id="490986261" version="3" timestamp="2012-03-08T14:02:52Z" uid="598456" user="vinci4352" changeset="10909503" lat="50.0644894" lon="19.9413743">
    <tag k="name" v="Hostel Brama"/>
    <tag k="tourism" v="hostel"/>
  </node>
  <node id="490986264" version="1" timestamp="2009-09-09T12:40:09Z" uid="123700" user="Mala" changeset="2424887" lat="50.0646052" lon="19.9412229">
    <tag k="amenity" v="pub"/>
    <tag k="name" v="Przychodnia Towarzyska"/>
  </node>
  <node id="490986264" version="2" timestamp="2012-03-04T09:50:19Z" uid="598456" user="vinci4352" changeset="10866280" lat="50.0645892" lon="19.9414878">
    <tag k="amenity" v="pub"/>
    <tag k="name" v="Przychodnia Towarzyska"/>
  </node>
  <node id="490986264" version="3" timestamp="2012-03-08T14:05:12Z" uid="598456" user="vinci4352" changeset="10909503" lat="50.0645651" lon="19.9414213">
    <tag k="amenity" v="pub"/>
    <tag k="name" v="Przychodnia Towarzyska"/>
  </node>
  <node id="490986266" version="1" timestamp="2009-09-09T12:40:09Z" uid="123700" user="Mala" changeset="2424887" lat="50.064568" lon="19.9412471">
    <tag k="amenity" v="bureau_de_change"/>
  </node>
  <node id="490986266" version="2" timestamp="2012-03-04T09:50:35Z" uid="598456" user="vinci4352" changeset="10866280" lat="50.064556" lon="19.9414341">
    <tag k="amenity" v="bureau_de_change"/>
  </node>
  <node id="490986266" version="3" timestamp="2012-03-08T14:22:06Z" uid="598456" user="vinci4352" changeset="10909503" lat="50.0645319" lon="19.9413676">
    <tag k="amenity" v="bureau_de_change"/>
  </node>
  <node id="490986268" version="1" timestamp="2009-09-09T12:40:09Z" uid="123700" user="Mala" changeset="2424887" lat="50.0644407" lon="19.9411166">
    <tag k="shop" v="convenience"/>
  </node>
  <node id="490986269" version="1" timestamp="2009-09-09T12:40:09Z" uid="123700" user="Mala" changeset="2424887" lat="50.0647774" lon="19.9411794">
    <tag k="name" v="Riff Instrumenty Muzyczne"/>
    <tag k="shop" v="musical_instruments"/>
  </node>
  <node id="490986273" version="1" timestamp="2009-09-09T12:40:09Z" uid="123700" user="Mala" changeset="2424887" lat="50.0647373" lon="19.9411407">
    <tag k="tourism" v="information"/>
  </node>
  <node id="490986273" version="2" timestamp="2012-03-08T14:22:06Z" uid="598456" user="vinci4352" changeset="10909503" lat="50.0647137" lon="19.9410712">
    <tag k="tourism" v="information"/>
  </node>
  <node id="490986275" version="1" timestamp="2009-09-09T12:40:10Z" uid="123700" user="Mala" changeset="2424887" lat="50.0646901" lon="19.9411094">
    <tag k="name" v="Świat Książki"/>
    <tag k="operator" v="Świat Książki"/>
    <tag k="shop" v="books"/>
  </node>
  <node id="490986275" version="2" timestamp="2012-03-08T14:05:43Z" uid="598456" user="vinci4352" changeset="10909503" lat="50.0646665" lon="19.9410399">
    <tag k="name" v="Świat Książki"/>
    <tag k="operator" v="Świat Książki"/>
    <tag k="shop" v="books"/>
  </node>
  <node id="490986278" version="1" timestamp="2009-09-09T12:40:10Z" uid="123700" user="Mala" changeset="2424887" lat="50.064648" lon="19.9410813">
    <tag k="name" v="Boruni Bursztyn"/>
    <tag k="shop" v="jewellery"/>
  </node>
  <node id="490986278" version="2" timestamp="2010-01-14T16:18:10Z" uid="45284" user="Eric S" changeset="3617989" lat="50.064648" lon="19.9410813">
    <tag k="name" v="Boruni Bursztyn"/>
    <tag k="shop" v="jewelry"/>
  </node>
  <node id="490986278" version="3" timestamp="2012-03-08T14:02:29Z" uid="598456" user="vinci4352" changeset="10909503" lat="50.0646244" lon="19.9410118">
    <tag k="name" v="Boruni Bursztyn"/>
    <tag k="shop" v="jewelry"/>
  </node>
  <node id="490986280" version="1" timestamp="2009-09-09T12:40:10Z" uid="123700" user="Mala" changeset="2424887" lat="50.0646057" lon="19.9410532">
    <tag k="name" v="Nugget"/>
    <tag k="shop" v="jewellery"/>
  </node>
  <node id="490986280" version="2" timestamp="2010-01-14T16:18:10Z" uid="45284" user="Eric S" changeset="3617989" lat="50.0646057" lon="19.9410532">
    <tag k="name" v="Nugget"/>
    <tag k="shop" v="jewelry"/>
  </node>
  <node id="490986280" version="3" timestamp="2012-03-08T14:03:17Z" uid="598456" user="vinci4352" changeset="10909503" lat="50.0645821" lon="19.9409837">
    <tag k="name" v="Nugget"/>
    <tag k="shop" v="jewelry"/>
  </node>
  <node id="490986283" version="1" timestamp="2009-09-09T12:40:10Z" uid="123700" user="Mala" changeset="2424887" lat="50.0645632" lon="19.941025">
    <tag k="tourism" v="information"/>
  </node>
  <node id="490986283" version="2" timestamp="2012-03-08T14:22:06Z" uid="598456" user="vinci4352" changeset="10909503" lat="50.0645396" lon="19.9409555">
    <tag k="tourism" v="information"/>
  </node>
  <node id="490986285" version="1" timestamp="2009-09-09T12:40:10Z" uid="123700" user="Mala" changeset="2424887" lat="50.0645555" lon="19.9409546">
    <tag k="amenity" v="bureau_de_change"/>
  </node>
  <node id="490986285" version="2" timestamp="2012-03-08T14:22:07Z" uid="598456" user="vinci4352" changeset="10909503" lat="50.0645319" lon="19.9408851">
    <tag k="amenity" v="bureau_de_change"/>
  </node>
  <node id="490986286" version="1" timestamp="2009-09-09T12:40:10Z" uid="123700" user="Mala" changeset="2424887" lat="50.0645084" lon="19.9409885">
    <tag k="name" v="Flerynka"/>
    <tag k="note" v="also a cafe"/>
    <tag k="shop" v="pastry"/>
  </node>
  <node id="490986286" version="2" timestamp="2012-03-08T14:02:46Z" uid="598456" user="vinci4352" changeset="10909503" lat="50.0644848" lon="19.940919">
    <tag k="name" v="Flerynka"/>
    <tag k="note" v="also a cafe"/>
    <tag k="shop" v="pastry"/>
  </node>
  <node id="490986289" version="1" timestamp="2009-09-09T12:40:10Z" uid="123700" user="Mala" changeset="2424887" lat="50.0644708" lon="19.9409635">
    <tag k="name" v="Hotel Floryan"/>
    <tag k="tourism" v="hotel"/>
  </node>
  <node id="490986289" version="2" timestamp="2012-03-08T14:02:53Z" uid="598456" user="vinci4352" changeset="10909503" lat="50.0644472" lon="19.940894">
    <tag k="name" v="Hotel Floryan"/>
    <tag k="tourism" v="hotel"/>
  </node>
  <node id="490986292" version="1" timestamp="2009-09-09T12:40:10Z" uid="123700" user="Mala" changeset="2424887" lat="50.0644276" lon="19.9409348">
    <tag k="amenity" v="restaurant"/>
    <tag k="cuisine" v="pizza"/>
    <tag k="name" v="Restauracja Vesuvio"/>
  </node>
  <node id="490986292" version="2" timestamp="2012-03-08T14:05:28Z" uid="598456" user="vinci4352" changeset="10909503" lat="50.064404" lon="19.9408653">
    <tag k="amenity" v="restaurant"/>
    <tag k="cuisine" v="pizza"/>
    <tag k="name" v="Restauracja Vesuvio"/>
  </node>
  <node id="490986295" version="1" timestamp="2009-09-09T12:40:10Z" uid="123700" user="Mala" changeset="2424887" lat="50.0643926" lon="19.9409087">
    <tag k="name" v="Music Underground"/>
    <tag k="shop" v="musical_instruments"/>
  </node>
  <node id="490986295" version="2" timestamp="2012-03-08T14:03:17Z" uid="598456" user="vinci4352" changeset="10909503" lat="50.064369" lon="19.9408392">
    <tag k="name" v="Music Underground"/>
    <tag k="shop" v="musical_instruments"/>
  </node>
  <node id="490986299" version="1" timestamp="2009-09-09T12:40:10Z" uid="123700" user="Mala" changeset="2424887" lat="50.064405" lon="19.9408579">
    <tag k="amenity" v="bureau_de_change"/>
  </node>
  <node id="490986299" version="2" timestamp="2012-03-08T14:22:07Z" uid="598456" user="vinci4352" changeset="10909503" lat="50.0643814" lon="19.9407884">
    <tag k="amenity" v="bureau_de_change"/>
  </node>
  <node id="490986302" version="1" timestamp="2009-09-09T12:40:10Z" uid="123700" user="Mala" changeset="2424887" lat="50.0643535" lon="19.9408867">
    <tag k="amenity" v="art_gallery"/>
    <tag k="name" v="Galeria Sztuki Współczesnej &quot;Labirynt&quot;"/>
  </node>
  <node id="490986302" version="2" timestamp="2012-03-08T14:02:50Z" uid="598456" user="vinci4352" changeset="10909503" lat="50.0643299" lon="19.9408172">
    <tag k="amenity" v="art_gallery"/>
    <tag k="name" v="Galeria Sztuki Współczesnej &quot;Labirynt&quot;"/>
  </node>
  <node id="490986302" version="3" timestamp="2012-03-30T20:00:24Z" uid="78656" user="Walter Schlögl" changeset="11159476" lat="50.0643299" lon="19.9408172">
    <tag k="gallery" v="art"/>
    <tag k="name" v="Galeria Sztuki Współczesnej &quot;Labirynt&quot;"/>
    <tag k="tourism" v="gallery"/>
  </node>
  <node id="490986304" version="1" timestamp="2009-09-09T12:40:10Z" uid="123700" user="Mala" changeset="2424887" lat="50.0643709" lon="19.9408289">
    <tag k="name" v="Biuro Podróży &quot;Damar&quot;"/>
    <tag k="shop" v="travel_agency"/>
  </node>
  <node id="490986304" version="2" timestamp="2012-03-08T14:02:26Z" uid="598456" user="vinci4352" changeset="10909503" lat="50.0643473" lon="19.9407594">
    <tag k="name" v="Biuro Podróży &quot;Damar&quot;"/>
    <tag k="shop" v="travel_agency"/>
  </node>
  <node id="490986305" version="1" timestamp="2009-09-09T12:40:10Z" uid="123700" user="Mala" changeset="2424887" lat="50.0643135" lon="19.9408338">
    <tag k="amenity" v="bureau_de_change"/>
  </node>
  <node id="490986305" version="2" timestamp="2012-03-08T14:22:08Z" uid="598456" user="vinci4352" changeset="10909503" lat="50.0642899" lon="19.9407643">
    <tag k="amenity" v="bureau_de_change"/>
  </node>
  <node id="490986307" version="1" timestamp="2009-09-09T12:40:10Z" uid="123700" user="Mala" changeset="2424887" lat="50.0642623" lon="19.9408072">
    <tag k="name" v="Drogeria Douglas"/>
    <tag k="shop" v="cosmetics"/>
  </node>
  <node id="490986310" version="1" timestamp="2009-09-09T12:40:10Z" uid="123700" user="Mala" changeset="2424887" lat="50.064208" lon="19.9407661">
    <tag k="name" v="Rossmann"/>
    <tag k="operator" v="Rossmann"/>
    <tag k="shop" v="chemist"/>
  </node>
  <node id="490986313" version="1" timestamp="2009-09-09T12:40:10Z" uid="123700" user="Mala" changeset="2424887" lat="50.0641661" lon="19.9407298">
    <tag k="amenity" v="internet"/>
  </node>
  <node id="490986315" version="1" timestamp="2009-09-09T12:40:10Z" uid="123700" user="Mala" changeset="2424887" lat="50.0639148" lon="19.9407371">
    <tag k="amenity" v="fast_food"/>
    <tag k="cuisine" v="kebab"/>
  </node>
  <node id="490986315" version="2" timestamp="2012-03-04T09:50:35Z" uid="598456" user="vinci4352" changeset="10866280" lat="50.0638588" lon="19.9407932">
    <tag k="amenity" v="fast_food"/>
    <tag k="cuisine" v="kebab"/>
  </node>
  <node id="490986318" version="1" timestamp="2009-09-09T12:40:10Z" uid="123700" user="Mala" changeset="2424887" lat="50.0640932" lon="19.9406815">
    <tag k="amenity" v="restaurant"/>
    <tag k="name" v="Piwnica Pod Złotą Pipą"/>
  </node>
  <node id="490986318" version="2" timestamp="2012-03-08T14:05:10Z" uid="598456" user="vinci4352" changeset="10909503" lat="50.0640696" lon="19.940612">
    <tag k="amenity" v="restaurant"/>
    <tag k="name" v="Piwnica Pod Złotą Pipą"/>
  </node>
  <node id="490986319" version="1" timestamp="2009-09-09T12:40:11Z" uid="123700" user="Mala" changeset="2424887" lat="50.0639768" lon="19.9405872">
    <tag k="name" v="Centrum Last Minute"/>
    <tag k="shop" v="travel_agency"/>
  </node>
  <node id="490986323" version="1" timestamp="2009-09-09T12:40:11Z" uid="123700" user="Mala" changeset="2424887" lat="50.0638387" lon="19.940493">
    <tag k="addr:housenumber" v="28"/>
    <tag k="name" v="Hokus Pokus"/>
    <tag k="tourism" v="hostel"/>
  </node>
  <node id="490986326" version="1" timestamp="2009-09-09T12:40:11Z" uid="123700" user="Mala" changeset="2424887" lat="50.0637317" lon="19.9403963">
    <tag k="amenity" v="restaurant"/>
    <tag k="cuisine" v="italian"/>
    <tag k="name" v="Restauracja Carlito"/>
  </node>
  <node id="490986329" version="1" timestamp="2009-09-09T12:40:11Z" uid="123700" user="Mala" changeset="2424887" lat="50.0635679" lon="19.9404853">
    <tag k="amenity" v="fast_food"/>
    <tag k="name" v="KFC"/>
    <tag k="operator" v="KFC"/>
  </node>
  <node id="490986329" version="2" timestamp="2012-03-04T09:50:12Z" uid="598456" user="vinci4352" changeset="10866280" lat="50.0635499" lon="19.9405632">
    <tag k="amenity" v="fast_food"/>
    <tag k="name" v="KFC"/>
    <tag k="operator" v="KFC"/>
  </node>
  <node id="490986329" version="3" timestamp="2012-03-08T14:02:58Z" uid="598456" user="vinci4352" changeset="10909503" lat="50.0635258" lon="19.9404909">
    <tag k="amenity" v="fast_food"/>
    <tag k="name" v="KFC"/>
    <tag k="operator" v="KFC"/>
  </node>
  <node id="490986331" version="1" timestamp="2009-09-09T12:40:11Z" uid="123700" user="Mala" changeset="2424887" lat="50.0634897" lon="19.9404292">
    <tag k="shop" v="souvenirs"/>
  </node>
  <node id="490986331" version="2" timestamp="2010-09-20T22:51:18Z" uid="65148" user="Pirat Michi" changeset="5833630" lat="50.0634897" lon="19.9404292">
    <tag k="shop" v="gift"/>
  </node>
  <node id="490986331" version="3" timestamp="2012-03-08T08:27:00Z" uid="338611" user="marek kleciak" changeset="10906951" lat="50.0634367" lon="19.9404268">
    <tag k="shop" v="gift"/>
  </node>
  <node id="490986334" version="1" timestamp="2009-09-09T12:40:11Z" uid="123700" user="Mala" changeset="2424887" lat="50.0634425" lon="19.9403963">
    <tag k="addr:housenumber" v="29"/>
    <tag k="name" v="Tutti Frutti Hostel"/>
    <tag k="tourism" v="hostel"/>
  </node>
  <node id="490986334" version="2" timestamp="2012-03-04T09:50:21Z" uid="598456" user="vinci4352" changeset="10866280" lat="50.0634245" lon="19.9405241">
    <tag k="addr:housenumber" v="29"/>
    <tag k="name" v="Tutti Frutti Hostel"/>
    <tag k="tourism" v="hostel"/>
  </node>
  <node id="490986334" version="3" timestamp="2012-03-08T14:05:35Z" uid="598456" user="vinci4352" changeset="10909503" lat="50.0634004" lon="19.9404518">
    <tag k="addr:housenumber" v="29"/>
    <tag k="name" v="Tutti Frutti Hostel"/>
    <tag k="tourism" v="hostel"/>
  </node>
  <node id="490986336" version="1" timestamp="2009-09-09T12:40:11Z" uid="123700" user="Mala" changeset="2424887" lat="50.0634016" lon="19.9403654">
    <tag k="amenity" v="cafe"/>
    <tag k="name" v="Cosmopolitan"/>
    <tag k="note" v="also a bar"/>
  </node>
  <node id="490986336" version="2" timestamp="2012-03-04T09:50:10Z" uid="598456" user="vinci4352" changeset="10866280" lat="50.0633796" lon="19.9405306">
    <tag k="amenity" v="cafe"/>
    <tag k="name" v="Cosmopolitan"/>
    <tag k="note" v="also a bar"/>
  </node>
  <node id="490986336" version="3" timestamp="2012-03-08T14:02:37Z" uid="598456" user="vinci4352" changeset="10909503" lat="50.0633555" lon="19.9404583">
    <tag k="amenity" v="cafe"/>
    <tag k="name" v="Cosmopolitan"/>
    <tag k="note" v="also a bar"/>
  </node>
  <node id="490986337" version="1" timestamp="2009-09-09T12:40:11Z" uid="123700" user="Mala" changeset="2424887" lat="50.0633531" lon="19.9403345">
    <tag k="tourism" v="information"/>
  </node>
  <node id="490986337" version="2" timestamp="2012-03-04T09:50:35Z" uid="598456" user="vinci4352" changeset="10866280" lat="50.0632891" lon="19.940375">
    <tag k="tourism" v="information"/>
  </node>
  <node id="490986337" version="3" timestamp="2012-03-08T14:22:08Z" uid="598456" user="vinci4352" changeset="10909503" lat="50.063265" lon="19.9403027">
    <tag k="tourism" v="information"/>
  </node>
  <node id="490986340" version="1" timestamp="2009-09-09T12:40:11Z" uid="123700" user="Mala" changeset="2424887" lat="50.0633693" lon="19.9403712">
    <tag k="amenity" v="bureau_de_change"/>
  </node>
  <node id="490986340" version="2" timestamp="2012-03-04T09:50:35Z" uid="598456" user="vinci4352" changeset="10866280" lat="50.0633033" lon="19.9404366">
    <tag k="amenity" v="bureau_de_change"/>
  </node>
  <node id="490986340" version="3" timestamp="2012-03-08T14:22:08Z" uid="598456" user="vinci4352" changeset="10909503" lat="50.0632792" lon="19.9403643">
    <tag k="amenity" v="bureau_de_change"/>
  </node>
  <node id="490986342" version="1" timestamp="2009-09-09T12:40:11Z" uid="123700" user="Mala" changeset="2424887" lat="50.0636151" lon="19.940319">
    <tag k="amenity" v="restaurant"/>
    <tag k="name" v="Gruzińskie Chaczapuri"/>
  </node>
  <node id="490986342" version="2" timestamp="2012-03-08T14:02:51Z" uid="598456" user="vinci4352" changeset="10909503" lat="50.0636123" lon="19.9402366">
    <tag k="amenity" v="restaurant"/>
    <tag k="name" v="Gruzińskie Chaczapuri"/>
  </node>
  <node id="490986345" version="1" timestamp="2009-09-09T12:40:11Z" uid="123700" user="Mala" changeset="2424887" lat="50.0635294" lon="19.9402629">
    <tag k="amenity" v="fast_food"/>
    <tag k="name" v="Kebab Królewski"/>
  </node>
  <node id="490986345" version="2" timestamp="2012-03-08T14:03:02Z" uid="598456" user="vinci4352" changeset="10909503" lat="50.0635118" lon="19.9401935">
    <tag k="amenity" v="fast_food"/>
    <tag k="name" v="Kebab Królewski"/>
  </node>
  <node id="490986347" version="1" timestamp="2009-09-09T12:40:11Z" uid="123700" user="Mala" changeset="2424887" lat="50.0634959" lon="19.9402378">
    <tag k="amenity" v="pub"/>
    <tag k="name" v="Indigo Pub"/>
  </node>
  <node id="490986347" version="2" timestamp="2012-03-08T14:02:56Z" uid="598456" user="vinci4352" changeset="10909503" lat="50.0634885" lon="19.9401727">
    <tag k="amenity" v="pub"/>
    <tag k="name" v="Indigo Pub"/>
  </node>
  <node id="490986351" version="1" timestamp="2009-09-09T12:40:11Z" uid="123700" user="Mala" changeset="2424887" lat="50.0634649" lon="19.9402184">
    <tag k="name" v="Kwiaciarenka"/>
    <tag k="shop" v="florist"/>
  </node>
  <node id="490986351" version="2" timestamp="2012-03-08T14:03:09Z" uid="598456" user="vinci4352" changeset="10909503" lat="50.0634111" lon="19.9401042">
    <tag k="name" v="Kwiaciarenka"/>
    <tag k="shop" v="florist"/>
  </node>
  <node id="490986352" version="1" timestamp="2009-09-09T12:40:11Z" uid="123700" user="Mala" changeset="2424887" lat="50.0634723" lon="19.940143">
    <tag k="amenity" v="nightclub"/>
    <tag k="name" v="Klub Obsesja"/>
  </node>
  <node id="490986352" version="2" timestamp="2012-03-08T14:03:03Z" uid="598456" user="vinci4352" changeset="10909503" lat="50.0635187" lon="19.9400938">
    <tag k="amenity" v="nightclub"/>
    <tag k="name" v="Klub Obsesja"/>
  </node>
  <node id="490986355" version="1" timestamp="2009-09-09T12:40:11Z" uid="123700" user="Mala" changeset="2424887" lat="50.0634388" lon="19.9401972">
    <tag k="name" v="Biuro Podróży &quot;Olimp&quot;"/>
    <tag k="shop" v="travel_agency"/>
  </node>
  <node id="490986355" version="2" timestamp="2012-03-08T14:02:26Z" uid="598456" user="vinci4352" changeset="10909503" lat="50.0634472" lon="19.9401379">
    <tag k="name" v="Biuro Podróży &quot;Olimp&quot;"/>
    <tag k="shop" v="travel_agency"/>
  </node>
  <node id="490986357" version="1" timestamp="2009-09-09T12:40:11Z" uid="123700" user="Mala" changeset="2424887" lat="50.063445" lon="19.9401276">
    <tag k="amenity" v="bureau_de_change"/>
  </node>
  <node id="490986357" version="2" timestamp="2012-03-08T14:22:08Z" uid="598456" user="vinci4352" changeset="10909503" lat="50.0634116" lon="19.9400524">
    <tag k="amenity" v="bureau_de_change"/>
  </node>
  <node id="490986360" version="1" timestamp="2009-09-09T12:40:11Z" uid="123700" user="Mala" changeset="2424887" lat="50.0633494" lon="19.9401508">
    <tag k="amenity" v="pub"/>
    <tag k="name" v="Klub Garinet"/>
  </node>
  <node id="490986360" version="2" timestamp="2012-03-08T14:03:03Z" uid="598456" user="vinci4352" changeset="10909503" lat="50.063329" lon="19.9400655">
    <tag k="amenity" v="pub"/>
    <tag k="name" v="Klub Garinet"/>
  </node>
  <node id="490986362" version="1" timestamp="2009-09-09T12:40:11Z" uid="123700" user="Mala" changeset="2424887" lat="50.063342" lon="19.9400812">
    <tag k="amenity" v="bureau_de_change"/>
  </node>
  <node id="490986362" version="2" timestamp="2012-03-08T14:22:09Z" uid="598456" user="vinci4352" changeset="10909503" lat="50.0633216" lon="19.9400205">
    <tag k="amenity" v="bureau_de_change"/>
  </node>
  <node id="490986365" version="1" timestamp="2009-09-09T12:40:11Z" uid="123700" user="Mala" changeset="2424887" lat="50.0632092" lon="19.9402165">
    <tag k="shop" v="convenience"/>
  </node>
  <node id="490986366" version="1" timestamp="2009-09-09T12:40:12Z" uid="123700" user="Mala" changeset="2424887" lat="50.0631657" lon="19.9401817">
    <tag k="tourism" v="information"/>
  </node>
  <node id="490986366" version="2" timestamp="2012-03-04T09:50:36Z" uid="598456" user="vinci4352" changeset="10866280" lat="50.0631257" lon="19.9403967">
    <tag k="tourism" v="information"/>
  </node>
  <node id="490986366" version="3" timestamp="2012-03-08T14:22:09Z" uid="598456" user="vinci4352" changeset="10909503" lat="50.0631016" lon="19.9403244">
    <tag k="tourism" v="information"/>
  </node>
  <node id="490986379" version="1" timestamp="2009-09-09T12:40:12Z" uid="123700" user="Mala" changeset="2424887" lat="50.0631223" lon="19.9401488">
    <tag k="amenity" v="bureau_de_change"/>
  </node>
  <node id="490986379" version="2" timestamp="2012-03-04T09:50:36Z" uid="598456" user="vinci4352" changeset="10866280" lat="50.0630523" lon="19.940314">
    <tag k="amenity" v="bureau_de_change"/>
  </node>
  <node id="490986379" version="3" timestamp="2012-03-08T14:22:09Z" uid="598456" user="vinci4352" changeset="10909503" lat="50.0630282" lon="19.9402417">
    <tag k="amenity" v="bureau_de_change"/>
  </node>
  <node id="490986382" version="1" timestamp="2009-09-09T12:40:12Z" uid="123700" user="Mala" changeset="2424887" lat="50.0630838" lon="19.9401179">
    <tag k="shop" v="souvenirs"/>
  </node>
  <node id="490986382" version="2" timestamp="2010-09-20T22:51:18Z" uid="65148" user="Pirat Michi" changeset="5833630" lat="50.0630838" lon="19.9401179">
    <tag k="shop" v="gift"/>
  </node>
  <node id="490986382" version="3" timestamp="2012-03-04T09:50:36Z" uid="598456" user="vinci4352" changeset="10866280" lat="50.0630658" lon="19.9402457">
    <tag k="shop" v="gift"/>
  </node>
  <node id="490986385" version="1" timestamp="2009-09-09T12:40:12Z" uid="123700" user="Mala" changeset="2424887" lat="50.0630428" lon="19.9400889">
    <tag k="name" v="Sephora"/>
    <tag k="shop" v="cosmetics"/>
  </node>
  <node id="490986385" version="2" timestamp="2012-03-04T09:50:20Z" uid="598456" user="vinci4352" changeset="10866280" lat="50.0630128" lon="19.9401949">
    <tag k="name" v="Sephora"/>
    <tag k="shop" v="cosmetics"/>
  </node>
  <node id="490986388" version="1" timestamp="2009-09-09T12:40:12Z" uid="123700" user="Mala" changeset="2424887" lat="50.0630006" lon="19.940056">
    <tag k="amenity" v="bank"/>
    <tag k="name" v="Bank Millenium"/>
    <tag k="operator" v="Millenium"/>
  </node>
  <node id="490986388" version="2" timestamp="2010-10-05T01:34:34Z" uid="20587" user="balrog-kun" changeset="5958352" lat="50.0629832" lon="19.9400628">
    <tag k="addr:city" v="Kraków"/>
    <tag k="addr:housenumber" v="17"/>
    <tag k="addr:street" v="Floriańska"/>
    <tag k="amenity" v="bank"/>
    <tag k="millennium:date" v="2009-09-14 14:49:45"/>
    <tag k="millennium:ref" v="20475"/>
    <tag k="millennium:usługi" v="Millennium"/>
    <tag k="name" v="Millennium Bank"/>
    <tag k="opening_hours" v="10.00-18.00 Mo-Fr"/>
    <tag k="operator" v="Millenium Bank S.A."/>
  </node>
  <node id="490986388" version="3" timestamp="2012-03-04T09:50:13Z" uid="598456" user="vinci4352" changeset="10866280" lat="50.0629752" lon="19.9401999">
    <tag k="addr:city" v="Kraków"/>
    <tag k="addr:housenumber" v="17"/>
    <tag k="addr:street" v="Floriańska"/>
    <tag k="amenity" v="bank"/>
    <tag k="millennium:date" v="2009-09-14 14:49:45"/>
    <tag k="millennium:ref" v="20475"/>
    <tag k="millennium:usługi" v="Millennium"/>
    <tag k="name" v="Millennium Bank"/>
    <tag k="opening_hours" v="10.00-18.00 Mo-Fr"/>
    <tag k="operator" v="Millenium Bank S.A."/>
  </node>
  <node id="490986390" version="1" timestamp="2009-09-09T12:40:12Z" uid="123700" user="Mala" changeset="2424887" lat="50.0629832" lon="19.9398395">
    <tag k="name" v="Hotel Pod Różą"/>
    <tag k="tourism" v="hotel"/>
  </node>
  <node id="490986390" version="2" timestamp="2012-03-04T09:50:11Z" uid="598456" user="vinci4352" changeset="10866280" lat="50.0629832" lon="19.9398052">
    <tag k="name" v="Hotel Pod Różą"/>
    <tag k="tourism" v="hotel"/>
  </node>
  <node id="490986390" version="3" timestamp="2012-03-08T14:02:54Z" uid="598456" user="vinci4352" changeset="10909503" lat="50.0629628" lon="19.9397445">
    <tag k="name" v="Hotel Pod Różą"/>
    <tag k="tourism" v="hotel"/>
  </node>
  <node id="490986392" version="1" timestamp="2009-09-09T12:40:12Z" uid="123700" user="Mala" changeset="2424887" lat="50.0630652" lon="19.9398994">
    <tag k="name" v="Biuro Turystyczne &quot;Bumerang&quot;"/>
    <tag k="shop" v="travel_agency"/>
  </node>
  <node id="490986392" version="2" timestamp="2012-03-08T14:02:27Z" uid="598456" user="vinci4352" changeset="10909503" lat="50.0630448" lon="19.9398387">
    <tag k="name" v="Biuro Turystyczne &quot;Bumerang&quot;"/>
    <tag k="shop" v="travel_agency"/>
  </node>
  <node id="490986395" version="1" timestamp="2009-09-09T12:40:12Z" uid="123700" user="Mala" changeset="2424887" lat="50.0628594" lon="19.939723">
    <tag k="name" v="Swarovski"/>
    <tag k="shop" v="jewellery"/>
  </node>
  <node id="490986395" version="2" timestamp="2010-01-14T16:18:09Z" uid="45284" user="Eric S" changeset="3617989" lat="50.0628594" lon="19.939723">
    <tag k="name" v="Swarovski"/>
    <tag k="shop" v="jewelry"/>
  </node>
  <node id="490986395" version="3" timestamp="2011-11-27T00:34:33Z" uid="164910" user="ppece" changeset="9962557" lat="50.0628548" lon="19.9395403">
    <tag k="name" v="Swarovski"/>
    <tag k="shop" v="jewelry"/>
  </node>
  <node id="490986395" version="4" timestamp="2012-03-08T14:05:34Z" uid="598456" user="vinci4352" changeset="10909503" lat="50.0628391" lon="19.9395015">
    <tag k="name" v="Swarovski"/>
    <tag k="shop" v="jewelry"/>
  </node>
  <node id="490986398" version="1" timestamp="2009-09-09T12:40:12Z" uid="123700" user="Mala" changeset="2424887" lat="50.062806" lon="19.9399269">
    <tag k="amenity" v="embassy"/>
    <tag k="name" v="Konsulat Honorowy Republiki Estonii"/>
  </node>
  <node id="490986398" version="2" timestamp="2009-10-22T15:10:52Z" uid="64578" user="Serpens" changeset="2922449" lat="50.062806" lon="19.9399269">
    <tag k="amenity" v="embassy"/>
    <tag k="country" v="ee"/>
    <tag k="name" v="Konsulat Honorowy Republiki Estonii"/>
  </node>
  <node id="490986398" version="3" timestamp="2010-01-04T14:56:19Z" uid="64578" user="Serpens" changeset="3537746" lat="50.062806" lon="19.9399269">
    <tag k="amenity" v="embassy"/>
    <tag k="country" v="EE"/>
    <tag k="name" v="Konsulat Honorowy Republiki Estonii"/>
  </node>
  <node id="490986398" version="4" timestamp="2011-11-27T00:34:32Z" uid="164910" user="ppece" changeset="9962557" lat="50.0627931" lon="19.9399507">
    <tag k="amenity" v="embassy"/>
    <tag k="country" v="EE"/>
    <tag k="name" v="Konsulat Honorowy Republiki Estonii"/>
  </node>
  <node id="490986401" version="1" timestamp="2009-09-09T12:40:13Z" uid="123700" user="Mala" changeset="2424887" lat="50.0627987" lon="19.9396852">
    <tag k="amenity" v="restaurant"/>
    <tag k="cuisine" v="italian"/>
    <tag k="name" v="Restauracja Sycylia"/>
  </node>
  <node id="490986401" version="2" timestamp="2011-11-27T00:34:33Z" uid="164910" user="ppece" changeset="9962557" lat="50.0627941" lon="19.9395025">
    <tag k="amenity" v="restaurant"/>
    <tag k="cuisine" v="italian"/>
    <tag k="name" v="Restauracja Sycylia"/>
  </node>
  <node id="490986401" version="3" timestamp="2012-03-08T14:05:27Z" uid="598456" user="vinci4352" changeset="10909503" lat="50.0627889" lon="19.9394412">
    <tag k="amenity" v="restaurant"/>
    <tag k="cuisine" v="italian"/>
    <tag k="name" v="Restauracja Sycylia"/>
  </node>
  <node id="490986403" version="1" timestamp="2009-09-09T12:40:13Z" uid="123700" user="Mala" changeset="2424887" lat="50.0626872" lon="19.9396097">
    <tag k="name" v="Hostel Residence Floriańska"/>
    <tag k="tourism" v="hostel"/>
  </node>
  <node id="490986403" version="2" timestamp="2011-11-27T00:34:32Z" uid="164910" user="ppece" changeset="9962557" lat="50.0626826" lon="19.939427">
    <tag k="name" v="Hostel Residence Floriańska"/>
    <tag k="tourism" v="hostel"/>
  </node>
  <node id="490986403" version="3" timestamp="2012-03-08T14:02:52Z" uid="598456" user="vinci4352" changeset="10909503" lat="50.062659" lon="19.9393575">
    <tag k="name" v="Hostel Residence Floriańska"/>
    <tag k="tourism" v="hostel"/>
  </node>
  <node id="490986405" version="1" timestamp="2009-09-09T12:40:13Z" uid="123700" user="Mala" changeset="2424887" lat="50.062743" lon="19.9396437">
    <tag k="name" v="Biuro Podróży Travel&amp;Go"/>
    <tag k="shop" v="travel_agency"/>
  </node>
  <node id="490986405" version="2" timestamp="2011-11-27T00:34:32Z" uid="164910" user="ppece" changeset="9962557" lat="50.0627384" lon="19.939461">
    <tag k="name" v="Biuro Podróży Travel&amp;Go"/>
    <tag k="shop" v="travel_agency"/>
  </node>
  <node id="490986408" version="1" timestamp="2009-09-09T12:40:13Z" uid="123700" user="Mala" changeset="2424887" lat="50.0626121" lon="19.9395568">
    <tag k="tourism" v="information"/>
  </node>
  <node id="490986408" version="2" timestamp="2011-11-27T00:34:34Z" uid="164910" user="ppece" changeset="9962557" lat="50.0626075" lon="19.9393741">
    <tag k="tourism" v="information"/>
  </node>
  <node id="490986408" version="3" timestamp="2012-03-08T14:22:09Z" uid="598456" user="vinci4352" changeset="10909503" lat="50.0625839" lon="19.9393046">
    <tag k="tourism" v="information"/>
  </node>
  <node id="490986411" version="1" timestamp="2009-09-09T12:40:13Z" uid="123700" user="Mala" changeset="2424887" lat="50.0625466" lon="19.9395039">
    <tag k="name" v="Złota Róża"/>
    <tag k="shop" v="jewellery"/>
  </node>
  <node id="490986411" version="2" timestamp="2010-01-14T16:18:08Z" uid="45284" user="Eric S" changeset="3617989" lat="50.0625466" lon="19.9395039">
    <tag k="name" v="Złota Róża"/>
    <tag k="shop" v="jewelry"/>
  </node>
  <node id="490986411" version="3" timestamp="2011-11-27T00:34:33Z" uid="164910" user="ppece" changeset="9962557" lat="50.062542" lon="19.9393212">
    <tag k="name" v="Złota Róża"/>
    <tag k="shop" v="jewelry"/>
  </node>
  <node id="490986411" version="4" timestamp="2012-03-03T18:29:32Z" uid="598456" user="vinci4352" changeset="10860704" lat="50.0625527" lon="19.939324">
    <tag k="name" v="Złota Róża"/>
    <tag k="shop" v="jewelry"/>
  </node>
  <node id="490986411" version="5" timestamp="2012-03-08T14:05:43Z" uid="598456" user="vinci4352" changeset="10909503" lat="50.0625291" lon="19.9392545">
    <tag k="name" v="Złota Róża"/>
    <tag k="shop" v="jewelry"/>
  </node>
  <node id="490986413" version="1" timestamp="2009-09-09T12:40:13Z" uid="123700" user="Mala" changeset="2424887" lat="50.0627284" lon="19.9398703">
    <tag k="amenity" v="pub"/>
    <tag k="name" v="Alter Ego"/>
  </node>
  <node id="490986413" version="2" timestamp="2011-11-27T00:34:31Z" uid="164910" user="ppece" changeset="9962557" lat="50.0627297" lon="19.9398617">
    <tag k="amenity" v="pub"/>
    <tag k="name" v="Alter Ego"/>
  </node>
  <node id="490986413" version="3" timestamp="2012-03-03T18:29:01Z" uid="598456" user="vinci4352" changeset="10860704" lat="50.0627172" lon="19.9399119">
    <tag k="amenity" v="pub"/>
    <tag k="name" v="Alter Ego"/>
  </node>
  <node id="490986413" version="4" timestamp="2012-03-06T01:43:22Z" uid="164910" user="ppece" changeset="10886367" lat="50.0627297" lon="19.9398617">
    <tag k="amenity" v="pub"/>
    <tag k="name" v="Alter Ego"/>
  </node>
  <node id="490986417" version="1" timestamp="2009-09-09T12:40:13Z" uid="123700" user="Mala" changeset="2424887" lat="50.0626509" lon="19.9398098">
    <tag k="amenity" v="fast_food"/>
    <tag k="cuisine" v="kebab"/>
    <tag k="name" v="Bar Kadym"/>
  </node>
  <node id="490986417" version="2" timestamp="2011-11-27T00:34:31Z" uid="164910" user="ppece" changeset="9962557" lat="50.062673" lon="19.9398151">
    <tag k="amenity" v="fast_food"/>
    <tag k="cuisine" v="kebab"/>
    <tag k="name" v="Bar Kadym"/>
  </node>
  <node id="490986417" version="3" timestamp="2012-03-03T18:29:01Z" uid="598456" user="vinci4352" changeset="10860704" lat="50.0625996" lon="19.9398346">
    <tag k="amenity" v="fast_food"/>
    <tag k="cuisine" v="kebab"/>
    <tag k="name" v="Bar Kadym"/>
  </node>
  <node id="490986417" version="4" timestamp="2012-03-06T01:43:22Z" uid="164910" user="ppece" changeset="10886367" lat="50.062673" lon="19.9398151">
    <tag k="amenity" v="fast_food"/>
    <tag k="cuisine" v="kebab"/>
    <tag k="name" v="Bar Kadym"/>
  </node>
  <node id="490986418" version="1" timestamp="2009-09-09T12:40:13Z" uid="123700" user="Mala" changeset="2424887" lat="50.062343" lon="19.9395757">
    <tag k="amenity" v="embassy"/>
    <tag k="name" v="Konsulat Republiki Chile"/>
  </node>
  <node id="490986418" version="2" timestamp="2009-10-22T15:10:52Z" uid="64578" user="Serpens" changeset="2922449" lat="50.062343" lon="19.9395757">
    <tag k="amenity" v="embassy"/>
    <tag k="country" v="cl"/>
    <tag k="name" v="Konsulat Republiki Chile"/>
  </node>
  <node id="490986418" version="3" timestamp="2010-01-04T14:56:19Z" uid="64578" user="Serpens" changeset="3537746" lat="50.062343" lon="19.9395757">
    <tag k="amenity" v="embassy"/>
    <tag k="country" v="CL"/>
    <tag k="name" v="Konsulat Republiki Chile"/>
  </node>
  <node id="490986418" version="4" timestamp="2011-11-27T00:34:32Z" uid="164910" user="ppece" changeset="9962557" lat="50.0623452" lon="19.9395488">
    <tag k="amenity" v="embassy"/>
    <tag k="country" v="CL"/>
    <tag k="name" v="Konsulat Republiki Chile"/>
  </node>
  <node id="490986418" version="5" timestamp="2012-03-03T18:29:02Z" uid="598456" user="vinci4352" changeset="10860704" lat="50.0622968" lon="19.9395906">
    <tag k="amenity" v="embassy"/>
    <tag k="country" v="CL"/>
    <tag k="name" v="Konsulat Republiki Chile"/>
  </node>
  <node id="490986418" version="6" timestamp="2012-03-06T01:43:22Z" uid="164910" user="ppece" changeset="10886367" lat="50.0623452" lon="19.9395488">
    <tag k="amenity" v="embassy"/>
    <tag k="country" v="CL"/>
    <tag k="name" v="Konsulat Republiki Chile"/>
  </node>
  <node id="490986421" version="1" timestamp="2009-09-09T12:40:13Z" uid="123700" user="Mala" changeset="2424887" lat="50.0622848" lon="19.9395946">
    <tag k="amenity" v="bureau_de_change"/>
  </node>
  <node id="490986421" version="2" timestamp="2011-11-27T00:34:34Z" uid="164910" user="ppece" changeset="9962557" lat="50.0622952" lon="19.9395207">
    <tag k="amenity" v="bureau_de_change"/>
  </node>
  <node id="490986421" version="3" timestamp="2012-03-03T18:31:08Z" uid="598456" user="vinci4352" changeset="10860704" lat="50.0621233" lon="19.9395012">
    <tag k="amenity" v="bureau_de_change"/>
  </node>
  <node id="490986421" version="4" timestamp="2012-03-06T01:43:34Z" uid="164910" user="ppece" changeset="10886367" lat="50.0622952" lon="19.9395207">
    <tag k="amenity" v="bureau_de_change"/>
  </node>
  <node id="490986424" version="1" timestamp="2009-09-09T12:40:13Z" uid="123700" user="Mala" changeset="2424887" lat="50.0622654" lon="19.939519">
    <tag k="amenity" v="pub"/>
    <tag k="name" v="Jazz Club U Muniaka"/>
  </node>
  <node id="490986424" version="2" timestamp="2011-11-27T00:34:32Z" uid="164910" user="ppece" changeset="9962557" lat="50.0622653" lon="19.9394958">
    <tag k="amenity" v="pub"/>
    <tag k="name" v="Jazz Club U Muniaka"/>
  </node>
  <node id="490986424" version="3" timestamp="2012-03-03T18:29:02Z" uid="598456" user="vinci4352" changeset="10860704" lat="50.0622205" lon="19.9395014">
    <tag k="amenity" v="pub"/>
    <tag k="name" v="Jazz Club U Muniaka"/>
  </node>
  <node id="490986424" version="4" timestamp="2012-03-06T01:43:22Z" uid="164910" user="ppece" changeset="10886367" lat="50.0622653" lon="19.9394958">
    <tag k="amenity" v="pub"/>
    <tag k="name" v="Jazz Club U Muniaka"/>
  </node>
  <node id="490986426" version="1" timestamp="2009-09-09T12:40:13Z" uid="123700" user="Mala" changeset="2424887" lat="50.0621999" lon="19.9394699">
    <tag k="amenity" v="fast_food"/>
    <tag k="cuisine" v="kebab"/>
  </node>
  <node id="490986426" version="2" timestamp="2011-11-27T00:34:34Z" uid="164910" user="ppece" changeset="9962557" lat="50.0622021" lon="19.939434">
    <tag k="amenity" v="fast_food"/>
    <tag k="cuisine" v="kebab"/>
  </node>
  <node id="490986429" version="1" timestamp="2009-09-09T12:40:13Z" uid="123700" user="Mala" changeset="2424887" lat="50.0624108" lon="19.939621">
    <tag k="addr:housenumber" v="5"/>
    <tag k="name" v="Hostel Gardenhouse"/>
    <tag k="tourism" v="hostel"/>
  </node>
  <node id="490986429" version="2" timestamp="2011-11-27T00:34:34Z" uid="164910" user="ppece" changeset="9962557" lat="50.0624108" lon="19.939621"/>
  <node id="490986431" version="1" timestamp="2009-09-09T12:40:13Z" uid="123700" user="Mala" changeset="2424887" lat="50.0629871" lon="19.9382928">
    <tag k="amenity" v="cafe"/>
    <tag k="name" v="Bar Kawowy Rio"/>
  </node>
  <node id="490986431" version="2" timestamp="2012-03-08T14:02:24Z" uid="598456" user="vinci4352" changeset="10909503" lat="50.0629635" lon="19.9382294">
    <tag k="amenity" v="cafe"/>
    <tag k="name" v="Bar Kawowy Rio"/>
  </node>
  <node id="490986431" version="3" timestamp="2012-03-13T12:06:39Z" uid="598456" user="vinci4352" changeset="10965818" lat="50.0629594" lon="19.9382788">
    <tag k="amenity" v="cafe"/>
    <tag k="name" v="Bar Kawowy Rio"/>
  </node>
  <node id="490986434" version="1" timestamp="2009-09-09T12:40:13Z" uid="123700" user="Mala" changeset="2424887" lat="50.0628611" lon="19.9382022">
    <tag k="amenity" v="cafe"/>
    <tag k="name" v="Cafe Jana"/>
  </node>
  <node id="490986434" version="2" timestamp="2012-03-08T14:02:31Z" uid="598456" user="vinci4352" changeset="10909503" lat="50.0628375" lon="19.9381388">
    <tag k="amenity" v="cafe"/>
    <tag k="name" v="Cafe Jana"/>
  </node>
  <node id="490986434" version="3" timestamp="2012-03-13T12:06:40Z" uid="598456" user="vinci4352" changeset="10965818" lat="50.0628265" lon="19.9381775">
    <tag k="amenity" v="cafe"/>
    <tag k="name" v="Cafe Jana"/>
  </node>
  <node id="490986435" version="1" timestamp="2009-09-09T12:40:13Z" uid="123700" user="Mala" changeset="2424887" lat="50.0627568" lon="19.938138">
    <tag k="amenity" v="pub"/>
    <tag k="name" v="Feniks Dancing Bar"/>
  </node>
  <node id="490986435" version="2" timestamp="2012-03-08T14:02:45Z" uid="598456" user="vinci4352" changeset="10909503" lat="50.0627332" lon="19.9380746">
    <tag k="amenity" v="pub"/>
    <tag k="name" v="Feniks Dancing Bar"/>
  </node>
  <node id="490986435" version="3" timestamp="2012-03-13T12:06:40Z" uid="598456" user="vinci4352" changeset="10965818" lat="50.0626808" lon="19.9380875">
    <tag k="amenity" v="pub"/>
    <tag k="name" v="Feniks Dancing Bar"/>
  </node>
  <node id="490986438" version="1" timestamp="2009-09-09T12:40:13Z" uid="123700" user="Mala" changeset="2424887" lat="50.0627035" lon="19.9383117">
    <tag k="amenity" v="restaurant"/>
    <tag k="cuisine" v="fusion"/>
    <tag k="name" v="Renaissance Fusion Restaurant"/>
  </node>
  <node id="490986438" version="2" timestamp="2012-03-08T14:05:18Z" uid="598456" user="vinci4352" changeset="10909503" lat="50.0626799" lon="19.9382422">
    <tag k="amenity" v="restaurant"/>
    <tag k="cuisine" v="fusion"/>
    <tag k="name" v="Renaissance Fusion Restaurant"/>
  </node>
  <node id="490986443" version="1" timestamp="2009-09-09T12:40:14Z" uid="123700" user="Mala" changeset="2424887" lat="50.062926" lon="19.938484">
    <tag k="name" v="Antykwariat"/>
    <tag k="shop" v="books"/>
  </node>
  <node id="490986443" version="2" timestamp="2012-03-03T18:29:01Z" uid="598456" user="vinci4352" changeset="10860704" lat="50.062832" lon="19.9385314">
    <tag k="name" v="Antykwariat"/>
    <tag k="shop" v="books"/>
  </node>
  <node id="490986445" version="1" timestamp="2009-09-09T12:40:14Z" uid="123700" user="Mala" changeset="2424887" lat="50.0629852" lon="19.9385167">
    <tag k="amenity" v="restaurant"/>
    <tag k="cuisine" v="local"/>
    <tag k="name" v="Restauracja Chłopskie Jadło"/>
  </node>
  <node id="490986445" version="2" timestamp="2012-03-03T18:29:31Z" uid="598456" user="vinci4352" changeset="10860704" lat="50.0629342" lon="19.9386157">
    <tag k="amenity" v="restaurant"/>
    <tag k="cuisine" v="local"/>
    <tag k="name" v="Restauracja Chłopskie Jadło"/>
  </node>
  <node id="490986447" version="1" timestamp="2009-09-09T12:40:14Z" uid="123700" user="Mala" changeset="2424887" lat="50.0630749" lon="19.938592">
    <tag k="name" v="Lody Argasińscy"/>
    <tag k="shop" v="ice_cream"/>
  </node>
  <node id="490986447" version="2" timestamp="2010-04-17T11:47:56Z" uid="91056" user="Yarl" changeset="4446654" lat="50.0630252" lon="19.9385456">
    <tag k="name" v="Lody Argasińscy"/>
    <tag k="shop" v="ice_cream"/>
  </node>
  <node id="490986447" version="3" timestamp="2012-03-03T18:29:03Z" uid="598456" user="vinci4352" changeset="10860704" lat="50.0630745" lon="19.9384452">
    <tag k="name" v="Lody Argasińscy"/>
    <tag k="shop" v="ice_cream"/>
  </node>
  <node id="490986447" version="4" timestamp="2012-03-08T14:03:13Z" uid="598456" user="vinci4352" changeset="10909503" lat="50.0631086" lon="19.9383328">
    <tag k="name" v="Lody Argasińscy"/>
    <tag k="shop" v="ice_cream"/>
  </node>
  <node id="490986447" version="5" timestamp="2012-03-13T12:06:41Z" uid="598456" user="vinci4352" changeset="10965818" lat="50.0631127" lon="19.9383887">
    <tag k="name" v="Lody Argasińscy"/>
    <tag k="shop" v="ice_cream"/>
  </node>
  <node id="490986448" version="1" timestamp="2009-09-09T12:40:14Z" uid="123700" user="Mala" changeset="2424887" lat="50.0631108" lon="19.938616">
    <tag k="amenity" v="pub"/>
    <tag k="name" v="Intro Pub &amp; Club"/>
  </node>
  <node id="490986448" version="2" timestamp="2010-04-17T11:47:56Z" uid="91056" user="Yarl" changeset="4446654" lat="50.0630402" lon="19.9385692">
    <tag k="amenity" v="pub"/>
    <tag k="name" v="Intro Pub &amp; Club"/>
  </node>
  <node id="490986448" version="3" timestamp="2012-03-03T18:29:02Z" uid="598456" user="vinci4352" changeset="10860704" lat="50.0630321" lon="19.9386808">
    <tag k="amenity" v="pub"/>
    <tag k="name" v="Intro Pub &amp; Club"/>
  </node>
  <node id="490986448" version="4" timestamp="2012-03-08T14:02:56Z" uid="598456" user="vinci4352" changeset="10909503" lat="50.0630137" lon="19.9386399">
    <tag k="amenity" v="pub"/>
    <tag k="name" v="Intro Pub &amp; Club"/>
  </node>
  <node id="490986450" version="1" timestamp="2009-09-09T12:40:14Z" uid="123700" user="Mala" changeset="2424887" lat="50.0631498" lon="19.9386498">
    <tag k="shop" v="boutique"/>
  </node>
  <node id="490986450" version="2" timestamp="2010-04-17T11:47:56Z" uid="91056" user="Yarl" changeset="4446654" lat="50.0630802" lon="19.9386047">
    <tag k="shop" v="boutique"/>
  </node>
  <node id="490986450" version="3" timestamp="2012-03-03T18:31:08Z" uid="598456" user="vinci4352" changeset="10860704" lat="50.0630856" lon="19.9387037">
    <tag k="shop" v="boutique"/>
  </node>
  <node id="490986450" version="4" timestamp="2012-03-08T14:22:10Z" uid="598456" user="vinci4352" changeset="10909503" lat="50.0630541" lon="19.9386546">
    <tag k="shop" v="boutique"/>
  </node>
  <node id="490986452" version="1" timestamp="2009-09-09T12:40:14Z" uid="123700" user="Mala" changeset="2424887" lat="50.0633426" lon="19.9385821">
    <tag k="amenity" v="restaurant"/>
    <tag k="name" v="Sakana Sushi Bar"/>
  </node>
  <node id="490986455" version="1" timestamp="2009-09-09T12:40:14Z" uid="123700" user="Mala" changeset="2424887" lat="50.0632689" lon="19.9387603">
    <tag k="amenity" v="place_of_worship"/>
    <tag k="name" v="Klasztor Prezentek"/>
  </node>
  <node id="490986455" version="2" timestamp="2010-04-17T11:47:59Z" uid="91056" user="Yarl" changeset="4446654" lat="50.063387" lon="19.9388777">
    <tag k="building" v="monastery"/>
    <tag k="name" v="Klasztor Prezentek"/>
  </node>
  <node id="490986455" version="3" timestamp="2012-03-08T14:03:03Z" uid="598456" user="vinci4352" changeset="10909503" lat="50.0633332" lon="19.938869">
    <tag k="building" v="monastery"/>
    <tag k="name" v="Klasztor Prezentek"/>
  </node>
  <node id="490986458" version="1" timestamp="2009-09-09T12:40:14Z" uid="123700" user="Mala" changeset="2424887" lat="50.0632398" lon="19.9388389">
    <tag k="amenity" v="school"/>
    <tag k="name" v="Prywatne Liceum Ogólnokształcące przy Klasztorze Prezentek"/>
  </node>
  <node id="490986458" version="2" timestamp="2010-04-17T11:47:56Z" uid="91056" user="Yarl" changeset="4446654" lat="50.0632591" lon="19.9387728">
    <tag k="amenity" v="school"/>
    <tag k="name" v="Prywatne Liceum Ogólnokształcące przy Klasztorze Prezentek"/>
  </node>
  <node id="490986458" version="3" timestamp="2012-03-08T14:05:11Z" uid="598456" user="vinci4352" changeset="10909503" lat="50.0632387" lon="19.9387121">
    <tag k="amenity" v="school"/>
    <tag k="name" v="Prywatne Liceum Ogólnokształcące przy Klasztorze Prezentek"/>
  </node>
  <node id="490986462" version="1" timestamp="2009-09-09T12:40:14Z" uid="123700" user="Mala" changeset="2424887" lat="50.0635754" lon="19.9387422">
    <tag k="addr:housenumber" v="14"/>
    <tag k="amenity" v="art_gallery"/>
    <tag k="name" v="Galeria Autorska Andrzeja Mleczki"/>
  </node>
  <node id="490986462" version="2" timestamp="2012-03-30T20:00:23Z" uid="78656" user="Walter Schlögl" changeset="11159476" lat="50.0635754" lon="19.9387422">
    <tag k="addr:housenumber" v="14"/>
    <tag k="gallery" v="art"/>
    <tag k="name" v="Galeria Autorska Andrzeja Mleczki"/>
    <tag k="tourism" v="gallery"/>
  </node>
  <node id="490986463" version="1" timestamp="2009-09-09T12:40:14Z" uid="123700" user="Mala" changeset="2424887" lat="50.0636898" lon="19.9388268">
    <tag k="amenity" v="restaurant"/>
    <tag k="name" v="Baroque Wódka &amp; Food"/>
  </node>
  <node id="490986466" version="1" timestamp="2009-09-09T12:40:14Z" uid="123700" user="Mala" changeset="2424887" lat="50.0638023" lon="19.9388903">
    <tag k="amenity" v="pub"/>
    <tag k="name" v="Irish Pub &quot;Pod Papugami&quot;"/>
  </node>
  <node id="490986470" version="1" timestamp="2009-09-09T12:40:14Z" uid="123700" user="Mala" changeset="2424887" lat="50.0638779" lon="19.9389295">
    <tag k="amenity" v="public_building"/>
    <tag k="name" v="Polski Związek Głuchych"/>
  </node>
  <node id="490986472" version="1" timestamp="2009-09-09T12:40:14Z" uid="123700" user="Mala" changeset="2424887" lat="50.0642503" lon="19.939422">
    <tag k="amenity" v="nightclub"/>
    <tag k="name" v="Stalowe Magnolie"/>
    <tag k="note" v="live music"/>
  </node>
  <node id="490986475" version="1" timestamp="2009-09-09T12:40:14Z" uid="123700" user="Mala" changeset="2424887" lat="50.0643415" lon="19.9394915">
    <tag k="amenity" v="pub"/>
    <tag k="name" v="Klub Cień"/>
  </node>
  <node id="490986477" version="1" timestamp="2009-09-09T12:40:15Z" uid="123700" user="Mala" changeset="2424887" lat="50.064293" lon="19.93928">
    <tag k="amenity" v="restaurant"/>
    <tag k="name" v="Jadłodajnia &quot;U Tomasza&quot;"/>
  </node>
  <node id="490986477" version="2" timestamp="2012-03-08T14:02:57Z" uid="598456" user="vinci4352" changeset="10909503" lat="50.0642689" lon="19.9392077">
    <tag k="amenity" v="restaurant"/>
    <tag k="name" v="Jadłodajnia &quot;U Tomasza&quot;"/>
  </node>
  <node id="490986479" version="1" timestamp="2009-09-09T12:40:15Z" uid="123700" user="Mala" changeset="2424887" lat="50.0644675" lon="19.9393858">
    <tag k="amenity" v="public_building"/>
    <tag k="name" v="Polska Akademia Nauk"/>
  </node>
  <node id="490986479" version="2" timestamp="2012-03-08T14:05:11Z" uid="598456" user="vinci4352" changeset="10909503" lat="50.0644434" lon="19.9393135">
    <tag k="amenity" v="public_building"/>
    <tag k="name" v="Polska Akademia Nauk"/>
  </node>
  <node id="490986483" version="1" timestamp="2009-09-09T12:40:15Z" uid="123700" user="Mala" changeset="2424887" lat="50.0645936" lon="19.9394734">
    <tag k="amenity" v="restaurant"/>
    <tag k="cuisine" v="local"/>
    <tag k="name" v="Restauracja Polskie Jadło"/>
  </node>
  <node id="490986483" version="2" timestamp="2012-03-08T14:05:26Z" uid="598456" user="vinci4352" changeset="10909503" lat="50.0645695" lon="19.9394011">
    <tag k="amenity" v="restaurant"/>
    <tag k="cuisine" v="local"/>
    <tag k="name" v="Restauracja Polskie Jadło"/>
  </node>
  <node id="490986486" version="1" timestamp="2009-09-09T12:40:15Z" uid="123700" user="Mala" changeset="2424887" lat="50.064772" lon="19.939567">
    <tag k="amenity" v="restaurant"/>
    <tag k="name" v="Restauracja Hotel Francuski"/>
  </node>
  <node id="490986486" version="2" timestamp="2012-03-08T14:05:23Z" uid="598456" user="vinci4352" changeset="10909503" lat="50.0647479" lon="19.9394947">
    <tag k="amenity" v="restaurant"/>
    <tag k="name" v="Restauracja Hotel Francuski"/>
  </node>
  <node id="490986489" version="1" timestamp="2009-09-09T12:40:15Z" uid="123700" user="Mala" changeset="2424887" lat="50.0647274" lon="19.9395429">
    <tag k="name" v="Hotel Francuski"/>
    <tag k="tourism" v="hotel"/>
  </node>
  <node id="490986489" version="2" timestamp="2012-03-08T14:02:53Z" uid="598456" user="vinci4352" changeset="10909503" lat="50.0647033" lon="19.9394706">
    <tag k="name" v="Hotel Francuski"/>
    <tag k="tourism" v="hotel"/>
  </node>
  <node id="490986491" version="1" timestamp="2009-09-09T12:40:15Z" uid="123700" user="Mala" changeset="2424887" lat="50.0641068" lon="19.9393344">
    <tag k="amenity" v="restaurant"/>
    <tag k="name" v="Restauracja Farina"/>
  </node>
  <node id="490986491" version="2" timestamp="2012-03-08T14:05:21Z" uid="598456" user="vinci4352" changeset="10909503" lat="50.0640827" lon="19.9392621">
    <tag k="amenity" v="restaurant"/>
    <tag k="name" v="Restauracja Farina"/>
  </node>
  <node id="490986493" version="1" timestamp="2009-09-09T12:40:15Z" uid="123700" user="Mala" changeset="2424887" lat="50.0653015" lon="19.9369023">
    <tag k="amenity" v="bank"/>
    <tag k="atm" v="yes"/>
    <tag k="name" v="PKO SA"/>
    <tag k="operator" v="PKO SA"/>
  </node>
  <node id="490986497" version="1" timestamp="2009-09-09T12:40:15Z" uid="123700" user="Mala" changeset="2424887" lat="50.0653073" lon="19.937295">
    <tag k="name" v="Agava Guest Rooms"/>
    <tag k="tourism" v="hostel"/>
  </node>
  <node id="490986499" version="1" timestamp="2009-09-09T12:40:15Z" uid="123700" user="Mala" changeset="2424887" lat="50.0653073" lon="19.9376092">
    <tag k="amenity" v="restaurant"/>
    <tag k="name" v="Restauracja Sekret"/>
  </node>
  <node id="490986503" version="1" timestamp="2009-09-09T12:40:15Z" uid="123700" user="Mala" changeset="2424887" lat="50.0653054" lon="19.9380443">
    <tag k="amenity" v="art_gallery"/>
    <tag k="name" v="Galeria Nautilus"/>
  </node>
  <node id="490986503" version="2" timestamp="2012-03-08T14:02:48Z" uid="598456" user="vinci4352" changeset="10909503" lat="50.0652367" lon="19.9380125">
    <tag k="amenity" v="art_gallery"/>
    <tag k="name" v="Galeria Nautilus"/>
  </node>
  <node id="490986503" version="3" timestamp="2012-03-30T20:00:24Z" uid="78656" user="Walter Schlögl" changeset="11159476" lat="50.0652367" lon="19.9380125">
    <tag k="gallery" v="art"/>
    <tag k="name" v="Galeria Nautilus"/>
    <tag k="tourism" v="gallery"/>
  </node>
  <node id="490986505" version="1" timestamp="2009-09-09T12:40:15Z" uid="123700" user="Mala" changeset="2424887" lat="50.065286" lon="19.938848">
    <tag k="shop" v="kiosk"/>
  </node>
  <node id="490986508" version="1" timestamp="2009-09-09T12:40:15Z" uid="123700" user="Mala" changeset="2424887" lat="50.065158" lon="19.9393827">
    <tag k="name" v="Winsor&amp;Newton Artists Materials"/>
    <tag k="shop" v="artists_materials"/>
  </node>
  <node id="490986509" version="1" timestamp="2009-09-09T12:40:15Z" uid="123700" user="Mala" changeset="2424887" lat="50.0649097" lon="19.9396154">
    <tag k="name" v="Antykwariat &quot;Abecadło&quot;"/>
    <tag k="shop" v="books"/>
  </node>
  <node id="490986509" version="2" timestamp="2012-03-08T14:02:18Z" uid="598456" user="vinci4352" changeset="10909503" lat="50.0649542" lon="19.939627">
    <tag k="name" v="Antykwariat &quot;Abecadło&quot;"/>
    <tag k="shop" v="books"/>
  </node>
  <node id="490986511" version="1" timestamp="2009-09-09T12:40:15Z" uid="123700" user="Mala" changeset="2424887" lat="50.064842" lon="19.9394904">
    <tag k="amenity" v="art_gallery"/>
    <tag k="name" v="Galeria Sztuki Attyka"/>
  </node>
  <node id="490986511" version="2" timestamp="2012-03-08T14:02:49Z" uid="598456" user="vinci4352" changeset="10909503" lat="50.0648253" lon="19.9393285">
    <tag k="amenity" v="art_gallery"/>
    <tag k="name" v="Galeria Sztuki Attyka"/>
  </node>
  <node id="490986511" version="3" timestamp="2012-03-30T20:00:24Z" uid="78656" user="Walter Schlögl" changeset="11159476" lat="50.0648253" lon="19.9393285">
    <tag k="gallery" v="art"/>
    <tag k="name" v="Galeria Sztuki Attyka"/>
    <tag k="tourism" v="gallery"/>
  </node>
  <node id="490986514" version="1" timestamp="2009-09-09T12:40:15Z" uid="123700" user="Mala" changeset="2424887" lat="50.0648914" lon="19.9394104">
    <tag k="amenity" v="pub"/>
  </node>
  <node id="490986516" version="1" timestamp="2009-09-09T12:40:15Z" uid="123700" user="Mala" changeset="2424887" lat="50.0649369" lon="19.9393462">
    <tag k="amenity" v="fast_food"/>
    <tag k="cuisine" v="kebab;pizza"/>
  </node>
  <node id="490986516" version="2" timestamp="2012-03-08T14:22:10Z" uid="598456" user="vinci4352" changeset="10909503" lat="50.0649128" lon="19.9392739">
    <tag k="amenity" v="fast_food"/>
    <tag k="cuisine" v="kebab;pizza"/>
  </node>
  <node id="490986519" version="1" timestamp="2009-09-09T12:40:15Z" uid="123700" user="Mala" changeset="2424887" lat="50.0649795" lon="19.9392885">
    <tag k="amenity" v="restaurant"/>
    <tag k="cuisine" v="regional"/>
    <tag k="name" v="Restauracja Galicyjska"/>
  </node>
  <node id="490986519" version="2" timestamp="2012-03-08T14:05:22Z" uid="598456" user="vinci4352" changeset="10909503" lat="50.0649554" lon="19.9392162">
    <tag k="amenity" v="restaurant"/>
    <tag k="cuisine" v="regional"/>
    <tag k="name" v="Restauracja Galicyjska"/>
  </node>
  <node id="490981882" version="4" timestamp="2012-04-21T03:11:17Z" uid="512815" user="Nojan32" changeset="11370135" lat="52.9728372" lon="10.5442564"/>
  <node id="490981886" version="4" timestamp="2012-04-21T03:11:17Z" uid="512815" user="Nojan32" changeset="11370135" lat="52.9727945" lon="10.5441779"/>
  <node id="490981888" version="4" timestamp="2012-04-21T03:11:17Z" uid="512815" user="Nojan32" changeset="11370135" lat="52.9727369" lon="10.5441787"/>
  <node id="490981893" version="4" timestamp="2012-04-21T03:48:26Z" uid="512815" user="Nojan32" changeset="11370214" lat="52.9726956" lon="10.5442548"/>
  <node id="490981896" version="4" timestamp="2012-04-21T03:11:17Z" uid="512815" user="Nojan32" changeset="11370135" lat="52.9727555" lon="10.5444133"/>
  <node id="490981900" version="4" timestamp="2012-04-21T03:11:18Z" uid="512815" user="Nojan32" changeset="11370135" lat="52.9728082" lon="10.5443931"/>
  <node id="490981904" version="4" timestamp="2012-04-21T03:11:18Z" uid="512815" user="Nojan32" changeset="11370135" lat="52.972829" lon="10.5443571"/>
  <node id="490981905" version="4" timestamp="2012-04-21T03:11:18Z" uid="512815" user="Nojan32" changeset="11370135" lat="52.9728398" lon="10.5443068"/>
  <node id="490984056" version="5" timestamp="2012-07-24T14:56:47Z" uid="722137" user="OSMF Redaction Account" changeset="12468519" lat="51.7469349" lon="19.4667705"/>
  <node id="490986184" version="3" timestamp="2012-09-06T21:27:46Z" uid="842685" user="ancymon" changeset="13016108" lat="50.064604" lon="19.9382971">
    <tag k="addr:housenumber" v="17"/>
    <tag k="addr:street" v="Sławkowska"/>
    <tag k="name" v="Księgarnia Ossolineum"/>
    <tag k="shop" v="books"/>
  </node>
  <node id="490986434" version="4" timestamp="2012-09-06T18:05:29Z" uid="842685" user="ancymon" changeset="13013203" lat="50.0628265" lon="19.9381775">
    <tag k="addr:city" v="Kraków"/>
    <tag k="addr:housenumber" v="41"/>
    <tag k="addr:street" v="Rynek Główny"/>
    <tag k="amenity" v="cafe"/>
    <tag k="name" v="Cafe Jana"/>
  </node>
  <node id="490986435" version="4" timestamp="2012-09-06T18:05:29Z" uid="842685" user="ancymon" changeset="13013203" lat="50.0626808" lon="19.9380875">
    <tag k="addr:city" v="Kraków"/>
    <tag k="addr:housenumber" v="41"/>
    <tag k="addr:street" v="Rynek Główny"/>
    <tag k="amenity" v="pub"/>
    <tag k="name" v="Feniks Dancing Bar"/>
  </node>
</osm>
