<?xml version='1.0' encoding='UTF-8'?>
<osm version="0.6" generator="libosmium/2.20.0">
  <node id="491558007" version="1" timestamp="2009-09-09T20:11:47Z" uid="4667" user="MapZ" changeset="2429883" lat="49.5900602" lon="11.0069074">
    <tag k="name" v="NH Hoteles"/>
    <tag k="tourism" v="hotel"/>
  </node>
  <node id="491558007" version="2" timestamp="2009-09-26T12:12:34Z" uid="4667" user="MapZ" changeset="2640700" lat="49.5901285" lon="11.0071417">
    <tag k="name" v="NH Hoteles"/>
    <tag k="tourism" v="hotel"/>
  </node>
  <node id="491558007" version="3" timestamp="2010-01-05T12:50:02Z" uid="118856" user="staehler" changeset="3544998" lat="49.590071" lon="11.0071417">
    <tag k="addr:city" v="Erlangen"/>
    <tag k="addr:country" v="DE"/>
    <tag k="addr:housenumber" v="3"/>
    <tag k="addr:state" v="Bayern"/>
    <tag k="addr:street" v="Beethovenstraße"/>
    <tag k="name" v="NH Hoteles"/>
    <tag k="tourism" v="hotel"/>
  </node>
  <node id="491558007" version="4" timestamp="2010-02-12T12:52:01Z" uid="118856" user="staehler" changeset="3856095" lat="49.5900547" lon="11.0071501">
    <tag k="addr:city" v="Erlangen"/>
    <tag k="addr:country" v="DE"/>
    <tag k="addr:housenumber" v="3"/>
    <tag k="addr:state" v="Bayern"/>
    <tag k="addr:street" v="Beethovenstraße"/>
    <tag k="name" v="NH Hoteles"/>
    <tag k="tourism" v="hotel"/>
  </node>
  <node id="491558007" version="5" timestamp="2011-06-13T12:29:54Z" uid="256706" user="streetmops" changeset="8425655" lat="49.5900853" lon="11.0073807">
    <tag k="addr:city" v="Erlangen"/>
    <tag k="addr:country" v="DE"/>
    <tag k="addr:housenumber" v="3"/>
    <tag k="addr:state" v="Bayern"/>
    <tag k="addr:street" v="Beethovenstraße"/>
    <tag k="name" v="NH Hoteles"/>
    <tag k="tourism" v="hotel"/>
  </node>
  <node id="491558007" version="6" timestamp="2011-10-06T16:46:41Z" uid="290680" user="wheelmap_visitor" changeset="9482892" lat="49.5900853" lon="11.0073807">
    <tag k="addr:city" v="Erlangen"/>
    <tag k="addr:country" v="DE"/>
    <tag k="addr:housenumber" v="3"/>
    <tag k="addr:state" v="Bayern"/>
    <tag k="addr:street" v="Beethovenstraße"/>
    <tag k="name" v="NH Hoteles"/>
    <tag k="tourism" v="hotel"/>
    <tag k="wheelchair" v="yes"/>
  </node>
  <node id="491558007" version="7" timestamp="2011-11-11T20:28:34Z" uid="132740" user="Creando" changeset="9799796" lat="49.5900853" lon="11.0073807">
    <tag k="addr:city" v="Erlangen"/>
    <tag k="addr:country" v="DE"/>
    <tag k="addr:housenumber" v="3"/>
    <tag k="addr:state" v="Bayern"/>
    <tag k="addr:street" v="Beethovenstraße"/>
    <tag k="name" v="NH Hoteles"/>
    <tag k="stars" v="4"/>
    <tag k="tourism" v="hotel"/>
    <tag k="wheelchair" v="yes"/>
  </node>
  <node id="491558007" version="8" timestamp="2012-02-21T16:45:28Z" uid="41431" user="Rosty" changeset="10751621" lat="49.5900853" lon="11.0073807"/>
</osm>
