<?xml version='1.0' encoding='UTF-8'?>
<osm version="0.6" generator="libosmium/2.20.0">
  <node id="492752820" version="3" timestamp="2010-05-24T16:52:23Z" uid="17602" user="B10xyz" changeset="4795667" lat="45.4475256" lon="12.3268628">
    <tag k="amenity" v="restaurant"/>
    <tag k="name" v="Residenza Cannaregio"/>
    <tag k="stars" v="4"/>
    <tag k="tourism" v="hotel"/>
  </node>
  <node id="492756689" version="9" timestamp="2010-10-26T06:37:20Z" uid="10712" user="Kraeml" changeset="6179385" lat="48.155482" lon="11.5350969">
    <tag k="addr:city" v="München"/>
    <tag k="addr:country" v="DE"/>
    <tag k="addr:housenumber" v="24"/>
    <tag k="addr:postcode" v="80634"/>
    <tag k="addr:street" v="Volkartstraße"/>
    <tag k="amenity" v="restaurant"/>
    <tag k="contact:email" v="info@pardi-restaurant.de"/>
    <tag k="contact:fax" v="+49 (0)89 - 13 45 25"/>
    <tag k="contact:phone" v="+49 (0)89 - 13 18 50"/>
    <tag k="contact:website" v="www.pardi-restaurant.de"/>
    <tag k="cuisine" v="mediterranean"/>
    <tag k="email" v="info@pardi-restaurant.de"/>
    <tag k="fax" v="+49 (0)89 - 13 45 25"/>
    <tag k="name" v="Pardi Restaurant Bar"/>
    <tag k="opening_hours" v="Mo-So 9:00-1:00"/>
    <tag k="phone" v="+49 (0)89 - 13 18 50"/>
    <tag k="website" v="www.pardi-restaurant.de"/>
  </node>
  <node id="492756689" version="10" timestamp="2010-11-16T10:16:56Z" uid="140803" user="ThomasStr" changeset="6383843" lat="48.155482" lon="11.5350969">
    <tag k="addr:city" v="München"/>
    <tag k="addr:country" v="DE"/>
    <tag k="addr:housenumber" v="24"/>
    <tag k="addr:postcode" v="80634"/>
    <tag k="addr:street" v="Volkartstraße"/>
    <tag k="amenity" v="restaurant"/>
    <tag k="contact:email" v="info@pardi-restaurant.de"/>
    <tag k="contact:fax" v="+49 (0)89 - 13 45 25"/>
    <tag k="contact:phone" v="+49 (0)89 - 13 18 50"/>
    <tag k="contact:website" v="www.pardi-restaurant.de"/>
    <tag k="cuisine" v="mediterranean"/>
    <tag k="email" v="info@pardi-restaurant.de"/>
    <tag k="fax" v="+49 89 134525"/>
    <tag k="name" v="Pardi Restaurant Bar"/>
    <tag k="opening_hours" v="Mo-Su 09:00-01:00"/>
    <tag k="phone" v="+49 89 131850"/>
    <tag k="website" v="www.pardi-restaurant.de"/>
  </node>
  <node id="492756689" version="11" timestamp="2011-03-17T10:28:05Z" uid="422299" user="mTb" changeset="7583823" lat="48.1556548" lon="11.534915">
    <tag k="addr:city" v="München"/>
    <tag k="addr:country" v="DE"/>
    <tag k="addr:housenumber" v="24"/>
    <tag k="addr:postcode" v="80634"/>
    <tag k="addr:street" v="Volkartstraße"/>
    <tag k="amenity" v="restaurant"/>
    <tag k="contact:email" v="info@pardi-restaurant.de"/>
    <tag k="contact:fax" v="+49 (0)89 - 13 45 25"/>
    <tag k="contact:phone" v="+49 (0)89 - 13 18 50"/>
    <tag k="contact:website" v="www.pardi-restaurant.de"/>
    <tag k="cuisine" v="mediterranean"/>
    <tag k="email" v="info@pardi-restaurant.de"/>
    <tag k="fax" v="+49 89 134525"/>
    <tag k="name" v="Pardi Restaurant Bar"/>
    <tag k="opening_hours" v="Mo-Su 09:00-01:00"/>
    <tag k="phone" v="+49 89 131850"/>
    <tag k="website" v="www.pardi-restaurant.de"/>
  </node>
  <node id="492756689" version="12" timestamp="2011-10-09T08:07:28Z" uid="290680" user="wheelmap_visitor" changeset="9508573" lat="48.1556548" lon="11.534915">
    <tag k="addr:city" v="München"/>
    <tag k="addr:country" v="DE"/>
    <tag k="addr:housenumber" v="24"/>
    <tag k="addr:postcode" v="80634"/>
    <tag k="addr:street" v="Volkartstraße"/>
    <tag k="amenity" v="restaurant"/>
    <tag k="contact:email" v="info@pardi-restaurant.de"/>
    <tag k="contact:fax" v="+49 (0)89 - 13 45 25"/>
    <tag k="contact:phone" v="+49 (0)89 - 13 18 50"/>
    <tag k="contact:website" v="www.pardi-restaurant.de"/>
    <tag k="cuisine" v="mediterranean"/>
    <tag k="email" v="info@pardi-restaurant.de"/>
    <tag k="fax" v="+49 89 134525"/>
    <tag k="name" v="Pardi Restaurant Bar"/>
    <tag k="opening_hours" v="Mo-Su 09:00-01:00"/>
    <tag k="phone" v="+49 89 131850"/>
    <tag k="website" v="www.pardi-restaurant.de"/>
    <tag k="wheelchair" v="limited"/>
  </node>
  <node id="492759746" version="2" timestamp="2011-03-21T12:31:52Z" uid="49111" user="Markus B" changeset="7626760" lat="58.1092599" lon="6.5671074">
    <tag k="ele" v="34"/>
    <tag k="man_made" v="lighthouse"/>
    <tag k="name" v="Lista fyr"/>
    <tag k="seamark:fixme" v="please_fix_position"/>
    <tag k="seamark:landmark:height" v="111"/>
    <tag k="seamark:light:character" v="Fl"/>
    <tag k="seamark:light:colour" v="white"/>
    <tag k="seamark:light:height" v="39"/>
    <tag k="seamark:light:inform" v="DGPS Station."/>
    <tag k="seamark:light:period" v="4"/>
    <tag k="seamark:light:range" v="17"/>
    <tag k="seamark:light:ref" v="B 3112"/>
    <tag k="seamark:name" v="Lista."/>
    <tag k="seamark:radar_transponder:category" v="racon"/>
    <tag k="seamark:radar_transponder:group" v="G"/>
    <tag k="seamark:radar_transponder:period" v="30"/>
    <tag k="seamark:type" v="light_major"/>
    <tag k="source" v="US NGA Pub. 115. 2010-09-09."/>
    <tag k="start_date" v="1833"/>
    <tag k="tourism" v="attraction"/>
  </node>
  <node id="492759746" version="3" timestamp="2011-06-16T11:19:05Z" uid="128186" user="malcolmh" changeset="8455114" lat="58.1092599" lon="6.5671074">
    <tag k="ele" v="34"/>
    <tag k="man_made" v="lighthouse"/>
    <tag k="name" v="Lista fyr"/>
    <tag k="seamark:fixme" v="please_fix_position"/>
    <tag k="seamark:landmark:height" v="111"/>
    <tag k="seamark:light:character" v="Fl"/>
    <tag k="seamark:light:colour" v="white"/>
    <tag k="seamark:light:height" v="39"/>
    <tag k="seamark:light:information" v="DGPS Station."/>
    <tag k="seamark:light:period" v="4"/>
    <tag k="seamark:light:range" v="17"/>
    <tag k="seamark:light:ref" v="B 3112"/>
    <tag k="seamark:name" v="Lista."/>
    <tag k="seamark:radar_transponder:category" v="racon"/>
    <tag k="seamark:radar_transponder:group" v="G"/>
    <tag k="seamark:radar_transponder:period" v="30"/>
    <tag k="seamark:type" v="light_major"/>
    <tag k="source" v="US NGA Pub. 115. 2010-09-09."/>
    <tag k="start_date" v="1833"/>
    <tag k="tourism" v="attraction"/>
  </node>
  <node id="492752820" version="4" timestamp="2012-07-16T19:28:34Z" uid="722137" user="OSMF Redaction Account" changeset="12250284" lat="45.4474928" lon="12.3269853">
    <tag k="amenity" v="restaurant"/>
    <tag k="name" v="Residenza Cannaregio"/>
    <tag k="stars" v="4"/>
    <tag k="tourism" v="hotel"/>
  </node>
  <node id="492756689" version="13" timestamp="2012-07-17T19:18:23Z" uid="722137" user="OSMF Redaction Account" changeset="12270932" lat="48.1556548" lon="11.534915">
    <tag k="addr:city" v="München"/>
    <tag k="addr:housenumber" v="24"/>
    <tag k="addr:postcode" v="80634"/>
    <tag k="addr:street" v="Volkartstraße"/>
    <tag k="amenity" v="restaurant"/>
    <tag k="contact:email" v="info@pardi-restaurant.de"/>
    <tag k="contact:fax" v="+49 (0)89 - 13 45 25"/>
    <tag k="contact:phone" v="+49 (0)89 - 13 18 50"/>
    <tag k="contact:website" v="www.pardi-restaurant.de"/>
    <tag k="cuisine" v="mediterranean"/>
    <tag k="name" v="Pardi Restaurant Bar"/>
    <tag k="phone" v="+49 (0)89 - 13 18 50"/>
    <tag k="website" v="www.pardi-restaurant.de"/>
    <tag k="wheelchair" v="limited"/>
  </node>
  <node id="492759746" version="4" timestamp="2012-06-13T08:31:35Z" uid="164049" user="CatoSvevn" changeset="11882444" lat="58.1092599" lon="6.5671074"/>
</osm>
