<?xml version='1.0' encoding='UTF-8'?>
<osm version="0.6" generator="libosmium/2.20.0">
  <node id="493772221" version="1" timestamp="2009-09-11T20:22:00Z" uid="6975" user="ulfl" changeset="2451350" lat="48.606674" lon="8.1369049"/>
  <node id="493772222" version="1" timestamp="2009-09-11T20:22:00Z" uid="6975" user="ulfl" changeset="2451350" lat="48.6067048" lon="8.1365129"/>
  <node id="493772223" version="1" timestamp="2009-09-11T20:22:00Z" uid="6975" user="ulfl" changeset="2451350" lat="48.6073889" lon="8.1353984"/>
  <node id="493772223" version="2" timestamp="2011-04-10T21:59:40Z" uid="347288" user="chweber" changeset="7827363" lat="48.607065" lon="8.1359125"/>
  <node id="493772223" version="3" timestamp="2011-04-10T22:06:59Z" uid="347288" user="chweber" changeset="7828206" lat="48.6070239" lon="8.1358984"/>
  <node id="493772224" version="1" timestamp="2009-09-11T20:22:00Z" uid="6975" user="ulfl" changeset="2451350" lat="48.607312" lon="8.1348142"/>
  <node id="493772224" version="2" timestamp="2011-04-10T21:59:40Z" uid="347288" user="chweber" changeset="7827363" lat="48.6073108" lon="8.1355627"/>
  <node id="493772224" version="3" timestamp="2011-04-10T22:07:00Z" uid="347288" user="chweber" changeset="7828206" lat="48.6073243" lon="8.1354553"/>
  <node id="493772224" version="4" timestamp="2012-03-24T19:31:26Z" uid="347288" user="chweber" changeset="11088111" lat="48.6073185" lon="8.1354579"/>
  <node id="493772225" version="1" timestamp="2009-09-11T20:22:00Z" uid="6975" user="ulfl" changeset="2451350" lat="48.6074427" lon="8.1345452"/>
  <node id="493772225" version="2" timestamp="2011-04-10T21:59:40Z" uid="347288" user="chweber" changeset="7827363" lat="48.6072927" lon="8.1352398"/>
  <node id="493777735" version="1" timestamp="2009-09-11T20:30:23Z" uid="6975" user="ulfl" changeset="2451449" lat="48.4526516" lon="8.2398119">
    <tag k="addr:city" v="Bad Peterstal-Griesbach"/>
    <tag k="addr:country" v="D"/>
    <tag k="addr:housenumber" v="57"/>
    <tag k="addr:postcode" v="77740"/>
    <tag k="addr:street" v="Kniebisstraße"/>
    <tag k="name" v="Hotel Kimmig"/>
    <tag k="phone" v="07806 1055"/>
    <tag k="stars" v="3"/>
    <tag k="tourism" v="hotel"/>
    <tag k="url" v="www.hotel-kimmig.de"/>
  </node>
  <node id="493777735" version="3" timestamp="2010-09-19T15:32:11Z" uid="65148" user="Pirat Michi" changeset="5820767" lat="48.4526516" lon="8.2398119">
    <tag k="addr:city" v="Bad Peterstal-Griesbach"/>
    <tag k="addr:country" v="DE"/>
    <tag k="addr:housenumber" v="57"/>
    <tag k="addr:postcode" v="77740"/>
    <tag k="addr:street" v="Kniebisstraße"/>
    <tag k="name" v="Hotel Kimmig"/>
    <tag k="phone" v="07806 1055"/>
    <tag k="stars" v="3"/>
    <tag k="tourism" v="hotel"/>
    <tag k="website" v="www.hotel-kimmig.de"/>
  </node>
  <node id="493777735" version="4" timestamp="2011-10-24T10:24:10Z" uid="290680" user="wheelmap_visitor" changeset="9640163" lat="48.4526516" lon="8.2398119">
    <tag k="addr:city" v="Bad Peterstal-Griesbach"/>
    <tag k="addr:country" v="DE"/>
    <tag k="addr:housenumber" v="57"/>
    <tag k="addr:postcode" v="77740"/>
    <tag k="addr:street" v="Kniebisstraße"/>
    <tag k="name" v="Hotel Kimmig"/>
    <tag k="phone" v="07806 1055"/>
    <tag k="stars" v="3"/>
    <tag k="tourism" v="hotel"/>
    <tag k="website" v="www.hotel-kimmig.de"/>
    <tag k="wheelchair" v="yes"/>
  </node>
  <node id="493772221" version="2" timestamp="2012-07-19T21:00:47Z" uid="722137" user="OSMF Redaction Account" changeset="12347264" lat="48.606674" lon="8.1369049"/>
  <node id="493772222" version="2" timestamp="2012-07-19T21:00:47Z" uid="722137" user="OSMF Redaction Account" changeset="12347264" lat="48.6067048" lon="8.1365129"/>
  <node id="493777735" version="5" timestamp="2012-04-07T19:04:09Z" uid="90689" user="HansJ" changeset="11217689" lat="48.4526516" lon="8.2398119"/>
</osm>
