<?xml version='1.0' encoding='UTF-8'?>
<osm version="0.6" generator="libosmium/2.20.0">
  <node id="49433352" version="2" timestamp="2008-02-16T20:08:18Z" uid="6975" user="ulfl" changeset="141861" lat="46.7785429" lon="-71.2969196">
    <tag k="amenity" v="hospital"/>
    <tag k="name" v="Hopital Laval"/>
  </node>
  <node id="49433352" version="3" timestamp="2008-10-01T02:08:34Z" uid="69716" user="Circeus" changeset="10044" lat="46.7785483" lon="-71.2969184">
    <tag k="amenity" v="hospital"/>
    <tag k="created_by" v="Potlatch 0.10c"/>
    <tag k="name" v="Hôpital Laval"/>
  </node>
  <node id="49434952" version="3" timestamp="2008-02-16T20:08:17Z" uid="6975" user="ulfl" changeset="141861" lat="46.7685967" lon="-71.2826288">
    <tag k="amenity" v="hospital"/>
    <tag k="name" v="CHUL"/>
  </node>
  <node id="49433352" version="4" timestamp="2012-05-06T12:25:26Z" uid="595246" user="Bruno Remy" changeset="11517843" lat="46.7785492" lon="-71.2969208">
    <tag k="amenity" v="hospital"/>
    <tag k="created_by" v="Potlatch 0.10c"/>
    <tag k="name" v="Hôpital Laval"/>
    <tag k="social_facility" v="healthcare"/>
  </node>
  <node id="49433352" version="5" timestamp="2012-05-30T02:11:45Z" uid="679242" user="kaevin_matte" changeset="11744219" lat="46.7785492" lon="-71.2969208">
    <tag k="amenity" v="hospital"/>
    <tag k="name" v="IUCPQ"/>
    <tag k="social_facility" v="healthcare"/>
  </node>
  <node id="49433352" version="6" timestamp="2012-07-18T23:11:06Z" uid="722137" user="OSMF Redaction Account" changeset="12301347" lat="46.7785492" lon="-71.2969208">
    <tag k="name" v="IUCPQ"/>
    <tag k="social_facility" v="healthcare"/>
  </node>
  <node id="49434952" version="4" timestamp="2012-05-21T16:58:28Z" uid="28895" user="PurpleMustang" changeset="11663863" lat="46.7685967" lon="-71.2826288"/>
</osm>
