<?xml version='1.0' encoding='UTF-8'?>
<osm version="0.6" generator="libosmium/2.20.0">
  <node id="49463011" version="3" timestamp="2011-05-28T19:37:19Z" uid="33382" user="de_muur" changeset="8274984" lat="52.9134532" lon="9.215167"/>
  <node id="49463029" version="3" timestamp="2011-05-28T19:36:55Z" uid="33382" user="de_muur" changeset="8274984" lat="52.9129528" lon="9.2135107"/>
  <node id="49464941" version="3" timestamp="2010-09-17T20:16:23Z" uid="33382" user="de_muur" changeset="5806927" lat="53.0921293" lon="9.1809941">
    <tag k="TMC:cid_58:tabcd_1:Class" v="Point"/>
    <tag k="TMC:cid_58:tabcd_1:Direction" v="negative"/>
    <tag k="TMC:cid_58:tabcd_1:LCLversion" v="8.00"/>
    <tag k="TMC:cid_58:tabcd_1:LocationCode" v="10121"/>
    <tag k="TMC:cid_58:tabcd_1:NextLocationCode" v="10122"/>
    <tag k="TMC:cid_58:tabcd_1:PrevLocationCode" v="10120"/>
  </node>
  <node id="49464941" version="4" timestamp="2012-03-04T12:17:11Z" uid="45882" user="smarties" changeset="10867635" lat="53.0921293" lon="9.1809941"/>
  <node id="49467329" version="2" timestamp="2008-12-19T22:28:41Z" uid="20587" user="balrog-kun" changeset="480855" lat="52.1060616" lon="21.0551432">
    <tag k="created_by" v="JOSM"/>
  </node>
  <node id="49467329" version="3" timestamp="2010-12-24T00:29:48Z" uid="175746" user="RafalR" changeset="6750988" lat="52.1061433" lon="21.0551748"/>
  <node id="49467531" version="2" timestamp="2008-02-16T20:45:55Z" uid="6975" user="ulfl" changeset="141861" lat="46.7840426" lon="-71.2777184">
    <tag k="amenity" v="university"/>
    <tag k="key" v="Université Laval"/>
    <tag k="name" v="PEPS"/>
  </node>
  <node id="49467531" version="3" timestamp="2008-07-27T02:16:04Z" uid="37993" user="fsteggink" changeset="609701" lat="46.7840426" lon="-71.2777184">
    <tag k="amenity" v="university"/>
    <tag k="key" v="Université Laval"/>
    <tag k="leisure" v="sports_centre"/>
    <tag k="name" v="PEPS"/>
    <tag k="sport" v="multi"/>
  </node>
  <node id="49467531" version="4" timestamp="2008-09-30T21:13:44Z" uid="69716" user="Circeus" changeset="724260" lat="46.7840421" lon="-71.2777193">
    <tag k="amenity" v="university"/>
    <tag k="key" v="Université Laval"/>
    <tag k="leisure" v="sports_centre"/>
    <tag k="name" v="PEPS"/>
    <tag k="sport" v="multi"/>
  </node>
  <node id="49469490" version="2" timestamp="2008-02-16T20:45:54Z" uid="6975" user="ulfl" changeset="141861" lat="46.7802105" lon="-71.2737874">
    <tag k="amenity" v="university"/>
    <tag k="key" v="Université Laval"/>
    <tag k="name" v="Pavillon Jean-Charles-Bonenfant"/>
  </node>
  <node id="49469490" version="3" timestamp="2008-09-30T21:25:16Z" uid="69716" user="Circeus" changeset="724260" lat="46.78021" lon="-71.2737883">
    <tag k="amenity" v="university"/>
    <tag k="key" v="Université Laval"/>
    <tag k="name" v="Pavillon Jean-Charles-Bonenfant"/>
  </node>
  <node id="49469605" version="2" timestamp="2008-02-16T20:45:55Z" uid="6975" user="ulfl" changeset="141861" lat="46.7815036" lon="-71.2733411">
    <tag k="amenity" v="university"/>
    <tag k="key" v="Université Laval"/>
    <tag k="name" v="Pavillon des Sciences de l&apos;Éducation"/>
  </node>
  <node id="49469605" version="3" timestamp="2008-09-30T21:01:10Z" uid="69716" user="Circeus" changeset="724260" lat="46.7815083" lon="-71.2733464">
    <tag k="amenity" v="university"/>
    <tag k="key" v="Université Laval"/>
    <tag k="name" v="Pavillon des Sciences de l&apos;Éducation"/>
  </node>
  <node id="49469660" version="2" timestamp="2008-02-16T20:45:54Z" uid="6975" user="ulfl" changeset="141861" lat="46.7809217" lon="-71.2726373">
    <tag k="amenity" v="university"/>
    <tag k="key" v="Université Laval"/>
    <tag k="name" v="Pavillon Felix-Antoine-Savard"/>
  </node>
  <node id="49469660" version="3" timestamp="2008-09-30T21:23:54Z" uid="69716" user="Circeus" changeset="724260" lat="46.7806508" lon="-71.2721489">
    <tag k="amenity" v="university"/>
    <tag k="created_by" v="Potlatch 0.10c"/>
    <tag k="key" v="Université Laval"/>
    <tag k="name" v="Pavillon Felix-Antoine-Savard"/>
  </node>
  <node id="49469660" version="4" timestamp="2008-09-30T21:24:30Z" uid="69716" user="Circeus" changeset="724260" lat="46.7806508" lon="-71.2721489">
    <tag k="amenity" v="university"/>
    <tag k="created_by" v="Potlatch 0.10c"/>
    <tag k="key" v="Université Laval"/>
    <tag k="name" v="Pavillon Felix-Antoine-Savard"/>
  </node>
  <node id="49463011" version="4" timestamp="2012-07-18T14:31:36Z" uid="722137" user="OSMF Redaction Account" changeset="12285138" lat="52.9134632" lon="9.2151338"/>
  <node id="49463029" version="4" timestamp="2012-07-18T14:31:36Z" uid="722137" user="OSMF Redaction Account" changeset="12285138" lat="52.912987" lon="9.213505"/>
</osm>
