<?xml version='1.0' encoding='UTF-8'?>
<osm version="0.6" generator="libosmium/2.20.0">
  <node id="495995544" version="5" timestamp="2009-12-30T18:17:21Z" uid="136042" user="Gent" changeset="3492346" lat="42.6638586" lon="21.1622521">
    <tag k="amenity" v="cafe"/>
    <tag k="name" v="Dit e Nat"/>
    <tag k="website" v="http://ditenat.com"/>
    <tag k="website:1" v="http://www.balkaninsight.com/en/main/life_and_style/17996/"/>
    <tag k="website:3" v="http://www.newkosovareport.com/Elizabeth-Gowing/When-books-sell-better-than-macchiatos.html"/>
  </node>
  <node id="495995544" version="6" timestamp="2011-08-10T19:57:46Z" uid="199034" user="Altin" changeset="8980024" lat="42.6639443" lon="21.162262">
    <tag k="amenity" v="cafe"/>
    <tag k="name" v="Dit e Nat"/>
    <tag k="website" v="http://ditenat.com"/>
    <tag k="website:1" v="http://www.balkaninsight.com/en/main/life_and_style/17996/"/>
    <tag k="website:3" v="http://www.newkosovareport.com/Elizabeth-Gowing/When-books-sell-better-than-macchiatos.html"/>
  </node>
  <node id="495996850" version="2" timestamp="2010-12-20T12:54:24Z" uid="23543" user="jkjk" changeset="6715714" lat="49.1468684" lon="19.7035304"/>
  <node id="495996851" version="2" timestamp="2010-12-20T12:54:25Z" uid="23543" user="jkjk" changeset="6715714" lat="49.1472732" lon="19.7037995"/>
  <node id="495996852" version="2" timestamp="2010-12-20T12:54:25Z" uid="23543" user="jkjk" changeset="6715714" lat="49.1476604" lon="19.7039071"/>
  <node id="495996853" version="2" timestamp="2010-12-20T12:54:25Z" uid="23543" user="jkjk" changeset="6715714" lat="49.1479245" lon="19.7044184"/>
  <node id="495996854" version="2" timestamp="2010-12-20T12:54:25Z" uid="23543" user="jkjk" changeset="6715714" lat="49.1481533" lon="19.7049027"/>
  <node id="495996855" version="2" timestamp="2010-12-20T12:54:25Z" uid="23543" user="jkjk" changeset="6715714" lat="49.1485229" lon="19.705414"/>
  <node id="495996856" version="2" timestamp="2010-12-20T12:54:25Z" uid="23543" user="jkjk" changeset="6715714" lat="49.1500718" lon="19.7067326"/>
  <node id="495996857" version="2" timestamp="2010-12-20T12:54:25Z" uid="23543" user="jkjk" changeset="6715714" lat="49.1510574" lon="19.7077282"/>
  <node id="495996860" version="2" timestamp="2010-12-20T12:54:24Z" uid="23543" user="jkjk" changeset="6715714" lat="49.1525531" lon="19.7110649"/>
  <node id="495996861" version="2" timestamp="2010-12-20T12:54:21Z" uid="23543" user="jkjk" changeset="6715714" lat="49.1529898" lon="19.7120038"/>
  <node id="495996864" version="2" timestamp="2010-12-20T12:54:25Z" uid="23543" user="jkjk" changeset="6715714" lat="49.1546478" lon="19.713998"/>
  <node id="495996865" version="2" timestamp="2010-12-20T12:54:25Z" uid="23543" user="jkjk" changeset="6715714" lat="49.1551229" lon="19.7139442"/>
  <node id="495996867" version="2" timestamp="2010-12-20T12:54:19Z" uid="23543" user="jkjk" changeset="6715714" lat="49.1564815" lon="19.7145833"/>
  <node id="495996868" version="2" timestamp="2010-12-20T12:54:22Z" uid="23543" user="jkjk" changeset="6715714" lat="49.1574161" lon="19.7144631"/>
  <node id="495996869" version="2" timestamp="2010-12-20T12:54:21Z" uid="23543" user="jkjk" changeset="6715714" lat="49.1581169" lon="19.7143435"/>
  <node id="495997170" version="2" timestamp="2009-12-15T18:01:13Z" uid="23543" user="jkjk" changeset="3381628" lat="49.1901419" lon="19.7384445">
    <tag k="information" v="guidepost"/>
    <tag k="name" v="Pod Homolkou"/>
    <tag k="tourism" v="information"/>
  </node>
  <node id="495997170" version="3" timestamp="2011-09-07T17:11:01Z" uid="29762" user="Jose Riha" changeset="9238658" lat="49.1901419" lon="19.7384445">
    <tag k="ele" v="1700"/>
    <tag k="information" v="guidepost"/>
    <tag k="name" v="Pod Homôlkou"/>
    <tag k="tourism" v="information"/>
  </node>
  <node id="495997298" version="2" timestamp="2009-12-15T18:01:14Z" uid="23543" user="jkjk" changeset="3381628" lat="49.193254" lon="19.7507502">
    <tag k="hiking" v="yes"/>
    <tag k="information" v="guidepost"/>
    <tag k="name" v="Žiarské sedlo"/>
    <tag k="tourism" v="information"/>
  </node>
  <node id="495998670" version="2" timestamp="2010-10-24T05:45:23Z" uid="4467" user="Rosscoe" changeset="6153373" lat="-37.7973332" lon="144.9515772">
    <tag k="addr:city" v="North Melbourne"/>
    <tag k="addr:country" v="AU"/>
    <tag k="addr:housenumber" v="117"/>
    <tag k="addr:postcode" v="3051"/>
    <tag k="addr:street" v="Flemington Road"/>
  </node>
  <node id="495998676" version="2" timestamp="2010-10-24T05:45:26Z" uid="4467" user="Rosscoe" changeset="6153373" lat="-37.7972654" lon="144.9514914">
    <tag k="addr:city" v="North Melbourne"/>
    <tag k="addr:country" v="AU"/>
    <tag k="addr:housenumber" v="117A"/>
    <tag k="addr:postcode" v="3051"/>
    <tag k="addr:street" v="Flemington Road"/>
  </node>
  <node id="495998680" version="2" timestamp="2010-10-24T05:45:47Z" uid="4467" user="Rosscoe" changeset="6153373" lat="-37.7971976" lon="144.9514056">
    <tag k="addr:city" v="North Melbourne"/>
    <tag k="addr:country" v="AU"/>
    <tag k="addr:housenumber" v="118"/>
    <tag k="addr:postcode" v="3051"/>
    <tag k="addr:street" v="Flemington Road"/>
  </node>
  <node id="495998684" version="2" timestamp="2010-10-24T05:45:40Z" uid="4467" user="Rosscoe" changeset="6153373" lat="-37.7969873" lon="144.9511567">
    <tag k="addr:city" v="North Melbourne"/>
    <tag k="addr:country" v="AU"/>
    <tag k="addr:housenumber" v="123"/>
    <tag k="addr:postcode" v="3051"/>
    <tag k="addr:street" v="Flemington Road"/>
  </node>
  <node id="495995544" version="7" timestamp="2012-07-20T13:15:33Z" uid="722137" user="OSMF Redaction Account" changeset="12377300" lat="42.6639443" lon="21.162262">
    <tag k="name" v="Dit e Nat"/>
    <tag k="website" v="http://www.inyourpocket.com/kosovo/pristina/restaurants/cafes/venue/51626-Dit_and_8217%3B_e_Nat_and_8217%3B.html"/>
    <tag k="website:1" v="http://www.balkaninsight.com/en/main/life_and_style/17996/"/>
    <tag k="website:3" v="http://www.newkosovareport.com/Elizabeth-Gowing/When-books-sell-better-than-macchiatos.html"/>
  </node>
  <node id="495996860" version="3" timestamp="2012-07-24T15:01:19Z" uid="722137" user="OSMF Redaction Account" changeset="12468615" lat="49.1524302" lon="19.7110649"/>
  <node id="495996861" version="3" timestamp="2012-07-24T15:01:19Z" uid="722137" user="OSMF Redaction Account" changeset="12468615" lat="49.1529406" lon="19.7121144"/>
  <node id="495996867" version="3" timestamp="2012-07-24T15:01:19Z" uid="722137" user="OSMF Redaction Account" changeset="12468615" lat="49.1565836" lon="19.714294"/>
  <node id="495996868" version="3" timestamp="2012-07-24T15:01:20Z" uid="722137" user="OSMF Redaction Account" changeset="12468615" lat="49.1574161" lon="19.7141993"/>
  <node id="495996869" version="3" timestamp="2012-07-24T15:01:20Z" uid="722137" user="OSMF Redaction Account" changeset="12468615" lat="49.1581594" lon="19.7141648"/>
  <node id="495996869" version="4" timestamp="2012-07-31T17:12:33Z" uid="475704" user="LM_1" changeset="12564114" lat="49.1581803" lon="19.7142521"/>
  <node id="495997170" version="4" timestamp="2012-07-24T15:01:20Z" uid="722137" user="OSMF Redaction Account" changeset="12468615" lat="49.1901419" lon="19.7384445">
    <tag k="ele" v="1700"/>
  </node>
  <node id="495997298" version="3" timestamp="2012-07-24T14:53:45Z" uid="722137" user="OSMF Redaction Account" changeset="12468454" lat="49.193254" lon="19.7507502"/>
  <node id="495998670" version="3" timestamp="2012-07-19T11:56:28Z" uid="722137" user="OSMF Redaction Account" changeset="12323277" lat="-37.7971895" lon="144.9517303">
    <tag k="addr:city" v="North Melbourne"/>
    <tag k="addr:country" v="AU"/>
    <tag k="addr:housenumber" v="117"/>
    <tag k="addr:postcode" v="3051"/>
    <tag k="addr:street" v="Flemington Road"/>
  </node>
  <node id="495998670" version="4" timestamp="2012-08-28T09:18:27Z" uid="84937" user="Neil Penman" changeset="12889642" lat="-37.797225" lon="144.9516823">
    <tag k="addr:city" v="North Melbourne"/>
    <tag k="addr:country" v="AU"/>
    <tag k="addr:housenumber" v="117"/>
    <tag k="addr:postcode" v="3051"/>
    <tag k="addr:street" v="Flemington Road"/>
  </node>
  <node id="495998676" version="3" timestamp="2012-07-19T11:56:28Z" uid="722137" user="OSMF Redaction Account" changeset="12323277" lat="-37.7971217" lon="144.9516445">
    <tag k="addr:city" v="North Melbourne"/>
    <tag k="addr:country" v="AU"/>
    <tag k="addr:housenumber" v="117A"/>
    <tag k="addr:postcode" v="3051"/>
    <tag k="addr:street" v="Flemington Road"/>
  </node>
  <node id="495998676" version="4" timestamp="2012-08-28T09:18:27Z" uid="84937" user="Neil Penman" changeset="12889642" lat="-37.7971572" lon="144.9515965">
    <tag k="addr:city" v="North Melbourne"/>
    <tag k="addr:country" v="AU"/>
    <tag k="addr:housenumber" v="117A"/>
    <tag k="addr:postcode" v="3051"/>
    <tag k="addr:street" v="Flemington Road"/>
  </node>
  <node id="495998680" version="3" timestamp="2012-07-19T11:56:28Z" uid="722137" user="OSMF Redaction Account" changeset="12323277" lat="-37.7970539" lon="144.9515587">
    <tag k="addr:city" v="North Melbourne"/>
    <tag k="addr:country" v="AU"/>
    <tag k="addr:housenumber" v="118"/>
    <tag k="addr:postcode" v="3051"/>
    <tag k="addr:street" v="Flemington Road"/>
  </node>
  <node id="495998680" version="4" timestamp="2012-08-28T09:18:28Z" uid="84937" user="Neil Penman" changeset="12889642" lat="-37.7970894" lon="144.9515107">
    <tag k="addr:city" v="North Melbourne"/>
    <tag k="addr:country" v="AU"/>
    <tag k="addr:housenumber" v="118"/>
    <tag k="addr:postcode" v="3051"/>
    <tag k="addr:street" v="Flemington Road"/>
  </node>
  <node id="495998684" version="3" timestamp="2012-07-19T11:56:29Z" uid="722137" user="OSMF Redaction Account" changeset="12323277" lat="-37.7968436" lon="144.9513098">
    <tag k="addr:city" v="North Melbourne"/>
    <tag k="addr:country" v="AU"/>
    <tag k="addr:housenumber" v="123"/>
    <tag k="addr:postcode" v="3051"/>
    <tag k="addr:street" v="Flemington Road"/>
  </node>
  <node id="495998684" version="4" timestamp="2012-08-28T09:18:28Z" uid="84937" user="Neil Penman" changeset="12889642" lat="-37.7968791" lon="144.9512618">
    <tag k="addr:city" v="North Melbourne"/>
    <tag k="addr:country" v="AU"/>
    <tag k="addr:housenumber" v="123"/>
    <tag k="addr:postcode" v="3051"/>
    <tag k="addr:street" v="Flemington Road"/>
  </node>
</osm>
