<?xml version='1.0' encoding='UTF-8'?>
<osm version="0.6" generator="libosmium/2.20.0">
  <node id="497197646" version="4" timestamp="2011-01-29T06:31:18Z" uid="4467" user="Rosscoe" changeset="7119367" lat="-34.8772465" lon="138.4928683">
    <tag k="amenity" v="fast_food"/>
    <tag k="drive_through" v="yes"/>
    <tag k="name" v="Hungry Jacks"/>
  </node>
  <node id="497197646" version="5" timestamp="2011-03-04T13:15:47Z" uid="236412" user="dcs" changeset="7454334" lat="-34.8772465" lon="138.4928683">
    <tag k="amenity" v="fast_food"/>
    <tag k="drive_thru" v="yes"/>
    <tag k="name" v="Hungry Jacks"/>
  </node>
  <node id="497197646" version="6" timestamp="2011-03-04T14:43:20Z" uid="236412" user="dcs" changeset="7454914" lat="-34.8772465" lon="138.4928683">
    <tag k="amenity" v="fast_food"/>
    <tag k="drive_through" v="yes"/>
    <tag k="name" v="Hungry Jacks"/>
  </node>
  <node id="497197646" version="7" timestamp="2012-07-20T12:37:59Z" uid="722137" user="OSMF Redaction Account" changeset="12376260" lat="-34.8772464" lon="138.4928682">
    <tag k="amenity" v="fast_food"/>
    <tag k="name" v="Hungry Jacks"/>
  </node>
</osm>
