<?xml version='1.0' encoding='UTF-8'?>
<osm version="0.6" generator="libosmium/2.20.0">
  <node id="497992450" version="1" timestamp="2009-09-16T14:29:43Z" uid="43967" user="railsnail" changeset="2502972" lat="46.5030465" lon="13.4953647">
    <tag k="name" v="Ugovizza Valbruna"/>
    <tag k="railway" v="station"/>
  </node>
  <node id="497992450" version="2" timestamp="2010-02-10T12:50:48Z" uid="43967" user="railsnail" changeset="3839956" lat="46.5008433" lon="13.4982645">
    <tag k="name" v="Ugovizza Valbruna"/>
    <tag k="railway" v="station"/>
  </node>
  <node id="497992450" version="3" timestamp="2010-04-21T16:39:53Z" uid="69102" user="Mathbau" changeset="4488393" lat="46.5027967" lon="13.4950793">
    <tag k="name" v="Ugovizza Valbruna"/>
    <tag k="railway" v="station"/>
  </node>
  <node id="497992450" version="4" timestamp="2011-07-03T11:47:49Z" uid="12473" user="mikelima" changeset="8617700" lat="46.5027967" lon="13.4950793">
    <tag k="name" v="Ugovizza Valbruna"/>
    <tag k="operator" v="RFI"/>
    <tag k="railway" v="station"/>
  </node>
  <node id="497992450" version="5" timestamp="2011-09-30T08:04:27Z" uid="86130" user="Stefano Salvador" changeset="9433164" lat="46.5027967" lon="13.4950793">
    <tag k="name" v="Ugovizza Valbruna"/>
    <tag k="operator" v="RFI"/>
    <tag k="railway" v="stop"/>
  </node>
  <node id="497992450" version="6" timestamp="2011-09-30T20:36:36Z" uid="86130" user="Stefano Salvador" changeset="9438612" lat="46.5027486" lon="13.4950117">
    <tag k="name" v="Ugovizza Valbruna"/>
    <tag k="operator" v="RFI"/>
    <tag k="railway" v="stop"/>
  </node>
  <node id="497992450" version="7" timestamp="2012-01-18T20:21:59Z" uid="129060" user="Klenje" changeset="10431143" lat="46.5027486" lon="13.4950117">
    <tag k="name" v="Ugovizza Valbruna"/>
    <tag k="name:fur" v="Ugovize Valbrune"/>
    <tag k="operator" v="RFI"/>
    <tag k="railway" v="stop"/>
  </node>
  <node id="497992450" version="8" timestamp="2012-07-16T13:39:26Z" uid="722137" user="OSMF Redaction Account" changeset="12245231" lat="46.5027486" lon="13.4950117">
    <tag k="name:fur" v="Ugovize Valbrune"/>
    <tag k="operator" v="RFI"/>
    <tag k="railway" v="stop"/>
  </node>
</osm>
