<?xml version='1.0' encoding='UTF-8'?>
<osm version="0.6" generator="libosmium/2.20.0">
  <node id="498035943" version="1" timestamp="2009-09-16T14:44:01Z" uid="143719" user="DarkoS" changeset="2503111" lat="41.3895208" lon="2.1664201">
    <tag k="name" v="NH Calderon"/>
    <tag k="stars" v="4"/>
    <tag k="tourism" v="hotel"/>
  </node>
  <node id="498035943" version="2" timestamp="2010-04-22T22:36:48Z" uid="736" user="Steve Chilton" changeset="4499602" lat="41.3893868" lon="2.1663453">
    <tag k="addr:housenumber" v="26"/>
    <tag k="name" v="NH Calderon"/>
    <tag k="stars" v="4"/>
    <tag k="tourism" v="hotel"/>
  </node>
  <node id="498035943" version="3" timestamp="2010-04-22T22:37:54Z" uid="736" user="Steve Chilton" changeset="4499602" lat="41.3893385" lon="2.1662809">
    <tag k="addr:housenumber" v="26"/>
    <tag k="name" v="NH Calderon"/>
    <tag k="stars" v="4"/>
    <tag k="tourism" v="hotel"/>
  </node>
  <node id="498035948" version="1" timestamp="2009-09-16T14:44:01Z" uid="143719" user="DarkoS" changeset="2503111" lat="41.3731032" lon="2.1548029">
    <tag k="name" v="Fira Palace"/>
    <tag k="tourism" v="hotel"/>
  </node>
  <node id="498035948" version="2" timestamp="2010-03-22T22:57:17Z" uid="105178" user="gabri3l" changeset="4208052" lat="41.3731032" lon="2.1548029">
    <tag k="name" v="Fira Palace"/>
    <tag k="stars" v="4"/>
    <tag k="tourism" v="hotel"/>
  </node>
  <node id="498039215" version="1" timestamp="2009-09-16T14:45:25Z" uid="43967" user="railsnail" changeset="2503120" lat="46.4563517" lon="13.3107288"/>
  <node id="498039215" version="2" timestamp="2010-05-12T11:12:08Z" uid="69102" user="Mathbau" changeset="4676239" lat="46.456343" lon="13.3107007"/>
  <node id="498035943" version="4" timestamp="2012-07-15T16:17:26Z" uid="722137" user="OSMF Redaction Account" changeset="12231807" lat="41.3893385" lon="2.1662809">
    <tag k="addr:housenumber" v="26"/>
  </node>
  <node id="498035948" version="3" timestamp="2012-07-16T12:40:46Z" uid="722137" user="OSMF Redaction Account" changeset="12244297" lat="41.3731032" lon="2.1548029"/>
  <node id="498039215" version="3" timestamp="2012-09-10T13:27:07Z" uid="86130" user="Stefano Salvador" changeset="13056998" lat="46.456333" lon="13.3106983"/>
</osm>
