<?xml version='1.0' encoding='UTF-8'?>
<osm version="0.6" generator="libosmium/2.20.0">
  <node id="498400590" version="1" timestamp="2009-09-16T18:15:10Z" uid="43967" user="railsnail" changeset="2505330" lat="46.1109595" lon="13.0016741">
    <tag k="is_in" v="Italia"/>
    <tag k="name" v="Rodeano Alto"/>
    <tag k="place" v="village"/>
  </node>
  <node id="498400590" version="2" timestamp="2010-12-09T15:18:22Z" uid="129060" user="Klenje" changeset="6596117" lat="46.1109595" lon="13.0016741">
    <tag k="is_in" v="Italia"/>
    <tag k="name" v="Rodeano Alto"/>
    <tag k="name:fur" v="Rodean dal Alt"/>
    <tag k="place" v="village"/>
  </node>
  <node id="498408153" version="1" timestamp="2009-09-16T18:21:09Z" uid="43967" user="railsnail" changeset="2505384" lat="46.0697178" lon="13.0261195">
    <tag k="is_in" v="Italia"/>
    <tag k="name" v="Nogaredo di Corno"/>
    <tag k="place" v="village"/>
  </node>
  <node id="498408153" version="2" timestamp="2010-12-09T15:17:37Z" uid="129060" user="Klenje" changeset="6596117" lat="46.0697178" lon="13.0261195">
    <tag k="is_in" v="Italia"/>
    <tag k="name" v="Nogaredo di Corno"/>
    <tag k="name:fur" v="Nearêt dal Cuar"/>
    <tag k="place" v="village"/>
  </node>
  <node id="498409754" version="1" timestamp="2009-09-16T18:22:33Z" uid="43967" user="railsnail" changeset="2505384" lat="46.0615889" lon="13.0307115">
    <tag k="is_in" v="Italia"/>
    <tag k="name" v="Barazzetto"/>
    <tag k="place" v="village"/>
  </node>
  <node id="498409754" version="2" timestamp="2010-12-09T15:18:24Z" uid="129060" user="Klenje" changeset="6596117" lat="46.0615889" lon="13.0307115">
    <tag k="is_in" v="Italia"/>
    <tag k="name" v="Barazzetto"/>
    <tag k="name:fur" v="Baracêt"/>
    <tag k="place" v="village"/>
  </node>
  <node id="498400590" version="3" timestamp="2012-04-21T08:33:49Z" uid="11976" user="Map47" changeset="11371322" lat="46.1109595" lon="13.0016741"/>
  <node id="498408153" version="3" timestamp="2012-04-19T21:59:02Z" uid="11976" user="Map47" changeset="11358890" lat="46.0697178" lon="13.0261195"/>
  <node id="498409754" version="3" timestamp="2012-04-19T21:59:02Z" uid="11976" user="Map47" changeset="11358890" lat="46.0615889" lon="13.0307115"/>
</osm>
