<?xml version='1.0' encoding='UTF-8'?>
<osm version="0.6" generator="libosmium/2.20.0">
  <node id="500404858" version="1" timestamp="2009-09-18T15:02:38Z" uid="114881" user="ratsonroP" changeset="2525294" lat="50.8876314" lon="14.8075547">
    <tag k="leisure" v="stadium"/>
    <tag k="name" v="SFZ Sport"/>
    <tag k="sport" v="multi"/>
  </node>
  <node id="500404858" version="2" timestamp="2010-12-07T20:46:55Z" uid="31185" user="es_ka" changeset="6579489" lat="50.8880871" lon="14.8073039">
    <tag k="leisure" v="stadium"/>
    <tag k="name" v="SFZ Sport"/>
    <tag k="sport" v="multi"/>
  </node>
  <node id="500404858" version="3" timestamp="2011-01-10T23:30:54Z" uid="249331" user="oSmNoAsE" changeset="6932510" lat="50.8880663" lon="14.8072148">
    <tag k="leisure" v="stadium"/>
    <tag k="name" v="SFZ Sport"/>
    <tag k="sport" v="multi"/>
  </node>
  <node id="500404863" version="1" timestamp="2009-09-18T15:02:38Z" uid="114881" user="ratsonroP" changeset="2525294" lat="50.8861477" lon="14.8094536">
    <tag k="highway" v="bus_stop"/>
    <tag k="name" v="Südstraße"/>
  </node>
  <node id="500404866" version="1" timestamp="2009-09-18T15:02:38Z" uid="114881" user="ratsonroP" changeset="2525294" lat="50.8861028" lon="14.809227">
    <tag k="highway" v="bus_stop"/>
    <tag k="name" v="Südstraße"/>
  </node>
  <node id="500404866" version="2" timestamp="2010-09-06T19:11:57Z" uid="31185" user="es_ka" changeset="5701411" lat="50.8860527" lon="14.8091135">
    <tag k="highway" v="bus_stop"/>
    <tag k="name" v="Südstraße"/>
  </node>
  <node id="500404858" version="4" timestamp="2012-07-24T10:11:31Z" uid="722137" user="OSMF Redaction Account" changeset="12463166" lat="50.8880663" lon="14.8072148"/>
  <node id="500404863" version="2" timestamp="2012-07-24T10:11:37Z" uid="722137" user="OSMF Redaction Account" changeset="12463166" lat="50.8861477" lon="14.8094536"/>
  <node id="500404866" version="3" timestamp="2012-07-24T10:11:31Z" uid="722137" user="OSMF Redaction Account" changeset="12463166" lat="50.8860527" lon="14.8091135"/>
</osm>
