<?xml version='1.0' encoding='UTF-8'?>
<osm version="0.6" generator="libosmium/2.20.0">
  <node id="500897980" version="1" timestamp="2009-09-18T20:18:19Z" uid="20587" user="balrog-kun" changeset="2528237" lat="51.7630871" lon="19.5444705">
    <tag k="name" v="Łódź-Widzew"/>
    <tag k="operator" v="PKP"/>
    <tag k="railway" v="station"/>
    <tag k="wikipedia" v="pl:Łódź Widzew"/>
  </node>
  <node id="500897981" version="1" timestamp="2009-09-18T20:18:19Z" uid="20587" user="balrog-kun" changeset="2528237" lat="52.1401232" lon="19.8858055">
    <tag k="name" v="Niedźwiada Łowicka"/>
    <tag k="operator" v="PKP"/>
    <tag k="railway" v="halt"/>
    <tag k="wikipedia" v="pl:Niedźwiada Łowicka"/>
  </node>
  <node id="500897981" version="2" timestamp="2010-12-08T11:58:00Z" uid="44414" user="marimil" changeset="6584389" lat="52.1400584" lon="19.8857996">
    <tag k="name" v="Niedźwiada Łowicka"/>
    <tag k="operator" v="PKP"/>
    <tag k="railway" v="halt"/>
    <tag k="wikipedia" v="pl:Niedźwiada Łowicka"/>
  </node>
  <node id="500897981" version="3" timestamp="2010-12-11T22:36:42Z" uid="44414" user="marimil" changeset="6630552" lat="52.1400375" lon="19.8857712">
    <tag k="name" v="Niedźwiada Łowicka"/>
    <tag k="operator" v="PKP"/>
    <tag k="railway" v="halt"/>
    <tag k="wikipedia" v="pl:Niedźwiada Łowicka"/>
  </node>
  <node id="500897981" version="4" timestamp="2011-04-14T21:17:00Z" uid="44414" user="marimil" changeset="7865189" lat="52.1400125" lon="19.8857441">
    <tag k="name" v="Niedźwiada Łowicka"/>
    <tag k="operator" v="PKP"/>
    <tag k="railway" v="halt"/>
    <tag k="wikipedia" v="pl:Niedźwiada Łowicka"/>
  </node>
  <node id="500897982" version="1" timestamp="2009-09-18T20:18:19Z" uid="20587" user="balrog-kun" changeset="2528237" lat="52.1576883" lon="19.7928667">
    <tag k="name" v="Jackowice"/>
    <tag k="operator" v="PKP"/>
    <tag k="railway" v="station"/>
    <tag k="wikipedia" v="pl:Jackowice (stacja kolejowa)"/>
  </node>
  <node id="500897982" version="2" timestamp="2010-12-08T11:58:17Z" uid="44414" user="marimil" changeset="6584389" lat="52.1569954" lon="19.7955708">
    <tag k="name" v="Jackowice"/>
    <tag k="operator" v="PKP"/>
    <tag k="railway" v="station"/>
    <tag k="wikipedia" v="pl:Jackowice (stacja kolejowa)"/>
  </node>
  <node id="500897982" version="3" timestamp="2011-01-31T22:56:05Z" uid="44414" user="marimil" changeset="7150245" lat="52.1569805" lon="19.7954739">
    <tag k="name" v="Jackowice"/>
    <tag k="operator" v="PKP"/>
    <tag k="railway" v="station"/>
    <tag k="wikipedia" v="pl:Jackowice (stacja kolejowa)"/>
  </node>
  <node id="500897982" version="4" timestamp="2011-04-14T16:53:16Z" uid="44414" user="marimil" changeset="7861934" lat="52.1569978" lon="19.7954964">
    <tag k="name" v="Jackowice"/>
    <tag k="operator" v="PKP"/>
    <tag k="railway" v="station"/>
    <tag k="wikipedia" v="pl:Jackowice (stacja kolejowa)"/>
  </node>
</osm>
