<?xml version='1.0' encoding='UTF-8'?>
<osm version="0.6" generator="libosmium/2.20.0">
  <node id="504477557" version="3" timestamp="2010-01-15T00:49:44Z" uid="216873" user="Goonie" changeset="3621449" lat="52.5238494" lon="13.4391399"/>
  <node id="504477557" version="4" timestamp="2010-11-23T21:08:21Z" uid="13203" user="bahnpirat" changeset="6442602" lat="52.5238494" lon="13.4391399">
    <tag k="fixme" v="ref"/>
    <tag k="speisebezirk" v="speisung"/>
  </node>
  <node id="504477557" version="5" timestamp="2010-12-30T01:03:15Z" uid="13203" user="bahnpirat" changeset="6805221" lat="52.5238494" lon="13.4391399">
    <tag k="ref" v="601 05-2"/>
    <tag k="source" v="survey"/>
    <tag k="speisebezirk" v="speisung"/>
  </node>
  <node id="504477557" version="6" timestamp="2011-01-06T18:56:43Z" uid="13203" user="bahnpirat" changeset="6885728" lat="52.5238494" lon="13.4391399">
    <tag k="ref" v="601.05-2"/>
    <tag k="source" v="survey"/>
    <tag k="speisebezirk" v="speisung"/>
  </node>
  <node id="504477557" version="7" timestamp="2012-06-14T22:31:04Z" uid="209498" user="nurinfo" changeset="11899949" lat="52.5238376" lon="13.4391489">
    <tag k="ref" v="601.05-2"/>
    <tag k="source" v="survey"/>
    <tag k="speisebezirk" v="speisung"/>
  </node>
</osm>
