<?xml version='1.0' encoding='UTF-8'?>
<osm version="0.6" generator="libosmium/2.20.0">
  <node id="508400097" version="1" timestamp="2009-09-26T12:12:33Z" uid="4667" user="MapZ" changeset="2640700" lat="49.5931275" lon="11.0085893">
    <tag k="addr:city" v="Erlangen"/>
    <tag k="addr:housenumber" v="31"/>
    <tag k="addr:street" v="Schuhstraße"/>
    <tag k="name" v="Bayrischer Hof"/>
    <tag k="tourism" v="hotel"/>
  </node>
  <node id="508400097" version="2" timestamp="2009-10-05T16:47:23Z" uid="4667" user="MapZ" changeset="2752256" lat="49.5931474" lon="11.0086845">
    <tag k="addr:city" v="Erlangen"/>
    <tag k="addr:housenumber" v="31"/>
    <tag k="addr:street" v="Schuhstraße"/>
    <tag k="name" v="Bayrischer Hof"/>
    <tag k="tourism" v="hotel"/>
  </node>
  <node id="508400097" version="3" timestamp="2009-11-26T11:13:08Z" uid="118856" user="staehler" changeset="3219343" lat="49.5933143" lon="11.00853">
    <tag k="addr:city" v="Erlangen"/>
    <tag k="addr:housenumber" v="31"/>
    <tag k="addr:street" v="Schuhstraße"/>
    <tag k="name" v="Bayrischer Hof"/>
    <tag k="tourism" v="hotel"/>
  </node>
  <node id="508400097" version="4" timestamp="2012-02-21T16:50:24Z" uid="41431" user="Rosty" changeset="10751621" lat="49.5933143" lon="11.00853"/>
  <node id="508400100" version="1" timestamp="2009-09-26T12:12:33Z" uid="4667" user="MapZ" changeset="2640700" lat="49.5949843" lon="11.0079939">
    <tag k="amenity" v="biergarten"/>
    <tag k="name" v="Kitzmann"/>
  </node>
  <node id="508400100" version="2" timestamp="2009-11-26T11:13:08Z" uid="118856" user="staehler" changeset="3219343" lat="49.5951858" lon="11.0083194">
    <tag k="addr:city" v="Erlangen"/>
    <tag k="addr:country" v="DE"/>
    <tag k="addr:housenumber" v="25"/>
    <tag k="addr:street" v="Südliche Stadtmauerstraße"/>
    <tag k="amenity" v="biergarten"/>
    <tag k="name" v="Kitzmann"/>
    <tag k="phone" v="09131 8108-17"/>
    <tag k="website" v="www.kitzmann.de"/>
  </node>
  <node id="508400100" version="3" timestamp="2010-01-02T14:46:45Z" uid="44410" user="Geraldomat" changeset="3518950" lat="49.5951858" lon="11.0083194">
    <tag k="addr:city" v="Erlangen"/>
    <tag k="addr:country" v="DE"/>
    <tag k="addr:housenumber" v="25"/>
    <tag k="addr:street" v="Südliche Stadtmauerstraße"/>
    <tag k="amenity" v="biergarten"/>
    <tag k="name" v="Kitzmann"/>
    <tag k="phone" v="09131 8108-17"/>
    <tag k="website" v="www.kitzmann.de"/>
    <tag k="wikipedia:de" v="Kitzmann_Bräu"/>
  </node>
  <node id="508400100" version="4" timestamp="2011-03-16T22:40:04Z" uid="421647" user="schiriki87" changeset="7580572" lat="49.5950653" lon="11.0081846">
    <tag k="addr:city" v="Erlangen"/>
    <tag k="addr:country" v="DE"/>
    <tag k="addr:housenumber" v="25"/>
    <tag k="addr:street" v="Südliche Stadtmauerstraße"/>
    <tag k="amenity" v="biergarten"/>
    <tag k="name" v="Kitzmann"/>
    <tag k="phone" v="09131 8108-17"/>
    <tag k="website" v="www.kitzmann.de"/>
    <tag k="wikipedia:de" v="Kitzmann_Bräu"/>
  </node>
  <node id="508400100" version="5" timestamp="2011-06-21T18:09:55Z" uid="73317" user="kanu_guenni" changeset="8506908" lat="49.5950653" lon="11.0081846">
    <tag k="addr:city" v="Erlangen"/>
    <tag k="addr:country" v="DE"/>
    <tag k="addr:housenumber" v="25"/>
    <tag k="addr:street" v="Südliche Stadtmauerstraße"/>
    <tag k="amenity" v="biergarten"/>
    <tag k="microbrewery" v="yes"/>
    <tag k="name" v="Kitzmann"/>
    <tag k="phone" v="09131 8108-17"/>
    <tag k="website" v="www.kitzmann.de"/>
    <tag k="wikipedia:de" v="Kitzmann_Bräu"/>
  </node>
  <node id="508400100" version="6" timestamp="2011-12-28T17:25:41Z" uid="290680" user="wheelmap_visitor" changeset="10222046" lat="49.5950653" lon="11.0081846">
    <tag k="addr:city" v="Erlangen"/>
    <tag k="addr:country" v="DE"/>
    <tag k="addr:housenumber" v="25"/>
    <tag k="addr:street" v="Südliche Stadtmauerstraße"/>
    <tag k="amenity" v="biergarten"/>
    <tag k="microbrewery" v="yes"/>
    <tag k="name" v="Kitzmann"/>
    <tag k="phone" v="09131 8108-17"/>
    <tag k="website" v="www.kitzmann.de"/>
    <tag k="wheelchair" v="no"/>
    <tag k="wikipedia:de" v="Kitzmann_Bräu"/>
  </node>
  <node id="508400100" version="7" timestamp="2012-01-28T12:42:54Z" uid="82877" user="Wankmann" changeset="10520520" lat="49.5950653" lon="11.0081846"/>
  <node id="508401169" version="4" timestamp="2011-05-09T15:11:25Z" uid="43967" user="railsnail" changeset="8093689" lat="47.0069874" lon="11.5064893"/>
  <node id="508401169" version="5" timestamp="2011-08-03T23:22:44Z" uid="56501" user="Rudolf_H" changeset="8915480" lat="47.0069846" lon="11.5064649"/>
  <node id="508401169" version="6" timestamp="2011-12-19T00:38:05Z" uid="334153" user="Alexander Roalter" changeset="10152246" lat="47.0069846" lon="11.5064649"/>
  <node id="508404942" version="1" timestamp="2009-09-26T12:18:57Z" uid="4667" user="MapZ" changeset="2640737" lat="27.9659405" lon="-15.5929451">
    <tag k="name" v="Gran Canaria"/>
    <tag k="place" v="island"/>
  </node>
  <node id="508404942" version="2" timestamp="2010-02-23T20:14:41Z" uid="102755" user="Erik Streb" changeset="3957871" lat="27.9659406" lon="-15.5929452">
    <tag k="is_in" v="Spain"/>
    <tag k="name" v="Gran Canaria"/>
    <tag k="name:fr" v="Grande Canarie"/>
    <tag k="place" v="island"/>
  </node>
  <node id="508404942" version="3" timestamp="2010-03-08T14:36:14Z" uid="221997" user="EuskalMapa" changeset="4072307" lat="27.9659406" lon="-15.5929452">
    <tag k="is_in" v="Spain"/>
    <tag k="name" v="Gran Canaria"/>
    <tag k="name:eu" v="Kanaria handia"/>
    <tag k="name:fr" v="Grande Canarie"/>
    <tag k="place" v="island"/>
  </node>
  <node id="508407590" version="2" timestamp="2010-02-17T17:00:13Z" uid="49111" user="Markus B" changeset="3902329" lat="49.6564111" lon="11.4200493"/>
  <node id="508409153" version="3" timestamp="2010-06-05T17:25:52Z" uid="171838" user="argrath" changeset="4910657" lat="35.6960429" lon="139.775006">
    <tag k="amenity" v="fast_food"/>
    <tag k="name" v="マクドナルド"/>
  </node>
  <node id="508409153" version="4" timestamp="2010-06-06T17:17:22Z" uid="96268" user="Nahainec" changeset="4920221" lat="35.6960429" lon="139.775006">
    <tag k="amenity" v="fast_food"/>
    <tag k="name" v="マクドナルド 岩本町店"/>
  </node>
  <node id="508409153" version="5" timestamp="2011-10-16T12:12:18Z" uid="96268" user="Nahainec" changeset="9571675" lat="35.696043" lon="139.7750059">
    <tag k="amenity" v="fast_food"/>
    <tag k="cuisine" v="burger"/>
    <tag k="name" v="マクドナルド 岩本町店"/>
    <tag k="opening_hours" v="24/7"/>
    <tag k="phone" v="03-5296-9178"/>
  </node>
  <node id="508409153" version="6" timestamp="2012-01-27T18:16:42Z" uid="96268" user="Nahainec" changeset="10514881" lat="35.6960431" lon="139.7750058">
    <tag k="amenity" v="fast_food"/>
    <tag k="cuisine" v="burger"/>
    <tag k="name" v="マクドナルド 岩本町店"/>
    <tag k="name:en" v="McDonald&apos;s"/>
    <tag k="opening_hours" v="24/7"/>
    <tag k="phone" v="03-5296-9178"/>
  </node>
  <node id="508404942" version="4" timestamp="2012-07-20T00:39:47Z" uid="722137" user="OSMF Redaction Account" changeset="12352518" lat="27.9659406" lon="-15.5929452"/>
  <node id="508409153" version="7" timestamp="2012-07-21T16:41:31Z" uid="722137" user="OSMF Redaction Account" changeset="12414970" lat="35.6960429" lon="139.7750057">
    <tag k="amenity" v="fast_food"/>
    <tag k="cuisine" v="burger"/>
    <tag k="name" v="マクドナルド 岩本町店"/>
    <tag k="name:en" v="McDonald&apos;s"/>
    <tag k="opening_hours" v="24/7"/>
    <tag k="phone" v="03-5296-9178"/>
  </node>
</osm>
