<?xml version='1.0' encoding='UTF-8'?>
<osm version="0.6" generator="libosmium/2.20.0">
  <node id="51374159" version="4" timestamp="2008-06-23T14:46:26Z" uid="27600" user="Islanit" changeset="270634" lat="54.1315393" lon="12.045424">
    <tag k="created_by" v="JOSM"/>
  </node>
  <node id="51379670" version="2" timestamp="2007-12-04T22:22:27Z" uid="17602" user="B10xyz" changeset="79249" lat="52.5528814" lon="13.4489857">
    <tag k="amenity" v="place_of_worship"/>
    <tag k="created_by" v="Potlatch 0.5d"/>
    <tag k="name" v="Bethanien-Kirche"/>
    <tag k="religion" v="christian"/>
  </node>
  <node id="51379670" version="3" timestamp="2008-03-30T12:41:10Z" uid="29041" user="AnSt" changeset="430005" lat="52.552883" lon="13.4489799">
    <tag k="created_by" v="Potlatch 0.8a"/>
    <tag k="historic" v="ruins"/>
    <tag k="name" v="Bethanien-Kirche"/>
    <tag k="tourism" v="attraction"/>
  </node>
  <node id="51379670" version="4" timestamp="2009-07-11T20:45:07Z" uid="67602" user="Nop" changeset="1801496" lat="52.552883" lon="13.4489799">
    <tag k="historic" v="church"/>
    <tag k="name" v="Bethanien-Kirche"/>
    <tag k="ruins" v="yes"/>
    <tag k="tourism" v="attraction"/>
  </node>
  <node id="51379670" version="5" timestamp="2011-08-02T08:21:27Z" uid="290680" user="wheelmap_visitor" changeset="8897803" lat="52.552883" lon="13.4489799">
    <tag k="historic" v="church"/>
    <tag k="name" v="Bethanien-Kirche"/>
    <tag k="ruins" v="yes"/>
    <tag k="tourism" v="attraction"/>
    <tag k="wheelchair" v="no"/>
  </node>
  <node id="51379670" version="6" timestamp="2011-11-06T15:58:47Z" uid="43566" user="anbr" changeset="9756577" lat="52.552883" lon="13.4489799"/>
</osm>
