<?xml version='1.0' encoding='UTF-8'?>
<osm version="0.6" generator="libosmium/2.20.0">
  <node id="519401028" version="2" timestamp="2010-08-08T13:07:45Z" uid="9581" user="Lobelt" changeset="5432906" lat="35.1861982" lon="-0.6598483"/>
  <node id="519401030" version="2" timestamp="2010-08-08T13:08:04Z" uid="9581" user="Lobelt" changeset="5432906" lat="35.1859615" lon="-0.6597114"/>
  <node id="519402963" version="1" timestamp="2009-10-03T20:58:41Z" uid="179968" user="Ich_hasse_doitsche_OSM-Korinthenkacker" changeset="2729559" lat="-55.8033402" lon="-66.80759"/>
  <node id="519402966" version="1" timestamp="2009-10-03T20:58:41Z" uid="179968" user="Ich_hasse_doitsche_OSM-Korinthenkacker" changeset="2729559" lat="-55.8034402" lon="-66.8062199"/>
  <node id="519402968" version="1" timestamp="2009-10-03T20:58:41Z" uid="179968" user="Ich_hasse_doitsche_OSM-Korinthenkacker" changeset="2729559" lat="-55.8028" lon="-66.80626"/>
  <node id="519402969" version="1" timestamp="2009-10-03T20:58:41Z" uid="179968" user="Ich_hasse_doitsche_OSM-Korinthenkacker" changeset="2729559" lat="-55.8028201" lon="-66.80762"/>
  <node id="519402970" version="1" timestamp="2009-10-03T20:58:41Z" uid="179968" user="Ich_hasse_doitsche_OSM-Korinthenkacker" changeset="2729559" lat="81.525993" lon="-91.4561215"/>
  <node id="519402972" version="1" timestamp="2009-10-03T20:58:41Z" uid="179968" user="Ich_hasse_doitsche_OSM-Korinthenkacker" changeset="2729559" lat="81.5363126" lon="-91.4495523"/>
  <node id="519402974" version="1" timestamp="2009-10-03T20:58:41Z" uid="179968" user="Ich_hasse_doitsche_OSM-Korinthenkacker" changeset="2729559" lat="81.5324442" lon="-91.4634207"/>
  <node id="519402977" version="1" timestamp="2009-10-03T20:58:42Z" uid="179968" user="Ich_hasse_doitsche_OSM-Korinthenkacker" changeset="2729559" lat="81.5308319" lon="-91.425465"/>
  <node id="519402980" version="1" timestamp="2009-10-03T20:58:42Z" uid="179968" user="Ich_hasse_doitsche_OSM-Korinthenkacker" changeset="2729559" lat="-84.30762" lon="179.0168698"/>
  <node id="519403012" version="1" timestamp="2009-10-03T20:58:42Z" uid="179968" user="Ich_hasse_doitsche_OSM-Korinthenkacker" changeset="2729559" lat="48.0761464" lon="11.5188691">
    <tag k="barrier" v="bollard"/>
    <tag k="bicycle" v="yes"/>
    <tag k="foot" v="yes"/>
    <tag k="name" v="Poller"/>
  </node>
  <node id="519403017" version="1" timestamp="2009-10-03T20:58:43Z" uid="179968" user="Ich_hasse_doitsche_OSM-Korinthenkacker" changeset="2729559" lat="48.0755669" lon="11.520266">
    <tag k="addr:city" v="München"/>
    <tag k="addr:country" v="DE"/>
    <tag k="addr:housename" v="Hort"/>
    <tag k="addr:housenumber" v="8"/>
    <tag k="addr:postcode" v="81479"/>
    <tag k="addr:street" v="Konrad-Witz-Straße"/>
    <tag k="building" v="yes"/>
    <tag k="name" v="8"/>
  </node>
  <node id="519403027" version="1" timestamp="2009-10-03T20:58:43Z" uid="179968" user="Ich_hasse_doitsche_OSM-Korinthenkacker" changeset="2729559" lat="48.0761225" lon="11.5194984">
    <tag k="addr:city" v="München"/>
    <tag k="addr:country" v="DE"/>
    <tag k="addr:housenumber" v="41"/>
    <tag k="addr:postcode" v="81479"/>
    <tag k="addr:street" v="Herterichstraße"/>
    <tag k="amenity" v="school"/>
    <tag k="name" v="Grundschule"/>
  </node>
  <node id="519403027" version="2" timestamp="2010-05-09T20:30:24Z" uid="30579" user="Tiramisu" changeset="4653859" lat="48.0761226" lon="11.5194984">
    <tag k="addr:city" v="München"/>
    <tag k="addr:country" v="DE"/>
    <tag k="addr:housenumber" v="41"/>
    <tag k="addr:postcode" v="81479"/>
    <tag k="addr:street" v="Herterichstraße"/>
    <tag k="amenity" v="school"/>
    <tag k="name" v="Grundschule an der Herterichstraße"/>
  </node>
  <node id="519403027" version="3" timestamp="2011-12-28T18:39:17Z" uid="290680" user="wheelmap_visitor" changeset="10222046" lat="48.0761226" lon="11.5194984">
    <tag k="addr:city" v="München"/>
    <tag k="addr:country" v="DE"/>
    <tag k="addr:housenumber" v="41"/>
    <tag k="addr:postcode" v="81479"/>
    <tag k="addr:street" v="Herterichstraße"/>
    <tag k="amenity" v="school"/>
    <tag k="name" v="Grundschule an der Herterichstraße"/>
    <tag k="wheelchair" v="no"/>
  </node>
  <node id="519403031" version="1" timestamp="2009-10-03T20:58:43Z" uid="179968" user="Ich_hasse_doitsche_OSM-Korinthenkacker" changeset="2729559" lat="48.0776248" lon="11.5133104">
    <tag k="leisure" v="pitch"/>
    <tag k="sport" v="table_tennis"/>
  </node>
  <node id="519403039" version="1" timestamp="2009-10-03T20:58:43Z" uid="179968" user="Ich_hasse_doitsche_OSM-Korinthenkacker" changeset="2729559" lat="48.080015" lon="11.5102647">
    <tag k="leisure" v="playground"/>
  </node>
  <node id="519403039" version="2" timestamp="2009-10-13T22:40:58Z" uid="36809" user="pfoten_weg_!_" changeset="2841133" lat="48.080015" lon="11.5102647">
    <tag k="leisure" v="playground"/>
  </node>
  <node id="519403044" version="1" timestamp="2009-10-03T20:58:43Z" uid="179968" user="Ich_hasse_doitsche_OSM-Korinthenkacker" changeset="2729559" lat="48.0801" lon="11.5113912">
    <tag k="amenity" v="recycling"/>
    <tag k="recycling:cans" v="yes"/>
    <tag k="recycling:glass" v="yes"/>
    <tag k="recycling:plastic" v="yes"/>
  </node>
  <node id="519403047" version="1" timestamp="2009-10-03T20:58:43Z" uid="179968" user="Ich_hasse_doitsche_OSM-Korinthenkacker" changeset="2729559" lat="48.0802815" lon="11.5112521">
    <tag k="addr:city" v="München"/>
    <tag k="addr:country" v="DE"/>
    <tag k="addr:housename" v="Wohngebäude"/>
    <tag k="addr:housenumber" v="69 71"/>
    <tag k="addr:postcode" v="81477"/>
    <tag k="addr:street" v="Weltistraße"/>
    <tag k="name" v="69 71"/>
  </node>
  <node id="519403047" version="2" timestamp="2010-05-08T20:55:01Z" uid="30579" user="Tiramisu" changeset="4642976" lat="48.0802816" lon="11.511252">
    <tag k="addr:city" v="München"/>
    <tag k="addr:country" v="DE"/>
    <tag k="addr:housenumber" v="69, 71"/>
    <tag k="addr:postcode" v="81477"/>
    <tag k="addr:street" v="Weltistraße"/>
  </node>
  <node id="519403047" version="3" timestamp="2010-05-08T20:58:38Z" uid="36809" user="pfoten_weg_!_" changeset="4643009" lat="48.0802816" lon="11.511252">
    <tag k="addr:city" v="München"/>
    <tag k="addr:country" v="DE"/>
    <tag k="addr:housenumber" v="69, 71"/>
    <tag k="addr:postcode" v="81477"/>
    <tag k="addr:street" v="Weltistraße"/>
  </node>
  <node id="519403047" version="4" timestamp="2010-05-09T08:38:33Z" uid="145231" user="woodpeck_repair" changeset="4645739" lat="48.0802816" lon="11.511252">
    <tag k="addr:city" v="München"/>
    <tag k="addr:country" v="DE"/>
    <tag k="addr:housenumber" v="69, 71"/>
    <tag k="addr:postcode" v="81477"/>
    <tag k="addr:street" v="Weltistraße"/>
  </node>
  <node id="519403051" version="1" timestamp="2009-10-03T20:58:43Z" uid="179968" user="Ich_hasse_doitsche_OSM-Korinthenkacker" changeset="2729559" lat="48.0801531" lon="11.5119628">
    <tag k="amenity" v="post_box"/>
    <tag k="name" v="Deutsche Post Briefkasten"/>
    <tag k="operator" v="Deutsche Post"/>
  </node>
  <node id="519403051" version="2" timestamp="2009-10-13T22:49:36Z" uid="36809" user="pfoten_weg_!_" changeset="2841156" lat="48.0801531" lon="11.5119628">
    <tag k="amenity" v="post_box"/>
    <tag k="name" v="Deutsche Post Briefkasten"/>
    <tag k="operator" v="Deutsche Post"/>
  </node>
  <node id="519403055" version="1" timestamp="2009-10-03T20:58:43Z" uid="179968" user="Ich_hasse_doitsche_OSM-Korinthenkacker" changeset="2729559" lat="48.0789416" lon="11.5126766">
    <tag k="highway" v="bus_stop"/>
    <tag k="name" v="Plattlinger Straße"/>
    <tag k="operator" v="MVV"/>
    <tag k="route_ref" v="133"/>
    <tag k="shelter" v="no"/>
    <tag k="towards" v="Forstenrieder Allee"/>
  </node>
  <node id="519403055" version="2" timestamp="2009-11-03T00:34:49Z" uid="36809" user="pfoten_weg_!_" changeset="3021430" lat="48.0789416" lon="11.5126766">
    <tag k="highway" v="bus_stop"/>
    <tag k="name" v="Plattlinger Straße"/>
    <tag k="operator" v="MVV"/>
    <tag k="route_ref" v="133"/>
    <tag k="shelter" v="no"/>
    <tag k="towards" v="Forstenrieder Allee"/>
  </node>
  <node id="519403060" version="1" timestamp="2009-10-03T20:58:43Z" uid="179968" user="Ich_hasse_doitsche_OSM-Korinthenkacker" changeset="2729559" lat="48.0795953" lon="11.5129427">
    <tag k="leisure" v="playground"/>
  </node>
  <node id="519403060" version="2" timestamp="2009-10-13T22:49:34Z" uid="36809" user="pfoten_weg_!_" changeset="2841156" lat="48.0795953" lon="11.5129427">
    <tag k="leisure" v="playground"/>
  </node>
  <node id="519403063" version="1" timestamp="2009-10-03T20:58:43Z" uid="179968" user="Ich_hasse_doitsche_OSM-Korinthenkacker" changeset="2729559" lat="48.079574" lon="11.5126909">
    <tag k="amenity" v="pharmacy"/>
    <tag k="name" v="Geigenberger Apotheke"/>
    <tag k="opening_hours" v="Mo-Fr 8:30-12:30,14:30-18:00"/>
  </node>
  <node id="519403063" version="2" timestamp="2009-10-13T22:49:34Z" uid="36809" user="pfoten_weg_!_" changeset="2841156" lat="48.079574" lon="11.5126909">
    <tag k="amenity" v="pharmacy"/>
    <tag k="name" v="Geigenberger Apotheke"/>
    <tag k="opening_hours" v="Mo-Fr 8:30-12:30,14:30-18:00"/>
  </node>
  <node id="519403066" version="1" timestamp="2009-10-03T20:58:44Z" uid="179968" user="Ich_hasse_doitsche_OSM-Korinthenkacker" changeset="2729559" lat="48.07941" lon="11.5133748">
    <tag k="access" v="yes"/>
    <tag k="barrier" v="bollard"/>
    <tag k="bicycle" v="no"/>
    <tag k="foot" v="yes"/>
  </node>
  <node id="519403066" version="2" timestamp="2009-10-13T22:49:33Z" uid="36809" user="pfoten_weg_!_" changeset="2841156" lat="48.07941" lon="11.5133748">
    <tag k="access" v="yes"/>
    <tag k="barrier" v="bollard"/>
    <tag k="bicycle" v="no"/>
    <tag k="foot" v="yes"/>
  </node>
  <node id="519403070" version="1" timestamp="2009-10-03T20:58:44Z" uid="179968" user="Ich_hasse_doitsche_OSM-Korinthenkacker" changeset="2729559" lat="48.0797862" lon="11.5123586">
    <tag k="access" v="permissive"/>
    <tag k="amenity" v="parking"/>
    <tag k="capacity" v="28"/>
  </node>
  <node id="519403070" version="2" timestamp="2009-10-13T22:49:32Z" uid="36809" user="pfoten_weg_!_" changeset="2841156" lat="48.0797862" lon="11.5123586">
    <tag k="access" v="permissive"/>
    <tag k="amenity" v="parking"/>
    <tag k="capacity" v="28"/>
  </node>
  <node id="519403074" version="1" timestamp="2009-10-03T20:58:44Z" uid="179968" user="Ich_hasse_doitsche_OSM-Korinthenkacker" changeset="2729559" lat="48.0798856" lon="11.5127544">
    <tag k="name" v="Gebrauchtmöbel &quot;Der Geheimtipp&quot;"/>
    <tag k="opening_hours" v="Mo-Fr 10:00-18:30; Sa 10:00-15:00"/>
    <tag k="shop" v="furniture"/>
    <tag k="url" v="http://www.gebrauchtmoebel51.de/"/>
  </node>
  <node id="519403074" version="2" timestamp="2009-10-13T22:49:31Z" uid="36809" user="pfoten_weg_!_" changeset="2841156" lat="48.0798856" lon="11.5127544">
    <tag k="name" v="Gebrauchtmöbel &quot;Der Geheimtipp&quot;"/>
    <tag k="opening_hours" v="Mo-Fr 10:00-18:30; Sa 10:00-15:00"/>
    <tag k="shop" v="furniture"/>
    <tag k="url" v="http://www.gebrauchtmoebel51.de/"/>
  </node>
  <node id="519403080" version="1" timestamp="2009-10-03T20:58:44Z" uid="179968" user="Ich_hasse_doitsche_OSM-Korinthenkacker" changeset="2729559" lat="48.0797565" lon="11.5126992">
    <tag k="name" v="Friseursalon Piroschka"/>
    <tag k="opening_hours" v="Mi-Fr 8:00-19:00"/>
    <tag k="shop" v="hairdresser"/>
  </node>
  <node id="519403080" version="2" timestamp="2009-10-13T22:49:32Z" uid="36809" user="pfoten_weg_!_" changeset="2841156" lat="48.0797565" lon="11.5126992">
    <tag k="name" v="Friseursalon Piroschka"/>
    <tag k="opening_hours" v="Mi-Fr 8:00-19:00"/>
    <tag k="shop" v="hairdresser"/>
  </node>
  <node id="519403082" version="1" timestamp="2009-10-03T20:58:44Z" uid="179968" user="Ich_hasse_doitsche_OSM-Korinthenkacker" changeset="2729559" lat="48.0855571" lon="11.5116073">
    <tag k="amenity" v="post_box"/>
    <tag k="collection_times" v="Mo-Fr 16:30,17:15; Sa 10:00; Su 08:30"/>
    <tag k="operator" v="Deutsche Post"/>
  </node>
  <node id="519403082" version="2" timestamp="2011-09-19T18:06:28Z" uid="162465" user="ckol" changeset="9344982" lat="48.0855571" lon="11.5116073">
    <tag k="amenity" v="post_box"/>
    <tag k="collection_times" v="Mo-Fr 16:30,17:15; Sa 10:00; Su 08:30"/>
    <tag k="operator" v="Deutsche Post AG"/>
  </node>
  <node id="519403086" version="1" timestamp="2009-10-03T20:58:44Z" uid="179968" user="Ich_hasse_doitsche_OSM-Korinthenkacker" changeset="2729559" lat="48.0764099" lon="11.5191483">
    <tag k="highway" v="bus_stop"/>
    <tag k="name" v="Bus 134 Stridbeckstraße"/>
    <tag k="ref" v="Stridbeckstraße"/>
  </node>
  <node id="519403086" version="2" timestamp="2010-05-06T17:26:46Z" uid="224490" user="Geo-Tobi" changeset="4623506" lat="48.0764099" lon="11.5191483">
    <tag k="highway" v="bus_stop"/>
    <tag k="name" v="Stridbeckstraße"/>
    <tag k="ref" v="Stridbeckstraße"/>
  </node>
  <node id="519403086" version="3" timestamp="2010-11-01T17:15:16Z" uid="230707" user="stanton" changeset="6257770" lat="48.0764099" lon="11.5191483">
    <tag k="highway" v="bus_stop"/>
    <tag k="name" v="Stridbeckstraße"/>
  </node>
  <node id="519403086" version="4" timestamp="2012-01-28T22:35:14Z" uid="12982" user="Michael Schulze" changeset="10525649" lat="48.0763837" lon="11.5191138">
    <tag k="highway" v="bus_stop"/>
    <tag k="name" v="Stridbeckstraße"/>
    <tag k="shelter" v="no"/>
  </node>
  <node id="519403089" version="1" timestamp="2009-10-03T20:58:44Z" uid="179968" user="Ich_hasse_doitsche_OSM-Korinthenkacker" changeset="2729559" lat="48.0762661" lon="11.5185752">
    <tag k="crossing" v="traffic_signals"/>
    <tag k="highway" v="traffic_signals"/>
  </node>
  <node id="519403093" version="1" timestamp="2009-10-03T20:58:44Z" uid="179968" user="Ich_hasse_doitsche_OSM-Korinthenkacker" changeset="2729559" lat="48.0763807" lon="11.5188904">
    <tag k="crossing" v="traffic_signals"/>
    <tag k="highway" v="traffic_signals"/>
  </node>
  <node id="519403097" version="1" timestamp="2009-10-03T20:58:44Z" uid="179968" user="Ich_hasse_doitsche_OSM-Korinthenkacker" changeset="2729559" lat="48.0764424" lon="11.5186579">
    <tag k="crossing" v="traffic_signals"/>
    <tag k="highway" v="traffic_signals"/>
  </node>
  <node id="519403097" version="2" timestamp="2010-05-25T21:27:37Z" uid="78613" user="heilbron" changeset="4808365" lat="48.0763847" lon="11.5186802">
    <tag k="crossing" v="traffic_signals"/>
    <tag k="highway" v="traffic_signals"/>
  </node>
  <node id="519403100" version="1" timestamp="2009-10-03T20:58:44Z" uid="179968" user="Ich_hasse_doitsche_OSM-Korinthenkacker" changeset="2729559" lat="48.0761869" lon="11.5188355">
    <tag k="crossing" v="traffic_signals"/>
    <tag k="highway" v="traffic_signals"/>
  </node>
  <node id="519403104" version="1" timestamp="2009-10-03T20:58:44Z" uid="179968" user="Ich_hasse_doitsche_OSM-Korinthenkacker" changeset="2729559" lat="48.07626" lon="11.5189646">
    <tag k="amenity" v="bicycle_parking"/>
    <tag k="capacity" v="10"/>
    <tag k="name" v="P"/>
  </node>
  <node id="519403106" version="1" timestamp="2009-10-03T20:58:44Z" uid="179968" user="Ich_hasse_doitsche_OSM-Korinthenkacker" changeset="2729559" lat="48.0772282" lon="11.5189863">
    <tag k="name" v="Tengelmann"/>
    <tag k="shop" v="supermarket"/>
  </node>
  <node id="519403106" version="2" timestamp="2011-10-13T08:18:50Z" uid="290680" user="wheelmap_visitor" changeset="9544161" lat="48.0772282" lon="11.5189863">
    <tag k="name" v="Tengelmann"/>
    <tag k="shop" v="supermarket"/>
    <tag k="wheelchair" v="yes"/>
  </node>
  <node id="519403106" version="3" timestamp="2012-01-28T22:35:34Z" uid="12982" user="Michael Schulze" changeset="10525649" lat="48.0772282" lon="11.5189863"/>
  <node id="519403107" version="1" timestamp="2009-10-03T20:58:44Z" uid="179968" user="Ich_hasse_doitsche_OSM-Korinthenkacker" changeset="2729559" lat="48.0770732" lon="11.5186063">
    <tag k="amenity" v="post_box"/>
    <tag k="collection_times" v="Mo-Fr 16:00,17:00; Sa 10:45"/>
    <tag k="operator" v="Deutsche Post"/>
  </node>
  <node id="519403107" version="2" timestamp="2010-05-25T21:18:14Z" uid="78613" user="heilbron" changeset="4808365" lat="48.0770478" lon="11.5185407">
    <tag k="amenity" v="post_box"/>
    <tag k="collection_times" v="Mo-Fr 16:00,17:00; Sa 10:45"/>
    <tag k="operator" v="Deutsche Post"/>
  </node>
  <node id="519403107" version="3" timestamp="2011-09-19T18:06:28Z" uid="162465" user="ckol" changeset="9344982" lat="48.0770478" lon="11.5185407">
    <tag k="amenity" v="post_box"/>
    <tag k="collection_times" v="Mo-Fr 16:00,17:00; Sa 10:45"/>
    <tag k="operator" v="Deutsche Post AG"/>
  </node>
  <node id="519403107" version="4" timestamp="2012-01-28T22:35:31Z" uid="12982" user="Michael Schulze" changeset="10525649" lat="48.0770093" lon="11.5185154">
    <tag k="amenity" v="post_box"/>
    <tag k="brand" v="Deutsche Post"/>
    <tag k="collection_times" v="Mo-Fr 16:00,17:00; Sa 10:45"/>
    <tag k="operator" v="Deutsche Post AG"/>
    <tag k="ref" v="Diefenbachstraße 46, 81479 München"/>
  </node>
  <node id="519403110" version="1" timestamp="2009-10-03T20:58:44Z" uid="179968" user="Ich_hasse_doitsche_OSM-Korinthenkacker" changeset="2729559" lat="48.0779996" lon="11.5181023">
    <tag k="addr:city" v="München"/>
    <tag k="addr:country" v="DE"/>
    <tag k="addr:housenumber" v="4"/>
    <tag k="addr:postcode" v="81479"/>
    <tag k="addr:street" v="Festingstraße"/>
    <tag k="amenity" v="cafe"/>
    <tag k="name" v="Reis"/>
    <tag k="shop" v="bakery"/>
  </node>
  <node id="519403110" version="2" timestamp="2010-05-08T20:58:41Z" uid="36809" user="pfoten_weg_!_" changeset="4643009" lat="48.0779996" lon="11.5181023">
    <tag k="addr:city" v="München"/>
    <tag k="addr:country" v="DE"/>
    <tag k="addr:housenumber" v="4"/>
    <tag k="addr:postcode" v="81479"/>
    <tag k="addr:street" v="Festingstraße"/>
    <tag k="amenity" v="cafe"/>
    <tag k="name" v="Reis"/>
    <tag k="shop" v="bakery"/>
  </node>
  <node id="519403110" version="3" timestamp="2010-05-09T08:38:33Z" uid="145231" user="woodpeck_repair" changeset="4645739" lat="48.0779996" lon="11.5181023">
    <tag k="addr:city" v="München"/>
    <tag k="addr:country" v="DE"/>
    <tag k="addr:housenumber" v="4"/>
    <tag k="addr:postcode" v="81479"/>
    <tag k="addr:street" v="Festingstraße"/>
    <tag k="amenity" v="cafe"/>
    <tag k="name" v="Reis"/>
    <tag k="shop" v="bakery"/>
  </node>
  <node id="519403110" version="4" timestamp="2011-10-13T08:18:52Z" uid="290680" user="wheelmap_visitor" changeset="9544161" lat="48.0779996" lon="11.5181023">
    <tag k="addr:city" v="München"/>
    <tag k="addr:country" v="DE"/>
    <tag k="addr:housenumber" v="4"/>
    <tag k="addr:postcode" v="81479"/>
    <tag k="addr:street" v="Festingstraße"/>
    <tag k="amenity" v="cafe"/>
    <tag k="name" v="Reis"/>
    <tag k="shop" v="bakery"/>
    <tag k="wheelchair" v="yes"/>
  </node>
  <node id="519403110" version="5" timestamp="2011-10-13T08:18:54Z" uid="290680" user="wheelmap_visitor" changeset="9544161" lat="48.0779996" lon="11.5181023">
    <tag k="addr:city" v="München"/>
    <tag k="addr:country" v="DE"/>
    <tag k="addr:housenumber" v="4"/>
    <tag k="addr:postcode" v="81479"/>
    <tag k="addr:street" v="Festingstraße"/>
    <tag k="amenity" v="cafe"/>
    <tag k="name" v="Reis"/>
    <tag k="shop" v="bakery"/>
    <tag k="wheelchair" v="limited"/>
  </node>
  <node id="519403114" version="1" timestamp="2009-10-03T20:58:45Z" uid="179968" user="Ich_hasse_doitsche_OSM-Korinthenkacker" changeset="2729559" lat="48.0805758" lon="11.5165856">
    <tag k="amenity" v="telephone"/>
  </node>
  <node id="519403116" version="1" timestamp="2009-10-03T20:58:45Z" uid="179968" user="Ich_hasse_doitsche_OSM-Korinthenkacker" changeset="2729559" lat="48.0805785" lon="11.51669">
    <tag k="amenity" v="pharmacy"/>
    <tag k="name" v="Johannes Apotheke"/>
    <tag k="operator" v="(unknown)"/>
  </node>
  <node id="519403116" version="2" timestamp="2011-12-25T16:38:28Z" uid="290680" user="wheelmap_visitor" changeset="10197936" lat="48.0805785" lon="11.51669">
    <tag k="amenity" v="pharmacy"/>
    <tag k="name" v="Johannes Apotheke"/>
    <tag k="operator" v="(unknown)"/>
    <tag k="wheelchair" v="no"/>
  </node>
  <node id="519403119" version="1" timestamp="2009-10-03T20:58:45Z" uid="179968" user="Ich_hasse_doitsche_OSM-Korinthenkacker" changeset="2729559" lat="48.0762779" lon="11.5196805">
    <tag k="highway" v="bus_stop"/>
    <tag k="name" v="Bus 134 Stridbeckstraße"/>
    <tag k="ref" v="Stridbeckstraße"/>
  </node>
  <node id="519403119" version="2" timestamp="2010-05-06T17:26:45Z" uid="224490" user="Geo-Tobi" changeset="4623506" lat="48.0762779" lon="11.5196805">
    <tag k="highway" v="bus_stop"/>
    <tag k="name" v="Stridbeckstraße"/>
    <tag k="ref" v="Stridbeckstraße"/>
  </node>
  <node id="519403119" version="3" timestamp="2010-05-09T20:30:23Z" uid="30579" user="Tiramisu" changeset="4653859" lat="48.0762779" lon="11.5196804">
    <tag k="highway" v="bus_stop"/>
    <tag k="name" v="Stridbeckstraße"/>
    <tag k="ref" v="134"/>
  </node>
  <node id="519403119" version="4" timestamp="2010-05-25T21:27:37Z" uid="78613" user="heilbron" changeset="4808365" lat="48.076278" lon="11.5196804">
    <tag k="highway" v="bus_stop"/>
    <tag k="name" v="Stridbeckstraße"/>
    <tag k="ref" v="134"/>
  </node>
  <node id="519403119" version="5" timestamp="2012-01-28T22:35:14Z" uid="12982" user="Michael Schulze" changeset="10525649" lat="48.0763242" lon="11.5198704">
    <tag k="highway" v="bus_stop"/>
    <tag k="name" v="Stridbeckstraße"/>
    <tag k="operator" v="MVG"/>
    <tag k="ref" v="134"/>
    <tag k="shelter" v="yes"/>
  </node>
  <node id="519407316" version="1" timestamp="2009-10-03T21:02:06Z" uid="20587" user="balrog-kun" changeset="2729596" lat="50.3958277" lon="18.9026863"/>
  <node id="519407319" version="1" timestamp="2009-10-03T21:02:06Z" uid="20587" user="balrog-kun" changeset="2729596" lat="50.3960454" lon="18.9036137"/>
  <node id="519407535" version="2" timestamp="2010-08-10T22:07:18Z" uid="9581" user="Lobelt" changeset="5458246" lat="36.0625107" lon="4.7246651"/>
  <node id="519407537" version="2" timestamp="2010-08-10T22:06:48Z" uid="9581" user="Lobelt" changeset="5458246" lat="36.0621982" lon="4.7249734"/>
  <node id="519407618" version="2" timestamp="2010-08-10T22:07:17Z" uid="9581" user="Lobelt" changeset="5458246" lat="36.0492644" lon="4.7762964"/>
  <node id="519407620" version="2" timestamp="2010-08-10T22:06:44Z" uid="9581" user="Lobelt" changeset="5458246" lat="36.049328" lon="4.7767932"/>
  <node id="519408842" version="4" timestamp="2011-01-09T01:14:47Z" uid="49111" user="Markus B" changeset="6911133" lat="36.6882256" lon="23.05494"/>
  <node id="519401028" version="3" timestamp="2012-07-15T12:17:15Z" uid="722137" user="OSMF Redaction Account" changeset="12227661" lat="35.1870885" lon="-0.6603296"/>
  <node id="519401030" version="3" timestamp="2012-07-15T12:17:15Z" uid="722137" user="OSMF Redaction Account" changeset="12227661" lat="35.185996" lon="-0.6597367"/>
  <node id="519402963" version="2" timestamp="2012-04-20T20:30:47Z" uid="437598" user="dmgroom_ct" changeset="11368222" lat="-55.8033402" lon="-66.80759"/>
  <node id="519402966" version="2" timestamp="2012-04-20T20:30:48Z" uid="437598" user="dmgroom_ct" changeset="11368222" lat="-55.8034402" lon="-66.8062199"/>
  <node id="519402968" version="2" timestamp="2012-04-20T20:30:48Z" uid="437598" user="dmgroom_ct" changeset="11368222" lat="-55.8028" lon="-66.80626"/>
  <node id="519402969" version="2" timestamp="2012-04-20T20:30:48Z" uid="437598" user="dmgroom_ct" changeset="11368222" lat="-55.8028201" lon="-66.80762"/>
  <node id="519402970" version="2" timestamp="2012-04-27T00:37:45Z" uid="437598" user="dmgroom_ct" changeset="11429096" lat="81.525993" lon="-91.4561215"/>
  <node id="519402972" version="2" timestamp="2012-04-27T00:37:45Z" uid="437598" user="dmgroom_ct" changeset="11429096" lat="81.5363126" lon="-91.4495523"/>
  <node id="519402974" version="2" timestamp="2012-04-27T00:37:45Z" uid="437598" user="dmgroom_ct" changeset="11429096" lat="81.5324442" lon="-91.4634207"/>
  <node id="519402977" version="2" timestamp="2012-04-27T00:37:45Z" uid="437598" user="dmgroom_ct" changeset="11429096" lat="81.5308319" lon="-91.425465"/>
  <node id="519402980" version="2" timestamp="2012-07-25T10:01:42Z" uid="722137" user="OSMF Redaction Account" changeset="12484507" lat="-84.30762" lon="179.0168698"/>
  <node id="519403012" version="2" timestamp="2012-04-11T18:57:14Z" uid="8748" user="ToniE" changeset="11268768" lat="48.0761464" lon="11.5188691">
    <tag k="barrier" v="bollard"/>
    <tag k="bicycle" v="yes"/>
    <tag k="foot" v="yes"/>
  </node>
  <node id="519403012" version="3" timestamp="2012-07-17T20:28:58Z" uid="722137" user="OSMF Redaction Account" changeset="12271904" lat="48.0761464" lon="11.5188691"/>
  <node id="519403017" version="2" timestamp="2012-07-17T20:28:57Z" uid="722137" user="OSMF Redaction Account" changeset="12271904" lat="48.0755669" lon="11.520266"/>
  <node id="519403027" version="4" timestamp="2012-05-13T12:18:33Z" uid="8703" user="rolandg" changeset="11585265" lat="48.0761226" lon="11.5194984"/>
  <node id="519403031" version="2" timestamp="2012-07-17T20:29:01Z" uid="722137" user="OSMF Redaction Account" changeset="12271904" lat="48.0776248" lon="11.5133104"/>
  <node id="519403044" version="2" timestamp="2012-04-12T09:10:31Z" uid="8748" user="ToniE" changeset="11273990" lat="48.0800634" lon="11.5113466">
    <tag k="amenity" v="recycling"/>
    <tag k="recycling:cans" v="yes"/>
    <tag k="recycling:glass" v="yes"/>
    <tag k="recycling:plastic" v="yes"/>
  </node>
  <node id="519403044" version="3" timestamp="2012-05-05T12:51:05Z" uid="8703" user="rolandg" changeset="11507583" lat="48.0800634" lon="11.5113466"/>
  <node id="519403047" version="5" timestamp="2012-07-17T20:27:02Z" uid="722137" user="OSMF Redaction Account" changeset="12271880" lat="48.0802816" lon="11.511252">
    <tag k="addr:housenumber" v="69, 71"/>
  </node>
  <node id="519403082" version="3" timestamp="2012-07-17T20:29:20Z" uid="722137" user="OSMF Redaction Account" changeset="12271911" lat="48.0855571" lon="11.5116073"/>
  <node id="519403086" version="5" timestamp="2012-05-13T12:18:33Z" uid="8703" user="rolandg" changeset="11585265" lat="48.0763837" lon="11.5191138"/>
  <node id="519403089" version="2" timestamp="2012-04-11T18:57:15Z" uid="8748" user="ToniE" changeset="11268768" lat="48.0763268" lon="11.5185649">
    <tag k="crossing" v="traffic_signals"/>
    <tag k="highway" v="traffic_signals"/>
  </node>
  <node id="519403089" version="3" timestamp="2012-04-11T19:16:11Z" uid="8748" user="ToniE" changeset="11269013" lat="48.0763268" lon="11.5185649">
    <tag k="crossing" v="traffic_signals"/>
    <tag k="highway" v="traffic_signals"/>
    <tag k="odbl" v="clean"/>
  </node>
  <node id="519403089" version="4" timestamp="2012-07-07T22:44:35Z" uid="545896" user="s-o-f" changeset="12144840" lat="48.0763268" lon="11.5185649">
    <tag k="crossing" v="traffic_signals"/>
    <tag k="highway" v="traffic_signals"/>
  </node>
  <node id="519403089" version="5" timestamp="2012-07-17T20:26:57Z" uid="722137" user="OSMF Redaction Account" changeset="12271875" lat="48.0763268" lon="11.5185649"/>
  <node id="519403093" version="2" timestamp="2012-04-11T18:57:15Z" uid="8748" user="ToniE" changeset="11268768" lat="48.076339" lon="11.5189502">
    <tag k="crossing" v="traffic_signals"/>
    <tag k="highway" v="traffic_signals"/>
  </node>
  <node id="519403093" version="3" timestamp="2012-04-11T19:16:11Z" uid="8748" user="ToniE" changeset="11269013" lat="48.076339" lon="11.5189502">
    <tag k="crossing" v="traffic_signals"/>
    <tag k="highway" v="traffic_signals"/>
    <tag k="odbl" v="clean"/>
  </node>
  <node id="519403093" version="4" timestamp="2012-07-07T22:44:35Z" uid="545896" user="s-o-f" changeset="12144840" lat="48.076339" lon="11.5189502">
    <tag k="crossing" v="traffic_signals"/>
    <tag k="highway" v="traffic_signals"/>
  </node>
  <node id="519403093" version="5" timestamp="2012-07-17T20:26:57Z" uid="722137" user="OSMF Redaction Account" changeset="12271875" lat="48.076339" lon="11.5189502"/>
  <node id="519403097" version="3" timestamp="2012-04-11T18:57:15Z" uid="8748" user="ToniE" changeset="11268768" lat="48.0764273" lon="11.5187648">
    <tag k="crossing" v="traffic_signals"/>
    <tag k="highway" v="traffic_signals"/>
  </node>
  <node id="519403097" version="4" timestamp="2012-04-11T19:16:11Z" uid="8748" user="ToniE" changeset="11269013" lat="48.0764273" lon="11.5187648">
    <tag k="crossing" v="traffic_signals"/>
    <tag k="highway" v="traffic_signals"/>
    <tag k="odbl" v="clean"/>
  </node>
  <node id="519403100" version="2" timestamp="2012-04-11T18:57:15Z" uid="8748" user="ToniE" changeset="11268768" lat="48.0762486" lon="11.5187028">
    <tag k="crossing" v="traffic_signals"/>
    <tag k="highway" v="traffic_signals"/>
  </node>
  <node id="519403100" version="3" timestamp="2012-04-11T19:16:11Z" uid="8748" user="ToniE" changeset="11269013" lat="48.0762486" lon="11.5187028">
    <tag k="crossing" v="traffic_signals"/>
    <tag k="highway" v="traffic_signals"/>
    <tag k="odbl" v="clean"/>
  </node>
  <node id="519403104" version="2" timestamp="2012-04-11T18:57:16Z" uid="8748" user="ToniE" changeset="11268768" lat="48.07626" lon="11.5189646">
    <tag k="amenity" v="bicycle_parking"/>
    <tag k="capacity" v="10"/>
  </node>
  <node id="519403104" version="3" timestamp="2012-07-17T20:28:59Z" uid="722137" user="OSMF Redaction Account" changeset="12271904" lat="48.07626" lon="11.5189646"/>
  <node id="519403107" version="5" timestamp="2012-05-13T12:18:32Z" uid="8703" user="rolandg" changeset="11585265" lat="48.0770093" lon="11.5185154"/>
  <node id="519403110" version="6" timestamp="2012-04-28T08:42:08Z" uid="290723" user="sulagaloh" changeset="11438799" lat="48.0779996" lon="11.5181023"/>
  <node id="519403114" version="2" timestamp="2012-06-04T20:00:40Z" uid="8703" user="rolandg" changeset="11800284" lat="48.0805758" lon="11.5165856"/>
  <node id="519403116" version="3" timestamp="2012-06-04T20:00:40Z" uid="8703" user="rolandg" changeset="11800284" lat="48.0805785" lon="11.51669"/>
  <node id="519403119" version="6" timestamp="2012-05-13T12:18:33Z" uid="8703" user="rolandg" changeset="11585265" lat="48.0763242" lon="11.5198704"/>
  <node id="519407535" version="3" timestamp="2012-07-15T11:55:59Z" uid="722137" user="OSMF Redaction Account" changeset="12227238" lat="36.0629011" lon="4.7242465"/>
  <node id="519407535" version="4" timestamp="2012-07-17T19:53:30Z" uid="56658" user="Sandervalya" changeset="12271395" lat="36.0628604" lon="4.7244227"/>
  <node id="519407537" version="3" timestamp="2012-07-15T11:55:58Z" uid="722137" user="OSMF Redaction Account" changeset="12227238" lat="36.0620876" lon="4.7250941"/>
  <node id="519407618" version="3" timestamp="2012-07-15T11:55:44Z" uid="722137" user="OSMF Redaction Account" changeset="12227229" lat="36.0492481" lon="4.7762159"/>
  <node id="519407620" version="3" timestamp="2012-07-15T11:55:44Z" uid="722137" user="OSMF Redaction Account" changeset="12227229" lat="36.0493687" lon="4.7770649"/>
</osm>
