<?xml version='1.0' encoding='UTF-8'?>
<osm version="0.6" generator="libosmium/2.20.0">
  <node id="520388333" version="1" timestamp="2009-10-04T16:57:51Z" uid="36809" user="pfoten_weg_!_" changeset="2739999" lat="46.5055468" lon="11.4956159">
    <tag k="amenity" v="public_building"/>
    <tag k="historic" v="castle"/>
    <tag k="layer" v="2"/>
    <tag k="name" v="Schloss Prösels / Castello Presule"/>
    <tag k="name:de" v="Schloss Prösels"/>
    <tag k="name:en" v="Presule Castle"/>
    <tag k="name:it" v="Castello Presule"/>
  </node>
  <node id="520388333" version="2" timestamp="2009-10-04T17:13:26Z" uid="36809" user="pfoten_weg_!_" changeset="2740230" lat="46.5054181" lon="11.4956821">
    <tag k="amenity" v="public_building"/>
    <tag k="historic" v="castle"/>
    <tag k="layer" v="2"/>
    <tag k="name" v="Schloss Prösels / Castello Presule"/>
    <tag k="name:de" v="Schloss Prösels"/>
    <tag k="name:en" v="Presule Castle"/>
    <tag k="name:it" v="Castello Presule"/>
  </node>
  <node id="520388333" version="3" timestamp="2009-10-04T17:14:21Z" uid="36809" user="pfoten_weg_!_" changeset="2740239" lat="46.5054181" lon="11.4956821">
    <tag k="amenity" v="public_building"/>
    <tag k="historic" v="castle"/>
    <tag k="layer" v="2"/>
    <tag k="name" v="Schloss Prösels / Castello Presule"/>
    <tag k="name:de" v="Schloss Prösels"/>
    <tag k="name:en" v="Presule Castle"/>
    <tag k="name:it" v="Castello Presule"/>
  </node>
</osm>
