<?xml version='1.0' encoding='UTF-8'?>
<osm version="0.6" generator="libosmium/2.20.0">
  <node id="522020889" version="2" timestamp="2010-07-29T08:58:12Z" uid="74617" user="JohnSmith" changeset="5344848" lat="49.4551714" lon="8.5414178">
    <tag k="amenity" v="emergency_phone"/>
    <tag k="emergency" v="phone"/>
    <tag k="operator" v="Autobahnmeisterei"/>
    <tag k="source" v="survey"/>
  </node>
  <node id="522020894" version="2" timestamp="2010-07-29T09:06:16Z" uid="74617" user="JohnSmith" changeset="5344848" lat="49.4553054" lon="8.5418496">
    <tag k="amenity" v="emergency_phone"/>
    <tag k="emergency" v="phone"/>
    <tag k="operator" v="Autobahnmeisterei"/>
    <tag k="source" v="survey"/>
  </node>
  <node id="522020897" version="2" timestamp="2010-07-29T09:18:51Z" uid="74617" user="JohnSmith" changeset="5344848" lat="49.4545321" lon="8.5570981">
    <tag k="amenity" v="emergency_phone"/>
    <tag k="emergency" v="phone"/>
    <tag k="operator" v="Autobahnmeisterei"/>
    <tag k="source" v="survey"/>
  </node>
  <node id="522020900" version="2" timestamp="2010-07-29T09:39:19Z" uid="74617" user="JohnSmith" changeset="5344848" lat="49.4548032" lon="8.5574415">
    <tag k="amenity" v="emergency_phone"/>
    <tag k="emergency" v="phone"/>
    <tag k="operator" v="Autobahnmeisterei"/>
    <tag k="source" v="survey"/>
  </node>
  <node id="522020905" version="2" timestamp="2010-07-29T09:27:59Z" uid="74617" user="JohnSmith" changeset="5344848" lat="49.4576998" lon="8.5487504">
    <tag k="amenity" v="emergency_phone"/>
    <tag k="emergency" v="phone"/>
    <tag k="operator" v="Autobahnmeisterei"/>
    <tag k="source" v="survey"/>
  </node>
  <node id="522020905" version="3" timestamp="2011-01-27T20:30:40Z" uid="6326" user="mike_hd" changeset="7107382" lat="49.4576749" lon="8.5487434">
    <tag k="amenity" v="emergency_phone"/>
    <tag k="emergency" v="phone"/>
    <tag k="operator" v="Autobahnmeisterei"/>
    <tag k="source" v="survey"/>
  </node>
  <node id="522020908" version="2" timestamp="2010-07-29T09:02:51Z" uid="74617" user="JohnSmith" changeset="5344848" lat="49.4579422" lon="8.5490055">
    <tag k="amenity" v="emergency_phone"/>
    <tag k="emergency" v="phone"/>
    <tag k="operator" v="Autobahnmeisterei"/>
    <tag k="source" v="survey"/>
  </node>
  <node id="522020908" version="3" timestamp="2011-01-27T20:30:43Z" uid="6326" user="mike_hd" changeset="7107382" lat="49.457919" lon="8.5490009">
    <tag k="amenity" v="emergency_phone"/>
    <tag k="emergency" v="phone"/>
    <tag k="operator" v="Autobahnmeisterei"/>
    <tag k="source" v="survey"/>
  </node>
  <node id="522020911" version="2" timestamp="2010-07-29T09:41:54Z" uid="74617" user="JohnSmith" changeset="5344848" lat="49.4502856" lon="8.5685658">
    <tag k="amenity" v="emergency_phone"/>
    <tag k="emergency" v="phone"/>
    <tag k="operator" v="Autobahnmeisterei"/>
    <tag k="source" v="survey"/>
  </node>
  <node id="522020917" version="2" timestamp="2010-07-29T09:21:41Z" uid="74617" user="JohnSmith" changeset="5344848" lat="49.4495956" lon="8.5712538">
    <tag k="amenity" v="emergency_phone"/>
    <tag k="emergency" v="phone"/>
    <tag k="operator" v="Autobahnmeisterei"/>
    <tag k="source" v="survey"/>
  </node>
  <node id="522020920" version="2" timestamp="2010-07-29T09:41:37Z" uid="74617" user="JohnSmith" changeset="5344848" lat="49.4961093" lon="8.5567342">
    <tag k="amenity" v="emergency_phone"/>
    <tag k="emergency" v="phone"/>
    <tag k="operator" v="Autobahnmeisterei"/>
    <tag k="source" v="survey"/>
  </node>
  <node id="522020923" version="2" timestamp="2010-07-29T09:34:25Z" uid="74617" user="JohnSmith" changeset="5344848" lat="49.4959665" lon="8.5572445">
    <tag k="amenity" v="emergency_phone"/>
    <tag k="emergency" v="phone"/>
    <tag k="operator" v="Autobahnmeisterei"/>
    <tag k="source" v="survey"/>
  </node>
  <node id="522020923" version="3" timestamp="2011-06-23T20:12:52Z" uid="110838" user="Bernhard W" changeset="8526193" lat="49.4959595" lon="8.5572606">
    <tag k="amenity" v="emergency_phone"/>
    <tag k="emergency" v="phone"/>
    <tag k="operator" v="Autobahnmeisterei"/>
    <tag k="source" v="survey"/>
  </node>
  <node id="522023503" version="2" timestamp="2010-07-29T09:42:31Z" uid="74617" user="JohnSmith" changeset="5344848" lat="49.4351626" lon="8.6037261">
    <tag k="amenity" v="emergency_phone"/>
    <tag k="emergency" v="phone"/>
    <tag k="operator" v="Autobahnmeisterei"/>
    <tag k="source" v="survey"/>
  </node>
  <node id="522023506" version="2" timestamp="2010-07-29T09:19:23Z" uid="74617" user="JohnSmith" changeset="5344848" lat="49.4353668" lon="8.6040205">
    <tag k="amenity" v="emergency_phone"/>
    <tag k="emergency" v="phone"/>
    <tag k="operator" v="Autobahnmeisterei"/>
    <tag k="source" v="survey"/>
  </node>
  <node id="522023506" version="3" timestamp="2011-02-23T05:18:17Z" uid="6326" user="mike_hd" changeset="7369578" lat="49.4353535" lon="8.6040008">
    <tag k="amenity" v="emergency_phone"/>
    <tag k="emergency" v="phone"/>
    <tag k="operator" v="Autobahnmeisterei"/>
    <tag k="source" v="survey"/>
  </node>
  <node id="522023510" version="2" timestamp="2010-07-29T09:00:00Z" uid="74617" user="JohnSmith" changeset="5344848" lat="49.4400482" lon="8.59519">
    <tag k="amenity" v="emergency_phone"/>
    <tag k="emergency" v="phone"/>
    <tag k="operator" v="Autobahnmeisterei"/>
    <tag k="source" v="survey"/>
  </node>
  <node id="522023515" version="2" timestamp="2010-07-29T09:35:29Z" uid="74617" user="JohnSmith" changeset="5344848" lat="49.4402646" lon="8.5954224">
    <tag k="amenity" v="emergency_phone"/>
    <tag k="emergency" v="phone"/>
    <tag k="operator" v="Autobahnmeisterei"/>
    <tag k="source" v="survey"/>
  </node>
  <node id="522023518" version="2" timestamp="2010-03-02T19:24:03Z" uid="9581" user="Lobelt" changeset="4019397" lat="49.4233357" lon="8.6243527">
    <tag k="amenity" v="emergency_phone"/>
    <tag k="operator" v="Autobahnmeisterei"/>
    <tag k="source" v="survey"/>
  </node>
  <node id="522023518" version="3" timestamp="2010-07-29T09:13:20Z" uid="74617" user="JohnSmith" changeset="5344848" lat="49.4233357" lon="8.6243527">
    <tag k="amenity" v="emergency_phone"/>
    <tag k="emergency" v="phone"/>
    <tag k="operator" v="Autobahnmeisterei"/>
    <tag k="source" v="survey"/>
  </node>
  <node id="522023520" version="2" timestamp="2010-03-02T19:24:03Z" uid="9581" user="Lobelt" changeset="4019397" lat="49.4235861" lon="8.624538">
    <tag k="amenity" v="emergency_phone"/>
    <tag k="operator" v="Autobahnmeisterei"/>
    <tag k="source" v="survey"/>
  </node>
  <node id="522023520" version="3" timestamp="2010-07-29T09:17:34Z" uid="74617" user="JohnSmith" changeset="5344848" lat="49.4235861" lon="8.624538">
    <tag k="amenity" v="emergency_phone"/>
    <tag k="emergency" v="phone"/>
    <tag k="operator" v="Autobahnmeisterei"/>
    <tag k="source" v="survey"/>
  </node>
  <node id="522020889" version="3" timestamp="2012-06-30T16:29:38Z" uid="165061" user="mapper999" changeset="12067550" lat="49.4551559" lon="8.5414923">
    <tag k="amenity" v="emergency_phone"/>
    <tag k="emergency" v="phone"/>
    <tag k="operator" v="Autobahnmeisterei"/>
    <tag k="source" v="survey"/>
  </node>
  <node id="522020889" version="4" timestamp="2012-07-17T07:46:11Z" uid="722137" user="OSMF Redaction Account" changeset="12259770" lat="49.4551559" lon="8.5414923">
    <tag k="amenity" v="emergency_phone"/>
    <tag k="operator" v="Autobahnmeisterei"/>
    <tag k="source" v="survey"/>
  </node>
  <node id="522020894" version="3" timestamp="2012-06-30T16:29:38Z" uid="165061" user="mapper999" changeset="12067550" lat="49.4552192" lon="8.5419092">
    <tag k="amenity" v="emergency_phone"/>
    <tag k="emergency" v="phone"/>
    <tag k="operator" v="Autobahnmeisterei"/>
    <tag k="source" v="survey"/>
  </node>
  <node id="522020894" version="4" timestamp="2012-07-17T07:46:11Z" uid="722137" user="OSMF Redaction Account" changeset="12259770" lat="49.4552192" lon="8.5419092">
    <tag k="amenity" v="emergency_phone"/>
    <tag k="operator" v="Autobahnmeisterei"/>
    <tag k="source" v="survey"/>
  </node>
  <node id="522020897" version="3" timestamp="2012-07-17T07:46:11Z" uid="722137" user="OSMF Redaction Account" changeset="12259770" lat="49.4545321" lon="8.5570981">
    <tag k="amenity" v="emergency_phone"/>
    <tag k="operator" v="Autobahnmeisterei"/>
    <tag k="source" v="survey"/>
  </node>
  <node id="522020897" version="4" timestamp="2012-08-28T09:15:53Z" uid="165061" user="mapper999" changeset="12889587" lat="49.4544949" lon="8.5572809">
    <tag k="amenity" v="emergency_phone"/>
    <tag k="operator" v="Autobahnmeisterei"/>
    <tag k="source" v="survey"/>
  </node>
  <node id="522020900" version="3" timestamp="2012-07-17T07:46:11Z" uid="722137" user="OSMF Redaction Account" changeset="12259770" lat="49.4548032" lon="8.5574415">
    <tag k="amenity" v="emergency_phone"/>
    <tag k="operator" v="Autobahnmeisterei"/>
    <tag k="source" v="survey"/>
  </node>
  <node id="522020900" version="4" timestamp="2012-08-28T09:15:53Z" uid="165061" user="mapper999" changeset="12889587" lat="49.4547252" lon="8.5574877">
    <tag k="amenity" v="emergency_phone"/>
    <tag k="operator" v="Autobahnmeisterei"/>
    <tag k="source" v="survey"/>
  </node>
  <node id="522020905" version="4" timestamp="2012-07-01T16:39:11Z" uid="165061" user="mapper999" changeset="12078254" lat="49.457628" lon="8.5488333">
    <tag k="amenity" v="emergency_phone"/>
    <tag k="emergency" v="phone"/>
    <tag k="operator" v="Autobahnmeisterei"/>
    <tag k="source" v="survey"/>
  </node>
  <node id="522020905" version="5" timestamp="2012-07-17T07:46:12Z" uid="722137" user="OSMF Redaction Account" changeset="12259770" lat="49.457628" lon="8.5488333">
    <tag k="amenity" v="emergency_phone"/>
    <tag k="operator" v="Autobahnmeisterei"/>
    <tag k="source" v="survey"/>
  </node>
  <node id="522020908" version="4" timestamp="2012-07-01T16:39:11Z" uid="165061" user="mapper999" changeset="12078254" lat="49.4578834" lon="8.5490444">
    <tag k="amenity" v="emergency_phone"/>
    <tag k="emergency" v="phone"/>
    <tag k="operator" v="Autobahnmeisterei"/>
    <tag k="source" v="survey"/>
  </node>
  <node id="522020908" version="5" timestamp="2012-07-17T07:46:12Z" uid="722137" user="OSMF Redaction Account" changeset="12259770" lat="49.4578834" lon="8.5490444">
    <tag k="amenity" v="emergency_phone"/>
    <tag k="operator" v="Autobahnmeisterei"/>
    <tag k="source" v="survey"/>
  </node>
  <node id="522020911" version="3" timestamp="2012-07-17T07:17:16Z" uid="722137" user="OSMF Redaction Account" changeset="12259265" lat="49.4502856" lon="8.5685658">
    <tag k="amenity" v="emergency_phone"/>
    <tag k="operator" v="Autobahnmeisterei"/>
    <tag k="source" v="survey"/>
  </node>
  <node id="522020911" version="4" timestamp="2012-08-28T09:15:53Z" uid="165061" user="mapper999" changeset="12889587" lat="49.4502084" lon="8.568729">
    <tag k="amenity" v="emergency_phone"/>
    <tag k="operator" v="Autobahnmeisterei"/>
    <tag k="source" v="survey"/>
  </node>
  <node id="522020917" version="3" timestamp="2012-07-17T07:17:16Z" uid="722137" user="OSMF Redaction Account" changeset="12259265" lat="49.4495956" lon="8.5712538">
    <tag k="amenity" v="emergency_phone"/>
    <tag k="operator" v="Autobahnmeisterei"/>
    <tag k="source" v="survey"/>
  </node>
  <node id="522020917" version="4" timestamp="2012-08-28T09:15:53Z" uid="165061" user="mapper999" changeset="12889587" lat="49.4495578" lon="8.5714117">
    <tag k="amenity" v="emergency_phone"/>
    <tag k="operator" v="Autobahnmeisterei"/>
    <tag k="source" v="survey"/>
  </node>
  <node id="522020920" version="3" timestamp="2012-07-17T07:46:17Z" uid="722137" user="OSMF Redaction Account" changeset="12259770" lat="49.4961093" lon="8.5567342">
    <tag k="amenity" v="emergency_phone"/>
    <tag k="operator" v="Autobahnmeisterei"/>
    <tag k="source" v="survey"/>
  </node>
  <node id="522020923" version="4" timestamp="2012-07-17T07:46:17Z" uid="722137" user="OSMF Redaction Account" changeset="12259770" lat="49.4959595" lon="8.5572606">
    <tag k="amenity" v="emergency_phone"/>
    <tag k="operator" v="Autobahnmeisterei"/>
    <tag k="source" v="survey"/>
  </node>
  <node id="522023503" version="3" timestamp="2012-07-17T07:17:11Z" uid="722137" user="OSMF Redaction Account" changeset="12259265" lat="49.4351626" lon="8.6037261">
    <tag k="amenity" v="emergency_phone"/>
    <tag k="operator" v="Autobahnmeisterei"/>
    <tag k="source" v="survey"/>
  </node>
  <node id="522023506" version="4" timestamp="2012-07-17T07:17:12Z" uid="722137" user="OSMF Redaction Account" changeset="12259265" lat="49.4353535" lon="8.6040008">
    <tag k="amenity" v="emergency_phone"/>
    <tag k="operator" v="Autobahnmeisterei"/>
    <tag k="source" v="survey"/>
  </node>
  <node id="522023510" version="3" timestamp="2012-07-17T07:17:13Z" uid="722137" user="OSMF Redaction Account" changeset="12259265" lat="49.4400482" lon="8.59519">
    <tag k="amenity" v="emergency_phone"/>
    <tag k="operator" v="Autobahnmeisterei"/>
    <tag k="source" v="survey"/>
  </node>
  <node id="522023515" version="3" timestamp="2012-07-17T07:17:13Z" uid="722137" user="OSMF Redaction Account" changeset="12259265" lat="49.4402646" lon="8.5954224">
    <tag k="amenity" v="emergency_phone"/>
    <tag k="operator" v="Autobahnmeisterei"/>
    <tag k="source" v="survey"/>
  </node>
  <node id="522023518" version="4" timestamp="2012-07-17T07:17:10Z" uid="722137" user="OSMF Redaction Account" changeset="12259265" lat="49.4233651" lon="8.6243011">
    <tag k="amenity" v="emergency_phone"/>
    <tag k="operator" v="Autobahnmeisterei"/>
    <tag k="source" v="survey"/>
  </node>
  <node id="522023520" version="4" timestamp="2012-07-17T07:17:11Z" uid="722137" user="OSMF Redaction Account" changeset="12259265" lat="49.423563" lon="8.6246347">
    <tag k="amenity" v="emergency_phone"/>
    <tag k="operator" v="Autobahnmeisterei"/>
    <tag k="source" v="survey"/>
  </node>
</osm>
