<?xml version='1.0' encoding='UTF-8'?>
<osm version="0.6" generator="libosmium/2.20.0">
  <node id="522462629" version="2" timestamp="2009-11-09T09:55:24Z" uid="74617" user="JohnSmith" changeset="3071870" lat="-27.6350313" lon="152.8656673">
    <tag k="highway" v="turning_circle"/>
  </node>
  <node id="522462631" version="2" timestamp="2009-11-09T09:55:24Z" uid="74617" user="JohnSmith" changeset="3071870" lat="-27.6345828" lon="152.865357"/>
  <node id="522462633" version="2" timestamp="2009-11-09T09:55:24Z" uid="74617" user="JohnSmith" changeset="3071870" lat="-27.634521" lon="152.8653663"/>
  <node id="522462635" version="2" timestamp="2009-11-09T09:55:24Z" uid="74617" user="JohnSmith" changeset="3071870" lat="-27.6333282" lon="152.8642794"/>
  <node id="522462641" version="2" timestamp="2009-11-09T09:55:24Z" uid="74617" user="JohnSmith" changeset="3071870" lat="-27.6342061" lon="152.8644284">
    <tag k="highway" v="turning_circle"/>
  </node>
  <node id="522462642" version="2" timestamp="2009-11-09T09:55:24Z" uid="74617" user="JohnSmith" changeset="3071870" lat="-27.6339516" lon="152.8648116"/>
  <node id="522462649" version="2" timestamp="2009-11-09T09:55:24Z" uid="74617" user="JohnSmith" changeset="3071870" lat="-27.6354907" lon="152.8646658"/>
  <node id="522467547" version="1" timestamp="2009-10-06T07:55:27Z" uid="115477" user="wowik" changeset="2758026" lat="55.9451279" lon="37.1956369">
    <tag k="addr:country" v="RU"/>
    <tag k="addr:district" v="Солнечногорский район"/>
    <tag k="addr:postcode" v="141544"/>
    <tag k="addr:region" v="Московская область"/>
    <tag k="cladr:code" v="5003300012614154"/>
    <tag k="cladr:name" v="Рузино"/>
    <tag k="cladr:suffix" v="Деревня"/>
    <tag k="name" v="Рузино-Гора"/>
    <tag k="name:en" v="Ruzino-Gora"/>
    <tag k="place" v="hamlet"/>
  </node>
  <node id="522467547" version="2" timestamp="2009-10-08T16:38:02Z" uid="115477" user="wowik" changeset="2784985" lat="55.9451323" lon="37.1956337">
    <tag k="addr:country" v="RU"/>
    <tag k="addr:district" v="Солнечногорский район"/>
    <tag k="addr:postcode" v="141544"/>
    <tag k="addr:region" v="Московская область"/>
    <tag k="cladr:code" v="5003300012614154"/>
    <tag k="cladr:name" v="Рузино-Гора"/>
    <tag k="cladr:suffix" v="Деревня"/>
    <tag k="name" v="Рузино-Гора"/>
    <tag k="name:en" v="Ruzino-Gora"/>
    <tag k="place" v="hamlet"/>
  </node>
  <node id="522467547" version="3" timestamp="2009-10-08T16:38:36Z" uid="115477" user="wowik" changeset="2784985" lat="55.9451323" lon="37.1956337">
    <tag k="addr:country" v="RU"/>
    <tag k="addr:district" v="Солнечногорский район"/>
    <tag k="addr:postcode" v="141544"/>
    <tag k="addr:region" v="Московская область"/>
    <tag k="cladr:code" v="5003300012600"/>
    <tag k="cladr:name" v="Рузино-Гора"/>
    <tag k="cladr:suffix" v="Деревня"/>
    <tag k="name" v="Рузино-Гора"/>
    <tag k="name:en" v="Ruzino-Gora"/>
    <tag k="place" v="hamlet"/>
  </node>
  <node id="522467547" version="4" timestamp="2010-04-15T15:45:01Z" uid="115477" user="wowik" changeset="4431814" lat="55.9451323" lon="37.1956336">
    <tag k="addr:country" v="RU"/>
    <tag k="addr:district" v="Солнечногорский район"/>
    <tag k="addr:postcode" v="141544"/>
    <tag k="addr:region" v="Московская область"/>
    <tag k="cladr:code" v="5003300012600"/>
    <tag k="cladr:name" v="Рузино-Гора"/>
    <tag k="cladr:suffix" v="Деревня"/>
    <tag k="name" v="Рузино-Гора"/>
    <tag k="name:en" v="Ruzino-Gora"/>
    <tag k="old_name" v="Покровское"/>
    <tag k="place" v="hamlet"/>
  </node>
  <node id="522467547" version="5" timestamp="2010-06-05T07:39:12Z" uid="94786" user="glebius" changeset="4906401" lat="55.9451323" lon="37.1956336">
    <tag k="addr:country" v="RU"/>
    <tag k="addr:district" v="Солнечногорский район"/>
    <tag k="addr:postcode" v="141544"/>
    <tag k="addr:region" v="Московская область"/>
    <tag k="cladr:code" v="5003300012600"/>
    <tag k="cladr:name" v="Рузино-Гора"/>
    <tag k="cladr:suffix" v="Деревня"/>
    <tag k="name" v="Рузино-Гора"/>
    <tag k="name:en" v="Ruzino-Gora"/>
    <tag k="name:ru" v="Рузино-Гора"/>
    <tag k="old_name" v="Покровское"/>
    <tag k="place" v="hamlet"/>
  </node>
  <node id="522467547" version="6" timestamp="2010-11-13T06:16:06Z" uid="313900" user="Stud555" changeset="6355995" lat="55.9451323" lon="37.1956336">
    <tag k="addr:country" v="RU"/>
    <tag k="addr:district" v="Истринский район"/>
    <tag k="addr:postcode" v="141544"/>
    <tag k="addr:region" v="Московская область"/>
    <tag k="cladr:code" v="5003300012600"/>
    <tag k="cladr:name" v="Рузино-Гора"/>
    <tag k="cladr:suffix" v="Деревня"/>
    <tag k="name" v="Рузино-Гора"/>
    <tag k="name:en" v="Ruzino-Gora"/>
    <tag k="name:ru" v="Рузино-Гора"/>
    <tag k="old_name" v="Покровское"/>
    <tag k="place" v="hamlet"/>
  </node>
  <node id="522467547" version="7" timestamp="2011-04-20T07:13:37Z" uid="115477" user="wowik" changeset="7913410" lat="55.9451323" lon="37.1956336">
    <tag k="addr:country" v="RU"/>
    <tag k="addr:district" v="Солнечногорский район"/>
    <tag k="addr:postcode" v="141544"/>
    <tag k="addr:region" v="Московская область"/>
    <tag k="cladr:code" v="5003300012600"/>
    <tag k="cladr:name" v="Рузино-Гора"/>
    <tag k="cladr:suffix" v="Деревня"/>
    <tag k="name" v="Рузино-Гора"/>
    <tag k="name:en" v="Ruzino-Gora"/>
    <tag k="name:ru" v="Рузино-Гора"/>
    <tag k="old_name" v="Покровское"/>
    <tag k="place" v="hamlet"/>
  </node>
  <node id="522467547" version="8" timestamp="2011-08-26T20:08:18Z" uid="12494" user="Aleksandr Dezhin" changeset="9132737" lat="55.9451323" lon="37.1956336"/>
  <node id="522462629" version="3" timestamp="2012-07-19T21:50:23Z" uid="722137" user="OSMF Redaction Account" changeset="12349144" lat="-27.6350067" lon="152.8657406"/>
  <node id="522462629" version="4" timestamp="2012-07-26T02:16:55Z" uid="77590" user="Hendrik75" changeset="12493920" lat="-27.6349422" lon="152.8656622">
    <tag k="highway" v="turning_circle"/>
  </node>
  <node id="522462631" version="3" timestamp="2012-07-19T21:50:23Z" uid="722137" user="OSMF Redaction Account" changeset="12349144" lat="-27.6346007" lon="152.8653797"/>
  <node id="522462633" version="3" timestamp="2012-07-19T21:50:23Z" uid="722137" user="OSMF Redaction Account" changeset="12349144" lat="-27.6344897" lon="152.8653486"/>
  <node id="522462635" version="3" timestamp="2012-07-19T21:50:24Z" uid="722137" user="OSMF Redaction Account" changeset="12349144" lat="-27.6333148" lon="152.8642895"/>
  <node id="522462641" version="3" timestamp="2012-07-19T21:50:24Z" uid="722137" user="OSMF Redaction Account" changeset="12349144" lat="-27.6342061" lon="152.8644284"/>
  <node id="522462641" version="4" timestamp="2012-07-26T02:16:55Z" uid="77590" user="Hendrik75" changeset="12493920" lat="-27.6342061" lon="152.8644284">
    <tag k="highway" v="turning_circle"/>
  </node>
  <node id="522462642" version="3" timestamp="2012-07-19T21:50:24Z" uid="722137" user="OSMF Redaction Account" changeset="12349144" lat="-27.6339247" lon="152.8648394"/>
  <node id="522462649" version="3" timestamp="2012-06-02T21:11:37Z" uid="77590" user="Hendrik75" changeset="11781001" lat="-27.6354907" lon="152.8646658"/>
</osm>
