<?xml version='1.0' encoding='UTF-8'?>
<osm version="0.6" generator="libosmium/2.20.0">
  <node id="522585829" version="1" timestamp="2009-10-06T09:28:53Z" uid="115477" user="wowik" changeset="2758765" lat="55.8941523" lon="37.1824776">
    <tag k="amenity" v="place_of_worship"/>
    <tag k="denomination" v="orthodox"/>
    <tag k="name" v="Церковь Иоанна Златоуста"/>
    <tag k="religion" v="christian"/>
  </node>
  <node id="522585829" version="2" timestamp="2012-01-26T21:14:46Z" uid="384084" user="Kostik" changeset="10507299" lat="55.8941523" lon="37.1824776">
    <tag k="amenity" v="place_of_worship"/>
    <tag k="denomination" v="orthodox"/>
    <tag k="name" v="Церковь Иоанна Златоуста"/>
    <tag k="religion" v="christian"/>
  </node>
  <node id="522585836" version="1" timestamp="2009-10-06T09:28:53Z" uid="115477" user="wowik" changeset="2758765" lat="55.9165202" lon="37.1144997">
    <tag k="amenity" v="place_of_worship"/>
    <tag k="denomination" v="orthodox"/>
    <tag k="name" v="Церковь Рождества Пресвятой Богородицы"/>
    <tag k="religion" v="christian"/>
  </node>
  <node id="522585836" version="2" timestamp="2012-01-26T21:14:52Z" uid="384084" user="Kostik" changeset="10507299" lat="55.9165202" lon="37.1144997">
    <tag k="amenity" v="place_of_worship"/>
    <tag k="denomination" v="orthodox"/>
    <tag k="name" v="Церковь Рождества Пресвятой Богородицы"/>
    <tag k="religion" v="christian"/>
  </node>
  <node id="522585829" version="3" timestamp="2012-07-20T23:57:46Z" uid="722137" user="OSMF Redaction Account" changeset="12396639" lat="55.8941523" lon="37.1824776"/>
  <node id="522585836" version="3" timestamp="2012-07-21T01:11:46Z" uid="722137" user="OSMF Redaction Account" changeset="12397761" lat="55.9165202" lon="37.1144997"/>
</osm>
