<?xml version='1.0' encoding='UTF-8'?>
<osm version="0.6" generator="libosmium/2.20.0">
  <node id="525689479" version="1" timestamp="2009-10-08T14:01:33Z" uid="115477" user="wowik" changeset="2783181" lat="55.9920692" lon="37.0488868">
    <tag k="addr:country" v="RU"/>
    <tag k="addr:district" v="Солнечногорский район"/>
    <tag k="addr:postcode" v="141551"/>
    <tag k="addr:region" v="Московская область"/>
    <tag k="alt_name" v="Старых Большевиков"/>
    <tag k="cladr:suffix" v="Поселок"/>
    <tag k="name" v="Дачи Старых Большевиков"/>
    <tag k="place" v="hamlet"/>
  </node>
  <node id="525689479" version="2" timestamp="2010-04-14T04:43:04Z" uid="115477" user="wowik" changeset="4419478" lat="55.9941286" lon="37.0488929">
    <tag k="addr:country" v="RU"/>
    <tag k="addr:district" v="Солнечногорский район"/>
    <tag k="addr:postcode" v="141551"/>
    <tag k="addr:region" v="Московская область"/>
    <tag k="alt_name" v="Старых Большевиков"/>
    <tag k="cladr:suffix" v="Поселок"/>
    <tag k="name" v="Дачи Старых Большевиков"/>
    <tag k="place" v="hamlet"/>
  </node>
  <node id="525689479" version="3" timestamp="2010-04-20T04:37:54Z" uid="30590" user="KekcuHa" changeset="4474298" lat="55.9941286" lon="37.0488929">
    <tag k="addr:country" v="RU"/>
    <tag k="addr:district" v="Солнечногорский район"/>
    <tag k="addr:postcode" v="141551"/>
    <tag k="addr:region" v="Московская область"/>
    <tag k="alt_name" v="Старых Большевиков"/>
    <tag k="cladr:code" v="5003300025300"/>
    <tag k="cladr:name" v="Дачи Старых Большевиков"/>
    <tag k="cladr:suffix" v="Поселок"/>
    <tag k="name" v="Дачи Старых Большевиков"/>
    <tag k="place" v="hamlet"/>
  </node>
  <node id="525689479" version="4" timestamp="2010-11-13T06:15:10Z" uid="313900" user="Stud555" changeset="6355995" lat="55.9941286" lon="37.0488929">
    <tag k="addr:country" v="RU"/>
    <tag k="addr:district" v="Истринский район"/>
    <tag k="addr:postcode" v="141551"/>
    <tag k="addr:region" v="Московская область"/>
    <tag k="alt_name" v="Старых Большевиков"/>
    <tag k="cladr:code" v="5003300025300"/>
    <tag k="cladr:name" v="Дачи Старых Большевиков"/>
    <tag k="cladr:suffix" v="Поселок"/>
    <tag k="name" v="Дачи Старых Большевиков"/>
    <tag k="place" v="hamlet"/>
  </node>
  <node id="525689479" version="5" timestamp="2011-08-07T17:15:06Z" uid="297358" user="patashnik" changeset="8949329" lat="55.9941286" lon="37.0488929">
    <tag k="addr:country" v="RU"/>
    <tag k="addr:district" v="Истринский район"/>
    <tag k="addr:region" v="Московская область"/>
    <tag k="alt_name" v="Старых Большевиков"/>
    <tag k="cladr:code" v="5003300025300"/>
    <tag k="name" v="Дачи Старых Большевиков"/>
    <tag k="place" v="hamlet"/>
  </node>
  <node id="525689479" version="6" timestamp="2011-12-30T16:21:46Z" uid="397326" user="trolleway" changeset="10246809" lat="55.9941286" lon="37.0488929"/>
  <node id="525689540" version="1" timestamp="2009-10-08T14:01:36Z" uid="115477" user="wowik" changeset="2783181" lat="55.994239" lon="37.0475135">
    <tag k="name" v="Жилино"/>
    <tag k="railway" v="station"/>
  </node>
  <node id="525689540" version="2" timestamp="2009-10-08T14:18:00Z" uid="115477" user="wowik" changeset="2783181" lat="55.994239" lon="37.0475135">
    <tag k="name" v="Жилино"/>
    <tag k="railway" v="platform"/>
  </node>
  <node id="525689540" version="3" timestamp="2009-10-08T14:19:46Z" uid="115477" user="wowik" changeset="2783181" lat="55.994239" lon="37.0475135">
    <tag k="name" v="Жилино"/>
    <tag k="railway" v="station"/>
  </node>
  <node id="525689540" version="4" timestamp="2009-10-08T14:21:52Z" uid="115477" user="wowik" changeset="2783181" lat="55.994239" lon="37.0475135">
    <tag k="name" v="Жилино"/>
    <tag k="railway" v="halt"/>
  </node>
  <node id="525689540" version="5" timestamp="2010-04-09T21:02:12Z" uid="200618" user="gps-Max" changeset="4377540" lat="55.9945168" lon="37.0475512">
    <tag k="name" v="Жилино"/>
    <tag k="railway" v="halt"/>
  </node>
  <node id="525689807" version="1" timestamp="2009-10-08T14:01:50Z" uid="115477" user="wowik" changeset="2783181" lat="55.9882842" lon="37.0510556"/>
  <node id="525689807" version="2" timestamp="2012-03-21T23:33:10Z" uid="336354" user="esaulenka" changeset="11058020" lat="55.9882899" lon="37.0510094"/>
  <node id="525689540" version="6" timestamp="2012-04-17T08:00:17Z" uid="39086" user="AlexeyS" changeset="11329972" lat="55.9945168" lon="37.0475512"/>
</osm>
