<?xml version='1.0' encoding='UTF-8'?>
<osm version="0.6" generator="libosmium/2.20.0">
  <node id="52716603" version="2" timestamp="2010-04-27T20:32:34Z" uid="9581" user="Lobelt" changeset="4544757" lat="49.5693701" lon="8.6815777"/>
  <node id="52716603" version="3" timestamp="2010-05-10T08:47:25Z" uid="42918" user="sco" changeset="4657048" lat="49.5694704" lon="8.6815959"/>
  <node id="52718753" version="5" timestamp="2010-12-01T17:31:57Z" uid="6269" user="Mueck" changeset="6505965" lat="48.9943413" lon="8.4025733">
    <tag k="amenity" v="bicycle_parking"/>
    <tag k="fee" v="yes"/>
    <tag k="name" v="Fahrradstation am Hauptbahnhof Karlsruhe"/>
    <tag k="parking" v="underground"/>
  </node>
  <node id="52718753" version="6" timestamp="2011-03-20T11:08:41Z" uid="165061" user="keinname" changeset="7615064" lat="48.9943413" lon="8.4025733">
    <tag k="amenity" v="bicycle_parking"/>
    <tag k="covered" v="yes"/>
    <tag k="fee" v="yes"/>
    <tag k="name" v="Fahrradstation am Hauptbahnhof Karlsruhe"/>
    <tag k="parking" v="underground"/>
    <tag k="surveillance" v="indoor"/>
  </node>
  <node id="52718753" version="7" timestamp="2012-07-20T09:36:38Z" uid="722137" user="OSMF Redaction Account" changeset="12370059" lat="48.9943334" lon="8.402588">
    <tag k="amenity" v="bicycle_parking"/>
    <tag k="covered" v="yes"/>
    <tag k="fee" v="yes"/>
    <tag k="name" v="Fahrradstation am Hauptbahnhof Karlsruhe"/>
    <tag k="parking" v="underground"/>
    <tag k="surveillance" v="indoor"/>
  </node>
  <node id="52718753" version="8" timestamp="2012-07-20T15:30:00Z" uid="42208" user="JanTH" changeset="12377388" lat="48.9943288" lon="8.402568">
    <tag k="amenity" v="bicycle_parking"/>
    <tag k="covered" v="yes"/>
    <tag k="fee" v="yes"/>
    <tag k="name" v="Fahrradstation am Hauptbahnhof Karlsruhe"/>
    <tag k="parking" v="underground"/>
    <tag k="surveillance" v="indoor"/>
  </node>
</osm>
