<?xml version='1.0' encoding='UTF-8'?>
<osm version="0.6" generator="libosmium/2.20.0">
  <node id="527192700" version="1" timestamp="2009-10-09T14:55:41Z" uid="115477" user="wowik" changeset="2794871" lat="67.97656" lon="35.0788895">
    <tag k="is_in" v="Ловозерецкий район"/>
    <tag k="name" v="Семерка"/>
    <tag k="place" v="hamlet"/>
  </node>
  <node id="527192700" version="2" timestamp="2009-10-20T16:40:58Z" uid="128534" user="greencaps" changeset="2904926" lat="67.97656" lon="35.0788895">
    <tag k="is_in" v="Ловозерецкий район"/>
    <tag k="name" v="Семерка"/>
    <tag k="name:en" v="Semerka"/>
    <tag k="place" v="hamlet"/>
  </node>
  <node id="527192700" version="3" timestamp="2010-06-05T07:39:17Z" uid="94786" user="glebius" changeset="4906401" lat="67.97656" lon="35.0788895">
    <tag k="is_in" v="Ловозерецкий район"/>
    <tag k="name" v="Семерка"/>
    <tag k="name:en" v="Semerka"/>
    <tag k="name:ru" v="Семерка"/>
    <tag k="place" v="hamlet"/>
  </node>
  <node id="527192700" version="4" timestamp="2012-02-13T21:44:34Z" uid="384084" user="Kostik" changeset="10678102" lat="67.9760228" lon="35.0789546">
    <tag k="is_in" v="Ловозерецкий район"/>
    <tag k="name" v="Семерка"/>
    <tag k="name:en" v="Semerka"/>
    <tag k="name:ru" v="Семерка"/>
    <tag k="place" v="locality"/>
  </node>
  <node id="527192700" version="5" timestamp="2012-03-19T23:25:26Z" uid="36214" user="Dmitry Terentiev" changeset="11036258" lat="67.9760228" lon="35.0789546"/>
</osm>
