<?xml version='1.0' encoding='UTF-8'?>
<osm version="0.6" generator="libosmium/2.20.0">
  <node id="52762981" version="5" timestamp="2009-09-29T00:57:35Z" uid="36809" user="pfoten_weg_!_" changeset="2671973" lat="48.0709219" lon="11.3684666"/>
  <node id="52762981" version="6" timestamp="2012-01-21T17:06:51Z" uid="482628" user="gumul" changeset="10457517" lat="48.0709721" lon="11.368477"/>
  <node id="52762985" version="2" timestamp="2009-10-12T21:56:08Z" uid="36809" user="pfoten_weg_!_" changeset="2831291" lat="48.0708166" lon="11.3655273"/>
  <node id="52762991" version="2" timestamp="2009-10-12T21:56:07Z" uid="36809" user="pfoten_weg_!_" changeset="2831291" lat="48.0704476" lon="11.364734"/>
  <node id="52762991" version="3" timestamp="2011-11-15T08:03:07Z" uid="482628" user="gumul" changeset="9832445" lat="48.0705282" lon="11.3648061"/>
  <node id="52763000" version="4" timestamp="2009-10-12T21:56:07Z" uid="36809" user="pfoten_weg_!_" changeset="2831291" lat="48.0697064" lon="11.363658"/>
  <node id="52763003" version="6" timestamp="2009-09-29T00:55:30Z" uid="36809" user="pfoten_weg_!_" changeset="2671973" lat="48.0701423" lon="11.3582911"/>
  <node id="52763005" version="2" timestamp="2009-10-12T21:56:00Z" uid="36809" user="pfoten_weg_!_" changeset="2831291" lat="48.0706311" lon="11.3576282"/>
  <node id="52763007" version="7" timestamp="2009-09-29T00:55:40Z" uid="36809" user="pfoten_weg_!_" changeset="2671973" lat="48.0724488" lon="11.3560834"/>
  <node id="52766443" version="9" timestamp="2009-09-29T01:01:50Z" uid="36809" user="pfoten_weg_!_" changeset="2671973" lat="48.078195" lon="11.3489079"/>
  <node id="52766443" version="10" timestamp="2011-01-23T22:27:32Z" uid="42393" user="mawi42" changeset="7068060" lat="48.0782242" lon="11.3489067"/>
  <node id="52766445" version="7" timestamp="2009-09-29T00:55:37Z" uid="36809" user="pfoten_weg_!_" changeset="2671973" lat="48.075775" lon="11.3520236"/>
  <node id="52766702" version="2" timestamp="2011-05-08T11:01:55Z" uid="9581" user="Lobelt" changeset="8081341" lat="49.7654592" lon="7.8323977"/>
  <node id="52766702" version="3" timestamp="2012-02-08T01:42:47Z" uid="328555" user="peb12345" changeset="10619211" lat="49.7654592" lon="7.8323977"/>
  <node id="52766709" version="2" timestamp="2011-05-08T11:01:25Z" uid="9581" user="Lobelt" changeset="8081341" lat="49.7655075" lon="7.832331"/>
  <node id="52766709" version="3" timestamp="2012-02-08T01:42:47Z" uid="328555" user="peb12345" changeset="10619211" lat="49.7655075" lon="7.832331"/>
  <node id="52766715" version="2" timestamp="2011-05-08T11:02:18Z" uid="9581" user="Lobelt" changeset="8081341" lat="49.7655534" lon="7.8322736"/>
  <node id="52766715" version="3" timestamp="2012-02-08T01:42:47Z" uid="328555" user="peb12345" changeset="10619211" lat="49.7655534" lon="7.8322736"/>
  <node id="52766724" version="2" timestamp="2011-05-08T11:02:37Z" uid="9581" user="Lobelt" changeset="8081341" lat="49.7655948" lon="7.8322092"/>
  <node id="52766724" version="3" timestamp="2012-02-08T01:42:47Z" uid="328555" user="peb12345" changeset="10619211" lat="49.7655948" lon="7.8322092"/>
  <node id="52766730" version="2" timestamp="2011-05-08T11:01:59Z" uid="9581" user="Lobelt" changeset="8081341" lat="49.7656591" lon="7.8321449"/>
  <node id="52766730" version="3" timestamp="2012-02-08T01:42:47Z" uid="328555" user="peb12345" changeset="10619211" lat="49.7656591" lon="7.8321449"/>
  <node id="52766744" version="2" timestamp="2011-05-08T11:02:15Z" uid="9581" user="Lobelt" changeset="8081341" lat="49.7657212" lon="7.8320713"/>
  <node id="52766744" version="3" timestamp="2012-02-08T01:42:47Z" uid="328555" user="peb12345" changeset="10619211" lat="49.7657212" lon="7.8320713"/>
  <node id="52766755" version="2" timestamp="2011-05-08T11:01:17Z" uid="9581" user="Lobelt" changeset="8081341" lat="49.7658085" lon="7.8319702"/>
  <node id="52766755" version="3" timestamp="2012-02-08T01:42:48Z" uid="328555" user="peb12345" changeset="10619211" lat="49.7658085" lon="7.8319702"/>
  <node id="52766784" version="2" timestamp="2011-05-08T11:02:09Z" uid="9581" user="Lobelt" changeset="8081341" lat="49.7658775" lon="7.8318852"/>
  <node id="52766784" version="3" timestamp="2012-02-08T01:42:48Z" uid="328555" user="peb12345" changeset="10619211" lat="49.7658775" lon="7.8318852"/>
  <node id="52766788" version="2" timestamp="2011-05-08T11:01:19Z" uid="9581" user="Lobelt" changeset="8081341" lat="49.7659372" lon="7.8318047"/>
  <node id="52766788" version="3" timestamp="2012-02-08T01:42:48Z" uid="328555" user="peb12345" changeset="10619211" lat="49.7659372" lon="7.8318047"/>
  <node id="52766792" version="2" timestamp="2011-05-08T11:01:52Z" uid="9581" user="Lobelt" changeset="8081341" lat="49.7659924" lon="7.8317358"/>
  <node id="52766792" version="3" timestamp="2012-02-08T01:42:48Z" uid="328555" user="peb12345" changeset="10619211" lat="49.7659924" lon="7.8317358"/>
  <node id="52766796" version="2" timestamp="2011-05-08T11:02:19Z" uid="9581" user="Lobelt" changeset="8081341" lat="49.7660384" lon="7.8316622"/>
  <node id="52766796" version="3" timestamp="2012-02-08T01:42:48Z" uid="328555" user="peb12345" changeset="10619211" lat="49.7660384" lon="7.8316622"/>
  <node id="52766801" version="2" timestamp="2011-05-08T11:01:45Z" uid="9581" user="Lobelt" changeset="8081341" lat="49.7661126" lon="7.8315239"/>
  <node id="52766801" version="3" timestamp="2012-02-18T00:35:24Z" uid="328555" user="peb12345" changeset="10716387" lat="49.7661126" lon="7.8315239"/>
  <node id="52766804" version="2" timestamp="2011-05-08T11:02:03Z" uid="9581" user="Lobelt" changeset="8081341" lat="49.7661625" lon="7.8314227"/>
  <node id="52766804" version="3" timestamp="2012-02-18T00:35:24Z" uid="328555" user="peb12345" changeset="10716387" lat="49.7661625" lon="7.8314227"/>
  <node id="52766810" version="3" timestamp="2011-05-08T11:01:38Z" uid="9581" user="Lobelt" changeset="8081341" lat="49.7661857" lon="7.8313666"/>
  <node id="52766810" version="4" timestamp="2012-02-18T00:35:24Z" uid="328555" user="peb12345" changeset="10716387" lat="49.7661857" lon="7.8313666"/>
  <node id="52767143" version="3" timestamp="2009-10-12T21:56:36Z" uid="36809" user="pfoten_weg_!_" changeset="2831291" lat="48.0777514" lon="11.3437689">
    <tag k="name" v="Pentenried"/>
    <tag k="place" v="village"/>
  </node>
  <node id="52767143" version="4" timestamp="2010-10-08T11:14:20Z" uid="42393" user="mawi42" changeset="5985125" lat="48.0777515" lon="11.3437689">
    <tag k="is_in" v="Krailling"/>
    <tag k="name" v="Pentenried"/>
    <tag k="place" v="village"/>
    <tag k="postal_code" v="82349"/>
  </node>
  <node id="52767143" version="5" timestamp="2010-12-02T06:50:54Z" uid="140803" user="ThomasStr" changeset="6511489" lat="48.0777515" lon="11.3437689">
    <tag k="is_in" v="Krailling,Starnberg,Oberbayern,Bayern,Bundesrepublik Deutschland,Europe"/>
    <tag k="name" v="Pentenried"/>
    <tag k="place" v="village"/>
    <tag k="postal_code" v="82349"/>
  </node>
  <node id="52767143" version="6" timestamp="2011-02-19T10:05:27Z" uid="7596" user="ck3d" changeset="7329924" lat="48.0777515" lon="11.3437689">
    <tag k="is_in" v="Krailling,Starnberg,Oberbayern,Bayern,Bundesrepublik Deutschland,Europe"/>
    <tag k="name" v="Pentenried"/>
    <tag k="place" v="hamlet"/>
    <tag k="postal_code" v="82349"/>
  </node>
  <node id="52768803" version="3" timestamp="2009-09-30T13:36:51Z" uid="36809" user="pfoten_weg_!_" changeset="2688655" lat="48.2063099" lon="11.3266789">
    <tag k="addr:city" v="Olching"/>
    <tag k="addr:housenumber" v="53"/>
    <tag k="addr:postcode" v="82140"/>
    <tag k="addr:street" v="Hauptstraße"/>
    <tag k="amenity" v="pharmacy"/>
    <tag k="dispensing" v="yes"/>
    <tag k="name" v="Rosen-Apotheke"/>
  </node>
  <node id="52768803" version="4" timestamp="2010-02-14T09:14:31Z" uid="7596" user="ck3d" changeset="3871379" lat="48.2063056" lon="11.3267459">
    <tag k="addr:city" v="Olching"/>
    <tag k="addr:country" v="DE"/>
    <tag k="addr:housenumber" v="53"/>
    <tag k="addr:postcode" v="82140"/>
    <tag k="addr:street" v="Hauptstraße"/>
    <tag k="amenity" v="pharmacy"/>
    <tag k="dispensing" v="yes"/>
    <tag k="name" v="Rosen-Apotheke"/>
    <tag k="opening_hours" v="Mo-Sa 08:00-12:30,14:00-19:00;Sa 08:00-13:00"/>
    <tag k="phone" v="+49 (8142) 15042"/>
    <tag k="website" v="http://www.rosen-apotheke-olching.de/"/>
  </node>
  <node id="52768803" version="5" timestamp="2010-11-16T10:16:29Z" uid="140803" user="ThomasStr" changeset="6383843" lat="48.2063056" lon="11.3267459">
    <tag k="addr:city" v="Olching"/>
    <tag k="addr:country" v="DE"/>
    <tag k="addr:housenumber" v="53"/>
    <tag k="addr:postcode" v="82140"/>
    <tag k="addr:street" v="Hauptstraße"/>
    <tag k="amenity" v="pharmacy"/>
    <tag k="dispensing" v="yes"/>
    <tag k="name" v="Rosen-Apotheke"/>
    <tag k="opening_hours" v="Mo-Fr 08:00-12:30,14:00-19:00; Sa 08:00-13:00"/>
    <tag k="phone" v="+49 (8142) 15042"/>
    <tag k="website" v="http://www.rosen-apotheke-olching.de/"/>
  </node>
  <node id="52768803" version="6" timestamp="2011-03-23T20:33:18Z" uid="247670" user="burt13de" changeset="7649994" lat="48.2080171" lon="11.3287005">
    <tag k="addr:city" v="Olching"/>
    <tag k="addr:country" v="DE"/>
    <tag k="addr:housenumber" v="30"/>
    <tag k="addr:postcode" v="82140"/>
    <tag k="addr:street" v="Hauptstraße"/>
    <tag k="amenity" v="pharmacy"/>
    <tag k="dispensing" v="yes"/>
    <tag k="name" v="Rosen-Apotheke"/>
    <tag k="opening_hours" v="Mo-Fr 08:00-12:30,14:00-19:00; Sa 08:00-13:00"/>
    <tag k="phone" v="+49 (8142) 15042"/>
    <tag k="website" v="http://www.rosen-apotheke-olching.de/"/>
  </node>
  <node id="52768803" version="7" timestamp="2012-02-08T00:10:41Z" uid="599361" user="Chris-He" changeset="10618604" lat="48.2080209" lon="11.3286623">
    <tag k="addr:city" v="Olching"/>
    <tag k="addr:country" v="DE"/>
    <tag k="addr:housenumber" v="30"/>
    <tag k="addr:postcode" v="82140"/>
    <tag k="addr:street" v="Hauptstraße"/>
    <tag k="amenity" v="pharmacy"/>
    <tag k="dispensing" v="yes"/>
    <tag k="name" v="Rosen-Apotheke"/>
    <tag k="opening_hours" v="Mo-Fr 08:00-12:30,14:00-19:00; Sa 08:00-13:00"/>
    <tag k="phone" v="+49 (8142) 15042"/>
    <tag k="website" v="http://www.rosen-apotheke-olching.de/"/>
  </node>
  <node id="52768803" version="8" timestamp="2012-03-10T12:39:03Z" uid="290680" user="wheelmap_visitor" changeset="10930108" lat="48.2080209" lon="11.3286623">
    <tag k="addr:city" v="Olching"/>
    <tag k="addr:country" v="DE"/>
    <tag k="addr:housenumber" v="30"/>
    <tag k="addr:postcode" v="82140"/>
    <tag k="addr:street" v="Hauptstraße"/>
    <tag k="amenity" v="pharmacy"/>
    <tag k="dispensing" v="yes"/>
    <tag k="name" v="Rosen-Apotheke"/>
    <tag k="opening_hours" v="Mo-Fr 08:00-12:30,14:00-19:00; Sa 08:00-13:00"/>
    <tag k="phone" v="+49 (8142) 15042"/>
    <tag k="website" v="http://www.rosen-apotheke-olching.de/"/>
    <tag k="wheelchair" v="yes"/>
  </node>
  <node id="52768810" version="4" timestamp="2009-09-30T13:36:46Z" uid="36809" user="pfoten_weg_!_" changeset="2688655" lat="48.2045897" lon="11.3250316">
    <tag k="addr:city" v="Olching"/>
    <tag k="addr:housenumber" v="72"/>
    <tag k="addr:postcode" v="82140"/>
    <tag k="addr:street" v="Hauptstraße"/>
    <tag k="amenity" v="restaurant"/>
    <tag k="cuisine" v="mexican"/>
    <tag k="name" v="La Cantina"/>
  </node>
  <node id="52768810" version="5" timestamp="2010-02-14T09:14:31Z" uid="7596" user="ck3d" changeset="3871379" lat="48.2046811" lon="11.3249885">
    <tag k="addr:city" v="Olching"/>
    <tag k="addr:country" v="DE"/>
    <tag k="addr:housenumber" v="72"/>
    <tag k="addr:postcode" v="82140"/>
    <tag k="addr:street" v="Hauptstraße"/>
    <tag k="amenity" v="restaurant"/>
    <tag k="cuisine" v="mexican"/>
    <tag k="email" v="info@cantina-olching.de"/>
    <tag k="name" v="La Cantina"/>
    <tag k="opening_hours" v="Mo-Su 17:00-01:00"/>
    <tag k="phone" v="+49 (8142) 444393"/>
    <tag k="website" v="http://www.cantina-olching.com/"/>
  </node>
  <node id="52768810" version="6" timestamp="2010-05-04T08:07:25Z" uid="247670" user="burt13de" changeset="4601675" lat="48.2044749" lon="11.3249434">
    <tag k="addr:city" v="Olching"/>
    <tag k="addr:country" v="DE"/>
    <tag k="addr:housenumber" v="72"/>
    <tag k="addr:postcode" v="82140"/>
    <tag k="addr:street" v="Hauptstraße"/>
    <tag k="amenity" v="restaurant"/>
    <tag k="cuisine" v="mexican"/>
    <tag k="email" v="info@cantina-olching.de"/>
    <tag k="name" v="La Cantina"/>
    <tag k="opening_hours" v="Mo-Su 17:00-01:00"/>
    <tag k="phone" v="+49 (8142) 444393"/>
    <tag k="website" v="http://www.cantina-olching.com/"/>
  </node>
  <node id="52768810" version="7" timestamp="2011-10-07T20:24:46Z" uid="290680" user="wheelmap_visitor" changeset="9490517" lat="48.2044749" lon="11.3249434">
    <tag k="addr:city" v="Olching"/>
    <tag k="addr:country" v="DE"/>
    <tag k="addr:housenumber" v="72"/>
    <tag k="addr:postcode" v="82140"/>
    <tag k="addr:street" v="Hauptstraße"/>
    <tag k="amenity" v="restaurant"/>
    <tag k="cuisine" v="mexican"/>
    <tag k="email" v="info@cantina-olching.de"/>
    <tag k="name" v="La Cantina"/>
    <tag k="opening_hours" v="Mo-Su 17:00-01:00"/>
    <tag k="phone" v="+49 (8142) 444393"/>
    <tag k="website" v="http://www.cantina-olching.com/"/>
    <tag k="wheelchair" v="no"/>
  </node>
  <node id="52768822" version="2" timestamp="2009-09-30T13:36:50Z" uid="36809" user="pfoten_weg_!_" changeset="2688655" lat="48.2066311" lon="11.3268123">
    <tag k="highway" v="bus_stop"/>
    <tag k="name" v="Auf der Insel"/>
  </node>
  <node id="52769850" version="2" timestamp="2008-07-01T13:04:59Z" uid="43967" user="railsnail" changeset="362856" lat="51.3038166" lon="6.756327">
    <tag k="created_by" v="JOSM"/>
  </node>
  <node id="52769850" version="3" timestamp="2009-05-06T19:04:59Z" uid="18130" user="black_bike" changeset="1100378" lat="51.303831" lon="6.7562579">
    <tag k="created_by" v="JOSM"/>
  </node>
  <node id="52769850" version="4" timestamp="2009-10-03T14:56:23Z" uid="60744" user="motlib" changeset="2724922" lat="51.3037843" lon="6.7563226"/>
  <node id="52769850" version="5" timestamp="2009-10-03T15:04:14Z" uid="60744" user="motlib" changeset="2725032" lat="51.3037471" lon="6.7562652"/>
  <node id="52769850" version="6" timestamp="2009-10-04T07:09:02Z" uid="60744" user="motlib" changeset="2732076" lat="51.3037471" lon="6.7562652"/>
  <node id="52762981" version="7" timestamp="2012-07-19T12:47:46Z" uid="482628" user="gumul" changeset="12326639" lat="48.0709363" lon="11.3684051"/>
  <node id="52762981" version="8" timestamp="2012-07-24T08:23:15Z" uid="482628" user="gumul" changeset="12461661" lat="48.070948" lon="11.3683895"/>
  <node id="52762991" version="4" timestamp="2012-07-19T12:47:46Z" uid="482628" user="gumul" changeset="12326639" lat="48.0705927" lon="11.3648457"/>
  <node id="52763000" version="5" timestamp="2012-07-19T12:47:47Z" uid="482628" user="gumul" changeset="12326639" lat="48.0696444" lon="11.3638115"/>
  <node id="52763003" version="7" timestamp="2012-07-19T12:47:47Z" uid="482628" user="gumul" changeset="12326639" lat="48.0701557" lon="11.3582116"/>
  <node id="52766445" version="8" timestamp="2012-07-23T10:55:11Z" uid="482628" user="gumul" changeset="12447806" lat="48.0757976" lon="11.3520641"/>
  <node id="52767143" version="7" timestamp="2012-07-18T05:55:45Z" uid="722137" user="OSMF Redaction Account" changeset="12274874" lat="48.0777514" lon="11.3437689">
    <tag k="is_in" v="Krailling"/>
    <tag k="name" v="Pentenried"/>
    <tag k="place" v="hamlet"/>
    <tag k="postal_code" v="82349"/>
  </node>
</osm>
