<?xml version='1.0' encoding='UTF-8'?>
<osm version="0.6" generator="libosmium/2.20.0">
  <node id="529730158" version="1" timestamp="2009-10-12T21:44:14Z" uid="55964" user="Evan Sebire" changeset="2831221" lat="46.0743464" lon="8.8659178">
    <tag k="ele" v="1442"/>
    <tag k="name" v="Alpe Nisciora"/>
    <tag k="place" v="locality"/>
  </node>
  <node id="529730160" version="1" timestamp="2009-10-12T21:44:14Z" uid="55964" user="Evan Sebire" changeset="2831221" lat="46.0775054" lon="8.8721423">
    <tag k="ele" v="1400"/>
    <tag k="name" v="Alpe Gem"/>
    <tag k="place" v="locality"/>
  </node>
  <node id="529730160" version="2" timestamp="2011-06-16T09:56:15Z" uid="408510" user="nykr1978" changeset="8454585" lat="46.0772522" lon="8.8714316">
    <tag k="ele" v="1400"/>
    <tag k="name" v="Alpe Gem"/>
    <tag k="place" v="locality"/>
  </node>
  <node id="529730158" version="2" timestamp="2012-07-17T09:20:50Z" uid="722137" user="OSMF Redaction Account" changeset="12261524" lat="46.0743464" lon="8.8659178"/>
  <node id="529730160" version="3" timestamp="2012-07-17T09:20:15Z" uid="722137" user="OSMF Redaction Account" changeset="12261501" lat="46.0772522" lon="8.8714316"/>
</osm>
