<?xml version='1.0' encoding='UTF-8'?>
<osm version="0.6" generator="libosmium/2.20.0">
  <node id="535170029" version="2" timestamp="2010-04-11T04:52:22Z" uid="20587" user="balrog-kun" changeset="4389130" lat="50.12982" lon="19.91802">
    <tag k="name" v="Podskale"/>
    <tag k="place" v="village"/>
    <tag k="source" v="http://ump.waw.pl/ retrieved 01:24:13 09/02/09 (UMP-Krakow/src/cities-Krakow.pnt-converted.txt)"/>
  </node>
  <node id="535170029" version="3" timestamp="2010-04-11T13:16:13Z" uid="20587" user="balrog-kun" changeset="4392352" lat="50.12982" lon="19.91802">
    <tag k="name" v="Podskale"/>
    <tag k="place" v="village"/>
    <tag k="source" v="http://ump.waw.pl/ retrieved 01:24:13 09/02/09 (UMP-Krakow/src/cities-Krakow.pnt-converted.txt)"/>
  </node>
  <node id="535170029" version="4" timestamp="2010-04-27T04:15:46Z" uid="30632" user="antblant" changeset="4537896" lat="50.12982" lon="19.91802">
    <tag k="name" v="Podskale"/>
    <tag k="place" v="village"/>
    <tag k="source" v="http://ump.waw.pl/ retrieved 01:24:13 09/02/09 (UMP-Krakow/src/cities-Krakow.pnt-converted.txt)"/>
    <tag k="teryt:simc" v="0257970"/>
  </node>
  <node id="535174743" version="3" timestamp="2010-04-11T04:52:22Z" uid="20587" user="balrog-kun" changeset="4389130" lat="50.1814842" lon="19.8821107">
    <tag k="name" v="Świńczów"/>
    <tag k="place" v="village"/>
    <tag k="source" v="http://ump.waw.pl/ retrieved 01:24:13 09/02/09 (UMP-Krakow/src/cities-Krakow.pnt-converted.txt)"/>
  </node>
  <node id="535174743" version="4" timestamp="2010-04-11T13:16:14Z" uid="20587" user="balrog-kun" changeset="4392352" lat="50.1825017" lon="19.8825095">
    <tag k="name" v="Świńczów"/>
    <tag k="place" v="village"/>
    <tag k="source" v="http://ump.waw.pl/ retrieved 01:24:13 09/02/09 (UMP-Krakow/src/cities-Krakow.pnt-converted.txt)"/>
  </node>
  <node id="535174779" version="2" timestamp="2010-04-11T04:52:22Z" uid="20587" user="balrog-kun" changeset="4389130" lat="50.1854" lon="19.87448">
    <tag k="name" v="Alejka"/>
    <tag k="place" v="village"/>
    <tag k="source" v="http://ump.waw.pl/ retrieved 01:24:13 09/02/09 (UMP-Krakow/src/cities-Krakow.pnt-converted.txt)"/>
  </node>
  <node id="535174779" version="3" timestamp="2010-04-11T13:16:14Z" uid="20587" user="balrog-kun" changeset="4392352" lat="50.1854" lon="19.87448">
    <tag k="name" v="Alejka"/>
    <tag k="place" v="village"/>
    <tag k="source" v="http://ump.waw.pl/ retrieved 01:24:13 09/02/09 (UMP-Krakow/src/cities-Krakow.pnt-converted.txt)"/>
  </node>
  <node id="535174779" version="4" timestamp="2010-05-06T06:40:38Z" uid="163896" user="Zbigniew Czernik" changeset="4618851" lat="50.1854" lon="19.87448">
    <tag k="name" v="Alejka"/>
    <tag k="place" v="village"/>
    <tag k="source" v="http://ump.waw.pl/ retrieved 01:24:13 09/02/09 (UMP-Krakow/src/cities-Krakow.pnt-converted.txt)"/>
  </node>
  <node id="535174960" version="3" timestamp="2010-04-11T04:52:23Z" uid="20587" user="balrog-kun" changeset="4389130" lat="50.1758183" lon="19.8929713">
    <tag k="name" v="Brzozówka"/>
    <tag k="place" v="village"/>
    <tag k="source" v="http://ump.waw.pl/ retrieved 01:24:13 09/02/09 (UMP-Krakow/src/cities-Krakow.pnt-converted.txt)"/>
  </node>
  <node id="535174960" version="4" timestamp="2010-04-11T13:16:14Z" uid="20587" user="balrog-kun" changeset="4392352" lat="50.1769019" lon="19.893769">
    <tag k="name" v="Brzozówka"/>
    <tag k="place" v="village"/>
    <tag k="source" v="http://ump.waw.pl/ retrieved 01:24:13 09/02/09 (UMP-Krakow/src/cities-Krakow.pnt-converted.txt)"/>
  </node>
  <node id="535176970" version="3" timestamp="2010-04-11T04:52:23Z" uid="20587" user="balrog-kun" changeset="4389130" lat="50.1761592" lon="19.9115622">
    <tag k="name" v="Owczary"/>
    <tag k="place" v="village"/>
    <tag k="source" v="http://ump.waw.pl/ retrieved 01:24:13 09/02/09 (UMP-Krakow/src/cities-Krakow.pnt-converted.txt)"/>
  </node>
  <node id="535176970" version="4" timestamp="2010-04-11T13:16:14Z" uid="20587" user="balrog-kun" changeset="4392352" lat="50.1775432" lon="19.9103203">
    <tag k="name" v="Owczary"/>
    <tag k="place" v="village"/>
    <tag k="source" v="http://ump.waw.pl/ retrieved 01:24:13 09/02/09 (UMP-Krakow/src/cities-Krakow.pnt-converted.txt)"/>
  </node>
  <node id="535170029" version="5" timestamp="2012-08-31T14:57:47Z" uid="760215" user="pnorman redaction revert" changeset="12931970" lat="50.12982" lon="19.91802"/>
  <node id="535174743" version="5" timestamp="2012-08-31T14:57:47Z" uid="760215" user="pnorman redaction revert" changeset="12931970" lat="50.1825017" lon="19.8825095"/>
  <node id="535174960" version="5" timestamp="2012-04-17T11:10:12Z" uid="584074" user="krokodyl" changeset="11331437" lat="50.1769019" lon="19.893769"/>
  <node id="535176970" version="5" timestamp="2012-08-31T14:57:47Z" uid="760215" user="pnorman redaction revert" changeset="12931970" lat="50.1775432" lon="19.9103203"/>
</osm>
