<?xml version='1.0' encoding='UTF-8'?>
<osm version="0.6" generator="libosmium/2.20.0">
  <node id="535330137" version="2" timestamp="2010-04-11T04:52:25Z" uid="20587" user="balrog-kun" changeset="4389130" lat="50.1552273" lon="19.9182121">
    <tag k="name" v="Garliczka"/>
    <tag k="place" v="village"/>
    <tag k="source" v="http://ump.waw.pl/ retrieved 01:24:13 09/02/09 (UMP-Krakow/src/cities-Krakow.pnt-converted.txt)"/>
  </node>
  <node id="535330137" version="3" timestamp="2010-04-11T13:16:25Z" uid="20587" user="balrog-kun" changeset="4392352" lat="50.1564861" lon="19.9176858">
    <tag k="name" v="Garliczka"/>
    <tag k="place" v="village"/>
    <tag k="source" v="http://ump.waw.pl/ retrieved 01:24:13 09/02/09 (UMP-Krakow/src/cities-Krakow.pnt-converted.txt)"/>
  </node>
  <node id="535330137" version="4" timestamp="2010-04-27T04:10:54Z" uid="30632" user="antblant" changeset="4537882" lat="50.1564861" lon="19.9176858">
    <tag k="name" v="Garliczka"/>
    <tag k="place" v="village"/>
    <tag k="source" v="http://ump.waw.pl/ retrieved 01:24:13 09/02/09 (UMP-Krakow/src/cities-Krakow.pnt-converted.txt)"/>
    <tag k="teryt:simc" v="0344194"/>
  </node>
  <node id="535330526" version="2" timestamp="2010-04-11T04:52:25Z" uid="20587" user="balrog-kun" changeset="4389130" lat="50.1565504" lon="19.9255152">
    <tag k="name" v="Zakońce"/>
    <tag k="place" v="village"/>
    <tag k="source" v="http://ump.waw.pl/ retrieved 01:24:13 09/02/09 (UMP-Krakow/src/cities-Krakow.pnt-converted.txt)"/>
  </node>
  <node id="535330526" version="3" timestamp="2010-04-11T13:16:25Z" uid="20587" user="balrog-kun" changeset="4392352" lat="50.1563706" lon="19.9239189">
    <tag k="name" v="Zakońce"/>
    <tag k="place" v="village"/>
    <tag k="source" v="http://ump.waw.pl/ retrieved 01:24:13 09/02/09 (UMP-Krakow/src/cities-Krakow.pnt-converted.txt)"/>
  </node>
  <node id="535333385" version="2" timestamp="2010-04-11T04:52:25Z" uid="20587" user="balrog-kun" changeset="4389130" lat="50.1513089" lon="19.9323375">
    <tag k="name" v="Wola Zachariaszowska"/>
    <tag k="place" v="village"/>
    <tag k="source" v="http://ump.waw.pl/ retrieved 01:24:13 09/02/09 (UMP-Krakow/src/cities-Krakow.pnt-converted.txt)"/>
  </node>
  <node id="535333385" version="3" timestamp="2010-04-11T13:16:25Z" uid="20587" user="balrog-kun" changeset="4392352" lat="50.1503098" lon="19.9309436">
    <tag k="name" v="Wola Zachariaszowska"/>
    <tag k="place" v="village"/>
    <tag k="source" v="http://ump.waw.pl/ retrieved 01:24:13 09/02/09 (UMP-Krakow/src/cities-Krakow.pnt-converted.txt)"/>
  </node>
  <node id="535333385" version="4" timestamp="2010-04-27T03:56:22Z" uid="30632" user="antblant" changeset="4537843" lat="50.1503098" lon="19.9309436">
    <tag k="name" v="Wola Zachariaszowska"/>
    <tag k="place" v="village"/>
    <tag k="source" v="http://ump.waw.pl/ retrieved 01:24:13 09/02/09 (UMP-Krakow/src/cities-Krakow.pnt-converted.txt)"/>
    <tag k="teryt:simc" v="0344372"/>
  </node>
  <node id="535339724" version="2" timestamp="2010-04-11T04:52:25Z" uid="20587" user="balrog-kun" changeset="4389130" lat="50.18499" lon="19.92375">
    <tag k="name" v="Łaziec"/>
    <tag k="place" v="village"/>
    <tag k="source" v="http://ump.waw.pl/ retrieved 01:24:13 09/02/09 (UMP-Krakow/src/cities-Krakow.pnt-converted.txt)"/>
  </node>
  <node id="535339724" version="3" timestamp="2010-04-11T13:16:25Z" uid="20587" user="balrog-kun" changeset="4392352" lat="50.18499" lon="19.92375">
    <tag k="name" v="Łaziec"/>
    <tag k="place" v="village"/>
    <tag k="source" v="http://ump.waw.pl/ retrieved 01:24:13 09/02/09 (UMP-Krakow/src/cities-Krakow.pnt-converted.txt)"/>
  </node>
  <node id="535339724" version="4" timestamp="2010-04-27T03:56:14Z" uid="30632" user="antblant" changeset="4537843" lat="50.18499" lon="19.92375">
    <tag k="name" v="Łaziec"/>
    <tag k="place" v="village"/>
    <tag k="source" v="http://ump.waw.pl/ retrieved 01:24:13 09/02/09 (UMP-Krakow/src/cities-Krakow.pnt-converted.txt)"/>
    <tag k="teryt:simc" v="0135332"/>
  </node>
  <node id="535330137" version="5" timestamp="2012-04-17T11:38:43Z" uid="584074" user="krokodyl" changeset="11331694" lat="50.1564861" lon="19.9176858"/>
  <node id="535330526" version="4" timestamp="2012-07-24T19:39:46Z" uid="722137" user="OSMF Redaction Account" changeset="12474797" lat="50.1563706" lon="19.9239189"/>
  <node id="535333385" version="5" timestamp="2012-07-24T19:39:46Z" uid="722137" user="OSMF Redaction Account" changeset="12474797" lat="50.1503098" lon="19.9309436">
    <tag k="teryt:simc" v="0344372"/>
  </node>
  <node id="535333385" version="6" timestamp="2012-08-12T09:46:56Z" uid="147230" user="SQ9NIT" changeset="12699484" lat="50.1503098" lon="19.9309436">
    <tag k="is_in:country" v="Poland"/>
    <tag k="is_in:municipality" v="Zielonki"/>
    <tag k="name" v="Wola Zachariaszowska"/>
    <tag k="place" v="village"/>
    <tag k="source" v="WIG; Bing"/>
    <tag k="teryt:simc" v="0344372"/>
  </node>
  <node id="535339724" version="5" timestamp="2012-07-24T19:41:01Z" uid="722137" user="OSMF Redaction Account" changeset="12474830" lat="50.18499" lon="19.92375"/>
</osm>
