<?xml version='1.0' encoding='UTF-8'?>
<osm version="0.6" generator="libosmium/2.20.0">
  <node id="539450125" version="1" timestamp="2009-10-24T11:37:10Z" uid="36809" user="pfoten_weg_!_" changeset="2936788" lat="48.0954153" lon="11.4969698">
    <tag k="layer" v="1"/>
    <tag k="name" v="Kaufring"/>
    <tag k="shop" v="supermarket"/>
  </node>
  <node id="539450125" version="2" timestamp="2010-03-08T15:26:57Z" uid="30579" user="Tiramisu" changeset="4072729" lat="48.0954153" lon="11.4969697">
    <tag k="layer" v="1"/>
    <tag k="name" v="Kaufring"/>
    <tag k="shop" v="department_store"/>
  </node>
  <node id="539450125" version="3" timestamp="2011-10-09T17:04:06Z" uid="290680" user="wheelmap_visitor" changeset="9508573" lat="48.0954153" lon="11.4969697">
    <tag k="layer" v="1"/>
    <tag k="name" v="Kaufring"/>
    <tag k="shop" v="department_store"/>
    <tag k="wheelchair" v="limited"/>
  </node>
  <node id="539450125" version="4" timestamp="2011-10-22T07:03:10Z" uid="64486" user="Sebastian Schmidt" changeset="9621595" lat="48.0954153" lon="11.4969697">
    <tag k="layer" v="1"/>
    <tag k="name" v="Kaufring"/>
    <tag k="shop" v="clothes"/>
    <tag k="wheelchair" v="limited"/>
  </node>
  <node id="539450125" version="5" timestamp="2012-01-08T15:24:47Z" uid="64658" user="AndiV" changeset="10332669" lat="48.0954153" lon="11.4969697">
    <tag k="layer" v="1"/>
    <tag k="name" v="Kaufring"/>
    <tag k="shop" v="department_store"/>
    <tag k="wheelchair" v="limited"/>
  </node>
  <node id="539450128" version="1" timestamp="2009-10-24T11:37:10Z" uid="36809" user="pfoten_weg_!_" changeset="2936788" lat="48.0953223" lon="11.4977426">
    <tag k="amenity" v="pharmacy"/>
    <tag k="layer" v="1"/>
    <tag k="name" v="Äskulap-Apotheke"/>
  </node>
  <node id="539450128" version="2" timestamp="2011-10-09T17:04:02Z" uid="290680" user="wheelmap_visitor" changeset="9508573" lat="48.0953223" lon="11.4977426">
    <tag k="amenity" v="pharmacy"/>
    <tag k="layer" v="1"/>
    <tag k="name" v="Äskulap-Apotheke"/>
    <tag k="wheelchair" v="yes"/>
  </node>
  <node id="539450130" version="1" timestamp="2009-10-24T11:37:11Z" uid="36809" user="pfoten_weg_!_" changeset="2936788" lat="48.0952318" lon="11.4977369">
    <tag k="amenity" v="cafe"/>
    <tag k="layer" v="1"/>
    <tag k="name" v="Bavarica"/>
  </node>
  <node id="539450130" version="2" timestamp="2011-10-09T17:04:03Z" uid="290680" user="wheelmap_visitor" changeset="9508573" lat="48.0952318" lon="11.4977369">
    <tag k="amenity" v="cafe"/>
    <tag k="layer" v="1"/>
    <tag k="name" v="Bavarica"/>
    <tag k="wheelchair" v="yes"/>
  </node>
  <node id="539450130" version="3" timestamp="2012-01-06T14:10:35Z" uid="64658" user="AndiV" changeset="10311820" lat="48.0952318" lon="11.4977369">
    <tag k="amenity" v="fast_food"/>
    <tag k="layer" v="1"/>
    <tag k="name" v="VanTy Asia Food"/>
    <tag k="wheelchair" v="yes"/>
  </node>
  <node id="539450132" version="1" timestamp="2009-10-24T11:37:12Z" uid="36809" user="pfoten_weg_!_" changeset="2936788" lat="48.0953966" lon="11.4975477">
    <tag k="layer" v="1"/>
    <tag k="name" v="Müller"/>
    <tag k="shop" v="bakery"/>
  </node>
  <node id="539450132" version="2" timestamp="2011-10-09T17:04:05Z" uid="290680" user="wheelmap_visitor" changeset="9508573" lat="48.0953966" lon="11.4975477">
    <tag k="layer" v="1"/>
    <tag k="name" v="Müller"/>
    <tag k="shop" v="bakery"/>
    <tag k="wheelchair" v="yes"/>
  </node>
  <node id="539450134" version="1" timestamp="2009-10-24T11:37:12Z" uid="36809" user="pfoten_weg_!_" changeset="2936788" lat="48.095678" lon="11.4977804">
    <tag k="layer" v="1"/>
    <tag k="name" v="Hollywood Super Bowling"/>
    <tag k="sport" v="bowls"/>
  </node>
  <node id="539450134" version="2" timestamp="2010-04-19T22:21:03Z" uid="30579" user="Tiramisu" changeset="4473250" lat="48.0956781" lon="11.4977804">
    <tag k="layer" v="1"/>
    <tag k="name" v="Hollywood Super Bowling"/>
    <tag k="sport" v="9-pin"/>
  </node>
  <node id="539450134" version="3" timestamp="2010-04-19T22:21:48Z" uid="30579" user="Tiramisu" changeset="4473250" lat="48.0956781" lon="11.4977804">
    <tag k="layer" v="1"/>
    <tag k="name" v="Hollywood Super Bowling"/>
    <tag k="sport" v="9pin"/>
  </node>
  <node id="539450134" version="4" timestamp="2010-04-20T19:01:33Z" uid="30579" user="Tiramisu" changeset="4480382" lat="48.0956782" lon="11.4977803">
    <tag k="addr:city" v="München"/>
    <tag k="addr:housenumber" v="74"/>
    <tag k="addr:postcode" v="81476 "/>
    <tag k="addr:street" v="Forstenrieder Allee"/>
    <tag k="layer" v="1"/>
    <tag k="name" v="Hollywood Super Bowling"/>
    <tag k="phone" v="+4989753921"/>
    <tag k="sport" v="10pin"/>
    <tag k="website" v="http://www.hollywood-super-bowling.de/hsb-muc/"/>
  </node>
  <node id="539450134" version="5" timestamp="2010-04-21T18:48:53Z" uid="70696" user="xybot" changeset="4489486" lat="48.0956782" lon="11.4977803">
    <tag k="addr:city" v="München"/>
    <tag k="addr:housenumber" v="74"/>
    <tag k="addr:postcode" v="81476"/>
    <tag k="addr:street" v="Forstenrieder Allee"/>
    <tag k="layer" v="1"/>
    <tag k="name" v="Hollywood Super Bowling"/>
    <tag k="phone" v="+4989753921"/>
    <tag k="sport" v="10pin"/>
    <tag k="website" v="http://www.hollywood-super-bowling.de/hsb-muc/"/>
  </node>
  <node id="539450134" version="6" timestamp="2010-11-15T13:56:15Z" uid="65148" user="tixuwuoz" changeset="6377564" lat="48.0956782" lon="11.4977803">
    <tag k="addr:city" v="München"/>
    <tag k="addr:country" v="DE"/>
    <tag k="addr:housenumber" v="74"/>
    <tag k="addr:postcode" v="81476"/>
    <tag k="addr:street" v="Forstenrieder Allee"/>
    <tag k="layer" v="1"/>
    <tag k="name" v="Hollywood Super Bowling"/>
    <tag k="phone" v="+4989753921"/>
    <tag k="sport" v="10pin"/>
    <tag k="website" v="http://www.hollywood-super-bowling.de/hsb-muc/"/>
  </node>
  <node id="539450134" version="7" timestamp="2011-10-22T07:02:31Z" uid="64486" user="Sebastian Schmidt" changeset="9621595" lat="48.0956782" lon="11.4977803">
    <tag k="addr:city" v="München"/>
    <tag k="addr:country" v="DE"/>
    <tag k="addr:housenumber" v="74"/>
    <tag k="addr:postcode" v="81476"/>
    <tag k="addr:street" v="Forstenrieder Allee"/>
    <tag k="amenity" v="bar"/>
    <tag k="layer" v="1"/>
    <tag k="name" v="Hollywood Super Bowling"/>
    <tag k="phone" v="+4989753921"/>
    <tag k="sport" v="10pin"/>
    <tag k="website" v="http://www.hollywood-super-bowling.de/hsb-muc/"/>
  </node>
  <node id="539450135" version="1" timestamp="2009-10-24T11:37:12Z" uid="36809" user="pfoten_weg_!_" changeset="2936788" lat="48.0957638" lon="11.4979223">
    <tag k="layer" v="1"/>
    <tag k="name" v="REWE"/>
    <tag k="shop" v="supermarket"/>
  </node>
  <node id="539450135" version="2" timestamp="2011-10-09T17:04:15Z" uid="290680" user="wheelmap_visitor" changeset="9508573" lat="48.0957638" lon="11.4979223">
    <tag k="layer" v="1"/>
    <tag k="name" v="REWE"/>
    <tag k="shop" v="supermarket"/>
    <tag k="wheelchair" v="yes"/>
  </node>
  <node id="539455725" version="1" timestamp="2009-10-24T11:48:05Z" uid="58091" user="Andreas M" changeset="2936870" lat="48.2745456" lon="16.3549979">
    <tag k="amenity" v="place_of_worship"/>
  </node>
  <node id="539455725" version="2" timestamp="2011-03-30T16:59:07Z" uid="78656" user="Walter Schlögl" changeset="7718164" lat="48.274466" lon="16.3548549">
    <tag k="amenity" v="place_of_worship"/>
    <tag k="religion" v="christian"/>
  </node>
  <node id="539455726" version="1" timestamp="2009-10-24T11:48:05Z" uid="58091" user="Andreas M" changeset="2936870" lat="48.2751605" lon="16.3553426">
    <tag k="addr:city" v="Wien"/>
    <tag k="addr:country" v="AT"/>
    <tag k="addr:housenumber" v="2"/>
    <tag k="addr:postcode" v="1190"/>
    <tag k="addr:street" v="Geigeringasse"/>
    <tag k="amenity" v="heuriger"/>
    <tag k="name" v="Weiss"/>
  </node>
  <node id="539455726" version="2" timestamp="2011-11-13T15:41:57Z" uid="78656" user="Walter Schlögl" changeset="9815234" lat="48.2751605" lon="16.3553426">
    <tag k="addr:city" v="Wien"/>
    <tag k="addr:country" v="AT"/>
    <tag k="addr:housenumber" v="2"/>
    <tag k="addr:postcode" v="1190"/>
    <tag k="addr:street" v="Geigeringasse"/>
    <tag k="amenity" v="restaurant"/>
    <tag k="cuisine" v="heuriger"/>
    <tag k="name" v="Weiss"/>
  </node>
  <node id="539455727" version="1" timestamp="2009-10-24T11:48:05Z" uid="58091" user="Andreas M" changeset="2936870" lat="48.2747617" lon="16.3550483">
    <tag k="addr:city" v="Wien"/>
    <tag k="addr:country" v="AT"/>
    <tag k="addr:housenumber" v="6"/>
    <tag k="addr:postcode" v="1190"/>
    <tag k="addr:street" v="Geigeringasse"/>
    <tag k="amenity" v="heuriger"/>
    <tag k="name" v="Buschenschank Taschler"/>
  </node>
  <node id="539455727" version="2" timestamp="2011-11-13T15:41:50Z" uid="78656" user="Walter Schlögl" changeset="9815234" lat="48.2747617" lon="16.3550483">
    <tag k="addr:city" v="Wien"/>
    <tag k="addr:country" v="AT"/>
    <tag k="addr:housenumber" v="6"/>
    <tag k="addr:postcode" v="1190"/>
    <tag k="addr:street" v="Geigeringasse"/>
    <tag k="amenity" v="restaurant"/>
    <tag k="cuisine" v="heuriger"/>
    <tag k="name" v="Buschenschank Taschler"/>
  </node>
  <node id="539456112" version="1" timestamp="2009-10-24T11:48:58Z" uid="36809" user="pfoten_weg_!_" changeset="2936873" lat="48.0951588" lon="11.4963959">
    <tag k="layer" v="-1"/>
  </node>
  <node id="539456112" version="2" timestamp="2012-02-29T02:28:40Z" uid="342705" user="KLMB" changeset="10824449" lat="48.0951588" lon="11.4963959"/>
  <node id="539456117" version="1" timestamp="2009-10-24T11:48:58Z" uid="36809" user="pfoten_weg_!_" changeset="2936873" lat="48.0965117" lon="11.4951256">
    <tag k="layer" v="-1"/>
  </node>
  <node id="539456121" version="1" timestamp="2009-10-24T11:48:59Z" uid="36809" user="pfoten_weg_!_" changeset="2936873" lat="48.0961047" lon="11.4955548">
    <tag k="layer" v="-1"/>
  </node>
  <node id="539456127" version="1" timestamp="2009-10-24T11:49:00Z" uid="36809" user="pfoten_weg_!_" changeset="2936873" lat="48.0964601" lon="11.4950141">
    <tag k="layer" v="-1"/>
  </node>
  <node id="539456127" version="2" timestamp="2012-02-29T02:28:40Z" uid="342705" user="KLMB" changeset="10824449" lat="48.0964601" lon="11.4950141"/>
  <node id="539456132" version="1" timestamp="2009-10-24T11:49:00Z" uid="36809" user="pfoten_weg_!_" changeset="2936873" lat="48.0956346" lon="11.4967822">
    <tag k="layer" v="-1"/>
  </node>
  <node id="539456132" version="2" timestamp="2012-02-29T02:28:40Z" uid="342705" user="KLMB" changeset="10824449" lat="48.0956346" lon="11.4967822"/>
  <node id="539456137" version="1" timestamp="2009-10-24T11:49:00Z" uid="36809" user="pfoten_weg_!_" changeset="2936873" lat="48.0963397" lon="11.4960183">
    <tag k="layer" v="-1"/>
  </node>
  <node id="539456137" version="2" timestamp="2012-02-29T02:28:41Z" uid="342705" user="KLMB" changeset="10824449" lat="48.0963397" lon="11.4960183"/>
  <node id="539456144" version="1" timestamp="2009-10-24T11:49:01Z" uid="36809" user="pfoten_weg_!_" changeset="2936873" lat="48.0937446" lon="11.4978555">
    <tag k="layer" v="-1"/>
  </node>
  <node id="539456144" version="2" timestamp="2012-02-29T02:28:41Z" uid="342705" user="KLMB" changeset="10824449" lat="48.0937446" lon="11.4978555"/>
  <node id="539456152" version="1" timestamp="2009-10-24T11:49:02Z" uid="36809" user="pfoten_weg_!_" changeset="2936873" lat="48.0935668" lon="11.4992117">
    <tag k="layer" v="-1"/>
  </node>
  <node id="539456152" version="2" timestamp="2011-03-10T18:42:24Z" uid="290723" user="sulagaloh" changeset="7516849" lat="48.0935887" lon="11.4991403">
    <tag k="layer" v="-1"/>
  </node>
  <node id="539456152" version="3" timestamp="2012-02-29T02:28:41Z" uid="342705" user="KLMB" changeset="10824449" lat="48.0935887" lon="11.4991403"/>
  <node id="539456157" version="1" timestamp="2009-10-24T11:49:02Z" uid="36809" user="pfoten_weg_!_" changeset="2936873" lat="48.0937847" lon="11.4997781">
    <tag k="layer" v="-1"/>
  </node>
  <node id="539456157" version="2" timestamp="2011-03-10T18:42:23Z" uid="290723" user="sulagaloh" changeset="7516849" lat="48.0938936" lon="11.499804">
    <tag k="layer" v="-1"/>
  </node>
  <node id="539456157" version="3" timestamp="2012-02-29T02:28:41Z" uid="342705" user="KLMB" changeset="10824449" lat="48.0938936" lon="11.499804"/>
  <node id="539456163" version="1" timestamp="2009-10-24T11:49:04Z" uid="36809" user="pfoten_weg_!_" changeset="2936873" lat="48.094682" lon="11.498483">
    <tag k="name" v="U 3"/>
    <tag k="railway" v="subway_entrance"/>
  </node>
  <node id="539456163" version="2" timestamp="2009-10-24T11:50:37Z" uid="36809" user="pfoten_weg_!_" changeset="2936885" lat="48.094682" lon="11.498483">
    <tag k="name" v="U 3"/>
    <tag k="railway" v="subway_entrance"/>
  </node>
  <node id="539456170" version="1" timestamp="2009-10-24T11:49:04Z" uid="36809" user="pfoten_weg_!_" changeset="2936873" lat="48.0946343" lon="11.4981033">
    <tag k="layer" v="-1"/>
  </node>
  <node id="539456170" version="2" timestamp="2012-02-29T02:28:41Z" uid="342705" user="KLMB" changeset="10824449" lat="48.0946343" lon="11.4981033"/>
  <node id="539456176" version="1" timestamp="2009-10-24T11:49:05Z" uid="36809" user="pfoten_weg_!_" changeset="2936873" lat="48.094841" lon="11.497756">
    <tag k="name" v="U 3"/>
    <tag k="railway" v="subway_entrance"/>
  </node>
  <node id="539456176" version="2" timestamp="2011-10-07T20:20:19Z" uid="290680" user="wheelmap_visitor" changeset="9490517" lat="48.094841" lon="11.497756">
    <tag k="name" v="U 3"/>
    <tag k="railway" v="subway_entrance"/>
    <tag k="wheelchair" v="no"/>
  </node>
  <node id="539456180" version="1" timestamp="2009-10-24T11:49:06Z" uid="36809" user="pfoten_weg_!_" changeset="2936873" lat="48.0951359" lon="11.4977263">
    <tag k="layer" v="-1"/>
  </node>
  <node id="539456180" version="2" timestamp="2012-02-29T02:28:41Z" uid="342705" user="KLMB" changeset="10824449" lat="48.0951359" lon="11.4977263"/>
  <node id="539456184" version="1" timestamp="2009-10-24T11:49:06Z" uid="36809" user="pfoten_weg_!_" changeset="2936873" lat="48.0948665" lon="11.4983958">
    <tag k="layer" v="-1"/>
  </node>
  <node id="539456184" version="2" timestamp="2012-02-29T02:28:41Z" uid="342705" user="KLMB" changeset="10824449" lat="48.0948665" lon="11.4983958"/>
  <node id="539456186" version="1" timestamp="2009-10-24T11:49:07Z" uid="36809" user="pfoten_weg_!_" changeset="2936873" lat="48.095343" lon="11.498297">
    <tag k="name" v="U 3"/>
    <tag k="railway" v="subway_entrance"/>
  </node>
  <node id="539456186" version="2" timestamp="2011-02-01T07:56:52Z" uid="379063" user="MrRoute" changeset="7152274" lat="48.095343" lon="11.498297">
    <tag k="name" v="U 3"/>
    <tag k="railway" v="subway_entrance"/>
    <tag k="ref" v="U3"/>
  </node>
  <node id="539456186" version="3" timestamp="2011-10-07T20:20:17Z" uid="290680" user="wheelmap_visitor" changeset="9490517" lat="48.095343" lon="11.498297">
    <tag k="name" v="U 3"/>
    <tag k="railway" v="subway_entrance"/>
    <tag k="ref" v="U3"/>
    <tag k="wheelchair" v="yes"/>
  </node>
  <node id="539456189" version="1" timestamp="2009-10-24T11:49:08Z" uid="36809" user="pfoten_weg_!_" changeset="2936873" lat="48.0953136" lon="11.4980696">
    <tag k="layer" v="-1"/>
  </node>
  <node id="539456189" version="2" timestamp="2012-02-29T02:28:42Z" uid="342705" user="KLMB" changeset="10824449" lat="48.0953136" lon="11.4980696"/>
  <node id="539456194" version="1" timestamp="2009-10-24T11:49:08Z" uid="36809" user="pfoten_weg_!_" changeset="2936873" lat="48.094566" lon="11.500036">
    <tag k="name" v="U 3"/>
    <tag k="railway" v="subway_entrance"/>
  </node>
  <node id="539456194" version="2" timestamp="2011-02-01T07:56:53Z" uid="379063" user="MrRoute" changeset="7152274" lat="48.094566" lon="11.500036">
    <tag k="name" v="U 3"/>
    <tag k="railway" v="subway_entrance"/>
    <tag k="ref" v="U3"/>
  </node>
  <node id="539456194" version="3" timestamp="2011-10-07T20:20:22Z" uid="290680" user="wheelmap_visitor" changeset="9490517" lat="48.094566" lon="11.500036">
    <tag k="name" v="U 3"/>
    <tag k="railway" v="subway_entrance"/>
    <tag k="ref" v="U3"/>
    <tag k="wheelchair" v="no"/>
  </node>
  <node id="539456199" version="1" timestamp="2009-10-24T11:49:09Z" uid="36809" user="pfoten_weg_!_" changeset="2936873" lat="48.0946436" lon="11.5000545">
    <tag k="layer" v="-1"/>
  </node>
  <node id="539456199" version="2" timestamp="2012-02-29T02:28:42Z" uid="342705" user="KLMB" changeset="10824449" lat="48.0946436" lon="11.5000545"/>
  <node id="539456224" version="1" timestamp="2009-10-24T11:49:10Z" uid="36809" user="pfoten_weg_!_" changeset="2936873" lat="48.094892" lon="11.50076">
    <tag k="name" v="U 3"/>
    <tag k="railway" v="subway_entrance"/>
  </node>
  <node id="539456224" version="2" timestamp="2011-02-01T07:56:52Z" uid="379063" user="MrRoute" changeset="7152274" lat="48.094892" lon="11.50076">
    <tag k="name" v="U 3"/>
    <tag k="railway" v="subway_entrance"/>
    <tag k="ref" v="U3"/>
  </node>
  <node id="539456224" version="3" timestamp="2011-10-07T20:20:21Z" uid="290680" user="wheelmap_visitor" changeset="9490517" lat="48.094892" lon="11.50076">
    <tag k="name" v="U 3"/>
    <tag k="railway" v="subway_entrance"/>
    <tag k="ref" v="U3"/>
    <tag k="wheelchair" v="no"/>
  </node>
  <node id="539456229" version="1" timestamp="2009-10-24T11:49:11Z" uid="36809" user="pfoten_weg_!_" changeset="2936873" lat="48.0963397" lon="11.4981812">
    <tag k="layer" v="-1"/>
  </node>
  <node id="539456229" version="2" timestamp="2012-02-29T02:28:42Z" uid="342705" user="KLMB" changeset="10824449" lat="48.0963397" lon="11.4981812"/>
  <node id="539456503" version="1" timestamp="2009-10-24T11:50:04Z" uid="36809" user="pfoten_weg_!_" changeset="2936881" lat="48.0946088" lon="11.4982879"/>
  <node id="539456503" version="2" timestamp="2009-10-24T11:50:33Z" uid="36809" user="pfoten_weg_!_" changeset="2936885" lat="48.0946088" lon="11.4982879"/>
  <node id="539456505" version="1" timestamp="2009-10-24T11:50:04Z" uid="36809" user="pfoten_weg_!_" changeset="2936881" lat="48.0945858" lon="11.4984682"/>
  <node id="539456505" version="2" timestamp="2009-10-24T11:50:34Z" uid="36809" user="pfoten_weg_!_" changeset="2936885" lat="48.0945858" lon="11.4984682"/>
  <node id="539456509" version="1" timestamp="2009-10-24T11:50:05Z" uid="36809" user="pfoten_weg_!_" changeset="2936881" lat="48.0946948" lon="11.4985368"/>
  <node id="539456509" version="2" timestamp="2009-10-24T11:50:34Z" uid="36809" user="pfoten_weg_!_" changeset="2936885" lat="48.0946948" lon="11.4985368"/>
  <node id="539456512" version="1" timestamp="2009-10-24T11:50:06Z" uid="36809" user="pfoten_weg_!_" changeset="2936881" lat="48.0946718" lon="11.4984768"/>
  <node id="539456512" version="2" timestamp="2009-10-24T11:50:34Z" uid="36809" user="pfoten_weg_!_" changeset="2936885" lat="48.0946718" lon="11.4984768"/>
  <node id="539456516" version="1" timestamp="2009-10-24T11:50:06Z" uid="36809" user="pfoten_weg_!_" changeset="2936881" lat="48.0946432" lon="11.4984682"/>
  <node id="539456516" version="2" timestamp="2009-10-24T11:50:35Z" uid="36809" user="pfoten_weg_!_" changeset="2936885" lat="48.0946432" lon="11.4984682"/>
  <node id="539456518" version="1" timestamp="2009-10-24T11:50:07Z" uid="36809" user="pfoten_weg_!_" changeset="2936881" lat="48.0946374" lon="11.4984853"/>
  <node id="539456518" version="2" timestamp="2009-10-24T11:50:35Z" uid="36809" user="pfoten_weg_!_" changeset="2936885" lat="48.0946374" lon="11.4984853"/>
  <node id="539456521" version="1" timestamp="2009-10-24T11:50:07Z" uid="36809" user="pfoten_weg_!_" changeset="2936881" lat="48.09468" lon="11.4985101">
    <tag k="name" v="U 3"/>
    <tag k="railway" v="subway_entrance"/>
  </node>
  <node id="539456521" version="2" timestamp="2011-02-01T07:56:52Z" uid="379063" user="MrRoute" changeset="7152274" lat="48.09468" lon="11.4985101">
    <tag k="name" v="U 3"/>
    <tag k="railway" v="subway_entrance"/>
    <tag k="ref" v="U3"/>
  </node>
  <node id="539456521" version="3" timestamp="2011-10-07T20:20:20Z" uid="290680" user="wheelmap_visitor" changeset="9490517" lat="48.09468" lon="11.4985101">
    <tag k="name" v="U 3"/>
    <tag k="railway" v="subway_entrance"/>
    <tag k="ref" v="U3"/>
    <tag k="wheelchair" v="no"/>
  </node>
  <node id="539456584" version="1" timestamp="2009-10-24T11:50:28Z" uid="36809" user="pfoten_weg_!_" changeset="2936885" lat="48.09468" lon="11.4985101">
    <tag k="name" v="U 3"/>
    <tag k="railway" v="subway_entrance"/>
  </node>
  <node id="539456584" version="2" timestamp="2009-11-18T19:26:29Z" uid="118197" user="JosmJo" changeset="3153913" lat="48.09468" lon="11.4985101">
    <tag k="name" v="U 3"/>
    <tag k="railway" v="subway_entrance"/>
  </node>
  <node id="539456586" version="1" timestamp="2009-10-24T11:50:29Z" uid="36809" user="pfoten_weg_!_" changeset="2936885" lat="48.0948323" lon="11.4983995"/>
  <node id="539456589" version="1" timestamp="2009-10-24T11:50:30Z" uid="36809" user="pfoten_weg_!_" changeset="2936885" lat="48.094798" lon="11.4983394"/>
  <node id="539456590" version="1" timestamp="2009-10-24T11:50:30Z" uid="36809" user="pfoten_weg_!_" changeset="2936885" lat="48.0946776" lon="11.4985712"/>
  <node id="539456592" version="1" timestamp="2009-10-24T11:50:31Z" uid="36809" user="pfoten_weg_!_" changeset="2936885" lat="48.094689" lon="11.4985712"/>
  <node id="539456594" version="1" timestamp="2009-10-24T11:50:31Z" uid="36809" user="pfoten_weg_!_" changeset="2936885" lat="48.0946661" lon="11.4986484"/>
  <node id="539456596" version="1" timestamp="2009-10-24T11:50:32Z" uid="36809" user="pfoten_weg_!_" changeset="2936885" lat="48.0947979" lon="11.4986794"/>
  <node id="539457301" version="1" timestamp="2009-10-24T11:52:38Z" uid="58091" user="Andreas M" changeset="2936907" lat="48.2742149" lon="16.35787">
    <tag k="addr:city" v="Wien"/>
    <tag k="addr:country" v="AT"/>
    <tag k="addr:housenumber" v="2"/>
    <tag k="addr:postcode" v="1190"/>
    <tag k="addr:street" v="Kuchelauer Hafenstraße"/>
    <tag k="amenity" v="restaurant"/>
    <tag k="cuisine" v="regional"/>
    <tag k="name" v="Café-Restaurant Porto"/>
    <tag k="url" v="http://www.donaurast.at/restaurant.html"/>
  </node>
  <node id="539457301" version="2" timestamp="2010-09-20T12:46:16Z" uid="65148" user="Pirat Michi" changeset="5828900" lat="48.2742149" lon="16.35787">
    <tag k="addr:city" v="Wien"/>
    <tag k="addr:country" v="AT"/>
    <tag k="addr:housenumber" v="2"/>
    <tag k="addr:postcode" v="1190"/>
    <tag k="addr:street" v="Kuchelauer Hafenstraße"/>
    <tag k="amenity" v="restaurant"/>
    <tag k="cuisine" v="regional"/>
    <tag k="name" v="Café-Restaurant Porto"/>
    <tag k="website" v="http://www.donaurast.at/restaurant.html"/>
  </node>
  <node id="539458155" version="1" timestamp="2009-10-24T11:53:49Z" uid="58091" user="Andreas M" changeset="2936918" lat="48.2378103" lon="16.3861525">
    <tag k="amenity" v="toilets"/>
  </node>
  <node id="539458155" version="2" timestamp="2010-03-31T19:35:43Z" uid="129531" user="almich" changeset="4288664" lat="48.2377915" lon="16.3861202">
    <tag k="amenity" v="toilets"/>
  </node>
  <node id="539458155" version="3" timestamp="2011-03-20T20:13:13Z" uid="232372" user="wosm20" changeset="7621190" lat="48.2377915" lon="16.3861202">
    <tag k="amenity" v="toilets"/>
  </node>
  <node id="539450125" version="6" timestamp="2012-05-05T11:58:54Z" uid="8703" user="rolandg" changeset="11506872" lat="48.0954153" lon="11.4969697"/>
  <node id="539450128" version="3" timestamp="2012-05-05T12:16:40Z" uid="8703" user="rolandg" changeset="11507194" lat="48.0953223" lon="11.4977426"/>
  <node id="539450130" version="4" timestamp="2012-05-05T11:58:52Z" uid="8703" user="rolandg" changeset="11506872" lat="48.0952318" lon="11.4977369"/>
  <node id="539450132" version="3" timestamp="2012-05-05T12:16:40Z" uid="8703" user="rolandg" changeset="11507194" lat="48.0953966" lon="11.4975477"/>
  <node id="539450134" version="8" timestamp="2012-05-07T08:24:27Z" uid="8703" user="rolandg" changeset="11526051" lat="48.0956782" lon="11.4977803"/>
  <node id="539450135" version="3" timestamp="2012-05-05T11:58:54Z" uid="8703" user="rolandg" changeset="11506872" lat="48.0957638" lon="11.4979223"/>
  <node id="539455725" version="3" timestamp="2012-07-16T22:51:16Z" uid="722137" user="OSMF Redaction Account" changeset="12252971" lat="48.274466" lon="16.3548549">
    <tag k="religion" v="christian"/>
  </node>
  <node id="539455725" version="4" timestamp="2012-07-22T04:30:40Z" uid="54806" user="_al" changeset="12425150" lat="48.274472" lon="16.3547278"/>
  <node id="539455726" version="3" timestamp="2012-05-06T20:05:18Z" uid="137798" user="HellSpawn" changeset="11522790" lat="48.2751468" lon="16.3550363">
    <tag k="addr:city" v="Wien"/>
    <tag k="addr:country" v="AT"/>
    <tag k="addr:housenumber" v="2"/>
    <tag k="addr:postcode" v="1190"/>
    <tag k="addr:street" v="Geigeringasse"/>
    <tag k="amenity" v="restaurant"/>
    <tag k="cuisine" v="heuriger"/>
    <tag k="name" v="Weiss"/>
  </node>
  <node id="539455726" version="4" timestamp="2012-07-16T22:51:16Z" uid="722137" user="OSMF Redaction Account" changeset="12252971" lat="48.2751468" lon="16.3550363">
    <tag k="amenity" v="restaurant"/>
    <tag k="cuisine" v="heuriger"/>
  </node>
  <node id="539455727" version="3" timestamp="2012-05-06T20:05:17Z" uid="137798" user="HellSpawn" changeset="11522790" lat="48.2747903" lon="16.3548762">
    <tag k="addr:city" v="Wien"/>
    <tag k="addr:country" v="AT"/>
    <tag k="addr:housenumber" v="6"/>
    <tag k="addr:postcode" v="1190"/>
    <tag k="addr:street" v="Geigeringasse"/>
    <tag k="amenity" v="restaurant"/>
    <tag k="cuisine" v="heuriger"/>
    <tag k="name" v="Buschenschank Taschler"/>
  </node>
  <node id="539455727" version="4" timestamp="2012-07-16T22:51:16Z" uid="722137" user="OSMF Redaction Account" changeset="12252971" lat="48.2747903" lon="16.3548762">
    <tag k="amenity" v="restaurant"/>
    <tag k="cuisine" v="heuriger"/>
  </node>
  <node id="539456117" version="2" timestamp="2012-04-04T20:06:24Z" uid="13832" user="Peter14" changeset="11181541" lat="48.0965117" lon="11.4951256"/>
  <node id="539456121" version="2" timestamp="2012-04-04T20:06:24Z" uid="13832" user="Peter14" changeset="11181541" lat="48.0961047" lon="11.4955548"/>
  <node id="539456176" version="3" timestamp="2012-05-07T08:53:23Z" uid="8703" user="rolandg" changeset="11526051" lat="48.094841" lon="11.497756"/>
  <node id="539456186" version="4" timestamp="2012-04-06T10:31:24Z" uid="230707" user="stanton" changeset="11199444" lat="48.095343" lon="11.498297"/>
  <node id="539456194" version="4" timestamp="2012-05-07T15:53:35Z" uid="8703" user="rolandg" changeset="11530428" lat="48.094566" lon="11.500036"/>
  <node id="539456224" version="4" timestamp="2012-04-06T10:31:23Z" uid="230707" user="stanton" changeset="11199444" lat="48.094892" lon="11.50076"/>
  <node id="539456503" version="3" timestamp="2012-05-06T14:05:31Z" uid="8703" user="rolandg" changeset="11518817" lat="48.0946088" lon="11.4982879"/>
  <node id="539456505" version="3" timestamp="2012-05-06T14:05:31Z" uid="8703" user="rolandg" changeset="11518817" lat="48.0945858" lon="11.4984682"/>
  <node id="539456509" version="3" timestamp="2012-05-06T14:05:31Z" uid="8703" user="rolandg" changeset="11518817" lat="48.0946948" lon="11.4985368"/>
  <node id="539456512" version="3" timestamp="2012-05-06T14:05:31Z" uid="8703" user="rolandg" changeset="11518817" lat="48.0946718" lon="11.4984768"/>
  <node id="539456516" version="3" timestamp="2012-05-06T14:05:31Z" uid="8703" user="rolandg" changeset="11518817" lat="48.0946432" lon="11.4984682"/>
  <node id="539456518" version="3" timestamp="2012-05-06T14:05:31Z" uid="8703" user="rolandg" changeset="11518817" lat="48.0946374" lon="11.4984853"/>
  <node id="539456521" version="4" timestamp="2012-05-06T14:05:31Z" uid="8703" user="rolandg" changeset="11518817" lat="48.09468" lon="11.4985101"/>
  <node id="539456586" version="2" timestamp="2012-05-06T14:05:31Z" uid="8703" user="rolandg" changeset="11518817" lat="48.0948323" lon="11.4983995"/>
  <node id="539456589" version="2" timestamp="2012-05-06T14:05:31Z" uid="8703" user="rolandg" changeset="11518817" lat="48.094798" lon="11.4983394"/>
  <node id="539456590" version="2" timestamp="2012-05-06T14:05:32Z" uid="8703" user="rolandg" changeset="11518817" lat="48.0946776" lon="11.4985712"/>
  <node id="539456592" version="2" timestamp="2012-05-06T14:05:32Z" uid="8703" user="rolandg" changeset="11518817" lat="48.094689" lon="11.4985712"/>
  <node id="539456594" version="2" timestamp="2012-05-06T14:05:32Z" uid="8703" user="rolandg" changeset="11518817" lat="48.0946661" lon="11.4986484"/>
  <node id="539456596" version="2" timestamp="2012-05-06T14:05:31Z" uid="8703" user="rolandg" changeset="11518817" lat="48.0947979" lon="11.4986794"/>
  <node id="539457301" version="3" timestamp="2012-07-16T22:52:14Z" uid="722137" user="OSMF Redaction Account" changeset="12253006" lat="48.2742149" lon="16.35787"/>
</osm>
