<?xml version='1.0' encoding='UTF-8'?>
<osm version="0.6" generator="libosmium/2.20.0">
  <node id="544903360" version="2" timestamp="2010-07-29T09:40:16Z" uid="74617" user="JohnSmith" changeset="5344848" lat="52.1510679" lon="10.3599037">
    <tag k="amenity" v="emergency_phone"/>
    <tag k="emergency" v="phone"/>
    <tag k="operator" v="Autobahnmeisterei"/>
  </node>
  <node id="544903363" version="2" timestamp="2010-07-29T09:32:21Z" uid="74617" user="JohnSmith" changeset="5344848" lat="52.1978717" lon="10.4598184">
    <tag k="amenity" v="emergency_phone"/>
    <tag k="emergency" v="phone"/>
    <tag k="operator" v="Autobahnmeisterei"/>
  </node>
  <node id="544903363" version="3" timestamp="2012-01-10T02:40:17Z" uid="393959" user="erge50" changeset="10348028" lat="52.1978388" lon="10.4596207">
    <tag k="amenity" v="emergency_phone"/>
    <tag k="emergency" v="phone"/>
    <tag k="operator" v="Autobahnmeisterei"/>
  </node>
  <node id="544903365" version="2" timestamp="2010-07-29T09:28:43Z" uid="74617" user="JohnSmith" changeset="5344848" lat="52.2142504" lon="10.4939123">
    <tag k="amenity" v="emergency_phone"/>
    <tag k="emergency" v="phone"/>
    <tag k="operator" v="Autobahnmeisterei"/>
  </node>
  <node id="544903368" version="2" timestamp="2010-07-29T09:04:45Z" uid="74617" user="JohnSmith" changeset="5344848" lat="52.2352418" lon="10.5150098">
    <tag k="amenity" v="emergency_phone"/>
    <tag k="emergency" v="phone"/>
    <tag k="operator" v="Autobahnmeisterei"/>
  </node>
  <node id="544903370" version="2" timestamp="2010-07-29T09:36:28Z" uid="74617" user="JohnSmith" changeset="5344848" lat="52.2399708" lon="10.541804">
    <tag k="amenity" v="emergency_phone"/>
    <tag k="emergency" v="phone"/>
    <tag k="operator" v="Autobahnmeisterei"/>
  </node>
  <node id="544903372" version="2" timestamp="2010-07-29T09:31:40Z" uid="74617" user="JohnSmith" changeset="5344848" lat="52.2453016" lon="10.5565805">
    <tag k="amenity" v="emergency_phone"/>
    <tag k="emergency" v="phone"/>
    <tag k="operator" v="Autobahnmeisterei"/>
  </node>
  <node id="544903372" version="3" timestamp="2011-05-28T23:48:52Z" uid="142572" user="max1981" changeset="8276742" lat="52.2452865" lon="10.5565845">
    <tag k="amenity" v="emergency_phone"/>
    <tag k="emergency" v="phone"/>
    <tag k="operator" v="Autobahnmeisterei"/>
  </node>
  <node id="544903372" version="4" timestamp="2012-03-29T09:14:46Z" uid="393959" user="erge50" changeset="11135272" lat="52.2452443" lon="10.5565965">
    <tag k="amenity" v="emergency_phone"/>
    <tag k="emergency" v="phone"/>
    <tag k="operator" v="Autobahnmeisterei"/>
  </node>
  <node id="544903375" version="2" timestamp="2010-07-29T09:26:11Z" uid="74617" user="JohnSmith" changeset="5344848" lat="52.2468946" lon="10.6032069">
    <tag k="amenity" v="emergency_phone"/>
    <tag k="emergency" v="phone"/>
    <tag k="operator" v="Autobahnmeisterei"/>
  </node>
  <node id="544903378" version="2" timestamp="2010-07-29T09:00:16Z" uid="74617" user="JohnSmith" changeset="5344848" lat="52.2505304" lon="10.6285056">
    <tag k="amenity" v="emergency_phone"/>
    <tag k="emergency" v="phone"/>
    <tag k="operator" v="Autobahnmeisterei"/>
  </node>
  <node id="544903381" version="2" timestamp="2010-07-29T09:03:55Z" uid="74617" user="JohnSmith" changeset="5344848" lat="52.2515461" lon="10.5729407">
    <tag k="amenity" v="emergency_phone"/>
    <tag k="emergency" v="phone"/>
    <tag k="operator" v="Autobahnmeisterei"/>
  </node>
  <node id="544903384" version="2" timestamp="2010-07-29T09:25:54Z" uid="74617" user="JohnSmith" changeset="5344848" lat="52.259972" lon="10.6801945">
    <tag k="amenity" v="emergency_phone"/>
    <tag k="emergency" v="phone"/>
    <tag k="operator" v="Autobahnmeisterei"/>
  </node>
  <node id="544903387" version="2" timestamp="2010-07-29T09:19:14Z" uid="74617" user="JohnSmith" changeset="5344848" lat="52.2685605" lon="10.6979041">
    <tag k="amenity" v="emergency_phone"/>
    <tag k="emergency" v="phone"/>
    <tag k="operator" v="Autobahnmeisterei"/>
  </node>
  <node id="544903399" version="2" timestamp="2010-07-29T09:20:49Z" uid="74617" user="JohnSmith" changeset="5344848" lat="52.283206" lon="10.7116178">
    <tag k="amenity" v="emergency_phone"/>
    <tag k="emergency" v="phone"/>
    <tag k="operator" v="Autobahnmeisterei"/>
  </node>
  <node id="544903402" version="2" timestamp="2010-07-29T09:40:55Z" uid="74617" user="JohnSmith" changeset="5344848" lat="52.2974731" lon="10.7210053">
    <tag k="amenity" v="emergency_phone"/>
    <tag k="emergency" v="phone"/>
    <tag k="operator" v="Autobahnmeisterei"/>
  </node>
  <node id="544903404" version="2" timestamp="2010-07-29T09:37:35Z" uid="74617" user="JohnSmith" changeset="5344848" lat="52.3166929" lon="10.7306185">
    <tag k="amenity" v="emergency_phone"/>
    <tag k="emergency" v="phone"/>
    <tag k="operator" v="Autobahnmeisterei"/>
  </node>
  <node id="544903360" version="3" timestamp="2012-07-18T21:18:23Z" uid="722137" user="OSMF Redaction Account" changeset="12298931" lat="52.1510679" lon="10.3599037">
    <tag k="amenity" v="emergency_phone"/>
    <tag k="operator" v="Autobahnmeisterei"/>
  </node>
  <node id="544903363" version="4" timestamp="2012-07-18T21:17:30Z" uid="722137" user="OSMF Redaction Account" changeset="12298899" lat="52.1978388" lon="10.4596207">
    <tag k="amenity" v="emergency_phone"/>
    <tag k="operator" v="Autobahnmeisterei"/>
  </node>
  <node id="544903365" version="3" timestamp="2012-07-18T21:17:30Z" uid="722137" user="OSMF Redaction Account" changeset="12298899" lat="52.2142504" lon="10.4939123">
    <tag k="amenity" v="emergency_phone"/>
    <tag k="operator" v="Autobahnmeisterei"/>
  </node>
  <node id="544903368" version="3" timestamp="2012-07-18T20:37:00Z" uid="722137" user="OSMF Redaction Account" changeset="12297507" lat="52.2352418" lon="10.5150098">
    <tag k="amenity" v="emergency_phone"/>
    <tag k="operator" v="Autobahnmeisterei"/>
  </node>
  <node id="544903370" version="3" timestamp="2012-07-18T20:37:00Z" uid="722137" user="OSMF Redaction Account" changeset="12297507" lat="52.2399708" lon="10.541804">
    <tag k="amenity" v="emergency_phone"/>
    <tag k="operator" v="Autobahnmeisterei"/>
  </node>
  <node id="544903372" version="5" timestamp="2012-07-18T20:37:01Z" uid="722137" user="OSMF Redaction Account" changeset="12297507" lat="52.2452443" lon="10.5565965">
    <tag k="amenity" v="emergency_phone"/>
    <tag k="operator" v="Autobahnmeisterei"/>
  </node>
  <node id="544903375" version="3" timestamp="2012-07-18T20:34:20Z" uid="722137" user="OSMF Redaction Account" changeset="12297439" lat="52.2468946" lon="10.6032069">
    <tag k="amenity" v="emergency_phone"/>
    <tag k="operator" v="Autobahnmeisterei"/>
  </node>
  <node id="544903378" version="3" timestamp="2012-07-18T19:48:59Z" uid="722137" user="OSMF Redaction Account" changeset="12295651" lat="52.2505304" lon="10.6285056">
    <tag k="amenity" v="emergency_phone"/>
    <tag k="operator" v="Autobahnmeisterei"/>
  </node>
  <node id="544903378" version="4" timestamp="2012-07-26T04:45:19Z" uid="31231" user="Andre68" changeset="12494343" lat="52.2505302" lon="10.6285052">
    <tag k="amenity" v="emergency_phone"/>
    <tag k="operator" v="Autobahnmeisterei"/>
  </node>
  <node id="544903381" version="3" timestamp="2012-07-18T19:54:22Z" uid="722137" user="OSMF Redaction Account" changeset="12295892" lat="52.2515461" lon="10.5729407">
    <tag k="amenity" v="emergency_phone"/>
    <tag k="operator" v="Autobahnmeisterei"/>
  </node>
  <node id="544903384" version="3" timestamp="2012-07-18T19:48:59Z" uid="722137" user="OSMF Redaction Account" changeset="12295651" lat="52.259972" lon="10.6801945">
    <tag k="amenity" v="emergency_phone"/>
    <tag k="operator" v="Autobahnmeisterei"/>
  </node>
  <node id="544903387" version="3" timestamp="2012-07-18T19:47:44Z" uid="722137" user="OSMF Redaction Account" changeset="12295612" lat="52.2685605" lon="10.6979041">
    <tag k="amenity" v="emergency_phone"/>
    <tag k="operator" v="Autobahnmeisterei"/>
  </node>
  <node id="544903399" version="3" timestamp="2012-07-18T19:47:45Z" uid="722137" user="OSMF Redaction Account" changeset="12295612" lat="52.283206" lon="10.7116178">
    <tag k="amenity" v="emergency_phone"/>
    <tag k="operator" v="Autobahnmeisterei"/>
  </node>
  <node id="544903402" version="3" timestamp="2012-07-18T19:47:45Z" uid="722137" user="OSMF Redaction Account" changeset="12295612" lat="52.2974731" lon="10.7210053">
    <tag k="amenity" v="emergency_phone"/>
    <tag k="operator" v="Autobahnmeisterei"/>
  </node>
  <node id="544903404" version="3" timestamp="2012-07-18T19:47:46Z" uid="722137" user="OSMF Redaction Account" changeset="12295612" lat="52.3166929" lon="10.7306185">
    <tag k="amenity" v="emergency_phone"/>
    <tag k="operator" v="Autobahnmeisterei"/>
  </node>
</osm>
