<?xml version='1.0' encoding='UTF-8'?>
<osm version="0.6" generator="libosmium/2.20.0">
  <node id="546029805" version="1" timestamp="2009-10-30T10:37:35Z" uid="99207" user="Lar Kiesel" changeset="2988076" lat="33.984648" lon="-81.2515201">
    <tag k="name" v="Circle K"/>
    <tag k="shop" v="convenience"/>
  </node>
  <node id="546029805" version="2" timestamp="2009-11-01T22:49:40Z" uid="99207" user="Lar Kiesel" changeset="3012378" lat="33.984655" lon="-81.2515146">
    <tag k="addr:city" v="Lexington, SC"/>
    <tag k="addr:housenumber" v="746"/>
    <tag k="addr:postcode" v="29072"/>
    <tag k="addr:street" v="West Main Street"/>
    <tag k="name" v="Circle K"/>
    <tag k="phone" v="803-359-7848"/>
    <tag k="shop" v="convenience"/>
    <tag k="website" v="http://circlek.com/"/>
  </node>
  <node id="546029849" version="1" timestamp="2009-10-30T10:37:36Z" uid="99207" user="Lar Kiesel" changeset="2988076" lat="33.9836516" lon="-81.252593">
    <tag k="addr:city" v="Lexington, SC"/>
    <tag k="addr:housenumber" v="903"/>
    <tag k="addr:postcode" v="29070"/>
    <tag k="addr:street" v="West Main Street"/>
    <tag k="name" v="AutoZone"/>
    <tag k="phone" v="803-359-7883"/>
    <tag k="shop" v="car_repair"/>
  </node>
  <node id="546029849" version="2" timestamp="2009-11-01T22:49:37Z" uid="99207" user="Lar Kiesel" changeset="3012378" lat="33.9836586" lon="-81.2525875">
    <tag k="addr:city" v="Lexington, SC"/>
    <tag k="addr:housenumber" v="903"/>
    <tag k="addr:postcode" v="29070"/>
    <tag k="addr:street" v="West Main Street"/>
    <tag k="name" v="AutoZone"/>
    <tag k="phone" v="803-359-7883"/>
    <tag k="shop" v="car_parts"/>
  </node>
  <node id="546029849" version="3" timestamp="2010-01-28T08:10:44Z" uid="99207" user="Lar Kiesel" changeset="3733733" lat="33.9836587" lon="-81.2525874">
    <tag k="addr:city" v="Lexington, SC"/>
    <tag k="addr:housenumber" v="903"/>
    <tag k="addr:postcode" v="29072"/>
    <tag k="addr:street" v="West Main Street"/>
    <tag k="name" v="AutoZone"/>
    <tag k="phone" v="803-359-7883"/>
    <tag k="shop" v="car_parts"/>
  </node>
  <node id="546029916" version="1" timestamp="2009-10-30T10:37:37Z" uid="99207" user="Lar Kiesel" changeset="2988076" lat="33.9834808" lon="-81.2534942">
    <tag k="addr:city" v="Lexington, SC"/>
    <tag k="addr:housenumber" v="1003"/>
    <tag k="addr:postcode" v="29070"/>
    <tag k="addr:street" v="West Main Street"/>
    <tag k="name" v="Advance Auto Parts"/>
    <tag k="phone" v="803-359-3699"/>
    <tag k="shop" v="car_repair"/>
  </node>
  <node id="546029916" version="2" timestamp="2009-11-01T22:49:37Z" uid="99207" user="Lar Kiesel" changeset="3012378" lat="33.9834878" lon="-81.2534887">
    <tag k="addr:city" v="Lexington, SC"/>
    <tag k="addr:housenumber" v="1003"/>
    <tag k="addr:postcode" v="29070"/>
    <tag k="addr:street" v="West Main Street"/>
    <tag k="name" v="Advance Auto Parts"/>
    <tag k="phone" v="803-359-3699"/>
    <tag k="shop" v="car_parts"/>
  </node>
  <node id="546029916" version="3" timestamp="2010-01-28T08:10:44Z" uid="99207" user="Lar Kiesel" changeset="3733733" lat="33.9834879" lon="-81.2534886">
    <tag k="addr:city" v="Lexington, SC"/>
    <tag k="addr:housenumber" v="1003"/>
    <tag k="addr:postcode" v="29072"/>
    <tag k="addr:street" v="West Main Street"/>
    <tag k="name" v="Advance Auto Parts"/>
    <tag k="phone" v="803-359-3699"/>
    <tag k="shop" v="car_parts"/>
  </node>
  <node id="546029805" version="3" timestamp="2012-07-18T15:43:39Z" uid="722137" user="OSMF Redaction Account" changeset="12287504" lat="33.984655" lon="-81.2515146"/>
  <node id="546029849" version="4" timestamp="2012-07-18T15:43:33Z" uid="722137" user="OSMF Redaction Account" changeset="12287504" lat="33.9836587" lon="-81.2525874"/>
  <node id="546029916" version="4" timestamp="2012-07-18T15:43:32Z" uid="722137" user="OSMF Redaction Account" changeset="12287504" lat="33.9834879" lon="-81.2534886"/>
</osm>
