<?xml version='1.0' encoding='UTF-8'?>
<osm version="0.6" generator="libosmium/2.20.0">
  <node id="548673521" version="2" timestamp="2009-11-11T08:44:27Z" uid="20587" user="balrog-kun" changeset="3088189" lat="50.5653538" lon="18.8887836">
    <tag k="is_in" v="Silesia"/>
    <tag k="name" v="Kalety"/>
    <tag k="railway" v="station"/>
  </node>
  <node id="548673521" version="3" timestamp="2010-02-24T21:39:03Z" uid="91056" user="Yarl" changeset="3967047" lat="50.5653538" lon="18.8887836">
    <tag k="is_in" v="Silesia"/>
    <tag k="name" v="Kalety"/>
    <tag k="railway" v="station"/>
  </node>
  <node id="548674018" version="2" timestamp="2009-11-11T08:44:27Z" uid="20587" user="balrog-kun" changeset="3088189" lat="50.5619613" lon="18.8831852">
    <tag k="amenity" v="police"/>
    <tag k="name" v="Kalety"/>
  </node>
  <node id="548674018" version="3" timestamp="2010-02-24T21:38:44Z" uid="91056" user="Yarl" changeset="3967047" lat="50.5642061" lon="18.8836883">
    <tag k="amenity" v="police"/>
    <tag k="name" v="Posterunek Policji"/>
  </node>
  <node id="548674018" version="4" timestamp="2011-04-21T19:46:50Z" uid="439794" user="cotara" changeset="7928657" lat="50.5641241" lon="18.8838404">
    <tag k="amenity" v="police"/>
    <tag k="name" v="Posterunek Policji w Kaletach"/>
  </node>
  <node id="548674018" version="5" timestamp="2011-08-18T21:21:31Z" uid="439794" user="cotara" changeset="9060927" lat="50.5641241" lon="18.8838404"/>
  <node id="548674544" version="2" timestamp="2009-11-11T08:44:26Z" uid="20587" user="balrog-kun" changeset="3088189" lat="50.5641967" lon="18.8799408">
    <tag k="amenity" v="fire_station"/>
  </node>
  <node id="548674544" version="3" timestamp="2011-04-21T19:26:04Z" uid="439794" user="cotara" changeset="7928472" lat="50.565269" lon="18.8816354">
    <tag k="amenity" v="fire_station"/>
  </node>
  <node id="548674544" version="4" timestamp="2011-04-24T14:39:48Z" uid="439794" user="cotara" changeset="7953370" lat="50.565269" lon="18.8816354">
    <tag k="amenity" v="fire_station"/>
    <tag k="name" v="OSP Kalety"/>
  </node>
  <node id="548679045" version="1" timestamp="2009-10-31T14:14:30Z" uid="99207" user="Lar Kiesel" changeset="2997680" lat="33.9055135" lon="-81.2342633">
    <tag k="addr:city" v="Lexington, SC"/>
    <tag k="addr:housenumber" v="5643"/>
    <tag k="addr:postcode" v="29073"/>
    <tag k="addr:street" v="Platt Springs Road"/>
    <tag k="amenity" v="school"/>
    <tag k="name" v="White Knoll High School"/>
    <tag k="phone" v="803-821-5200"/>
  </node>
  <node id="548679045" version="2" timestamp="2009-12-02T03:44:31Z" uid="99207" user="Lar Kiesel" changeset="3269250" lat="33.9055136" lon="-81.2342634">
    <tag k="addr:city" v="Lexington, SC"/>
    <tag k="addr:housenumber" v="5643"/>
    <tag k="addr:postcode" v="29073"/>
    <tag k="addr:state" v="SC"/>
    <tag k="addr:street" v="Platt Springs Road"/>
    <tag k="amenity" v="school"/>
    <tag k="name" v="White Knoll High School"/>
    <tag k="phone" v="803-821-5200"/>
  </node>
  <node id="548679064" version="1" timestamp="2009-10-31T14:14:31Z" uid="99207" user="Lar Kiesel" changeset="2997680" lat="33.8952193" lon="-81.258768">
    <tag k="addr:city" v="Lexington, SC"/>
    <tag k="addr:housenumber" v="6180"/>
    <tag k="addr:postcode" v="29073"/>
    <tag k="addr:street" v="Platt Springs Road"/>
    <tag k="amenity" v="school"/>
    <tag k="name" v="Carolina Springs Middle School"/>
    <tag k="phone" v="803-821-3703"/>
  </node>
  <node id="548679064" version="2" timestamp="2009-12-02T03:44:30Z" uid="99207" user="Lar Kiesel" changeset="3269250" lat="33.8952194" lon="-81.2587681">
    <tag k="addr:city" v="Lexington, SC"/>
    <tag k="addr:housenumber" v="6180"/>
    <tag k="addr:postcode" v="29073"/>
    <tag k="addr:state" v="SC"/>
    <tag k="addr:street" v="Platt Springs Road"/>
    <tag k="amenity" v="school"/>
    <tag k="name" v="Carolina Springs Middle School"/>
    <tag k="phone" v="803-821-3703"/>
  </node>
  <node id="548679086" version="1" timestamp="2009-10-31T14:14:31Z" uid="99207" user="Lar Kiesel" changeset="2997680" lat="33.8889211" lon="-81.2655743">
    <tag k="addr:city" v="Lexington, SC"/>
    <tag k="addr:housenumber" v="6340"/>
    <tag k="addr:postcode" v="29073"/>
    <tag k="addr:street" v="Platt Springs Road"/>
    <tag k="amenity" v="school"/>
    <tag k="name" v="Carolina Springs Elementary School"/>
    <tag k="phone" v="803-821-5100"/>
  </node>
  <node id="548679045" version="3" timestamp="2012-07-18T15:28:11Z" uid="722137" user="OSMF Redaction Account" changeset="12286937" lat="33.9055136" lon="-81.2342634"/>
  <node id="548679064" version="3" timestamp="2012-07-18T15:42:12Z" uid="722137" user="OSMF Redaction Account" changeset="12287425" lat="33.8952194" lon="-81.2587681"/>
  <node id="548679086" version="2" timestamp="2012-07-18T15:42:09Z" uid="722137" user="OSMF Redaction Account" changeset="12287425" lat="33.8889211" lon="-81.2655743"/>
</osm>
