<?xml version='1.0' encoding='UTF-8'?>
<osm version="0.6" generator="libosmium/2.20.0">
  <node id="550541204" version="2" timestamp="2010-04-11T04:52:50Z" uid="20587" user="balrog-kun" changeset="4389130" lat="49.95292" lon="19.37898">
    <tag k="name" v="Nykłówka"/>
    <tag k="place" v="village"/>
    <tag k="source" v="http://ump.waw.pl/ retrieved 01:24:13 09/02/09 (UMP-Krakow/src/cities-Krakow.pnt-converted.txt)"/>
  </node>
  <node id="550541204" version="3" timestamp="2010-04-11T13:16:36Z" uid="20587" user="balrog-kun" changeset="4392352" lat="49.95292" lon="19.37898">
    <tag k="name" v="Nykłówka"/>
    <tag k="place" v="village"/>
    <tag k="source" v="http://ump.waw.pl/ retrieved 01:24:13 09/02/09 (UMP-Krakow/src/cities-Krakow.pnt-converted.txt)"/>
  </node>
  <node id="550544783" version="2" timestamp="2010-04-11T04:52:50Z" uid="20587" user="balrog-kun" changeset="4389130" lat="49.9417411" lon="19.3835094">
    <tag k="name" v="Gierałtowiczki"/>
    <tag k="place" v="village"/>
    <tag k="source" v="http://ump.waw.pl/ retrieved 01:24:13 09/02/09 (UMP-Krakow/src/cities-Krakow.pnt-converted.txt)"/>
  </node>
  <node id="550544783" version="3" timestamp="2010-04-11T13:16:36Z" uid="20587" user="balrog-kun" changeset="4392352" lat="49.941553" lon="19.3832305">
    <tag k="name" v="Gierałtowiczki"/>
    <tag k="place" v="village"/>
    <tag k="source" v="http://ump.waw.pl/ retrieved 01:24:13 09/02/09 (UMP-Krakow/src/cities-Krakow.pnt-converted.txt)"/>
  </node>
  <node id="550544783" version="4" timestamp="2010-04-27T04:01:17Z" uid="30632" user="antblant" changeset="4537859" lat="49.941553" lon="19.3832305">
    <tag k="name" v="Gierałtowiczki"/>
    <tag k="place" v="village"/>
    <tag k="source" v="http://ump.waw.pl/ retrieved 01:24:13 09/02/09 (UMP-Krakow/src/cities-Krakow.pnt-converted.txt)"/>
    <tag k="teryt:simc" v="0075587"/>
  </node>
  <node id="550544788" version="2" timestamp="2010-04-11T04:52:50Z" uid="20587" user="balrog-kun" changeset="4389130" lat="49.9388554" lon="19.3869109">
    <tag k="name" v="Gierałtowice"/>
    <tag k="place" v="village"/>
    <tag k="source" v="http://ump.waw.pl/ retrieved 01:24:13 09/02/09 (UMP-Krakow/src/cities-Krakow.pnt-converted.txt)"/>
  </node>
  <node id="550544788" version="3" timestamp="2010-04-11T13:16:36Z" uid="20587" user="balrog-kun" changeset="4392352" lat="49.9388705" lon="19.3864741">
    <tag k="name" v="Gierałtowice"/>
    <tag k="place" v="village"/>
    <tag k="source" v="http://ump.waw.pl/ retrieved 01:24:13 09/02/09 (UMP-Krakow/src/cities-Krakow.pnt-converted.txt)"/>
  </node>
  <node id="550548941" version="2" timestamp="2010-04-11T04:52:50Z" uid="20587" user="balrog-kun" changeset="4389130" lat="49.93995" lon="19.42298">
    <tag k="name" v="Przybradz"/>
    <tag k="place" v="village"/>
    <tag k="source" v="http://ump.waw.pl/ retrieved 01:24:13 09/02/09 (UMP-Krakow/src/cities-Krakow.pnt-converted.txt)"/>
  </node>
  <node id="550548941" version="3" timestamp="2010-04-11T13:16:36Z" uid="20587" user="balrog-kun" changeset="4392352" lat="49.93995" lon="19.42298">
    <tag k="name" v="Przybradz"/>
    <tag k="place" v="village"/>
    <tag k="source" v="http://ump.waw.pl/ retrieved 01:24:13 09/02/09 (UMP-Krakow/src/cities-Krakow.pnt-converted.txt)"/>
  </node>
  <node id="550548941" version="4" timestamp="2010-04-27T03:56:35Z" uid="30632" user="antblant" changeset="4537843" lat="49.93995" lon="19.42298">
    <tag k="name" v="Przybradz"/>
    <tag k="place" v="village"/>
    <tag k="source" v="http://ump.waw.pl/ retrieved 01:24:13 09/02/09 (UMP-Krakow/src/cities-Krakow.pnt-converted.txt)"/>
    <tag k="teryt:simc" v="0075877"/>
  </node>
  <node id="550541204" version="4" timestamp="2012-08-30T16:00:07Z" uid="760215" user="pnorman redaction revert" changeset="12919788" lat="49.95292" lon="19.37898"/>
  <node id="550544783" version="5" timestamp="2012-08-30T16:00:31Z" uid="760215" user="pnorman redaction revert" changeset="12919788" lat="49.941553" lon="19.3832305">
    <tag k="teryt:simc" v="0075587"/>
  </node>
  <node id="550544788" version="4" timestamp="2012-08-30T16:00:31Z" uid="760215" user="pnorman redaction revert" changeset="12919788" lat="49.9388705" lon="19.3864741"/>
  <node id="550544788" version="5" timestamp="2012-09-02T06:10:02Z" uid="206037" user="hurdygurdyman" changeset="12949412" lat="49.9388705" lon="19.3864741"/>
  <node id="550548941" version="5" timestamp="2012-09-01T04:29:38Z" uid="760215" user="pnorman redaction revert" changeset="12938447" lat="49.93995" lon="19.42298"/>
</osm>
