<?xml version='1.0' encoding='UTF-8'?>
<osm version="0.6" generator="libosmium/2.20.0">
  <node id="550500461" version="2" timestamp="2010-04-11T04:52:49Z" uid="20587" user="balrog-kun" changeset="4389130" lat="49.8660861" lon="19.5520876">
    <tag k="name" v="Klecza Górna"/>
    <tag k="place" v="village"/>
    <tag k="source" v="http://ump.waw.pl/ retrieved 01:24:13 09/02/09 (UMP-Krakow/src/cities-Krakow.pnt-converted.txt)"/>
  </node>
  <node id="550500461" version="3" timestamp="2010-04-11T13:16:35Z" uid="20587" user="balrog-kun" changeset="4392352" lat="49.864293" lon="19.5547652">
    <tag k="name" v="Klecza Górna"/>
    <tag k="place" v="village"/>
    <tag k="source" v="http://ump.waw.pl/ retrieved 01:24:13 09/02/09 (UMP-Krakow/src/cities-Krakow.pnt-converted.txt)"/>
  </node>
  <node id="550500461" version="4" timestamp="2010-04-27T04:04:07Z" uid="30632" user="antblant" changeset="4537867" lat="49.864293" lon="19.5547652">
    <tag k="name" v="Klecza Górna"/>
    <tag k="place" v="village"/>
    <tag k="source" v="http://ump.waw.pl/ retrieved 01:24:13 09/02/09 (UMP-Krakow/src/cities-Krakow.pnt-converted.txt)"/>
    <tag k="teryt:simc" v="0074470"/>
  </node>
  <node id="550503169" version="2" timestamp="2010-04-11T04:52:49Z" uid="20587" user="balrog-kun" changeset="4389130" lat="49.8737347" lon="19.5416678">
    <tag k="name" v="Klecza Dolna"/>
    <tag k="place" v="village"/>
    <tag k="source" v="http://ump.waw.pl/ retrieved 01:24:13 09/02/09 (UMP-Krakow/src/cities-Krakow.pnt-converted.txt)"/>
  </node>
  <node id="550503169" version="3" timestamp="2010-04-11T13:16:35Z" uid="20587" user="balrog-kun" changeset="4392352" lat="49.8703253" lon="19.5439212">
    <tag k="name" v="Klecza Dolna"/>
    <tag k="place" v="village"/>
    <tag k="source" v="http://ump.waw.pl/ retrieved 01:24:13 09/02/09 (UMP-Krakow/src/cities-Krakow.pnt-converted.txt)"/>
  </node>
  <node id="550503169" version="4" timestamp="2010-04-27T04:13:49Z" uid="30632" user="antblant" changeset="4537892" lat="49.8703253" lon="19.5439212">
    <tag k="name" v="Klecza Dolna"/>
    <tag k="place" v="village"/>
    <tag k="source" v="http://ump.waw.pl/ retrieved 01:24:13 09/02/09 (UMP-Krakow/src/cities-Krakow.pnt-converted.txt)"/>
    <tag k="teryt:simc" v="0074346"/>
  </node>
  <node id="550504665" version="2" timestamp="2010-04-11T04:52:49Z" uid="20587" user="balrog-kun" changeset="4389130" lat="49.91745" lon="19.52706">
    <tag k="name" v="Witanowice"/>
    <tag k="place" v="village"/>
    <tag k="source" v="http://ump.waw.pl/ retrieved 01:24:13 09/02/09 (UMP-Krakow/src/cities-Krakow.pnt-converted.txt)"/>
  </node>
  <node id="550504665" version="3" timestamp="2010-04-11T13:16:35Z" uid="20587" user="balrog-kun" changeset="4392352" lat="49.91745" lon="19.52706">
    <tag k="name" v="Witanowice"/>
    <tag k="place" v="village"/>
    <tag k="source" v="http://ump.waw.pl/ retrieved 01:24:13 09/02/09 (UMP-Krakow/src/cities-Krakow.pnt-converted.txt)"/>
  </node>
  <node id="550505159" version="2" timestamp="2010-04-11T04:52:49Z" uid="20587" user="balrog-kun" changeset="4389130" lat="49.9123" lon="19.54367">
    <tag k="name" v="Babica"/>
    <tag k="place" v="village"/>
    <tag k="source" v="http://ump.waw.pl/ retrieved 01:24:13 09/02/09 (UMP-Krakow/src/cities-Krakow.pnt-converted.txt)"/>
  </node>
  <node id="550505159" version="3" timestamp="2010-04-11T13:16:35Z" uid="20587" user="balrog-kun" changeset="4392352" lat="49.9123" lon="19.54367">
    <tag k="name" v="Babica"/>
    <tag k="place" v="village"/>
    <tag k="source" v="http://ump.waw.pl/ retrieved 01:24:13 09/02/09 (UMP-Krakow/src/cities-Krakow.pnt-converted.txt)"/>
  </node>
  <node id="550500461" version="5" timestamp="2012-08-31T07:24:56Z" uid="760215" user="pnorman redaction revert" changeset="12927190" lat="49.864293" lon="19.5547652">
    <tag k="teryt:simc" v="0074470"/>
  </node>
  <node id="550503169" version="5" timestamp="2012-09-01T06:02:08Z" uid="760215" user="pnorman redaction revert" changeset="12938750" lat="49.8703253" lon="19.5439212">
    <tag k="teryt:simc" v="0074346"/>
  </node>
  <node id="550504665" version="4" timestamp="2012-09-01T06:02:37Z" uid="760215" user="pnorman redaction revert" changeset="12938752" lat="49.91745" lon="19.52706"/>
  <node id="550505159" version="4" timestamp="2012-08-30T12:09:24Z" uid="760215" user="pnorman redaction revert" changeset="12917150" lat="49.9123" lon="19.54367"/>
</osm>
