<?xml version='1.0' encoding='UTF-8'?>
<osm version="0.6" generator="libosmium/2.20.0">
  <node id="550926929" version="1" timestamp="2009-11-02T03:08:45Z" uid="99207" user="Lar Kiesel" changeset="3013428" lat="33.9841921" lon="-81.1567102">
    <tag k="addr:city" v="Lexington, SC"/>
    <tag k="addr:housenumber" v="425"/>
    <tag k="addr:postcode" v="29073"/>
    <tag k="addr:street" v="Oak Drive"/>
    <tag k="leisure" v="sports_centre"/>
    <tag k="name" v="Lexington County Tennis Complex"/>
    <tag k="phone" v="803-957-7676"/>
    <tag k="sport" v="tennis"/>
    <tag k="website" v="http://www.lexingtoncountytennis.com/"/>
  </node>
  <node id="550926978" version="1" timestamp="2009-11-02T03:08:47Z" uid="99207" user="Lar Kiesel" changeset="3013428" lat="33.9837651" lon="-81.1538006">
    <tag k="addr:city" v="Lexington, SC"/>
    <tag k="addr:housenumber" v="420"/>
    <tag k="addr:postcode" v="29073"/>
    <tag k="addr:street" v="Oak Drive"/>
    <tag k="leisure" v="sports_centre"/>
    <tag k="phone" v="803-356-4000"/>
    <tag k="sport" v="softball"/>
  </node>
  <node id="550926978" version="2" timestamp="2009-11-03T09:41:30Z" uid="99207" user="Lar Kiesel" changeset="3023196" lat="33.9837711" lon="-81.1538054">
    <tag k="addr:city" v="Lexington, SC"/>
    <tag k="addr:housenumber" v="420"/>
    <tag k="addr:postcode" v="29073"/>
    <tag k="addr:street" v="Oak Drive"/>
    <tag k="leisure" v="sports_centre"/>
    <tag k="name" v="Oak Grove Sports Complex"/>
    <tag k="phone" v="803-356-4000"/>
    <tag k="sport" v="softball"/>
  </node>
  <node id="550926929" version="2" timestamp="2012-07-18T15:22:58Z" uid="722137" user="OSMF Redaction Account" changeset="12286760" lat="33.9841921" lon="-81.1567102"/>
  <node id="550926978" version="3" timestamp="2012-07-18T15:22:55Z" uid="722137" user="OSMF Redaction Account" changeset="12286760" lat="33.9837711" lon="-81.1538054"/>
</osm>
