<?xml version='1.0' encoding='UTF-8'?>
<osm version="0.6" generator="libosmium/2.20.0">
  <node id="552815565" version="1" timestamp="2009-11-03T09:30:47Z" uid="123700" user="Mala" changeset="3023125" lat="52.4059592" lon="16.9271725">
    <tag k="amenity" v="bank"/>
    <tag k="atm" v="yes"/>
    <tag k="name" v="Eurobank"/>
    <tag k="operator" v="Eurobank"/>
  </node>
  <node id="552815567" version="1" timestamp="2009-11-03T09:30:47Z" uid="123700" user="Mala" changeset="3023125" lat="52.4059752" lon="16.9270619">
    <tag k="name" v="Lewiatan"/>
    <tag k="operator" v="Lewiatan"/>
    <tag k="shop" v="supermarket"/>
  </node>
  <node id="552815568" version="1" timestamp="2009-11-03T09:30:47Z" uid="123700" user="Mala" changeset="3023125" lat="52.4059904" lon="16.9269571">
    <tag k="amenity" v="pharmacy"/>
    <tag k="name" v="Apteka &quot;Fontana&quot;"/>
  </node>
  <node id="552815568" version="2" timestamp="2009-12-08T22:29:12Z" uid="123700" user="Mala" changeset="3328988" lat="52.4059904" lon="16.9269571">
    <tag k="amenity" v="pharmacy"/>
    <tag k="name" v="Apteka Fontana"/>
  </node>
  <node id="552815569" version="1" timestamp="2009-11-03T09:30:47Z" uid="123700" user="Mala" changeset="3023125" lat="52.4059379" lon="16.9268405">
    <tag k="amenity" v="cinema"/>
    <tag k="name" v="Kino Pokusa"/>
    <tag k="note" v="18+"/>
  </node>
  <node id="552815571" version="1" timestamp="2009-11-03T09:30:47Z" uid="123700" user="Mala" changeset="3023125" lat="52.4060141" lon="16.9267942">
    <tag k="amenity" v="fast_food"/>
    <tag k="name" v="Bistro Roti"/>
    <tag k="note" v="24h"/>
  </node>
  <node id="552815573" version="1" timestamp="2009-11-03T09:30:48Z" uid="123700" user="Mala" changeset="3023125" lat="52.406058" lon="16.9264918">
    <tag k="name" v="Komputronik"/>
    <tag k="operator" v="Komputronik"/>
    <tag k="shop" v="computer"/>
  </node>
  <node id="552815574" version="1" timestamp="2009-11-03T09:30:48Z" uid="123700" user="Mala" changeset="3023125" lat="52.4061344" lon="16.9259655">
    <tag k="name" v="Tatuum"/>
    <tag k="operator" v="Tatuum"/>
    <tag k="shop" v="clothing"/>
  </node>
  <node id="552815574" version="2" timestamp="2009-12-08T22:29:12Z" uid="123700" user="Mala" changeset="3328988" lat="52.4061344" lon="16.9259655">
    <tag k="name" v="Tatuum"/>
    <tag k="operator" v="Tatuum"/>
    <tag k="shop" v="clothes"/>
  </node>
  <node id="552815576" version="1" timestamp="2009-11-03T09:30:48Z" uid="123700" user="Mala" changeset="3023125" lat="52.4062254" lon="16.9253385">
    <tag k="amenity" v="bank"/>
    <tag k="name" v="Open Finance"/>
    <tag k="operator" v="Open Finance"/>
  </node>
  <node id="552815577" version="1" timestamp="2009-11-03T09:30:48Z" uid="123700" user="Mala" changeset="3023125" lat="52.4064933" lon="16.9254188">
    <tag k="name" v="Społem"/>
    <tag k="operator" v="Społem"/>
    <tag k="shop" v="supermarket"/>
  </node>
  <node id="552815577" version="2" timestamp="2011-09-17T12:42:16Z" uid="91056" user="Yarl" changeset="9323562" lat="52.4064638" lon="16.9253723">
    <tag k="name" v="Społem"/>
    <tag k="operator" v="Społem"/>
    <tag k="shop" v="supermarket"/>
  </node>
  <node id="552815577" version="3" timestamp="2011-11-12T00:07:37Z" uid="19417" user="xjr" changeset="9801172" lat="52.4064638" lon="16.9253723">
    <tag k="amenity" v="bank"/>
  </node>
  <node id="552815578" version="1" timestamp="2009-11-03T09:30:48Z" uid="123700" user="Mala" changeset="3023125" lat="52.4064659" lon="16.9256077">
    <tag k="shop" v="photo"/>
  </node>
  <node id="552815578" version="2" timestamp="2011-09-17T12:42:18Z" uid="91056" user="Yarl" changeset="9323562" lat="52.4064205" lon="16.9255872">
    <tag k="shop" v="photo"/>
  </node>
  <node id="552815581" version="1" timestamp="2009-11-03T09:30:48Z" uid="123700" user="Mala" changeset="3023125" lat="52.406439" lon="16.9257943">
    <tag k="shop" v="convenience"/>
  </node>
  <node id="552815581" version="2" timestamp="2011-09-17T12:42:18Z" uid="91056" user="Yarl" changeset="9323562" lat="52.4063879" lon="16.9258055">
    <tag k="shop" v="convenience"/>
  </node>
  <node id="552815583" version="1" timestamp="2009-11-03T09:30:48Z" uid="123700" user="Mala" changeset="3023125" lat="52.4062368" lon="16.9271925">
    <tag k="name" v="Chata Polska"/>
    <tag k="operator" v="Chata Polska"/>
    <tag k="shop" v="supermarket"/>
  </node>
  <node id="552815583" version="2" timestamp="2011-09-17T12:42:13Z" uid="91056" user="Yarl" changeset="9323562" lat="52.4061903" lon="16.9271553">
    <tag k="name" v="Chata Polska"/>
    <tag k="operator" v="Chata Polska"/>
    <tag k="shop" v="supermarket"/>
  </node>
  <node id="552815584" version="1" timestamp="2009-11-03T09:30:48Z" uid="123700" user="Mala" changeset="3023125" lat="52.406423" lon="16.9271644">
    <tag k="amenity" v="restaurant"/>
    <tag k="name" v="Metropolitan"/>
    <tag k="note" v="also a coctail bar"/>
  </node>
  <node id="552815584" version="2" timestamp="2011-09-17T12:42:15Z" uid="91056" user="Yarl" changeset="9323562" lat="52.4063685" lon="16.9271644">
    <tag k="amenity" v="restaurant"/>
    <tag k="name" v="Metropolitan"/>
    <tag k="note" v="also a coctail bar"/>
  </node>
  <node id="552815585" version="1" timestamp="2009-11-03T09:30:48Z" uid="123700" user="Mala" changeset="3023125" lat="52.406264" lon="16.9270049">
    <tag k="amenity" v="cafe"/>
    <tag k="name" v="Kociak"/>
  </node>
  <node id="552815585" version="2" timestamp="2011-09-17T12:42:14Z" uid="91056" user="Yarl" changeset="9323562" lat="52.4062186" lon="16.9269472">
    <tag k="amenity" v="cafe"/>
    <tag k="name" v="Kociak"/>
  </node>
  <node id="552815587" version="1" timestamp="2009-11-03T09:30:48Z" uid="123700" user="Mala" changeset="3023125" lat="52.406309" lon="16.9266936">
    <tag k="amenity" v="bureau_de_change"/>
  </node>
  <node id="552815587" version="2" timestamp="2011-09-17T12:42:18Z" uid="91056" user="Yarl" changeset="9323562" lat="52.4062704" lon="16.9265894">
    <tag k="amenity" v="bureau_de_change"/>
  </node>
  <node id="552815588" version="1" timestamp="2009-11-03T09:30:48Z" uid="123700" user="Mala" changeset="3023125" lat="52.4063413" lon="16.9264698">
    <tag k="name" v="Carry"/>
    <tag k="operator" v="Carry"/>
    <tag k="shop" v="clothing"/>
  </node>
  <node id="552815588" version="2" timestamp="2009-12-08T22:29:12Z" uid="123700" user="Mala" changeset="3328988" lat="52.4063413" lon="16.9264698">
    <tag k="name" v="Carry"/>
    <tag k="operator" v="Carry"/>
    <tag k="shop" v="clothes"/>
  </node>
  <node id="552815588" version="3" timestamp="2011-09-17T12:42:13Z" uid="91056" user="Yarl" changeset="9323562" lat="52.4062948" lon="16.9264717">
    <tag k="name" v="Carry"/>
    <tag k="operator" v="Carry"/>
    <tag k="shop" v="clothes"/>
  </node>
  <node id="552815590" version="1" timestamp="2009-11-03T09:30:48Z" uid="123700" user="Mala" changeset="3023125" lat="52.4063722" lon="16.9262565">
    <tag k="amenity" v="restaurant"/>
    <tag k="cuisine" v="italian"/>
    <tag k="name" v="Mollini Ristorante"/>
  </node>
  <node id="552815590" version="2" timestamp="2011-09-17T12:42:15Z" uid="91056" user="Yarl" changeset="9323562" lat="52.4063313" lon="16.92621">
    <tag k="amenity" v="restaurant"/>
    <tag k="cuisine" v="italian"/>
    <tag k="name" v="Mollini Ristorante"/>
  </node>
  <node id="552815591" version="1" timestamp="2009-11-03T09:30:49Z" uid="123700" user="Mala" changeset="3023125" lat="52.406403" lon="16.926043">
    <tag k="amenity" v="restaurant"/>
    <tag k="cuisine" v="chinese"/>
    <tag k="name" v="Restauracja Azalia"/>
  </node>
  <node id="552815591" version="2" timestamp="2011-09-17T12:42:15Z" uid="91056" user="Yarl" changeset="9323562" lat="52.4063474" lon="16.926056">
    <tag k="amenity" v="restaurant"/>
    <tag k="cuisine" v="chinese"/>
    <tag k="name" v="Restauracja Azalia"/>
  </node>
  <node id="552815593" version="1" timestamp="2009-11-03T09:30:49Z" uid="123700" user="Mala" changeset="3023125" lat="52.4060108" lon="16.9283873">
    <tag k="amenity" v="bank"/>
    <tag k="name" v="Lukas Bank"/>
    <tag k="operator" v="Lukas Bank"/>
  </node>
  <node id="552815593" version="2" timestamp="2011-06-17T11:02:55Z" uid="91056" user="Yarl" changeset="8463602" lat="52.4060749" lon="16.9285926">
    <tag k="amenity" v="bank"/>
    <tag k="name" v="Lukas Bank"/>
    <tag k="operator" v="Lukas Bank"/>
  </node>
  <node id="552815593" version="3" timestamp="2011-09-17T12:10:36Z" uid="91056" user="Yarl" changeset="9323328" lat="52.4060677" lon="16.9285261">
    <tag k="amenity" v="bank"/>
    <tag k="name" v="Lukas Bank"/>
    <tag k="operator" v="Lukas Bank"/>
  </node>
  <node id="552815594" version="1" timestamp="2009-11-03T09:30:49Z" uid="123700" user="Mala" changeset="3023125" lat="52.4067367" lon="16.9288593">
    <tag k="amenity" v="pharmacy"/>
    <tag k="name" v="Apteka Magiczna"/>
  </node>
  <node id="552815594" version="2" timestamp="2011-09-17T12:10:35Z" uid="91056" user="Yarl" changeset="9323328" lat="52.4066783" lon="16.9288538">
    <tag k="amenity" v="pharmacy"/>
    <tag k="name" v="Apteka Magiczna"/>
  </node>
  <node id="552815596" version="1" timestamp="2009-11-03T09:30:49Z" uid="123700" user="Mala" changeset="3023125" lat="52.4066601" lon="16.9290362">
    <tag k="amenity" v="fast_food"/>
    <tag k="name" v="Bar Mleczny &quot;Przysmak&quot;"/>
  </node>
  <node id="552815596" version="2" timestamp="2011-09-17T12:10:35Z" uid="91056" user="Yarl" changeset="9323328" lat="52.4066219" lon="16.9289791">
    <tag k="amenity" v="fast_food"/>
    <tag k="name" v="Bar Mleczny Przysmak"/>
  </node>
  <node id="552815597" version="1" timestamp="2009-11-03T09:30:49Z" uid="123700" user="Mala" changeset="3023125" lat="52.4065766" lon="16.9292294">
    <tag k="name" v="Antylopa Kapelusze"/>
    <tag k="shop" v="millinery"/>
  </node>
  <node id="552815597" version="2" timestamp="2011-09-17T12:10:35Z" uid="91056" user="Yarl" changeset="9323328" lat="52.4065238" lon="16.9291944">
    <tag k="name" v="Antylopa Kapelusze"/>
    <tag k="shop" v="millinery"/>
  </node>
  <node id="552815599" version="1" timestamp="2009-11-03T09:30:49Z" uid="123700" user="Mala" changeset="3023125" lat="52.40647" lon="16.9294756">
    <tag k="shop" v="music_store"/>
  </node>
  <node id="552815599" version="2" timestamp="2011-09-17T12:10:38Z" uid="91056" user="Yarl" changeset="9323328" lat="52.4064161" lon="16.9294553">
    <tag k="shop" v="music_store"/>
  </node>
  <node id="552815600" version="1" timestamp="2009-11-03T09:30:49Z" uid="123700" user="Mala" changeset="3023125" lat="52.4063648" lon="16.9297188">
    <tag k="amenity" v="cafe"/>
    <tag k="name" v="Fashion Cafe"/>
    <tag k="note" v="also a restaurant"/>
  </node>
  <node id="552815600" version="2" timestamp="2011-09-17T12:10:35Z" uid="91056" user="Yarl" changeset="9323328" lat="52.4063289" lon="16.9296765">
    <tag k="amenity" v="cafe"/>
    <tag k="name" v="Fashion Cafe"/>
    <tag k="note" v="also a restaurant"/>
  </node>
  <node id="552815602" version="1" timestamp="2009-11-03T09:30:49Z" uid="123700" user="Mala" changeset="3023125" lat="52.4062464" lon="16.9299925">
    <tag k="name" v="Biuro Podróży Scan Holiday"/>
    <tag k="shop" v="travel_agency"/>
  </node>
  <node id="552815602" version="2" timestamp="2011-09-17T12:10:35Z" uid="91056" user="Yarl" changeset="9323328" lat="52.4062846" lon="16.9297605">
    <tag k="name" v="Biuro Podróży Scan Holiday"/>
    <tag k="shop" v="travel_agency"/>
  </node>
  <node id="552815604" version="1" timestamp="2009-11-03T09:30:49Z" uid="123700" user="Mala" changeset="3023125" lat="52.4061267" lon="16.9302691">
    <tag k="name" v="Wine Club"/>
    <tag k="shop" v="alcohol"/>
  </node>
  <node id="552815604" version="2" timestamp="2011-09-17T12:10:37Z" uid="91056" user="Yarl" changeset="9323328" lat="52.4062559" lon="16.9298419">
    <tag k="name" v="Wine Club"/>
    <tag k="shop" v="alcohol"/>
  </node>
  <node id="552815605" version="1" timestamp="2009-11-03T09:30:49Z" uid="123700" user="Mala" changeset="3023125" lat="52.4065927" lon="16.9287973">
    <tag k="amenity" v="cafe"/>
    <tag k="name" v="Kawiarnia Expressowa"/>
  </node>
  <node id="552815608" version="1" timestamp="2009-11-03T09:30:49Z" uid="123700" user="Mala" changeset="3023125" lat="52.40646" lon="16.928722">
    <tag k="shop" v="shoes"/>
  </node>
  <node id="552815609" version="1" timestamp="2009-11-03T09:30:50Z" uid="123700" user="Mala" changeset="3023125" lat="52.4074691" lon="16.9293278">
    <tag k="shop" v="optician"/>
  </node>
  <node id="552815610" version="1" timestamp="2009-11-03T09:30:50Z" uid="123700" user="Mala" changeset="3023125" lat="52.4071042" lon="16.9291354">
    <tag k="amenity" v="bank"/>
    <tag k="name" v="Kredyt Bank"/>
    <tag k="operator" v="Kredyt Bank"/>
  </node>
  <node id="552815610" version="2" timestamp="2011-09-17T16:05:45Z" uid="91056" user="Yarl" changeset="9325116" lat="52.4071221" lon="16.9290905">
    <tag k="amenity" v="bank"/>
    <tag k="name" v="Kredyt Bank"/>
    <tag k="operator" v="Kredyt Bank"/>
  </node>
  <node id="552815612" version="1" timestamp="2009-11-03T09:30:50Z" uid="123700" user="Mala" changeset="3023125" lat="52.4069077" lon="16.9290308">
    <tag k="amenity" v="bank"/>
    <tag k="atm" v="yes"/>
    <tag k="name" v="PKO BP"/>
    <tag k="operator" v="PKO BP"/>
  </node>
  <node id="552815614" version="1" timestamp="2009-11-03T09:30:50Z" uid="123700" user="Mala" changeset="3023125" lat="52.4074563" lon="16.9287129">
    <tag k="name" v="Hotel Rzymski"/>
    <tag k="rating" v="***"/>
    <tag k="tourism" v="hotel"/>
  </node>
  <node id="552815614" version="2" timestamp="2009-12-06T23:05:54Z" uid="20587" user="balrog-kun" changeset="3311402" lat="52.4073976" lon="16.9282">
    <tag k="name" v="Hotel Rzymski"/>
    <tag k="rating" v="***"/>
    <tag k="tourism" v="hotel"/>
  </node>
  <node id="552815614" version="3" timestamp="2011-09-17T12:42:13Z" uid="91056" user="Yarl" changeset="9323562" lat="52.4075381" lon="16.928555">
    <tag k="name" v="Hotel Rzymski"/>
    <tag k="rating" v="***"/>
    <tag k="tourism" v="hotel"/>
  </node>
  <node id="552815615" version="1" timestamp="2009-11-03T09:30:50Z" uid="123700" user="Mala" changeset="3023125" lat="52.4073416" lon="16.928663">
    <tag k="amenity" v="restaurant"/>
    <tag k="name" v="Restauracja Rzymska"/>
  </node>
  <node id="552815615" version="2" timestamp="2011-09-17T12:42:16Z" uid="91056" user="Yarl" changeset="9323562" lat="52.4073931" lon="16.9285862">
    <tag k="amenity" v="restaurant"/>
    <tag k="name" v="Restauracja Rzymska"/>
  </node>
  <node id="552815619" version="1" timestamp="2009-11-03T09:30:50Z" uid="123700" user="Mala" changeset="3023125" lat="52.4072063" lon="16.9286041">
    <tag k="name" v="Księgarnia Jedynka"/>
    <tag k="shop" v="books"/>
  </node>
  <node id="552815619" version="2" timestamp="2011-09-17T12:42:14Z" uid="91056" user="Yarl" changeset="9323562" lat="52.4072428" lon="16.9285043">
    <tag k="name" v="Księgarnia Jedynka"/>
    <tag k="shop" v="books"/>
  </node>
  <node id="552815621" version="1" timestamp="2009-11-03T09:30:50Z" uid="123700" user="Mala" changeset="3023125" lat="52.4077297" lon="16.9254332">
    <tag k="amenity" v="cafe"/>
    <tag k="name" v="Da Vinci Cafe"/>
  </node>
  <node id="552815621" version="2" timestamp="2011-09-17T12:42:13Z" uid="91056" user="Yarl" changeset="9323562" lat="52.4077042" lon="16.9255187">
    <tag k="amenity" v="cafe"/>
    <tag k="name" v="Da Vinci Cafe"/>
  </node>
  <node id="552815622" version="1" timestamp="2009-11-03T09:30:50Z" uid="123700" user="Mala" changeset="3023125" lat="52.407721" lon="16.9256796">
    <tag k="name" v="Merino"/>
    <tag k="shop" v="textiles"/>
  </node>
  <node id="552815622" version="2" timestamp="2010-09-20T22:42:52Z" uid="65148" user="Pirat Michi" changeset="5833599" lat="52.407721" lon="16.9256796">
    <tag k="name" v="Merino"/>
    <tag k="shop" v="fabric"/>
  </node>
  <node id="552815622" version="3" timestamp="2011-09-17T12:42:15Z" uid="91056" user="Yarl" changeset="9323562" lat="52.4078087" lon="16.9257105">
    <tag k="name" v="Merino"/>
    <tag k="shop" v="fabric"/>
  </node>
  <node id="552815623" version="1" timestamp="2009-11-03T09:30:50Z" uid="123700" user="Mala" changeset="3023125" lat="52.4087938" lon="16.9251807">
    <tag k="amenity" v="restaurant"/>
    <tag k="cuisine" v="italian"/>
    <tag k="name" v="Restauracja Papavero"/>
  </node>
  <node id="552815625" version="1" timestamp="2009-11-03T09:30:50Z" uid="123700" user="Mala" changeset="3023125" lat="52.4087078" lon="16.9249108">
    <tag k="shop" v="florist"/>
  </node>
  <node id="552815626" version="1" timestamp="2009-11-03T09:30:50Z" uid="123700" user="Mala" changeset="3023125" lat="52.408462" lon="16.9253992">
    <tag k="shop" v="kiosk"/>
  </node>
  <node id="552815628" version="1" timestamp="2009-11-03T09:30:51Z" uid="123700" user="Mala" changeset="3023125" lat="52.4077104" lon="16.9259808">
    <tag k="name" v="Gepard"/>
    <tag k="shop" v="shoes"/>
  </node>
  <node id="552815628" version="2" timestamp="2011-09-17T12:42:13Z" uid="91056" user="Yarl" changeset="9323562" lat="52.4077936" lon="16.9259553">
    <tag k="name" v="Gepard"/>
    <tag k="shop" v="shoes"/>
  </node>
  <node id="552815629" version="1" timestamp="2009-11-03T09:30:51Z" uid="123700" user="Mala" changeset="3023125" lat="52.4077024" lon="16.9262067">
    <tag k="amenity" v="language_school"/>
    <tag k="name" v="Daily School"/>
    <tag k="operator" v="Daily School"/>
  </node>
  <node id="552815629" version="2" timestamp="2011-09-17T12:42:13Z" uid="91056" user="Yarl" changeset="9323562" lat="52.4077767" lon="16.9261576">
    <tag k="amenity" v="language_school"/>
    <tag k="name" v="Daily School"/>
    <tag k="operator" v="Daily School"/>
  </node>
  <node id="552815630" version="1" timestamp="2009-11-03T09:30:51Z" uid="123700" user="Mala" changeset="3023125" lat="52.4076946" lon="16.9264281">
    <tag k="amenity" v="bank"/>
    <tag k="name" v="Millenium"/>
    <tag k="operator" v="Millenium"/>
  </node>
  <node id="552815630" version="2" timestamp="2010-10-05T01:35:27Z" uid="20587" user="balrog-kun" changeset="5958352" lat="52.4076387" lon="16.926423">
    <tag k="addr:city" v="Poznań"/>
    <tag k="addr:housenumber" v="8"/>
    <tag k="addr:street" v="Plac Wolności"/>
    <tag k="amenity" v="bank"/>
    <tag k="millennium:date" v="2009-09-14 14:49:45"/>
    <tag k="millennium:ref" v="20681"/>
    <tag k="millennium:usługi" v="Millennium"/>
    <tag k="name" v="Millennium Bank"/>
    <tag k="opening_hours" v="10.00-18.00 Mo-Fr"/>
    <tag k="operator" v="Millenium Bank S.A."/>
  </node>
  <node id="552815630" version="3" timestamp="2011-09-17T12:42:15Z" uid="91056" user="Yarl" changeset="9323562" lat="52.4077652" lon="16.9263448">
    <tag k="addr:city" v="Poznań"/>
    <tag k="addr:housenumber" v="8"/>
    <tag k="addr:street" v="Plac Wolności"/>
    <tag k="amenity" v="bank"/>
    <tag k="millennium:date" v="2009-09-14 14:49:45"/>
    <tag k="millennium:ref" v="20681"/>
    <tag k="millennium:usługi" v="Millennium"/>
    <tag k="name" v="Millennium Bank"/>
    <tag k="opening_hours" v="10.00-18.00 Mo-Fr"/>
    <tag k="operator" v="Millenium Bank S.A."/>
  </node>
  <node id="552815632" version="1" timestamp="2009-11-03T09:30:51Z" uid="123700" user="Mala" changeset="3023125" lat="52.4076857" lon="16.9266795">
    <tag k="name" v="CCC"/>
    <tag k="operator" v="CCC"/>
    <tag k="shop" v="shoes"/>
  </node>
  <node id="552815632" version="2" timestamp="2011-09-17T12:42:13Z" uid="91056" user="Yarl" changeset="9323562" lat="52.4077456" lon="16.926685">
    <tag k="name" v="CCC"/>
    <tag k="operator" v="CCC"/>
    <tag k="shop" v="shoes"/>
  </node>
  <node id="552815633" version="1" timestamp="2009-11-03T09:30:51Z" uid="123700" user="Mala" changeset="3023125" lat="52.4076783" lon="16.9268887">
    <tag k="amenity" v="bank"/>
    <tag k="name" v="NeoBank"/>
    <tag k="operator" v="NeoBank"/>
  </node>
  <node id="552815633" version="2" timestamp="2011-09-17T12:42:15Z" uid="91056" user="Yarl" changeset="9323562" lat="52.4077349" lon="16.9269087">
    <tag k="amenity" v="bank"/>
    <tag k="name" v="NeoBank"/>
    <tag k="operator" v="NeoBank"/>
  </node>
  <node id="552815635" version="1" timestamp="2009-11-03T09:30:51Z" uid="123700" user="Mala" changeset="3023125" lat="52.407671" lon="16.9270939">
    <tag k="name" v="Pluciński"/>
    <tag k="shop" v="jewellery"/>
  </node>
  <node id="552815635" version="2" timestamp="2010-01-14T16:18:11Z" uid="45284" user="Eric S" changeset="3617989" lat="52.407671" lon="16.9270939">
    <tag k="name" v="Pluciński"/>
    <tag k="shop" v="jewelry"/>
  </node>
  <node id="552815635" version="3" timestamp="2011-09-17T12:42:15Z" uid="91056" user="Yarl" changeset="9323562" lat="52.4077121" lon="16.9271266">
    <tag k="name" v="Pluciński"/>
    <tag k="shop" v="jewelry"/>
  </node>
  <node id="552815637" version="1" timestamp="2009-11-03T09:30:51Z" uid="123700" user="Mala" changeset="3023125" lat="52.4075179" lon="16.9272654">
    <tag k="addr:housenumber" v="5"/>
    <tag k="addr:street" v="Plac Wolności"/>
    <tag k="amenity" v="restaurant"/>
    <tag k="name" v="Restauracja Delicja"/>
  </node>
  <node id="552815637" version="2" timestamp="2011-09-17T12:42:16Z" uid="91056" user="Yarl" changeset="9323562" lat="52.4075124" lon="16.9273691">
    <tag k="addr:housenumber" v="5"/>
    <tag k="addr:street" v="Plac Wolności"/>
    <tag k="amenity" v="restaurant"/>
    <tag k="name" v="Restauracja Delicja"/>
  </node>
  <node id="552815638" version="1" timestamp="2009-11-03T09:30:51Z" uid="123700" user="Mala" changeset="3023125" lat="52.4076557" lon="16.9274202">
    <tag k="amenity" v="bank"/>
    <tag k="name" v="CityBank Handlowy"/>
    <tag k="operator" v="CityBank"/>
  </node>
  <node id="552815638" version="2" timestamp="2011-09-17T12:42:13Z" uid="91056" user="Yarl" changeset="9323562" lat="52.4076801" lon="16.927402">
    <tag k="amenity" v="bank"/>
    <tag k="name" v="CityBank Handlowy"/>
    <tag k="operator" v="CityBank"/>
  </node>
  <node id="552815641" version="1" timestamp="2009-11-03T09:30:51Z" uid="123700" user="Mala" changeset="3023125" lat="52.408503" lon="16.9269726">
    <tag k="amenity" v="bank"/>
    <tag k="name" v="Wielkopolski Bank Kredytowy"/>
    <tag k="operator" v="WBK"/>
  </node>
  <node id="552815641" version="2" timestamp="2010-10-05T01:35:34Z" uid="20587" user="balrog-kun" changeset="5958352" lat="52.4086801" lon="16.9270643">
    <tag k="amenity" v="bank"/>
    <tag k="name" v="Wielkopolski Bank Kredytowy"/>
    <tag k="operator" v="WBK"/>
  </node>
  <node id="552815642" version="1" timestamp="2009-11-03T09:30:51Z" uid="123700" user="Mala" changeset="3023125" lat="52.4093676" lon="16.9246149">
    <tag k="amenity" v="fast_food"/>
    <tag k="name" v="Ali Baba"/>
  </node>
  <node id="552815643" version="1" timestamp="2009-11-03T09:30:51Z" uid="123700" user="Mala" changeset="3023125" lat="52.4091236" lon="16.9248859">
    <tag k="amenity" v="fast_food"/>
    <tag k="cuisine" v="pierogi"/>
    <tag k="name" v="Pierogarnia Schultz"/>
  </node>
  <node id="552815645" version="1" timestamp="2009-11-03T09:30:52Z" uid="123700" user="Mala" changeset="3023125" lat="52.4076438" lon="16.9276424">
    <tag k="amenity" v="atm"/>
    <tag k="operator" v="PKO BP"/>
  </node>
  <node id="552815645" version="2" timestamp="2011-09-17T12:42:18Z" uid="91056" user="Yarl" changeset="9323562" lat="52.4076749" lon="16.9277024">
    <tag k="amenity" v="atm"/>
    <tag k="operator" v="PKO BP"/>
  </node>
  <node id="552815647" version="1" timestamp="2009-11-03T09:30:52Z" uid="123700" user="Mala" changeset="3023125" lat="52.4076346" lon="16.9278133">
    <tag k="amenity" v="bank"/>
    <tag k="name" v="PKO BP"/>
    <tag k="operator" v="PKO BP"/>
  </node>
  <node id="552815647" version="2" timestamp="2011-09-17T12:42:15Z" uid="91056" user="Yarl" changeset="9323562" lat="52.4076679" lon="16.9278078">
    <tag k="amenity" v="bank"/>
    <tag k="name" v="PKO BP"/>
    <tag k="operator" v="PKO BP"/>
  </node>
  <node id="552815648" version="1" timestamp="2009-11-03T09:30:52Z" uid="123700" user="Mala" changeset="3023125" lat="52.4076206" lon="16.9280722">
    <tag k="shop" v="optician"/>
  </node>
  <node id="552815648" version="2" timestamp="2011-09-17T12:42:18Z" uid="91056" user="Yarl" changeset="9323562" lat="52.4076506" lon="16.9280722">
    <tag k="shop" v="optician"/>
  </node>
  <node id="552815649" version="1" timestamp="2009-11-03T09:30:52Z" uid="123700" user="Mala" changeset="3023125" lat="52.407606" lon="16.9283442">
    <tag k="addr:housenumber" v="1"/>
    <tag k="addr:street" v="Plac Wolności"/>
    <tag k="amenity" v="fast_food"/>
    <tag k="name" v="Bar Mleczny &quot;Caritas&quot;"/>
  </node>
  <node id="552815649" version="2" timestamp="2011-09-17T12:42:13Z" uid="91056" user="Yarl" changeset="9323562" lat="52.4076404" lon="16.9282624">
    <tag k="addr:housenumber" v="1"/>
    <tag k="addr:street" v="Plac Wolności"/>
    <tag k="amenity" v="fast_food"/>
    <tag k="name" v="Bar Mleczny &quot;Caritas&quot;"/>
  </node>
  <node id="552815651" version="1" timestamp="2009-11-03T09:30:52Z" uid="123700" user="Mala" changeset="3023125" lat="52.4084775" lon="16.9273784">
    <tag k="amenity" v="bank"/>
    <tag k="atm" v="yes"/>
    <tag k="name" v="PKO SA"/>
    <tag k="operator" v="PKO SA"/>
  </node>
  <node id="552815651" version="2" timestamp="2010-10-05T01:35:35Z" uid="20587" user="balrog-kun" changeset="5958352" lat="52.4085148" lon="16.9274599">
    <tag k="amenity" v="bank"/>
    <tag k="atm" v="yes"/>
    <tag k="name" v="PKO SA"/>
    <tag k="operator" v="PKO SA"/>
  </node>
  <node id="552815654" version="1" timestamp="2009-11-03T09:30:52Z" uid="123700" user="Mala" changeset="3023125" lat="52.4075868" lon="16.9287003">
    <tag k="name" v="Księgarnia Świętego Wojciecha"/>
    <tag k="note" v="religion books and devotional articles"/>
    <tag k="shop" v="books"/>
  </node>
  <node id="552815655" version="1" timestamp="2009-11-03T09:30:52Z" uid="123700" user="Mala" changeset="3023125" lat="52.40756" lon="16.9293744">
    <tag k="addr:housenumber" v="11"/>
    <tag k="addr:street" v="Aleja Karola Marcinkowskiego"/>
    <tag k="name" v="Muzeum Farmacji"/>
    <tag k="tourism" v="museum"/>
  </node>
  <node id="552815656" version="1" timestamp="2009-11-03T09:30:52Z" uid="123700" user="Mala" changeset="3023125" lat="52.4060451" lon="16.9302565">
    <tag k="name" v="Noclegi Podgórna 12"/>
    <tag k="phone_number" v="+48508399806"/>
    <tag k="tourism" v="hostel"/>
  </node>
  <node id="552815656" version="2" timestamp="2011-06-09T03:53:44Z" uid="19002" user="ajank" changeset="8385013" lat="52.4060451" lon="16.9302565">
    <tag k="addr:housenumber" v="12"/>
    <tag k="addr:street" v="Podgórna"/>
    <tag k="name" v="Noclegi Podgórna 12"/>
    <tag k="phone" v="+48 508399806"/>
    <tag k="tourism" v="hostel"/>
  </node>
  <node id="552815656" version="3" timestamp="2011-09-17T12:10:37Z" uid="91056" user="Yarl" changeset="9323328" lat="52.4062293" lon="16.929914">
    <tag k="addr:housenumber" v="12"/>
    <tag k="addr:street" v="Podgórna"/>
    <tag k="name" v="Noclegi Podgórna 12"/>
    <tag k="phone" v="+48 508399806"/>
    <tag k="tourism" v="hostel"/>
  </node>
  <node id="552816265" version="3" timestamp="2010-06-22T02:06:29Z" uid="20587" user="balrog-kun" changeset="5047946" lat="14.5754492" lon="121.0586963">
    <tag k="amenity" v="fast_food"/>
    <tag k="name" v="Tapa King"/>
  </node>
  <node id="552816265" version="4" timestamp="2011-03-10T02:15:29Z" uid="239705" user="backpacking philippines" changeset="7510415" lat="14.5754492" lon="121.0586963">
    <tag k="amenity" v="fast_food"/>
    <tag k="cuisine" v="asian"/>
    <tag k="name" v="Tapa King"/>
  </node>
  <node id="552816265" version="5" timestamp="2012-07-21T01:22:44Z" uid="722137" user="OSMF Redaction Account" changeset="12397875" lat="14.5754492" lon="121.0586963">
    <tag k="cuisine" v="asian"/>
  </node>
</osm>
