<?xml version='1.0' encoding='UTF-8'?>
<osm version="0.6" generator="libosmium/2.20.0">
  <node id="552995064" version="3" timestamp="2010-04-11T04:52:55Z" uid="20587" user="balrog-kun" changeset="4389130" lat="50.1663" lon="19.3898599">
    <tag k="name" v="Balin"/>
    <tag k="place" v="village"/>
    <tag k="source" v="http://ump.waw.pl/ retrieved 01:24:13 09/02/09 (UMP-Krakow/src/cities-Krakow.pnt-converted.txt)"/>
  </node>
  <node id="552996581" version="2" timestamp="2010-04-11T04:52:55Z" uid="20587" user="balrog-kun" changeset="4389130" lat="50.09924" lon="19.46393">
    <tag k="name" v="Płaza"/>
    <tag k="place" v="village"/>
    <tag k="source" v="http://ump.waw.pl/ retrieved 01:24:13 09/02/09 (UMP-Krakow/src/cities-Krakow.pnt-converted.txt)"/>
  </node>
  <node id="552996581" version="3" timestamp="2010-04-11T13:16:41Z" uid="20587" user="balrog-kun" changeset="4392352" lat="50.09924" lon="19.46393">
    <tag k="name" v="Płaza"/>
    <tag k="place" v="village"/>
    <tag k="source" v="http://ump.waw.pl/ retrieved 01:24:13 09/02/09 (UMP-Krakow/src/cities-Krakow.pnt-converted.txt)"/>
  </node>
  <node id="552996581" version="4" timestamp="2010-04-27T03:59:49Z" uid="30632" user="antblant" changeset="4537857" lat="50.09924" lon="19.46393">
    <tag k="name" v="Płaza"/>
    <tag k="place" v="village"/>
    <tag k="source" v="http://ump.waw.pl/ retrieved 01:24:13 09/02/09 (UMP-Krakow/src/cities-Krakow.pnt-converted.txt)"/>
    <tag k="teryt:simc" v="0213530"/>
  </node>
  <node id="552995064" version="4" timestamp="2012-08-30T22:38:25Z" uid="760215" user="pnorman redaction revert" changeset="12924468" lat="50.1663" lon="19.3898599"/>
  <node id="552996581" version="5" timestamp="2012-08-31T10:28:40Z" uid="760215" user="pnorman redaction revert" changeset="12929142" lat="50.09924" lon="19.46393"/>
</osm>
