<?xml version='1.0' encoding='UTF-8'?>
<osm version="0.6" generator="libosmium/2.20.0">
  <node id="554248931" version="1" timestamp="2009-11-04T12:52:31Z" uid="99207" user="Lar Kiesel" changeset="3032554" lat="33.994025" lon="-81.3033207">
    <tag k="addr:city" v="Lexington, SC"/>
    <tag k="addr:housenumber" v="760D"/>
    <tag k="addr:postcode" v="29072"/>
    <tag k="addr:street" v="Highway 378"/>
    <tag k="amenity" v="restaurant"/>
    <tag k="cuisine" v="chinese"/>
    <tag k="name" v="China KIng"/>
    <tag k="phone" v="803-808-2993"/>
  </node>
  <node id="554248932" version="1" timestamp="2009-11-04T12:52:32Z" uid="99207" user="Lar Kiesel" changeset="3032554" lat="33.994025" lon="-81.3032434">
    <tag k="addr:city" v="Lexington, SC"/>
    <tag k="addr:housenumber" v="760E"/>
    <tag k="addr:postcode" v="29072"/>
    <tag k="addr:street" v="Highway 378"/>
    <tag k="name" v="Kleen Dare Cleaners"/>
    <tag k="phone" v="803-359-2911"/>
    <tag k="shop" v="dry_cleaning"/>
  </node>
  <node id="554248933" version="1" timestamp="2009-11-04T12:52:33Z" uid="99207" user="Lar Kiesel" changeset="3032554" lat="33.9933205" lon="-81.3027456">
    <tag k="addr:city" v="Lexington, SC"/>
    <tag k="addr:housenumber" v="752"/>
    <tag k="addr:postcode" v="29072"/>
    <tag k="addr:street" v="Highway 378"/>
    <tag k="name" v="Self-Storage Mini Warehouses"/>
    <tag k="phone" v="803-957-0664"/>
    <tag k="shop" v="storage"/>
  </node>
  <node id="554248937" version="1" timestamp="2009-11-04T12:52:34Z" uid="99207" user="Lar Kiesel" changeset="3032554" lat="33.9933063" lon="-81.3026169">
    <tag k="addr:city" v="Lexington, SC"/>
    <tag k="addr:housenumber" v="752"/>
    <tag k="addr:postcode" v="29072"/>
    <tag k="addr:street" v="Highway 378"/>
    <tag k="name" v="Hydro Tech Marine Inc"/>
    <tag k="phone" v="803-957-0664"/>
    <tag k="shop" v="marine"/>
  </node>
  <node id="554248939" version="1" timestamp="2009-11-04T12:52:35Z" uid="99207" user="Lar Kiesel" changeset="3032554" lat="33.9945516" lon="-81.3152426">
    <tag k="amenity" v="place_of_worship"/>
    <tag k="denomination" v="baptist"/>
    <tag k="name" v="Lake Murray Baptist"/>
    <tag k="religion" v="christian"/>
  </node>
  <node id="554248964" version="1" timestamp="2009-11-04T12:52:36Z" uid="99207" user="Lar Kiesel" changeset="3032554" lat="33.994025" lon="-81.3033894">
    <tag k="addr:city" v="Lexington, SC"/>
    <tag k="addr:housenumber" v="760C"/>
    <tag k="addr:postcode" v="29072"/>
    <tag k="addr:street" v="Highway 378"/>
    <tag k="name" v="Lake Murray Liquors"/>
    <tag k="phone" v="803-957-9744"/>
    <tag k="shop" v="alcohol"/>
  </node>
  <node id="554248931" version="2" timestamp="2012-07-18T15:44:11Z" uid="722137" user="OSMF Redaction Account" changeset="12287524" lat="33.994025" lon="-81.3033207"/>
  <node id="554248932" version="2" timestamp="2012-07-18T15:44:11Z" uid="722137" user="OSMF Redaction Account" changeset="12287524" lat="33.994025" lon="-81.3032434"/>
  <node id="554248933" version="2" timestamp="2012-07-18T15:44:07Z" uid="722137" user="OSMF Redaction Account" changeset="12287524" lat="33.9933205" lon="-81.3027456"/>
  <node id="554248937" version="2" timestamp="2012-07-18T15:44:07Z" uid="722137" user="OSMF Redaction Account" changeset="12287524" lat="33.9933063" lon="-81.3026169"/>
  <node id="554248939" version="2" timestamp="2012-07-18T15:51:46Z" uid="722137" user="OSMF Redaction Account" changeset="12287766" lat="33.9945516" lon="-81.3152426"/>
  <node id="554248964" version="2" timestamp="2012-07-18T15:44:11Z" uid="722137" user="OSMF Redaction Account" changeset="12287524" lat="33.994025" lon="-81.3033894"/>
</osm>
