<?xml version='1.0' encoding='UTF-8'?>
<osm version="0.6" generator="libosmium/2.20.0">
  <node id="555631212" version="2" timestamp="2010-04-11T04:52:55Z" uid="20587" user="balrog-kun" changeset="4389130" lat="49.93318" lon="19.76807">
    <tag k="name" v="Polanka Hallera"/>
    <tag k="place" v="village"/>
    <tag k="source" v="http://ump.waw.pl/ retrieved 01:24:13 09/02/09 (UMP-Krakow/src/cities-Krakow.pnt-converted.txt)"/>
  </node>
  <node id="555631212" version="3" timestamp="2010-04-11T13:16:42Z" uid="20587" user="balrog-kun" changeset="4392352" lat="49.93318" lon="19.76807">
    <tag k="name" v="Polanka Hallera"/>
    <tag k="place" v="village"/>
    <tag k="source" v="http://ump.waw.pl/ retrieved 01:24:13 09/02/09 (UMP-Krakow/src/cities-Krakow.pnt-converted.txt)"/>
  </node>
  <node id="555631212" version="4" timestamp="2010-04-27T04:02:45Z" uid="30632" user="antblant" changeset="4537862" lat="49.93318" lon="19.76807">
    <tag k="name" v="Polanka Hallera"/>
    <tag k="place" v="village"/>
    <tag k="source" v="http://ump.waw.pl/ retrieved 01:24:13 09/02/09 (UMP-Krakow/src/cities-Krakow.pnt-converted.txt)"/>
    <tag k="teryt:simc" v="0335278"/>
  </node>
  <node id="555633693" version="2" timestamp="2010-04-11T04:52:55Z" uid="20587" user="balrog-kun" changeset="4389130" lat="49.9386073" lon="19.7852802">
    <tag k="name" v="Jurczyce"/>
    <tag k="place" v="village"/>
    <tag k="source" v="http://ump.waw.pl/ retrieved 01:24:13 09/02/09 (UMP-Krakow/src/cities-Krakow.pnt-converted.txt)"/>
  </node>
  <node id="555633693" version="3" timestamp="2010-04-11T13:16:43Z" uid="20587" user="balrog-kun" changeset="4392352" lat="49.9385333" lon="19.7831717">
    <tag k="name" v="Jurczyce"/>
    <tag k="place" v="village"/>
    <tag k="source" v="http://ump.waw.pl/ retrieved 01:24:13 09/02/09 (UMP-Krakow/src/cities-Krakow.pnt-converted.txt)"/>
  </node>
  <node id="555633693" version="4" timestamp="2010-04-27T04:16:53Z" uid="30632" user="antblant" changeset="4537905" lat="49.9385333" lon="19.7831717">
    <tag k="name" v="Jurczyce"/>
    <tag k="place" v="village"/>
    <tag k="source" v="http://ump.waw.pl/ retrieved 01:24:13 09/02/09 (UMP-Krakow/src/cities-Krakow.pnt-converted.txt)"/>
    <tag k="teryt:simc" v="0335090"/>
  </node>
  <node id="555639986" version="2" timestamp="2010-04-11T04:52:56Z" uid="20587" user="balrog-kun" changeset="4389130" lat="49.9459151" lon="19.8448377">
    <tag k="name" v="Buków"/>
    <tag k="place" v="village"/>
    <tag k="source" v="http://ump.waw.pl/ retrieved 01:24:13 09/02/09 (UMP-Krakow/src/cities-Krakow.pnt-converted.txt)"/>
  </node>
  <node id="555639986" version="3" timestamp="2010-04-11T13:16:43Z" uid="20587" user="balrog-kun" changeset="4392352" lat="49.945403" lon="19.8454281">
    <tag k="name" v="Buków"/>
    <tag k="place" v="village"/>
    <tag k="source" v="http://ump.waw.pl/ retrieved 01:24:13 09/02/09 (UMP-Krakow/src/cities-Krakow.pnt-converted.txt)"/>
  </node>
  <node id="555631212" version="5" timestamp="2012-08-31T03:33:44Z" uid="760215" user="pnorman redaction revert" changeset="12925698" lat="49.93318" lon="19.76807"/>
  <node id="555633693" version="5" timestamp="2012-08-31T03:34:15Z" uid="760215" user="pnorman redaction revert" changeset="12925700" lat="49.9385333" lon="19.7831717">
    <tag k="teryt:simc" v="0335090"/>
  </node>
  <node id="555639986" version="4" timestamp="2012-08-29T08:57:34Z" uid="760215" user="pnorman redaction revert" changeset="12902294" lat="49.945403" lon="19.8454281"/>
  <node id="555639986" version="5" timestamp="2012-09-03T17:53:50Z" uid="783429" user="D_FENCE" changeset="12970850" lat="49.945403" lon="19.8454281"/>
</osm>
