<?xml version='1.0' encoding='UTF-8'?>
<osm version="0.6" generator="libosmium/2.20.0">
  <node id="559288119" version="2" timestamp="2010-02-15T06:51:14Z" uid="74617" user="JohnSmith" changeset="3880463" lat="-27.618357" lon="153.0356">
    <tag k="amenity" v="place_of_worship"/>
    <tag k="denomination" v="anglican"/>
    <tag k="name" v="Church of the Holy Spirit"/>
  </node>
  <node id="559288119" version="3" timestamp="2011-03-14T08:46:37Z" uid="129262" user="ElderKorean" changeset="7553907" lat="-27.6183207" lon="153.0355342">
    <tag k="amenity" v="place_of_worship"/>
    <tag k="denomination" v="anglican"/>
    <tag k="name" v="Church of the Holy Spirit"/>
  </node>
  <node id="559288119" version="4" timestamp="2011-03-14T18:56:27Z" uid="70696" user="xybot" changeset="7559396" lat="-27.6183207" lon="153.0355342">
    <tag k="amenity" v="place_of_worship"/>
    <tag k="denomination" v="anglican"/>
    <tag k="name" v="Church of the Holy Spirit"/>
    <tag k="religion" v="christian"/>
  </node>
  <node id="559288119" version="5" timestamp="2011-04-11T12:34:14Z" uid="129262" user="ElderKorean" changeset="7832619" lat="-27.6183126" lon="153.0355087">
    <tag k="amenity" v="place_of_worship"/>
    <tag k="denomination" v="anglican"/>
    <tag k="name" v="Church of the Holy Spirit"/>
    <tag k="religion" v="christian"/>
  </node>
</osm>
