<?xml version='1.0' encoding='UTF-8'?>
<osm version="0.6" generator="libosmium/2.20.0">
  <node id="560180380" version="2" timestamp="2010-10-05T01:34:16Z" uid="20587" user="balrog-kun" changeset="5958352" lat="49.78728" lon="22.7622">
    <tag k="addr:city" v="Przemyśl"/>
    <tag k="amenity" v="place_of_worship"/>
    <tag k="denomination" v="catholic"/>
    <tag k="name" v="Kościół Świętego Józefa"/>
    <tag k="religion" v="christian"/>
    <tag k="source" v="http://ump.waw.pl/ retrieved 01:32:52 09/02/09 (UMP-Przemysl/src/POI-Przemysl.pnt-converted.txt)"/>
  </node>
  <node id="560180497" version="2" timestamp="2010-04-11T04:52:58Z" uid="20587" user="balrog-kun" changeset="4389130" lat="49.7909402" lon="22.7168974">
    <tag k="name" v="Ostrów"/>
    <tag k="place" v="town"/>
    <tag k="source" v="http://ump.waw.pl/ retrieved 01:32:52 09/02/09 (UMP-Przemysl/src/cities-Przemysl.pnt-converted.txt)"/>
  </node>
  <node id="560180497" version="3" timestamp="2010-04-11T13:16:44Z" uid="20587" user="balrog-kun" changeset="4392352" lat="49.7940174" lon="22.7184177">
    <tag k="name" v="Ostrów"/>
    <tag k="place" v="town"/>
    <tag k="source" v="http://ump.waw.pl/ retrieved 01:32:52 09/02/09 (UMP-Przemysl/src/cities-Przemysl.pnt-converted.txt)"/>
  </node>
  <node id="560180536" version="2" timestamp="2010-04-11T04:52:58Z" uid="20587" user="balrog-kun" changeset="4389130" lat="49.801341" lon="22.7142934">
    <tag k="name" v="Kuńkowce"/>
    <tag k="place" v="village"/>
    <tag k="source" v="http://ump.waw.pl/ retrieved 01:32:52 09/02/09 (UMP-Przemysl/src/cities-Przemysl.pnt-converted.txt)"/>
  </node>
  <node id="560180536" version="3" timestamp="2010-04-11T13:16:44Z" uid="20587" user="balrog-kun" changeset="4392352" lat="49.8018514" lon="22.7144577">
    <tag k="name" v="Kuńkowce"/>
    <tag k="place" v="village"/>
    <tag k="source" v="http://ump.waw.pl/ retrieved 01:32:52 09/02/09 (UMP-Przemysl/src/cities-Przemysl.pnt-converted.txt)"/>
  </node>
  <node id="560180536" version="4" timestamp="2010-04-27T04:19:56Z" uid="30632" user="antblant" changeset="4537912" lat="49.8018514" lon="22.7144577">
    <tag k="name" v="Kuńkowce"/>
    <tag k="place" v="village"/>
    <tag k="source" v="http://ump.waw.pl/ retrieved 01:32:52 09/02/09 (UMP-Przemysl/src/cities-Przemysl.pnt-converted.txt)"/>
    <tag k="teryt:simc" v="0608718"/>
  </node>
  <node id="560180536" version="5" timestamp="2012-02-17T00:28:05Z" uid="467703" user="Zbigniew Czernik" changeset="10707102" lat="49.8021407" lon="22.7161634">
    <tag k="name" v="Kuńkowce"/>
    <tag k="place" v="village"/>
    <tag k="teryt:simc" v="0608718"/>
  </node>
  <node id="560180609" version="2" timestamp="2010-04-11T04:52:58Z" uid="20587" user="balrog-kun" changeset="4389130" lat="49.81386" lon="22.701">
    <tag k="name" v="Łętownia"/>
    <tag k="place" v="village"/>
    <tag k="source" v="http://ump.waw.pl/ retrieved 01:32:52 09/02/09 (UMP-Przemysl/src/cities-Przemysl.pnt-converted.txt)"/>
  </node>
  <node id="560180609" version="3" timestamp="2010-04-11T13:16:44Z" uid="20587" user="balrog-kun" changeset="4392352" lat="49.81386" lon="22.701">
    <tag k="name" v="Łętownia"/>
    <tag k="place" v="village"/>
    <tag k="source" v="http://ump.waw.pl/ retrieved 01:32:52 09/02/09 (UMP-Przemysl/src/cities-Przemysl.pnt-converted.txt)"/>
  </node>
  <node id="560180609" version="4" timestamp="2012-02-17T00:28:12Z" uid="467703" user="Zbigniew Czernik" changeset="10707102" lat="49.8140397" lon="22.7016563">
    <tag k="name" v="Łętownia"/>
    <tag k="place" v="village"/>
  </node>
  <node id="560181588" version="2" timestamp="2010-04-11T04:52:58Z" uid="20587" user="balrog-kun" changeset="4389130" lat="49.7467132" lon="22.7757751">
    <tag k="name" v="Pikulice"/>
    <tag k="place" v="village"/>
    <tag k="source" v="http://ump.waw.pl/ retrieved 01:32:52 09/02/09 (UMP-Przemysl/src/cities-Przemysl.pnt-converted.txt)"/>
  </node>
  <node id="560181588" version="3" timestamp="2010-04-11T13:16:44Z" uid="20587" user="balrog-kun" changeset="4392352" lat="49.7467146" lon="22.7762015">
    <tag k="name" v="Pikulice"/>
    <tag k="place" v="village"/>
    <tag k="source" v="http://ump.waw.pl/ retrieved 01:32:52 09/02/09 (UMP-Przemysl/src/cities-Przemysl.pnt-converted.txt)"/>
  </node>
  <node id="560181588" version="4" timestamp="2010-04-27T04:20:34Z" uid="30632" user="antblant" changeset="4537912" lat="49.7467146" lon="22.7762015">
    <tag k="name" v="Pikulice"/>
    <tag k="place" v="village"/>
    <tag k="source" v="http://ump.waw.pl/ retrieved 01:32:52 09/02/09 (UMP-Przemysl/src/cities-Przemysl.pnt-converted.txt)"/>
    <tag k="teryt:simc" v="0608836"/>
  </node>
  <node id="560181588" version="5" timestamp="2011-09-09T23:18:07Z" uid="467703" user="Zbigniew Czernik" changeset="9258766" lat="49.7466214" lon="22.7768145">
    <tag k="name" v="Pikulice"/>
    <tag k="place" v="village"/>
    <tag k="source" v="http://ump.waw.pl/ retrieved 01:32:52 09/02/09 (UMP-Przemysl/src/cities-Przemysl.pnt-converted.txt)"/>
    <tag k="teryt:simc" v="0608836"/>
  </node>
  <node id="560181588" version="6" timestamp="2012-02-16T22:13:09Z" uid="467703" user="Zbigniew Czernik" changeset="10706417" lat="49.7466214" lon="22.7768145">
    <tag k="name" v="Pikulice"/>
    <tag k="place" v="village"/>
    <tag k="teryt:simc" v="0608836"/>
  </node>
  <node id="560181810" version="2" timestamp="2010-04-11T04:52:58Z" uid="20587" user="balrog-kun" changeset="4389130" lat="49.7512103" lon="22.7994649">
    <tag k="name" v="Nehrybka"/>
    <tag k="place" v="village"/>
    <tag k="source" v="http://ump.waw.pl/ retrieved 01:32:52 09/02/09 (UMP-Przemysl/src/cities-Przemysl.pnt-converted.txt)"/>
  </node>
  <node id="560181810" version="3" timestamp="2010-04-11T13:16:45Z" uid="20587" user="balrog-kun" changeset="4392352" lat="49.7516733" lon="22.8004956">
    <tag k="name" v="Nehrybka"/>
    <tag k="place" v="village"/>
    <tag k="source" v="http://ump.waw.pl/ retrieved 01:32:52 09/02/09 (UMP-Przemysl/src/cities-Przemysl.pnt-converted.txt)"/>
  </node>
  <node id="560181810" version="4" timestamp="2010-04-27T04:00:53Z" uid="30632" user="antblant" changeset="4537859" lat="49.7516733" lon="22.8004956">
    <tag k="name" v="Nehrybka"/>
    <tag k="place" v="village"/>
    <tag k="source" v="http://ump.waw.pl/ retrieved 01:32:52 09/02/09 (UMP-Przemysl/src/cities-Przemysl.pnt-converted.txt)"/>
    <tag k="teryt:simc" v="0608807"/>
  </node>
  <node id="560181810" version="5" timestamp="2012-02-17T00:28:06Z" uid="467703" user="Zbigniew Czernik" changeset="10707102" lat="49.7516733" lon="22.8004956">
    <tag k="name" v="Nehrybka"/>
    <tag k="place" v="village"/>
    <tag k="teryt:simc" v="0608807"/>
  </node>
  <node id="560182497" version="2" timestamp="2010-10-05T01:34:51Z" uid="20587" user="balrog-kun" changeset="5958352" lat="49.7808669" lon="22.76806">
    <tag k="amenity" v="place_of_worship"/>
    <tag k="denomination" v="catholic"/>
    <tag k="name" v="Archikatedra Jana Chrzciciela"/>
    <tag k="religion" v="christian"/>
    <tag k="source" v="http://ump.waw.pl/ retrieved 01:32:52 09/02/09 (UMP-Przemysl/src/POI-Przemysl.pnt-converted.txt)"/>
  </node>
  <node id="560182501" version="2" timestamp="2010-10-05T01:35:39Z" uid="20587" user="balrog-kun" changeset="5958352" lat="49.7815163" lon="22.7693097">
    <tag k="name" v="Rowerowy i serwis"/>
    <tag k="shop" v="bicycle"/>
    <tag k="source" v="http://ump.waw.pl/ retrieved 01:32:52 09/02/09 (UMP-Przemysl/src/POI-Przemysl.pnt-converted.txt)"/>
  </node>
  <node id="560182524" version="2" timestamp="2010-10-05T01:35:32Z" uid="20587" user="balrog-kun" changeset="5958352" lat="49.782152" lon="22.7673736">
    <tag k="amenity" v="cinema"/>
    <tag k="name" v="Kosmos i Klub Garnizonowy"/>
    <tag k="source" v="http://ump.waw.pl/ retrieved 01:32:52 09/02/09 (UMP-Przemysl/src/POI-Przemysl.pnt-converted.txt)"/>
  </node>
  <node id="560182529" version="2" timestamp="2010-10-05T01:34:15Z" uid="20587" user="balrog-kun" changeset="5958352" lat="49.7826171" lon="22.767651">
    <tag k="addr:city" v="Przemyśl"/>
    <tag k="amenity" v="townhall"/>
    <tag k="name" v="Starostwo Powiatowe"/>
    <tag k="source" v="http://ump.waw.pl/ retrieved 01:32:52 09/02/09 (UMP-Przemysl/src/POI-Przemysl.pnt-converted.txt)"/>
  </node>
  <node id="560182532" version="2" timestamp="2010-10-05T01:33:58Z" uid="20587" user="balrog-kun" changeset="5958352" lat="49.7823" lon="22.76799">
    <tag k="addr:city" v="Przemyśl"/>
    <tag k="amenity" v="post_office"/>
    <tag k="name" v="Przemyśl 8"/>
    <tag k="operator" v="Poczta Polska"/>
    <tag k="source" v="http://ump.waw.pl/ retrieved 01:32:52 09/02/09 (UMP-Przemysl/src/POI-Przemysl.pnt-converted.txt)"/>
  </node>
  <node id="560182546" version="2" timestamp="2010-10-05T01:34:44Z" uid="20587" user="balrog-kun" changeset="5958352" lat="49.78295" lon="22.769">
    <tag k="addr:city" v="Przemyśl"/>
    <tag k="amenity" v="townhall"/>
    <tag k="name" v="Urząd Miejski"/>
    <tag k="source" v="http://ump.waw.pl/ retrieved 01:32:52 09/02/09 (UMP-Przemysl/src/POI-Przemysl.pnt-converted.txt)"/>
  </node>
  <node id="560182546" version="3" timestamp="2012-02-17T18:41:06Z" uid="91056" user="Yarl" changeset="10713923" lat="49.7826715" lon="22.7689683">
    <tag k="addr:city" v="Przemyśl"/>
    <tag k="amenity" v="townhall"/>
    <tag k="name" v="Urząd Miejski"/>
    <tag k="source" v="http://ump.waw.pl/ retrieved 01:32:52 09/02/09 (UMP-Przemysl/src/POI-Przemysl.pnt-converted.txt)"/>
  </node>
  <node id="560182595" version="2" timestamp="2010-10-05T01:34:05Z" uid="20587" user="balrog-kun" changeset="5958352" lat="49.7802792" lon="22.7713379">
    <tag k="addr:city" v="Przemyśl"/>
    <tag k="amenity" v="place_of_worship"/>
    <tag k="denomination" v="catholic"/>
    <tag k="name" v="Kościół Karmelitów"/>
    <tag k="religion" v="christian"/>
    <tag k="source" v="http://ump.waw.pl/ retrieved 01:32:52 09/02/09 (UMP-Przemysl/src/POI-Przemysl.pnt-converted.txt)"/>
  </node>
  <node id="560182607" version="2" timestamp="2010-10-05T01:33:54Z" uid="20587" user="balrog-kun" changeset="5958352" lat="49.78125" lon="22.7705">
    <tag k="addr:city" v="Przemyśl"/>
    <tag k="amenity" v="place_of_worship"/>
    <tag k="denomination" v="catholic"/>
    <tag k="name" v="Katedra greko-katolicka"/>
    <tag k="religion" v="christian"/>
    <tag k="source" v="http://ump.waw.pl/ retrieved 01:32:52 09/02/09 (UMP-Przemysl/src/POI-Przemysl.pnt-converted.txt)"/>
  </node>
  <node id="560182607" version="3" timestamp="2012-02-17T18:41:05Z" uid="91056" user="Yarl" changeset="10713923" lat="49.7810711" lon="22.7703496">
    <tag k="addr:city" v="Przemyśl"/>
    <tag k="amenity" v="place_of_worship"/>
    <tag k="denomination" v="catholic"/>
    <tag k="name" v="Katedra greko-katolicka"/>
    <tag k="religion" v="christian"/>
    <tag k="source" v="http://ump.waw.pl/ retrieved 01:32:52 09/02/09 (UMP-Przemysl/src/POI-Przemysl.pnt-converted.txt)"/>
  </node>
  <node id="560182608" version="2" timestamp="2010-10-05T01:35:20Z" uid="20587" user="balrog-kun" changeset="5958352" lat="49.781628" lon="22.7704886">
    <tag k="addr:city" v="Przemyśl"/>
    <tag k="amenity" v="place_of_worship"/>
    <tag k="denomination" v="catholic"/>
    <tag k="name" v="Kościół Franciszkanów"/>
    <tag k="religion" v="christian"/>
    <tag k="source" v="http://ump.waw.pl/ retrieved 01:32:52 09/02/09 (UMP-Przemysl/src/POI-Przemysl.pnt-converted.txt)"/>
  </node>
  <node id="560182640" version="2" timestamp="2010-10-05T01:34:14Z" uid="20587" user="balrog-kun" changeset="5958352" lat="49.78153" lon="22.77401">
    <tag k="addr:city" v="Przemyśl"/>
    <tag k="amenity" v="school"/>
    <tag k="name" v="Szkoła Podstawowa nr 11"/>
    <tag k="source" v="http://ump.waw.pl/ retrieved 01:32:52 09/02/09 (UMP-Przemysl/src/POI-Przemysl.pnt-converted.txt)"/>
  </node>
  <node id="560182649" version="2" timestamp="2010-10-05T01:34:21Z" uid="20587" user="balrog-kun" changeset="5958352" lat="49.7822769" lon="22.7702547">
    <tag k="addr:city" v="Przemyśl"/>
    <tag k="name" v="Muzeum"/>
    <tag k="source" v="http://ump.waw.pl/ retrieved 01:32:52 09/02/09 (UMP-Przemysl/src/POI-Przemysl.pnt-converted.txt)"/>
    <tag k="tourism" v="museum"/>
  </node>
  <node id="560182651" version="2" timestamp="2010-10-05T01:33:58Z" uid="20587" user="balrog-kun" changeset="5958352" lat="49.7825357" lon="22.7696418">
    <tag k="addr:city" v="Przemyśl"/>
    <tag k="amenity" v="restaurant"/>
    <tag k="cuisine" v="pizza"/>
    <tag k="name" v="Margherita"/>
    <tag k="source" v="http://ump.waw.pl/ retrieved 01:32:52 09/02/09 (UMP-Przemysl/src/POI-Przemysl.pnt-converted.txt)"/>
  </node>
  <node id="560182653" version="2" timestamp="2010-10-05T01:35:06Z" uid="20587" user="balrog-kun" changeset="5958352" lat="49.7819357" lon="22.7702318">
    <tag k="addr:city" v="Przemyśl"/>
    <tag k="amenity" v="pharmacy"/>
    <tag k="source" v="http://ump.waw.pl/ retrieved 01:32:52 09/02/09 (UMP-Przemysl/src/POI-Przemysl.pnt-converted.txt)"/>
  </node>
  <node id="560182662" version="2" timestamp="2010-10-05T01:34:02Z" uid="20587" user="balrog-kun" changeset="5958352" lat="49.7829569" lon="22.7698232">
    <tag k="addr:city" v="Przemyśl"/>
    <tag k="amenity" v="parking"/>
    <tag k="source" v="http://ump.waw.pl/ retrieved 01:32:52 09/02/09 (UMP-Przemysl/src/POI-Przemysl.pnt-converted.txt)"/>
  </node>
  <node id="560182673" version="2" timestamp="2010-10-05T01:34:10Z" uid="20587" user="balrog-kun" changeset="5958352" lat="49.78194" lon="22.7711614">
    <tag k="addr:city" v="Przemyśl"/>
    <tag k="amenity" v="pharmacy"/>
    <tag k="source" v="http://ump.waw.pl/ retrieved 01:32:52 09/02/09 (UMP-Przemysl/src/POI-Przemysl.pnt-converted.txt)"/>
  </node>
  <node id="560182699" version="2" timestamp="2010-10-05T01:34:45Z" uid="20587" user="balrog-kun" changeset="5958352" lat="49.7819882" lon="22.7731743">
    <tag k="addr:city" v="Przemyśl"/>
    <tag k="denomination" v="catholic"/>
    <tag k="name" v="Muzeum fajek"/>
    <tag k="religion" v="christian"/>
    <tag k="source" v="http://ump.waw.pl/ retrieved 01:32:52 09/02/09 (UMP-Przemysl/src/POI-Przemysl.pnt-converted.txt)"/>
    <tag k="tourism" v="museum"/>
  </node>
  <node id="560182718" version="2" timestamp="2010-10-05T01:33:54Z" uid="20587" user="balrog-kun" changeset="5958352" lat="49.78248" lon="22.77443">
    <tag k="addr:city" v="Przemyśl"/>
    <tag k="amenity" v="place_of_worship"/>
    <tag k="denomination" v="catholic"/>
    <tag k="name" v="Kościół Reformatów"/>
    <tag k="religion" v="christian"/>
    <tag k="source" v="http://ump.waw.pl/ retrieved 01:32:52 09/02/09 (UMP-Przemysl/src/POI-Przemysl.pnt-converted.txt)"/>
  </node>
  <node id="560182719" version="2" timestamp="2010-10-05T01:34:59Z" uid="20587" user="balrog-kun" changeset="5958352" lat="49.7823926" lon="22.7734532">
    <tag k="addr:city" v="Przemyśl"/>
    <tag k="addr:housenumber" v="1"/>
    <tag k="addr:street" v="Władycze"/>
    <tag k="amenity" v="atm"/>
    <tag k="atm_ref" v="ML8203A"/>
    <tag k="millennium:date" v="2009-05-21 17:13:02"/>
    <tag k="millennium:network" v="Millennium"/>
    <tag k="millennium:ref" v="18111"/>
    <tag k="millennium:subtype" v="Euronet"/>
    <tag k="name" v="Bankomat Millennium"/>
    <tag k="operator" v="Euronet Sp. z o.o."/>
  </node>
  <node id="560182783" version="2" timestamp="2010-10-05T01:35:11Z" uid="20587" user="balrog-kun" changeset="5958352" lat="49.78653" lon="22.76391">
    <tag k="addr:city" v="Przemyśl"/>
    <tag k="amenity" v="place_of_worship"/>
    <tag k="denomination" v="catholic"/>
    <tag k="name" v="Bazylianie"/>
    <tag k="religion" v="christian"/>
    <tag k="source" v="http://ump.waw.pl/ retrieved 01:32:52 09/02/09 (UMP-Przemysl/src/POI-Przemysl.pnt-converted.txt)"/>
  </node>
  <node id="560182795" version="2" timestamp="2010-10-05T01:33:22Z" uid="20587" user="balrog-kun" changeset="5958352" lat="49.78585" lon="22.7668">
    <tag k="addr:city" v="Przemyśl"/>
    <tag k="amenity" v="place_of_worship"/>
    <tag k="denomination" v="catholic"/>
    <tag k="name" v="Kościół Świętej Trójcy"/>
    <tag k="religion" v="christian"/>
    <tag k="source" v="http://ump.waw.pl/ retrieved 01:32:52 09/02/09 (UMP-Przemysl/src/POI-Przemysl.pnt-converted.txt)"/>
  </node>
  <node id="560182829" version="2" timestamp="2010-10-05T01:33:23Z" uid="20587" user="balrog-kun" changeset="5958352" lat="49.7887437" lon="22.7659824">
    <tag k="addr:city" v="Przemyśl"/>
    <tag k="amenity" v="post_office"/>
    <tag k="name" v="Przemyśl 1"/>
    <tag k="operator" v="Poczta Polska"/>
    <tag k="source" v="http://ump.waw.pl/ retrieved 01:32:52 09/02/09 (UMP-Przemysl/src/POI-Przemysl.pnt-converted.txt)"/>
  </node>
  <node id="560182837" version="2" timestamp="2010-10-05T01:33:47Z" uid="20587" user="balrog-kun" changeset="5958352" lat="49.7898872" lon="22.7640974">
    <tag k="addr:city" v="Przemyśl"/>
    <tag k="addr:housenumber" v="1"/>
    <tag k="addr:street" v="Stefana Okrzei"/>
    <tag k="amenity" v="atm"/>
    <tag k="atm_ref" v="2750000"/>
    <tag k="millennium:date" v="2009-05-21 17:13:02"/>
    <tag k="millennium:network" v="BZ WBK"/>
    <tag k="millennium:ref" v="18581"/>
    <tag k="millennium:subtype" v="Euronet"/>
    <tag k="name" v="Bankomat BZ WBK"/>
    <tag k="operator" v="Euronet Sp. z o.o."/>
  </node>
  <node id="560183706" version="2" timestamp="2010-04-11T04:52:58Z" uid="20587" user="balrog-kun" changeset="4389130" lat="49.7493167" lon="22.8259828">
    <tag k="name" v="Łuczyce"/>
    <tag k="place" v="village"/>
    <tag k="source" v="http://ump.waw.pl/ retrieved 01:32:52 09/02/09 (UMP-Przemysl/src/cities-Przemysl.pnt-converted.txt)"/>
  </node>
  <node id="560183706" version="3" timestamp="2010-04-11T13:16:45Z" uid="20587" user="balrog-kun" changeset="4392352" lat="49.749191" lon="22.8244369">
    <tag k="name" v="Łuczyce"/>
    <tag k="place" v="village"/>
    <tag k="source" v="http://ump.waw.pl/ retrieved 01:32:52 09/02/09 (UMP-Przemysl/src/cities-Przemysl.pnt-converted.txt)"/>
  </node>
  <node id="560183706" version="4" timestamp="2012-02-17T00:28:12Z" uid="467703" user="Zbigniew Czernik" changeset="10707102" lat="49.749191" lon="22.8244369">
    <tag k="name" v="Łuczyce"/>
    <tag k="place" v="village"/>
  </node>
  <node id="560183780" version="2" timestamp="2010-04-11T04:52:58Z" uid="20587" user="balrog-kun" changeset="4389130" lat="49.76747" lon="22.82419">
    <tag k="name" v="Krówniki"/>
    <tag k="place" v="village"/>
    <tag k="source" v="http://ump.waw.pl/ retrieved 01:32:52 09/02/09 (UMP-Przemysl/src/cities-Przemysl.pnt-converted.txt)"/>
  </node>
  <node id="560183780" version="3" timestamp="2010-04-11T13:16:45Z" uid="20587" user="balrog-kun" changeset="4392352" lat="49.76747" lon="22.82419">
    <tag k="name" v="Krówniki"/>
    <tag k="place" v="village"/>
    <tag k="source" v="http://ump.waw.pl/ retrieved 01:32:52 09/02/09 (UMP-Przemysl/src/cities-Przemysl.pnt-converted.txt)"/>
  </node>
  <node id="560183780" version="4" timestamp="2010-04-27T03:57:42Z" uid="30632" user="antblant" changeset="4537850" lat="49.76747" lon="22.82419">
    <tag k="name" v="Krówniki"/>
    <tag k="place" v="village"/>
    <tag k="source" v="http://ump.waw.pl/ retrieved 01:32:52 09/02/09 (UMP-Przemysl/src/cities-Przemysl.pnt-converted.txt)"/>
    <tag k="teryt:simc" v="0608693"/>
  </node>
  <node id="560183780" version="5" timestamp="2012-02-17T00:28:05Z" uid="467703" user="Zbigniew Czernik" changeset="10707102" lat="49.7674417" lon="22.8256592">
    <tag k="name" v="Krówniki"/>
    <tag k="place" v="village"/>
    <tag k="teryt:simc" v="0608693"/>
  </node>
  <node id="560184135" version="2" timestamp="2010-10-05T01:35:02Z" uid="20587" user="balrog-kun" changeset="5958352" lat="49.7904632" lon="22.7654912">
    <tag k="addr:city" v="Przemyśl"/>
    <tag k="amenity" v="veterinary"/>
    <tag k="name" v="Weterynarz"/>
    <tag k="source" v="http://ump.waw.pl/ retrieved 01:32:52 09/02/09 (UMP-Przemysl/src/POI-Przemysl.pnt-converted.txt)"/>
  </node>
  <node id="560184137" version="2" timestamp="2010-10-05T01:33:39Z" uid="20587" user="balrog-kun" changeset="5958352" lat="49.7911107" lon="22.76535">
    <tag k="addr:city" v="Przemyśl"/>
    <tag k="name" v="Archiwum"/>
    <tag k="source" v="http://ump.waw.pl/ retrieved 01:32:52 09/02/09 (UMP-Przemysl/src/POI-Przemysl.pnt-converted.txt)"/>
    <tag k="tourism" v="museum"/>
  </node>
  <node id="560184731" version="2" timestamp="2010-04-11T04:52:58Z" uid="20587" user="balrog-kun" changeset="4389130" lat="49.80021" lon="22.80001">
    <tag k="name" v="Buszkowice"/>
    <tag k="place" v="village"/>
    <tag k="source" v="http://ump.waw.pl/ retrieved 01:32:52 09/02/09 (UMP-Przemysl/src/cities-Przemysl.pnt-converted.txt)"/>
  </node>
  <node id="560184731" version="3" timestamp="2010-04-11T13:16:45Z" uid="20587" user="balrog-kun" changeset="4392352" lat="49.80021" lon="22.80001">
    <tag k="name" v="Buszkowice"/>
    <tag k="place" v="village"/>
    <tag k="source" v="http://ump.waw.pl/ retrieved 01:32:52 09/02/09 (UMP-Przemysl/src/cities-Przemysl.pnt-converted.txt)"/>
  </node>
  <node id="560184731" version="4" timestamp="2012-02-17T00:28:00Z" uid="467703" user="Zbigniew Czernik" changeset="10707102" lat="49.8027704" lon="22.8049957">
    <tag k="name" v="Buszkowice"/>
    <tag k="place" v="village"/>
  </node>
  <node id="560180497" version="4" timestamp="2012-08-10T00:25:56Z" uid="467703" user="Zbigniew_Czernik" changeset="12674651" lat="49.7940174" lon="22.7184177">
    <tag k="name" v="Ostrów"/>
    <tag k="place" v="village"/>
  </node>
  <node id="560180497" version="5" timestamp="2012-09-01T07:32:45Z" uid="760215" user="pnorman redaction revert" changeset="12939212" lat="49.7940174" lon="22.7184177">
    <tag k="place" v="village"/>
  </node>
  <node id="560180536" version="6" timestamp="2012-09-01T07:32:45Z" uid="760215" user="pnorman redaction revert" changeset="12939212" lat="49.8021407" lon="22.7161634">
    <tag k="teryt:simc" v="0608718"/>
  </node>
  <node id="560180609" version="5" timestamp="2012-09-01T07:32:45Z" uid="760215" user="pnorman redaction revert" changeset="12939212" lat="49.8140397" lon="22.7016563"/>
  <node id="560181588" version="7" timestamp="2012-08-31T13:03:46Z" uid="760215" user="pnorman redaction revert" changeset="12930759" lat="49.7466214" lon="22.7768145">
    <tag k="teryt:simc" v="0608836"/>
  </node>
  <node id="560181810" version="6" timestamp="2012-08-31T13:03:46Z" uid="760215" user="pnorman redaction revert" changeset="12930759" lat="49.7516733" lon="22.8004956">
    <tag k="teryt:simc" v="0608807"/>
  </node>
  <node id="560183706" version="5" timestamp="2012-08-31T13:03:47Z" uid="760215" user="pnorman redaction revert" changeset="12930759" lat="49.749191" lon="22.8244369"/>
  <node id="560183780" version="6" timestamp="2012-08-31T13:03:47Z" uid="760215" user="pnorman redaction revert" changeset="12930759" lat="49.7674417" lon="22.8256592">
    <tag k="teryt:simc" v="0608693"/>
  </node>
  <node id="560184731" version="5" timestamp="2012-08-31T13:03:48Z" uid="760215" user="pnorman redaction revert" changeset="12930759" lat="49.8027704" lon="22.8049957"/>
</osm>
