<?xml version='1.0' encoding='UTF-8'?>
<osm version="0.6" generator="libosmium/2.20.0">
  <node id="56071081" version="3" timestamp="2008-07-09T23:56:23Z" uid="6975" user="ulfl" changeset="448234" lat="35.1536706" lon="33.3664176">
    <tag k="name" v="Zorbas bakery"/>
    <tag k="shop" v="bakery"/>
  </node>
  <node id="56071138" version="3" timestamp="2008-07-09T23:56:16Z" uid="6975" user="ulfl" changeset="448234" lat="35.1526882" lon="33.3667008">
    <tag k="name" v="Zorbas bakery"/>
    <tag k="shop" v="bakery"/>
  </node>
  <node id="56071138" version="4" timestamp="2009-01-17T18:28:22Z" uid="61855" user="Zenon" changeset="801886" lat="35.1526882" lon="33.3667008">
    <tag k="is_in" v="Strovolos"/>
    <tag k="name" v="Zorbas bakery"/>
    <tag k="shop" v="bakery"/>
  </node>
  <node id="56071138" version="5" timestamp="2012-03-29T21:17:16Z" uid="643133" user="MarioZ" changeset="11144804" lat="35.1528498" lon="33.3668443">
    <tag k="is_in" v="Strovolos"/>
    <tag k="name" v="Zorbas bakery"/>
    <tag k="shop" v="bakery"/>
  </node>
  <node id="56071511" version="2" timestamp="2008-07-03T18:30:02Z" uid="6975" user="ulfl" changeset="379368" lat="35.152611" lon="33.3680054">
    <tag k="amenity" v="fast_food"/>
    <tag k="name" v="Toronto Pizza"/>
  </node>
  <node id="56071511" version="3" timestamp="2012-03-29T21:16:17Z" uid="643133" user="MarioZ" changeset="11144804" lat="35.152611" lon="33.3680054">
    <tag k="amenity" v="fast_food"/>
    <tag k="cuisine" v="pizza"/>
    <tag k="name" v="Toronto Pizza"/>
  </node>
  <node id="56071081" version="4" timestamp="2012-07-20T09:05:46Z" uid="722137" user="OSMF Redaction Account" changeset="12369442" lat="35.1536706" lon="33.3664176"/>
  <node id="56071138" version="6" timestamp="2012-07-20T09:02:22Z" uid="722137" user="OSMF Redaction Account" changeset="12369290" lat="35.1528498" lon="33.3668443">
    <tag k="is_in" v="Strovolos"/>
  </node>
  <node id="56071138" version="7" timestamp="2012-08-24T15:20:08Z" uid="11321" user="Pecisk" changeset="12846282" lat="35.1528498" lon="33.3668443"/>
  <node id="56071511" version="4" timestamp="2012-07-20T09:05:35Z" uid="722137" user="OSMF Redaction Account" changeset="12369430" lat="35.152611" lon="33.3680054"/>
</osm>
