<?xml version='1.0' encoding='UTF-8'?>
<osm version="0.6" generator="libosmium/2.20.0">
  <node id="56122162" version="4" timestamp="2007-12-23T21:31:34Z" uid="13367" user="nubok" changeset="405179" lat="52.0980409" lon="11.6212468">
    <tag k="created_by" v="Potlatch 0.5d"/>
    <tag k="name" v="Reform"/>
    <tag k="place" v="suburb"/>
  </node>
  <node id="56122162" version="5" timestamp="2008-07-21T11:26:20Z" uid="42683" user="riechfield" changeset="559536" lat="52.0970604" lon="11.6124067">
    <tag k="created_by" v="Potlatch 0.10"/>
    <tag k="name" v="Reform"/>
    <tag k="place" v="suburb"/>
  </node>
  <node id="56122162" version="6" timestamp="2008-07-25T14:52:50Z" uid="42683" user="riechfield" changeset="593657" lat="52.0935277" lon="11.6113063">
    <tag k="created_by" v="Potlatch 0.10"/>
    <tag k="name" v="Reform"/>
    <tag k="place" v="suburb"/>
  </node>
  <node id="56122162" version="7" timestamp="2010-01-19T23:01:39Z" uid="42683" user="riechfield" changeset="3663356" lat="52.0935277" lon="11.6113063">
    <tag k="is_in" v="Magdeburg"/>
    <tag k="name" v="Reform"/>
    <tag k="place" v="suburb"/>
  </node>
  <node id="56122162" version="8" timestamp="2010-10-13T06:49:33Z" uid="92274" user="adjuva" changeset="6026758" lat="52.0935277" lon="11.6113063">
    <tag k="is_in" v="Magdeburg,Sachsen-Anhalt,Bundesrepublik Deutschland,Europe"/>
    <tag k="name" v="Reform"/>
    <tag k="place" v="suburb"/>
  </node>
  <node id="56126936" version="2" timestamp="2008-09-30T11:44:58Z" uid="1066" user="pavel" changeset="720911" lat="49.8367771" lon="18.2874267">
    <tag k="is_in" v="Czech Republic, Europe"/>
    <tag k="name" v="Ostrava"/>
    <tag k="place" v="city"/>
  </node>
  <node id="56126936" version="3" timestamp="2008-11-04T13:15:38Z" uid="308" user="MichaelCollinson" changeset="676656" lat="49.8367771" lon="18.2874267">
    <tag k="is_in" v="Czech Republic, Europe"/>
    <tag k="is_in:continent" v="Europe"/>
    <tag k="is_in:country_code" v="cz"/>
    <tag k="name" v="Ostrava"/>
    <tag k="place" v="city"/>
  </node>
  <node id="56126936" version="4" timestamp="2010-02-09T20:29:45Z" uid="166445" user="GranD" changeset="3835653" lat="49.8367771" lon="18.2874267">
    <tag k="is_in" v="Czech Republic, Europe"/>
    <tag k="is_in:continent" v="Europe"/>
    <tag k="is_in:country_code" v="cz"/>
    <tag k="name" v="Ostrava"/>
    <tag k="name:ru" v="Острава"/>
    <tag k="place" v="city"/>
  </node>
  <node id="56126936" version="5" timestamp="2010-05-31T10:27:36Z" uid="102554" user="Jezevec" changeset="4861620" lat="49.8367771" lon="18.2874267">
    <tag k="is_in" v="Czech Republic, Europe"/>
    <tag k="is_in:continent" v="Europe"/>
    <tag k="is_in:country_code" v="cz"/>
    <tag k="name" v="Ostrava"/>
    <tag k="name:ru" v="Острава"/>
    <tag k="place" v="city"/>
    <tag k="population" v="313414"/>
  </node>
  <node id="56126936" version="6" timestamp="2010-05-31T13:23:13Z" uid="102554" user="Jezevec" changeset="4863102" lat="49.8367771" lon="18.2874267">
    <tag k="is_in" v="Czech Republic, Europe"/>
    <tag k="is_in:continent" v="Europe"/>
    <tag k="is_in:country_code" v="cz"/>
    <tag k="name" v="Ostrava"/>
    <tag k="name:cs" v="Ostrava"/>
    <tag k="name:ru" v="Острава"/>
    <tag k="place" v="city"/>
    <tag k="population" v="313414"/>
  </node>
  <node id="56126936" version="7" timestamp="2010-10-22T21:27:14Z" uid="152074" user="beweta" changeset="6140555" lat="49.8369609" lon="18.2873915">
    <tag k="is_in" v="Czech Republic, Europe"/>
    <tag k="is_in:continent" v="Europe"/>
    <tag k="is_in:country_code" v="cz"/>
    <tag k="name" v="Ostrava"/>
    <tag k="name:cs" v="Ostrava"/>
    <tag k="name:de" v="Ostrau"/>
    <tag k="name:la" v="Ostravia"/>
    <tag k="name:pl" v="Ostrawa"/>
    <tag k="name:ru" v="Острава"/>
    <tag k="place" v="city"/>
    <tag k="population" v="313414"/>
  </node>
  <node id="56126936" version="8" timestamp="2011-05-14T19:44:08Z" uid="212207" user="SunCobalt" changeset="8145003" lat="49.8369609" lon="18.2873915">
    <tag k="is_in" v="Czech Republic, Europe"/>
    <tag k="is_in:continent" v="Europe"/>
    <tag k="is_in:country_code" v="cz"/>
    <tag k="name" v="Ostrava"/>
    <tag k="name:cs" v="Ostrava"/>
    <tag k="name:de" v="Ostrau"/>
    <tag k="name:la" v="Ostravia"/>
    <tag k="name:pl" v="Ostrawa"/>
    <tag k="name:ru" v="Острава"/>
    <tag k="name:sr" v="Острава"/>
    <tag k="place" v="city"/>
    <tag k="population" v="313414"/>
  </node>
  <node id="56126936" version="9" timestamp="2011-07-15T10:23:45Z" uid="102554" user="Jezevec" changeset="8729812" lat="49.8369609" lon="18.2873915">
    <tag k="is_in" v="Czech Republic, Europe"/>
    <tag k="is_in:continent" v="Europe"/>
    <tag k="is_in:country_code" v="cz"/>
    <tag k="lau1" v="CZ0806"/>
    <tag k="lau2" v="554821"/>
    <tag k="name" v="Ostrava"/>
    <tag k="name:cs" v="Ostrava"/>
    <tag k="name:de" v="Ostrau"/>
    <tag k="name:la" v="Ostravia"/>
    <tag k="name:pl" v="Ostrawa"/>
    <tag k="name:ru" v="Острава"/>
    <tag k="name:sr" v="Острава"/>
    <tag k="place" v="city"/>
    <tag k="population" v="303609"/>
  </node>
  <node id="56126936" version="10" timestamp="2012-01-24T13:57:53Z" uid="229590" user="xificurk" changeset="10484761" lat="49.8369609" lon="18.2873915"/>
</osm>
