<?xml version='1.0' encoding='UTF-8'?>
<osm version="0.6" generator="libosmium/2.20.0">
  <node id="562746077" version="2" timestamp="2010-04-11T04:53:01Z" uid="20587" user="balrog-kun" changeset="4389130" lat="49.6033433" lon="21.7058341">
    <tag k="name" v="Wietrzno"/>
    <tag k="place" v="village"/>
    <tag k="source" v="http://ump.waw.pl/ retrieved 01:32:52 09/02/09 (UMP-Przemysl/src/cities-Przemysl.pnt-converted.txt)"/>
  </node>
  <node id="562746077" version="3" timestamp="2010-04-11T13:16:45Z" uid="20587" user="balrog-kun" changeset="4392352" lat="49.6036233" lon="21.706453">
    <tag k="name" v="Wietrzno"/>
    <tag k="place" v="village"/>
    <tag k="source" v="http://ump.waw.pl/ retrieved 01:32:52 09/02/09 (UMP-Przemysl/src/cities-Przemysl.pnt-converted.txt)"/>
  </node>
  <node id="562746181" version="2" timestamp="2010-04-11T04:53:01Z" uid="20587" user="balrog-kun" changeset="4389130" lat="49.63069" lon="21.70175">
    <tag k="name" v="Bóbrka"/>
    <tag k="place" v="village"/>
    <tag k="source" v="http://ump.waw.pl/ retrieved 01:32:52 09/02/09 (UMP-Przemysl/src/cities-Przemysl.pnt-converted.txt)"/>
  </node>
  <node id="562746181" version="3" timestamp="2010-04-11T13:16:45Z" uid="20587" user="balrog-kun" changeset="4392352" lat="49.63069" lon="21.70175">
    <tag k="name" v="Bóbrka"/>
    <tag k="place" v="village"/>
    <tag k="source" v="http://ump.waw.pl/ retrieved 01:32:52 09/02/09 (UMP-Przemysl/src/cities-Przemysl.pnt-converted.txt)"/>
  </node>
  <node id="562746442" version="2" timestamp="2010-04-11T04:53:01Z" uid="20587" user="balrog-kun" changeset="4389130" lat="49.5916657" lon="21.7274964">
    <tag k="name" v="Równe"/>
    <tag k="place" v="village"/>
    <tag k="source" v="http://ump.waw.pl/ retrieved 01:32:52 09/02/09 (UMP-Przemysl/src/cities-Przemysl.pnt-converted.txt)"/>
  </node>
  <node id="562746442" version="3" timestamp="2010-04-11T13:16:45Z" uid="20587" user="balrog-kun" changeset="4392352" lat="49.5906438" lon="21.7311163">
    <tag k="name" v="Równe"/>
    <tag k="place" v="village"/>
    <tag k="source" v="http://ump.waw.pl/ retrieved 01:32:52 09/02/09 (UMP-Przemysl/src/cities-Przemysl.pnt-converted.txt)"/>
  </node>
  <node id="562746810" version="2" timestamp="2010-03-16T20:58:40Z" uid="30632" user="antblant" changeset="4146782" lat="49.57794" lon="21.79495"/>
  <node id="562747088" version="2" timestamp="2010-04-11T04:53:01Z" uid="20587" user="balrog-kun" changeset="4389130" lat="49.6110431" lon="21.754499">
    <tag k="name" v="Rogi"/>
    <tag k="place" v="town"/>
    <tag k="source" v="http://ump.waw.pl/ retrieved 01:32:52 09/02/09 (UMP-Przemysl/src/cities-Przemysl.pnt-converted.txt)"/>
  </node>
  <node id="562747088" version="3" timestamp="2010-04-11T13:16:45Z" uid="20587" user="balrog-kun" changeset="4392352" lat="49.6106073" lon="21.7555228">
    <tag k="name" v="Rogi"/>
    <tag k="place" v="town"/>
    <tag k="source" v="http://ump.waw.pl/ retrieved 01:32:52 09/02/09 (UMP-Przemysl/src/cities-Przemysl.pnt-converted.txt)"/>
  </node>
  <node id="562747088" version="4" timestamp="2011-08-25T22:47:40Z" uid="91056" user="Yarl" changeset="9125707" lat="49.6106073" lon="21.7555228">
    <tag k="name" v="Rogi"/>
    <tag k="place" v="village"/>
    <tag k="population" v="2500"/>
    <tag k="source" v="http://ump.waw.pl/ retrieved 01:32:52 09/02/09 (UMP-Przemysl/src/cities-Przemysl.pnt-converted.txt)"/>
    <tag k="wikipedia" v="Rogi, Podkarpackie Voivodeship"/>
  </node>
  <node id="562747538" version="2" timestamp="2010-04-11T04:53:02Z" uid="20587" user="balrog-kun" changeset="4389130" lat="49.6252708" lon="21.7312339">
    <tag k="name" v="Niżna Łąka"/>
    <tag k="place" v="village"/>
    <tag k="source" v="http://ump.waw.pl/ retrieved 01:32:52 09/02/09 (UMP-Przemysl/src/cities-Przemysl.pnt-converted.txt)"/>
  </node>
  <node id="562747538" version="3" timestamp="2010-04-11T13:16:45Z" uid="20587" user="balrog-kun" changeset="4392352" lat="49.6258154" lon="21.7307084">
    <tag k="name" v="Niżna Łąka"/>
    <tag k="place" v="village"/>
    <tag k="source" v="http://ump.waw.pl/ retrieved 01:32:52 09/02/09 (UMP-Przemysl/src/cities-Przemysl.pnt-converted.txt)"/>
  </node>
  <node id="562747538" version="4" timestamp="2010-04-27T04:20:56Z" uid="30632" user="antblant" changeset="4537915" lat="49.6258154" lon="21.7307084">
    <tag k="name" v="Niżna Łąka"/>
    <tag k="place" v="village"/>
    <tag k="source" v="http://ump.waw.pl/ retrieved 01:32:52 09/02/09 (UMP-Przemysl/src/cities-Przemysl.pnt-converted.txt)"/>
    <tag k="teryt:simc" v="0356613"/>
  </node>
  <node id="562748020" version="2" timestamp="2010-04-11T04:53:02Z" uid="20587" user="balrog-kun" changeset="4389130" lat="49.6473012" lon="21.7120235">
    <tag k="name" v="Machnówka"/>
    <tag k="place" v="village"/>
    <tag k="source" v="http://ump.waw.pl/ retrieved 01:32:52 09/02/09 (UMP-Przemysl/src/cities-Przemysl.pnt-converted.txt)"/>
  </node>
  <node id="562748020" version="3" timestamp="2010-04-11T13:16:45Z" uid="20587" user="balrog-kun" changeset="4392352" lat="49.6456303" lon="21.7128993">
    <tag k="name" v="Machnówka"/>
    <tag k="place" v="village"/>
    <tag k="source" v="http://ump.waw.pl/ retrieved 01:32:52 09/02/09 (UMP-Przemysl/src/cities-Przemysl.pnt-converted.txt)"/>
  </node>
  <node id="562748020" version="4" timestamp="2010-04-27T03:59:29Z" uid="30632" user="antblant" changeset="4537857" lat="49.6456303" lon="21.7128993">
    <tag k="name" v="Machnówka"/>
    <tag k="place" v="village"/>
    <tag k="source" v="http://ump.waw.pl/ retrieved 01:32:52 09/02/09 (UMP-Przemysl/src/cities-Przemysl.pnt-converted.txt)"/>
    <tag k="teryt:simc" v="0347360"/>
  </node>
  <node id="562746077" version="4" timestamp="2012-07-24T12:31:11Z" uid="722137" user="OSMF Redaction Account" changeset="12465472" lat="49.6036233" lon="21.706453"/>
  <node id="562746181" version="4" timestamp="2012-07-24T12:28:39Z" uid="722137" user="OSMF Redaction Account" changeset="12465420" lat="49.63069" lon="21.70175"/>
  <node id="562746442" version="4" timestamp="2012-07-24T12:31:11Z" uid="722137" user="OSMF Redaction Account" changeset="12465472" lat="49.5906438" lon="21.7311163"/>
  <node id="562747088" version="5" timestamp="2012-07-24T12:21:01Z" uid="722137" user="OSMF Redaction Account" changeset="12465255" lat="49.6106073" lon="21.7555228">
    <tag k="place" v="village"/>
    <tag k="population" v="2500"/>
    <tag k="wikipedia" v="Rogi, Podkarpackie Voivodeship"/>
  </node>
  <node id="562747088" version="6" timestamp="2012-07-31T18:06:42Z" uid="369208" user="Slawek_n" changeset="12564817" lat="49.6106073" lon="21.7555228"/>
  <node id="562747538" version="5" timestamp="2012-07-24T12:28:33Z" uid="722137" user="OSMF Redaction Account" changeset="12465420" lat="49.6258154" lon="21.7307084">
    <tag k="teryt:simc" v="0356613"/>
  </node>
  <node id="562747538" version="6" timestamp="2012-08-13T09:23:08Z" uid="147230" user="SQ9NIT" changeset="12711192" lat="49.6256021" lon="21.7286673">
    <tag k="name" v="Niżna Łąka"/>
    <tag k="place" v="village"/>
    <tag k="source" v="Bing;WIG;TERYT"/>
    <tag k="teryt:simc" v="0356613"/>
  </node>
  <node id="562747538" version="7" timestamp="2012-09-05T13:27:48Z" uid="841583" user="evolution_men" changeset="12996114" lat="49.6268531" lon="21.7321885">
    <tag k="name" v="Niżna Łąka"/>
    <tag k="place" v="village"/>
    <tag k="source" v="Bing;WIG;TERYT"/>
    <tag k="teryt:simc" v="0356613"/>
  </node>
  <node id="562747538" version="8" timestamp="2012-09-05T13:28:06Z" uid="841583" user="evolution_men" changeset="12996114" lat="49.6277537" lon="21.731386">
    <tag k="name" v="Niżna Łąka"/>
    <tag k="place" v="village"/>
    <tag k="source" v="Bing;WIG;TERYT"/>
    <tag k="teryt:simc" v="0356613"/>
  </node>
  <node id="562748020" version="5" timestamp="2012-07-24T12:28:34Z" uid="722137" user="OSMF Redaction Account" changeset="12465420" lat="49.6456303" lon="21.7128993">
    <tag k="teryt:simc" v="0347360"/>
  </node>
  <node id="562748020" version="6" timestamp="2012-08-13T09:23:07Z" uid="147230" user="SQ9NIT" changeset="12711192" lat="49.6425606" lon="21.7141503">
    <tag k="name" v="Machnówka"/>
    <tag k="place" v="village"/>
    <tag k="source" v="Bing;WIG;TERYT"/>
    <tag k="teryt:simc" v="0347360"/>
  </node>
</osm>
