<?xml version='1.0' encoding='UTF-8'?>
<osm version="0.6" generator="libosmium/2.20.0">
  <node id="562770382" version="2" timestamp="2010-04-11T04:53:03Z" uid="20587" user="balrog-kun" changeset="4389130" lat="49.7182912" lon="21.8750696">
    <tag k="name" v="Kombornia"/>
    <tag k="place" v="village"/>
    <tag k="source" v="http://ump.waw.pl/ retrieved 01:32:52 09/02/09 (UMP-Przemysl/src/cities-Przemysl.pnt-converted.txt)"/>
  </node>
  <node id="562770382" version="3" timestamp="2010-04-11T13:16:47Z" uid="20587" user="balrog-kun" changeset="4392352" lat="49.7221489" lon="21.8781166">
    <tag k="name" v="Kombornia"/>
    <tag k="place" v="village"/>
    <tag k="source" v="http://ump.waw.pl/ retrieved 01:32:52 09/02/09 (UMP-Przemysl/src/cities-Przemysl.pnt-converted.txt)"/>
  </node>
  <node id="562770382" version="4" timestamp="2010-04-27T04:07:10Z" uid="30632" user="antblant" changeset="4537875" lat="49.7221489" lon="21.8781166">
    <tag k="name" v="Kombornia"/>
    <tag k="place" v="village"/>
    <tag k="source" v="http://ump.waw.pl/ retrieved 01:32:52 09/02/09 (UMP-Przemysl/src/cities-Przemysl.pnt-converted.txt)"/>
    <tag k="teryt:simc" v="0354672"/>
  </node>
  <node id="562771611" version="2" timestamp="2010-04-11T04:53:03Z" uid="20587" user="balrog-kun" changeset="4389130" lat="49.7277487" lon="21.9454076">
    <tag k="name" v="Orzechówka"/>
    <tag k="place" v="village"/>
    <tag k="source" v="http://ump.waw.pl/ retrieved 01:32:52 09/02/09 (UMP-Przemysl/src/cities-Przemysl.pnt-converted.txt)"/>
  </node>
  <node id="562771611" version="3" timestamp="2010-04-11T13:16:47Z" uid="20587" user="balrog-kun" changeset="4392352" lat="49.7273924" lon="21.9448751">
    <tag k="name" v="Orzechówka"/>
    <tag k="place" v="village"/>
    <tag k="source" v="http://ump.waw.pl/ retrieved 01:32:52 09/02/09 (UMP-Przemysl/src/cities-Przemysl.pnt-converted.txt)"/>
  </node>
  <node id="562773189" version="2" timestamp="2010-04-11T04:53:03Z" uid="20587" user="balrog-kun" changeset="4389130" lat="49.5854495" lon="22.1138019">
    <tag k="name" v="Kostarowce"/>
    <tag k="place" v="village"/>
    <tag k="source" v="http://ump.waw.pl/ retrieved 01:32:52 09/02/09 (UMP-Przemysl/src/cities-Przemysl.pnt-converted.txt)"/>
  </node>
  <node id="562773189" version="3" timestamp="2010-04-11T13:16:47Z" uid="20587" user="balrog-kun" changeset="4392352" lat="49.584965" lon="22.1129798">
    <tag k="name" v="Kostarowce"/>
    <tag k="place" v="village"/>
    <tag k="source" v="http://ump.waw.pl/ retrieved 01:32:52 09/02/09 (UMP-Przemysl/src/cities-Przemysl.pnt-converted.txt)"/>
  </node>
  <node id="562773189" version="4" timestamp="2010-04-27T04:18:37Z" uid="30632" user="antblant" changeset="4537909" lat="49.584965" lon="22.1129798">
    <tag k="name" v="Kostarowce"/>
    <tag k="place" v="village"/>
    <tag k="source" v="http://ump.waw.pl/ retrieved 01:32:52 09/02/09 (UMP-Przemysl/src/cities-Przemysl.pnt-converted.txt)"/>
    <tag k="teryt:simc" v="0359296"/>
  </node>
  <node id="562773189" version="5" timestamp="2011-08-31T13:40:41Z" uid="91056" user="Yarl" changeset="9176429" lat="49.5851482" lon="22.1124146">
    <tag k="name" v="Kostarowce"/>
    <tag k="place" v="village"/>
    <tag k="source" v="http://ump.waw.pl/ retrieved 01:32:52 09/02/09 (UMP-Przemysl/src/cities-Przemysl.pnt-converted.txt)"/>
    <tag k="teryt:simc" v="0359296"/>
  </node>
  <node id="562773347" version="2" timestamp="2010-04-11T04:53:04Z" uid="20587" user="balrog-kun" changeset="4389130" lat="49.5965479" lon="22.1352113">
    <tag k="name" v="Jurowce"/>
    <tag k="place" v="village"/>
    <tag k="source" v="http://ump.waw.pl/ retrieved 01:32:52 09/02/09 (UMP-Przemysl/src/cities-Przemysl.pnt-converted.txt)"/>
  </node>
  <node id="562773347" version="3" timestamp="2010-04-11T13:16:47Z" uid="20587" user="balrog-kun" changeset="4392352" lat="49.5984584" lon="22.1357733">
    <tag k="name" v="Jurowce"/>
    <tag k="place" v="village"/>
    <tag k="source" v="http://ump.waw.pl/ retrieved 01:32:52 09/02/09 (UMP-Przemysl/src/cities-Przemysl.pnt-converted.txt)"/>
  </node>
  <node id="562773347" version="4" timestamp="2011-08-31T13:40:41Z" uid="91056" user="Yarl" changeset="9176429" lat="49.5987776" lon="22.1346023">
    <tag k="name" v="Jurowce"/>
    <tag k="place" v="village"/>
    <tag k="source" v="http://ump.waw.pl/ retrieved 01:32:52 09/02/09 (UMP-Przemysl/src/cities-Przemysl.pnt-converted.txt)"/>
  </node>
  <node id="562773544" version="2" timestamp="2010-04-11T04:53:04Z" uid="20587" user="balrog-kun" changeset="4389130" lat="49.6103858" lon="22.1464554">
    <tag k="name" v="Srogów Górny"/>
    <tag k="place" v="village"/>
    <tag k="source" v="http://ump.waw.pl/ retrieved 01:32:52 09/02/09 (UMP-Przemysl/src/cities-Przemysl.pnt-converted.txt)"/>
  </node>
  <node id="562773544" version="3" timestamp="2010-04-11T13:16:48Z" uid="20587" user="balrog-kun" changeset="4392352" lat="49.6101612" lon="22.1459263">
    <tag k="name" v="Srogów Górny"/>
    <tag k="place" v="village"/>
    <tag k="source" v="http://ump.waw.pl/ retrieved 01:32:52 09/02/09 (UMP-Przemysl/src/cities-Przemysl.pnt-converted.txt)"/>
  </node>
  <node id="562773544" version="4" timestamp="2010-04-27T03:59:48Z" uid="30632" user="antblant" changeset="4537857" lat="49.6101612" lon="22.1459263">
    <tag k="name" v="Srogów Górny"/>
    <tag k="place" v="village"/>
    <tag k="source" v="http://ump.waw.pl/ retrieved 01:32:52 09/02/09 (UMP-Przemysl/src/cities-Przemysl.pnt-converted.txt)"/>
    <tag k="teryt:simc" v="0359652"/>
  </node>
  <node id="562774122" version="3" timestamp="2010-04-11T04:53:04Z" uid="20587" user="balrog-kun" changeset="4389130" lat="49.6592281" lon="22.07577">
    <tag k="name" v="Grabownica Starzeńska"/>
    <tag k="place" v="village"/>
    <tag k="source" v="http://ump.waw.pl/ retrieved 01:32:52 09/02/09 (UMP-Przemysl/src/cities-Przemysl.pnt-converted.txt)"/>
  </node>
  <node id="562774122" version="4" timestamp="2010-04-11T13:16:48Z" uid="20587" user="balrog-kun" changeset="4392352" lat="49.6599216" lon="22.0752514">
    <tag k="name" v="Grabownica Starzeńska"/>
    <tag k="place" v="village"/>
    <tag k="source" v="http://ump.waw.pl/ retrieved 01:32:52 09/02/09 (UMP-Przemysl/src/cities-Przemysl.pnt-converted.txt)"/>
  </node>
  <node id="562774122" version="5" timestamp="2010-04-27T04:21:00Z" uid="30632" user="antblant" changeset="4537915" lat="49.6599216" lon="22.0752514">
    <tag k="name" v="Grabownica Starzeńska"/>
    <tag k="place" v="village"/>
    <tag k="source" v="http://ump.waw.pl/ retrieved 01:32:52 09/02/09 (UMP-Przemysl/src/cities-Przemysl.pnt-converted.txt)"/>
    <tag k="teryt:simc" v="0345615"/>
  </node>
  <node id="562774410" version="2" timestamp="2010-04-11T04:53:04Z" uid="20587" user="balrog-kun" changeset="4389130" lat="49.61959" lon="22.11091">
    <tag k="name" v="Pakoszówka"/>
    <tag k="place" v="village"/>
    <tag k="source" v="http://ump.waw.pl/ retrieved 01:32:52 09/02/09 (UMP-Przemysl/src/cities-Przemysl.pnt-converted.txt)"/>
  </node>
  <node id="562774410" version="3" timestamp="2010-04-11T13:16:48Z" uid="20587" user="balrog-kun" changeset="4392352" lat="49.61959" lon="22.11091">
    <tag k="name" v="Pakoszówka"/>
    <tag k="place" v="village"/>
    <tag k="source" v="http://ump.waw.pl/ retrieved 01:32:52 09/02/09 (UMP-Przemysl/src/cities-Przemysl.pnt-converted.txt)"/>
  </node>
  <node id="562774410" version="4" timestamp="2010-04-27T04:05:40Z" uid="30632" user="antblant" changeset="4537871" lat="49.61959" lon="22.11091">
    <tag k="name" v="Pakoszówka"/>
    <tag k="place" v="village"/>
    <tag k="source" v="http://ump.waw.pl/ retrieved 01:32:52 09/02/09 (UMP-Przemysl/src/cities-Przemysl.pnt-converted.txt)"/>
    <tag k="teryt:simc" v="0359474"/>
  </node>
  <node id="562774410" version="5" timestamp="2011-07-05T02:17:20Z" uid="467703" user="Zibi" changeset="8635304" lat="49.6243533" lon="22.1042258">
    <tag k="name" v="Pakoszówka"/>
    <tag k="place" v="village"/>
    <tag k="teryt:simc" v="0359474"/>
  </node>
  <node id="562774614" version="2" timestamp="2010-04-11T04:53:04Z" uid="20587" user="balrog-kun" changeset="4389130" lat="49.64149" lon="22.11861">
    <tag k="name" v="Lalin"/>
    <tag k="place" v="village"/>
    <tag k="source" v="http://ump.waw.pl/ retrieved 01:32:52 09/02/09 (UMP-Przemysl/src/cities-Przemysl.pnt-converted.txt)"/>
  </node>
  <node id="562774614" version="3" timestamp="2010-04-11T13:16:48Z" uid="20587" user="balrog-kun" changeset="4392352" lat="49.64149" lon="22.11861">
    <tag k="name" v="Lalin"/>
    <tag k="place" v="village"/>
    <tag k="source" v="http://ump.waw.pl/ retrieved 01:32:52 09/02/09 (UMP-Przemysl/src/cities-Przemysl.pnt-converted.txt)"/>
  </node>
  <node id="562774614" version="4" timestamp="2010-04-27T04:19:54Z" uid="30632" user="antblant" changeset="4537912" lat="49.64149" lon="22.11861">
    <tag k="name" v="Lalin"/>
    <tag k="place" v="village"/>
    <tag k="source" v="http://ump.waw.pl/ retrieved 01:32:52 09/02/09 (UMP-Przemysl/src/cities-Przemysl.pnt-converted.txt)"/>
    <tag k="teryt:simc" v="0359304"/>
  </node>
  <node id="562774860" version="2" timestamp="2010-04-11T04:53:04Z" uid="20587" user="balrog-kun" changeset="4389130" lat="49.65747" lon="22.13934">
    <tag k="name" v="Grabówka"/>
    <tag k="place" v="village"/>
    <tag k="source" v="http://ump.waw.pl/ retrieved 01:32:52 09/02/09 (UMP-Przemysl/src/cities-Przemysl.pnt-converted.txt)"/>
  </node>
  <node id="562774860" version="3" timestamp="2010-04-11T13:16:48Z" uid="20587" user="balrog-kun" changeset="4392352" lat="49.65747" lon="22.13934">
    <tag k="name" v="Grabówka"/>
    <tag k="place" v="village"/>
    <tag k="source" v="http://ump.waw.pl/ retrieved 01:32:52 09/02/09 (UMP-Przemysl/src/cities-Przemysl.pnt-converted.txt)"/>
  </node>
  <node id="562778744" version="2" timestamp="2010-04-11T04:53:04Z" uid="20587" user="balrog-kun" changeset="4389130" lat="49.69558" lon="22.02098">
    <tag k="name" v="Brzozów"/>
    <tag k="place" v="town"/>
    <tag k="source" v="http://ump.waw.pl/ retrieved 01:32:52 09/02/09 (UMP-Przemysl/src/cities-Przemysl.pnt-converted.txt)"/>
  </node>
  <node id="562778744" version="3" timestamp="2010-04-11T13:16:48Z" uid="20587" user="balrog-kun" changeset="4392352" lat="49.69558" lon="22.02098">
    <tag k="name" v="Brzozów"/>
    <tag k="place" v="town"/>
    <tag k="source" v="http://ump.waw.pl/ retrieved 01:32:52 09/02/09 (UMP-Przemysl/src/cities-Przemysl.pnt-converted.txt)"/>
  </node>
  <node id="562779284" version="2" timestamp="2010-04-11T04:53:04Z" uid="20587" user="balrog-kun" changeset="4389130" lat="49.6992236" lon="22.0300647">
    <tag k="name" v="Borkówka"/>
    <tag k="place" v="village"/>
    <tag k="source" v="http://ump.waw.pl/ retrieved 01:32:52 09/02/09 (UMP-Przemysl/src/cities-Przemysl.pnt-converted.txt)"/>
  </node>
  <node id="562779284" version="3" timestamp="2010-04-11T13:16:48Z" uid="20587" user="balrog-kun" changeset="4392352" lat="49.6996151" lon="22.030401">
    <tag k="name" v="Borkówka"/>
    <tag k="place" v="village"/>
    <tag k="source" v="http://ump.waw.pl/ retrieved 01:32:52 09/02/09 (UMP-Przemysl/src/cities-Przemysl.pnt-converted.txt)"/>
  </node>
  <node id="562779367" version="3" timestamp="2010-04-11T04:53:04Z" uid="20587" user="balrog-kun" changeset="4389130" lat="49.6822537" lon="22.0438919">
    <tag k="name" v="Humniska"/>
    <tag k="place" v="village"/>
    <tag k="source" v="http://ump.waw.pl/ retrieved 01:32:52 09/02/09 (UMP-Przemysl/src/cities-Przemysl.pnt-converted.txt)"/>
  </node>
  <node id="562779367" version="4" timestamp="2010-04-11T13:16:48Z" uid="20587" user="balrog-kun" changeset="4392352" lat="49.680601" lon="22.045877">
    <tag k="name" v="Humniska"/>
    <tag k="place" v="village"/>
    <tag k="source" v="http://ump.waw.pl/ retrieved 01:32:52 09/02/09 (UMP-Przemysl/src/cities-Przemysl.pnt-converted.txt)"/>
  </node>
  <node id="562779367" version="5" timestamp="2010-04-27T04:06:01Z" uid="30632" user="antblant" changeset="4537871" lat="49.680601" lon="22.045877">
    <tag k="name" v="Humniska"/>
    <tag k="place" v="village"/>
    <tag k="source" v="http://ump.waw.pl/ retrieved 01:32:52 09/02/09 (UMP-Przemysl/src/cities-Przemysl.pnt-converted.txt)"/>
    <tag k="teryt:simc" v="0345704"/>
  </node>
  <node id="562779970" version="3" timestamp="2010-04-11T04:53:04Z" uid="20587" user="balrog-kun" changeset="4389130" lat="49.7190237" lon="22.0094599">
    <tag k="name" v="Stara Wieś"/>
    <tag k="place" v="village"/>
    <tag k="source" v="http://ump.waw.pl/ retrieved 01:32:52 09/02/09 (UMP-Przemysl/src/cities-Przemysl.pnt-converted.txt)"/>
  </node>
  <node id="562779970" version="4" timestamp="2010-04-11T13:16:48Z" uid="20587" user="balrog-kun" changeset="4392352" lat="49.7207224" lon="22.0083155">
    <tag k="name" v="Stara Wieś"/>
    <tag k="place" v="village"/>
    <tag k="source" v="http://ump.waw.pl/ retrieved 01:32:52 09/02/09 (UMP-Przemysl/src/cities-Przemysl.pnt-converted.txt)"/>
  </node>
  <node id="562770382" version="5" timestamp="2012-07-24T12:09:39Z" uid="722137" user="OSMF Redaction Account" changeset="12465037" lat="49.7221489" lon="21.8781166">
    <tag k="teryt:simc" v="0354672"/>
  </node>
  <node id="562770382" version="6" timestamp="2012-08-13T05:27:21Z" uid="147230" user="SQ9NIT" changeset="12709392" lat="49.7107477" lon="21.8697808">
    <tag k="name" v="Kombornia"/>
    <tag k="place" v="village"/>
    <tag k="source" v="WIG"/>
    <tag k="teryt:simc" v="0354672"/>
  </node>
  <node id="562771611" version="4" timestamp="2012-07-24T12:08:58Z" uid="722137" user="OSMF Redaction Account" changeset="12465023" lat="49.7273924" lon="21.9448751"/>
  <node id="562773189" version="6" timestamp="2012-07-24T15:02:27Z" uid="722137" user="OSMF Redaction Account" changeset="12468641" lat="49.5851482" lon="22.1124146">
    <tag k="teryt:simc" v="0359296"/>
  </node>
  <node id="562773189" version="7" timestamp="2012-08-08T16:57:37Z" uid="369208" user="Slawek_n" changeset="12659281" lat="49.5851482" lon="22.1124146">
    <tag k="name" v="Kostarowce"/>
    <tag k="place" v="village"/>
    <tag k="population" v="720"/>
    <tag k="teryt:simc" v="0359296"/>
    <tag k="wikipedia" v="pl:Kostarowce"/>
  </node>
  <node id="562773347" version="5" timestamp="2012-07-24T15:00:48Z" uid="722137" user="OSMF Redaction Account" changeset="12468614" lat="49.5987776" lon="22.1346023"/>
  <node id="562773347" version="6" timestamp="2012-08-08T16:57:37Z" uid="369208" user="Slawek_n" changeset="12659281" lat="49.5987776" lon="22.1346023">
    <tag k="addr:postcode" v="38-507"/>
    <tag k="name" v="Jurowce"/>
    <tag k="place" v="village"/>
    <tag k="population" v="420"/>
    <tag k="wikipedia" v="pl:Jurowce_(województwo_podkarpackie)"/>
  </node>
  <node id="562773544" version="5" timestamp="2012-07-24T15:00:48Z" uid="722137" user="OSMF Redaction Account" changeset="12468614" lat="49.6101612" lon="22.1459263">
    <tag k="teryt:simc" v="0359652"/>
  </node>
  <node id="562773544" version="6" timestamp="2012-08-08T16:57:38Z" uid="369208" user="Slawek_n" changeset="12659281" lat="49.6101612" lon="22.1459263">
    <tag k="name" v="Srogów Górny"/>
    <tag k="place" v="village"/>
    <tag k="teryt:simc" v="0359652"/>
    <tag k="wikipedia" v="pl:Srogów_Górny"/>
  </node>
  <node id="562774122" version="6" timestamp="2012-07-24T15:01:17Z" uid="722137" user="OSMF Redaction Account" changeset="12468622" lat="49.6599216" lon="22.0752514">
    <tag k="place" v="village"/>
    <tag k="teryt:simc" v="0345615"/>
  </node>
  <node id="562774122" version="7" timestamp="2012-08-02T18:18:50Z" uid="369208" user="Slawek_n" changeset="12588997" lat="49.6599216" lon="22.0752514">
    <tag k="addr:postcode" v="36-207"/>
    <tag k="name" v="Grabownica Starzeńska"/>
    <tag k="place" v="village"/>
    <tag k="population" v="3000"/>
    <tag k="teryt:simc" v="0345615"/>
    <tag k="wikipedia" v="pl:Grabownica_Starzeńska"/>
  </node>
  <node id="562774410" version="6" timestamp="2012-07-24T15:02:27Z" uid="722137" user="OSMF Redaction Account" changeset="12468641" lat="49.6243533" lon="22.1042258">
    <tag k="teryt:simc" v="0359474"/>
  </node>
  <node id="562774410" version="7" timestamp="2012-08-08T16:57:37Z" uid="369208" user="Slawek_n" changeset="12659281" lat="49.6243533" lon="22.1042258">
    <tag k="name" v="Pakoszówka"/>
    <tag k="place" v="village"/>
    <tag k="teryt:simc" v="0359474"/>
    <tag k="wikipedia" v="pl:Pakoszówka"/>
  </node>
  <node id="562774614" version="5" timestamp="2012-07-24T15:01:18Z" uid="722137" user="OSMF Redaction Account" changeset="12468622" lat="49.64149" lon="22.11861"/>
  <node id="562774860" version="4" timestamp="2012-07-24T14:58:58Z" uid="722137" user="OSMF Redaction Account" changeset="12468574" lat="49.65747" lon="22.13934"/>
  <node id="562778744" version="4" timestamp="2012-07-24T15:02:05Z" uid="722137" user="OSMF Redaction Account" changeset="12468634" lat="49.69558" lon="22.02098"/>
  <node id="562779284" version="4" timestamp="2012-07-24T15:01:58Z" uid="722137" user="OSMF Redaction Account" changeset="12468634" lat="49.6996151" lon="22.030401"/>
  <node id="562779367" version="6" timestamp="2012-07-24T15:01:58Z" uid="722137" user="OSMF Redaction Account" changeset="12468634" lat="49.680601" lon="22.045877">
    <tag k="place" v="village"/>
    <tag k="teryt:simc" v="0345704"/>
  </node>
  <node id="562779367" version="7" timestamp="2012-08-02T18:18:50Z" uid="369208" user="Slawek_n" changeset="12588997" lat="49.680601" lon="22.045877">
    <tag k="addr:postcode" v="36-206"/>
    <tag k="name" v="Humniska"/>
    <tag k="place" v="village"/>
    <tag k="population" v="4800"/>
    <tag k="teryt:simc" v="0345704"/>
    <tag k="wikipedia" v="pl:Humniska"/>
  </node>
  <node id="562779970" version="5" timestamp="2012-07-24T15:01:58Z" uid="722137" user="OSMF Redaction Account" changeset="12468634" lat="49.7207224" lon="22.0083155">
    <tag k="place" v="village"/>
  </node>
</osm>
