<?xml version='1.0' encoding='UTF-8'?>
<osm version="0.6" generator="libosmium/2.20.0">
  <node id="566962023" version="1" timestamp="2009-11-19T08:44:05Z" uid="74027" user="katzlbt" changeset="3157708" lat="47.1367828" lon="11.4066303">
    <tag k="ele" v="1879"/>
    <tag k="name" v="Waldraster Jöchl"/>
    <tag k="natural" v="peak"/>
  </node>
  <node id="566962023" version="2" timestamp="2010-02-01T17:19:21Z" uid="110450" user="gosausee" changeset="3769300" lat="47.137102" lon="11.4068881">
    <tag k="ele" v="1879"/>
    <tag k="name" v="Waldraster Jöchl"/>
    <tag k="natural" v="peak"/>
  </node>
  <node id="566962023" version="3" timestamp="2010-08-19T05:18:37Z" uid="109869" user="KonradP" changeset="5532472" lat="47.137102" lon="11.4068881">
    <tag k="ele" v="1879"/>
    <tag k="name" v="Waldraster Jöchl"/>
    <tag k="natural" v="peak"/>
  </node>
  <node id="566962023" version="4" timestamp="2012-02-27T11:45:23Z" uid="606250" user="katzlmacher" changeset="10807655" lat="47.1371676" lon="11.4066884">
    <tag k="ele" v="1879"/>
    <tag k="name" v="Waldraster Jöchl"/>
    <tag k="natural" v="peak"/>
  </node>
  <node id="566962023" version="5" timestamp="2012-02-28T17:42:25Z" uid="606250" user="katzlmacher" changeset="10820905" lat="47.1371676" lon="11.4066884"/>
  <node id="566965564" version="1" timestamp="2009-11-19T08:54:12Z" uid="74027" user="katzlbt" changeset="3157708" lat="47.1019556" lon="11.460695">
    <tag k="name" v="Salfaun"/>
    <tag k="place" v="hamlet"/>
  </node>
  <node id="566965564" version="2" timestamp="2012-02-24T01:50:02Z" uid="45481" user="borisC" changeset="10774342" lat="47.1019556" lon="11.460695"/>
</osm>
