<?xml version='1.0' encoding='UTF-8'?>
<osm version="0.6" generator="libosmium/2.20.0">
  <node id="572330333" version="3" timestamp="2010-11-25T18:23:36Z" uid="115477" user="wowik" changeset="6456458" lat="56.9060204" lon="37.6877707">
    <tag k="addr:country" v="RU"/>
    <tag k="addr:district" v="Талдомский район"/>
    <tag k="addr:postcode" v="141921"/>
    <tag k="addr:region" v="Московская область"/>
    <tag k="cladr:code" v="5003500018100"/>
    <tag k="cladr:name" v="Юрино"/>
    <tag k="cladr:suffix" v="Деревня"/>
    <tag k="name" v="Юрино"/>
    <tag k="place" v="hamlet"/>
  </node>
  <node id="572330333" version="4" timestamp="2011-08-07T17:16:25Z" uid="297358" user="patashnik" changeset="8949329" lat="56.9060204" lon="37.6877707">
    <tag k="addr:country" v="RU"/>
    <tag k="addr:district" v="Талдомский район"/>
    <tag k="addr:region" v="Московская область"/>
    <tag k="cladr:code" v="5003500018100"/>
    <tag k="name" v="Юрино"/>
    <tag k="place" v="hamlet"/>
  </node>
  <node id="572330333" version="5" timestamp="2012-07-20T14:45:46Z" uid="722137" user="OSMF Redaction Account" changeset="12380049" lat="56.9067102" lon="37.6852622">
    <tag k="addr:country" v="RU"/>
    <tag k="addr:district" v="Талдомский район"/>
    <tag k="addr:region" v="Московская область"/>
    <tag k="cladr:code" v="5003500018100"/>
    <tag k="name" v="Юрино"/>
    <tag k="place" v="hamlet"/>
  </node>
</osm>
