<?xml version='1.0' encoding='UTF-8'?>
<osm version="0.6" generator="libosmium/2.20.0">
  <node id="574852411" version="2" timestamp="2010-07-29T09:34:28Z" uid="74617" user="JohnSmith" changeset="5344848" lat="52.480401" lon="13.3368854">
    <tag k="amenity" v="emergency_phone"/>
    <tag k="emergency" v="phone"/>
  </node>
  <node id="574852411" version="3" timestamp="2011-02-27T07:58:40Z" uid="102755" user="wicking" changeset="7407571" lat="52.4804774" lon="13.3368706">
    <tag k="amenity" v="telephone"/>
    <tag k="emergency" v="phone"/>
    <tag k="operator" v="Deutsche Telekom"/>
    <tag k="payment:credit_cards" v="yes"/>
    <tag k="payment:electronic_purses" v="yes"/>
  </node>
  <node id="574854148" version="3" timestamp="2009-12-24T04:00:34Z" uid="6975" user="ulfl" changeset="3439817" lat="47.1372044" lon="27.6067611">
    <tag k="name" v="Kia Motors"/>
    <tag k="shop" v="car_repair"/>
  </node>
  <node id="574854148" version="4" timestamp="2010-12-27T13:38:11Z" uid="25906" user="sorein" changeset="6777800" lat="47.1372044" lon="27.6067611">
    <tag k="addr:housenumber" v="3"/>
    <tag k="name" v="Kia Motors"/>
    <tag k="shop" v="car_repair"/>
  </node>
  <node id="574859200" version="2" timestamp="2009-12-24T04:15:38Z" uid="6975" user="ulfl" changeset="3439868" lat="47.4029517" lon="8.4003686">
    <tag k="FIXME" v="resurvey"/>
    <tag k="amenity" v="fire_station"/>
  </node>
  <node id="574852411" version="4" timestamp="2012-07-18T14:47:25Z" uid="722137" user="OSMF Redaction Account" changeset="12285612" lat="52.4804774" lon="13.3368706">
    <tag k="amenity" v="telephone"/>
    <tag k="operator" v="Deutsche Telekom"/>
    <tag k="payment:credit_cards" v="yes"/>
    <tag k="payment:electronic_purses" v="yes"/>
  </node>
</osm>
