<?xml version='1.0' encoding='UTF-8'?>
<osm version="0.6" generator="libosmium/2.20.0">
  <node id="577773206" version="1" timestamp="2009-12-02T16:05:02Z" uid="115477" user="wowik" changeset="3273230" lat="55.7306276" lon="37.6302635">
    <tag k="amenity" v="bank"/>
    <tag k="name" v="МДМ"/>
  </node>
  <node id="577773206" version="2" timestamp="2009-12-02T16:05:22Z" uid="115477" user="wowik" changeset="3273230" lat="55.7306276" lon="37.6302635">
    <tag k="amenity" v="bank"/>
    <tag k="name" v="МДМ"/>
    <tag k="operator" v="МДМ"/>
  </node>
  <node id="577773206" version="3" timestamp="2010-10-14T08:29:53Z" uid="115477" user="wowik" changeset="6037761" lat="55.7306536" lon="37.6299259">
    <tag k="amenity" v="bank"/>
    <tag k="name" v="МДМ"/>
    <tag k="operator" v="МДМ"/>
  </node>
  <node id="577773206" version="4" timestamp="2010-10-14T08:30:16Z" uid="115477" user="wowik" changeset="6037761" lat="55.7306325" lon="37.6299313">
    <tag k="amenity" v="bank"/>
    <tag k="name" v="МДМ"/>
    <tag k="operator" v="МДМ"/>
  </node>
  <node id="577773206" version="5" timestamp="2012-02-17T22:18:30Z" uid="384084" user="Kostik" changeset="10715762" lat="55.7306325" lon="37.6299313">
    <tag k="amenity" v="bank"/>
    <tag k="name" v="МДМ"/>
    <tag k="operator" v="МДМ"/>
  </node>
  <node id="577773206" version="6" timestamp="2012-04-27T07:49:13Z" uid="39086" user="AlexeyS" changeset="11430340" lat="55.7306325" lon="37.6299313"/>
</osm>
