<?xml version='1.0' encoding='UTF-8'?>
<osm version="0.6" generator="libosmium/2.20.0">
  <node id="579804026" version="1" timestamp="2009-12-03T16:44:55Z" uid="17602" user="B10xyz" changeset="3282053" lat="45.4307687" lon="12.3209766">
    <tag k="addr:housenumber" v="1511"/>
    <tag k="note" v="DORSODURO"/>
  </node>
  <node id="579804026" version="2" timestamp="2010-05-16T12:44:02Z" uid="17602" user="B10xyz" changeset="4716621" lat="45.4308082" lon="12.320995">
    <tag k="addr:housenumber" v="1511"/>
    <tag k="note" v="DORSODURO"/>
  </node>
  <node id="579804030" version="1" timestamp="2009-12-03T16:44:55Z" uid="17602" user="B10xyz" changeset="3282053" lat="45.4339647" lon="12.3355613">
    <tag k="addr:housenumber" v="1657"/>
    <tag k="note" v="San Marco"/>
  </node>
  <node id="579804030" version="2" timestamp="2010-05-16T12:44:58Z" uid="17602" user="B10xyz" changeset="4716621" lat="45.4340328" lon="12.335487">
    <tag k="addr:housenumber" v="1657"/>
    <tag k="note" v="San Marco"/>
  </node>
  <node id="579804030" version="3" timestamp="2011-10-12T15:42:51Z" uid="536612" user="Roxanne Laiho" changeset="9539931" lat="45.4340328" lon="12.335487"/>
  <node id="579804033" version="1" timestamp="2009-12-03T16:44:55Z" uid="17602" user="B10xyz" changeset="3282053" lat="45.4360358" lon="12.3281644">
    <tag k="addr:housenumber" v="2804"/>
    <tag k="note" v="San Polo"/>
  </node>
  <node id="579804033" version="2" timestamp="2010-05-25T00:34:41Z" uid="17602" user="B10xyz" changeset="4799862" lat="45.4360974" lon="12.3281014">
    <tag k="addr:housenumber" v="2804"/>
    <tag k="note" v="San Polo"/>
  </node>
  <node id="579804037" version="1" timestamp="2009-12-03T16:44:55Z" uid="17602" user="B10xyz" changeset="3282053" lat="45.4347083" lon="12.3303286">
    <tag k="addr:housenumber" v="3484"/>
    <tag k="note" v="San Marco"/>
  </node>
  <node id="579804037" version="2" timestamp="2010-05-16T12:44:46Z" uid="17602" user="B10xyz" changeset="4716621" lat="45.4347626" lon="12.3303832">
    <tag k="addr:housenumber" v="3484"/>
    <tag k="note" v="San Marco"/>
  </node>
  <node id="579804039" version="1" timestamp="2009-12-03T16:44:55Z" uid="17602" user="B10xyz" changeset="3282053" lat="45.437824" lon="12.3276592">
    <tag k="addr:housenumber" v="2523"/>
    <tag k="note" v="San Polo"/>
  </node>
  <node id="579804039" version="2" timestamp="2010-05-15T16:17:25Z" uid="17602" user="B10xyz" changeset="4707821" lat="45.4378624" lon="12.3276002">
    <tag k="addr:housenumber" v="2523"/>
    <tag k="note" v="San Polo"/>
  </node>
  <node id="579804042" version="1" timestamp="2009-12-03T16:44:56Z" uid="17602" user="B10xyz" changeset="3282053" lat="45.4339839" lon="12.3323015">
    <tag k="addr:housenumber" v="3578"/>
    <tag k="note" v="San Marco"/>
  </node>
  <node id="579804042" version="2" timestamp="2010-05-16T12:44:50Z" uid="17602" user="B10xyz" changeset="4716621" lat="45.4340803" lon="12.3323631">
    <tag k="addr:housenumber" v="3578"/>
    <tag k="note" v="San Marco"/>
  </node>
  <node id="579804044" version="1" timestamp="2009-12-03T16:44:56Z" uid="17602" user="B10xyz" changeset="3282053" lat="45.4351869" lon="12.3329518">
    <tag k="addr:housenumber" v="4007"/>
    <tag k="note" v="San Marco"/>
  </node>
  <node id="579804044" version="2" timestamp="2010-05-16T12:44:52Z" uid="17602" user="B10xyz" changeset="4716621" lat="45.4352361" lon="12.3329291">
    <tag k="addr:housenumber" v="4007"/>
    <tag k="note" v="San Marco"/>
  </node>
  <node id="579804046" version="1" timestamp="2009-12-03T16:44:56Z" uid="17602" user="B10xyz" changeset="3282053" lat="45.4354313" lon="12.3321609">
    <tag k="addr:housenumber" v="3939"/>
    <tag k="note" v="San Marco"/>
  </node>
  <node id="579804046" version="2" timestamp="2010-05-16T12:44:50Z" uid="17602" user="B10xyz" changeset="4716621" lat="45.4355344" lon="12.3321135">
    <tag k="addr:housenumber" v="3939"/>
    <tag k="note" v="San Marco"/>
  </node>
  <node id="579804048" version="1" timestamp="2009-12-03T16:44:56Z" uid="17602" user="B10xyz" changeset="3282053" lat="45.4356303" lon="12.3326138">
    <tag k="addr:housenumber" v="3954"/>
    <tag k="note" v="San Marco"/>
  </node>
  <node id="579804048" version="2" timestamp="2010-05-16T12:44:55Z" uid="17602" user="B10xyz" changeset="4716621" lat="45.4357151" lon="12.3326138">
    <tag k="addr:housenumber" v="3954"/>
    <tag k="note" v="San Marco"/>
  </node>
  <node id="579804050" version="1" timestamp="2009-12-03T16:44:56Z" uid="17602" user="B10xyz" changeset="3282053" lat="45.4355373" lon="12.3333108">
    <tag k="addr:housenumber" v="3984"/>
    <tag k="note" v="San Marco"/>
  </node>
  <node id="579804050" version="2" timestamp="2010-05-16T12:44:55Z" uid="17602" user="B10xyz" changeset="4716621" lat="45.4356154" lon="12.3331023">
    <tag k="addr:housenumber" v="3984"/>
    <tag k="note" v="San Marco"/>
  </node>
  <node id="579804052" version="1" timestamp="2009-12-03T16:44:56Z" uid="17602" user="B10xyz" changeset="3282053" lat="45.4340227" lon="12.3355831"/>
  <node id="579804052" version="2" timestamp="2010-05-16T12:44:58Z" uid="17602" user="B10xyz" changeset="4716621" lat="45.4340676" lon="12.3355333"/>
  <node id="579804052" version="3" timestamp="2012-03-15T15:18:41Z" uid="590900" user="Ciaurlec" changeset="10989454" lat="45.4340812" lon="12.3357032"/>
  <node id="579804054" version="1" timestamp="2009-12-03T16:44:56Z" uid="17602" user="B10xyz" changeset="3282053" lat="45.4355426" lon="12.3388817">
    <tag k="addr:housenumber" v="609"/>
    <tag k="note" v="San Marco"/>
  </node>
  <node id="579804054" version="2" timestamp="2011-10-12T15:42:48Z" uid="536612" user="Roxanne Laiho" changeset="9539931" lat="45.4355426" lon="12.3388817"/>
  <node id="579804057" version="1" timestamp="2009-12-03T16:44:56Z" uid="17602" user="B10xyz" changeset="3282053" lat="45.4356783" lon="12.3395311">
    <tag k="addr:housenumber" v="454"/>
    <tag k="note" v="San Marco"/>
  </node>
  <node id="579804057" version="2" timestamp="2011-10-12T15:42:50Z" uid="536612" user="Roxanne Laiho" changeset="9539931" lat="45.4356783" lon="12.3395311"/>
  <node id="579804061" version="1" timestamp="2009-12-03T16:44:56Z" uid="17602" user="B10xyz" changeset="3282053" lat="45.4374089" lon="12.3412233">
    <tag k="addr:housenumber" v="6131"/>
    <tag k="note" v="CASTELLO"/>
  </node>
  <node id="579804061" version="2" timestamp="2010-05-15T16:18:13Z" uid="17602" user="B10xyz" changeset="4707821" lat="45.4374603" lon="12.3411919">
    <tag k="addr:housenumber" v="6131"/>
    <tag k="note" v="CASTELLO"/>
  </node>
  <node id="579804064" version="1" timestamp="2009-12-03T16:44:56Z" uid="17602" user="B10xyz" changeset="3282053" lat="45.4409296" lon="12.3374443">
    <tag k="addr:housenumber" v="4622"/>
    <tag k="note" v="CANAREGIO"/>
  </node>
  <node id="579804064" version="2" timestamp="2010-05-24T16:52:05Z" uid="17602" user="B10xyz" changeset="4795667" lat="45.4409793" lon="12.3373413">
    <tag k="addr:housenumber" v="4622"/>
    <tag k="note" v="CANAREGIO"/>
  </node>
  <node id="579804064" version="3" timestamp="2012-03-03T11:41:00Z" uid="590900" user="Ciaurlec" changeset="10856729" lat="45.4409793" lon="12.3373413">
    <tag k="addr:housenumber" v="4622"/>
    <tag k="is_in" v="Cannaregio"/>
    <tag k="note" v="CANAREGIO"/>
  </node>
  <node id="579804064" version="4" timestamp="2012-03-03T11:49:42Z" uid="590900" user="Ciaurlec" changeset="10856811" lat="45.4409793" lon="12.3373413">
    <tag k="addr:housenumber" v="4622"/>
    <tag k="is_in" v="Cannaregio"/>
  </node>
  <node id="579804064" version="5" timestamp="2012-03-16T19:08:40Z" uid="590900" user="Ciaurlec" changeset="11001370" lat="45.4409793" lon="12.3373413"/>
  <node id="579804067" version="1" timestamp="2009-12-03T16:44:56Z" uid="17602" user="B10xyz" changeset="3282053" lat="45.4411146" lon="12.337616">
    <tag k="addr:housenumber" v="4626A"/>
    <tag k="note" v="CANAREGIO"/>
  </node>
  <node id="579804067" version="2" timestamp="2012-03-03T11:41:00Z" uid="590900" user="Ciaurlec" changeset="10856729" lat="45.4411146" lon="12.337616">
    <tag k="addr:housenumber" v="4626A"/>
    <tag k="is_in" v="Cannaregio"/>
    <tag k="note" v="CANAREGIO"/>
  </node>
  <node id="579804067" version="3" timestamp="2012-03-03T11:49:43Z" uid="590900" user="Ciaurlec" changeset="10856811" lat="45.4411146" lon="12.337616">
    <tag k="addr:housenumber" v="4626A"/>
    <tag k="is_in" v="Cannaregio"/>
  </node>
  <node id="579804067" version="4" timestamp="2012-03-16T19:08:40Z" uid="590900" user="Ciaurlec" changeset="11001370" lat="45.4411146" lon="12.337616"/>
  <node id="579804070" version="1" timestamp="2009-12-03T16:44:56Z" uid="17602" user="B10xyz" changeset="3282053" lat="45.4411683" lon="12.3374403">
    <tag k="addr:housenumber" v="4616"/>
    <tag k="note" v="CANAREGIO"/>
  </node>
  <node id="579804070" version="2" timestamp="2010-05-24T16:52:05Z" uid="17602" user="B10xyz" changeset="4795667" lat="45.4411978" lon="12.3373977">
    <tag k="addr:housenumber" v="4616"/>
    <tag k="note" v="CANAREGIO"/>
  </node>
  <node id="579804070" version="3" timestamp="2012-03-03T11:41:00Z" uid="590900" user="Ciaurlec" changeset="10856729" lat="45.4411978" lon="12.3373977">
    <tag k="addr:housenumber" v="4616"/>
    <tag k="is_in" v="Cannaregio"/>
    <tag k="note" v="CANAREGIO"/>
  </node>
  <node id="579804070" version="4" timestamp="2012-03-03T11:49:42Z" uid="590900" user="Ciaurlec" changeset="10856811" lat="45.4411978" lon="12.3373977">
    <tag k="addr:housenumber" v="4616"/>
    <tag k="is_in" v="Cannaregio"/>
  </node>
  <node id="579804070" version="5" timestamp="2012-03-16T19:08:40Z" uid="590900" user="Ciaurlec" changeset="11001370" lat="45.4411978" lon="12.3373977"/>
  <node id="579804072" version="1" timestamp="2009-12-03T16:44:56Z" uid="17602" user="B10xyz" changeset="3282053" lat="45.4397101" lon="12.3389615">
    <tag k="addr:housenumber" v="6040"/>
    <tag k="note" v="CANAREGIO"/>
  </node>
  <node id="579804072" version="2" timestamp="2012-02-11T16:39:53Z" uid="590900" user="Ciaurlec" changeset="10654276" lat="45.4397101" lon="12.3389615">
    <tag k="addr:housenumber" v="6040"/>
    <tag k="note" v="Cannaregio"/>
  </node>
  <node id="579804072" version="3" timestamp="2012-02-11T22:50:30Z" uid="590900" user="Ciaurlec" changeset="10658337" lat="45.4397101" lon="12.3389615">
    <tag k="addr:housenumber" v="6040"/>
    <tag k="is_in" v="Cannaregio"/>
  </node>
  <node id="579804072" version="4" timestamp="2012-02-17T18:39:08Z" uid="590900" user="Ciaurlec" changeset="10713908" lat="45.4397101" lon="12.3389615"/>
  <node id="579804075" version="1" timestamp="2009-12-03T16:44:56Z" uid="17602" user="B10xyz" changeset="3282053" lat="45.4402243" lon="12.3382226">
    <tag k="addr:housenumber" v="5536"/>
    <tag k="note" v="CANAREGIO"/>
  </node>
  <node id="579804075" version="2" timestamp="2012-02-11T16:39:53Z" uid="590900" user="Ciaurlec" changeset="10654276" lat="45.4402243" lon="12.3382226">
    <tag k="addr:housenumber" v="5536"/>
    <tag k="note" v="Cannaregio"/>
  </node>
  <node id="579804075" version="3" timestamp="2012-02-11T22:56:03Z" uid="590900" user="Ciaurlec" changeset="10658337" lat="45.4402059" lon="12.3381981">
    <tag k="addr:housenumber" v="5536"/>
    <tag k="is_in" v="Cannaregio"/>
  </node>
  <node id="579804075" version="4" timestamp="2012-02-18T11:22:03Z" uid="590900" user="Ciaurlec" changeset="10719038" lat="45.4402059" lon="12.3381981"/>
  <node id="579804078" version="1" timestamp="2009-12-03T16:44:56Z" uid="17602" user="B10xyz" changeset="3282053" lat="45.4404265" lon="12.3393616">
    <tag k="addr:housenumber" v="5514"/>
    <tag k="note" v="CANAREGIO"/>
  </node>
  <node id="579804078" version="2" timestamp="2010-05-24T16:52:41Z" uid="17602" user="B10xyz" changeset="4795667" lat="45.4404759" lon="12.3393616">
    <tag k="addr:housenumber" v="5514"/>
    <tag k="note" v="CANAREGIO"/>
  </node>
  <node id="579804078" version="3" timestamp="2012-02-11T16:39:53Z" uid="590900" user="Ciaurlec" changeset="10654276" lat="45.4404629" lon="12.3393864">
    <tag k="addr:housenumber" v="5514"/>
    <tag k="note" v="Cannaregio"/>
  </node>
  <node id="579804078" version="4" timestamp="2012-02-11T22:48:34Z" uid="590900" user="Ciaurlec" changeset="10658337" lat="45.4404629" lon="12.3393864">
    <tag k="addr:housenumber" v="5514"/>
    <tag k="is_in" v="Cannaregio"/>
  </node>
  <node id="579804078" version="5" timestamp="2012-02-17T18:13:37Z" uid="590900" user="Ciaurlec" changeset="10713702" lat="45.4404629" lon="12.3393864"/>
  <node id="579804079" version="1" timestamp="2009-12-03T16:44:57Z" uid="17602" user="B10xyz" changeset="3282053" lat="45.4404929" lon="12.3390919">
    <tag k="addr:housenumber" v="5504"/>
    <tag k="note" v="CANAREGIO"/>
  </node>
  <node id="579804079" version="2" timestamp="2012-02-11T16:39:54Z" uid="590900" user="Ciaurlec" changeset="10654276" lat="45.4404929" lon="12.3390919">
    <tag k="addr:housenumber" v="5504"/>
    <tag k="note" v="Cannaregio"/>
  </node>
  <node id="579804079" version="3" timestamp="2012-02-11T22:48:34Z" uid="590900" user="Ciaurlec" changeset="10658337" lat="45.4404929" lon="12.3390919">
    <tag k="addr:housenumber" v="5504"/>
    <tag k="is_in" v="Cannaregio"/>
  </node>
  <node id="579804079" version="4" timestamp="2012-02-17T18:13:37Z" uid="590900" user="Ciaurlec" changeset="10713702" lat="45.4404929" lon="12.3390919"/>
  <node id="579804081" version="1" timestamp="2009-12-03T16:44:57Z" uid="17602" user="B10xyz" changeset="3282053" lat="45.441142" lon="12.3378479">
    <tag k="addr:housenumber" v="4652A"/>
    <tag k="note" v="CANAREGIO"/>
  </node>
  <node id="579804081" version="2" timestamp="2010-05-24T16:52:42Z" uid="17602" user="B10xyz" changeset="4795667" lat="45.4411951" lon="12.3378021">
    <tag k="addr:housenumber" v="4652A"/>
    <tag k="note" v="CANAREGIO"/>
  </node>
  <node id="579804081" version="3" timestamp="2012-03-03T11:41:01Z" uid="590900" user="Ciaurlec" changeset="10856729" lat="45.4411951" lon="12.3378021">
    <tag k="addr:housenumber" v="4652A"/>
    <tag k="is_in" v="Cannaregio"/>
    <tag k="note" v="CANAREGIO"/>
  </node>
  <node id="579804081" version="4" timestamp="2012-03-03T11:49:43Z" uid="590900" user="Ciaurlec" changeset="10856811" lat="45.4411951" lon="12.3378021">
    <tag k="addr:housenumber" v="4652A"/>
    <tag k="is_in" v="Cannaregio"/>
  </node>
  <node id="579804081" version="5" timestamp="2012-03-16T19:08:41Z" uid="590900" user="Ciaurlec" changeset="11001370" lat="45.4411951" lon="12.3378021"/>
  <node id="579804083" version="1" timestamp="2009-12-03T16:44:57Z" uid="17602" user="B10xyz" changeset="3282053" lat="45.4412684" lon="12.3383055"/>
  <node id="579804083" version="2" timestamp="2010-05-24T16:52:42Z" uid="17602" user="B10xyz" changeset="4795667" lat="45.4413201" lon="12.33821"/>
  <node id="579804083" version="3" timestamp="2012-02-09T19:11:24Z" uid="590900" user="Ciaurlec" changeset="10636825" lat="45.4413329" lon="12.3382518"/>
  <node id="579804084" version="1" timestamp="2009-12-03T16:44:57Z" uid="17602" user="B10xyz" changeset="3282053" lat="45.4412532" lon="12.3387235">
    <tag k="addr:housenumber" v="4740"/>
    <tag k="note" v="CANAREGIO"/>
  </node>
  <node id="579804084" version="2" timestamp="2010-05-24T16:52:43Z" uid="17602" user="B10xyz" changeset="4795667" lat="45.4412895" lon="12.3386936">
    <tag k="addr:housenumber" v="4740"/>
    <tag k="note" v="CANAREGIO"/>
  </node>
  <node id="579804084" version="3" timestamp="2012-03-03T11:41:01Z" uid="590900" user="Ciaurlec" changeset="10856729" lat="45.4412895" lon="12.3386936">
    <tag k="addr:housenumber" v="4740"/>
    <tag k="is_in" v="Cannaregio"/>
    <tag k="note" v="CANAREGIO"/>
  </node>
  <node id="579804084" version="4" timestamp="2012-03-03T11:49:43Z" uid="590900" user="Ciaurlec" changeset="10856811" lat="45.4412895" lon="12.3386936">
    <tag k="addr:housenumber" v="4740"/>
    <tag k="is_in" v="Cannaregio"/>
  </node>
  <node id="579804084" version="5" timestamp="2012-03-16T11:28:37Z" uid="590900" user="Ciaurlec" changeset="10997365" lat="45.4412895" lon="12.3386936"/>
  <node id="579804086" version="1" timestamp="2009-12-03T16:44:57Z" uid="17602" user="B10xyz" changeset="3282053" lat="45.4413221" lon="12.3383383"/>
  <node id="579804086" version="2" timestamp="2010-05-24T16:52:42Z" uid="17602" user="B10xyz" changeset="4795667" lat="45.4413738" lon="12.3382428"/>
  <node id="579804086" version="3" timestamp="2012-02-09T19:11:24Z" uid="590900" user="Ciaurlec" changeset="10636825" lat="45.4413772" lon="12.3382786"/>
  <node id="579804087" version="1" timestamp="2009-12-03T16:44:57Z" uid="17602" user="B10xyz" changeset="3282053" lat="45.4413001" lon="12.3383574">
    <tag k="addr:housenumber" v="4749"/>
    <tag k="note" v="CANAREGIO"/>
  </node>
  <node id="579804087" version="2" timestamp="2010-05-24T16:52:42Z" uid="17602" user="B10xyz" changeset="4795667" lat="45.4413266" lon="12.3382858">
    <tag k="addr:housenumber" v="4749"/>
    <tag k="note" v="CANAREGIO"/>
  </node>
  <node id="579804087" version="3" timestamp="2012-03-03T11:41:02Z" uid="590900" user="Ciaurlec" changeset="10856729" lat="45.4413266" lon="12.3382858">
    <tag k="addr:housenumber" v="4749"/>
    <tag k="is_in" v="Cannaregio"/>
    <tag k="note" v="CANAREGIO"/>
  </node>
  <node id="579804087" version="4" timestamp="2012-03-03T11:49:44Z" uid="590900" user="Ciaurlec" changeset="10856811" lat="45.4413266" lon="12.3382858">
    <tag k="addr:housenumber" v="4749"/>
    <tag k="is_in" v="Cannaregio"/>
  </node>
  <node id="579804087" version="5" timestamp="2012-03-16T11:28:37Z" uid="590900" user="Ciaurlec" changeset="10997365" lat="45.4413266" lon="12.3382858"/>
  <node id="579804089" version="1" timestamp="2009-12-03T16:44:57Z" uid="17602" user="B10xyz" changeset="3282053" lat="45.4416859" lon="12.338457">
    <tag k="addr:housenumber" v="4760"/>
    <tag k="note" v="CANAREGIO"/>
  </node>
  <node id="579804089" version="2" timestamp="2010-05-24T16:52:44Z" uid="17602" user="B10xyz" changeset="4795667" lat="45.4417295" lon="12.3383973">
    <tag k="addr:housenumber" v="4760"/>
    <tag k="note" v="CANAREGIO"/>
  </node>
  <node id="579804089" version="3" timestamp="2012-03-03T11:41:02Z" uid="590900" user="Ciaurlec" changeset="10856729" lat="45.4417295" lon="12.3383973">
    <tag k="addr:housenumber" v="4760"/>
    <tag k="is_in" v="Cannaregio"/>
    <tag k="note" v="CANAREGIO"/>
  </node>
  <node id="579804089" version="4" timestamp="2012-03-03T11:49:44Z" uid="590900" user="Ciaurlec" changeset="10856811" lat="45.4417295" lon="12.3383973">
    <tag k="addr:housenumber" v="4760"/>
    <tag k="is_in" v="Cannaregio"/>
  </node>
  <node id="579804089" version="5" timestamp="2012-03-24T15:12:42Z" uid="590900" user="Ciaurlec" changeset="11085418" lat="45.4417295" lon="12.3383973"/>
  <node id="579804102" version="1" timestamp="2009-12-03T16:44:57Z" uid="17602" user="B10xyz" changeset="3282053" lat="45.4395759" lon="12.3405033">
    <tag k="addr:housenumber" v="6139"/>
    <tag k="note" v="CANAREGIO"/>
  </node>
  <node id="579804102" version="2" timestamp="2010-05-16T12:46:14Z" uid="17602" user="B10xyz" changeset="4716621" lat="45.4395826" lon="12.3404488">
    <tag k="addr:housenumber" v="6139"/>
    <tag k="note" v="CANAREGIO"/>
  </node>
  <node id="579804102" version="3" timestamp="2012-03-03T11:41:03Z" uid="590900" user="Ciaurlec" changeset="10856729" lat="45.4395826" lon="12.3404488">
    <tag k="addr:housenumber" v="6139"/>
    <tag k="is_in" v="Cannaregio"/>
    <tag k="note" v="CANAREGIO"/>
  </node>
  <node id="579804102" version="4" timestamp="2012-03-03T11:49:44Z" uid="590900" user="Ciaurlec" changeset="10856811" lat="45.4395826" lon="12.3404488">
    <tag k="addr:housenumber" v="6139"/>
    <tag k="is_in" v="Cannaregio"/>
  </node>
  <node id="579804102" version="5" timestamp="2012-03-30T20:20:22Z" uid="590900" user="Ciaurlec" changeset="11159761" lat="45.4395826" lon="12.3404488"/>
  <node id="579804103" version="1" timestamp="2009-12-03T16:44:57Z" uid="17602" user="B10xyz" changeset="3282053" lat="45.4406487" lon="12.3412387">
    <tag k="addr:housenumber" v="6339"/>
    <tag k="note" v="CANAREGIO"/>
  </node>
  <node id="579804103" version="2" timestamp="2010-05-16T12:46:14Z" uid="17602" user="B10xyz" changeset="4716621" lat="45.4406785" lon="12.3411735">
    <tag k="addr:housenumber" v="6339"/>
    <tag k="note" v="CANAREGIO"/>
  </node>
  <node id="579804103" version="3" timestamp="2012-03-03T11:41:03Z" uid="590900" user="Ciaurlec" changeset="10856729" lat="45.4406785" lon="12.3411735">
    <tag k="addr:housenumber" v="6339"/>
    <tag k="is_in" v="Cannaregio"/>
    <tag k="note" v="CANAREGIO"/>
  </node>
  <node id="579804103" version="4" timestamp="2012-03-03T11:49:45Z" uid="590900" user="Ciaurlec" changeset="10856811" lat="45.4406785" lon="12.3411735">
    <tag k="addr:housenumber" v="6339"/>
    <tag k="is_in" v="Cannaregio"/>
  </node>
  <node id="579804104" version="1" timestamp="2009-12-03T16:44:58Z" uid="17602" user="B10xyz" changeset="3282053" lat="45.4429" lon="12.338188">
    <tag k="addr:housenumber" v="4920"/>
    <tag k="note" v="CANAREGIO"/>
  </node>
  <node id="579804104" version="2" timestamp="2010-05-24T16:52:49Z" uid="17602" user="B10xyz" changeset="4795667" lat="45.442949" lon="12.3381667">
    <tag k="addr:housenumber" v="4920"/>
    <tag k="note" v="CANAREGIO"/>
  </node>
  <node id="579804107" version="1" timestamp="2009-12-03T16:44:58Z" uid="17602" user="B10xyz" changeset="3282053" lat="45.442529" lon="12.3412522">
    <tag k="addr:housenumber" v="5050"/>
    <tag k="note" v="CANAREGIO"/>
  </node>
  <node id="579804107" version="2" timestamp="2010-05-24T16:52:52Z" uid="17602" user="B10xyz" changeset="4795667" lat="45.4426099" lon="12.341196">
    <tag k="addr:housenumber" v="5050"/>
    <tag k="note" v="CANAREGIO"/>
  </node>
  <node id="579804107" version="3" timestamp="2012-03-09T23:27:01Z" uid="590900" user="Ciaurlec" changeset="10926971" lat="45.4426099" lon="12.341196"/>
  <node id="579804952" version="2" timestamp="2010-05-01T12:20:51Z" uid="137033" user="lubomir" changeset="4574253" lat="48.3064237" lon="18.0961863">
    <tag k="is_in" v="Nitra"/>
    <tag k="leisure" v="garden"/>
    <tag k="name" v="Botanická záhrada"/>
  </node>
  <node id="579809283" version="2" timestamp="2010-10-05T17:10:46Z" uid="115477" user="wowik" changeset="5961937" lat="54.6645425" lon="20.5909711"/>
  <node id="579804026" version="3" timestamp="2012-07-16T19:37:05Z" uid="722137" user="OSMF Redaction Account" changeset="12250455" lat="45.4308082" lon="12.320995"/>
  <node id="579804033" version="3" timestamp="2012-07-16T19:41:29Z" uid="722137" user="OSMF Redaction Account" changeset="12250527" lat="45.4360974" lon="12.3281014"/>
  <node id="579804037" version="3" timestamp="2012-07-16T19:40:17Z" uid="722137" user="OSMF Redaction Account" changeset="12250516" lat="45.4347626" lon="12.3303832"/>
  <node id="579804039" version="3" timestamp="2012-07-16T19:42:34Z" uid="722137" user="OSMF Redaction Account" changeset="12250545" lat="45.4378624" lon="12.3276002"/>
  <node id="579804042" version="3" timestamp="2012-07-16T19:39:39Z" uid="722137" user="OSMF Redaction Account" changeset="12250498" lat="45.4340803" lon="12.3323631"/>
  <node id="579804044" version="3" timestamp="2012-07-16T19:40:45Z" uid="722137" user="OSMF Redaction Account" changeset="12250516" lat="45.4352361" lon="12.3329291"/>
  <node id="579804046" version="3" timestamp="2012-07-16T19:41:01Z" uid="722137" user="OSMF Redaction Account" changeset="12250516" lat="45.4355344" lon="12.3321135"/>
  <node id="579804048" version="3" timestamp="2012-07-16T19:41:12Z" uid="722137" user="OSMF Redaction Account" changeset="12250527" lat="45.4357151" lon="12.3326138"/>
  <node id="579804050" version="3" timestamp="2012-07-16T19:41:06Z" uid="722137" user="OSMF Redaction Account" changeset="12250516" lat="45.4356154" lon="12.3331023"/>
  <node id="579804061" version="3" timestamp="2012-07-06T10:33:03Z" uid="590900" user="Ciaurlec" changeset="12128837" lat="45.4374603" lon="12.3411919"/>
  <node id="579804103" version="5" timestamp="2012-04-13T10:49:19Z" uid="590900" user="Ciaurlec" changeset="11286141" lat="45.4406928" lon="12.341228">
    <tag k="addr:housenumber" v="6339"/>
    <tag k="is_in" v="Cannaregio"/>
  </node>
  <node id="579804103" version="6" timestamp="2012-04-14T09:23:20Z" uid="590900" user="Ciaurlec" changeset="11296390" lat="45.4406928" lon="12.341228"/>
  <node id="579804104" version="3" timestamp="2012-05-04T09:45:37Z" uid="590900" user="Ciaurlec" changeset="11496166" lat="45.442949" lon="12.3381667"/>
</osm>
