<?xml version='1.0' encoding='UTF-8'?>
<osm version="0.6" generator="libosmium/2.20.0">
  <node id="581642604" version="11" timestamp="2009-12-24T04:49:35Z" uid="6975" user="ulfl" changeset="3439986" lat="51.7905022" lon="6.1374592">
    <tag k="addr:city" v="Kleve"/>
    <tag k="addr:country" v="DE"/>
    <tag k="addr:housenumber" v="32"/>
    <tag k="addr:postcode" v="47533"/>
    <tag k="addr:street" v="Hafenstraße"/>
    <tag k="amenity" v="restaurant"/>
    <tag k="closed_on" v="Monday"/>
    <tag k="cuisine" v="Italian"/>
    <tag k="name" v="Bacco due"/>
    <tag k="opened" v="12:00-14:30 und 17:30-23:00"/>
    <tag k="phone" v="49-2821-12188"/>
  </node>
  <node id="581642604" version="12" timestamp="2009-12-24T15:37:57Z" uid="100952" user="schmalzlocke" changeset="3443427" lat="51.7905022" lon="6.1374592">
    <tag k="addr:city" v="Kleve"/>
    <tag k="addr:country" v="DE"/>
    <tag k="addr:housenumber" v="32"/>
    <tag k="addr:postcode" v="47533"/>
    <tag k="addr:street" v="Hafenstraße"/>
    <tag k="amenity" v="restaurant"/>
    <tag k="closed_on" v="Monday"/>
    <tag k="cuisine" v="italian"/>
    <tag k="name" v="Bacco due"/>
    <tag k="opened" v="12:00-14:30 und 17:30-23:00"/>
    <tag k="phone" v="49-2821-12188"/>
  </node>
  <node id="581642604" version="13" timestamp="2010-01-02T09:16:02Z" uid="205068" user="clemap" changeset="3516506" lat="51.7904833" lon="6.1374337">
    <tag k="addr:city" v="Kleve"/>
    <tag k="addr:country" v="DE"/>
    <tag k="addr:housenumber" v="32"/>
    <tag k="addr:postcode" v="47533"/>
    <tag k="addr:street" v="Hafenstraße"/>
    <tag k="amenity" v="restaurant"/>
    <tag k="closed_on" v="Monday"/>
    <tag k="cuisine" v="italian"/>
    <tag k="name" v="Bacco due"/>
    <tag k="opened" v="12:00-14:30 und 17:30-23:00"/>
    <tag k="phone" v="49-2821-12188"/>
  </node>
  <node id="581642604" version="14" timestamp="2010-01-07T17:27:36Z" uid="42392" user="moylaender" changeset="3563797" lat="51.7906586" lon="6.1374523">
    <tag k="addr:city" v="Kleve"/>
    <tag k="addr:country" v="DE"/>
    <tag k="addr:housenumber" v="32"/>
    <tag k="addr:postcode" v="47533"/>
    <tag k="addr:street" v="Hafenstraße"/>
    <tag k="amenity" v="restaurant"/>
    <tag k="closed_on" v="Monday"/>
    <tag k="cuisine" v="italian"/>
    <tag k="name" v="Bacco due"/>
    <tag k="opened" v="12:00-14:30 und 17:30-23:00"/>
    <tag k="phone" v="49-2821-12188"/>
  </node>
  <node id="581642604" version="15" timestamp="2010-12-15T15:38:39Z" uid="100952" user="elmarburke" changeset="6668244" lat="51.7906229" lon="6.1374581">
    <tag k="addr:city" v="Kleve"/>
    <tag k="addr:country" v="DE"/>
    <tag k="addr:housenumber" v="32"/>
    <tag k="addr:postcode" v="47533"/>
    <tag k="addr:street" v="Hafenstraße"/>
    <tag k="amenity" v="restaurant"/>
    <tag k="closed_on" v="Monday"/>
    <tag k="cuisine" v="italian"/>
    <tag k="name" v="Bacco due"/>
    <tag k="opened" v="12:00-14:30 und 17:30-23:00"/>
    <tag k="phone" v="49-2821-12188"/>
  </node>
  <node id="581642604" version="16" timestamp="2012-08-19T04:45:16Z" uid="92274" user="adjuva" changeset="12777085" lat="51.7906229" lon="6.1374581">
    <tag k="addr:city" v="Kleve"/>
    <tag k="addr:country" v="DE"/>
    <tag k="addr:housenumber" v="32"/>
    <tag k="addr:postcode" v="47533"/>
    <tag k="addr:street" v="Hafenstraße"/>
    <tag k="amenity" v="restaurant"/>
    <tag k="closed_on" v="Monday"/>
    <tag k="cuisine" v="italian"/>
    <tag k="name" v="Bacco due"/>
    <tag k="opening_hours" v="12:00-14:30, 17:30-23:00"/>
    <tag k="phone" v="49-2821-12188"/>
  </node>
</osm>
