<?xml version='1.0' encoding='UTF-8'?>
<osm version="0.6" generator="libosmium/2.20.0">
  <node id="581885046" version="1" timestamp="2009-12-05T11:57:18Z" uid="20587" user="balrog-kun" changeset="3293969" lat="41.4691717" lon="-2.2579441"/>
  <node id="581887862" version="3" timestamp="2010-07-28T20:29:29Z" uid="74617" user="JohnSmith" changeset="5341853" lat="43.7705792" lon="-79.5029395">
    <tag k="emergency" v="phone"/>
    <tag k="operator" v="York University"/>
  </node>
  <node id="581887862" version="4" timestamp="2010-07-29T08:17:50Z" uid="74617" user="JohnSmith" changeset="5344518" lat="43.7705792" lon="-79.5029395">
    <tag k="amenity" v="emergency_phone"/>
    <tag k="emergency" v="phone"/>
    <tag k="operator" v="York University"/>
  </node>
  <node id="581887862" version="5" timestamp="2012-03-27T13:18:32Z" uid="67540" user="Cobra" changeset="11116336" lat="43.7705792" lon="-79.5029395">
    <tag k="amenity" v="emergency_phone"/>
    <tag k="emergency" v="phone"/>
    <tag k="odbl" v="clean"/>
    <tag k="operator" v="York University"/>
  </node>
</osm>
