<?xml version='1.0' encoding='UTF-8'?>
<osm version="0.6" generator="libosmium/2.20.0">
  <node id="58565241" version="8" timestamp="2009-07-18T18:35:52Z" uid="123517" user="Qichina" changeset="1866394" lat="51.6149576" lon="0.5190945">
    <tag k="name" v="Wickford"/>
    <tag k="railway" v="station"/>
    <tag k="source" v="NPE"/>
  </node>
  <node id="58569642" version="4" timestamp="2009-07-18T18:49:28Z" uid="123517" user="Qichina" changeset="1866525" lat="51.6248854" lon="0.5653767">
    <tag k="name" v="Battlesbridge"/>
    <tag k="railway" v="station"/>
    <tag k="source" v="NPE"/>
  </node>
  <node id="58569642" version="5" timestamp="2010-12-16T09:25:33Z" uid="354566" user="Dave72" changeset="6674728" lat="51.6248703" lon="0.565401">
    <tag k="name" v="Battlesbridge"/>
    <tag k="railway" v="station"/>
    <tag k="source" v="NPE"/>
  </node>
  <node id="58569642" version="6" timestamp="2011-01-11T19:15:52Z" uid="233042" user="CJY" changeset="6940268" lat="51.6248813" lon="0.5653804">
    <tag k="name" v="Battlesbridge"/>
    <tag k="railway" v="station"/>
    <tag k="source" v="NPE"/>
  </node>
  <node id="58569642" version="7" timestamp="2011-02-28T06:12:41Z" uid="364" user="Edward" changeset="7417631" lat="51.6248813" lon="0.5653804">
    <tag k="name" v="Battlesbridge"/>
    <tag k="naptan:AtcoCode" v="9100BTLSBDG"/>
    <tag k="railway" v="station"/>
    <tag k="source" v="NPE"/>
  </node>
  <node id="58569642" version="8" timestamp="2012-05-07T19:39:01Z" uid="510836" user="Rub21" changeset="11532864" lat="51.6248813" lon="0.5653804">
    <tag k="name" v="Battlesbridge"/>
    <tag k="naptan:AtcoCode" v="9100BTLSBDG"/>
    <tag k="network" v="National Rail"/>
    <tag k="railway" v="station"/>
    <tag k="source" v="NPE"/>
  </node>
  <node id="58569642" version="9" timestamp="2012-05-15T19:14:12Z" uid="165" user="Richard" changeset="11607981" lat="51.6248813" lon="0.5653804">
    <tag k="name" v="Battlesbridge"/>
    <tag k="naptan:AtcoCode" v="9100BTLSBDG"/>
    <tag k="railway" v="station"/>
    <tag k="source" v="NPE"/>
  </node>
  <node id="58569642" version="10" timestamp="2012-06-06T00:01:00Z" uid="24119" user="Mauls" changeset="11811440" lat="51.6248813" lon="0.5653804">
    <tag k="addr:postcode" v="SS11 7RG"/>
    <tag k="addr:street" v="Hawk Hill"/>
    <tag k="name" v="Battlesbridge"/>
    <tag k="naptan:AtcoCode" v="9100BTLSBDG"/>
    <tag k="railway" v="station"/>
    <tag k="source" v="NPE"/>
  </node>
</osm>
