<?xml version='1.0' encoding='UTF-8'?>
<osm version="0.6" generator="libosmium/2.20.0">
  <node id="587580121" version="2" timestamp="2010-04-11T11:55:55Z" uid="20587" user="balrog-kun" changeset="4392352" lat="53.4196638" lon="18.7082411">
    <tag k="name" v="Biały Bór 2"/>
    <tag k="place" v="village"/>
    <tag k="source" v="http://ump.waw.pl/ retrieved 11:19:07 11/17/09 (UMP-Torun/src/cities-Torun.pnt-converted.txt)"/>
  </node>
  <node id="587580126" version="2" timestamp="2010-04-11T04:53:59Z" uid="20587" user="balrog-kun" changeset="4389130" lat="53.42048" lon="18.70744">
    <tag k="name" v="Pieńki Królewskie"/>
    <tag k="place" v="village"/>
    <tag k="source" v="http://ump.waw.pl/ retrieved 11:19:07 11/17/09 (UMP-Torun/src/cities-Torun.pnt-converted.txt)"/>
  </node>
  <node id="587580126" version="3" timestamp="2010-04-11T13:17:48Z" uid="20587" user="balrog-kun" changeset="4392352" lat="53.42048" lon="18.70744">
    <tag k="name" v="Pieńki Królewskie"/>
    <tag k="place" v="village"/>
    <tag k="source" v="http://ump.waw.pl/ retrieved 11:19:07 11/17/09 (UMP-Torun/src/cities-Torun.pnt-converted.txt)"/>
  </node>
  <node id="587580126" version="4" timestamp="2010-04-27T04:01:25Z" uid="30632" user="antblant" changeset="4537859" lat="53.42048" lon="18.70744">
    <tag k="name" v="Pieńki Królewskie"/>
    <tag k="place" v="village"/>
    <tag k="source" v="http://ump.waw.pl/ retrieved 11:19:07 11/17/09 (UMP-Torun/src/cities-Torun.pnt-converted.txt)"/>
    <tag k="teryt:simc" v="0844324"/>
  </node>
  <node id="587580271" version="2" timestamp="2010-04-11T04:53:59Z" uid="20587" user="balrog-kun" changeset="4389130" lat="53.35935" lon="18.72856">
    <tag k="name" v="Pilewice"/>
    <tag k="place" v="village"/>
    <tag k="source" v="http://ump.waw.pl/ retrieved 11:19:07 11/17/09 (UMP-Torun/src/cities-Torun.pnt-converted.txt)"/>
  </node>
  <node id="587580271" version="3" timestamp="2010-04-11T13:17:48Z" uid="20587" user="balrog-kun" changeset="4392352" lat="53.35935" lon="18.72856">
    <tag k="name" v="Pilewice"/>
    <tag k="place" v="village"/>
    <tag k="source" v="http://ump.waw.pl/ retrieved 11:19:07 11/17/09 (UMP-Torun/src/cities-Torun.pnt-converted.txt)"/>
  </node>
  <node id="587580271" version="4" timestamp="2010-04-27T04:18:34Z" uid="30632" user="antblant" changeset="4537909" lat="53.35935" lon="18.72856">
    <tag k="name" v="Pilewice"/>
    <tag k="place" v="village"/>
    <tag k="source" v="http://ump.waw.pl/ retrieved 11:19:07 11/17/09 (UMP-Torun/src/cities-Torun.pnt-converted.txt)"/>
    <tag k="teryt:simc" v="0849103"/>
  </node>
  <node id="587580369" version="2" timestamp="2010-04-11T04:53:59Z" uid="20587" user="balrog-kun" changeset="4389130" lat="53.3524" lon="18.74495">
    <tag k="name" v="Plachawy"/>
    <tag k="place" v="village"/>
    <tag k="source" v="http://ump.waw.pl/ retrieved 11:19:07 11/17/09 (UMP-Torun/src/cities-Torun.pnt-converted.txt)"/>
  </node>
  <node id="587580369" version="3" timestamp="2010-04-11T13:17:48Z" uid="20587" user="balrog-kun" changeset="4392352" lat="53.3524" lon="18.74495">
    <tag k="name" v="Plachawy"/>
    <tag k="place" v="village"/>
    <tag k="source" v="http://ump.waw.pl/ retrieved 11:19:07 11/17/09 (UMP-Torun/src/cities-Torun.pnt-converted.txt)"/>
  </node>
  <node id="587580549" version="2" timestamp="2010-04-11T04:54:00Z" uid="20587" user="balrog-kun" changeset="4389130" lat="53.3851" lon="18.72384">
    <tag k="name" v="Waldowo Szlacheckie"/>
    <tag k="place" v="village"/>
    <tag k="source" v="http://ump.waw.pl/ retrieved 11:19:07 11/17/09 (UMP-Torun/src/cities-Torun.pnt-converted.txt)"/>
  </node>
  <node id="587580549" version="3" timestamp="2010-04-11T13:17:48Z" uid="20587" user="balrog-kun" changeset="4392352" lat="53.3851" lon="18.72384">
    <tag k="name" v="Waldowo Szlacheckie"/>
    <tag k="place" v="village"/>
    <tag k="source" v="http://ump.waw.pl/ retrieved 11:19:07 11/17/09 (UMP-Torun/src/cities-Torun.pnt-converted.txt)"/>
  </node>
  <node id="587580549" version="4" timestamp="2010-07-26T02:03:44Z" uid="20587" user="balrog-kun" changeset="5317852" lat="53.3851" lon="18.72384">
    <tag k="name" v="Wałdowo Szlacheckie"/>
    <tag k="note" v="UMP: Waldowo Szlacheckie"/>
    <tag k="place" v="village"/>
    <tag k="source" v="http://ump.waw.pl/ retrieved 11:19:07 11/17/09 (UMP-Torun/src/cities-Torun.pnt-converted.txt)"/>
  </node>
  <node id="587580563" version="3" timestamp="2010-07-26T02:03:17Z" uid="20587" user="balrog-kun" changeset="5317852" lat="53.38755" lon="18.7227597">
    <tag k="name" v="Wałdowo Szlacheckie"/>
    <tag k="operator" v="PKP"/>
    <tag k="railway" v="station"/>
    <tag k="source" v="http://ump.waw.pl/ retrieved 11:19:07 11/17/09 (UMP-Torun/src/POI-Torun.pnt-converted.txt)"/>
  </node>
  <node id="587580604" version="2" timestamp="2010-04-11T04:54:00Z" uid="20587" user="balrog-kun" changeset="4389130" lat="53.38789" lon="18.74032">
    <tag k="name" v="Biały Bór"/>
    <tag k="place" v="village"/>
    <tag k="source" v="http://ump.waw.pl/ retrieved 11:19:07 11/17/09 (UMP-Torun/src/cities-Torun.pnt-converted.txt)"/>
  </node>
  <node id="587580604" version="3" timestamp="2010-04-11T13:17:49Z" uid="20587" user="balrog-kun" changeset="4392352" lat="53.38789" lon="18.74032">
    <tag k="name" v="Biały Bór"/>
    <tag k="place" v="village"/>
    <tag k="source" v="http://ump.waw.pl/ retrieved 11:19:07 11/17/09 (UMP-Torun/src/cities-Torun.pnt-converted.txt)"/>
  </node>
  <node id="587580775" version="2" timestamp="2010-04-11T04:54:00Z" uid="20587" user="balrog-kun" changeset="4389130" lat="53.35489" lon="18.77104">
    <tag k="name" v="Błędowo"/>
    <tag k="place" v="village"/>
    <tag k="source" v="http://ump.waw.pl/ retrieved 11:19:07 11/17/09 (UMP-Torun/src/cities-Torun.pnt-converted.txt)"/>
  </node>
  <node id="587580775" version="3" timestamp="2010-04-11T13:17:49Z" uid="20587" user="balrog-kun" changeset="4392352" lat="53.35489" lon="18.77104">
    <tag k="name" v="Błędowo"/>
    <tag k="place" v="village"/>
    <tag k="source" v="http://ump.waw.pl/ retrieved 11:19:07 11/17/09 (UMP-Torun/src/cities-Torun.pnt-converted.txt)"/>
  </node>
  <node id="587580821" version="2" timestamp="2010-04-11T04:54:00Z" uid="20587" user="balrog-kun" changeset="4389130" lat="53.35429" lon="18.79688">
    <tag k="name" v="Goryn"/>
    <tag k="place" v="village"/>
    <tag k="source" v="http://ump.waw.pl/ retrieved 11:19:07 11/17/09 (UMP-Torun/src/cities-Torun.pnt-converted.txt)"/>
  </node>
  <node id="587580821" version="3" timestamp="2010-04-11T13:17:49Z" uid="20587" user="balrog-kun" changeset="4392352" lat="53.35429" lon="18.79688">
    <tag k="name" v="Goryn"/>
    <tag k="place" v="village"/>
    <tag k="source" v="http://ump.waw.pl/ retrieved 11:19:07 11/17/09 (UMP-Torun/src/cities-Torun.pnt-converted.txt)"/>
  </node>
  <node id="587580858" version="2" timestamp="2010-04-11T04:54:00Z" uid="20587" user="balrog-kun" changeset="4389130" lat="53.36605" lon="18.8028">
    <tag k="name" v="Wiewiorki"/>
    <tag k="place" v="village"/>
    <tag k="source" v="http://ump.waw.pl/ retrieved 11:19:07 11/17/09 (UMP-Torun/src/cities-Torun.pnt-converted.txt)"/>
  </node>
  <node id="587580858" version="3" timestamp="2010-04-11T13:17:49Z" uid="20587" user="balrog-kun" changeset="4392352" lat="53.36605" lon="18.8028">
    <tag k="name" v="Wiewiorki"/>
    <tag k="place" v="village"/>
    <tag k="source" v="http://ump.waw.pl/ retrieved 11:19:07 11/17/09 (UMP-Torun/src/cities-Torun.pnt-converted.txt)"/>
  </node>
  <node id="587580858" version="4" timestamp="2010-10-19T20:21:06Z" uid="146705" user="Kalafior" changeset="6103029" lat="53.36605" lon="18.8027999">
    <tag k="name" v="Wiewiórki"/>
    <tag k="place" v="village"/>
    <tag k="source" v="http://ump.waw.pl/ retrieved 11:19:07 11/17/09 (UMP-Torun/src/cities-Torun.pnt-converted.txt)"/>
  </node>
  <node id="587581055" version="2" timestamp="2010-04-11T04:54:00Z" uid="20587" user="balrog-kun" changeset="4389130" lat="53.38171" lon="18.79008">
    <tag k="name" v="Wiewiorki Podlesie"/>
    <tag k="place" v="village"/>
    <tag k="source" v="http://ump.waw.pl/ retrieved 11:19:07 11/17/09 (UMP-Torun/src/cities-Torun.pnt-converted.txt)"/>
  </node>
  <node id="587581055" version="3" timestamp="2010-04-11T13:17:49Z" uid="20587" user="balrog-kun" changeset="4392352" lat="53.38171" lon="18.79008">
    <tag k="name" v="Wiewiorki Podlesie"/>
    <tag k="place" v="village"/>
    <tag k="source" v="http://ump.waw.pl/ retrieved 11:19:07 11/17/09 (UMP-Torun/src/cities-Torun.pnt-converted.txt)"/>
  </node>
  <node id="587581203" version="2" timestamp="2010-04-11T04:54:00Z" uid="20587" user="balrog-kun" changeset="4389130" lat="53.39342" lon="18.80598">
    <tag k="name" v="Brzeziny Kolonia"/>
    <tag k="place" v="village"/>
    <tag k="source" v="http://ump.waw.pl/ retrieved 11:19:07 11/17/09 (UMP-Torun/src/cities-Torun.pnt-converted.txt)"/>
  </node>
  <node id="587581203" version="3" timestamp="2010-04-11T13:17:49Z" uid="20587" user="balrog-kun" changeset="4392352" lat="53.39342" lon="18.80598">
    <tag k="name" v="Brzeziny Kolonia"/>
    <tag k="place" v="village"/>
    <tag k="source" v="http://ump.waw.pl/ retrieved 11:19:07 11/17/09 (UMP-Torun/src/cities-Torun.pnt-converted.txt)"/>
  </node>
  <node id="587581263" version="1" timestamp="2009-12-12T04:52:17Z" uid="4467" user="Rosscoe" changeset="3353677" lat="-37.717673" lon="144.9009303">
    <tag k="amenity" v="bench"/>
    <tag k="source" v="nearmap"/>
  </node>
  <node id="587581266" version="1" timestamp="2009-12-12T04:52:17Z" uid="4467" user="Rosscoe" changeset="3353677" lat="-37.7173611" lon="144.9009227">
    <tag k="amenity" v="bench"/>
    <tag k="source" v="nearmap"/>
  </node>
  <node id="587581268" version="1" timestamp="2009-12-12T04:52:17Z" uid="4467" user="Rosscoe" changeset="3353677" lat="-37.7171291" lon="144.9005918">
    <tag k="amenity" v="bench"/>
    <tag k="source" v="nearmap"/>
  </node>
  <node id="587581270" version="1" timestamp="2009-12-12T04:52:17Z" uid="4467" user="Rosscoe" changeset="3353677" lat="-37.7168666" lon="144.9003236">
    <tag k="amenity" v="bench"/>
    <tag k="source" v="nearmap"/>
  </node>
  <node id="587581273" version="1" timestamp="2009-12-12T04:52:17Z" uid="4467" user="Rosscoe" changeset="3353677" lat="-37.7174581" lon="144.9015028">
    <tag k="amenity" v="bench"/>
    <tag k="source" v="nearmap"/>
  </node>
  <node id="587581276" version="1" timestamp="2009-12-12T04:52:17Z" uid="4467" user="Rosscoe" changeset="3353677" lat="-37.7167563" lon="144.901965">
    <tag k="amenity" v="bench"/>
    <tag k="source" v="nearmap"/>
  </node>
  <node id="587581278" version="1" timestamp="2009-12-12T04:52:17Z" uid="4467" user="Rosscoe" changeset="3353677" lat="-37.7137054" lon="144.9022656">
    <tag k="amenity" v="bench"/>
    <tag k="source" v="nearmap"/>
  </node>
  <node id="587581280" version="1" timestamp="2009-12-12T04:52:17Z" uid="4467" user="Rosscoe" changeset="3353677" lat="-37.708178" lon="144.8991671">
    <tag k="amenity" v="bench"/>
    <tag k="source" v="nearmap"/>
  </node>
  <node id="587581283" version="1" timestamp="2009-12-12T04:52:17Z" uid="4467" user="Rosscoe" changeset="3353677" lat="-37.7076759" lon="144.8987905">
    <tag k="amenity" v="bench"/>
    <tag k="source" v="nearmap"/>
  </node>
  <node id="587581285" version="1" timestamp="2009-12-12T04:52:17Z" uid="4467" user="Rosscoe" changeset="3353677" lat="-37.7072137" lon="144.8996122"/>
  <node id="587581285" version="2" timestamp="2009-12-12T07:09:45Z" uid="4467" user="Rosscoe" changeset="3353896" lat="-37.7072137" lon="144.8996122">
    <tag k="amenity" v="bench"/>
  </node>
  <node id="587581287" version="1" timestamp="2009-12-12T04:52:17Z" uid="4467" user="Rosscoe" changeset="3353677" lat="-37.7073868" lon="144.9004529">
    <tag k="amenity" v="bench"/>
    <tag k="source" v="nearmap"/>
  </node>
  <node id="587581289" version="1" timestamp="2009-12-12T04:52:18Z" uid="4467" user="Rosscoe" changeset="3353677" lat="-37.7070254" lon="144.9003768">
    <tag k="amenity" v="bench"/>
    <tag k="source" v="nearmap"/>
  </node>
  <node id="587581293" version="1" timestamp="2009-12-12T04:52:18Z" uid="4467" user="Rosscoe" changeset="3353677" lat="-37.7056597" lon="144.9012776">
    <tag k="amenity" v="bench"/>
    <tag k="source" v="nearmap"/>
  </node>
  <node id="587581295" version="1" timestamp="2009-12-12T04:52:18Z" uid="4467" user="Rosscoe" changeset="3353677" lat="-37.7049613" lon="144.9017326">
    <tag k="amenity" v="bench"/>
    <tag k="source" v="nearmap"/>
  </node>
  <node id="587581297" version="1" timestamp="2009-12-12T04:52:18Z" uid="4467" user="Rosscoe" changeset="3353677" lat="-37.7046691" lon="144.9032771">
    <tag k="amenity" v="bench"/>
    <tag k="source" v="nearmap"/>
  </node>
  <node id="587581300" version="1" timestamp="2009-12-12T04:52:18Z" uid="4467" user="Rosscoe" changeset="3353677" lat="-37.7037576" lon="144.9040135"/>
  <node id="587581300" version="2" timestamp="2009-12-12T07:09:45Z" uid="4467" user="Rosscoe" changeset="3353896" lat="-37.7037576" lon="144.9040135">
    <tag k="amenity" v="bench"/>
  </node>
  <node id="587581302" version="1" timestamp="2009-12-12T04:52:18Z" uid="4467" user="Rosscoe" changeset="3353677" lat="-37.7030212" lon="144.9034581">
    <tag k="amenity" v="bench"/>
    <tag k="source" v="nearmap"/>
  </node>
  <node id="587581304" version="1" timestamp="2009-12-12T04:52:18Z" uid="4467" user="Rosscoe" changeset="3353677" lat="-37.7026959" lon="144.9039712">
    <tag k="amenity" v="bench"/>
    <tag k="source" v="nearmap"/>
  </node>
  <node id="587581306" version="1" timestamp="2009-12-12T04:52:18Z" uid="4467" user="Rosscoe" changeset="3353677" lat="-37.7008452" lon="144.9045921">
    <tag k="amenity" v="bench"/>
    <tag k="source" v="nearmap"/>
  </node>
  <node id="587581308" version="1" timestamp="2009-12-12T04:52:18Z" uid="4467" user="Rosscoe" changeset="3353677" lat="-37.6979269" lon="144.9050181">
    <tag k="amenity" v="bench"/>
    <tag k="source" v="nearmap"/>
  </node>
  <node id="587581311" version="1" timestamp="2009-12-12T04:52:18Z" uid="4467" user="Rosscoe" changeset="3353677" lat="-37.6890004" lon="144.9027961"/>
  <node id="587581311" version="2" timestamp="2009-12-12T07:09:45Z" uid="4467" user="Rosscoe" changeset="3353896" lat="-37.6890004" lon="144.9027961">
    <tag k="amenity" v="bench"/>
  </node>
  <node id="587581313" version="1" timestamp="2009-12-12T04:52:18Z" uid="4467" user="Rosscoe" changeset="3353677" lat="-37.6925657" lon="144.9121655">
    <tag k="amenity" v="bench"/>
    <tag k="source" v="nearmap"/>
  </node>
  <node id="587581511" version="2" timestamp="2010-04-11T04:54:00Z" uid="20587" user="balrog-kun" changeset="4389130" lat="53.40317" lon="18.76426">
    <tag k="name" v="Hanowo"/>
    <tag k="place" v="village"/>
    <tag k="source" v="http://ump.waw.pl/ retrieved 11:19:07 11/17/09 (UMP-Torun/src/cities-Torun.pnt-converted.txt)"/>
  </node>
  <node id="587581511" version="3" timestamp="2010-04-11T13:17:49Z" uid="20587" user="balrog-kun" changeset="4392352" lat="53.40317" lon="18.76426">
    <tag k="name" v="Hanowo"/>
    <tag k="place" v="village"/>
    <tag k="source" v="http://ump.waw.pl/ retrieved 11:19:07 11/17/09 (UMP-Torun/src/cities-Torun.pnt-converted.txt)"/>
  </node>
  <node id="587581511" version="4" timestamp="2010-04-27T04:12:29Z" uid="30632" user="antblant" changeset="4537887" lat="53.40317" lon="18.76426">
    <tag k="name" v="Hanowo"/>
    <tag k="place" v="village"/>
    <tag k="source" v="http://ump.waw.pl/ retrieved 11:19:07 11/17/09 (UMP-Torun/src/cities-Torun.pnt-converted.txt)"/>
    <tag k="teryt:simc" v="0844301"/>
  </node>
  <node id="587581555" version="2" timestamp="2010-04-11T04:54:00Z" uid="20587" user="balrog-kun" changeset="4389130" lat="53.40922" lon="18.74913">
    <tag k="name" v="G. Zielony Gront"/>
    <tag k="place" v="village"/>
    <tag k="source" v="http://ump.waw.pl/ retrieved 11:19:07 11/17/09 (UMP-Torun/src/cities-Torun.pnt-converted.txt)"/>
  </node>
  <node id="587581555" version="3" timestamp="2010-04-11T13:17:49Z" uid="20587" user="balrog-kun" changeset="4392352" lat="53.40922" lon="18.74913">
    <tag k="name" v="G. Zielony Gront"/>
    <tag k="place" v="village"/>
    <tag k="source" v="http://ump.waw.pl/ retrieved 11:19:07 11/17/09 (UMP-Torun/src/cities-Torun.pnt-converted.txt)"/>
  </node>
  <node id="587581555" version="4" timestamp="2010-07-26T02:01:58Z" uid="20587" user="balrog-kun" changeset="5317852" lat="53.40922" lon="18.74913">
    <tag k="name" v="Góra Zielony Gront"/>
    <tag k="place" v="village"/>
    <tag k="source" v="http://ump.waw.pl/ retrieved 11:19:07 11/17/09 (UMP-Torun/src/cities-Torun.pnt-converted.txt)"/>
  </node>
  <node id="587581622" version="2" timestamp="2010-04-11T04:54:00Z" uid="20587" user="balrog-kun" changeset="4389130" lat="53.4190764" lon="18.7182383">
    <tag k="alt_name" v="Biały Bór II"/>
    <tag k="name" v="Biały Bór Drugi"/>
    <tag k="note" v="UMP: Biały Bór 2"/>
    <tag k="place" v="village"/>
    <tag k="source" v="http://ump.waw.pl/ retrieved 11:19:07 11/17/09 (UMP-Torun/src/cities-Torun.pnt-converted.txt)"/>
  </node>
  <node id="587581622" version="3" timestamp="2010-04-11T13:17:49Z" uid="20587" user="balrog-kun" changeset="4392352" lat="53.41896" lon="18.72152">
    <tag k="alt_name" v="Biały Bór II"/>
    <tag k="name" v="Biały Bór Drugi"/>
    <tag k="note" v="UMP: Biały Bór 2"/>
    <tag k="place" v="village"/>
    <tag k="source" v="http://ump.waw.pl/ retrieved 11:19:07 11/17/09 (UMP-Torun/src/cities-Torun.pnt-converted.txt)"/>
  </node>
  <node id="587581867" version="2" timestamp="2010-04-11T04:54:00Z" uid="20587" user="balrog-kun" changeset="4389130" lat="53.42861" lon="18.72869">
    <tag k="name" v="Osiedle Mniszek"/>
    <tag k="place" v="village"/>
    <tag k="source" v="http://ump.waw.pl/ retrieved 11:19:07 11/17/09 (UMP-Torun/src/cities-Torun.pnt-converted.txt)"/>
  </node>
  <node id="587581867" version="3" timestamp="2010-04-11T13:17:49Z" uid="20587" user="balrog-kun" changeset="4392352" lat="53.42861" lon="18.72869">
    <tag k="name" v="Osiedle Mniszek"/>
    <tag k="place" v="village"/>
    <tag k="source" v="http://ump.waw.pl/ retrieved 11:19:07 11/17/09 (UMP-Torun/src/cities-Torun.pnt-converted.txt)"/>
  </node>
  <node id="587581915" version="3" timestamp="2010-07-26T02:02:37Z" uid="20587" user="balrog-kun" changeset="5317852" lat="53.4329799" lon="18.7252812">
    <tag k="addr:city" v="Grudziądz"/>
    <tag k="name" v="Grudziądz Mniszek"/>
    <tag k="operator" v="PKP"/>
    <tag k="railway" v="station"/>
    <tag k="source" v="http://ump.waw.pl/ retrieved 11:19:07 11/17/09 (UMP-Torun/src/POI-Torun.pnt-converted.txt)"/>
    <tag k="wikipedia" v="pl:Grudziądz Mniszek"/>
  </node>
  <node id="587581915" version="4" timestamp="2012-01-31T22:14:37Z" uid="597451" user="einGraudenzer" changeset="10553889" lat="53.4329799" lon="18.7252812">
    <tag k="addr:city" v="Grudziądz"/>
    <tag k="name" v="Grudziądz Mniszek"/>
    <tag k="operator" v="PKP"/>
    <tag k="platforms" v="3"/>
    <tag k="railway" v="station"/>
    <tag k="source" v="http://ump.waw.pl/ retrieved 11:19:07 11/17/09 (UMP-Torun/src/POI-Torun.pnt-converted.txt)"/>
    <tag k="wikipedia" v="pl:Grudziądz Mniszek"/>
  </node>
  <node id="587582166" version="1" timestamp="2009-12-12T04:53:07Z" uid="4467" user="Rosscoe" changeset="3353678" lat="-37.6862044" lon="144.9033483"/>
  <node id="587582503" version="2" timestamp="2010-04-11T04:54:00Z" uid="20587" user="balrog-kun" changeset="4389130" lat="53.3982304" lon="18.7838236">
    <tag k="name" v="Daszkowo"/>
    <tag k="place" v="hamlet"/>
    <tag k="source" v="http://ump.waw.pl/ retrieved 11:19:07 11/17/09 (UMP-Torun/src/cities-Torun.pnt-converted.txt)"/>
  </node>
  <node id="587582503" version="3" timestamp="2010-04-11T13:17:49Z" uid="20587" user="balrog-kun" changeset="4392352" lat="53.3981192" lon="18.7831652">
    <tag k="name" v="Daszkowo"/>
    <tag k="place" v="hamlet"/>
    <tag k="source" v="http://ump.waw.pl/ retrieved 11:19:07 11/17/09 (UMP-Torun/src/cities-Torun.pnt-converted.txt)"/>
  </node>
  <node id="587582717" version="2" timestamp="2010-04-11T04:54:00Z" uid="20587" user="balrog-kun" changeset="4389130" lat="53.40621" lon="18.8004">
    <tag k="name" v="Trznice"/>
    <tag k="place" v="village"/>
    <tag k="source" v="http://ump.waw.pl/ retrieved 11:19:07 11/17/09 (UMP-Torun/src/cities-Torun.pnt-converted.txt)"/>
  </node>
  <node id="587582717" version="3" timestamp="2010-04-11T13:17:49Z" uid="20587" user="balrog-kun" changeset="4392352" lat="53.40621" lon="18.8004">
    <tag k="name" v="Trznice"/>
    <tag k="place" v="village"/>
    <tag k="source" v="http://ump.waw.pl/ retrieved 11:19:07 11/17/09 (UMP-Torun/src/cities-Torun.pnt-converted.txt)"/>
  </node>
  <node id="587582717" version="4" timestamp="2010-10-19T20:12:29Z" uid="146705" user="Kalafior" changeset="6102936" lat="53.40621" lon="18.8004">
    <tag k="name" v="Turznice"/>
    <tag k="place" v="village"/>
    <tag k="source" v="http://ump.waw.pl/ retrieved 11:19:07 11/17/09 (UMP-Torun/src/cities-Torun.pnt-converted.txt)"/>
  </node>
  <node id="587582840" version="2" timestamp="2010-04-11T04:54:00Z" uid="20587" user="balrog-kun" changeset="4389130" lat="53.423" lon="18.77624">
    <tag k="name" v="Piaski"/>
    <tag k="place" v="village"/>
    <tag k="source" v="http://ump.waw.pl/ retrieved 11:19:07 11/17/09 (UMP-Torun/src/cities-Torun.pnt-converted.txt)"/>
  </node>
  <node id="587582840" version="3" timestamp="2010-04-11T13:17:49Z" uid="20587" user="balrog-kun" changeset="4392352" lat="53.423" lon="18.77624">
    <tag k="name" v="Piaski"/>
    <tag k="place" v="village"/>
    <tag k="source" v="http://ump.waw.pl/ retrieved 11:19:07 11/17/09 (UMP-Torun/src/cities-Torun.pnt-converted.txt)"/>
  </node>
  <node id="587582990" version="2" timestamp="2010-04-11T04:54:00Z" uid="20587" user="balrog-kun" changeset="4389130" lat="53.42964" lon="18.77883">
    <tag k="name" v="Linarczyk"/>
    <tag k="place" v="village"/>
    <tag k="source" v="http://ump.waw.pl/ retrieved 11:19:07 11/17/09 (UMP-Torun/src/cities-Torun.pnt-converted.txt)"/>
  </node>
  <node id="587582990" version="3" timestamp="2010-04-11T13:17:49Z" uid="20587" user="balrog-kun" changeset="4392352" lat="53.42964" lon="18.77883">
    <tag k="name" v="Linarczyk"/>
    <tag k="place" v="village"/>
    <tag k="source" v="http://ump.waw.pl/ retrieved 11:19:07 11/17/09 (UMP-Torun/src/cities-Torun.pnt-converted.txt)"/>
  </node>
  <node id="587582990" version="4" timestamp="2010-04-27T04:00:53Z" uid="30632" user="antblant" changeset="4537859" lat="53.42964" lon="18.77883">
    <tag k="name" v="Linarczyk"/>
    <tag k="place" v="village"/>
    <tag k="source" v="http://ump.waw.pl/ retrieved 11:19:07 11/17/09 (UMP-Torun/src/cities-Torun.pnt-converted.txt)"/>
    <tag k="teryt:simc" v="0844229"/>
  </node>
  <node id="587583217" version="2" timestamp="2010-04-11T04:54:00Z" uid="20587" user="balrog-kun" changeset="4389130" lat="53.4289286" lon="18.8032458">
    <tag k="name" v="Kobylanka"/>
    <tag k="place" v="village"/>
    <tag k="source" v="http://ump.waw.pl/ retrieved 11:19:07 11/17/09 (UMP-Torun/src/cities-Torun.pnt-converted.txt)"/>
  </node>
  <node id="587583217" version="3" timestamp="2010-04-11T13:17:50Z" uid="20587" user="balrog-kun" changeset="4392352" lat="53.4288337" lon="18.8031412">
    <tag k="name" v="Kobylanka"/>
    <tag k="place" v="village"/>
    <tag k="source" v="http://ump.waw.pl/ retrieved 11:19:07 11/17/09 (UMP-Torun/src/cities-Torun.pnt-converted.txt)"/>
  </node>
  <node id="587583339" version="2" timestamp="2010-04-11T04:54:00Z" uid="20587" user="balrog-kun" changeset="4389130" lat="53.26631" lon="18.83597">
    <tag k="name" v="Przydwórz"/>
    <tag k="place" v="village"/>
    <tag k="source" v="http://ump.waw.pl/ retrieved 11:19:07 11/17/09 (UMP-Torun/src/cities-Torun.pnt-converted.txt)"/>
  </node>
  <node id="587583339" version="3" timestamp="2010-04-11T13:17:50Z" uid="20587" user="balrog-kun" changeset="4392352" lat="53.26631" lon="18.83597">
    <tag k="name" v="Przydwórz"/>
    <tag k="place" v="village"/>
    <tag k="source" v="http://ump.waw.pl/ retrieved 11:19:07 11/17/09 (UMP-Torun/src/cities-Torun.pnt-converted.txt)"/>
  </node>
  <node id="587583339" version="4" timestamp="2010-04-27T04:18:24Z" uid="30632" user="antblant" changeset="4537909" lat="53.26631" lon="18.83597">
    <tag k="name" v="Przydwórz"/>
    <tag k="place" v="village"/>
    <tag k="source" v="http://ump.waw.pl/ retrieved 11:19:07 11/17/09 (UMP-Torun/src/cities-Torun.pnt-converted.txt)"/>
    <tag k="teryt:simc" v="0850129"/>
  </node>
  <node id="587583388" version="2" timestamp="2010-04-11T04:54:01Z" uid="20587" user="balrog-kun" changeset="4389130" lat="53.28854" lon="18.85142">
    <tag k="name" v="Trzcianek"/>
    <tag k="place" v="village"/>
    <tag k="source" v="http://ump.waw.pl/ retrieved 11:19:07 11/17/09 (UMP-Torun/src/cities-Torun.pnt-converted.txt)"/>
  </node>
  <node id="587583388" version="3" timestamp="2010-04-11T13:17:50Z" uid="20587" user="balrog-kun" changeset="4392352" lat="53.28854" lon="18.85142">
    <tag k="name" v="Trzcianek"/>
    <tag k="place" v="village"/>
    <tag k="source" v="http://ump.waw.pl/ retrieved 11:19:07 11/17/09 (UMP-Torun/src/cities-Torun.pnt-converted.txt)"/>
  </node>
  <node id="587583388" version="4" timestamp="2010-04-27T04:01:09Z" uid="30632" user="antblant" changeset="4537859" lat="53.28854" lon="18.85142">
    <tag k="name" v="Trzcianek"/>
    <tag k="place" v="village"/>
    <tag k="source" v="http://ump.waw.pl/ retrieved 11:19:07 11/17/09 (UMP-Torun/src/cities-Torun.pnt-converted.txt)"/>
    <tag k="teryt:simc" v="0850193"/>
  </node>
  <node id="587583429" version="2" timestamp="2010-04-11T04:54:01Z" uid="20587" user="balrog-kun" changeset="4389130" lat="53.30223" lon="18.88563">
    <tag k="name" v="Wronie"/>
    <tag k="place" v="village"/>
    <tag k="source" v="http://ump.waw.pl/ retrieved 11:19:07 11/17/09 (UMP-Torun/src/cities-Torun.pnt-converted.txt)"/>
  </node>
  <node id="587583429" version="3" timestamp="2010-04-11T13:17:50Z" uid="20587" user="balrog-kun" changeset="4392352" lat="53.30223" lon="18.88563">
    <tag k="name" v="Wronie"/>
    <tag k="place" v="village"/>
    <tag k="source" v="http://ump.waw.pl/ retrieved 11:19:07 11/17/09 (UMP-Torun/src/cities-Torun.pnt-converted.txt)"/>
  </node>
  <node id="587583443" version="2" timestamp="2010-04-11T04:54:01Z" uid="20587" user="balrog-kun" changeset="4389130" lat="53.3097704" lon="18.8237045">
    <tag k="name" v="Czapelki"/>
    <tag k="place" v="village"/>
    <tag k="source" v="http://ump.waw.pl/ retrieved 11:19:07 11/17/09 (UMP-Torun/src/cities-Torun.pnt-converted.txt)"/>
  </node>
  <node id="587583443" version="3" timestamp="2010-04-11T13:17:50Z" uid="20587" user="balrog-kun" changeset="4392352" lat="53.3087549" lon="18.8246278">
    <tag k="name" v="Czapelki"/>
    <tag k="place" v="village"/>
    <tag k="source" v="http://ump.waw.pl/ retrieved 11:19:07 11/17/09 (UMP-Torun/src/cities-Torun.pnt-converted.txt)"/>
  </node>
  <node id="587583507" version="2" timestamp="2010-04-11T04:54:01Z" uid="20587" user="balrog-kun" changeset="4389130" lat="53.32266" lon="18.83404">
    <tag k="name" v="Nowa Wieś Królewska"/>
    <tag k="place" v="village"/>
    <tag k="source" v="http://ump.waw.pl/ retrieved 11:19:07 11/17/09 (UMP-Torun/src/cities-Torun.pnt-converted.txt)"/>
  </node>
  <node id="587583507" version="3" timestamp="2010-04-11T13:17:50Z" uid="20587" user="balrog-kun" changeset="4392352" lat="53.32266" lon="18.83404">
    <tag k="name" v="Nowa Wieś Królewska"/>
    <tag k="place" v="village"/>
    <tag k="source" v="http://ump.waw.pl/ retrieved 11:19:07 11/17/09 (UMP-Torun/src/cities-Torun.pnt-converted.txt)"/>
  </node>
  <node id="587583566" version="2" timestamp="2010-04-11T04:54:01Z" uid="20587" user="balrog-kun" changeset="4389130" lat="53.34845" lon="18.83336">
    <tag k="name" v="Mgowo PGR"/>
    <tag k="place" v="village"/>
    <tag k="source" v="http://ump.waw.pl/ retrieved 11:19:07 11/17/09 (UMP-Torun/src/cities-Torun.pnt-converted.txt)"/>
  </node>
  <node id="587583566" version="3" timestamp="2010-04-11T13:17:50Z" uid="20587" user="balrog-kun" changeset="4392352" lat="53.34845" lon="18.83336">
    <tag k="name" v="Mgowo PGR"/>
    <tag k="place" v="village"/>
    <tag k="source" v="http://ump.waw.pl/ retrieved 11:19:07 11/17/09 (UMP-Torun/src/cities-Torun.pnt-converted.txt)"/>
  </node>
  <node id="587583593" version="2" timestamp="2010-04-11T04:54:01Z" uid="20587" user="balrog-kun" changeset="4389130" lat="53.32536" lon="18.86808">
    <tag k="name" v="Polko"/>
    <tag k="place" v="village"/>
    <tag k="source" v="http://ump.waw.pl/ retrieved 11:19:07 11/17/09 (UMP-Torun/src/cities-Torun.pnt-converted.txt)"/>
  </node>
  <node id="587583593" version="3" timestamp="2010-04-11T13:17:50Z" uid="20587" user="balrog-kun" changeset="4392352" lat="53.32536" lon="18.86808">
    <tag k="name" v="Polko"/>
    <tag k="place" v="village"/>
    <tag k="source" v="http://ump.waw.pl/ retrieved 11:19:07 11/17/09 (UMP-Torun/src/cities-Torun.pnt-converted.txt)"/>
  </node>
  <node id="587583611" version="2" timestamp="2010-04-11T04:54:01Z" uid="20587" user="balrog-kun" changeset="4389130" lat="53.32674" lon="18.89395">
    <tag k="name" v="Stanislawki"/>
    <tag k="place" v="village"/>
    <tag k="source" v="http://ump.waw.pl/ retrieved 11:19:07 11/17/09 (UMP-Torun/src/cities-Torun.pnt-converted.txt)"/>
  </node>
  <node id="587583611" version="3" timestamp="2010-04-11T13:17:50Z" uid="20587" user="balrog-kun" changeset="4392352" lat="53.32674" lon="18.89395">
    <tag k="name" v="Stanislawki"/>
    <tag k="place" v="village"/>
    <tag k="source" v="http://ump.waw.pl/ retrieved 11:19:07 11/17/09 (UMP-Torun/src/cities-Torun.pnt-converted.txt)"/>
  </node>
  <node id="587583720" version="2" timestamp="2010-04-11T04:54:01Z" uid="20587" user="balrog-kun" changeset="4389130" lat="53.28253" lon="18.90726">
    <tag k="name" v="Cymbark"/>
    <tag k="place" v="village"/>
    <tag k="source" v="http://ump.waw.pl/ retrieved 11:19:07 11/17/09 (UMP-Torun/src/cities-Torun.pnt-converted.txt)"/>
  </node>
  <node id="587583720" version="3" timestamp="2010-04-11T13:17:50Z" uid="20587" user="balrog-kun" changeset="4392352" lat="53.28253" lon="18.90726">
    <tag k="name" v="Cymbark"/>
    <tag k="place" v="village"/>
    <tag k="source" v="http://ump.waw.pl/ retrieved 11:19:07 11/17/09 (UMP-Torun/src/cities-Torun.pnt-converted.txt)"/>
  </node>
  <node id="587583720" version="4" timestamp="2010-04-27T04:15:21Z" uid="30632" user="antblant" changeset="4537896" lat="53.28253" lon="18.90726">
    <tag k="name" v="Cymbark"/>
    <tag k="place" v="village"/>
    <tag k="source" v="http://ump.waw.pl/ retrieved 11:19:07 11/17/09 (UMP-Torun/src/cities-Torun.pnt-converted.txt)"/>
    <tag k="teryt:simc" v="0849882"/>
  </node>
  <node id="587583936" version="2" timestamp="2010-04-11T04:54:01Z" uid="20587" user="balrog-kun" changeset="4389130" lat="53.29442" lon="18.90245">
    <tag k="name" v="Labedz"/>
    <tag k="place" v="village"/>
    <tag k="source" v="http://ump.waw.pl/ retrieved 11:19:07 11/17/09 (UMP-Torun/src/cities-Torun.pnt-converted.txt)"/>
  </node>
  <node id="587583936" version="3" timestamp="2010-04-11T13:17:50Z" uid="20587" user="balrog-kun" changeset="4392352" lat="53.29442" lon="18.90245">
    <tag k="name" v="Labedz"/>
    <tag k="place" v="village"/>
    <tag k="source" v="http://ump.waw.pl/ retrieved 11:19:07 11/17/09 (UMP-Torun/src/cities-Torun.pnt-converted.txt)"/>
  </node>
  <node id="587584207" version="2" timestamp="2010-04-11T04:54:01Z" uid="20587" user="balrog-kun" changeset="4389130" lat="53.305" lon="18.93615">
    <tag k="name" v="Plebanka"/>
    <tag k="place" v="village"/>
    <tag k="source" v="http://ump.waw.pl/ retrieved 11:19:07 11/17/09 (UMP-Torun/src/cities-Torun.pnt-converted.txt)"/>
  </node>
  <node id="587584207" version="3" timestamp="2010-04-11T13:17:50Z" uid="20587" user="balrog-kun" changeset="4392352" lat="53.305" lon="18.93615">
    <tag k="name" v="Plebanka"/>
    <tag k="place" v="village"/>
    <tag k="source" v="http://ump.waw.pl/ retrieved 11:19:07 11/17/09 (UMP-Torun/src/cities-Torun.pnt-converted.txt)"/>
  </node>
  <node id="587584207" version="4" timestamp="2010-09-21T22:35:54Z" uid="91056" user="Yarl" changeset="5841553" lat="53.3021052" lon="18.9357186">
    <tag k="name" v="Plebanka"/>
    <tag k="place" v="hamlet"/>
    <tag k="source" v="http://ump.waw.pl/ retrieved 11:19:07 11/17/09 (UMP-Torun/src/cities-Torun.pnt-converted.txt)"/>
  </node>
  <node id="587584614" version="2" timestamp="2010-10-03T03:28:57Z" uid="20587" user="balrog-kun" changeset="5941061" lat="53.27978" lon="18.94809">
    <tag k="addr:city" v="Wąbrzeźno"/>
    <tag k="amenity" v="place_of_worship"/>
    <tag k="denomination" v="catholic"/>
    <tag k="name" v="Kościół"/>
    <tag k="religion" v="christian"/>
    <tag k="source" v="http://ump.waw.pl/ retrieved 11:19:07 11/17/09 (UMP-Torun/src/POI-Torun.pnt-converted.txt)"/>
  </node>
  <node id="587584618" version="2" timestamp="2010-10-03T03:28:24Z" uid="20587" user="balrog-kun" changeset="5941061" lat="53.2803" lon="18.9475884">
    <tag k="addr:city" v="Wąbrzeźno"/>
    <tag k="addr:housenumber" v="23"/>
    <tag k="addr:street" v="Plac Jana Pawla II"/>
    <tag k="amenity" v="atm"/>
    <tag k="atm_ref" v="MLA276A"/>
    <tag k="millennium:date" v="2009-05-21 17:13:02"/>
    <tag k="millennium:network" v="Millennium"/>
    <tag k="millennium:ref" v="18171"/>
    <tag k="millennium:subtype" v="Euronet"/>
    <tag k="name" v="Bankomat Millennium"/>
    <tag k="operator" v="Euronet Sp. z o.o."/>
  </node>
  <node id="587585321" version="2" timestamp="2010-04-11T04:54:01Z" uid="20587" user="balrog-kun" changeset="4389130" lat="53.32901" lon="18.93266">
    <tag k="name" v="Jarantowice"/>
    <tag k="place" v="village"/>
    <tag k="source" v="http://ump.waw.pl/ retrieved 11:19:07 11/17/09 (UMP-Torun/src/cities-Torun.pnt-converted.txt)"/>
  </node>
  <node id="587585321" version="3" timestamp="2010-04-11T13:17:50Z" uid="20587" user="balrog-kun" changeset="4392352" lat="53.32901" lon="18.93266">
    <tag k="name" v="Jarantowice"/>
    <tag k="place" v="village"/>
    <tag k="source" v="http://ump.waw.pl/ retrieved 11:19:07 11/17/09 (UMP-Torun/src/cities-Torun.pnt-converted.txt)"/>
  </node>
  <node id="587585321" version="4" timestamp="2010-09-21T22:36:25Z" uid="91056" user="Yarl" changeset="5841553" lat="53.3289502" lon="18.9422741">
    <tag k="name" v="Jarantowice"/>
    <tag k="place" v="village"/>
    <tag k="source" v="http://ump.waw.pl/ retrieved 11:19:07 11/17/09 (UMP-Torun/src/cities-Torun.pnt-converted.txt)"/>
  </node>
  <node id="587585370" version="2" timestamp="2010-04-11T04:54:01Z" uid="20587" user="balrog-kun" changeset="4389130" lat="53.31129" lon="18.97648">
    <tag k="name" v="Sitno"/>
    <tag k="place" v="village"/>
    <tag k="source" v="http://ump.waw.pl/ retrieved 11:19:07 11/17/09 (UMP-Torun/src/cities-Torun.pnt-converted.txt)"/>
  </node>
  <node id="587585370" version="3" timestamp="2010-04-11T13:17:50Z" uid="20587" user="balrog-kun" changeset="4392352" lat="53.31129" lon="18.97648">
    <tag k="name" v="Sitno"/>
    <tag k="place" v="village"/>
    <tag k="source" v="http://ump.waw.pl/ retrieved 11:19:07 11/17/09 (UMP-Torun/src/cities-Torun.pnt-converted.txt)"/>
  </node>
  <node id="587585437" version="2" timestamp="2010-04-11T04:54:01Z" uid="20587" user="balrog-kun" changeset="4389130" lat="53.3457" lon="18.98116">
    <tag k="name" v="Mazanki"/>
    <tag k="place" v="village"/>
    <tag k="source" v="http://ump.waw.pl/ retrieved 11:19:07 11/17/09 (UMP-Torun/src/cities-Torun.pnt-converted.txt)"/>
  </node>
  <node id="587585437" version="3" timestamp="2010-04-11T13:17:50Z" uid="20587" user="balrog-kun" changeset="4392352" lat="53.3457" lon="18.98116">
    <tag k="name" v="Mazanki"/>
    <tag k="place" v="village"/>
    <tag k="source" v="http://ump.waw.pl/ retrieved 11:19:07 11/17/09 (UMP-Torun/src/cities-Torun.pnt-converted.txt)"/>
  </node>
  <node id="587585742" version="2" timestamp="2010-04-11T04:54:01Z" uid="20587" user="balrog-kun" changeset="4389130" lat="53.3898" lon="18.84179">
    <tag k="name" v="Debieniec"/>
    <tag k="place" v="village"/>
    <tag k="source" v="http://ump.waw.pl/ retrieved 11:19:07 11/17/09 (UMP-Torun/src/cities-Torun.pnt-converted.txt)"/>
  </node>
  <node id="587585742" version="3" timestamp="2010-04-11T13:17:50Z" uid="20587" user="balrog-kun" changeset="4392352" lat="53.3898" lon="18.84179">
    <tag k="name" v="Debieniec"/>
    <tag k="place" v="village"/>
    <tag k="source" v="http://ump.waw.pl/ retrieved 11:19:07 11/17/09 (UMP-Torun/src/cities-Torun.pnt-converted.txt)"/>
  </node>
  <node id="587585751" version="2" timestamp="2010-04-11T04:54:01Z" uid="20587" user="balrog-kun" changeset="4389130" lat="53.35313" lon="18.86906">
    <tag k="name" v="Bagart"/>
    <tag k="place" v="village"/>
    <tag k="source" v="http://ump.waw.pl/ retrieved 11:19:07 11/17/09 (UMP-Torun/src/cities-Torun.pnt-converted.txt)"/>
  </node>
  <node id="587585751" version="3" timestamp="2010-04-11T13:17:50Z" uid="20587" user="balrog-kun" changeset="4392352" lat="53.35313" lon="18.86906">
    <tag k="name" v="Bagart"/>
    <tag k="place" v="village"/>
    <tag k="source" v="http://ump.waw.pl/ retrieved 11:19:07 11/17/09 (UMP-Torun/src/cities-Torun.pnt-converted.txt)"/>
  </node>
  <node id="587585772" version="2" timestamp="2010-04-11T04:54:01Z" uid="20587" user="balrog-kun" changeset="4389130" lat="53.36115" lon="18.87177">
    <tag k="name" v="Gawlowice"/>
    <tag k="place" v="village"/>
    <tag k="source" v="http://ump.waw.pl/ retrieved 11:19:07 11/17/09 (UMP-Torun/src/cities-Torun.pnt-converted.txt)"/>
  </node>
  <node id="587585772" version="3" timestamp="2010-04-11T13:17:51Z" uid="20587" user="balrog-kun" changeset="4392352" lat="53.36115" lon="18.87177">
    <tag k="name" v="Gawlowice"/>
    <tag k="place" v="village"/>
    <tag k="source" v="http://ump.waw.pl/ retrieved 11:19:07 11/17/09 (UMP-Torun/src/cities-Torun.pnt-converted.txt)"/>
  </node>
  <node id="587585869" version="2" timestamp="2010-04-11T04:54:02Z" uid="20587" user="balrog-kun" changeset="4389130" lat="53.37437" lon="18.86923">
    <tag k="name" v="Zielnowo"/>
    <tag k="place" v="village"/>
    <tag k="source" v="http://ump.waw.pl/ retrieved 11:19:07 11/17/09 (UMP-Torun/src/cities-Torun.pnt-converted.txt)"/>
  </node>
  <node id="587585869" version="3" timestamp="2010-04-11T13:17:51Z" uid="20587" user="balrog-kun" changeset="4392352" lat="53.37437" lon="18.86923">
    <tag k="name" v="Zielnowo"/>
    <tag k="place" v="village"/>
    <tag k="source" v="http://ump.waw.pl/ retrieved 11:19:07 11/17/09 (UMP-Torun/src/cities-Torun.pnt-converted.txt)"/>
  </node>
  <node id="587586139" version="2" timestamp="2010-04-11T04:54:02Z" uid="20587" user="balrog-kun" changeset="4389130" lat="53.41025" lon="18.83078">
    <tag k="name" v="Skarszewy"/>
    <tag k="place" v="village"/>
    <tag k="source" v="http://ump.waw.pl/ retrieved 11:19:07 11/17/09 (UMP-Torun/src/cities-Torun.pnt-converted.txt)"/>
  </node>
  <node id="587586139" version="3" timestamp="2010-04-11T13:17:51Z" uid="20587" user="balrog-kun" changeset="4392352" lat="53.41025" lon="18.83078">
    <tag k="name" v="Skarszewy"/>
    <tag k="place" v="village"/>
    <tag k="source" v="http://ump.waw.pl/ retrieved 11:19:07 11/17/09 (UMP-Torun/src/cities-Torun.pnt-converted.txt)"/>
  </node>
  <node id="587586139" version="4" timestamp="2010-07-26T02:02:45Z" uid="20587" user="balrog-kun" changeset="5317852" lat="53.41025" lon="18.83078">
    <tag k="name" v="Skarszewy"/>
    <tag k="place" v="village"/>
    <tag k="source" v="http://ump.waw.pl/ retrieved 11:19:07 11/17/09 (UMP-Torun/src/cities-Torun.pnt-converted.txt)"/>
    <tag k="wikipedia" v="pl:Skarszewy (województwo kujawsko-pomorskie)"/>
  </node>
  <node id="587586345" version="2" timestamp="2010-04-11T04:54:02Z" uid="20587" user="balrog-kun" changeset="4389130" lat="53.43681" lon="18.82876">
    <tag k="name" v="Marusza"/>
    <tag k="place" v="village"/>
    <tag k="source" v="http://ump.waw.pl/ retrieved 11:19:07 11/17/09 (UMP-Torun/src/cities-Torun.pnt-converted.txt)"/>
  </node>
  <node id="587586345" version="3" timestamp="2010-04-11T13:17:51Z" uid="20587" user="balrog-kun" changeset="4392352" lat="53.43681" lon="18.82876">
    <tag k="name" v="Marusza"/>
    <tag k="place" v="village"/>
    <tag k="source" v="http://ump.waw.pl/ retrieved 11:19:07 11/17/09 (UMP-Torun/src/cities-Torun.pnt-converted.txt)"/>
  </node>
  <node id="587586345" version="4" timestamp="2010-04-27T04:02:40Z" uid="30632" user="antblant" changeset="4537862" lat="53.43681" lon="18.82876">
    <tag k="name" v="Marusza"/>
    <tag k="place" v="village"/>
    <tag k="source" v="http://ump.waw.pl/ retrieved 11:19:07 11/17/09 (UMP-Torun/src/cities-Torun.pnt-converted.txt)"/>
    <tag k="teryt:simc" v="0844258"/>
  </node>
  <node id="587586345" version="5" timestamp="2010-09-21T22:36:13Z" uid="91056" user="Yarl" changeset="5841553" lat="53.4366128" lon="18.827754">
    <tag k="name" v="Marusza"/>
    <tag k="place" v="village"/>
    <tag k="source" v="http://ump.waw.pl/ retrieved 11:19:07 11/17/09 (UMP-Torun/src/cities-Torun.pnt-converted.txt)"/>
    <tag k="teryt:simc" v="0844258"/>
  </node>
  <node id="587586365" version="2" timestamp="2010-04-11T04:54:02Z" uid="20587" user="balrog-kun" changeset="4389130" lat="53.42381" lon="18.83926">
    <tag k="name" v="L. Marusza"/>
    <tag k="place" v="village"/>
    <tag k="source" v="http://ump.waw.pl/ retrieved 11:19:07 11/17/09 (UMP-Torun/src/cities-Torun.pnt-converted.txt)"/>
  </node>
  <node id="587586365" version="3" timestamp="2010-04-11T13:17:51Z" uid="20587" user="balrog-kun" changeset="4392352" lat="53.42381" lon="18.83926">
    <tag k="name" v="L. Marusza"/>
    <tag k="place" v="village"/>
    <tag k="source" v="http://ump.waw.pl/ retrieved 11:19:07 11/17/09 (UMP-Torun/src/cities-Torun.pnt-converted.txt)"/>
  </node>
  <node id="587586365" version="4" timestamp="2010-07-26T02:03:47Z" uid="20587" user="balrog-kun" changeset="5317852" lat="53.42381" lon="18.83926">
    <tag k="name" v="Leśniczówka Marusza"/>
    <tag k="place" v="village"/>
    <tag k="source" v="http://ump.waw.pl/ retrieved 11:19:07 11/17/09 (UMP-Torun/src/cities-Torun.pnt-converted.txt)"/>
  </node>
  <node id="587586566" version="2" timestamp="2010-04-11T04:54:02Z" uid="20587" user="balrog-kun" changeset="4389130" lat="53.4042" lon="18.85915">
    <tag k="name" v="Wiktorowo"/>
    <tag k="place" v="village"/>
    <tag k="source" v="http://ump.waw.pl/ retrieved 11:19:07 11/17/09 (UMP-Torun/src/cities-Torun.pnt-converted.txt)"/>
  </node>
  <node id="587586566" version="3" timestamp="2010-04-11T13:17:51Z" uid="20587" user="balrog-kun" changeset="4392352" lat="53.4042" lon="18.85915">
    <tag k="name" v="Wiktorowo"/>
    <tag k="place" v="village"/>
    <tag k="source" v="http://ump.waw.pl/ retrieved 11:19:07 11/17/09 (UMP-Torun/src/cities-Torun.pnt-converted.txt)"/>
  </node>
  <node id="587586667" version="2" timestamp="2010-04-11T04:54:02Z" uid="20587" user="balrog-kun" changeset="4389130" lat="53.41265" lon="18.87786">
    <tag k="name" v="Plemieta"/>
    <tag k="place" v="village"/>
    <tag k="source" v="http://ump.waw.pl/ retrieved 11:19:07 11/17/09 (UMP-Torun/src/cities-Torun.pnt-converted.txt)"/>
  </node>
  <node id="587586667" version="3" timestamp="2010-04-11T13:17:51Z" uid="20587" user="balrog-kun" changeset="4392352" lat="53.41265" lon="18.87786">
    <tag k="name" v="Plemieta"/>
    <tag k="place" v="village"/>
    <tag k="source" v="http://ump.waw.pl/ retrieved 11:19:07 11/17/09 (UMP-Torun/src/cities-Torun.pnt-converted.txt)"/>
  </node>
  <node id="587586724" version="2" timestamp="2010-04-11T04:54:02Z" uid="20587" user="balrog-kun" changeset="4389130" lat="53.42619" lon="18.85413">
    <tag k="name" v="Stary Folwark"/>
    <tag k="place" v="village"/>
    <tag k="source" v="http://ump.waw.pl/ retrieved 11:19:07 11/17/09 (UMP-Torun/src/cities-Torun.pnt-converted.txt)"/>
  </node>
  <node id="587586724" version="3" timestamp="2010-04-11T13:17:51Z" uid="20587" user="balrog-kun" changeset="4392352" lat="53.42619" lon="18.85413">
    <tag k="name" v="Stary Folwark"/>
    <tag k="place" v="village"/>
    <tag k="source" v="http://ump.waw.pl/ retrieved 11:19:07 11/17/09 (UMP-Torun/src/cities-Torun.pnt-converted.txt)"/>
  </node>
  <node id="587586921" version="2" timestamp="2010-04-11T04:54:02Z" uid="20587" user="balrog-kun" changeset="4389130" lat="53.43535" lon="18.89614">
    <tag k="name" v="Okonin"/>
    <tag k="place" v="village"/>
    <tag k="source" v="http://ump.waw.pl/ retrieved 11:19:07 11/17/09 (UMP-Torun/src/cities-Torun.pnt-converted.txt)"/>
  </node>
  <node id="587586921" version="3" timestamp="2010-04-11T13:17:51Z" uid="20587" user="balrog-kun" changeset="4392352" lat="53.43535" lon="18.89614">
    <tag k="name" v="Okonin"/>
    <tag k="place" v="village"/>
    <tag k="source" v="http://ump.waw.pl/ retrieved 11:19:07 11/17/09 (UMP-Torun/src/cities-Torun.pnt-converted.txt)"/>
  </node>
  <node id="587586921" version="4" timestamp="2010-09-21T22:36:53Z" uid="91056" user="Yarl" changeset="5841553" lat="53.436126" lon="18.8941479">
    <tag k="name" v="Okonin"/>
    <tag k="place" v="village"/>
    <tag k="source" v="http://ump.waw.pl/ retrieved 11:19:07 11/17/09 (UMP-Torun/src/cities-Torun.pnt-converted.txt)"/>
  </node>
  <node id="587586982" version="2" timestamp="2010-04-11T04:54:02Z" uid="20587" user="balrog-kun" changeset="4389130" lat="53.36806" lon="18.91408">
    <tag k="name" v="Janowo"/>
    <tag k="place" v="village"/>
    <tag k="source" v="http://ump.waw.pl/ retrieved 11:19:07 11/17/09 (UMP-Torun/src/cities-Torun.pnt-converted.txt)"/>
  </node>
  <node id="587586982" version="3" timestamp="2010-04-11T13:17:51Z" uid="20587" user="balrog-kun" changeset="4392352" lat="53.36806" lon="18.91408">
    <tag k="name" v="Janowo"/>
    <tag k="place" v="village"/>
    <tag k="source" v="http://ump.waw.pl/ retrieved 11:19:07 11/17/09 (UMP-Torun/src/cities-Torun.pnt-converted.txt)"/>
  </node>
  <node id="587586995" version="2" timestamp="2010-04-11T04:54:02Z" uid="20587" user="balrog-kun" changeset="4389130" lat="53.35072" lon="18.93245">
    <tag k="name" v="Radzyń Wieś"/>
    <tag k="place" v="village"/>
    <tag k="source" v="http://ump.waw.pl/ retrieved 11:19:07 11/17/09 (UMP-Torun/src/cities-Torun.pnt-converted.txt)"/>
  </node>
  <node id="587586995" version="3" timestamp="2010-04-11T13:17:51Z" uid="20587" user="balrog-kun" changeset="4392352" lat="53.35072" lon="18.93245">
    <tag k="name" v="Radzyń Wieś"/>
    <tag k="place" v="village"/>
    <tag k="source" v="http://ump.waw.pl/ retrieved 11:19:07 11/17/09 (UMP-Torun/src/cities-Torun.pnt-converted.txt)"/>
  </node>
  <node id="587587164" version="3" timestamp="2010-04-11T04:54:02Z" uid="20587" user="balrog-kun" changeset="4389130" lat="53.3850701" lon="18.93769">
    <tag k="name" v="Radzyń Chełmiński"/>
    <tag k="place" v="town"/>
    <tag k="source" v="http://ump.waw.pl/ retrieved 11:19:07 11/17/09 (UMP-Torun/src/cities-Torun.pnt-converted.txt)"/>
  </node>
  <node id="587587164" version="4" timestamp="2010-04-27T03:56:41Z" uid="30632" user="antblant" changeset="4537843" lat="53.3850701" lon="18.93769">
    <tag k="name" v="Radzyń Chełmiński"/>
    <tag k="place" v="town"/>
    <tag k="source" v="http://ump.waw.pl/ retrieved 11:19:07 11/17/09 (UMP-Torun/src/cities-Torun.pnt-converted.txt)"/>
    <tag k="teryt:simc" v="0983630"/>
  </node>
  <node id="587587164" version="5" timestamp="2011-02-18T15:48:39Z" uid="152074" user="beweta" changeset="7323531" lat="53.3850701" lon="18.93769">
    <tag k="name" v="Radzyń Chełmiński"/>
    <tag k="name:de" v="Rehden"/>
    <tag k="name:lv" v="Radziņa Helmiņska"/>
    <tag k="place" v="town"/>
    <tag k="source" v="http://ump.waw.pl/ retrieved 11:19:07 11/17/09 (UMP-Torun/src/cities-Torun.pnt-converted.txt)"/>
    <tag k="teryt:simc" v="0983630"/>
  </node>
  <node id="587587232" version="2" timestamp="2010-04-11T04:54:02Z" uid="20587" user="balrog-kun" changeset="4389130" lat="53.35467" lon="18.9524">
    <tag k="name" v="Radzyń Wybudowanie"/>
    <tag k="place" v="village"/>
    <tag k="source" v="http://ump.waw.pl/ retrieved 11:19:07 11/17/09 (UMP-Torun/src/cities-Torun.pnt-converted.txt)"/>
  </node>
  <node id="587587232" version="3" timestamp="2010-04-11T13:17:51Z" uid="20587" user="balrog-kun" changeset="4392352" lat="53.35467" lon="18.9524">
    <tag k="name" v="Radzyń Wybudowanie"/>
    <tag k="place" v="village"/>
    <tag k="source" v="http://ump.waw.pl/ retrieved 11:19:07 11/17/09 (UMP-Torun/src/cities-Torun.pnt-converted.txt)"/>
  </node>
  <node id="587587323" version="2" timestamp="2010-04-11T04:54:02Z" uid="20587" user="balrog-kun" changeset="4389130" lat="53.3738423" lon="18.9537162">
    <tag k="name" v="Wymysłowo"/>
    <tag k="place" v="hamlet"/>
    <tag k="source" v="http://ump.waw.pl/ retrieved 11:19:07 11/17/09 (UMP-Torun/src/cities-Torun.pnt-converted.txt)"/>
  </node>
  <node id="587587323" version="3" timestamp="2010-04-11T13:17:51Z" uid="20587" user="balrog-kun" changeset="4392352" lat="53.3737833" lon="18.9538732">
    <tag k="name" v="Wymysłowo"/>
    <tag k="place" v="hamlet"/>
    <tag k="source" v="http://ump.waw.pl/ retrieved 11:19:07 11/17/09 (UMP-Torun/src/cities-Torun.pnt-converted.txt)"/>
  </node>
  <node id="587587391" version="2" timestamp="2010-04-11T04:54:02Z" uid="20587" user="balrog-kun" changeset="4389130" lat="53.38182" lon="18.97749">
    <tag k="name" v="Czeczewo"/>
    <tag k="place" v="village"/>
    <tag k="source" v="http://ump.waw.pl/ retrieved 11:19:07 11/17/09 (UMP-Torun/src/cities-Torun.pnt-converted.txt)"/>
  </node>
  <node id="587587391" version="3" timestamp="2010-04-11T13:17:51Z" uid="20587" user="balrog-kun" changeset="4392352" lat="53.38182" lon="18.97749">
    <tag k="name" v="Czeczewo"/>
    <tag k="place" v="village"/>
    <tag k="source" v="http://ump.waw.pl/ retrieved 11:19:07 11/17/09 (UMP-Torun/src/cities-Torun.pnt-converted.txt)"/>
  </node>
  <node id="587587444" version="2" timestamp="2010-04-11T04:54:02Z" uid="20587" user="balrog-kun" changeset="4389130" lat="53.39546" lon="18.90339">
    <tag k="name" v="Kneblowo"/>
    <tag k="place" v="village"/>
    <tag k="source" v="http://ump.waw.pl/ retrieved 11:19:07 11/17/09 (UMP-Torun/src/cities-Torun.pnt-converted.txt)"/>
  </node>
  <node id="587587444" version="3" timestamp="2010-04-11T13:17:51Z" uid="20587" user="balrog-kun" changeset="4392352" lat="53.39546" lon="18.90339">
    <tag k="name" v="Kneblowo"/>
    <tag k="place" v="village"/>
    <tag k="source" v="http://ump.waw.pl/ retrieved 11:19:07 11/17/09 (UMP-Torun/src/cities-Torun.pnt-converted.txt)"/>
  </node>
  <node id="587587444" version="4" timestamp="2010-04-27T04:12:27Z" uid="30632" user="antblant" changeset="4537887" lat="53.39546" lon="18.90339">
    <tag k="name" v="Kneblowo"/>
    <tag k="place" v="village"/>
    <tag k="source" v="http://ump.waw.pl/ retrieved 11:19:07 11/17/09 (UMP-Torun/src/cities-Torun.pnt-converted.txt)"/>
    <tag k="teryt:simc" v="0848701"/>
  </node>
  <node id="587587466" version="2" timestamp="2010-04-11T04:54:02Z" uid="20587" user="balrog-kun" changeset="4389130" lat="53.40574" lon="18.91803">
    <tag k="name" v="Nowy Dwor"/>
    <tag k="place" v="village"/>
    <tag k="source" v="http://ump.waw.pl/ retrieved 11:19:07 11/17/09 (UMP-Torun/src/cities-Torun.pnt-converted.txt)"/>
  </node>
  <node id="587587466" version="3" timestamp="2010-04-11T13:17:51Z" uid="20587" user="balrog-kun" changeset="4392352" lat="53.40574" lon="18.91803">
    <tag k="name" v="Nowy Dwor"/>
    <tag k="place" v="village"/>
    <tag k="source" v="http://ump.waw.pl/ retrieved 11:19:07 11/17/09 (UMP-Torun/src/cities-Torun.pnt-converted.txt)"/>
  </node>
  <node id="587587466" version="4" timestamp="2010-09-21T22:36:36Z" uid="91056" user="Yarl" changeset="5841553" lat="53.4054856" lon="18.9165828">
    <tag k="name" v="Nowy Dwor"/>
    <tag k="place" v="village"/>
    <tag k="source" v="http://ump.waw.pl/ retrieved 11:19:07 11/17/09 (UMP-Torun/src/cities-Torun.pnt-converted.txt)"/>
  </node>
  <node id="587587505" version="2" timestamp="2010-04-11T04:54:02Z" uid="20587" user="balrog-kun" changeset="4389130" lat="53.39422" lon="18.9331">
    <tag k="name" v="Fijewo"/>
    <tag k="place" v="village"/>
    <tag k="source" v="http://ump.waw.pl/ retrieved 11:19:07 11/17/09 (UMP-Torun/src/cities-Torun.pnt-converted.txt)"/>
  </node>
  <node id="587587505" version="3" timestamp="2010-04-11T13:17:51Z" uid="20587" user="balrog-kun" changeset="4392352" lat="53.39422" lon="18.9331">
    <tag k="name" v="Fijewo"/>
    <tag k="place" v="village"/>
    <tag k="source" v="http://ump.waw.pl/ retrieved 11:19:07 11/17/09 (UMP-Torun/src/cities-Torun.pnt-converted.txt)"/>
  </node>
  <node id="587587505" version="4" timestamp="2010-09-21T22:35:56Z" uid="91056" user="Yarl" changeset="5841553" lat="53.3962375" lon="18.9311085">
    <tag k="name" v="Fijewo"/>
    <tag k="place" v="village"/>
    <tag k="source" v="http://ump.waw.pl/ retrieved 11:19:07 11/17/09 (UMP-Torun/src/cities-Torun.pnt-converted.txt)"/>
  </node>
  <node id="587587688" version="2" timestamp="2010-04-11T04:54:03Z" uid="20587" user="balrog-kun" changeset="4389130" lat="53.43336" lon="18.92215">
    <tag k="name" v="Okonin Wybudowanie"/>
    <tag k="place" v="village"/>
    <tag k="source" v="http://ump.waw.pl/ retrieved 11:19:07 11/17/09 (UMP-Torun/src/cities-Torun.pnt-converted.txt)"/>
  </node>
  <node id="587587688" version="3" timestamp="2010-04-11T13:17:52Z" uid="20587" user="balrog-kun" changeset="4392352" lat="53.43336" lon="18.92215">
    <tag k="name" v="Okonin Wybudowanie"/>
    <tag k="place" v="village"/>
    <tag k="source" v="http://ump.waw.pl/ retrieved 11:19:07 11/17/09 (UMP-Torun/src/cities-Torun.pnt-converted.txt)"/>
  </node>
  <node id="587587882" version="2" timestamp="2010-04-11T04:54:03Z" uid="20587" user="balrog-kun" changeset="4389130" lat="53.41145" lon="18.94356">
    <tag k="name" v="Zakrzewo"/>
    <tag k="place" v="village"/>
    <tag k="source" v="http://ump.waw.pl/ retrieved 11:19:07 11/17/09 (UMP-Torun/src/cities-Torun.pnt-converted.txt)"/>
  </node>
  <node id="587587882" version="3" timestamp="2010-04-11T13:17:52Z" uid="20587" user="balrog-kun" changeset="4392352" lat="53.41145" lon="18.94356">
    <tag k="name" v="Zakrzewo"/>
    <tag k="place" v="village"/>
    <tag k="source" v="http://ump.waw.pl/ retrieved 11:19:07 11/17/09 (UMP-Torun/src/cities-Torun.pnt-converted.txt)"/>
  </node>
  <node id="587587943" version="2" timestamp="2010-04-11T04:54:03Z" uid="20587" user="balrog-kun" changeset="4389130" lat="53.40514" lon="18.9594">
    <tag k="name" v="Szumilowo"/>
    <tag k="place" v="village"/>
    <tag k="source" v="http://ump.waw.pl/ retrieved 11:19:07 11/17/09 (UMP-Torun/src/cities-Torun.pnt-converted.txt)"/>
  </node>
  <node id="587587943" version="3" timestamp="2010-04-11T13:17:52Z" uid="20587" user="balrog-kun" changeset="4392352" lat="53.40514" lon="18.9594">
    <tag k="name" v="Szumilowo"/>
    <tag k="place" v="village"/>
    <tag k="source" v="http://ump.waw.pl/ retrieved 11:19:07 11/17/09 (UMP-Torun/src/cities-Torun.pnt-converted.txt)"/>
  </node>
  <node id="587588044" version="2" timestamp="2010-04-11T04:54:03Z" uid="20587" user="balrog-kun" changeset="4389130" lat="53.41334" lon="18.96614">
    <tag k="name" v="Kitnowo"/>
    <tag k="place" v="village"/>
    <tag k="source" v="http://ump.waw.pl/ retrieved 11:19:07 11/17/09 (UMP-Torun/src/cities-Torun.pnt-converted.txt)"/>
  </node>
  <node id="587588044" version="3" timestamp="2010-04-11T13:17:52Z" uid="20587" user="balrog-kun" changeset="4392352" lat="53.41334" lon="18.96614">
    <tag k="name" v="Kitnowo"/>
    <tag k="place" v="village"/>
    <tag k="source" v="http://ump.waw.pl/ retrieved 11:19:07 11/17/09 (UMP-Torun/src/cities-Torun.pnt-converted.txt)"/>
  </node>
  <node id="587588452" version="2" timestamp="2010-04-11T04:54:03Z" uid="20587" user="balrog-kun" changeset="4389130" lat="53.167" lon="19.05961">
    <tag k="name" v="Gałczewko"/>
    <tag k="place" v="village"/>
    <tag k="source" v="http://ump.waw.pl/ retrieved 11:19:07 11/17/09 (UMP-Torun/src/cities-Torun.pnt-converted.txt)"/>
  </node>
  <node id="587588452" version="3" timestamp="2010-04-11T13:17:52Z" uid="20587" user="balrog-kun" changeset="4392352" lat="53.167" lon="19.05961">
    <tag k="name" v="Gałczewko"/>
    <tag k="place" v="village"/>
    <tag k="source" v="http://ump.waw.pl/ retrieved 11:19:07 11/17/09 (UMP-Torun/src/cities-Torun.pnt-converted.txt)"/>
  </node>
  <node id="587588452" version="4" timestamp="2010-04-27T04:15:17Z" uid="30632" user="antblant" changeset="4537896" lat="53.167" lon="19.05961">
    <tag k="name" v="Gałczewko"/>
    <tag k="place" v="village"/>
    <tag k="source" v="http://ump.waw.pl/ retrieved 11:19:07 11/17/09 (UMP-Torun/src/cities-Torun.pnt-converted.txt)"/>
    <tag k="teryt:simc" v="0842897"/>
  </node>
  <node id="587588489" version="2" timestamp="2010-04-11T04:54:03Z" uid="20587" user="balrog-kun" changeset="4389130" lat="53.1607955" lon="19.0944428">
    <tag k="name" v="Nowa Wieś"/>
    <tag k="place" v="village"/>
    <tag k="source" v="http://ump.waw.pl/ retrieved 11:19:07 11/17/09 (UMP-Torun/src/cities-Torun.pnt-converted.txt)"/>
  </node>
  <node id="587588489" version="3" timestamp="2010-04-11T13:17:52Z" uid="20587" user="balrog-kun" changeset="4392352" lat="53.160215" lon="19.0942897">
    <tag k="name" v="Nowa Wieś"/>
    <tag k="place" v="village"/>
    <tag k="source" v="http://ump.waw.pl/ retrieved 11:19:07 11/17/09 (UMP-Torun/src/cities-Torun.pnt-converted.txt)"/>
  </node>
  <node id="587588526" version="2" timestamp="2010-04-11T04:54:03Z" uid="20587" user="balrog-kun" changeset="4389130" lat="53.18645" lon="19.03896">
    <tag k="name" v="Lipnica"/>
    <tag k="place" v="village"/>
    <tag k="source" v="http://ump.waw.pl/ retrieved 11:19:07 11/17/09 (UMP-Torun/src/cities-Torun.pnt-converted.txt)"/>
  </node>
  <node id="587588526" version="3" timestamp="2010-04-11T13:17:52Z" uid="20587" user="balrog-kun" changeset="4392352" lat="53.18645" lon="19.03896">
    <tag k="name" v="Lipnica"/>
    <tag k="place" v="village"/>
    <tag k="source" v="http://ump.waw.pl/ retrieved 11:19:07 11/17/09 (UMP-Torun/src/cities-Torun.pnt-converted.txt)"/>
  </node>
  <node id="587588526" version="4" timestamp="2010-09-21T22:36:10Z" uid="91056" user="Yarl" changeset="5841553" lat="53.1877754" lon="19.0419977">
    <tag k="name" v="Lipnica"/>
    <tag k="place" v="village"/>
    <tag k="source" v="http://ump.waw.pl/ retrieved 11:19:07 11/17/09 (UMP-Torun/src/cities-Torun.pnt-converted.txt)"/>
  </node>
  <node id="587588562" version="2" timestamp="2010-04-11T04:54:03Z" uid="20587" user="balrog-kun" changeset="4389130" lat="53.19949" lon="19.03729">
    <tag k="name" v="Male Pułkowo"/>
    <tag k="place" v="village"/>
    <tag k="source" v="http://ump.waw.pl/ retrieved 11:19:07 11/17/09 (UMP-Torun/src/cities-Torun.pnt-converted.txt)"/>
  </node>
  <node id="587588562" version="3" timestamp="2010-04-11T13:17:52Z" uid="20587" user="balrog-kun" changeset="4392352" lat="53.19949" lon="19.03729">
    <tag k="name" v="Male Pułkowo"/>
    <tag k="place" v="village"/>
    <tag k="source" v="http://ump.waw.pl/ retrieved 11:19:07 11/17/09 (UMP-Torun/src/cities-Torun.pnt-converted.txt)"/>
  </node>
  <node id="587588562" version="4" timestamp="2010-09-21T22:36:13Z" uid="91056" user="Yarl" changeset="5841553" lat="53.1990737" lon="19.0318666">
    <tag k="name" v="Male Pułkowo"/>
    <tag k="place" v="village"/>
    <tag k="source" v="http://ump.waw.pl/ retrieved 11:19:07 11/17/09 (UMP-Torun/src/cities-Torun.pnt-converted.txt)"/>
  </node>
  <node id="587588601" version="2" timestamp="2010-04-11T04:54:03Z" uid="20587" user="balrog-kun" changeset="4389130" lat="53.22163" lon="19.01965">
    <tag k="name" v="Wielka Radowiska"/>
    <tag k="place" v="village"/>
    <tag k="source" v="http://ump.waw.pl/ retrieved 11:19:07 11/17/09 (UMP-Torun/src/cities-Torun.pnt-converted.txt)"/>
  </node>
  <node id="587588601" version="3" timestamp="2010-04-11T13:17:52Z" uid="20587" user="balrog-kun" changeset="4392352" lat="53.22163" lon="19.01965">
    <tag k="name" v="Wielka Radowiska"/>
    <tag k="place" v="village"/>
    <tag k="source" v="http://ump.waw.pl/ retrieved 11:19:07 11/17/09 (UMP-Torun/src/cities-Torun.pnt-converted.txt)"/>
  </node>
  <node id="587588670" version="2" timestamp="2010-04-11T04:54:03Z" uid="20587" user="balrog-kun" changeset="4389130" lat="53.2297" lon="19.07012">
    <tag k="name" v="Kurkocin"/>
    <tag k="place" v="village"/>
    <tag k="source" v="http://ump.waw.pl/ retrieved 11:19:07 11/17/09 (UMP-Torun/src/cities-Torun.pnt-converted.txt)"/>
  </node>
  <node id="587588670" version="3" timestamp="2010-04-11T13:17:52Z" uid="20587" user="balrog-kun" changeset="4392352" lat="53.2297" lon="19.07012">
    <tag k="name" v="Kurkocin"/>
    <tag k="place" v="village"/>
    <tag k="source" v="http://ump.waw.pl/ retrieved 11:19:07 11/17/09 (UMP-Torun/src/cities-Torun.pnt-converted.txt)"/>
  </node>
  <node id="587588670" version="4" timestamp="2010-04-27T04:12:42Z" uid="30632" user="antblant" changeset="4537887" lat="53.2297" lon="19.07012">
    <tag k="name" v="Kurkocin"/>
    <tag k="place" v="village"/>
    <tag k="source" v="http://ump.waw.pl/ retrieved 11:19:07 11/17/09 (UMP-Torun/src/cities-Torun.pnt-converted.txt)"/>
    <tag k="teryt:simc" v="0842590"/>
  </node>
  <node id="587588693" version="2" timestamp="2010-04-11T04:54:03Z" uid="20587" user="balrog-kun" changeset="4389130" lat="53.25142" lon="19.03309">
    <tag k="name" v="Niedźwiedź"/>
    <tag k="place" v="village"/>
    <tag k="source" v="http://ump.waw.pl/ retrieved 11:19:07 11/17/09 (UMP-Torun/src/cities-Torun.pnt-converted.txt)"/>
  </node>
  <node id="587588693" version="3" timestamp="2010-04-11T13:17:53Z" uid="20587" user="balrog-kun" changeset="4392352" lat="53.25142" lon="19.03309">
    <tag k="name" v="Niedźwiedź"/>
    <tag k="place" v="village"/>
    <tag k="source" v="http://ump.waw.pl/ retrieved 11:19:07 11/17/09 (UMP-Torun/src/cities-Torun.pnt-converted.txt)"/>
  </node>
  <node id="587588743" version="2" timestamp="2010-04-11T04:54:03Z" uid="20587" user="balrog-kun" changeset="4389130" lat="53.19945" lon="19.07458">
    <tag k="name" v="Wielkie Pułkowo"/>
    <tag k="place" v="village"/>
    <tag k="source" v="http://ump.waw.pl/ retrieved 11:19:07 11/17/09 (UMP-Torun/src/cities-Torun.pnt-converted.txt)"/>
  </node>
  <node id="587588743" version="3" timestamp="2010-04-11T13:17:53Z" uid="20587" user="balrog-kun" changeset="4392352" lat="53.19945" lon="19.07458">
    <tag k="name" v="Wielkie Pułkowo"/>
    <tag k="place" v="village"/>
    <tag k="source" v="http://ump.waw.pl/ retrieved 11:19:07 11/17/09 (UMP-Torun/src/cities-Torun.pnt-converted.txt)"/>
  </node>
  <node id="587588743" version="4" timestamp="2010-04-27T03:57:38Z" uid="30632" user="antblant" changeset="4537850" lat="53.19945" lon="19.07458">
    <tag k="name" v="Wielkie Pułkowo"/>
    <tag k="place" v="village"/>
    <tag k="source" v="http://ump.waw.pl/ retrieved 11:19:07 11/17/09 (UMP-Torun/src/cities-Torun.pnt-converted.txt)"/>
    <tag k="teryt:simc" v="0842740"/>
  </node>
  <node id="587588777" version="2" timestamp="2010-04-11T04:54:03Z" uid="20587" user="balrog-kun" changeset="4389130" lat="53.18872" lon="19.12235">
    <tag k="name" v="Tokary"/>
    <tag k="place" v="village"/>
    <tag k="source" v="http://ump.waw.pl/ retrieved 11:19:07 11/17/09 (UMP-Torun/src/cities-Torun.pnt-converted.txt)"/>
  </node>
  <node id="587588777" version="3" timestamp="2010-04-11T13:17:53Z" uid="20587" user="balrog-kun" changeset="4392352" lat="53.18872" lon="19.12235">
    <tag k="name" v="Tokary"/>
    <tag k="place" v="village"/>
    <tag k="source" v="http://ump.waw.pl/ retrieved 11:19:07 11/17/09 (UMP-Torun/src/cities-Torun.pnt-converted.txt)"/>
  </node>
  <node id="587588800" version="2" timestamp="2010-04-11T04:54:03Z" uid="20587" user="balrog-kun" changeset="4389130" lat="53.19966" lon="19.12964">
    <tag k="name" v="Karczewo"/>
    <tag k="place" v="village"/>
    <tag k="source" v="http://ump.waw.pl/ retrieved 11:19:07 11/17/09 (UMP-Torun/src/cities-Torun.pnt-converted.txt)"/>
  </node>
  <node id="587588800" version="3" timestamp="2010-04-11T13:17:53Z" uid="20587" user="balrog-kun" changeset="4392352" lat="53.19966" lon="19.12964">
    <tag k="name" v="Karczewo"/>
    <tag k="place" v="village"/>
    <tag k="source" v="http://ump.waw.pl/ retrieved 11:19:07 11/17/09 (UMP-Torun/src/cities-Torun.pnt-converted.txt)"/>
  </node>
  <node id="587588839" version="2" timestamp="2010-04-11T04:54:03Z" uid="20587" user="balrog-kun" changeset="4389130" lat="53.21996" lon="19.10995">
    <tag k="name" v="Lobdowo"/>
    <tag k="place" v="village"/>
    <tag k="source" v="http://ump.waw.pl/ retrieved 11:19:07 11/17/09 (UMP-Torun/src/cities-Torun.pnt-converted.txt)"/>
  </node>
  <node id="587588839" version="3" timestamp="2010-04-11T13:17:53Z" uid="20587" user="balrog-kun" changeset="4392352" lat="53.21996" lon="19.10995">
    <tag k="name" v="Lobdowo"/>
    <tag k="place" v="village"/>
    <tag k="source" v="http://ump.waw.pl/ retrieved 11:19:07 11/17/09 (UMP-Torun/src/cities-Torun.pnt-converted.txt)"/>
  </node>
  <node id="587588878" version="2" timestamp="2010-04-11T04:54:03Z" uid="20587" user="balrog-kun" changeset="4389130" lat="53.25485" lon="19.09506">
    <tag k="name" v="Dębowa Łąka"/>
    <tag k="place" v="village"/>
    <tag k="source" v="http://ump.waw.pl/ retrieved 11:19:07 11/17/09 (UMP-Torun/src/cities-Torun.pnt-converted.txt)"/>
  </node>
  <node id="587588878" version="3" timestamp="2010-04-11T13:17:53Z" uid="20587" user="balrog-kun" changeset="4392352" lat="53.25485" lon="19.09506">
    <tag k="name" v="Dębowa Łąka"/>
    <tag k="place" v="village"/>
    <tag k="source" v="http://ump.waw.pl/ retrieved 11:19:07 11/17/09 (UMP-Torun/src/cities-Torun.pnt-converted.txt)"/>
  </node>
  <node id="587588878" version="4" timestamp="2010-04-27T04:01:02Z" uid="30632" user="antblant" changeset="4537859" lat="53.25485" lon="19.09506">
    <tag k="name" v="Dębowa Łąka"/>
    <tag k="place" v="village"/>
    <tag k="source" v="http://ump.waw.pl/ retrieved 11:19:07 11/17/09 (UMP-Torun/src/cities-Torun.pnt-converted.txt)"/>
    <tag k="teryt:simc" v="0842549"/>
  </node>
  <node id="587588939" version="2" timestamp="2010-04-11T04:54:03Z" uid="20587" user="balrog-kun" changeset="4389130" lat="53.23846" lon="19.1535">
    <tag k="name" v="Grabowiec"/>
    <tag k="place" v="village"/>
    <tag k="source" v="http://ump.waw.pl/ retrieved 11:19:07 11/17/09 (UMP-Torun/src/cities-Torun.pnt-converted.txt)"/>
  </node>
  <node id="587588939" version="3" timestamp="2010-04-11T13:17:53Z" uid="20587" user="balrog-kun" changeset="4392352" lat="53.23846" lon="19.1535">
    <tag k="name" v="Grabowiec"/>
    <tag k="place" v="village"/>
    <tag k="source" v="http://ump.waw.pl/ retrieved 11:19:07 11/17/09 (UMP-Torun/src/cities-Torun.pnt-converted.txt)"/>
  </node>
  <node id="587589512" version="2" timestamp="2010-04-11T04:54:04Z" uid="20587" user="balrog-kun" changeset="4389130" lat="53.26704" lon="18.98502">
    <tag k="name" v="Walycz"/>
    <tag k="place" v="village"/>
    <tag k="source" v="http://ump.waw.pl/ retrieved 11:19:07 11/17/09 (UMP-Torun/src/cities-Torun.pnt-converted.txt)"/>
  </node>
  <node id="587589512" version="3" timestamp="2010-04-11T13:17:53Z" uid="20587" user="balrog-kun" changeset="4392352" lat="53.26704" lon="18.98502">
    <tag k="name" v="Walycz"/>
    <tag k="place" v="village"/>
    <tag k="source" v="http://ump.waw.pl/ retrieved 11:19:07 11/17/09 (UMP-Torun/src/cities-Torun.pnt-converted.txt)"/>
  </node>
  <node id="587589512" version="4" timestamp="2010-09-21T22:35:52Z" uid="91056" user="Yarl" changeset="5841553" lat="53.2645493" lon="18.9936608">
    <tag k="name" v="Wałycz"/>
    <tag k="place" v="village"/>
    <tag k="source" v="http://ump.waw.pl/ retrieved 11:19:07 11/17/09 (UMP-Torun/src/cities-Torun.pnt-converted.txt)"/>
  </node>
  <node id="587589563" version="2" timestamp="2010-04-11T04:54:04Z" uid="20587" user="balrog-kun" changeset="4389130" lat="53.28601" lon="19.00038">
    <tag k="name" v="Mysliwiec"/>
    <tag k="place" v="village"/>
    <tag k="source" v="http://ump.waw.pl/ retrieved 11:19:07 11/17/09 (UMP-Torun/src/cities-Torun.pnt-converted.txt)"/>
  </node>
  <node id="587589563" version="3" timestamp="2010-04-11T13:17:53Z" uid="20587" user="balrog-kun" changeset="4392352" lat="53.28601" lon="19.00038">
    <tag k="name" v="Mysliwiec"/>
    <tag k="place" v="village"/>
    <tag k="source" v="http://ump.waw.pl/ retrieved 11:19:07 11/17/09 (UMP-Torun/src/cities-Torun.pnt-converted.txt)"/>
  </node>
  <node id="587589650" version="2" timestamp="2010-04-11T04:54:04Z" uid="20587" user="balrog-kun" changeset="4389130" lat="53.28399" lon="19.02948">
    <tag k="name" v="Jaworze"/>
    <tag k="place" v="village"/>
    <tag k="source" v="http://ump.waw.pl/ retrieved 11:19:07 11/17/09 (UMP-Torun/src/cities-Torun.pnt-converted.txt)"/>
  </node>
  <node id="587589650" version="3" timestamp="2010-04-11T13:17:53Z" uid="20587" user="balrog-kun" changeset="4392352" lat="53.28399" lon="19.02948">
    <tag k="name" v="Jaworze"/>
    <tag k="place" v="village"/>
    <tag k="source" v="http://ump.waw.pl/ retrieved 11:19:07 11/17/09 (UMP-Torun/src/cities-Torun.pnt-converted.txt)"/>
  </node>
  <node id="587589660" version="2" timestamp="2010-04-11T04:54:04Z" uid="20587" user="balrog-kun" changeset="4389130" lat="53.30884" lon="19.02279">
    <tag k="name" v="Zaskocz"/>
    <tag k="place" v="village"/>
    <tag k="source" v="http://ump.waw.pl/ retrieved 11:19:07 11/17/09 (UMP-Torun/src/cities-Torun.pnt-converted.txt)"/>
  </node>
  <node id="587589660" version="3" timestamp="2010-04-11T13:17:53Z" uid="20587" user="balrog-kun" changeset="4392352" lat="53.30884" lon="19.02279">
    <tag k="name" v="Zaskocz"/>
    <tag k="place" v="village"/>
    <tag k="source" v="http://ump.waw.pl/ retrieved 11:19:07 11/17/09 (UMP-Torun/src/cities-Torun.pnt-converted.txt)"/>
  </node>
  <node id="587589660" version="4" timestamp="2010-04-27T04:05:58Z" uid="30632" user="antblant" changeset="4537871" lat="53.30884" lon="19.02279">
    <tag k="name" v="Zaskocz"/>
    <tag k="place" v="village"/>
    <tag k="source" v="http://ump.waw.pl/ retrieved 11:19:07 11/17/09 (UMP-Torun/src/cities-Torun.pnt-converted.txt)"/>
    <tag k="teryt:simc" v="0845520"/>
  </node>
  <node id="587589696" version="2" timestamp="2010-04-11T04:54:04Z" uid="20587" user="balrog-kun" changeset="4389130" lat="53.3414263" lon="18.9891577">
    <tag k="name" v="Buczek"/>
    <tag k="place" v="hamlet"/>
    <tag k="source" v="http://ump.waw.pl/ retrieved 11:19:07 11/17/09 (UMP-Torun/src/cities-Torun.pnt-converted.txt)"/>
  </node>
  <node id="587589696" version="3" timestamp="2010-04-11T13:17:53Z" uid="20587" user="balrog-kun" changeset="4392352" lat="53.3409276" lon="18.9913981">
    <tag k="name" v="Buczek"/>
    <tag k="place" v="hamlet"/>
    <tag k="source" v="http://ump.waw.pl/ retrieved 11:19:07 11/17/09 (UMP-Torun/src/cities-Torun.pnt-converted.txt)"/>
  </node>
  <node id="587589742" version="2" timestamp="2010-04-11T04:54:04Z" uid="20587" user="balrog-kun" changeset="4389130" lat="53.32862" lon="19.00729">
    <tag k="name" v="Lopatki"/>
    <tag k="place" v="village"/>
    <tag k="source" v="http://ump.waw.pl/ retrieved 11:19:07 11/17/09 (UMP-Torun/src/cities-Torun.pnt-converted.txt)"/>
  </node>
  <node id="587589742" version="3" timestamp="2010-04-11T13:17:53Z" uid="20587" user="balrog-kun" changeset="4392352" lat="53.32862" lon="19.00729">
    <tag k="name" v="Lopatki"/>
    <tag k="place" v="village"/>
    <tag k="source" v="http://ump.waw.pl/ retrieved 11:19:07 11/17/09 (UMP-Torun/src/cities-Torun.pnt-converted.txt)"/>
  </node>
  <node id="587589832" version="2" timestamp="2010-04-11T04:54:04Z" uid="20587" user="balrog-kun" changeset="4389130" lat="53.3288013" lon="19.0697391">
    <tag k="name" v="Książki"/>
    <tag k="place" v="village"/>
    <tag k="source" v="http://ump.waw.pl/ retrieved 11:19:07 11/17/09 (UMP-Torun/src/cities-Torun.pnt-converted.txt)"/>
  </node>
  <node id="587589832" version="3" timestamp="2010-04-11T13:17:54Z" uid="20587" user="balrog-kun" changeset="4392352" lat="53.3281418" lon="19.0704587">
    <tag k="name" v="Książki"/>
    <tag k="place" v="village"/>
    <tag k="source" v="http://ump.waw.pl/ retrieved 11:19:07 11/17/09 (UMP-Torun/src/cities-Torun.pnt-converted.txt)"/>
  </node>
  <node id="587589832" version="4" timestamp="2010-04-27T04:04:09Z" uid="30632" user="antblant" changeset="4537867" lat="53.3281418" lon="19.0704587">
    <tag k="name" v="Książki"/>
    <tag k="place" v="village"/>
    <tag k="source" v="http://ump.waw.pl/ retrieved 11:19:07 11/17/09 (UMP-Torun/src/cities-Torun.pnt-converted.txt)"/>
    <tag k="teryt:simc" v="0845476"/>
  </node>
  <node id="587589855" version="2" timestamp="2010-04-11T04:54:04Z" uid="20587" user="balrog-kun" changeset="4389130" lat="53.2703" lon="19.07819">
    <tag k="name" v="Iwanki"/>
    <tag k="place" v="hamlet"/>
    <tag k="source" v="http://ump.waw.pl/ retrieved 11:19:07 11/17/09 (UMP-Torun/src/cities-Torun.pnt-converted.txt)"/>
  </node>
  <node id="587589855" version="3" timestamp="2010-04-11T13:17:54Z" uid="20587" user="balrog-kun" changeset="4392352" lat="53.2703" lon="19.07819">
    <tag k="name" v="Iwanki"/>
    <tag k="place" v="hamlet"/>
    <tag k="source" v="http://ump.waw.pl/ retrieved 11:19:07 11/17/09 (UMP-Torun/src/cities-Torun.pnt-converted.txt)"/>
  </node>
  <node id="587589891" version="2" timestamp="2010-04-11T04:54:04Z" uid="20587" user="balrog-kun" changeset="4389130" lat="53.28987" lon="19.07574">
    <tag k="name" v="Ciucmania"/>
    <tag k="place" v="village"/>
    <tag k="source" v="http://ump.waw.pl/ retrieved 11:19:07 11/17/09 (UMP-Torun/src/cities-Torun.pnt-converted.txt)"/>
  </node>
  <node id="587589891" version="3" timestamp="2010-04-11T13:17:54Z" uid="20587" user="balrog-kun" changeset="4392352" lat="53.28987" lon="19.07574">
    <tag k="name" v="Ciucmania"/>
    <tag k="place" v="village"/>
    <tag k="source" v="http://ump.waw.pl/ retrieved 11:19:07 11/17/09 (UMP-Torun/src/cities-Torun.pnt-converted.txt)"/>
  </node>
  <node id="587589928" version="2" timestamp="2010-04-11T04:54:04Z" uid="20587" user="balrog-kun" changeset="4389130" lat="53.2903294" lon="19.1060239">
    <tag k="name" v="Osieczek"/>
    <tag k="place" v="village"/>
    <tag k="source" v="http://ump.waw.pl/ retrieved 11:19:07 11/17/09 (UMP-Torun/src/cities-Torun.pnt-converted.txt)"/>
  </node>
  <node id="587589928" version="3" timestamp="2010-04-11T13:17:54Z" uid="20587" user="balrog-kun" changeset="4392352" lat="53.2899948" lon="19.1098784">
    <tag k="name" v="Osieczek"/>
    <tag k="place" v="village"/>
    <tag k="source" v="http://ump.waw.pl/ retrieved 11:19:07 11/17/09 (UMP-Torun/src/cities-Torun.pnt-converted.txt)"/>
  </node>
  <node id="587580126" version="5" timestamp="2012-07-17T11:41:46Z" uid="722137" user="OSMF Redaction Account" changeset="12264390" lat="53.42048" lon="18.70744"/>
  <node id="587580271" version="5" timestamp="2012-07-17T11:59:28Z" uid="722137" user="OSMF Redaction Account" changeset="12264692" lat="53.35935" lon="18.72856"/>
  <node id="587580369" version="4" timestamp="2012-07-17T11:59:22Z" uid="722137" user="OSMF Redaction Account" changeset="12264678" lat="53.3524" lon="18.74495"/>
  <node id="587580549" version="5" timestamp="2012-07-17T11:41:11Z" uid="722137" user="OSMF Redaction Account" changeset="12264384" lat="53.3851" lon="18.72384"/>
  <node id="587580563" version="4" timestamp="2012-07-17T11:39:53Z" uid="722137" user="OSMF Redaction Account" changeset="12264363" lat="53.38755" lon="18.7227597">
    <tag k="name" v="Wałdowo Szlacheckie"/>
  </node>
  <node id="587580563" version="5" timestamp="2012-07-18T01:50:47Z" uid="740427" user="Redaction Account Bugfix" changeset="12274033" lat="53.38755" lon="18.7227597">
    <tag k="name" v="Wałdowo Szlacheckie"/>
    <tag k="operator" v="PKP"/>
    <tag k="railway" v="station"/>
    <tag k="source" v="http://ump.waw.pl/ retrieved 11:19:07 11/17/09 (UMP-Torun/src/POI-Torun.pnt-converted.txt)"/>
  </node>
  <node id="587580604" version="4" timestamp="2012-07-17T11:41:16Z" uid="722137" user="OSMF Redaction Account" changeset="12264384" lat="53.38789" lon="18.74032"/>
  <node id="587580775" version="4" timestamp="2012-07-17T11:32:55Z" uid="722137" user="OSMF Redaction Account" changeset="12264282" lat="53.35489" lon="18.77104"/>
  <node id="587580821" version="4" timestamp="2012-07-17T11:32:55Z" uid="722137" user="OSMF Redaction Account" changeset="12264282" lat="53.35429" lon="18.79688"/>
  <node id="587580858" version="5" timestamp="2012-07-17T11:32:58Z" uid="722137" user="OSMF Redaction Account" changeset="12264282" lat="53.36605" lon="18.8027999"/>
  <node id="587581055" version="4" timestamp="2012-07-17T11:15:48Z" uid="722137" user="OSMF Redaction Account" changeset="12263913" lat="53.38171" lon="18.79008"/>
  <node id="587581203" version="4" timestamp="2012-07-17T11:16:00Z" uid="722137" user="OSMF Redaction Account" changeset="12263913" lat="53.39342" lon="18.80598"/>
  <node id="587581263" version="2" timestamp="2012-07-19T10:39:50Z" uid="722137" user="OSMF Redaction Account" changeset="12319102" lat="-37.717673" lon="144.9009303"/>
  <node id="587581266" version="2" timestamp="2012-07-19T10:39:51Z" uid="722137" user="OSMF Redaction Account" changeset="12319102" lat="-37.7173611" lon="144.9009227"/>
  <node id="587581268" version="2" timestamp="2012-07-19T10:39:51Z" uid="722137" user="OSMF Redaction Account" changeset="12319102" lat="-37.7171291" lon="144.9005918"/>
  <node id="587581270" version="2" timestamp="2012-07-19T10:39:52Z" uid="722137" user="OSMF Redaction Account" changeset="12319102" lat="-37.7168666" lon="144.9003236"/>
  <node id="587581273" version="2" timestamp="2012-07-19T10:39:51Z" uid="722137" user="OSMF Redaction Account" changeset="12319102" lat="-37.7174581" lon="144.9015028"/>
  <node id="587581276" version="2" timestamp="2012-07-19T10:39:52Z" uid="722137" user="OSMF Redaction Account" changeset="12319102" lat="-37.7167563" lon="144.901965"/>
  <node id="587581278" version="2" timestamp="2012-07-19T10:40:00Z" uid="722137" user="OSMF Redaction Account" changeset="12319102" lat="-37.7137054" lon="144.9022656"/>
  <node id="587581280" version="2" timestamp="2012-07-19T10:40:05Z" uid="722137" user="OSMF Redaction Account" changeset="12319102" lat="-37.708178" lon="144.8991671"/>
  <node id="587581283" version="2" timestamp="2012-07-19T10:40:06Z" uid="722137" user="OSMF Redaction Account" changeset="12319102" lat="-37.7076759" lon="144.8987905"/>
  <node id="587581285" version="3" timestamp="2012-07-19T10:40:06Z" uid="722137" user="OSMF Redaction Account" changeset="12319102" lat="-37.7072137" lon="144.8996122"/>
  <node id="587581287" version="2" timestamp="2012-07-19T10:40:06Z" uid="722137" user="OSMF Redaction Account" changeset="12319102" lat="-37.7073868" lon="144.9004529"/>
  <node id="587581289" version="2" timestamp="2012-07-19T10:40:06Z" uid="722137" user="OSMF Redaction Account" changeset="12319102" lat="-37.7070254" lon="144.9003768"/>
  <node id="587581293" version="2" timestamp="2012-07-19T10:40:08Z" uid="722137" user="OSMF Redaction Account" changeset="12319102" lat="-37.7056597" lon="144.9012776"/>
  <node id="587581295" version="2" timestamp="2012-07-19T10:40:10Z" uid="722137" user="OSMF Redaction Account" changeset="12319102" lat="-37.7049613" lon="144.9017326"/>
  <node id="587581297" version="2" timestamp="2012-07-19T10:40:10Z" uid="722137" user="OSMF Redaction Account" changeset="12319102" lat="-37.7046691" lon="144.9032771"/>
  <node id="587581300" version="3" timestamp="2012-07-19T10:40:10Z" uid="722137" user="OSMF Redaction Account" changeset="12319102" lat="-37.7037576" lon="144.9040135"/>
  <node id="587581302" version="2" timestamp="2012-07-19T10:40:10Z" uid="722137" user="OSMF Redaction Account" changeset="12319102" lat="-37.7030212" lon="144.9034581"/>
  <node id="587581304" version="2" timestamp="2012-07-19T10:40:11Z" uid="722137" user="OSMF Redaction Account" changeset="12319102" lat="-37.7026959" lon="144.9039712"/>
  <node id="587581306" version="2" timestamp="2012-07-19T10:40:12Z" uid="722137" user="OSMF Redaction Account" changeset="12319102" lat="-37.7008452" lon="144.9045921"/>
  <node id="587581308" version="2" timestamp="2012-07-19T10:40:13Z" uid="722137" user="OSMF Redaction Account" changeset="12319102" lat="-37.6979269" lon="144.9050181"/>
  <node id="587581311" version="3" timestamp="2012-07-19T10:40:24Z" uid="722137" user="OSMF Redaction Account" changeset="12319102" lat="-37.6890004" lon="144.9027961"/>
  <node id="587581313" version="2" timestamp="2012-07-19T10:40:18Z" uid="722137" user="OSMF Redaction Account" changeset="12319102" lat="-37.6925657" lon="144.9121655"/>
  <node id="587581511" version="5" timestamp="2012-07-17T11:16:09Z" uid="722137" user="OSMF Redaction Account" changeset="12263925" lat="53.40317" lon="18.76426"/>
  <node id="587581555" version="5" timestamp="2012-07-17T11:41:36Z" uid="722137" user="OSMF Redaction Account" changeset="12264390" lat="53.40922" lon="18.74913"/>
  <node id="587581622" version="4" timestamp="2012-07-17T11:39:53Z" uid="722137" user="OSMF Redaction Account" changeset="12264363" lat="53.41896" lon="18.72152">
    <tag k="alt_name" v="Biały Bór II"/>
    <tag k="name" v="Biały Bór Drugi"/>
    <tag k="note" v="UMP: Biały Bór 2"/>
  </node>
  <node id="587581622" version="5" timestamp="2012-07-18T13:40:22Z" uid="681295" user="przemas75" changeset="12283640" lat="53.41896" lon="18.72152"/>
  <node id="587581867" version="4" timestamp="2012-07-17T11:42:08Z" uid="722137" user="OSMF Redaction Account" changeset="12264399" lat="53.42861" lon="18.72869"/>
  <node id="587581915" version="5" timestamp="2012-07-17T11:39:53Z" uid="722137" user="OSMF Redaction Account" changeset="12264363" lat="53.4329799" lon="18.7252812">
    <tag k="name" v="Grudziądz Mniszek"/>
    <tag k="platforms" v="3"/>
    <tag k="wikipedia" v="pl:Grudziądz Mniszek"/>
  </node>
  <node id="587581915" version="6" timestamp="2012-07-18T01:52:23Z" uid="740427" user="Redaction Account Bugfix" changeset="12274033" lat="53.4329799" lon="18.7252812">
    <tag k="addr:city" v="Grudziądz"/>
    <tag k="name" v="Grudziądz Mniszek"/>
    <tag k="operator" v="PKP"/>
    <tag k="platforms" v="3"/>
    <tag k="railway" v="station"/>
    <tag k="source" v="http://ump.waw.pl/ retrieved 11:19:07 11/17/09 (UMP-Torun/src/POI-Torun.pnt-converted.txt)"/>
    <tag k="wikipedia" v="pl:Grudziądz Mniszek"/>
  </node>
  <node id="587582166" version="2" timestamp="2012-07-19T10:40:32Z" uid="722137" user="OSMF Redaction Account" changeset="12319132" lat="-37.6862044" lon="144.9033483"/>
  <node id="587582503" version="4" timestamp="2012-07-17T11:14:13Z" uid="722137" user="OSMF Redaction Account" changeset="12263874" lat="53.3981192" lon="18.7831652"/>
  <node id="587582503" version="5" timestamp="2012-07-24T19:43:53Z" uid="681295" user="przemas75" changeset="12474875" lat="53.3981192" lon="18.7831652"/>
  <node id="587582717" version="5" timestamp="2012-07-17T11:16:13Z" uid="722137" user="OSMF Redaction Account" changeset="12263925" lat="53.40621" lon="18.8004"/>
  <node id="587582840" version="4" timestamp="2012-07-17T11:16:36Z" uid="722137" user="OSMF Redaction Account" changeset="12263933" lat="53.423" lon="18.77624"/>
  <node id="587582990" version="5" timestamp="2012-07-17T11:16:43Z" uid="722137" user="OSMF Redaction Account" changeset="12263933" lat="53.42964" lon="18.77883"/>
  <node id="587583217" version="4" timestamp="2012-07-17T11:14:13Z" uid="722137" user="OSMF Redaction Account" changeset="12263874" lat="53.4288337" lon="18.8031412"/>
  <node id="587583217" version="5" timestamp="2012-08-03T21:37:05Z" uid="681295" user="przemas75" changeset="12603351" lat="53.4288337" lon="18.8031412"/>
  <node id="587583339" version="5" timestamp="2012-07-17T11:29:37Z" uid="722137" user="OSMF Redaction Account" changeset="12264205" lat="53.26631" lon="18.83597"/>
  <node id="587583388" version="5" timestamp="2012-07-17T11:29:40Z" uid="722137" user="OSMF Redaction Account" changeset="12264205" lat="53.28854" lon="18.85142"/>
  <node id="587583429" version="4" timestamp="2012-07-17T11:04:02Z" uid="722137" user="OSMF Redaction Account" changeset="12263698" lat="53.30223" lon="18.88563"/>
  <node id="587583443" version="4" timestamp="2012-07-17T11:29:27Z" uid="722137" user="OSMF Redaction Account" changeset="12264205" lat="53.3087549" lon="18.8246278"/>
  <node id="587583443" version="5" timestamp="2012-08-03T21:37:08Z" uid="681295" user="przemas75" changeset="12603351" lat="53.3087549" lon="18.8246278"/>
  <node id="587583507" version="4" timestamp="2012-07-17T11:29:46Z" uid="722137" user="OSMF Redaction Account" changeset="12264205" lat="53.32266" lon="18.83404"/>
  <node id="587583566" version="4" timestamp="2012-07-17T11:29:53Z" uid="722137" user="OSMF Redaction Account" changeset="12264205" lat="53.34845" lon="18.83336"/>
  <node id="587583593" version="4" timestamp="2012-07-17T11:29:48Z" uid="722137" user="OSMF Redaction Account" changeset="12264205" lat="53.32536" lon="18.86808"/>
  <node id="587583611" version="4" timestamp="2012-07-17T11:04:05Z" uid="722137" user="OSMF Redaction Account" changeset="12263698" lat="53.32674" lon="18.89395"/>
  <node id="587583720" version="5" timestamp="2012-07-17T11:03:50Z" uid="722137" user="OSMF Redaction Account" changeset="12263698" lat="53.28253" lon="18.90726"/>
  <node id="587583936" version="4" timestamp="2012-07-17T11:03:57Z" uid="722137" user="OSMF Redaction Account" changeset="12263698" lat="53.29442" lon="18.90245"/>
  <node id="587584207" version="5" timestamp="2012-07-17T11:03:37Z" uid="722137" user="OSMF Redaction Account" changeset="12263698" lat="53.3021052" lon="18.9357186">
    <tag k="place" v="hamlet"/>
  </node>
  <node id="587584614" version="3" timestamp="2012-07-17T11:00:22Z" uid="722137" user="OSMF Redaction Account" changeset="12263630" lat="53.27978" lon="18.94809"/>
  <node id="587584614" version="4" timestamp="2012-07-18T01:53:35Z" uid="740427" user="Redaction Account Bugfix" changeset="12274033" lat="53.27978" lon="18.94809">
    <tag k="addr:city" v="Wąbrzeźno"/>
    <tag k="amenity" v="place_of_worship"/>
    <tag k="denomination" v="catholic"/>
    <tag k="name" v="Kościół"/>
    <tag k="religion" v="christian"/>
    <tag k="source" v="http://ump.waw.pl/ retrieved 11:19:07 11/17/09 (UMP-Torun/src/POI-Torun.pnt-converted.txt)"/>
  </node>
  <node id="587584618" version="3" timestamp="2012-07-17T10:59:24Z" uid="722137" user="OSMF Redaction Account" changeset="12263616" lat="53.2803" lon="18.9475884">
    <tag k="addr:housenumber" v="23"/>
    <tag k="addr:street" v="Plac Jana Pawla II"/>
    <tag k="atm_ref" v="MLA276A"/>
    <tag k="millennium:date" v="2009-05-21 17:13:02"/>
    <tag k="millennium:network" v="Millennium"/>
    <tag k="millennium:ref" v="18171"/>
    <tag k="millennium:subtype" v="Euronet"/>
    <tag k="name" v="Bankomat Millennium"/>
    <tag k="operator" v="Euronet Sp. z o.o."/>
  </node>
  <node id="587584618" version="4" timestamp="2012-07-18T01:53:36Z" uid="740427" user="Redaction Account Bugfix" changeset="12274033" lat="53.2803" lon="18.9475884">
    <tag k="addr:city" v="Wąbrzeźno"/>
    <tag k="addr:housenumber" v="23"/>
    <tag k="addr:street" v="Plac Jana Pawla II"/>
    <tag k="amenity" v="atm"/>
    <tag k="atm_ref" v="MLA276A"/>
    <tag k="millennium:date" v="2009-05-21 17:13:02"/>
    <tag k="millennium:network" v="Millennium"/>
    <tag k="millennium:ref" v="18171"/>
    <tag k="millennium:subtype" v="Euronet"/>
    <tag k="name" v="Bankomat Millennium"/>
    <tag k="operator" v="Euronet Sp. z o.o."/>
  </node>
  <node id="587585321" version="5" timestamp="2012-07-17T10:59:25Z" uid="722137" user="OSMF Redaction Account" changeset="12263616" lat="53.3289502" lon="18.9422741"/>
  <node id="587585321" version="6" timestamp="2012-07-24T20:43:44Z" uid="681295" user="przemas75" changeset="12476080" lat="53.3289502" lon="18.9422741"/>
  <node id="587585370" version="4" timestamp="2012-07-17T11:00:55Z" uid="722137" user="OSMF Redaction Account" changeset="12263641" lat="53.31129" lon="18.97648"/>
  <node id="587585437" version="4" timestamp="2012-07-17T11:01:01Z" uid="722137" user="OSMF Redaction Account" changeset="12263641" lat="53.3457" lon="18.98116"/>
  <node id="587585742" version="4" timestamp="2012-07-17T11:06:18Z" uid="722137" user="OSMF Redaction Account" changeset="12263732" lat="53.3898" lon="18.84179"/>
  <node id="587585751" version="4" timestamp="2012-07-17T11:29:56Z" uid="722137" user="OSMF Redaction Account" changeset="12264205" lat="53.35313" lon="18.86906"/>
  <node id="587585772" version="4" timestamp="2012-07-17T11:30:02Z" uid="722137" user="OSMF Redaction Account" changeset="12264218" lat="53.36115" lon="18.87177"/>
  <node id="587585869" version="4" timestamp="2012-07-17T11:30:06Z" uid="722137" user="OSMF Redaction Account" changeset="12264218" lat="53.37437" lon="18.86923"/>
  <node id="587586139" version="5" timestamp="2012-07-17T11:06:35Z" uid="722137" user="OSMF Redaction Account" changeset="12263742" lat="53.41025" lon="18.83078"/>
  <node id="587586345" version="6" timestamp="2012-07-17T11:05:51Z" uid="722137" user="OSMF Redaction Account" changeset="12263732" lat="53.4366128" lon="18.827754">
    <tag k="teryt:simc" v="0844258"/>
  </node>
  <node id="587586345" version="7" timestamp="2012-08-12T17:21:13Z" uid="467703" user="Zbigniew_Czernik" changeset="12703413" lat="53.4366128" lon="18.827754">
    <tag k="name" v="Marusza"/>
    <tag k="place" v="village"/>
    <tag k="teryt:simc" v="0844258"/>
  </node>
  <node id="587586365" version="5" timestamp="2012-07-17T11:06:47Z" uid="722137" user="OSMF Redaction Account" changeset="12263742" lat="53.42381" lon="18.83926"/>
  <node id="587586566" version="4" timestamp="2012-07-17T11:06:30Z" uid="722137" user="OSMF Redaction Account" changeset="12263742" lat="53.4042" lon="18.85915"/>
  <node id="587586667" version="4" timestamp="2012-07-17T10:54:23Z" uid="722137" user="OSMF Redaction Account" changeset="12263537" lat="53.41265" lon="18.87786"/>
  <node id="587586724" version="4" timestamp="2012-07-17T11:06:48Z" uid="722137" user="OSMF Redaction Account" changeset="12263742" lat="53.42619" lon="18.85413"/>
  <node id="587586921" version="5" timestamp="2012-07-17T10:53:42Z" uid="722137" user="OSMF Redaction Account" changeset="12263525" lat="53.436126" lon="18.8941479"/>
  <node id="587586921" version="6" timestamp="2012-07-17T21:02:11Z" uid="681295" user="przemas75" changeset="12272332" lat="53.436126" lon="18.8941479"/>
  <node id="587586982" version="4" timestamp="2012-07-17T11:04:24Z" uid="722137" user="OSMF Redaction Account" changeset="12263709" lat="53.36806" lon="18.91408"/>
  <node id="587586995" version="4" timestamp="2012-07-17T11:04:16Z" uid="722137" user="OSMF Redaction Account" changeset="12263709" lat="53.35072" lon="18.93245"/>
  <node id="587587164" version="6" timestamp="2012-07-17T10:48:16Z" uid="722137" user="OSMF Redaction Account" changeset="12263419" lat="53.3850701" lon="18.93769"/>
  <node id="587587232" version="4" timestamp="2012-07-17T11:01:07Z" uid="722137" user="OSMF Redaction Account" changeset="12263641" lat="53.35467" lon="18.9524"/>
  <node id="587587323" version="4" timestamp="2012-07-17T10:59:25Z" uid="722137" user="OSMF Redaction Account" changeset="12263616" lat="53.3737833" lon="18.9538732"/>
  <node id="587587323" version="5" timestamp="2012-08-04T04:16:05Z" uid="681295" user="przemas75" changeset="12605016" lat="53.3737833" lon="18.9538732"/>
  <node id="587587391" version="4" timestamp="2012-07-17T10:48:13Z" uid="722137" user="OSMF Redaction Account" changeset="12263419" lat="53.38182" lon="18.97749"/>
  <node id="587587444" version="5" timestamp="2012-07-17T10:54:15Z" uid="722137" user="OSMF Redaction Account" changeset="12263525" lat="53.39546" lon="18.90339"/>
  <node id="587587466" version="5" timestamp="2012-07-17T10:53:42Z" uid="722137" user="OSMF Redaction Account" changeset="12263525" lat="53.4054856" lon="18.9165828"/>
  <node id="587587466" version="6" timestamp="2012-07-24T20:44:04Z" uid="681295" user="przemas75" changeset="12476080" lat="53.4054856" lon="18.9165828"/>
  <node id="587587505" version="5" timestamp="2012-07-17T10:53:42Z" uid="722137" user="OSMF Redaction Account" changeset="12263525" lat="53.3962375" lon="18.9311085"/>
  <node id="587587505" version="6" timestamp="2012-07-24T20:44:05Z" uid="681295" user="przemas75" changeset="12476080" lat="53.3962375" lon="18.9311085"/>
  <node id="587587688" version="4" timestamp="2012-07-17T10:54:37Z" uid="722137" user="OSMF Redaction Account" changeset="12263537" lat="53.43336" lon="18.92215"/>
  <node id="587587882" version="4" timestamp="2012-07-17T10:48:44Z" uid="722137" user="OSMF Redaction Account" changeset="12263429" lat="53.41145" lon="18.94356"/>
  <node id="587587943" version="4" timestamp="2012-07-17T10:48:36Z" uid="722137" user="OSMF Redaction Account" changeset="12263429" lat="53.40514" lon="18.9594"/>
  <node id="587588044" version="4" timestamp="2012-07-17T10:48:47Z" uid="722137" user="OSMF Redaction Account" changeset="12263429" lat="53.41334" lon="18.96614"/>
  <node id="587588452" version="5" timestamp="2012-07-25T04:22:51Z" uid="722137" user="OSMF Redaction Account" changeset="12480657" lat="53.167" lon="19.05961"/>
  <node id="587588489" version="4" timestamp="2012-07-25T04:22:44Z" uid="722137" user="OSMF Redaction Account" changeset="12480656" lat="53.160215" lon="19.0942897"/>
  <node id="587588526" version="5" timestamp="2012-07-25T04:22:50Z" uid="722137" user="OSMF Redaction Account" changeset="12480657" lat="53.1877754" lon="19.0419977"/>
  <node id="587588526" version="6" timestamp="2012-07-31T21:28:43Z" uid="681295" user="przemas75" changeset="12567610" lat="53.1877754" lon="19.0419977"/>
  <node id="587588562" version="5" timestamp="2012-07-25T04:22:50Z" uid="722137" user="OSMF Redaction Account" changeset="12480657" lat="53.1990737" lon="19.0318666"/>
  <node id="587588601" version="4" timestamp="2012-07-25T04:22:52Z" uid="722137" user="OSMF Redaction Account" changeset="12480657" lat="53.22163" lon="19.01965"/>
  <node id="587588670" version="5" timestamp="2012-07-25T04:22:45Z" uid="722137" user="OSMF Redaction Account" changeset="12480656" lat="53.2297" lon="19.07012"/>
  <node id="587588693" version="4" timestamp="2012-07-25T04:20:48Z" uid="722137" user="OSMF Redaction Account" changeset="12480641" lat="53.25142" lon="19.03309"/>
  <node id="587588743" version="5" timestamp="2012-07-25T04:22:45Z" uid="722137" user="OSMF Redaction Account" changeset="12480656" lat="53.19945" lon="19.07458"/>
  <node id="587588777" version="4" timestamp="2012-07-25T04:22:45Z" uid="722137" user="OSMF Redaction Account" changeset="12480656" lat="53.18872" lon="19.12235"/>
  <node id="587588800" version="4" timestamp="2012-07-25T04:22:13Z" uid="722137" user="OSMF Redaction Account" changeset="12480650" lat="53.19966" lon="19.12964"/>
  <node id="587588839" version="4" timestamp="2012-07-25T04:22:45Z" uid="722137" user="OSMF Redaction Account" changeset="12480656" lat="53.21996" lon="19.10995"/>
  <node id="587588878" version="5" timestamp="2012-07-25T04:20:36Z" uid="722137" user="OSMF Redaction Account" changeset="12480640" lat="53.25485" lon="19.09506"/>
  <node id="587588939" version="4" timestamp="2012-07-25T04:22:15Z" uid="722137" user="OSMF Redaction Account" changeset="12480650" lat="53.23846" lon="19.1535"/>
  <node id="587589512" version="5" timestamp="2012-07-17T10:59:24Z" uid="722137" user="OSMF Redaction Account" changeset="12263616" lat="53.2645493" lon="18.9936608">
    <tag k="name" v="Wałycz"/>
  </node>
  <node id="587589563" version="4" timestamp="2012-07-25T04:20:49Z" uid="722137" user="OSMF Redaction Account" changeset="12480641" lat="53.28601" lon="19.00038"/>
  <node id="587589650" version="4" timestamp="2012-07-25T04:20:49Z" uid="722137" user="OSMF Redaction Account" changeset="12480641" lat="53.28399" lon="19.02948"/>
  <node id="587589660" version="5" timestamp="2012-07-25T04:20:49Z" uid="722137" user="OSMF Redaction Account" changeset="12480641" lat="53.30884" lon="19.02279"/>
  <node id="587589696" version="4" timestamp="2012-07-17T10:59:25Z" uid="722137" user="OSMF Redaction Account" changeset="12263616" lat="53.3409276" lon="18.9913981"/>
  <node id="587589696" version="5" timestamp="2012-08-04T04:16:32Z" uid="681295" user="przemas75" changeset="12605016" lat="53.3409276" lon="18.9913981"/>
  <node id="587589742" version="4" timestamp="2012-07-25T04:20:49Z" uid="722137" user="OSMF Redaction Account" changeset="12480641" lat="53.32862" lon="19.00729"/>
  <node id="587589832" version="5" timestamp="2012-07-25T04:20:35Z" uid="722137" user="OSMF Redaction Account" changeset="12480640" lat="53.3281418" lon="19.0704587">
    <tag k="teryt:simc" v="0845476"/>
  </node>
  <node id="587589832" version="6" timestamp="2012-08-12T17:21:13Z" uid="467703" user="Zbigniew_Czernik" changeset="12703413" lat="53.3281418" lon="19.0704587">
    <tag k="name" v="Książki"/>
    <tag k="place" v="village"/>
    <tag k="teryt:simc" v="0845476"/>
  </node>
  <node id="587589855" version="4" timestamp="2012-07-25T04:20:36Z" uid="722137" user="OSMF Redaction Account" changeset="12480640" lat="53.2703" lon="19.07819"/>
  <node id="587589891" version="4" timestamp="2012-07-25T04:20:36Z" uid="722137" user="OSMF Redaction Account" changeset="12480640" lat="53.28987" lon="19.07574"/>
  <node id="587589928" version="4" timestamp="2012-07-25T04:20:35Z" uid="722137" user="OSMF Redaction Account" changeset="12480640" lat="53.2899948" lon="19.1098784"/>
</osm>
