<?xml version='1.0' encoding='UTF-8'?>
<osm version="0.6" generator="libosmium/2.20.0">
  <node id="58822410" version="3" timestamp="2009-08-26T08:39:16Z" uid="36809" user="pfoten_weg_!_" changeset="2264896" lat="47.9959326" lon="11.3431305">
    <tag k="name" v="Starnberg"/>
    <tag k="railway" v="station"/>
  </node>
  <node id="58822410" version="4" timestamp="2010-01-20T20:37:10Z" uid="83876" user="BurnyB" changeset="3670175" lat="47.9958997" lon="11.3431439">
    <tag k="name" v="Starnberg"/>
    <tag k="railway" v="station"/>
  </node>
  <node id="58822410" version="5" timestamp="2011-09-24T19:07:19Z" uid="290680" user="wheelmap_visitor" changeset="9383846" lat="47.9958997" lon="11.3431439">
    <tag k="name" v="Starnberg"/>
    <tag k="railway" v="station"/>
    <tag k="wheelchair" v="no"/>
  </node>
  <node id="58822410" version="6" timestamp="2011-10-17T18:02:41Z" uid="64536" user="Michael Forster" changeset="9584437" lat="47.9959668" lon="11.3439581">
    <tag k="name" v="Starnberg"/>
    <tag k="public_transport" v="stop_position"/>
    <tag k="railway" v="station"/>
    <tag k="train" v="yes"/>
    <tag k="wheelchair" v="no"/>
  </node>
  <node id="58826639" version="3" timestamp="2010-02-15T05:03:32Z" uid="74617" user="JohnSmith" changeset="3880242" lat="-27.4876464" lon="152.973971">
    <tag k="highway" v="turning_circle"/>
  </node>
  <node id="58822410" version="7" timestamp="2012-04-14T22:05:50Z" uid="64536" user="Michael Forster" changeset="11304506" lat="47.9959605" lon="11.3439455">
    <tag k="name" v="Starnberg"/>
    <tag k="public_transport" v="stop_position"/>
    <tag k="railway" v="station"/>
    <tag k="train" v="yes"/>
    <tag k="wheelchair" v="no"/>
  </node>
</osm>
