<?xml version='1.0' encoding='UTF-8'?>
<osm version="0.6" generator="libosmium/2.20.0">
  <node id="589690635" version="2" timestamp="2010-04-11T04:54:10Z" uid="20587" user="balrog-kun" changeset="4389130" lat="53.02315" lon="17.88789">
    <tag k="name" v="Wladyslawowo"/>
    <tag k="place" v="village"/>
    <tag k="source" v="http://ump.waw.pl/ retrieved 11:19:07 11/17/09 (UMP-Torun/src/cities-Torun.pnt-converted.txt)"/>
  </node>
  <node id="589690635" version="3" timestamp="2010-04-11T13:18:01Z" uid="20587" user="balrog-kun" changeset="4392352" lat="53.02315" lon="17.88789">
    <tag k="name" v="Wladyslawowo"/>
    <tag k="place" v="village"/>
    <tag k="source" v="http://ump.waw.pl/ retrieved 11:19:07 11/17/09 (UMP-Torun/src/cities-Torun.pnt-converted.txt)"/>
  </node>
  <node id="589692796" version="2" timestamp="2010-04-11T04:54:10Z" uid="20587" user="balrog-kun" changeset="4389130" lat="53.06692" lon="17.86596">
    <tag k="name" v="Kruszyn Krajenski"/>
    <tag k="place" v="village"/>
    <tag k="source" v="http://ump.waw.pl/ retrieved 11:19:07 11/17/09 (UMP-Torun/src/cities-Torun.pnt-converted.txt)"/>
  </node>
  <node id="589692796" version="3" timestamp="2010-04-11T13:18:01Z" uid="20587" user="balrog-kun" changeset="4392352" lat="53.06692" lon="17.86596">
    <tag k="name" v="Kruszyn Krajenski"/>
    <tag k="place" v="village"/>
    <tag k="source" v="http://ump.waw.pl/ retrieved 11:19:07 11/17/09 (UMP-Torun/src/cities-Torun.pnt-converted.txt)"/>
  </node>
  <node id="589694200" version="2" timestamp="2010-04-11T04:54:10Z" uid="20587" user="balrog-kun" changeset="4389130" lat="53.05268" lon="17.92196">
    <tag k="name" v="Pradki"/>
    <tag k="place" v="village"/>
    <tag k="source" v="http://ump.waw.pl/ retrieved 11:19:07 11/17/09 (UMP-Torun/src/cities-Torun.pnt-converted.txt)"/>
  </node>
  <node id="589694200" version="3" timestamp="2010-04-11T13:18:02Z" uid="20587" user="balrog-kun" changeset="4392352" lat="53.05268" lon="17.92196">
    <tag k="name" v="Pradki"/>
    <tag k="place" v="village"/>
    <tag k="source" v="http://ump.waw.pl/ retrieved 11:19:07 11/17/09 (UMP-Torun/src/cities-Torun.pnt-converted.txt)"/>
  </node>
  <node id="589695065" version="2" timestamp="2010-04-11T04:54:10Z" uid="20587" user="balrog-kun" changeset="4389130" lat="53.08293" lon="17.89295">
    <tag k="name" v="Lipniki"/>
    <tag k="place" v="village"/>
    <tag k="source" v="http://ump.waw.pl/ retrieved 11:19:07 11/17/09 (UMP-Torun/src/cities-Torun.pnt-converted.txt)"/>
  </node>
  <node id="589695065" version="3" timestamp="2010-04-11T13:18:02Z" uid="20587" user="balrog-kun" changeset="4392352" lat="53.08293" lon="17.89295">
    <tag k="name" v="Lipniki"/>
    <tag k="place" v="village"/>
    <tag k="source" v="http://ump.waw.pl/ retrieved 11:19:07 11/17/09 (UMP-Torun/src/cities-Torun.pnt-converted.txt)"/>
  </node>
  <node id="589695065" version="4" timestamp="2010-04-16T19:50:01Z" uid="30632" user="antblant" changeset="4441909" lat="53.08293" lon="17.89295">
    <tag k="name" v="Lipniki"/>
    <tag k="place" v="village"/>
    <tag k="source" v="http://ump.waw.pl/ retrieved 11:19:07 11/17/09 (UMP-Torun/src/cities-Torun.pnt-converted.txt)"/>
  </node>
  <node id="589695728" version="2" timestamp="2010-04-11T04:54:11Z" uid="20587" user="balrog-kun" changeset="4389130" lat="53.07272" lon="17.92106">
    <tag k="name" v="Ciele"/>
    <tag k="place" v="village"/>
    <tag k="source" v="http://ump.waw.pl/ retrieved 11:19:07 11/17/09 (UMP-Torun/src/cities-Torun.pnt-converted.txt)"/>
  </node>
  <node id="589695728" version="3" timestamp="2010-04-11T13:18:02Z" uid="20587" user="balrog-kun" changeset="4392352" lat="53.07272" lon="17.92106">
    <tag k="name" v="Ciele"/>
    <tag k="place" v="village"/>
    <tag k="source" v="http://ump.waw.pl/ retrieved 11:19:07 11/17/09 (UMP-Torun/src/cities-Torun.pnt-converted.txt)"/>
  </node>
  <node id="589695728" version="4" timestamp="2010-04-16T19:50:01Z" uid="30632" user="antblant" changeset="4441909" lat="53.07272" lon="17.92106">
    <tag k="name" v="Ciele"/>
    <tag k="place" v="village"/>
    <tag k="source" v="http://ump.waw.pl/ retrieved 11:19:07 11/17/09 (UMP-Torun/src/cities-Torun.pnt-converted.txt)"/>
  </node>
  <node id="589696172" version="2" timestamp="2010-04-11T04:54:11Z" uid="20587" user="balrog-kun" changeset="4389130" lat="52.97028" lon="17.9384">
    <tag k="name" v="Smogorzewo"/>
    <tag k="place" v="village"/>
    <tag k="source" v="http://ump.waw.pl/ retrieved 11:19:07 11/17/09 (UMP-Torun/src/cities-Torun.pnt-converted.txt)"/>
  </node>
  <node id="589696172" version="3" timestamp="2010-04-11T13:18:02Z" uid="20587" user="balrog-kun" changeset="4392352" lat="52.97028" lon="17.9384">
    <tag k="name" v="Smogorzewo"/>
    <tag k="place" v="village"/>
    <tag k="source" v="http://ump.waw.pl/ retrieved 11:19:07 11/17/09 (UMP-Torun/src/cities-Torun.pnt-converted.txt)"/>
  </node>
  <node id="589696316" version="2" timestamp="2010-04-11T04:54:11Z" uid="20587" user="balrog-kun" changeset="4389130" lat="52.97095" lon="17.9454">
    <tag k="name" v="Oborznia"/>
    <tag k="place" v="village"/>
    <tag k="source" v="http://ump.waw.pl/ retrieved 11:19:07 11/17/09 (UMP-Torun/src/cities-Torun.pnt-converted.txt)"/>
  </node>
  <node id="589696316" version="3" timestamp="2010-04-11T13:18:02Z" uid="20587" user="balrog-kun" changeset="4392352" lat="52.97095" lon="17.9454">
    <tag k="name" v="Oborznia"/>
    <tag k="place" v="village"/>
    <tag k="source" v="http://ump.waw.pl/ retrieved 11:19:07 11/17/09 (UMP-Torun/src/cities-Torun.pnt-converted.txt)"/>
  </node>
  <node id="589697357" version="2" timestamp="2010-04-11T04:54:11Z" uid="20587" user="balrog-kun" changeset="4389130" lat="52.9817" lon="17.95115">
    <tag k="name" v="Nowe Dąbie"/>
    <tag k="place" v="village"/>
    <tag k="source" v="http://ump.waw.pl/ retrieved 11:19:07 11/17/09 (UMP-Torun/src/cities-Torun.pnt-converted.txt)"/>
  </node>
  <node id="589697357" version="3" timestamp="2010-04-11T13:18:02Z" uid="20587" user="balrog-kun" changeset="4392352" lat="52.9817" lon="17.95115">
    <tag k="name" v="Nowe Dąbie"/>
    <tag k="place" v="village"/>
    <tag k="source" v="http://ump.waw.pl/ retrieved 11:19:07 11/17/09 (UMP-Torun/src/cities-Torun.pnt-converted.txt)"/>
  </node>
  <node id="589697357" version="4" timestamp="2010-04-27T04:02:23Z" uid="30632" user="antblant" changeset="4537862" lat="52.9817" lon="17.95115">
    <tag k="name" v="Nowe Dąbie"/>
    <tag k="place" v="village"/>
    <tag k="source" v="http://ump.waw.pl/ retrieved 11:19:07 11/17/09 (UMP-Torun/src/cities-Torun.pnt-converted.txt)"/>
    <tag k="teryt:simc" v="0091072"/>
  </node>
  <node id="589697616" version="2" timestamp="2010-04-11T04:54:11Z" uid="20587" user="balrog-kun" changeset="4389130" lat="52.98869" lon="17.9502">
    <tag k="name" v="Rzywno"/>
    <tag k="place" v="village"/>
    <tag k="source" v="http://ump.waw.pl/ retrieved 11:19:07 11/17/09 (UMP-Torun/src/cities-Torun.pnt-converted.txt)"/>
  </node>
  <node id="589697616" version="3" timestamp="2010-04-11T13:18:02Z" uid="20587" user="balrog-kun" changeset="4392352" lat="52.98869" lon="17.9502">
    <tag k="name" v="Rzywno"/>
    <tag k="place" v="village"/>
    <tag k="source" v="http://ump.waw.pl/ retrieved 11:19:07 11/17/09 (UMP-Torun/src/cities-Torun.pnt-converted.txt)"/>
  </node>
  <node id="589697616" version="4" timestamp="2010-04-27T04:11:14Z" uid="30632" user="antblant" changeset="4537882" lat="52.98869" lon="17.9502">
    <tag k="name" v="Rzywno"/>
    <tag k="place" v="village"/>
    <tag k="source" v="http://ump.waw.pl/ retrieved 11:19:07 11/17/09 (UMP-Torun/src/cities-Torun.pnt-converted.txt)"/>
    <tag k="teryt:simc" v="0091110"/>
  </node>
  <node id="589698239" version="2" timestamp="2010-04-11T04:54:11Z" uid="20587" user="balrog-kun" changeset="4389130" lat="52.99522" lon="17.96222">
    <tag k="name" v="Smolno Nowe"/>
    <tag k="place" v="village"/>
    <tag k="source" v="http://ump.waw.pl/ retrieved 11:19:07 11/17/09 (UMP-Torun/src/cities-Torun.pnt-converted.txt)"/>
  </node>
  <node id="589698239" version="3" timestamp="2010-04-11T13:18:02Z" uid="20587" user="balrog-kun" changeset="4392352" lat="52.99522" lon="17.96222">
    <tag k="name" v="Smolno Nowe"/>
    <tag k="place" v="village"/>
    <tag k="source" v="http://ump.waw.pl/ retrieved 11:19:07 11/17/09 (UMP-Torun/src/cities-Torun.pnt-converted.txt)"/>
  </node>
  <node id="589698716" version="2" timestamp="2010-04-11T04:54:11Z" uid="20587" user="balrog-kun" changeset="4389130" lat="52.9705" lon="17.98887">
    <tag k="name" v="Jeżewice"/>
    <tag k="place" v="village"/>
    <tag k="source" v="http://ump.waw.pl/ retrieved 11:19:07 11/17/09 (UMP-Torun/src/cities-Torun.pnt-converted.txt)"/>
  </node>
  <node id="589698716" version="3" timestamp="2010-04-11T13:18:02Z" uid="20587" user="balrog-kun" changeset="4392352" lat="52.9705" lon="17.98887">
    <tag k="name" v="Jeżewice"/>
    <tag k="place" v="village"/>
    <tag k="source" v="http://ump.waw.pl/ retrieved 11:19:07 11/17/09 (UMP-Torun/src/cities-Torun.pnt-converted.txt)"/>
  </node>
  <node id="589699694" version="2" timestamp="2010-04-11T04:54:11Z" uid="20587" user="balrog-kun" changeset="4389130" lat="52.9844" lon="17.97926">
    <tag k="name" v="Antoniewo"/>
    <tag k="place" v="village"/>
    <tag k="source" v="http://ump.waw.pl/ retrieved 11:19:07 11/17/09 (UMP-Torun/src/cities-Torun.pnt-converted.txt)"/>
  </node>
  <node id="589699694" version="3" timestamp="2010-04-11T13:18:02Z" uid="20587" user="balrog-kun" changeset="4392352" lat="52.9844" lon="17.97926">
    <tag k="name" v="Antoniewo"/>
    <tag k="place" v="village"/>
    <tag k="source" v="http://ump.waw.pl/ retrieved 11:19:07 11/17/09 (UMP-Torun/src/cities-Torun.pnt-converted.txt)"/>
  </node>
  <node id="589690635" version="4" timestamp="2012-08-31T13:04:21Z" uid="760215" user="pnorman redaction revert" changeset="12930771" lat="53.02315" lon="17.88789"/>
  <node id="589692796" version="4" timestamp="2012-08-31T14:07:44Z" uid="760215" user="pnorman redaction revert" changeset="12931466" lat="53.06692" lon="17.86596"/>
  <node id="589694200" version="4" timestamp="2012-08-31T14:58:08Z" uid="760215" user="pnorman redaction revert" changeset="12931996" lat="53.05268" lon="17.92196"/>
  <node id="589696172" version="4" timestamp="2012-07-17T04:26:20Z" uid="722137" user="OSMF Redaction Account" changeset="12256803" lat="52.97028" lon="17.9384"/>
  <node id="589696316" version="4" timestamp="2012-07-17T04:26:22Z" uid="722137" user="OSMF Redaction Account" changeset="12256803" lat="52.97095" lon="17.9454"/>
  <node id="589697357" version="5" timestamp="2012-07-17T04:26:39Z" uid="722137" user="OSMF Redaction Account" changeset="12256815" lat="52.9817" lon="17.95115"/>
  <node id="589697616" version="5" timestamp="2012-07-17T04:26:46Z" uid="722137" user="OSMF Redaction Account" changeset="12256815" lat="52.98869" lon="17.9502"/>
  <node id="589698239" version="4" timestamp="2012-04-12T18:20:26Z" uid="656227" user="archie-pl" changeset="11279458" lat="52.9949294" lon="17.9779249">
    <tag k="name" v="Smolno Nowe"/>
    <tag k="place" v="village"/>
    <tag k="source" v="http://ump.waw.pl/ retrieved 11:19:07 11/17/09 (UMP-Torun/src/cities-Torun.pnt-converted.txt)"/>
  </node>
  <node id="589698239" version="5" timestamp="2012-07-17T04:26:02Z" uid="722137" user="OSMF Redaction Account" changeset="12256803" lat="52.9949294" lon="17.9779249"/>
  <node id="589698716" version="4" timestamp="2012-07-17T04:26:21Z" uid="722137" user="OSMF Redaction Account" changeset="12256803" lat="52.9705" lon="17.98887"/>
  <node id="589699694" version="4" timestamp="2012-07-17T04:26:42Z" uid="722137" user="OSMF Redaction Account" changeset="12256815" lat="52.9844" lon="17.97926"/>
</osm>
