<?xml version='1.0' encoding='UTF-8'?>
<osm version="0.6" generator="libosmium/2.20.0">
  <node id="589721702" version="2" timestamp="2010-04-11T04:54:12Z" uid="20587" user="balrog-kun" changeset="4389130" lat="53.03122" lon="18.06333">
    <tag k="name" v="Piecki"/>
    <tag k="place" v="village"/>
    <tag k="source" v="http://ump.waw.pl/ retrieved 11:19:07 11/17/09 (UMP-Torun/src/cities-Torun.pnt-converted.txt)"/>
  </node>
  <node id="589721702" version="3" timestamp="2010-04-11T13:18:03Z" uid="20587" user="balrog-kun" changeset="4392352" lat="53.03122" lon="18.06333">
    <tag k="name" v="Piecki"/>
    <tag k="place" v="village"/>
    <tag k="source" v="http://ump.waw.pl/ retrieved 11:19:07 11/17/09 (UMP-Torun/src/cities-Torun.pnt-converted.txt)"/>
  </node>
  <node id="589723971" version="2" timestamp="2010-04-11T04:54:12Z" uid="20587" user="balrog-kun" changeset="4389130" lat="53.062846" lon="18.056289">
    <tag k="name" v="Emilianowo"/>
    <tag k="place" v="village"/>
    <tag k="source" v="http://ump.waw.pl/ retrieved 11:19:07 11/17/09 (UMP-Torun/src/cities-Torun.pnt-converted.txt)"/>
  </node>
  <node id="589723971" version="3" timestamp="2010-04-11T13:18:04Z" uid="20587" user="balrog-kun" changeset="4392352" lat="53.06461" lon="18.04869">
    <tag k="name" v="Emilianowo"/>
    <tag k="place" v="village"/>
    <tag k="source" v="http://ump.waw.pl/ retrieved 11:19:07 11/17/09 (UMP-Torun/src/cities-Torun.pnt-converted.txt)"/>
  </node>
  <node id="589729687" version="2" timestamp="2010-04-11T04:54:12Z" uid="20587" user="balrog-kun" changeset="4389130" lat="52.97079" lon="18.18173">
    <tag k="name" v="Leszyce"/>
    <tag k="place" v="village"/>
    <tag k="source" v="http://ump.waw.pl/ retrieved 11:19:07 11/17/09 (UMP-Torun/src/cities-Torun.pnt-converted.txt)"/>
  </node>
  <node id="589729687" version="3" timestamp="2010-04-11T13:18:04Z" uid="20587" user="balrog-kun" changeset="4392352" lat="52.97079" lon="18.18173">
    <tag k="name" v="Leszyce"/>
    <tag k="place" v="village"/>
    <tag k="source" v="http://ump.waw.pl/ retrieved 11:19:07 11/17/09 (UMP-Torun/src/cities-Torun.pnt-converted.txt)"/>
  </node>
  <node id="589729687" version="4" timestamp="2010-04-27T03:59:17Z" uid="30632" user="antblant" changeset="4537857" lat="52.97079" lon="18.18173">
    <tag k="name" v="Leszyce"/>
    <tag k="place" v="village"/>
    <tag k="source" v="http://ump.waw.pl/ retrieved 11:19:07 11/17/09 (UMP-Torun/src/cities-Torun.pnt-converted.txt)"/>
    <tag k="teryt:simc" v="0092752"/>
  </node>
  <node id="589721702" version="4" timestamp="2012-08-30T10:55:25Z" uid="760215" user="pnorman redaction revert" changeset="12916292" lat="53.03122" lon="18.06333"/>
  <node id="589723971" version="4" timestamp="2012-08-31T15:43:43Z" uid="760215" user="pnorman redaction revert" changeset="12932555" lat="53.06461" lon="18.04869"/>
  <node id="589729687" version="5" timestamp="2012-07-17T08:00:50Z" uid="722137" user="OSMF Redaction Account" changeset="12259999" lat="52.97079" lon="18.18173"/>
</osm>
