<?xml version='1.0' encoding='UTF-8'?>
<osm version="0.6" generator="libosmium/2.20.0">
  <node id="589701473" version="2" timestamp="2010-04-11T04:54:11Z" uid="20587" user="balrog-kun" changeset="4389130" lat="52.96796" lon="18.01925">
    <tag k="name" v="Jakubowo"/>
    <tag k="place" v="village"/>
    <tag k="source" v="http://ump.waw.pl/ retrieved 11:19:07 11/17/09 (UMP-Torun/src/cities-Torun.pnt-converted.txt)"/>
  </node>
  <node id="589701473" version="3" timestamp="2010-04-11T13:18:02Z" uid="20587" user="balrog-kun" changeset="4392352" lat="52.96796" lon="18.01925">
    <tag k="name" v="Jakubowo"/>
    <tag k="place" v="village"/>
    <tag k="source" v="http://ump.waw.pl/ retrieved 11:19:07 11/17/09 (UMP-Torun/src/cities-Torun.pnt-converted.txt)"/>
  </node>
  <node id="589702112" version="2" timestamp="2010-04-11T04:54:11Z" uid="20587" user="balrog-kun" changeset="4389130" lat="52.97993" lon="18.02693">
    <tag k="name" v="Januszkowo"/>
    <tag k="place" v="village"/>
    <tag k="source" v="http://ump.waw.pl/ retrieved 11:19:07 11/17/09 (UMP-Torun/src/cities-Torun.pnt-converted.txt)"/>
  </node>
  <node id="589702112" version="3" timestamp="2010-04-11T13:18:02Z" uid="20587" user="balrog-kun" changeset="4392352" lat="52.97993" lon="18.02693">
    <tag k="name" v="Januszkowo"/>
    <tag k="place" v="village"/>
    <tag k="source" v="http://ump.waw.pl/ retrieved 11:19:07 11/17/09 (UMP-Torun/src/cities-Torun.pnt-converted.txt)"/>
  </node>
  <node id="589702336" version="2" timestamp="2010-04-11T04:54:11Z" uid="20587" user="balrog-kun" changeset="4389130" lat="52.98414" lon="18.03723">
    <tag k="name" v="Kolankowo"/>
    <tag k="place" v="village"/>
    <tag k="source" v="http://ump.waw.pl/ retrieved 11:19:07 11/17/09 (UMP-Torun/src/cities-Torun.pnt-converted.txt)"/>
  </node>
  <node id="589702336" version="3" timestamp="2010-04-11T13:18:03Z" uid="20587" user="balrog-kun" changeset="4392352" lat="52.98414" lon="18.03723">
    <tag k="name" v="Kolankowo"/>
    <tag k="place" v="village"/>
    <tag k="source" v="http://ump.waw.pl/ retrieved 11:19:07 11/17/09 (UMP-Torun/src/cities-Torun.pnt-converted.txt)"/>
  </node>
  <node id="589703144" version="2" timestamp="2010-04-11T04:54:11Z" uid="20587" user="balrog-kun" changeset="4389130" lat="52.99689" lon="18.04238">
    <tag k="name" v="Chmielniki"/>
    <tag k="place" v="village"/>
    <tag k="source" v="http://ump.waw.pl/ retrieved 11:19:07 11/17/09 (UMP-Torun/src/cities-Torun.pnt-converted.txt)"/>
  </node>
  <node id="589703144" version="3" timestamp="2010-04-11T13:18:03Z" uid="20587" user="balrog-kun" changeset="4392352" lat="52.99689" lon="18.04238">
    <tag k="name" v="Chmielniki"/>
    <tag k="place" v="village"/>
    <tag k="source" v="http://ump.waw.pl/ retrieved 11:19:07 11/17/09 (UMP-Torun/src/cities-Torun.pnt-converted.txt)"/>
  </node>
  <node id="589704255" version="2" timestamp="2010-04-11T04:54:11Z" uid="20587" user="balrog-kun" changeset="4389130" lat="52.97032" lon="18.09092">
    <tag k="name" v="Nowa Wieś Wielka"/>
    <tag k="place" v="village"/>
    <tag k="source" v="http://ump.waw.pl/ retrieved 11:19:07 11/17/09 (UMP-Torun/src/cities-Torun.pnt-converted.txt)"/>
  </node>
  <node id="589704255" version="3" timestamp="2010-04-11T13:18:03Z" uid="20587" user="balrog-kun" changeset="4392352" lat="52.97032" lon="18.09092">
    <tag k="name" v="Nowa Wieś Wielka"/>
    <tag k="place" v="village"/>
    <tag k="source" v="http://ump.waw.pl/ retrieved 11:19:07 11/17/09 (UMP-Torun/src/cities-Torun.pnt-converted.txt)"/>
  </node>
  <node id="589704255" version="4" timestamp="2010-11-22T12:25:20Z" uid="296172" user="Colonia" changeset="6430992" lat="52.97032" lon="18.09092">
    <tag k="is_in" v="gmina Nowa Wieś Wielka, powiat bydgoski, województwo kujawsko-pomorskie, Poland"/>
    <tag k="is_in:country" v="Poland"/>
    <tag k="is_in:county" v="powiat bydgoski"/>
    <tag k="is_in:province" v="województwo kujawsko-pomorskie"/>
    <tag k="name" v="Nowa Wieś Wielka"/>
    <tag k="place" v="village"/>
    <tag k="population" v="2207"/>
    <tag k="source" v="http://ump.waw.pl/ retrieved 11:19:07 11/17/09 (UMP-Torun/src/cities-Torun.pnt-converted.txt)"/>
    <tag k="source:population" v="wikipedia"/>
  </node>
  <node id="589704255" version="5" timestamp="2011-04-09T13:55:14Z" uid="273157" user="plnt" changeset="7813355" lat="52.9702302" lon="18.0913175">
    <tag k="is_in" v="gmina Nowa Wieś Wielka, powiat bydgoski, województwo kujawsko-pomorskie, Poland"/>
    <tag k="is_in:country" v="Poland"/>
    <tag k="is_in:county" v="powiat bydgoski"/>
    <tag k="is_in:province" v="województwo kujawsko-pomorskie"/>
    <tag k="name" v="Nowa Wieś Wielka"/>
    <tag k="place" v="village"/>
    <tag k="population" v="2207"/>
    <tag k="source" v="http://ump.waw.pl/ retrieved 11:19:07 11/17/09 (UMP-Torun/src/cities-Torun.pnt-converted.txt)"/>
    <tag k="source:population" v="wikipedia"/>
  </node>
  <node id="589704255" version="6" timestamp="2011-04-09T14:14:30Z" uid="273157" user="plnt" changeset="7813355" lat="52.9703077" lon="18.0918003">
    <tag k="is_in" v="gmina Nowa Wieś Wielka, powiat bydgoski, województwo kujawsko-pomorskie, Poland"/>
    <tag k="is_in:country" v="Poland"/>
    <tag k="is_in:county" v="powiat bydgoski"/>
    <tag k="is_in:province" v="województwo kujawsko-pomorskie"/>
    <tag k="name" v="Nowa Wieś Wielka"/>
    <tag k="place" v="village"/>
    <tag k="population" v="2207"/>
    <tag k="source" v="http://ump.waw.pl/ retrieved 11:19:07 11/17/09 (UMP-Torun/src/cities-Torun.pnt-converted.txt)"/>
    <tag k="source:population" v="wikipedia"/>
  </node>
  <node id="589704255" version="7" timestamp="2011-04-09T14:20:23Z" uid="273157" user="plnt" changeset="7813355" lat="52.969849" lon="18.0909527">
    <tag k="is_in" v="gmina Nowa Wieś Wielka, powiat bydgoski, województwo kujawsko-pomorskie, Poland"/>
    <tag k="is_in:country" v="Poland"/>
    <tag k="is_in:county" v="powiat bydgoski"/>
    <tag k="is_in:province" v="województwo kujawsko-pomorskie"/>
    <tag k="name" v="Nowa Wieś Wielka"/>
    <tag k="place" v="village"/>
    <tag k="population" v="2207"/>
    <tag k="source" v="http://ump.waw.pl/ retrieved 11:19:07 11/17/09 (UMP-Torun/src/cities-Torun.pnt-converted.txt)"/>
    <tag k="source:population" v="wikipedia"/>
  </node>
  <node id="589706334" version="2" timestamp="2010-04-11T04:54:11Z" uid="20587" user="balrog-kun" changeset="4389130" lat="52.99414" lon="18.09172">
    <tag k="name" v="Dobromierz"/>
    <tag k="place" v="village"/>
    <tag k="source" v="http://ump.waw.pl/ retrieved 11:19:07 11/17/09 (UMP-Torun/src/cities-Torun.pnt-converted.txt)"/>
  </node>
  <node id="589706334" version="3" timestamp="2010-04-11T13:18:03Z" uid="20587" user="balrog-kun" changeset="4392352" lat="52.99414" lon="18.09172">
    <tag k="name" v="Dobromierz"/>
    <tag k="place" v="village"/>
    <tag k="source" v="http://ump.waw.pl/ retrieved 11:19:07 11/17/09 (UMP-Torun/src/cities-Torun.pnt-converted.txt)"/>
  </node>
  <node id="589707264" version="2" timestamp="2010-04-11T04:54:11Z" uid="20587" user="balrog-kun" changeset="4389130" lat="53.03173" lon="17.96657">
    <tag k="name" v="Olimpin"/>
    <tag k="place" v="village"/>
    <tag k="source" v="http://ump.waw.pl/ retrieved 11:19:07 11/17/09 (UMP-Torun/src/cities-Torun.pnt-converted.txt)"/>
  </node>
  <node id="589707264" version="3" timestamp="2010-04-11T13:18:03Z" uid="20587" user="balrog-kun" changeset="4392352" lat="53.03173" lon="17.96657">
    <tag k="name" v="Olimpin"/>
    <tag k="place" v="village"/>
    <tag k="source" v="http://ump.waw.pl/ retrieved 11:19:07 11/17/09 (UMP-Torun/src/cities-Torun.pnt-converted.txt)"/>
  </node>
  <node id="589707264" version="4" timestamp="2010-04-27T04:02:31Z" uid="30632" user="antblant" changeset="4537862" lat="53.03173" lon="17.96657">
    <tag k="name" v="Olimpin"/>
    <tag k="place" v="village"/>
    <tag k="source" v="http://ump.waw.pl/ retrieved 11:19:07 11/17/09 (UMP-Torun/src/cities-Torun.pnt-converted.txt)"/>
    <tag k="teryt:simc" v="0092806"/>
  </node>
  <node id="589708019" version="2" timestamp="2010-04-11T04:54:12Z" uid="20587" user="balrog-kun" changeset="4389130" lat="53.01504" lon="17.99513">
    <tag k="name" v="Kobylarnia"/>
    <tag k="place" v="village"/>
    <tag k="source" v="http://ump.waw.pl/ retrieved 11:19:07 11/17/09 (UMP-Torun/src/cities-Torun.pnt-converted.txt)"/>
  </node>
  <node id="589708019" version="3" timestamp="2010-04-11T13:18:03Z" uid="20587" user="balrog-kun" changeset="4392352" lat="53.01504" lon="17.99513">
    <tag k="name" v="Kobylarnia"/>
    <tag k="place" v="village"/>
    <tag k="source" v="http://ump.waw.pl/ retrieved 11:19:07 11/17/09 (UMP-Torun/src/cities-Torun.pnt-converted.txt)"/>
  </node>
  <node id="589701473" version="4" timestamp="2012-07-17T08:09:08Z" uid="722137" user="OSMF Redaction Account" changeset="12260123" lat="52.96796" lon="18.01925"/>
  <node id="589702112" version="4" timestamp="2012-07-17T08:09:24Z" uid="722137" user="OSMF Redaction Account" changeset="12260132" lat="52.97993" lon="18.02693"/>
  <node id="589702336" version="4" timestamp="2012-07-17T08:09:29Z" uid="722137" user="OSMF Redaction Account" changeset="12260132" lat="52.98414" lon="18.03723"/>
  <node id="589703144" version="4" timestamp="2012-07-17T08:09:51Z" uid="722137" user="OSMF Redaction Account" changeset="12260139" lat="52.99689" lon="18.04238"/>
  <node id="589704255" version="8" timestamp="2012-07-17T08:04:55Z" uid="722137" user="OSMF Redaction Account" changeset="12260071" lat="52.969849" lon="18.0909527"/>
  <node id="589706334" version="4" timestamp="2012-07-17T08:05:30Z" uid="722137" user="OSMF Redaction Account" changeset="12260076" lat="52.99414" lon="18.09172"/>
  <node id="589707264" version="5" timestamp="2012-08-31T14:58:35Z" uid="760215" user="pnorman redaction revert" changeset="12932003" lat="53.03173" lon="17.96657"/>
  <node id="589708019" version="4" timestamp="2012-08-31T13:04:24Z" uid="760215" user="pnorman redaction revert" changeset="12930771" lat="53.01504" lon="17.99513"/>
</osm>
