<?xml version='1.0' encoding='UTF-8'?>
<osm version="0.6" generator="libosmium/2.20.0">
  <node id="589834220" version="3" timestamp="2010-07-26T02:03:32Z" uid="20587" user="balrog-kun" changeset="5317852" lat="53.1279137" lon="18.0895872">
    <tag k="addr:city" v="Bydgoszcz"/>
    <tag k="name" v="Bydgoszcz Wschód"/>
    <tag k="name:de" v="Bromberg Ost"/>
    <tag k="note" v="UMP: Bydgoszcz Wschod PKP"/>
    <tag k="old_name" v="Karlsdorf;Karlsdorf bei Bromberg;Bromberg Ost;Kapuścisko Małe"/>
    <tag k="operator" v="PKP"/>
    <tag k="railway" v="station"/>
    <tag k="ref" v="501"/>
    <tag k="source" v="http://ump.waw.pl/ retrieved 11:19:07 11/17/09 (UMP-Torun/src/POI-BYDGOSZCZ.punkty.pnt-converted.txt)"/>
    <tag k="wikipedia" v="pl:Bydgoszcz Wschód"/>
  </node>
  <node id="589834220" version="4" timestamp="2011-10-26T08:43:29Z" uid="338611" user="marek kleciak" changeset="9658172" lat="53.1278653" lon="18.0880616">
    <tag k="addr:city" v="Bydgoszcz"/>
    <tag k="name" v="Bydgoszcz Wschód"/>
    <tag k="name:de" v="Bromberg Ost"/>
    <tag k="note" v="UMP: Bydgoszcz Wschod PKP"/>
    <tag k="old_name" v="Karlsdorf;Karlsdorf bei Bromberg;Bromberg Ost;Kapuścisko Małe"/>
    <tag k="operator" v="PKP"/>
    <tag k="railway" v="station"/>
    <tag k="ref" v="501"/>
    <tag k="source" v="http://ump.waw.pl/ retrieved 11:19:07 11/17/09 (UMP-Torun/src/POI-BYDGOSZCZ.punkty.pnt-converted.txt)"/>
    <tag k="wikipedia" v="pl:Bydgoszcz Wschód"/>
  </node>
  <node id="589837029" version="2" timestamp="2010-02-22T18:45:52Z" uid="20587" user="balrog-kun" changeset="3946176" lat="53.13979" lon="18.0322">
    <tag k="addr:city" v="Bydgoszcz"/>
    <tag k="leisure" v="park"/>
    <tag k="name" v="Park imienia Zbigniewa Załuskiego"/>
    <tag k="source" v="http://ump.waw.pl/ retrieved 11:19:07 11/17/09 (UMP-Torun/src/POI-Torun.pnt-converted.txt)"/>
  </node>
  <node id="589838710" version="5" timestamp="2010-07-26T02:03:51Z" uid="20587" user="balrog-kun" changeset="5317852" lat="53.14321" lon="18.03236">
    <tag k="addr:city" v="Bydgoszcz"/>
    <tag k="name" v="Bydgoszcz Leśna PKP"/>
    <tag k="operator" v="PKP"/>
    <tag k="railway" v="station"/>
    <tag k="source" v="http://ump.waw.pl/ retrieved 11:19:07 11/17/09 (UMP-Torun/src/POI-BYDGOSZCZ.punkty.pnt-converted.txt)"/>
  </node>
</osm>
