<?xml version='1.0' encoding='UTF-8'?>
<osm version="0.6" generator="libosmium/2.20.0">
  <node id="59017539" version="4" timestamp="2008-09-14T20:03:15Z" uid="6975" user="ulfl" changeset="640534" lat="49.7156113" lon="6.7922036">
    <tag k="amenity" v="bank"/>
    <tag k="atm" v="yes"/>
    <tag k="name" v="Sparkasse Trier"/>
  </node>
  <node id="59017539" version="5" timestamp="2008-10-22T09:22:30Z" uid="14228" user="KK-O" changeset="510255" lat="49.7156131" lon="6.7922022">
    <tag k="addr:housenumber" v="39"/>
    <tag k="addr:street" v="Klemensstraße"/>
    <tag k="amenity" v="bank"/>
    <tag k="atm" v="yes"/>
    <tag k="created_by" v="Potlatch 0.10e"/>
    <tag k="name" v="Sparkasse Trier"/>
  </node>
  <node id="59017539" version="6" timestamp="2009-07-08T14:22:20Z" uid="14228" user="KK-O" changeset="1773012" lat="49.7156164" lon="6.7921993">
    <tag k="addr:housenumber" v="39"/>
    <tag k="addr:street" v="Klemensstraße"/>
    <tag k="amenity" v="bank"/>
    <tag k="atm" v="yes"/>
    <tag k="created_by" v="Potlatch 0.10e"/>
    <tag k="name" v="Sparkasse Trier"/>
    <tag k="opening_hours" v="Mo-Fr 08:30-12:30,14:00-16:30; We off"/>
  </node>
  <node id="59017539" version="7" timestamp="2011-10-21T22:16:59Z" uid="290680" user="wheelmap_visitor" changeset="9613553" lat="49.7156164" lon="6.7921993">
    <tag k="addr:housenumber" v="39"/>
    <tag k="addr:street" v="Klemensstraße"/>
    <tag k="amenity" v="bank"/>
    <tag k="atm" v="yes"/>
    <tag k="created_by" v="Potlatch 0.10e"/>
    <tag k="name" v="Sparkasse Trier"/>
    <tag k="opening_hours" v="Mo-Fr 08:30-12:30,14:00-16:30; We off"/>
    <tag k="wheelchair" v="yes"/>
  </node>
  <node id="59017539" version="8" timestamp="2011-10-21T22:17:00Z" uid="290680" user="wheelmap_visitor" changeset="9613553" lat="49.7156164" lon="6.7921993">
    <tag k="addr:housenumber" v="39"/>
    <tag k="addr:street" v="Klemensstraße"/>
    <tag k="amenity" v="bank"/>
    <tag k="atm" v="yes"/>
    <tag k="created_by" v="Potlatch 0.10e"/>
    <tag k="name" v="Sparkasse Trier"/>
    <tag k="opening_hours" v="Mo-Fr 08:30-12:30,14:00-16:30; We off"/>
    <tag k="wheelchair" v="limited"/>
  </node>
  <node id="59017539" version="9" timestamp="2011-10-28T08:28:20Z" uid="290680" user="wheelmap_visitor" changeset="9673767" lat="49.7156164" lon="6.7921993">
    <tag k="addr:housenumber" v="39"/>
    <tag k="addr:street" v="Klemensstraße"/>
    <tag k="amenity" v="bank"/>
    <tag k="atm" v="yes"/>
    <tag k="created_by" v="Potlatch 0.10e"/>
    <tag k="name" v="Sparkasse Trier"/>
    <tag k="opening_hours" v="Mo-Fr 08:30-12:30,14:00-16:30; We off"/>
    <tag k="wheelchair" v="yes"/>
  </node>
</osm>
