<?xml version='1.0' encoding='UTF-8'?>
<osm version="0.6" generator="libosmium/2.20.0">
  <node id="59148178" version="2" timestamp="2007-10-30T20:58:08Z" uid="4667" user="MapZ" changeset="362108" lat="49.4896801" lon="8.4587491">
    <tag k="created_by" v="JOSM"/>
  </node>
  <node id="59148178" version="3" timestamp="2009-05-29T06:06:37Z" uid="46088" user="xander" changeset="1348191" lat="49.4897313" lon="8.4586202">
    <tag k="created_by" v="JOSM"/>
  </node>
  <node id="59148178" version="4" timestamp="2011-01-06T18:07:52Z" uid="2680" user="xylome" changeset="6885157" lat="49.4897046" lon="8.4585964"/>
  <node id="59149739" version="12" timestamp="2011-05-11T10:08:34Z" uid="74617" user="JohnSmith" changeset="8110646" lat="-42.8824593" lon="147.3273244">
    <tag k="capital" v="yes"/>
    <tag k="name" v="Hobart"/>
    <tag k="name:fr" v="Hobart"/>
    <tag k="name:is" v="Hobart"/>
    <tag k="name:ru" v="Хобарт"/>
    <tag k="name:sv" v="Hobart"/>
    <tag k="place" v="city"/>
    <tag k="population" v="207484"/>
    <tag k="wikipedia:fr" v="Hobart"/>
  </node>
  <node id="59149739" version="13" timestamp="2011-09-28T10:33:41Z" uid="349913" user="Peter W34" changeset="9417442" lat="-42.8825088" lon="147.3281233">
    <tag k="capital" v="yes"/>
    <tag k="name" v="Hobart"/>
    <tag k="name:fr" v="Hobart"/>
    <tag k="name:is" v="Hobart"/>
    <tag k="name:ru" v="Хобарт"/>
    <tag k="name:sv" v="Hobart"/>
    <tag k="place" v="city"/>
    <tag k="population" v="207484"/>
    <tag k="wikipedia:fr" v="Hobart"/>
  </node>
  <node id="59149739" version="14" timestamp="2011-11-03T12:37:16Z" uid="46482" user="Leon K" changeset="9730048" lat="-42.8825088" lon="147.3281233">
    <tag k="capital" v="yes"/>
    <tag k="name" v="Hobart"/>
    <tag k="name:fr" v="Hobart"/>
    <tag k="name:is" v="Hobart"/>
    <tag k="name:ru" v="Хобарт"/>
    <tag k="name:sv" v="Hobart"/>
    <tag k="place" v="city"/>
    <tag k="population" v="207484"/>
    <tag k="wikipedia:en" v="Hobart, Tasmania"/>
    <tag k="wikipedia:fr" v="Hobart"/>
  </node>
  <node id="59149739" version="15" timestamp="2012-05-19T12:26:01Z" uid="278187" user="dzamper" changeset="11642091" lat="-42.8825088" lon="147.3281233">
    <tag k="capital" v="yes"/>
    <tag k="name" v="Hobart"/>
    <tag k="name:fr" v="Hobart"/>
    <tag k="name:is" v="Hobart"/>
    <tag k="name:pl" v="Hobart"/>
    <tag k="name:ru" v="Хобарт"/>
    <tag k="name:sv" v="Hobart"/>
    <tag k="place" v="city"/>
    <tag k="population" v="207484"/>
    <tag k="wikipedia:en" v="Hobart, Tasmania"/>
    <tag k="wikipedia:fr" v="Hobart"/>
  </node>
  <node id="59149739" version="16" timestamp="2012-07-19T13:30:12Z" uid="722137" user="OSMF Redaction Account" changeset="12329266" lat="-42.8825088" lon="147.3281233">
    <tag k="capital" v="4"/>
    <tag k="name" v="Hobart"/>
    <tag k="name:fr" v="Hobart"/>
    <tag k="name:is" v="Hobart"/>
    <tag k="name:pl" v="Hobart"/>
    <tag k="name:ru" v="Хобарт"/>
    <tag k="name:sv" v="Hobart"/>
    <tag k="place" v="city"/>
    <tag k="population" v="207484"/>
    <tag k="wikipedia:en" v="Hobart, Tasmania"/>
    <tag k="wikipedia:fr" v="Hobart"/>
  </node>
</osm>
