<?xml version='1.0' encoding='UTF-8'?>
<osm version="0.6" generator="libosmium/2.20.0">
  <node id="59150135" version="4" timestamp="2011-02-13T10:30:35Z" uid="4467" user="Rosscoe" changeset="7273588" lat="-42.8643585" lon="147.3501295"/>
  <node id="59150135" version="5" timestamp="2011-12-24T00:06:16Z" uid="46482" user="Leon K" changeset="10191138" lat="-42.8643585" lon="147.3501295"/>
  <node id="59154508" version="4" timestamp="2011-02-13T10:30:09Z" uid="4467" user="Rosscoe" changeset="7273588" lat="-42.8642241" lon="147.3509005"/>
  <node id="59154508" version="5" timestamp="2011-12-24T00:06:15Z" uid="46482" user="Leon K" changeset="10191138" lat="-42.8642241" lon="147.3509005"/>
  <node id="59154509" version="4" timestamp="2011-02-13T10:30:19Z" uid="4467" user="Rosscoe" changeset="7273588" lat="-42.8640027" lon="147.3515313"/>
  <node id="59154509" version="5" timestamp="2011-12-24T00:06:15Z" uid="46482" user="Leon K" changeset="10191138" lat="-42.8640027" lon="147.3515313"/>
  <node id="59154510" version="4" timestamp="2011-02-13T10:30:27Z" uid="4467" user="Rosscoe" changeset="7273588" lat="-42.8637723" lon="147.3520441"/>
  <node id="59154510" version="5" timestamp="2011-12-24T00:06:15Z" uid="46482" user="Leon K" changeset="10191138" lat="-42.8637723" lon="147.3520441"/>
  <node id="59154511" version="5" timestamp="2011-02-13T10:30:33Z" uid="4467" user="Rosscoe" changeset="7273588" lat="-42.8632674" lon="147.3528497"/>
  <node id="59154773" version="1" timestamp="2007-09-23T17:05:23Z" changeset="506100" lat="49.5342262" lon="8.6574084">
    <tag k="amenity" v="supermarket"/>
    <tag k="created_by" v="JOSM"/>
    <tag k="name" v="Marktkauf"/>
    <tag k="source" v="survey"/>
  </node>
  <node id="59154773" version="2" timestamp="2007-10-11T21:20:31Z" uid="4667" user="MapZ" changeset="122267" lat="49.5342262" lon="8.6574084">
    <tag k="created_by" v="JOSM"/>
    <tag k="name" v="Marktkauf"/>
    <tag k="shop" v="supermarket"/>
    <tag k="source" v="survey"/>
  </node>
  <node id="59154773" version="3" timestamp="2007-11-19T12:28:20Z" changeset="566744" lat="49.5342262" lon="8.6574084">
    <tag k="amenity" v="supermarket"/>
    <tag k="created_by" v="JOSM"/>
    <tag k="name" v="Marktkauf"/>
    <tag k="shop" v="supermarket"/>
    <tag k="source" v="survey"/>
  </node>
  <node id="59154773" version="4" timestamp="2008-06-05T02:45:21Z" uid="3516" user="BiIbo" changeset="58435" lat="49.5342262" lon="8.6574084">
    <tag k="created_by" v="JOSM"/>
    <tag k="name" v="Marktkauf"/>
    <tag k="shop" v="supermarket"/>
    <tag k="source" v="survey"/>
  </node>
  <node id="59154773" version="5" timestamp="2008-07-16T12:32:49Z" uid="51130" user="Saasemer" changeset="509727" lat="49.5342282" lon="8.657402">
    <tag k="created_by" v="Potlatch 0.9c"/>
    <tag k="name" v="Marktkauf"/>
    <tag k="shop" v="supermarket"/>
    <tag k="source" v="survey"/>
  </node>
  <node id="59154773" version="6" timestamp="2008-11-09T17:36:01Z" uid="7562" user="LosHawlos" changeset="723517" lat="49.5342282" lon="8.657402">
    <tag k="addr:city" v="Weinheim"/>
    <tag k="addr:housenumber" v="7"/>
    <tag k="addr:postcode" v="69469"/>
    <tag k="addr:street" v="Gewerbestraße"/>
    <tag k="created_by" v="Potlatch 0.9c"/>
    <tag k="name" v="Marktkauf"/>
    <tag k="shop" v="supermarket"/>
    <tag k="source" v="survey"/>
  </node>
  <node id="59154511" version="6" timestamp="2012-07-19T13:04:05Z" uid="722137" user="OSMF Redaction Account" changeset="12327870" lat="-42.8632354" lon="147.3528259"/>
  <node id="59154511" version="7" timestamp="2012-08-23T03:39:03Z" uid="77586" user="Map Star" changeset="12827977" lat="-42.8631451" lon="147.3529491"/>
  <node id="59154773" version="7" timestamp="2012-04-30T02:25:28Z" uid="328555" user="peb12345" changeset="11455876" lat="49.5342409" lon="8.6574265">
    <tag k="addr:city" v="Weinheim"/>
    <tag k="addr:housenumber" v="7"/>
    <tag k="addr:postcode" v="69469"/>
    <tag k="addr:street" v="Gewerbestraße"/>
    <tag k="name" v="Marktkauf"/>
    <tag k="shop" v="supermarket"/>
    <tag k="source" v="survey"/>
  </node>
  <node id="59154773" version="8" timestamp="2012-07-17T02:18:04Z" uid="722137" user="OSMF Redaction Account" changeset="12255286" lat="49.5342409" lon="8.6574265">
    <tag k="addr:city" v="Weinheim"/>
    <tag k="addr:housenumber" v="7"/>
    <tag k="addr:postcode" v="69469"/>
    <tag k="addr:street" v="Gewerbestraße"/>
    <tag k="name" v="Marktkauf"/>
    <tag k="source" v="survey"/>
  </node>
</osm>
