<?xml version='1.0' encoding='UTF-8'?>
<osm version="0.6" generator="libosmium/2.20.0">
  <node id="59261314" version="3" timestamp="2008-12-08T12:17:31Z" uid="27600" user="Islanit" changeset="255247" lat="52.345711" lon="14.0616372"/>
  <node id="59261314" version="4" timestamp="2008-12-08T12:17:40Z" uid="27600" user="Islanit" changeset="255247" lat="52.345711" lon="14.0616372"/>
  <node id="59261314" version="5" timestamp="2008-12-10T19:36:59Z" uid="36894" user="rab" changeset="303094" lat="52.345711" lon="14.0616372"/>
  <node id="59261357" version="3" timestamp="2008-12-08T12:17:30Z" uid="27600" user="Islanit" changeset="255247" lat="52.3489081" lon="14.0621152"/>
  <node id="59261357" version="4" timestamp="2008-12-08T12:17:40Z" uid="27600" user="Islanit" changeset="255247" lat="52.3489081" lon="14.0621152"/>
  <node id="59262394" version="5" timestamp="2008-07-03T18:28:45Z" uid="6975" user="ulfl" changeset="379368" lat="35.1465307" lon="33.3580306">
    <tag k="amenity" v="fire_station"/>
  </node>
  <node id="59263724" version="6" timestamp="2008-07-08T01:42:15Z" uid="6975" user="ulfl" changeset="429882" lat="46.4490935" lon="15.4189958">
    <tag k="ele" v="1193"/>
    <tag k="name" v="Dom na Osankarici"/>
    <tag k="tourism" v="guest_house"/>
  </node>
  <node id="59263724" version="7" timestamp="2008-10-31T10:40:46Z" uid="12380" user="Breki" changeset="641585" lat="46.4493509" lon="15.4192532">
    <tag k="ele" v="1193"/>
    <tag k="name" v="Dom na Osankarici"/>
    <tag k="tourism" v="guest_house"/>
  </node>
  <node id="59263724" version="8" timestamp="2008-11-09T23:02:14Z" uid="36862" user="blaz" changeset="728558" lat="46.4492617" lon="15.4191614">
    <tag k="amenity" v="restaurant"/>
    <tag k="ele" v="1193"/>
    <tag k="name" v="Dom na Osankarici"/>
    <tag k="tourism" v="guest_house"/>
  </node>
  <node id="59263724" version="9" timestamp="2009-10-04T16:27:31Z" uid="36862" user="blaz" changeset="2739519" lat="46.4492617" lon="15.4191614">
    <tag k="ele" v="1193"/>
    <tag k="name" v="Dom na Osankarici"/>
    <tag k="tourism" v="alpine_hut"/>
  </node>
  <node id="59263724" version="10" timestamp="2010-11-06T18:59:37Z" uid="12380" user="Breki" changeset="6305136" lat="46.4492244" lon="15.4190553">
    <tag k="ele" v="1193"/>
    <tag k="name" v="Dom na Osankarici"/>
    <tag k="tourism" v="alpine_hut"/>
  </node>
  <node id="59264046" version="6" timestamp="2008-07-08T01:42:15Z" uid="6975" user="ulfl" changeset="429882" lat="46.4374454" lon="15.4598637">
    <tag k="ele" v="1181"/>
    <tag k="name" v="Štuhecov dom"/>
    <tag k="tourism" v="guest_house"/>
  </node>
  <node id="59264046" version="7" timestamp="2009-06-20T14:06:06Z" uid="12380" user="Breki" changeset="1575001" lat="46.4374454" lon="15.4598637">
    <tag k="ele" v="1181"/>
    <tag k="name" v="Štuhecov dom"/>
    <tag k="tourism" v="alpine_hut"/>
  </node>
  <node id="59264046" version="8" timestamp="2012-03-18T11:59:58Z" uid="36862" user="blaz" changeset="11017831" lat="46.4374338" lon="15.4600845">
    <tag k="ele" v="1181"/>
    <tag k="name" v="Štuhecov dom"/>
    <tag k="tourism" v="alpine_hut"/>
  </node>
  <node id="59262394" version="6" timestamp="2012-07-20T09:04:49Z" uid="722137" user="OSMF Redaction Account" changeset="12369410" lat="35.1465307" lon="33.3580306"/>
</osm>
