<?xml version='1.0' encoding='UTF-8'?>
<osm version="0.6" generator="libosmium/2.20.0">
  <node id="59521541" version="2" timestamp="2008-09-30T10:39:07Z" uid="1066" user="pavel" changeset="720911" lat="50.3232922" lon="12.7352994">
    <tag k="is_in" v="Czech Republic, Europe"/>
    <tag k="name" v="Nejdek"/>
    <tag k="place" v="town"/>
  </node>
  <node id="59521541" version="3" timestamp="2008-11-04T13:09:44Z" uid="308" user="MichaelCollinson" changeset="676656" lat="50.3232922" lon="12.7352994">
    <tag k="is_in" v="Czech Republic, Europe"/>
    <tag k="is_in:continent" v="Europe"/>
    <tag k="is_in:country_code" v="cz"/>
    <tag k="name" v="Nejdek"/>
    <tag k="place" v="town"/>
  </node>
  <node id="59521541" version="4" timestamp="2008-11-17T11:46:28Z" uid="17615" user="Petr Dlouhý" changeset="760008" lat="50.3230038" lon="12.7301539">
    <tag k="is_in" v="Czech Republic, Europe"/>
    <tag k="is_in:continent" v="Europe"/>
    <tag k="is_in:country_code" v="cz"/>
    <tag k="name" v="Nejdek"/>
    <tag k="place" v="town"/>
  </node>
  <node id="59521541" version="5" timestamp="2009-11-05T20:29:07Z" uid="147674" user="fireball2" changeset="3043578" lat="50.3230056" lon="12.7301455">
    <tag k="is_in" v="Czech Republic, Europe"/>
    <tag k="is_in:continent" v="Europe"/>
    <tag k="is_in:country_code" v="cz"/>
    <tag k="name" v="Nejdek"/>
    <tag k="name:de" v="Neudek"/>
    <tag k="place" v="town"/>
  </node>
  <node id="59521541" version="6" timestamp="2011-10-19T16:08:31Z" uid="102554" user="Jezevec" changeset="9601175" lat="50.3230056" lon="12.7301455">
    <tag k="is_in" v="Czech Republic, Europe"/>
    <tag k="is_in:continent" v="Europe"/>
    <tag k="is_in:country_code" v="cz"/>
    <tag k="lau1" v="CZ0412"/>
    <tag k="lau2" v="555380"/>
    <tag k="name" v="Nejdek"/>
    <tag k="name:de" v="Neudek"/>
    <tag k="place" v="town"/>
    <tag k="population" v="8337"/>
  </node>
  <node id="59521541" version="7" timestamp="2011-12-22T07:28:42Z" uid="572909" user="xsnakex" changeset="10177256" lat="50.32478" lon="12.7331842">
    <tag k="is_in" v="Czech Republic, Europe"/>
    <tag k="is_in:continent" v="Europe"/>
    <tag k="is_in:country_code" v="cz"/>
    <tag k="lau1" v="CZ0412"/>
    <tag k="lau2" v="555380"/>
    <tag k="name" v="Nejdek"/>
    <tag k="name:de" v="Neudek"/>
    <tag k="place" v="town"/>
    <tag k="population" v="8337"/>
  </node>
  <node id="59521541" version="8" timestamp="2011-12-23T05:53:23Z" uid="572909" user="xsnakex" changeset="10184672" lat="50.3248212" lon="12.7331383">
    <tag k="is_in" v="Czech Republic, Europe"/>
    <tag k="is_in:continent" v="Europe"/>
    <tag k="is_in:country_code" v="cz"/>
    <tag k="lau1" v="CZ0412"/>
    <tag k="lau2" v="555380"/>
    <tag k="name" v="Nejdek"/>
    <tag k="name:de" v="Neudek"/>
    <tag k="place" v="town"/>
    <tag k="population" v="8337"/>
  </node>
  <node id="59521541" version="9" timestamp="2012-01-20T19:18:10Z" uid="229590" user="xificurk" changeset="10449521" lat="50.3248212" lon="12.7331383"/>
  <node id="59521543" version="2" timestamp="2008-09-30T11:43:36Z" uid="1066" user="pavel" changeset="720911" lat="50.3649416" lon="12.7849317">
    <tag k="is_in" v="Czech Republic, Europe"/>
    <tag k="name" v="Pernink"/>
    <tag k="place" v="village"/>
  </node>
  <node id="59521543" version="3" timestamp="2008-11-04T13:09:44Z" uid="308" user="MichaelCollinson" changeset="676656" lat="50.3649416" lon="12.7849317">
    <tag k="is_in" v="Czech Republic, Europe"/>
    <tag k="is_in:continent" v="Europe"/>
    <tag k="is_in:country_code" v="cz"/>
    <tag k="name" v="Pernink"/>
    <tag k="place" v="village"/>
  </node>
  <node id="59521543" version="4" timestamp="2009-11-05T20:21:57Z" uid="147674" user="fireball2" changeset="3043517" lat="50.3649447" lon="12.7849275">
    <tag k="is_in" v="Czech Republic, Europe"/>
    <tag k="is_in:continent" v="Europe"/>
    <tag k="is_in:country_code" v="cz"/>
    <tag k="name" v="Pernink"/>
    <tag k="name:de" v="Bärringen"/>
    <tag k="place" v="village"/>
  </node>
  <node id="59521543" version="5" timestamp="2012-01-20T19:19:17Z" uid="229590" user="xificurk" changeset="10449534" lat="50.3649447" lon="12.7849275"/>
  <node id="59521546" version="4" timestamp="2008-09-30T11:48:23Z" uid="1066" user="pavel" changeset="720911" lat="50.3903733" lon="12.7702426">
    <tag k="is_in" v="Czech Republic, Europe"/>
    <tag k="name" v="Horní Blatná"/>
    <tag k="place" v="town"/>
  </node>
  <node id="59521546" version="5" timestamp="2008-11-04T13:09:45Z" uid="308" user="MichaelCollinson" changeset="676656" lat="50.3903733" lon="12.7702426">
    <tag k="is_in" v="Czech Republic, Europe"/>
    <tag k="is_in:continent" v="Europe"/>
    <tag k="is_in:country_code" v="cz"/>
    <tag k="name" v="Horní Blatná"/>
    <tag k="place" v="town"/>
  </node>
  <node id="59521546" version="6" timestamp="2009-11-05T20:22:59Z" uid="147674" user="fireball2" changeset="3043517" lat="50.3903698" lon="12.7702504">
    <tag k="is_in" v="Czech Republic, Europe"/>
    <tag k="is_in:continent" v="Europe"/>
    <tag k="is_in:country_code" v="cz"/>
    <tag k="name" v="Horní Blatná"/>
    <tag k="name:de" v="Platten"/>
    <tag k="place" v="town"/>
  </node>
  <node id="59521546" version="7" timestamp="2012-01-09T23:56:25Z" uid="229590" user="xificurk" changeset="10347560" lat="50.3903698" lon="12.7702504">
    <tag k="is_in" v="Czech Republic, Europe"/>
    <tag k="is_in:continent" v="Europe"/>
    <tag k="is_in:country_code" v="cz"/>
    <tag k="name" v="Horní Blatná"/>
    <tag k="name:de" v="Platten"/>
    <tag k="place" v="village"/>
  </node>
  <node id="59521546" version="8" timestamp="2012-01-20T19:15:29Z" uid="229590" user="xificurk" changeset="10449487" lat="50.3903698" lon="12.7702504"/>
</osm>
