<?xml version='1.0' encoding='UTF-8'?>
<osm version="0.6" generator="libosmium/2.20.0">
  <node id="596068032" version="3" timestamp="2011-01-27T02:50:15Z" uid="4467" user="Rosscoe" changeset="7099934" lat="-35.1853165" lon="149.1346579">
    <tag k="amenity" v="bank"/>
    <tag k="atm" v="yes"/>
    <tag k="operator" v="Commonwealth Bank"/>
  </node>
  <node id="596068035" version="3" timestamp="2011-01-27T02:50:09Z" uid="4467" user="Rosscoe" changeset="7099934" lat="-35.1856374" lon="149.1344347">
    <tag k="amenity" v="bank"/>
    <tag k="atm" v="yes"/>
    <tag k="operator" v="Member&apos;s Equity"/>
  </node>
  <node id="596068037" version="3" timestamp="2011-01-27T02:50:11Z" uid="4467" user="Rosscoe" changeset="7099934" lat="-35.185293" lon="149.1343907">
    <tag k="amenity" v="bank"/>
    <tag k="atm" v="yes"/>
    <tag k="operator" v="Westpac"/>
  </node>
  <node id="596068040" version="3" timestamp="2011-01-27T02:55:39Z" uid="4467" user="Rosscoe" changeset="7099944" lat="-35.1855354" lon="149.1340367">
    <tag k="amenity" v="bank"/>
    <tag k="atm" v="yes"/>
    <tag k="operator" v="St. George"/>
  </node>
  <node id="596068032" version="4" timestamp="2012-07-19T09:37:43Z" uid="722137" user="OSMF Redaction Account" changeset="12316398" lat="-35.1853688" lon="149.1346644">
    <tag k="amenity" v="Commonwealth Bank"/>
    <tag k="atm" v="yes"/>
    <tag k="operator" v="Commonwealth Bank"/>
  </node>
  <node id="596068035" version="4" timestamp="2012-07-19T09:37:43Z" uid="722137" user="OSMF Redaction Account" changeset="12316398" lat="-35.1855748" lon="149.1345624">
    <tag k="amenity" v="Members Equity"/>
    <tag k="atm" v="yes"/>
    <tag k="operator" v="Member&apos;s Equity"/>
  </node>
  <node id="596068037" version="4" timestamp="2012-07-19T09:37:43Z" uid="722137" user="OSMF Redaction Account" changeset="12316398" lat="-35.1853556" lon="149.1343908">
    <tag k="amenity" v="Westpac Bank"/>
    <tag k="atm" v="yes"/>
    <tag k="operator" v="Westpac"/>
  </node>
  <node id="596068037" version="5" timestamp="2012-07-29T11:12:56Z" uid="72613" user="mark_rat" changeset="12533593" lat="-35.1853088" lon="149.1343929">
    <tag k="amenity" v="Westpac Bank"/>
    <tag k="atm" v="yes"/>
    <tag k="operator" v="Westpac"/>
  </node>
  <node id="596068040" version="4" timestamp="2012-07-19T09:37:43Z" uid="722137" user="OSMF Redaction Account" changeset="12316398" lat="-35.1854608" lon="149.1340367">
    <tag k="amenity" v="St George Bank"/>
    <tag k="atm" v="yes"/>
    <tag k="operator" v="St. George"/>
  </node>
</osm>
