<?xml version='1.0' encoding='UTF-8'?>
<osm version="0.6" generator="libosmium/2.20.0">
  <node id="600310074" version="2" timestamp="2010-06-25T19:41:45Z" uid="49111" user="Markus B" changeset="5076240" lat="49.455902" lon="11.0806512">
    <tag k="amenity" v="restaurant"/>
    <tag k="cuisine" v="italian"/>
    <tag k="name" v="Bar - Italiano A Tavola"/>
  </node>
  <node id="600310075" version="2" timestamp="2010-06-25T19:41:32Z" uid="49111" user="Markus B" changeset="5076240" lat="49.4558781" lon="11.0825784">
    <tag k="addr:city" v="Nürnberg"/>
    <tag k="addr:country" v="DE"/>
    <tag k="addr:housenumber" v="21"/>
    <tag k="addr:postcode" v="90403"/>
    <tag k="addr:street" v="Innere Laufer Gasse"/>
    <tag k="amenity" v="restaurant"/>
    <tag k="name" v="Stockholm"/>
    <tag k="phone" v="+49-911-2426165"/>
    <tag k="smoking" v="no"/>
    <tag k="smoking:outside" v="yes"/>
  </node>
  <node id="600310075" version="3" timestamp="2011-10-09T18:54:40Z" uid="290680" user="wheelmap_visitor" changeset="9508573" lat="49.4558781" lon="11.0825784">
    <tag k="addr:city" v="Nürnberg"/>
    <tag k="addr:country" v="DE"/>
    <tag k="addr:housenumber" v="21"/>
    <tag k="addr:postcode" v="90403"/>
    <tag k="addr:street" v="Innere Laufer Gasse"/>
    <tag k="amenity" v="restaurant"/>
    <tag k="name" v="Stockholm"/>
    <tag k="phone" v="+49-911-2426165"/>
    <tag k="smoking" v="no"/>
    <tag k="smoking:outside" v="yes"/>
    <tag k="wheelchair" v="limited"/>
  </node>
  <node id="600310075" version="4" timestamp="2011-11-10T21:36:14Z" uid="346758" user="kukuk" changeset="9792551" lat="49.4558781" lon="11.0825784"/>
  <node id="600310076" version="3" timestamp="2010-06-25T20:09:38Z" uid="49111" user="Markus B" changeset="5076413" lat="49.4557666" lon="11.0832212">
    <tag k="addr:city" v="Nürnberg"/>
    <tag k="addr:country" v="DE"/>
    <tag k="addr:housenumber" v="22"/>
    <tag k="addr:postcode" v="90403"/>
    <tag k="addr:street" v="Innere Laufer Gasse"/>
    <tag k="amenity" v="restaurant"/>
    <tag k="cuisine" v="greek"/>
    <tag k="name" v="Delphi"/>
    <tag k="phone" v="+49911209531"/>
    <tag k="smoking" v="no"/>
    <tag k="url" v="http://www.giannikis-gastronomie.de/"/>
    <tag k="website" v="www.giannikis-gastronomie.de"/>
  </node>
  <node id="600310076" version="4" timestamp="2010-10-04T10:58:11Z" uid="290680" user="wheelmap_visitor" changeset="5952357" lat="49.4557666" lon="11.0832212">
    <tag k="addr:city" v="Nürnberg"/>
    <tag k="addr:country" v="DE"/>
    <tag k="addr:housenumber" v="22"/>
    <tag k="addr:postcode" v="90403"/>
    <tag k="addr:street" v="Innere Laufer Gasse"/>
    <tag k="amenity" v="restaurant"/>
    <tag k="cuisine" v="greek"/>
    <tag k="name" v="Delphi"/>
    <tag k="phone" v="+49911209531"/>
    <tag k="smoking" v="no"/>
    <tag k="url" v="http://www.giannikis-gastronomie.de/"/>
    <tag k="website" v="www.giannikis-gastronomie.de"/>
    <tag k="wheelchair" v="no"/>
  </node>
  <node id="600310076" version="5" timestamp="2011-12-02T22:12:14Z" uid="71557" user="Taroc" changeset="10020533" lat="49.4557666" lon="11.0832212"/>
  <node id="600311651" version="1" timestamp="2009-12-28T09:41:34Z" uid="27600" user="Islanit" changeset="3469741" lat="26.1553274" lon="-80.2583867"/>
  <node id="600311652" version="1" timestamp="2009-12-28T09:41:34Z" uid="27600" user="Islanit" changeset="3469741" lat="26.1552937" lon="-80.2584672"/>
  <node id="600311657" version="1" timestamp="2009-12-28T09:41:37Z" uid="27600" user="Islanit" changeset="3469741" lat="26.1554333" lon="-80.2620667"/>
  <node id="600311665" version="1" timestamp="2009-12-28T09:41:44Z" uid="27600" user="Islanit" changeset="3469741" lat="26.1572534" lon="-80.2549374"/>
  <node id="600311669" version="1" timestamp="2009-12-28T09:41:46Z" uid="27600" user="Islanit" changeset="3469741" lat="26.1631437" lon="-80.2558422"/>
  <node id="600311669" version="2" timestamp="2012-03-19T22:54:19Z" uid="369983" user="grouper" changeset="11036032" lat="26.1631437" lon="-80.2558422"/>
  <node id="600311672" version="1" timestamp="2009-12-28T09:41:47Z" uid="27600" user="Islanit" changeset="3469741" lat="26.1559196" lon="-80.2555811"/>
  <node id="600311673" version="1" timestamp="2009-12-28T09:41:47Z" uid="27600" user="Islanit" changeset="3469741" lat="26.1565167" lon="-80.2559298"/>
  <node id="600311674" version="1" timestamp="2009-12-28T09:41:47Z" uid="27600" user="Islanit" changeset="3469741" lat="26.1570367" lon="-80.25608"/>
  <node id="600311676" version="1" timestamp="2009-12-28T09:41:48Z" uid="27600" user="Islanit" changeset="3469741" lat="26.1634066" lon="-80.2559274"/>
  <node id="600311676" version="2" timestamp="2012-03-19T22:54:19Z" uid="369983" user="grouper" changeset="11036032" lat="26.1634066" lon="-80.2559274"/>
  <node id="600311678" version="1" timestamp="2009-12-28T09:41:49Z" uid="27600" user="Islanit" changeset="3469741" lat="26.1632253" lon="-80.2553291"/>
  <node id="600311678" version="2" timestamp="2012-03-19T22:54:19Z" uid="369983" user="grouper" changeset="11036032" lat="26.1632253" lon="-80.2553291"/>
  <node id="600311679" version="1" timestamp="2009-12-28T09:41:49Z" uid="27600" user="Islanit" changeset="3469741" lat="26.1631811" lon="-80.2553575"/>
  <node id="600311679" version="2" timestamp="2012-03-19T22:54:19Z" uid="369983" user="grouper" changeset="11036032" lat="26.1631811" lon="-80.2553575"/>
  <node id="600311680" version="1" timestamp="2009-12-28T09:41:49Z" uid="27600" user="Islanit" changeset="3469741" lat="26.1631112" lon="-80.2554356"/>
  <node id="600311680" version="2" timestamp="2012-03-19T22:54:19Z" uid="369983" user="grouper" changeset="11036032" lat="26.1631112" lon="-80.2554356"/>
  <node id="600311681" version="1" timestamp="2009-12-28T09:41:49Z" uid="27600" user="Islanit" changeset="3469741" lat="26.1630784" lon="-80.2555049"/>
  <node id="600311681" version="2" timestamp="2012-03-19T22:54:19Z" uid="369983" user="grouper" changeset="11036032" lat="26.1630784" lon="-80.2555049"/>
  <node id="600311683" version="1" timestamp="2009-12-28T09:41:49Z" uid="27600" user="Islanit" changeset="3469741" lat="26.16306" lon="-80.2556132"/>
  <node id="600311683" version="2" timestamp="2012-03-19T22:54:20Z" uid="369983" user="grouper" changeset="11036032" lat="26.16306" lon="-80.2556132"/>
  <node id="600311684" version="1" timestamp="2009-12-28T09:41:50Z" uid="27600" user="Islanit" changeset="3469741" lat="26.1630655" lon="-80.2556797"/>
  <node id="600311684" version="2" timestamp="2012-03-19T22:54:20Z" uid="369983" user="grouper" changeset="11036032" lat="26.1630655" lon="-80.2556797"/>
  <node id="600311685" version="1" timestamp="2009-12-28T09:41:50Z" uid="27600" user="Islanit" changeset="3469741" lat="26.1631015" lon="-80.2557825"/>
  <node id="600311685" version="2" timestamp="2012-03-19T22:54:20Z" uid="369983" user="grouper" changeset="11036032" lat="26.1631015" lon="-80.2557825"/>
  <node id="600311686" version="1" timestamp="2009-12-28T09:41:50Z" uid="27600" user="Islanit" changeset="3469741" lat="26.1632248" lon="-80.2559053"/>
  <node id="600311686" version="2" timestamp="2012-03-19T22:54:20Z" uid="369983" user="grouper" changeset="11036032" lat="26.1632248" lon="-80.2559053"/>
  <node id="600311687" version="1" timestamp="2009-12-28T09:41:50Z" uid="27600" user="Islanit" changeset="3469741" lat="26.1633077" lon="-80.2559322"/>
  <node id="600311687" version="2" timestamp="2012-03-19T22:54:20Z" uid="369983" user="grouper" changeset="11036032" lat="26.1633077" lon="-80.2559322"/>
  <node id="600311688" version="1" timestamp="2009-12-28T09:41:50Z" uid="27600" user="Islanit" changeset="3469741" lat="26.1634694" lon="-80.255903"/>
  <node id="600311688" version="2" timestamp="2012-03-19T22:54:20Z" uid="369983" user="grouper" changeset="11036032" lat="26.1634694" lon="-80.255903"/>
  <node id="600311689" version="1" timestamp="2009-12-28T09:41:50Z" uid="27600" user="Islanit" changeset="3469741" lat="26.1636138" lon="-80.2557227"/>
  <node id="600311689" version="2" timestamp="2012-03-19T22:54:20Z" uid="369983" user="grouper" changeset="11036032" lat="26.1636138" lon="-80.2557227"/>
  <node id="600311691" version="1" timestamp="2009-12-28T09:41:50Z" uid="27600" user="Islanit" changeset="3469741" lat="26.1636034" lon="-80.2554834"/>
  <node id="600311691" version="2" timestamp="2012-03-19T22:54:20Z" uid="369983" user="grouper" changeset="11036032" lat="26.1636034" lon="-80.2554834"/>
  <node id="600311692" version="1" timestamp="2009-12-28T09:41:50Z" uid="27600" user="Islanit" changeset="3469741" lat="26.1634542" lon="-80.255324"/>
  <node id="600311692" version="2" timestamp="2012-03-19T22:54:20Z" uid="369983" user="grouper" changeset="11036032" lat="26.1634542" lon="-80.255324"/>
  <node id="600312598" version="4" timestamp="2010-08-12T12:34:46Z" uid="10712" user="Kraeml" changeset="5472822" lat="49.4606495" lon="11.0833362">
    <tag k="addr:city" v="Nürnberg"/>
    <tag k="addr:country" v="DE"/>
    <tag k="addr:housenumber" v="68"/>
    <tag k="addr:postcode" v="90408"/>
    <tag k="addr:street" v="Pirckheimerstraße"/>
    <tag k="amenity" v="restaurant"/>
    <tag k="cuisine" v="thai"/>
    <tag k="name" v="Buddha"/>
    <tag k="opening_hours" v="Mo-Fr 11:30-23:30; Sa-So 17:30-23:30"/>
    <tag k="phone" v="+49 911 9373 898"/>
    <tag k="smoking" v="no"/>
  </node>
  <node id="600312598" version="5" timestamp="2010-08-12T12:46:21Z" uid="10712" user="Kraeml" changeset="5472902" lat="49.4606495" lon="11.0833362">
    <tag k="addr:city" v="Nürnberg"/>
    <tag k="addr:country" v="DE"/>
    <tag k="addr:housenumber" v="68"/>
    <tag k="addr:postcode" v="90408"/>
    <tag k="addr:street" v="Pirckheimerstraße"/>
    <tag k="amenity" v="restaurant"/>
    <tag k="cuisine" v="thai"/>
    <tag k="name" v="Buddha"/>
    <tag k="opening_hours" v="Mo-Fr 11:30-23:30; Sa-So 17:30-23:30"/>
    <tag k="phone" v="+49 911 9373 898"/>
    <tag k="smoking" v="no"/>
    <tag k="wheelchair" v="no"/>
  </node>
  <node id="600312598" version="6" timestamp="2010-11-21T23:15:46Z" uid="202858" user="kellerma" changeset="6428075" lat="49.4606495" lon="11.0833362">
    <tag k="addr:city" v="Nürnberg"/>
    <tag k="addr:country" v="DE"/>
    <tag k="addr:housenumber" v="68"/>
    <tag k="addr:postcode" v="90408"/>
    <tag k="addr:street" v="Pirckheimerstraße"/>
    <tag k="amenity" v="restaurant"/>
    <tag k="cuisine" v="thai"/>
    <tag k="name" v="Buddha"/>
    <tag k="opening_hours" v="Mo-Fr 11:30-23:30; Sa-Su 17:30-23:30"/>
    <tag k="phone" v="+49 911 9373 898"/>
    <tag k="smoking" v="no"/>
    <tag k="wheelchair" v="no"/>
  </node>
  <node id="600312598" version="7" timestamp="2011-11-25T08:36:14Z" uid="71557" user="Taroc" changeset="9941825" lat="49.4606495" lon="11.0833362"/>
  <node id="600312601" version="4" timestamp="2010-08-12T12:28:55Z" uid="10712" user="Kraeml" changeset="5472766" lat="49.4611079" lon="11.0844819">
    <tag k="addr:city" v="Nürnberg"/>
    <tag k="addr:country" v="DE"/>
    <tag k="addr:housenumber" v="75"/>
    <tag k="addr:postcode" v="90409"/>
    <tag k="addr:street" v="Pirckheimerstraße"/>
    <tag k="amenity" v="restaurant"/>
    <tag k="cuisine" v="japanese"/>
    <tag k="name" v="Bento Box"/>
    <tag k="opening_hours" v="Mo-Fr 11:30-14:30 17:30-23:00; Sa-So 17:30-23:00"/>
    <tag k="phone" v="+49 911 581 588 3"/>
    <tag k="smoking" v="no"/>
    <tag k="website" v="www.lilovebento.de"/>
  </node>
  <node id="600312601" version="5" timestamp="2010-08-12T12:46:21Z" uid="10712" user="Kraeml" changeset="5472902" lat="49.4611079" lon="11.0844819">
    <tag k="addr:city" v="Nürnberg"/>
    <tag k="addr:country" v="DE"/>
    <tag k="addr:housenumber" v="75"/>
    <tag k="addr:postcode" v="90409"/>
    <tag k="addr:street" v="Pirckheimerstraße"/>
    <tag k="amenity" v="restaurant"/>
    <tag k="cuisine" v="japanese"/>
    <tag k="name" v="Bento Box"/>
    <tag k="opening_hours" v="Mo-Fr 11:30-14:30 17:30-23:00; Sa-So 17:30-23:00"/>
    <tag k="phone" v="+49 911 581 588 3"/>
    <tag k="smoking" v="no"/>
    <tag k="website" v="www.lilovebento.de"/>
    <tag k="wheelchair" v="no"/>
  </node>
  <node id="600312601" version="6" timestamp="2010-08-19T04:37:17Z" uid="71557" user="Taroc" changeset="5532342" lat="49.4611963" lon="11.0844328">
    <tag k="addr:city" v="Nürnberg"/>
    <tag k="addr:country" v="DE"/>
    <tag k="addr:housenumber" v="75"/>
    <tag k="addr:postcode" v="90409"/>
    <tag k="addr:street" v="Pirckheimerstraße"/>
    <tag k="amenity" v="restaurant"/>
    <tag k="cuisine" v="japanese"/>
    <tag k="name" v="Bento Box"/>
    <tag k="opening_hours" v="Mo-Fr 11:30-14:30 17:30-23:00; Sa-So 17:30-23:00"/>
    <tag k="phone" v="+49 911 581 588 3"/>
    <tag k="smoking" v="no"/>
    <tag k="website" v="www.lilovebento.de"/>
    <tag k="wheelchair" v="no"/>
  </node>
  <node id="600312601" version="7" timestamp="2010-09-07T20:21:33Z" uid="78474" user="Andreas S" changeset="5711819" lat="49.4611963" lon="11.0844328">
    <tag k="addr:city" v="Nürnberg"/>
    <tag k="addr:country" v="DE"/>
    <tag k="addr:housenumber" v="75"/>
    <tag k="addr:postcode" v="90409"/>
    <tag k="addr:street" v="Pirckheimerstraße"/>
    <tag k="amenity" v="restaurant"/>
    <tag k="cuisine" v="japanese"/>
    <tag k="name" v="Bento Box"/>
    <tag k="opening_hours" v="Mo-Fr 11:30-14:30,17:30-23:00; Sa-So 17:30-23:00"/>
    <tag k="phone" v="+49 911 581 588 3"/>
    <tag k="smoking" v="no"/>
    <tag k="website" v="www.lilovebento.de"/>
    <tag k="wheelchair" v="no"/>
  </node>
  <node id="600312601" version="8" timestamp="2010-11-21T23:21:53Z" uid="202858" user="kellerma" changeset="6428109" lat="49.4611963" lon="11.0844328">
    <tag k="addr:city" v="Nürnberg"/>
    <tag k="addr:country" v="DE"/>
    <tag k="addr:housenumber" v="75"/>
    <tag k="addr:postcode" v="90409"/>
    <tag k="addr:street" v="Pirckheimerstraße"/>
    <tag k="amenity" v="restaurant"/>
    <tag k="cuisine" v="japanese"/>
    <tag k="name" v="Bento Box"/>
    <tag k="opening_hours" v="Mo-Fr 11:30-14:30,17:30-23:00; Sa-Su 17:30-23:00"/>
    <tag k="phone" v="+49 911 581 588 3"/>
    <tag k="smoking" v="no"/>
    <tag k="website" v="www.lilovebento.de"/>
    <tag k="wheelchair" v="no"/>
  </node>
  <node id="600312601" version="9" timestamp="2011-04-18T20:49:42Z" uid="71557" user="Taroc" changeset="7901468" lat="49.4611182" lon="11.0843452">
    <tag k="addr:city" v="Nürnberg"/>
    <tag k="addr:country" v="DE"/>
    <tag k="addr:housenumber" v="75"/>
    <tag k="addr:postcode" v="90409"/>
    <tag k="addr:street" v="Pirckheimerstraße"/>
    <tag k="amenity" v="restaurant"/>
    <tag k="cuisine" v="japanese"/>
    <tag k="name" v="Bento Box"/>
    <tag k="opening_hours" v="Mo-Fr 11:30-14:30,17:30-23:00; Sa-Su 17:30-23:00"/>
    <tag k="phone" v="+49 911 581 588 3"/>
    <tag k="smoking" v="no"/>
    <tag k="website" v="www.lilovebento.de"/>
    <tag k="wheelchair" v="no"/>
  </node>
  <node id="600312601" version="10" timestamp="2011-10-29T12:27:36Z" uid="71557" user="Taroc" changeset="9684221" lat="49.4611646" lon="11.08431">
    <tag k="addr:city" v="Nürnberg"/>
    <tag k="addr:country" v="DE"/>
    <tag k="addr:housenumber" v="75"/>
    <tag k="addr:postcode" v="90409"/>
    <tag k="addr:street" v="Pirckheimerstraße"/>
    <tag k="amenity" v="restaurant"/>
    <tag k="cuisine" v="japanese"/>
    <tag k="name" v="Bento Box"/>
    <tag k="opening_hours" v="Mo-Fr 11:30-14:30,17:30-23:00; Sa-Su 17:30-23:00"/>
    <tag k="phone" v="+49 911 581 588 3"/>
    <tag k="smoking" v="no"/>
    <tag k="website" v="www.lilovebento.de"/>
    <tag k="wheelchair" v="no"/>
  </node>
  <node id="600312601" version="11" timestamp="2011-11-25T08:36:14Z" uid="71557" user="Taroc" changeset="9941825" lat="49.4611646" lon="11.08431"/>
  <node id="600313559" version="6" timestamp="2011-03-19T08:35:09Z" uid="4467" user="Rosscoe" changeset="7602318" lat="-12.3365086" lon="136.8110203"/>
  <node id="600314126" version="1" timestamp="2009-12-28T09:49:30Z" uid="27600" user="Islanit" changeset="3469785" lat="26.1644812" lon="-80.2260052"/>
  <node id="600314126" version="2" timestamp="2012-03-08T03:04:07Z" uid="369983" user="grouper" changeset="10905768" lat="26.1644812" lon="-80.2260052"/>
  <node id="600314127" version="1" timestamp="2009-12-28T09:49:30Z" uid="27600" user="Islanit" changeset="3469785" lat="26.1641056" lon="-80.2259998"/>
  <node id="600314127" version="2" timestamp="2012-03-08T03:04:07Z" uid="369983" user="grouper" changeset="10905768" lat="26.1641056" lon="-80.2259998"/>
  <node id="600314129" version="1" timestamp="2009-12-28T09:49:31Z" uid="27600" user="Islanit" changeset="3469785" lat="26.1640912" lon="-80.224884"/>
  <node id="600314129" version="2" timestamp="2012-03-08T03:04:07Z" uid="369983" user="grouper" changeset="10905768" lat="26.1640912" lon="-80.224884"/>
  <node id="600314130" version="1" timestamp="2009-12-28T09:49:31Z" uid="27600" user="Islanit" changeset="3469785" lat="26.1644715" lon="-80.2249055"/>
  <node id="600314130" version="2" timestamp="2012-03-08T03:04:07Z" uid="369983" user="grouper" changeset="10905768" lat="26.1644715" lon="-80.2249055"/>
  <node id="600314131" version="1" timestamp="2009-12-28T09:49:31Z" uid="27600" user="Islanit" changeset="3469785" lat="26.1630583" lon="-80.2276842"/>
  <node id="600314131" version="2" timestamp="2012-03-08T03:04:08Z" uid="369983" user="grouper" changeset="10905768" lat="26.1630583" lon="-80.2276842"/>
  <node id="600314132" version="1" timestamp="2009-12-28T09:49:31Z" uid="27600" user="Islanit" changeset="3469785" lat="26.1630498" lon="-80.2276369"/>
  <node id="600314132" version="2" timestamp="2012-03-08T03:04:08Z" uid="369983" user="grouper" changeset="10905768" lat="26.1630498" lon="-80.2276369"/>
  <node id="600314133" version="1" timestamp="2009-12-28T09:49:31Z" uid="27600" user="Islanit" changeset="3469785" lat="26.1630563" lon="-80.2275892"/>
  <node id="600314133" version="2" timestamp="2012-03-08T03:04:08Z" uid="369983" user="grouper" changeset="10905768" lat="26.1630563" lon="-80.2275892"/>
  <node id="600314134" version="1" timestamp="2009-12-28T09:49:32Z" uid="27600" user="Islanit" changeset="3469785" lat="26.1630771" lon="-80.2275469"/>
  <node id="600314134" version="2" timestamp="2012-03-08T03:04:08Z" uid="369983" user="grouper" changeset="10905768" lat="26.1630771" lon="-80.2275469"/>
  <node id="600314135" version="1" timestamp="2009-12-28T09:49:32Z" uid="27600" user="Islanit" changeset="3469785" lat="26.1631096" lon="-80.2275151"/>
  <node id="600314135" version="2" timestamp="2012-03-08T03:04:08Z" uid="369983" user="grouper" changeset="10905768" lat="26.1631096" lon="-80.2275151"/>
  <node id="600314136" version="1" timestamp="2009-12-28T09:49:32Z" uid="27600" user="Islanit" changeset="3469785" lat="26.1631499" lon="-80.2274976"/>
  <node id="600314136" version="2" timestamp="2012-03-08T03:04:08Z" uid="369983" user="grouper" changeset="10905768" lat="26.1631499" lon="-80.2274976"/>
  <node id="600314138" version="1" timestamp="2009-12-28T09:49:32Z" uid="27600" user="Islanit" changeset="3469785" lat="26.1631791" lon="-80.227495"/>
  <node id="600314138" version="2" timestamp="2012-03-08T03:04:08Z" uid="369983" user="grouper" changeset="10905768" lat="26.1631791" lon="-80.227495"/>
  <node id="600314139" version="1" timestamp="2009-12-28T09:49:32Z" uid="27600" user="Islanit" changeset="3469785" lat="26.1632214" lon="-80.2275052"/>
  <node id="600314139" version="2" timestamp="2012-03-08T03:04:08Z" uid="369983" user="grouper" changeset="10905768" lat="26.1632214" lon="-80.2275052"/>
  <node id="600314140" version="1" timestamp="2009-12-28T09:49:32Z" uid="27600" user="Islanit" changeset="3469785" lat="26.1632581" lon="-80.2275309"/>
  <node id="600314140" version="2" timestamp="2012-03-08T03:04:08Z" uid="369983" user="grouper" changeset="10905768" lat="26.1632581" lon="-80.2275309"/>
  <node id="600314141" version="1" timestamp="2009-12-28T09:49:32Z" uid="27600" user="Islanit" changeset="3469785" lat="26.1632846" lon="-80.227569"/>
  <node id="600314141" version="2" timestamp="2012-03-08T03:04:08Z" uid="369983" user="grouper" changeset="10905768" lat="26.1632846" lon="-80.227569"/>
  <node id="600314143" version="1" timestamp="2009-12-28T09:49:33Z" uid="27600" user="Islanit" changeset="3469785" lat="26.1632978" lon="-80.2276149"/>
  <node id="600314143" version="2" timestamp="2012-03-08T03:04:08Z" uid="369983" user="grouper" changeset="10905768" lat="26.1632978" lon="-80.2276149"/>
  <node id="600314144" version="1" timestamp="2009-12-28T09:49:33Z" uid="27600" user="Islanit" changeset="3469785" lat="26.1632952" lon="-80.2276674"/>
  <node id="600314144" version="2" timestamp="2012-03-08T03:04:08Z" uid="369983" user="grouper" changeset="10905768" lat="26.1632952" lon="-80.2276674"/>
  <node id="600314145" version="1" timestamp="2009-12-28T09:49:33Z" uid="27600" user="Islanit" changeset="3469785" lat="26.1632776" lon="-80.2277114"/>
  <node id="600314145" version="2" timestamp="2012-03-08T03:04:08Z" uid="369983" user="grouper" changeset="10905768" lat="26.1632776" lon="-80.2277114"/>
  <node id="600314146" version="1" timestamp="2009-12-28T09:49:33Z" uid="27600" user="Islanit" changeset="3469785" lat="26.1632475" lon="-80.2277461"/>
  <node id="600314146" version="2" timestamp="2012-03-08T03:04:08Z" uid="369983" user="grouper" changeset="10905768" lat="26.1632475" lon="-80.2277461"/>
  <node id="600314147" version="1" timestamp="2009-12-28T09:49:33Z" uid="27600" user="Islanit" changeset="3469785" lat="26.1632086" lon="-80.2277672"/>
  <node id="600314147" version="2" timestamp="2012-03-08T03:04:09Z" uid="369983" user="grouper" changeset="10905768" lat="26.1632086" lon="-80.2277672"/>
  <node id="600314149" version="1" timestamp="2009-12-28T09:49:34Z" uid="27600" user="Islanit" changeset="3469785" lat="26.1631656" lon="-80.2277722"/>
  <node id="600314149" version="2" timestamp="2012-03-08T03:04:09Z" uid="369983" user="grouper" changeset="10905768" lat="26.1631656" lon="-80.2277722"/>
  <node id="600314150" version="1" timestamp="2009-12-28T09:49:34Z" uid="27600" user="Islanit" changeset="3469785" lat="26.1631236" lon="-80.2277605"/>
  <node id="600314150" version="2" timestamp="2012-03-08T03:04:09Z" uid="369983" user="grouper" changeset="10905768" lat="26.1631236" lon="-80.2277605"/>
  <node id="600314151" version="1" timestamp="2009-12-28T09:49:34Z" uid="27600" user="Islanit" changeset="3469785" lat="26.1630877" lon="-80.2277335"/>
  <node id="600314151" version="2" timestamp="2012-03-08T03:04:09Z" uid="369983" user="grouper" changeset="10905768" lat="26.1630877" lon="-80.2277335"/>
  <node id="600314153" version="1" timestamp="2009-12-28T09:49:35Z" uid="27600" user="Islanit" changeset="3469785" lat="26.1426347" lon="-80.22718"/>
  <node id="600314159" version="1" timestamp="2009-12-28T09:49:39Z" uid="27600" user="Islanit" changeset="3469785" lat="26.1581921" lon="-80.228443"/>
  <node id="600314159" version="2" timestamp="2012-03-08T03:04:09Z" uid="369983" user="grouper" changeset="10905768" lat="26.1581921" lon="-80.228443"/>
  <node id="600314160" version="1" timestamp="2009-12-28T09:49:39Z" uid="27600" user="Islanit" changeset="3469785" lat="26.158321" lon="-80.2282062"/>
  <node id="600314160" version="2" timestamp="2012-03-08T03:04:09Z" uid="369983" user="grouper" changeset="10905768" lat="26.158321" lon="-80.2282062"/>
  <node id="600314161" version="1" timestamp="2009-12-28T09:49:39Z" uid="27600" user="Islanit" changeset="3469785" lat="26.1585148" lon="-80.2280329"/>
  <node id="600314161" version="2" timestamp="2012-03-08T03:04:09Z" uid="369983" user="grouper" changeset="10905768" lat="26.1585148" lon="-80.2280329"/>
  <node id="600314163" version="1" timestamp="2009-12-28T09:49:39Z" uid="27600" user="Islanit" changeset="3469785" lat="26.1590452" lon="-80.227962"/>
  <node id="600314163" version="2" timestamp="2012-03-08T03:04:09Z" uid="369983" user="grouper" changeset="10905768" lat="26.1590452" lon="-80.227962"/>
  <node id="600314164" version="1" timestamp="2009-12-28T09:49:39Z" uid="27600" user="Islanit" changeset="3469785" lat="26.1592703" lon="-80.2280793"/>
  <node id="600314164" version="2" timestamp="2012-03-08T03:04:09Z" uid="369983" user="grouper" changeset="10905768" lat="26.1592703" lon="-80.2280793"/>
  <node id="600314165" version="1" timestamp="2009-12-28T09:49:40Z" uid="27600" user="Islanit" changeset="3469785" lat="26.1595429" lon="-80.228497"/>
  <node id="600314165" version="2" timestamp="2012-03-08T03:04:09Z" uid="369983" user="grouper" changeset="10905768" lat="26.1595429" lon="-80.228497"/>
  <node id="600314167" version="1" timestamp="2009-12-28T09:49:40Z" uid="27600" user="Islanit" changeset="3469785" lat="26.1595737" lon="-80.2287718"/>
  <node id="600314167" version="2" timestamp="2012-03-08T03:04:09Z" uid="369983" user="grouper" changeset="10905768" lat="26.1595737" lon="-80.2287718"/>
  <node id="600314168" version="1" timestamp="2009-12-28T09:49:40Z" uid="27600" user="Islanit" changeset="3469785" lat="26.1593313" lon="-80.2293307"/>
  <node id="600314168" version="2" timestamp="2012-03-08T03:04:09Z" uid="369983" user="grouper" changeset="10905768" lat="26.1593313" lon="-80.2293307"/>
  <node id="600314169" version="1" timestamp="2009-12-28T09:49:40Z" uid="27600" user="Islanit" changeset="3469785" lat="26.159119" lon="-80.2294745"/>
  <node id="600314169" version="2" timestamp="2012-03-08T03:04:09Z" uid="369983" user="grouper" changeset="10905768" lat="26.159119" lon="-80.2294745"/>
  <node id="600314170" version="1" timestamp="2009-12-28T09:49:40Z" uid="27600" user="Islanit" changeset="3469785" lat="26.1588753" lon="-80.2295288"/>
  <node id="600314170" version="2" timestamp="2012-03-08T03:04:09Z" uid="369983" user="grouper" changeset="10905768" lat="26.1588753" lon="-80.2295288"/>
  <node id="600314171" version="1" timestamp="2009-12-28T09:49:41Z" uid="27600" user="Islanit" changeset="3469785" lat="26.1586297" lon="-80.2294869"/>
  <node id="600314171" version="2" timestamp="2012-03-08T03:04:10Z" uid="369983" user="grouper" changeset="10905768" lat="26.1586297" lon="-80.2294869"/>
  <node id="600314173" version="1" timestamp="2009-12-28T09:49:41Z" uid="27600" user="Islanit" changeset="3469785" lat="26.1583209" lon="-80.2292571"/>
  <node id="600314173" version="2" timestamp="2012-03-08T03:04:10Z" uid="369983" user="grouper" changeset="10905768" lat="26.1583209" lon="-80.2292571"/>
  <node id="600314174" version="1" timestamp="2009-12-28T09:49:41Z" uid="27600" user="Islanit" changeset="3469785" lat="26.1581921" lon="-80.2290204"/>
  <node id="600314174" version="2" timestamp="2012-03-08T03:04:10Z" uid="369983" user="grouper" changeset="10905768" lat="26.1581921" lon="-80.2290204"/>
  <node id="600318962" version="2" timestamp="2010-08-12T12:46:22Z" uid="10712" user="Kraeml" changeset="5472902" lat="49.4610658" lon="11.0873122">
    <tag k="addr:city" v="Nürnberg"/>
    <tag k="shop" v="bakery"/>
  </node>
  <node id="600318962" version="3" timestamp="2010-08-20T20:20:32Z" uid="71557" user="Taroc" changeset="5547057" lat="49.4610512" lon="11.0873497">
    <tag k="addr:city" v="Nürnberg"/>
    <tag k="shop" v="bakery"/>
  </node>
  <node id="600318962" version="4" timestamp="2010-09-29T15:02:37Z" uid="352895" user="CarstenH" changeset="5912468" lat="49.4610512" lon="11.0873497">
    <tag k="addr:city" v="Nürnberg"/>
    <tag k="shop" v="bakery"/>
  </node>
  <node id="600318962" version="5" timestamp="2010-12-24T11:07:01Z" uid="133024" user="Universalmapper" changeset="6753481" lat="49.4610512" lon="11.0873497">
    <tag k="shop" v="bakery"/>
  </node>
  <node id="600318962" version="6" timestamp="2011-04-13T20:16:09Z" uid="71557" user="Taroc" changeset="7855499" lat="49.4610512" lon="11.0873497">
    <tag k="addr:city" v="Nürnberg"/>
    <tag k="addr:country" v="DE"/>
    <tag k="addr:housenumber" v="98"/>
    <tag k="addr:postcode" v="90409"/>
    <tag k="addr:street" v="Pirckheimerstraße"/>
    <tag k="name" v="Backhaus Walzel"/>
    <tag k="opening_hours" v="Mo-Fr 05:00-18:30;Sa 05:00-14:00;So 07:30-16:30"/>
    <tag k="shop" v="bakery"/>
  </node>
  <node id="600318962" version="7" timestamp="2011-04-15T15:26:45Z" uid="89943" user="Bengatzer" changeset="7870596" lat="49.4610512" lon="11.0873497">
    <tag k="addr:city" v="Nürnberg"/>
    <tag k="addr:country" v="DE"/>
    <tag k="addr:housenumber" v="98"/>
    <tag k="addr:postcode" v="90409"/>
    <tag k="addr:street" v="Pirckheimerstraße"/>
    <tag k="name" v="Backhaus Walzel"/>
    <tag k="opening_hours" v="Mo-Fr 05:00-18:30; Sa 05:00-14:00; Su 07:30-16:30"/>
    <tag k="shop" v="bakery"/>
  </node>
  <node id="600318962" version="8" timestamp="2011-10-29T05:09:43Z" uid="71557" user="Taroc" changeset="9681614" lat="49.461106" lon="11.0873226">
    <tag k="addr:city" v="Nürnberg"/>
    <tag k="addr:country" v="DE"/>
    <tag k="addr:housenumber" v="98"/>
    <tag k="addr:postcode" v="90409"/>
    <tag k="addr:street" v="Pirckheimerstraße"/>
    <tag k="name" v="Backhaus Walzel"/>
    <tag k="opening_hours" v="Mo-Fr 05:00-18:30; Sa 05:00-14:00; Su 07:30-16:30"/>
    <tag k="shop" v="bakery"/>
  </node>
  <node id="600318962" version="9" timestamp="2011-11-25T08:36:13Z" uid="71557" user="Taroc" changeset="9941825" lat="49.461106" lon="11.0873226"/>
  <node id="600311651" version="2" timestamp="2012-07-18T12:08:54Z" uid="722137" user="OSMF Redaction Account" changeset="12281276" lat="26.1553274" lon="-80.2583867"/>
  <node id="600311652" version="2" timestamp="2012-07-18T12:08:54Z" uid="722137" user="OSMF Redaction Account" changeset="12281276" lat="26.1552937" lon="-80.2584672"/>
  <node id="600311657" version="2" timestamp="2012-07-18T12:08:54Z" uid="722137" user="OSMF Redaction Account" changeset="12281276" lat="26.1554333" lon="-80.2620667"/>
  <node id="600311665" version="2" timestamp="2012-07-18T12:08:56Z" uid="722137" user="OSMF Redaction Account" changeset="12281276" lat="26.1572534" lon="-80.2549374"/>
  <node id="600311672" version="2" timestamp="2012-07-18T12:08:55Z" uid="722137" user="OSMF Redaction Account" changeset="12281276" lat="26.1559196" lon="-80.2555811"/>
  <node id="600311673" version="2" timestamp="2012-07-18T12:08:55Z" uid="722137" user="OSMF Redaction Account" changeset="12281276" lat="26.1565167" lon="-80.2559298"/>
  <node id="600311674" version="2" timestamp="2012-07-18T12:08:55Z" uid="722137" user="OSMF Redaction Account" changeset="12281276" lat="26.1570367" lon="-80.25608"/>
  <node id="600313559" version="7" timestamp="2012-07-19T16:33:29Z" uid="722137" user="OSMF Redaction Account" changeset="12339578" lat="-12.3364946" lon="136.8110598"/>
  <node id="600313559" version="8" timestamp="2012-07-30T15:19:42Z" uid="334389" user="ueliw0" changeset="12549493" lat="-12.3364946" lon="136.8110598"/>
  <node id="600314153" version="2" timestamp="2012-07-18T12:04:27Z" uid="722137" user="OSMF Redaction Account" changeset="12281155" lat="26.1426347" lon="-80.22718"/>
</osm>
