<?xml version='1.0' encoding='UTF-8'?>
<osm version="0.6" generator="libosmium/2.20.0">
  <node id="600761764" version="2" timestamp="2011-03-14T02:55:18Z" uid="4467" user="Rosscoe" changeset="7552527" lat="-36.728187" lon="146.9589416">
    <tag k="name" v="CyclePath"/>
    <tag k="shop" v="bicycle"/>
    <tag k="website" v="www.cyclepath.com.au"/>
  </node>
  <node id="600761768" version="3" timestamp="2010-08-30T01:27:20Z" uid="4467" user="Rosscoe" changeset="5632254" lat="-36.7275319" lon="146.9601054">
    <tag k="addr:city" v="Bright"/>
    <tag k="addr:country" v="AU"/>
    <tag k="addr:full" v="Shop 2 &amp; 3, 82-84 Gavan Street"/>
    <tag k="addr:housenumber" v="82-84"/>
    <tag k="addr:postcode" v="3741"/>
    <tag k="addr:state" v="Victoria"/>
    <tag k="addr:street" v="Gavan Street"/>
    <tag k="amenity" v="post_office"/>
    <tag k="name" v="Bright Post Office"/>
    <tag k="todo" v="exact position"/>
    <tag k="website" v="www.auspost.com.au"/>
  </node>
  <node id="600761768" version="4" timestamp="2011-03-14T02:55:25Z" uid="4467" user="Rosscoe" changeset="7552527" lat="-36.7276346" lon="146.9601221">
    <tag k="addr:city" v="Bright"/>
    <tag k="addr:country" v="AU"/>
    <tag k="addr:full" v="Shop 2 &amp; 3, 82-84 Gavan Street"/>
    <tag k="addr:housenumber" v="82-84"/>
    <tag k="addr:postcode" v="3741"/>
    <tag k="addr:state" v="Victoria"/>
    <tag k="addr:street" v="Gavan Street"/>
    <tag k="amenity" v="post_office"/>
    <tag k="name" v="Bright Post Office"/>
    <tag k="todo" v="exact position"/>
    <tag k="website" v="www.auspost.com.au"/>
  </node>
  <node id="600769012" version="2" timestamp="2011-05-16T09:40:36Z" uid="33382" user="de_muur" changeset="8160688" lat="53.5985126" lon="10.6777487"/>
  <node id="600761764" version="3" timestamp="2012-07-19T07:20:49Z" uid="722137" user="OSMF Redaction Account" changeset="12311687" lat="-36.7279791" lon="146.9589468">
    <tag k="name" v="CyclePath"/>
    <tag k="shop" v="bicycle"/>
    <tag k="website" v="www.cyclepath.com.au"/>
  </node>
  <node id="600761764" version="4" timestamp="2012-08-02T06:05:21Z" uid="38690" user="emexes" changeset="12581528" lat="-36.7282" lon="146.9590647">
    <tag k="name" v="CyclePath"/>
    <tag k="shop" v="bicycle"/>
    <tag k="website" v="www.cyclepath.com.au"/>
  </node>
  <node id="600761768" version="5" timestamp="2012-07-19T07:20:50Z" uid="722137" user="OSMF Redaction Account" changeset="12311687" lat="-36.7275319" lon="146.9601055">
    <tag k="address" v="Shop 2 &amp; 3, 82-84 Gavan Street"/>
    <tag k="amenity" v="post_office"/>
    <tag k="name" v="Bright Post Office"/>
    <tag k="todo" v="exact position"/>
    <tag k="website" v="www.auspost.com.au"/>
  </node>
  <node id="600769012" version="3" timestamp="2012-04-17T14:54:09Z" uid="63107" user="brogo" changeset="11333673" lat="53.5985126" lon="10.6777487"/>
</osm>
