<?xml version='1.0' encoding='UTF-8'?>
<osm version="0.6" generator="libosmium/2.20.0">
  <node id="606485108" version="1" timestamp="2010-01-06T12:58:06Z" uid="20587" user="balrog-kun" changeset="3553254" lat="52.2143222" lon="20.9802517">
    <tag k="amenity" v="theatre"/>
    <tag k="name" v="OCH-Teatr"/>
    <tag k="operator" v="Fundacja Krystyny Jandy na rzecz kultury"/>
  </node>
  <node id="606485117" version="1" timestamp="2010-01-06T12:58:07Z" uid="20587" user="balrog-kun" changeset="3553254" lat="52.2186784" lon="20.986248">
    <tag k="name" v="Xero"/>
    <tag k="shop" v="printing"/>
  </node>
  <node id="606485120" version="1" timestamp="2010-01-06T12:58:07Z" uid="20587" user="balrog-kun" changeset="3553254" lat="52.2189331" lon="20.9864043">
    <tag k="amenity" v="bank"/>
    <tag k="name" v="Openfinance"/>
  </node>
  <node id="606485122" version="1" timestamp="2010-01-06T12:58:07Z" uid="20587" user="balrog-kun" changeset="3553254" lat="52.2285297" lon="21.0069939">
    <tag k="amenity" v="bank"/>
    <tag k="name" v="WBK"/>
  </node>
  <node id="606485122" version="2" timestamp="2010-01-10T10:26:08Z" uid="20587" user="balrog-kun" changeset="3585409" lat="52.2287791" lon="21.0082384">
    <tag k="amenity" v="bank"/>
    <tag k="name" v="WBK"/>
  </node>
  <node id="606485127" version="1" timestamp="2010-01-06T12:58:07Z" uid="20587" user="balrog-kun" changeset="3553254" lat="52.2365879" lon="21.0168174">
    <tag k="amenity" v="cafe"/>
    <tag k="name" v="Kangaroo Club"/>
  </node>
  <node id="606485127" version="2" timestamp="2010-01-14T14:06:26Z" uid="20587" user="balrog-kun" changeset="3617185" lat="52.2366049" lon="21.016905">
    <tag k="name" v="Kangaroo Club"/>
    <tag k="shop" v="clothes"/>
  </node>
  <node id="606485131" version="1" timestamp="2010-01-06T12:58:07Z" uid="20587" user="balrog-kun" changeset="3553254" lat="52.2322715" lon="21.0208993">
    <tag k="amenity" v="telephone"/>
  </node>
  <node id="606485133" version="1" timestamp="2010-01-06T12:58:07Z" uid="20587" user="balrog-kun" changeset="3553254" lat="52.232239" lon="21.0209181">
    <tag k="amenity" v="telephone"/>
  </node>
  <node id="606485135" version="1" timestamp="2010-01-06T12:58:07Z" uid="20587" user="balrog-kun" changeset="3553254" lat="52.2363398" lon="21.0183821">
    <tag k="amenity" v="cafe"/>
    <tag k="name" v="Vincent Cafe-Piekarnia"/>
  </node>
  <node id="606485135" version="2" timestamp="2010-01-10T10:26:09Z" uid="20587" user="balrog-kun" changeset="3585409" lat="52.2362556" lon="21.0184093">
    <tag k="amenity" v="cafe"/>
    <tag k="name" v="Vincent Cafe-Piekarnia"/>
  </node>
  <node id="606485137" version="1" timestamp="2010-01-06T12:58:07Z" uid="20587" user="balrog-kun" changeset="3553254" lat="52.236391" lon="21.0186082"/>
  <node id="606485137" version="2" timestamp="2010-01-10T10:26:09Z" uid="20587" user="balrog-kun" changeset="3585409" lat="52.2363244" lon="21.018632"/>
  <node id="606485137" version="3" timestamp="2010-04-26T04:43:28Z" uid="20587" user="balrog-kun" changeset="4528260" lat="52.2363606" lon="21.0186182"/>
  <node id="606485141" version="1" timestamp="2010-01-06T12:58:08Z" uid="20587" user="balrog-kun" changeset="3553254" lat="52.2384292" lon="21.0188652">
    <tag k="amenity" v="cafe"/>
    <tag k="name" v="Cafe Vergnano 1882"/>
  </node>
  <node id="606485145" version="1" timestamp="2010-01-06T12:58:08Z" uid="20587" user="balrog-kun" changeset="3553254" lat="52.2390809" lon="21.0201772">
    <tag k="amenity" v="bar"/>
    <tag k="name" v="Wine Lounge C.K. Oboźna"/>
  </node>
  <node id="606485145" version="2" timestamp="2011-06-11T21:16:23Z" uid="100448" user="kietlak" changeset="8410181" lat="52.239035" lon="21.0202276">
    <tag k="amenity" v="bar"/>
    <tag k="name" v="Wine Lounge C.K. Oboźna"/>
  </node>
  <node id="606485108" version="2" timestamp="2012-09-06T19:40:50Z" uid="842685" user="ancymon" changeset="13014623" lat="52.2143222" lon="20.9802517">
    <tag k="addr:housenumber" v="65"/>
    <tag k="addr:street" v="Grójecka"/>
    <tag k="amenity" v="theatre"/>
    <tag k="name" v="OCH-Teatr"/>
    <tag k="operator" v="Fundacja Krystyny Jandy na rzecz kultury"/>
  </node>
  <node id="606485127" version="3" timestamp="2012-09-06T21:05:36Z" uid="842685" user="ancymon" changeset="13015819" lat="52.2366049" lon="21.016905">
    <tag k="addr:housenumber" v="4/6"/>
    <tag k="addr:street" v="Warecka"/>
    <tag k="name" v="Kangaroo Club"/>
    <tag k="shop" v="clothes"/>
  </node>
  <node id="606485135" version="3" timestamp="2012-09-06T19:49:11Z" uid="842685" user="ancymon" changeset="13014751" lat="52.2362556" lon="21.0184093">
    <tag k="addr:housenumber" v="64"/>
    <tag k="addr:street" v="Nowy Świat"/>
    <tag k="amenity" v="cafe"/>
    <tag k="name" v="Vincent Cafe-Piekarnia"/>
  </node>
</osm>
