<?xml version='1.0' encoding='UTF-8'?>
<osm version="0.6" generator="libosmium/2.20.0">
  <node id="609477907" version="1" timestamp="2010-01-08T18:10:48Z" uid="10712" user="Kraeml" changeset="3572273" lat="49.454377" lon="11.0774261">
    <tag k="amenity" v="atm"/>
  </node>
  <node id="609477907" version="2" timestamp="2011-12-30T15:40:01Z" uid="71557" user="Taroc" changeset="10246359" lat="49.454377" lon="11.0774261"/>
  <node id="609477911" version="1" timestamp="2010-01-08T18:10:48Z" uid="10712" user="Kraeml" changeset="3572273" lat="49.4543746" lon="11.0774967">
    <tag k="amenity" v="post_box"/>
    <tag k="operator" v="Deutsche Post"/>
  </node>
  <node id="609477911" version="2" timestamp="2011-12-30T15:40:01Z" uid="71557" user="Taroc" changeset="10246359" lat="49.4543746" lon="11.0774967"/>
  <node id="609477913" version="1" timestamp="2010-01-08T18:10:48Z" uid="10712" user="Kraeml" changeset="3572273" lat="49.456322" lon="11.07988">
    <tag k="amenity" v="fast_food"/>
    <tag k="cuisine" v="thai"/>
    <tag k="name" v="Tom Yam Gung"/>
  </node>
  <node id="609477913" version="2" timestamp="2010-06-25T17:34:59Z" uid="49111" user="Markus B" changeset="5075424" lat="49.4563241" lon="11.0797999">
    <tag k="addr:city" v="Nürnberg"/>
    <tag k="addr:country" v="DE"/>
    <tag k="addr:housenumber" v="17"/>
    <tag k="addr:postcode" v="90403"/>
    <tag k="addr:street" v="Tetzelgasse"/>
    <tag k="amenity" v="fast_food"/>
    <tag k="cuisine" v="thai"/>
    <tag k="name" v="Tom Yam Gung"/>
    <tag k="phone" v="+49-911-5974039"/>
    <tag k="smoking" v="no"/>
    <tag k="smoking:outside" v="yes"/>
  </node>
  <node id="609477913" version="3" timestamp="2011-10-09T18:55:49Z" uid="290680" user="wheelmap_visitor" changeset="9508573" lat="49.4563241" lon="11.0797999">
    <tag k="addr:city" v="Nürnberg"/>
    <tag k="addr:country" v="DE"/>
    <tag k="addr:housenumber" v="17"/>
    <tag k="addr:postcode" v="90403"/>
    <tag k="addr:street" v="Tetzelgasse"/>
    <tag k="amenity" v="fast_food"/>
    <tag k="cuisine" v="thai"/>
    <tag k="name" v="Tom Yam Gung"/>
    <tag k="phone" v="+49-911-5974039"/>
    <tag k="smoking" v="no"/>
    <tag k="smoking:outside" v="yes"/>
    <tag k="wheelchair" v="no"/>
  </node>
  <node id="609477913" version="4" timestamp="2011-11-11T19:12:47Z" uid="346758" user="kukuk" changeset="9799219" lat="49.4563241" lon="11.0797999"/>
  <node id="609477915" version="1" timestamp="2010-01-08T18:10:48Z" uid="10712" user="Kraeml" changeset="3572273" lat="49.4584403" lon="11.0818397">
    <tag k="amenity" v="pub"/>
    <tag k="name" v="Zur Burgschänke"/>
  </node>
  <node id="609477915" version="2" timestamp="2010-06-25T16:02:48Z" uid="49111" user="Markus B" changeset="5074896" lat="49.4583132" lon="11.081992">
    <tag k="addr:city" v="Nürnberg"/>
    <tag k="addr:country" v="DE"/>
    <tag k="addr:housenumber" v="40"/>
    <tag k="addr:postcode" v="90403"/>
    <tag k="addr:street" v="Sieben Zeilen"/>
    <tag k="amenity" v="pub"/>
    <tag k="name" v="Zur Burgtränke"/>
    <tag k="phone" v="+49-911-24027432"/>
    <tag k="smoking" v="dedicated"/>
  </node>
  <node id="609477915" version="3" timestamp="2010-08-12T12:56:47Z" uid="10712" user="Kraeml" changeset="5472979" lat="49.4583132" lon="11.081992">
    <tag k="addr:city" v="Nürnberg"/>
    <tag k="addr:country" v="DE"/>
    <tag k="addr:housenumber" v="40"/>
    <tag k="addr:postcode" v="90403"/>
    <tag k="addr:street" v="Sieben Zeilen"/>
    <tag k="amenity" v="pub"/>
    <tag k="name" v="Zur Burgtränke"/>
    <tag k="opening_hours" v="Mo-Th 13:00-23;Fr-Sa 13:00-03:00;So 13:00-17:00"/>
    <tag k="phone" v="+49-911-24027432"/>
    <tag k="smoking" v="dedicated"/>
    <tag k="wheelchair" v="no"/>
  </node>
  <node id="609477915" version="4" timestamp="2010-08-12T17:33:35Z" uid="71557" user="Taroc" changeset="5474982" lat="49.4583132" lon="11.081992">
    <tag k="addr:city" v="Nürnberg"/>
    <tag k="addr:country" v="DE"/>
    <tag k="addr:housenumber" v="40"/>
    <tag k="addr:postcode" v="90403"/>
    <tag k="addr:street" v="Sieben Zeilen"/>
    <tag k="amenity" v="pub"/>
    <tag k="name" v="Zur Burgtränke"/>
    <tag k="opening_hours" v="Mo-Th 13:00-23;Fr-Sa 13:00-03:00;So 13:00-17:00"/>
    <tag k="phone" v="+49-911-24027432"/>
    <tag k="sitting_outside" v="yes"/>
    <tag k="smoking" v="dedicated"/>
    <tag k="wheelchair" v="no"/>
  </node>
  <node id="609477915" version="5" timestamp="2010-10-01T07:17:20Z" uid="49111" user="Markus B" changeset="5925467" lat="49.4583132" lon="11.081992">
    <tag k="addr:city" v="Nürnberg"/>
    <tag k="addr:country" v="DE"/>
    <tag k="addr:housenumber" v="40"/>
    <tag k="addr:postcode" v="90403"/>
    <tag k="addr:street" v="Sieben Zeilen"/>
    <tag k="amenity" v="pub"/>
    <tag k="name" v="Zur Burgtränke"/>
    <tag k="opening_hours" v="Mo-Th 13:00-23;Fr-Sa 13:00-03:00;So 13:00-17:00"/>
    <tag k="phone" v="+49-911-24027432"/>
    <tag k="sitting_outside" v="yes"/>
    <tag k="smoking" v="no"/>
    <tag k="wheelchair" v="no"/>
  </node>
  <node id="609477915" version="6" timestamp="2010-11-21T23:13:43Z" uid="202858" user="kellerma" changeset="6428057" lat="49.4583132" lon="11.081992">
    <tag k="addr:city" v="Nürnberg"/>
    <tag k="addr:country" v="DE"/>
    <tag k="addr:housenumber" v="40"/>
    <tag k="addr:postcode" v="90403"/>
    <tag k="addr:street" v="Sieben Zeilen"/>
    <tag k="amenity" v="pub"/>
    <tag k="name" v="Zur Burgtränke"/>
    <tag k="opening_hours" v="Mo-Th 13:00-23:00; Fr-Sa 13:00-03:00; Su 13:00-17:00"/>
    <tag k="phone" v="+49-911-24027432"/>
    <tag k="sitting_outside" v="yes"/>
    <tag k="smoking" v="no"/>
    <tag k="wheelchair" v="no"/>
  </node>
  <node id="609477915" version="7" timestamp="2011-11-05T12:49:15Z" uid="346758" user="kukuk" changeset="9746013" lat="49.4583132" lon="11.081992"/>
  <node id="609477917" version="1" timestamp="2010-01-08T18:10:48Z" uid="10712" user="Kraeml" changeset="3572273" lat="49.4588336" lon="11.0822926">
    <tag k="amenity" v="recycling"/>
    <tag k="recycling:clothes" v="yes"/>
    <tag k="recycling:glass" v="yes"/>
  </node>
  <node id="609477917" version="2" timestamp="2011-12-02T22:12:29Z" uid="71557" user="Taroc" changeset="10020533" lat="49.4588336" lon="11.0822926"/>
</osm>
