<?xml version='1.0' encoding='UTF-8'?>
<osm version="0.6" generator="libosmium/2.20.0">
  <node id="610840963" version="4" timestamp="2011-01-25T13:39:58Z" uid="115477" user="wowik" changeset="7083719" lat="55.8588015" lon="37.4489361">
    <tag k="addr:housenumber" v="1"/>
    <tag k="addr:street" v="улица Фомичёвой"/>
    <tag k="historic" v="memorial"/>
    <tag k="name" v="Памятная доска Фомичёва К.Я."/>
  </node>
  <node id="610840963" version="5" timestamp="2012-02-26T10:21:31Z" uid="384084" user="Kostik" changeset="10796233" lat="55.8588015" lon="37.4489361">
    <tag k="addr:housenumber" v="1"/>
    <tag k="addr:street" v="улица Фомичёвой"/>
    <tag k="historic" v="memorial"/>
    <tag k="name" v="Памятная доска Фомичёва К.Я."/>
  </node>
  <node id="610840963" version="6" timestamp="2012-03-28T06:27:45Z" uid="481934" user="iWowik" changeset="11123401" lat="55.8588015" lon="37.4489361">
    <tag k="addr:city" v="Москва"/>
    <tag k="addr:country" v="RU"/>
    <tag k="addr:housenumber" v="1"/>
    <tag k="addr:street" v="улица Фомичёвой"/>
    <tag k="historic" v="memorial"/>
    <tag k="name" v="Памятная доска Фомичёва К.Я."/>
  </node>
  <node id="610847618" version="2" timestamp="2010-04-11T11:54:22Z" uid="20587" user="balrog-kun" changeset="4392352" lat="50.3135976" lon="16.8333226">
    <tag k="addr:postcode" v="57-540"/>
    <tag k="name" v="Kąty Bystrzyckie"/>
    <tag k="place" v="village"/>
  </node>
  <node id="610847618" version="3" timestamp="2010-04-11T13:18:19Z" uid="20587" user="balrog-kun" changeset="4392352" lat="50.3139052" lon="16.8319651">
    <tag k="addr:postcode" v="57-540"/>
    <tag k="name" v="Kąty Bystrzyckie"/>
    <tag k="place" v="village"/>
  </node>
  <node id="610847618" version="4" timestamp="2010-04-27T04:07:58Z" uid="30632" user="antblant" changeset="4537875" lat="50.3139052" lon="16.8319651">
    <tag k="addr:postcode" v="57-540"/>
    <tag k="name" v="Kąty Bystrzyckie"/>
    <tag k="place" v="village"/>
    <tag k="teryt:simc" v="0853139"/>
  </node>
  <node id="610848010" version="2" timestamp="2010-04-11T11:54:22Z" uid="20587" user="balrog-kun" changeset="4392352" lat="50.3368169" lon="16.8327347">
    <tag k="addr:postcode" v="57-540"/>
    <tag k="name" v="Skowronki"/>
    <tag k="place" v="village"/>
  </node>
  <node id="610848010" version="3" timestamp="2010-04-11T13:18:19Z" uid="20587" user="balrog-kun" changeset="4392352" lat="50.3378613" lon="16.8316139">
    <tag k="addr:postcode" v="57-540"/>
    <tag k="name" v="Skowronki"/>
    <tag k="place" v="village"/>
  </node>
  <node id="610840963" version="7" timestamp="2012-06-21T17:56:43Z" uid="206282" user="Amigo" changeset="11971071" lat="55.8588494" lon="37.4488819">
    <tag k="addr:city" v="Москва"/>
    <tag k="addr:country" v="RU"/>
    <tag k="addr:housenumber" v="1"/>
    <tag k="addr:street" v="улица Фомичёвой"/>
    <tag k="historic" v="memorial"/>
    <tag k="name" v="Памятная доска Фомичёва К.Я."/>
  </node>
  <node id="610840963" version="8" timestamp="2012-07-28T11:09:41Z" uid="206282" user="Amigo" changeset="12521764" lat="55.8588553" lon="37.4488576">
    <tag k="addr:city" v="Москва"/>
    <tag k="addr:country" v="RU"/>
    <tag k="addr:housenumber" v="1"/>
    <tag k="addr:street" v="улица Фомичёвой"/>
    <tag k="historic" v="memorial"/>
    <tag k="name" v="Памятная доска Фомичёва К.Я."/>
  </node>
</osm>
