<?xml version='1.0' encoding='UTF-8'?>
<osm version="0.6" generator="libosmium/2.20.0">
  <node id="610951173" version="1" timestamp="2010-01-10T15:12:37Z" uid="85955" user="Gerd Höweler" changeset="3587834" lat="52.0710065" lon="8.5933427"/>
  <node id="610951173" version="2" timestamp="2012-01-13T17:08:14Z" uid="461103" user="nomatrix" changeset="10380326" lat="52.0710065" lon="8.5933427"/>
  <node id="610951177" version="1" timestamp="2010-01-10T15:12:37Z" uid="85955" user="Gerd Höweler" changeset="3587834" lat="52.0706098" lon="8.5939088"/>
  <node id="610951177" version="2" timestamp="2012-01-13T17:08:14Z" uid="461103" user="nomatrix" changeset="10380326" lat="52.0706098" lon="8.5939088"/>
  <node id="610951180" version="1" timestamp="2010-01-10T15:12:37Z" uid="85955" user="Gerd Höweler" changeset="3587834" lat="52.0711396" lon="8.5936282">
    <tag k="amenity" v="bench"/>
  </node>
  <node id="610951180" version="2" timestamp="2012-01-13T17:08:14Z" uid="461103" user="nomatrix" changeset="10380326" lat="52.0711396" lon="8.5936282">
    <tag k="amenity" v="bench"/>
  </node>
  <node id="610951181" version="1" timestamp="2010-01-10T15:12:37Z" uid="85955" user="Gerd Höweler" changeset="3587834" lat="52.0711299" lon="8.593754">
    <tag k="amenity" v="bench"/>
  </node>
  <node id="610951181" version="2" timestamp="2012-01-13T17:08:15Z" uid="461103" user="nomatrix" changeset="10380326" lat="52.0711299" lon="8.593754">
    <tag k="amenity" v="bench"/>
  </node>
  <node id="610951183" version="1" timestamp="2010-01-10T15:12:37Z" uid="85955" user="Gerd Höweler" changeset="3587834" lat="52.0712218" lon="8.5935604"/>
  <node id="610951183" version="2" timestamp="2012-01-13T17:08:15Z" uid="461103" user="nomatrix" changeset="10380326" lat="52.0712218" lon="8.5935604"/>
  <node id="610951185" version="1" timestamp="2010-01-10T15:12:37Z" uid="85955" user="Gerd Höweler" changeset="3587834" lat="52.0711468" lon="8.593408"/>
  <node id="610951185" version="2" timestamp="2011-07-27T09:51:24Z" uid="461103" user="nomatrix" changeset="8843322" lat="52.0711416" lon="8.5933625"/>
  <node id="610951185" version="3" timestamp="2012-01-13T17:08:15Z" uid="461103" user="nomatrix" changeset="10380326" lat="52.0711416" lon="8.5933625"/>
  <node id="610951187" version="1" timestamp="2010-01-10T15:12:37Z" uid="85955" user="Gerd Höweler" changeset="3587834" lat="52.0712197" lon="8.5925736">
    <tag k="addr:housenumber" v="123"/>
    <tag k="addr:postcode" v="33729"/>
    <tag k="addr:street" v="Braker Straße"/>
  </node>
  <node id="610951187" version="2" timestamp="2012-01-13T17:04:35Z" uid="461103" user="nomatrix" changeset="10380326" lat="52.0712197" lon="8.5925736">
    <tag k="addr:housenumber" v="123"/>
    <tag k="addr:postcode" v="33729"/>
    <tag k="addr:street" v="Braker Straße"/>
  </node>
  <node id="610951187" version="3" timestamp="2012-03-18T02:44:43Z" uid="461103" user="nomatrix" changeset="11014621" lat="52.0712197" lon="8.5925736">
    <tag k="addr:city" v="Bielefeld"/>
    <tag k="addr:country" v="DE"/>
    <tag k="addr:housenumber" v="123"/>
    <tag k="addr:postcode" v="33729"/>
    <tag k="addr:street" v="Braker Straße"/>
  </node>
  <node id="610951190" version="1" timestamp="2010-01-10T15:12:37Z" uid="85955" user="Gerd Höweler" changeset="3587834" lat="52.0711214" lon="8.5923695">
    <tag k="addr:housenumber" v="123a"/>
    <tag k="addr:postcode" v="33729"/>
    <tag k="addr:street" v="Braker Straße"/>
  </node>
  <node id="610951190" version="2" timestamp="2012-01-13T17:04:36Z" uid="461103" user="nomatrix" changeset="10380326" lat="52.0711214" lon="8.5923695">
    <tag k="addr:housenumber" v="123a"/>
    <tag k="addr:postcode" v="33729"/>
    <tag k="addr:street" v="Braker Straße"/>
  </node>
  <node id="610951190" version="3" timestamp="2012-03-18T02:44:43Z" uid="461103" user="nomatrix" changeset="11014621" lat="52.0711214" lon="8.5923695">
    <tag k="addr:city" v="Bielefeld"/>
    <tag k="addr:country" v="DE"/>
    <tag k="addr:housenumber" v="123a"/>
    <tag k="addr:postcode" v="33729"/>
    <tag k="addr:street" v="Memmertweg"/>
  </node>
  <node id="610951192" version="1" timestamp="2010-01-10T15:12:38Z" uid="85955" user="Gerd Höweler" changeset="3587834" lat="52.0712688" lon="8.5916476">
    <tag k="addr:housenumber" v="129"/>
    <tag k="addr:postcode" v="33729"/>
    <tag k="addr:street" v="Braker Straße"/>
  </node>
  <node id="610951192" version="2" timestamp="2012-01-13T17:04:37Z" uid="461103" user="nomatrix" changeset="10380326" lat="52.0712688" lon="8.5916476">
    <tag k="addr:housenumber" v="129"/>
    <tag k="addr:postcode" v="33729"/>
    <tag k="addr:street" v="Braker Straße"/>
  </node>
  <node id="610951192" version="3" timestamp="2012-03-18T02:44:44Z" uid="461103" user="nomatrix" changeset="11014621" lat="52.0712688" lon="8.5916476">
    <tag k="addr:city" v="Bielefeld"/>
    <tag k="addr:country" v="DE"/>
    <tag k="addr:housenumber" v="129"/>
    <tag k="addr:postcode" v="33729"/>
    <tag k="addr:street" v="Braker Straße"/>
  </node>
  <node id="610951194" version="1" timestamp="2010-01-10T15:12:38Z" uid="85955" user="Gerd Höweler" changeset="3587834" lat="52.0710283" lon="8.5944845">
    <tag k="addr:housenumber" v="115"/>
    <tag k="addr:postcode" v="33729"/>
    <tag k="addr:street" v="Braker Straße"/>
  </node>
  <node id="610951194" version="2" timestamp="2012-01-13T17:04:32Z" uid="461103" user="nomatrix" changeset="10380326" lat="52.0710283" lon="8.5944845">
    <tag k="addr:housenumber" v="115"/>
    <tag k="addr:postcode" v="33729"/>
    <tag k="addr:street" v="Braker Straße"/>
  </node>
  <node id="610951194" version="3" timestamp="2012-03-18T02:44:39Z" uid="461103" user="nomatrix" changeset="11014621" lat="52.0710283" lon="8.5944845">
    <tag k="addr:city" v="Bielefeld"/>
    <tag k="addr:country" v="DE"/>
    <tag k="addr:housenumber" v="115"/>
    <tag k="addr:postcode" v="33729"/>
    <tag k="addr:street" v="Braker Straße"/>
  </node>
  <node id="610951196" version="1" timestamp="2010-01-10T15:12:38Z" uid="85955" user="Gerd Höweler" changeset="3587834" lat="52.0708057" lon="8.5942596"/>
  <node id="610951196" version="2" timestamp="2011-07-27T09:51:24Z" uid="461103" user="nomatrix" changeset="8843322" lat="52.0708913" lon="8.5943193"/>
  <node id="610951196" version="3" timestamp="2012-01-13T17:08:15Z" uid="461103" user="nomatrix" changeset="10380326" lat="52.0708913" lon="8.5943193"/>
  <node id="610951199" version="1" timestamp="2010-01-10T15:12:38Z" uid="85955" user="Gerd Höweler" changeset="3587834" lat="52.0708735" lon="8.5966931">
    <tag k="addr:housenumber" v="105"/>
    <tag k="addr:postcode" v="33729"/>
    <tag k="addr:street" v="Braker Straße"/>
  </node>
  <node id="610951199" version="2" timestamp="2011-08-08T02:54:11Z" uid="461103" user="nomatrix" changeset="8953478" lat="52.0708735" lon="8.5966931">
    <tag k="addr:city" v="Bielefeld"/>
    <tag k="addr:country" v="DE"/>
    <tag k="addr:housenumber" v="105"/>
    <tag k="addr:postcode" v="33729"/>
    <tag k="addr:street" v="Braker Straße"/>
  </node>
  <node id="610951202" version="1" timestamp="2010-01-10T15:12:38Z" uid="85955" user="Gerd Höweler" changeset="3587834" lat="52.0704767" lon="8.5966133">
    <tag k="addr:housenumber" v="105a"/>
    <tag k="addr:postcode" v="33729"/>
    <tag k="addr:street" v="Braker Straße"/>
  </node>
  <node id="610951202" version="2" timestamp="2011-08-08T02:54:11Z" uid="461103" user="nomatrix" changeset="8953478" lat="52.0704767" lon="8.5966133">
    <tag k="addr:city" v="Bielefeld"/>
    <tag k="addr:country" v="DE"/>
    <tag k="addr:housenumber" v="105a"/>
    <tag k="addr:postcode" v="33729"/>
    <tag k="addr:street" v="Braker Straße"/>
  </node>
  <node id="610951205" version="1" timestamp="2010-01-10T15:12:38Z" uid="85955" user="Gerd Höweler" changeset="3587834" lat="52.0705058" lon="8.5963835">
    <tag k="addr:housenumber" v="105b"/>
    <tag k="addr:postcode" v="33729"/>
    <tag k="addr:street" v="Braker Straße"/>
  </node>
  <node id="610951205" version="2" timestamp="2011-08-08T02:54:12Z" uid="461103" user="nomatrix" changeset="8953478" lat="52.0705058" lon="8.5963835">
    <tag k="addr:city" v="Bielefeld"/>
    <tag k="addr:country" v="DE"/>
    <tag k="addr:housenumber" v="105b"/>
    <tag k="addr:postcode" v="33729"/>
    <tag k="addr:street" v="Braker Straße"/>
  </node>
  <node id="610951208" version="1" timestamp="2010-01-10T15:12:38Z" uid="85955" user="Gerd Höweler" changeset="3587834" lat="52.0708565" lon="8.5962746">
    <tag k="addr:housenumber" v="107"/>
    <tag k="addr:postcode" v="33729"/>
    <tag k="addr:street" v="Braker Straße"/>
  </node>
  <node id="610951208" version="2" timestamp="2011-08-08T02:54:12Z" uid="461103" user="nomatrix" changeset="8953478" lat="52.0708565" lon="8.5962746">
    <tag k="addr:city" v="Bielefeld"/>
    <tag k="addr:country" v="DE"/>
    <tag k="addr:housenumber" v="107"/>
    <tag k="addr:postcode" v="33729"/>
    <tag k="addr:street" v="Braker Straße"/>
  </node>
  <node id="610951210" version="1" timestamp="2010-01-10T15:12:38Z" uid="85955" user="Gerd Höweler" changeset="3587834" lat="52.0708565" lon="8.5956191">
    <tag k="addr:housenumber" v="109"/>
    <tag k="addr:postcode" v="33729"/>
    <tag k="addr:street" v="Braker Straße"/>
  </node>
  <node id="610951210" version="2" timestamp="2011-08-08T02:54:15Z" uid="461103" user="nomatrix" changeset="8953478" lat="52.0709169" lon="8.5955873">
    <tag k="addr:city" v="Bielefeld"/>
    <tag k="addr:country" v="DE"/>
    <tag k="addr:housenumber" v="109"/>
    <tag k="addr:postcode" v="33729"/>
    <tag k="addr:street" v="Braker Straße"/>
    <tag k="amenity" v="kindergarten"/>
    <tag k="name" v="Kindergarten Braker Straße"/>
  </node>
  <node id="610951213" version="1" timestamp="2010-01-10T15:12:38Z" uid="85955" user="Gerd Höweler" changeset="3587834" lat="52.0711347" lon="8.594262"/>
  <node id="610951213" version="2" timestamp="2011-07-27T09:51:25Z" uid="461103" user="nomatrix" changeset="8843322" lat="52.0711277" lon="8.5943842"/>
  <node id="610951213" version="3" timestamp="2012-01-13T17:08:15Z" uid="461103" user="nomatrix" changeset="10380326" lat="52.0711277" lon="8.5943842"/>
  <node id="610951215" version="1" timestamp="2010-01-10T15:12:38Z" uid="85955" user="Gerd Höweler" changeset="3587834" lat="52.0708251" lon="8.5980914">
    <tag k="addr:housenumber" v="95"/>
    <tag k="addr:postcode" v="33729"/>
    <tag k="addr:street" v="Braker Straße"/>
  </node>
  <node id="610951215" version="2" timestamp="2011-08-08T02:54:14Z" uid="461103" user="nomatrix" changeset="8953478" lat="52.0708251" lon="8.5980914">
    <tag k="addr:city" v="Bielefeld"/>
    <tag k="addr:country" v="DE"/>
    <tag k="addr:housenumber" v="95"/>
    <tag k="addr:postcode" v="33729"/>
    <tag k="addr:street" v="Braker Straße"/>
  </node>
  <node id="610951218" version="1" timestamp="2010-01-10T15:12:38Z" uid="85955" user="Gerd Höweler" changeset="3587834" lat="52.0708202" lon="8.5975035">
    <tag k="addr:housenumber" v="99"/>
    <tag k="addr:postcode" v="33729"/>
    <tag k="addr:street" v="Braker Straße"/>
  </node>
  <node id="610951218" version="2" timestamp="2011-08-08T02:54:15Z" uid="461103" user="nomatrix" changeset="8953478" lat="52.0708202" lon="8.5975035">
    <tag k="addr:city" v="Bielefeld"/>
    <tag k="addr:country" v="DE"/>
    <tag k="addr:housenumber" v="99"/>
    <tag k="addr:postcode" v="33729"/>
    <tag k="addr:street" v="Braker Straße"/>
  </node>
  <node id="610951219" version="1" timestamp="2010-01-10T15:12:38Z" uid="85955" user="Gerd Höweler" changeset="3587834" lat="52.0708444" lon="8.5971165">
    <tag k="addr:housenumber" v="101"/>
    <tag k="addr:postcode" v="33729"/>
    <tag k="addr:street" v="Braker Straße"/>
  </node>
  <node id="610951219" version="2" timestamp="2011-08-08T02:54:10Z" uid="461103" user="nomatrix" changeset="8953478" lat="52.0708444" lon="8.5971165">
    <tag k="addr:city" v="Bielefeld"/>
    <tag k="addr:country" v="DE"/>
    <tag k="addr:housenumber" v="101"/>
    <tag k="addr:postcode" v="33729"/>
    <tag k="addr:street" v="Braker Straße"/>
  </node>
  <node id="610951222" version="1" timestamp="2010-01-10T15:12:38Z" uid="85955" user="Gerd Höweler" changeset="3587834" lat="52.0707162" lon="8.5993928">
    <tag k="addr:housenumber" v="89"/>
    <tag k="addr:postcode" v="33729"/>
    <tag k="addr:street" v="Braker Straße"/>
  </node>
  <node id="610951222" version="2" timestamp="2012-01-13T17:05:15Z" uid="461103" user="nomatrix" changeset="10380326" lat="52.0707162" lon="8.5993928">
    <tag k="addr:housenumber" v="89"/>
    <tag k="addr:postcode" v="33729"/>
    <tag k="addr:street" v="Braker Straße"/>
  </node>
  <node id="610951222" version="3" timestamp="2012-03-18T02:45:18Z" uid="461103" user="nomatrix" changeset="11014621" lat="52.0707162" lon="8.5993928">
    <tag k="addr:city" v="Bielefeld"/>
    <tag k="addr:country" v="DE"/>
    <tag k="addr:housenumber" v="89"/>
    <tag k="addr:postcode" v="33729"/>
    <tag k="addr:street" v="Braker Straße"/>
  </node>
  <node id="610951224" version="1" timestamp="2010-01-10T15:12:38Z" uid="85955" user="Gerd Höweler" changeset="3587834" lat="52.0707743" lon="8.5985534">
    <tag k="addr:housenumber" v="91"/>
    <tag k="addr:postcode" v="33729"/>
    <tag k="addr:street" v="Braker Straße"/>
  </node>
  <node id="610951224" version="2" timestamp="2012-01-13T17:05:18Z" uid="461103" user="nomatrix" changeset="10380326" lat="52.0707743" lon="8.5985534">
    <tag k="addr:housenumber" v="91"/>
    <tag k="addr:postcode" v="33729"/>
    <tag k="addr:street" v="Braker Straße"/>
  </node>
  <node id="610951224" version="3" timestamp="2012-03-18T02:45:20Z" uid="461103" user="nomatrix" changeset="11014621" lat="52.0707743" lon="8.5985534">
    <tag k="addr:city" v="Bielefeld"/>
    <tag k="addr:country" v="DE"/>
    <tag k="addr:housenumber" v="91"/>
    <tag k="addr:postcode" v="33729"/>
    <tag k="addr:street" v="Kerksiekweg"/>
  </node>
  <node id="610951227" version="1" timestamp="2010-01-10T15:12:39Z" uid="85955" user="Gerd Höweler" changeset="3587834" lat="52.0703394" lon="8.6000259">
    <tag k="addr:housenumber" v="81"/>
    <tag k="addr:postcode" v="33729"/>
    <tag k="addr:street" v="Braker Straße"/>
  </node>
  <node id="610951227" version="2" timestamp="2012-01-13T17:05:11Z" uid="461103" user="nomatrix" changeset="10380326" lat="52.0703394" lon="8.6000259">
    <tag k="addr:housenumber" v="81"/>
    <tag k="addr:postcode" v="33729"/>
    <tag k="addr:street" v="Braker Straße"/>
  </node>
  <node id="610951227" version="3" timestamp="2012-03-18T02:45:14Z" uid="461103" user="nomatrix" changeset="11014621" lat="52.0703394" lon="8.6000259">
    <tag k="addr:city" v="Bielefeld"/>
    <tag k="addr:country" v="DE"/>
    <tag k="addr:housenumber" v="81"/>
    <tag k="addr:postcode" v="33729"/>
    <tag k="addr:street" v="Braker Straße"/>
  </node>
  <node id="610951230" version="1" timestamp="2010-01-10T15:12:39Z" uid="85955" user="Gerd Höweler" changeset="3587834" lat="52.0703123" lon="8.5997317">
    <tag k="amenity" v="doctors"/>
    <tag k="name" v="Dr. A. Niekamp"/>
  </node>
  <node id="610951230" version="2" timestamp="2011-07-12T03:06:09Z" uid="461103" user="nomatrix" changeset="8699284" lat="52.0703123" lon="8.5997317">
    <tag k="addr:city" v="Bielefeld"/>
    <tag k="addr:country" v="DE"/>
    <tag k="addr:postcode" v="33729"/>
    <tag k="addr:street" v="Braker Straße"/>
    <tag k="amenity" v="doctors"/>
    <tag k="name" v="Dr. A. Niekamp"/>
  </node>
  <node id="610951232" version="1" timestamp="2010-01-10T15:12:39Z" uid="85955" user="Gerd Höweler" changeset="3587834" lat="52.0703781" lon="8.5997433">
    <tag k="addr:housenumber" v="83"/>
    <tag k="addr:postcode" v="33729"/>
    <tag k="addr:street" v="Braker Straße"/>
  </node>
  <node id="610951232" version="2" timestamp="2012-01-13T17:05:13Z" uid="461103" user="nomatrix" changeset="10380326" lat="52.0703781" lon="8.5997433">
    <tag k="addr:housenumber" v="83"/>
    <tag k="addr:postcode" v="33729"/>
    <tag k="addr:street" v="Braker Straße"/>
  </node>
  <node id="610951232" version="3" timestamp="2012-03-18T02:45:15Z" uid="461103" user="nomatrix" changeset="11014621" lat="52.0703781" lon="8.5997433">
    <tag k="addr:city" v="Bielefeld"/>
    <tag k="addr:country" v="DE"/>
    <tag k="addr:housenumber" v="83"/>
    <tag k="addr:postcode" v="33729"/>
    <tag k="addr:street" v="Braker Straße"/>
  </node>
  <node id="610951234" version="1" timestamp="2010-01-10T15:12:39Z" uid="85955" user="Gerd Höweler" changeset="3587834" lat="52.0706181" lon="8.6007613">
    <tag k="addr:housenumber" v="77"/>
    <tag k="addr:postcode" v="33729"/>
    <tag k="addr:street" v="Braker Straße"/>
  </node>
  <node id="610951234" version="2" timestamp="2012-01-13T17:05:09Z" uid="461103" user="nomatrix" changeset="10380326" lat="52.0706181" lon="8.6007613">
    <tag k="addr:housenumber" v="77"/>
    <tag k="addr:postcode" v="33729"/>
    <tag k="addr:street" v="Braker Straße"/>
  </node>
  <node id="610951234" version="3" timestamp="2012-03-18T02:45:12Z" uid="461103" user="nomatrix" changeset="11014621" lat="52.0706181" lon="8.6007613">
    <tag k="addr:city" v="Bielefeld"/>
    <tag k="addr:country" v="DE"/>
    <tag k="addr:housenumber" v="77"/>
    <tag k="addr:postcode" v="33729"/>
    <tag k="addr:street" v="Braker Straße"/>
  </node>
  <node id="610951237" version="1" timestamp="2010-01-10T15:12:39Z" uid="85955" user="Gerd Höweler" changeset="3587834" lat="52.0706654" lon="8.5998258">
    <tag k="addr:housenumber" v="85"/>
    <tag k="addr:postcode" v="33729"/>
    <tag k="addr:street" v="Braker Straße"/>
  </node>
  <node id="610951237" version="2" timestamp="2012-01-13T17:05:13Z" uid="461103" user="nomatrix" changeset="10380326" lat="52.0706654" lon="8.5998258">
    <tag k="addr:housenumber" v="85"/>
    <tag k="addr:postcode" v="33729"/>
    <tag k="addr:street" v="Braker Straße"/>
  </node>
  <node id="610951237" version="3" timestamp="2012-03-18T02:45:16Z" uid="461103" user="nomatrix" changeset="11014621" lat="52.0706654" lon="8.5998258">
    <tag k="addr:city" v="Bielefeld"/>
    <tag k="addr:country" v="DE"/>
    <tag k="addr:housenumber" v="85"/>
    <tag k="addr:postcode" v="33729"/>
    <tag k="addr:street" v="Braker Straße"/>
  </node>
  <node id="610951240" version="1" timestamp="2010-01-10T15:12:39Z" uid="85955" user="Gerd Höweler" changeset="3587834" lat="52.0703607" lon="8.602203">
    <tag k="addr:housenumber" v="69"/>
    <tag k="addr:postcode" v="33729"/>
    <tag k="addr:street" v="Braker Straße"/>
  </node>
  <node id="610951240" version="2" timestamp="2012-01-13T17:05:05Z" uid="461103" user="nomatrix" changeset="10380326" lat="52.0703607" lon="8.602203">
    <tag k="addr:housenumber" v="69"/>
    <tag k="addr:postcode" v="33729"/>
    <tag k="addr:street" v="Braker Straße"/>
  </node>
  <node id="610951240" version="3" timestamp="2012-03-18T02:45:09Z" uid="461103" user="nomatrix" changeset="11014621" lat="52.0703607" lon="8.602203">
    <tag k="addr:city" v="Bielefeld"/>
    <tag k="addr:country" v="DE"/>
    <tag k="addr:housenumber" v="69"/>
    <tag k="addr:postcode" v="33729"/>
    <tag k="addr:street" v="Braker Straße"/>
  </node>
  <node id="610951242" version="1" timestamp="2010-01-10T15:12:39Z" uid="85955" user="Gerd Höweler" changeset="3587834" lat="52.0702775" lon="8.6021217">
    <tag k="amenity" v="doctors"/>
    <tag k="name" v="Dr. Niedergassel"/>
  </node>
  <node id="610951242" version="2" timestamp="2010-02-13T16:42:15Z" uid="85955" user="Gerd Höweler" changeset="3866274" lat="52.0702775" lon="8.6021217">
    <tag k="amenity" v="doctors"/>
    <tag k="name" v="Stefan A. Otting"/>
    <tag k="website" v="http://www.praxis-otting.de/"/>
  </node>
  <node id="610951242" version="3" timestamp="2010-12-10T16:47:09Z" uid="290680" user="wheelmap_visitor" changeset="6607185" lat="52.0702775" lon="8.6021217">
    <tag k="amenity" v="doctors"/>
    <tag k="name" v="Stefan A. Otting"/>
    <tag k="website" v="http://www.praxis-otting.de/"/>
    <tag k="wheelchair" v="limited"/>
  </node>
  <node id="610951242" version="4" timestamp="2011-07-12T03:07:51Z" uid="461103" user="nomatrix" changeset="8699284" lat="52.0702775" lon="8.6021217">
    <tag k="addr:city" v="Bielefeld"/>
    <tag k="addr:country" v="DE"/>
    <tag k="addr:postcode" v="33729"/>
    <tag k="addr:street" v="Braker Straße"/>
    <tag k="amenity" v="doctors"/>
    <tag k="name" v="Stefan A. Otting"/>
    <tag k="website" v="http://www.praxis-otting.de/"/>
    <tag k="wheelchair" v="limited"/>
  </node>
  <node id="610951245" version="1" timestamp="2010-01-10T15:12:39Z" uid="85955" user="Gerd Höweler" changeset="3587834" lat="52.0702407" lon="8.602114">
    <tag k="amenity" v="doctors"/>
    <tag k="name" v="Dr. Niedergassel"/>
  </node>
  <node id="610951245" version="2" timestamp="2010-02-13T16:42:15Z" uid="85955" user="Gerd Höweler" changeset="3866274" lat="52.0702407" lon="8.602114">
    <tag k="amenity" v="doctors"/>
    <tag k="name" v="Rolf Otting"/>
  </node>
  <node id="610951245" version="3" timestamp="2011-07-12T03:06:29Z" uid="461103" user="nomatrix" changeset="8699284" lat="52.0702407" lon="8.602114">
    <tag k="addr:city" v="Bielefeld"/>
    <tag k="addr:country" v="DE"/>
    <tag k="addr:postcode" v="33729"/>
    <tag k="addr:street" v="Braker Straße"/>
    <tag k="amenity" v="doctors"/>
    <tag k="name" v="Rolf Otting"/>
  </node>
  <node id="610951247" version="1" timestamp="2010-01-10T15:12:39Z" uid="85955" user="Gerd Höweler" changeset="3587834" lat="52.0701943" lon="8.6021024">
    <tag k="amenity" v="doctors"/>
    <tag k="name" v="Dr. Niedergassel"/>
  </node>
  <node id="610951247" version="2" timestamp="2010-02-13T16:42:15Z" uid="85955" user="Gerd Höweler" changeset="3866274" lat="52.0701943" lon="8.6021024">
    <tag k="amenity" v="doctors"/>
    <tag k="name" v="Franz Storms"/>
  </node>
  <node id="610951247" version="3" timestamp="2011-07-12T03:06:14Z" uid="461103" user="nomatrix" changeset="8699284" lat="52.0701943" lon="8.6021024">
    <tag k="addr:city" v="Bielefeld"/>
    <tag k="addr:country" v="DE"/>
    <tag k="addr:postcode" v="33729"/>
    <tag k="addr:street" v="Braker Straße"/>
    <tag k="amenity" v="doctors"/>
    <tag k="name" v="Franz Storms"/>
  </node>
  <node id="610951249" version="1" timestamp="2010-01-10T15:12:39Z" uid="85955" user="Gerd Höweler" changeset="3587834" lat="52.0693989" lon="8.6067528">
    <tag k="addr:housenumber" v="41"/>
    <tag k="addr:postcode" v="33729"/>
    <tag k="addr:street" v="Braker Straße"/>
  </node>
  <node id="610951249" version="2" timestamp="2012-01-13T17:04:55Z" uid="461103" user="nomatrix" changeset="10380326" lat="52.0693989" lon="8.6067528">
    <tag k="addr:housenumber" v="41"/>
    <tag k="addr:postcode" v="33729"/>
    <tag k="addr:street" v="Braker Straße"/>
  </node>
  <node id="610951249" version="3" timestamp="2012-03-18T02:45:00Z" uid="461103" user="nomatrix" changeset="11014621" lat="52.0693989" lon="8.6067528">
    <tag k="addr:city" v="Bielefeld"/>
    <tag k="addr:country" v="DE"/>
    <tag k="addr:housenumber" v="41"/>
    <tag k="addr:postcode" v="33729"/>
    <tag k="addr:street" v="Braker Straße"/>
  </node>
  <node id="610951252" version="1" timestamp="2010-01-10T15:12:39Z" uid="85955" user="Gerd Höweler" changeset="3587834" lat="52.0688202" lon="8.6089516">
    <tag k="addr:housenumber" v="23"/>
    <tag k="addr:postcode" v="33729"/>
    <tag k="addr:street" v="Braker Straße"/>
  </node>
  <node id="610951252" version="2" timestamp="2011-07-22T15:42:03Z" uid="461103" user="nomatrix" changeset="8798766" lat="52.0688202" lon="8.6089516">
    <tag k="addr:city" v="Bielefeld"/>
    <tag k="addr:country" v="DE"/>
    <tag k="addr:housenumber" v="23"/>
    <tag k="addr:postcode" v="33729"/>
    <tag k="addr:street" v="Braker Straße"/>
  </node>
  <node id="610951255" version="1" timestamp="2010-01-10T15:12:39Z" uid="85955" user="Gerd Höweler" changeset="3587834" lat="52.0688666" lon="8.6087078">
    <tag k="addr:housenumber" v="25"/>
    <tag k="addr:postcode" v="33729"/>
    <tag k="addr:street" v="Braker Straße"/>
  </node>
  <node id="610951255" version="2" timestamp="2011-07-22T15:42:05Z" uid="461103" user="nomatrix" changeset="8798766" lat="52.0688666" lon="8.6087078">
    <tag k="addr:city" v="Bielefeld"/>
    <tag k="addr:country" v="DE"/>
    <tag k="addr:housenumber" v="25"/>
    <tag k="addr:postcode" v="33729"/>
    <tag k="addr:street" v="Braker Straße"/>
  </node>
  <node id="610951257" version="1" timestamp="2010-01-10T15:12:39Z" uid="85955" user="Gerd Höweler" changeset="3587834" lat="52.0689266" lon="8.6085201">
    <tag k="addr:housenumber" v="27"/>
    <tag k="addr:postcode" v="33729"/>
    <tag k="addr:street" v="Braker Straße"/>
  </node>
  <node id="610951257" version="2" timestamp="2011-07-22T15:42:06Z" uid="461103" user="nomatrix" changeset="8798766" lat="52.0689266" lon="8.6085201">
    <tag k="addr:city" v="Bielefeld"/>
    <tag k="addr:country" v="DE"/>
    <tag k="addr:housenumber" v="27"/>
    <tag k="addr:postcode" v="33729"/>
    <tag k="addr:street" v="Braker Straße"/>
  </node>
  <node id="610951258" version="1" timestamp="2010-01-10T15:12:39Z" uid="85955" user="Gerd Höweler" changeset="3587834" lat="52.0690001" lon="8.608284">
    <tag k="addr:housenumber" v="29"/>
    <tag k="addr:postcode" v="33729"/>
    <tag k="addr:street" v="Braker Straße"/>
  </node>
  <node id="610951258" version="2" timestamp="2011-07-22T15:42:07Z" uid="461103" user="nomatrix" changeset="8798766" lat="52.0690001" lon="8.608284">
    <tag k="addr:city" v="Bielefeld"/>
    <tag k="addr:country" v="DE"/>
    <tag k="addr:housenumber" v="29"/>
    <tag k="addr:postcode" v="33729"/>
    <tag k="addr:street" v="Braker Straße"/>
  </node>
  <node id="610951260" version="1" timestamp="2010-01-10T15:12:39Z" uid="85955" user="Gerd Höweler" changeset="3587834" lat="52.0689812" lon="8.6082851">
    <tag k="amenity" v="Elektro-Installateur"/>
    <tag k="name" v="Elektro Junker"/>
  </node>
  <node id="610951260" version="2" timestamp="2010-02-13T16:42:16Z" uid="85955" user="Gerd Höweler" changeset="3866274" lat="52.0689812" lon="8.6082851">
    <tag k="amenity" v="Elektro-Installateur"/>
    <tag k="name" v="Elektro Junker"/>
  </node>
  <node id="610951260" version="3" timestamp="2011-07-27T09:47:17Z" uid="461103" user="nomatrix" changeset="8843322" lat="52.0689812" lon="8.6082851">
    <tag k="addr:city" v="Bielefeld"/>
    <tag k="addr:country" v="DE"/>
    <tag k="addr:postcode" v="33729"/>
    <tag k="addr:street" v="Braker Straße"/>
    <tag k="amenity" v="Elektro-Installateur"/>
    <tag k="name" v="Elektro Junker"/>
  </node>
  <node id="610951261" version="1" timestamp="2010-01-10T15:12:40Z" uid="85955" user="Gerd Höweler" changeset="3587834" lat="52.0689675" lon="8.6082839">
    <tag k="amenity" v="IT"/>
    <tag k="name" v="junker-it"/>
  </node>
  <node id="610951261" version="2" timestamp="2010-02-13T16:42:16Z" uid="85955" user="Gerd Höweler" changeset="3866274" lat="52.0689675" lon="8.6082839">
    <tag k="amenity" v="IT"/>
    <tag k="name" v="junker-it"/>
    <tag k="website" v="http://www.junker-it.com/"/>
  </node>
  <node id="610951261" version="3" timestamp="2012-01-13T17:05:23Z" uid="461103" user="nomatrix" changeset="10380326" lat="52.0689675" lon="8.6082839">
    <tag k="amenity" v="IT"/>
    <tag k="name" v="junker-it"/>
    <tag k="website" v="http://www.junker-it.com/"/>
  </node>
  <node id="610951262" version="1" timestamp="2010-01-10T15:12:40Z" uid="85955" user="Gerd Höweler" changeset="3587834" lat="52.068944" lon="8.6082802">
    <tag k="name" v="Radsport Junker"/>
    <tag k="shop" v="bicycle"/>
  </node>
  <node id="610951262" version="2" timestamp="2010-02-13T16:42:15Z" uid="85955" user="Gerd Höweler" changeset="3866274" lat="52.068944" lon="8.6082802">
    <tag k="name" v="Radsport Junker"/>
    <tag k="shop" v="bicycle"/>
    <tag k="website" v="http://radsport-junker.de/"/>
  </node>
  <node id="610951262" version="3" timestamp="2011-11-08T20:18:39Z" uid="290680" user="wheelmap_visitor" changeset="9770655" lat="52.068944" lon="8.6082802">
    <tag k="name" v="Radsport Junker"/>
    <tag k="shop" v="bicycle"/>
    <tag k="website" v="http://radsport-junker.de/"/>
    <tag k="wheelchair" v="no"/>
  </node>
  <node id="610951263" version="1" timestamp="2010-01-10T15:12:40Z" uid="85955" user="Gerd Höweler" changeset="3587834" lat="52.0691128" lon="8.6078731">
    <tag k="addr:housenumber" v="33"/>
    <tag k="addr:postcode" v="33729"/>
    <tag k="addr:street" v="Braker Straße"/>
  </node>
  <node id="610951263" version="2" timestamp="2011-07-22T15:42:09Z" uid="461103" user="nomatrix" changeset="8798766" lat="52.0691128" lon="8.6078731">
    <tag k="addr:city" v="Bielefeld"/>
    <tag k="addr:country" v="DE"/>
    <tag k="addr:housenumber" v="33"/>
    <tag k="addr:postcode" v="33729"/>
    <tag k="addr:street" v="Braker Straße"/>
  </node>
  <node id="610951264" version="1" timestamp="2010-01-10T15:12:40Z" uid="85955" user="Gerd Höweler" changeset="3587834" lat="52.0683965" lon="8.6103522">
    <tag k="addr:housenumber" v="13"/>
    <tag k="addr:postcode" v="33729"/>
    <tag k="addr:street" v="Braker Straße"/>
  </node>
  <node id="610951264" version="2" timestamp="2012-01-13T17:04:37Z" uid="461103" user="nomatrix" changeset="10380326" lat="52.0683965" lon="8.6103522">
    <tag k="addr:housenumber" v="13"/>
    <tag k="addr:postcode" v="33729"/>
    <tag k="addr:street" v="Braker Straße"/>
  </node>
  <node id="610951264" version="3" timestamp="2012-03-18T02:44:45Z" uid="461103" user="nomatrix" changeset="11014621" lat="52.0683965" lon="8.6103522">
    <tag k="addr:city" v="Bielefeld"/>
    <tag k="addr:country" v="DE"/>
    <tag k="addr:housenumber" v="13"/>
    <tag k="addr:postcode" v="33729"/>
    <tag k="addr:street" v="Braker Straße"/>
  </node>
  <node id="610951265" version="1" timestamp="2010-01-10T15:12:40Z" uid="85955" user="Gerd Höweler" changeset="3587834" lat="52.0687079" lon="8.60942">
    <tag k="addr:housenumber" v="19"/>
    <tag k="addr:postcode" v="33729"/>
    <tag k="addr:street" v="Braker Straße"/>
  </node>
  <node id="610951265" version="2" timestamp="2011-07-22T15:42:00Z" uid="461103" user="nomatrix" changeset="8798766" lat="52.0687079" lon="8.60942">
    <tag k="addr:city" v="Bielefeld"/>
    <tag k="addr:country" v="DE"/>
    <tag k="addr:housenumber" v="19"/>
    <tag k="addr:postcode" v="33729"/>
    <tag k="addr:street" v="Braker Straße"/>
  </node>
  <node id="610951268" version="1" timestamp="2010-01-10T15:12:40Z" uid="85955" user="Gerd Höweler" changeset="3587834" lat="52.0687679" lon="8.6091645">
    <tag k="addr:housenumber" v="21"/>
    <tag k="addr:postcode" v="33729"/>
    <tag k="addr:street" v="Braker Straße"/>
  </node>
  <node id="610951268" version="2" timestamp="2011-07-22T15:42:01Z" uid="461103" user="nomatrix" changeset="8798766" lat="52.0687679" lon="8.6091645">
    <tag k="addr:city" v="Bielefeld"/>
    <tag k="addr:country" v="DE"/>
    <tag k="addr:housenumber" v="21"/>
    <tag k="addr:postcode" v="33729"/>
    <tag k="addr:street" v="Braker Straße"/>
  </node>
  <node id="610951270" version="1" timestamp="2010-01-10T15:12:40Z" uid="85955" user="Gerd Höweler" changeset="3587834" lat="52.0686518" lon="8.6096522">
    <tag k="addr:housenumber" v="17"/>
    <tag k="addr:postcode" v="33729"/>
    <tag k="addr:street" v="Braker Straße"/>
  </node>
  <node id="610951270" version="2" timestamp="2011-07-22T15:41:58Z" uid="461103" user="nomatrix" changeset="8798766" lat="52.0686518" lon="8.6096522">
    <tag k="addr:city" v="Bielefeld"/>
    <tag k="addr:country" v="DE"/>
    <tag k="addr:housenumber" v="17"/>
    <tag k="addr:postcode" v="33729"/>
    <tag k="addr:street" v="Braker Straße"/>
  </node>
  <node id="610951273" version="1" timestamp="2010-01-10T15:12:40Z" uid="85955" user="Gerd Höweler" changeset="3587834" lat="52.0686034" lon="8.6096348">
    <tag k="amenity" v="driving_school"/>
    <tag k="name" v="Bohnenkamp"/>
  </node>
  <node id="610951273" version="2" timestamp="2010-02-13T16:42:16Z" uid="85955" user="Gerd Höweler" changeset="3866274" lat="52.0686034" lon="8.6096348">
    <tag k="amenity" v="driving_school"/>
    <tag k="name" v="Bohnenkamp"/>
    <tag k="website" v="http://www.fahrschule-bohnenkamp.de/"/>
  </node>
  <node id="610951273" version="3" timestamp="2012-01-13T17:04:27Z" uid="461103" user="nomatrix" changeset="10380326" lat="52.0686034" lon="8.6096348">
    <tag k="amenity" v="driving_school"/>
    <tag k="name" v="Bohnenkamp"/>
    <tag k="website" v="http://www.fahrschule-bohnenkamp.de/"/>
  </node>
  <node id="610951275" version="1" timestamp="2010-01-10T15:12:40Z" uid="85955" user="Gerd Höweler" changeset="3587834" lat="52.0681255" lon="8.6115191">
    <tag k="addr:housenumber" v="1"/>
    <tag k="addr:postcode" v="33729"/>
    <tag k="addr:street" v="Braker Straße"/>
  </node>
  <node id="610951275" version="2" timestamp="2011-07-22T15:41:56Z" uid="461103" user="nomatrix" changeset="8798766" lat="52.0681255" lon="8.6115191">
    <tag k="addr:city" v="Bielefeld"/>
    <tag k="addr:country" v="DE"/>
    <tag k="addr:housenumber" v="1"/>
    <tag k="addr:postcode" v="33729"/>
    <tag k="addr:street" v="Braker Straße"/>
  </node>
  <node id="610951299" version="1" timestamp="2010-01-10T15:12:41Z" uid="85955" user="Gerd Höweler" changeset="3587834" lat="52.0682029" lon="8.611134">
    <tag k="addr:housenumber" v="18"/>
    <tag k="addr:postcode" v="33729"/>
    <tag k="addr:street" v="Braker Straße"/>
  </node>
  <node id="610951299" version="2" timestamp="2011-07-22T15:41:59Z" uid="461103" user="nomatrix" changeset="8798766" lat="52.0682029" lon="8.611134">
    <tag k="addr:city" v="Bielefeld"/>
    <tag k="addr:country" v="DE"/>
    <tag k="addr:housenumber" v="18"/>
    <tag k="addr:postcode" v="33729"/>
    <tag k="addr:street" v="Braker Straße"/>
  </node>
  <node id="610951303" version="1" timestamp="2010-01-10T15:12:41Z" uid="85955" user="Gerd Höweler" changeset="3587834" lat="52.0682997" lon="8.610716">
    <tag k="addr:housenumber" v="11"/>
    <tag k="addr:postcode" v="33729"/>
    <tag k="addr:street" v="Braker Straße"/>
  </node>
  <node id="610951303" version="2" timestamp="2011-07-22T15:41:57Z" uid="461103" user="nomatrix" changeset="8798766" lat="52.0682997" lon="8.610716">
    <tag k="addr:city" v="Bielefeld"/>
    <tag k="addr:country" v="DE"/>
    <tag k="addr:housenumber" v="11"/>
    <tag k="addr:postcode" v="33729"/>
    <tag k="addr:street" v="Braker Straße"/>
  </node>
  <node id="610951306" version="1" timestamp="2010-01-10T15:12:42Z" uid="85955" user="Gerd Höweler" changeset="3587834" lat="52.0701633" lon="8.6035945">
    <tag k="addr:housenumber" v="61"/>
    <tag k="addr:postcode" v="33729"/>
    <tag k="addr:street" v="Braker Straße"/>
  </node>
  <node id="610951306" version="2" timestamp="2012-01-13T17:05:03Z" uid="461103" user="nomatrix" changeset="10380326" lat="52.0701633" lon="8.6035945">
    <tag k="addr:housenumber" v="61"/>
    <tag k="addr:postcode" v="33729"/>
    <tag k="addr:street" v="Braker Straße"/>
  </node>
  <node id="610951306" version="3" timestamp="2012-03-18T02:45:07Z" uid="461103" user="nomatrix" changeset="11014621" lat="52.0701633" lon="8.6035945">
    <tag k="addr:city" v="Bielefeld"/>
    <tag k="addr:country" v="DE"/>
    <tag k="addr:housenumber" v="61"/>
    <tag k="addr:postcode" v="33729"/>
    <tag k="addr:street" v="Braker Straße"/>
  </node>
  <node id="610951311" version="1" timestamp="2010-01-10T15:12:42Z" uid="85955" user="Gerd Höweler" changeset="3587834" lat="52.0700317" lon="8.6042834">
    <tag k="name" v="sf Computer"/>
    <tag k="shop" v="computer"/>
  </node>
  <node id="610951311" version="2" timestamp="2010-02-13T16:42:16Z" uid="85955" user="Gerd Höweler" changeset="3866274" lat="52.0700317" lon="8.6042834">
    <tag k="name" v="sf Computer"/>
    <tag k="shop" v="computer"/>
    <tag k="website" v="http://www.sf-computer.net/"/>
  </node>
  <node id="610951311" version="3" timestamp="2011-07-12T03:08:01Z" uid="461103" user="nomatrix" changeset="8699284" lat="52.0700317" lon="8.6042834">
    <tag k="addr:city" v="Bielefeld"/>
    <tag k="addr:country" v="DE"/>
    <tag k="addr:postcode" v="33729"/>
    <tag k="addr:street" v="Braker Straße"/>
    <tag k="name" v="sf Computer"/>
    <tag k="shop" v="computer"/>
    <tag k="website" v="http://www.sf-computer.net/"/>
  </node>
  <node id="610951311" version="4" timestamp="2011-07-23T09:01:07Z" uid="461103" user="nomatrix" changeset="8804277" lat="52.0700317" lon="8.6042834">
    <tag k="addr:city" v="Bielefeld"/>
    <tag k="addr:country" v="DE"/>
    <tag k="addr:housenumber" v="55"/>
    <tag k="addr:postcode" v="33729"/>
    <tag k="addr:street" v="Braker Straße"/>
    <tag k="name" v="sf Computer"/>
    <tag k="shop" v="computer"/>
    <tag k="website" v="http://www.sf-computer.net/"/>
  </node>
  <node id="610951313" version="1" timestamp="2010-01-10T15:12:42Z" uid="85955" user="Gerd Höweler" changeset="3587834" lat="52.0700897" lon="8.6042795">
    <tag k="addr:housenumber" v="55"/>
    <tag k="addr:postcode" v="33729"/>
    <tag k="addr:street" v="Braker Straße"/>
  </node>
  <node id="610951313" version="2" timestamp="2011-04-25T17:07:09Z" uid="5359" user="user_5359" changeset="7966007" lat="52.0700897" lon="8.6042795">
    <tag k="addr:city" v="Bielefeld"/>
    <tag k="addr:country" v="DE"/>
    <tag k="addr:housenumber" v="55"/>
    <tag k="addr:postcode" v="33729"/>
    <tag k="addr:street" v="Braker Straße"/>
  </node>
  <node id="610951316" version="1" timestamp="2010-01-10T15:12:42Z" uid="85955" user="Gerd Höweler" changeset="3587834" lat="52.0701246" lon="8.603997">
    <tag k="addr:housenumber" v="57"/>
    <tag k="addr:postcode" v="33729"/>
    <tag k="addr:street" v="Braker Straße"/>
  </node>
  <node id="610951316" version="2" timestamp="2012-01-13T17:05:00Z" uid="461103" user="nomatrix" changeset="10380326" lat="52.0701246" lon="8.603997">
    <tag k="addr:housenumber" v="57"/>
    <tag k="addr:postcode" v="33729"/>
    <tag k="addr:street" v="Braker Straße"/>
  </node>
  <node id="610951316" version="3" timestamp="2012-03-18T02:45:04Z" uid="461103" user="nomatrix" changeset="11014621" lat="52.0701246" lon="8.603997">
    <tag k="addr:city" v="Bielefeld"/>
    <tag k="addr:country" v="DE"/>
    <tag k="addr:housenumber" v="57"/>
    <tag k="addr:postcode" v="33729"/>
    <tag k="addr:street" v="Braker Straße"/>
  </node>
  <node id="610951319" version="1" timestamp="2010-01-10T15:12:42Z" uid="85955" user="Gerd Höweler" changeset="3587834" lat="52.0701536" lon="8.6037822">
    <tag k="addr:housenumber" v="59a"/>
    <tag k="addr:postcode" v="33729"/>
    <tag k="addr:street" v="Braker Straße"/>
  </node>
  <node id="610951319" version="2" timestamp="2012-01-13T17:05:01Z" uid="461103" user="nomatrix" changeset="10380326" lat="52.0701536" lon="8.6037822">
    <tag k="addr:housenumber" v="59a"/>
    <tag k="addr:postcode" v="33729"/>
    <tag k="addr:street" v="Braker Straße"/>
  </node>
  <node id="610951319" version="3" timestamp="2012-03-18T02:45:05Z" uid="461103" user="nomatrix" changeset="11014621" lat="52.0701536" lon="8.6037822">
    <tag k="addr:city" v="Bielefeld"/>
    <tag k="addr:country" v="DE"/>
    <tag k="addr:housenumber" v="59a"/>
    <tag k="addr:postcode" v="33729"/>
    <tag k="addr:street" v="Braker Straße"/>
  </node>
  <node id="610951324" version="1" timestamp="2010-01-10T15:12:42Z" uid="85955" user="Gerd Höweler" changeset="3587834" lat="52.0700452" lon="8.604922">
    <tag k="addr:housenumber" v="51"/>
    <tag k="addr:postcode" v="33729"/>
    <tag k="addr:street" v="Braker Straße"/>
  </node>
  <node id="610951324" version="2" timestamp="2011-04-25T17:07:09Z" uid="5359" user="user_5359" changeset="7966007" lat="52.0700452" lon="8.604922">
    <tag k="addr:city" v="Bielefeld"/>
    <tag k="addr:country" v="DE"/>
    <tag k="addr:housenumber" v="51"/>
    <tag k="addr:postcode" v="33729"/>
    <tag k="addr:street" v="Braker Straße"/>
  </node>
  <node id="610951327" version="1" timestamp="2010-01-10T15:12:42Z" uid="85955" user="Gerd Höweler" changeset="3587834" lat="52.0700201" lon="8.6045795">
    <tag k="shop" v="hairdresser"/>
  </node>
  <node id="610951327" version="2" timestamp="2011-07-12T03:09:15Z" uid="461103" user="nomatrix" changeset="8699284" lat="52.0700201" lon="8.6045795">
    <tag k="addr:city" v="Bielefeld"/>
    <tag k="addr:country" v="DE"/>
    <tag k="addr:postcode" v="33729"/>
    <tag k="addr:street" v="Braker Straße"/>
    <tag k="shop" v="hairdresser"/>
  </node>
  <node id="610951331" version="1" timestamp="2010-01-10T15:12:42Z" uid="85955" user="Gerd Höweler" changeset="3587834" lat="52.0700085" lon="8.6044808">
    <tag k="name" v="Reisebüro Brake"/>
    <tag k="shop" v="travel_agency"/>
  </node>
  <node id="610951331" version="2" timestamp="2010-02-13T16:42:16Z" uid="85955" user="Gerd Höweler" changeset="3866274" lat="52.0700085" lon="8.6044808">
    <tag k="name" v="Reisebüro Brake"/>
    <tag k="shop" v="travel_agency"/>
    <tag k="website" v="http://www.reisebuero-brake.de/"/>
  </node>
  <node id="610951331" version="3" timestamp="2011-07-12T03:06:28Z" uid="461103" user="nomatrix" changeset="8699284" lat="52.0700085" lon="8.6044808">
    <tag k="addr:city" v="Bielefeld"/>
    <tag k="addr:country" v="DE"/>
    <tag k="addr:postcode" v="33729"/>
    <tag k="addr:street" v="Braker Straße"/>
    <tag k="name" v="Reisebüro Brake"/>
    <tag k="shop" v="travel_agency"/>
    <tag k="website" v="http://www.reisebuero-brake.de/"/>
  </node>
  <node id="610951333" version="1" timestamp="2010-01-10T15:12:42Z" uid="85955" user="Gerd Höweler" changeset="3587834" lat="52.0700607" lon="8.6045602">
    <tag k="addr:housenumber" v="53"/>
    <tag k="addr:postcode" v="33729"/>
    <tag k="addr:street" v="Braker Straße"/>
  </node>
  <node id="610951333" version="2" timestamp="2011-04-25T17:07:12Z" uid="5359" user="user_5359" changeset="7966007" lat="52.0700607" lon="8.6045602">
    <tag k="addr:city" v="Bielefeld"/>
    <tag k="addr:country" v="DE"/>
    <tag k="addr:housenumber" v="53"/>
    <tag k="addr:postcode" v="33729"/>
    <tag k="addr:street" v="Braker Straße"/>
  </node>
  <node id="610951335" version="1" timestamp="2010-01-10T15:12:42Z" uid="85955" user="Gerd Höweler" changeset="3587834" lat="52.0702523" lon="8.605731">
    <tag k="addr:housenumber" v="47"/>
    <tag k="addr:postcode" v="33729"/>
    <tag k="addr:street" v="Braker Straße"/>
  </node>
  <node id="610951335" version="2" timestamp="2011-04-25T17:07:06Z" uid="5359" user="user_5359" changeset="7966007" lat="52.0702523" lon="8.605731">
    <tag k="addr:city" v="Bielefeld"/>
    <tag k="addr:country" v="DE"/>
    <tag k="addr:housenumber" v="47"/>
    <tag k="addr:postcode" v="33729"/>
    <tag k="addr:street" v="Braker Straße"/>
  </node>
  <node id="610951337" version="1" timestamp="2010-01-10T15:12:42Z" uid="85955" user="Gerd Höweler" changeset="3587834" lat="52.0701304" lon="8.6052317">
    <tag k="addr:housenumber" v="49"/>
    <tag k="addr:postcode" v="33729"/>
    <tag k="addr:street" v="Braker Straße"/>
  </node>
  <node id="610951337" version="2" timestamp="2011-04-25T17:07:07Z" uid="5359" user="user_5359" changeset="7966007" lat="52.0701304" lon="8.6052317">
    <tag k="addr:city" v="Bielefeld"/>
    <tag k="addr:country" v="DE"/>
    <tag k="addr:housenumber" v="49"/>
    <tag k="addr:postcode" v="33729"/>
    <tag k="addr:street" v="Braker Straße"/>
  </node>
  <node id="610951340" version="1" timestamp="2010-01-10T15:12:42Z" uid="85955" user="Gerd Höweler" changeset="3587834" lat="52.0697898" lon="8.6064973">
    <tag k="addr:housenumber" v="45b"/>
    <tag k="addr:postcode" v="33729"/>
    <tag k="addr:street" v="Braker Straße"/>
  </node>
  <node id="610951340" version="2" timestamp="2011-04-25T17:07:07Z" uid="5359" user="user_5359" changeset="7966007" lat="52.0697898" lon="8.6064973">
    <tag k="addr:city" v="Bielefeld"/>
    <tag k="addr:country" v="DE"/>
    <tag k="addr:housenumber" v="45b"/>
    <tag k="addr:postcode" v="33729"/>
    <tag k="addr:street" v="Braker Straße"/>
  </node>
  <node id="610951344" version="1" timestamp="2010-01-10T15:12:42Z" uid="85955" user="Gerd Höweler" changeset="3587834" lat="52.0698807" lon="8.6064625">
    <tag k="addr:housenumber" v="45a"/>
    <tag k="addr:postcode" v="33729"/>
    <tag k="addr:street" v="Braker Straße"/>
  </node>
  <node id="610951344" version="2" timestamp="2011-04-25T17:07:08Z" uid="5359" user="user_5359" changeset="7966007" lat="52.0698807" lon="8.6064625">
    <tag k="addr:city" v="Bielefeld"/>
    <tag k="addr:country" v="DE"/>
    <tag k="addr:housenumber" v="45a"/>
    <tag k="addr:postcode" v="33729"/>
    <tag k="addr:street" v="Braker Straße"/>
  </node>
  <node id="610951669" version="2" timestamp="2011-02-15T14:16:54Z" uid="115477" user="wowik" changeset="7295219" lat="55.7275509" lon="37.6176737"/>
  <node id="610951669" version="3" timestamp="2011-04-21T11:34:47Z" uid="174822" user="Canabis" changeset="7924639" lat="55.727576" lon="37.6176298"/>
  <node id="610951670" version="2" timestamp="2011-02-15T14:17:03Z" uid="115477" user="wowik" changeset="7295219" lat="55.7275685" lon="37.6178518"/>
  <node id="610951670" version="3" timestamp="2011-04-21T11:34:46Z" uid="174822" user="Canabis" changeset="7924639" lat="55.7275826" lon="37.6178103"/>
  <node id="610951671" version="2" timestamp="2011-02-15T14:16:19Z" uid="115477" user="wowik" changeset="7295219" lat="55.7273244" lon="37.6179278"/>
  <node id="610951671" version="3" timestamp="2011-04-21T11:34:39Z" uid="174822" user="Canabis" changeset="7924639" lat="55.7273353" lon="37.6178388"/>
  <node id="610951672" version="2" timestamp="2011-02-15T14:16:40Z" uid="115477" user="wowik" changeset="7295219" lat="55.7273068" lon="37.6177497"/>
  <node id="610951672" version="3" timestamp="2011-04-21T11:34:40Z" uid="174822" user="Canabis" changeset="7924639" lat="55.7273287" lon="37.6176584"/>
  <node id="610956361" version="1" timestamp="2010-01-10T15:33:14Z" uid="20587" user="balrog-kun" changeset="3588077" lat="52.2346488" lon="20.9727255">
    <tag k="highway" v="crossing"/>
  </node>
  <node id="610956361" version="2" timestamp="2011-07-04T12:38:18Z" uid="477744" user="hormel" changeset="8628997" lat="52.2346799" lon="20.9727287">
    <tag k="highway" v="crossing"/>
  </node>
  <node id="610956363" version="1" timestamp="2010-01-10T15:33:14Z" uid="20587" user="balrog-kun" changeset="3588077" lat="52.2352598" lon="20.9741993">
    <tag k="name" v="DT Wola 03"/>
    <tag k="note" v="TODO"/>
    <tag k="railway" v="tram_stop"/>
    <tag k="tactile_paving" v="yes"/>
  </node>
  <node id="610956363" version="2" timestamp="2010-01-12T13:53:27Z" uid="20587" user="balrog-kun" changeset="3603234" lat="52.2352598" lon="20.9741993">
    <tag k="name" v="DT Wola 03"/>
    <tag k="note" v="TODO"/>
    <tag k="railway" v="tram_stop"/>
    <tag k="tactile_paving" v="yes"/>
    <tag k="tactile_paving:slab_size" v="40x40"/>
    <tag k="ztm:ciąg_ulicy" v="Wolska"/>
  </node>
  <node id="610956363" version="3" timestamp="2011-01-24T15:34:15Z" uid="20587" user="balrog-kun" changeset="7073235" lat="52.2352598" lon="20.9741993">
    <tag k="name" v="DT Wola 03"/>
    <tag k="note" v="TODO"/>
    <tag k="railway" v="tram_stop"/>
    <tag k="shelter" v="yes"/>
    <tag k="tactile_paving" v="yes"/>
    <tag k="tactile_paving:slab_size" v="40x40"/>
    <tag k="ztm:ciąg_ulicy" v="Wolska"/>
  </node>
  <node id="610956363" version="4" timestamp="2011-07-05T11:00:48Z" uid="477744" user="hormel" changeset="8637907" lat="52.2352598" lon="20.9741993"/>
  <node id="610956365" version="1" timestamp="2010-01-10T15:33:14Z" uid="20587" user="balrog-kun" changeset="3588077" lat="52.2351327" lon="20.9736645">
    <tag k="name" v="DT Wola 04"/>
    <tag k="note" v="TODO"/>
    <tag k="railway" v="tram_stop"/>
    <tag k="tactile_paving" v="yes"/>
  </node>
  <node id="610956365" version="2" timestamp="2010-01-12T13:53:27Z" uid="20587" user="balrog-kun" changeset="3603234" lat="52.2351327" lon="20.9736645">
    <tag k="name" v="DT Wola 04"/>
    <tag k="note" v="TODO"/>
    <tag k="railway" v="tram_stop"/>
    <tag k="tactile_paving" v="yes"/>
    <tag k="tactile_paving:slab_size" v="40x40"/>
    <tag k="ztm:ciąg_ulicy" v="Wolska"/>
  </node>
  <node id="610956365" version="3" timestamp="2011-01-24T15:34:38Z" uid="20587" user="balrog-kun" changeset="7073235" lat="52.2351966" lon="20.9737188">
    <tag k="name" v="DT Wola 04"/>
    <tag k="note" v="TODO"/>
    <tag k="railway" v="tram_stop"/>
    <tag k="shelter" v="yes"/>
    <tag k="tactile_paving" v="yes"/>
    <tag k="tactile_paving:slab_size" v="40x40"/>
    <tag k="ztm:ciąg_ulicy" v="Wolska"/>
  </node>
  <node id="610956365" version="4" timestamp="2011-06-30T19:15:07Z" uid="477744" user="hormel" changeset="8593405" lat="52.2352235" lon="20.973692">
    <tag k="name" v="DT Wola 04"/>
    <tag k="note" v="TODO"/>
    <tag k="railway" v="tram_stop"/>
    <tag k="shelter" v="yes"/>
    <tag k="tactile_paving" v="yes"/>
    <tag k="tactile_paving:slab_size" v="40x40"/>
    <tag k="ztm:ciąg_ulicy" v="Wolska"/>
  </node>
  <node id="610956365" version="5" timestamp="2011-07-05T11:00:35Z" uid="477744" user="hormel" changeset="8637907" lat="52.2351793" lon="20.9735164">
    <tag k="name" v="DT Wola 06"/>
    <tag k="note" v="TODO"/>
    <tag k="railway" v="tram_stop"/>
    <tag k="shelter" v="yes"/>
    <tag k="tactile_paving" v="yes"/>
    <tag k="tactile_paving:slab_size" v="40x40"/>
    <tag k="ztm:ciąg_ulicy" v="Wolska"/>
  </node>
  <node id="610956365" version="6" timestamp="2011-10-07T13:30:17Z" uid="373244" user="Tomekg" changeset="9493933" lat="52.2351793" lon="20.9735164">
    <tag k="name" v="Zajezdnia Wola"/>
    <tag k="note" v="TODO"/>
    <tag k="old_name" v="DT Wola 06"/>
    <tag k="railway" v="tram_stop"/>
    <tag k="shelter" v="yes"/>
    <tag k="tactile_paving" v="yes"/>
    <tag k="tactile_paving:slab_size" v="40x40"/>
    <tag k="ztm:ciąg_ulicy" v="Wolska"/>
  </node>
  <node id="610951173" version="3" timestamp="2012-07-17T06:45:13Z" uid="722137" user="OSMF Redaction Account" changeset="12258738" lat="52.0710065" lon="8.5933427"/>
  <node id="610951177" version="3" timestamp="2012-07-17T06:45:11Z" uid="722137" user="OSMF Redaction Account" changeset="12258738" lat="52.0706098" lon="8.5939088"/>
  <node id="610951180" version="3" timestamp="2012-07-17T06:45:14Z" uid="722137" user="OSMF Redaction Account" changeset="12258738" lat="52.0711396" lon="8.5936282"/>
  <node id="610951181" version="3" timestamp="2012-07-17T06:45:14Z" uid="722137" user="OSMF Redaction Account" changeset="12258738" lat="52.0711299" lon="8.593754"/>
  <node id="610951183" version="3" timestamp="2012-07-17T06:45:15Z" uid="722137" user="OSMF Redaction Account" changeset="12258738" lat="52.0712218" lon="8.5935604"/>
  <node id="610951187" version="4" timestamp="2012-07-17T06:45:15Z" uid="722137" user="OSMF Redaction Account" changeset="12258738" lat="52.0712197" lon="8.5925736"/>
  <node id="610951190" version="4" timestamp="2012-07-17T06:45:14Z" uid="722137" user="OSMF Redaction Account" changeset="12258738" lat="52.0711214" lon="8.5923695"/>
  <node id="610951192" version="4" timestamp="2012-07-17T06:45:15Z" uid="722137" user="OSMF Redaction Account" changeset="12258738" lat="52.0712688" lon="8.5916476"/>
  <node id="610951194" version="4" timestamp="2012-07-17T06:45:14Z" uid="722137" user="OSMF Redaction Account" changeset="12258738" lat="52.0710283" lon="8.5944845"/>
  <node id="610951199" version="3" timestamp="2012-07-17T06:45:13Z" uid="722137" user="OSMF Redaction Account" changeset="12258738" lat="52.0708735" lon="8.5966931"/>
  <node id="610951202" version="3" timestamp="2012-07-17T06:45:11Z" uid="722137" user="OSMF Redaction Account" changeset="12258738" lat="52.0704767" lon="8.5966133"/>
  <node id="610951205" version="3" timestamp="2012-07-17T06:45:11Z" uid="722137" user="OSMF Redaction Account" changeset="12258738" lat="52.0705058" lon="8.5963835"/>
  <node id="610951208" version="3" timestamp="2012-07-17T06:45:13Z" uid="722137" user="OSMF Redaction Account" changeset="12258738" lat="52.0708565" lon="8.5962746"/>
  <node id="610951210" version="3" timestamp="2012-07-17T06:44:44Z" uid="722137" user="OSMF Redaction Account" changeset="12258738" lat="52.0709169" lon="8.5955873">
    <tag k="addr:city" v="Bielefeld"/>
    <tag k="addr:country" v="DE"/>
    <tag k="amenity" v="kindergarten"/>
    <tag k="name" v="Kindergarten Braker Straße"/>
  </node>
  <node id="610951215" version="3" timestamp="2012-07-17T06:45:12Z" uid="722137" user="OSMF Redaction Account" changeset="12258738" lat="52.0708251" lon="8.5980914"/>
  <node id="610951218" version="3" timestamp="2012-07-17T06:45:12Z" uid="722137" user="OSMF Redaction Account" changeset="12258738" lat="52.0708202" lon="8.5975035"/>
  <node id="610951219" version="3" timestamp="2012-07-17T06:45:12Z" uid="722137" user="OSMF Redaction Account" changeset="12258738" lat="52.0708444" lon="8.5971165"/>
  <node id="610951222" version="4" timestamp="2012-07-17T06:45:12Z" uid="722137" user="OSMF Redaction Account" changeset="12258738" lat="52.0707162" lon="8.5993928"/>
  <node id="610951224" version="4" timestamp="2012-07-17T06:45:12Z" uid="722137" user="OSMF Redaction Account" changeset="12258738" lat="52.0707743" lon="8.5985534"/>
  <node id="610951227" version="4" timestamp="2012-07-17T06:45:09Z" uid="722137" user="OSMF Redaction Account" changeset="12258738" lat="52.0703394" lon="8.6000259"/>
  <node id="610951230" version="3" timestamp="2012-07-17T06:45:09Z" uid="722137" user="OSMF Redaction Account" changeset="12258738" lat="52.0703123" lon="8.5997317"/>
  <node id="610951232" version="4" timestamp="2012-07-17T06:45:10Z" uid="722137" user="OSMF Redaction Account" changeset="12258738" lat="52.0703781" lon="8.5997433"/>
  <node id="610951234" version="4" timestamp="2012-07-17T06:45:11Z" uid="722137" user="OSMF Redaction Account" changeset="12258738" lat="52.0706181" lon="8.6007613"/>
  <node id="610951237" version="4" timestamp="2012-07-17T06:45:12Z" uid="722137" user="OSMF Redaction Account" changeset="12258738" lat="52.0706654" lon="8.5998258"/>
  <node id="610951240" version="4" timestamp="2012-07-17T06:45:10Z" uid="722137" user="OSMF Redaction Account" changeset="12258738" lat="52.0703607" lon="8.602203"/>
  <node id="610951242" version="5" timestamp="2012-07-17T06:45:08Z" uid="722137" user="OSMF Redaction Account" changeset="12258738" lat="52.0702775" lon="8.6021217"/>
  <node id="610951245" version="4" timestamp="2012-05-03T10:02:46Z" uid="289600" user="schmerzbereiter" changeset="11487230" lat="52.0702407" lon="8.602114">
    <tag k="addr:city" v="Bielefeld"/>
    <tag k="addr:country" v="DE"/>
    <tag k="addr:postcode" v="33729"/>
    <tag k="addr:street" v="Braker Straße"/>
    <tag k="amenity" v="doctors"/>
    <tag k="name" v="Rolf Otting"/>
    <tag k="wheelchair" v="yes"/>
  </node>
  <node id="610951245" version="5" timestamp="2012-07-17T06:45:08Z" uid="722137" user="OSMF Redaction Account" changeset="12258738" lat="52.0702407" lon="8.602114"/>
  <node id="610951247" version="4" timestamp="2012-07-17T06:45:08Z" uid="722137" user="OSMF Redaction Account" changeset="12258738" lat="52.0701943" lon="8.6021024"/>
  <node id="610951249" version="4" timestamp="2012-07-17T06:45:07Z" uid="722137" user="OSMF Redaction Account" changeset="12258738" lat="52.0693989" lon="8.6067528"/>
  <node id="610951252" version="3" timestamp="2012-07-17T06:45:05Z" uid="722137" user="OSMF Redaction Account" changeset="12258738" lat="52.0688202" lon="8.6089516"/>
  <node id="610951255" version="3" timestamp="2012-07-17T06:45:05Z" uid="722137" user="OSMF Redaction Account" changeset="12258738" lat="52.0688666" lon="8.6087078"/>
  <node id="610951257" version="3" timestamp="2012-07-17T06:45:06Z" uid="722137" user="OSMF Redaction Account" changeset="12258738" lat="52.0689266" lon="8.6085201"/>
  <node id="610951258" version="3" timestamp="2012-07-17T06:45:06Z" uid="722137" user="OSMF Redaction Account" changeset="12258738" lat="52.0690001" lon="8.608284"/>
  <node id="610951260" version="4" timestamp="2012-07-17T06:45:06Z" uid="722137" user="OSMF Redaction Account" changeset="12258738" lat="52.0689812" lon="8.6082851"/>
  <node id="610951261" version="4" timestamp="2012-07-17T06:45:06Z" uid="722137" user="OSMF Redaction Account" changeset="12258738" lat="52.0689675" lon="8.6082839"/>
  <node id="610951262" version="4" timestamp="2012-07-17T06:45:06Z" uid="722137" user="OSMF Redaction Account" changeset="12258738" lat="52.068944" lon="8.6082802"/>
  <node id="610951263" version="3" timestamp="2012-07-17T06:45:06Z" uid="722137" user="OSMF Redaction Account" changeset="12258738" lat="52.0691128" lon="8.6078731"/>
  <node id="610951264" version="4" timestamp="2012-07-17T06:45:04Z" uid="722137" user="OSMF Redaction Account" changeset="12258738" lat="52.0683965" lon="8.6103522"/>
  <node id="610951265" version="3" timestamp="2012-07-17T06:45:05Z" uid="722137" user="OSMF Redaction Account" changeset="12258738" lat="52.0687079" lon="8.60942"/>
  <node id="610951268" version="3" timestamp="2012-07-17T06:45:05Z" uid="722137" user="OSMF Redaction Account" changeset="12258738" lat="52.0687679" lon="8.6091645"/>
  <node id="610951270" version="3" timestamp="2012-07-17T06:45:05Z" uid="722137" user="OSMF Redaction Account" changeset="12258738" lat="52.0686518" lon="8.6096522"/>
  <node id="610951273" version="4" timestamp="2012-07-17T06:45:05Z" uid="722137" user="OSMF Redaction Account" changeset="12258738" lat="52.0686034" lon="8.6096348"/>
  <node id="610951275" version="3" timestamp="2012-07-17T06:45:04Z" uid="722137" user="OSMF Redaction Account" changeset="12258738" lat="52.0681255" lon="8.6115191"/>
  <node id="610951299" version="3" timestamp="2012-07-17T06:45:04Z" uid="722137" user="OSMF Redaction Account" changeset="12258738" lat="52.0682029" lon="8.611134"/>
  <node id="610951303" version="3" timestamp="2012-07-17T06:45:04Z" uid="722137" user="OSMF Redaction Account" changeset="12258738" lat="52.0682997" lon="8.610716"/>
  <node id="610951306" version="4" timestamp="2012-07-17T06:45:08Z" uid="722137" user="OSMF Redaction Account" changeset="12258738" lat="52.0701633" lon="8.6035945"/>
  <node id="610951311" version="5" timestamp="2012-07-17T06:45:08Z" uid="722137" user="OSMF Redaction Account" changeset="12258738" lat="52.0700317" lon="8.6042834"/>
  <node id="610951313" version="3" timestamp="2012-07-17T06:45:08Z" uid="722137" user="OSMF Redaction Account" changeset="12258738" lat="52.0700897" lon="8.6042795"/>
  <node id="610951316" version="4" timestamp="2012-07-17T06:45:08Z" uid="722137" user="OSMF Redaction Account" changeset="12258738" lat="52.0701246" lon="8.603997"/>
  <node id="610951319" version="4" timestamp="2012-07-17T06:45:08Z" uid="722137" user="OSMF Redaction Account" changeset="12258738" lat="52.0701536" lon="8.6037822"/>
  <node id="610951324" version="3" timestamp="2012-07-17T06:45:08Z" uid="722137" user="OSMF Redaction Account" changeset="12258738" lat="52.0700452" lon="8.604922"/>
  <node id="610951327" version="3" timestamp="2012-07-17T06:45:07Z" uid="722137" user="OSMF Redaction Account" changeset="12258738" lat="52.0700201" lon="8.6045795"/>
  <node id="610951331" version="4" timestamp="2012-07-17T06:45:07Z" uid="722137" user="OSMF Redaction Account" changeset="12258738" lat="52.0700085" lon="8.6044808"/>
  <node id="610951333" version="3" timestamp="2012-07-17T06:45:08Z" uid="722137" user="OSMF Redaction Account" changeset="12258738" lat="52.0700607" lon="8.6045602"/>
  <node id="610951335" version="3" timestamp="2012-07-17T06:45:08Z" uid="722137" user="OSMF Redaction Account" changeset="12258738" lat="52.0702523" lon="8.605731"/>
  <node id="610951337" version="3" timestamp="2012-07-17T06:45:08Z" uid="722137" user="OSMF Redaction Account" changeset="12258738" lat="52.0701304" lon="8.6052317"/>
  <node id="610951340" version="3" timestamp="2012-07-17T06:45:07Z" uid="722137" user="OSMF Redaction Account" changeset="12258738" lat="52.0697898" lon="8.6064973"/>
  <node id="610951344" version="3" timestamp="2012-07-17T06:45:07Z" uid="722137" user="OSMF Redaction Account" changeset="12258738" lat="52.0698807" lon="8.6064625"/>
</osm>
