<?xml version='1.0' encoding='UTF-8'?>
<osm version="0.6" generator="libosmium/2.20.0">
  <node id="611456200" version="1" timestamp="2010-01-11T00:56:58Z" uid="20587" user="balrog-kun" changeset="3593038" lat="52.2999638" lon="21.0224506">
    <tag k="highway" v="bus_stop"/>
  </node>
  <node id="611456207" version="1" timestamp="2010-01-11T00:56:58Z" uid="20587" user="balrog-kun" changeset="3593038" lat="52.3007481" lon="21.0216387">
    <tag k="name" v="Inowłodzka 04"/>
    <tag k="railway" v="tram_stop"/>
  </node>
  <node id="611456207" version="2" timestamp="2010-01-12T13:54:02Z" uid="20587" user="balrog-kun" changeset="3603234" lat="52.3007481" lon="21.0216387">
    <tag k="name" v="Inowłodzka 04"/>
    <tag k="railway" v="tram_stop"/>
    <tag k="tactile_paving" v="yes"/>
    <tag k="tactile_paving:slab_size" v="40x40"/>
    <tag k="ztm:ciąg_ulicy" v="Annopol"/>
  </node>
  <node id="611456209" version="1" timestamp="2010-01-11T00:56:58Z" uid="20587" user="balrog-kun" changeset="3593038" lat="52.3015496" lon="21.0209687">
    <tag k="name" v="Inowłodzka 03"/>
    <tag k="railway" v="tram_stop"/>
  </node>
  <node id="611456209" version="2" timestamp="2010-01-12T13:54:02Z" uid="20587" user="balrog-kun" changeset="3603234" lat="52.3015496" lon="21.0209687">
    <tag k="name" v="Inowłodzka 03"/>
    <tag k="railway" v="tram_stop"/>
    <tag k="tactile_paving" v="yes"/>
    <tag k="tactile_paving:slab_size" v="40x40"/>
    <tag k="ztm:ciąg_ulicy" v="Annopol"/>
  </node>
  <node id="611456211" version="1" timestamp="2010-01-11T00:56:58Z" uid="20587" user="balrog-kun" changeset="3593038" lat="52.3007403" lon="21.0217161">
    <tag k="highway" v="bus_stop"/>
  </node>
  <node id="611456214" version="1" timestamp="2010-01-11T00:56:58Z" uid="20587" user="balrog-kun" changeset="3593038" lat="52.3110897" lon="21.0125402">
    <tag k="name" v="Żerań Wschodni 03"/>
    <tag k="railway" v="tram_stop"/>
  </node>
  <node id="611456214" version="2" timestamp="2010-01-12T13:54:02Z" uid="20587" user="balrog-kun" changeset="3603234" lat="52.3110897" lon="21.0125402">
    <tag k="name" v="Żerań Wschodni 03"/>
    <tag k="railway" v="tram_stop"/>
    <tag k="tactile_paving" v="yes"/>
    <tag k="tactile_paving:slab_size" v="40x40"/>
    <tag k="ztm:ciąg_ulicy" v="Pętla Żerań Wschodni"/>
  </node>
  <node id="611456214" version="3" timestamp="2011-10-07T12:36:54Z" uid="373244" user="Tomekg" changeset="9492727" lat="52.3110543" lon="21.0122361">
    <tag k="name" v="Żerań Wschodni 03"/>
    <tag k="railway" v="tram_stop"/>
    <tag k="tactile_paving" v="yes"/>
    <tag k="tactile_paving:slab_size" v="40x40"/>
    <tag k="ztm:ciąg_ulicy" v="Pętla Żerań Wschodni"/>
  </node>
  <node id="611457014" version="1" timestamp="2010-01-11T00:57:28Z" uid="34428" user="usm78-gis" changeset="3593039" lat="60.1769025" lon="29.4531658"/>
  <node id="611457014" version="2" timestamp="2012-04-09T08:25:06Z" uid="43262" user="KonTur" changeset="11234664" lat="60.1769025" lon="29.4531658"/>
</osm>
