<?xml version='1.0' encoding='UTF-8'?>
<osm version="0.6" generator="libosmium/2.20.0">
  <node id="613350816" version="4" timestamp="2010-04-15T07:51:49Z" uid="30632" user="antblant" changeset="4428732" lat="54.1297294" lon="22.4963435">
    <tag k="is_in" v="gmina Olecko, powiat olecki, województwo warmińsko-mazurskie, Poland"/>
    <tag k="is_in:county" v="powiat olecki"/>
    <tag k="is_in:municipality" v="gmina Olecko"/>
    <tag k="is_in:province" v="województwo warmińsko-mazurskie"/>
    <tag k="name" v="Biała Olecka"/>
    <tag k="place" v="village"/>
    <tag k="source" v="http://ump.waw.pl/ retrieved 10:45:09 12/08/09 (UMP-Suwalki/src/cities-Suwalki.pnt-converted.txt)"/>
    <tag k="wikipedia" v="Biała Olecka"/>
  </node>
  <node id="613350816" version="5" timestamp="2010-04-27T03:56:02Z" uid="30632" user="antblant" changeset="4537843" lat="54.1297294" lon="22.4963435">
    <tag k="is_in" v="gmina Olecko, powiat olecki, województwo warmińsko-mazurskie, Poland"/>
    <tag k="is_in:county" v="powiat olecki"/>
    <tag k="is_in:municipality" v="gmina Olecko"/>
    <tag k="is_in:province" v="województwo warmińsko-mazurskie"/>
    <tag k="name" v="Biała Olecka"/>
    <tag k="place" v="village"/>
    <tag k="source" v="http://ump.waw.pl/ retrieved 10:45:09 12/08/09 (UMP-Suwalki/src/cities-Suwalki.pnt-converted.txt)"/>
    <tag k="teryt:simc" v="0763264"/>
    <tag k="wikipedia" v="Biała Olecka"/>
  </node>
  <node id="613351047" version="4" timestamp="2010-04-11T11:54:28Z" uid="20587" user="balrog-kun" changeset="4392352" lat="54.11264" lon="22.51073">
    <tag k="is_in" v="gmina Olecko, powiat olecki, województwo warmińsko-mazurskie, Poland"/>
    <tag k="is_in:country" v="Poland"/>
    <tag k="is_in:county" v="powiat olecki"/>
    <tag k="is_in:municipality" v="gmina Olecko"/>
    <tag k="is_in:province" v="województwo warmińsko-mazurskie"/>
    <tag k="name" v="Judziki"/>
    <tag k="place" v="village"/>
    <tag k="source" v="http://ump.waw.pl/ retrieved 10:45:09 12/08/09 (UMP-Suwalki/src/cities-Suwalki.pnt-converted.txt)"/>
    <tag k="teryt:rm" v="01"/>
    <tag k="teryt:simc" v="0763442"/>
    <tag k="teryt:stan_na" v="2009-01-01"/>
    <tag k="teryt:terc" v="2813045"/>
    <tag k="teryt:updated_by" v="teryt2osm combine.py v. 43"/>
    <tag k="wikipedia" v="Judziki, Olecko County"/>
  </node>
  <node id="613351198" version="2" timestamp="2010-04-11T11:54:28Z" uid="20587" user="balrog-kun" changeset="4392352" lat="54.13453" lon="22.52626">
    <tag k="name" v="Blaskie Pole"/>
    <tag k="place" v="village"/>
    <tag k="source" v="http://ump.waw.pl/ retrieved 10:45:09 12/08/09 (UMP-Suwalki/src/cities-Suwalki.pnt-converted.txt)"/>
  </node>
  <node id="613351416" version="4" timestamp="2010-04-11T11:54:29Z" uid="20587" user="balrog-kun" changeset="4392352" lat="54.1243" lon="22.58664">
    <tag k="is_in" v="gmina Olecko, powiat olecki, województwo warmińsko-mazurskie, Poland"/>
    <tag k="is_in:country" v="Poland"/>
    <tag k="is_in:county" v="powiat olecki"/>
    <tag k="is_in:municipality" v="gmina Olecko"/>
    <tag k="is_in:province" v="województwo warmińsko-mazurskie"/>
    <tag k="name" v="Plewki"/>
    <tag k="place" v="village"/>
    <tag k="source" v="http://ump.waw.pl/ retrieved 10:45:09 12/08/09 (UMP-Suwalki/src/cities-Suwalki.pnt-converted.txt)"/>
    <tag k="teryt:rm" v="01"/>
    <tag k="teryt:simc" v="0763577"/>
    <tag k="teryt:stan_na" v="2009-01-01"/>
    <tag k="teryt:terc" v="2813045"/>
    <tag k="wikipedia" v="Plewki, Warmian-Masurian Voivodeship"/>
  </node>
  <node id="613351587" version="4" timestamp="2010-04-11T11:54:29Z" uid="20587" user="balrog-kun" changeset="4392352" lat="54.08012" lon="22.59057">
    <tag k="is_in" v="gmina Olecko, powiat olecki, województwo warmińsko-mazurskie, Poland"/>
    <tag k="is_in:country" v="Poland"/>
    <tag k="is_in:county" v="powiat olecki"/>
    <tag k="is_in:municipality" v="gmina Olecko"/>
    <tag k="is_in:province" v="województwo warmińsko-mazurskie"/>
    <tag k="name" v="Szczecinki"/>
    <tag k="place" v="village"/>
    <tag k="source" v="http://ump.waw.pl/ retrieved 10:45:09 12/08/09 (UMP-Suwalki/src/cities-Suwalki.pnt-converted.txt)"/>
    <tag k="teryt:rm" v="01"/>
    <tag k="teryt:simc" v="0763620"/>
    <tag k="teryt:stan_na" v="2009-01-01"/>
    <tag k="teryt:terc" v="2813045"/>
    <tag k="teryt:updated_by" v="teryt2osm combine.py v. 43"/>
    <tag k="wikipedia" v="Szczecinki"/>
  </node>
  <node id="613351588" version="4" timestamp="2010-04-11T11:54:29Z" uid="20587" user="balrog-kun" changeset="4392352" lat="54.08327" lon="22.60314">
    <tag k="is_in" v="gmina Bakałarzewo, powiat suwalski, województwo podlaskie, Poland"/>
    <tag k="is_in:country" v="Poland"/>
    <tag k="is_in:county" v="powiat suwalski"/>
    <tag k="is_in:municipality" v="gmina Bakałarzewo"/>
    <tag k="is_in:province" v="województwo podlaskie"/>
    <tag k="name" v="Nowa Wieś"/>
    <tag k="place" v="village"/>
    <tag k="population" v="101"/>
    <tag k="source" v="http://ump.waw.pl/ retrieved 10:45:09 12/08/09 (UMP-Suwalki/src/cities-Suwalki.pnt-converted.txt)"/>
    <tag k="source:population" v="wikipedia"/>
    <tag k="teryt:rm" v="01"/>
    <tag k="teryt:simc" v="0753389"/>
    <tag k="teryt:stan_na" v="2009-01-01"/>
    <tag k="teryt:terc" v="2012012"/>
    <tag k="wikipedia" v="Nowa Wieś, Gmina Bakałarzewo"/>
  </node>
  <node id="613351660" version="4" timestamp="2010-04-11T11:54:29Z" uid="20587" user="balrog-kun" changeset="4392352" lat="54.06792" lon="22.63949">
    <tag k="is_in" v="gmina Bakałarzewo, powiat suwalski, województwo podlaskie, Poland"/>
    <tag k="is_in:country" v="Poland"/>
    <tag k="is_in:county" v="powiat suwalski"/>
    <tag k="is_in:municipality" v="gmina Bakałarzewo"/>
    <tag k="is_in:province" v="województwo podlaskie"/>
    <tag k="name" v="Sadłowina"/>
    <tag k="place" v="village"/>
    <tag k="population" v="79"/>
    <tag k="source" v="http://ump.waw.pl/ retrieved 10:45:09 12/08/09 (UMP-Suwalki/src/cities-Suwalki.pnt-converted.txt)"/>
    <tag k="source:population" v="wikipedia"/>
    <tag k="teryt:rm" v="01"/>
    <tag k="teryt:simc" v="0753432"/>
    <tag k="teryt:stan_na" v="2009-01-01"/>
    <tag k="teryt:terc" v="2012012"/>
    <tag k="wikipedia" v="Sadłowina"/>
  </node>
  <node id="613351879" version="4" timestamp="2010-04-11T11:54:30Z" uid="20587" user="balrog-kun" changeset="4392352" lat="54.09346" lon="22.65221">
    <tag k="addr:postcode" v="16-423"/>
    <tag k="is_in" v="gmina Bakałarzewo, powiat suwalski, województwo podlaskie, Poland"/>
    <tag k="is_in:country" v="Poland"/>
    <tag k="is_in:county" v="powiat suwalski"/>
    <tag k="is_in:municipality" v="gmina Bakałarzewo"/>
    <tag k="is_in:province" v="województwo podlaskie"/>
    <tag k="name" v="Bakałarzewo"/>
    <tag k="place" v="village"/>
    <tag k="population" v="890"/>
    <tag k="source" v="http://ump.waw.pl/ retrieved 10:45:09 12/08/09 (UMP-Suwalki/src/cities-Suwalki.pnt-converted.txt)"/>
    <tag k="source:population" v="wikipedia"/>
    <tag k="teryt:rm" v="01"/>
    <tag k="teryt:simc" v="0753231"/>
    <tag k="teryt:stan_na" v="2009-01-01"/>
    <tag k="teryt:terc" v="2012012"/>
    <tag k="wikipedia" v="Bakałarzewo"/>
  </node>
  <node id="613352040" version="4" timestamp="2010-04-11T11:54:30Z" uid="20587" user="balrog-kun" changeset="4392352" lat="54.10114" lon="22.62611">
    <tag k="is_in" v="gmina Olecko, powiat olecki, województwo warmińsko-mazurskie, Poland"/>
    <tag k="is_in:country" v="Poland"/>
    <tag k="is_in:county" v="powiat olecki"/>
    <tag k="is_in:municipality" v="gmina Olecko"/>
    <tag k="is_in:province" v="województwo warmińsko-mazurskie"/>
    <tag k="name" v="Borawskie"/>
    <tag k="place" v="village"/>
    <tag k="source" v="http://ump.waw.pl/ retrieved 10:45:09 12/08/09 (UMP-Suwalki/src/cities-Suwalki.pnt-converted.txt)"/>
    <tag k="teryt:rm" v="01"/>
    <tag k="teryt:simc" v="0763270"/>
    <tag k="teryt:stan_na" v="2009-01-01"/>
    <tag k="teryt:terc" v="2813045"/>
    <tag k="wikipedia" v="Borawskie, Warmian-Masurian Voivodeship"/>
  </node>
  <node id="613352579" version="1" timestamp="2010-01-14T08:23:20Z" uid="27600" user="Islanit" changeset="3615335" lat="53.5128134" lon="10.1009848"/>
  <node id="613352579" version="2" timestamp="2011-02-26T11:50:15Z" uid="167616" user="ajeba" changeset="7398975" lat="53.512903" lon="10.101767"/>
  <node id="613352581" version="1" timestamp="2010-01-14T08:23:20Z" uid="27600" user="Islanit" changeset="3615335" lat="53.5122392" lon="10.1000622"/>
  <node id="613352581" version="2" timestamp="2011-02-26T11:50:14Z" uid="167616" user="ajeba" changeset="7398975" lat="53.5121491" lon="10.1000686"/>
  <node id="613352582" version="1" timestamp="2010-01-14T08:23:20Z" uid="27600" user="Islanit" changeset="3615335" lat="53.5107718" lon="10.1018646"/>
  <node id="613352582" version="2" timestamp="2011-02-26T11:50:16Z" uid="167616" user="ajeba" changeset="7398975" lat="53.5106078" lon="10.1023808"/>
  <node id="613352582" version="3" timestamp="2011-02-26T14:19:55Z" uid="167616" user="ajeba" changeset="7400215" lat="53.5106844" lon="10.1019563"/>
  <node id="613352584" version="1" timestamp="2010-01-14T08:23:20Z" uid="27600" user="Islanit" changeset="3615335" lat="53.5077985" lon="10.1079586"/>
  <node id="613352584" version="2" timestamp="2011-02-26T11:50:15Z" uid="167616" user="ajeba" changeset="7398975" lat="53.5077318" lon="10.1080516"/>
  <node id="613352584" version="3" timestamp="2011-02-26T14:19:52Z" uid="167616" user="ajeba" changeset="7400215" lat="53.5077743" lon="10.1076176"/>
  <node id="613352585" version="1" timestamp="2010-01-14T08:23:20Z" uid="27600" user="Islanit" changeset="3615335" lat="53.506114" lon="10.1128938"/>
  <node id="613352585" version="2" timestamp="2011-02-26T11:50:15Z" uid="167616" user="ajeba" changeset="7398975" lat="53.5060358" lon="10.1133811"/>
  <node id="613352587" version="1" timestamp="2010-01-14T08:23:21Z" uid="27600" user="Islanit" changeset="3615335" lat="53.5065862" lon="10.1136234"/>
  <node id="613352587" version="2" timestamp="2011-02-26T11:50:16Z" uid="167616" user="ajeba" changeset="7398975" lat="53.5065652" lon="10.1137709"/>
  <node id="613352587" version="3" timestamp="2011-02-26T14:19:54Z" uid="167616" user="ajeba" changeset="7400215" lat="53.5062594" lon="10.1141733"/>
  <node id="613352716" version="4" timestamp="2010-04-11T11:54:30Z" uid="20587" user="balrog-kun" changeset="4392352" lat="54.0779" lon="22.836">
    <tag k="is_in" v="gmina Suwałki, powiat suwalski, województwo podlaskie, Poland"/>
    <tag k="is_in:country" v="Poland"/>
    <tag k="is_in:county" v="powiat suwalski"/>
    <tag k="is_in:municipality" v="gmina Suwałki"/>
    <tag k="is_in:province" v="województwo podlaskie"/>
    <tag k="name" v="Wychodne"/>
    <tag k="place" v="village"/>
    <tag k="source" v="http://ump.waw.pl/ retrieved 10:45:09 12/08/09 (UMP-Suwalki/src/cities-Suwalki.pnt-converted.txt)"/>
    <tag k="teryt:rm" v="01"/>
    <tag k="teryt:simc" v="0769261"/>
    <tag k="teryt:stan_na" v="2009-01-01"/>
    <tag k="teryt:terc" v="2012072"/>
    <tag k="teryt:updated_by" v="teryt2osm combine.py v. 43"/>
    <tag k="wikipedia" v="Wychodne"/>
  </node>
  <node id="613352717" version="4" timestamp="2010-04-11T11:54:30Z" uid="20587" user="balrog-kun" changeset="4392352" lat="54.0882" lon="22.84363">
    <tag k="is_in" v="gmina Suwałki, powiat suwalski, województwo podlaskie, Poland"/>
    <tag k="is_in:country" v="Poland"/>
    <tag k="is_in:county" v="powiat suwalski"/>
    <tag k="is_in:municipality" v="gmina Suwałki"/>
    <tag k="is_in:province" v="województwo podlaskie"/>
    <tag k="name" v="Kuków"/>
    <tag k="place" v="village"/>
    <tag k="source" v="http://ump.waw.pl/ retrieved 10:45:09 12/08/09 (UMP-Suwalki/src/cities-Suwalki.pnt-converted.txt)"/>
    <tag k="teryt:rm" v="01"/>
    <tag k="teryt:simc" v="0768882"/>
    <tag k="teryt:stan_na" v="2009-01-01"/>
    <tag k="teryt:terc" v="2012072"/>
    <tag k="wikipedia" v="Kuków, Podlaskie Voivodeship"/>
  </node>
  <node id="613352718" version="4" timestamp="2010-04-11T11:54:30Z" uid="20587" user="balrog-kun" changeset="4392352" lat="54.10692" lon="22.80901">
    <tag k="is_in" v="gmina Suwałki, powiat suwalski, województwo podlaskie, Poland"/>
    <tag k="is_in:country" v="Poland"/>
    <tag k="is_in:county" v="powiat suwalski"/>
    <tag k="is_in:municipality" v="gmina Suwałki"/>
    <tag k="is_in:province" v="województwo podlaskie"/>
    <tag k="name" v="Korkliny"/>
    <tag k="place" v="village"/>
    <tag k="population" v="100"/>
    <tag k="source" v="http://ump.waw.pl/ retrieved 10:45:09 12/08/09 (UMP-Suwalki/src/cities-Suwalki.pnt-converted.txt)"/>
    <tag k="source:population" v="wikipedia"/>
    <tag k="teryt:rm" v="01"/>
    <tag k="teryt:simc" v="0768853"/>
    <tag k="teryt:stan_na" v="2009-01-01"/>
    <tag k="teryt:terc" v="2012072"/>
    <tag k="wikipedia" v="Korkliny"/>
  </node>
  <node id="613352719" version="2" timestamp="2010-04-11T11:54:30Z" uid="20587" user="balrog-kun" changeset="4392352" lat="54.12322" lon="22.8305">
    <tag k="name" v="Kuków-Folwark"/>
    <tag k="place" v="village"/>
    <tag k="source" v="http://ump.waw.pl/ retrieved 10:45:09 12/08/09 (UMP-Suwalki/src/cities-Suwalki.pnt-converted.txt)"/>
  </node>
  <node id="613352719" version="3" timestamp="2010-04-27T04:14:18Z" uid="30632" user="antblant" changeset="4537892" lat="54.12322" lon="22.8305">
    <tag k="name" v="Kuków-Folwark"/>
    <tag k="place" v="village"/>
    <tag k="source" v="http://ump.waw.pl/ retrieved 10:45:09 12/08/09 (UMP-Suwalki/src/cities-Suwalki.pnt-converted.txt)"/>
    <tag k="teryt:simc" v="0768899"/>
  </node>
  <node id="613352908" version="2" timestamp="2010-01-16T11:53:36Z" uid="8619" user="cetest" changeset="3630729" lat="18.5394073" lon="-72.3235855"/>
  <node id="613352908" version="3" timestamp="2010-01-16T12:46:55Z" uid="8619" user="cetest" changeset="3631064" lat="18.5395012" lon="-72.3235514"/>
  <node id="613352908" version="4" timestamp="2010-01-20T16:21:29Z" uid="23785" user="Simon Kokolakis" changeset="3667932" lat="18.5395651" lon="-72.3235274"/>
  <node id="613352908" version="5" timestamp="2010-01-21T19:30:31Z" uid="4902" user="mbuege" changeset="3676897" lat="18.539528" lon="-72.3234265"/>
  <node id="613352909" version="2" timestamp="2010-01-16T11:53:37Z" uid="8619" user="cetest" changeset="3630729" lat="18.5400191" lon="-72.3233432"/>
  <node id="613352909" version="3" timestamp="2010-01-21T19:30:31Z" uid="4902" user="mbuege" changeset="3676897" lat="18.5400251" lon="-72.3232651"/>
  <node id="613352910" version="2" timestamp="2010-01-16T12:46:56Z" uid="8619" user="cetest" changeset="3631064" lat="18.5415657" lon="-72.3226188"/>
  <node id="613352910" version="3" timestamp="2010-01-21T19:30:38Z" uid="4902" user="mbuege" changeset="3676897" lat="18.5415717" lon="-72.3225407"/>
  <node id="613352911" version="2" timestamp="2010-01-16T12:46:56Z" uid="8619" user="cetest" changeset="3631064" lat="18.5401653" lon="-72.323044"/>
  <node id="613352911" version="3" timestamp="2010-01-21T19:30:38Z" uid="4902" user="mbuege" changeset="3676897" lat="18.5401713" lon="-72.3229659"/>
  <node id="613352912" version="2" timestamp="2010-01-16T12:46:56Z" uid="8619" user="cetest" changeset="3631064" lat="18.5400385" lon="-72.3231523"/>
  <node id="613352912" version="3" timestamp="2010-01-21T19:30:31Z" uid="4902" user="mbuege" changeset="3676897" lat="18.5400445" lon="-72.3230742"/>
  <node id="613352913" version="2" timestamp="2010-01-16T12:46:56Z" uid="8619" user="cetest" changeset="3631064" lat="18.5401482" lon="-72.3234835"/>
  <node id="613352913" version="3" timestamp="2010-01-21T19:30:31Z" uid="4902" user="mbuege" changeset="3676897" lat="18.5401542" lon="-72.3234054"/>
  <node id="613352914" version="2" timestamp="2010-01-16T12:46:56Z" uid="8619" user="cetest" changeset="3631064" lat="18.5403002" lon="-72.3234796"/>
  <node id="613352914" version="3" timestamp="2010-01-21T19:30:31Z" uid="4902" user="mbuege" changeset="3676897" lat="18.5403062" lon="-72.3234015"/>
  <node id="613352915" version="2" timestamp="2010-01-16T12:46:56Z" uid="8619" user="cetest" changeset="3631064" lat="18.5417535" lon="-72.3230109"/>
  <node id="613352915" version="3" timestamp="2010-01-21T19:30:38Z" uid="4902" user="mbuege" changeset="3676897" lat="18.5417595" lon="-72.3229328"/>
  <node id="613352916" version="2" timestamp="2010-01-16T12:46:56Z" uid="8619" user="cetest" changeset="3631064" lat="18.5418542" lon="-72.3228338"/>
  <node id="613352916" version="3" timestamp="2010-01-21T19:30:38Z" uid="4902" user="mbuege" changeset="3676897" lat="18.5418602" lon="-72.3227557"/>
  <node id="613352917" version="2" timestamp="2010-01-16T12:46:56Z" uid="8619" user="cetest" changeset="3631064" lat="18.5418154" lon="-72.3226544"/>
  <node id="613352917" version="3" timestamp="2010-01-21T19:30:38Z" uid="4902" user="mbuege" changeset="3676897" lat="18.5418214" lon="-72.3225763"/>
  <node id="613352918" version="2" timestamp="2010-01-16T12:46:56Z" uid="8619" user="cetest" changeset="3631064" lat="18.5417192" lon="-72.322593"/>
  <node id="613352918" version="3" timestamp="2010-01-21T19:30:38Z" uid="4902" user="mbuege" changeset="3676897" lat="18.5417252" lon="-72.3225149"/>
  <node id="613352982" version="2" timestamp="2010-03-18T05:51:43Z" uid="30632" user="antblant" changeset="4158744" lat="54.15163" lon="22.54223">
    <tag k="source" v="http://ump.waw.pl/ retrieved 10:45:09 12/08/09 (UMP-Suwalki/src/SUWALKI.zielone.txt)"/>
  </node>
  <node id="613353458" version="3" timestamp="2010-04-11T11:54:30Z" uid="20587" user="balrog-kun" changeset="4392352" lat="54.16329" lon="22.57267">
    <tag k="is_in" v="gmina Filipów, powiat suwalski, województwo podlaskie, Poland"/>
    <tag k="is_in:country" v="Poland"/>
    <tag k="is_in:county" v="powiat suwalski"/>
    <tag k="is_in:municipality" v="gmina Filipów"/>
    <tag k="is_in:province" v="województwo podlaskie"/>
    <tag k="name" v="Mieruniszki"/>
    <tag k="place" v="village"/>
    <tag k="population" v="170"/>
    <tag k="source" v="http://ump.waw.pl/ retrieved 10:45:09 12/08/09 (UMP-Suwalki/src/cities-Suwalki.pnt-converted.txt)"/>
    <tag k="source:population" v="wikipedia"/>
    <tag k="teryt:rm" v="01"/>
    <tag k="teryt:simc" v="0757163"/>
    <tag k="teryt:stan_na" v="2009-01-01"/>
    <tag k="teryt:terc" v="2012022"/>
    <tag k="wikipedia" v="Mieruniszki"/>
  </node>
  <node id="613353705" version="2" timestamp="2010-03-21T02:06:16Z" uid="9719" user="dvaey" changeset="4186842" lat="-27.465182" lon="153.1021607"/>
  <node id="613353705" version="3" timestamp="2010-07-13T05:52:11Z" uid="211951" user="Dr Paul Martin" changeset="5204706" lat="-27.4651845" lon="153.1021614"/>
  <node id="613353705" version="4" timestamp="2010-11-29T07:56:12Z" uid="22094" user="Chadzopkyo" changeset="6484313" lat="-27.4652024" lon="153.1021614"/>
  <node id="613353705" version="5" timestamp="2011-08-13T04:45:12Z" uid="22094" user="Chadzopkyo" changeset="9002068" lat="-27.4651981" lon="153.1021735"/>
  <node id="613353706" version="2" timestamp="2010-03-21T02:06:15Z" uid="9719" user="dvaey" changeset="4186842" lat="-27.4650302" lon="153.1022546"/>
  <node id="613353706" version="3" timestamp="2010-07-13T05:51:28Z" uid="211951" user="Dr Paul Martin" changeset="5204706" lat="-27.465031" lon="153.1022499"/>
  <node id="613353706" version="4" timestamp="2011-08-13T04:45:12Z" uid="22094" user="Chadzopkyo" changeset="9002068" lat="-27.4650267" lon="153.102262"/>
  <node id="613353707" version="2" timestamp="2010-03-21T02:06:16Z" uid="9719" user="dvaey" changeset="4186842" lat="-27.465041" lon="153.1021795"/>
  <node id="613353707" version="3" timestamp="2010-07-13T05:51:35Z" uid="211951" user="Dr Paul Martin" changeset="5204706" lat="-27.4650417" lon="153.1021735"/>
  <node id="613353709" version="2" timestamp="2010-03-21T02:06:15Z" uid="9719" user="dvaey" changeset="4186842" lat="-27.4648309" lon="153.1022217"/>
  <node id="613353709" version="3" timestamp="2010-07-13T05:51:28Z" uid="211951" user="Dr Paul Martin" changeset="5204706" lat="-27.4648334" lon="153.1022164"/>
  <node id="613353709" version="4" timestamp="2011-08-13T04:45:12Z" uid="22094" user="Chadzopkyo" changeset="9002068" lat="-27.4648291" lon="153.1022285"/>
  <node id="613353710" version="2" timestamp="2010-03-21T02:06:15Z" uid="9719" user="dvaey" changeset="4186842" lat="-27.4647744" lon="153.1021614"/>
  <node id="613353710" version="3" timestamp="2010-06-03T09:07:28Z" uid="22094" user="Chadzopkyo" changeset="4890559" lat="-27.4647939" lon="153.102161"/>
  <node id="613353710" version="4" timestamp="2010-07-13T05:51:21Z" uid="211951" user="Dr Paul Martin" changeset="5204706" lat="-27.4647751" lon="153.1021547"/>
  <node id="613353710" version="5" timestamp="2010-11-29T07:55:53Z" uid="22094" user="Chadzopkyo" changeset="6484313" lat="-27.4647818" lon="153.1021547"/>
  <node id="613353710" version="6" timestamp="2011-08-13T04:45:12Z" uid="22094" user="Chadzopkyo" changeset="9002068" lat="-27.4647775" lon="153.1021668"/>
  <node id="613353711" version="2" timestamp="2010-03-21T02:06:15Z" uid="9719" user="dvaey" changeset="4186842" lat="-27.4648387" lon="153.1021714"/>
  <node id="613353711" version="3" timestamp="2010-07-13T05:51:24Z" uid="211951" user="Dr Paul Martin" changeset="5204706" lat="-27.464837" lon="153.1021668"/>
  <node id="613353711" version="4" timestamp="2011-08-13T04:45:12Z" uid="22094" user="Chadzopkyo" changeset="9002068" lat="-27.4648327" lon="153.1021789"/>
  <node id="613353788" version="3" timestamp="2010-04-11T11:54:31Z" uid="20587" user="balrog-kun" changeset="4392352" lat="54.17928" lon="22.62055">
    <tag k="is_in" v="gmina Filipów, powiat suwalski, województwo podlaskie, Poland"/>
    <tag k="is_in:country" v="Poland"/>
    <tag k="is_in:county" v="powiat suwalski"/>
    <tag k="is_in:municipality" v="gmina Filipów"/>
    <tag k="is_in:province" v="województwo podlaskie"/>
    <tag k="name" v="Filipów"/>
    <tag k="place" v="town"/>
    <tag k="population" v="2234"/>
    <tag k="source" v="http://ump.waw.pl/ retrieved 10:45:09 12/08/09 (UMP-Suwalki/src/cities-Suwalki.pnt-converted.txt)"/>
    <tag k="source:population" v="wikipedia"/>
    <tag k="teryt:rm" v="01"/>
    <tag k="teryt:simc" v="0757074"/>
    <tag k="teryt:stan_na" v="2009-01-01"/>
    <tag k="teryt:terc" v="2012022"/>
    <tag k="wikipedia" v="Filipów, Podlaskie Voivodeship"/>
  </node>
  <node id="613353808" version="3" timestamp="2010-04-11T11:54:31Z" uid="20587" user="balrog-kun" changeset="4392352" lat="54.14495" lon="22.68113">
    <tag k="addr:postcode" v="16-424"/>
    <tag k="is_in" v="gmina Filipów, powiat suwalski, województwo podlaskie, Poland"/>
    <tag k="is_in:county" v="powiat suwalski"/>
    <tag k="is_in:municipality" v="gmina Filipów"/>
    <tag k="is_in:province" v="województwo podlaskie"/>
    <tag k="name" v="Zusno"/>
    <tag k="place" v="village"/>
    <tag k="source" v="http://ump.waw.pl/ retrieved 10:45:09 12/08/09 (UMP-Suwalki/src/cities-Suwalki.pnt-converted.txt)"/>
    <tag k="wikipedia" v="Zusno"/>
  </node>
  <node id="613353808" version="4" timestamp="2010-04-27T04:17:15Z" uid="30632" user="antblant" changeset="4537905" lat="54.14495" lon="22.68113">
    <tag k="addr:postcode" v="16-424"/>
    <tag k="is_in" v="gmina Filipów, powiat suwalski, województwo podlaskie, Poland"/>
    <tag k="is_in:county" v="powiat suwalski"/>
    <tag k="is_in:municipality" v="gmina Filipów"/>
    <tag k="is_in:province" v="województwo podlaskie"/>
    <tag k="name" v="Zusno"/>
    <tag k="place" v="village"/>
    <tag k="source" v="http://ump.waw.pl/ retrieved 10:45:09 12/08/09 (UMP-Suwalki/src/cities-Suwalki.pnt-converted.txt)"/>
    <tag k="teryt:simc" v="0757306"/>
    <tag k="wikipedia" v="Zusno"/>
  </node>
  <node id="613353841" version="3" timestamp="2010-04-11T11:54:31Z" uid="20587" user="balrog-kun" changeset="4392352" lat="54.16602" lon="22.68087">
    <tag k="is_in" v="gmina Filipów, powiat suwalski, województwo podlaskie, Poland"/>
    <tag k="is_in:county" v="powiat suwalski"/>
    <tag k="is_in:municipality" v="gmina Filipów"/>
    <tag k="is_in:province" v="województwo podlaskie"/>
    <tag k="name" v="Olszanka"/>
    <tag k="place" v="village"/>
    <tag k="source" v="http://ump.waw.pl/ retrieved 10:45:09 12/08/09 (UMP-Suwalki/src/cities-Suwalki.pnt-converted.txt)"/>
    <tag k="wikipedia" v="Olszanka, Gmina Filipów"/>
  </node>
  <node id="613353842" version="2" timestamp="2010-04-11T11:54:31Z" uid="20587" user="balrog-kun" changeset="4392352" lat="54.16308" lon="22.70003">
    <tag k="name" v="Dębszczyzna Nowa"/>
    <tag k="place" v="village"/>
    <tag k="source" v="http://ump.waw.pl/ retrieved 10:45:09 12/08/09 (UMP-Suwalki/src/cities-Suwalki.pnt-converted.txt)"/>
  </node>
  <node id="613353854" version="2" timestamp="2010-04-11T11:54:31Z" uid="20587" user="balrog-kun" changeset="4392352" lat="54.16179" lon="22.72832">
    <tag k="name" v="Dębszczyzna Stara"/>
    <tag k="place" v="village"/>
    <tag k="source" v="http://ump.waw.pl/ retrieved 10:45:09 12/08/09 (UMP-Suwalki/src/cities-Suwalki.pnt-converted.txt)"/>
  </node>
  <node id="613354046" version="3" timestamp="2010-04-11T11:54:31Z" uid="20587" user="balrog-kun" changeset="4392352" lat="54.14495" lon="22.84507">
    <tag k="is_in" v="gmina Suwałki, powiat suwalski, województwo podlaskie, Poland"/>
    <tag k="is_in:country" v="Poland"/>
    <tag k="is_in:county" v="powiat suwalski"/>
    <tag k="is_in:municipality" v="gmina Suwałki"/>
    <tag k="is_in:province" v="województwo podlaskie"/>
    <tag k="name" v="Osowa"/>
    <tag k="place" v="village"/>
    <tag k="source" v="http://ump.waw.pl/ retrieved 10:45:09 12/08/09 (UMP-Suwalki/src/cities-Suwalki.pnt-converted.txt)"/>
    <tag k="teryt:rm" v="01"/>
    <tag k="teryt:simc" v="0769077"/>
    <tag k="teryt:stan_na" v="2009-01-01"/>
    <tag k="teryt:terc" v="2012072"/>
    <tag k="wikipedia" v="Osowa, Podlaskie Voivodeship"/>
  </node>
  <node id="613354446" version="2" timestamp="2010-01-14T15:09:31Z" uid="23543" user="jkjk" changeset="3617595" lat="18.6359361" lon="-72.2325618"/>
  <node id="613354446" version="3" timestamp="2010-01-20T21:49:21Z" uid="23785" user="Simon Kokolakis" changeset="3670816" lat="18.6359311" lon="-72.2325847"/>
  <node id="613354519" version="9" timestamp="2011-03-09T05:32:09Z" uid="4467" user="Rosscoe" changeset="7500734" lat="-37.8376326" lon="144.9434299">
    <tag k="amenity" v="fast_food"/>
    <tag k="name" v="Shi Shi Asian Food"/>
  </node>
  <node id="613354519" version="10" timestamp="2011-08-29T05:03:15Z" uid="3007" user="Hotwheelz" changeset="9153680" lat="-37.8376326" lon="144.9434299">
    <tag k="addr:housenumber" v="277"/>
    <tag k="addr:postcode" v="3207"/>
    <tag k="addr:street" v="Bay Street"/>
    <tag k="amenity" v="fast_food"/>
    <tag k="name" v="Shi Shi Asian Food"/>
  </node>
  <node id="613354519" version="11" timestamp="2011-09-21T10:32:47Z" uid="3007" user="Hotwheelz" changeset="9359158" lat="-37.8376326" lon="144.9434299">
    <tag k="addr:housenumber" v="277"/>
    <tag k="addr:postcode" v="3207"/>
    <tag k="addr:street" v="Bay Street"/>
    <tag k="amenity" v="fast_food"/>
    <tag k="cuisine" v="asian"/>
    <tag k="name" v="Shi Shi Asian Food"/>
  </node>
  <node id="613354748" version="6" timestamp="2011-03-09T05:32:18Z" uid="4467" user="Rosscoe" changeset="7500734" lat="-37.8376375" lon="144.9434249">
    <tag k="name" v="Elegant Slax"/>
    <tag k="shop" v="clothes"/>
  </node>
  <node id="613354748" version="7" timestamp="2011-08-29T05:13:31Z" uid="3007" user="Hotwheelz" changeset="9153729" lat="-37.8376375" lon="144.9434249">
    <tag k="addr:housenumber" v="275"/>
    <tag k="addr:postcode" v="3207"/>
    <tag k="name" v="Elegant Slax"/>
    <tag k="shop" v="clothes"/>
    <tag k="source" v="Bay Street"/>
    <tag k="website" v="http://www.elegantslax.com.au/"/>
  </node>
  <node id="613355043" version="12" timestamp="2011-03-09T05:32:07Z" uid="4467" user="Rosscoe" changeset="7500734" lat="-37.8376421" lon="144.9434209">
    <tag k="amenity" v="cafe"/>
    <tag k="name" v="Eurodore - Provedor, Kitchen, Cellar"/>
  </node>
  <node id="613355043" version="13" timestamp="2011-08-29T04:59:23Z" uid="3007" user="Hotwheelz" changeset="9153680" lat="-37.8376421" lon="144.9434209">
    <tag k="addr:housenumber" v="271/273"/>
    <tag k="addr:postcode" v="3207"/>
    <tag k="addr:street" v="Bay Street"/>
    <tag k="amenity" v="cafe"/>
    <tag k="name" v="Eurodore - Provedor, Kitchen, Cellar"/>
    <tag k="website" v="http://www.eurodore.com/"/>
  </node>
  <node id="613355043" version="14" timestamp="2012-01-11T23:28:13Z" uid="3007" user="Hotwheelz" changeset="10365725" lat="-37.8376421" lon="144.9434209">
    <tag k="addr:housenumber" v="271/273"/>
    <tag k="addr:postcode" v="3207"/>
    <tag k="addr:street" v="Bay Street"/>
    <tag k="amenity" v="cafe"/>
    <tag k="created_by" v="iLOE 1.9"/>
    <tag k="name" v="Eurodore Cafe"/>
    <tag k="website" v="http://www.eurodore.com/"/>
  </node>
  <node id="613355043" version="15" timestamp="2012-01-11T23:40:29Z" uid="3007" user="Hotwheelz" changeset="10365787" lat="-37.8376421" lon="144.9434209">
    <tag k="addr:housenumber" v="271"/>
    <tag k="addr:postcode" v="3207"/>
    <tag k="addr:street" v="Bay Street"/>
    <tag k="amenity" v="cafe"/>
    <tag k="created_by" v="iLOE 1.9"/>
    <tag k="name" v="Eurodore Cafe"/>
    <tag k="website" v="http://www.eurodore.com/"/>
  </node>
  <node id="613355219" version="9" timestamp="2011-03-09T05:32:10Z" uid="4467" user="Rosscoe" changeset="7500734" lat="-37.8376348" lon="144.9434279">
    <tag k="FIXME" v="in middle of road! should it be on east side?"/>
    <tag k="amenity" v="cafe"/>
    <tag k="name" v="The Port Bake House"/>
  </node>
  <node id="613355219" version="10" timestamp="2011-08-29T05:02:11Z" uid="3007" user="Hotwheelz" changeset="9153680" lat="-37.8376348" lon="144.9434279">
    <tag k="FIXME" v="in middle of road! should it be on east side?"/>
    <tag k="addr:housenumber" v="269"/>
    <tag k="addr:postcode" v="3207"/>
    <tag k="addr:street" v="Bay Street"/>
    <tag k="amenity" v="cafe"/>
    <tag k="name" v="The Port Bake House"/>
  </node>
  <node id="613355469" version="9" timestamp="2011-03-09T05:32:09Z" uid="4467" user="Rosscoe" changeset="7500734" lat="-37.8376401" lon="144.9434229">
    <tag k="name" v="The Freedom  Machine"/>
    <tag k="shop" v="bicycle"/>
  </node>
  <node id="613355469" version="10" timestamp="2011-08-29T05:01:08Z" uid="3007" user="Hotwheelz" changeset="9153680" lat="-37.8376401" lon="144.9434229">
    <tag k="addr:housenumber" v="265-267"/>
    <tag k="addr:postcode" v="3207"/>
    <tag k="addr:street" v="Bay Street"/>
    <tag k="name" v="The Freedom  Machine"/>
    <tag k="shop" v="bicycle"/>
    <tag k="website" v="http://www.freedommachine.com.au/"/>
  </node>
  <node id="613355615" version="2" timestamp="2010-07-28T20:08:59Z" uid="74617" user="JohnSmith" changeset="5339329" lat="48.2176466" lon="16.3897179">
    <tag k="emergency" v="fire_hydrant"/>
  </node>
  <node id="613355615" version="3" timestamp="2010-07-30T17:46:50Z" uid="74617" user="JohnSmith" changeset="5356742" lat="48.2176466" lon="16.3897179">
    <tag k="amenity" v="fire_hydrant"/>
    <tag k="emergency" v="fire_hydrant"/>
  </node>
  <node id="613355615" version="4" timestamp="2010-10-18T10:07:40Z" uid="26348" user="Rodolphe Quiédeville" changeset="6079939" lat="48.2176466" lon="16.3897179">
    <tag k="emergency" v="fire_hydrant"/>
  </node>
  <node id="613355615" version="5" timestamp="2012-03-27T18:28:46Z" uid="67540" user="Cobra" changeset="11118954" lat="48.2176466" lon="16.3897179">
    <tag k="emergency" v="fire_hydrant"/>
    <tag k="odbl" v="clean"/>
  </node>
  <node id="613355882" version="9" timestamp="2011-03-09T05:32:24Z" uid="4467" user="Rosscoe" changeset="7500734" lat="-37.8376443" lon="144.9434199">
    <tag k="amenity" v="cafe"/>
    <tag k="name" v="Readings Books &amp; Music"/>
  </node>
  <node id="613355882" version="10" timestamp="2011-08-29T05:12:00Z" uid="3007" user="Hotwheelz" changeset="9153729" lat="-37.8376443" lon="144.9434199">
    <tag k="addr:housenumber" v="253"/>
    <tag k="addr:postcode" v="3205"/>
    <tag k="addr:street" v="Port Melbourne"/>
    <tag k="name" v="Readings Books &amp; Music"/>
    <tag k="shop" v="books"/>
    <tag k="website" v="http://www.readings.com.au/port-melbourne"/>
  </node>
  <node id="613355882" version="11" timestamp="2012-02-15T22:22:13Z" uid="3007" user="Hotwheelz" changeset="10697240" lat="-37.8376443" lon="144.9434199">
    <tag k="addr:housenumber" v="253"/>
    <tag k="addr:postcode" v="3205"/>
    <tag k="addr:street" v="Port Melbourne"/>
    <tag k="created_by" v="iLOE 1.9"/>
    <tag k="shop" v="vacant"/>
  </node>
  <node id="613350816" version="6" timestamp="2012-07-24T20:34:35Z" uid="722137" user="OSMF Redaction Account" changeset="12475916" lat="54.1297294" lon="22.4963435">
    <tag k="teryt:simc" v="0763264"/>
  </node>
  <node id="613350816" version="7" timestamp="2012-08-12T17:21:11Z" uid="467703" user="Zbigniew_Czernik" changeset="12703413" lat="54.1238001" lon="22.4972067">
    <tag k="name" v="Biała Olecka"/>
    <tag k="place" v="village"/>
    <tag k="teryt:simc" v="0763264"/>
  </node>
  <node id="613351047" version="5" timestamp="2012-07-24T20:20:00Z" uid="722137" user="OSMF Redaction Account" changeset="12475622" lat="54.11264" lon="22.51073"/>
  <node id="613351198" version="3" timestamp="2012-07-24T20:15:31Z" uid="722137" user="OSMF Redaction Account" changeset="12475539" lat="54.13453" lon="22.52626"/>
  <node id="613351416" version="5" timestamp="2012-07-24T20:17:59Z" uid="722137" user="OSMF Redaction Account" changeset="12475587" lat="54.1243" lon="22.58664"/>
  <node id="613351587" version="5" timestamp="2012-07-24T20:17:51Z" uid="722137" user="OSMF Redaction Account" changeset="12475580" lat="54.08012" lon="22.59057"/>
  <node id="613351588" version="5" timestamp="2012-07-24T20:17:51Z" uid="722137" user="OSMF Redaction Account" changeset="12475580" lat="54.08327" lon="22.60314"/>
  <node id="613351660" version="5" timestamp="2012-07-24T20:11:23Z" uid="722137" user="OSMF Redaction Account" changeset="12475463" lat="54.06792" lon="22.63949"/>
  <node id="613351879" version="5" timestamp="2012-07-24T20:11:41Z" uid="722137" user="OSMF Redaction Account" changeset="12475470" lat="54.09346" lon="22.65221"/>
  <node id="613352040" version="5" timestamp="2012-07-24T20:11:42Z" uid="722137" user="OSMF Redaction Account" changeset="12475470" lat="54.10114" lon="22.62611"/>
  <node id="613352585" version="3" timestamp="2012-07-06T22:42:02Z" uid="349191" user="Glühwürmchen" changeset="12135616" lat="53.5060361" lon="10.1133484"/>
  <node id="613352716" version="5" timestamp="2012-07-15T22:53:57Z" uid="735193" user="konradb4" changeset="12237072" lat="54.0774015" lon="22.8338929">
    <tag k="is_in" v="gmina Suwałki, powiat suwalski, województwo podlaskie, Poland"/>
    <tag k="is_in:country" v="Poland"/>
    <tag k="is_in:county" v="powiat suwalski"/>
    <tag k="is_in:municipality" v="gmina Suwałki"/>
    <tag k="is_in:province" v="województwo podlaskie"/>
    <tag k="name" v="Wychodne"/>
    <tag k="place" v="village"/>
    <tag k="source" v="http://ump.waw.pl/ retrieved 10:45:09 12/08/09 (UMP-Suwalki/src/cities-Suwalki.pnt-converted.txt)"/>
    <tag k="teryt:rm" v="01"/>
    <tag k="teryt:simc" v="0769261"/>
    <tag k="teryt:stan_na" v="2009-01-01"/>
    <tag k="teryt:terc" v="2012072"/>
    <tag k="teryt:updated_by" v="teryt2osm combine.py v. 43"/>
    <tag k="wikipedia" v="Wychodne"/>
  </node>
  <node id="613352716" version="6" timestamp="2012-07-15T23:07:51Z" uid="735193" user="konradb4" changeset="12237072" lat="54.0787535" lon="22.8376576">
    <tag k="is_in" v="gmina Suwałki, powiat suwalski, województwo podlaskie, Poland"/>
    <tag k="is_in:country" v="Poland"/>
    <tag k="is_in:county" v="powiat suwalski"/>
    <tag k="is_in:municipality" v="gmina Suwałki"/>
    <tag k="is_in:province" v="województwo podlaskie"/>
    <tag k="name" v="Wychodne"/>
    <tag k="place" v="village"/>
    <tag k="source" v="http://ump.waw.pl/ retrieved 10:45:09 12/08/09 (UMP-Suwalki/src/cities-Suwalki.pnt-converted.txt)"/>
    <tag k="teryt:rm" v="01"/>
    <tag k="teryt:simc" v="0769261"/>
    <tag k="teryt:stan_na" v="2009-01-01"/>
    <tag k="teryt:terc" v="2012072"/>
    <tag k="teryt:updated_by" v="teryt2osm combine.py v. 43"/>
    <tag k="wikipedia" v="Wychodne"/>
  </node>
  <node id="613352716" version="7" timestamp="2012-07-24T19:55:53Z" uid="722137" user="OSMF Redaction Account" changeset="12475154" lat="54.0787535" lon="22.8376576"/>
  <node id="613352716" version="8" timestamp="2012-07-30T22:51:42Z" uid="735193" user="konradb4" changeset="12554384" lat="54.0787535" lon="22.8376576"/>
  <node id="613352717" version="5" timestamp="2012-07-15T23:07:51Z" uid="735193" user="konradb4" changeset="12237072" lat="54.0928502" lon="22.8459002">
    <tag k="is_in" v="gmina Suwałki, powiat suwalski, województwo podlaskie, Poland"/>
    <tag k="is_in:country" v="Poland"/>
    <tag k="is_in:county" v="powiat suwalski"/>
    <tag k="is_in:municipality" v="gmina Suwałki"/>
    <tag k="is_in:province" v="województwo podlaskie"/>
    <tag k="name" v="Kuków"/>
    <tag k="place" v="village"/>
    <tag k="source" v="http://ump.waw.pl/ retrieved 10:45:09 12/08/09 (UMP-Suwalki/src/cities-Suwalki.pnt-converted.txt)"/>
    <tag k="teryt:rm" v="01"/>
    <tag k="teryt:simc" v="0768882"/>
    <tag k="teryt:stan_na" v="2009-01-01"/>
    <tag k="teryt:terc" v="2012072"/>
    <tag k="wikipedia" v="Kuków, Podlaskie Voivodeship"/>
  </node>
  <node id="613352717" version="6" timestamp="2012-07-24T19:55:53Z" uid="722137" user="OSMF Redaction Account" changeset="12475154" lat="54.0928502" lon="22.8459002"/>
  <node id="613352718" version="5" timestamp="2012-07-24T19:56:42Z" uid="722137" user="OSMF Redaction Account" changeset="12475173" lat="54.10692" lon="22.80901"/>
  <node id="613352719" version="4" timestamp="2012-07-24T19:55:55Z" uid="722137" user="OSMF Redaction Account" changeset="12475154" lat="54.12322" lon="22.8305"/>
  <node id="613353458" version="4" timestamp="2012-07-24T20:13:42Z" uid="722137" user="OSMF Redaction Account" changeset="12475499" lat="54.16329" lon="22.57267"/>
  <node id="613353788" version="4" timestamp="2012-07-24T20:13:44Z" uid="722137" user="OSMF Redaction Account" changeset="12475499" lat="54.17928" lon="22.62055"/>
  <node id="613353808" version="5" timestamp="2012-07-24T20:07:45Z" uid="722137" user="OSMF Redaction Account" changeset="12475389" lat="54.14495" lon="22.68113"/>
  <node id="613353841" version="4" timestamp="2012-07-24T20:07:46Z" uid="722137" user="OSMF Redaction Account" changeset="12475389" lat="54.16602" lon="22.68087"/>
  <node id="613353842" version="3" timestamp="2012-07-24T20:06:38Z" uid="722137" user="OSMF Redaction Account" changeset="12475361" lat="54.16308" lon="22.70003"/>
  <node id="613353854" version="3" timestamp="2012-07-24T20:06:38Z" uid="722137" user="OSMF Redaction Account" changeset="12475361" lat="54.16179" lon="22.72832"/>
  <node id="613354046" version="4" timestamp="2012-07-24T19:47:56Z" uid="722137" user="OSMF Redaction Account" changeset="12474983" lat="54.14495" lon="22.84507"/>
  <node id="613354519" version="12" timestamp="2012-07-19T11:54:03Z" uid="722137" user="OSMF Redaction Account" changeset="12323149" lat="-37.8375911" lon="144.94338">
    <tag k="addr:housenumber" v="277"/>
    <tag k="addr:postcode" v="3207"/>
    <tag k="addr:street" v="Bay Street"/>
    <tag k="amenity" v="fast_food"/>
    <tag k="cuisine" v="asian"/>
    <tag k="name" v="Shi Shi Asian Food"/>
  </node>
  <node id="613354748" version="8" timestamp="2012-07-19T11:54:02Z" uid="722137" user="OSMF Redaction Account" changeset="12323149" lat="-37.837596" lon="144.943375">
    <tag k="addr:housenumber" v="275"/>
    <tag k="addr:postcode" v="3207"/>
    <tag k="name" v="Elegant Slax"/>
    <tag k="shop" v="clothes"/>
    <tag k="source" v="Bay Street"/>
    <tag k="website" v="http://www.elegantslax.com.au/"/>
  </node>
  <node id="613355043" version="16" timestamp="2012-07-19T11:54:01Z" uid="722137" user="OSMF Redaction Account" changeset="12323149" lat="-37.8376006" lon="144.943371">
    <tag k="addr:housenumber" v="271"/>
    <tag k="addr:postcode" v="3207"/>
    <tag k="addr:street" v="Bay Street"/>
    <tag k="amenity" v="cafe"/>
    <tag k="name" v="Eurodore Cafe"/>
    <tag k="website" v="http://www.eurodore.com/"/>
  </node>
  <node id="613355219" version="11" timestamp="2012-07-19T11:54:03Z" uid="722137" user="OSMF Redaction Account" changeset="12323149" lat="-37.8375933" lon="144.943378">
    <tag k="addr:housenumber" v="269"/>
    <tag k="addr:postcode" v="3207"/>
    <tag k="addr:street" v="Bay Street"/>
    <tag k="amenity" v="cafe"/>
    <tag k="FIXME" v="in middle of road! should it be on east side?"/>
    <tag k="name" v="The Port Bake House"/>
  </node>
  <node id="613355469" version="11" timestamp="2012-07-19T11:54:02Z" uid="722137" user="OSMF Redaction Account" changeset="12323149" lat="-37.8375986" lon="144.943373">
    <tag k="addr:housenumber" v="265-267"/>
    <tag k="addr:postcode" v="3207"/>
    <tag k="addr:street" v="Bay Street"/>
    <tag k="name" v="The Freedom  Machine"/>
    <tag k="shop" v="bicycle"/>
    <tag k="website" v="http://www.freedommachine.com.au/"/>
  </node>
  <node id="613355882" version="12" timestamp="2012-07-19T11:54:02Z" uid="722137" user="OSMF Redaction Account" changeset="12323149" lat="-37.8376028" lon="144.94337">
    <tag k="addr:housenumber" v="253"/>
    <tag k="addr:postcode" v="3205"/>
    <tag k="addr:street" v="Port Melbourne"/>
    <tag k="shop" v="vacant"/>
  </node>
</osm>
