<?xml version='1.0' encoding='UTF-8'?>
<osm version="0.6" generator="libosmium/2.20.0">
  <node id="614691646" version="2" timestamp="2010-07-31T14:15:59Z" uid="74617" user="JohnSmith" changeset="5362968" lat="-27.5168833" lon="151.9564727"/>
  <node id="614694624" version="2" timestamp="2010-01-17T21:37:25Z" uid="8619" user="cetest" changeset="3646034" lat="18.4943501" lon="-72.5863082">
    <tag k="name" v="Matthieu"/>
    <tag k="place" v="village"/>
    <tag k="source" v="haiti-tlm-50"/>
    <tag k="source:imagery" v="JAXA/ALOS"/>
  </node>
  <node id="614694624" version="3" timestamp="2010-02-18T00:32:21Z" uid="79857" user="RDSantiago" changeset="3905927" lat="18.4943501" lon="-72.5863082">
    <tag k="addr:country" v="HT"/>
    <tag k="name" v="Matthieu"/>
    <tag k="place" v="village"/>
    <tag k="source" v="haiti-tlm-50"/>
    <tag k="source:imagery" v="JAXA/ALOS"/>
  </node>
  <node id="614697586" version="2" timestamp="2010-05-20T03:14:24Z" uid="4467" user="Rosscoe" changeset="4753610" lat="-27.3702122" lon="152.887227">
    <tag k="amenity" v="telephone"/>
    <tag k="operator" v="Telstra"/>
  </node>
  <node id="614691646" version="3" timestamp="2012-07-19T14:51:17Z" uid="722137" user="OSMF Redaction Account" changeset="12332130" lat="-27.5156518" lon="151.9562536"/>
  <node id="614694624" version="4" timestamp="2012-07-21T18:05:51Z" uid="722137" user="OSMF Redaction Account" changeset="12416780" lat="18.494316" lon="-72.5858889">
    <tag k="addr:country" v="HT"/>
    <tag k="name" v="Matthieu"/>
    <tag k="place" v="village"/>
    <tag k="source" v="haiti-tlm-50"/>
    <tag k="source:imagery" v="JAXA/ALOS"/>
  </node>
  <node id="614697586" version="3" timestamp="2012-07-19T19:39:46Z" uid="722137" user="OSMF Redaction Account" changeset="12345221" lat="-27.3702122" lon="152.8872267">
    <tag k="amenity" v="phone"/>
    <tag k="operator" v="Telstra"/>
  </node>
</osm>
