<?xml version='1.0' encoding='UTF-8'?>
<osm version="0.6" generator="libosmium/2.20.0">
  <node id="617671066" version="2" timestamp="2010-07-30T07:11:01Z" uid="4467" user="Rosscoe" changeset="5352119" lat="-32.9021936" lon="151.690471">
    <tag k="name" v="Dick Smith Electronics"/>
    <tag k="shop" v="electronics"/>
  </node>
  <node id="617671080" version="2" timestamp="2010-07-30T07:11:38Z" uid="4467" user="Rosscoe" changeset="5352119" lat="-32.9027453" lon="151.6903758">
    <tag k="name" v="NRMA"/>
    <tag k="service" v="roadside assistance"/>
    <tag k="shop" v="car"/>
  </node>
  <node id="617671146" version="2" timestamp="2010-07-30T07:09:27Z" uid="4467" user="Rosscoe" changeset="5352119" lat="-32.9032807" lon="151.6902736">
    <tag k="amenity" v="bank"/>
    <tag k="operator" v="Hunter United Credit Union"/>
  </node>
  <node id="617671245" version="2" timestamp="2010-06-13T05:10:34Z" uid="30201" user="rrankin" changeset="4975525" lat="-32.9026843" lon="151.6904622"/>
  <node id="617677279" version="2" timestamp="2010-04-17T14:11:16Z" uid="4467" user="Rosscoe" changeset="4448157" lat="-32.9107988" lon="151.719411">
    <tag k="highway" v="bus_stop"/>
  </node>
  <node id="617671066" version="3" timestamp="2012-05-18T11:43:36Z" uid="162757" user="floz" changeset="11631038" lat="-32.9021418" lon="151.6903771">
    <tag k="name" v="Dick Smith Electronics"/>
    <tag k="shop" v="electronics"/>
  </node>
  <node id="617671066" version="4" timestamp="2012-07-21T15:25:24Z" uid="722137" user="OSMF Redaction Account" changeset="12413375" lat="-32.9021418" lon="151.6903771">
    <tag k="name" v="Dick Smiths"/>
    <tag k="shop" v="electronics"/>
  </node>
  <node id="617671080" version="3" timestamp="2012-05-18T11:43:36Z" uid="162757" user="floz" changeset="11631038" lat="-32.9027298" lon="151.6902507">
    <tag k="name" v="NRMA"/>
    <tag k="service" v="roadside assistance"/>
    <tag k="shop" v="car"/>
  </node>
  <node id="617671080" version="4" timestamp="2012-07-21T15:25:23Z" uid="722137" user="OSMF Redaction Account" changeset="12413375" lat="-32.9027298" lon="151.6902507">
    <tag k="name" v="NRMA"/>
    <tag k="shop" v="motoring"/>
  </node>
  <node id="617671146" version="3" timestamp="2012-05-18T11:43:30Z" uid="162757" user="floz" changeset="11631038" lat="-32.9032357" lon="151.6901502">
    <tag k="amenity" v="bank"/>
    <tag k="operator" v="Hunter United Credit Union"/>
  </node>
  <node id="617671146" version="4" timestamp="2012-07-21T15:25:22Z" uid="722137" user="OSMF Redaction Account" changeset="12413375" lat="-32.9032357" lon="151.6901502">
    <tag k="operator" v="Hunter United Credit Union"/>
    <tag k="shop" v="bank"/>
  </node>
  <node id="617671245" version="3" timestamp="2012-07-21T15:25:23Z" uid="722137" user="OSMF Redaction Account" changeset="12413375" lat="-32.9026911" lon="151.6904935"/>
  <node id="617677279" version="3" timestamp="2012-07-21T15:25:11Z" uid="722137" user="OSMF Redaction Account" changeset="12413367" lat="-32.9107988" lon="151.7194107">
    <tag k="amenity" v="bus_stop"/>
  </node>
</osm>
