<?xml version='1.0' encoding='UTF-8'?>
<osm version="0.6" generator="libosmium/2.20.0">
  <node id="624450441" version="1" timestamp="2010-01-31T18:44:26Z" uid="33382" user="de_muur" changeset="3762064" lat="53.5423411" lon="10.1711267">
    <tag k="amenity" v="fuel"/>
    <tag k="name" v="Aral"/>
  </node>
  <node id="624450441" version="2" timestamp="2011-12-26T17:27:58Z" uid="290680" user="wheelmap_visitor" changeset="10205620" lat="53.5423411" lon="10.1711267">
    <tag k="amenity" v="fuel"/>
    <tag k="name" v="Aral"/>
    <tag k="wheelchair" v="limited"/>
  </node>
  <node id="624450441" version="3" timestamp="2012-02-19T19:12:23Z" uid="600035" user="Zambian Fever" changeset="10733162" lat="53.5423411" lon="10.1711267">
    <tag k="amenity" v="fuel"/>
    <tag k="brand" v="Aral"/>
    <tag k="fuel:diesel" v="yes"/>
    <tag k="fuel:e10" v="yes"/>
    <tag k="fuel:octane_95" v="yes"/>
    <tag k="fuel:octane_98" v="yes"/>
    <tag k="name" v="Aral"/>
    <tag k="operator" v="BP"/>
    <tag k="wheelchair" v="limited"/>
  </node>
  <node id="624450441" version="4" timestamp="2012-02-19T19:13:05Z" uid="600035" user="Zambian Fever" changeset="10733162" lat="53.5424731" lon="10.1714121">
    <tag k="amenity" v="fuel"/>
    <tag k="brand" v="Aral"/>
    <tag k="fuel:diesel" v="yes"/>
    <tag k="fuel:e10" v="yes"/>
    <tag k="fuel:octane_95" v="yes"/>
    <tag k="fuel:octane_98" v="yes"/>
    <tag k="name" v="Aral"/>
    <tag k="operator" v="BP"/>
    <tag k="wheelchair" v="limited"/>
  </node>
  <node id="624450446" version="1" timestamp="2010-01-31T18:44:26Z" uid="33382" user="de_muur" changeset="3762064" lat="53.5423222" lon="10.1833811"/>
  <node id="624450446" version="2" timestamp="2012-03-08T13:03:21Z" uid="63375" user="Divjo" changeset="10909008" lat="53.5423222" lon="10.1833811"/>
  <node id="624450448" version="1" timestamp="2010-01-31T18:44:26Z" uid="33382" user="de_muur" changeset="3762064" lat="53.5423698" lon="10.1827491"/>
  <node id="624450448" version="2" timestamp="2012-03-08T13:03:21Z" uid="63375" user="Divjo" changeset="10909008" lat="53.5423698" lon="10.1827491"/>
  <node id="624450450" version="1" timestamp="2010-01-31T18:44:26Z" uid="33382" user="de_muur" changeset="3762064" lat="53.5424292" lon="10.1818651"/>
  <node id="624450450" version="2" timestamp="2012-03-08T13:03:21Z" uid="63375" user="Divjo" changeset="10909008" lat="53.5424292" lon="10.1818651"/>
  <node id="624450451" version="1" timestamp="2010-01-31T18:44:27Z" uid="33382" user="de_muur" changeset="3762064" lat="53.5424767" lon="10.1801931"/>
  <node id="624450451" version="2" timestamp="2012-03-08T13:03:21Z" uid="63375" user="Divjo" changeset="10909008" lat="53.5424767" lon="10.1801931"/>
  <node id="624450453" version="1" timestamp="2010-01-31T18:44:27Z" uid="33382" user="de_muur" changeset="3762064" lat="53.5418274" lon="10.1861531"/>
  <node id="624450453" version="2" timestamp="2012-03-08T13:03:21Z" uid="63375" user="Divjo" changeset="10909008" lat="53.5418274" lon="10.1861531"/>
  <node id="624450456" version="1" timestamp="2010-01-31T18:44:27Z" uid="33382" user="de_muur" changeset="3762064" lat="53.5420313" lon="10.1856864"/>
  <node id="624450456" version="2" timestamp="2012-03-08T13:03:21Z" uid="63375" user="Divjo" changeset="10909008" lat="53.5420313" lon="10.1856864"/>
  <node id="624450458" version="1" timestamp="2010-01-31T18:44:27Z" uid="33382" user="de_muur" changeset="3762064" lat="53.5421962" lon="10.1846011"/>
  <node id="624450458" version="2" timestamp="2012-03-08T13:03:21Z" uid="63375" user="Divjo" changeset="10909008" lat="53.5421962" lon="10.1846011"/>
  <node id="624452947" version="2" timestamp="2010-07-29T09:04:40Z" uid="74617" user="JohnSmith" changeset="5344848" lat="52.5911035" lon="12.2660296">
    <tag k="amenity" v="emergency_phone"/>
    <tag k="emergency" v="phone"/>
    <tag k="operator" v="Björn-Steiger Stiftung"/>
  </node>
  <node id="624450441" version="5" timestamp="2012-07-17T11:11:13Z" uid="722137" user="OSMF Redaction Account" changeset="12263816" lat="53.5424731" lon="10.1714121">
    <tag k="brand" v="Aral"/>
    <tag k="fuel:diesel" v="yes"/>
    <tag k="fuel:e10" v="yes"/>
    <tag k="fuel:octane_95" v="yes"/>
    <tag k="fuel:octane_98" v="yes"/>
    <tag k="operator" v="BP"/>
    <tag k="wheelchair" v="limited"/>
  </node>
  <node id="624452947" version="3" timestamp="2012-07-18T15:41:44Z" uid="722137" user="OSMF Redaction Account" changeset="12287411" lat="52.5911035" lon="12.2660296">
    <tag k="amenity" v="emergency_phone"/>
    <tag k="operator" v="Björn-Steiger Stiftung"/>
  </node>
</osm>
