<?xml version='1.0' encoding='UTF-8'?>
<osm version="0.6" generator="libosmium/2.20.0">
  <node id="62505581" version="12" timestamp="2009-07-22T18:42:32Z" uid="20587" user="balrog-kun" changeset="1907934" lat="45.4666211" lon="9.1906166">
    <tag k="gfoss_id" v="1844"/>
    <tag k="is_in" v="Milano, Lombardia, Italy"/>
    <tag k="is_in:continent" v="Europe"/>
    <tag k="loc_name" v="Milán"/>
    <tag k="name" v="Milano"/>
    <tag k="name:de" v="Mailand"/>
    <tag k="name:en" v="Milan"/>
    <tag k="name:es" v="Milán"/>
    <tag k="name:fi" v="Milano"/>
    <tag k="name:fr" v="Milan"/>
    <tag k="name:he" v="מילנו"/>
    <tag k="name:hu" v="Milánó"/>
    <tag k="name:it" v="Milano"/>
    <tag k="name:la" v="Mediolanum"/>
    <tag k="name:nl" v="Milaan"/>
    <tag k="name:pl" v="Mediolan"/>
    <tag k="name:pt" v="Milão"/>
    <tag k="name:ru" v="Милан"/>
    <tag k="name:za" v="Milaan"/>
    <tag k="place" v="city"/>
    <tag k="population" v="1256211"/>
    <tag k="source" v="geodati.gfoss.it"/>
    <tag k="wikipedia" v="Milan"/>
  </node>
  <node id="62505581" version="13" timestamp="2009-09-30T10:50:54Z" uid="29717" user="eumiro" changeset="2686580" lat="45.4666211" lon="9.1906166">
    <tag k="gfoss_id" v="1844"/>
    <tag k="is_in" v="Milano, Lombardia, Italy"/>
    <tag k="is_in:continent" v="Europe"/>
    <tag k="loc_name" v="Milán"/>
    <tag k="name" v="Milano"/>
    <tag k="name:cs" v="Milán"/>
    <tag k="name:de" v="Mailand"/>
    <tag k="name:en" v="Milan"/>
    <tag k="name:es" v="Milán"/>
    <tag k="name:fi" v="Milano"/>
    <tag k="name:fr" v="Milan"/>
    <tag k="name:he" v="מילנו"/>
    <tag k="name:hu" v="Milánó"/>
    <tag k="name:it" v="Milano"/>
    <tag k="name:la" v="Mediolanum"/>
    <tag k="name:nl" v="Milaan"/>
    <tag k="name:pl" v="Mediolan"/>
    <tag k="name:pt" v="Milão"/>
    <tag k="name:ru" v="Милан"/>
    <tag k="name:sk" v="Miláno"/>
    <tag k="name:za" v="Milaan"/>
    <tag k="place" v="city"/>
    <tag k="population" v="1256211"/>
    <tag k="source" v="geodati.gfoss.it"/>
    <tag k="wikipedia" v="Milan"/>
  </node>
  <node id="62505581" version="14" timestamp="2010-03-08T13:21:04Z" uid="221997" user="EuskalMapa" changeset="4071747" lat="45.4666211" lon="9.1906166">
    <tag k="gfoss_id" v="1844"/>
    <tag k="is_in" v="Milano, Lombardia, Italy"/>
    <tag k="is_in:continent" v="Europe"/>
    <tag k="loc_name" v="Milán"/>
    <tag k="name" v="Milano"/>
    <tag k="name:cs" v="Milán"/>
    <tag k="name:de" v="Mailand"/>
    <tag k="name:en" v="Milan"/>
    <tag k="name:es" v="Milán"/>
    <tag k="name:eu" v="Milan"/>
    <tag k="name:fi" v="Milano"/>
    <tag k="name:fr" v="Milan"/>
    <tag k="name:he" v="מילנו"/>
    <tag k="name:hu" v="Milánó"/>
    <tag k="name:it" v="Milano"/>
    <tag k="name:la" v="Mediolanum"/>
    <tag k="name:nl" v="Milaan"/>
    <tag k="name:pl" v="Mediolan"/>
    <tag k="name:pt" v="Milão"/>
    <tag k="name:ru" v="Милан"/>
    <tag k="name:sk" v="Miláno"/>
    <tag k="name:za" v="Milaan"/>
    <tag k="place" v="city"/>
    <tag k="population" v="1256211"/>
    <tag k="source" v="geodati.gfoss.it"/>
    <tag k="wikipedia" v="Milan"/>
  </node>
  <node id="62505581" version="15" timestamp="2010-11-21T13:29:52Z" uid="97922" user="damjang" changeset="6422518" lat="45.4666211" lon="9.1906166">
    <tag k="gfoss_id" v="1844"/>
    <tag k="is_in" v="Milano, Lombardia, Italy"/>
    <tag k="is_in:continent" v="Europe"/>
    <tag k="loc_name" v="Milán"/>
    <tag k="name" v="Milano"/>
    <tag k="name:cs" v="Milán"/>
    <tag k="name:de" v="Mailand"/>
    <tag k="name:en" v="Milan"/>
    <tag k="name:es" v="Milán"/>
    <tag k="name:eu" v="Milan"/>
    <tag k="name:fi" v="Milano"/>
    <tag k="name:fr" v="Milan"/>
    <tag k="name:he" v="מילנו"/>
    <tag k="name:hu" v="Milánó"/>
    <tag k="name:it" v="Milano"/>
    <tag k="name:la" v="Mediolanum"/>
    <tag k="name:nl" v="Milaan"/>
    <tag k="name:pl" v="Mediolan"/>
    <tag k="name:pt" v="Milão"/>
    <tag k="name:ru" v="Милан"/>
    <tag k="name:sk" v="Miláno"/>
    <tag k="name:sl" v="Milan"/>
    <tag k="name:za" v="Milaan"/>
    <tag k="place" v="city"/>
    <tag k="population" v="1256211"/>
    <tag k="source" v="geodati.gfoss.it"/>
    <tag k="wikipedia" v="Milan"/>
  </node>
  <node id="62505581" version="16" timestamp="2011-01-24T12:03:23Z" uid="393666" user="etrumap" changeset="7072251" lat="45.4666211" lon="9.1906166">
    <tag k="capital" v="4"/>
    <tag k="gfoss_id" v="1844"/>
    <tag k="is_in" v="Milano, Lombardia, Italy"/>
    <tag k="is_in:continent" v="Europe"/>
    <tag k="loc_name" v="Milán"/>
    <tag k="name" v="Milano"/>
    <tag k="name:cs" v="Milán"/>
    <tag k="name:de" v="Mailand"/>
    <tag k="name:en" v="Milan"/>
    <tag k="name:es" v="Milán"/>
    <tag k="name:eu" v="Milan"/>
    <tag k="name:fi" v="Milano"/>
    <tag k="name:fr" v="Milan"/>
    <tag k="name:he" v="מילנו"/>
    <tag k="name:hu" v="Milánó"/>
    <tag k="name:it" v="Milano"/>
    <tag k="name:la" v="Mediolanum"/>
    <tag k="name:nl" v="Milaan"/>
    <tag k="name:pl" v="Mediolan"/>
    <tag k="name:pt" v="Milão"/>
    <tag k="name:ru" v="Милан"/>
    <tag k="name:sk" v="Miláno"/>
    <tag k="name:sl" v="Milan"/>
    <tag k="name:za" v="Milaan"/>
    <tag k="place" v="city"/>
    <tag k="population" v="1256211"/>
    <tag k="source" v="geodati.gfoss.it"/>
    <tag k="wikipedia" v="Milan"/>
  </node>
  <node id="62505581" version="17" timestamp="2011-02-01T18:42:12Z" uid="26139" user="dieterdreist" changeset="7157654" lat="45.4666212" lon="9.1906166">
    <tag k="capital" v="4"/>
    <tag k="gfoss_id" v="1844"/>
    <tag k="is_in" v="Milano, Lombardia, Italy"/>
    <tag k="is_in:continent" v="Europe"/>
    <tag k="loc_name" v="Milán"/>
    <tag k="name" v="Milano"/>
    <tag k="name:cs" v="Milán"/>
    <tag k="name:de" v="Mailand"/>
    <tag k="name:en" v="Milan"/>
    <tag k="name:es" v="Milán"/>
    <tag k="name:eu" v="Milan"/>
    <tag k="name:fi" v="Milano"/>
    <tag k="name:fr" v="Milan"/>
    <tag k="name:he" v="מילנו"/>
    <tag k="name:hu" v="Milánó"/>
    <tag k="name:it" v="Milano"/>
    <tag k="name:la" v="Mediolanum"/>
    <tag k="name:nl" v="Milaan"/>
    <tag k="name:pl" v="Mediolan"/>
    <tag k="name:pt" v="Milão"/>
    <tag k="name:ru" v="Милан"/>
    <tag k="name:sk" v="Miláno"/>
    <tag k="name:sl" v="Milan"/>
    <tag k="name:za" v="Milaan"/>
    <tag k="place" v="city"/>
    <tag k="population" v="1256211"/>
    <tag k="rank" v="10"/>
    <tag k="source" v="geodati.gfoss.it"/>
    <tag k="wikipedia" v="Milan"/>
  </node>
  <node id="62505581" version="18" timestamp="2011-02-02T10:57:28Z" uid="393666" user="etrumap" changeset="7163435" lat="45.4666212" lon="9.1906166">
    <tag k="capital" v="4"/>
    <tag k="gfoss_id" v="1844"/>
    <tag k="is_in" v="Milano, Lombardia, Italy"/>
    <tag k="is_in:continent" v="Europe"/>
    <tag k="loc_name" v="Milán"/>
    <tag k="name" v="Milano"/>
    <tag k="name:cs" v="Milán"/>
    <tag k="name:de" v="Mailand"/>
    <tag k="name:en" v="Milan"/>
    <tag k="name:es" v="Milán"/>
    <tag k="name:eu" v="Milan"/>
    <tag k="name:fi" v="Milano"/>
    <tag k="name:fr" v="Milan"/>
    <tag k="name:he" v="מילנו"/>
    <tag k="name:hu" v="Milánó"/>
    <tag k="name:it" v="Milano"/>
    <tag k="name:la" v="Mediolanum"/>
    <tag k="name:nl" v="Milaan"/>
    <tag k="name:pl" v="Mediolan"/>
    <tag k="name:pt" v="Milão"/>
    <tag k="name:ru" v="Милан"/>
    <tag k="name:sk" v="Miláno"/>
    <tag k="name:sl" v="Milan"/>
    <tag k="name:za" v="Milaan"/>
    <tag k="place" v="city"/>
    <tag k="population" v="1256211"/>
    <tag k="rank" v="1"/>
    <tag k="source" v="geodati.gfoss.it"/>
    <tag k="wikipedia" v="Milan"/>
  </node>
  <node id="62505581" version="19" timestamp="2011-02-25T09:10:20Z" uid="129060" user="Klenje" changeset="7388591" lat="45.4666212" lon="9.1906166">
    <tag k="capital" v="4"/>
    <tag k="gfoss_id" v="1844"/>
    <tag k="is_in" v="Milano, Lombardia, Italy"/>
    <tag k="is_in:continent" v="Europe"/>
    <tag k="loc_name" v="Milán"/>
    <tag k="name" v="Milano"/>
    <tag k="name:cs" v="Milán"/>
    <tag k="name:de" v="Mailand"/>
    <tag k="name:en" v="Milan"/>
    <tag k="name:es" v="Milán"/>
    <tag k="name:eu" v="Milan"/>
    <tag k="name:fi" v="Milano"/>
    <tag k="name:fr" v="Milan"/>
    <tag k="name:fur" v="Milan"/>
    <tag k="name:he" v="מילנו"/>
    <tag k="name:hu" v="Milánó"/>
    <tag k="name:it" v="Milano"/>
    <tag k="name:la" v="Mediolanum"/>
    <tag k="name:nl" v="Milaan"/>
    <tag k="name:pl" v="Mediolan"/>
    <tag k="name:pt" v="Milão"/>
    <tag k="name:ru" v="Милан"/>
    <tag k="name:sk" v="Miláno"/>
    <tag k="name:sl" v="Milan"/>
    <tag k="name:za" v="Milaan"/>
    <tag k="place" v="city"/>
    <tag k="population" v="1256211"/>
    <tag k="rank" v="1"/>
    <tag k="source" v="geodati.gfoss.it"/>
    <tag k="wikipedia" v="Milan"/>
  </node>
  <node id="62505581" version="20" timestamp="2011-05-15T13:49:29Z" uid="93026" user="mpele" changeset="8152060" lat="45.4666212" lon="9.1906166">
    <tag k="capital" v="4"/>
    <tag k="gfoss_id" v="1844"/>
    <tag k="is_in" v="Milano, Lombardia, Italy"/>
    <tag k="is_in:continent" v="Europe"/>
    <tag k="loc_name" v="Milán"/>
    <tag k="name" v="Milano"/>
    <tag k="name:cs" v="Milán"/>
    <tag k="name:de" v="Mailand"/>
    <tag k="name:en" v="Milan"/>
    <tag k="name:es" v="Milán"/>
    <tag k="name:eu" v="Milan"/>
    <tag k="name:fi" v="Milano"/>
    <tag k="name:fr" v="Milan"/>
    <tag k="name:fur" v="Milan"/>
    <tag k="name:he" v="מילנו"/>
    <tag k="name:hu" v="Milánó"/>
    <tag k="name:it" v="Milano"/>
    <tag k="name:la" v="Mediolanum"/>
    <tag k="name:nl" v="Milaan"/>
    <tag k="name:pl" v="Mediolan"/>
    <tag k="name:pt" v="Milão"/>
    <tag k="name:ru" v="Милан"/>
    <tag k="name:sk" v="Miláno"/>
    <tag k="name:sl" v="Milan"/>
    <tag k="name:sr" v="Милан"/>
    <tag k="name:za" v="Milaan"/>
    <tag k="place" v="city"/>
    <tag k="population" v="1256211"/>
    <tag k="rank" v="1"/>
    <tag k="source" v="geodati.gfoss.it"/>
    <tag k="wikipedia" v="Milan"/>
  </node>
  <node id="62505587" version="3" timestamp="2009-07-25T22:01:28Z" uid="123700" user="Mala" changeset="1939174" lat="45.697981" lon="9.668953">
    <tag k="gfoss_id" v="1950"/>
    <tag k="is_in" v="Bergamo, Lombardia, Italy"/>
    <tag k="is_in:continent" v="Europe"/>
    <tag k="name" v="Bergamo"/>
    <tag k="name:es" v="Bérgamo"/>
    <tag k="name:pt" v="Bérgamo"/>
    <tag k="place" v="city"/>
    <tag k="population" v="113143"/>
    <tag k="source" v="geodati.gfoss.it"/>
  </node>
  <node id="62505587" version="4" timestamp="2009-11-27T16:01:41Z" uid="166445" user="GranD" changeset="3229182" lat="45.6979811" lon="9.668953">
    <tag k="gfoss_id" v="1950"/>
    <tag k="is_in" v="Bergamo, Lombardia, Italy"/>
    <tag k="is_in:continent" v="Europe"/>
    <tag k="name" v="Bergamo"/>
    <tag k="name:es" v="Bérgamo"/>
    <tag k="name:pt" v="Bérgamo"/>
    <tag k="name:ru" v="Бергамо"/>
    <tag k="place" v="city"/>
    <tag k="population" v="113143"/>
    <tag k="source" v="geodati.gfoss.it"/>
  </node>
  <node id="62505587" version="5" timestamp="2011-01-24T12:03:23Z" uid="393666" user="etrumap" changeset="7072251" lat="45.6979811" lon="9.668953">
    <tag k="capital" v="6"/>
    <tag k="gfoss_id" v="1950"/>
    <tag k="is_in" v="Bergamo, Lombardia, Italy"/>
    <tag k="is_in:continent" v="Europe"/>
    <tag k="name" v="Bergamo"/>
    <tag k="name:es" v="Bérgamo"/>
    <tag k="name:pt" v="Bérgamo"/>
    <tag k="name:ru" v="Бергамо"/>
    <tag k="place" v="city"/>
    <tag k="population" v="113143"/>
    <tag k="source" v="geodati.gfoss.it"/>
  </node>
  <node id="62505592" version="6" timestamp="2009-07-25T22:01:27Z" uid="123700" user="Mala" changeset="1939174" lat="45.8104263" lon="9.0856221">
    <tag k="gfoss_id" v="1550"/>
    <tag k="is_in" v="Como, Lombardia, Italy"/>
    <tag k="is_in:continent" v="Europe"/>
    <tag k="name" v="Como"/>
    <tag k="name:fr" v="Côme"/>
    <tag k="place" v="city"/>
    <tag k="population" v="78680"/>
    <tag k="source" v="geodati.gfoss.it"/>
    <tag k="wikipedia" v="Como"/>
  </node>
  <node id="62505592" version="7" timestamp="2009-12-07T16:59:24Z" uid="121389" user="Rastatter" changeset="3317383" lat="45.8104263" lon="9.085622">
    <tag k="gfoss_id" v="1550"/>
    <tag k="is_in" v="Como, Lombardia, Italy"/>
    <tag k="is_in:continent" v="Europe"/>
    <tag k="name" v="Como"/>
    <tag k="name:fr" v="Côme"/>
    <tag k="place" v="town"/>
    <tag k="population" v="78680"/>
    <tag k="source" v="geodati.gfoss.it"/>
    <tag k="wikipedia" v="Como"/>
  </node>
  <node id="62505592" version="8" timestamp="2010-05-24T13:46:13Z" uid="80088" user="FedericoCozzi" changeset="4793581" lat="45.8104264" lon="9.0856219">
    <tag k="gfoss_id" v="1550"/>
    <tag k="is_in" v="Como, Lombardia, Italy"/>
    <tag k="is_in:continent" v="Europe"/>
    <tag k="name" v="Como"/>
    <tag k="name:fr" v="Côme"/>
    <tag k="place" v="city"/>
    <tag k="population" v="78680"/>
    <tag k="source" v="geodati.gfoss.it"/>
    <tag k="wikipedia" v="Como"/>
  </node>
  <node id="62505592" version="9" timestamp="2010-07-19T07:07:12Z" uid="166445" user="GranD" changeset="5257923" lat="45.8104264" lon="9.0856219">
    <tag k="gfoss_id" v="1550"/>
    <tag k="is_in" v="Como, Lombardia, Italy"/>
    <tag k="is_in:continent" v="Europe"/>
    <tag k="name" v="Como"/>
    <tag k="name:fr" v="Côme"/>
    <tag k="name:ru" v="Комо"/>
    <tag k="place" v="city"/>
    <tag k="population" v="78680"/>
    <tag k="source" v="geodati.gfoss.it"/>
    <tag k="wikipedia" v="Como"/>
  </node>
  <node id="62505592" version="10" timestamp="2011-01-24T12:03:22Z" uid="393666" user="etrumap" changeset="7072251" lat="45.8104264" lon="9.0856219">
    <tag k="capital" v="6"/>
    <tag k="gfoss_id" v="1550"/>
    <tag k="is_in" v="Como, Lombardia, Italy"/>
    <tag k="is_in:continent" v="Europe"/>
    <tag k="name" v="Como"/>
    <tag k="name:fr" v="Côme"/>
    <tag k="name:ru" v="Комо"/>
    <tag k="place" v="city"/>
    <tag k="population" v="78680"/>
    <tag k="source" v="geodati.gfoss.it"/>
    <tag k="wikipedia" v="Como"/>
  </node>
  <node id="62505595" version="4" timestamp="2009-07-25T22:01:23Z" uid="123700" user="Mala" changeset="1939174" lat="45.1361716" lon="10.0279691">
    <tag k="gfoss_id" v="2602"/>
    <tag k="is_in" v="Cremona, Lombardia, Italy"/>
    <tag k="is_in:continent" v="Europe"/>
    <tag k="name" v="Cremona"/>
    <tag k="name:fr" v="Crémone"/>
    <tag k="place" v="city"/>
    <tag k="population" v="70887"/>
    <tag k="postal_code" v="26100"/>
    <tag k="source" v="geodati.gfoss.it"/>
    <tag k="wikipedia" v="Cremona"/>
  </node>
  <node id="62505595" version="5" timestamp="2010-04-12T19:38:16Z" uid="166445" user="GranD" changeset="4407950" lat="45.1361716" lon="10.0279691">
    <tag k="gfoss_id" v="2602"/>
    <tag k="is_in" v="Cremona, Lombardia, Italy"/>
    <tag k="is_in:continent" v="Europe"/>
    <tag k="name" v="Cremona"/>
    <tag k="name:fr" v="Crémone"/>
    <tag k="name:ru" v="Кремона"/>
    <tag k="place" v="city"/>
    <tag k="population" v="70887"/>
    <tag k="postal_code" v="26100"/>
    <tag k="source" v="geodati.gfoss.it"/>
    <tag k="wikipedia" v="Cremona"/>
  </node>
  <node id="62505595" version="6" timestamp="2010-05-04T17:15:26Z" uid="80088" user="FedericoCozzi" changeset="4605983" lat="45.1361716" lon="10.0279691">
    <tag k="gfoss_id" v="2602"/>
    <tag k="is_in" v="Cremona, Lombardia, Italy"/>
    <tag k="is_in:continent" v="Europe"/>
    <tag k="name" v="Cremona"/>
    <tag k="name:fr" v="Crémone"/>
    <tag k="name:ru" v="Кремона"/>
    <tag k="place" v="town"/>
    <tag k="population" v="70887"/>
    <tag k="postal_code" v="26100"/>
    <tag k="source" v="geodati.gfoss.it"/>
    <tag k="wikipedia" v="Cremona"/>
  </node>
  <node id="62505595" version="7" timestamp="2010-05-24T13:49:34Z" uid="80088" user="FedericoCozzi" changeset="4793607" lat="45.1361717" lon="10.027969">
    <tag k="gfoss_id" v="2602"/>
    <tag k="is_in" v="Cremona, Lombardia, Italy"/>
    <tag k="is_in:continent" v="Europe"/>
    <tag k="name" v="Cremona"/>
    <tag k="name:fr" v="Crémone"/>
    <tag k="name:ru" v="Кремона"/>
    <tag k="place" v="city"/>
    <tag k="population" v="70887"/>
    <tag k="postal_code" v="26100"/>
    <tag k="source" v="geodati.gfoss.it"/>
    <tag k="wikipedia" v="Cremona"/>
  </node>
  <node id="62505595" version="8" timestamp="2011-01-24T12:03:22Z" uid="393666" user="etrumap" changeset="7072251" lat="45.1361717" lon="10.027969">
    <tag k="capital" v="6"/>
    <tag k="gfoss_id" v="2602"/>
    <tag k="is_in" v="Cremona, Lombardia, Italy"/>
    <tag k="is_in:continent" v="Europe"/>
    <tag k="name" v="Cremona"/>
    <tag k="name:fr" v="Crémone"/>
    <tag k="name:ru" v="Кремона"/>
    <tag k="place" v="city"/>
    <tag k="population" v="70887"/>
    <tag k="postal_code" v="26100"/>
    <tag k="source" v="geodati.gfoss.it"/>
    <tag k="wikipedia" v="Cremona"/>
  </node>
  <node id="62505595" version="9" timestamp="2011-05-16T18:46:50Z" uid="455526" user="gbodini" changeset="8164992" lat="45.1346168" lon="10.0251103">
    <tag k="capital" v="6"/>
    <tag k="gfoss_id" v="2602"/>
    <tag k="is_in" v="Cremona, Lombardia, Italy"/>
    <tag k="is_in:continent" v="Europe"/>
    <tag k="name" v="Cremona"/>
    <tag k="name:fr" v="Crémone"/>
    <tag k="name:ru" v="Кремона"/>
    <tag k="place" v="city"/>
    <tag k="population" v="70887"/>
    <tag k="postal_code" v="26100"/>
    <tag k="source" v="geodati.gfoss.it"/>
    <tag k="wikipedia" v="Cremona"/>
  </node>
  <node id="62505610" version="5" timestamp="2009-07-22T18:51:32Z" uid="20587" user="balrog-kun" changeset="1908051" lat="45.1607439" lon="10.7954342">
    <tag k="gfoss_id" v="2711"/>
    <tag k="is_in" v="Mantova, Lombardia, Italy"/>
    <tag k="is_in:continent" v="Europe"/>
    <tag k="name" v="Mantova"/>
    <tag k="name:ar" v="مانتوفا"/>
    <tag k="name:en" v="Mantua"/>
    <tag k="name:es" v="Mantua"/>
    <tag k="name:fr" v="Mantoue"/>
    <tag k="name:la" v="Mantua"/>
    <tag k="name:nl" v="Mantua"/>
    <tag k="name:pl" v="Mantua"/>
    <tag k="name:ru" v="Мантуя"/>
    <tag k="place" v="city"/>
    <tag k="population" v="47790"/>
    <tag k="source" v="geodati.gfoss.it"/>
    <tag k="wikipedia" v="Mantua"/>
  </node>
  <node id="62505610" version="6" timestamp="2010-05-04T17:15:25Z" uid="80088" user="FedericoCozzi" changeset="4605983" lat="45.1607439" lon="10.7954342">
    <tag k="gfoss_id" v="2711"/>
    <tag k="is_in" v="Mantova, Lombardia, Italy"/>
    <tag k="is_in:continent" v="Europe"/>
    <tag k="name" v="Mantova"/>
    <tag k="name:ar" v="مانتوفا"/>
    <tag k="name:en" v="Mantua"/>
    <tag k="name:es" v="Mantua"/>
    <tag k="name:fr" v="Mantoue"/>
    <tag k="name:la" v="Mantua"/>
    <tag k="name:nl" v="Mantua"/>
    <tag k="name:pl" v="Mantua"/>
    <tag k="name:ru" v="Мантуя"/>
    <tag k="place" v="town"/>
    <tag k="population" v="47790"/>
    <tag k="source" v="geodati.gfoss.it"/>
    <tag k="wikipedia" v="Mantua"/>
  </node>
  <node id="62505610" version="7" timestamp="2010-09-17T19:06:57Z" uid="207544" user="cacaito" changeset="5806351" lat="45.1607439" lon="10.7954342">
    <tag k="gfoss_id" v="2711"/>
    <tag k="is_in" v="Mantova, Lombardia, Italy"/>
    <tag k="is_in:continent" v="Europe"/>
    <tag k="name" v="Mantova"/>
    <tag k="name:ar" v="مانتوفا"/>
    <tag k="name:en" v="Mantua"/>
    <tag k="name:es" v="Mantua"/>
    <tag k="name:fr" v="Mantoue"/>
    <tag k="name:la" v="Mantua"/>
    <tag k="name:nl" v="Mantua"/>
    <tag k="name:pl" v="Mantua"/>
    <tag k="name:ru" v="Мантуя"/>
    <tag k="place" v="city"/>
    <tag k="population" v="47790"/>
    <tag k="source" v="geodati.gfoss.it"/>
    <tag k="wikipedia" v="Mantua"/>
  </node>
  <node id="62505610" version="8" timestamp="2011-01-24T12:03:22Z" uid="393666" user="etrumap" changeset="7072251" lat="45.1607439" lon="10.7954342">
    <tag k="capital" v="6"/>
    <tag k="gfoss_id" v="2711"/>
    <tag k="is_in" v="Mantova, Lombardia, Italy"/>
    <tag k="is_in:continent" v="Europe"/>
    <tag k="name" v="Mantova"/>
    <tag k="name:ar" v="مانتوفا"/>
    <tag k="name:en" v="Mantua"/>
    <tag k="name:es" v="Mantua"/>
    <tag k="name:fr" v="Mantoue"/>
    <tag k="name:la" v="Mantua"/>
    <tag k="name:nl" v="Mantua"/>
    <tag k="name:pl" v="Mantua"/>
    <tag k="name:ru" v="Мантуя"/>
    <tag k="place" v="city"/>
    <tag k="population" v="47790"/>
    <tag k="source" v="geodati.gfoss.it"/>
    <tag k="wikipedia" v="Mantua"/>
  </node>
  <node id="62505610" version="9" timestamp="2011-02-17T21:15:12Z" uid="22110" user="ilrobi" changeset="7317557" lat="45.1598944" lon="10.7968319">
    <tag k="capital" v="6"/>
    <tag k="gfoss_id" v="2711"/>
    <tag k="is_in" v="Mantova, Lombardia, Italy"/>
    <tag k="is_in:continent" v="Europe"/>
    <tag k="name" v="Mantova"/>
    <tag k="name:ar" v="مانتوفا"/>
    <tag k="name:en" v="Mantua"/>
    <tag k="name:es" v="Mantua"/>
    <tag k="name:fr" v="Mantoue"/>
    <tag k="name:la" v="Mantua"/>
    <tag k="name:nl" v="Mantua"/>
    <tag k="name:pl" v="Mantua"/>
    <tag k="name:ru" v="Мантуя"/>
    <tag k="place" v="city"/>
    <tag k="population" v="47790"/>
    <tag k="source" v="geodati.gfoss.it"/>
    <tag k="wikipedia" v="Mantua"/>
  </node>
  <node id="62505610" version="10" timestamp="2012-01-30T19:31:20Z" uid="111159" user="MaZderMind" changeset="10542935" lat="45.1598944" lon="10.7968319">
    <tag k="capital" v="6"/>
    <tag k="gfoss_id" v="2711"/>
    <tag k="is_in" v="Mantova, Lombardia, Italy"/>
    <tag k="is_in:continent" v="Europe"/>
    <tag k="name" v="Mantova"/>
    <tag k="name:ar" v="مانتوفا"/>
    <tag k="name:de" v="Mantua"/>
    <tag k="name:en" v="Mantua"/>
    <tag k="name:es" v="Mantua"/>
    <tag k="name:fr" v="Mantoue"/>
    <tag k="name:la" v="Mantua"/>
    <tag k="name:nl" v="Mantua"/>
    <tag k="name:pl" v="Mantua"/>
    <tag k="name:ru" v="Мантуя"/>
    <tag k="place" v="city"/>
    <tag k="population" v="47790"/>
    <tag k="source" v="geodati.gfoss.it"/>
    <tag k="wikipedia" v="Mantua"/>
  </node>
  <node id="62505610" version="11" timestamp="2012-03-13T08:51:02Z" uid="504502" user="peppe10" changeset="10964188" lat="45.1613638" lon="10.799208">
    <tag k="capital" v="6"/>
    <tag k="gfoss_id" v="2711"/>
    <tag k="is_in" v="Mantova, Lombardia, Italy"/>
    <tag k="is_in:continent" v="Europe"/>
    <tag k="name" v="Mantova"/>
    <tag k="name:ar" v="مانتوفا"/>
    <tag k="name:de" v="Mantua"/>
    <tag k="name:en" v="Mantua"/>
    <tag k="name:es" v="Mantua"/>
    <tag k="name:fr" v="Mantoue"/>
    <tag k="name:la" v="Mantua"/>
    <tag k="name:nl" v="Mantua"/>
    <tag k="name:pl" v="Mantua"/>
    <tag k="name:ru" v="Мантуя"/>
    <tag k="place" v="city"/>
    <tag k="population" v="47790"/>
    <tag k="source" v="geodati.gfoss.it"/>
    <tag k="wikipedia" v="Mantua"/>
  </node>
  <node id="62505612" version="6" timestamp="2009-07-25T15:08:21Z" uid="123700" user="Mala" changeset="1935220" lat="45.1860042" lon="9.1546376">
    <tag k="gfoss_id" v="2486"/>
    <tag k="is_in" v="Pavia, Lombardia, Italy"/>
    <tag k="is_in:continent" v="Europe"/>
    <tag k="name" v="Pavia"/>
    <tag k="name:es" v="Pavía"/>
    <tag k="name:fr" v="Pavie"/>
    <tag k="name:pl" v="Pawia"/>
    <tag k="place" v="city"/>
    <tag k="population" v="71214"/>
    <tag k="source" v="geodati.gfoss.it"/>
    <tag k="wikipedia" v="Pavia"/>
  </node>
  <node id="62505612" version="7" timestamp="2010-04-12T19:38:16Z" uid="166445" user="GranD" changeset="4407950" lat="45.1860042" lon="9.1546376">
    <tag k="gfoss_id" v="2486"/>
    <tag k="is_in" v="Pavia, Lombardia, Italy"/>
    <tag k="is_in:continent" v="Europe"/>
    <tag k="name" v="Pavia"/>
    <tag k="name:es" v="Pavía"/>
    <tag k="name:fr" v="Pavie"/>
    <tag k="name:pl" v="Pawia"/>
    <tag k="name:ru" v="Павия"/>
    <tag k="place" v="city"/>
    <tag k="population" v="71214"/>
    <tag k="source" v="geodati.gfoss.it"/>
    <tag k="wikipedia" v="Pavia"/>
  </node>
  <node id="62505612" version="8" timestamp="2010-05-04T16:31:29Z" uid="80088" user="FedericoCozzi" changeset="4605606" lat="45.1860042" lon="9.1546375">
    <tag k="gfoss_id" v="2486"/>
    <tag k="is_in" v="Pavia, Lombardia, Italy"/>
    <tag k="is_in:continent" v="Europe"/>
    <tag k="name" v="Pavia"/>
    <tag k="name:es" v="Pavía"/>
    <tag k="name:fr" v="Pavie"/>
    <tag k="name:pl" v="Pawia"/>
    <tag k="name:ru" v="Павия"/>
    <tag k="place" v="town"/>
    <tag k="population" v="71214"/>
    <tag k="source" v="geodati.gfoss.it"/>
    <tag k="wikipedia" v="Pavia"/>
  </node>
  <node id="62505612" version="9" timestamp="2010-05-24T13:48:31Z" uid="80088" user="FedericoCozzi" changeset="4793597" lat="45.1860043" lon="9.1546375">
    <tag k="gfoss_id" v="2486"/>
    <tag k="is_in" v="Pavia, Lombardia, Italy"/>
    <tag k="is_in:continent" v="Europe"/>
    <tag k="name" v="Pavia"/>
    <tag k="name:es" v="Pavía"/>
    <tag k="name:fr" v="Pavie"/>
    <tag k="name:pl" v="Pawia"/>
    <tag k="name:ru" v="Павия"/>
    <tag k="place" v="city"/>
    <tag k="population" v="71214"/>
    <tag k="source" v="geodati.gfoss.it"/>
    <tag k="wikipedia" v="Pavia"/>
  </node>
  <node id="62505612" version="10" timestamp="2011-01-24T12:06:31Z" uid="393666" user="etrumap" changeset="7072274" lat="45.1860043" lon="9.1546375">
    <tag k="capital" v="6"/>
    <tag k="gfoss_id" v="2486"/>
    <tag k="is_in" v="Pavia, Lombardia, Italy"/>
    <tag k="is_in:continent" v="Europe"/>
    <tag k="name" v="Pavia"/>
    <tag k="name:es" v="Pavía"/>
    <tag k="name:fr" v="Pavie"/>
    <tag k="name:pl" v="Pawia"/>
    <tag k="name:ru" v="Павия"/>
    <tag k="place" v="city"/>
    <tag k="population" v="71214"/>
    <tag k="source" v="geodati.gfoss.it"/>
    <tag k="wikipedia" v="Pavia"/>
  </node>
  <node id="62505612" version="11" timestamp="2012-03-08T14:43:44Z" uid="7045" user="Xuacu" changeset="10909736" lat="45.1860043" lon="9.1546375">
    <tag k="capital" v="6"/>
    <tag k="gfoss_id" v="2486"/>
    <tag k="is_in" v="Pavia, Lombardia, Italy"/>
    <tag k="is_in:continent" v="Europe"/>
    <tag k="name" v="Pavia"/>
    <tag k="name:ast" v="Pavía"/>
    <tag k="name:es" v="Pavía"/>
    <tag k="name:fr" v="Pavie"/>
    <tag k="name:pl" v="Pawia"/>
    <tag k="name:ru" v="Павия"/>
    <tag k="place" v="city"/>
    <tag k="population" v="71214"/>
    <tag k="source" v="geodati.gfoss.it"/>
    <tag k="wikipedia" v="Pavia"/>
  </node>
  <node id="62505628" version="4" timestamp="2009-07-25T22:01:27Z" uid="123700" user="Mala" changeset="1939174" lat="45.8185641" lon="8.8237491">
    <tag k="gfoss_id" v="1489"/>
    <tag k="is_in" v="Varese, Lombardia, Italy"/>
    <tag k="is_in:continent" v="Europe"/>
    <tag k="name" v="Varese"/>
    <tag k="name:fr" v="Varèse"/>
    <tag k="place" v="city"/>
    <tag k="population" v="80511"/>
    <tag k="source" v="geodati.gfoss.it"/>
    <tag k="wikipedia" v="Varese"/>
  </node>
  <node id="62505628" version="5" timestamp="2010-04-12T19:38:17Z" uid="166445" user="GranD" changeset="4407950" lat="45.8185641" lon="8.8237491">
    <tag k="gfoss_id" v="1489"/>
    <tag k="is_in" v="Varese, Lombardia, Italy"/>
    <tag k="is_in:continent" v="Europe"/>
    <tag k="name" v="Varese"/>
    <tag k="name:fr" v="Varèse"/>
    <tag k="name:ru" v="Варезе"/>
    <tag k="place" v="city"/>
    <tag k="population" v="80511"/>
    <tag k="source" v="geodati.gfoss.it"/>
    <tag k="wikipedia" v="Varese"/>
  </node>
  <node id="62505628" version="6" timestamp="2010-05-04T17:15:25Z" uid="80088" user="FedericoCozzi" changeset="4605983" lat="45.8185641" lon="8.8237491">
    <tag k="gfoss_id" v="1489"/>
    <tag k="is_in" v="Varese, Lombardia, Italy"/>
    <tag k="is_in:continent" v="Europe"/>
    <tag k="name" v="Varese"/>
    <tag k="name:fr" v="Varèse"/>
    <tag k="name:ru" v="Варезе"/>
    <tag k="place" v="town"/>
    <tag k="population" v="80511"/>
    <tag k="source" v="geodati.gfoss.it"/>
    <tag k="wikipedia" v="Varese"/>
  </node>
  <node id="62505628" version="7" timestamp="2010-05-05T19:50:48Z" uid="54561" user="jacopogg83" changeset="4616270" lat="45.8183902" lon="8.823913">
    <tag k="gfoss_id" v="1489"/>
    <tag k="is_in" v="Varese, Lombardia, Italy"/>
    <tag k="is_in:continent" v="Europe"/>
    <tag k="name" v="Varese"/>
    <tag k="name:fr" v="Varèse"/>
    <tag k="name:ru" v="Варезе"/>
    <tag k="place" v="town"/>
    <tag k="population" v="80511"/>
    <tag k="source" v="geodati.gfoss.it"/>
    <tag k="wikipedia" v="Varese"/>
  </node>
  <node id="62505628" version="8" timestamp="2010-05-24T13:47:06Z" uid="80088" user="FedericoCozzi" changeset="4793587" lat="45.8183902" lon="8.823913">
    <tag k="gfoss_id" v="1489"/>
    <tag k="is_in" v="Varese, Lombardia, Italy"/>
    <tag k="is_in:continent" v="Europe"/>
    <tag k="name" v="Varese"/>
    <tag k="name:fr" v="Varèse"/>
    <tag k="name:ru" v="Варезе"/>
    <tag k="place" v="city"/>
    <tag k="population" v="80511"/>
    <tag k="source" v="geodati.gfoss.it"/>
    <tag k="wikipedia" v="Varese"/>
  </node>
  <node id="62505628" version="9" timestamp="2011-01-24T12:06:32Z" uid="393666" user="etrumap" changeset="7072274" lat="45.8183902" lon="8.823913">
    <tag k="capital" v="6"/>
    <tag k="gfoss_id" v="1489"/>
    <tag k="is_in" v="Varese, Lombardia, Italy"/>
    <tag k="is_in:continent" v="Europe"/>
    <tag k="name" v="Varese"/>
    <tag k="name:fr" v="Varèse"/>
    <tag k="name:ru" v="Варезе"/>
    <tag k="place" v="city"/>
    <tag k="population" v="80511"/>
    <tag k="source" v="geodati.gfoss.it"/>
    <tag k="wikipedia" v="Varese"/>
  </node>
  <node id="62505628" version="10" timestamp="2011-12-09T11:27:14Z" uid="178186" user="mdk" changeset="10072288" lat="45.8183902" lon="8.823913">
    <tag k="capital" v="6"/>
    <tag k="gfoss_id" v="1489"/>
    <tag k="is_in" v="Varese, Lombardia, Italy"/>
    <tag k="is_in:continent" v="Europe"/>
    <tag k="name" v="Varese"/>
    <tag k="name:fr" v="Varèse"/>
    <tag k="name:it" v="Varese"/>
    <tag k="name:ru" v="Варезе"/>
    <tag k="place" v="city"/>
    <tag k="population" v="80511"/>
    <tag k="source" v="geodati.gfoss.it"/>
    <tag k="wikipedia" v="Varese"/>
  </node>
  <node id="62505581" version="21" timestamp="2012-05-21T19:09:26Z" uid="40611" user="Stereo" changeset="11665173" lat="45.4666212" lon="9.1906166">
    <tag k="capital" v="4"/>
    <tag k="gfoss_id" v="1844"/>
    <tag k="is_in" v="Milano, Lombardia, Italy"/>
    <tag k="is_in:continent" v="Europe"/>
    <tag k="loc_name" v="Milán"/>
    <tag k="name" v="Milano"/>
    <tag k="name:cs" v="Milán"/>
    <tag k="name:de" v="Mailand"/>
    <tag k="name:en" v="Milan"/>
    <tag k="name:es" v="Milán"/>
    <tag k="name:eu" v="Milan"/>
    <tag k="name:fi" v="Milano"/>
    <tag k="name:fr" v="Milan"/>
    <tag k="name:fur" v="Milan"/>
    <tag k="name:he" v="מילנו"/>
    <tag k="name:hu" v="Milánó"/>
    <tag k="name:it" v="Milano"/>
    <tag k="name:la" v="Mediolanum"/>
    <tag k="name:lb" v="Mailand"/>
    <tag k="name:nl" v="Milaan"/>
    <tag k="name:pl" v="Mediolan"/>
    <tag k="name:pt" v="Milão"/>
    <tag k="name:ru" v="Милан"/>
    <tag k="name:sk" v="Miláno"/>
    <tag k="name:sl" v="Milan"/>
    <tag k="name:sr" v="Милан"/>
    <tag k="name:za" v="Milaan"/>
    <tag k="place" v="city"/>
    <tag k="population" v="1256211"/>
    <tag k="rank" v="1"/>
    <tag k="source" v="geodati.gfoss.it"/>
    <tag k="wikipedia" v="Milan"/>
  </node>
  <node id="62505581" version="22" timestamp="2012-07-16T14:01:33Z" uid="722137" user="OSMF Redaction Account" changeset="12245555" lat="45.4666211" lon="9.1906166">
    <tag k="capital" v="4"/>
    <tag k="gfoss_id" v="1844"/>
    <tag k="is_in" v="Milano, Lombardia, Italy"/>
    <tag k="is_in:continent" v="Europe"/>
    <tag k="loc_name" v="Milán"/>
    <tag k="name" v="Milano"/>
    <tag k="name:cs" v="Milán"/>
    <tag k="name:de" v="Mailand"/>
    <tag k="name:en" v="Milan"/>
    <tag k="name:es" v="Milán"/>
    <tag k="name:fi" v="Milano"/>
    <tag k="name:fr" v="Milan"/>
    <tag k="name:fur" v="Milan"/>
    <tag k="name:he" v="מילנו"/>
    <tag k="name:hu" v="Milánó"/>
    <tag k="name:it" v="Milano"/>
    <tag k="name:la" v="Mediolanum"/>
    <tag k="name:lb" v="Mailand"/>
    <tag k="name:nl" v="Milaan"/>
    <tag k="name:pl" v="Mediolan"/>
    <tag k="name:pt" v="Milão"/>
    <tag k="name:ru" v="Милан"/>
    <tag k="name:sk" v="Miláno"/>
    <tag k="name:sl" v="Milan"/>
    <tag k="name:sr" v="Милан"/>
    <tag k="name:za" v="Milaan"/>
    <tag k="place" v="city"/>
    <tag k="population" v="1256211"/>
    <tag k="rank" v="1"/>
    <tag k="source" v="geodati.gfoss.it"/>
    <tag k="wikipedia" v="Milan"/>
  </node>
  <node id="62505587" version="6" timestamp="2012-04-07T11:57:25Z" uid="242257" user="Emmanuel Dewaele" changeset="11213031" lat="45.6979811" lon="9.668953">
    <tag k="capital" v="6"/>
    <tag k="gfoss_id" v="1950"/>
    <tag k="is_in" v="Bergamo, Lombardia, Italy"/>
    <tag k="is_in:continent" v="Europe"/>
    <tag k="name" v="Bergamo"/>
    <tag k="name:es" v="Bérgamo"/>
    <tag k="name:fr" v="Bergame"/>
    <tag k="name:pt" v="Bérgamo"/>
    <tag k="name:ru" v="Бергамо"/>
    <tag k="place" v="city"/>
    <tag k="population" v="113143"/>
    <tag k="source" v="geodati.gfoss.it"/>
  </node>
  <node id="62505587" version="7" timestamp="2012-07-08T15:55:21Z" uid="382012" user="Alessandro Barbieri" changeset="12151609" lat="45.6979811" lon="9.668953">
    <tag k="capital" v="6"/>
    <tag k="gfoss_id" v="1950"/>
    <tag k="is_in" v="Bergamo, Lombardia, Italy"/>
    <tag k="is_in:continent" v="Europe"/>
    <tag k="name" v="Bergamo"/>
    <tag k="name:es" v="Bérgamo"/>
    <tag k="name:fr" v="Bergame"/>
    <tag k="name:it" v="Bergamo"/>
    <tag k="name:pt" v="Bérgamo"/>
    <tag k="name:ru" v="Бергамо"/>
    <tag k="place" v="city"/>
    <tag k="population" v="113143"/>
    <tag k="source" v="geodati.gfoss.it"/>
  </node>
  <node id="62505592" version="11" timestamp="2012-04-22T10:02:12Z" uid="573955" user="MrX_FF" changeset="11382107" lat="45.8104264" lon="9.0856219">
    <tag k="capital" v="6"/>
    <tag k="gfoss_id" v="1550"/>
    <tag k="is_in" v="Como, Lombardia, Italy"/>
    <tag k="is_in:continent" v="Europe"/>
    <tag k="name" v="Como"/>
    <tag k="name:fr" v="Côme"/>
    <tag k="name:ru" v="Комо"/>
    <tag k="name:zh" v="科莫"/>
    <tag k="place" v="city"/>
    <tag k="population" v="78680"/>
    <tag k="source" v="geodati.gfoss.it"/>
    <tag k="wikipedia" v="Como"/>
  </node>
  <node id="62505592" version="12" timestamp="2012-07-16T10:39:58Z" uid="722137" user="OSMF Redaction Account" changeset="12242786" lat="45.8106805" lon="9.0863028">
    <tag k="capital" v="6"/>
    <tag k="gfoss_id" v="1550"/>
    <tag k="is_in" v="Como, Lombardia, Italy"/>
    <tag k="is_in:continent" v="Europe"/>
    <tag k="name" v="Como"/>
    <tag k="name:fr" v="Côme"/>
    <tag k="name:ru" v="Комо"/>
    <tag k="name:zh" v="科莫"/>
    <tag k="place" v="city"/>
    <tag k="population" v="78680"/>
    <tag k="source" v="geodati.gfoss.it"/>
    <tag k="wikipedia" v="Como"/>
  </node>
  <node id="62505595" version="10" timestamp="2012-06-26T16:37:19Z" uid="382012" user="Alessandro Barbieri" changeset="12028215" lat="45.1346168" lon="10.0251103">
    <tag k="capital" v="6"/>
    <tag k="gfoss_id" v="2602"/>
    <tag k="is_in" v="Cremona, Lombardia, Italy"/>
    <tag k="is_in:continent" v="Europe"/>
    <tag k="name" v="Cremona"/>
    <tag k="name:fr" v="Crémone"/>
    <tag k="name:it" v="Cremona"/>
    <tag k="name:ru" v="Кремона"/>
    <tag k="place" v="city"/>
    <tag k="population" v="70887"/>
    <tag k="postal_code" v="26100"/>
    <tag k="source" v="geodati.gfoss.it"/>
    <tag k="wikipedia" v="Cremona"/>
  </node>
  <node id="62505610" version="12" timestamp="2012-07-08T14:28:56Z" uid="382012" user="Alessandro Barbieri" changeset="12150637" lat="45.1613638" lon="10.799208">
    <tag k="capital" v="6"/>
    <tag k="gfoss_id" v="2711"/>
    <tag k="is_in" v="Mantova, Lombardia, Italy"/>
    <tag k="is_in:continent" v="Europe"/>
    <tag k="name" v="Mantova"/>
    <tag k="name:ar" v="مانتوفا"/>
    <tag k="name:de" v="Mantua"/>
    <tag k="name:en" v="Mantua"/>
    <tag k="name:es" v="Mantua"/>
    <tag k="name:fr" v="Mantoue"/>
    <tag k="name:it" v="Mantova"/>
    <tag k="name:la" v="Mantua"/>
    <tag k="name:nl" v="Mantua"/>
    <tag k="name:pl" v="Mantua"/>
    <tag k="name:ru" v="Мантуя"/>
    <tag k="place" v="city"/>
    <tag k="population" v="47790"/>
    <tag k="source" v="geodati.gfoss.it"/>
    <tag k="wikipedia" v="Mantua"/>
  </node>
  <node id="62505610" version="13" timestamp="2012-07-16T11:11:54Z" uid="73469" user="GatoSelvadego" changeset="12243025" lat="45.1613638" lon="10.799208">
    <tag k="capital" v="6"/>
    <tag k="gfoss_id" v="2711"/>
    <tag k="is_in" v="Mantova, Lombardia, Italy"/>
    <tag k="is_in:continent" v="Europe"/>
    <tag k="name" v="Mantova"/>
    <tag k="name:ar" v="مانتوفا"/>
    <tag k="name:de" v="Mantua"/>
    <tag k="name:en" v="Mantua"/>
    <tag k="name:es" v="Mantua"/>
    <tag k="name:fr" v="Mantoue"/>
    <tag k="name:it" v="Mantova"/>
    <tag k="name:la" v="Mantua"/>
    <tag k="name:nl" v="Mantua"/>
    <tag k="name:pl" v="Mantua"/>
    <tag k="name:ru" v="Мантуя"/>
    <tag k="name:vec" v="Màntoa"/>
    <tag k="place" v="city"/>
    <tag k="population" v="47790"/>
    <tag k="source" v="geodati.gfoss.it"/>
    <tag k="wikipedia" v="Mantua"/>
  </node>
</osm>
