<?xml version='1.0' encoding='UTF-8'?>
<osm version="0.6" generator="libosmium/2.20.0">
  <node id="625966175" version="3" timestamp="2010-04-03T12:51:48Z" uid="20587" user="balrog-kun" changeset="4312260" lat="51.5237878" lon="19.855868"/>
  <node id="625968560" version="2" timestamp="2010-07-29T09:27:19Z" uid="74617" user="JohnSmith" changeset="5344848" lat="48.7090178" lon="9.0538363">
    <tag k="amenity" v="emergency_phone"/>
    <tag k="emergency" v="phone"/>
    <tag k="operator" v="Björn-Steiger-Stiftung"/>
  </node>
  <node id="625968560" version="3" timestamp="2011-07-06T20:48:28Z" uid="153109" user="pschaefer" changeset="8652260" lat="48.7089776" lon="9.0536312">
    <tag k="amenity" v="emergency_phone"/>
    <tag k="emergency" v="phone"/>
    <tag k="operator" v="Björn-Steiger-Stiftung"/>
  </node>
  <node id="625968560" version="4" timestamp="2012-07-19T20:05:42Z" uid="722137" user="OSMF Redaction Account" changeset="12345710" lat="48.7089776" lon="9.0536312">
    <tag k="amenity" v="emergency_phone"/>
    <tag k="operator" v="Björn-Steiger-Stiftung"/>
  </node>
</osm>
