<?xml version='1.0' encoding='UTF-8'?>
<osm version="0.6" generator="libosmium/2.20.0">
  <node id="631070376" version="4" timestamp="2011-02-09T14:36:28Z" uid="115477" user="wowik" changeset="7236603" lat="56.0084635" lon="37.1684567">
    <tag k="addr:city" v="Зеленоград"/>
    <tag k="addr:street" v="3-й Западный проезд"/>
    <tag k="amenity" v="fuel"/>
    <tag k="name" v="MTK"/>
    <tag k="operator" v="MTK"/>
  </node>
  <node id="631073118" version="2" timestamp="2011-05-20T19:53:58Z" uid="20587" user="balrog-kun" changeset="8201705" lat="52.2282211" lon="21.0421333"/>
  <node id="631077302" version="1" timestamp="2010-02-05T21:53:10Z" uid="59758" user="rendle" changeset="3800993" lat="51.0706418" lon="4.0401187">
    <tag k="name" v="Van Goethem"/>
    <tag k="shop" v="bakery"/>
  </node>
  <node id="631077302" version="2" timestamp="2010-03-26T21:37:22Z" uid="59758" user="rendle" changeset="4242153" lat="51.0706309" lon="4.0400823">
    <tag k="name" v="Van Goethem"/>
    <tag k="shop" v="bakery"/>
  </node>
  <node id="631077302" version="3" timestamp="2012-02-09T13:34:29Z" uid="138772" user="lodde1949" changeset="10633904" lat="51.0706309" lon="4.0400823"/>
</osm>
