<?xml version='1.0' encoding='UTF-8'?>
<osm version="0.6" generator="libosmium/2.20.0">
  <node id="631523074" version="3" timestamp="2011-02-01T17:08:38Z" uid="115477" user="wowik" changeset="7156686" lat="57.4962444" lon="37.0697642">
    <tag k="name" v="Максимово"/>
    <tag k="place" v="hamlet"/>
  </node>
  <node id="631523074" version="4" timestamp="2012-01-26T21:12:28Z" uid="384084" user="Kostik" changeset="10507299" lat="57.4962444" lon="37.0697642">
    <tag k="name" v="Максимово"/>
    <tag k="place" v="hamlet"/>
  </node>
  <node id="631523088" version="2" timestamp="2010-07-21T08:44:32Z" uid="115477" user="wowik" changeset="5277068" lat="57.5608945" lon="37.0634178">
    <tag k="name" v="Лисково"/>
    <tag k="place" v="hamlet"/>
  </node>
  <node id="631523088" version="3" timestamp="2012-01-26T21:12:21Z" uid="384084" user="Kostik" changeset="10507299" lat="57.5608945" lon="37.0634178">
    <tag k="name" v="Лисково"/>
    <tag k="place" v="hamlet"/>
  </node>
  <node id="631523115" version="3" timestamp="2011-02-01T18:08:39Z" uid="115477" user="wowik" changeset="7157304" lat="57.5701364" lon="37.0188908">
    <tag k="name" v="Мартыница"/>
    <tag k="place" v="hamlet"/>
  </node>
  <node id="631523115" version="4" timestamp="2012-01-26T21:12:35Z" uid="384084" user="Kostik" changeset="10507299" lat="57.5701364" lon="37.0188908">
    <tag k="name" v="Мартыница"/>
    <tag k="place" v="hamlet"/>
  </node>
  <node id="631523145" version="2" timestamp="2011-02-01T19:02:07Z" uid="115477" user="wowik" changeset="7157857" lat="57.5964088" lon="37.0336295">
    <tag k="name" v="Далеки"/>
    <tag k="place" v="hamlet"/>
  </node>
  <node id="631523145" version="3" timestamp="2012-01-26T21:10:53Z" uid="384084" user="Kostik" changeset="10507299" lat="57.5964088" lon="37.0336295">
    <tag k="name" v="Далеки"/>
    <tag k="place" v="hamlet"/>
  </node>
  <node id="631523159" version="3" timestamp="2011-02-07T14:59:53Z" uid="115477" user="wowik" changeset="7216953" lat="57.6447433" lon="37.079193">
    <tag k="addr:city" v="Лисковское сельское поселение"/>
    <tag k="addr:country" v="RU"/>
    <tag k="addr:district" v="Кесовогорский район"/>
    <tag k="addr:postcode" v="171470"/>
    <tag k="addr:region" v="Тверская область"/>
    <tag k="cladr:code" v="6901300201700"/>
    <tag k="cladr:name" v="Пузырево"/>
    <tag k="cladr:suffix" v="Деревня"/>
    <tag k="name" v="Пузырёво"/>
    <tag k="place" v="hamlet"/>
  </node>
  <node id="631523159" version="4" timestamp="2011-08-09T05:08:31Z" uid="297358" user="patashnik" changeset="8963467" lat="57.6447433" lon="37.079193">
    <tag k="addr:city" v="Лисковское сельское поселение"/>
    <tag k="addr:country" v="RU"/>
    <tag k="addr:district" v="Кесовогорский район"/>
    <tag k="addr:region" v="Тверская область"/>
    <tag k="cladr:code" v="6901300201700"/>
    <tag k="name" v="Пузырёво"/>
    <tag k="place" v="hamlet"/>
  </node>
  <node id="631523176" version="2" timestamp="2010-07-20T18:06:19Z" uid="115477" user="wowik" changeset="5272865" lat="57.5181021" lon="37.1501373">
    <tag k="name" v="Никольское"/>
    <tag k="place" v="hamlet"/>
  </node>
  <node id="631523176" version="3" timestamp="2012-01-26T21:12:57Z" uid="384084" user="Kostik" changeset="10507299" lat="57.5181021" lon="37.1501373">
    <tag k="name" v="Никольское"/>
    <tag k="place" v="hamlet"/>
  </node>
  <node id="631523231" version="3" timestamp="2010-07-21T08:44:33Z" uid="115477" user="wowik" changeset="5277068" lat="57.5593291" lon="37.1186927">
    <tag k="addr:city" v="Лисковское сельское поселение"/>
    <tag k="addr:country" v="RU"/>
    <tag k="addr:district" v="Кесовогорский район"/>
    <tag k="addr:postcode" v="171472"/>
    <tag k="addr:region" v="Тверская область"/>
    <tag k="cladr:code" v="6901300201000"/>
    <tag k="cladr:name" v="Байково"/>
    <tag k="cladr:suffix" v="Село"/>
    <tag k="name" v="Байково"/>
    <tag k="place" v="hamlet"/>
  </node>
  <node id="631523231" version="4" timestamp="2011-08-09T05:08:31Z" uid="297358" user="patashnik" changeset="8963467" lat="57.5593291" lon="37.1186927">
    <tag k="addr:city" v="Лисковское сельское поселение"/>
    <tag k="addr:country" v="RU"/>
    <tag k="addr:district" v="Кесовогорский район"/>
    <tag k="addr:region" v="Тверская область"/>
    <tag k="cladr:code" v="6901300201000"/>
    <tag k="name" v="Байково"/>
    <tag k="place" v="hamlet"/>
  </node>
  <node id="631523237" version="2" timestamp="2010-07-20T17:23:13Z" uid="115477" user="wowik" changeset="5272539" lat="57.5209214" lon="37.2167613">
    <tag k="name" v="Марьино"/>
    <tag k="place" v="hamlet"/>
  </node>
  <node id="631523237" version="3" timestamp="2012-01-26T21:12:36Z" uid="384084" user="Kostik" changeset="10507299" lat="57.5209214" lon="37.2167613">
    <tag k="name" v="Марьино"/>
    <tag k="place" v="hamlet"/>
  </node>
  <node id="631523253" version="3" timestamp="2011-02-07T14:59:53Z" uid="115477" user="wowik" changeset="7216953" lat="57.6127209" lon="37.107993">
    <tag k="addr:city" v="Лисковское сельское поселение"/>
    <tag k="addr:country" v="RU"/>
    <tag k="addr:district" v="Кесовогорский район"/>
    <tag k="addr:postcode" v="171470"/>
    <tag k="addr:region" v="Тверская область"/>
    <tag k="cladr:code" v="6901300201800"/>
    <tag k="cladr:name" v="Смутиха"/>
    <tag k="cladr:suffix" v="Деревня"/>
    <tag k="name" v="Смутиха"/>
    <tag k="place" v="hamlet"/>
  </node>
  <node id="631523253" version="4" timestamp="2011-08-09T05:08:31Z" uid="297358" user="patashnik" changeset="8963467" lat="57.6127209" lon="37.107993">
    <tag k="addr:city" v="Лисковское сельское поселение"/>
    <tag k="addr:country" v="RU"/>
    <tag k="addr:district" v="Кесовогорский район"/>
    <tag k="addr:region" v="Тверская область"/>
    <tag k="cladr:code" v="6901300201800"/>
    <tag k="name" v="Смутиха"/>
    <tag k="place" v="hamlet"/>
  </node>
  <node id="631523275" version="2" timestamp="2011-02-01T19:49:18Z" uid="115477" user="wowik" changeset="7158370" lat="57.6336008" lon="37.2012608">
    <tag k="name" v="Лаврово"/>
    <tag k="place" v="hamlet"/>
  </node>
  <node id="631523275" version="3" timestamp="2012-01-26T21:12:13Z" uid="384084" user="Kostik" changeset="10507299" lat="57.6336008" lon="37.2012608">
    <tag k="name" v="Лаврово"/>
    <tag k="place" v="hamlet"/>
  </node>
  <node id="631523299" version="3" timestamp="2010-07-20T17:23:14Z" uid="115477" user="wowik" changeset="5272539" lat="57.5137798" lon="37.2713825">
    <tag k="addr:city" v="Елисеевское сельское поселение"/>
    <tag k="addr:country" v="RU"/>
    <tag k="addr:district" v="Кесовогорский район"/>
    <tag k="addr:postcode" v="171475"/>
    <tag k="addr:region" v="Тверская область"/>
    <tag k="cladr:code" v="6901300401600"/>
    <tag k="cladr:name" v="Завидовская Горка"/>
    <tag k="cladr:suffix" v="Село"/>
    <tag k="name" v="Завидовская горка"/>
    <tag k="old_name" v="Завидово"/>
    <tag k="place" v="hamlet"/>
  </node>
  <node id="631523299" version="4" timestamp="2010-07-20T18:01:36Z" uid="115477" user="wowik" changeset="5272831" lat="57.5050663" lon="37.2716843">
    <tag k="addr:city" v="Елисеевское сельское поселение"/>
    <tag k="addr:country" v="RU"/>
    <tag k="addr:district" v="Кесовогорский район"/>
    <tag k="addr:postcode" v="171475"/>
    <tag k="addr:region" v="Тверская область"/>
    <tag k="cladr:code" v="6901300401600"/>
    <tag k="cladr:name" v="Завидовская Горка"/>
    <tag k="cladr:suffix" v="Село"/>
    <tag k="name" v="Завидовская горка"/>
    <tag k="old_name" v="Горка"/>
    <tag k="place" v="hamlet"/>
  </node>
  <node id="631523299" version="5" timestamp="2010-11-22T15:39:13Z" uid="115477" user="wowik" changeset="6432391" lat="57.5050663" lon="37.2716843">
    <tag k="addr:city" v="Елисеевское сельское поселение"/>
    <tag k="addr:country" v="RU"/>
    <tag k="addr:district" v="Кесовогорский район"/>
    <tag k="addr:postcode" v="171475"/>
    <tag k="addr:region" v="Тверская область"/>
    <tag k="cladr:code" v="6901300401600"/>
    <tag k="cladr:name" v="Завидовская Горка"/>
    <tag k="cladr:suffix" v="Село"/>
    <tag k="name" v="Завидовская Горка"/>
    <tag k="old_name" v="Горка"/>
    <tag k="place" v="hamlet"/>
  </node>
  <node id="631523299" version="6" timestamp="2011-08-09T05:08:31Z" uid="297358" user="patashnik" changeset="8963467" lat="57.5050663" lon="37.2716843">
    <tag k="addr:city" v="Елисеевское сельское поселение"/>
    <tag k="addr:country" v="RU"/>
    <tag k="addr:district" v="Кесовогорский район"/>
    <tag k="addr:region" v="Тверская область"/>
    <tag k="cladr:code" v="6901300401600"/>
    <tag k="name" v="Завидовская Горка"/>
    <tag k="old_name" v="Горка"/>
    <tag k="place" v="hamlet"/>
  </node>
  <node id="631523313" version="3" timestamp="2010-07-20T17:23:14Z" uid="115477" user="wowik" changeset="5272539" lat="57.4985811" lon="37.3028293">
    <tag k="addr:city" v="Елисеевское сельское поселение"/>
    <tag k="addr:country" v="RU"/>
    <tag k="addr:district" v="Кесовогорский район"/>
    <tag k="addr:postcode" v="171475"/>
    <tag k="addr:region" v="Тверская область"/>
    <tag k="cladr:code" v="6901300401200"/>
    <tag k="cladr:name" v="Демшино"/>
    <tag k="cladr:suffix" v="Деревня"/>
    <tag k="name" v="Дёмшино"/>
    <tag k="place" v="hamlet"/>
  </node>
  <node id="631523313" version="4" timestamp="2010-07-20T17:54:38Z" uid="115477" user="wowik" changeset="5272788" lat="57.4981377" lon="37.3045977">
    <tag k="addr:city" v="Елисеевское сельское поселение"/>
    <tag k="addr:country" v="RU"/>
    <tag k="addr:district" v="Кесовогорский район"/>
    <tag k="addr:postcode" v="171475"/>
    <tag k="addr:region" v="Тверская область"/>
    <tag k="cladr:code" v="6901300401200"/>
    <tag k="cladr:name" v="Демшино"/>
    <tag k="cladr:suffix" v="Деревня"/>
    <tag k="name" v="Дёмшино"/>
    <tag k="place" v="hamlet"/>
  </node>
  <node id="631523313" version="5" timestamp="2011-08-09T05:08:34Z" uid="297358" user="patashnik" changeset="8963467" lat="57.4981377" lon="37.3045977">
    <tag k="addr:city" v="Елисеевское сельское поселение"/>
    <tag k="addr:country" v="RU"/>
    <tag k="addr:district" v="Кесовогорский район"/>
    <tag k="addr:region" v="Тверская область"/>
    <tag k="cladr:code" v="6901300401200"/>
    <tag k="name" v="Дёмшино"/>
    <tag k="place" v="hamlet"/>
  </node>
  <node id="631523333" version="2" timestamp="2010-07-19T17:48:32Z" uid="115477" user="wowik" changeset="5263458" lat="57.5494866" lon="37.3493964">
    <tag k="name" v="Суходол"/>
    <tag k="place" v="hamlet"/>
  </node>
  <node id="631523333" version="3" timestamp="2010-07-20T13:47:56Z" uid="115477" user="wowik" changeset="5270854" lat="57.5496579" lon="37.3525242">
    <tag k="name" v="Суходол"/>
    <tag k="place" v="hamlet"/>
  </node>
  <node id="631523333" version="4" timestamp="2010-07-20T15:53:35Z" uid="115477" user="wowik" changeset="5271826" lat="57.5490607" lon="37.3506178">
    <tag k="name" v="Суходол"/>
    <tag k="place" v="hamlet"/>
  </node>
  <node id="631523333" version="5" timestamp="2010-07-20T17:23:13Z" uid="115477" user="wowik" changeset="5272539" lat="57.5493643" lon="37.3523154">
    <tag k="name" v="Суходол"/>
    <tag k="place" v="hamlet"/>
  </node>
  <node id="631523333" version="6" timestamp="2010-07-21T11:49:52Z" uid="115477" user="wowik" changeset="5278230" lat="57.5488972" lon="37.3503869">
    <tag k="name" v="Суходол"/>
    <tag k="place" v="hamlet"/>
  </node>
  <node id="631523333" version="7" timestamp="2012-01-26T21:14:21Z" uid="384084" user="Kostik" changeset="10507299" lat="57.5488972" lon="37.3503869">
    <tag k="name" v="Суходол"/>
    <tag k="place" v="hamlet"/>
  </node>
  <node id="631523405" version="2" timestamp="2010-07-14T15:06:12Z" uid="115477" user="wowik" changeset="5217641" lat="57.5066656" lon="37.401685">
    <tag k="name" v="Турино"/>
    <tag k="place" v="hamlet"/>
  </node>
  <node id="631523405" version="3" timestamp="2010-07-14T15:34:27Z" uid="115477" user="wowik" changeset="5217843" lat="57.5066656" lon="37.401685">
    <tag k="name" v="Турынино"/>
    <tag k="place" v="hamlet"/>
  </node>
  <node id="631523405" version="4" timestamp="2012-01-26T21:14:32Z" uid="384084" user="Kostik" changeset="10507299" lat="57.5066656" lon="37.401685">
    <tag k="name" v="Турынино"/>
    <tag k="place" v="hamlet"/>
  </node>
  <node id="631523429" version="3" timestamp="2010-07-19T17:35:14Z" uid="115477" user="wowik" changeset="5263349" lat="57.6001469" lon="37.2959066">
    <tag k="addr:city" v="Кесовское сельское поселение"/>
    <tag k="addr:country" v="RU"/>
    <tag k="addr:district" v="Кесовогорский район"/>
    <tag k="addr:postcode" v="171470"/>
    <tag k="addr:region" v="Тверская область"/>
    <tag k="cladr:code" v="6901301102300"/>
    <tag k="cladr:name" v="Роща"/>
    <tag k="cladr:suffix" v="Деревня"/>
    <tag k="name" v="Роща"/>
    <tag k="old_name" v="Кобылино"/>
    <tag k="place" v="hamlet"/>
  </node>
  <node id="631523429" version="4" timestamp="2010-07-20T13:40:34Z" uid="115477" user="wowik" changeset="5270787" lat="57.6002003" lon="37.2976022">
    <tag k="addr:city" v="Кесовское сельское поселение"/>
    <tag k="addr:country" v="RU"/>
    <tag k="addr:district" v="Кесовогорский район"/>
    <tag k="addr:postcode" v="171470"/>
    <tag k="addr:region" v="Тверская область"/>
    <tag k="cladr:code" v="6901301102300"/>
    <tag k="cladr:name" v="Роща"/>
    <tag k="cladr:suffix" v="Деревня"/>
    <tag k="name" v="Роща"/>
    <tag k="old_name" v="Кобылино"/>
    <tag k="place" v="hamlet"/>
  </node>
  <node id="631523429" version="5" timestamp="2011-08-09T05:08:34Z" uid="297358" user="patashnik" changeset="8963467" lat="57.6002003" lon="37.2976022">
    <tag k="addr:city" v="Кесовское сельское поселение"/>
    <tag k="addr:country" v="RU"/>
    <tag k="addr:district" v="Кесовогорский район"/>
    <tag k="addr:region" v="Тверская область"/>
    <tag k="cladr:code" v="6901301102300"/>
    <tag k="name" v="Роща"/>
    <tag k="old_name" v="Кобылино"/>
    <tag k="place" v="hamlet"/>
  </node>
  <node id="631523442" version="2" timestamp="2010-07-21T10:38:05Z" uid="115477" user="wowik" changeset="5277764" lat="57.6409178" lon="37.3217591">
    <tag k="name" v="Поповка"/>
    <tag k="place" v="hamlet"/>
  </node>
  <node id="631523442" version="3" timestamp="2012-01-26T21:13:26Z" uid="384084" user="Kostik" changeset="10507299" lat="57.6409178" lon="37.3217591">
    <tag k="name" v="Поповка"/>
    <tag k="place" v="hamlet"/>
  </node>
  <node id="631523458" version="2" timestamp="2010-07-21T11:50:53Z" uid="115477" user="wowik" changeset="5278248" lat="57.6171933" lon="37.28315">
    <tag k="name" v="Федово"/>
    <tag k="place" v="hamlet"/>
  </node>
  <node id="631523458" version="3" timestamp="2012-01-26T21:14:36Z" uid="384084" user="Kostik" changeset="10507299" lat="57.6171933" lon="37.28315">
    <tag k="name" v="Федово"/>
    <tag k="place" v="hamlet"/>
  </node>
  <node id="631523473" version="2" timestamp="2010-07-21T11:52:49Z" uid="115477" user="wowik" changeset="5278262" lat="57.6500001" lon="37.2666669">
    <tag k="name" v="Горка Золотковская"/>
    <tag k="place" v="hamlet"/>
  </node>
  <node id="631523473" version="3" timestamp="2011-02-01T19:49:17Z" uid="115477" user="wowik" changeset="7158370" lat="57.6491036" lon="37.269938">
    <tag k="name" v="Горка Золотковская"/>
    <tag k="place" v="hamlet"/>
  </node>
  <node id="631523473" version="4" timestamp="2012-01-26T21:10:44Z" uid="384084" user="Kostik" changeset="10507299" lat="57.6491036" lon="37.269938">
    <tag k="name" v="Горка Золотковская"/>
    <tag k="place" v="hamlet"/>
  </node>
  <node id="631523483" version="2" timestamp="2010-07-19T17:48:32Z" uid="115477" user="wowik" changeset="5263458" lat="57.5886117" lon="37.4096495">
    <tag k="name" v="Никольское"/>
    <tag k="place" v="hamlet"/>
  </node>
  <node id="631523483" version="3" timestamp="2010-07-19T17:55:51Z" uid="115477" user="wowik" changeset="5263458" lat="57.5886117" lon="37.4096495">
    <tag k="name" v="Никольское"/>
    <tag k="old_name" v="Поточино"/>
    <tag k="place" v="hamlet"/>
  </node>
  <node id="631523483" version="4" timestamp="2012-01-26T21:12:57Z" uid="384084" user="Kostik" changeset="10507299" lat="57.5886117" lon="37.4096495">
    <tag k="name" v="Никольское"/>
    <tag k="old_name" v="Поточино"/>
    <tag k="place" v="hamlet"/>
  </node>
  <node id="631523495" version="3" timestamp="2011-01-14T11:07:06Z" uid="115477" user="wowik" changeset="6966068" lat="57.5966267" lon="37.481279">
    <tag k="addr:city" v="Феневское сельское поселение"/>
    <tag k="addr:country" v="RU"/>
    <tag k="addr:district" v="Кесовогорский район"/>
    <tag k="addr:postcode" v="171481"/>
    <tag k="addr:region" v="Тверская область"/>
    <tag k="cladr:code" v="6901300900800"/>
    <tag k="cladr:name" v="Брылино"/>
    <tag k="cladr:suffix" v="Деревня"/>
    <tag k="name" v="Брылино"/>
    <tag k="place" v="hamlet"/>
  </node>
  <node id="631523495" version="4" timestamp="2011-02-01T19:49:18Z" uid="115477" user="wowik" changeset="7158370" lat="57.5956911" lon="37.4811833">
    <tag k="addr:city" v="Феневское сельское поселение"/>
    <tag k="addr:country" v="RU"/>
    <tag k="addr:district" v="Кесовогорский район"/>
    <tag k="addr:postcode" v="171481"/>
    <tag k="addr:region" v="Тверская область"/>
    <tag k="cladr:code" v="6901300900800"/>
    <tag k="cladr:name" v="Брылино"/>
    <tag k="cladr:suffix" v="Деревня"/>
    <tag k="name" v="Брылино"/>
    <tag k="place" v="hamlet"/>
  </node>
  <node id="631523495" version="5" timestamp="2011-08-09T04:48:17Z" uid="297358" user="patashnik" changeset="8963432" lat="57.5956911" lon="37.4811833">
    <tag k="addr:city" v="Феневское сельское поселение"/>
    <tag k="addr:country" v="RU"/>
    <tag k="addr:district" v="Кесовогорский район"/>
    <tag k="addr:region" v="Тверская область"/>
    <tag k="cladr:code" v="6901300900800"/>
    <tag k="name" v="Брылино"/>
    <tag k="place" v="hamlet"/>
  </node>
  <node id="631523514" version="2" timestamp="2011-02-04T12:44:52Z" uid="115477" user="wowik" changeset="7182784" lat="57.650685" lon="37.4519932">
    <tag k="name" v="Порядино"/>
    <tag k="place" v="hamlet"/>
  </node>
  <node id="631523514" version="3" timestamp="2011-02-04T12:56:05Z" uid="115477" user="wowik" changeset="7182898" lat="57.6512269" lon="37.4511424">
    <tag k="name" v="Порядино"/>
    <tag k="place" v="hamlet"/>
  </node>
  <node id="631523514" version="4" timestamp="2012-01-26T21:13:26Z" uid="384084" user="Kostik" changeset="10507299" lat="57.6512269" lon="37.4511424">
    <tag k="name" v="Порядино"/>
    <tag k="place" v="hamlet"/>
  </node>
  <node id="631523530" version="2" timestamp="2010-07-19T17:48:33Z" uid="115477" user="wowik" changeset="5263458" lat="57.5950518" lon="37.4615771">
    <tag k="name" v="Карабузино"/>
    <tag k="place" v="hamlet"/>
  </node>
  <node id="631523530" version="3" timestamp="2012-01-26T21:11:39Z" uid="384084" user="Kostik" changeset="10507299" lat="57.5950518" lon="37.4615771">
    <tag k="name" v="Карабузино"/>
    <tag k="place" v="hamlet"/>
  </node>
  <node id="631523601" version="3" timestamp="2011-02-11T09:52:08Z" uid="115477" user="wowik" changeset="7253458" lat="57.6866714" lon="37.2615092">
    <tag k="addr:city" v="Кесовское сельское поселение"/>
    <tag k="addr:country" v="RU"/>
    <tag k="addr:district" v="Кесовогорский район"/>
    <tag k="addr:postcode" v="171477"/>
    <tag k="addr:region" v="Тверская область"/>
    <tag k="cladr:code" v="6901301101400"/>
    <tag k="cladr:name" v="Золотково"/>
    <tag k="cladr:suffix" v="Деревня"/>
    <tag k="name" v="Золотково"/>
    <tag k="place" v="hamlet"/>
  </node>
  <node id="631523601" version="4" timestamp="2011-08-09T05:08:35Z" uid="297358" user="patashnik" changeset="8963467" lat="57.6866714" lon="37.2615092">
    <tag k="addr:city" v="Кесовское сельское поселение"/>
    <tag k="addr:country" v="RU"/>
    <tag k="addr:district" v="Кесовогорский район"/>
    <tag k="addr:region" v="Тверская область"/>
    <tag k="cladr:code" v="6901301101400"/>
    <tag k="name" v="Золотково"/>
    <tag k="place" v="hamlet"/>
  </node>
  <node id="631523618" version="2" timestamp="2011-02-01T19:49:03Z" uid="115477" user="wowik" changeset="7158370" lat="57.7018374" lon="37.3562837">
    <tag k="name" v="Васянское"/>
    <tag k="place" v="hamlet"/>
  </node>
  <node id="631523618" version="3" timestamp="2011-04-30T14:49:03Z" uid="84567" user="Igor_blg" changeset="8012360" lat="57.7018374" lon="37.3562837">
    <tag k="name" v="Васьянское"/>
    <tag k="place" v="hamlet"/>
  </node>
  <node id="631523629" version="2" timestamp="2011-02-01T19:49:19Z" uid="115477" user="wowik" changeset="7158370" lat="57.6792492" lon="37.3850051">
    <tag k="name" v="Волосово"/>
    <tag k="place" v="hamlet"/>
  </node>
  <node id="631523629" version="3" timestamp="2012-01-26T21:10:26Z" uid="384084" user="Kostik" changeset="10507299" lat="57.6792492" lon="37.3850051">
    <tag k="name" v="Волосово"/>
    <tag k="place" v="hamlet"/>
  </node>
  <node id="631523655" version="2" timestamp="2011-02-01T20:29:27Z" uid="115477" user="wowik" changeset="7158878" lat="57.7339305" lon="37.3409801">
    <tag k="name" v="Вепри"/>
    <tag k="place" v="hamlet"/>
  </node>
  <node id="631523655" version="3" timestamp="2011-04-30T14:49:06Z" uid="84567" user="Igor_blg" changeset="8012360" lat="57.7339305" lon="37.3409801">
    <tag k="name" v="Вепрь"/>
    <tag k="place" v="hamlet"/>
  </node>
  <node id="631523667" version="2" timestamp="2010-07-21T10:38:06Z" uid="115477" user="wowik" changeset="5277764" lat="57.6743457" lon="37.3227033">
    <tag k="name" v="Власьево"/>
    <tag k="place" v="hamlet"/>
  </node>
  <node id="631523667" version="3" timestamp="2012-01-26T21:10:22Z" uid="384084" user="Kostik" changeset="10507299" lat="57.6743457" lon="37.3227033">
    <tag k="name" v="Власьево"/>
    <tag k="place" v="hamlet"/>
  </node>
  <node id="631523686" version="3" timestamp="2011-02-01T19:48:53Z" uid="115477" user="wowik" changeset="7158370" lat="57.6863218" lon="37.4578066">
    <tag k="addr:city" v="Феневское сельское поселение"/>
    <tag k="addr:country" v="RU"/>
    <tag k="addr:district" v="Кесовогорский район"/>
    <tag k="addr:postcode" v="171481"/>
    <tag k="addr:region" v="Тверская область"/>
    <tag k="cladr:code" v="6901300900100"/>
    <tag k="cladr:name" v="Лбово"/>
    <tag k="cladr:suffix" v="Деревня"/>
    <tag k="name" v="Лбово"/>
    <tag k="place" v="hamlet"/>
  </node>
  <node id="631523686" version="4" timestamp="2011-08-09T04:48:17Z" uid="297358" user="patashnik" changeset="8963432" lat="57.6863218" lon="37.4578066">
    <tag k="addr:city" v="Феневское сельское поселение"/>
    <tag k="addr:country" v="RU"/>
    <tag k="addr:district" v="Кесовогорский район"/>
    <tag k="addr:region" v="Тверская область"/>
    <tag k="cladr:code" v="6901300900100"/>
    <tag k="name" v="Лбово"/>
    <tag k="place" v="hamlet"/>
  </node>
  <node id="631523701" version="2" timestamp="2011-02-01T20:29:21Z" uid="115477" user="wowik" changeset="7158878" lat="57.7337421" lon="37.458799">
    <tag k="name" v="Перетерье"/>
    <tag k="old_name" v="Кобылино"/>
    <tag k="place" v="hamlet"/>
  </node>
  <node id="631523701" version="3" timestamp="2012-01-26T21:13:14Z" uid="384084" user="Kostik" changeset="10507299" lat="57.7337421" lon="37.458799">
    <tag k="name" v="Перетерье"/>
    <tag k="old_name" v="Кобылино"/>
    <tag k="place" v="hamlet"/>
  </node>
  <node id="631528442" version="2" timestamp="2010-07-19T12:55:02Z" uid="115477" user="wowik" changeset="5260846" lat="57.5122319" lon="37.5919957">
    <tag k="name" v="Петраково"/>
    <tag k="place" v="hamlet"/>
  </node>
  <node id="631528442" version="3" timestamp="2012-01-26T21:13:16Z" uid="384084" user="Kostik" changeset="10507299" lat="57.5122319" lon="37.5919957">
    <tag k="name" v="Петраково"/>
    <tag k="place" v="hamlet"/>
  </node>
  <node id="631528465" version="2" timestamp="2010-06-25T20:16:23Z" uid="115477" user="wowik" changeset="5076172" lat="57.5304299" lon="37.5300979">
    <tag k="name" v="Павловское"/>
    <tag k="place" v="hamlet"/>
  </node>
  <node id="631528465" version="3" timestamp="2012-01-26T21:13:09Z" uid="384084" user="Kostik" changeset="10507299" lat="57.5304299" lon="37.5300979">
    <tag k="name" v="Павловское"/>
    <tag k="place" v="hamlet"/>
  </node>
  <node id="631528487" version="3" timestamp="2010-06-25T20:01:52Z" uid="115477" user="wowik" changeset="5076172" lat="57.5028185" lon="37.54426">
    <tag k="addr:city" v="Шепелевское сельское поселение"/>
    <tag k="addr:country" v="RU"/>
    <tag k="addr:district" v="Кашинский район"/>
    <tag k="addr:postcode" v="171604"/>
    <tag k="addr:region" v="Тверская область"/>
    <tag k="cladr:code" v="6901202003100"/>
    <tag k="cladr:name" v="Кубасово"/>
    <tag k="cladr:suffix" v="Деревня"/>
    <tag k="name" v="Кубасово"/>
    <tag k="place" v="hamlet"/>
  </node>
  <node id="631528487" version="4" timestamp="2010-06-25T20:11:15Z" uid="115477" user="wowik" changeset="5076172" lat="57.5028185" lon="37.5414276">
    <tag k="addr:city" v="Шепелевское сельское поселение"/>
    <tag k="addr:country" v="RU"/>
    <tag k="addr:district" v="Кашинский район"/>
    <tag k="addr:postcode" v="171604"/>
    <tag k="addr:region" v="Тверская область"/>
    <tag k="cladr:code" v="6901202003100"/>
    <tag k="cladr:name" v="Кубасово"/>
    <tag k="cladr:suffix" v="Деревня"/>
    <tag k="name" v="Кубасово"/>
    <tag k="place" v="hamlet"/>
  </node>
  <node id="631528487" version="5" timestamp="2010-07-14T15:06:02Z" uid="115477" user="wowik" changeset="5217641" lat="57.5029597" lon="37.5439684">
    <tag k="addr:city" v="Шепелевское сельское поселение"/>
    <tag k="addr:country" v="RU"/>
    <tag k="addr:district" v="Кашинский район"/>
    <tag k="addr:postcode" v="171604"/>
    <tag k="addr:region" v="Тверская область"/>
    <tag k="cladr:code" v="6901202003100"/>
    <tag k="cladr:name" v="Кубасово"/>
    <tag k="cladr:suffix" v="Деревня"/>
    <tag k="name" v="Кубасово"/>
    <tag k="place" v="hamlet"/>
  </node>
  <node id="631528487" version="6" timestamp="2010-11-22T15:39:16Z" uid="115477" user="wowik" changeset="6432391" lat="57.502798" lon="37.5428718">
    <tag k="addr:city" v="Шепелевское сельское поселение"/>
    <tag k="addr:country" v="RU"/>
    <tag k="addr:district" v="Кашинский район"/>
    <tag k="addr:postcode" v="171604"/>
    <tag k="addr:region" v="Тверская область"/>
    <tag k="cladr:code" v="6901202003100"/>
    <tag k="cladr:name" v="Кубасово"/>
    <tag k="cladr:suffix" v="Деревня"/>
    <tag k="name" v="Кубасово"/>
    <tag k="place" v="hamlet"/>
  </node>
  <node id="631528487" version="7" timestamp="2011-08-09T05:08:35Z" uid="297358" user="patashnik" changeset="8963467" lat="57.502798" lon="37.5428718">
    <tag k="addr:city" v="Шепелевское сельское поселение"/>
    <tag k="addr:country" v="RU"/>
    <tag k="addr:district" v="Кашинский район"/>
    <tag k="addr:region" v="Тверская область"/>
    <tag k="cladr:code" v="6901202003100"/>
    <tag k="name" v="Кубасово"/>
    <tag k="place" v="hamlet"/>
  </node>
  <node id="631528507" version="2" timestamp="2011-02-02T11:35:49Z" uid="115477" user="wowik" changeset="7163726" lat="57.5542542" lon="37.5100261">
    <tag k="name" v="Матвеевское"/>
    <tag k="place" v="hamlet"/>
  </node>
  <node id="631528507" version="3" timestamp="2012-01-26T21:12:37Z" uid="384084" user="Kostik" changeset="10507299" lat="57.5542542" lon="37.5100261">
    <tag k="name" v="Матвеевское"/>
    <tag k="place" v="hamlet"/>
  </node>
  <node id="631528538" version="2" timestamp="2010-07-19T17:48:33Z" uid="115477" user="wowik" changeset="5263458" lat="57.631371" lon="37.5656039">
    <tag k="name" v="Рождествено"/>
    <tag k="place" v="hamlet"/>
  </node>
  <node id="631528538" version="3" timestamp="2011-02-03T12:39:30Z" uid="115477" user="wowik" changeset="7173645" lat="57.6298081" lon="37.5694632">
    <tag k="name" v="Рождествено"/>
    <tag k="place" v="hamlet"/>
  </node>
  <node id="631528538" version="4" timestamp="2012-01-26T21:13:41Z" uid="384084" user="Kostik" changeset="10507299" lat="57.6298081" lon="37.5694632">
    <tag k="name" v="Рождествено"/>
    <tag k="place" v="hamlet"/>
  </node>
  <node id="631528559" version="2" timestamp="2010-07-19T17:48:33Z" uid="115477" user="wowik" changeset="5263458" lat="57.6602166" lon="37.5678355">
    <tag k="name" v="Колыжино"/>
    <tag k="place" v="hamlet"/>
  </node>
  <node id="631528559" version="3" timestamp="2011-02-04T12:56:06Z" uid="115477" user="wowik" changeset="7182898" lat="57.6602166" lon="37.5678355">
    <tag k="name" v="Колыжино"/>
    <tag k="place" v="locality"/>
  </node>
  <node id="631528559" version="4" timestamp="2012-01-26T21:11:53Z" uid="384084" user="Kostik" changeset="10507299" lat="57.6602166" lon="37.5678355">
    <tag k="name" v="Колыжино"/>
    <tag k="place" v="locality"/>
  </node>
  <node id="631528567" version="2" timestamp="2010-11-25T16:55:21Z" uid="115477" user="wowik" changeset="6455127" lat="57.5965401" lon="37.6144138">
    <tag k="name" v="Семёновская"/>
    <tag k="place" v="hamlet"/>
  </node>
  <node id="631528567" version="3" timestamp="2011-02-04T13:10:39Z" uid="115477" user="wowik" changeset="7183039" lat="57.59625" lon="37.6138299">
    <tag k="name" v="Семёновское"/>
    <tag k="place" v="hamlet"/>
  </node>
  <node id="631528567" version="4" timestamp="2012-01-26T21:13:56Z" uid="384084" user="Kostik" changeset="10507299" lat="57.59625" lon="37.6138299">
    <tag k="name" v="Семёновское"/>
    <tag k="place" v="hamlet"/>
  </node>
  <node id="631528594" version="3" timestamp="2010-07-19T16:48:47Z" uid="115477" user="wowik" changeset="5262868" lat="57.516667" lon="37.65">
    <tag k="addr:country" v="RU"/>
    <tag k="addr:district" v="Оленинский район"/>
    <tag k="addr:postcode" v="172430"/>
    <tag k="addr:region" v="Тверская область"/>
    <tag k="cladr:code" v="6902300030300"/>
    <tag k="cladr:name" v="Суханово"/>
    <tag k="cladr:suffix" v="Деревня"/>
    <tag k="name" v="Суханово"/>
    <tag k="place" v="hamlet"/>
  </node>
  <node id="631528617" version="3" timestamp="2010-06-25T20:04:30Z" uid="115477" user="wowik" changeset="5076172" lat="57.4992676" lon="37.7288818">
    <tag k="addr:city" v="Шепелевское сельское поселение"/>
    <tag k="addr:country" v="RU"/>
    <tag k="addr:district" v="Кашинский район"/>
    <tag k="addr:postcode" v="171601"/>
    <tag k="addr:region" v="Тверская область"/>
    <tag k="cladr:code" v="6901202002300"/>
    <tag k="cladr:name" v="Бурмакино"/>
    <tag k="cladr:suffix" v="Деревня"/>
    <tag k="name" v="Бурмакино"/>
    <tag k="place" v="hamlet"/>
  </node>
  <node id="631528617" version="4" timestamp="2010-07-14T16:42:25Z" uid="115477" user="wowik" changeset="5219473" lat="57.499516" lon="37.7272306">
    <tag k="addr:city" v="Шепелевское сельское поселение"/>
    <tag k="addr:country" v="RU"/>
    <tag k="addr:district" v="Кашинский район"/>
    <tag k="addr:postcode" v="171601"/>
    <tag k="addr:region" v="Тверская область"/>
    <tag k="cladr:code" v="6901202002300"/>
    <tag k="cladr:name" v="Бурмакино"/>
    <tag k="cladr:suffix" v="Деревня"/>
    <tag k="name" v="Бурмакино"/>
    <tag k="place" v="hamlet"/>
  </node>
  <node id="631528617" version="5" timestamp="2011-08-09T04:48:17Z" uid="297358" user="patashnik" changeset="8963432" lat="57.499516" lon="37.7272306">
    <tag k="addr:city" v="Шепелевское сельское поселение"/>
    <tag k="addr:country" v="RU"/>
    <tag k="addr:district" v="Кашинский район"/>
    <tag k="addr:region" v="Тверская область"/>
    <tag k="cladr:code" v="6901202002300"/>
    <tag k="name" v="Бурмакино"/>
    <tag k="place" v="hamlet"/>
  </node>
  <node id="631528631" version="2" timestamp="2010-04-13T13:54:19Z" uid="115477" user="wowik" changeset="4413993" lat="57.5181105" lon="37.7550993">
    <tag k="name" v="Шепели"/>
    <tag k="place" v="hamlet"/>
  </node>
  <node id="631528631" version="3" timestamp="2010-04-20T04:35:27Z" uid="30590" user="KekcuHa" changeset="4474276" lat="57.5181105" lon="37.7550993">
    <tag k="addr:city" v="Шепелевское сельское поселение"/>
    <tag k="addr:country" v="RU"/>
    <tag k="addr:district" v="Кашинский район"/>
    <tag k="addr:postcode" v="171602"/>
    <tag k="addr:region" v="Тверская область"/>
    <tag k="cladr:code" v="6901202002000"/>
    <tag k="cladr:name" v="Шепели"/>
    <tag k="cladr:suffix" v="Деревня"/>
    <tag k="name" v="Шепели"/>
    <tag k="place" v="hamlet"/>
  </node>
  <node id="631528631" version="4" timestamp="2010-06-25T20:04:31Z" uid="115477" user="wowik" changeset="5076172" lat="57.5185397" lon="37.7519703">
    <tag k="addr:city" v="Шепелевское сельское поселение"/>
    <tag k="addr:country" v="RU"/>
    <tag k="addr:district" v="Кашинский район"/>
    <tag k="addr:postcode" v="171602"/>
    <tag k="addr:region" v="Тверская область"/>
    <tag k="cladr:code" v="6901202002000"/>
    <tag k="cladr:name" v="Шепели"/>
    <tag k="cladr:suffix" v="Деревня"/>
    <tag k="name" v="Шепели"/>
    <tag k="place" v="hamlet"/>
  </node>
  <node id="631528631" version="5" timestamp="2010-06-30T11:28:14Z" uid="115477" user="wowik" changeset="5112742" lat="57.523142" lon="37.7527788">
    <tag k="addr:city" v="Шепелевское сельское поселение"/>
    <tag k="addr:country" v="RU"/>
    <tag k="addr:district" v="Кашинский район"/>
    <tag k="addr:postcode" v="171602"/>
    <tag k="addr:region" v="Тверская область"/>
    <tag k="cladr:code" v="6901202002000"/>
    <tag k="cladr:name" v="Шепели"/>
    <tag k="cladr:suffix" v="Деревня"/>
    <tag k="name" v="Шепели"/>
    <tag k="place" v="hamlet"/>
  </node>
  <node id="631528631" version="6" timestamp="2011-08-09T04:48:17Z" uid="297358" user="patashnik" changeset="8963432" lat="57.523142" lon="37.7527788">
    <tag k="addr:city" v="Шепелевское сельское поселение"/>
    <tag k="addr:country" v="RU"/>
    <tag k="addr:district" v="Кашинский район"/>
    <tag k="addr:region" v="Тверская область"/>
    <tag k="cladr:code" v="6901202002000"/>
    <tag k="name" v="Шепели"/>
    <tag k="place" v="hamlet"/>
  </node>
  <node id="631528647" version="2" timestamp="2010-06-25T20:04:31Z" uid="115477" user="wowik" changeset="5076172" lat="57.5084439" lon="37.7699947">
    <tag k="name" v="Саломыслово"/>
    <tag k="place" v="hamlet"/>
  </node>
  <node id="631528647" version="3" timestamp="2010-06-25T20:04:53Z" uid="115477" user="wowik" changeset="5076172" lat="57.5062307" lon="37.7786636">
    <tag k="name" v="Саломыслово"/>
    <tag k="place" v="hamlet"/>
  </node>
  <node id="631528647" version="4" timestamp="2010-07-14T16:52:55Z" uid="115477" user="wowik" changeset="5219550" lat="57.5062307" lon="37.7786636">
    <tag k="name" v="Саломыслово"/>
    <tag k="place" v="hamlet"/>
  </node>
  <node id="631528663" version="2" timestamp="2010-06-25T20:04:31Z" uid="115477" user="wowik" changeset="5076172" lat="57.5289553" lon="37.7544593">
    <tag k="name" v="Колесниково"/>
    <tag k="place" v="hamlet"/>
  </node>
  <node id="631528663" version="3" timestamp="2010-06-30T11:28:15Z" uid="115477" user="wowik" changeset="5112742" lat="57.5349452" lon="37.7513868">
    <tag k="name" v="Колесниково"/>
    <tag k="place" v="hamlet"/>
  </node>
  <node id="631528663" version="4" timestamp="2010-11-25T11:32:30Z" uid="115477" user="wowik" changeset="6453611" lat="57.5356037" lon="37.7506981">
    <tag k="name" v="Колесниково"/>
    <tag k="place" v="hamlet"/>
  </node>
  <node id="631528663" version="5" timestamp="2011-06-09T07:49:55Z" uid="84567" user="Igor_blg" changeset="8385956" lat="56.1995744" lon="33.386328">
    <tag k="name" v="Колесниково"/>
    <tag k="place" v="hamlet"/>
  </node>
  <node id="631528680" version="2" timestamp="2010-04-13T13:54:19Z" uid="115477" user="wowik" changeset="4413993" lat="57.5568088" lon="37.7584467">
    <tag k="name" v="Зеленцово"/>
    <tag k="place" v="hamlet"/>
  </node>
  <node id="631528680" version="3" timestamp="2012-01-26T21:11:25Z" uid="384084" user="Kostik" changeset="10507299" lat="57.5568088" lon="37.7584467">
    <tag k="name" v="Зеленцово"/>
    <tag k="place" v="hamlet"/>
  </node>
  <node id="631528698" version="2" timestamp="2010-11-22T17:44:09Z" uid="115477" user="wowik" changeset="6432391" lat="57.5493226" lon="37.7675954">
    <tag k="name" v="Заручье"/>
    <tag k="place" v="hamlet"/>
  </node>
  <node id="631528698" version="3" timestamp="2011-02-02T11:35:44Z" uid="115477" user="wowik" changeset="7163726" lat="57.5492033" lon="37.7681412">
    <tag k="name" v="Заручье"/>
    <tag k="place" v="hamlet"/>
  </node>
  <node id="631528698" version="4" timestamp="2011-11-25T21:03:52Z" uid="84567" user="Igor_blg" changeset="9948639" lat="57.1775918" lon="36.6287955">
    <tag k="name" v="Заручье"/>
    <tag k="place" v="hamlet"/>
  </node>
  <node id="631528718" version="2" timestamp="2010-06-25T20:01:51Z" uid="115477" user="wowik" changeset="5076172" lat="57.5723831" lon="37.7025318">
    <tag k="name" v="Данильцево"/>
    <tag k="place" v="hamlet"/>
  </node>
  <node id="631528718" version="3" timestamp="2012-01-26T21:10:54Z" uid="384084" user="Kostik" changeset="10507299" lat="57.5723831" lon="37.7025318">
    <tag k="name" v="Данильцево"/>
    <tag k="place" v="hamlet"/>
  </node>
  <node id="631528745" version="3" timestamp="2010-07-19T17:48:33Z" uid="115477" user="wowik" changeset="5263458" lat="57.6194219" lon="37.6298911">
    <tag k="addr:city" v="Феневское сельское поселение"/>
    <tag k="addr:country" v="RU"/>
    <tag k="addr:district" v="Кесовогорский район"/>
    <tag k="addr:postcode" v="171482"/>
    <tag k="addr:region" v="Тверская область"/>
    <tag k="cladr:code" v="6901300901800"/>
    <tag k="cladr:name" v="Маурино"/>
    <tag k="cladr:suffix" v="Деревня"/>
    <tag k="name" v="Маурино"/>
    <tag k="place" v="hamlet"/>
  </node>
  <node id="631528745" version="4" timestamp="2011-02-04T13:10:39Z" uid="115477" user="wowik" changeset="7183039" lat="57.6237629" lon="37.6361305">
    <tag k="addr:city" v="Феневское сельское поселение"/>
    <tag k="addr:country" v="RU"/>
    <tag k="addr:district" v="Кесовогорский район"/>
    <tag k="addr:postcode" v="171482"/>
    <tag k="addr:region" v="Тверская область"/>
    <tag k="cladr:code" v="6901300901800"/>
    <tag k="cladr:name" v="Маурино"/>
    <tag k="cladr:suffix" v="Деревня"/>
    <tag k="name" v="Маурино"/>
    <tag k="place" v="hamlet"/>
  </node>
  <node id="631528745" version="5" timestamp="2011-08-09T04:48:18Z" uid="297358" user="patashnik" changeset="8963432" lat="57.6237629" lon="37.6361305">
    <tag k="addr:city" v="Феневское сельское поселение"/>
    <tag k="addr:country" v="RU"/>
    <tag k="addr:district" v="Кесовогорский район"/>
    <tag k="addr:region" v="Тверская область"/>
    <tag k="cladr:code" v="6901300901800"/>
    <tag k="name" v="Маурино"/>
    <tag k="place" v="hamlet"/>
  </node>
  <node id="631528769" version="2" timestamp="2010-07-20T15:50:42Z" uid="115477" user="wowik" changeset="5271826" lat="57.6185831" lon="37.6651873">
    <tag k="name" v="Васильково"/>
    <tag k="place" v="hamlet"/>
  </node>
  <node id="631528769" version="3" timestamp="2010-11-25T16:33:37Z" uid="115477" user="wowik" changeset="6455127" lat="57.6188017" lon="37.6644768">
    <tag k="name" v="Васильково"/>
    <tag k="place" v="hamlet"/>
  </node>
  <node id="631528769" version="4" timestamp="2012-01-26T21:10:14Z" uid="384084" user="Kostik" changeset="10507299" lat="57.6188017" lon="37.6644768">
    <tag k="name" v="Васильково"/>
    <tag k="place" v="hamlet"/>
  </node>
  <node id="631528835" version="2" timestamp="2010-04-13T14:00:36Z" uid="115477" user="wowik" changeset="4413993" lat="57.571172" lon="37.8020487">
    <tag k="name" v="Непотягово"/>
    <tag k="place" v="hamlet"/>
  </node>
  <node id="631528835" version="3" timestamp="2010-04-20T04:35:23Z" uid="30590" user="KekcuHa" changeset="4474276" lat="57.571172" lon="37.8020487">
    <tag k="addr:city" v="Шепелевское сельское поселение"/>
    <tag k="addr:country" v="RU"/>
    <tag k="addr:district" v="Кашинский район"/>
    <tag k="addr:postcode" v="171603"/>
    <tag k="addr:region" v="Тверская область"/>
    <tag k="cladr:code" v="6901202001400"/>
    <tag k="cladr:name" v="Непотягово"/>
    <tag k="cladr:suffix" v="Деревня"/>
    <tag k="name" v="Непотягово"/>
    <tag k="place" v="hamlet"/>
  </node>
  <node id="631528835" version="4" timestamp="2011-02-01T14:11:51Z" uid="115477" user="wowik" changeset="7155050" lat="57.5714312" lon="37.8022443">
    <tag k="addr:city" v="Шепелевское сельское поселение"/>
    <tag k="addr:country" v="RU"/>
    <tag k="addr:district" v="Кашинский район"/>
    <tag k="addr:postcode" v="171603"/>
    <tag k="addr:region" v="Тверская область"/>
    <tag k="cladr:code" v="6901202001400"/>
    <tag k="cladr:name" v="Непотягово"/>
    <tag k="cladr:suffix" v="Деревня"/>
    <tag k="name" v="Непотягово"/>
    <tag k="place" v="hamlet"/>
  </node>
  <node id="631528835" version="5" timestamp="2011-02-02T11:35:48Z" uid="115477" user="wowik" changeset="7163726" lat="57.5722781" lon="37.8042027">
    <tag k="addr:city" v="Шепелевское сельское поселение"/>
    <tag k="addr:country" v="RU"/>
    <tag k="addr:district" v="Кашинский район"/>
    <tag k="addr:postcode" v="171603"/>
    <tag k="addr:region" v="Тверская область"/>
    <tag k="cladr:code" v="6901202001400"/>
    <tag k="cladr:name" v="Непотягово"/>
    <tag k="cladr:suffix" v="Деревня"/>
    <tag k="name" v="Непотягово"/>
    <tag k="place" v="hamlet"/>
  </node>
  <node id="631528835" version="6" timestamp="2011-08-09T04:48:18Z" uid="297358" user="patashnik" changeset="8963432" lat="57.5722781" lon="37.8042027">
    <tag k="addr:city" v="Шепелевское сельское поселение"/>
    <tag k="addr:country" v="RU"/>
    <tag k="addr:district" v="Кашинский район"/>
    <tag k="addr:region" v="Тверская область"/>
    <tag k="cladr:code" v="6901202001400"/>
    <tag k="name" v="Непотягово"/>
    <tag k="place" v="hamlet"/>
  </node>
  <node id="631528851" version="3" timestamp="2011-02-04T12:56:06Z" uid="115477" user="wowik" changeset="7182898" lat="57.6973444" lon="37.583617">
    <tag k="addr:city" v="Феневское сельское поселение"/>
    <tag k="addr:country" v="RU"/>
    <tag k="addr:district" v="Кесовогорский район"/>
    <tag k="addr:postcode" v="171482"/>
    <tag k="addr:region" v="Тверская область"/>
    <tag k="cladr:code" v="6901300901500"/>
    <tag k="cladr:name" v="Лемехово"/>
    <tag k="cladr:suffix" v="Деревня"/>
    <tag k="name" v="Лемехово"/>
    <tag k="place" v="hamlet"/>
  </node>
  <node id="631528851" version="4" timestamp="2011-08-09T04:48:18Z" uid="297358" user="patashnik" changeset="8963432" lat="57.6973444" lon="37.583617">
    <tag k="addr:city" v="Феневское сельское поселение"/>
    <tag k="addr:country" v="RU"/>
    <tag k="addr:district" v="Кесовогорский район"/>
    <tag k="addr:region" v="Тверская область"/>
    <tag k="cladr:code" v="6901300901500"/>
    <tag k="name" v="Лемехово"/>
    <tag k="place" v="hamlet"/>
  </node>
  <node id="631523074" version="5" timestamp="2012-07-20T11:50:24Z" uid="722137" user="OSMF Redaction Account" changeset="12374217" lat="57.4958944" lon="37.0661339">
    <tag k="name" v="Максимово"/>
    <tag k="place" v="hamlet"/>
  </node>
  <node id="631523088" version="4" timestamp="2012-07-20T11:37:08Z" uid="722137" user="OSMF Redaction Account" changeset="12373558" lat="57.565" lon="37.051667">
    <tag k="name" v="Лисково"/>
    <tag k="place" v="hamlet"/>
  </node>
  <node id="631523115" version="5" timestamp="2012-07-20T11:37:31Z" uid="722137" user="OSMF Redaction Account" changeset="12373570" lat="57.5701364" lon="37.0188908">
    <tag k="name" v="Ляпа"/>
    <tag k="place" v="hamlet"/>
  </node>
  <node id="631523145" version="4" timestamp="2012-07-20T11:37:31Z" uid="722137" user="OSMF Redaction Account" changeset="12373570" lat="57.6" lon="37.033333">
    <tag k="name" v="Далеки"/>
    <tag k="place" v="hamlet"/>
  </node>
  <node id="631523159" version="5" timestamp="2012-07-20T11:36:47Z" uid="722137" user="OSMF Redaction Account" changeset="12373548" lat="57.644444" lon="37.079167">
    <tag k="addr:city" v="Лисковское сельское поселение"/>
    <tag k="addr:country" v="RU"/>
    <tag k="addr:district" v="Кесовогорский район"/>
    <tag k="addr:region" v="Тверская область"/>
    <tag k="cladr:code" v="6901300201700"/>
    <tag k="name" v="Пузырёво"/>
    <tag k="place" v="hamlet"/>
  </node>
  <node id="631523176" version="4" timestamp="2012-07-20T11:36:08Z" uid="722137" user="OSMF Redaction Account" changeset="12373528" lat="57.517778" lon="37.152778">
    <tag k="name" v="Никольское"/>
    <tag k="place" v="hamlet"/>
  </node>
  <node id="631523231" version="5" timestamp="2012-07-20T11:37:08Z" uid="722137" user="OSMF Redaction Account" changeset="12373558" lat="57.566667" lon="37.116667">
    <tag k="addr:city" v="Лисковское сельское поселение"/>
    <tag k="addr:country" v="RU"/>
    <tag k="addr:district" v="Кесовогорский район"/>
    <tag k="addr:region" v="Тверская область"/>
    <tag k="cladr:code" v="6901300201000"/>
    <tag k="name" v="Байково"/>
    <tag k="place" v="hamlet"/>
  </node>
  <node id="631523237" version="4" timestamp="2012-07-20T11:35:16Z" uid="722137" user="OSMF Redaction Account" changeset="12373494" lat="57.516667" lon="37.216667">
    <tag k="name" v="Марьино"/>
    <tag k="place" v="hamlet"/>
  </node>
  <node id="631523253" version="5" timestamp="2012-07-20T11:37:08Z" uid="722137" user="OSMF Redaction Account" changeset="12373558" lat="57.611944" lon="37.106944">
    <tag k="addr:city" v="Лисковское сельское поселение"/>
    <tag k="addr:country" v="RU"/>
    <tag k="addr:district" v="Кесовогорский район"/>
    <tag k="addr:region" v="Тверская область"/>
    <tag k="cladr:code" v="6901300201800"/>
    <tag k="name" v="Смутиха"/>
    <tag k="place" v="hamlet"/>
  </node>
  <node id="631523275" version="4" timestamp="2012-07-20T11:34:47Z" uid="722137" user="OSMF Redaction Account" changeset="12373467" lat="57.633333" lon="37.2">
    <tag k="name" v="Лаврово"/>
    <tag k="place" v="hamlet"/>
  </node>
  <node id="631523299" version="7" timestamp="2012-07-20T11:32:41Z" uid="722137" user="OSMF Redaction Account" changeset="12373404" lat="57.516667" lon="37.266667">
    <tag k="addr:city" v="Елисеевское сельское поселение"/>
    <tag k="addr:country" v="RU"/>
    <tag k="addr:district" v="Кесовогорский район"/>
    <tag k="addr:region" v="Тверская область"/>
    <tag k="cladr:code" v="6901300401600"/>
    <tag k="name" v="Завидовская Горка"/>
    <tag k="place" v="hamlet"/>
  </node>
  <node id="631523313" version="6" timestamp="2012-07-20T11:42:33Z" uid="722137" user="OSMF Redaction Account" changeset="12373782" lat="57.5" lon="37.3">
    <tag k="addr:city" v="Елисеевское сельское поселение"/>
    <tag k="addr:country" v="RU"/>
    <tag k="addr:district" v="Кесовогорский район"/>
    <tag k="addr:region" v="Тверская область"/>
    <tag k="cladr:code" v="6901300401200"/>
    <tag k="name" v="Дёмшино"/>
    <tag k="place" v="hamlet"/>
  </node>
  <node id="631523333" version="8" timestamp="2012-07-20T11:31:24Z" uid="722137" user="OSMF Redaction Account" changeset="12373370" lat="57.549444" lon="37.351389">
    <tag k="name" v="Суходол"/>
    <tag k="place" v="hamlet"/>
  </node>
  <node id="631523405" version="5" timestamp="2012-07-20T11:29:33Z" uid="722137" user="OSMF Redaction Account" changeset="12373298" lat="57.505278" lon="37.401111">
    <tag k="name" v="Турино"/>
    <tag k="place" v="hamlet"/>
  </node>
  <node id="631523429" version="6" timestamp="2012-07-20T11:32:42Z" uid="722137" user="OSMF Redaction Account" changeset="12373404" lat="57.6" lon="37.3">
    <tag k="addr:city" v="Кесовское сельское поселение"/>
    <tag k="addr:country" v="RU"/>
    <tag k="addr:district" v="Кесовогорский район"/>
    <tag k="addr:region" v="Тверская область"/>
    <tag k="cladr:code" v="6901301102300"/>
    <tag k="name" v="Роща"/>
    <tag k="place" v="hamlet"/>
  </node>
  <node id="631523442" version="4" timestamp="2012-07-20T11:30:43Z" uid="722137" user="OSMF Redaction Account" changeset="12373346" lat="57.640556" lon="37.321389">
    <tag k="name" v="Поповка"/>
    <tag k="place" v="hamlet"/>
  </node>
  <node id="631523458" version="4" timestamp="2012-07-20T11:32:42Z" uid="722137" user="OSMF Redaction Account" changeset="12373404" lat="57.617222" lon="37.282222">
    <tag k="name" v="Федово"/>
    <tag k="place" v="hamlet"/>
  </node>
  <node id="631523473" version="5" timestamp="2012-07-20T11:30:55Z" uid="722137" user="OSMF Redaction Account" changeset="12373353" lat="57.65" lon="37.266667">
    <tag k="name" v="Горка Золотковская"/>
    <tag k="place" v="hamlet"/>
  </node>
  <node id="631523483" version="5" timestamp="2012-07-20T11:29:33Z" uid="722137" user="OSMF Redaction Account" changeset="12373298" lat="57.583333" lon="37.416667">
    <tag k="name" v="Никольское"/>
    <tag k="place" v="hamlet"/>
  </node>
  <node id="631523495" version="6" timestamp="2012-07-20T11:27:07Z" uid="722137" user="OSMF Redaction Account" changeset="12373237" lat="57.595556" lon="37.481389">
    <tag k="addr:city" v="Феневское сельское поселение"/>
    <tag k="addr:country" v="RU"/>
    <tag k="addr:district" v="Кесовогорский район"/>
    <tag k="addr:region" v="Тверская область"/>
    <tag k="cladr:code" v="6901300900800"/>
    <tag k="name" v="Брылино"/>
    <tag k="place" v="hamlet"/>
  </node>
  <node id="631523514" version="5" timestamp="2012-07-20T11:26:03Z" uid="722137" user="OSMF Redaction Account" changeset="12373214" lat="57.65" lon="37.45">
    <tag k="name" v="Порядино"/>
    <tag k="place" v="hamlet"/>
  </node>
  <node id="631523530" version="4" timestamp="2012-07-20T11:27:07Z" uid="722137" user="OSMF Redaction Account" changeset="12373237" lat="57.596389" lon="37.460556">
    <tag k="name" v="Карабузино"/>
    <tag k="place" v="hamlet"/>
  </node>
  <node id="631523601" version="5" timestamp="2012-07-20T11:30:55Z" uid="722137" user="OSMF Redaction Account" changeset="12373353" lat="57.686667" lon="37.261667">
    <tag k="addr:city" v="Кесовское сельское поселение"/>
    <tag k="addr:country" v="RU"/>
    <tag k="addr:district" v="Кесовогорский район"/>
    <tag k="addr:region" v="Тверская область"/>
    <tag k="cladr:code" v="6901301101400"/>
    <tag k="name" v="Золотково"/>
    <tag k="place" v="hamlet"/>
  </node>
  <node id="631523618" version="4" timestamp="2012-07-20T11:30:43Z" uid="722137" user="OSMF Redaction Account" changeset="12373346" lat="57.695556" lon="37.347222">
    <tag k="name" v="Васьянское"/>
    <tag k="place" v="hamlet"/>
  </node>
  <node id="631523629" version="4" timestamp="2012-07-20T11:26:33Z" uid="722137" user="OSMF Redaction Account" changeset="12373220" lat="57.679444" lon="37.376111">
    <tag k="name" v="Волосово"/>
    <tag k="place" v="hamlet"/>
  </node>
  <node id="631523655" version="4" timestamp="2012-07-20T11:30:44Z" uid="722137" user="OSMF Redaction Account" changeset="12373346" lat="57.732778" lon="37.336944">
    <tag k="name" v="Вепрь"/>
    <tag k="place" v="hamlet"/>
  </node>
  <node id="631523667" version="4" timestamp="2012-07-20T11:30:43Z" uid="722137" user="OSMF Redaction Account" changeset="12373346" lat="57.683333" lon="37.316667">
    <tag k="name" v="Власьево"/>
    <tag k="place" v="hamlet"/>
  </node>
  <node id="631523686" version="5" timestamp="2012-07-20T11:26:03Z" uid="722137" user="OSMF Redaction Account" changeset="12373214" lat="57.686667" lon="37.453889">
    <tag k="addr:city" v="Феневское сельское поселение"/>
    <tag k="addr:country" v="RU"/>
    <tag k="addr:district" v="Кесовогорский район"/>
    <tag k="addr:region" v="Тверская область"/>
    <tag k="cladr:code" v="6901300900100"/>
    <tag k="name" v="Лбово"/>
    <tag k="place" v="hamlet"/>
  </node>
  <node id="631523701" version="4" timestamp="2012-07-20T11:26:03Z" uid="722137" user="OSMF Redaction Account" changeset="12373214" lat="57.733333" lon="37.45">
    <tag k="name" v="Кобылино"/>
    <tag k="place" v="hamlet"/>
  </node>
  <node id="631528442" version="4" timestamp="2012-07-20T10:48:27Z" uid="722137" user="OSMF Redaction Account" changeset="12371750" lat="57.5125" lon="37.590556">
    <tag k="name" v="Петраково"/>
    <tag k="place" v="hamlet"/>
  </node>
  <node id="631528465" version="4" timestamp="2012-07-20T10:49:11Z" uid="722137" user="OSMF Redaction Account" changeset="12371765" lat="57.533333" lon="37.533333">
    <tag k="name" v="Павловское"/>
    <tag k="place" v="hamlet"/>
  </node>
  <node id="631528487" version="8" timestamp="2012-07-20T10:49:10Z" uid="722137" user="OSMF Redaction Account" changeset="12371765" lat="57.5" lon="37.55">
    <tag k="addr:city" v="Шепелевское сельское поселение"/>
    <tag k="addr:country" v="RU"/>
    <tag k="addr:district" v="Кашинский район"/>
    <tag k="addr:region" v="Тверская область"/>
    <tag k="cladr:code" v="6901202003100"/>
    <tag k="name" v="Кубасово"/>
    <tag k="place" v="hamlet"/>
  </node>
  <node id="631528507" version="4" timestamp="2012-07-20T10:49:11Z" uid="722137" user="OSMF Redaction Account" changeset="12371765" lat="57.554444" lon="37.508889">
    <tag k="name" v="Матвеевское"/>
    <tag k="place" v="hamlet"/>
  </node>
  <node id="631528538" version="5" timestamp="2012-07-20T10:47:43Z" uid="722137" user="OSMF Redaction Account" changeset="12371729" lat="57.625833" lon="37.564722">
    <tag k="name" v="Рождествено"/>
    <tag k="place" v="hamlet"/>
  </node>
  <node id="631528559" version="5" timestamp="2012-07-20T10:47:43Z" uid="722137" user="OSMF Redaction Account" changeset="12371729" lat="57.65" lon="37.566667">
    <tag k="name" v="Колыжино"/>
    <tag k="place" v="hamlet"/>
  </node>
  <node id="631528567" version="5" timestamp="2012-07-20T10:48:28Z" uid="722137" user="OSMF Redaction Account" changeset="12371750" lat="57.6" lon="37.616667">
    <tag k="name" v="Семёновская"/>
    <tag k="place" v="hamlet"/>
  </node>
  <node id="631528617" version="6" timestamp="2012-07-20T11:04:43Z" uid="722137" user="OSMF Redaction Account" changeset="12372254" lat="57.5" lon="37.733333">
    <tag k="addr:city" v="Шепелевское сельское поселение"/>
    <tag k="addr:country" v="RU"/>
    <tag k="addr:district" v="Кашинский район"/>
    <tag k="addr:region" v="Тверская область"/>
    <tag k="cladr:code" v="6901202002300"/>
    <tag k="name" v="Бурмакино"/>
    <tag k="place" v="hamlet"/>
  </node>
  <node id="631528631" version="7" timestamp="2012-07-20T10:44:18Z" uid="722137" user="OSMF Redaction Account" changeset="12371626" lat="57.516667" lon="37.75">
    <tag k="addr:city" v="Шепелевское сельское поселение"/>
    <tag k="addr:country" v="RU"/>
    <tag k="addr:district" v="Кашинский район"/>
    <tag k="addr:region" v="Тверская область"/>
    <tag k="cladr:code" v="6901202002000"/>
    <tag k="name" v="Шепели"/>
    <tag k="place" v="hamlet"/>
  </node>
  <node id="631528680" version="4" timestamp="2012-07-20T10:44:18Z" uid="722137" user="OSMF Redaction Account" changeset="12371626" lat="57.566667" lon="37.766667">
    <tag k="name" v="Зеленцово"/>
    <tag k="place" v="hamlet"/>
  </node>
  <node id="631528718" version="4" timestamp="2012-07-20T10:45:14Z" uid="722137" user="OSMF Redaction Account" changeset="12371649" lat="57.571667" lon="37.700556">
    <tag k="name" v="Данильцево"/>
    <tag k="place" v="hamlet"/>
  </node>
  <node id="631528745" version="6" timestamp="2012-07-20T10:46:32Z" uid="722137" user="OSMF Redaction Account" changeset="12371685" lat="57.616667" lon="37.633333">
    <tag k="addr:city" v="Феневское сельское поселение"/>
    <tag k="addr:country" v="RU"/>
    <tag k="addr:district" v="Кесовогорский район"/>
    <tag k="addr:region" v="Тверская область"/>
    <tag k="cladr:code" v="6901300901800"/>
    <tag k="name" v="Маурино"/>
    <tag k="place" v="hamlet"/>
  </node>
  <node id="631528769" version="5" timestamp="2012-07-20T10:46:31Z" uid="722137" user="OSMF Redaction Account" changeset="12371685" lat="57.616667" lon="37.666667">
    <tag k="name" v="Васильково"/>
    <tag k="place" v="hamlet"/>
  </node>
  <node id="631528835" version="7" timestamp="2012-07-20T10:44:18Z" uid="722137" user="OSMF Redaction Account" changeset="12371626" lat="57.566667" lon="37.8">
    <tag k="addr:city" v="Шепелевское сельское поселение"/>
    <tag k="addr:country" v="RU"/>
    <tag k="addr:district" v="Кашинский район"/>
    <tag k="addr:region" v="Тверская область"/>
    <tag k="cladr:code" v="6901202001400"/>
    <tag k="name" v="Непотягово"/>
    <tag k="place" v="hamlet"/>
  </node>
  <node id="631528851" version="5" timestamp="2012-07-20T10:47:43Z" uid="722137" user="OSMF Redaction Account" changeset="12371729" lat="57.7" lon="37.583333">
    <tag k="addr:city" v="Феневское сельское поселение"/>
    <tag k="addr:country" v="RU"/>
    <tag k="addr:district" v="Кесовогорский район"/>
    <tag k="addr:region" v="Тверская область"/>
    <tag k="cladr:code" v="6901300901500"/>
    <tag k="name" v="Лемехово"/>
    <tag k="place" v="hamlet"/>
  </node>
</osm>
